[{"key":"10071121","name":"Ackerweg","postalCode":"9472","locality":"Grabs","commune":{"key":"3273","name":"Grabs","shortName":"Grabs"},"district":{"key":"1724","name":"Wahlkreis Werdenberg"},"canton":{"key":"17","code":"SG","name":"St. Gallen"},"status":"Real"},{"key":"10032379","name":"Ahornweg","postalCode":"9472","locality":"Grabs","commune":{"key":"3273","name":"Grabs","shortName":"Grabs"},"district":{"key":"1724","name":"Wahlkreis Werdenberg"},"canton":{"key":"17","code":"SG","name":"St. Gallen"},"status":"Real"},{"key":"10032380","name":"Amadang","postalCode":"9472","locality":"Grabserberg","commune":{"key":"3273","name":"Grabs","shortName":"Grabs"},"district":{"key":"1724","name":"Wahlkreis Werdenberg"},"canton":{"key":"17","code":"SG","name":"St. Gallen"},"status":"Real"},{"key":"10234047","name":"Amadangstrasse","postalCode":"9472","locality":"Grabserberg","commune":{"key":"3273","name":"Grabs","shortName":"Grabs"},"district":{"key":"1724","name":"Wahlkreis Werdenberg"},"canton":{"key":"17","code":"SG","name":"St. Gallen"},"status":"Real"},{"key":"10234051","name":"Amadangweg","postalCode":"9472","locality":"Grabserberg","commune":{"key":"3273","name":"Grabs","shortName":"Grabs"},"district":{"key":"1724","name":"Wahlkreis Werdenberg"},"canton":{"key":"17","code":"SG","name":"St. Gallen"},"status":"Real"},{"key":"10181148","name":"Amaggusa","postalCode":"9472","locality":"Grabserberg","commune":{"key":"3273","name":"Grabs","shortName":"Grabs"},"district":{"key":"1724","name":"Wahlkreis Werdenberg"},"canton":{"key":"17","code":"SG","name":"St. Gallen"},"status":"Real"},{"key":"10227934","name":"Amaggusastrasse","postalCode":"9472","locality":"Grabserberg","commune":{"key":"3273","name":"Grabs","shortName":"Grabs"},"district":{"key":"1724","name":"Wahlkreis Werdenberg"},"canton":{"key":"17","code":"SG","name":"St. Gallen"},"status":"Real"},{"key":"10227938","name":"Amaggusaweg","postalCode":"9472","locality":"Grabserberg","commune":{"key":"3273","name":"Grabs","shortName":"Grabs"},"district":{"key":"1724","name":"Wahlkreis Werdenberg"},"canton":{"key":"17","code":"SG","name":"St. Gallen"},"status":"Real"},{"key":"10032030","name":"Amaschnun","postalCode":"9472","locality":"Grabserberg","commune":{"key":"3273","name":"Grabs","shortName":"Grabs"},"district":{"key":"1724","name":"Wahlkreis Werdenberg"},"canton":{"key":"17","code":"SG","name":"St. Gallen"},"status":"Real"},{"key":"10227942","name":"Amaschnunstrasse","postalCode":"9472","locality":"Grabserberg","commune":{"key":"3273","name":"Grabs","shortName":"Grabs"},"district":{"key":"1724","name":"Wahlkreis Werdenberg"},"canton":{"key":"17","code":"SG","name":"St. Gallen"},"status":"Real"},{"key":"10191989","name":"Amasis","postalCode":"9472","locality":"Grabs","commune":{"key":"3273","name":"Grabs","shortName":"Grabs"},"district":{"key":"1724","name":"Wahlkreis Werdenberg"},"canton":{"key":"17","code":"SG","name":"St. Gallen"},"status":"Real"},{"key":"10234746","name":"Amasisstrasse","postalCode":"9472","locality":"Grabs","commune":{"key":"3273","name":"Grabs","shortName":"Grabs"},"district":{"key":"1724","name":"Wahlkreis Werdenberg"},"canton":{"key":"17","code":"SG","name":"St. Gallen"},"status":"Real"},{"key":"10232024","name":"Amasisweg","postalCode":"9472","locality":"Grabs","commune":{"key":"3273","name":"Grabs","shortName":"Grabs"},"district":{"key":"1724","name":"Wahlkreis Werdenberg"},"canton":{"key":"17","code":"SG","name":"St. Gallen"},"status":"Real"},{"key":"10109432","name":"Amatnänn","postalCode":"9472","locality":"Grabserberg","commune":{"key":"3273","name":"Grabs","shortName":"Grabs"},"district":{"key":"1724","name":"Wahlkreis Werdenberg"},"canton":{"key":"17","code":"SG","name":"St. Gallen"},"status":"Real"},{"key":"10114516","name":"Amatüe","postalCode":"9472","locality":"Grabserberg","commune":{"key":"3273","name":"Grabs","shortName":"Grabs"},"district":{"key":"1724","name":"Wahlkreis Werdenberg"},"canton":{"key":"17","code":"SG","name":"St. Gallen"},"status":"Real"},{"key":"10232028","name":"Amatüegass","postalCode":"9472","locality":"Grabserberg","commune":{"key":"3273","name":"Grabs","shortName":"Grabs"},"district":{"key":"1724","name":"Wahlkreis Werdenberg"},"canton":{"key":"17","code":"SG","name":"St. Gallen"},"status":"Real"},{"key":"10232032","name":"Ampadeila","postalCode":"9472","locality":"Grabs","commune":{"key":"3273","name":"Grabs","shortName":"Grabs"},"district":{"key":"1724","name":"Wahlkreis Werdenberg"},"canton":{"key":"17","code":"SG","name":"St. Gallen"},"status":"Real"},{"key":"10232036","name":"Ampadeilaweg","postalCode":"9472","locality":"Grabs","commune":{"key":"3273","name":"Grabs","shortName":"Grabs"},"district":{"key":"1724","name":"Wahlkreis Werdenberg"},"canton":{"key":"17","code":"SG","name":"St. Gallen"},"status":"Real"},{"key":"10184680","name":"Ampadell","postalCode":"9472","locality":"Grabs","commune":{"key":"3273","name":"Grabs","shortName":"Grabs"},"district":{"key":"1724","name":"Wahlkreis Werdenberg"},"canton":{"key":"17","code":"SG","name":"St. Gallen"},"status":"Real"},{"key":"10059777","name":"Anggalrina","postalCode":"9472","locality":"Grabs","commune":{"key":"3273","name":"Grabs","shortName":"Grabs"},"district":{"key":"1724","name":"Wahlkreis Werdenberg"},"canton":{"key":"17","code":"SG","name":"St. Gallen"},"status":"Real"},{"key":"10059777","name":"Anggalrina","postalCode":"9472","locality":"Grabserberg","commune":{"key":"3273","name":"Grabs","shortName":"Grabs"},"district":{"key":"1724","name":"Wahlkreis Werdenberg"},"canton":{"key":"17","code":"SG","name":"St. Gallen"},"status":"Real"},{"key":"10249884","name":"Anggalrinastrasse","postalCode":"9472","locality":"Grabserberg","commune":{"key":"3273","name":"Grabs","shortName":"Grabs"},"district":{"key":"1724","name":"Wahlkreis Werdenberg"},"canton":{"key":"17","code":"SG","name":"St. Gallen"},"status":"Real"},{"key":"10232040","name":"Anggalrinaweg","postalCode":"9472","locality":"Grabs","commune":{"key":"3273","name":"Grabs","shortName":"Grabs"},"district":{"key":"1724","name":"Wahlkreis Werdenberg"},"canton":{"key":"17","code":"SG","name":"St. Gallen"},"status":"Real"},{"key":"10165956","name":"Anggapells","postalCode":"9472","locality":"Grabserberg","commune":{"key":"3273","name":"Grabs","shortName":"Grabs"},"district":{"key":"1724","name":"Wahlkreis Werdenberg"},"canton":{"key":"17","code":"SG","name":"St. Gallen"},"status":"Real"},{"key":"10232044","name":"Anggapellsweg","postalCode":"9472","locality":"Grabserberg","commune":{"key":"3273","name":"Grabs","shortName":"Grabs"},"district":{"key":"1724","name":"Wahlkreis Werdenberg"},"canton":{"key":"17","code":"SG","name":"St. Gallen"},"status":"Real"},{"key":"10227970","name":"Anstaltsweg","postalCode":"9472","locality":"Grabs","commune":{"key":"3273","name":"Grabs","shortName":"Grabs"},"district":{"key":"1724","name":"Wahlkreis Werdenberg"},"canton":{"key":"17","code":"SG","name":"St. Gallen"},"status":"Real"},{"key":"10093112","name":"Arvenweg","postalCode":"9472","locality":"Grabs","commune":{"key":"3273","name":"Grabs","shortName":"Grabs"},"district":{"key":"1724","name":"Wahlkreis Werdenberg"},"canton":{"key":"17","code":"SG","name":"St. Gallen"},"status":"Real"},{"key":"10032031","name":"Averschnära","postalCode":"9472","locality":"Grabserberg","commune":{"key":"3273","name":"Grabs","shortName":"Grabs"},"district":{"key":"1724","name":"Wahlkreis Werdenberg"},"canton":{"key":"17","code":"SG","name":"St. Gallen"},"status":"Real"},{"key":"10234104","name":"Bachbodenstrasse","postalCode":"9472","locality":"Grabserberg","commune":{"key":"3273","name":"Grabs","shortName":"Grabs"},"district":{"key":"1724","name":"Wahlkreis Werdenberg"},"canton":{"key":"17","code":"SG","name":"St. Gallen"},"status":"Real"},{"key":"10234108","name":"Bachbodenweg","postalCode":"9472","locality":"Grabserberg","commune":{"key":"3273","name":"Grabs","shortName":"Grabs"},"district":{"key":"1724","name":"Wahlkreis Werdenberg"},"canton":{"key":"17","code":"SG","name":"St. Gallen"},"status":"Real"},{"key":"10183088","name":"Bächli","postalCode":"9472","locality":"Grabserberg","commune":{"key":"3273","name":"Grabs","shortName":"Grabs"},"district":{"key":"1724","name":"Wahlkreis Werdenberg"},"canton":{"key":"17","code":"SG","name":"St. Gallen"},"status":"Real"},{"key":"10227987","name":"Bächli-Egg-Weg","postalCode":"9472","locality":"Grabserberg","commune":{"key":"3273","name":"Grabs","shortName":"Grabs"},"district":{"key":"1724","name":"Wahlkreis Werdenberg"},"canton":{"key":"17","code":"SG","name":"St. Gallen"},"status":"Real"},{"key":"10234794","name":"Bächlistrasse","postalCode":"9472","locality":"Grabserberg","commune":{"key":"3273","name":"Grabs","shortName":"Grabs"},"district":{"key":"1724","name":"Wahlkreis Werdenberg"},"canton":{"key":"17","code":"SG","name":"St. Gallen"},"status":"Real"},{"key":"10234798","name":"Bächliweg","postalCode":"9472","locality":"Grabserberg","commune":{"key":"3273","name":"Grabs","shortName":"Grabs"},"district":{"key":"1724","name":"Wahlkreis Werdenberg"},"canton":{"key":"17","code":"SG","name":"St. Gallen"},"status":"Real"},{"key":"10183075","name":"Bachweg","postalCode":"9472","locality":"Grabs","commune":{"key":"3273","name":"Grabs","shortName":"Grabs"},"district":{"key":"1724","name":"Wahlkreis Werdenberg"},"canton":{"key":"17","code":"SG","name":"St. Gallen"},"status":"Real"},{"key":"10032033","name":"Bädli","postalCode":"9472","locality":"Grabserberg","commune":{"key":"3273","name":"Grabs","shortName":"Grabs"},"district":{"key":"1724","name":"Wahlkreis Werdenberg"},"canton":{"key":"17","code":"SG","name":"St. Gallen"},"status":"Real"},{"key":"10196716","name":"Badweid","postalCode":"9472","locality":"Grabserberg","commune":{"key":"3273","name":"Grabs","shortName":"Grabs"},"district":{"key":"1724","name":"Wahlkreis Werdenberg"},"canton":{"key":"17","code":"SG","name":"St. Gallen"},"status":"Real"},{"key":"10234802","name":"Badweidstrasse","postalCode":"9472","locality":"Grabserberg","commune":{"key":"3273","name":"Grabs","shortName":"Grabs"},"district":{"key":"1724","name":"Wahlkreis Werdenberg"},"canton":{"key":"17","code":"SG","name":"St. Gallen"},"status":"Real"},{"key":"10234806","name":"Bahnweg","postalCode":"9472","locality":"Grabs","commune":{"key":"3273","name":"Grabs","shortName":"Grabs"},"district":{"key":"1724","name":"Wahlkreis Werdenberg"},"canton":{"key":"17","code":"SG","name":"St. Gallen"},"status":"Real"},{"key":"10125566","name":"Banholz","postalCode":"9472","locality":"Grabs","commune":{"key":"3273","name":"Grabs","shortName":"Grabs"},"district":{"key":"1724","name":"Wahlkreis Werdenberg"},"canton":{"key":"17","code":"SG","name":"St. Gallen"},"status":"Real"},{"key":"10232080","name":"Banholzgass","postalCode":"9472","locality":"Grabs","commune":{"key":"3273","name":"Grabs","shortName":"Grabs"},"district":{"key":"1724","name":"Wahlkreis Werdenberg"},"canton":{"key":"17","code":"SG","name":"St. Gallen"},"status":"Real"},{"key":"10071122","name":"Bannholzweg","postalCode":"9472","locality":"Grabs","commune":{"key":"3273","name":"Grabs","shortName":"Grabs"},"district":{"key":"1724","name":"Wahlkreis Werdenberg"},"canton":{"key":"17","code":"SG","name":"St. Gallen"},"status":"Real"},{"key":"10249893","name":"Banwald","postalCode":"9472","locality":"Grabs","commune":{"key":"3273","name":"Grabs","shortName":"Grabs"},"district":{"key":"1724","name":"Wahlkreis Werdenberg"},"canton":{"key":"17","code":"SG","name":"St. Gallen"},"status":"Real"},{"key":"10113043","name":"Bätzleregg","postalCode":"9472","locality":"Grabserberg","commune":{"key":"3273","name":"Grabs","shortName":"Grabs"},"district":{"key":"1724","name":"Wahlkreis Werdenberg"},"canton":{"key":"17","code":"SG","name":"St. Gallen"},"status":"Real"},{"key":"10232084","name":"Bätzlereggweg","postalCode":"9472","locality":"Grabserberg","commune":{"key":"3273","name":"Grabs","shortName":"Grabs"},"district":{"key":"1724","name":"Wahlkreis Werdenberg"},"canton":{"key":"17","code":"SG","name":"St. Gallen"},"status":"Real"},{"key":"10032381","name":"Belenbach","postalCode":"9472","locality":"Grabs","commune":{"key":"3273","name":"Grabs","shortName":"Grabs"},"district":{"key":"1724","name":"Wahlkreis Werdenberg"},"canton":{"key":"17","code":"SG","name":"St. Gallen"},"status":"Real"},{"key":"10234140","name":"Belenbachweg","postalCode":"9472","locality":"Grabs","commune":{"key":"3273","name":"Grabs","shortName":"Grabs"},"district":{"key":"1724","name":"Wahlkreis Werdenberg"},"canton":{"key":"17","code":"SG","name":"St. Gallen"},"status":"Real"},{"key":"10228020","name":"Berglitten","postalCode":"9472","locality":"Grabserberg","commune":{"key":"3273","name":"Grabs","shortName":"Grabs"},"district":{"key":"1724","name":"Wahlkreis Werdenberg"},"canton":{"key":"17","code":"SG","name":"St. Gallen"},"status":"Real"},{"key":"10093113","name":"Beuschenbüntstrasse","postalCode":"9472","locality":"Grabs","commune":{"key":"3273","name":"Grabs","shortName":"Grabs"},"district":{"key":"1724","name":"Wahlkreis Werdenberg"},"canton":{"key":"17","code":"SG","name":"St. Gallen"},"status":"Real"},{"key":"10032382","name":"Beuschenbüntweg","postalCode":"9472","locality":"Grabs","commune":{"key":"3273","name":"Grabs","shortName":"Grabs"},"district":{"key":"1724","name":"Wahlkreis Werdenberg"},"canton":{"key":"17","code":"SG","name":"St. Gallen"},"status":"Real"},{"key":"10032383","name":"Birkenweg","postalCode":"9472","locality":"Grabs","commune":{"key":"3273","name":"Grabs","shortName":"Grabs"},"district":{"key":"1724","name":"Wahlkreis Werdenberg"},"canton":{"key":"17","code":"SG","name":"St. Gallen"},"status":"Real"},{"key":"10122397","name":"Blumenweg","postalCode":"9472","locality":"Grabs","commune":{"key":"3273","name":"Grabs","shortName":"Grabs"},"district":{"key":"1724","name":"Wahlkreis Werdenberg"},"canton":{"key":"17","code":"SG","name":"St. Gallen"},"status":"Real"},{"key":"10071123","name":"Boden","postalCode":"9472","locality":"Grabserberg","commune":{"key":"3273","name":"Grabs","shortName":"Grabs"},"district":{"key":"1724","name":"Wahlkreis Werdenberg"},"canton":{"key":"17","code":"SG","name":"St. Gallen"},"status":"Real"},{"key":"10228024","name":"Boden-Egg-Weg","postalCode":"9472","locality":"Grabserberg","commune":{"key":"3273","name":"Grabs","shortName":"Grabs"},"district":{"key":"1724","name":"Wahlkreis Werdenberg"},"canton":{"key":"17","code":"SG","name":"St. Gallen"},"status":"Real"},{"key":"10228028","name":"Bodenweg","postalCode":"9472","locality":"Grabserberg","commune":{"key":"3273","name":"Grabs","shortName":"Grabs"},"district":{"key":"1724","name":"Wahlkreis Werdenberg"},"canton":{"key":"17","code":"SG","name":"St. Gallen"},"status":"Real"},{"key":"10228033","name":"Boggweidweg","postalCode":"9472","locality":"Grabserberg","commune":{"key":"3273","name":"Grabs","shortName":"Grabs"},"district":{"key":"1724","name":"Wahlkreis Werdenberg"},"canton":{"key":"17","code":"SG","name":"St. Gallen"},"status":"Real"},{"key":"10249899","name":"Bongert","postalCode":"9472","locality":"Grabserberg","commune":{"key":"3273","name":"Grabs","shortName":"Grabs"},"district":{"key":"1724","name":"Wahlkreis Werdenberg"},"canton":{"key":"17","code":"SG","name":"St. Gallen"},"status":"Real"},{"key":"10183076","name":"Bongertstrasse","postalCode":"9472","locality":"Grabs","commune":{"key":"3273","name":"Grabs","shortName":"Grabs"},"district":{"key":"1724","name":"Wahlkreis Werdenberg"},"canton":{"key":"17","code":"SG","name":"St. Gallen"},"status":"Real"},{"key":"10093114","name":"Boniweg","postalCode":"9472","locality":"Grabs","commune":{"key":"3273","name":"Grabs","shortName":"Grabs"},"district":{"key":"1724","name":"Wahlkreis Werdenberg"},"canton":{"key":"17","code":"SG","name":"St. Gallen"},"status":"Real"},{"key":"10032032","name":"Brand","postalCode":"9472","locality":"Grabserberg","commune":{"key":"3273","name":"Grabs","shortName":"Grabs"},"district":{"key":"1724","name":"Wahlkreis Werdenberg"},"canton":{"key":"17","code":"SG","name":"St. Gallen"},"status":"Real"},{"key":"10228037","name":"Brandbühelweg","postalCode":"9472","locality":"Grabserberg","commune":{"key":"3273","name":"Grabs","shortName":"Grabs"},"district":{"key":"1724","name":"Wahlkreis Werdenberg"},"canton":{"key":"17","code":"SG","name":"St. Gallen"},"status":"Real"},{"key":"10059778","name":"Brennerswis","postalCode":"9472","locality":"Grabs","commune":{"key":"3273","name":"Grabs","shortName":"Grabs"},"district":{"key":"1724","name":"Wahlkreis Werdenberg"},"canton":{"key":"17","code":"SG","name":"St. Gallen"},"status":"Real"},{"key":"10228041","name":"Brennerswisweg","postalCode":"9472","locality":"Grabs","commune":{"key":"3273","name":"Grabs","shortName":"Grabs"},"district":{"key":"1724","name":"Wahlkreis Werdenberg"},"canton":{"key":"17","code":"SG","name":"St. Gallen"},"status":"Real"},{"key":"10093142","name":"Brüch","postalCode":"9472","locality":"Grabserberg","commune":{"key":"3273","name":"Grabs","shortName":"Grabs"},"district":{"key":"1724","name":"Wahlkreis Werdenberg"},"canton":{"key":"17","code":"SG","name":"St. Gallen"},"status":"Real"},{"key":"10228045","name":"Brüchweg","postalCode":"9472","locality":"Grabserberg","commune":{"key":"3273","name":"Grabs","shortName":"Grabs"},"district":{"key":"1724","name":"Wahlkreis Werdenberg"},"canton":{"key":"17","code":"SG","name":"St. Gallen"},"status":"Real"},{"key":"10032385","name":"Bruggbach","postalCode":"9472","locality":"Grabserberg","commune":{"key":"3273","name":"Grabs","shortName":"Grabs"},"district":{"key":"1724","name":"Wahlkreis Werdenberg"},"canton":{"key":"17","code":"SG","name":"St. Gallen"},"status":"Real"},{"key":"10102219","name":"Buchenweg","postalCode":"9472","locality":"Grabs","commune":{"key":"3273","name":"Grabs","shortName":"Grabs"},"district":{"key":"1724","name":"Wahlkreis Werdenberg"},"canton":{"key":"17","code":"SG","name":"St. Gallen"},"status":"Real"},{"key":"10032386","name":"Buechen","postalCode":"9472","locality":"Grabserberg","commune":{"key":"3273","name":"Grabs","shortName":"Grabs"},"district":{"key":"1724","name":"Wahlkreis Werdenberg"},"canton":{"key":"17","code":"SG","name":"St. Gallen"},"status":"Real"},{"key":"10032387","name":"Buechrüti","postalCode":"9472","locality":"Grabs","commune":{"key":"3273","name":"Grabs","shortName":"Grabs"},"district":{"key":"1724","name":"Wahlkreis Werdenberg"},"canton":{"key":"17","code":"SG","name":"St. Gallen"},"status":"Real"},{"key":"10228049","name":"Buechrütiweg","postalCode":"9472","locality":"Grabs","commune":{"key":"3273","name":"Grabs","shortName":"Grabs"},"district":{"key":"1724","name":"Wahlkreis Werdenberg"},"canton":{"key":"17","code":"SG","name":"St. Gallen"},"status":"Real"},{"key":"10251249","name":"Büel","postalCode":"9472","locality":"Grabs","commune":{"key":"3273","name":"Grabs","shortName":"Grabs"},"district":{"key":"1724","name":"Wahlkreis Werdenberg"},"canton":{"key":"17","code":"SG","name":"St. Gallen"},"status":"Real"},{"key":"10250917","name":"Büel","postalCode":"9472","locality":"Grabserberg","commune":{"key":"3273","name":"Grabs","shortName":"Grabs"},"district":{"key":"1724","name":"Wahlkreis Werdenberg"},"canton":{"key":"17","code":"SG","name":"St. Gallen"},"status":"Real"},{"key":"10228053","name":"Büelersweg","postalCode":"9472","locality":"Grabs","commune":{"key":"3273","name":"Grabs","shortName":"Grabs"},"district":{"key":"1724","name":"Wahlkreis Werdenberg"},"canton":{"key":"17","code":"SG","name":"St. Gallen"},"status":"Real"},{"key":"10228057","name":"Büelweg","postalCode":"9472","locality":"Grabserberg","commune":{"key":"3273","name":"Grabs","shortName":"Grabs"},"district":{"key":"1724","name":"Wahlkreis Werdenberg"},"canton":{"key":"17","code":"SG","name":"St. Gallen"},"status":"Real"},{"key":"10071412","name":"Bufel","postalCode":"9472","locality":"Grabserberg","commune":{"key":"3273","name":"Grabs","shortName":"Grabs"},"district":{"key":"1724","name":"Wahlkreis Werdenberg"},"canton":{"key":"17","code":"SG","name":"St. Gallen"},"status":"Real"},{"key":"10228061","name":"Bufelweg","postalCode":"9472","locality":"Grabserberg","commune":{"key":"3273","name":"Grabs","shortName":"Grabs"},"district":{"key":"1724","name":"Wahlkreis Werdenberg"},"canton":{"key":"17","code":"SG","name":"St. Gallen"},"status":"Real"},{"key":"10093143","name":"Bühel","postalCode":"9472","locality":"Grabserberg","commune":{"key":"3273","name":"Grabs","shortName":"Grabs"},"district":{"key":"1724","name":"Wahlkreis Werdenberg"},"canton":{"key":"17","code":"SG","name":"St. Gallen"},"status":"Real"},{"key":"10232136","name":"Bühelweg","postalCode":"9472","locality":"Grabs","commune":{"key":"3273","name":"Grabs","shortName":"Grabs"},"district":{"key":"1724","name":"Wahlkreis Werdenberg"},"canton":{"key":"17","code":"SG","name":"St. Gallen"},"status":"Real"},{"key":"10194616","name":"Chalchofen","postalCode":"9472","locality":"Grabserberg","commune":{"key":"3273","name":"Grabs","shortName":"Grabs"},"district":{"key":"1724","name":"Wahlkreis Werdenberg"},"canton":{"key":"17","code":"SG","name":"St. Gallen"},"status":"Real"},{"key":"10223974","name":"Chalchofenstrasse","postalCode":"9472","locality":"Grabserberg","commune":{"key":"3273","name":"Grabs","shortName":"Grabs"},"district":{"key":"1724","name":"Wahlkreis Werdenberg"},"canton":{"key":"17","code":"SG","name":"St. Gallen"},"status":"Real"},{"key":"10223978","name":"Chalchofenweg","postalCode":"9472","locality":"Grabserberg","commune":{"key":"3273","name":"Grabs","shortName":"Grabs"},"district":{"key":"1724","name":"Wahlkreis Werdenberg"},"canton":{"key":"17","code":"SG","name":"St. Gallen"},"status":"Real"},{"key":"10195447","name":"Chaltenbach","postalCode":"9472","locality":"Grabserberg","commune":{"key":"3273","name":"Grabs","shortName":"Grabs"},"district":{"key":"1724","name":"Wahlkreis Werdenberg"},"canton":{"key":"17","code":"SG","name":"St. Gallen"},"status":"Real"},{"key":"10223982","name":"Chaltenbachstrasse","postalCode":"9472","locality":"Grabserberg","commune":{"key":"3273","name":"Grabs","shortName":"Grabs"},"district":{"key":"1724","name":"Wahlkreis Werdenberg"},"canton":{"key":"17","code":"SG","name":"St. Gallen"},"status":"Real"},{"key":"10197012","name":"Chalthusweid","postalCode":"9472","locality":"Grabserberg","commune":{"key":"3273","name":"Grabs","shortName":"Grabs"},"district":{"key":"1724","name":"Wahlkreis Werdenberg"},"canton":{"key":"17","code":"SG","name":"St. Gallen"},"status":"Real"},{"key":"10032034","name":"Chappeli","postalCode":"9472","locality":"Grabserberg","commune":{"key":"3273","name":"Grabs","shortName":"Grabs"},"district":{"key":"1724","name":"Wahlkreis Werdenberg"},"canton":{"key":"17","code":"SG","name":"St. Gallen"},"status":"Real"},{"key":"10223986","name":"Chappelistrasse","postalCode":"9472","locality":"Grabserberg","commune":{"key":"3273","name":"Grabs","shortName":"Grabs"},"district":{"key":"1724","name":"Wahlkreis Werdenberg"},"canton":{"key":"17","code":"SG","name":"St. Gallen"},"status":"Real"},{"key":"10223990","name":"Chappeliweg","postalCode":"9472","locality":"Grabserberg","commune":{"key":"3273","name":"Grabs","shortName":"Grabs"},"district":{"key":"1724","name":"Wahlkreis Werdenberg"},"canton":{"key":"17","code":"SG","name":"St. Gallen"},"status":"Real"},{"key":"10223994","name":"Chäserruggweg","postalCode":"9472","locality":"Grabserberg","commune":{"key":"3273","name":"Grabs","shortName":"Grabs"},"district":{"key":"1724","name":"Wahlkreis Werdenberg"},"canton":{"key":"17","code":"SG","name":"St. Gallen"},"status":"Real"},{"key":"10228638","name":"Chelenwaldweg","postalCode":"9472","locality":"Grabserberg","commune":{"key":"3273","name":"Grabs","shortName":"Grabs"},"district":{"key":"1724","name":"Wahlkreis Werdenberg"},"canton":{"key":"17","code":"SG","name":"St. Gallen"},"status":"Real"},{"key":"10224002","name":"Chemmigrindweg","postalCode":"9472","locality":"Grabserberg","commune":{"key":"3273","name":"Grabs","shortName":"Grabs"},"district":{"key":"1724","name":"Wahlkreis Werdenberg"},"canton":{"key":"17","code":"SG","name":"St. Gallen"},"status":"Real"},{"key":"10103503","name":"Chläuser","postalCode":"9472","locality":"Grabserberg","commune":{"key":"3273","name":"Grabs","shortName":"Grabs"},"district":{"key":"1724","name":"Wahlkreis Werdenberg"},"canton":{"key":"17","code":"SG","name":"St. Gallen"},"status":"Real"},{"key":"10224006","name":"Chölerweg","postalCode":"9472","locality":"Grabs","commune":{"key":"3273","name":"Grabs","shortName":"Grabs"},"district":{"key":"1724","name":"Wahlkreis Werdenberg"},"canton":{"key":"17","code":"SG","name":"St. Gallen"},"status":"Real"},{"key":"10224010","name":"Christenschnüerli","postalCode":"9472","locality":"Grabserberg","commune":{"key":"3273","name":"Grabs","shortName":"Grabs"},"district":{"key":"1724","name":"Wahlkreis Werdenberg"},"canton":{"key":"17","code":"SG","name":"St. Gallen"},"status":"Real"},{"key":"10197016","name":"Chrostobel","postalCode":"9472","locality":"Grabserberg","commune":{"key":"3273","name":"Grabs","shortName":"Grabs"},"district":{"key":"1724","name":"Wahlkreis Werdenberg"},"canton":{"key":"17","code":"SG","name":"St. Gallen"},"status":"Real"},{"key":"10249916","name":"Chrumenagger","postalCode":"9472","locality":"Grabs","commune":{"key":"3273","name":"Grabs","shortName":"Grabs"},"district":{"key":"1724","name":"Wahlkreis Werdenberg"},"canton":{"key":"17","code":"SG","name":"St. Gallen"},"status":"Real"},{"key":"10224014","name":"Chrüzweg","postalCode":"9472","locality":"Grabserberg","commune":{"key":"3273","name":"Grabs","shortName":"Grabs"},"district":{"key":"1724","name":"Wahlkreis Werdenberg"},"canton":{"key":"17","code":"SG","name":"St. Gallen"},"status":"Real"},{"key":"10232232","name":"Chüegass","postalCode":"9472","locality":"Grabs","commune":{"key":"3273","name":"Grabs","shortName":"Grabs"},"district":{"key":"1724","name":"Wahlkreis Werdenberg"},"canton":{"key":"17","code":"SG","name":"St. Gallen"},"status":"Real"},{"key":"10232232","name":"Chüegass","postalCode":"9472","locality":"Grabserberg","commune":{"key":"3273","name":"Grabs","shortName":"Grabs"},"district":{"key":"1724","name":"Wahlkreis Werdenberg"},"canton":{"key":"17","code":"SG","name":"St. Gallen"},"status":"Real"},{"key":"10232236","name":"Chüetolenweg","postalCode":"9472","locality":"Grabserberg","commune":{"key":"3273","name":"Grabs","shortName":"Grabs"},"district":{"key":"1724","name":"Wahlkreis Werdenberg"},"canton":{"key":"17","code":"SG","name":"St. Gallen"},"status":"Real"},{"key":"10071414","name":"Dachsweg","postalCode":"9472","locality":"Grabs","commune":{"key":"3273","name":"Grabs","shortName":"Grabs"},"district":{"key":"1724","name":"Wahlkreis Werdenberg"},"canton":{"key":"17","code":"SG","name":"St. Gallen"},"status":"Real"},{"key":"10197640","name":"Dahlienweg","postalCode":"9472","locality":"Grabs","commune":{"key":"3273","name":"Grabs","shortName":"Grabs"},"district":{"key":"1724","name":"Wahlkreis Werdenberg"},"canton":{"key":"17","code":"SG","name":"St. Gallen"},"status":"Real"},{"key":"10232240","name":"Dammweg","postalCode":"9472","locality":"Grabs","commune":{"key":"3273","name":"Grabs","shortName":"Grabs"},"district":{"key":"1724","name":"Wahlkreis Werdenberg"},"canton":{"key":"17","code":"SG","name":"St. Gallen"},"status":"Real"},{"key":"10249923","name":"Dorfengraben","postalCode":"9472","locality":"Grabs","commune":{"key":"3273","name":"Grabs","shortName":"Grabs"},"district":{"key":"1724","name":"Wahlkreis Werdenberg"},"canton":{"key":"17","code":"SG","name":"St. Gallen"},"status":"Real"},{"key":"10232244","name":"Dorfengrabenfussweg","postalCode":"9472","locality":"Grabs","commune":{"key":"3273","name":"Grabs","shortName":"Grabs"},"district":{"key":"1724","name":"Wahlkreis Werdenberg"},"canton":{"key":"17","code":"SG","name":"St. Gallen"},"status":"Real"},{"key":"10113037","name":"Dorfengrabenstrasse","postalCode":"9472","locality":"Grabs","commune":{"key":"3273","name":"Grabs","shortName":"Grabs"},"district":{"key":"1724","name":"Wahlkreis Werdenberg"},"canton":{"key":"17","code":"SG","name":"St. Gallen"},"status":"Real"},{"key":"10032388","name":"Dorfschulweg","postalCode":"9472","locality":"Grabs","commune":{"key":"3273","name":"Grabs","shortName":"Grabs"},"district":{"key":"1724","name":"Wahlkreis Werdenberg"},"canton":{"key":"17","code":"SG","name":"St. Gallen"},"status":"Real"},{"key":"10184681","name":"Dorfstrasse","postalCode":"9472","locality":"Grabs","commune":{"key":"3273","name":"Grabs","shortName":"Grabs"},"district":{"key":"1724","name":"Wahlkreis Werdenberg"},"canton":{"key":"17","code":"SG","name":"St. Gallen"},"status":"Real"},{"key":"10032389","name":"Dörrereiweg","postalCode":"9472","locality":"Grabs","commune":{"key":"3273","name":"Grabs","shortName":"Grabs"},"district":{"key":"1724","name":"Wahlkreis Werdenberg"},"canton":{"key":"17","code":"SG","name":"St. Gallen"},"status":"Real"},{"key":"10118067","name":"Egg","postalCode":"9472","locality":"Grabs","commune":{"key":"3273","name":"Grabs","shortName":"Grabs"},"district":{"key":"1724","name":"Wahlkreis Werdenberg"},"canton":{"key":"17","code":"SG","name":"St. Gallen"},"status":"Real"},{"key":"10032390","name":"Eggenberg","postalCode":"9472","locality":"Grabserberg","commune":{"key":"3273","name":"Grabs","shortName":"Grabs"},"district":{"key":"1724","name":"Wahlkreis Werdenberg"},"canton":{"key":"17","code":"SG","name":"St. Gallen"},"status":"Real"},{"key":"10232252","name":"Eggenberg-Amaggusa-Weg","postalCode":"9472","locality":"Grabserberg","commune":{"key":"3273","name":"Grabs","shortName":"Grabs"},"district":{"key":"1724","name":"Wahlkreis Werdenberg"},"canton":{"key":"17","code":"SG","name":"St. Gallen"},"status":"Real"},{"key":"10232256","name":"Eggenbergstrasse","postalCode":"9472","locality":"Grabserberg","commune":{"key":"3273","name":"Grabs","shortName":"Grabs"},"district":{"key":"1724","name":"Wahlkreis Werdenberg"},"canton":{"key":"17","code":"SG","name":"St. Gallen"},"status":"Real"},{"key":"10232260","name":"Eggenbergweg","postalCode":"9472","locality":"Grabserberg","commune":{"key":"3273","name":"Grabs","shortName":"Grabs"},"district":{"key":"1724","name":"Wahlkreis Werdenberg"},"canton":{"key":"17","code":"SG","name":"St. Gallen"},"status":"Real"},{"key":"10071415","name":"Eggli","postalCode":"9472","locality":"Grabserberg","commune":{"key":"3273","name":"Grabs","shortName":"Grabs"},"district":{"key":"1724","name":"Wahlkreis Werdenberg"},"canton":{"key":"17","code":"SG","name":"St. Gallen"},"status":"Real"},{"key":"10250704","name":"Eichenaustrasse","postalCode":"9472","locality":"Grabs","commune":{"key":"3273","name":"Grabs","shortName":"Grabs"},"district":{"key":"1724","name":"Wahlkreis Werdenberg"},"canton":{"key":"17","code":"SG","name":"St. Gallen"},"status":"Real"},{"key":"10093116","name":"Eichenweg","postalCode":"9472","locality":"Grabs","commune":{"key":"3273","name":"Grabs","shortName":"Grabs"},"district":{"key":"1724","name":"Wahlkreis Werdenberg"},"canton":{"key":"17","code":"SG","name":"St. Gallen"},"status":"Real"},{"key":"10183077","name":"Eichhof","postalCode":"9472","locality":"Grabs","commune":{"key":"3273","name":"Grabs","shortName":"Grabs"},"district":{"key":"1724","name":"Wahlkreis Werdenberg"},"canton":{"key":"17","code":"SG","name":"St. Gallen"},"status":"Real"},{"key":"10224060","name":"Eichhofweg","postalCode":"9472","locality":"Grabs","commune":{"key":"3273","name":"Grabs","shortName":"Grabs"},"district":{"key":"1724","name":"Wahlkreis Werdenberg"},"canton":{"key":"17","code":"SG","name":"St. Gallen"},"status":"Real"},{"key":"10224063","name":"Eichstoggweg","postalCode":"9472","locality":"Grabs","commune":{"key":"3273","name":"Grabs","shortName":"Grabs"},"district":{"key":"1724","name":"Wahlkreis Werdenberg"},"canton":{"key":"17","code":"SG","name":"St. Gallen"},"status":"Real"},{"key":"10224066","name":"Einfangrietweg","postalCode":"9472","locality":"Grabs","commune":{"key":"3273","name":"Grabs","shortName":"Grabs"},"district":{"key":"1724","name":"Wahlkreis Werdenberg"},"canton":{"key":"17","code":"SG","name":"St. Gallen"},"status":"Real"},{"key":"10232284","name":"Engiboden","postalCode":"9472","locality":"Grabserberg","commune":{"key":"3273","name":"Grabs","shortName":"Grabs"},"district":{"key":"1724","name":"Wahlkreis Werdenberg"},"canton":{"key":"17","code":"SG","name":"St. Gallen"},"status":"Real"},{"key":"10228714","name":"Engisteinweg","postalCode":"9472","locality":"Grabserberg","commune":{"key":"3273","name":"Grabs","shortName":"Grabs"},"district":{"key":"1724","name":"Wahlkreis Werdenberg"},"canton":{"key":"17","code":"SG","name":"St. Gallen"},"status":"Real"},{"key":"10228718","name":"Engiweg","postalCode":"9472","locality":"Grabserberg","commune":{"key":"3273","name":"Grabs","shortName":"Grabs"},"district":{"key":"1724","name":"Wahlkreis Werdenberg"},"canton":{"key":"17","code":"SG","name":"St. Gallen"},"status":"Real"},{"key":"10249937","name":"Erlen","postalCode":"9472","locality":"Grabs","commune":{"key":"3273","name":"Grabs","shortName":"Grabs"},"district":{"key":"1724","name":"Wahlkreis Werdenberg"},"canton":{"key":"17","code":"SG","name":"St. Gallen"},"status":"Real"},{"key":"10228722","name":"Erlenbodenweg","postalCode":"9472","locality":"Grabs","commune":{"key":"3273","name":"Grabs","shortName":"Grabs"},"district":{"key":"1724","name":"Wahlkreis Werdenberg"},"canton":{"key":"17","code":"SG","name":"St. Gallen"},"status":"Real"},{"key":"10194604","name":"Erlenbodenweid","postalCode":"9472","locality":"Grabs","commune":{"key":"3273","name":"Grabs","shortName":"Grabs"},"district":{"key":"1724","name":"Wahlkreis Werdenberg"},"canton":{"key":"17","code":"SG","name":"St. Gallen"},"status":"Real"},{"key":"10102220","name":"Erlenhof","postalCode":"9472","locality":"Grabs","commune":{"key":"3273","name":"Grabs","shortName":"Grabs"},"district":{"key":"1724","name":"Wahlkreis Werdenberg"},"canton":{"key":"17","code":"SG","name":"St. Gallen"},"status":"Real"},{"key":"10249945","name":"Eschboden","postalCode":"9472","locality":"Grabserberg","commune":{"key":"3273","name":"Grabs","shortName":"Grabs"},"district":{"key":"1724","name":"Wahlkreis Werdenberg"},"canton":{"key":"17","code":"SG","name":"St. Gallen"},"status":"Real"},{"key":"10032391","name":"Fabrikstrasse","postalCode":"9472","locality":"Grabs","commune":{"key":"3273","name":"Grabs","shortName":"Grabs"},"district":{"key":"1724","name":"Wahlkreis Werdenberg"},"canton":{"key":"17","code":"SG","name":"St. Gallen"},"status":"Real"},{"key":"10118256","name":"Feldblockweg","postalCode":"9472","locality":"Grabs","commune":{"key":"3273","name":"Grabs","shortName":"Grabs"},"district":{"key":"1724","name":"Wahlkreis Werdenberg"},"canton":{"key":"17","code":"SG","name":"St. Gallen"},"status":"Real"},{"key":"10071416","name":"Feldhofgasse","postalCode":"9472","locality":"Grabs","commune":{"key":"3273","name":"Grabs","shortName":"Grabs"},"district":{"key":"1724","name":"Wahlkreis Werdenberg"},"canton":{"key":"17","code":"SG","name":"St. Gallen"},"status":"Real"},{"key":"10130711","name":"Feldhofweg","postalCode":"9472","locality":"Grabs","commune":{"key":"3273","name":"Grabs","shortName":"Grabs"},"district":{"key":"1724","name":"Wahlkreis Werdenberg"},"canton":{"key":"17","code":"SG","name":"St. Gallen"},"status":"Real"},{"key":"10159163","name":"Feldstrasse","postalCode":"9472","locality":"Grabs","commune":{"key":"3273","name":"Grabs","shortName":"Grabs"},"district":{"key":"1724","name":"Wahlkreis Werdenberg"},"canton":{"key":"17","code":"SG","name":"St. Gallen"},"status":"Real"},{"key":"10032392","name":"Feldweg","postalCode":"9472","locality":"Grabs","commune":{"key":"3273","name":"Grabs","shortName":"Grabs"},"district":{"key":"1724","name":"Wahlkreis Werdenberg"},"canton":{"key":"17","code":"SG","name":"St. Gallen"},"status":"Real"},{"key":"10032393","name":"Fichtenstrasse","postalCode":"9472","locality":"Grabs","commune":{"key":"3273","name":"Grabs","shortName":"Grabs"},"district":{"key":"1724","name":"Wahlkreis Werdenberg"},"canton":{"key":"17","code":"SG","name":"St. Gallen"},"status":"Real"},{"key":"10228726","name":"Fichtenweg","postalCode":"9472","locality":"Grabs","commune":{"key":"3273","name":"Grabs","shortName":"Grabs"},"district":{"key":"1724","name":"Wahlkreis Werdenberg"},"canton":{"key":"17","code":"SG","name":"St. Gallen"},"status":"Real"},{"key":"10032035","name":"Fingg","postalCode":"9472","locality":"Grabserberg","commune":{"key":"3273","name":"Grabs","shortName":"Grabs"},"district":{"key":"1724","name":"Wahlkreis Werdenberg"},"canton":{"key":"17","code":"SG","name":"St. Gallen"},"status":"Real"},{"key":"10249953","name":"Finggenegg","postalCode":"9472","locality":"Grabserberg","commune":{"key":"3273","name":"Grabs","shortName":"Grabs"},"district":{"key":"1724","name":"Wahlkreis Werdenberg"},"canton":{"key":"17","code":"SG","name":"St. Gallen"},"status":"Real"},{"key":"10032394","name":"First","postalCode":"9472","locality":"Grabs","commune":{"key":"3273","name":"Grabs","shortName":"Grabs"},"district":{"key":"1724","name":"Wahlkreis Werdenberg"},"canton":{"key":"17","code":"SG","name":"St. Gallen"},"status":"Real"},{"key":"10228730","name":"Firststrasse","postalCode":"9472","locality":"Grabs","commune":{"key":"3273","name":"Grabs","shortName":"Grabs"},"district":{"key":"1724","name":"Wahlkreis Werdenberg"},"canton":{"key":"17","code":"SG","name":"St. Gallen"},"status":"Real"},{"key":"10228734","name":"Firstweg","postalCode":"9472","locality":"Grabs","commune":{"key":"3273","name":"Grabs","shortName":"Grabs"},"district":{"key":"1724","name":"Wahlkreis Werdenberg"},"canton":{"key":"17","code":"SG","name":"St. Gallen"},"status":"Real"},{"key":"10228734","name":"Firstweg","postalCode":"9472","locality":"Grabserberg","commune":{"key":"3273","name":"Grabs","shortName":"Grabs"},"district":{"key":"1724","name":"Wahlkreis Werdenberg"},"canton":{"key":"17","code":"SG","name":"St. Gallen"},"status":"Real"},{"key":"10071417","name":"Flammer","postalCode":"9472","locality":"Grabserberg","commune":{"key":"3273","name":"Grabs","shortName":"Grabs"},"district":{"key":"1724","name":"Wahlkreis Werdenberg"},"canton":{"key":"17","code":"SG","name":"St. Gallen"},"status":"Real"},{"key":"10228738","name":"Flammerweg","postalCode":"9472","locality":"Grabserberg","commune":{"key":"3273","name":"Grabs","shortName":"Grabs"},"district":{"key":"1724","name":"Wahlkreis Werdenberg"},"canton":{"key":"17","code":"SG","name":"St. Gallen"},"status":"Real"},{"key":"10093117","name":"Flerweid","postalCode":"9472","locality":"Grabserberg","commune":{"key":"3273","name":"Grabs","shortName":"Grabs"},"district":{"key":"1724","name":"Wahlkreis Werdenberg"},"canton":{"key":"17","code":"SG","name":"St. Gallen"},"status":"Real"},{"key":"10249960","name":"Flerweidstrasse","postalCode":"9472","locality":"Grabserberg","commune":{"key":"3273","name":"Grabs","shortName":"Grabs"},"district":{"key":"1724","name":"Wahlkreis Werdenberg"},"canton":{"key":"17","code":"SG","name":"St. Gallen"},"status":"Real"},{"key":"10183078","name":"Flurweg","postalCode":"9472","locality":"Grabs","commune":{"key":"3273","name":"Grabs","shortName":"Grabs"},"district":{"key":"1724","name":"Wahlkreis Werdenberg"},"canton":{"key":"17","code":"SG","name":"St. Gallen"},"status":"Real"},{"key":"10130434","name":"Fohlenstrasse","postalCode":"9472","locality":"Grabs","commune":{"key":"3273","name":"Grabs","shortName":"Grabs"},"district":{"key":"1724","name":"Wahlkreis Werdenberg"},"canton":{"key":"17","code":"SG","name":"St. Gallen"},"status":"Real"},{"key":"10228742","name":"Fohlenweg","postalCode":"9472","locality":"Grabs","commune":{"key":"3273","name":"Grabs","shortName":"Grabs"},"district":{"key":"1724","name":"Wahlkreis Werdenberg"},"canton":{"key":"17","code":"SG","name":"St. Gallen"},"status":"Real"},{"key":"10032395","name":"Föhrenweg","postalCode":"9472","locality":"Grabs","commune":{"key":"3273","name":"Grabs","shortName":"Grabs"},"district":{"key":"1724","name":"Wahlkreis Werdenberg"},"canton":{"key":"17","code":"SG","name":"St. Gallen"},"status":"Real"},{"key":"10071418","name":"Forst","postalCode":"9472","locality":"Grabs","commune":{"key":"3273","name":"Grabs","shortName":"Grabs"},"district":{"key":"1724","name":"Wahlkreis Werdenberg"},"canton":{"key":"17","code":"SG","name":"St. Gallen"},"status":"Real"},{"key":"10032396","name":"Försterweg","postalCode":"9472","locality":"Grabs","commune":{"key":"3273","name":"Grabs","shortName":"Grabs"},"district":{"key":"1724","name":"Wahlkreis Werdenberg"},"canton":{"key":"17","code":"SG","name":"St. Gallen"},"status":"Real"},{"key":"10228745","name":"Forstgass","postalCode":"9472","locality":"Grabs","commune":{"key":"3273","name":"Grabs","shortName":"Grabs"},"district":{"key":"1724","name":"Wahlkreis Werdenberg"},"canton":{"key":"17","code":"SG","name":"St. Gallen"},"status":"Real"},{"key":"10228745","name":"Forstgass","postalCode":"9472","locality":"Grabserberg","commune":{"key":"3273","name":"Grabs","shortName":"Grabs"},"district":{"key":"1724","name":"Wahlkreis Werdenberg"},"canton":{"key":"17","code":"SG","name":"St. Gallen"},"status":"Real"},{"key":"10228749","name":"Forststrasse","postalCode":"9472","locality":"Grabs","commune":{"key":"3273","name":"Grabs","shortName":"Grabs"},"district":{"key":"1724","name":"Wahlkreis Werdenberg"},"canton":{"key":"17","code":"SG","name":"St. Gallen"},"status":"Real"},{"key":"10228753","name":"Forstweg","postalCode":"9472","locality":"Grabs","commune":{"key":"3273","name":"Grabs","shortName":"Grabs"},"district":{"key":"1724","name":"Wahlkreis Werdenberg"},"canton":{"key":"17","code":"SG","name":"St. Gallen"},"status":"Real"},{"key":"10059779","name":"Friggs","postalCode":"9472","locality":"Grabs","commune":{"key":"3273","name":"Grabs","shortName":"Grabs"},"district":{"key":"1724","name":"Wahlkreis Werdenberg"},"canton":{"key":"17","code":"SG","name":"St. Gallen"},"status":"Real"},{"key":"10228757","name":"Friggsweg","postalCode":"9472","locality":"Grabs","commune":{"key":"3273","name":"Grabs","shortName":"Grabs"},"district":{"key":"1724","name":"Wahlkreis Werdenberg"},"canton":{"key":"17","code":"SG","name":"St. Gallen"},"status":"Real"},{"key":"10228757","name":"Friggsweg","postalCode":"9472","locality":"Grabserberg","commune":{"key":"3273","name":"Grabs","shortName":"Grabs"},"district":{"key":"1724","name":"Wahlkreis Werdenberg"},"canton":{"key":"17","code":"SG","name":"St. Gallen"},"status":"Real"},{"key":"10228762","name":"Fulenbachweg","postalCode":"9472","locality":"Grabserberg","commune":{"key":"3273","name":"Grabs","shortName":"Grabs"},"district":{"key":"1724","name":"Wahlkreis Werdenberg"},"canton":{"key":"17","code":"SG","name":"St. Gallen"},"status":"Real"},{"key":"10196710","name":"Fulenberg","postalCode":"9472","locality":"Grabserberg","commune":{"key":"3273","name":"Grabs","shortName":"Grabs"},"district":{"key":"1724","name":"Wahlkreis Werdenberg"},"canton":{"key":"17","code":"SG","name":"St. Gallen"},"status":"Real"},{"key":"10228766","name":"Fulenbergfussweg","postalCode":"9472","locality":"Grabserberg","commune":{"key":"3273","name":"Grabs","shortName":"Grabs"},"district":{"key":"1724","name":"Wahlkreis Werdenberg"},"canton":{"key":"17","code":"SG","name":"St. Gallen"},"status":"Real"},{"key":"10224128","name":"Fulenbergweg","postalCode":"9472","locality":"Grabserberg","commune":{"key":"3273","name":"Grabs","shortName":"Grabs"},"district":{"key":"1724","name":"Wahlkreis Werdenberg"},"canton":{"key":"17","code":"SG","name":"St. Gallen"},"status":"Real"},{"key":"10198308","name":"Furt","postalCode":"9472","locality":"Grabserberg","commune":{"key":"3273","name":"Grabs","shortName":"Grabs"},"district":{"key":"1724","name":"Wahlkreis Werdenberg"},"canton":{"key":"17","code":"SG","name":"St. Gallen"},"status":"Real"},{"key":"10224136","name":"Furteggwaldweg","postalCode":"9472","locality":"Grabserberg","commune":{"key":"3273","name":"Grabs","shortName":"Grabs"},"district":{"key":"1724","name":"Wahlkreis Werdenberg"},"canton":{"key":"17","code":"SG","name":"St. Gallen"},"status":"Real"},{"key":"10224140","name":"Furtstrasse","postalCode":"9472","locality":"Grabserberg","commune":{"key":"3273","name":"Grabs","shortName":"Grabs"},"district":{"key":"1724","name":"Wahlkreis Werdenberg"},"canton":{"key":"17","code":"SG","name":"St. Gallen"},"status":"Real"},{"key":"10232359","name":"Furtweg","postalCode":"9472","locality":"Grabserberg","commune":{"key":"3273","name":"Grabs","shortName":"Grabs"},"district":{"key":"1724","name":"Wahlkreis Werdenberg"},"canton":{"key":"17","code":"SG","name":"St. Gallen"},"status":"Real"},{"key":"10096375","name":"Gakleinenweg","postalCode":"9472","locality":"Grabs","commune":{"key":"3273","name":"Grabs","shortName":"Grabs"},"district":{"key":"1724","name":"Wahlkreis Werdenberg"},"canton":{"key":"17","code":"SG","name":"St. Gallen"},"status":"Real"},{"key":"10194615","name":"Galferbühel","postalCode":"9472","locality":"Grabserberg","commune":{"key":"3273","name":"Grabs","shortName":"Grabs"},"district":{"key":"1724","name":"Wahlkreis Werdenberg"},"canton":{"key":"17","code":"SG","name":"St. Gallen"},"status":"Real"},{"key":"10232363","name":"Galferweg","postalCode":"9472","locality":"Grabserberg","commune":{"key":"3273","name":"Grabs","shortName":"Grabs"},"district":{"key":"1724","name":"Wahlkreis Werdenberg"},"canton":{"key":"17","code":"SG","name":"St. Gallen"},"status":"Real"},{"key":"10232367","name":"Gallusweg","postalCode":"9472","locality":"Grabs","commune":{"key":"3273","name":"Grabs","shortName":"Grabs"},"district":{"key":"1724","name":"Wahlkreis Werdenberg"},"canton":{"key":"17","code":"SG","name":"St. Gallen"},"status":"Real"},{"key":"10093118","name":"Gamperfin","postalCode":"9472","locality":"Grabserberg","commune":{"key":"3273","name":"Grabs","shortName":"Grabs"},"district":{"key":"1724","name":"Wahlkreis Werdenberg"},"canton":{"key":"17","code":"SG","name":"St. Gallen"},"status":"Real"},{"key":"10192499","name":"Gamperfin-Älpliboden","postalCode":"9472","locality":"Grabserberg","commune":{"key":"3273","name":"Grabs","shortName":"Grabs"},"district":{"key":"1724","name":"Wahlkreis Werdenberg"},"canton":{"key":"17","code":"SG","name":"St. Gallen"},"status":"Real"},{"key":"10194560","name":"Gamperfin-Älpligatter","postalCode":"9472","locality":"Grabserberg","commune":{"key":"3273","name":"Grabs","shortName":"Grabs"},"district":{"key":"1724","name":"Wahlkreis Werdenberg"},"canton":{"key":"17","code":"SG","name":"St. Gallen"},"status":"Real"},{"key":"10192818","name":"Gamperfin-Bergli","postalCode":"9472","locality":"Grabserberg","commune":{"key":"3273","name":"Grabs","shortName":"Grabs"},"district":{"key":"1724","name":"Wahlkreis Werdenberg"},"canton":{"key":"17","code":"SG","name":"St. Gallen"},"status":"Real"},{"key":"10232891","name":"Gamperfinbodenweg","postalCode":"9472","locality":"Grabserberg","commune":{"key":"3273","name":"Grabs","shortName":"Grabs"},"district":{"key":"1724","name":"Wahlkreis Werdenberg"},"canton":{"key":"17","code":"SG","name":"St. Gallen"},"status":"Real"},{"key":"10192696","name":"Gamperfin-Brandbühel","postalCode":"9472","locality":"Grabserberg","commune":{"key":"3273","name":"Grabs","shortName":"Grabs"},"district":{"key":"1724","name":"Wahlkreis Werdenberg"},"canton":{"key":"17","code":"SG","name":"St. Gallen"},"status":"Real"},{"key":"10192496","name":"Gamperfin-Brandrain","postalCode":"9472","locality":"Grabserberg","commune":{"key":"3273","name":"Grabs","shortName":"Grabs"},"district":{"key":"1724","name":"Wahlkreis Werdenberg"},"canton":{"key":"17","code":"SG","name":"St. Gallen"},"status":"Real"},{"key":"10232895","name":"Gamperfin-Brandschopf","postalCode":"9472","locality":"Grabserberg","commune":{"key":"3273","name":"Grabs","shortName":"Grabs"},"district":{"key":"1724","name":"Wahlkreis Werdenberg"},"canton":{"key":"17","code":"SG","name":"St. Gallen"},"status":"Real"},{"key":"10232899","name":"Gamperfin-Figgler","postalCode":"9472","locality":"Grabserberg","commune":{"key":"3273","name":"Grabs","shortName":"Grabs"},"district":{"key":"1724","name":"Wahlkreis Werdenberg"},"canton":{"key":"17","code":"SG","name":"St. Gallen"},"status":"Real"},{"key":"10194619","name":"Gamperfin-Germil","postalCode":"9472","locality":"Grabserberg","commune":{"key":"3273","name":"Grabs","shortName":"Grabs"},"district":{"key":"1724","name":"Wahlkreis Werdenberg"},"canton":{"key":"17","code":"SG","name":"St. Gallen"},"status":"Real"},{"key":"10192660","name":"Gamperfin-Gupfenweid","postalCode":"9472","locality":"Grabserberg","commune":{"key":"3273","name":"Grabs","shortName":"Grabs"},"district":{"key":"1724","name":"Wahlkreis Werdenberg"},"canton":{"key":"17","code":"SG","name":"St. Gallen"},"status":"Real"},{"key":"10192756","name":"Gamperfin-Herti","postalCode":"9472","locality":"Grabserberg","commune":{"key":"3273","name":"Grabs","shortName":"Grabs"},"district":{"key":"1724","name":"Wahlkreis Werdenberg"},"canton":{"key":"17","code":"SG","name":"St. Gallen"},"status":"Real"},{"key":"10197846","name":"Gamperfin-Hintere Witi","postalCode":"9472","locality":"Grabserberg","commune":{"key":"3273","name":"Grabs","shortName":"Grabs"},"district":{"key":"1724","name":"Wahlkreis Werdenberg"},"canton":{"key":"17","code":"SG","name":"St. Gallen"},"status":"Real"},{"key":"10194618","name":"Gamperfin-Inggadells","postalCode":"9472","locality":"Grabserberg","commune":{"key":"3273","name":"Grabs","shortName":"Grabs"},"district":{"key":"1724","name":"Wahlkreis Werdenberg"},"canton":{"key":"17","code":"SG","name":"St. Gallen"},"status":"Real"},{"key":"10192497","name":"Gamperfin-Lochgatter","postalCode":"9472","locality":"Grabserberg","commune":{"key":"3273","name":"Grabs","shortName":"Grabs"},"district":{"key":"1724","name":"Wahlkreis Werdenberg"},"canton":{"key":"17","code":"SG","name":"St. Gallen"},"status":"Real"},{"key":"10193087","name":"Gamperfin-Mazils","postalCode":"9472","locality":"Grabserberg","commune":{"key":"3273","name":"Grabs","shortName":"Grabs"},"district":{"key":"1724","name":"Wahlkreis Werdenberg"},"canton":{"key":"17","code":"SG","name":"St. Gallen"},"status":"Real"},{"key":"10232903","name":"Gamperfin-Mutterloch","postalCode":"9472","locality":"Grabserberg","commune":{"key":"3273","name":"Grabs","shortName":"Grabs"},"district":{"key":"1724","name":"Wahlkreis Werdenberg"},"canton":{"key":"17","code":"SG","name":"St. Gallen"},"status":"Real"},{"key":"10192498","name":"Gamperfin-Obere Engi","postalCode":"9472","locality":"Grabserberg","commune":{"key":"3273","name":"Grabs","shortName":"Grabs"},"district":{"key":"1724","name":"Wahlkreis Werdenberg"},"canton":{"key":"17","code":"SG","name":"St. Gallen"},"status":"Real"},{"key":"10192495","name":"Gamperfin-Oberer Gamperfinboden","postalCode":"9472","locality":"Grabserberg","commune":{"key":"3273","name":"Grabs","shortName":"Grabs"},"district":{"key":"1724","name":"Wahlkreis Werdenberg"},"canton":{"key":"17","code":"SG","name":"St. Gallen"},"status":"Real"},{"key":"10192659","name":"Gamperfin-Ölberg","postalCode":"9472","locality":"Grabserberg","commune":{"key":"3273","name":"Grabs","shortName":"Grabs"},"district":{"key":"1724","name":"Wahlkreis Werdenberg"},"canton":{"key":"17","code":"SG","name":"St. Gallen"},"status":"Real"},{"key":"10193894","name":"Gamperfin-Plisa","postalCode":"9472","locality":"Grabserberg","commune":{"key":"3273","name":"Grabs","shortName":"Grabs"},"district":{"key":"1724","name":"Wahlkreis Werdenberg"},"canton":{"key":"17","code":"SG","name":"St. Gallen"},"status":"Real"},{"key":"10232907","name":"Gamperfin-Rossschopf","postalCode":"9472","locality":"Grabserberg","commune":{"key":"3273","name":"Grabs","shortName":"Grabs"},"district":{"key":"1724","name":"Wahlkreis Werdenberg"},"canton":{"key":"17","code":"SG","name":"St. Gallen"},"status":"Real"},{"key":"10192816","name":"Gamperfin-Schleipftobel","postalCode":"9472","locality":"Grabserberg","commune":{"key":"3273","name":"Grabs","shortName":"Grabs"},"district":{"key":"1724","name":"Wahlkreis Werdenberg"},"canton":{"key":"17","code":"SG","name":"St. Gallen"},"status":"Real"},{"key":"10192492","name":"Gamperfin-Sessli","postalCode":"9472","locality":"Grabserberg","commune":{"key":"3273","name":"Grabs","shortName":"Grabs"},"district":{"key":"1724","name":"Wahlkreis Werdenberg"},"canton":{"key":"17","code":"SG","name":"St. Gallen"},"status":"Real"},{"key":"10232911","name":"Gamperfinstrasse","postalCode":"9472","locality":"Grabserberg","commune":{"key":"3273","name":"Grabs","shortName":"Grabs"},"district":{"key":"1724","name":"Wahlkreis Werdenberg"},"canton":{"key":"17","code":"SG","name":"St. Gallen"},"status":"Real"},{"key":"10232915","name":"Gamperfin-Turbenschöpfli","postalCode":"9472","locality":"Grabserberg","commune":{"key":"3273","name":"Grabs","shortName":"Grabs"},"district":{"key":"1724","name":"Wahlkreis Werdenberg"},"canton":{"key":"17","code":"SG","name":"St. Gallen"},"status":"Real"},{"key":"10193417","name":"Gamperfin-Untere Engi","postalCode":"9472","locality":"Grabserberg","commune":{"key":"3273","name":"Grabs","shortName":"Grabs"},"district":{"key":"1724","name":"Wahlkreis Werdenberg"},"canton":{"key":"17","code":"SG","name":"St. Gallen"},"status":"Real"},{"key":"10194620","name":"Gamperfin-Unterer Gamperfinboden","postalCode":"9472","locality":"Grabserberg","commune":{"key":"3273","name":"Grabs","shortName":"Grabs"},"district":{"key":"1724","name":"Wahlkreis Werdenberg"},"canton":{"key":"17","code":"SG","name":"St. Gallen"},"status":"Real"},{"key":"10192493","name":"Gamperfin-Vordere Witi","postalCode":"9472","locality":"Grabserberg","commune":{"key":"3273","name":"Grabs","shortName":"Grabs"},"district":{"key":"1724","name":"Wahlkreis Werdenberg"},"canton":{"key":"17","code":"SG","name":"St. Gallen"},"status":"Real"},{"key":"10194640","name":"Gamperfin-Witi","postalCode":"9472","locality":"Grabserberg","commune":{"key":"3273","name":"Grabs","shortName":"Grabs"},"district":{"key":"1724","name":"Wahlkreis Werdenberg"},"canton":{"key":"17","code":"SG","name":"St. Gallen"},"status":"Real"},{"key":"10194650","name":"Gampernei-Büza","postalCode":"9472","locality":"Grabserberg","commune":{"key":"3273","name":"Grabs","shortName":"Grabs"},"district":{"key":"1724","name":"Wahlkreis Werdenberg"},"canton":{"key":"17","code":"SG","name":"St. Gallen"},"status":"Real"},{"key":"10232920","name":"Gampernei-Cher","postalCode":"9472","locality":"Grabserberg","commune":{"key":"3273","name":"Grabs","shortName":"Grabs"},"district":{"key":"1724","name":"Wahlkreis Werdenberg"},"canton":{"key":"17","code":"SG","name":"St. Gallen"},"status":"Real"},{"key":"10193341","name":"Gampernei-Foren","postalCode":"9472","locality":"Grabserberg","commune":{"key":"3273","name":"Grabs","shortName":"Grabs"},"district":{"key":"1724","name":"Wahlkreis Werdenberg"},"canton":{"key":"17","code":"SG","name":"St. Gallen"},"status":"Real"},{"key":"10192566","name":"Gampernei-Hanenspil","postalCode":"9472","locality":"Grabserberg","commune":{"key":"3273","name":"Grabs","shortName":"Grabs"},"district":{"key":"1724","name":"Wahlkreis Werdenberg"},"canton":{"key":"17","code":"SG","name":"St. Gallen"},"status":"Real"},{"key":"10232924","name":"Gampernei-Lalzen","postalCode":"9472","locality":"Grabserberg","commune":{"key":"3273","name":"Grabs","shortName":"Grabs"},"district":{"key":"1724","name":"Wahlkreis Werdenberg"},"canton":{"key":"17","code":"SG","name":"St. Gallen"},"status":"Real"},{"key":"10232928","name":"Gampernei-Mittleren Sess","postalCode":"9472","locality":"Grabserberg","commune":{"key":"3273","name":"Grabs","shortName":"Grabs"},"district":{"key":"1724","name":"Wahlkreis Werdenberg"},"canton":{"key":"17","code":"SG","name":"St. Gallen"},"status":"Real"},{"key":"10193094","name":"Gampernei-Oberen Sess","postalCode":"9472","locality":"Grabserberg","commune":{"key":"3273","name":"Grabs","shortName":"Grabs"},"district":{"key":"1724","name":"Wahlkreis Werdenberg"},"canton":{"key":"17","code":"SG","name":"St. Gallen"},"status":"Real"},{"key":"10232932","name":"Gampernei-Schupfen","postalCode":"9472","locality":"Grabserberg","commune":{"key":"3273","name":"Grabs","shortName":"Grabs"},"district":{"key":"1724","name":"Wahlkreis Werdenberg"},"canton":{"key":"17","code":"SG","name":"St. Gallen"},"status":"Real"},{"key":"10193093","name":"Gampernei-Sess","postalCode":"9472","locality":"Grabserberg","commune":{"key":"3273","name":"Grabs","shortName":"Grabs"},"district":{"key":"1724","name":"Wahlkreis Werdenberg"},"canton":{"key":"17","code":"SG","name":"St. Gallen"},"status":"Real"},{"key":"10249974","name":"Gamperneistrasse","postalCode":"9472","locality":"Grabserberg","commune":{"key":"3273","name":"Grabs","shortName":"Grabs"},"district":{"key":"1724","name":"Wahlkreis Werdenberg"},"canton":{"key":"17","code":"SG","name":"St. Gallen"},"status":"Real"},{"key":"10194571","name":"Gampernei-Unteren Sess","postalCode":"9472","locality":"Grabserberg","commune":{"key":"3273","name":"Grabs","shortName":"Grabs"},"district":{"key":"1724","name":"Wahlkreis Werdenberg"},"canton":{"key":"17","code":"SG","name":"St. Gallen"},"status":"Real"},{"key":"10250926","name":"Gamperneiweg","postalCode":"9472","locality":"Grabs","commune":{"key":"3273","name":"Grabs","shortName":"Grabs"},"district":{"key":"1724","name":"Wahlkreis Werdenberg"},"canton":{"key":"17","code":"SG","name":"St. Gallen"},"status":"Real"},{"key":"10251265","name":"Gamperneiweg","postalCode":"9472","locality":"Grabserberg","commune":{"key":"3273","name":"Grabs","shortName":"Grabs"},"district":{"key":"1724","name":"Wahlkreis Werdenberg"},"canton":{"key":"17","code":"SG","name":"St. Gallen"},"status":"Real"},{"key":"10194649","name":"Gampernei-Wisli","postalCode":"9472","locality":"Grabserberg","commune":{"key":"3273","name":"Grabs","shortName":"Grabs"},"district":{"key":"1724","name":"Wahlkreis Werdenberg"},"canton":{"key":"17","code":"SG","name":"St. Gallen"},"status":"Real"},{"key":"10059795","name":"Gamsalp","postalCode":"9472","locality":"Grabserberg","commune":{"key":"3273","name":"Grabs","shortName":"Grabs"},"district":{"key":"1724","name":"Wahlkreis Werdenberg"},"canton":{"key":"17","code":"SG","name":"St. Gallen"},"status":"Real"},{"key":"10232940","name":"Gamsalpweg","postalCode":"9472","locality":"Grabserberg","commune":{"key":"3273","name":"Grabs","shortName":"Grabs"},"district":{"key":"1724","name":"Wahlkreis Werdenberg"},"canton":{"key":"17","code":"SG","name":"St. Gallen"},"status":"Real"},{"key":"10093120","name":"Halde","postalCode":"9472","locality":"Grabserberg","commune":{"key":"3273","name":"Grabs","shortName":"Grabs"},"district":{"key":"1724","name":"Wahlkreis Werdenberg"},"canton":{"key":"17","code":"SG","name":"St. Gallen"},"status":"Real"},{"key":"10229002","name":"Hängelenweg","postalCode":"9472","locality":"Grabs","commune":{"key":"3273","name":"Grabs","shortName":"Grabs"},"district":{"key":"1724","name":"Wahlkreis Werdenberg"},"canton":{"key":"17","code":"SG","name":"St. Gallen"},"status":"Real"},{"key":"10229002","name":"Hängelenweg","postalCode":"9472","locality":"Grabserberg","commune":{"key":"3273","name":"Grabs","shortName":"Grabs"},"district":{"key":"1724","name":"Wahlkreis Werdenberg"},"canton":{"key":"17","code":"SG","name":"St. Gallen"},"status":"Real"},{"key":"10229006","name":"Hänslisweg","postalCode":"9472","locality":"Grabserberg","commune":{"key":"3273","name":"Grabs","shortName":"Grabs"},"district":{"key":"1724","name":"Wahlkreis Werdenberg"},"canton":{"key":"17","code":"SG","name":"St. Gallen"},"status":"Real"},{"key":"10229010","name":"Härzerweg","postalCode":"9472","locality":"Grabs","commune":{"key":"3273","name":"Grabs","shortName":"Grabs"},"district":{"key":"1724","name":"Wahlkreis Werdenberg"},"canton":{"key":"17","code":"SG","name":"St. Gallen"},"status":"Real"},{"key":"10229010","name":"Härzerweg","postalCode":"9472","locality":"Grabserberg","commune":{"key":"3273","name":"Grabs","shortName":"Grabs"},"district":{"key":"1724","name":"Wahlkreis Werdenberg"},"canton":{"key":"17","code":"SG","name":"St. Gallen"},"status":"Real"},{"key":"10250014","name":"Hasenbodenstrasse","postalCode":"9472","locality":"Grabserberg","commune":{"key":"3273","name":"Grabs","shortName":"Grabs"},"district":{"key":"1724","name":"Wahlkreis Werdenberg"},"canton":{"key":"17","code":"SG","name":"St. Gallen"},"status":"Real"},{"key":"10122398","name":"Hasenbüntstrasse","postalCode":"9472","locality":"Grabs","commune":{"key":"3273","name":"Grabs","shortName":"Grabs"},"district":{"key":"1724","name":"Wahlkreis Werdenberg"},"canton":{"key":"17","code":"SG","name":"St. Gallen"},"status":"Real"},{"key":"10229018","name":"Hasengutsteg","postalCode":"9472","locality":"Grabs","commune":{"key":"3273","name":"Grabs","shortName":"Grabs"},"district":{"key":"1724","name":"Wahlkreis Werdenberg"},"canton":{"key":"17","code":"SG","name":"St. Gallen"},"status":"Real"},{"key":"10194644","name":"Haslen","postalCode":"9472","locality":"Grabs","commune":{"key":"3273","name":"Grabs","shortName":"Grabs"},"district":{"key":"1724","name":"Wahlkreis Werdenberg"},"canton":{"key":"17","code":"SG","name":"St. Gallen"},"status":"Real"},{"key":"10229022","name":"Hermen","postalCode":"9472","locality":"Grabs","commune":{"key":"3273","name":"Grabs","shortName":"Grabs"},"district":{"key":"1724","name":"Wahlkreis Werdenberg"},"canton":{"key":"17","code":"SG","name":"St. Gallen"},"status":"Real"},{"key":"10229026","name":"Hermenweg","postalCode":"9472","locality":"Grabs","commune":{"key":"3273","name":"Grabs","shortName":"Grabs"},"district":{"key":"1724","name":"Wahlkreis Werdenberg"},"canton":{"key":"17","code":"SG","name":"St. Gallen"},"status":"Real"},{"key":"10229030","name":"Hertistrasse","postalCode":"9472","locality":"Grabserberg","commune":{"key":"3273","name":"Grabs","shortName":"Grabs"},"district":{"key":"1724","name":"Wahlkreis Werdenberg"},"canton":{"key":"17","code":"SG","name":"St. Gallen"},"status":"Real"},{"key":"10229272","name":"Hertiweg","postalCode":"9472","locality":"Grabserberg","commune":{"key":"3273","name":"Grabs","shortName":"Grabs"},"district":{"key":"1724","name":"Wahlkreis Werdenberg"},"canton":{"key":"17","code":"SG","name":"St. Gallen"},"status":"Real"},{"key":"10197285","name":"Herzenberg","postalCode":"9472","locality":"Grabserberg","commune":{"key":"3273","name":"Grabs","shortName":"Grabs"},"district":{"key":"1724","name":"Wahlkreis Werdenberg"},"canton":{"key":"17","code":"SG","name":"St. Gallen"},"status":"Real"},{"key":"10229277","name":"Hinterbergstrasse","postalCode":"9472","locality":"Grabs","commune":{"key":"3273","name":"Grabs","shortName":"Grabs"},"district":{"key":"1724","name":"Wahlkreis Werdenberg"},"canton":{"key":"17","code":"SG","name":"St. Gallen"},"status":"Real"},{"key":"10102222","name":"Hinteregg","postalCode":"9472","locality":"Grabserberg","commune":{"key":"3273","name":"Grabs","shortName":"Grabs"},"district":{"key":"1724","name":"Wahlkreis Werdenberg"},"canton":{"key":"17","code":"SG","name":"St. Gallen"},"status":"Real"},{"key":"10229285","name":"Hintereggstrasse","postalCode":"9472","locality":"Grabserberg","commune":{"key":"3273","name":"Grabs","shortName":"Grabs"},"district":{"key":"1724","name":"Wahlkreis Werdenberg"},"canton":{"key":"17","code":"SG","name":"St. Gallen"},"status":"Real"},{"key":"10229050","name":"Hintereggweg","postalCode":"9472","locality":"Grabserberg","commune":{"key":"3273","name":"Grabs","shortName":"Grabs"},"district":{"key":"1724","name":"Wahlkreis Werdenberg"},"canton":{"key":"17","code":"SG","name":"St. Gallen"},"status":"Real"},{"key":"10229281","name":"Hintere Grabserbergstrasse","postalCode":"9472","locality":"Grabserberg","commune":{"key":"3273","name":"Grabs","shortName":"Grabs"},"district":{"key":"1724","name":"Wahlkreis Werdenberg"},"canton":{"key":"17","code":"SG","name":"St. Gallen"},"status":"Real"},{"key":"10032037","name":"Hintereich","postalCode":"9472","locality":"Grabserberg","commune":{"key":"3273","name":"Grabs","shortName":"Grabs"},"district":{"key":"1724","name":"Wahlkreis Werdenberg"},"canton":{"key":"17","code":"SG","name":"St. Gallen"},"status":"Real"},{"key":"10229054","name":"Hintereichweg","postalCode":"9472","locality":"Grabserberg","commune":{"key":"3273","name":"Grabs","shortName":"Grabs"},"district":{"key":"1724","name":"Wahlkreis Werdenberg"},"canton":{"key":"17","code":"SG","name":"St. Gallen"},"status":"Real"},{"key":"10093144","name":"Hintere Litten","postalCode":"9472","locality":"Grabserberg","commune":{"key":"3273","name":"Grabs","shortName":"Grabs"},"district":{"key":"1724","name":"Wahlkreis Werdenberg"},"canton":{"key":"17","code":"SG","name":"St. Gallen"},"status":"Real"},{"key":"10225404","name":"Hinterelittenweg","postalCode":"9472","locality":"Grabserberg","commune":{"key":"3273","name":"Grabs","shortName":"Grabs"},"district":{"key":"1724","name":"Wahlkreis Werdenberg"},"canton":{"key":"17","code":"SG","name":"St. Gallen"},"status":"Real"},{"key":"10120168","name":"Hinteren Hof","postalCode":"9472","locality":"Grabserberg","commune":{"key":"3273","name":"Grabs","shortName":"Grabs"},"district":{"key":"1724","name":"Wahlkreis Werdenberg"},"canton":{"key":"17","code":"SG","name":"St. Gallen"},"status":"Real"},{"key":"10225408","name":"Hinterer Geriälsgrabenweg","postalCode":"9472","locality":"Grabs","commune":{"key":"3273","name":"Grabs","shortName":"Grabs"},"district":{"key":"1724","name":"Wahlkreis Werdenberg"},"canton":{"key":"17","code":"SG","name":"St. Gallen"},"status":"Real"},{"key":"10225412","name":"Hinterer Grabserbachweg","postalCode":"9472","locality":"Grabs","commune":{"key":"3273","name":"Grabs","shortName":"Grabs"},"district":{"key":"1724","name":"Wahlkreis Werdenberg"},"canton":{"key":"17","code":"SG","name":"St. Gallen"},"status":"Real"},{"key":"10233158","name":"Hinterer Laubergrabenweg","postalCode":"9472","locality":"Grabs","commune":{"key":"3273","name":"Grabs","shortName":"Grabs"},"district":{"key":"1724","name":"Wahlkreis Werdenberg"},"canton":{"key":"17","code":"SG","name":"St. Gallen"},"status":"Real"},{"key":"10174601","name":"Hinterer Quaderweg","postalCode":"9472","locality":"Grabs","commune":{"key":"3273","name":"Grabs","shortName":"Grabs"},"district":{"key":"1724","name":"Wahlkreis Werdenberg"},"canton":{"key":"17","code":"SG","name":"St. Gallen"},"status":"Real"},{"key":"10046786","name":"Hinterer Rufersweg","postalCode":"9472","locality":"Grabs","commune":{"key":"3273","name":"Grabs","shortName":"Grabs"},"district":{"key":"1724","name":"Wahlkreis Werdenberg"},"canton":{"key":"17","code":"SG","name":"St. Gallen"},"status":"Real"},{"key":"10233162","name":"Hinterer Schildgrabenweg","postalCode":"9472","locality":"Grabs","commune":{"key":"3273","name":"Grabs","shortName":"Grabs"},"district":{"key":"1724","name":"Wahlkreis Werdenberg"},"canton":{"key":"17","code":"SG","name":"St. Gallen"},"status":"Real"},{"key":"10233166","name":"Hinterer Schlussbachweg","postalCode":"9472","locality":"Grabserberg","commune":{"key":"3273","name":"Grabs","shortName":"Grabs"},"district":{"key":"1724","name":"Wahlkreis Werdenberg"},"canton":{"key":"17","code":"SG","name":"St. Gallen"},"status":"Real"},{"key":"10113038","name":"Hintere Stütlistrasse","postalCode":"9472","locality":"Grabs","commune":{"key":"3273","name":"Grabs","shortName":"Grabs"},"district":{"key":"1724","name":"Wahlkreis Werdenberg"},"canton":{"key":"17","code":"SG","name":"St. Gallen"},"status":"Real"},{"key":"10229077","name":"Hinterhofstrasse","postalCode":"9472","locality":"Grabserberg","commune":{"key":"3273","name":"Grabs","shortName":"Grabs"},"district":{"key":"1724","name":"Wahlkreis Werdenberg"},"canton":{"key":"17","code":"SG","name":"St. Gallen"},"status":"Real"},{"key":"10229081","name":"Hinterwitiweg","postalCode":"9472","locality":"Grabserberg","commune":{"key":"3273","name":"Grabs","shortName":"Grabs"},"district":{"key":"1724","name":"Wahlkreis Werdenberg"},"canton":{"key":"17","code":"SG","name":"St. Gallen"},"status":"Real"},{"key":"10093121","name":"Hirschenstrasse","postalCode":"9472","locality":"Grabs","commune":{"key":"3273","name":"Grabs","shortName":"Grabs"},"district":{"key":"1724","name":"Wahlkreis Werdenberg"},"canton":{"key":"17","code":"SG","name":"St. Gallen"},"status":"Real"},{"key":"10032400","name":"Hirschweg","postalCode":"9472","locality":"Grabs","commune":{"key":"3273","name":"Grabs","shortName":"Grabs"},"district":{"key":"1724","name":"Wahlkreis Werdenberg"},"canton":{"key":"17","code":"SG","name":"St. Gallen"},"status":"Real"},{"key":"10032401","name":"Hochhausstrasse","postalCode":"9472","locality":"Grabs","commune":{"key":"3273","name":"Grabs","shortName":"Grabs"},"district":{"key":"1724","name":"Wahlkreis Werdenberg"},"canton":{"key":"17","code":"SG","name":"St. Gallen"},"status":"Real"},{"key":"10183073","name":"Hochhausweg","postalCode":"9472","locality":"Grabs","commune":{"key":"3273","name":"Grabs","shortName":"Grabs"},"district":{"key":"1724","name":"Wahlkreis Werdenberg"},"canton":{"key":"17","code":"SG","name":"St. Gallen"},"status":"Real"},{"key":"10251273","name":"Hof","postalCode":"9472","locality":"Grabs","commune":{"key":"3273","name":"Grabs","shortName":"Grabs"},"district":{"key":"1724","name":"Wahlkreis Werdenberg"},"canton":{"key":"17","code":"SG","name":"St. Gallen"},"status":"Real"},{"key":"10250934","name":"Hof","postalCode":"9472","locality":"Grabserberg","commune":{"key":"3273","name":"Grabs","shortName":"Grabs"},"district":{"key":"1724","name":"Wahlkreis Werdenberg"},"canton":{"key":"17","code":"SG","name":"St. Gallen"},"status":"Real"},{"key":"10229085","name":"Hof-Amadang-Weg","postalCode":"9472","locality":"Grabserberg","commune":{"key":"3273","name":"Grabs","shortName":"Grabs"},"district":{"key":"1724","name":"Wahlkreis Werdenberg"},"canton":{"key":"17","code":"SG","name":"St. Gallen"},"status":"Real"},{"key":"10093122","name":"Höfen","postalCode":"9472","locality":"Grabs","commune":{"key":"3273","name":"Grabs","shortName":"Grabs"},"district":{"key":"1724","name":"Wahlkreis Werdenberg"},"canton":{"key":"17","code":"SG","name":"St. Gallen"},"status":"Real"},{"key":"10229089","name":"Hofgass","postalCode":"9472","locality":"Grabserberg","commune":{"key":"3273","name":"Grabs","shortName":"Grabs"},"district":{"key":"1724","name":"Wahlkreis Werdenberg"},"canton":{"key":"17","code":"SG","name":"St. Gallen"},"status":"Real"},{"key":"10229093","name":"Höfgass","postalCode":"9472","locality":"Grabs","commune":{"key":"3273","name":"Grabs","shortName":"Grabs"},"district":{"key":"1724","name":"Wahlkreis Werdenberg"},"canton":{"key":"17","code":"SG","name":"St. Gallen"},"status":"Real"},{"key":"10032693","name":"Höfli","postalCode":"9472","locality":"Grabserberg","commune":{"key":"3273","name":"Grabs","shortName":"Grabs"},"district":{"key":"1724","name":"Wahlkreis Werdenberg"},"canton":{"key":"17","code":"SG","name":"St. Gallen"},"status":"Real"},{"key":"10229097","name":"Höfligass","postalCode":"9472","locality":"Grabserberg","commune":{"key":"3273","name":"Grabs","shortName":"Grabs"},"district":{"key":"1724","name":"Wahlkreis Werdenberg"},"canton":{"key":"17","code":"SG","name":"St. Gallen"},"status":"Real"},{"key":"10229101","name":"Höfliweg","postalCode":"9472","locality":"Grabs","commune":{"key":"3273","name":"Grabs","shortName":"Grabs"},"district":{"key":"1724","name":"Wahlkreis Werdenberg"},"canton":{"key":"17","code":"SG","name":"St. Gallen"},"status":"Real"},{"key":"10229101","name":"Höfliweg","postalCode":"9472","locality":"Grabserberg","commune":{"key":"3273","name":"Grabs","shortName":"Grabs"},"district":{"key":"1724","name":"Wahlkreis Werdenberg"},"canton":{"key":"17","code":"SG","name":"St. Gallen"},"status":"Real"},{"key":"10195446","name":"Hofmannsbüel","postalCode":"9472","locality":"Grabserberg","commune":{"key":"3273","name":"Grabs","shortName":"Grabs"},"district":{"key":"1724","name":"Wahlkreis Werdenberg"},"canton":{"key":"17","code":"SG","name":"St. Gallen"},"status":"Real"},{"key":"10059782","name":"Ifang","postalCode":"9472","locality":"Grabs","commune":{"key":"3273","name":"Grabs","shortName":"Grabs"},"district":{"key":"1724","name":"Wahlkreis Werdenberg"},"canton":{"key":"17","code":"SG","name":"St. Gallen"},"status":"Real"},{"key":"10233217","name":"Ifangweg","postalCode":"9472","locality":"Grabs","commune":{"key":"3273","name":"Grabs","shortName":"Grabs"},"district":{"key":"1724","name":"Wahlkreis Werdenberg"},"canton":{"key":"17","code":"SG","name":"St. Gallen"},"status":"Real"},{"key":"10152892","name":"Ilgenweg","postalCode":"9472","locality":"Grabs","commune":{"key":"3273","name":"Grabs","shortName":"Grabs"},"district":{"key":"1724","name":"Wahlkreis Werdenberg"},"canton":{"key":"17","code":"SG","name":"St. Gallen"},"status":"Real"},{"key":"10233221","name":"Ils","postalCode":"9472","locality":"Grabs","commune":{"key":"3273","name":"Grabs","shortName":"Grabs"},"district":{"key":"1724","name":"Wahlkreis Werdenberg"},"canton":{"key":"17","code":"SG","name":"St. Gallen"},"status":"Real"},{"key":"10233225","name":"Ilsweg","postalCode":"9472","locality":"Grabs","commune":{"key":"3273","name":"Grabs","shortName":"Grabs"},"district":{"key":"1724","name":"Wahlkreis Werdenberg"},"canton":{"key":"17","code":"SG","name":"St. Gallen"},"status":"Real"},{"key":"10197013","name":"Impelwiza","postalCode":"9472","locality":"Grabserberg","commune":{"key":"3273","name":"Grabs","shortName":"Grabs"},"district":{"key":"1724","name":"Wahlkreis Werdenberg"},"canton":{"key":"17","code":"SG","name":"St. Gallen"},"status":"Real"},{"key":"10233229","name":"Impelwizaweg","postalCode":"9472","locality":"Grabserberg","commune":{"key":"3273","name":"Grabs","shortName":"Grabs"},"district":{"key":"1724","name":"Wahlkreis Werdenberg"},"canton":{"key":"17","code":"SG","name":"St. Gallen"},"status":"Real"},{"key":"10183079","name":"Impertätsch","postalCode":"9472","locality":"Grabs","commune":{"key":"3273","name":"Grabs","shortName":"Grabs"},"district":{"key":"1724","name":"Wahlkreis Werdenberg"},"canton":{"key":"17","code":"SG","name":"St. Gallen"},"status":"Real"},{"key":"10233233","name":"Impertätschweg","postalCode":"9472","locality":"Grabs","commune":{"key":"3273","name":"Grabs","shortName":"Grabs"},"district":{"key":"1724","name":"Wahlkreis Werdenberg"},"canton":{"key":"17","code":"SG","name":"St. Gallen"},"status":"Real"},{"key":"10233237","name":"Impertschils","postalCode":"9472","locality":"Grabs","commune":{"key":"3273","name":"Grabs","shortName":"Grabs"},"district":{"key":"1724","name":"Wahlkreis Werdenberg"},"canton":{"key":"17","code":"SG","name":"St. Gallen"},"status":"Real"},{"key":"10103504","name":"Impeschina","postalCode":"9472","locality":"Grabs","commune":{"key":"3273","name":"Grabs","shortName":"Grabs"},"district":{"key":"1724","name":"Wahlkreis Werdenberg"},"canton":{"key":"17","code":"SG","name":"St. Gallen"},"status":"Real"},{"key":"10233241","name":"Impeschinaweg","postalCode":"9472","locality":"Grabs","commune":{"key":"3273","name":"Grabs","shortName":"Grabs"},"district":{"key":"1724","name":"Wahlkreis Werdenberg"},"canton":{"key":"17","code":"SG","name":"St. Gallen"},"status":"Real"},{"key":"10233245","name":"In den Bächen","postalCode":"9472","locality":"Grabserberg","commune":{"key":"3273","name":"Grabs","shortName":"Grabs"},"district":{"key":"1724","name":"Wahlkreis Werdenberg"},"canton":{"key":"17","code":"SG","name":"St. Gallen"},"status":"Real"},{"key":"10225517","name":"Inggadellsweg","postalCode":"9472","locality":"Grabserberg","commune":{"key":"3273","name":"Grabs","shortName":"Grabs"},"district":{"key":"1724","name":"Wahlkreis Werdenberg"},"canton":{"key":"17","code":"SG","name":"St. Gallen"},"status":"Real"},{"key":"10250026","name":"Inggeriäls","postalCode":"9472","locality":"Grabs","commune":{"key":"3273","name":"Grabs","shortName":"Grabs"},"district":{"key":"1724","name":"Wahlkreis Werdenberg"},"canton":{"key":"17","code":"SG","name":"St. Gallen"},"status":"Real"},{"key":"10164087","name":"Inggeriälshof","postalCode":"9472","locality":"Grabs","commune":{"key":"3273","name":"Grabs","shortName":"Grabs"},"district":{"key":"1724","name":"Wahlkreis Werdenberg"},"canton":{"key":"17","code":"SG","name":"St. Gallen"},"status":"Real"},{"key":"10225521","name":"Inggernastweg","postalCode":"9472","locality":"Grabserberg","commune":{"key":"3273","name":"Grabs","shortName":"Grabs"},"district":{"key":"1724","name":"Wahlkreis Werdenberg"},"canton":{"key":"17","code":"SG","name":"St. Gallen"},"status":"Real"},{"key":"10197652","name":"Insel","postalCode":"9472","locality":"Grabserberg","commune":{"key":"3273","name":"Grabs","shortName":"Grabs"},"district":{"key":"1724","name":"Wahlkreis Werdenberg"},"canton":{"key":"17","code":"SG","name":"St. Gallen"},"status":"Real"},{"key":"10225525","name":"Irgiweg","postalCode":"9472","locality":"Grabs","commune":{"key":"3273","name":"Grabs","shortName":"Grabs"},"district":{"key":"1724","name":"Wahlkreis Werdenberg"},"canton":{"key":"17","code":"SG","name":"St. Gallen"},"status":"Real"},{"key":"10225525","name":"Irgiweg","postalCode":"9472","locality":"Grabserberg","commune":{"key":"3273","name":"Grabs","shortName":"Grabs"},"district":{"key":"1724","name":"Wahlkreis Werdenberg"},"canton":{"key":"17","code":"SG","name":"St. Gallen"},"status":"Real"},{"key":"10225529","name":"Ischlawiz-Garschella","postalCode":"9472","locality":"Grabserberg","commune":{"key":"3273","name":"Grabs","shortName":"Grabs"},"district":{"key":"1724","name":"Wahlkreis Werdenberg"},"canton":{"key":"17","code":"SG","name":"St. Gallen"},"status":"Real"},{"key":"10192700","name":"Ischlawiz-Obetweid","postalCode":"9472","locality":"Grabserberg","commune":{"key":"3273","name":"Grabs","shortName":"Grabs"},"district":{"key":"1724","name":"Wahlkreis Werdenberg"},"canton":{"key":"17","code":"SG","name":"St. Gallen"},"status":"Real"},{"key":"10193416","name":"Ischlawiz-Schranggenbrunnen","postalCode":"9472","locality":"Grabserberg","commune":{"key":"3273","name":"Grabs","shortName":"Grabs"},"district":{"key":"1724","name":"Wahlkreis Werdenberg"},"canton":{"key":"17","code":"SG","name":"St. Gallen"},"status":"Real"},{"key":"10193893","name":"Ischlawiz-Schwanz","postalCode":"9472","locality":"Grabserberg","commune":{"key":"3273","name":"Grabs","shortName":"Grabs"},"district":{"key":"1724","name":"Wahlkreis Werdenberg"},"canton":{"key":"17","code":"SG","name":"St. Gallen"},"status":"Real"},{"key":"10192745","name":"Ischlawiz-Stöggen","postalCode":"9472","locality":"Grabserberg","commune":{"key":"3273","name":"Grabs","shortName":"Grabs"},"district":{"key":"1724","name":"Wahlkreis Werdenberg"},"canton":{"key":"17","code":"SG","name":"St. Gallen"},"status":"Real"},{"key":"10225533","name":"Ischlawizstrasse","postalCode":"9472","locality":"Grabserberg","commune":{"key":"3273","name":"Grabs","shortName":"Grabs"},"district":{"key":"1724","name":"Wahlkreis Werdenberg"},"canton":{"key":"17","code":"SG","name":"St. Gallen"},"status":"Real"},{"key":"10192698","name":"Ischlawiz-Wetterbrunnen","postalCode":"9472","locality":"Grabserberg","commune":{"key":"3273","name":"Grabs","shortName":"Grabs"},"district":{"key":"1724","name":"Wahlkreis Werdenberg"},"canton":{"key":"17","code":"SG","name":"St. Gallen"},"status":"Real"},{"key":"10192491","name":"Ischlawiz-Wisen","postalCode":"9472","locality":"Grabserberg","commune":{"key":"3273","name":"Grabs","shortName":"Grabs"},"district":{"key":"1724","name":"Wahlkreis Werdenberg"},"canton":{"key":"17","code":"SG","name":"St. Gallen"},"status":"Real"},{"key":"10193096","name":"Isisiz","postalCode":"9472","locality":"Grabserberg","commune":{"key":"3273","name":"Grabs","shortName":"Grabs"},"district":{"key":"1724","name":"Wahlkreis Werdenberg"},"canton":{"key":"17","code":"SG","name":"St. Gallen"},"status":"Real"},{"key":"10071422","name":"Ivelrentsch","postalCode":"9472","locality":"Grabs","commune":{"key":"3273","name":"Grabs","shortName":"Grabs"},"district":{"key":"1724","name":"Wahlkreis Werdenberg"},"canton":{"key":"17","code":"SG","name":"St. Gallen"},"status":"Real"},{"key":"10225537","name":"Ivelrentschweg","postalCode":"9472","locality":"Grabs","commune":{"key":"3273","name":"Grabs","shortName":"Grabs"},"district":{"key":"1724","name":"Wahlkreis Werdenberg"},"canton":{"key":"17","code":"SG","name":"St. Gallen"},"status":"Real"},{"key":"10225537","name":"Ivelrentschweg","postalCode":"9472","locality":"Grabserberg","commune":{"key":"3273","name":"Grabs","shortName":"Grabs"},"district":{"key":"1724","name":"Wahlkreis Werdenberg"},"canton":{"key":"17","code":"SG","name":"St. Gallen"},"status":"Real"},{"key":"10194613","name":"Ivelspus-Engi","postalCode":"9472","locality":"Grabserberg","commune":{"key":"3273","name":"Grabs","shortName":"Grabs"},"district":{"key":"1724","name":"Wahlkreis Werdenberg"},"canton":{"key":"17","code":"SG","name":"St. Gallen"},"status":"Real"},{"key":"10203218","name":"Ivelspus-Gschwemmten","postalCode":"9472","locality":"Grabserberg","commune":{"key":"3273","name":"Grabs","shortName":"Grabs"},"district":{"key":"1724","name":"Wahlkreis Werdenberg"},"canton":{"key":"17","code":"SG","name":"St. Gallen"},"status":"Real"},{"key":"10194550","name":"Ivelspus-Guschawiti","postalCode":"9472","locality":"Grabserberg","commune":{"key":"3273","name":"Grabs","shortName":"Grabs"},"district":{"key":"1724","name":"Wahlkreis Werdenberg"},"canton":{"key":"17","code":"SG","name":"St. Gallen"},"status":"Real"},{"key":"10225541","name":"Ivelspus-Jäggen","postalCode":"9472","locality":"Grabserberg","commune":{"key":"3273","name":"Grabs","shortName":"Grabs"},"district":{"key":"1724","name":"Wahlkreis Werdenberg"},"canton":{"key":"17","code":"SG","name":"St. Gallen"},"status":"Real"},{"key":"10192695","name":"Ivelspus-Martisboden","postalCode":"9472","locality":"Grabserberg","commune":{"key":"3273","name":"Grabs","shortName":"Grabs"},"district":{"key":"1724","name":"Wahlkreis Werdenberg"},"canton":{"key":"17","code":"SG","name":"St. Gallen"},"status":"Real"},{"key":"10201862","name":"Ivelspus-Pirboden","postalCode":"9472","locality":"Grabserberg","commune":{"key":"3273","name":"Grabs","shortName":"Grabs"},"district":{"key":"1724","name":"Wahlkreis Werdenberg"},"canton":{"key":"17","code":"SG","name":"St. Gallen"},"status":"Real"},{"key":"10192742","name":"Ivelspus-Pirtole","postalCode":"9472","locality":"Grabserberg","commune":{"key":"3273","name":"Grabs","shortName":"Grabs"},"district":{"key":"1724","name":"Wahlkreis Werdenberg"},"canton":{"key":"17","code":"SG","name":"St. Gallen"},"status":"Real"},{"key":"10195443","name":"Ivelspus-Sess","postalCode":"9472","locality":"Grabserberg","commune":{"key":"3273","name":"Grabs","shortName":"Grabs"},"district":{"key":"1724","name":"Wahlkreis Werdenberg"},"canton":{"key":"17","code":"SG","name":"St. Gallen"},"status":"Real"},{"key":"10225545","name":"Ivelspusstrasse","postalCode":"9472","locality":"Grabs","commune":{"key":"3273","name":"Grabs","shortName":"Grabs"},"district":{"key":"1724","name":"Wahlkreis Werdenberg"},"canton":{"key":"17","code":"SG","name":"St. Gallen"},"status":"Real"},{"key":"10225545","name":"Ivelspusstrasse","postalCode":"9472","locality":"Grabserberg","commune":{"key":"3273","name":"Grabs","shortName":"Grabs"},"district":{"key":"1724","name":"Wahlkreis Werdenberg"},"canton":{"key":"17","code":"SG","name":"St. Gallen"},"status":"Real"},{"key":"10132240","name":"Iverturststrasse","postalCode":"9472","locality":"Grabs","commune":{"key":"3273","name":"Grabs","shortName":"Grabs"},"district":{"key":"1724","name":"Wahlkreis Werdenberg"},"canton":{"key":"17","code":"SG","name":"St. Gallen"},"status":"Real"},{"key":"10032694","name":"Jägerweg","postalCode":"9472","locality":"Grabs","commune":{"key":"3273","name":"Grabs","shortName":"Grabs"},"district":{"key":"1724","name":"Wahlkreis Werdenberg"},"canton":{"key":"17","code":"SG","name":"St. Gallen"},"status":"Real"},{"key":"10225549","name":"Jörlerstrasse","postalCode":"9472","locality":"Grabserberg","commune":{"key":"3273","name":"Grabs","shortName":"Grabs"},"district":{"key":"1724","name":"Wahlkreis Werdenberg"},"canton":{"key":"17","code":"SG","name":"St. Gallen"},"status":"Real"},{"key":"10250037","name":"Jörlisberg","postalCode":"9472","locality":"Grabserberg","commune":{"key":"3273","name":"Grabs","shortName":"Grabs"},"district":{"key":"1724","name":"Wahlkreis Werdenberg"},"canton":{"key":"17","code":"SG","name":"St. Gallen"},"status":"Real"},{"key":"10233293","name":"Jörlisbergweg","postalCode":"9472","locality":"Grabserberg","commune":{"key":"3273","name":"Grabs","shortName":"Grabs"},"district":{"key":"1724","name":"Wahlkreis Werdenberg"},"canton":{"key":"17","code":"SG","name":"St. Gallen"},"status":"Real"},{"key":"10210286","name":"Kerbelweg","postalCode":"9472","locality":"Grabs","commune":{"key":"3273","name":"Grabs","shortName":"Grabs"},"district":{"key":"1724","name":"Wahlkreis Werdenberg"},"canton":{"key":"17","code":"SG","name":"St. Gallen"},"status":"Real"},{"key":"10233301","name":"Kiesfangstrasse","postalCode":"9472","locality":"Grabs","commune":{"key":"3273","name":"Grabs","shortName":"Grabs"},"district":{"key":"1724","name":"Wahlkreis Werdenberg"},"canton":{"key":"17","code":"SG","name":"St. Gallen"},"status":"Real"},{"key":"10093123","name":"Kirchbüntstrasse","postalCode":"9472","locality":"Grabs","commune":{"key":"3273","name":"Grabs","shortName":"Grabs"},"district":{"key":"1724","name":"Wahlkreis Werdenberg"},"canton":{"key":"17","code":"SG","name":"St. Gallen"},"status":"Real"},{"key":"10233305","name":"Kirchenweg","postalCode":"9472","locality":"Grabs","commune":{"key":"3273","name":"Grabs","shortName":"Grabs"},"district":{"key":"1724","name":"Wahlkreis Werdenberg"},"canton":{"key":"17","code":"SG","name":"St. Gallen"},"status":"Real"},{"key":"10190897","name":"Kirchgasse","postalCode":"9472","locality":"Grabs","commune":{"key":"3273","name":"Grabs","shortName":"Grabs"},"district":{"key":"1724","name":"Wahlkreis Werdenberg"},"canton":{"key":"17","code":"SG","name":"St. Gallen"},"status":"Real"},{"key":"10032695","name":"Kleestrasse","postalCode":"9472","locality":"Grabs","commune":{"key":"3273","name":"Grabs","shortName":"Grabs"},"district":{"key":"1724","name":"Wahlkreis Werdenberg"},"canton":{"key":"17","code":"SG","name":"St. Gallen"},"status":"Real"},{"key":"10184683","name":"Krebsengrabenstrasse","postalCode":"9472","locality":"Grabs","commune":{"key":"3273","name":"Grabs","shortName":"Grabs"},"district":{"key":"1724","name":"Wahlkreis Werdenberg"},"canton":{"key":"17","code":"SG","name":"St. Gallen"},"status":"Real"},{"key":"10071423","name":"Kreuzbergstrasse","postalCode":"9472","locality":"Grabs","commune":{"key":"3273","name":"Grabs","shortName":"Grabs"},"district":{"key":"1724","name":"Wahlkreis Werdenberg"},"canton":{"key":"17","code":"SG","name":"St. Gallen"},"status":"Real"},{"key":"10191992","name":"Kronenstrasse","postalCode":"9472","locality":"Grabs","commune":{"key":"3273","name":"Grabs","shortName":"Grabs"},"district":{"key":"1724","name":"Wahlkreis Werdenberg"},"canton":{"key":"17","code":"SG","name":"St. Gallen"},"status":"Real"},{"key":"10176745","name":"Kronenweg","postalCode":"9472","locality":"Grabs","commune":{"key":"3273","name":"Grabs","shortName":"Grabs"},"district":{"key":"1724","name":"Wahlkreis Werdenberg"},"canton":{"key":"17","code":"SG","name":"St. Gallen"},"status":"Real"},{"key":"10093124","name":"Kuhnenboden","postalCode":"9472","locality":"Grabs","commune":{"key":"3273","name":"Grabs","shortName":"Grabs"},"district":{"key":"1724","name":"Wahlkreis Werdenberg"},"canton":{"key":"17","code":"SG","name":"St. Gallen"},"status":"Real"},{"key":"10233308","name":"Kurhusweg","postalCode":"9472","locality":"Grabserberg","commune":{"key":"3273","name":"Grabs","shortName":"Grabs"},"district":{"key":"1724","name":"Wahlkreis Werdenberg"},"canton":{"key":"17","code":"SG","name":"St. Gallen"},"status":"Real"},{"key":"10233320","name":"Langenstallweg","postalCode":"9472","locality":"Grabs","commune":{"key":"3273","name":"Grabs","shortName":"Grabs"},"district":{"key":"1724","name":"Wahlkreis Werdenberg"},"canton":{"key":"17","code":"SG","name":"St. Gallen"},"status":"Real"},{"key":"10233324","name":"Langenwaldstrasse","postalCode":"9472","locality":"Grabserberg","commune":{"key":"3273","name":"Grabs","shortName":"Grabs"},"district":{"key":"1724","name":"Wahlkreis Werdenberg"},"canton":{"key":"17","code":"SG","name":"St. Gallen"},"status":"Real"},{"key":"10233328","name":"Länggliweg","postalCode":"9472","locality":"Grabserberg","commune":{"key":"3273","name":"Grabs","shortName":"Grabs"},"district":{"key":"1724","name":"Wahlkreis Werdenberg"},"canton":{"key":"17","code":"SG","name":"St. Gallen"},"status":"Real"},{"key":"10233331","name":"Langmäderweg","postalCode":"9472","locality":"Grabs","commune":{"key":"3273","name":"Grabs","shortName":"Grabs"},"district":{"key":"1724","name":"Wahlkreis Werdenberg"},"canton":{"key":"17","code":"SG","name":"St. Gallen"},"status":"Real"},{"key":"10225601","name":"Langtobelweg","postalCode":"9472","locality":"Grabserberg","commune":{"key":"3273","name":"Grabs","shortName":"Grabs"},"district":{"key":"1724","name":"Wahlkreis Werdenberg"},"canton":{"key":"17","code":"SG","name":"St. Gallen"},"status":"Real"},{"key":"10194641","name":"Lärchengarten","postalCode":"9472","locality":"Grabserberg","commune":{"key":"3273","name":"Grabs","shortName":"Grabs"},"district":{"key":"1724","name":"Wahlkreis Werdenberg"},"canton":{"key":"17","code":"SG","name":"St. Gallen"},"status":"Real"},{"key":"10032696","name":"Laufenbrunnenstrasse","postalCode":"9472","locality":"Grabs","commune":{"key":"3273","name":"Grabs","shortName":"Grabs"},"district":{"key":"1724","name":"Wahlkreis Werdenberg"},"canton":{"key":"17","code":"SG","name":"St. Gallen"},"status":"Real"},{"key":"10046788","name":"Laufenbrunnenweg","postalCode":"9472","locality":"Grabs","commune":{"key":"3273","name":"Grabs","shortName":"Grabs"},"district":{"key":"1724","name":"Wahlkreis Werdenberg"},"canton":{"key":"17","code":"SG","name":"St. Gallen"},"status":"Real"},{"key":"10225605","name":"Läuiweg","postalCode":"9472","locality":"Grabserberg","commune":{"key":"3273","name":"Grabs","shortName":"Grabs"},"district":{"key":"1724","name":"Wahlkreis Werdenberg"},"canton":{"key":"17","code":"SG","name":"St. Gallen"},"status":"Real"},{"key":"10233346","name":"Läuizugweg","postalCode":"9472","locality":"Grabserberg","commune":{"key":"3273","name":"Grabs","shortName":"Grabs"},"district":{"key":"1724","name":"Wahlkreis Werdenberg"},"canton":{"key":"17","code":"SG","name":"St. Gallen"},"status":"Real"},{"key":"10032038","name":"Lehn","postalCode":"9472","locality":"Grabserberg","commune":{"key":"3273","name":"Grabs","shortName":"Grabs"},"district":{"key":"1724","name":"Wahlkreis Werdenberg"},"canton":{"key":"17","code":"SG","name":"St. Gallen"},"status":"Real"},{"key":"10093145","name":"Lehnbach","postalCode":"9472","locality":"Grabserberg","commune":{"key":"3273","name":"Grabs","shortName":"Grabs"},"district":{"key":"1724","name":"Wahlkreis Werdenberg"},"canton":{"key":"17","code":"SG","name":"St. Gallen"},"status":"Real"},{"key":"10233350","name":"Lehnbachweg","postalCode":"9472","locality":"Grabserberg","commune":{"key":"3273","name":"Grabs","shortName":"Grabs"},"district":{"key":"1724","name":"Wahlkreis Werdenberg"},"canton":{"key":"17","code":"SG","name":"St. Gallen"},"status":"Real"},{"key":"10233354","name":"Lehnweg","postalCode":"9472","locality":"Grabserberg","commune":{"key":"3273","name":"Grabs","shortName":"Grabs"},"district":{"key":"1724","name":"Wahlkreis Werdenberg"},"canton":{"key":"17","code":"SG","name":"St. Gallen"},"status":"Real"},{"key":"10191806","name":"Leversberg","postalCode":"9472","locality":"Grabs","commune":{"key":"3273","name":"Grabs","shortName":"Grabs"},"district":{"key":"1724","name":"Wahlkreis Werdenberg"},"canton":{"key":"17","code":"SG","name":"St. Gallen"},"status":"Real"},{"key":"10233358","name":"Leversbergstrasse","postalCode":"9472","locality":"Grabs","commune":{"key":"3273","name":"Grabs","shortName":"Grabs"},"district":{"key":"1724","name":"Wahlkreis Werdenberg"},"canton":{"key":"17","code":"SG","name":"St. Gallen"},"status":"Real"},{"key":"10233362","name":"Leversbergweg","postalCode":"9472","locality":"Grabs","commune":{"key":"3273","name":"Grabs","shortName":"Grabs"},"district":{"key":"1724","name":"Wahlkreis Werdenberg"},"canton":{"key":"17","code":"SG","name":"St. Gallen"},"status":"Real"},{"key":"10233362","name":"Leversbergweg","postalCode":"9472","locality":"Grabserberg","commune":{"key":"3273","name":"Grabs","shortName":"Grabs"},"district":{"key":"1724","name":"Wahlkreis Werdenberg"},"canton":{"key":"17","code":"SG","name":"St. Gallen"},"status":"Real"},{"key":"10071425","name":"Leversgass","postalCode":"9472","locality":"Grabserberg","commune":{"key":"3273","name":"Grabs","shortName":"Grabs"},"district":{"key":"1724","name":"Wahlkreis Werdenberg"},"canton":{"key":"17","code":"SG","name":"St. Gallen"},"status":"Real"},{"key":"10071424","name":"Leversschwendi","postalCode":"9472","locality":"Grabserberg","commune":{"key":"3273","name":"Grabs","shortName":"Grabs"},"district":{"key":"1724","name":"Wahlkreis Werdenberg"},"canton":{"key":"17","code":"SG","name":"St. Gallen"},"status":"Real"},{"key":"10233366","name":"Leversschwendigass","postalCode":"9472","locality":"Grabserberg","commune":{"key":"3273","name":"Grabs","shortName":"Grabs"},"district":{"key":"1724","name":"Wahlkreis Werdenberg"},"canton":{"key":"17","code":"SG","name":"St. Gallen"},"status":"Real"},{"key":"10250624","name":"Leversschwendiweg","postalCode":"9472","locality":"Grabserberg","commune":{"key":"3273","name":"Grabs","shortName":"Grabs"},"district":{"key":"1724","name":"Wahlkreis Werdenberg"},"canton":{"key":"17","code":"SG","name":"St. Gallen"},"status":"Real"},{"key":"10032697","name":"Lidmäl","postalCode":"9472","locality":"Grabserberg","commune":{"key":"3273","name":"Grabs","shortName":"Grabs"},"district":{"key":"1724","name":"Wahlkreis Werdenberg"},"canton":{"key":"17","code":"SG","name":"St. Gallen"},"status":"Real"},{"key":"10233370","name":"Lidmälstrasse","postalCode":"9472","locality":"Grabserberg","commune":{"key":"3273","name":"Grabs","shortName":"Grabs"},"district":{"key":"1724","name":"Wahlkreis Werdenberg"},"canton":{"key":"17","code":"SG","name":"St. Gallen"},"status":"Real"},{"key":"10183080","name":"Lilienweg","postalCode":"9472","locality":"Grabs","commune":{"key":"3273","name":"Grabs","shortName":"Grabs"},"district":{"key":"1724","name":"Wahlkreis Werdenberg"},"canton":{"key":"17","code":"SG","name":"St. Gallen"},"status":"Real"},{"key":"10032698","name":"Lindenweg","postalCode":"9472","locality":"Grabs","commune":{"key":"3273","name":"Grabs","shortName":"Grabs"},"district":{"key":"1724","name":"Wahlkreis Werdenberg"},"canton":{"key":"17","code":"SG","name":"St. Gallen"},"status":"Real"},{"key":"10199023","name":"Littenberg","postalCode":"9472","locality":"Grabserberg","commune":{"key":"3273","name":"Grabs","shortName":"Grabs"},"district":{"key":"1724","name":"Wahlkreis Werdenberg"},"canton":{"key":"17","code":"SG","name":"St. Gallen"},"status":"Real"},{"key":"10233374","name":"Litten-Bongert-Weg","postalCode":"9472","locality":"Grabserberg","commune":{"key":"3273","name":"Grabs","shortName":"Grabs"},"district":{"key":"1724","name":"Wahlkreis Werdenberg"},"canton":{"key":"17","code":"SG","name":"St. Gallen"},"status":"Real"},{"key":"10233378","name":"Littenweg","postalCode":"9472","locality":"Grabserberg","commune":{"key":"3273","name":"Grabs","shortName":"Grabs"},"district":{"key":"1724","name":"Wahlkreis Werdenberg"},"canton":{"key":"17","code":"SG","name":"St. Gallen"},"status":"Real"},{"key":"10233382","name":"Littli","postalCode":"9472","locality":"Grabserberg","commune":{"key":"3273","name":"Grabs","shortName":"Grabs"},"district":{"key":"1724","name":"Wahlkreis Werdenberg"},"canton":{"key":"17","code":"SG","name":"St. Gallen"},"status":"Real"},{"key":"10083114","name":"Lober","postalCode":"9472","locality":"Grabs","commune":{"key":"3273","name":"Grabs","shortName":"Grabs"},"district":{"key":"1724","name":"Wahlkreis Werdenberg"},"canton":{"key":"17","code":"SG","name":"St. Gallen"},"status":"Real"},{"key":"10032039","name":"Loch","postalCode":"9472","locality":"Grabserberg","commune":{"key":"3273","name":"Grabs","shortName":"Grabs"},"district":{"key":"1724","name":"Wahlkreis Werdenberg"},"canton":{"key":"17","code":"SG","name":"St. Gallen"},"status":"Real"},{"key":"10059783","name":"Löchli","postalCode":"9472","locality":"Grabs","commune":{"key":"3273","name":"Grabs","shortName":"Grabs"},"district":{"key":"1724","name":"Wahlkreis Werdenberg"},"canton":{"key":"17","code":"SG","name":"St. Gallen"},"status":"Real"},{"key":"10233386","name":"Löchlistrasse","postalCode":"9472","locality":"Grabs","commune":{"key":"3273","name":"Grabs","shortName":"Grabs"},"district":{"key":"1724","name":"Wahlkreis Werdenberg"},"canton":{"key":"17","code":"SG","name":"St. Gallen"},"status":"Real"},{"key":"10252349","name":"Löchli-Studnerberg","postalCode":"9472","locality":"Grabs","commune":{"key":"3273","name":"Grabs","shortName":"Grabs"},"district":{"key":"1724","name":"Wahlkreis Werdenberg"},"canton":{"key":"17","code":"SG","name":"St. Gallen"},"status":"Real"},{"key":"10233390","name":"Löchliweg","postalCode":"9472","locality":"Grabs","commune":{"key":"3273","name":"Grabs","shortName":"Grabs"},"district":{"key":"1724","name":"Wahlkreis Werdenberg"},"canton":{"key":"17","code":"SG","name":"St. Gallen"},"status":"Real"},{"key":"10232600","name":"Lochstrasse","postalCode":"9472","locality":"Grabserberg","commune":{"key":"3273","name":"Grabs","shortName":"Grabs"},"district":{"key":"1724","name":"Wahlkreis Werdenberg"},"canton":{"key":"17","code":"SG","name":"St. Gallen"},"status":"Real"},{"key":"10232604","name":"Lochweg","postalCode":"9472","locality":"Grabserberg","commune":{"key":"3273","name":"Grabs","shortName":"Grabs"},"district":{"key":"1724","name":"Wahlkreis Werdenberg"},"canton":{"key":"17","code":"SG","name":"St. Gallen"},"status":"Real"},{"key":"10096627","name":"Lognerstrasse","postalCode":"9472","locality":"Grabs","commune":{"key":"3273","name":"Grabs","shortName":"Grabs"},"district":{"key":"1724","name":"Wahlkreis Werdenberg"},"canton":{"key":"17","code":"SG","name":"St. Gallen"},"status":"Real"},{"key":"10030559","name":"Löwenstrasse","postalCode":"9472","locality":"Grabs","commune":{"key":"3273","name":"Grabs","shortName":"Grabs"},"district":{"key":"1724","name":"Wahlkreis Werdenberg"},"canton":{"key":"17","code":"SG","name":"St. Gallen"},"status":"Real"},{"key":"10093125","name":"Lukashausstrasse","postalCode":"9472","locality":"Grabs","commune":{"key":"3273","name":"Grabs","shortName":"Grabs"},"district":{"key":"1724","name":"Wahlkreis Werdenberg"},"canton":{"key":"17","code":"SG","name":"St. Gallen"},"status":"Real"},{"key":"10232612","name":"Lukashausweg","postalCode":"9472","locality":"Grabs","commune":{"key":"3273","name":"Grabs","shortName":"Grabs"},"district":{"key":"1724","name":"Wahlkreis Werdenberg"},"canton":{"key":"17","code":"SG","name":"St. Gallen"},"status":"Real"},{"key":"10071426","name":"Mafun","postalCode":"9472","locality":"Grabs","commune":{"key":"3273","name":"Grabs","shortName":"Grabs"},"district":{"key":"1724","name":"Wahlkreis Werdenberg"},"canton":{"key":"17","code":"SG","name":"St. Gallen"},"status":"Real"},{"key":"10232617","name":"Mafunweg","postalCode":"9472","locality":"Grabs","commune":{"key":"3273","name":"Grabs","shortName":"Grabs"},"district":{"key":"1724","name":"Wahlkreis Werdenberg"},"canton":{"key":"17","code":"SG","name":"St. Gallen"},"status":"Real"},{"key":"10232621","name":"Maienbergstrasse","postalCode":"9472","locality":"Grabserberg","commune":{"key":"3273","name":"Grabs","shortName":"Grabs"},"district":{"key":"1724","name":"Wahlkreis Werdenberg"},"canton":{"key":"17","code":"SG","name":"St. Gallen"},"status":"Real"},{"key":"10232624","name":"Maienzunweg","postalCode":"9472","locality":"Grabserberg","commune":{"key":"3273","name":"Grabs","shortName":"Grabs"},"district":{"key":"1724","name":"Wahlkreis Werdenberg"},"canton":{"key":"17","code":"SG","name":"St. Gallen"},"status":"Real"},{"key":"10232628","name":"Malerweg","postalCode":"9472","locality":"Grabs","commune":{"key":"3273","name":"Grabs","shortName":"Grabs"},"district":{"key":"1724","name":"Wahlkreis Werdenberg"},"canton":{"key":"17","code":"SG","name":"St. Gallen"},"status":"Real"},{"key":"10113039","name":"Mammet","postalCode":"9472","locality":"Grabs","commune":{"key":"3273","name":"Grabs","shortName":"Grabs"},"district":{"key":"1724","name":"Wahlkreis Werdenberg"},"canton":{"key":"17","code":"SG","name":"St. Gallen"},"status":"Real"},{"key":"10232631","name":"Mammetstrasse","postalCode":"9472","locality":"Grabs","commune":{"key":"3273","name":"Grabs","shortName":"Grabs"},"district":{"key":"1724","name":"Wahlkreis Werdenberg"},"canton":{"key":"17","code":"SG","name":"St. Gallen"},"status":"Real"},{"key":"10232636","name":"Mammetweg","postalCode":"9472","locality":"Grabs","commune":{"key":"3273","name":"Grabs","shortName":"Grabs"},"district":{"key":"1724","name":"Wahlkreis Werdenberg"},"canton":{"key":"17","code":"SG","name":"St. Gallen"},"status":"Real"},{"key":"10232640","name":"Margelchopfweg","postalCode":"9472","locality":"Grabserberg","commune":{"key":"3273","name":"Grabs","shortName":"Grabs"},"district":{"key":"1724","name":"Wahlkreis Werdenberg"},"canton":{"key":"17","code":"SG","name":"St. Gallen"},"status":"Real"},{"key":"10071427","name":"Marhaldenstrasse","postalCode":"9472","locality":"Grabs","commune":{"key":"3273","name":"Grabs","shortName":"Grabs"},"district":{"key":"1724","name":"Wahlkreis Werdenberg"},"canton":{"key":"17","code":"SG","name":"St. Gallen"},"status":"Real"},{"key":"10093126","name":"Marktplatz","postalCode":"9472","locality":"Grabs","commune":{"key":"3273","name":"Grabs","shortName":"Grabs"},"district":{"key":"1724","name":"Wahlkreis Werdenberg"},"canton":{"key":"17","code":"SG","name":"St. Gallen"},"status":"Real"},{"key":"10183081","name":"Marktstrasse","postalCode":"9472","locality":"Grabs","commune":{"key":"3273","name":"Grabs","shortName":"Grabs"},"district":{"key":"1724","name":"Wahlkreis Werdenberg"},"canton":{"key":"17","code":"SG","name":"St. Gallen"},"status":"Real"},{"key":"10030560","name":"Marktweg","postalCode":"9472","locality":"Grabs","commune":{"key":"3273","name":"Grabs","shortName":"Grabs"},"district":{"key":"1724","name":"Wahlkreis Werdenberg"},"canton":{"key":"17","code":"SG","name":"St. Gallen"},"status":"Real"},{"key":"10232644","name":"Martisbodenweg","postalCode":"9472","locality":"Grabserberg","commune":{"key":"3273","name":"Grabs","shortName":"Grabs"},"district":{"key":"1724","name":"Wahlkreis Werdenberg"},"canton":{"key":"17","code":"SG","name":"St. Gallen"},"status":"Real"},{"key":"10250033","name":"Maschinenweg Rutz","postalCode":"9472","locality":"Grabs","commune":{"key":"3273","name":"Grabs","shortName":"Grabs"},"district":{"key":"1724","name":"Wahlkreis Werdenberg"},"canton":{"key":"17","code":"SG","name":"St. Gallen"},"status":"Real"},{"key":"10030561","name":"Mattenhof","postalCode":"9472","locality":"Grabs","commune":{"key":"3273","name":"Grabs","shortName":"Grabs"},"district":{"key":"1724","name":"Wahlkreis Werdenberg"},"canton":{"key":"17","code":"SG","name":"St. Gallen"},"status":"Real"},{"key":"10232646","name":"Maturtfussweg","postalCode":"9472","locality":"Grabs","commune":{"key":"3273","name":"Grabs","shortName":"Grabs"},"district":{"key":"1724","name":"Wahlkreis Werdenberg"},"canton":{"key":"17","code":"SG","name":"St. Gallen"},"status":"Real"},{"key":"10093127","name":"Maturtweg","postalCode":"9472","locality":"Grabs","commune":{"key":"3273","name":"Grabs","shortName":"Grabs"},"district":{"key":"1724","name":"Wahlkreis Werdenberg"},"canton":{"key":"17","code":"SG","name":"St. Gallen"},"status":"Real"},{"key":"10109434","name":"Meinradstrasse","postalCode":"9472","locality":"Grabs","commune":{"key":"3273","name":"Grabs","shortName":"Grabs"},"district":{"key":"1724","name":"Wahlkreis Werdenberg"},"canton":{"key":"17","code":"SG","name":"St. Gallen"},"status":"Real"},{"key":"10030562","name":"Meinradsweg","postalCode":"9472","locality":"Grabs","commune":{"key":"3273","name":"Grabs","shortName":"Grabs"},"district":{"key":"1724","name":"Wahlkreis Werdenberg"},"canton":{"key":"17","code":"SG","name":"St. Gallen"},"status":"Real"},{"key":"10232649","name":"Mittlerer Rufersweg","postalCode":"9472","locality":"Grabs","commune":{"key":"3273","name":"Grabs","shortName":"Grabs"},"district":{"key":"1724","name":"Wahlkreis Werdenberg"},"canton":{"key":"17","code":"SG","name":"St. Gallen"},"status":"Real"},{"key":"10232658","name":"Moosbühelweg","postalCode":"9472","locality":"Grabserberg","commune":{"key":"3273","name":"Grabs","shortName":"Grabs"},"district":{"key":"1724","name":"Wahlkreis Werdenberg"},"canton":{"key":"17","code":"SG","name":"St. Gallen"},"status":"Real"},{"key":"10093128","name":"Mühlbachstrasse","postalCode":"9472","locality":"Grabs","commune":{"key":"3273","name":"Grabs","shortName":"Grabs"},"district":{"key":"1724","name":"Wahlkreis Werdenberg"},"canton":{"key":"17","code":"SG","name":"St. Gallen"},"status":"Real"},{"key":"10232664","name":"Mühlbachweg","postalCode":"9472","locality":"Grabs","commune":{"key":"3273","name":"Grabs","shortName":"Grabs"},"district":{"key":"1724","name":"Wahlkreis Werdenberg"},"canton":{"key":"17","code":"SG","name":"St. Gallen"},"status":"Real"},{"key":"10232666","name":"Mühlehäldeliweg","postalCode":"9472","locality":"Grabs","commune":{"key":"3273","name":"Grabs","shortName":"Grabs"},"district":{"key":"1724","name":"Wahlkreis Werdenberg"},"canton":{"key":"17","code":"SG","name":"St. Gallen"},"status":"Real"},{"key":"10113044","name":"Mumpelin","postalCode":"9472","locality":"Grabserberg","commune":{"key":"3273","name":"Grabs","shortName":"Grabs"},"district":{"key":"1724","name":"Wahlkreis Werdenberg"},"canton":{"key":"17","code":"SG","name":"St. Gallen"},"status":"Real"},{"key":"10230407","name":"Mumpelinstrasse","postalCode":"9472","locality":"Grabserberg","commune":{"key":"3273","name":"Grabs","shortName":"Grabs"},"district":{"key":"1724","name":"Wahlkreis Werdenberg"},"canton":{"key":"17","code":"SG","name":"St. Gallen"},"status":"Real"},{"key":"10232673","name":"Mumpelinweg","postalCode":"9472","locality":"Grabserberg","commune":{"key":"3273","name":"Grabs","shortName":"Grabs"},"district":{"key":"1724","name":"Wahlkreis Werdenberg"},"canton":{"key":"17","code":"SG","name":"St. Gallen"},"status":"Real"},{"key":"10059776","name":"Muntaschin","postalCode":"9472","locality":"Grabs","commune":{"key":"3273","name":"Grabs","shortName":"Grabs"},"district":{"key":"1724","name":"Wahlkreis Werdenberg"},"canton":{"key":"17","code":"SG","name":"St. Gallen"},"status":"Real"},{"key":"10232677","name":"Muntaschinweg","postalCode":"9472","locality":"Grabs","commune":{"key":"3273","name":"Grabs","shortName":"Grabs"},"district":{"key":"1724","name":"Wahlkreis Werdenberg"},"canton":{"key":"17","code":"SG","name":"St. Gallen"},"status":"Real"},{"key":"10232681","name":"Muntenos","postalCode":"9472","locality":"Grabs","commune":{"key":"3273","name":"Grabs","shortName":"Grabs"},"district":{"key":"1724","name":"Wahlkreis Werdenberg"},"canton":{"key":"17","code":"SG","name":"St. Gallen"},"status":"Real"},{"key":"10232686","name":"Muntenosweg","postalCode":"9472","locality":"Grabs","commune":{"key":"3273","name":"Grabs","shortName":"Grabs"},"district":{"key":"1724","name":"Wahlkreis Werdenberg"},"canton":{"key":"17","code":"SG","name":"St. Gallen"},"status":"Real"},{"key":"10032040","name":"Muntlerentsch","postalCode":"9472","locality":"Grabserberg","commune":{"key":"3273","name":"Grabs","shortName":"Grabs"},"district":{"key":"1724","name":"Wahlkreis Werdenberg"},"canton":{"key":"17","code":"SG","name":"St. Gallen"},"status":"Real"},{"key":"10232690","name":"Muntlerentschstrasse","postalCode":"9472","locality":"Grabserberg","commune":{"key":"3273","name":"Grabs","shortName":"Grabs"},"district":{"key":"1724","name":"Wahlkreis Werdenberg"},"canton":{"key":"17","code":"SG","name":"St. Gallen"},"status":"Real"},{"key":"10113035","name":"Münzgraben","postalCode":"9472","locality":"Grabs","commune":{"key":"3273","name":"Grabs","shortName":"Grabs"},"district":{"key":"1724","name":"Wahlkreis Werdenberg"},"canton":{"key":"17","code":"SG","name":"St. Gallen"},"status":"Real"},{"key":"10032041","name":"Müselun","postalCode":"9472","locality":"Grabserberg","commune":{"key":"3273","name":"Grabs","shortName":"Grabs"},"district":{"key":"1724","name":"Wahlkreis Werdenberg"},"canton":{"key":"17","code":"SG","name":"St. Gallen"},"status":"Real"},{"key":"10232694","name":"Müselunstrasse","postalCode":"9472","locality":"Grabserberg","commune":{"key":"3273","name":"Grabs","shortName":"Grabs"},"district":{"key":"1724","name":"Wahlkreis Werdenberg"},"canton":{"key":"17","code":"SG","name":"St. Gallen"},"status":"Real"},{"key":"10062050","name":"Nageldach","postalCode":"9472","locality":"Grabserberg","commune":{"key":"3273","name":"Grabs","shortName":"Grabs"},"district":{"key":"1724","name":"Wahlkreis Werdenberg"},"canton":{"key":"17","code":"SG","name":"St. Gallen"},"status":"Real"},{"key":"10232698","name":"Nageldachweg","postalCode":"9472","locality":"Grabserberg","commune":{"key":"3273","name":"Grabs","shortName":"Grabs"},"district":{"key":"1724","name":"Wahlkreis Werdenberg"},"canton":{"key":"17","code":"SG","name":"St. Gallen"},"status":"Real"},{"key":"10030563","name":"Narzissenweg","postalCode":"9472","locality":"Grabs","commune":{"key":"3273","name":"Grabs","shortName":"Grabs"},"district":{"key":"1724","name":"Wahlkreis Werdenberg"},"canton":{"key":"17","code":"SG","name":"St. Gallen"},"status":"Real"},{"key":"10192697","name":"Nausner Obersess","postalCode":"9472","locality":"Grabserberg","commune":{"key":"3273","name":"Grabs","shortName":"Grabs"},"district":{"key":"1724","name":"Wahlkreis Werdenberg"},"canton":{"key":"17","code":"SG","name":"St. Gallen"},"status":"Real"},{"key":"10194614","name":"Nausner Untersess","postalCode":"9472","locality":"Grabserberg","commune":{"key":"3273","name":"Grabs","shortName":"Grabs"},"district":{"key":"1724","name":"Wahlkreis Werdenberg"},"canton":{"key":"17","code":"SG","name":"St. Gallen"},"status":"Real"},{"key":"10232702","name":"Naus-Sauboden","postalCode":"9472","locality":"Grabserberg","commune":{"key":"3273","name":"Grabs","shortName":"Grabs"},"district":{"key":"1724","name":"Wahlkreis Werdenberg"},"canton":{"key":"17","code":"SG","name":"St. Gallen"},"status":"Real"},{"key":"10232707","name":"Nausweg","postalCode":"9472","locality":"Grabserberg","commune":{"key":"3273","name":"Grabs","shortName":"Grabs"},"district":{"key":"1724","name":"Wahlkreis Werdenberg"},"canton":{"key":"17","code":"SG","name":"St. Gallen"},"status":"Real"},{"key":"10071429","name":"Nelkenweg","postalCode":"9472","locality":"Grabs","commune":{"key":"3273","name":"Grabs","shortName":"Grabs"},"district":{"key":"1724","name":"Wahlkreis Werdenberg"},"canton":{"key":"17","code":"SG","name":"St. Gallen"},"status":"Real"},{"key":"10232709","name":"Neuenalpweg","postalCode":"9472","locality":"Grabserberg","commune":{"key":"3273","name":"Grabs","shortName":"Grabs"},"district":{"key":"1724","name":"Wahlkreis Werdenberg"},"canton":{"key":"17","code":"SG","name":"St. Gallen"},"status":"Real"},{"key":"10059790","name":"Neuengaden","postalCode":"9472","locality":"Grabs","commune":{"key":"3273","name":"Grabs","shortName":"Grabs"},"district":{"key":"1724","name":"Wahlkreis Werdenberg"},"canton":{"key":"17","code":"SG","name":"St. Gallen"},"status":"Real"},{"key":"10232713","name":"Neuengadenstrasse","postalCode":"9472","locality":"Grabs","commune":{"key":"3273","name":"Grabs","shortName":"Grabs"},"district":{"key":"1724","name":"Wahlkreis Werdenberg"},"canton":{"key":"17","code":"SG","name":"St. Gallen"},"status":"Real"},{"key":"10232718","name":"Nideriweg","postalCode":"9472","locality":"Grabserberg","commune":{"key":"3273","name":"Grabs","shortName":"Grabs"},"district":{"key":"1724","name":"Wahlkreis Werdenberg"},"canton":{"key":"17","code":"SG","name":"St. Gallen"},"status":"Real"},{"key":"10232722","name":"Oberbülsweg","postalCode":"9472","locality":"Grabs","commune":{"key":"3273","name":"Grabs","shortName":"Grabs"},"district":{"key":"1724","name":"Wahlkreis Werdenberg"},"canton":{"key":"17","code":"SG","name":"St. Gallen"},"status":"Real"},{"key":"10232726","name":"Obere Amasisstrasse","postalCode":"9472","locality":"Grabs","commune":{"key":"3273","name":"Grabs","shortName":"Grabs"},"district":{"key":"1724","name":"Wahlkreis Werdenberg"},"canton":{"key":"17","code":"SG","name":"St. Gallen"},"status":"Real"},{"key":"10232730","name":"Obere Griststrasse","postalCode":"9472","locality":"Grabs","commune":{"key":"3273","name":"Grabs","shortName":"Grabs"},"district":{"key":"1724","name":"Wahlkreis Werdenberg"},"canton":{"key":"17","code":"SG","name":"St. Gallen"},"status":"Real"},{"key":"10155475","name":"Obere Iverturststrasse","postalCode":"9472","locality":"Grabs","commune":{"key":"3273","name":"Grabs","shortName":"Grabs"},"district":{"key":"1724","name":"Wahlkreis Werdenberg"},"canton":{"key":"17","code":"SG","name":"St. Gallen"},"status":"Real"},{"key":"10183082","name":"Obere Kirchbüntstrasse","postalCode":"9472","locality":"Grabs","commune":{"key":"3273","name":"Grabs","shortName":"Grabs"},"district":{"key":"1724","name":"Wahlkreis Werdenberg"},"canton":{"key":"17","code":"SG","name":"St. Gallen"},"status":"Real"},{"key":"10093146","name":"Oberen Boden","postalCode":"9472","locality":"Grabserberg","commune":{"key":"3273","name":"Grabs","shortName":"Grabs"},"district":{"key":"1724","name":"Wahlkreis Werdenberg"},"canton":{"key":"17","code":"SG","name":"St. Gallen"},"status":"Real"},{"key":"10071430","name":"Oberen Steinagger","postalCode":"9472","locality":"Grabserberg","commune":{"key":"3273","name":"Grabs","shortName":"Grabs"},"district":{"key":"1724","name":"Wahlkreis Werdenberg"},"canton":{"key":"17","code":"SG","name":"St. Gallen"},"status":"Real"},{"key":"10232734","name":"Obere Rappenlochstrasse","postalCode":"9472","locality":"Grabserberg","commune":{"key":"3273","name":"Grabs","shortName":"Grabs"},"district":{"key":"1724","name":"Wahlkreis Werdenberg"},"canton":{"key":"17","code":"SG","name":"St. Gallen"},"status":"Real"},{"key":"10093129","name":"Oberer Erlenweg","postalCode":"9472","locality":"Grabs","commune":{"key":"3273","name":"Grabs","shortName":"Grabs"},"district":{"key":"1724","name":"Wahlkreis Werdenberg"},"canton":{"key":"17","code":"SG","name":"St. Gallen"},"status":"Real"},{"key":"10030564","name":"Oberer Geriälsweg","postalCode":"9472","locality":"Grabs","commune":{"key":"3273","name":"Grabs","shortName":"Grabs"},"district":{"key":"1724","name":"Wahlkreis Werdenberg"},"canton":{"key":"17","code":"SG","name":"St. Gallen"},"status":"Real"},{"key":"10232738","name":"Oberer Hängelenweg","postalCode":"9472","locality":"Grabserberg","commune":{"key":"3273","name":"Grabs","shortName":"Grabs"},"district":{"key":"1724","name":"Wahlkreis Werdenberg"},"canton":{"key":"17","code":"SG","name":"St. Gallen"},"status":"Real"},{"key":"10250038","name":"Oberer Trockenbühelweg","postalCode":"9472","locality":"Grabs","commune":{"key":"3273","name":"Grabs","shortName":"Grabs"},"district":{"key":"1724","name":"Wahlkreis Werdenberg"},"canton":{"key":"17","code":"SG","name":"St. Gallen"},"status":"Real"},{"key":"10152115","name":"Oberer Wässertenweg","postalCode":"9472","locality":"Grabs","commune":{"key":"3273","name":"Grabs","shortName":"Grabs"},"district":{"key":"1724","name":"Wahlkreis Werdenberg"},"canton":{"key":"17","code":"SG","name":"St. Gallen"},"status":"Real"},{"key":"10071431","name":"Obergatter","postalCode":"9472","locality":"Grabs","commune":{"key":"3273","name":"Grabs","shortName":"Grabs"},"district":{"key":"1724","name":"Wahlkreis Werdenberg"},"canton":{"key":"17","code":"SG","name":"St. Gallen"},"status":"Real"},{"key":"10232745","name":"Obergatterweg","postalCode":"9472","locality":"Grabs","commune":{"key":"3273","name":"Grabs","shortName":"Grabs"},"district":{"key":"1724","name":"Wahlkreis Werdenberg"},"canton":{"key":"17","code":"SG","name":"St. Gallen"},"status":"Real"},{"key":"10117152","name":"Obermasis","postalCode":"9472","locality":"Grabs","commune":{"key":"3273","name":"Grabs","shortName":"Grabs"},"district":{"key":"1724","name":"Wahlkreis Werdenberg"},"canton":{"key":"17","code":"SG","name":"St. Gallen"},"status":"Real"},{"key":"10250041","name":"Oberpüls","postalCode":"9472","locality":"Grabs","commune":{"key":"3273","name":"Grabs","shortName":"Grabs"},"district":{"key":"1724","name":"Wahlkreis Werdenberg"},"canton":{"key":"17","code":"SG","name":"St. Gallen"},"status":"Real"},{"key":"10030565","name":"Oberstaudenweg","postalCode":"9472","locality":"Grabs","commune":{"key":"3273","name":"Grabs","shortName":"Grabs"},"district":{"key":"1724","name":"Wahlkreis Werdenberg"},"canton":{"key":"17","code":"SG","name":"St. Gallen"},"status":"Real"},{"key":"10232749","name":"Obetweidweg","postalCode":"9472","locality":"Grabserberg","commune":{"key":"3273","name":"Grabs","shortName":"Grabs"},"district":{"key":"1724","name":"Wahlkreis Werdenberg"},"canton":{"key":"17","code":"SG","name":"St. Gallen"},"status":"Real"},{"key":"10071432","name":"Ochsensand","postalCode":"9472","locality":"Grabs","commune":{"key":"3273","name":"Grabs","shortName":"Grabs"},"district":{"key":"1724","name":"Wahlkreis Werdenberg"},"canton":{"key":"17","code":"SG","name":"St. Gallen"},"status":"Real"},{"key":"10167312","name":"Ochsensandstrasse","postalCode":"9472","locality":"Grabs","commune":{"key":"3273","name":"Grabs","shortName":"Grabs"},"district":{"key":"1724","name":"Wahlkreis Werdenberg"},"canton":{"key":"17","code":"SG","name":"St. Gallen"},"status":"Real"},{"key":"10232753","name":"Ochsensandweg","postalCode":"9472","locality":"Grabs","commune":{"key":"3273","name":"Grabs","shortName":"Grabs"},"district":{"key":"1724","name":"Wahlkreis Werdenberg"},"canton":{"key":"17","code":"SG","name":"St. Gallen"},"status":"Real"},{"key":"10197678","name":"Ort","postalCode":"9472","locality":"Grabserberg","commune":{"key":"3273","name":"Grabs","shortName":"Grabs"},"district":{"key":"1724","name":"Wahlkreis Werdenberg"},"canton":{"key":"17","code":"SG","name":"St. Gallen"},"status":"Real"},{"key":"10230498","name":"Ortweg","postalCode":"9472","locality":"Grabserberg","commune":{"key":"3273","name":"Grabs","shortName":"Grabs"},"district":{"key":"1724","name":"Wahlkreis Werdenberg"},"canton":{"key":"17","code":"SG","name":"St. Gallen"},"status":"Real"},{"key":"10118257","name":"Perdeilenstrasse","postalCode":"9472","locality":"Grabs","commune":{"key":"3273","name":"Grabs","shortName":"Grabs"},"district":{"key":"1724","name":"Wahlkreis Werdenberg"},"canton":{"key":"17","code":"SG","name":"St. Gallen"},"status":"Real"},{"key":"10030566","name":"Perdeilenweg","postalCode":"9472","locality":"Grabs","commune":{"key":"3273","name":"Grabs","shortName":"Grabs"},"district":{"key":"1724","name":"Wahlkreis Werdenberg"},"canton":{"key":"17","code":"SG","name":"St. Gallen"},"status":"Real"},{"key":"10125568","name":"Pilärsch","postalCode":"9472","locality":"Grabserberg","commune":{"key":"3273","name":"Grabs","shortName":"Grabs"},"district":{"key":"1724","name":"Wahlkreis Werdenberg"},"canton":{"key":"17","code":"SG","name":"St. Gallen"},"status":"Real"},{"key":"10230501","name":"Pirweg","postalCode":"9472","locality":"Grabserberg","commune":{"key":"3273","name":"Grabs","shortName":"Grabs"},"district":{"key":"1724","name":"Wahlkreis Werdenberg"},"canton":{"key":"17","code":"SG","name":"St. Gallen"},"status":"Real"},{"key":"10230505","name":"Pizolweg","postalCode":"9472","locality":"Grabserberg","commune":{"key":"3273","name":"Grabs","shortName":"Grabs"},"district":{"key":"1724","name":"Wahlkreis Werdenberg"},"canton":{"key":"17","code":"SG","name":"St. Gallen"},"status":"Real"},{"key":"10059791","name":"Plangg","postalCode":"9472","locality":"Grabserberg","commune":{"key":"3273","name":"Grabs","shortName":"Grabs"},"district":{"key":"1724","name":"Wahlkreis Werdenberg"},"canton":{"key":"17","code":"SG","name":"St. Gallen"},"status":"Real"},{"key":"10230509","name":"Planggstrasse","postalCode":"9472","locality":"Grabserberg","commune":{"key":"3273","name":"Grabs","shortName":"Grabs"},"district":{"key":"1724","name":"Wahlkreis Werdenberg"},"canton":{"key":"17","code":"SG","name":"St. Gallen"},"status":"Real"},{"key":"10230513","name":"Planggweg","postalCode":"9472","locality":"Grabserberg","commune":{"key":"3273","name":"Grabs","shortName":"Grabs"},"district":{"key":"1724","name":"Wahlkreis Werdenberg"},"canton":{"key":"17","code":"SG","name":"St. Gallen"},"status":"Real"},{"key":"10183091","name":"Plenen","postalCode":"9472","locality":"Grabserberg","commune":{"key":"3273","name":"Grabs","shortName":"Grabs"},"district":{"key":"1724","name":"Wahlkreis Werdenberg"},"canton":{"key":"17","code":"SG","name":"St. Gallen"},"status":"Real"},{"key":"10230517","name":"Plisaweg","postalCode":"9472","locality":"Grabserberg","commune":{"key":"3273","name":"Grabs","shortName":"Grabs"},"district":{"key":"1724","name":"Wahlkreis Werdenberg"},"canton":{"key":"17","code":"SG","name":"St. Gallen"},"status":"Real"},{"key":"10030567","name":"Postweg","postalCode":"9472","locality":"Grabs","commune":{"key":"3273","name":"Grabs","shortName":"Grabs"},"district":{"key":"1724","name":"Wahlkreis Werdenberg"},"canton":{"key":"17","code":"SG","name":"St. Gallen"},"status":"Real"},{"key":"10184684","name":"Prestenegg","postalCode":"9472","locality":"Grabs","commune":{"key":"3273","name":"Grabs","shortName":"Grabs"},"district":{"key":"1724","name":"Wahlkreis Werdenberg"},"canton":{"key":"17","code":"SG","name":"St. Gallen"},"status":"Real"},{"key":"10230521","name":"Presteneggweg","postalCode":"9472","locality":"Grabs","commune":{"key":"3273","name":"Grabs","shortName":"Grabs"},"district":{"key":"1724","name":"Wahlkreis Werdenberg"},"canton":{"key":"17","code":"SG","name":"St. Gallen"},"status":"Real"},{"key":"10155626","name":"Quaderstrasse","postalCode":"9472","locality":"Grabs","commune":{"key":"3273","name":"Grabs","shortName":"Grabs"},"district":{"key":"1724","name":"Wahlkreis Werdenberg"},"canton":{"key":"17","code":"SG","name":"St. Gallen"},"status":"Real"},{"key":"10032042","name":"Rappenloch","postalCode":"9472","locality":"Grabserberg","commune":{"key":"3273","name":"Grabs","shortName":"Grabs"},"district":{"key":"1724","name":"Wahlkreis Werdenberg"},"canton":{"key":"17","code":"SG","name":"St. Gallen"},"status":"Real"},{"key":"10230525","name":"Rappenlochfussweg","postalCode":"9472","locality":"Grabserberg","commune":{"key":"3273","name":"Grabs","shortName":"Grabs"},"district":{"key":"1724","name":"Wahlkreis Werdenberg"},"canton":{"key":"17","code":"SG","name":"St. Gallen"},"status":"Real"},{"key":"10230781","name":"Rappenlochweg","postalCode":"9472","locality":"Grabserberg","commune":{"key":"3273","name":"Grabs","shortName":"Grabs"},"district":{"key":"1724","name":"Wahlkreis Werdenberg"},"canton":{"key":"17","code":"SG","name":"St. Gallen"},"status":"Real"},{"key":"10059792","name":"Rappenstall","postalCode":"9472","locality":"Grabserberg","commune":{"key":"3273","name":"Grabs","shortName":"Grabs"},"district":{"key":"1724","name":"Wahlkreis Werdenberg"},"canton":{"key":"17","code":"SG","name":"St. Gallen"},"status":"Real"},{"key":"10230785","name":"Rätikonweg","postalCode":"9472","locality":"Grabs","commune":{"key":"3273","name":"Grabs","shortName":"Grabs"},"district":{"key":"1724","name":"Wahlkreis Werdenberg"},"canton":{"key":"17","code":"SG","name":"St. Gallen"},"status":"Real"},{"key":"10230785","name":"Rätikonweg","postalCode":"9472","locality":"Grabserberg","commune":{"key":"3273","name":"Grabs","shortName":"Grabs"},"district":{"key":"1724","name":"Wahlkreis Werdenberg"},"canton":{"key":"17","code":"SG","name":"St. Gallen"},"status":"Real"},{"key":"10230789","name":"Rauchenschildweg","postalCode":"9472","locality":"Grabs","commune":{"key":"3273","name":"Grabs","shortName":"Grabs"},"district":{"key":"1724","name":"Wahlkreis Werdenberg"},"canton":{"key":"17","code":"SG","name":"St. Gallen"},"status":"Real"},{"key":"10030568","name":"Rehweg","postalCode":"9472","locality":"Grabs","commune":{"key":"3273","name":"Grabs","shortName":"Grabs"},"district":{"key":"1724","name":"Wahlkreis Werdenberg"},"canton":{"key":"17","code":"SG","name":"St. Gallen"},"status":"Real"},{"key":"10030569","name":"Reiherweg","postalCode":"9472","locality":"Grabs","commune":{"key":"3273","name":"Grabs","shortName":"Grabs"},"district":{"key":"1724","name":"Wahlkreis Werdenberg"},"canton":{"key":"17","code":"SG","name":"St. Gallen"},"status":"Real"},{"key":"10032043","name":"Rieteren","postalCode":"9472","locality":"Grabserberg","commune":{"key":"3273","name":"Grabs","shortName":"Grabs"},"district":{"key":"1724","name":"Wahlkreis Werdenberg"},"canton":{"key":"17","code":"SG","name":"St. Gallen"},"status":"Real"},{"key":"10230537","name":"Rieterenstrasse","postalCode":"9472","locality":"Grabserberg","commune":{"key":"3273","name":"Grabs","shortName":"Grabs"},"district":{"key":"1724","name":"Wahlkreis Werdenberg"},"canton":{"key":"17","code":"SG","name":"St. Gallen"},"status":"Real"},{"key":"10230541","name":"Rieterenweg","postalCode":"9472","locality":"Grabserberg","commune":{"key":"3273","name":"Grabs","shortName":"Grabs"},"district":{"key":"1724","name":"Wahlkreis Werdenberg"},"canton":{"key":"17","code":"SG","name":"St. Gallen"},"status":"Real"},{"key":"10030570","name":"Rietgasse","postalCode":"9472","locality":"Grabs","commune":{"key":"3273","name":"Grabs","shortName":"Grabs"},"district":{"key":"1724","name":"Wahlkreis Werdenberg"},"canton":{"key":"17","code":"SG","name":"St. Gallen"},"status":"Real"},{"key":"10059784","name":"Riethof","postalCode":"9472","locality":"Grabs","commune":{"key":"3273","name":"Grabs","shortName":"Grabs"},"district":{"key":"1724","name":"Wahlkreis Werdenberg"},"canton":{"key":"17","code":"SG","name":"St. Gallen"},"status":"Real"},{"key":"10145081","name":"Rietliweg","postalCode":"9472","locality":"Grabs","commune":{"key":"3273","name":"Grabs","shortName":"Grabs"},"district":{"key":"1724","name":"Wahlkreis Werdenberg"},"canton":{"key":"17","code":"SG","name":"St. Gallen"},"status":"Real"},{"key":"10191807","name":"Rietstrasse","postalCode":"9472","locality":"Grabs","commune":{"key":"3273","name":"Grabs","shortName":"Grabs"},"district":{"key":"1724","name":"Wahlkreis Werdenberg"},"canton":{"key":"17","code":"SG","name":"St. Gallen"},"status":"Real"},{"key":"10191993","name":"Rietzaunstrasse","postalCode":"9472","locality":"Grabs","commune":{"key":"3273","name":"Grabs","shortName":"Grabs"},"district":{"key":"1724","name":"Wahlkreis Werdenberg"},"canton":{"key":"17","code":"SG","name":"St. Gallen"},"status":"Real"},{"key":"10030571","name":"Rietzun","postalCode":"9472","locality":"Grabs","commune":{"key":"3273","name":"Grabs","shortName":"Grabs"},"district":{"key":"1724","name":"Wahlkreis Werdenberg"},"canton":{"key":"17","code":"SG","name":"St. Gallen"},"status":"Real"},{"key":"10191995","name":"Riseli","postalCode":"9472","locality":"Grabserberg","commune":{"key":"3273","name":"Grabs","shortName":"Grabs"},"district":{"key":"1724","name":"Wahlkreis Werdenberg"},"canton":{"key":"17","code":"SG","name":"St. Gallen"},"status":"Real"},{"key":"10232809","name":"Riseliweg","postalCode":"9472","locality":"Grabs","commune":{"key":"3273","name":"Grabs","shortName":"Grabs"},"district":{"key":"1724","name":"Wahlkreis Werdenberg"},"canton":{"key":"17","code":"SG","name":"St. Gallen"},"status":"Real"},{"key":"10232809","name":"Riseliweg","postalCode":"9472","locality":"Grabserberg","commune":{"key":"3273","name":"Grabs","shortName":"Grabs"},"district":{"key":"1724","name":"Wahlkreis Werdenberg"},"canton":{"key":"17","code":"SG","name":"St. Gallen"},"status":"Real"},{"key":"10059793","name":"Risi","postalCode":"9472","locality":"Grabserberg","commune":{"key":"3273","name":"Grabs","shortName":"Grabs"},"district":{"key":"1724","name":"Wahlkreis Werdenberg"},"canton":{"key":"17","code":"SG","name":"St. Gallen"},"status":"Real"},{"key":"10032373","name":"Ritsch","postalCode":"9472","locality":"Grabs","commune":{"key":"3273","name":"Grabs","shortName":"Grabs"},"district":{"key":"1724","name":"Wahlkreis Werdenberg"},"canton":{"key":"17","code":"SG","name":"St. Gallen"},"status":"Real"},{"key":"10230549","name":"Ritschweg","postalCode":"9472","locality":"Grabs","commune":{"key":"3273","name":"Grabs","shortName":"Grabs"},"district":{"key":"1724","name":"Wahlkreis Werdenberg"},"canton":{"key":"17","code":"SG","name":"St. Gallen"},"status":"Real"},{"key":"10071433","name":"Rogghalm","postalCode":"9472","locality":"Grabserberg","commune":{"key":"3273","name":"Grabs","shortName":"Grabs"},"district":{"key":"1724","name":"Wahlkreis Werdenberg"},"canton":{"key":"17","code":"SG","name":"St. Gallen"},"status":"Real"},{"key":"10232817","name":"Rogghalmstrasse","postalCode":"9472","locality":"Grabserberg","commune":{"key":"3273","name":"Grabs","shortName":"Grabs"},"district":{"key":"1724","name":"Wahlkreis Werdenberg"},"canton":{"key":"17","code":"SG","name":"St. Gallen"},"status":"Real"},{"key":"10160766","name":"Rohr","postalCode":"9472","locality":"Grabserberg","commune":{"key":"3273","name":"Grabs","shortName":"Grabs"},"district":{"key":"1724","name":"Wahlkreis Werdenberg"},"canton":{"key":"17","code":"SG","name":"St. Gallen"},"status":"Real"},{"key":"10250045","name":"Rohrbühel","postalCode":"9472","locality":"Grabserberg","commune":{"key":"3273","name":"Grabs","shortName":"Grabs"},"district":{"key":"1724","name":"Wahlkreis Werdenberg"},"canton":{"key":"17","code":"SG","name":"St. Gallen"},"status":"Real"},{"key":"10232821","name":"Rohreggfussweg","postalCode":"9472","locality":"Grabserberg","commune":{"key":"3273","name":"Grabs","shortName":"Grabs"},"district":{"key":"1724","name":"Wahlkreis Werdenberg"},"canton":{"key":"17","code":"SG","name":"St. Gallen"},"status":"Real"},{"key":"10232825","name":"Rohreggweg","postalCode":"9472","locality":"Grabserberg","commune":{"key":"3273","name":"Grabs","shortName":"Grabs"},"district":{"key":"1724","name":"Wahlkreis Werdenberg"},"canton":{"key":"17","code":"SG","name":"St. Gallen"},"status":"Real"},{"key":"10197679","name":"Röhrliweid","postalCode":"9472","locality":"Grabserberg","commune":{"key":"3273","name":"Grabs","shortName":"Grabs"},"district":{"key":"1724","name":"Wahlkreis Werdenberg"},"canton":{"key":"17","code":"SG","name":"St. Gallen"},"status":"Real"},{"key":"10232829","name":"Röhrliweidweg","postalCode":"9472","locality":"Grabserberg","commune":{"key":"3273","name":"Grabs","shortName":"Grabs"},"district":{"key":"1724","name":"Wahlkreis Werdenberg"},"canton":{"key":"17","code":"SG","name":"St. Gallen"},"status":"Real"},{"key":"10122399","name":"Rohrschwendi","postalCode":"9472","locality":"Grabserberg","commune":{"key":"3273","name":"Grabs","shortName":"Grabs"},"district":{"key":"1724","name":"Wahlkreis Werdenberg"},"canton":{"key":"17","code":"SG","name":"St. Gallen"},"status":"Real"},{"key":"10232833","name":"Rohrschwendiweg","postalCode":"9472","locality":"Grabserberg","commune":{"key":"3273","name":"Grabs","shortName":"Grabs"},"district":{"key":"1724","name":"Wahlkreis Werdenberg"},"canton":{"key":"17","code":"SG","name":"St. Gallen"},"status":"Real"},{"key":"10232837","name":"Rohrweg","postalCode":"9472","locality":"Grabserberg","commune":{"key":"3273","name":"Grabs","shortName":"Grabs"},"district":{"key":"1724","name":"Wahlkreis Werdenberg"},"canton":{"key":"17","code":"SG","name":"St. Gallen"},"status":"Real"},{"key":"10183083","name":"Rosenweg","postalCode":"9472","locality":"Grabs","commune":{"key":"3273","name":"Grabs","shortName":"Grabs"},"district":{"key":"1724","name":"Wahlkreis Werdenberg"},"canton":{"key":"17","code":"SG","name":"St. Gallen"},"status":"Real"},{"key":"10196712","name":"Rosshag","postalCode":"9472","locality":"Grabserberg","commune":{"key":"3273","name":"Grabs","shortName":"Grabs"},"district":{"key":"1724","name":"Wahlkreis Werdenberg"},"canton":{"key":"17","code":"SG","name":"St. Gallen"},"status":"Real"},{"key":"10125468","name":"Rossweidstrasse","postalCode":"9472","locality":"Grabs","commune":{"key":"3273","name":"Grabs","shortName":"Grabs"},"district":{"key":"1724","name":"Wahlkreis Werdenberg"},"canton":{"key":"17","code":"SG","name":"St. Gallen"},"status":"Real"},{"key":"10232841","name":"Rossweidweg","postalCode":"9472","locality":"Grabs","commune":{"key":"3273","name":"Grabs","shortName":"Grabs"},"district":{"key":"1724","name":"Wahlkreis Werdenberg"},"canton":{"key":"17","code":"SG","name":"St. Gallen"},"status":"Real"},{"key":"10232845","name":"Rotenbachweg","postalCode":"9472","locality":"Grabserberg","commune":{"key":"3273","name":"Grabs","shortName":"Grabs"},"district":{"key":"1724","name":"Wahlkreis Werdenberg"},"canton":{"key":"17","code":"SG","name":"St. Gallen"},"status":"Real"},{"key":"10250050","name":"Ruchenschilt","postalCode":"9472","locality":"Grabs","commune":{"key":"3273","name":"Grabs","shortName":"Grabs"},"district":{"key":"1724","name":"Wahlkreis Werdenberg"},"canton":{"key":"17","code":"SG","name":"St. Gallen"},"status":"Real"},{"key":"10250054","name":"Rufers","postalCode":"9472","locality":"Grabs","commune":{"key":"3273","name":"Grabs","shortName":"Grabs"},"district":{"key":"1724","name":"Wahlkreis Werdenberg"},"canton":{"key":"17","code":"SG","name":"St. Gallen"},"status":"Real"},{"key":"10250058","name":"Rufersriet","postalCode":"9472","locality":"Grabs","commune":{"key":"3273","name":"Grabs","shortName":"Grabs"},"district":{"key":"1724","name":"Wahlkreis Werdenberg"},"canton":{"key":"17","code":"SG","name":"St. Gallen"},"status":"Real"},{"key":"10030852","name":"Rühi","postalCode":"9472","locality":"Grabs","commune":{"key":"3273","name":"Grabs","shortName":"Grabs"},"district":{"key":"1724","name":"Wahlkreis Werdenberg"},"canton":{"key":"17","code":"SG","name":"St. Gallen"},"status":"Real"},{"key":"10226371","name":"Rühiweg","postalCode":"9472","locality":"Grabs","commune":{"key":"3273","name":"Grabs","shortName":"Grabs"},"district":{"key":"1724","name":"Wahlkreis Werdenberg"},"canton":{"key":"17","code":"SG","name":"St. Gallen"},"status":"Real"},{"key":"10093130","name":"Runggelfehrweg","postalCode":"9472","locality":"Grabs","commune":{"key":"3273","name":"Grabs","shortName":"Grabs"},"district":{"key":"1724","name":"Wahlkreis Werdenberg"},"canton":{"key":"17","code":"SG","name":"St. Gallen"},"status":"Real"},{"key":"10250063","name":"Runggelglat","postalCode":"9472","locality":"Grabs","commune":{"key":"3273","name":"Grabs","shortName":"Grabs"},"district":{"key":"1724","name":"Wahlkreis Werdenberg"},"canton":{"key":"17","code":"SG","name":"St. Gallen"},"status":"Real"},{"key":"10226375","name":"Runggelglatweg","postalCode":"9472","locality":"Grabs","commune":{"key":"3273","name":"Grabs","shortName":"Grabs"},"district":{"key":"1724","name":"Wahlkreis Werdenberg"},"canton":{"key":"17","code":"SG","name":"St. Gallen"},"status":"Real"},{"key":"10059785","name":"Runggelun","postalCode":"9472","locality":"Grabs","commune":{"key":"3273","name":"Grabs","shortName":"Grabs"},"district":{"key":"1724","name":"Wahlkreis Werdenberg"},"canton":{"key":"17","code":"SG","name":"St. Gallen"},"status":"Real"},{"key":"10226379","name":"Runggelunweg","postalCode":"9472","locality":"Grabs","commune":{"key":"3273","name":"Grabs","shortName":"Grabs"},"district":{"key":"1724","name":"Wahlkreis Werdenberg"},"canton":{"key":"17","code":"SG","name":"St. Gallen"},"status":"Real"},{"key":"10183086","name":"Sägengasse","postalCode":"9472","locality":"Grabs","commune":{"key":"3273","name":"Grabs","shortName":"Grabs"},"district":{"key":"1724","name":"Wahlkreis Werdenberg"},"canton":{"key":"17","code":"SG","name":"St. Gallen"},"status":"Real"},{"key":"10071444","name":"Sägenstrasse","postalCode":"9472","locality":"Grabs","commune":{"key":"3273","name":"Grabs","shortName":"Grabs"},"district":{"key":"1724","name":"Wahlkreis Werdenberg"},"canton":{"key":"17","code":"SG","name":"St. Gallen"},"status":"Real"},{"key":"10199022","name":"Salegg","postalCode":"9472","locality":"Grabserberg","commune":{"key":"3273","name":"Grabs","shortName":"Grabs"},"district":{"key":"1724","name":"Wahlkreis Werdenberg"},"canton":{"key":"17","code":"SG","name":"St. Gallen"},"status":"Real"},{"key":"10093147","name":"Salen","postalCode":"9472","locality":"Grabserberg","commune":{"key":"3273","name":"Grabs","shortName":"Grabs"},"district":{"key":"1724","name":"Wahlkreis Werdenberg"},"canton":{"key":"17","code":"SG","name":"St. Gallen"},"status":"Real"},{"key":"10226391","name":"Salenweg","postalCode":"9472","locality":"Grabserberg","commune":{"key":"3273","name":"Grabs","shortName":"Grabs"},"district":{"key":"1724","name":"Wahlkreis Werdenberg"},"canton":{"key":"17","code":"SG","name":"St. Gallen"},"status":"Real"},{"key":"10179623","name":"Sandbühel","postalCode":"9472","locality":"Grabs","commune":{"key":"3273","name":"Grabs","shortName":"Grabs"},"district":{"key":"1724","name":"Wahlkreis Werdenberg"},"canton":{"key":"17","code":"SG","name":"St. Gallen"},"status":"Real"},{"key":"10071434","name":"Sandweg","postalCode":"9472","locality":"Grabs","commune":{"key":"3273","name":"Grabs","shortName":"Grabs"},"district":{"key":"1724","name":"Wahlkreis Werdenberg"},"canton":{"key":"17","code":"SG","name":"St. Gallen"},"status":"Real"},{"key":"10198303","name":"Sanenberg","postalCode":"9472","locality":"Grabserberg","commune":{"key":"3273","name":"Grabs","shortName":"Grabs"},"district":{"key":"1724","name":"Wahlkreis Werdenberg"},"canton":{"key":"17","code":"SG","name":"St. Gallen"},"status":"Real"},{"key":"10030867","name":"Säntisstrasse","postalCode":"9472","locality":"Grabs","commune":{"key":"3273","name":"Grabs","shortName":"Grabs"},"district":{"key":"1724","name":"Wahlkreis Werdenberg"},"canton":{"key":"17","code":"SG","name":"St. Gallen"},"status":"Real"},{"key":"10123045","name":"Schalmenlitten","postalCode":"9472","locality":"Grabserberg","commune":{"key":"3273","name":"Grabs","shortName":"Grabs"},"district":{"key":"1724","name":"Wahlkreis Werdenberg"},"canton":{"key":"17","code":"SG","name":"St. Gallen"},"status":"Real"},{"key":"10030853","name":"Schellenhalde","postalCode":"9472","locality":"Grabs","commune":{"key":"3273","name":"Grabs","shortName":"Grabs"},"district":{"key":"1724","name":"Wahlkreis Werdenberg"},"canton":{"key":"17","code":"SG","name":"St. Gallen"},"status":"Real"},{"key":"10226395","name":"Schellenhaldenstrasse","postalCode":"9472","locality":"Grabs","commune":{"key":"3273","name":"Grabs","shortName":"Grabs"},"district":{"key":"1724","name":"Wahlkreis Werdenberg"},"canton":{"key":"17","code":"SG","name":"St. Gallen"},"status":"Real"},{"key":"10207993","name":"Schelmengässli","postalCode":"9472","locality":"Grabs","commune":{"key":"3273","name":"Grabs","shortName":"Grabs"},"district":{"key":"1724","name":"Wahlkreis Werdenberg"},"canton":{"key":"17","code":"SG","name":"St. Gallen"},"status":"Real"},{"key":"10226399","name":"Schenenwis","postalCode":"9472","locality":"Grabserberg","commune":{"key":"3273","name":"Grabs","shortName":"Grabs"},"district":{"key":"1724","name":"Wahlkreis Werdenberg"},"canton":{"key":"17","code":"SG","name":"St. Gallen"},"status":"Real"},{"key":"10226403","name":"Schenenwisweg","postalCode":"9472","locality":"Grabserberg","commune":{"key":"3273","name":"Grabs","shortName":"Grabs"},"district":{"key":"1724","name":"Wahlkreis Werdenberg"},"canton":{"key":"17","code":"SG","name":"St. Gallen"},"status":"Real"},{"key":"10093131","name":"Schenggenalp","postalCode":"9472","locality":"Grabs","commune":{"key":"3273","name":"Grabs","shortName":"Grabs"},"district":{"key":"1724","name":"Wahlkreis Werdenberg"},"canton":{"key":"17","code":"SG","name":"St. Gallen"},"status":"Real"},{"key":"10226407","name":"Schenggenalpgass","postalCode":"9472","locality":"Grabs","commune":{"key":"3273","name":"Grabs","shortName":"Grabs"},"district":{"key":"1724","name":"Wahlkreis Werdenberg"},"canton":{"key":"17","code":"SG","name":"St. Gallen"},"status":"Real"},{"key":"10232898","name":"Scherersweg","postalCode":"9472","locality":"Grabs","commune":{"key":"3273","name":"Grabs","shortName":"Grabs"},"district":{"key":"1724","name":"Wahlkreis Werdenberg"},"canton":{"key":"17","code":"SG","name":"St. Gallen"},"status":"Real"},{"key":"10032044","name":"Schgun","postalCode":"9472","locality":"Grabserberg","commune":{"key":"3273","name":"Grabs","shortName":"Grabs"},"district":{"key":"1724","name":"Wahlkreis Werdenberg"},"canton":{"key":"17","code":"SG","name":"St. Gallen"},"status":"Real"},{"key":"10226415","name":"Schgunstrasse","postalCode":"9472","locality":"Grabserberg","commune":{"key":"3273","name":"Grabs","shortName":"Grabs"},"district":{"key":"1724","name":"Wahlkreis Werdenberg"},"canton":{"key":"17","code":"SG","name":"St. Gallen"},"status":"Real"},{"key":"10226419","name":"Schgunweg","postalCode":"9472","locality":"Grabserberg","commune":{"key":"3273","name":"Grabs","shortName":"Grabs"},"district":{"key":"1724","name":"Wahlkreis Werdenberg"},"canton":{"key":"17","code":"SG","name":"St. Gallen"},"status":"Real"},{"key":"10226423","name":"Schisbüel","postalCode":"9472","locality":"Grabserberg","commune":{"key":"3273","name":"Grabs","shortName":"Grabs"},"district":{"key":"1724","name":"Wahlkreis Werdenberg"},"canton":{"key":"17","code":"SG","name":"St. Gallen"},"status":"Real"},{"key":"10232914","name":"Schlachthusweg","postalCode":"9472","locality":"Grabserberg","commune":{"key":"3273","name":"Grabs","shortName":"Grabs"},"district":{"key":"1724","name":"Wahlkreis Werdenberg"},"canton":{"key":"17","code":"SG","name":"St. Gallen"},"status":"Real"},{"key":"10250072","name":"Schlipf","postalCode":"9472","locality":"Grabs","commune":{"key":"3273","name":"Grabs","shortName":"Grabs"},"district":{"key":"1724","name":"Wahlkreis Werdenberg"},"canton":{"key":"17","code":"SG","name":"St. Gallen"},"status":"Real"},{"key":"10059786","name":"Schluss","postalCode":"9472","locality":"Grabserberg","commune":{"key":"3273","name":"Grabs","shortName":"Grabs"},"district":{"key":"1724","name":"Wahlkreis Werdenberg"},"canton":{"key":"17","code":"SG","name":"St. Gallen"},"status":"Real"},{"key":"10071436","name":"Schlussbach","postalCode":"9472","locality":"Grabserberg","commune":{"key":"3273","name":"Grabs","shortName":"Grabs"},"district":{"key":"1724","name":"Wahlkreis Werdenberg"},"canton":{"key":"17","code":"SG","name":"St. Gallen"},"status":"Real"},{"key":"10250075","name":"Schlussbach-Amaschnun-Weg","postalCode":"9472","locality":"Grabserberg","commune":{"key":"3273","name":"Grabs","shortName":"Grabs"},"district":{"key":"1724","name":"Wahlkreis Werdenberg"},"canton":{"key":"17","code":"SG","name":"St. Gallen"},"status":"Real"},{"key":"10232922","name":"Schlussbachweg","postalCode":"9472","locality":"Grabserberg","commune":{"key":"3273","name":"Grabs","shortName":"Grabs"},"district":{"key":"1724","name":"Wahlkreis Werdenberg"},"canton":{"key":"17","code":"SG","name":"St. Gallen"},"status":"Real"},{"key":"10232926","name":"Schlussstrasse","postalCode":"9472","locality":"Grabserberg","commune":{"key":"3273","name":"Grabs","shortName":"Grabs"},"district":{"key":"1724","name":"Wahlkreis Werdenberg"},"canton":{"key":"17","code":"SG","name":"St. Gallen"},"status":"Real"},{"key":"10232930","name":"Schlussweg","postalCode":"9472","locality":"Grabs","commune":{"key":"3273","name":"Grabs","shortName":"Grabs"},"district":{"key":"1724","name":"Wahlkreis Werdenberg"},"canton":{"key":"17","code":"SG","name":"St. Gallen"},"status":"Real"},{"key":"10232930","name":"Schlussweg","postalCode":"9472","locality":"Grabserberg","commune":{"key":"3273","name":"Grabs","shortName":"Grabs"},"district":{"key":"1724","name":"Wahlkreis Werdenberg"},"canton":{"key":"17","code":"SG","name":"St. Gallen"},"status":"Real"},{"key":"10232934","name":"Schmidsschwendistrasse","postalCode":"9472","locality":"Grabserberg","commune":{"key":"3273","name":"Grabs","shortName":"Grabs"},"district":{"key":"1724","name":"Wahlkreis Werdenberg"},"canton":{"key":"17","code":"SG","name":"St. Gallen"},"status":"Real"},{"key":"10030854","name":"Schmiedestrasse","postalCode":"9472","locality":"Grabs","commune":{"key":"3273","name":"Grabs","shortName":"Grabs"},"district":{"key":"1724","name":"Wahlkreis Werdenberg"},"canton":{"key":"17","code":"SG","name":"St. Gallen"},"status":"Real"},{"key":"10232938","name":"Schmittersfussweg","postalCode":"9472","locality":"Grabserberg","commune":{"key":"3273","name":"Grabs","shortName":"Grabs"},"district":{"key":"1724","name":"Wahlkreis Werdenberg"},"canton":{"key":"17","code":"SG","name":"St. Gallen"},"status":"Real"},{"key":"10232942","name":"Schmittersweg","postalCode":"9472","locality":"Grabserberg","commune":{"key":"3273","name":"Grabs","shortName":"Grabs"},"district":{"key":"1724","name":"Wahlkreis Werdenberg"},"canton":{"key":"17","code":"SG","name":"St. Gallen"},"status":"Real"},{"key":"10226459","name":"Schneetolenweg","postalCode":"9472","locality":"Grabserberg","commune":{"key":"3273","name":"Grabs","shortName":"Grabs"},"district":{"key":"1724","name":"Wahlkreis Werdenberg"},"canton":{"key":"17","code":"SG","name":"St. Gallen"},"status":"Real"},{"key":"10071437","name":"Schochenberg","postalCode":"9472","locality":"Grabserberg","commune":{"key":"3273","name":"Grabs","shortName":"Grabs"},"district":{"key":"1724","name":"Wahlkreis Werdenberg"},"canton":{"key":"17","code":"SG","name":"St. Gallen"},"status":"Real"},{"key":"10226467","name":"Schochenbergweg","postalCode":"9472","locality":"Grabserberg","commune":{"key":"3273","name":"Grabs","shortName":"Grabs"},"district":{"key":"1724","name":"Wahlkreis Werdenberg"},"canton":{"key":"17","code":"SG","name":"St. Gallen"},"status":"Real"},{"key":"10184685","name":"Schochenschwendi","postalCode":"9472","locality":"Grabserberg","commune":{"key":"3273","name":"Grabs","shortName":"Grabs"},"district":{"key":"1724","name":"Wahlkreis Werdenberg"},"canton":{"key":"17","code":"SG","name":"St. Gallen"},"status":"Real"},{"key":"10226471","name":"Schöntobelstrasse","postalCode":"9472","locality":"Grabserberg","commune":{"key":"3273","name":"Grabs","shortName":"Grabs"},"district":{"key":"1724","name":"Wahlkreis Werdenberg"},"canton":{"key":"17","code":"SG","name":"St. Gallen"},"status":"Real"},{"key":"10226475","name":"Schrannenweg","postalCode":"9472","locality":"Grabserberg","commune":{"key":"3273","name":"Grabs","shortName":"Grabs"},"district":{"key":"1724","name":"Wahlkreis Werdenberg"},"canton":{"key":"17","code":"SG","name":"St. Gallen"},"status":"Real"},{"key":"10197015","name":"Schrenzplatte","postalCode":"9472","locality":"Grabserberg","commune":{"key":"3273","name":"Grabs","shortName":"Grabs"},"district":{"key":"1724","name":"Wahlkreis Werdenberg"},"canton":{"key":"17","code":"SG","name":"St. Gallen"},"status":"Real"},{"key":"10226479","name":"Schrenzplattenweg","postalCode":"9472","locality":"Grabserberg","commune":{"key":"3273","name":"Grabs","shortName":"Grabs"},"district":{"key":"1724","name":"Wahlkreis Werdenberg"},"canton":{"key":"17","code":"SG","name":"St. Gallen"},"status":"Real"},{"key":"10030855","name":"Schulhausstrasse","postalCode":"9472","locality":"Grabs","commune":{"key":"3273","name":"Grabs","shortName":"Grabs"},"district":{"key":"1724","name":"Wahlkreis Werdenberg"},"canton":{"key":"17","code":"SG","name":"St. Gallen"},"status":"Real"},{"key":"10093132","name":"Schurra","postalCode":"9472","locality":"Grabs","commune":{"key":"3273","name":"Grabs","shortName":"Grabs"},"district":{"key":"1724","name":"Wahlkreis Werdenberg"},"canton":{"key":"17","code":"SG","name":"St. Gallen"},"status":"Real"},{"key":"10226487","name":"Schurragass","postalCode":"9472","locality":"Grabs","commune":{"key":"3273","name":"Grabs","shortName":"Grabs"},"district":{"key":"1724","name":"Wahlkreis Werdenberg"},"canton":{"key":"17","code":"SG","name":"St. Gallen"},"status":"Real"},{"key":"10226491","name":"Schurraweg","postalCode":"9472","locality":"Grabs","commune":{"key":"3273","name":"Grabs","shortName":"Grabs"},"district":{"key":"1724","name":"Wahlkreis Werdenberg"},"canton":{"key":"17","code":"SG","name":"St. Gallen"},"status":"Real"},{"key":"10226495","name":"Schützenweg","postalCode":"9472","locality":"Grabs","commune":{"key":"3273","name":"Grabs","shortName":"Grabs"},"district":{"key":"1724","name":"Wahlkreis Werdenberg"},"canton":{"key":"17","code":"SG","name":"St. Gallen"},"status":"Real"},{"key":"10183084","name":"Schwanenweg","postalCode":"9472","locality":"Grabs","commune":{"key":"3273","name":"Grabs","shortName":"Grabs"},"district":{"key":"1724","name":"Wahlkreis Werdenberg"},"canton":{"key":"17","code":"SG","name":"St. Gallen"},"status":"Real"},{"key":"10226499","name":"Schwanzweg","postalCode":"9472","locality":"Grabserberg","commune":{"key":"3273","name":"Grabs","shortName":"Grabs"},"district":{"key":"1724","name":"Wahlkreis Werdenberg"},"canton":{"key":"17","code":"SG","name":"St. Gallen"},"status":"Real"},{"key":"10198304","name":"Tafadils","postalCode":"9472","locality":"Grabserberg","commune":{"key":"3273","name":"Grabs","shortName":"Grabs"},"district":{"key":"1724","name":"Wahlkreis Werdenberg"},"canton":{"key":"17","code":"SG","name":"St. Gallen"},"status":"Real"},{"key":"10250109","name":"Tafanuf","postalCode":"9472","locality":"Grabserberg","commune":{"key":"3273","name":"Grabs","shortName":"Grabs"},"district":{"key":"1724","name":"Wahlkreis Werdenberg"},"canton":{"key":"17","code":"SG","name":"St. Gallen"},"status":"Real"},{"key":"10125569","name":"Tannenweg","postalCode":"9472","locality":"Grabs","commune":{"key":"3273","name":"Grabs","shortName":"Grabs"},"district":{"key":"1724","name":"Wahlkreis Werdenberg"},"canton":{"key":"17","code":"SG","name":"St. Gallen"},"status":"Real"},{"key":"10032045","name":"Tenn","postalCode":"9472","locality":"Grabserberg","commune":{"key":"3273","name":"Grabs","shortName":"Grabs"},"district":{"key":"1724","name":"Wahlkreis Werdenberg"},"canton":{"key":"17","code":"SG","name":"St. Gallen"},"status":"Real"},{"key":"10229182","name":"Tennweg","postalCode":"9472","locality":"Grabserberg","commune":{"key":"3273","name":"Grabs","shortName":"Grabs"},"district":{"key":"1724","name":"Wahlkreis Werdenberg"},"canton":{"key":"17","code":"SG","name":"St. Gallen"},"status":"Real"},{"key":"10130726","name":"Tischenhus","postalCode":"9472","locality":"Grabserberg","commune":{"key":"3273","name":"Grabs","shortName":"Grabs"},"district":{"key":"1724","name":"Wahlkreis Werdenberg"},"canton":{"key":"17","code":"SG","name":"St. Gallen"},"status":"Real"},{"key":"10229186","name":"Tischenhusweg","postalCode":"9472","locality":"Grabserberg","commune":{"key":"3273","name":"Grabs","shortName":"Grabs"},"district":{"key":"1724","name":"Wahlkreis Werdenberg"},"canton":{"key":"17","code":"SG","name":"St. Gallen"},"status":"Real"},{"key":"10071445","name":"Tobel","postalCode":"9472","locality":"Grabserberg","commune":{"key":"3273","name":"Grabs","shortName":"Grabs"},"district":{"key":"1724","name":"Wahlkreis Werdenberg"},"canton":{"key":"17","code":"SG","name":"St. Gallen"},"status":"Real"},{"key":"10229190","name":"Tobelweg","postalCode":"9472","locality":"Grabserberg","commune":{"key":"3273","name":"Grabs","shortName":"Grabs"},"district":{"key":"1724","name":"Wahlkreis Werdenberg"},"canton":{"key":"17","code":"SG","name":"St. Gallen"},"status":"Real"},{"key":"10229194","name":"Toggenhölzliweg","postalCode":"9472","locality":"Grabserberg","commune":{"key":"3273","name":"Grabs","shortName":"Grabs"},"district":{"key":"1724","name":"Wahlkreis Werdenberg"},"canton":{"key":"17","code":"SG","name":"St. Gallen"},"status":"Real"},{"key":"10229198","name":"Tommeliweg","postalCode":"9472","locality":"Grabs","commune":{"key":"3273","name":"Grabs","shortName":"Grabs"},"district":{"key":"1724","name":"Wahlkreis Werdenberg"},"canton":{"key":"17","code":"SG","name":"St. Gallen"},"status":"Real"},{"key":"10184686","name":"Tschessweg","postalCode":"9472","locality":"Grabs","commune":{"key":"3273","name":"Grabs","shortName":"Grabs"},"district":{"key":"1724","name":"Wahlkreis Werdenberg"},"canton":{"key":"17","code":"SG","name":"St. Gallen"},"status":"Real"},{"key":"10250114","name":"Tschogg","postalCode":"9472","locality":"Grabserberg","commune":{"key":"3273","name":"Grabs","shortName":"Grabs"},"district":{"key":"1724","name":"Wahlkreis Werdenberg"},"canton":{"key":"17","code":"SG","name":"St. Gallen"},"status":"Real"},{"key":"10234012","name":"Tschoggweg","postalCode":"9472","locality":"Grabserberg","commune":{"key":"3273","name":"Grabs","shortName":"Grabs"},"district":{"key":"1724","name":"Wahlkreis Werdenberg"},"canton":{"key":"17","code":"SG","name":"St. Gallen"},"status":"Real"},{"key":"10030868","name":"Tuggstein","postalCode":"9472","locality":"Grabs","commune":{"key":"3273","name":"Grabs","shortName":"Grabs"},"district":{"key":"1724","name":"Wahlkreis Werdenberg"},"canton":{"key":"17","code":"SG","name":"St. Gallen"},"status":"Real"},{"key":"10234016","name":"Tuggsteinweg","postalCode":"9472","locality":"Grabs","commune":{"key":"3273","name":"Grabs","shortName":"Grabs"},"district":{"key":"1724","name":"Wahlkreis Werdenberg"},"canton":{"key":"17","code":"SG","name":"St. Gallen"},"status":"Real"},{"key":"10234016","name":"Tuggsteinweg","postalCode":"9472","locality":"Grabserberg","commune":{"key":"3273","name":"Grabs","shortName":"Grabs"},"district":{"key":"1724","name":"Wahlkreis Werdenberg"},"canton":{"key":"17","code":"SG","name":"St. Gallen"},"status":"Real"},{"key":"10046789","name":"Tulpenweg","postalCode":"9472","locality":"Grabs","commune":{"key":"3273","name":"Grabs","shortName":"Grabs"},"district":{"key":"1724","name":"Wahlkreis Werdenberg"},"canton":{"key":"17","code":"SG","name":"St. Gallen"},"status":"Real"},{"key":"10093138","name":"Turnhallenstrasse","postalCode":"9472","locality":"Grabs","commune":{"key":"3273","name":"Grabs","shortName":"Grabs"},"district":{"key":"1724","name":"Wahlkreis Werdenberg"},"canton":{"key":"17","code":"SG","name":"St. Gallen"},"status":"Real"},{"key":"10234021","name":"Turnhallenweg","postalCode":"9472","locality":"Grabs","commune":{"key":"3273","name":"Grabs","shortName":"Grabs"},"district":{"key":"1724","name":"Wahlkreis Werdenberg"},"canton":{"key":"17","code":"SG","name":"St. Gallen"},"status":"Real"},{"key":"10234025","name":"Tütschweg","postalCode":"9472","locality":"Grabs","commune":{"key":"3273","name":"Grabs","shortName":"Grabs"},"district":{"key":"1724","name":"Wahlkreis Werdenberg"},"canton":{"key":"17","code":"SG","name":"St. Gallen"},"status":"Real"},{"key":"10192348","name":"Uelisrüti","postalCode":"9472","locality":"Grabserberg","commune":{"key":"3273","name":"Grabs","shortName":"Grabs"},"district":{"key":"1724","name":"Wahlkreis Werdenberg"},"canton":{"key":"17","code":"SG","name":"St. Gallen"},"status":"Real"},{"key":"10030869","name":"Ulmenweg","postalCode":"9472","locality":"Grabs","commune":{"key":"3273","name":"Grabs","shortName":"Grabs"},"district":{"key":"1724","name":"Wahlkreis Werdenberg"},"canton":{"key":"17","code":"SG","name":"St. Gallen"},"status":"Real"},{"key":"10059788","name":"Unterbüls","postalCode":"9472","locality":"Grabs","commune":{"key":"3273","name":"Grabs","shortName":"Grabs"},"district":{"key":"1724","name":"Wahlkreis Werdenberg"},"canton":{"key":"17","code":"SG","name":"St. Gallen"},"status":"Real"},{"key":"10096376","name":"Unterdorfstrasse","postalCode":"9472","locality":"Grabs","commune":{"key":"3273","name":"Grabs","shortName":"Grabs"},"district":{"key":"1724","name":"Wahlkreis Werdenberg"},"canton":{"key":"17","code":"SG","name":"St. Gallen"},"status":"Real"},{"key":"10234028","name":"Unterdorfweg","postalCode":"9472","locality":"Grabs","commune":{"key":"3273","name":"Grabs","shortName":"Grabs"},"district":{"key":"1724","name":"Wahlkreis Werdenberg"},"canton":{"key":"17","code":"SG","name":"St. Gallen"},"status":"Real"},{"key":"10122400","name":"Unteren Steinagger","postalCode":"9472","locality":"Grabs","commune":{"key":"3273","name":"Grabs","shortName":"Grabs"},"district":{"key":"1724","name":"Wahlkreis Werdenberg"},"canton":{"key":"17","code":"SG","name":"St. Gallen"},"status":"Real"},{"key":"10249902","name":"Untere Rappenlochstrasse","postalCode":"9472","locality":"Grabserberg","commune":{"key":"3273","name":"Grabs","shortName":"Grabs"},"district":{"key":"1724","name":"Wahlkreis Werdenberg"},"canton":{"key":"17","code":"SG","name":"St. Gallen"},"status":"Real"},{"key":"10191994","name":"Unterer Erlenweg","postalCode":"9472","locality":"Grabs","commune":{"key":"3273","name":"Grabs","shortName":"Grabs"},"district":{"key":"1724","name":"Wahlkreis Werdenberg"},"canton":{"key":"17","code":"SG","name":"St. Gallen"},"status":"Real"},{"key":"10183087","name":"Unterer Geriälsweg","postalCode":"9472","locality":"Grabs","commune":{"key":"3273","name":"Grabs","shortName":"Grabs"},"district":{"key":"1724","name":"Wahlkreis Werdenberg"},"canton":{"key":"17","code":"SG","name":"St. Gallen"},"status":"Real"},{"key":"10234036","name":"Unterer Leversbergweg","postalCode":"9472","locality":"Grabs","commune":{"key":"3273","name":"Grabs","shortName":"Grabs"},"district":{"key":"1724","name":"Wahlkreis Werdenberg"},"canton":{"key":"17","code":"SG","name":"St. Gallen"},"status":"Real"},{"key":"10234044","name":"Unterer Studnerbachweg","postalCode":"9472","locality":"Grabs","commune":{"key":"3273","name":"Grabs","shortName":"Grabs"},"district":{"key":"1724","name":"Wahlkreis Werdenberg"},"canton":{"key":"17","code":"SG","name":"St. Gallen"},"status":"Real"},{"key":"10249907","name":"Unterer Trockenbühelweg","postalCode":"9472","locality":"Grabs","commune":{"key":"3273","name":"Grabs","shortName":"Grabs"},"district":{"key":"1724","name":"Wahlkreis Werdenberg"},"canton":{"key":"17","code":"SG","name":"St. Gallen"},"status":"Real"},{"key":"10234052","name":"Unterer Wässertenweg","postalCode":"9472","locality":"Grabs","commune":{"key":"3273","name":"Grabs","shortName":"Grabs"},"district":{"key":"1724","name":"Wahlkreis Werdenberg"},"canton":{"key":"17","code":"SG","name":"St. Gallen"},"status":"Real"},{"key":"10093139","name":"Untergatter","postalCode":"9472","locality":"Grabs","commune":{"key":"3273","name":"Grabs","shortName":"Grabs"},"district":{"key":"1724","name":"Wahlkreis Werdenberg"},"canton":{"key":"17","code":"SG","name":"St. Gallen"},"status":"Real"},{"key":"10234056","name":"Untergatterweg","postalCode":"9472","locality":"Grabs","commune":{"key":"3273","name":"Grabs","shortName":"Grabs"},"district":{"key":"1724","name":"Wahlkreis Werdenberg"},"canton":{"key":"17","code":"SG","name":"St. Gallen"},"status":"Real"},{"key":"10093148","name":"Unterschwendi","postalCode":"9472","locality":"Grabserberg","commune":{"key":"3273","name":"Grabs","shortName":"Grabs"},"district":{"key":"1724","name":"Wahlkreis Werdenberg"},"canton":{"key":"17","code":"SG","name":"St. Gallen"},"status":"Real"},{"key":"10234060","name":"Unterschwendistrasse","postalCode":"9472","locality":"Grabserberg","commune":{"key":"3273","name":"Grabs","shortName":"Grabs"},"district":{"key":"1724","name":"Wahlkreis Werdenberg"},"canton":{"key":"17","code":"SG","name":"St. Gallen"},"status":"Real"},{"key":"10234064","name":"Unterstofelweg","postalCode":"9472","locality":"Grabserberg","commune":{"key":"3273","name":"Grabs","shortName":"Grabs"},"district":{"key":"1724","name":"Wahlkreis Werdenberg"},"canton":{"key":"17","code":"SG","name":"St. Gallen"},"status":"Real"},{"key":"10155474","name":"Unterstudenstrasse","postalCode":"9472","locality":"Grabs","commune":{"key":"3273","name":"Grabs","shortName":"Grabs"},"district":{"key":"1724","name":"Wahlkreis Werdenberg"},"canton":{"key":"17","code":"SG","name":"St. Gallen"},"status":"Real"},{"key":"10234068","name":"Unterstudenweg","postalCode":"9472","locality":"Grabs","commune":{"key":"3273","name":"Grabs","shortName":"Grabs"},"district":{"key":"1724","name":"Wahlkreis Werdenberg"},"canton":{"key":"17","code":"SG","name":"St. Gallen"},"status":"Real"},{"key":"10030870","name":"Unterweg","postalCode":"9472","locality":"Grabs","commune":{"key":"3273","name":"Grabs","shortName":"Grabs"},"district":{"key":"1724","name":"Wahlkreis Werdenberg"},"canton":{"key":"17","code":"SG","name":"St. Gallen"},"status":"Real"},{"key":"10032046","name":"Unterwis","postalCode":"9472","locality":"Grabserberg","commune":{"key":"3273","name":"Grabs","shortName":"Grabs"},"district":{"key":"1724","name":"Wahlkreis Werdenberg"},"canton":{"key":"17","code":"SG","name":"St. Gallen"},"status":"Real"},{"key":"10234072","name":"Unterwisweg","postalCode":"9472","locality":"Grabs","commune":{"key":"3273","name":"Grabs","shortName":"Grabs"},"district":{"key":"1724","name":"Wahlkreis Werdenberg"},"canton":{"key":"17","code":"SG","name":"St. Gallen"},"status":"Real"},{"key":"10234072","name":"Unterwisweg","postalCode":"9472","locality":"Grabserberg","commune":{"key":"3273","name":"Grabs","shortName":"Grabs"},"district":{"key":"1724","name":"Wahlkreis Werdenberg"},"canton":{"key":"17","code":"SG","name":"St. Gallen"},"status":"Real"},{"key":"10046790","name":"Vertschellstrasse","postalCode":"9472","locality":"Grabs","commune":{"key":"3273","name":"Grabs","shortName":"Grabs"},"district":{"key":"1724","name":"Wahlkreis Werdenberg"},"canton":{"key":"17","code":"SG","name":"St. Gallen"},"status":"Real"},{"key":"10126120","name":"Vertschellweg","postalCode":"9472","locality":"Grabs","commune":{"key":"3273","name":"Grabs","shortName":"Grabs"},"district":{"key":"1724","name":"Wahlkreis Werdenberg"},"canton":{"key":"17","code":"SG","name":"St. Gallen"},"status":"Real"},{"key":"10104566","name":"Vilier","postalCode":"9472","locality":"Grabserberg","commune":{"key":"3273","name":"Grabs","shortName":"Grabs"},"district":{"key":"1724","name":"Wahlkreis Werdenberg"},"canton":{"key":"17","code":"SG","name":"St. Gallen"},"status":"Real"},{"key":"10234076","name":"Vilierweg","postalCode":"9472","locality":"Grabserberg","commune":{"key":"3273","name":"Grabs","shortName":"Grabs"},"district":{"key":"1724","name":"Wahlkreis Werdenberg"},"canton":{"key":"17","code":"SG","name":"St. Gallen"},"status":"Real"},{"key":"10249910","name":"Vogelegg","postalCode":"9472","locality":"Grabserberg","commune":{"key":"3273","name":"Grabs","shortName":"Grabs"},"district":{"key":"1724","name":"Wahlkreis Werdenberg"},"canton":{"key":"17","code":"SG","name":"St. Gallen"},"status":"Real"},{"key":"10234084","name":"Vogeleggweg","postalCode":"9472","locality":"Grabserberg","commune":{"key":"3273","name":"Grabs","shortName":"Grabs"},"district":{"key":"1724","name":"Wahlkreis Werdenberg"},"canton":{"key":"17","code":"SG","name":"St. Gallen"},"status":"Real"},{"key":"10032047","name":"Vogelsang","postalCode":"9472","locality":"Grabserberg","commune":{"key":"3273","name":"Grabs","shortName":"Grabs"},"district":{"key":"1724","name":"Wahlkreis Werdenberg"},"canton":{"key":"17","code":"SG","name":"St. Gallen"},"status":"Real"},{"key":"10030871","name":"Voralp","postalCode":"9472","locality":"Grabserberg","commune":{"key":"3273","name":"Grabs","shortName":"Grabs"},"district":{"key":"1724","name":"Wahlkreis Werdenberg"},"canton":{"key":"17","code":"SG","name":"St. Gallen"},"status":"Real"},{"key":"10192755","name":"Voralp-Bachboden","postalCode":"9472","locality":"Grabserberg","commune":{"key":"3273","name":"Grabs","shortName":"Grabs"},"district":{"key":"1724","name":"Wahlkreis Werdenberg"},"canton":{"key":"17","code":"SG","name":"St. Gallen"},"status":"Real"},{"key":"10192484","name":"Voralp-Bachbodenrain","postalCode":"9472","locality":"Grabserberg","commune":{"key":"3273","name":"Grabs","shortName":"Grabs"},"district":{"key":"1724","name":"Wahlkreis Werdenberg"},"canton":{"key":"17","code":"SG","name":"St. Gallen"},"status":"Real"},{"key":"10234088","name":"Voralp-Büelen","postalCode":"9472","locality":"Grabserberg","commune":{"key":"3273","name":"Grabs","shortName":"Grabs"},"district":{"key":"1724","name":"Wahlkreis Werdenberg"},"canton":{"key":"17","code":"SG","name":"St. Gallen"},"status":"Real"},{"key":"10234092","name":"Voralp-Hagersriet","postalCode":"9472","locality":"Grabserberg","commune":{"key":"3273","name":"Grabs","shortName":"Grabs"},"district":{"key":"1724","name":"Wahlkreis Werdenberg"},"canton":{"key":"17","code":"SG","name":"St. Gallen"},"status":"Real"},{"key":"10192744","name":"Voralp-Höhi","postalCode":"9472","locality":"Grabserberg","commune":{"key":"3273","name":"Grabs","shortName":"Grabs"},"district":{"key":"1724","name":"Wahlkreis Werdenberg"},"canton":{"key":"17","code":"SG","name":"St. Gallen"},"status":"Real"},{"key":"10192485","name":"Voralp-Inggernast","postalCode":"9472","locality":"Grabserberg","commune":{"key":"3273","name":"Grabs","shortName":"Grabs"},"district":{"key":"1724","name":"Wahlkreis Werdenberg"},"canton":{"key":"17","code":"SG","name":"St. Gallen"},"status":"Real"},{"key":"10192757","name":"Voralp-Oberer Stofel","postalCode":"9472","locality":"Grabserberg","commune":{"key":"3273","name":"Grabs","shortName":"Grabs"},"district":{"key":"1724","name":"Wahlkreis Werdenberg"},"canton":{"key":"17","code":"SG","name":"St. Gallen"},"status":"Real"},{"key":"10194643","name":"Voralp-Ober Länggli","postalCode":"9472","locality":"Grabserberg","commune":{"key":"3273","name":"Grabs","shortName":"Grabs"},"district":{"key":"1724","name":"Wahlkreis Werdenberg"},"canton":{"key":"17","code":"SG","name":"St. Gallen"},"status":"Real"},{"key":"10192815","name":"Voralp-Risiwald","postalCode":"9472","locality":"Grabserberg","commune":{"key":"3273","name":"Grabs","shortName":"Grabs"},"district":{"key":"1724","name":"Wahlkreis Werdenberg"},"canton":{"key":"17","code":"SG","name":"St. Gallen"},"status":"Real"},{"key":"10234097","name":"Voralpsee-Rundweg","postalCode":"9472","locality":"Grabserberg","commune":{"key":"3273","name":"Grabs","shortName":"Grabs"},"district":{"key":"1724","name":"Wahlkreis Werdenberg"},"canton":{"key":"17","code":"SG","name":"St. Gallen"},"status":"Real"},{"key":"10234101","name":"Voralpseestrasse","postalCode":"9472","locality":"Grabserberg","commune":{"key":"3273","name":"Grabs","shortName":"Grabs"},"district":{"key":"1724","name":"Wahlkreis Werdenberg"},"canton":{"key":"17","code":"SG","name":"St. Gallen"},"status":"Real"},{"key":"10234105","name":"Voralpstrasse","postalCode":"9472","locality":"Grabserberg","commune":{"key":"3273","name":"Grabs","shortName":"Grabs"},"district":{"key":"1724","name":"Wahlkreis Werdenberg"},"canton":{"key":"17","code":"SG","name":"St. Gallen"},"status":"Real"},{"key":"10192743","name":"Voralp-Unterer Stofel","postalCode":"9472","locality":"Grabserberg","commune":{"key":"3273","name":"Grabs","shortName":"Grabs"},"district":{"key":"1724","name":"Wahlkreis Werdenberg"},"canton":{"key":"17","code":"SG","name":"St. Gallen"},"status":"Real"},{"key":"10194551","name":"Voralp-Unter Länggli","postalCode":"9472","locality":"Grabserberg","commune":{"key":"3273","name":"Grabs","shortName":"Grabs"},"district":{"key":"1724","name":"Wahlkreis Werdenberg"},"canton":{"key":"17","code":"SG","name":"St. Gallen"},"status":"Real"},{"key":"10194621","name":"Voralp-Vor dem See","postalCode":"9472","locality":"Grabserberg","commune":{"key":"3273","name":"Grabs","shortName":"Grabs"},"district":{"key":"1724","name":"Wahlkreis Werdenberg"},"canton":{"key":"17","code":"SG","name":"St. Gallen"},"status":"Real"},{"key":"10030872","name":"Vorbüls","postalCode":"9472","locality":"Grabs","commune":{"key":"3273","name":"Grabs","shortName":"Grabs"},"district":{"key":"1724","name":"Wahlkreis Werdenberg"},"canton":{"key":"17","code":"SG","name":"St. Gallen"},"status":"Real"},{"key":"10234109","name":"Vor dem See","postalCode":"9472","locality":"Grabserberg","commune":{"key":"3273","name":"Grabs","shortName":"Grabs"},"district":{"key":"1724","name":"Wahlkreis Werdenberg"},"canton":{"key":"17","code":"SG","name":"St. Gallen"},"status":"Real"},{"key":"10249914","name":"Vorderdorf","postalCode":"9472","locality":"Grabs","commune":{"key":"3273","name":"Grabs","shortName":"Grabs"},"district":{"key":"1724","name":"Wahlkreis Werdenberg"},"canton":{"key":"17","code":"SG","name":"St. Gallen"},"status":"Real"},{"key":"10093140","name":"Vorderdorfstrasse","postalCode":"9472","locality":"Grabs","commune":{"key":"3273","name":"Grabs","shortName":"Grabs"},"district":{"key":"1724","name":"Wahlkreis Werdenberg"},"canton":{"key":"17","code":"SG","name":"St. Gallen"},"status":"Real"},{"key":"10113042","name":"Vorderegg","postalCode":"9472","locality":"Grabs","commune":{"key":"3273","name":"Grabs","shortName":"Grabs"},"district":{"key":"1724","name":"Wahlkreis Werdenberg"},"canton":{"key":"17","code":"SG","name":"St. Gallen"},"status":"Real"},{"key":"10234116","name":"Vordereggweg","postalCode":"9472","locality":"Grabs","commune":{"key":"3273","name":"Grabs","shortName":"Grabs"},"district":{"key":"1724","name":"Wahlkreis Werdenberg"},"canton":{"key":"17","code":"SG","name":"St. Gallen"},"status":"Real"},{"key":"10234112","name":"Vordere Griststrasse","postalCode":"9472","locality":"Grabs","commune":{"key":"3273","name":"Grabs","shortName":"Grabs"},"district":{"key":"1724","name":"Wahlkreis Werdenberg"},"canton":{"key":"17","code":"SG","name":"St. Gallen"},"status":"Real"},{"key":"10102223","name":"Vordere Litten","postalCode":"9472","locality":"Grabserberg","commune":{"key":"3273","name":"Grabs","shortName":"Grabs"},"district":{"key":"1724","name":"Wahlkreis Werdenberg"},"canton":{"key":"17","code":"SG","name":"St. Gallen"},"status":"Real"},{"key":"10234120","name":"Vorderelittenweg","postalCode":"9472","locality":"Grabserberg","commune":{"key":"3273","name":"Grabs","shortName":"Grabs"},"district":{"key":"1724","name":"Wahlkreis Werdenberg"},"canton":{"key":"17","code":"SG","name":"St. Gallen"},"status":"Real"},{"key":"10032048","name":"Vorderen Hof","postalCode":"9472","locality":"Grabserberg","commune":{"key":"3273","name":"Grabs","shortName":"Grabs"},"district":{"key":"1724","name":"Wahlkreis Werdenberg"},"canton":{"key":"17","code":"SG","name":"St. Gallen"},"status":"Real"},{"key":"10163593","name":"Vordere Quaderstrasse","postalCode":"9472","locality":"Grabs","commune":{"key":"3273","name":"Grabs","shortName":"Grabs"},"district":{"key":"1724","name":"Wahlkreis Werdenberg"},"canton":{"key":"17","code":"SG","name":"St. Gallen"},"status":"Real"},{"key":"10234124","name":"Vorderer Geriälsgrabenweg","postalCode":"9472","locality":"Grabs","commune":{"key":"3273","name":"Grabs","shortName":"Grabs"},"district":{"key":"1724","name":"Wahlkreis Werdenberg"},"canton":{"key":"17","code":"SG","name":"St. Gallen"},"status":"Real"},{"key":"10234126","name":"Vorderer Grabserbachweg","postalCode":"9472","locality":"Grabs","commune":{"key":"3273","name":"Grabs","shortName":"Grabs"},"district":{"key":"1724","name":"Wahlkreis Werdenberg"},"canton":{"key":"17","code":"SG","name":"St. Gallen"},"status":"Real"},{"key":"10234130","name":"Vorderer Quaderweg","postalCode":"9472","locality":"Grabs","commune":{"key":"3273","name":"Grabs","shortName":"Grabs"},"district":{"key":"1724","name":"Wahlkreis Werdenberg"},"canton":{"key":"17","code":"SG","name":"St. Gallen"},"status":"Real"},{"key":"10234135","name":"Vorderer Rufersweg","postalCode":"9472","locality":"Grabs","commune":{"key":"3273","name":"Grabs","shortName":"Grabs"},"district":{"key":"1724","name":"Wahlkreis Werdenberg"},"canton":{"key":"17","code":"SG","name":"St. Gallen"},"status":"Real"},{"key":"10234139","name":"Vorderer Schildgrabenweg","postalCode":"9472","locality":"Grabs","commune":{"key":"3273","name":"Grabs","shortName":"Grabs"},"district":{"key":"1724","name":"Wahlkreis Werdenberg"},"canton":{"key":"17","code":"SG","name":"St. Gallen"},"status":"Real"},{"key":"10249918","name":"Vorstein","postalCode":"9472","locality":"Grabserberg","commune":{"key":"3273","name":"Grabs","shortName":"Grabs"},"district":{"key":"1724","name":"Wahlkreis Werdenberg"},"canton":{"key":"17","code":"SG","name":"St. Gallen"},"status":"Real"},{"key":"10234143","name":"Waisenhauswegli","postalCode":"9472","locality":"Grabs","commune":{"key":"3273","name":"Grabs","shortName":"Grabs"},"district":{"key":"1724","name":"Wahlkreis Werdenberg"},"canton":{"key":"17","code":"SG","name":"St. Gallen"},"status":"Real"},{"key":"10059789","name":"Walchen","postalCode":"9472","locality":"Grabserberg","commune":{"key":"3273","name":"Grabs","shortName":"Grabs"},"district":{"key":"1724","name":"Wahlkreis Werdenberg"},"canton":{"key":"17","code":"SG","name":"St. Gallen"},"status":"Real"},{"key":"10234146","name":"Walchenbachstrasse","postalCode":"9472","locality":"Grabs","commune":{"key":"3273","name":"Grabs","shortName":"Grabs"},"district":{"key":"1724","name":"Wahlkreis Werdenberg"},"canton":{"key":"17","code":"SG","name":"St. Gallen"},"status":"Real"},{"key":"10234146","name":"Walchenbachstrasse","postalCode":"9472","locality":"Grabserberg","commune":{"key":"3273","name":"Grabs","shortName":"Grabs"},"district":{"key":"1724","name":"Wahlkreis Werdenberg"},"canton":{"key":"17","code":"SG","name":"St. Gallen"},"status":"Real"},{"key":"10234151","name":"Walchenweg","postalCode":"9472","locality":"Grabserberg","commune":{"key":"3273","name":"Grabs","shortName":"Grabs"},"district":{"key":"1724","name":"Wahlkreis Werdenberg"},"canton":{"key":"17","code":"SG","name":"St. Gallen"},"status":"Real"},{"key":"10234155","name":"Warmtobelweg","postalCode":"9472","locality":"Grabserberg","commune":{"key":"3273","name":"Grabs","shortName":"Grabs"},"district":{"key":"1724","name":"Wahlkreis Werdenberg"},"canton":{"key":"17","code":"SG","name":"St. Gallen"},"status":"Real"},{"key":"10194559","name":"Wäseli","postalCode":"9472","locality":"Grabserberg","commune":{"key":"3273","name":"Grabs","shortName":"Grabs"},"district":{"key":"1724","name":"Wahlkreis Werdenberg"},"canton":{"key":"17","code":"SG","name":"St. Gallen"},"status":"Real"},{"key":"10108112","name":"Wassergasse","postalCode":"9472","locality":"Grabs","commune":{"key":"3273","name":"Grabs","shortName":"Grabs"},"district":{"key":"1724","name":"Wahlkreis Werdenberg"},"canton":{"key":"17","code":"SG","name":"St. Gallen"},"status":"Real"},{"key":"10249926","name":"Wässerten","postalCode":"9472","locality":"Grabs","commune":{"key":"3273","name":"Grabs","shortName":"Grabs"},"district":{"key":"1724","name":"Wahlkreis Werdenberg"},"canton":{"key":"17","code":"SG","name":"St. Gallen"},"status":"Real"},{"key":"10059794","name":"Weibelagger","postalCode":"9472","locality":"Grabserberg","commune":{"key":"3273","name":"Grabs","shortName":"Grabs"},"district":{"key":"1724","name":"Wahlkreis Werdenberg"},"canton":{"key":"17","code":"SG","name":"St. Gallen"},"status":"Real"},{"key":"10234159","name":"Weibelaggerweg","postalCode":"9472","locality":"Grabserberg","commune":{"key":"3273","name":"Grabs","shortName":"Grabs"},"district":{"key":"1724","name":"Wahlkreis Werdenberg"},"canton":{"key":"17","code":"SG","name":"St. Gallen"},"status":"Real"},{"key":"10198314","name":"Weibelweid","postalCode":"9472","locality":"Grabserberg","commune":{"key":"3273","name":"Grabs","shortName":"Grabs"},"district":{"key":"1724","name":"Wahlkreis Werdenberg"},"canton":{"key":"17","code":"SG","name":"St. Gallen"},"status":"Real"},{"key":"10234163","name":"Weibelweidweg","postalCode":"9472","locality":"Grabserberg","commune":{"key":"3273","name":"Grabs","shortName":"Grabs"},"district":{"key":"1724","name":"Wahlkreis Werdenberg"},"canton":{"key":"17","code":"SG","name":"St. Gallen"},"status":"Real"},{"key":"10030873","name":"Weidenstrasse","postalCode":"9472","locality":"Grabs","commune":{"key":"3273","name":"Grabs","shortName":"Grabs"},"district":{"key":"1724","name":"Wahlkreis Werdenberg"},"canton":{"key":"17","code":"SG","name":"St. Gallen"},"status":"Real"},{"key":"10234166","name":"Weidenweg","postalCode":"9472","locality":"Grabs","commune":{"key":"3273","name":"Grabs","shortName":"Grabs"},"district":{"key":"1724","name":"Wahlkreis Werdenberg"},"canton":{"key":"17","code":"SG","name":"St. Gallen"},"status":"Real"},{"key":"10234172","name":"Weiterietweg","postalCode":"9472","locality":"Grabs","commune":{"key":"3273","name":"Grabs","shortName":"Grabs"},"district":{"key":"1724","name":"Wahlkreis Werdenberg"},"canton":{"key":"17","code":"SG","name":"St. Gallen"},"status":"Real"},{"key":"10071447","name":"Werden","postalCode":"9472","locality":"Grabserberg","commune":{"key":"3273","name":"Grabs","shortName":"Grabs"},"district":{"key":"1724","name":"Wahlkreis Werdenberg"},"canton":{"key":"17","code":"SG","name":"St. Gallen"},"status":"Real"},{"key":"10030874","name":"Werdenstrasse","postalCode":"9472","locality":"Grabs","commune":{"key":"3273","name":"Grabs","shortName":"Grabs"},"district":{"key":"1724","name":"Wahlkreis Werdenberg"},"canton":{"key":"17","code":"SG","name":"St. Gallen"},"status":"Real"},{"key":"10032028","name":"Werdenweg","postalCode":"9472","locality":"Grabs","commune":{"key":"3273","name":"Grabs","shortName":"Grabs"},"district":{"key":"1724","name":"Wahlkreis Werdenberg"},"canton":{"key":"17","code":"SG","name":"St. Gallen"},"status":"Real"},{"key":"10046791","name":"Wiesenstrasse","postalCode":"9472","locality":"Grabs","commune":{"key":"3273","name":"Grabs","shortName":"Grabs"},"district":{"key":"1724","name":"Wahlkreis Werdenberg"},"canton":{"key":"17","code":"SG","name":"St. Gallen"},"status":"Real"},{"key":"10234179","name":"Wildhauserstrasse","postalCode":"9472","locality":"Grabserberg","commune":{"key":"3273","name":"Grabs","shortName":"Grabs"},"district":{"key":"1724","name":"Wahlkreis Werdenberg"},"canton":{"key":"17","code":"SG","name":"St. Gallen"},"status":"Real"},{"key":"10093141","name":"Wingert","postalCode":"9472","locality":"Grabs","commune":{"key":"3273","name":"Grabs","shortName":"Grabs"},"district":{"key":"1724","name":"Wahlkreis Werdenberg"},"canton":{"key":"17","code":"SG","name":"St. Gallen"},"status":"Real"},{"key":"10234183","name":"Wingertgass","postalCode":"9472","locality":"Grabs","commune":{"key":"3273","name":"Grabs","shortName":"Grabs"},"district":{"key":"1724","name":"Wahlkreis Werdenberg"},"canton":{"key":"17","code":"SG","name":"St. Gallen"},"status":"Real"},{"key":"10234187","name":"Wingertstrasse","postalCode":"9472","locality":"Grabs","commune":{"key":"3273","name":"Grabs","shortName":"Grabs"},"district":{"key":"1724","name":"Wahlkreis Werdenberg"},"canton":{"key":"17","code":"SG","name":"St. Gallen"},"status":"Real"},{"key":"10234191","name":"Winggelweg","postalCode":"9472","locality":"Grabs","commune":{"key":"3273","name":"Grabs","shortName":"Grabs"},"district":{"key":"1724","name":"Wahlkreis Werdenberg"},"canton":{"key":"17","code":"SG","name":"St. Gallen"},"status":"Real"},{"key":"10071448","name":"Winnenwis","postalCode":"9472","locality":"Grabserberg","commune":{"key":"3273","name":"Grabs","shortName":"Grabs"},"district":{"key":"1724","name":"Wahlkreis Werdenberg"},"canton":{"key":"17","code":"SG","name":"St. Gallen"},"status":"Real"},{"key":"10234195","name":"Winnenwisweg","postalCode":"9472","locality":"Grabserberg","commune":{"key":"3273","name":"Grabs","shortName":"Grabs"},"district":{"key":"1724","name":"Wahlkreis Werdenberg"},"canton":{"key":"17","code":"SG","name":"St. Gallen"},"status":"Real"},{"key":"10249938","name":"Wisiboden","postalCode":"9472","locality":"Grabserberg","commune":{"key":"3273","name":"Grabs","shortName":"Grabs"},"district":{"key":"1724","name":"Wahlkreis Werdenberg"},"canton":{"key":"17","code":"SG","name":"St. Gallen"},"status":"Real"},{"key":"10071449","name":"Wisli","postalCode":"9472","locality":"Grabs","commune":{"key":"3273","name":"Grabs","shortName":"Grabs"},"district":{"key":"1724","name":"Wahlkreis Werdenberg"},"canton":{"key":"17","code":"SG","name":"St. Gallen"},"status":"Real"},{"key":"10234199","name":"Wislistrasse","postalCode":"9472","locality":"Grabs","commune":{"key":"3273","name":"Grabs","shortName":"Grabs"},"district":{"key":"1724","name":"Wahlkreis Werdenberg"},"canton":{"key":"17","code":"SG","name":"St. Gallen"},"status":"Real"},{"key":"10234203","name":"Wisliweg","postalCode":"9472","locality":"Grabs","commune":{"key":"3273","name":"Grabs","shortName":"Grabs"},"district":{"key":"1724","name":"Wahlkreis Werdenberg"},"canton":{"key":"17","code":"SG","name":"St. Gallen"},"status":"Real"},{"key":"10251621","name":"Wisliweg","postalCode":"9472","locality":"Grabserberg","commune":{"key":"3273","name":"Grabs","shortName":"Grabs"},"district":{"key":"1724","name":"Wahlkreis Werdenberg"},"canton":{"key":"17","code":"SG","name":"St. Gallen"},"status":"Real"},{"key":"10032029","name":"Wispel","postalCode":"9472","locality":"Grabs","commune":{"key":"3273","name":"Grabs","shortName":"Grabs"},"district":{"key":"1724","name":"Wahlkreis Werdenberg"},"canton":{"key":"17","code":"SG","name":"St. Gallen"},"status":"Real"},{"key":"10250153","name":"Witiriet","postalCode":"9472","locality":"Grabs","commune":{"key":"3273","name":"Grabs","shortName":"Grabs"},"district":{"key":"1724","name":"Wahlkreis Werdenberg"},"canton":{"key":"17","code":"SG","name":"St. Gallen"},"status":"Real"},{"key":"10032049","name":"Wüesti","postalCode":"9472","locality":"Grabserberg","commune":{"key":"3273","name":"Grabs","shortName":"Grabs"},"district":{"key":"1724","name":"Wahlkreis Werdenberg"},"canton":{"key":"17","code":"SG","name":"St. Gallen"},"status":"Real"},{"key":"10234211","name":"Zoggenbodenstrasse","postalCode":"9472","locality":"Grabserberg","commune":{"key":"3273","name":"Grabs","shortName":"Grabs"},"district":{"key":"1724","name":"Wahlkreis Werdenberg"},"canton":{"key":"17","code":"SG","name":"St. Gallen"},"status":"Real"},{"key":"10234043","name":"Älpliweg","postalCode":"9472","locality":"Grabserberg","commune":{"key":"3273","name":"Grabs","shortName":"Grabs"},"district":{"key":"1724","name":"Wahlkreis Werdenberg"},"canton":{"key":"17","code":"SG","name":"St. Gallen"},"status":"Real"},{"key":"10071450","name":"Äräggäll","postalCode":"9472","locality":"Grabs","commune":{"key":"3273","name":"Grabs","shortName":"Grabs"},"district":{"key":"1724","name":"Wahlkreis Werdenberg"},"canton":{"key":"17","code":"SG","name":"St. Gallen"},"status":"Real"},{"key":"10232052","name":"Äräggällweg","postalCode":"9472","locality":"Grabs","commune":{"key":"3273","name":"Grabs","shortName":"Grabs"},"district":{"key":"1724","name":"Wahlkreis Werdenberg"},"canton":{"key":"17","code":"SG","name":"St. Gallen"},"status":"Real"},]