[{"key":"10098596","name":"Chemin de Condamine","postalCode":"1267","locality":"Coinsins","commune":{"key":"5710","name":"Coinsins","shortName":"Coinsins"},"district":{"key":"2228","name":"District de Nyon"},"canton":{"key":"22","code":"VD","name":"Vaud"},"status":"Real"},{"key":"10173130","name":"Chemin de la Glacière","postalCode":"1267","locality":"Coinsins","commune":{"key":"5710","name":"Coinsins","shortName":"Coinsins"},"district":{"key":"2228","name":"District de Nyon"},"canton":{"key":"22","code":"VD","name":"Vaud"},"status":"Real"},{"key":"10106212","name":"Chemin de la Gremillette","postalCode":"1267","locality":"Coinsins","commune":{"key":"5710","name":"Coinsins","shortName":"Coinsins"},"district":{"key":"2228","name":"District de Nyon"},"canton":{"key":"22","code":"VD","name":"Vaud"},"status":"Real"},{"key":"10121609","name":"Chemin des Chalets","postalCode":"1267","locality":"Coinsins","commune":{"key":"5710","name":"Coinsins","shortName":"Coinsins"},"district":{"key":"2228","name":"District de Nyon"},"canton":{"key":"22","code":"VD","name":"Vaud"},"status":"Real"},{"key":"10125261","name":"Chemin des Grangettes","postalCode":"1267","locality":"Coinsins","commune":{"key":"5710","name":"Coinsins","shortName":"Coinsins"},"district":{"key":"2228","name":"District de Nyon"},"canton":{"key":"22","code":"VD","name":"Vaud"},"status":"Real"},{"key":"10173131","name":"Chemin des Muletiers","postalCode":"1267","locality":"Coinsins","commune":{"key":"5710","name":"Coinsins","shortName":"Coinsins"},"district":{"key":"2228","name":"District de Nyon"},"canton":{"key":"22","code":"VD","name":"Vaud"},"status":"Real"},{"key":"10041825","name":"Chemin des Sapins","postalCode":"1267","locality":"Coinsins","commune":{"key":"5710","name":"Coinsins","shortName":"Coinsins"},"district":{"key":"2228","name":"District de Nyon"},"canton":{"key":"22","code":"VD","name":"Vaud"},"status":"Real"},{"key":"10184158","name":"Chemin des Uttins","postalCode":"1267","locality":"Coinsins","commune":{"key":"5710","name":"Coinsins","shortName":"Coinsins"},"district":{"key":"2228","name":"District de Nyon"},"canton":{"key":"22","code":"VD","name":"Vaud"},"status":"Real"},{"key":"10155579","name":"Chemin du Bois de Chênes","postalCode":"1267","locality":"Coinsins","commune":{"key":"5710","name":"Coinsins","shortName":"Coinsins"},"district":{"key":"2228","name":"District de Nyon"},"canton":{"key":"22","code":"VD","name":"Vaud"},"status":"Real"},{"key":"10098597","name":"Chemin du Couchant","postalCode":"1267","locality":"Coinsins","commune":{"key":"5710","name":"Coinsins","shortName":"Coinsins"},"district":{"key":"2228","name":"District de Nyon"},"canton":{"key":"22","code":"VD","name":"Vaud"},"status":"Real"},{"key":"10041826","name":"Chemin du Grand-Champ","postalCode":"1267","locality":"Coinsins","commune":{"key":"5710","name":"Coinsins","shortName":"Coinsins"},"district":{"key":"2228","name":"District de Nyon"},"canton":{"key":"22","code":"VD","name":"Vaud"},"status":"Real"},{"key":"10173132","name":"Chemin du Grand Pré","postalCode":"1267","locality":"Coinsins","commune":{"key":"5710","name":"Coinsins","shortName":"Coinsins"},"district":{"key":"2228","name":"District de Nyon"},"canton":{"key":"22","code":"VD","name":"Vaud"},"status":"Real"},{"key":"10041827","name":"Chemin du Levant","postalCode":"1267","locality":"Coinsins","commune":{"key":"5710","name":"Coinsins","shortName":"Coinsins"},"district":{"key":"2228","name":"District de Nyon"},"canton":{"key":"22","code":"VD","name":"Vaud"},"status":"Real"},{"key":"10074895","name":"Chemin du Montant","postalCode":"1267","locality":"Coinsins","commune":{"key":"5710","name":"Coinsins","shortName":"Coinsins"},"district":{"key":"2228","name":"District de Nyon"},"canton":{"key":"22","code":"VD","name":"Vaud"},"status":"Real"},{"key":"10042093","name":"Domaine de Mimorey","postalCode":"1267","locality":"Coinsins","commune":{"key":"5710","name":"Coinsins","shortName":"Coinsins"},"district":{"key":"2228","name":"District de Nyon"},"canton":{"key":"22","code":"VD","name":"Vaud"},"status":"Real"},{"key":"10101483","name":"Route de la Tourbière","postalCode":"1267","locality":"Coinsins","commune":{"key":"5710","name":"Coinsins","shortName":"Coinsins"},"district":{"key":"2228","name":"District de Nyon"},"canton":{"key":"22","code":"VD","name":"Vaud"},"status":"Real"},{"key":"10042095","name":"Route de la Verrerie","postalCode":"1267","locality":"Coinsins","commune":{"key":"5710","name":"Coinsins","shortName":"Coinsins"},"district":{"key":"2228","name":"District de Nyon"},"canton":{"key":"22","code":"VD","name":"Vaud"},"status":"Real"},{"key":"10173133","name":"Route de l'Etraz","postalCode":"1267","locality":"Coinsins","commune":{"key":"5710","name":"Coinsins","shortName":"Coinsins"},"district":{"key":"2228","name":"District de Nyon"},"canton":{"key":"22","code":"VD","name":"Vaud"},"status":"Real"},{"key":"10153616","name":"Route des Montagnards","postalCode":"1267","locality":"Coinsins","commune":{"key":"5710","name":"Coinsins","shortName":"Coinsins"},"district":{"key":"2228","name":"District de Nyon"},"canton":{"key":"22","code":"VD","name":"Vaud"},"status":"Real"},{"key":"10098599","name":"Route des Vettanes","postalCode":"1267","locality":"Coinsins","commune":{"key":"5710","name":"Coinsins","shortName":"Coinsins"},"district":{"key":"2228","name":"District de Nyon"},"canton":{"key":"22","code":"VD","name":"Vaud"},"status":"Real"},{"key":"10042094","name":"Route du Cordex","postalCode":"1267","locality":"Coinsins","commune":{"key":"5710","name":"Coinsins","shortName":"Coinsins"},"district":{"key":"2228","name":"District de Nyon"},"canton":{"key":"22","code":"VD","name":"Vaud"},"status":"Real"},{"key":"10074896","name":"Route du Moulin","postalCode":"1267","locality":"Coinsins","commune":{"key":"5710","name":"Coinsins","shortName":"Coinsins"},"district":{"key":"2228","name":"District de Nyon"},"canton":{"key":"22","code":"VD","name":"Vaud"},"status":"Real"},{"key":"10042096","name":"Rue des Fontaines","postalCode":"1267","locality":"Coinsins","commune":{"key":"5710","name":"Coinsins","shortName":"Coinsins"},"district":{"key":"2228","name":"District de Nyon"},"canton":{"key":"22","code":"VD","name":"Vaud"},"status":"Real"},{"key":"10180691","name":"Rue du Château","postalCode":"1267","locality":"Coinsins","commune":{"key":"5710","name":"Coinsins","shortName":"Coinsins"},"district":{"key":"2228","name":"District de Nyon"},"canton":{"key":"22","code":"VD","name":"Vaud"},"status":"Real"},{"key":"10042097","name":"Rue du Pressoir","postalCode":"1267","locality":"Coinsins","commune":{"key":"5710","name":"Coinsins","shortName":"Coinsins"},"district":{"key":"2228","name":"District de Nyon"},"canton":{"key":"22","code":"VD","name":"Vaud"},"status":"Real"},{"key":"10184950","name":"Saint-Dyck Avenue","postalCode":"1267","locality":"Coinsins","commune":{"key":"5710","name":"Coinsins","shortName":"Coinsins"},"district":{"key":"2228","name":"District de Nyon"},"canton":{"key":"22","code":"VD","name":"Vaud"},"status":"Real"},{"key":"10153180","name":"Vieille Route","postalCode":"1267","locality":"Coinsins","commune":{"key":"5710","name":"Coinsins","shortName":"Coinsins"},"district":{"key":"2228","name":"District de Nyon"},"canton":{"key":"22","code":"VD","name":"Vaud"},"status":"Real"},]