[{"name":"Alte Dorfstr.","postalCode":"09619","locality":"Mulda/Sachsen","municipality":{"key":"14522390","name":"Mulda/Sa.","type":"Kreisangehörige_Gemeinde"},"district":{"key":"14522","name":"Mittelsachsen","type":"Landkreis"},"federalState":{"key":"14","name":"Sachsen"}},{"name":"Alte Lichtenberger Str.","postalCode":"09619","locality":"Mulda/Sachsen","municipality":{"key":"14522390","name":"Mulda/Sa.","type":"Kreisangehörige_Gemeinde"},"district":{"key":"14522","name":"Mittelsachsen","type":"Landkreis"},"federalState":{"key":"14","name":"Sachsen"}},{"name":"Alte Poststr.","postalCode":"09619","locality":"Mulda/Sachsen","municipality":{"key":"14522390","name":"Mulda/Sa.","type":"Kreisangehörige_Gemeinde"},"district":{"key":"14522","name":"Mittelsachsen","type":"Landkreis"},"federalState":{"key":"14","name":"Sachsen"}},{"name":"Alte Salzstr.","postalCode":"09619","locality":"Mulda/Sachsen","municipality":{"key":"14522390","name":"Mulda/Sa.","type":"Kreisangehörige_Gemeinde"},"district":{"key":"14522","name":"Mittelsachsen","type":"Landkreis"},"federalState":{"key":"14","name":"Sachsen"}},{"name":"Am Hohen Schuß","postalCode":"09619","locality":"Mulda/Sachsen","municipality":{"key":"14522390","name":"Mulda/Sa.","type":"Kreisangehörige_Gemeinde"},"district":{"key":"14522","name":"Mittelsachsen","type":"Landkreis"},"federalState":{"key":"14","name":"Sachsen"}},{"name":"Am Rittergut","postalCode":"09619","locality":"Mulda/Sachsen","municipality":{"key":"14522390","name":"Mulda/Sa.","type":"Kreisangehörige_Gemeinde"},"district":{"key":"14522","name":"Mittelsachsen","type":"Landkreis"},"federalState":{"key":"14","name":"Sachsen"}},{"name":"Am Südhang","postalCode":"09619","locality":"Mulda/Sachsen","municipality":{"key":"14522390","name":"Mulda/Sa.","type":"Kreisangehörige_Gemeinde"},"district":{"key":"14522","name":"Mittelsachsen","type":"Landkreis"},"federalState":{"key":"14","name":"Sachsen"}},{"name":"Am Teich","postalCode":"09619","locality":"Mulda/Sachsen","municipality":{"key":"14522390","name":"Mulda/Sa.","type":"Kreisangehörige_Gemeinde"},"district":{"key":"14522","name":"Mittelsachsen","type":"Landkreis"},"federalState":{"key":"14","name":"Sachsen"}},{"name":"Anton-Günther-Steig","postalCode":"09619","locality":"Mulda/Sachsen","municipality":{"key":"14522390","name":"Mulda/Sa.","type":"Kreisangehörige_Gemeinde"},"district":{"key":"14522","name":"Mittelsachsen","type":"Landkreis"},"federalState":{"key":"14","name":"Sachsen"}},{"name":"Bahnhofstr.","postalCode":"09619","locality":"Mulda/Sachsen","municipality":{"key":"14522390","name":"Mulda/Sa.","type":"Kreisangehörige_Gemeinde"},"district":{"key":"14522","name":"Mittelsachsen","type":"Landkreis"},"federalState":{"key":"14","name":"Sachsen"}},{"name":"Bärendellenweg","postalCode":"09619","locality":"Mulda/Sachsen","municipality":{"key":"14522390","name":"Mulda/Sa.","type":"Kreisangehörige_Gemeinde"},"district":{"key":"14522","name":"Mittelsachsen","type":"Landkreis"},"federalState":{"key":"14","name":"Sachsen"}},{"name":"Buschtellenweg","postalCode":"09619","locality":"Mulda/Sachsen","municipality":{"key":"14522390","name":"Mulda/Sa.","type":"Kreisangehörige_Gemeinde"},"district":{"key":"14522","name":"Mittelsachsen","type":"Landkreis"},"federalState":{"key":"14","name":"Sachsen"}},{"name":"Chemnitzer Str.","postalCode":"09619","locality":"Mulda/Sachsen","municipality":{"key":"14522390","name":"Mulda/Sa.","type":"Kreisangehörige_Gemeinde"},"district":{"key":"14522","name":"Mittelsachsen","type":"Landkreis"},"federalState":{"key":"14","name":"Sachsen"}},{"name":"Dorfstr.","postalCode":"09619","locality":"Mulda/Sachsen","municipality":{"key":"14522390","name":"Mulda/Sa.","type":"Kreisangehörige_Gemeinde"},"district":{"key":"14522","name":"Mittelsachsen","type":"Landkreis"},"federalState":{"key":"14","name":"Sachsen"}},{"name":"ehem. Schmalspurbahn Mulda–Sayda","postalCode":"09619","locality":"Mulda/Sachsen","municipality":{"key":"14522390","name":"Mulda/Sa.","type":"Kreisangehörige_Gemeinde"},"district":{"key":"14522","name":"Mittelsachsen","type":"Landkreis"},"federalState":{"key":"14","name":"Sachsen"}},{"name":"Eppenflußweg","postalCode":"09619","locality":"Mulda/Sachsen","municipality":{"key":"14522390","name":"Mulda/Sa.","type":"Kreisangehörige_Gemeinde"},"district":{"key":"14522","name":"Mittelsachsen","type":"Landkreis"},"federalState":{"key":"14","name":"Sachsen"}},{"name":"Erbgerichtsweg","postalCode":"09619","locality":"Mulda/Sachsen","municipality":{"key":"14522390","name":"Mulda/Sa.","type":"Kreisangehörige_Gemeinde"},"district":{"key":"14522","name":"Mittelsachsen","type":"Landkreis"},"federalState":{"key":"14","name":"Sachsen"}},{"name":"Forststr.","postalCode":"09619","locality":"Mulda/Sachsen","municipality":{"key":"14522390","name":"Mulda/Sa.","type":"Kreisangehörige_Gemeinde"},"district":{"key":"14522","name":"Mittelsachsen","type":"Landkreis"},"federalState":{"key":"14","name":"Sachsen"}},{"name":"Frauensteiner Str.","postalCode":"09619","locality":"Mulda/Sachsen","municipality":{"key":"14522390","name":"Mulda/Sa.","type":"Kreisangehörige_Gemeinde"},"district":{"key":"14522","name":"Mittelsachsen","type":"Landkreis"},"federalState":{"key":"14","name":"Sachsen"}},{"name":"Freiberger Str.","postalCode":"09619","locality":"Mulda/Sachsen","municipality":{"key":"14522390","name":"Mulda/Sa.","type":"Kreisangehörige_Gemeinde"},"district":{"key":"14522","name":"Mittelsachsen","type":"Landkreis"},"federalState":{"key":"14","name":"Sachsen"}},{"name":"Fritz-Heckert-Str.","postalCode":"09619","locality":"Mulda/Sachsen","municipality":{"key":"14522390","name":"Mulda/Sa.","type":"Kreisangehörige_Gemeinde"},"district":{"key":"14522","name":"Mittelsachsen","type":"Landkreis"},"federalState":{"key":"14","name":"Sachsen"}},{"name":"Geleitstr.","postalCode":"09619","locality":"Mulda/Sachsen","municipality":{"key":"14522390","name":"Mulda/Sa.","type":"Kreisangehörige_Gemeinde"},"district":{"key":"14522","name":"Mittelsachsen","type":"Landkreis"},"federalState":{"key":"14","name":"Sachsen"}},{"name":"Grenzweg","postalCode":"09619","locality":"Mulda/Sachsen","municipality":{"key":"14522390","name":"Mulda/Sa.","type":"Kreisangehörige_Gemeinde"},"district":{"key":"14522","name":"Mittelsachsen","type":"Landkreis"},"federalState":{"key":"14","name":"Sachsen"}},{"name":"Großhartmannsdorfer Weg","postalCode":"09619","locality":"Mulda/Sachsen","municipality":{"key":"14522390","name":"Mulda/Sa.","type":"Kreisangehörige_Gemeinde"},"district":{"key":"14522","name":"Mittelsachsen","type":"Landkreis"},"federalState":{"key":"14","name":"Sachsen"}},{"name":"Grüner Steig","postalCode":"09619","locality":"Mulda/Sachsen","municipality":{"key":"14522390","name":"Mulda/Sa.","type":"Kreisangehörige_Gemeinde"},"district":{"key":"14522","name":"Mittelsachsen","type":"Landkreis"},"federalState":{"key":"14","name":"Sachsen"}},{"name":"Gutsweg","postalCode":"09619","locality":"Mulda/Sachsen","municipality":{"key":"14522390","name":"Mulda/Sa.","type":"Kreisangehörige_Gemeinde"},"district":{"key":"14522","name":"Mittelsachsen","type":"Landkreis"},"federalState":{"key":"14","name":"Sachsen"}},{"name":"Hauptstr.","postalCode":"09619","locality":"Mulda/Sachsen","municipality":{"key":"14522390","name":"Mulda/Sa.","type":"Kreisangehörige_Gemeinde"},"district":{"key":"14522","name":"Mittelsachsen","type":"Landkreis"},"federalState":{"key":"14","name":"Sachsen"}},{"name":"Heiterer Blick","postalCode":"09619","locality":"Mulda/Sachsen","municipality":{"key":"14522390","name":"Mulda/Sa.","type":"Kreisangehörige_Gemeinde"},"district":{"key":"14522","name":"Mittelsachsen","type":"Landkreis"},"federalState":{"key":"14","name":"Sachsen"}},{"name":"Helbigsdorf","postalCode":"09619","locality":"Mulda/Sachsen","municipality":{"key":"14522390","name":"Mulda/Sa.","type":"Kreisangehörige_Gemeinde"},"district":{"key":"14522","name":"Mittelsachsen","type":"Landkreis"},"federalState":{"key":"14","name":"Sachsen"}},{"name":"Heuweg","postalCode":"09619","locality":"Mulda/Sachsen","municipality":{"key":"14522390","name":"Mulda/Sa.","type":"Kreisangehörige_Gemeinde"},"district":{"key":"14522","name":"Mittelsachsen","type":"Landkreis"},"federalState":{"key":"14","name":"Sachsen"}},{"name":"Jahnstr.","postalCode":"09619","locality":"Mulda/Sachsen","municipality":{"key":"14522390","name":"Mulda/Sa.","type":"Kreisangehörige_Gemeinde"},"district":{"key":"14522","name":"Mittelsachsen","type":"Landkreis"},"federalState":{"key":"14","name":"Sachsen"}},{"name":"Kammweg","postalCode":"09619","locality":"Mulda/Sachsen","municipality":{"key":"14522390","name":"Mulda/Sa.","type":"Kreisangehörige_Gemeinde"},"district":{"key":"14522","name":"Mittelsachsen","type":"Landkreis"},"federalState":{"key":"14","name":"Sachsen"}},{"name":"Karlshöhe","postalCode":"09619","locality":"Mulda/Sachsen","municipality":{"key":"14522390","name":"Mulda/Sa.","type":"Kreisangehörige_Gemeinde"},"district":{"key":"14522","name":"Mittelsachsen","type":"Landkreis"},"federalState":{"key":"14","name":"Sachsen"}},{"name":"Köhlerweg","postalCode":"09619","locality":"Mulda/Sachsen","municipality":{"key":"14522390","name":"Mulda/Sa.","type":"Kreisangehörige_Gemeinde"},"district":{"key":"14522","name":"Mittelsachsen","type":"Landkreis"},"federalState":{"key":"14","name":"Sachsen"}},{"name":"K-Weg","postalCode":"09619","locality":"Mulda/Sachsen","municipality":{"key":"14522390","name":"Mulda/Sa.","type":"Kreisangehörige_Gemeinde"},"district":{"key":"14522","name":"Mittelsachsen","type":"Landkreis"},"federalState":{"key":"14","name":"Sachsen"}},{"name":"Leitenweg","postalCode":"09619","locality":"Mulda/Sachsen","municipality":{"key":"14522390","name":"Mulda/Sa.","type":"Kreisangehörige_Gemeinde"},"district":{"key":"14522","name":"Mittelsachsen","type":"Landkreis"},"federalState":{"key":"14","name":"Sachsen"}},{"name":"Mendegrundweg","postalCode":"09619","locality":"Mulda/Sachsen","municipality":{"key":"14522390","name":"Mulda/Sa.","type":"Kreisangehörige_Gemeinde"},"district":{"key":"14522","name":"Mittelsachsen","type":"Landkreis"},"federalState":{"key":"14","name":"Sachsen"}},{"name":"Mittelstr.","postalCode":"09619","locality":"Mulda/Sachsen","municipality":{"key":"14522390","name":"Mulda/Sa.","type":"Kreisangehörige_Gemeinde"},"district":{"key":"14522","name":"Mittelsachsen","type":"Landkreis"},"federalState":{"key":"14","name":"Sachsen"}},{"name":"Mittelweg","postalCode":"09619","locality":"Mulda/Sachsen","municipality":{"key":"14522390","name":"Mulda/Sa.","type":"Kreisangehörige_Gemeinde"},"district":{"key":"14522","name":"Mittelsachsen","type":"Landkreis"},"federalState":{"key":"14","name":"Sachsen"}},{"name":"Müdisdorfer Weg","postalCode":"09619","locality":"Mulda/Sachsen","municipality":{"key":"14522390","name":"Mulda/Sa.","type":"Kreisangehörige_Gemeinde"},"district":{"key":"14522","name":"Mittelsachsen","type":"Landkreis"},"federalState":{"key":"14","name":"Sachsen"}},{"name":"Muldaer Str.","postalCode":"09619","locality":"Mulda/Sachsen","municipality":{"key":"14522390","name":"Mulda/Sa.","type":"Kreisangehörige_Gemeinde"},"district":{"key":"14522","name":"Mittelsachsen","type":"Landkreis"},"federalState":{"key":"14","name":"Sachsen"}},{"name":"Neuweg","postalCode":"09619","locality":"Mulda/Sachsen","municipality":{"key":"14522390","name":"Mulda/Sa.","type":"Kreisangehörige_Gemeinde"},"district":{"key":"14522","name":"Mittelsachsen","type":"Landkreis"},"federalState":{"key":"14","name":"Sachsen"}},{"name":"Oberer Seitenweg","postalCode":"09619","locality":"Mulda/Sachsen","municipality":{"key":"14522390","name":"Mulda/Sa.","type":"Kreisangehörige_Gemeinde"},"district":{"key":"14522","name":"Mittelsachsen","type":"Landkreis"},"federalState":{"key":"14","name":"Sachsen"}},{"name":"Osterweg","postalCode":"09619","locality":"Mulda/Sachsen","municipality":{"key":"14522390","name":"Mulda/Sa.","type":"Kreisangehörige_Gemeinde"},"district":{"key":"14522","name":"Mittelsachsen","type":"Landkreis"},"federalState":{"key":"14","name":"Sachsen"}},{"name":"Oststr.","postalCode":"09619","locality":"Mulda/Sachsen","municipality":{"key":"14522390","name":"Mulda/Sa.","type":"Kreisangehörige_Gemeinde"},"district":{"key":"14522","name":"Mittelsachsen","type":"Landkreis"},"federalState":{"key":"14","name":"Sachsen"}},{"name":"Postgasse","postalCode":"09619","locality":"Mulda/Sachsen","municipality":{"key":"14522390","name":"Mulda/Sa.","type":"Kreisangehörige_Gemeinde"},"district":{"key":"14522","name":"Mittelsachsen","type":"Landkreis"},"federalState":{"key":"14","name":"Sachsen"}},{"name":"Querweg","postalCode":"09619","locality":"Mulda/Sachsen","municipality":{"key":"14522390","name":"Mulda/Sa.","type":"Kreisangehörige_Gemeinde"},"district":{"key":"14522","name":"Mittelsachsen","type":"Landkreis"},"federalState":{"key":"14","name":"Sachsen"}},{"name":"Rainweg","postalCode":"09619","locality":"Mulda/Sachsen","municipality":{"key":"14522390","name":"Mulda/Sa.","type":"Kreisangehörige_Gemeinde"},"district":{"key":"14522","name":"Mittelsachsen","type":"Landkreis"},"federalState":{"key":"14","name":"Sachsen"}},{"name":"Rannusweg","postalCode":"09619","locality":"Mulda/Sachsen","municipality":{"key":"14522390","name":"Mulda/Sa.","type":"Kreisangehörige_Gemeinde"},"district":{"key":"14522","name":"Mittelsachsen","type":"Landkreis"},"federalState":{"key":"14","name":"Sachsen"}},{"name":"Salzweg","postalCode":"09619","locality":"Mulda/Sachsen","municipality":{"key":"14522390","name":"Mulda/Sa.","type":"Kreisangehörige_Gemeinde"},"district":{"key":"14522","name":"Mittelsachsen","type":"Landkreis"},"federalState":{"key":"14","name":"Sachsen"}},{"name":"Saydaer Str.","postalCode":"09619","locality":"Mulda/Sachsen","municipality":{"key":"14522390","name":"Mulda/Sa.","type":"Kreisangehörige_Gemeinde"},"district":{"key":"14522","name":"Mittelsachsen","type":"Landkreis"},"federalState":{"key":"14","name":"Sachsen"}},{"name":"Schulweg","postalCode":"09619","locality":"Mulda/Sachsen","municipality":{"key":"14522390","name":"Mulda/Sa.","type":"Kreisangehörige_Gemeinde"},"district":{"key":"14522","name":"Mittelsachsen","type":"Landkreis"},"federalState":{"key":"14","name":"Sachsen"}},{"name":"Schwingereiweg","postalCode":"09619","locality":"Mulda/Sachsen","municipality":{"key":"14522390","name":"Mulda/Sa.","type":"Kreisangehörige_Gemeinde"},"district":{"key":"14522","name":"Mittelsachsen","type":"Landkreis"},"federalState":{"key":"14","name":"Sachsen"}},{"name":"Steinbruchweg","postalCode":"09619","locality":"Mulda/Sachsen","municipality":{"key":"14522390","name":"Mulda/Sa.","type":"Kreisangehörige_Gemeinde"},"district":{"key":"14522","name":"Mittelsachsen","type":"Landkreis"},"federalState":{"key":"14","name":"Sachsen"}},{"name":"Str. zum Neubaugebiet","postalCode":"09619","locality":"Mulda/Sachsen","municipality":{"key":"14522390","name":"Mulda/Sa.","type":"Kreisangehörige_Gemeinde"},"district":{"key":"14522","name":"Mittelsachsen","type":"Landkreis"},"federalState":{"key":"14","name":"Sachsen"}},{"name":"Talstr.","postalCode":"09619","locality":"Mulda/Sachsen","municipality":{"key":"14522390","name":"Mulda/Sa.","type":"Kreisangehörige_Gemeinde"},"district":{"key":"14522","name":"Mittelsachsen","type":"Landkreis"},"federalState":{"key":"14","name":"Sachsen"}},{"name":"Voigtsdorfer Str.","postalCode":"09619","locality":"Mulda/Sachsen","municipality":{"key":"14522390","name":"Mulda/Sa.","type":"Kreisangehörige_Gemeinde"},"district":{"key":"14522","name":"Mittelsachsen","type":"Landkreis"},"federalState":{"key":"14","name":"Sachsen"}},{"name":"Zethau","postalCode":"09619","locality":"Mulda/Sachsen","municipality":{"key":"14522390","name":"Mulda/Sa.","type":"Kreisangehörige_Gemeinde"},"district":{"key":"14522","name":"Mittelsachsen","type":"Landkreis"},"federalState":{"key":"14","name":"Sachsen"}},{"name":"Zethauer Str.","postalCode":"09619","locality":"Mulda/Sachsen","municipality":{"key":"14522390","name":"Mulda/Sa.","type":"Kreisangehörige_Gemeinde"},"district":{"key":"14522","name":"Mittelsachsen","type":"Landkreis"},"federalState":{"key":"14","name":"Sachsen"}},]