[{"name":"Adam-Opel-Str.","postalCode":"65462","locality":"Ginsheim-Gustavsburg","municipality":{"key":"06433005","name":"Ginsheim-Gustavsburg, Stadt","type":"Stadt"},"district":{"key":"06433","name":"Groß-Gerau","type":"Landkreis"},"federalState":{"key":"06","name":"Hessen"}},{"name":"Akazienstr.","postalCode":"65462","locality":"Ginsheim-Gustavsburg","municipality":{"key":"06433005","name":"Ginsheim-Gustavsburg, Stadt","type":"Stadt"},"district":{"key":"06433","name":"Groß-Gerau","type":"Landkreis"},"federalState":{"key":"06","name":"Hessen"}},{"name":"Albert-Einstein-Str.","postalCode":"65462","locality":"Ginsheim-Gustavsburg","municipality":{"key":"06433005","name":"Ginsheim-Gustavsburg, Stadt","type":"Stadt"},"district":{"key":"06433","name":"Groß-Gerau","type":"Landkreis"},"federalState":{"key":"06","name":"Hessen"}},{"name":"Albert-Schweitzer-Str.","postalCode":"65462","locality":"Ginsheim-Gustavsburg","municipality":{"key":"06433005","name":"Ginsheim-Gustavsburg, Stadt","type":"Stadt"},"district":{"key":"06433","name":"Groß-Gerau","type":"Landkreis"},"federalState":{"key":"06","name":"Hessen"}},{"name":"Albrecht-Dürer-Str.","postalCode":"65462","locality":"Ginsheim-Gustavsburg","municipality":{"key":"06433005","name":"Ginsheim-Gustavsburg, Stadt","type":"Stadt"},"district":{"key":"06433","name":"Groß-Gerau","type":"Landkreis"},"federalState":{"key":"06","name":"Hessen"}},{"name":"Am Alten Fährhaus","postalCode":"65462","locality":"Ginsheim-Gustavsburg","municipality":{"key":"06433005","name":"Ginsheim-Gustavsburg, Stadt","type":"Stadt"},"district":{"key":"06433","name":"Groß-Gerau","type":"Landkreis"},"federalState":{"key":"06","name":"Hessen"}},{"name":"Am Alten Haagweg","postalCode":"65462","locality":"Ginsheim-Gustavsburg","municipality":{"key":"06433005","name":"Ginsheim-Gustavsburg, Stadt","type":"Stadt"},"district":{"key":"06433","name":"Groß-Gerau","type":"Landkreis"},"federalState":{"key":"06","name":"Hessen"}},{"name":"Am Alten Schießplatz","postalCode":"65462","locality":"Ginsheim-Gustavsburg","municipality":{"key":"06433005","name":"Ginsheim-Gustavsburg, Stadt","type":"Stadt"},"district":{"key":"06433","name":"Groß-Gerau","type":"Landkreis"},"federalState":{"key":"06","name":"Hessen"}},{"name":"Am Alten Sportplatz","postalCode":"65462","locality":"Ginsheim-Gustavsburg","municipality":{"key":"06433005","name":"Ginsheim-Gustavsburg, Stadt","type":"Stadt"},"district":{"key":"06433","name":"Groß-Gerau","type":"Landkreis"},"federalState":{"key":"06","name":"Hessen"}},{"name":"Am Arnsee","postalCode":"65462","locality":"Ginsheim-Gustavsburg","municipality":{"key":"06433005","name":"Ginsheim-Gustavsburg, Stadt","type":"Stadt"},"district":{"key":"06433","name":"Groß-Gerau","type":"Landkreis"},"federalState":{"key":"06","name":"Hessen"}},{"name":"Am Festungsgraben","postalCode":"65462","locality":"Ginsheim-Gustavsburg","municipality":{"key":"06433005","name":"Ginsheim-Gustavsburg, Stadt","type":"Stadt"},"district":{"key":"06433","name":"Groß-Gerau","type":"Landkreis"},"federalState":{"key":"06","name":"Hessen"}},{"name":"Am Kupferbach","postalCode":"65462","locality":"Ginsheim-Gustavsburg","municipality":{"key":"06433005","name":"Ginsheim-Gustavsburg, Stadt","type":"Stadt"},"district":{"key":"06433","name":"Groß-Gerau","type":"Landkreis"},"federalState":{"key":"06","name":"Hessen"}},{"name":"Am Sand","postalCode":"65462","locality":"Ginsheim-Gustavsburg","municipality":{"key":"06433005","name":"Ginsheim-Gustavsburg, Stadt","type":"Stadt"},"district":{"key":"06433","name":"Groß-Gerau","type":"Landkreis"},"federalState":{"key":"06","name":"Hessen"}},{"name":"An der Fähre","postalCode":"65462","locality":"Ginsheim-Gustavsburg","municipality":{"key":"06433005","name":"Ginsheim-Gustavsburg, Stadt","type":"Stadt"},"district":{"key":"06433","name":"Groß-Gerau","type":"Landkreis"},"federalState":{"key":"06","name":"Hessen"}},{"name":"An der Schleuse","postalCode":"65462","locality":"Ginsheim-Gustavsburg","municipality":{"key":"06433005","name":"Ginsheim-Gustavsburg, Stadt","type":"Stadt"},"district":{"key":"06433","name":"Groß-Gerau","type":"Landkreis"},"federalState":{"key":"06","name":"Hessen"}},{"name":"Anna-Seghers-Str.","postalCode":"65462","locality":"Ginsheim-Gustavsburg","municipality":{"key":"06433005","name":"Ginsheim-Gustavsburg, Stadt","type":"Stadt"},"district":{"key":"06433","name":"Groß-Gerau","type":"Landkreis"},"federalState":{"key":"06","name":"Hessen"}},{"name":"Anne-Frank-Str.","postalCode":"65462","locality":"Ginsheim-Gustavsburg","municipality":{"key":"06433005","name":"Ginsheim-Gustavsburg, Stadt","type":"Stadt"},"district":{"key":"06433","name":"Groß-Gerau","type":"Landkreis"},"federalState":{"key":"06","name":"Hessen"}},{"name":"Annette-Kolb-Weg","postalCode":"65462","locality":"Ginsheim-Gustavsburg","municipality":{"key":"06433005","name":"Ginsheim-Gustavsburg, Stadt","type":"Stadt"},"district":{"key":"06433","name":"Groß-Gerau","type":"Landkreis"},"federalState":{"key":"06","name":"Hessen"}},{"name":"Anton-Günther-Str.","postalCode":"65462","locality":"Ginsheim-Gustavsburg","municipality":{"key":"06433005","name":"Ginsheim-Gustavsburg, Stadt","type":"Stadt"},"district":{"key":"06433","name":"Groß-Gerau","type":"Landkreis"},"federalState":{"key":"06","name":"Hessen"}},{"name":"Auf dem Füllstall","postalCode":"65462","locality":"Ginsheim-Gustavsburg","municipality":{"key":"06433005","name":"Ginsheim-Gustavsburg, Stadt","type":"Stadt"},"district":{"key":"06433","name":"Groß-Gerau","type":"Landkreis"},"federalState":{"key":"06","name":"Hessen"}},{"name":"Auf dem Maindamm","postalCode":"65462","locality":"Ginsheim-Gustavsburg","municipality":{"key":"06433005","name":"Ginsheim-Gustavsburg, Stadt","type":"Stadt"},"district":{"key":"06433","name":"Groß-Gerau","type":"Landkreis"},"federalState":{"key":"06","name":"Hessen"}},{"name":"Auf dem Wingert","postalCode":"65462","locality":"Ginsheim-Gustavsburg","municipality":{"key":"06433005","name":"Ginsheim-Gustavsburg, Stadt","type":"Stadt"},"district":{"key":"06433","name":"Groß-Gerau","type":"Landkreis"},"federalState":{"key":"06","name":"Hessen"}},{"name":"Auf die Senn","postalCode":"65462","locality":"Ginsheim-Gustavsburg","municipality":{"key":"06433005","name":"Ginsheim-Gustavsburg, Stadt","type":"Stadt"},"district":{"key":"06433","name":"Groß-Gerau","type":"Landkreis"},"federalState":{"key":"06","name":"Hessen"}},{"name":"Aufs Heft","postalCode":"65462","locality":"Ginsheim-Gustavsburg","municipality":{"key":"06433005","name":"Ginsheim-Gustavsburg, Stadt","type":"Stadt"},"district":{"key":"06433","name":"Groß-Gerau","type":"Landkreis"},"federalState":{"key":"06","name":"Hessen"}},{"name":"Augsburger Str.","postalCode":"65462","locality":"Ginsheim-Gustavsburg","municipality":{"key":"06433005","name":"Ginsheim-Gustavsburg, Stadt","type":"Stadt"},"district":{"key":"06433","name":"Groß-Gerau","type":"Landkreis"},"federalState":{"key":"06","name":"Hessen"}},{"name":"Bacchusstr.","postalCode":"65462","locality":"Ginsheim-Gustavsburg","municipality":{"key":"06433005","name":"Ginsheim-Gustavsburg, Stadt","type":"Stadt"},"district":{"key":"06433","name":"Groß-Gerau","type":"Landkreis"},"federalState":{"key":"06","name":"Hessen"}},{"name":"Baurat-Hering-Str.","postalCode":"65462","locality":"Ginsheim-Gustavsburg","municipality":{"key":"06433005","name":"Ginsheim-Gustavsburg, Stadt","type":"Stadt"},"district":{"key":"06433","name":"Groß-Gerau","type":"Landkreis"},"federalState":{"key":"06","name":"Hessen"}},{"name":"Bauschheimer Landstr.","postalCode":"65462","locality":"Ginsheim-Gustavsburg","municipality":{"key":"06433005","name":"Ginsheim-Gustavsburg, Stadt","type":"Stadt"},"district":{"key":"06433","name":"Groß-Gerau","type":"Landkreis"},"federalState":{"key":"06","name":"Hessen"}},{"name":"Bauschheimer Weg","postalCode":"65462","locality":"Ginsheim-Gustavsburg","municipality":{"key":"06433005","name":"Ginsheim-Gustavsburg, Stadt","type":"Stadt"},"district":{"key":"06433","name":"Groß-Gerau","type":"Landkreis"},"federalState":{"key":"06","name":"Hessen"}},{"name":"Bebelstr.","postalCode":"65462","locality":"Ginsheim-Gustavsburg","municipality":{"key":"06433005","name":"Ginsheim-Gustavsburg, Stadt","type":"Stadt"},"district":{"key":"06433","name":"Groß-Gerau","type":"Landkreis"},"federalState":{"key":"06","name":"Hessen"}},{"name":"Beethovenstr.","postalCode":"65462","locality":"Ginsheim-Gustavsburg","municipality":{"key":"06433005","name":"Ginsheim-Gustavsburg, Stadt","type":"Stadt"},"district":{"key":"06433","name":"Groß-Gerau","type":"Landkreis"},"federalState":{"key":"06","name":"Hessen"}},{"name":"Berliner Str.","postalCode":"65462","locality":"Ginsheim-Gustavsburg","municipality":{"key":"06433005","name":"Ginsheim-Gustavsburg, Stadt","type":"Stadt"},"district":{"key":"06433","name":"Groß-Gerau","type":"Landkreis"},"federalState":{"key":"06","name":"Hessen"}},{"name":"Bischofsheimer Str.","postalCode":"65462","locality":"Ginsheim-Gustavsburg","municipality":{"key":"06433005","name":"Ginsheim-Gustavsburg, Stadt","type":"Stadt"},"district":{"key":"06433","name":"Groß-Gerau","type":"Landkreis"},"federalState":{"key":"06","name":"Hessen"}},{"name":"Bodelschwinghstr.","postalCode":"65462","locality":"Ginsheim-Gustavsburg","municipality":{"key":"06433005","name":"Ginsheim-Gustavsburg, Stadt","type":"Stadt"},"district":{"key":"06433","name":"Groß-Gerau","type":"Landkreis"},"federalState":{"key":"06","name":"Hessen"}},{"name":"Bouguenais-Allee","postalCode":"65462","locality":"Ginsheim-Gustavsburg","municipality":{"key":"06433005","name":"Ginsheim-Gustavsburg, Stadt","type":"Stadt"},"district":{"key":"06433","name":"Groß-Gerau","type":"Landkreis"},"federalState":{"key":"06","name":"Hessen"}},{"name":"Breslauer Str.","postalCode":"65462","locality":"Ginsheim-Gustavsburg","municipality":{"key":"06433005","name":"Ginsheim-Gustavsburg, Stadt","type":"Stadt"},"district":{"key":"06433","name":"Groß-Gerau","type":"Landkreis"},"federalState":{"key":"06","name":"Hessen"}},{"name":"Burgpark","postalCode":"65462","locality":"Ginsheim-Gustavsburg","municipality":{"key":"06433005","name":"Ginsheim-Gustavsburg, Stadt","type":"Stadt"},"district":{"key":"06433","name":"Groß-Gerau","type":"Landkreis"},"federalState":{"key":"06","name":"Hessen"}},{"name":"Burgunderstr.","postalCode":"65462","locality":"Ginsheim-Gustavsburg","municipality":{"key":"06433005","name":"Ginsheim-Gustavsburg, Stadt","type":"Stadt"},"district":{"key":"06433","name":"Groß-Gerau","type":"Landkreis"},"federalState":{"key":"06","name":"Hessen"}},{"name":"Carl-von-Ossietzky-Ring","postalCode":"64521","locality":"Groß-Gerau","municipality":{"key":"06433006","name":"Groß-Gerau, Stadt","type":"Stadt"},"district":{"key":"06433","name":"Groß-Gerau","type":"Landkreis"},"federalState":{"key":"06","name":"Hessen"}},{"name":"Clara-Zetkin-Str.","postalCode":"64521","locality":"Groß-Gerau","municipality":{"key":"06433006","name":"Groß-Gerau, Stadt","type":"Stadt"},"district":{"key":"06433","name":"Groß-Gerau","type":"Landkreis"},"federalState":{"key":"06","name":"Hessen"}},{"name":"Claudiusstr.","postalCode":"64521","locality":"Groß-Gerau","municipality":{"key":"06433006","name":"Groß-Gerau, Stadt","type":"Stadt"},"district":{"key":"06433","name":"Groß-Gerau","type":"Landkreis"},"federalState":{"key":"06","name":"Hessen"}},{"name":"Dammstr.","postalCode":"65462","locality":"Ginsheim-Gustavsburg","municipality":{"key":"06433005","name":"Ginsheim-Gustavsburg, Stadt","type":"Stadt"},"district":{"key":"06433","name":"Groß-Gerau","type":"Landkreis"},"federalState":{"key":"06","name":"Hessen"}},{"name":"Dampfbahnclub Rhein-Main e.V.","postalCode":"65462","locality":"Ginsheim-Gustavsburg","municipality":{"key":"06433005","name":"Ginsheim-Gustavsburg, Stadt","type":"Stadt"},"district":{"key":"06433","name":"Groß-Gerau","type":"Landkreis"},"federalState":{"key":"06","name":"Hessen"}},{"name":"Danziger Str.","postalCode":"65462","locality":"Ginsheim-Gustavsburg","municipality":{"key":"06433005","name":"Ginsheim-Gustavsburg, Stadt","type":"Stadt"},"district":{"key":"06433","name":"Groß-Gerau","type":"Landkreis"},"federalState":{"key":"06","name":"Hessen"}},{"name":"Darmstädter Landstr.","postalCode":"65462","locality":"Ginsheim-Gustavsburg","municipality":{"key":"06433005","name":"Ginsheim-Gustavsburg, Stadt","type":"Stadt"},"district":{"key":"06433","name":"Groß-Gerau","type":"Landkreis"},"federalState":{"key":"06","name":"Hessen"}},{"name":"Dresdener Str.","postalCode":"65462","locality":"Ginsheim-Gustavsburg","municipality":{"key":"06433005","name":"Ginsheim-Gustavsburg, Stadt","type":"Stadt"},"district":{"key":"06433","name":"Groß-Gerau","type":"Landkreis"},"federalState":{"key":"06","name":"Hessen"}},{"name":"Dr.-Herrmann-Str.","postalCode":"65462","locality":"Ginsheim-Gustavsburg","municipality":{"key":"06433005","name":"Ginsheim-Gustavsburg, Stadt","type":"Stadt"},"district":{"key":"06433","name":"Groß-Gerau","type":"Landkreis"},"federalState":{"key":"06","name":"Hessen"}},{"name":"Dr.-Kitz-Park","postalCode":"65462","locality":"Ginsheim-Gustavsburg","municipality":{"key":"06433005","name":"Ginsheim-Gustavsburg, Stadt","type":"Stadt"},"district":{"key":"06433","name":"Groß-Gerau","type":"Landkreis"},"federalState":{"key":"06","name":"Hessen"}},{"name":"Dr.-Kitz-Str.","postalCode":"65462","locality":"Ginsheim-Gustavsburg","municipality":{"key":"06433005","name":"Ginsheim-Gustavsburg, Stadt","type":"Stadt"},"district":{"key":"06433","name":"Groß-Gerau","type":"Landkreis"},"federalState":{"key":"06","name":"Hessen"}},{"name":"Eifelstr.","postalCode":"65462","locality":"Ginsheim-Gustavsburg","municipality":{"key":"06433005","name":"Ginsheim-Gustavsburg, Stadt","type":"Stadt"},"district":{"key":"06433","name":"Groß-Gerau","type":"Landkreis"},"federalState":{"key":"06","name":"Hessen"}},{"name":"Elisabethenstr.","postalCode":"65462","locality":"Ginsheim-Gustavsburg","municipality":{"key":"06433005","name":"Ginsheim-Gustavsburg, Stadt","type":"Stadt"},"district":{"key":"06433","name":"Groß-Gerau","type":"Landkreis"},"federalState":{"key":"06","name":"Hessen"}},{"name":"Emil-von-Behring-Str.","postalCode":"65462","locality":"Ginsheim-Gustavsburg","municipality":{"key":"06433005","name":"Ginsheim-Gustavsburg, Stadt","type":"Stadt"},"district":{"key":"06433","name":"Groß-Gerau","type":"Landkreis"},"federalState":{"key":"06","name":"Hessen"}},{"name":"Erzbergerstr.","postalCode":"65462","locality":"Ginsheim-Gustavsburg","municipality":{"key":"06433005","name":"Ginsheim-Gustavsburg, Stadt","type":"Stadt"},"district":{"key":"06433","name":"Groß-Gerau","type":"Landkreis"},"federalState":{"key":"06","name":"Hessen"}},{"name":"Feldbergstr.","postalCode":"65462","locality":"Ginsheim-Gustavsburg","municipality":{"key":"06433005","name":"Ginsheim-Gustavsburg, Stadt","type":"Stadt"},"district":{"key":"06433","name":"Groß-Gerau","type":"Landkreis"},"federalState":{"key":"06","name":"Hessen"}},{"name":"Frankfurter Str.","postalCode":"65462","locality":"Ginsheim-Gustavsburg","municipality":{"key":"06433005","name":"Ginsheim-Gustavsburg, Stadt","type":"Stadt"},"district":{"key":"06433","name":"Groß-Gerau","type":"Landkreis"},"federalState":{"key":"06","name":"Hessen"}},{"name":"Franz-Liszt-Str.","postalCode":"65462","locality":"Ginsheim-Gustavsburg","municipality":{"key":"06433005","name":"Ginsheim-Gustavsburg, Stadt","type":"Stadt"},"district":{"key":"06433","name":"Groß-Gerau","type":"Landkreis"},"federalState":{"key":"06","name":"Hessen"}},{"name":"Franz-Schubert-Str.","postalCode":"65462","locality":"Ginsheim-Gustavsburg","municipality":{"key":"06433005","name":"Ginsheim-Gustavsburg, Stadt","type":"Stadt"},"district":{"key":"06433","name":"Groß-Gerau","type":"Landkreis"},"federalState":{"key":"06","name":"Hessen"}},{"name":"Freiherr-vom-Stein-Str.","postalCode":"65462","locality":"Ginsheim-Gustavsburg","municipality":{"key":"06433005","name":"Ginsheim-Gustavsburg, Stadt","type":"Stadt"},"district":{"key":"06433","name":"Groß-Gerau","type":"Landkreis"},"federalState":{"key":"06","name":"Hessen"}},{"name":"Friedrich-Ebert-Str.","postalCode":"65462","locality":"Ginsheim-Gustavsburg","municipality":{"key":"06433005","name":"Ginsheim-Gustavsburg, Stadt","type":"Stadt"},"district":{"key":"06433","name":"Groß-Gerau","type":"Landkreis"},"federalState":{"key":"06","name":"Hessen"}},{"name":"Friedrichstr.","postalCode":"65462","locality":"Ginsheim-Gustavsburg","municipality":{"key":"06433005","name":"Ginsheim-Gustavsburg, Stadt","type":"Stadt"},"district":{"key":"06433","name":"Groß-Gerau","type":"Landkreis"},"federalState":{"key":"06","name":"Hessen"}},{"name":"Gabelsberger Str.","postalCode":"65462","locality":"Ginsheim-Gustavsburg","municipality":{"key":"06433005","name":"Ginsheim-Gustavsburg, Stadt","type":"Stadt"},"district":{"key":"06433","name":"Groß-Gerau","type":"Landkreis"},"federalState":{"key":"06","name":"Hessen"}},{"name":"Gartenstr.","postalCode":"65462","locality":"Ginsheim-Gustavsburg","municipality":{"key":"06433005","name":"Ginsheim-Gustavsburg, Stadt","type":"Stadt"},"district":{"key":"06433","name":"Groß-Gerau","type":"Landkreis"},"federalState":{"key":"06","name":"Hessen"}},{"name":"Georg-Friedrich-Händel-Str.","postalCode":"65462","locality":"Ginsheim-Gustavsburg","municipality":{"key":"06433005","name":"Ginsheim-Gustavsburg, Stadt","type":"Stadt"},"district":{"key":"06433","name":"Groß-Gerau","type":"Landkreis"},"federalState":{"key":"06","name":"Hessen"}},{"name":"Gerberstr.","postalCode":"65462","locality":"Ginsheim-Gustavsburg","municipality":{"key":"06433005","name":"Ginsheim-Gustavsburg, Stadt","type":"Stadt"},"district":{"key":"06433","name":"Groß-Gerau","type":"Landkreis"},"federalState":{"key":"06","name":"Hessen"}},{"name":"Gerhart-Hauptmann-Str.","postalCode":"65462","locality":"Ginsheim-Gustavsburg","municipality":{"key":"06433005","name":"Ginsheim-Gustavsburg, Stadt","type":"Stadt"},"district":{"key":"06433","name":"Groß-Gerau","type":"Landkreis"},"federalState":{"key":"06","name":"Hessen"}},{"name":"Ginsheimer Str.","postalCode":"65462","locality":"Ginsheim-Gustavsburg","municipality":{"key":"06433005","name":"Ginsheim-Gustavsburg, Stadt","type":"Stadt"},"district":{"key":"06433","name":"Groß-Gerau","type":"Landkreis"},"federalState":{"key":"06","name":"Hessen"}},{"name":"Goethestr.","postalCode":"65462","locality":"Ginsheim-Gustavsburg","municipality":{"key":"06433005","name":"Ginsheim-Gustavsburg, Stadt","type":"Stadt"},"district":{"key":"06433","name":"Groß-Gerau","type":"Landkreis"},"federalState":{"key":"06","name":"Hessen"}},{"name":"Gräfin-Dönhoff-Str.","postalCode":"65462","locality":"Ginsheim-Gustavsburg","municipality":{"key":"06433005","name":"Ginsheim-Gustavsburg, Stadt","type":"Stadt"},"district":{"key":"06433","name":"Groß-Gerau","type":"Landkreis"},"federalState":{"key":"06","name":"Hessen"}},{"name":"Gustav-Adolf-Str.","postalCode":"65462","locality":"Ginsheim-Gustavsburg","municipality":{"key":"06433005","name":"Ginsheim-Gustavsburg, Stadt","type":"Stadt"},"district":{"key":"06433","name":"Groß-Gerau","type":"Landkreis"},"federalState":{"key":"06","name":"Hessen"}},{"name":"Gustavsburger Str.","postalCode":"65462","locality":"Ginsheim-Gustavsburg","municipality":{"key":"06433005","name":"Ginsheim-Gustavsburg, Stadt","type":"Stadt"},"district":{"key":"06433","name":"Groß-Gerau","type":"Landkreis"},"federalState":{"key":"06","name":"Hessen"}},{"name":"Gutenbergplatz","postalCode":"65462","locality":"Ginsheim-Gustavsburg","municipality":{"key":"06433005","name":"Ginsheim-Gustavsburg, Stadt","type":"Stadt"},"district":{"key":"06433","name":"Groß-Gerau","type":"Landkreis"},"federalState":{"key":"06","name":"Hessen"}},{"name":"Harteneckstr.","postalCode":"65462","locality":"Ginsheim-Gustavsburg","municipality":{"key":"06433005","name":"Ginsheim-Gustavsburg, Stadt","type":"Stadt"},"district":{"key":"06433","name":"Groß-Gerau","type":"Landkreis"},"federalState":{"key":"06","name":"Hessen"}},{"name":"Hartwies","postalCode":"65462","locality":"Ginsheim-Gustavsburg","municipality":{"key":"06433005","name":"Ginsheim-Gustavsburg, Stadt","type":"Stadt"},"district":{"key":"06433","name":"Groß-Gerau","type":"Landkreis"},"federalState":{"key":"06","name":"Hessen"}},{"name":"Harzweg","postalCode":"65462","locality":"Ginsheim-Gustavsburg","municipality":{"key":"06433005","name":"Ginsheim-Gustavsburg, Stadt","type":"Stadt"},"district":{"key":"06433","name":"Groß-Gerau","type":"Landkreis"},"federalState":{"key":"06","name":"Hessen"}},{"name":"Hauptstr.","postalCode":"65462","locality":"Ginsheim-Gustavsburg","municipality":{"key":"06433005","name":"Ginsheim-Gustavsburg, Stadt","type":"Stadt"},"district":{"key":"06433","name":"Groß-Gerau","type":"Landkreis"},"federalState":{"key":"06","name":"Hessen"}},{"name":"Heddernheimer Str.","postalCode":"65462","locality":"Ginsheim-Gustavsburg","municipality":{"key":"06433005","name":"Ginsheim-Gustavsburg, Stadt","type":"Stadt"},"district":{"key":"06433","name":"Groß-Gerau","type":"Landkreis"},"federalState":{"key":"06","name":"Hessen"}},{"name":"Heidelberger Str.","postalCode":"65462","locality":"Ginsheim-Gustavsburg","municipality":{"key":"06433005","name":"Ginsheim-Gustavsburg, Stadt","type":"Stadt"},"district":{"key":"06433","name":"Groß-Gerau","type":"Landkreis"},"federalState":{"key":"06","name":"Hessen"}},{"name":"Heinrich-Hertz-Str.","postalCode":"65462","locality":"Ginsheim-Gustavsburg","municipality":{"key":"06433005","name":"Ginsheim-Gustavsburg, Stadt","type":"Stadt"},"district":{"key":"06433","name":"Groß-Gerau","type":"Landkreis"},"federalState":{"key":"06","name":"Hessen"}},{"name":"Helen-Keller-Str.","postalCode":"65462","locality":"Ginsheim-Gustavsburg","municipality":{"key":"06433005","name":"Ginsheim-Gustavsburg, Stadt","type":"Stadt"},"district":{"key":"06433","name":"Groß-Gerau","type":"Landkreis"},"federalState":{"key":"06","name":"Hessen"}},{"name":"Hermann-Löns-Allee","postalCode":"65462","locality":"Ginsheim-Gustavsburg","municipality":{"key":"06433005","name":"Ginsheim-Gustavsburg, Stadt","type":"Stadt"},"district":{"key":"06433","name":"Groß-Gerau","type":"Landkreis"},"federalState":{"key":"06","name":"Hessen"}},{"name":"Hildegard-von-Bingen-Str.","postalCode":"65462","locality":"Ginsheim-Gustavsburg","municipality":{"key":"06433005","name":"Ginsheim-Gustavsburg, Stadt","type":"Stadt"},"district":{"key":"06433","name":"Groß-Gerau","type":"Landkreis"},"federalState":{"key":"06","name":"Hessen"}},{"name":"Hochheimer Str.","postalCode":"65462","locality":"Ginsheim-Gustavsburg","municipality":{"key":"06433005","name":"Ginsheim-Gustavsburg, Stadt","type":"Stadt"},"district":{"key":"06433","name":"Groß-Gerau","type":"Landkreis"},"federalState":{"key":"06","name":"Hessen"}},{"name":"Holzweg","postalCode":"65462","locality":"Ginsheim-Gustavsburg","municipality":{"key":"06433005","name":"Ginsheim-Gustavsburg, Stadt","type":"Stadt"},"district":{"key":"06433","name":"Groß-Gerau","type":"Landkreis"},"federalState":{"key":"06","name":"Hessen"}},{"name":"Hunsrückweg","postalCode":"65462","locality":"Ginsheim-Gustavsburg","municipality":{"key":"06433005","name":"Ginsheim-Gustavsburg, Stadt","type":"Stadt"},"district":{"key":"06433","name":"Groß-Gerau","type":"Landkreis"},"federalState":{"key":"06","name":"Hessen"}},{"name":"Immanuel-Kant-Str.","postalCode":"65462","locality":"Ginsheim-Gustavsburg","municipality":{"key":"06433005","name":"Ginsheim-Gustavsburg, Stadt","type":"Stadt"},"district":{"key":"06433","name":"Groß-Gerau","type":"Landkreis"},"federalState":{"key":"06","name":"Hessen"}},{"name":"Im Mittelfeld","postalCode":"65462","locality":"Ginsheim-Gustavsburg","municipality":{"key":"06433005","name":"Ginsheim-Gustavsburg, Stadt","type":"Stadt"},"district":{"key":"06433","name":"Groß-Gerau","type":"Landkreis"},"federalState":{"key":"06","name":"Hessen"}},{"name":"Im Niederfeld","postalCode":"65462","locality":"Ginsheim-Gustavsburg","municipality":{"key":"06433005","name":"Ginsheim-Gustavsburg, Stadt","type":"Stadt"},"district":{"key":"06433","name":"Groß-Gerau","type":"Landkreis"},"federalState":{"key":"06","name":"Hessen"}},{"name":"Im Roggenfeld","postalCode":"65462","locality":"Ginsheim-Gustavsburg","municipality":{"key":"06433005","name":"Ginsheim-Gustavsburg, Stadt","type":"Stadt"},"district":{"key":"06433","name":"Groß-Gerau","type":"Landkreis"},"federalState":{"key":"06","name":"Hessen"}},{"name":"Im Weiherfeld","postalCode":"65462","locality":"Ginsheim-Gustavsburg","municipality":{"key":"06433005","name":"Ginsheim-Gustavsburg, Stadt","type":"Stadt"},"district":{"key":"06433","name":"Groß-Gerau","type":"Landkreis"},"federalState":{"key":"06","name":"Hessen"}},{"name":"In der Ewigkeit","postalCode":"65462","locality":"Ginsheim-Gustavsburg","municipality":{"key":"06433005","name":"Ginsheim-Gustavsburg, Stadt","type":"Stadt"},"district":{"key":"06433","name":"Groß-Gerau","type":"Landkreis"},"federalState":{"key":"06","name":"Hessen"}},{"name":"In der Kammerwiese","postalCode":"65462","locality":"Ginsheim-Gustavsburg","municipality":{"key":"06433005","name":"Ginsheim-Gustavsburg, Stadt","type":"Stadt"},"district":{"key":"06433","name":"Groß-Gerau","type":"Landkreis"},"federalState":{"key":"06","name":"Hessen"}},{"name":"In der Nachtweid","postalCode":"65462","locality":"Ginsheim-Gustavsburg","municipality":{"key":"06433005","name":"Ginsheim-Gustavsburg, Stadt","type":"Stadt"},"district":{"key":"06433","name":"Groß-Gerau","type":"Landkreis"},"federalState":{"key":"06","name":"Hessen"}},{"name":"Jahnstr.","postalCode":"65462","locality":"Ginsheim-Gustavsburg","municipality":{"key":"06433005","name":"Ginsheim-Gustavsburg, Stadt","type":"Stadt"},"district":{"key":"06433","name":"Groß-Gerau","type":"Landkreis"},"federalState":{"key":"06","name":"Hessen"}},{"name":"Jakob-Fischer-Str.","postalCode":"65462","locality":"Ginsheim-Gustavsburg","municipality":{"key":"06433005","name":"Ginsheim-Gustavsburg, Stadt","type":"Stadt"},"district":{"key":"06433","name":"Groß-Gerau","type":"Landkreis"},"federalState":{"key":"06","name":"Hessen"}},{"name":"Johann-Sebastian-Bach-Str.","postalCode":"65462","locality":"Ginsheim-Gustavsburg","municipality":{"key":"06433005","name":"Ginsheim-Gustavsburg, Stadt","type":"Stadt"},"district":{"key":"06433","name":"Groß-Gerau","type":"Landkreis"},"federalState":{"key":"06","name":"Hessen"}},{"name":"Josef-Seliger-Str.","postalCode":"65462","locality":"Ginsheim-Gustavsburg","municipality":{"key":"06433005","name":"Ginsheim-Gustavsburg, Stadt","type":"Stadt"},"district":{"key":"06433","name":"Groß-Gerau","type":"Landkreis"},"federalState":{"key":"06","name":"Hessen"}},{"name":"Joseph-Haydn-Str.","postalCode":"65462","locality":"Ginsheim-Gustavsburg","municipality":{"key":"06433005","name":"Ginsheim-Gustavsburg, Stadt","type":"Stadt"},"district":{"key":"06433","name":"Groß-Gerau","type":"Landkreis"},"federalState":{"key":"06","name":"Hessen"}},{"name":"Justus-von-Liebig-Str.","postalCode":"65462","locality":"Ginsheim-Gustavsburg","municipality":{"key":"06433005","name":"Ginsheim-Gustavsburg, Stadt","type":"Stadt"},"district":{"key":"06433","name":"Groß-Gerau","type":"Landkreis"},"federalState":{"key":"06","name":"Hessen"}},{"name":"Karl-Liebknecht-Str.","postalCode":"65462","locality":"Ginsheim-Gustavsburg","municipality":{"key":"06433005","name":"Ginsheim-Gustavsburg, Stadt","type":"Stadt"},"district":{"key":"06433","name":"Groß-Gerau","type":"Landkreis"},"federalState":{"key":"06","name":"Hessen"}},{"name":"Karl-Ulrich-Str.","postalCode":"65462","locality":"Ginsheim-Gustavsburg","municipality":{"key":"06433005","name":"Ginsheim-Gustavsburg, Stadt","type":"Stadt"},"district":{"key":"06433","name":"Groß-Gerau","type":"Landkreis"},"federalState":{"key":"06","name":"Hessen"}},{"name":"Kettelerstr.","postalCode":"65462","locality":"Ginsheim-Gustavsburg","municipality":{"key":"06433005","name":"Ginsheim-Gustavsburg, Stadt","type":"Stadt"},"district":{"key":"06433","name":"Groß-Gerau","type":"Landkreis"},"federalState":{"key":"06","name":"Hessen"}},{"name":"Kirchplatz","postalCode":"65462","locality":"Ginsheim-Gustavsburg","municipality":{"key":"06433005","name":"Ginsheim-Gustavsburg, Stadt","type":"Stadt"},"district":{"key":"06433","name":"Groß-Gerau","type":"Landkreis"},"federalState":{"key":"06","name":"Hessen"}},{"name":"Kirchstr.","postalCode":"65462","locality":"Ginsheim-Gustavsburg","municipality":{"key":"06433005","name":"Ginsheim-Gustavsburg, Stadt","type":"Stadt"},"district":{"key":"06433","name":"Groß-Gerau","type":"Landkreis"},"federalState":{"key":"06","name":"Hessen"}},{"name":"Kleiststr.","postalCode":"65462","locality":"Ginsheim-Gustavsburg","municipality":{"key":"06433005","name":"Ginsheim-Gustavsburg, Stadt","type":"Stadt"},"district":{"key":"06433","name":"Groß-Gerau","type":"Landkreis"},"federalState":{"key":"06","name":"Hessen"}},{"name":"Kolpingstr.","postalCode":"65462","locality":"Ginsheim-Gustavsburg","municipality":{"key":"06433005","name":"Ginsheim-Gustavsburg, Stadt","type":"Stadt"},"district":{"key":"06433","name":"Groß-Gerau","type":"Landkreis"},"federalState":{"key":"06","name":"Hessen"}},{"name":"Königsberger Str.","postalCode":"65462","locality":"Ginsheim-Gustavsburg","municipality":{"key":"06433005","name":"Ginsheim-Gustavsburg, Stadt","type":"Stadt"},"district":{"key":"06433","name":"Groß-Gerau","type":"Landkreis"},"federalState":{"key":"06","name":"Hessen"}},{"name":"Königswarter Str.","postalCode":"65462","locality":"Ginsheim-Gustavsburg","municipality":{"key":"06433005","name":"Ginsheim-Gustavsburg, Stadt","type":"Stadt"},"district":{"key":"06433","name":"Groß-Gerau","type":"Landkreis"},"federalState":{"key":"06","name":"Hessen"}},{"name":"Kostheimer Str.","postalCode":"65462","locality":"Ginsheim-Gustavsburg","municipality":{"key":"06433005","name":"Ginsheim-Gustavsburg, Stadt","type":"Stadt"},"district":{"key":"06433","name":"Groß-Gerau","type":"Landkreis"},"federalState":{"key":"06","name":"Hessen"}},{"name":"Landdammstr.","postalCode":"65462","locality":"Ginsheim-Gustavsburg","municipality":{"key":"06433005","name":"Ginsheim-Gustavsburg, Stadt","type":"Stadt"},"district":{"key":"06433","name":"Groß-Gerau","type":"Landkreis"},"federalState":{"key":"06","name":"Hessen"}},{"name":"Landfrauenstr.","postalCode":"65462","locality":"Ginsheim-Gustavsburg","municipality":{"key":"06433005","name":"Ginsheim-Gustavsburg, Stadt","type":"Stadt"},"district":{"key":"06433","name":"Groß-Gerau","type":"Landkreis"},"federalState":{"key":"06","name":"Hessen"}},{"name":"Lange Streng","postalCode":"65462","locality":"Ginsheim-Gustavsburg","municipality":{"key":"06433005","name":"Ginsheim-Gustavsburg, Stadt","type":"Stadt"},"district":{"key":"06433","name":"Groß-Gerau","type":"Landkreis"},"federalState":{"key":"06","name":"Hessen"}},{"name":"Laubenheimer Str.","postalCode":"65462","locality":"Ginsheim-Gustavsburg","municipality":{"key":"06433005","name":"Ginsheim-Gustavsburg, Stadt","type":"Stadt"},"district":{"key":"06433","name":"Groß-Gerau","type":"Landkreis"},"federalState":{"key":"06","name":"Hessen"}},{"name":"Leipziger Str.","postalCode":"65462","locality":"Ginsheim-Gustavsburg","municipality":{"key":"06433005","name":"Ginsheim-Gustavsburg, Stadt","type":"Stadt"},"district":{"key":"06433","name":"Groß-Gerau","type":"Landkreis"},"federalState":{"key":"06","name":"Hessen"}},{"name":"Lessingstr.","postalCode":"65462","locality":"Ginsheim-Gustavsburg","municipality":{"key":"06433005","name":"Ginsheim-Gustavsburg, Stadt","type":"Stadt"},"district":{"key":"06433","name":"Groß-Gerau","type":"Landkreis"},"federalState":{"key":"06","name":"Hessen"}},{"name":"Lia-Wöhr-Weg","postalCode":"65462","locality":"Ginsheim-Gustavsburg","municipality":{"key":"06433005","name":"Ginsheim-Gustavsburg, Stadt","type":"Stadt"},"district":{"key":"06433","name":"Groß-Gerau","type":"Landkreis"},"federalState":{"key":"06","name":"Hessen"}},{"name":"Lily-Braun-Str.","postalCode":"65462","locality":"Ginsheim-Gustavsburg","municipality":{"key":"06433005","name":"Ginsheim-Gustavsburg, Stadt","type":"Stadt"},"district":{"key":"06433","name":"Groß-Gerau","type":"Landkreis"},"federalState":{"key":"06","name":"Hessen"}},{"name":"Lotte-Lenya-Str.","postalCode":"65462","locality":"Ginsheim-Gustavsburg","municipality":{"key":"06433005","name":"Ginsheim-Gustavsburg, Stadt","type":"Stadt"},"district":{"key":"06433","name":"Groß-Gerau","type":"Landkreis"},"federalState":{"key":"06","name":"Hessen"}},{"name":"Ludwigstr.","postalCode":"65462","locality":"Ginsheim-Gustavsburg","municipality":{"key":"06433005","name":"Ginsheim-Gustavsburg, Stadt","type":"Stadt"},"district":{"key":"06433","name":"Groß-Gerau","type":"Landkreis"},"federalState":{"key":"06","name":"Hessen"}},{"name":"Magdeburger Str.","postalCode":"65462","locality":"Ginsheim-Gustavsburg","municipality":{"key":"06433005","name":"Ginsheim-Gustavsburg, Stadt","type":"Stadt"},"district":{"key":"06433","name":"Groß-Gerau","type":"Landkreis"},"federalState":{"key":"06","name":"Hessen"}},{"name":"Mainstr.","postalCode":"65462","locality":"Ginsheim-Gustavsburg","municipality":{"key":"06433005","name":"Ginsheim-Gustavsburg, Stadt","type":"Stadt"},"district":{"key":"06433","name":"Groß-Gerau","type":"Landkreis"},"federalState":{"key":"06","name":"Hessen"}},{"name":"Mainzer Str.","postalCode":"65462","locality":"Ginsheim-Gustavsburg","municipality":{"key":"06433005","name":"Ginsheim-Gustavsburg, Stadt","type":"Stadt"},"district":{"key":"06433","name":"Groß-Gerau","type":"Landkreis"},"federalState":{"key":"06","name":"Hessen"}},{"name":"Mariama-Ba-Str.","postalCode":"65462","locality":"Ginsheim-Gustavsburg","municipality":{"key":"06433005","name":"Ginsheim-Gustavsburg, Stadt","type":"Stadt"},"district":{"key":"06433","name":"Groß-Gerau","type":"Landkreis"},"federalState":{"key":"06","name":"Hessen"}},{"name":"Maria-Montessori-Str.","postalCode":"65462","locality":"Ginsheim-Gustavsburg","municipality":{"key":"06433005","name":"Ginsheim-Gustavsburg, Stadt","type":"Stadt"},"district":{"key":"06433","name":"Groß-Gerau","type":"Landkreis"},"federalState":{"key":"06","name":"Hessen"}},{"name":"Maria-Ward-Weg","postalCode":"65462","locality":"Ginsheim-Gustavsburg","municipality":{"key":"06433005","name":"Ginsheim-Gustavsburg, Stadt","type":"Stadt"},"district":{"key":"06433","name":"Groß-Gerau","type":"Landkreis"},"federalState":{"key":"06","name":"Hessen"}},{"name":"Marie-Curie-Str.","postalCode":"65462","locality":"Ginsheim-Gustavsburg","municipality":{"key":"06433005","name":"Ginsheim-Gustavsburg, Stadt","type":"Stadt"},"district":{"key":"06433","name":"Groß-Gerau","type":"Landkreis"},"federalState":{"key":"06","name":"Hessen"}},{"name":"Martin-Luther-Str.","postalCode":"65462","locality":"Ginsheim-Gustavsburg","municipality":{"key":"06433005","name":"Ginsheim-Gustavsburg, Stadt","type":"Stadt"},"district":{"key":"06433","name":"Groß-Gerau","type":"Landkreis"},"federalState":{"key":"06","name":"Hessen"}},{"name":"Merianstr.","postalCode":"65462","locality":"Ginsheim-Gustavsburg","municipality":{"key":"06433005","name":"Ginsheim-Gustavsburg, Stadt","type":"Stadt"},"district":{"key":"06433","name":"Groß-Gerau","type":"Landkreis"},"federalState":{"key":"06","name":"Hessen"}},{"name":"Mierendorffstr.","postalCode":"65462","locality":"Ginsheim-Gustavsburg","municipality":{"key":"06433005","name":"Ginsheim-Gustavsburg, Stadt","type":"Stadt"},"district":{"key":"06433","name":"Groß-Gerau","type":"Landkreis"},"federalState":{"key":"06","name":"Hessen"}},{"name":"Mittelgasse","postalCode":"65462","locality":"Ginsheim-Gustavsburg","municipality":{"key":"06433005","name":"Ginsheim-Gustavsburg, Stadt","type":"Stadt"},"district":{"key":"06433","name":"Groß-Gerau","type":"Landkreis"},"federalState":{"key":"06","name":"Hessen"}},{"name":"Mozartstr.","postalCode":"65462","locality":"Ginsheim-Gustavsburg","municipality":{"key":"06433005","name":"Ginsheim-Gustavsburg, Stadt","type":"Stadt"},"district":{"key":"06433","name":"Groß-Gerau","type":"Landkreis"},"federalState":{"key":"06","name":"Hessen"}},{"name":"Münchener Str.","postalCode":"65462","locality":"Ginsheim-Gustavsburg","municipality":{"key":"06433005","name":"Ginsheim-Gustavsburg, Stadt","type":"Stadt"},"district":{"key":"06433","name":"Groß-Gerau","type":"Landkreis"},"federalState":{"key":"06","name":"Hessen"}},{"name":"Müngstener Str.","postalCode":"65462","locality":"Ginsheim-Gustavsburg","municipality":{"key":"06433005","name":"Ginsheim-Gustavsburg, Stadt","type":"Stadt"},"district":{"key":"06433","name":"Groß-Gerau","type":"Landkreis"},"federalState":{"key":"06","name":"Hessen"}},{"name":"Neckarstr.","postalCode":"65462","locality":"Ginsheim-Gustavsburg","municipality":{"key":"06433005","name":"Ginsheim-Gustavsburg, Stadt","type":"Stadt"},"district":{"key":"06433","name":"Groß-Gerau","type":"Landkreis"},"federalState":{"key":"06","name":"Hessen"}},{"name":"Niersteiner Str.","postalCode":"65462","locality":"Ginsheim-Gustavsburg","municipality":{"key":"06433005","name":"Ginsheim-Gustavsburg, Stadt","type":"Stadt"},"district":{"key":"06433","name":"Groß-Gerau","type":"Landkreis"},"federalState":{"key":"06","name":"Hessen"}},{"name":"Nürnberger Str.","postalCode":"65462","locality":"Ginsheim-Gustavsburg","municipality":{"key":"06433005","name":"Ginsheim-Gustavsburg, Stadt","type":"Stadt"},"district":{"key":"06433","name":"Groß-Gerau","type":"Landkreis"},"federalState":{"key":"06","name":"Hessen"}},{"name":"Odenwaldweg","postalCode":"65462","locality":"Ginsheim-Gustavsburg","municipality":{"key":"06433005","name":"Ginsheim-Gustavsburg, Stadt","type":"Stadt"},"district":{"key":"06433","name":"Groß-Gerau","type":"Landkreis"},"federalState":{"key":"06","name":"Hessen"}},{"name":"Park am Frosch","postalCode":"65462","locality":"Ginsheim-Gustavsburg","municipality":{"key":"06433005","name":"Ginsheim-Gustavsburg, Stadt","type":"Stadt"},"district":{"key":"06433","name":"Groß-Gerau","type":"Landkreis"},"federalState":{"key":"06","name":"Hessen"}},{"name":"Pestalozzistr.","postalCode":"65462","locality":"Ginsheim-Gustavsburg","municipality":{"key":"06433005","name":"Ginsheim-Gustavsburg, Stadt","type":"Stadt"},"district":{"key":"06433","name":"Groß-Gerau","type":"Landkreis"},"federalState":{"key":"06","name":"Hessen"}},{"name":"Pfarrer-Haus-Str.","postalCode":"65462","locality":"Ginsheim-Gustavsburg","municipality":{"key":"06433005","name":"Ginsheim-Gustavsburg, Stadt","type":"Stadt"},"district":{"key":"06433","name":"Groß-Gerau","type":"Landkreis"},"federalState":{"key":"06","name":"Hessen"}},{"name":"Philipp-Rauch-Platz","postalCode":"65462","locality":"Ginsheim-Gustavsburg","municipality":{"key":"06433005","name":"Ginsheim-Gustavsburg, Stadt","type":"Stadt"},"district":{"key":"06433","name":"Groß-Gerau","type":"Landkreis"},"federalState":{"key":"06","name":"Hessen"}},{"name":"Philipp-Reis-Str.","postalCode":"65462","locality":"Ginsheim-Gustavsburg","municipality":{"key":"06433005","name":"Ginsheim-Gustavsburg, Stadt","type":"Stadt"},"district":{"key":"06433","name":"Groß-Gerau","type":"Landkreis"},"federalState":{"key":"06","name":"Hessen"}},{"name":"Postgässje","postalCode":"65462","locality":"Ginsheim-Gustavsburg","municipality":{"key":"06433005","name":"Ginsheim-Gustavsburg, Stadt","type":"Stadt"},"district":{"key":"06433","name":"Groß-Gerau","type":"Landkreis"},"federalState":{"key":"06","name":"Hessen"}},{"name":"Rheinstr.","postalCode":"65462","locality":"Ginsheim-Gustavsburg","municipality":{"key":"06433005","name":"Ginsheim-Gustavsburg, Stadt","type":"Stadt"},"district":{"key":"06433","name":"Groß-Gerau","type":"Landkreis"},"federalState":{"key":"06","name":"Hessen"}},{"name":"Rhönweg","postalCode":"65462","locality":"Ginsheim-Gustavsburg","municipality":{"key":"06433005","name":"Ginsheim-Gustavsburg, Stadt","type":"Stadt"},"district":{"key":"06433","name":"Groß-Gerau","type":"Landkreis"},"federalState":{"key":"06","name":"Hessen"}},{"name":"Richard-Wagner-Str.","postalCode":"65462","locality":"Ginsheim-Gustavsburg","municipality":{"key":"06433005","name":"Ginsheim-Gustavsburg, Stadt","type":"Stadt"},"district":{"key":"06433","name":"Groß-Gerau","type":"Landkreis"},"federalState":{"key":"06","name":"Hessen"}},{"name":"Ringstr.","postalCode":"65462","locality":"Ginsheim-Gustavsburg","municipality":{"key":"06433005","name":"Ginsheim-Gustavsburg, Stadt","type":"Stadt"},"district":{"key":"06433","name":"Groß-Gerau","type":"Landkreis"},"federalState":{"key":"06","name":"Hessen"}},{"name":"Robert-Bosch-Str.","postalCode":"65462","locality":"Ginsheim-Gustavsburg","municipality":{"key":"06433005","name":"Ginsheim-Gustavsburg, Stadt","type":"Stadt"},"district":{"key":"06433","name":"Groß-Gerau","type":"Landkreis"},"federalState":{"key":"06","name":"Hessen"}},{"name":"Robert-Koch-Str.","postalCode":"65462","locality":"Ginsheim-Gustavsburg","municipality":{"key":"06433005","name":"Ginsheim-Gustavsburg, Stadt","type":"Stadt"},"district":{"key":"06433","name":"Groß-Gerau","type":"Landkreis"},"federalState":{"key":"06","name":"Hessen"}},{"name":"Römerstr.","postalCode":"65462","locality":"Ginsheim-Gustavsburg","municipality":{"key":"06433005","name":"Ginsheim-Gustavsburg, Stadt","type":"Stadt"},"district":{"key":"06433","name":"Groß-Gerau","type":"Landkreis"},"federalState":{"key":"06","name":"Hessen"}},{"name":"Röntgenstr.","postalCode":"65462","locality":"Ginsheim-Gustavsburg","municipality":{"key":"06433005","name":"Ginsheim-Gustavsburg, Stadt","type":"Stadt"},"district":{"key":"06433","name":"Groß-Gerau","type":"Landkreis"},"federalState":{"key":"06","name":"Hessen"}},{"name":"Rosa-Luxemburg-Str.","postalCode":"65462","locality":"Ginsheim-Gustavsburg","municipality":{"key":"06433005","name":"Ginsheim-Gustavsburg, Stadt","type":"Stadt"},"district":{"key":"06433","name":"Groß-Gerau","type":"Landkreis"},"federalState":{"key":"06","name":"Hessen"}},{"name":"Rudolf-Diesel-Str.","postalCode":"65462","locality":"Ginsheim-Gustavsburg","municipality":{"key":"06433005","name":"Ginsheim-Gustavsburg, Stadt","type":"Stadt"},"district":{"key":"06433","name":"Groß-Gerau","type":"Landkreis"},"federalState":{"key":"06","name":"Hessen"}},{"name":"Rüsselsheimer Str.","postalCode":"65462","locality":"Ginsheim-Gustavsburg","municipality":{"key":"06433005","name":"Ginsheim-Gustavsburg, Stadt","type":"Stadt"},"district":{"key":"06433","name":"Groß-Gerau","type":"Landkreis"},"federalState":{"key":"06","name":"Hessen"}},{"name":"Sankt-Florian-Str.","postalCode":"65462","locality":"Ginsheim-Gustavsburg","municipality":{"key":"06433005","name":"Ginsheim-Gustavsburg, Stadt","type":"Stadt"},"district":{"key":"06433","name":"Groß-Gerau","type":"Landkreis"},"federalState":{"key":"06","name":"Hessen"}},{"name":"Schillerstr.","postalCode":"65462","locality":"Ginsheim-Gustavsburg","municipality":{"key":"06433005","name":"Ginsheim-Gustavsburg, Stadt","type":"Stadt"},"district":{"key":"06433","name":"Groß-Gerau","type":"Landkreis"},"federalState":{"key":"06","name":"Hessen"}},{"name":"Schulstr.","postalCode":"65462","locality":"Ginsheim-Gustavsburg","municipality":{"key":"06433005","name":"Ginsheim-Gustavsburg, Stadt","type":"Stadt"},"district":{"key":"06433","name":"Groß-Gerau","type":"Landkreis"},"federalState":{"key":"06","name":"Hessen"}},{"name":"Schwarzwaldweg","postalCode":"65462","locality":"Ginsheim-Gustavsburg","municipality":{"key":"06433005","name":"Ginsheim-Gustavsburg, Stadt","type":"Stadt"},"district":{"key":"06433","name":"Groß-Gerau","type":"Landkreis"},"federalState":{"key":"06","name":"Hessen"}},{"name":"Schwedenschanze","postalCode":"65462","locality":"Ginsheim-Gustavsburg","municipality":{"key":"06433005","name":"Ginsheim-Gustavsburg, Stadt","type":"Stadt"},"district":{"key":"06433","name":"Groß-Gerau","type":"Landkreis"},"federalState":{"key":"06","name":"Hessen"}},{"name":"Simone-de-Beauvoir-Str.","postalCode":"65462","locality":"Ginsheim-Gustavsburg","municipality":{"key":"06433005","name":"Ginsheim-Gustavsburg, Stadt","type":"Stadt"},"district":{"key":"06433","name":"Groß-Gerau","type":"Landkreis"},"federalState":{"key":"06","name":"Hessen"}},{"name":"Sophie-und-Hans-Scholl-Str.","postalCode":"65462","locality":"Ginsheim-Gustavsburg","municipality":{"key":"06433005","name":"Ginsheim-Gustavsburg, Stadt","type":"Stadt"},"district":{"key":"06433","name":"Groß-Gerau","type":"Landkreis"},"federalState":{"key":"06","name":"Hessen"}},{"name":"Spessartweg","postalCode":"65462","locality":"Ginsheim-Gustavsburg","municipality":{"key":"06433005","name":"Ginsheim-Gustavsburg, Stadt","type":"Stadt"},"district":{"key":"06433","name":"Groß-Gerau","type":"Landkreis"},"federalState":{"key":"06","name":"Hessen"}},{"name":"Stegstr.","postalCode":"65462","locality":"Ginsheim-Gustavsburg","municipality":{"key":"06433005","name":"Ginsheim-Gustavsburg, Stadt","type":"Stadt"},"district":{"key":"06433","name":"Groß-Gerau","type":"Landkreis"},"federalState":{"key":"06","name":"Hessen"}},{"name":"Steinhaag","postalCode":"65462","locality":"Ginsheim-Gustavsburg","municipality":{"key":"06433005","name":"Ginsheim-Gustavsburg, Stadt","type":"Stadt"},"district":{"key":"06433","name":"Groß-Gerau","type":"Landkreis"},"federalState":{"key":"06","name":"Hessen"}},{"name":"Stettiner Str.","postalCode":"65462","locality":"Ginsheim-Gustavsburg","municipality":{"key":"06433005","name":"Ginsheim-Gustavsburg, Stadt","type":"Stadt"},"district":{"key":"06433","name":"Groß-Gerau","type":"Landkreis"},"federalState":{"key":"06","name":"Hessen"}},{"name":"Stresemannstr.","postalCode":"65462","locality":"Ginsheim-Gustavsburg","municipality":{"key":"06433005","name":"Ginsheim-Gustavsburg, Stadt","type":"Stadt"},"district":{"key":"06433","name":"Groß-Gerau","type":"Landkreis"},"federalState":{"key":"06","name":"Hessen"}},{"name":"Stuttgarter Str.","postalCode":"65462","locality":"Ginsheim-Gustavsburg","municipality":{"key":"06433005","name":"Ginsheim-Gustavsburg, Stadt","type":"Stadt"},"district":{"key":"06433","name":"Groß-Gerau","type":"Landkreis"},"federalState":{"key":"06","name":"Hessen"}},{"name":"Taunusstr.","postalCode":"65462","locality":"Ginsheim-Gustavsburg","municipality":{"key":"06433005","name":"Ginsheim-Gustavsburg, Stadt","type":"Stadt"},"district":{"key":"06433","name":"Groß-Gerau","type":"Landkreis"},"federalState":{"key":"06","name":"Hessen"}},{"name":"temporärer Fuß- und Rad-Notweg","postalCode":"65462","locality":"Ginsheim-Gustavsburg","municipality":{"key":"06433005","name":"Ginsheim-Gustavsburg, Stadt","type":"Stadt"},"district":{"key":"06433","name":"Groß-Gerau","type":"Landkreis"},"federalState":{"key":"06","name":"Hessen"}},{"name":"Ulmenstr.","postalCode":"65462","locality":"Ginsheim-Gustavsburg","municipality":{"key":"06433005","name":"Ginsheim-Gustavsburg, Stadt","type":"Stadt"},"district":{"key":"06433","name":"Groß-Gerau","type":"Landkreis"},"federalState":{"key":"06","name":"Hessen"}},{"name":"Unter der Ruth","postalCode":"65462","locality":"Ginsheim-Gustavsburg","municipality":{"key":"06433005","name":"Ginsheim-Gustavsburg, Stadt","type":"Stadt"},"district":{"key":"06433","name":"Groß-Gerau","type":"Landkreis"},"federalState":{"key":"06","name":"Hessen"}},{"name":"Villa Hermann Park","postalCode":"65462","locality":"Ginsheim-Gustavsburg","municipality":{"key":"06433005","name":"Ginsheim-Gustavsburg, Stadt","type":"Stadt"},"district":{"key":"06433","name":"Groß-Gerau","type":"Landkreis"},"federalState":{"key":"06","name":"Hessen"}},{"name":"Virchowstr.","postalCode":"65462","locality":"Ginsheim-Gustavsburg","municipality":{"key":"06433005","name":"Ginsheim-Gustavsburg, Stadt","type":"Stadt"},"district":{"key":"06433","name":"Groß-Gerau","type":"Landkreis"},"federalState":{"key":"06","name":"Hessen"}},{"name":"Vogelpark","postalCode":"65462","locality":"Ginsheim-Gustavsburg","municipality":{"key":"06433005","name":"Ginsheim-Gustavsburg, Stadt","type":"Stadt"},"district":{"key":"06433","name":"Groß-Gerau","type":"Landkreis"},"federalState":{"key":"06","name":"Hessen"}},{"name":"Vogelsbergweg","postalCode":"65462","locality":"Ginsheim-Gustavsburg","municipality":{"key":"06433005","name":"Ginsheim-Gustavsburg, Stadt","type":"Stadt"},"district":{"key":"06433","name":"Groß-Gerau","type":"Landkreis"},"federalState":{"key":"06","name":"Hessen"}},{"name":"Vor der Schanz","postalCode":"65462","locality":"Ginsheim-Gustavsburg","municipality":{"key":"06433005","name":"Ginsheim-Gustavsburg, Stadt","type":"Stadt"},"district":{"key":"06433","name":"Groß-Gerau","type":"Landkreis"},"federalState":{"key":"06","name":"Hessen"}},{"name":"Vorm Anthaupt","postalCode":"65462","locality":"Ginsheim-Gustavsburg","municipality":{"key":"06433005","name":"Ginsheim-Gustavsburg, Stadt","type":"Stadt"},"district":{"key":"06433","name":"Groß-Gerau","type":"Landkreis"},"federalState":{"key":"06","name":"Hessen"}},{"name":"Waldstr.","postalCode":"65462","locality":"Ginsheim-Gustavsburg","municipality":{"key":"06433005","name":"Ginsheim-Gustavsburg, Stadt","type":"Stadt"},"district":{"key":"06433","name":"Groß-Gerau","type":"Landkreis"},"federalState":{"key":"06","name":"Hessen"}},{"name":"Weinbergstr.","postalCode":"65462","locality":"Ginsheim-Gustavsburg","municipality":{"key":"06433005","name":"Ginsheim-Gustavsburg, Stadt","type":"Stadt"},"district":{"key":"06433","name":"Groß-Gerau","type":"Landkreis"},"federalState":{"key":"06","name":"Hessen"}},{"name":"Weisenauer Str.","postalCode":"65462","locality":"Ginsheim-Gustavsburg","municipality":{"key":"06433005","name":"Ginsheim-Gustavsburg, Stadt","type":"Stadt"},"district":{"key":"06433","name":"Groß-Gerau","type":"Landkreis"},"federalState":{"key":"06","name":"Hessen"}},{"name":"Weizengewann","postalCode":"65462","locality":"Ginsheim-Gustavsburg","municipality":{"key":"06433005","name":"Ginsheim-Gustavsburg, Stadt","type":"Stadt"},"district":{"key":"06433","name":"Groß-Gerau","type":"Landkreis"},"federalState":{"key":"06","name":"Hessen"}},{"name":"Werderstr.","postalCode":"65462","locality":"Ginsheim-Gustavsburg","municipality":{"key":"06433005","name":"Ginsheim-Gustavsburg, Stadt","type":"Stadt"},"district":{"key":"06433","name":"Groß-Gerau","type":"Landkreis"},"federalState":{"key":"06","name":"Hessen"}},{"name":"Werner-von-Siemens-Str.","postalCode":"65462","locality":"Ginsheim-Gustavsburg","municipality":{"key":"06433005","name":"Ginsheim-Gustavsburg, Stadt","type":"Stadt"},"district":{"key":"06433","name":"Groß-Gerau","type":"Landkreis"},"federalState":{"key":"06","name":"Hessen"}},{"name":"Westerwaldstr.","postalCode":"65462","locality":"Ginsheim-Gustavsburg","municipality":{"key":"06433005","name":"Ginsheim-Gustavsburg, Stadt","type":"Stadt"},"district":{"key":"06433","name":"Groß-Gerau","type":"Landkreis"},"federalState":{"key":"06","name":"Hessen"}},{"name":"Wiesengewannweg","postalCode":"65462","locality":"Ginsheim-Gustavsburg","municipality":{"key":"06433005","name":"Ginsheim-Gustavsburg, Stadt","type":"Stadt"},"district":{"key":"06433","name":"Groß-Gerau","type":"Landkreis"},"federalState":{"key":"06","name":"Hessen"}},{"name":"Wilhelm-Busch-Str.","postalCode":"65462","locality":"Ginsheim-Gustavsburg","municipality":{"key":"06433005","name":"Ginsheim-Gustavsburg, Stadt","type":"Stadt"},"district":{"key":"06433","name":"Groß-Gerau","type":"Landkreis"},"federalState":{"key":"06","name":"Hessen"}},{"name":"Wilhelm-Leuschner-Str.","postalCode":"65462","locality":"Ginsheim-Gustavsburg","municipality":{"key":"06433005","name":"Ginsheim-Gustavsburg, Stadt","type":"Stadt"},"district":{"key":"06433","name":"Groß-Gerau","type":"Landkreis"},"federalState":{"key":"06","name":"Hessen"}},{"name":"Wilhelmstr.","postalCode":"65462","locality":"Ginsheim-Gustavsburg","municipality":{"key":"06433005","name":"Ginsheim-Gustavsburg, Stadt","type":"Stadt"},"district":{"key":"06433","name":"Groß-Gerau","type":"Landkreis"},"federalState":{"key":"06","name":"Hessen"}},{"name":"Zeppelinstr.","postalCode":"65462","locality":"Ginsheim-Gustavsburg","municipality":{"key":"06433005","name":"Ginsheim-Gustavsburg, Stadt","type":"Stadt"},"district":{"key":"06433","name":"Groß-Gerau","type":"Landkreis"},"federalState":{"key":"06","name":"Hessen"}},{"name":"Zwerggewann","postalCode":"65462","locality":"Ginsheim-Gustavsburg","municipality":{"key":"06433005","name":"Ginsheim-Gustavsburg, Stadt","type":"Stadt"},"district":{"key":"06433","name":"Groß-Gerau","type":"Landkreis"},"federalState":{"key":"06","name":"Hessen"}},]