[{"name":"Ahrwaldstr.","postalCode":"21376","locality":"Garlstorf","municipality":{"key":"03353011","name":"Garlstorf","type":"Kreisangehörige_Gemeinde"},"district":{"key":"03353","name":"Harburg","type":"Landkreis"},"federalState":{"key":"03","name":"Niedersachsen"}},{"name":"Am Brink","postalCode":"21376","locality":"Garlstorf","municipality":{"key":"03353011","name":"Garlstorf","type":"Kreisangehörige_Gemeinde"},"district":{"key":"03353","name":"Harburg","type":"Landkreis"},"federalState":{"key":"03","name":"Niedersachsen"}},{"name":"Am Fensternhof","postalCode":"21376","locality":"Garlstorf","municipality":{"key":"03353011","name":"Garlstorf","type":"Kreisangehörige_Gemeinde"},"district":{"key":"03353","name":"Harburg","type":"Landkreis"},"federalState":{"key":"03","name":"Niedersachsen"}},{"name":"Am Jagdschloß","postalCode":"21376","locality":"Garlstorf","municipality":{"key":"03353011","name":"Garlstorf","type":"Kreisangehörige_Gemeinde"},"district":{"key":"03353","name":"Harburg","type":"Landkreis"},"federalState":{"key":"03","name":"Niedersachsen"}},{"name":"Am Wiesengrund","postalCode":"21376","locality":"Garlstorf","municipality":{"key":"03353011","name":"Garlstorf","type":"Kreisangehörige_Gemeinde"},"district":{"key":"03353","name":"Harburg","type":"Landkreis"},"federalState":{"key":"03","name":"Niedersachsen"}},{"name":"An de Häg","postalCode":"21376","locality":"Garlstorf","municipality":{"key":"03353011","name":"Garlstorf","type":"Kreisangehörige_Gemeinde"},"district":{"key":"03353","name":"Harburg","type":"Landkreis"},"federalState":{"key":"03","name":"Niedersachsen"}},{"name":"An'n Hungerbeek","postalCode":"21376","locality":"Garlstorf","municipality":{"key":"03353011","name":"Garlstorf","type":"Kreisangehörige_Gemeinde"},"district":{"key":"03353","name":"Harburg","type":"Landkreis"},"federalState":{"key":"03","name":"Niedersachsen"}},{"name":"Badergasse","postalCode":"86655","locality":"Harburg (Schwaben)","municipality":{"key":"09779155","name":"Harburg (Schwaben), St","type":"Stadt"},"district":{"key":"09779","name":"Donau-Ries","type":"Landkreis"},"federalState":{"key":"09","name":"Bayern"}},{"name":"Badgasse","postalCode":"86655","locality":"Harburg (Schwaben)","municipality":{"key":"09779155","name":"Harburg (Schwaben), St","type":"Stadt"},"district":{"key":"09779","name":"Donau-Ries","type":"Landkreis"},"federalState":{"key":"09","name":"Bayern"}},{"name":"Bahnhofstr.","postalCode":"86655","locality":"Harburg (Schwaben)","municipality":{"key":"09779155","name":"Harburg (Schwaben), St","type":"Stadt"},"district":{"key":"09779","name":"Donau-Ries","type":"Landkreis"},"federalState":{"key":"09","name":"Bayern"}},{"name":"Bahnweg","postalCode":"86655","locality":"Harburg (Schwaben)","municipality":{"key":"09779155","name":"Harburg (Schwaben), St","type":"Stadt"},"district":{"key":"09779","name":"Donau-Ries","type":"Landkreis"},"federalState":{"key":"09","name":"Bayern"}},{"name":"Bergstr.","postalCode":"86655","locality":"Harburg (Schwaben)","municipality":{"key":"09779155","name":"Harburg (Schwaben), St","type":"Stadt"},"district":{"key":"09779","name":"Donau-Ries","type":"Landkreis"},"federalState":{"key":"09","name":"Bayern"}},{"name":"Birkenhof","postalCode":"86655","locality":"Harburg (Schwaben)","municipality":{"key":"09779155","name":"Harburg (Schwaben), St","type":"Stadt"},"district":{"key":"09779","name":"Donau-Ries","type":"Landkreis"},"federalState":{"key":"09","name":"Bayern"}},{"name":"Birkenweg","postalCode":"86655","locality":"Harburg (Schwaben)","municipality":{"key":"09779155","name":"Harburg (Schwaben), St","type":"Stadt"},"district":{"key":"09779","name":"Donau-Ries","type":"Landkreis"},"federalState":{"key":"09","name":"Bayern"}},{"name":"Birkleswiese","postalCode":"86655","locality":"Harburg (Schwaben)","municipality":{"key":"09779155","name":"Harburg (Schwaben), St","type":"Stadt"},"district":{"key":"09779","name":"Donau-Ries","type":"Landkreis"},"federalState":{"key":"09","name":"Bayern"}},{"name":"Brunnengasse","postalCode":"86655","locality":"Harburg (Schwaben)","municipality":{"key":"09779155","name":"Harburg (Schwaben), St","type":"Stadt"},"district":{"key":"09779","name":"Donau-Ries","type":"Landkreis"},"federalState":{"key":"09","name":"Bayern"}},{"name":"Brunnengässle","postalCode":"86655","locality":"Harburg (Schwaben)","municipality":{"key":"09779155","name":"Harburg (Schwaben), St","type":"Stadt"},"district":{"key":"09779","name":"Donau-Ries","type":"Landkreis"},"federalState":{"key":"09","name":"Bayern"}},{"name":"Brunnenstr.","postalCode":"86655","locality":"Harburg (Schwaben)","municipality":{"key":"09779155","name":"Harburg (Schwaben), St","type":"Stadt"},"district":{"key":"09779","name":"Donau-Ries","type":"Landkreis"},"federalState":{"key":"09","name":"Bayern"}},{"name":"Brünsee","postalCode":"86655","locality":"Harburg (Schwaben)","municipality":{"key":"09779155","name":"Harburg (Schwaben), St","type":"Stadt"},"district":{"key":"09779","name":"Donau-Ries","type":"Landkreis"},"federalState":{"key":"09","name":"Bayern"}},{"name":"Buchenweg","postalCode":"86655","locality":"Harburg (Schwaben)","municipality":{"key":"09779155","name":"Harburg (Schwaben), St","type":"Stadt"},"district":{"key":"09779","name":"Donau-Ries","type":"Landkreis"},"federalState":{"key":"09","name":"Bayern"}},{"name":"Bürgermeister-Straß-Weg","postalCode":"86655","locality":"Harburg (Schwaben)","municipality":{"key":"09779155","name":"Harburg (Schwaben), St","type":"Stadt"},"district":{"key":"09779","name":"Donau-Ries","type":"Landkreis"},"federalState":{"key":"09","name":"Bayern"}},{"name":"Burgfeld","postalCode":"86655","locality":"Harburg (Schwaben)","municipality":{"key":"09779155","name":"Harburg (Schwaben), St","type":"Stadt"},"district":{"key":"09779","name":"Donau-Ries","type":"Landkreis"},"federalState":{"key":"09","name":"Bayern"}},{"name":"Burgfeldring","postalCode":"86655","locality":"Harburg (Schwaben)","municipality":{"key":"09779155","name":"Harburg (Schwaben), St","type":"Stadt"},"district":{"key":"09779","name":"Donau-Ries","type":"Landkreis"},"federalState":{"key":"09","name":"Bayern"}},{"name":"Burgstr.","postalCode":"86655","locality":"Harburg (Schwaben)","municipality":{"key":"09779155","name":"Harburg (Schwaben), St","type":"Stadt"},"district":{"key":"09779","name":"Donau-Ries","type":"Landkreis"},"federalState":{"key":"09","name":"Bayern"}},{"name":"Donauwörther Str.","postalCode":"86655","locality":"Harburg (Schwaben)","municipality":{"key":"09779155","name":"Harburg (Schwaben), St","type":"Stadt"},"district":{"key":"09779","name":"Donau-Ries","type":"Landkreis"},"federalState":{"key":"09","name":"Bayern"}},{"name":"Dorfstr.","postalCode":"86655","locality":"Harburg (Schwaben)","municipality":{"key":"09779155","name":"Harburg (Schwaben), St","type":"Stadt"},"district":{"key":"09779","name":"Donau-Ries","type":"Landkreis"},"federalState":{"key":"09","name":"Bayern"}},{"name":"Dürrgasse","postalCode":"86655","locality":"Harburg (Schwaben)","municipality":{"key":"09779155","name":"Harburg (Schwaben), St","type":"Stadt"},"district":{"key":"09779","name":"Donau-Ries","type":"Landkreis"},"federalState":{"key":"09","name":"Bayern"}},{"name":"Egestorfer Landstr.","postalCode":"21376","locality":"Garlstorf","municipality":{"key":"03353011","name":"Garlstorf","type":"Kreisangehörige_Gemeinde"},"district":{"key":"03353","name":"Harburg","type":"Landkreis"},"federalState":{"key":"03","name":"Niedersachsen"}},{"name":"Försterweg","postalCode":"21376","locality":"Garlstorf","municipality":{"key":"03353011","name":"Garlstorf","type":"Kreisangehörige_Gemeinde"},"district":{"key":"03353","name":"Harburg","type":"Landkreis"},"federalState":{"key":"03","name":"Niedersachsen"}},{"name":"Gartenstr.","postalCode":"86655","locality":"Harburg (Schwaben)","municipality":{"key":"09779155","name":"Harburg (Schwaben), St","type":"Stadt"},"district":{"key":"09779","name":"Donau-Ries","type":"Landkreis"},"federalState":{"key":"09","name":"Bayern"}},{"name":"Gässle","postalCode":"86655","locality":"Harburg (Schwaben)","municipality":{"key":"09779155","name":"Harburg (Schwaben), St","type":"Stadt"},"district":{"key":"09779","name":"Donau-Ries","type":"Landkreis"},"federalState":{"key":"09","name":"Bayern"}},{"name":"Georgenstr.","postalCode":"86655","locality":"Harburg (Schwaben)","municipality":{"key":"09779155","name":"Harburg (Schwaben), St","type":"Stadt"},"district":{"key":"09779","name":"Donau-Ries","type":"Landkreis"},"federalState":{"key":"09","name":"Bayern"}},{"name":"Georg-Karg-Weg","postalCode":"86655","locality":"Harburg (Schwaben)","municipality":{"key":"09779155","name":"Harburg (Schwaben), St","type":"Stadt"},"district":{"key":"09779","name":"Donau-Ries","type":"Landkreis"},"federalState":{"key":"09","name":"Bayern"}},{"name":"Goethestr.","postalCode":"86655","locality":"Harburg (Schwaben)","municipality":{"key":"09779155","name":"Harburg (Schwaben), St","type":"Stadt"},"district":{"key":"09779","name":"Donau-Ries","type":"Landkreis"},"federalState":{"key":"09","name":"Bayern"}},{"name":"Grasstr.","postalCode":"86655","locality":"Harburg (Schwaben)","municipality":{"key":"09779155","name":"Harburg (Schwaben), St","type":"Stadt"},"district":{"key":"09779","name":"Donau-Ries","type":"Landkreis"},"federalState":{"key":"09","name":"Bayern"}},{"name":"Griesweg","postalCode":"86655","locality":"Harburg (Schwaben)","municipality":{"key":"09779155","name":"Harburg (Schwaben), St","type":"Stadt"},"district":{"key":"09779","name":"Donau-Ries","type":"Landkreis"},"federalState":{"key":"09","name":"Bayern"}},{"name":"Guigenweg","postalCode":"86655","locality":"Harburg (Schwaben)","municipality":{"key":"09779155","name":"Harburg (Schwaben), St","type":"Stadt"},"district":{"key":"09779","name":"Donau-Ries","type":"Landkreis"},"federalState":{"key":"09","name":"Bayern"}},{"name":"Gunzenheimer Str.","postalCode":"86655","locality":"Harburg (Schwaben)","municipality":{"key":"09779155","name":"Harburg (Schwaben), St","type":"Stadt"},"district":{"key":"09779","name":"Donau-Ries","type":"Landkreis"},"federalState":{"key":"09","name":"Bayern"}},{"name":"Hainholzweg","postalCode":"21376","locality":"Garlstorf","municipality":{"key":"03353011","name":"Garlstorf","type":"Kreisangehörige_Gemeinde"},"district":{"key":"03353","name":"Harburg","type":"Landkreis"},"federalState":{"key":"03","name":"Niedersachsen"}},{"name":"Hansau","postalCode":"21376","locality":"Garlstorf","municipality":{"key":"03353011","name":"Garlstorf","type":"Kreisangehörige_Gemeinde"},"district":{"key":"03353","name":"Harburg","type":"Landkreis"},"federalState":{"key":"03","name":"Niedersachsen"}},{"name":"Hanstedter Landstr.","postalCode":"21376","locality":"Garlstorf","municipality":{"key":"03353011","name":"Garlstorf","type":"Kreisangehörige_Gemeinde"},"district":{"key":"03353","name":"Harburg","type":"Landkreis"},"federalState":{"key":"03","name":"Niedersachsen"}},{"name":"Hesterring","postalCode":"21376","locality":"Garlstorf","municipality":{"key":"03353011","name":"Garlstorf","type":"Kreisangehörige_Gemeinde"},"district":{"key":"03353","name":"Harburg","type":"Landkreis"},"federalState":{"key":"03","name":"Niedersachsen"}},{"name":"Im Dorfe","postalCode":"21376","locality":"Garlstorf","municipality":{"key":"03353011","name":"Garlstorf","type":"Kreisangehörige_Gemeinde"},"district":{"key":"03353","name":"Harburg","type":"Landkreis"},"federalState":{"key":"03","name":"Niedersachsen"}},{"name":"Im Obsthof","postalCode":"21376","locality":"Garlstorf","municipality":{"key":"03353011","name":"Garlstorf","type":"Kreisangehörige_Gemeinde"},"district":{"key":"03353","name":"Harburg","type":"Landkreis"},"federalState":{"key":"03","name":"Niedersachsen"}},{"name":"Im Winkel","postalCode":"21376","locality":"Garlstorf","municipality":{"key":"03353011","name":"Garlstorf","type":"Kreisangehörige_Gemeinde"},"district":{"key":"03353","name":"Harburg","type":"Landkreis"},"federalState":{"key":"03","name":"Niedersachsen"}},{"name":"Judengasse","postalCode":"86655","locality":"Harburg (Schwaben)","municipality":{"key":"09779155","name":"Harburg (Schwaben), St","type":"Stadt"},"district":{"key":"09779","name":"Donau-Ries","type":"Landkreis"},"federalState":{"key":"09","name":"Bayern"}},{"name":"Jurastr.","postalCode":"86655","locality":"Harburg (Schwaben)","municipality":{"key":"09779155","name":"Harburg (Schwaben), St","type":"Stadt"},"district":{"key":"09779","name":"Donau-Ries","type":"Landkreis"},"federalState":{"key":"09","name":"Bayern"}},{"name":"Kalbelweg","postalCode":"86655","locality":"Harburg (Schwaben)","municipality":{"key":"09779155","name":"Harburg (Schwaben), St","type":"Stadt"},"district":{"key":"09779","name":"Donau-Ries","type":"Landkreis"},"federalState":{"key":"09","name":"Bayern"}},{"name":"Kantstr.","postalCode":"86655","locality":"Harburg (Schwaben)","municipality":{"key":"09779155","name":"Harburg (Schwaben), St","type":"Stadt"},"district":{"key":"09779","name":"Donau-Ries","type":"Landkreis"},"federalState":{"key":"09","name":"Bayern"}},{"name":"Katzenstein","postalCode":"86655","locality":"Harburg (Schwaben)","municipality":{"key":"09779155","name":"Harburg (Schwaben), St","type":"Stadt"},"district":{"key":"09779","name":"Donau-Ries","type":"Landkreis"},"federalState":{"key":"09","name":"Bayern"}},{"name":"Keltenstr.","postalCode":"86655","locality":"Harburg (Schwaben)","municipality":{"key":"09779155","name":"Harburg (Schwaben), St","type":"Stadt"},"district":{"key":"09779","name":"Donau-Ries","type":"Landkreis"},"federalState":{"key":"09","name":"Bayern"}},{"name":"Kiesgrube","postalCode":"86655","locality":"Harburg (Schwaben)","municipality":{"key":"09779155","name":"Harburg (Schwaben), St","type":"Stadt"},"district":{"key":"09779","name":"Donau-Ries","type":"Landkreis"},"federalState":{"key":"09","name":"Bayern"}},{"name":"Kirchenberg","postalCode":"86655","locality":"Harburg (Schwaben)","municipality":{"key":"09779155","name":"Harburg (Schwaben), St","type":"Stadt"},"district":{"key":"09779","name":"Donau-Ries","type":"Landkreis"},"federalState":{"key":"09","name":"Bayern"}},{"name":"Kirchenweg","postalCode":"86655","locality":"Harburg (Schwaben)","municipality":{"key":"09779155","name":"Harburg (Schwaben), St","type":"Stadt"},"district":{"key":"09779","name":"Donau-Ries","type":"Landkreis"},"federalState":{"key":"09","name":"Bayern"}},{"name":"Kirchgässle","postalCode":"86655","locality":"Harburg (Schwaben)","municipality":{"key":"09779155","name":"Harburg (Schwaben), St","type":"Stadt"},"district":{"key":"09779","name":"Donau-Ries","type":"Landkreis"},"federalState":{"key":"09","name":"Bayern"}},{"name":"Kleiststr.","postalCode":"86655","locality":"Harburg (Schwaben)","municipality":{"key":"09779155","name":"Harburg (Schwaben), St","type":"Stadt"},"district":{"key":"09779","name":"Donau-Ries","type":"Landkreis"},"federalState":{"key":"09","name":"Bayern"}},{"name":"Kratzhof","postalCode":"86655","locality":"Harburg (Schwaben)","municipality":{"key":"09779155","name":"Harburg (Schwaben), St","type":"Stadt"},"district":{"key":"09779","name":"Donau-Ries","type":"Landkreis"},"federalState":{"key":"09","name":"Bayern"}},{"name":"Krautgarten","postalCode":"86655","locality":"Harburg (Schwaben)","municipality":{"key":"09779155","name":"Harburg (Schwaben), St","type":"Stadt"},"district":{"key":"09779","name":"Donau-Ries","type":"Landkreis"},"federalState":{"key":"09","name":"Bayern"}},{"name":"Kreuzgasse","postalCode":"86655","locality":"Harburg (Schwaben)","municipality":{"key":"09779155","name":"Harburg (Schwaben), St","type":"Stadt"},"district":{"key":"09779","name":"Donau-Ries","type":"Landkreis"},"federalState":{"key":"09","name":"Bayern"}},{"name":"Kuppenweg","postalCode":"86655","locality":"Harburg (Schwaben)","municipality":{"key":"09779155","name":"Harburg (Schwaben), St","type":"Stadt"},"district":{"key":"09779","name":"Donau-Ries","type":"Landkreis"},"federalState":{"key":"09","name":"Bayern"}},{"name":"Lange Worth","postalCode":"21376","locality":"Garlstorf","municipality":{"key":"03353011","name":"Garlstorf","type":"Kreisangehörige_Gemeinde"},"district":{"key":"03353","name":"Harburg","type":"Landkreis"},"federalState":{"key":"03","name":"Niedersachsen"}},{"name":"Lüneburger Landstr.","postalCode":"21376","locality":"Garlstorf","municipality":{"key":"03353011","name":"Garlstorf","type":"Kreisangehörige_Gemeinde"},"district":{"key":"03353","name":"Harburg","type":"Landkreis"},"federalState":{"key":"03","name":"Niedersachsen"}},{"name":"Meierhof","postalCode":"21376","locality":"Garlstorf","municipality":{"key":"03353011","name":"Garlstorf","type":"Kreisangehörige_Gemeinde"},"district":{"key":"03353","name":"Harburg","type":"Landkreis"},"federalState":{"key":"03","name":"Niedersachsen"}},{"name":"Morandweg","postalCode":"21376","locality":"Garlstorf","municipality":{"key":"03353011","name":"Garlstorf","type":"Kreisangehörige_Gemeinde"},"district":{"key":"03353","name":"Harburg","type":"Landkreis"},"federalState":{"key":"03","name":"Niedersachsen"}},{"name":"Mühlenweg","postalCode":"21376","locality":"Garlstorf","municipality":{"key":"03353011","name":"Garlstorf","type":"Kreisangehörige_Gemeinde"},"district":{"key":"03353","name":"Harburg","type":"Landkreis"},"federalState":{"key":"03","name":"Niedersachsen"}},{"name":"Nördlinger Str.","postalCode":"86655","locality":"Harburg (Schwaben)","municipality":{"key":"09779155","name":"Harburg (Schwaben), St","type":"Stadt"},"district":{"key":"09779","name":"Donau-Ries","type":"Landkreis"},"federalState":{"key":"09","name":"Bayern"}},{"name":"Oheweg","postalCode":"21376","locality":"Garlstorf","municipality":{"key":"03353011","name":"Garlstorf","type":"Kreisangehörige_Gemeinde"},"district":{"key":"03353","name":"Harburg","type":"Landkreis"},"federalState":{"key":"03","name":"Niedersachsen"}},{"name":"Pfarrgasse","postalCode":"86655","locality":"Harburg (Schwaben)","municipality":{"key":"09779155","name":"Harburg (Schwaben), St","type":"Stadt"},"district":{"key":"09779","name":"Donau-Ries","type":"Landkreis"},"federalState":{"key":"09","name":"Bayern"}},{"name":"Putzgässle","postalCode":"86655","locality":"Harburg (Schwaben)","municipality":{"key":"09779155","name":"Harburg (Schwaben), St","type":"Stadt"},"district":{"key":"09779","name":"Donau-Ries","type":"Landkreis"},"federalState":{"key":"09","name":"Bayern"}},{"name":"Raiffeisenstr.","postalCode":"86655","locality":"Harburg (Schwaben)","municipality":{"key":"09779155","name":"Harburg (Schwaben), St","type":"Stadt"},"district":{"key":"09779","name":"Donau-Ries","type":"Landkreis"},"federalState":{"key":"09","name":"Bayern"}},{"name":"Reisbachweg","postalCode":"86655","locality":"Harburg (Schwaben)","municipality":{"key":"09779155","name":"Harburg (Schwaben), St","type":"Stadt"},"district":{"key":"09779","name":"Donau-Ries","type":"Landkreis"},"federalState":{"key":"09","name":"Bayern"}},{"name":"Reismühlenweg","postalCode":"86655","locality":"Harburg (Schwaben)","municipality":{"key":"09779155","name":"Harburg (Schwaben), St","type":"Stadt"},"district":{"key":"09779","name":"Donau-Ries","type":"Landkreis"},"federalState":{"key":"09","name":"Bayern"}},{"name":"Riedgasse","postalCode":"86655","locality":"Harburg (Schwaben)","municipality":{"key":"09779155","name":"Harburg (Schwaben), St","type":"Stadt"},"district":{"key":"09779","name":"Donau-Ries","type":"Landkreis"},"federalState":{"key":"09","name":"Bayern"}},{"name":"Ringstr.","postalCode":"86655","locality":"Harburg (Schwaben)","municipality":{"key":"09779155","name":"Harburg (Schwaben), St","type":"Stadt"},"district":{"key":"09779","name":"Donau-Ries","type":"Landkreis"},"federalState":{"key":"09","name":"Bayern"}},{"name":"Rollenbergring","postalCode":"86655","locality":"Harburg (Schwaben)","municipality":{"key":"09779155","name":"Harburg (Schwaben), St","type":"Stadt"},"district":{"key":"09779","name":"Donau-Ries","type":"Landkreis"},"federalState":{"key":"09","name":"Bayern"}},{"name":"Römerhof","postalCode":"86655","locality":"Harburg (Schwaben)","municipality":{"key":"09779155","name":"Harburg (Schwaben), St","type":"Stadt"},"district":{"key":"09779","name":"Donau-Ries","type":"Landkreis"},"federalState":{"key":"09","name":"Bayern"}},{"name":"Römerstr.","postalCode":"86655","locality":"Harburg (Schwaben)","municipality":{"key":"09779155","name":"Harburg (Schwaben), St","type":"Stadt"},"district":{"key":"09779","name":"Donau-Ries","type":"Landkreis"},"federalState":{"key":"09","name":"Bayern"}},{"name":"Ronheim","postalCode":"86655","locality":"Harburg (Schwaben)","municipality":{"key":"09779155","name":"Harburg (Schwaben), St","type":"Stadt"},"district":{"key":"09779","name":"Donau-Ries","type":"Landkreis"},"federalState":{"key":"09","name":"Bayern"}},{"name":"Ronheimer Weg","postalCode":"86655","locality":"Harburg (Schwaben)","municipality":{"key":"09779155","name":"Harburg (Schwaben), St","type":"Stadt"},"district":{"key":"09779","name":"Donau-Ries","type":"Landkreis"},"federalState":{"key":"09","name":"Bayern"}},{"name":"Rothenfeld","postalCode":"86655","locality":"Harburg (Schwaben)","municipality":{"key":"09779155","name":"Harburg (Schwaben), St","type":"Stadt"},"district":{"key":"09779","name":"Donau-Ries","type":"Landkreis"},"federalState":{"key":"09","name":"Bayern"}},{"name":"Schacks Twieten","postalCode":"21376","locality":"Garlstorf","municipality":{"key":"03353011","name":"Garlstorf","type":"Kreisangehörige_Gemeinde"},"district":{"key":"03353","name":"Harburg","type":"Landkreis"},"federalState":{"key":"03","name":"Niedersachsen"}},{"name":"Siems Twieten","postalCode":"21376","locality":"Garlstorf","municipality":{"key":"03353011","name":"Garlstorf","type":"Kreisangehörige_Gemeinde"},"district":{"key":"03353","name":"Harburg","type":"Landkreis"},"federalState":{"key":"03","name":"Niedersachsen"}},{"name":"Uhlandstr.","postalCode":"86655","locality":"Harburg (Schwaben)","municipality":{"key":"09779155","name":"Harburg (Schwaben), St","type":"Stadt"},"district":{"key":"09779","name":"Donau-Ries","type":"Landkreis"},"federalState":{"key":"09","name":"Bayern"}},{"name":"Untere Breige","postalCode":"86655","locality":"Harburg (Schwaben)","municipality":{"key":"09779155","name":"Harburg (Schwaben), St","type":"Stadt"},"district":{"key":"09779","name":"Donau-Ries","type":"Landkreis"},"federalState":{"key":"09","name":"Bayern"}},{"name":"Unterer Leitenberg","postalCode":"86655","locality":"Harburg (Schwaben)","municipality":{"key":"09779155","name":"Harburg (Schwaben), St","type":"Stadt"},"district":{"key":"09779","name":"Donau-Ries","type":"Landkreis"},"federalState":{"key":"09","name":"Bayern"}},{"name":"Untere Wiedenäcker","postalCode":"86655","locality":"Harburg (Schwaben)","municipality":{"key":"09779155","name":"Harburg (Schwaben), St","type":"Stadt"},"district":{"key":"09779","name":"Donau-Ries","type":"Landkreis"},"federalState":{"key":"09","name":"Bayern"}},{"name":"Winsener Landstr.","postalCode":"21376","locality":"Garlstorf","municipality":{"key":"03353011","name":"Garlstorf","type":"Kreisangehörige_Gemeinde"},"district":{"key":"03353","name":"Harburg","type":"Landkreis"},"federalState":{"key":"03","name":"Niedersachsen"}},{"name":"Zum Töterberg","postalCode":"21376","locality":"Garlstorf","municipality":{"key":"03353011","name":"Garlstorf","type":"Kreisangehörige_Gemeinde"},"district":{"key":"03353","name":"Harburg","type":"Landkreis"},"federalState":{"key":"03","name":"Niedersachsen"}},{"name":"Zur Osterheide","postalCode":"21376","locality":"Garlstorf","municipality":{"key":"03353011","name":"Garlstorf","type":"Kreisangehörige_Gemeinde"},"district":{"key":"03353","name":"Harburg","type":"Landkreis"},"federalState":{"key":"03","name":"Niedersachsen"}},{"name":"Zur Pinnekuhle","postalCode":"21376","locality":"Garlstorf","municipality":{"key":"03353011","name":"Garlstorf","type":"Kreisangehörige_Gemeinde"},"district":{"key":"03353","name":"Harburg","type":"Landkreis"},"federalState":{"key":"03","name":"Niedersachsen"}},]