[{"name":"464","postalCode":"83483","locality":"Bischofswiesen","municipality":{"key":"09172117","name":"Bischofswiesen","type":"Kreisangehörige_Gemeinde"},"district":{"key":"09172","name":"Berchtesgadener Land","type":"Landkreis"},"federalState":{"key":"09","name":"Bayern"}},{"name":"Adalbert-Stifter-Str.","postalCode":"83483","locality":"Bischofswiesen","municipality":{"key":"09172117","name":"Bischofswiesen","type":"Kreisangehörige_Gemeinde"},"district":{"key":"09172","name":"Berchtesgadener Land","type":"Landkreis"},"federalState":{"key":"09","name":"Bayern"}},{"name":"Am Anger","postalCode":"83483","locality":"Bischofswiesen","municipality":{"key":"09172117","name":"Bischofswiesen","type":"Kreisangehörige_Gemeinde"},"district":{"key":"09172","name":"Berchtesgadener Land","type":"Landkreis"},"federalState":{"key":"09","name":"Bayern"}},{"name":"Am Bahnhof","postalCode":"83483","locality":"Bischofswiesen","municipality":{"key":"09172117","name":"Bischofswiesen","type":"Kreisangehörige_Gemeinde"},"district":{"key":"09172","name":"Berchtesgadener Land","type":"Landkreis"},"federalState":{"key":"09","name":"Bayern"}},{"name":"Am Bärngraben","postalCode":"83483","locality":"Bischofswiesen","municipality":{"key":"09172117","name":"Bischofswiesen","type":"Kreisangehörige_Gemeinde"},"district":{"key":"09172","name":"Berchtesgadener Land","type":"Landkreis"},"federalState":{"key":"09","name":"Bayern"}},{"name":"Am Bichlberg","postalCode":"83483","locality":"Bischofswiesen","municipality":{"key":"09172117","name":"Bischofswiesen","type":"Kreisangehörige_Gemeinde"},"district":{"key":"09172","name":"Berchtesgadener Land","type":"Landkreis"},"federalState":{"key":"09","name":"Bayern"}},{"name":"Am Bichlgraben","postalCode":"83483","locality":"Bischofswiesen","municipality":{"key":"09172117","name":"Bischofswiesen","type":"Kreisangehörige_Gemeinde"},"district":{"key":"09172","name":"Berchtesgadener Land","type":"Landkreis"},"federalState":{"key":"09","name":"Bayern"}},{"name":"Am Burgergraben","postalCode":"83483","locality":"Bischofswiesen","municipality":{"key":"09172117","name":"Bischofswiesen","type":"Kreisangehörige_Gemeinde"},"district":{"key":"09172","name":"Berchtesgadener Land","type":"Landkreis"},"federalState":{"key":"09","name":"Bayern"}},{"name":"Am Datzmann","postalCode":"83483","locality":"Bischofswiesen","municipality":{"key":"09172117","name":"Bischofswiesen","type":"Kreisangehörige_Gemeinde"},"district":{"key":"09172","name":"Berchtesgadener Land","type":"Landkreis"},"federalState":{"key":"09","name":"Bayern"}},{"name":"Am Hillebrand","postalCode":"83483","locality":"Bischofswiesen","municipality":{"key":"09172117","name":"Bischofswiesen","type":"Kreisangehörige_Gemeinde"},"district":{"key":"09172","name":"Berchtesgadener Land","type":"Landkreis"},"federalState":{"key":"09","name":"Bayern"}},{"name":"Am Mauerbichl","postalCode":"83483","locality":"Bischofswiesen","municipality":{"key":"09172117","name":"Bischofswiesen","type":"Kreisangehörige_Gemeinde"},"district":{"key":"09172","name":"Berchtesgadener Land","type":"Landkreis"},"federalState":{"key":"09","name":"Bayern"}},{"name":"Am Meislgraben","postalCode":"83483","locality":"Bischofswiesen","municipality":{"key":"09172117","name":"Bischofswiesen","type":"Kreisangehörige_Gemeinde"},"district":{"key":"09172","name":"Berchtesgadener Land","type":"Landkreis"},"federalState":{"key":"09","name":"Bayern"}},{"name":"Am Schießplatz","postalCode":"83483","locality":"Bischofswiesen","municipality":{"key":"09172117","name":"Bischofswiesen","type":"Kreisangehörige_Gemeinde"},"district":{"key":"09172","name":"Berchtesgadener Land","type":"Landkreis"},"federalState":{"key":"09","name":"Bayern"}},{"name":"Am Unterholz","postalCode":"83483","locality":"Bischofswiesen","municipality":{"key":"09172117","name":"Bischofswiesen","type":"Kreisangehörige_Gemeinde"},"district":{"key":"09172","name":"Berchtesgadener Land","type":"Landkreis"},"federalState":{"key":"09","name":"Bayern"}},{"name":"Am Wegscheid","postalCode":"83483","locality":"Bischofswiesen","municipality":{"key":"09172117","name":"Bischofswiesen","type":"Kreisangehörige_Gemeinde"},"district":{"key":"09172","name":"Berchtesgadener Land","type":"Landkreis"},"federalState":{"key":"09","name":"Bayern"}},{"name":"An der Ache","postalCode":"83483","locality":"Bischofswiesen","municipality":{"key":"09172117","name":"Bischofswiesen","type":"Kreisangehörige_Gemeinde"},"district":{"key":"09172","name":"Berchtesgadener Land","type":"Landkreis"},"federalState":{"key":"09","name":"Bayern"}},{"name":"Andreas-Fendt-Ring","postalCode":"83483","locality":"Bischofswiesen","municipality":{"key":"09172117","name":"Bischofswiesen","type":"Kreisangehörige_Gemeinde"},"district":{"key":"09172","name":"Berchtesgadener Land","type":"Landkreis"},"federalState":{"key":"09","name":"Bayern"}},{"name":"Anton-Günther-Str.","postalCode":"83483","locality":"Bischofswiesen","municipality":{"key":"09172117","name":"Bischofswiesen","type":"Kreisangehörige_Gemeinde"},"district":{"key":"09172","name":"Berchtesgadener Land","type":"Landkreis"},"federalState":{"key":"09","name":"Bayern"}},{"name":"Aschauerweiherstr.","postalCode":"83483","locality":"Bischofswiesen","municipality":{"key":"09172117","name":"Bischofswiesen","type":"Kreisangehörige_Gemeinde"},"district":{"key":"09172","name":"Berchtesgadener Land","type":"Landkreis"},"federalState":{"key":"09","name":"Bayern"}},{"name":"Aschauweg","postalCode":"83483","locality":"Bischofswiesen","municipality":{"key":"09172117","name":"Bischofswiesen","type":"Kreisangehörige_Gemeinde"},"district":{"key":"09172","name":"Berchtesgadener Land","type":"Landkreis"},"federalState":{"key":"09","name":"Bayern"}},{"name":"Bachingerweg","postalCode":"83483","locality":"Bischofswiesen","municipality":{"key":"09172117","name":"Bischofswiesen","type":"Kreisangehörige_Gemeinde"},"district":{"key":"09172","name":"Berchtesgadener Land","type":"Landkreis"},"federalState":{"key":"09","name":"Bayern"}},{"name":"Bachmannweg","postalCode":"83483","locality":"Bischofswiesen","municipality":{"key":"09172117","name":"Bischofswiesen","type":"Kreisangehörige_Gemeinde"},"district":{"key":"09172","name":"Berchtesgadener Land","type":"Landkreis"},"federalState":{"key":"09","name":"Bayern"}},{"name":"Baderlehenkopf","postalCode":"83483","locality":"Bischofswiesen","municipality":{"key":"09172117","name":"Bischofswiesen","type":"Kreisangehörige_Gemeinde"},"district":{"key":"09172","name":"Berchtesgadener Land","type":"Landkreis"},"federalState":{"key":"09","name":"Bayern"}},{"name":"Baderlehenweg","postalCode":"83483","locality":"Bischofswiesen","municipality":{"key":"09172117","name":"Bischofswiesen","type":"Kreisangehörige_Gemeinde"},"district":{"key":"09172","name":"Berchtesgadener Land","type":"Landkreis"},"federalState":{"key":"09","name":"Bayern"}},{"name":"Beim Eisenrichter","postalCode":"83483","locality":"Bischofswiesen","municipality":{"key":"09172117","name":"Bischofswiesen","type":"Kreisangehörige_Gemeinde"},"district":{"key":"09172","name":"Berchtesgadener Land","type":"Landkreis"},"federalState":{"key":"09","name":"Bayern"}},{"name":"Berchtesgadener Str.","postalCode":"83483","locality":"Bischofswiesen","municipality":{"key":"09172117","name":"Bischofswiesen","type":"Kreisangehörige_Gemeinde"},"district":{"key":"09172","name":"Berchtesgadener Land","type":"Landkreis"},"federalState":{"key":"09","name":"Bayern"}},{"name":"Böcklweiherstr.","postalCode":"83483","locality":"Bischofswiesen","municipality":{"key":"09172117","name":"Bischofswiesen","type":"Kreisangehörige_Gemeinde"},"district":{"key":"09172","name":"Berchtesgadener Land","type":"Landkreis"},"federalState":{"key":"09","name":"Bayern"}},{"name":"Bognerweg","postalCode":"83483","locality":"Bischofswiesen","municipality":{"key":"09172117","name":"Bischofswiesen","type":"Kreisangehörige_Gemeinde"},"district":{"key":"09172","name":"Berchtesgadener Land","type":"Landkreis"},"federalState":{"key":"09","name":"Bayern"}},{"name":"Brennerpoint","postalCode":"83483","locality":"Bischofswiesen","municipality":{"key":"09172117","name":"Bischofswiesen","type":"Kreisangehörige_Gemeinde"},"district":{"key":"09172","name":"Berchtesgadener Land","type":"Landkreis"},"federalState":{"key":"09","name":"Bayern"}},{"name":"Brenner Steg","postalCode":"83483","locality":"Bischofswiesen","municipality":{"key":"09172117","name":"Bischofswiesen","type":"Kreisangehörige_Gemeinde"},"district":{"key":"09172","name":"Berchtesgadener Land","type":"Landkreis"},"federalState":{"key":"09","name":"Bayern"}},{"name":"Dachlmoosweg","postalCode":"83483","locality":"Bischofswiesen","municipality":{"key":"09172117","name":"Bischofswiesen","type":"Kreisangehörige_Gemeinde"},"district":{"key":"09172","name":"Berchtesgadener Land","type":"Landkreis"},"federalState":{"key":"09","name":"Bayern"}},{"name":"Dr.-Elschner-Str.","postalCode":"83483","locality":"Bischofswiesen","municipality":{"key":"09172117","name":"Bischofswiesen","type":"Kreisangehörige_Gemeinde"},"district":{"key":"09172","name":"Berchtesgadener Land","type":"Landkreis"},"federalState":{"key":"09","name":"Bayern"}},{"name":"Drückerboden","postalCode":"83483","locality":"Bischofswiesen","municipality":{"key":"09172117","name":"Bischofswiesen","type":"Kreisangehörige_Gemeinde"},"district":{"key":"09172","name":"Berchtesgadener Land","type":"Landkreis"},"federalState":{"key":"09","name":"Bayern"}},{"name":"Duftberg","postalCode":"83483","locality":"Bischofswiesen","municipality":{"key":"09172117","name":"Bischofswiesen","type":"Kreisangehörige_Gemeinde"},"district":{"key":"09172","name":"Berchtesgadener Land","type":"Landkreis"},"federalState":{"key":"09","name":"Bayern"}},{"name":"Egglerpoint","postalCode":"83483","locality":"Bischofswiesen","municipality":{"key":"09172117","name":"Bischofswiesen","type":"Kreisangehörige_Gemeinde"},"district":{"key":"09172","name":"Berchtesgadener Land","type":"Landkreis"},"federalState":{"key":"09","name":"Bayern"}},{"name":"Eisenrichterberg","postalCode":"83483","locality":"Bischofswiesen","municipality":{"key":"09172117","name":"Bischofswiesen","type":"Kreisangehörige_Gemeinde"},"district":{"key":"09172","name":"Berchtesgadener Land","type":"Landkreis"},"federalState":{"key":"09","name":"Bayern"}},{"name":"Erbmühlenweg","postalCode":"83483","locality":"Bischofswiesen","municipality":{"key":"09172117","name":"Bischofswiesen","type":"Kreisangehörige_Gemeinde"},"district":{"key":"09172","name":"Berchtesgadener Land","type":"Landkreis"},"federalState":{"key":"09","name":"Bayern"}},{"name":"Erlenweg","postalCode":"83483","locality":"Bischofswiesen","municipality":{"key":"09172117","name":"Bischofswiesen","type":"Kreisangehörige_Gemeinde"},"district":{"key":"09172","name":"Berchtesgadener Land","type":"Landkreis"},"federalState":{"key":"09","name":"Bayern"}},{"name":"Färberwinkl","postalCode":"83483","locality":"Bischofswiesen","municipality":{"key":"09172117","name":"Bischofswiesen","type":"Kreisangehörige_Gemeinde"},"district":{"key":"09172","name":"Berchtesgadener Land","type":"Landkreis"},"federalState":{"key":"09","name":"Bayern"}},{"name":"Ferdinand-Porsche-Str.","postalCode":"83483","locality":"Bischofswiesen","municipality":{"key":"09172117","name":"Bischofswiesen","type":"Kreisangehörige_Gemeinde"},"district":{"key":"09172","name":"Berchtesgadener Land","type":"Landkreis"},"federalState":{"key":"09","name":"Bayern"}},{"name":"Franz-Geiger-Str.","postalCode":"83483","locality":"Bischofswiesen","municipality":{"key":"09172117","name":"Bischofswiesen","type":"Kreisangehörige_Gemeinde"},"district":{"key":"09172","name":"Berchtesgadener Land","type":"Landkreis"},"federalState":{"key":"09","name":"Bayern"}},{"name":"Franz-Maltan-Str.","postalCode":"83483","locality":"Bischofswiesen","municipality":{"key":"09172117","name":"Bischofswiesen","type":"Kreisangehörige_Gemeinde"},"district":{"key":"09172","name":"Berchtesgadener Land","type":"Landkreis"},"federalState":{"key":"09","name":"Bayern"}},{"name":"Frechenklausbachbrücke","postalCode":"83483","locality":"Bischofswiesen","municipality":{"key":"09172117","name":"Bischofswiesen","type":"Kreisangehörige_Gemeinde"},"district":{"key":"09172","name":"Berchtesgadener Land","type":"Landkreis"},"federalState":{"key":"09","name":"Bayern"}},{"name":"Fronwiese","postalCode":"83483","locality":"Bischofswiesen","municipality":{"key":"09172117","name":"Bischofswiesen","type":"Kreisangehörige_Gemeinde"},"district":{"key":"09172","name":"Berchtesgadener Land","type":"Landkreis"},"federalState":{"key":"09","name":"Bayern"}},{"name":"Gebirgsjägerstr.","postalCode":"83483","locality":"Bischofswiesen","municipality":{"key":"09172117","name":"Bischofswiesen","type":"Kreisangehörige_Gemeinde"},"district":{"key":"09172","name":"Berchtesgadener Land","type":"Landkreis"},"federalState":{"key":"09","name":"Bayern"}},{"name":"Georg-Oeggl-Str.","postalCode":"83483","locality":"Bischofswiesen","municipality":{"key":"09172117","name":"Bischofswiesen","type":"Kreisangehörige_Gemeinde"},"district":{"key":"09172","name":"Berchtesgadener Land","type":"Landkreis"},"federalState":{"key":"09","name":"Bayern"}},{"name":"Gerhart-Hauptmann-Str.","postalCode":"83483","locality":"Bischofswiesen","municipality":{"key":"09172117","name":"Bischofswiesen","type":"Kreisangehörige_Gemeinde"},"district":{"key":"09172","name":"Berchtesgadener Land","type":"Landkreis"},"federalState":{"key":"09","name":"Bayern"}},{"name":"Gmundberg","postalCode":"83483","locality":"Bischofswiesen","municipality":{"key":"09172117","name":"Bischofswiesen","type":"Kreisangehörige_Gemeinde"},"district":{"key":"09172","name":"Berchtesgadener Land","type":"Landkreis"},"federalState":{"key":"09","name":"Bayern"}},{"name":"Göllstr.","postalCode":"83483","locality":"Bischofswiesen","municipality":{"key":"09172117","name":"Bischofswiesen","type":"Kreisangehörige_Gemeinde"},"district":{"key":"09172","name":"Berchtesgadener Land","type":"Landkreis"},"federalState":{"key":"09","name":"Bayern"}},{"name":"Götschenweg","postalCode":"83483","locality":"Bischofswiesen","municipality":{"key":"09172117","name":"Bischofswiesen","type":"Kreisangehörige_Gemeinde"},"district":{"key":"09172","name":"Berchtesgadener Land","type":"Landkreis"},"federalState":{"key":"09","name":"Bayern"}},{"name":"Grabenweg","postalCode":"83483","locality":"Bischofswiesen","municipality":{"key":"09172117","name":"Bischofswiesen","type":"Kreisangehörige_Gemeinde"},"district":{"key":"09172","name":"Berchtesgadener Land","type":"Landkreis"},"federalState":{"key":"09","name":"Bayern"}},{"name":"Gregor-Mendel-Str.","postalCode":"83483","locality":"Bischofswiesen","municipality":{"key":"09172117","name":"Bischofswiesen","type":"Kreisangehörige_Gemeinde"},"district":{"key":"09172","name":"Berchtesgadener Land","type":"Landkreis"},"federalState":{"key":"09","name":"Bayern"}},{"name":"Hagelweide","postalCode":"83483","locality":"Bischofswiesen","municipality":{"key":"09172117","name":"Bischofswiesen","type":"Kreisangehörige_Gemeinde"},"district":{"key":"09172","name":"Berchtesgadener Land","type":"Landkreis"},"federalState":{"key":"09","name":"Bayern"}},{"name":"Hallthurmer Moos","postalCode":"83483","locality":"Bischofswiesen","municipality":{"key":"09172117","name":"Bischofswiesen","type":"Kreisangehörige_Gemeinde"},"district":{"key":"09172","name":"Berchtesgadener Land","type":"Landkreis"},"federalState":{"key":"09","name":"Bayern"}},{"name":"Hans-Kudlich-Str.","postalCode":"83483","locality":"Bischofswiesen","municipality":{"key":"09172117","name":"Bischofswiesen","type":"Kreisangehörige_Gemeinde"},"district":{"key":"09172","name":"Berchtesgadener Land","type":"Landkreis"},"federalState":{"key":"09","name":"Bayern"}},{"name":"Hauptstr.","postalCode":"83483","locality":"Bischofswiesen","municipality":{"key":"09172117","name":"Bischofswiesen","type":"Kreisangehörige_Gemeinde"},"district":{"key":"09172","name":"Berchtesgadener Land","type":"Landkreis"},"federalState":{"key":"09","name":"Bayern"}},{"name":"Hinterau","postalCode":"83483","locality":"Bischofswiesen","municipality":{"key":"09172117","name":"Bischofswiesen","type":"Kreisangehörige_Gemeinde"},"district":{"key":"09172","name":"Berchtesgadener Land","type":"Landkreis"},"federalState":{"key":"09","name":"Bayern"}},{"name":"Hochgartdörfl","postalCode":"83483","locality":"Bischofswiesen","municipality":{"key":"09172117","name":"Bischofswiesen","type":"Kreisangehörige_Gemeinde"},"district":{"key":"09172","name":"Berchtesgadener Land","type":"Landkreis"},"federalState":{"key":"09","name":"Bayern"}},{"name":"Hochkalterstr.","postalCode":"83483","locality":"Bischofswiesen","municipality":{"key":"09172117","name":"Bischofswiesen","type":"Kreisangehörige_Gemeinde"},"district":{"key":"09172","name":"Berchtesgadener Land","type":"Landkreis"},"federalState":{"key":"09","name":"Bayern"}},{"name":"Hochmoorweg","postalCode":"83483","locality":"Bischofswiesen","municipality":{"key":"09172117","name":"Bischofswiesen","type":"Kreisangehörige_Gemeinde"},"district":{"key":"09172","name":"Berchtesgadener Land","type":"Landkreis"},"federalState":{"key":"09","name":"Bayern"}},{"name":"Hohlgraben","postalCode":"83483","locality":"Bischofswiesen","municipality":{"key":"09172117","name":"Bischofswiesen","type":"Kreisangehörige_Gemeinde"},"district":{"key":"09172","name":"Berchtesgadener Land","type":"Landkreis"},"federalState":{"key":"09","name":"Bayern"}},{"name":"Holzstubenweg","postalCode":"83483","locality":"Bischofswiesen","municipality":{"key":"09172117","name":"Bischofswiesen","type":"Kreisangehörige_Gemeinde"},"district":{"key":"09172","name":"Berchtesgadener Land","type":"Landkreis"},"federalState":{"key":"09","name":"Bayern"}},{"name":"Im Rostwald","postalCode":"83483","locality":"Bischofswiesen","municipality":{"key":"09172117","name":"Bischofswiesen","type":"Kreisangehörige_Gemeinde"},"district":{"key":"09172","name":"Berchtesgadener Land","type":"Landkreis"},"federalState":{"key":"09","name":"Bayern"}},{"name":"Im Stangenwald","postalCode":"83483","locality":"Bischofswiesen","municipality":{"key":"09172117","name":"Bischofswiesen","type":"Kreisangehörige_Gemeinde"},"district":{"key":"09172","name":"Berchtesgadener Land","type":"Landkreis"},"federalState":{"key":"09","name":"Bayern"}},{"name":"Insulaweg","postalCode":"83483","locality":"Bischofswiesen","municipality":{"key":"09172117","name":"Bischofswiesen","type":"Kreisangehörige_Gemeinde"},"district":{"key":"09172","name":"Berchtesgadener Land","type":"Landkreis"},"federalState":{"key":"09","name":"Bayern"}},{"name":"Jennerweg","postalCode":"83483","locality":"Bischofswiesen","municipality":{"key":"09172117","name":"Bischofswiesen","type":"Kreisangehörige_Gemeinde"},"district":{"key":"09172","name":"Berchtesgadener Land","type":"Landkreis"},"federalState":{"key":"09","name":"Bayern"}},{"name":"Josef-Ressel-Str.","postalCode":"83483","locality":"Bischofswiesen","municipality":{"key":"09172117","name":"Bischofswiesen","type":"Kreisangehörige_Gemeinde"},"district":{"key":"09172","name":"Berchtesgadener Land","type":"Landkreis"},"federalState":{"key":"09","name":"Bayern"}},{"name":"Kälbersteinstr.","postalCode":"83483","locality":"Bischofswiesen","municipality":{"key":"09172117","name":"Bischofswiesen","type":"Kreisangehörige_Gemeinde"},"district":{"key":"09172","name":"Berchtesgadener Land","type":"Landkreis"},"federalState":{"key":"09","name":"Bayern"}},{"name":"Kampenweg","postalCode":"83483","locality":"Bischofswiesen","municipality":{"key":"09172117","name":"Bischofswiesen","type":"Kreisangehörige_Gemeinde"},"district":{"key":"09172","name":"Berchtesgadener Land","type":"Landkreis"},"federalState":{"key":"09","name":"Bayern"}},{"name":"Kastensteinweg","postalCode":"83483","locality":"Bischofswiesen","municipality":{"key":"09172117","name":"Bischofswiesen","type":"Kreisangehörige_Gemeinde"},"district":{"key":"09172","name":"Berchtesgadener Land","type":"Landkreis"},"federalState":{"key":"09","name":"Bayern"}},{"name":"Keilhofgasse","postalCode":"83483","locality":"Bischofswiesen","municipality":{"key":"09172117","name":"Bischofswiesen","type":"Kreisangehörige_Gemeinde"},"district":{"key":"09172","name":"Berchtesgadener Land","type":"Landkreis"},"federalState":{"key":"09","name":"Bayern"}},{"name":"Klapfweg","postalCode":"83483","locality":"Bischofswiesen","municipality":{"key":"09172117","name":"Bischofswiesen","type":"Kreisangehörige_Gemeinde"},"district":{"key":"09172","name":"Berchtesgadener Land","type":"Landkreis"},"federalState":{"key":"09","name":"Bayern"}},{"name":"Klausgraben","postalCode":"83483","locality":"Bischofswiesen","municipality":{"key":"09172117","name":"Bischofswiesen","type":"Kreisangehörige_Gemeinde"},"district":{"key":"09172","name":"Berchtesgadener Land","type":"Landkreis"},"federalState":{"key":"09","name":"Bayern"}},{"name":"Klaushauslweg","postalCode":"83483","locality":"Bischofswiesen","municipality":{"key":"09172117","name":"Bischofswiesen","type":"Kreisangehörige_Gemeinde"},"district":{"key":"09172","name":"Berchtesgadener Land","type":"Landkreis"},"federalState":{"key":"09","name":"Bayern"}},{"name":"Klaushäuslweg","postalCode":"83483","locality":"Bischofswiesen","municipality":{"key":"09172117","name":"Bischofswiesen","type":"Kreisangehörige_Gemeinde"},"district":{"key":"09172","name":"Berchtesgadener Land","type":"Landkreis"},"federalState":{"key":"09","name":"Bayern"}},{"name":"Klausweg","postalCode":"83483","locality":"Bischofswiesen","municipality":{"key":"09172117","name":"Bischofswiesen","type":"Kreisangehörige_Gemeinde"},"district":{"key":"09172","name":"Berchtesgadener Land","type":"Landkreis"},"federalState":{"key":"09","name":"Bayern"}},{"name":"Klinggraben","postalCode":"83483","locality":"Bischofswiesen","municipality":{"key":"09172117","name":"Bischofswiesen","type":"Kreisangehörige_Gemeinde"},"district":{"key":"09172","name":"Berchtesgadener Land","type":"Landkreis"},"federalState":{"key":"09","name":"Bayern"}},{"name":"Kollertradte","postalCode":"83483","locality":"Bischofswiesen","municipality":{"key":"09172117","name":"Bischofswiesen","type":"Kreisangehörige_Gemeinde"},"district":{"key":"09172","name":"Berchtesgadener Land","type":"Landkreis"},"federalState":{"key":"09","name":"Bayern"}},{"name":"Königsweg","postalCode":"83483","locality":"Bischofswiesen","municipality":{"key":"09172117","name":"Bischofswiesen","type":"Kreisangehörige_Gemeinde"},"district":{"key":"09172","name":"Berchtesgadener Land","type":"Landkreis"},"federalState":{"key":"09","name":"Bayern"}},{"name":"Koppenweg","postalCode":"83483","locality":"Bischofswiesen","municipality":{"key":"09172117","name":"Bischofswiesen","type":"Kreisangehörige_Gemeinde"},"district":{"key":"09172","name":"Berchtesgadener Land","type":"Landkreis"},"federalState":{"key":"09","name":"Bayern"}},{"name":"Krennweg","postalCode":"83483","locality":"Bischofswiesen","municipality":{"key":"09172117","name":"Bischofswiesen","type":"Kreisangehörige_Gemeinde"},"district":{"key":"09172","name":"Berchtesgadener Land","type":"Landkreis"},"federalState":{"key":"09","name":"Bayern"}},{"name":"Kressenweg","postalCode":"83483","locality":"Bischofswiesen","municipality":{"key":"09172117","name":"Bischofswiesen","type":"Kreisangehörige_Gemeinde"},"district":{"key":"09172","name":"Berchtesgadener Land","type":"Landkreis"},"federalState":{"key":"09","name":"Bayern"}},{"name":"Langescheidtstr.","postalCode":"83483","locality":"Bischofswiesen","municipality":{"key":"09172117","name":"Bischofswiesen","type":"Kreisangehörige_Gemeinde"},"district":{"key":"09172","name":"Berchtesgadener Land","type":"Landkreis"},"federalState":{"key":"09","name":"Bayern"}},{"name":"Langwied","postalCode":"83483","locality":"Bischofswiesen","municipality":{"key":"09172117","name":"Bischofswiesen","type":"Kreisangehörige_Gemeinde"},"district":{"key":"09172","name":"Berchtesgadener Land","type":"Landkreis"},"federalState":{"key":"09","name":"Bayern"}},{"name":"Loipl","postalCode":"83483","locality":"Bischofswiesen","municipality":{"key":"09172117","name":"Bischofswiesen","type":"Kreisangehörige_Gemeinde"},"district":{"key":"09172","name":"Berchtesgadener Land","type":"Landkreis"},"federalState":{"key":"09","name":"Bayern"}},{"name":"Loipler Str.","postalCode":"83483","locality":"Bischofswiesen","municipality":{"key":"09172117","name":"Bischofswiesen","type":"Kreisangehörige_Gemeinde"},"district":{"key":"09172","name":"Berchtesgadener Land","type":"Landkreis"},"federalState":{"key":"09","name":"Bayern"}},{"name":"Märchenpfad Bischofswiesen","postalCode":"83483","locality":"Bischofswiesen","municipality":{"key":"09172117","name":"Bischofswiesen","type":"Kreisangehörige_Gemeinde"},"district":{"key":"09172","name":"Berchtesgadener Land","type":"Landkreis"},"federalState":{"key":"09","name":"Bayern"}},{"name":"Marchlerweg","postalCode":"83483","locality":"Bischofswiesen","municipality":{"key":"09172117","name":"Bischofswiesen","type":"Kreisangehörige_Gemeinde"},"district":{"key":"09172","name":"Berchtesgadener Land","type":"Landkreis"},"federalState":{"key":"09","name":"Bayern"}},{"name":"Maximiliansreitweg","postalCode":"83483","locality":"Bischofswiesen","municipality":{"key":"09172117","name":"Bischofswiesen","type":"Kreisangehörige_Gemeinde"},"district":{"key":"09172","name":"Berchtesgadener Land","type":"Landkreis"},"federalState":{"key":"09","name":"Bayern"}},{"name":"Meislweg","postalCode":"83483","locality":"Bischofswiesen","municipality":{"key":"09172117","name":"Bischofswiesen","type":"Kreisangehörige_Gemeinde"},"district":{"key":"09172","name":"Berchtesgadener Land","type":"Landkreis"},"federalState":{"key":"09","name":"Bayern"}},{"name":"Moos","postalCode":"83483","locality":"Bischofswiesen","municipality":{"key":"09172117","name":"Bischofswiesen","type":"Kreisangehörige_Gemeinde"},"district":{"key":"09172","name":"Berchtesgadener Land","type":"Landkreis"},"federalState":{"key":"09","name":"Bayern"}},{"name":"Mooswinkl","postalCode":"83483","locality":"Bischofswiesen","municipality":{"key":"09172117","name":"Bischofswiesen","type":"Kreisangehörige_Gemeinde"},"district":{"key":"09172","name":"Berchtesgadener Land","type":"Landkreis"},"federalState":{"key":"09","name":"Bayern"}},{"name":"Mühllehenweg","postalCode":"83483","locality":"Bischofswiesen","municipality":{"key":"09172117","name":"Bischofswiesen","type":"Kreisangehörige_Gemeinde"},"district":{"key":"09172","name":"Berchtesgadener Land","type":"Landkreis"},"federalState":{"key":"09","name":"Bayern"}},{"name":"Neuwirtbrücke","postalCode":"83483","locality":"Bischofswiesen","municipality":{"key":"09172117","name":"Bischofswiesen","type":"Kreisangehörige_Gemeinde"},"district":{"key":"09172","name":"Berchtesgadener Land","type":"Landkreis"},"federalState":{"key":"09","name":"Bayern"}},{"name":"Niernthalweg","postalCode":"83483","locality":"Bischofswiesen","municipality":{"key":"09172117","name":"Bischofswiesen","type":"Kreisangehörige_Gemeinde"},"district":{"key":"09172","name":"Berchtesgadener Land","type":"Landkreis"},"federalState":{"key":"09","name":"Bayern"}},{"name":"Oberkälberstein","postalCode":"83483","locality":"Bischofswiesen","municipality":{"key":"09172117","name":"Bischofswiesen","type":"Kreisangehörige_Gemeinde"},"district":{"key":"09172","name":"Berchtesgadener Land","type":"Landkreis"},"federalState":{"key":"09","name":"Bayern"}},{"name":"Oberklapfenlehen","postalCode":"83483","locality":"Bischofswiesen","municipality":{"key":"09172117","name":"Bischofswiesen","type":"Kreisangehörige_Gemeinde"},"district":{"key":"09172","name":"Berchtesgadener Land","type":"Landkreis"},"federalState":{"key":"09","name":"Bayern"}},{"name":"Oberweiher","postalCode":"83483","locality":"Bischofswiesen","municipality":{"key":"09172117","name":"Bischofswiesen","type":"Kreisangehörige_Gemeinde"},"district":{"key":"09172","name":"Berchtesgadener Land","type":"Landkreis"},"federalState":{"key":"09","name":"Bayern"}},{"name":"Oislerweg","postalCode":"83483","locality":"Bischofswiesen","municipality":{"key":"09172117","name":"Bischofswiesen","type":"Kreisangehörige_Gemeinde"},"district":{"key":"09172","name":"Berchtesgadener Land","type":"Landkreis"},"federalState":{"key":"09","name":"Bayern"}},{"name":"Panoramaweg","postalCode":"83483","locality":"Bischofswiesen","municipality":{"key":"09172117","name":"Bischofswiesen","type":"Kreisangehörige_Gemeinde"},"district":{"key":"09172","name":"Berchtesgadener Land","type":"Landkreis"},"federalState":{"key":"09","name":"Bayern"}},{"name":"Pfarrer-Gruber-Str.","postalCode":"83483","locality":"Bischofswiesen","municipality":{"key":"09172117","name":"Bischofswiesen","type":"Kreisangehörige_Gemeinde"},"district":{"key":"09172","name":"Berchtesgadener Land","type":"Landkreis"},"federalState":{"key":"09","name":"Bayern"}},{"name":"Ponnötz","postalCode":"83483","locality":"Bischofswiesen","municipality":{"key":"09172117","name":"Bischofswiesen","type":"Kreisangehörige_Gemeinde"},"district":{"key":"09172","name":"Berchtesgadener Land","type":"Landkreis"},"federalState":{"key":"09","name":"Bayern"}},{"name":"Punzenweg","postalCode":"83483","locality":"Bischofswiesen","municipality":{"key":"09172117","name":"Bischofswiesen","type":"Kreisangehörige_Gemeinde"},"district":{"key":"09172","name":"Berchtesgadener Land","type":"Landkreis"},"federalState":{"key":"09","name":"Bayern"}},{"name":"Quellenweg","postalCode":"83483","locality":"Bischofswiesen","municipality":{"key":"09172117","name":"Bischofswiesen","type":"Kreisangehörige_Gemeinde"},"district":{"key":"09172","name":"Berchtesgadener Land","type":"Landkreis"},"federalState":{"key":"09","name":"Bayern"}},{"name":"Rabensteinweg","postalCode":"83483","locality":"Bischofswiesen","municipality":{"key":"09172117","name":"Bischofswiesen","type":"Kreisangehörige_Gemeinde"},"district":{"key":"09172","name":"Berchtesgadener Land","type":"Landkreis"},"federalState":{"key":"09","name":"Bayern"}},{"name":"Ramsauer Str.","postalCode":"83483","locality":"Bischofswiesen","municipality":{"key":"09172117","name":"Bischofswiesen","type":"Kreisangehörige_Gemeinde"},"district":{"key":"09172","name":"Berchtesgadener Land","type":"Landkreis"},"federalState":{"key":"09","name":"Bayern"}},{"name":"Rathausplatz","postalCode":"83483","locality":"Bischofswiesen","municipality":{"key":"09172117","name":"Bischofswiesen","type":"Kreisangehörige_Gemeinde"},"district":{"key":"09172","name":"Berchtesgadener Land","type":"Landkreis"},"federalState":{"key":"09","name":"Bayern"}},{"name":"Rauhensteinweg","postalCode":"83483","locality":"Bischofswiesen","municipality":{"key":"09172117","name":"Bischofswiesen","type":"Kreisangehörige_Gemeinde"},"district":{"key":"09172","name":"Berchtesgadener Land","type":"Landkreis"},"federalState":{"key":"09","name":"Bayern"}},{"name":"Reichenhaller Str.","postalCode":"83483","locality":"Bischofswiesen","municipality":{"key":"09172117","name":"Bischofswiesen","type":"Kreisangehörige_Gemeinde"},"district":{"key":"09172","name":"Berchtesgadener Land","type":"Landkreis"},"federalState":{"key":"09","name":"Bayern"}},{"name":"Reißenpoint","postalCode":"83483","locality":"Bischofswiesen","municipality":{"key":"09172117","name":"Bischofswiesen","type":"Kreisangehörige_Gemeinde"},"district":{"key":"09172","name":"Berchtesgadener Land","type":"Landkreis"},"federalState":{"key":"09","name":"Bayern"}},{"name":"Reitweg","postalCode":"83483","locality":"Bischofswiesen","municipality":{"key":"09172117","name":"Bischofswiesen","type":"Kreisangehörige_Gemeinde"},"district":{"key":"09172","name":"Berchtesgadener Land","type":"Landkreis"},"federalState":{"key":"09","name":"Bayern"}},{"name":"Riedherrngasse","postalCode":"83483","locality":"Bischofswiesen","municipality":{"key":"09172117","name":"Bischofswiesen","type":"Kreisangehörige_Gemeinde"},"district":{"key":"09172","name":"Berchtesgadener Land","type":"Landkreis"},"federalState":{"key":"09","name":"Bayern"}},{"name":"Roßpoint","postalCode":"83483","locality":"Bischofswiesen","municipality":{"key":"09172117","name":"Bischofswiesen","type":"Kreisangehörige_Gemeinde"},"district":{"key":"09172","name":"Berchtesgadener Land","type":"Landkreis"},"federalState":{"key":"09","name":"Bayern"}},{"name":"Ruppenweg","postalCode":"83483","locality":"Bischofswiesen","municipality":{"key":"09172117","name":"Bischofswiesen","type":"Kreisangehörige_Gemeinde"},"district":{"key":"09172","name":"Berchtesgadener Land","type":"Landkreis"},"federalState":{"key":"09","name":"Bayern"}},{"name":"Schneckenmühlweg","postalCode":"83483","locality":"Bischofswiesen","municipality":{"key":"09172117","name":"Bischofswiesen","type":"Kreisangehörige_Gemeinde"},"district":{"key":"09172","name":"Berchtesgadener Land","type":"Landkreis"},"federalState":{"key":"09","name":"Bayern"}},{"name":"Schneibsteinweg","postalCode":"83483","locality":"Bischofswiesen","municipality":{"key":"09172117","name":"Bischofswiesen","type":"Kreisangehörige_Gemeinde"},"district":{"key":"09172","name":"Berchtesgadener Land","type":"Landkreis"},"federalState":{"key":"09","name":"Bayern"}},{"name":"Schobertiefenweg","postalCode":"83483","locality":"Bischofswiesen","municipality":{"key":"09172117","name":"Bischofswiesen","type":"Kreisangehörige_Gemeinde"},"district":{"key":"09172","name":"Berchtesgadener Land","type":"Landkreis"},"federalState":{"key":"09","name":"Bayern"}},{"name":"Schönfeldspitzweg","postalCode":"83483","locality":"Bischofswiesen","municipality":{"key":"09172117","name":"Bischofswiesen","type":"Kreisangehörige_Gemeinde"},"district":{"key":"09172","name":"Berchtesgadener Land","type":"Landkreis"},"federalState":{"key":"09","name":"Bayern"}},{"name":"Schulstr.","postalCode":"83483","locality":"Bischofswiesen","municipality":{"key":"09172117","name":"Bischofswiesen","type":"Kreisangehörige_Gemeinde"},"district":{"key":"09172","name":"Berchtesgadener Land","type":"Landkreis"},"federalState":{"key":"09","name":"Bayern"}},{"name":"Schusterbistlweg","postalCode":"83483","locality":"Bischofswiesen","municipality":{"key":"09172117","name":"Bischofswiesen","type":"Kreisangehörige_Gemeinde"},"district":{"key":"09172","name":"Berchtesgadener Land","type":"Landkreis"},"federalState":{"key":"09","name":"Bayern"}},{"name":"Schwarzecker Str.","postalCode":"83483","locality":"Bischofswiesen","municipality":{"key":"09172117","name":"Bischofswiesen","type":"Kreisangehörige_Gemeinde"},"district":{"key":"09172","name":"Berchtesgadener Land","type":"Landkreis"},"federalState":{"key":"09","name":"Bayern"}},{"name":"Schwarzenweg","postalCode":"83483","locality":"Bischofswiesen","municipality":{"key":"09172117","name":"Bischofswiesen","type":"Kreisangehörige_Gemeinde"},"district":{"key":"09172","name":"Berchtesgadener Land","type":"Landkreis"},"federalState":{"key":"09","name":"Bayern"}},{"name":"Seppengraben","postalCode":"83483","locality":"Bischofswiesen","municipality":{"key":"09172117","name":"Bischofswiesen","type":"Kreisangehörige_Gemeinde"},"district":{"key":"09172","name":"Berchtesgadener Land","type":"Landkreis"},"federalState":{"key":"09","name":"Bayern"}},{"name":"Sieglweg","postalCode":"83483","locality":"Bischofswiesen","municipality":{"key":"09172117","name":"Bischofswiesen","type":"Kreisangehörige_Gemeinde"},"district":{"key":"09172","name":"Berchtesgadener Land","type":"Landkreis"},"federalState":{"key":"09","name":"Bayern"}},{"name":"Silbergstr.","postalCode":"83483","locality":"Bischofswiesen","municipality":{"key":"09172117","name":"Bischofswiesen","type":"Kreisangehörige_Gemeinde"},"district":{"key":"09172","name":"Berchtesgadener Land","type":"Landkreis"},"federalState":{"key":"09","name":"Bayern"}},{"name":"Simon-Schwaiger-Str.","postalCode":"83483","locality":"Bischofswiesen","municipality":{"key":"09172117","name":"Bischofswiesen","type":"Kreisangehörige_Gemeinde"},"district":{"key":"09172","name":"Berchtesgadener Land","type":"Landkreis"},"federalState":{"key":"09","name":"Bayern"}},{"name":"Soleleitungsweg","postalCode":"83483","locality":"Bischofswiesen","municipality":{"key":"09172117","name":"Bischofswiesen","type":"Kreisangehörige_Gemeinde"},"district":{"key":"09172","name":"Berchtesgadener Land","type":"Landkreis"},"federalState":{"key":"09","name":"Bayern"}},{"name":"Sonnleitstr.","postalCode":"83483","locality":"Bischofswiesen","municipality":{"key":"09172117","name":"Bischofswiesen","type":"Kreisangehörige_Gemeinde"},"district":{"key":"09172","name":"Berchtesgadener Land","type":"Landkreis"},"federalState":{"key":"09","name":"Bayern"}},{"name":"Stangergasse","postalCode":"83483","locality":"Bischofswiesen","municipality":{"key":"09172117","name":"Bischofswiesen","type":"Kreisangehörige_Gemeinde"},"district":{"key":"09172","name":"Berchtesgadener Land","type":"Landkreis"},"federalState":{"key":"09","name":"Bayern"}},{"name":"Stangerötz","postalCode":"83483","locality":"Bischofswiesen","municipality":{"key":"09172117","name":"Bischofswiesen","type":"Kreisangehörige_Gemeinde"},"district":{"key":"09172","name":"Berchtesgadener Land","type":"Landkreis"},"federalState":{"key":"09","name":"Bayern"}},{"name":"Stangerriegl","postalCode":"83483","locality":"Bischofswiesen","municipality":{"key":"09172117","name":"Bischofswiesen","type":"Kreisangehörige_Gemeinde"},"district":{"key":"09172","name":"Berchtesgadener Land","type":"Landkreis"},"federalState":{"key":"09","name":"Bayern"}},{"name":"Stangerweg","postalCode":"83483","locality":"Bischofswiesen","municipality":{"key":"09172117","name":"Bischofswiesen","type":"Kreisangehörige_Gemeinde"},"district":{"key":"09172","name":"Berchtesgadener Land","type":"Landkreis"},"federalState":{"key":"09","name":"Bayern"}},{"name":"Steingasse","postalCode":"83483","locality":"Bischofswiesen","municipality":{"key":"09172117","name":"Bischofswiesen","type":"Kreisangehörige_Gemeinde"},"district":{"key":"09172","name":"Berchtesgadener Land","type":"Landkreis"},"federalState":{"key":"09","name":"Bayern"}},{"name":"Struberberg","postalCode":"83483","locality":"Bischofswiesen","municipality":{"key":"09172117","name":"Bischofswiesen","type":"Kreisangehörige_Gemeinde"},"district":{"key":"09172","name":"Berchtesgadener Land","type":"Landkreis"},"federalState":{"key":"09","name":"Bayern"}},{"name":"Tristramgraben","postalCode":"83483","locality":"Bischofswiesen","municipality":{"key":"09172117","name":"Bischofswiesen","type":"Kreisangehörige_Gemeinde"},"district":{"key":"09172","name":"Berchtesgadener Land","type":"Landkreis"},"federalState":{"key":"09","name":"Bayern"}},{"name":"Tristramweg","postalCode":"83483","locality":"Bischofswiesen","municipality":{"key":"09172117","name":"Bischofswiesen","type":"Kreisangehörige_Gemeinde"},"district":{"key":"09172","name":"Berchtesgadener Land","type":"Landkreis"},"federalState":{"key":"09","name":"Bayern"}},{"name":"Uhlmühlweg","postalCode":"83483","locality":"Bischofswiesen","municipality":{"key":"09172117","name":"Bischofswiesen","type":"Kreisangehörige_Gemeinde"},"district":{"key":"09172","name":"Berchtesgadener Land","type":"Landkreis"},"federalState":{"key":"09","name":"Bayern"}},{"name":"Unteraschau","postalCode":"83483","locality":"Bischofswiesen","municipality":{"key":"09172117","name":"Bischofswiesen","type":"Kreisangehörige_Gemeinde"},"district":{"key":"09172","name":"Berchtesgadener Land","type":"Landkreis"},"federalState":{"key":"09","name":"Bayern"}},{"name":"Untersbergweg","postalCode":"83483","locality":"Bischofswiesen","municipality":{"key":"09172117","name":"Bischofswiesen","type":"Kreisangehörige_Gemeinde"},"district":{"key":"09172","name":"Berchtesgadener Land","type":"Landkreis"},"federalState":{"key":"09","name":"Bayern"}},{"name":"Urbanweg","postalCode":"83483","locality":"Bischofswiesen","municipality":{"key":"09172117","name":"Bischofswiesen","type":"Kreisangehörige_Gemeinde"},"district":{"key":"09172","name":"Berchtesgadener Land","type":"Landkreis"},"federalState":{"key":"09","name":"Bayern"}},{"name":"Vierradweg","postalCode":"83483","locality":"Bischofswiesen","municipality":{"key":"09172117","name":"Bischofswiesen","type":"Kreisangehörige_Gemeinde"},"district":{"key":"09172","name":"Berchtesgadener Land","type":"Landkreis"},"federalState":{"key":"09","name":"Bayern"}},{"name":"von-Eichendorff-Str.","postalCode":"83483","locality":"Bischofswiesen","municipality":{"key":"09172117","name":"Bischofswiesen","type":"Kreisangehörige_Gemeinde"},"district":{"key":"09172","name":"Berchtesgadener Land","type":"Landkreis"},"federalState":{"key":"09","name":"Bayern"}},{"name":"Wassererweg","postalCode":"83483","locality":"Bischofswiesen","municipality":{"key":"09172117","name":"Bischofswiesen","type":"Kreisangehörige_Gemeinde"},"district":{"key":"09172","name":"Berchtesgadener Land","type":"Landkreis"},"federalState":{"key":"09","name":"Bayern"}},{"name":"Watzmannstr.","postalCode":"83483","locality":"Bischofswiesen","municipality":{"key":"09172117","name":"Bischofswiesen","type":"Kreisangehörige_Gemeinde"},"district":{"key":"09172","name":"Berchtesgadener Land","type":"Landkreis"},"federalState":{"key":"09","name":"Bayern"}},{"name":"Weg zur Insula","postalCode":"83483","locality":"Bischofswiesen","municipality":{"key":"09172117","name":"Bischofswiesen","type":"Kreisangehörige_Gemeinde"},"district":{"key":"09172","name":"Berchtesgadener Land","type":"Landkreis"},"federalState":{"key":"09","name":"Bayern"}},{"name":"Weihererweg","postalCode":"83483","locality":"Bischofswiesen","municipality":{"key":"09172117","name":"Bischofswiesen","type":"Kreisangehörige_Gemeinde"},"district":{"key":"09172","name":"Berchtesgadener Land","type":"Landkreis"},"federalState":{"key":"09","name":"Bayern"}},{"name":"Wiedlerweg","postalCode":"83483","locality":"Bischofswiesen","municipality":{"key":"09172117","name":"Bischofswiesen","type":"Kreisangehörige_Gemeinde"},"district":{"key":"09172","name":"Berchtesgadener Land","type":"Landkreis"},"federalState":{"key":"09","name":"Bayern"}},{"name":"Zipfweg","postalCode":"83483","locality":"Bischofswiesen","municipality":{"key":"09172117","name":"Bischofswiesen","type":"Kreisangehörige_Gemeinde"},"district":{"key":"09172","name":"Berchtesgadener Land","type":"Landkreis"},"federalState":{"key":"09","name":"Bayern"}},]