[{"name":"Achtwinkelhof","postalCode":"56299","locality":"Ochtendung","municipality":{"key":"07137086","name":"Ochtendung","type":"Kreisangehörige_Gemeinde"},"district":{"key":"07137","name":"Mayen-Koblenz","type":"Landkreis"},"federalState":{"key":"07","name":"Rheinland-Pfalz"}},{"name":"Ahornweg","postalCode":"56299","locality":"Ochtendung","municipality":{"key":"07137086","name":"Ochtendung","type":"Kreisangehörige_Gemeinde"},"district":{"key":"07137","name":"Mayen-Koblenz","type":"Landkreis"},"federalState":{"key":"07","name":"Rheinland-Pfalz"}},{"name":"Alemannenstr.","postalCode":"56299","locality":"Ochtendung","municipality":{"key":"07137086","name":"Ochtendung","type":"Kreisangehörige_Gemeinde"},"district":{"key":"07137","name":"Mayen-Koblenz","type":"Landkreis"},"federalState":{"key":"07","name":"Rheinland-Pfalz"}},{"name":"Am Goode Bur","postalCode":"56299","locality":"Ochtendung","municipality":{"key":"07137086","name":"Ochtendung","type":"Kreisangehörige_Gemeinde"},"district":{"key":"07137","name":"Mayen-Koblenz","type":"Landkreis"},"federalState":{"key":"07","name":"Rheinland-Pfalz"}},{"name":"Am Karmelenberg","postalCode":"56299","locality":"Ochtendung","municipality":{"key":"07137086","name":"Ochtendung","type":"Kreisangehörige_Gemeinde"},"district":{"key":"07137","name":"Mayen-Koblenz","type":"Landkreis"},"federalState":{"key":"07","name":"Rheinland-Pfalz"}},{"name":"Am Löhberg","postalCode":"56299","locality":"Ochtendung","municipality":{"key":"07137086","name":"Ochtendung","type":"Kreisangehörige_Gemeinde"},"district":{"key":"07137","name":"Mayen-Koblenz","type":"Landkreis"},"federalState":{"key":"07","name":"Rheinland-Pfalz"}},{"name":"Am Römerhügel","postalCode":"56299","locality":"Ochtendung","municipality":{"key":"07137086","name":"Ochtendung","type":"Kreisangehörige_Gemeinde"},"district":{"key":"07137","name":"Mayen-Koblenz","type":"Landkreis"},"federalState":{"key":"07","name":"Rheinland-Pfalz"}},{"name":"Auf dem Hürter","postalCode":"56299","locality":"Ochtendung","municipality":{"key":"07137086","name":"Ochtendung","type":"Kreisangehörige_Gemeinde"},"district":{"key":"07137","name":"Mayen-Koblenz","type":"Landkreis"},"federalState":{"key":"07","name":"Rheinland-Pfalz"}},{"name":"Auf den Heseln","postalCode":"56299","locality":"Ochtendung","municipality":{"key":"07137086","name":"Ochtendung","type":"Kreisangehörige_Gemeinde"},"district":{"key":"07137","name":"Mayen-Koblenz","type":"Landkreis"},"federalState":{"key":"07","name":"Rheinland-Pfalz"}},{"name":"Auf der Hütt","postalCode":"56299","locality":"Ochtendung","municipality":{"key":"07137086","name":"Ochtendung","type":"Kreisangehörige_Gemeinde"},"district":{"key":"07137","name":"Mayen-Koblenz","type":"Landkreis"},"federalState":{"key":"07","name":"Rheinland-Pfalz"}},{"name":"Auf Münsterhöh","postalCode":"56299","locality":"Ochtendung","municipality":{"key":"07137086","name":"Ochtendung","type":"Kreisangehörige_Gemeinde"},"district":{"key":"07137","name":"Mayen-Koblenz","type":"Landkreis"},"federalState":{"key":"07","name":"Rheinland-Pfalz"}},{"name":"Auf`m Zisselborn","postalCode":"56299","locality":"Ochtendung","municipality":{"key":"07137086","name":"Ochtendung","type":"Kreisangehörige_Gemeinde"},"district":{"key":"07137","name":"Mayen-Koblenz","type":"Landkreis"},"federalState":{"key":"07","name":"Rheinland-Pfalz"}},{"name":"Bachstr.","postalCode":"56299","locality":"Ochtendung","municipality":{"key":"07137086","name":"Ochtendung","type":"Kreisangehörige_Gemeinde"},"district":{"key":"07137","name":"Mayen-Koblenz","type":"Landkreis"},"federalState":{"key":"07","name":"Rheinland-Pfalz"}},{"name":"Bahnhofstr.","postalCode":"56299","locality":"Ochtendung","municipality":{"key":"07137086","name":"Ochtendung","type":"Kreisangehörige_Gemeinde"},"district":{"key":"07137","name":"Mayen-Koblenz","type":"Landkreis"},"federalState":{"key":"07","name":"Rheinland-Pfalz"}},{"name":"Bertha-von-Suttner-Str.","postalCode":"56299","locality":"Ochtendung","municipality":{"key":"07137086","name":"Ochtendung","type":"Kreisangehörige_Gemeinde"},"district":{"key":"07137","name":"Mayen-Koblenz","type":"Landkreis"},"federalState":{"key":"07","name":"Rheinland-Pfalz"}},{"name":"Birkenweg","postalCode":"56299","locality":"Ochtendung","municipality":{"key":"07137086","name":"Ochtendung","type":"Kreisangehörige_Gemeinde"},"district":{"key":"07137","name":"Mayen-Koblenz","type":"Landkreis"},"federalState":{"key":"07","name":"Rheinland-Pfalz"}},{"name":"Bismarckstr.","postalCode":"56299","locality":"Ochtendung","municipality":{"key":"07137086","name":"Ochtendung","type":"Kreisangehörige_Gemeinde"},"district":{"key":"07137","name":"Mayen-Koblenz","type":"Landkreis"},"federalState":{"key":"07","name":"Rheinland-Pfalz"}},{"name":"Blumenstr.","postalCode":"56299","locality":"Ochtendung","municipality":{"key":"07137086","name":"Ochtendung","type":"Kreisangehörige_Gemeinde"},"district":{"key":"07137","name":"Mayen-Koblenz","type":"Landkreis"},"federalState":{"key":"07","name":"Rheinland-Pfalz"}},{"name":"Burgweg","postalCode":"56299","locality":"Ochtendung","municipality":{"key":"07137086","name":"Ochtendung","type":"Kreisangehörige_Gemeinde"},"district":{"key":"07137","name":"Mayen-Koblenz","type":"Landkreis"},"federalState":{"key":"07","name":"Rheinland-Pfalz"}},{"name":"Dr.-Albert-Schweitzer-Str.","postalCode":"56299","locality":"Ochtendung","municipality":{"key":"07137086","name":"Ochtendung","type":"Kreisangehörige_Gemeinde"},"district":{"key":"07137","name":"Mayen-Koblenz","type":"Landkreis"},"federalState":{"key":"07","name":"Rheinland-Pfalz"}},{"name":"Dümmelsweg","postalCode":"56299","locality":"Ochtendung","municipality":{"key":"07137086","name":"Ochtendung","type":"Kreisangehörige_Gemeinde"},"district":{"key":"07137","name":"Mayen-Koblenz","type":"Landkreis"},"federalState":{"key":"07","name":"Rheinland-Pfalz"}},{"name":"Eifelstr.","postalCode":"56299","locality":"Ochtendung","municipality":{"key":"07137086","name":"Ochtendung","type":"Kreisangehörige_Gemeinde"},"district":{"key":"07137","name":"Mayen-Koblenz","type":"Landkreis"},"federalState":{"key":"07","name":"Rheinland-Pfalz"}},{"name":"Erlenweg","postalCode":"56299","locality":"Ochtendung","municipality":{"key":"07137086","name":"Ochtendung","type":"Kreisangehörige_Gemeinde"},"district":{"key":"07137","name":"Mayen-Koblenz","type":"Landkreis"},"federalState":{"key":"07","name":"Rheinland-Pfalz"}},{"name":"Fasanenweg","postalCode":"56299","locality":"Ochtendung","municipality":{"key":"07137086","name":"Ochtendung","type":"Kreisangehörige_Gemeinde"},"district":{"key":"07137","name":"Mayen-Koblenz","type":"Landkreis"},"federalState":{"key":"07","name":"Rheinland-Pfalz"}},{"name":"Festungstr.","postalCode":"56299","locality":"Ochtendung","municipality":{"key":"07137086","name":"Ochtendung","type":"Kreisangehörige_Gemeinde"},"district":{"key":"07137","name":"Mayen-Koblenz","type":"Landkreis"},"federalState":{"key":"07","name":"Rheinland-Pfalz"}},{"name":"Finkenweg","postalCode":"56299","locality":"Ochtendung","municipality":{"key":"07137086","name":"Ochtendung","type":"Kreisangehörige_Gemeinde"},"district":{"key":"07137","name":"Mayen-Koblenz","type":"Landkreis"},"federalState":{"key":"07","name":"Rheinland-Pfalz"}},{"name":"Frankenstr.","postalCode":"56299","locality":"Ochtendung","municipality":{"key":"07137086","name":"Ochtendung","type":"Kreisangehörige_Gemeinde"},"district":{"key":"07137","name":"Mayen-Koblenz","type":"Landkreis"},"federalState":{"key":"07","name":"Rheinland-Pfalz"}},{"name":"Friedrich-Ebert-Str.","postalCode":"56299","locality":"Ochtendung","municipality":{"key":"07137086","name":"Ochtendung","type":"Kreisangehörige_Gemeinde"},"district":{"key":"07137","name":"Mayen-Koblenz","type":"Landkreis"},"federalState":{"key":"07","name":"Rheinland-Pfalz"}},{"name":"Gartenstr.","postalCode":"56299","locality":"Ochtendung","municipality":{"key":"07137086","name":"Ochtendung","type":"Kreisangehörige_Gemeinde"},"district":{"key":"07137","name":"Mayen-Koblenz","type":"Landkreis"},"federalState":{"key":"07","name":"Rheinland-Pfalz"}},{"name":"Gerhart-Hauptmann-Str.","postalCode":"56299","locality":"Ochtendung","municipality":{"key":"07137086","name":"Ochtendung","type":"Kreisangehörige_Gemeinde"},"district":{"key":"07137","name":"Mayen-Koblenz","type":"Landkreis"},"federalState":{"key":"07","name":"Rheinland-Pfalz"}},{"name":"Geschwister-Scholl-Str.","postalCode":"56299","locality":"Ochtendung","municipality":{"key":"07137086","name":"Ochtendung","type":"Kreisangehörige_Gemeinde"},"district":{"key":"07137","name":"Mayen-Koblenz","type":"Landkreis"},"federalState":{"key":"07","name":"Rheinland-Pfalz"}},{"name":"Goethestr.","postalCode":"56299","locality":"Ochtendung","municipality":{"key":"07137086","name":"Ochtendung","type":"Kreisangehörige_Gemeinde"},"district":{"key":"07137","name":"Mayen-Koblenz","type":"Landkreis"},"federalState":{"key":"07","name":"Rheinland-Pfalz"}},{"name":"Grabenpfädchen","postalCode":"56299","locality":"Ochtendung","municipality":{"key":"07137086","name":"Ochtendung","type":"Kreisangehörige_Gemeinde"},"district":{"key":"07137","name":"Mayen-Koblenz","type":"Landkreis"},"federalState":{"key":"07","name":"Rheinland-Pfalz"}},{"name":"Graf-Herimann-Str.","postalCode":"56299","locality":"Ochtendung","municipality":{"key":"07137086","name":"Ochtendung","type":"Kreisangehörige_Gemeinde"},"district":{"key":"07137","name":"Mayen-Koblenz","type":"Landkreis"},"federalState":{"key":"07","name":"Rheinland-Pfalz"}},{"name":"Grenzstr.","postalCode":"56299","locality":"Ochtendung","municipality":{"key":"07137086","name":"Ochtendung","type":"Kreisangehörige_Gemeinde"},"district":{"key":"07137","name":"Mayen-Koblenz","type":"Landkreis"},"federalState":{"key":"07","name":"Rheinland-Pfalz"}},{"name":"Hauptstr.","postalCode":"56299","locality":"Ochtendung","municipality":{"key":"07137086","name":"Ochtendung","type":"Kreisangehörige_Gemeinde"},"district":{"key":"07137","name":"Mayen-Koblenz","type":"Landkreis"},"federalState":{"key":"07","name":"Rheinland-Pfalz"}},{"name":"Heinrich-Heine-Str.","postalCode":"56299","locality":"Ochtendung","municipality":{"key":"07137086","name":"Ochtendung","type":"Kreisangehörige_Gemeinde"},"district":{"key":"07137","name":"Mayen-Koblenz","type":"Landkreis"},"federalState":{"key":"07","name":"Rheinland-Pfalz"}},{"name":"Hinter dem Graben","postalCode":"56299","locality":"Ochtendung","municipality":{"key":"07137086","name":"Ochtendung","type":"Kreisangehörige_Gemeinde"},"district":{"key":"07137","name":"Mayen-Koblenz","type":"Landkreis"},"federalState":{"key":"07","name":"Rheinland-Pfalz"}},{"name":"Hogwarts-Street","postalCode":"56299","locality":"Ochtendung","municipality":{"key":"07137086","name":"Ochtendung","type":"Kreisangehörige_Gemeinde"},"district":{"key":"07137","name":"Mayen-Koblenz","type":"Landkreis"},"federalState":{"key":"07","name":"Rheinland-Pfalz"}},{"name":"Hospitalgasse","postalCode":"56299","locality":"Ochtendung","municipality":{"key":"07137086","name":"Ochtendung","type":"Kreisangehörige_Gemeinde"},"district":{"key":"07137","name":"Mayen-Koblenz","type":"Landkreis"},"federalState":{"key":"07","name":"Rheinland-Pfalz"}},{"name":"Hürtersweg","postalCode":"56299","locality":"Ochtendung","municipality":{"key":"07137086","name":"Ochtendung","type":"Kreisangehörige_Gemeinde"},"district":{"key":"07137","name":"Mayen-Koblenz","type":"Landkreis"},"federalState":{"key":"07","name":"Rheinland-Pfalz"}},{"name":"Im Bergfrieden","postalCode":"56299","locality":"Ochtendung","municipality":{"key":"07137086","name":"Ochtendung","type":"Kreisangehörige_Gemeinde"},"district":{"key":"07137","name":"Mayen-Koblenz","type":"Landkreis"},"federalState":{"key":"07","name":"Rheinland-Pfalz"}},{"name":"Im Bienenpesch","postalCode":"56299","locality":"Ochtendung","municipality":{"key":"07137086","name":"Ochtendung","type":"Kreisangehörige_Gemeinde"},"district":{"key":"07137","name":"Mayen-Koblenz","type":"Landkreis"},"federalState":{"key":"07","name":"Rheinland-Pfalz"}},{"name":"Im Linnerich","postalCode":"56299","locality":"Ochtendung","municipality":{"key":"07137086","name":"Ochtendung","type":"Kreisangehörige_Gemeinde"},"district":{"key":"07137","name":"Mayen-Koblenz","type":"Landkreis"},"federalState":{"key":"07","name":"Rheinland-Pfalz"}},{"name":"Im Löh","postalCode":"56299","locality":"Ochtendung","municipality":{"key":"07137086","name":"Ochtendung","type":"Kreisangehörige_Gemeinde"},"district":{"key":"07137","name":"Mayen-Koblenz","type":"Landkreis"},"federalState":{"key":"07","name":"Rheinland-Pfalz"}},{"name":"Im Oberpflug","postalCode":"56299","locality":"Ochtendung","municipality":{"key":"07137086","name":"Ochtendung","type":"Kreisangehörige_Gemeinde"},"district":{"key":"07137","name":"Mayen-Koblenz","type":"Landkreis"},"federalState":{"key":"07","name":"Rheinland-Pfalz"}},{"name":"Im Roten Wingert","postalCode":"56299","locality":"Ochtendung","municipality":{"key":"07137086","name":"Ochtendung","type":"Kreisangehörige_Gemeinde"},"district":{"key":"07137","name":"Mayen-Koblenz","type":"Landkreis"},"federalState":{"key":"07","name":"Rheinland-Pfalz"}},{"name":"Im Vogelsang","postalCode":"56299","locality":"Ochtendung","municipality":{"key":"07137086","name":"Ochtendung","type":"Kreisangehörige_Gemeinde"},"district":{"key":"07137","name":"Mayen-Koblenz","type":"Landkreis"},"federalState":{"key":"07","name":"Rheinland-Pfalz"}},{"name":"Josefstr.","postalCode":"56299","locality":"Ochtendung","municipality":{"key":"07137086","name":"Ochtendung","type":"Kreisangehörige_Gemeinde"},"district":{"key":"07137","name":"Mayen-Koblenz","type":"Landkreis"},"federalState":{"key":"07","name":"Rheinland-Pfalz"}},{"name":"Kanalweg","postalCode":"56299","locality":"Ochtendung","municipality":{"key":"07137086","name":"Ochtendung","type":"Kreisangehörige_Gemeinde"},"district":{"key":"07137","name":"Mayen-Koblenz","type":"Landkreis"},"federalState":{"key":"07","name":"Rheinland-Pfalz"}},{"name":"Kartalsweg","postalCode":"56299","locality":"Ochtendung","municipality":{"key":"07137086","name":"Ochtendung","type":"Kreisangehörige_Gemeinde"},"district":{"key":"07137","name":"Mayen-Koblenz","type":"Landkreis"},"federalState":{"key":"07","name":"Rheinland-Pfalz"}},{"name":"Kastanienweg","postalCode":"56299","locality":"Ochtendung","municipality":{"key":"07137086","name":"Ochtendung","type":"Kreisangehörige_Gemeinde"},"district":{"key":"07137","name":"Mayen-Koblenz","type":"Landkreis"},"federalState":{"key":"07","name":"Rheinland-Pfalz"}},{"name":"Kastorstr.","postalCode":"56299","locality":"Ochtendung","municipality":{"key":"07137086","name":"Ochtendung","type":"Kreisangehörige_Gemeinde"},"district":{"key":"07137","name":"Mayen-Koblenz","type":"Landkreis"},"federalState":{"key":"07","name":"Rheinland-Pfalz"}},{"name":"Keltenstr.","postalCode":"56299","locality":"Ochtendung","municipality":{"key":"07137086","name":"Ochtendung","type":"Kreisangehörige_Gemeinde"},"district":{"key":"07137","name":"Mayen-Koblenz","type":"Landkreis"},"federalState":{"key":"07","name":"Rheinland-Pfalz"}},{"name":"Keltershäuserhof","postalCode":"56299","locality":"Ochtendung","municipality":{"key":"07137086","name":"Ochtendung","type":"Kreisangehörige_Gemeinde"},"district":{"key":"07137","name":"Mayen-Koblenz","type":"Landkreis"},"federalState":{"key":"07","name":"Rheinland-Pfalz"}},{"name":"Kindergartenweg","postalCode":"56299","locality":"Ochtendung","municipality":{"key":"07137086","name":"Ochtendung","type":"Kreisangehörige_Gemeinde"},"district":{"key":"07137","name":"Mayen-Koblenz","type":"Landkreis"},"federalState":{"key":"07","name":"Rheinland-Pfalz"}},{"name":"Kirchhofsweg","postalCode":"56299","locality":"Ochtendung","municipality":{"key":"07137086","name":"Ochtendung","type":"Kreisangehörige_Gemeinde"},"district":{"key":"07137","name":"Mayen-Koblenz","type":"Landkreis"},"federalState":{"key":"07","name":"Rheinland-Pfalz"}},{"name":"Kirschtalweg","postalCode":"56299","locality":"Ochtendung","municipality":{"key":"07137086","name":"Ochtendung","type":"Kreisangehörige_Gemeinde"},"district":{"key":"07137","name":"Mayen-Koblenz","type":"Landkreis"},"federalState":{"key":"07","name":"Rheinland-Pfalz"}},{"name":"Klöppelsgasse","postalCode":"56299","locality":"Ochtendung","municipality":{"key":"07137086","name":"Ochtendung","type":"Kreisangehörige_Gemeinde"},"district":{"key":"07137","name":"Mayen-Koblenz","type":"Landkreis"},"federalState":{"key":"07","name":"Rheinland-Pfalz"}},{"name":"Koblenzer Str.","postalCode":"56299","locality":"Ochtendung","municipality":{"key":"07137086","name":"Ochtendung","type":"Kreisangehörige_Gemeinde"},"district":{"key":"07137","name":"Mayen-Koblenz","type":"Landkreis"},"federalState":{"key":"07","name":"Rheinland-Pfalz"}},{"name":"Kreuzstr.","postalCode":"56299","locality":"Ochtendung","municipality":{"key":"07137086","name":"Ochtendung","type":"Kreisangehörige_Gemeinde"},"district":{"key":"07137","name":"Mayen-Koblenz","type":"Landkreis"},"federalState":{"key":"07","name":"Rheinland-Pfalz"}},{"name":"Kurt-Schumacher-Str.","postalCode":"56299","locality":"Ochtendung","municipality":{"key":"07137086","name":"Ochtendung","type":"Kreisangehörige_Gemeinde"},"district":{"key":"07137","name":"Mayen-Koblenz","type":"Landkreis"},"federalState":{"key":"07","name":"Rheinland-Pfalz"}},{"name":"Langenbergstr.","postalCode":"56299","locality":"Ochtendung","municipality":{"key":"07137086","name":"Ochtendung","type":"Kreisangehörige_Gemeinde"},"district":{"key":"07137","name":"Mayen-Koblenz","type":"Landkreis"},"federalState":{"key":"07","name":"Rheinland-Pfalz"}},{"name":"Lessingstr.","postalCode":"56299","locality":"Ochtendung","municipality":{"key":"07137086","name":"Ochtendung","type":"Kreisangehörige_Gemeinde"},"district":{"key":"07137","name":"Mayen-Koblenz","type":"Landkreis"},"federalState":{"key":"07","name":"Rheinland-Pfalz"}},{"name":"Lindenweg","postalCode":"56299","locality":"Ochtendung","municipality":{"key":"07137086","name":"Ochtendung","type":"Kreisangehörige_Gemeinde"},"district":{"key":"07137","name":"Mayen-Koblenz","type":"Landkreis"},"federalState":{"key":"07","name":"Rheinland-Pfalz"}},{"name":"Lorenz Wingert","postalCode":"56299","locality":"Ochtendung","municipality":{"key":"07137086","name":"Ochtendung","type":"Kreisangehörige_Gemeinde"},"district":{"key":"07137","name":"Mayen-Koblenz","type":"Landkreis"},"federalState":{"key":"07","name":"Rheinland-Pfalz"}},{"name":"Ludwig-Erhard-Str.","postalCode":"56299","locality":"Ochtendung","municipality":{"key":"07137086","name":"Ochtendung","type":"Kreisangehörige_Gemeinde"},"district":{"key":"07137","name":"Mayen-Koblenz","type":"Landkreis"},"federalState":{"key":"07","name":"Rheinland-Pfalz"}},{"name":"Ludwig-Uhland-Str.","postalCode":"56299","locality":"Ochtendung","municipality":{"key":"07137086","name":"Ochtendung","type":"Kreisangehörige_Gemeinde"},"district":{"key":"07137","name":"Mayen-Koblenz","type":"Landkreis"},"federalState":{"key":"07","name":"Rheinland-Pfalz"}},{"name":"Maifeldstr.","postalCode":"56299","locality":"Ochtendung","municipality":{"key":"07137086","name":"Ochtendung","type":"Kreisangehörige_Gemeinde"},"district":{"key":"07137","name":"Mayen-Koblenz","type":"Landkreis"},"federalState":{"key":"07","name":"Rheinland-Pfalz"}},{"name":"Marie-Juchacz-Str.","postalCode":"56299","locality":"Ochtendung","municipality":{"key":"07137086","name":"Ochtendung","type":"Kreisangehörige_Gemeinde"},"district":{"key":"07137","name":"Mayen-Koblenz","type":"Landkreis"},"federalState":{"key":"07","name":"Rheinland-Pfalz"}},{"name":"Martinstr.","postalCode":"56299","locality":"Ochtendung","municipality":{"key":"07137086","name":"Ochtendung","type":"Kreisangehörige_Gemeinde"},"district":{"key":"07137","name":"Mayen-Koblenz","type":"Landkreis"},"federalState":{"key":"07","name":"Rheinland-Pfalz"}},{"name":"Mittelstr.","postalCode":"56299","locality":"Ochtendung","municipality":{"key":"07137086","name":"Ochtendung","type":"Kreisangehörige_Gemeinde"},"district":{"key":"07137","name":"Mayen-Koblenz","type":"Landkreis"},"federalState":{"key":"07","name":"Rheinland-Pfalz"}},{"name":"Mohlenweg","postalCode":"56299","locality":"Ochtendung","municipality":{"key":"07137086","name":"Ochtendung","type":"Kreisangehörige_Gemeinde"},"district":{"key":"07137","name":"Mayen-Koblenz","type":"Landkreis"},"federalState":{"key":"07","name":"Rheinland-Pfalz"}},{"name":"Moltkestr.","postalCode":"56299","locality":"Ochtendung","municipality":{"key":"07137086","name":"Ochtendung","type":"Kreisangehörige_Gemeinde"},"district":{"key":"07137","name":"Mayen-Koblenz","type":"Landkreis"},"federalState":{"key":"07","name":"Rheinland-Pfalz"}},{"name":"Obere Grabenstr.","postalCode":"56299","locality":"Ochtendung","municipality":{"key":"07137086","name":"Ochtendung","type":"Kreisangehörige_Gemeinde"},"district":{"key":"07137","name":"Mayen-Koblenz","type":"Landkreis"},"federalState":{"key":"07","name":"Rheinland-Pfalz"}},{"name":"Oberpfortstr.","postalCode":"56299","locality":"Ochtendung","municipality":{"key":"07137086","name":"Ochtendung","type":"Kreisangehörige_Gemeinde"},"district":{"key":"07137","name":"Mayen-Koblenz","type":"Landkreis"},"federalState":{"key":"07","name":"Rheinland-Pfalz"}},{"name":"Oberwertsmühle","postalCode":"56299","locality":"Ochtendung","municipality":{"key":"07137086","name":"Ochtendung","type":"Kreisangehörige_Gemeinde"},"district":{"key":"07137","name":"Mayen-Koblenz","type":"Landkreis"},"federalState":{"key":"07","name":"Rheinland-Pfalz"}},{"name":"Ohligsmühle","postalCode":"56299","locality":"Ochtendung","municipality":{"key":"07137086","name":"Ochtendung","type":"Kreisangehörige_Gemeinde"},"district":{"key":"07137","name":"Mayen-Koblenz","type":"Landkreis"},"federalState":{"key":"07","name":"Rheinland-Pfalz"}},{"name":"Parkstr.","postalCode":"56299","locality":"Ochtendung","municipality":{"key":"07137086","name":"Ochtendung","type":"Kreisangehörige_Gemeinde"},"district":{"key":"07137","name":"Mayen-Koblenz","type":"Landkreis"},"federalState":{"key":"07","name":"Rheinland-Pfalz"}},{"name":"Pellenzstr.","postalCode":"56299","locality":"Ochtendung","municipality":{"key":"07137086","name":"Ochtendung","type":"Kreisangehörige_Gemeinde"},"district":{"key":"07137","name":"Mayen-Koblenz","type":"Landkreis"},"federalState":{"key":"07","name":"Rheinland-Pfalz"}},{"name":"Petersstr.","postalCode":"56299","locality":"Ochtendung","municipality":{"key":"07137086","name":"Ochtendung","type":"Kreisangehörige_Gemeinde"},"district":{"key":"07137","name":"Mayen-Koblenz","type":"Landkreis"},"federalState":{"key":"07","name":"Rheinland-Pfalz"}},{"name":"Plaidter Str.","postalCode":"56299","locality":"Ochtendung","municipality":{"key":"07137086","name":"Ochtendung","type":"Kreisangehörige_Gemeinde"},"district":{"key":"07137","name":"Mayen-Koblenz","type":"Landkreis"},"federalState":{"key":"07","name":"Rheinland-Pfalz"}},{"name":"Polcher Str.","postalCode":"56299","locality":"Ochtendung","municipality":{"key":"07137086","name":"Ochtendung","type":"Kreisangehörige_Gemeinde"},"district":{"key":"07137","name":"Mayen-Koblenz","type":"Landkreis"},"federalState":{"key":"07","name":"Rheinland-Pfalz"}},{"name":"Raiffeisenplatz","postalCode":"56299","locality":"Ochtendung","municipality":{"key":"07137086","name":"Ochtendung","type":"Kreisangehörige_Gemeinde"},"district":{"key":"07137","name":"Mayen-Koblenz","type":"Landkreis"},"federalState":{"key":"07","name":"Rheinland-Pfalz"}},{"name":"Römerstr.","postalCode":"56299","locality":"Ochtendung","municipality":{"key":"07137086","name":"Ochtendung","type":"Kreisangehörige_Gemeinde"},"district":{"key":"07137","name":"Mayen-Koblenz","type":"Landkreis"},"federalState":{"key":"07","name":"Rheinland-Pfalz"}},{"name":"Ruitscher Weg","postalCode":"56299","locality":"Ochtendung","municipality":{"key":"07137086","name":"Ochtendung","type":"Kreisangehörige_Gemeinde"},"district":{"key":"07137","name":"Mayen-Koblenz","type":"Landkreis"},"federalState":{"key":"07","name":"Rheinland-Pfalz"}},{"name":"Saalgangstr.","postalCode":"56299","locality":"Ochtendung","municipality":{"key":"07137086","name":"Ochtendung","type":"Kreisangehörige_Gemeinde"},"district":{"key":"07137","name":"Mayen-Koblenz","type":"Landkreis"},"federalState":{"key":"07","name":"Rheinland-Pfalz"}},{"name":"Saffiger Str.","postalCode":"56299","locality":"Ochtendung","municipality":{"key":"07137086","name":"Ochtendung","type":"Kreisangehörige_Gemeinde"},"district":{"key":"07137","name":"Mayen-Koblenz","type":"Landkreis"},"federalState":{"key":"07","name":"Rheinland-Pfalz"}},{"name":"Schillerstr.","postalCode":"56299","locality":"Ochtendung","municipality":{"key":"07137086","name":"Ochtendung","type":"Kreisangehörige_Gemeinde"},"district":{"key":"07137","name":"Mayen-Koblenz","type":"Landkreis"},"federalState":{"key":"07","name":"Rheinland-Pfalz"}},{"name":"Schlewiesenmühle","postalCode":"56299","locality":"Ochtendung","municipality":{"key":"07137086","name":"Ochtendung","type":"Kreisangehörige_Gemeinde"},"district":{"key":"07137","name":"Mayen-Koblenz","type":"Landkreis"},"federalState":{"key":"07","name":"Rheinland-Pfalz"}},{"name":"Schützenstr.","postalCode":"56299","locality":"Ochtendung","municipality":{"key":"07137086","name":"Ochtendung","type":"Kreisangehörige_Gemeinde"},"district":{"key":"07137","name":"Mayen-Koblenz","type":"Landkreis"},"federalState":{"key":"07","name":"Rheinland-Pfalz"}},{"name":"Sebastianstr.","postalCode":"56299","locality":"Ochtendung","municipality":{"key":"07137086","name":"Ochtendung","type":"Kreisangehörige_Gemeinde"},"district":{"key":"07137","name":"Mayen-Koblenz","type":"Landkreis"},"federalState":{"key":"07","name":"Rheinland-Pfalz"}},{"name":"Steinstückhof","postalCode":"56299","locality":"Ochtendung","municipality":{"key":"07137086","name":"Ochtendung","type":"Kreisangehörige_Gemeinde"},"district":{"key":"07137","name":"Mayen-Koblenz","type":"Landkreis"},"federalState":{"key":"07","name":"Rheinland-Pfalz"}},{"name":"St. Hidulfstr.","postalCode":"56299","locality":"Ochtendung","municipality":{"key":"07137086","name":"Ochtendung","type":"Kreisangehörige_Gemeinde"},"district":{"key":"07137","name":"Mayen-Koblenz","type":"Landkreis"},"federalState":{"key":"07","name":"Rheinland-Pfalz"}},{"name":"Theodor-Heuss-Ring","postalCode":"56299","locality":"Ochtendung","municipality":{"key":"07137086","name":"Ochtendung","type":"Kreisangehörige_Gemeinde"},"district":{"key":"07137","name":"Mayen-Koblenz","type":"Landkreis"},"federalState":{"key":"07","name":"Rheinland-Pfalz"}},{"name":"Untere Grabenstr.","postalCode":"56299","locality":"Ochtendung","municipality":{"key":"07137086","name":"Ochtendung","type":"Kreisangehörige_Gemeinde"},"district":{"key":"07137","name":"Mayen-Koblenz","type":"Landkreis"},"federalState":{"key":"07","name":"Rheinland-Pfalz"}},{"name":"Welschtalweg","postalCode":"56299","locality":"Ochtendung","municipality":{"key":"07137086","name":"Ochtendung","type":"Kreisangehörige_Gemeinde"},"district":{"key":"07137","name":"Mayen-Koblenz","type":"Landkreis"},"federalState":{"key":"07","name":"Rheinland-Pfalz"}},{"name":"Wernerseckstr.","postalCode":"56299","locality":"Ochtendung","municipality":{"key":"07137086","name":"Ochtendung","type":"Kreisangehörige_Gemeinde"},"district":{"key":"07137","name":"Mayen-Koblenz","type":"Landkreis"},"federalState":{"key":"07","name":"Rheinland-Pfalz"}},{"name":"Willy-Brandt-Str.","postalCode":"56299","locality":"Ochtendung","municipality":{"key":"07137086","name":"Ochtendung","type":"Kreisangehörige_Gemeinde"},"district":{"key":"07137","name":"Mayen-Koblenz","type":"Landkreis"},"federalState":{"key":"07","name":"Rheinland-Pfalz"}},{"name":"Wingertsweg","postalCode":"56299","locality":"Ochtendung","municipality":{"key":"07137086","name":"Ochtendung","type":"Kreisangehörige_Gemeinde"},"district":{"key":"07137","name":"Mayen-Koblenz","type":"Landkreis"},"federalState":{"key":"07","name":"Rheinland-Pfalz"}},{"name":"Zehnthofstr.","postalCode":"56299","locality":"Ochtendung","municipality":{"key":"07137086","name":"Ochtendung","type":"Kreisangehörige_Gemeinde"},"district":{"key":"07137","name":"Mayen-Koblenz","type":"Landkreis"},"federalState":{"key":"07","name":"Rheinland-Pfalz"}},{"name":"Zur Römervilla","postalCode":"56299","locality":"Ochtendung","municipality":{"key":"07137086","name":"Ochtendung","type":"Kreisangehörige_Gemeinde"},"district":{"key":"07137","name":"Mayen-Koblenz","type":"Landkreis"},"federalState":{"key":"07","name":"Rheinland-Pfalz"}},{"name":"Zur Seckelkünde","postalCode":"56299","locality":"Ochtendung","municipality":{"key":"07137086","name":"Ochtendung","type":"Kreisangehörige_Gemeinde"},"district":{"key":"07137","name":"Mayen-Koblenz","type":"Landkreis"},"federalState":{"key":"07","name":"Rheinland-Pfalz"}},]