[{"name":"Ahornstr.","postalCode":"94256","locality":"Drachselsried","municipality":{"key":"09276120","name":"Drachselsried","type":"Kreisangehörige_Gemeinde"},"district":{"key":"09276","name":"Regen","type":"Landkreis"},"federalState":{"key":"09","name":"Bayern"}},{"name":"Am Anger","postalCode":"94256","locality":"Drachselsried","municipality":{"key":"09276120","name":"Drachselsried","type":"Kreisangehörige_Gemeinde"},"district":{"key":"09276","name":"Regen","type":"Landkreis"},"federalState":{"key":"09","name":"Bayern"}},{"name":"Am Marterfeld","postalCode":"94256","locality":"Drachselsried","municipality":{"key":"09276120","name":"Drachselsried","type":"Kreisangehörige_Gemeinde"},"district":{"key":"09276","name":"Regen","type":"Landkreis"},"federalState":{"key":"09","name":"Bayern"}},{"name":"Amselweg","postalCode":"94256","locality":"Drachselsried","municipality":{"key":"09276120","name":"Drachselsried","type":"Kreisangehörige_Gemeinde"},"district":{"key":"09276","name":"Regen","type":"Landkreis"},"federalState":{"key":"09","name":"Bayern"}},{"name":"Am Sonnenhang","postalCode":"94256","locality":"Drachselsried","municipality":{"key":"09276120","name":"Drachselsried","type":"Kreisangehörige_Gemeinde"},"district":{"key":"09276","name":"Regen","type":"Landkreis"},"federalState":{"key":"09","name":"Bayern"}},{"name":"Am Wiesengrund","postalCode":"94256","locality":"Drachselsried","municipality":{"key":"09276120","name":"Drachselsried","type":"Kreisangehörige_Gemeinde"},"district":{"key":"09276","name":"Regen","type":"Landkreis"},"federalState":{"key":"09","name":"Bayern"}},{"name":"Angerweg","postalCode":"94256","locality":"Drachselsried","municipality":{"key":"09276120","name":"Drachselsried","type":"Kreisangehörige_Gemeinde"},"district":{"key":"09276","name":"Regen","type":"Landkreis"},"federalState":{"key":"09","name":"Bayern"}},{"name":"Arberstr.","postalCode":"94256","locality":"Drachselsried","municipality":{"key":"09276120","name":"Drachselsried","type":"Kreisangehörige_Gemeinde"},"district":{"key":"09276","name":"Regen","type":"Landkreis"},"federalState":{"key":"09","name":"Bayern"}},{"name":"Arnbrucker Steig","postalCode":"94256","locality":"Drachselsried","municipality":{"key":"09276120","name":"Drachselsried","type":"Kreisangehörige_Gemeinde"},"district":{"key":"09276","name":"Regen","type":"Landkreis"},"federalState":{"key":"09","name":"Bayern"}},{"name":"Bergener Str.","postalCode":"94256","locality":"Drachselsried","municipality":{"key":"09276120","name":"Drachselsried","type":"Kreisangehörige_Gemeinde"},"district":{"key":"09276","name":"Regen","type":"Landkreis"},"federalState":{"key":"09","name":"Bayern"}},{"name":"Bergstr.","postalCode":"94256","locality":"Drachselsried","municipality":{"key":"09276120","name":"Drachselsried","type":"Kreisangehörige_Gemeinde"},"district":{"key":"09276","name":"Regen","type":"Landkreis"},"federalState":{"key":"09","name":"Bayern"}},{"name":"Birkenweg","postalCode":"94256","locality":"Drachselsried","municipality":{"key":"09276120","name":"Drachselsried","type":"Kreisangehörige_Gemeinde"},"district":{"key":"09276","name":"Regen","type":"Landkreis"},"federalState":{"key":"09","name":"Bayern"}},{"name":"Blachendorf","postalCode":"94256","locality":"Drachselsried","municipality":{"key":"09276120","name":"Drachselsried","type":"Kreisangehörige_Gemeinde"},"district":{"key":"09276","name":"Regen","type":"Landkreis"},"federalState":{"key":"09","name":"Bayern"}},{"name":"Bodenmaiserstr.","postalCode":"94256","locality":"Drachselsried","municipality":{"key":"09276120","name":"Drachselsried","type":"Kreisangehörige_Gemeinde"},"district":{"key":"09276","name":"Regen","type":"Landkreis"},"federalState":{"key":"09","name":"Bayern"}},{"name":"Camille-Claudel-Str.","postalCode":"93055","locality":"Regensburg","municipality":{"key":"09362000","name":"Regensburg","type":"Kreisfreie_Stadt"},"district":{"key":"09362","name":"Regensburg","type":"Kreisfreie_Stadt"},"federalState":{"key":"09","name":"Bayern"}},{"name":"Carl-Loewe-Str.","postalCode":"93128","locality":"Regenstauf","municipality":{"key":"09375190","name":"Regenstauf, M","type":"Markt"},"district":{"key":"09375","name":"Regensburg","type":"Landkreis"},"federalState":{"key":"09","name":"Bayern"}},{"name":"Carl-Maria-von-Weber-Str.","postalCode":"93053","locality":"Regensburg","municipality":{"key":"09362000","name":"Regensburg","type":"Kreisfreie_Stadt"},"district":{"key":"09362","name":"Regensburg","type":"Kreisfreie_Stadt"},"federalState":{"key":"09","name":"Bayern"}},{"name":"Carl-Orff-Str.","postalCode":"93128","locality":"Regenstauf","municipality":{"key":"09375190","name":"Regenstauf, M","type":"Markt"},"district":{"key":"09375","name":"Regensburg","type":"Landkreis"},"federalState":{"key":"09","name":"Bayern"}},{"name":"Carl-Orff-Weg","postalCode":"93051","locality":"Regensburg","municipality":{"key":"09362000","name":"Regensburg","type":"Kreisfreie_Stadt"},"district":{"key":"09362","name":"Regensburg","type":"Kreisfreie_Stadt"},"federalState":{"key":"09","name":"Bayern"}},{"name":"Carlstr.","postalCode":"93049","locality":"Regensburg","municipality":{"key":"09362000","name":"Regensburg","type":"Kreisfreie_Stadt"},"district":{"key":"09362","name":"Regensburg","type":"Kreisfreie_Stadt"},"federalState":{"key":"09","name":"Bayern"}},{"name":"Carl-Thiel-Str.","postalCode":"93053","locality":"Regensburg","municipality":{"key":"09362000","name":"Regensburg","type":"Kreisfreie_Stadt"},"district":{"key":"09362","name":"Regensburg","type":"Kreisfreie_Stadt"},"federalState":{"key":"09","name":"Bayern"}},{"name":"Caroline-Herschel-Str.","postalCode":"93055","locality":"Regensburg","municipality":{"key":"09362000","name":"Regensburg","type":"Kreisfreie_Stadt"},"district":{"key":"09362","name":"Regensburg","type":"Kreisfreie_Stadt"},"federalState":{"key":"09","name":"Bayern"}},{"name":"Cecilie-Vogt-Weg","postalCode":"93055","locality":"Regensburg","municipality":{"key":"09362000","name":"Regensburg","type":"Kreisfreie_Stadt"},"district":{"key":"09362","name":"Regensburg","type":"Kreisfreie_Stadt"},"federalState":{"key":"09","name":"Bayern"}},{"name":"Ceresweg","postalCode":"93055","locality":"Regensburg","municipality":{"key":"09362000","name":"Regensburg","type":"Kreisfreie_Stadt"},"district":{"key":"09362","name":"Regensburg","type":"Kreisfreie_Stadt"},"federalState":{"key":"09","name":"Bayern"}},{"name":"Chamer Str.","postalCode":"93057","locality":"Regensburg","municipality":{"key":"09362000","name":"Regensburg","type":"Kreisfreie_Stadt"},"district":{"key":"09362","name":"Regensburg","type":"Kreisfreie_Stadt"},"federalState":{"key":"09","name":"Bayern"}},{"name":"Charles-Lindbergh-Str.","postalCode":"93049","locality":"Regensburg","municipality":{"key":"09362000","name":"Regensburg","type":"Kreisfreie_Stadt"},"district":{"key":"09362","name":"Regensburg","type":"Kreisfreie_Stadt"},"federalState":{"key":"09","name":"Bayern"}},{"name":"Christine-Friedlein-Str.","postalCode":"93055","locality":"Regensburg","municipality":{"key":"09362000","name":"Regensburg","type":"Kreisfreie_Stadt"},"district":{"key":"09362","name":"Regensburg","type":"Kreisfreie_Stadt"},"federalState":{"key":"09","name":"Bayern"}},{"name":"Christliebstr.","postalCode":"93055","locality":"Regensburg","municipality":{"key":"09362000","name":"Regensburg","type":"Kreisfreie_Stadt"},"district":{"key":"09362","name":"Regensburg","type":"Kreisfreie_Stadt"},"federalState":{"key":"09","name":"Bayern"}},{"name":"Christoph-Vogel-Str.","postalCode":"93128","locality":"Regenstauf","municipality":{"key":"09375190","name":"Regenstauf, M","type":"Markt"},"district":{"key":"09375","name":"Regensburg","type":"Landkreis"},"federalState":{"key":"09","name":"Bayern"}},{"name":"Clara-Schumann-Str.","postalCode":"93049","locality":"Regensburg","municipality":{"key":"09362000","name":"Regensburg","type":"Kreisfreie_Stadt"},"district":{"key":"09362","name":"Regensburg","type":"Kreisfreie_Stadt"},"federalState":{"key":"09","name":"Bayern"}},{"name":"Clausewitzstr.","postalCode":"93049","locality":"Regensburg","municipality":{"key":"09362000","name":"Regensburg","type":"Kreisfreie_Stadt"},"district":{"key":"09362","name":"Regensburg","type":"Kreisfreie_Stadt"},"federalState":{"key":"09","name":"Bayern"}},{"name":"Clermont-Ferrand-Allee","postalCode":"93049","locality":"Regensburg","municipality":{"key":"09362000","name":"Regensburg","type":"Kreisfreie_Stadt"},"district":{"key":"09362","name":"Regensburg","type":"Kreisfreie_Stadt"},"federalState":{"key":"09","name":"Bayern"}},{"name":"Coburger Str.","postalCode":"93057","locality":"Regensburg","municipality":{"key":"09362000","name":"Regensburg","type":"Kreisfreie_Stadt"},"district":{"key":"09362","name":"Regensburg","type":"Kreisfreie_Stadt"},"federalState":{"key":"09","name":"Bayern"}},{"name":"Colmarer Str.","postalCode":"93057","locality":"Regensburg","municipality":{"key":"09362000","name":"Regensburg","type":"Kreisfreie_Stadt"},"district":{"key":"09362","name":"Regensburg","type":"Kreisfreie_Stadt"},"federalState":{"key":"09","name":"Bayern"}},{"name":"Coulmiersstr.","postalCode":"93055","locality":"Regensburg","municipality":{"key":"09362000","name":"Regensburg","type":"Kreisfreie_Stadt"},"district":{"key":"09362","name":"Regensburg","type":"Kreisfreie_Stadt"},"federalState":{"key":"09","name":"Bayern"}},{"name":"Cranachweg","postalCode":"93051","locality":"Regensburg","municipality":{"key":"09362000","name":"Regensburg","type":"Kreisfreie_Stadt"},"district":{"key":"09362","name":"Regensburg","type":"Kreisfreie_Stadt"},"federalState":{"key":"09","name":"Bayern"}},{"name":"Dorfplatz","postalCode":"94256","locality":"Drachselsried","municipality":{"key":"09276120","name":"Drachselsried","type":"Kreisangehörige_Gemeinde"},"district":{"key":"09276","name":"Regen","type":"Landkreis"},"federalState":{"key":"09","name":"Bayern"}},{"name":"Dorfstr.","postalCode":"94256","locality":"Drachselsried","municipality":{"key":"09276120","name":"Drachselsried","type":"Kreisangehörige_Gemeinde"},"district":{"key":"09276","name":"Regen","type":"Landkreis"},"federalState":{"key":"09","name":"Bayern"}},{"name":"Eichenweg","postalCode":"94256","locality":"Drachselsried","municipality":{"key":"09276120","name":"Drachselsried","type":"Kreisangehörige_Gemeinde"},"district":{"key":"09276","name":"Regen","type":"Landkreis"},"federalState":{"key":"09","name":"Bayern"}},{"name":"Enzianstr.","postalCode":"94256","locality":"Drachselsried","municipality":{"key":"09276120","name":"Drachselsried","type":"Kreisangehörige_Gemeinde"},"district":{"key":"09276","name":"Regen","type":"Landkreis"},"federalState":{"key":"09","name":"Bayern"}},{"name":"Fichtenweg","postalCode":"94256","locality":"Drachselsried","municipality":{"key":"09276120","name":"Drachselsried","type":"Kreisangehörige_Gemeinde"},"district":{"key":"09276","name":"Regen","type":"Landkreis"},"federalState":{"key":"09","name":"Bayern"}},{"name":"Finkenweg","postalCode":"94256","locality":"Drachselsried","municipality":{"key":"09276120","name":"Drachselsried","type":"Kreisangehörige_Gemeinde"},"district":{"key":"09276","name":"Regen","type":"Landkreis"},"federalState":{"key":"09","name":"Bayern"}},{"name":"Gaschlerwiese","postalCode":"94256","locality":"Drachselsried","municipality":{"key":"09276120","name":"Drachselsried","type":"Kreisangehörige_Gemeinde"},"district":{"key":"09276","name":"Regen","type":"Landkreis"},"federalState":{"key":"09","name":"Bayern"}},{"name":"Gewerbegebiet","postalCode":"94256","locality":"Drachselsried","municipality":{"key":"09276120","name":"Drachselsried","type":"Kreisangehörige_Gemeinde"},"district":{"key":"09276","name":"Regen","type":"Landkreis"},"federalState":{"key":"09","name":"Bayern"}},{"name":"Greilbühelweg","postalCode":"94256","locality":"Drachselsried","municipality":{"key":"09276120","name":"Drachselsried","type":"Kreisangehörige_Gemeinde"},"district":{"key":"09276","name":"Regen","type":"Landkreis"},"federalState":{"key":"09","name":"Bayern"}},{"name":"Hochsteinweg","postalCode":"94256","locality":"Drachselsried","municipality":{"key":"09276120","name":"Drachselsried","type":"Kreisangehörige_Gemeinde"},"district":{"key":"09276","name":"Regen","type":"Landkreis"},"federalState":{"key":"09","name":"Bayern"}},{"name":"Hofmark","postalCode":"94256","locality":"Drachselsried","municipality":{"key":"09276120","name":"Drachselsried","type":"Kreisangehörige_Gemeinde"},"district":{"key":"09276","name":"Regen","type":"Landkreis"},"federalState":{"key":"09","name":"Bayern"}},{"name":"Illerstr.","postalCode":"93057","locality":"Regensburg","municipality":{"key":"09362000","name":"Regensburg","type":"Kreisfreie_Stadt"},"district":{"key":"09362","name":"Regensburg","type":"Kreisfreie_Stadt"},"federalState":{"key":"09","name":"Bayern"}},{"name":"Ilmstr.","postalCode":"93059","locality":"Regensburg","municipality":{"key":"09362000","name":"Regensburg","type":"Kreisfreie_Stadt"},"district":{"key":"09362","name":"Regensburg","type":"Kreisfreie_Stadt"},"federalState":{"key":"09","name":"Bayern"}},{"name":"Ilse-Gräbner-Str.","postalCode":"93055","locality":"Regensburg","municipality":{"key":"09362000","name":"Regensburg","type":"Kreisfreie_Stadt"},"district":{"key":"09362","name":"Regensburg","type":"Kreisfreie_Stadt"},"federalState":{"key":"09","name":"Bayern"}},{"name":"Ilzstr.","postalCode":"93059","locality":"Regensburg","municipality":{"key":"09362000","name":"Regensburg","type":"Kreisfreie_Stadt"},"district":{"key":"09362","name":"Regensburg","type":"Kreisfreie_Stadt"},"federalState":{"key":"09","name":"Bayern"}},{"name":"Im Baslet","postalCode":"94209","locality":"Regen","municipality":{"key":"09276138","name":"Regen, St","type":"Stadt"},"district":{"key":"09276","name":"Regen","type":"Landkreis"},"federalState":{"key":"09","name":"Bayern"}},{"name":"Im Gallmoos","postalCode":"93128","locality":"Regenstauf","municipality":{"key":"09375190","name":"Regenstauf, M","type":"Markt"},"district":{"key":"09375","name":"Regensburg","type":"Landkreis"},"federalState":{"key":"09","name":"Bayern"}},{"name":"Im Gewerbepark","postalCode":"93059","locality":"Regensburg","municipality":{"key":"09362000","name":"Regensburg","type":"Kreisfreie_Stadt"},"district":{"key":"09362","name":"Regensburg","type":"Kreisfreie_Stadt"},"federalState":{"key":"09","name":"Bayern"}},{"name":"Im Grübel","postalCode":"94209","locality":"Regen","municipality":{"key":"09276138","name":"Regen, St","type":"Stadt"},"district":{"key":"09276","name":"Regen","type":"Landkreis"},"federalState":{"key":"09","name":"Bayern"}},{"name":"Im Gschwander","postalCode":"93057","locality":"Regensburg","municipality":{"key":"09362000","name":"Regensburg","type":"Kreisfreie_Stadt"},"district":{"key":"09362","name":"Regensburg","type":"Kreisfreie_Stadt"},"federalState":{"key":"09","name":"Bayern"}},{"name":"Im Gwendt","postalCode":"93128","locality":"Regenstauf","municipality":{"key":"09375190","name":"Regenstauf, M","type":"Markt"},"district":{"key":"09375","name":"Regensburg","type":"Landkreis"},"federalState":{"key":"09","name":"Bayern"}},{"name":"Im Langen Gwend","postalCode":"93057","locality":"Regensburg","municipality":{"key":"09362000","name":"Regensburg","type":"Kreisfreie_Stadt"},"district":{"key":"09362","name":"Regensburg","type":"Kreisfreie_Stadt"},"federalState":{"key":"09","name":"Bayern"}},{"name":"Immelmannstr.","postalCode":"93051","locality":"Regensburg","municipality":{"key":"09362000","name":"Regensburg","type":"Kreisfreie_Stadt"},"district":{"key":"09362","name":"Regensburg","type":"Kreisfreie_Stadt"},"federalState":{"key":"09","name":"Bayern"}},{"name":"Im Reichen Winkel","postalCode":"93057","locality":"Regensburg","municipality":{"key":"09362000","name":"Regensburg","type":"Kreisfreie_Stadt"},"district":{"key":"09362","name":"Regensburg","type":"Kreisfreie_Stadt"},"federalState":{"key":"09","name":"Bayern"}},{"name":"Im Ried","postalCode":"93055","locality":"Regensburg","municipality":{"key":"09362000","name":"Regensburg","type":"Kreisfreie_Stadt"},"district":{"key":"09362","name":"Regensburg","type":"Kreisfreie_Stadt"},"federalState":{"key":"09","name":"Bayern"}},{"name":"In der Obern Au","postalCode":"93055","locality":"Regensburg","municipality":{"key":"09362000","name":"Regensburg","type":"Kreisfreie_Stadt"},"district":{"key":"09362","name":"Regensburg","type":"Kreisfreie_Stadt"},"federalState":{"key":"09","name":"Bayern"}},{"name":"Industriestr.","postalCode":"94209","locality":"Regen","municipality":{"key":"09276138","name":"Regen, St","type":"Stadt"},"district":{"key":"09276","name":"Regen","type":"Landkreis"},"federalState":{"key":"09","name":"Bayern"}},{"name":"Ingeborg-Bachmann-Weg","postalCode":"93055","locality":"Regensburg","municipality":{"key":"09362000","name":"Regensburg","type":"Kreisfreie_Stadt"},"district":{"key":"09362","name":"Regensburg","type":"Kreisfreie_Stadt"},"federalState":{"key":"09","name":"Bayern"}},{"name":"Innstr.","postalCode":"93059","locality":"Regensburg","municipality":{"key":"09362000","name":"Regensburg","type":"Kreisfreie_Stadt"},"district":{"key":"09362","name":"Regensburg","type":"Kreisfreie_Stadt"},"federalState":{"key":"09","name":"Bayern"}},{"name":"Inselpark","postalCode":"93059","locality":"Regensburg","municipality":{"key":"09362000","name":"Regensburg","type":"Kreisfreie_Stadt"},"district":{"key":"09362","name":"Regensburg","type":"Kreisfreie_Stadt"},"federalState":{"key":"09","name":"Bayern"}},{"name":"Inselstr.","postalCode":"93059","locality":"Regensburg","municipality":{"key":"09362000","name":"Regensburg","type":"Kreisfreie_Stadt"},"district":{"key":"09362","name":"Regensburg","type":"Kreisfreie_Stadt"},"federalState":{"key":"09","name":"Bayern"}},{"name":"Irl","postalCode":"93055","locality":"Regensburg","municipality":{"key":"09362000","name":"Regensburg","type":"Kreisfreie_Stadt"},"district":{"key":"09362","name":"Regensburg","type":"Kreisfreie_Stadt"},"federalState":{"key":"09","name":"Bayern"}},{"name":"Irlmauth","postalCode":"93055","locality":"Regensburg","municipality":{"key":"09362000","name":"Regensburg","type":"Kreisfreie_Stadt"},"district":{"key":"09362","name":"Regensburg","type":"Kreisfreie_Stadt"},"federalState":{"key":"09","name":"Bayern"}},{"name":"Isarstr.","postalCode":"93057","locality":"Regensburg","municipality":{"key":"09362000","name":"Regensburg","type":"Kreisfreie_Stadt"},"district":{"key":"09362","name":"Regensburg","type":"Kreisfreie_Stadt"},"federalState":{"key":"09","name":"Bayern"}},{"name":"Isinoweg","postalCode":"93053","locality":"Regensburg","municipality":{"key":"09362000","name":"Regensburg","type":"Kreisfreie_Stadt"},"district":{"key":"09362","name":"Regensburg","type":"Kreisfreie_Stadt"},"federalState":{"key":"09","name":"Bayern"}},{"name":"Islinger Weg","postalCode":"93055","locality":"Regensburg","municipality":{"key":"09362000","name":"Regensburg","type":"Kreisfreie_Stadt"},"district":{"key":"09362","name":"Regensburg","type":"Kreisfreie_Stadt"},"federalState":{"key":"09","name":"Bayern"}},{"name":"Isonzostr.","postalCode":"93057","locality":"Regensburg","municipality":{"key":"09362000","name":"Regensburg","type":"Kreisfreie_Stadt"},"district":{"key":"09362","name":"Regensburg","type":"Kreisfreie_Stadt"},"federalState":{"key":"09","name":"Bayern"}},{"name":"Jahnstr.","postalCode":"93128","locality":"Regenstauf","municipality":{"key":"09375190","name":"Regenstauf, M","type":"Markt"},"district":{"key":"09375","name":"Regensburg","type":"Landkreis"},"federalState":{"key":"09","name":"Bayern"}},{"name":"Jahnstr.","postalCode":"94209","locality":"Regen","municipality":{"key":"09276138","name":"Regen, St","type":"Stadt"},"district":{"key":"09276","name":"Regen","type":"Landkreis"},"federalState":{"key":"09","name":"Bayern"}},{"name":"Jakob-Ertl-Gasse","postalCode":"94209","locality":"Regen","municipality":{"key":"09276138","name":"Regen, St","type":"Stadt"},"district":{"key":"09276","name":"Regen","type":"Landkreis"},"federalState":{"key":"09","name":"Bayern"}},{"name":"Jakobstr.","postalCode":"93047","locality":"Regensburg","municipality":{"key":"09362000","name":"Regensburg","type":"Kreisfreie_Stadt"},"district":{"key":"09362","name":"Regensburg","type":"Kreisfreie_Stadt"},"federalState":{"key":"09","name":"Bayern"}},{"name":"Jannerstr.","postalCode":"93053","locality":"Regensburg","municipality":{"key":"09362000","name":"Regensburg","type":"Kreisfreie_Stadt"},"district":{"key":"09362","name":"Regensburg","type":"Kreisfreie_Stadt"},"federalState":{"key":"09","name":"Bayern"}},{"name":"Janusstr.","postalCode":"93051","locality":"Regensburg","municipality":{"key":"09362000","name":"Regensburg","type":"Kreisfreie_Stadt"},"district":{"key":"09362","name":"Regensburg","type":"Kreisfreie_Stadt"},"federalState":{"key":"09","name":"Bayern"}},{"name":"Jesuitengässel","postalCode":"93047","locality":"Regensburg","municipality":{"key":"09362000","name":"Regensburg","type":"Kreisfreie_Stadt"},"district":{"key":"09362","name":"Regensburg","type":"Kreisfreie_Stadt"},"federalState":{"key":"09","name":"Bayern"}},{"name":"Johanna-Dachs-Str.","postalCode":"93055","locality":"Regensburg","municipality":{"key":"09362000","name":"Regensburg","type":"Kreisfreie_Stadt"},"district":{"key":"09362","name":"Regensburg","type":"Kreisfreie_Stadt"},"federalState":{"key":"09","name":"Bayern"}},{"name":"Johanna-Kinkel-Str.","postalCode":"93049","locality":"Regensburg","municipality":{"key":"09362000","name":"Regensburg","type":"Kreisfreie_Stadt"},"district":{"key":"09362","name":"Regensburg","type":"Kreisfreie_Stadt"},"federalState":{"key":"09","name":"Bayern"}},{"name":"Johannesfeldstr.","postalCode":"94209","locality":"Regen","municipality":{"key":"09276138","name":"Regen, St","type":"Stadt"},"district":{"key":"09276","name":"Regen","type":"Landkreis"},"federalState":{"key":"09","name":"Bayern"}},{"name":"Johannes-Kepler-Str.","postalCode":"93128","locality":"Regenstauf","municipality":{"key":"09375190","name":"Regenstauf, M","type":"Markt"},"district":{"key":"09375","name":"Regensburg","type":"Landkreis"},"federalState":{"key":"09","name":"Bayern"}},{"name":"Johann-Hösl-Str.","postalCode":"93053","locality":"Regensburg","municipality":{"key":"09362000","name":"Regensburg","type":"Kreisfreie_Stadt"},"district":{"key":"09362","name":"Regensburg","type":"Kreisfreie_Stadt"},"federalState":{"key":"09","name":"Bayern"}},{"name":"Johann-Igl-Weg","postalCode":"93051","locality":"Regensburg","municipality":{"key":"09362000","name":"Regensburg","type":"Kreisfreie_Stadt"},"district":{"key":"09362","name":"Regensburg","type":"Kreisfreie_Stadt"},"federalState":{"key":"09","name":"Bayern"}},{"name":"Johannisstr.","postalCode":"93059","locality":"Regensburg","municipality":{"key":"09362000","name":"Regensburg","type":"Kreisfreie_Stadt"},"district":{"key":"09362","name":"Regensburg","type":"Kreisfreie_Stadt"},"federalState":{"key":"09","name":"Bayern"}},{"name":"Johann-Schwaebl-Str.","postalCode":"93051","locality":"Regensburg","municipality":{"key":"09362000","name":"Regensburg","type":"Kreisfreie_Stadt"},"district":{"key":"09362","name":"Regensburg","type":"Kreisfreie_Stadt"},"federalState":{"key":"09","name":"Bayern"}},{"name":"Johann-Sebastian-Bach-Str.","postalCode":"93128","locality":"Regenstauf","municipality":{"key":"09375190","name":"Regenstauf, M","type":"Markt"},"district":{"key":"09375","name":"Regensburg","type":"Landkreis"},"federalState":{"key":"09","name":"Bayern"}},{"name":"Johann-Strauß-Str.","postalCode":"93128","locality":"Regenstauf","municipality":{"key":"09375190","name":"Regenstauf, M","type":"Markt"},"district":{"key":"09375","name":"Regensburg","type":"Landkreis"},"federalState":{"key":"09","name":"Bayern"}},{"name":"Josef-Adler-Str.","postalCode":"93049","locality":"Regensburg","municipality":{"key":"09362000","name":"Regensburg","type":"Kreisfreie_Stadt"},"district":{"key":"09362","name":"Regensburg","type":"Kreisfreie_Stadt"},"federalState":{"key":"09","name":"Bayern"}},{"name":"Josef-Barth-Str.","postalCode":"93057","locality":"Regensburg","municipality":{"key":"09362000","name":"Regensburg","type":"Kreisfreie_Stadt"},"district":{"key":"09362","name":"Regensburg","type":"Kreisfreie_Stadt"},"federalState":{"key":"09","name":"Bayern"}},{"name":"Josef-Bayer-Weg","postalCode":"93053","locality":"Regensburg","municipality":{"key":"09362000","name":"Regensburg","type":"Kreisfreie_Stadt"},"district":{"key":"09362","name":"Regensburg","type":"Kreisfreie_Stadt"},"federalState":{"key":"09","name":"Bayern"}},{"name":"Joseph-Dahlem-Str.","postalCode":"93049","locality":"Regensburg","municipality":{"key":"09362000","name":"Regensburg","type":"Kreisfreie_Stadt"},"district":{"key":"09362","name":"Regensburg","type":"Kreisfreie_Stadt"},"federalState":{"key":"09","name":"Bayern"}},{"name":"Joseph-Haydn-Str.","postalCode":"93128","locality":"Regenstauf","municipality":{"key":"09375190","name":"Regenstauf, M","type":"Markt"},"district":{"key":"09375","name":"Regensburg","type":"Landkreis"},"federalState":{"key":"09","name":"Bayern"}},{"name":"Julianenweg","postalCode":"93055","locality":"Regensburg","municipality":{"key":"09362000","name":"Regensburg","type":"Kreisfreie_Stadt"},"district":{"key":"09362","name":"Regensburg","type":"Kreisfreie_Stadt"},"federalState":{"key":"09","name":"Bayern"}},{"name":"Julie-von-Zerzog-Str.","postalCode":"93055","locality":"Regensburg","municipality":{"key":"09362000","name":"Regensburg","type":"Kreisfreie_Stadt"},"district":{"key":"09362","name":"Regensburg","type":"Kreisfreie_Stadt"},"federalState":{"key":"09","name":"Bayern"}},{"name":"Julius-Leber-Str.","postalCode":"93055","locality":"Regensburg","municipality":{"key":"09362000","name":"Regensburg","type":"Kreisfreie_Stadt"},"district":{"key":"09362","name":"Regensburg","type":"Kreisfreie_Stadt"},"federalState":{"key":"09","name":"Bayern"}},{"name":"Junkersstr.","postalCode":"93055","locality":"Regensburg","municipality":{"key":"09362000","name":"Regensburg","type":"Kreisfreie_Stadt"},"district":{"key":"09362","name":"Regensburg","type":"Kreisfreie_Stadt"},"federalState":{"key":"09","name":"Bayern"}},{"name":"Junostr.","postalCode":"93055","locality":"Regensburg","municipality":{"key":"09362000","name":"Regensburg","type":"Kreisfreie_Stadt"},"district":{"key":"09362","name":"Regensburg","type":"Kreisfreie_Stadt"},"federalState":{"key":"09","name":"Bayern"}},{"name":"Jupiterstr.","postalCode":"93055","locality":"Regensburg","municipality":{"key":"09362000","name":"Regensburg","type":"Kreisfreie_Stadt"},"district":{"key":"09362","name":"Regensburg","type":"Kreisfreie_Stadt"},"federalState":{"key":"09","name":"Bayern"}},{"name":"Jurastr.","postalCode":"93055","locality":"Regensburg","municipality":{"key":"09362000","name":"Regensburg","type":"Kreisfreie_Stadt"},"district":{"key":"09362","name":"Regensburg","type":"Kreisfreie_Stadt"},"federalState":{"key":"09","name":"Bayern"}},{"name":"Kirchenstr.","postalCode":"94256","locality":"Drachselsried","municipality":{"key":"09276120","name":"Drachselsried","type":"Kreisangehörige_Gemeinde"},"district":{"key":"09276","name":"Regen","type":"Landkreis"},"federalState":{"key":"09","name":"Bayern"}},{"name":"Kolbersbach","postalCode":"94256","locality":"Drachselsried","municipality":{"key":"09276120","name":"Drachselsried","type":"Kreisangehörige_Gemeinde"},"district":{"key":"09276","name":"Regen","type":"Landkreis"},"federalState":{"key":"09","name":"Bayern"}},{"name":"Lärchenweg","postalCode":"94256","locality":"Drachselsried","municipality":{"key":"09276120","name":"Drachselsried","type":"Kreisangehörige_Gemeinde"},"district":{"key":"09276","name":"Regen","type":"Landkreis"},"federalState":{"key":"09","name":"Bayern"}},{"name":"Leitenfeld","postalCode":"94256","locality":"Drachselsried","municipality":{"key":"09276120","name":"Drachselsried","type":"Kreisangehörige_Gemeinde"},"district":{"key":"09276","name":"Regen","type":"Landkreis"},"federalState":{"key":"09","name":"Bayern"}},{"name":"Lieblfeld","postalCode":"94256","locality":"Drachselsried","municipality":{"key":"09276120","name":"Drachselsried","type":"Kreisangehörige_Gemeinde"},"district":{"key":"09276","name":"Regen","type":"Landkreis"},"federalState":{"key":"09","name":"Bayern"}},{"name":"Marderweg","postalCode":"94256","locality":"Drachselsried","municipality":{"key":"09276120","name":"Drachselsried","type":"Kreisangehörige_Gemeinde"},"district":{"key":"09276","name":"Regen","type":"Landkreis"},"federalState":{"key":"09","name":"Bayern"}},{"name":"Mühlstr.","postalCode":"94256","locality":"Drachselsried","municipality":{"key":"09276120","name":"Drachselsried","type":"Kreisangehörige_Gemeinde"},"district":{"key":"09276","name":"Regen","type":"Landkreis"},"federalState":{"key":"09","name":"Bayern"}},{"name":"Naabstr.","postalCode":"93059","locality":"Regensburg","municipality":{"key":"09362000","name":"Regensburg","type":"Kreisfreie_Stadt"},"district":{"key":"09362","name":"Regensburg","type":"Kreisfreie_Stadt"},"federalState":{"key":"09","name":"Bayern"}},{"name":"Nabburger Str.","postalCode":"93057","locality":"Regensburg","municipality":{"key":"09362000","name":"Regensburg","type":"Kreisfreie_Stadt"},"district":{"key":"09362","name":"Regensburg","type":"Kreisfreie_Stadt"},"federalState":{"key":"09","name":"Bayern"}},{"name":"Nannette-Streicher-Str.","postalCode":"93055","locality":"Regensburg","municipality":{"key":"09362000","name":"Regensburg","type":"Kreisfreie_Stadt"},"district":{"key":"09362","name":"Regensburg","type":"Kreisfreie_Stadt"},"federalState":{"key":"09","name":"Bayern"}},{"name":"Narzissenweg","postalCode":"93128","locality":"Regenstauf","municipality":{"key":"09375190","name":"Regenstauf, M","type":"Markt"},"district":{"key":"09375","name":"Regensburg","type":"Landkreis"},"federalState":{"key":"09","name":"Bayern"}},{"name":"Naturerlebnispfad Regen","postalCode":"94209","locality":"Regen","municipality":{"key":"09276138","name":"Regen, St","type":"Stadt"},"district":{"key":"09276","name":"Regen","type":"Landkreis"},"federalState":{"key":"09","name":"Bayern"}},{"name":"Natur-Lehrpfad Karlstein","postalCode":"93128","locality":"Regenstauf","municipality":{"key":"09375190","name":"Regenstauf, M","type":"Markt"},"district":{"key":"09375","name":"Regensburg","type":"Landkreis"},"federalState":{"key":"09","name":"Bayern"}},{"name":"Nelkenweg","postalCode":"93053","locality":"Regensburg","municipality":{"key":"09362000","name":"Regensburg","type":"Kreisfreie_Stadt"},"district":{"key":"09362","name":"Regensburg","type":"Kreisfreie_Stadt"},"federalState":{"key":"09","name":"Bayern"}},{"name":"Nelkenweg","postalCode":"93128","locality":"Regenstauf","municipality":{"key":"09375190","name":"Regenstauf, M","type":"Markt"},"district":{"key":"09375","name":"Regensburg","type":"Landkreis"},"federalState":{"key":"09","name":"Bayern"}},{"name":"Neptunweg","postalCode":"93055","locality":"Regensburg","municipality":{"key":"09362000","name":"Regensburg","type":"Kreisfreie_Stadt"},"district":{"key":"09362","name":"Regensburg","type":"Kreisfreie_Stadt"},"federalState":{"key":"09","name":"Bayern"}},{"name":"Nestroystr.","postalCode":"93051","locality":"Regensburg","municipality":{"key":"09362000","name":"Regensburg","type":"Kreisfreie_Stadt"},"district":{"key":"09362","name":"Regensburg","type":"Kreisfreie_Stadt"},"federalState":{"key":"09","name":"Bayern"}},{"name":"Neue-Waag-Gasse","postalCode":"93047","locality":"Regensburg","municipality":{"key":"09362000","name":"Regensburg","type":"Kreisfreie_Stadt"},"district":{"key":"09362","name":"Regensburg","type":"Kreisfreie_Stadt"},"federalState":{"key":"09","name":"Bayern"}},{"name":"Neufferstr.","postalCode":"93055","locality":"Regensburg","municipality":{"key":"09362000","name":"Regensburg","type":"Kreisfreie_Stadt"},"district":{"key":"09362","name":"Regensburg","type":"Kreisfreie_Stadt"},"federalState":{"key":"09","name":"Bayern"}},{"name":"Neuhausstr.","postalCode":"93047","locality":"Regensburg","municipality":{"key":"09362000","name":"Regensburg","type":"Kreisfreie_Stadt"},"district":{"key":"09362","name":"Regensburg","type":"Kreisfreie_Stadt"},"federalState":{"key":"09","name":"Bayern"}},{"name":"Neumannstr.","postalCode":"93053","locality":"Regensburg","municipality":{"key":"09362000","name":"Regensburg","type":"Kreisfreie_Stadt"},"district":{"key":"09362","name":"Regensburg","type":"Kreisfreie_Stadt"},"federalState":{"key":"09","name":"Bayern"}},{"name":"Neupfarrplatz","postalCode":"93047","locality":"Regensburg","municipality":{"key":"09362000","name":"Regensburg","type":"Kreisfreie_Stadt"},"district":{"key":"09362","name":"Regensburg","type":"Kreisfreie_Stadt"},"federalState":{"key":"09","name":"Bayern"}},{"name":"Neuprüll","postalCode":"93051","locality":"Regensburg","municipality":{"key":"09362000","name":"Regensburg","type":"Kreisfreie_Stadt"},"district":{"key":"09362","name":"Regensburg","type":"Kreisfreie_Stadt"},"federalState":{"key":"09","name":"Bayern"}},{"name":"Neuprüll","postalCode":"93053","locality":"Regensburg","municipality":{"key":"09362000","name":"Regensburg","type":"Kreisfreie_Stadt"},"district":{"key":"09362","name":"Regensburg","type":"Kreisfreie_Stadt"},"federalState":{"key":"09","name":"Bayern"}},{"name":"Neutraublinger Str.","postalCode":"93055","locality":"Regensburg","municipality":{"key":"09362000","name":"Regensburg","type":"Kreisfreie_Stadt"},"district":{"key":"09362","name":"Regensburg","type":"Kreisfreie_Stadt"},"federalState":{"key":"09","name":"Bayern"}},{"name":"Nibelungenbrücke","postalCode":"93055","locality":"Regensburg","municipality":{"key":"09362000","name":"Regensburg","type":"Kreisfreie_Stadt"},"district":{"key":"09362","name":"Regensburg","type":"Kreisfreie_Stadt"},"federalState":{"key":"09","name":"Bayern"}},{"name":"Nibelungenbrücke","postalCode":"93059","locality":"Regensburg","municipality":{"key":"09362000","name":"Regensburg","type":"Kreisfreie_Stadt"},"district":{"key":"09362","name":"Regensburg","type":"Kreisfreie_Stadt"},"federalState":{"key":"09","name":"Bayern"}},{"name":"Nibelungenstr.","postalCode":"93051","locality":"Regensburg","municipality":{"key":"09362000","name":"Regensburg","type":"Kreisfreie_Stadt"},"district":{"key":"09362","name":"Regensburg","type":"Kreisfreie_Stadt"},"federalState":{"key":"09","name":"Bayern"}},{"name":"Nicolaus-Gallus-Str.","postalCode":"93051","locality":"Regensburg","municipality":{"key":"09362000","name":"Regensburg","type":"Kreisfreie_Stadt"},"district":{"key":"09362","name":"Regensburg","type":"Kreisfreie_Stadt"},"federalState":{"key":"09","name":"Bayern"}},{"name":"Niefangweg","postalCode":"93049","locality":"Regensburg","municipality":{"key":"09362000","name":"Regensburg","type":"Kreisfreie_Stadt"},"district":{"key":"09362","name":"Regensburg","type":"Kreisfreie_Stadt"},"federalState":{"key":"09","name":"Bayern"}},{"name":"Nittenauer Str.","postalCode":"93057","locality":"Regensburg","municipality":{"key":"09362000","name":"Regensburg","type":"Kreisfreie_Stadt"},"district":{"key":"09362","name":"Regensburg","type":"Kreisfreie_Stadt"},"federalState":{"key":"09","name":"Bayern"}},{"name":"Nonnenplatz","postalCode":"93047","locality":"Regensburg","municipality":{"key":"09362000","name":"Regensburg","type":"Kreisfreie_Stadt"},"district":{"key":"09362","name":"Regensburg","type":"Kreisfreie_Stadt"},"federalState":{"key":"09","name":"Bayern"}},{"name":"Nordgaustr.","postalCode":"93057","locality":"Regensburg","municipality":{"key":"09362000","name":"Regensburg","type":"Kreisfreie_Stadt"},"district":{"key":"09362","name":"Regensburg","type":"Kreisfreie_Stadt"},"federalState":{"key":"09","name":"Bayern"}},{"name":"Nordgaustr.","postalCode":"93059","locality":"Regensburg","municipality":{"key":"09362000","name":"Regensburg","type":"Kreisfreie_Stadt"},"district":{"key":"09362","name":"Regensburg","type":"Kreisfreie_Stadt"},"federalState":{"key":"09","name":"Bayern"}},{"name":"Nothaftstr.","postalCode":"93053","locality":"Regensburg","municipality":{"key":"09362000","name":"Regensburg","type":"Kreisfreie_Stadt"},"district":{"key":"09362","name":"Regensburg","type":"Kreisfreie_Stadt"},"federalState":{"key":"09","name":"Bayern"}},{"name":"Nürnberger Str.","postalCode":"93059","locality":"Regensburg","municipality":{"key":"09362000","name":"Regensburg","type":"Kreisfreie_Stadt"},"district":{"key":"09362","name":"Regensburg","type":"Kreisfreie_Stadt"},"federalState":{"key":"09","name":"Bayern"}},{"name":"Nußbaumstr.","postalCode":"93128","locality":"Regenstauf","municipality":{"key":"09375190","name":"Regenstauf, M","type":"Markt"},"district":{"key":"09375","name":"Regensburg","type":"Landkreis"},"federalState":{"key":"09","name":"Bayern"}},{"name":"Nußbergerstr.","postalCode":"93059","locality":"Regensburg","municipality":{"key":"09362000","name":"Regensburg","type":"Kreisfreie_Stadt"},"district":{"key":"09362","name":"Regensburg","type":"Kreisfreie_Stadt"},"federalState":{"key":"09","name":"Bayern"}},{"name":"Nußweg","postalCode":"93055","locality":"Regensburg","municipality":{"key":"09362000","name":"Regensburg","type":"Kreisfreie_Stadt"},"district":{"key":"09362","name":"Regensburg","type":"Kreisfreie_Stadt"},"federalState":{"key":"09","name":"Bayern"}},{"name":"Obere Bachgasse","postalCode":"93047","locality":"Regensburg","municipality":{"key":"09362000","name":"Regensburg","type":"Kreisfreie_Stadt"},"district":{"key":"09362","name":"Regensburg","type":"Kreisfreie_Stadt"},"federalState":{"key":"09","name":"Bayern"}},{"name":"Obere Bachgasse","postalCode":"94209","locality":"Regen","municipality":{"key":"09276138","name":"Regen, St","type":"Stadt"},"district":{"key":"09276","name":"Regen","type":"Landkreis"},"federalState":{"key":"09","name":"Bayern"}},{"name":"Obere Regenstr.","postalCode":"93059","locality":"Regensburg","municipality":{"key":"09362000","name":"Regensburg","type":"Kreisfreie_Stadt"},"district":{"key":"09362","name":"Regensburg","type":"Kreisfreie_Stadt"},"federalState":{"key":"09","name":"Bayern"}},{"name":"Oberer Ehweg","postalCode":"93055","locality":"Regensburg","municipality":{"key":"09362000","name":"Regensburg","type":"Kreisfreie_Stadt"},"district":{"key":"09362","name":"Regensburg","type":"Kreisfreie_Stadt"},"federalState":{"key":"09","name":"Bayern"}},{"name":"Obere Weinbergstr.","postalCode":"93128","locality":"Regenstauf","municipality":{"key":"09375190","name":"Regenstauf, M","type":"Markt"},"district":{"key":"09375","name":"Regensburg","type":"Landkreis"},"federalState":{"key":"09","name":"Bayern"}},{"name":"Obere Zell","postalCode":"93128","locality":"Regenstauf","municipality":{"key":"09375190","name":"Regenstauf, M","type":"Markt"},"district":{"key":"09375","name":"Regensburg","type":"Landkreis"},"federalState":{"key":"09","name":"Bayern"}},{"name":"Oberfeldweg","postalCode":"93049","locality":"Regensburg","municipality":{"key":"09362000","name":"Regensburg","type":"Kreisfreie_Stadt"},"district":{"key":"09362","name":"Regensburg","type":"Kreisfreie_Stadt"},"federalState":{"key":"09","name":"Bayern"}},{"name":"Oberländerstr.","postalCode":"93051","locality":"Regensburg","municipality":{"key":"09362000","name":"Regensburg","type":"Kreisfreie_Stadt"},"district":{"key":"09362","name":"Regensburg","type":"Kreisfreie_Stadt"},"federalState":{"key":"09","name":"Bayern"}},{"name":"Obermaierstr.","postalCode":"93049","locality":"Regensburg","municipality":{"key":"09362000","name":"Regensburg","type":"Kreisfreie_Stadt"},"district":{"key":"09362","name":"Regensburg","type":"Kreisfreie_Stadt"},"federalState":{"key":"09","name":"Bayern"}},{"name":"Obermünsterplatz","postalCode":"93047","locality":"Regensburg","municipality":{"key":"09362000","name":"Regensburg","type":"Kreisfreie_Stadt"},"district":{"key":"09362","name":"Regensburg","type":"Kreisfreie_Stadt"},"federalState":{"key":"09","name":"Bayern"}},{"name":"Obermünsterstr.","postalCode":"93047","locality":"Regensburg","municipality":{"key":"09362000","name":"Regensburg","type":"Kreisfreie_Stadt"},"district":{"key":"09362","name":"Regensburg","type":"Kreisfreie_Stadt"},"federalState":{"key":"09","name":"Bayern"}},{"name":"Oberndorferstr.","postalCode":"93051","locality":"Regensburg","municipality":{"key":"09362000","name":"Regensburg","type":"Kreisfreie_Stadt"},"district":{"key":"09362","name":"Regensburg","type":"Kreisfreie_Stadt"},"federalState":{"key":"09","name":"Bayern"}},{"name":"Oberschlag","postalCode":"93128","locality":"Regenstauf","municipality":{"key":"09375190","name":"Regenstauf, M","type":"Markt"},"district":{"key":"09375","name":"Regensburg","type":"Landkreis"},"federalState":{"key":"09","name":"Bayern"}},{"name":"Obertraublinger Str.","postalCode":"93055","locality":"Regensburg","municipality":{"key":"09362000","name":"Regensburg","type":"Kreisfreie_Stadt"},"district":{"key":"09362","name":"Regensburg","type":"Kreisfreie_Stadt"},"federalState":{"key":"09","name":"Bayern"}},{"name":"Ochsenbergweg","postalCode":"94209","locality":"Regen","municipality":{"key":"09276138","name":"Regen, St","type":"Stadt"},"district":{"key":"09276","name":"Regen","type":"Landkreis"},"federalState":{"key":"09","name":"Bayern"}},{"name":"Odenwaldstr.","postalCode":"93057","locality":"Regensburg","municipality":{"key":"09362000","name":"Regensburg","type":"Kreisfreie_Stadt"},"district":{"key":"09362","name":"Regensburg","type":"Kreisfreie_Stadt"},"federalState":{"key":"09","name":"Bayern"}},{"name":"Odessa-Ring","postalCode":"93053","locality":"Regensburg","municipality":{"key":"09362000","name":"Regensburg","type":"Kreisfreie_Stadt"},"district":{"key":"09362","name":"Regensburg","type":"Kreisfreie_Stadt"},"federalState":{"key":"09","name":"Bayern"}},{"name":"Odessa-Ring","postalCode":"93055","locality":"Regensburg","municipality":{"key":"09362000","name":"Regensburg","type":"Kreisfreie_Stadt"},"district":{"key":"09362","name":"Regensburg","type":"Kreisfreie_Stadt"},"federalState":{"key":"09","name":"Bayern"}},{"name":"Ohmstr.","postalCode":"93055","locality":"Regensburg","municipality":{"key":"09362000","name":"Regensburg","type":"Kreisfreie_Stadt"},"district":{"key":"09362","name":"Regensburg","type":"Kreisfreie_Stadt"},"federalState":{"key":"09","name":"Bayern"}},{"name":"Orleansstr.","postalCode":"93055","locality":"Regensburg","municipality":{"key":"09362000","name":"Regensburg","type":"Kreisfreie_Stadt"},"district":{"key":"09362","name":"Regensburg","type":"Kreisfreie_Stadt"},"federalState":{"key":"09","name":"Bayern"}},{"name":"Ortenburgerstr.","postalCode":"93059","locality":"Regensburg","municipality":{"key":"09362000","name":"Regensburg","type":"Kreisfreie_Stadt"},"district":{"key":"09362","name":"Regensburg","type":"Kreisfreie_Stadt"},"federalState":{"key":"09","name":"Bayern"}},{"name":"Ortnergasse","postalCode":"93047","locality":"Regensburg","municipality":{"key":"09362000","name":"Regensburg","type":"Kreisfreie_Stadt"},"district":{"key":"09362","name":"Regensburg","type":"Kreisfreie_Stadt"},"federalState":{"key":"09","name":"Bayern"}},{"name":"Osserstr.","postalCode":"94209","locality":"Regen","municipality":{"key":"09276138","name":"Regen, St","type":"Stadt"},"district":{"key":"09276","name":"Regen","type":"Landkreis"},"federalState":{"key":"09","name":"Bayern"}},{"name":"Ostenallee","postalCode":"93047","locality":"Regensburg","municipality":{"key":"09362000","name":"Regensburg","type":"Kreisfreie_Stadt"},"district":{"key":"09362","name":"Regensburg","type":"Kreisfreie_Stadt"},"federalState":{"key":"09","name":"Bayern"}},{"name":"Ostendorferstr.","postalCode":"93051","locality":"Regensburg","municipality":{"key":"09362000","name":"Regensburg","type":"Kreisfreie_Stadt"},"district":{"key":"09362","name":"Regensburg","type":"Kreisfreie_Stadt"},"federalState":{"key":"09","name":"Bayern"}},{"name":"Ostengasse","postalCode":"93047","locality":"Regensburg","municipality":{"key":"09362000","name":"Regensburg","type":"Kreisfreie_Stadt"},"district":{"key":"09362","name":"Regensburg","type":"Kreisfreie_Stadt"},"federalState":{"key":"09","name":"Bayern"}},{"name":"Osterbergweg","postalCode":"93059","locality":"Regensburg","municipality":{"key":"09362000","name":"Regensburg","type":"Kreisfreie_Stadt"},"district":{"key":"09362","name":"Regensburg","type":"Kreisfreie_Stadt"},"federalState":{"key":"09","name":"Bayern"}},{"name":"Osterhofener Str.","postalCode":"93055","locality":"Regensburg","municipality":{"key":"09362000","name":"Regensburg","type":"Kreisfreie_Stadt"},"district":{"key":"09362","name":"Regensburg","type":"Kreisfreie_Stadt"},"federalState":{"key":"09","name":"Bayern"}},{"name":"Osthafenstr.","postalCode":"93055","locality":"Regensburg","municipality":{"key":"09362000","name":"Regensburg","type":"Kreisfreie_Stadt"},"district":{"key":"09362","name":"Regensburg","type":"Kreisfreie_Stadt"},"federalState":{"key":"09","name":"Bayern"}},{"name":"Ostheim","postalCode":"93055","locality":"Regensburg","municipality":{"key":"09362000","name":"Regensburg","type":"Kreisfreie_Stadt"},"district":{"key":"09362","name":"Regensburg","type":"Kreisfreie_Stadt"},"federalState":{"key":"09","name":"Bayern"}},{"name":"Ostpreußenstr.","postalCode":"93057","locality":"Regensburg","municipality":{"key":"09362000","name":"Regensburg","type":"Kreisfreie_Stadt"},"district":{"key":"09362","name":"Regensburg","type":"Kreisfreie_Stadt"},"federalState":{"key":"09","name":"Bayern"}},{"name":"Otlohstr.","postalCode":"93053","locality":"Regensburg","municipality":{"key":"09362000","name":"Regensburg","type":"Kreisfreie_Stadt"},"district":{"key":"09362","name":"Regensburg","type":"Kreisfreie_Stadt"},"federalState":{"key":"09","name":"Bayern"}},{"name":"Otterbachweg","postalCode":"93059","locality":"Regensburg","municipality":{"key":"09362000","name":"Regensburg","type":"Kreisfreie_Stadt"},"district":{"key":"09362","name":"Regensburg","type":"Kreisfreie_Stadt"},"federalState":{"key":"09","name":"Bayern"}},{"name":"Ottheinrichstr.","postalCode":"93128","locality":"Regenstauf","municipality":{"key":"09375190","name":"Regenstauf, M","type":"Markt"},"district":{"key":"09375","name":"Regensburg","type":"Landkreis"},"federalState":{"key":"09","name":"Bayern"}},{"name":"Ottilienweg","postalCode":"93128","locality":"Regenstauf","municipality":{"key":"09375190","name":"Regenstauf, M","type":"Markt"},"district":{"key":"09375","name":"Regensburg","type":"Landkreis"},"federalState":{"key":"09","name":"Bayern"}},{"name":"Otto-Baumann-Str.","postalCode":"93055","locality":"Regensburg","municipality":{"key":"09362000","name":"Regensburg","type":"Kreisfreie_Stadt"},"district":{"key":"09362","name":"Regensburg","type":"Kreisfreie_Stadt"},"federalState":{"key":"09","name":"Bayern"}},{"name":"Otto-Hahn-Str.","postalCode":"93053","locality":"Regensburg","municipality":{"key":"09362000","name":"Regensburg","type":"Kreisfreie_Stadt"},"district":{"key":"09362","name":"Regensburg","type":"Kreisfreie_Stadt"},"federalState":{"key":"09","name":"Bayern"}},{"name":"Otto-Prager-Weg","postalCode":"93051","locality":"Regensburg","municipality":{"key":"09362000","name":"Regensburg","type":"Kreisfreie_Stadt"},"district":{"key":"09362","name":"Regensburg","type":"Kreisfreie_Stadt"},"federalState":{"key":"09","name":"Bayern"}},{"name":"Otto-Wels-Str.","postalCode":"93051","locality":"Regensburg","municipality":{"key":"09362000","name":"Regensburg","type":"Kreisfreie_Stadt"},"district":{"key":"09362","name":"Regensburg","type":"Kreisfreie_Stadt"},"federalState":{"key":"09","name":"Bayern"}},{"name":"Ottrichstr.","postalCode":"93053","locality":"Regensburg","municipality":{"key":"09362000","name":"Regensburg","type":"Kreisfreie_Stadt"},"district":{"key":"09362","name":"Regensburg","type":"Kreisfreie_Stadt"},"federalState":{"key":"09","name":"Bayern"}},{"name":"Pointwiese","postalCode":"94256","locality":"Drachselsried","municipality":{"key":"09276120","name":"Drachselsried","type":"Kreisangehörige_Gemeinde"},"district":{"key":"09276","name":"Regen","type":"Landkreis"},"federalState":{"key":"09","name":"Bayern"}},{"name":"Poschingerstr.","postalCode":"94256","locality":"Drachselsried","municipality":{"key":"09276120","name":"Drachselsried","type":"Kreisangehörige_Gemeinde"},"district":{"key":"09276","name":"Regen","type":"Landkreis"},"federalState":{"key":"09","name":"Bayern"}},{"name":"Quartiersplatz","postalCode":"93053","locality":"Regensburg","municipality":{"key":"09362000","name":"Regensburg","type":"Kreisfreie_Stadt"},"district":{"key":"09362","name":"Regensburg","type":"Kreisfreie_Stadt"},"federalState":{"key":"09","name":"Bayern"}},{"name":"Riedlbergweg","postalCode":"94256","locality":"Drachselsried","municipality":{"key":"09276120","name":"Drachselsried","type":"Kreisangehörige_Gemeinde"},"district":{"key":"09276","name":"Regen","type":"Landkreis"},"federalState":{"key":"09","name":"Bayern"}},{"name":"Ringstr.","postalCode":"94256","locality":"Drachselsried","municipality":{"key":"09276120","name":"Drachselsried","type":"Kreisangehörige_Gemeinde"},"district":{"key":"09276","name":"Regen","type":"Landkreis"},"federalState":{"key":"09","name":"Bayern"}},{"name":"Salzbühl","postalCode":"94256","locality":"Drachselsried","municipality":{"key":"09276120","name":"Drachselsried","type":"Kreisangehörige_Gemeinde"},"district":{"key":"09276","name":"Regen","type":"Landkreis"},"federalState":{"key":"09","name":"Bayern"}},{"name":"Scharebenstr.","postalCode":"94256","locality":"Drachselsried","municipality":{"key":"09276120","name":"Drachselsried","type":"Kreisangehörige_Gemeinde"},"district":{"key":"09276","name":"Regen","type":"Landkreis"},"federalState":{"key":"09","name":"Bayern"}},{"name":"Schloßfeld","postalCode":"94256","locality":"Drachselsried","municipality":{"key":"09276120","name":"Drachselsried","type":"Kreisangehörige_Gemeinde"},"district":{"key":"09276","name":"Regen","type":"Landkreis"},"federalState":{"key":"09","name":"Bayern"}},{"name":"Schönbacher Str.","postalCode":"94256","locality":"Drachselsried","municipality":{"key":"09276120","name":"Drachselsried","type":"Kreisangehörige_Gemeinde"},"district":{"key":"09276","name":"Regen","type":"Landkreis"},"federalState":{"key":"09","name":"Bayern"}},{"name":"Schulstr.","postalCode":"94256","locality":"Drachselsried","municipality":{"key":"09276120","name":"Drachselsried","type":"Kreisangehörige_Gemeinde"},"district":{"key":"09276","name":"Regen","type":"Landkreis"},"federalState":{"key":"09","name":"Bayern"}},{"name":"Schusterhöhe","postalCode":"94256","locality":"Drachselsried","municipality":{"key":"09276120","name":"Drachselsried","type":"Kreisangehörige_Gemeinde"},"district":{"key":"09276","name":"Regen","type":"Landkreis"},"federalState":{"key":"09","name":"Bayern"}},{"name":"Spitzwaldstr.","postalCode":"94256","locality":"Drachselsried","municipality":{"key":"09276120","name":"Drachselsried","type":"Kreisangehörige_Gemeinde"},"district":{"key":"09276","name":"Regen","type":"Landkreis"},"federalState":{"key":"09","name":"Bayern"}},{"name":"Staudenschedl","postalCode":"94256","locality":"Drachselsried","municipality":{"key":"09276120","name":"Drachselsried","type":"Kreisangehörige_Gemeinde"},"district":{"key":"09276","name":"Regen","type":"Landkreis"},"federalState":{"key":"09","name":"Bayern"}},{"name":"Tausenderstr.","postalCode":"94256","locality":"Drachselsried","municipality":{"key":"09276120","name":"Drachselsried","type":"Kreisangehörige_Gemeinde"},"district":{"key":"09276","name":"Regen","type":"Landkreis"},"federalState":{"key":"09","name":"Bayern"}},{"name":"Tränk","postalCode":"94256","locality":"Drachselsried","municipality":{"key":"09276120","name":"Drachselsried","type":"Kreisangehörige_Gemeinde"},"district":{"key":"09276","name":"Regen","type":"Landkreis"},"federalState":{"key":"09","name":"Bayern"}},{"name":"Unterkolbersbach","postalCode":"94256","locality":"Drachselsried","municipality":{"key":"09276120","name":"Drachselsried","type":"Kreisangehörige_Gemeinde"},"district":{"key":"09276","name":"Regen","type":"Landkreis"},"federalState":{"key":"09","name":"Bayern"}},{"name":"Unterried","postalCode":"94256","locality":"Drachselsried","municipality":{"key":"09276120","name":"Drachselsried","type":"Kreisangehörige_Gemeinde"},"district":{"key":"09276","name":"Regen","type":"Landkreis"},"federalState":{"key":"09","name":"Bayern"}},{"name":"V.D.K.-Str.","postalCode":"94209","locality":"Regen","municipality":{"key":"09276138","name":"Regen, St","type":"Stadt"},"district":{"key":"09276","name":"Regen","type":"Landkreis"},"federalState":{"key":"09","name":"Bayern"}},{"name":"Veilchenweg","postalCode":"94209","locality":"Regen","municipality":{"key":"09276138","name":"Regen, St","type":"Stadt"},"district":{"key":"09276","name":"Regen","type":"Landkreis"},"federalState":{"key":"09","name":"Bayern"}},{"name":"Vestaweg","postalCode":"93055","locality":"Regensburg","municipality":{"key":"09362000","name":"Regensburg","type":"Kreisfreie_Stadt"},"district":{"key":"09362","name":"Regensburg","type":"Kreisfreie_Stadt"},"federalState":{"key":"09","name":"Bayern"}},{"name":"Victoriaweg","postalCode":"93055","locality":"Regensburg","municipality":{"key":"09362000","name":"Regensburg","type":"Kreisfreie_Stadt"},"district":{"key":"09362","name":"Regensburg","type":"Kreisfreie_Stadt"},"federalState":{"key":"09","name":"Bayern"}},{"name":"Vidiner Str.","postalCode":"93055","locality":"Regensburg","municipality":{"key":"09362000","name":"Regensburg","type":"Kreisfreie_Stadt"},"district":{"key":"09362","name":"Regensburg","type":"Kreisfreie_Stadt"},"federalState":{"key":"09","name":"Bayern"}},{"name":"Viktor-von-Scheffel-Str.","postalCode":"93051","locality":"Regensburg","municipality":{"key":"09362000","name":"Regensburg","type":"Kreisfreie_Stadt"},"district":{"key":"09362","name":"Regensburg","type":"Kreisfreie_Stadt"},"federalState":{"key":"09","name":"Bayern"}},{"name":"Villapark","postalCode":"93055","locality":"Regensburg","municipality":{"key":"09362000","name":"Regensburg","type":"Kreisfreie_Stadt"},"district":{"key":"09362","name":"Regensburg","type":"Kreisfreie_Stadt"},"federalState":{"key":"09","name":"Bayern"}},{"name":"Villa Rustica","postalCode":"93055","locality":"Regensburg","municipality":{"key":"09362000","name":"Regensburg","type":"Kreisfreie_Stadt"},"district":{"key":"09362","name":"Regensburg","type":"Kreisfreie_Stadt"},"federalState":{"key":"09","name":"Bayern"}},{"name":"Villastr.","postalCode":"93055","locality":"Regensburg","municipality":{"key":"09362000","name":"Regensburg","type":"Kreisfreie_Stadt"},"district":{"key":"09362","name":"Regensburg","type":"Kreisfreie_Stadt"},"federalState":{"key":"09","name":"Bayern"}},{"name":"Vilsecker Str.","postalCode":"93057","locality":"Regensburg","municipality":{"key":"09362000","name":"Regensburg","type":"Kreisfreie_Stadt"},"district":{"key":"09362","name":"Regensburg","type":"Kreisfreie_Stadt"},"federalState":{"key":"09","name":"Bayern"}},{"name":"Vilshofener Str.","postalCode":"93055","locality":"Regensburg","municipality":{"key":"09362000","name":"Regensburg","type":"Kreisfreie_Stadt"},"district":{"key":"09362","name":"Regensburg","type":"Kreisfreie_Stadt"},"federalState":{"key":"09","name":"Bayern"}},{"name":"Vilsstr.","postalCode":"93059","locality":"Regensburg","municipality":{"key":"09362000","name":"Regensburg","type":"Kreisfreie_Stadt"},"district":{"key":"09362","name":"Regensburg","type":"Kreisfreie_Stadt"},"federalState":{"key":"09","name":"Bayern"}},{"name":"Vintlweg","postalCode":"93053","locality":"Regensburg","municipality":{"key":"09362000","name":"Regensburg","type":"Kreisfreie_Stadt"},"district":{"key":"09362","name":"Regensburg","type":"Kreisfreie_Stadt"},"federalState":{"key":"09","name":"Bayern"}},{"name":"Vitusstr.","postalCode":"93051","locality":"Regensburg","municipality":{"key":"09362000","name":"Regensburg","type":"Kreisfreie_Stadt"},"district":{"key":"09362","name":"Regensburg","type":"Kreisfreie_Stadt"},"federalState":{"key":"09","name":"Bayern"}},{"name":"Vogelbeerweg","postalCode":"93055","locality":"Regensburg","municipality":{"key":"09362000","name":"Regensburg","type":"Kreisfreie_Stadt"},"district":{"key":"09362","name":"Regensburg","type":"Kreisfreie_Stadt"},"federalState":{"key":"09","name":"Bayern"}},{"name":"Vogelsandstr.","postalCode":"93128","locality":"Regenstauf","municipality":{"key":"09375190","name":"Regenstauf, M","type":"Markt"},"district":{"key":"09375","name":"Regensburg","type":"Landkreis"},"federalState":{"key":"09","name":"Bayern"}},{"name":"Vogesenstr.","postalCode":"93057","locality":"Regensburg","municipality":{"key":"09362000","name":"Regensburg","type":"Kreisfreie_Stadt"},"district":{"key":"09362","name":"Regensburg","type":"Kreisfreie_Stadt"},"federalState":{"key":"09","name":"Bayern"}},{"name":"Voglweg","postalCode":"94209","locality":"Regen","municipality":{"key":"09276138","name":"Regen, St","type":"Stadt"},"district":{"key":"09276","name":"Regen","type":"Landkreis"},"federalState":{"key":"09","name":"Bayern"}},{"name":"Volcanusweg","postalCode":"93055","locality":"Regensburg","municipality":{"key":"09362000","name":"Regensburg","type":"Kreisfreie_Stadt"},"district":{"key":"09362","name":"Regensburg","type":"Kreisfreie_Stadt"},"federalState":{"key":"09","name":"Bayern"}},{"name":"Von-Brettreich-Str.","postalCode":"93049","locality":"Regensburg","municipality":{"key":"09362000","name":"Regensburg","type":"Kreisfreie_Stadt"},"district":{"key":"09362","name":"Regensburg","type":"Kreisfreie_Stadt"},"federalState":{"key":"09","name":"Bayern"}},{"name":"Von-der-Tann-Str.","postalCode":"93047","locality":"Regensburg","municipality":{"key":"09362000","name":"Regensburg","type":"Kreisfreie_Stadt"},"district":{"key":"09362","name":"Regensburg","type":"Kreisfreie_Stadt"},"federalState":{"key":"09","name":"Bayern"}},{"name":"Von-Donle-Str.","postalCode":"93055","locality":"Regensburg","municipality":{"key":"09362000","name":"Regensburg","type":"Kreisfreie_Stadt"},"district":{"key":"09362","name":"Regensburg","type":"Kreisfreie_Stadt"},"federalState":{"key":"09","name":"Bayern"}},{"name":"Von-Reiner-Str.","postalCode":"93053","locality":"Regensburg","municipality":{"key":"09362000","name":"Regensburg","type":"Kreisfreie_Stadt"},"district":{"key":"09362","name":"Regensburg","type":"Kreisfreie_Stadt"},"federalState":{"key":"09","name":"Bayern"}},{"name":"Von-Richthofen-Str.","postalCode":"93051","locality":"Regensburg","municipality":{"key":"09362000","name":"Regensburg","type":"Kreisfreie_Stadt"},"district":{"key":"09362","name":"Regensburg","type":"Kreisfreie_Stadt"},"federalState":{"key":"09","name":"Bayern"}},{"name":"Von-Schenk-Str.","postalCode":"93051","locality":"Regensburg","municipality":{"key":"09362000","name":"Regensburg","type":"Kreisfreie_Stadt"},"district":{"key":"09362","name":"Regensburg","type":"Kreisfreie_Stadt"},"federalState":{"key":"09","name":"Bayern"}},{"name":"Von-Seeckt-Str.","postalCode":"93053","locality":"Regensburg","municipality":{"key":"09362000","name":"Regensburg","type":"Kreisfreie_Stadt"},"district":{"key":"09362","name":"Regensburg","type":"Kreisfreie_Stadt"},"federalState":{"key":"09","name":"Bayern"}},{"name":"Vor der Grieb","postalCode":"93047","locality":"Regensburg","municipality":{"key":"09362000","name":"Regensburg","type":"Kreisfreie_Stadt"},"district":{"key":"09362","name":"Regensburg","type":"Kreisfreie_Stadt"},"federalState":{"key":"09","name":"Bayern"}},{"name":"Vorlandweg","postalCode":"93055","locality":"Regensburg","municipality":{"key":"09362000","name":"Regensburg","type":"Kreisfreie_Stadt"},"district":{"key":"09362","name":"Regensburg","type":"Kreisfreie_Stadt"},"federalState":{"key":"09","name":"Bayern"}},{"name":"Wiesenweg","postalCode":"94256","locality":"Drachselsried","municipality":{"key":"09276120","name":"Drachselsried","type":"Kreisangehörige_Gemeinde"},"district":{"key":"09276","name":"Regen","type":"Landkreis"},"federalState":{"key":"09","name":"Bayern"}},{"name":"Xaver-Fuhr-Str.","postalCode":"93055","locality":"Regensburg","municipality":{"key":"09362000","name":"Regensburg","type":"Kreisfreie_Stadt"},"district":{"key":"09362","name":"Regensburg","type":"Kreisfreie_Stadt"},"federalState":{"key":"09","name":"Bayern"}},{"name":"Yorckstr.","postalCode":"93049","locality":"Regensburg","municipality":{"key":"09362000","name":"Regensburg","type":"Kreisfreie_Stadt"},"district":{"key":"09362","name":"Regensburg","type":"Kreisfreie_Stadt"},"federalState":{"key":"09","name":"Bayern"}},{"name":"Zellertalstr.","postalCode":"94256","locality":"Drachselsried","municipality":{"key":"09276120","name":"Drachselsried","type":"Kreisangehörige_Gemeinde"},"district":{"key":"09276","name":"Regen","type":"Landkreis"},"federalState":{"key":"09","name":"Bayern"}},{"name":"Ägidienplatz","postalCode":"93047","locality":"Regensburg","municipality":{"key":"09362000","name":"Regensburg","type":"Kreisfreie_Stadt"},"district":{"key":"09362","name":"Regensburg","type":"Kreisfreie_Stadt"},"federalState":{"key":"09","name":"Bayern"}},{"name":"Ährenweg","postalCode":"93128","locality":"Regenstauf","municipality":{"key":"09375190","name":"Regenstauf, M","type":"Markt"},"district":{"key":"09375","name":"Regensburg","type":"Landkreis"},"federalState":{"key":"09","name":"Bayern"}},{"name":"Äußere Wiener Str.","postalCode":"93055","locality":"Regensburg","municipality":{"key":"09362000","name":"Regensburg","type":"Kreisfreie_Stadt"},"district":{"key":"09362","name":"Regensburg","type":"Kreisfreie_Stadt"},"federalState":{"key":"09","name":"Bayern"}},{"name":"Ödenthal","postalCode":"93057","locality":"Regensburg","municipality":{"key":"09362000","name":"Regensburg","type":"Kreisfreie_Stadt"},"district":{"key":"09362","name":"Regensburg","type":"Kreisfreie_Stadt"},"federalState":{"key":"09","name":"Bayern"}},{"name":"Ödenthaler Weg","postalCode":"93057","locality":"Regensburg","municipality":{"key":"09362000","name":"Regensburg","type":"Kreisfreie_Stadt"},"district":{"key":"09362","name":"Regensburg","type":"Kreisfreie_Stadt"},"federalState":{"key":"09","name":"Bayern"}},{"name":"Ödenthalweg","postalCode":"93057","locality":"Regensburg","municipality":{"key":"09362000","name":"Regensburg","type":"Kreisfreie_Stadt"},"district":{"key":"09362","name":"Regensburg","type":"Kreisfreie_Stadt"},"federalState":{"key":"09","name":"Bayern"}},]