[{"key":"10004891","name":"Aeschlisbühl","postalCode":"3617","locality":"Fahrni b. Thun","commune":{"key":"925","name":"Fahrni","shortName":"Fahrni"},"district":{"key":"247","name":"Verwaltungskreis Thun"},"canton":{"key":"2","code":"BE","name":"Bern / Berne"},"status":"Real"},{"key":"10121538","name":"Allmend","postalCode":"3617","locality":"Fahrni b. Thun","commune":{"key":"925","name":"Fahrni","shortName":"Fahrni"},"district":{"key":"247","name":"Verwaltungskreis Thun"},"canton":{"key":"2","code":"BE","name":"Bern / Berne"},"status":"Real"},{"key":"10066932","name":"Bach","postalCode":"3617","locality":"Fahrni b. Thun","commune":{"key":"925","name":"Fahrni","shortName":"Fahrni"},"district":{"key":"247","name":"Verwaltungskreis Thun"},"canton":{"key":"2","code":"BE","name":"Bern / Berne"},"status":"Real"},{"key":"10004882","name":"Bachstutz","postalCode":"3617","locality":"Fahrni b. Thun","commune":{"key":"925","name":"Fahrni","shortName":"Fahrni"},"district":{"key":"247","name":"Verwaltungskreis Thun"},"canton":{"key":"2","code":"BE","name":"Bern / Berne"},"status":"Real"},{"key":"10108686","name":"Bärenmoosweg","postalCode":"3617","locality":"Fahrni b. Thun","commune":{"key":"925","name":"Fahrni","shortName":"Fahrni"},"district":{"key":"247","name":"Verwaltungskreis Thun"},"canton":{"key":"2","code":"BE","name":"Bern / Berne"},"status":"Real"},{"key":"10082217","name":"Birchistutz","postalCode":"3617","locality":"Fahrni b. Thun","commune":{"key":"925","name":"Fahrni","shortName":"Fahrni"},"district":{"key":"247","name":"Verwaltungskreis Thun"},"canton":{"key":"2","code":"BE","name":"Bern / Berne"},"status":"Real"},{"key":"10049307","name":"Birchiweg","postalCode":"3617","locality":"Fahrni b. Thun","commune":{"key":"925","name":"Fahrni","shortName":"Fahrni"},"district":{"key":"247","name":"Verwaltungskreis Thun"},"canton":{"key":"2","code":"BE","name":"Bern / Berne"},"status":"Real"},{"key":"10182212","name":"Bodenflüeli","postalCode":"3617","locality":"Fahrni b. Thun","commune":{"key":"925","name":"Fahrni","shortName":"Fahrni"},"district":{"key":"247","name":"Verwaltungskreis Thun"},"canton":{"key":"2","code":"BE","name":"Bern / Berne"},"status":"Real"},{"key":"10066933","name":"Bodenhubel","postalCode":"3617","locality":"Fahrni b. Thun","commune":{"key":"925","name":"Fahrni","shortName":"Fahrni"},"district":{"key":"247","name":"Verwaltungskreis Thun"},"canton":{"key":"2","code":"BE","name":"Bern / Berne"},"status":"Real"},{"key":"10114658","name":"Bodenweg","postalCode":"3617","locality":"Fahrni b. Thun","commune":{"key":"925","name":"Fahrni","shortName":"Fahrni"},"district":{"key":"247","name":"Verwaltungskreis Thun"},"canton":{"key":"2","code":"BE","name":"Bern / Berne"},"status":"Real"},{"key":"10004883","name":"Dörfli","postalCode":"3617","locality":"Fahrni b. Thun","commune":{"key":"925","name":"Fahrni","shortName":"Fahrni"},"district":{"key":"247","name":"Verwaltungskreis Thun"},"canton":{"key":"2","code":"BE","name":"Bern / Berne"},"status":"Real"},{"key":"10004884","name":"Embergboden","postalCode":"3617","locality":"Fahrni b. Thun","commune":{"key":"925","name":"Fahrni","shortName":"Fahrni"},"district":{"key":"247","name":"Verwaltungskreis Thun"},"canton":{"key":"2","code":"BE","name":"Bern / Berne"},"status":"Real"},{"key":"10216756","name":"Hütte","postalCode":"3617","locality":"Fahrni b. Thun","commune":{"key":"925","name":"Fahrni","shortName":"Fahrni"},"district":{"key":"247","name":"Verwaltungskreis Thun"},"canton":{"key":"2","code":"BE","name":"Bern / Berne"},"status":"Real"},{"key":"10117806","name":"Hüttenrain","postalCode":"3617","locality":"Fahrni b. Thun","commune":{"key":"925","name":"Fahrni","shortName":"Fahrni"},"district":{"key":"247","name":"Verwaltungskreis Thun"},"canton":{"key":"2","code":"BE","name":"Bern / Berne"},"status":"Real"},{"key":"10082880","name":"Kirchstalden","postalCode":"3617","locality":"Fahrni b. Thun","commune":{"key":"925","name":"Fahrni","shortName":"Fahrni"},"district":{"key":"247","name":"Verwaltungskreis Thun"},"canton":{"key":"2","code":"BE","name":"Bern / Berne"},"status":"Real"},{"key":"10049308","name":"Kleinbirchiweg","postalCode":"3617","locality":"Fahrni b. Thun","commune":{"key":"925","name":"Fahrni","shortName":"Fahrni"},"district":{"key":"247","name":"Verwaltungskreis Thun"},"canton":{"key":"2","code":"BE","name":"Bern / Berne"},"status":"Real"},{"key":"10004885","name":"Lood","postalCode":"3617","locality":"Fahrni b. Thun","commune":{"key":"925","name":"Fahrni","shortName":"Fahrni"},"district":{"key":"247","name":"Verwaltungskreis Thun"},"canton":{"key":"2","code":"BE","name":"Bern / Berne"},"status":"Real"},{"key":"10188916","name":"Lueg","postalCode":"3617","locality":"Fahrni b. Thun","commune":{"key":"925","name":"Fahrni","shortName":"Fahrni"},"district":{"key":"247","name":"Verwaltungskreis Thun"},"canton":{"key":"2","code":"BE","name":"Bern / Berne"},"status":"Real"},{"key":"10004881","name":"Lueg-Alp","postalCode":"3617","locality":"Fahrni b. Thun","commune":{"key":"925","name":"Fahrni","shortName":"Fahrni"},"district":{"key":"247","name":"Verwaltungskreis Thun"},"canton":{"key":"2","code":"BE","name":"Bern / Berne"},"status":"Real"},{"key":"10004886","name":"Lueggässli","postalCode":"3617","locality":"Fahrni b. Thun","commune":{"key":"925","name":"Fahrni","shortName":"Fahrni"},"district":{"key":"247","name":"Verwaltungskreis Thun"},"canton":{"key":"2","code":"BE","name":"Bern / Berne"},"status":"Real"},{"key":"10066934","name":"Luegholz","postalCode":"3617","locality":"Fahrni b. Thun","commune":{"key":"925","name":"Fahrni","shortName":"Fahrni"},"district":{"key":"247","name":"Verwaltungskreis Thun"},"canton":{"key":"2","code":"BE","name":"Bern / Berne"},"status":"Real"},{"key":"10108663","name":"Lueghubel","postalCode":"3617","locality":"Fahrni b. Thun","commune":{"key":"925","name":"Fahrni","shortName":"Fahrni"},"district":{"key":"247","name":"Verwaltungskreis Thun"},"canton":{"key":"2","code":"BE","name":"Bern / Berne"},"status":"Real"},{"key":"10168225","name":"Luegmoos","postalCode":"3617","locality":"Fahrni b. Thun","commune":{"key":"925","name":"Fahrni","shortName":"Fahrni"},"district":{"key":"247","name":"Verwaltungskreis Thun"},"canton":{"key":"2","code":"BE","name":"Bern / Berne"},"status":"Real"},{"key":"10082881","name":"Luegmösli","postalCode":"3617","locality":"Fahrni b. Thun","commune":{"key":"925","name":"Fahrni","shortName":"Fahrni"},"district":{"key":"247","name":"Verwaltungskreis Thun"},"canton":{"key":"2","code":"BE","name":"Bern / Berne"},"status":"Real"},{"key":"10082882","name":"Lueg-Sagi","postalCode":"3617","locality":"Fahrni b. Thun","commune":{"key":"925","name":"Fahrni","shortName":"Fahrni"},"district":{"key":"247","name":"Verwaltungskreis Thun"},"canton":{"key":"2","code":"BE","name":"Bern / Berne"},"status":"Real"},{"key":"10105930","name":"Luegweid","postalCode":"3617","locality":"Fahrni b. Thun","commune":{"key":"925","name":"Fahrni","shortName":"Fahrni"},"district":{"key":"247","name":"Verwaltungskreis Thun"},"canton":{"key":"2","code":"BE","name":"Bern / Berne"},"status":"Real"},{"key":"10004887","name":"Mösli","postalCode":"3617","locality":"Fahrni b. Thun","commune":{"key":"925","name":"Fahrni","shortName":"Fahrni"},"district":{"key":"247","name":"Verwaltungskreis Thun"},"canton":{"key":"2","code":"BE","name":"Bern / Berne"},"status":"Real"},{"key":"10004890","name":"Mürggen","postalCode":"3617","locality":"Fahrni b. Thun","commune":{"key":"925","name":"Fahrni","shortName":"Fahrni"},"district":{"key":"247","name":"Verwaltungskreis Thun"},"canton":{"key":"2","code":"BE","name":"Bern / Berne"},"status":"Real"},{"key":"10182213","name":"Obere Mürggen","postalCode":"3617","locality":"Fahrni b. Thun","commune":{"key":"925","name":"Fahrni","shortName":"Fahrni"},"district":{"key":"247","name":"Verwaltungskreis Thun"},"canton":{"key":"2","code":"BE","name":"Bern / Berne"},"status":"Real"},{"key":"10128027","name":"Port","postalCode":"3617","locality":"Fahrni b. Thun","commune":{"key":"925","name":"Fahrni","shortName":"Fahrni"},"district":{"key":"247","name":"Verwaltungskreis Thun"},"canton":{"key":"2","code":"BE","name":"Bern / Berne"},"status":"Real"},{"key":"10180508","name":"Rachholtern","postalCode":"3617","locality":"Fahrni b. Thun","commune":{"key":"925","name":"Fahrni","shortName":"Fahrni"},"district":{"key":"247","name":"Verwaltungskreis Thun"},"canton":{"key":"2","code":"BE","name":"Bern / Berne"},"status":"Real"},{"key":"10059854","name":"Rinderstyg","postalCode":"3617","locality":"Fahrni b. Thun","commune":{"key":"925","name":"Fahrni","shortName":"Fahrni"},"district":{"key":"247","name":"Verwaltungskreis Thun"},"canton":{"key":"2","code":"BE","name":"Bern / Berne"},"status":"Real"},{"key":"10216760","name":"Sagiwald","postalCode":"3617","locality":"Fahrni b. Thun","commune":{"key":"925","name":"Fahrni","shortName":"Fahrni"},"district":{"key":"247","name":"Verwaltungskreis Thun"},"canton":{"key":"2","code":"BE","name":"Bern / Berne"},"status":"Real"},{"key":"10004888","name":"Schlierbach","postalCode":"3617","locality":"Fahrni b. Thun","commune":{"key":"925","name":"Fahrni","shortName":"Fahrni"},"district":{"key":"247","name":"Verwaltungskreis Thun"},"canton":{"key":"2","code":"BE","name":"Bern / Berne"},"status":"Real"},{"key":"10062262","name":"Schwarzeneggstrasse","postalCode":"3617","locality":"Fahrni b. Thun","commune":{"key":"925","name":"Fahrni","shortName":"Fahrni"},"district":{"key":"247","name":"Verwaltungskreis Thun"},"canton":{"key":"2","code":"BE","name":"Bern / Berne"},"status":"Real"},{"key":"10127233","name":"Schwarzeneggstrasse","postalCode":"3617","locality":"Fahrni b. Thun","commune":{"key":"925","name":"Fahrni","shortName":"Fahrni"},"district":{"key":"247","name":"Verwaltungskreis Thun"},"canton":{"key":"2","code":"BE","name":"Bern / Berne"},"status":"Real"},{"key":"10216764","name":"Teufschlatt","postalCode":"3617","locality":"Fahrni b. Thun","commune":{"key":"925","name":"Fahrni","shortName":"Fahrni"},"district":{"key":"247","name":"Verwaltungskreis Thun"},"canton":{"key":"2","code":"BE","name":"Bern / Berne"},"status":"Real"},{"key":"10004889","name":"Tränkebach","postalCode":"3617","locality":"Fahrni b. Thun","commune":{"key":"925","name":"Fahrni","shortName":"Fahrni"},"district":{"key":"247","name":"Verwaltungskreis Thun"},"canton":{"key":"2","code":"BE","name":"Bern / Berne"},"status":"Real"},{"key":"10082218","name":"Tränkebachweg","postalCode":"3617","locality":"Fahrni b. Thun","commune":{"key":"925","name":"Fahrni","shortName":"Fahrni"},"district":{"key":"247","name":"Verwaltungskreis Thun"},"canton":{"key":"2","code":"BE","name":"Bern / Berne"},"status":"Real"},{"key":"10066935","name":"Tüechtiwil","postalCode":"3617","locality":"Fahrni b. Thun","commune":{"key":"925","name":"Fahrni","shortName":"Fahrni"},"district":{"key":"247","name":"Verwaltungskreis Thun"},"canton":{"key":"2","code":"BE","name":"Bern / Berne"},"status":"Real"},{"key":"10108372","name":"Weid-Emberg","postalCode":"3617","locality":"Fahrni b. Thun","commune":{"key":"925","name":"Fahrni","shortName":"Fahrni"},"district":{"key":"247","name":"Verwaltungskreis Thun"},"canton":{"key":"2","code":"BE","name":"Bern / Berne"},"status":"Real"},{"key":"10082883","name":"Wilpersboden","postalCode":"3617","locality":"Fahrni b. Thun","commune":{"key":"925","name":"Fahrni","shortName":"Fahrni"},"district":{"key":"247","name":"Verwaltungskreis Thun"},"canton":{"key":"2","code":"BE","name":"Bern / Berne"},"status":"Real"},{"key":"10122046","name":"Zopfen","postalCode":"3617","locality":"Fahrni b. Thun","commune":{"key":"925","name":"Fahrni","shortName":"Fahrni"},"district":{"key":"247","name":"Verwaltungskreis Thun"},"canton":{"key":"2","code":"BE","name":"Bern / Berne"},"status":"Real"},]