[{"name":"Alte Erlenbacher Str.","postalCode":"54523","locality":"Hetzerath","municipality":{"key":"07231053","name":"Hetzerath","type":"Kreisangehörige_Gemeinde"},"district":{"key":"07231","name":"Bernkastel-Wittlich","type":"Landkreis"},"federalState":{"key":"07","name":"Rheinland-Pfalz"}},{"name":"Am Erkelsbach","postalCode":"54523","locality":"Hetzerath","municipality":{"key":"07231053","name":"Hetzerath","type":"Kreisangehörige_Gemeinde"},"district":{"key":"07231","name":"Bernkastel-Wittlich","type":"Landkreis"},"federalState":{"key":"07","name":"Rheinland-Pfalz"}},{"name":"Am Orschbach","postalCode":"54523","locality":"Hetzerath","municipality":{"key":"07231053","name":"Hetzerath","type":"Kreisangehörige_Gemeinde"},"district":{"key":"07231","name":"Bernkastel-Wittlich","type":"Landkreis"},"federalState":{"key":"07","name":"Rheinland-Pfalz"}},{"name":"An der Straßmühle","postalCode":"54523","locality":"Hetzerath","municipality":{"key":"07231053","name":"Hetzerath","type":"Kreisangehörige_Gemeinde"},"district":{"key":"07231","name":"Bernkastel-Wittlich","type":"Landkreis"},"federalState":{"key":"07","name":"Rheinland-Pfalz"}},{"name":"An der Ziegelei","postalCode":"54523","locality":"Hetzerath","municipality":{"key":"07231053","name":"Hetzerath","type":"Kreisangehörige_Gemeinde"},"district":{"key":"07231","name":"Bernkastel-Wittlich","type":"Landkreis"},"federalState":{"key":"07","name":"Rheinland-Pfalz"}},{"name":"Auf dem Berg","postalCode":"54523","locality":"Hetzerath","municipality":{"key":"07231053","name":"Hetzerath","type":"Kreisangehörige_Gemeinde"},"district":{"key":"07231","name":"Bernkastel-Wittlich","type":"Landkreis"},"federalState":{"key":"07","name":"Rheinland-Pfalz"}},{"name":"Auf Erkelreg","postalCode":"54523","locality":"Hetzerath","municipality":{"key":"07231053","name":"Hetzerath","type":"Kreisangehörige_Gemeinde"},"district":{"key":"07231","name":"Bernkastel-Wittlich","type":"Landkreis"},"federalState":{"key":"07","name":"Rheinland-Pfalz"}},{"name":"Auf Fallert","postalCode":"54523","locality":"Hetzerath","municipality":{"key":"07231053","name":"Hetzerath","type":"Kreisangehörige_Gemeinde"},"district":{"key":"07231","name":"Bernkastel-Wittlich","type":"Landkreis"},"federalState":{"key":"07","name":"Rheinland-Pfalz"}},{"name":"Auf'm Berg","postalCode":"54523","locality":"Hetzerath","municipality":{"key":"07231053","name":"Hetzerath","type":"Kreisangehörige_Gemeinde"},"district":{"key":"07231","name":"Bernkastel-Wittlich","type":"Landkreis"},"federalState":{"key":"07","name":"Rheinland-Pfalz"}},{"name":"Bahnhofstr.","postalCode":"54523","locality":"Hetzerath","municipality":{"key":"07231053","name":"Hetzerath","type":"Kreisangehörige_Gemeinde"},"district":{"key":"07231","name":"Bernkastel-Wittlich","type":"Landkreis"},"federalState":{"key":"07","name":"Rheinland-Pfalz"}},{"name":"Brunnenstr.","postalCode":"54523","locality":"Hetzerath","municipality":{"key":"07231053","name":"Hetzerath","type":"Kreisangehörige_Gemeinde"},"district":{"key":"07231","name":"Bernkastel-Wittlich","type":"Landkreis"},"federalState":{"key":"07","name":"Rheinland-Pfalz"}},{"name":"Buhnertstr.","postalCode":"54523","locality":"Hetzerath","municipality":{"key":"07231053","name":"Hetzerath","type":"Kreisangehörige_Gemeinde"},"district":{"key":"07231","name":"Bernkastel-Wittlich","type":"Landkreis"},"federalState":{"key":"07","name":"Rheinland-Pfalz"}},{"name":"Dieselstr.","postalCode":"54343","locality":"Hetzerath","municipality":{"key":"07231053","name":"Hetzerath","type":"Kreisangehörige_Gemeinde"},"district":{"key":"07231","name":"Bernkastel-Wittlich","type":"Landkreis"},"federalState":{"key":"07","name":"Rheinland-Pfalz"}},{"name":"Edith-Barzen-Str.","postalCode":"54523","locality":"Hetzerath","municipality":{"key":"07231053","name":"Hetzerath","type":"Kreisangehörige_Gemeinde"},"district":{"key":"07231","name":"Bernkastel-Wittlich","type":"Landkreis"},"federalState":{"key":"07","name":"Rheinland-Pfalz"}},{"name":"Erkelsbach","postalCode":"54523","locality":"Hetzerath","municipality":{"key":"07231053","name":"Hetzerath","type":"Kreisangehörige_Gemeinde"},"district":{"key":"07231","name":"Bernkastel-Wittlich","type":"Landkreis"},"federalState":{"key":"07","name":"Rheinland-Pfalz"}},{"name":"Erlenbacher Str.","postalCode":"54523","locality":"Hetzerath","municipality":{"key":"07231053","name":"Hetzerath","type":"Kreisangehörige_Gemeinde"},"district":{"key":"07231","name":"Bernkastel-Wittlich","type":"Landkreis"},"federalState":{"key":"07","name":"Rheinland-Pfalz"}},{"name":"Erlenring","postalCode":"54523","locality":"Hetzerath","municipality":{"key":"07231053","name":"Hetzerath","type":"Kreisangehörige_Gemeinde"},"district":{"key":"07231","name":"Bernkastel-Wittlich","type":"Landkreis"},"federalState":{"key":"07","name":"Rheinland-Pfalz"}},{"name":"Hauptstr.","postalCode":"54523","locality":"Hetzerath","municipality":{"key":"07231053","name":"Hetzerath","type":"Kreisangehörige_Gemeinde"},"district":{"key":"07231","name":"Bernkastel-Wittlich","type":"Landkreis"},"federalState":{"key":"07","name":"Rheinland-Pfalz"}},{"name":"Hecilostr.","postalCode":"54523","locality":"Hetzerath","municipality":{"key":"07231053","name":"Hetzerath","type":"Kreisangehörige_Gemeinde"},"district":{"key":"07231","name":"Bernkastel-Wittlich","type":"Landkreis"},"federalState":{"key":"07","name":"Rheinland-Pfalz"}},{"name":"Hinter der Bahn","postalCode":"54523","locality":"Hetzerath","municipality":{"key":"07231053","name":"Hetzerath","type":"Kreisangehörige_Gemeinde"},"district":{"key":"07231","name":"Bernkastel-Wittlich","type":"Landkreis"},"federalState":{"key":"07","name":"Rheinland-Pfalz"}},{"name":"Im Pergreg","postalCode":"54523","locality":"Hetzerath","municipality":{"key":"07231053","name":"Hetzerath","type":"Kreisangehörige_Gemeinde"},"district":{"key":"07231","name":"Bernkastel-Wittlich","type":"Landkreis"},"federalState":{"key":"07","name":"Rheinland-Pfalz"}},{"name":"Im Sträßchen","postalCode":"54523","locality":"Hetzerath","municipality":{"key":"07231053","name":"Hetzerath","type":"Kreisangehörige_Gemeinde"},"district":{"key":"07231","name":"Bernkastel-Wittlich","type":"Landkreis"},"federalState":{"key":"07","name":"Rheinland-Pfalz"}},{"name":"In der Held","postalCode":"54523","locality":"Hetzerath","municipality":{"key":"07231053","name":"Hetzerath","type":"Kreisangehörige_Gemeinde"},"district":{"key":"07231","name":"Bernkastel-Wittlich","type":"Landkreis"},"federalState":{"key":"07","name":"Rheinland-Pfalz"}},{"name":"Kirchgäßchen","postalCode":"54523","locality":"Hetzerath","municipality":{"key":"07231053","name":"Hetzerath","type":"Kreisangehörige_Gemeinde"},"district":{"key":"07231","name":"Bernkastel-Wittlich","type":"Landkreis"},"federalState":{"key":"07","name":"Rheinland-Pfalz"}},{"name":"Kirchstr.","postalCode":"54523","locality":"Hetzerath","municipality":{"key":"07231053","name":"Hetzerath","type":"Kreisangehörige_Gemeinde"},"district":{"key":"07231","name":"Bernkastel-Wittlich","type":"Landkreis"},"federalState":{"key":"07","name":"Rheinland-Pfalz"}},{"name":"Klüsserather Str.","postalCode":"54523","locality":"Hetzerath","municipality":{"key":"07231053","name":"Hetzerath","type":"Kreisangehörige_Gemeinde"},"district":{"key":"07231","name":"Bernkastel-Wittlich","type":"Landkreis"},"federalState":{"key":"07","name":"Rheinland-Pfalz"}},{"name":"Matthias-Jacoby-Str.","postalCode":"54523","locality":"Hetzerath","municipality":{"key":"07231053","name":"Hetzerath","type":"Kreisangehörige_Gemeinde"},"district":{"key":"07231","name":"Bernkastel-Wittlich","type":"Landkreis"},"federalState":{"key":"07","name":"Rheinland-Pfalz"}},{"name":"Mühlenberg","postalCode":"54523","locality":"Hetzerath","municipality":{"key":"07231053","name":"Hetzerath","type":"Kreisangehörige_Gemeinde"},"district":{"key":"07231","name":"Bernkastel-Wittlich","type":"Landkreis"},"federalState":{"key":"07","name":"Rheinland-Pfalz"}},{"name":"Schiffweg","postalCode":"54523","locality":"Hetzerath","municipality":{"key":"07231053","name":"Hetzerath","type":"Kreisangehörige_Gemeinde"},"district":{"key":"07231","name":"Bernkastel-Wittlich","type":"Landkreis"},"federalState":{"key":"07","name":"Rheinland-Pfalz"}},{"name":"Süßwiese","postalCode":"54523","locality":"Hetzerath","municipality":{"key":"07231053","name":"Hetzerath","type":"Kreisangehörige_Gemeinde"},"district":{"key":"07231","name":"Bernkastel-Wittlich","type":"Landkreis"},"federalState":{"key":"07","name":"Rheinland-Pfalz"}},{"name":"Viktoriastr.","postalCode":"54523","locality":"Hetzerath","municipality":{"key":"07231053","name":"Hetzerath","type":"Kreisangehörige_Gemeinde"},"district":{"key":"07231","name":"Bernkastel-Wittlich","type":"Landkreis"},"federalState":{"key":"07","name":"Rheinland-Pfalz"}},{"name":"Wittlicher Str.","postalCode":"54523","locality":"Hetzerath","municipality":{"key":"07231053","name":"Hetzerath","type":"Kreisangehörige_Gemeinde"},"district":{"key":"07231","name":"Bernkastel-Wittlich","type":"Landkreis"},"federalState":{"key":"07","name":"Rheinland-Pfalz"}},{"name":"Zimmergasse","postalCode":"54523","locality":"Hetzerath","municipality":{"key":"07231053","name":"Hetzerath","type":"Kreisangehörige_Gemeinde"},"district":{"key":"07231","name":"Bernkastel-Wittlich","type":"Landkreis"},"federalState":{"key":"07","name":"Rheinland-Pfalz"}},{"name":"Zuckerberg","postalCode":"54523","locality":"Hetzerath","municipality":{"key":"07231053","name":"Hetzerath","type":"Kreisangehörige_Gemeinde"},"district":{"key":"07231","name":"Bernkastel-Wittlich","type":"Landkreis"},"federalState":{"key":"07","name":"Rheinland-Pfalz"}},{"name":"Zum Mühlenborn","postalCode":"54523","locality":"Hetzerath","municipality":{"key":"07231053","name":"Hetzerath","type":"Kreisangehörige_Gemeinde"},"district":{"key":"07231","name":"Bernkastel-Wittlich","type":"Landkreis"},"federalState":{"key":"07","name":"Rheinland-Pfalz"}},]