[{"key":"10058092","name":"Bahnhofsträssli","postalCode":"3112","locality":"Allmendingen b. Bern","commune":{"key":"630","name":"Allmendingen","shortName":"Allmendingen"},"district":{"key":"246","name":"Verwaltungskreis Bern-Mittelland"},"canton":{"key":"2","code":"BE","name":"Bern / Berne"},"status":"Real"},{"key":"10112430","name":"Bergliweg","postalCode":"3112","locality":"Allmendingen b. Bern","commune":{"key":"630","name":"Allmendingen","shortName":"Allmendingen"},"district":{"key":"246","name":"Verwaltungskreis Bern-Mittelland"},"canton":{"key":"2","code":"BE","name":"Bern / Berne"},"status":"Real"},{"key":"10220915","name":"Bluemisbergweg","postalCode":"3112","locality":"Allmendingen b. Bern","commune":{"key":"630","name":"Allmendingen","shortName":"Allmendingen"},"district":{"key":"246","name":"Verwaltungskreis Bern-Mittelland"},"canton":{"key":"2","code":"BE","name":"Bern / Berne"},"status":"Real"},{"key":"10112403","name":"Bollholzweg","postalCode":"3112","locality":"Allmendingen b. Bern","commune":{"key":"630","name":"Allmendingen","shortName":"Allmendingen"},"district":{"key":"246","name":"Verwaltungskreis Bern-Mittelland"},"canton":{"key":"2","code":"BE","name":"Bern / Berne"},"status":"Real"},{"key":"10080653","name":"Eichlihubelweg","postalCode":"3112","locality":"Allmendingen b. Bern","commune":{"key":"630","name":"Allmendingen","shortName":"Allmendingen"},"district":{"key":"246","name":"Verwaltungskreis Bern-Mittelland"},"canton":{"key":"2","code":"BE","name":"Bern / Berne"},"status":"Real"},{"key":"10005091","name":"Feldmattweg","postalCode":"3112","locality":"Allmendingen b. Bern","commune":{"key":"630","name":"Allmendingen","shortName":"Allmendingen"},"district":{"key":"246","name":"Verwaltungskreis Bern-Mittelland"},"canton":{"key":"2","code":"BE","name":"Bern / Berne"},"status":"Real"},{"key":"10124660","name":"Gümligenweg","postalCode":"3112","locality":"Allmendingen b. Bern","commune":{"key":"630","name":"Allmendingen","shortName":"Allmendingen"},"district":{"key":"246","name":"Verwaltungskreis Bern-Mittelland"},"canton":{"key":"2","code":"BE","name":"Bern / Berne"},"status":"Real"},{"key":"10080654","name":"Hintermärchligenweg","postalCode":"3112","locality":"Allmendingen b. Bern","commune":{"key":"630","name":"Allmendingen","shortName":"Allmendingen"},"district":{"key":"246","name":"Verwaltungskreis Bern-Mittelland"},"canton":{"key":"2","code":"BE","name":"Bern / Berne"},"status":"Real"},{"key":"10130090","name":"Hirschenweg","postalCode":"3112","locality":"Allmendingen b. Bern","commune":{"key":"630","name":"Allmendingen","shortName":"Allmendingen"},"district":{"key":"246","name":"Verwaltungskreis Bern-Mittelland"},"canton":{"key":"2","code":"BE","name":"Bern / Berne"},"status":"Real"},{"key":"10220733","name":"Hüenliacher","postalCode":"3112","locality":"Allmendingen b. Bern","commune":{"key":"630","name":"Allmendingen","shortName":"Allmendingen"},"district":{"key":"246","name":"Verwaltungskreis Bern-Mittelland"},"canton":{"key":"2","code":"BE","name":"Bern / Berne"},"status":"Real"},{"key":"10220737","name":"Hüenliwald","postalCode":"3112","locality":"Allmendingen b. Bern","commune":{"key":"630","name":"Allmendingen","shortName":"Allmendingen"},"district":{"key":"246","name":"Verwaltungskreis Bern-Mittelland"},"canton":{"key":"2","code":"BE","name":"Bern / Berne"},"status":"Real"},{"key":"10058093","name":"Kirchweg","postalCode":"3112","locality":"Allmendingen b. Bern","commune":{"key":"630","name":"Allmendingen","shortName":"Allmendingen"},"district":{"key":"246","name":"Verwaltungskreis Bern-Mittelland"},"canton":{"key":"2","code":"BE","name":"Bern / Berne"},"status":"Real"},{"key":"10005092","name":"Moosweg","postalCode":"3112","locality":"Allmendingen b. Bern","commune":{"key":"630","name":"Allmendingen","shortName":"Allmendingen"},"district":{"key":"246","name":"Verwaltungskreis Bern-Mittelland"},"canton":{"key":"2","code":"BE","name":"Bern / Berne"},"status":"Real"},{"key":"10118398","name":"Neuhausweg","postalCode":"3112","locality":"Allmendingen b. Bern","commune":{"key":"630","name":"Allmendingen","shortName":"Allmendingen"},"district":{"key":"246","name":"Verwaltungskreis Bern-Mittelland"},"canton":{"key":"2","code":"BE","name":"Bern / Berne"},"status":"Real"},{"key":"10005093","name":"Rüttiweg","postalCode":"3112","locality":"Allmendingen b. Bern","commune":{"key":"630","name":"Allmendingen","shortName":"Allmendingen"},"district":{"key":"246","name":"Verwaltungskreis Bern-Mittelland"},"canton":{"key":"2","code":"BE","name":"Bern / Berne"},"status":"Real"},{"key":"10112431","name":"Sandackerweg","postalCode":"3112","locality":"Allmendingen b. Bern","commune":{"key":"630","name":"Allmendingen","shortName":"Allmendingen"},"district":{"key":"246","name":"Verwaltungskreis Bern-Mittelland"},"canton":{"key":"2","code":"BE","name":"Bern / Berne"},"status":"Real"},{"key":"10058094","name":"Schlossmattweg","postalCode":"3112","locality":"Allmendingen b. Bern","commune":{"key":"630","name":"Allmendingen","shortName":"Allmendingen"},"district":{"key":"246","name":"Verwaltungskreis Bern-Mittelland"},"canton":{"key":"2","code":"BE","name":"Bern / Berne"},"status":"Real"},{"key":"10005094","name":"Thunstrasse","postalCode":"3112","locality":"Allmendingen b. Bern","commune":{"key":"630","name":"Allmendingen","shortName":"Allmendingen"},"district":{"key":"246","name":"Verwaltungskreis Bern-Mittelland"},"canton":{"key":"2","code":"BE","name":"Bern / Berne"},"status":"Real"},{"key":"10258974","name":"Thunstrasse","postalCode":"3112","locality":"Allmendingen b. Bern","commune":{"key":"630","name":"Allmendingen","shortName":"Allmendingen"},"district":{"key":"246","name":"Verwaltungskreis Bern-Mittelland"},"canton":{"key":"2","code":"BE","name":"Bern / Berne"},"status":"Real"},{"key":"10080655","name":"Vordermärchligenweg","postalCode":"3112","locality":"Allmendingen b. Bern","commune":{"key":"630","name":"Allmendingen","shortName":"Allmendingen"},"district":{"key":"246","name":"Verwaltungskreis Bern-Mittelland"},"canton":{"key":"2","code":"BE","name":"Bern / Berne"},"status":"Real"},{"key":"10005095","name":"Waldrain","postalCode":"3112","locality":"Allmendingen b. Bern","commune":{"key":"630","name":"Allmendingen","shortName":"Allmendingen"},"district":{"key":"246","name":"Verwaltungskreis Bern-Mittelland"},"canton":{"key":"2","code":"BE","name":"Bern / Berne"},"status":"Real"},{"key":"10112809","name":"Weiherweg","postalCode":"3112","locality":"Allmendingen b. Bern","commune":{"key":"630","name":"Allmendingen","shortName":"Allmendingen"},"district":{"key":"246","name":"Verwaltungskreis Bern-Mittelland"},"canton":{"key":"2","code":"BE","name":"Bern / Berne"},"status":"Real"},{"key":"10220908","name":"Äglere","postalCode":"3112","locality":"Allmendingen b. Bern","commune":{"key":"630","name":"Allmendingen","shortName":"Allmendingen"},"district":{"key":"246","name":"Verwaltungskreis Bern-Mittelland"},"canton":{"key":"2","code":"BE","name":"Bern / Berne"},"status":"Real"},]