[{"name":"Achter de Stadt","postalCode":"47669","locality":"Wachtendonk","municipality":{"key":"05154060","name":"Wachtendonk","type":"Kreisangehörige_Gemeinde"},"district":{"key":"05154","name":"Kleve","type":"Kreis"},"federalState":{"key":"05","name":"Nordrhein-Westfalen"}},{"name":"Acignering","postalCode":"47669","locality":"Wachtendonk","municipality":{"key":"05154060","name":"Wachtendonk","type":"Kreisangehörige_Gemeinde"},"district":{"key":"05154","name":"Kleve","type":"Kreis"},"federalState":{"key":"05","name":"Nordrhein-Westfalen"}},{"name":"Adolf-Kolping-Str.","postalCode":"47669","locality":"Wachtendonk","municipality":{"key":"05154060","name":"Wachtendonk","type":"Kreisangehörige_Gemeinde"},"district":{"key":"05154","name":"Kleve","type":"Kreis"},"federalState":{"key":"05","name":"Nordrhein-Westfalen"}},{"name":"Aerbecker Str.","postalCode":"47669","locality":"Wachtendonk","municipality":{"key":"05154060","name":"Wachtendonk","type":"Kreisangehörige_Gemeinde"},"district":{"key":"05154","name":"Kleve","type":"Kreis"},"federalState":{"key":"05","name":"Nordrhein-Westfalen"}},{"name":"Ahornweg","postalCode":"47669","locality":"Wachtendonk","municipality":{"key":"05154060","name":"Wachtendonk","type":"Kreisangehörige_Gemeinde"},"district":{"key":"05154","name":"Kleve","type":"Kreis"},"federalState":{"key":"05","name":"Nordrhein-Westfalen"}},{"name":"Albrecht-Dürer-Str.","postalCode":"47669","locality":"Wachtendonk","municipality":{"key":"05154060","name":"Wachtendonk","type":"Kreisangehörige_Gemeinde"},"district":{"key":"05154","name":"Kleve","type":"Kreis"},"federalState":{"key":"05","name":"Nordrhein-Westfalen"}},{"name":"Alter Harzbecker Weg","postalCode":"47669","locality":"Wachtendonk","municipality":{"key":"05154060","name":"Wachtendonk","type":"Kreisangehörige_Gemeinde"},"district":{"key":"05154","name":"Kleve","type":"Kreis"},"federalState":{"key":"05","name":"Nordrhein-Westfalen"}},{"name":"Alter Hinsbecker Weg","postalCode":"47669","locality":"Wachtendonk","municipality":{"key":"05154060","name":"Wachtendonk","type":"Kreisangehörige_Gemeinde"},"district":{"key":"05154","name":"Kleve","type":"Kreis"},"federalState":{"key":"05","name":"Nordrhein-Westfalen"}},{"name":"Amberbaumweg","postalCode":"47669","locality":"Wachtendonk","municipality":{"key":"05154060","name":"Wachtendonk","type":"Kreisangehörige_Gemeinde"},"district":{"key":"05154","name":"Kleve","type":"Kreis"},"federalState":{"key":"05","name":"Nordrhein-Westfalen"}},{"name":"Am Dorfbach","postalCode":"47669","locality":"Wachtendonk","municipality":{"key":"05154060","name":"Wachtendonk","type":"Kreisangehörige_Gemeinde"},"district":{"key":"05154","name":"Kleve","type":"Kreis"},"federalState":{"key":"05","name":"Nordrhein-Westfalen"}},{"name":"Am Hagelkreuz","postalCode":"47669","locality":"Wachtendonk","municipality":{"key":"05154060","name":"Wachtendonk","type":"Kreisangehörige_Gemeinde"},"district":{"key":"05154","name":"Kleve","type":"Kreis"},"federalState":{"key":"05","name":"Nordrhein-Westfalen"}},{"name":"Am Heidesee","postalCode":"47669","locality":"Wachtendonk","municipality":{"key":"05154060","name":"Wachtendonk","type":"Kreisangehörige_Gemeinde"},"district":{"key":"05154","name":"Kleve","type":"Kreis"},"federalState":{"key":"05","name":"Nordrhein-Westfalen"}},{"name":"Am Hoff","postalCode":"47669","locality":"Wachtendonk","municipality":{"key":"05154060","name":"Wachtendonk","type":"Kreisangehörige_Gemeinde"},"district":{"key":"05154","name":"Kleve","type":"Kreis"},"federalState":{"key":"05","name":"Nordrhein-Westfalen"}},{"name":"Am Mühlenberg","postalCode":"47669","locality":"Wachtendonk","municipality":{"key":"05154060","name":"Wachtendonk","type":"Kreisangehörige_Gemeinde"},"district":{"key":"05154","name":"Kleve","type":"Kreis"},"federalState":{"key":"05","name":"Nordrhein-Westfalen"}},{"name":"Am Pulverturm","postalCode":"47669","locality":"Wachtendonk","municipality":{"key":"05154060","name":"Wachtendonk","type":"Kreisangehörige_Gemeinde"},"district":{"key":"05154","name":"Kleve","type":"Kreis"},"federalState":{"key":"05","name":"Nordrhein-Westfalen"}},{"name":"Am Sportplatz","postalCode":"47669","locality":"Wachtendonk","municipality":{"key":"05154060","name":"Wachtendonk","type":"Kreisangehörige_Gemeinde"},"district":{"key":"05154","name":"Kleve","type":"Kreis"},"federalState":{"key":"05","name":"Nordrhein-Westfalen"}},{"name":"Am Treppchen","postalCode":"47669","locality":"Wachtendonk","municipality":{"key":"05154060","name":"Wachtendonk","type":"Kreisangehörige_Gemeinde"},"district":{"key":"05154","name":"Kleve","type":"Kreis"},"federalState":{"key":"05","name":"Nordrhein-Westfalen"}},{"name":"An der Bleiche","postalCode":"47669","locality":"Wachtendonk","municipality":{"key":"05154060","name":"Wachtendonk","type":"Kreisangehörige_Gemeinde"},"district":{"key":"05154","name":"Kleve","type":"Kreis"},"federalState":{"key":"05","name":"Nordrhein-Westfalen"}},{"name":"An der Kleinbahn","postalCode":"47669","locality":"Wachtendonk","municipality":{"key":"05154060","name":"Wachtendonk","type":"Kreisangehörige_Gemeinde"},"district":{"key":"05154","name":"Kleve","type":"Kreis"},"federalState":{"key":"05","name":"Nordrhein-Westfalen"}},{"name":"An der Michaelschule","postalCode":"47669","locality":"Wachtendonk","municipality":{"key":"05154060","name":"Wachtendonk","type":"Kreisangehörige_Gemeinde"},"district":{"key":"05154","name":"Kleve","type":"Kreis"},"federalState":{"key":"05","name":"Nordrhein-Westfalen"}},{"name":"An der Nette","postalCode":"47669","locality":"Wachtendonk","municipality":{"key":"05154060","name":"Wachtendonk","type":"Kreisangehörige_Gemeinde"},"district":{"key":"05154","name":"Kleve","type":"Kreis"},"federalState":{"key":"05","name":"Nordrhein-Westfalen"}},{"name":"An de Schanz","postalCode":"47669","locality":"Wachtendonk","municipality":{"key":"05154060","name":"Wachtendonk","type":"Kreisangehörige_Gemeinde"},"district":{"key":"05154","name":"Kleve","type":"Kreis"},"federalState":{"key":"05","name":"Nordrhein-Westfalen"}},{"name":"An de Schleck","postalCode":"47669","locality":"Wachtendonk","municipality":{"key":"05154060","name":"Wachtendonk","type":"Kreisangehörige_Gemeinde"},"district":{"key":"05154","name":"Kleve","type":"Kreis"},"federalState":{"key":"05","name":"Nordrhein-Westfalen"}},{"name":"Asternweg","postalCode":"47669","locality":"Wachtendonk","municipality":{"key":"05154060","name":"Wachtendonk","type":"Kreisangehörige_Gemeinde"},"district":{"key":"05154","name":"Kleve","type":"Kreis"},"federalState":{"key":"05","name":"Nordrhein-Westfalen"}},{"name":"Auf dem Bock","postalCode":"47669","locality":"Wachtendonk","municipality":{"key":"05154060","name":"Wachtendonk","type":"Kreisangehörige_Gemeinde"},"district":{"key":"05154","name":"Kleve","type":"Kreis"},"federalState":{"key":"05","name":"Nordrhein-Westfalen"}},{"name":"Auf dem Hagh","postalCode":"47669","locality":"Wachtendonk","municipality":{"key":"05154060","name":"Wachtendonk","type":"Kreisangehörige_Gemeinde"},"district":{"key":"05154","name":"Kleve","type":"Kreis"},"federalState":{"key":"05","name":"Nordrhein-Westfalen"}},{"name":"Auf dem Kuckuck","postalCode":"47669","locality":"Wachtendonk","municipality":{"key":"05154060","name":"Wachtendonk","type":"Kreisangehörige_Gemeinde"},"district":{"key":"05154","name":"Kleve","type":"Kreis"},"federalState":{"key":"05","name":"Nordrhein-Westfalen"}},{"name":"Auf dem Schelberg","postalCode":"47669","locality":"Wachtendonk","municipality":{"key":"05154060","name":"Wachtendonk","type":"Kreisangehörige_Gemeinde"},"district":{"key":"05154","name":"Kleve","type":"Kreis"},"federalState":{"key":"05","name":"Nordrhein-Westfalen"}},{"name":"Auf dem Westkamp","postalCode":"47669","locality":"Wachtendonk","municipality":{"key":"05154060","name":"Wachtendonk","type":"Kreisangehörige_Gemeinde"},"district":{"key":"05154","name":"Kleve","type":"Kreis"},"federalState":{"key":"05","name":"Nordrhein-Westfalen"}},{"name":"Auf der Weide","postalCode":"47669","locality":"Wachtendonk","municipality":{"key":"05154060","name":"Wachtendonk","type":"Kreisangehörige_Gemeinde"},"district":{"key":"05154","name":"Kleve","type":"Kreis"},"federalState":{"key":"05","name":"Nordrhein-Westfalen"}},{"name":"Backesstr.","postalCode":"47669","locality":"Wachtendonk","municipality":{"key":"05154060","name":"Wachtendonk","type":"Kreisangehörige_Gemeinde"},"district":{"key":"05154","name":"Kleve","type":"Kreis"},"federalState":{"key":"05","name":"Nordrhein-Westfalen"}},{"name":"Batzensteg","postalCode":"47669","locality":"Wachtendonk","municipality":{"key":"05154060","name":"Wachtendonk","type":"Kreisangehörige_Gemeinde"},"district":{"key":"05154","name":"Kleve","type":"Kreis"},"federalState":{"key":"05","name":"Nordrhein-Westfalen"}},{"name":"Bergstr.","postalCode":"47669","locality":"Wachtendonk","municipality":{"key":"05154060","name":"Wachtendonk","type":"Kreisangehörige_Gemeinde"},"district":{"key":"05154","name":"Kleve","type":"Kreis"},"federalState":{"key":"05","name":"Nordrhein-Westfalen"}},{"name":"Berliner Str.","postalCode":"47669","locality":"Wachtendonk","municipality":{"key":"05154060","name":"Wachtendonk","type":"Kreisangehörige_Gemeinde"},"district":{"key":"05154","name":"Kleve","type":"Kreis"},"federalState":{"key":"05","name":"Nordrhein-Westfalen"}},{"name":"Bienenkamp","postalCode":"47669","locality":"Wachtendonk","municipality":{"key":"05154060","name":"Wachtendonk","type":"Kreisangehörige_Gemeinde"},"district":{"key":"05154","name":"Kleve","type":"Kreis"},"federalState":{"key":"05","name":"Nordrhein-Westfalen"}},{"name":"Bistenweg","postalCode":"47669","locality":"Wachtendonk","municipality":{"key":"05154060","name":"Wachtendonk","type":"Kreisangehörige_Gemeinde"},"district":{"key":"05154","name":"Kleve","type":"Kreis"},"federalState":{"key":"05","name":"Nordrhein-Westfalen"}},{"name":"Blumenweg","postalCode":"47669","locality":"Wachtendonk","municipality":{"key":"05154060","name":"Wachtendonk","type":"Kreisangehörige_Gemeinde"},"district":{"key":"05154","name":"Kleve","type":"Kreis"},"federalState":{"key":"05","name":"Nordrhein-Westfalen"}},{"name":"Bongersweg","postalCode":"47669","locality":"Wachtendonk","municipality":{"key":"05154060","name":"Wachtendonk","type":"Kreisangehörige_Gemeinde"},"district":{"key":"05154","name":"Kleve","type":"Kreis"},"federalState":{"key":"05","name":"Nordrhein-Westfalen"}},{"name":"Broekhuysenweg","postalCode":"47669","locality":"Wachtendonk","municipality":{"key":"05154060","name":"Wachtendonk","type":"Kreisangehörige_Gemeinde"},"district":{"key":"05154","name":"Kleve","type":"Kreis"},"federalState":{"key":"05","name":"Nordrhein-Westfalen"}},{"name":"Bröhlstr.","postalCode":"47669","locality":"Wachtendonk","municipality":{"key":"05154060","name":"Wachtendonk","type":"Kreisangehörige_Gemeinde"},"district":{"key":"05154","name":"Kleve","type":"Kreis"},"federalState":{"key":"05","name":"Nordrhein-Westfalen"}},{"name":"Bruchstr.","postalCode":"47669","locality":"Wachtendonk","municipality":{"key":"05154060","name":"Wachtendonk","type":"Kreisangehörige_Gemeinde"},"district":{"key":"05154","name":"Kleve","type":"Kreis"},"federalState":{"key":"05","name":"Nordrhein-Westfalen"}},{"name":"cinque-Allee","postalCode":"47533","locality":"Kleve","municipality":{"key":"05154036","name":"Kleve, Stadt","type":"Stadt"},"district":{"key":"05154","name":"Kleve","type":"Kreis"},"federalState":{"key":"05","name":"Nordrhein-Westfalen"}},{"name":"Clemensstr.","postalCode":"47533","locality":"Kleve","municipality":{"key":"05154036","name":"Kleve, Stadt","type":"Stadt"},"district":{"key":"05154","name":"Kleve","type":"Kreis"},"federalState":{"key":"05","name":"Nordrhein-Westfalen"}},{"name":"Cranachstr.","postalCode":"47533","locality":"Kleve","municipality":{"key":"05154036","name":"Kleve, Stadt","type":"Stadt"},"district":{"key":"05154","name":"Kleve","type":"Kreis"},"federalState":{"key":"05","name":"Nordrhein-Westfalen"}},{"name":"Cunostr.","postalCode":"47533","locality":"Kleve","municipality":{"key":"05154036","name":"Kleve, Stadt","type":"Stadt"},"district":{"key":"05154","name":"Kleve","type":"Kreis"},"federalState":{"key":"05","name":"Nordrhein-Westfalen"}},{"name":"Dorfplatz","postalCode":"47669","locality":"Wachtendonk","municipality":{"key":"05154060","name":"Wachtendonk","type":"Kreisangehörige_Gemeinde"},"district":{"key":"05154","name":"Kleve","type":"Kreis"},"federalState":{"key":"05","name":"Nordrhein-Westfalen"}},{"name":"Dr.-Draeck-Str.","postalCode":"47669","locality":"Wachtendonk","municipality":{"key":"05154060","name":"Wachtendonk","type":"Kreisangehörige_Gemeinde"},"district":{"key":"05154","name":"Kleve","type":"Kreis"},"federalState":{"key":"05","name":"Nordrhein-Westfalen"}},{"name":"Eichenallee","postalCode":"47669","locality":"Wachtendonk","municipality":{"key":"05154060","name":"Wachtendonk","type":"Kreisangehörige_Gemeinde"},"district":{"key":"05154","name":"Kleve","type":"Kreis"},"federalState":{"key":"05","name":"Nordrhein-Westfalen"}},{"name":"Eichendorffstr.","postalCode":"47669","locality":"Wachtendonk","municipality":{"key":"05154060","name":"Wachtendonk","type":"Kreisangehörige_Gemeinde"},"district":{"key":"05154","name":"Kleve","type":"Kreis"},"federalState":{"key":"05","name":"Nordrhein-Westfalen"}},{"name":"Emilie-von-Loe-Str.","postalCode":"47669","locality":"Wachtendonk","municipality":{"key":"05154060","name":"Wachtendonk","type":"Kreisangehörige_Gemeinde"},"district":{"key":"05154","name":"Kleve","type":"Kreis"},"federalState":{"key":"05","name":"Nordrhein-Westfalen"}},{"name":"Endepoel","postalCode":"47669","locality":"Wachtendonk","municipality":{"key":"05154060","name":"Wachtendonk","type":"Kreisangehörige_Gemeinde"},"district":{"key":"05154","name":"Kleve","type":"Kreis"},"federalState":{"key":"05","name":"Nordrhein-Westfalen"}},{"name":"Entenpfuhlweg","postalCode":"47669","locality":"Wachtendonk","municipality":{"key":"05154060","name":"Wachtendonk","type":"Kreisangehörige_Gemeinde"},"district":{"key":"05154","name":"Kleve","type":"Kreis"},"federalState":{"key":"05","name":"Nordrhein-Westfalen"}},{"name":"ErlebnisPfad","postalCode":"47669","locality":"Wachtendonk","municipality":{"key":"05154060","name":"Wachtendonk","type":"Kreisangehörige_Gemeinde"},"district":{"key":"05154","name":"Kleve","type":"Kreis"},"federalState":{"key":"05","name":"Nordrhein-Westfalen"}},{"name":"Erlenweg","postalCode":"47669","locality":"Wachtendonk","municipality":{"key":"05154060","name":"Wachtendonk","type":"Kreisangehörige_Gemeinde"},"district":{"key":"05154","name":"Kleve","type":"Kreis"},"federalState":{"key":"05","name":"Nordrhein-Westfalen"}},{"name":"Eschenweg","postalCode":"47669","locality":"Wachtendonk","municipality":{"key":"05154060","name":"Wachtendonk","type":"Kreisangehörige_Gemeinde"},"district":{"key":"05154","name":"Kleve","type":"Kreis"},"federalState":{"key":"05","name":"Nordrhein-Westfalen"}},{"name":"Fasanenweg","postalCode":"47669","locality":"Wachtendonk","municipality":{"key":"05154060","name":"Wachtendonk","type":"Kreisangehörige_Gemeinde"},"district":{"key":"05154","name":"Kleve","type":"Kreis"},"federalState":{"key":"05","name":"Nordrhein-Westfalen"}},{"name":"Feldstr.","postalCode":"47669","locality":"Wachtendonk","municipality":{"key":"05154060","name":"Wachtendonk","type":"Kreisangehörige_Gemeinde"},"district":{"key":"05154","name":"Kleve","type":"Kreis"},"federalState":{"key":"05","name":"Nordrhein-Westfalen"}},{"name":"Festwiese","postalCode":"47669","locality":"Wachtendonk","municipality":{"key":"05154060","name":"Wachtendonk","type":"Kreisangehörige_Gemeinde"},"district":{"key":"05154","name":"Kleve","type":"Kreis"},"federalState":{"key":"05","name":"Nordrhein-Westfalen"}},{"name":"Fitschesweg","postalCode":"47669","locality":"Wachtendonk","municipality":{"key":"05154060","name":"Wachtendonk","type":"Kreisangehörige_Gemeinde"},"district":{"key":"05154","name":"Kleve","type":"Kreis"},"federalState":{"key":"05","name":"Nordrhein-Westfalen"}},{"name":"Fliederweg","postalCode":"47669","locality":"Wachtendonk","municipality":{"key":"05154060","name":"Wachtendonk","type":"Kreisangehörige_Gemeinde"},"district":{"key":"05154","name":"Kleve","type":"Kreis"},"federalState":{"key":"05","name":"Nordrhein-Westfalen"}},{"name":"Fliethweg","postalCode":"47669","locality":"Wachtendonk","municipality":{"key":"05154060","name":"Wachtendonk","type":"Kreisangehörige_Gemeinde"},"district":{"key":"05154","name":"Kleve","type":"Kreis"},"federalState":{"key":"05","name":"Nordrhein-Westfalen"}},{"name":"Friedenseichenweg","postalCode":"47669","locality":"Wachtendonk","municipality":{"key":"05154060","name":"Wachtendonk","type":"Kreisangehörige_Gemeinde"},"district":{"key":"05154","name":"Kleve","type":"Kreis"},"federalState":{"key":"05","name":"Nordrhein-Westfalen"}},{"name":"Friedensplatz","postalCode":"47669","locality":"Wachtendonk","municipality":{"key":"05154060","name":"Wachtendonk","type":"Kreisangehörige_Gemeinde"},"district":{"key":"05154","name":"Kleve","type":"Kreis"},"federalState":{"key":"05","name":"Nordrhein-Westfalen"}},{"name":"Gansmaldtstr.","postalCode":"47669","locality":"Wachtendonk","municipality":{"key":"05154060","name":"Wachtendonk","type":"Kreisangehörige_Gemeinde"},"district":{"key":"05154","name":"Kleve","type":"Kreis"},"federalState":{"key":"05","name":"Nordrhein-Westfalen"}},{"name":"Gartenstr.","postalCode":"47669","locality":"Wachtendonk","municipality":{"key":"05154060","name":"Wachtendonk","type":"Kreisangehörige_Gemeinde"},"district":{"key":"05154","name":"Kleve","type":"Kreis"},"federalState":{"key":"05","name":"Nordrhein-Westfalen"}},{"name":"Gebrüder-Funcken-Str.","postalCode":"47669","locality":"Wachtendonk","municipality":{"key":"05154060","name":"Wachtendonk","type":"Kreisangehörige_Gemeinde"},"district":{"key":"05154","name":"Kleve","type":"Kreis"},"federalState":{"key":"05","name":"Nordrhein-Westfalen"}},{"name":"Grefrather Landstr.","postalCode":"47669","locality":"Wachtendonk","municipality":{"key":"05154060","name":"Wachtendonk","type":"Kreisangehörige_Gemeinde"},"district":{"key":"05154","name":"Kleve","type":"Kreis"},"federalState":{"key":"05","name":"Nordrhein-Westfalen"}},{"name":"Grefrather Str.","postalCode":"47669","locality":"Wachtendonk","municipality":{"key":"05154060","name":"Wachtendonk","type":"Kreisangehörige_Gemeinde"},"district":{"key":"05154","name":"Kleve","type":"Kreis"},"federalState":{"key":"05","name":"Nordrhein-Westfalen"}},{"name":"Hagenbruchweg","postalCode":"47669","locality":"Wachtendonk","municipality":{"key":"05154060","name":"Wachtendonk","type":"Kreisangehörige_Gemeinde"},"district":{"key":"05154","name":"Kleve","type":"Kreis"},"federalState":{"key":"05","name":"Nordrhein-Westfalen"}},{"name":"Hainbuchenweg","postalCode":"47669","locality":"Wachtendonk","municipality":{"key":"05154060","name":"Wachtendonk","type":"Kreisangehörige_Gemeinde"},"district":{"key":"05154","name":"Kleve","type":"Kreis"},"federalState":{"key":"05","name":"Nordrhein-Westfalen"}},{"name":"Hamesweg","postalCode":"47669","locality":"Wachtendonk","municipality":{"key":"05154060","name":"Wachtendonk","type":"Kreisangehörige_Gemeinde"},"district":{"key":"05154","name":"Kleve","type":"Kreis"},"federalState":{"key":"05","name":"Nordrhein-Westfalen"}},{"name":"Harzbecker Str.","postalCode":"47669","locality":"Wachtendonk","municipality":{"key":"05154060","name":"Wachtendonk","type":"Kreisangehörige_Gemeinde"},"district":{"key":"05154","name":"Kleve","type":"Kreis"},"federalState":{"key":"05","name":"Nordrhein-Westfalen"}},{"name":"Haselweg","postalCode":"47669","locality":"Wachtendonk","municipality":{"key":"05154060","name":"Wachtendonk","type":"Kreisangehörige_Gemeinde"},"district":{"key":"05154","name":"Kleve","type":"Kreis"},"federalState":{"key":"05","name":"Nordrhein-Westfalen"}},{"name":"Heideweg","postalCode":"47669","locality":"Wachtendonk","municipality":{"key":"05154060","name":"Wachtendonk","type":"Kreisangehörige_Gemeinde"},"district":{"key":"05154","name":"Kleve","type":"Kreis"},"federalState":{"key":"05","name":"Nordrhein-Westfalen"}},{"name":"Heiligenhäuschenweg","postalCode":"47669","locality":"Wachtendonk","municipality":{"key":"05154060","name":"Wachtendonk","type":"Kreisangehörige_Gemeinde"},"district":{"key":"05154","name":"Kleve","type":"Kreis"},"federalState":{"key":"05","name":"Nordrhein-Westfalen"}},{"name":"Henrichsstr.","postalCode":"47669","locality":"Wachtendonk","municipality":{"key":"05154060","name":"Wachtendonk","type":"Kreisangehörige_Gemeinde"},"district":{"key":"05154","name":"Kleve","type":"Kreis"},"federalState":{"key":"05","name":"Nordrhein-Westfalen"}},{"name":"Hermann-Josef-Lingen-Str.","postalCode":"47669","locality":"Wachtendonk","municipality":{"key":"05154060","name":"Wachtendonk","type":"Kreisangehörige_Gemeinde"},"district":{"key":"05154","name":"Kleve","type":"Kreis"},"federalState":{"key":"05","name":"Nordrhein-Westfalen"}},{"name":"Holtheyde","postalCode":"47669","locality":"Wachtendonk","municipality":{"key":"05154060","name":"Wachtendonk","type":"Kreisangehörige_Gemeinde"},"district":{"key":"05154","name":"Kleve","type":"Kreis"},"federalState":{"key":"05","name":"Nordrhein-Westfalen"}},{"name":"Holtheyder Str.","postalCode":"47669","locality":"Wachtendonk","municipality":{"key":"05154060","name":"Wachtendonk","type":"Kreisangehörige_Gemeinde"},"district":{"key":"05154","name":"Kleve","type":"Kreis"},"federalState":{"key":"05","name":"Nordrhein-Westfalen"}},{"name":"Hubertusstr.","postalCode":"47669","locality":"Wachtendonk","municipality":{"key":"05154060","name":"Wachtendonk","type":"Kreisangehörige_Gemeinde"},"district":{"key":"05154","name":"Kleve","type":"Kreis"},"federalState":{"key":"05","name":"Nordrhein-Westfalen"}},{"name":"Hundertmorgenweg","postalCode":"47669","locality":"Wachtendonk","municipality":{"key":"05154060","name":"Wachtendonk","type":"Kreisangehörige_Gemeinde"},"district":{"key":"05154","name":"Kleve","type":"Kreis"},"federalState":{"key":"05","name":"Nordrhein-Westfalen"}},{"name":"Im Kuckeskamp","postalCode":"47669","locality":"Wachtendonk","municipality":{"key":"05154060","name":"Wachtendonk","type":"Kreisangehörige_Gemeinde"},"district":{"key":"05154","name":"Kleve","type":"Kreis"},"federalState":{"key":"05","name":"Nordrhein-Westfalen"}},{"name":"Im Winkel","postalCode":"47669","locality":"Wachtendonk","municipality":{"key":"05154060","name":"Wachtendonk","type":"Kreisangehörige_Gemeinde"},"district":{"key":"05154","name":"Kleve","type":"Kreis"},"federalState":{"key":"05","name":"Nordrhein-Westfalen"}},{"name":"Jägerweg","postalCode":"47669","locality":"Wachtendonk","municipality":{"key":"05154060","name":"Wachtendonk","type":"Kreisangehörige_Gemeinde"},"district":{"key":"05154","name":"Kleve","type":"Kreis"},"federalState":{"key":"05","name":"Nordrhein-Westfalen"}},{"name":"Kanalstr.","postalCode":"47669","locality":"Wachtendonk","municipality":{"key":"05154060","name":"Wachtendonk","type":"Kreisangehörige_Gemeinde"},"district":{"key":"05154","name":"Kleve","type":"Kreis"},"federalState":{"key":"05","name":"Nordrhein-Westfalen"}},{"name":"Kanalweg","postalCode":"47669","locality":"Wachtendonk","municipality":{"key":"05154060","name":"Wachtendonk","type":"Kreisangehörige_Gemeinde"},"district":{"key":"05154","name":"Kleve","type":"Kreis"},"federalState":{"key":"05","name":"Nordrhein-Westfalen"}},{"name":"Kantstr.","postalCode":"47669","locality":"Wachtendonk","municipality":{"key":"05154060","name":"Wachtendonk","type":"Kreisangehörige_Gemeinde"},"district":{"key":"05154","name":"Kleve","type":"Kreis"},"federalState":{"key":"05","name":"Nordrhein-Westfalen"}},{"name":"Kapellenweg","postalCode":"47669","locality":"Wachtendonk","municipality":{"key":"05154060","name":"Wachtendonk","type":"Kreisangehörige_Gemeinde"},"district":{"key":"05154","name":"Kleve","type":"Kreis"},"federalState":{"key":"05","name":"Nordrhein-Westfalen"}},{"name":"Kastanienweg","postalCode":"47669","locality":"Wachtendonk","municipality":{"key":"05154060","name":"Wachtendonk","type":"Kreisangehörige_Gemeinde"},"district":{"key":"05154","name":"Kleve","type":"Kreis"},"federalState":{"key":"05","name":"Nordrhein-Westfalen"}},{"name":"Kempener Str.","postalCode":"47669","locality":"Wachtendonk","municipality":{"key":"05154060","name":"Wachtendonk","type":"Kreisangehörige_Gemeinde"},"district":{"key":"05154","name":"Kleve","type":"Kreis"},"federalState":{"key":"05","name":"Nordrhein-Westfalen"}},{"name":"Kirchgasse","postalCode":"47669","locality":"Wachtendonk","municipality":{"key":"05154060","name":"Wachtendonk","type":"Kreisangehörige_Gemeinde"},"district":{"key":"05154","name":"Kleve","type":"Kreis"},"federalState":{"key":"05","name":"Nordrhein-Westfalen"}},{"name":"Kirchplatz","postalCode":"47669","locality":"Wachtendonk","municipality":{"key":"05154060","name":"Wachtendonk","type":"Kreisangehörige_Gemeinde"},"district":{"key":"05154","name":"Kleve","type":"Kreis"},"federalState":{"key":"05","name":"Nordrhein-Westfalen"}},{"name":"Kirchstr.","postalCode":"47669","locality":"Wachtendonk","municipality":{"key":"05154060","name":"Wachtendonk","type":"Kreisangehörige_Gemeinde"},"district":{"key":"05154","name":"Kleve","type":"Kreis"},"federalState":{"key":"05","name":"Nordrhein-Westfalen"}},{"name":"Klosterstr.","postalCode":"47669","locality":"Wachtendonk","municipality":{"key":"05154060","name":"Wachtendonk","type":"Kreisangehörige_Gemeinde"},"district":{"key":"05154","name":"Kleve","type":"Kreis"},"federalState":{"key":"05","name":"Nordrhein-Westfalen"}},{"name":"Kootweg","postalCode":"47669","locality":"Wachtendonk","municipality":{"key":"05154060","name":"Wachtendonk","type":"Kreisangehörige_Gemeinde"},"district":{"key":"05154","name":"Kleve","type":"Kreis"},"federalState":{"key":"05","name":"Nordrhein-Westfalen"}},{"name":"Kovermühlenweg","postalCode":"47669","locality":"Wachtendonk","municipality":{"key":"05154060","name":"Wachtendonk","type":"Kreisangehörige_Gemeinde"},"district":{"key":"05154","name":"Kleve","type":"Kreis"},"federalState":{"key":"05","name":"Nordrhein-Westfalen"}},{"name":"Koverpfad","postalCode":"47669","locality":"Wachtendonk","municipality":{"key":"05154060","name":"Wachtendonk","type":"Kreisangehörige_Gemeinde"},"district":{"key":"05154","name":"Kleve","type":"Kreis"},"federalState":{"key":"05","name":"Nordrhein-Westfalen"}},{"name":"Kuckesweg","postalCode":"47669","locality":"Wachtendonk","municipality":{"key":"05154060","name":"Wachtendonk","type":"Kreisangehörige_Gemeinde"},"district":{"key":"05154","name":"Kleve","type":"Kreis"},"federalState":{"key":"05","name":"Nordrhein-Westfalen"}},{"name":"Kuhdyck","postalCode":"47669","locality":"Wachtendonk","municipality":{"key":"05154060","name":"Wachtendonk","type":"Kreisangehörige_Gemeinde"},"district":{"key":"05154","name":"Kleve","type":"Kreis"},"federalState":{"key":"05","name":"Nordrhein-Westfalen"}},{"name":"Laerheider Weg","postalCode":"47669","locality":"Wachtendonk","municipality":{"key":"05154060","name":"Wachtendonk","type":"Kreisangehörige_Gemeinde"},"district":{"key":"05154","name":"Kleve","type":"Kreis"},"federalState":{"key":"05","name":"Nordrhein-Westfalen"}},{"name":"Lampesweg","postalCode":"47669","locality":"Wachtendonk","municipality":{"key":"05154060","name":"Wachtendonk","type":"Kreisangehörige_Gemeinde"},"district":{"key":"05154","name":"Kleve","type":"Kreis"},"federalState":{"key":"05","name":"Nordrhein-Westfalen"}},{"name":"Landfriedensstr.","postalCode":"47669","locality":"Wachtendonk","municipality":{"key":"05154060","name":"Wachtendonk","type":"Kreisangehörige_Gemeinde"},"district":{"key":"05154","name":"Kleve","type":"Kreis"},"federalState":{"key":"05","name":"Nordrhein-Westfalen"}},{"name":"Langdorfer Str.","postalCode":"47669","locality":"Wachtendonk","municipality":{"key":"05154060","name":"Wachtendonk","type":"Kreisangehörige_Gemeinde"},"district":{"key":"05154","name":"Kleve","type":"Kreis"},"federalState":{"key":"05","name":"Nordrhein-Westfalen"}},{"name":"Langenfeldweg","postalCode":"47669","locality":"Wachtendonk","municipality":{"key":"05154060","name":"Wachtendonk","type":"Kreisangehörige_Gemeinde"},"district":{"key":"05154","name":"Kleve","type":"Kreis"},"federalState":{"key":"05","name":"Nordrhein-Westfalen"}},{"name":"Lehmpeschken","postalCode":"47669","locality":"Wachtendonk","municipality":{"key":"05154060","name":"Wachtendonk","type":"Kreisangehörige_Gemeinde"},"district":{"key":"05154","name":"Kleve","type":"Kreis"},"federalState":{"key":"05","name":"Nordrhein-Westfalen"}},{"name":"Lerchenweg","postalCode":"47669","locality":"Wachtendonk","municipality":{"key":"05154060","name":"Wachtendonk","type":"Kreisangehörige_Gemeinde"},"district":{"key":"05154","name":"Kleve","type":"Kreis"},"federalState":{"key":"05","name":"Nordrhein-Westfalen"}},{"name":"Lessingstr.","postalCode":"47669","locality":"Wachtendonk","municipality":{"key":"05154060","name":"Wachtendonk","type":"Kreisangehörige_Gemeinde"},"district":{"key":"05154","name":"Kleve","type":"Kreis"},"federalState":{"key":"05","name":"Nordrhein-Westfalen"}},{"name":"Liekweg","postalCode":"47669","locality":"Wachtendonk","municipality":{"key":"05154060","name":"Wachtendonk","type":"Kreisangehörige_Gemeinde"},"district":{"key":"05154","name":"Kleve","type":"Kreis"},"federalState":{"key":"05","name":"Nordrhein-Westfalen"}},{"name":"Lindenallee","postalCode":"47669","locality":"Wachtendonk","municipality":{"key":"05154060","name":"Wachtendonk","type":"Kreisangehörige_Gemeinde"},"district":{"key":"05154","name":"Kleve","type":"Kreis"},"federalState":{"key":"05","name":"Nordrhein-Westfalen"}},{"name":"Loeweg","postalCode":"47669","locality":"Wachtendonk","municipality":{"key":"05154060","name":"Wachtendonk","type":"Kreisangehörige_Gemeinde"},"district":{"key":"05154","name":"Kleve","type":"Kreis"},"federalState":{"key":"05","name":"Nordrhein-Westfalen"}},{"name":"Marienstr.","postalCode":"47669","locality":"Wachtendonk","municipality":{"key":"05154060","name":"Wachtendonk","type":"Kreisangehörige_Gemeinde"},"district":{"key":"05154","name":"Kleve","type":"Kreis"},"federalState":{"key":"05","name":"Nordrhein-Westfalen"}},{"name":"Martin-Luther-Str.","postalCode":"47669","locality":"Wachtendonk","municipality":{"key":"05154060","name":"Wachtendonk","type":"Kreisangehörige_Gemeinde"},"district":{"key":"05154","name":"Kleve","type":"Kreis"},"federalState":{"key":"05","name":"Nordrhein-Westfalen"}},{"name":"Meerendonker Str.","postalCode":"47669","locality":"Wachtendonk","municipality":{"key":"05154060","name":"Wachtendonk","type":"Kreisangehörige_Gemeinde"},"district":{"key":"05154","name":"Kleve","type":"Kreis"},"federalState":{"key":"05","name":"Nordrhein-Westfalen"}},{"name":"Moorenstr.","postalCode":"47669","locality":"Wachtendonk","municipality":{"key":"05154060","name":"Wachtendonk","type":"Kreisangehörige_Gemeinde"},"district":{"key":"05154","name":"Kleve","type":"Kreis"},"federalState":{"key":"05","name":"Nordrhein-Westfalen"}},{"name":"Mühlenstr.","postalCode":"47669","locality":"Wachtendonk","municipality":{"key":"05154060","name":"Wachtendonk","type":"Kreisangehörige_Gemeinde"},"district":{"key":"05154","name":"Kleve","type":"Kreis"},"federalState":{"key":"05","name":"Nordrhein-Westfalen"}},{"name":"Mühlenwall","postalCode":"47669","locality":"Wachtendonk","municipality":{"key":"05154060","name":"Wachtendonk","type":"Kreisangehörige_Gemeinde"},"district":{"key":"05154","name":"Kleve","type":"Kreis"},"federalState":{"key":"05","name":"Nordrhein-Westfalen"}},{"name":"Mülderspfad","postalCode":"47669","locality":"Wachtendonk","municipality":{"key":"05154060","name":"Wachtendonk","type":"Kreisangehörige_Gemeinde"},"district":{"key":"05154","name":"Kleve","type":"Kreis"},"federalState":{"key":"05","name":"Nordrhein-Westfalen"}},{"name":"Müllemer Str.","postalCode":"47669","locality":"Wachtendonk","municipality":{"key":"05154060","name":"Wachtendonk","type":"Kreisangehörige_Gemeinde"},"district":{"key":"05154","name":"Kleve","type":"Kreis"},"federalState":{"key":"05","name":"Nordrhein-Westfalen"}},{"name":"Naesbrockweg","postalCode":"47669","locality":"Wachtendonk","municipality":{"key":"05154060","name":"Wachtendonk","type":"Kreisangehörige_Gemeinde"},"district":{"key":"05154","name":"Kleve","type":"Kreis"},"federalState":{"key":"05","name":"Nordrhein-Westfalen"}},{"name":"Neuer Bendenweg","postalCode":"47669","locality":"Wachtendonk","municipality":{"key":"05154060","name":"Wachtendonk","type":"Kreisangehörige_Gemeinde"},"district":{"key":"05154","name":"Kleve","type":"Kreis"},"federalState":{"key":"05","name":"Nordrhein-Westfalen"}},{"name":"Neustr.","postalCode":"47669","locality":"Wachtendonk","municipality":{"key":"05154060","name":"Wachtendonk","type":"Kreisangehörige_Gemeinde"},"district":{"key":"05154","name":"Kleve","type":"Kreis"},"federalState":{"key":"05","name":"Nordrhein-Westfalen"}},{"name":"Niersaue","postalCode":"47669","locality":"Wachtendonk","municipality":{"key":"05154060","name":"Wachtendonk","type":"Kreisangehörige_Gemeinde"},"district":{"key":"05154","name":"Kleve","type":"Kreis"},"federalState":{"key":"05","name":"Nordrhein-Westfalen"}},{"name":"Nierspromenade","postalCode":"47669","locality":"Wachtendonk","municipality":{"key":"05154060","name":"Wachtendonk","type":"Kreisangehörige_Gemeinde"},"district":{"key":"05154","name":"Kleve","type":"Kreis"},"federalState":{"key":"05","name":"Nordrhein-Westfalen"}},{"name":"Nieukerker Str.","postalCode":"47669","locality":"Wachtendonk","municipality":{"key":"05154060","name":"Wachtendonk","type":"Kreisangehörige_Gemeinde"},"district":{"key":"05154","name":"Kleve","type":"Kreis"},"federalState":{"key":"05","name":"Nordrhein-Westfalen"}},{"name":"Nussbaumweg","postalCode":"47669","locality":"Wachtendonk","municipality":{"key":"05154060","name":"Wachtendonk","type":"Kreisangehörige_Gemeinde"},"district":{"key":"05154","name":"Kleve","type":"Kreis"},"federalState":{"key":"05","name":"Nordrhein-Westfalen"}},{"name":"Orgelsgarten","postalCode":"47669","locality":"Wachtendonk","municipality":{"key":"05154060","name":"Wachtendonk","type":"Kreisangehörige_Gemeinde"},"district":{"key":"05154","name":"Kleve","type":"Kreis"},"federalState":{"key":"05","name":"Nordrhein-Westfalen"}},{"name":"Ostkamp","postalCode":"47669","locality":"Wachtendonk","municipality":{"key":"05154060","name":"Wachtendonk","type":"Kreisangehörige_Gemeinde"},"district":{"key":"05154","name":"Kleve","type":"Kreis"},"federalState":{"key":"05","name":"Nordrhein-Westfalen"}},{"name":"Ostring","postalCode":"47669","locality":"Wachtendonk","municipality":{"key":"05154060","name":"Wachtendonk","type":"Kreisangehörige_Gemeinde"},"district":{"key":"05154","name":"Kleve","type":"Kreis"},"federalState":{"key":"05","name":"Nordrhein-Westfalen"}},{"name":"Parkweg","postalCode":"47669","locality":"Wachtendonk","municipality":{"key":"05154060","name":"Wachtendonk","type":"Kreisangehörige_Gemeinde"},"district":{"key":"05154","name":"Kleve","type":"Kreis"},"federalState":{"key":"05","name":"Nordrhein-Westfalen"}},{"name":"Pellmannssteg","postalCode":"47669","locality":"Wachtendonk","municipality":{"key":"05154060","name":"Wachtendonk","type":"Kreisangehörige_Gemeinde"},"district":{"key":"05154","name":"Kleve","type":"Kreis"},"federalState":{"key":"05","name":"Nordrhein-Westfalen"}},{"name":"Quellengrund","postalCode":"25779","locality":"Kleve","municipality":{"key":"01051060","name":"Kleve","type":"Kreisangehörige_Gemeinde"},"district":{"key":"01051","name":"Dithmarschen","type":"Kreis"},"federalState":{"key":"01","name":"Schleswig-Holstein"}},{"name":"Querallee","postalCode":"47533","locality":"Kleve","municipality":{"key":"05154036","name":"Kleve, Stadt","type":"Stadt"},"district":{"key":"05154","name":"Kleve","type":"Kreis"},"federalState":{"key":"05","name":"Nordrhein-Westfalen"}},{"name":"Querstr.","postalCode":"47533","locality":"Kleve","municipality":{"key":"05154036","name":"Kleve, Stadt","type":"Stadt"},"district":{"key":"05154","name":"Kleve","type":"Kreis"},"federalState":{"key":"05","name":"Nordrhein-Westfalen"}},{"name":"Rathausstr.","postalCode":"47669","locality":"Wachtendonk","municipality":{"key":"05154060","name":"Wachtendonk","type":"Kreisangehörige_Gemeinde"},"district":{"key":"05154","name":"Kleve","type":"Kreis"},"federalState":{"key":"05","name":"Nordrhein-Westfalen"}},{"name":"Rochusweg","postalCode":"47669","locality":"Wachtendonk","municipality":{"key":"05154060","name":"Wachtendonk","type":"Kreisangehörige_Gemeinde"},"district":{"key":"05154","name":"Kleve","type":"Kreis"},"federalState":{"key":"05","name":"Nordrhein-Westfalen"}},{"name":"Rosenweg","postalCode":"47669","locality":"Wachtendonk","municipality":{"key":"05154060","name":"Wachtendonk","type":"Kreisangehörige_Gemeinde"},"district":{"key":"05154","name":"Kleve","type":"Kreis"},"federalState":{"key":"05","name":"Nordrhein-Westfalen"}},{"name":"Rotbuchenweg","postalCode":"47669","locality":"Wachtendonk","municipality":{"key":"05154060","name":"Wachtendonk","type":"Kreisangehörige_Gemeinde"},"district":{"key":"05154","name":"Kleve","type":"Kreis"},"federalState":{"key":"05","name":"Nordrhein-Westfalen"}},{"name":"Rotdornweg","postalCode":"47669","locality":"Wachtendonk","municipality":{"key":"05154060","name":"Wachtendonk","type":"Kreisangehörige_Gemeinde"},"district":{"key":"05154","name":"Kleve","type":"Kreis"},"federalState":{"key":"05","name":"Nordrhein-Westfalen"}},{"name":"Roulesweg","postalCode":"47669","locality":"Wachtendonk","municipality":{"key":"05154060","name":"Wachtendonk","type":"Kreisangehörige_Gemeinde"},"district":{"key":"05154","name":"Kleve","type":"Kreis"},"federalState":{"key":"05","name":"Nordrhein-Westfalen"}},{"name":"Schabrockerweg","postalCode":"47669","locality":"Wachtendonk","municipality":{"key":"05154060","name":"Wachtendonk","type":"Kreisangehörige_Gemeinde"},"district":{"key":"05154","name":"Kleve","type":"Kreis"},"federalState":{"key":"05","name":"Nordrhein-Westfalen"}},{"name":"Schenkstr.","postalCode":"47669","locality":"Wachtendonk","municipality":{"key":"05154060","name":"Wachtendonk","type":"Kreisangehörige_Gemeinde"},"district":{"key":"05154","name":"Kleve","type":"Kreis"},"federalState":{"key":"05","name":"Nordrhein-Westfalen"}},{"name":"Schillerstr.","postalCode":"47669","locality":"Wachtendonk","municipality":{"key":"05154060","name":"Wachtendonk","type":"Kreisangehörige_Gemeinde"},"district":{"key":"05154","name":"Kleve","type":"Kreis"},"federalState":{"key":"05","name":"Nordrhein-Westfalen"}},{"name":"Schlecker Deich","postalCode":"47669","locality":"Wachtendonk","municipality":{"key":"05154060","name":"Wachtendonk","type":"Kreisangehörige_Gemeinde"},"district":{"key":"05154","name":"Kleve","type":"Kreis"},"federalState":{"key":"05","name":"Nordrhein-Westfalen"}},{"name":"Schlecker Weg","postalCode":"47669","locality":"Wachtendonk","municipality":{"key":"05154060","name":"Wachtendonk","type":"Kreisangehörige_Gemeinde"},"district":{"key":"05154","name":"Kleve","type":"Kreis"},"federalState":{"key":"05","name":"Nordrhein-Westfalen"}},{"name":"Schoelkensdyck","postalCode":"47669","locality":"Wachtendonk","municipality":{"key":"05154060","name":"Wachtendonk","type":"Kreisangehörige_Gemeinde"},"district":{"key":"05154","name":"Kleve","type":"Kreis"},"federalState":{"key":"05","name":"Nordrhein-Westfalen"}},{"name":"Schopsweg","postalCode":"47669","locality":"Wachtendonk","municipality":{"key":"05154060","name":"Wachtendonk","type":"Kreisangehörige_Gemeinde"},"district":{"key":"05154","name":"Kleve","type":"Kreis"},"federalState":{"key":"05","name":"Nordrhein-Westfalen"}},{"name":"Schraffertsweg","postalCode":"47669","locality":"Wachtendonk","municipality":{"key":"05154060","name":"Wachtendonk","type":"Kreisangehörige_Gemeinde"},"district":{"key":"05154","name":"Kleve","type":"Kreis"},"federalState":{"key":"05","name":"Nordrhein-Westfalen"}},{"name":"Schulhof","postalCode":"47669","locality":"Wachtendonk","municipality":{"key":"05154060","name":"Wachtendonk","type":"Kreisangehörige_Gemeinde"},"district":{"key":"05154","name":"Kleve","type":"Kreis"},"federalState":{"key":"05","name":"Nordrhein-Westfalen"}},{"name":"Schumannweg","postalCode":"47669","locality":"Wachtendonk","municipality":{"key":"05154060","name":"Wachtendonk","type":"Kreisangehörige_Gemeinde"},"district":{"key":"05154","name":"Kleve","type":"Kreis"},"federalState":{"key":"05","name":"Nordrhein-Westfalen"}},{"name":"Schürkesweg","postalCode":"47669","locality":"Wachtendonk","municipality":{"key":"05154060","name":"Wachtendonk","type":"Kreisangehörige_Gemeinde"},"district":{"key":"05154","name":"Kleve","type":"Kreis"},"federalState":{"key":"05","name":"Nordrhein-Westfalen"}},{"name":"Sebastianusweg","postalCode":"47669","locality":"Wachtendonk","municipality":{"key":"05154060","name":"Wachtendonk","type":"Kreisangehörige_Gemeinde"},"district":{"key":"05154","name":"Kleve","type":"Kreis"},"federalState":{"key":"05","name":"Nordrhein-Westfalen"}},{"name":"Seidenstr.","postalCode":"47669","locality":"Wachtendonk","municipality":{"key":"05154060","name":"Wachtendonk","type":"Kreisangehörige_Gemeinde"},"district":{"key":"05154","name":"Kleve","type":"Kreis"},"federalState":{"key":"05","name":"Nordrhein-Westfalen"}},{"name":"Slümerstr.","postalCode":"47669","locality":"Wachtendonk","municipality":{"key":"05154060","name":"Wachtendonk","type":"Kreisangehörige_Gemeinde"},"district":{"key":"05154","name":"Kleve","type":"Kreis"},"federalState":{"key":"05","name":"Nordrhein-Westfalen"}},{"name":"Speestr.","postalCode":"47669","locality":"Wachtendonk","municipality":{"key":"05154060","name":"Wachtendonk","type":"Kreisangehörige_Gemeinde"},"district":{"key":"05154","name":"Kleve","type":"Kreis"},"federalState":{"key":"05","name":"Nordrhein-Westfalen"}},{"name":"Steindeich","postalCode":"47669","locality":"Wachtendonk","municipality":{"key":"05154060","name":"Wachtendonk","type":"Kreisangehörige_Gemeinde"},"district":{"key":"05154","name":"Kleve","type":"Kreis"},"federalState":{"key":"05","name":"Nordrhein-Westfalen"}},{"name":"Straelener Str.","postalCode":"47669","locality":"Wachtendonk","municipality":{"key":"05154060","name":"Wachtendonk","type":"Kreisangehörige_Gemeinde"},"district":{"key":"05154","name":"Kleve","type":"Kreis"},"federalState":{"key":"05","name":"Nordrhein-Westfalen"}},{"name":"Thomas-Mann-Str.","postalCode":"47669","locality":"Wachtendonk","municipality":{"key":"05154060","name":"Wachtendonk","type":"Kreisangehörige_Gemeinde"},"district":{"key":"05154","name":"Kleve","type":"Kreis"},"federalState":{"key":"05","name":"Nordrhein-Westfalen"}},{"name":"Tommweg","postalCode":"47669","locality":"Wachtendonk","municipality":{"key":"05154060","name":"Wachtendonk","type":"Kreisangehörige_Gemeinde"},"district":{"key":"05154","name":"Kleve","type":"Kreis"},"federalState":{"key":"05","name":"Nordrhein-Westfalen"}},{"name":"Tömpbroichweg","postalCode":"47669","locality":"Wachtendonk","municipality":{"key":"05154060","name":"Wachtendonk","type":"Kreisangehörige_Gemeinde"},"district":{"key":"05154","name":"Kleve","type":"Kreis"},"federalState":{"key":"05","name":"Nordrhein-Westfalen"}},{"name":"Ulmenweg","postalCode":"47669","locality":"Wachtendonk","municipality":{"key":"05154060","name":"Wachtendonk","type":"Kreisangehörige_Gemeinde"},"district":{"key":"05154","name":"Kleve","type":"Kreis"},"federalState":{"key":"05","name":"Nordrhein-Westfalen"}},{"name":"Venloer Str.","postalCode":"47669","locality":"Wachtendonk","municipality":{"key":"05154060","name":"Wachtendonk","type":"Kreisangehörige_Gemeinde"},"district":{"key":"05154","name":"Kleve","type":"Kreis"},"federalState":{"key":"05","name":"Nordrhein-Westfalen"}},{"name":"Von-Ruys-Str.","postalCode":"47669","locality":"Wachtendonk","municipality":{"key":"05154060","name":"Wachtendonk","type":"Kreisangehörige_Gemeinde"},"district":{"key":"05154","name":"Kleve","type":"Kreis"},"federalState":{"key":"05","name":"Nordrhein-Westfalen"}},{"name":"Wachtendonker Str.","postalCode":"47669","locality":"Wachtendonk","municipality":{"key":"05154060","name":"Wachtendonk","type":"Kreisangehörige_Gemeinde"},"district":{"key":"05154","name":"Kleve","type":"Kreis"},"federalState":{"key":"05","name":"Nordrhein-Westfalen"}},{"name":"Wall","postalCode":"47669","locality":"Wachtendonk","municipality":{"key":"05154060","name":"Wachtendonk","type":"Kreisangehörige_Gemeinde"},"district":{"key":"05154","name":"Kleve","type":"Kreis"},"federalState":{"key":"05","name":"Nordrhein-Westfalen"}},{"name":"Wankumer Str.","postalCode":"47669","locality":"Wachtendonk","municipality":{"key":"05154060","name":"Wachtendonk","type":"Kreisangehörige_Gemeinde"},"district":{"key":"05154","name":"Kleve","type":"Kreis"},"federalState":{"key":"05","name":"Nordrhein-Westfalen"}},{"name":"Weinstr.","postalCode":"47669","locality":"Wachtendonk","municipality":{"key":"05154060","name":"Wachtendonk","type":"Kreisangehörige_Gemeinde"},"district":{"key":"05154","name":"Kleve","type":"Kreis"},"federalState":{"key":"05","name":"Nordrhein-Westfalen"}},{"name":"Weißbuchenweg","postalCode":"47669","locality":"Wachtendonk","municipality":{"key":"05154060","name":"Wachtendonk","type":"Kreisangehörige_Gemeinde"},"district":{"key":"05154","name":"Kleve","type":"Kreis"},"federalState":{"key":"05","name":"Nordrhein-Westfalen"}},{"name":"Weißdornweg","postalCode":"47669","locality":"Wachtendonk","municipality":{"key":"05154060","name":"Wachtendonk","type":"Kreisangehörige_Gemeinde"},"district":{"key":"05154","name":"Kleve","type":"Kreis"},"federalState":{"key":"05","name":"Nordrhein-Westfalen"}},{"name":"Westerheckweg","postalCode":"47669","locality":"Wachtendonk","municipality":{"key":"05154060","name":"Wachtendonk","type":"Kreisangehörige_Gemeinde"},"district":{"key":"05154","name":"Kleve","type":"Kreis"},"federalState":{"key":"05","name":"Nordrhein-Westfalen"}},{"name":"Wolfsgrabenweg","postalCode":"47669","locality":"Wachtendonk","municipality":{"key":"05154060","name":"Wachtendonk","type":"Kreisangehörige_Gemeinde"},"district":{"key":"05154","name":"Kleve","type":"Kreis"},"federalState":{"key":"05","name":"Nordrhein-Westfalen"}},{"name":"Ziegelstr.","postalCode":"47533","locality":"Kleve","municipality":{"key":"05154036","name":"Kleve, Stadt","type":"Stadt"},"district":{"key":"05154","name":"Kleve","type":"Kreis"},"federalState":{"key":"05","name":"Nordrhein-Westfalen"}},{"name":"Zur alten Kirche","postalCode":"47533","locality":"Kleve","municipality":{"key":"05154036","name":"Kleve, Stadt","type":"Stadt"},"district":{"key":"05154","name":"Kleve","type":"Kreis"},"federalState":{"key":"05","name":"Nordrhein-Westfalen"}},{"name":"Zur alten Mühle","postalCode":"47533","locality":"Kleve","municipality":{"key":"05154036","name":"Kleve, Stadt","type":"Stadt"},"district":{"key":"05154","name":"Kleve","type":"Kreis"},"federalState":{"key":"05","name":"Nordrhein-Westfalen"}},{"name":"Zur Schleuse","postalCode":"47533","locality":"Kleve","municipality":{"key":"05154036","name":"Kleve, Stadt","type":"Stadt"},"district":{"key":"05154","name":"Kleve","type":"Kreis"},"federalState":{"key":"05","name":"Nordrhein-Westfalen"}},]