[{"name":"Asbacher Str.","postalCode":"84082","locality":"Laberweinting","municipality":{"key":"09278144","name":"Laberweinting","type":"Kreisangehörige_Gemeinde"},"district":{"key":"09278","name":"Straubing-Bogen","type":"Landkreis"},"federalState":{"key":"09","name":"Bayern"}},{"name":"Bachstr.","postalCode":"84082","locality":"Laberweinting","municipality":{"key":"09278144","name":"Laberweinting","type":"Kreisangehörige_Gemeinde"},"district":{"key":"09278","name":"Straubing-Bogen","type":"Landkreis"},"federalState":{"key":"09","name":"Bayern"}},{"name":"Bahnhofstr.","postalCode":"84082","locality":"Laberweinting","municipality":{"key":"09278144","name":"Laberweinting","type":"Kreisangehörige_Gemeinde"},"district":{"key":"09278","name":"Straubing-Bogen","type":"Landkreis"},"federalState":{"key":"09","name":"Bayern"}},{"name":"Bayerbacher Str.","postalCode":"84082","locality":"Laberweinting","municipality":{"key":"09278144","name":"Laberweinting","type":"Kreisangehörige_Gemeinde"},"district":{"key":"09278","name":"Straubing-Bogen","type":"Landkreis"},"federalState":{"key":"09","name":"Bayern"}},{"name":"Birkenweg","postalCode":"84082","locality":"Laberweinting","municipality":{"key":"09278144","name":"Laberweinting","type":"Kreisangehörige_Gemeinde"},"district":{"key":"09278","name":"Straubing-Bogen","type":"Landkreis"},"federalState":{"key":"09","name":"Bayern"}},{"name":"Bürgermeister-Zellmeier-Str.","postalCode":"84082","locality":"Laberweinting","municipality":{"key":"09278144","name":"Laberweinting","type":"Kreisangehörige_Gemeinde"},"district":{"key":"09278","name":"Straubing-Bogen","type":"Landkreis"},"federalState":{"key":"09","name":"Bayern"}},{"name":"Erlenweg","postalCode":"84082","locality":"Laberweinting","municipality":{"key":"09278144","name":"Laberweinting","type":"Kreisangehörige_Gemeinde"},"district":{"key":"09278","name":"Straubing-Bogen","type":"Landkreis"},"federalState":{"key":"09","name":"Bayern"}},{"name":"Flurstr.","postalCode":"84082","locality":"Laberweinting","municipality":{"key":"09278144","name":"Laberweinting","type":"Kreisangehörige_Gemeinde"},"district":{"key":"09278","name":"Straubing-Bogen","type":"Landkreis"},"federalState":{"key":"09","name":"Bayern"}},{"name":"Flutweg","postalCode":"84082","locality":"Laberweinting","municipality":{"key":"09278144","name":"Laberweinting","type":"Kreisangehörige_Gemeinde"},"district":{"key":"09278","name":"Straubing-Bogen","type":"Landkreis"},"federalState":{"key":"09","name":"Bayern"}},{"name":"Franken","postalCode":"84082","locality":"Laberweinting","municipality":{"key":"09278144","name":"Laberweinting","type":"Kreisangehörige_Gemeinde"},"district":{"key":"09278","name":"Straubing-Bogen","type":"Landkreis"},"federalState":{"key":"09","name":"Bayern"}},{"name":"Frühlingstr.","postalCode":"84082","locality":"Laberweinting","municipality":{"key":"09278144","name":"Laberweinting","type":"Kreisangehörige_Gemeinde"},"district":{"key":"09278","name":"Straubing-Bogen","type":"Landkreis"},"federalState":{"key":"09","name":"Bayern"}},{"name":"Grafentraubach","postalCode":"84082","locality":"Laberweinting","municipality":{"key":"09278144","name":"Laberweinting","type":"Kreisangehörige_Gemeinde"},"district":{"key":"09278","name":"Straubing-Bogen","type":"Landkreis"},"federalState":{"key":"09","name":"Bayern"}},{"name":"Haaderer Str.","postalCode":"84082","locality":"Laberweinting","municipality":{"key":"09278144","name":"Laberweinting","type":"Kreisangehörige_Gemeinde"},"district":{"key":"09278","name":"Straubing-Bogen","type":"Landkreis"},"federalState":{"key":"09","name":"Bayern"}},{"name":"Habelsbacher Str.","postalCode":"84082","locality":"Laberweinting","municipality":{"key":"09278144","name":"Laberweinting","type":"Kreisangehörige_Gemeinde"},"district":{"key":"09278","name":"Straubing-Bogen","type":"Landkreis"},"federalState":{"key":"09","name":"Bayern"}},{"name":"Herbststr.","postalCode":"84082","locality":"Laberweinting","municipality":{"key":"09278144","name":"Laberweinting","type":"Kreisangehörige_Gemeinde"},"district":{"key":"09278","name":"Straubing-Bogen","type":"Landkreis"},"federalState":{"key":"09","name":"Bayern"}},{"name":"Hofkirchen","postalCode":"84082","locality":"Laberweinting","municipality":{"key":"09278144","name":"Laberweinting","type":"Kreisangehörige_Gemeinde"},"district":{"key":"09278","name":"Straubing-Bogen","type":"Landkreis"},"federalState":{"key":"09","name":"Bayern"}},{"name":"Kirchgasse","postalCode":"84082","locality":"Laberweinting","municipality":{"key":"09278144","name":"Laberweinting","type":"Kreisangehörige_Gemeinde"},"district":{"key":"09278","name":"Straubing-Bogen","type":"Landkreis"},"federalState":{"key":"09","name":"Bayern"}},{"name":"Laberfeldstr.","postalCode":"84082","locality":"Laberweinting","municipality":{"key":"09278144","name":"Laberweinting","type":"Kreisangehörige_Gemeinde"},"district":{"key":"09278","name":"Straubing-Bogen","type":"Landkreis"},"federalState":{"key":"09","name":"Bayern"}},{"name":"Landshuter Str.","postalCode":"84082","locality":"Laberweinting","municipality":{"key":"09278144","name":"Laberweinting","type":"Kreisangehörige_Gemeinde"},"district":{"key":"09278","name":"Straubing-Bogen","type":"Landkreis"},"federalState":{"key":"09","name":"Bayern"}},{"name":"Lindenweg","postalCode":"84082","locality":"Laberweinting","municipality":{"key":"09278144","name":"Laberweinting","type":"Kreisangehörige_Gemeinde"},"district":{"key":"09278","name":"Straubing-Bogen","type":"Landkreis"},"federalState":{"key":"09","name":"Bayern"}},{"name":"Neuhofen","postalCode":"84082","locality":"Laberweinting","municipality":{"key":"09278144","name":"Laberweinting","type":"Kreisangehörige_Gemeinde"},"district":{"key":"09278","name":"Straubing-Bogen","type":"Landkreis"},"federalState":{"key":"09","name":"Bayern"}},{"name":"Ortsiedlung","postalCode":"84082","locality":"Laberweinting","municipality":{"key":"09278144","name":"Laberweinting","type":"Kreisangehörige_Gemeinde"},"district":{"key":"09278","name":"Straubing-Bogen","type":"Landkreis"},"federalState":{"key":"09","name":"Bayern"}},{"name":"Poschenhof","postalCode":"84082","locality":"Laberweinting","municipality":{"key":"09278144","name":"Laberweinting","type":"Kreisangehörige_Gemeinde"},"district":{"key":"09278","name":"Straubing-Bogen","type":"Landkreis"},"federalState":{"key":"09","name":"Bayern"}},{"name":"Rathausstr.","postalCode":"84082","locality":"Laberweinting","municipality":{"key":"09278144","name":"Laberweinting","type":"Kreisangehörige_Gemeinde"},"district":{"key":"09278","name":"Straubing-Bogen","type":"Landkreis"},"federalState":{"key":"09","name":"Bayern"}},{"name":"Riedstr.","postalCode":"84082","locality":"Laberweinting","municipality":{"key":"09278144","name":"Laberweinting","type":"Kreisangehörige_Gemeinde"},"district":{"key":"09278","name":"Straubing-Bogen","type":"Landkreis"},"federalState":{"key":"09","name":"Bayern"}},{"name":"Schlangenweg","postalCode":"84082","locality":"Laberweinting","municipality":{"key":"09278144","name":"Laberweinting","type":"Kreisangehörige_Gemeinde"},"district":{"key":"09278","name":"Straubing-Bogen","type":"Landkreis"},"federalState":{"key":"09","name":"Bayern"}},{"name":"Schloßgasse","postalCode":"84082","locality":"Laberweinting","municipality":{"key":"09278144","name":"Laberweinting","type":"Kreisangehörige_Gemeinde"},"district":{"key":"09278","name":"Straubing-Bogen","type":"Landkreis"},"federalState":{"key":"09","name":"Bayern"}},{"name":"Schmiedbruecke","postalCode":"84082","locality":"Laberweinting","municipality":{"key":"09278144","name":"Laberweinting","type":"Kreisangehörige_Gemeinde"},"district":{"key":"09278","name":"Straubing-Bogen","type":"Landkreis"},"federalState":{"key":"09","name":"Bayern"}},{"name":"Sportplatzstr.","postalCode":"84082","locality":"Laberweinting","municipality":{"key":"09278144","name":"Laberweinting","type":"Kreisangehörige_Gemeinde"},"district":{"key":"09278","name":"Straubing-Bogen","type":"Landkreis"},"federalState":{"key":"09","name":"Bayern"}},{"name":"Straubinger Str.","postalCode":"84082","locality":"Laberweinting","municipality":{"key":"09278144","name":"Laberweinting","type":"Kreisangehörige_Gemeinde"},"district":{"key":"09278","name":"Straubing-Bogen","type":"Landkreis"},"federalState":{"key":"09","name":"Bayern"}},{"name":"Untere Au","postalCode":"84082","locality":"Laberweinting","municipality":{"key":"09278144","name":"Laberweinting","type":"Kreisangehörige_Gemeinde"},"district":{"key":"09278","name":"Straubing-Bogen","type":"Landkreis"},"federalState":{"key":"09","name":"Bayern"}},{"name":"Weichs","postalCode":"84082","locality":"Laberweinting","municipality":{"key":"09278144","name":"Laberweinting","type":"Kreisangehörige_Gemeinde"},"district":{"key":"09278","name":"Straubing-Bogen","type":"Landkreis"},"federalState":{"key":"09","name":"Bayern"}},{"name":"Westsiedlung","postalCode":"84082","locality":"Laberweinting","municipality":{"key":"09278144","name":"Laberweinting","type":"Kreisangehörige_Gemeinde"},"district":{"key":"09278","name":"Straubing-Bogen","type":"Landkreis"},"federalState":{"key":"09","name":"Bayern"}},{"name":"Ödwieser Weg","postalCode":"84082","locality":"Laberweinting","municipality":{"key":"09278144","name":"Laberweinting","type":"Kreisangehörige_Gemeinde"},"district":{"key":"09278","name":"Straubing-Bogen","type":"Landkreis"},"federalState":{"key":"09","name":"Bayern"}},]