[{"name":"Am Anger","postalCode":"85395","locality":"Wolfersdorf","municipality":{"key":"09178156","name":"Wolfersdorf","type":"Kreisangehörige_Gemeinde"},"district":{"key":"09178","name":"Freising","type":"Landkreis"},"federalState":{"key":"09","name":"Bayern"}},{"name":"Am Feldl","postalCode":"85395","locality":"Wolfersdorf","municipality":{"key":"09178156","name":"Wolfersdorf","type":"Kreisangehörige_Gemeinde"},"district":{"key":"09178","name":"Freising","type":"Landkreis"},"federalState":{"key":"09","name":"Bayern"}},{"name":"Am Grasfeld","postalCode":"85395","locality":"Wolfersdorf","municipality":{"key":"09178156","name":"Wolfersdorf","type":"Kreisangehörige_Gemeinde"},"district":{"key":"09178","name":"Freising","type":"Landkreis"},"federalState":{"key":"09","name":"Bayern"}},{"name":"Am Hochberg","postalCode":"85395","locality":"Wolfersdorf","municipality":{"key":"09178156","name":"Wolfersdorf","type":"Kreisangehörige_Gemeinde"},"district":{"key":"09178","name":"Freising","type":"Landkreis"},"federalState":{"key":"09","name":"Bayern"}},{"name":"Am Kindergarten","postalCode":"85395","locality":"Wolfersdorf","municipality":{"key":"09178156","name":"Wolfersdorf","type":"Kreisangehörige_Gemeinde"},"district":{"key":"09178","name":"Freising","type":"Landkreis"},"federalState":{"key":"09","name":"Bayern"}},{"name":"Am Sportplatz","postalCode":"85395","locality":"Wolfersdorf","municipality":{"key":"09178156","name":"Wolfersdorf","type":"Kreisangehörige_Gemeinde"},"district":{"key":"09178","name":"Freising","type":"Landkreis"},"federalState":{"key":"09","name":"Bayern"}},{"name":"Bäckergasse","postalCode":"85395","locality":"Wolfersdorf","municipality":{"key":"09178156","name":"Wolfersdorf","type":"Kreisangehörige_Gemeinde"},"district":{"key":"09178","name":"Freising","type":"Landkreis"},"federalState":{"key":"09","name":"Bayern"}},{"name":"Bärenkopfstreifen","postalCode":"07646","locality":"Trockenborn-Wolfersdorf","municipality":{"key":"16074102","name":"Trockenborn-Wolfersdorf","type":"Kreisangehörige_Gemeinde"},"district":{"key":"16074","name":"Saale-Holzland-Kreis","type":"Landkreis"},"federalState":{"key":"16","name":"Thüringen"}},{"name":"Berghaselbacher Str.","postalCode":"85395","locality":"Wolfersdorf","municipality":{"key":"09178156","name":"Wolfersdorf","type":"Kreisangehörige_Gemeinde"},"district":{"key":"09178","name":"Freising","type":"Landkreis"},"federalState":{"key":"09","name":"Bayern"}},{"name":"Birkenweg","postalCode":"85395","locality":"Wolfersdorf","municipality":{"key":"09178156","name":"Wolfersdorf","type":"Kreisangehörige_Gemeinde"},"district":{"key":"09178","name":"Freising","type":"Landkreis"},"federalState":{"key":"09","name":"Bayern"}},{"name":"Blumenstr.","postalCode":"85395","locality":"Wolfersdorf","municipality":{"key":"09178156","name":"Wolfersdorf","type":"Kreisangehörige_Gemeinde"},"district":{"key":"09178","name":"Freising","type":"Landkreis"},"federalState":{"key":"09","name":"Bayern"}},{"name":"Buchenstr.","postalCode":"85395","locality":"Wolfersdorf","municipality":{"key":"09178156","name":"Wolfersdorf","type":"Kreisangehörige_Gemeinde"},"district":{"key":"09178","name":"Freising","type":"Landkreis"},"federalState":{"key":"09","name":"Bayern"}},{"name":"Camerloherstr.","postalCode":"85354","locality":"Freising","municipality":{"key":"09178124","name":"Freising, GKSt","type":"Große_Kreisstadt"},"district":{"key":"09178","name":"Freising","type":"Landkreis"},"federalState":{"key":"09","name":"Bayern"}},{"name":"Carl-Bosch-Weg","postalCode":"85375","locality":"Neufahrn bei Freising","municipality":{"key":"09178145","name":"Neufahrn b.Freising","type":"Kreisangehörige_Gemeinde"},"district":{"key":"09178","name":"Freising","type":"Landkreis"},"federalState":{"key":"09","name":"Bayern"}},{"name":"Carl-Dettenhofer-Str.","postalCode":"85356","locality":"Freising","municipality":{"key":"09178124","name":"Freising, GKSt","type":"Große_Kreisstadt"},"district":{"key":"09178","name":"Freising","type":"Landkreis"},"federalState":{"key":"09","name":"Bayern"}},{"name":"Carl-Orff-Str.","postalCode":"85356","locality":"Freising","municipality":{"key":"09178124","name":"Freising, GKSt","type":"Große_Kreisstadt"},"district":{"key":"09178","name":"Freising","type":"Landkreis"},"federalState":{"key":"09","name":"Bayern"}},{"name":"Carl-Orff-Weg","postalCode":"85375","locality":"Neufahrn bei Freising","municipality":{"key":"09178145","name":"Neufahrn b.Freising","type":"Kreisangehörige_Gemeinde"},"district":{"key":"09178","name":"Freising","type":"Landkreis"},"federalState":{"key":"09","name":"Bayern"}},{"name":"Carl-Zeiss-Weg","postalCode":"85375","locality":"Neufahrn bei Freising","municipality":{"key":"09178145","name":"Neufahrn b.Freising","type":"Kreisangehörige_Gemeinde"},"district":{"key":"09178","name":"Freising","type":"Landkreis"},"federalState":{"key":"09","name":"Bayern"}},{"name":"Christl-Cranz-Str.","postalCode":"85375","locality":"Neufahrn bei Freising","municipality":{"key":"09178145","name":"Neufahrn b.Freising","type":"Kreisangehörige_Gemeinde"},"district":{"key":"09178","name":"Freising","type":"Landkreis"},"federalState":{"key":"09","name":"Bayern"}},{"name":"Christopher-Paudiß-Platz","postalCode":"85354","locality":"Freising","municipality":{"key":"09178124","name":"Freising, GKSt","type":"Große_Kreisstadt"},"district":{"key":"09178","name":"Freising","type":"Landkreis"},"federalState":{"key":"09","name":"Bayern"}},{"name":"Christopher-Paudiß-Platz","postalCode":"85356","locality":"Freising","municipality":{"key":"09178124","name":"Freising, GKSt","type":"Große_Kreisstadt"},"district":{"key":"09178","name":"Freising","type":"Landkreis"},"federalState":{"key":"09","name":"Bayern"}},{"name":"Clemensänger-Ost","postalCode":"85356","locality":"Freising","municipality":{"key":"09178124","name":"Freising, GKSt","type":"Große_Kreisstadt"},"district":{"key":"09178","name":"Freising","type":"Landkreis"},"federalState":{"key":"09","name":"Bayern"}},{"name":"Clemensänger-Ring","postalCode":"85356","locality":"Freising","municipality":{"key":"09178124","name":"Freising, GKSt","type":"Große_Kreisstadt"},"district":{"key":"09178","name":"Freising","type":"Landkreis"},"federalState":{"key":"09","name":"Bayern"}},{"name":"Clemensweg","postalCode":"85356","locality":"Freising","municipality":{"key":"09178124","name":"Freising, GKSt","type":"Große_Kreisstadt"},"district":{"key":"09178","name":"Freising","type":"Landkreis"},"federalState":{"key":"09","name":"Bayern"}},{"name":"Dorfstr.","postalCode":"85395","locality":"Wolfersdorf","municipality":{"key":"09178156","name":"Wolfersdorf","type":"Kreisangehörige_Gemeinde"},"district":{"key":"09178","name":"Freising","type":"Landkreis"},"federalState":{"key":"09","name":"Bayern"}},{"name":"Dr.-Radlmaier-Str.","postalCode":"85395","locality":"Wolfersdorf","municipality":{"key":"09178156","name":"Wolfersdorf","type":"Kreisangehörige_Gemeinde"},"district":{"key":"09178","name":"Freising","type":"Landkreis"},"federalState":{"key":"09","name":"Bayern"}},{"name":"Ebersdorfer Str.","postalCode":"85395","locality":"Wolfersdorf","municipality":{"key":"09178156","name":"Wolfersdorf","type":"Kreisangehörige_Gemeinde"},"district":{"key":"09178","name":"Freising","type":"Landkreis"},"federalState":{"key":"09","name":"Bayern"}},{"name":"Eichenstr.","postalCode":"85395","locality":"Wolfersdorf","municipality":{"key":"09178156","name":"Wolfersdorf","type":"Kreisangehörige_Gemeinde"},"district":{"key":"09178","name":"Freising","type":"Landkreis"},"federalState":{"key":"09","name":"Bayern"}},{"name":"Eschenweg","postalCode":"85395","locality":"Wolfersdorf","municipality":{"key":"09178156","name":"Wolfersdorf","type":"Kreisangehörige_Gemeinde"},"district":{"key":"09178","name":"Freising","type":"Landkreis"},"federalState":{"key":"09","name":"Bayern"}},{"name":"Fichtenweg","postalCode":"85395","locality":"Wolfersdorf","municipality":{"key":"09178156","name":"Wolfersdorf","type":"Kreisangehörige_Gemeinde"},"district":{"key":"09178","name":"Freising","type":"Landkreis"},"federalState":{"key":"09","name":"Bayern"}},{"name":"Flurweg","postalCode":"85395","locality":"Wolfersdorf","municipality":{"key":"09178156","name":"Wolfersdorf","type":"Kreisangehörige_Gemeinde"},"district":{"key":"09178","name":"Freising","type":"Landkreis"},"federalState":{"key":"09","name":"Bayern"}},{"name":"Gartenstr.","postalCode":"85395","locality":"Wolfersdorf","municipality":{"key":"09178156","name":"Wolfersdorf","type":"Kreisangehörige_Gemeinde"},"district":{"key":"09178","name":"Freising","type":"Landkreis"},"federalState":{"key":"09","name":"Bayern"}},{"name":"Gärtnerweg","postalCode":"85395","locality":"Wolfersdorf","municipality":{"key":"09178156","name":"Wolfersdorf","type":"Kreisangehörige_Gemeinde"},"district":{"key":"09178","name":"Freising","type":"Landkreis"},"federalState":{"key":"09","name":"Bayern"}},{"name":"Grenzweg","postalCode":"07646","locality":"Trockenborn-Wolfersdorf","municipality":{"key":"16074102","name":"Trockenborn-Wolfersdorf","type":"Kreisangehörige_Gemeinde"},"district":{"key":"16074","name":"Saale-Holzland-Kreis","type":"Landkreis"},"federalState":{"key":"16","name":"Thüringen"}},{"name":"Hartensteinstreifen","postalCode":"07646","locality":"Trockenborn-Wolfersdorf","municipality":{"key":"16074102","name":"Trockenborn-Wolfersdorf","type":"Kreisangehörige_Gemeinde"},"district":{"key":"16074","name":"Saale-Holzland-Kreis","type":"Landkreis"},"federalState":{"key":"16","name":"Thüringen"}},{"name":"Hartingerstr.","postalCode":"85395","locality":"Wolfersdorf","municipality":{"key":"09178156","name":"Wolfersdorf","type":"Kreisangehörige_Gemeinde"},"district":{"key":"09178","name":"Freising","type":"Landkreis"},"federalState":{"key":"09","name":"Bayern"}},{"name":"Hartshauser Str.","postalCode":"85395","locality":"Wolfersdorf","municipality":{"key":"09178156","name":"Wolfersdorf","type":"Kreisangehörige_Gemeinde"},"district":{"key":"09178","name":"Freising","type":"Landkreis"},"federalState":{"key":"09","name":"Bayern"}},{"name":"Haselbacher Feld","postalCode":"85395","locality":"Wolfersdorf","municipality":{"key":"09178156","name":"Wolfersdorf","type":"Kreisangehörige_Gemeinde"},"district":{"key":"09178","name":"Freising","type":"Landkreis"},"federalState":{"key":"09","name":"Bayern"}},{"name":"Hauptstr.","postalCode":"85395","locality":"Wolfersdorf","municipality":{"key":"09178156","name":"Wolfersdorf","type":"Kreisangehörige_Gemeinde"},"district":{"key":"09178","name":"Freising","type":"Landkreis"},"federalState":{"key":"09","name":"Bayern"}},{"name":"Hirtenfeld","postalCode":"85395","locality":"Wolfersdorf","municipality":{"key":"09178156","name":"Wolfersdorf","type":"Kreisangehörige_Gemeinde"},"district":{"key":"09178","name":"Freising","type":"Landkreis"},"federalState":{"key":"09","name":"Bayern"}},{"name":"Hirtenweg","postalCode":"85395","locality":"Wolfersdorf","municipality":{"key":"09178156","name":"Wolfersdorf","type":"Kreisangehörige_Gemeinde"},"district":{"key":"09178","name":"Freising","type":"Landkreis"},"federalState":{"key":"09","name":"Bayern"}},{"name":"Hochstr.","postalCode":"85395","locality":"Wolfersdorf","municipality":{"key":"09178156","name":"Wolfersdorf","type":"Kreisangehörige_Gemeinde"},"district":{"key":"09178","name":"Freising","type":"Landkreis"},"federalState":{"key":"09","name":"Bayern"}},{"name":"Hopfenstr.","postalCode":"85395","locality":"Wolfersdorf","municipality":{"key":"09178156","name":"Wolfersdorf","type":"Kreisangehörige_Gemeinde"},"district":{"key":"09178","name":"Freising","type":"Landkreis"},"federalState":{"key":"09","name":"Bayern"}},{"name":"Ignaz-Günther-Str.","postalCode":"85356","locality":"Freising","municipality":{"key":"09178124","name":"Freising, GKSt","type":"Große_Kreisstadt"},"district":{"key":"09178","name":"Freising","type":"Landkreis"},"federalState":{"key":"09","name":"Bayern"}},{"name":"Imma-Mack-Platz","postalCode":"85356","locality":"Freising","municipality":{"key":"09178124","name":"Freising, GKSt","type":"Große_Kreisstadt"},"district":{"key":"09178","name":"Freising","type":"Landkreis"},"federalState":{"key":"09","name":"Bayern"}},{"name":"Innichner Str.","postalCode":"85354","locality":"Freising","municipality":{"key":"09178124","name":"Freising, GKSt","type":"Große_Kreisstadt"},"district":{"key":"09178","name":"Freising","type":"Landkreis"},"federalState":{"key":"09","name":"Bayern"}},{"name":"Isanperhtweg","postalCode":"85375","locality":"Neufahrn bei Freising","municipality":{"key":"09178145","name":"Neufahrn b.Freising","type":"Kreisangehörige_Gemeinde"},"district":{"key":"09178","name":"Freising","type":"Landkreis"},"federalState":{"key":"09","name":"Bayern"}},{"name":"Isarauenpark","postalCode":"85354","locality":"Freising","municipality":{"key":"09178124","name":"Freising, GKSt","type":"Große_Kreisstadt"},"district":{"key":"09178","name":"Freising","type":"Landkreis"},"federalState":{"key":"09","name":"Bayern"}},{"name":"Isarstr.","postalCode":"85354","locality":"Freising","municipality":{"key":"09178124","name":"Freising, GKSt","type":"Große_Kreisstadt"},"district":{"key":"09178","name":"Freising","type":"Landkreis"},"federalState":{"key":"09","name":"Bayern"}},{"name":"Isarstr.","postalCode":"85356","locality":"Freising","municipality":{"key":"09178124","name":"Freising, GKSt","type":"Große_Kreisstadt"},"district":{"key":"09178","name":"Freising","type":"Landkreis"},"federalState":{"key":"09","name":"Bayern"}},{"name":"Isarweg","postalCode":"85375","locality":"Neufahrn bei Freising","municipality":{"key":"09178145","name":"Neufahrn b.Freising","type":"Kreisangehörige_Gemeinde"},"district":{"key":"09178","name":"Freising","type":"Landkreis"},"federalState":{"key":"09","name":"Bayern"}},{"name":"Ismaninger Str.","postalCode":"85356","locality":"Freising","municipality":{"key":"09178124","name":"Freising, GKSt","type":"Große_Kreisstadt"},"district":{"key":"09178","name":"Freising","type":"Landkreis"},"federalState":{"key":"09","name":"Bayern"}},{"name":"Itzling","postalCode":"85354","locality":"Freising","municipality":{"key":"09178124","name":"Freising, GKSt","type":"Große_Kreisstadt"},"district":{"key":"09178","name":"Freising","type":"Landkreis"},"federalState":{"key":"09","name":"Bayern"}},{"name":"Itzlinger Str.","postalCode":"85354","locality":"Freising","municipality":{"key":"09178124","name":"Freising, GKSt","type":"Große_Kreisstadt"},"district":{"key":"09178","name":"Freising","type":"Landkreis"},"federalState":{"key":"09","name":"Bayern"}},{"name":"Itzlinger Str.","postalCode":"85356","locality":"Freising","municipality":{"key":"09178124","name":"Freising, GKSt","type":"Große_Kreisstadt"},"district":{"key":"09178","name":"Freising","type":"Landkreis"},"federalState":{"key":"09","name":"Bayern"}},{"name":"Jagdstr.","postalCode":"85356","locality":"Freising","municipality":{"key":"09178124","name":"Freising, GKSt","type":"Große_Kreisstadt"},"district":{"key":"09178","name":"Freising","type":"Landkreis"},"federalState":{"key":"09","name":"Bayern"}},{"name":"Jägersteig","postalCode":"85354","locality":"Freising","municipality":{"key":"09178124","name":"Freising, GKSt","type":"Große_Kreisstadt"},"district":{"key":"09178","name":"Freising","type":"Landkreis"},"federalState":{"key":"09","name":"Bayern"}},{"name":"Jägersteig","postalCode":"85375","locality":"Neufahrn bei Freising","municipality":{"key":"09178145","name":"Neufahrn b.Freising","type":"Kreisangehörige_Gemeinde"},"district":{"key":"09178","name":"Freising","type":"Landkreis"},"federalState":{"key":"09","name":"Bayern"}},{"name":"Jägerwirtsgasse","postalCode":"85354","locality":"Freising","municipality":{"key":"09178124","name":"Freising, GKSt","type":"Große_Kreisstadt"},"district":{"key":"09178","name":"Freising","type":"Landkreis"},"federalState":{"key":"09","name":"Bayern"}},{"name":"Jahnweg","postalCode":"85375","locality":"Neufahrn bei Freising","municipality":{"key":"09178145","name":"Neufahrn b.Freising","type":"Kreisangehörige_Gemeinde"},"district":{"key":"09178","name":"Freising","type":"Landkreis"},"federalState":{"key":"09","name":"Bayern"}},{"name":"Jochamstr.","postalCode":"85354","locality":"Freising","municipality":{"key":"09178124","name":"Freising, GKSt","type":"Große_Kreisstadt"},"district":{"key":"09178","name":"Freising","type":"Landkreis"},"federalState":{"key":"09","name":"Bayern"}},{"name":"Johann-Braun-Str.","postalCode":"85354","locality":"Freising","municipality":{"key":"09178124","name":"Freising, GKSt","type":"Große_Kreisstadt"},"district":{"key":"09178","name":"Freising","type":"Landkreis"},"federalState":{"key":"09","name":"Bayern"}},{"name":"Johannispark","postalCode":"85354","locality":"Freising","municipality":{"key":"09178124","name":"Freising, GKSt","type":"Große_Kreisstadt"},"district":{"key":"09178","name":"Freising","type":"Landkreis"},"federalState":{"key":"09","name":"Bayern"}},{"name":"Johannisstr.","postalCode":"85354","locality":"Freising","municipality":{"key":"09178124","name":"Freising, GKSt","type":"Große_Kreisstadt"},"district":{"key":"09178","name":"Freising","type":"Landkreis"},"federalState":{"key":"09","name":"Bayern"}},{"name":"Jo-Mihaly-Str.","postalCode":"85375","locality":"Neufahrn bei Freising","municipality":{"key":"09178145","name":"Neufahrn b.Freising","type":"Kreisangehörige_Gemeinde"},"district":{"key":"09178","name":"Freising","type":"Landkreis"},"federalState":{"key":"09","name":"Bayern"}},{"name":"Josef-Scheuerl-Str.","postalCode":"85356","locality":"Freising","municipality":{"key":"09178124","name":"Freising, GKSt","type":"Große_Kreisstadt"},"district":{"key":"09178","name":"Freising","type":"Landkreis"},"federalState":{"key":"09","name":"Bayern"}},{"name":"Josef-Zauser-Weg","postalCode":"85375","locality":"Neufahrn bei Freising","municipality":{"key":"09178145","name":"Neufahrn b.Freising","type":"Kreisangehörige_Gemeinde"},"district":{"key":"09178","name":"Freising","type":"Landkreis"},"federalState":{"key":"09","name":"Bayern"}},{"name":"Joseph-Schlecht-Str.","postalCode":"85354","locality":"Freising","municipality":{"key":"09178124","name":"Freising, GKSt","type":"Große_Kreisstadt"},"district":{"key":"09178","name":"Freising","type":"Landkreis"},"federalState":{"key":"09","name":"Bayern"}},{"name":"Kirchanger","postalCode":"85395","locality":"Wolfersdorf","municipality":{"key":"09178156","name":"Wolfersdorf","type":"Kreisangehörige_Gemeinde"},"district":{"key":"09178","name":"Freising","type":"Landkreis"},"federalState":{"key":"09","name":"Bayern"}},{"name":"Kirchstr.","postalCode":"85395","locality":"Wolfersdorf","municipality":{"key":"09178156","name":"Wolfersdorf","type":"Kreisangehörige_Gemeinde"},"district":{"key":"09178","name":"Freising","type":"Landkreis"},"federalState":{"key":"09","name":"Bayern"}},{"name":"Kirchweg","postalCode":"85395","locality":"Wolfersdorf","municipality":{"key":"09178156","name":"Wolfersdorf","type":"Kreisangehörige_Gemeinde"},"district":{"key":"09178","name":"Freising","type":"Landkreis"},"federalState":{"key":"09","name":"Bayern"}},{"name":"Kolomanstr.","postalCode":"85395","locality":"Wolfersdorf","municipality":{"key":"09178156","name":"Wolfersdorf","type":"Kreisangehörige_Gemeinde"},"district":{"key":"09178","name":"Freising","type":"Landkreis"},"federalState":{"key":"09","name":"Bayern"}},{"name":"Kurfürstenbrücke","postalCode":"07646","locality":"Trockenborn-Wolfersdorf","municipality":{"key":"16074102","name":"Trockenborn-Wolfersdorf","type":"Kreisangehörige_Gemeinde"},"district":{"key":"16074","name":"Saale-Holzland-Kreis","type":"Landkreis"},"federalState":{"key":"16","name":"Thüringen"}},{"name":"Leonhardstr.","postalCode":"85395","locality":"Wolfersdorf","municipality":{"key":"09178156","name":"Wolfersdorf","type":"Kreisangehörige_Gemeinde"},"district":{"key":"09178","name":"Freising","type":"Landkreis"},"federalState":{"key":"09","name":"Bayern"}},{"name":"Lindenstr.","postalCode":"85395","locality":"Wolfersdorf","municipality":{"key":"09178156","name":"Wolfersdorf","type":"Kreisangehörige_Gemeinde"},"district":{"key":"09178","name":"Freising","type":"Landkreis"},"federalState":{"key":"09","name":"Bayern"}},{"name":"Mainburger Str.","postalCode":"85354","locality":"Freising","municipality":{"key":"09178124","name":"Freising, GKSt","type":"Große_Kreisstadt"},"district":{"key":"09178","name":"Freising","type":"Landkreis"},"federalState":{"key":"09","name":"Bayern"}},{"name":"Mainburger Str.","postalCode":"85356","locality":"Freising","municipality":{"key":"09178124","name":"Freising, GKSt","type":"Große_Kreisstadt"},"district":{"key":"09178","name":"Freising","type":"Landkreis"},"federalState":{"key":"09","name":"Bayern"}},{"name":"Maistr.","postalCode":"85354","locality":"Freising","municipality":{"key":"09178124","name":"Freising, GKSt","type":"Große_Kreisstadt"},"district":{"key":"09178","name":"Freising","type":"Landkreis"},"federalState":{"key":"09","name":"Bayern"}},{"name":"Major-Braun-Weg","postalCode":"85354","locality":"Freising","municipality":{"key":"09178124","name":"Freising, GKSt","type":"Große_Kreisstadt"},"district":{"key":"09178","name":"Freising","type":"Landkreis"},"federalState":{"key":"09","name":"Bayern"}},{"name":"Malvenstr.","postalCode":"85354","locality":"Freising","municipality":{"key":"09178124","name":"Freising, GKSt","type":"Große_Kreisstadt"},"district":{"key":"09178","name":"Freising","type":"Landkreis"},"federalState":{"key":"09","name":"Bayern"}},{"name":"Malvenweg","postalCode":"85375","locality":"Neufahrn bei Freising","municipality":{"key":"09178145","name":"Neufahrn b.Freising","type":"Kreisangehörige_Gemeinde"},"district":{"key":"09178","name":"Freising","type":"Landkreis"},"federalState":{"key":"09","name":"Bayern"}},{"name":"Mariabrunner Str.","postalCode":"85356","locality":"Freising","municipality":{"key":"09178124","name":"Freising, GKSt","type":"Große_Kreisstadt"},"district":{"key":"09178","name":"Freising","type":"Landkreis"},"federalState":{"key":"09","name":"Bayern"}},{"name":"Maria-Wörther-Str.","postalCode":"85354","locality":"Freising","municipality":{"key":"09178124","name":"Freising, GKSt","type":"Große_Kreisstadt"},"district":{"key":"09178","name":"Freising","type":"Landkreis"},"federalState":{"key":"09","name":"Bayern"}},{"name":"Marienplatz","postalCode":"85354","locality":"Freising","municipality":{"key":"09178124","name":"Freising, GKSt","type":"Große_Kreisstadt"},"district":{"key":"09178","name":"Freising","type":"Landkreis"},"federalState":{"key":"09","name":"Bayern"}},{"name":"Martin-Luther-Str.","postalCode":"85354","locality":"Freising","municipality":{"key":"09178124","name":"Freising, GKSt","type":"Große_Kreisstadt"},"district":{"key":"09178","name":"Freising","type":"Landkreis"},"federalState":{"key":"09","name":"Bayern"}},{"name":"Marzlinger Fußweg","postalCode":"85356","locality":"Freising","municipality":{"key":"09178124","name":"Freising, GKSt","type":"Große_Kreisstadt"},"district":{"key":"09178","name":"Freising","type":"Landkreis"},"federalState":{"key":"09","name":"Bayern"}},{"name":"Massenhausener Str.","postalCode":"85375","locality":"Neufahrn bei Freising","municipality":{"key":"09178145","name":"Neufahrn b.Freising","type":"Kreisangehörige_Gemeinde"},"district":{"key":"09178","name":"Freising","type":"Landkreis"},"federalState":{"key":"09","name":"Bayern"}},{"name":"Massenhauser Str.","postalCode":"85376","locality":"Neufahrn bei Freising","municipality":{"key":"09178145","name":"Neufahrn b.Freising","type":"Kreisangehörige_Gemeinde"},"district":{"key":"09178","name":"Freising","type":"Landkreis"},"federalState":{"key":"09","name":"Bayern"}},{"name":"Mauermayrstr.","postalCode":"85354","locality":"Freising","municipality":{"key":"09178124","name":"Freising, GKSt","type":"Große_Kreisstadt"},"district":{"key":"09178","name":"Freising","type":"Landkreis"},"federalState":{"key":"09","name":"Bayern"}},{"name":"Mauthstr.","postalCode":"85356","locality":"Freising","municipality":{"key":"09178124","name":"Freising, GKSt","type":"Große_Kreisstadt"},"district":{"key":"09178","name":"Freising","type":"Landkreis"},"federalState":{"key":"09","name":"Bayern"}},{"name":"Max-Anderl-Str.","postalCode":"85375","locality":"Neufahrn bei Freising","municipality":{"key":"09178145","name":"Neufahrn b.Freising","type":"Kreisangehörige_Gemeinde"},"district":{"key":"09178","name":"Freising","type":"Landkreis"},"federalState":{"key":"09","name":"Bayern"}},{"name":"Max-Eyth-Str.","postalCode":"85354","locality":"Freising","municipality":{"key":"09178124","name":"Freising, GKSt","type":"Große_Kreisstadt"},"district":{"key":"09178","name":"Freising","type":"Landkreis"},"federalState":{"key":"09","name":"Bayern"}},{"name":"Maximus-von-Imhof-Forum","postalCode":"85354","locality":"Freising","municipality":{"key":"09178124","name":"Freising, GKSt","type":"Große_Kreisstadt"},"district":{"key":"09178","name":"Freising","type":"Landkreis"},"federalState":{"key":"09","name":"Bayern"}},{"name":"Max-Lehner-Str.","postalCode":"85354","locality":"Freising","municipality":{"key":"09178124","name":"Freising, GKSt","type":"Große_Kreisstadt"},"district":{"key":"09178","name":"Freising","type":"Landkreis"},"federalState":{"key":"09","name":"Bayern"}},{"name":"Max-Morlock-Weg","postalCode":"85375","locality":"Neufahrn bei Freising","municipality":{"key":"09178145","name":"Neufahrn b.Freising","type":"Kreisangehörige_Gemeinde"},"district":{"key":"09178","name":"Freising","type":"Landkreis"},"federalState":{"key":"09","name":"Bayern"}},{"name":"Max-Planck-Str.","postalCode":"85375","locality":"Neufahrn bei Freising","municipality":{"key":"09178145","name":"Neufahrn b.Freising","type":"Kreisangehörige_Gemeinde"},"district":{"key":"09178","name":"Freising","type":"Landkreis"},"federalState":{"key":"09","name":"Bayern"}},{"name":"Max-Reger-Str.","postalCode":"85356","locality":"Freising","municipality":{"key":"09178124","name":"Freising, GKSt","type":"Große_Kreisstadt"},"district":{"key":"09178","name":"Freising","type":"Landkreis"},"federalState":{"key":"09","name":"Bayern"}},{"name":"Meichelbeckstr.","postalCode":"85356","locality":"Freising","municipality":{"key":"09178124","name":"Freising, GKSt","type":"Große_Kreisstadt"},"district":{"key":"09178","name":"Freising","type":"Landkreis"},"federalState":{"key":"09","name":"Bayern"}},{"name":"Meisenstr.","postalCode":"85356","locality":"Freising","municipality":{"key":"09178124","name":"Freising, GKSt","type":"Große_Kreisstadt"},"district":{"key":"09178","name":"Freising","type":"Landkreis"},"federalState":{"key":"09","name":"Bayern"}},{"name":"Meisenweg","postalCode":"85375","locality":"Neufahrn bei Freising","municipality":{"key":"09178145","name":"Neufahrn b.Freising","type":"Kreisangehörige_Gemeinde"},"district":{"key":"09178","name":"Freising","type":"Landkreis"},"federalState":{"key":"09","name":"Bayern"}},{"name":"Michaelsweg","postalCode":"85356","locality":"Freising","municipality":{"key":"09178124","name":"Freising, GKSt","type":"Große_Kreisstadt"},"district":{"key":"09178","name":"Freising","type":"Landkreis"},"federalState":{"key":"09","name":"Bayern"}},{"name":"Michael-Wening-Str.","postalCode":"85356","locality":"Freising","municipality":{"key":"09178124","name":"Freising, GKSt","type":"Große_Kreisstadt"},"district":{"key":"09178","name":"Freising","type":"Landkreis"},"federalState":{"key":"09","name":"Bayern"}},{"name":"Milanweg","postalCode":"85354","locality":"Freising","municipality":{"key":"09178124","name":"Freising, GKSt","type":"Große_Kreisstadt"},"district":{"key":"09178","name":"Freising","type":"Landkreis"},"federalState":{"key":"09","name":"Bayern"}},{"name":"Mittergasse","postalCode":"85376","locality":"Neufahrn bei Freising","municipality":{"key":"09178145","name":"Neufahrn b.Freising","type":"Kreisangehörige_Gemeinde"},"district":{"key":"09178","name":"Freising","type":"Landkreis"},"federalState":{"key":"09","name":"Bayern"}},{"name":"Mittlerer Graben","postalCode":"85354","locality":"Freising","municipality":{"key":"09178124","name":"Freising, GKSt","type":"Große_Kreisstadt"},"district":{"key":"09178","name":"Freising","type":"Landkreis"},"federalState":{"key":"09","name":"Bayern"}},{"name":"Möhlestr.","postalCode":"85354","locality":"Freising","municipality":{"key":"09178124","name":"Freising, GKSt","type":"Große_Kreisstadt"},"district":{"key":"09178","name":"Freising","type":"Landkreis"},"federalState":{"key":"09","name":"Bayern"}},{"name":"Mohnweg","postalCode":"85375","locality":"Neufahrn bei Freising","municipality":{"key":"09178145","name":"Neufahrn b.Freising","type":"Kreisangehörige_Gemeinde"},"district":{"key":"09178","name":"Freising","type":"Landkreis"},"federalState":{"key":"09","name":"Bayern"}},{"name":"Moltkestr.","postalCode":"85356","locality":"Freising","municipality":{"key":"09178124","name":"Freising, GKSt","type":"Große_Kreisstadt"},"district":{"key":"09178","name":"Freising","type":"Landkreis"},"federalState":{"key":"09","name":"Bayern"}},{"name":"Moosgasse","postalCode":"85354","locality":"Freising","municipality":{"key":"09178124","name":"Freising, GKSt","type":"Große_Kreisstadt"},"district":{"key":"09178","name":"Freising","type":"Landkreis"},"federalState":{"key":"09","name":"Bayern"}},{"name":"Moosmühle","postalCode":"85375","locality":"Neufahrn bei Freising","municipality":{"key":"09178145","name":"Neufahrn b.Freising","type":"Kreisangehörige_Gemeinde"},"district":{"key":"09178","name":"Freising","type":"Landkreis"},"federalState":{"key":"09","name":"Bayern"}},{"name":"Moosmühle","postalCode":"85376","locality":"Neufahrn bei Freising","municipality":{"key":"09178145","name":"Neufahrn b.Freising","type":"Kreisangehörige_Gemeinde"},"district":{"key":"09178","name":"Freising","type":"Landkreis"},"federalState":{"key":"09","name":"Bayern"}},{"name":"Moosmühlenweg","postalCode":"85375","locality":"Neufahrn bei Freising","municipality":{"key":"09178145","name":"Neufahrn b.Freising","type":"Kreisangehörige_Gemeinde"},"district":{"key":"09178","name":"Freising","type":"Landkreis"},"federalState":{"key":"09","name":"Bayern"}},{"name":"Moosstr.","postalCode":"85356","locality":"Freising","municipality":{"key":"09178124","name":"Freising, GKSt","type":"Große_Kreisstadt"},"district":{"key":"09178","name":"Freising","type":"Landkreis"},"federalState":{"key":"09","name":"Bayern"}},{"name":"Mooswiesenstr.","postalCode":"85354","locality":"Freising","municipality":{"key":"09178124","name":"Freising, GKSt","type":"Große_Kreisstadt"},"district":{"key":"09178","name":"Freising","type":"Landkreis"},"federalState":{"key":"09","name":"Bayern"}},{"name":"Moserweg","postalCode":"85356","locality":"Freising","municipality":{"key":"09178124","name":"Freising, GKSt","type":"Große_Kreisstadt"},"district":{"key":"09178","name":"Freising","type":"Landkreis"},"federalState":{"key":"09","name":"Bayern"}},{"name":"Mozartstr.","postalCode":"85354","locality":"Freising","municipality":{"key":"09178124","name":"Freising, GKSt","type":"Große_Kreisstadt"},"district":{"key":"09178","name":"Freising","type":"Landkreis"},"federalState":{"key":"09","name":"Bayern"}},{"name":"Mozartstr.","postalCode":"85375","locality":"Neufahrn bei Freising","municipality":{"key":"09178145","name":"Neufahrn b.Freising","type":"Kreisangehörige_Gemeinde"},"district":{"key":"09178","name":"Freising","type":"Landkreis"},"federalState":{"key":"09","name":"Bayern"}},{"name":"Mühlenweg","postalCode":"85354","locality":"Freising","municipality":{"key":"09178124","name":"Freising, GKSt","type":"Große_Kreisstadt"},"district":{"key":"09178","name":"Freising","type":"Landkreis"},"federalState":{"key":"09","name":"Bayern"}},{"name":"Mühlweg","postalCode":"85376","locality":"Neufahrn bei Freising","municipality":{"key":"09178145","name":"Neufahrn b.Freising","type":"Kreisangehörige_Gemeinde"},"district":{"key":"09178","name":"Freising","type":"Landkreis"},"federalState":{"key":"09","name":"Bayern"}},{"name":"Münchner Str.","postalCode":"85354","locality":"Freising","municipality":{"key":"09178124","name":"Freising, GKSt","type":"Große_Kreisstadt"},"district":{"key":"09178","name":"Freising","type":"Landkreis"},"federalState":{"key":"09","name":"Bayern"}},{"name":"Münchner Str.","postalCode":"85375","locality":"Neufahrn bei Freising","municipality":{"key":"09178145","name":"Neufahrn b.Freising","type":"Kreisangehörige_Gemeinde"},"district":{"key":"09178","name":"Freising","type":"Landkreis"},"federalState":{"key":"09","name":"Bayern"}},{"name":"Murstr.","postalCode":"85356","locality":"Freising","municipality":{"key":"09178124","name":"Freising, GKSt","type":"Große_Kreisstadt"},"district":{"key":"09178","name":"Freising","type":"Landkreis"},"federalState":{"key":"09","name":"Bayern"}},{"name":"Nelkenweg","postalCode":"85375","locality":"Neufahrn bei Freising","municipality":{"key":"09178145","name":"Neufahrn b.Freising","type":"Kreisangehörige_Gemeinde"},"district":{"key":"09178","name":"Freising","type":"Landkreis"},"federalState":{"key":"09","name":"Bayern"}},{"name":"Neufahrner Str.","postalCode":"85375","locality":"Neufahrn bei Freising","municipality":{"key":"09178145","name":"Neufahrn b.Freising","type":"Kreisangehörige_Gemeinde"},"district":{"key":"09178","name":"Freising","type":"Landkreis"},"federalState":{"key":"09","name":"Bayern"}},{"name":"Neufahrner Str.","postalCode":"85376","locality":"Neufahrn bei Freising","municipality":{"key":"09178145","name":"Neufahrn b.Freising","type":"Kreisangehörige_Gemeinde"},"district":{"key":"09178","name":"Freising","type":"Landkreis"},"federalState":{"key":"09","name":"Bayern"}},{"name":"Neulandstr.","postalCode":"85354","locality":"Freising","municipality":{"key":"09178124","name":"Freising, GKSt","type":"Große_Kreisstadt"},"district":{"key":"09178","name":"Freising","type":"Landkreis"},"federalState":{"key":"09","name":"Bayern"}},{"name":"Nord-Ost-Umgehung Freising (B 301)","postalCode":"85356","locality":"Freising","municipality":{"key":"09178124","name":"Freising, GKSt","type":"Große_Kreisstadt"},"district":{"key":"09178","name":"Freising","type":"Landkreis"},"federalState":{"key":"09","name":"Bayern"}},{"name":"Nussbaumweg","postalCode":"85354","locality":"Freising","municipality":{"key":"09178124","name":"Freising, GKSt","type":"Große_Kreisstadt"},"district":{"key":"09178","name":"Freising","type":"Landkreis"},"federalState":{"key":"09","name":"Bayern"}},{"name":"Obere Domberggasse","postalCode":"85354","locality":"Freising","municipality":{"key":"09178124","name":"Freising, GKSt","type":"Große_Kreisstadt"},"district":{"key":"09178","name":"Freising","type":"Landkreis"},"federalState":{"key":"09","name":"Bayern"}},{"name":"Obere Hauptstr.","postalCode":"85354","locality":"Freising","municipality":{"key":"09178124","name":"Freising, GKSt","type":"Große_Kreisstadt"},"district":{"key":"09178","name":"Freising","type":"Landkreis"},"federalState":{"key":"09","name":"Bayern"}},{"name":"Obere Pfalzgrafstr.","postalCode":"85356","locality":"Freising","municipality":{"key":"09178124","name":"Freising, GKSt","type":"Große_Kreisstadt"},"district":{"key":"09178","name":"Freising","type":"Landkreis"},"federalState":{"key":"09","name":"Bayern"}},{"name":"Oberer Graben","postalCode":"85354","locality":"Freising","municipality":{"key":"09178124","name":"Freising, GKSt","type":"Große_Kreisstadt"},"district":{"key":"09178","name":"Freising","type":"Landkreis"},"federalState":{"key":"09","name":"Bayern"}},{"name":"Oberer Krautgarten","postalCode":"85354","locality":"Freising","municipality":{"key":"09178124","name":"Freising, GKSt","type":"Große_Kreisstadt"},"district":{"key":"09178","name":"Freising","type":"Landkreis"},"federalState":{"key":"09","name":"Bayern"}},{"name":"Oberer Schlangenweg","postalCode":"85354","locality":"Freising","municipality":{"key":"09178124","name":"Freising, GKSt","type":"Große_Kreisstadt"},"district":{"key":"09178","name":"Freising","type":"Landkreis"},"federalState":{"key":"09","name":"Bayern"}},{"name":"Obervellacher Str.","postalCode":"85354","locality":"Freising","municipality":{"key":"09178124","name":"Freising, GKSt","type":"Große_Kreisstadt"},"district":{"key":"09178","name":"Freising","type":"Landkreis"},"federalState":{"key":"09","name":"Bayern"}},{"name":"Ohmweg","postalCode":"85375","locality":"Neufahrn bei Freising","municipality":{"key":"09178145","name":"Neufahrn b.Freising","type":"Kreisangehörige_Gemeinde"},"district":{"key":"09178","name":"Freising","type":"Landkreis"},"federalState":{"key":"09","name":"Bayern"}},{"name":"Ortsstr.","postalCode":"85354","locality":"Freising","municipality":{"key":"09178124","name":"Freising, GKSt","type":"Große_Kreisstadt"},"district":{"key":"09178","name":"Freising","type":"Landkreis"},"federalState":{"key":"09","name":"Bayern"}},{"name":"Oskar-von-Miller-Str.","postalCode":"85375","locality":"Neufahrn bei Freising","municipality":{"key":"09178145","name":"Neufahrn b.Freising","type":"Kreisangehörige_Gemeinde"},"district":{"key":"09178","name":"Freising","type":"Landkreis"},"federalState":{"key":"09","name":"Bayern"}},{"name":"Otto-Hahn-Str.","postalCode":"85375","locality":"Neufahrn bei Freising","municipality":{"key":"09178145","name":"Neufahrn b.Freising","type":"Kreisangehörige_Gemeinde"},"district":{"key":"09178","name":"Freising","type":"Landkreis"},"federalState":{"key":"09","name":"Bayern"}},{"name":"Ottostr.","postalCode":"85354","locality":"Freising","municipality":{"key":"09178124","name":"Freising, GKSt","type":"Große_Kreisstadt"},"district":{"key":"09178","name":"Freising","type":"Landkreis"},"federalState":{"key":"09","name":"Bayern"}},{"name":"Pallottinerstr.","postalCode":"85354","locality":"Freising","municipality":{"key":"09178124","name":"Freising, GKSt","type":"Große_Kreisstadt"},"district":{"key":"09178","name":"Freising","type":"Landkreis"},"federalState":{"key":"09","name":"Bayern"}},{"name":"Parkstr.","postalCode":"85356","locality":"Freising","municipality":{"key":"09178124","name":"Freising, GKSt","type":"Große_Kreisstadt"},"district":{"key":"09178","name":"Freising","type":"Landkreis"},"federalState":{"key":"09","name":"Bayern"}},{"name":"Pellhausen","postalCode":"85354","locality":"Freising","municipality":{"key":"09178124","name":"Freising, GKSt","type":"Große_Kreisstadt"},"district":{"key":"09178","name":"Freising","type":"Landkreis"},"federalState":{"key":"09","name":"Bayern"}},{"name":"Pettenbrunn","postalCode":"85354","locality":"Freising","municipality":{"key":"09178124","name":"Freising, GKSt","type":"Große_Kreisstadt"},"district":{"key":"09178","name":"Freising","type":"Landkreis"},"federalState":{"key":"09","name":"Bayern"}},{"name":"Petuelstr.","postalCode":"85356","locality":"Freising","municipality":{"key":"09178124","name":"Freising, GKSt","type":"Große_Kreisstadt"},"district":{"key":"09178","name":"Freising","type":"Landkreis"},"federalState":{"key":"09","name":"Bayern"}},{"name":"Pfalzgrafstr.","postalCode":"85356","locality":"Freising","municipality":{"key":"09178124","name":"Freising, GKSt","type":"Große_Kreisstadt"},"district":{"key":"09178","name":"Freising","type":"Landkreis"},"federalState":{"key":"09","name":"Bayern"}},{"name":"Pfarrer-Franz-Weg","postalCode":"85356","locality":"Freising","municipality":{"key":"09178124","name":"Freising, GKSt","type":"Große_Kreisstadt"},"district":{"key":"09178","name":"Freising","type":"Landkreis"},"federalState":{"key":"09","name":"Bayern"}},{"name":"Pfarrweg","postalCode":"85354","locality":"Freising","municipality":{"key":"09178124","name":"Freising, GKSt","type":"Große_Kreisstadt"},"district":{"key":"09178","name":"Freising","type":"Landkreis"},"federalState":{"key":"09","name":"Bayern"}},{"name":"Pfarrweg","postalCode":"85375","locality":"Neufahrn bei Freising","municipality":{"key":"09178145","name":"Neufahrn b.Freising","type":"Kreisangehörige_Gemeinde"},"district":{"key":"09178","name":"Freising","type":"Landkreis"},"federalState":{"key":"09","name":"Bayern"}},{"name":"Pförrerauweg","postalCode":"85356","locality":"Freising","municipality":{"key":"09178124","name":"Freising, GKSt","type":"Große_Kreisstadt"},"district":{"key":"09178","name":"Freising","type":"Landkreis"},"federalState":{"key":"09","name":"Bayern"}},{"name":"Philipp-Dirr-Str.","postalCode":"85354","locality":"Freising","municipality":{"key":"09178124","name":"Freising, GKSt","type":"Große_Kreisstadt"},"district":{"key":"09178","name":"Freising","type":"Landkreis"},"federalState":{"key":"09","name":"Bayern"}},{"name":"Pimsfeld","postalCode":"85354","locality":"Freising","municipality":{"key":"09178124","name":"Freising, GKSt","type":"Große_Kreisstadt"},"district":{"key":"09178","name":"Freising","type":"Landkreis"},"federalState":{"key":"09","name":"Bayern"}},{"name":"Pirolweg","postalCode":"85356","locality":"Freising","municipality":{"key":"09178124","name":"Freising, GKSt","type":"Große_Kreisstadt"},"district":{"key":"09178","name":"Freising","type":"Landkreis"},"federalState":{"key":"09","name":"Bayern"}},{"name":"Plantagenweg","postalCode":"85354","locality":"Freising","municipality":{"key":"09178124","name":"Freising, GKSt","type":"Große_Kreisstadt"},"district":{"key":"09178","name":"Freising","type":"Landkreis"},"federalState":{"key":"09","name":"Bayern"}},{"name":"Platschkyberg","postalCode":"85356","locality":"Freising","municipality":{"key":"09178124","name":"Freising, GKSt","type":"Große_Kreisstadt"},"district":{"key":"09178","name":"Freising","type":"Landkreis"},"federalState":{"key":"09","name":"Bayern"}},{"name":"Platschkyweg","postalCode":"85356","locality":"Freising","municipality":{"key":"09178124","name":"Freising, GKSt","type":"Große_Kreisstadt"},"district":{"key":"09178","name":"Freising","type":"Landkreis"},"federalState":{"key":"09","name":"Bayern"}},{"name":"Poccistr.","postalCode":"85375","locality":"Neufahrn bei Freising","municipality":{"key":"09178145","name":"Neufahrn b.Freising","type":"Kreisangehörige_Gemeinde"},"district":{"key":"09178","name":"Freising","type":"Landkreis"},"federalState":{"key":"09","name":"Bayern"}},{"name":"Prälat-Michael-Höck-Str.","postalCode":"85354","locality":"Freising","municipality":{"key":"09178124","name":"Freising, GKSt","type":"Große_Kreisstadt"},"district":{"key":"09178","name":"Freising","type":"Landkreis"},"federalState":{"key":"09","name":"Bayern"}},{"name":"Prandtlstr.","postalCode":"85354","locality":"Freising","municipality":{"key":"09178124","name":"Freising, GKSt","type":"Große_Kreisstadt"},"district":{"key":"09178","name":"Freising","type":"Landkreis"},"federalState":{"key":"09","name":"Bayern"}},{"name":"Prechtlstr.","postalCode":"85354","locality":"Freising","municipality":{"key":"09178124","name":"Freising, GKSt","type":"Große_Kreisstadt"},"district":{"key":"09178","name":"Freising","type":"Landkreis"},"federalState":{"key":"09","name":"Bayern"}},{"name":"Prinz-Ludwig-Str.","postalCode":"85354","locality":"Freising","municipality":{"key":"09178124","name":"Freising, GKSt","type":"Große_Kreisstadt"},"district":{"key":"09178","name":"Freising","type":"Landkreis"},"federalState":{"key":"09","name":"Bayern"}},{"name":"Pullinger Hauptstr.","postalCode":"85354","locality":"Freising","municipality":{"key":"09178124","name":"Freising, GKSt","type":"Große_Kreisstadt"},"district":{"key":"09178","name":"Freising","type":"Landkreis"},"federalState":{"key":"09","name":"Bayern"}},{"name":"Ringstr.","postalCode":"85395","locality":"Wolfersdorf","municipality":{"key":"09178156","name":"Wolfersdorf","type":"Kreisangehörige_Gemeinde"},"district":{"key":"09178","name":"Freising","type":"Landkreis"},"federalState":{"key":"09","name":"Bayern"}},{"name":"Rosenstr.","postalCode":"85395","locality":"Wolfersdorf","municipality":{"key":"09178156","name":"Wolfersdorf","type":"Kreisangehörige_Gemeinde"},"district":{"key":"09178","name":"Freising","type":"Landkreis"},"federalState":{"key":"09","name":"Bayern"}},{"name":"Rothehofstal","postalCode":"07646","locality":"Trockenborn-Wolfersdorf","municipality":{"key":"16074102","name":"Trockenborn-Wolfersdorf","type":"Kreisangehörige_Gemeinde"},"district":{"key":"16074","name":"Saale-Holzland-Kreis","type":"Landkreis"},"federalState":{"key":"16","name":"Thüringen"}},{"name":"Ruhpalzing","postalCode":"85395","locality":"Wolfersdorf","municipality":{"key":"09178156","name":"Wolfersdorf","type":"Kreisangehörige_Gemeinde"},"district":{"key":"09178","name":"Freising","type":"Landkreis"},"federalState":{"key":"09","name":"Bayern"}},{"name":"Str. der DSF","postalCode":"07646","locality":"Trockenborn-Wolfersdorf","municipality":{"key":"16074102","name":"Trockenborn-Wolfersdorf","type":"Kreisangehörige_Gemeinde"},"district":{"key":"16074","name":"Saale-Holzland-Kreis","type":"Landkreis"},"federalState":{"key":"16","name":"Thüringen"}},{"name":"Trockenborn","postalCode":"07646","locality":"Trockenborn-Wolfersdorf","municipality":{"key":"16074102","name":"Trockenborn-Wolfersdorf","type":"Kreisangehörige_Gemeinde"},"district":{"key":"16074","name":"Saale-Holzland-Kreis","type":"Landkreis"},"federalState":{"key":"16","name":"Thüringen"}},{"name":"Tulpenstr.","postalCode":"85395","locality":"Wolfersdorf","municipality":{"key":"09178156","name":"Wolfersdorf","type":"Kreisangehörige_Gemeinde"},"district":{"key":"09178","name":"Freising","type":"Landkreis"},"federalState":{"key":"09","name":"Bayern"}},{"name":"Ulmenweg","postalCode":"85354","locality":"Freising","municipality":{"key":"09178124","name":"Freising, GKSt","type":"Große_Kreisstadt"},"district":{"key":"09178","name":"Freising","type":"Landkreis"},"federalState":{"key":"09","name":"Bayern"}},{"name":"Ulmenweg","postalCode":"85375","locality":"Neufahrn bei Freising","municipality":{"key":"09178145","name":"Neufahrn b.Freising","type":"Kreisangehörige_Gemeinde"},"district":{"key":"09178","name":"Freising","type":"Landkreis"},"federalState":{"key":"09","name":"Bayern"}},{"name":"Unter den Eichen","postalCode":"85354","locality":"Freising","municipality":{"key":"09178124","name":"Freising, GKSt","type":"Große_Kreisstadt"},"district":{"key":"09178","name":"Freising","type":"Landkreis"},"federalState":{"key":"09","name":"Bayern"}},{"name":"Untere Domberggasse","postalCode":"85354","locality":"Freising","municipality":{"key":"09178124","name":"Freising, GKSt","type":"Große_Kreisstadt"},"district":{"key":"09178","name":"Freising","type":"Landkreis"},"federalState":{"key":"09","name":"Bayern"}},{"name":"Untere Hauptstr.","postalCode":"85354","locality":"Freising","municipality":{"key":"09178124","name":"Freising, GKSt","type":"Große_Kreisstadt"},"district":{"key":"09178","name":"Freising","type":"Landkreis"},"federalState":{"key":"09","name":"Bayern"}},{"name":"Untere Hauptstr.","postalCode":"85376","locality":"Neufahrn bei Freising","municipality":{"key":"09178145","name":"Neufahrn b.Freising","type":"Kreisangehörige_Gemeinde"},"district":{"key":"09178","name":"Freising","type":"Landkreis"},"federalState":{"key":"09","name":"Bayern"}},{"name":"Untere Isarau","postalCode":"85356","locality":"Freising","municipality":{"key":"09178124","name":"Freising, GKSt","type":"Große_Kreisstadt"},"district":{"key":"09178","name":"Freising","type":"Landkreis"},"federalState":{"key":"09","name":"Bayern"}},{"name":"Unterer Graben","postalCode":"85354","locality":"Freising","municipality":{"key":"09178124","name":"Freising, GKSt","type":"Große_Kreisstadt"},"district":{"key":"09178","name":"Freising","type":"Landkreis"},"federalState":{"key":"09","name":"Bayern"}},{"name":"Untere Schwabenau","postalCode":"85356","locality":"Freising","municipality":{"key":"09178124","name":"Freising, GKSt","type":"Große_Kreisstadt"},"district":{"key":"09178","name":"Freising","type":"Landkreis"},"federalState":{"key":"09","name":"Bayern"}},{"name":"Veit-Adam-Str.","postalCode":"85354","locality":"Freising","municipality":{"key":"09178124","name":"Freising, GKSt","type":"Große_Kreisstadt"},"district":{"key":"09178","name":"Freising","type":"Landkreis"},"federalState":{"key":"09","name":"Bayern"}},{"name":"Veitsmüllerweg","postalCode":"85354","locality":"Freising","municipality":{"key":"09178124","name":"Freising, GKSt","type":"Große_Kreisstadt"},"district":{"key":"09178","name":"Freising","type":"Landkreis"},"federalState":{"key":"09","name":"Bayern"}},{"name":"Villanystr.","postalCode":"85356","locality":"Freising","municipality":{"key":"09178124","name":"Freising, GKSt","type":"Große_Kreisstadt"},"district":{"key":"09178","name":"Freising","type":"Landkreis"},"federalState":{"key":"09","name":"Bayern"}},{"name":"Vimystr.","postalCode":"85354","locality":"Freising","municipality":{"key":"09178124","name":"Freising, GKSt","type":"Große_Kreisstadt"},"district":{"key":"09178","name":"Freising","type":"Landkreis"},"federalState":{"key":"09","name":"Bayern"}},{"name":"Viscardistr.","postalCode":"85356","locality":"Freising","municipality":{"key":"09178124","name":"Freising, GKSt","type":"Große_Kreisstadt"},"district":{"key":"09178","name":"Freising","type":"Landkreis"},"federalState":{"key":"09","name":"Bayern"}},{"name":"Vogelweide","postalCode":"85375","locality":"Neufahrn bei Freising","municipality":{"key":"09178145","name":"Neufahrn b.Freising","type":"Kreisangehörige_Gemeinde"},"district":{"key":"09178","name":"Freising","type":"Landkreis"},"federalState":{"key":"09","name":"Bayern"}},{"name":"Von-Halt-Str.","postalCode":"85375","locality":"Neufahrn bei Freising","municipality":{"key":"09178145","name":"Neufahrn b.Freising","type":"Kreisangehörige_Gemeinde"},"district":{"key":"09178","name":"Freising","type":"Landkreis"},"federalState":{"key":"09","name":"Bayern"}},{"name":"Von-Reuental-Str.","postalCode":"85376","locality":"Neufahrn bei Freising","municipality":{"key":"09178145","name":"Neufahrn b.Freising","type":"Kreisangehörige_Gemeinde"},"district":{"key":"09178","name":"Freising","type":"Landkreis"},"federalState":{"key":"09","name":"Bayern"}},{"name":"Vöttinger Str.","postalCode":"85354","locality":"Freising","municipality":{"key":"09178124","name":"Freising, GKSt","type":"Große_Kreisstadt"},"district":{"key":"09178","name":"Freising","type":"Landkreis"},"federalState":{"key":"09","name":"Bayern"}},{"name":"Waldsiedlung","postalCode":"07646","locality":"Trockenborn-Wolfersdorf","municipality":{"key":"16074102","name":"Trockenborn-Wolfersdorf","type":"Kreisangehörige_Gemeinde"},"district":{"key":"16074","name":"Saale-Holzland-Kreis","type":"Landkreis"},"federalState":{"key":"16","name":"Thüringen"}},{"name":"Waldweg","postalCode":"85395","locality":"Wolfersdorf","municipality":{"key":"09178156","name":"Wolfersdorf","type":"Kreisangehörige_Gemeinde"},"district":{"key":"09178","name":"Freising","type":"Landkreis"},"federalState":{"key":"09","name":"Bayern"}},{"name":"Wolfersdorf","postalCode":"07646","locality":"Trockenborn-Wolfersdorf","municipality":{"key":"16074102","name":"Trockenborn-Wolfersdorf","type":"Kreisangehörige_Gemeinde"},"district":{"key":"16074","name":"Saale-Holzland-Kreis","type":"Landkreis"},"federalState":{"key":"16","name":"Thüringen"}},{"name":"Wölfinger Str.","postalCode":"85395","locality":"Wolfersdorf","municipality":{"key":"09178156","name":"Wolfersdorf","type":"Kreisangehörige_Gemeinde"},"district":{"key":"09178","name":"Freising","type":"Landkreis"},"federalState":{"key":"09","name":"Bayern"}},{"name":"Wolframstr.","postalCode":"85395","locality":"Wolfersdorf","municipality":{"key":"09178156","name":"Wolfersdorf","type":"Kreisangehörige_Gemeinde"},"district":{"key":"09178","name":"Freising","type":"Landkreis"},"federalState":{"key":"09","name":"Bayern"}},{"name":"Zeisigweg","postalCode":"85356","locality":"Freising","municipality":{"key":"09178124","name":"Freising, GKSt","type":"Große_Kreisstadt"},"district":{"key":"09178","name":"Freising","type":"Landkreis"},"federalState":{"key":"09","name":"Bayern"}},{"name":"Ziegelgasse","postalCode":"85354","locality":"Freising","municipality":{"key":"09178124","name":"Freising, GKSt","type":"Große_Kreisstadt"},"district":{"key":"09178","name":"Freising","type":"Landkreis"},"federalState":{"key":"09","name":"Bayern"}},{"name":"Zimmermannstr.","postalCode":"85356","locality":"Freising","municipality":{"key":"09178124","name":"Freising, GKSt","type":"Große_Kreisstadt"},"district":{"key":"09178","name":"Freising","type":"Landkreis"},"federalState":{"key":"09","name":"Bayern"}},{"name":"Zollinger Str.","postalCode":"85356","locality":"Freising","municipality":{"key":"09178124","name":"Freising, GKSt","type":"Große_Kreisstadt"},"district":{"key":"09178","name":"Freising","type":"Landkreis"},"federalState":{"key":"09","name":"Bayern"}},{"name":"Zugspitzstr.","postalCode":"85354","locality":"Freising","municipality":{"key":"09178124","name":"Freising, GKSt","type":"Große_Kreisstadt"},"district":{"key":"09178","name":"Freising","type":"Landkreis"},"federalState":{"key":"09","name":"Bayern"}},{"name":"Zugspitzweg","postalCode":"85375","locality":"Neufahrn bei Freising","municipality":{"key":"09178145","name":"Neufahrn b.Freising","type":"Kreisangehörige_Gemeinde"},"district":{"key":"09178","name":"Freising","type":"Landkreis"},"federalState":{"key":"09","name":"Bayern"}},{"name":"Zum Gassl","postalCode":"85375","locality":"Neufahrn bei Freising","municipality":{"key":"09178145","name":"Neufahrn b.Freising","type":"Kreisangehörige_Gemeinde"},"district":{"key":"09178","name":"Freising","type":"Landkreis"},"federalState":{"key":"09","name":"Bayern"}},{"name":"Zur Isar","postalCode":"85354","locality":"Freising","municipality":{"key":"09178124","name":"Freising, GKSt","type":"Große_Kreisstadt"},"district":{"key":"09178","name":"Freising","type":"Landkreis"},"federalState":{"key":"09","name":"Bayern"}},{"name":"Zur Mühle","postalCode":"85356","locality":"Freising","municipality":{"key":"09178124","name":"Freising, GKSt","type":"Große_Kreisstadt"},"district":{"key":"09178","name":"Freising","type":"Landkreis"},"federalState":{"key":"09","name":"Bayern"}},{"name":"Zurnhausen","postalCode":"85356","locality":"Freising","municipality":{"key":"09178124","name":"Freising, GKSt","type":"Große_Kreisstadt"},"district":{"key":"09178","name":"Freising","type":"Landkreis"},"federalState":{"key":"09","name":"Bayern"}},{"name":"Zur Schwabenau","postalCode":"85356","locality":"Freising","municipality":{"key":"09178124","name":"Freising, GKSt","type":"Große_Kreisstadt"},"district":{"key":"09178","name":"Freising","type":"Landkreis"},"federalState":{"key":"09","name":"Bayern"}},{"name":"Zweigstr.","postalCode":"85354","locality":"Freising","municipality":{"key":"09178124","name":"Freising, GKSt","type":"Große_Kreisstadt"},"district":{"key":"09178","name":"Freising","type":"Landkreis"},"federalState":{"key":"09","name":"Bayern"}},{"name":"Ährenweg","postalCode":"85375","locality":"Neufahrn bei Freising","municipality":{"key":"09178145","name":"Neufahrn b.Freising","type":"Kreisangehörige_Gemeinde"},"district":{"key":"09178","name":"Freising","type":"Landkreis"},"federalState":{"key":"09","name":"Bayern"}},{"name":"Äußere Fürholzer Str.","postalCode":"85375","locality":"Neufahrn bei Freising","municipality":{"key":"09178145","name":"Neufahrn b.Freising","type":"Kreisangehörige_Gemeinde"},"district":{"key":"09178","name":"Freising","type":"Landkreis"},"federalState":{"key":"09","name":"Bayern"}},]