[{"name":"Am Sportplatz","postalCode":"18556","locality":"Putgarten","municipality":{"key":"13073071","name":"Putgarten","type":"Kreisangehörige_Gemeinde"},"district":{"key":"13073","name":"Vorpommern-Rügen","type":"Landkreis"},"federalState":{"key":"13","name":"Mecklenburg-Vorpommern"}},{"name":"Arkona","postalCode":"18556","locality":"Putgarten","municipality":{"key":"13073071","name":"Putgarten","type":"Kreisangehörige_Gemeinde"},"district":{"key":"13073","name":"Vorpommern-Rügen","type":"Landkreis"},"federalState":{"key":"13","name":"Mecklenburg-Vorpommern"}},{"name":"Arkonablick","postalCode":"18556","locality":"Putgarten","municipality":{"key":"13073071","name":"Putgarten","type":"Kreisangehörige_Gemeinde"},"district":{"key":"13073","name":"Vorpommern-Rügen","type":"Landkreis"},"federalState":{"key":"13","name":"Mecklenburg-Vorpommern"}},{"name":"Dorfstr.","postalCode":"18556","locality":"Putgarten","municipality":{"key":"13073071","name":"Putgarten","type":"Kreisangehörige_Gemeinde"},"district":{"key":"13073","name":"Vorpommern-Rügen","type":"Landkreis"},"federalState":{"key":"13","name":"Mecklenburg-Vorpommern"}},{"name":"Goor","postalCode":"18556","locality":"Putgarten","municipality":{"key":"13073071","name":"Putgarten","type":"Kreisangehörige_Gemeinde"},"district":{"key":"13073","name":"Vorpommern-Rügen","type":"Landkreis"},"federalState":{"key":"13","name":"Mecklenburg-Vorpommern"}},{"name":"Nobbin","postalCode":"18556","locality":"Putgarten","municipality":{"key":"13073071","name":"Putgarten","type":"Kreisangehörige_Gemeinde"},"district":{"key":"13073","name":"Vorpommern-Rügen","type":"Landkreis"},"federalState":{"key":"13","name":"Mecklenburg-Vorpommern"}},{"name":"Schulweg","postalCode":"18556","locality":"Putgarten","municipality":{"key":"13073071","name":"Putgarten","type":"Kreisangehörige_Gemeinde"},"district":{"key":"13073","name":"Vorpommern-Rügen","type":"Landkreis"},"federalState":{"key":"13","name":"Mecklenburg-Vorpommern"}},{"name":"Teichstr.","postalCode":"18556","locality":"Putgarten","municipality":{"key":"13073071","name":"Putgarten","type":"Kreisangehörige_Gemeinde"},"district":{"key":"13073","name":"Vorpommern-Rügen","type":"Landkreis"},"federalState":{"key":"13","name":"Mecklenburg-Vorpommern"}},{"name":"Varnkevitz","postalCode":"18556","locality":"Putgarten","municipality":{"key":"13073071","name":"Putgarten","type":"Kreisangehörige_Gemeinde"},"district":{"key":"13073","name":"Vorpommern-Rügen","type":"Landkreis"},"federalState":{"key":"13","name":"Mecklenburg-Vorpommern"}},{"name":"Varnkevitzer Weg","postalCode":"18556","locality":"Putgarten","municipality":{"key":"13073071","name":"Putgarten","type":"Kreisangehörige_Gemeinde"},"district":{"key":"13073","name":"Vorpommern-Rügen","type":"Landkreis"},"federalState":{"key":"13","name":"Mecklenburg-Vorpommern"}},{"name":"Vitt","postalCode":"18556","locality":"Putgarten","municipality":{"key":"13073071","name":"Putgarten","type":"Kreisangehörige_Gemeinde"},"district":{"key":"13073","name":"Vorpommern-Rügen","type":"Landkreis"},"federalState":{"key":"13","name":"Mecklenburg-Vorpommern"}},{"name":"Vitter Weg","postalCode":"18556","locality":"Putgarten","municipality":{"key":"13073071","name":"Putgarten","type":"Kreisangehörige_Gemeinde"},"district":{"key":"13073","name":"Vorpommern-Rügen","type":"Landkreis"},"federalState":{"key":"13","name":"Mecklenburg-Vorpommern"}},{"name":"Wollin","postalCode":"18556","locality":"Putgarten","municipality":{"key":"13073071","name":"Putgarten","type":"Kreisangehörige_Gemeinde"},"district":{"key":"13073","name":"Vorpommern-Rügen","type":"Landkreis"},"federalState":{"key":"13","name":"Mecklenburg-Vorpommern"}},{"name":"Zühlitz","postalCode":"18556","locality":"Putgarten","municipality":{"key":"13073071","name":"Putgarten","type":"Kreisangehörige_Gemeinde"},"district":{"key":"13073","name":"Vorpommern-Rügen","type":"Landkreis"},"federalState":{"key":"13","name":"Mecklenburg-Vorpommern"}},{"name":"Zum Nordstrand","postalCode":"18556","locality":"Putgarten","municipality":{"key":"13073071","name":"Putgarten","type":"Kreisangehörige_Gemeinde"},"district":{"key":"13073","name":"Vorpommern-Rügen","type":"Landkreis"},"federalState":{"key":"13","name":"Mecklenburg-Vorpommern"}},]