[{"name":"Akazienallee","postalCode":"02991","locality":"Lauta","municipality":{"key":"14625310","name":"Lauta, Stadt","type":"Stadt"},"district":{"key":"14625","name":"Bautzen","type":"Landkreis"},"federalState":{"key":"14","name":"Sachsen"}},{"name":"Am Anger","postalCode":"02991","locality":"Lauta","municipality":{"key":"14625310","name":"Lauta, Stadt","type":"Stadt"},"district":{"key":"14625","name":"Bautzen","type":"Landkreis"},"federalState":{"key":"14","name":"Sachsen"}},{"name":"Am Markt","postalCode":"02991","locality":"Lauta","municipality":{"key":"14625310","name":"Lauta, Stadt","type":"Stadt"},"district":{"key":"14625","name":"Bautzen","type":"Landkreis"},"federalState":{"key":"14","name":"Sachsen"}},{"name":"Am Ring","postalCode":"02991","locality":"Lauta","municipality":{"key":"14625310","name":"Lauta, Stadt","type":"Stadt"},"district":{"key":"14625","name":"Bautzen","type":"Landkreis"},"federalState":{"key":"14","name":"Sachsen"}},{"name":"Am Steg","postalCode":"02991","locality":"Lauta","municipality":{"key":"14625310","name":"Lauta, Stadt","type":"Stadt"},"district":{"key":"14625","name":"Bautzen","type":"Landkreis"},"federalState":{"key":"14","name":"Sachsen"}},{"name":"Arndtstr.","postalCode":"02991","locality":"Lauta","municipality":{"key":"14625310","name":"Lauta, Stadt","type":"Stadt"},"district":{"key":"14625","name":"Bautzen","type":"Landkreis"},"federalState":{"key":"14","name":"Sachsen"}},{"name":"August-Bebel-Str.","postalCode":"02991","locality":"Lauta","municipality":{"key":"14625310","name":"Lauta, Stadt","type":"Stadt"},"district":{"key":"14625","name":"Bautzen","type":"Landkreis"},"federalState":{"key":"14","name":"Sachsen"}},{"name":"Badenplatz","postalCode":"02991","locality":"Lauta","municipality":{"key":"14625310","name":"Lauta, Stadt","type":"Stadt"},"district":{"key":"14625","name":"Bautzen","type":"Landkreis"},"federalState":{"key":"14","name":"Sachsen"}},{"name":"Bahnhofstr.","postalCode":"02991","locality":"Lauta","municipality":{"key":"14625310","name":"Lauta, Stadt","type":"Stadt"},"district":{"key":"14625","name":"Bautzen","type":"Landkreis"},"federalState":{"key":"14","name":"Sachsen"}},{"name":"Bayernstr.","postalCode":"02991","locality":"Lauta","municipality":{"key":"14625310","name":"Lauta, Stadt","type":"Stadt"},"district":{"key":"14625","name":"Bautzen","type":"Landkreis"},"federalState":{"key":"14","name":"Sachsen"}},{"name":"Bebelstr.","postalCode":"02991","locality":"Lauta","municipality":{"key":"14625310","name":"Lauta, Stadt","type":"Stadt"},"district":{"key":"14625","name":"Bautzen","type":"Landkreis"},"federalState":{"key":"14","name":"Sachsen"}},{"name":"Beethovenstr.","postalCode":"02991","locality":"Lauta","municipality":{"key":"14625310","name":"Lauta, Stadt","type":"Stadt"},"district":{"key":"14625","name":"Bautzen","type":"Landkreis"},"federalState":{"key":"14","name":"Sachsen"}},{"name":"Bergmannstr.","postalCode":"02991","locality":"Lauta","municipality":{"key":"14625310","name":"Lauta, Stadt","type":"Stadt"},"district":{"key":"14625","name":"Bautzen","type":"Landkreis"},"federalState":{"key":"14","name":"Sachsen"}},{"name":"Berliner Str.","postalCode":"02991","locality":"Lauta","municipality":{"key":"14625310","name":"Lauta, Stadt","type":"Stadt"},"district":{"key":"14625","name":"Bautzen","type":"Landkreis"},"federalState":{"key":"14","name":"Sachsen"}},{"name":"Birkenweg","postalCode":"02991","locality":"Lauta","municipality":{"key":"14625310","name":"Lauta, Stadt","type":"Stadt"},"district":{"key":"14625","name":"Bautzen","type":"Landkreis"},"federalState":{"key":"14","name":"Sachsen"}},{"name":"Brandenburgallee","postalCode":"02991","locality":"Lauta","municipality":{"key":"14625310","name":"Lauta, Stadt","type":"Stadt"},"district":{"key":"14625","name":"Bautzen","type":"Landkreis"},"federalState":{"key":"14","name":"Sachsen"}},{"name":"Brandenburgplatz","postalCode":"02991","locality":"Lauta","municipality":{"key":"14625310","name":"Lauta, Stadt","type":"Stadt"},"district":{"key":"14625","name":"Bautzen","type":"Landkreis"},"federalState":{"key":"14","name":"Sachsen"}},{"name":"Breitscheidstr.","postalCode":"02991","locality":"Lauta","municipality":{"key":"14625310","name":"Lauta, Stadt","type":"Stadt"},"district":{"key":"14625","name":"Bautzen","type":"Landkreis"},"federalState":{"key":"14","name":"Sachsen"}},{"name":"Conrad-Blenkle-Str.","postalCode":"02991","locality":"Lauta","municipality":{"key":"14625310","name":"Lauta, Stadt","type":"Stadt"},"district":{"key":"14625","name":"Bautzen","type":"Landkreis"},"federalState":{"key":"14","name":"Sachsen"}},{"name":"Constantinplatz","postalCode":"02991","locality":"Lauta","municipality":{"key":"14625310","name":"Lauta, Stadt","type":"Stadt"},"district":{"key":"14625","name":"Bautzen","type":"Landkreis"},"federalState":{"key":"14","name":"Sachsen"}},{"name":"Dammweg","postalCode":"02991","locality":"Lauta","municipality":{"key":"14625310","name":"Lauta, Stadt","type":"Stadt"},"district":{"key":"14625","name":"Bautzen","type":"Landkreis"},"federalState":{"key":"14","name":"Sachsen"}},{"name":"Dorfstr.","postalCode":"02991","locality":"Lauta","municipality":{"key":"14625310","name":"Lauta, Stadt","type":"Stadt"},"district":{"key":"14625","name":"Bautzen","type":"Landkreis"},"federalState":{"key":"14","name":"Sachsen"}},{"name":"Dr.-Friedrichs-Str.","postalCode":"02991","locality":"Lauta","municipality":{"key":"14625310","name":"Lauta, Stadt","type":"Stadt"},"district":{"key":"14625","name":"Bautzen","type":"Landkreis"},"federalState":{"key":"14","name":"Sachsen"}},{"name":"Einsteinstr.","postalCode":"02991","locality":"Lauta","municipality":{"key":"14625310","name":"Lauta, Stadt","type":"Stadt"},"district":{"key":"14625","name":"Bautzen","type":"Landkreis"},"federalState":{"key":"14","name":"Sachsen"}},{"name":"Eisenbahnstr.","postalCode":"02991","locality":"Lauta","municipality":{"key":"14625310","name":"Lauta, Stadt","type":"Stadt"},"district":{"key":"14625","name":"Bautzen","type":"Landkreis"},"federalState":{"key":"14","name":"Sachsen"}},{"name":"Ernst-Thälmann-Str.","postalCode":"02991","locality":"Lauta","municipality":{"key":"14625310","name":"Lauta, Stadt","type":"Stadt"},"district":{"key":"14625","name":"Bautzen","type":"Landkreis"},"federalState":{"key":"14","name":"Sachsen"}},{"name":"Ewald-Kleffel-Str.","postalCode":"02991","locality":"Lauta","municipality":{"key":"14625310","name":"Lauta, Stadt","type":"Stadt"},"district":{"key":"14625","name":"Bautzen","type":"Landkreis"},"federalState":{"key":"14","name":"Sachsen"}},{"name":"Fischerweg","postalCode":"02991","locality":"Lauta","municipality":{"key":"14625310","name":"Lauta, Stadt","type":"Stadt"},"district":{"key":"14625","name":"Bautzen","type":"Landkreis"},"federalState":{"key":"14","name":"Sachsen"}},{"name":"Friedensstr.","postalCode":"02991","locality":"Lauta","municipality":{"key":"14625310","name":"Lauta, Stadt","type":"Stadt"},"district":{"key":"14625","name":"Bautzen","type":"Landkreis"},"federalState":{"key":"14","name":"Sachsen"}},{"name":"Friedrich-Ebert-Str.","postalCode":"02991","locality":"Lauta","municipality":{"key":"14625310","name":"Lauta, Stadt","type":"Stadt"},"district":{"key":"14625","name":"Bautzen","type":"Landkreis"},"federalState":{"key":"14","name":"Sachsen"}},{"name":"Friedrich-Engels-Str.","postalCode":"02991","locality":"Lauta","municipality":{"key":"14625310","name":"Lauta, Stadt","type":"Stadt"},"district":{"key":"14625","name":"Bautzen","type":"Landkreis"},"federalState":{"key":"14","name":"Sachsen"}},{"name":"Gartenstr.","postalCode":"02991","locality":"Lauta","municipality":{"key":"14625310","name":"Lauta, Stadt","type":"Stadt"},"district":{"key":"14625","name":"Bautzen","type":"Landkreis"},"federalState":{"key":"14","name":"Sachsen"}},{"name":"Gerhart-Hauptmann-Str.","postalCode":"02991","locality":"Lauta","municipality":{"key":"14625310","name":"Lauta, Stadt","type":"Stadt"},"district":{"key":"14625","name":"Bautzen","type":"Landkreis"},"federalState":{"key":"14","name":"Sachsen"}},{"name":"Goetheplatz","postalCode":"02991","locality":"Lauta","municipality":{"key":"14625310","name":"Lauta, Stadt","type":"Stadt"},"district":{"key":"14625","name":"Bautzen","type":"Landkreis"},"federalState":{"key":"14","name":"Sachsen"}},{"name":"Goethestr.","postalCode":"02991","locality":"Lauta","municipality":{"key":"14625310","name":"Lauta, Stadt","type":"Stadt"},"district":{"key":"14625","name":"Bautzen","type":"Landkreis"},"federalState":{"key":"14","name":"Sachsen"}},{"name":"Grünstr.","postalCode":"02991","locality":"Lauta","municipality":{"key":"14625310","name":"Lauta, Stadt","type":"Stadt"},"district":{"key":"14625","name":"Bautzen","type":"Landkreis"},"federalState":{"key":"14","name":"Sachsen"}},{"name":"Hans-Sachs-Str.","postalCode":"02991","locality":"Lauta","municipality":{"key":"14625310","name":"Lauta, Stadt","type":"Stadt"},"district":{"key":"14625","name":"Bautzen","type":"Landkreis"},"federalState":{"key":"14","name":"Sachsen"}},{"name":"Hauptstr.","postalCode":"02991","locality":"Lauta","municipality":{"key":"14625310","name":"Lauta, Stadt","type":"Stadt"},"district":{"key":"14625","name":"Bautzen","type":"Landkreis"},"federalState":{"key":"14","name":"Sachsen"}},{"name":"Heinrich-Heine-Str.","postalCode":"02991","locality":"Lauta","municipality":{"key":"14625310","name":"Lauta, Stadt","type":"Stadt"},"district":{"key":"14625","name":"Bautzen","type":"Landkreis"},"federalState":{"key":"14","name":"Sachsen"}},{"name":"Innere Lauenstr.","postalCode":"02625","locality":"Bautzen","municipality":{"key":"14625020","name":"Bautzen / Budyšin, Stadt","type":"Stadt"},"district":{"key":"14625","name":"Bautzen","type":"Landkreis"},"federalState":{"key":"14","name":"Sachsen"}},{"name":"Johannisthaler Weg","postalCode":"02991","locality":"Lauta","municipality":{"key":"14625310","name":"Lauta, Stadt","type":"Stadt"},"district":{"key":"14625","name":"Bautzen","type":"Landkreis"},"federalState":{"key":"14","name":"Sachsen"}},{"name":"Johann-Sebastian-Bach-Str.","postalCode":"02991","locality":"Lauta","municipality":{"key":"14625310","name":"Lauta, Stadt","type":"Stadt"},"district":{"key":"14625","name":"Bautzen","type":"Landkreis"},"federalState":{"key":"14","name":"Sachsen"}},{"name":"John-Schehr-Str.","postalCode":"02991","locality":"Lauta","municipality":{"key":"14625310","name":"Lauta, Stadt","type":"Stadt"},"district":{"key":"14625","name":"Bautzen","type":"Landkreis"},"federalState":{"key":"14","name":"Sachsen"}},{"name":"Joseph-Haydn-Str.","postalCode":"02991","locality":"Lauta","municipality":{"key":"14625310","name":"Lauta, Stadt","type":"Stadt"},"district":{"key":"14625","name":"Bautzen","type":"Landkreis"},"federalState":{"key":"14","name":"Sachsen"}},{"name":"Karl-Liebknecht-Str.","postalCode":"02991","locality":"Lauta","municipality":{"key":"14625310","name":"Lauta, Stadt","type":"Stadt"},"district":{"key":"14625","name":"Bautzen","type":"Landkreis"},"federalState":{"key":"14","name":"Sachsen"}},{"name":"Karl-Marx-Str.","postalCode":"02991","locality":"Lauta","municipality":{"key":"14625310","name":"Lauta, Stadt","type":"Stadt"},"district":{"key":"14625","name":"Bautzen","type":"Landkreis"},"federalState":{"key":"14","name":"Sachsen"}},{"name":"Kaufhausstr.","postalCode":"02991","locality":"Lauta","municipality":{"key":"14625310","name":"Lauta, Stadt","type":"Stadt"},"district":{"key":"14625","name":"Bautzen","type":"Landkreis"},"federalState":{"key":"14","name":"Sachsen"}},{"name":"Kirchweg","postalCode":"02991","locality":"Lauta","municipality":{"key":"14625310","name":"Lauta, Stadt","type":"Stadt"},"district":{"key":"14625","name":"Bautzen","type":"Landkreis"},"federalState":{"key":"14","name":"Sachsen"}},{"name":"Kleiststr.","postalCode":"02991","locality":"Lauta","municipality":{"key":"14625310","name":"Lauta, Stadt","type":"Stadt"},"district":{"key":"14625","name":"Bautzen","type":"Landkreis"},"federalState":{"key":"14","name":"Sachsen"}},{"name":"Körnerplatz","postalCode":"02991","locality":"Lauta","municipality":{"key":"14625310","name":"Lauta, Stadt","type":"Stadt"},"district":{"key":"14625","name":"Bautzen","type":"Landkreis"},"federalState":{"key":"14","name":"Sachsen"}},{"name":"Krankenhausstr.","postalCode":"02991","locality":"Lauta","municipality":{"key":"14625310","name":"Lauta, Stadt","type":"Stadt"},"district":{"key":"14625","name":"Bautzen","type":"Landkreis"},"federalState":{"key":"14","name":"Sachsen"}},{"name":"Kufsteiner Weg","postalCode":"02991","locality":"Lauta","municipality":{"key":"14625310","name":"Lauta, Stadt","type":"Stadt"},"district":{"key":"14625","name":"Bautzen","type":"Landkreis"},"federalState":{"key":"14","name":"Sachsen"}},{"name":"Kurze Str.","postalCode":"02991","locality":"Lauta","municipality":{"key":"14625310","name":"Lauta, Stadt","type":"Stadt"},"district":{"key":"14625","name":"Bautzen","type":"Landkreis"},"federalState":{"key":"14","name":"Sachsen"}},{"name":"Lausitzer Str.","postalCode":"02991","locality":"Lauta","municipality":{"key":"14625310","name":"Lauta, Stadt","type":"Stadt"},"district":{"key":"14625","name":"Bautzen","type":"Landkreis"},"federalState":{"key":"14","name":"Sachsen"}},{"name":"Lessingplatz","postalCode":"02991","locality":"Lauta","municipality":{"key":"14625310","name":"Lauta, Stadt","type":"Stadt"},"district":{"key":"14625","name":"Bautzen","type":"Landkreis"},"federalState":{"key":"14","name":"Sachsen"}},{"name":"Lessingstr.","postalCode":"02991","locality":"Lauta","municipality":{"key":"14625310","name":"Lauta, Stadt","type":"Stadt"},"district":{"key":"14625","name":"Bautzen","type":"Landkreis"},"federalState":{"key":"14","name":"Sachsen"}},{"name":"Liebknechtstr.","postalCode":"02991","locality":"Lauta","municipality":{"key":"14625310","name":"Lauta, Stadt","type":"Stadt"},"district":{"key":"14625","name":"Bautzen","type":"Landkreis"},"federalState":{"key":"14","name":"Sachsen"}},{"name":"Lindenstr.","postalCode":"02991","locality":"Lauta","municipality":{"key":"14625310","name":"Lauta, Stadt","type":"Stadt"},"district":{"key":"14625","name":"Bautzen","type":"Landkreis"},"federalState":{"key":"14","name":"Sachsen"}},{"name":"Lisztstr.","postalCode":"02991","locality":"Lauta","municipality":{"key":"14625310","name":"Lauta, Stadt","type":"Stadt"},"district":{"key":"14625","name":"Bautzen","type":"Landkreis"},"federalState":{"key":"14","name":"Sachsen"}},{"name":"Ludwig-Jahn-Str.","postalCode":"02991","locality":"Lauta","municipality":{"key":"14625310","name":"Lauta, Stadt","type":"Stadt"},"district":{"key":"14625","name":"Bautzen","type":"Landkreis"},"federalState":{"key":"14","name":"Sachsen"}},{"name":"Mecklenburgstr.","postalCode":"02991","locality":"Lauta","municipality":{"key":"14625310","name":"Lauta, Stadt","type":"Stadt"},"district":{"key":"14625","name":"Bautzen","type":"Landkreis"},"federalState":{"key":"14","name":"Sachsen"}},{"name":"Mittelstr.","postalCode":"02991","locality":"Lauta","municipality":{"key":"14625310","name":"Lauta, Stadt","type":"Stadt"},"district":{"key":"14625","name":"Bautzen","type":"Landkreis"},"federalState":{"key":"14","name":"Sachsen"}},{"name":"Mittelweg","postalCode":"02991","locality":"Lauta","municipality":{"key":"14625310","name":"Lauta, Stadt","type":"Stadt"},"district":{"key":"14625","name":"Bautzen","type":"Landkreis"},"federalState":{"key":"14","name":"Sachsen"}},{"name":"Mühlenstr.","postalCode":"02991","locality":"Lauta","municipality":{"key":"14625310","name":"Lauta, Stadt","type":"Stadt"},"district":{"key":"14625","name":"Bautzen","type":"Landkreis"},"federalState":{"key":"14","name":"Sachsen"}},{"name":"Neue Heimstätte","postalCode":"02991","locality":"Lauta","municipality":{"key":"14625310","name":"Lauta, Stadt","type":"Stadt"},"district":{"key":"14625","name":"Bautzen","type":"Landkreis"},"federalState":{"key":"14","name":"Sachsen"}},{"name":"Nordstr.","postalCode":"02991","locality":"Lauta","municipality":{"key":"14625310","name":"Lauta, Stadt","type":"Stadt"},"district":{"key":"14625","name":"Bautzen","type":"Landkreis"},"federalState":{"key":"14","name":"Sachsen"}},{"name":"Oldenburgstr.","postalCode":"02991","locality":"Lauta","municipality":{"key":"14625310","name":"Lauta, Stadt","type":"Stadt"},"district":{"key":"14625","name":"Bautzen","type":"Landkreis"},"federalState":{"key":"14","name":"Sachsen"}},{"name":"Oststr.","postalCode":"02991","locality":"Lauta","municipality":{"key":"14625310","name":"Lauta, Stadt","type":"Stadt"},"district":{"key":"14625","name":"Bautzen","type":"Landkreis"},"federalState":{"key":"14","name":"Sachsen"}},{"name":"Pappelweg","postalCode":"02991","locality":"Lauta","municipality":{"key":"14625310","name":"Lauta, Stadt","type":"Stadt"},"district":{"key":"14625","name":"Bautzen","type":"Landkreis"},"federalState":{"key":"14","name":"Sachsen"}},{"name":"Parkstr.","postalCode":"02991","locality":"Lauta","municipality":{"key":"14625310","name":"Lauta, Stadt","type":"Stadt"},"district":{"key":"14625","name":"Bautzen","type":"Landkreis"},"federalState":{"key":"14","name":"Sachsen"}},{"name":"Passauer Str.","postalCode":"02991","locality":"Lauta","municipality":{"key":"14625310","name":"Lauta, Stadt","type":"Stadt"},"district":{"key":"14625","name":"Bautzen","type":"Landkreis"},"federalState":{"key":"14","name":"Sachsen"}},{"name":"Puschkinallee","postalCode":"02991","locality":"Lauta","municipality":{"key":"14625310","name":"Lauta, Stadt","type":"Stadt"},"district":{"key":"14625","name":"Bautzen","type":"Landkreis"},"federalState":{"key":"14","name":"Sachsen"}},{"name":"Querstr.","postalCode":"02991","locality":"Lauta","municipality":{"key":"14625310","name":"Lauta, Stadt","type":"Stadt"},"district":{"key":"14625","name":"Bautzen","type":"Landkreis"},"federalState":{"key":"14","name":"Sachsen"}},{"name":"Rademacherstr.","postalCode":"02991","locality":"Lauta","municipality":{"key":"14625310","name":"Lauta, Stadt","type":"Stadt"},"district":{"key":"14625","name":"Bautzen","type":"Landkreis"},"federalState":{"key":"14","name":"Sachsen"}},{"name":"Robert-Koch-Str.","postalCode":"02991","locality":"Lauta","municipality":{"key":"14625310","name":"Lauta, Stadt","type":"Stadt"},"district":{"key":"14625","name":"Bautzen","type":"Landkreis"},"federalState":{"key":"14","name":"Sachsen"}},{"name":"Röntgenplatz","postalCode":"02991","locality":"Lauta","municipality":{"key":"14625310","name":"Lauta, Stadt","type":"Stadt"},"district":{"key":"14625","name":"Bautzen","type":"Landkreis"},"federalState":{"key":"14","name":"Sachsen"}},{"name":"Rosa-Luxemburg-Str.","postalCode":"02991","locality":"Lauta","municipality":{"key":"14625310","name":"Lauta, Stadt","type":"Stadt"},"district":{"key":"14625","name":"Bautzen","type":"Landkreis"},"federalState":{"key":"14","name":"Sachsen"}},{"name":"Rosensteg","postalCode":"02991","locality":"Lauta","municipality":{"key":"14625310","name":"Lauta, Stadt","type":"Stadt"},"district":{"key":"14625","name":"Bautzen","type":"Landkreis"},"federalState":{"key":"14","name":"Sachsen"}},{"name":"Rosenstr.","postalCode":"02991","locality":"Lauta","municipality":{"key":"14625310","name":"Lauta, Stadt","type":"Stadt"},"district":{"key":"14625","name":"Bautzen","type":"Landkreis"},"federalState":{"key":"14","name":"Sachsen"}},{"name":"Rotdornstr.","postalCode":"02991","locality":"Lauta","municipality":{"key":"14625310","name":"Lauta, Stadt","type":"Stadt"},"district":{"key":"14625","name":"Bautzen","type":"Landkreis"},"federalState":{"key":"14","name":"Sachsen"}},{"name":"Rudolf-Breitscheid-Str.","postalCode":"02991","locality":"Lauta","municipality":{"key":"14625310","name":"Lauta, Stadt","type":"Stadt"},"district":{"key":"14625","name":"Bautzen","type":"Landkreis"},"federalState":{"key":"14","name":"Sachsen"}},{"name":"Sachsenstr.","postalCode":"02991","locality":"Lauta","municipality":{"key":"14625310","name":"Lauta, Stadt","type":"Stadt"},"district":{"key":"14625","name":"Bautzen","type":"Landkreis"},"federalState":{"key":"14","name":"Sachsen"}},{"name":"Schillerstr.","postalCode":"02991","locality":"Lauta","municipality":{"key":"14625310","name":"Lauta, Stadt","type":"Stadt"},"district":{"key":"14625","name":"Bautzen","type":"Landkreis"},"federalState":{"key":"14","name":"Sachsen"}},{"name":"Schleswig-Holstein-Str.","postalCode":"02991","locality":"Lauta","municipality":{"key":"14625310","name":"Lauta, Stadt","type":"Stadt"},"district":{"key":"14625","name":"Bautzen","type":"Landkreis"},"federalState":{"key":"14","name":"Sachsen"}},{"name":"Schloßstr.","postalCode":"02991","locality":"Lauta","municipality":{"key":"14625310","name":"Lauta, Stadt","type":"Stadt"},"district":{"key":"14625","name":"Bautzen","type":"Landkreis"},"federalState":{"key":"14","name":"Sachsen"}},{"name":"Schmuckhof","postalCode":"02991","locality":"Lauta","municipality":{"key":"14625310","name":"Lauta, Stadt","type":"Stadt"},"district":{"key":"14625","name":"Bautzen","type":"Landkreis"},"federalState":{"key":"14","name":"Sachsen"}},{"name":"Schubertstr.","postalCode":"02991","locality":"Lauta","municipality":{"key":"14625310","name":"Lauta, Stadt","type":"Stadt"},"district":{"key":"14625","name":"Bautzen","type":"Landkreis"},"federalState":{"key":"14","name":"Sachsen"}},{"name":"Schulstr.","postalCode":"02991","locality":"Lauta","municipality":{"key":"14625310","name":"Lauta, Stadt","type":"Stadt"},"district":{"key":"14625","name":"Bautzen","type":"Landkreis"},"federalState":{"key":"14","name":"Sachsen"}},{"name":"Schumannstr.","postalCode":"02991","locality":"Lauta","municipality":{"key":"14625310","name":"Lauta, Stadt","type":"Stadt"},"district":{"key":"14625","name":"Bautzen","type":"Landkreis"},"federalState":{"key":"14","name":"Sachsen"}},{"name":"Schwarzkollmer Weg","postalCode":"02991","locality":"Lauta","municipality":{"key":"14625310","name":"Lauta, Stadt","type":"Stadt"},"district":{"key":"14625","name":"Bautzen","type":"Landkreis"},"federalState":{"key":"14","name":"Sachsen"}},{"name":"Senftenberger Str.","postalCode":"02991","locality":"Lauta","municipality":{"key":"14625310","name":"Lauta, Stadt","type":"Stadt"},"district":{"key":"14625","name":"Bautzen","type":"Landkreis"},"federalState":{"key":"14","name":"Sachsen"}},{"name":"Spitzweganger","postalCode":"02991","locality":"Lauta","municipality":{"key":"14625310","name":"Lauta, Stadt","type":"Stadt"},"district":{"key":"14625","name":"Bautzen","type":"Landkreis"},"federalState":{"key":"14","name":"Sachsen"}},{"name":"Str. der Freundschaft","postalCode":"02991","locality":"Lauta","municipality":{"key":"14625310","name":"Lauta, Stadt","type":"Stadt"},"district":{"key":"14625","name":"Bautzen","type":"Landkreis"},"federalState":{"key":"14","name":"Sachsen"}},{"name":"Südstr.","postalCode":"02991","locality":"Lauta","municipality":{"key":"14625310","name":"Lauta, Stadt","type":"Stadt"},"district":{"key":"14625","name":"Bautzen","type":"Landkreis"},"federalState":{"key":"14","name":"Sachsen"}},{"name":"Teichstr.","postalCode":"02991","locality":"Lauta","municipality":{"key":"14625310","name":"Lauta, Stadt","type":"Stadt"},"district":{"key":"14625","name":"Bautzen","type":"Landkreis"},"federalState":{"key":"14","name":"Sachsen"}},{"name":"Theunerplatz","postalCode":"02991","locality":"Lauta","municipality":{"key":"14625310","name":"Lauta, Stadt","type":"Stadt"},"district":{"key":"14625","name":"Bautzen","type":"Landkreis"},"federalState":{"key":"14","name":"Sachsen"}},{"name":"Tornoer Str.","postalCode":"02991","locality":"Lauta","municipality":{"key":"14625310","name":"Lauta, Stadt","type":"Stadt"},"district":{"key":"14625","name":"Bautzen","type":"Landkreis"},"federalState":{"key":"14","name":"Sachsen"}},{"name":"Tornoer Weg","postalCode":"02991","locality":"Lauta","municipality":{"key":"14625310","name":"Lauta, Stadt","type":"Stadt"},"district":{"key":"14625","name":"Bautzen","type":"Landkreis"},"federalState":{"key":"14","name":"Sachsen"}},{"name":"Turmstr.","postalCode":"02991","locality":"Lauta","municipality":{"key":"14625310","name":"Lauta, Stadt","type":"Stadt"},"district":{"key":"14625","name":"Bautzen","type":"Landkreis"},"federalState":{"key":"14","name":"Sachsen"}},{"name":"Uhlandstr.","postalCode":"02991","locality":"Lauta","municipality":{"key":"14625310","name":"Lauta, Stadt","type":"Stadt"},"district":{"key":"14625","name":"Bautzen","type":"Landkreis"},"federalState":{"key":"14","name":"Sachsen"}},{"name":"Verbindungsweg","postalCode":"02991","locality":"Lauta","municipality":{"key":"14625310","name":"Lauta, Stadt","type":"Stadt"},"district":{"key":"14625","name":"Bautzen","type":"Landkreis"},"federalState":{"key":"14","name":"Sachsen"}},{"name":"Waldstr.","postalCode":"02991","locality":"Lauta","municipality":{"key":"14625310","name":"Lauta, Stadt","type":"Stadt"},"district":{"key":"14625","name":"Bautzen","type":"Landkreis"},"federalState":{"key":"14","name":"Sachsen"}},{"name":"Weinbergstr.","postalCode":"02991","locality":"Lauta","municipality":{"key":"14625310","name":"Lauta, Stadt","type":"Stadt"},"district":{"key":"14625","name":"Bautzen","type":"Landkreis"},"federalState":{"key":"14","name":"Sachsen"}},{"name":"Wendenstr.","postalCode":"02991","locality":"Lauta","municipality":{"key":"14625310","name":"Lauta, Stadt","type":"Stadt"},"district":{"key":"14625","name":"Bautzen","type":"Landkreis"},"federalState":{"key":"14","name":"Sachsen"}},{"name":"Westfalenstr.","postalCode":"02991","locality":"Lauta","municipality":{"key":"14625310","name":"Lauta, Stadt","type":"Stadt"},"district":{"key":"14625","name":"Bautzen","type":"Landkreis"},"federalState":{"key":"14","name":"Sachsen"}},{"name":"Weststr.","postalCode":"02991","locality":"Lauta","municipality":{"key":"14625310","name":"Lauta, Stadt","type":"Stadt"},"district":{"key":"14625","name":"Bautzen","type":"Landkreis"},"federalState":{"key":"14","name":"Sachsen"}},{"name":"Wiednitzer Str.","postalCode":"02991","locality":"Lauta","municipality":{"key":"14625310","name":"Lauta, Stadt","type":"Stadt"},"district":{"key":"14625","name":"Bautzen","type":"Landkreis"},"federalState":{"key":"14","name":"Sachsen"}},{"name":"Wilder Mann","postalCode":"02991","locality":"Lauta","municipality":{"key":"14625310","name":"Lauta, Stadt","type":"Stadt"},"district":{"key":"14625","name":"Bautzen","type":"Landkreis"},"federalState":{"key":"14","name":"Sachsen"}},{"name":"Wilhelm-Busch-Anger","postalCode":"02991","locality":"Lauta","municipality":{"key":"14625310","name":"Lauta, Stadt","type":"Stadt"},"district":{"key":"14625","name":"Bautzen","type":"Landkreis"},"federalState":{"key":"14","name":"Sachsen"}},{"name":"Wilhelm-Pieck-Weg","postalCode":"02991","locality":"Lauta","municipality":{"key":"14625310","name":"Lauta, Stadt","type":"Stadt"},"district":{"key":"14625","name":"Bautzen","type":"Landkreis"},"federalState":{"key":"14","name":"Sachsen"}},{"name":"Wilhelm-Wagner-Str.","postalCode":"02991","locality":"Lauta","municipality":{"key":"14625310","name":"Lauta, Stadt","type":"Stadt"},"district":{"key":"14625","name":"Bautzen","type":"Landkreis"},"federalState":{"key":"14","name":"Sachsen"}},{"name":"Wöhlerstr.","postalCode":"02991","locality":"Lauta","municipality":{"key":"14625310","name":"Lauta, Stadt","type":"Stadt"},"district":{"key":"14625","name":"Bautzen","type":"Landkreis"},"federalState":{"key":"14","name":"Sachsen"}},{"name":"Württembergplatz","postalCode":"02991","locality":"Lauta","municipality":{"key":"14625310","name":"Lauta, Stadt","type":"Stadt"},"district":{"key":"14625","name":"Bautzen","type":"Landkreis"},"federalState":{"key":"14","name":"Sachsen"}},{"name":"Yorckstr.","postalCode":"02625","locality":"Bautzen","municipality":{"key":"14625020","name":"Bautzen / Budyšin, Stadt","type":"Stadt"},"district":{"key":"14625","name":"Bautzen","type":"Landkreis"},"federalState":{"key":"14","name":"Sachsen"}},{"name":"Zilleplatz","postalCode":"02991","locality":"Lauta","municipality":{"key":"14625310","name":"Lauta, Stadt","type":"Stadt"},"district":{"key":"14625","name":"Bautzen","type":"Landkreis"},"federalState":{"key":"14","name":"Sachsen"}},{"name":"Äußere Lauenstr.","postalCode":"02625","locality":"Bautzen","municipality":{"key":"14625020","name":"Bautzen / Budyšin, Stadt","type":"Stadt"},"district":{"key":"14625","name":"Bautzen","type":"Landkreis"},"federalState":{"key":"14","name":"Sachsen"}},]