[{"key":"10090112","name":"Aedelswil","postalCode":"9100","locality":"Herisau","commune":{"key":"3001","name":"Herisau","shortName":"Herisau"},"district":{"key":"1501","name":"Bezirk Hinterland"},"canton":{"key":"15","code":"AR","name":"Appenzell Ausserrhoden"},"status":"Real"},{"key":"10123689","name":"Ahornstrasse","postalCode":"9100","locality":"Herisau","commune":{"key":"3001","name":"Herisau","shortName":"Herisau"},"district":{"key":"1501","name":"Bezirk Hinterland"},"canton":{"key":"15","code":"AR","name":"Appenzell Ausserrhoden"},"status":"Real"},{"key":"10179770","name":"Akazienstrasse","postalCode":"9100","locality":"Herisau","commune":{"key":"3001","name":"Herisau","shortName":"Herisau"},"district":{"key":"1501","name":"Bezirk Hinterland"},"canton":{"key":"15","code":"AR","name":"Appenzell Ausserrhoden"},"status":"Real"},{"key":"10118151","name":"Alpsteinstrasse","postalCode":"9100","locality":"Herisau","commune":{"key":"3001","name":"Herisau","shortName":"Herisau"},"district":{"key":"1501","name":"Bezirk Hinterland"},"canton":{"key":"15","code":"AR","name":"Appenzell Ausserrhoden"},"status":"Real"},{"key":"10073118","name":"Alte Bahnhofstrasse","postalCode":"9100","locality":"Herisau","commune":{"key":"3001","name":"Herisau","shortName":"Herisau"},"district":{"key":"1501","name":"Bezirk Hinterland"},"canton":{"key":"15","code":"AR","name":"Appenzell Ausserrhoden"},"status":"Real"},{"key":"10031836","name":"Alte Steig","postalCode":"9100","locality":"Herisau","commune":{"key":"3001","name":"Herisau","shortName":"Herisau"},"district":{"key":"1501","name":"Bezirk Hinterland"},"canton":{"key":"15","code":"AR","name":"Appenzell Ausserrhoden"},"status":"Real"},{"key":"10031837","name":"Arthur-Schiess-Strasse","postalCode":"9100","locality":"Herisau","commune":{"key":"3001","name":"Herisau","shortName":"Herisau"},"district":{"key":"1501","name":"Bezirk Hinterland"},"canton":{"key":"15","code":"AR","name":"Appenzell Ausserrhoden"},"status":"Real"},{"key":"10031838","name":"Aspen","postalCode":"9100","locality":"Herisau","commune":{"key":"3001","name":"Herisau","shortName":"Herisau"},"district":{"key":"1501","name":"Bezirk Hinterland"},"canton":{"key":"15","code":"AR","name":"Appenzell Ausserrhoden"},"status":"Real"},{"key":"10031839","name":"Au","postalCode":"9100","locality":"Herisau","commune":{"key":"3001","name":"Herisau","shortName":"Herisau"},"district":{"key":"1501","name":"Bezirk Hinterland"},"canton":{"key":"15","code":"AR","name":"Appenzell Ausserrhoden"},"status":"Real"},{"key":"10180896","name":"Bachstrasse","postalCode":"9100","locality":"Herisau","commune":{"key":"3001","name":"Herisau","shortName":"Herisau"},"district":{"key":"1501","name":"Bezirk Hinterland"},"canton":{"key":"15","code":"AR","name":"Appenzell Ausserrhoden"},"status":"Real"},{"key":"10091413","name":"Bachwisstrasse","postalCode":"9100","locality":"Herisau","commune":{"key":"3001","name":"Herisau","shortName":"Herisau"},"district":{"key":"1501","name":"Bezirk Hinterland"},"canton":{"key":"15","code":"AR","name":"Appenzell Ausserrhoden"},"status":"Real"},{"key":"10031840","name":"Bahnhofplatz","postalCode":"9100","locality":"Herisau","commune":{"key":"3001","name":"Herisau","shortName":"Herisau"},"district":{"key":"1501","name":"Bezirk Hinterland"},"canton":{"key":"15","code":"AR","name":"Appenzell Ausserrhoden"},"status":"Real"},{"key":"10113224","name":"Bahnhofstrasse","postalCode":"9100","locality":"Herisau","commune":{"key":"3001","name":"Herisau","shortName":"Herisau"},"district":{"key":"1501","name":"Bezirk Hinterland"},"canton":{"key":"15","code":"AR","name":"Appenzell Ausserrhoden"},"status":"Real"},{"key":"10091443","name":"Baldenwil","postalCode":"9112","locality":"Schachen b. Herisau","commune":{"key":"3001","name":"Herisau","shortName":"Herisau"},"district":{"key":"1501","name":"Bezirk Hinterland"},"canton":{"key":"15","code":"AR","name":"Appenzell Ausserrhoden"},"status":"Real"},{"key":"10031841","name":"Belch","postalCode":"9100","locality":"Herisau","commune":{"key":"3001","name":"Herisau","shortName":"Herisau"},"district":{"key":"1501","name":"Bezirk Hinterland"},"canton":{"key":"15","code":"AR","name":"Appenzell Ausserrhoden"},"status":"Real"},{"key":"10073119","name":"Berg","postalCode":"9100","locality":"Herisau","commune":{"key":"3001","name":"Herisau","shortName":"Herisau"},"district":{"key":"1501","name":"Bezirk Hinterland"},"canton":{"key":"15","code":"AR","name":"Appenzell Ausserrhoden"},"status":"Real"},{"key":"10110823","name":"Bergli","postalCode":"9112","locality":"Schachen b. Herisau","commune":{"key":"3001","name":"Herisau","shortName":"Herisau"},"district":{"key":"1501","name":"Bezirk Hinterland"},"canton":{"key":"15","code":"AR","name":"Appenzell Ausserrhoden"},"status":"Real"},{"key":"10091414","name":"Bergstrasse","postalCode":"9100","locality":"Herisau","commune":{"key":"3001","name":"Herisau","shortName":"Herisau"},"district":{"key":"1501","name":"Bezirk Hinterland"},"canton":{"key":"15","code":"AR","name":"Appenzell Ausserrhoden"},"status":"Real"},{"key":"10073120","name":"Bergweid","postalCode":"9100","locality":"Herisau","commune":{"key":"3001","name":"Herisau","shortName":"Herisau"},"district":{"key":"1501","name":"Bezirk Hinterland"},"canton":{"key":"15","code":"AR","name":"Appenzell Ausserrhoden"},"status":"Real"},{"key":"10031842","name":"Bertold-Suhner-Strasse","postalCode":"9100","locality":"Herisau","commune":{"key":"3001","name":"Herisau","shortName":"Herisau"},"district":{"key":"1501","name":"Bezirk Hinterland"},"canton":{"key":"15","code":"AR","name":"Appenzell Ausserrhoden"},"status":"Real"},{"key":"10091415","name":"Birkenstrasse","postalCode":"9100","locality":"Herisau","commune":{"key":"3001","name":"Herisau","shortName":"Herisau"},"district":{"key":"1501","name":"Bezirk Hinterland"},"canton":{"key":"15","code":"AR","name":"Appenzell Ausserrhoden"},"status":"Real"},{"key":"10179771","name":"Bleichestrasse","postalCode":"9100","locality":"Herisau","commune":{"key":"3001","name":"Herisau","shortName":"Herisau"},"district":{"key":"1501","name":"Bezirk Hinterland"},"canton":{"key":"15","code":"AR","name":"Appenzell Ausserrhoden"},"status":"Real"},{"key":"10031843","name":"Brugg","postalCode":"9100","locality":"Herisau","commune":{"key":"3001","name":"Herisau","shortName":"Herisau"},"district":{"key":"1501","name":"Bezirk Hinterland"},"canton":{"key":"15","code":"AR","name":"Appenzell Ausserrhoden"},"status":"Real"},{"key":"10053546","name":"Bruggböhl","postalCode":"9100","locality":"Herisau","commune":{"key":"3001","name":"Herisau","shortName":"Herisau"},"district":{"key":"1501","name":"Bezirk Hinterland"},"canton":{"key":"15","code":"AR","name":"Appenzell Ausserrhoden"},"status":"Real"},{"key":"10073121","name":"Bruggebni","postalCode":"9100","locality":"Herisau","commune":{"key":"3001","name":"Herisau","shortName":"Herisau"},"district":{"key":"1501","name":"Bezirk Hinterland"},"canton":{"key":"15","code":"AR","name":"Appenzell Ausserrhoden"},"status":"Real"},{"key":"10187876","name":"Bruggereggstrasse","postalCode":"9100","locality":"Herisau","commune":{"key":"3001","name":"Herisau","shortName":"Herisau"},"district":{"key":"1501","name":"Bezirk Hinterland"},"canton":{"key":"15","code":"AR","name":"Appenzell Ausserrhoden"},"status":"Real"},{"key":"10091416","name":"Brugghöhestrasse","postalCode":"9100","locality":"Herisau","commune":{"key":"3001","name":"Herisau","shortName":"Herisau"},"district":{"key":"1501","name":"Bezirk Hinterland"},"canton":{"key":"15","code":"AR","name":"Appenzell Ausserrhoden"},"status":"Real"},{"key":"10073122","name":"Buchenstrasse","postalCode":"9100","locality":"Herisau","commune":{"key":"3001","name":"Herisau","shortName":"Herisau"},"district":{"key":"1501","name":"Bezirk Hinterland"},"canton":{"key":"15","code":"AR","name":"Appenzell Ausserrhoden"},"status":"Real"},{"key":"10031844","name":"Buech","postalCode":"9100","locality":"Herisau","commune":{"key":"3001","name":"Herisau","shortName":"Herisau"},"district":{"key":"1501","name":"Bezirk Hinterland"},"canton":{"key":"15","code":"AR","name":"Appenzell Ausserrhoden"},"status":"Real"},{"key":"10121183","name":"Buechschachen","postalCode":"9100","locality":"Herisau","commune":{"key":"3001","name":"Herisau","shortName":"Herisau"},"district":{"key":"1501","name":"Bezirk Hinterland"},"canton":{"key":"15","code":"AR","name":"Appenzell Ausserrhoden"},"status":"Real"},{"key":"10031846","name":"Büel","postalCode":"9100","locality":"Herisau","commune":{"key":"3001","name":"Herisau","shortName":"Herisau"},"district":{"key":"1501","name":"Bezirk Hinterland"},"canton":{"key":"15","code":"AR","name":"Appenzell Ausserrhoden"},"status":"Real"},{"key":"10179772","name":"Büelhalde","postalCode":"9100","locality":"Herisau","commune":{"key":"3001","name":"Herisau","shortName":"Herisau"},"district":{"key":"1501","name":"Bezirk Hinterland"},"canton":{"key":"15","code":"AR","name":"Appenzell Ausserrhoden"},"status":"Real"},{"key":"10031845","name":"Burg","postalCode":"9100","locality":"Herisau","commune":{"key":"3001","name":"Herisau","shortName":"Herisau"},"district":{"key":"1501","name":"Bezirk Hinterland"},"canton":{"key":"15","code":"AR","name":"Appenzell Ausserrhoden"},"status":"Real"},{"key":"10073123","name":"Burghalden","postalCode":"9100","locality":"Herisau","commune":{"key":"3001","name":"Herisau","shortName":"Herisau"},"district":{"key":"1501","name":"Bezirk Hinterland"},"canton":{"key":"15","code":"AR","name":"Appenzell Ausserrhoden"},"status":"Real"},{"key":"10073124","name":"Chalchofen","postalCode":"9100","locality":"Herisau","commune":{"key":"3001","name":"Herisau","shortName":"Herisau"},"district":{"key":"1501","name":"Bezirk Hinterland"},"canton":{"key":"15","code":"AR","name":"Appenzell Ausserrhoden"},"status":"Real"},{"key":"10211930","name":"Chammerholz","postalCode":"9100","locality":"Herisau","commune":{"key":"3001","name":"Herisau","shortName":"Herisau"},"district":{"key":"1501","name":"Bezirk Hinterland"},"canton":{"key":"15","code":"AR","name":"Appenzell Ausserrhoden"},"status":"Real"},{"key":"10091417","name":"Chapfenböhlweg","postalCode":"9100","locality":"Herisau","commune":{"key":"3001","name":"Herisau","shortName":"Herisau"},"district":{"key":"1501","name":"Bezirk Hinterland"},"canton":{"key":"15","code":"AR","name":"Appenzell Ausserrhoden"},"status":"Real"},{"key":"10031847","name":"Chleb","postalCode":"9100","locality":"Herisau","commune":{"key":"3001","name":"Herisau","shortName":"Herisau"},"district":{"key":"1501","name":"Bezirk Hinterland"},"canton":{"key":"15","code":"AR","name":"Appenzell Ausserrhoden"},"status":"Real"},{"key":"10031848","name":"Churzenberg","postalCode":"9100","locality":"Herisau","commune":{"key":"3001","name":"Herisau","shortName":"Herisau"},"district":{"key":"1501","name":"Bezirk Hinterland"},"canton":{"key":"15","code":"AR","name":"Appenzell Ausserrhoden"},"status":"Real"},{"key":"10073125","name":"Cilanderstrasse","postalCode":"9100","locality":"Herisau","commune":{"key":"3001","name":"Herisau","shortName":"Herisau"},"district":{"key":"1501","name":"Bezirk Hinterland"},"canton":{"key":"15","code":"AR","name":"Appenzell Ausserrhoden"},"status":"Real"},{"key":"10091418","name":"Degersheimerstrasse","postalCode":"9100","locality":"Herisau","commune":{"key":"3001","name":"Herisau","shortName":"Herisau"},"district":{"key":"1501","name":"Bezirk Hinterland"},"canton":{"key":"15","code":"AR","name":"Appenzell Ausserrhoden"},"status":"Real"},{"key":"10031849","name":"Dietelswil","postalCode":"9100","locality":"Herisau","commune":{"key":"3001","name":"Herisau","shortName":"Herisau"},"district":{"key":"1501","name":"Bezirk Hinterland"},"canton":{"key":"15","code":"AR","name":"Appenzell Ausserrhoden"},"status":"Real"},{"key":"10031850","name":"Dreilindenweg","postalCode":"9100","locality":"Herisau","commune":{"key":"3001","name":"Herisau","shortName":"Herisau"},"district":{"key":"1501","name":"Bezirk Hinterland"},"canton":{"key":"15","code":"AR","name":"Appenzell Ausserrhoden"},"status":"Real"},{"key":"10211934","name":"Durchgangsstrasse","postalCode":"9100","locality":"Herisau","commune":{"key":"3001","name":"Herisau","shortName":"Herisau"},"district":{"key":"1501","name":"Bezirk Hinterland"},"canton":{"key":"15","code":"AR","name":"Appenzell Ausserrhoden"},"status":"Real"},{"key":"10113225","name":"Ebnetstrasse","postalCode":"9100","locality":"Herisau","commune":{"key":"3001","name":"Herisau","shortName":"Herisau"},"district":{"key":"1501","name":"Bezirk Hinterland"},"canton":{"key":"15","code":"AR","name":"Appenzell Ausserrhoden"},"status":"Real"},{"key":"10211939","name":"Ebnetweg","postalCode":"9100","locality":"Herisau","commune":{"key":"3001","name":"Herisau","shortName":"Herisau"},"district":{"key":"1501","name":"Bezirk Hinterland"},"canton":{"key":"15","code":"AR","name":"Appenzell Ausserrhoden"},"status":"Real"},{"key":"10175246","name":"Egg","postalCode":"9100","locality":"Herisau","commune":{"key":"3001","name":"Herisau","shortName":"Herisau"},"district":{"key":"1501","name":"Bezirk Hinterland"},"canton":{"key":"15","code":"AR","name":"Appenzell Ausserrhoden"},"status":"Real"},{"key":"10073126","name":"Eggstrasse","postalCode":"9100","locality":"Herisau","commune":{"key":"3001","name":"Herisau","shortName":"Herisau"},"district":{"key":"1501","name":"Bezirk Hinterland"},"canton":{"key":"15","code":"AR","name":"Appenzell Ausserrhoden"},"status":"Real"},{"key":"10123686","name":"Eggweg","postalCode":"9100","locality":"Herisau","commune":{"key":"3001","name":"Herisau","shortName":"Herisau"},"district":{"key":"1501","name":"Bezirk Hinterland"},"canton":{"key":"15","code":"AR","name":"Appenzell Ausserrhoden"},"status":"Real"},{"key":"10031851","name":"Engelen","postalCode":"9100","locality":"Herisau","commune":{"key":"3001","name":"Herisau","shortName":"Herisau"},"district":{"key":"1501","name":"Bezirk Hinterland"},"canton":{"key":"15","code":"AR","name":"Appenzell Ausserrhoden"},"status":"Real"},{"key":"10031292","name":"Engelswil","postalCode":"9112","locality":"Schachen b. Herisau","commune":{"key":"3001","name":"Herisau","shortName":"Herisau"},"district":{"key":"1501","name":"Bezirk Hinterland"},"canton":{"key":"15","code":"AR","name":"Appenzell Ausserrhoden"},"status":"Real"},{"key":"10031293","name":"Ergeten","postalCode":"9100","locality":"Herisau","commune":{"key":"3001","name":"Herisau","shortName":"Herisau"},"district":{"key":"1501","name":"Bezirk Hinterland"},"canton":{"key":"15","code":"AR","name":"Appenzell Ausserrhoden"},"status":"Real"},{"key":"10179773","name":"Erlenbach","postalCode":"9100","locality":"Herisau","commune":{"key":"3001","name":"Herisau","shortName":"Herisau"},"district":{"key":"1501","name":"Bezirk Hinterland"},"canton":{"key":"15","code":"AR","name":"Appenzell Ausserrhoden"},"status":"Real"},{"key":"10091419","name":"Erlenbachstrasse","postalCode":"9100","locality":"Herisau","commune":{"key":"3001","name":"Herisau","shortName":"Herisau"},"district":{"key":"1501","name":"Bezirk Hinterland"},"canton":{"key":"15","code":"AR","name":"Appenzell Ausserrhoden"},"status":"Real"},{"key":"10180897","name":"Felsenweg","postalCode":"9100","locality":"Herisau","commune":{"key":"3001","name":"Herisau","shortName":"Herisau"},"district":{"key":"1501","name":"Bezirk Hinterland"},"canton":{"key":"15","code":"AR","name":"Appenzell Ausserrhoden"},"status":"Real"},{"key":"10073127","name":"Flue","postalCode":"9112","locality":"Schachen b. Herisau","commune":{"key":"3001","name":"Herisau","shortName":"Herisau"},"district":{"key":"1501","name":"Bezirk Hinterland"},"canton":{"key":"15","code":"AR","name":"Appenzell Ausserrhoden"},"status":"Real"},{"key":"10031852","name":"Föhrenstrasse","postalCode":"9100","locality":"Herisau","commune":{"key":"3001","name":"Herisau","shortName":"Herisau"},"district":{"key":"1501","name":"Bezirk Hinterland"},"canton":{"key":"15","code":"AR","name":"Appenzell Ausserrhoden"},"status":"Real"},{"key":"10031853","name":"Fülli","postalCode":"9100","locality":"Herisau","commune":{"key":"3001","name":"Herisau","shortName":"Herisau"},"district":{"key":"1501","name":"Bezirk Hinterland"},"canton":{"key":"15","code":"AR","name":"Appenzell Ausserrhoden"},"status":"Real"},{"key":"10031854","name":"Gartenstrasse","postalCode":"9100","locality":"Herisau","commune":{"key":"3001","name":"Herisau","shortName":"Herisau"},"district":{"key":"1501","name":"Bezirk Hinterland"},"canton":{"key":"15","code":"AR","name":"Appenzell Ausserrhoden"},"status":"Real"},{"key":"10122742","name":"Gibel","postalCode":"9100","locality":"Herisau","commune":{"key":"3001","name":"Herisau","shortName":"Herisau"},"district":{"key":"1501","name":"Bezirk Hinterland"},"canton":{"key":"15","code":"AR","name":"Appenzell Ausserrhoden"},"status":"Real"},{"key":"10073128","name":"Gibelhalde","postalCode":"9100","locality":"Herisau","commune":{"key":"3001","name":"Herisau","shortName":"Herisau"},"district":{"key":"1501","name":"Bezirk Hinterland"},"canton":{"key":"15","code":"AR","name":"Appenzell Ausserrhoden"},"status":"Real"},{"key":"10230022","name":"Glattweg","postalCode":"9100","locality":"Herisau","commune":{"key":"3001","name":"Herisau","shortName":"Herisau"},"district":{"key":"1501","name":"Bezirk Hinterland"},"canton":{"key":"15","code":"AR","name":"Appenzell Ausserrhoden"},"status":"Real"},{"key":"10091420","name":"Gossauerstrasse","postalCode":"9100","locality":"Herisau","commune":{"key":"3001","name":"Herisau","shortName":"Herisau"},"district":{"key":"1501","name":"Bezirk Hinterland"},"canton":{"key":"15","code":"AR","name":"Appenzell Ausserrhoden"},"status":"Real"},{"key":"10187877","name":"Grueb","postalCode":"9100","locality":"Herisau","commune":{"key":"3001","name":"Herisau","shortName":"Herisau"},"district":{"key":"1501","name":"Bezirk Hinterland"},"canton":{"key":"15","code":"AR","name":"Appenzell Ausserrhoden"},"status":"Real"},{"key":"10179774","name":"Güetli","postalCode":"9100","locality":"Herisau","commune":{"key":"3001","name":"Herisau","shortName":"Herisau"},"district":{"key":"1501","name":"Bezirk Hinterland"},"canton":{"key":"15","code":"AR","name":"Appenzell Ausserrhoden"},"status":"Real"},{"key":"10073129","name":"Gutenbergstrasse","postalCode":"9100","locality":"Herisau","commune":{"key":"3001","name":"Herisau","shortName":"Herisau"},"district":{"key":"1501","name":"Bezirk Hinterland"},"canton":{"key":"15","code":"AR","name":"Appenzell Ausserrhoden"},"status":"Real"},{"key":"10031855","name":"Güterstrasse","postalCode":"9100","locality":"Herisau","commune":{"key":"3001","name":"Herisau","shortName":"Herisau"},"district":{"key":"1501","name":"Bezirk Hinterland"},"canton":{"key":"15","code":"AR","name":"Appenzell Ausserrhoden"},"status":"Real"},{"key":"10051797","name":"Halden","postalCode":"9100","locality":"Herisau","commune":{"key":"3001","name":"Herisau","shortName":"Herisau"},"district":{"key":"1501","name":"Bezirk Hinterland"},"canton":{"key":"15","code":"AR","name":"Appenzell Ausserrhoden"},"status":"Real"},{"key":"10091421","name":"Haldenweg","postalCode":"9100","locality":"Herisau","commune":{"key":"3001","name":"Herisau","shortName":"Herisau"},"district":{"key":"1501","name":"Bezirk Hinterland"},"canton":{"key":"15","code":"AR","name":"Appenzell Ausserrhoden"},"status":"Real"},{"key":"10031856","name":"Hemetli","postalCode":"9100","locality":"Herisau","commune":{"key":"3001","name":"Herisau","shortName":"Herisau"},"district":{"key":"1501","name":"Bezirk Hinterland"},"canton":{"key":"15","code":"AR","name":"Appenzell Ausserrhoden"},"status":"Real"},{"key":"10073130","name":"Himmelisberg","postalCode":"9100","locality":"Herisau","commune":{"key":"3001","name":"Herisau","shortName":"Herisau"},"district":{"key":"1501","name":"Bezirk Hinterland"},"canton":{"key":"15","code":"AR","name":"Appenzell Ausserrhoden"},"status":"Real"},{"key":"10031857","name":"Hinteregg","postalCode":"9100","locality":"Herisau","commune":{"key":"3001","name":"Herisau","shortName":"Herisau"},"district":{"key":"1501","name":"Bezirk Hinterland"},"canton":{"key":"15","code":"AR","name":"Appenzell Ausserrhoden"},"status":"Real"},{"key":"10190667","name":"Hintere Oberdorfstrasse","postalCode":"9100","locality":"Herisau","commune":{"key":"3001","name":"Herisau","shortName":"Herisau"},"district":{"key":"1501","name":"Bezirk Hinterland"},"canton":{"key":"15","code":"AR","name":"Appenzell Ausserrhoden"},"status":"Real"},{"key":"10119417","name":"Hintere Wiesen","postalCode":"9100","locality":"Herisau","commune":{"key":"3001","name":"Herisau","shortName":"Herisau"},"district":{"key":"1501","name":"Bezirk Hinterland"},"canton":{"key":"15","code":"AR","name":"Appenzell Ausserrhoden"},"status":"Real"},{"key":"10031858","name":"Hinterhof","postalCode":"9100","locality":"Herisau","commune":{"key":"3001","name":"Herisau","shortName":"Herisau"},"district":{"key":"1501","name":"Bezirk Hinterland"},"canton":{"key":"15","code":"AR","name":"Appenzell Ausserrhoden"},"status":"Real"},{"key":"10073131","name":"Hohberg","postalCode":"9100","locality":"Herisau","commune":{"key":"3001","name":"Herisau","shortName":"Herisau"},"district":{"key":"1501","name":"Bezirk Hinterland"},"canton":{"key":"15","code":"AR","name":"Appenzell Ausserrhoden"},"status":"Real"},{"key":"10211942","name":"Hohbergstrasse","postalCode":"9100","locality":"Herisau","commune":{"key":"3001","name":"Herisau","shortName":"Herisau"},"district":{"key":"1501","name":"Bezirk Hinterland"},"canton":{"key":"15","code":"AR","name":"Appenzell Ausserrhoden"},"status":"Real"},{"key":"10182691","name":"Höhenweg","postalCode":"9100","locality":"Herisau","commune":{"key":"3001","name":"Herisau","shortName":"Herisau"},"district":{"key":"1501","name":"Bezirk Hinterland"},"canton":{"key":"15","code":"AR","name":"Appenzell Ausserrhoden"},"status":"Real"},{"key":"10053547","name":"Hohrüti","postalCode":"9100","locality":"Herisau","commune":{"key":"3001","name":"Herisau","shortName":"Herisau"},"district":{"key":"1501","name":"Bezirk Hinterland"},"canton":{"key":"15","code":"AR","name":"Appenzell Ausserrhoden"},"status":"Real"},{"key":"10110824","name":"Hölzli","postalCode":"9100","locality":"Herisau","commune":{"key":"3001","name":"Herisau","shortName":"Herisau"},"district":{"key":"1501","name":"Bezirk Hinterland"},"canton":{"key":"15","code":"AR","name":"Appenzell Ausserrhoden"},"status":"Real"},{"key":"10126197","name":"Hölzlistrasse","postalCode":"9100","locality":"Herisau","commune":{"key":"3001","name":"Herisau","shortName":"Herisau"},"district":{"key":"1501","name":"Bezirk Hinterland"},"canton":{"key":"15","code":"AR","name":"Appenzell Ausserrhoden"},"status":"Real"},{"key":"10169826","name":"Horüti","postalCode":"9100","locality":"Herisau","commune":{"key":"3001","name":"Herisau","shortName":"Herisau"},"district":{"key":"1501","name":"Bezirk Hinterland"},"canton":{"key":"15","code":"AR","name":"Appenzell Ausserrhoden"},"status":"Real"},{"key":"10113226","name":"Huebstrasse","postalCode":"9100","locality":"Herisau","commune":{"key":"3001","name":"Herisau","shortName":"Herisau"},"district":{"key":"1501","name":"Bezirk Hinterland"},"canton":{"key":"15","code":"AR","name":"Appenzell Ausserrhoden"},"status":"Real"},{"key":"10113226","name":"Huebstrasse","postalCode":"9112","locality":"Schachen b. Herisau","commune":{"key":"3001","name":"Herisau","shortName":"Herisau"},"district":{"key":"1501","name":"Bezirk Hinterland"},"canton":{"key":"15","code":"AR","name":"Appenzell Ausserrhoden"},"status":"Real"},{"key":"10031859","name":"Ifang","postalCode":"9100","locality":"Herisau","commune":{"key":"3001","name":"Herisau","shortName":"Herisau"},"district":{"key":"1501","name":"Bezirk Hinterland"},"canton":{"key":"15","code":"AR","name":"Appenzell Ausserrhoden"},"status":"Real"},{"key":"10031860","name":"Ifangstrasse","postalCode":"9100","locality":"Herisau","commune":{"key":"3001","name":"Herisau","shortName":"Herisau"},"district":{"key":"1501","name":"Bezirk Hinterland"},"canton":{"key":"15","code":"AR","name":"Appenzell Ausserrhoden"},"status":"Real"},{"key":"10073132","name":"Industriestrasse","postalCode":"9100","locality":"Herisau","commune":{"key":"3001","name":"Herisau","shortName":"Herisau"},"district":{"key":"1501","name":"Bezirk Hinterland"},"canton":{"key":"15","code":"AR","name":"Appenzell Ausserrhoden"},"status":"Real"},{"key":"10205786","name":"Ionenstrasse","postalCode":"9100","locality":"Herisau","commune":{"key":"3001","name":"Herisau","shortName":"Herisau"},"district":{"key":"1501","name":"Bezirk Hinterland"},"canton":{"key":"15","code":"AR","name":"Appenzell Ausserrhoden"},"status":"Real"},{"key":"10091422","name":"Johannes Baumann-Strasse","postalCode":"9100","locality":"Herisau","commune":{"key":"3001","name":"Herisau","shortName":"Herisau"},"district":{"key":"1501","name":"Bezirk Hinterland"},"canton":{"key":"15","code":"AR","name":"Appenzell Ausserrhoden"},"status":"Real"},{"key":"10053549","name":"Kantonsgrenze","postalCode":"9112","locality":"Schachen b. Herisau","commune":{"key":"3001","name":"Herisau","shortName":"Herisau"},"district":{"key":"1501","name":"Bezirk Hinterland"},"canton":{"key":"15","code":"AR","name":"Appenzell Ausserrhoden"},"status":"Real"},{"key":"10031861","name":"Kapf","postalCode":"9100","locality":"Herisau","commune":{"key":"3001","name":"Herisau","shortName":"Herisau"},"district":{"key":"1501","name":"Bezirk Hinterland"},"canton":{"key":"15","code":"AR","name":"Appenzell Ausserrhoden"},"status":"Real"},{"key":"10187878","name":"Kasernenstrasse","postalCode":"9100","locality":"Herisau","commune":{"key":"3001","name":"Herisau","shortName":"Herisau"},"district":{"key":"1501","name":"Bezirk Hinterland"},"canton":{"key":"15","code":"AR","name":"Appenzell Ausserrhoden"},"status":"Real"},{"key":"10054680","name":"Kellersberg","postalCode":"9100","locality":"Herisau","commune":{"key":"3001","name":"Herisau","shortName":"Herisau"},"district":{"key":"1501","name":"Bezirk Hinterland"},"canton":{"key":"15","code":"AR","name":"Appenzell Ausserrhoden"},"status":"Real"},{"key":"10031862","name":"Kreckel","postalCode":"9100","locality":"Herisau","commune":{"key":"3001","name":"Herisau","shortName":"Herisau"},"district":{"key":"1501","name":"Bezirk Hinterland"},"canton":{"key":"15","code":"AR","name":"Appenzell Ausserrhoden"},"status":"Real"},{"key":"10073133","name":"Kreckelweg","postalCode":"9100","locality":"Herisau","commune":{"key":"3001","name":"Herisau","shortName":"Herisau"},"district":{"key":"1501","name":"Bezirk Hinterland"},"canton":{"key":"15","code":"AR","name":"Appenzell Ausserrhoden"},"status":"Real"},{"key":"10182692","name":"Kreuzstrasse","postalCode":"9100","locality":"Herisau","commune":{"key":"3001","name":"Herisau","shortName":"Herisau"},"district":{"key":"1501","name":"Bezirk Hinterland"},"canton":{"key":"15","code":"AR","name":"Appenzell Ausserrhoden"},"status":"Real"},{"key":"10033028","name":"Krombach","postalCode":"9100","locality":"Herisau","commune":{"key":"3001","name":"Herisau","shortName":"Herisau"},"district":{"key":"1501","name":"Bezirk Hinterland"},"canton":{"key":"15","code":"AR","name":"Appenzell Ausserrhoden"},"status":"Real"},{"key":"10091423","name":"Langelen","postalCode":"9100","locality":"Herisau","commune":{"key":"3001","name":"Herisau","shortName":"Herisau"},"district":{"key":"1501","name":"Bezirk Hinterland"},"canton":{"key":"15","code":"AR","name":"Appenzell Ausserrhoden"},"status":"Real"},{"key":"10033029","name":"Langelenstrasse","postalCode":"9100","locality":"Herisau","commune":{"key":"3001","name":"Herisau","shortName":"Herisau"},"district":{"key":"1501","name":"Bezirk Hinterland"},"canton":{"key":"15","code":"AR","name":"Appenzell Ausserrhoden"},"status":"Real"},{"key":"10180898","name":"Lederbach","postalCode":"9100","locality":"Herisau","commune":{"key":"3001","name":"Herisau","shortName":"Herisau"},"district":{"key":"1501","name":"Bezirk Hinterland"},"canton":{"key":"15","code":"AR","name":"Appenzell Ausserrhoden"},"status":"Real"},{"key":"10031294","name":"Lehn","postalCode":"9112","locality":"Schachen b. Herisau","commune":{"key":"3001","name":"Herisau","shortName":"Herisau"},"district":{"key":"1501","name":"Bezirk Hinterland"},"canton":{"key":"15","code":"AR","name":"Appenzell Ausserrhoden"},"status":"Real"},{"key":"10091424","name":"Lilienweg","postalCode":"9100","locality":"Herisau","commune":{"key":"3001","name":"Herisau","shortName":"Herisau"},"district":{"key":"1501","name":"Bezirk Hinterland"},"canton":{"key":"15","code":"AR","name":"Appenzell Ausserrhoden"},"status":"Real"},{"key":"10026879","name":"Lindenauweg","postalCode":"9100","locality":"Herisau","commune":{"key":"3001","name":"Herisau","shortName":"Herisau"},"district":{"key":"1501","name":"Bezirk Hinterland"},"canton":{"key":"15","code":"AR","name":"Appenzell Ausserrhoden"},"status":"Real"},{"key":"10033030","name":"Lindenstrasse","postalCode":"9100","locality":"Herisau","commune":{"key":"3001","name":"Herisau","shortName":"Herisau"},"district":{"key":"1501","name":"Bezirk Hinterland"},"canton":{"key":"15","code":"AR","name":"Appenzell Ausserrhoden"},"status":"Real"},{"key":"10073134","name":"Lindenwis","postalCode":"9100","locality":"Herisau","commune":{"key":"3001","name":"Herisau","shortName":"Herisau"},"district":{"key":"1501","name":"Bezirk Hinterland"},"canton":{"key":"15","code":"AR","name":"Appenzell Ausserrhoden"},"status":"Real"},{"key":"10033031","name":"Lutzenland","postalCode":"9100","locality":"Herisau","commune":{"key":"3001","name":"Herisau","shortName":"Herisau"},"district":{"key":"1501","name":"Bezirk Hinterland"},"canton":{"key":"15","code":"AR","name":"Appenzell Ausserrhoden"},"status":"Real"},{"key":"10033032","name":"Mättli","postalCode":"9100","locality":"Herisau","commune":{"key":"3001","name":"Herisau","shortName":"Herisau"},"district":{"key":"1501","name":"Bezirk Hinterland"},"canton":{"key":"15","code":"AR","name":"Appenzell Ausserrhoden"},"status":"Real"},{"key":"10117917","name":"Melonenstrasse","postalCode":"9100","locality":"Herisau","commune":{"key":"3001","name":"Herisau","shortName":"Herisau"},"district":{"key":"1501","name":"Bezirk Hinterland"},"canton":{"key":"15","code":"AR","name":"Appenzell Ausserrhoden"},"status":"Real"},{"key":"10073135","name":"Mittlere Kapfstrasse","postalCode":"9100","locality":"Herisau","commune":{"key":"3001","name":"Herisau","shortName":"Herisau"},"district":{"key":"1501","name":"Bezirk Hinterland"},"canton":{"key":"15","code":"AR","name":"Appenzell Ausserrhoden"},"status":"Real"},{"key":"10073136","name":"Moos","postalCode":"9112","locality":"Schachen b. Herisau","commune":{"key":"3001","name":"Herisau","shortName":"Herisau"},"district":{"key":"1501","name":"Bezirk Hinterland"},"canton":{"key":"15","code":"AR","name":"Appenzell Ausserrhoden"},"status":"Real"},{"key":"10091444","name":"Moosmühlestrasse","postalCode":"9112","locality":"Schachen b. Herisau","commune":{"key":"3001","name":"Herisau","shortName":"Herisau"},"district":{"key":"1501","name":"Bezirk Hinterland"},"canton":{"key":"15","code":"AR","name":"Appenzell Ausserrhoden"},"status":"Real"},{"key":"10113227","name":"Mösli","postalCode":"9100","locality":"Herisau","commune":{"key":"3001","name":"Herisau","shortName":"Herisau"},"district":{"key":"1501","name":"Bezirk Hinterland"},"canton":{"key":"15","code":"AR","name":"Appenzell Ausserrhoden"},"status":"Real"},{"key":"10121184","name":"Mühlebühl","postalCode":"9100","locality":"Herisau","commune":{"key":"3001","name":"Herisau","shortName":"Herisau"},"district":{"key":"1501","name":"Bezirk Hinterland"},"canton":{"key":"15","code":"AR","name":"Appenzell Ausserrhoden"},"status":"Real"},{"key":"10182693","name":"Mühlehof","postalCode":"9100","locality":"Herisau","commune":{"key":"3001","name":"Herisau","shortName":"Herisau"},"district":{"key":"1501","name":"Bezirk Hinterland"},"canton":{"key":"15","code":"AR","name":"Appenzell Ausserrhoden"},"status":"Real"},{"key":"10117744","name":"Mühlestrasse","postalCode":"9100","locality":"Herisau","commune":{"key":"3001","name":"Herisau","shortName":"Herisau"},"district":{"key":"1501","name":"Bezirk Hinterland"},"canton":{"key":"15","code":"AR","name":"Appenzell Ausserrhoden"},"status":"Real"},{"key":"10033033","name":"Nelkenstrasse","postalCode":"9100","locality":"Herisau","commune":{"key":"3001","name":"Herisau","shortName":"Herisau"},"district":{"key":"1501","name":"Bezirk Hinterland"},"canton":{"key":"15","code":"AR","name":"Appenzell Ausserrhoden"},"status":"Real"},{"key":"10091425","name":"Neue Steig","postalCode":"9100","locality":"Herisau","commune":{"key":"3001","name":"Herisau","shortName":"Herisau"},"district":{"key":"1501","name":"Bezirk Hinterland"},"canton":{"key":"15","code":"AR","name":"Appenzell Ausserrhoden"},"status":"Real"},{"key":"10091941","name":"Neurüdlen","postalCode":"9100","locality":"Herisau","commune":{"key":"3001","name":"Herisau","shortName":"Herisau"},"district":{"key":"1501","name":"Bezirk Hinterland"},"canton":{"key":"15","code":"AR","name":"Appenzell Ausserrhoden"},"status":"Real"},{"key":"10033035","name":"Nieschbergstrasse","postalCode":"9100","locality":"Herisau","commune":{"key":"3001","name":"Herisau","shortName":"Herisau"},"district":{"key":"1501","name":"Bezirk Hinterland"},"canton":{"key":"15","code":"AR","name":"Appenzell Ausserrhoden"},"status":"Real"},{"key":"10073137","name":"Nünegg","postalCode":"9112","locality":"Schachen b. Herisau","commune":{"key":"3001","name":"Herisau","shortName":"Herisau"},"district":{"key":"1501","name":"Bezirk Hinterland"},"canton":{"key":"15","code":"AR","name":"Appenzell Ausserrhoden"},"status":"Real"},{"key":"10073138","name":"Ob der Glatt","postalCode":"9100","locality":"Herisau","commune":{"key":"3001","name":"Herisau","shortName":"Herisau"},"district":{"key":"1501","name":"Bezirk Hinterland"},"canton":{"key":"15","code":"AR","name":"Appenzell Ausserrhoden"},"status":"Real"},{"key":"10118152","name":"Ob der Glattmüli","postalCode":"9100","locality":"Herisau","commune":{"key":"3001","name":"Herisau","shortName":"Herisau"},"district":{"key":"1501","name":"Bezirk Hinterland"},"canton":{"key":"15","code":"AR","name":"Appenzell Ausserrhoden"},"status":"Real"},{"key":"10033036","name":"Oberdorfstrasse","postalCode":"9100","locality":"Herisau","commune":{"key":"3001","name":"Herisau","shortName":"Herisau"},"district":{"key":"1501","name":"Bezirk Hinterland"},"canton":{"key":"15","code":"AR","name":"Appenzell Ausserrhoden"},"status":"Real"},{"key":"10187879","name":"Obere Bleichi","postalCode":"9100","locality":"Herisau","commune":{"key":"3001","name":"Herisau","shortName":"Herisau"},"district":{"key":"1501","name":"Bezirk Hinterland"},"canton":{"key":"15","code":"AR","name":"Appenzell Ausserrhoden"},"status":"Real"},{"key":"10046640","name":"Obere Harfenbergstrasse","postalCode":"9100","locality":"Herisau","commune":{"key":"3001","name":"Herisau","shortName":"Herisau"},"district":{"key":"1501","name":"Bezirk Hinterland"},"canton":{"key":"15","code":"AR","name":"Appenzell Ausserrhoden"},"status":"Real"},{"key":"10091426","name":"Obere Huebstrasse","postalCode":"9100","locality":"Herisau","commune":{"key":"3001","name":"Herisau","shortName":"Herisau"},"district":{"key":"1501","name":"Bezirk Hinterland"},"canton":{"key":"15","code":"AR","name":"Appenzell Ausserrhoden"},"status":"Real"},{"key":"10073139","name":"Obere Kapfstrasse","postalCode":"9100","locality":"Herisau","commune":{"key":"3001","name":"Herisau","shortName":"Herisau"},"district":{"key":"1501","name":"Bezirk Hinterland"},"canton":{"key":"15","code":"AR","name":"Appenzell Ausserrhoden"},"status":"Real"},{"key":"10182694","name":"Oberer Toracker","postalCode":"9100","locality":"Herisau","commune":{"key":"3001","name":"Herisau","shortName":"Herisau"},"district":{"key":"1501","name":"Bezirk Hinterland"},"canton":{"key":"15","code":"AR","name":"Appenzell Ausserrhoden"},"status":"Real"},{"key":"10113228","name":"Obere Sonnenbergstrasse","postalCode":"9100","locality":"Herisau","commune":{"key":"3001","name":"Herisau","shortName":"Herisau"},"district":{"key":"1501","name":"Bezirk Hinterland"},"canton":{"key":"15","code":"AR","name":"Appenzell Ausserrhoden"},"status":"Real"},{"key":"10091427","name":"Obere Wilenhalde","postalCode":"9100","locality":"Herisau","commune":{"key":"3001","name":"Herisau","shortName":"Herisau"},"district":{"key":"1501","name":"Bezirk Hinterland"},"canton":{"key":"15","code":"AR","name":"Appenzell Ausserrhoden"},"status":"Real"},{"key":"10033037","name":"Obermoosberg","postalCode":"9100","locality":"Herisau","commune":{"key":"3001","name":"Herisau","shortName":"Herisau"},"district":{"key":"1501","name":"Bezirk Hinterland"},"canton":{"key":"15","code":"AR","name":"Appenzell Ausserrhoden"},"status":"Real"},{"key":"10107220","name":"Obermoosbergstrasse","postalCode":"9100","locality":"Herisau","commune":{"key":"3001","name":"Herisau","shortName":"Herisau"},"district":{"key":"1501","name":"Bezirk Hinterland"},"canton":{"key":"15","code":"AR","name":"Appenzell Ausserrhoden"},"status":"Real"},{"key":"10180899","name":"Obstmarkt","postalCode":"9100","locality":"Herisau","commune":{"key":"3001","name":"Herisau","shortName":"Herisau"},"district":{"key":"1501","name":"Bezirk Hinterland"},"canton":{"key":"15","code":"AR","name":"Appenzell Ausserrhoden"},"status":"Real"},{"key":"10058936","name":"Platz","postalCode":"9100","locality":"Herisau","commune":{"key":"3001","name":"Herisau","shortName":"Herisau"},"district":{"key":"1501","name":"Bezirk Hinterland"},"canton":{"key":"15","code":"AR","name":"Appenzell Ausserrhoden"},"status":"Real"},{"key":"10031258","name":"Poststrasse","postalCode":"9100","locality":"Herisau","commune":{"key":"3001","name":"Herisau","shortName":"Herisau"},"district":{"key":"1501","name":"Bezirk Hinterland"},"canton":{"key":"15","code":"AR","name":"Appenzell Ausserrhoden"},"status":"Real"},{"key":"10091428","name":"Ramsen","postalCode":"9100","locality":"Herisau","commune":{"key":"3001","name":"Herisau","shortName":"Herisau"},"district":{"key":"1501","name":"Bezirk Hinterland"},"canton":{"key":"15","code":"AR","name":"Appenzell Ausserrhoden"},"status":"Real"},{"key":"10129731","name":"Ramsenburgweg","postalCode":"9100","locality":"Herisau","commune":{"key":"3001","name":"Herisau","shortName":"Herisau"},"district":{"key":"1501","name":"Bezirk Hinterland"},"canton":{"key":"15","code":"AR","name":"Appenzell Ausserrhoden"},"status":"Real"},{"key":"10031259","name":"Rechberg","postalCode":"9100","locality":"Herisau","commune":{"key":"3001","name":"Herisau","shortName":"Herisau"},"district":{"key":"1501","name":"Bezirk Hinterland"},"canton":{"key":"15","code":"AR","name":"Appenzell Ausserrhoden"},"status":"Real"},{"key":"10031260","name":"Rechbergstrasse","postalCode":"9100","locality":"Herisau","commune":{"key":"3001","name":"Herisau","shortName":"Herisau"},"district":{"key":"1501","name":"Bezirk Hinterland"},"canton":{"key":"15","code":"AR","name":"Appenzell Ausserrhoden"},"status":"Real"},{"key":"10046641","name":"Rietwisstrasse","postalCode":"9100","locality":"Herisau","commune":{"key":"3001","name":"Herisau","shortName":"Herisau"},"district":{"key":"1501","name":"Bezirk Hinterland"},"canton":{"key":"15","code":"AR","name":"Appenzell Ausserrhoden"},"status":"Real"},{"key":"10091429","name":"Robert-Walser-Strasse","postalCode":"9100","locality":"Herisau","commune":{"key":"3001","name":"Herisau","shortName":"Herisau"},"district":{"key":"1501","name":"Bezirk Hinterland"},"canton":{"key":"15","code":"AR","name":"Appenzell Ausserrhoden"},"status":"Real"},{"key":"10073140","name":"Rohren","postalCode":"9100","locality":"Herisau","commune":{"key":"3001","name":"Herisau","shortName":"Herisau"},"district":{"key":"1501","name":"Bezirk Hinterland"},"canton":{"key":"15","code":"AR","name":"Appenzell Ausserrhoden"},"status":"Real"},{"key":"10031261","name":"Rohrenstrasse","postalCode":"9100","locality":"Herisau","commune":{"key":"3001","name":"Herisau","shortName":"Herisau"},"district":{"key":"1501","name":"Bezirk Hinterland"},"canton":{"key":"15","code":"AR","name":"Appenzell Ausserrhoden"},"status":"Real"},{"key":"10031262","name":"Rondellenstrasse","postalCode":"9100","locality":"Herisau","commune":{"key":"3001","name":"Herisau","shortName":"Herisau"},"district":{"key":"1501","name":"Bezirk Hinterland"},"canton":{"key":"15","code":"AR","name":"Appenzell Ausserrhoden"},"status":"Real"},{"key":"10073141","name":"Rosenaustrasse","postalCode":"9100","locality":"Herisau","commune":{"key":"3001","name":"Herisau","shortName":"Herisau"},"district":{"key":"1501","name":"Bezirk Hinterland"},"canton":{"key":"15","code":"AR","name":"Appenzell Ausserrhoden"},"status":"Real"},{"key":"10252317","name":"Roserwald","postalCode":"9100","locality":"Herisau","commune":{"key":"3001","name":"Herisau","shortName":"Herisau"},"district":{"key":"1501","name":"Bezirk Hinterland"},"canton":{"key":"15","code":"AR","name":"Appenzell Ausserrhoden"},"status":"Real"},{"key":"10232344","name":"Roserwaldweg","postalCode":"9100","locality":"Herisau","commune":{"key":"3001","name":"Herisau","shortName":"Herisau"},"district":{"key":"1501","name":"Bezirk Hinterland"},"canton":{"key":"15","code":"AR","name":"Appenzell Ausserrhoden"},"status":"Real"},{"key":"10097342","name":"Rüdlen","postalCode":"9100","locality":"Herisau","commune":{"key":"3001","name":"Herisau","shortName":"Herisau"},"district":{"key":"1501","name":"Bezirk Hinterland"},"canton":{"key":"15","code":"AR","name":"Appenzell Ausserrhoden"},"status":"Real"},{"key":"10232356","name":"Rüdlenstrasse","postalCode":"9100","locality":"Herisau","commune":{"key":"3001","name":"Herisau","shortName":"Herisau"},"district":{"key":"1501","name":"Bezirk Hinterland"},"canton":{"key":"15","code":"AR","name":"Appenzell Ausserrhoden"},"status":"Real"},{"key":"10232360","name":"Rüdlenweg","postalCode":"9100","locality":"Herisau","commune":{"key":"3001","name":"Herisau","shortName":"Herisau"},"district":{"key":"1501","name":"Bezirk Hinterland"},"canton":{"key":"15","code":"AR","name":"Appenzell Ausserrhoden"},"status":"Real"},{"key":"10031263","name":"Rüti","postalCode":"9100","locality":"Herisau","commune":{"key":"3001","name":"Herisau","shortName":"Herisau"},"district":{"key":"1501","name":"Bezirk Hinterland"},"canton":{"key":"15","code":"AR","name":"Appenzell Ausserrhoden"},"status":"Real"},{"key":"10031264","name":"Rütihalde","postalCode":"9100","locality":"Herisau","commune":{"key":"3001","name":"Herisau","shortName":"Herisau"},"district":{"key":"1501","name":"Bezirk Hinterland"},"canton":{"key":"15","code":"AR","name":"Appenzell Ausserrhoden"},"status":"Real"},{"key":"10091430","name":"Rütistrasse","postalCode":"9100","locality":"Herisau","commune":{"key":"3001","name":"Herisau","shortName":"Herisau"},"district":{"key":"1501","name":"Bezirk Hinterland"},"canton":{"key":"15","code":"AR","name":"Appenzell Ausserrhoden"},"status":"Real"},{"key":"10182695","name":"Rütiwaldstrasse","postalCode":"9100","locality":"Herisau","commune":{"key":"3001","name":"Herisau","shortName":"Herisau"},"district":{"key":"1501","name":"Bezirk Hinterland"},"canton":{"key":"15","code":"AR","name":"Appenzell Ausserrhoden"},"status":"Real"},{"key":"10008804","name":"Rütiweg","postalCode":"9100","locality":"Herisau","commune":{"key":"3001","name":"Herisau","shortName":"Herisau"},"district":{"key":"1501","name":"Bezirk Hinterland"},"canton":{"key":"15","code":"AR","name":"Appenzell Ausserrhoden"},"status":"Real"},{"key":"10042740","name":"Sangen","postalCode":"9112","locality":"Schachen b. Herisau","commune":{"key":"3001","name":"Herisau","shortName":"Herisau"},"district":{"key":"1501","name":"Bezirk Hinterland"},"canton":{"key":"15","code":"AR","name":"Appenzell Ausserrhoden"},"status":"Real"},{"key":"10091438","name":"Säntisstrasse","postalCode":"9100","locality":"Herisau","commune":{"key":"3001","name":"Herisau","shortName":"Herisau"},"district":{"key":"1501","name":"Bezirk Hinterland"},"canton":{"key":"15","code":"AR","name":"Appenzell Ausserrhoden"},"status":"Real"},{"key":"10031265","name":"Saum","postalCode":"9100","locality":"Herisau","commune":{"key":"3001","name":"Herisau","shortName":"Herisau"},"district":{"key":"1501","name":"Bezirk Hinterland"},"canton":{"key":"15","code":"AR","name":"Appenzell Ausserrhoden"},"status":"Real"},{"key":"10113229","name":"Saumhalde","postalCode":"9100","locality":"Herisau","commune":{"key":"3001","name":"Herisau","shortName":"Herisau"},"district":{"key":"1501","name":"Bezirk Hinterland"},"canton":{"key":"15","code":"AR","name":"Appenzell Ausserrhoden"},"status":"Real"},{"key":"10190668","name":"Saumstrasse","postalCode":"9100","locality":"Herisau","commune":{"key":"3001","name":"Herisau","shortName":"Herisau"},"district":{"key":"1501","name":"Bezirk Hinterland"},"canton":{"key":"15","code":"AR","name":"Appenzell Ausserrhoden"},"status":"Real"},{"key":"10187882","name":"Schachen","postalCode":"9112","locality":"Schachen b. Herisau","commune":{"key":"3001","name":"Herisau","shortName":"Herisau"},"district":{"key":"1501","name":"Bezirk Hinterland"},"canton":{"key":"15","code":"AR","name":"Appenzell Ausserrhoden"},"status":"Real"},{"key":"10124091","name":"Schägg","postalCode":"9100","locality":"Herisau","commune":{"key":"3001","name":"Herisau","shortName":"Herisau"},"district":{"key":"1501","name":"Bezirk Hinterland"},"canton":{"key":"15","code":"AR","name":"Appenzell Ausserrhoden"},"status":"Real"},{"key":"10073143","name":"Scheffelstrasse","postalCode":"9100","locality":"Herisau","commune":{"key":"3001","name":"Herisau","shortName":"Herisau"},"district":{"key":"1501","name":"Bezirk Hinterland"},"canton":{"key":"15","code":"AR","name":"Appenzell Ausserrhoden"},"status":"Real"},{"key":"10031266","name":"Scheibe","postalCode":"9100","locality":"Herisau","commune":{"key":"3001","name":"Herisau","shortName":"Herisau"},"district":{"key":"1501","name":"Bezirk Hinterland"},"canton":{"key":"15","code":"AR","name":"Appenzell Ausserrhoden"},"status":"Real"},{"key":"10126416","name":"Schlossbleiche","postalCode":"9100","locality":"Herisau","commune":{"key":"3001","name":"Herisau","shortName":"Herisau"},"district":{"key":"1501","name":"Bezirk Hinterland"},"canton":{"key":"15","code":"AR","name":"Appenzell Ausserrhoden"},"status":"Real"},{"key":"10031267","name":"Schlossstrasse","postalCode":"9100","locality":"Herisau","commune":{"key":"3001","name":"Herisau","shortName":"Herisau"},"district":{"key":"1501","name":"Bezirk Hinterland"},"canton":{"key":"15","code":"AR","name":"Appenzell Ausserrhoden"},"status":"Real"},{"key":"10091431","name":"Schlosswilen","postalCode":"9100","locality":"Herisau","commune":{"key":"3001","name":"Herisau","shortName":"Herisau"},"district":{"key":"1501","name":"Bezirk Hinterland"},"canton":{"key":"15","code":"AR","name":"Appenzell Ausserrhoden"},"status":"Real"},{"key":"10054682","name":"Schluch","postalCode":"9100","locality":"Herisau","commune":{"key":"3001","name":"Herisau","shortName":"Herisau"},"district":{"key":"1501","name":"Bezirk Hinterland"},"canton":{"key":"15","code":"AR","name":"Appenzell Ausserrhoden"},"status":"Real"},{"key":"10031268","name":"Schluch","postalCode":"9100","locality":"Herisau","commune":{"key":"3001","name":"Herisau","shortName":"Herisau"},"district":{"key":"1501","name":"Bezirk Hinterland"},"canton":{"key":"15","code":"AR","name":"Appenzell Ausserrhoden"},"status":"Real"},{"key":"10073144","name":"Schmidhusen","postalCode":"9100","locality":"Herisau","commune":{"key":"3001","name":"Herisau","shortName":"Herisau"},"district":{"key":"1501","name":"Bezirk Hinterland"},"canton":{"key":"15","code":"AR","name":"Appenzell Ausserrhoden"},"status":"Real"},{"key":"10031269","name":"Schmiedgasse","postalCode":"9100","locality":"Herisau","commune":{"key":"3001","name":"Herisau","shortName":"Herisau"},"district":{"key":"1501","name":"Bezirk Hinterland"},"canton":{"key":"15","code":"AR","name":"Appenzell Ausserrhoden"},"status":"Real"},{"key":"10104516","name":"Schnaggen","postalCode":"9100","locality":"Herisau","commune":{"key":"3001","name":"Herisau","shortName":"Herisau"},"district":{"key":"1501","name":"Bezirk Hinterland"},"canton":{"key":"15","code":"AR","name":"Appenzell Ausserrhoden"},"status":"Real"},{"key":"10031270","name":"Schochenberg","postalCode":"9100","locality":"Herisau","commune":{"key":"3001","name":"Herisau","shortName":"Herisau"},"district":{"key":"1501","name":"Bezirk Hinterland"},"canton":{"key":"15","code":"AR","name":"Appenzell Ausserrhoden"},"status":"Real"},{"key":"10070199","name":"Schochenberg","postalCode":"9100","locality":"Herisau","commune":{"key":"3001","name":"Herisau","shortName":"Herisau"},"district":{"key":"1501","name":"Bezirk Hinterland"},"canton":{"key":"15","code":"AR","name":"Appenzell Ausserrhoden"},"status":"Real"},{"key":"10091432","name":"Schochenbergstrasse","postalCode":"9100","locality":"Herisau","commune":{"key":"3001","name":"Herisau","shortName":"Herisau"},"district":{"key":"1501","name":"Bezirk Hinterland"},"canton":{"key":"15","code":"AR","name":"Appenzell Ausserrhoden"},"status":"Real"},{"key":"10232404","name":"Schochenbergstrasse","postalCode":"9100","locality":"Herisau","commune":{"key":"3001","name":"Herisau","shortName":"Herisau"},"district":{"key":"1501","name":"Bezirk Hinterland"},"canton":{"key":"15","code":"AR","name":"Appenzell Ausserrhoden"},"status":"Real"},{"key":"10103237","name":"Schulhausstrasse","postalCode":"9100","locality":"Herisau","commune":{"key":"3001","name":"Herisau","shortName":"Herisau"},"district":{"key":"1501","name":"Bezirk Hinterland"},"canton":{"key":"15","code":"AR","name":"Appenzell Ausserrhoden"},"status":"Real"},{"key":"10091433","name":"Schützenstrasse","postalCode":"9100","locality":"Herisau","commune":{"key":"3001","name":"Herisau","shortName":"Herisau"},"district":{"key":"1501","name":"Bezirk Hinterland"},"canton":{"key":"15","code":"AR","name":"Appenzell Ausserrhoden"},"status":"Real"},{"key":"10031272","name":"Schwänberg","postalCode":"9100","locality":"Herisau","commune":{"key":"3001","name":"Herisau","shortName":"Herisau"},"district":{"key":"1501","name":"Bezirk Hinterland"},"canton":{"key":"15","code":"AR","name":"Appenzell Ausserrhoden"},"status":"Real"},{"key":"10031271","name":"Schwanholz","postalCode":"9100","locality":"Herisau","commune":{"key":"3001","name":"Herisau","shortName":"Herisau"},"district":{"key":"1501","name":"Bezirk Hinterland"},"canton":{"key":"15","code":"AR","name":"Appenzell Ausserrhoden"},"status":"Real"},{"key":"10182696","name":"Schwellbrunnerstrasse","postalCode":"9100","locality":"Herisau","commune":{"key":"3001","name":"Herisau","shortName":"Herisau"},"district":{"key":"1501","name":"Bezirk Hinterland"},"canton":{"key":"15","code":"AR","name":"Appenzell Ausserrhoden"},"status":"Real"},{"key":"10053548","name":"Sedel","postalCode":"9100","locality":"Herisau","commune":{"key":"3001","name":"Herisau","shortName":"Herisau"},"district":{"key":"1501","name":"Bezirk Hinterland"},"canton":{"key":"15","code":"AR","name":"Appenzell Ausserrhoden"},"status":"Real"},{"key":"10031273","name":"Sedelstrasse","postalCode":"9100","locality":"Herisau","commune":{"key":"3001","name":"Herisau","shortName":"Herisau"},"district":{"key":"1501","name":"Bezirk Hinterland"},"canton":{"key":"15","code":"AR","name":"Appenzell Ausserrhoden"},"status":"Real"},{"key":"10211954","name":"Sonnauweg","postalCode":"9100","locality":"Herisau","commune":{"key":"3001","name":"Herisau","shortName":"Herisau"},"district":{"key":"1501","name":"Bezirk Hinterland"},"canton":{"key":"15","code":"AR","name":"Appenzell Ausserrhoden"},"status":"Real"},{"key":"10180900","name":"Sonneggstrasse","postalCode":"9100","locality":"Herisau","commune":{"key":"3001","name":"Herisau","shortName":"Herisau"},"district":{"key":"1501","name":"Bezirk Hinterland"},"canton":{"key":"15","code":"AR","name":"Appenzell Ausserrhoden"},"status":"Real"},{"key":"10113230","name":"Sonnenberg","postalCode":"9100","locality":"Herisau","commune":{"key":"3001","name":"Herisau","shortName":"Herisau"},"district":{"key":"1501","name":"Bezirk Hinterland"},"canton":{"key":"15","code":"AR","name":"Appenzell Ausserrhoden"},"status":"Real"},{"key":"10091434","name":"Sonnenbergstrasse","postalCode":"9100","locality":"Herisau","commune":{"key":"3001","name":"Herisau","shortName":"Herisau"},"district":{"key":"1501","name":"Bezirk Hinterland"},"canton":{"key":"15","code":"AR","name":"Appenzell Ausserrhoden"},"status":"Real"},{"key":"10187880","name":"Sonnenbergweg","postalCode":"9100","locality":"Herisau","commune":{"key":"3001","name":"Herisau","shortName":"Herisau"},"district":{"key":"1501","name":"Bezirk Hinterland"},"canton":{"key":"15","code":"AR","name":"Appenzell Ausserrhoden"},"status":"Real"},{"key":"10031274","name":"Sonnenböhl","postalCode":"9100","locality":"Herisau","commune":{"key":"3001","name":"Herisau","shortName":"Herisau"},"district":{"key":"1501","name":"Bezirk Hinterland"},"canton":{"key":"15","code":"AR","name":"Appenzell Ausserrhoden"},"status":"Real"},{"key":"10073145","name":"Sonnenböhlstrasse","postalCode":"9100","locality":"Herisau","commune":{"key":"3001","name":"Herisau","shortName":"Herisau"},"district":{"key":"1501","name":"Bezirk Hinterland"},"canton":{"key":"15","code":"AR","name":"Appenzell Ausserrhoden"},"status":"Real"},{"key":"10031275","name":"Sonnenfeldstrasse","postalCode":"9100","locality":"Herisau","commune":{"key":"3001","name":"Herisau","shortName":"Herisau"},"district":{"key":"1501","name":"Bezirk Hinterland"},"canton":{"key":"15","code":"AR","name":"Appenzell Ausserrhoden"},"status":"Real"},{"key":"10091435","name":"Sonnenhof","postalCode":"9100","locality":"Herisau","commune":{"key":"3001","name":"Herisau","shortName":"Herisau"},"district":{"key":"1501","name":"Bezirk Hinterland"},"canton":{"key":"15","code":"AR","name":"Appenzell Ausserrhoden"},"status":"Real"},{"key":"10031276","name":"Sonnental","postalCode":"9100","locality":"Herisau","commune":{"key":"3001","name":"Herisau","shortName":"Herisau"},"district":{"key":"1501","name":"Bezirk Hinterland"},"canton":{"key":"15","code":"AR","name":"Appenzell Ausserrhoden"},"status":"Real"},{"key":"10031277","name":"Sonnhaldenweg","postalCode":"9100","locality":"Herisau","commune":{"key":"3001","name":"Herisau","shortName":"Herisau"},"district":{"key":"1501","name":"Bezirk Hinterland"},"canton":{"key":"15","code":"AR","name":"Appenzell Ausserrhoden"},"status":"Real"},{"key":"10152987","name":"Spitalstrasse","postalCode":"9100","locality":"Herisau","commune":{"key":"3001","name":"Herisau","shortName":"Herisau"},"district":{"key":"1501","name":"Bezirk Hinterland"},"canton":{"key":"15","code":"AR","name":"Appenzell Ausserrhoden"},"status":"Real"},{"key":"10073146","name":"Spittel","postalCode":"9100","locality":"Herisau","commune":{"key":"3001","name":"Herisau","shortName":"Herisau"},"district":{"key":"1501","name":"Bezirk Hinterland"},"canton":{"key":"15","code":"AR","name":"Appenzell Ausserrhoden"},"status":"Real"},{"key":"10103238","name":"Städeliweg","postalCode":"9100","locality":"Herisau","commune":{"key":"3001","name":"Herisau","shortName":"Herisau"},"district":{"key":"1501","name":"Bezirk Hinterland"},"canton":{"key":"15","code":"AR","name":"Appenzell Ausserrhoden"},"status":"Real"},{"key":"10211958","name":"Stäggelenberg","postalCode":"9112","locality":"Schachen b. Herisau","commune":{"key":"3001","name":"Herisau","shortName":"Herisau"},"district":{"key":"1501","name":"Bezirk Hinterland"},"canton":{"key":"15","code":"AR","name":"Appenzell Ausserrhoden"},"status":"Real"},{"key":"10091436","name":"Steinegg","postalCode":"9100","locality":"Herisau","commune":{"key":"3001","name":"Herisau","shortName":"Herisau"},"district":{"key":"1501","name":"Bezirk Hinterland"},"canton":{"key":"15","code":"AR","name":"Appenzell Ausserrhoden"},"status":"Real"},{"key":"10031278","name":"Steinrieselnstrasse","postalCode":"9100","locality":"Herisau","commune":{"key":"3001","name":"Herisau","shortName":"Herisau"},"district":{"key":"1501","name":"Bezirk Hinterland"},"canton":{"key":"15","code":"AR","name":"Appenzell Ausserrhoden"},"status":"Real"},{"key":"10073147","name":"Stelz","postalCode":"9100","locality":"Herisau","commune":{"key":"3001","name":"Herisau","shortName":"Herisau"},"district":{"key":"1501","name":"Bezirk Hinterland"},"canton":{"key":"15","code":"AR","name":"Appenzell Ausserrhoden"},"status":"Real"},{"key":"10073142","name":"St. Gallerstrasse","postalCode":"9100","locality":"Herisau","commune":{"key":"3001","name":"Herisau","shortName":"Herisau"},"district":{"key":"1501","name":"Bezirk Hinterland"},"canton":{"key":"15","code":"AR","name":"Appenzell Ausserrhoden"},"status":"Real"},{"key":"10091437","name":"Stierweid","postalCode":"9100","locality":"Herisau","commune":{"key":"3001","name":"Herisau","shortName":"Herisau"},"district":{"key":"1501","name":"Bezirk Hinterland"},"canton":{"key":"15","code":"AR","name":"Appenzell Ausserrhoden"},"status":"Real"},{"key":"10117745","name":"Stuel","postalCode":"9112","locality":"Schachen b. Herisau","commune":{"key":"3001","name":"Herisau","shortName":"Herisau"},"district":{"key":"1501","name":"Bezirk Hinterland"},"canton":{"key":"15","code":"AR","name":"Appenzell Ausserrhoden"},"status":"Real"},{"key":"10182697","name":"Sturzenegg","postalCode":"9100","locality":"Herisau","commune":{"key":"3001","name":"Herisau","shortName":"Herisau"},"district":{"key":"1501","name":"Bezirk Hinterland"},"canton":{"key":"15","code":"AR","name":"Appenzell Ausserrhoden"},"status":"Real"},{"key":"10031280","name":"Talweg","postalCode":"9100","locality":"Herisau","commune":{"key":"3001","name":"Herisau","shortName":"Herisau"},"district":{"key":"1501","name":"Bezirk Hinterland"},"canton":{"key":"15","code":"AR","name":"Appenzell Ausserrhoden"},"status":"Real"},{"key":"10031281","name":"Tan","postalCode":"9100","locality":"Herisau","commune":{"key":"3001","name":"Herisau","shortName":"Herisau"},"district":{"key":"1501","name":"Bezirk Hinterland"},"canton":{"key":"15","code":"AR","name":"Appenzell Ausserrhoden"},"status":"Real"},{"key":"10031282","name":"Tobelackerstrasse","postalCode":"9100","locality":"Herisau","commune":{"key":"3001","name":"Herisau","shortName":"Herisau"},"district":{"key":"1501","name":"Bezirk Hinterland"},"canton":{"key":"15","code":"AR","name":"Appenzell Ausserrhoden"},"status":"Real"},{"key":"10169100","name":"Toracker Park","postalCode":"9100","locality":"Herisau","commune":{"key":"3001","name":"Herisau","shortName":"Herisau"},"district":{"key":"1501","name":"Bezirk Hinterland"},"canton":{"key":"15","code":"AR","name":"Appenzell Ausserrhoden"},"status":"Real"},{"key":"10073148","name":"Torackerstrasse","postalCode":"9100","locality":"Herisau","commune":{"key":"3001","name":"Herisau","shortName":"Herisau"},"district":{"key":"1501","name":"Bezirk Hinterland"},"canton":{"key":"15","code":"AR","name":"Appenzell Ausserrhoden"},"status":"Real"},{"key":"10190669","name":"Triangelstrasse","postalCode":"9100","locality":"Herisau","commune":{"key":"3001","name":"Herisau","shortName":"Herisau"},"district":{"key":"1501","name":"Bezirk Hinterland"},"canton":{"key":"15","code":"AR","name":"Appenzell Ausserrhoden"},"status":"Real"},{"key":"10113231","name":"Triangelweg","postalCode":"9100","locality":"Herisau","commune":{"key":"3001","name":"Herisau","shortName":"Herisau"},"district":{"key":"1501","name":"Bezirk Hinterland"},"canton":{"key":"15","code":"AR","name":"Appenzell Ausserrhoden"},"status":"Real"},{"key":"10031283","name":"Tüfenaustrasse","postalCode":"9100","locality":"Herisau","commune":{"key":"3001","name":"Herisau","shortName":"Herisau"},"district":{"key":"1501","name":"Bezirk Hinterland"},"canton":{"key":"15","code":"AR","name":"Appenzell Ausserrhoden"},"status":"Real"},{"key":"10031284","name":"Tüfi","postalCode":"9100","locality":"Herisau","commune":{"key":"3001","name":"Herisau","shortName":"Herisau"},"district":{"key":"1501","name":"Bezirk Hinterland"},"canton":{"key":"15","code":"AR","name":"Appenzell Ausserrhoden"},"status":"Real"},{"key":"10073149","name":"Ufem Berg","postalCode":"9100","locality":"Herisau","commune":{"key":"3001","name":"Herisau","shortName":"Herisau"},"district":{"key":"1501","name":"Bezirk Hinterland"},"canton":{"key":"15","code":"AR","name":"Appenzell Ausserrhoden"},"status":"Real"},{"key":"10182698","name":"Ufem Tobel","postalCode":"9100","locality":"Herisau","commune":{"key":"3001","name":"Herisau","shortName":"Herisau"},"district":{"key":"1501","name":"Bezirk Hinterland"},"canton":{"key":"15","code":"AR","name":"Appenzell Ausserrhoden"},"status":"Real"},{"key":"10091439","name":"Untere Fabrik","postalCode":"9100","locality":"Herisau","commune":{"key":"3001","name":"Herisau","shortName":"Herisau"},"district":{"key":"1501","name":"Bezirk Hinterland"},"canton":{"key":"15","code":"AR","name":"Appenzell Ausserrhoden"},"status":"Real"},{"key":"10103239","name":"Untere Harfenbergstrasse","postalCode":"9100","locality":"Herisau","commune":{"key":"3001","name":"Herisau","shortName":"Herisau"},"district":{"key":"1501","name":"Bezirk Hinterland"},"canton":{"key":"15","code":"AR","name":"Appenzell Ausserrhoden"},"status":"Real"},{"key":"10187881","name":"Untere Kapfstrasse","postalCode":"9100","locality":"Herisau","commune":{"key":"3001","name":"Herisau","shortName":"Herisau"},"district":{"key":"1501","name":"Bezirk Hinterland"},"canton":{"key":"15","code":"AR","name":"Appenzell Ausserrhoden"},"status":"Real"},{"key":"10118153","name":"Untere Melonenstrasse","postalCode":"9100","locality":"Herisau","commune":{"key":"3001","name":"Herisau","shortName":"Herisau"},"district":{"key":"1501","name":"Bezirk Hinterland"},"canton":{"key":"15","code":"AR","name":"Appenzell Ausserrhoden"},"status":"Real"},{"key":"10031285","name":"Untere Sonnenbergstrasse","postalCode":"9100","locality":"Herisau","commune":{"key":"3001","name":"Herisau","shortName":"Herisau"},"district":{"key":"1501","name":"Bezirk Hinterland"},"canton":{"key":"15","code":"AR","name":"Appenzell Ausserrhoden"},"status":"Real"},{"key":"10031286","name":"Untere Steinegg","postalCode":"9100","locality":"Herisau","commune":{"key":"3001","name":"Herisau","shortName":"Herisau"},"district":{"key":"1501","name":"Bezirk Hinterland"},"canton":{"key":"15","code":"AR","name":"Appenzell Ausserrhoden"},"status":"Real"},{"key":"10055813","name":"Vereinsacker","postalCode":"9100","locality":"Herisau","commune":{"key":"3001","name":"Herisau","shortName":"Herisau"},"district":{"key":"1501","name":"Bezirk Hinterland"},"canton":{"key":"15","code":"AR","name":"Appenzell Ausserrhoden"},"status":"Real"},{"key":"10091440","name":"Viaduktstrasse","postalCode":"9100","locality":"Herisau","commune":{"key":"3001","name":"Herisau","shortName":"Herisau"},"district":{"key":"1501","name":"Bezirk Hinterland"},"canton":{"key":"15","code":"AR","name":"Appenzell Ausserrhoden"},"status":"Real"},{"key":"10252322","name":"Wachtenegg","postalCode":"9100","locality":"Herisau","commune":{"key":"3001","name":"Herisau","shortName":"Herisau"},"district":{"key":"1501","name":"Bezirk Hinterland"},"canton":{"key":"15","code":"AR","name":"Appenzell Ausserrhoden"},"status":"Real"},{"key":"10031287","name":"Waisenhausstrasse","postalCode":"9100","locality":"Herisau","commune":{"key":"3001","name":"Herisau","shortName":"Herisau"},"district":{"key":"1501","name":"Bezirk Hinterland"},"canton":{"key":"15","code":"AR","name":"Appenzell Ausserrhoden"},"status":"Real"},{"key":"10073150","name":"Wald","postalCode":"9100","locality":"Herisau","commune":{"key":"3001","name":"Herisau","shortName":"Herisau"},"district":{"key":"1501","name":"Bezirk Hinterland"},"canton":{"key":"15","code":"AR","name":"Appenzell Ausserrhoden"},"status":"Real"},{"key":"10031288","name":"Waldeggstrasse","postalCode":"9100","locality":"Herisau","commune":{"key":"3001","name":"Herisau","shortName":"Herisau"},"district":{"key":"1501","name":"Bezirk Hinterland"},"canton":{"key":"15","code":"AR","name":"Appenzell Ausserrhoden"},"status":"Real"},{"key":"10242280","name":"Waldeggweg","postalCode":"9100","locality":"Herisau","commune":{"key":"3001","name":"Herisau","shortName":"Herisau"},"district":{"key":"1501","name":"Bezirk Hinterland"},"canton":{"key":"15","code":"AR","name":"Appenzell Ausserrhoden"},"status":"Planned"},{"key":"10073151","name":"Walke","postalCode":"9100","locality":"Herisau","commune":{"key":"3001","name":"Herisau","shortName":"Herisau"},"district":{"key":"1501","name":"Bezirk Hinterland"},"canton":{"key":"15","code":"AR","name":"Appenzell Ausserrhoden"},"status":"Real"},{"key":"10182699","name":"Wanne","postalCode":"9100","locality":"Herisau","commune":{"key":"3001","name":"Herisau","shortName":"Herisau"},"district":{"key":"1501","name":"Bezirk Hinterland"},"canton":{"key":"15","code":"AR","name":"Appenzell Ausserrhoden"},"status":"Real"},{"key":"10182699","name":"Wanne","postalCode":"9112","locality":"Schachen b. Herisau","commune":{"key":"3001","name":"Herisau","shortName":"Herisau"},"district":{"key":"1501","name":"Bezirk Hinterland"},"canton":{"key":"15","code":"AR","name":"Appenzell Ausserrhoden"},"status":"Real"},{"key":"10091441","name":"Warteggstrasse","postalCode":"9100","locality":"Herisau","commune":{"key":"3001","name":"Herisau","shortName":"Herisau"},"district":{"key":"1501","name":"Bezirk Hinterland"},"canton":{"key":"15","code":"AR","name":"Appenzell Ausserrhoden"},"status":"Real"},{"key":"10180901","name":"Wiesen","postalCode":"9100","locality":"Herisau","commune":{"key":"3001","name":"Herisau","shortName":"Herisau"},"district":{"key":"1501","name":"Bezirk Hinterland"},"canton":{"key":"15","code":"AR","name":"Appenzell Ausserrhoden"},"status":"Real"},{"key":"10031289","name":"Wiesental","postalCode":"9100","locality":"Herisau","commune":{"key":"3001","name":"Herisau","shortName":"Herisau"},"district":{"key":"1501","name":"Bezirk Hinterland"},"canton":{"key":"15","code":"AR","name":"Appenzell Ausserrhoden"},"status":"Real"},{"key":"10055814","name":"Wiesentalweg","postalCode":"9100","locality":"Herisau","commune":{"key":"3001","name":"Herisau","shortName":"Herisau"},"district":{"key":"1501","name":"Bezirk Hinterland"},"canton":{"key":"15","code":"AR","name":"Appenzell Ausserrhoden"},"status":"Real"},{"key":"10110825","name":"Wilenhalde","postalCode":"9100","locality":"Herisau","commune":{"key":"3001","name":"Herisau","shortName":"Herisau"},"district":{"key":"1501","name":"Bezirk Hinterland"},"canton":{"key":"15","code":"AR","name":"Appenzell Ausserrhoden"},"status":"Real"},{"key":"10031290","name":"Windegg","postalCode":"9100","locality":"Herisau","commune":{"key":"3001","name":"Herisau","shortName":"Herisau"},"district":{"key":"1501","name":"Bezirk Hinterland"},"canton":{"key":"15","code":"AR","name":"Appenzell Ausserrhoden"},"status":"Real"},{"key":"10121185","name":"Winkel","postalCode":"9100","locality":"Herisau","commune":{"key":"3001","name":"Herisau","shortName":"Herisau"},"district":{"key":"1501","name":"Bezirk Hinterland"},"canton":{"key":"15","code":"AR","name":"Appenzell Ausserrhoden"},"status":"Real"},{"key":"10073152","name":"Winkelstrasse","postalCode":"9100","locality":"Herisau","commune":{"key":"3001","name":"Herisau","shortName":"Herisau"},"district":{"key":"1501","name":"Bezirk Hinterland"},"canton":{"key":"15","code":"AR","name":"Appenzell Ausserrhoden"},"status":"Real"},{"key":"10113232","name":"Witenschwendi","postalCode":"9100","locality":"Herisau","commune":{"key":"3001","name":"Herisau","shortName":"Herisau"},"district":{"key":"1501","name":"Bezirk Hinterland"},"canton":{"key":"15","code":"AR","name":"Appenzell Ausserrhoden"},"status":"Real"},{"key":"10031295","name":"Wolfenswil","postalCode":"9112","locality":"Schachen b. Herisau","commune":{"key":"3001","name":"Herisau","shortName":"Herisau"},"district":{"key":"1501","name":"Bezirk Hinterland"},"canton":{"key":"15","code":"AR","name":"Appenzell Ausserrhoden"},"status":"Real"},{"key":"10180866","name":"Wolfhag","postalCode":"9100","locality":"Herisau","commune":{"key":"3001","name":"Herisau","shortName":"Herisau"},"district":{"key":"1501","name":"Bezirk Hinterland"},"canton":{"key":"15","code":"AR","name":"Appenzell Ausserrhoden"},"status":"Real"},{"key":"10091442","name":"Wyburgweg","postalCode":"9100","locality":"Herisau","commune":{"key":"3001","name":"Herisau","shortName":"Herisau"},"district":{"key":"1501","name":"Bezirk Hinterland"},"canton":{"key":"15","code":"AR","name":"Appenzell Ausserrhoden"},"status":"Real"},{"key":"10031291","name":"Zellersmüli","postalCode":"9100","locality":"Herisau","commune":{"key":"3001","name":"Herisau","shortName":"Herisau"},"district":{"key":"1501","name":"Bezirk Hinterland"},"canton":{"key":"15","code":"AR","name":"Appenzell Ausserrhoden"},"status":"Real"},{"key":"10030578","name":"Zellersmüli","postalCode":"9100","locality":"Herisau","commune":{"key":"3001","name":"Herisau","shortName":"Herisau"},"district":{"key":"1501","name":"Bezirk Hinterland"},"canton":{"key":"15","code":"AR","name":"Appenzell Ausserrhoden"},"status":"Real"},{"key":"10234645","name":"Zellersmülistrasse","postalCode":"9100","locality":"Herisau","commune":{"key":"3001","name":"Herisau","shortName":"Herisau"},"district":{"key":"1501","name":"Bezirk Hinterland"},"canton":{"key":"15","code":"AR","name":"Appenzell Ausserrhoden"},"status":"Real"},{"key":"10054232","name":"Zeughausstrasse","postalCode":"9100","locality":"Herisau","commune":{"key":"3001","name":"Herisau","shortName":"Herisau"},"district":{"key":"1501","name":"Bezirk Hinterland"},"canton":{"key":"15","code":"AR","name":"Appenzell Ausserrhoden"},"status":"Real"},{"key":"10073153","name":"Zeughausweg","postalCode":"9100","locality":"Herisau","commune":{"key":"3001","name":"Herisau","shortName":"Herisau"},"district":{"key":"1501","name":"Bezirk Hinterland"},"canton":{"key":"15","code":"AR","name":"Appenzell Ausserrhoden"},"status":"Real"},{"key":"10054678","name":"Ädelswil","postalCode":"9100","locality":"Herisau","commune":{"key":"3001","name":"Herisau","shortName":"Herisau"},"district":{"key":"1501","name":"Bezirk Hinterland"},"canton":{"key":"15","code":"AR","name":"Appenzell Ausserrhoden"},"status":"Real"},{"key":"10182700","name":"Ädelswil","postalCode":"9100","locality":"Herisau","commune":{"key":"3001","name":"Herisau","shortName":"Herisau"},"district":{"key":"1501","name":"Bezirk Hinterland"},"canton":{"key":"15","code":"AR","name":"Appenzell Ausserrhoden"},"status":"Real"},]