[{"name":"Alte Dorfstr.","postalCode":"19209","locality":"Schildetal","municipality":{"key":"13074072","name":"Schildetal","type":"Kreisangehörige_Gemeinde"},"district":{"key":"13074","name":"Nordwestmecklenburg","type":"Landkreis"},"federalState":{"key":"13","name":"Mecklenburg-Vorpommern"}},{"name":"An der Schilde","postalCode":"19209","locality":"Schildetal","municipality":{"key":"13074072","name":"Schildetal","type":"Kreisangehörige_Gemeinde"},"district":{"key":"13074","name":"Nordwestmecklenburg","type":"Landkreis"},"federalState":{"key":"13","name":"Mecklenburg-Vorpommern"}},{"name":"Ausbau","postalCode":"19209","locality":"Schildetal","municipality":{"key":"13074072","name":"Schildetal","type":"Kreisangehörige_Gemeinde"},"district":{"key":"13074","name":"Nordwestmecklenburg","type":"Landkreis"},"federalState":{"key":"13","name":"Mecklenburg-Vorpommern"}},{"name":"Kastanienallee","postalCode":"19209","locality":"Schildetal","municipality":{"key":"13074072","name":"Schildetal","type":"Kreisangehörige_Gemeinde"},"district":{"key":"13074","name":"Nordwestmecklenburg","type":"Landkreis"},"federalState":{"key":"13","name":"Mecklenburg-Vorpommern"}},{"name":"Neue Dorfstr.","postalCode":"19209","locality":"Schildetal","municipality":{"key":"13074072","name":"Schildetal","type":"Kreisangehörige_Gemeinde"},"district":{"key":"13074","name":"Nordwestmecklenburg","type":"Landkreis"},"federalState":{"key":"13","name":"Mecklenburg-Vorpommern"}},{"name":"Pappelweg","postalCode":"19209","locality":"Schildetal","municipality":{"key":"13074072","name":"Schildetal","type":"Kreisangehörige_Gemeinde"},"district":{"key":"13074","name":"Nordwestmecklenburg","type":"Landkreis"},"federalState":{"key":"13","name":"Mecklenburg-Vorpommern"}},{"name":"Perliner Str.","postalCode":"19209","locality":"Schildetal","municipality":{"key":"13074072","name":"Schildetal","type":"Kreisangehörige_Gemeinde"},"district":{"key":"13074","name":"Nordwestmecklenburg","type":"Landkreis"},"federalState":{"key":"13","name":"Mecklenburg-Vorpommern"}},{"name":"Pokrenter Str.","postalCode":"19209","locality":"Schildetal","municipality":{"key":"13074072","name":"Schildetal","type":"Kreisangehörige_Gemeinde"},"district":{"key":"13074","name":"Nordwestmecklenburg","type":"Landkreis"},"federalState":{"key":"13","name":"Mecklenburg-Vorpommern"}},{"name":"Querstr.","postalCode":"19209","locality":"Schildetal","municipality":{"key":"13074072","name":"Schildetal","type":"Kreisangehörige_Gemeinde"},"district":{"key":"13074","name":"Nordwestmecklenburg","type":"Landkreis"},"federalState":{"key":"13","name":"Mecklenburg-Vorpommern"}},{"name":"Renzower Weg","postalCode":"19209","locality":"Schildetal","municipality":{"key":"13074072","name":"Schildetal","type":"Kreisangehörige_Gemeinde"},"district":{"key":"13074","name":"Nordwestmecklenburg","type":"Landkreis"},"federalState":{"key":"13","name":"Mecklenburg-Vorpommern"}},{"name":"Schulstr.","postalCode":"19209","locality":"Schildetal","municipality":{"key":"13074072","name":"Schildetal","type":"Kreisangehörige_Gemeinde"},"district":{"key":"13074","name":"Nordwestmecklenburg","type":"Landkreis"},"federalState":{"key":"13","name":"Mecklenburg-Vorpommern"}},{"name":"Söhringer Ring","postalCode":"19209","locality":"Schildetal","municipality":{"key":"13074072","name":"Schildetal","type":"Kreisangehörige_Gemeinde"},"district":{"key":"13074","name":"Nordwestmecklenburg","type":"Landkreis"},"federalState":{"key":"13","name":"Mecklenburg-Vorpommern"}},{"name":"Söhringer Str.","postalCode":"19209","locality":"Schildetal","municipality":{"key":"13074072","name":"Schildetal","type":"Kreisangehörige_Gemeinde"},"district":{"key":"13074","name":"Nordwestmecklenburg","type":"Landkreis"},"federalState":{"key":"13","name":"Mecklenburg-Vorpommern"}},{"name":"Stöllnitzer Str.","postalCode":"19209","locality":"Schildetal","municipality":{"key":"13074072","name":"Schildetal","type":"Kreisangehörige_Gemeinde"},"district":{"key":"13074","name":"Nordwestmecklenburg","type":"Landkreis"},"federalState":{"key":"13","name":"Mecklenburg-Vorpommern"}},{"name":"Weidenweg","postalCode":"19209","locality":"Schildetal","municipality":{"key":"13074072","name":"Schildetal","type":"Kreisangehörige_Gemeinde"},"district":{"key":"13074","name":"Nordwestmecklenburg","type":"Landkreis"},"federalState":{"key":"13","name":"Mecklenburg-Vorpommern"}},{"name":"Welziner Weg","postalCode":"19209","locality":"Schildetal","municipality":{"key":"13074072","name":"Schildetal","type":"Kreisangehörige_Gemeinde"},"district":{"key":"13074","name":"Nordwestmecklenburg","type":"Landkreis"},"federalState":{"key":"13","name":"Mecklenburg-Vorpommern"}},{"name":"Wittenburger Str.","postalCode":"19209","locality":"Schildetal","municipality":{"key":"13074072","name":"Schildetal","type":"Kreisangehörige_Gemeinde"},"district":{"key":"13074","name":"Nordwestmecklenburg","type":"Landkreis"},"federalState":{"key":"13","name":"Mecklenburg-Vorpommern"}},{"name":"Zum Krähenberg","postalCode":"19209","locality":"Schildetal","municipality":{"key":"13074072","name":"Schildetal","type":"Kreisangehörige_Gemeinde"},"district":{"key":"13074","name":"Nordwestmecklenburg","type":"Landkreis"},"federalState":{"key":"13","name":"Mecklenburg-Vorpommern"}},]