[{"key":"10015628","name":"Alp","postalCode":"6027","locality":"Römerswil LU","commune":{"key":"1039","name":"Römerswil","shortName":"Römerswil"},"district":{"key":"313","name":"Wahlkreis Hochdorf"},"canton":{"key":"3","code":"LU","name":"Luzern"},"status":"Real"},{"key":"10015629","name":"Balletsmatt","postalCode":"6027","locality":"Römerswil LU","commune":{"key":"1039","name":"Römerswil","shortName":"Römerswil"},"district":{"key":"313","name":"Wahlkreis Hochdorf"},"canton":{"key":"3","code":"LU","name":"Luzern"},"status":"Real"},{"key":"10014991","name":"Bodenmatt","postalCode":"6027","locality":"Römerswil LU","commune":{"key":"1039","name":"Römerswil","shortName":"Römerswil"},"district":{"key":"313","name":"Wahlkreis Hochdorf"},"canton":{"key":"3","code":"LU","name":"Luzern"},"status":"Real"},{"key":"10055790","name":"Brandhalden","postalCode":"6027","locality":"Römerswil LU","commune":{"key":"1039","name":"Römerswil","shortName":"Römerswil"},"district":{"key":"313","name":"Wahlkreis Hochdorf"},"canton":{"key":"3","code":"LU","name":"Luzern"},"status":"Real"},{"key":"10064029","name":"Bromenegg","postalCode":"6027","locality":"Römerswil LU","commune":{"key":"1039","name":"Römerswil","shortName":"Römerswil"},"district":{"key":"313","name":"Wahlkreis Hochdorf"},"canton":{"key":"3","code":"LU","name":"Luzern"},"status":"Real"},{"key":"10206024","name":"Bromenstrasse","postalCode":"6027","locality":"Römerswil LU","commune":{"key":"1039","name":"Römerswil","shortName":"Römerswil"},"district":{"key":"313","name":"Wahlkreis Hochdorf"},"canton":{"key":"3","code":"LU","name":"Luzern"},"status":"Real"},{"key":"10206016","name":"Buchenstrasse","postalCode":"6027","locality":"Römerswil LU","commune":{"key":"1039","name":"Römerswil","shortName":"Römerswil"},"district":{"key":"313","name":"Wahlkreis Hochdorf"},"canton":{"key":"3","code":"LU","name":"Luzern"},"status":"Real"},{"key":"10085614","name":"Chäppeliacher","postalCode":"6027","locality":"Römerswil LU","commune":{"key":"1039","name":"Römerswil","shortName":"Römerswil"},"district":{"key":"313","name":"Wahlkreis Hochdorf"},"canton":{"key":"3","code":"LU","name":"Luzern"},"status":"Real"},{"key":"10240983","name":"Dorf","postalCode":"6027","locality":"Römerswil LU","commune":{"key":"1039","name":"Römerswil","shortName":"Römerswil"},"district":{"key":"313","name":"Wahlkreis Hochdorf"},"canton":{"key":"3","code":"LU","name":"Luzern"},"status":"Real"},{"key":"10105381","name":"Ehrenbolgen","postalCode":"6027","locality":"Römerswil LU","commune":{"key":"1039","name":"Römerswil","shortName":"Römerswil"},"district":{"key":"313","name":"Wahlkreis Hochdorf"},"canton":{"key":"3","code":"LU","name":"Luzern"},"status":"Real"},{"key":"10014993","name":"Eigen","postalCode":"6027","locality":"Römerswil LU","commune":{"key":"1039","name":"Römerswil","shortName":"Römerswil"},"district":{"key":"313","name":"Wahlkreis Hochdorf"},"canton":{"key":"3","code":"LU","name":"Luzern"},"status":"Real"},{"key":"10206020","name":"Eigenstrasse","postalCode":"6027","locality":"Römerswil LU","commune":{"key":"1039","name":"Römerswil","shortName":"Römerswil"},"district":{"key":"313","name":"Wahlkreis Hochdorf"},"canton":{"key":"3","code":"LU","name":"Luzern"},"status":"Real"},{"key":"10179622","name":"Eigenwald","postalCode":"6027","locality":"Römerswil LU","commune":{"key":"1039","name":"Römerswil","shortName":"Römerswil"},"district":{"key":"313","name":"Wahlkreis Hochdorf"},"canton":{"key":"3","code":"LU","name":"Luzern"},"status":"Real"},{"key":"10014994","name":"Feld","postalCode":"6027","locality":"Römerswil LU","commune":{"key":"1039","name":"Römerswil","shortName":"Römerswil"},"district":{"key":"313","name":"Wahlkreis Hochdorf"},"canton":{"key":"3","code":"LU","name":"Luzern"},"status":"Real"},{"key":"10064031","name":"Feldheim","postalCode":"6027","locality":"Römerswil LU","commune":{"key":"1039","name":"Römerswil","shortName":"Römerswil"},"district":{"key":"313","name":"Wahlkreis Hochdorf"},"canton":{"key":"3","code":"LU","name":"Luzern"},"status":"Real"},{"key":"10206017","name":"Feldheimstrasse","postalCode":"6027","locality":"Römerswil LU","commune":{"key":"1039","name":"Römerswil","shortName":"Römerswil"},"district":{"key":"313","name":"Wahlkreis Hochdorf"},"canton":{"key":"3","code":"LU","name":"Luzern"},"status":"Real"},{"key":"10123260","name":"Gormundstrasse","postalCode":"6027","locality":"Römerswil LU","commune":{"key":"1039","name":"Römerswil","shortName":"Römerswil"},"district":{"key":"313","name":"Wahlkreis Hochdorf"},"canton":{"key":"3","code":"LU","name":"Luzern"},"status":"Real"},{"key":"10014995","name":"Gosperdingen","postalCode":"6027","locality":"Römerswil LU","commune":{"key":"1039","name":"Römerswil","shortName":"Römerswil"},"district":{"key":"313","name":"Wahlkreis Hochdorf"},"canton":{"key":"3","code":"LU","name":"Luzern"},"status":"Real"},{"key":"10206021","name":"Gosperdingerstrasse","postalCode":"6027","locality":"Römerswil LU","commune":{"key":"1039","name":"Römerswil","shortName":"Römerswil"},"district":{"key":"313","name":"Wahlkreis Hochdorf"},"canton":{"key":"3","code":"LU","name":"Luzern"},"status":"Real"},{"key":"10255031","name":"Gurgelemoos","postalCode":"6027","locality":"Römerswil LU","commune":{"key":"1039","name":"Römerswil","shortName":"Römerswil"},"district":{"key":"313","name":"Wahlkreis Hochdorf"},"canton":{"key":"3","code":"LU","name":"Luzern"},"status":"Real"},{"key":"10055791","name":"Hinterfeld","postalCode":"6027","locality":"Römerswil LU","commune":{"key":"1039","name":"Römerswil","shortName":"Römerswil"},"district":{"key":"313","name":"Wahlkreis Hochdorf"},"canton":{"key":"3","code":"LU","name":"Luzern"},"status":"Real"},{"key":"10170748","name":"Hinterludigen","postalCode":"6027","locality":"Römerswil LU","commune":{"key":"1039","name":"Römerswil","shortName":"Römerswil"},"district":{"key":"313","name":"Wahlkreis Hochdorf"},"canton":{"key":"3","code":"LU","name":"Luzern"},"status":"Real"},{"key":"10185837","name":"Hitzkirchstrasse","postalCode":"6027","locality":"Römerswil LU","commune":{"key":"1039","name":"Römerswil","shortName":"Römerswil"},"district":{"key":"313","name":"Wahlkreis Hochdorf"},"canton":{"key":"3","code":"LU","name":"Luzern"},"status":"Real"},{"key":"10189715","name":"Höhli","postalCode":"6027","locality":"Römerswil LU","commune":{"key":"1039","name":"Römerswil","shortName":"Römerswil"},"district":{"key":"313","name":"Wahlkreis Hochdorf"},"canton":{"key":"3","code":"LU","name":"Luzern"},"status":"Real"},{"key":"10206028","name":"Hölistrasse","postalCode":"6027","locality":"Römerswil LU","commune":{"key":"1039","name":"Römerswil","shortName":"Römerswil"},"district":{"key":"313","name":"Wahlkreis Hochdorf"},"canton":{"key":"3","code":"LU","name":"Luzern"},"status":"Real"},{"key":"10117064","name":"Hubel","postalCode":"6027","locality":"Römerswil LU","commune":{"key":"1039","name":"Römerswil","shortName":"Römerswil"},"district":{"key":"313","name":"Wahlkreis Hochdorf"},"canton":{"key":"3","code":"LU","name":"Luzern"},"status":"Real"},{"key":"10206018","name":"K56","postalCode":"6027","locality":"Römerswil LU","commune":{"key":"1039","name":"Römerswil","shortName":"Römerswil"},"district":{"key":"313","name":"Wahlkreis Hochdorf"},"canton":{"key":"3","code":"LU","name":"Luzern"},"status":"Real"},{"key":"10206025","name":"K56a","postalCode":"6027","locality":"Römerswil LU","commune":{"key":"1039","name":"Römerswil","shortName":"Römerswil"},"district":{"key":"313","name":"Wahlkreis Hochdorf"},"canton":{"key":"3","code":"LU","name":"Luzern"},"status":"Real"},{"key":"10122525","name":"Kallern","postalCode":"6027","locality":"Römerswil LU","commune":{"key":"1039","name":"Römerswil","shortName":"Römerswil"},"district":{"key":"313","name":"Wahlkreis Hochdorf"},"canton":{"key":"3","code":"LU","name":"Luzern"},"status":"Real"},{"key":"10188357","name":"Kirchplatz","postalCode":"6027","locality":"Römerswil LU","commune":{"key":"1039","name":"Römerswil","shortName":"Römerswil"},"district":{"key":"313","name":"Wahlkreis Hochdorf"},"canton":{"key":"3","code":"LU","name":"Luzern"},"status":"Real"},{"key":"10085615","name":"Kriesbühl","postalCode":"6027","locality":"Römerswil LU","commune":{"key":"1039","name":"Römerswil","shortName":"Römerswil"},"district":{"key":"313","name":"Wahlkreis Hochdorf"},"canton":{"key":"3","code":"LU","name":"Luzern"},"status":"Real"},{"key":"10014997","name":"Ludigen","postalCode":"6027","locality":"Römerswil LU","commune":{"key":"1039","name":"Römerswil","shortName":"Römerswil"},"district":{"key":"313","name":"Wahlkreis Hochdorf"},"canton":{"key":"3","code":"LU","name":"Luzern"},"status":"Real"},{"key":"10179006","name":"Ludiswil","postalCode":"6027","locality":"Römerswil LU","commune":{"key":"1039","name":"Römerswil","shortName":"Römerswil"},"district":{"key":"313","name":"Wahlkreis Hochdorf"},"canton":{"key":"3","code":"LU","name":"Luzern"},"status":"Real"},{"key":"10064034","name":"Mur","postalCode":"6027","locality":"Römerswil LU","commune":{"key":"1039","name":"Römerswil","shortName":"Römerswil"},"district":{"key":"313","name":"Wahlkreis Hochdorf"},"canton":{"key":"3","code":"LU","name":"Luzern"},"status":"Real"},{"key":"10085616","name":"Neudorfstrasse","postalCode":"6027","locality":"Römerswil LU","commune":{"key":"1039","name":"Römerswil","shortName":"Römerswil"},"district":{"key":"313","name":"Wahlkreis Hochdorf"},"canton":{"key":"3","code":"LU","name":"Luzern"},"status":"Real"},{"key":"10014998","name":"Neuheim","postalCode":"6027","locality":"Römerswil LU","commune":{"key":"1039","name":"Römerswil","shortName":"Römerswil"},"district":{"key":"313","name":"Wahlkreis Hochdorf"},"canton":{"key":"3","code":"LU","name":"Luzern"},"status":"Real"},{"key":"10241949","name":"Neuhof","postalCode":"6027","locality":"Römerswil LU","commune":{"key":"1039","name":"Römerswil","shortName":"Römerswil"},"district":{"key":"313","name":"Wahlkreis Hochdorf"},"canton":{"key":"3","code":"LU","name":"Luzern"},"status":"Real"},{"key":"10255033","name":"Obereigen","postalCode":"6027","locality":"Römerswil LU","commune":{"key":"1039","name":"Römerswil","shortName":"Römerswil"},"district":{"key":"313","name":"Wahlkreis Hochdorf"},"canton":{"key":"3","code":"LU","name":"Luzern"},"status":"Real"},{"key":"10014999","name":"Obergehren","postalCode":"6027","locality":"Römerswil LU","commune":{"key":"1039","name":"Römerswil","shortName":"Römerswil"},"district":{"key":"313","name":"Wahlkreis Hochdorf"},"canton":{"key":"3","code":"LU","name":"Luzern"},"status":"Real"},{"key":"10122907","name":"Obfeld","postalCode":"6027","locality":"Römerswil LU","commune":{"key":"1039","name":"Römerswil","shortName":"Römerswil"},"district":{"key":"313","name":"Wahlkreis Hochdorf"},"canton":{"key":"3","code":"LU","name":"Luzern"},"status":"Real"},{"key":"10103888","name":"Rossacher","postalCode":"6027","locality":"Römerswil LU","commune":{"key":"1039","name":"Römerswil","shortName":"Römerswil"},"district":{"key":"313","name":"Wahlkreis Hochdorf"},"canton":{"key":"3","code":"LU","name":"Luzern"},"status":"Real"},{"key":"10212092","name":"Rütiwald","postalCode":"6027","locality":"Römerswil LU","commune":{"key":"1039","name":"Römerswil","shortName":"Römerswil"},"district":{"key":"313","name":"Wahlkreis Hochdorf"},"canton":{"key":"3","code":"LU","name":"Luzern"},"status":"Real"},{"key":"10255030","name":"Rüttimattli","postalCode":"6027","locality":"Römerswil LU","commune":{"key":"1039","name":"Römerswil","shortName":"Römerswil"},"district":{"key":"313","name":"Wahlkreis Hochdorf"},"canton":{"key":"3","code":"LU","name":"Luzern"},"status":"Real"},{"key":"10064035","name":"Sagen","postalCode":"6027","locality":"Römerswil LU","commune":{"key":"1039","name":"Römerswil","shortName":"Römerswil"},"district":{"key":"313","name":"Wahlkreis Hochdorf"},"canton":{"key":"3","code":"LU","name":"Luzern"},"status":"Real"},{"key":"10015000","name":"Sandgrube","postalCode":"6027","locality":"Römerswil LU","commune":{"key":"1039","name":"Römerswil","shortName":"Römerswil"},"district":{"key":"313","name":"Wahlkreis Hochdorf"},"canton":{"key":"3","code":"LU","name":"Luzern"},"status":"Real"},{"key":"10085617","name":"Schönheim","postalCode":"6027","locality":"Römerswil LU","commune":{"key":"1039","name":"Römerswil","shortName":"Römerswil"},"district":{"key":"313","name":"Wahlkreis Hochdorf"},"canton":{"key":"3","code":"LU","name":"Luzern"},"status":"Real"},{"key":"10064036","name":"Schürmatte","postalCode":"6027","locality":"Römerswil LU","commune":{"key":"1039","name":"Römerswil","shortName":"Römerswil"},"district":{"key":"313","name":"Wahlkreis Hochdorf"},"canton":{"key":"3","code":"LU","name":"Luzern"},"status":"Real"},{"key":"10015001","name":"Sidenberg","postalCode":"6027","locality":"Römerswil LU","commune":{"key":"1039","name":"Römerswil","shortName":"Römerswil"},"district":{"key":"313","name":"Wahlkreis Hochdorf"},"canton":{"key":"3","code":"LU","name":"Luzern"},"status":"Real"},{"key":"10206023","name":"Sidenbergstrasse","postalCode":"6027","locality":"Römerswil LU","commune":{"key":"1039","name":"Römerswil","shortName":"Römerswil"},"district":{"key":"313","name":"Wahlkreis Hochdorf"},"canton":{"key":"3","code":"LU","name":"Luzern"},"status":"Real"},{"key":"10179007","name":"Sidenthal","postalCode":"6027","locality":"Römerswil LU","commune":{"key":"1039","name":"Römerswil","shortName":"Römerswil"},"district":{"key":"313","name":"Wahlkreis Hochdorf"},"canton":{"key":"3","code":"LU","name":"Luzern"},"status":"Real"},{"key":"10191467","name":"Sonnenhof","postalCode":"6027","locality":"Römerswil LU","commune":{"key":"1039","name":"Römerswil","shortName":"Römerswil"},"district":{"key":"313","name":"Wahlkreis Hochdorf"},"canton":{"key":"3","code":"LU","name":"Luzern"},"status":"Real"},{"key":"10158774","name":"Tannhof","postalCode":"6027","locality":"Römerswil LU","commune":{"key":"1039","name":"Römerswil","shortName":"Römerswil"},"district":{"key":"313","name":"Wahlkreis Hochdorf"},"canton":{"key":"3","code":"LU","name":"Luzern"},"status":"Real"},{"key":"10188358","name":"Untereigen","postalCode":"6027","locality":"Römerswil LU","commune":{"key":"1039","name":"Römerswil","shortName":"Römerswil"},"district":{"key":"313","name":"Wahlkreis Hochdorf"},"canton":{"key":"3","code":"LU","name":"Luzern"},"status":"Real"},{"key":"10015002","name":"Untermatt","postalCode":"6027","locality":"Römerswil LU","commune":{"key":"1039","name":"Römerswil","shortName":"Römerswil"},"district":{"key":"313","name":"Wahlkreis Hochdorf"},"canton":{"key":"3","code":"LU","name":"Luzern"},"status":"Real"},{"key":"10055792","name":"Waldhaus","postalCode":"6027","locality":"Römerswil LU","commune":{"key":"1039","name":"Römerswil","shortName":"Römerswil"},"district":{"key":"313","name":"Wahlkreis Hochdorf"},"canton":{"key":"3","code":"LU","name":"Luzern"},"status":"Real"},{"key":"10189716","name":"Wässerig","postalCode":"6027","locality":"Römerswil LU","commune":{"key":"1039","name":"Römerswil","shortName":"Römerswil"},"district":{"key":"313","name":"Wahlkreis Hochdorf"},"canton":{"key":"3","code":"LU","name":"Luzern"},"status":"Real"},{"key":"10085618","name":"Williswil","postalCode":"6027","locality":"Römerswil LU","commune":{"key":"1039","name":"Römerswil","shortName":"Römerswil"},"district":{"key":"313","name":"Wahlkreis Hochdorf"},"canton":{"key":"3","code":"LU","name":"Luzern"},"status":"Real"},{"key":"10255028","name":"Ärebolgentobel","postalCode":"6027","locality":"Römerswil LU","commune":{"key":"1039","name":"Römerswil","shortName":"Römerswil"},"district":{"key":"313","name":"Wahlkreis Hochdorf"},"canton":{"key":"3","code":"LU","name":"Luzern"},"status":"Real"},]