[{"name":"17er Str.","postalCode":"76726","locality":"Germersheim","municipality":{"key":"07334007","name":"Germersheim, Stadt","type":"Stadt"},"district":{"key":"07334","name":"Germersheim","type":"Landkreis"},"federalState":{"key":"07","name":"Rheinland-Pfalz"}},{"name":"Ahornweg","postalCode":"76761","locality":"Rülzheim","municipality":{"key":"07334025","name":"Rülzheim","type":"Kreisangehörige_Gemeinde"},"district":{"key":"07334","name":"Germersheim","type":"Landkreis"},"federalState":{"key":"07","name":"Rheinland-Pfalz"}},{"name":"Albert-Schweitzer-Str.","postalCode":"76761","locality":"Rülzheim","municipality":{"key":"07334025","name":"Rülzheim","type":"Kreisangehörige_Gemeinde"},"district":{"key":"07334","name":"Germersheim","type":"Landkreis"},"federalState":{"key":"07","name":"Rheinland-Pfalz"}},{"name":"Alte Mühlgasse","postalCode":"76761","locality":"Rülzheim","municipality":{"key":"07334025","name":"Rülzheim","type":"Kreisangehörige_Gemeinde"},"district":{"key":"07334","name":"Germersheim","type":"Landkreis"},"federalState":{"key":"07","name":"Rheinland-Pfalz"}},{"name":"Am Deutschordensplatz","postalCode":"76761","locality":"Rülzheim","municipality":{"key":"07334025","name":"Rülzheim","type":"Kreisangehörige_Gemeinde"},"district":{"key":"07334","name":"Germersheim","type":"Landkreis"},"federalState":{"key":"07","name":"Rheinland-Pfalz"}},{"name":"Am Friedhof","postalCode":"76761","locality":"Rülzheim","municipality":{"key":"07334025","name":"Rülzheim","type":"Kreisangehörige_Gemeinde"},"district":{"key":"07334","name":"Germersheim","type":"Landkreis"},"federalState":{"key":"07","name":"Rheinland-Pfalz"}},{"name":"Am Gaswerk","postalCode":"76761","locality":"Rülzheim","municipality":{"key":"07334025","name":"Rülzheim","type":"Kreisangehörige_Gemeinde"},"district":{"key":"07334","name":"Germersheim","type":"Landkreis"},"federalState":{"key":"07","name":"Rheinland-Pfalz"}},{"name":"Amselweg","postalCode":"76761","locality":"Rülzheim","municipality":{"key":"07334025","name":"Rülzheim","type":"Kreisangehörige_Gemeinde"},"district":{"key":"07334","name":"Germersheim","type":"Landkreis"},"federalState":{"key":"07","name":"Rheinland-Pfalz"}},{"name":"Am Stadion","postalCode":"76761","locality":"Rülzheim","municipality":{"key":"07334025","name":"Rülzheim","type":"Kreisangehörige_Gemeinde"},"district":{"key":"07334","name":"Germersheim","type":"Landkreis"},"federalState":{"key":"07","name":"Rheinland-Pfalz"}},{"name":"An der Kastanienallee","postalCode":"76761","locality":"Rülzheim","municipality":{"key":"07334025","name":"Rülzheim","type":"Kreisangehörige_Gemeinde"},"district":{"key":"07334","name":"Germersheim","type":"Landkreis"},"federalState":{"key":"07","name":"Rheinland-Pfalz"}},{"name":"An der Mozartstr.","postalCode":"76761","locality":"Rülzheim","municipality":{"key":"07334025","name":"Rülzheim","type":"Kreisangehörige_Gemeinde"},"district":{"key":"07334","name":"Germersheim","type":"Landkreis"},"federalState":{"key":"07","name":"Rheinland-Pfalz"}},{"name":"An der Zeppelinstr.","postalCode":"76761","locality":"Rülzheim","municipality":{"key":"07334025","name":"Rülzheim","type":"Kreisangehörige_Gemeinde"},"district":{"key":"07334","name":"Germersheim","type":"Landkreis"},"federalState":{"key":"07","name":"Rheinland-Pfalz"}},{"name":"Auf der Ebnung","postalCode":"76761","locality":"Rülzheim","municipality":{"key":"07334025","name":"Rülzheim","type":"Kreisangehörige_Gemeinde"},"district":{"key":"07334","name":"Germersheim","type":"Landkreis"},"federalState":{"key":"07","name":"Rheinland-Pfalz"}},{"name":"August-Franck-Str.","postalCode":"76761","locality":"Rülzheim","municipality":{"key":"07334025","name":"Rülzheim","type":"Kreisangehörige_Gemeinde"},"district":{"key":"07334","name":"Germersheim","type":"Landkreis"},"federalState":{"key":"07","name":"Rheinland-Pfalz"}},{"name":"Bachgasse","postalCode":"76761","locality":"Rülzheim","municipality":{"key":"07334025","name":"Rülzheim","type":"Kreisangehörige_Gemeinde"},"district":{"key":"07334","name":"Germersheim","type":"Landkreis"},"federalState":{"key":"07","name":"Rheinland-Pfalz"}},{"name":"Bahnhofstr.","postalCode":"76761","locality":"Rülzheim","municipality":{"key":"07334025","name":"Rülzheim","type":"Kreisangehörige_Gemeinde"},"district":{"key":"07334","name":"Germersheim","type":"Landkreis"},"federalState":{"key":"07","name":"Rheinland-Pfalz"}},{"name":"Beethovenring","postalCode":"76761","locality":"Rülzheim","municipality":{"key":"07334025","name":"Rülzheim","type":"Kreisangehörige_Gemeinde"},"district":{"key":"07334","name":"Germersheim","type":"Landkreis"},"federalState":{"key":"07","name":"Rheinland-Pfalz"}},{"name":"Birkenweg","postalCode":"76761","locality":"Rülzheim","municipality":{"key":"07334025","name":"Rülzheim","type":"Kreisangehörige_Gemeinde"},"district":{"key":"07334","name":"Germersheim","type":"Landkreis"},"federalState":{"key":"07","name":"Rheinland-Pfalz"}},{"name":"Bismarckstr.","postalCode":"76761","locality":"Rülzheim","municipality":{"key":"07334025","name":"Rülzheim","type":"Kreisangehörige_Gemeinde"},"district":{"key":"07334","name":"Germersheim","type":"Landkreis"},"federalState":{"key":"07","name":"Rheinland-Pfalz"}},{"name":"Blinderweg","postalCode":"76761","locality":"Rülzheim","municipality":{"key":"07334025","name":"Rülzheim","type":"Kreisangehörige_Gemeinde"},"district":{"key":"07334","name":"Germersheim","type":"Landkreis"},"federalState":{"key":"07","name":"Rheinland-Pfalz"}},{"name":"Brahmsstr.","postalCode":"76761","locality":"Rülzheim","municipality":{"key":"07334025","name":"Rülzheim","type":"Kreisangehörige_Gemeinde"},"district":{"key":"07334","name":"Germersheim","type":"Landkreis"},"federalState":{"key":"07","name":"Rheinland-Pfalz"}},{"name":"Brucknerstr.","postalCode":"76761","locality":"Rülzheim","municipality":{"key":"07334025","name":"Rülzheim","type":"Kreisangehörige_Gemeinde"},"district":{"key":"07334","name":"Germersheim","type":"Landkreis"},"federalState":{"key":"07","name":"Rheinland-Pfalz"}},{"name":"Buchenweg","postalCode":"76761","locality":"Rülzheim","municipality":{"key":"07334025","name":"Rülzheim","type":"Kreisangehörige_Gemeinde"},"district":{"key":"07334","name":"Germersheim","type":"Landkreis"},"federalState":{"key":"07","name":"Rheinland-Pfalz"}},{"name":"Carl-Benz-Str.","postalCode":"76761","locality":"Rülzheim","municipality":{"key":"07334025","name":"Rülzheim","type":"Kreisangehörige_Gemeinde"},"district":{"key":"07334","name":"Germersheim","type":"Landkreis"},"federalState":{"key":"07","name":"Rheinland-Pfalz"}},{"name":"Colletweg","postalCode":"76761","locality":"Rülzheim","municipality":{"key":"07334025","name":"Rülzheim","type":"Kreisangehörige_Gemeinde"},"district":{"key":"07334","name":"Germersheim","type":"Landkreis"},"federalState":{"key":"07","name":"Rheinland-Pfalz"}},{"name":"Daimlerring","postalCode":"76761","locality":"Rülzheim","municipality":{"key":"07334025","name":"Rülzheim","type":"Kreisangehörige_Gemeinde"},"district":{"key":"07334","name":"Germersheim","type":"Landkreis"},"federalState":{"key":"07","name":"Rheinland-Pfalz"}},{"name":"Dr.-Kahn-Str.","postalCode":"76761","locality":"Rülzheim","municipality":{"key":"07334025","name":"Rülzheim","type":"Kreisangehörige_Gemeinde"},"district":{"key":"07334","name":"Germersheim","type":"Landkreis"},"federalState":{"key":"07","name":"Rheinland-Pfalz"}},{"name":"Drosselweg","postalCode":"76761","locality":"Rülzheim","municipality":{"key":"07334025","name":"Rülzheim","type":"Kreisangehörige_Gemeinde"},"district":{"key":"07334","name":"Germersheim","type":"Landkreis"},"federalState":{"key":"07","name":"Rheinland-Pfalz"}},{"name":"Eichendorffstr.","postalCode":"76761","locality":"Rülzheim","municipality":{"key":"07334025","name":"Rülzheim","type":"Kreisangehörige_Gemeinde"},"district":{"key":"07334","name":"Germersheim","type":"Landkreis"},"federalState":{"key":"07","name":"Rheinland-Pfalz"}},{"name":"Einsteinring","postalCode":"76761","locality":"Rülzheim","municipality":{"key":"07334025","name":"Rülzheim","type":"Kreisangehörige_Gemeinde"},"district":{"key":"07334","name":"Germersheim","type":"Landkreis"},"federalState":{"key":"07","name":"Rheinland-Pfalz"}},{"name":"Eisenbahnstr.","postalCode":"76761","locality":"Rülzheim","municipality":{"key":"07334025","name":"Rülzheim","type":"Kreisangehörige_Gemeinde"},"district":{"key":"07334","name":"Germersheim","type":"Landkreis"},"federalState":{"key":"07","name":"Rheinland-Pfalz"}},{"name":"Fichtenweg","postalCode":"76761","locality":"Rülzheim","municipality":{"key":"07334025","name":"Rülzheim","type":"Kreisangehörige_Gemeinde"},"district":{"key":"07334","name":"Germersheim","type":"Landkreis"},"federalState":{"key":"07","name":"Rheinland-Pfalz"}},{"name":"Finkenweg","postalCode":"76761","locality":"Rülzheim","municipality":{"key":"07334025","name":"Rülzheim","type":"Kreisangehörige_Gemeinde"},"district":{"key":"07334","name":"Germersheim","type":"Landkreis"},"federalState":{"key":"07","name":"Rheinland-Pfalz"}},{"name":"Fischerweg","postalCode":"76761","locality":"Rülzheim","municipality":{"key":"07334025","name":"Rülzheim","type":"Kreisangehörige_Gemeinde"},"district":{"key":"07334","name":"Germersheim","type":"Landkreis"},"federalState":{"key":"07","name":"Rheinland-Pfalz"}},{"name":"Franz-Xaver-Braun-Str.","postalCode":"76761","locality":"Rülzheim","municipality":{"key":"07334025","name":"Rülzheim","type":"Kreisangehörige_Gemeinde"},"district":{"key":"07334","name":"Germersheim","type":"Landkreis"},"federalState":{"key":"07","name":"Rheinland-Pfalz"}},{"name":"Freizeitweg","postalCode":"76761","locality":"Rülzheim","municipality":{"key":"07334025","name":"Rülzheim","type":"Kreisangehörige_Gemeinde"},"district":{"key":"07334","name":"Germersheim","type":"Landkreis"},"federalState":{"key":"07","name":"Rheinland-Pfalz"}},{"name":"Friedensstr.","postalCode":"76761","locality":"Rülzheim","municipality":{"key":"07334025","name":"Rülzheim","type":"Kreisangehörige_Gemeinde"},"district":{"key":"07334","name":"Germersheim","type":"Landkreis"},"federalState":{"key":"07","name":"Rheinland-Pfalz"}},{"name":"Friedhofstr.","postalCode":"76761","locality":"Rülzheim","municipality":{"key":"07334025","name":"Rülzheim","type":"Kreisangehörige_Gemeinde"},"district":{"key":"07334","name":"Germersheim","type":"Landkreis"},"federalState":{"key":"07","name":"Rheinland-Pfalz"}},{"name":"Gartenstr.","postalCode":"76761","locality":"Rülzheim","municipality":{"key":"07334025","name":"Rülzheim","type":"Kreisangehörige_Gemeinde"},"district":{"key":"07334","name":"Germersheim","type":"Landkreis"},"federalState":{"key":"07","name":"Rheinland-Pfalz"}},{"name":"Germersheimer Str.","postalCode":"76761","locality":"Rülzheim","municipality":{"key":"07334025","name":"Rülzheim","type":"Kreisangehörige_Gemeinde"},"district":{"key":"07334","name":"Germersheim","type":"Landkreis"},"federalState":{"key":"07","name":"Rheinland-Pfalz"}},{"name":"Geschwister-Fuhrmann-Str.","postalCode":"76761","locality":"Rülzheim","municipality":{"key":"07334025","name":"Rülzheim","type":"Kreisangehörige_Gemeinde"},"district":{"key":"07334","name":"Germersheim","type":"Landkreis"},"federalState":{"key":"07","name":"Rheinland-Pfalz"}},{"name":"Goethestr.","postalCode":"76761","locality":"Rülzheim","municipality":{"key":"07334025","name":"Rülzheim","type":"Kreisangehörige_Gemeinde"},"district":{"key":"07334","name":"Germersheim","type":"Landkreis"},"federalState":{"key":"07","name":"Rheinland-Pfalz"}},{"name":"Grabengasse","postalCode":"76761","locality":"Rülzheim","municipality":{"key":"07334025","name":"Rülzheim","type":"Kreisangehörige_Gemeinde"},"district":{"key":"07334","name":"Germersheim","type":"Landkreis"},"federalState":{"key":"07","name":"Rheinland-Pfalz"}},{"name":"Gutenbergstr.","postalCode":"76761","locality":"Rülzheim","municipality":{"key":"07334025","name":"Rülzheim","type":"Kreisangehörige_Gemeinde"},"district":{"key":"07334","name":"Germersheim","type":"Landkreis"},"federalState":{"key":"07","name":"Rheinland-Pfalz"}},{"name":"Hauptallee","postalCode":"76761","locality":"Rülzheim","municipality":{"key":"07334025","name":"Rülzheim","type":"Kreisangehörige_Gemeinde"},"district":{"key":"07334","name":"Germersheim","type":"Landkreis"},"federalState":{"key":"07","name":"Rheinland-Pfalz"}},{"name":"Haydnstr.","postalCode":"76761","locality":"Rülzheim","municipality":{"key":"07334025","name":"Rülzheim","type":"Kreisangehörige_Gemeinde"},"district":{"key":"07334","name":"Germersheim","type":"Landkreis"},"federalState":{"key":"07","name":"Rheinland-Pfalz"}},{"name":"Helle Eichen","postalCode":"76761","locality":"Rülzheim","municipality":{"key":"07334025","name":"Rülzheim","type":"Kreisangehörige_Gemeinde"},"district":{"key":"07334","name":"Germersheim","type":"Landkreis"},"federalState":{"key":"07","name":"Rheinland-Pfalz"}},{"name":"Helmut-Braun-Ring","postalCode":"76761","locality":"Rülzheim","municipality":{"key":"07334025","name":"Rülzheim","type":"Kreisangehörige_Gemeinde"},"district":{"key":"07334","name":"Germersheim","type":"Landkreis"},"federalState":{"key":"07","name":"Rheinland-Pfalz"}},{"name":"Hengenstr.","postalCode":"76761","locality":"Rülzheim","municipality":{"key":"07334025","name":"Rülzheim","type":"Kreisangehörige_Gemeinde"},"district":{"key":"07334","name":"Germersheim","type":"Landkreis"},"federalState":{"key":"07","name":"Rheinland-Pfalz"}},{"name":"Herderstr.","postalCode":"76761","locality":"Rülzheim","municipality":{"key":"07334025","name":"Rülzheim","type":"Kreisangehörige_Gemeinde"},"district":{"key":"07334","name":"Germersheim","type":"Landkreis"},"federalState":{"key":"07","name":"Rheinland-Pfalz"}},{"name":"Hexenpfad","postalCode":"76761","locality":"Rülzheim","municipality":{"key":"07334025","name":"Rülzheim","type":"Kreisangehörige_Gemeinde"},"district":{"key":"07334","name":"Germersheim","type":"Landkreis"},"federalState":{"key":"07","name":"Rheinland-Pfalz"}},{"name":"Hintere Grabengasse","postalCode":"76761","locality":"Rülzheim","municipality":{"key":"07334025","name":"Rülzheim","type":"Kreisangehörige_Gemeinde"},"district":{"key":"07334","name":"Germersheim","type":"Landkreis"},"federalState":{"key":"07","name":"Rheinland-Pfalz"}},{"name":"Hoppelgasse","postalCode":"76761","locality":"Rülzheim","municipality":{"key":"07334025","name":"Rülzheim","type":"Kreisangehörige_Gemeinde"},"district":{"key":"07334","name":"Germersheim","type":"Landkreis"},"federalState":{"key":"07","name":"Rheinland-Pfalz"}},{"name":"Hubenweg","postalCode":"76761","locality":"Rülzheim","municipality":{"key":"07334025","name":"Rülzheim","type":"Kreisangehörige_Gemeinde"},"district":{"key":"07334","name":"Germersheim","type":"Landkreis"},"federalState":{"key":"07","name":"Rheinland-Pfalz"}},{"name":"Im Amseltal","postalCode":"76761","locality":"Rülzheim","municipality":{"key":"07334025","name":"Rülzheim","type":"Kreisangehörige_Gemeinde"},"district":{"key":"07334","name":"Germersheim","type":"Landkreis"},"federalState":{"key":"07","name":"Rheinland-Pfalz"}},{"name":"Im Mühlsändel","postalCode":"76761","locality":"Rülzheim","municipality":{"key":"07334025","name":"Rülzheim","type":"Kreisangehörige_Gemeinde"},"district":{"key":"07334","name":"Germersheim","type":"Landkreis"},"federalState":{"key":"07","name":"Rheinland-Pfalz"}},{"name":"Im Speyerer Tal","postalCode":"76761","locality":"Rülzheim","municipality":{"key":"07334025","name":"Rülzheim","type":"Kreisangehörige_Gemeinde"},"district":{"key":"07334","name":"Germersheim","type":"Landkreis"},"federalState":{"key":"07","name":"Rheinland-Pfalz"}},{"name":"Jahnstr.","postalCode":"76761","locality":"Rülzheim","municipality":{"key":"07334025","name":"Rülzheim","type":"Kreisangehörige_Gemeinde"},"district":{"key":"07334","name":"Germersheim","type":"Landkreis"},"federalState":{"key":"07","name":"Rheinland-Pfalz"}},{"name":"Jakob-Harder-Str.","postalCode":"76761","locality":"Rülzheim","municipality":{"key":"07334025","name":"Rülzheim","type":"Kreisangehörige_Gemeinde"},"district":{"key":"07334","name":"Germersheim","type":"Landkreis"},"federalState":{"key":"07","name":"Rheinland-Pfalz"}},{"name":"Karl-Maupai-Str.","postalCode":"76761","locality":"Rülzheim","municipality":{"key":"07334025","name":"Rülzheim","type":"Kreisangehörige_Gemeinde"},"district":{"key":"07334","name":"Germersheim","type":"Landkreis"},"federalState":{"key":"07","name":"Rheinland-Pfalz"}},{"name":"Kastanienweg","postalCode":"76761","locality":"Rülzheim","municipality":{"key":"07334025","name":"Rülzheim","type":"Kreisangehörige_Gemeinde"},"district":{"key":"07334","name":"Germersheim","type":"Landkreis"},"federalState":{"key":"07","name":"Rheinland-Pfalz"}},{"name":"Katharinenhof","postalCode":"76761","locality":"Rülzheim","municipality":{"key":"07334025","name":"Rülzheim","type":"Kreisangehörige_Gemeinde"},"district":{"key":"07334","name":"Germersheim","type":"Landkreis"},"federalState":{"key":"07","name":"Rheinland-Pfalz"}},{"name":"Keplerstr.","postalCode":"76761","locality":"Rülzheim","municipality":{"key":"07334025","name":"Rülzheim","type":"Kreisangehörige_Gemeinde"},"district":{"key":"07334","name":"Germersheim","type":"Landkreis"},"federalState":{"key":"07","name":"Rheinland-Pfalz"}},{"name":"Kettelerstr.","postalCode":"76761","locality":"Rülzheim","municipality":{"key":"07334025","name":"Rülzheim","type":"Kreisangehörige_Gemeinde"},"district":{"key":"07334","name":"Germersheim","type":"Landkreis"},"federalState":{"key":"07","name":"Rheinland-Pfalz"}},{"name":"Kiefernweg","postalCode":"76761","locality":"Rülzheim","municipality":{"key":"07334025","name":"Rülzheim","type":"Kreisangehörige_Gemeinde"},"district":{"key":"07334","name":"Germersheim","type":"Landkreis"},"federalState":{"key":"07","name":"Rheinland-Pfalz"}},{"name":"Kirschenweg","postalCode":"76761","locality":"Rülzheim","municipality":{"key":"07334025","name":"Rülzheim","type":"Kreisangehörige_Gemeinde"},"district":{"key":"07334","name":"Germersheim","type":"Landkreis"},"federalState":{"key":"07","name":"Rheinland-Pfalz"}},{"name":"Kleiststr.","postalCode":"76761","locality":"Rülzheim","municipality":{"key":"07334025","name":"Rülzheim","type":"Kreisangehörige_Gemeinde"},"district":{"key":"07334","name":"Germersheim","type":"Landkreis"},"federalState":{"key":"07","name":"Rheinland-Pfalz"}},{"name":"Kolpingstr.","postalCode":"76761","locality":"Rülzheim","municipality":{"key":"07334025","name":"Rülzheim","type":"Kreisangehörige_Gemeinde"},"district":{"key":"07334","name":"Germersheim","type":"Landkreis"},"federalState":{"key":"07","name":"Rheinland-Pfalz"}},{"name":"Kuhardter Str.","postalCode":"76761","locality":"Rülzheim","municipality":{"key":"07334025","name":"Rülzheim","type":"Kreisangehörige_Gemeinde"},"district":{"key":"07334","name":"Germersheim","type":"Landkreis"},"federalState":{"key":"07","name":"Rheinland-Pfalz"}},{"name":"Kuntzengasse","postalCode":"76761","locality":"Rülzheim","municipality":{"key":"07334025","name":"Rülzheim","type":"Kreisangehörige_Gemeinde"},"district":{"key":"07334","name":"Germersheim","type":"Landkreis"},"federalState":{"key":"07","name":"Rheinland-Pfalz"}},{"name":"Lachgasse","postalCode":"76761","locality":"Rülzheim","municipality":{"key":"07334025","name":"Rülzheim","type":"Kreisangehörige_Gemeinde"},"district":{"key":"07334","name":"Germersheim","type":"Landkreis"},"federalState":{"key":"07","name":"Rheinland-Pfalz"}},{"name":"Leibnizstr.","postalCode":"76761","locality":"Rülzheim","municipality":{"key":"07334025","name":"Rülzheim","type":"Kreisangehörige_Gemeinde"},"district":{"key":"07334","name":"Germersheim","type":"Landkreis"},"federalState":{"key":"07","name":"Rheinland-Pfalz"}},{"name":"Lerchenweg","postalCode":"76761","locality":"Rülzheim","municipality":{"key":"07334025","name":"Rülzheim","type":"Kreisangehörige_Gemeinde"},"district":{"key":"07334","name":"Germersheim","type":"Landkreis"},"federalState":{"key":"07","name":"Rheinland-Pfalz"}},{"name":"Lessingstr.","postalCode":"76761","locality":"Rülzheim","municipality":{"key":"07334025","name":"Rülzheim","type":"Kreisangehörige_Gemeinde"},"district":{"key":"07334","name":"Germersheim","type":"Landkreis"},"federalState":{"key":"07","name":"Rheinland-Pfalz"}},{"name":"Lindenstr.","postalCode":"76761","locality":"Rülzheim","municipality":{"key":"07334025","name":"Rülzheim","type":"Kreisangehörige_Gemeinde"},"district":{"key":"07334","name":"Germersheim","type":"Landkreis"},"federalState":{"key":"07","name":"Rheinland-Pfalz"}},{"name":"Mauritiusstr.","postalCode":"76761","locality":"Rülzheim","municipality":{"key":"07334025","name":"Rülzheim","type":"Kreisangehörige_Gemeinde"},"district":{"key":"07334","name":"Germersheim","type":"Landkreis"},"federalState":{"key":"07","name":"Rheinland-Pfalz"}},{"name":"Max-Planck-Str.","postalCode":"76761","locality":"Rülzheim","municipality":{"key":"07334025","name":"Rülzheim","type":"Kreisangehörige_Gemeinde"},"district":{"key":"07334","name":"Germersheim","type":"Landkreis"},"federalState":{"key":"07","name":"Rheinland-Pfalz"}},{"name":"Mittlere Ortsstr.","postalCode":"76761","locality":"Rülzheim","municipality":{"key":"07334025","name":"Rülzheim","type":"Kreisangehörige_Gemeinde"},"district":{"key":"07334","name":"Germersheim","type":"Landkreis"},"federalState":{"key":"07","name":"Rheinland-Pfalz"}},{"name":"Mörikestr.","postalCode":"76761","locality":"Rülzheim","municipality":{"key":"07334025","name":"Rülzheim","type":"Kreisangehörige_Gemeinde"},"district":{"key":"07334","name":"Germersheim","type":"Landkreis"},"federalState":{"key":"07","name":"Rheinland-Pfalz"}},{"name":"Mozartstr.","postalCode":"76761","locality":"Rülzheim","municipality":{"key":"07334025","name":"Rülzheim","type":"Kreisangehörige_Gemeinde"},"district":{"key":"07334","name":"Germersheim","type":"Landkreis"},"federalState":{"key":"07","name":"Rheinland-Pfalz"}},{"name":"Neue Landstr.","postalCode":"76761","locality":"Rülzheim","municipality":{"key":"07334025","name":"Rülzheim","type":"Kreisangehörige_Gemeinde"},"district":{"key":"07334","name":"Germersheim","type":"Landkreis"},"federalState":{"key":"07","name":"Rheinland-Pfalz"}},{"name":"Neue Mühlgasse","postalCode":"76761","locality":"Rülzheim","municipality":{"key":"07334025","name":"Rülzheim","type":"Kreisangehörige_Gemeinde"},"district":{"key":"07334","name":"Germersheim","type":"Landkreis"},"federalState":{"key":"07","name":"Rheinland-Pfalz"}},{"name":"Neufeldstr.","postalCode":"76761","locality":"Rülzheim","municipality":{"key":"07334025","name":"Rülzheim","type":"Kreisangehörige_Gemeinde"},"district":{"key":"07334","name":"Germersheim","type":"Landkreis"},"federalState":{"key":"07","name":"Rheinland-Pfalz"}},{"name":"Nordring","postalCode":"76761","locality":"Rülzheim","municipality":{"key":"07334025","name":"Rülzheim","type":"Kreisangehörige_Gemeinde"},"district":{"key":"07334","name":"Germersheim","type":"Landkreis"},"federalState":{"key":"07","name":"Rheinland-Pfalz"}},{"name":"Obere Schleich","postalCode":"76761","locality":"Rülzheim","municipality":{"key":"07334025","name":"Rülzheim","type":"Kreisangehörige_Gemeinde"},"district":{"key":"07334","name":"Germersheim","type":"Landkreis"},"federalState":{"key":"07","name":"Rheinland-Pfalz"}},{"name":"Ochsenweg","postalCode":"76761","locality":"Rülzheim","municipality":{"key":"07334025","name":"Rülzheim","type":"Kreisangehörige_Gemeinde"},"district":{"key":"07334","name":"Germersheim","type":"Landkreis"},"federalState":{"key":"07","name":"Rheinland-Pfalz"}},{"name":"Pfarrer-Löser-Str.","postalCode":"76761","locality":"Rülzheim","municipality":{"key":"07334025","name":"Rülzheim","type":"Kreisangehörige_Gemeinde"},"district":{"key":"07334","name":"Germersheim","type":"Landkreis"},"federalState":{"key":"07","name":"Rheinland-Pfalz"}},{"name":"Pfarrer-Wetzel-Str.","postalCode":"76761","locality":"Rülzheim","municipality":{"key":"07334025","name":"Rülzheim","type":"Kreisangehörige_Gemeinde"},"district":{"key":"07334","name":"Germersheim","type":"Landkreis"},"federalState":{"key":"07","name":"Rheinland-Pfalz"}},{"name":"Queichstr.","postalCode":"76726","locality":"Germersheim","municipality":{"key":"07334007","name":"Germersheim, Stadt","type":"Stadt"},"district":{"key":"07334","name":"Germersheim","type":"Landkreis"},"federalState":{"key":"07","name":"Rheinland-Pfalz"}},{"name":"Raiffeisenstr.","postalCode":"76761","locality":"Rülzheim","municipality":{"key":"07334025","name":"Rülzheim","type":"Kreisangehörige_Gemeinde"},"district":{"key":"07334","name":"Germersheim","type":"Landkreis"},"federalState":{"key":"07","name":"Rheinland-Pfalz"}},{"name":"Rheinzaberner Str.","postalCode":"76761","locality":"Rülzheim","municipality":{"key":"07334025","name":"Rülzheim","type":"Kreisangehörige_Gemeinde"},"district":{"key":"07334","name":"Germersheim","type":"Landkreis"},"federalState":{"key":"07","name":"Rheinland-Pfalz"}},{"name":"Robert-Seither-Str.","postalCode":"76761","locality":"Rülzheim","municipality":{"key":"07334025","name":"Rülzheim","type":"Kreisangehörige_Gemeinde"},"district":{"key":"07334","name":"Germersheim","type":"Landkreis"},"federalState":{"key":"07","name":"Rheinland-Pfalz"}},{"name":"Römerstr.","postalCode":"76761","locality":"Rülzheim","municipality":{"key":"07334025","name":"Rülzheim","type":"Kreisangehörige_Gemeinde"},"district":{"key":"07334","name":"Germersheim","type":"Landkreis"},"federalState":{"key":"07","name":"Rheinland-Pfalz"}},{"name":"Sankt-Diethard-Str.","postalCode":"76761","locality":"Rülzheim","municipality":{"key":"07334025","name":"Rülzheim","type":"Kreisangehörige_Gemeinde"},"district":{"key":"07334","name":"Germersheim","type":"Landkreis"},"federalState":{"key":"07","name":"Rheinland-Pfalz"}},{"name":"Schillerstr.","postalCode":"76761","locality":"Rülzheim","municipality":{"key":"07334025","name":"Rülzheim","type":"Kreisangehörige_Gemeinde"},"district":{"key":"07334","name":"Germersheim","type":"Landkreis"},"federalState":{"key":"07","name":"Rheinland-Pfalz"}},{"name":"Schubertring","postalCode":"76761","locality":"Rülzheim","municipality":{"key":"07334025","name":"Rülzheim","type":"Kreisangehörige_Gemeinde"},"district":{"key":"07334","name":"Germersheim","type":"Landkreis"},"federalState":{"key":"07","name":"Rheinland-Pfalz"}},{"name":"Schulstr.","postalCode":"76761","locality":"Rülzheim","municipality":{"key":"07334025","name":"Rülzheim","type":"Kreisangehörige_Gemeinde"},"district":{"key":"07334","name":"Germersheim","type":"Landkreis"},"federalState":{"key":"07","name":"Rheinland-Pfalz"}},{"name":"Schumannring","postalCode":"76761","locality":"Rülzheim","municipality":{"key":"07334025","name":"Rülzheim","type":"Kreisangehörige_Gemeinde"},"district":{"key":"07334","name":"Germersheim","type":"Landkreis"},"federalState":{"key":"07","name":"Rheinland-Pfalz"}},{"name":"Schützenpfad","postalCode":"76761","locality":"Rülzheim","municipality":{"key":"07334025","name":"Rülzheim","type":"Kreisangehörige_Gemeinde"},"district":{"key":"07334","name":"Germersheim","type":"Landkreis"},"federalState":{"key":"07","name":"Rheinland-Pfalz"}},{"name":"Schwester-Irlanda-Weg","postalCode":"76761","locality":"Rülzheim","municipality":{"key":"07334025","name":"Rülzheim","type":"Kreisangehörige_Gemeinde"},"district":{"key":"07334","name":"Germersheim","type":"Landkreis"},"federalState":{"key":"07","name":"Rheinland-Pfalz"}},{"name":"Schwester-Katharina-Weg","postalCode":"76761","locality":"Rülzheim","municipality":{"key":"07334025","name":"Rülzheim","type":"Kreisangehörige_Gemeinde"},"district":{"key":"07334","name":"Germersheim","type":"Landkreis"},"federalState":{"key":"07","name":"Rheinland-Pfalz"}},{"name":"Siemensring","postalCode":"76761","locality":"Rülzheim","municipality":{"key":"07334025","name":"Rülzheim","type":"Kreisangehörige_Gemeinde"},"district":{"key":"07334","name":"Germersheim","type":"Landkreis"},"federalState":{"key":"07","name":"Rheinland-Pfalz"}},{"name":"Storchengasse","postalCode":"76761","locality":"Rülzheim","municipality":{"key":"07334025","name":"Rülzheim","type":"Kreisangehörige_Gemeinde"},"district":{"key":"07334","name":"Germersheim","type":"Landkreis"},"federalState":{"key":"07","name":"Rheinland-Pfalz"}},{"name":"Südring","postalCode":"76761","locality":"Rülzheim","municipality":{"key":"07334025","name":"Rülzheim","type":"Kreisangehörige_Gemeinde"},"district":{"key":"07334","name":"Germersheim","type":"Landkreis"},"federalState":{"key":"07","name":"Rheinland-Pfalz"}},{"name":"Tabakweg","postalCode":"76761","locality":"Rülzheim","municipality":{"key":"07334025","name":"Rülzheim","type":"Kreisangehörige_Gemeinde"},"district":{"key":"07334","name":"Germersheim","type":"Landkreis"},"federalState":{"key":"07","name":"Rheinland-Pfalz"}},{"name":"Uhlandstr.","postalCode":"76761","locality":"Rülzheim","municipality":{"key":"07334025","name":"Rülzheim","type":"Kreisangehörige_Gemeinde"},"district":{"key":"07334","name":"Germersheim","type":"Landkreis"},"federalState":{"key":"07","name":"Rheinland-Pfalz"}},{"name":"Vincentistr.","postalCode":"76726","locality":"Germersheim","municipality":{"key":"07334007","name":"Germersheim, Stadt","type":"Stadt"},"district":{"key":"07334","name":"Germersheim","type":"Landkreis"},"federalState":{"key":"07","name":"Rheinland-Pfalz"}},{"name":"Waldstr.","postalCode":"76761","locality":"Rülzheim","municipality":{"key":"07334025","name":"Rülzheim","type":"Kreisangehörige_Gemeinde"},"district":{"key":"07334","name":"Germersheim","type":"Landkreis"},"federalState":{"key":"07","name":"Rheinland-Pfalz"}},{"name":"Waschgasse","postalCode":"76761","locality":"Rülzheim","municipality":{"key":"07334025","name":"Rülzheim","type":"Kreisangehörige_Gemeinde"},"district":{"key":"07334","name":"Germersheim","type":"Landkreis"},"federalState":{"key":"07","name":"Rheinland-Pfalz"}},{"name":"Westendstr.","postalCode":"76761","locality":"Rülzheim","municipality":{"key":"07334025","name":"Rülzheim","type":"Kreisangehörige_Gemeinde"},"district":{"key":"07334","name":"Germersheim","type":"Landkreis"},"federalState":{"key":"07","name":"Rheinland-Pfalz"}},{"name":"Ysenburgstr.","postalCode":"76726","locality":"Germersheim","municipality":{"key":"07334007","name":"Germersheim, Stadt","type":"Stadt"},"district":{"key":"07334","name":"Germersheim","type":"Landkreis"},"federalState":{"key":"07","name":"Rheinland-Pfalz"}},{"name":"Zeppelinstr.","postalCode":"76761","locality":"Rülzheim","municipality":{"key":"07334025","name":"Rülzheim","type":"Kreisangehörige_Gemeinde"},"district":{"key":"07334","name":"Germersheim","type":"Landkreis"},"federalState":{"key":"07","name":"Rheinland-Pfalz"}},]