[{"key":"10140554","name":"Ahornweg","postalCode":"4434","locality":"Hölstein","commune":{"key":"2886","name":"Hölstein","shortName":"Hölstein"},"district":{"key":"1305","name":"Bezirk Waldenburg"},"canton":{"key":"13","code":"BL","name":"Basel-Landschaft"},"status":"Real"},{"key":"10155620","name":"Alte Landstrasse","postalCode":"4434","locality":"Hölstein","commune":{"key":"2886","name":"Hölstein","shortName":"Hölstein"},"district":{"key":"1305","name":"Bezirk Waldenburg"},"canton":{"key":"13","code":"BL","name":"Basel-Landschaft"},"status":"Real"},{"key":"10026606","name":"Auf Stutz","postalCode":"4434","locality":"Hölstein","commune":{"key":"2886","name":"Hölstein","shortName":"Hölstein"},"district":{"key":"1305","name":"Bezirk Waldenburg"},"canton":{"key":"13","code":"BL","name":"Basel-Landschaft"},"status":"Real"},{"key":"10026607","name":"Bärenmattenstrasse","postalCode":"4434","locality":"Hölstein","commune":{"key":"2886","name":"Hölstein","shortName":"Hölstein"},"district":{"key":"1305","name":"Bezirk Waldenburg"},"canton":{"key":"13","code":"BL","name":"Basel-Landschaft"},"status":"Real"},{"key":"10086957","name":"Bennwilerstrasse","postalCode":"4434","locality":"Hölstein","commune":{"key":"2886","name":"Hölstein","shortName":"Hölstein"},"district":{"key":"1305","name":"Bezirk Waldenburg"},"canton":{"key":"13","code":"BL","name":"Basel-Landschaft"},"status":"Real"},{"key":"10168486","name":"Birch","postalCode":"4434","locality":"Hölstein","commune":{"key":"2886","name":"Hölstein","shortName":"Hölstein"},"district":{"key":"1305","name":"Bezirk Waldenburg"},"canton":{"key":"13","code":"BL","name":"Basel-Landschaft"},"status":"Real"},{"key":"10072523","name":"Biretenweg","postalCode":"4434","locality":"Hölstein","commune":{"key":"2886","name":"Hölstein","shortName":"Hölstein"},"district":{"key":"1305","name":"Bezirk Waldenburg"},"canton":{"key":"13","code":"BL","name":"Basel-Landschaft"},"status":"Real"},{"key":"10086958","name":"Bölchenstrasse","postalCode":"4434","locality":"Hölstein","commune":{"key":"2886","name":"Hölstein","shortName":"Hölstein"},"district":{"key":"1305","name":"Bezirk Waldenburg"},"canton":{"key":"13","code":"BL","name":"Basel-Landschaft"},"status":"Real"},{"key":"10159093","name":"Breitisberg","postalCode":"4434","locality":"Hölstein","commune":{"key":"2886","name":"Hölstein","shortName":"Hölstein"},"district":{"key":"1305","name":"Bezirk Waldenburg"},"canton":{"key":"13","code":"BL","name":"Basel-Landschaft"},"status":"Real"},{"key":"10208764","name":"Bubenriedweg","postalCode":"4434","locality":"Hölstein","commune":{"key":"2886","name":"Hölstein","shortName":"Hölstein"},"district":{"key":"1305","name":"Bezirk Waldenburg"},"canton":{"key":"13","code":"BL","name":"Basel-Landschaft"},"status":"Real"},{"key":"10158532","name":"Buech","postalCode":"4434","locality":"Hölstein","commune":{"key":"2886","name":"Hölstein","shortName":"Hölstein"},"district":{"key":"1305","name":"Bezirk Waldenburg"},"canton":{"key":"13","code":"BL","name":"Basel-Landschaft"},"status":"Real"},{"key":"10185446","name":"Buechring","postalCode":"4434","locality":"Hölstein","commune":{"key":"2886","name":"Hölstein","shortName":"Hölstein"},"district":{"key":"1305","name":"Bezirk Waldenburg"},"canton":{"key":"13","code":"BL","name":"Basel-Landschaft"},"status":"Real"},{"key":"10140555","name":"Buechweg","postalCode":"4434","locality":"Hölstein","commune":{"key":"2886","name":"Hölstein","shortName":"Hölstein"},"district":{"key":"1305","name":"Bezirk Waldenburg"},"canton":{"key":"13","code":"BL","name":"Basel-Landschaft"},"status":"Real"},{"key":"10072524","name":"Bündtenweg","postalCode":"4434","locality":"Hölstein","commune":{"key":"2886","name":"Hölstein","shortName":"Hölstein"},"district":{"key":"1305","name":"Bezirk Waldenburg"},"canton":{"key":"13","code":"BL","name":"Basel-Landschaft"},"status":"Real"},{"key":"10176170","name":"Cheeslochstrasse","postalCode":"4434","locality":"Hölstein","commune":{"key":"2886","name":"Hölstein","shortName":"Hölstein"},"district":{"key":"1305","name":"Bezirk Waldenburg"},"canton":{"key":"13","code":"BL","name":"Basel-Landschaft"},"status":"Real"},{"key":"10026608","name":"Dammstrasse","postalCode":"4434","locality":"Hölstein","commune":{"key":"2886","name":"Hölstein","shortName":"Hölstein"},"district":{"key":"1305","name":"Bezirk Waldenburg"},"canton":{"key":"13","code":"BL","name":"Basel-Landschaft"},"status":"Real"},{"key":"10026609","name":"Eggmattweg","postalCode":"4434","locality":"Hölstein","commune":{"key":"2886","name":"Hölstein","shortName":"Hölstein"},"district":{"key":"1305","name":"Bezirk Waldenburg"},"canton":{"key":"13","code":"BL","name":"Basel-Landschaft"},"status":"Real"},{"key":"10208765","name":"Eichhofstrasse","postalCode":"4434","locality":"Hölstein","commune":{"key":"2886","name":"Hölstein","shortName":"Hölstein"},"district":{"key":"1305","name":"Bezirk Waldenburg"},"canton":{"key":"13","code":"BL","name":"Basel-Landschaft"},"status":"Real"},{"key":"10026610","name":"Erliweg","postalCode":"4434","locality":"Hölstein","commune":{"key":"2886","name":"Hölstein","shortName":"Hölstein"},"district":{"key":"1305","name":"Bezirk Waldenburg"},"canton":{"key":"13","code":"BL","name":"Basel-Landschaft"},"status":"Real"},{"key":"10072525","name":"Ernenweg","postalCode":"4434","locality":"Hölstein","commune":{"key":"2886","name":"Hölstein","shortName":"Hölstein"},"district":{"key":"1305","name":"Bezirk Waldenburg"},"canton":{"key":"13","code":"BL","name":"Basel-Landschaft"},"status":"Real"},{"key":"10086959","name":"Feldstrasse","postalCode":"4434","locality":"Hölstein","commune":{"key":"2886","name":"Hölstein","shortName":"Hölstein"},"district":{"key":"1305","name":"Bezirk Waldenburg"},"canton":{"key":"13","code":"BL","name":"Basel-Landschaft"},"status":"Real"},{"key":"10147871","name":"Fichtenweg","postalCode":"4434","locality":"Hölstein","commune":{"key":"2886","name":"Hölstein","shortName":"Hölstein"},"district":{"key":"1305","name":"Bezirk Waldenburg"},"canton":{"key":"13","code":"BL","name":"Basel-Landschaft"},"status":"Real"},{"key":"10026611","name":"Finelenstrasse","postalCode":"4434","locality":"Hölstein","commune":{"key":"2886","name":"Hölstein","shortName":"Hölstein"},"district":{"key":"1305","name":"Bezirk Waldenburg"},"canton":{"key":"13","code":"BL","name":"Basel-Landschaft"},"status":"Real"},{"key":"10086960","name":"Föhrenweg","postalCode":"4434","locality":"Hölstein","commune":{"key":"2886","name":"Hölstein","shortName":"Hölstein"},"district":{"key":"1305","name":"Bezirk Waldenburg"},"canton":{"key":"13","code":"BL","name":"Basel-Landschaft"},"status":"Real"},{"key":"10026612","name":"Frenkenstrasse","postalCode":"4434","locality":"Hölstein","commune":{"key":"2886","name":"Hölstein","shortName":"Hölstein"},"district":{"key":"1305","name":"Bezirk Waldenburg"},"canton":{"key":"13","code":"BL","name":"Basel-Landschaft"},"status":"Real"},{"key":"10103862","name":"Fürhaldenweg","postalCode":"4434","locality":"Hölstein","commune":{"key":"2886","name":"Hölstein","shortName":"Hölstein"},"district":{"key":"1305","name":"Bezirk Waldenburg"},"canton":{"key":"13","code":"BL","name":"Basel-Landschaft"},"status":"Real"},{"key":"10026613","name":"Gartenstrasse","postalCode":"4434","locality":"Hölstein","commune":{"key":"2886","name":"Hölstein","shortName":"Hölstein"},"district":{"key":"1305","name":"Bezirk Waldenburg"},"canton":{"key":"13","code":"BL","name":"Basel-Landschaft"},"status":"Real"},{"key":"10185447","name":"Gassenbachweg","postalCode":"4434","locality":"Hölstein","commune":{"key":"2886","name":"Hölstein","shortName":"Hölstein"},"district":{"key":"1305","name":"Bezirk Waldenburg"},"canton":{"key":"13","code":"BL","name":"Basel-Landschaft"},"status":"Real"},{"key":"10160031","name":"Gründen","postalCode":"4434","locality":"Hölstein","commune":{"key":"2886","name":"Hölstein","shortName":"Hölstein"},"district":{"key":"1305","name":"Bezirk Waldenburg"},"canton":{"key":"13","code":"BL","name":"Basel-Landschaft"},"status":"Real"},{"key":"10208766","name":"Gründenweg","postalCode":"4434","locality":"Hölstein","commune":{"key":"2886","name":"Hölstein","shortName":"Hölstein"},"district":{"key":"1305","name":"Bezirk Waldenburg"},"canton":{"key":"13","code":"BL","name":"Basel-Landschaft"},"status":"Real"},{"key":"10163076","name":"Hauensteinstrasse","postalCode":"4434","locality":"Hölstein","commune":{"key":"2886","name":"Hölstein","shortName":"Hölstein"},"district":{"key":"1305","name":"Bezirk Waldenburg"},"canton":{"key":"13","code":"BL","name":"Basel-Landschaft"},"status":"Real"},{"key":"10086961","name":"Hauptstrasse","postalCode":"4434","locality":"Hölstein","commune":{"key":"2886","name":"Hölstein","shortName":"Hölstein"},"district":{"key":"1305","name":"Bezirk Waldenburg"},"canton":{"key":"13","code":"BL","name":"Basel-Landschaft"},"status":"Real"},{"key":"10108794","name":"Hausmattstrasse","postalCode":"4434","locality":"Hölstein","commune":{"key":"2886","name":"Hölstein","shortName":"Hölstein"},"district":{"key":"1305","name":"Bezirk Waldenburg"},"canton":{"key":"13","code":"BL","name":"Basel-Landschaft"},"status":"Real"},{"key":"10168487","name":"Helgenweid","postalCode":"4434","locality":"Hölstein","commune":{"key":"2886","name":"Hölstein","shortName":"Hölstein"},"district":{"key":"1305","name":"Bezirk Waldenburg"},"canton":{"key":"13","code":"BL","name":"Basel-Landschaft"},"status":"Real"},{"key":"10210771","name":"Helgenweidstrasse","postalCode":"4434","locality":"Hölstein","commune":{"key":"2886","name":"Hölstein","shortName":"Hölstein"},"district":{"key":"1305","name":"Bezirk Waldenburg"},"canton":{"key":"13","code":"BL","name":"Basel-Landschaft"},"status":"Real"},{"key":"10155621","name":"Hof Bubenried","postalCode":"4434","locality":"Hölstein","commune":{"key":"2886","name":"Hölstein","shortName":"Hölstein"},"district":{"key":"1305","name":"Bezirk Waldenburg"},"canton":{"key":"13","code":"BL","name":"Basel-Landschaft"},"status":"Real"},{"key":"10163074","name":"Hof Eich","postalCode":"4434","locality":"Hölstein","commune":{"key":"2886","name":"Hölstein","shortName":"Hölstein"},"district":{"key":"1305","name":"Bezirk Waldenburg"},"canton":{"key":"13","code":"BL","name":"Basel-Landschaft"},"status":"Real"},{"key":"10054961","name":"Hof Erli","postalCode":"4434","locality":"Hölstein","commune":{"key":"2886","name":"Hölstein","shortName":"Hölstein"},"district":{"key":"1305","name":"Bezirk Waldenburg"},"canton":{"key":"13","code":"BL","name":"Basel-Landschaft"},"status":"Real"},{"key":"10163069","name":"Hof Finelen","postalCode":"4434","locality":"Hölstein","commune":{"key":"2886","name":"Hölstein","shortName":"Hölstein"},"district":{"key":"1305","name":"Bezirk Waldenburg"},"canton":{"key":"13","code":"BL","name":"Basel-Landschaft"},"status":"Real"},{"key":"10163075","name":"Hof Gründen","postalCode":"4434","locality":"Hölstein","commune":{"key":"2886","name":"Hölstein","shortName":"Hölstein"},"district":{"key":"1305","name":"Bezirk Waldenburg"},"canton":{"key":"13","code":"BL","name":"Basel-Landschaft"},"status":"Real"},{"key":"10026614","name":"Hof Holdenweid","postalCode":"4434","locality":"Hölstein","commune":{"key":"2886","name":"Hölstein","shortName":"Hölstein"},"district":{"key":"1305","name":"Bezirk Waldenburg"},"canton":{"key":"13","code":"BL","name":"Basel-Landschaft"},"status":"Real"},{"key":"10161687","name":"Hof Kapf","postalCode":"4434","locality":"Hölstein","commune":{"key":"2886","name":"Hölstein","shortName":"Hölstein"},"district":{"key":"1305","name":"Bezirk Waldenburg"},"canton":{"key":"13","code":"BL","name":"Basel-Landschaft"},"status":"Real"},{"key":"10140596","name":"Hof Leuenberg","postalCode":"4434","locality":"Hölstein","commune":{"key":"2886","name":"Hölstein","shortName":"Hölstein"},"district":{"key":"1305","name":"Bezirk Waldenburg"},"canton":{"key":"13","code":"BL","name":"Basel-Landschaft"},"status":"Real"},{"key":"10140587","name":"Hof mittlere Bireten","postalCode":"4434","locality":"Hölstein","commune":{"key":"2886","name":"Hölstein","shortName":"Hölstein"},"district":{"key":"1305","name":"Bezirk Waldenburg"},"canton":{"key":"13","code":"BL","name":"Basel-Landschaft"},"status":"Real"},{"key":"10140575","name":"Hof obere Bireten","postalCode":"4434","locality":"Hölstein","commune":{"key":"2886","name":"Hölstein","shortName":"Hölstein"},"district":{"key":"1305","name":"Bezirk Waldenburg"},"canton":{"key":"13","code":"BL","name":"Basel-Landschaft"},"status":"Real"},{"key":"10072530","name":"Hof Weid","postalCode":"4434","locality":"Hölstein","commune":{"key":"2886","name":"Hölstein","shortName":"Hölstein"},"district":{"key":"1305","name":"Bezirk Waldenburg"},"canton":{"key":"13","code":"BL","name":"Basel-Landschaft"},"status":"Real"},{"key":"10140594","name":"Hohlensträssli","postalCode":"4434","locality":"Hölstein","commune":{"key":"2886","name":"Hölstein","shortName":"Hölstein"},"district":{"key":"1305","name":"Bezirk Waldenburg"},"canton":{"key":"13","code":"BL","name":"Basel-Landschaft"},"status":"Real"},{"key":"10208767","name":"Holdenweidweg","postalCode":"4434","locality":"Hölstein","commune":{"key":"2886","name":"Hölstein","shortName":"Hölstein"},"district":{"key":"1305","name":"Bezirk Waldenburg"},"canton":{"key":"13","code":"BL","name":"Basel-Landschaft"},"status":"Real"},{"key":"10026615","name":"Holenweg","postalCode":"4434","locality":"Hölstein","commune":{"key":"2886","name":"Hölstein","shortName":"Hölstein"},"district":{"key":"1305","name":"Bezirk Waldenburg"},"canton":{"key":"13","code":"BL","name":"Basel-Landschaft"},"status":"Real"},{"key":"10163077","name":"Horn","postalCode":"4434","locality":"Hölstein","commune":{"key":"2886","name":"Hölstein","shortName":"Hölstein"},"district":{"key":"1305","name":"Bezirk Waldenburg"},"canton":{"key":"13","code":"BL","name":"Basel-Landschaft"},"status":"Real"},{"key":"10118133","name":"Im Kirschgarten","postalCode":"4434","locality":"Hölstein","commune":{"key":"2886","name":"Hölstein","shortName":"Hölstein"},"district":{"key":"1305","name":"Bezirk Waldenburg"},"canton":{"key":"13","code":"BL","name":"Basel-Landschaft"},"status":"Real"},{"key":"10120386","name":"Im Oberfeld","postalCode":"4434","locality":"Hölstein","commune":{"key":"2886","name":"Hölstein","shortName":"Hölstein"},"district":{"key":"1305","name":"Bezirk Waldenburg"},"canton":{"key":"13","code":"BL","name":"Basel-Landschaft"},"status":"Real"},{"key":"10163078","name":"Im Tal","postalCode":"4434","locality":"Hölstein","commune":{"key":"2886","name":"Hölstein","shortName":"Hölstein"},"district":{"key":"1305","name":"Bezirk Waldenburg"},"canton":{"key":"13","code":"BL","name":"Basel-Landschaft"},"status":"Real"},{"key":"10208768","name":"Kapfweg","postalCode":"4434","locality":"Hölstein","commune":{"key":"2886","name":"Hölstein","shortName":"Hölstein"},"district":{"key":"1305","name":"Bezirk Waldenburg"},"canton":{"key":"13","code":"BL","name":"Basel-Landschaft"},"status":"Real"},{"key":"10110805","name":"Kirchgasse","postalCode":"4434","locality":"Hölstein","commune":{"key":"2886","name":"Hölstein","shortName":"Hölstein"},"district":{"key":"1305","name":"Bezirk Waldenburg"},"canton":{"key":"13","code":"BL","name":"Basel-Landschaft"},"status":"Real"},{"key":"10026616","name":"Kirchhaldenweg","postalCode":"4434","locality":"Hölstein","commune":{"key":"2886","name":"Hölstein","shortName":"Hölstein"},"district":{"key":"1305","name":"Bezirk Waldenburg"},"canton":{"key":"13","code":"BL","name":"Basel-Landschaft"},"status":"Real"},{"key":"10086962","name":"Kirchrainstrasse","postalCode":"4434","locality":"Hölstein","commune":{"key":"2886","name":"Hölstein","shortName":"Hölstein"},"district":{"key":"1305","name":"Bezirk Waldenburg"},"canton":{"key":"13","code":"BL","name":"Basel-Landschaft"},"status":"Real"},{"key":"10161688","name":"Kleinholz","postalCode":"4434","locality":"Hölstein","commune":{"key":"2886","name":"Hölstein","shortName":"Hölstein"},"district":{"key":"1305","name":"Bezirk Waldenburg"},"canton":{"key":"13","code":"BL","name":"Basel-Landschaft"},"status":"Real"},{"key":"10161689","name":"Lampenbergerweg","postalCode":"4434","locality":"Hölstein","commune":{"key":"2886","name":"Hölstein","shortName":"Hölstein"},"district":{"key":"1305","name":"Bezirk Waldenburg"},"canton":{"key":"13","code":"BL","name":"Basel-Landschaft"},"status":"Real"},{"key":"10026618","name":"Langenbaumweg","postalCode":"4434","locality":"Hölstein","commune":{"key":"2886","name":"Hölstein","shortName":"Hölstein"},"district":{"key":"1305","name":"Bezirk Waldenburg"},"canton":{"key":"13","code":"BL","name":"Basel-Landschaft"},"status":"Real"},{"key":"10161690","name":"Langgarben","postalCode":"4434","locality":"Hölstein","commune":{"key":"2886","name":"Hölstein","shortName":"Hölstein"},"district":{"key":"1305","name":"Bezirk Waldenburg"},"canton":{"key":"13","code":"BL","name":"Basel-Landschaft"},"status":"Real"},{"key":"10072526","name":"Lerchenstrasse","postalCode":"4434","locality":"Hölstein","commune":{"key":"2886","name":"Hölstein","shortName":"Hölstein"},"district":{"key":"1305","name":"Bezirk Waldenburg"},"canton":{"key":"13","code":"BL","name":"Basel-Landschaft"},"status":"Real"},{"key":"10215082","name":"Leuenberg","postalCode":"4434","locality":"Hölstein","commune":{"key":"2886","name":"Hölstein","shortName":"Hölstein"},"district":{"key":"1305","name":"Bezirk Waldenburg"},"canton":{"key":"13","code":"BL","name":"Basel-Landschaft"},"status":"Real"},{"key":"10161691","name":"Leuenbergstrasse","postalCode":"4434","locality":"Hölstein","commune":{"key":"2886","name":"Hölstein","shortName":"Hölstein"},"district":{"key":"1305","name":"Bezirk Waldenburg"},"canton":{"key":"13","code":"BL","name":"Basel-Landschaft"},"status":"Real"},{"key":"10026619","name":"Mattenweg","postalCode":"4434","locality":"Hölstein","commune":{"key":"2886","name":"Hölstein","shortName":"Hölstein"},"district":{"key":"1305","name":"Bezirk Waldenburg"},"canton":{"key":"13","code":"BL","name":"Basel-Landschaft"},"status":"Real"},{"key":"10026620","name":"Neuhausweg","postalCode":"4434","locality":"Hölstein","commune":{"key":"2886","name":"Hölstein","shortName":"Hölstein"},"district":{"key":"1305","name":"Bezirk Waldenburg"},"canton":{"key":"13","code":"BL","name":"Basel-Landschaft"},"status":"Real"},{"key":"10185448","name":"Neumattstrasse","postalCode":"4434","locality":"Hölstein","commune":{"key":"2886","name":"Hölstein","shortName":"Hölstein"},"district":{"key":"1305","name":"Bezirk Waldenburg"},"canton":{"key":"13","code":"BL","name":"Basel-Landschaft"},"status":"Real"},{"key":"10072527","name":"Neuweg","postalCode":"4434","locality":"Hölstein","commune":{"key":"2886","name":"Hölstein","shortName":"Hölstein"},"district":{"key":"1305","name":"Bezirk Waldenburg"},"canton":{"key":"13","code":"BL","name":"Basel-Landschaft"},"status":"Real"},{"key":"10086964","name":"Ob der Holde","postalCode":"4434","locality":"Hölstein","commune":{"key":"2886","name":"Hölstein","shortName":"Hölstein"},"district":{"key":"1305","name":"Bezirk Waldenburg"},"canton":{"key":"13","code":"BL","name":"Basel-Landschaft"},"status":"Real"},{"key":"10026621","name":"Oberer Holdenweg","postalCode":"4434","locality":"Hölstein","commune":{"key":"2886","name":"Hölstein","shortName":"Hölstein"},"district":{"key":"1305","name":"Bezirk Waldenburg"},"canton":{"key":"13","code":"BL","name":"Basel-Landschaft"},"status":"Real"},{"key":"10161692","name":"Oberfeld","postalCode":"4434","locality":"Hölstein","commune":{"key":"2886","name":"Hölstein","shortName":"Hölstein"},"district":{"key":"1305","name":"Bezirk Waldenburg"},"canton":{"key":"13","code":"BL","name":"Basel-Landschaft"},"status":"Real"},{"key":"10026622","name":"Obermattweg","postalCode":"4434","locality":"Hölstein","commune":{"key":"2886","name":"Hölstein","shortName":"Hölstein"},"district":{"key":"1305","name":"Bezirk Waldenburg"},"canton":{"key":"13","code":"BL","name":"Basel-Landschaft"},"status":"Real"},{"key":"10122644","name":"Orisstrasse","postalCode":"4434","locality":"Hölstein","commune":{"key":"2886","name":"Hölstein","shortName":"Hölstein"},"district":{"key":"1305","name":"Bezirk Waldenburg"},"canton":{"key":"13","code":"BL","name":"Basel-Landschaft"},"status":"Real"},{"key":"10168488","name":"Pfiffenratten","postalCode":"4434","locality":"Hölstein","commune":{"key":"2886","name":"Hölstein","shortName":"Hölstein"},"district":{"key":"1305","name":"Bezirk Waldenburg"},"canton":{"key":"13","code":"BL","name":"Basel-Landschaft"},"status":"Real"},{"key":"10086965","name":"Rebgasse","postalCode":"4434","locality":"Hölstein","commune":{"key":"2886","name":"Hölstein","shortName":"Hölstein"},"district":{"key":"1305","name":"Bezirk Waldenburg"},"canton":{"key":"13","code":"BL","name":"Basel-Landschaft"},"status":"Real"},{"key":"10026623","name":"Rehhagstrasse","postalCode":"4434","locality":"Hölstein","commune":{"key":"2886","name":"Hölstein","shortName":"Hölstein"},"district":{"key":"1305","name":"Bezirk Waldenburg"},"canton":{"key":"13","code":"BL","name":"Basel-Landschaft"},"status":"Real"},{"key":"10161693","name":"Reservoirweg","postalCode":"4434","locality":"Hölstein","commune":{"key":"2886","name":"Hölstein","shortName":"Hölstein"},"district":{"key":"1305","name":"Bezirk Waldenburg"},"canton":{"key":"13","code":"BL","name":"Basel-Landschaft"},"status":"Real"},{"key":"10086966","name":"Ribigasse","postalCode":"4434","locality":"Hölstein","commune":{"key":"2886","name":"Hölstein","shortName":"Hölstein"},"district":{"key":"1305","name":"Bezirk Waldenburg"},"canton":{"key":"13","code":"BL","name":"Basel-Landschaft"},"status":"Real"},{"key":"10072528","name":"Schützenstrasse","postalCode":"4434","locality":"Hölstein","commune":{"key":"2886","name":"Hölstein","shortName":"Hölstein"},"district":{"key":"1305","name":"Bezirk Waldenburg"},"canton":{"key":"13","code":"BL","name":"Basel-Landschaft"},"status":"Real"},{"key":"10176171","name":"Sonnenweg","postalCode":"4434","locality":"Hölstein","commune":{"key":"2886","name":"Hölstein","shortName":"Hölstein"},"district":{"key":"1305","name":"Bezirk Waldenburg"},"canton":{"key":"13","code":"BL","name":"Basel-Landschaft"},"status":"Real"},{"key":"10026625","name":"Steinenweg","postalCode":"4434","locality":"Hölstein","commune":{"key":"2886","name":"Hölstein","shortName":"Hölstein"},"district":{"key":"1305","name":"Bezirk Waldenburg"},"canton":{"key":"13","code":"BL","name":"Basel-Landschaft"},"status":"Real"},{"key":"10026626","name":"Stutzrain","postalCode":"4434","locality":"Hölstein","commune":{"key":"2886","name":"Hölstein","shortName":"Hölstein"},"district":{"key":"1305","name":"Bezirk Waldenburg"},"canton":{"key":"13","code":"BL","name":"Basel-Landschaft"},"status":"Real"},{"key":"10086967","name":"Stutzring","postalCode":"4434","locality":"Hölstein","commune":{"key":"2886","name":"Hölstein","shortName":"Hölstein"},"district":{"key":"1305","name":"Bezirk Waldenburg"},"canton":{"key":"13","code":"BL","name":"Basel-Landschaft"},"status":"Real"},{"key":"10072529","name":"Stutzweg","postalCode":"4434","locality":"Hölstein","commune":{"key":"2886","name":"Hölstein","shortName":"Hölstein"},"district":{"key":"1305","name":"Bezirk Waldenburg"},"canton":{"key":"13","code":"BL","name":"Basel-Landschaft"},"status":"Real"},{"key":"10120387","name":"Täliweg","postalCode":"4434","locality":"Hölstein","commune":{"key":"2886","name":"Hölstein","shortName":"Hölstein"},"district":{"key":"1305","name":"Bezirk Waldenburg"},"canton":{"key":"13","code":"BL","name":"Basel-Landschaft"},"status":"Real"},{"key":"10108795","name":"Tiefenmattstrasse","postalCode":"4434","locality":"Hölstein","commune":{"key":"2886","name":"Hölstein","shortName":"Hölstein"},"district":{"key":"1305","name":"Bezirk Waldenburg"},"canton":{"key":"13","code":"BL","name":"Basel-Landschaft"},"status":"Real"},{"key":"10086968","name":"Unterer Holdenweg","postalCode":"4434","locality":"Hölstein","commune":{"key":"2886","name":"Hölstein","shortName":"Hölstein"},"district":{"key":"1305","name":"Bezirk Waldenburg"},"canton":{"key":"13","code":"BL","name":"Basel-Landschaft"},"status":"Real"},{"key":"10026627","name":"Unterfeldstrasse","postalCode":"4434","locality":"Hölstein","commune":{"key":"2886","name":"Hölstein","shortName":"Hölstein"},"district":{"key":"1305","name":"Bezirk Waldenburg"},"canton":{"key":"13","code":"BL","name":"Basel-Landschaft"},"status":"Real"},{"key":"10026628","name":"Weidenmattstrasse","postalCode":"4434","locality":"Hölstein","commune":{"key":"2886","name":"Hölstein","shortName":"Hölstein"},"district":{"key":"1305","name":"Bezirk Waldenburg"},"canton":{"key":"13","code":"BL","name":"Basel-Landschaft"},"status":"Real"},{"key":"10140560","name":"Weidweg","postalCode":"4434","locality":"Hölstein","commune":{"key":"2886","name":"Hölstein","shortName":"Hölstein"},"district":{"key":"1305","name":"Bezirk Waldenburg"},"canton":{"key":"13","code":"BL","name":"Basel-Landschaft"},"status":"Real"},{"key":"10086969","name":"Weierweg","postalCode":"4434","locality":"Hölstein","commune":{"key":"2886","name":"Hölstein","shortName":"Hölstein"},"district":{"key":"1305","name":"Bezirk Waldenburg"},"canton":{"key":"13","code":"BL","name":"Basel-Landschaft"},"status":"Real"},{"key":"10185449","name":"Wiesengrund","postalCode":"4434","locality":"Hölstein","commune":{"key":"2886","name":"Hölstein","shortName":"Hölstein"},"district":{"key":"1305","name":"Bezirk Waldenburg"},"canton":{"key":"13","code":"BL","name":"Basel-Landschaft"},"status":"Real"},]