[{"key":"10168176","name":"Chemin des Ecoliers","postalCode":"1355","locality":"L'Abergement","commune":{"key":"5741","name":"L'Abergement","shortName":"L'Abergement"},"district":{"key":"2224","name":"District du Jura-Nord vaudois"},"canton":{"key":"22","code":"VD","name":"Vaud"},"status":"Real"},{"key":"10165466","name":"Chemin des Petites Bordes","postalCode":"1355","locality":"L'Abergement","commune":{"key":"5741","name":"L'Abergement","shortName":"L'Abergement"},"district":{"key":"2224","name":"District du Jura-Nord vaudois"},"canton":{"key":"22","code":"VD","name":"Vaud"},"status":"Real"},{"key":"10163634","name":"Chemin des Pralets","postalCode":"1355","locality":"L'Abergement","commune":{"key":"5741","name":"L'Abergement","shortName":"L'Abergement"},"district":{"key":"2224","name":"District du Jura-Nord vaudois"},"canton":{"key":"22","code":"VD","name":"Vaud"},"status":"Real"},{"key":"10165465","name":"Chemin de Yenet","postalCode":"1355","locality":"L'Abergement","commune":{"key":"5741","name":"L'Abergement","shortName":"L'Abergement"},"district":{"key":"2224","name":"District du Jura-Nord vaudois"},"canton":{"key":"22","code":"VD","name":"Vaud"},"status":"Real"},{"key":"10165468","name":"Chemin du Derbel","postalCode":"1355","locality":"L'Abergement","commune":{"key":"5741","name":"L'Abergement","shortName":"L'Abergement"},"district":{"key":"2224","name":"District du Jura-Nord vaudois"},"canton":{"key":"22","code":"VD","name":"Vaud"},"status":"Real"},{"key":"10165467","name":"Chemin du Petit Crêt","postalCode":"1355","locality":"L'Abergement","commune":{"key":"5741","name":"L'Abergement","shortName":"L'Abergement"},"district":{"key":"2224","name":"District du Jura-Nord vaudois"},"canton":{"key":"22","code":"VD","name":"Vaud"},"status":"Real"},{"key":"10099993","name":"Chemin du Petit Vailloud","postalCode":"1355","locality":"L'Abergement","commune":{"key":"5741","name":"L'Abergement","shortName":"L'Abergement"},"district":{"key":"2224","name":"District du Jura-Nord vaudois"},"canton":{"key":"22","code":"VD","name":"Vaud"},"status":"Real"},{"key":"10165607","name":"Chemin du Stand","postalCode":"1355","locality":"L'Abergement","commune":{"key":"5741","name":"L'Abergement","shortName":"L'Abergement"},"district":{"key":"2224","name":"District du Jura-Nord vaudois"},"canton":{"key":"22","code":"VD","name":"Vaud"},"status":"Real"},{"key":"10183533","name":"Clos Mermoud","postalCode":"1355","locality":"L'Abergement","commune":{"key":"5741","name":"L'Abergement","shortName":"L'Abergement"},"district":{"key":"2224","name":"District du Jura-Nord vaudois"},"canton":{"key":"22","code":"VD","name":"Vaud"},"status":"Real"},{"key":"10099992","name":"Crêt des Bordes","postalCode":"1355","locality":"L'Abergement","commune":{"key":"5741","name":"L'Abergement","shortName":"L'Abergement"},"district":{"key":"2224","name":"District du Jura-Nord vaudois"},"canton":{"key":"22","code":"VD","name":"Vaud"},"status":"Real"},{"key":"10168175","name":"Le Crêtet","postalCode":"1355","locality":"L'Abergement","commune":{"key":"5741","name":"L'Abergement","shortName":"L'Abergement"},"district":{"key":"2224","name":"District du Jura-Nord vaudois"},"canton":{"key":"22","code":"VD","name":"Vaud"},"status":"Real"},{"key":"10255358","name":"Petit Chalet","postalCode":"1355","locality":"L'Abergement","commune":{"key":"5741","name":"L'Abergement","shortName":"L'Abergement"},"district":{"key":"2224","name":"District du Jura-Nord vaudois"},"canton":{"key":"22","code":"VD","name":"Vaud"},"status":"Real"},{"key":"10168174","name":"Place du Pressoir","postalCode":"1355","locality":"L'Abergement","commune":{"key":"5741","name":"L'Abergement","shortName":"L'Abergement"},"district":{"key":"2224","name":"District du Jura-Nord vaudois"},"canton":{"key":"22","code":"VD","name":"Vaud"},"status":"Real"},{"key":"10074633","name":"Route des Châtaigniers","postalCode":"1355","locality":"L'Abergement","commune":{"key":"5741","name":"L'Abergement","shortName":"L'Abergement"},"district":{"key":"2224","name":"District du Jura-Nord vaudois"},"canton":{"key":"22","code":"VD","name":"Vaud"},"status":"Real"},{"key":"10163635","name":"Route des Grands Prés","postalCode":"1355","locality":"L'Abergement","commune":{"key":"5741","name":"L'Abergement","shortName":"L'Abergement"},"district":{"key":"2224","name":"District du Jura-Nord vaudois"},"canton":{"key":"22","code":"VD","name":"Vaud"},"status":"Real"},{"key":"10168178","name":"Route des Vergers","postalCode":"1355","locality":"L'Abergement","commune":{"key":"5741","name":"L'Abergement","shortName":"L'Abergement"},"district":{"key":"2224","name":"District du Jura-Nord vaudois"},"canton":{"key":"22","code":"VD","name":"Vaud"},"status":"Real"},{"key":"10168177","name":"Rue des Fontaines","postalCode":"1355","locality":"L'Abergement","commune":{"key":"5741","name":"L'Abergement","shortName":"L'Abergement"},"district":{"key":"2224","name":"District du Jura-Nord vaudois"},"canton":{"key":"22","code":"VD","name":"Vaud"},"status":"Real"},{"key":"10042232","name":"Rue du Grand Vailloud","postalCode":"1355","locality":"L'Abergement","commune":{"key":"5741","name":"L'Abergement","shortName":"L'Abergement"},"district":{"key":"2224","name":"District du Jura-Nord vaudois"},"canton":{"key":"22","code":"VD","name":"Vaud"},"status":"Real"},]