[{"name":"Ahornstr.","postalCode":"49751","locality":"Hüven","municipality":{"key":"03454023","name":"Hüven","type":"Kreisangehörige_Gemeinde"},"district":{"key":"03454","name":"Emsland","type":"Landkreis"},"federalState":{"key":"03","name":"Niedersachsen"}},{"name":"Alte Chaussee","postalCode":"49751","locality":"Hüven","municipality":{"key":"03454023","name":"Hüven","type":"Kreisangehörige_Gemeinde"},"district":{"key":"03454","name":"Emsland","type":"Landkreis"},"federalState":{"key":"03","name":"Niedersachsen"}},{"name":"Am Eichenwall","postalCode":"49751","locality":"Hüven","municipality":{"key":"03454023","name":"Hüven","type":"Kreisangehörige_Gemeinde"},"district":{"key":"03454","name":"Emsland","type":"Landkreis"},"federalState":{"key":"03","name":"Niedersachsen"}},{"name":"Am Schützenplatz","postalCode":"49751","locality":"Hüven","municipality":{"key":"03454023","name":"Hüven","type":"Kreisangehörige_Gemeinde"},"district":{"key":"03454","name":"Emsland","type":"Landkreis"},"federalState":{"key":"03","name":"Niedersachsen"}},{"name":"Berßener Str.","postalCode":"49751","locality":"Hüven","municipality":{"key":"03454023","name":"Hüven","type":"Kreisangehörige_Gemeinde"},"district":{"key":"03454","name":"Emsland","type":"Landkreis"},"federalState":{"key":"03","name":"Niedersachsen"}},{"name":"Eschweg","postalCode":"49751","locality":"Hüven","municipality":{"key":"03454023","name":"Hüven","type":"Kreisangehörige_Gemeinde"},"district":{"key":"03454","name":"Emsland","type":"Landkreis"},"federalState":{"key":"03","name":"Niedersachsen"}},{"name":"Feldweg","postalCode":"49751","locality":"Hüven","municipality":{"key":"03454023","name":"Hüven","type":"Kreisangehörige_Gemeinde"},"district":{"key":"03454","name":"Emsland","type":"Landkreis"},"federalState":{"key":"03","name":"Niedersachsen"}},{"name":"Gartenstr.","postalCode":"49751","locality":"Hüven","municipality":{"key":"03454023","name":"Hüven","type":"Kreisangehörige_Gemeinde"},"district":{"key":"03454","name":"Emsland","type":"Landkreis"},"federalState":{"key":"03","name":"Niedersachsen"}},{"name":"Hüvener Mühle","postalCode":"49751","locality":"Hüven","municipality":{"key":"03454023","name":"Hüven","type":"Kreisangehörige_Gemeinde"},"district":{"key":"03454","name":"Emsland","type":"Landkreis"},"federalState":{"key":"03","name":"Niedersachsen"}},{"name":"Im Gosekamp","postalCode":"49751","locality":"Hüven","municipality":{"key":"03454023","name":"Hüven","type":"Kreisangehörige_Gemeinde"},"district":{"key":"03454","name":"Emsland","type":"Landkreis"},"federalState":{"key":"03","name":"Niedersachsen"}},{"name":"Lageweg","postalCode":"49751","locality":"Hüven","municipality":{"key":"03454023","name":"Hüven","type":"Kreisangehörige_Gemeinde"},"district":{"key":"03454","name":"Emsland","type":"Landkreis"},"federalState":{"key":"03","name":"Niedersachsen"}},{"name":"Lähdener Str.","postalCode":"49751","locality":"Hüven","municipality":{"key":"03454023","name":"Hüven","type":"Kreisangehörige_Gemeinde"},"district":{"key":"03454","name":"Emsland","type":"Landkreis"},"federalState":{"key":"03","name":"Niedersachsen"}},{"name":"Lahner Str.","postalCode":"49751","locality":"Hüven","municipality":{"key":"03454023","name":"Hüven","type":"Kreisangehörige_Gemeinde"},"district":{"key":"03454","name":"Emsland","type":"Landkreis"},"federalState":{"key":"03","name":"Niedersachsen"}},{"name":"Lilland","postalCode":"49751","locality":"Hüven","municipality":{"key":"03454023","name":"Hüven","type":"Kreisangehörige_Gemeinde"},"district":{"key":"03454","name":"Emsland","type":"Landkreis"},"federalState":{"key":"03","name":"Niedersachsen"}},{"name":"Lindenstr.","postalCode":"49751","locality":"Hüven","municipality":{"key":"03454023","name":"Hüven","type":"Kreisangehörige_Gemeinde"},"district":{"key":"03454","name":"Emsland","type":"Landkreis"},"federalState":{"key":"03","name":"Niedersachsen"}},{"name":"Pappelstr.","postalCode":"49751","locality":"Hüven","municipality":{"key":"03454023","name":"Hüven","type":"Kreisangehörige_Gemeinde"},"district":{"key":"03454","name":"Emsland","type":"Landkreis"},"federalState":{"key":"03","name":"Niedersachsen"}},{"name":"Raiffeisenstr.","postalCode":"49751","locality":"Hüven","municipality":{"key":"03454023","name":"Hüven","type":"Kreisangehörige_Gemeinde"},"district":{"key":"03454","name":"Emsland","type":"Landkreis"},"federalState":{"key":"03","name":"Niedersachsen"}},{"name":"Richteweg","postalCode":"49751","locality":"Hüven","municipality":{"key":"03454023","name":"Hüven","type":"Kreisangehörige_Gemeinde"},"district":{"key":"03454","name":"Emsland","type":"Landkreis"},"federalState":{"key":"03","name":"Niedersachsen"}},{"name":"Rosenstr.","postalCode":"49751","locality":"Hüven","municipality":{"key":"03454023","name":"Hüven","type":"Kreisangehörige_Gemeinde"},"district":{"key":"03454","name":"Emsland","type":"Landkreis"},"federalState":{"key":"03","name":"Niedersachsen"}},{"name":"Schulstr.","postalCode":"49751","locality":"Hüven","municipality":{"key":"03454023","name":"Hüven","type":"Kreisangehörige_Gemeinde"},"district":{"key":"03454","name":"Emsland","type":"Landkreis"},"federalState":{"key":"03","name":"Niedersachsen"}},{"name":"Sögeler Str.","postalCode":"49751","locality":"Hüven","municipality":{"key":"03454023","name":"Hüven","type":"Kreisangehörige_Gemeinde"},"district":{"key":"03454","name":"Emsland","type":"Landkreis"},"federalState":{"key":"03","name":"Niedersachsen"}},{"name":"Waldstr.","postalCode":"49751","locality":"Hüven","municipality":{"key":"03454023","name":"Hüven","type":"Kreisangehörige_Gemeinde"},"district":{"key":"03454","name":"Emsland","type":"Landkreis"},"federalState":{"key":"03","name":"Niedersachsen"}},{"name":"Zum Donshorn","postalCode":"49751","locality":"Hüven","municipality":{"key":"03454023","name":"Hüven","type":"Kreisangehörige_Gemeinde"},"district":{"key":"03454","name":"Emsland","type":"Landkreis"},"federalState":{"key":"03","name":"Niedersachsen"}},{"name":"Zum Kienmoor","postalCode":"49751","locality":"Hüven","municipality":{"key":"03454023","name":"Hüven","type":"Kreisangehörige_Gemeinde"},"district":{"key":"03454","name":"Emsland","type":"Landkreis"},"federalState":{"key":"03","name":"Niedersachsen"}},]