[{"name":"Alte Bahnhofstr.","postalCode":"19376","locality":"Ruhner Berge","municipality":{"key":"13076168","name":"Ruhner Berge","type":"Kreisangehörige_Gemeinde"},"district":{"key":"13076","name":"Ludwigslust-Parchim","type":"Landkreis"},"federalState":{"key":"13","name":"Mecklenburg-Vorpommern"}},{"name":"Alte Dorfstr.","postalCode":"19376","locality":"Ruhner Berge","municipality":{"key":"13076168","name":"Ruhner Berge","type":"Kreisangehörige_Gemeinde"},"district":{"key":"13076","name":"Ludwigslust-Parchim","type":"Landkreis"},"federalState":{"key":"13","name":"Mecklenburg-Vorpommern"}},{"name":"Alte Lindenstr.","postalCode":"19376","locality":"Ruhner Berge","municipality":{"key":"13076168","name":"Ruhner Berge","type":"Kreisangehörige_Gemeinde"},"district":{"key":"13076","name":"Ludwigslust-Parchim","type":"Landkreis"},"federalState":{"key":"13","name":"Mecklenburg-Vorpommern"}},{"name":"Alte Ringstr.","postalCode":"19376","locality":"Ruhner Berge","municipality":{"key":"13076168","name":"Ruhner Berge","type":"Kreisangehörige_Gemeinde"},"district":{"key":"13076","name":"Ludwigslust-Parchim","type":"Landkreis"},"federalState":{"key":"13","name":"Mecklenburg-Vorpommern"}},{"name":"Alte Schmiedestr.","postalCode":"19376","locality":"Ruhner Berge","municipality":{"key":"13076168","name":"Ruhner Berge","type":"Kreisangehörige_Gemeinde"},"district":{"key":"13076","name":"Ludwigslust-Parchim","type":"Landkreis"},"federalState":{"key":"13","name":"Mecklenburg-Vorpommern"}},{"name":"Am Forsthof","postalCode":"19376","locality":"Ruhner Berge","municipality":{"key":"13076168","name":"Ruhner Berge","type":"Kreisangehörige_Gemeinde"},"district":{"key":"13076","name":"Ludwigslust-Parchim","type":"Landkreis"},"federalState":{"key":"13","name":"Mecklenburg-Vorpommern"}},{"name":"Am Ring","postalCode":"19376","locality":"Ruhner Berge","municipality":{"key":"13076168","name":"Ruhner Berge","type":"Kreisangehörige_Gemeinde"},"district":{"key":"13076","name":"Ludwigslust-Parchim","type":"Landkreis"},"federalState":{"key":"13","name":"Mecklenburg-Vorpommern"}},{"name":"Am Schloss","postalCode":"19376","locality":"Ruhner Berge","municipality":{"key":"13076168","name":"Ruhner Berge","type":"Kreisangehörige_Gemeinde"},"district":{"key":"13076","name":"Ludwigslust-Parchim","type":"Landkreis"},"federalState":{"key":"13","name":"Mecklenburg-Vorpommern"}},{"name":"Am Teich","postalCode":"19376","locality":"Ruhner Berge","municipality":{"key":"13076168","name":"Ruhner Berge","type":"Kreisangehörige_Gemeinde"},"district":{"key":"13076","name":"Ludwigslust-Parchim","type":"Landkreis"},"federalState":{"key":"13","name":"Mecklenburg-Vorpommern"}},{"name":"Am Wulfsberg","postalCode":"19376","locality":"Ruhner Berge","municipality":{"key":"13076168","name":"Ruhner Berge","type":"Kreisangehörige_Gemeinde"},"district":{"key":"13076","name":"Ludwigslust-Parchim","type":"Landkreis"},"federalState":{"key":"13","name":"Mecklenburg-Vorpommern"}},{"name":"An den Linden","postalCode":"19376","locality":"Ruhner Berge","municipality":{"key":"13076168","name":"Ruhner Berge","type":"Kreisangehörige_Gemeinde"},"district":{"key":"13076","name":"Ludwigslust-Parchim","type":"Landkreis"},"federalState":{"key":"13","name":"Mecklenburg-Vorpommern"}},{"name":"Ausbau","postalCode":"19376","locality":"Ruhner Berge","municipality":{"key":"13076168","name":"Ruhner Berge","type":"Kreisangehörige_Gemeinde"},"district":{"key":"13076","name":"Ludwigslust-Parchim","type":"Landkreis"},"federalState":{"key":"13","name":"Mecklenburg-Vorpommern"}},{"name":"Ausbau-Sportplatz","postalCode":"19376","locality":"Ruhner Berge","municipality":{"key":"13076168","name":"Ruhner Berge","type":"Kreisangehörige_Gemeinde"},"district":{"key":"13076","name":"Ludwigslust-Parchim","type":"Landkreis"},"federalState":{"key":"13","name":"Mecklenburg-Vorpommern"}},{"name":"Ausbau-Str. des Friedens","postalCode":"19376","locality":"Ruhner Berge","municipality":{"key":"13076168","name":"Ruhner Berge","type":"Kreisangehörige_Gemeinde"},"district":{"key":"13076","name":"Ludwigslust-Parchim","type":"Landkreis"},"federalState":{"key":"13","name":"Mecklenburg-Vorpommern"}},{"name":"Ausbau-Thalmühle","postalCode":"19376","locality":"Ruhner Berge","municipality":{"key":"13076168","name":"Ruhner Berge","type":"Kreisangehörige_Gemeinde"},"district":{"key":"13076","name":"Ludwigslust-Parchim","type":"Landkreis"},"federalState":{"key":"13","name":"Mecklenburg-Vorpommern"}},{"name":"Bahnhofstr.","postalCode":"19376","locality":"Ruhner Berge","municipality":{"key":"13076168","name":"Ruhner Berge","type":"Kreisangehörige_Gemeinde"},"district":{"key":"13076","name":"Ludwigslust-Parchim","type":"Landkreis"},"federalState":{"key":"13","name":"Mecklenburg-Vorpommern"}},{"name":"Bergstr.","postalCode":"19376","locality":"Ruhner Berge","municipality":{"key":"13076168","name":"Ruhner Berge","type":"Kreisangehörige_Gemeinde"},"district":{"key":"13076","name":"Ludwigslust-Parchim","type":"Landkreis"},"federalState":{"key":"13","name":"Mecklenburg-Vorpommern"}},{"name":"Blockheide","postalCode":"19376","locality":"Ruhner Berge","municipality":{"key":"13076168","name":"Ruhner Berge","type":"Kreisangehörige_Gemeinde"},"district":{"key":"13076","name":"Ludwigslust-Parchim","type":"Landkreis"},"federalState":{"key":"13","name":"Mecklenburg-Vorpommern"}},{"name":"Dorfplatz","postalCode":"19376","locality":"Ruhner Berge","municipality":{"key":"13076168","name":"Ruhner Berge","type":"Kreisangehörige_Gemeinde"},"district":{"key":"13076","name":"Ludwigslust-Parchim","type":"Landkreis"},"federalState":{"key":"13","name":"Mecklenburg-Vorpommern"}},{"name":"Dorfstr.","postalCode":"19376","locality":"Ruhner Berge","municipality":{"key":"13076168","name":"Ruhner Berge","type":"Kreisangehörige_Gemeinde"},"district":{"key":"13076","name":"Ludwigslust-Parchim","type":"Landkreis"},"federalState":{"key":"13","name":"Mecklenburg-Vorpommern"}},{"name":"Drenkower Str.","postalCode":"19376","locality":"Ruhner Berge","municipality":{"key":"13076168","name":"Ruhner Berge","type":"Kreisangehörige_Gemeinde"},"district":{"key":"13076","name":"Ludwigslust-Parchim","type":"Landkreis"},"federalState":{"key":"13","name":"Mecklenburg-Vorpommern"}},{"name":"Ernst-Thälmann-Str.","postalCode":"19376","locality":"Ruhner Berge","municipality":{"key":"13076168","name":"Ruhner Berge","type":"Kreisangehörige_Gemeinde"},"district":{"key":"13076","name":"Ludwigslust-Parchim","type":"Landkreis"},"federalState":{"key":"13","name":"Mecklenburg-Vorpommern"}},{"name":"Friedhofsweg","postalCode":"19376","locality":"Ruhner Berge","municipality":{"key":"13076168","name":"Ruhner Berge","type":"Kreisangehörige_Gemeinde"},"district":{"key":"13076","name":"Ludwigslust-Parchim","type":"Landkreis"},"federalState":{"key":"13","name":"Mecklenburg-Vorpommern"}},{"name":"Gänsekamp","postalCode":"19376","locality":"Ruhner Berge","municipality":{"key":"13076168","name":"Ruhner Berge","type":"Kreisangehörige_Gemeinde"},"district":{"key":"13076","name":"Ludwigslust-Parchim","type":"Landkreis"},"federalState":{"key":"13","name":"Mecklenburg-Vorpommern"}},{"name":"Geschwister-Scholl-Str.","postalCode":"19376","locality":"Ruhner Berge","municipality":{"key":"13076168","name":"Ruhner Berge","type":"Kreisangehörige_Gemeinde"},"district":{"key":"13076","name":"Ludwigslust-Parchim","type":"Landkreis"},"federalState":{"key":"13","name":"Mecklenburg-Vorpommern"}},{"name":"Grabower Str.","postalCode":"19376","locality":"Ruhner Berge","municipality":{"key":"13076168","name":"Ruhner Berge","type":"Kreisangehörige_Gemeinde"},"district":{"key":"13076","name":"Ludwigslust-Parchim","type":"Landkreis"},"federalState":{"key":"13","name":"Mecklenburg-Vorpommern"}},{"name":"Griebower Str.","postalCode":"19376","locality":"Ruhner Berge","municipality":{"key":"13076168","name":"Ruhner Berge","type":"Kreisangehörige_Gemeinde"},"district":{"key":"13076","name":"Ludwigslust-Parchim","type":"Landkreis"},"federalState":{"key":"13","name":"Mecklenburg-Vorpommern"}},{"name":"Griebow-Mühle","postalCode":"19376","locality":"Ruhner Berge","municipality":{"key":"13076168","name":"Ruhner Berge","type":"Kreisangehörige_Gemeinde"},"district":{"key":"13076","name":"Ludwigslust-Parchim","type":"Landkreis"},"federalState":{"key":"13","name":"Mecklenburg-Vorpommern"}},{"name":"Griebow Siedlung","postalCode":"19376","locality":"Ruhner Berge","municipality":{"key":"13076168","name":"Ruhner Berge","type":"Kreisangehörige_Gemeinde"},"district":{"key":"13076","name":"Ludwigslust-Parchim","type":"Landkreis"},"federalState":{"key":"13","name":"Mecklenburg-Vorpommern"}},{"name":"Haubenweg","postalCode":"19376","locality":"Ruhner Berge","municipality":{"key":"13076168","name":"Ruhner Berge","type":"Kreisangehörige_Gemeinde"},"district":{"key":"13076","name":"Ludwigslust-Parchim","type":"Landkreis"},"federalState":{"key":"13","name":"Mecklenburg-Vorpommern"}},{"name":"Hofplatz","postalCode":"19376","locality":"Ruhner Berge","municipality":{"key":"13076168","name":"Ruhner Berge","type":"Kreisangehörige_Gemeinde"},"district":{"key":"13076","name":"Ludwigslust-Parchim","type":"Landkreis"},"federalState":{"key":"13","name":"Mecklenburg-Vorpommern"}},{"name":"Karl-Marx-Str.","postalCode":"19376","locality":"Ruhner Berge","municipality":{"key":"13076168","name":"Ruhner Berge","type":"Kreisangehörige_Gemeinde"},"district":{"key":"13076","name":"Ludwigslust-Parchim","type":"Landkreis"},"federalState":{"key":"13","name":"Mecklenburg-Vorpommern"}},{"name":"Käsewinkel","postalCode":"19376","locality":"Ruhner Berge","municipality":{"key":"13076168","name":"Ruhner Berge","type":"Kreisangehörige_Gemeinde"},"district":{"key":"13076","name":"Ludwigslust-Parchim","type":"Landkreis"},"federalState":{"key":"13","name":"Mecklenburg-Vorpommern"}},{"name":"Katersteg","postalCode":"19376","locality":"Ruhner Berge","municipality":{"key":"13076168","name":"Ruhner Berge","type":"Kreisangehörige_Gemeinde"},"district":{"key":"13076","name":"Ludwigslust-Parchim","type":"Landkreis"},"federalState":{"key":"13","name":"Mecklenburg-Vorpommern"}},{"name":"Koppelweg","postalCode":"19376","locality":"Ruhner Berge","municipality":{"key":"13076168","name":"Ruhner Berge","type":"Kreisangehörige_Gemeinde"},"district":{"key":"13076","name":"Ludwigslust-Parchim","type":"Landkreis"},"federalState":{"key":"13","name":"Mecklenburg-Vorpommern"}},{"name":"Kreuzweg","postalCode":"19376","locality":"Ruhner Berge","municipality":{"key":"13076168","name":"Ruhner Berge","type":"Kreisangehörige_Gemeinde"},"district":{"key":"13076","name":"Ludwigslust-Parchim","type":"Landkreis"},"federalState":{"key":"13","name":"Mecklenburg-Vorpommern"}},{"name":"Krumbecker Str.","postalCode":"19376","locality":"Ruhner Berge","municipality":{"key":"13076168","name":"Ruhner Berge","type":"Kreisangehörige_Gemeinde"},"district":{"key":"13076","name":"Ludwigslust-Parchim","type":"Landkreis"},"federalState":{"key":"13","name":"Mecklenburg-Vorpommern"}},{"name":"Kurzer Weg","postalCode":"19376","locality":"Ruhner Berge","municipality":{"key":"13076168","name":"Ruhner Berge","type":"Kreisangehörige_Gemeinde"},"district":{"key":"13076","name":"Ludwigslust-Parchim","type":"Landkreis"},"federalState":{"key":"13","name":"Mecklenburg-Vorpommern"}},{"name":"Lange Str.","postalCode":"19376","locality":"Ruhner Berge","municipality":{"key":"13076168","name":"Ruhner Berge","type":"Kreisangehörige_Gemeinde"},"district":{"key":"13076","name":"Ludwigslust-Parchim","type":"Landkreis"},"federalState":{"key":"13","name":"Mecklenburg-Vorpommern"}},{"name":"Lindenallee","postalCode":"19376","locality":"Ruhner Berge","municipality":{"key":"13076168","name":"Ruhner Berge","type":"Kreisangehörige_Gemeinde"},"district":{"key":"13076","name":"Ludwigslust-Parchim","type":"Landkreis"},"federalState":{"key":"13","name":"Mecklenburg-Vorpommern"}},{"name":"Lindenstr.","postalCode":"19376","locality":"Ruhner Berge","municipality":{"key":"13076168","name":"Ruhner Berge","type":"Kreisangehörige_Gemeinde"},"district":{"key":"13076","name":"Ludwigslust-Parchim","type":"Landkreis"},"federalState":{"key":"13","name":"Mecklenburg-Vorpommern"}},{"name":"Marnitzer Chaussee","postalCode":"19376","locality":"Ruhner Berge","municipality":{"key":"13076168","name":"Ruhner Berge","type":"Kreisangehörige_Gemeinde"},"district":{"key":"13076","name":"Ludwigslust-Parchim","type":"Landkreis"},"federalState":{"key":"13","name":"Mecklenburg-Vorpommern"}},{"name":"Marnitzer Weg","postalCode":"19376","locality":"Ruhner Berge","municipality":{"key":"13076168","name":"Ruhner Berge","type":"Kreisangehörige_Gemeinde"},"district":{"key":"13076","name":"Ludwigslust-Parchim","type":"Landkreis"},"federalState":{"key":"13","name":"Mecklenburg-Vorpommern"}},{"name":"Meierstorfer Str.","postalCode":"19376","locality":"Ruhner Berge","municipality":{"key":"13076168","name":"Ruhner Berge","type":"Kreisangehörige_Gemeinde"},"district":{"key":"13076","name":"Ludwigslust-Parchim","type":"Landkreis"},"federalState":{"key":"13","name":"Mecklenburg-Vorpommern"}},{"name":"Mentiner Str.","postalCode":"19376","locality":"Ruhner Berge","municipality":{"key":"13076168","name":"Ruhner Berge","type":"Kreisangehörige_Gemeinde"},"district":{"key":"13076","name":"Ludwigslust-Parchim","type":"Landkreis"},"federalState":{"key":"13","name":"Mecklenburg-Vorpommern"}},{"name":"Mittelweg","postalCode":"19376","locality":"Ruhner Berge","municipality":{"key":"13076168","name":"Ruhner Berge","type":"Kreisangehörige_Gemeinde"},"district":{"key":"13076","name":"Ludwigslust-Parchim","type":"Landkreis"},"federalState":{"key":"13","name":"Mecklenburg-Vorpommern"}},{"name":"Moosterstr.","postalCode":"19376","locality":"Ruhner Berge","municipality":{"key":"13076168","name":"Ruhner Berge","type":"Kreisangehörige_Gemeinde"},"district":{"key":"13076","name":"Ludwigslust-Parchim","type":"Landkreis"},"federalState":{"key":"13","name":"Mecklenburg-Vorpommern"}},{"name":"Mühlenweg","postalCode":"19376","locality":"Ruhner Berge","municipality":{"key":"13076168","name":"Ruhner Berge","type":"Kreisangehörige_Gemeinde"},"district":{"key":"13076","name":"Ludwigslust-Parchim","type":"Landkreis"},"federalState":{"key":"13","name":"Mecklenburg-Vorpommern"}},{"name":"Neue Dorfstr.","postalCode":"19376","locality":"Ruhner Berge","municipality":{"key":"13076168","name":"Ruhner Berge","type":"Kreisangehörige_Gemeinde"},"district":{"key":"13076","name":"Ludwigslust-Parchim","type":"Landkreis"},"federalState":{"key":"13","name":"Mecklenburg-Vorpommern"}},{"name":"Parchimer Chaussee","postalCode":"19376","locality":"Ruhner Berge","municipality":{"key":"13076168","name":"Ruhner Berge","type":"Kreisangehörige_Gemeinde"},"district":{"key":"13076","name":"Ludwigslust-Parchim","type":"Landkreis"},"federalState":{"key":"13","name":"Mecklenburg-Vorpommern"}},{"name":"Poitendorfer Damm","postalCode":"19376","locality":"Ruhner Berge","municipality":{"key":"13076168","name":"Ruhner Berge","type":"Kreisangehörige_Gemeinde"},"district":{"key":"13076","name":"Ludwigslust-Parchim","type":"Landkreis"},"federalState":{"key":"13","name":"Mecklenburg-Vorpommern"}},{"name":"Poitendorfer Weg","postalCode":"19376","locality":"Ruhner Berge","municipality":{"key":"13076168","name":"Ruhner Berge","type":"Kreisangehörige_Gemeinde"},"district":{"key":"13076","name":"Ludwigslust-Parchim","type":"Landkreis"},"federalState":{"key":"13","name":"Mecklenburg-Vorpommern"}},{"name":"Putlitzer Str.","postalCode":"19376","locality":"Ruhner Berge","municipality":{"key":"13076168","name":"Ruhner Berge","type":"Kreisangehörige_Gemeinde"},"district":{"key":"13076","name":"Ludwigslust-Parchim","type":"Landkreis"},"federalState":{"key":"13","name":"Mecklenburg-Vorpommern"}},{"name":"Rammer Weg","postalCode":"19376","locality":"Ruhner Berge","municipality":{"key":"13076168","name":"Ruhner Berge","type":"Kreisangehörige_Gemeinde"},"district":{"key":"13076","name":"Ludwigslust-Parchim","type":"Landkreis"},"federalState":{"key":"13","name":"Mecklenburg-Vorpommern"}},{"name":"Ringstr.","postalCode":"19376","locality":"Ruhner Berge","municipality":{"key":"13076168","name":"Ruhner Berge","type":"Kreisangehörige_Gemeinde"},"district":{"key":"13076","name":"Ludwigslust-Parchim","type":"Landkreis"},"federalState":{"key":"13","name":"Mecklenburg-Vorpommern"}},{"name":"Rotdornallee","postalCode":"19376","locality":"Ruhner Berge","municipality":{"key":"13076168","name":"Ruhner Berge","type":"Kreisangehörige_Gemeinde"},"district":{"key":"13076","name":"Ludwigslust-Parchim","type":"Landkreis"},"federalState":{"key":"13","name":"Mecklenburg-Vorpommern"}},{"name":"Ruhner Str.","postalCode":"19376","locality":"Ruhner Berge","municipality":{"key":"13076168","name":"Ruhner Berge","type":"Kreisangehörige_Gemeinde"},"district":{"key":"13076","name":"Ludwigslust-Parchim","type":"Landkreis"},"federalState":{"key":"13","name":"Mecklenburg-Vorpommern"}},{"name":"Schmiedestr.","postalCode":"19376","locality":"Ruhner Berge","municipality":{"key":"13076168","name":"Ruhner Berge","type":"Kreisangehörige_Gemeinde"},"district":{"key":"13076","name":"Ludwigslust-Parchim","type":"Landkreis"},"federalState":{"key":"13","name":"Mecklenburg-Vorpommern"}},{"name":"Schulweg","postalCode":"19376","locality":"Ruhner Berge","municipality":{"key":"13076168","name":"Ruhner Berge","type":"Kreisangehörige_Gemeinde"},"district":{"key":"13076","name":"Ludwigslust-Parchim","type":"Landkreis"},"federalState":{"key":"13","name":"Mecklenburg-Vorpommern"}},{"name":"Siggelkower Weg","postalCode":"19376","locality":"Ruhner Berge","municipality":{"key":"13076168","name":"Ruhner Berge","type":"Kreisangehörige_Gemeinde"},"district":{"key":"13076","name":"Ludwigslust-Parchim","type":"Landkreis"},"federalState":{"key":"13","name":"Mecklenburg-Vorpommern"}},{"name":"Speicherweg","postalCode":"19376","locality":"Ruhner Berge","municipality":{"key":"13076168","name":"Ruhner Berge","type":"Kreisangehörige_Gemeinde"},"district":{"key":"13076","name":"Ludwigslust-Parchim","type":"Landkreis"},"federalState":{"key":"13","name":"Mecklenburg-Vorpommern"}},{"name":"Stege","postalCode":"19376","locality":"Ruhner Berge","municipality":{"key":"13076168","name":"Ruhner Berge","type":"Kreisangehörige_Gemeinde"},"district":{"key":"13076","name":"Ludwigslust-Parchim","type":"Landkreis"},"federalState":{"key":"13","name":"Mecklenburg-Vorpommern"}},{"name":"Str. des Friedens","postalCode":"19376","locality":"Ruhner Berge","municipality":{"key":"13076168","name":"Ruhner Berge","type":"Kreisangehörige_Gemeinde"},"district":{"key":"13076","name":"Ludwigslust-Parchim","type":"Landkreis"},"federalState":{"key":"13","name":"Mecklenburg-Vorpommern"}},{"name":"Waldweg","postalCode":"19376","locality":"Ruhner Berge","municipality":{"key":"13076168","name":"Ruhner Berge","type":"Kreisangehörige_Gemeinde"},"district":{"key":"13076","name":"Ludwigslust-Parchim","type":"Landkreis"},"federalState":{"key":"13","name":"Mecklenburg-Vorpommern"}},{"name":"Wiedenbergweg","postalCode":"19376","locality":"Ruhner Berge","municipality":{"key":"13076168","name":"Ruhner Berge","type":"Kreisangehörige_Gemeinde"},"district":{"key":"13076","name":"Ludwigslust-Parchim","type":"Landkreis"},"federalState":{"key":"13","name":"Mecklenburg-Vorpommern"}},{"name":"Wiesenring","postalCode":"19376","locality":"Ruhner Berge","municipality":{"key":"13076168","name":"Ruhner Berge","type":"Kreisangehörige_Gemeinde"},"district":{"key":"13076","name":"Ludwigslust-Parchim","type":"Landkreis"},"federalState":{"key":"13","name":"Mecklenburg-Vorpommern"}},{"name":"Zum Dachsberg","postalCode":"19376","locality":"Ruhner Berge","municipality":{"key":"13076168","name":"Ruhner Berge","type":"Kreisangehörige_Gemeinde"},"district":{"key":"13076","name":"Ludwigslust-Parchim","type":"Landkreis"},"federalState":{"key":"13","name":"Mecklenburg-Vorpommern"}},{"name":"Zum Treptower See","postalCode":"19376","locality":"Ruhner Berge","municipality":{"key":"13076168","name":"Ruhner Berge","type":"Kreisangehörige_Gemeinde"},"district":{"key":"13076","name":"Ludwigslust-Parchim","type":"Landkreis"},"federalState":{"key":"13","name":"Mecklenburg-Vorpommern"}},]