[{"name":"Achtern Hoff","postalCode":"24220","locality":"Flintbek","municipality":{"key":"01058053","name":"Flintbek","type":"Kreisangehörige_Gemeinde"},"district":{"key":"01058","name":"Rendsburg-Eckernförde","type":"Kreis"},"federalState":{"key":"01","name":"Schleswig-Holstein"}},{"name":"Achterüm","postalCode":"24220","locality":"Flintbek","municipality":{"key":"01058053","name":"Flintbek","type":"Kreisangehörige_Gemeinde"},"district":{"key":"01058","name":"Rendsburg-Eckernförde","type":"Kreis"},"federalState":{"key":"01","name":"Schleswig-Holstein"}},{"name":"Altenkircher Str.","postalCode":"24220","locality":"Flintbek","municipality":{"key":"01058053","name":"Flintbek","type":"Kreisangehörige_Gemeinde"},"district":{"key":"01058","name":"Rendsburg-Eckernförde","type":"Kreis"},"federalState":{"key":"01","name":"Schleswig-Holstein"}},{"name":"Alter Schulweg","postalCode":"24220","locality":"Flintbek","municipality":{"key":"01058053","name":"Flintbek","type":"Kreisangehörige_Gemeinde"},"district":{"key":"01058","name":"Rendsburg-Eckernförde","type":"Kreis"},"federalState":{"key":"01","name":"Schleswig-Holstein"}},{"name":"Am Ehrenmal","postalCode":"24220","locality":"Flintbek","municipality":{"key":"01058053","name":"Flintbek","type":"Kreisangehörige_Gemeinde"},"district":{"key":"01058","name":"Rendsburg-Eckernförde","type":"Kreis"},"federalState":{"key":"01","name":"Schleswig-Holstein"}},{"name":"Am Fehltmoor","postalCode":"24220","locality":"Flintbek","municipality":{"key":"01058053","name":"Flintbek","type":"Kreisangehörige_Gemeinde"},"district":{"key":"01058","name":"Rendsburg-Eckernförde","type":"Kreis"},"federalState":{"key":"01","name":"Schleswig-Holstein"}},{"name":"Am Krähenholz","postalCode":"24220","locality":"Flintbek","municipality":{"key":"01058053","name":"Flintbek","type":"Kreisangehörige_Gemeinde"},"district":{"key":"01058","name":"Rendsburg-Eckernförde","type":"Kreis"},"federalState":{"key":"01","name":"Schleswig-Holstein"}},{"name":"Amselring","postalCode":"24220","locality":"Flintbek","municipality":{"key":"01058053","name":"Flintbek","type":"Kreisangehörige_Gemeinde"},"district":{"key":"01058","name":"Rendsburg-Eckernförde","type":"Kreis"},"federalState":{"key":"01","name":"Schleswig-Holstein"}},{"name":"Am Wald","postalCode":"24220","locality":"Flintbek","municipality":{"key":"01058053","name":"Flintbek","type":"Kreisangehörige_Gemeinde"},"district":{"key":"01058","name":"Rendsburg-Eckernförde","type":"Kreis"},"federalState":{"key":"01","name":"Schleswig-Holstein"}},{"name":"Am Wasserwerk","postalCode":"24220","locality":"Flintbek","municipality":{"key":"01058053","name":"Flintbek","type":"Kreisangehörige_Gemeinde"},"district":{"key":"01058","name":"Rendsburg-Eckernförde","type":"Kreis"},"federalState":{"key":"01","name":"Schleswig-Holstein"}},{"name":"An der Bahn","postalCode":"24220","locality":"Flintbek","municipality":{"key":"01058053","name":"Flintbek","type":"Kreisangehörige_Gemeinde"},"district":{"key":"01058","name":"Rendsburg-Eckernförde","type":"Kreis"},"federalState":{"key":"01","name":"Schleswig-Holstein"}},{"name":"Bäckerberg","postalCode":"24220","locality":"Flintbek","municipality":{"key":"01058053","name":"Flintbek","type":"Kreisangehörige_Gemeinde"},"district":{"key":"01058","name":"Rendsburg-Eckernförde","type":"Kreis"},"federalState":{"key":"01","name":"Schleswig-Holstein"}},{"name":"Bergkoppel","postalCode":"24220","locality":"Flintbek","municipality":{"key":"01058053","name":"Flintbek","type":"Kreisangehörige_Gemeinde"},"district":{"key":"01058","name":"Rendsburg-Eckernförde","type":"Kreis"},"federalState":{"key":"01","name":"Schleswig-Holstein"}},{"name":"Birkenring","postalCode":"24220","locality":"Flintbek","municipality":{"key":"01058053","name":"Flintbek","type":"Kreisangehörige_Gemeinde"},"district":{"key":"01058","name":"Rendsburg-Eckernförde","type":"Kreis"},"federalState":{"key":"01","name":"Schleswig-Holstein"}},{"name":"Böhnhusener Weg","postalCode":"24220","locality":"Flintbek","municipality":{"key":"01058053","name":"Flintbek","type":"Kreisangehörige_Gemeinde"},"district":{"key":"01058","name":"Rendsburg-Eckernförde","type":"Kreis"},"federalState":{"key":"01","name":"Schleswig-Holstein"}},{"name":"Bokseer Weg","postalCode":"24220","locality":"Flintbek","municipality":{"key":"01058053","name":"Flintbek","type":"Kreisangehörige_Gemeinde"},"district":{"key":"01058","name":"Rendsburg-Eckernförde","type":"Kreis"},"federalState":{"key":"01","name":"Schleswig-Holstein"}},{"name":"Borngang","postalCode":"24220","locality":"Flintbek","municipality":{"key":"01058053","name":"Flintbek","type":"Kreisangehörige_Gemeinde"},"district":{"key":"01058","name":"Rendsburg-Eckernförde","type":"Kreis"},"federalState":{"key":"01","name":"Schleswig-Holstein"}},{"name":"Brückenstr.","postalCode":"24220","locality":"Flintbek","municipality":{"key":"01058053","name":"Flintbek","type":"Kreisangehörige_Gemeinde"},"district":{"key":"01058","name":"Rendsburg-Eckernförde","type":"Kreis"},"federalState":{"key":"01","name":"Schleswig-Holstein"}},{"name":"Burkamp","postalCode":"24220","locality":"Flintbek","municipality":{"key":"01058053","name":"Flintbek","type":"Kreisangehörige_Gemeinde"},"district":{"key":"01058","name":"Rendsburg-Eckernförde","type":"Kreis"},"federalState":{"key":"01","name":"Schleswig-Holstein"}},{"name":"Butenschönsredder","postalCode":"24220","locality":"Flintbek","municipality":{"key":"01058053","name":"Flintbek","type":"Kreisangehörige_Gemeinde"},"district":{"key":"01058","name":"Rendsburg-Eckernförde","type":"Kreis"},"federalState":{"key":"01","name":"Schleswig-Holstein"}},{"name":"Colbergskamp","postalCode":"24220","locality":"Flintbek","municipality":{"key":"01058053","name":"Flintbek","type":"Kreisangehörige_Gemeinde"},"district":{"key":"01058","name":"Rendsburg-Eckernförde","type":"Kreis"},"federalState":{"key":"01","name":"Schleswig-Holstein"}},{"name":"Demenbeck","postalCode":"24220","locality":"Flintbek","municipality":{"key":"01058053","name":"Flintbek","type":"Kreisangehörige_Gemeinde"},"district":{"key":"01058","name":"Rendsburg-Eckernförde","type":"Kreis"},"federalState":{"key":"01","name":"Schleswig-Holstein"}},{"name":"Dickskamp","postalCode":"24220","locality":"Flintbek","municipality":{"key":"01058053","name":"Flintbek","type":"Kreisangehörige_Gemeinde"},"district":{"key":"01058","name":"Rendsburg-Eckernförde","type":"Kreis"},"federalState":{"key":"01","name":"Schleswig-Holstein"}},{"name":"Dorfstr.","postalCode":"24220","locality":"Flintbek","municipality":{"key":"01058053","name":"Flintbek","type":"Kreisangehörige_Gemeinde"},"district":{"key":"01058","name":"Rendsburg-Eckernförde","type":"Kreis"},"federalState":{"key":"01","name":"Schleswig-Holstein"}},{"name":"Ecksaal","postalCode":"24220","locality":"Flintbek","municipality":{"key":"01058053","name":"Flintbek","type":"Kreisangehörige_Gemeinde"},"district":{"key":"01058","name":"Rendsburg-Eckernförde","type":"Kreis"},"federalState":{"key":"01","name":"Schleswig-Holstein"}},{"name":"Effland","postalCode":"24220","locality":"Flintbek","municipality":{"key":"01058053","name":"Flintbek","type":"Kreisangehörige_Gemeinde"},"district":{"key":"01058","name":"Rendsburg-Eckernförde","type":"Kreis"},"federalState":{"key":"01","name":"Schleswig-Holstein"}},{"name":"Eiderkamp","postalCode":"24220","locality":"Flintbek","municipality":{"key":"01058053","name":"Flintbek","type":"Kreisangehörige_Gemeinde"},"district":{"key":"01058","name":"Rendsburg-Eckernförde","type":"Kreis"},"federalState":{"key":"01","name":"Schleswig-Holstein"}},{"name":"Endmoräne","postalCode":"24220","locality":"Flintbek","municipality":{"key":"01058053","name":"Flintbek","type":"Kreisangehörige_Gemeinde"},"district":{"key":"01058","name":"Rendsburg-Eckernförde","type":"Kreis"},"federalState":{"key":"01","name":"Schleswig-Holstein"}},{"name":"Erlengrund","postalCode":"24220","locality":"Flintbek","municipality":{"key":"01058053","name":"Flintbek","type":"Kreisangehörige_Gemeinde"},"district":{"key":"01058","name":"Rendsburg-Eckernförde","type":"Kreis"},"federalState":{"key":"01","name":"Schleswig-Holstein"}},{"name":"Eulenstieg","postalCode":"24220","locality":"Flintbek","municipality":{"key":"01058053","name":"Flintbek","type":"Kreisangehörige_Gemeinde"},"district":{"key":"01058","name":"Rendsburg-Eckernförde","type":"Kreis"},"federalState":{"key":"01","name":"Schleswig-Holstein"}},{"name":"Festwiese Flintbek","postalCode":"24220","locality":"Flintbek","municipality":{"key":"01058053","name":"Flintbek","type":"Kreisangehörige_Gemeinde"},"district":{"key":"01058","name":"Rendsburg-Eckernförde","type":"Kreis"},"federalState":{"key":"01","name":"Schleswig-Holstein"}},{"name":"Feuerwache","postalCode":"24220","locality":"Flintbek","municipality":{"key":"01058053","name":"Flintbek","type":"Kreisangehörige_Gemeinde"},"district":{"key":"01058","name":"Rendsburg-Eckernförde","type":"Kreis"},"federalState":{"key":"01","name":"Schleswig-Holstein"}},{"name":"Freeweid","postalCode":"24220","locality":"Flintbek","municipality":{"key":"01058053","name":"Flintbek","type":"Kreisangehörige_Gemeinde"},"district":{"key":"01058","name":"Rendsburg-Eckernförde","type":"Kreis"},"federalState":{"key":"01","name":"Schleswig-Holstein"}},{"name":"Gartenstr.","postalCode":"24220","locality":"Flintbek","municipality":{"key":"01058053","name":"Flintbek","type":"Kreisangehörige_Gemeinde"},"district":{"key":"01058","name":"Rendsburg-Eckernförde","type":"Kreis"},"federalState":{"key":"01","name":"Schleswig-Holstein"}},{"name":"Hahnenbusch","postalCode":"24220","locality":"Flintbek","municipality":{"key":"01058053","name":"Flintbek","type":"Kreisangehörige_Gemeinde"},"district":{"key":"01058","name":"Rendsburg-Eckernförde","type":"Kreis"},"federalState":{"key":"01","name":"Schleswig-Holstein"}},{"name":"Hamburger Chaussee","postalCode":"24220","locality":"Flintbek","municipality":{"key":"01058053","name":"Flintbek","type":"Kreisangehörige_Gemeinde"},"district":{"key":"01058","name":"Rendsburg-Eckernförde","type":"Kreis"},"federalState":{"key":"01","name":"Schleswig-Holstein"}},{"name":"Hasselbusch","postalCode":"24220","locality":"Flintbek","municipality":{"key":"01058053","name":"Flintbek","type":"Kreisangehörige_Gemeinde"},"district":{"key":"01058","name":"Rendsburg-Eckernförde","type":"Kreis"},"federalState":{"key":"01","name":"Schleswig-Holstein"}},{"name":"Heckenrosenweg","postalCode":"24220","locality":"Flintbek","municipality":{"key":"01058053","name":"Flintbek","type":"Kreisangehörige_Gemeinde"},"district":{"key":"01058","name":"Rendsburg-Eckernförde","type":"Kreis"},"federalState":{"key":"01","name":"Schleswig-Holstein"}},{"name":"Hegereiterweg","postalCode":"24220","locality":"Flintbek","municipality":{"key":"01058053","name":"Flintbek","type":"Kreisangehörige_Gemeinde"},"district":{"key":"01058","name":"Rendsburg-Eckernförde","type":"Kreis"},"federalState":{"key":"01","name":"Schleswig-Holstein"}},{"name":"Heidberg","postalCode":"24220","locality":"Flintbek","municipality":{"key":"01058053","name":"Flintbek","type":"Kreisangehörige_Gemeinde"},"district":{"key":"01058","name":"Rendsburg-Eckernförde","type":"Kreis"},"federalState":{"key":"01","name":"Schleswig-Holstein"}},{"name":"Heimstättenweg","postalCode":"24220","locality":"Flintbek","municipality":{"key":"01058053","name":"Flintbek","type":"Kreisangehörige_Gemeinde"},"district":{"key":"01058","name":"Rendsburg-Eckernförde","type":"Kreis"},"federalState":{"key":"01","name":"Schleswig-Holstein"}},{"name":"Heinrich-Hertz-Str.","postalCode":"24220","locality":"Flintbek","municipality":{"key":"01058053","name":"Flintbek","type":"Kreisangehörige_Gemeinde"},"district":{"key":"01058","name":"Rendsburg-Eckernförde","type":"Kreis"},"federalState":{"key":"01","name":"Schleswig-Holstein"}},{"name":"Heitmannskamp","postalCode":"24220","locality":"Flintbek","municipality":{"key":"01058053","name":"Flintbek","type":"Kreisangehörige_Gemeinde"},"district":{"key":"01058","name":"Rendsburg-Eckernförde","type":"Kreis"},"federalState":{"key":"01","name":"Schleswig-Holstein"}},{"name":"Himmelreich","postalCode":"24220","locality":"Flintbek","municipality":{"key":"01058053","name":"Flintbek","type":"Kreisangehörige_Gemeinde"},"district":{"key":"01058","name":"Rendsburg-Eckernförde","type":"Kreis"},"federalState":{"key":"01","name":"Schleswig-Holstein"}},{"name":"Hinterweg","postalCode":"24220","locality":"Flintbek","municipality":{"key":"01058053","name":"Flintbek","type":"Kreisangehörige_Gemeinde"},"district":{"key":"01058","name":"Rendsburg-Eckernförde","type":"Kreis"},"federalState":{"key":"01","name":"Schleswig-Holstein"}},{"name":"Holzvogtkamp","postalCode":"24220","locality":"Flintbek","municipality":{"key":"01058053","name":"Flintbek","type":"Kreisangehörige_Gemeinde"},"district":{"key":"01058","name":"Rendsburg-Eckernförde","type":"Kreis"},"federalState":{"key":"01","name":"Schleswig-Holstein"}},{"name":"Hörn","postalCode":"24220","locality":"Flintbek","municipality":{"key":"01058053","name":"Flintbek","type":"Kreisangehörige_Gemeinde"},"district":{"key":"01058","name":"Rendsburg-Eckernförde","type":"Kreis"},"federalState":{"key":"01","name":"Schleswig-Holstein"}},{"name":"Im Dorfe","postalCode":"24220","locality":"Flintbek","municipality":{"key":"01058053","name":"Flintbek","type":"Kreisangehörige_Gemeinde"},"district":{"key":"01058","name":"Rendsburg-Eckernförde","type":"Kreis"},"federalState":{"key":"01","name":"Schleswig-Holstein"}},{"name":"Immenhagen","postalCode":"24220","locality":"Flintbek","municipality":{"key":"01058053","name":"Flintbek","type":"Kreisangehörige_Gemeinde"},"district":{"key":"01058","name":"Rendsburg-Eckernförde","type":"Kreis"},"federalState":{"key":"01","name":"Schleswig-Holstein"}},{"name":"Kahlenberg","postalCode":"24220","locality":"Flintbek","municipality":{"key":"01058053","name":"Flintbek","type":"Kreisangehörige_Gemeinde"},"district":{"key":"01058","name":"Rendsburg-Eckernförde","type":"Kreis"},"federalState":{"key":"01","name":"Schleswig-Holstein"}},{"name":"Kätnerskamp","postalCode":"24220","locality":"Flintbek","municipality":{"key":"01058053","name":"Flintbek","type":"Kreisangehörige_Gemeinde"},"district":{"key":"01058","name":"Rendsburg-Eckernförde","type":"Kreis"},"federalState":{"key":"01","name":"Schleswig-Holstein"}},{"name":"Kattensaal","postalCode":"24220","locality":"Flintbek","municipality":{"key":"01058053","name":"Flintbek","type":"Kreisangehörige_Gemeinde"},"district":{"key":"01058","name":"Rendsburg-Eckernförde","type":"Kreis"},"federalState":{"key":"01","name":"Schleswig-Holstein"}},{"name":"Kiebitzredder","postalCode":"24220","locality":"Flintbek","municipality":{"key":"01058053","name":"Flintbek","type":"Kreisangehörige_Gemeinde"},"district":{"key":"01058","name":"Rendsburg-Eckernförde","type":"Kreis"},"federalState":{"key":"01","name":"Schleswig-Holstein"}},{"name":"Kleinflintbeker Str.","postalCode":"24220","locality":"Flintbek","municipality":{"key":"01058053","name":"Flintbek","type":"Kreisangehörige_Gemeinde"},"district":{"key":"01058","name":"Rendsburg-Eckernförde","type":"Kreis"},"federalState":{"key":"01","name":"Schleswig-Holstein"}},{"name":"Langstücken","postalCode":"24220","locality":"Flintbek","municipality":{"key":"01058053","name":"Flintbek","type":"Kreisangehörige_Gemeinde"},"district":{"key":"01058","name":"Rendsburg-Eckernförde","type":"Kreis"},"federalState":{"key":"01","name":"Schleswig-Holstein"}},{"name":"Lassenweg","postalCode":"24220","locality":"Flintbek","municipality":{"key":"01058053","name":"Flintbek","type":"Kreisangehörige_Gemeinde"},"district":{"key":"01058","name":"Rendsburg-Eckernförde","type":"Kreis"},"federalState":{"key":"01","name":"Schleswig-Holstein"}},{"name":"Lerchengasse","postalCode":"24220","locality":"Flintbek","municipality":{"key":"01058053","name":"Flintbek","type":"Kreisangehörige_Gemeinde"},"district":{"key":"01058","name":"Rendsburg-Eckernförde","type":"Kreis"},"federalState":{"key":"01","name":"Schleswig-Holstein"}},{"name":"Lindenhof","postalCode":"24220","locality":"Flintbek","municipality":{"key":"01058053","name":"Flintbek","type":"Kreisangehörige_Gemeinde"},"district":{"key":"01058","name":"Rendsburg-Eckernförde","type":"Kreis"},"federalState":{"key":"01","name":"Schleswig-Holstein"}},{"name":"Lise-Meitner-Str.","postalCode":"24220","locality":"Flintbek","municipality":{"key":"01058053","name":"Flintbek","type":"Kreisangehörige_Gemeinde"},"district":{"key":"01058","name":"Rendsburg-Eckernförde","type":"Kreis"},"federalState":{"key":"01","name":"Schleswig-Holstein"}},{"name":"Max-Planck-Str.","postalCode":"24220","locality":"Flintbek","municipality":{"key":"01058053","name":"Flintbek","type":"Kreisangehörige_Gemeinde"},"district":{"key":"01058","name":"Rendsburg-Eckernförde","type":"Kreis"},"federalState":{"key":"01","name":"Schleswig-Holstein"}},{"name":"Meilensteinweg","postalCode":"24220","locality":"Flintbek","municipality":{"key":"01058053","name":"Flintbek","type":"Kreisangehörige_Gemeinde"},"district":{"key":"01058","name":"Rendsburg-Eckernförde","type":"Kreis"},"federalState":{"key":"01","name":"Schleswig-Holstein"}},{"name":"Meisenbogen","postalCode":"24220","locality":"Flintbek","municipality":{"key":"01058053","name":"Flintbek","type":"Kreisangehörige_Gemeinde"},"district":{"key":"01058","name":"Rendsburg-Eckernförde","type":"Kreis"},"federalState":{"key":"01","name":"Schleswig-Holstein"}},{"name":"Moorkoppel","postalCode":"24220","locality":"Flintbek","municipality":{"key":"01058053","name":"Flintbek","type":"Kreisangehörige_Gemeinde"},"district":{"key":"01058","name":"Rendsburg-Eckernförde","type":"Kreis"},"federalState":{"key":"01","name":"Schleswig-Holstein"}},{"name":"Möwenstr.","postalCode":"24220","locality":"Flintbek","municipality":{"key":"01058053","name":"Flintbek","type":"Kreisangehörige_Gemeinde"},"district":{"key":"01058","name":"Rendsburg-Eckernförde","type":"Kreis"},"federalState":{"key":"01","name":"Schleswig-Holstein"}},{"name":"Mühlenberg","postalCode":"24220","locality":"Flintbek","municipality":{"key":"01058053","name":"Flintbek","type":"Kreisangehörige_Gemeinde"},"district":{"key":"01058","name":"Rendsburg-Eckernförde","type":"Kreis"},"federalState":{"key":"01","name":"Schleswig-Holstein"}},{"name":"Mühlenhof","postalCode":"24220","locality":"Flintbek","municipality":{"key":"01058053","name":"Flintbek","type":"Kreisangehörige_Gemeinde"},"district":{"key":"01058","name":"Rendsburg-Eckernförde","type":"Kreis"},"federalState":{"key":"01","name":"Schleswig-Holstein"}},{"name":"Mühlenkampsredder","postalCode":"24220","locality":"Flintbek","municipality":{"key":"01058053","name":"Flintbek","type":"Kreisangehörige_Gemeinde"},"district":{"key":"01058","name":"Rendsburg-Eckernförde","type":"Kreis"},"federalState":{"key":"01","name":"Schleswig-Holstein"}},{"name":"Mühlensteinweg","postalCode":"24220","locality":"Flintbek","municipality":{"key":"01058053","name":"Flintbek","type":"Kreisangehörige_Gemeinde"},"district":{"key":"01058","name":"Rendsburg-Eckernförde","type":"Kreis"},"federalState":{"key":"01","name":"Schleswig-Holstein"}},{"name":"Müllershörn","postalCode":"24220","locality":"Flintbek","municipality":{"key":"01058053","name":"Flintbek","type":"Kreisangehörige_Gemeinde"},"district":{"key":"01058","name":"Rendsburg-Eckernförde","type":"Kreis"},"federalState":{"key":"01","name":"Schleswig-Holstein"}},{"name":"Nachtkoppel","postalCode":"24220","locality":"Flintbek","municipality":{"key":"01058053","name":"Flintbek","type":"Kreisangehörige_Gemeinde"},"district":{"key":"01058","name":"Rendsburg-Eckernförde","type":"Kreis"},"federalState":{"key":"01","name":"Schleswig-Holstein"}},{"name":"Op'n Barg","postalCode":"24220","locality":"Flintbek","municipality":{"key":"01058053","name":"Flintbek","type":"Kreisangehörige_Gemeinde"},"district":{"key":"01058","name":"Rendsburg-Eckernförde","type":"Kreis"},"federalState":{"key":"01","name":"Schleswig-Holstein"}},{"name":"Ostland","postalCode":"24220","locality":"Flintbek","municipality":{"key":"01058053","name":"Flintbek","type":"Kreisangehörige_Gemeinde"},"district":{"key":"01058","name":"Rendsburg-Eckernförde","type":"Kreis"},"federalState":{"key":"01","name":"Schleswig-Holstein"}},{"name":"Plambeckskamp","postalCode":"24220","locality":"Flintbek","municipality":{"key":"01058053","name":"Flintbek","type":"Kreisangehörige_Gemeinde"},"district":{"key":"01058","name":"Rendsburg-Eckernförde","type":"Kreis"},"federalState":{"key":"01","name":"Schleswig-Holstein"}},{"name":"Poggendiek","postalCode":"24220","locality":"Flintbek","municipality":{"key":"01058053","name":"Flintbek","type":"Kreisangehörige_Gemeinde"},"district":{"key":"01058","name":"Rendsburg-Eckernförde","type":"Kreis"},"federalState":{"key":"01","name":"Schleswig-Holstein"}},{"name":"Ragniter Weg","postalCode":"24220","locality":"Flintbek","municipality":{"key":"01058053","name":"Flintbek","type":"Kreisangehörige_Gemeinde"},"district":{"key":"01058","name":"Rendsburg-Eckernförde","type":"Kreis"},"federalState":{"key":"01","name":"Schleswig-Holstein"}},{"name":"Rahmenkamp","postalCode":"24220","locality":"Flintbek","municipality":{"key":"01058053","name":"Flintbek","type":"Kreisangehörige_Gemeinde"},"district":{"key":"01058","name":"Rendsburg-Eckernförde","type":"Kreis"},"federalState":{"key":"01","name":"Schleswig-Holstein"}},{"name":"Rosenberg","postalCode":"24220","locality":"Flintbek","municipality":{"key":"01058053","name":"Flintbek","type":"Kreisangehörige_Gemeinde"},"district":{"key":"01058","name":"Rendsburg-Eckernförde","type":"Kreis"},"federalState":{"key":"01","name":"Schleswig-Holstein"}},{"name":"Röthsoll","postalCode":"24220","locality":"Flintbek","municipality":{"key":"01058053","name":"Flintbek","type":"Kreisangehörige_Gemeinde"},"district":{"key":"01058","name":"Rendsburg-Eckernförde","type":"Kreis"},"federalState":{"key":"01","name":"Schleswig-Holstein"}},{"name":"Runenweg","postalCode":"24220","locality":"Flintbek","municipality":{"key":"01058053","name":"Flintbek","type":"Kreisangehörige_Gemeinde"},"district":{"key":"01058","name":"Rendsburg-Eckernförde","type":"Kreis"},"federalState":{"key":"01","name":"Schleswig-Holstein"}},{"name":"Saalbeek","postalCode":"24220","locality":"Flintbek","municipality":{"key":"01058053","name":"Flintbek","type":"Kreisangehörige_Gemeinde"},"district":{"key":"01058","name":"Rendsburg-Eckernförde","type":"Kreis"},"federalState":{"key":"01","name":"Schleswig-Holstein"}},{"name":"Schlotfeldtsberg","postalCode":"24220","locality":"Flintbek","municipality":{"key":"01058053","name":"Flintbek","type":"Kreisangehörige_Gemeinde"},"district":{"key":"01058","name":"Rendsburg-Eckernförde","type":"Kreis"},"federalState":{"key":"01","name":"Schleswig-Holstein"}},{"name":"Schmiedeberg","postalCode":"24220","locality":"Flintbek","municipality":{"key":"01058053","name":"Flintbek","type":"Kreisangehörige_Gemeinde"},"district":{"key":"01058","name":"Rendsburg-Eckernförde","type":"Kreis"},"federalState":{"key":"01","name":"Schleswig-Holstein"}},{"name":"Schönhorster Weg","postalCode":"24220","locality":"Flintbek","municipality":{"key":"01058053","name":"Flintbek","type":"Kreisangehörige_Gemeinde"},"district":{"key":"01058","name":"Rendsburg-Eckernförde","type":"Kreis"},"federalState":{"key":"01","name":"Schleswig-Holstein"}},{"name":"Schoolredder","postalCode":"24220","locality":"Flintbek","municipality":{"key":"01058053","name":"Flintbek","type":"Kreisangehörige_Gemeinde"},"district":{"key":"01058","name":"Rendsburg-Eckernförde","type":"Kreis"},"federalState":{"key":"01","name":"Schleswig-Holstein"}},{"name":"Schünenhof","postalCode":"24220","locality":"Flintbek","municipality":{"key":"01058053","name":"Flintbek","type":"Kreisangehörige_Gemeinde"},"district":{"key":"01058","name":"Rendsburg-Eckernförde","type":"Kreis"},"federalState":{"key":"01","name":"Schleswig-Holstein"}},{"name":"Schurkamp","postalCode":"24220","locality":"Flintbek","municipality":{"key":"01058053","name":"Flintbek","type":"Kreisangehörige_Gemeinde"},"district":{"key":"01058","name":"Rendsburg-Eckernförde","type":"Kreis"},"federalState":{"key":"01","name":"Schleswig-Holstein"}},{"name":"Sörenberg","postalCode":"24220","locality":"Flintbek","municipality":{"key":"01058053","name":"Flintbek","type":"Kreisangehörige_Gemeinde"},"district":{"key":"01058","name":"Rendsburg-Eckernförde","type":"Kreis"},"federalState":{"key":"01","name":"Schleswig-Holstein"}},{"name":"Sperlingsgang","postalCode":"24220","locality":"Flintbek","municipality":{"key":"01058053","name":"Flintbek","type":"Kreisangehörige_Gemeinde"},"district":{"key":"01058","name":"Rendsburg-Eckernförde","type":"Kreis"},"federalState":{"key":"01","name":"Schleswig-Holstein"}},{"name":"Sprengerteich","postalCode":"24220","locality":"Flintbek","municipality":{"key":"01058053","name":"Flintbek","type":"Kreisangehörige_Gemeinde"},"district":{"key":"01058","name":"Rendsburg-Eckernförde","type":"Kreis"},"federalState":{"key":"01","name":"Schleswig-Holstein"}},{"name":"Stoppelkamp","postalCode":"24220","locality":"Flintbek","municipality":{"key":"01058053","name":"Flintbek","type":"Kreisangehörige_Gemeinde"},"district":{"key":"01058","name":"Rendsburg-Eckernförde","type":"Kreis"},"federalState":{"key":"01","name":"Schleswig-Holstein"}},{"name":"Storchennest","postalCode":"24220","locality":"Flintbek","municipality":{"key":"01058053","name":"Flintbek","type":"Kreisangehörige_Gemeinde"},"district":{"key":"01058","name":"Rendsburg-Eckernförde","type":"Kreis"},"federalState":{"key":"01","name":"Schleswig-Holstein"}},{"name":"Stover","postalCode":"24220","locality":"Flintbek","municipality":{"key":"01058053","name":"Flintbek","type":"Kreisangehörige_Gemeinde"},"district":{"key":"01058","name":"Rendsburg-Eckernförde","type":"Kreis"},"federalState":{"key":"01","name":"Schleswig-Holstein"}},{"name":"Tulpenweg","postalCode":"24220","locality":"Flintbek","municipality":{"key":"01058053","name":"Flintbek","type":"Kreisangehörige_Gemeinde"},"district":{"key":"01058","name":"Rendsburg-Eckernförde","type":"Kreis"},"federalState":{"key":"01","name":"Schleswig-Holstein"}},{"name":"Vierwenden","postalCode":"24220","locality":"Flintbek","municipality":{"key":"01058053","name":"Flintbek","type":"Kreisangehörige_Gemeinde"},"district":{"key":"01058","name":"Rendsburg-Eckernförde","type":"Kreis"},"federalState":{"key":"01","name":"Schleswig-Holstein"}},{"name":"Vogelstange","postalCode":"24220","locality":"Flintbek","municipality":{"key":"01058053","name":"Flintbek","type":"Kreisangehörige_Gemeinde"},"district":{"key":"01058","name":"Rendsburg-Eckernförde","type":"Kreis"},"federalState":{"key":"01","name":"Schleswig-Holstein"}},{"name":"Voorder Winkel","postalCode":"24220","locality":"Flintbek","municipality":{"key":"01058053","name":"Flintbek","type":"Kreisangehörige_Gemeinde"},"district":{"key":"01058","name":"Rendsburg-Eckernförde","type":"Kreis"},"federalState":{"key":"01","name":"Schleswig-Holstein"}},]