[{"name":"Adolf-Kolping-Str.","postalCode":"41334","locality":"Nettetal","municipality":{"key":"05166016","name":"Nettetal, Stadt","type":"Stadt"},"district":{"key":"05166","name":"Viersen","type":"Kreis"},"federalState":{"key":"05","name":"Nordrhein-Westfalen"}},{"name":"Ahornweg","postalCode":"41334","locality":"Nettetal","municipality":{"key":"05166016","name":"Nettetal, Stadt","type":"Stadt"},"district":{"key":"05166","name":"Viersen","type":"Kreis"},"federalState":{"key":"05","name":"Nordrhein-Westfalen"}},{"name":"Akazienweg","postalCode":"41334","locality":"Nettetal","municipality":{"key":"05166016","name":"Nettetal, Stadt","type":"Stadt"},"district":{"key":"05166","name":"Viersen","type":"Kreis"},"federalState":{"key":"05","name":"Nordrhein-Westfalen"}},{"name":"Alte Dohrstr.","postalCode":"41334","locality":"Nettetal","municipality":{"key":"05166016","name":"Nettetal, Stadt","type":"Stadt"},"district":{"key":"05166","name":"Viersen","type":"Kreis"},"federalState":{"key":"05","name":"Nordrhein-Westfalen"}},{"name":"Alter Postweg","postalCode":"41334","locality":"Nettetal","municipality":{"key":"05166016","name":"Nettetal, Stadt","type":"Stadt"},"district":{"key":"05166","name":"Viersen","type":"Kreis"},"federalState":{"key":"05","name":"Nordrhein-Westfalen"}},{"name":"Alte Tegelsche Str.","postalCode":"41334","locality":"Nettetal","municipality":{"key":"05166016","name":"Nettetal, Stadt","type":"Stadt"},"district":{"key":"05166","name":"Viersen","type":"Kreis"},"federalState":{"key":"05","name":"Nordrhein-Westfalen"}},{"name":"Am Altenhof","postalCode":"41334","locality":"Nettetal","municipality":{"key":"05166016","name":"Nettetal, Stadt","type":"Stadt"},"district":{"key":"05166","name":"Viersen","type":"Kreis"},"federalState":{"key":"05","name":"Nordrhein-Westfalen"}},{"name":"Am Alten Pastorat","postalCode":"41334","locality":"Nettetal","municipality":{"key":"05166016","name":"Nettetal, Stadt","type":"Stadt"},"district":{"key":"05166","name":"Viersen","type":"Kreis"},"federalState":{"key":"05","name":"Nordrhein-Westfalen"}},{"name":"Am Anger","postalCode":"41334","locality":"Nettetal","municipality":{"key":"05166016","name":"Nettetal, Stadt","type":"Stadt"},"district":{"key":"05166","name":"Viersen","type":"Kreis"},"federalState":{"key":"05","name":"Nordrhein-Westfalen"}},{"name":"Am Birkshof","postalCode":"41334","locality":"Nettetal","municipality":{"key":"05166016","name":"Nettetal, Stadt","type":"Stadt"},"district":{"key":"05166","name":"Viersen","type":"Kreis"},"federalState":{"key":"05","name":"Nordrhein-Westfalen"}},{"name":"Am Brandt","postalCode":"41334","locality":"Nettetal","municipality":{"key":"05166016","name":"Nettetal, Stadt","type":"Stadt"},"district":{"key":"05166","name":"Viersen","type":"Kreis"},"federalState":{"key":"05","name":"Nordrhein-Westfalen"}},{"name":"Am Engel","postalCode":"41334","locality":"Nettetal","municipality":{"key":"05166016","name":"Nettetal, Stadt","type":"Stadt"},"district":{"key":"05166","name":"Viersen","type":"Kreis"},"federalState":{"key":"05","name":"Nordrhein-Westfalen"}},{"name":"Am Feldrain","postalCode":"41334","locality":"Nettetal","municipality":{"key":"05166016","name":"Nettetal, Stadt","type":"Stadt"},"district":{"key":"05166","name":"Viersen","type":"Kreis"},"federalState":{"key":"05","name":"Nordrhein-Westfalen"}},{"name":"Am Frankenkamp","postalCode":"41334","locality":"Nettetal","municipality":{"key":"05166016","name":"Nettetal, Stadt","type":"Stadt"},"district":{"key":"05166","name":"Viersen","type":"Kreis"},"federalState":{"key":"05","name":"Nordrhein-Westfalen"}},{"name":"Am Friedhof","postalCode":"41334","locality":"Nettetal","municipality":{"key":"05166016","name":"Nettetal, Stadt","type":"Stadt"},"district":{"key":"05166","name":"Viersen","type":"Kreis"},"federalState":{"key":"05","name":"Nordrhein-Westfalen"}},{"name":"Am Hang","postalCode":"41334","locality":"Nettetal","municipality":{"key":"05166016","name":"Nettetal, Stadt","type":"Stadt"},"district":{"key":"05166","name":"Viersen","type":"Kreis"},"federalState":{"key":"05","name":"Nordrhein-Westfalen"}},{"name":"Am Hecksken","postalCode":"41334","locality":"Nettetal","municipality":{"key":"05166016","name":"Nettetal, Stadt","type":"Stadt"},"district":{"key":"05166","name":"Viersen","type":"Kreis"},"federalState":{"key":"05","name":"Nordrhein-Westfalen"}},{"name":"Am Hegbaum","postalCode":"41334","locality":"Nettetal","municipality":{"key":"05166016","name":"Nettetal, Stadt","type":"Stadt"},"district":{"key":"05166","name":"Viersen","type":"Kreis"},"federalState":{"key":"05","name":"Nordrhein-Westfalen"}},{"name":"Am Heidbüchel","postalCode":"41334","locality":"Nettetal","municipality":{"key":"05166016","name":"Nettetal, Stadt","type":"Stadt"},"district":{"key":"05166","name":"Viersen","type":"Kreis"},"federalState":{"key":"05","name":"Nordrhein-Westfalen"}},{"name":"Am Hellenberg","postalCode":"41334","locality":"Nettetal","municipality":{"key":"05166016","name":"Nettetal, Stadt","type":"Stadt"},"district":{"key":"05166","name":"Viersen","type":"Kreis"},"federalState":{"key":"05","name":"Nordrhein-Westfalen"}},{"name":"Am Heydevelthof","postalCode":"41334","locality":"Nettetal","municipality":{"key":"05166016","name":"Nettetal, Stadt","type":"Stadt"},"district":{"key":"05166","name":"Viersen","type":"Kreis"},"federalState":{"key":"05","name":"Nordrhein-Westfalen"}},{"name":"Am Hotschgraf","postalCode":"41334","locality":"Nettetal","municipality":{"key":"05166016","name":"Nettetal, Stadt","type":"Stadt"},"district":{"key":"05166","name":"Viersen","type":"Kreis"},"federalState":{"key":"05","name":"Nordrhein-Westfalen"}},{"name":"Am Jüütenbongert","postalCode":"41334","locality":"Nettetal","municipality":{"key":"05166016","name":"Nettetal, Stadt","type":"Stadt"},"district":{"key":"05166","name":"Viersen","type":"Kreis"},"federalState":{"key":"05","name":"Nordrhein-Westfalen"}},{"name":"Am Kastell","postalCode":"41334","locality":"Nettetal","municipality":{"key":"05166016","name":"Nettetal, Stadt","type":"Stadt"},"district":{"key":"05166","name":"Viersen","type":"Kreis"},"federalState":{"key":"05","name":"Nordrhein-Westfalen"}},{"name":"Am Königsbach","postalCode":"41334","locality":"Nettetal","municipality":{"key":"05166016","name":"Nettetal, Stadt","type":"Stadt"},"district":{"key":"05166","name":"Viersen","type":"Kreis"},"federalState":{"key":"05","name":"Nordrhein-Westfalen"}},{"name":"Am Kreuzberg","postalCode":"41334","locality":"Nettetal","municipality":{"key":"05166016","name":"Nettetal, Stadt","type":"Stadt"},"district":{"key":"05166","name":"Viersen","type":"Kreis"},"federalState":{"key":"05","name":"Nordrhein-Westfalen"}},{"name":"Am Kreuzgarten","postalCode":"41334","locality":"Nettetal","municipality":{"key":"05166016","name":"Nettetal, Stadt","type":"Stadt"},"district":{"key":"05166","name":"Viersen","type":"Kreis"},"federalState":{"key":"05","name":"Nordrhein-Westfalen"}},{"name":"Am Luchtberg","postalCode":"41334","locality":"Nettetal","municipality":{"key":"05166016","name":"Nettetal, Stadt","type":"Stadt"},"district":{"key":"05166","name":"Viersen","type":"Kreis"},"federalState":{"key":"05","name":"Nordrhein-Westfalen"}},{"name":"Am Ludbach","postalCode":"41334","locality":"Nettetal","municipality":{"key":"05166016","name":"Nettetal, Stadt","type":"Stadt"},"district":{"key":"05166","name":"Viersen","type":"Kreis"},"federalState":{"key":"05","name":"Nordrhein-Westfalen"}},{"name":"Am Nettebruch","postalCode":"41334","locality":"Nettetal","municipality":{"key":"05166016","name":"Nettetal, Stadt","type":"Stadt"},"district":{"key":"05166","name":"Viersen","type":"Kreis"},"federalState":{"key":"05","name":"Nordrhein-Westfalen"}},{"name":"Am Panneschopp","postalCode":"41334","locality":"Nettetal","municipality":{"key":"05166016","name":"Nettetal, Stadt","type":"Stadt"},"district":{"key":"05166","name":"Viersen","type":"Kreis"},"federalState":{"key":"05","name":"Nordrhein-Westfalen"}},{"name":"Am Quellensee","postalCode":"41334","locality":"Nettetal","municipality":{"key":"05166016","name":"Nettetal, Stadt","type":"Stadt"},"district":{"key":"05166","name":"Viersen","type":"Kreis"},"federalState":{"key":"05","name":"Nordrhein-Westfalen"}},{"name":"Am Rathaushof","postalCode":"41334","locality":"Nettetal","municipality":{"key":"05166016","name":"Nettetal, Stadt","type":"Stadt"},"district":{"key":"05166","name":"Viersen","type":"Kreis"},"federalState":{"key":"05","name":"Nordrhein-Westfalen"}},{"name":"Am Ringofen","postalCode":"41334","locality":"Nettetal","municipality":{"key":"05166016","name":"Nettetal, Stadt","type":"Stadt"},"district":{"key":"05166","name":"Viersen","type":"Kreis"},"federalState":{"key":"05","name":"Nordrhein-Westfalen"}},{"name":"Am Rollbruch","postalCode":"41334","locality":"Nettetal","municipality":{"key":"05166016","name":"Nettetal, Stadt","type":"Stadt"},"district":{"key":"05166","name":"Viersen","type":"Kreis"},"federalState":{"key":"05","name":"Nordrhein-Westfalen"}},{"name":"Am Sandberg","postalCode":"41334","locality":"Nettetal","municipality":{"key":"05166016","name":"Nettetal, Stadt","type":"Stadt"},"district":{"key":"05166","name":"Viersen","type":"Kreis"},"federalState":{"key":"05","name":"Nordrhein-Westfalen"}},{"name":"Am Schänzchen","postalCode":"41334","locality":"Nettetal","municipality":{"key":"05166016","name":"Nettetal, Stadt","type":"Stadt"},"district":{"key":"05166","name":"Viersen","type":"Kreis"},"federalState":{"key":"05","name":"Nordrhein-Westfalen"}},{"name":"Am Schlibecker Berg","postalCode":"41334","locality":"Nettetal","municipality":{"key":"05166016","name":"Nettetal, Stadt","type":"Stadt"},"district":{"key":"05166","name":"Viersen","type":"Kreis"},"federalState":{"key":"05","name":"Nordrhein-Westfalen"}},{"name":"Am See","postalCode":"41334","locality":"Nettetal","municipality":{"key":"05166016","name":"Nettetal, Stadt","type":"Stadt"},"district":{"key":"05166","name":"Viersen","type":"Kreis"},"federalState":{"key":"05","name":"Nordrhein-Westfalen"}},{"name":"Am Sonnendeich","postalCode":"41334","locality":"Nettetal","municipality":{"key":"05166016","name":"Nettetal, Stadt","type":"Stadt"},"district":{"key":"05166","name":"Viersen","type":"Kreis"},"federalState":{"key":"05","name":"Nordrhein-Westfalen"}},{"name":"Am Stiegertor","postalCode":"41334","locality":"Nettetal","municipality":{"key":"05166016","name":"Nettetal, Stadt","type":"Stadt"},"district":{"key":"05166","name":"Viersen","type":"Kreis"},"federalState":{"key":"05","name":"Nordrhein-Westfalen"}},{"name":"Am Wasserturm","postalCode":"41334","locality":"Nettetal","municipality":{"key":"05166016","name":"Nettetal, Stadt","type":"Stadt"},"district":{"key":"05166","name":"Viersen","type":"Kreis"},"federalState":{"key":"05","name":"Nordrhein-Westfalen"}},{"name":"Am Wittsee","postalCode":"41334","locality":"Nettetal","municipality":{"key":"05166016","name":"Nettetal, Stadt","type":"Stadt"},"district":{"key":"05166","name":"Viersen","type":"Kreis"},"federalState":{"key":"05","name":"Nordrhein-Westfalen"}},{"name":"An Backesbeek","postalCode":"41334","locality":"Nettetal","municipality":{"key":"05166016","name":"Nettetal, Stadt","type":"Stadt"},"district":{"key":"05166","name":"Viersen","type":"Kreis"},"federalState":{"key":"05","name":"Nordrhein-Westfalen"}},{"name":"An den Roteichen","postalCode":"41334","locality":"Nettetal","municipality":{"key":"05166016","name":"Nettetal, Stadt","type":"Stadt"},"district":{"key":"05166","name":"Viersen","type":"Kreis"},"federalState":{"key":"05","name":"Nordrhein-Westfalen"}},{"name":"An den Sandpeschen","postalCode":"41334","locality":"Nettetal","municipality":{"key":"05166016","name":"Nettetal, Stadt","type":"Stadt"},"district":{"key":"05166","name":"Viersen","type":"Kreis"},"federalState":{"key":"05","name":"Nordrhein-Westfalen"}},{"name":"An den Sportplätzen","postalCode":"41334","locality":"Nettetal","municipality":{"key":"05166016","name":"Nettetal, Stadt","type":"Stadt"},"district":{"key":"05166","name":"Viersen","type":"Kreis"},"federalState":{"key":"05","name":"Nordrhein-Westfalen"}},{"name":"An der Alten Schule","postalCode":"41334","locality":"Nettetal","municipality":{"key":"05166016","name":"Nettetal, Stadt","type":"Stadt"},"district":{"key":"05166","name":"Viersen","type":"Kreis"},"federalState":{"key":"05","name":"Nordrhein-Westfalen"}},{"name":"An der Backesmühle","postalCode":"41334","locality":"Nettetal","municipality":{"key":"05166016","name":"Nettetal, Stadt","type":"Stadt"},"district":{"key":"05166","name":"Viersen","type":"Kreis"},"federalState":{"key":"05","name":"Nordrhein-Westfalen"}},{"name":"An der Bahntrasse","postalCode":"41334","locality":"Nettetal","municipality":{"key":"05166016","name":"Nettetal, Stadt","type":"Stadt"},"district":{"key":"05166","name":"Viersen","type":"Kreis"},"federalState":{"key":"05","name":"Nordrhein-Westfalen"}},{"name":"Bachstr.","postalCode":"41334","locality":"Nettetal","municipality":{"key":"05166016","name":"Nettetal, Stadt","type":"Stadt"},"district":{"key":"05166","name":"Viersen","type":"Kreis"},"federalState":{"key":"05","name":"Nordrhein-Westfalen"}},{"name":"Baerlo","postalCode":"41334","locality":"Nettetal","municipality":{"key":"05166016","name":"Nettetal, Stadt","type":"Stadt"},"district":{"key":"05166","name":"Viersen","type":"Kreis"},"federalState":{"key":"05","name":"Nordrhein-Westfalen"}},{"name":"Bahnhofstr.","postalCode":"41334","locality":"Nettetal","municipality":{"key":"05166016","name":"Nettetal, Stadt","type":"Stadt"},"district":{"key":"05166","name":"Viersen","type":"Kreis"},"federalState":{"key":"05","name":"Nordrhein-Westfalen"}},{"name":"Bäumges Kirchweg","postalCode":"41334","locality":"Nettetal","municipality":{"key":"05166016","name":"Nettetal, Stadt","type":"Stadt"},"district":{"key":"05166","name":"Viersen","type":"Kreis"},"federalState":{"key":"05","name":"Nordrhein-Westfalen"}},{"name":"Beecker Weg","postalCode":"41334","locality":"Nettetal","municipality":{"key":"05166016","name":"Nettetal, Stadt","type":"Stadt"},"district":{"key":"05166","name":"Viersen","type":"Kreis"},"federalState":{"key":"05","name":"Nordrhein-Westfalen"}},{"name":"Beek","postalCode":"41334","locality":"Nettetal","municipality":{"key":"05166016","name":"Nettetal, Stadt","type":"Stadt"},"district":{"key":"05166","name":"Viersen","type":"Kreis"},"federalState":{"key":"05","name":"Nordrhein-Westfalen"}},{"name":"Beethovenstr.","postalCode":"41334","locality":"Nettetal","municipality":{"key":"05166016","name":"Nettetal, Stadt","type":"Stadt"},"district":{"key":"05166","name":"Viersen","type":"Kreis"},"federalState":{"key":"05","name":"Nordrhein-Westfalen"}},{"name":"Bellenweg","postalCode":"41334","locality":"Nettetal","municipality":{"key":"05166016","name":"Nettetal, Stadt","type":"Stadt"},"district":{"key":"05166","name":"Viersen","type":"Kreis"},"federalState":{"key":"05","name":"Nordrhein-Westfalen"}},{"name":"Berg","postalCode":"41334","locality":"Nettetal","municipality":{"key":"05166016","name":"Nettetal, Stadt","type":"Stadt"},"district":{"key":"05166","name":"Viersen","type":"Kreis"},"federalState":{"key":"05","name":"Nordrhein-Westfalen"}},{"name":"Bergstr.","postalCode":"41334","locality":"Nettetal","municipality":{"key":"05166016","name":"Nettetal, Stadt","type":"Stadt"},"district":{"key":"05166","name":"Viersen","type":"Kreis"},"federalState":{"key":"05","name":"Nordrhein-Westfalen"}},{"name":"Berliner Str.","postalCode":"41334","locality":"Nettetal","municipality":{"key":"05166016","name":"Nettetal, Stadt","type":"Stadt"},"district":{"key":"05166","name":"Viersen","type":"Kreis"},"federalState":{"key":"05","name":"Nordrhein-Westfalen"}},{"name":"Bieth","postalCode":"41334","locality":"Nettetal","municipality":{"key":"05166016","name":"Nettetal, Stadt","type":"Stadt"},"district":{"key":"05166","name":"Viersen","type":"Kreis"},"federalState":{"key":"05","name":"Nordrhein-Westfalen"}},{"name":"Biether Str.","postalCode":"41334","locality":"Nettetal","municipality":{"key":"05166016","name":"Nettetal, Stadt","type":"Stadt"},"district":{"key":"05166","name":"Viersen","type":"Kreis"},"federalState":{"key":"05","name":"Nordrhein-Westfalen"}},{"name":"Birkenbuschweg","postalCode":"41334","locality":"Nettetal","municipality":{"key":"05166016","name":"Nettetal, Stadt","type":"Stadt"},"district":{"key":"05166","name":"Viersen","type":"Kreis"},"federalState":{"key":"05","name":"Nordrhein-Westfalen"}},{"name":"Birkenweg","postalCode":"41334","locality":"Nettetal","municipality":{"key":"05166016","name":"Nettetal, Stadt","type":"Stadt"},"district":{"key":"05166","name":"Viersen","type":"Kreis"},"federalState":{"key":"05","name":"Nordrhein-Westfalen"}},{"name":"Bischof-Peters-Str.","postalCode":"41334","locality":"Nettetal","municipality":{"key":"05166016","name":"Nettetal, Stadt","type":"Stadt"},"district":{"key":"05166","name":"Viersen","type":"Kreis"},"federalState":{"key":"05","name":"Nordrhein-Westfalen"}},{"name":"Bleichstr.","postalCode":"41334","locality":"Nettetal","municipality":{"key":"05166016","name":"Nettetal, Stadt","type":"Stadt"},"district":{"key":"05166","name":"Viersen","type":"Kreis"},"federalState":{"key":"05","name":"Nordrhein-Westfalen"}},{"name":"Blumenallee","postalCode":"41334","locality":"Nettetal","municipality":{"key":"05166016","name":"Nettetal, Stadt","type":"Stadt"},"district":{"key":"05166","name":"Viersen","type":"Kreis"},"federalState":{"key":"05","name":"Nordrhein-Westfalen"}},{"name":"Blumenstr.","postalCode":"41334","locality":"Nettetal","municipality":{"key":"05166016","name":"Nettetal, Stadt","type":"Stadt"},"district":{"key":"05166","name":"Viersen","type":"Kreis"},"federalState":{"key":"05","name":"Nordrhein-Westfalen"}},{"name":"Blumental","postalCode":"41334","locality":"Nettetal","municipality":{"key":"05166016","name":"Nettetal, Stadt","type":"Stadt"},"district":{"key":"05166","name":"Viersen","type":"Kreis"},"federalState":{"key":"05","name":"Nordrhein-Westfalen"}},{"name":"Bocholt","postalCode":"41334","locality":"Nettetal","municipality":{"key":"05166016","name":"Nettetal, Stadt","type":"Stadt"},"district":{"key":"05166","name":"Viersen","type":"Kreis"},"federalState":{"key":"05","name":"Nordrhein-Westfalen"}},{"name":"Bocholter Weg","postalCode":"41334","locality":"Nettetal","municipality":{"key":"05166016","name":"Nettetal, Stadt","type":"Stadt"},"district":{"key":"05166","name":"Viersen","type":"Kreis"},"federalState":{"key":"05","name":"Nordrhein-Westfalen"}},{"name":"Boisheimer Str.","postalCode":"41334","locality":"Nettetal","municipality":{"key":"05166016","name":"Nettetal, Stadt","type":"Stadt"},"district":{"key":"05166","name":"Viersen","type":"Kreis"},"federalState":{"key":"05","name":"Nordrhein-Westfalen"}},{"name":"Bongartzstr.","postalCode":"41334","locality":"Nettetal","municipality":{"key":"05166016","name":"Nettetal, Stadt","type":"Stadt"},"district":{"key":"05166","name":"Viersen","type":"Kreis"},"federalState":{"key":"05","name":"Nordrhein-Westfalen"}},{"name":"Bootenkamp","postalCode":"41334","locality":"Nettetal","municipality":{"key":"05166016","name":"Nettetal, Stadt","type":"Stadt"},"district":{"key":"05166","name":"Viersen","type":"Kreis"},"federalState":{"key":"05","name":"Nordrhein-Westfalen"}},{"name":"Brabanter Str.","postalCode":"41334","locality":"Nettetal","municipality":{"key":"05166016","name":"Nettetal, Stadt","type":"Stadt"},"district":{"key":"05166","name":"Viersen","type":"Kreis"},"federalState":{"key":"05","name":"Nordrhein-Westfalen"}},{"name":"Brachter Landstr.","postalCode":"41334","locality":"Nettetal","municipality":{"key":"05166016","name":"Nettetal, Stadt","type":"Stadt"},"district":{"key":"05166","name":"Viersen","type":"Kreis"},"federalState":{"key":"05","name":"Nordrhein-Westfalen"}},{"name":"Brachter Str.","postalCode":"41334","locality":"Nettetal","municipality":{"key":"05166016","name":"Nettetal, Stadt","type":"Stadt"},"district":{"key":"05166","name":"Viersen","type":"Kreis"},"federalState":{"key":"05","name":"Nordrhein-Westfalen"}},{"name":"Brahmsstr.","postalCode":"41334","locality":"Nettetal","municipality":{"key":"05166016","name":"Nettetal, Stadt","type":"Stadt"},"district":{"key":"05166","name":"Viersen","type":"Kreis"},"federalState":{"key":"05","name":"Nordrhein-Westfalen"}},{"name":"Brassertweg","postalCode":"41334","locality":"Nettetal","municipality":{"key":"05166016","name":"Nettetal, Stadt","type":"Stadt"},"district":{"key":"05166","name":"Viersen","type":"Kreis"},"federalState":{"key":"05","name":"Nordrhein-Westfalen"}},{"name":"Breslauer Str.","postalCode":"41334","locality":"Nettetal","municipality":{"key":"05166016","name":"Nettetal, Stadt","type":"Stadt"},"district":{"key":"05166","name":"Viersen","type":"Kreis"},"federalState":{"key":"05","name":"Nordrhein-Westfalen"}},{"name":"Breyeller Str.","postalCode":"41334","locality":"Nettetal","municipality":{"key":"05166016","name":"Nettetal, Stadt","type":"Stadt"},"district":{"key":"05166","name":"Viersen","type":"Kreis"},"federalState":{"key":"05","name":"Nordrhein-Westfalen"}},{"name":"Brigittenstr.","postalCode":"41334","locality":"Nettetal","municipality":{"key":"05166016","name":"Nettetal, Stadt","type":"Stadt"},"district":{"key":"05166","name":"Viersen","type":"Kreis"},"federalState":{"key":"05","name":"Nordrhein-Westfalen"}},{"name":"Brillantsamtstr.","postalCode":"41334","locality":"Nettetal","municipality":{"key":"05166016","name":"Nettetal, Stadt","type":"Stadt"},"district":{"key":"05166","name":"Viersen","type":"Kreis"},"federalState":{"key":"05","name":"Nordrhein-Westfalen"}},{"name":"Brockerhof","postalCode":"41334","locality":"Nettetal","municipality":{"key":"05166016","name":"Nettetal, Stadt","type":"Stadt"},"district":{"key":"05166","name":"Viersen","type":"Kreis"},"federalState":{"key":"05","name":"Nordrhein-Westfalen"}},{"name":"Brockerhofer Weg","postalCode":"41334","locality":"Nettetal","municipality":{"key":"05166016","name":"Nettetal, Stadt","type":"Stadt"},"district":{"key":"05166","name":"Viersen","type":"Kreis"},"federalState":{"key":"05","name":"Nordrhein-Westfalen"}},{"name":"Bruch","postalCode":"41334","locality":"Nettetal","municipality":{"key":"05166016","name":"Nettetal, Stadt","type":"Stadt"},"district":{"key":"05166","name":"Viersen","type":"Kreis"},"federalState":{"key":"05","name":"Nordrhein-Westfalen"}},{"name":"Bruchstr.","postalCode":"41334","locality":"Nettetal","municipality":{"key":"05166016","name":"Nettetal, Stadt","type":"Stadt"},"district":{"key":"05166","name":"Viersen","type":"Kreis"},"federalState":{"key":"05","name":"Nordrhein-Westfalen"}},{"name":"Brückenhausstr.","postalCode":"41334","locality":"Nettetal","municipality":{"key":"05166016","name":"Nettetal, Stadt","type":"Stadt"},"district":{"key":"05166","name":"Viersen","type":"Kreis"},"federalState":{"key":"05","name":"Nordrhein-Westfalen"}},{"name":"Brückenstr.","postalCode":"41334","locality":"Nettetal","municipality":{"key":"05166016","name":"Nettetal, Stadt","type":"Stadt"},"district":{"key":"05166","name":"Viersen","type":"Kreis"},"federalState":{"key":"05","name":"Nordrhein-Westfalen"}},{"name":"Bruckrath","postalCode":"41334","locality":"Nettetal","municipality":{"key":"05166016","name":"Nettetal, Stadt","type":"Stadt"},"district":{"key":"05166","name":"Viersen","type":"Kreis"},"federalState":{"key":"05","name":"Nordrhein-Westfalen"}},{"name":"Buchenstr.","postalCode":"41334","locality":"Nettetal","municipality":{"key":"05166016","name":"Nettetal, Stadt","type":"Stadt"},"district":{"key":"05166","name":"Viersen","type":"Kreis"},"federalState":{"key":"05","name":"Nordrhein-Westfalen"}},{"name":"Buchenweg","postalCode":"41334","locality":"Nettetal","municipality":{"key":"05166016","name":"Nettetal, Stadt","type":"Stadt"},"district":{"key":"05166","name":"Viersen","type":"Kreis"},"federalState":{"key":"05","name":"Nordrhein-Westfalen"}},{"name":"Bürdestr.","postalCode":"41334","locality":"Nettetal","municipality":{"key":"05166016","name":"Nettetal, Stadt","type":"Stadt"},"district":{"key":"05166","name":"Viersen","type":"Kreis"},"federalState":{"key":"05","name":"Nordrhein-Westfalen"}},{"name":"Burgstr.","postalCode":"41334","locality":"Nettetal","municipality":{"key":"05166016","name":"Nettetal, Stadt","type":"Stadt"},"district":{"key":"05166","name":"Viersen","type":"Kreis"},"federalState":{"key":"05","name":"Nordrhein-Westfalen"}},{"name":"Busch","postalCode":"41334","locality":"Nettetal","municipality":{"key":"05166016","name":"Nettetal, Stadt","type":"Stadt"},"district":{"key":"05166","name":"Viersen","type":"Kreis"},"federalState":{"key":"05","name":"Nordrhein-Westfalen"}},{"name":"Büschen","postalCode":"41334","locality":"Nettetal","municipality":{"key":"05166016","name":"Nettetal, Stadt","type":"Stadt"},"district":{"key":"05166","name":"Viersen","type":"Kreis"},"federalState":{"key":"05","name":"Nordrhein-Westfalen"}},{"name":"Buscher Weg","postalCode":"41334","locality":"Nettetal","municipality":{"key":"05166016","name":"Nettetal, Stadt","type":"Stadt"},"district":{"key":"05166","name":"Viersen","type":"Kreis"},"federalState":{"key":"05","name":"Nordrhein-Westfalen"}},{"name":"Buschstr.","postalCode":"41334","locality":"Nettetal","municipality":{"key":"05166016","name":"Nettetal, Stadt","type":"Stadt"},"district":{"key":"05166","name":"Viersen","type":"Kreis"},"federalState":{"key":"05","name":"Nordrhein-Westfalen"}},{"name":"Carl-Sonnenschein-Str.","postalCode":"41334","locality":"Nettetal","municipality":{"key":"05166016","name":"Nettetal, Stadt","type":"Stadt"},"district":{"key":"05166","name":"Viersen","type":"Kreis"},"federalState":{"key":"05","name":"Nordrhein-Westfalen"}},{"name":"Caudebec-Ring","postalCode":"41334","locality":"Nettetal","municipality":{"key":"05166016","name":"Nettetal, Stadt","type":"Stadt"},"district":{"key":"05166","name":"Viersen","type":"Kreis"},"federalState":{"key":"05","name":"Nordrhein-Westfalen"}},{"name":"Christian-Rötzel-Allee","postalCode":"41334","locality":"Nettetal","municipality":{"key":"05166016","name":"Nettetal, Stadt","type":"Stadt"},"district":{"key":"05166","name":"Viersen","type":"Kreis"},"federalState":{"key":"05","name":"Nordrhein-Westfalen"}},{"name":"Dahlweg","postalCode":"41334","locality":"Nettetal","municipality":{"key":"05166016","name":"Nettetal, Stadt","type":"Stadt"},"district":{"key":"05166","name":"Viersen","type":"Kreis"},"federalState":{"key":"05","name":"Nordrhein-Westfalen"}},{"name":"Danziger Str.","postalCode":"41334","locality":"Nettetal","municipality":{"key":"05166016","name":"Nettetal, Stadt","type":"Stadt"},"district":{"key":"05166","name":"Viersen","type":"Kreis"},"federalState":{"key":"05","name":"Nordrhein-Westfalen"}},{"name":"De-Ball-Str.","postalCode":"41334","locality":"Nettetal","municipality":{"key":"05166016","name":"Nettetal, Stadt","type":"Stadt"},"district":{"key":"05166","name":"Viersen","type":"Kreis"},"federalState":{"key":"05","name":"Nordrhein-Westfalen"}},{"name":"Dechant-Werth-Str.","postalCode":"41334","locality":"Nettetal","municipality":{"key":"05166016","name":"Nettetal, Stadt","type":"Stadt"},"district":{"key":"05166","name":"Viersen","type":"Kreis"},"federalState":{"key":"05","name":"Nordrhein-Westfalen"}},{"name":"Deller Weg","postalCode":"41334","locality":"Nettetal","municipality":{"key":"05166016","name":"Nettetal, Stadt","type":"Stadt"},"district":{"key":"05166","name":"Viersen","type":"Kreis"},"federalState":{"key":"05","name":"Nordrhein-Westfalen"}},{"name":"Doerkesplatz","postalCode":"41334","locality":"Nettetal","municipality":{"key":"05166016","name":"Nettetal, Stadt","type":"Stadt"},"district":{"key":"05166","name":"Viersen","type":"Kreis"},"federalState":{"key":"05","name":"Nordrhein-Westfalen"}},{"name":"Dohrstr.","postalCode":"41334","locality":"Nettetal","municipality":{"key":"05166016","name":"Nettetal, Stadt","type":"Stadt"},"district":{"key":"05166","name":"Viersen","type":"Kreis"},"federalState":{"key":"05","name":"Nordrhein-Westfalen"}},{"name":"Donkelsvennweg","postalCode":"41334","locality":"Nettetal","municipality":{"key":"05166016","name":"Nettetal, Stadt","type":"Stadt"},"district":{"key":"05166","name":"Viersen","type":"Kreis"},"federalState":{"key":"05","name":"Nordrhein-Westfalen"}},{"name":"Dorfstr.","postalCode":"41334","locality":"Nettetal","municipality":{"key":"05166016","name":"Nettetal, Stadt","type":"Stadt"},"district":{"key":"05166","name":"Viersen","type":"Kreis"},"federalState":{"key":"05","name":"Nordrhein-Westfalen"}},{"name":"Dornbuscher Str.","postalCode":"41334","locality":"Nettetal","municipality":{"key":"05166016","name":"Nettetal, Stadt","type":"Stadt"},"district":{"key":"05166","name":"Viersen","type":"Kreis"},"federalState":{"key":"05","name":"Nordrhein-Westfalen"}},{"name":"Douvengasse","postalCode":"41334","locality":"Nettetal","municipality":{"key":"05166016","name":"Nettetal, Stadt","type":"Stadt"},"district":{"key":"05166","name":"Viersen","type":"Kreis"},"federalState":{"key":"05","name":"Nordrhein-Westfalen"}},{"name":"Driesenweg","postalCode":"41334","locality":"Nettetal","municipality":{"key":"05166016","name":"Nettetal, Stadt","type":"Stadt"},"district":{"key":"05166","name":"Viersen","type":"Kreis"},"federalState":{"key":"05","name":"Nordrhein-Westfalen"}},{"name":"Dr.-Martin-Weg","postalCode":"41334","locality":"Nettetal","municipality":{"key":"05166016","name":"Nettetal, Stadt","type":"Stadt"},"district":{"key":"05166","name":"Viersen","type":"Kreis"},"federalState":{"key":"05","name":"Nordrhein-Westfalen"}},{"name":"Dülkener Str.","postalCode":"41334","locality":"Nettetal","municipality":{"key":"05166016","name":"Nettetal, Stadt","type":"Stadt"},"district":{"key":"05166","name":"Viersen","type":"Kreis"},"federalState":{"key":"05","name":"Nordrhein-Westfalen"}},{"name":"Düsseldorfer Str.","postalCode":"41334","locality":"Nettetal","municipality":{"key":"05166016","name":"Nettetal, Stadt","type":"Stadt"},"district":{"key":"05166","name":"Viersen","type":"Kreis"},"federalState":{"key":"05","name":"Nordrhein-Westfalen"}},{"name":"Dyck","postalCode":"41334","locality":"Nettetal","municipality":{"key":"05166016","name":"Nettetal, Stadt","type":"Stadt"},"district":{"key":"05166","name":"Viersen","type":"Kreis"},"federalState":{"key":"05","name":"Nordrhein-Westfalen"}},{"name":"Eduard-Istas-Str.","postalCode":"41334","locality":"Nettetal","municipality":{"key":"05166016","name":"Nettetal, Stadt","type":"Stadt"},"district":{"key":"05166","name":"Viersen","type":"Kreis"},"federalState":{"key":"05","name":"Nordrhein-Westfalen"}},{"name":"Eichendonk","postalCode":"41334","locality":"Nettetal","municipality":{"key":"05166016","name":"Nettetal, Stadt","type":"Stadt"},"district":{"key":"05166","name":"Viersen","type":"Kreis"},"federalState":{"key":"05","name":"Nordrhein-Westfalen"}},{"name":"Eichendorffstr.","postalCode":"41334","locality":"Nettetal","municipality":{"key":"05166016","name":"Nettetal, Stadt","type":"Stadt"},"district":{"key":"05166","name":"Viersen","type":"Kreis"},"federalState":{"key":"05","name":"Nordrhein-Westfalen"}},{"name":"Eichenstr.","postalCode":"41334","locality":"Nettetal","municipality":{"key":"05166016","name":"Nettetal, Stadt","type":"Stadt"},"district":{"key":"05166","name":"Viersen","type":"Kreis"},"federalState":{"key":"05","name":"Nordrhein-Westfalen"}},{"name":"Einsteinstr.","postalCode":"41334","locality":"Nettetal","municipality":{"key":"05166016","name":"Nettetal, Stadt","type":"Stadt"},"district":{"key":"05166","name":"Viersen","type":"Kreis"},"federalState":{"key":"05","name":"Nordrhein-Westfalen"}},{"name":"Eisenbahnstrecke","postalCode":"41334","locality":"Nettetal","municipality":{"key":"05166016","name":"Nettetal, Stadt","type":"Stadt"},"district":{"key":"05166","name":"Viersen","type":"Kreis"},"federalState":{"key":"05","name":"Nordrhein-Westfalen"}},{"name":"Elisabethstr.","postalCode":"41334","locality":"Nettetal","municipality":{"key":"05166016","name":"Nettetal, Stadt","type":"Stadt"},"district":{"key":"05166","name":"Viersen","type":"Kreis"},"federalState":{"key":"05","name":"Nordrhein-Westfalen"}},{"name":"Entenpfad","postalCode":"41334","locality":"Nettetal","municipality":{"key":"05166016","name":"Nettetal, Stadt","type":"Stadt"},"district":{"key":"05166","name":"Viersen","type":"Kreis"},"federalState":{"key":"05","name":"Nordrhein-Westfalen"}},{"name":"Erbenstr.","postalCode":"41334","locality":"Nettetal","municipality":{"key":"05166016","name":"Nettetal, Stadt","type":"Stadt"},"district":{"key":"05166","name":"Viersen","type":"Kreis"},"federalState":{"key":"05","name":"Nordrhein-Westfalen"}},{"name":"Eremitenstr.","postalCode":"41334","locality":"Nettetal","municipality":{"key":"05166016","name":"Nettetal, Stadt","type":"Stadt"},"district":{"key":"05166","name":"Viersen","type":"Kreis"},"federalState":{"key":"05","name":"Nordrhein-Westfalen"}},{"name":"Erich-Selbach-Str.","postalCode":"41334","locality":"Nettetal","municipality":{"key":"05166016","name":"Nettetal, Stadt","type":"Stadt"},"district":{"key":"05166","name":"Viersen","type":"Kreis"},"federalState":{"key":"05","name":"Nordrhein-Westfalen"}},{"name":"Erikaplatz","postalCode":"41334","locality":"Nettetal","municipality":{"key":"05166016","name":"Nettetal, Stadt","type":"Stadt"},"district":{"key":"05166","name":"Viersen","type":"Kreis"},"federalState":{"key":"05","name":"Nordrhein-Westfalen"}},{"name":"Erkesweg","postalCode":"41334","locality":"Nettetal","municipality":{"key":"05166016","name":"Nettetal, Stadt","type":"Stadt"},"district":{"key":"05166","name":"Viersen","type":"Kreis"},"federalState":{"key":"05","name":"Nordrhein-Westfalen"}},{"name":"Erlenbruch","postalCode":"41334","locality":"Nettetal","municipality":{"key":"05166016","name":"Nettetal, Stadt","type":"Stadt"},"district":{"key":"05166","name":"Viersen","type":"Kreis"},"federalState":{"key":"05","name":"Nordrhein-Westfalen"}},{"name":"Erlenweg","postalCode":"41334","locality":"Nettetal","municipality":{"key":"05166016","name":"Nettetal, Stadt","type":"Stadt"},"district":{"key":"05166","name":"Viersen","type":"Kreis"},"federalState":{"key":"05","name":"Nordrhein-Westfalen"}},{"name":"Fährstr.","postalCode":"41334","locality":"Nettetal","municipality":{"key":"05166016","name":"Nettetal, Stadt","type":"Stadt"},"district":{"key":"05166","name":"Viersen","type":"Kreis"},"federalState":{"key":"05","name":"Nordrhein-Westfalen"}},{"name":"Falltorfeld","postalCode":"41334","locality":"Nettetal","municipality":{"key":"05166016","name":"Nettetal, Stadt","type":"Stadt"},"district":{"key":"05166","name":"Viersen","type":"Kreis"},"federalState":{"key":"05","name":"Nordrhein-Westfalen"}},{"name":"Färberstr.","postalCode":"41334","locality":"Nettetal","municipality":{"key":"05166016","name":"Nettetal, Stadt","type":"Stadt"},"district":{"key":"05166","name":"Viersen","type":"Kreis"},"federalState":{"key":"05","name":"Nordrhein-Westfalen"}},{"name":"Fasanenstr.","postalCode":"41334","locality":"Nettetal","municipality":{"key":"05166016","name":"Nettetal, Stadt","type":"Stadt"},"district":{"key":"05166","name":"Viersen","type":"Kreis"},"federalState":{"key":"05","name":"Nordrhein-Westfalen"}},{"name":"Feegersweg","postalCode":"41334","locality":"Nettetal","municipality":{"key":"05166016","name":"Nettetal, Stadt","type":"Stadt"},"district":{"key":"05166","name":"Viersen","type":"Kreis"},"federalState":{"key":"05","name":"Nordrhein-Westfalen"}},{"name":"Felderend","postalCode":"41334","locality":"Nettetal","municipality":{"key":"05166016","name":"Nettetal, Stadt","type":"Stadt"},"district":{"key":"05166","name":"Viersen","type":"Kreis"},"federalState":{"key":"05","name":"Nordrhein-Westfalen"}},{"name":"Feldstr.","postalCode":"41334","locality":"Nettetal","municipality":{"key":"05166016","name":"Nettetal, Stadt","type":"Stadt"},"district":{"key":"05166","name":"Viersen","type":"Kreis"},"federalState":{"key":"05","name":"Nordrhein-Westfalen"}},{"name":"Fenland-Ring","postalCode":"41334","locality":"Nettetal","municipality":{"key":"05166016","name":"Nettetal, Stadt","type":"Stadt"},"district":{"key":"05166","name":"Viersen","type":"Kreis"},"federalState":{"key":"05","name":"Nordrhein-Westfalen"}},{"name":"Fichtenweg","postalCode":"41334","locality":"Nettetal","municipality":{"key":"05166016","name":"Nettetal, Stadt","type":"Stadt"},"district":{"key":"05166","name":"Viersen","type":"Kreis"},"federalState":{"key":"05","name":"Nordrhein-Westfalen"}},{"name":"Fischerweg","postalCode":"41334","locality":"Nettetal","municipality":{"key":"05166016","name":"Nettetal, Stadt","type":"Stadt"},"district":{"key":"05166","name":"Viersen","type":"Kreis"},"federalState":{"key":"05","name":"Nordrhein-Westfalen"}},{"name":"Fliederplatz","postalCode":"41334","locality":"Nettetal","municipality":{"key":"05166016","name":"Nettetal, Stadt","type":"Stadt"},"district":{"key":"05166","name":"Viersen","type":"Kreis"},"federalState":{"key":"05","name":"Nordrhein-Westfalen"}},{"name":"Florastr.","postalCode":"41334","locality":"Nettetal","municipality":{"key":"05166016","name":"Nettetal, Stadt","type":"Stadt"},"district":{"key":"05166","name":"Viersen","type":"Kreis"},"federalState":{"key":"05","name":"Nordrhein-Westfalen"}},{"name":"Flothend","postalCode":"41334","locality":"Nettetal","municipality":{"key":"05166016","name":"Nettetal, Stadt","type":"Stadt"},"district":{"key":"05166","name":"Viersen","type":"Kreis"},"federalState":{"key":"05","name":"Nordrhein-Westfalen"}},{"name":"Flothender Str.","postalCode":"41334","locality":"Nettetal","municipality":{"key":"05166016","name":"Nettetal, Stadt","type":"Stadt"},"district":{"key":"05166","name":"Viersen","type":"Kreis"},"federalState":{"key":"05","name":"Nordrhein-Westfalen"}},{"name":"Fongern","postalCode":"41334","locality":"Nettetal","municipality":{"key":"05166016","name":"Nettetal, Stadt","type":"Stadt"},"district":{"key":"05166","name":"Viersen","type":"Kreis"},"federalState":{"key":"05","name":"Nordrhein-Westfalen"}},{"name":"Frankstr.","postalCode":"41334","locality":"Nettetal","municipality":{"key":"05166016","name":"Nettetal, Stadt","type":"Stadt"},"district":{"key":"05166","name":"Viersen","type":"Kreis"},"federalState":{"key":"05","name":"Nordrhein-Westfalen"}},{"name":"Franziskusstr.","postalCode":"41334","locality":"Nettetal","municipality":{"key":"05166016","name":"Nettetal, Stadt","type":"Stadt"},"district":{"key":"05166","name":"Viersen","type":"Kreis"},"federalState":{"key":"05","name":"Nordrhein-Westfalen"}},{"name":"Franz-Nelihsen-Str.","postalCode":"41334","locality":"Nettetal","municipality":{"key":"05166016","name":"Nettetal, Stadt","type":"Stadt"},"district":{"key":"05166","name":"Viersen","type":"Kreis"},"federalState":{"key":"05","name":"Nordrhein-Westfalen"}},{"name":"Freiheitstr.","postalCode":"41334","locality":"Nettetal","municipality":{"key":"05166016","name":"Nettetal, Stadt","type":"Stadt"},"district":{"key":"05166","name":"Viersen","type":"Kreis"},"federalState":{"key":"05","name":"Nordrhein-Westfalen"}},{"name":"Frenkenweg","postalCode":"41334","locality":"Nettetal","municipality":{"key":"05166016","name":"Nettetal, Stadt","type":"Stadt"},"district":{"key":"05166","name":"Viersen","type":"Kreis"},"federalState":{"key":"05","name":"Nordrhein-Westfalen"}},{"name":"Friedenstr.","postalCode":"41334","locality":"Nettetal","municipality":{"key":"05166016","name":"Nettetal, Stadt","type":"Stadt"},"district":{"key":"05166","name":"Viersen","type":"Kreis"},"federalState":{"key":"05","name":"Nordrhein-Westfalen"}},{"name":"Friedhofstr.","postalCode":"41334","locality":"Nettetal","municipality":{"key":"05166016","name":"Nettetal, Stadt","type":"Stadt"},"district":{"key":"05166","name":"Viersen","type":"Kreis"},"federalState":{"key":"05","name":"Nordrhein-Westfalen"}},{"name":"Friedrichstr.","postalCode":"41334","locality":"Nettetal","municipality":{"key":"05166016","name":"Nettetal, Stadt","type":"Stadt"},"district":{"key":"05166","name":"Viersen","type":"Kreis"},"federalState":{"key":"05","name":"Nordrhein-Westfalen"}},{"name":"Fuchsienweg","postalCode":"41334","locality":"Nettetal","municipality":{"key":"05166016","name":"Nettetal, Stadt","type":"Stadt"},"district":{"key":"05166","name":"Viersen","type":"Kreis"},"federalState":{"key":"05","name":"Nordrhein-Westfalen"}},{"name":"Furth","postalCode":"41334","locality":"Nettetal","municipality":{"key":"05166016","name":"Nettetal, Stadt","type":"Stadt"},"district":{"key":"05166","name":"Viersen","type":"Kreis"},"federalState":{"key":"05","name":"Nordrhein-Westfalen"}},{"name":"Gartenstr.","postalCode":"41334","locality":"Nettetal","municipality":{"key":"05166016","name":"Nettetal, Stadt","type":"Stadt"},"district":{"key":"05166","name":"Viersen","type":"Kreis"},"federalState":{"key":"05","name":"Nordrhein-Westfalen"}},{"name":"Gartzweg","postalCode":"41334","locality":"Nettetal","municipality":{"key":"05166016","name":"Nettetal, Stadt","type":"Stadt"},"district":{"key":"05166","name":"Viersen","type":"Kreis"},"federalState":{"key":"05","name":"Nordrhein-Westfalen"}},{"name":"Gebrüder-Teeuwen-Str.","postalCode":"41334","locality":"Nettetal","municipality":{"key":"05166016","name":"Nettetal, Stadt","type":"Stadt"},"district":{"key":"05166","name":"Viersen","type":"Kreis"},"federalState":{"key":"05","name":"Nordrhein-Westfalen"}},{"name":"Geldrischer Weg","postalCode":"41334","locality":"Nettetal","municipality":{"key":"05166016","name":"Nettetal, Stadt","type":"Stadt"},"district":{"key":"05166","name":"Viersen","type":"Kreis"},"federalState":{"key":"05","name":"Nordrhein-Westfalen"}},{"name":"Geldrische Str.","postalCode":"41334","locality":"Nettetal","municipality":{"key":"05166016","name":"Nettetal, Stadt","type":"Stadt"},"district":{"key":"05166","name":"Viersen","type":"Kreis"},"federalState":{"key":"05","name":"Nordrhein-Westfalen"}},{"name":"Gerberstr.","postalCode":"41334","locality":"Nettetal","municipality":{"key":"05166016","name":"Nettetal, Stadt","type":"Stadt"},"district":{"key":"05166","name":"Viersen","type":"Kreis"},"federalState":{"key":"05","name":"Nordrhein-Westfalen"}},{"name":"Gerhart-Hauptmann-Str.","postalCode":"41334","locality":"Nettetal","municipality":{"key":"05166016","name":"Nettetal, Stadt","type":"Stadt"},"district":{"key":"05166","name":"Viersen","type":"Kreis"},"federalState":{"key":"05","name":"Nordrhein-Westfalen"}},{"name":"Gertrudenhof","postalCode":"41334","locality":"Nettetal","municipality":{"key":"05166016","name":"Nettetal, Stadt","type":"Stadt"},"district":{"key":"05166","name":"Viersen","type":"Kreis"},"federalState":{"key":"05","name":"Nordrhein-Westfalen"}},{"name":"Gier","postalCode":"41334","locality":"Nettetal","municipality":{"key":"05166016","name":"Nettetal, Stadt","type":"Stadt"},"district":{"key":"05166","name":"Viersen","type":"Kreis"},"federalState":{"key":"05","name":"Nordrhein-Westfalen"}},{"name":"Ginsterheide","postalCode":"41334","locality":"Nettetal","municipality":{"key":"05166016","name":"Nettetal, Stadt","type":"Stadt"},"district":{"key":"05166","name":"Viersen","type":"Kreis"},"federalState":{"key":"05","name":"Nordrhein-Westfalen"}},{"name":"Glabbach","postalCode":"41334","locality":"Nettetal","municipality":{"key":"05166016","name":"Nettetal, Stadt","type":"Stadt"},"district":{"key":"05166","name":"Viersen","type":"Kreis"},"federalState":{"key":"05","name":"Nordrhein-Westfalen"}},{"name":"Gladiolenweg","postalCode":"41334","locality":"Nettetal","municipality":{"key":"05166016","name":"Nettetal, Stadt","type":"Stadt"},"district":{"key":"05166","name":"Viersen","type":"Kreis"},"federalState":{"key":"05","name":"Nordrhein-Westfalen"}},{"name":"Goethestr.","postalCode":"41334","locality":"Nettetal","municipality":{"key":"05166016","name":"Nettetal, Stadt","type":"Stadt"},"district":{"key":"05166","name":"Viersen","type":"Kreis"},"federalState":{"key":"05","name":"Nordrhein-Westfalen"}},{"name":"Görresstr.","postalCode":"41334","locality":"Nettetal","municipality":{"key":"05166016","name":"Nettetal, Stadt","type":"Stadt"},"district":{"key":"05166","name":"Viersen","type":"Kreis"},"federalState":{"key":"05","name":"Nordrhein-Westfalen"}},{"name":"Graf-Mirbach-Str.","postalCode":"41334","locality":"Nettetal","municipality":{"key":"05166016","name":"Nettetal, Stadt","type":"Stadt"},"district":{"key":"05166","name":"Viersen","type":"Kreis"},"federalState":{"key":"05","name":"Nordrhein-Westfalen"}},{"name":"Graf-Schaesberg-Str.","postalCode":"41334","locality":"Nettetal","municipality":{"key":"05166016","name":"Nettetal, Stadt","type":"Stadt"},"district":{"key":"05166","name":"Viersen","type":"Kreis"},"federalState":{"key":"05","name":"Nordrhein-Westfalen"}},{"name":"Grefrather Str.","postalCode":"41334","locality":"Nettetal","municipality":{"key":"05166016","name":"Nettetal, Stadt","type":"Stadt"},"district":{"key":"05166","name":"Viersen","type":"Kreis"},"federalState":{"key":"05","name":"Nordrhein-Westfalen"}},{"name":"Grenzwaldstr.","postalCode":"41334","locality":"Nettetal","municipality":{"key":"05166016","name":"Nettetal, Stadt","type":"Stadt"},"district":{"key":"05166","name":"Viersen","type":"Kreis"},"federalState":{"key":"05","name":"Nordrhein-Westfalen"}},{"name":"Grenzweg","postalCode":"41334","locality":"Nettetal","municipality":{"key":"05166016","name":"Nettetal, Stadt","type":"Stadt"},"district":{"key":"05166","name":"Viersen","type":"Kreis"},"federalState":{"key":"05","name":"Nordrhein-Westfalen"}},{"name":"Grüner Weg","postalCode":"41334","locality":"Nettetal","municipality":{"key":"05166016","name":"Nettetal, Stadt","type":"Stadt"},"district":{"key":"05166","name":"Viersen","type":"Kreis"},"federalState":{"key":"05","name":"Nordrhein-Westfalen"}},{"name":"Günther-Hinnenthal-Str.","postalCode":"41334","locality":"Nettetal","municipality":{"key":"05166016","name":"Nettetal, Stadt","type":"Stadt"},"district":{"key":"05166","name":"Viersen","type":"Kreis"},"federalState":{"key":"05","name":"Nordrhein-Westfalen"}},{"name":"Haagstr.","postalCode":"41334","locality":"Nettetal","municipality":{"key":"05166016","name":"Nettetal, Stadt","type":"Stadt"},"district":{"key":"05166","name":"Viersen","type":"Kreis"},"federalState":{"key":"05","name":"Nordrhein-Westfalen"}},{"name":"Haak","postalCode":"41334","locality":"Nettetal","municipality":{"key":"05166016","name":"Nettetal, Stadt","type":"Stadt"},"district":{"key":"05166","name":"Viersen","type":"Kreis"},"federalState":{"key":"05","name":"Nordrhein-Westfalen"}},{"name":"Hagedorn","postalCode":"41334","locality":"Nettetal","municipality":{"key":"05166016","name":"Nettetal, Stadt","type":"Stadt"},"district":{"key":"05166","name":"Viersen","type":"Kreis"},"federalState":{"key":"05","name":"Nordrhein-Westfalen"}},{"name":"Hagelkreuzstr.","postalCode":"41334","locality":"Nettetal","municipality":{"key":"05166016","name":"Nettetal, Stadt","type":"Stadt"},"district":{"key":"05166","name":"Viersen","type":"Kreis"},"federalState":{"key":"05","name":"Nordrhein-Westfalen"}},{"name":"Hampoel","postalCode":"41334","locality":"Nettetal","municipality":{"key":"05166016","name":"Nettetal, Stadt","type":"Stadt"},"district":{"key":"05166","name":"Viersen","type":"Kreis"},"federalState":{"key":"05","name":"Nordrhein-Westfalen"}},{"name":"Hanna-Meuter-Str.","postalCode":"41334","locality":"Nettetal","municipality":{"key":"05166016","name":"Nettetal, Stadt","type":"Stadt"},"district":{"key":"05166","name":"Viersen","type":"Kreis"},"federalState":{"key":"05","name":"Nordrhein-Westfalen"}},{"name":"Hans-Herbert-Rösges-Str.","postalCode":"41334","locality":"Nettetal","municipality":{"key":"05166016","name":"Nettetal, Stadt","type":"Stadt"},"district":{"key":"05166","name":"Viersen","type":"Kreis"},"federalState":{"key":"05","name":"Nordrhein-Westfalen"}},{"name":"Hans-Willi-Güßgen-Platz","postalCode":"41334","locality":"Nettetal","municipality":{"key":"05166016","name":"Nettetal, Stadt","type":"Stadt"},"district":{"key":"05166","name":"Viersen","type":"Kreis"},"federalState":{"key":"05","name":"Nordrhein-Westfalen"}},{"name":"Happelter","postalCode":"41334","locality":"Nettetal","municipality":{"key":"05166016","name":"Nettetal, Stadt","type":"Stadt"},"district":{"key":"05166","name":"Viersen","type":"Kreis"},"federalState":{"key":"05","name":"Nordrhein-Westfalen"}},{"name":"Happelter Str.","postalCode":"41334","locality":"Nettetal","municipality":{"key":"05166016","name":"Nettetal, Stadt","type":"Stadt"},"district":{"key":"05166","name":"Viersen","type":"Kreis"},"federalState":{"key":"05","name":"Nordrhein-Westfalen"}},{"name":"Hastert","postalCode":"41334","locality":"Nettetal","municipality":{"key":"05166016","name":"Nettetal, Stadt","type":"Stadt"},"district":{"key":"05166","name":"Viersen","type":"Kreis"},"federalState":{"key":"05","name":"Nordrhein-Westfalen"}},{"name":"Hauptstr.","postalCode":"41334","locality":"Nettetal","municipality":{"key":"05166016","name":"Nettetal, Stadt","type":"Stadt"},"district":{"key":"05166","name":"Viersen","type":"Kreis"},"federalState":{"key":"05","name":"Nordrhein-Westfalen"}},{"name":"Heerstr.","postalCode":"41334","locality":"Nettetal","municipality":{"key":"05166016","name":"Nettetal, Stadt","type":"Stadt"},"district":{"key":"05166","name":"Viersen","type":"Kreis"},"federalState":{"key":"05","name":"Nordrhein-Westfalen"}},{"name":"Heide","postalCode":"41334","locality":"Nettetal","municipality":{"key":"05166016","name":"Nettetal, Stadt","type":"Stadt"},"district":{"key":"05166","name":"Viersen","type":"Kreis"},"federalState":{"key":"05","name":"Nordrhein-Westfalen"}},{"name":"Heideanger","postalCode":"41334","locality":"Nettetal","municipality":{"key":"05166016","name":"Nettetal, Stadt","type":"Stadt"},"district":{"key":"05166","name":"Viersen","type":"Kreis"},"federalState":{"key":"05","name":"Nordrhein-Westfalen"}},{"name":"Heidenfeldstr.","postalCode":"41334","locality":"Nettetal","municipality":{"key":"05166016","name":"Nettetal, Stadt","type":"Stadt"},"district":{"key":"05166","name":"Viersen","type":"Kreis"},"federalState":{"key":"05","name":"Nordrhein-Westfalen"}},{"name":"Heidstr.","postalCode":"41334","locality":"Nettetal","municipality":{"key":"05166016","name":"Nettetal, Stadt","type":"Stadt"},"district":{"key":"05166","name":"Viersen","type":"Kreis"},"federalState":{"key":"05","name":"Nordrhein-Westfalen"}},{"name":"Heinestr.","postalCode":"41334","locality":"Nettetal","municipality":{"key":"05166016","name":"Nettetal, Stadt","type":"Stadt"},"district":{"key":"05166","name":"Viersen","type":"Kreis"},"federalState":{"key":"05","name":"Nordrhein-Westfalen"}},{"name":"Hein-Nicus-Str.","postalCode":"41334","locality":"Nettetal","municipality":{"key":"05166016","name":"Nettetal, Stadt","type":"Stadt"},"district":{"key":"05166","name":"Viersen","type":"Kreis"},"federalState":{"key":"05","name":"Nordrhein-Westfalen"}},{"name":"Heinrich-Anstoetz-Str.","postalCode":"41334","locality":"Nettetal","municipality":{"key":"05166016","name":"Nettetal, Stadt","type":"Stadt"},"district":{"key":"05166","name":"Viersen","type":"Kreis"},"federalState":{"key":"05","name":"Nordrhein-Westfalen"}},{"name":"Heinrich-Haanen-Str.","postalCode":"41334","locality":"Nettetal","municipality":{"key":"05166016","name":"Nettetal, Stadt","type":"Stadt"},"district":{"key":"05166","name":"Viersen","type":"Kreis"},"federalState":{"key":"05","name":"Nordrhein-Westfalen"}},{"name":"Heinrich-Houben-Str.","postalCode":"41334","locality":"Nettetal","municipality":{"key":"05166016","name":"Nettetal, Stadt","type":"Stadt"},"district":{"key":"05166","name":"Viersen","type":"Kreis"},"federalState":{"key":"05","name":"Nordrhein-Westfalen"}},{"name":"Heinrich-Kessels-Str.","postalCode":"41334","locality":"Nettetal","municipality":{"key":"05166016","name":"Nettetal, Stadt","type":"Stadt"},"district":{"key":"05166","name":"Viersen","type":"Kreis"},"federalState":{"key":"05","name":"Nordrhein-Westfalen"}},{"name":"Hendrik-Goltzius-Weg","postalCode":"41334","locality":"Nettetal","municipality":{"key":"05166016","name":"Nettetal, Stadt","type":"Stadt"},"district":{"key":"05166","name":"Viersen","type":"Kreis"},"federalState":{"key":"05","name":"Nordrhein-Westfalen"}},{"name":"Henri-Dunant-Str.","postalCode":"41334","locality":"Nettetal","municipality":{"key":"05166016","name":"Nettetal, Stadt","type":"Stadt"},"district":{"key":"05166","name":"Viersen","type":"Kreis"},"federalState":{"key":"05","name":"Nordrhein-Westfalen"}},{"name":"Hermann-Lueb-Str.","postalCode":"41334","locality":"Nettetal","municipality":{"key":"05166016","name":"Nettetal, Stadt","type":"Stadt"},"district":{"key":"05166","name":"Viersen","type":"Kreis"},"federalState":{"key":"05","name":"Nordrhein-Westfalen"}},{"name":"Heronger Str.","postalCode":"41334","locality":"Nettetal","municipality":{"key":"05166016","name":"Nettetal, Stadt","type":"Stadt"},"district":{"key":"05166","name":"Viersen","type":"Kreis"},"federalState":{"key":"05","name":"Nordrhein-Westfalen"}},{"name":"Herrenpfad","postalCode":"41334","locality":"Nettetal","municipality":{"key":"05166016","name":"Nettetal, Stadt","type":"Stadt"},"district":{"key":"05166","name":"Viersen","type":"Kreis"},"federalState":{"key":"05","name":"Nordrhein-Westfalen"}},{"name":"Herrenpfad-Süd","postalCode":"41334","locality":"Nettetal","municipality":{"key":"05166016","name":"Nettetal, Stadt","type":"Stadt"},"district":{"key":"05166","name":"Viersen","type":"Kreis"},"federalState":{"key":"05","name":"Nordrhein-Westfalen"}},{"name":"Hillenweg","postalCode":"41334","locality":"Nettetal","municipality":{"key":"05166016","name":"Nettetal, Stadt","type":"Stadt"},"district":{"key":"05166","name":"Viersen","type":"Kreis"},"federalState":{"key":"05","name":"Nordrhein-Westfalen"}},{"name":"Hinsbecker Str.","postalCode":"41334","locality":"Nettetal","municipality":{"key":"05166016","name":"Nettetal, Stadt","type":"Stadt"},"district":{"key":"05166","name":"Viersen","type":"Kreis"},"federalState":{"key":"05","name":"Nordrhein-Westfalen"}},{"name":"Hochstr.","postalCode":"41334","locality":"Nettetal","municipality":{"key":"05166016","name":"Nettetal, Stadt","type":"Stadt"},"district":{"key":"05166","name":"Viersen","type":"Kreis"},"federalState":{"key":"05","name":"Nordrhein-Westfalen"}},{"name":"Hockstr.","postalCode":"41334","locality":"Nettetal","municipality":{"key":"05166016","name":"Nettetal, Stadt","type":"Stadt"},"district":{"key":"05166","name":"Viersen","type":"Kreis"},"federalState":{"key":"05","name":"Nordrhein-Westfalen"}},{"name":"Hohe Driesch","postalCode":"41334","locality":"Nettetal","municipality":{"key":"05166016","name":"Nettetal, Stadt","type":"Stadt"},"district":{"key":"05166","name":"Viersen","type":"Kreis"},"federalState":{"key":"05","name":"Nordrhein-Westfalen"}},{"name":"Höhenweg","postalCode":"41334","locality":"Nettetal","municipality":{"key":"05166016","name":"Nettetal, Stadt","type":"Stadt"},"district":{"key":"05166","name":"Viersen","type":"Kreis"},"federalState":{"key":"05","name":"Nordrhein-Westfalen"}},{"name":"Hohlweg","postalCode":"41334","locality":"Nettetal","municipality":{"key":"05166016","name":"Nettetal, Stadt","type":"Stadt"},"district":{"key":"05166","name":"Viersen","type":"Kreis"},"federalState":{"key":"05","name":"Nordrhein-Westfalen"}},{"name":"Hölderlinstr.","postalCode":"41334","locality":"Nettetal","municipality":{"key":"05166016","name":"Nettetal, Stadt","type":"Stadt"},"district":{"key":"05166","name":"Viersen","type":"Kreis"},"federalState":{"key":"05","name":"Nordrhein-Westfalen"}},{"name":"Hombergen","postalCode":"41334","locality":"Nettetal","municipality":{"key":"05166016","name":"Nettetal, Stadt","type":"Stadt"},"district":{"key":"05166","name":"Viersen","type":"Kreis"},"federalState":{"key":"05","name":"Nordrhein-Westfalen"}},{"name":"Hoverkampstr.","postalCode":"41334","locality":"Nettetal","municipality":{"key":"05166016","name":"Nettetal, Stadt","type":"Stadt"},"district":{"key":"05166","name":"Viersen","type":"Kreis"},"federalState":{"key":"05","name":"Nordrhein-Westfalen"}},{"name":"Hubertusplatz","postalCode":"41334","locality":"Nettetal","municipality":{"key":"05166016","name":"Nettetal, Stadt","type":"Stadt"},"district":{"key":"05166","name":"Viersen","type":"Kreis"},"federalState":{"key":"05","name":"Nordrhein-Westfalen"}},{"name":"Hubertusstr.","postalCode":"41334","locality":"Nettetal","municipality":{"key":"05166016","name":"Nettetal, Stadt","type":"Stadt"},"district":{"key":"05166","name":"Viersen","type":"Kreis"},"federalState":{"key":"05","name":"Nordrhein-Westfalen"}},{"name":"Hühr","postalCode":"41334","locality":"Nettetal","municipality":{"key":"05166016","name":"Nettetal, Stadt","type":"Stadt"},"district":{"key":"05166","name":"Viersen","type":"Kreis"},"federalState":{"key":"05","name":"Nordrhein-Westfalen"}},{"name":"Hülst","postalCode":"41334","locality":"Nettetal","municipality":{"key":"05166016","name":"Nettetal, Stadt","type":"Stadt"},"district":{"key":"05166","name":"Viersen","type":"Kreis"},"federalState":{"key":"05","name":"Nordrhein-Westfalen"}},{"name":"Im Dahl","postalCode":"41334","locality":"Nettetal","municipality":{"key":"05166016","name":"Nettetal, Stadt","type":"Stadt"},"district":{"key":"05166","name":"Viersen","type":"Kreis"},"federalState":{"key":"05","name":"Nordrhein-Westfalen"}},{"name":"Im Dorffeld","postalCode":"41334","locality":"Nettetal","municipality":{"key":"05166016","name":"Nettetal, Stadt","type":"Stadt"},"district":{"key":"05166","name":"Viersen","type":"Kreis"},"federalState":{"key":"05","name":"Nordrhein-Westfalen"}},{"name":"Im Ferkensbruch","postalCode":"41334","locality":"Nettetal","municipality":{"key":"05166016","name":"Nettetal, Stadt","type":"Stadt"},"district":{"key":"05166","name":"Viersen","type":"Kreis"},"federalState":{"key":"05","name":"Nordrhein-Westfalen"}},{"name":"Im Hoverbruch","postalCode":"41334","locality":"Nettetal","municipality":{"key":"05166016","name":"Nettetal, Stadt","type":"Stadt"},"district":{"key":"05166","name":"Viersen","type":"Kreis"},"federalState":{"key":"05","name":"Nordrhein-Westfalen"}},{"name":"Im Krokusfeld","postalCode":"41334","locality":"Nettetal","municipality":{"key":"05166016","name":"Nettetal, Stadt","type":"Stadt"},"district":{"key":"05166","name":"Viersen","type":"Kreis"},"federalState":{"key":"05","name":"Nordrhein-Westfalen"}},{"name":"Im Loewinkel","postalCode":"41334","locality":"Nettetal","municipality":{"key":"05166016","name":"Nettetal, Stadt","type":"Stadt"},"district":{"key":"05166","name":"Viersen","type":"Kreis"},"federalState":{"key":"05","name":"Nordrhein-Westfalen"}},{"name":"Im Sandfeld","postalCode":"41334","locality":"Nettetal","municipality":{"key":"05166016","name":"Nettetal, Stadt","type":"Stadt"},"district":{"key":"05166","name":"Viersen","type":"Kreis"},"federalState":{"key":"05","name":"Nordrhein-Westfalen"}},{"name":"Im Voswinkel","postalCode":"41334","locality":"Nettetal","municipality":{"key":"05166016","name":"Nettetal, Stadt","type":"Stadt"},"district":{"key":"05166","name":"Viersen","type":"Kreis"},"federalState":{"key":"05","name":"Nordrhein-Westfalen"}},{"name":"Im Weberfeld","postalCode":"41334","locality":"Nettetal","municipality":{"key":"05166016","name":"Nettetal, Stadt","type":"Stadt"},"district":{"key":"05166","name":"Viersen","type":"Kreis"},"federalState":{"key":"05","name":"Nordrhein-Westfalen"}},{"name":"Im Weiherfeld","postalCode":"41334","locality":"Nettetal","municipality":{"key":"05166016","name":"Nettetal, Stadt","type":"Stadt"},"district":{"key":"05166","name":"Viersen","type":"Kreis"},"federalState":{"key":"05","name":"Nordrhein-Westfalen"}},{"name":"Im Windfang","postalCode":"41334","locality":"Nettetal","municipality":{"key":"05166016","name":"Nettetal, Stadt","type":"Stadt"},"district":{"key":"05166","name":"Viersen","type":"Kreis"},"federalState":{"key":"05","name":"Nordrhein-Westfalen"}},{"name":"Im Winkel","postalCode":"41334","locality":"Nettetal","municipality":{"key":"05166016","name":"Nettetal, Stadt","type":"Stadt"},"district":{"key":"05166","name":"Viersen","type":"Kreis"},"federalState":{"key":"05","name":"Nordrhein-Westfalen"}},{"name":"In der Feriat","postalCode":"41334","locality":"Nettetal","municipality":{"key":"05166016","name":"Nettetal, Stadt","type":"Stadt"},"district":{"key":"05166","name":"Viersen","type":"Kreis"},"federalState":{"key":"05","name":"Nordrhein-Westfalen"}},{"name":"In der Loeheide","postalCode":"41334","locality":"Nettetal","municipality":{"key":"05166016","name":"Nettetal, Stadt","type":"Stadt"},"district":{"key":"05166","name":"Viersen","type":"Kreis"},"federalState":{"key":"05","name":"Nordrhein-Westfalen"}},{"name":"In der Schrapheide","postalCode":"41334","locality":"Nettetal","municipality":{"key":"05166016","name":"Nettetal, Stadt","type":"Stadt"},"district":{"key":"05166","name":"Viersen","type":"Kreis"},"federalState":{"key":"05","name":"Nordrhein-Westfalen"}},{"name":"Industriestr.","postalCode":"41334","locality":"Nettetal","municipality":{"key":"05166016","name":"Nettetal, Stadt","type":"Stadt"},"district":{"key":"05166","name":"Viersen","type":"Kreis"},"federalState":{"key":"05","name":"Nordrhein-Westfalen"}},{"name":"Ingenhovenweg","postalCode":"41334","locality":"Nettetal","municipality":{"key":"05166016","name":"Nettetal, Stadt","type":"Stadt"},"district":{"key":"05166","name":"Viersen","type":"Kreis"},"federalState":{"key":"05","name":"Nordrhein-Westfalen"}},{"name":"Jahnstr.","postalCode":"41334","locality":"Nettetal","municipality":{"key":"05166016","name":"Nettetal, Stadt","type":"Stadt"},"district":{"key":"05166","name":"Viersen","type":"Kreis"},"federalState":{"key":"05","name":"Nordrhein-Westfalen"}},{"name":"Jahrtausendplatz","postalCode":"41334","locality":"Nettetal","municipality":{"key":"05166016","name":"Nettetal, Stadt","type":"Stadt"},"district":{"key":"05166","name":"Viersen","type":"Kreis"},"federalState":{"key":"05","name":"Nordrhein-Westfalen"}},{"name":"Jan-Van-Nooy-Str.","postalCode":"41334","locality":"Nettetal","municipality":{"key":"05166016","name":"Nettetal, Stadt","type":"Stadt"},"district":{"key":"05166","name":"Viersen","type":"Kreis"},"federalState":{"key":"05","name":"Nordrhein-Westfalen"}},{"name":"Joe-Alex-Str.","postalCode":"41334","locality":"Nettetal","municipality":{"key":"05166016","name":"Nettetal, Stadt","type":"Stadt"},"district":{"key":"05166","name":"Viersen","type":"Kreis"},"federalState":{"key":"05","name":"Nordrhein-Westfalen"}},{"name":"Johannes-Cleven-Str.","postalCode":"41334","locality":"Nettetal","municipality":{"key":"05166016","name":"Nettetal, Stadt","type":"Stadt"},"district":{"key":"05166","name":"Viersen","type":"Kreis"},"federalState":{"key":"05","name":"Nordrhein-Westfalen"}},{"name":"Johannesfeld","postalCode":"41334","locality":"Nettetal","municipality":{"key":"05166016","name":"Nettetal, Stadt","type":"Stadt"},"district":{"key":"05166","name":"Viersen","type":"Kreis"},"federalState":{"key":"05","name":"Nordrhein-Westfalen"}},{"name":"Johannes-Hessen-Str.","postalCode":"41334","locality":"Nettetal","municipality":{"key":"05166016","name":"Nettetal, Stadt","type":"Stadt"},"district":{"key":"05166","name":"Viersen","type":"Kreis"},"federalState":{"key":"05","name":"Nordrhein-Westfalen"}},{"name":"Johannesstr.","postalCode":"41334","locality":"Nettetal","municipality":{"key":"05166016","name":"Nettetal, Stadt","type":"Stadt"},"district":{"key":"05166","name":"Viersen","type":"Kreis"},"federalState":{"key":"05","name":"Nordrhein-Westfalen"}},{"name":"Johannes-Torka-Str.","postalCode":"41334","locality":"Nettetal","municipality":{"key":"05166016","name":"Nettetal, Stadt","type":"Stadt"},"district":{"key":"05166","name":"Viersen","type":"Kreis"},"federalState":{"key":"05","name":"Nordrhein-Westfalen"}},{"name":"Johann-Finken-Str.","postalCode":"41334","locality":"Nettetal","municipality":{"key":"05166016","name":"Nettetal, Stadt","type":"Stadt"},"district":{"key":"05166","name":"Viersen","type":"Kreis"},"federalState":{"key":"05","name":"Nordrhein-Westfalen"}},{"name":"Johann-Melchior-Str.","postalCode":"41334","locality":"Nettetal","municipality":{"key":"05166016","name":"Nettetal, Stadt","type":"Stadt"},"district":{"key":"05166","name":"Viersen","type":"Kreis"},"federalState":{"key":"05","name":"Nordrhein-Westfalen"}},{"name":"Johann-Peters-Str.","postalCode":"41334","locality":"Nettetal","municipality":{"key":"05166016","name":"Nettetal, Stadt","type":"Stadt"},"district":{"key":"05166","name":"Viersen","type":"Kreis"},"federalState":{"key":"05","name":"Nordrhein-Westfalen"}},{"name":"Johann-Sticker-Str.","postalCode":"41334","locality":"Nettetal","municipality":{"key":"05166016","name":"Nettetal, Stadt","type":"Stadt"},"district":{"key":"05166","name":"Viersen","type":"Kreis"},"federalState":{"key":"05","name":"Nordrhein-Westfalen"}},{"name":"Joh.-Peter-Knippen-Str.","postalCode":"41334","locality":"Nettetal","municipality":{"key":"05166016","name":"Nettetal, Stadt","type":"Stadt"},"district":{"key":"05166","name":"Viersen","type":"Kreis"},"federalState":{"key":"05","name":"Nordrhein-Westfalen"}},{"name":"Josef-Hoffmans-Str.","postalCode":"41334","locality":"Nettetal","municipality":{"key":"05166016","name":"Nettetal, Stadt","type":"Stadt"},"district":{"key":"05166","name":"Viersen","type":"Kreis"},"federalState":{"key":"05","name":"Nordrhein-Westfalen"}},{"name":"Josefstr.","postalCode":"41334","locality":"Nettetal","municipality":{"key":"05166016","name":"Nettetal, Stadt","type":"Stadt"},"district":{"key":"05166","name":"Viersen","type":"Kreis"},"federalState":{"key":"05","name":"Nordrhein-Westfalen"}},{"name":"Joseph-Veith-Str.","postalCode":"41334","locality":"Nettetal","municipality":{"key":"05166016","name":"Nettetal, Stadt","type":"Stadt"},"district":{"key":"05166","name":"Viersen","type":"Kreis"},"federalState":{"key":"05","name":"Nordrhein-Westfalen"}},{"name":"Juiser Feld","postalCode":"41334","locality":"Nettetal","municipality":{"key":"05166016","name":"Nettetal, Stadt","type":"Stadt"},"district":{"key":"05166","name":"Viersen","type":"Kreis"},"federalState":{"key":"05","name":"Nordrhein-Westfalen"}},{"name":"Jülicher Weg","postalCode":"41334","locality":"Nettetal","municipality":{"key":"05166016","name":"Nettetal, Stadt","type":"Stadt"},"district":{"key":"05166","name":"Viersen","type":"Kreis"},"federalState":{"key":"05","name":"Nordrhein-Westfalen"}},{"name":"Jupp-Busch-Str.","postalCode":"41334","locality":"Nettetal","municipality":{"key":"05166016","name":"Nettetal, Stadt","type":"Stadt"},"district":{"key":"05166","name":"Viersen","type":"Kreis"},"federalState":{"key":"05","name":"Nordrhein-Westfalen"}},{"name":"Jupp-Rübsam-Str.","postalCode":"41334","locality":"Nettetal","municipality":{"key":"05166016","name":"Nettetal, Stadt","type":"Stadt"},"district":{"key":"05166","name":"Viersen","type":"Kreis"},"federalState":{"key":"05","name":"Nordrhein-Westfalen"}},{"name":"Kaldenkerkergrensweg","postalCode":"41334","locality":"Nettetal","municipality":{"key":"05166016","name":"Nettetal, Stadt","type":"Stadt"},"district":{"key":"05166","name":"Viersen","type":"Kreis"},"federalState":{"key":"05","name":"Nordrhein-Westfalen"}},{"name":"Kaldenkirchener Str.","postalCode":"41334","locality":"Nettetal","municipality":{"key":"05166016","name":"Nettetal, Stadt","type":"Stadt"},"district":{"key":"05166","name":"Viersen","type":"Kreis"},"federalState":{"key":"05","name":"Nordrhein-Westfalen"}},{"name":"Kampstr.","postalCode":"41334","locality":"Nettetal","municipality":{"key":"05166016","name":"Nettetal, Stadt","type":"Stadt"},"district":{"key":"05166","name":"Viersen","type":"Kreis"},"federalState":{"key":"05","name":"Nordrhein-Westfalen"}},{"name":"Kanalstr.","postalCode":"41334","locality":"Nettetal","municipality":{"key":"05166016","name":"Nettetal, Stadt","type":"Stadt"},"district":{"key":"05166","name":"Viersen","type":"Kreis"},"federalState":{"key":"05","name":"Nordrhein-Westfalen"}},{"name":"Karl-Egmond-Str.","postalCode":"41334","locality":"Nettetal","municipality":{"key":"05166016","name":"Nettetal, Stadt","type":"Stadt"},"district":{"key":"05166","name":"Viersen","type":"Kreis"},"federalState":{"key":"05","name":"Nordrhein-Westfalen"}},{"name":"Karl-Reulen-Str.","postalCode":"41334","locality":"Nettetal","municipality":{"key":"05166016","name":"Nettetal, Stadt","type":"Stadt"},"district":{"key":"05166","name":"Viersen","type":"Kreis"},"federalState":{"key":"05","name":"Nordrhein-Westfalen"}},{"name":"Karlstr.","postalCode":"41334","locality":"Nettetal","municipality":{"key":"05166016","name":"Nettetal, Stadt","type":"Stadt"},"district":{"key":"05166","name":"Viersen","type":"Kreis"},"federalState":{"key":"05","name":"Nordrhein-Westfalen"}},{"name":"Karpfenweg","postalCode":"41334","locality":"Nettetal","municipality":{"key":"05166016","name":"Nettetal, Stadt","type":"Stadt"},"district":{"key":"05166","name":"Viersen","type":"Kreis"},"federalState":{"key":"05","name":"Nordrhein-Westfalen"}},{"name":"Kehrstr.","postalCode":"41334","locality":"Nettetal","municipality":{"key":"05166016","name":"Nettetal, Stadt","type":"Stadt"},"district":{"key":"05166","name":"Viersen","type":"Kreis"},"federalState":{"key":"05","name":"Nordrhein-Westfalen"}},{"name":"Kempener Str.","postalCode":"41334","locality":"Nettetal","municipality":{"key":"05166016","name":"Nettetal, Stadt","type":"Stadt"},"district":{"key":"05166","name":"Viersen","type":"Kreis"},"federalState":{"key":"05","name":"Nordrhein-Westfalen"}},{"name":"Kettelerstr.","postalCode":"41334","locality":"Nettetal","municipality":{"key":"05166016","name":"Nettetal, Stadt","type":"Stadt"},"district":{"key":"05166","name":"Viersen","type":"Kreis"},"federalState":{"key":"05","name":"Nordrhein-Westfalen"}},{"name":"Kiefernforst","postalCode":"41334","locality":"Nettetal","municipality":{"key":"05166016","name":"Nettetal, Stadt","type":"Stadt"},"district":{"key":"05166","name":"Viersen","type":"Kreis"},"federalState":{"key":"05","name":"Nordrhein-Westfalen"}},{"name":"Kindt","postalCode":"41334","locality":"Nettetal","municipality":{"key":"05166016","name":"Nettetal, Stadt","type":"Stadt"},"district":{"key":"05166","name":"Viersen","type":"Kreis"},"federalState":{"key":"05","name":"Nordrhein-Westfalen"}},{"name":"Kindter Str.","postalCode":"41334","locality":"Nettetal","municipality":{"key":"05166016","name":"Nettetal, Stadt","type":"Stadt"},"district":{"key":"05166","name":"Viersen","type":"Kreis"},"federalState":{"key":"05","name":"Nordrhein-Westfalen"}},{"name":"Kirchstr.","postalCode":"41334","locality":"Nettetal","municipality":{"key":"05166016","name":"Nettetal, Stadt","type":"Stadt"},"district":{"key":"05166","name":"Viersen","type":"Kreis"},"federalState":{"key":"05","name":"Nordrhein-Westfalen"}},{"name":"Kirchweg","postalCode":"41334","locality":"Nettetal","municipality":{"key":"05166016","name":"Nettetal, Stadt","type":"Stadt"},"district":{"key":"05166","name":"Viersen","type":"Kreis"},"federalState":{"key":"05","name":"Nordrhein-Westfalen"}},{"name":"Klemensstr.","postalCode":"41334","locality":"Nettetal","municipality":{"key":"05166016","name":"Nettetal, Stadt","type":"Stadt"},"district":{"key":"05166","name":"Viersen","type":"Kreis"},"federalState":{"key":"05","name":"Nordrhein-Westfalen"}},{"name":"Klostergasse","postalCode":"41334","locality":"Nettetal","municipality":{"key":"05166016","name":"Nettetal, Stadt","type":"Stadt"},"district":{"key":"05166","name":"Viersen","type":"Kreis"},"federalState":{"key":"05","name":"Nordrhein-Westfalen"}},{"name":"Knochenpark","postalCode":"41334","locality":"Nettetal","municipality":{"key":"05166016","name":"Nettetal, Stadt","type":"Stadt"},"district":{"key":"05166","name":"Viersen","type":"Kreis"},"federalState":{"key":"05","name":"Nordrhein-Westfalen"}},{"name":"Knorrstr.","postalCode":"41334","locality":"Nettetal","municipality":{"key":"05166016","name":"Nettetal, Stadt","type":"Stadt"},"district":{"key":"05166","name":"Viersen","type":"Kreis"},"federalState":{"key":"05","name":"Nordrhein-Westfalen"}},{"name":"Kölner Str.","postalCode":"41334","locality":"Nettetal","municipality":{"key":"05166016","name":"Nettetal, Stadt","type":"Stadt"},"district":{"key":"05166","name":"Viersen","type":"Kreis"},"federalState":{"key":"05","name":"Nordrhein-Westfalen"}},{"name":"Kölsumer Weg","postalCode":"41334","locality":"Nettetal","municipality":{"key":"05166016","name":"Nettetal, Stadt","type":"Stadt"},"district":{"key":"05166","name":"Viersen","type":"Kreis"},"federalState":{"key":"05","name":"Nordrhein-Westfalen"}},{"name":"Königsberger Str.","postalCode":"41334","locality":"Nettetal","municipality":{"key":"05166016","name":"Nettetal, Stadt","type":"Stadt"},"district":{"key":"05166","name":"Viersen","type":"Kreis"},"federalState":{"key":"05","name":"Nordrhein-Westfalen"}},{"name":"Königspfad","postalCode":"41334","locality":"Nettetal","municipality":{"key":"05166016","name":"Nettetal, Stadt","type":"Stadt"},"district":{"key":"05166","name":"Viersen","type":"Kreis"},"federalState":{"key":"05","name":"Nordrhein-Westfalen"}},{"name":"Kopernikusstr.","postalCode":"41334","locality":"Nettetal","municipality":{"key":"05166016","name":"Nettetal, Stadt","type":"Stadt"},"district":{"key":"05166","name":"Viersen","type":"Kreis"},"federalState":{"key":"05","name":"Nordrhein-Westfalen"}},{"name":"Kornblumenweg","postalCode":"41334","locality":"Nettetal","municipality":{"key":"05166016","name":"Nettetal, Stadt","type":"Stadt"},"district":{"key":"05166","name":"Viersen","type":"Kreis"},"federalState":{"key":"05","name":"Nordrhein-Westfalen"}},{"name":"Krämerstr.","postalCode":"41334","locality":"Nettetal","municipality":{"key":"05166016","name":"Nettetal, Stadt","type":"Stadt"},"district":{"key":"05166","name":"Viersen","type":"Kreis"},"federalState":{"key":"05","name":"Nordrhein-Westfalen"}},{"name":"Kreuzgartenweg","postalCode":"41334","locality":"Nettetal","municipality":{"key":"05166016","name":"Nettetal, Stadt","type":"Stadt"},"district":{"key":"05166","name":"Viersen","type":"Kreis"},"federalState":{"key":"05","name":"Nordrhein-Westfalen"}},{"name":"Kreuzmönchstr.","postalCode":"41334","locality":"Nettetal","municipality":{"key":"05166016","name":"Nettetal, Stadt","type":"Stadt"},"district":{"key":"05166","name":"Viersen","type":"Kreis"},"federalState":{"key":"05","name":"Nordrhein-Westfalen"}},{"name":"Kreuzstr.","postalCode":"41334","locality":"Nettetal","municipality":{"key":"05166016","name":"Nettetal, Stadt","type":"Stadt"},"district":{"key":"05166","name":"Viersen","type":"Kreis"},"federalState":{"key":"05","name":"Nordrhein-Westfalen"}},{"name":"Krickenbecker Allee","postalCode":"41334","locality":"Nettetal","municipality":{"key":"05166016","name":"Nettetal, Stadt","type":"Stadt"},"district":{"key":"05166","name":"Viersen","type":"Kreis"},"federalState":{"key":"05","name":"Nordrhein-Westfalen"}},{"name":"Krüchtens Str.","postalCode":"41334","locality":"Nettetal","municipality":{"key":"05166016","name":"Nettetal, Stadt","type":"Stadt"},"district":{"key":"05166","name":"Viersen","type":"Kreis"},"federalState":{"key":"05","name":"Nordrhein-Westfalen"}},{"name":"Krugerpfad","postalCode":"41334","locality":"Nettetal","municipality":{"key":"05166016","name":"Nettetal, Stadt","type":"Stadt"},"district":{"key":"05166","name":"Viersen","type":"Kreis"},"federalState":{"key":"05","name":"Nordrhein-Westfalen"}},{"name":"Krüßhütt","postalCode":"41334","locality":"Nettetal","municipality":{"key":"05166016","name":"Nettetal, Stadt","type":"Stadt"},"district":{"key":"05166","name":"Viersen","type":"Kreis"},"federalState":{"key":"05","name":"Nordrhein-Westfalen"}},{"name":"Kurze Str.","postalCode":"41334","locality":"Nettetal","municipality":{"key":"05166016","name":"Nettetal, Stadt","type":"Stadt"},"district":{"key":"05166","name":"Viersen","type":"Kreis"},"federalState":{"key":"05","name":"Nordrhein-Westfalen"}},{"name":"Lambertimarkt","postalCode":"41334","locality":"Nettetal","municipality":{"key":"05166016","name":"Nettetal, Stadt","type":"Stadt"},"district":{"key":"05166","name":"Viersen","type":"Kreis"},"federalState":{"key":"05","name":"Nordrhein-Westfalen"}},{"name":"Lambert-Maaßen-Str.","postalCode":"41334","locality":"Nettetal","municipality":{"key":"05166016","name":"Nettetal, Stadt","type":"Stadt"},"district":{"key":"05166","name":"Viersen","type":"Kreis"},"federalState":{"key":"05","name":"Nordrhein-Westfalen"}},{"name":"Landrat-Mülleneisen-Str.","postalCode":"41334","locality":"Nettetal","municipality":{"key":"05166016","name":"Nettetal, Stadt","type":"Stadt"},"district":{"key":"05166","name":"Viersen","type":"Kreis"},"federalState":{"key":"05","name":"Nordrhein-Westfalen"}},{"name":"Landstr.","postalCode":"41334","locality":"Nettetal","municipality":{"key":"05166016","name":"Nettetal, Stadt","type":"Stadt"},"district":{"key":"05166","name":"Viersen","type":"Kreis"},"federalState":{"key":"05","name":"Nordrhein-Westfalen"}},{"name":"Langwasserstr.","postalCode":"41334","locality":"Nettetal","municipality":{"key":"05166016","name":"Nettetal, Stadt","type":"Stadt"},"district":{"key":"05166","name":"Viersen","type":"Kreis"},"federalState":{"key":"05","name":"Nordrhein-Westfalen"}},{"name":"Lärchenweg","postalCode":"41334","locality":"Nettetal","municipality":{"key":"05166016","name":"Nettetal, Stadt","type":"Stadt"},"district":{"key":"05166","name":"Viersen","type":"Kreis"},"federalState":{"key":"05","name":"Nordrhein-Westfalen"}},{"name":"Lenzweg","postalCode":"41334","locality":"Nettetal","municipality":{"key":"05166016","name":"Nettetal, Stadt","type":"Stadt"},"district":{"key":"05166","name":"Viersen","type":"Kreis"},"federalState":{"key":"05","name":"Nordrhein-Westfalen"}},{"name":"Leo-Bontenackels-Str.","postalCode":"41334","locality":"Nettetal","municipality":{"key":"05166016","name":"Nettetal, Stadt","type":"Stadt"},"district":{"key":"05166","name":"Viersen","type":"Kreis"},"federalState":{"key":"05","name":"Nordrhein-Westfalen"}},{"name":"Leopold-Henrichs-Str.","postalCode":"41334","locality":"Nettetal","municipality":{"key":"05166016","name":"Nettetal, Stadt","type":"Stadt"},"district":{"key":"05166","name":"Viersen","type":"Kreis"},"federalState":{"key":"05","name":"Nordrhein-Westfalen"}},{"name":"Lessingstr.","postalCode":"41334","locality":"Nettetal","municipality":{"key":"05166016","name":"Nettetal, Stadt","type":"Stadt"},"district":{"key":"05166","name":"Viersen","type":"Kreis"},"federalState":{"key":"05","name":"Nordrhein-Westfalen"}},{"name":"Leutherheide","postalCode":"41334","locality":"Nettetal","municipality":{"key":"05166016","name":"Nettetal, Stadt","type":"Stadt"},"district":{"key":"05166","name":"Viersen","type":"Kreis"},"federalState":{"key":"05","name":"Nordrhein-Westfalen"}},{"name":"Leuther Str.","postalCode":"41334","locality":"Nettetal","municipality":{"key":"05166016","name":"Nettetal, Stadt","type":"Stadt"},"district":{"key":"05166","name":"Viersen","type":"Kreis"},"federalState":{"key":"05","name":"Nordrhein-Westfalen"}},{"name":"Lilienweg","postalCode":"41334","locality":"Nettetal","municipality":{"key":"05166016","name":"Nettetal, Stadt","type":"Stadt"},"district":{"key":"05166","name":"Viersen","type":"Kreis"},"federalState":{"key":"05","name":"Nordrhein-Westfalen"}},{"name":"Lindenallee","postalCode":"41334","locality":"Nettetal","municipality":{"key":"05166016","name":"Nettetal, Stadt","type":"Stadt"},"district":{"key":"05166","name":"Viersen","type":"Kreis"},"federalState":{"key":"05","name":"Nordrhein-Westfalen"}},{"name":"Lindenstr.","postalCode":"41334","locality":"Nettetal","municipality":{"key":"05166016","name":"Nettetal, Stadt","type":"Stadt"},"district":{"key":"05166","name":"Viersen","type":"Kreis"},"federalState":{"key":"05","name":"Nordrhein-Westfalen"}},{"name":"Lobbericher Str.","postalCode":"41334","locality":"Nettetal","municipality":{"key":"05166016","name":"Nettetal, Stadt","type":"Stadt"},"district":{"key":"05166","name":"Viersen","type":"Kreis"},"federalState":{"key":"05","name":"Nordrhein-Westfalen"}},{"name":"Locht","postalCode":"41334","locality":"Nettetal","municipality":{"key":"05166016","name":"Nettetal, Stadt","type":"Stadt"},"district":{"key":"05166","name":"Viersen","type":"Kreis"},"federalState":{"key":"05","name":"Nordrhein-Westfalen"}},{"name":"Loirfeld","postalCode":"41334","locality":"Nettetal","municipality":{"key":"05166016","name":"Nettetal, Stadt","type":"Stadt"},"district":{"key":"05166","name":"Viersen","type":"Kreis"},"federalState":{"key":"05","name":"Nordrhein-Westfalen"}},{"name":"Lomstr.","postalCode":"41334","locality":"Nettetal","municipality":{"key":"05166016","name":"Nettetal, Stadt","type":"Stadt"},"district":{"key":"05166","name":"Viersen","type":"Kreis"},"federalState":{"key":"05","name":"Nordrhein-Westfalen"}},{"name":"Lötsch","postalCode":"41334","locality":"Nettetal","municipality":{"key":"05166016","name":"Nettetal, Stadt","type":"Stadt"},"district":{"key":"05166","name":"Viersen","type":"Kreis"},"federalState":{"key":"05","name":"Nordrhein-Westfalen"}},{"name":"Lötscher Weg","postalCode":"41334","locality":"Nettetal","municipality":{"key":"05166016","name":"Nettetal, Stadt","type":"Stadt"},"district":{"key":"05166","name":"Viersen","type":"Kreis"},"federalState":{"key":"05","name":"Nordrhein-Westfalen"}},{"name":"Lotzstr.","postalCode":"41334","locality":"Nettetal","municipality":{"key":"05166016","name":"Nettetal, Stadt","type":"Stadt"},"district":{"key":"05166","name":"Viersen","type":"Kreis"},"federalState":{"key":"05","name":"Nordrhein-Westfalen"}},{"name":"Luethenmühlenweg","postalCode":"41334","locality":"Nettetal","municipality":{"key":"05166016","name":"Nettetal, Stadt","type":"Stadt"},"district":{"key":"05166","name":"Viersen","type":"Kreis"},"federalState":{"key":"05","name":"Nordrhein-Westfalen"}},{"name":"Marienstr.","postalCode":"41334","locality":"Nettetal","municipality":{"key":"05166016","name":"Nettetal, Stadt","type":"Stadt"},"district":{"key":"05166","name":"Viersen","type":"Kreis"},"federalState":{"key":"05","name":"Nordrhein-Westfalen"}},{"name":"Markt","postalCode":"41334","locality":"Nettetal","municipality":{"key":"05166016","name":"Nettetal, Stadt","type":"Stadt"},"district":{"key":"05166","name":"Viersen","type":"Kreis"},"federalState":{"key":"05","name":"Nordrhein-Westfalen"}},{"name":"Marktplatz","postalCode":"41334","locality":"Nettetal","municipality":{"key":"05166016","name":"Nettetal, Stadt","type":"Stadt"},"district":{"key":"05166","name":"Viersen","type":"Kreis"},"federalState":{"key":"05","name":"Nordrhein-Westfalen"}},{"name":"Marktstr.","postalCode":"41334","locality":"Nettetal","municipality":{"key":"05166016","name":"Nettetal, Stadt","type":"Stadt"},"district":{"key":"05166","name":"Viersen","type":"Kreis"},"federalState":{"key":"05","name":"Nordrhein-Westfalen"}},{"name":"May","postalCode":"41334","locality":"Nettetal","municipality":{"key":"05166016","name":"Nettetal, Stadt","type":"Stadt"},"district":{"key":"05166","name":"Viersen","type":"Kreis"},"federalState":{"key":"05","name":"Nordrhein-Westfalen"}},{"name":"Metgesheide","postalCode":"41334","locality":"Nettetal","municipality":{"key":"05166016","name":"Nettetal, Stadt","type":"Stadt"},"district":{"key":"05166","name":"Viersen","type":"Kreis"},"federalState":{"key":"05","name":"Nordrhein-Westfalen"}},{"name":"Mittelstr.","postalCode":"41334","locality":"Nettetal","municipality":{"key":"05166016","name":"Nettetal, Stadt","type":"Stadt"},"district":{"key":"05166","name":"Viersen","type":"Kreis"},"federalState":{"key":"05","name":"Nordrhein-Westfalen"}},{"name":"Mommer Str.","postalCode":"41334","locality":"Nettetal","municipality":{"key":"05166016","name":"Nettetal, Stadt","type":"Stadt"},"district":{"key":"05166","name":"Viersen","type":"Kreis"},"federalState":{"key":"05","name":"Nordrhein-Westfalen"}},{"name":"Montel-Allee","postalCode":"41334","locality":"Nettetal","municipality":{"key":"05166016","name":"Nettetal, Stadt","type":"Stadt"},"district":{"key":"05166","name":"Viersen","type":"Kreis"},"federalState":{"key":"05","name":"Nordrhein-Westfalen"}},{"name":"Möskesweg","postalCode":"41334","locality":"Nettetal","municipality":{"key":"05166016","name":"Nettetal, Stadt","type":"Stadt"},"district":{"key":"05166","name":"Viersen","type":"Kreis"},"federalState":{"key":"05","name":"Nordrhein-Westfalen"}},{"name":"Moubisstr.","postalCode":"41334","locality":"Nettetal","municipality":{"key":"05166016","name":"Nettetal, Stadt","type":"Stadt"},"district":{"key":"05166","name":"Viersen","type":"Kreis"},"federalState":{"key":"05","name":"Nordrhein-Westfalen"}},{"name":"Mühlenbachweg","postalCode":"41334","locality":"Nettetal","municipality":{"key":"05166016","name":"Nettetal, Stadt","type":"Stadt"},"district":{"key":"05166","name":"Viersen","type":"Kreis"},"federalState":{"key":"05","name":"Nordrhein-Westfalen"}},{"name":"Mühlenstr.","postalCode":"41334","locality":"Nettetal","municipality":{"key":"05166016","name":"Nettetal, Stadt","type":"Stadt"},"district":{"key":"05166","name":"Viersen","type":"Kreis"},"federalState":{"key":"05","name":"Nordrhein-Westfalen"}},{"name":"Mußkamp","postalCode":"41334","locality":"Nettetal","municipality":{"key":"05166016","name":"Nettetal, Stadt","type":"Stadt"},"district":{"key":"05166","name":"Viersen","type":"Kreis"},"federalState":{"key":"05","name":"Nordrhein-Westfalen"}},{"name":"Nachtigallenweg","postalCode":"41334","locality":"Nettetal","municipality":{"key":"05166016","name":"Nettetal, Stadt","type":"Stadt"},"district":{"key":"05166","name":"Viersen","type":"Kreis"},"federalState":{"key":"05","name":"Nordrhein-Westfalen"}},{"name":"Natt","postalCode":"41334","locality":"Nettetal","municipality":{"key":"05166016","name":"Nettetal, Stadt","type":"Stadt"},"district":{"key":"05166","name":"Viersen","type":"Kreis"},"federalState":{"key":"05","name":"Nordrhein-Westfalen"}},{"name":"Nelkenweg","postalCode":"41334","locality":"Nettetal","municipality":{"key":"05166016","name":"Nettetal, Stadt","type":"Stadt"},"district":{"key":"05166","name":"Viersen","type":"Kreis"},"federalState":{"key":"05","name":"Nordrhein-Westfalen"}},{"name":"Nell-Breuning-Str.","postalCode":"41334","locality":"Nettetal","municipality":{"key":"05166016","name":"Nettetal, Stadt","type":"Stadt"},"district":{"key":"05166","name":"Viersen","type":"Kreis"},"federalState":{"key":"05","name":"Nordrhein-Westfalen"}},{"name":"Nettbrucher Weg","postalCode":"41334","locality":"Nettetal","municipality":{"key":"05166016","name":"Nettetal, Stadt","type":"Stadt"},"district":{"key":"05166","name":"Viersen","type":"Kreis"},"federalState":{"key":"05","name":"Nordrhein-Westfalen"}},{"name":"Neuenweg","postalCode":"41334","locality":"Nettetal","municipality":{"key":"05166016","name":"Nettetal, Stadt","type":"Stadt"},"district":{"key":"05166","name":"Viersen","type":"Kreis"},"federalState":{"key":"05","name":"Nordrhein-Westfalen"}},{"name":"Neustr.","postalCode":"41334","locality":"Nettetal","municipality":{"key":"05166016","name":"Nettetal, Stadt","type":"Stadt"},"district":{"key":"05166","name":"Viersen","type":"Kreis"},"federalState":{"key":"05","name":"Nordrhein-Westfalen"}},{"name":"Niedieck-Park","postalCode":"41334","locality":"Nettetal","municipality":{"key":"05166016","name":"Nettetal, Stadt","type":"Stadt"},"district":{"key":"05166","name":"Viersen","type":"Kreis"},"federalState":{"key":"05","name":"Nordrhein-Westfalen"}},{"name":"Niedieckstr.","postalCode":"41334","locality":"Nettetal","municipality":{"key":"05166016","name":"Nettetal, Stadt","type":"Stadt"},"district":{"key":"05166","name":"Viersen","type":"Kreis"},"federalState":{"key":"05","name":"Nordrhein-Westfalen"}},{"name":"Nikolaus-Ehlen-Str.","postalCode":"41334","locality":"Nettetal","municipality":{"key":"05166016","name":"Nettetal, Stadt","type":"Stadt"},"district":{"key":"05166","name":"Viersen","type":"Kreis"},"federalState":{"key":"05","name":"Nordrhein-Westfalen"}},{"name":"Nordhoffstr.","postalCode":"41334","locality":"Nettetal","municipality":{"key":"05166016","name":"Nettetal, Stadt","type":"Stadt"},"district":{"key":"05166","name":"Viersen","type":"Kreis"},"federalState":{"key":"05","name":"Nordrhein-Westfalen"}},{"name":"Nordstr.","postalCode":"41334","locality":"Nettetal","municipality":{"key":"05166016","name":"Nettetal, Stadt","type":"Stadt"},"district":{"key":"05166","name":"Viersen","type":"Kreis"},"federalState":{"key":"05","name":"Nordrhein-Westfalen"}},{"name":"Obere Landstr.","postalCode":"41334","locality":"Nettetal","municipality":{"key":"05166016","name":"Nettetal, Stadt","type":"Stadt"},"district":{"key":"05166","name":"Viersen","type":"Kreis"},"federalState":{"key":"05","name":"Nordrhein-Westfalen"}},{"name":"Oberonnert","postalCode":"41334","locality":"Nettetal","municipality":{"key":"05166016","name":"Nettetal, Stadt","type":"Stadt"},"district":{"key":"05166","name":"Viersen","type":"Kreis"},"federalState":{"key":"05","name":"Nordrhein-Westfalen"}},{"name":"Oberstr.","postalCode":"41334","locality":"Nettetal","municipality":{"key":"05166016","name":"Nettetal, Stadt","type":"Stadt"},"district":{"key":"05166","name":"Viersen","type":"Kreis"},"federalState":{"key":"05","name":"Nordrhein-Westfalen"}},{"name":"Ochsenpfuhl","postalCode":"41334","locality":"Nettetal","municipality":{"key":"05166016","name":"Nettetal, Stadt","type":"Stadt"},"district":{"key":"05166","name":"Viersen","type":"Kreis"},"federalState":{"key":"05","name":"Nordrhein-Westfalen"}},{"name":"Oirlich","postalCode":"41334","locality":"Nettetal","municipality":{"key":"05166016","name":"Nettetal, Stadt","type":"Stadt"},"district":{"key":"05166","name":"Viersen","type":"Kreis"},"federalState":{"key":"05","name":"Nordrhein-Westfalen"}},{"name":"Oirlicher Str.","postalCode":"41334","locality":"Nettetal","municipality":{"key":"05166016","name":"Nettetal, Stadt","type":"Stadt"},"district":{"key":"05166","name":"Viersen","type":"Kreis"},"federalState":{"key":"05","name":"Nordrhein-Westfalen"}},{"name":"Onnert","postalCode":"41334","locality":"Nettetal","municipality":{"key":"05166016","name":"Nettetal, Stadt","type":"Stadt"},"district":{"key":"05166","name":"Viersen","type":"Kreis"},"federalState":{"key":"05","name":"Nordrhein-Westfalen"}},{"name":"Ostdeutscher Weg","postalCode":"41334","locality":"Nettetal","municipality":{"key":"05166016","name":"Nettetal, Stadt","type":"Stadt"},"district":{"key":"05166","name":"Viersen","type":"Kreis"},"federalState":{"key":"05","name":"Nordrhein-Westfalen"}},{"name":"Overbeckstr.","postalCode":"41334","locality":"Nettetal","municipality":{"key":"05166016","name":"Nettetal, Stadt","type":"Stadt"},"district":{"key":"05166","name":"Viersen","type":"Kreis"},"federalState":{"key":"05","name":"Nordrhein-Westfalen"}},{"name":"Panoramaweg","postalCode":"41334","locality":"Nettetal","municipality":{"key":"05166016","name":"Nettetal, Stadt","type":"Stadt"},"district":{"key":"05166","name":"Viersen","type":"Kreis"},"federalState":{"key":"05","name":"Nordrhein-Westfalen"}},{"name":"Parkstr.","postalCode":"41334","locality":"Nettetal","municipality":{"key":"05166016","name":"Nettetal, Stadt","type":"Stadt"},"district":{"key":"05166","name":"Viersen","type":"Kreis"},"federalState":{"key":"05","name":"Nordrhein-Westfalen"}},{"name":"Pasch","postalCode":"41334","locality":"Nettetal","municipality":{"key":"05166016","name":"Nettetal, Stadt","type":"Stadt"},"district":{"key":"05166","name":"Viersen","type":"Kreis"},"federalState":{"key":"05","name":"Nordrhein-Westfalen"}},{"name":"Pastor-Schmidt-Str.","postalCode":"41334","locality":"Nettetal","municipality":{"key":"05166016","name":"Nettetal, Stadt","type":"Stadt"},"district":{"key":"05166","name":"Viersen","type":"Kreis"},"federalState":{"key":"05","name":"Nordrhein-Westfalen"}},{"name":"Paul-Breuer-Str.","postalCode":"41334","locality":"Nettetal","municipality":{"key":"05166016","name":"Nettetal, Stadt","type":"Stadt"},"district":{"key":"05166","name":"Viersen","type":"Kreis"},"federalState":{"key":"05","name":"Nordrhein-Westfalen"}},{"name":"Paul-Schrievers-Str.","postalCode":"41334","locality":"Nettetal","municipality":{"key":"05166016","name":"Nettetal, Stadt","type":"Stadt"},"district":{"key":"05166","name":"Viersen","type":"Kreis"},"federalState":{"key":"05","name":"Nordrhein-Westfalen"}},{"name":"Paul-Therstappen-Str.","postalCode":"41334","locality":"Nettetal","municipality":{"key":"05166016","name":"Nettetal, Stadt","type":"Stadt"},"district":{"key":"05166","name":"Viersen","type":"Kreis"},"federalState":{"key":"05","name":"Nordrhein-Westfalen"}},{"name":"Peter-Berten-Str.","postalCode":"41334","locality":"Nettetal","municipality":{"key":"05166016","name":"Nettetal, Stadt","type":"Stadt"},"district":{"key":"05166","name":"Viersen","type":"Kreis"},"federalState":{"key":"05","name":"Nordrhein-Westfalen"}},{"name":"Petershof","postalCode":"41334","locality":"Nettetal","municipality":{"key":"05166016","name":"Nettetal, Stadt","type":"Stadt"},"district":{"key":"05166","name":"Viersen","type":"Kreis"},"federalState":{"key":"05","name":"Nordrhein-Westfalen"}},{"name":"Pieper","postalCode":"41334","locality":"Nettetal","municipality":{"key":"05166016","name":"Nettetal, Stadt","type":"Stadt"},"district":{"key":"05166","name":"Viersen","type":"Kreis"},"federalState":{"key":"05","name":"Nordrhein-Westfalen"}},{"name":"Plankenheide","postalCode":"41334","locality":"Nettetal","municipality":{"key":"05166016","name":"Nettetal, Stadt","type":"Stadt"},"district":{"key":"05166","name":"Viersen","type":"Kreis"},"federalState":{"key":"05","name":"Nordrhein-Westfalen"}},{"name":"Poelvenn","postalCode":"41334","locality":"Nettetal","municipality":{"key":"05166016","name":"Nettetal, Stadt","type":"Stadt"},"district":{"key":"05166","name":"Viersen","type":"Kreis"},"federalState":{"key":"05","name":"Nordrhein-Westfalen"}},{"name":"Poensgenstr.","postalCode":"41334","locality":"Nettetal","municipality":{"key":"05166016","name":"Nettetal, Stadt","type":"Stadt"},"district":{"key":"05166","name":"Viersen","type":"Kreis"},"federalState":{"key":"05","name":"Nordrhein-Westfalen"}},{"name":"Poststr.","postalCode":"41334","locality":"Nettetal","municipality":{"key":"05166016","name":"Nettetal, Stadt","type":"Stadt"},"district":{"key":"05166","name":"Viersen","type":"Kreis"},"federalState":{"key":"05","name":"Nordrhein-Westfalen"}},{"name":"Quirinusstr.","postalCode":"41749","locality":"Viersen","municipality":{"key":"05166032","name":"Viersen, Stadt","type":"Stadt"},"district":{"key":"05166","name":"Viersen","type":"Kreis"},"federalState":{"key":"05","name":"Nordrhein-Westfalen"}},{"name":"Rahe","postalCode":"41334","locality":"Nettetal","municipality":{"key":"05166016","name":"Nettetal, Stadt","type":"Stadt"},"district":{"key":"05166","name":"Viersen","type":"Kreis"},"federalState":{"key":"05","name":"Nordrhein-Westfalen"}},{"name":"Ravensstr.","postalCode":"41334","locality":"Nettetal","municipality":{"key":"05166016","name":"Nettetal, Stadt","type":"Stadt"},"district":{"key":"05166","name":"Viersen","type":"Kreis"},"federalState":{"key":"05","name":"Nordrhein-Westfalen"}},{"name":"Reiherstr.","postalCode":"41334","locality":"Nettetal","municipality":{"key":"05166016","name":"Nettetal, Stadt","type":"Stadt"},"district":{"key":"05166","name":"Viersen","type":"Kreis"},"federalState":{"key":"05","name":"Nordrhein-Westfalen"}},{"name":"Reinersstr.","postalCode":"41334","locality":"Nettetal","municipality":{"key":"05166016","name":"Nettetal, Stadt","type":"Stadt"},"district":{"key":"05166","name":"Viersen","type":"Kreis"},"federalState":{"key":"05","name":"Nordrhein-Westfalen"}},{"name":"Reinhard-Boetzkes-Str.","postalCode":"41334","locality":"Nettetal","municipality":{"key":"05166016","name":"Nettetal, Stadt","type":"Stadt"},"district":{"key":"05166","name":"Viersen","type":"Kreis"},"federalState":{"key":"05","name":"Nordrhein-Westfalen"}},{"name":"Rektor-Bongartz-Weg","postalCode":"41334","locality":"Nettetal","municipality":{"key":"05166016","name":"Nettetal, Stadt","type":"Stadt"},"district":{"key":"05166","name":"Viersen","type":"Kreis"},"federalState":{"key":"05","name":"Nordrhein-Westfalen"}},{"name":"Rektor-Budde-Str.","postalCode":"41334","locality":"Nettetal","municipality":{"key":"05166016","name":"Nettetal, Stadt","type":"Stadt"},"district":{"key":"05166","name":"Viersen","type":"Kreis"},"federalState":{"key":"05","name":"Nordrhein-Westfalen"}},{"name":"Rennekoven","postalCode":"41334","locality":"Nettetal","municipality":{"key":"05166016","name":"Nettetal, Stadt","type":"Stadt"},"district":{"key":"05166","name":"Viersen","type":"Kreis"},"federalState":{"key":"05","name":"Nordrhein-Westfalen"}},{"name":"Rieth","postalCode":"41334","locality":"Nettetal","municipality":{"key":"05166016","name":"Nettetal, Stadt","type":"Stadt"},"district":{"key":"05166","name":"Viersen","type":"Kreis"},"federalState":{"key":"05","name":"Nordrhein-Westfalen"}},{"name":"Riether Str.","postalCode":"41334","locality":"Nettetal","municipality":{"key":"05166016","name":"Nettetal, Stadt","type":"Stadt"},"district":{"key":"05166","name":"Viersen","type":"Kreis"},"federalState":{"key":"05","name":"Nordrhein-Westfalen"}},{"name":"Ringstr.","postalCode":"41334","locality":"Nettetal","municipality":{"key":"05166016","name":"Nettetal, Stadt","type":"Stadt"},"district":{"key":"05166","name":"Viersen","type":"Kreis"},"federalState":{"key":"05","name":"Nordrhein-Westfalen"}},{"name":"Ritzbruch","postalCode":"41334","locality":"Nettetal","municipality":{"key":"05166016","name":"Nettetal, Stadt","type":"Stadt"},"district":{"key":"05166","name":"Viersen","type":"Kreis"},"federalState":{"key":"05","name":"Nordrhein-Westfalen"}},{"name":"Ritzbrucher Weg","postalCode":"41334","locality":"Nettetal","municipality":{"key":"05166016","name":"Nettetal, Stadt","type":"Stadt"},"district":{"key":"05166","name":"Viersen","type":"Kreis"},"federalState":{"key":"05","name":"Nordrhein-Westfalen"}},{"name":"Robert-Kahrmann-Str.","postalCode":"41334","locality":"Nettetal","municipality":{"key":"05166016","name":"Nettetal, Stadt","type":"Stadt"},"district":{"key":"05166","name":"Viersen","type":"Kreis"},"federalState":{"key":"05","name":"Nordrhein-Westfalen"}},{"name":"Romdöppen","postalCode":"41334","locality":"Nettetal","municipality":{"key":"05166016","name":"Nettetal, Stadt","type":"Stadt"},"district":{"key":"05166","name":"Viersen","type":"Kreis"},"federalState":{"key":"05","name":"Nordrhein-Westfalen"}},{"name":"Rosenplatz","postalCode":"41334","locality":"Nettetal","municipality":{"key":"05166016","name":"Nettetal, Stadt","type":"Stadt"},"district":{"key":"05166","name":"Viersen","type":"Kreis"},"federalState":{"key":"05","name":"Nordrhein-Westfalen"}},{"name":"Rosental","postalCode":"41334","locality":"Nettetal","municipality":{"key":"05166016","name":"Nettetal, Stadt","type":"Stadt"},"district":{"key":"05166","name":"Viersen","type":"Kreis"},"federalState":{"key":"05","name":"Nordrhein-Westfalen"}},{"name":"Rosenweg","postalCode":"41334","locality":"Nettetal","municipality":{"key":"05166016","name":"Nettetal, Stadt","type":"Stadt"},"district":{"key":"05166","name":"Viersen","type":"Kreis"},"federalState":{"key":"05","name":"Nordrhein-Westfalen"}},{"name":"Roxforter Weg","postalCode":"41334","locality":"Nettetal","municipality":{"key":"05166016","name":"Nettetal, Stadt","type":"Stadt"},"district":{"key":"05166","name":"Viersen","type":"Kreis"},"federalState":{"key":"05","name":"Nordrhein-Westfalen"}},{"name":"Samtbandstr.","postalCode":"41334","locality":"Nettetal","municipality":{"key":"05166016","name":"Nettetal, Stadt","type":"Stadt"},"district":{"key":"05166","name":"Viersen","type":"Kreis"},"federalState":{"key":"05","name":"Nordrhein-Westfalen"}},{"name":"Sandfeldstr.","postalCode":"41334","locality":"Nettetal","municipality":{"key":"05166016","name":"Nettetal, Stadt","type":"Stadt"},"district":{"key":"05166","name":"Viersen","type":"Kreis"},"federalState":{"key":"05","name":"Nordrhein-Westfalen"}},{"name":"Sandstr.","postalCode":"41334","locality":"Nettetal","municipality":{"key":"05166016","name":"Nettetal, Stadt","type":"Stadt"},"district":{"key":"05166","name":"Viersen","type":"Kreis"},"federalState":{"key":"05","name":"Nordrhein-Westfalen"}},{"name":"Sassenfeld","postalCode":"41334","locality":"Nettetal","municipality":{"key":"05166016","name":"Nettetal, Stadt","type":"Stadt"},"district":{"key":"05166","name":"Viersen","type":"Kreis"},"federalState":{"key":"05","name":"Nordrhein-Westfalen"}},{"name":"Sassenfelder Kirchweg","postalCode":"41334","locality":"Nettetal","municipality":{"key":"05166016","name":"Nettetal, Stadt","type":"Stadt"},"district":{"key":"05166","name":"Viersen","type":"Kreis"},"federalState":{"key":"05","name":"Nordrhein-Westfalen"}},{"name":"Sassenfelder Str.","postalCode":"41334","locality":"Nettetal","municipality":{"key":"05166016","name":"Nettetal, Stadt","type":"Stadt"},"district":{"key":"05166","name":"Viersen","type":"Kreis"},"federalState":{"key":"05","name":"Nordrhein-Westfalen"}},{"name":"Schafweg","postalCode":"41334","locality":"Nettetal","municipality":{"key":"05166016","name":"Nettetal, Stadt","type":"Stadt"},"district":{"key":"05166","name":"Viersen","type":"Kreis"},"federalState":{"key":"05","name":"Nordrhein-Westfalen"}},{"name":"Schanzheide","postalCode":"41334","locality":"Nettetal","municipality":{"key":"05166016","name":"Nettetal, Stadt","type":"Stadt"},"district":{"key":"05166","name":"Viersen","type":"Kreis"},"federalState":{"key":"05","name":"Nordrhein-Westfalen"}},{"name":"Schellberg","postalCode":"41334","locality":"Nettetal","municipality":{"key":"05166016","name":"Nettetal, Stadt","type":"Stadt"},"district":{"key":"05166","name":"Viersen","type":"Kreis"},"federalState":{"key":"05","name":"Nordrhein-Westfalen"}},{"name":"Schießruthe","postalCode":"41334","locality":"Nettetal","municipality":{"key":"05166016","name":"Nettetal, Stadt","type":"Stadt"},"district":{"key":"05166","name":"Viersen","type":"Kreis"},"federalState":{"key":"05","name":"Nordrhein-Westfalen"}},{"name":"Schillerstr.","postalCode":"41334","locality":"Nettetal","municipality":{"key":"05166016","name":"Nettetal, Stadt","type":"Stadt"},"district":{"key":"05166","name":"Viersen","type":"Kreis"},"federalState":{"key":"05","name":"Nordrhein-Westfalen"}},{"name":"Schindackersweg","postalCode":"41334","locality":"Nettetal","municipality":{"key":"05166016","name":"Nettetal, Stadt","type":"Stadt"},"district":{"key":"05166","name":"Viersen","type":"Kreis"},"federalState":{"key":"05","name":"Nordrhein-Westfalen"}},{"name":"Schlangenweg","postalCode":"41334","locality":"Nettetal","municipality":{"key":"05166016","name":"Nettetal, Stadt","type":"Stadt"},"district":{"key":"05166","name":"Viersen","type":"Kreis"},"federalState":{"key":"05","name":"Nordrhein-Westfalen"}},{"name":"Schlosspark","postalCode":"41334","locality":"Nettetal","municipality":{"key":"05166016","name":"Nettetal, Stadt","type":"Stadt"},"district":{"key":"05166","name":"Viersen","type":"Kreis"},"federalState":{"key":"05","name":"Nordrhein-Westfalen"}},{"name":"Schloßstr.","postalCode":"41334","locality":"Nettetal","municipality":{"key":"05166016","name":"Nettetal, Stadt","type":"Stadt"},"district":{"key":"05166","name":"Viersen","type":"Kreis"},"federalState":{"key":"05","name":"Nordrhein-Westfalen"}},{"name":"Schmaxbruch","postalCode":"41334","locality":"Nettetal","municipality":{"key":"05166016","name":"Nettetal, Stadt","type":"Stadt"},"district":{"key":"05166","name":"Viersen","type":"Kreis"},"federalState":{"key":"05","name":"Nordrhein-Westfalen"}},{"name":"Schopspad","postalCode":"41334","locality":"Nettetal","municipality":{"key":"05166016","name":"Nettetal, Stadt","type":"Stadt"},"district":{"key":"05166","name":"Viersen","type":"Kreis"},"federalState":{"key":"05","name":"Nordrhein-Westfalen"}},{"name":"Schulpfad","postalCode":"41334","locality":"Nettetal","municipality":{"key":"05166016","name":"Nettetal, Stadt","type":"Stadt"},"district":{"key":"05166","name":"Viersen","type":"Kreis"},"federalState":{"key":"05","name":"Nordrhein-Westfalen"}},{"name":"Schulstr.","postalCode":"41334","locality":"Nettetal","municipality":{"key":"05166016","name":"Nettetal, Stadt","type":"Stadt"},"district":{"key":"05166","name":"Viersen","type":"Kreis"},"federalState":{"key":"05","name":"Nordrhein-Westfalen"}},{"name":"Schulzenburgweg","postalCode":"41334","locality":"Nettetal","municipality":{"key":"05166016","name":"Nettetal, Stadt","type":"Stadt"},"district":{"key":"05166","name":"Viersen","type":"Kreis"},"federalState":{"key":"05","name":"Nordrhein-Westfalen"}},{"name":"Schumachersstr.","postalCode":"41334","locality":"Nettetal","municipality":{"key":"05166016","name":"Nettetal, Stadt","type":"Stadt"},"district":{"key":"05166","name":"Viersen","type":"Kreis"},"federalState":{"key":"05","name":"Nordrhein-Westfalen"}},{"name":"Schützenkamp","postalCode":"41334","locality":"Nettetal","municipality":{"key":"05166016","name":"Nettetal, Stadt","type":"Stadt"},"district":{"key":"05166","name":"Viersen","type":"Kreis"},"federalState":{"key":"05","name":"Nordrhein-Westfalen"}},{"name":"Schützenstr.","postalCode":"41334","locality":"Nettetal","municipality":{"key":"05166016","name":"Nettetal, Stadt","type":"Stadt"},"district":{"key":"05166","name":"Viersen","type":"Kreis"},"federalState":{"key":"05","name":"Nordrhein-Westfalen"}},{"name":"Schwanenhaus","postalCode":"41334","locality":"Nettetal","municipality":{"key":"05166016","name":"Nettetal, Stadt","type":"Stadt"},"district":{"key":"05166","name":"Viersen","type":"Kreis"},"federalState":{"key":"05","name":"Nordrhein-Westfalen"}},{"name":"Seerosenstr.","postalCode":"41334","locality":"Nettetal","municipality":{"key":"05166016","name":"Nettetal, Stadt","type":"Stadt"},"district":{"key":"05166","name":"Viersen","type":"Kreis"},"federalState":{"key":"05","name":"Nordrhein-Westfalen"}},{"name":"Severusstr.","postalCode":"41334","locality":"Nettetal","municipality":{"key":"05166016","name":"Nettetal, Stadt","type":"Stadt"},"district":{"key":"05166","name":"Viersen","type":"Kreis"},"federalState":{"key":"05","name":"Nordrhein-Westfalen"}},{"name":"Sittard","postalCode":"41334","locality":"Nettetal","municipality":{"key":"05166016","name":"Nettetal, Stadt","type":"Stadt"},"district":{"key":"05166","name":"Viersen","type":"Kreis"},"federalState":{"key":"05","name":"Nordrhein-Westfalen"}},{"name":"Sonnenblumenweg","postalCode":"41334","locality":"Nettetal","municipality":{"key":"05166016","name":"Nettetal, Stadt","type":"Stadt"},"district":{"key":"05166","name":"Viersen","type":"Kreis"},"federalState":{"key":"05","name":"Nordrhein-Westfalen"}},{"name":"Sonnendyker Weg","postalCode":"41334","locality":"Nettetal","municipality":{"key":"05166016","name":"Nettetal, Stadt","type":"Stadt"},"district":{"key":"05166","name":"Viersen","type":"Kreis"},"federalState":{"key":"05","name":"Nordrhein-Westfalen"}},{"name":"Speck","postalCode":"41334","locality":"Nettetal","municipality":{"key":"05166016","name":"Nettetal, Stadt","type":"Stadt"},"district":{"key":"05166","name":"Viersen","type":"Kreis"},"federalState":{"key":"05","name":"Nordrhein-Westfalen"}},{"name":"Speestr.","postalCode":"41334","locality":"Nettetal","municipality":{"key":"05166016","name":"Nettetal, Stadt","type":"Stadt"},"district":{"key":"05166","name":"Viersen","type":"Kreis"},"federalState":{"key":"05","name":"Nordrhein-Westfalen"}},{"name":"Sperberstr.","postalCode":"41334","locality":"Nettetal","municipality":{"key":"05166016","name":"Nettetal, Stadt","type":"Stadt"},"district":{"key":"05166","name":"Viersen","type":"Kreis"},"federalState":{"key":"05","name":"Nordrhein-Westfalen"}},{"name":"Spitalstr.","postalCode":"41334","locality":"Nettetal","municipality":{"key":"05166016","name":"Nettetal, Stadt","type":"Stadt"},"district":{"key":"05166","name":"Viersen","type":"Kreis"},"federalState":{"key":"05","name":"Nordrhein-Westfalen"}},{"name":"Sprinkelhofer Weg","postalCode":"41334","locality":"Nettetal","municipality":{"key":"05166016","name":"Nettetal, Stadt","type":"Stadt"},"district":{"key":"05166","name":"Viersen","type":"Kreis"},"federalState":{"key":"05","name":"Nordrhein-Westfalen"}},{"name":"Stadionstr.","postalCode":"41334","locality":"Nettetal","municipality":{"key":"05166016","name":"Nettetal, Stadt","type":"Stadt"},"district":{"key":"05166","name":"Viersen","type":"Kreis"},"federalState":{"key":"05","name":"Nordrhein-Westfalen"}},{"name":"St.-Antonius-Str.","postalCode":"41334","locality":"Nettetal","municipality":{"key":"05166016","name":"Nettetal, Stadt","type":"Stadt"},"district":{"key":"05166","name":"Viersen","type":"Kreis"},"federalState":{"key":"05","name":"Nordrhein-Westfalen"}},{"name":"Stappstr.","postalCode":"41334","locality":"Nettetal","municipality":{"key":"05166016","name":"Nettetal, Stadt","type":"Stadt"},"district":{"key":"05166","name":"Viersen","type":"Kreis"},"federalState":{"key":"05","name":"Nordrhein-Westfalen"}},{"name":"Stauffenbergstr.","postalCode":"41334","locality":"Nettetal","municipality":{"key":"05166016","name":"Nettetal, Stadt","type":"Stadt"},"district":{"key":"05166","name":"Viersen","type":"Kreis"},"federalState":{"key":"05","name":"Nordrhein-Westfalen"}},{"name":"Steegerstr.","postalCode":"41334","locality":"Nettetal","municipality":{"key":"05166016","name":"Nettetal, Stadt","type":"Stadt"},"district":{"key":"05166","name":"Viersen","type":"Kreis"},"federalState":{"key":"05","name":"Nordrhein-Westfalen"}},{"name":"Steinkoul","postalCode":"41334","locality":"Nettetal","municipality":{"key":"05166016","name":"Nettetal, Stadt","type":"Stadt"},"district":{"key":"05166","name":"Viersen","type":"Kreis"},"federalState":{"key":"05","name":"Nordrhein-Westfalen"}},{"name":"Steinstr.","postalCode":"41334","locality":"Nettetal","municipality":{"key":"05166016","name":"Nettetal, Stadt","type":"Stadt"},"district":{"key":"05166","name":"Viersen","type":"Kreis"},"federalState":{"key":"05","name":"Nordrhein-Westfalen"}},{"name":"Stettiner Str.","postalCode":"41334","locality":"Nettetal","municipality":{"key":"05166016","name":"Nettetal, Stadt","type":"Stadt"},"district":{"key":"05166","name":"Viersen","type":"Kreis"},"federalState":{"key":"05","name":"Nordrhein-Westfalen"}},{"name":"Steyler Str.","postalCode":"41334","locality":"Nettetal","municipality":{"key":"05166016","name":"Nettetal, Stadt","type":"Stadt"},"district":{"key":"05166","name":"Viersen","type":"Kreis"},"federalState":{"key":"05","name":"Nordrhein-Westfalen"}},{"name":"Strackweg","postalCode":"41334","locality":"Nettetal","municipality":{"key":"05166016","name":"Nettetal, Stadt","type":"Stadt"},"district":{"key":"05166","name":"Viersen","type":"Kreis"},"federalState":{"key":"05","name":"Nordrhein-Westfalen"}},{"name":"Strandweg","postalCode":"41334","locality":"Nettetal","municipality":{"key":"05166016","name":"Nettetal, Stadt","type":"Stadt"},"district":{"key":"05166","name":"Viersen","type":"Kreis"},"federalState":{"key":"05","name":"Nordrhein-Westfalen"}},{"name":"Süchtelner Str.","postalCode":"41334","locality":"Nettetal","municipality":{"key":"05166016","name":"Nettetal, Stadt","type":"Stadt"},"district":{"key":"05166","name":"Viersen","type":"Kreis"},"federalState":{"key":"05","name":"Nordrhein-Westfalen"}},{"name":"Südliche Wambacher Str.","postalCode":"41334","locality":"Nettetal","municipality":{"key":"05166016","name":"Nettetal, Stadt","type":"Stadt"},"district":{"key":"05166","name":"Viersen","type":"Kreis"},"federalState":{"key":"05","name":"Nordrhein-Westfalen"}},{"name":"Synagogenstr.","postalCode":"41334","locality":"Nettetal","municipality":{"key":"05166016","name":"Nettetal, Stadt","type":"Stadt"},"district":{"key":"05166","name":"Viersen","type":"Kreis"},"federalState":{"key":"05","name":"Nordrhein-Westfalen"}},{"name":"Tannenstr.","postalCode":"41334","locality":"Nettetal","municipality":{"key":"05166016","name":"Nettetal, Stadt","type":"Stadt"},"district":{"key":"05166","name":"Viersen","type":"Kreis"},"federalState":{"key":"05","name":"Nordrhein-Westfalen"}},{"name":"Tegelener Weg","postalCode":"41334","locality":"Nettetal","municipality":{"key":"05166016","name":"Nettetal, Stadt","type":"Stadt"},"district":{"key":"05166","name":"Viersen","type":"Kreis"},"federalState":{"key":"05","name":"Nordrhein-Westfalen"}},{"name":"Tellerweg","postalCode":"41334","locality":"Nettetal","municipality":{"key":"05166016","name":"Nettetal, Stadt","type":"Stadt"},"district":{"key":"05166","name":"Viersen","type":"Kreis"},"federalState":{"key":"05","name":"Nordrhein-Westfalen"}},{"name":"Theodor-Haan-Str.","postalCode":"41334","locality":"Nettetal","municipality":{"key":"05166016","name":"Nettetal, Stadt","type":"Stadt"},"district":{"key":"05166","name":"Viersen","type":"Kreis"},"federalState":{"key":"05","name":"Nordrhein-Westfalen"}},{"name":"Tolkemiter Str.","postalCode":"41334","locality":"Nettetal","municipality":{"key":"05166016","name":"Nettetal, Stadt","type":"Stadt"},"district":{"key":"05166","name":"Viersen","type":"Kreis"},"federalState":{"key":"05","name":"Nordrhein-Westfalen"}},{"name":"Tomp","postalCode":"41334","locality":"Nettetal","municipality":{"key":"05166016","name":"Nettetal, Stadt","type":"Stadt"},"district":{"key":"05166","name":"Viersen","type":"Kreis"},"federalState":{"key":"05","name":"Nordrhein-Westfalen"}},{"name":"Trappistenweg","postalCode":"41334","locality":"Nettetal","municipality":{"key":"05166016","name":"Nettetal, Stadt","type":"Stadt"},"district":{"key":"05166","name":"Viersen","type":"Kreis"},"federalState":{"key":"05","name":"Nordrhein-Westfalen"}},{"name":"Uhlandstr.","postalCode":"41334","locality":"Nettetal","municipality":{"key":"05166016","name":"Nettetal, Stadt","type":"Stadt"},"district":{"key":"05166","name":"Viersen","type":"Kreis"},"federalState":{"key":"05","name":"Nordrhein-Westfalen"}},{"name":"Ulmenweg","postalCode":"41334","locality":"Nettetal","municipality":{"key":"05166016","name":"Nettetal, Stadt","type":"Stadt"},"district":{"key":"05166","name":"Viersen","type":"Kreis"},"federalState":{"key":"05","name":"Nordrhein-Westfalen"}},{"name":"Unteronnert","postalCode":"41334","locality":"Nettetal","municipality":{"key":"05166016","name":"Nettetal, Stadt","type":"Stadt"},"district":{"key":"05166","name":"Viersen","type":"Kreis"},"federalState":{"key":"05","name":"Nordrhein-Westfalen"}},{"name":"Van-Alpen-Str.","postalCode":"41334","locality":"Nettetal","municipality":{"key":"05166016","name":"Nettetal, Stadt","type":"Stadt"},"district":{"key":"05166","name":"Viersen","type":"Kreis"},"federalState":{"key":"05","name":"Nordrhein-Westfalen"}},{"name":"Van-der-Upwich-Str.","postalCode":"41334","locality":"Nettetal","municipality":{"key":"05166016","name":"Nettetal, Stadt","type":"Stadt"},"district":{"key":"05166","name":"Viersen","type":"Kreis"},"federalState":{"key":"05","name":"Nordrhein-Westfalen"}},{"name":"Venloer Str.","postalCode":"41334","locality":"Nettetal","municipality":{"key":"05166016","name":"Nettetal, Stadt","type":"Stadt"},"district":{"key":"05166","name":"Viersen","type":"Kreis"},"federalState":{"key":"05","name":"Nordrhein-Westfalen"}},{"name":"Vennstr.","postalCode":"41334","locality":"Nettetal","municipality":{"key":"05166016","name":"Nettetal, Stadt","type":"Stadt"},"district":{"key":"05166","name":"Viersen","type":"Kreis"},"federalState":{"key":"05","name":"Nordrhein-Westfalen"}},{"name":"Verbindungsstr.","postalCode":"41334","locality":"Nettetal","municipality":{"key":"05166016","name":"Nettetal, Stadt","type":"Stadt"},"district":{"key":"05166","name":"Viersen","type":"Kreis"},"federalState":{"key":"05","name":"Nordrhein-Westfalen"}},{"name":"Versteylstr.","postalCode":"41334","locality":"Nettetal","municipality":{"key":"05166016","name":"Nettetal, Stadt","type":"Stadt"},"district":{"key":"05166","name":"Viersen","type":"Kreis"},"federalState":{"key":"05","name":"Nordrhein-Westfalen"}},{"name":"Von-Bocholtz-Str.","postalCode":"41334","locality":"Nettetal","municipality":{"key":"05166016","name":"Nettetal, Stadt","type":"Stadt"},"district":{"key":"05166","name":"Viersen","type":"Kreis"},"federalState":{"key":"05","name":"Nordrhein-Westfalen"}},{"name":"Von-Waldois-Str.","postalCode":"41334","locality":"Nettetal","municipality":{"key":"05166016","name":"Nettetal, Stadt","type":"Stadt"},"district":{"key":"05166","name":"Viersen","type":"Kreis"},"federalState":{"key":"05","name":"Nordrhein-Westfalen"}},{"name":"Vorbruch","postalCode":"41334","locality":"Nettetal","municipality":{"key":"05166016","name":"Nettetal, Stadt","type":"Stadt"},"district":{"key":"05166","name":"Viersen","type":"Kreis"},"federalState":{"key":"05","name":"Nordrhein-Westfalen"}},{"name":"Voursenbeck","postalCode":"41334","locality":"Nettetal","municipality":{"key":"05166016","name":"Nettetal, Stadt","type":"Stadt"},"district":{"key":"05166","name":"Viersen","type":"Kreis"},"federalState":{"key":"05","name":"Nordrhein-Westfalen"}},{"name":"Wallstr.","postalCode":"41334","locality":"Nettetal","municipality":{"key":"05166016","name":"Nettetal, Stadt","type":"Stadt"},"district":{"key":"05166","name":"Viersen","type":"Kreis"},"federalState":{"key":"05","name":"Nordrhein-Westfalen"}},{"name":"Wambacher Str.","postalCode":"41334","locality":"Nettetal","municipality":{"key":"05166016","name":"Nettetal, Stadt","type":"Stadt"},"district":{"key":"05166","name":"Viersen","type":"Kreis"},"federalState":{"key":"05","name":"Nordrhein-Westfalen"}},{"name":"Wankumer Str.","postalCode":"41334","locality":"Nettetal","municipality":{"key":"05166016","name":"Nettetal, Stadt","type":"Stadt"},"district":{"key":"05166","name":"Viersen","type":"Kreis"},"federalState":{"key":"05","name":"Nordrhein-Westfalen"}},{"name":"Wasserstr.","postalCode":"41334","locality":"Nettetal","municipality":{"key":"05166016","name":"Nettetal, Stadt","type":"Stadt"},"district":{"key":"05166","name":"Viersen","type":"Kreis"},"federalState":{"key":"05","name":"Nordrhein-Westfalen"}},{"name":"Weberstr.","postalCode":"41334","locality":"Nettetal","municipality":{"key":"05166016","name":"Nettetal, Stadt","type":"Stadt"},"district":{"key":"05166","name":"Viersen","type":"Kreis"},"federalState":{"key":"05","name":"Nordrhein-Westfalen"}},{"name":"Weidenweg","postalCode":"41334","locality":"Nettetal","municipality":{"key":"05166016","name":"Nettetal, Stadt","type":"Stadt"},"district":{"key":"05166","name":"Viersen","type":"Kreis"},"federalState":{"key":"05","name":"Nordrhein-Westfalen"}},{"name":"Weimarer Str.","postalCode":"41334","locality":"Nettetal","municipality":{"key":"05166016","name":"Nettetal, Stadt","type":"Stadt"},"district":{"key":"05166","name":"Viersen","type":"Kreis"},"federalState":{"key":"05","name":"Nordrhein-Westfalen"}},{"name":"Weißdornweg","postalCode":"41334","locality":"Nettetal","municipality":{"key":"05166016","name":"Nettetal, Stadt","type":"Stadt"},"district":{"key":"05166","name":"Viersen","type":"Kreis"},"federalState":{"key":"05","name":"Nordrhein-Westfalen"}},{"name":"Werner-Jaeger-Str.","postalCode":"41334","locality":"Nettetal","municipality":{"key":"05166016","name":"Nettetal, Stadt","type":"Stadt"},"district":{"key":"05166","name":"Viersen","type":"Kreis"},"federalState":{"key":"05","name":"Nordrhein-Westfalen"}},{"name":"Wevelinghoven","postalCode":"41334","locality":"Nettetal","municipality":{"key":"05166016","name":"Nettetal, Stadt","type":"Stadt"},"district":{"key":"05166","name":"Viersen","type":"Kreis"},"federalState":{"key":"05","name":"Nordrhein-Westfalen"}},{"name":"Wevelinghover Str.","postalCode":"41334","locality":"Nettetal","municipality":{"key":"05166016","name":"Nettetal, Stadt","type":"Stadt"},"district":{"key":"05166","name":"Viersen","type":"Kreis"},"federalState":{"key":"05","name":"Nordrhein-Westfalen"}},{"name":"Wiesenstr.","postalCode":"41334","locality":"Nettetal","municipality":{"key":"05166016","name":"Nettetal, Stadt","type":"Stadt"},"district":{"key":"05166","name":"Viersen","type":"Kreis"},"federalState":{"key":"05","name":"Nordrhein-Westfalen"}},{"name":"Wilhelm-Reimes-Str.","postalCode":"41334","locality":"Nettetal","municipality":{"key":"05166016","name":"Nettetal, Stadt","type":"Stadt"},"district":{"key":"05166","name":"Viersen","type":"Kreis"},"federalState":{"key":"05","name":"Nordrhein-Westfalen"}},{"name":"Wilhelmshöhe","postalCode":"41334","locality":"Nettetal","municipality":{"key":"05166016","name":"Nettetal, Stadt","type":"Stadt"},"district":{"key":"05166","name":"Viersen","type":"Kreis"},"federalState":{"key":"05","name":"Nordrhein-Westfalen"}},{"name":"Willi-Küppers-Str.","postalCode":"41334","locality":"Nettetal","municipality":{"key":"05166016","name":"Nettetal, Stadt","type":"Stadt"},"district":{"key":"05166","name":"Viersen","type":"Kreis"},"federalState":{"key":"05","name":"Nordrhein-Westfalen"}},{"name":"Windmühlenweg","postalCode":"41334","locality":"Nettetal","municipality":{"key":"05166016","name":"Nettetal, Stadt","type":"Stadt"},"district":{"key":"05166","name":"Viersen","type":"Kreis"},"federalState":{"key":"05","name":"Nordrhein-Westfalen"}},{"name":"Wingesberg","postalCode":"41334","locality":"Nettetal","municipality":{"key":"05166016","name":"Nettetal, Stadt","type":"Stadt"},"district":{"key":"05166","name":"Viersen","type":"Kreis"},"federalState":{"key":"05","name":"Nordrhein-Westfalen"}},{"name":"Wylreweg","postalCode":"41334","locality":"Nettetal","municipality":{"key":"05166016","name":"Nettetal, Stadt","type":"Stadt"},"district":{"key":"05166","name":"Viersen","type":"Kreis"},"federalState":{"key":"05","name":"Nordrhein-Westfalen"}},{"name":"Xylanderweg","postalCode":"41334","locality":"Nettetal","municipality":{"key":"05166016","name":"Nettetal, Stadt","type":"Stadt"},"district":{"key":"05166","name":"Viersen","type":"Kreis"},"federalState":{"key":"05","name":"Nordrhein-Westfalen"}},{"name":"Zillessen-Allee","postalCode":"41334","locality":"Nettetal","municipality":{"key":"05166016","name":"Nettetal, Stadt","type":"Stadt"},"district":{"key":"05166","name":"Viersen","type":"Kreis"},"federalState":{"key":"05","name":"Nordrhein-Westfalen"}},{"name":"Zum Krang","postalCode":"41334","locality":"Nettetal","municipality":{"key":"05166016","name":"Nettetal, Stadt","type":"Stadt"},"district":{"key":"05166","name":"Viersen","type":"Kreis"},"federalState":{"key":"05","name":"Nordrhein-Westfalen"}},{"name":"Zum Sonnenbach","postalCode":"41334","locality":"Nettetal","municipality":{"key":"05166016","name":"Nettetal, Stadt","type":"Stadt"},"district":{"key":"05166","name":"Viersen","type":"Kreis"},"federalState":{"key":"05","name":"Nordrhein-Westfalen"}},{"name":"Zum Wedemhof","postalCode":"41334","locality":"Nettetal","municipality":{"key":"05166016","name":"Nettetal, Stadt","type":"Stadt"},"district":{"key":"05166","name":"Viersen","type":"Kreis"},"federalState":{"key":"05","name":"Nordrhein-Westfalen"}},{"name":"Zur Lärche","postalCode":"41334","locality":"Nettetal","municipality":{"key":"05166016","name":"Nettetal, Stadt","type":"Stadt"},"district":{"key":"05166","name":"Viersen","type":"Kreis"},"federalState":{"key":"05","name":"Nordrhein-Westfalen"}},{"name":"Zur Nette","postalCode":"41334","locality":"Nettetal","municipality":{"key":"05166016","name":"Nettetal, Stadt","type":"Stadt"},"district":{"key":"05166","name":"Viersen","type":"Kreis"},"federalState":{"key":"05","name":"Nordrhein-Westfalen"}},{"name":"Zur Neumühle","postalCode":"41334","locality":"Nettetal","municipality":{"key":"05166016","name":"Nettetal, Stadt","type":"Stadt"},"district":{"key":"05166","name":"Viersen","type":"Kreis"},"federalState":{"key":"05","name":"Nordrhein-Westfalen"}},{"name":"Äquatorweg","postalCode":"41749","locality":"Viersen","municipality":{"key":"05166032","name":"Viersen, Stadt","type":"Stadt"},"district":{"key":"05166","name":"Viersen","type":"Kreis"},"federalState":{"key":"05","name":"Nordrhein-Westfalen"}},]