[{"name":"Am Sportplatz","postalCode":"67294","locality":"Morschheim","municipality":{"key":"07333047","name":"Morschheim","type":"Kreisangehörige_Gemeinde"},"district":{"key":"07333","name":"Donnersbergkreis","type":"Landkreis"},"federalState":{"key":"07","name":"Rheinland-Pfalz"}},{"name":"Am Steinernen Berg","postalCode":"67294","locality":"Morschheim","municipality":{"key":"07333047","name":"Morschheim","type":"Kreisangehörige_Gemeinde"},"district":{"key":"07333","name":"Donnersbergkreis","type":"Landkreis"},"federalState":{"key":"07","name":"Rheinland-Pfalz"}},{"name":"Borngasse","postalCode":"67294","locality":"Morschheim","municipality":{"key":"07333047","name":"Morschheim","type":"Kreisangehörige_Gemeinde"},"district":{"key":"07333","name":"Donnersbergkreis","type":"Landkreis"},"federalState":{"key":"07","name":"Rheinland-Pfalz"}},{"name":"Brackenhof","postalCode":"67294","locality":"Morschheim","municipality":{"key":"07333047","name":"Morschheim","type":"Kreisangehörige_Gemeinde"},"district":{"key":"07333","name":"Donnersbergkreis","type":"Landkreis"},"federalState":{"key":"07","name":"Rheinland-Pfalz"}},{"name":"Donnersbergstr.","postalCode":"67294","locality":"Morschheim","municipality":{"key":"07333047","name":"Morschheim","type":"Kreisangehörige_Gemeinde"},"district":{"key":"07333","name":"Donnersbergkreis","type":"Landkreis"},"federalState":{"key":"07","name":"Rheinland-Pfalz"}},{"name":"Hintergasse","postalCode":"67294","locality":"Morschheim","municipality":{"key":"07333047","name":"Morschheim","type":"Kreisangehörige_Gemeinde"},"district":{"key":"07333","name":"Donnersbergkreis","type":"Landkreis"},"federalState":{"key":"07","name":"Rheinland-Pfalz"}},{"name":"Hohl","postalCode":"67294","locality":"Morschheim","municipality":{"key":"07333047","name":"Morschheim","type":"Kreisangehörige_Gemeinde"},"district":{"key":"07333","name":"Donnersbergkreis","type":"Landkreis"},"federalState":{"key":"07","name":"Rheinland-Pfalz"}},{"name":"Im Viertelgarten","postalCode":"67294","locality":"Morschheim","municipality":{"key":"07333047","name":"Morschheim","type":"Kreisangehörige_Gemeinde"},"district":{"key":"07333","name":"Donnersbergkreis","type":"Landkreis"},"federalState":{"key":"07","name":"Rheinland-Pfalz"}},{"name":"Im Waschacker","postalCode":"67294","locality":"Morschheim","municipality":{"key":"07333047","name":"Morschheim","type":"Kreisangehörige_Gemeinde"},"district":{"key":"07333","name":"Donnersbergkreis","type":"Landkreis"},"federalState":{"key":"07","name":"Rheinland-Pfalz"}},{"name":"Johannsgasse","postalCode":"67294","locality":"Morschheim","municipality":{"key":"07333047","name":"Morschheim","type":"Kreisangehörige_Gemeinde"},"district":{"key":"07333","name":"Donnersbergkreis","type":"Landkreis"},"federalState":{"key":"07","name":"Rheinland-Pfalz"}},{"name":"Kaiserstr.","postalCode":"67294","locality":"Morschheim","municipality":{"key":"07333047","name":"Morschheim","type":"Kreisangehörige_Gemeinde"},"district":{"key":"07333","name":"Donnersbergkreis","type":"Landkreis"},"federalState":{"key":"07","name":"Rheinland-Pfalz"}},{"name":"Kirchheimbolander Str.","postalCode":"67294","locality":"Morschheim","municipality":{"key":"07333047","name":"Morschheim","type":"Kreisangehörige_Gemeinde"},"district":{"key":"07333","name":"Donnersbergkreis","type":"Landkreis"},"federalState":{"key":"07","name":"Rheinland-Pfalz"}},{"name":"Ritterhof","postalCode":"67294","locality":"Morschheim","municipality":{"key":"07333047","name":"Morschheim","type":"Kreisangehörige_Gemeinde"},"district":{"key":"07333","name":"Donnersbergkreis","type":"Landkreis"},"federalState":{"key":"07","name":"Rheinland-Pfalz"}},{"name":"Schloßhof","postalCode":"67294","locality":"Morschheim","municipality":{"key":"07333047","name":"Morschheim","type":"Kreisangehörige_Gemeinde"},"district":{"key":"07333","name":"Donnersbergkreis","type":"Landkreis"},"federalState":{"key":"07","name":"Rheinland-Pfalz"}},{"name":"Von-Gagern-Str.","postalCode":"67294","locality":"Morschheim","municipality":{"key":"07333047","name":"Morschheim","type":"Kreisangehörige_Gemeinde"},"district":{"key":"07333","name":"Donnersbergkreis","type":"Landkreis"},"federalState":{"key":"07","name":"Rheinland-Pfalz"}},{"name":"Vordergasse","postalCode":"67294","locality":"Morschheim","municipality":{"key":"07333047","name":"Morschheim","type":"Kreisangehörige_Gemeinde"},"district":{"key":"07333","name":"Donnersbergkreis","type":"Landkreis"},"federalState":{"key":"07","name":"Rheinland-Pfalz"}},{"name":"Weed","postalCode":"67294","locality":"Morschheim","municipality":{"key":"07333047","name":"Morschheim","type":"Kreisangehörige_Gemeinde"},"district":{"key":"07333","name":"Donnersbergkreis","type":"Landkreis"},"federalState":{"key":"07","name":"Rheinland-Pfalz"}},{"name":"Zehntengasse","postalCode":"67294","locality":"Morschheim","municipality":{"key":"07333047","name":"Morschheim","type":"Kreisangehörige_Gemeinde"},"district":{"key":"07333","name":"Donnersbergkreis","type":"Landkreis"},"federalState":{"key":"07","name":"Rheinland-Pfalz"}},{"name":"Zum Honig","postalCode":"67294","locality":"Morschheim","municipality":{"key":"07333047","name":"Morschheim","type":"Kreisangehörige_Gemeinde"},"district":{"key":"07333","name":"Donnersbergkreis","type":"Landkreis"},"federalState":{"key":"07","name":"Rheinland-Pfalz"}},]