[{"name":"Braghet Jaat","postalCode":"25938","locality":"Süderende","municipality":{"key":"01054129","name":"Süderende","type":"Kreisangehörige_Gemeinde"},"district":{"key":"01054","name":"Nordfriesland","type":"Kreis"},"federalState":{"key":"01","name":"Schleswig-Holstein"}},{"name":"Bütjthaarep Nuurd","postalCode":"25938","locality":"Süderende","municipality":{"key":"01054129","name":"Süderende","type":"Kreisangehörige_Gemeinde"},"district":{"key":"01054","name":"Nordfriesland","type":"Kreis"},"federalState":{"key":"01","name":"Schleswig-Holstein"}},{"name":"Bütjthaarep Süüd","postalCode":"25938","locality":"Süderende","municipality":{"key":"01054129","name":"Süderende","type":"Kreisangehörige_Gemeinde"},"district":{"key":"01054","name":"Nordfriesland","type":"Kreis"},"federalState":{"key":"01","name":"Schleswig-Holstein"}},{"name":"Feldweg","postalCode":"25938","locality":"Süderende","municipality":{"key":"01054129","name":"Süderende","type":"Kreisangehörige_Gemeinde"},"district":{"key":"01054","name":"Nordfriesland","type":"Kreis"},"federalState":{"key":"01","name":"Schleswig-Holstein"}},{"name":"Heewerkuugswai","postalCode":"25938","locality":"Süderende","municipality":{"key":"01054129","name":"Süderende","type":"Kreisangehörige_Gemeinde"},"district":{"key":"01054","name":"Nordfriesland","type":"Kreis"},"federalState":{"key":"01","name":"Schleswig-Holstein"}},{"name":"Iarken Jaat","postalCode":"25938","locality":"Süderende","municipality":{"key":"01054129","name":"Süderende","type":"Kreisangehörige_Gemeinde"},"district":{"key":"01054","name":"Nordfriesland","type":"Kreis"},"federalState":{"key":"01","name":"Schleswig-Holstein"}},{"name":"Lui Hinnes Jaat","postalCode":"25938","locality":"Süderende","municipality":{"key":"01054129","name":"Süderende","type":"Kreisangehörige_Gemeinde"},"district":{"key":"01054","name":"Nordfriesland","type":"Kreis"},"federalState":{"key":"01","name":"Schleswig-Holstein"}},{"name":"Lunje Kunjes Jaat","postalCode":"25938","locality":"Süderende","municipality":{"key":"01054129","name":"Süderende","type":"Kreisangehörige_Gemeinde"},"district":{"key":"01054","name":"Nordfriesland","type":"Kreis"},"federalState":{"key":"01","name":"Schleswig-Holstein"}},{"name":"Prästers Jaat","postalCode":"25938","locality":"Süderende","municipality":{"key":"01054129","name":"Süderende","type":"Kreisangehörige_Gemeinde"},"district":{"key":"01054","name":"Nordfriesland","type":"Kreis"},"federalState":{"key":"01","name":"Schleswig-Holstein"}},{"name":"Rundföhrstr.","postalCode":"25938","locality":"Süderende","municipality":{"key":"01054129","name":"Süderende","type":"Kreisangehörige_Gemeinde"},"district":{"key":"01054","name":"Nordfriesland","type":"Kreis"},"federalState":{"key":"01","name":"Schleswig-Holstein"}},{"name":"Sarkstig","postalCode":"25938","locality":"Süderende","municipality":{"key":"01054129","name":"Süderende","type":"Kreisangehörige_Gemeinde"},"district":{"key":"01054","name":"Nordfriesland","type":"Kreis"},"federalState":{"key":"01","name":"Schleswig-Holstein"}},{"name":"Scholkwai","postalCode":"25938","locality":"Süderende","municipality":{"key":"01054129","name":"Süderende","type":"Kreisangehörige_Gemeinde"},"district":{"key":"01054","name":"Nordfriesland","type":"Kreis"},"federalState":{"key":"01","name":"Schleswig-Holstein"}},]