[{"name":"1. Siedlungsweg","postalCode":"17335","locality":"Strasburg (Uckermark)","municipality":{"key":"13075130","name":"Strasburg (Uckermark), Stadt","type":"Stadt"},"district":{"key":"13075","name":"Vorpommern-Greifswald","type":"Landkreis"},"federalState":{"key":"13","name":"Mecklenburg-Vorpommern"}},{"name":"2. Siedlungsweg","postalCode":"17335","locality":"Strasburg (Uckermark)","municipality":{"key":"13075130","name":"Strasburg (Uckermark), Stadt","type":"Stadt"},"district":{"key":"13075","name":"Vorpommern-Greifswald","type":"Landkreis"},"federalState":{"key":"13","name":"Mecklenburg-Vorpommern"}},{"name":"3. Siedlungsweg","postalCode":"17335","locality":"Strasburg (Uckermark)","municipality":{"key":"13075130","name":"Strasburg (Uckermark), Stadt","type":"Stadt"},"district":{"key":"13075","name":"Vorpommern-Greifswald","type":"Landkreis"},"federalState":{"key":"13","name":"Mecklenburg-Vorpommern"}},{"name":"Ahornweg","postalCode":"17291","locality":"Uckerfelde","municipality":{"key":"12073578","name":"Uckerfelde","type":"Kreisangehörige_Gemeinde"},"district":{"key":"12073","name":"Uckermark","type":"Landkreis"},"federalState":{"key":"12","name":"Brandenburg"}},{"name":"Am Sportplatz","postalCode":"17291","locality":"Uckerfelde","municipality":{"key":"12073578","name":"Uckerfelde","type":"Kreisangehörige_Gemeinde"},"district":{"key":"12073","name":"Uckermark","type":"Landkreis"},"federalState":{"key":"12","name":"Brandenburg"}},{"name":"Birkenweg","postalCode":"17291","locality":"Uckerfelde","municipality":{"key":"12073578","name":"Uckerfelde","type":"Kreisangehörige_Gemeinde"},"district":{"key":"12073","name":"Uckermark","type":"Landkreis"},"federalState":{"key":"12","name":"Brandenburg"}},{"name":"Blankenburger Str.","postalCode":"17291","locality":"Uckerfelde","municipality":{"key":"12073578","name":"Uckerfelde","type":"Kreisangehörige_Gemeinde"},"district":{"key":"12073","name":"Uckermark","type":"Landkreis"},"federalState":{"key":"12","name":"Brandenburg"}},{"name":"Chausseestr.","postalCode":"17291","locality":"Uckerfelde","municipality":{"key":"12073578","name":"Uckerfelde","type":"Kreisangehörige_Gemeinde"},"district":{"key":"12073","name":"Uckermark","type":"Landkreis"},"federalState":{"key":"12","name":"Brandenburg"}},{"name":"Dammer Weg","postalCode":"17291","locality":"Uckerfelde","municipality":{"key":"12073578","name":"Uckerfelde","type":"Kreisangehörige_Gemeinde"},"district":{"key":"12073","name":"Uckermark","type":"Landkreis"},"federalState":{"key":"12","name":"Brandenburg"}},{"name":"Dorfstr.","postalCode":"17291","locality":"Uckerfelde","municipality":{"key":"12073578","name":"Uckerfelde","type":"Kreisangehörige_Gemeinde"},"district":{"key":"12073","name":"Uckermark","type":"Landkreis"},"federalState":{"key":"12","name":"Brandenburg"}},{"name":"Dreescher Str.","postalCode":"17291","locality":"Uckerfelde","municipality":{"key":"12073578","name":"Uckerfelde","type":"Kreisangehörige_Gemeinde"},"district":{"key":"12073","name":"Uckermark","type":"Landkreis"},"federalState":{"key":"12","name":"Brandenburg"}},{"name":"Ernst-Korff-Str.","postalCode":"17291","locality":"Nordwestuckermark","municipality":{"key":"12073429","name":"Nordwestuckermark","type":"Kreisangehörige_Gemeinde"},"district":{"key":"12073","name":"Uckermark","type":"Landkreis"},"federalState":{"key":"12","name":"Brandenburg"}},{"name":"Ernst-Thälmann-Str.","postalCode":"17291","locality":"Nordwestuckermark","municipality":{"key":"12073429","name":"Nordwestuckermark","type":"Kreisangehörige_Gemeinde"},"district":{"key":"12073","name":"Uckermark","type":"Landkreis"},"federalState":{"key":"12","name":"Brandenburg"}},{"name":"Ernst-Thälmann-Str.","postalCode":"17335","locality":"Strasburg (Uckermark)","municipality":{"key":"13075130","name":"Strasburg (Uckermark), Stadt","type":"Stadt"},"district":{"key":"13075","name":"Vorpommern-Greifswald","type":"Landkreis"},"federalState":{"key":"13","name":"Mecklenburg-Vorpommern"}},{"name":"Fabrikstr.","postalCode":"17335","locality":"Strasburg (Uckermark)","municipality":{"key":"13075130","name":"Strasburg (Uckermark), Stadt","type":"Stadt"},"district":{"key":"13075","name":"Vorpommern-Greifswald","type":"Landkreis"},"federalState":{"key":"13","name":"Mecklenburg-Vorpommern"}},{"name":"Falkenberger Str.","postalCode":"17335","locality":"Strasburg (Uckermark)","municipality":{"key":"13075130","name":"Strasburg (Uckermark), Stadt","type":"Stadt"},"district":{"key":"13075","name":"Vorpommern-Greifswald","type":"Landkreis"},"federalState":{"key":"13","name":"Mecklenburg-Vorpommern"}},{"name":"Feldberger Str.","postalCode":"17291","locality":"Nordwestuckermark","municipality":{"key":"12073429","name":"Nordwestuckermark","type":"Kreisangehörige_Gemeinde"},"district":{"key":"12073","name":"Uckermark","type":"Landkreis"},"federalState":{"key":"12","name":"Brandenburg"}},{"name":"Feldstr.","postalCode":"17335","locality":"Strasburg (Uckermark)","municipality":{"key":"13075130","name":"Strasburg (Uckermark), Stadt","type":"Stadt"},"district":{"key":"13075","name":"Vorpommern-Greifswald","type":"Landkreis"},"federalState":{"key":"13","name":"Mecklenburg-Vorpommern"}},{"name":"Ferdinandshorster Str.","postalCode":"17291","locality":"Nordwestuckermark","municipality":{"key":"12073429","name":"Nordwestuckermark","type":"Kreisangehörige_Gemeinde"},"district":{"key":"12073","name":"Uckermark","type":"Landkreis"},"federalState":{"key":"12","name":"Brandenburg"}},{"name":"Finkenweg","postalCode":"17335","locality":"Strasburg (Uckermark)","municipality":{"key":"13075130","name":"Strasburg (Uckermark), Stadt","type":"Stadt"},"district":{"key":"13075","name":"Vorpommern-Greifswald","type":"Landkreis"},"federalState":{"key":"13","name":"Mecklenburg-Vorpommern"}},{"name":"Fischereiweg","postalCode":"17291","locality":"Nordwestuckermark","municipality":{"key":"12073429","name":"Nordwestuckermark","type":"Kreisangehörige_Gemeinde"},"district":{"key":"12073","name":"Uckermark","type":"Landkreis"},"federalState":{"key":"12","name":"Brandenburg"}},{"name":"Fischershof","postalCode":"17291","locality":"Nordwestuckermark","municipality":{"key":"12073429","name":"Nordwestuckermark","type":"Kreisangehörige_Gemeinde"},"district":{"key":"12073","name":"Uckermark","type":"Landkreis"},"federalState":{"key":"12","name":"Brandenburg"}},{"name":"Friedenshof","postalCode":"17291","locality":"Nordwestuckermark","municipality":{"key":"12073429","name":"Nordwestuckermark","type":"Kreisangehörige_Gemeinde"},"district":{"key":"12073","name":"Uckermark","type":"Landkreis"},"federalState":{"key":"12","name":"Brandenburg"}},{"name":"Friedenstr.","postalCode":"17335","locality":"Strasburg (Uckermark)","municipality":{"key":"13075130","name":"Strasburg (Uckermark), Stadt","type":"Stadt"},"district":{"key":"13075","name":"Vorpommern-Greifswald","type":"Landkreis"},"federalState":{"key":"13","name":"Mecklenburg-Vorpommern"}},{"name":"Friedhofsweg","postalCode":"17291","locality":"Nordwestuckermark","municipality":{"key":"12073429","name":"Nordwestuckermark","type":"Kreisangehörige_Gemeinde"},"district":{"key":"12073","name":"Uckermark","type":"Landkreis"},"federalState":{"key":"12","name":"Brandenburg"}},{"name":"Fürstenauer Str.","postalCode":"17291","locality":"Nordwestuckermark","municipality":{"key":"12073429","name":"Nordwestuckermark","type":"Kreisangehörige_Gemeinde"},"district":{"key":"12073","name":"Uckermark","type":"Landkreis"},"federalState":{"key":"12","name":"Brandenburg"}},{"name":"Fürstenwerder Str.","postalCode":"17291","locality":"Nordwestuckermark","municipality":{"key":"12073429","name":"Nordwestuckermark","type":"Kreisangehörige_Gemeinde"},"district":{"key":"12073","name":"Uckermark","type":"Landkreis"},"federalState":{"key":"12","name":"Brandenburg"}},{"name":"Gramzower Str.","postalCode":"17291","locality":"Uckerfelde","municipality":{"key":"12073578","name":"Uckerfelde","type":"Kreisangehörige_Gemeinde"},"district":{"key":"12073","name":"Uckermark","type":"Landkreis"},"federalState":{"key":"12","name":"Brandenburg"}},{"name":"Gut Bietikow","postalCode":"17291","locality":"Uckerfelde","municipality":{"key":"12073578","name":"Uckerfelde","type":"Kreisangehörige_Gemeinde"},"district":{"key":"12073","name":"Uckermark","type":"Landkreis"},"federalState":{"key":"12","name":"Brandenburg"}},{"name":"Hauptstr.","postalCode":"17291","locality":"Uckerfelde","municipality":{"key":"12073578","name":"Uckerfelde","type":"Kreisangehörige_Gemeinde"},"district":{"key":"12073","name":"Uckermark","type":"Landkreis"},"federalState":{"key":"12","name":"Brandenburg"}},{"name":"Inselweg","postalCode":"17291","locality":"Nordwestuckermark","municipality":{"key":"12073429","name":"Nordwestuckermark","type":"Kreisangehörige_Gemeinde"},"district":{"key":"12073","name":"Uckermark","type":"Landkreis"},"federalState":{"key":"12","name":"Brandenburg"}},{"name":"Jüteritzer Str.","postalCode":"17335","locality":"Strasburg (Uckermark)","municipality":{"key":"13075130","name":"Strasburg (Uckermark), Stadt","type":"Stadt"},"district":{"key":"13075","name":"Vorpommern-Greifswald","type":"Landkreis"},"federalState":{"key":"13","name":"Mecklenburg-Vorpommern"}},{"name":"Kirchstr.","postalCode":"17291","locality":"Uckerfelde","municipality":{"key":"12073578","name":"Uckerfelde","type":"Kreisangehörige_Gemeinde"},"district":{"key":"12073","name":"Uckermark","type":"Landkreis"},"federalState":{"key":"12","name":"Brandenburg"}},{"name":"Kleinow","postalCode":"17291","locality":"Uckerfelde","municipality":{"key":"12073578","name":"Uckerfelde","type":"Kreisangehörige_Gemeinde"},"district":{"key":"12073","name":"Uckermark","type":"Landkreis"},"federalState":{"key":"12","name":"Brandenburg"}},{"name":"Lindenallee","postalCode":"17291","locality":"Uckerfelde","municipality":{"key":"12073578","name":"Uckerfelde","type":"Kreisangehörige_Gemeinde"},"district":{"key":"12073","name":"Uckermark","type":"Landkreis"},"federalState":{"key":"12","name":"Brandenburg"}},{"name":"Lützlower Damm","postalCode":"17291","locality":"Uckerfelde","municipality":{"key":"12073578","name":"Uckerfelde","type":"Kreisangehörige_Gemeinde"},"district":{"key":"12073","name":"Uckermark","type":"Landkreis"},"federalState":{"key":"12","name":"Brandenburg"}},{"name":"Mattheshöh","postalCode":"17291","locality":"Uckerfelde","municipality":{"key":"12073578","name":"Uckerfelde","type":"Kreisangehörige_Gemeinde"},"district":{"key":"12073","name":"Uckermark","type":"Landkreis"},"federalState":{"key":"12","name":"Brandenburg"}},{"name":"Mattheshöher Weg","postalCode":"17291","locality":"Uckerfelde","municipality":{"key":"12073578","name":"Uckerfelde","type":"Kreisangehörige_Gemeinde"},"district":{"key":"12073","name":"Uckermark","type":"Landkreis"},"federalState":{"key":"12","name":"Brandenburg"}},{"name":"Mittelweg","postalCode":"17291","locality":"Uckerfelde","municipality":{"key":"12073578","name":"Uckerfelde","type":"Kreisangehörige_Gemeinde"},"district":{"key":"12073","name":"Uckermark","type":"Landkreis"},"federalState":{"key":"12","name":"Brandenburg"}},{"name":"Neu-Kleinow","postalCode":"17291","locality":"Uckerfelde","municipality":{"key":"12073578","name":"Uckerfelde","type":"Kreisangehörige_Gemeinde"},"district":{"key":"12073","name":"Uckermark","type":"Landkreis"},"federalState":{"key":"12","name":"Brandenburg"}},{"name":"Neu-Kleinower Weg","postalCode":"17291","locality":"Uckerfelde","municipality":{"key":"12073578","name":"Uckerfelde","type":"Kreisangehörige_Gemeinde"},"district":{"key":"12073","name":"Uckermark","type":"Landkreis"},"federalState":{"key":"12","name":"Brandenburg"}},{"name":"Oberdorfstr.","postalCode":"17291","locality":"Uckerfelde","municipality":{"key":"12073578","name":"Uckerfelde","type":"Kreisangehörige_Gemeinde"},"district":{"key":"12073","name":"Uckermark","type":"Landkreis"},"federalState":{"key":"12","name":"Brandenburg"}},{"name":"Pappelweg","postalCode":"17291","locality":"Uckerfelde","municipality":{"key":"12073578","name":"Uckerfelde","type":"Kreisangehörige_Gemeinde"},"district":{"key":"12073","name":"Uckermark","type":"Landkreis"},"federalState":{"key":"12","name":"Brandenburg"}},{"name":"Prenzlauer Str.","postalCode":"17291","locality":"Uckerfelde","municipality":{"key":"12073578","name":"Uckerfelde","type":"Kreisangehörige_Gemeinde"},"district":{"key":"12073","name":"Uckermark","type":"Landkreis"},"federalState":{"key":"12","name":"Brandenburg"}},{"name":"Quillowstr.","postalCode":"17291","locality":"Nordwestuckermark","municipality":{"key":"12073429","name":"Nordwestuckermark","type":"Kreisangehörige_Gemeinde"},"district":{"key":"12073","name":"Uckermark","type":"Landkreis"},"federalState":{"key":"12","name":"Brandenburg"}},{"name":"Ringstr.","postalCode":"17291","locality":"Uckerfelde","municipality":{"key":"12073578","name":"Uckerfelde","type":"Kreisangehörige_Gemeinde"},"district":{"key":"12073","name":"Uckermark","type":"Landkreis"},"federalState":{"key":"12","name":"Brandenburg"}},{"name":"Seelübber Weg","postalCode":"17291","locality":"Uckerfelde","municipality":{"key":"12073578","name":"Uckerfelde","type":"Kreisangehörige_Gemeinde"},"district":{"key":"12073","name":"Uckermark","type":"Landkreis"},"federalState":{"key":"12","name":"Brandenburg"}},{"name":"Seeweg","postalCode":"17291","locality":"Uckerfelde","municipality":{"key":"12073578","name":"Uckerfelde","type":"Kreisangehörige_Gemeinde"},"district":{"key":"12073","name":"Uckermark","type":"Landkreis"},"federalState":{"key":"12","name":"Brandenburg"}},{"name":"Tannenweg","postalCode":"17291","locality":"Nordwestuckermark","municipality":{"key":"12073429","name":"Nordwestuckermark","type":"Kreisangehörige_Gemeinde"},"district":{"key":"12073","name":"Uckermark","type":"Landkreis"},"federalState":{"key":"12","name":"Brandenburg"}},{"name":"Theerbrennerweg","postalCode":"17291","locality":"Nordwestuckermark","municipality":{"key":"12073429","name":"Nordwestuckermark","type":"Kreisangehörige_Gemeinde"},"district":{"key":"12073","name":"Uckermark","type":"Landkreis"},"federalState":{"key":"12","name":"Brandenburg"}},{"name":"Thomas-Müntzer-Str.","postalCode":"17335","locality":"Strasburg (Uckermark)","municipality":{"key":"13075130","name":"Strasburg (Uckermark), Stadt","type":"Stadt"},"district":{"key":"13075","name":"Vorpommern-Greifswald","type":"Landkreis"},"federalState":{"key":"13","name":"Mecklenburg-Vorpommern"}},{"name":"Torfwiesenweg","postalCode":"17291","locality":"Nordwestuckermark","municipality":{"key":"12073429","name":"Nordwestuckermark","type":"Kreisangehörige_Gemeinde"},"district":{"key":"12073","name":"Uckermark","type":"Landkreis"},"federalState":{"key":"12","name":"Brandenburg"}},{"name":"Unterdorfstr.","postalCode":"17291","locality":"Uckerfelde","municipality":{"key":"12073578","name":"Uckerfelde","type":"Kreisangehörige_Gemeinde"},"district":{"key":"12073","name":"Uckermark","type":"Landkreis"},"federalState":{"key":"12","name":"Brandenburg"}},{"name":"Weselitz","postalCode":"17291","locality":"Uckerfelde","municipality":{"key":"12073578","name":"Uckerfelde","type":"Kreisangehörige_Gemeinde"},"district":{"key":"12073","name":"Uckermark","type":"Landkreis"},"federalState":{"key":"12","name":"Brandenburg"}},{"name":"Ziegeleiweg","postalCode":"17291","locality":"Nordwestuckermark","municipality":{"key":"12073429","name":"Nordwestuckermark","type":"Kreisangehörige_Gemeinde"},"district":{"key":"12073","name":"Uckermark","type":"Landkreis"},"federalState":{"key":"12","name":"Brandenburg"}},{"name":"Zimmermannsmühle","postalCode":"17335","locality":"Strasburg (Uckermark)","municipality":{"key":"13075130","name":"Strasburg (Uckermark), Stadt","type":"Stadt"},"district":{"key":"13075","name":"Vorpommern-Greifswald","type":"Landkreis"},"federalState":{"key":"13","name":"Mecklenburg-Vorpommern"}},{"name":"Zimmerstr.","postalCode":"17335","locality":"Strasburg (Uckermark)","municipality":{"key":"13075130","name":"Strasburg (Uckermark), Stadt","type":"Stadt"},"district":{"key":"13075","name":"Vorpommern-Greifswald","type":"Landkreis"},"federalState":{"key":"13","name":"Mecklenburg-Vorpommern"}},{"name":"Zum Königsweg","postalCode":"17291","locality":"Nordwestuckermark","municipality":{"key":"12073429","name":"Nordwestuckermark","type":"Kreisangehörige_Gemeinde"},"district":{"key":"12073","name":"Uckermark","type":"Landkreis"},"federalState":{"key":"12","name":"Brandenburg"}},{"name":"Zum Pappelberg","postalCode":"17291","locality":"Nordwestuckermark","municipality":{"key":"12073429","name":"Nordwestuckermark","type":"Kreisangehörige_Gemeinde"},"district":{"key":"12073","name":"Uckermark","type":"Landkreis"},"federalState":{"key":"12","name":"Brandenburg"}},{"name":"Zum Quillow","postalCode":"17291","locality":"Nordwestuckermark","municipality":{"key":"12073429","name":"Nordwestuckermark","type":"Kreisangehörige_Gemeinde"},"district":{"key":"12073","name":"Uckermark","type":"Landkreis"},"federalState":{"key":"12","name":"Brandenburg"}},{"name":"Zum Röthberg","postalCode":"17291","locality":"Nordwestuckermark","municipality":{"key":"12073429","name":"Nordwestuckermark","type":"Kreisangehörige_Gemeinde"},"district":{"key":"12073","name":"Uckermark","type":"Landkreis"},"federalState":{"key":"12","name":"Brandenburg"}},{"name":"Zum Steinsee","postalCode":"17291","locality":"Nordwestuckermark","municipality":{"key":"12073429","name":"Nordwestuckermark","type":"Kreisangehörige_Gemeinde"},"district":{"key":"12073","name":"Uckermark","type":"Landkreis"},"federalState":{"key":"12","name":"Brandenburg"}},{"name":"Zum Vogelberg","postalCode":"17291","locality":"Nordwestuckermark","municipality":{"key":"12073429","name":"Nordwestuckermark","type":"Kreisangehörige_Gemeinde"},"district":{"key":"12073","name":"Uckermark","type":"Landkreis"},"federalState":{"key":"12","name":"Brandenburg"}},{"name":"Zur Lindenallee","postalCode":"17291","locality":"Nordwestuckermark","municipality":{"key":"12073429","name":"Nordwestuckermark","type":"Kreisangehörige_Gemeinde"},"district":{"key":"12073","name":"Uckermark","type":"Landkreis"},"federalState":{"key":"12","name":"Brandenburg"}},]