[{"name":"Ahornweg","postalCode":"01665","locality":"Klipphausen","municipality":{"key":"14627100","name":"Klipphausen","type":"Kreisangehörige_Gemeinde"},"district":{"key":"14627","name":"Meißen","type":"Landkreis"},"federalState":{"key":"14","name":"Sachsen"}},{"name":"Allee","postalCode":"01665","locality":"Klipphausen","municipality":{"key":"14627100","name":"Klipphausen","type":"Kreisangehörige_Gemeinde"},"district":{"key":"14627","name":"Meißen","type":"Landkreis"},"federalState":{"key":"14","name":"Sachsen"}},{"name":"Alte Dorfstr.","postalCode":"01665","locality":"Klipphausen","municipality":{"key":"14627100","name":"Klipphausen","type":"Kreisangehörige_Gemeinde"},"district":{"key":"14627","name":"Meißen","type":"Landkreis"},"federalState":{"key":"14","name":"Sachsen"}},{"name":"Alte Gärtnerei","postalCode":"01665","locality":"Klipphausen","municipality":{"key":"14627100","name":"Klipphausen","type":"Kreisangehörige_Gemeinde"},"district":{"key":"14627","name":"Meißen","type":"Landkreis"},"federalState":{"key":"14","name":"Sachsen"}},{"name":"Alter Schulweg","postalCode":"01665","locality":"Klipphausen","municipality":{"key":"14627100","name":"Klipphausen","type":"Kreisangehörige_Gemeinde"},"district":{"key":"14627","name":"Meißen","type":"Landkreis"},"federalState":{"key":"14","name":"Sachsen"}},{"name":"Alter Viehweg","postalCode":"01665","locality":"Klipphausen","municipality":{"key":"14627100","name":"Klipphausen","type":"Kreisangehörige_Gemeinde"},"district":{"key":"14627","name":"Meißen","type":"Landkreis"},"federalState":{"key":"14","name":"Sachsen"}},{"name":"Alte Schulstr.","postalCode":"01665","locality":"Klipphausen","municipality":{"key":"14627100","name":"Klipphausen","type":"Kreisangehörige_Gemeinde"},"district":{"key":"14627","name":"Meißen","type":"Landkreis"},"federalState":{"key":"14","name":"Sachsen"}},{"name":"Alte Silberstr.","postalCode":"01665","locality":"Klipphausen","municipality":{"key":"14627100","name":"Klipphausen","type":"Kreisangehörige_Gemeinde"},"district":{"key":"14627","name":"Meißen","type":"Landkreis"},"federalState":{"key":"14","name":"Sachsen"}},{"name":"Altes Rittergut","postalCode":"01665","locality":"Klipphausen","municipality":{"key":"14627100","name":"Klipphausen","type":"Kreisangehörige_Gemeinde"},"district":{"key":"14627","name":"Meißen","type":"Landkreis"},"federalState":{"key":"14","name":"Sachsen"}},{"name":"Alte Str.","postalCode":"01665","locality":"Klipphausen","municipality":{"key":"14627100","name":"Klipphausen","type":"Kreisangehörige_Gemeinde"},"district":{"key":"14627","name":"Meißen","type":"Landkreis"},"federalState":{"key":"14","name":"Sachsen"}},{"name":"Alte Ziegelei","postalCode":"01665","locality":"Klipphausen","municipality":{"key":"14627100","name":"Klipphausen","type":"Kreisangehörige_Gemeinde"},"district":{"key":"14627","name":"Meißen","type":"Landkreis"},"federalState":{"key":"14","name":"Sachsen"}},{"name":"Am Berg","postalCode":"01665","locality":"Klipphausen","municipality":{"key":"14627100","name":"Klipphausen","type":"Kreisangehörige_Gemeinde"},"district":{"key":"14627","name":"Meißen","type":"Landkreis"},"federalState":{"key":"14","name":"Sachsen"}},{"name":"Am Birkenwald","postalCode":"01665","locality":"Klipphausen","municipality":{"key":"14627100","name":"Klipphausen","type":"Kreisangehörige_Gemeinde"},"district":{"key":"14627","name":"Meißen","type":"Landkreis"},"federalState":{"key":"14","name":"Sachsen"}},{"name":"Am Burgser","postalCode":"01665","locality":"Klipphausen","municipality":{"key":"14627100","name":"Klipphausen","type":"Kreisangehörige_Gemeinde"},"district":{"key":"14627","name":"Meißen","type":"Landkreis"},"federalState":{"key":"14","name":"Sachsen"}},{"name":"Am Dorfbach","postalCode":"01665","locality":"Klipphausen","municipality":{"key":"14627100","name":"Klipphausen","type":"Kreisangehörige_Gemeinde"},"district":{"key":"14627","name":"Meißen","type":"Landkreis"},"federalState":{"key":"14","name":"Sachsen"}},{"name":"Am Dorfberg","postalCode":"01665","locality":"Klipphausen","municipality":{"key":"14627100","name":"Klipphausen","type":"Kreisangehörige_Gemeinde"},"district":{"key":"14627","name":"Meißen","type":"Landkreis"},"federalState":{"key":"14","name":"Sachsen"}},{"name":"Am Dorfteich","postalCode":"01665","locality":"Klipphausen","municipality":{"key":"14627100","name":"Klipphausen","type":"Kreisangehörige_Gemeinde"},"district":{"key":"14627","name":"Meißen","type":"Landkreis"},"federalState":{"key":"14","name":"Sachsen"}},{"name":"Am Fasanenschacht","postalCode":"01665","locality":"Klipphausen","municipality":{"key":"14627100","name":"Klipphausen","type":"Kreisangehörige_Gemeinde"},"district":{"key":"14627","name":"Meißen","type":"Landkreis"},"federalState":{"key":"14","name":"Sachsen"}},{"name":"Am Flachsgrund","postalCode":"01665","locality":"Klipphausen","municipality":{"key":"14627100","name":"Klipphausen","type":"Kreisangehörige_Gemeinde"},"district":{"key":"14627","name":"Meißen","type":"Landkreis"},"federalState":{"key":"14","name":"Sachsen"}},{"name":"Am Füllbusch","postalCode":"01665","locality":"Klipphausen","municipality":{"key":"14627100","name":"Klipphausen","type":"Kreisangehörige_Gemeinde"},"district":{"key":"14627","name":"Meißen","type":"Landkreis"},"federalState":{"key":"14","name":"Sachsen"}},{"name":"Am Grubenteich","postalCode":"01665","locality":"Klipphausen","municipality":{"key":"14627100","name":"Klipphausen","type":"Kreisangehörige_Gemeinde"},"district":{"key":"14627","name":"Meißen","type":"Landkreis"},"federalState":{"key":"14","name":"Sachsen"}},{"name":"Am Grundbach","postalCode":"01665","locality":"Klipphausen","municipality":{"key":"14627100","name":"Klipphausen","type":"Kreisangehörige_Gemeinde"},"district":{"key":"14627","name":"Meißen","type":"Landkreis"},"federalState":{"key":"14","name":"Sachsen"}},{"name":"Am Grünen See","postalCode":"01665","locality":"Klipphausen","municipality":{"key":"14627100","name":"Klipphausen","type":"Kreisangehörige_Gemeinde"},"district":{"key":"14627","name":"Meißen","type":"Landkreis"},"federalState":{"key":"14","name":"Sachsen"}},{"name":"Am Henschel","postalCode":"01665","locality":"Klipphausen","municipality":{"key":"14627100","name":"Klipphausen","type":"Kreisangehörige_Gemeinde"},"district":{"key":"14627","name":"Meißen","type":"Landkreis"},"federalState":{"key":"14","name":"Sachsen"}},{"name":"Am Höllenloch","postalCode":"01665","locality":"Klipphausen","municipality":{"key":"14627100","name":"Klipphausen","type":"Kreisangehörige_Gemeinde"},"district":{"key":"14627","name":"Meißen","type":"Landkreis"},"federalState":{"key":"14","name":"Sachsen"}},{"name":"Am Katzenbusch","postalCode":"01665","locality":"Klipphausen","municipality":{"key":"14627100","name":"Klipphausen","type":"Kreisangehörige_Gemeinde"},"district":{"key":"14627","name":"Meißen","type":"Landkreis"},"federalState":{"key":"14","name":"Sachsen"}},{"name":"Am Kleinen Weg","postalCode":"01665","locality":"Klipphausen","municipality":{"key":"14627100","name":"Klipphausen","type":"Kreisangehörige_Gemeinde"},"district":{"key":"14627","name":"Meißen","type":"Landkreis"},"federalState":{"key":"14","name":"Sachsen"}},{"name":"Am Klostergut","postalCode":"01665","locality":"Klipphausen","municipality":{"key":"14627100","name":"Klipphausen","type":"Kreisangehörige_Gemeinde"},"district":{"key":"14627","name":"Meißen","type":"Landkreis"},"federalState":{"key":"14","name":"Sachsen"}},{"name":"Am Mühlgraben","postalCode":"01665","locality":"Klipphausen","municipality":{"key":"14627100","name":"Klipphausen","type":"Kreisangehörige_Gemeinde"},"district":{"key":"14627","name":"Meißen","type":"Landkreis"},"federalState":{"key":"14","name":"Sachsen"}},{"name":"Am Nordhang","postalCode":"01665","locality":"Klipphausen","municipality":{"key":"14627100","name":"Klipphausen","type":"Kreisangehörige_Gemeinde"},"district":{"key":"14627","name":"Meißen","type":"Landkreis"},"federalState":{"key":"14","name":"Sachsen"}},{"name":"Am Pfarrweg","postalCode":"01665","locality":"Klipphausen","municipality":{"key":"14627100","name":"Klipphausen","type":"Kreisangehörige_Gemeinde"},"district":{"key":"14627","name":"Meißen","type":"Landkreis"},"federalState":{"key":"14","name":"Sachsen"}},{"name":"Am Pranzer","postalCode":"01665","locality":"Klipphausen","municipality":{"key":"14627100","name":"Klipphausen","type":"Kreisangehörige_Gemeinde"},"district":{"key":"14627","name":"Meißen","type":"Landkreis"},"federalState":{"key":"14","name":"Sachsen"}},{"name":"Am Rasthof","postalCode":"01665","locality":"Klipphausen","municipality":{"key":"14627100","name":"Klipphausen","type":"Kreisangehörige_Gemeinde"},"district":{"key":"14627","name":"Meißen","type":"Landkreis"},"federalState":{"key":"14","name":"Sachsen"}},{"name":"Am Regenbach","postalCode":"01665","locality":"Klipphausen","municipality":{"key":"14627100","name":"Klipphausen","type":"Kreisangehörige_Gemeinde"},"district":{"key":"14627","name":"Meißen","type":"Landkreis"},"federalState":{"key":"14","name":"Sachsen"}},{"name":"Am Ring","postalCode":"01665","locality":"Klipphausen","municipality":{"key":"14627100","name":"Klipphausen","type":"Kreisangehörige_Gemeinde"},"district":{"key":"14627","name":"Meißen","type":"Landkreis"},"federalState":{"key":"14","name":"Sachsen"}},{"name":"Am Rittergut","postalCode":"01665","locality":"Klipphausen","municipality":{"key":"14627100","name":"Klipphausen","type":"Kreisangehörige_Gemeinde"},"district":{"key":"14627","name":"Meißen","type":"Landkreis"},"federalState":{"key":"14","name":"Sachsen"}},{"name":"Am Schenkberg","postalCode":"01665","locality":"Klipphausen","municipality":{"key":"14627100","name":"Klipphausen","type":"Kreisangehörige_Gemeinde"},"district":{"key":"14627","name":"Meißen","type":"Landkreis"},"federalState":{"key":"14","name":"Sachsen"}},{"name":"Am Schlosspark","postalCode":"01665","locality":"Klipphausen","municipality":{"key":"14627100","name":"Klipphausen","type":"Kreisangehörige_Gemeinde"},"district":{"key":"14627","name":"Meißen","type":"Landkreis"},"federalState":{"key":"14","name":"Sachsen"}},{"name":"Am Silbergraben","postalCode":"01665","locality":"Klipphausen","municipality":{"key":"14627100","name":"Klipphausen","type":"Kreisangehörige_Gemeinde"},"district":{"key":"14627","name":"Meißen","type":"Landkreis"},"federalState":{"key":"14","name":"Sachsen"}},{"name":"Am Sportplatz","postalCode":"01665","locality":"Klipphausen","municipality":{"key":"14627100","name":"Klipphausen","type":"Kreisangehörige_Gemeinde"},"district":{"key":"14627","name":"Meißen","type":"Landkreis"},"federalState":{"key":"14","name":"Sachsen"}},{"name":"Am Steinberg","postalCode":"01665","locality":"Klipphausen","municipality":{"key":"14627100","name":"Klipphausen","type":"Kreisangehörige_Gemeinde"},"district":{"key":"14627","name":"Meißen","type":"Landkreis"},"federalState":{"key":"14","name":"Sachsen"}},{"name":"Am Steinbruch","postalCode":"01665","locality":"Klipphausen","municipality":{"key":"14627100","name":"Klipphausen","type":"Kreisangehörige_Gemeinde"},"district":{"key":"14627","name":"Meißen","type":"Landkreis"},"federalState":{"key":"14","name":"Sachsen"}},{"name":"Am Südhang","postalCode":"01665","locality":"Klipphausen","municipality":{"key":"14627100","name":"Klipphausen","type":"Kreisangehörige_Gemeinde"},"district":{"key":"14627","name":"Meißen","type":"Landkreis"},"federalState":{"key":"14","name":"Sachsen"}},{"name":"Am Teich","postalCode":"01665","locality":"Klipphausen","municipality":{"key":"14627100","name":"Klipphausen","type":"Kreisangehörige_Gemeinde"},"district":{"key":"14627","name":"Meißen","type":"Landkreis"},"federalState":{"key":"14","name":"Sachsen"}},{"name":"Am Ton","postalCode":"01665","locality":"Klipphausen","municipality":{"key":"14627100","name":"Klipphausen","type":"Kreisangehörige_Gemeinde"},"district":{"key":"14627","name":"Meißen","type":"Landkreis"},"federalState":{"key":"14","name":"Sachsen"}},{"name":"Am Weidengrund","postalCode":"01665","locality":"Klipphausen","municipality":{"key":"14627100","name":"Klipphausen","type":"Kreisangehörige_Gemeinde"},"district":{"key":"14627","name":"Meißen","type":"Landkreis"},"federalState":{"key":"14","name":"Sachsen"}},{"name":"An den Kastanien","postalCode":"01665","locality":"Klipphausen","municipality":{"key":"14627100","name":"Klipphausen","type":"Kreisangehörige_Gemeinde"},"district":{"key":"14627","name":"Meißen","type":"Landkreis"},"federalState":{"key":"14","name":"Sachsen"}},{"name":"An der Aue","postalCode":"01665","locality":"Klipphausen","municipality":{"key":"14627100","name":"Klipphausen","type":"Kreisangehörige_Gemeinde"},"district":{"key":"14627","name":"Meißen","type":"Landkreis"},"federalState":{"key":"14","name":"Sachsen"}},{"name":"An der Autobahn","postalCode":"01665","locality":"Klipphausen","municipality":{"key":"14627100","name":"Klipphausen","type":"Kreisangehörige_Gemeinde"},"district":{"key":"14627","name":"Meißen","type":"Landkreis"},"federalState":{"key":"14","name":"Sachsen"}},{"name":"An der Elbaue","postalCode":"01665","locality":"Klipphausen","municipality":{"key":"14627100","name":"Klipphausen","type":"Kreisangehörige_Gemeinde"},"district":{"key":"14627","name":"Meißen","type":"Landkreis"},"federalState":{"key":"14","name":"Sachsen"}},{"name":"Baeyerhöhe","postalCode":"01665","locality":"Klipphausen","municipality":{"key":"14627100","name":"Klipphausen","type":"Kreisangehörige_Gemeinde"},"district":{"key":"14627","name":"Meißen","type":"Landkreis"},"federalState":{"key":"14","name":"Sachsen"}},{"name":"Bahngäßchen","postalCode":"01665","locality":"Klipphausen","municipality":{"key":"14627100","name":"Klipphausen","type":"Kreisangehörige_Gemeinde"},"district":{"key":"14627","name":"Meißen","type":"Landkreis"},"federalState":{"key":"14","name":"Sachsen"}},{"name":"Bahnhofsweg","postalCode":"01665","locality":"Klipphausen","municipality":{"key":"14627100","name":"Klipphausen","type":"Kreisangehörige_Gemeinde"},"district":{"key":"14627","name":"Meißen","type":"Landkreis"},"federalState":{"key":"14","name":"Sachsen"}},{"name":"Baudenweg","postalCode":"01665","locality":"Klipphausen","municipality":{"key":"14627100","name":"Klipphausen","type":"Kreisangehörige_Gemeinde"},"district":{"key":"14627","name":"Meißen","type":"Landkreis"},"federalState":{"key":"14","name":"Sachsen"}},{"name":"Bauernhöhe","postalCode":"01665","locality":"Klipphausen","municipality":{"key":"14627100","name":"Klipphausen","type":"Kreisangehörige_Gemeinde"},"district":{"key":"14627","name":"Meißen","type":"Landkreis"},"federalState":{"key":"14","name":"Sachsen"}},{"name":"Bauernsiedlung","postalCode":"01665","locality":"Klipphausen","municipality":{"key":"14627100","name":"Klipphausen","type":"Kreisangehörige_Gemeinde"},"district":{"key":"14627","name":"Meißen","type":"Landkreis"},"federalState":{"key":"14","name":"Sachsen"}},{"name":"Bauernweg","postalCode":"01665","locality":"Klipphausen","municipality":{"key":"14627100","name":"Klipphausen","type":"Kreisangehörige_Gemeinde"},"district":{"key":"14627","name":"Meißen","type":"Landkreis"},"federalState":{"key":"14","name":"Sachsen"}},{"name":"Bergstr.","postalCode":"01665","locality":"Klipphausen","municipality":{"key":"14627100","name":"Klipphausen","type":"Kreisangehörige_Gemeinde"},"district":{"key":"14627","name":"Meißen","type":"Landkreis"},"federalState":{"key":"14","name":"Sachsen"}},{"name":"Birkenhainer Str.","postalCode":"01665","locality":"Klipphausen","municipality":{"key":"14627100","name":"Klipphausen","type":"Kreisangehörige_Gemeinde"},"district":{"key":"14627","name":"Meißen","type":"Landkreis"},"federalState":{"key":"14","name":"Sachsen"}},{"name":"Blumenwinkel","postalCode":"01665","locality":"Klipphausen","municipality":{"key":"14627100","name":"Klipphausen","type":"Kreisangehörige_Gemeinde"},"district":{"key":"14627","name":"Meißen","type":"Landkreis"},"federalState":{"key":"14","name":"Sachsen"}},{"name":"Bockwener Allee","postalCode":"01665","locality":"Klipphausen","municipality":{"key":"14627100","name":"Klipphausen","type":"Kreisangehörige_Gemeinde"},"district":{"key":"14627","name":"Meißen","type":"Landkreis"},"federalState":{"key":"14","name":"Sachsen"}},{"name":"Bockwener Ring","postalCode":"01665","locality":"Klipphausen","municipality":{"key":"14627100","name":"Klipphausen","type":"Kreisangehörige_Gemeinde"},"district":{"key":"14627","name":"Meißen","type":"Landkreis"},"federalState":{"key":"14","name":"Sachsen"}},{"name":"Bornberg","postalCode":"01665","locality":"Klipphausen","municipality":{"key":"14627100","name":"Klipphausen","type":"Kreisangehörige_Gemeinde"},"district":{"key":"14627","name":"Meißen","type":"Landkreis"},"federalState":{"key":"14","name":"Sachsen"}},{"name":"Brauereistr.","postalCode":"01665","locality":"Klipphausen","municipality":{"key":"14627100","name":"Klipphausen","type":"Kreisangehörige_Gemeinde"},"district":{"key":"14627","name":"Meißen","type":"Landkreis"},"federalState":{"key":"14","name":"Sachsen"}},{"name":"Bremer Str.","postalCode":"01665","locality":"Klipphausen","municipality":{"key":"14627100","name":"Klipphausen","type":"Kreisangehörige_Gemeinde"},"district":{"key":"14627","name":"Meißen","type":"Landkreis"},"federalState":{"key":"14","name":"Sachsen"}},{"name":"Brunnengasse","postalCode":"01665","locality":"Klipphausen","municipality":{"key":"14627100","name":"Klipphausen","type":"Kreisangehörige_Gemeinde"},"district":{"key":"14627","name":"Meißen","type":"Landkreis"},"federalState":{"key":"14","name":"Sachsen"}},{"name":"Burkhardswalder Str.","postalCode":"01665","locality":"Klipphausen","municipality":{"key":"14627100","name":"Klipphausen","type":"Kreisangehörige_Gemeinde"},"district":{"key":"14627","name":"Meißen","type":"Landkreis"},"federalState":{"key":"14","name":"Sachsen"}},{"name":"Christian-von-Zinzendorf-Weg","postalCode":"01665","locality":"Klipphausen","municipality":{"key":"14627100","name":"Klipphausen","type":"Kreisangehörige_Gemeinde"},"district":{"key":"14627","name":"Meißen","type":"Landkreis"},"federalState":{"key":"14","name":"Sachsen"}},{"name":"Cossebauder Str.","postalCode":"01665","locality":"Klipphausen","municipality":{"key":"14627100","name":"Klipphausen","type":"Kreisangehörige_Gemeinde"},"district":{"key":"14627","name":"Meißen","type":"Landkreis"},"federalState":{"key":"14","name":"Sachsen"}},{"name":"Dammmühle","postalCode":"01665","locality":"Klipphausen","municipality":{"key":"14627100","name":"Klipphausen","type":"Kreisangehörige_Gemeinde"},"district":{"key":"14627","name":"Meißen","type":"Landkreis"},"federalState":{"key":"14","name":"Sachsen"}},{"name":"Die Hohle","postalCode":"01665","locality":"Klipphausen","municipality":{"key":"14627100","name":"Klipphausen","type":"Kreisangehörige_Gemeinde"},"district":{"key":"14627","name":"Meißen","type":"Landkreis"},"federalState":{"key":"14","name":"Sachsen"}},{"name":"Die Scheibe","postalCode":"01665","locality":"Klipphausen","municipality":{"key":"14627100","name":"Klipphausen","type":"Kreisangehörige_Gemeinde"},"district":{"key":"14627","name":"Meißen","type":"Landkreis"},"federalState":{"key":"14","name":"Sachsen"}},{"name":"Dorfberg","postalCode":"01665","locality":"Klipphausen","municipality":{"key":"14627100","name":"Klipphausen","type":"Kreisangehörige_Gemeinde"},"district":{"key":"14627","name":"Meißen","type":"Landkreis"},"federalState":{"key":"14","name":"Sachsen"}},{"name":"Dorfgasse","postalCode":"01665","locality":"Klipphausen","municipality":{"key":"14627100","name":"Klipphausen","type":"Kreisangehörige_Gemeinde"},"district":{"key":"14627","name":"Meißen","type":"Landkreis"},"federalState":{"key":"14","name":"Sachsen"}},{"name":"Dorfplatz","postalCode":"01665","locality":"Klipphausen","municipality":{"key":"14627100","name":"Klipphausen","type":"Kreisangehörige_Gemeinde"},"district":{"key":"14627","name":"Meißen","type":"Landkreis"},"federalState":{"key":"14","name":"Sachsen"}},{"name":"Dorfstr.","postalCode":"01665","locality":"Klipphausen","municipality":{"key":"14627100","name":"Klipphausen","type":"Kreisangehörige_Gemeinde"},"district":{"key":"14627","name":"Meißen","type":"Landkreis"},"federalState":{"key":"14","name":"Sachsen"}},{"name":"Dresdner Str.","postalCode":"01665","locality":"Klipphausen","municipality":{"key":"14627100","name":"Klipphausen","type":"Kreisangehörige_Gemeinde"},"district":{"key":"14627","name":"Meißen","type":"Landkreis"},"federalState":{"key":"14","name":"Sachsen"}},{"name":"Dr.-Jungheinrich-Platz","postalCode":"01665","locality":"Klipphausen","municipality":{"key":"14627100","name":"Klipphausen","type":"Kreisangehörige_Gemeinde"},"district":{"key":"14627","name":"Meißen","type":"Landkreis"},"federalState":{"key":"14","name":"Sachsen"}},{"name":"Eichhörnchengrund","postalCode":"01665","locality":"Klipphausen","municipality":{"key":"14627100","name":"Klipphausen","type":"Kreisangehörige_Gemeinde"},"district":{"key":"14627","name":"Meißen","type":"Landkreis"},"federalState":{"key":"14","name":"Sachsen"}},{"name":"Eickhoffstr.","postalCode":"01665","locality":"Klipphausen","municipality":{"key":"14627100","name":"Klipphausen","type":"Kreisangehörige_Gemeinde"},"district":{"key":"14627","name":"Meißen","type":"Landkreis"},"federalState":{"key":"14","name":"Sachsen"}},{"name":"Elbleitenweg","postalCode":"01665","locality":"Klipphausen","municipality":{"key":"14627100","name":"Klipphausen","type":"Kreisangehörige_Gemeinde"},"district":{"key":"14627","name":"Meißen","type":"Landkreis"},"federalState":{"key":"14","name":"Sachsen"}},{"name":"Elgersdorfer Str.","postalCode":"01665","locality":"Klipphausen","municipality":{"key":"14627100","name":"Klipphausen","type":"Kreisangehörige_Gemeinde"},"district":{"key":"14627","name":"Meißen","type":"Landkreis"},"federalState":{"key":"14","name":"Sachsen"}},{"name":"Erzweg","postalCode":"01665","locality":"Klipphausen","municipality":{"key":"14627100","name":"Klipphausen","type":"Kreisangehörige_Gemeinde"},"district":{"key":"14627","name":"Meißen","type":"Landkreis"},"federalState":{"key":"14","name":"Sachsen"}},{"name":"Esskastanienhain Miltitz","postalCode":"01665","locality":"Klipphausen","municipality":{"key":"14627100","name":"Klipphausen","type":"Kreisangehörige_Gemeinde"},"district":{"key":"14627","name":"Meißen","type":"Landkreis"},"federalState":{"key":"14","name":"Sachsen"}},{"name":"Fährweg","postalCode":"01665","locality":"Klipphausen","municipality":{"key":"14627100","name":"Klipphausen","type":"Kreisangehörige_Gemeinde"},"district":{"key":"14627","name":"Meißen","type":"Landkreis"},"federalState":{"key":"14","name":"Sachsen"}},{"name":"Fischerdorf","postalCode":"01665","locality":"Klipphausen","municipality":{"key":"14627100","name":"Klipphausen","type":"Kreisangehörige_Gemeinde"},"district":{"key":"14627","name":"Meißen","type":"Landkreis"},"federalState":{"key":"14","name":"Sachsen"}},{"name":"Fritz-Hollweg-Ring","postalCode":"01665","locality":"Klipphausen","municipality":{"key":"14627100","name":"Klipphausen","type":"Kreisangehörige_Gemeinde"},"district":{"key":"14627","name":"Meißen","type":"Landkreis"},"federalState":{"key":"14","name":"Sachsen"}},{"name":"Fuchsgruben","postalCode":"01665","locality":"Klipphausen","municipality":{"key":"14627100","name":"Klipphausen","type":"Kreisangehörige_Gemeinde"},"district":{"key":"14627","name":"Meißen","type":"Landkreis"},"federalState":{"key":"14","name":"Sachsen"}},{"name":"Garsebacher Weg","postalCode":"01665","locality":"Klipphausen","municipality":{"key":"14627100","name":"Klipphausen","type":"Kreisangehörige_Gemeinde"},"district":{"key":"14627","name":"Meißen","type":"Landkreis"},"federalState":{"key":"14","name":"Sachsen"}},{"name":"Gauernitzer Allee","postalCode":"01665","locality":"Klipphausen","municipality":{"key":"14627100","name":"Klipphausen","type":"Kreisangehörige_Gemeinde"},"district":{"key":"14627","name":"Meißen","type":"Landkreis"},"federalState":{"key":"14","name":"Sachsen"}},{"name":"Gauernitzer Str.","postalCode":"01665","locality":"Klipphausen","municipality":{"key":"14627100","name":"Klipphausen","type":"Kreisangehörige_Gemeinde"},"district":{"key":"14627","name":"Meißen","type":"Landkreis"},"federalState":{"key":"14","name":"Sachsen"}},{"name":"Göttinger Str.","postalCode":"01665","locality":"Klipphausen","municipality":{"key":"14627100","name":"Klipphausen","type":"Kreisangehörige_Gemeinde"},"district":{"key":"14627","name":"Meißen","type":"Landkreis"},"federalState":{"key":"14","name":"Sachsen"}},{"name":"Götzeweg","postalCode":"01665","locality":"Klipphausen","municipality":{"key":"14627100","name":"Klipphausen","type":"Kreisangehörige_Gemeinde"},"district":{"key":"14627","name":"Meißen","type":"Landkreis"},"federalState":{"key":"14","name":"Sachsen"}},{"name":"Groitzscher Str.","postalCode":"01665","locality":"Klipphausen","municipality":{"key":"14627100","name":"Klipphausen","type":"Kreisangehörige_Gemeinde"},"district":{"key":"14627","name":"Meißen","type":"Landkreis"},"federalState":{"key":"14","name":"Sachsen"}},{"name":"Grubengasse","postalCode":"01665","locality":"Klipphausen","municipality":{"key":"14627100","name":"Klipphausen","type":"Kreisangehörige_Gemeinde"},"district":{"key":"14627","name":"Meißen","type":"Landkreis"},"federalState":{"key":"14","name":"Sachsen"}},{"name":"Gründchen","postalCode":"01665","locality":"Klipphausen","municipality":{"key":"14627100","name":"Klipphausen","type":"Kreisangehörige_Gemeinde"},"district":{"key":"14627","name":"Meißen","type":"Landkreis"},"federalState":{"key":"14","name":"Sachsen"}},{"name":"Grüne Gasse","postalCode":"01665","locality":"Klipphausen","municipality":{"key":"14627100","name":"Klipphausen","type":"Kreisangehörige_Gemeinde"},"district":{"key":"14627","name":"Meißen","type":"Landkreis"},"federalState":{"key":"14","name":"Sachsen"}},{"name":"Grüner Weg","postalCode":"01665","locality":"Klipphausen","municipality":{"key":"14627100","name":"Klipphausen","type":"Kreisangehörige_Gemeinde"},"district":{"key":"14627","name":"Meißen","type":"Landkreis"},"federalState":{"key":"14","name":"Sachsen"}},{"name":"Gutsweg","postalCode":"01665","locality":"Klipphausen","municipality":{"key":"14627100","name":"Klipphausen","type":"Kreisangehörige_Gemeinde"},"district":{"key":"14627","name":"Meißen","type":"Landkreis"},"federalState":{"key":"14","name":"Sachsen"}},{"name":"Hamburger Ring","postalCode":"01665","locality":"Klipphausen","municipality":{"key":"14627100","name":"Klipphausen","type":"Kreisangehörige_Gemeinde"},"district":{"key":"14627","name":"Meißen","type":"Landkreis"},"federalState":{"key":"14","name":"Sachsen"}},{"name":"Harthaer Str.","postalCode":"01665","locality":"Klipphausen","municipality":{"key":"14627100","name":"Klipphausen","type":"Kreisangehörige_Gemeinde"},"district":{"key":"14627","name":"Meißen","type":"Landkreis"},"federalState":{"key":"14","name":"Sachsen"}},{"name":"Hauptstr.","postalCode":"01665","locality":"Klipphausen","municipality":{"key":"14627100","name":"Klipphausen","type":"Kreisangehörige_Gemeinde"},"district":{"key":"14627","name":"Meißen","type":"Landkreis"},"federalState":{"key":"14","name":"Sachsen"}},{"name":"Heuweg","postalCode":"01665","locality":"Klipphausen","municipality":{"key":"14627100","name":"Klipphausen","type":"Kreisangehörige_Gemeinde"},"district":{"key":"14627","name":"Meißen","type":"Landkreis"},"federalState":{"key":"14","name":"Sachsen"}},{"name":"Hof Buschberg","postalCode":"01665","locality":"Klipphausen","municipality":{"key":"14627100","name":"Klipphausen","type":"Kreisangehörige_Gemeinde"},"district":{"key":"14627","name":"Meißen","type":"Landkreis"},"federalState":{"key":"14","name":"Sachsen"}},{"name":"Hofegarten","postalCode":"01665","locality":"Klipphausen","municipality":{"key":"14627100","name":"Klipphausen","type":"Kreisangehörige_Gemeinde"},"district":{"key":"14627","name":"Meißen","type":"Landkreis"},"federalState":{"key":"14","name":"Sachsen"}},{"name":"Hofegasse","postalCode":"01665","locality":"Klipphausen","municipality":{"key":"14627100","name":"Klipphausen","type":"Kreisangehörige_Gemeinde"},"district":{"key":"14627","name":"Meißen","type":"Landkreis"},"federalState":{"key":"14","name":"Sachsen"}},{"name":"Hohle","postalCode":"01665","locality":"Klipphausen","municipality":{"key":"14627100","name":"Klipphausen","type":"Kreisangehörige_Gemeinde"},"district":{"key":"14627","name":"Meißen","type":"Landkreis"},"federalState":{"key":"14","name":"Sachsen"}},{"name":"Hohlweg","postalCode":"01665","locality":"Klipphausen","municipality":{"key":"14627100","name":"Klipphausen","type":"Kreisangehörige_Gemeinde"},"district":{"key":"14627","name":"Meißen","type":"Landkreis"},"federalState":{"key":"14","name":"Sachsen"}},{"name":"Hortensienweg","postalCode":"01665","locality":"Klipphausen","municipality":{"key":"14627100","name":"Klipphausen","type":"Kreisangehörige_Gemeinde"},"district":{"key":"14627","name":"Meißen","type":"Landkreis"},"federalState":{"key":"14","name":"Sachsen"}},{"name":"Hufweg","postalCode":"01665","locality":"Klipphausen","municipality":{"key":"14627100","name":"Klipphausen","type":"Kreisangehörige_Gemeinde"},"district":{"key":"14627","name":"Meißen","type":"Landkreis"},"federalState":{"key":"14","name":"Sachsen"}},{"name":"Hühndorfer Str.","postalCode":"01665","locality":"Klipphausen","municipality":{"key":"14627100","name":"Klipphausen","type":"Kreisangehörige_Gemeinde"},"district":{"key":"14627","name":"Meißen","type":"Landkreis"},"federalState":{"key":"14","name":"Sachsen"}},{"name":"Im Winkel","postalCode":"01665","locality":"Klipphausen","municipality":{"key":"14627100","name":"Klipphausen","type":"Kreisangehörige_Gemeinde"},"district":{"key":"14627","name":"Meißen","type":"Landkreis"},"federalState":{"key":"14","name":"Sachsen"}},{"name":"Jockischberg","postalCode":"01665","locality":"Klipphausen","municipality":{"key":"14627100","name":"Klipphausen","type":"Kreisangehörige_Gemeinde"},"district":{"key":"14627","name":"Meißen","type":"Landkreis"},"federalState":{"key":"14","name":"Sachsen"}},{"name":"Kirchberg","postalCode":"01665","locality":"Klipphausen","municipality":{"key":"14627100","name":"Klipphausen","type":"Kreisangehörige_Gemeinde"},"district":{"key":"14627","name":"Meißen","type":"Landkreis"},"federalState":{"key":"14","name":"Sachsen"}},{"name":"Kirchensiedlung","postalCode":"01665","locality":"Klipphausen","municipality":{"key":"14627100","name":"Klipphausen","type":"Kreisangehörige_Gemeinde"},"district":{"key":"14627","name":"Meißen","type":"Landkreis"},"federalState":{"key":"14","name":"Sachsen"}},{"name":"Kirchstr.","postalCode":"01665","locality":"Klipphausen","municipality":{"key":"14627100","name":"Klipphausen","type":"Kreisangehörige_Gemeinde"},"district":{"key":"14627","name":"Meißen","type":"Landkreis"},"federalState":{"key":"14","name":"Sachsen"}},{"name":"Kirchweg","postalCode":"01665","locality":"Klipphausen","municipality":{"key":"14627100","name":"Klipphausen","type":"Kreisangehörige_Gemeinde"},"district":{"key":"14627","name":"Meißen","type":"Landkreis"},"federalState":{"key":"14","name":"Sachsen"}},{"name":"Kirschberg","postalCode":"01665","locality":"Klipphausen","municipality":{"key":"14627100","name":"Klipphausen","type":"Kreisangehörige_Gemeinde"},"district":{"key":"14627","name":"Meißen","type":"Landkreis"},"federalState":{"key":"14","name":"Sachsen"}},{"name":"Kirschblütenweg","postalCode":"01665","locality":"Klipphausen","municipality":{"key":"14627100","name":"Klipphausen","type":"Kreisangehörige_Gemeinde"},"district":{"key":"14627","name":"Meißen","type":"Landkreis"},"federalState":{"key":"14","name":"Sachsen"}},{"name":"Kleine Seite","postalCode":"01665","locality":"Klipphausen","municipality":{"key":"14627100","name":"Klipphausen","type":"Kreisangehörige_Gemeinde"},"district":{"key":"14627","name":"Meißen","type":"Landkreis"},"federalState":{"key":"14","name":"Sachsen"}},{"name":"Klipphausener Str.","postalCode":"01665","locality":"Klipphausen","municipality":{"key":"14627100","name":"Klipphausen","type":"Kreisangehörige_Gemeinde"},"district":{"key":"14627","name":"Meißen","type":"Landkreis"},"federalState":{"key":"14","name":"Sachsen"}},{"name":"Knappensteig","postalCode":"01665","locality":"Klipphausen","municipality":{"key":"14627100","name":"Klipphausen","type":"Kreisangehörige_Gemeinde"},"district":{"key":"14627","name":"Meißen","type":"Landkreis"},"federalState":{"key":"14","name":"Sachsen"}},{"name":"Kottewitzer Berg","postalCode":"01665","locality":"Klipphausen","municipality":{"key":"14627100","name":"Klipphausen","type":"Kreisangehörige_Gemeinde"},"district":{"key":"14627","name":"Meißen","type":"Landkreis"},"federalState":{"key":"14","name":"Sachsen"}},{"name":"Krauseminzgasse","postalCode":"01665","locality":"Klipphausen","municipality":{"key":"14627100","name":"Klipphausen","type":"Kreisangehörige_Gemeinde"},"district":{"key":"14627","name":"Meißen","type":"Landkreis"},"federalState":{"key":"14","name":"Sachsen"}},{"name":"Krögiser Weg","postalCode":"01665","locality":"Klipphausen","municipality":{"key":"14627100","name":"Klipphausen","type":"Kreisangehörige_Gemeinde"},"district":{"key":"14627","name":"Meißen","type":"Landkreis"},"federalState":{"key":"14","name":"Sachsen"}},{"name":"Kuhberg","postalCode":"01665","locality":"Klipphausen","municipality":{"key":"14627100","name":"Klipphausen","type":"Kreisangehörige_Gemeinde"},"district":{"key":"14627","name":"Meißen","type":"Landkreis"},"federalState":{"key":"14","name":"Sachsen"}},{"name":"Lämmerberg","postalCode":"01665","locality":"Klipphausen","municipality":{"key":"14627100","name":"Klipphausen","type":"Kreisangehörige_Gemeinde"},"district":{"key":"14627","name":"Meißen","type":"Landkreis"},"federalState":{"key":"14","name":"Sachsen"}},{"name":"Langer Weg","postalCode":"01665","locality":"Klipphausen","municipality":{"key":"14627100","name":"Klipphausen","type":"Kreisangehörige_Gemeinde"},"district":{"key":"14627","name":"Meißen","type":"Landkreis"},"federalState":{"key":"14","name":"Sachsen"}},{"name":"Lehmgasse","postalCode":"01665","locality":"Klipphausen","municipality":{"key":"14627100","name":"Klipphausen","type":"Kreisangehörige_Gemeinde"},"district":{"key":"14627","name":"Meißen","type":"Landkreis"},"federalState":{"key":"14","name":"Sachsen"}},{"name":"Lindenhöhe","postalCode":"01665","locality":"Klipphausen","municipality":{"key":"14627100","name":"Klipphausen","type":"Kreisangehörige_Gemeinde"},"district":{"key":"14627","name":"Meißen","type":"Landkreis"},"federalState":{"key":"14","name":"Sachsen"}},{"name":"Louisenberg","postalCode":"01665","locality":"Klipphausen","municipality":{"key":"14627100","name":"Klipphausen","type":"Kreisangehörige_Gemeinde"},"district":{"key":"14627","name":"Meißen","type":"Landkreis"},"federalState":{"key":"14","name":"Sachsen"}},{"name":"Lugaer Weg","postalCode":"01665","locality":"Klipphausen","municipality":{"key":"14627100","name":"Klipphausen","type":"Kreisangehörige_Gemeinde"},"district":{"key":"14627","name":"Meißen","type":"Landkreis"},"federalState":{"key":"14","name":"Sachsen"}},{"name":"Markscheidergasse","postalCode":"01665","locality":"Klipphausen","municipality":{"key":"14627100","name":"Klipphausen","type":"Kreisangehörige_Gemeinde"},"district":{"key":"14627","name":"Meißen","type":"Landkreis"},"federalState":{"key":"14","name":"Sachsen"}},{"name":"Markt","postalCode":"01665","locality":"Klipphausen","municipality":{"key":"14627100","name":"Klipphausen","type":"Kreisangehörige_Gemeinde"},"district":{"key":"14627","name":"Meißen","type":"Landkreis"},"federalState":{"key":"14","name":"Sachsen"}},{"name":"Mauseweg","postalCode":"01665","locality":"Klipphausen","municipality":{"key":"14627100","name":"Klipphausen","type":"Kreisangehörige_Gemeinde"},"district":{"key":"14627","name":"Meißen","type":"Landkreis"},"federalState":{"key":"14","name":"Sachsen"}},{"name":"Meißener Str.","postalCode":"01665","locality":"Klipphausen","municipality":{"key":"14627100","name":"Klipphausen","type":"Kreisangehörige_Gemeinde"},"district":{"key":"14627","name":"Meißen","type":"Landkreis"},"federalState":{"key":"14","name":"Sachsen"}},{"name":"Meißner Allee","postalCode":"01665","locality":"Klipphausen","municipality":{"key":"14627100","name":"Klipphausen","type":"Kreisangehörige_Gemeinde"},"district":{"key":"14627","name":"Meißen","type":"Landkreis"},"federalState":{"key":"14","name":"Sachsen"}},{"name":"Meißner Blick","postalCode":"01665","locality":"Klipphausen","municipality":{"key":"14627100","name":"Klipphausen","type":"Kreisangehörige_Gemeinde"},"district":{"key":"14627","name":"Meißen","type":"Landkreis"},"federalState":{"key":"14","name":"Sachsen"}},{"name":"Meißner Landstr.","postalCode":"01665","locality":"Klipphausen","municipality":{"key":"14627100","name":"Klipphausen","type":"Kreisangehörige_Gemeinde"},"district":{"key":"14627","name":"Meißen","type":"Landkreis"},"federalState":{"key":"14","name":"Sachsen"}},{"name":"Meißner Str.","postalCode":"01665","locality":"Klipphausen","municipality":{"key":"14627100","name":"Klipphausen","type":"Kreisangehörige_Gemeinde"},"district":{"key":"14627","name":"Meißen","type":"Landkreis"},"federalState":{"key":"14","name":"Sachsen"}},{"name":"Miltitzer Kirchstr.","postalCode":"01665","locality":"Klipphausen","municipality":{"key":"14627100","name":"Klipphausen","type":"Kreisangehörige_Gemeinde"},"district":{"key":"14627","name":"Meißen","type":"Landkreis"},"federalState":{"key":"14","name":"Sachsen"}},{"name":"Miltitzer Str.","postalCode":"01665","locality":"Klipphausen","municipality":{"key":"14627100","name":"Klipphausen","type":"Kreisangehörige_Gemeinde"},"district":{"key":"14627","name":"Meißen","type":"Landkreis"},"federalState":{"key":"14","name":"Sachsen"}},{"name":"Mühlenweg","postalCode":"01665","locality":"Klipphausen","municipality":{"key":"14627100","name":"Klipphausen","type":"Kreisangehörige_Gemeinde"},"district":{"key":"14627","name":"Meißen","type":"Landkreis"},"federalState":{"key":"14","name":"Sachsen"}},{"name":"Müllergründchen","postalCode":"01665","locality":"Klipphausen","municipality":{"key":"14627100","name":"Klipphausen","type":"Kreisangehörige_Gemeinde"},"district":{"key":"14627","name":"Meißen","type":"Landkreis"},"federalState":{"key":"14","name":"Sachsen"}},{"name":"Munziger Hauptstr.","postalCode":"01665","locality":"Klipphausen","municipality":{"key":"14627100","name":"Klipphausen","type":"Kreisangehörige_Gemeinde"},"district":{"key":"14627","name":"Meißen","type":"Landkreis"},"federalState":{"key":"14","name":"Sachsen"}},{"name":"Naumanns Gut","postalCode":"01665","locality":"Klipphausen","municipality":{"key":"14627100","name":"Klipphausen","type":"Kreisangehörige_Gemeinde"},"district":{"key":"14627","name":"Meißen","type":"Landkreis"},"federalState":{"key":"14","name":"Sachsen"}},{"name":"Nauweg","postalCode":"01665","locality":"Klipphausen","municipality":{"key":"14627100","name":"Klipphausen","type":"Kreisangehörige_Gemeinde"},"district":{"key":"14627","name":"Meißen","type":"Landkreis"},"federalState":{"key":"14","name":"Sachsen"}},{"name":"Neue Siedlung","postalCode":"01665","locality":"Klipphausen","municipality":{"key":"14627100","name":"Klipphausen","type":"Kreisangehörige_Gemeinde"},"district":{"key":"14627","name":"Meißen","type":"Landkreis"},"federalState":{"key":"14","name":"Sachsen"}},{"name":"Neukirchner Str.","postalCode":"01665","locality":"Klipphausen","municipality":{"key":"14627100","name":"Klipphausen","type":"Kreisangehörige_Gemeinde"},"district":{"key":"14627","name":"Meißen","type":"Landkreis"},"federalState":{"key":"14","name":"Sachsen"}},{"name":"Neun Häuser","postalCode":"01665","locality":"Klipphausen","municipality":{"key":"14627100","name":"Klipphausen","type":"Kreisangehörige_Gemeinde"},"district":{"key":"14627","name":"Meißen","type":"Landkreis"},"federalState":{"key":"14","name":"Sachsen"}},{"name":"Neurobschützer Str.","postalCode":"01665","locality":"Klipphausen","municipality":{"key":"14627100","name":"Klipphausen","type":"Kreisangehörige_Gemeinde"},"district":{"key":"14627","name":"Meißen","type":"Landkreis"},"federalState":{"key":"14","name":"Sachsen"}},{"name":"Neurobschützer Weg","postalCode":"01665","locality":"Klipphausen","municipality":{"key":"14627100","name":"Klipphausen","type":"Kreisangehörige_Gemeinde"},"district":{"key":"14627","name":"Meißen","type":"Landkreis"},"federalState":{"key":"14","name":"Sachsen"}},{"name":"Niederwarthaer Str.","postalCode":"01665","locality":"Klipphausen","municipality":{"key":"14627100","name":"Klipphausen","type":"Kreisangehörige_Gemeinde"},"district":{"key":"14627","name":"Meißen","type":"Landkreis"},"federalState":{"key":"14","name":"Sachsen"}},{"name":"Nossener Str.","postalCode":"01665","locality":"Klipphausen","municipality":{"key":"14627100","name":"Klipphausen","type":"Kreisangehörige_Gemeinde"},"district":{"key":"14627","name":"Meißen","type":"Landkreis"},"federalState":{"key":"14","name":"Sachsen"}},{"name":"Obere Str.","postalCode":"01665","locality":"Klipphausen","municipality":{"key":"14627100","name":"Klipphausen","type":"Kreisangehörige_Gemeinde"},"district":{"key":"14627","name":"Meißen","type":"Landkreis"},"federalState":{"key":"14","name":"Sachsen"}},{"name":"Obermunzig","postalCode":"01665","locality":"Klipphausen","municipality":{"key":"14627100","name":"Klipphausen","type":"Kreisangehörige_Gemeinde"},"district":{"key":"14627","name":"Meißen","type":"Landkreis"},"federalState":{"key":"14","name":"Sachsen"}},{"name":"Parkweg","postalCode":"01665","locality":"Klipphausen","municipality":{"key":"14627100","name":"Klipphausen","type":"Kreisangehörige_Gemeinde"},"district":{"key":"14627","name":"Meißen","type":"Landkreis"},"federalState":{"key":"14","name":"Sachsen"}},{"name":"Pegenauer Str.","postalCode":"01665","locality":"Klipphausen","municipality":{"key":"14627100","name":"Klipphausen","type":"Kreisangehörige_Gemeinde"},"district":{"key":"14627","name":"Meißen","type":"Landkreis"},"federalState":{"key":"14","name":"Sachsen"}},{"name":"Perne","postalCode":"01665","locality":"Klipphausen","municipality":{"key":"14627100","name":"Klipphausen","type":"Kreisangehörige_Gemeinde"},"district":{"key":"14627","name":"Meißen","type":"Landkreis"},"federalState":{"key":"14","name":"Sachsen"}},{"name":"Pfarrweg","postalCode":"01665","locality":"Klipphausen","municipality":{"key":"14627100","name":"Klipphausen","type":"Kreisangehörige_Gemeinde"},"district":{"key":"14627","name":"Meißen","type":"Landkreis"},"federalState":{"key":"14","name":"Sachsen"}},{"name":"Pinkowitz","postalCode":"01665","locality":"Klipphausen","municipality":{"key":"14627100","name":"Klipphausen","type":"Kreisangehörige_Gemeinde"},"district":{"key":"14627","name":"Meißen","type":"Landkreis"},"federalState":{"key":"14","name":"Sachsen"}},{"name":"Pinkowitzer Str.","postalCode":"01665","locality":"Klipphausen","municipality":{"key":"14627100","name":"Klipphausen","type":"Kreisangehörige_Gemeinde"},"district":{"key":"14627","name":"Meißen","type":"Landkreis"},"federalState":{"key":"14","name":"Sachsen"}},{"name":"Pinnenweg","postalCode":"01665","locality":"Klipphausen","municipality":{"key":"14627100","name":"Klipphausen","type":"Kreisangehörige_Gemeinde"},"district":{"key":"14627","name":"Meißen","type":"Landkreis"},"federalState":{"key":"14","name":"Sachsen"}},{"name":"Polenzer Hauptstr.","postalCode":"01665","locality":"Klipphausen","municipality":{"key":"14627100","name":"Klipphausen","type":"Kreisangehörige_Gemeinde"},"district":{"key":"14627","name":"Meißen","type":"Landkreis"},"federalState":{"key":"14","name":"Sachsen"}},{"name":"Polenzer Linden","postalCode":"01665","locality":"Klipphausen","municipality":{"key":"14627100","name":"Klipphausen","type":"Kreisangehörige_Gemeinde"},"district":{"key":"14627","name":"Meißen","type":"Landkreis"},"federalState":{"key":"14","name":"Sachsen"}},{"name":"Polenzer Str.","postalCode":"01665","locality":"Klipphausen","municipality":{"key":"14627100","name":"Klipphausen","type":"Kreisangehörige_Gemeinde"},"district":{"key":"14627","name":"Meißen","type":"Landkreis"},"federalState":{"key":"14","name":"Sachsen"}},{"name":"Poststr.","postalCode":"01665","locality":"Klipphausen","municipality":{"key":"14627100","name":"Klipphausen","type":"Kreisangehörige_Gemeinde"},"district":{"key":"14627","name":"Meißen","type":"Landkreis"},"federalState":{"key":"14","name":"Sachsen"}},{"name":"Prinzbachweg","postalCode":"01665","locality":"Klipphausen","municipality":{"key":"14627100","name":"Klipphausen","type":"Kreisangehörige_Gemeinde"},"district":{"key":"14627","name":"Meißen","type":"Landkreis"},"federalState":{"key":"14","name":"Sachsen"}},{"name":"Quellgasse","postalCode":"01662","locality":"Meißen","municipality":{"key":"14627140","name":"Meißen, Stadt","type":"Stadt"},"district":{"key":"14627","name":"Meißen","type":"Landkreis"},"federalState":{"key":"14","name":"Sachsen"}},{"name":"Querallee","postalCode":"01662","locality":"Meißen","municipality":{"key":"14627140","name":"Meißen, Stadt","type":"Stadt"},"district":{"key":"14627","name":"Meißen","type":"Landkreis"},"federalState":{"key":"14","name":"Sachsen"}},{"name":"Querchweg","postalCode":"77974","locality":"Meißenheim","municipality":{"key":"08317075","name":"Meißenheim","type":"Kreisangehörige_Gemeinde"},"district":{"key":"08317","name":"Ortenaukreis","type":"Landkreis"},"federalState":{"key":"08","name":"Baden-Württemberg"}},{"name":"Querstr.","postalCode":"01662","locality":"Meißen","municipality":{"key":"14627140","name":"Meißen, Stadt","type":"Stadt"},"district":{"key":"14627","name":"Meißen","type":"Landkreis"},"federalState":{"key":"14","name":"Sachsen"}},{"name":"Questenberger Weg","postalCode":"01662","locality":"Meißen","municipality":{"key":"14627140","name":"Meißen, Stadt","type":"Stadt"},"district":{"key":"14627","name":"Meißen","type":"Landkreis"},"federalState":{"key":"14","name":"Sachsen"}},{"name":"Regenbachtal","postalCode":"01665","locality":"Klipphausen","municipality":{"key":"14627100","name":"Klipphausen","type":"Kreisangehörige_Gemeinde"},"district":{"key":"14627","name":"Meißen","type":"Landkreis"},"federalState":{"key":"14","name":"Sachsen"}},{"name":"Rehbocktal","postalCode":"01665","locality":"Klipphausen","municipality":{"key":"14627100","name":"Klipphausen","type":"Kreisangehörige_Gemeinde"},"district":{"key":"14627","name":"Meißen","type":"Landkreis"},"federalState":{"key":"14","name":"Sachsen"}},{"name":"Reichenbach","postalCode":"01665","locality":"Klipphausen","municipality":{"key":"14627100","name":"Klipphausen","type":"Kreisangehörige_Gemeinde"},"district":{"key":"14627","name":"Meißen","type":"Landkreis"},"federalState":{"key":"14","name":"Sachsen"}},{"name":"Reichenbacher Str.","postalCode":"01665","locality":"Klipphausen","municipality":{"key":"14627100","name":"Klipphausen","type":"Kreisangehörige_Gemeinde"},"district":{"key":"14627","name":"Meißen","type":"Landkreis"},"federalState":{"key":"14","name":"Sachsen"}},{"name":"Reichenbacher Weg","postalCode":"01665","locality":"Klipphausen","municipality":{"key":"14627100","name":"Klipphausen","type":"Kreisangehörige_Gemeinde"},"district":{"key":"14627","name":"Meißen","type":"Landkreis"},"federalState":{"key":"14","name":"Sachsen"}},{"name":"Ringstr.","postalCode":"01665","locality":"Klipphausen","municipality":{"key":"14627100","name":"Klipphausen","type":"Kreisangehörige_Gemeinde"},"district":{"key":"14627","name":"Meißen","type":"Landkreis"},"federalState":{"key":"14","name":"Sachsen"}},{"name":"Rittergut","postalCode":"01665","locality":"Klipphausen","municipality":{"key":"14627100","name":"Klipphausen","type":"Kreisangehörige_Gemeinde"},"district":{"key":"14627","name":"Meißen","type":"Landkreis"},"federalState":{"key":"14","name":"Sachsen"}},{"name":"Rittergutshof","postalCode":"01665","locality":"Klipphausen","municipality":{"key":"14627100","name":"Klipphausen","type":"Kreisangehörige_Gemeinde"},"district":{"key":"14627","name":"Meißen","type":"Landkreis"},"federalState":{"key":"14","name":"Sachsen"}},{"name":"Röhrsdorfer Str.","postalCode":"01665","locality":"Klipphausen","municipality":{"key":"14627100","name":"Klipphausen","type":"Kreisangehörige_Gemeinde"},"district":{"key":"14627","name":"Meißen","type":"Landkreis"},"federalState":{"key":"14","name":"Sachsen"}},{"name":"Roitzschwiese","postalCode":"01665","locality":"Klipphausen","municipality":{"key":"14627100","name":"Klipphausen","type":"Kreisangehörige_Gemeinde"},"district":{"key":"14627","name":"Meißen","type":"Landkreis"},"federalState":{"key":"14","name":"Sachsen"}},{"name":"Samariterweg","postalCode":"01665","locality":"Klipphausen","municipality":{"key":"14627100","name":"Klipphausen","type":"Kreisangehörige_Gemeinde"},"district":{"key":"14627","name":"Meißen","type":"Landkreis"},"federalState":{"key":"14","name":"Sachsen"}},{"name":"Saubachtal","postalCode":"01665","locality":"Klipphausen","municipality":{"key":"14627100","name":"Klipphausen","type":"Kreisangehörige_Gemeinde"},"district":{"key":"14627","name":"Meißen","type":"Landkreis"},"federalState":{"key":"14","name":"Sachsen"}},{"name":"Schachtberg","postalCode":"01665","locality":"Klipphausen","municipality":{"key":"14627100","name":"Klipphausen","type":"Kreisangehörige_Gemeinde"},"district":{"key":"14627","name":"Meißen","type":"Landkreis"},"federalState":{"key":"14","name":"Sachsen"}},{"name":"Schäferstr.","postalCode":"01665","locality":"Klipphausen","municipality":{"key":"14627100","name":"Klipphausen","type":"Kreisangehörige_Gemeinde"},"district":{"key":"14627","name":"Meißen","type":"Landkreis"},"federalState":{"key":"14","name":"Sachsen"}},{"name":"Scharfenberger Str.","postalCode":"01665","locality":"Klipphausen","municipality":{"key":"14627100","name":"Klipphausen","type":"Kreisangehörige_Gemeinde"},"district":{"key":"14627","name":"Meißen","type":"Landkreis"},"federalState":{"key":"14","name":"Sachsen"}},{"name":"Schenkberg","postalCode":"01665","locality":"Klipphausen","municipality":{"key":"14627100","name":"Klipphausen","type":"Kreisangehörige_Gemeinde"},"district":{"key":"14627","name":"Meißen","type":"Landkreis"},"federalState":{"key":"14","name":"Sachsen"}},{"name":"Schloßberg","postalCode":"01665","locality":"Klipphausen","municipality":{"key":"14627100","name":"Klipphausen","type":"Kreisangehörige_Gemeinde"},"district":{"key":"14627","name":"Meißen","type":"Landkreis"},"federalState":{"key":"14","name":"Sachsen"}},{"name":"Schloßgärtnerei","postalCode":"01665","locality":"Klipphausen","municipality":{"key":"14627100","name":"Klipphausen","type":"Kreisangehörige_Gemeinde"},"district":{"key":"14627","name":"Meißen","type":"Landkreis"},"federalState":{"key":"14","name":"Sachsen"}},{"name":"Schloßpark","postalCode":"01665","locality":"Klipphausen","municipality":{"key":"14627100","name":"Klipphausen","type":"Kreisangehörige_Gemeinde"},"district":{"key":"14627","name":"Meißen","type":"Landkreis"},"federalState":{"key":"14","name":"Sachsen"}},{"name":"Schlosspark Klipphausen","postalCode":"01665","locality":"Klipphausen","municipality":{"key":"14627100","name":"Klipphausen","type":"Kreisangehörige_Gemeinde"},"district":{"key":"14627","name":"Meißen","type":"Landkreis"},"federalState":{"key":"14","name":"Sachsen"}},{"name":"Schloßstr.","postalCode":"01665","locality":"Klipphausen","municipality":{"key":"14627100","name":"Klipphausen","type":"Kreisangehörige_Gemeinde"},"district":{"key":"14627","name":"Meißen","type":"Landkreis"},"federalState":{"key":"14","name":"Sachsen"}},{"name":"Schloßweg","postalCode":"01665","locality":"Klipphausen","municipality":{"key":"14627100","name":"Klipphausen","type":"Kreisangehörige_Gemeinde"},"district":{"key":"14627","name":"Meißen","type":"Landkreis"},"federalState":{"key":"14","name":"Sachsen"}},{"name":"Schmiedeberg","postalCode":"01665","locality":"Klipphausen","municipality":{"key":"14627100","name":"Klipphausen","type":"Kreisangehörige_Gemeinde"},"district":{"key":"14627","name":"Meißen","type":"Landkreis"},"federalState":{"key":"14","name":"Sachsen"}},{"name":"Schulstr.","postalCode":"01665","locality":"Klipphausen","municipality":{"key":"14627100","name":"Klipphausen","type":"Kreisangehörige_Gemeinde"},"district":{"key":"14627","name":"Meißen","type":"Landkreis"},"federalState":{"key":"14","name":"Sachsen"}},{"name":"Schulweg","postalCode":"01665","locality":"Klipphausen","municipality":{"key":"14627100","name":"Klipphausen","type":"Kreisangehörige_Gemeinde"},"district":{"key":"14627","name":"Meißen","type":"Landkreis"},"federalState":{"key":"14","name":"Sachsen"}},{"name":"Schützengasse","postalCode":"01665","locality":"Klipphausen","municipality":{"key":"14627100","name":"Klipphausen","type":"Kreisangehörige_Gemeinde"},"district":{"key":"14627","name":"Meißen","type":"Landkreis"},"federalState":{"key":"14","name":"Sachsen"}},{"name":"Schwabacher Str.","postalCode":"01665","locality":"Klipphausen","municipality":{"key":"14627100","name":"Klipphausen","type":"Kreisangehörige_Gemeinde"},"district":{"key":"14627","name":"Meißen","type":"Landkreis"},"federalState":{"key":"14","name":"Sachsen"}},{"name":"Seeligstädter Str.","postalCode":"01665","locality":"Klipphausen","municipality":{"key":"14627100","name":"Klipphausen","type":"Kreisangehörige_Gemeinde"},"district":{"key":"14627","name":"Meißen","type":"Landkreis"},"federalState":{"key":"14","name":"Sachsen"}},{"name":"Siedlerstr.","postalCode":"01665","locality":"Klipphausen","municipality":{"key":"14627100","name":"Klipphausen","type":"Kreisangehörige_Gemeinde"},"district":{"key":"14627","name":"Meißen","type":"Landkreis"},"federalState":{"key":"14","name":"Sachsen"}},{"name":"Siedlerweg","postalCode":"01665","locality":"Klipphausen","municipality":{"key":"14627100","name":"Klipphausen","type":"Kreisangehörige_Gemeinde"},"district":{"key":"14627","name":"Meißen","type":"Landkreis"},"federalState":{"key":"14","name":"Sachsen"}},{"name":"Siedlung","postalCode":"01665","locality":"Klipphausen","municipality":{"key":"14627100","name":"Klipphausen","type":"Kreisangehörige_Gemeinde"},"district":{"key":"14627","name":"Meißen","type":"Landkreis"},"federalState":{"key":"14","name":"Sachsen"}},{"name":"Silberstr.","postalCode":"01665","locality":"Klipphausen","municipality":{"key":"14627100","name":"Klipphausen","type":"Kreisangehörige_Gemeinde"},"district":{"key":"14627","name":"Meißen","type":"Landkreis"},"federalState":{"key":"14","name":"Sachsen"}},{"name":"Sönitz","postalCode":"01665","locality":"Klipphausen","municipality":{"key":"14627100","name":"Klipphausen","type":"Kreisangehörige_Gemeinde"},"district":{"key":"14627","name":"Meißen","type":"Landkreis"},"federalState":{"key":"14","name":"Sachsen"}},{"name":"Sönitzer Str.","postalCode":"01665","locality":"Klipphausen","municipality":{"key":"14627100","name":"Klipphausen","type":"Kreisangehörige_Gemeinde"},"district":{"key":"14627","name":"Meißen","type":"Landkreis"},"federalState":{"key":"14","name":"Sachsen"}},{"name":"Sonnenlehne","postalCode":"01665","locality":"Klipphausen","municipality":{"key":"14627100","name":"Klipphausen","type":"Kreisangehörige_Gemeinde"},"district":{"key":"14627","name":"Meißen","type":"Landkreis"},"federalState":{"key":"14","name":"Sachsen"}},{"name":"Sonnenrain","postalCode":"01665","locality":"Klipphausen","municipality":{"key":"14627100","name":"Klipphausen","type":"Kreisangehörige_Gemeinde"},"district":{"key":"14627","name":"Meißen","type":"Landkreis"},"federalState":{"key":"14","name":"Sachsen"}},{"name":"Soraer Str.","postalCode":"01665","locality":"Klipphausen","municipality":{"key":"14627100","name":"Klipphausen","type":"Kreisangehörige_Gemeinde"},"district":{"key":"14627","name":"Meißen","type":"Landkreis"},"federalState":{"key":"14","name":"Sachsen"}},{"name":"Spittewitz","postalCode":"01665","locality":"Klipphausen","municipality":{"key":"14627100","name":"Klipphausen","type":"Kreisangehörige_Gemeinde"},"district":{"key":"14627","name":"Meißen","type":"Landkreis"},"federalState":{"key":"14","name":"Sachsen"}},{"name":"Spittewitzer Weg","postalCode":"01665","locality":"Klipphausen","municipality":{"key":"14627100","name":"Klipphausen","type":"Kreisangehörige_Gemeinde"},"district":{"key":"14627","name":"Meißen","type":"Landkreis"},"federalState":{"key":"14","name":"Sachsen"}},{"name":"Spitzweg","postalCode":"01665","locality":"Klipphausen","municipality":{"key":"14627100","name":"Klipphausen","type":"Kreisangehörige_Gemeinde"},"district":{"key":"14627","name":"Meißen","type":"Landkreis"},"federalState":{"key":"14","name":"Sachsen"}},{"name":"Sportplatzweg","postalCode":"01665","locality":"Klipphausen","municipality":{"key":"14627100","name":"Klipphausen","type":"Kreisangehörige_Gemeinde"},"district":{"key":"14627","name":"Meißen","type":"Landkreis"},"federalState":{"key":"14","name":"Sachsen"}},{"name":"Stadtweg","postalCode":"01665","locality":"Klipphausen","municipality":{"key":"14627100","name":"Klipphausen","type":"Kreisangehörige_Gemeinde"},"district":{"key":"14627","name":"Meißen","type":"Landkreis"},"federalState":{"key":"14","name":"Sachsen"}},{"name":"Steinsgasse","postalCode":"01665","locality":"Klipphausen","municipality":{"key":"14627100","name":"Klipphausen","type":"Kreisangehörige_Gemeinde"},"district":{"key":"14627","name":"Meißen","type":"Landkreis"},"federalState":{"key":"14","name":"Sachsen"}},{"name":"Talblick","postalCode":"01665","locality":"Klipphausen","municipality":{"key":"14627100","name":"Klipphausen","type":"Kreisangehörige_Gemeinde"},"district":{"key":"14627","name":"Meißen","type":"Landkreis"},"federalState":{"key":"14","name":"Sachsen"}},{"name":"Talstr.","postalCode":"01665","locality":"Klipphausen","municipality":{"key":"14627100","name":"Klipphausen","type":"Kreisangehörige_Gemeinde"},"district":{"key":"14627","name":"Meißen","type":"Landkreis"},"federalState":{"key":"14","name":"Sachsen"}},{"name":"Talweg","postalCode":"01665","locality":"Klipphausen","municipality":{"key":"14627100","name":"Klipphausen","type":"Kreisangehörige_Gemeinde"},"district":{"key":"14627","name":"Meißen","type":"Landkreis"},"federalState":{"key":"14","name":"Sachsen"}},{"name":"Tanneberger Str.","postalCode":"01665","locality":"Klipphausen","municipality":{"key":"14627100","name":"Klipphausen","type":"Kreisangehörige_Gemeinde"},"district":{"key":"14627","name":"Meißen","type":"Landkreis"},"federalState":{"key":"14","name":"Sachsen"}},{"name":"Tännichtbachstr.","postalCode":"01665","locality":"Klipphausen","municipality":{"key":"14627100","name":"Klipphausen","type":"Kreisangehörige_Gemeinde"},"district":{"key":"14627","name":"Meißen","type":"Landkreis"},"federalState":{"key":"14","name":"Sachsen"}},{"name":"Taubenheimer Str.","postalCode":"01665","locality":"Klipphausen","municipality":{"key":"14627100","name":"Klipphausen","type":"Kreisangehörige_Gemeinde"},"district":{"key":"14627","name":"Meißen","type":"Landkreis"},"federalState":{"key":"14","name":"Sachsen"}},{"name":"Teichweg","postalCode":"01665","locality":"Klipphausen","municipality":{"key":"14627100","name":"Klipphausen","type":"Kreisangehörige_Gemeinde"},"district":{"key":"14627","name":"Meißen","type":"Landkreis"},"federalState":{"key":"14","name":"Sachsen"}},{"name":"Tonweg","postalCode":"01665","locality":"Klipphausen","municipality":{"key":"14627100","name":"Klipphausen","type":"Kreisangehörige_Gemeinde"},"district":{"key":"14627","name":"Meißen","type":"Landkreis"},"federalState":{"key":"14","name":"Sachsen"}},{"name":"Treue Hilfe","postalCode":"01665","locality":"Klipphausen","municipality":{"key":"14627100","name":"Klipphausen","type":"Kreisangehörige_Gemeinde"},"district":{"key":"14627","name":"Meißen","type":"Landkreis"},"federalState":{"key":"14","name":"Sachsen"}},{"name":"Triebischtalstr.","postalCode":"01665","locality":"Klipphausen","municipality":{"key":"14627100","name":"Klipphausen","type":"Kreisangehörige_Gemeinde"},"district":{"key":"14627","name":"Meißen","type":"Landkreis"},"federalState":{"key":"14","name":"Sachsen"}},{"name":"Ullendorfer Str.","postalCode":"01665","locality":"Klipphausen","municipality":{"key":"14627100","name":"Klipphausen","type":"Kreisangehörige_Gemeinde"},"district":{"key":"14627","name":"Meißen","type":"Landkreis"},"federalState":{"key":"14","name":"Sachsen"}},{"name":"Unkersdorfer Weg","postalCode":"01665","locality":"Klipphausen","municipality":{"key":"14627100","name":"Klipphausen","type":"Kreisangehörige_Gemeinde"},"district":{"key":"14627","name":"Meißen","type":"Landkreis"},"federalState":{"key":"14","name":"Sachsen"}},{"name":"Vorbrücker Str.","postalCode":"01662","locality":"Meißen","municipality":{"key":"14627140","name":"Meißen, Stadt","type":"Stadt"},"district":{"key":"14627","name":"Meißen","type":"Landkreis"},"federalState":{"key":"14","name":"Sachsen"}},{"name":"Weistropper Str.","postalCode":"01665","locality":"Klipphausen","municipality":{"key":"14627100","name":"Klipphausen","type":"Kreisangehörige_Gemeinde"},"district":{"key":"14627","name":"Meißen","type":"Landkreis"},"federalState":{"key":"14","name":"Sachsen"}},{"name":"Wiesengrund","postalCode":"01665","locality":"Klipphausen","municipality":{"key":"14627100","name":"Klipphausen","type":"Kreisangehörige_Gemeinde"},"district":{"key":"14627","name":"Meißen","type":"Landkreis"},"federalState":{"key":"14","name":"Sachsen"}},{"name":"Wiesenweg","postalCode":"01665","locality":"Klipphausen","municipality":{"key":"14627100","name":"Klipphausen","type":"Kreisangehörige_Gemeinde"},"district":{"key":"14627","name":"Meißen","type":"Landkreis"},"federalState":{"key":"14","name":"Sachsen"}},{"name":"Wildberger Str.","postalCode":"01665","locality":"Klipphausen","municipality":{"key":"14627100","name":"Klipphausen","type":"Kreisangehörige_Gemeinde"},"district":{"key":"14627","name":"Meißen","type":"Landkreis"},"federalState":{"key":"14","name":"Sachsen"}},{"name":"Wilsdruffer Chaussee","postalCode":"01665","locality":"Klipphausen","municipality":{"key":"14627100","name":"Klipphausen","type":"Kreisangehörige_Gemeinde"},"district":{"key":"14627","name":"Meißen","type":"Landkreis"},"federalState":{"key":"14","name":"Sachsen"}},{"name":"Wilsdruffer Str.","postalCode":"01665","locality":"Klipphausen","municipality":{"key":"14627100","name":"Klipphausen","type":"Kreisangehörige_Gemeinde"},"district":{"key":"14627","name":"Meißen","type":"Landkreis"},"federalState":{"key":"14","name":"Sachsen"}},{"name":"Windmühlenweg","postalCode":"01665","locality":"Klipphausen","municipality":{"key":"14627100","name":"Klipphausen","type":"Kreisangehörige_Gemeinde"},"district":{"key":"14627","name":"Meißen","type":"Landkreis"},"federalState":{"key":"14","name":"Sachsen"}},{"name":"Winkelwiese","postalCode":"01665","locality":"Klipphausen","municipality":{"key":"14627100","name":"Klipphausen","type":"Kreisangehörige_Gemeinde"},"district":{"key":"14627","name":"Meißen","type":"Landkreis"},"federalState":{"key":"14","name":"Sachsen"}},{"name":"Winzerweg","postalCode":"01665","locality":"Klipphausen","municipality":{"key":"14627100","name":"Klipphausen","type":"Kreisangehörige_Gemeinde"},"district":{"key":"14627","name":"Meißen","type":"Landkreis"},"federalState":{"key":"14","name":"Sachsen"}},{"name":"Wirtschaftsweg","postalCode":"01665","locality":"Klipphausen","municipality":{"key":"14627100","name":"Klipphausen","type":"Kreisangehörige_Gemeinde"},"district":{"key":"14627","name":"Meißen","type":"Landkreis"},"federalState":{"key":"14","name":"Sachsen"}},{"name":"Wolfsteiche","postalCode":"01665","locality":"Klipphausen","municipality":{"key":"14627100","name":"Klipphausen","type":"Kreisangehörige_Gemeinde"},"district":{"key":"14627","name":"Meißen","type":"Landkreis"},"federalState":{"key":"14","name":"Sachsen"}},{"name":"Zechenfeld","postalCode":"01665","locality":"Klipphausen","municipality":{"key":"14627100","name":"Klipphausen","type":"Kreisangehörige_Gemeinde"},"district":{"key":"14627","name":"Meißen","type":"Landkreis"},"federalState":{"key":"14","name":"Sachsen"}},{"name":"Zeppelinstr.","postalCode":"01665","locality":"Klipphausen","municipality":{"key":"14627100","name":"Klipphausen","type":"Kreisangehörige_Gemeinde"},"district":{"key":"14627","name":"Meißen","type":"Landkreis"},"federalState":{"key":"14","name":"Sachsen"}},{"name":"Zu den Linden","postalCode":"01665","locality":"Klipphausen","municipality":{"key":"14627100","name":"Klipphausen","type":"Kreisangehörige_Gemeinde"},"district":{"key":"14627","name":"Meißen","type":"Landkreis"},"federalState":{"key":"14","name":"Sachsen"}},{"name":"Zum Elbschlößchen","postalCode":"01665","locality":"Klipphausen","municipality":{"key":"14627100","name":"Klipphausen","type":"Kreisangehörige_Gemeinde"},"district":{"key":"14627","name":"Meißen","type":"Landkreis"},"federalState":{"key":"14","name":"Sachsen"}},{"name":"Zum Fürstenbusch","postalCode":"01665","locality":"Klipphausen","municipality":{"key":"14627100","name":"Klipphausen","type":"Kreisangehörige_Gemeinde"},"district":{"key":"14627","name":"Meißen","type":"Landkreis"},"federalState":{"key":"14","name":"Sachsen"}},{"name":"Zum Galgenberg","postalCode":"01665","locality":"Klipphausen","municipality":{"key":"14627100","name":"Klipphausen","type":"Kreisangehörige_Gemeinde"},"district":{"key":"14627","name":"Meißen","type":"Landkreis"},"federalState":{"key":"14","name":"Sachsen"}},{"name":"Zum Harthsgrund","postalCode":"01665","locality":"Klipphausen","municipality":{"key":"14627100","name":"Klipphausen","type":"Kreisangehörige_Gemeinde"},"district":{"key":"14627","name":"Meißen","type":"Landkreis"},"federalState":{"key":"14","name":"Sachsen"}},{"name":"Zum Hinterwinkel","postalCode":"01665","locality":"Klipphausen","municipality":{"key":"14627100","name":"Klipphausen","type":"Kreisangehörige_Gemeinde"},"district":{"key":"14627","name":"Meißen","type":"Landkreis"},"federalState":{"key":"14","name":"Sachsen"}},{"name":"Zum Kalkwerk","postalCode":"01665","locality":"Klipphausen","municipality":{"key":"14627100","name":"Klipphausen","type":"Kreisangehörige_Gemeinde"},"district":{"key":"14627","name":"Meißen","type":"Landkreis"},"federalState":{"key":"14","name":"Sachsen"}},{"name":"Zum Lindenhof","postalCode":"01665","locality":"Klipphausen","municipality":{"key":"14627100","name":"Klipphausen","type":"Kreisangehörige_Gemeinde"},"district":{"key":"14627","name":"Meißen","type":"Landkreis"},"federalState":{"key":"14","name":"Sachsen"}},{"name":"Zum Pinzigberg","postalCode":"01665","locality":"Klipphausen","municipality":{"key":"14627100","name":"Klipphausen","type":"Kreisangehörige_Gemeinde"},"district":{"key":"14627","name":"Meißen","type":"Landkreis"},"federalState":{"key":"14","name":"Sachsen"}},{"name":"Zum Rittergut","postalCode":"01665","locality":"Klipphausen","municipality":{"key":"14627100","name":"Klipphausen","type":"Kreisangehörige_Gemeinde"},"district":{"key":"14627","name":"Meißen","type":"Landkreis"},"federalState":{"key":"14","name":"Sachsen"}},{"name":"Zum Sportplatz","postalCode":"01665","locality":"Klipphausen","municipality":{"key":"14627100","name":"Klipphausen","type":"Kreisangehörige_Gemeinde"},"district":{"key":"14627","name":"Meißen","type":"Landkreis"},"federalState":{"key":"14","name":"Sachsen"}},{"name":"Zur Alten Schule","postalCode":"01665","locality":"Klipphausen","municipality":{"key":"14627100","name":"Klipphausen","type":"Kreisangehörige_Gemeinde"},"district":{"key":"14627","name":"Meißen","type":"Landkreis"},"federalState":{"key":"14","name":"Sachsen"}},{"name":"Zur Baeyerhöhe","postalCode":"01665","locality":"Klipphausen","municipality":{"key":"14627100","name":"Klipphausen","type":"Kreisangehörige_Gemeinde"},"district":{"key":"14627","name":"Meißen","type":"Landkreis"},"federalState":{"key":"14","name":"Sachsen"}},{"name":"Zur Grumbtwiese","postalCode":"01665","locality":"Klipphausen","municipality":{"key":"14627100","name":"Klipphausen","type":"Kreisangehörige_Gemeinde"},"district":{"key":"14627","name":"Meißen","type":"Landkreis"},"federalState":{"key":"14","name":"Sachsen"}},{"name":"Zur Halben Hufe","postalCode":"01665","locality":"Klipphausen","municipality":{"key":"14627100","name":"Klipphausen","type":"Kreisangehörige_Gemeinde"},"district":{"key":"14627","name":"Meißen","type":"Landkreis"},"federalState":{"key":"14","name":"Sachsen"}},{"name":"Zur Kirche","postalCode":"01665","locality":"Klipphausen","municipality":{"key":"14627100","name":"Klipphausen","type":"Kreisangehörige_Gemeinde"},"district":{"key":"14627","name":"Meißen","type":"Landkreis"},"federalState":{"key":"14","name":"Sachsen"}},{"name":"Zur Kleinen Triebisch","postalCode":"01665","locality":"Klipphausen","municipality":{"key":"14627100","name":"Klipphausen","type":"Kreisangehörige_Gemeinde"},"district":{"key":"14627","name":"Meißen","type":"Landkreis"},"federalState":{"key":"14","name":"Sachsen"}},{"name":"Zur Langen Leite","postalCode":"01665","locality":"Klipphausen","municipality":{"key":"14627100","name":"Klipphausen","type":"Kreisangehörige_Gemeinde"},"district":{"key":"14627","name":"Meißen","type":"Landkreis"},"federalState":{"key":"14","name":"Sachsen"}},{"name":"Zur Osterquelle","postalCode":"01665","locality":"Klipphausen","municipality":{"key":"14627100","name":"Klipphausen","type":"Kreisangehörige_Gemeinde"},"district":{"key":"14627","name":"Meißen","type":"Landkreis"},"federalState":{"key":"14","name":"Sachsen"}},{"name":"Älterstr.","postalCode":"77974","locality":"Meißenheim","municipality":{"key":"08317075","name":"Meißenheim","type":"Kreisangehörige_Gemeinde"},"district":{"key":"08317","name":"Ortenaukreis","type":"Landkreis"},"federalState":{"key":"08","name":"Baden-Württemberg"}},]