[{"name":"Am Bahnhof","postalCode":"15295","locality":"Ziltendorf","municipality":{"key":"12067552","name":"Ziltendorf","type":"Kreisangehörige_Gemeinde"},"district":{"key":"12067","name":"Oder-Spree","type":"Landkreis"},"federalState":{"key":"12","name":"Brandenburg"}},{"name":"Am Fließ","postalCode":"15295","locality":"Ziltendorf","municipality":{"key":"12067552","name":"Ziltendorf","type":"Kreisangehörige_Gemeinde"},"district":{"key":"12067","name":"Oder-Spree","type":"Landkreis"},"federalState":{"key":"12","name":"Brandenburg"}},{"name":"Am Sandberg","postalCode":"15295","locality":"Ziltendorf","municipality":{"key":"12067552","name":"Ziltendorf","type":"Kreisangehörige_Gemeinde"},"district":{"key":"12067","name":"Oder-Spree","type":"Landkreis"},"federalState":{"key":"12","name":"Brandenburg"}},{"name":"Auenblick","postalCode":"15295","locality":"Ziltendorf","municipality":{"key":"12067552","name":"Ziltendorf","type":"Kreisangehörige_Gemeinde"},"district":{"key":"12067","name":"Oder-Spree","type":"Landkreis"},"federalState":{"key":"12","name":"Brandenburg"}},{"name":"Bahnhofstr.","postalCode":"15295","locality":"Ziltendorf","municipality":{"key":"12067552","name":"Ziltendorf","type":"Kreisangehörige_Gemeinde"},"district":{"key":"12067","name":"Oder-Spree","type":"Landkreis"},"federalState":{"key":"12","name":"Brandenburg"}},{"name":"Bergstr.","postalCode":"15295","locality":"Ziltendorf","municipality":{"key":"12067552","name":"Ziltendorf","type":"Kreisangehörige_Gemeinde"},"district":{"key":"12067","name":"Oder-Spree","type":"Landkreis"},"federalState":{"key":"12","name":"Brandenburg"}},{"name":"Dorfstr.","postalCode":"15295","locality":"Ziltendorf","municipality":{"key":"12067552","name":"Ziltendorf","type":"Kreisangehörige_Gemeinde"},"district":{"key":"12067","name":"Oder-Spree","type":"Landkreis"},"federalState":{"key":"12","name":"Brandenburg"}},{"name":"Feldstr.","postalCode":"15295","locality":"Ziltendorf","municipality":{"key":"12067552","name":"Ziltendorf","type":"Kreisangehörige_Gemeinde"},"district":{"key":"12067","name":"Oder-Spree","type":"Landkreis"},"federalState":{"key":"12","name":"Brandenburg"}},{"name":"Frankfurter Str.","postalCode":"15295","locality":"Ziltendorf","municipality":{"key":"12067552","name":"Ziltendorf","type":"Kreisangehörige_Gemeinde"},"district":{"key":"12067","name":"Oder-Spree","type":"Landkreis"},"federalState":{"key":"12","name":"Brandenburg"}},{"name":"Gärtenstr.","postalCode":"15295","locality":"Ziltendorf","municipality":{"key":"12067552","name":"Ziltendorf","type":"Kreisangehörige_Gemeinde"},"district":{"key":"12067","name":"Oder-Spree","type":"Landkreis"},"federalState":{"key":"12","name":"Brandenburg"}},{"name":"Gärtnerstr.","postalCode":"15295","locality":"Ziltendorf","municipality":{"key":"12067552","name":"Ziltendorf","type":"Kreisangehörige_Gemeinde"},"district":{"key":"12067","name":"Oder-Spree","type":"Landkreis"},"federalState":{"key":"12","name":"Brandenburg"}},{"name":"Gewerbegebiet Kiesberg","postalCode":"15295","locality":"Ziltendorf","municipality":{"key":"12067552","name":"Ziltendorf","type":"Kreisangehörige_Gemeinde"},"district":{"key":"12067","name":"Oder-Spree","type":"Landkreis"},"federalState":{"key":"12","name":"Brandenburg"}},{"name":"Gorreweg","postalCode":"15295","locality":"Ziltendorf","municipality":{"key":"12067552","name":"Ziltendorf","type":"Kreisangehörige_Gemeinde"},"district":{"key":"12067","name":"Oder-Spree","type":"Landkreis"},"federalState":{"key":"12","name":"Brandenburg"}},{"name":"Grüner Weg","postalCode":"15295","locality":"Ziltendorf","municipality":{"key":"12067552","name":"Ziltendorf","type":"Kreisangehörige_Gemeinde"},"district":{"key":"12067","name":"Oder-Spree","type":"Landkreis"},"federalState":{"key":"12","name":"Brandenburg"}},{"name":"Gubener Str.","postalCode":"15295","locality":"Ziltendorf","municipality":{"key":"12067552","name":"Ziltendorf","type":"Kreisangehörige_Gemeinde"},"district":{"key":"12067","name":"Oder-Spree","type":"Landkreis"},"federalState":{"key":"12","name":"Brandenburg"}},{"name":"Heuweg","postalCode":"15295","locality":"Ziltendorf","municipality":{"key":"12067552","name":"Ziltendorf","type":"Kreisangehörige_Gemeinde"},"district":{"key":"12067","name":"Oder-Spree","type":"Landkreis"},"federalState":{"key":"12","name":"Brandenburg"}},{"name":"Kiefernweg","postalCode":"15295","locality":"Ziltendorf","municipality":{"key":"12067552","name":"Ziltendorf","type":"Kreisangehörige_Gemeinde"},"district":{"key":"12067","name":"Oder-Spree","type":"Landkreis"},"federalState":{"key":"12","name":"Brandenburg"}},{"name":"Kiesweg","postalCode":"15295","locality":"Ziltendorf","municipality":{"key":"12067552","name":"Ziltendorf","type":"Kreisangehörige_Gemeinde"},"district":{"key":"12067","name":"Oder-Spree","type":"Landkreis"},"federalState":{"key":"12","name":"Brandenburg"}},{"name":"Kirchstr.","postalCode":"15295","locality":"Ziltendorf","municipality":{"key":"12067552","name":"Ziltendorf","type":"Kreisangehörige_Gemeinde"},"district":{"key":"12067","name":"Oder-Spree","type":"Landkreis"},"federalState":{"key":"12","name":"Brandenburg"}},{"name":"Klosterweg","postalCode":"15295","locality":"Ziltendorf","municipality":{"key":"12067552","name":"Ziltendorf","type":"Kreisangehörige_Gemeinde"},"district":{"key":"12067","name":"Oder-Spree","type":"Landkreis"},"federalState":{"key":"12","name":"Brandenburg"}},{"name":"Lindenstr.","postalCode":"15295","locality":"Ziltendorf","municipality":{"key":"12067552","name":"Ziltendorf","type":"Kreisangehörige_Gemeinde"},"district":{"key":"12067","name":"Oder-Spree","type":"Landkreis"},"federalState":{"key":"12","name":"Brandenburg"}},{"name":"Lindower Str.","postalCode":"15295","locality":"Ziltendorf","municipality":{"key":"12067552","name":"Ziltendorf","type":"Kreisangehörige_Gemeinde"},"district":{"key":"12067","name":"Oder-Spree","type":"Landkreis"},"federalState":{"key":"12","name":"Brandenburg"}},{"name":"Mittelstr.","postalCode":"15295","locality":"Ziltendorf","municipality":{"key":"12067552","name":"Ziltendorf","type":"Kreisangehörige_Gemeinde"},"district":{"key":"12067","name":"Oder-Spree","type":"Landkreis"},"federalState":{"key":"12","name":"Brandenburg"}},{"name":"Mühlenweg","postalCode":"15295","locality":"Ziltendorf","municipality":{"key":"12067552","name":"Ziltendorf","type":"Kreisangehörige_Gemeinde"},"district":{"key":"12067","name":"Oder-Spree","type":"Landkreis"},"federalState":{"key":"12","name":"Brandenburg"}},{"name":"Müllroser Str.","postalCode":"15295","locality":"Ziltendorf","municipality":{"key":"12067552","name":"Ziltendorf","type":"Kreisangehörige_Gemeinde"},"district":{"key":"12067","name":"Oder-Spree","type":"Landkreis"},"federalState":{"key":"12","name":"Brandenburg"}},{"name":"Neue Str.","postalCode":"15295","locality":"Ziltendorf","municipality":{"key":"12067552","name":"Ziltendorf","type":"Kreisangehörige_Gemeinde"},"district":{"key":"12067","name":"Oder-Spree","type":"Landkreis"},"federalState":{"key":"12","name":"Brandenburg"}},{"name":"Oderstr.","postalCode":"15295","locality":"Ziltendorf","municipality":{"key":"12067552","name":"Ziltendorf","type":"Kreisangehörige_Gemeinde"},"district":{"key":"12067","name":"Oder-Spree","type":"Landkreis"},"federalState":{"key":"12","name":"Brandenburg"}},{"name":"Parkstr.","postalCode":"15295","locality":"Ziltendorf","municipality":{"key":"12067552","name":"Ziltendorf","type":"Kreisangehörige_Gemeinde"},"district":{"key":"12067","name":"Oder-Spree","type":"Landkreis"},"federalState":{"key":"12","name":"Brandenburg"}},{"name":"Pfarrgasse","postalCode":"15295","locality":"Ziltendorf","municipality":{"key":"12067552","name":"Ziltendorf","type":"Kreisangehörige_Gemeinde"},"district":{"key":"12067","name":"Oder-Spree","type":"Landkreis"},"federalState":{"key":"12","name":"Brandenburg"}},{"name":"Sägewerkweg","postalCode":"15295","locality":"Ziltendorf","municipality":{"key":"12067552","name":"Ziltendorf","type":"Kreisangehörige_Gemeinde"},"district":{"key":"12067","name":"Oder-Spree","type":"Landkreis"},"federalState":{"key":"12","name":"Brandenburg"}},{"name":"Schulstr.","postalCode":"15295","locality":"Ziltendorf","municipality":{"key":"12067552","name":"Ziltendorf","type":"Kreisangehörige_Gemeinde"},"district":{"key":"12067","name":"Oder-Spree","type":"Landkreis"},"federalState":{"key":"12","name":"Brandenburg"}},{"name":"Siedlerstr.","postalCode":"15295","locality":"Ziltendorf","municipality":{"key":"12067552","name":"Ziltendorf","type":"Kreisangehörige_Gemeinde"},"district":{"key":"12067","name":"Oder-Spree","type":"Landkreis"},"federalState":{"key":"12","name":"Brandenburg"}},{"name":"Uferstr.","postalCode":"15295","locality":"Ziltendorf","municipality":{"key":"12067552","name":"Ziltendorf","type":"Kreisangehörige_Gemeinde"},"district":{"key":"12067","name":"Oder-Spree","type":"Landkreis"},"federalState":{"key":"12","name":"Brandenburg"}},{"name":"Waldweg","postalCode":"15295","locality":"Ziltendorf","municipality":{"key":"12067552","name":"Ziltendorf","type":"Kreisangehörige_Gemeinde"},"district":{"key":"12067","name":"Oder-Spree","type":"Landkreis"},"federalState":{"key":"12","name":"Brandenburg"}},{"name":"Weinbergstr.","postalCode":"15295","locality":"Ziltendorf","municipality":{"key":"12067552","name":"Ziltendorf","type":"Kreisangehörige_Gemeinde"},"district":{"key":"12067","name":"Oder-Spree","type":"Landkreis"},"federalState":{"key":"12","name":"Brandenburg"}},{"name":"Wiesenauer Str.","postalCode":"15295","locality":"Ziltendorf","municipality":{"key":"12067552","name":"Ziltendorf","type":"Kreisangehörige_Gemeinde"},"district":{"key":"12067","name":"Oder-Spree","type":"Landkreis"},"federalState":{"key":"12","name":"Brandenburg"}},{"name":"Zum Waldsee","postalCode":"15295","locality":"Ziltendorf","municipality":{"key":"12067552","name":"Ziltendorf","type":"Kreisangehörige_Gemeinde"},"district":{"key":"12067","name":"Oder-Spree","type":"Landkreis"},"federalState":{"key":"12","name":"Brandenburg"}},{"name":"Zur Aue","postalCode":"15295","locality":"Ziltendorf","municipality":{"key":"12067552","name":"Ziltendorf","type":"Kreisangehörige_Gemeinde"},"district":{"key":"12067","name":"Oder-Spree","type":"Landkreis"},"federalState":{"key":"12","name":"Brandenburg"}},]