[{"name":"Am Knüllen","postalCode":"23881","locality":"Breitenfelde","municipality":{"key":"01053014","name":"Breitenfelde","type":"Kreisangehörige_Gemeinde"},"district":{"key":"01053","name":"Herzogtum Lauenburg","type":"Kreis"},"federalState":{"key":"01","name":"Schleswig-Holstein"}},{"name":"Amselweg","postalCode":"23881","locality":"Breitenfelde","municipality":{"key":"01053014","name":"Breitenfelde","type":"Kreisangehörige_Gemeinde"},"district":{"key":"01053","name":"Herzogtum Lauenburg","type":"Kreis"},"federalState":{"key":"01","name":"Schleswig-Holstein"}},{"name":"Am Sportplatz","postalCode":"23881","locality":"Breitenfelde","municipality":{"key":"01053014","name":"Breitenfelde","type":"Kreisangehörige_Gemeinde"},"district":{"key":"01053","name":"Herzogtum Lauenburg","type":"Kreis"},"federalState":{"key":"01","name":"Schleswig-Holstein"}},{"name":"Am Teich","postalCode":"23881","locality":"Breitenfelde","municipality":{"key":"01053014","name":"Breitenfelde","type":"Kreisangehörige_Gemeinde"},"district":{"key":"01053","name":"Herzogtum Lauenburg","type":"Kreis"},"federalState":{"key":"01","name":"Schleswig-Holstein"}},{"name":"Bergkoppel","postalCode":"23881","locality":"Breitenfelde","municipality":{"key":"01053014","name":"Breitenfelde","type":"Kreisangehörige_Gemeinde"},"district":{"key":"01053","name":"Herzogtum Lauenburg","type":"Kreis"},"federalState":{"key":"01","name":"Schleswig-Holstein"}},{"name":"Borstorfer Str.","postalCode":"23881","locality":"Breitenfelde","municipality":{"key":"01053014","name":"Breitenfelde","type":"Kreisangehörige_Gemeinde"},"district":{"key":"01053","name":"Herzogtum Lauenburg","type":"Kreis"},"federalState":{"key":"01","name":"Schleswig-Holstein"}},{"name":"Bundesstr.","postalCode":"23881","locality":"Breitenfelde","municipality":{"key":"01053014","name":"Breitenfelde","type":"Kreisangehörige_Gemeinde"},"district":{"key":"01053","name":"Herzogtum Lauenburg","type":"Kreis"},"federalState":{"key":"01","name":"Schleswig-Holstein"}},{"name":"Dorfstr.","postalCode":"23881","locality":"Breitenfelde","municipality":{"key":"01053014","name":"Breitenfelde","type":"Kreisangehörige_Gemeinde"},"district":{"key":"01053","name":"Herzogtum Lauenburg","type":"Kreis"},"federalState":{"key":"01","name":"Schleswig-Holstein"}},{"name":"Fasanenhof","postalCode":"23881","locality":"Breitenfelde","municipality":{"key":"01053014","name":"Breitenfelde","type":"Kreisangehörige_Gemeinde"},"district":{"key":"01053","name":"Herzogtum Lauenburg","type":"Kreis"},"federalState":{"key":"01","name":"Schleswig-Holstein"}},{"name":"Grüner Weg","postalCode":"23881","locality":"Breitenfelde","municipality":{"key":"01053014","name":"Breitenfelde","type":"Kreisangehörige_Gemeinde"},"district":{"key":"01053","name":"Herzogtum Lauenburg","type":"Kreis"},"federalState":{"key":"01","name":"Schleswig-Holstein"}},{"name":"Hermann-Harms-Weg","postalCode":"23881","locality":"Breitenfelde","municipality":{"key":"01053014","name":"Breitenfelde","type":"Kreisangehörige_Gemeinde"},"district":{"key":"01053","name":"Herzogtum Lauenburg","type":"Kreis"},"federalState":{"key":"01","name":"Schleswig-Holstein"}},{"name":"Herrenstr.","postalCode":"23881","locality":"Breitenfelde","municipality":{"key":"01053014","name":"Breitenfelde","type":"Kreisangehörige_Gemeinde"},"district":{"key":"01053","name":"Herzogtum Lauenburg","type":"Kreis"},"federalState":{"key":"01","name":"Schleswig-Holstein"}},{"name":"Hökerweg","postalCode":"23881","locality":"Breitenfelde","municipality":{"key":"01053014","name":"Breitenfelde","type":"Kreisangehörige_Gemeinde"},"district":{"key":"01053","name":"Herzogtum Lauenburg","type":"Kreis"},"federalState":{"key":"01","name":"Schleswig-Holstein"}},{"name":"Kranichweg","postalCode":"23881","locality":"Breitenfelde","municipality":{"key":"01053014","name":"Breitenfelde","type":"Kreisangehörige_Gemeinde"},"district":{"key":"01053","name":"Herzogtum Lauenburg","type":"Kreis"},"federalState":{"key":"01","name":"Schleswig-Holstein"}},{"name":"Kuckucksredder","postalCode":"23881","locality":"Breitenfelde","municipality":{"key":"01053014","name":"Breitenfelde","type":"Kreisangehörige_Gemeinde"},"district":{"key":"01053","name":"Herzogtum Lauenburg","type":"Kreis"},"federalState":{"key":"01","name":"Schleswig-Holstein"}},{"name":"Lehmkuhlenweg","postalCode":"23881","locality":"Breitenfelde","municipality":{"key":"01053014","name":"Breitenfelde","type":"Kreisangehörige_Gemeinde"},"district":{"key":"01053","name":"Herzogtum Lauenburg","type":"Kreis"},"federalState":{"key":"01","name":"Schleswig-Holstein"}},{"name":"Lerchenweg","postalCode":"23881","locality":"Breitenfelde","municipality":{"key":"01053014","name":"Breitenfelde","type":"Kreisangehörige_Gemeinde"},"district":{"key":"01053","name":"Herzogtum Lauenburg","type":"Kreis"},"federalState":{"key":"01","name":"Schleswig-Holstein"}},{"name":"Luckesberg","postalCode":"23881","locality":"Breitenfelde","municipality":{"key":"01053014","name":"Breitenfelde","type":"Kreisangehörige_Gemeinde"},"district":{"key":"01053","name":"Herzogtum Lauenburg","type":"Kreis"},"federalState":{"key":"01","name":"Schleswig-Holstein"}},{"name":"Meiereiweg","postalCode":"23881","locality":"Breitenfelde","municipality":{"key":"01053014","name":"Breitenfelde","type":"Kreisangehörige_Gemeinde"},"district":{"key":"01053","name":"Herzogtum Lauenburg","type":"Kreis"},"federalState":{"key":"01","name":"Schleswig-Holstein"}},{"name":"Möllner Eck","postalCode":"23881","locality":"Breitenfelde","municipality":{"key":"01053014","name":"Breitenfelde","type":"Kreisangehörige_Gemeinde"},"district":{"key":"01053","name":"Herzogtum Lauenburg","type":"Kreis"},"federalState":{"key":"01","name":"Schleswig-Holstein"}},{"name":"Mühlenweg","postalCode":"23881","locality":"Breitenfelde","municipality":{"key":"01053014","name":"Breitenfelde","type":"Kreisangehörige_Gemeinde"},"district":{"key":"01053","name":"Herzogtum Lauenburg","type":"Kreis"},"federalState":{"key":"01","name":"Schleswig-Holstein"}},{"name":"Neuenlande","postalCode":"23881","locality":"Breitenfelde","municipality":{"key":"01053014","name":"Breitenfelde","type":"Kreisangehörige_Gemeinde"},"district":{"key":"01053","name":"Herzogtum Lauenburg","type":"Kreis"},"federalState":{"key":"01","name":"Schleswig-Holstein"}},{"name":"Niedermühle","postalCode":"23881","locality":"Breitenfelde","municipality":{"key":"01053014","name":"Breitenfelde","type":"Kreisangehörige_Gemeinde"},"district":{"key":"01053","name":"Herzogtum Lauenburg","type":"Kreis"},"federalState":{"key":"01","name":"Schleswig-Holstein"}},{"name":"Niendorfer Weg","postalCode":"23881","locality":"Breitenfelde","municipality":{"key":"01053014","name":"Breitenfelde","type":"Kreisangehörige_Gemeinde"},"district":{"key":"01053","name":"Herzogtum Lauenburg","type":"Kreis"},"federalState":{"key":"01","name":"Schleswig-Holstein"}},{"name":"Pommernring","postalCode":"23881","locality":"Breitenfelde","municipality":{"key":"01053014","name":"Breitenfelde","type":"Kreisangehörige_Gemeinde"},"district":{"key":"01053","name":"Herzogtum Lauenburg","type":"Kreis"},"federalState":{"key":"01","name":"Schleswig-Holstein"}},{"name":"Priesterbach","postalCode":"23881","locality":"Breitenfelde","municipality":{"key":"01053014","name":"Breitenfelde","type":"Kreisangehörige_Gemeinde"},"district":{"key":"01053","name":"Herzogtum Lauenburg","type":"Kreis"},"federalState":{"key":"01","name":"Schleswig-Holstein"}},{"name":"Rehm","postalCode":"23881","locality":"Breitenfelde","municipality":{"key":"01053014","name":"Breitenfelde","type":"Kreisangehörige_Gemeinde"},"district":{"key":"01053","name":"Herzogtum Lauenburg","type":"Kreis"},"federalState":{"key":"01","name":"Schleswig-Holstein"}},{"name":"Rosengartenweg","postalCode":"23881","locality":"Breitenfelde","municipality":{"key":"01053014","name":"Breitenfelde","type":"Kreisangehörige_Gemeinde"},"district":{"key":"01053","name":"Herzogtum Lauenburg","type":"Kreis"},"federalState":{"key":"01","name":"Schleswig-Holstein"}},{"name":"Rosengrund","postalCode":"23881","locality":"Breitenfelde","municipality":{"key":"01053014","name":"Breitenfelde","type":"Kreisangehörige_Gemeinde"},"district":{"key":"01053","name":"Herzogtum Lauenburg","type":"Kreis"},"federalState":{"key":"01","name":"Schleswig-Holstein"}},{"name":"Schulstr.","postalCode":"23881","locality":"Breitenfelde","municipality":{"key":"01053014","name":"Breitenfelde","type":"Kreisangehörige_Gemeinde"},"district":{"key":"01053","name":"Herzogtum Lauenburg","type":"Kreis"},"federalState":{"key":"01","name":"Schleswig-Holstein"}},{"name":"Stieglitzweg","postalCode":"23881","locality":"Breitenfelde","municipality":{"key":"01053014","name":"Breitenfelde","type":"Kreisangehörige_Gemeinde"},"district":{"key":"01053","name":"Herzogtum Lauenburg","type":"Kreis"},"federalState":{"key":"01","name":"Schleswig-Holstein"}},{"name":"Wiedenthal","postalCode":"23881","locality":"Breitenfelde","municipality":{"key":"01053014","name":"Breitenfelde","type":"Kreisangehörige_Gemeinde"},"district":{"key":"01053","name":"Herzogtum Lauenburg","type":"Kreis"},"federalState":{"key":"01","name":"Schleswig-Holstein"}},]