[{"key":"10237100","name":"Ackerweg","postalCode":"3922","locality":"Eisten","commune":{"key":"6282","name":"Eisten","shortName":"Eisten"},"district":{"key":"2313","name":"Bezirk Visp"},"canton":{"key":"23","code":"VS","name":"Valais / Wallis"},"status":"Real"},{"key":"10047508","name":"Ahorn","postalCode":"3922","locality":"Eisten","commune":{"key":"6282","name":"Eisten","shortName":"Eisten"},"district":{"key":"2313","name":"Bezirk Visp"},"canton":{"key":"23","code":"VS","name":"Valais / Wallis"},"status":"Real"},{"key":"10237104","name":"Ahornstrasse","postalCode":"3922","locality":"Eisten","commune":{"key":"6282","name":"Eisten","shortName":"Eisten"},"district":{"key":"2313","name":"Bezirk Visp"},"canton":{"key":"23","code":"VS","name":"Valais / Wallis"},"status":"Real"},{"key":"10237108","name":"Alte Strasse","postalCode":"3922","locality":"Eisten","commune":{"key":"6282","name":"Eisten","shortName":"Eisten"},"district":{"key":"2313","name":"Bezirk Visp"},"canton":{"key":"23","code":"VS","name":"Valais / Wallis"},"status":"Real"},{"key":"10178371","name":"Asp","postalCode":"3922","locality":"Eisten","commune":{"key":"6282","name":"Eisten","shortName":"Eisten"},"district":{"key":"2313","name":"Bezirk Visp"},"canton":{"key":"23","code":"VS","name":"Valais / Wallis"},"status":"Real"},{"key":"10047509","name":"Biffig","postalCode":"3922","locality":"Eisten","commune":{"key":"6282","name":"Eisten","shortName":"Eisten"},"district":{"key":"2313","name":"Bezirk Visp"},"canton":{"key":"23","code":"VS","name":"Valais / Wallis"},"status":"Real"},{"key":"10237112","name":"Biffigstrasse","postalCode":"3922","locality":"Eisten","commune":{"key":"6282","name":"Eisten","shortName":"Eisten"},"district":{"key":"2313","name":"Bezirk Visp"},"canton":{"key":"23","code":"VS","name":"Valais / Wallis"},"status":"Real"},{"key":"10237116","name":"Biffigweg","postalCode":"3922","locality":"Eisten","commune":{"key":"6282","name":"Eisten","shortName":"Eisten"},"district":{"key":"2313","name":"Bezirk Visp"},"canton":{"key":"23","code":"VS","name":"Valais / Wallis"},"status":"Real"},{"key":"10236793","name":"Bifig","postalCode":"3922","locality":"Eisten","commune":{"key":"6282","name":"Eisten","shortName":"Eisten"},"district":{"key":"2313","name":"Bezirk Visp"},"canton":{"key":"23","code":"VS","name":"Valais / Wallis"},"status":"Real"},{"key":"10237954","name":"Bissenweg","postalCode":"3922","locality":"Eisten","commune":{"key":"6282","name":"Eisten","shortName":"Eisten"},"district":{"key":"2313","name":"Bezirk Visp"},"canton":{"key":"23","code":"VS","name":"Valais / Wallis"},"status":"Real"},{"key":"10184581","name":"Blatte","postalCode":"3922","locality":"Eisten","commune":{"key":"6282","name":"Eisten","shortName":"Eisten"},"district":{"key":"2313","name":"Bezirk Visp"},"canton":{"key":"23","code":"VS","name":"Valais / Wallis"},"status":"Real"},{"key":"10073585","name":"Bodenbr√ºcke","postalCode":"3922","locality":"Eisten","commune":{"key":"6282","name":"Eisten","shortName":"Eisten"},"district":{"key":"2313","name":"Bezirk Visp"},"canton":{"key":"23","code":"VS","name":"Valais / Wallis"},"status":"Real"},{"key":"10236571","name":"Brandweg","postalCode":"3922","locality":"Eisten","commune":{"key":"6282","name":"Eisten","shortName":"Eisten"},"district":{"key":"2313","name":"Bezirk Visp"},"canton":{"key":"23","code":"VS","name":"Valais / Wallis"},"status":"Real"},{"key":"10047510","name":"Erel","postalCode":"3922","locality":"Eisten","commune":{"key":"6282","name":"Eisten","shortName":"Eisten"},"district":{"key":"2313","name":"Bezirk Visp"},"canton":{"key":"23","code":"VS","name":"Valais / Wallis"},"status":"Real"},{"key":"10047511","name":"Eya","postalCode":"3922","locality":"Eisten","commune":{"key":"6282","name":"Eisten","shortName":"Eisten"},"district":{"key":"2313","name":"Bezirk Visp"},"canton":{"key":"23","code":"VS","name":"Valais / Wallis"},"status":"Real"},{"key":"10098876","name":"Fluhbalmen","postalCode":"3922","locality":"Eisten","commune":{"key":"6282","name":"Eisten","shortName":"Eisten"},"district":{"key":"2313","name":"Bezirk Visp"},"canton":{"key":"23","code":"VS","name":"Valais / Wallis"},"status":"Real"},{"key":"10237124","name":"Galgerenweg","postalCode":"3922","locality":"Eisten","commune":{"key":"6282","name":"Eisten","shortName":"Eisten"},"district":{"key":"2313","name":"Bezirk Visp"},"canton":{"key":"23","code":"VS","name":"Valais / Wallis"},"status":"Real"},{"key":"10073586","name":"Gsteinet","postalCode":"3922","locality":"Eisten","commune":{"key":"6282","name":"Eisten","shortName":"Eisten"},"district":{"key":"2313","name":"Bezirk Visp"},"canton":{"key":"23","code":"VS","name":"Valais / Wallis"},"status":"Real"},{"key":"10202313","name":"Kantonsstrasse","postalCode":"3922","locality":"Eisten","commune":{"key":"6282","name":"Eisten","shortName":"Eisten"},"district":{"key":"2313","name":"Bezirk Visp"},"canton":{"key":"23","code":"VS","name":"Valais / Wallis"},"status":"Real"},{"key":"10113402","name":"Leidbach","postalCode":"3922","locality":"Eisten","commune":{"key":"6282","name":"Eisten","shortName":"Eisten"},"district":{"key":"2313","name":"Bezirk Visp"},"canton":{"key":"23","code":"VS","name":"Valais / Wallis"},"status":"Real"},{"key":"10237128","name":"Leidbachstrasse","postalCode":"3922","locality":"Eisten","commune":{"key":"6282","name":"Eisten","shortName":"Eisten"},"district":{"key":"2313","name":"Bezirk Visp"},"canton":{"key":"23","code":"VS","name":"Valais / Wallis"},"status":"Real"},{"key":"10237132","name":"Mettjienweg","postalCode":"3922","locality":"Eisten","commune":{"key":"6282","name":"Eisten","shortName":"Eisten"},"district":{"key":"2313","name":"Bezirk Visp"},"canton":{"key":"23","code":"VS","name":"Valais / Wallis"},"status":"Real"},{"key":"10047513","name":"Raftgarten","postalCode":"3922","locality":"Eisten","commune":{"key":"6282","name":"Eisten","shortName":"Eisten"},"district":{"key":"2313","name":"Bezirk Visp"},"canton":{"key":"23","code":"VS","name":"Valais / Wallis"},"status":"Real"},{"key":"10190649","name":"Schweiben","postalCode":"3922","locality":"Eisten","commune":{"key":"6282","name":"Eisten","shortName":"Eisten"},"district":{"key":"2313","name":"Bezirk Visp"},"canton":{"key":"23","code":"VS","name":"Valais / Wallis"},"status":"Real"},{"key":"10237136","name":"Steinschlagweg","postalCode":"3922","locality":"Eisten","commune":{"key":"6282","name":"Eisten","shortName":"Eisten"},"district":{"key":"2313","name":"Bezirk Visp"},"canton":{"key":"23","code":"VS","name":"Valais / Wallis"},"status":"Real"},{"key":"10237140","name":"Stellinenweg","postalCode":"3922","locality":"Eisten","commune":{"key":"6282","name":"Eisten","shortName":"Eisten"},"district":{"key":"2313","name":"Bezirk Visp"},"canton":{"key":"23","code":"VS","name":"Valais / Wallis"},"status":"Real"},{"key":"10047514","name":"Werlischa","postalCode":"3922","locality":"Eisten","commune":{"key":"6282","name":"Eisten","shortName":"Eisten"},"district":{"key":"2313","name":"Bezirk Visp"},"canton":{"key":"23","code":"VS","name":"Valais / Wallis"},"status":"Real"},{"key":"10073588","name":"Zen-Eisten","postalCode":"3922","locality":"Eisten","commune":{"key":"6282","name":"Eisten","shortName":"Eisten"},"district":{"key":"2313","name":"Bezirk Visp"},"canton":{"key":"23","code":"VS","name":"Valais / Wallis"},"status":"Real"},{"key":"10047515","name":"Zen-Schmieden","postalCode":"3922","locality":"Eisten","commune":{"key":"6282","name":"Eisten","shortName":"Eisten"},"district":{"key":"2313","name":"Bezirk Visp"},"canton":{"key":"23","code":"VS","name":"Valais / Wallis"},"status":"Real"},{"key":"10202314","name":"Zermattenweg","postalCode":"3922","locality":"Eisten","commune":{"key":"6282","name":"Eisten","shortName":"Eisten"},"district":{"key":"2313","name":"Bezirk Visp"},"canton":{"key":"23","code":"VS","name":"Valais / Wallis"},"status":"Real"},]