[{"name":"Aachener Str.","postalCode":"53332","locality":"Bornheim","municipality":{"key":"05382012","name":"Bornheim, Stadt","type":"Stadt"},"district":{"key":"05382","name":"Rhein-Sieg-Kreis","type":"Kreis"},"federalState":{"key":"05","name":"Nordrhein-Westfalen"}},{"name":"Aarhusweg","postalCode":"53332","locality":"Bornheim","municipality":{"key":"05382012","name":"Bornheim, Stadt","type":"Stadt"},"district":{"key":"05382","name":"Rhein-Sieg-Kreis","type":"Kreis"},"federalState":{"key":"05","name":"Nordrhein-Westfalen"}},{"name":"Aarweg","postalCode":"53332","locality":"Bornheim","municipality":{"key":"05382012","name":"Bornheim, Stadt","type":"Stadt"},"district":{"key":"05382","name":"Rhein-Sieg-Kreis","type":"Kreis"},"federalState":{"key":"05","name":"Nordrhein-Westfalen"}},{"name":"Ackerweg","postalCode":"53332","locality":"Bornheim","municipality":{"key":"05382012","name":"Bornheim, Stadt","type":"Stadt"},"district":{"key":"05382","name":"Rhein-Sieg-Kreis","type":"Kreis"},"federalState":{"key":"05","name":"Nordrhein-Westfalen"}},{"name":"Adenauerallee","postalCode":"53332","locality":"Bornheim","municipality":{"key":"05382012","name":"Bornheim, Stadt","type":"Stadt"},"district":{"key":"05382","name":"Rhein-Sieg-Kreis","type":"Kreis"},"federalState":{"key":"05","name":"Nordrhein-Westfalen"}},{"name":"Aegidiusstr.","postalCode":"53332","locality":"Bornheim","municipality":{"key":"05382012","name":"Bornheim, Stadt","type":"Stadt"},"district":{"key":"05382","name":"Rhein-Sieg-Kreis","type":"Kreis"},"federalState":{"key":"05","name":"Nordrhein-Westfalen"}},{"name":"Aeltersgasse","postalCode":"53332","locality":"Bornheim","municipality":{"key":"05382012","name":"Bornheim, Stadt","type":"Stadt"},"district":{"key":"05382","name":"Rhein-Sieg-Kreis","type":"Kreis"},"federalState":{"key":"05","name":"Nordrhein-Westfalen"}},{"name":"Aggerstr.","postalCode":"53332","locality":"Bornheim","municipality":{"key":"05382012","name":"Bornheim, Stadt","type":"Stadt"},"district":{"key":"05382","name":"Rhein-Sieg-Kreis","type":"Kreis"},"federalState":{"key":"05","name":"Nordrhein-Westfalen"}},{"name":"Ailbertusstr.","postalCode":"53332","locality":"Bornheim","municipality":{"key":"05382012","name":"Bornheim, Stadt","type":"Stadt"},"district":{"key":"05382","name":"Rhein-Sieg-Kreis","type":"Kreis"},"federalState":{"key":"05","name":"Nordrhein-Westfalen"}},{"name":"Albertstr.","postalCode":"53332","locality":"Bornheim","municipality":{"key":"05382012","name":"Bornheim, Stadt","type":"Stadt"},"district":{"key":"05382","name":"Rhein-Sieg-Kreis","type":"Kreis"},"federalState":{"key":"05","name":"Nordrhein-Westfalen"}},{"name":"Albertus-Magnus-Str.","postalCode":"53332","locality":"Bornheim","municipality":{"key":"05382012","name":"Bornheim, Stadt","type":"Stadt"},"district":{"key":"05382","name":"Rhein-Sieg-Kreis","type":"Kreis"},"federalState":{"key":"05","name":"Nordrhein-Westfalen"}},{"name":"Alemannenweg","postalCode":"53332","locality":"Bornheim","municipality":{"key":"05382012","name":"Bornheim, Stadt","type":"Stadt"},"district":{"key":"05382","name":"Rhein-Sieg-Kreis","type":"Kreis"},"federalState":{"key":"05","name":"Nordrhein-Westfalen"}},{"name":"Alfterer Hufebahn","postalCode":"53332","locality":"Bornheim","municipality":{"key":"05382012","name":"Bornheim, Stadt","type":"Stadt"},"district":{"key":"05382","name":"Rhein-Sieg-Kreis","type":"Kreis"},"federalState":{"key":"05","name":"Nordrhein-Westfalen"}},{"name":"Alfterer Weg","postalCode":"53332","locality":"Bornheim","municipality":{"key":"05382012","name":"Bornheim, Stadt","type":"Stadt"},"district":{"key":"05382","name":"Rhein-Sieg-Kreis","type":"Kreis"},"federalState":{"key":"05","name":"Nordrhein-Westfalen"}},{"name":"Allensteiner Str.","postalCode":"53332","locality":"Bornheim","municipality":{"key":"05382012","name":"Bornheim, Stadt","type":"Stadt"},"district":{"key":"05382","name":"Rhein-Sieg-Kreis","type":"Kreis"},"federalState":{"key":"05","name":"Nordrhein-Westfalen"}},{"name":"Allerstr.","postalCode":"53332","locality":"Bornheim","municipality":{"key":"05382012","name":"Bornheim, Stadt","type":"Stadt"},"district":{"key":"05382","name":"Rhein-Sieg-Kreis","type":"Kreis"},"federalState":{"key":"05","name":"Nordrhein-Westfalen"}},{"name":"Altenberger Gasse","postalCode":"53332","locality":"Bornheim","municipality":{"key":"05382012","name":"Bornheim, Stadt","type":"Stadt"},"district":{"key":"05382","name":"Rhein-Sieg-Kreis","type":"Kreis"},"federalState":{"key":"05","name":"Nordrhein-Westfalen"}},{"name":"Alter Heerweg","postalCode":"53332","locality":"Bornheim","municipality":{"key":"05382012","name":"Bornheim, Stadt","type":"Stadt"},"district":{"key":"05382","name":"Rhein-Sieg-Kreis","type":"Kreis"},"federalState":{"key":"05","name":"Nordrhein-Westfalen"}},{"name":"Alter Siebenbach","postalCode":"53332","locality":"Bornheim","municipality":{"key":"05382012","name":"Bornheim, Stadt","type":"Stadt"},"district":{"key":"05382","name":"Rhein-Sieg-Kreis","type":"Kreis"},"federalState":{"key":"05","name":"Nordrhein-Westfalen"}},{"name":"Alter Sportplatz","postalCode":"53332","locality":"Bornheim","municipality":{"key":"05382012","name":"Bornheim, Stadt","type":"Stadt"},"district":{"key":"05382","name":"Rhein-Sieg-Kreis","type":"Kreis"},"federalState":{"key":"05","name":"Nordrhein-Westfalen"}},{"name":"Alter Weiher","postalCode":"53332","locality":"Bornheim","municipality":{"key":"05382012","name":"Bornheim, Stadt","type":"Stadt"},"district":{"key":"05382","name":"Rhein-Sieg-Kreis","type":"Kreis"},"federalState":{"key":"05","name":"Nordrhein-Westfalen"}},{"name":"Altmühlstr.","postalCode":"53332","locality":"Bornheim","municipality":{"key":"05382012","name":"Bornheim, Stadt","type":"Stadt"},"district":{"key":"05382","name":"Rhein-Sieg-Kreis","type":"Kreis"},"federalState":{"key":"05","name":"Nordrhein-Westfalen"}},{"name":"Alveradisstr.","postalCode":"53332","locality":"Bornheim","municipality":{"key":"05382012","name":"Bornheim, Stadt","type":"Stadt"},"district":{"key":"05382","name":"Rhein-Sieg-Kreis","type":"Kreis"},"federalState":{"key":"05","name":"Nordrhein-Westfalen"}},{"name":"Am Alten Mühlenbach","postalCode":"53332","locality":"Bornheim","municipality":{"key":"05382012","name":"Bornheim, Stadt","type":"Stadt"},"district":{"key":"05382","name":"Rhein-Sieg-Kreis","type":"Kreis"},"federalState":{"key":"05","name":"Nordrhein-Westfalen"}},{"name":"Am Brünnchen","postalCode":"53332","locality":"Bornheim","municipality":{"key":"05382012","name":"Bornheim, Stadt","type":"Stadt"},"district":{"key":"05382","name":"Rhein-Sieg-Kreis","type":"Kreis"},"federalState":{"key":"05","name":"Nordrhein-Westfalen"}},{"name":"Am Dietkirchener Hof","postalCode":"53332","locality":"Bornheim","municipality":{"key":"05382012","name":"Bornheim, Stadt","type":"Stadt"},"district":{"key":"05382","name":"Rhein-Sieg-Kreis","type":"Kreis"},"federalState":{"key":"05","name":"Nordrhein-Westfalen"}},{"name":"Am Heidental","postalCode":"53332","locality":"Bornheim","municipality":{"key":"05382012","name":"Bornheim, Stadt","type":"Stadt"},"district":{"key":"05382","name":"Rhein-Sieg-Kreis","type":"Kreis"},"federalState":{"key":"05","name":"Nordrhein-Westfalen"}},{"name":"Am Hofgraben","postalCode":"76879","locality":"Bornheim","municipality":{"key":"07337014","name":"Bornheim","type":"Kreisangehörige_Gemeinde"},"district":{"key":"07337","name":"Südliche Weinstraße","type":"Landkreis"},"federalState":{"key":"07","name":"Rheinland-Pfalz"}},{"name":"Am Kissel","postalCode":"55237","locality":"Bornheim","municipality":{"key":"07331012","name":"Bornheim","type":"Kreisangehörige_Gemeinde"},"district":{"key":"07331","name":"Alzey-Worms","type":"Landkreis"},"federalState":{"key":"07","name":"Rheinland-Pfalz"}},{"name":"Am Krughof","postalCode":"55237","locality":"Bornheim","municipality":{"key":"07331012","name":"Bornheim","type":"Kreisangehörige_Gemeinde"},"district":{"key":"07331","name":"Alzey-Worms","type":"Landkreis"},"federalState":{"key":"07","name":"Rheinland-Pfalz"}},{"name":"Am Mönchshof","postalCode":"53332","locality":"Bornheim","municipality":{"key":"05382012","name":"Bornheim, Stadt","type":"Stadt"},"district":{"key":"05382","name":"Rhein-Sieg-Kreis","type":"Kreis"},"federalState":{"key":"05","name":"Nordrhein-Westfalen"}},{"name":"Am Otemsgraben","postalCode":"53332","locality":"Bornheim","municipality":{"key":"05382012","name":"Bornheim, Stadt","type":"Stadt"},"district":{"key":"05382","name":"Rhein-Sieg-Kreis","type":"Kreis"},"federalState":{"key":"05","name":"Nordrhein-Westfalen"}},{"name":"Am Rennweg","postalCode":"53332","locality":"Bornheim","municipality":{"key":"05382012","name":"Bornheim, Stadt","type":"Stadt"},"district":{"key":"05382","name":"Rhein-Sieg-Kreis","type":"Kreis"},"federalState":{"key":"05","name":"Nordrhein-Westfalen"}},{"name":"Am Roten Boskoop","postalCode":"53332","locality":"Bornheim","municipality":{"key":"05382012","name":"Bornheim, Stadt","type":"Stadt"},"district":{"key":"05382","name":"Rhein-Sieg-Kreis","type":"Kreis"},"federalState":{"key":"05","name":"Nordrhein-Westfalen"}},{"name":"Amselweg","postalCode":"53332","locality":"Bornheim","municipality":{"key":"05382012","name":"Bornheim, Stadt","type":"Stadt"},"district":{"key":"05382","name":"Rhein-Sieg-Kreis","type":"Kreis"},"federalState":{"key":"05","name":"Nordrhein-Westfalen"}},{"name":"Am Steinsteg","postalCode":"76879","locality":"Bornheim","municipality":{"key":"07337014","name":"Bornheim","type":"Kreisangehörige_Gemeinde"},"district":{"key":"07337","name":"Südliche Weinstraße","type":"Landkreis"},"federalState":{"key":"07","name":"Rheinland-Pfalz"}},{"name":"Am Tonberg","postalCode":"53332","locality":"Bornheim","municipality":{"key":"05382012","name":"Bornheim, Stadt","type":"Stadt"},"district":{"key":"05382","name":"Rhein-Sieg-Kreis","type":"Kreis"},"federalState":{"key":"05","name":"Nordrhein-Westfalen"}},{"name":"Am Vogelsang","postalCode":"55237","locality":"Bornheim","municipality":{"key":"07331012","name":"Bornheim","type":"Kreisangehörige_Gemeinde"},"district":{"key":"07331","name":"Alzey-Worms","type":"Landkreis"},"federalState":{"key":"07","name":"Rheinland-Pfalz"}},{"name":"Am Vogtshostert","postalCode":"53332","locality":"Bornheim","municipality":{"key":"05382012","name":"Bornheim, Stadt","type":"Stadt"},"district":{"key":"05382","name":"Rhein-Sieg-Kreis","type":"Kreis"},"federalState":{"key":"05","name":"Nordrhein-Westfalen"}},{"name":"Am Werkersgarten","postalCode":"53332","locality":"Bornheim","municipality":{"key":"05382012","name":"Bornheim, Stadt","type":"Stadt"},"district":{"key":"05382","name":"Rhein-Sieg-Kreis","type":"Kreis"},"federalState":{"key":"05","name":"Nordrhein-Westfalen"}},{"name":"Am Zidderwald","postalCode":"53332","locality":"Bornheim","municipality":{"key":"05382012","name":"Bornheim, Stadt","type":"Stadt"},"district":{"key":"05382","name":"Rhein-Sieg-Kreis","type":"Kreis"},"federalState":{"key":"05","name":"Nordrhein-Westfalen"}},{"name":"An der Bonnstr.","postalCode":"53332","locality":"Bornheim","municipality":{"key":"05382012","name":"Bornheim, Stadt","type":"Stadt"},"district":{"key":"05382","name":"Rhein-Sieg-Kreis","type":"Kreis"},"federalState":{"key":"05","name":"Nordrhein-Westfalen"}},{"name":"An der Grauen Burg","postalCode":"53332","locality":"Bornheim","municipality":{"key":"05382012","name":"Bornheim, Stadt","type":"Stadt"},"district":{"key":"05382","name":"Rhein-Sieg-Kreis","type":"Kreis"},"federalState":{"key":"05","name":"Nordrhein-Westfalen"}},{"name":"An der Wolfsburg","postalCode":"53332","locality":"Bornheim","municipality":{"key":"05382012","name":"Bornheim, Stadt","type":"Stadt"},"district":{"key":"05382","name":"Rhein-Sieg-Kreis","type":"Kreis"},"federalState":{"key":"05","name":"Nordrhein-Westfalen"}},{"name":"Annastr.","postalCode":"53332","locality":"Bornheim","municipality":{"key":"05382012","name":"Bornheim, Stadt","type":"Stadt"},"district":{"key":"05382","name":"Rhein-Sieg-Kreis","type":"Kreis"},"federalState":{"key":"05","name":"Nordrhein-Westfalen"}},{"name":"Annemaire-Renger-Str.","postalCode":"53332","locality":"Bornheim","municipality":{"key":"05382012","name":"Bornheim, Stadt","type":"Stadt"},"district":{"key":"05382","name":"Rhein-Sieg-Kreis","type":"Kreis"},"federalState":{"key":"05","name":"Nordrhein-Westfalen"}},{"name":"Annograben","postalCode":"53332","locality":"Bornheim","municipality":{"key":"05382012","name":"Bornheim, Stadt","type":"Stadt"},"district":{"key":"05382","name":"Rhein-Sieg-Kreis","type":"Kreis"},"federalState":{"key":"05","name":"Nordrhein-Westfalen"}},{"name":"Apostelpfad","postalCode":"53332","locality":"Bornheim","municipality":{"key":"05382012","name":"Bornheim, Stadt","type":"Stadt"},"district":{"key":"05382","name":"Rhein-Sieg-Kreis","type":"Kreis"},"federalState":{"key":"05","name":"Nordrhein-Westfalen"}},{"name":"Arnoldstr.","postalCode":"53332","locality":"Bornheim","municipality":{"key":"05382012","name":"Bornheim, Stadt","type":"Stadt"},"district":{"key":"05382","name":"Rhein-Sieg-Kreis","type":"Kreis"},"federalState":{"key":"05","name":"Nordrhein-Westfalen"}},{"name":"Asternstr.","postalCode":"53332","locality":"Bornheim","municipality":{"key":"05382012","name":"Bornheim, Stadt","type":"Stadt"},"district":{"key":"05382","name":"Rhein-Sieg-Kreis","type":"Kreis"},"federalState":{"key":"05","name":"Nordrhein-Westfalen"}},{"name":"Bachstr.","postalCode":"53332","locality":"Bornheim","municipality":{"key":"05382012","name":"Bornheim, Stadt","type":"Stadt"},"district":{"key":"05382","name":"Rhein-Sieg-Kreis","type":"Kreis"},"federalState":{"key":"05","name":"Nordrhein-Westfalen"}},{"name":"Bachweg","postalCode":"76879","locality":"Bornheim","municipality":{"key":"07337014","name":"Bornheim","type":"Kreisangehörige_Gemeinde"},"district":{"key":"07337","name":"Südliche Weinstraße","type":"Landkreis"},"federalState":{"key":"07","name":"Rheinland-Pfalz"}},{"name":"Bahnhofstr.","postalCode":"53332","locality":"Bornheim","municipality":{"key":"05382012","name":"Bornheim, Stadt","type":"Stadt"},"district":{"key":"05382","name":"Rhein-Sieg-Kreis","type":"Kreis"},"federalState":{"key":"05","name":"Nordrhein-Westfalen"}},{"name":"Bahnhofstr.","postalCode":"55237","locality":"Bornheim","municipality":{"key":"07331012","name":"Bornheim","type":"Kreisangehörige_Gemeinde"},"district":{"key":"07331","name":"Alzey-Worms","type":"Landkreis"},"federalState":{"key":"07","name":"Rheinland-Pfalz"}},{"name":"Ballenpfad","postalCode":"53332","locality":"Bornheim","municipality":{"key":"05382012","name":"Bornheim, Stadt","type":"Stadt"},"district":{"key":"05382","name":"Rhein-Sieg-Kreis","type":"Kreis"},"federalState":{"key":"05","name":"Nordrhein-Westfalen"}},{"name":"Bannweg","postalCode":"53332","locality":"Bornheim","municipality":{"key":"05382012","name":"Bornheim, Stadt","type":"Stadt"},"district":{"key":"05382","name":"Rhein-Sieg-Kreis","type":"Kreis"},"federalState":{"key":"05","name":"Nordrhein-Westfalen"}},{"name":"Baptist-Liebertz-Str.","postalCode":"53332","locality":"Bornheim","municipality":{"key":"05382012","name":"Bornheim, Stadt","type":"Stadt"},"district":{"key":"05382","name":"Rhein-Sieg-Kreis","type":"Kreis"},"federalState":{"key":"05","name":"Nordrhein-Westfalen"}},{"name":"Barweilerstr.","postalCode":"53332","locality":"Bornheim","municipality":{"key":"05382012","name":"Bornheim, Stadt","type":"Stadt"},"district":{"key":"05382","name":"Rhein-Sieg-Kreis","type":"Kreis"},"federalState":{"key":"05","name":"Nordrhein-Westfalen"}},{"name":"Bayerstr.","postalCode":"53332","locality":"Bornheim","municipality":{"key":"05382012","name":"Bornheim, Stadt","type":"Stadt"},"district":{"key":"05382","name":"Rhein-Sieg-Kreis","type":"Kreis"},"federalState":{"key":"05","name":"Nordrhein-Westfalen"}},{"name":"Beethovenstr.","postalCode":"53332","locality":"Bornheim","municipality":{"key":"05382012","name":"Bornheim, Stadt","type":"Stadt"},"district":{"key":"05382","name":"Rhein-Sieg-Kreis","type":"Kreis"},"federalState":{"key":"05","name":"Nordrhein-Westfalen"}},{"name":"Begonienstr.","postalCode":"53332","locality":"Bornheim","municipality":{"key":"05382012","name":"Bornheim, Stadt","type":"Stadt"},"district":{"key":"05382","name":"Rhein-Sieg-Kreis","type":"Kreis"},"federalState":{"key":"05","name":"Nordrhein-Westfalen"}},{"name":"Bellerstr.","postalCode":"53332","locality":"Bornheim","municipality":{"key":"05382012","name":"Bornheim, Stadt","type":"Stadt"},"district":{"key":"05382","name":"Rhein-Sieg-Kreis","type":"Kreis"},"federalState":{"key":"05","name":"Nordrhein-Westfalen"}},{"name":"Bendenweg","postalCode":"53332","locality":"Bornheim","municipality":{"key":"05382012","name":"Bornheim, Stadt","type":"Stadt"},"district":{"key":"05382","name":"Rhein-Sieg-Kreis","type":"Kreis"},"federalState":{"key":"05","name":"Nordrhein-Westfalen"}},{"name":"Bergkreuzweg","postalCode":"53332","locality":"Bornheim","municipality":{"key":"05382012","name":"Bornheim, Stadt","type":"Stadt"},"district":{"key":"05382","name":"Rhein-Sieg-Kreis","type":"Kreis"},"federalState":{"key":"05","name":"Nordrhein-Westfalen"}},{"name":"Bergstr.","postalCode":"53332","locality":"Bornheim","municipality":{"key":"05382012","name":"Bornheim, Stadt","type":"Stadt"},"district":{"key":"05382","name":"Rhein-Sieg-Kreis","type":"Kreis"},"federalState":{"key":"05","name":"Nordrhein-Westfalen"}},{"name":"Bergweg","postalCode":"55237","locality":"Bornheim","municipality":{"key":"07331012","name":"Bornheim","type":"Kreisangehörige_Gemeinde"},"district":{"key":"07331","name":"Alzey-Worms","type":"Landkreis"},"federalState":{"key":"07","name":"Rheinland-Pfalz"}},{"name":"Berliner Str.","postalCode":"53332","locality":"Bornheim","municipality":{"key":"05382012","name":"Bornheim, Stadt","type":"Stadt"},"district":{"key":"05382","name":"Rhein-Sieg-Kreis","type":"Kreis"},"federalState":{"key":"05","name":"Nordrhein-Westfalen"}},{"name":"Berner Str.","postalCode":"53332","locality":"Bornheim","municipality":{"key":"05382012","name":"Bornheim, Stadt","type":"Stadt"},"district":{"key":"05382","name":"Rhein-Sieg-Kreis","type":"Kreis"},"federalState":{"key":"05","name":"Nordrhein-Westfalen"}},{"name":"Bertha-von-Suttner-Str.","postalCode":"53332","locality":"Bornheim","municipality":{"key":"05382012","name":"Bornheim, Stadt","type":"Stadt"},"district":{"key":"05382","name":"Rhein-Sieg-Kreis","type":"Kreis"},"federalState":{"key":"05","name":"Nordrhein-Westfalen"}},{"name":"Bierbaumstr.","postalCode":"53332","locality":"Bornheim","municipality":{"key":"05382012","name":"Bornheim, Stadt","type":"Stadt"},"district":{"key":"05382","name":"Rhein-Sieg-Kreis","type":"Kreis"},"federalState":{"key":"05","name":"Nordrhein-Westfalen"}},{"name":"Birkenstr.","postalCode":"76879","locality":"Bornheim","municipality":{"key":"07337014","name":"Bornheim","type":"Kreisangehörige_Gemeinde"},"district":{"key":"07337","name":"Südliche Weinstraße","type":"Landkreis"},"federalState":{"key":"07","name":"Rheinland-Pfalz"}},{"name":"Bisdorfer Weg","postalCode":"53332","locality":"Bornheim","municipality":{"key":"05382012","name":"Bornheim, Stadt","type":"Stadt"},"district":{"key":"05382","name":"Rhein-Sieg-Kreis","type":"Kreis"},"federalState":{"key":"05","name":"Nordrhein-Westfalen"}},{"name":"Blumenstr.","postalCode":"53332","locality":"Bornheim","municipality":{"key":"05382012","name":"Bornheim, Stadt","type":"Stadt"},"district":{"key":"05382","name":"Rhein-Sieg-Kreis","type":"Kreis"},"federalState":{"key":"05","name":"Nordrhein-Westfalen"}},{"name":"Blütenweg","postalCode":"53332","locality":"Bornheim","municipality":{"key":"05382012","name":"Bornheim, Stadt","type":"Stadt"},"district":{"key":"05382","name":"Rhein-Sieg-Kreis","type":"Kreis"},"federalState":{"key":"05","name":"Nordrhein-Westfalen"}},{"name":"Blutpfad","postalCode":"53332","locality":"Bornheim","municipality":{"key":"05382012","name":"Bornheim, Stadt","type":"Stadt"},"district":{"key":"05382","name":"Rhein-Sieg-Kreis","type":"Kreis"},"federalState":{"key":"05","name":"Nordrhein-Westfalen"}},{"name":"Bolliggasse","postalCode":"53332","locality":"Bornheim","municipality":{"key":"05382012","name":"Bornheim, Stadt","type":"Stadt"},"district":{"key":"05382","name":"Rhein-Sieg-Kreis","type":"Kreis"},"federalState":{"key":"05","name":"Nordrhein-Westfalen"}},{"name":"Bonn-Brühler-Str.","postalCode":"53332","locality":"Bornheim","municipality":{"key":"05382012","name":"Bornheim, Stadt","type":"Stadt"},"district":{"key":"05382","name":"Rhein-Sieg-Kreis","type":"Kreis"},"federalState":{"key":"05","name":"Nordrhein-Westfalen"}},{"name":"Bonner Str.","postalCode":"53332","locality":"Bornheim","municipality":{"key":"05382012","name":"Bornheim, Stadt","type":"Stadt"},"district":{"key":"05382","name":"Rhein-Sieg-Kreis","type":"Kreis"},"federalState":{"key":"05","name":"Nordrhein-Westfalen"}},{"name":"Bonnstr.","postalCode":"53332","locality":"Bornheim","municipality":{"key":"05382012","name":"Bornheim, Stadt","type":"Stadt"},"district":{"key":"05382","name":"Rhein-Sieg-Kreis","type":"Kreis"},"federalState":{"key":"05","name":"Nordrhein-Westfalen"}},{"name":"Bornemer Str.","postalCode":"53332","locality":"Bornheim","municipality":{"key":"05382012","name":"Bornheim, Stadt","type":"Stadt"},"district":{"key":"05382","name":"Rhein-Sieg-Kreis","type":"Kreis"},"federalState":{"key":"05","name":"Nordrhein-Westfalen"}},{"name":"Bornheimer Str.","postalCode":"53332","locality":"Bornheim","municipality":{"key":"05382012","name":"Bornheim, Stadt","type":"Stadt"},"district":{"key":"05382","name":"Rhein-Sieg-Kreis","type":"Kreis"},"federalState":{"key":"05","name":"Nordrhein-Westfalen"}},{"name":"Bornheimer Weg","postalCode":"53332","locality":"Bornheim","municipality":{"key":"05382012","name":"Bornheim, Stadt","type":"Stadt"},"district":{"key":"05382","name":"Rhein-Sieg-Kreis","type":"Kreis"},"federalState":{"key":"05","name":"Nordrhein-Westfalen"}},{"name":"Botzdorfer Weg","postalCode":"53332","locality":"Bornheim","municipality":{"key":"05382012","name":"Bornheim, Stadt","type":"Stadt"},"district":{"key":"05382","name":"Rhein-Sieg-Kreis","type":"Kreis"},"federalState":{"key":"05","name":"Nordrhein-Westfalen"}},{"name":"Brabantweg","postalCode":"53332","locality":"Bornheim","municipality":{"key":"05382012","name":"Bornheim, Stadt","type":"Stadt"},"district":{"key":"05382","name":"Rhein-Sieg-Kreis","type":"Kreis"},"federalState":{"key":"05","name":"Nordrhein-Westfalen"}},{"name":"Brachstr.","postalCode":"53332","locality":"Bornheim","municipality":{"key":"05382012","name":"Bornheim, Stadt","type":"Stadt"},"district":{"key":"05382","name":"Rhein-Sieg-Kreis","type":"Kreis"},"federalState":{"key":"05","name":"Nordrhein-Westfalen"}},{"name":"Brahmsstr.","postalCode":"53332","locality":"Bornheim","municipality":{"key":"05382012","name":"Bornheim, Stadt","type":"Stadt"},"district":{"key":"05382","name":"Rhein-Sieg-Kreis","type":"Kreis"},"federalState":{"key":"05","name":"Nordrhein-Westfalen"}},{"name":"Brehmstr.","postalCode":"53332","locality":"Bornheim","municipality":{"key":"05382012","name":"Bornheim, Stadt","type":"Stadt"},"district":{"key":"05382","name":"Rhein-Sieg-Kreis","type":"Kreis"},"federalState":{"key":"05","name":"Nordrhein-Westfalen"}},{"name":"Breitbachweg","postalCode":"53332","locality":"Bornheim","municipality":{"key":"05382012","name":"Bornheim, Stadt","type":"Stadt"},"district":{"key":"05382","name":"Rhein-Sieg-Kreis","type":"Kreis"},"federalState":{"key":"05","name":"Nordrhein-Westfalen"}},{"name":"Breite Allee","postalCode":"53332","locality":"Bornheim","municipality":{"key":"05382012","name":"Bornheim, Stadt","type":"Stadt"},"district":{"key":"05382","name":"Rhein-Sieg-Kreis","type":"Kreis"},"federalState":{"key":"05","name":"Nordrhein-Westfalen"}},{"name":"Breite Str.","postalCode":"53332","locality":"Bornheim","municipality":{"key":"05382012","name":"Bornheim, Stadt","type":"Stadt"},"district":{"key":"05382","name":"Rhein-Sieg-Kreis","type":"Kreis"},"federalState":{"key":"05","name":"Nordrhein-Westfalen"}},{"name":"Breniger Str.","postalCode":"53332","locality":"Bornheim","municipality":{"key":"05382012","name":"Bornheim, Stadt","type":"Stadt"},"district":{"key":"05382","name":"Rhein-Sieg-Kreis","type":"Kreis"},"federalState":{"key":"05","name":"Nordrhein-Westfalen"}},{"name":"Breslauer Str.","postalCode":"53332","locality":"Bornheim","municipality":{"key":"05382012","name":"Bornheim, Stadt","type":"Stadt"},"district":{"key":"05382","name":"Rhein-Sieg-Kreis","type":"Kreis"},"federalState":{"key":"05","name":"Nordrhein-Westfalen"}},{"name":"Broichgasse","postalCode":"53332","locality":"Bornheim","municipality":{"key":"05382012","name":"Bornheim, Stadt","type":"Stadt"},"district":{"key":"05382","name":"Rhein-Sieg-Kreis","type":"Kreis"},"federalState":{"key":"05","name":"Nordrhein-Westfalen"}},{"name":"Brombeerweg","postalCode":"53332","locality":"Bornheim","municipality":{"key":"05382012","name":"Bornheim, Stadt","type":"Stadt"},"district":{"key":"05382","name":"Rhein-Sieg-Kreis","type":"Kreis"},"federalState":{"key":"05","name":"Nordrhein-Westfalen"}},{"name":"Brucknerstr.","postalCode":"53332","locality":"Bornheim","municipality":{"key":"05382012","name":"Bornheim, Stadt","type":"Stadt"},"district":{"key":"05382","name":"Rhein-Sieg-Kreis","type":"Kreis"},"federalState":{"key":"05","name":"Nordrhein-Westfalen"}},{"name":"Brühler Garten","postalCode":"53332","locality":"Bornheim","municipality":{"key":"05382012","name":"Bornheim, Stadt","type":"Stadt"},"district":{"key":"05382","name":"Rhein-Sieg-Kreis","type":"Kreis"},"federalState":{"key":"05","name":"Nordrhein-Westfalen"}},{"name":"Brunnenallee","postalCode":"53332","locality":"Bornheim","municipality":{"key":"05382012","name":"Bornheim, Stadt","type":"Stadt"},"district":{"key":"05382","name":"Rhein-Sieg-Kreis","type":"Kreis"},"federalState":{"key":"05","name":"Nordrhein-Westfalen"}},{"name":"Brunnenhöhle","postalCode":"53332","locality":"Bornheim","municipality":{"key":"05382012","name":"Bornheim, Stadt","type":"Stadt"},"district":{"key":"05382","name":"Rhein-Sieg-Kreis","type":"Kreis"},"federalState":{"key":"05","name":"Nordrhein-Westfalen"}},{"name":"Brunnenstr.","postalCode":"53332","locality":"Bornheim","municipality":{"key":"05382012","name":"Bornheim, Stadt","type":"Stadt"},"district":{"key":"05382","name":"Rhein-Sieg-Kreis","type":"Kreis"},"federalState":{"key":"05","name":"Nordrhein-Westfalen"}},{"name":"Brüsseler Str.","postalCode":"53332","locality":"Bornheim","municipality":{"key":"05382012","name":"Bornheim, Stadt","type":"Stadt"},"district":{"key":"05382","name":"Rhein-Sieg-Kreis","type":"Kreis"},"federalState":{"key":"05","name":"Nordrhein-Westfalen"}},{"name":"Carl-Benz-Str.","postalCode":"53332","locality":"Bornheim","municipality":{"key":"05382012","name":"Bornheim, Stadt","type":"Stadt"},"district":{"key":"05382","name":"Rhein-Sieg-Kreis","type":"Kreis"},"federalState":{"key":"05","name":"Nordrhein-Westfalen"}},{"name":"Carnapstr.","postalCode":"53332","locality":"Bornheim","municipality":{"key":"05382012","name":"Bornheim, Stadt","type":"Stadt"},"district":{"key":"05382","name":"Rhein-Sieg-Kreis","type":"Kreis"},"federalState":{"key":"05","name":"Nordrhein-Westfalen"}},{"name":"Cäsariusweg","postalCode":"53332","locality":"Bornheim","municipality":{"key":"05382012","name":"Bornheim, Stadt","type":"Stadt"},"district":{"key":"05382","name":"Rhein-Sieg-Kreis","type":"Kreis"},"federalState":{"key":"05","name":"Nordrhein-Westfalen"}},{"name":"Caulenpfad","postalCode":"53332","locality":"Bornheim","municipality":{"key":"05382012","name":"Bornheim, Stadt","type":"Stadt"},"district":{"key":"05382","name":"Rhein-Sieg-Kreis","type":"Kreis"},"federalState":{"key":"05","name":"Nordrhein-Westfalen"}},{"name":"Champagneweg","postalCode":"53332","locality":"Bornheim","municipality":{"key":"05382012","name":"Bornheim, Stadt","type":"Stadt"},"district":{"key":"05382","name":"Rhein-Sieg-Kreis","type":"Kreis"},"federalState":{"key":"05","name":"Nordrhein-Westfalen"}},{"name":"Cheruskerstr.","postalCode":"53332","locality":"Bornheim","municipality":{"key":"05382012","name":"Bornheim, Stadt","type":"Stadt"},"district":{"key":"05382","name":"Rhein-Sieg-Kreis","type":"Kreis"},"federalState":{"key":"05","name":"Nordrhein-Westfalen"}},{"name":"Clarenweg","postalCode":"53332","locality":"Bornheim","municipality":{"key":"05382012","name":"Bornheim, Stadt","type":"Stadt"},"district":{"key":"05382","name":"Rhein-Sieg-Kreis","type":"Kreis"},"federalState":{"key":"05","name":"Nordrhein-Westfalen"}},{"name":"Clemensstr.","postalCode":"53332","locality":"Bornheim","municipality":{"key":"05382012","name":"Bornheim, Stadt","type":"Stadt"},"district":{"key":"05382","name":"Rhein-Sieg-Kreis","type":"Kreis"},"federalState":{"key":"05","name":"Nordrhein-Westfalen"}},{"name":"Coloniastr.","postalCode":"53332","locality":"Bornheim","municipality":{"key":"05382012","name":"Bornheim, Stadt","type":"Stadt"},"district":{"key":"05382","name":"Rhein-Sieg-Kreis","type":"Kreis"},"federalState":{"key":"05","name":"Nordrhein-Westfalen"}},{"name":"Commerstr.","postalCode":"53332","locality":"Bornheim","municipality":{"key":"05382012","name":"Bornheim, Stadt","type":"Stadt"},"district":{"key":"05382","name":"Rhein-Sieg-Kreis","type":"Kreis"},"federalState":{"key":"05","name":"Nordrhein-Westfalen"}},{"name":"Custorstr.","postalCode":"53332","locality":"Bornheim","municipality":{"key":"05382012","name":"Bornheim, Stadt","type":"Stadt"},"district":{"key":"05382","name":"Rhein-Sieg-Kreis","type":"Kreis"},"federalState":{"key":"05","name":"Nordrhein-Westfalen"}},{"name":"Dahlienstr.","postalCode":"53332","locality":"Bornheim","municipality":{"key":"05382012","name":"Bornheim, Stadt","type":"Stadt"},"district":{"key":"05382","name":"Rhein-Sieg-Kreis","type":"Kreis"},"federalState":{"key":"05","name":"Nordrhein-Westfalen"}},{"name":"Dammgasse","postalCode":"76879","locality":"Bornheim","municipality":{"key":"07337014","name":"Bornheim","type":"Kreisangehörige_Gemeinde"},"district":{"key":"07337","name":"Südliche Weinstraße","type":"Landkreis"},"federalState":{"key":"07","name":"Rheinland-Pfalz"}},{"name":"Dammheimer Str.","postalCode":"76879","locality":"Bornheim","municipality":{"key":"07337014","name":"Bornheim","type":"Kreisangehörige_Gemeinde"},"district":{"key":"07337","name":"Südliche Weinstraße","type":"Landkreis"},"federalState":{"key":"07","name":"Rheinland-Pfalz"}},{"name":"Danziger Str.","postalCode":"53332","locality":"Bornheim","municipality":{"key":"05382012","name":"Bornheim, Stadt","type":"Stadt"},"district":{"key":"05382","name":"Rhein-Sieg-Kreis","type":"Kreis"},"federalState":{"key":"05","name":"Nordrhein-Westfalen"}},{"name":"Dechant-Blum-Str.","postalCode":"53332","locality":"Bornheim","municipality":{"key":"05382012","name":"Bornheim, Stadt","type":"Stadt"},"district":{"key":"05382","name":"Rhein-Sieg-Kreis","type":"Kreis"},"federalState":{"key":"05","name":"Nordrhein-Westfalen"}},{"name":"Der obere gehauene Weg","postalCode":"53332","locality":"Bornheim","municipality":{"key":"05382012","name":"Bornheim, Stadt","type":"Stadt"},"district":{"key":"05382","name":"Rhein-Sieg-Kreis","type":"Kreis"},"federalState":{"key":"05","name":"Nordrhein-Westfalen"}},{"name":"Dersdorfer Str.","postalCode":"53332","locality":"Bornheim","municipality":{"key":"05382012","name":"Bornheim, Stadt","type":"Stadt"},"district":{"key":"05382","name":"Rhein-Sieg-Kreis","type":"Kreis"},"federalState":{"key":"05","name":"Nordrhein-Westfalen"}},{"name":"Der untere gehauene Weg","postalCode":"53332","locality":"Bornheim","municipality":{"key":"05382012","name":"Bornheim, Stadt","type":"Stadt"},"district":{"key":"05382","name":"Rhein-Sieg-Kreis","type":"Kreis"},"federalState":{"key":"05","name":"Nordrhein-Westfalen"}},{"name":"Diergardtstr.","postalCode":"53332","locality":"Bornheim","municipality":{"key":"05382012","name":"Bornheim, Stadt","type":"Stadt"},"district":{"key":"05382","name":"Rhein-Sieg-Kreis","type":"Kreis"},"federalState":{"key":"05","name":"Nordrhein-Westfalen"}},{"name":"Domhofstr.","postalCode":"53332","locality":"Bornheim","municipality":{"key":"05382012","name":"Bornheim, Stadt","type":"Stadt"},"district":{"key":"05382","name":"Rhein-Sieg-Kreis","type":"Kreis"},"federalState":{"key":"05","name":"Nordrhein-Westfalen"}},{"name":"Dominikanerstr.","postalCode":"53332","locality":"Bornheim","municipality":{"key":"05382012","name":"Bornheim, Stadt","type":"Stadt"},"district":{"key":"05382","name":"Rhein-Sieg-Kreis","type":"Kreis"},"federalState":{"key":"05","name":"Nordrhein-Westfalen"}},{"name":"Donatusstr.","postalCode":"53332","locality":"Bornheim","municipality":{"key":"05382012","name":"Bornheim, Stadt","type":"Stadt"},"district":{"key":"05382","name":"Rhein-Sieg-Kreis","type":"Kreis"},"federalState":{"key":"05","name":"Nordrhein-Westfalen"}},{"name":"Donaustr.","postalCode":"53332","locality":"Bornheim","municipality":{"key":"05382012","name":"Bornheim, Stadt","type":"Stadt"},"district":{"key":"05382","name":"Rhein-Sieg-Kreis","type":"Kreis"},"federalState":{"key":"05","name":"Nordrhein-Westfalen"}},{"name":"Donnerstein","postalCode":"53332","locality":"Bornheim","municipality":{"key":"05382012","name":"Bornheim, Stadt","type":"Stadt"},"district":{"key":"05382","name":"Rhein-Sieg-Kreis","type":"Kreis"},"federalState":{"key":"05","name":"Nordrhein-Westfalen"}},{"name":"Dublinweg","postalCode":"53332","locality":"Bornheim","municipality":{"key":"05382012","name":"Bornheim, Stadt","type":"Stadt"},"district":{"key":"05382","name":"Rhein-Sieg-Kreis","type":"Kreis"},"federalState":{"key":"05","name":"Nordrhein-Westfalen"}},{"name":"Düffelstr.","postalCode":"53332","locality":"Bornheim","municipality":{"key":"05382012","name":"Bornheim, Stadt","type":"Stadt"},"district":{"key":"05382","name":"Rhein-Sieg-Kreis","type":"Kreis"},"federalState":{"key":"05","name":"Nordrhein-Westfalen"}},{"name":"Duffesweg","postalCode":"53332","locality":"Bornheim","municipality":{"key":"05382012","name":"Bornheim, Stadt","type":"Stadt"},"district":{"key":"05382","name":"Rhein-Sieg-Kreis","type":"Kreis"},"federalState":{"key":"05","name":"Nordrhein-Westfalen"}},{"name":"Dürener Str.","postalCode":"53332","locality":"Bornheim","municipality":{"key":"05382012","name":"Bornheim, Stadt","type":"Stadt"},"district":{"key":"05382","name":"Rhein-Sieg-Kreis","type":"Kreis"},"federalState":{"key":"05","name":"Nordrhein-Westfalen"}},{"name":"Dürerstr.","postalCode":"53332","locality":"Bornheim","municipality":{"key":"05382012","name":"Bornheim, Stadt","type":"Stadt"},"district":{"key":"05382","name":"Rhein-Sieg-Kreis","type":"Kreis"},"federalState":{"key":"05","name":"Nordrhein-Westfalen"}},{"name":"Edelmaar","postalCode":"53332","locality":"Bornheim","municipality":{"key":"05382012","name":"Bornheim, Stadt","type":"Stadt"},"district":{"key":"05382","name":"Rhein-Sieg-Kreis","type":"Kreis"},"federalState":{"key":"05","name":"Nordrhein-Westfalen"}},{"name":"Edelweißstr.","postalCode":"53332","locality":"Bornheim","municipality":{"key":"05382012","name":"Bornheim, Stadt","type":"Stadt"},"district":{"key":"05382","name":"Rhein-Sieg-Kreis","type":"Kreis"},"federalState":{"key":"05","name":"Nordrhein-Westfalen"}},{"name":"Effelsbergstr.","postalCode":"53332","locality":"Bornheim","municipality":{"key":"05382012","name":"Bornheim, Stadt","type":"Stadt"},"district":{"key":"05382","name":"Rhein-Sieg-Kreis","type":"Kreis"},"federalState":{"key":"05","name":"Nordrhein-Westfalen"}},{"name":"Ehrental","postalCode":"53332","locality":"Bornheim","municipality":{"key":"05382012","name":"Bornheim, Stadt","type":"Stadt"},"district":{"key":"05382","name":"Rhein-Sieg-Kreis","type":"Kreis"},"federalState":{"key":"05","name":"Nordrhein-Westfalen"}},{"name":"Eichendorffstr.","postalCode":"53332","locality":"Bornheim","municipality":{"key":"05382012","name":"Bornheim, Stadt","type":"Stadt"},"district":{"key":"05382","name":"Rhein-Sieg-Kreis","type":"Kreis"},"federalState":{"key":"05","name":"Nordrhein-Westfalen"}},{"name":"Eichenkamp","postalCode":"53332","locality":"Bornheim","municipality":{"key":"05382012","name":"Bornheim, Stadt","type":"Stadt"},"district":{"key":"05382","name":"Rhein-Sieg-Kreis","type":"Kreis"},"federalState":{"key":"05","name":"Nordrhein-Westfalen"}},{"name":"Eichholzweg","postalCode":"53332","locality":"Bornheim","municipality":{"key":"05382012","name":"Bornheim, Stadt","type":"Stadt"},"district":{"key":"05382","name":"Rhein-Sieg-Kreis","type":"Kreis"},"federalState":{"key":"05","name":"Nordrhein-Westfalen"}},{"name":"Eifelstr.","postalCode":"53332","locality":"Bornheim","municipality":{"key":"05382012","name":"Bornheim, Stadt","type":"Stadt"},"district":{"key":"05382","name":"Rhein-Sieg-Kreis","type":"Kreis"},"federalState":{"key":"05","name":"Nordrhein-Westfalen"}},{"name":"Eisenacher Str.","postalCode":"53332","locality":"Bornheim","municipality":{"key":"05382012","name":"Bornheim, Stadt","type":"Stadt"},"district":{"key":"05382","name":"Rhein-Sieg-Kreis","type":"Kreis"},"federalState":{"key":"05","name":"Nordrhein-Westfalen"}},{"name":"Elbestr.","postalCode":"53332","locality":"Bornheim","municipality":{"key":"05382012","name":"Bornheim, Stadt","type":"Stadt"},"district":{"key":"05382","name":"Rhein-Sieg-Kreis","type":"Kreis"},"federalState":{"key":"05","name":"Nordrhein-Westfalen"}},{"name":"Elisabeth-Schwarzhaupt-Str.","postalCode":"53332","locality":"Bornheim","municipality":{"key":"05382012","name":"Bornheim, Stadt","type":"Stadt"},"district":{"key":"05382","name":"Rhein-Sieg-Kreis","type":"Kreis"},"federalState":{"key":"05","name":"Nordrhein-Westfalen"}},{"name":"Elsa-Brändström-Str.","postalCode":"53332","locality":"Bornheim","municipality":{"key":"05382012","name":"Bornheim, Stadt","type":"Stadt"},"district":{"key":"05382","name":"Rhein-Sieg-Kreis","type":"Kreis"},"federalState":{"key":"05","name":"Nordrhein-Westfalen"}},{"name":"Elsaßweg","postalCode":"53332","locality":"Bornheim","municipality":{"key":"05382012","name":"Bornheim, Stadt","type":"Stadt"},"district":{"key":"05382","name":"Rhein-Sieg-Kreis","type":"Kreis"},"federalState":{"key":"05","name":"Nordrhein-Westfalen"}},{"name":"Enggasse","postalCode":"53332","locality":"Bornheim","municipality":{"key":"05382012","name":"Bornheim, Stadt","type":"Stadt"},"district":{"key":"05382","name":"Rhein-Sieg-Kreis","type":"Kreis"},"federalState":{"key":"05","name":"Nordrhein-Westfalen"}},{"name":"Erftstr.","postalCode":"53332","locality":"Bornheim","municipality":{"key":"05382012","name":"Bornheim, Stadt","type":"Stadt"},"district":{"key":"05382","name":"Rhein-Sieg-Kreis","type":"Kreis"},"federalState":{"key":"05","name":"Nordrhein-Westfalen"}},{"name":"Erfurter Str.","postalCode":"53332","locality":"Bornheim","municipality":{"key":"05382012","name":"Bornheim, Stadt","type":"Stadt"},"district":{"key":"05382","name":"Rhein-Sieg-Kreis","type":"Kreis"},"federalState":{"key":"05","name":"Nordrhein-Westfalen"}},{"name":"Eulenhecke","postalCode":"55237","locality":"Bornheim","municipality":{"key":"07331012","name":"Bornheim","type":"Kreisangehörige_Gemeinde"},"district":{"key":"07331","name":"Alzey-Worms","type":"Landkreis"},"federalState":{"key":"07","name":"Rheinland-Pfalz"}},{"name":"Eulerhüttenweg","postalCode":"53332","locality":"Bornheim","municipality":{"key":"05382012","name":"Bornheim, Stadt","type":"Stadt"},"district":{"key":"05382","name":"Rhein-Sieg-Kreis","type":"Kreis"},"federalState":{"key":"05","name":"Nordrhein-Westfalen"}},{"name":"Eupener Str.","postalCode":"53332","locality":"Bornheim","municipality":{"key":"05382012","name":"Bornheim, Stadt","type":"Stadt"},"district":{"key":"05382","name":"Rhein-Sieg-Kreis","type":"Kreis"},"federalState":{"key":"05","name":"Nordrhein-Westfalen"}},{"name":"Europaring","postalCode":"53332","locality":"Bornheim","municipality":{"key":"05382012","name":"Bornheim, Stadt","type":"Stadt"},"district":{"key":"05382","name":"Rhein-Sieg-Kreis","type":"Kreis"},"federalState":{"key":"05","name":"Nordrhein-Westfalen"}},{"name":"Fabriweg","postalCode":"53332","locality":"Bornheim","municipality":{"key":"05382012","name":"Bornheim, Stadt","type":"Stadt"},"district":{"key":"05382","name":"Rhein-Sieg-Kreis","type":"Kreis"},"federalState":{"key":"05","name":"Nordrhein-Westfalen"}},{"name":"Fasanenweg","postalCode":"55237","locality":"Bornheim","municipality":{"key":"07331012","name":"Bornheim","type":"Kreisangehörige_Gemeinde"},"district":{"key":"07331","name":"Alzey-Worms","type":"Landkreis"},"federalState":{"key":"07","name":"Rheinland-Pfalz"}},{"name":"Feldchenweg","postalCode":"53332","locality":"Bornheim","municipality":{"key":"05382012","name":"Bornheim, Stadt","type":"Stadt"},"district":{"key":"05382","name":"Rhein-Sieg-Kreis","type":"Kreis"},"federalState":{"key":"05","name":"Nordrhein-Westfalen"}},{"name":"Ferdinand-Rott-Str.","postalCode":"53332","locality":"Bornheim","municipality":{"key":"05382012","name":"Bornheim, Stadt","type":"Stadt"},"district":{"key":"05382","name":"Rhein-Sieg-Kreis","type":"Kreis"},"federalState":{"key":"05","name":"Nordrhein-Westfalen"}},{"name":"Fichtenweg","postalCode":"53332","locality":"Bornheim","municipality":{"key":"05382012","name":"Bornheim, Stadt","type":"Stadt"},"district":{"key":"05382","name":"Rhein-Sieg-Kreis","type":"Kreis"},"federalState":{"key":"05","name":"Nordrhein-Westfalen"}},{"name":"Finkenweg","postalCode":"53332","locality":"Bornheim","municipality":{"key":"05382012","name":"Bornheim, Stadt","type":"Stadt"},"district":{"key":"05382","name":"Rhein-Sieg-Kreis","type":"Kreis"},"federalState":{"key":"05","name":"Nordrhein-Westfalen"}},{"name":"Finkenweg","postalCode":"55237","locality":"Bornheim","municipality":{"key":"07331012","name":"Bornheim","type":"Kreisangehörige_Gemeinde"},"district":{"key":"07331","name":"Alzey-Worms","type":"Landkreis"},"federalState":{"key":"07","name":"Rheinland-Pfalz"}},{"name":"Flammgasse","postalCode":"53332","locality":"Bornheim","municipality":{"key":"05382012","name":"Bornheim, Stadt","type":"Stadt"},"district":{"key":"05382","name":"Rhein-Sieg-Kreis","type":"Kreis"},"federalState":{"key":"05","name":"Nordrhein-Westfalen"}},{"name":"Flandernweg","postalCode":"53332","locality":"Bornheim","municipality":{"key":"05382012","name":"Bornheim, Stadt","type":"Stadt"},"district":{"key":"05382","name":"Rhein-Sieg-Kreis","type":"Kreis"},"federalState":{"key":"05","name":"Nordrhein-Westfalen"}},{"name":"Fliederweg","postalCode":"53332","locality":"Bornheim","municipality":{"key":"05382012","name":"Bornheim, Stadt","type":"Stadt"},"district":{"key":"05382","name":"Rhein-Sieg-Kreis","type":"Kreis"},"federalState":{"key":"05","name":"Nordrhein-Westfalen"}},{"name":"Frankenweg","postalCode":"53332","locality":"Bornheim","municipality":{"key":"05382012","name":"Bornheim, Stadt","type":"Stadt"},"district":{"key":"05382","name":"Rhein-Sieg-Kreis","type":"Kreis"},"federalState":{"key":"05","name":"Nordrhein-Westfalen"}},{"name":"Frankfurter Str.","postalCode":"53332","locality":"Bornheim","municipality":{"key":"05382012","name":"Bornheim, Stadt","type":"Stadt"},"district":{"key":"05382","name":"Rhein-Sieg-Kreis","type":"Kreis"},"federalState":{"key":"05","name":"Nordrhein-Westfalen"}},{"name":"Franz-von-Kempis-Weg","postalCode":"53332","locality":"Bornheim","municipality":{"key":"05382012","name":"Bornheim, Stadt","type":"Stadt"},"district":{"key":"05382","name":"Rhein-Sieg-Kreis","type":"Kreis"},"federalState":{"key":"05","name":"Nordrhein-Westfalen"}},{"name":"Freiherr-vom-Stein-Str.","postalCode":"53332","locality":"Bornheim","municipality":{"key":"05382012","name":"Bornheim, Stadt","type":"Stadt"},"district":{"key":"05382","name":"Rhein-Sieg-Kreis","type":"Kreis"},"federalState":{"key":"05","name":"Nordrhein-Westfalen"}},{"name":"Friedbergstr.","postalCode":"53332","locality":"Bornheim","municipality":{"key":"05382012","name":"Bornheim, Stadt","type":"Stadt"},"district":{"key":"05382","name":"Rhein-Sieg-Kreis","type":"Kreis"},"federalState":{"key":"05","name":"Nordrhein-Westfalen"}},{"name":"Friedensweg","postalCode":"53332","locality":"Bornheim","municipality":{"key":"05382012","name":"Bornheim, Stadt","type":"Stadt"},"district":{"key":"05382","name":"Rhein-Sieg-Kreis","type":"Kreis"},"federalState":{"key":"05","name":"Nordrhein-Westfalen"}},{"name":"Friedrichstr.","postalCode":"53332","locality":"Bornheim","municipality":{"key":"05382012","name":"Bornheim, Stadt","type":"Stadt"},"district":{"key":"05382","name":"Rhein-Sieg-Kreis","type":"Kreis"},"federalState":{"key":"05","name":"Nordrhein-Westfalen"}},{"name":"Friedrich-von-Spee-Str.","postalCode":"53332","locality":"Bornheim","municipality":{"key":"05382012","name":"Bornheim, Stadt","type":"Stadt"},"district":{"key":"05382","name":"Rhein-Sieg-Kreis","type":"Kreis"},"federalState":{"key":"05","name":"Nordrhein-Westfalen"}},{"name":"Friesenweg","postalCode":"53332","locality":"Bornheim","municipality":{"key":"05382012","name":"Bornheim, Stadt","type":"Stadt"},"district":{"key":"05382","name":"Rhein-Sieg-Kreis","type":"Kreis"},"federalState":{"key":"05","name":"Nordrhein-Westfalen"}},{"name":"Fronacker","postalCode":"53332","locality":"Bornheim","municipality":{"key":"05382012","name":"Bornheim, Stadt","type":"Stadt"},"district":{"key":"05382","name":"Rhein-Sieg-Kreis","type":"Kreis"},"federalState":{"key":"05","name":"Nordrhein-Westfalen"}},{"name":"Frongasse","postalCode":"53332","locality":"Bornheim","municipality":{"key":"05382012","name":"Bornheim, Stadt","type":"Stadt"},"district":{"key":"05382","name":"Rhein-Sieg-Kreis","type":"Kreis"},"federalState":{"key":"05","name":"Nordrhein-Westfalen"}},{"name":"Fuhrweg","postalCode":"53332","locality":"Bornheim","municipality":{"key":"05382012","name":"Bornheim, Stadt","type":"Stadt"},"district":{"key":"05382","name":"Rhein-Sieg-Kreis","type":"Kreis"},"federalState":{"key":"05","name":"Nordrhein-Westfalen"}},{"name":"Fuldastr.","postalCode":"53332","locality":"Bornheim","municipality":{"key":"05382012","name":"Bornheim, Stadt","type":"Stadt"},"district":{"key":"05382","name":"Rhein-Sieg-Kreis","type":"Kreis"},"federalState":{"key":"05","name":"Nordrhein-Westfalen"}},{"name":"Fürchespfad","postalCode":"53332","locality":"Bornheim","municipality":{"key":"05382012","name":"Bornheim, Stadt","type":"Stadt"},"district":{"key":"05382","name":"Rhein-Sieg-Kreis","type":"Kreis"},"federalState":{"key":"05","name":"Nordrhein-Westfalen"}},{"name":"Fußkreuzweg","postalCode":"53332","locality":"Bornheim","municipality":{"key":"05382012","name":"Bornheim, Stadt","type":"Stadt"},"district":{"key":"05382","name":"Rhein-Sieg-Kreis","type":"Kreis"},"federalState":{"key":"05","name":"Nordrhein-Westfalen"}},{"name":"Galäerweg","postalCode":"53332","locality":"Bornheim","municipality":{"key":"05382012","name":"Bornheim, Stadt","type":"Stadt"},"district":{"key":"05382","name":"Rhein-Sieg-Kreis","type":"Kreis"},"federalState":{"key":"05","name":"Nordrhein-Westfalen"}},{"name":"Gammersbachweg","postalCode":"53332","locality":"Bornheim","municipality":{"key":"05382012","name":"Bornheim, Stadt","type":"Stadt"},"district":{"key":"05382","name":"Rhein-Sieg-Kreis","type":"Kreis"},"federalState":{"key":"05","name":"Nordrhein-Westfalen"}},{"name":"Gartenfeldstr.","postalCode":"55237","locality":"Bornheim","municipality":{"key":"07331012","name":"Bornheim","type":"Kreisangehörige_Gemeinde"},"district":{"key":"07331","name":"Alzey-Worms","type":"Landkreis"},"federalState":{"key":"07","name":"Rheinland-Pfalz"}},{"name":"Gartenstr.","postalCode":"53332","locality":"Bornheim","municipality":{"key":"05382012","name":"Bornheim, Stadt","type":"Stadt"},"district":{"key":"05382","name":"Rhein-Sieg-Kreis","type":"Kreis"},"federalState":{"key":"05","name":"Nordrhein-Westfalen"}},{"name":"Gartenstr.","postalCode":"76879","locality":"Bornheim","municipality":{"key":"07337014","name":"Bornheim","type":"Kreisangehörige_Gemeinde"},"district":{"key":"07337","name":"Südliche Weinstraße","type":"Landkreis"},"federalState":{"key":"07","name":"Rheinland-Pfalz"}},{"name":"Gärtnersiedlung","postalCode":"53332","locality":"Bornheim","municipality":{"key":"05382012","name":"Bornheim, Stadt","type":"Stadt"},"district":{"key":"05382","name":"Rhein-Sieg-Kreis","type":"Kreis"},"federalState":{"key":"05","name":"Nordrhein-Westfalen"}},{"name":"Gebrüder-Grimm-Str.","postalCode":"53332","locality":"Bornheim","municipality":{"key":"05382012","name":"Bornheim, Stadt","type":"Stadt"},"district":{"key":"05382","name":"Rhein-Sieg-Kreis","type":"Kreis"},"federalState":{"key":"05","name":"Nordrhein-Westfalen"}},{"name":"Gebrüder-Kall-Str.","postalCode":"53332","locality":"Bornheim","municipality":{"key":"05382012","name":"Bornheim, Stadt","type":"Stadt"},"district":{"key":"05382","name":"Rhein-Sieg-Kreis","type":"Kreis"},"federalState":{"key":"05","name":"Nordrhein-Westfalen"}},{"name":"Gelendigweg","postalCode":"53332","locality":"Bornheim","municipality":{"key":"05382012","name":"Bornheim, Stadt","type":"Stadt"},"district":{"key":"05382","name":"Rhein-Sieg-Kreis","type":"Kreis"},"federalState":{"key":"05","name":"Nordrhein-Westfalen"}},{"name":"Gemüseweg","postalCode":"53332","locality":"Bornheim","municipality":{"key":"05382012","name":"Bornheim, Stadt","type":"Stadt"},"district":{"key":"05382","name":"Rhein-Sieg-Kreis","type":"Kreis"},"federalState":{"key":"05","name":"Nordrhein-Westfalen"}},{"name":"Germanenstr.","postalCode":"53332","locality":"Bornheim","municipality":{"key":"05382012","name":"Bornheim, Stadt","type":"Stadt"},"district":{"key":"05382","name":"Rhein-Sieg-Kreis","type":"Kreis"},"federalState":{"key":"05","name":"Nordrhein-Westfalen"}},{"name":"Gervasiusstr.","postalCode":"53332","locality":"Bornheim","municipality":{"key":"05382012","name":"Bornheim, Stadt","type":"Stadt"},"district":{"key":"05382","name":"Rhein-Sieg-Kreis","type":"Kreis"},"federalState":{"key":"05","name":"Nordrhein-Westfalen"}},{"name":"Geschwister-Scholl-Weg","postalCode":"53332","locality":"Bornheim","municipality":{"key":"05382012","name":"Bornheim, Stadt","type":"Stadt"},"district":{"key":"05382","name":"Rhein-Sieg-Kreis","type":"Kreis"},"federalState":{"key":"05","name":"Nordrhein-Westfalen"}},{"name":"Gießübel","postalCode":"76879","locality":"Bornheim","municipality":{"key":"07337014","name":"Bornheim","type":"Kreisangehörige_Gemeinde"},"district":{"key":"07337","name":"Südliche Weinstraße","type":"Landkreis"},"federalState":{"key":"07","name":"Rheinland-Pfalz"}},{"name":"Gillesweg","postalCode":"53332","locality":"Bornheim","municipality":{"key":"05382012","name":"Bornheim, Stadt","type":"Stadt"},"district":{"key":"05382","name":"Rhein-Sieg-Kreis","type":"Kreis"},"federalState":{"key":"05","name":"Nordrhein-Westfalen"}},{"name":"Ginhofer Str.","postalCode":"53332","locality":"Bornheim","municipality":{"key":"05382012","name":"Bornheim, Stadt","type":"Stadt"},"district":{"key":"05382","name":"Rhein-Sieg-Kreis","type":"Kreis"},"federalState":{"key":"05","name":"Nordrhein-Westfalen"}},{"name":"Goethestr.","postalCode":"53332","locality":"Bornheim","municipality":{"key":"05382012","name":"Bornheim, Stadt","type":"Stadt"},"district":{"key":"05382","name":"Rhein-Sieg-Kreis","type":"Kreis"},"federalState":{"key":"05","name":"Nordrhein-Westfalen"}},{"name":"Gotenweg","postalCode":"53332","locality":"Bornheim","municipality":{"key":"05382012","name":"Bornheim, Stadt","type":"Stadt"},"district":{"key":"05382","name":"Rhein-Sieg-Kreis","type":"Kreis"},"federalState":{"key":"05","name":"Nordrhein-Westfalen"}},{"name":"Gotlandweg","postalCode":"53332","locality":"Bornheim","municipality":{"key":"05382012","name":"Bornheim, Stadt","type":"Stadt"},"district":{"key":"05382","name":"Rhein-Sieg-Kreis","type":"Kreis"},"federalState":{"key":"05","name":"Nordrhein-Westfalen"}},{"name":"Graue-Burg-Str.","postalCode":"53332","locality":"Bornheim","municipality":{"key":"05382012","name":"Bornheim, Stadt","type":"Stadt"},"district":{"key":"05382","name":"Rhein-Sieg-Kreis","type":"Kreis"},"federalState":{"key":"05","name":"Nordrhein-Westfalen"}},{"name":"Grenzstr.","postalCode":"53332","locality":"Bornheim","municipality":{"key":"05382012","name":"Bornheim, Stadt","type":"Stadt"},"district":{"key":"05382","name":"Rhein-Sieg-Kreis","type":"Kreis"},"federalState":{"key":"05","name":"Nordrhein-Westfalen"}},{"name":"Griegstr.","postalCode":"53332","locality":"Bornheim","municipality":{"key":"05382012","name":"Bornheim, Stadt","type":"Stadt"},"district":{"key":"05382","name":"Rhein-Sieg-Kreis","type":"Kreis"},"federalState":{"key":"05","name":"Nordrhein-Westfalen"}},{"name":"Gringel","postalCode":"53332","locality":"Bornheim","municipality":{"key":"05382012","name":"Bornheim, Stadt","type":"Stadt"},"district":{"key":"05382","name":"Rhein-Sieg-Kreis","type":"Kreis"},"federalState":{"key":"05","name":"Nordrhein-Westfalen"}},{"name":"Grommeshofstr.","postalCode":"53332","locality":"Bornheim","municipality":{"key":"05382012","name":"Bornheim, Stadt","type":"Stadt"},"district":{"key":"05382","name":"Rhein-Sieg-Kreis","type":"Kreis"},"federalState":{"key":"05","name":"Nordrhein-Westfalen"}},{"name":"Grüner Weg","postalCode":"53332","locality":"Bornheim","municipality":{"key":"05382012","name":"Bornheim, Stadt","type":"Stadt"},"district":{"key":"05382","name":"Rhein-Sieg-Kreis","type":"Kreis"},"federalState":{"key":"05","name":"Nordrhein-Westfalen"}},{"name":"Grünewaldstr.","postalCode":"53332","locality":"Bornheim","municipality":{"key":"05382012","name":"Bornheim, Stadt","type":"Stadt"},"district":{"key":"05382","name":"Rhein-Sieg-Kreis","type":"Kreis"},"federalState":{"key":"05","name":"Nordrhein-Westfalen"}},{"name":"Gudula-Clasen-Platz","postalCode":"53332","locality":"Bornheim","municipality":{"key":"05382012","name":"Bornheim, Stadt","type":"Stadt"},"district":{"key":"05382","name":"Rhein-Sieg-Kreis","type":"Kreis"},"federalState":{"key":"05","name":"Nordrhein-Westfalen"}},{"name":"Gütchenweg","postalCode":"53332","locality":"Bornheim","municipality":{"key":"05382012","name":"Bornheim, Stadt","type":"Stadt"},"district":{"key":"05382","name":"Rhein-Sieg-Kreis","type":"Kreis"},"federalState":{"key":"05","name":"Nordrhein-Westfalen"}},{"name":"Gutenbergstr.","postalCode":"53332","locality":"Bornheim","municipality":{"key":"05382012","name":"Bornheim, Stadt","type":"Stadt"},"district":{"key":"05382","name":"Rhein-Sieg-Kreis","type":"Kreis"},"federalState":{"key":"05","name":"Nordrhein-Westfalen"}},{"name":"Güterbahnhofstr.","postalCode":"53332","locality":"Bornheim","municipality":{"key":"05382012","name":"Bornheim, Stadt","type":"Stadt"},"district":{"key":"05382","name":"Rhein-Sieg-Kreis","type":"Kreis"},"federalState":{"key":"05","name":"Nordrhein-Westfalen"}},{"name":"Haasbachstr.","postalCode":"53332","locality":"Bornheim","municipality":{"key":"05382012","name":"Bornheim, Stadt","type":"Stadt"},"district":{"key":"05382","name":"Rhein-Sieg-Kreis","type":"Kreis"},"federalState":{"key":"05","name":"Nordrhein-Westfalen"}},{"name":"Hagenstr.","postalCode":"53332","locality":"Bornheim","municipality":{"key":"05382012","name":"Bornheim, Stadt","type":"Stadt"},"district":{"key":"05382","name":"Rhein-Sieg-Kreis","type":"Kreis"},"federalState":{"key":"05","name":"Nordrhein-Westfalen"}},{"name":"Hanns-Dieter-Hüsch-Weg","postalCode":"53332","locality":"Bornheim","municipality":{"key":"05382012","name":"Bornheim, Stadt","type":"Stadt"},"district":{"key":"05382","name":"Rhein-Sieg-Kreis","type":"Kreis"},"federalState":{"key":"05","name":"Nordrhein-Westfalen"}},{"name":"Hanrathstr.","postalCode":"53332","locality":"Bornheim","municipality":{"key":"05382012","name":"Bornheim, Stadt","type":"Stadt"},"district":{"key":"05382","name":"Rhein-Sieg-Kreis","type":"Kreis"},"federalState":{"key":"05","name":"Nordrhein-Westfalen"}},{"name":"Hardtweg","postalCode":"53332","locality":"Bornheim","municipality":{"key":"05382012","name":"Bornheim, Stadt","type":"Stadt"},"district":{"key":"05382","name":"Rhein-Sieg-Kreis","type":"Kreis"},"federalState":{"key":"05","name":"Nordrhein-Westfalen"}},{"name":"Hauptstr.","postalCode":"53332","locality":"Bornheim","municipality":{"key":"05382012","name":"Bornheim, Stadt","type":"Stadt"},"district":{"key":"05382","name":"Rhein-Sieg-Kreis","type":"Kreis"},"federalState":{"key":"05","name":"Nordrhein-Westfalen"}},{"name":"Hauptstr.","postalCode":"76879","locality":"Bornheim","municipality":{"key":"07337014","name":"Bornheim","type":"Kreisangehörige_Gemeinde"},"district":{"key":"07337","name":"Südliche Weinstraße","type":"Landkreis"},"federalState":{"key":"07","name":"Rheinland-Pfalz"}},{"name":"Havelstr.","postalCode":"53332","locality":"Bornheim","municipality":{"key":"05382012","name":"Bornheim, Stadt","type":"Stadt"},"district":{"key":"05382","name":"Rhein-Sieg-Kreis","type":"Kreis"},"federalState":{"key":"05","name":"Nordrhein-Westfalen"}},{"name":"Hebbelstr.","postalCode":"53332","locality":"Bornheim","municipality":{"key":"05382012","name":"Bornheim, Stadt","type":"Stadt"},"district":{"key":"05382","name":"Rhein-Sieg-Kreis","type":"Kreis"},"federalState":{"key":"05","name":"Nordrhein-Westfalen"}},{"name":"Heerweg","postalCode":"53332","locality":"Bornheim","municipality":{"key":"05382012","name":"Bornheim, Stadt","type":"Stadt"},"district":{"key":"05382","name":"Rhein-Sieg-Kreis","type":"Kreis"},"federalState":{"key":"05","name":"Nordrhein-Westfalen"}},{"name":"Heiderbergstr.","postalCode":"53332","locality":"Bornheim","municipality":{"key":"05382012","name":"Bornheim, Stadt","type":"Stadt"},"district":{"key":"05382","name":"Rhein-Sieg-Kreis","type":"Kreis"},"federalState":{"key":"05","name":"Nordrhein-Westfalen"}},{"name":"Heideweg","postalCode":"53332","locality":"Bornheim","municipality":{"key":"05382012","name":"Bornheim, Stadt","type":"Stadt"},"district":{"key":"05382","name":"Rhein-Sieg-Kreis","type":"Kreis"},"federalState":{"key":"05","name":"Nordrhein-Westfalen"}},{"name":"Heilgersstr.","postalCode":"53332","locality":"Bornheim","municipality":{"key":"05382012","name":"Bornheim, Stadt","type":"Stadt"},"district":{"key":"05382","name":"Rhein-Sieg-Kreis","type":"Kreis"},"federalState":{"key":"05","name":"Nordrhein-Westfalen"}},{"name":"Heimerzheimer Str.","postalCode":"53332","locality":"Bornheim","municipality":{"key":"05382012","name":"Bornheim, Stadt","type":"Stadt"},"district":{"key":"05382","name":"Rhein-Sieg-Kreis","type":"Kreis"},"federalState":{"key":"05","name":"Nordrhein-Westfalen"}},{"name":"Heinestr.","postalCode":"53332","locality":"Bornheim","municipality":{"key":"05382012","name":"Bornheim, Stadt","type":"Stadt"},"district":{"key":"05382","name":"Rhein-Sieg-Kreis","type":"Kreis"},"federalState":{"key":"05","name":"Nordrhein-Westfalen"}},{"name":"Heinrich-Böll-Platz","postalCode":"53332","locality":"Bornheim","municipality":{"key":"05382012","name":"Bornheim, Stadt","type":"Stadt"},"district":{"key":"05382","name":"Rhein-Sieg-Kreis","type":"Kreis"},"federalState":{"key":"05","name":"Nordrhein-Westfalen"}},{"name":"Heinrich-Cremer-Str.","postalCode":"53332","locality":"Bornheim","municipality":{"key":"05382012","name":"Bornheim, Stadt","type":"Stadt"},"district":{"key":"05382","name":"Rhein-Sieg-Kreis","type":"Kreis"},"federalState":{"key":"05","name":"Nordrhein-Westfalen"}},{"name":"Heinrich-von-Berge-Weg","postalCode":"53332","locality":"Bornheim","municipality":{"key":"05382012","name":"Bornheim, Stadt","type":"Stadt"},"district":{"key":"05382","name":"Rhein-Sieg-Kreis","type":"Kreis"},"federalState":{"key":"05","name":"Nordrhein-Westfalen"}},{"name":"Heisterbacher Str.","postalCode":"53332","locality":"Bornheim","municipality":{"key":"05382012","name":"Bornheim, Stadt","type":"Stadt"},"district":{"key":"05382","name":"Rhein-Sieg-Kreis","type":"Kreis"},"federalState":{"key":"05","name":"Nordrhein-Westfalen"}},{"name":"Helene-Weber-Str.","postalCode":"53332","locality":"Bornheim","municipality":{"key":"05382012","name":"Bornheim, Stadt","type":"Stadt"},"district":{"key":"05382","name":"Rhein-Sieg-Kreis","type":"Kreis"},"federalState":{"key":"05","name":"Nordrhein-Westfalen"}},{"name":"Hellstr.","postalCode":"53332","locality":"Bornheim","municipality":{"key":"05382012","name":"Bornheim, Stadt","type":"Stadt"},"district":{"key":"05382","name":"Rhein-Sieg-Kreis","type":"Kreis"},"federalState":{"key":"05","name":"Nordrhein-Westfalen"}},{"name":"Hemberger Str.","postalCode":"53332","locality":"Bornheim","municipality":{"key":"05382012","name":"Bornheim, Stadt","type":"Stadt"},"district":{"key":"05382","name":"Rhein-Sieg-Kreis","type":"Kreis"},"federalState":{"key":"05","name":"Nordrhein-Westfalen"}},{"name":"Hemmergasse","postalCode":"53332","locality":"Bornheim","municipality":{"key":"05382012","name":"Bornheim, Stadt","type":"Stadt"},"district":{"key":"05382","name":"Rhein-Sieg-Kreis","type":"Kreis"},"federalState":{"key":"05","name":"Nordrhein-Westfalen"}},{"name":"Hennesenbergstr.","postalCode":"53332","locality":"Bornheim","municipality":{"key":"05382012","name":"Bornheim, Stadt","type":"Stadt"},"district":{"key":"05382","name":"Rhein-Sieg-Kreis","type":"Kreis"},"federalState":{"key":"05","name":"Nordrhein-Westfalen"}},{"name":"Herderstr.","postalCode":"53332","locality":"Bornheim","municipality":{"key":"05382012","name":"Bornheim, Stadt","type":"Stadt"},"district":{"key":"05382","name":"Rhein-Sieg-Kreis","type":"Kreis"},"federalState":{"key":"05","name":"Nordrhein-Westfalen"}},{"name":"Hermann-Löns-Str.","postalCode":"53332","locality":"Bornheim","municipality":{"key":"05382012","name":"Bornheim, Stadt","type":"Stadt"},"district":{"key":"05382","name":"Rhein-Sieg-Kreis","type":"Kreis"},"federalState":{"key":"05","name":"Nordrhein-Westfalen"}},{"name":"Herrenhäuschenweg","postalCode":"53332","locality":"Bornheim","municipality":{"key":"05382012","name":"Bornheim, Stadt","type":"Stadt"},"district":{"key":"05382","name":"Rhein-Sieg-Kreis","type":"Kreis"},"federalState":{"key":"05","name":"Nordrhein-Westfalen"}},{"name":"Herrenkreuzweg","postalCode":"53332","locality":"Bornheim","municipality":{"key":"05382012","name":"Bornheim, Stadt","type":"Stadt"},"district":{"key":"05382","name":"Rhein-Sieg-Kreis","type":"Kreis"},"federalState":{"key":"05","name":"Nordrhein-Westfalen"}},{"name":"Herseler Str.","postalCode":"53332","locality":"Bornheim","municipality":{"key":"05382012","name":"Bornheim, Stadt","type":"Stadt"},"district":{"key":"05382","name":"Rhein-Sieg-Kreis","type":"Kreis"},"federalState":{"key":"05","name":"Nordrhein-Westfalen"}},{"name":"Herseler Weg","postalCode":"53332","locality":"Bornheim","municipality":{"key":"05382012","name":"Bornheim, Stadt","type":"Stadt"},"district":{"key":"05382","name":"Rhein-Sieg-Kreis","type":"Kreis"},"federalState":{"key":"05","name":"Nordrhein-Westfalen"}},{"name":"Herseler Werth, Steg 1","postalCode":"53332","locality":"Bornheim","municipality":{"key":"05382012","name":"Bornheim, Stadt","type":"Stadt"},"district":{"key":"05382","name":"Rhein-Sieg-Kreis","type":"Kreis"},"federalState":{"key":"05","name":"Nordrhein-Westfalen"}},{"name":"Herseler Werth, Steg 2","postalCode":"53332","locality":"Bornheim","municipality":{"key":"05382012","name":"Bornheim, Stadt","type":"Stadt"},"district":{"key":"05382","name":"Rhein-Sieg-Kreis","type":"Kreis"},"federalState":{"key":"05","name":"Nordrhein-Westfalen"}},{"name":"Hessenweg","postalCode":"53332","locality":"Bornheim","municipality":{"key":"05382012","name":"Bornheim, Stadt","type":"Stadt"},"district":{"key":"05382","name":"Rhein-Sieg-Kreis","type":"Kreis"},"federalState":{"key":"05","name":"Nordrhein-Westfalen"}},{"name":"Heussstr.","postalCode":"53332","locality":"Bornheim","municipality":{"key":"05382012","name":"Bornheim, Stadt","type":"Stadt"},"district":{"key":"05382","name":"Rhein-Sieg-Kreis","type":"Kreis"},"federalState":{"key":"05","name":"Nordrhein-Westfalen"}},{"name":"Hexenweg","postalCode":"53332","locality":"Bornheim","municipality":{"key":"05382012","name":"Bornheim, Stadt","type":"Stadt"},"district":{"key":"05382","name":"Rhein-Sieg-Kreis","type":"Kreis"},"federalState":{"key":"05","name":"Nordrhein-Westfalen"}},{"name":"Hildegard-von-Bingen-Str.","postalCode":"53332","locality":"Bornheim","municipality":{"key":"05382012","name":"Bornheim, Stadt","type":"Stadt"},"district":{"key":"05382","name":"Rhein-Sieg-Kreis","type":"Kreis"},"federalState":{"key":"05","name":"Nordrhein-Westfalen"}},{"name":"Hilger-Thiesen-Str.","postalCode":"53332","locality":"Bornheim","municipality":{"key":"05382012","name":"Bornheim, Stadt","type":"Stadt"},"district":{"key":"05382","name":"Rhein-Sieg-Kreis","type":"Kreis"},"federalState":{"key":"05","name":"Nordrhein-Westfalen"}},{"name":"Hindenburgring","postalCode":"55237","locality":"Bornheim","municipality":{"key":"07331012","name":"Bornheim","type":"Kreisangehörige_Gemeinde"},"district":{"key":"07331","name":"Alzey-Worms","type":"Landkreis"},"federalState":{"key":"07","name":"Rheinland-Pfalz"}},{"name":"Hohenlindstr.","postalCode":"53332","locality":"Bornheim","municipality":{"key":"05382012","name":"Bornheim, Stadt","type":"Stadt"},"district":{"key":"05382","name":"Rhein-Sieg-Kreis","type":"Kreis"},"federalState":{"key":"05","name":"Nordrhein-Westfalen"}},{"name":"Höhenweg","postalCode":"53332","locality":"Bornheim","municipality":{"key":"05382012","name":"Bornheim, Stadt","type":"Stadt"},"district":{"key":"05382","name":"Rhein-Sieg-Kreis","type":"Kreis"},"federalState":{"key":"05","name":"Nordrhein-Westfalen"}},{"name":"Hohes Ufer","postalCode":"53332","locality":"Bornheim","municipality":{"key":"05382012","name":"Bornheim, Stadt","type":"Stadt"},"district":{"key":"05382","name":"Rhein-Sieg-Kreis","type":"Kreis"},"federalState":{"key":"05","name":"Nordrhein-Westfalen"}},{"name":"Hohlenberg","postalCode":"53332","locality":"Bornheim","municipality":{"key":"05382012","name":"Bornheim, Stadt","type":"Stadt"},"district":{"key":"05382","name":"Rhein-Sieg-Kreis","type":"Kreis"},"federalState":{"key":"05","name":"Nordrhein-Westfalen"}},{"name":"Hohlgasse","postalCode":"53332","locality":"Bornheim","municipality":{"key":"05382012","name":"Bornheim, Stadt","type":"Stadt"},"district":{"key":"05382","name":"Rhein-Sieg-Kreis","type":"Kreis"},"federalState":{"key":"05","name":"Nordrhein-Westfalen"}},{"name":"Hohlweg","postalCode":"53332","locality":"Bornheim","municipality":{"key":"05382012","name":"Bornheim, Stadt","type":"Stadt"},"district":{"key":"05382","name":"Rhein-Sieg-Kreis","type":"Kreis"},"federalState":{"key":"05","name":"Nordrhein-Westfalen"}},{"name":"Höhnenstr.","postalCode":"53332","locality":"Bornheim","municipality":{"key":"05382012","name":"Bornheim, Stadt","type":"Stadt"},"district":{"key":"05382","name":"Rhein-Sieg-Kreis","type":"Kreis"},"federalState":{"key":"05","name":"Nordrhein-Westfalen"}},{"name":"Hollandweg","postalCode":"53332","locality":"Bornheim","municipality":{"key":"05382012","name":"Bornheim, Stadt","type":"Stadt"},"district":{"key":"05382","name":"Rhein-Sieg-Kreis","type":"Kreis"},"federalState":{"key":"05","name":"Nordrhein-Westfalen"}},{"name":"Holzweg","postalCode":"53332","locality":"Bornheim","municipality":{"key":"05382012","name":"Bornheim, Stadt","type":"Stadt"},"district":{"key":"05382","name":"Rhein-Sieg-Kreis","type":"Kreis"},"federalState":{"key":"05","name":"Nordrhein-Westfalen"}},{"name":"Hordorfer Weg","postalCode":"53332","locality":"Bornheim","municipality":{"key":"05382012","name":"Bornheim, Stadt","type":"Stadt"},"district":{"key":"05382","name":"Rhein-Sieg-Kreis","type":"Kreis"},"federalState":{"key":"05","name":"Nordrhein-Westfalen"}},{"name":"Hornbachstr.","postalCode":"76879","locality":"Bornheim","municipality":{"key":"07337014","name":"Bornheim","type":"Kreisangehörige_Gemeinde"},"district":{"key":"07337","name":"Südliche Weinstraße","type":"Landkreis"},"federalState":{"key":"07","name":"Rheinland-Pfalz"}},{"name":"Horstpfad","postalCode":"76879","locality":"Bornheim","municipality":{"key":"07337014","name":"Bornheim","type":"Kreisangehörige_Gemeinde"},"district":{"key":"07337","name":"Südliche Weinstraße","type":"Landkreis"},"federalState":{"key":"07","name":"Rheinland-Pfalz"}},{"name":"Illerstr.","postalCode":"53332","locality":"Bornheim","municipality":{"key":"05382012","name":"Bornheim, Stadt","type":"Stadt"},"district":{"key":"05382","name":"Rhein-Sieg-Kreis","type":"Kreis"},"federalState":{"key":"05","name":"Nordrhein-Westfalen"}},{"name":"Im Eck","postalCode":"55237","locality":"Bornheim","municipality":{"key":"07331012","name":"Bornheim","type":"Kreisangehörige_Gemeinde"},"district":{"key":"07331","name":"Alzey-Worms","type":"Landkreis"},"federalState":{"key":"07","name":"Rheinland-Pfalz"}},{"name":"Im Grommesgarten","postalCode":"53332","locality":"Bornheim","municipality":{"key":"05382012","name":"Bornheim, Stadt","type":"Stadt"},"district":{"key":"05382","name":"Rhein-Sieg-Kreis","type":"Kreis"},"federalState":{"key":"05","name":"Nordrhein-Westfalen"}},{"name":"Im König","postalCode":"53332","locality":"Bornheim","municipality":{"key":"05382012","name":"Bornheim, Stadt","type":"Stadt"},"district":{"key":"05382","name":"Rhein-Sieg-Kreis","type":"Kreis"},"federalState":{"key":"05","name":"Nordrhein-Westfalen"}},{"name":"Im Krautgarten","postalCode":"76879","locality":"Bornheim","municipality":{"key":"07337014","name":"Bornheim","type":"Kreisangehörige_Gemeinde"},"district":{"key":"07337","name":"Südliche Weinstraße","type":"Landkreis"},"federalState":{"key":"07","name":"Rheinland-Pfalz"}},{"name":"Im Rosengarten","postalCode":"53332","locality":"Bornheim","municipality":{"key":"05382012","name":"Bornheim, Stadt","type":"Stadt"},"district":{"key":"05382","name":"Rhein-Sieg-Kreis","type":"Kreis"},"federalState":{"key":"05","name":"Nordrhein-Westfalen"}},{"name":"Im Schneider","postalCode":"55237","locality":"Bornheim","municipality":{"key":"07331012","name":"Bornheim","type":"Kreisangehörige_Gemeinde"},"district":{"key":"07331","name":"Alzey-Worms","type":"Landkreis"},"federalState":{"key":"07","name":"Rheinland-Pfalz"}},{"name":"In den Weppen","postalCode":"76879","locality":"Bornheim","municipality":{"key":"07337014","name":"Bornheim","type":"Kreisangehörige_Gemeinde"},"district":{"key":"07337","name":"Südliche Weinstraße","type":"Landkreis"},"federalState":{"key":"07","name":"Rheinland-Pfalz"}},{"name":"In der Liebefläche","postalCode":"53332","locality":"Bornheim","municipality":{"key":"05382012","name":"Bornheim, Stadt","type":"Stadt"},"district":{"key":"05382","name":"Rhein-Sieg-Kreis","type":"Kreis"},"federalState":{"key":"05","name":"Nordrhein-Westfalen"}},{"name":"In der Profffläche","postalCode":"53332","locality":"Bornheim","municipality":{"key":"05382012","name":"Bornheim, Stadt","type":"Stadt"},"district":{"key":"05382","name":"Rhein-Sieg-Kreis","type":"Kreis"},"federalState":{"key":"05","name":"Nordrhein-Westfalen"}},{"name":"Inselstr.","postalCode":"53332","locality":"Bornheim","municipality":{"key":"05382012","name":"Bornheim, Stadt","type":"Stadt"},"district":{"key":"05382","name":"Rhein-Sieg-Kreis","type":"Kreis"},"federalState":{"key":"05","name":"Nordrhein-Westfalen"}},{"name":"Irlenpütz","postalCode":"53332","locality":"Bornheim","municipality":{"key":"05382012","name":"Bornheim, Stadt","type":"Stadt"},"district":{"key":"05382","name":"Rhein-Sieg-Kreis","type":"Kreis"},"federalState":{"key":"05","name":"Nordrhein-Westfalen"}},{"name":"Isarstr.","postalCode":"53332","locality":"Bornheim","municipality":{"key":"05382012","name":"Bornheim, Stadt","type":"Stadt"},"district":{"key":"05382","name":"Rhein-Sieg-Kreis","type":"Kreis"},"federalState":{"key":"05","name":"Nordrhein-Westfalen"}},{"name":"Jakobstr.","postalCode":"53332","locality":"Bornheim","municipality":{"key":"05382012","name":"Bornheim, Stadt","type":"Stadt"},"district":{"key":"05382","name":"Rhein-Sieg-Kreis","type":"Kreis"},"federalState":{"key":"05","name":"Nordrhein-Westfalen"}},{"name":"Jenaer Str.","postalCode":"53332","locality":"Bornheim","municipality":{"key":"05382012","name":"Bornheim, Stadt","type":"Stadt"},"district":{"key":"05382","name":"Rhein-Sieg-Kreis","type":"Kreis"},"federalState":{"key":"05","name":"Nordrhein-Westfalen"}},{"name":"Jennerstr.","postalCode":"53332","locality":"Bornheim","municipality":{"key":"05382012","name":"Bornheim, Stadt","type":"Stadt"},"district":{"key":"05382","name":"Rhein-Sieg-Kreis","type":"Kreis"},"federalState":{"key":"05","name":"Nordrhein-Westfalen"}},{"name":"Jesuitenbungert","postalCode":"53332","locality":"Bornheim","municipality":{"key":"05382012","name":"Bornheim, Stadt","type":"Stadt"},"district":{"key":"05382","name":"Rhein-Sieg-Kreis","type":"Kreis"},"federalState":{"key":"05","name":"Nordrhein-Westfalen"}},{"name":"Jodokusstr.","postalCode":"53332","locality":"Bornheim","municipality":{"key":"05382012","name":"Bornheim, Stadt","type":"Stadt"},"district":{"key":"05382","name":"Rhein-Sieg-Kreis","type":"Kreis"},"federalState":{"key":"05","name":"Nordrhein-Westfalen"}},{"name":"Johann-Heister-Weg","postalCode":"53332","locality":"Bornheim","municipality":{"key":"05382012","name":"Bornheim, Stadt","type":"Stadt"},"district":{"key":"05382","name":"Rhein-Sieg-Kreis","type":"Kreis"},"federalState":{"key":"05","name":"Nordrhein-Westfalen"}},{"name":"Johann-Philipp-Reis-Str.","postalCode":"53332","locality":"Bornheim","municipality":{"key":"05382012","name":"Bornheim, Stadt","type":"Stadt"},"district":{"key":"05382","name":"Rhein-Sieg-Kreis","type":"Kreis"},"federalState":{"key":"05","name":"Nordrhein-Westfalen"}},{"name":"Jörg-Immendorff-Str.","postalCode":"53332","locality":"Bornheim","municipality":{"key":"05382012","name":"Bornheim, Stadt","type":"Stadt"},"district":{"key":"05382","name":"Rhein-Sieg-Kreis","type":"Kreis"},"federalState":{"key":"05","name":"Nordrhein-Westfalen"}},{"name":"Josef-Görtz-Str.","postalCode":"53332","locality":"Bornheim","municipality":{"key":"05382012","name":"Bornheim, Stadt","type":"Stadt"},"district":{"key":"05382","name":"Rhein-Sieg-Kreis","type":"Kreis"},"federalState":{"key":"05","name":"Nordrhein-Westfalen"}},{"name":"Josephine-von-Boeselager-Str.","postalCode":"53332","locality":"Bornheim","municipality":{"key":"05382012","name":"Bornheim, Stadt","type":"Stadt"},"district":{"key":"05382","name":"Rhein-Sieg-Kreis","type":"Kreis"},"federalState":{"key":"05","name":"Nordrhein-Westfalen"}},{"name":"Jupiterstr.","postalCode":"53332","locality":"Bornheim","municipality":{"key":"05382012","name":"Bornheim, Stadt","type":"Stadt"},"district":{"key":"05382","name":"Rhein-Sieg-Kreis","type":"Kreis"},"federalState":{"key":"05","name":"Nordrhein-Westfalen"}},{"name":"Kaiserstr.","postalCode":"53332","locality":"Bornheim","municipality":{"key":"05382012","name":"Bornheim, Stadt","type":"Stadt"},"district":{"key":"05382","name":"Rhein-Sieg-Kreis","type":"Kreis"},"federalState":{"key":"05","name":"Nordrhein-Westfalen"}},{"name":"Kalkstr.","postalCode":"53332","locality":"Bornheim","municipality":{"key":"05382012","name":"Bornheim, Stadt","type":"Stadt"},"district":{"key":"05382","name":"Rhein-Sieg-Kreis","type":"Kreis"},"federalState":{"key":"05","name":"Nordrhein-Westfalen"}},{"name":"Kallenbergstr.","postalCode":"53332","locality":"Bornheim","municipality":{"key":"05382012","name":"Bornheim, Stadt","type":"Stadt"},"district":{"key":"05382","name":"Rhein-Sieg-Kreis","type":"Kreis"},"federalState":{"key":"05","name":"Nordrhein-Westfalen"}},{"name":"Kämpchenweg","postalCode":"53332","locality":"Bornheim","municipality":{"key":"05382012","name":"Bornheim, Stadt","type":"Stadt"},"district":{"key":"05382","name":"Rhein-Sieg-Kreis","type":"Kreis"},"federalState":{"key":"05","name":"Nordrhein-Westfalen"}},{"name":"Kampsweg","postalCode":"53332","locality":"Bornheim","municipality":{"key":"05382012","name":"Bornheim, Stadt","type":"Stadt"},"district":{"key":"05382","name":"Rhein-Sieg-Kreis","type":"Kreis"},"federalState":{"key":"05","name":"Nordrhein-Westfalen"}},{"name":"Kantstr.","postalCode":"53332","locality":"Bornheim","municipality":{"key":"05382012","name":"Bornheim, Stadt","type":"Stadt"},"district":{"key":"05382","name":"Rhein-Sieg-Kreis","type":"Kreis"},"federalState":{"key":"05","name":"Nordrhein-Westfalen"}},{"name":"Kapellenstr.","postalCode":"53332","locality":"Bornheim","municipality":{"key":"05382012","name":"Bornheim, Stadt","type":"Stadt"},"district":{"key":"05382","name":"Rhein-Sieg-Kreis","type":"Kreis"},"federalState":{"key":"05","name":"Nordrhein-Westfalen"}},{"name":"Kapitelweg","postalCode":"53332","locality":"Bornheim","municipality":{"key":"05382012","name":"Bornheim, Stadt","type":"Stadt"},"district":{"key":"05382","name":"Rhein-Sieg-Kreis","type":"Kreis"},"federalState":{"key":"05","name":"Nordrhein-Westfalen"}},{"name":"Kardorfer Str.","postalCode":"53332","locality":"Bornheim","municipality":{"key":"05382012","name":"Bornheim, Stadt","type":"Stadt"},"district":{"key":"05382","name":"Rhein-Sieg-Kreis","type":"Kreis"},"federalState":{"key":"05","name":"Nordrhein-Westfalen"}},{"name":"Karolingerstr.","postalCode":"53332","locality":"Bornheim","municipality":{"key":"05382012","name":"Bornheim, Stadt","type":"Stadt"},"district":{"key":"05382","name":"Rhein-Sieg-Kreis","type":"Kreis"},"federalState":{"key":"05","name":"Nordrhein-Westfalen"}},{"name":"Kartäuserstr.","postalCode":"53332","locality":"Bornheim","municipality":{"key":"05382012","name":"Bornheim, Stadt","type":"Stadt"},"district":{"key":"05382","name":"Rhein-Sieg-Kreis","type":"Kreis"},"federalState":{"key":"05","name":"Nordrhein-Westfalen"}},{"name":"Käthe-Kollwitz-Weg","postalCode":"53332","locality":"Bornheim","municipality":{"key":"05382012","name":"Bornheim, Stadt","type":"Stadt"},"district":{"key":"05382","name":"Rhein-Sieg-Kreis","type":"Kreis"},"federalState":{"key":"05","name":"Nordrhein-Westfalen"}},{"name":"Kath. Pfarrkirche St. Walburga","postalCode":"53332","locality":"Bornheim","municipality":{"key":"05382012","name":"Bornheim, Stadt","type":"Stadt"},"district":{"key":"05382","name":"Rhein-Sieg-Kreis","type":"Kreis"},"federalState":{"key":"05","name":"Nordrhein-Westfalen"}},{"name":"Katzentränke","postalCode":"53332","locality":"Bornheim","municipality":{"key":"05382012","name":"Bornheim, Stadt","type":"Stadt"},"district":{"key":"05382","name":"Rhein-Sieg-Kreis","type":"Kreis"},"federalState":{"key":"05","name":"Nordrhein-Westfalen"}},{"name":"Keimerstr.","postalCode":"53332","locality":"Bornheim","municipality":{"key":"05382012","name":"Bornheim, Stadt","type":"Stadt"},"district":{"key":"05382","name":"Rhein-Sieg-Kreis","type":"Kreis"},"federalState":{"key":"05","name":"Nordrhein-Westfalen"}},{"name":"Keldenicher Str.","postalCode":"53332","locality":"Bornheim","municipality":{"key":"05382012","name":"Bornheim, Stadt","type":"Stadt"},"district":{"key":"05382","name":"Rhein-Sieg-Kreis","type":"Kreis"},"federalState":{"key":"05","name":"Nordrhein-Westfalen"}},{"name":"Keltenweg","postalCode":"53332","locality":"Bornheim","municipality":{"key":"05382012","name":"Bornheim, Stadt","type":"Stadt"},"district":{"key":"05382","name":"Rhein-Sieg-Kreis","type":"Kreis"},"federalState":{"key":"05","name":"Nordrhein-Westfalen"}},{"name":"Kerpengasse","postalCode":"53332","locality":"Bornheim","municipality":{"key":"05382012","name":"Bornheim, Stadt","type":"Stadt"},"district":{"key":"05382","name":"Rhein-Sieg-Kreis","type":"Kreis"},"federalState":{"key":"05","name":"Nordrhein-Westfalen"}},{"name":"Kimbernweg","postalCode":"53332","locality":"Bornheim","municipality":{"key":"05382012","name":"Bornheim, Stadt","type":"Stadt"},"district":{"key":"05382","name":"Rhein-Sieg-Kreis","type":"Kreis"},"federalState":{"key":"05","name":"Nordrhein-Westfalen"}},{"name":"Kirchgäßchen","postalCode":"53332","locality":"Bornheim","municipality":{"key":"05382012","name":"Bornheim, Stadt","type":"Stadt"},"district":{"key":"05382","name":"Rhein-Sieg-Kreis","type":"Kreis"},"federalState":{"key":"05","name":"Nordrhein-Westfalen"}},{"name":"Kirchstr.","postalCode":"53332","locality":"Bornheim","municipality":{"key":"05382012","name":"Bornheim, Stadt","type":"Stadt"},"district":{"key":"05382","name":"Rhein-Sieg-Kreis","type":"Kreis"},"federalState":{"key":"05","name":"Nordrhein-Westfalen"}},{"name":"Kirchstr.","postalCode":"76879","locality":"Bornheim","municipality":{"key":"07337014","name":"Bornheim","type":"Kreisangehörige_Gemeinde"},"district":{"key":"07337","name":"Südliche Weinstraße","type":"Landkreis"},"federalState":{"key":"07","name":"Rheinland-Pfalz"}},{"name":"Kitzburg","postalCode":"53332","locality":"Bornheim","municipality":{"key":"05382012","name":"Bornheim, Stadt","type":"Stadt"},"district":{"key":"05382","name":"Rhein-Sieg-Kreis","type":"Kreis"},"federalState":{"key":"05","name":"Nordrhein-Westfalen"}},{"name":"Kitzburger Str.","postalCode":"53332","locality":"Bornheim","municipality":{"key":"05382012","name":"Bornheim, Stadt","type":"Stadt"},"district":{"key":"05382","name":"Rhein-Sieg-Kreis","type":"Kreis"},"federalState":{"key":"05","name":"Nordrhein-Westfalen"}},{"name":"Klarenhofstr.","postalCode":"53332","locality":"Bornheim","municipality":{"key":"05382012","name":"Bornheim, Stadt","type":"Stadt"},"district":{"key":"05382","name":"Rhein-Sieg-Kreis","type":"Kreis"},"federalState":{"key":"05","name":"Nordrhein-Westfalen"}},{"name":"Kleinstr.","postalCode":"53332","locality":"Bornheim","municipality":{"key":"05382012","name":"Bornheim, Stadt","type":"Stadt"},"district":{"key":"05382","name":"Rhein-Sieg-Kreis","type":"Kreis"},"federalState":{"key":"05","name":"Nordrhein-Westfalen"}},{"name":"Kleiststr.","postalCode":"53332","locality":"Bornheim","municipality":{"key":"05382012","name":"Bornheim, Stadt","type":"Stadt"},"district":{"key":"05382","name":"Rhein-Sieg-Kreis","type":"Kreis"},"federalState":{"key":"05","name":"Nordrhein-Westfalen"}},{"name":"Klinkenbergsweg","postalCode":"53332","locality":"Bornheim","municipality":{"key":"05382012","name":"Bornheim, Stadt","type":"Stadt"},"district":{"key":"05382","name":"Rhein-Sieg-Kreis","type":"Kreis"},"federalState":{"key":"05","name":"Nordrhein-Westfalen"}},{"name":"Klippe","postalCode":"53332","locality":"Bornheim","municipality":{"key":"05382012","name":"Bornheim, Stadt","type":"Stadt"},"district":{"key":"05382","name":"Rhein-Sieg-Kreis","type":"Kreis"},"federalState":{"key":"05","name":"Nordrhein-Westfalen"}},{"name":"Klosterrather Weg","postalCode":"53332","locality":"Bornheim","municipality":{"key":"05382012","name":"Bornheim, Stadt","type":"Stadt"},"district":{"key":"05382","name":"Rhein-Sieg-Kreis","type":"Kreis"},"federalState":{"key":"05","name":"Nordrhein-Westfalen"}},{"name":"Klütschpfad","postalCode":"53332","locality":"Bornheim","municipality":{"key":"05382012","name":"Bornheim, Stadt","type":"Stadt"},"district":{"key":"05382","name":"Rhein-Sieg-Kreis","type":"Kreis"},"federalState":{"key":"05","name":"Nordrhein-Westfalen"}},{"name":"Klüttenweg","postalCode":"53332","locality":"Bornheim","municipality":{"key":"05382012","name":"Bornheim, Stadt","type":"Stadt"},"district":{"key":"05382","name":"Rhein-Sieg-Kreis","type":"Kreis"},"federalState":{"key":"05","name":"Nordrhein-Westfalen"}},{"name":"Kneusgenweg","postalCode":"53332","locality":"Bornheim","municipality":{"key":"05382012","name":"Bornheim, Stadt","type":"Stadt"},"district":{"key":"05382","name":"Rhein-Sieg-Kreis","type":"Kreis"},"federalState":{"key":"05","name":"Nordrhein-Westfalen"}},{"name":"Knippstr.","postalCode":"53332","locality":"Bornheim","municipality":{"key":"05382012","name":"Bornheim, Stadt","type":"Stadt"},"district":{"key":"05382","name":"Rhein-Sieg-Kreis","type":"Kreis"},"federalState":{"key":"05","name":"Nordrhein-Westfalen"}},{"name":"Koblenzer Str.","postalCode":"53332","locality":"Bornheim","municipality":{"key":"05382012","name":"Bornheim, Stadt","type":"Stadt"},"district":{"key":"05382","name":"Rhein-Sieg-Kreis","type":"Kreis"},"federalState":{"key":"05","name":"Nordrhein-Westfalen"}},{"name":"Kolberger Str.","postalCode":"53332","locality":"Bornheim","municipality":{"key":"05382012","name":"Bornheim, Stadt","type":"Stadt"},"district":{"key":"05382","name":"Rhein-Sieg-Kreis","type":"Kreis"},"federalState":{"key":"05","name":"Nordrhein-Westfalen"}},{"name":"Kölner Landstr.","postalCode":"53332","locality":"Bornheim","municipality":{"key":"05382012","name":"Bornheim, Stadt","type":"Stadt"},"district":{"key":"05382","name":"Rhein-Sieg-Kreis","type":"Kreis"},"federalState":{"key":"05","name":"Nordrhein-Westfalen"}},{"name":"Kolpingweg","postalCode":"53332","locality":"Bornheim","municipality":{"key":"05382012","name":"Bornheim, Stadt","type":"Stadt"},"district":{"key":"05382","name":"Rhein-Sieg-Kreis","type":"Kreis"},"federalState":{"key":"05","name":"Nordrhein-Westfalen"}},{"name":"Königsberger Str.","postalCode":"53332","locality":"Bornheim","municipality":{"key":"05382012","name":"Bornheim, Stadt","type":"Stadt"},"district":{"key":"05382","name":"Rhein-Sieg-Kreis","type":"Kreis"},"federalState":{"key":"05","name":"Nordrhein-Westfalen"}},{"name":"Königstr.","postalCode":"53332","locality":"Bornheim","municipality":{"key":"05382012","name":"Bornheim, Stadt","type":"Stadt"},"district":{"key":"05382","name":"Rhein-Sieg-Kreis","type":"Kreis"},"federalState":{"key":"05","name":"Nordrhein-Westfalen"}},{"name":"Krausbitzchen","postalCode":"53332","locality":"Bornheim","municipality":{"key":"05382012","name":"Bornheim, Stadt","type":"Stadt"},"district":{"key":"05382","name":"Rhein-Sieg-Kreis","type":"Kreis"},"federalState":{"key":"05","name":"Nordrhein-Westfalen"}},{"name":"Krausplatz","postalCode":"53332","locality":"Bornheim","municipality":{"key":"05382012","name":"Bornheim, Stadt","type":"Stadt"},"district":{"key":"05382","name":"Rhein-Sieg-Kreis","type":"Kreis"},"federalState":{"key":"05","name":"Nordrhein-Westfalen"}},{"name":"Kräwinkel","postalCode":"53332","locality":"Bornheim","municipality":{"key":"05382012","name":"Bornheim, Stadt","type":"Stadt"},"district":{"key":"05382","name":"Rhein-Sieg-Kreis","type":"Kreis"},"federalState":{"key":"05","name":"Nordrhein-Westfalen"}},{"name":"Kreuzbergstr.","postalCode":"53332","locality":"Bornheim","municipality":{"key":"05382012","name":"Bornheim, Stadt","type":"Stadt"},"district":{"key":"05382","name":"Rhein-Sieg-Kreis","type":"Kreis"},"federalState":{"key":"05","name":"Nordrhein-Westfalen"}},{"name":"Kreuzbroich","postalCode":"53332","locality":"Bornheim","municipality":{"key":"05382012","name":"Bornheim, Stadt","type":"Stadt"},"district":{"key":"05382","name":"Rhein-Sieg-Kreis","type":"Kreis"},"federalState":{"key":"05","name":"Nordrhein-Westfalen"}},{"name":"Kronprinzenstr.","postalCode":"53332","locality":"Bornheim","municipality":{"key":"05382012","name":"Bornheim, Stadt","type":"Stadt"},"district":{"key":"05382","name":"Rhein-Sieg-Kreis","type":"Kreis"},"federalState":{"key":"05","name":"Nordrhein-Westfalen"}},{"name":"Krüpelstr.","postalCode":"53332","locality":"Bornheim","municipality":{"key":"05382012","name":"Bornheim, Stadt","type":"Stadt"},"district":{"key":"05382","name":"Rhein-Sieg-Kreis","type":"Kreis"},"federalState":{"key":"05","name":"Nordrhein-Westfalen"}},{"name":"Kuckstein","postalCode":"53332","locality":"Bornheim","municipality":{"key":"05382012","name":"Bornheim, Stadt","type":"Stadt"},"district":{"key":"05382","name":"Rhein-Sieg-Kreis","type":"Kreis"},"federalState":{"key":"05","name":"Nordrhein-Westfalen"}},{"name":"Kuckucksweg","postalCode":"53332","locality":"Bornheim","municipality":{"key":"05382012","name":"Bornheim, Stadt","type":"Stadt"},"district":{"key":"05382","name":"Rhein-Sieg-Kreis","type":"Kreis"},"federalState":{"key":"05","name":"Nordrhein-Westfalen"}},{"name":"Kummenberg","postalCode":"53332","locality":"Bornheim","municipality":{"key":"05382012","name":"Bornheim, Stadt","type":"Stadt"},"district":{"key":"05382","name":"Rhein-Sieg-Kreis","type":"Kreis"},"federalState":{"key":"05","name":"Nordrhein-Westfalen"}},{"name":"L281","postalCode":"53332","locality":"Bornheim","municipality":{"key":"05382012","name":"Bornheim, Stadt","type":"Stadt"},"district":{"key":"05382","name":"Rhein-Sieg-Kreis","type":"Kreis"},"federalState":{"key":"05","name":"Nordrhein-Westfalen"}},{"name":"Lahnstr.","postalCode":"53332","locality":"Bornheim","municipality":{"key":"05382012","name":"Bornheim, Stadt","type":"Stadt"},"district":{"key":"05382","name":"Rhein-Sieg-Kreis","type":"Kreis"},"federalState":{"key":"05","name":"Nordrhein-Westfalen"}},{"name":"Landeckblick","postalCode":"76879","locality":"Bornheim","municipality":{"key":"07337014","name":"Bornheim","type":"Kreisangehörige_Gemeinde"},"district":{"key":"07337","name":"Südliche Weinstraße","type":"Landkreis"},"federalState":{"key":"07","name":"Rheinland-Pfalz"}},{"name":"Landgraben","postalCode":"53332","locality":"Bornheim","municipality":{"key":"05382012","name":"Bornheim, Stadt","type":"Stadt"},"district":{"key":"05382","name":"Rhein-Sieg-Kreis","type":"Kreis"},"federalState":{"key":"05","name":"Nordrhein-Westfalen"}},{"name":"Landkommissärstr.","postalCode":"76879","locality":"Bornheim","municipality":{"key":"07337014","name":"Bornheim","type":"Kreisangehörige_Gemeinde"},"district":{"key":"07337","name":"Südliche Weinstraße","type":"Landkreis"},"federalState":{"key":"07","name":"Rheinland-Pfalz"}},{"name":"Lange Fuhr","postalCode":"53332","locality":"Bornheim","municipality":{"key":"05382012","name":"Bornheim, Stadt","type":"Stadt"},"district":{"key":"05382","name":"Rhein-Sieg-Kreis","type":"Kreis"},"federalState":{"key":"05","name":"Nordrhein-Westfalen"}},{"name":"Lannerstr.","postalCode":"53332","locality":"Bornheim","municipality":{"key":"05382012","name":"Bornheim, Stadt","type":"Stadt"},"district":{"key":"05382","name":"Rhein-Sieg-Kreis","type":"Kreis"},"federalState":{"key":"05","name":"Nordrhein-Westfalen"}},{"name":"Lechstr.","postalCode":"53332","locality":"Bornheim","municipality":{"key":"05382012","name":"Bornheim, Stadt","type":"Stadt"},"district":{"key":"05382","name":"Rhein-Sieg-Kreis","type":"Kreis"},"federalState":{"key":"05","name":"Nordrhein-Westfalen"}},{"name":"Leharstr.","postalCode":"53332","locality":"Bornheim","municipality":{"key":"05382012","name":"Bornheim, Stadt","type":"Stadt"},"district":{"key":"05382","name":"Rhein-Sieg-Kreis","type":"Kreis"},"federalState":{"key":"05","name":"Nordrhein-Westfalen"}},{"name":"Leibnizstr.","postalCode":"53332","locality":"Bornheim","municipality":{"key":"05382012","name":"Bornheim, Stadt","type":"Stadt"},"district":{"key":"05382","name":"Rhein-Sieg-Kreis","type":"Kreis"},"federalState":{"key":"05","name":"Nordrhein-Westfalen"}},{"name":"Leipziger Str.","postalCode":"53332","locality":"Bornheim","municipality":{"key":"05382012","name":"Bornheim, Stadt","type":"Stadt"},"district":{"key":"05382","name":"Rhein-Sieg-Kreis","type":"Kreis"},"federalState":{"key":"05","name":"Nordrhein-Westfalen"}},{"name":"Lenaustr.","postalCode":"53332","locality":"Bornheim","municipality":{"key":"05382012","name":"Bornheim, Stadt","type":"Stadt"},"district":{"key":"05382","name":"Rhein-Sieg-Kreis","type":"Kreis"},"federalState":{"key":"05","name":"Nordrhein-Westfalen"}},{"name":"Leo-Koppel-Str.","postalCode":"53332","locality":"Bornheim","municipality":{"key":"05382012","name":"Bornheim, Stadt","type":"Stadt"},"district":{"key":"05382","name":"Rhein-Sieg-Kreis","type":"Kreis"},"federalState":{"key":"05","name":"Nordrhein-Westfalen"}},{"name":"Lerchenweg","postalCode":"53332","locality":"Bornheim","municipality":{"key":"05382012","name":"Bornheim, Stadt","type":"Stadt"},"district":{"key":"05382","name":"Rhein-Sieg-Kreis","type":"Kreis"},"federalState":{"key":"05","name":"Nordrhein-Westfalen"}},{"name":"Lerchenweg","postalCode":"55237","locality":"Bornheim","municipality":{"key":"07331012","name":"Bornheim","type":"Kreisangehörige_Gemeinde"},"district":{"key":"07331","name":"Alzey-Worms","type":"Landkreis"},"federalState":{"key":"07","name":"Rheinland-Pfalz"}},{"name":"Lessingstr.","postalCode":"53332","locality":"Bornheim","municipality":{"key":"05382012","name":"Bornheim, Stadt","type":"Stadt"},"district":{"key":"05382","name":"Rhein-Sieg-Kreis","type":"Kreis"},"federalState":{"key":"05","name":"Nordrhein-Westfalen"}},{"name":"Lethenbergweg","postalCode":"53332","locality":"Bornheim","municipality":{"key":"05382012","name":"Bornheim, Stadt","type":"Stadt"},"district":{"key":"05382","name":"Rhein-Sieg-Kreis","type":"Kreis"},"federalState":{"key":"05","name":"Nordrhein-Westfalen"}},{"name":"Letzter Weg","postalCode":"53332","locality":"Bornheim","municipality":{"key":"05382012","name":"Bornheim, Stadt","type":"Stadt"},"district":{"key":"05382","name":"Rhein-Sieg-Kreis","type":"Kreis"},"federalState":{"key":"05","name":"Nordrhein-Westfalen"}},{"name":"Lichtweg","postalCode":"53332","locality":"Bornheim","municipality":{"key":"05382012","name":"Bornheim, Stadt","type":"Stadt"},"district":{"key":"05382","name":"Rhein-Sieg-Kreis","type":"Kreis"},"federalState":{"key":"05","name":"Nordrhein-Westfalen"}},{"name":"Lilienstr.","postalCode":"53332","locality":"Bornheim","municipality":{"key":"05382012","name":"Bornheim, Stadt","type":"Stadt"},"district":{"key":"05382","name":"Rhein-Sieg-Kreis","type":"Kreis"},"federalState":{"key":"05","name":"Nordrhein-Westfalen"}},{"name":"Lilienthalweg","postalCode":"53332","locality":"Bornheim","municipality":{"key":"05382012","name":"Bornheim, Stadt","type":"Stadt"},"district":{"key":"05382","name":"Rhein-Sieg-Kreis","type":"Kreis"},"federalState":{"key":"05","name":"Nordrhein-Westfalen"}},{"name":"Limburger Gasse","postalCode":"53332","locality":"Bornheim","municipality":{"key":"05382012","name":"Bornheim, Stadt","type":"Stadt"},"district":{"key":"05382","name":"Rhein-Sieg-Kreis","type":"Kreis"},"federalState":{"key":"05","name":"Nordrhein-Westfalen"}},{"name":"Lindenberg","postalCode":"53332","locality":"Bornheim","municipality":{"key":"05382012","name":"Bornheim, Stadt","type":"Stadt"},"district":{"key":"05382","name":"Rhein-Sieg-Kreis","type":"Kreis"},"federalState":{"key":"05","name":"Nordrhein-Westfalen"}},{"name":"Lindenlochspfad","postalCode":"53332","locality":"Bornheim","municipality":{"key":"05382012","name":"Bornheim, Stadt","type":"Stadt"},"district":{"key":"05382","name":"Rhein-Sieg-Kreis","type":"Kreis"},"federalState":{"key":"05","name":"Nordrhein-Westfalen"}},{"name":"Lindenstr.","postalCode":"53332","locality":"Bornheim","municipality":{"key":"05382012","name":"Bornheim, Stadt","type":"Stadt"},"district":{"key":"05382","name":"Rhein-Sieg-Kreis","type":"Kreis"},"federalState":{"key":"05","name":"Nordrhein-Westfalen"}},{"name":"Lindfläche","postalCode":"53332","locality":"Bornheim","municipality":{"key":"05382012","name":"Bornheim, Stadt","type":"Stadt"},"district":{"key":"05382","name":"Rhein-Sieg-Kreis","type":"Kreis"},"federalState":{"key":"05","name":"Nordrhein-Westfalen"}},{"name":"Linowskistr.","postalCode":"53332","locality":"Bornheim","municipality":{"key":"05382012","name":"Bornheim, Stadt","type":"Stadt"},"district":{"key":"05382","name":"Rhein-Sieg-Kreis","type":"Kreis"},"federalState":{"key":"05","name":"Nordrhein-Westfalen"}},{"name":"Lintgesfuhr","postalCode":"53332","locality":"Bornheim","municipality":{"key":"05382012","name":"Bornheim, Stadt","type":"Stadt"},"district":{"key":"05382","name":"Rhein-Sieg-Kreis","type":"Kreis"},"federalState":{"key":"05","name":"Nordrhein-Westfalen"}},{"name":"Lise-Meitner-Str.","postalCode":"53332","locality":"Bornheim","municipality":{"key":"05382012","name":"Bornheim, Stadt","type":"Stadt"},"district":{"key":"05382","name":"Rhein-Sieg-Kreis","type":"Kreis"},"federalState":{"key":"05","name":"Nordrhein-Westfalen"}},{"name":"Lochnerstr.","postalCode":"53332","locality":"Bornheim","municipality":{"key":"05382012","name":"Bornheim, Stadt","type":"Stadt"},"district":{"key":"05382","name":"Rhein-Sieg-Kreis","type":"Kreis"},"federalState":{"key":"05","name":"Nordrhein-Westfalen"}},{"name":"Lortzingstr.","postalCode":"53332","locality":"Bornheim","municipality":{"key":"05382012","name":"Bornheim, Stadt","type":"Stadt"},"district":{"key":"05382","name":"Rhein-Sieg-Kreis","type":"Kreis"},"federalState":{"key":"05","name":"Nordrhein-Westfalen"}},{"name":"Lücherweg","postalCode":"53332","locality":"Bornheim","municipality":{"key":"05382012","name":"Bornheim, Stadt","type":"Stadt"},"district":{"key":"05382","name":"Rhein-Sieg-Kreis","type":"Kreis"},"federalState":{"key":"05","name":"Nordrhein-Westfalen"}},{"name":"Lucie-Simon-Weg","postalCode":"53332","locality":"Bornheim","municipality":{"key":"05382012","name":"Bornheim, Stadt","type":"Stadt"},"district":{"key":"05382","name":"Rhein-Sieg-Kreis","type":"Kreis"},"federalState":{"key":"05","name":"Nordrhein-Westfalen"}},{"name":"Lüddigstr.","postalCode":"53332","locality":"Bornheim","municipality":{"key":"05382012","name":"Bornheim, Stadt","type":"Stadt"},"district":{"key":"05382","name":"Rhein-Sieg-Kreis","type":"Kreis"},"federalState":{"key":"05","name":"Nordrhein-Westfalen"}},{"name":"Maarpfad","postalCode":"53332","locality":"Bornheim","municipality":{"key":"05382012","name":"Bornheim, Stadt","type":"Stadt"},"district":{"key":"05382","name":"Rhein-Sieg-Kreis","type":"Kreis"},"federalState":{"key":"05","name":"Nordrhein-Westfalen"}},{"name":"Maaßenstr.","postalCode":"53332","locality":"Bornheim","municipality":{"key":"05382012","name":"Bornheim, Stadt","type":"Stadt"},"district":{"key":"05382","name":"Rhein-Sieg-Kreis","type":"Kreis"},"federalState":{"key":"05","name":"Nordrhein-Westfalen"}},{"name":"Madenburgblick","postalCode":"76879","locality":"Bornheim","municipality":{"key":"07337014","name":"Bornheim","type":"Kreisangehörige_Gemeinde"},"district":{"key":"07337","name":"Südliche Weinstraße","type":"Landkreis"},"federalState":{"key":"07","name":"Rheinland-Pfalz"}},{"name":"Mainstr.","postalCode":"53332","locality":"Bornheim","municipality":{"key":"05382012","name":"Bornheim, Stadt","type":"Stadt"},"district":{"key":"05382","name":"Rhein-Sieg-Kreis","type":"Kreis"},"federalState":{"key":"05","name":"Nordrhein-Westfalen"}},{"name":"Mainzer Landstr.","postalCode":"55237","locality":"Bornheim","municipality":{"key":"07331012","name":"Bornheim","type":"Kreisangehörige_Gemeinde"},"district":{"key":"07331","name":"Alzey-Worms","type":"Landkreis"},"federalState":{"key":"07","name":"Rheinland-Pfalz"}},{"name":"Mainzer Str.","postalCode":"53332","locality":"Bornheim","municipality":{"key":"05382012","name":"Bornheim, Stadt","type":"Stadt"},"district":{"key":"05382","name":"Rhein-Sieg-Kreis","type":"Kreis"},"federalState":{"key":"05","name":"Nordrhein-Westfalen"}},{"name":"Mannheimer Str.","postalCode":"53332","locality":"Bornheim","municipality":{"key":"05382012","name":"Bornheim, Stadt","type":"Stadt"},"district":{"key":"05382","name":"Rhein-Sieg-Kreis","type":"Kreis"},"federalState":{"key":"05","name":"Nordrhein-Westfalen"}},{"name":"Margaretenstr.","postalCode":"53332","locality":"Bornheim","municipality":{"key":"05382012","name":"Bornheim, Stadt","type":"Stadt"},"district":{"key":"05382","name":"Rhein-Sieg-Kreis","type":"Kreis"},"federalState":{"key":"05","name":"Nordrhein-Westfalen"}},{"name":"Marie-Curie-Str.","postalCode":"53332","locality":"Bornheim","municipality":{"key":"05382012","name":"Bornheim, Stadt","type":"Stadt"},"district":{"key":"05382","name":"Rhein-Sieg-Kreis","type":"Kreis"},"federalState":{"key":"05","name":"Nordrhein-Westfalen"}},{"name":"Marienstr.","postalCode":"53332","locality":"Bornheim","municipality":{"key":"05382012","name":"Bornheim, Stadt","type":"Stadt"},"district":{"key":"05382","name":"Rhein-Sieg-Kreis","type":"Kreis"},"federalState":{"key":"05","name":"Nordrhein-Westfalen"}},{"name":"Markusstr.","postalCode":"53332","locality":"Bornheim","municipality":{"key":"05382012","name":"Bornheim, Stadt","type":"Stadt"},"district":{"key":"05382","name":"Rhein-Sieg-Kreis","type":"Kreis"},"federalState":{"key":"05","name":"Nordrhein-Westfalen"}},{"name":"Marsdorfer Gasse","postalCode":"53332","locality":"Bornheim","municipality":{"key":"05382012","name":"Bornheim, Stadt","type":"Stadt"},"district":{"key":"05382","name":"Rhein-Sieg-Kreis","type":"Kreis"},"federalState":{"key":"05","name":"Nordrhein-Westfalen"}},{"name":"Martinstr.","postalCode":"53332","locality":"Bornheim","municipality":{"key":"05382012","name":"Bornheim, Stadt","type":"Stadt"},"district":{"key":"05382","name":"Rhein-Sieg-Kreis","type":"Kreis"},"federalState":{"key":"05","name":"Nordrhein-Westfalen"}},{"name":"Mary-Anderson-Str.","postalCode":"53332","locality":"Bornheim","municipality":{"key":"05382012","name":"Bornheim, Stadt","type":"Stadt"},"district":{"key":"05382","name":"Rhein-Sieg-Kreis","type":"Kreis"},"federalState":{"key":"05","name":"Nordrhein-Westfalen"}},{"name":"Matthias-Claudius-Weg","postalCode":"53332","locality":"Bornheim","municipality":{"key":"05382012","name":"Bornheim, Stadt","type":"Stadt"},"district":{"key":"05382","name":"Rhein-Sieg-Kreis","type":"Kreis"},"federalState":{"key":"05","name":"Nordrhein-Westfalen"}},{"name":"Max-Ernst-Weg","postalCode":"53332","locality":"Bornheim","municipality":{"key":"05382012","name":"Bornheim, Stadt","type":"Stadt"},"district":{"key":"05382","name":"Rhein-Sieg-Kreis","type":"Kreis"},"federalState":{"key":"05","name":"Nordrhein-Westfalen"}},{"name":"Meißener Str.","postalCode":"53332","locality":"Bornheim","municipality":{"key":"05382012","name":"Bornheim, Stadt","type":"Stadt"},"district":{"key":"05382","name":"Rhein-Sieg-Kreis","type":"Kreis"},"federalState":{"key":"05","name":"Nordrhein-Westfalen"}},{"name":"Merkurstr.","postalCode":"53332","locality":"Bornheim","municipality":{"key":"05382012","name":"Bornheim, Stadt","type":"Stadt"},"district":{"key":"05382","name":"Rhein-Sieg-Kreis","type":"Kreis"},"federalState":{"key":"05","name":"Nordrhein-Westfalen"}},{"name":"Mertener Pfad","postalCode":"53332","locality":"Bornheim","municipality":{"key":"05382012","name":"Bornheim, Stadt","type":"Stadt"},"district":{"key":"05382","name":"Rhein-Sieg-Kreis","type":"Kreis"},"federalState":{"key":"05","name":"Nordrhein-Westfalen"}},{"name":"Mertensgasse","postalCode":"53332","locality":"Bornheim","municipality":{"key":"05382012","name":"Bornheim, Stadt","type":"Stadt"},"district":{"key":"05382","name":"Rhein-Sieg-Kreis","type":"Kreis"},"federalState":{"key":"05","name":"Nordrhein-Westfalen"}},{"name":"Metternicher Str.","postalCode":"53332","locality":"Bornheim","municipality":{"key":"05382012","name":"Bornheim, Stadt","type":"Stadt"},"district":{"key":"05382","name":"Rhein-Sieg-Kreis","type":"Kreis"},"federalState":{"key":"05","name":"Nordrhein-Westfalen"}},{"name":"Meuserweg","postalCode":"53332","locality":"Bornheim","municipality":{"key":"05382012","name":"Bornheim, Stadt","type":"Stadt"},"district":{"key":"05382","name":"Rhein-Sieg-Kreis","type":"Kreis"},"federalState":{"key":"05","name":"Nordrhein-Westfalen"}},{"name":"Michaelsweg","postalCode":"53332","locality":"Bornheim","municipality":{"key":"05382012","name":"Bornheim, Stadt","type":"Stadt"},"district":{"key":"05382","name":"Rhein-Sieg-Kreis","type":"Kreis"},"federalState":{"key":"05","name":"Nordrhein-Westfalen"}},{"name":"Michelsbergstr.","postalCode":"53332","locality":"Bornheim","municipality":{"key":"05382012","name":"Bornheim, Stadt","type":"Stadt"},"district":{"key":"05382","name":"Rhein-Sieg-Kreis","type":"Kreis"},"federalState":{"key":"05","name":"Nordrhein-Westfalen"}},{"name":"Mielweg","postalCode":"53332","locality":"Bornheim","municipality":{"key":"05382012","name":"Bornheim, Stadt","type":"Stadt"},"district":{"key":"05382","name":"Rhein-Sieg-Kreis","type":"Kreis"},"federalState":{"key":"05","name":"Nordrhein-Westfalen"}},{"name":"Mittelstein","postalCode":"53332","locality":"Bornheim","municipality":{"key":"05382012","name":"Bornheim, Stadt","type":"Stadt"},"district":{"key":"05382","name":"Rhein-Sieg-Kreis","type":"Kreis"},"federalState":{"key":"05","name":"Nordrhein-Westfalen"}},{"name":"Mittelstr.","postalCode":"53332","locality":"Bornheim","municipality":{"key":"05382012","name":"Bornheim, Stadt","type":"Stadt"},"district":{"key":"05382","name":"Rhein-Sieg-Kreis","type":"Kreis"},"federalState":{"key":"05","name":"Nordrhein-Westfalen"}},{"name":"Mittelweg","postalCode":"53332","locality":"Bornheim","municipality":{"key":"05382012","name":"Bornheim, Stadt","type":"Stadt"},"district":{"key":"05382","name":"Rhein-Sieg-Kreis","type":"Kreis"},"federalState":{"key":"05","name":"Nordrhein-Westfalen"}},{"name":"Mittweidaer Str.","postalCode":"53332","locality":"Bornheim","municipality":{"key":"05382012","name":"Bornheim, Stadt","type":"Stadt"},"district":{"key":"05382","name":"Rhein-Sieg-Kreis","type":"Kreis"},"federalState":{"key":"05","name":"Nordrhein-Westfalen"}},{"name":"Moosgarten","postalCode":"53332","locality":"Bornheim","municipality":{"key":"05382012","name":"Bornheim, Stadt","type":"Stadt"},"district":{"key":"05382","name":"Rhein-Sieg-Kreis","type":"Kreis"},"federalState":{"key":"05","name":"Nordrhein-Westfalen"}},{"name":"Mörlheimer Str.","postalCode":"76879","locality":"Bornheim","municipality":{"key":"07337014","name":"Bornheim","type":"Kreisangehörige_Gemeinde"},"district":{"key":"07337","name":"Südliche Weinstraße","type":"Landkreis"},"federalState":{"key":"07","name":"Rheinland-Pfalz"}},{"name":"Mörnerstr.","postalCode":"53332","locality":"Bornheim","municipality":{"key":"05382012","name":"Bornheim, Stadt","type":"Stadt"},"district":{"key":"05382","name":"Rhein-Sieg-Kreis","type":"Kreis"},"federalState":{"key":"05","name":"Nordrhein-Westfalen"}},{"name":"Mörsweg","postalCode":"55237","locality":"Bornheim","municipality":{"key":"07331012","name":"Bornheim","type":"Kreisangehörige_Gemeinde"},"district":{"key":"07331","name":"Alzey-Worms","type":"Landkreis"},"federalState":{"key":"07","name":"Rheinland-Pfalz"}},{"name":"Moselstr.","postalCode":"53332","locality":"Bornheim","municipality":{"key":"05382012","name":"Bornheim, Stadt","type":"Stadt"},"district":{"key":"05382","name":"Rhein-Sieg-Kreis","type":"Kreis"},"federalState":{"key":"05","name":"Nordrhein-Westfalen"}},{"name":"Mozartstr.","postalCode":"53332","locality":"Bornheim","municipality":{"key":"05382012","name":"Bornheim, Stadt","type":"Stadt"},"district":{"key":"05382","name":"Rhein-Sieg-Kreis","type":"Kreis"},"federalState":{"key":"05","name":"Nordrhein-Westfalen"}},{"name":"Mühlenbacher Str.","postalCode":"53332","locality":"Bornheim","municipality":{"key":"05382012","name":"Bornheim, Stadt","type":"Stadt"},"district":{"key":"05382","name":"Rhein-Sieg-Kreis","type":"Kreis"},"federalState":{"key":"05","name":"Nordrhein-Westfalen"}},{"name":"Mühlenfeld","postalCode":"53332","locality":"Bornheim","municipality":{"key":"05382012","name":"Bornheim, Stadt","type":"Stadt"},"district":{"key":"05382","name":"Rhein-Sieg-Kreis","type":"Kreis"},"federalState":{"key":"05","name":"Nordrhein-Westfalen"}},{"name":"Mühlenstr.","postalCode":"53332","locality":"Bornheim","municipality":{"key":"05382012","name":"Bornheim, Stadt","type":"Stadt"},"district":{"key":"05382","name":"Rhein-Sieg-Kreis","type":"Kreis"},"federalState":{"key":"05","name":"Nordrhein-Westfalen"}},{"name":"Mühlweg","postalCode":"55237","locality":"Bornheim","municipality":{"key":"07331012","name":"Bornheim","type":"Kreisangehörige_Gemeinde"},"district":{"key":"07331","name":"Alzey-Worms","type":"Landkreis"},"federalState":{"key":"07","name":"Rheinland-Pfalz"}},{"name":"Münstergarten","postalCode":"53332","locality":"Bornheim","municipality":{"key":"05382012","name":"Bornheim, Stadt","type":"Stadt"},"district":{"key":"05382","name":"Rhein-Sieg-Kreis","type":"Kreis"},"federalState":{"key":"05","name":"Nordrhein-Westfalen"}},{"name":"Münzstr.","postalCode":"53332","locality":"Bornheim","municipality":{"key":"05382012","name":"Bornheim, Stadt","type":"Stadt"},"district":{"key":"05382","name":"Rhein-Sieg-Kreis","type":"Kreis"},"federalState":{"key":"05","name":"Nordrhein-Westfalen"}},{"name":"Nahestr.","postalCode":"53332","locality":"Bornheim","municipality":{"key":"05382012","name":"Bornheim, Stadt","type":"Stadt"},"district":{"key":"05382","name":"Rhein-Sieg-Kreis","type":"Kreis"},"federalState":{"key":"05","name":"Nordrhein-Westfalen"}},{"name":"Naturpfad","postalCode":"55237","locality":"Bornheim","municipality":{"key":"07331012","name":"Bornheim","type":"Kreisangehörige_Gemeinde"},"district":{"key":"07331","name":"Alzey-Worms","type":"Landkreis"},"federalState":{"key":"07","name":"Rheinland-Pfalz"}},{"name":"Naumburger Str.","postalCode":"53332","locality":"Bornheim","municipality":{"key":"05382012","name":"Bornheim, Stadt","type":"Stadt"},"district":{"key":"05382","name":"Rhein-Sieg-Kreis","type":"Kreis"},"federalState":{"key":"05","name":"Nordrhein-Westfalen"}},{"name":"Neckarstr.","postalCode":"53332","locality":"Bornheim","municipality":{"key":"05382012","name":"Bornheim, Stadt","type":"Stadt"},"district":{"key":"05382","name":"Rhein-Sieg-Kreis","type":"Kreis"},"federalState":{"key":"05","name":"Nordrhein-Westfalen"}},{"name":"Neißestr.","postalCode":"53332","locality":"Bornheim","municipality":{"key":"05382012","name":"Bornheim, Stadt","type":"Stadt"},"district":{"key":"05382","name":"Rhein-Sieg-Kreis","type":"Kreis"},"federalState":{"key":"05","name":"Nordrhein-Westfalen"}},{"name":"Nelkenstr.","postalCode":"53332","locality":"Bornheim","municipality":{"key":"05382012","name":"Bornheim, Stadt","type":"Stadt"},"district":{"key":"05382","name":"Rhein-Sieg-Kreis","type":"Kreis"},"federalState":{"key":"05","name":"Nordrhein-Westfalen"}},{"name":"Neuer Heerweg","postalCode":"53332","locality":"Bornheim","municipality":{"key":"05382012","name":"Bornheim, Stadt","type":"Stadt"},"district":{"key":"05382","name":"Rhein-Sieg-Kreis","type":"Kreis"},"federalState":{"key":"05","name":"Nordrhein-Westfalen"}},{"name":"Neue Str.","postalCode":"55237","locality":"Bornheim","municipality":{"key":"07331012","name":"Bornheim","type":"Kreisangehörige_Gemeinde"},"district":{"key":"07331","name":"Alzey-Worms","type":"Landkreis"},"federalState":{"key":"07","name":"Rheinland-Pfalz"}},{"name":"Neugrabenweg","postalCode":"53332","locality":"Bornheim","municipality":{"key":"05382012","name":"Bornheim, Stadt","type":"Stadt"},"district":{"key":"05382","name":"Rhein-Sieg-Kreis","type":"Kreis"},"federalState":{"key":"05","name":"Nordrhein-Westfalen"}},{"name":"Neußer Str.","postalCode":"53332","locality":"Bornheim","municipality":{"key":"05382012","name":"Bornheim, Stadt","type":"Stadt"},"district":{"key":"05382","name":"Rhein-Sieg-Kreis","type":"Kreis"},"federalState":{"key":"05","name":"Nordrhein-Westfalen"}},{"name":"Nonnenweg","postalCode":"53332","locality":"Bornheim","municipality":{"key":"05382012","name":"Bornheim, Stadt","type":"Stadt"},"district":{"key":"05382","name":"Rhein-Sieg-Kreis","type":"Kreis"},"federalState":{"key":"05","name":"Nordrhein-Westfalen"}},{"name":"Oberdorfer Weg","postalCode":"53332","locality":"Bornheim","municipality":{"key":"05382012","name":"Bornheim, Stadt","type":"Stadt"},"district":{"key":"05382","name":"Rhein-Sieg-Kreis","type":"Kreis"},"federalState":{"key":"05","name":"Nordrhein-Westfalen"}},{"name":"Oberstr.","postalCode":"53332","locality":"Bornheim","municipality":{"key":"05382012","name":"Bornheim, Stadt","type":"Stadt"},"district":{"key":"05382","name":"Rhein-Sieg-Kreis","type":"Kreis"},"federalState":{"key":"05","name":"Nordrhein-Westfalen"}},{"name":"Odenwaldstr.","postalCode":"53332","locality":"Bornheim","municipality":{"key":"05382012","name":"Bornheim, Stadt","type":"Stadt"},"district":{"key":"05382","name":"Rhein-Sieg-Kreis","type":"Kreis"},"federalState":{"key":"05","name":"Nordrhein-Westfalen"}},{"name":"Oderstr.","postalCode":"53332","locality":"Bornheim","municipality":{"key":"05382012","name":"Bornheim, Stadt","type":"Stadt"},"district":{"key":"05382","name":"Rhein-Sieg-Kreis","type":"Kreis"},"federalState":{"key":"05","name":"Nordrhein-Westfalen"}},{"name":"Offenbachstr.","postalCode":"53332","locality":"Bornheim","municipality":{"key":"05382012","name":"Bornheim, Stadt","type":"Stadt"},"district":{"key":"05382","name":"Rhein-Sieg-Kreis","type":"Kreis"},"federalState":{"key":"05","name":"Nordrhein-Westfalen"}},{"name":"Om Jeeßeberch","postalCode":"53332","locality":"Bornheim","municipality":{"key":"05382012","name":"Bornheim, Stadt","type":"Stadt"},"district":{"key":"05382","name":"Rhein-Sieg-Kreis","type":"Kreis"},"federalState":{"key":"05","name":"Nordrhein-Westfalen"}},{"name":"Ophofstr.","postalCode":"53332","locality":"Bornheim","municipality":{"key":"05382012","name":"Bornheim, Stadt","type":"Stadt"},"district":{"key":"05382","name":"Rhein-Sieg-Kreis","type":"Kreis"},"federalState":{"key":"05","name":"Nordrhein-Westfalen"}},{"name":"Ottostr.","postalCode":"53332","locality":"Bornheim","municipality":{"key":"05382012","name":"Bornheim, Stadt","type":"Stadt"},"district":{"key":"05382","name":"Rhein-Sieg-Kreis","type":"Kreis"},"federalState":{"key":"05","name":"Nordrhein-Westfalen"}},{"name":"Oversheimer Weg","postalCode":"53332","locality":"Bornheim","municipality":{"key":"05382012","name":"Bornheim, Stadt","type":"Stadt"},"district":{"key":"05382","name":"Rhein-Sieg-Kreis","type":"Kreis"},"federalState":{"key":"05","name":"Nordrhein-Westfalen"}},{"name":"Pappelstr.","postalCode":"53332","locality":"Bornheim","municipality":{"key":"05382012","name":"Bornheim, Stadt","type":"Stadt"},"district":{"key":"05382","name":"Rhein-Sieg-Kreis","type":"Kreis"},"federalState":{"key":"05","name":"Nordrhein-Westfalen"}},{"name":"Parkstr.","postalCode":"53332","locality":"Bornheim","municipality":{"key":"05382012","name":"Bornheim, Stadt","type":"Stadt"},"district":{"key":"05382","name":"Rhein-Sieg-Kreis","type":"Kreis"},"federalState":{"key":"05","name":"Nordrhein-Westfalen"}},{"name":"Paul-Gerhardt-Str.","postalCode":"53332","locality":"Bornheim","municipality":{"key":"05382012","name":"Bornheim, Stadt","type":"Stadt"},"district":{"key":"05382","name":"Rhein-Sieg-Kreis","type":"Kreis"},"federalState":{"key":"05","name":"Nordrhein-Westfalen"}},{"name":"Paul-Lincke-Str.","postalCode":"53332","locality":"Bornheim","municipality":{"key":"05382012","name":"Bornheim, Stadt","type":"Stadt"},"district":{"key":"05382","name":"Rhein-Sieg-Kreis","type":"Kreis"},"federalState":{"key":"05","name":"Nordrhein-Westfalen"}},{"name":"Petersbergstr.","postalCode":"53332","locality":"Bornheim","municipality":{"key":"05382012","name":"Bornheim, Stadt","type":"Stadt"},"district":{"key":"05382","name":"Rhein-Sieg-Kreis","type":"Kreis"},"federalState":{"key":"05","name":"Nordrhein-Westfalen"}},{"name":"Pickelsgasse","postalCode":"53332","locality":"Bornheim","municipality":{"key":"05382012","name":"Bornheim, Stadt","type":"Stadt"},"district":{"key":"05382","name":"Rhein-Sieg-Kreis","type":"Kreis"},"federalState":{"key":"05","name":"Nordrhein-Westfalen"}},{"name":"Pickelshüllenweg","postalCode":"53332","locality":"Bornheim","municipality":{"key":"05382012","name":"Bornheim, Stadt","type":"Stadt"},"district":{"key":"05382","name":"Rhein-Sieg-Kreis","type":"Kreis"},"federalState":{"key":"05","name":"Nordrhein-Westfalen"}},{"name":"Pingenstr.","postalCode":"53332","locality":"Bornheim","municipality":{"key":"05382012","name":"Bornheim, Stadt","type":"Stadt"},"district":{"key":"05382","name":"Rhein-Sieg-Kreis","type":"Kreis"},"federalState":{"key":"05","name":"Nordrhein-Westfalen"}},{"name":"Plattenweg","postalCode":"55237","locality":"Bornheim","municipality":{"key":"07331012","name":"Bornheim","type":"Kreisangehörige_Gemeinde"},"district":{"key":"07331","name":"Alzey-Worms","type":"Landkreis"},"federalState":{"key":"07","name":"Rheinland-Pfalz"}},{"name":"Ploon","postalCode":"53332","locality":"Bornheim","municipality":{"key":"05382012","name":"Bornheim, Stadt","type":"Stadt"},"district":{"key":"05382","name":"Rhein-Sieg-Kreis","type":"Kreis"},"federalState":{"key":"05","name":"Nordrhein-Westfalen"}},{"name":"Pohlhausenstr.","postalCode":"53332","locality":"Bornheim","municipality":{"key":"05382012","name":"Bornheim, Stadt","type":"Stadt"},"district":{"key":"05382","name":"Rhein-Sieg-Kreis","type":"Kreis"},"federalState":{"key":"05","name":"Nordrhein-Westfalen"}},{"name":"Pöhlweg","postalCode":"53332","locality":"Bornheim","municipality":{"key":"05382012","name":"Bornheim, Stadt","type":"Stadt"},"district":{"key":"05382","name":"Rhein-Sieg-Kreis","type":"Kreis"},"federalState":{"key":"05","name":"Nordrhein-Westfalen"}},{"name":"Proffgasse","postalCode":"53332","locality":"Bornheim","municipality":{"key":"05382012","name":"Bornheim, Stadt","type":"Stadt"},"district":{"key":"05382","name":"Rhein-Sieg-Kreis","type":"Kreis"},"federalState":{"key":"05","name":"Nordrhein-Westfalen"}},{"name":"Protasiusstr.","postalCode":"53332","locality":"Bornheim","municipality":{"key":"05382012","name":"Bornheim, Stadt","type":"Stadt"},"district":{"key":"05382","name":"Rhein-Sieg-Kreis","type":"Kreis"},"federalState":{"key":"05","name":"Nordrhein-Westfalen"}},{"name":"Pützgasse","postalCode":"53332","locality":"Bornheim","municipality":{"key":"05382012","name":"Bornheim, Stadt","type":"Stadt"},"district":{"key":"05382","name":"Rhein-Sieg-Kreis","type":"Kreis"},"federalState":{"key":"05","name":"Nordrhein-Westfalen"}},{"name":"Pützweide","postalCode":"53332","locality":"Bornheim","municipality":{"key":"05382012","name":"Bornheim, Stadt","type":"Stadt"},"district":{"key":"05382","name":"Rhein-Sieg-Kreis","type":"Kreis"},"federalState":{"key":"05","name":"Nordrhein-Westfalen"}},{"name":"Quellenweg","postalCode":"53332","locality":"Bornheim","municipality":{"key":"05382012","name":"Bornheim, Stadt","type":"Stadt"},"district":{"key":"05382","name":"Rhein-Sieg-Kreis","type":"Kreis"},"federalState":{"key":"05","name":"Nordrhein-Westfalen"}},{"name":"Raiffeisenstr.","postalCode":"53332","locality":"Bornheim","municipality":{"key":"05382012","name":"Bornheim, Stadt","type":"Stadt"},"district":{"key":"05382","name":"Rhein-Sieg-Kreis","type":"Kreis"},"federalState":{"key":"05","name":"Nordrhein-Westfalen"}},{"name":"Rankenberg","postalCode":"53332","locality":"Bornheim","municipality":{"key":"05382012","name":"Bornheim, Stadt","type":"Stadt"},"district":{"key":"05382","name":"Rhein-Sieg-Kreis","type":"Kreis"},"federalState":{"key":"05","name":"Nordrhein-Westfalen"}},{"name":"Rathausstr.","postalCode":"53332","locality":"Bornheim","municipality":{"key":"05382012","name":"Bornheim, Stadt","type":"Stadt"},"district":{"key":"05382","name":"Rhein-Sieg-Kreis","type":"Kreis"},"federalState":{"key":"05","name":"Nordrhein-Westfalen"}},{"name":"Rebengarten","postalCode":"53332","locality":"Bornheim","municipality":{"key":"05382012","name":"Bornheim, Stadt","type":"Stadt"},"district":{"key":"05382","name":"Rhein-Sieg-Kreis","type":"Kreis"},"federalState":{"key":"05","name":"Nordrhein-Westfalen"}},{"name":"Rebenstr.","postalCode":"53332","locality":"Bornheim","municipality":{"key":"05382012","name":"Bornheim, Stadt","type":"Stadt"},"district":{"key":"05382","name":"Rhein-Sieg-Kreis","type":"Kreis"},"federalState":{"key":"05","name":"Nordrhein-Westfalen"}},{"name":"Regerstr.","postalCode":"53332","locality":"Bornheim","municipality":{"key":"05382012","name":"Bornheim, Stadt","type":"Stadt"},"district":{"key":"05382","name":"Rhein-Sieg-Kreis","type":"Kreis"},"federalState":{"key":"05","name":"Nordrhein-Westfalen"}},{"name":"Reuterweg","postalCode":"53332","locality":"Bornheim","municipality":{"key":"05382012","name":"Bornheim, Stadt","type":"Stadt"},"district":{"key":"05382","name":"Rhein-Sieg-Kreis","type":"Kreis"},"federalState":{"key":"05","name":"Nordrhein-Westfalen"}},{"name":"Rheindorfer Acker","postalCode":"53332","locality":"Bornheim","municipality":{"key":"05382012","name":"Bornheim, Stadt","type":"Stadt"},"district":{"key":"05382","name":"Rhein-Sieg-Kreis","type":"Kreis"},"federalState":{"key":"05","name":"Nordrhein-Westfalen"}},{"name":"Rheindorfer Burg","postalCode":"53332","locality":"Bornheim","municipality":{"key":"05382012","name":"Bornheim, Stadt","type":"Stadt"},"district":{"key":"05382","name":"Rhein-Sieg-Kreis","type":"Kreis"},"federalState":{"key":"05","name":"Nordrhein-Westfalen"}},{"name":"Rheindorfer-Burg-Weg","postalCode":"53332","locality":"Bornheim","municipality":{"key":"05382012","name":"Bornheim, Stadt","type":"Stadt"},"district":{"key":"05382","name":"Rhein-Sieg-Kreis","type":"Kreis"},"federalState":{"key":"05","name":"Nordrhein-Westfalen"}},{"name":"Rheindorfer Str.","postalCode":"53332","locality":"Bornheim","municipality":{"key":"05382012","name":"Bornheim, Stadt","type":"Stadt"},"district":{"key":"05382","name":"Rhein-Sieg-Kreis","type":"Kreis"},"federalState":{"key":"05","name":"Nordrhein-Westfalen"}},{"name":"Rheinstr.","postalCode":"53332","locality":"Bornheim","municipality":{"key":"05382012","name":"Bornheim, Stadt","type":"Stadt"},"district":{"key":"05382","name":"Rhein-Sieg-Kreis","type":"Kreis"},"federalState":{"key":"05","name":"Nordrhein-Westfalen"}},{"name":"Rheinuferweg","postalCode":"53332","locality":"Bornheim","municipality":{"key":"05382012","name":"Bornheim, Stadt","type":"Stadt"},"district":{"key":"05382","name":"Rhein-Sieg-Kreis","type":"Kreis"},"federalState":{"key":"05","name":"Nordrhein-Westfalen"}},{"name":"Richard-Piel-Str.","postalCode":"53332","locality":"Bornheim","municipality":{"key":"05382012","name":"Bornheim, Stadt","type":"Stadt"},"district":{"key":"05382","name":"Rhein-Sieg-Kreis","type":"Kreis"},"federalState":{"key":"05","name":"Nordrhein-Westfalen"}},{"name":"Riedmaarsgäßchen","postalCode":"53332","locality":"Bornheim","municipality":{"key":"05382012","name":"Bornheim, Stadt","type":"Stadt"},"district":{"key":"05382","name":"Rhein-Sieg-Kreis","type":"Kreis"},"federalState":{"key":"05","name":"Nordrhein-Westfalen"}},{"name":"Rietburgblick","postalCode":"76879","locality":"Bornheim","municipality":{"key":"07337014","name":"Bornheim","type":"Kreisangehörige_Gemeinde"},"district":{"key":"07337","name":"Südliche Weinstraße","type":"Landkreis"},"federalState":{"key":"07","name":"Rheinland-Pfalz"}},{"name":"Rilkestr.","postalCode":"53332","locality":"Bornheim","municipality":{"key":"05382012","name":"Bornheim, Stadt","type":"Stadt"},"district":{"key":"05382","name":"Rhein-Sieg-Kreis","type":"Kreis"},"federalState":{"key":"05","name":"Nordrhein-Westfalen"}},{"name":"Ringelpfad","postalCode":"53332","locality":"Bornheim","municipality":{"key":"05382012","name":"Bornheim, Stadt","type":"Stadt"},"district":{"key":"05382","name":"Rhein-Sieg-Kreis","type":"Kreis"},"federalState":{"key":"05","name":"Nordrhein-Westfalen"}},{"name":"Robert-Bosch-Str.","postalCode":"53332","locality":"Bornheim","municipality":{"key":"05382012","name":"Bornheim, Stadt","type":"Stadt"},"district":{"key":"05382","name":"Rhein-Sieg-Kreis","type":"Kreis"},"federalState":{"key":"05","name":"Nordrhein-Westfalen"}},{"name":"Robert-Stolz-Str.","postalCode":"53332","locality":"Bornheim","municipality":{"key":"05382012","name":"Bornheim, Stadt","type":"Stadt"},"district":{"key":"05382","name":"Rhein-Sieg-Kreis","type":"Kreis"},"federalState":{"key":"05","name":"Nordrhein-Westfalen"}},{"name":"Rochusstr.","postalCode":"53332","locality":"Bornheim","municipality":{"key":"05382012","name":"Bornheim, Stadt","type":"Stadt"},"district":{"key":"05382","name":"Rhein-Sieg-Kreis","type":"Kreis"},"federalState":{"key":"05","name":"Nordrhein-Westfalen"}},{"name":"Roisdorfer Hufebahn","postalCode":"53332","locality":"Bornheim","municipality":{"key":"05382012","name":"Bornheim, Stadt","type":"Stadt"},"district":{"key":"05382","name":"Rhein-Sieg-Kreis","type":"Kreis"},"federalState":{"key":"05","name":"Nordrhein-Westfalen"}},{"name":"Roisdorfer Str.","postalCode":"53332","locality":"Bornheim","municipality":{"key":"05382012","name":"Bornheim, Stadt","type":"Stadt"},"district":{"key":"05382","name":"Rhein-Sieg-Kreis","type":"Kreis"},"federalState":{"key":"05","name":"Nordrhein-Westfalen"}},{"name":"Römerstr.","postalCode":"53332","locality":"Bornheim","municipality":{"key":"05382012","name":"Bornheim, Stadt","type":"Stadt"},"district":{"key":"05382","name":"Rhein-Sieg-Kreis","type":"Kreis"},"federalState":{"key":"05","name":"Nordrhein-Westfalen"}},{"name":"Röntgenstr.","postalCode":"53332","locality":"Bornheim","municipality":{"key":"05382012","name":"Bornheim, Stadt","type":"Stadt"},"district":{"key":"05382","name":"Rhein-Sieg-Kreis","type":"Kreis"},"federalState":{"key":"05","name":"Nordrhein-Westfalen"}},{"name":"Rösberger Str.","postalCode":"53332","locality":"Bornheim","municipality":{"key":"05382012","name":"Bornheim, Stadt","type":"Stadt"},"district":{"key":"05382","name":"Rhein-Sieg-Kreis","type":"Kreis"},"federalState":{"key":"05","name":"Nordrhein-Westfalen"}},{"name":"Rosental","postalCode":"53332","locality":"Bornheim","municipality":{"key":"05382012","name":"Bornheim, Stadt","type":"Stadt"},"district":{"key":"05382","name":"Rhein-Sieg-Kreis","type":"Kreis"},"federalState":{"key":"05","name":"Nordrhein-Westfalen"}},{"name":"Rosenweg","postalCode":"53332","locality":"Bornheim","municipality":{"key":"05382012","name":"Bornheim, Stadt","type":"Stadt"},"district":{"key":"05382","name":"Rhein-Sieg-Kreis","type":"Kreis"},"federalState":{"key":"05","name":"Nordrhein-Westfalen"}},{"name":"Rosenweiherweg","postalCode":"53332","locality":"Bornheim","municipality":{"key":"05382012","name":"Bornheim, Stadt","type":"Stadt"},"district":{"key":"05382","name":"Rhein-Sieg-Kreis","type":"Kreis"},"federalState":{"key":"05","name":"Nordrhein-Westfalen"}},{"name":"Röttgens Allee","postalCode":"53332","locality":"Bornheim","municipality":{"key":"05382012","name":"Bornheim, Stadt","type":"Stadt"},"district":{"key":"05382","name":"Rhein-Sieg-Kreis","type":"Kreis"},"federalState":{"key":"05","name":"Nordrhein-Westfalen"}},{"name":"Rubensweg","postalCode":"53332","locality":"Bornheim","municipality":{"key":"05382012","name":"Bornheim, Stadt","type":"Stadt"},"district":{"key":"05382","name":"Rhein-Sieg-Kreis","type":"Kreis"},"federalState":{"key":"05","name":"Nordrhein-Westfalen"}},{"name":"Rücksgasse","postalCode":"53332","locality":"Bornheim","municipality":{"key":"05382012","name":"Bornheim, Stadt","type":"Stadt"},"district":{"key":"05382","name":"Rhein-Sieg-Kreis","type":"Kreis"},"federalState":{"key":"05","name":"Nordrhein-Westfalen"}},{"name":"Ruhrstr.","postalCode":"53332","locality":"Bornheim","municipality":{"key":"05382012","name":"Bornheim, Stadt","type":"Stadt"},"district":{"key":"05382","name":"Rhein-Sieg-Kreis","type":"Kreis"},"federalState":{"key":"05","name":"Nordrhein-Westfalen"}},{"name":"Rüttersweg","postalCode":"53332","locality":"Bornheim","municipality":{"key":"05382012","name":"Bornheim, Stadt","type":"Stadt"},"district":{"key":"05382","name":"Rhein-Sieg-Kreis","type":"Kreis"},"federalState":{"key":"05","name":"Nordrhein-Westfalen"}},{"name":"Saalestr.","postalCode":"53332","locality":"Bornheim","municipality":{"key":"05382012","name":"Bornheim, Stadt","type":"Stadt"},"district":{"key":"05382","name":"Rhein-Sieg-Kreis","type":"Kreis"},"federalState":{"key":"05","name":"Nordrhein-Westfalen"}},{"name":"Saarstr.","postalCode":"53332","locality":"Bornheim","municipality":{"key":"05382012","name":"Bornheim, Stadt","type":"Stadt"},"district":{"key":"05382","name":"Rhein-Sieg-Kreis","type":"Kreis"},"federalState":{"key":"05","name":"Nordrhein-Westfalen"}},{"name":"Sachsenstr.","postalCode":"53332","locality":"Bornheim","municipality":{"key":"05382012","name":"Bornheim, Stadt","type":"Stadt"},"district":{"key":"05382","name":"Rhein-Sieg-Kreis","type":"Kreis"},"federalState":{"key":"05","name":"Nordrhein-Westfalen"}},{"name":"Salierweg","postalCode":"53332","locality":"Bornheim","municipality":{"key":"05382012","name":"Bornheim, Stadt","type":"Stadt"},"district":{"key":"05382","name":"Rhein-Sieg-Kreis","type":"Kreis"},"federalState":{"key":"05","name":"Nordrhein-Westfalen"}},{"name":"Salzachstr.","postalCode":"53332","locality":"Bornheim","municipality":{"key":"05382012","name":"Bornheim, Stadt","type":"Stadt"},"district":{"key":"05382","name":"Rhein-Sieg-Kreis","type":"Kreis"},"federalState":{"key":"05","name":"Nordrhein-Westfalen"}},{"name":"Sandstr.","postalCode":"53332","locality":"Bornheim","municipality":{"key":"05382012","name":"Bornheim, Stadt","type":"Stadt"},"district":{"key":"05382","name":"Rhein-Sieg-Kreis","type":"Kreis"},"federalState":{"key":"05","name":"Nordrhein-Westfalen"}},{"name":"Sankt-Josefs-Weg","postalCode":"53332","locality":"Bornheim","municipality":{"key":"05382012","name":"Bornheim, Stadt","type":"Stadt"},"district":{"key":"05382","name":"Rhein-Sieg-Kreis","type":"Kreis"},"federalState":{"key":"05","name":"Nordrhein-Westfalen"}},{"name":"Schallenberg","postalCode":"53332","locality":"Bornheim","municipality":{"key":"05382012","name":"Bornheim, Stadt","type":"Stadt"},"district":{"key":"05382","name":"Rhein-Sieg-Kreis","type":"Kreis"},"federalState":{"key":"05","name":"Nordrhein-Westfalen"}},{"name":"Schebenstr.","postalCode":"53332","locality":"Bornheim","municipality":{"key":"05382012","name":"Bornheim, Stadt","type":"Stadt"},"district":{"key":"05382","name":"Rhein-Sieg-Kreis","type":"Kreis"},"federalState":{"key":"05","name":"Nordrhein-Westfalen"}},{"name":"Schelmenpfad","postalCode":"53332","locality":"Bornheim","municipality":{"key":"05382012","name":"Bornheim, Stadt","type":"Stadt"},"district":{"key":"05382","name":"Rhein-Sieg-Kreis","type":"Kreis"},"federalState":{"key":"05","name":"Nordrhein-Westfalen"}},{"name":"Schenkgasse","postalCode":"53332","locality":"Bornheim","municipality":{"key":"05382012","name":"Bornheim, Stadt","type":"Stadt"},"district":{"key":"05382","name":"Rhein-Sieg-Kreis","type":"Kreis"},"federalState":{"key":"05","name":"Nordrhein-Westfalen"}},{"name":"Schillerstr.","postalCode":"53332","locality":"Bornheim","municipality":{"key":"05382012","name":"Bornheim, Stadt","type":"Stadt"},"district":{"key":"05382","name":"Rhein-Sieg-Kreis","type":"Kreis"},"federalState":{"key":"05","name":"Nordrhein-Westfalen"}},{"name":"Schlappersweg","postalCode":"53332","locality":"Bornheim","municipality":{"key":"05382012","name":"Bornheim, Stadt","type":"Stadt"},"district":{"key":"05382","name":"Rhein-Sieg-Kreis","type":"Kreis"},"federalState":{"key":"05","name":"Nordrhein-Westfalen"}},{"name":"Schlegelstr.","postalCode":"53332","locality":"Bornheim","municipality":{"key":"05382012","name":"Bornheim, Stadt","type":"Stadt"},"district":{"key":"05382","name":"Rhein-Sieg-Kreis","type":"Kreis"},"federalState":{"key":"05","name":"Nordrhein-Westfalen"}},{"name":"Schleifgäßchen","postalCode":"53332","locality":"Bornheim","municipality":{"key":"05382012","name":"Bornheim, Stadt","type":"Stadt"},"district":{"key":"05382","name":"Rhein-Sieg-Kreis","type":"Kreis"},"federalState":{"key":"05","name":"Nordrhein-Westfalen"}},{"name":"Schmiedegasse","postalCode":"53332","locality":"Bornheim","municipality":{"key":"05382012","name":"Bornheim, Stadt","type":"Stadt"},"district":{"key":"05382","name":"Rhein-Sieg-Kreis","type":"Kreis"},"federalState":{"key":"05","name":"Nordrhein-Westfalen"}},{"name":"Schmitzgraben","postalCode":"53332","locality":"Bornheim","municipality":{"key":"05382012","name":"Bornheim, Stadt","type":"Stadt"},"district":{"key":"05382","name":"Rhein-Sieg-Kreis","type":"Kreis"},"federalState":{"key":"05","name":"Nordrhein-Westfalen"}},{"name":"Schonewegstr.","postalCode":"53332","locality":"Bornheim","municipality":{"key":"05382012","name":"Bornheim, Stadt","type":"Stadt"},"district":{"key":"05382","name":"Rhein-Sieg-Kreis","type":"Kreis"},"federalState":{"key":"05","name":"Nordrhein-Westfalen"}},{"name":"Schornsberg","postalCode":"53332","locality":"Bornheim","municipality":{"key":"05382012","name":"Bornheim, Stadt","type":"Stadt"},"district":{"key":"05382","name":"Rhein-Sieg-Kreis","type":"Kreis"},"federalState":{"key":"05","name":"Nordrhein-Westfalen"}},{"name":"Schottgasse","postalCode":"53332","locality":"Bornheim","municipality":{"key":"05382012","name":"Bornheim, Stadt","type":"Stadt"},"district":{"key":"05382","name":"Rhein-Sieg-Kreis","type":"Kreis"},"federalState":{"key":"05","name":"Nordrhein-Westfalen"}},{"name":"Schubertstr.","postalCode":"53332","locality":"Bornheim","municipality":{"key":"05382012","name":"Bornheim, Stadt","type":"Stadt"},"district":{"key":"05382","name":"Rhein-Sieg-Kreis","type":"Kreis"},"federalState":{"key":"05","name":"Nordrhein-Westfalen"}},{"name":"Schulstr.","postalCode":"53332","locality":"Bornheim","municipality":{"key":"05382012","name":"Bornheim, Stadt","type":"Stadt"},"district":{"key":"05382","name":"Rhein-Sieg-Kreis","type":"Kreis"},"federalState":{"key":"05","name":"Nordrhein-Westfalen"}},{"name":"Schumacherstr.","postalCode":"53332","locality":"Bornheim","municipality":{"key":"05382012","name":"Bornheim, Stadt","type":"Stadt"},"district":{"key":"05382","name":"Rhein-Sieg-Kreis","type":"Kreis"},"federalState":{"key":"05","name":"Nordrhein-Westfalen"}},{"name":"Schumannstr.","postalCode":"53332","locality":"Bornheim","municipality":{"key":"05382012","name":"Bornheim, Stadt","type":"Stadt"},"district":{"key":"05382","name":"Rhein-Sieg-Kreis","type":"Kreis"},"federalState":{"key":"05","name":"Nordrhein-Westfalen"}},{"name":"Schußgasse","postalCode":"53332","locality":"Bornheim","municipality":{"key":"05382012","name":"Bornheim, Stadt","type":"Stadt"},"district":{"key":"05382","name":"Rhein-Sieg-Kreis","type":"Kreis"},"federalState":{"key":"05","name":"Nordrhein-Westfalen"}},{"name":"Schützenstr.","postalCode":"53332","locality":"Bornheim","municipality":{"key":"05382012","name":"Bornheim, Stadt","type":"Stadt"},"district":{"key":"05382","name":"Rhein-Sieg-Kreis","type":"Kreis"},"federalState":{"key":"05","name":"Nordrhein-Westfalen"}},{"name":"Schwadorfer Kreuz","postalCode":"53332","locality":"Bornheim","municipality":{"key":"05382012","name":"Bornheim, Stadt","type":"Stadt"},"district":{"key":"05382","name":"Rhein-Sieg-Kreis","type":"Kreis"},"federalState":{"key":"05","name":"Nordrhein-Westfalen"}},{"name":"Schwalbstr.","postalCode":"53332","locality":"Bornheim","municipality":{"key":"05382012","name":"Bornheim, Stadt","type":"Stadt"},"district":{"key":"05382","name":"Rhein-Sieg-Kreis","type":"Kreis"},"federalState":{"key":"05","name":"Nordrhein-Westfalen"}},{"name":"Schwarzwaldstr.","postalCode":"53332","locality":"Bornheim","municipality":{"key":"05382012","name":"Bornheim, Stadt","type":"Stadt"},"district":{"key":"05382","name":"Rhein-Sieg-Kreis","type":"Kreis"},"federalState":{"key":"05","name":"Nordrhein-Westfalen"}},{"name":"Schweizstr.","postalCode":"53332","locality":"Bornheim","municipality":{"key":"05382012","name":"Bornheim, Stadt","type":"Stadt"},"district":{"key":"05382","name":"Rhein-Sieg-Kreis","type":"Kreis"},"federalState":{"key":"05","name":"Nordrhein-Westfalen"}},{"name":"Schweppenburgstr.","postalCode":"53332","locality":"Bornheim","municipality":{"key":"05382012","name":"Bornheim, Stadt","type":"Stadt"},"district":{"key":"05382","name":"Rhein-Sieg-Kreis","type":"Kreis"},"federalState":{"key":"05","name":"Nordrhein-Westfalen"}},{"name":"Schwester-Ermelindis-Weg","postalCode":"53332","locality":"Bornheim","municipality":{"key":"05382012","name":"Bornheim, Stadt","type":"Stadt"},"district":{"key":"05382","name":"Rhein-Sieg-Kreis","type":"Kreis"},"federalState":{"key":"05","name":"Nordrhein-Westfalen"}},{"name":"Sebastianstr.","postalCode":"53332","locality":"Bornheim","municipality":{"key":"05382012","name":"Bornheim, Stadt","type":"Stadt"},"district":{"key":"05382","name":"Rhein-Sieg-Kreis","type":"Kreis"},"federalState":{"key":"05","name":"Nordrhein-Westfalen"}},{"name":"Sebastianusweg","postalCode":"53332","locality":"Bornheim","municipality":{"key":"05382012","name":"Bornheim, Stadt","type":"Stadt"},"district":{"key":"05382","name":"Rhein-Sieg-Kreis","type":"Kreis"},"federalState":{"key":"05","name":"Nordrhein-Westfalen"}},{"name":"Sechtemer Str.","postalCode":"53332","locality":"Bornheim","municipality":{"key":"05382012","name":"Bornheim, Stadt","type":"Stadt"},"district":{"key":"05382","name":"Rhein-Sieg-Kreis","type":"Kreis"},"federalState":{"key":"05","name":"Nordrhein-Westfalen"}},{"name":"Sechtemer Weg","postalCode":"53332","locality":"Bornheim","municipality":{"key":"05382012","name":"Bornheim, Stadt","type":"Stadt"},"district":{"key":"05382","name":"Rhein-Sieg-Kreis","type":"Kreis"},"federalState":{"key":"05","name":"Nordrhein-Westfalen"}},{"name":"Secundastr.","postalCode":"53332","locality":"Bornheim","municipality":{"key":"05382012","name":"Bornheim, Stadt","type":"Stadt"},"district":{"key":"05382","name":"Rhein-Sieg-Kreis","type":"Kreis"},"federalState":{"key":"05","name":"Nordrhein-Westfalen"}},{"name":"Servatiusweg","postalCode":"53332","locality":"Bornheim","municipality":{"key":"05382012","name":"Bornheim, Stadt","type":"Stadt"},"district":{"key":"05382","name":"Rhein-Sieg-Kreis","type":"Kreis"},"federalState":{"key":"05","name":"Nordrhein-Westfalen"}},{"name":"Siebengebirgsstr.","postalCode":"53332","locality":"Bornheim","municipality":{"key":"05382012","name":"Bornheim, Stadt","type":"Stadt"},"district":{"key":"05382","name":"Rhein-Sieg-Kreis","type":"Kreis"},"federalState":{"key":"05","name":"Nordrhein-Westfalen"}},{"name":"Siefenfeldchen","postalCode":"53332","locality":"Bornheim","municipality":{"key":"05382012","name":"Bornheim, Stadt","type":"Stadt"},"district":{"key":"05382","name":"Rhein-Sieg-Kreis","type":"Kreis"},"federalState":{"key":"05","name":"Nordrhein-Westfalen"}},{"name":"Siegburger Str.","postalCode":"53332","locality":"Bornheim","municipality":{"key":"05382012","name":"Bornheim, Stadt","type":"Stadt"},"district":{"key":"05382","name":"Rhein-Sieg-Kreis","type":"Kreis"},"federalState":{"key":"05","name":"Nordrhein-Westfalen"}},{"name":"Siegesstr.","postalCode":"53332","locality":"Bornheim","municipality":{"key":"05382012","name":"Bornheim, Stadt","type":"Stadt"},"district":{"key":"05382","name":"Rhein-Sieg-Kreis","type":"Kreis"},"federalState":{"key":"05","name":"Nordrhein-Westfalen"}},{"name":"Siegstr.","postalCode":"53332","locality":"Bornheim","municipality":{"key":"05382012","name":"Bornheim, Stadt","type":"Stadt"},"district":{"key":"05382","name":"Rhein-Sieg-Kreis","type":"Kreis"},"federalState":{"key":"05","name":"Nordrhein-Westfalen"}},{"name":"Siemenacker","postalCode":"53332","locality":"Bornheim","municipality":{"key":"05382012","name":"Bornheim, Stadt","type":"Stadt"},"district":{"key":"05382","name":"Rhein-Sieg-Kreis","type":"Kreis"},"federalState":{"key":"05","name":"Nordrhein-Westfalen"}},{"name":"Silcherstr.","postalCode":"53332","locality":"Bornheim","municipality":{"key":"05382012","name":"Bornheim, Stadt","type":"Stadt"},"district":{"key":"05382","name":"Rhein-Sieg-Kreis","type":"Kreis"},"federalState":{"key":"05","name":"Nordrhein-Westfalen"}},{"name":"Simon-Arzt-Str.","postalCode":"53332","locality":"Bornheim","municipality":{"key":"05382012","name":"Bornheim, Stadt","type":"Stadt"},"district":{"key":"05382","name":"Rhein-Sieg-Kreis","type":"Kreis"},"federalState":{"key":"05","name":"Nordrhein-Westfalen"}},{"name":"Sommersberg","postalCode":"53332","locality":"Bornheim","municipality":{"key":"05382012","name":"Bornheim, Stadt","type":"Stadt"},"district":{"key":"05382","name":"Rhein-Sieg-Kreis","type":"Kreis"},"federalState":{"key":"05","name":"Nordrhein-Westfalen"}},{"name":"Spessartstr.","postalCode":"53332","locality":"Bornheim","municipality":{"key":"05382012","name":"Bornheim, Stadt","type":"Stadt"},"district":{"key":"05382","name":"Rhein-Sieg-Kreis","type":"Kreis"},"federalState":{"key":"05","name":"Nordrhein-Westfalen"}},{"name":"Spitzwegstr.","postalCode":"53332","locality":"Bornheim","municipality":{"key":"05382012","name":"Bornheim, Stadt","type":"Stadt"},"district":{"key":"05382","name":"Rhein-Sieg-Kreis","type":"Kreis"},"federalState":{"key":"05","name":"Nordrhein-Westfalen"}},{"name":"Sportfeldring","postalCode":"55237","locality":"Bornheim","municipality":{"key":"07331012","name":"Bornheim","type":"Kreisangehörige_Gemeinde"},"district":{"key":"07331","name":"Alzey-Worms","type":"Landkreis"},"federalState":{"key":"07","name":"Rheinland-Pfalz"}},{"name":"Talstr.","postalCode":"53332","locality":"Bornheim","municipality":{"key":"05382012","name":"Bornheim, Stadt","type":"Stadt"},"district":{"key":"05382","name":"Rhein-Sieg-Kreis","type":"Kreis"},"federalState":{"key":"05","name":"Nordrhein-Westfalen"}},{"name":"Taunusstr.","postalCode":"53332","locality":"Bornheim","municipality":{"key":"05382012","name":"Bornheim, Stadt","type":"Stadt"},"district":{"key":"05382","name":"Rhein-Sieg-Kreis","type":"Kreis"},"federalState":{"key":"05","name":"Nordrhein-Westfalen"}},{"name":"Teutonenstr.","postalCode":"53332","locality":"Bornheim","municipality":{"key":"05382012","name":"Bornheim, Stadt","type":"Stadt"},"district":{"key":"05382","name":"Rhein-Sieg-Kreis","type":"Kreis"},"federalState":{"key":"05","name":"Nordrhein-Westfalen"}},{"name":"Theo-Dickopp-Str.","postalCode":"53332","locality":"Bornheim","municipality":{"key":"05382012","name":"Bornheim, Stadt","type":"Stadt"},"district":{"key":"05382","name":"Rhein-Sieg-Kreis","type":"Kreis"},"federalState":{"key":"05","name":"Nordrhein-Westfalen"}},{"name":"Trakehnenstr.","postalCode":"53332","locality":"Bornheim","municipality":{"key":"05382012","name":"Bornheim, Stadt","type":"Stadt"},"district":{"key":"05382","name":"Rhein-Sieg-Kreis","type":"Kreis"},"federalState":{"key":"05","name":"Nordrhein-Westfalen"}},{"name":"Tränkerhofstr.","postalCode":"53332","locality":"Bornheim","municipality":{"key":"05382012","name":"Bornheim, Stadt","type":"Stadt"},"district":{"key":"05382","name":"Rhein-Sieg-Kreis","type":"Kreis"},"federalState":{"key":"05","name":"Nordrhein-Westfalen"}},{"name":"Travenstr.","postalCode":"53332","locality":"Bornheim","municipality":{"key":"05382012","name":"Bornheim, Stadt","type":"Stadt"},"district":{"key":"05382","name":"Rhein-Sieg-Kreis","type":"Kreis"},"federalState":{"key":"05","name":"Nordrhein-Westfalen"}},{"name":"Trierer Str.","postalCode":"53332","locality":"Bornheim","municipality":{"key":"05382012","name":"Bornheim, Stadt","type":"Stadt"},"district":{"key":"05382","name":"Rhein-Sieg-Kreis","type":"Kreis"},"federalState":{"key":"05","name":"Nordrhein-Westfalen"}},{"name":"Trifelsblick","postalCode":"76879","locality":"Bornheim","municipality":{"key":"07337014","name":"Bornheim","type":"Kreisangehörige_Gemeinde"},"district":{"key":"07337","name":"Südliche Weinstraße","type":"Landkreis"},"federalState":{"key":"07","name":"Rheinland-Pfalz"}},{"name":"Tulpenstr.","postalCode":"53332","locality":"Bornheim","municipality":{"key":"05382012","name":"Bornheim, Stadt","type":"Stadt"},"district":{"key":"05382","name":"Rhein-Sieg-Kreis","type":"Kreis"},"federalState":{"key":"05","name":"Nordrhein-Westfalen"}},{"name":"Ubierweg","postalCode":"53332","locality":"Bornheim","municipality":{"key":"05382012","name":"Bornheim, Stadt","type":"Stadt"},"district":{"key":"05382","name":"Rhein-Sieg-Kreis","type":"Kreis"},"federalState":{"key":"05","name":"Nordrhein-Westfalen"}},{"name":"Uedorfer Weg","postalCode":"53332","locality":"Bornheim","municipality":{"key":"05382012","name":"Bornheim, Stadt","type":"Stadt"},"district":{"key":"05382","name":"Rhein-Sieg-Kreis","type":"Kreis"},"federalState":{"key":"05","name":"Nordrhein-Westfalen"}},{"name":"Uhlandstr.","postalCode":"53332","locality":"Bornheim","municipality":{"key":"05382012","name":"Bornheim, Stadt","type":"Stadt"},"district":{"key":"05382","name":"Rhein-Sieg-Kreis","type":"Kreis"},"federalState":{"key":"05","name":"Nordrhein-Westfalen"}},{"name":"Uhlstr.","postalCode":"53332","locality":"Bornheim","municipality":{"key":"05382012","name":"Bornheim, Stadt","type":"Stadt"},"district":{"key":"05382","name":"Rhein-Sieg-Kreis","type":"Kreis"},"federalState":{"key":"05","name":"Nordrhein-Westfalen"}},{"name":"Ulrichstr.","postalCode":"53332","locality":"Bornheim","municipality":{"key":"05382012","name":"Bornheim, Stadt","type":"Stadt"},"district":{"key":"05382","name":"Rhein-Sieg-Kreis","type":"Kreis"},"federalState":{"key":"05","name":"Nordrhein-Westfalen"}},{"name":"Umbachweg","postalCode":"53332","locality":"Bornheim","municipality":{"key":"05382012","name":"Bornheim, Stadt","type":"Stadt"},"district":{"key":"05382","name":"Rhein-Sieg-Kreis","type":"Kreis"},"federalState":{"key":"05","name":"Nordrhein-Westfalen"}},{"name":"Unrechter Weg","postalCode":"53332","locality":"Bornheim","municipality":{"key":"05382012","name":"Bornheim, Stadt","type":"Stadt"},"district":{"key":"05382","name":"Rhein-Sieg-Kreis","type":"Kreis"},"federalState":{"key":"05","name":"Nordrhein-Westfalen"}},{"name":"Unter dem Lindchen","postalCode":"53332","locality":"Bornheim","municipality":{"key":"05382012","name":"Bornheim, Stadt","type":"Stadt"},"district":{"key":"05382","name":"Rhein-Sieg-Kreis","type":"Kreis"},"federalState":{"key":"05","name":"Nordrhein-Westfalen"}},{"name":"Unter der Windmühle","postalCode":"53332","locality":"Bornheim","municipality":{"key":"05382012","name":"Bornheim, Stadt","type":"Stadt"},"district":{"key":"05382","name":"Rhein-Sieg-Kreis","type":"Kreis"},"federalState":{"key":"05","name":"Nordrhein-Westfalen"}},{"name":"Unterdorfstr.","postalCode":"53332","locality":"Bornheim","municipality":{"key":"05382012","name":"Bornheim, Stadt","type":"Stadt"},"district":{"key":"05382","name":"Rhein-Sieg-Kreis","type":"Kreis"},"federalState":{"key":"05","name":"Nordrhein-Westfalen"}},{"name":"Unterer Gehauene Weg","postalCode":"53332","locality":"Bornheim","municipality":{"key":"05382012","name":"Bornheim, Stadt","type":"Stadt"},"district":{"key":"05382","name":"Rhein-Sieg-Kreis","type":"Kreis"},"federalState":{"key":"05","name":"Nordrhein-Westfalen"}},{"name":"Ursulinenstr.","postalCode":"53332","locality":"Bornheim","municipality":{"key":"05382012","name":"Bornheim, Stadt","type":"Stadt"},"district":{"key":"05382","name":"Rhein-Sieg-Kreis","type":"Kreis"},"federalState":{"key":"05","name":"Nordrhein-Westfalen"}},{"name":"Veilchenweg","postalCode":"53332","locality":"Bornheim","municipality":{"key":"05382012","name":"Bornheim, Stadt","type":"Stadt"},"district":{"key":"05382","name":"Rhein-Sieg-Kreis","type":"Kreis"},"federalState":{"key":"05","name":"Nordrhein-Westfalen"}},{"name":"Venantiastr.","postalCode":"53332","locality":"Bornheim","municipality":{"key":"05382012","name":"Bornheim, Stadt","type":"Stadt"},"district":{"key":"05382","name":"Rhein-Sieg-Kreis","type":"Kreis"},"federalState":{"key":"05","name":"Nordrhein-Westfalen"}},{"name":"Vennstr.","postalCode":"53332","locality":"Bornheim","municipality":{"key":"05382012","name":"Bornheim, Stadt","type":"Stadt"},"district":{"key":"05382","name":"Rhein-Sieg-Kreis","type":"Kreis"},"federalState":{"key":"05","name":"Nordrhein-Westfalen"}},{"name":"Verdistr.","postalCode":"53332","locality":"Bornheim","municipality":{"key":"05382012","name":"Bornheim, Stadt","type":"Stadt"},"district":{"key":"05382","name":"Rhein-Sieg-Kreis","type":"Kreis"},"federalState":{"key":"05","name":"Nordrhein-Westfalen"}},{"name":"Vinkelgasse","postalCode":"53332","locality":"Bornheim","municipality":{"key":"05382012","name":"Bornheim, Stadt","type":"Stadt"},"district":{"key":"05382","name":"Rhein-Sieg-Kreis","type":"Kreis"},"federalState":{"key":"05","name":"Nordrhein-Westfalen"}},{"name":"Vinzenzstr.","postalCode":"53332","locality":"Bornheim","municipality":{"key":"05382012","name":"Bornheim, Stadt","type":"Stadt"},"district":{"key":"05382","name":"Rhein-Sieg-Kreis","type":"Kreis"},"federalState":{"key":"05","name":"Nordrhein-Westfalen"}},{"name":"Von-Groote-Str.","postalCode":"53332","locality":"Bornheim","municipality":{"key":"05382012","name":"Bornheim, Stadt","type":"Stadt"},"district":{"key":"05382","name":"Rhein-Sieg-Kreis","type":"Kreis"},"federalState":{"key":"05","name":"Nordrhein-Westfalen"}},{"name":"Von-Weichs-Str.","postalCode":"53332","locality":"Bornheim","municipality":{"key":"05382012","name":"Bornheim, Stadt","type":"Stadt"},"district":{"key":"05382","name":"Rhein-Sieg-Kreis","type":"Kreis"},"federalState":{"key":"05","name":"Nordrhein-Westfalen"}},{"name":"Vorgebirgsstr.","postalCode":"53332","locality":"Bornheim","municipality":{"key":"05382012","name":"Bornheim, Stadt","type":"Stadt"},"district":{"key":"05382","name":"Rhein-Sieg-Kreis","type":"Kreis"},"federalState":{"key":"05","name":"Nordrhein-Westfalen"}},{"name":"Vorzepfweg","postalCode":"53332","locality":"Bornheim","municipality":{"key":"05382012","name":"Bornheim, Stadt","type":"Stadt"},"district":{"key":"05382","name":"Rhein-Sieg-Kreis","type":"Kreis"},"federalState":{"key":"05","name":"Nordrhein-Westfalen"}},{"name":"Wagnerstr.","postalCode":"53332","locality":"Bornheim","municipality":{"key":"05382012","name":"Bornheim, Stadt","type":"Stadt"},"district":{"key":"05382","name":"Rhein-Sieg-Kreis","type":"Kreis"},"federalState":{"key":"05","name":"Nordrhein-Westfalen"}},{"name":"Walberberger Str.","postalCode":"53332","locality":"Bornheim","municipality":{"key":"05382012","name":"Bornheim, Stadt","type":"Stadt"},"district":{"key":"05382","name":"Rhein-Sieg-Kreis","type":"Kreis"},"federalState":{"key":"05","name":"Nordrhein-Westfalen"}},{"name":"Walbottstr.","postalCode":"53332","locality":"Bornheim","municipality":{"key":"05382012","name":"Bornheim, Stadt","type":"Stadt"},"district":{"key":"05382","name":"Rhein-Sieg-Kreis","type":"Kreis"},"federalState":{"key":"05","name":"Nordrhein-Westfalen"}},{"name":"Walburgisstr.","postalCode":"53332","locality":"Bornheim","municipality":{"key":"05382012","name":"Bornheim, Stadt","type":"Stadt"},"district":{"key":"05382","name":"Rhein-Sieg-Kreis","type":"Kreis"},"federalState":{"key":"05","name":"Nordrhein-Westfalen"}},{"name":"Waldorfer Weg","postalCode":"53332","locality":"Bornheim","municipality":{"key":"05382012","name":"Bornheim, Stadt","type":"Stadt"},"district":{"key":"05382","name":"Rhein-Sieg-Kreis","type":"Kreis"},"federalState":{"key":"05","name":"Nordrhein-Westfalen"}},{"name":"Waldstr.","postalCode":"53332","locality":"Bornheim","municipality":{"key":"05382012","name":"Bornheim, Stadt","type":"Stadt"},"district":{"key":"05382","name":"Rhein-Sieg-Kreis","type":"Kreis"},"federalState":{"key":"05","name":"Nordrhein-Westfalen"}},{"name":"Wallrafstr.","postalCode":"53332","locality":"Bornheim","municipality":{"key":"05382012","name":"Bornheim, Stadt","type":"Stadt"},"district":{"key":"05382","name":"Rhein-Sieg-Kreis","type":"Kreis"},"federalState":{"key":"05","name":"Nordrhein-Westfalen"}},{"name":"Weberstr.","postalCode":"53332","locality":"Bornheim","municipality":{"key":"05382012","name":"Bornheim, Stadt","type":"Stadt"},"district":{"key":"05382","name":"Rhein-Sieg-Kreis","type":"Kreis"},"federalState":{"key":"05","name":"Nordrhein-Westfalen"}},{"name":"Weidenbachweg","postalCode":"53332","locality":"Bornheim","municipality":{"key":"05382012","name":"Bornheim, Stadt","type":"Stadt"},"district":{"key":"05382","name":"Rhein-Sieg-Kreis","type":"Kreis"},"federalState":{"key":"05","name":"Nordrhein-Westfalen"}},{"name":"Weiherstr.","postalCode":"53332","locality":"Bornheim","municipality":{"key":"05382012","name":"Bornheim, Stadt","type":"Stadt"},"district":{"key":"05382","name":"Rhein-Sieg-Kreis","type":"Kreis"},"federalState":{"key":"05","name":"Nordrhein-Westfalen"}},{"name":"Weilerstr.","postalCode":"53332","locality":"Bornheim","municipality":{"key":"05382012","name":"Bornheim, Stadt","type":"Stadt"},"district":{"key":"05382","name":"Rhein-Sieg-Kreis","type":"Kreis"},"federalState":{"key":"05","name":"Nordrhein-Westfalen"}},{"name":"Weimarer Str.","postalCode":"53332","locality":"Bornheim","municipality":{"key":"05382012","name":"Bornheim, Stadt","type":"Stadt"},"district":{"key":"05382","name":"Rhein-Sieg-Kreis","type":"Kreis"},"federalState":{"key":"05","name":"Nordrhein-Westfalen"}},{"name":"Weingarten","postalCode":"53332","locality":"Bornheim","municipality":{"key":"05382012","name":"Bornheim, Stadt","type":"Stadt"},"district":{"key":"05382","name":"Rhein-Sieg-Kreis","type":"Kreis"},"federalState":{"key":"05","name":"Nordrhein-Westfalen"}},{"name":"Weiße-Burg-Str.","postalCode":"53332","locality":"Bornheim","municipality":{"key":"05382012","name":"Bornheim, Stadt","type":"Stadt"},"district":{"key":"05382","name":"Rhein-Sieg-Kreis","type":"Kreis"},"federalState":{"key":"05","name":"Nordrhein-Westfalen"}},{"name":"Wendelinusstr.","postalCode":"53332","locality":"Bornheim","municipality":{"key":"05382012","name":"Bornheim, Stadt","type":"Stadt"},"district":{"key":"05382","name":"Rhein-Sieg-Kreis","type":"Kreis"},"federalState":{"key":"05","name":"Nordrhein-Westfalen"}},{"name":"Werrastr.","postalCode":"53332","locality":"Bornheim","municipality":{"key":"05382012","name":"Bornheim, Stadt","type":"Stadt"},"district":{"key":"05382","name":"Rhein-Sieg-Kreis","type":"Kreis"},"federalState":{"key":"05","name":"Nordrhein-Westfalen"}},{"name":"Werthstr.","postalCode":"53332","locality":"Bornheim","municipality":{"key":"05382012","name":"Bornheim, Stadt","type":"Stadt"},"district":{"key":"05382","name":"Rhein-Sieg-Kreis","type":"Kreis"},"federalState":{"key":"05","name":"Nordrhein-Westfalen"}},{"name":"Weserstr.","postalCode":"53332","locality":"Bornheim","municipality":{"key":"05382012","name":"Bornheim, Stadt","type":"Stadt"},"district":{"key":"05382","name":"Rhein-Sieg-Kreis","type":"Kreis"},"federalState":{"key":"05","name":"Nordrhein-Westfalen"}},{"name":"Weyerberg","postalCode":"53332","locality":"Bornheim","municipality":{"key":"05382012","name":"Bornheim, Stadt","type":"Stadt"},"district":{"key":"05382","name":"Rhein-Sieg-Kreis","type":"Kreis"},"federalState":{"key":"05","name":"Nordrhein-Westfalen"}},{"name":"Widdiger Talweg","postalCode":"53332","locality":"Bornheim","municipality":{"key":"05382012","name":"Bornheim, Stadt","type":"Stadt"},"district":{"key":"05382","name":"Rhein-Sieg-Kreis","type":"Kreis"},"federalState":{"key":"05","name":"Nordrhein-Westfalen"}},{"name":"Widdiger Weg","postalCode":"53332","locality":"Bornheim","municipality":{"key":"05382012","name":"Bornheim, Stadt","type":"Stadt"},"district":{"key":"05382","name":"Rhein-Sieg-Kreis","type":"Kreis"},"federalState":{"key":"05","name":"Nordrhein-Westfalen"}},{"name":"Wiener Str.","postalCode":"53332","locality":"Bornheim","municipality":{"key":"05382012","name":"Bornheim, Stadt","type":"Stadt"},"district":{"key":"05382","name":"Rhein-Sieg-Kreis","type":"Kreis"},"federalState":{"key":"05","name":"Nordrhein-Westfalen"}},{"name":"Wiesenstr.","postalCode":"53332","locality":"Bornheim","municipality":{"key":"05382012","name":"Bornheim, Stadt","type":"Stadt"},"district":{"key":"05382","name":"Rhein-Sieg-Kreis","type":"Kreis"},"federalState":{"key":"05","name":"Nordrhein-Westfalen"}},{"name":"Wiesenstr.","postalCode":"76879","locality":"Bornheim","municipality":{"key":"07337014","name":"Bornheim","type":"Kreisangehörige_Gemeinde"},"district":{"key":"07337","name":"Südliche Weinstraße","type":"Landkreis"},"federalState":{"key":"07","name":"Rheinland-Pfalz"}},{"name":"Wikingerstr.","postalCode":"53332","locality":"Bornheim","municipality":{"key":"05382012","name":"Bornheim, Stadt","type":"Stadt"},"district":{"key":"05382","name":"Rhein-Sieg-Kreis","type":"Kreis"},"federalState":{"key":"05","name":"Nordrhein-Westfalen"}},{"name":"Wilhelmstr.","postalCode":"53332","locality":"Bornheim","municipality":{"key":"05382012","name":"Bornheim, Stadt","type":"Stadt"},"district":{"key":"05382","name":"Rhein-Sieg-Kreis","type":"Kreis"},"federalState":{"key":"05","name":"Nordrhein-Westfalen"}},{"name":"Willi-Ostermann-Str.","postalCode":"53332","locality":"Bornheim","municipality":{"key":"05382012","name":"Bornheim, Stadt","type":"Stadt"},"district":{"key":"05382","name":"Rhein-Sieg-Kreis","type":"Kreis"},"federalState":{"key":"05","name":"Nordrhein-Westfalen"}},{"name":"Willmuthstr.","postalCode":"53332","locality":"Bornheim","municipality":{"key":"05382012","name":"Bornheim, Stadt","type":"Stadt"},"district":{"key":"05382","name":"Rhein-Sieg-Kreis","type":"Kreis"},"federalState":{"key":"05","name":"Nordrhein-Westfalen"}},{"name":"Windmühlenstr.","postalCode":"53332","locality":"Bornheim","municipality":{"key":"05382012","name":"Bornheim, Stadt","type":"Stadt"},"district":{"key":"05382","name":"Rhein-Sieg-Kreis","type":"Kreis"},"federalState":{"key":"05","name":"Nordrhein-Westfalen"}},{"name":"Wingert","postalCode":"53332","locality":"Bornheim","municipality":{"key":"05382012","name":"Bornheim, Stadt","type":"Stadt"},"district":{"key":"05382","name":"Rhein-Sieg-Kreis","type":"Kreis"},"federalState":{"key":"05","name":"Nordrhein-Westfalen"}},{"name":"Witthoffstr.","postalCode":"53332","locality":"Bornheim","municipality":{"key":"05382012","name":"Bornheim, Stadt","type":"Stadt"},"district":{"key":"05382","name":"Rhein-Sieg-Kreis","type":"Kreis"},"federalState":{"key":"05","name":"Nordrhein-Westfalen"}},{"name":"Wöhlerstr.","postalCode":"53332","locality":"Bornheim","municipality":{"key":"05382012","name":"Bornheim, Stadt","type":"Stadt"},"district":{"key":"05382","name":"Rhein-Sieg-Kreis","type":"Kreis"},"federalState":{"key":"05","name":"Nordrhein-Westfalen"}},{"name":"Wolfsgasse","postalCode":"53332","locality":"Bornheim","municipality":{"key":"05382012","name":"Bornheim, Stadt","type":"Stadt"},"district":{"key":"05382","name":"Rhein-Sieg-Kreis","type":"Kreis"},"federalState":{"key":"05","name":"Nordrhein-Westfalen"}},{"name":"Wupperstr.","postalCode":"53332","locality":"Bornheim","municipality":{"key":"05382012","name":"Bornheim, Stadt","type":"Stadt"},"district":{"key":"05382","name":"Rhein-Sieg-Kreis","type":"Kreis"},"federalState":{"key":"05","name":"Nordrhein-Westfalen"}},{"name":"Zehnhoffstr.","postalCode":"53332","locality":"Bornheim","municipality":{"key":"05382012","name":"Bornheim, Stadt","type":"Stadt"},"district":{"key":"05382","name":"Rhein-Sieg-Kreis","type":"Kreis"},"federalState":{"key":"05","name":"Nordrhein-Westfalen"}},{"name":"Zenter Str.","postalCode":"53332","locality":"Bornheim","municipality":{"key":"05382012","name":"Bornheim, Stadt","type":"Stadt"},"district":{"key":"05382","name":"Rhein-Sieg-Kreis","type":"Kreis"},"federalState":{"key":"05","name":"Nordrhein-Westfalen"}},{"name":"Zentwinkelsweg","postalCode":"53332","locality":"Bornheim","municipality":{"key":"05382012","name":"Bornheim, Stadt","type":"Stadt"},"district":{"key":"05382","name":"Rhein-Sieg-Kreis","type":"Kreis"},"federalState":{"key":"05","name":"Nordrhein-Westfalen"}},{"name":"Zerrespfad","postalCode":"53332","locality":"Bornheim","municipality":{"key":"05382012","name":"Bornheim, Stadt","type":"Stadt"},"district":{"key":"05382","name":"Rhein-Sieg-Kreis","type":"Kreis"},"federalState":{"key":"05","name":"Nordrhein-Westfalen"}},{"name":"Zisterzienserweg","postalCode":"53332","locality":"Bornheim","municipality":{"key":"05382012","name":"Bornheim, Stadt","type":"Stadt"},"district":{"key":"05382","name":"Rhein-Sieg-Kreis","type":"Kreis"},"federalState":{"key":"05","name":"Nordrhein-Westfalen"}},{"name":"Zur Bornheimer Mühle","postalCode":"53332","locality":"Bornheim","municipality":{"key":"05382012","name":"Bornheim, Stadt","type":"Stadt"},"district":{"key":"05382","name":"Rhein-Sieg-Kreis","type":"Kreis"},"federalState":{"key":"05","name":"Nordrhein-Westfalen"}},{"name":"Zweigrabenweg","postalCode":"53332","locality":"Bornheim","municipality":{"key":"05382012","name":"Bornheim, Stadt","type":"Stadt"},"district":{"key":"05382","name":"Rhein-Sieg-Kreis","type":"Kreis"},"federalState":{"key":"05","name":"Nordrhein-Westfalen"}},{"name":"Ölbergstr.","postalCode":"53332","locality":"Bornheim","municipality":{"key":"05382012","name":"Bornheim, Stadt","type":"Stadt"},"district":{"key":"05382","name":"Rhein-Sieg-Kreis","type":"Kreis"},"federalState":{"key":"05","name":"Nordrhein-Westfalen"}},]