[{"name":"Alexander-Puschkin-Str.","postalCode":"04639","locality":"Gößnitz","municipality":{"key":"16077012","name":"Gößnitz, Stadt","type":"Stadt"},"district":{"key":"16077","name":"Altenburger Land","type":"Landkreis"},"federalState":{"key":"16","name":"Thüringen"}},{"name":"Alte Bahnhofstr.","postalCode":"04639","locality":"Gößnitz","municipality":{"key":"16077012","name":"Gößnitz, Stadt","type":"Stadt"},"district":{"key":"16077","name":"Altenburger Land","type":"Landkreis"},"federalState":{"key":"16","name":"Thüringen"}},{"name":"Altenburger Str.","postalCode":"04639","locality":"Gößnitz","municipality":{"key":"16077012","name":"Gößnitz, Stadt","type":"Stadt"},"district":{"key":"16077","name":"Altenburger Land","type":"Landkreis"},"federalState":{"key":"16","name":"Thüringen"}},{"name":"Alte Str.","postalCode":"04639","locality":"Gößnitz","municipality":{"key":"16077012","name":"Gößnitz, Stadt","type":"Stadt"},"district":{"key":"16077","name":"Altenburger Land","type":"Landkreis"},"federalState":{"key":"16","name":"Thüringen"}},{"name":"Am Friedhof","postalCode":"04639","locality":"Gößnitz","municipality":{"key":"16077012","name":"Gößnitz, Stadt","type":"Stadt"},"district":{"key":"16077","name":"Altenburger Land","type":"Landkreis"},"federalState":{"key":"16","name":"Thüringen"}},{"name":"Am Löschkenberg","postalCode":"04639","locality":"Gößnitz","municipality":{"key":"16077012","name":"Gößnitz, Stadt","type":"Stadt"},"district":{"key":"16077","name":"Altenburger Land","type":"Landkreis"},"federalState":{"key":"16","name":"Thüringen"}},{"name":"Am Sand","postalCode":"04639","locality":"Gößnitz","municipality":{"key":"16077012","name":"Gößnitz, Stadt","type":"Stadt"},"district":{"key":"16077","name":"Altenburger Land","type":"Landkreis"},"federalState":{"key":"16","name":"Thüringen"}},{"name":"An der Kirschwiese","postalCode":"04639","locality":"Gößnitz","municipality":{"key":"16077012","name":"Gößnitz, Stadt","type":"Stadt"},"district":{"key":"16077","name":"Altenburger Land","type":"Landkreis"},"federalState":{"key":"16","name":"Thüringen"}},{"name":"An der Klinge","postalCode":"04639","locality":"Gößnitz","municipality":{"key":"16077012","name":"Gößnitz, Stadt","type":"Stadt"},"district":{"key":"16077","name":"Altenburger Land","type":"Landkreis"},"federalState":{"key":"16","name":"Thüringen"}},{"name":"August-Bebel-Str.","postalCode":"04639","locality":"Gößnitz","municipality":{"key":"16077012","name":"Gößnitz, Stadt","type":"Stadt"},"district":{"key":"16077","name":"Altenburger Land","type":"Landkreis"},"federalState":{"key":"16","name":"Thüringen"}},{"name":"Bahnhofstr.","postalCode":"04639","locality":"Gößnitz","municipality":{"key":"16077012","name":"Gößnitz, Stadt","type":"Stadt"},"district":{"key":"16077","name":"Altenburger Land","type":"Landkreis"},"federalState":{"key":"16","name":"Thüringen"}},{"name":"Bergstr.","postalCode":"04639","locality":"Gößnitz","municipality":{"key":"16077012","name":"Gößnitz, Stadt","type":"Stadt"},"district":{"key":"16077","name":"Altenburger Land","type":"Landkreis"},"federalState":{"key":"16","name":"Thüringen"}},{"name":"Bornshainer Weg","postalCode":"04639","locality":"Gößnitz","municipality":{"key":"16077012","name":"Gößnitz, Stadt","type":"Stadt"},"district":{"key":"16077","name":"Altenburger Land","type":"Landkreis"},"federalState":{"key":"16","name":"Thüringen"}},{"name":"Braustr.","postalCode":"04639","locality":"Gößnitz","municipality":{"key":"16077012","name":"Gößnitz, Stadt","type":"Stadt"},"district":{"key":"16077","name":"Altenburger Land","type":"Landkreis"},"federalState":{"key":"16","name":"Thüringen"}},{"name":"Burgstr.","postalCode":"04639","locality":"Gößnitz","municipality":{"key":"16077012","name":"Gößnitz, Stadt","type":"Stadt"},"district":{"key":"16077","name":"Altenburger Land","type":"Landkreis"},"federalState":{"key":"16","name":"Thüringen"}},{"name":"Dammstr.","postalCode":"04639","locality":"Gößnitz","municipality":{"key":"16077012","name":"Gößnitz, Stadt","type":"Stadt"},"district":{"key":"16077","name":"Altenburger Land","type":"Landkreis"},"federalState":{"key":"16","name":"Thüringen"}},{"name":"Dr.-Wilhelm-Külz-Platz","postalCode":"04639","locality":"Gößnitz","municipality":{"key":"16077012","name":"Gößnitz, Stadt","type":"Stadt"},"district":{"key":"16077","name":"Altenburger Land","type":"Landkreis"},"federalState":{"key":"16","name":"Thüringen"}},{"name":"Franz-Schubert-Str.","postalCode":"04639","locality":"Gößnitz","municipality":{"key":"16077012","name":"Gößnitz, Stadt","type":"Stadt"},"district":{"key":"16077","name":"Altenburger Land","type":"Landkreis"},"federalState":{"key":"16","name":"Thüringen"}},{"name":"Friedrich-Schiffmann-Platz","postalCode":"04639","locality":"Gößnitz","municipality":{"key":"16077012","name":"Gößnitz, Stadt","type":"Stadt"},"district":{"key":"16077","name":"Altenburger Land","type":"Landkreis"},"federalState":{"key":"16","name":"Thüringen"}},{"name":"Fritz-Reuter-Str.","postalCode":"04639","locality":"Gößnitz","municipality":{"key":"16077012","name":"Gößnitz, Stadt","type":"Stadt"},"district":{"key":"16077","name":"Altenburger Land","type":"Landkreis"},"federalState":{"key":"16","name":"Thüringen"}},{"name":"Gartenstr.","postalCode":"04639","locality":"Gößnitz","municipality":{"key":"16077012","name":"Gößnitz, Stadt","type":"Stadt"},"district":{"key":"16077","name":"Altenburger Land","type":"Landkreis"},"federalState":{"key":"16","name":"Thüringen"}},{"name":"Genossenschaftsstr.","postalCode":"04639","locality":"Gößnitz","municipality":{"key":"16077012","name":"Gößnitz, Stadt","type":"Stadt"},"district":{"key":"16077","name":"Altenburger Land","type":"Landkreis"},"federalState":{"key":"16","name":"Thüringen"}},{"name":"Glasewaldstr.","postalCode":"04639","locality":"Gößnitz","municipality":{"key":"16077012","name":"Gößnitz, Stadt","type":"Stadt"},"district":{"key":"16077","name":"Altenburger Land","type":"Landkreis"},"federalState":{"key":"16","name":"Thüringen"}},{"name":"Goethestr.","postalCode":"04639","locality":"Gößnitz","municipality":{"key":"16077012","name":"Gößnitz, Stadt","type":"Stadt"},"district":{"key":"16077","name":"Altenburger Land","type":"Landkreis"},"federalState":{"key":"16","name":"Thüringen"}},{"name":"Grenzstr.","postalCode":"04639","locality":"Gößnitz","municipality":{"key":"16077012","name":"Gößnitz, Stadt","type":"Stadt"},"district":{"key":"16077","name":"Altenburger Land","type":"Landkreis"},"federalState":{"key":"16","name":"Thüringen"}},{"name":"Hainberg","postalCode":"04639","locality":"Gößnitz","municipality":{"key":"16077012","name":"Gößnitz, Stadt","type":"Stadt"},"district":{"key":"16077","name":"Altenburger Land","type":"Landkreis"},"federalState":{"key":"16","name":"Thüringen"}},{"name":"Hainichen","postalCode":"04639","locality":"Gößnitz","municipality":{"key":"16077012","name":"Gößnitz, Stadt","type":"Stadt"},"district":{"key":"16077","name":"Altenburger Land","type":"Landkreis"},"federalState":{"key":"16","name":"Thüringen"}},{"name":"Hainicher Weg","postalCode":"04639","locality":"Gößnitz","municipality":{"key":"16077012","name":"Gößnitz, Stadt","type":"Stadt"},"district":{"key":"16077","name":"Altenburger Land","type":"Landkreis"},"federalState":{"key":"16","name":"Thüringen"}},{"name":"Heinrich-Heine-Str.","postalCode":"04639","locality":"Gößnitz","municipality":{"key":"16077012","name":"Gößnitz, Stadt","type":"Stadt"},"district":{"key":"16077","name":"Altenburger Land","type":"Landkreis"},"federalState":{"key":"16","name":"Thüringen"}},{"name":"Hintere Gasse","postalCode":"04639","locality":"Gößnitz","municipality":{"key":"16077012","name":"Gößnitz, Stadt","type":"Stadt"},"district":{"key":"16077","name":"Altenburger Land","type":"Landkreis"},"federalState":{"key":"16","name":"Thüringen"}},{"name":"Hintere Hainstr.","postalCode":"04639","locality":"Gößnitz","municipality":{"key":"16077012","name":"Gößnitz, Stadt","type":"Stadt"},"district":{"key":"16077","name":"Altenburger Land","type":"Landkreis"},"federalState":{"key":"16","name":"Thüringen"}},{"name":"Hohe Str.","postalCode":"04639","locality":"Gößnitz","municipality":{"key":"16077012","name":"Gößnitz, Stadt","type":"Stadt"},"district":{"key":"16077","name":"Altenburger Land","type":"Landkreis"},"federalState":{"key":"16","name":"Thüringen"}},{"name":"K 551","postalCode":"04639","locality":"Gößnitz","municipality":{"key":"16077012","name":"Gößnitz, Stadt","type":"Stadt"},"district":{"key":"16077","name":"Altenburger Land","type":"Landkreis"},"federalState":{"key":"16","name":"Thüringen"}},{"name":"Kantstr.","postalCode":"04639","locality":"Gößnitz","municipality":{"key":"16077012","name":"Gößnitz, Stadt","type":"Stadt"},"district":{"key":"16077","name":"Altenburger Land","type":"Landkreis"},"federalState":{"key":"16","name":"Thüringen"}},{"name":"Karl-Liebknecht-Str.","postalCode":"04639","locality":"Gößnitz","municipality":{"key":"16077012","name":"Gößnitz, Stadt","type":"Stadt"},"district":{"key":"16077","name":"Altenburger Land","type":"Landkreis"},"federalState":{"key":"16","name":"Thüringen"}},{"name":"Kauritzer Str.","postalCode":"04639","locality":"Gößnitz","municipality":{"key":"16077012","name":"Gößnitz, Stadt","type":"Stadt"},"district":{"key":"16077","name":"Altenburger Land","type":"Landkreis"},"federalState":{"key":"16","name":"Thüringen"}},{"name":"Kirchgasse","postalCode":"04639","locality":"Gößnitz","municipality":{"key":"16077012","name":"Gößnitz, Stadt","type":"Stadt"},"district":{"key":"16077","name":"Altenburger Land","type":"Landkreis"},"federalState":{"key":"16","name":"Thüringen"}},{"name":"Kurze Str.","postalCode":"04639","locality":"Gößnitz","municipality":{"key":"16077012","name":"Gößnitz, Stadt","type":"Stadt"},"district":{"key":"16077","name":"Altenburger Land","type":"Landkreis"},"federalState":{"key":"16","name":"Thüringen"}},{"name":"Lessingstr.","postalCode":"04639","locality":"Gößnitz","municipality":{"key":"16077012","name":"Gößnitz, Stadt","type":"Stadt"},"district":{"key":"16077","name":"Altenburger Land","type":"Landkreis"},"federalState":{"key":"16","name":"Thüringen"}},{"name":"Marktgasse","postalCode":"04639","locality":"Gößnitz","municipality":{"key":"16077012","name":"Gößnitz, Stadt","type":"Stadt"},"district":{"key":"16077","name":"Altenburger Land","type":"Landkreis"},"federalState":{"key":"16","name":"Thüringen"}},{"name":"Meerchengasse","postalCode":"04639","locality":"Gößnitz","municipality":{"key":"16077012","name":"Gößnitz, Stadt","type":"Stadt"},"district":{"key":"16077","name":"Altenburger Land","type":"Landkreis"},"federalState":{"key":"16","name":"Thüringen"}},{"name":"Mittelstr.","postalCode":"04639","locality":"Gößnitz","municipality":{"key":"16077012","name":"Gößnitz, Stadt","type":"Stadt"},"district":{"key":"16077","name":"Altenburger Land","type":"Landkreis"},"federalState":{"key":"16","name":"Thüringen"}},{"name":"Mühlgasse","postalCode":"04639","locality":"Gößnitz","municipality":{"key":"16077012","name":"Gößnitz, Stadt","type":"Stadt"},"district":{"key":"16077","name":"Altenburger Land","type":"Landkreis"},"federalState":{"key":"16","name":"Thüringen"}},{"name":"Naundorf","postalCode":"04639","locality":"Gößnitz","municipality":{"key":"16077012","name":"Gößnitz, Stadt","type":"Stadt"},"district":{"key":"16077","name":"Altenburger Land","type":"Landkreis"},"federalState":{"key":"16","name":"Thüringen"}},{"name":"Neumarkt","postalCode":"04639","locality":"Gößnitz","municipality":{"key":"16077012","name":"Gößnitz, Stadt","type":"Stadt"},"district":{"key":"16077","name":"Altenburger Land","type":"Landkreis"},"federalState":{"key":"16","name":"Thüringen"}},{"name":"Nörditz","postalCode":"04639","locality":"Gößnitz","municipality":{"key":"16077012","name":"Gößnitz, Stadt","type":"Stadt"},"district":{"key":"16077","name":"Altenburger Land","type":"Landkreis"},"federalState":{"key":"16","name":"Thüringen"}},{"name":"Oststr.","postalCode":"04639","locality":"Gößnitz","municipality":{"key":"16077012","name":"Gößnitz, Stadt","type":"Stadt"},"district":{"key":"16077","name":"Altenburger Land","type":"Landkreis"},"federalState":{"key":"16","name":"Thüringen"}},{"name":"Pfarrberg","postalCode":"04639","locality":"Gößnitz","municipality":{"key":"16077012","name":"Gößnitz, Stadt","type":"Stadt"},"district":{"key":"16077","name":"Altenburger Land","type":"Landkreis"},"federalState":{"key":"16","name":"Thüringen"}},{"name":"Pfarrsdorf","postalCode":"04639","locality":"Gößnitz","municipality":{"key":"16077012","name":"Gößnitz, Stadt","type":"Stadt"},"district":{"key":"16077","name":"Altenburger Land","type":"Landkreis"},"federalState":{"key":"16","name":"Thüringen"}},{"name":"Pleißenstr.","postalCode":"04639","locality":"Gößnitz","municipality":{"key":"16077012","name":"Gößnitz, Stadt","type":"Stadt"},"district":{"key":"16077","name":"Altenburger Land","type":"Landkreis"},"federalState":{"key":"16","name":"Thüringen"}},{"name":"Promenadenweg","postalCode":"04639","locality":"Gößnitz","municipality":{"key":"16077012","name":"Gößnitz, Stadt","type":"Stadt"},"district":{"key":"16077","name":"Altenburger Land","type":"Landkreis"},"federalState":{"key":"16","name":"Thüringen"}},{"name":"Querstr.","postalCode":"04639","locality":"Gößnitz","municipality":{"key":"16077012","name":"Gößnitz, Stadt","type":"Stadt"},"district":{"key":"16077","name":"Altenburger Land","type":"Landkreis"},"federalState":{"key":"16","name":"Thüringen"}},{"name":"Rathenaustr.","postalCode":"04639","locality":"Gößnitz","municipality":{"key":"16077012","name":"Gößnitz, Stadt","type":"Stadt"},"district":{"key":"16077","name":"Altenburger Land","type":"Landkreis"},"federalState":{"key":"16","name":"Thüringen"}},{"name":"Schillerstr.","postalCode":"04639","locality":"Gößnitz","municipality":{"key":"16077012","name":"Gößnitz, Stadt","type":"Stadt"},"district":{"key":"16077","name":"Altenburger Land","type":"Landkreis"},"federalState":{"key":"16","name":"Thüringen"}},{"name":"Schmiedegasse","postalCode":"04639","locality":"Gößnitz","municipality":{"key":"16077012","name":"Gößnitz, Stadt","type":"Stadt"},"district":{"key":"16077","name":"Altenburger Land","type":"Landkreis"},"federalState":{"key":"16","name":"Thüringen"}},{"name":"Schmöllner Str.","postalCode":"04639","locality":"Gößnitz","municipality":{"key":"16077012","name":"Gößnitz, Stadt","type":"Stadt"},"district":{"key":"16077","name":"Altenburger Land","type":"Landkreis"},"federalState":{"key":"16","name":"Thüringen"}},{"name":"Schönburger Str.","postalCode":"04639","locality":"Gößnitz","municipality":{"key":"16077012","name":"Gößnitz, Stadt","type":"Stadt"},"district":{"key":"16077","name":"Altenburger Land","type":"Landkreis"},"federalState":{"key":"16","name":"Thüringen"}},{"name":"Schulstr.","postalCode":"04639","locality":"Gößnitz","municipality":{"key":"16077012","name":"Gößnitz, Stadt","type":"Stadt"},"district":{"key":"16077","name":"Altenburger Land","type":"Landkreis"},"federalState":{"key":"16","name":"Thüringen"}},{"name":"Simon-Cellarius-Str.","postalCode":"04639","locality":"Gößnitz","municipality":{"key":"16077012","name":"Gößnitz, Stadt","type":"Stadt"},"district":{"key":"16077","name":"Altenburger Land","type":"Landkreis"},"federalState":{"key":"16","name":"Thüringen"}},{"name":"Steinke","postalCode":"04639","locality":"Gößnitz","municipality":{"key":"16077012","name":"Gößnitz, Stadt","type":"Stadt"},"district":{"key":"16077","name":"Altenburger Land","type":"Landkreis"},"federalState":{"key":"16","name":"Thüringen"}},{"name":"Südstr.","postalCode":"04639","locality":"Gößnitz","municipality":{"key":"16077012","name":"Gößnitz, Stadt","type":"Stadt"},"district":{"key":"16077","name":"Altenburger Land","type":"Landkreis"},"federalState":{"key":"16","name":"Thüringen"}},{"name":"Tannichtstr.","postalCode":"04639","locality":"Gößnitz","municipality":{"key":"16077012","name":"Gößnitz, Stadt","type":"Stadt"},"district":{"key":"16077","name":"Altenburger Land","type":"Landkreis"},"federalState":{"key":"16","name":"Thüringen"}},{"name":"Uferstr.","postalCode":"04639","locality":"Gößnitz","municipality":{"key":"16077012","name":"Gößnitz, Stadt","type":"Stadt"},"district":{"key":"16077","name":"Altenburger Land","type":"Landkreis"},"federalState":{"key":"16","name":"Thüringen"}},{"name":"Waldenburger Str.","postalCode":"04639","locality":"Gößnitz","municipality":{"key":"16077012","name":"Gößnitz, Stadt","type":"Stadt"},"district":{"key":"16077","name":"Altenburger Land","type":"Landkreis"},"federalState":{"key":"16","name":"Thüringen"}},{"name":"Walter-Rabold-Str.","postalCode":"04639","locality":"Gößnitz","municipality":{"key":"16077012","name":"Gößnitz, Stadt","type":"Stadt"},"district":{"key":"16077","name":"Altenburger Land","type":"Landkreis"},"federalState":{"key":"16","name":"Thüringen"}},{"name":"Wehrstr.","postalCode":"04639","locality":"Gößnitz","municipality":{"key":"16077012","name":"Gößnitz, Stadt","type":"Stadt"},"district":{"key":"16077","name":"Altenburger Land","type":"Landkreis"},"federalState":{"key":"16","name":"Thüringen"}},{"name":"Wiesenstr.","postalCode":"04639","locality":"Gößnitz","municipality":{"key":"16077012","name":"Gößnitz, Stadt","type":"Stadt"},"district":{"key":"16077","name":"Altenburger Land","type":"Landkreis"},"federalState":{"key":"16","name":"Thüringen"}},{"name":"Ziegelstr.","postalCode":"04639","locality":"Gößnitz","municipality":{"key":"16077012","name":"Gößnitz, Stadt","type":"Stadt"},"district":{"key":"16077","name":"Altenburger Land","type":"Landkreis"},"federalState":{"key":"16","name":"Thüringen"}},{"name":"Zwickauer Str.","postalCode":"04639","locality":"Gößnitz","municipality":{"key":"16077012","name":"Gößnitz, Stadt","type":"Stadt"},"district":{"key":"16077","name":"Altenburger Land","type":"Landkreis"},"federalState":{"key":"16","name":"Thüringen"}},]