[{"name":"Akazienweg","postalCode":"15306","locality":"Fichtenhöhe","municipality":{"key":"12064130","name":"Fichtenhöhe","type":"Kreisangehörige_Gemeinde"},"district":{"key":"12064","name":"Märkisch-Oderland","type":"Landkreis"},"federalState":{"key":"12","name":"Brandenburg"}},{"name":"Alt Zeschdorfer Weg","postalCode":"15306","locality":"Fichtenhöhe","municipality":{"key":"12064130","name":"Fichtenhöhe","type":"Kreisangehörige_Gemeinde"},"district":{"key":"12064","name":"Märkisch-Oderland","type":"Landkreis"},"federalState":{"key":"12","name":"Brandenburg"}},{"name":"Am Bruchweg","postalCode":"15306","locality":"Fichtenhöhe","municipality":{"key":"12064130","name":"Fichtenhöhe","type":"Kreisangehörige_Gemeinde"},"district":{"key":"12064","name":"Märkisch-Oderland","type":"Landkreis"},"federalState":{"key":"12","name":"Brandenburg"}},{"name":"Bartelsee","postalCode":"15306","locality":"Fichtenhöhe","municipality":{"key":"12064130","name":"Fichtenhöhe","type":"Kreisangehörige_Gemeinde"},"district":{"key":"12064","name":"Märkisch-Oderland","type":"Landkreis"},"federalState":{"key":"12","name":"Brandenburg"}},{"name":"Carziger Str.","postalCode":"15306","locality":"Fichtenhöhe","municipality":{"key":"12064130","name":"Fichtenhöhe","type":"Kreisangehörige_Gemeinde"},"district":{"key":"12064","name":"Märkisch-Oderland","type":"Landkreis"},"federalState":{"key":"12","name":"Brandenburg"}},{"name":"Carziger Weg","postalCode":"15306","locality":"Fichtenhöhe","municipality":{"key":"12064130","name":"Fichtenhöhe","type":"Kreisangehörige_Gemeinde"},"district":{"key":"12064","name":"Märkisch-Oderland","type":"Landkreis"},"federalState":{"key":"12","name":"Brandenburg"}},{"name":"Dolgeliner Weg","postalCode":"15306","locality":"Fichtenhöhe","municipality":{"key":"12064130","name":"Fichtenhöhe","type":"Kreisangehörige_Gemeinde"},"district":{"key":"12064","name":"Märkisch-Oderland","type":"Landkreis"},"federalState":{"key":"12","name":"Brandenburg"}},{"name":"Dorfstr.","postalCode":"15306","locality":"Fichtenhöhe","municipality":{"key":"12064130","name":"Fichtenhöhe","type":"Kreisangehörige_Gemeinde"},"district":{"key":"12064","name":"Märkisch-Oderland","type":"Landkreis"},"federalState":{"key":"12","name":"Brandenburg"}},{"name":"Ernst-Thälmann-Str.","postalCode":"15306","locality":"Fichtenhöhe","municipality":{"key":"12064130","name":"Fichtenhöhe","type":"Kreisangehörige_Gemeinde"},"district":{"key":"12064","name":"Märkisch-Oderland","type":"Landkreis"},"federalState":{"key":"12","name":"Brandenburg"}},{"name":"Gartenstr.","postalCode":"15306","locality":"Fichtenhöhe","municipality":{"key":"12064130","name":"Fichtenhöhe","type":"Kreisangehörige_Gemeinde"},"district":{"key":"12064","name":"Märkisch-Oderland","type":"Landkreis"},"federalState":{"key":"12","name":"Brandenburg"}},{"name":"Hauptstr.","postalCode":"15306","locality":"Fichtenhöhe","municipality":{"key":"12064130","name":"Fichtenhöhe","type":"Kreisangehörige_Gemeinde"},"district":{"key":"12064","name":"Märkisch-Oderland","type":"Landkreis"},"federalState":{"key":"12","name":"Brandenburg"}},{"name":"Heuweg","postalCode":"15306","locality":"Fichtenhöhe","municipality":{"key":"12064130","name":"Fichtenhöhe","type":"Kreisangehörige_Gemeinde"},"district":{"key":"12064","name":"Märkisch-Oderland","type":"Landkreis"},"federalState":{"key":"12","name":"Brandenburg"}},{"name":"Lietzener Weg","postalCode":"15306","locality":"Fichtenhöhe","municipality":{"key":"12064130","name":"Fichtenhöhe","type":"Kreisangehörige_Gemeinde"},"district":{"key":"12064","name":"Märkisch-Oderland","type":"Landkreis"},"federalState":{"key":"12","name":"Brandenburg"}},{"name":"Mittelweg","postalCode":"15306","locality":"Fichtenhöhe","municipality":{"key":"12064130","name":"Fichtenhöhe","type":"Kreisangehörige_Gemeinde"},"district":{"key":"12064","name":"Märkisch-Oderland","type":"Landkreis"},"federalState":{"key":"12","name":"Brandenburg"}},{"name":"Neuer Weg","postalCode":"15306","locality":"Fichtenhöhe","municipality":{"key":"12064130","name":"Fichtenhöhe","type":"Kreisangehörige_Gemeinde"},"district":{"key":"12064","name":"Märkisch-Oderland","type":"Landkreis"},"federalState":{"key":"12","name":"Brandenburg"}},{"name":"Seeweg","postalCode":"15306","locality":"Fichtenhöhe","municipality":{"key":"12064130","name":"Fichtenhöhe","type":"Kreisangehörige_Gemeinde"},"district":{"key":"12064","name":"Märkisch-Oderland","type":"Landkreis"},"federalState":{"key":"12","name":"Brandenburg"}},{"name":"Siedlerring","postalCode":"15306","locality":"Fichtenhöhe","municipality":{"key":"12064130","name":"Fichtenhöhe","type":"Kreisangehörige_Gemeinde"},"district":{"key":"12064","name":"Märkisch-Oderland","type":"Landkreis"},"federalState":{"key":"12","name":"Brandenburg"}},]