[{"name":"Alte Iphöfer Str.","postalCode":"97348","locality":"Rödelsee","municipality":{"key":"09675161","name":"Rödelsee","type":"Kreisangehörige_Gemeinde"},"district":{"key":"09675","name":"Kitzingen","type":"Landkreis"},"federalState":{"key":"09","name":"Bayern"}},{"name":"Alter Schwanbergweg","postalCode":"97348","locality":"Rödelsee","municipality":{"key":"09675161","name":"Rödelsee","type":"Kreisangehörige_Gemeinde"},"district":{"key":"09675","name":"Kitzingen","type":"Landkreis"},"federalState":{"key":"09","name":"Bayern"}},{"name":"Am Buck","postalCode":"97348","locality":"Rödelsee","municipality":{"key":"09675161","name":"Rödelsee","type":"Kreisangehörige_Gemeinde"},"district":{"key":"09675","name":"Kitzingen","type":"Landkreis"},"federalState":{"key":"09","name":"Bayern"}},{"name":"Am Buck / Im Grund","postalCode":"97348","locality":"Rödelsee","municipality":{"key":"09675161","name":"Rödelsee","type":"Kreisangehörige_Gemeinde"},"district":{"key":"09675","name":"Kitzingen","type":"Landkreis"},"federalState":{"key":"09","name":"Bayern"}},{"name":"Am Keltenwall","postalCode":"97348","locality":"Rödelsee","municipality":{"key":"09675161","name":"Rödelsee","type":"Kreisangehörige_Gemeinde"},"district":{"key":"09675","name":"Kitzingen","type":"Landkreis"},"federalState":{"key":"09","name":"Bayern"}},{"name":"Am Mühlschutz","postalCode":"97348","locality":"Rödelsee","municipality":{"key":"09675161","name":"Rödelsee","type":"Kreisangehörige_Gemeinde"},"district":{"key":"09675","name":"Kitzingen","type":"Landkreis"},"federalState":{"key":"09","name":"Bayern"}},{"name":"Am Rathaus","postalCode":"97348","locality":"Rödelsee","municipality":{"key":"09675161","name":"Rödelsee","type":"Kreisangehörige_Gemeinde"},"district":{"key":"09675","name":"Kitzingen","type":"Landkreis"},"federalState":{"key":"09","name":"Bayern"}},{"name":"Am Rödelbach","postalCode":"97348","locality":"Rödelsee","municipality":{"key":"09675161","name":"Rödelsee","type":"Kreisangehörige_Gemeinde"},"district":{"key":"09675","name":"Kitzingen","type":"Landkreis"},"federalState":{"key":"09","name":"Bayern"}},{"name":"Am Schloßberg","postalCode":"97348","locality":"Rödelsee","municipality":{"key":"09675161","name":"Rödelsee","type":"Kreisangehörige_Gemeinde"},"district":{"key":"09675","name":"Kitzingen","type":"Landkreis"},"federalState":{"key":"09","name":"Bayern"}},{"name":"Am See","postalCode":"97348","locality":"Rödelsee","municipality":{"key":"09675161","name":"Rödelsee","type":"Kreisangehörige_Gemeinde"},"district":{"key":"09675","name":"Kitzingen","type":"Landkreis"},"federalState":{"key":"09","name":"Bayern"}},{"name":"Am Weinberg","postalCode":"97348","locality":"Rödelsee","municipality":{"key":"09675161","name":"Rödelsee","type":"Kreisangehörige_Gemeinde"},"district":{"key":"09675","name":"Kitzingen","type":"Landkreis"},"federalState":{"key":"09","name":"Bayern"}},{"name":"An den Kirchen","postalCode":"97348","locality":"Rödelsee","municipality":{"key":"09675161","name":"Rödelsee","type":"Kreisangehörige_Gemeinde"},"district":{"key":"09675","name":"Kitzingen","type":"Landkreis"},"federalState":{"key":"09","name":"Bayern"}},{"name":"An der Schwanleite","postalCode":"97348","locality":"Rödelsee","municipality":{"key":"09675161","name":"Rödelsee","type":"Kreisangehörige_Gemeinde"},"district":{"key":"09675","name":"Kitzingen","type":"Landkreis"},"federalState":{"key":"09","name":"Bayern"}},{"name":"Bachgasse","postalCode":"97348","locality":"Rödelsee","municipality":{"key":"09675161","name":"Rödelsee","type":"Kreisangehörige_Gemeinde"},"district":{"key":"09675","name":"Kitzingen","type":"Landkreis"},"federalState":{"key":"09","name":"Bayern"}},{"name":"Bäckerstr.","postalCode":"97348","locality":"Rödelsee","municipality":{"key":"09675161","name":"Rödelsee","type":"Kreisangehörige_Gemeinde"},"district":{"key":"09675","name":"Kitzingen","type":"Landkreis"},"federalState":{"key":"09","name":"Bayern"}},{"name":"Bgm.-Deppisch-Str.","postalCode":"97348","locality":"Rödelsee","municipality":{"key":"09675161","name":"Rödelsee","type":"Kreisangehörige_Gemeinde"},"district":{"key":"09675","name":"Kitzingen","type":"Landkreis"},"federalState":{"key":"09","name":"Bayern"}},{"name":"Birkensee-Wanderweg","postalCode":"97348","locality":"Rödelsee","municipality":{"key":"09675161","name":"Rödelsee","type":"Kreisangehörige_Gemeinde"},"district":{"key":"09675","name":"Kitzingen","type":"Landkreis"},"federalState":{"key":"09","name":"Bayern"}},{"name":"Brückenweg","postalCode":"97348","locality":"Rödelsee","municipality":{"key":"09675161","name":"Rödelsee","type":"Kreisangehörige_Gemeinde"},"district":{"key":"09675","name":"Kitzingen","type":"Landkreis"},"federalState":{"key":"09","name":"Bayern"}},{"name":"Crailsheimstr.","postalCode":"97348","locality":"Rödelsee","municipality":{"key":"09675161","name":"Rödelsee","type":"Kreisangehörige_Gemeinde"},"district":{"key":"09675","name":"Kitzingen","type":"Landkreis"},"federalState":{"key":"09","name":"Bayern"}},{"name":"Dorfgraben","postalCode":"97348","locality":"Rödelsee","municipality":{"key":"09675161","name":"Rödelsee","type":"Kreisangehörige_Gemeinde"},"district":{"key":"09675","name":"Kitzingen","type":"Landkreis"},"federalState":{"key":"09","name":"Bayern"}},{"name":"Ebracher Hof","postalCode":"97348","locality":"Rödelsee","municipality":{"key":"09675161","name":"Rödelsee","type":"Kreisangehörige_Gemeinde"},"district":{"key":"09675","name":"Kitzingen","type":"Landkreis"},"federalState":{"key":"09","name":"Bayern"}},{"name":"Fröhstockheimer Weg","postalCode":"97348","locality":"Rödelsee","municipality":{"key":"09675161","name":"Rödelsee","type":"Kreisangehörige_Gemeinde"},"district":{"key":"09675","name":"Kitzingen","type":"Landkreis"},"federalState":{"key":"09","name":"Bayern"}},{"name":"Fußweg Bäckerstr.","postalCode":"97348","locality":"Rödelsee","municipality":{"key":"09675161","name":"Rödelsee","type":"Kreisangehörige_Gemeinde"},"district":{"key":"09675","name":"Kitzingen","type":"Landkreis"},"federalState":{"key":"09","name":"Bayern"}},{"name":"Gartenstr.","postalCode":"97348","locality":"Rödelsee","municipality":{"key":"09675161","name":"Rödelsee","type":"Kreisangehörige_Gemeinde"},"district":{"key":"09675","name":"Kitzingen","type":"Landkreis"},"federalState":{"key":"09","name":"Bayern"}},{"name":"Grenzweg","postalCode":"97348","locality":"Rödelsee","municipality":{"key":"09675161","name":"Rödelsee","type":"Kreisangehörige_Gemeinde"},"district":{"key":"09675","name":"Kitzingen","type":"Landkreis"},"federalState":{"key":"09","name":"Bayern"}},{"name":"Großlangheimer Str.","postalCode":"97348","locality":"Rödelsee","municipality":{"key":"09675161","name":"Rödelsee","type":"Kreisangehörige_Gemeinde"},"district":{"key":"09675","name":"Kitzingen","type":"Landkreis"},"federalState":{"key":"09","name":"Bayern"}},{"name":"Hauptstr.","postalCode":"97348","locality":"Rödelsee","municipality":{"key":"09675161","name":"Rödelsee","type":"Kreisangehörige_Gemeinde"},"district":{"key":"09675","name":"Kitzingen","type":"Landkreis"},"federalState":{"key":"09","name":"Bayern"}},{"name":"Heinrich-Wiegand-Str.","postalCode":"97348","locality":"Rödelsee","municipality":{"key":"09675161","name":"Rödelsee","type":"Kreisangehörige_Gemeinde"},"district":{"key":"09675","name":"Kitzingen","type":"Landkreis"},"federalState":{"key":"09","name":"Bayern"}},{"name":"Im Grund","postalCode":"97348","locality":"Rödelsee","municipality":{"key":"09675161","name":"Rödelsee","type":"Kreisangehörige_Gemeinde"},"district":{"key":"09675","name":"Kitzingen","type":"Landkreis"},"federalState":{"key":"09","name":"Bayern"}},{"name":"Im Schlossgrund","postalCode":"97348","locality":"Rödelsee","municipality":{"key":"09675161","name":"Rödelsee","type":"Kreisangehörige_Gemeinde"},"district":{"key":"09675","name":"Kitzingen","type":"Landkreis"},"federalState":{"key":"09","name":"Bayern"}},{"name":"Jahnstr.","postalCode":"97348","locality":"Rödelsee","municipality":{"key":"09675161","name":"Rödelsee","type":"Kreisangehörige_Gemeinde"},"district":{"key":"09675","name":"Kitzingen","type":"Landkreis"},"federalState":{"key":"09","name":"Bayern"}},{"name":"Jean-Dern-Str.","postalCode":"97348","locality":"Rödelsee","municipality":{"key":"09675161","name":"Rödelsee","type":"Kreisangehörige_Gemeinde"},"district":{"key":"09675","name":"Kitzingen","type":"Landkreis"},"federalState":{"key":"09","name":"Bayern"}},{"name":"Johannisbrunnenweg","postalCode":"97348","locality":"Rödelsee","municipality":{"key":"09675161","name":"Rödelsee","type":"Kreisangehörige_Gemeinde"},"district":{"key":"09675","name":"Kitzingen","type":"Landkreis"},"federalState":{"key":"09","name":"Bayern"}},{"name":"Kindergarten","postalCode":"97348","locality":"Rödelsee","municipality":{"key":"09675161","name":"Rödelsee","type":"Kreisangehörige_Gemeinde"},"district":{"key":"09675","name":"Kitzingen","type":"Landkreis"},"federalState":{"key":"09","name":"Bayern"}},{"name":"Kirchplatz","postalCode":"97348","locality":"Rödelsee","municipality":{"key":"09675161","name":"Rödelsee","type":"Kreisangehörige_Gemeinde"},"district":{"key":"09675","name":"Kitzingen","type":"Landkreis"},"federalState":{"key":"09","name":"Bayern"}},{"name":"Küchenmeisterstr.","postalCode":"97348","locality":"Rödelsee","municipality":{"key":"09675161","name":"Rödelsee","type":"Kreisangehörige_Gemeinde"},"district":{"key":"09675","name":"Kitzingen","type":"Landkreis"},"federalState":{"key":"09","name":"Bayern"}},{"name":"Landwehrstr.","postalCode":"97318","locality":"Kitzingen","municipality":{"key":"09675141","name":"Kitzingen, GKSt","type":"Große_Kreisstadt"},"district":{"key":"09675","name":"Kitzingen","type":"Landkreis"},"federalState":{"key":"09","name":"Bayern"}},{"name":"Langemarckstr.","postalCode":"97318","locality":"Kitzingen","municipality":{"key":"09675141","name":"Kitzingen, GKSt","type":"Große_Kreisstadt"},"district":{"key":"09675","name":"Kitzingen","type":"Landkreis"},"federalState":{"key":"09","name":"Bayern"}},{"name":"Lerchenbühl","postalCode":"97318","locality":"Kitzingen","municipality":{"key":"09675141","name":"Kitzingen, GKSt","type":"Große_Kreisstadt"},"district":{"key":"09675","name":"Kitzingen","type":"Landkreis"},"federalState":{"key":"09","name":"Bayern"}},{"name":"Levi-Strauss-Str.","postalCode":"97318","locality":"Kitzingen","municipality":{"key":"09675141","name":"Kitzingen, GKSt","type":"Große_Kreisstadt"},"district":{"key":"09675","name":"Kitzingen","type":"Landkreis"},"federalState":{"key":"09","name":"Bayern"}},{"name":"Liegnitzer Str.","postalCode":"97318","locality":"Kitzingen","municipality":{"key":"09675141","name":"Kitzingen, GKSt","type":"Große_Kreisstadt"},"district":{"key":"09675","name":"Kitzingen","type":"Landkreis"},"federalState":{"key":"09","name":"Bayern"}},{"name":"Lindenstr.","postalCode":"97318","locality":"Kitzingen","municipality":{"key":"09675141","name":"Kitzingen, GKSt","type":"Große_Kreisstadt"},"district":{"key":"09675","name":"Kitzingen","type":"Landkreis"},"federalState":{"key":"09","name":"Bayern"}},{"name":"Lochweg","postalCode":"97318","locality":"Kitzingen","municipality":{"key":"09675141","name":"Kitzingen, GKSt","type":"Große_Kreisstadt"},"district":{"key":"09675","name":"Kitzingen","type":"Landkreis"},"federalState":{"key":"09","name":"Bayern"}},{"name":"Luitpoldstr.","postalCode":"97318","locality":"Kitzingen","municipality":{"key":"09675141","name":"Kitzingen, GKSt","type":"Große_Kreisstadt"},"district":{"key":"09675","name":"Kitzingen","type":"Landkreis"},"federalState":{"key":"09","name":"Bayern"}},{"name":"Mainbernheimer Str.","postalCode":"97348","locality":"Rödelsee","municipality":{"key":"09675161","name":"Rödelsee","type":"Kreisangehörige_Gemeinde"},"district":{"key":"09675","name":"Kitzingen","type":"Landkreis"},"federalState":{"key":"09","name":"Bayern"}},{"name":"Marderweg","postalCode":"97348","locality":"Rödelsee","municipality":{"key":"09675161","name":"Rödelsee","type":"Kreisangehörige_Gemeinde"},"district":{"key":"09675","name":"Kitzingen","type":"Landkreis"},"federalState":{"key":"09","name":"Bayern"}},{"name":"Mönchshöflein","postalCode":"97348","locality":"Rödelsee","municipality":{"key":"09675161","name":"Rödelsee","type":"Kreisangehörige_Gemeinde"},"district":{"key":"09675","name":"Kitzingen","type":"Landkreis"},"federalState":{"key":"09","name":"Bayern"}},{"name":"Nachtigallenweg","postalCode":"97318","locality":"Kitzingen","municipality":{"key":"09675141","name":"Kitzingen, GKSt","type":"Große_Kreisstadt"},"district":{"key":"09675","name":"Kitzingen","type":"Landkreis"},"federalState":{"key":"09","name":"Bayern"}},{"name":"Neue Mainlände","postalCode":"97318","locality":"Kitzingen","municipality":{"key":"09675141","name":"Kitzingen, GKSt","type":"Große_Kreisstadt"},"district":{"key":"09675","name":"Kitzingen","type":"Landkreis"},"federalState":{"key":"09","name":"Bayern"}},{"name":"Neuer Weg","postalCode":"97318","locality":"Kitzingen","municipality":{"key":"09675141","name":"Kitzingen, GKSt","type":"Große_Kreisstadt"},"district":{"key":"09675","name":"Kitzingen","type":"Landkreis"},"federalState":{"key":"09","name":"Bayern"}},{"name":"Nordbrücke","postalCode":"97318","locality":"Kitzingen","municipality":{"key":"09675141","name":"Kitzingen, GKSt","type":"Große_Kreisstadt"},"district":{"key":"09675","name":"Kitzingen","type":"Landkreis"},"federalState":{"key":"09","name":"Bayern"}},{"name":"Nordtangente","postalCode":"97318","locality":"Kitzingen","municipality":{"key":"09675141","name":"Kitzingen, GKSt","type":"Große_Kreisstadt"},"district":{"key":"09675","name":"Kitzingen","type":"Landkreis"},"federalState":{"key":"09","name":"Bayern"}},{"name":"Nordwest-Tangente","postalCode":"97318","locality":"Kitzingen","municipality":{"key":"09675141","name":"Kitzingen, GKSt","type":"Große_Kreisstadt"},"district":{"key":"09675","name":"Kitzingen","type":"Landkreis"},"federalState":{"key":"09","name":"Bayern"}},{"name":"Obere Bachgasse","postalCode":"97318","locality":"Kitzingen","municipality":{"key":"09675141","name":"Kitzingen, GKSt","type":"Große_Kreisstadt"},"district":{"key":"09675","name":"Kitzingen","type":"Landkreis"},"federalState":{"key":"09","name":"Bayern"}},{"name":"Obere Neue Gasse","postalCode":"97318","locality":"Kitzingen","municipality":{"key":"09675141","name":"Kitzingen, GKSt","type":"Große_Kreisstadt"},"district":{"key":"09675","name":"Kitzingen","type":"Landkreis"},"federalState":{"key":"09","name":"Bayern"}},{"name":"Oberer Fuchsgraben","postalCode":"97318","locality":"Kitzingen","municipality":{"key":"09675141","name":"Kitzingen, GKSt","type":"Große_Kreisstadt"},"district":{"key":"09675","name":"Kitzingen","type":"Landkreis"},"federalState":{"key":"09","name":"Bayern"}},{"name":"Oberer Mainkai","postalCode":"97318","locality":"Kitzingen","municipality":{"key":"09675141","name":"Kitzingen, GKSt","type":"Große_Kreisstadt"},"district":{"key":"09675","name":"Kitzingen","type":"Landkreis"},"federalState":{"key":"09","name":"Bayern"}},{"name":"Olga-Pöhlmann-Str.","postalCode":"97318","locality":"Kitzingen","municipality":{"key":"09675141","name":"Kitzingen, GKSt","type":"Große_Kreisstadt"},"district":{"key":"09675","name":"Kitzingen","type":"Landkreis"},"federalState":{"key":"09","name":"Bayern"}},{"name":"Plateauweg","postalCode":"97348","locality":"Rödelsee","municipality":{"key":"09675161","name":"Rödelsee","type":"Kreisangehörige_Gemeinde"},"district":{"key":"09675","name":"Kitzingen","type":"Landkreis"},"federalState":{"key":"09","name":"Bayern"}},{"name":"Richard-Rother-Str.","postalCode":"97348","locality":"Rödelsee","municipality":{"key":"09675161","name":"Rödelsee","type":"Kreisangehörige_Gemeinde"},"district":{"key":"09675","name":"Kitzingen","type":"Landkreis"},"federalState":{"key":"09","name":"Bayern"}},{"name":"Rödelseer Str.","postalCode":"97348","locality":"Rödelsee","municipality":{"key":"09675161","name":"Rödelsee","type":"Kreisangehörige_Gemeinde"},"district":{"key":"09675","name":"Kitzingen","type":"Landkreis"},"federalState":{"key":"09","name":"Bayern"}},{"name":"Rödelseer Weg","postalCode":"97348","locality":"Rödelsee","municipality":{"key":"09675161","name":"Rödelsee","type":"Kreisangehörige_Gemeinde"},"district":{"key":"09675","name":"Kitzingen","type":"Landkreis"},"federalState":{"key":"09","name":"Bayern"}},{"name":"Rothweg","postalCode":"97348","locality":"Rödelsee","municipality":{"key":"09675161","name":"Rödelsee","type":"Kreisangehörige_Gemeinde"},"district":{"key":"09675","name":"Kitzingen","type":"Landkreis"},"federalState":{"key":"09","name":"Bayern"}},{"name":"Schlossgarten","postalCode":"97348","locality":"Rödelsee","municipality":{"key":"09675161","name":"Rödelsee","type":"Kreisangehörige_Gemeinde"},"district":{"key":"09675","name":"Kitzingen","type":"Landkreis"},"federalState":{"key":"09","name":"Bayern"}},{"name":"Schlosspark","postalCode":"97348","locality":"Rödelsee","municipality":{"key":"09675161","name":"Rödelsee","type":"Kreisangehörige_Gemeinde"},"district":{"key":"09675","name":"Kitzingen","type":"Landkreis"},"federalState":{"key":"09","name":"Bayern"}},{"name":"Schloßstr.","postalCode":"97348","locality":"Rödelsee","municipality":{"key":"09675161","name":"Rödelsee","type":"Kreisangehörige_Gemeinde"},"district":{"key":"09675","name":"Kitzingen","type":"Landkreis"},"federalState":{"key":"09","name":"Bayern"}},{"name":"Schulstr.","postalCode":"97348","locality":"Rödelsee","municipality":{"key":"09675161","name":"Rödelsee","type":"Kreisangehörige_Gemeinde"},"district":{"key":"09675","name":"Kitzingen","type":"Landkreis"},"federalState":{"key":"09","name":"Bayern"}},{"name":"Spielplatz","postalCode":"97348","locality":"Rödelsee","municipality":{"key":"09675161","name":"Rödelsee","type":"Kreisangehörige_Gemeinde"},"district":{"key":"09675","name":"Kitzingen","type":"Landkreis"},"federalState":{"key":"09","name":"Bayern"}},{"name":"Steintisch","postalCode":"97348","locality":"Rödelsee","municipality":{"key":"09675161","name":"Rödelsee","type":"Kreisangehörige_Gemeinde"},"district":{"key":"09675","name":"Kitzingen","type":"Landkreis"},"federalState":{"key":"09","name":"Bayern"}},{"name":"Talstr.","postalCode":"97348","locality":"Rödelsee","municipality":{"key":"09675161","name":"Rödelsee","type":"Kreisangehörige_Gemeinde"},"district":{"key":"09675","name":"Kitzingen","type":"Landkreis"},"federalState":{"key":"09","name":"Bayern"}},{"name":"Uhlandstr.","postalCode":"97318","locality":"Kitzingen","municipality":{"key":"09675141","name":"Kitzingen, GKSt","type":"Große_Kreisstadt"},"district":{"key":"09675","name":"Kitzingen","type":"Landkreis"},"federalState":{"key":"09","name":"Bayern"}},{"name":"Umgehungsstr.","postalCode":"97318","locality":"Kitzingen","municipality":{"key":"09675141","name":"Kitzingen, GKSt","type":"Große_Kreisstadt"},"district":{"key":"09675","name":"Kitzingen","type":"Landkreis"},"federalState":{"key":"09","name":"Bayern"}},{"name":"Untere Bachgasse","postalCode":"97318","locality":"Kitzingen","municipality":{"key":"09675141","name":"Kitzingen, GKSt","type":"Große_Kreisstadt"},"district":{"key":"09675","name":"Kitzingen","type":"Landkreis"},"federalState":{"key":"09","name":"Bayern"}},{"name":"Untere Neue Gasse","postalCode":"97318","locality":"Kitzingen","municipality":{"key":"09675141","name":"Kitzingen, GKSt","type":"Große_Kreisstadt"},"district":{"key":"09675","name":"Kitzingen","type":"Landkreis"},"federalState":{"key":"09","name":"Bayern"}},{"name":"Unterer Fuchsgraben","postalCode":"97318","locality":"Kitzingen","municipality":{"key":"09675141","name":"Kitzingen, GKSt","type":"Große_Kreisstadt"},"district":{"key":"09675","name":"Kitzingen","type":"Landkreis"},"federalState":{"key":"09","name":"Bayern"}},{"name":"Unterer Mainkai","postalCode":"97318","locality":"Kitzingen","municipality":{"key":"09675141","name":"Kitzingen, GKSt","type":"Große_Kreisstadt"},"district":{"key":"09675","name":"Kitzingen","type":"Landkreis"},"federalState":{"key":"09","name":"Bayern"}},{"name":"Völkersgasse","postalCode":"97318","locality":"Kitzingen","municipality":{"key":"09675141","name":"Kitzingen, GKSt","type":"Große_Kreisstadt"},"district":{"key":"09675","name":"Kitzingen","type":"Landkreis"},"federalState":{"key":"09","name":"Bayern"}},{"name":"Von-Deuster-Str.","postalCode":"97318","locality":"Kitzingen","municipality":{"key":"09675141","name":"Kitzingen, GKSt","type":"Große_Kreisstadt"},"district":{"key":"09675","name":"Kitzingen","type":"Landkreis"},"federalState":{"key":"09","name":"Bayern"}},{"name":"Wiesenbronner Str.","postalCode":"97348","locality":"Rödelsee","municipality":{"key":"09675161","name":"Rödelsee","type":"Kreisangehörige_Gemeinde"},"district":{"key":"09675","name":"Kitzingen","type":"Landkreis"},"federalState":{"key":"09","name":"Bayern"}},{"name":"Zehntgasse","postalCode":"97348","locality":"Rödelsee","municipality":{"key":"09675161","name":"Rödelsee","type":"Kreisangehörige_Gemeinde"},"district":{"key":"09675","name":"Kitzingen","type":"Landkreis"},"federalState":{"key":"09","name":"Bayern"}},{"name":"Zum Spielplatz","postalCode":"97348","locality":"Rödelsee","municipality":{"key":"09675161","name":"Rödelsee","type":"Kreisangehörige_Gemeinde"},"district":{"key":"09675","name":"Kitzingen","type":"Landkreis"},"federalState":{"key":"09","name":"Bayern"}},{"name":"Äußere Sulzfelder Str.","postalCode":"97318","locality":"Kitzingen","municipality":{"key":"09675141","name":"Kitzingen, GKSt","type":"Große_Kreisstadt"},"district":{"key":"09675","name":"Kitzingen","type":"Landkreis"},"federalState":{"key":"09","name":"Bayern"}},{"name":"Ödersgasse","postalCode":"97318","locality":"Kitzingen","municipality":{"key":"09675141","name":"Kitzingen, GKSt","type":"Große_Kreisstadt"},"district":{"key":"09675","name":"Kitzingen","type":"Landkreis"},"federalState":{"key":"09","name":"Bayern"}},]