[{"name":"Alte Steige","postalCode":"63928","locality":"Eichenbühl","municipality":{"key":"09676119","name":"Eichenbühl","type":"Kreisangehörige_Gemeinde"},"district":{"key":"09676","name":"Miltenberg","type":"Landkreis"},"federalState":{"key":"09","name":"Bayern"}},{"name":"Am Berg","postalCode":"63928","locality":"Eichenbühl","municipality":{"key":"09676119","name":"Eichenbühl","type":"Kreisangehörige_Gemeinde"},"district":{"key":"09676","name":"Miltenberg","type":"Landkreis"},"federalState":{"key":"09","name":"Bayern"}},{"name":"Am Buckl","postalCode":"63928","locality":"Eichenbühl","municipality":{"key":"09676119","name":"Eichenbühl","type":"Kreisangehörige_Gemeinde"},"district":{"key":"09676","name":"Miltenberg","type":"Landkreis"},"federalState":{"key":"09","name":"Bayern"}},{"name":"Am Feuerwehrhaus","postalCode":"63928","locality":"Eichenbühl","municipality":{"key":"09676119","name":"Eichenbühl","type":"Kreisangehörige_Gemeinde"},"district":{"key":"09676","name":"Miltenberg","type":"Landkreis"},"federalState":{"key":"09","name":"Bayern"}},{"name":"Am Kohlberg","postalCode":"63928","locality":"Eichenbühl","municipality":{"key":"09676119","name":"Eichenbühl","type":"Kreisangehörige_Gemeinde"},"district":{"key":"09676","name":"Miltenberg","type":"Landkreis"},"federalState":{"key":"09","name":"Bayern"}},{"name":"Am Park","postalCode":"63928","locality":"Eichenbühl","municipality":{"key":"09676119","name":"Eichenbühl","type":"Kreisangehörige_Gemeinde"},"district":{"key":"09676","name":"Miltenberg","type":"Landkreis"},"federalState":{"key":"09","name":"Bayern"}},{"name":"Am Sandbühl","postalCode":"63928","locality":"Eichenbühl","municipality":{"key":"09676119","name":"Eichenbühl","type":"Kreisangehörige_Gemeinde"},"district":{"key":"09676","name":"Miltenberg","type":"Landkreis"},"federalState":{"key":"09","name":"Bayern"}},{"name":"An der Klinge","postalCode":"63928","locality":"Eichenbühl","municipality":{"key":"09676119","name":"Eichenbühl","type":"Kreisangehörige_Gemeinde"},"district":{"key":"09676","name":"Miltenberg","type":"Landkreis"},"federalState":{"key":"09","name":"Bayern"}},{"name":"Berndieler Weg","postalCode":"63928","locality":"Eichenbühl","municipality":{"key":"09676119","name":"Eichenbühl","type":"Kreisangehörige_Gemeinde"},"district":{"key":"09676","name":"Miltenberg","type":"Landkreis"},"federalState":{"key":"09","name":"Bayern"}},{"name":"Bettlersgasse","postalCode":"63928","locality":"Eichenbühl","municipality":{"key":"09676119","name":"Eichenbühl","type":"Kreisangehörige_Gemeinde"},"district":{"key":"09676","name":"Miltenberg","type":"Landkreis"},"federalState":{"key":"09","name":"Bayern"}},{"name":"Breitensteinweg","postalCode":"63928","locality":"Eichenbühl","municipality":{"key":"09676119","name":"Eichenbühl","type":"Kreisangehörige_Gemeinde"},"district":{"key":"09676","name":"Miltenberg","type":"Landkreis"},"federalState":{"key":"09","name":"Bayern"}},{"name":"Brückenstr.","postalCode":"63928","locality":"Eichenbühl","municipality":{"key":"09676119","name":"Eichenbühl","type":"Kreisangehörige_Gemeinde"},"district":{"key":"09676","name":"Miltenberg","type":"Landkreis"},"federalState":{"key":"09","name":"Bayern"}},{"name":"Buchweg","postalCode":"63928","locality":"Eichenbühl","municipality":{"key":"09676119","name":"Eichenbühl","type":"Kreisangehörige_Gemeinde"},"district":{"key":"09676","name":"Miltenberg","type":"Landkreis"},"federalState":{"key":"09","name":"Bayern"}},{"name":"Buckelweg","postalCode":"63928","locality":"Eichenbühl","municipality":{"key":"09676119","name":"Eichenbühl","type":"Kreisangehörige_Gemeinde"},"district":{"key":"09676","name":"Miltenberg","type":"Landkreis"},"federalState":{"key":"09","name":"Bayern"}},{"name":"Burgäckerweg","postalCode":"63928","locality":"Eichenbühl","municipality":{"key":"09676119","name":"Eichenbühl","type":"Kreisangehörige_Gemeinde"},"district":{"key":"09676","name":"Miltenberg","type":"Landkreis"},"federalState":{"key":"09","name":"Bayern"}},{"name":"Bürgstadter Str.","postalCode":"63928","locality":"Eichenbühl","municipality":{"key":"09676119","name":"Eichenbühl","type":"Kreisangehörige_Gemeinde"},"district":{"key":"09676","name":"Miltenberg","type":"Landkreis"},"federalState":{"key":"09","name":"Bayern"}},{"name":"Cardijnstr.","postalCode":"63897","locality":"Miltenberg","municipality":{"key":"09676139","name":"Miltenberg, St","type":"Stadt"},"district":{"key":"09676","name":"Miltenberg","type":"Landkreis"},"federalState":{"key":"09","name":"Bayern"}},{"name":"Carl-Gerster-Str.","postalCode":"63897","locality":"Miltenberg","municipality":{"key":"09676139","name":"Miltenberg, St","type":"Stadt"},"district":{"key":"09676","name":"Miltenberg","type":"Landkreis"},"federalState":{"key":"09","name":"Bayern"}},{"name":"Dorfstr.","postalCode":"63928","locality":"Eichenbühl","municipality":{"key":"09676119","name":"Eichenbühl","type":"Kreisangehörige_Gemeinde"},"district":{"key":"09676","name":"Miltenberg","type":"Landkreis"},"federalState":{"key":"09","name":"Bayern"}},{"name":"Dreispitzweg","postalCode":"63928","locality":"Eichenbühl","municipality":{"key":"09676119","name":"Eichenbühl","type":"Kreisangehörige_Gemeinde"},"district":{"key":"09676","name":"Miltenberg","type":"Landkreis"},"federalState":{"key":"09","name":"Bayern"}},{"name":"Ebenheider Weg","postalCode":"97896","locality":"Eichenbühl","municipality":{"key":"09676119","name":"Eichenbühl","type":"Kreisangehörige_Gemeinde"},"district":{"key":"09676","name":"Miltenberg","type":"Landkreis"},"federalState":{"key":"09","name":"Bayern"}},{"name":"Eichkopfweg","postalCode":"63928","locality":"Eichenbühl","municipality":{"key":"09676119","name":"Eichenbühl","type":"Kreisangehörige_Gemeinde"},"district":{"key":"09676","name":"Miltenberg","type":"Landkreis"},"federalState":{"key":"09","name":"Bayern"}},{"name":"Erftalstr.","postalCode":"63928","locality":"Eichenbühl","municipality":{"key":"09676119","name":"Eichenbühl","type":"Kreisangehörige_Gemeinde"},"district":{"key":"09676","name":"Miltenberg","type":"Landkreis"},"federalState":{"key":"09","name":"Bayern"}},{"name":"Erftalweg","postalCode":"63928","locality":"Eichenbühl","municipality":{"key":"09676119","name":"Eichenbühl","type":"Kreisangehörige_Gemeinde"},"district":{"key":"09676","name":"Miltenberg","type":"Landkreis"},"federalState":{"key":"09","name":"Bayern"}},{"name":"Etterweg","postalCode":"63928","locality":"Eichenbühl","municipality":{"key":"09676119","name":"Eichenbühl","type":"Kreisangehörige_Gemeinde"},"district":{"key":"09676","name":"Miltenberg","type":"Landkreis"},"federalState":{"key":"09","name":"Bayern"}},{"name":"Feldtorgasse","postalCode":"63928","locality":"Eichenbühl","municipality":{"key":"09676119","name":"Eichenbühl","type":"Kreisangehörige_Gemeinde"},"district":{"key":"09676","name":"Miltenberg","type":"Landkreis"},"federalState":{"key":"09","name":"Bayern"}},{"name":"Finkenstr.","postalCode":"63928","locality":"Eichenbühl","municipality":{"key":"09676119","name":"Eichenbühl","type":"Kreisangehörige_Gemeinde"},"district":{"key":"09676","name":"Miltenberg","type":"Landkreis"},"federalState":{"key":"09","name":"Bayern"}},{"name":"Fliegerweg","postalCode":"63928","locality":"Eichenbühl","municipality":{"key":"09676119","name":"Eichenbühl","type":"Kreisangehörige_Gemeinde"},"district":{"key":"09676","name":"Miltenberg","type":"Landkreis"},"federalState":{"key":"09","name":"Bayern"}},{"name":"Forsthausstr.","postalCode":"63928","locality":"Eichenbühl","municipality":{"key":"09676119","name":"Eichenbühl","type":"Kreisangehörige_Gemeinde"},"district":{"key":"09676","name":"Miltenberg","type":"Landkreis"},"federalState":{"key":"09","name":"Bayern"}},{"name":"Frühlingstr.","postalCode":"63928","locality":"Eichenbühl","municipality":{"key":"09676119","name":"Eichenbühl","type":"Kreisangehörige_Gemeinde"},"district":{"key":"09676","name":"Miltenberg","type":"Landkreis"},"federalState":{"key":"09","name":"Bayern"}},{"name":"Gartenstr.","postalCode":"63928","locality":"Eichenbühl","municipality":{"key":"09676119","name":"Eichenbühl","type":"Kreisangehörige_Gemeinde"},"district":{"key":"09676","name":"Miltenberg","type":"Landkreis"},"federalState":{"key":"09","name":"Bayern"}},{"name":"Große Gasse","postalCode":"63928","locality":"Eichenbühl","municipality":{"key":"09676119","name":"Eichenbühl","type":"Kreisangehörige_Gemeinde"},"district":{"key":"09676","name":"Miltenberg","type":"Landkreis"},"federalState":{"key":"09","name":"Bayern"}},{"name":"Guggenberger Str.","postalCode":"63928","locality":"Eichenbühl","municipality":{"key":"09676119","name":"Eichenbühl","type":"Kreisangehörige_Gemeinde"},"district":{"key":"09676","name":"Miltenberg","type":"Landkreis"},"federalState":{"key":"09","name":"Bayern"}},{"name":"Hauptstr.","postalCode":"63928","locality":"Eichenbühl","municipality":{"key":"09676119","name":"Eichenbühl","type":"Kreisangehörige_Gemeinde"},"district":{"key":"09676","name":"Miltenberg","type":"Landkreis"},"federalState":{"key":"09","name":"Bayern"}},{"name":"Heppdieler Str.","postalCode":"63928","locality":"Eichenbühl","municipality":{"key":"09676119","name":"Eichenbühl","type":"Kreisangehörige_Gemeinde"},"district":{"key":"09676","name":"Miltenberg","type":"Landkreis"},"federalState":{"key":"09","name":"Bayern"}},{"name":"Heppdieler Weg","postalCode":"63928","locality":"Eichenbühl","municipality":{"key":"09676119","name":"Eichenbühl","type":"Kreisangehörige_Gemeinde"},"district":{"key":"09676","name":"Miltenberg","type":"Landkreis"},"federalState":{"key":"09","name":"Bayern"}},{"name":"Hofweg","postalCode":"63928","locality":"Eichenbühl","municipality":{"key":"09676119","name":"Eichenbühl","type":"Kreisangehörige_Gemeinde"},"district":{"key":"09676","name":"Miltenberg","type":"Landkreis"},"federalState":{"key":"09","name":"Bayern"}},{"name":"im Büchle","postalCode":"63928","locality":"Eichenbühl","municipality":{"key":"09676119","name":"Eichenbühl","type":"Kreisangehörige_Gemeinde"},"district":{"key":"09676","name":"Miltenberg","type":"Landkreis"},"federalState":{"key":"09","name":"Bayern"}},{"name":"Im Greben","postalCode":"63928","locality":"Eichenbühl","municipality":{"key":"09676119","name":"Eichenbühl","type":"Kreisangehörige_Gemeinde"},"district":{"key":"09676","name":"Miltenberg","type":"Landkreis"},"federalState":{"key":"09","name":"Bayern"}},{"name":"Im Scheibling","postalCode":"63928","locality":"Eichenbühl","municipality":{"key":"09676119","name":"Eichenbühl","type":"Kreisangehörige_Gemeinde"},"district":{"key":"09676","name":"Miltenberg","type":"Landkreis"},"federalState":{"key":"09","name":"Bayern"}},{"name":"Im Steinwehr","postalCode":"63928","locality":"Eichenbühl","municipality":{"key":"09676119","name":"Eichenbühl","type":"Kreisangehörige_Gemeinde"},"district":{"key":"09676","name":"Miltenberg","type":"Landkreis"},"federalState":{"key":"09","name":"Bayern"}},{"name":"Im Tannenschlag","postalCode":"63928","locality":"Eichenbühl","municipality":{"key":"09676119","name":"Eichenbühl","type":"Kreisangehörige_Gemeinde"},"district":{"key":"09676","name":"Miltenberg","type":"Landkreis"},"federalState":{"key":"09","name":"Bayern"}},{"name":"In den Rittern","postalCode":"63928","locality":"Eichenbühl","municipality":{"key":"09676119","name":"Eichenbühl","type":"Kreisangehörige_Gemeinde"},"district":{"key":"09676","name":"Miltenberg","type":"Landkreis"},"federalState":{"key":"09","name":"Bayern"}},{"name":"Julius-Keppner-Str.","postalCode":"63928","locality":"Eichenbühl","municipality":{"key":"09676119","name":"Eichenbühl","type":"Kreisangehörige_Gemeinde"},"district":{"key":"09676","name":"Miltenberg","type":"Landkreis"},"federalState":{"key":"09","name":"Bayern"}},{"name":"Kirchgasse","postalCode":"63928","locality":"Eichenbühl","municipality":{"key":"09676119","name":"Eichenbühl","type":"Kreisangehörige_Gemeinde"},"district":{"key":"09676","name":"Miltenberg","type":"Landkreis"},"federalState":{"key":"09","name":"Bayern"}},{"name":"Kohlgrundweg","postalCode":"63928","locality":"Eichenbühl","municipality":{"key":"09676119","name":"Eichenbühl","type":"Kreisangehörige_Gemeinde"},"district":{"key":"09676","name":"Miltenberg","type":"Landkreis"},"federalState":{"key":"09","name":"Bayern"}},{"name":"Lauersmühle","postalCode":"63928","locality":"Eichenbühl","municipality":{"key":"09676119","name":"Eichenbühl","type":"Kreisangehörige_Gemeinde"},"district":{"key":"09676","name":"Miltenberg","type":"Landkreis"},"federalState":{"key":"09","name":"Bayern"}},{"name":"Miltenberger Str.","postalCode":"63928","locality":"Eichenbühl","municipality":{"key":"09676119","name":"Eichenbühl","type":"Kreisangehörige_Gemeinde"},"district":{"key":"09676","name":"Miltenberg","type":"Landkreis"},"federalState":{"key":"09","name":"Bayern"}},{"name":"Mistweg","postalCode":"63928","locality":"Eichenbühl","municipality":{"key":"09676119","name":"Eichenbühl","type":"Kreisangehörige_Gemeinde"},"district":{"key":"09676","name":"Miltenberg","type":"Landkreis"},"federalState":{"key":"09","name":"Bayern"}},{"name":"Mittlerer Sandbichelweg","postalCode":"63928","locality":"Eichenbühl","municipality":{"key":"09676119","name":"Eichenbühl","type":"Kreisangehörige_Gemeinde"},"district":{"key":"09676","name":"Miltenberg","type":"Landkreis"},"federalState":{"key":"09","name":"Bayern"}},{"name":"Mittlerer Wengertsbergweg","postalCode":"63928","locality":"Eichenbühl","municipality":{"key":"09676119","name":"Eichenbühl","type":"Kreisangehörige_Gemeinde"},"district":{"key":"09676","name":"Miltenberg","type":"Landkreis"},"federalState":{"key":"09","name":"Bayern"}},{"name":"Neubergweg","postalCode":"63928","locality":"Eichenbühl","municipality":{"key":"09676119","name":"Eichenbühl","type":"Kreisangehörige_Gemeinde"},"district":{"key":"09676","name":"Miltenberg","type":"Landkreis"},"federalState":{"key":"09","name":"Bayern"}},{"name":"Neubergweg","postalCode":"97896","locality":"Eichenbühl","municipality":{"key":"09676119","name":"Eichenbühl","type":"Kreisangehörige_Gemeinde"},"district":{"key":"09676","name":"Miltenberg","type":"Landkreis"},"federalState":{"key":"09","name":"Bayern"}},{"name":"Oberer Weinbergweg","postalCode":"63928","locality":"Eichenbühl","municipality":{"key":"09676119","name":"Eichenbühl","type":"Kreisangehörige_Gemeinde"},"district":{"key":"09676","name":"Miltenberg","type":"Landkreis"},"federalState":{"key":"09","name":"Bayern"}},{"name":"Oberer Wengertsbergweg","postalCode":"63928","locality":"Eichenbühl","municipality":{"key":"09676119","name":"Eichenbühl","type":"Kreisangehörige_Gemeinde"},"district":{"key":"09676","name":"Miltenberg","type":"Landkreis"},"federalState":{"key":"09","name":"Bayern"}},{"name":"Odenwaldstr.","postalCode":"63928","locality":"Eichenbühl","municipality":{"key":"09676119","name":"Eichenbühl","type":"Kreisangehörige_Gemeinde"},"district":{"key":"09676","name":"Miltenberg","type":"Landkreis"},"federalState":{"key":"09","name":"Bayern"}},{"name":"Ortsstr.","postalCode":"63928","locality":"Eichenbühl","municipality":{"key":"09676119","name":"Eichenbühl","type":"Kreisangehörige_Gemeinde"},"district":{"key":"09676","name":"Miltenberg","type":"Landkreis"},"federalState":{"key":"09","name":"Bayern"}},{"name":"Panzerbrücke","postalCode":"63928","locality":"Eichenbühl","municipality":{"key":"09676119","name":"Eichenbühl","type":"Kreisangehörige_Gemeinde"},"district":{"key":"09676","name":"Miltenberg","type":"Landkreis"},"federalState":{"key":"09","name":"Bayern"}},{"name":"Pfarräcker","postalCode":"63928","locality":"Eichenbühl","municipality":{"key":"09676119","name":"Eichenbühl","type":"Kreisangehörige_Gemeinde"},"district":{"key":"09676","name":"Miltenberg","type":"Landkreis"},"federalState":{"key":"09","name":"Bayern"}},{"name":"Pfarrgasse","postalCode":"63928","locality":"Eichenbühl","municipality":{"key":"09676119","name":"Eichenbühl","type":"Kreisangehörige_Gemeinde"},"district":{"key":"09676","name":"Miltenberg","type":"Landkreis"},"federalState":{"key":"09","name":"Bayern"}},{"name":"Pferdslaubweg","postalCode":"63928","locality":"Eichenbühl","municipality":{"key":"09676119","name":"Eichenbühl","type":"Kreisangehörige_Gemeinde"},"district":{"key":"09676","name":"Miltenberg","type":"Landkreis"},"federalState":{"key":"09","name":"Bayern"}},{"name":"Pfohlbacher Str.","postalCode":"63928","locality":"Eichenbühl","municipality":{"key":"09676119","name":"Eichenbühl","type":"Kreisangehörige_Gemeinde"},"district":{"key":"09676","name":"Miltenberg","type":"Landkreis"},"federalState":{"key":"09","name":"Bayern"}},{"name":"Quellenweg","postalCode":"63928","locality":"Eichenbühl","municipality":{"key":"09676119","name":"Eichenbühl","type":"Kreisangehörige_Gemeinde"},"district":{"key":"09676","name":"Miltenberg","type":"Landkreis"},"federalState":{"key":"09","name":"Bayern"}},{"name":"Richelbacher Str.","postalCode":"63928","locality":"Eichenbühl","municipality":{"key":"09676119","name":"Eichenbühl","type":"Kreisangehörige_Gemeinde"},"district":{"key":"09676","name":"Miltenberg","type":"Landkreis"},"federalState":{"key":"09","name":"Bayern"}},{"name":"Riederner Str.","postalCode":"63928","locality":"Eichenbühl","municipality":{"key":"09676119","name":"Eichenbühl","type":"Kreisangehörige_Gemeinde"},"district":{"key":"09676","name":"Miltenberg","type":"Landkreis"},"federalState":{"key":"09","name":"Bayern"}},{"name":"Ringstr.","postalCode":"63928","locality":"Eichenbühl","municipality":{"key":"09676119","name":"Eichenbühl","type":"Kreisangehörige_Gemeinde"},"district":{"key":"09676","name":"Miltenberg","type":"Landkreis"},"federalState":{"key":"09","name":"Bayern"}},{"name":"Ritterbergweg","postalCode":"63928","locality":"Eichenbühl","municipality":{"key":"09676119","name":"Eichenbühl","type":"Kreisangehörige_Gemeinde"},"district":{"key":"09676","name":"Miltenberg","type":"Landkreis"},"federalState":{"key":"09","name":"Bayern"}},{"name":"Sandbichelweg","postalCode":"63928","locality":"Eichenbühl","municipality":{"key":"09676119","name":"Eichenbühl","type":"Kreisangehörige_Gemeinde"},"district":{"key":"09676","name":"Miltenberg","type":"Landkreis"},"federalState":{"key":"09","name":"Bayern"}},{"name":"Saugraben","postalCode":"63928","locality":"Eichenbühl","municipality":{"key":"09676119","name":"Eichenbühl","type":"Kreisangehörige_Gemeinde"},"district":{"key":"09676","name":"Miltenberg","type":"Landkreis"},"federalState":{"key":"09","name":"Bayern"}},{"name":"Schädelbergweg","postalCode":"63928","locality":"Eichenbühl","municipality":{"key":"09676119","name":"Eichenbühl","type":"Kreisangehörige_Gemeinde"},"district":{"key":"09676","name":"Miltenberg","type":"Landkreis"},"federalState":{"key":"09","name":"Bayern"}},{"name":"Schulweg","postalCode":"63928","locality":"Eichenbühl","municipality":{"key":"09676119","name":"Eichenbühl","type":"Kreisangehörige_Gemeinde"},"district":{"key":"09676","name":"Miltenberg","type":"Landkreis"},"federalState":{"key":"09","name":"Bayern"}},{"name":"Schweinestallweg","postalCode":"63928","locality":"Eichenbühl","municipality":{"key":"09676119","name":"Eichenbühl","type":"Kreisangehörige_Gemeinde"},"district":{"key":"09676","name":"Miltenberg","type":"Landkreis"},"federalState":{"key":"09","name":"Bayern"}},{"name":"Schweinsgrubenweg","postalCode":"97896","locality":"Eichenbühl","municipality":{"key":"09676119","name":"Eichenbühl","type":"Kreisangehörige_Gemeinde"},"district":{"key":"09676","name":"Miltenberg","type":"Landkreis"},"federalState":{"key":"09","name":"Bayern"}},{"name":"Setzweg","postalCode":"63928","locality":"Eichenbühl","municipality":{"key":"09676119","name":"Eichenbühl","type":"Kreisangehörige_Gemeinde"},"district":{"key":"09676","name":"Miltenberg","type":"Landkreis"},"federalState":{"key":"09","name":"Bayern"}},{"name":"Steinstr.","postalCode":"63928","locality":"Eichenbühl","municipality":{"key":"09676119","name":"Eichenbühl","type":"Kreisangehörige_Gemeinde"},"district":{"key":"09676","name":"Miltenberg","type":"Landkreis"},"federalState":{"key":"09","name":"Bayern"}},{"name":"Streichweg","postalCode":"63928","locality":"Eichenbühl","municipality":{"key":"09676119","name":"Eichenbühl","type":"Kreisangehörige_Gemeinde"},"district":{"key":"09676","name":"Miltenberg","type":"Landkreis"},"federalState":{"key":"09","name":"Bayern"}},{"name":"Stübchenweg","postalCode":"63928","locality":"Eichenbühl","municipality":{"key":"09676119","name":"Eichenbühl","type":"Kreisangehörige_Gemeinde"},"district":{"key":"09676","name":"Miltenberg","type":"Landkreis"},"federalState":{"key":"09","name":"Bayern"}},{"name":"Turmweg","postalCode":"63928","locality":"Eichenbühl","municipality":{"key":"09676119","name":"Eichenbühl","type":"Kreisangehörige_Gemeinde"},"district":{"key":"09676","name":"Miltenberg","type":"Landkreis"},"federalState":{"key":"09","name":"Bayern"}},{"name":"Unterer Sandbichelweg","postalCode":"63928","locality":"Eichenbühl","municipality":{"key":"09676119","name":"Eichenbühl","type":"Kreisangehörige_Gemeinde"},"district":{"key":"09676","name":"Miltenberg","type":"Landkreis"},"federalState":{"key":"09","name":"Bayern"}},{"name":"Unterer Wengertsbergweg","postalCode":"63928","locality":"Eichenbühl","municipality":{"key":"09676119","name":"Eichenbühl","type":"Kreisangehörige_Gemeinde"},"district":{"key":"09676","name":"Miltenberg","type":"Landkreis"},"federalState":{"key":"09","name":"Bayern"}},{"name":"Verbindungsweg","postalCode":"63897","locality":"Miltenberg","municipality":{"key":"09676139","name":"Miltenberg, St","type":"Stadt"},"district":{"key":"09676","name":"Miltenberg","type":"Landkreis"},"federalState":{"key":"09","name":"Bayern"}},{"name":"Vogelweiderweg","postalCode":"63897","locality":"Miltenberg","municipality":{"key":"09676139","name":"Miltenberg, St","type":"Stadt"},"district":{"key":"09676","name":"Miltenberg","type":"Landkreis"},"federalState":{"key":"09","name":"Bayern"}},{"name":"Von-Berlichingen-Str.","postalCode":"63897","locality":"Miltenberg","municipality":{"key":"09676139","name":"Miltenberg, St","type":"Stadt"},"district":{"key":"09676","name":"Miltenberg","type":"Landkreis"},"federalState":{"key":"09","name":"Bayern"}},{"name":"Von-Bodelschwingh-Str.","postalCode":"63897","locality":"Miltenberg","municipality":{"key":"09676139","name":"Miltenberg, St","type":"Stadt"},"district":{"key":"09676","name":"Miltenberg","type":"Landkreis"},"federalState":{"key":"09","name":"Bayern"}},{"name":"Von-Hauck-Str.","postalCode":"63897","locality":"Miltenberg","municipality":{"key":"09676139","name":"Miltenberg, St","type":"Stadt"},"district":{"key":"09676","name":"Miltenberg","type":"Landkreis"},"federalState":{"key":"09","name":"Bayern"}},{"name":"Von-Ketteler-Str.","postalCode":"63897","locality":"Miltenberg","municipality":{"key":"09676139","name":"Miltenberg, St","type":"Stadt"},"district":{"key":"09676","name":"Miltenberg","type":"Landkreis"},"federalState":{"key":"09","name":"Bayern"}},{"name":"Von-Stein-Str.","postalCode":"63897","locality":"Miltenberg","municipality":{"key":"09676139","name":"Miltenberg, St","type":"Stadt"},"district":{"key":"09676","name":"Miltenberg","type":"Landkreis"},"federalState":{"key":"09","name":"Bayern"}},{"name":"Waldweg","postalCode":"63928","locality":"Eichenbühl","municipality":{"key":"09676119","name":"Eichenbühl","type":"Kreisangehörige_Gemeinde"},"district":{"key":"09676","name":"Miltenberg","type":"Landkreis"},"federalState":{"key":"09","name":"Bayern"}},{"name":"Wengertsberg","postalCode":"63928","locality":"Eichenbühl","municipality":{"key":"09676119","name":"Eichenbühl","type":"Kreisangehörige_Gemeinde"},"district":{"key":"09676","name":"Miltenberg","type":"Landkreis"},"federalState":{"key":"09","name":"Bayern"}},{"name":"Wilder Wiesenweg","postalCode":"63928","locality":"Eichenbühl","municipality":{"key":"09676119","name":"Eichenbühl","type":"Kreisangehörige_Gemeinde"},"district":{"key":"09676","name":"Miltenberg","type":"Landkreis"},"federalState":{"key":"09","name":"Bayern"}},{"name":"Windischbuchener Str.","postalCode":"63928","locality":"Eichenbühl","municipality":{"key":"09676119","name":"Eichenbühl","type":"Kreisangehörige_Gemeinde"},"district":{"key":"09676","name":"Miltenberg","type":"Landkreis"},"federalState":{"key":"09","name":"Bayern"}},{"name":"Wolfsgraben","postalCode":"63928","locality":"Eichenbühl","municipality":{"key":"09676119","name":"Eichenbühl","type":"Kreisangehörige_Gemeinde"},"district":{"key":"09676","name":"Miltenberg","type":"Landkreis"},"federalState":{"key":"09","name":"Bayern"}},{"name":"Ziegelgasse","postalCode":"63897","locality":"Miltenberg","municipality":{"key":"09676139","name":"Miltenberg, St","type":"Stadt"},"district":{"key":"09676","name":"Miltenberg","type":"Landkreis"},"federalState":{"key":"09","name":"Bayern"}},{"name":"Zunkenstr.","postalCode":"63897","locality":"Miltenberg","municipality":{"key":"09676139","name":"Miltenberg, St","type":"Stadt"},"district":{"key":"09676","name":"Miltenberg","type":"Landkreis"},"federalState":{"key":"09","name":"Bayern"}},{"name":"Zwillingsquellenweg","postalCode":"63897","locality":"Miltenberg","municipality":{"key":"09676139","name":"Miltenberg, St","type":"Stadt"},"district":{"key":"09676","name":"Miltenberg","type":"Landkreis"},"federalState":{"key":"09","name":"Bayern"}},{"name":"Älterwaldweg","postalCode":"63897","locality":"Miltenberg","municipality":{"key":"09676139","name":"Miltenberg, St","type":"Stadt"},"district":{"key":"09676","name":"Miltenberg","type":"Landkreis"},"federalState":{"key":"09","name":"Bayern"}},]