[{"key":"10157515","name":"Allmendweg","postalCode":"3465","locality":"Dürrenroth","commune":{"key":"952","name":"Dürrenroth","shortName":"Dürrenroth"},"district":{"key":"245","name":"Verwaltungskreis Emmental"},"canton":{"key":"2","code":"BE","name":"Bern / Berne"},"status":"Real"},{"key":"10014338","name":"Bahnhofstrasse","postalCode":"3465","locality":"Dürrenroth","commune":{"key":"952","name":"Dürrenroth","shortName":"Dürrenroth"},"district":{"key":"245","name":"Verwaltungskreis Emmental"},"canton":{"key":"2","code":"BE","name":"Bern / Berne"},"status":"Real"},{"key":"10178973","name":"Bannholz","postalCode":"3465","locality":"Dürrenroth","commune":{"key":"952","name":"Dürrenroth","shortName":"Dürrenroth"},"district":{"key":"245","name":"Verwaltungskreis Emmental"},"canton":{"key":"2","code":"BE","name":"Bern / Berne"},"status":"Real"},{"key":"10062062","name":"Böschberg","postalCode":"3465","locality":"Dürrenroth","commune":{"key":"952","name":"Dürrenroth","shortName":"Dürrenroth"},"district":{"key":"245","name":"Verwaltungskreis Emmental"},"canton":{"key":"2","code":"BE","name":"Bern / Berne"},"status":"Real"},{"key":"10014341","name":"Böschbergweidli","postalCode":"3465","locality":"Dürrenroth","commune":{"key":"952","name":"Dürrenroth","shortName":"Dürrenroth"},"district":{"key":"245","name":"Verwaltungskreis Emmental"},"canton":{"key":"2","code":"BE","name":"Bern / Berne"},"status":"Real"},{"key":"10062060","name":"Breite","postalCode":"3465","locality":"Dürrenroth","commune":{"key":"952","name":"Dürrenroth","shortName":"Dürrenroth"},"district":{"key":"245","name":"Verwaltungskreis Emmental"},"canton":{"key":"2","code":"BE","name":"Bern / Berne"},"status":"Real"},{"key":"10178974","name":"Breiteweid","postalCode":"3465","locality":"Dürrenroth","commune":{"key":"952","name":"Dürrenroth","shortName":"Dürrenroth"},"district":{"key":"245","name":"Verwaltungskreis Emmental"},"canton":{"key":"2","code":"BE","name":"Bern / Berne"},"status":"Real"},{"key":"10062061","name":"Brunne","postalCode":"3465","locality":"Dürrenroth","commune":{"key":"952","name":"Dürrenroth","shortName":"Dürrenroth"},"district":{"key":"245","name":"Verwaltungskreis Emmental"},"canton":{"key":"2","code":"BE","name":"Bern / Berne"},"status":"Real"},{"key":"10014339","name":"Brunneloch","postalCode":"3465","locality":"Dürrenroth","commune":{"key":"952","name":"Dürrenroth","shortName":"Dürrenroth"},"district":{"key":"245","name":"Verwaltungskreis Emmental"},"canton":{"key":"2","code":"BE","name":"Bern / Berne"},"status":"Real"},{"key":"10080956","name":"Brunneneuhus","postalCode":"3465","locality":"Dürrenroth","commune":{"key":"952","name":"Dürrenroth","shortName":"Dürrenroth"},"district":{"key":"245","name":"Verwaltungskreis Emmental"},"canton":{"key":"2","code":"BE","name":"Bern / Berne"},"status":"Real"},{"key":"10080962","name":"Chabisberg","postalCode":"3465","locality":"Dürrenroth","commune":{"key":"952","name":"Dürrenroth","shortName":"Dürrenroth"},"district":{"key":"245","name":"Verwaltungskreis Emmental"},"canton":{"key":"2","code":"BE","name":"Bern / Berne"},"status":"Real"},{"key":"10014351","name":"Chipf","postalCode":"3465","locality":"Dürrenroth","commune":{"key":"952","name":"Dürrenroth","shortName":"Dürrenroth"},"district":{"key":"245","name":"Verwaltungskreis Emmental"},"canton":{"key":"2","code":"BE","name":"Bern / Berne"},"status":"Real"},{"key":"10014352","name":"Chnubel","postalCode":"3465","locality":"Dürrenroth","commune":{"key":"952","name":"Dürrenroth","shortName":"Dürrenroth"},"district":{"key":"245","name":"Verwaltungskreis Emmental"},"canton":{"key":"2","code":"BE","name":"Bern / Berne"},"status":"Real"},{"key":"10108710","name":"Dagerdinge","postalCode":"3465","locality":"Dürrenroth","commune":{"key":"952","name":"Dürrenroth","shortName":"Dürrenroth"},"district":{"key":"245","name":"Verwaltungskreis Emmental"},"canton":{"key":"2","code":"BE","name":"Bern / Berne"},"status":"Real"},{"key":"10129408","name":"Dorfackerweg","postalCode":"3465","locality":"Dürrenroth","commune":{"key":"952","name":"Dürrenroth","shortName":"Dürrenroth"},"district":{"key":"245","name":"Verwaltungskreis Emmental"},"canton":{"key":"2","code":"BE","name":"Bern / Berne"},"status":"Real"},{"key":"10123687","name":"Dorfstrasse","postalCode":"3465","locality":"Dürrenroth","commune":{"key":"952","name":"Dürrenroth","shortName":"Dürrenroth"},"district":{"key":"245","name":"Verwaltungskreis Emmental"},"canton":{"key":"2","code":"BE","name":"Bern / Berne"},"status":"Real"},{"key":"10062063","name":"Eggisberg","postalCode":"3465","locality":"Dürrenroth","commune":{"key":"952","name":"Dürrenroth","shortName":"Dürrenroth"},"district":{"key":"245","name":"Verwaltungskreis Emmental"},"canton":{"key":"2","code":"BE","name":"Bern / Berne"},"status":"Real"},{"key":"10014342","name":"Eggisbergweid","postalCode":"3465","locality":"Dürrenroth","commune":{"key":"952","name":"Dürrenroth","shortName":"Dürrenroth"},"district":{"key":"245","name":"Verwaltungskreis Emmental"},"canton":{"key":"2","code":"BE","name":"Bern / Berne"},"status":"Real"},{"key":"10178980","name":"Fännerhüsli","postalCode":"3465","locality":"Dürrenroth","commune":{"key":"952","name":"Dürrenroth","shortName":"Dürrenroth"},"district":{"key":"245","name":"Verwaltungskreis Emmental"},"canton":{"key":"2","code":"BE","name":"Bern / Berne"},"status":"Real"},{"key":"10127848","name":"Feld","postalCode":"3465","locality":"Dürrenroth","commune":{"key":"952","name":"Dürrenroth","shortName":"Dürrenroth"},"district":{"key":"245","name":"Verwaltungskreis Emmental"},"canton":{"key":"2","code":"BE","name":"Bern / Berne"},"status":"Real"},{"key":"10217973","name":"Feldhus","postalCode":"3465","locality":"Dürrenroth","commune":{"key":"952","name":"Dürrenroth","shortName":"Dürrenroth"},"district":{"key":"245","name":"Verwaltungskreis Emmental"},"canton":{"key":"2","code":"BE","name":"Bern / Berne"},"status":"Real"},{"key":"10080957","name":"Feldhüsli","postalCode":"3465","locality":"Dürrenroth","commune":{"key":"952","name":"Dürrenroth","shortName":"Dürrenroth"},"district":{"key":"245","name":"Verwaltungskreis Emmental"},"canton":{"key":"2","code":"BE","name":"Bern / Berne"},"status":"Real"},{"key":"10129407","name":"Feldstrasse","postalCode":"3465","locality":"Dürrenroth","commune":{"key":"952","name":"Dürrenroth","shortName":"Dürrenroth"},"district":{"key":"245","name":"Verwaltungskreis Emmental"},"canton":{"key":"2","code":"BE","name":"Bern / Berne"},"status":"Real"},{"key":"10014344","name":"Feldweid","postalCode":"3465","locality":"Dürrenroth","commune":{"key":"952","name":"Dürrenroth","shortName":"Dürrenroth"},"district":{"key":"245","name":"Verwaltungskreis Emmental"},"canton":{"key":"2","code":"BE","name":"Bern / Berne"},"status":"Real"},{"key":"10062064","name":"Flüe","postalCode":"3465","locality":"Dürrenroth","commune":{"key":"952","name":"Dürrenroth","shortName":"Dürrenroth"},"district":{"key":"245","name":"Verwaltungskreis Emmental"},"canton":{"key":"2","code":"BE","name":"Bern / Berne"},"status":"Real"},{"key":"10178975","name":"Flüebach","postalCode":"3465","locality":"Dürrenroth","commune":{"key":"952","name":"Dürrenroth","shortName":"Dürrenroth"},"district":{"key":"245","name":"Verwaltungskreis Emmental"},"canton":{"key":"2","code":"BE","name":"Bern / Berne"},"status":"Real"},{"key":"10014345","name":"Fraumatt","postalCode":"3465","locality":"Dürrenroth","commune":{"key":"952","name":"Dürrenroth","shortName":"Dürrenroth"},"district":{"key":"245","name":"Verwaltungskreis Emmental"},"canton":{"key":"2","code":"BE","name":"Bern / Berne"},"status":"Real"},{"key":"10188944","name":"Fraumattweid","postalCode":"3465","locality":"Dürrenroth","commune":{"key":"952","name":"Dürrenroth","shortName":"Dürrenroth"},"district":{"key":"245","name":"Verwaltungskreis Emmental"},"canton":{"key":"2","code":"BE","name":"Bern / Berne"},"status":"Real"},{"key":"10125029","name":"Fuchsloch","postalCode":"3465","locality":"Dürrenroth","commune":{"key":"952","name":"Dürrenroth","shortName":"Dürrenroth"},"district":{"key":"245","name":"Verwaltungskreis Emmental"},"canton":{"key":"2","code":"BE","name":"Bern / Berne"},"status":"Real"},{"key":"10175121","name":"Gärbihof","postalCode":"3465","locality":"Dürrenroth","commune":{"key":"952","name":"Dürrenroth","shortName":"Dürrenroth"},"district":{"key":"245","name":"Verwaltungskreis Emmental"},"canton":{"key":"2","code":"BE","name":"Bern / Berne"},"status":"Real"},{"key":"10060287","name":"Grat","postalCode":"3465","locality":"Dürrenroth","commune":{"key":"952","name":"Dürrenroth","shortName":"Dürrenroth"},"district":{"key":"245","name":"Verwaltungskreis Emmental"},"canton":{"key":"2","code":"BE","name":"Bern / Berne"},"status":"Real"},{"key":"10080959","name":"Groppemoos","postalCode":"3465","locality":"Dürrenroth","commune":{"key":"952","name":"Dürrenroth","shortName":"Dürrenroth"},"district":{"key":"245","name":"Verwaltungskreis Emmental"},"canton":{"key":"2","code":"BE","name":"Bern / Berne"},"status":"Real"},{"key":"10217978","name":"Guggli","postalCode":"3465","locality":"Dürrenroth","commune":{"key":"952","name":"Dürrenroth","shortName":"Dürrenroth"},"district":{"key":"245","name":"Verwaltungskreis Emmental"},"canton":{"key":"2","code":"BE","name":"Bern / Berne"},"status":"Real"},{"key":"10014350","name":"Hälflige","postalCode":"3465","locality":"Dürrenroth","commune":{"key":"952","name":"Dürrenroth","shortName":"Dürrenroth"},"district":{"key":"245","name":"Verwaltungskreis Emmental"},"canton":{"key":"2","code":"BE","name":"Bern / Berne"},"status":"Real"},{"key":"10116453","name":"Hämmeloch","postalCode":"3465","locality":"Dürrenroth","commune":{"key":"952","name":"Dürrenroth","shortName":"Dürrenroth"},"district":{"key":"245","name":"Verwaltungskreis Emmental"},"canton":{"key":"2","code":"BE","name":"Bern / Berne"},"status":"Real"},{"key":"10178977","name":"Höch","postalCode":"3465","locality":"Dürrenroth","commune":{"key":"952","name":"Dürrenroth","shortName":"Dürrenroth"},"district":{"key":"245","name":"Verwaltungskreis Emmental"},"canton":{"key":"2","code":"BE","name":"Bern / Berne"},"status":"Real"},{"key":"10178976","name":"Horn","postalCode":"3465","locality":"Dürrenroth","commune":{"key":"952","name":"Dürrenroth","shortName":"Dürrenroth"},"district":{"key":"245","name":"Verwaltungskreis Emmental"},"canton":{"key":"2","code":"BE","name":"Bern / Berne"},"status":"Real"},{"key":"10014347","name":"Huebbach","postalCode":"3465","locality":"Dürrenroth","commune":{"key":"952","name":"Dürrenroth","shortName":"Dürrenroth"},"district":{"key":"245","name":"Verwaltungskreis Emmental"},"canton":{"key":"2","code":"BE","name":"Bern / Berne"},"status":"Real"},{"key":"10060288","name":"Huebbachschächli","postalCode":"3465","locality":"Dürrenroth","commune":{"key":"952","name":"Dürrenroth","shortName":"Dürrenroth"},"district":{"key":"245","name":"Verwaltungskreis Emmental"},"canton":{"key":"2","code":"BE","name":"Bern / Berne"},"status":"Real"},{"key":"10014348","name":"Huebe","postalCode":"3465","locality":"Dürrenroth","commune":{"key":"952","name":"Dürrenroth","shortName":"Dürrenroth"},"district":{"key":"245","name":"Verwaltungskreis Emmental"},"canton":{"key":"2","code":"BE","name":"Bern / Berne"},"status":"Real"},{"key":"10080961","name":"Hueberhof","postalCode":"3465","locality":"Dürrenroth","commune":{"key":"952","name":"Dürrenroth","shortName":"Dürrenroth"},"district":{"key":"245","name":"Verwaltungskreis Emmental"},"canton":{"key":"2","code":"BE","name":"Bern / Berne"},"status":"Real"},{"key":"10217982","name":"Hueberweid","postalCode":"3465","locality":"Dürrenroth","commune":{"key":"952","name":"Dürrenroth","shortName":"Dürrenroth"},"district":{"key":"245","name":"Verwaltungskreis Emmental"},"canton":{"key":"2","code":"BE","name":"Bern / Berne"},"status":"Real"},{"key":"10060289","name":"Huebli","postalCode":"3465","locality":"Dürrenroth","commune":{"key":"952","name":"Dürrenroth","shortName":"Dürrenroth"},"district":{"key":"245","name":"Verwaltungskreis Emmental"},"canton":{"key":"2","code":"BE","name":"Bern / Berne"},"status":"Real"},{"key":"10014349","name":"Hullige","postalCode":"3465","locality":"Dürrenroth","commune":{"key":"952","name":"Dürrenroth","shortName":"Dürrenroth"},"district":{"key":"245","name":"Verwaltungskreis Emmental"},"canton":{"key":"2","code":"BE","name":"Bern / Berne"},"status":"Real"},{"key":"10014353","name":"Lindacker","postalCode":"3465","locality":"Dürrenroth","commune":{"key":"952","name":"Dürrenroth","shortName":"Dürrenroth"},"district":{"key":"245","name":"Verwaltungskreis Emmental"},"canton":{"key":"2","code":"BE","name":"Bern / Berne"},"status":"Real"},{"key":"10014354","name":"Mattehüsli","postalCode":"3465","locality":"Dürrenroth","commune":{"key":"952","name":"Dürrenroth","shortName":"Dürrenroth"},"district":{"key":"245","name":"Verwaltungskreis Emmental"},"canton":{"key":"2","code":"BE","name":"Bern / Berne"},"status":"Real"},{"key":"10159706","name":"Mattenweg","postalCode":"3465","locality":"Dürrenroth","commune":{"key":"952","name":"Dürrenroth","shortName":"Dürrenroth"},"district":{"key":"245","name":"Verwaltungskreis Emmental"},"canton":{"key":"2","code":"BE","name":"Bern / Berne"},"status":"Real"},{"key":"10060291","name":"Meibach","postalCode":"3465","locality":"Dürrenroth","commune":{"key":"952","name":"Dürrenroth","shortName":"Dürrenroth"},"district":{"key":"245","name":"Verwaltungskreis Emmental"},"canton":{"key":"2","code":"BE","name":"Bern / Berne"},"status":"Real"},{"key":"10187681","name":"Mühlehof","postalCode":"3465","locality":"Dürrenroth","commune":{"key":"952","name":"Dürrenroth","shortName":"Dürrenroth"},"district":{"key":"245","name":"Verwaltungskreis Emmental"},"canton":{"key":"2","code":"BE","name":"Bern / Berne"},"status":"Real"},{"key":"10060292","name":"Müli","postalCode":"3465","locality":"Dürrenroth","commune":{"key":"952","name":"Dürrenroth","shortName":"Dürrenroth"},"district":{"key":"245","name":"Verwaltungskreis Emmental"},"canton":{"key":"2","code":"BE","name":"Bern / Berne"},"status":"Real"},{"key":"10189616","name":"Müsle","postalCode":"3465","locality":"Dürrenroth","commune":{"key":"952","name":"Dürrenroth","shortName":"Dürrenroth"},"district":{"key":"245","name":"Verwaltungskreis Emmental"},"canton":{"key":"2","code":"BE","name":"Bern / Berne"},"status":"Real"},{"key":"10188945","name":"Neuhus","postalCode":"3465","locality":"Dürrenroth","commune":{"key":"952","name":"Dürrenroth","shortName":"Dürrenroth"},"district":{"key":"245","name":"Verwaltungskreis Emmental"},"canton":{"key":"2","code":"BE","name":"Bern / Berne"},"status":"Real"},{"key":"10060293","name":"Oberwald","postalCode":"3465","locality":"Dürrenroth","commune":{"key":"952","name":"Dürrenroth","shortName":"Dürrenroth"},"district":{"key":"245","name":"Verwaltungskreis Emmental"},"canton":{"key":"2","code":"BE","name":"Bern / Berne"},"status":"Real"},{"key":"10014356","name":"Oberwaldstrasse","postalCode":"3465","locality":"Dürrenroth","commune":{"key":"952","name":"Dürrenroth","shortName":"Dürrenroth"},"district":{"key":"245","name":"Verwaltungskreis Emmental"},"canton":{"key":"2","code":"BE","name":"Bern / Berne"},"status":"Real"},{"key":"10080965","name":"Pfaffegrabe","postalCode":"3465","locality":"Dürrenroth","commune":{"key":"952","name":"Dürrenroth","shortName":"Dürrenroth"},"district":{"key":"245","name":"Verwaltungskreis Emmental"},"canton":{"key":"2","code":"BE","name":"Bern / Berne"},"status":"Real"},{"key":"10001930","name":"Restaurant Bahnhof","postalCode":"3465","locality":"Dürrenroth","commune":{"key":"952","name":"Dürrenroth","shortName":"Dürrenroth"},"district":{"key":"245","name":"Verwaltungskreis Emmental"},"canton":{"key":"2","code":"BE","name":"Bern / Berne"},"status":"Real"},{"key":"10178979","name":"Rotberg","postalCode":"3465","locality":"Dürrenroth","commune":{"key":"952","name":"Dürrenroth","shortName":"Dürrenroth"},"district":{"key":"245","name":"Verwaltungskreis Emmental"},"canton":{"key":"2","code":"BE","name":"Bern / Berne"},"status":"Real"},{"key":"10217989","name":"Samirot","postalCode":"3465","locality":"Dürrenroth","commune":{"key":"952","name":"Dürrenroth","shortName":"Dürrenroth"},"district":{"key":"245","name":"Verwaltungskreis Emmental"},"canton":{"key":"2","code":"BE","name":"Bern / Berne"},"status":"Real"},{"key":"10014357","name":"Schnydersgrabe","postalCode":"3465","locality":"Dürrenroth","commune":{"key":"952","name":"Dürrenroth","shortName":"Dürrenroth"},"district":{"key":"245","name":"Verwaltungskreis Emmental"},"canton":{"key":"2","code":"BE","name":"Bern / Berne"},"status":"Real"},{"key":"10154294","name":"Schulhausstrasse","postalCode":"3465","locality":"Dürrenroth","commune":{"key":"952","name":"Dürrenroth","shortName":"Dürrenroth"},"district":{"key":"245","name":"Verwaltungskreis Emmental"},"canton":{"key":"2","code":"BE","name":"Bern / Berne"},"status":"Real"},{"key":"10014358","name":"Sparhof","postalCode":"3465","locality":"Dürrenroth","commune":{"key":"952","name":"Dürrenroth","shortName":"Dürrenroth"},"district":{"key":"245","name":"Verwaltungskreis Emmental"},"canton":{"key":"2","code":"BE","name":"Bern / Berne"},"status":"Real"},{"key":"10186146","name":"Sparloch","postalCode":"3465","locality":"Dürrenroth","commune":{"key":"952","name":"Dürrenroth","shortName":"Dürrenroth"},"district":{"key":"245","name":"Verwaltungskreis Emmental"},"canton":{"key":"2","code":"BE","name":"Bern / Berne"},"status":"Real"},{"key":"10014359","name":"Tschättebach","postalCode":"3465","locality":"Dürrenroth","commune":{"key":"952","name":"Dürrenroth","shortName":"Dürrenroth"},"district":{"key":"245","name":"Verwaltungskreis Emmental"},"canton":{"key":"2","code":"BE","name":"Bern / Berne"},"status":"Real"},{"key":"10157405","name":"Underi Müsle","postalCode":"3465","locality":"Dürrenroth","commune":{"key":"952","name":"Dürrenroth","shortName":"Dürrenroth"},"district":{"key":"245","name":"Verwaltungskreis Emmental"},"canton":{"key":"2","code":"BE","name":"Bern / Berne"},"status":"Real"},{"key":"10125030","name":"Untergrat","postalCode":"3465","locality":"Dürrenroth","commune":{"key":"952","name":"Dürrenroth","shortName":"Dürrenroth"},"district":{"key":"245","name":"Verwaltungskreis Emmental"},"canton":{"key":"2","code":"BE","name":"Bern / Berne"},"status":"Real"},{"key":"10217991","name":"Vogti","postalCode":"3465","locality":"Dürrenroth","commune":{"key":"952","name":"Dürrenroth","shortName":"Dürrenroth"},"district":{"key":"245","name":"Verwaltungskreis Emmental"},"canton":{"key":"2","code":"BE","name":"Bern / Berne"},"status":"Real"},{"key":"10189617","name":"Waldeck","postalCode":"3465","locality":"Dürrenroth","commune":{"key":"952","name":"Dürrenroth","shortName":"Dürrenroth"},"district":{"key":"245","name":"Verwaltungskreis Emmental"},"canton":{"key":"2","code":"BE","name":"Bern / Berne"},"status":"Real"},{"key":"10060295","name":"Waldheim","postalCode":"3465","locality":"Dürrenroth","commune":{"key":"952","name":"Dürrenroth","shortName":"Dürrenroth"},"district":{"key":"245","name":"Verwaltungskreis Emmental"},"canton":{"key":"2","code":"BE","name":"Bern / Berne"},"status":"Real"},{"key":"10186510","name":"Waldhus","postalCode":"3465","locality":"Dürrenroth","commune":{"key":"952","name":"Dürrenroth","shortName":"Dürrenroth"},"district":{"key":"245","name":"Verwaltungskreis Emmental"},"canton":{"key":"2","code":"BE","name":"Bern / Berne"},"status":"Real"},{"key":"10014360","name":"Wannetal","postalCode":"3465","locality":"Dürrenroth","commune":{"key":"952","name":"Dürrenroth","shortName":"Dürrenroth"},"district":{"key":"245","name":"Verwaltungskreis Emmental"},"canton":{"key":"2","code":"BE","name":"Bern / Berne"},"status":"Real"},{"key":"10217994","name":"Weid","postalCode":"3465","locality":"Dürrenroth","commune":{"key":"952","name":"Dürrenroth","shortName":"Dürrenroth"},"district":{"key":"245","name":"Verwaltungskreis Emmental"},"canton":{"key":"2","code":"BE","name":"Bern / Berne"},"status":"Real"},{"key":"10060296","name":"Wolferdinge","postalCode":"3465","locality":"Dürrenroth","commune":{"key":"952","name":"Dürrenroth","shortName":"Dürrenroth"},"district":{"key":"245","name":"Verwaltungskreis Emmental"},"canton":{"key":"2","code":"BE","name":"Bern / Berne"},"status":"Real"},]