[{"name":"Alte Koppel","postalCode":"24601","locality":"Ruhwinkel","municipality":{"key":"01057069","name":"Ruhwinkel","type":"Kreisangehörige_Gemeinde"},"district":{"key":"01057","name":"Plön","type":"Kreis"},"federalState":{"key":"01","name":"Schleswig-Holstein"}},{"name":"Alter Bahndamm","postalCode":"24601","locality":"Ruhwinkel","municipality":{"key":"01057069","name":"Ruhwinkel","type":"Kreisangehörige_Gemeinde"},"district":{"key":"01057","name":"Plön","type":"Kreis"},"federalState":{"key":"01","name":"Schleswig-Holstein"}},{"name":"Am Dörnsberg","postalCode":"24601","locality":"Ruhwinkel","municipality":{"key":"01057069","name":"Ruhwinkel","type":"Kreisangehörige_Gemeinde"},"district":{"key":"01057","name":"Plön","type":"Kreis"},"federalState":{"key":"01","name":"Schleswig-Holstein"}},{"name":"Am Teich","postalCode":"24601","locality":"Ruhwinkel","municipality":{"key":"01057069","name":"Ruhwinkel","type":"Kreisangehörige_Gemeinde"},"district":{"key":"01057","name":"Plön","type":"Kreis"},"federalState":{"key":"01","name":"Schleswig-Holstein"}},{"name":"Baschenberg","postalCode":"24601","locality":"Ruhwinkel","municipality":{"key":"01057069","name":"Ruhwinkel","type":"Kreisangehörige_Gemeinde"},"district":{"key":"01057","name":"Plön","type":"Kreis"},"federalState":{"key":"01","name":"Schleswig-Holstein"}},{"name":"Bekskate","postalCode":"24601","locality":"Ruhwinkel","municipality":{"key":"01057069","name":"Ruhwinkel","type":"Kreisangehörige_Gemeinde"},"district":{"key":"01057","name":"Plön","type":"Kreis"},"federalState":{"key":"01","name":"Schleswig-Holstein"}},{"name":"Bockhorner Allee","postalCode":"24601","locality":"Ruhwinkel","municipality":{"key":"01057069","name":"Ruhwinkel","type":"Kreisangehörige_Gemeinde"},"district":{"key":"01057","name":"Plön","type":"Kreis"},"federalState":{"key":"01","name":"Schleswig-Holstein"}},{"name":"Bockhorner Weg","postalCode":"24601","locality":"Ruhwinkel","municipality":{"key":"01057069","name":"Ruhwinkel","type":"Kreisangehörige_Gemeinde"},"district":{"key":"01057","name":"Plön","type":"Kreis"},"federalState":{"key":"01","name":"Schleswig-Holstein"}},{"name":"Bornhöveder Landstr.","postalCode":"24601","locality":"Ruhwinkel","municipality":{"key":"01057069","name":"Ruhwinkel","type":"Kreisangehörige_Gemeinde"},"district":{"key":"01057","name":"Plön","type":"Kreis"},"federalState":{"key":"01","name":"Schleswig-Holstein"}},{"name":"Charles-Roß-Weg","postalCode":"24601","locality":"Ruhwinkel","municipality":{"key":"01057069","name":"Ruhwinkel","type":"Kreisangehörige_Gemeinde"},"district":{"key":"01057","name":"Plön","type":"Kreis"},"federalState":{"key":"01","name":"Schleswig-Holstein"}},{"name":"Dorfstr.","postalCode":"24601","locality":"Ruhwinkel","municipality":{"key":"01057069","name":"Ruhwinkel","type":"Kreisangehörige_Gemeinde"},"district":{"key":"01057","name":"Plön","type":"Kreis"},"federalState":{"key":"01","name":"Schleswig-Holstein"}},{"name":"Eduard-Wulff-Str.","postalCode":"24601","locality":"Ruhwinkel","municipality":{"key":"01057069","name":"Ruhwinkel","type":"Kreisangehörige_Gemeinde"},"district":{"key":"01057","name":"Plön","type":"Kreis"},"federalState":{"key":"01","name":"Schleswig-Holstein"}},{"name":"Eichholz","postalCode":"24601","locality":"Ruhwinkel","municipality":{"key":"01057069","name":"Ruhwinkel","type":"Kreisangehörige_Gemeinde"},"district":{"key":"01057","name":"Plön","type":"Kreis"},"federalState":{"key":"01","name":"Schleswig-Holstein"}},{"name":"Fegetasche","postalCode":"24306","locality":"Plön","municipality":{"key":"01057057","name":"Plön, Stadt","type":"Stadt"},"district":{"key":"01057","name":"Plön","type":"Kreis"},"federalState":{"key":"01","name":"Schleswig-Holstein"}},{"name":"Feldweg am Schöhsee","postalCode":"24306","locality":"Plön","municipality":{"key":"01057057","name":"Plön, Stadt","type":"Stadt"},"district":{"key":"01057","name":"Plön","type":"Kreis"},"federalState":{"key":"01","name":"Schleswig-Holstein"}},{"name":"Friedrich-Lamp-Str.","postalCode":"24306","locality":"Plön","municipality":{"key":"01057057","name":"Plön, Stadt","type":"Stadt"},"district":{"key":"01057","name":"Plön","type":"Kreis"},"federalState":{"key":"01","name":"Schleswig-Holstein"}},{"name":"Friedrichstr.","postalCode":"24306","locality":"Plön","municipality":{"key":"01057057","name":"Plön, Stadt","type":"Stadt"},"district":{"key":"01057","name":"Plön","type":"Kreis"},"federalState":{"key":"01","name":"Schleswig-Holstein"}},{"name":"Fünf-Seen-Allee","postalCode":"24306","locality":"Plön","municipality":{"key":"01057057","name":"Plön, Stadt","type":"Stadt"},"district":{"key":"01057","name":"Plön","type":"Kreis"},"federalState":{"key":"01","name":"Schleswig-Holstein"}},{"name":"Gartenweg","postalCode":"24601","locality":"Ruhwinkel","municipality":{"key":"01057069","name":"Ruhwinkel","type":"Kreisangehörige_Gemeinde"},"district":{"key":"01057","name":"Plön","type":"Kreis"},"federalState":{"key":"01","name":"Schleswig-Holstein"}},{"name":"Hauptstr.","postalCode":"24601","locality":"Ruhwinkel","municipality":{"key":"01057069","name":"Ruhwinkel","type":"Kreisangehörige_Gemeinde"},"district":{"key":"01057","name":"Plön","type":"Kreis"},"federalState":{"key":"01","name":"Schleswig-Holstein"}},{"name":"Iven-Kruse-Weg","postalCode":"24601","locality":"Ruhwinkel","municipality":{"key":"01057069","name":"Ruhwinkel","type":"Kreisangehörige_Gemeinde"},"district":{"key":"01057","name":"Plön","type":"Kreis"},"federalState":{"key":"01","name":"Schleswig-Holstein"}},{"name":"Johannisstr.","postalCode":"24306","locality":"Plön","municipality":{"key":"01057057","name":"Plön, Stadt","type":"Stadt"},"district":{"key":"01057","name":"Plön","type":"Kreis"},"federalState":{"key":"01","name":"Schleswig-Holstein"}},{"name":"Jörg-Steinbach-Ring","postalCode":"24306","locality":"Plön","municipality":{"key":"01057057","name":"Plön, Stadt","type":"Stadt"},"district":{"key":"01057","name":"Plön","type":"Kreis"},"federalState":{"key":"01","name":"Schleswig-Holstein"}},{"name":"Kurt-Ohlsen-Weg","postalCode":"24601","locality":"Ruhwinkel","municipality":{"key":"01057069","name":"Ruhwinkel","type":"Kreisangehörige_Gemeinde"},"district":{"key":"01057","name":"Plön","type":"Kreis"},"federalState":{"key":"01","name":"Schleswig-Holstein"}},{"name":"Lindenallee","postalCode":"24601","locality":"Ruhwinkel","municipality":{"key":"01057069","name":"Ruhwinkel","type":"Kreisangehörige_Gemeinde"},"district":{"key":"01057","name":"Plön","type":"Kreis"},"federalState":{"key":"01","name":"Schleswig-Holstein"}},{"name":"Maria-Brandt-Str.","postalCode":"24306","locality":"Plön","municipality":{"key":"01057057","name":"Plön, Stadt","type":"Stadt"},"district":{"key":"01057","name":"Plön","type":"Kreis"},"federalState":{"key":"01","name":"Schleswig-Holstein"}},{"name":"Markt","postalCode":"24306","locality":"Plön","municipality":{"key":"01057057","name":"Plön, Stadt","type":"Stadt"},"district":{"key":"01057","name":"Plön","type":"Kreis"},"federalState":{"key":"01","name":"Schleswig-Holstein"}},{"name":"Marktbrücke","postalCode":"24306","locality":"Plön","municipality":{"key":"01057057","name":"Plön, Stadt","type":"Stadt"},"district":{"key":"01057","name":"Plön","type":"Kreis"},"federalState":{"key":"01","name":"Schleswig-Holstein"}},{"name":"Meisenweg","postalCode":"24306","locality":"Plön","municipality":{"key":"01057057","name":"Plön, Stadt","type":"Stadt"},"district":{"key":"01057","name":"Plön","type":"Kreis"},"federalState":{"key":"01","name":"Schleswig-Holstein"}},{"name":"Memeler Str.","postalCode":"24306","locality":"Plön","municipality":{"key":"01057057","name":"Plön, Stadt","type":"Stadt"},"district":{"key":"01057","name":"Plön","type":"Kreis"},"federalState":{"key":"01","name":"Schleswig-Holstein"}},{"name":"Oberer Rathsteichweg","postalCode":"24306","locality":"Plön","municipality":{"key":"01057057","name":"Plön, Stadt","type":"Stadt"},"district":{"key":"01057","name":"Plön","type":"Kreis"},"federalState":{"key":"01","name":"Schleswig-Holstein"}},{"name":"Osterterp","postalCode":"24306","locality":"Plön","municipality":{"key":"01057057","name":"Plön, Stadt","type":"Stadt"},"district":{"key":"01057","name":"Plön","type":"Kreis"},"federalState":{"key":"01","name":"Schleswig-Holstein"}},{"name":"Parkstr.","postalCode":"24306","locality":"Plön","municipality":{"key":"01057057","name":"Plön, Stadt","type":"Stadt"},"district":{"key":"01057","name":"Plön","type":"Kreis"},"federalState":{"key":"01","name":"Schleswig-Holstein"}},{"name":"Parnaßweg","postalCode":"24306","locality":"Plön","municipality":{"key":"01057057","name":"Plön, Stadt","type":"Stadt"},"district":{"key":"01057","name":"Plön","type":"Kreis"},"federalState":{"key":"01","name":"Schleswig-Holstein"}},{"name":"Plauer Weg","postalCode":"24306","locality":"Plön","municipality":{"key":"01057057","name":"Plön, Stadt","type":"Stadt"},"district":{"key":"01057","name":"Plön","type":"Kreis"},"federalState":{"key":"01","name":"Schleswig-Holstein"}},{"name":"Pommernweg","postalCode":"24306","locality":"Plön","municipality":{"key":"01057057","name":"Plön, Stadt","type":"Stadt"},"district":{"key":"01057","name":"Plön","type":"Kreis"},"federalState":{"key":"01","name":"Schleswig-Holstein"}},{"name":"Prinzeninsel","postalCode":"24306","locality":"Plön","municipality":{"key":"01057057","name":"Plön, Stadt","type":"Stadt"},"district":{"key":"01057","name":"Plön","type":"Kreis"},"federalState":{"key":"01","name":"Schleswig-Holstein"}},{"name":"Prinzenstr.","postalCode":"24306","locality":"Plön","municipality":{"key":"01057057","name":"Plön, Stadt","type":"Stadt"},"district":{"key":"01057","name":"Plön","type":"Kreis"},"federalState":{"key":"01","name":"Schleswig-Holstein"}},{"name":"Rüderkoppel","postalCode":"24601","locality":"Ruhwinkel","municipality":{"key":"01057069","name":"Ruhwinkel","type":"Kreisangehörige_Gemeinde"},"district":{"key":"01057","name":"Plön","type":"Kreis"},"federalState":{"key":"01","name":"Schleswig-Holstein"}},{"name":"Ruhwinkler Str.","postalCode":"24601","locality":"Ruhwinkel","municipality":{"key":"01057069","name":"Ruhwinkel","type":"Kreisangehörige_Gemeinde"},"district":{"key":"01057","name":"Plön","type":"Kreis"},"federalState":{"key":"01","name":"Schleswig-Holstein"}},{"name":"Sandskoppel","postalCode":"24601","locality":"Ruhwinkel","municipality":{"key":"01057069","name":"Ruhwinkel","type":"Kreisangehörige_Gemeinde"},"district":{"key":"01057","name":"Plön","type":"Kreis"},"federalState":{"key":"01","name":"Schleswig-Holstein"}},{"name":"Schulweg","postalCode":"24601","locality":"Ruhwinkel","municipality":{"key":"01057069","name":"Ruhwinkel","type":"Kreisangehörige_Gemeinde"},"district":{"key":"01057","name":"Plön","type":"Kreis"},"federalState":{"key":"01","name":"Schleswig-Holstein"}},{"name":"Tanneneck","postalCode":"24601","locality":"Ruhwinkel","municipality":{"key":"01057069","name":"Ruhwinkel","type":"Kreisangehörige_Gemeinde"},"district":{"key":"01057","name":"Plön","type":"Kreis"},"federalState":{"key":"01","name":"Schleswig-Holstein"}},{"name":"Ulmenstr.","postalCode":"24306","locality":"Plön","municipality":{"key":"01057057","name":"Plön, Stadt","type":"Stadt"},"district":{"key":"01057","name":"Plön","type":"Kreis"},"federalState":{"key":"01","name":"Schleswig-Holstein"}},{"name":"Unterer Rathsteichweg","postalCode":"24306","locality":"Plön","municipality":{"key":"01057057","name":"Plön, Stadt","type":"Stadt"},"district":{"key":"01057","name":"Plön","type":"Kreis"},"federalState":{"key":"01","name":"Schleswig-Holstein"}},{"name":"Vier","postalCode":"24601","locality":"Ruhwinkel","municipality":{"key":"01057069","name":"Ruhwinkel","type":"Kreisangehörige_Gemeinde"},"district":{"key":"01057","name":"Plön","type":"Kreis"},"federalState":{"key":"01","name":"Schleswig-Holstein"}},{"name":"Waldweg","postalCode":"24601","locality":"Ruhwinkel","municipality":{"key":"01057069","name":"Ruhwinkel","type":"Kreisangehörige_Gemeinde"},"district":{"key":"01057","name":"Plön","type":"Kreis"},"federalState":{"key":"01","name":"Schleswig-Holstein"}},{"name":"Zum Speicher","postalCode":"24601","locality":"Ruhwinkel","municipality":{"key":"01057069","name":"Ruhwinkel","type":"Kreisangehörige_Gemeinde"},"district":{"key":"01057","name":"Plön","type":"Kreis"},"federalState":{"key":"01","name":"Schleswig-Holstein"}},{"name":"Ölmühlenallee","postalCode":"24306","locality":"Plön","municipality":{"key":"01057057","name":"Plön, Stadt","type":"Stadt"},"district":{"key":"01057","name":"Plön","type":"Kreis"},"federalState":{"key":"01","name":"Schleswig-Holstein"}},{"name":"Övelgönne","postalCode":"24306","locality":"Plön","municipality":{"key":"01057057","name":"Plön, Stadt","type":"Stadt"},"district":{"key":"01057","name":"Plön","type":"Kreis"},"federalState":{"key":"01","name":"Schleswig-Holstein"}},]