[{"key":"10123785","name":"Ai Campìtt","postalCode":"6535","locality":"Roveredo GR","commune":{"key":"3834","name":"Roveredo (GR)","shortName":"Roveredo (GR)"},"district":{"key":"1847","name":"Region Moesa"},"canton":{"key":"18","code":"GR","name":"Graubünden / Grigioni / Grischun"},"status":"Real"},{"key":"10185551","name":"Ai Mondàn","postalCode":"6535","locality":"Roveredo GR","commune":{"key":"3834","name":"Roveredo (GR)","shortName":"Roveredo (GR)"},"district":{"key":"1847","name":"Region Moesa"},"canton":{"key":"18","code":"GR","name":"Graubünden / Grigioni / Grischun"},"status":"Real"},{"key":"10216087","name":"Ai Mulín","postalCode":"6535","locality":"Roveredo GR","commune":{"key":"3834","name":"Roveredo (GR)","shortName":"Roveredo (GR)"},"district":{"key":"1847","name":"Region Moesa"},"canton":{"key":"18","code":"GR","name":"Graubünden / Grigioni / Grischun"},"status":"Real"},{"key":"10216091","name":"Ai Rógg","postalCode":"6535","locality":"Roveredo GR","commune":{"key":"3834","name":"Roveredo (GR)","shortName":"Roveredo (GR)"},"district":{"key":"1847","name":"Region Moesa"},"canton":{"key":"18","code":"GR","name":"Graubünden / Grigioni / Grischun"},"status":"Real"},{"key":"10035765","name":"Ai Tècc","postalCode":"6535","locality":"Roveredo GR","commune":{"key":"3834","name":"Roveredo (GR)","shortName":"Roveredo (GR)"},"district":{"key":"1847","name":"Region Moesa"},"canton":{"key":"18","code":"GR","name":"Graubünden / Grigioni / Grischun"},"status":"Real"},{"key":"10243665","name":"Ai Tècc de Véra","postalCode":"6535","locality":"Roveredo GR","commune":{"key":"3834","name":"Roveredo (GR)","shortName":"Roveredo (GR)"},"district":{"key":"1847","name":"Region Moesa"},"canton":{"key":"18","code":"GR","name":"Graubünden / Grigioni / Grischun"},"status":"Real"},{"key":"10259555","name":"Ai Tri Pilastri","postalCode":"6535","locality":"Roveredo GR","commune":{"key":"3834","name":"Roveredo (GR)","shortName":"Roveredo (GR)"},"district":{"key":"1847","name":"Region Moesa"},"canton":{"key":"18","code":"GR","name":"Graubünden / Grigioni / Grischun"},"status":"Real"},{"key":"10078145","name":"A la Cioldìna","postalCode":"6535","locality":"Roveredo GR","commune":{"key":"3834","name":"Roveredo (GR)","shortName":"Roveredo (GR)"},"district":{"key":"1847","name":"Region Moesa"},"canton":{"key":"18","code":"GR","name":"Graubünden / Grigioni / Grischun"},"status":"Real"},{"key":"10035764","name":"A la Mògina","postalCode":"6535","locality":"Roveredo GR","commune":{"key":"3834","name":"Roveredo (GR)","shortName":"Roveredo (GR)"},"district":{"key":"1847","name":"Region Moesa"},"canton":{"key":"18","code":"GR","name":"Graubünden / Grigioni / Grischun"},"status":"Real"},{"key":"10216103","name":"Al Campsànt","postalCode":"6535","locality":"Roveredo GR","commune":{"key":"3834","name":"Roveredo (GR)","shortName":"Roveredo (GR)"},"district":{"key":"1847","name":"Region Moesa"},"canton":{"key":"18","code":"GR","name":"Graubünden / Grigioni / Grischun"},"status":"Real"},{"key":"10216107","name":"Al Giardinètt","postalCode":"6535","locality":"Roveredo GR","commune":{"key":"3834","name":"Roveredo (GR)","shortName":"Roveredo (GR)"},"district":{"key":"1847","name":"Region Moesa"},"canton":{"key":"18","code":"GR","name":"Graubünden / Grigioni / Grischun"},"status":"Real"},{"key":"10051452","name":"Al Paltàn","postalCode":"6535","locality":"Roveredo GR","commune":{"key":"3834","name":"Roveredo (GR)","shortName":"Roveredo (GR)"},"district":{"key":"1847","name":"Region Moesa"},"canton":{"key":"18","code":"GR","name":"Graubünden / Grigioni / Grischun"},"status":"Real"},{"key":"10250468","name":"Al Ram","postalCode":"6535","locality":"Roveredo GR","commune":{"key":"3834","name":"Roveredo (GR)","shortName":"Roveredo (GR)"},"district":{"key":"1847","name":"Region Moesa"},"canton":{"key":"18","code":"GR","name":"Graubünden / Grigioni / Grischun"},"status":"Real"},{"key":"10174861","name":"Al Sabión","postalCode":"6535","locality":"Roveredo GR","commune":{"key":"3834","name":"Roveredo (GR)","shortName":"Roveredo (GR)"},"district":{"key":"1847","name":"Region Moesa"},"canton":{"key":"18","code":"GR","name":"Graubünden / Grigioni / Grischun"},"status":"Real"},{"key":"10095480","name":"Al Sànt","postalCode":"6535","locality":"Roveredo GR","commune":{"key":"3834","name":"Roveredo (GR)","shortName":"Roveredo (GR)"},"district":{"key":"1847","name":"Region Moesa"},"canton":{"key":"18","code":"GR","name":"Graubünden / Grigioni / Grischun"},"status":"Real"},{"key":"10174866","name":"Al Stalón","postalCode":"6535","locality":"Roveredo GR","commune":{"key":"3834","name":"Roveredo (GR)","shortName":"Roveredo (GR)"},"district":{"key":"1847","name":"Region Moesa"},"canton":{"key":"18","code":"GR","name":"Graubünden / Grigioni / Grischun"},"status":"Real"},{"key":"10216114","name":"Al Tòrcc","postalCode":"6535","locality":"Roveredo GR","commune":{"key":"3834","name":"Roveredo (GR)","shortName":"Roveredo (GR)"},"district":{"key":"1847","name":"Region Moesa"},"canton":{"key":"18","code":"GR","name":"Graubünden / Grigioni / Grischun"},"status":"Real"},{"key":"10038788","name":"Al Triulzi","postalCode":"6535","locality":"Roveredo GR","commune":{"key":"3834","name":"Roveredo (GR)","shortName":"Roveredo (GR)"},"district":{"key":"1847","name":"Region Moesa"},"canton":{"key":"18","code":"GR","name":"Graubünden / Grigioni / Grischun"},"status":"Real"},{"key":"10038763","name":"Al Zèc","postalCode":"6535","locality":"Roveredo GR","commune":{"key":"3834","name":"Roveredo (GR)","shortName":"Roveredo (GR)"},"district":{"key":"1847","name":"Region Moesa"},"canton":{"key":"18","code":"GR","name":"Graubünden / Grigioni / Grischun"},"status":"Real"},{"key":"10216118","name":"Bachetàri","postalCode":"6535","locality":"Roveredo GR","commune":{"key":"3834","name":"Roveredo (GR)","shortName":"Roveredo (GR)"},"district":{"key":"1847","name":"Region Moesa"},"canton":{"key":"18","code":"GR","name":"Graubünden / Grigioni / Grischun"},"status":"Real"},{"key":"10038767","name":"Belécc","postalCode":"6535","locality":"Roveredo GR","commune":{"key":"3834","name":"Roveredo (GR)","shortName":"Roveredo (GR)"},"district":{"key":"1847","name":"Region Moesa"},"canton":{"key":"18","code":"GR","name":"Graubünden / Grigioni / Grischun"},"status":"Real"},{"key":"10038770","name":"Camosàtt","postalCode":"6535","locality":"Roveredo GR","commune":{"key":"3834","name":"Roveredo (GR)","shortName":"Roveredo (GR)"},"district":{"key":"1847","name":"Region Moesa"},"canton":{"key":"18","code":"GR","name":"Graubünden / Grigioni / Grischun"},"status":"Real"},{"key":"10216122","name":"Campagnòla","postalCode":"6535","locality":"Roveredo GR","commune":{"key":"3834","name":"Roveredo (GR)","shortName":"Roveredo (GR)"},"district":{"key":"1847","name":"Region Moesa"},"canton":{"key":"18","code":"GR","name":"Graubünden / Grigioni / Grischun"},"status":"Real"},{"key":"10216125","name":"Caraa de Befén","postalCode":"6535","locality":"Roveredo GR","commune":{"key":"3834","name":"Roveredo (GR)","shortName":"Roveredo (GR)"},"district":{"key":"1847","name":"Region Moesa"},"canton":{"key":"18","code":"GR","name":"Graubünden / Grigioni / Grischun"},"status":"Real"},{"key":"10216129","name":"Caraa de Càfa","postalCode":"6535","locality":"Roveredo GR","commune":{"key":"3834","name":"Roveredo (GR)","shortName":"Roveredo (GR)"},"district":{"key":"1847","name":"Region Moesa"},"canton":{"key":"18","code":"GR","name":"Graubünden / Grigioni / Grischun"},"status":"Real"},{"key":"10216134","name":"Caraa de Campàgna","postalCode":"6535","locality":"Roveredo GR","commune":{"key":"3834","name":"Roveredo (GR)","shortName":"Roveredo (GR)"},"district":{"key":"1847","name":"Region Moesa"},"canton":{"key":"18","code":"GR","name":"Graubünden / Grigioni / Grischun"},"status":"Real"},{"key":"10216140","name":"Caraa de Guèra","postalCode":"6535","locality":"Roveredo GR","commune":{"key":"3834","name":"Roveredo (GR)","shortName":"Roveredo (GR)"},"district":{"key":"1847","name":"Region Moesa"},"canton":{"key":"18","code":"GR","name":"Graubünden / Grigioni / Grischun"},"status":"Real"},{"key":"10216160","name":"Caraa del Mai","postalCode":"6535","locality":"Roveredo GR","commune":{"key":"3834","name":"Roveredo (GR)","shortName":"Roveredo (GR)"},"district":{"key":"1847","name":"Region Moesa"},"canton":{"key":"18","code":"GR","name":"Graubünden / Grigioni / Grischun"},"status":"Real"},{"key":"10216142","name":"Caraa de Neer","postalCode":"6535","locality":"Roveredo GR","commune":{"key":"3834","name":"Roveredo (GR)","shortName":"Roveredo (GR)"},"district":{"key":"1847","name":"Region Moesa"},"canton":{"key":"18","code":"GR","name":"Graubünden / Grigioni / Grischun"},"status":"Real"},{"key":"10216147","name":"Caraa de San Fedee","postalCode":"6535","locality":"Roveredo GR","commune":{"key":"3834","name":"Roveredo (GR)","shortName":"Roveredo (GR)"},"district":{"key":"1847","name":"Region Moesa"},"canton":{"key":"18","code":"GR","name":"Graubünden / Grigioni / Grischun"},"status":"Real"},{"key":"10216152","name":"Caraa de San Giòrg","postalCode":"6535","locality":"Roveredo GR","commune":{"key":"3834","name":"Roveredo (GR)","shortName":"Roveredo (GR)"},"district":{"key":"1847","name":"Region Moesa"},"canton":{"key":"18","code":"GR","name":"Graubünden / Grigioni / Grischun"},"status":"Real"},{"key":"10216156","name":"Caraa de Tovéda","postalCode":"6535","locality":"Roveredo GR","commune":{"key":"3834","name":"Roveredo (GR)","shortName":"Roveredo (GR)"},"district":{"key":"1847","name":"Region Moesa"},"canton":{"key":"18","code":"GR","name":"Graubünden / Grigioni / Grischun"},"status":"Real"},{"key":"10216164","name":"Caraa di Cavài","postalCode":"6535","locality":"Roveredo GR","commune":{"key":"3834","name":"Roveredo (GR)","shortName":"Roveredo (GR)"},"district":{"key":"1847","name":"Region Moesa"},"canton":{"key":"18","code":"GR","name":"Graubünden / Grigioni / Grischun"},"status":"Real"},{"key":"10216168","name":"Caraa di Zechin","postalCode":"6535","locality":"Roveredo GR","commune":{"key":"3834","name":"Roveredo (GR)","shortName":"Roveredo (GR)"},"district":{"key":"1847","name":"Region Moesa"},"canton":{"key":"18","code":"GR","name":"Graubünden / Grigioni / Grischun"},"status":"Real"},{"key":"10216170","name":"Caradèla","postalCode":"6535","locality":"Roveredo GR","commune":{"key":"3834","name":"Roveredo (GR)","shortName":"Roveredo (GR)"},"district":{"key":"1847","name":"Region Moesa"},"canton":{"key":"18","code":"GR","name":"Graubünden / Grigioni / Grischun"},"status":"Real"},{"key":"10185550","name":"Carasoo","postalCode":"6535","locality":"Roveredo GR","commune":{"key":"3834","name":"Roveredo (GR)","shortName":"Roveredo (GR)"},"district":{"key":"1847","name":"Region Moesa"},"canton":{"key":"18","code":"GR","name":"Graubünden / Grigioni / Grischun"},"status":"Real"},{"key":"10216173","name":"Casclàsc alt","postalCode":"6535","locality":"Roveredo GR","commune":{"key":"3834","name":"Roveredo (GR)","shortName":"Roveredo (GR)"},"district":{"key":"1847","name":"Region Moesa"},"canton":{"key":"18","code":"GR","name":"Graubünden / Grigioni / Grischun"},"status":"Real"},{"key":"10095484","name":"Cornaa","postalCode":"6535","locality":"Roveredo GR","commune":{"key":"3834","name":"Roveredo (GR)","shortName":"Roveredo (GR)"},"district":{"key":"1847","name":"Region Moesa"},"canton":{"key":"18","code":"GR","name":"Graubünden / Grigioni / Grischun"},"status":"Real"},{"key":"10216177","name":"De Profundis","postalCode":"6535","locality":"Roveredo GR","commune":{"key":"3834","name":"Roveredo (GR)","shortName":"Roveredo (GR)"},"district":{"key":"1847","name":"Region Moesa"},"canton":{"key":"18","code":"GR","name":"Graubünden / Grigioni / Grischun"},"status":"Real"},{"key":"10216185","name":"Fónd San Fedee","postalCode":"6535","locality":"Roveredo GR","commune":{"key":"3834","name":"Roveredo (GR)","shortName":"Roveredo (GR)"},"district":{"key":"1847","name":"Region Moesa"},"canton":{"key":"18","code":"GR","name":"Graubünden / Grigioni / Grischun"},"status":"Real"},{"key":"10216189","name":"Fontana","postalCode":"6535","locality":"Roveredo GR","commune":{"key":"3834","name":"Roveredo (GR)","shortName":"Roveredo (GR)"},"district":{"key":"1847","name":"Region Moesa"},"canton":{"key":"18","code":"GR","name":"Graubünden / Grigioni / Grischun"},"status":"Real"},{"key":"10038773","name":"Frasconscella","postalCode":"6535","locality":"Roveredo GR","commune":{"key":"3834","name":"Roveredo (GR)","shortName":"Roveredo (GR)"},"district":{"key":"1847","name":"Region Moesa"},"canton":{"key":"18","code":"GR","name":"Graubünden / Grigioni / Grischun"},"status":"Real"},{"key":"10095485","name":"Gardelina","postalCode":"6535","locality":"Roveredo GR","commune":{"key":"3834","name":"Roveredo (GR)","shortName":"Roveredo (GR)"},"district":{"key":"1847","name":"Region Moesa"},"canton":{"key":"18","code":"GR","name":"Graubünden / Grigioni / Grischun"},"status":"Real"},{"key":"10216193","name":"I Cort","postalCode":"6535","locality":"Roveredo GR","commune":{"key":"3834","name":"Roveredo (GR)","shortName":"Roveredo (GR)"},"district":{"key":"1847","name":"Region Moesa"},"canton":{"key":"18","code":"GR","name":"Graubünden / Grigioni / Grischun"},"status":"Real"},{"key":"10216247","name":"In Bel","postalCode":"6535","locality":"Roveredo GR","commune":{"key":"3834","name":"Roveredo (GR)","shortName":"Roveredo (GR)"},"district":{"key":"1847","name":"Region Moesa"},"canton":{"key":"18","code":"GR","name":"Graubünden / Grigioni / Grischun"},"status":"Real"},{"key":"10095483","name":"In Bóla","postalCode":"6535","locality":"Roveredo GR","commune":{"key":"3834","name":"Roveredo (GR)","shortName":"Roveredo (GR)"},"district":{"key":"1847","name":"Region Moesa"},"canton":{"key":"18","code":"GR","name":"Graubünden / Grigioni / Grischun"},"status":"Real"},{"key":"10216251","name":"In Campasc","postalCode":"6535","locality":"Roveredo GR","commune":{"key":"3834","name":"Roveredo (GR)","shortName":"Roveredo (GR)"},"district":{"key":"1847","name":"Region Moesa"},"canton":{"key":"18","code":"GR","name":"Graubünden / Grigioni / Grischun"},"status":"Real"},{"key":"10115157","name":"In Neer","postalCode":"6535","locality":"Roveredo GR","commune":{"key":"3834","name":"Roveredo (GR)","shortName":"Roveredo (GR)"},"district":{"key":"1847","name":"Region Moesa"},"canton":{"key":"18","code":"GR","name":"Graubünden / Grigioni / Grischun"},"status":"Real"},{"key":"10111842","name":"In Riva","postalCode":"6535","locality":"Roveredo GR","commune":{"key":"3834","name":"Roveredo (GR)","shortName":"Roveredo (GR)"},"district":{"key":"1847","name":"Region Moesa"},"canton":{"key":"18","code":"GR","name":"Graubünden / Grigioni / Grischun"},"status":"Real"},{"key":"10038784","name":"In Rugn","postalCode":"6535","locality":"Roveredo GR","commune":{"key":"3834","name":"Roveredo (GR)","shortName":"Roveredo (GR)"},"district":{"key":"1847","name":"Region Moesa"},"canton":{"key":"18","code":"GR","name":"Graubünden / Grigioni / Grischun"},"status":"Real"},{"key":"10259563","name":"La Madonnina","postalCode":"6535","locality":"Roveredo GR","commune":{"key":"3834","name":"Roveredo (GR)","shortName":"Roveredo (GR)"},"district":{"key":"1847","name":"Region Moesa"},"canton":{"key":"18","code":"GR","name":"Graubünden / Grigioni / Grischun"},"status":"Real"},{"key":"10216255","name":"Leventín","postalCode":"6535","locality":"Roveredo GR","commune":{"key":"3834","name":"Roveredo (GR)","shortName":"Roveredo (GR)"},"district":{"key":"1847","name":"Region Moesa"},"canton":{"key":"18","code":"GR","name":"Graubünden / Grigioni / Grischun"},"status":"Real"},{"key":"10259553","name":"Lucc","postalCode":"6535","locality":"Roveredo GR","commune":{"key":"3834","name":"Roveredo (GR)","shortName":"Roveredo (GR)"},"district":{"key":"1847","name":"Region Moesa"},"canton":{"key":"18","code":"GR","name":"Graubünden / Grigioni / Grischun"},"status":"Real"},{"key":"10216260","name":"Marcantón","postalCode":"6535","locality":"Roveredo GR","commune":{"key":"3834","name":"Roveredo (GR)","shortName":"Roveredo (GR)"},"district":{"key":"1847","name":"Region Moesa"},"canton":{"key":"18","code":"GR","name":"Graubünden / Grigioni / Grischun"},"status":"Real"},{"key":"10259572","name":"Nadro","postalCode":"6535","locality":"Roveredo GR","commune":{"key":"3834","name":"Roveredo (GR)","shortName":"Roveredo (GR)"},"district":{"key":"1847","name":"Region Moesa"},"canton":{"key":"18","code":"GR","name":"Graubünden / Grigioni / Grischun"},"status":"Real"},{"key":"10078151","name":"Pegrànda","postalCode":"6535","locality":"Roveredo GR","commune":{"key":"3834","name":"Roveredo (GR)","shortName":"Roveredo (GR)"},"district":{"key":"1847","name":"Region Moesa"},"canton":{"key":"18","code":"GR","name":"Graubünden / Grigioni / Grischun"},"status":"Real"},{"key":"10216270","name":"Piana de Val","postalCode":"6535","locality":"Roveredo GR","commune":{"key":"3834","name":"Roveredo (GR)","shortName":"Roveredo (GR)"},"district":{"key":"1847","name":"Region Moesa"},"canton":{"key":"18","code":"GR","name":"Graubünden / Grigioni / Grischun"},"status":"Real"},{"key":"10123712","name":"Pianèzz","postalCode":"6535","locality":"Roveredo GR","commune":{"key":"3834","name":"Roveredo (GR)","shortName":"Roveredo (GR)"},"district":{"key":"1847","name":"Region Moesa"},"canton":{"key":"18","code":"GR","name":"Graubünden / Grigioni / Grischun"},"status":"Real"},{"key":"10038781","name":"Piaza","postalCode":"6535","locality":"Roveredo GR","commune":{"key":"3834","name":"Roveredo (GR)","shortName":"Roveredo (GR)"},"district":{"key":"1847","name":"Region Moesa"},"canton":{"key":"18","code":"GR","name":"Graubünden / Grigioni / Grischun"},"status":"Real"},{"key":"10216274","name":"Piaza di Magnàn","postalCode":"6535","locality":"Roveredo GR","commune":{"key":"3834","name":"Roveredo (GR)","shortName":"Roveredo (GR)"},"district":{"key":"1847","name":"Region Moesa"},"canton":{"key":"18","code":"GR","name":"Graubünden / Grigioni / Grischun"},"status":"Real"},{"key":"10038782","name":"Piazèta","postalCode":"6535","locality":"Roveredo GR","commune":{"key":"3834","name":"Roveredo (GR)","shortName":"Roveredo (GR)"},"district":{"key":"1847","name":"Region Moesa"},"canton":{"key":"18","code":"GR","name":"Graubünden / Grigioni / Grischun"},"status":"Real"},{"key":"10106594","name":"Prau","postalCode":"6535","locality":"Roveredo GR","commune":{"key":"3834","name":"Roveredo (GR)","shortName":"Roveredo (GR)"},"district":{"key":"1847","name":"Region Moesa"},"canton":{"key":"18","code":"GR","name":"Graubünden / Grigioni / Grischun"},"status":"Real"},{"key":"10216278","name":"Provee","postalCode":"6535","locality":"Roveredo GR","commune":{"key":"3834","name":"Roveredo (GR)","shortName":"Roveredo (GR)"},"district":{"key":"1847","name":"Region Moesa"},"canton":{"key":"18","code":"GR","name":"Graubünden / Grigioni / Grischun"},"status":"Real"},{"key":"10259560","name":"Rescignaga","postalCode":"6535","locality":"Roveredo GR","commune":{"key":"3834","name":"Roveredo (GR)","shortName":"Roveredo (GR)"},"district":{"key":"1847","name":"Region Moesa"},"canton":{"key":"18","code":"GR","name":"Graubünden / Grigioni / Grischun"},"status":"Real"},{"key":"10216282","name":"Riva de Sóra","postalCode":"6535","locality":"Roveredo GR","commune":{"key":"3834","name":"Roveredo (GR)","shortName":"Roveredo (GR)"},"district":{"key":"1847","name":"Region Moesa"},"canton":{"key":"18","code":"GR","name":"Graubünden / Grigioni / Grischun"},"status":"Real"},{"key":"10259568","name":"Rodas","postalCode":"6535","locality":"Roveredo GR","commune":{"key":"3834","name":"Roveredo (GR)","shortName":"Roveredo (GR)"},"district":{"key":"1847","name":"Region Moesa"},"canton":{"key":"18","code":"GR","name":"Graubünden / Grigioni / Grischun"},"status":"Real"},{"key":"10095199","name":"San Fedee","postalCode":"6535","locality":"Roveredo GR","commune":{"key":"3834","name":"Roveredo (GR)","shortName":"Roveredo (GR)"},"district":{"key":"1847","name":"Region Moesa"},"canton":{"key":"18","code":"GR","name":"Graubünden / Grigioni / Grischun"},"status":"Real"},{"key":"10216286","name":"San Roc","postalCode":"6535","locality":"Roveredo GR","commune":{"key":"3834","name":"Roveredo (GR)","shortName":"Roveredo (GR)"},"district":{"key":"1847","name":"Region Moesa"},"canton":{"key":"18","code":"GR","name":"Graubünden / Grigioni / Grischun"},"status":"Real"},{"key":"10216288","name":"San Sebastiàn","postalCode":"6535","locality":"Roveredo GR","commune":{"key":"3834","name":"Roveredo (GR)","shortName":"Roveredo (GR)"},"district":{"key":"1847","name":"Region Moesa"},"canton":{"key":"18","code":"GR","name":"Graubünden / Grigioni / Grischun"},"status":"Real"},{"key":"10095200","name":"Sant'Antoni","postalCode":"6535","locality":"Roveredo GR","commune":{"key":"3834","name":"Roveredo (GR)","shortName":"Roveredo (GR)"},"district":{"key":"1847","name":"Region Moesa"},"canton":{"key":"18","code":"GR","name":"Graubünden / Grigioni / Grischun"},"status":"Real"},{"key":"10259558","name":"Sass Gross","postalCode":"6535","locality":"Roveredo GR","commune":{"key":"3834","name":"Roveredo (GR)","shortName":"Roveredo (GR)"},"district":{"key":"1847","name":"Region Moesa"},"canton":{"key":"18","code":"GR","name":"Graubünden / Grigioni / Grischun"},"status":"Real"},{"key":"10216292","name":"Scalinàda de Lémora","postalCode":"6535","locality":"Roveredo GR","commune":{"key":"3834","name":"Roveredo (GR)","shortName":"Roveredo (GR)"},"district":{"key":"1847","name":"Region Moesa"},"canton":{"key":"18","code":"GR","name":"Graubünden / Grigioni / Grischun"},"status":"Real"},{"key":"10250476","name":"Scalinàda di Scòl","postalCode":"6535","locality":"Roveredo GR","commune":{"key":"3834","name":"Roveredo (GR)","shortName":"Roveredo (GR)"},"district":{"key":"1847","name":"Region Moesa"},"canton":{"key":"18","code":"GR","name":"Graubünden / Grigioni / Grischun"},"status":"Real"},{"key":"10216300","name":"Scima al Mott","postalCode":"6535","locality":"Roveredo GR","commune":{"key":"3834","name":"Roveredo (GR)","shortName":"Roveredo (GR)"},"district":{"key":"1847","name":"Region Moesa"},"canton":{"key":"18","code":"GR","name":"Graubünden / Grigioni / Grischun"},"status":"Real"},{"key":"10259564","name":"Sentee de Albion","postalCode":"6535","locality":"Roveredo GR","commune":{"key":"3834","name":"Roveredo (GR)","shortName":"Roveredo (GR)"},"district":{"key":"1847","name":"Region Moesa"},"canton":{"key":"18","code":"GR","name":"Graubünden / Grigioni / Grischun"},"status":"Real"},{"key":"10259567","name":"Sentee de Carasoo","postalCode":"6535","locality":"Roveredo GR","commune":{"key":"3834","name":"Roveredo (GR)","shortName":"Roveredo (GR)"},"district":{"key":"1847","name":"Region Moesa"},"canton":{"key":"18","code":"GR","name":"Graubünden / Grigioni / Grischun"},"status":"Real"},{"key":"10259566","name":"Sentee de la Costa","postalCode":"6535","locality":"Roveredo GR","commune":{"key":"3834","name":"Roveredo (GR)","shortName":"Roveredo (GR)"},"district":{"key":"1847","name":"Region Moesa"},"canton":{"key":"18","code":"GR","name":"Graubünden / Grigioni / Grischun"},"status":"Real"},{"key":"10259556","name":"Sentee de Traversagna","postalCode":"6535","locality":"Roveredo GR","commune":{"key":"3834","name":"Roveredo (GR)","shortName":"Roveredo (GR)"},"district":{"key":"1847","name":"Region Moesa"},"canton":{"key":"18","code":"GR","name":"Graubünden / Grigioni / Grischun"},"status":"Real"},{"key":"10216304","name":"Sentee de Val","postalCode":"6535","locality":"Roveredo GR","commune":{"key":"3834","name":"Roveredo (GR)","shortName":"Roveredo (GR)"},"district":{"key":"1847","name":"Region Moesa"},"canton":{"key":"18","code":"GR","name":"Graubünden / Grigioni / Grischun"},"status":"Real"},{"key":"10259570","name":"Sentee di Cicogn","postalCode":"6535","locality":"Roveredo GR","commune":{"key":"3834","name":"Roveredo (GR)","shortName":"Roveredo (GR)"},"district":{"key":"1847","name":"Region Moesa"},"canton":{"key":"18","code":"GR","name":"Graubünden / Grigioni / Grischun"},"status":"Real"},{"key":"10259571","name":"Sentee di Laghit","postalCode":"6535","locality":"Roveredo GR","commune":{"key":"3834","name":"Roveredo (GR)","shortName":"Roveredo (GR)"},"district":{"key":"1847","name":"Region Moesa"},"canton":{"key":"18","code":"GR","name":"Graubünden / Grigioni / Grischun"},"status":"Real"},{"key":"10250480","name":"Sota la Capèla","postalCode":"6535","locality":"Roveredo GR","commune":{"key":"3834","name":"Roveredo (GR)","shortName":"Roveredo (GR)"},"district":{"key":"1847","name":"Region Moesa"},"canton":{"key":"18","code":"GR","name":"Graubünden / Grigioni / Grischun"},"status":"Real"},{"key":"10216308","name":"Sótt a la Gésa","postalCode":"6535","locality":"Roveredo GR","commune":{"key":"3834","name":"Roveredo (GR)","shortName":"Roveredo (GR)"},"district":{"key":"1847","name":"Region Moesa"},"canton":{"key":"18","code":"GR","name":"Graubünden / Grigioni / Grischun"},"status":"Real"},{"key":"10095201","name":"Sótt i Nós","postalCode":"6535","locality":"Roveredo GR","commune":{"key":"3834","name":"Roveredo (GR)","shortName":"Roveredo (GR)"},"district":{"key":"1847","name":"Region Moesa"},"canton":{"key":"18","code":"GR","name":"Graubünden / Grigioni / Grischun"},"status":"Real"},{"key":"10038785","name":"Stavel","postalCode":"6535","locality":"Roveredo GR","commune":{"key":"3834","name":"Roveredo (GR)","shortName":"Roveredo (GR)"},"district":{"key":"1847","name":"Region Moesa"},"canton":{"key":"18","code":"GR","name":"Graubünden / Grigioni / Grischun"},"status":"Real"},{"key":"10216312","name":"Stazión","postalCode":"6535","locality":"Roveredo GR","commune":{"key":"3834","name":"Roveredo (GR)","shortName":"Roveredo (GR)"},"district":{"key":"1847","name":"Region Moesa"},"canton":{"key":"18","code":"GR","name":"Graubünden / Grigioni / Grischun"},"status":"Real"},{"key":"10216316","name":"Stazione","postalCode":"6535","locality":"Roveredo GR","commune":{"key":"3834","name":"Roveredo (GR)","shortName":"Roveredo (GR)"},"district":{"key":"1847","name":"Region Moesa"},"canton":{"key":"18","code":"GR","name":"Graubünden / Grigioni / Grischun"},"status":"Real"},{"key":"10216321","name":"Strada Cantonal","postalCode":"6535","locality":"Roveredo GR","commune":{"key":"3834","name":"Roveredo (GR)","shortName":"Roveredo (GR)"},"district":{"key":"1847","name":"Region Moesa"},"canton":{"key":"18","code":"GR","name":"Graubünden / Grigioni / Grischun"},"status":"Real"},{"key":"10259554","name":"Strada de Cadolcia","postalCode":"6535","locality":"Roveredo GR","commune":{"key":"3834","name":"Roveredo (GR)","shortName":"Roveredo (GR)"},"district":{"key":"1847","name":"Region Moesa"},"canton":{"key":"18","code":"GR","name":"Graubünden / Grigioni / Grischun"},"status":"Real"},{"key":"10216326","name":"Strada de Carasoo","postalCode":"6535","locality":"Roveredo GR","commune":{"key":"3834","name":"Roveredo (GR)","shortName":"Roveredo (GR)"},"district":{"key":"1847","name":"Region Moesa"},"canton":{"key":"18","code":"GR","name":"Graubünden / Grigioni / Grischun"},"status":"Real"},{"key":"10259565","name":"Strada dei Monti","postalCode":"6535","locality":"Roveredo GR","commune":{"key":"3834","name":"Roveredo (GR)","shortName":"Roveredo (GR)"},"district":{"key":"1847","name":"Region Moesa"},"canton":{"key":"18","code":"GR","name":"Graubünden / Grigioni / Grischun"},"status":"Real"},{"key":"10216330","name":"Strada de Làura","postalCode":"6535","locality":"Roveredo GR","commune":{"key":"3834","name":"Roveredo (GR)","shortName":"Roveredo (GR)"},"district":{"key":"1847","name":"Region Moesa"},"canton":{"key":"18","code":"GR","name":"Graubünden / Grigioni / Grischun"},"status":"Real"},{"key":"10259559","name":"Strada de Maria Teresa","postalCode":"6535","locality":"Roveredo GR","commune":{"key":"3834","name":"Roveredo (GR)","shortName":"Roveredo (GR)"},"district":{"key":"1847","name":"Region Moesa"},"canton":{"key":"18","code":"GR","name":"Graubünden / Grigioni / Grischun"},"status":"Real"},{"key":"10259562","name":"Strada de Rogiasca","postalCode":"6535","locality":"Roveredo GR","commune":{"key":"3834","name":"Roveredo (GR)","shortName":"Roveredo (GR)"},"district":{"key":"1847","name":"Region Moesa"},"canton":{"key":"18","code":"GR","name":"Graubünden / Grigioni / Grischun"},"status":"Real"},{"key":"10216333","name":"Strada de San Fedee","postalCode":"6535","locality":"Roveredo GR","commune":{"key":"3834","name":"Roveredo (GR)","shortName":"Roveredo (GR)"},"district":{"key":"1847","name":"Region Moesa"},"canton":{"key":"18","code":"GR","name":"Graubünden / Grigioni / Grischun"},"status":"Real"},{"key":"10216258","name":"Strada de San Giuli","postalCode":"6535","locality":"Roveredo GR","commune":{"key":"3834","name":"Roveredo (GR)","shortName":"Roveredo (GR)"},"district":{"key":"1847","name":"Region Moesa"},"canton":{"key":"18","code":"GR","name":"Graubünden / Grigioni / Grischun"},"status":"Real"},{"key":"10216262","name":"Strada di Magistri","postalCode":"6535","locality":"Roveredo GR","commune":{"key":"3834","name":"Roveredo (GR)","shortName":"Roveredo (GR)"},"district":{"key":"1847","name":"Region Moesa"},"canton":{"key":"18","code":"GR","name":"Graubünden / Grigioni / Grischun"},"status":"Real"},{"key":"10216266","name":"Strada Néva","postalCode":"6535","locality":"Roveredo GR","commune":{"key":"3834","name":"Roveredo (GR)","shortName":"Roveredo (GR)"},"district":{"key":"1847","name":"Region Moesa"},"canton":{"key":"18","code":"GR","name":"Graubünden / Grigioni / Grischun"},"status":"Real"},{"key":"10250484","name":"Tècc di Barbee","postalCode":"6535","locality":"Roveredo GR","commune":{"key":"3834","name":"Roveredo (GR)","shortName":"Roveredo (GR)"},"district":{"key":"1847","name":"Region Moesa"},"canton":{"key":"18","code":"GR","name":"Graubünden / Grigioni / Grischun"},"status":"Real"},{"key":"10164468","name":"Terzàn","postalCode":"6535","locality":"Roveredo GR","commune":{"key":"3834","name":"Roveredo (GR)","shortName":"Roveredo (GR)"},"district":{"key":"1847","name":"Region Moesa"},"canton":{"key":"18","code":"GR","name":"Graubünden / Grigioni / Grischun"},"status":"Real"},{"key":"10038787","name":"Tovéda","postalCode":"6535","locality":"Roveredo GR","commune":{"key":"3834","name":"Roveredo (GR)","shortName":"Roveredo (GR)"},"district":{"key":"1847","name":"Region Moesa"},"canton":{"key":"18","code":"GR","name":"Graubünden / Grigioni / Grischun"},"status":"Real"},{"key":"10078156","name":"Trii","postalCode":"6535","locality":"Roveredo GR","commune":{"key":"3834","name":"Roveredo (GR)","shortName":"Roveredo (GR)"},"district":{"key":"1847","name":"Region Moesa"},"canton":{"key":"18","code":"GR","name":"Graubünden / Grigioni / Grischun"},"status":"Real"},{"key":"10174867","name":"Valasc","postalCode":"6535","locality":"Roveredo GR","commune":{"key":"3834","name":"Roveredo (GR)","shortName":"Roveredo (GR)"},"district":{"key":"1847","name":"Region Moesa"},"canton":{"key":"18","code":"GR","name":"Graubünden / Grigioni / Grischun"},"status":"Real"},{"key":"10123786","name":"Véra","postalCode":"6535","locality":"Roveredo GR","commune":{"key":"3834","name":"Roveredo (GR)","shortName":"Roveredo (GR)"},"district":{"key":"1847","name":"Region Moesa"},"canton":{"key":"18","code":"GR","name":"Graubünden / Grigioni / Grischun"},"status":"Real"},{"key":"10216356","name":"Via de la Grida","postalCode":"6535","locality":"Roveredo GR","commune":{"key":"3834","name":"Roveredo (GR)","shortName":"Roveredo (GR)"},"district":{"key":"1847","name":"Region Moesa"},"canton":{"key":"18","code":"GR","name":"Graubünden / Grigioni / Grischun"},"status":"Real"},{"key":"10216360","name":"Via Industrie","postalCode":"6535","locality":"Roveredo GR","commune":{"key":"3834","name":"Roveredo (GR)","shortName":"Roveredo (GR)"},"district":{"key":"1847","name":"Region Moesa"},"canton":{"key":"18","code":"GR","name":"Graubünden / Grigioni / Grischun"},"status":"Real"},{"key":"10259561","name":"Via Moesa","postalCode":"6535","locality":"Roveredo GR","commune":{"key":"3834","name":"Roveredo (GR)","shortName":"Roveredo (GR)"},"district":{"key":"1847","name":"Region Moesa"},"canton":{"key":"18","code":"GR","name":"Graubünden / Grigioni / Grischun"},"status":"Real"},]