[{"name":"Abt-Albert-Hausner-Str.","postalCode":"95652","locality":"Waldsassen","municipality":{"key":"09377158","name":"Waldsassen, St","type":"Stadt"},"district":{"key":"09377","name":"Tirschenreuth","type":"Landkreis"},"federalState":{"key":"09","name":"Bayern"}},{"name":"Adalbert-Stifter-Str.","postalCode":"95652","locality":"Waldsassen","municipality":{"key":"09377158","name":"Waldsassen, St","type":"Stadt"},"district":{"key":"09377","name":"Tirschenreuth","type":"Landkreis"},"federalState":{"key":"09","name":"Bayern"}},{"name":"Altenhammerweg","postalCode":"95652","locality":"Waldsassen","municipality":{"key":"09377158","name":"Waldsassen, St","type":"Stadt"},"district":{"key":"09377","name":"Tirschenreuth","type":"Landkreis"},"federalState":{"key":"09","name":"Bayern"}},{"name":"Alte Str.","postalCode":"95652","locality":"Waldsassen","municipality":{"key":"09377158","name":"Waldsassen, St","type":"Stadt"},"district":{"key":"09377","name":"Tirschenreuth","type":"Landkreis"},"federalState":{"key":"09","name":"Bayern"}},{"name":"Am Hamannsgarten","postalCode":"95652","locality":"Waldsassen","municipality":{"key":"09377158","name":"Waldsassen, St","type":"Stadt"},"district":{"key":"09377","name":"Tirschenreuth","type":"Landkreis"},"federalState":{"key":"09","name":"Bayern"}},{"name":"Am Lämmeracker","postalCode":"95652","locality":"Waldsassen","municipality":{"key":"09377158","name":"Waldsassen, St","type":"Stadt"},"district":{"key":"09377","name":"Tirschenreuth","type":"Landkreis"},"federalState":{"key":"09","name":"Bayern"}},{"name":"Am Ölschlag","postalCode":"95652","locality":"Waldsassen","municipality":{"key":"09377158","name":"Waldsassen, St","type":"Stadt"},"district":{"key":"09377","name":"Tirschenreuth","type":"Landkreis"},"federalState":{"key":"09","name":"Bayern"}},{"name":"Am Sauerbrunn","postalCode":"95652","locality":"Waldsassen","municipality":{"key":"09377158","name":"Waldsassen, St","type":"Stadt"},"district":{"key":"09377","name":"Tirschenreuth","type":"Landkreis"},"federalState":{"key":"09","name":"Bayern"}},{"name":"Am Wirtsberg","postalCode":"95652","locality":"Waldsassen","municipality":{"key":"09377158","name":"Waldsassen, St","type":"Stadt"},"district":{"key":"09377","name":"Tirschenreuth","type":"Landkreis"},"federalState":{"key":"09","name":"Bayern"}},{"name":"An der Tongrube","postalCode":"95652","locality":"Waldsassen","municipality":{"key":"09377158","name":"Waldsassen, St","type":"Stadt"},"district":{"key":"09377","name":"Tirschenreuth","type":"Landkreis"},"federalState":{"key":"09","name":"Bayern"}},{"name":"Anton-Hart-Str.","postalCode":"95652","locality":"Waldsassen","municipality":{"key":"09377158","name":"Waldsassen, St","type":"Stadt"},"district":{"key":"09377","name":"Tirschenreuth","type":"Landkreis"},"federalState":{"key":"09","name":"Bayern"}},{"name":"Badstr.","postalCode":"95652","locality":"Waldsassen","municipality":{"key":"09377158","name":"Waldsassen, St","type":"Stadt"},"district":{"key":"09377","name":"Tirschenreuth","type":"Landkreis"},"federalState":{"key":"09","name":"Bayern"}},{"name":"Bahnhofstr.","postalCode":"95652","locality":"Waldsassen","municipality":{"key":"09377158","name":"Waldsassen, St","type":"Stadt"},"district":{"key":"09377","name":"Tirschenreuth","type":"Landkreis"},"federalState":{"key":"09","name":"Bayern"}},{"name":"Barbarastr.","postalCode":"95652","locality":"Waldsassen","municipality":{"key":"09377158","name":"Waldsassen, St","type":"Stadt"},"district":{"key":"09377","name":"Tirschenreuth","type":"Landkreis"},"federalState":{"key":"09","name":"Bayern"}},{"name":"Basilikaplatz","postalCode":"95652","locality":"Waldsassen","municipality":{"key":"09377158","name":"Waldsassen, St","type":"Stadt"},"district":{"key":"09377","name":"Tirschenreuth","type":"Landkreis"},"federalState":{"key":"09","name":"Bayern"}},{"name":"Baumeister-Emil-Engel-Str.","postalCode":"95652","locality":"Waldsassen","municipality":{"key":"09377158","name":"Waldsassen, St","type":"Stadt"},"district":{"key":"09377","name":"Tirschenreuth","type":"Landkreis"},"federalState":{"key":"09","name":"Bayern"}},{"name":"Bayerlandstr.","postalCode":"95652","locality":"Waldsassen","municipality":{"key":"09377158","name":"Waldsassen, St","type":"Stadt"},"district":{"key":"09377","name":"Tirschenreuth","type":"Landkreis"},"federalState":{"key":"09","name":"Bayern"}},{"name":"Binhackstr.","postalCode":"95652","locality":"Waldsassen","municipality":{"key":"09377158","name":"Waldsassen, St","type":"Stadt"},"district":{"key":"09377","name":"Tirschenreuth","type":"Landkreis"},"federalState":{"key":"09","name":"Bayern"}},{"name":"Bischof-Senestrey-Str.","postalCode":"95652","locality":"Waldsassen","municipality":{"key":"09377158","name":"Waldsassen, St","type":"Stadt"},"district":{"key":"09377","name":"Tirschenreuth","type":"Landkreis"},"federalState":{"key":"09","name":"Bayern"}},{"name":"Brauhausstr.","postalCode":"95652","locality":"Waldsassen","municipality":{"key":"09377158","name":"Waldsassen, St","type":"Stadt"},"district":{"key":"09377","name":"Tirschenreuth","type":"Landkreis"},"federalState":{"key":"09","name":"Bayern"}},{"name":"Carlonestr.","postalCode":"95652","locality":"Waldsassen","municipality":{"key":"09377158","name":"Waldsassen, St","type":"Stadt"},"district":{"key":"09377","name":"Tirschenreuth","type":"Landkreis"},"federalState":{"key":"09","name":"Bayern"}},{"name":"Chodauer Str.","postalCode":"95652","locality":"Waldsassen","municipality":{"key":"09377158","name":"Waldsassen, St","type":"Stadt"},"district":{"key":"09377","name":"Tirschenreuth","type":"Landkreis"},"federalState":{"key":"09","name":"Bayern"}},{"name":"Döberlstr.","postalCode":"95652","locality":"Waldsassen","municipality":{"key":"09377158","name":"Waldsassen, St","type":"Stadt"},"district":{"key":"09377","name":"Tirschenreuth","type":"Landkreis"},"federalState":{"key":"09","name":"Bayern"}},{"name":"Dr.-Heim-Str.","postalCode":"95652","locality":"Waldsassen","municipality":{"key":"09377158","name":"Waldsassen, St","type":"Stadt"},"district":{"key":"09377","name":"Tirschenreuth","type":"Landkreis"},"federalState":{"key":"09","name":"Bayern"}},{"name":"Dr.-Otto-Seidl-Str.","postalCode":"95652","locality":"Waldsassen","municipality":{"key":"09377158","name":"Waldsassen, St","type":"Stadt"},"district":{"key":"09377","name":"Tirschenreuth","type":"Landkreis"},"federalState":{"key":"09","name":"Bayern"}},{"name":"Egerer Str.","postalCode":"95652","locality":"Waldsassen","municipality":{"key":"09377158","name":"Waldsassen, St","type":"Stadt"},"district":{"key":"09377","name":"Tirschenreuth","type":"Landkreis"},"federalState":{"key":"09","name":"Bayern"}},{"name":"Egerländer Str.","postalCode":"95652","locality":"Waldsassen","municipality":{"key":"09377158","name":"Waldsassen, St","type":"Stadt"},"district":{"key":"09377","name":"Tirschenreuth","type":"Landkreis"},"federalState":{"key":"09","name":"Bayern"}},{"name":"Egnermühlweg","postalCode":"95652","locality":"Waldsassen","municipality":{"key":"09377158","name":"Waldsassen, St","type":"Stadt"},"district":{"key":"09377","name":"Tirschenreuth","type":"Landkreis"},"federalState":{"key":"09","name":"Bayern"}},{"name":"Eichendorffstr.","postalCode":"95652","locality":"Waldsassen","municipality":{"key":"09377158","name":"Waldsassen, St","type":"Stadt"},"district":{"key":"09377","name":"Tirschenreuth","type":"Landkreis"},"federalState":{"key":"09","name":"Bayern"}},{"name":"Elsa-Brändström-Str.","postalCode":"95652","locality":"Waldsassen","municipality":{"key":"09377158","name":"Waldsassen, St","type":"Stadt"},"district":{"key":"09377","name":"Tirschenreuth","type":"Landkreis"},"federalState":{"key":"09","name":"Bayern"}},{"name":"Finkenbühlstr.","postalCode":"95652","locality":"Waldsassen","municipality":{"key":"09377158","name":"Waldsassen, St","type":"Stadt"},"district":{"key":"09377","name":"Tirschenreuth","type":"Landkreis"},"federalState":{"key":"09","name":"Bayern"}},{"name":"Flurstr.","postalCode":"95652","locality":"Waldsassen","municipality":{"key":"09377158","name":"Waldsassen, St","type":"Stadt"},"district":{"key":"09377","name":"Tirschenreuth","type":"Landkreis"},"federalState":{"key":"09","name":"Bayern"}},{"name":"Forkatshofer Weg","postalCode":"95652","locality":"Waldsassen","municipality":{"key":"09377158","name":"Waldsassen, St","type":"Stadt"},"district":{"key":"09377","name":"Tirschenreuth","type":"Landkreis"},"federalState":{"key":"09","name":"Bayern"}},{"name":"Gartenstr.","postalCode":"95652","locality":"Waldsassen","municipality":{"key":"09377158","name":"Waldsassen, St","type":"Stadt"},"district":{"key":"09377","name":"Tirschenreuth","type":"Landkreis"},"federalState":{"key":"09","name":"Bayern"}},{"name":"Gebrüder-Geisel-Str.","postalCode":"95652","locality":"Waldsassen","municipality":{"key":"09377158","name":"Waldsassen, St","type":"Stadt"},"district":{"key":"09377","name":"Tirschenreuth","type":"Landkreis"},"federalState":{"key":"09","name":"Bayern"}},{"name":"Georg-Dientzenhofer-Str.","postalCode":"95652","locality":"Waldsassen","municipality":{"key":"09377158","name":"Waldsassen, St","type":"Stadt"},"district":{"key":"09377","name":"Tirschenreuth","type":"Landkreis"},"federalState":{"key":"09","name":"Bayern"}},{"name":"Gerwigstr.","postalCode":"95652","locality":"Waldsassen","municipality":{"key":"09377158","name":"Waldsassen, St","type":"Stadt"},"district":{"key":"09377","name":"Tirschenreuth","type":"Landkreis"},"federalState":{"key":"09","name":"Bayern"}},{"name":"Glasbergstr.","postalCode":"95652","locality":"Waldsassen","municipality":{"key":"09377158","name":"Waldsassen, St","type":"Stadt"},"district":{"key":"09377","name":"Tirschenreuth","type":"Landkreis"},"federalState":{"key":"09","name":"Bayern"}},{"name":"Glashüttenweg","postalCode":"95652","locality":"Waldsassen","municipality":{"key":"09377158","name":"Waldsassen, St","type":"Stadt"},"district":{"key":"09377","name":"Tirschenreuth","type":"Landkreis"},"federalState":{"key":"09","name":"Bayern"}},{"name":"Goetheplatz","postalCode":"95652","locality":"Waldsassen","municipality":{"key":"09377158","name":"Waldsassen, St","type":"Stadt"},"district":{"key":"09377","name":"Tirschenreuth","type":"Landkreis"},"federalState":{"key":"09","name":"Bayern"}},{"name":"Goethestr.","postalCode":"95652","locality":"Waldsassen","municipality":{"key":"09377158","name":"Waldsassen, St","type":"Stadt"},"district":{"key":"09377","name":"Tirschenreuth","type":"Landkreis"},"federalState":{"key":"09","name":"Bayern"}},{"name":"Groppenheim","postalCode":"95652","locality":"Waldsassen","municipality":{"key":"09377158","name":"Waldsassen, St","type":"Stadt"},"district":{"key":"09377","name":"Tirschenreuth","type":"Landkreis"},"federalState":{"key":"09","name":"Bayern"}},{"name":"Hauptstr.","postalCode":"95652","locality":"Waldsassen","municipality":{"key":"09377158","name":"Waldsassen, St","type":"Stadt"},"district":{"key":"09377","name":"Tirschenreuth","type":"Landkreis"},"federalState":{"key":"09","name":"Bayern"}},{"name":"Heinrich-Plötz-Str.","postalCode":"95652","locality":"Waldsassen","municipality":{"key":"09377158","name":"Waldsassen, St","type":"Stadt"},"district":{"key":"09377","name":"Tirschenreuth","type":"Landkreis"},"federalState":{"key":"09","name":"Bayern"}},{"name":"Hochäckerweg","postalCode":"95652","locality":"Waldsassen","municipality":{"key":"09377158","name":"Waldsassen, St","type":"Stadt"},"district":{"key":"09377","name":"Tirschenreuth","type":"Landkreis"},"federalState":{"key":"09","name":"Bayern"}},{"name":"Hohlweg","postalCode":"95652","locality":"Waldsassen","municipality":{"key":"09377158","name":"Waldsassen, St","type":"Stadt"},"district":{"key":"09377","name":"Tirschenreuth","type":"Landkreis"},"federalState":{"key":"09","name":"Bayern"}},{"name":"Hopfenstr.","postalCode":"95652","locality":"Waldsassen","municipality":{"key":"09377158","name":"Waldsassen, St","type":"Stadt"},"district":{"key":"09377","name":"Tirschenreuth","type":"Landkreis"},"federalState":{"key":"09","name":"Bayern"}},{"name":"In der Maierzelch","postalCode":"95652","locality":"Waldsassen","municipality":{"key":"09377158","name":"Waldsassen, St","type":"Stadt"},"district":{"key":"09377","name":"Tirschenreuth","type":"Landkreis"},"federalState":{"key":"09","name":"Bayern"}},{"name":"Jahnstr.","postalCode":"95652","locality":"Waldsassen","municipality":{"key":"09377158","name":"Waldsassen, St","type":"Stadt"},"district":{"key":"09377","name":"Tirschenreuth","type":"Landkreis"},"federalState":{"key":"09","name":"Bayern"}},{"name":"Jakob-Steinfels-Str.","postalCode":"95652","locality":"Waldsassen","municipality":{"key":"09377158","name":"Waldsassen, St","type":"Stadt"},"district":{"key":"09377","name":"Tirschenreuth","type":"Landkreis"},"federalState":{"key":"09","name":"Bayern"}},{"name":"Johannisplatz","postalCode":"95652","locality":"Waldsassen","municipality":{"key":"09377158","name":"Waldsassen, St","type":"Stadt"},"district":{"key":"09377","name":"Tirschenreuth","type":"Landkreis"},"federalState":{"key":"09","name":"Bayern"}},{"name":"Josef-Hierl-Str.","postalCode":"95652","locality":"Waldsassen","municipality":{"key":"09377158","name":"Waldsassen, St","type":"Stadt"},"district":{"key":"09377","name":"Tirschenreuth","type":"Landkreis"},"federalState":{"key":"09","name":"Bayern"}},{"name":"Joseph-Wiesnet-Str.","postalCode":"95652","locality":"Waldsassen","municipality":{"key":"09377158","name":"Waldsassen, St","type":"Stadt"},"district":{"key":"09377","name":"Tirschenreuth","type":"Landkreis"},"federalState":{"key":"09","name":"Bayern"}},{"name":"Karl-Stilp-Str.","postalCode":"95652","locality":"Waldsassen","municipality":{"key":"09377158","name":"Waldsassen, St","type":"Stadt"},"district":{"key":"09377","name":"Tirschenreuth","type":"Landkreis"},"federalState":{"key":"09","name":"Bayern"}},{"name":"Karolinenstr.","postalCode":"95652","locality":"Waldsassen","municipality":{"key":"09377158","name":"Waldsassen, St","type":"Stadt"},"district":{"key":"09377","name":"Tirschenreuth","type":"Landkreis"},"federalState":{"key":"09","name":"Bayern"}},{"name":"Kirchenstr.","postalCode":"95652","locality":"Waldsassen","municipality":{"key":"09377158","name":"Waldsassen, St","type":"Stadt"},"district":{"key":"09377","name":"Tirschenreuth","type":"Landkreis"},"federalState":{"key":"09","name":"Bayern"}},{"name":"Klärwerkstr.","postalCode":"95652","locality":"Waldsassen","municipality":{"key":"09377158","name":"Waldsassen, St","type":"Stadt"},"district":{"key":"09377","name":"Tirschenreuth","type":"Landkreis"},"federalState":{"key":"09","name":"Bayern"}},{"name":"Klostergasse","postalCode":"95652","locality":"Waldsassen","municipality":{"key":"09377158","name":"Waldsassen, St","type":"Stadt"},"district":{"key":"09377","name":"Tirschenreuth","type":"Landkreis"},"federalState":{"key":"09","name":"Bayern"}},{"name":"Kölnergrünstr.","postalCode":"95652","locality":"Waldsassen","municipality":{"key":"09377158","name":"Waldsassen, St","type":"Stadt"},"district":{"key":"09377","name":"Tirschenreuth","type":"Landkreis"},"federalState":{"key":"09","name":"Bayern"}},{"name":"Kolpingstr.","postalCode":"95652","locality":"Waldsassen","municipality":{"key":"09377158","name":"Waldsassen, St","type":"Stadt"},"district":{"key":"09377","name":"Tirschenreuth","type":"Landkreis"},"federalState":{"key":"09","name":"Bayern"}},{"name":"Kondrauer Quellenweg","postalCode":"95652","locality":"Waldsassen","municipality":{"key":"09377158","name":"Waldsassen, St","type":"Stadt"},"district":{"key":"09377","name":"Tirschenreuth","type":"Landkreis"},"federalState":{"key":"09","name":"Bayern"}},{"name":"Konnersreuther Str.","postalCode":"95652","locality":"Waldsassen","municipality":{"key":"09377158","name":"Waldsassen, St","type":"Stadt"},"district":{"key":"09377","name":"Tirschenreuth","type":"Landkreis"},"federalState":{"key":"09","name":"Bayern"}},{"name":"Kunstgasse","postalCode":"95652","locality":"Waldsassen","municipality":{"key":"09377158","name":"Waldsassen, St","type":"Stadt"},"district":{"key":"09377","name":"Tirschenreuth","type":"Landkreis"},"federalState":{"key":"09","name":"Bayern"}},{"name":"Lämmerstr.","postalCode":"95652","locality":"Waldsassen","municipality":{"key":"09377158","name":"Waldsassen, St","type":"Stadt"},"district":{"key":"09377","name":"Tirschenreuth","type":"Landkreis"},"federalState":{"key":"09","name":"Bayern"}},{"name":"Langhammerstr.","postalCode":"95652","locality":"Waldsassen","municipality":{"key":"09377158","name":"Waldsassen, St","type":"Stadt"},"district":{"key":"09377","name":"Tirschenreuth","type":"Landkreis"},"federalState":{"key":"09","name":"Bayern"}},{"name":"Leuthnerstr.","postalCode":"95652","locality":"Waldsassen","municipality":{"key":"09377158","name":"Waldsassen, St","type":"Stadt"},"district":{"key":"09377","name":"Tirschenreuth","type":"Landkreis"},"federalState":{"key":"09","name":"Bayern"}},{"name":"Liststr.","postalCode":"95652","locality":"Waldsassen","municipality":{"key":"09377158","name":"Waldsassen, St","type":"Stadt"},"district":{"key":"09377","name":"Tirschenreuth","type":"Landkreis"},"federalState":{"key":"09","name":"Bayern"}},{"name":"Lodermühlweg","postalCode":"95652","locality":"Waldsassen","municipality":{"key":"09377158","name":"Waldsassen, St","type":"Stadt"},"district":{"key":"09377","name":"Tirschenreuth","type":"Landkreis"},"federalState":{"key":"09","name":"Bayern"}},{"name":"Ludwig-Thoma-Str.","postalCode":"95652","locality":"Waldsassen","municipality":{"key":"09377158","name":"Waldsassen, St","type":"Stadt"},"district":{"key":"09377","name":"Tirschenreuth","type":"Landkreis"},"federalState":{"key":"09","name":"Bayern"}},{"name":"Marcoussisstr.","postalCode":"95652","locality":"Waldsassen","municipality":{"key":"09377158","name":"Waldsassen, St","type":"Stadt"},"district":{"key":"09377","name":"Tirschenreuth","type":"Landkreis"},"federalState":{"key":"09","name":"Bayern"}},{"name":"Markgraf-Diepold-Str.","postalCode":"95652","locality":"Waldsassen","municipality":{"key":"09377158","name":"Waldsassen, St","type":"Stadt"},"district":{"key":"09377","name":"Tirschenreuth","type":"Landkreis"},"federalState":{"key":"09","name":"Bayern"}},{"name":"Martin-Hirsch-Str.","postalCode":"95652","locality":"Waldsassen","municipality":{"key":"09377158","name":"Waldsassen, St","type":"Stadt"},"district":{"key":"09377","name":"Tirschenreuth","type":"Landkreis"},"federalState":{"key":"09","name":"Bayern"}},{"name":"Martin-Luther-Str.","postalCode":"95652","locality":"Waldsassen","municipality":{"key":"09377158","name":"Waldsassen, St","type":"Stadt"},"district":{"key":"09377","name":"Tirschenreuth","type":"Landkreis"},"federalState":{"key":"09","name":"Bayern"}},{"name":"Mitterteicher Str.","postalCode":"95652","locality":"Waldsassen","municipality":{"key":"09377158","name":"Waldsassen, St","type":"Stadt"},"district":{"key":"09377","name":"Tirschenreuth","type":"Landkreis"},"federalState":{"key":"09","name":"Bayern"}},{"name":"Mühlbachgasse","postalCode":"95652","locality":"Waldsassen","municipality":{"key":"09377158","name":"Waldsassen, St","type":"Stadt"},"district":{"key":"09377","name":"Tirschenreuth","type":"Landkreis"},"federalState":{"key":"09","name":"Bayern"}},{"name":"Münchenreuth","postalCode":"95652","locality":"Waldsassen","municipality":{"key":"09377158","name":"Waldsassen, St","type":"Stadt"},"district":{"key":"09377","name":"Tirschenreuth","type":"Landkreis"},"federalState":{"key":"09","name":"Bayern"}},{"name":"Münchenreuther Str.","postalCode":"95652","locality":"Waldsassen","municipality":{"key":"09377158","name":"Waldsassen, St","type":"Stadt"},"district":{"key":"09377","name":"Tirschenreuth","type":"Landkreis"},"federalState":{"key":"09","name":"Bayern"}},{"name":"Museumsstr.","postalCode":"95652","locality":"Waldsassen","municipality":{"key":"09377158","name":"Waldsassen, St","type":"Stadt"},"district":{"key":"09377","name":"Tirschenreuth","type":"Landkreis"},"federalState":{"key":"09","name":"Bayern"}},{"name":"Muttonestr.","postalCode":"95652","locality":"Waldsassen","municipality":{"key":"09377158","name":"Waldsassen, St","type":"Stadt"},"district":{"key":"09377","name":"Tirschenreuth","type":"Landkreis"},"federalState":{"key":"09","name":"Bayern"}},{"name":"Netzstahler Str.","postalCode":"95652","locality":"Waldsassen","municipality":{"key":"09377158","name":"Waldsassen, St","type":"Stadt"},"district":{"key":"09377","name":"Tirschenreuth","type":"Landkreis"},"federalState":{"key":"09","name":"Bayern"}},{"name":"Neualbenreuther Str.","postalCode":"95652","locality":"Waldsassen","municipality":{"key":"09377158","name":"Waldsassen, St","type":"Stadt"},"district":{"key":"09377","name":"Tirschenreuth","type":"Landkreis"},"federalState":{"key":"09","name":"Bayern"}},{"name":"Neue Gärten","postalCode":"95652","locality":"Waldsassen","municipality":{"key":"09377158","name":"Waldsassen, St","type":"Stadt"},"district":{"key":"09377","name":"Tirschenreuth","type":"Landkreis"},"federalState":{"key":"09","name":"Bayern"}},{"name":"Neuteichweg","postalCode":"95652","locality":"Waldsassen","municipality":{"key":"09377158","name":"Waldsassen, St","type":"Stadt"},"district":{"key":"09377","name":"Tirschenreuth","type":"Landkreis"},"federalState":{"key":"09","name":"Bayern"}},{"name":"Otto-Freundl-Str.","postalCode":"95652","locality":"Waldsassen","municipality":{"key":"09377158","name":"Waldsassen, St","type":"Stadt"},"district":{"key":"09377","name":"Tirschenreuth","type":"Landkreis"},"federalState":{"key":"09","name":"Bayern"}},{"name":"Pater-Mauritius-Str.","postalCode":"95652","locality":"Waldsassen","municipality":{"key":"09377158","name":"Waldsassen, St","type":"Stadt"},"district":{"key":"09377","name":"Tirschenreuth","type":"Landkreis"},"federalState":{"key":"09","name":"Bayern"}},{"name":"Pencoed-Ring","postalCode":"95652","locality":"Waldsassen","municipality":{"key":"09377158","name":"Waldsassen, St","type":"Stadt"},"district":{"key":"09377","name":"Tirschenreuth","type":"Landkreis"},"federalState":{"key":"09","name":"Bayern"}},{"name":"Pfaffenreuther Str.","postalCode":"95652","locality":"Waldsassen","municipality":{"key":"09377158","name":"Waldsassen, St","type":"Stadt"},"district":{"key":"09377","name":"Tirschenreuth","type":"Landkreis"},"federalState":{"key":"09","name":"Bayern"}},{"name":"Pleußener Weg","postalCode":"95652","locality":"Waldsassen","municipality":{"key":"09377158","name":"Waldsassen, St","type":"Stadt"},"district":{"key":"09377","name":"Tirschenreuth","type":"Landkreis"},"federalState":{"key":"09","name":"Bayern"}},{"name":"Pointweg","postalCode":"95652","locality":"Waldsassen","municipality":{"key":"09377158","name":"Waldsassen, St","type":"Stadt"},"district":{"key":"09377","name":"Tirschenreuth","type":"Landkreis"},"federalState":{"key":"09","name":"Bayern"}},{"name":"Pötzlstr.","postalCode":"95652","locality":"Waldsassen","municipality":{"key":"09377158","name":"Waldsassen, St","type":"Stadt"},"district":{"key":"09377","name":"Tirschenreuth","type":"Landkreis"},"federalState":{"key":"09","name":"Bayern"}},{"name":"Prinz-Ludwig-Str.","postalCode":"95652","locality":"Waldsassen","municipality":{"key":"09377158","name":"Waldsassen, St","type":"Stadt"},"district":{"key":"09377","name":"Tirschenreuth","type":"Landkreis"},"federalState":{"key":"09","name":"Bayern"}},{"name":"Prinzregent-Luitpold-Str.","postalCode":"95652","locality":"Waldsassen","municipality":{"key":"09377158","name":"Waldsassen, St","type":"Stadt"},"district":{"key":"09377","name":"Tirschenreuth","type":"Landkreis"},"federalState":{"key":"09","name":"Bayern"}},{"name":"Querenbach","postalCode":"95652","locality":"Waldsassen","municipality":{"key":"09377158","name":"Waldsassen, St","type":"Stadt"},"district":{"key":"09377","name":"Tirschenreuth","type":"Landkreis"},"federalState":{"key":"09","name":"Bayern"}},{"name":"Raiffeisenstr.","postalCode":"95652","locality":"Waldsassen","municipality":{"key":"09377158","name":"Waldsassen, St","type":"Stadt"},"district":{"key":"09377","name":"Tirschenreuth","type":"Landkreis"},"federalState":{"key":"09","name":"Bayern"}},{"name":"Rothe Lohe","postalCode":"95652","locality":"Waldsassen","municipality":{"key":"09377158","name":"Waldsassen, St","type":"Stadt"},"district":{"key":"09377","name":"Tirschenreuth","type":"Landkreis"},"federalState":{"key":"09","name":"Bayern"}},{"name":"Sandstr.","postalCode":"95652","locality":"Waldsassen","municipality":{"key":"09377158","name":"Waldsassen, St","type":"Stadt"},"district":{"key":"09377","name":"Tirschenreuth","type":"Landkreis"},"federalState":{"key":"09","name":"Bayern"}},{"name":"Schickerweg","postalCode":"95652","locality":"Waldsassen","municipality":{"key":"09377158","name":"Waldsassen, St","type":"Stadt"},"district":{"key":"09377","name":"Tirschenreuth","type":"Landkreis"},"federalState":{"key":"09","name":"Bayern"}},{"name":"Schillerstr.","postalCode":"95652","locality":"Waldsassen","municipality":{"key":"09377158","name":"Waldsassen, St","type":"Stadt"},"district":{"key":"09377","name":"Tirschenreuth","type":"Landkreis"},"federalState":{"key":"09","name":"Bayern"}},{"name":"Schlesierstr.","postalCode":"95652","locality":"Waldsassen","municipality":{"key":"09377158","name":"Waldsassen, St","type":"Stadt"},"district":{"key":"09377","name":"Tirschenreuth","type":"Landkreis"},"federalState":{"key":"09","name":"Bayern"}},{"name":"Schmiedplatz","postalCode":"95652","locality":"Waldsassen","municipality":{"key":"09377158","name":"Waldsassen, St","type":"Stadt"},"district":{"key":"09377","name":"Tirschenreuth","type":"Landkreis"},"federalState":{"key":"09","name":"Bayern"}},{"name":"Schulstr.","postalCode":"95652","locality":"Waldsassen","municipality":{"key":"09377158","name":"Waldsassen, St","type":"Stadt"},"district":{"key":"09377","name":"Tirschenreuth","type":"Landkreis"},"federalState":{"key":"09","name":"Bayern"}},{"name":"Schützenstr.","postalCode":"95652","locality":"Waldsassen","municipality":{"key":"09377158","name":"Waldsassen, St","type":"Stadt"},"district":{"key":"09377","name":"Tirschenreuth","type":"Landkreis"},"federalState":{"key":"09","name":"Bayern"}},{"name":"Schwanengasse","postalCode":"95652","locality":"Waldsassen","municipality":{"key":"09377158","name":"Waldsassen, St","type":"Stadt"},"district":{"key":"09377","name":"Tirschenreuth","type":"Landkreis"},"federalState":{"key":"09","name":"Bayern"}},{"name":"Schwanenwiese","postalCode":"95652","locality":"Waldsassen","municipality":{"key":"09377158","name":"Waldsassen, St","type":"Stadt"},"district":{"key":"09377","name":"Tirschenreuth","type":"Landkreis"},"federalState":{"key":"09","name":"Bayern"}},{"name":"Siedlungsstr.","postalCode":"95652","locality":"Waldsassen","municipality":{"key":"09377158","name":"Waldsassen, St","type":"Stadt"},"district":{"key":"09377","name":"Tirschenreuth","type":"Landkreis"},"federalState":{"key":"09","name":"Bayern"}},{"name":"Stationsweg","postalCode":"95652","locality":"Waldsassen","municipality":{"key":"09377158","name":"Waldsassen, St","type":"Stadt"},"district":{"key":"09377","name":"Tirschenreuth","type":"Landkreis"},"federalState":{"key":"09","name":"Bayern"}},{"name":"Stegwiesenstr.","postalCode":"95652","locality":"Waldsassen","municipality":{"key":"09377158","name":"Waldsassen, St","type":"Stadt"},"district":{"key":"09377","name":"Tirschenreuth","type":"Landkreis"},"federalState":{"key":"09","name":"Bayern"}},{"name":"Steinerstr.","postalCode":"95652","locality":"Waldsassen","municipality":{"key":"09377158","name":"Waldsassen, St","type":"Stadt"},"district":{"key":"09377","name":"Tirschenreuth","type":"Landkreis"},"federalState":{"key":"09","name":"Bayern"}},{"name":"Steinweg","postalCode":"95652","locality":"Waldsassen","municipality":{"key":"09377158","name":"Waldsassen, St","type":"Stadt"},"district":{"key":"09377","name":"Tirschenreuth","type":"Landkreis"},"federalState":{"key":"09","name":"Bayern"}},{"name":"Stiftlandstr.","postalCode":"95652","locality":"Waldsassen","municipality":{"key":"09377158","name":"Waldsassen, St","type":"Stadt"},"district":{"key":"09377","name":"Tirschenreuth","type":"Landkreis"},"federalState":{"key":"09","name":"Bayern"}},{"name":"Turnerweg","postalCode":"95652","locality":"Waldsassen","municipality":{"key":"09377158","name":"Waldsassen, St","type":"Stadt"},"district":{"key":"09377","name":"Tirschenreuth","type":"Landkreis"},"federalState":{"key":"09","name":"Bayern"}},{"name":"Unnaplatz","postalCode":"95643","locality":"Tirschenreuth","municipality":{"key":"09377154","name":"Tirschenreuth, St","type":"Stadt"},"district":{"key":"09377","name":"Tirschenreuth","type":"Landkreis"},"federalState":{"key":"09","name":"Bayern"}},{"name":"Urbanstr.","postalCode":"95643","locality":"Tirschenreuth","municipality":{"key":"09377154","name":"Tirschenreuth, St","type":"Stadt"},"district":{"key":"09377","name":"Tirschenreuth","type":"Landkreis"},"federalState":{"key":"09","name":"Bayern"}},{"name":"Von-Ketteler-Str.","postalCode":"95652","locality":"Waldsassen","municipality":{"key":"09377158","name":"Waldsassen, St","type":"Stadt"},"district":{"key":"09377","name":"Tirschenreuth","type":"Landkreis"},"federalState":{"key":"09","name":"Bayern"}},{"name":"Waldsassener Str.","postalCode":"95652","locality":"Waldsassen","municipality":{"key":"09377158","name":"Waldsassen, St","type":"Stadt"},"district":{"key":"09377","name":"Tirschenreuth","type":"Landkreis"},"federalState":{"key":"09","name":"Bayern"}},{"name":"Waldstr.","postalCode":"95652","locality":"Waldsassen","municipality":{"key":"09377158","name":"Waldsassen, St","type":"Stadt"},"district":{"key":"09377","name":"Tirschenreuth","type":"Landkreis"},"federalState":{"key":"09","name":"Bayern"}},{"name":"Wiesenstr.","postalCode":"95652","locality":"Waldsassen","municipality":{"key":"09377158","name":"Waldsassen, St","type":"Stadt"},"district":{"key":"09377","name":"Tirschenreuth","type":"Landkreis"},"federalState":{"key":"09","name":"Bayern"}},{"name":"Wirtsgasse","postalCode":"95652","locality":"Waldsassen","municipality":{"key":"09377158","name":"Waldsassen, St","type":"Stadt"},"district":{"key":"09377","name":"Tirschenreuth","type":"Landkreis"},"federalState":{"key":"09","name":"Bayern"}},{"name":"Zinkenwehrstr.","postalCode":"95652","locality":"Waldsassen","municipality":{"key":"09377158","name":"Waldsassen, St","type":"Stadt"},"district":{"key":"09377","name":"Tirschenreuth","type":"Landkreis"},"federalState":{"key":"09","name":"Bayern"}},{"name":"Zum Jägersteig","postalCode":"95652","locality":"Waldsassen","municipality":{"key":"09377158","name":"Waldsassen, St","type":"Stadt"},"district":{"key":"09377","name":"Tirschenreuth","type":"Landkreis"},"federalState":{"key":"09","name":"Bayern"}},{"name":"Zur ehemaligen Porzellanfabrik","postalCode":"95652","locality":"Waldsassen","municipality":{"key":"09377158","name":"Waldsassen, St","type":"Stadt"},"district":{"key":"09377","name":"Tirschenreuth","type":"Landkreis"},"federalState":{"key":"09","name":"Bayern"}},{"name":"Äußere Regensburger Str.","postalCode":"95643","locality":"Tirschenreuth","municipality":{"key":"09377154","name":"Tirschenreuth, St","type":"Stadt"},"district":{"key":"09377","name":"Tirschenreuth","type":"Landkreis"},"federalState":{"key":"09","name":"Bayern"}},]