[{"name":"Ahornweg","postalCode":"14641","locality":"Wustermark","municipality":{"key":"12063357","name":"Wustermark","type":"Kreisangehörige_Gemeinde"},"district":{"key":"12063","name":"Havelland","type":"Landkreis"},"federalState":{"key":"12","name":"Brandenburg"}},{"name":"Akazienstr.","postalCode":"14641","locality":"Wustermark","municipality":{"key":"12063357","name":"Wustermark","type":"Kreisangehörige_Gemeinde"},"district":{"key":"12063","name":"Havelland","type":"Landkreis"},"federalState":{"key":"12","name":"Brandenburg"}},{"name":"Alte Dorfstr.","postalCode":"14641","locality":"Wustermark","municipality":{"key":"12063357","name":"Wustermark","type":"Kreisangehörige_Gemeinde"},"district":{"key":"12063","name":"Havelland","type":"Landkreis"},"federalState":{"key":"12","name":"Brandenburg"}},{"name":"Alter Spandauer Weg","postalCode":"14641","locality":"Wustermark","municipality":{"key":"12063357","name":"Wustermark","type":"Kreisangehörige_Gemeinde"},"district":{"key":"12063","name":"Havelland","type":"Landkreis"},"federalState":{"key":"12","name":"Brandenburg"}},{"name":"Am Elsbusch","postalCode":"14641","locality":"Wustermark","municipality":{"key":"12063357","name":"Wustermark","type":"Kreisangehörige_Gemeinde"},"district":{"key":"12063","name":"Havelland","type":"Landkreis"},"federalState":{"key":"12","name":"Brandenburg"}},{"name":"Am Havelkanal","postalCode":"14641","locality":"Wustermark","municipality":{"key":"12063357","name":"Wustermark","type":"Kreisangehörige_Gemeinde"},"district":{"key":"12063","name":"Havelland","type":"Landkreis"},"federalState":{"key":"12","name":"Brandenburg"}},{"name":"Am Igelpfuhl","postalCode":"14641","locality":"Wustermark","municipality":{"key":"12063357","name":"Wustermark","type":"Kreisangehörige_Gemeinde"},"district":{"key":"12063","name":"Havelland","type":"Landkreis"},"federalState":{"key":"12","name":"Brandenburg"}},{"name":"Am Kirchweg","postalCode":"14641","locality":"Wustermark","municipality":{"key":"12063357","name":"Wustermark","type":"Kreisangehörige_Gemeinde"},"district":{"key":"12063","name":"Havelland","type":"Landkreis"},"federalState":{"key":"12","name":"Brandenburg"}},{"name":"Am Markauer Weg","postalCode":"14641","locality":"Wustermark","municipality":{"key":"12063357","name":"Wustermark","type":"Kreisangehörige_Gemeinde"},"district":{"key":"12063","name":"Havelland","type":"Landkreis"},"federalState":{"key":"12","name":"Brandenburg"}},{"name":"Am Markt","postalCode":"14641","locality":"Wustermark","municipality":{"key":"12063357","name":"Wustermark","type":"Kreisangehörige_Gemeinde"},"district":{"key":"12063","name":"Havelland","type":"Landkreis"},"federalState":{"key":"12","name":"Brandenburg"}},{"name":"Am Moorbruch","postalCode":"14641","locality":"Wustermark","municipality":{"key":"12063357","name":"Wustermark","type":"Kreisangehörige_Gemeinde"},"district":{"key":"12063","name":"Havelland","type":"Landkreis"},"federalState":{"key":"12","name":"Brandenburg"}},{"name":"Am Mühlenberg","postalCode":"14641","locality":"Wustermark","municipality":{"key":"12063357","name":"Wustermark","type":"Kreisangehörige_Gemeinde"},"district":{"key":"12063","name":"Havelland","type":"Landkreis"},"federalState":{"key":"12","name":"Brandenburg"}},{"name":"Am Obstgarten","postalCode":"14641","locality":"Wustermark","municipality":{"key":"12063357","name":"Wustermark","type":"Kreisangehörige_Gemeinde"},"district":{"key":"12063","name":"Havelland","type":"Landkreis"},"federalState":{"key":"12","name":"Brandenburg"}},{"name":"Am Pappelhain","postalCode":"14641","locality":"Wustermark","municipality":{"key":"12063357","name":"Wustermark","type":"Kreisangehörige_Gemeinde"},"district":{"key":"12063","name":"Havelland","type":"Landkreis"},"federalState":{"key":"12","name":"Brandenburg"}},{"name":"Amselgasse","postalCode":"14641","locality":"Wustermark","municipality":{"key":"12063357","name":"Wustermark","type":"Kreisangehörige_Gemeinde"},"district":{"key":"12063","name":"Havelland","type":"Landkreis"},"federalState":{"key":"12","name":"Brandenburg"}},{"name":"Amselweg","postalCode":"14641","locality":"Wustermark","municipality":{"key":"12063357","name":"Wustermark","type":"Kreisangehörige_Gemeinde"},"district":{"key":"12063","name":"Havelland","type":"Landkreis"},"federalState":{"key":"12","name":"Brandenburg"}},{"name":"Am Sportplatz","postalCode":"14641","locality":"Wustermark","municipality":{"key":"12063357","name":"Wustermark","type":"Kreisangehörige_Gemeinde"},"district":{"key":"12063","name":"Havelland","type":"Landkreis"},"federalState":{"key":"12","name":"Brandenburg"}},{"name":"Am Stellberg","postalCode":"14641","locality":"Wustermark","municipality":{"key":"12063357","name":"Wustermark","type":"Kreisangehörige_Gemeinde"},"district":{"key":"12063","name":"Havelland","type":"Landkreis"},"federalState":{"key":"12","name":"Brandenburg"}},{"name":"Amsterdamer Str.","postalCode":"14641","locality":"Wustermark","municipality":{"key":"12063357","name":"Wustermark","type":"Kreisangehörige_Gemeinde"},"district":{"key":"12063","name":"Havelland","type":"Landkreis"},"federalState":{"key":"12","name":"Brandenburg"}},{"name":"Am Umspannwerk","postalCode":"14641","locality":"Wustermark","municipality":{"key":"12063357","name":"Wustermark","type":"Kreisangehörige_Gemeinde"},"district":{"key":"12063","name":"Havelland","type":"Landkreis"},"federalState":{"key":"12","name":"Brandenburg"}},{"name":"Am Upstall","postalCode":"14641","locality":"Wustermark","municipality":{"key":"12063357","name":"Wustermark","type":"Kreisangehörige_Gemeinde"},"district":{"key":"12063","name":"Havelland","type":"Landkreis"},"federalState":{"key":"12","name":"Brandenburg"}},{"name":"Am Wald","postalCode":"14641","locality":"Wustermark","municipality":{"key":"12063357","name":"Wustermark","type":"Kreisangehörige_Gemeinde"},"district":{"key":"12063","name":"Havelland","type":"Landkreis"},"federalState":{"key":"12","name":"Brandenburg"}},{"name":"Am Wasserturm","postalCode":"14641","locality":"Wustermark","municipality":{"key":"12063357","name":"Wustermark","type":"Kreisangehörige_Gemeinde"},"district":{"key":"12063","name":"Havelland","type":"Landkreis"},"federalState":{"key":"12","name":"Brandenburg"}},{"name":"Am Weiler","postalCode":"14641","locality":"Wustermark","municipality":{"key":"12063357","name":"Wustermark","type":"Kreisangehörige_Gemeinde"},"district":{"key":"12063","name":"Havelland","type":"Landkreis"},"federalState":{"key":"12","name":"Brandenburg"}},{"name":"Am Weinberg","postalCode":"14641","locality":"Wustermark","municipality":{"key":"12063357","name":"Wustermark","type":"Kreisangehörige_Gemeinde"},"district":{"key":"12063","name":"Havelland","type":"Landkreis"},"federalState":{"key":"12","name":"Brandenburg"}},{"name":"Am Weinmeisterbruch","postalCode":"14641","locality":"Wustermark","municipality":{"key":"12063357","name":"Wustermark","type":"Kreisangehörige_Gemeinde"},"district":{"key":"12063","name":"Havelland","type":"Landkreis"},"federalState":{"key":"12","name":"Brandenburg"}},{"name":"Am Wiesengrund","postalCode":"14641","locality":"Wustermark","municipality":{"key":"12063357","name":"Wustermark","type":"Kreisangehörige_Gemeinde"},"district":{"key":"12063","name":"Havelland","type":"Landkreis"},"federalState":{"key":"12","name":"Brandenburg"}},{"name":"Am Ziegeleischlag","postalCode":"14641","locality":"Wustermark","municipality":{"key":"12063357","name":"Wustermark","type":"Kreisangehörige_Gemeinde"},"district":{"key":"12063","name":"Havelland","type":"Landkreis"},"federalState":{"key":"12","name":"Brandenburg"}},{"name":"An den Göhren","postalCode":"14641","locality":"Wustermark","municipality":{"key":"12063357","name":"Wustermark","type":"Kreisangehörige_Gemeinde"},"district":{"key":"12063","name":"Havelland","type":"Landkreis"},"federalState":{"key":"12","name":"Brandenburg"}},{"name":"An den Schraan","postalCode":"14641","locality":"Wustermark","municipality":{"key":"12063357","name":"Wustermark","type":"Kreisangehörige_Gemeinde"},"district":{"key":"12063","name":"Havelland","type":"Landkreis"},"federalState":{"key":"12","name":"Brandenburg"}},{"name":"An der breiten Wiese","postalCode":"14641","locality":"Wustermark","municipality":{"key":"12063357","name":"Wustermark","type":"Kreisangehörige_Gemeinde"},"district":{"key":"12063","name":"Havelland","type":"Landkreis"},"federalState":{"key":"12","name":"Brandenburg"}},{"name":"An der Haarlake","postalCode":"14641","locality":"Wustermark","municipality":{"key":"12063357","name":"Wustermark","type":"Kreisangehörige_Gemeinde"},"district":{"key":"12063","name":"Havelland","type":"Landkreis"},"federalState":{"key":"12","name":"Brandenburg"}},{"name":"An der Kohlwalle","postalCode":"14641","locality":"Wustermark","municipality":{"key":"12063357","name":"Wustermark","type":"Kreisangehörige_Gemeinde"},"district":{"key":"12063","name":"Havelland","type":"Landkreis"},"federalState":{"key":"12","name":"Brandenburg"}},{"name":"An der Lämmerwiese","postalCode":"14641","locality":"Wustermark","municipality":{"key":"12063357","name":"Wustermark","type":"Kreisangehörige_Gemeinde"},"district":{"key":"12063","name":"Havelland","type":"Landkreis"},"federalState":{"key":"12","name":"Brandenburg"}},{"name":"An der Schule","postalCode":"14641","locality":"Wustermark","municipality":{"key":"12063357","name":"Wustermark","type":"Kreisangehörige_Gemeinde"},"district":{"key":"12063","name":"Havelland","type":"Landkreis"},"federalState":{"key":"12","name":"Brandenburg"}},{"name":"An der Worthe","postalCode":"14641","locality":"Wustermark","municipality":{"key":"12063357","name":"Wustermark","type":"Kreisangehörige_Gemeinde"},"district":{"key":"12063","name":"Havelland","type":"Landkreis"},"federalState":{"key":"12","name":"Brandenburg"}},{"name":"Antwerpener Str.","postalCode":"14641","locality":"Wustermark","municipality":{"key":"12063357","name":"Wustermark","type":"Kreisangehörige_Gemeinde"},"district":{"key":"12063","name":"Havelland","type":"Landkreis"},"federalState":{"key":"12","name":"Brandenburg"}},{"name":"Athener Str.","postalCode":"14641","locality":"Wustermark","municipality":{"key":"12063357","name":"Wustermark","type":"Kreisangehörige_Gemeinde"},"district":{"key":"12063","name":"Havelland","type":"Landkreis"},"federalState":{"key":"12","name":"Brandenburg"}},{"name":"August-Bebel-Str.","postalCode":"14641","locality":"Wustermark","municipality":{"key":"12063357","name":"Wustermark","type":"Kreisangehörige_Gemeinde"},"district":{"key":"12063","name":"Havelland","type":"Landkreis"},"federalState":{"key":"12","name":"Brandenburg"}},{"name":"Bachstr.","postalCode":"14641","locality":"Wustermark","municipality":{"key":"12063357","name":"Wustermark","type":"Kreisangehörige_Gemeinde"},"district":{"key":"12063","name":"Havelland","type":"Landkreis"},"federalState":{"key":"12","name":"Brandenburg"}},{"name":"Bahnhof","postalCode":"14641","locality":"Wustermark","municipality":{"key":"12063357","name":"Wustermark","type":"Kreisangehörige_Gemeinde"},"district":{"key":"12063","name":"Havelland","type":"Landkreis"},"federalState":{"key":"12","name":"Brandenburg"}},{"name":"Bahnhofstr.","postalCode":"14641","locality":"Wustermark","municipality":{"key":"12063357","name":"Wustermark","type":"Kreisangehörige_Gemeinde"},"district":{"key":"12063","name":"Havelland","type":"Landkreis"},"federalState":{"key":"12","name":"Brandenburg"}},{"name":"Barfusspfad","postalCode":"14641","locality":"Wustermark","municipality":{"key":"12063357","name":"Wustermark","type":"Kreisangehörige_Gemeinde"},"district":{"key":"12063","name":"Havelland","type":"Landkreis"},"federalState":{"key":"12","name":"Brandenburg"}},{"name":"Baumfalkenweg","postalCode":"14641","locality":"Wustermark","municipality":{"key":"12063357","name":"Wustermark","type":"Kreisangehörige_Gemeinde"},"district":{"key":"12063","name":"Havelland","type":"Landkreis"},"federalState":{"key":"12","name":"Brandenburg"}},{"name":"Baustellenzufahrt","postalCode":"14641","locality":"Wustermark","municipality":{"key":"12063357","name":"Wustermark","type":"Kreisangehörige_Gemeinde"},"district":{"key":"12063","name":"Havelland","type":"Landkreis"},"federalState":{"key":"12","name":"Brandenburg"}},{"name":"Berliner Allee","postalCode":"14641","locality":"Wustermark","municipality":{"key":"12063357","name":"Wustermark","type":"Kreisangehörige_Gemeinde"},"district":{"key":"12063","name":"Havelland","type":"Landkreis"},"federalState":{"key":"12","name":"Brandenburg"}},{"name":"Berliner Chaussee","postalCode":"14641","locality":"Wustermark","municipality":{"key":"12063357","name":"Wustermark","type":"Kreisangehörige_Gemeinde"},"district":{"key":"12063","name":"Havelland","type":"Landkreis"},"federalState":{"key":"12","name":"Brandenburg"}},{"name":"Berliner Str.","postalCode":"14641","locality":"Wustermark","municipality":{"key":"12063357","name":"Wustermark","type":"Kreisangehörige_Gemeinde"},"district":{"key":"12063","name":"Havelland","type":"Landkreis"},"federalState":{"key":"12","name":"Brandenburg"}},{"name":"Berta-Gieselbusch-Weg","postalCode":"14641","locality":"Wustermark","municipality":{"key":"12063357","name":"Wustermark","type":"Kreisangehörige_Gemeinde"},"district":{"key":"12063","name":"Havelland","type":"Landkreis"},"federalState":{"key":"12","name":"Brandenburg"}},{"name":"Birkenstr.","postalCode":"14641","locality":"Wustermark","municipality":{"key":"12063357","name":"Wustermark","type":"Kreisangehörige_Gemeinde"},"district":{"key":"12063","name":"Havelland","type":"Landkreis"},"federalState":{"key":"12","name":"Brandenburg"}},{"name":"Birkenweg","postalCode":"14641","locality":"Wustermark","municipality":{"key":"12063357","name":"Wustermark","type":"Kreisangehörige_Gemeinde"},"district":{"key":"12063","name":"Havelland","type":"Landkreis"},"federalState":{"key":"12","name":"Brandenburg"}},{"name":"Brandenburger Str.","postalCode":"14641","locality":"Wustermark","municipality":{"key":"12063357","name":"Wustermark","type":"Kreisangehörige_Gemeinde"},"district":{"key":"12063","name":"Havelland","type":"Landkreis"},"federalState":{"key":"12","name":"Brandenburg"}},{"name":"Breite Str.","postalCode":"14641","locality":"Wustermark","municipality":{"key":"12063357","name":"Wustermark","type":"Kreisangehörige_Gemeinde"},"district":{"key":"12063","name":"Havelland","type":"Landkreis"},"federalState":{"key":"12","name":"Brandenburg"}},{"name":"Bremer Ring","postalCode":"14641","locality":"Wustermark","municipality":{"key":"12063357","name":"Wustermark","type":"Kreisangehörige_Gemeinde"},"district":{"key":"12063","name":"Havelland","type":"Landkreis"},"federalState":{"key":"12","name":"Brandenburg"}},{"name":"Carl-von-Ossietzky-Str.","postalCode":"14641","locality":"Wustermark","municipality":{"key":"12063357","name":"Wustermark","type":"Kreisangehörige_Gemeinde"},"district":{"key":"12063","name":"Havelland","type":"Landkreis"},"federalState":{"key":"12","name":"Brandenburg"}},{"name":"Chaussee","postalCode":"14641","locality":"Wustermark","municipality":{"key":"12063357","name":"Wustermark","type":"Kreisangehörige_Gemeinde"},"district":{"key":"12063","name":"Havelland","type":"Landkreis"},"federalState":{"key":"12","name":"Brandenburg"}},{"name":"Dorfanger","postalCode":"14641","locality":"Wustermark","municipality":{"key":"12063357","name":"Wustermark","type":"Kreisangehörige_Gemeinde"},"district":{"key":"12063","name":"Havelland","type":"Landkreis"},"federalState":{"key":"12","name":"Brandenburg"}},{"name":"Dorfstr.","postalCode":"14641","locality":"Wustermark","municipality":{"key":"12063357","name":"Wustermark","type":"Kreisangehörige_Gemeinde"},"district":{"key":"12063","name":"Havelland","type":"Landkreis"},"federalState":{"key":"12","name":"Brandenburg"}},{"name":"Dresdener Str.","postalCode":"14641","locality":"Wustermark","municipality":{"key":"12063357","name":"Wustermark","type":"Kreisangehörige_Gemeinde"},"district":{"key":"12063","name":"Havelland","type":"Landkreis"},"federalState":{"key":"12","name":"Brandenburg"}},{"name":"Drosselgasse","postalCode":"14641","locality":"Wustermark","municipality":{"key":"12063357","name":"Wustermark","type":"Kreisangehörige_Gemeinde"},"district":{"key":"12063","name":"Havelland","type":"Landkreis"},"federalState":{"key":"12","name":"Brandenburg"}},{"name":"Drosselweg","postalCode":"14641","locality":"Wustermark","municipality":{"key":"12063357","name":"Wustermark","type":"Kreisangehörige_Gemeinde"},"district":{"key":"12063","name":"Havelland","type":"Landkreis"},"federalState":{"key":"12","name":"Brandenburg"}},{"name":"Duisburger Str.","postalCode":"14641","locality":"Wustermark","municipality":{"key":"12063357","name":"Wustermark","type":"Kreisangehörige_Gemeinde"},"district":{"key":"12063","name":"Havelland","type":"Landkreis"},"federalState":{"key":"12","name":"Brandenburg"}},{"name":"Dyrotzer Winkel","postalCode":"14641","locality":"Wustermark","municipality":{"key":"12063357","name":"Wustermark","type":"Kreisangehörige_Gemeinde"},"district":{"key":"12063","name":"Havelland","type":"Landkreis"},"federalState":{"key":"12","name":"Brandenburg"}},{"name":"Eduard-Scheve-Allee","postalCode":"14641","locality":"Wustermark","municipality":{"key":"12063357","name":"Wustermark","type":"Kreisangehörige_Gemeinde"},"district":{"key":"12063","name":"Havelland","type":"Landkreis"},"federalState":{"key":"12","name":"Brandenburg"}},{"name":"Eichenring","postalCode":"14641","locality":"Wustermark","municipality":{"key":"12063357","name":"Wustermark","type":"Kreisangehörige_Gemeinde"},"district":{"key":"12063","name":"Havelland","type":"Landkreis"},"federalState":{"key":"12","name":"Brandenburg"}},{"name":"Eichhornring","postalCode":"14641","locality":"Wustermark","municipality":{"key":"12063357","name":"Wustermark","type":"Kreisangehörige_Gemeinde"},"district":{"key":"12063","name":"Havelland","type":"Landkreis"},"federalState":{"key":"12","name":"Brandenburg"}},{"name":"Eidechsenweg","postalCode":"14641","locality":"Wustermark","municipality":{"key":"12063357","name":"Wustermark","type":"Kreisangehörige_Gemeinde"},"district":{"key":"12063","name":"Havelland","type":"Landkreis"},"federalState":{"key":"12","name":"Brandenburg"}},{"name":"Elfenring","postalCode":"14641","locality":"Wustermark","municipality":{"key":"12063357","name":"Wustermark","type":"Kreisangehörige_Gemeinde"},"district":{"key":"12063","name":"Havelland","type":"Landkreis"},"federalState":{"key":"12","name":"Brandenburg"}},{"name":"Ernst-Koch-Str.","postalCode":"14641","locality":"Wustermark","municipality":{"key":"12063357","name":"Wustermark","type":"Kreisangehörige_Gemeinde"},"district":{"key":"12063","name":"Havelland","type":"Landkreis"},"federalState":{"key":"12","name":"Brandenburg"}},{"name":"Ernst-Thälmann-Platz","postalCode":"14641","locality":"Wustermark","municipality":{"key":"12063357","name":"Wustermark","type":"Kreisangehörige_Gemeinde"},"district":{"key":"12063","name":"Havelland","type":"Landkreis"},"federalState":{"key":"12","name":"Brandenburg"}},{"name":"Ernst-Walter-Weg","postalCode":"14641","locality":"Wustermark","municipality":{"key":"12063357","name":"Wustermark","type":"Kreisangehörige_Gemeinde"},"district":{"key":"12063","name":"Havelland","type":"Landkreis"},"federalState":{"key":"12","name":"Brandenburg"}},{"name":"Eulenspiegelring","postalCode":"14641","locality":"Wustermark","municipality":{"key":"12063357","name":"Wustermark","type":"Kreisangehörige_Gemeinde"},"district":{"key":"12063","name":"Havelland","type":"Landkreis"},"federalState":{"key":"12","name":"Brandenburg"}},{"name":"Feenring","postalCode":"14641","locality":"Wustermark","municipality":{"key":"12063357","name":"Wustermark","type":"Kreisangehörige_Gemeinde"},"district":{"key":"12063","name":"Havelland","type":"Landkreis"},"federalState":{"key":"12","name":"Brandenburg"}},{"name":"Feldstr.","postalCode":"14641","locality":"Wustermark","municipality":{"key":"12063357","name":"Wustermark","type":"Kreisangehörige_Gemeinde"},"district":{"key":"12063","name":"Havelland","type":"Landkreis"},"federalState":{"key":"12","name":"Brandenburg"}},{"name":"Feldweg","postalCode":"14641","locality":"Wustermark","municipality":{"key":"12063357","name":"Wustermark","type":"Kreisangehörige_Gemeinde"},"district":{"key":"12063","name":"Havelland","type":"Landkreis"},"federalState":{"key":"12","name":"Brandenburg"}},{"name":"Ferbitzer Weg","postalCode":"14641","locality":"Wustermark","municipality":{"key":"12063357","name":"Wustermark","type":"Kreisangehörige_Gemeinde"},"district":{"key":"12063","name":"Havelland","type":"Landkreis"},"federalState":{"key":"12","name":"Brandenburg"}},{"name":"Finkenweg","postalCode":"14641","locality":"Wustermark","municipality":{"key":"12063357","name":"Wustermark","type":"Kreisangehörige_Gemeinde"},"district":{"key":"12063","name":"Havelland","type":"Landkreis"},"federalState":{"key":"12","name":"Brandenburg"}},{"name":"Freystr.","postalCode":"14641","locality":"Wustermark","municipality":{"key":"12063357","name":"Wustermark","type":"Kreisangehörige_Gemeinde"},"district":{"key":"12063","name":"Havelland","type":"Landkreis"},"federalState":{"key":"12","name":"Brandenburg"}},{"name":"Friedensweg","postalCode":"14641","locality":"Wustermark","municipality":{"key":"12063357","name":"Wustermark","type":"Kreisangehörige_Gemeinde"},"district":{"key":"12063","name":"Havelland","type":"Landkreis"},"federalState":{"key":"12","name":"Brandenburg"}},{"name":"Friedhofstr.","postalCode":"14641","locality":"Wustermark","municipality":{"key":"12063357","name":"Wustermark","type":"Kreisangehörige_Gemeinde"},"district":{"key":"12063","name":"Havelland","type":"Landkreis"},"federalState":{"key":"12","name":"Brandenburg"}},{"name":"Friedrich-Rumpf-Str.","postalCode":"14641","locality":"Wustermark","municipality":{"key":"12063357","name":"Wustermark","type":"Kreisangehörige_Gemeinde"},"district":{"key":"12063","name":"Havelland","type":"Landkreis"},"federalState":{"key":"12","name":"Brandenburg"}},{"name":"Gartenstr.","postalCode":"14641","locality":"Wustermark","municipality":{"key":"12063357","name":"Wustermark","type":"Kreisangehörige_Gemeinde"},"district":{"key":"12063","name":"Havelland","type":"Landkreis"},"federalState":{"key":"12","name":"Brandenburg"}},{"name":"Gasse","postalCode":"14641","locality":"Wustermark","municipality":{"key":"12063357","name":"Wustermark","type":"Kreisangehörige_Gemeinde"},"district":{"key":"12063","name":"Havelland","type":"Landkreis"},"federalState":{"key":"12","name":"Brandenburg"}},{"name":"Geschwister-Scholl-Str.","postalCode":"14641","locality":"Wustermark","municipality":{"key":"12063357","name":"Wustermark","type":"Kreisangehörige_Gemeinde"},"district":{"key":"12063","name":"Havelland","type":"Landkreis"},"federalState":{"key":"12","name":"Brandenburg"}},{"name":"Ginsterweg","postalCode":"14641","locality":"Wustermark","municipality":{"key":"12063357","name":"Wustermark","type":"Kreisangehörige_Gemeinde"},"district":{"key":"12063","name":"Havelland","type":"Landkreis"},"federalState":{"key":"12","name":"Brandenburg"}},{"name":"Glockenheidering","postalCode":"14641","locality":"Wustermark","municipality":{"key":"12063357","name":"Wustermark","type":"Kreisangehörige_Gemeinde"},"district":{"key":"12063","name":"Havelland","type":"Landkreis"},"federalState":{"key":"12","name":"Brandenburg"}},{"name":"Goethestr.","postalCode":"14641","locality":"Wustermark","municipality":{"key":"12063357","name":"Wustermark","type":"Kreisangehörige_Gemeinde"},"district":{"key":"12063","name":"Havelland","type":"Landkreis"},"federalState":{"key":"12","name":"Brandenburg"}},{"name":"Gottfried-Wilhelm-Lehmann-Str.","postalCode":"14641","locality":"Wustermark","municipality":{"key":"12063357","name":"Wustermark","type":"Kreisangehörige_Gemeinde"},"district":{"key":"12063","name":"Havelland","type":"Landkreis"},"federalState":{"key":"12","name":"Brandenburg"}},{"name":"Hafenstr.","postalCode":"14641","locality":"Wustermark","municipality":{"key":"12063357","name":"Wustermark","type":"Kreisangehörige_Gemeinde"},"district":{"key":"12063","name":"Havelland","type":"Landkreis"},"federalState":{"key":"12","name":"Brandenburg"}},{"name":"Hamburger Str.","postalCode":"14641","locality":"Wustermark","municipality":{"key":"12063357","name":"Wustermark","type":"Kreisangehörige_Gemeinde"},"district":{"key":"12063","name":"Havelland","type":"Landkreis"},"federalState":{"key":"12","name":"Brandenburg"}},{"name":"Hansestr.","postalCode":"14641","locality":"Wustermark","municipality":{"key":"12063357","name":"Wustermark","type":"Kreisangehörige_Gemeinde"},"district":{"key":"12063","name":"Havelland","type":"Landkreis"},"federalState":{"key":"12","name":"Brandenburg"}},{"name":"Hardenbergstr.","postalCode":"14641","locality":"Wustermark","municipality":{"key":"12063357","name":"Wustermark","type":"Kreisangehörige_Gemeinde"},"district":{"key":"12063","name":"Havelland","type":"Landkreis"},"federalState":{"key":"12","name":"Brandenburg"}},{"name":"Hauptallee","postalCode":"14641","locality":"Wustermark","municipality":{"key":"12063357","name":"Wustermark","type":"Kreisangehörige_Gemeinde"},"district":{"key":"12063","name":"Havelland","type":"Landkreis"},"federalState":{"key":"12","name":"Brandenburg"}},{"name":"Hauptstr.","postalCode":"14641","locality":"Wustermark","municipality":{"key":"12063357","name":"Wustermark","type":"Kreisangehörige_Gemeinde"},"district":{"key":"12063","name":"Havelland","type":"Landkreis"},"federalState":{"key":"12","name":"Brandenburg"}},{"name":"Heidelerchenallee","postalCode":"14641","locality":"Wustermark","municipality":{"key":"12063357","name":"Wustermark","type":"Kreisangehörige_Gemeinde"},"district":{"key":"12063","name":"Havelland","type":"Landkreis"},"federalState":{"key":"12","name":"Brandenburg"}},{"name":"Heideweg","postalCode":"14641","locality":"Wustermark","municipality":{"key":"12063357","name":"Wustermark","type":"Kreisangehörige_Gemeinde"},"district":{"key":"12063","name":"Havelland","type":"Landkreis"},"federalState":{"key":"12","name":"Brandenburg"}},{"name":"Herderweg","postalCode":"14641","locality":"Wustermark","municipality":{"key":"12063357","name":"Wustermark","type":"Kreisangehörige_Gemeinde"},"district":{"key":"12063","name":"Havelland","type":"Landkreis"},"federalState":{"key":"12","name":"Brandenburg"}},{"name":"Hermann-Stickelmann-Str.","postalCode":"14641","locality":"Wustermark","municipality":{"key":"12063357","name":"Wustermark","type":"Kreisangehörige_Gemeinde"},"district":{"key":"12063","name":"Havelland","type":"Landkreis"},"federalState":{"key":"12","name":"Brandenburg"}},{"name":"Heroldplatz","postalCode":"14641","locality":"Wustermark","municipality":{"key":"12063357","name":"Wustermark","type":"Kreisangehörige_Gemeinde"},"district":{"key":"12063","name":"Havelland","type":"Landkreis"},"federalState":{"key":"12","name":"Brandenburg"}},{"name":"Holunderweg","postalCode":"14641","locality":"Wustermark","municipality":{"key":"12063357","name":"Wustermark","type":"Kreisangehörige_Gemeinde"},"district":{"key":"12063","name":"Havelland","type":"Landkreis"},"federalState":{"key":"12","name":"Brandenburg"}},{"name":"Hoppenrader Allee","postalCode":"14641","locality":"Wustermark","municipality":{"key":"12063357","name":"Wustermark","type":"Kreisangehörige_Gemeinde"},"district":{"key":"12063","name":"Havelland","type":"Landkreis"},"federalState":{"key":"12","name":"Brandenburg"}},{"name":"Humboldtweg","postalCode":"14641","locality":"Wustermark","municipality":{"key":"12063357","name":"Wustermark","type":"Kreisangehörige_Gemeinde"},"district":{"key":"12063","name":"Havelland","type":"Landkreis"},"federalState":{"key":"12","name":"Brandenburg"}},{"name":"Jesse-Owens-Ring","postalCode":"14641","locality":"Wustermark","municipality":{"key":"12063357","name":"Wustermark","type":"Kreisangehörige_Gemeinde"},"district":{"key":"12063","name":"Havelland","type":"Landkreis"},"federalState":{"key":"12","name":"Brandenburg"}},{"name":"Johann-Gerhard-Oncken-Str.","postalCode":"14641","locality":"Wustermark","municipality":{"key":"12063357","name":"Wustermark","type":"Kreisangehörige_Gemeinde"},"district":{"key":"12063","name":"Havelland","type":"Landkreis"},"federalState":{"key":"12","name":"Brandenburg"}},{"name":"Julius-Köbner-Str.","postalCode":"14641","locality":"Wustermark","municipality":{"key":"12063357","name":"Wustermark","type":"Kreisangehörige_Gemeinde"},"district":{"key":"12063","name":"Havelland","type":"Landkreis"},"federalState":{"key":"12","name":"Brandenburg"}},{"name":"Karl-Liebknecht-Platz","postalCode":"14641","locality":"Wustermark","municipality":{"key":"12063357","name":"Wustermark","type":"Kreisangehörige_Gemeinde"},"district":{"key":"12063","name":"Havelland","type":"Landkreis"},"federalState":{"key":"12","name":"Brandenburg"}},{"name":"Karl-Marx-Str.","postalCode":"14641","locality":"Wustermark","municipality":{"key":"12063357","name":"Wustermark","type":"Kreisangehörige_Gemeinde"},"district":{"key":"12063","name":"Havelland","type":"Landkreis"},"federalState":{"key":"12","name":"Brandenburg"}},{"name":"Ketziner Str.","postalCode":"14641","locality":"Wustermark","municipality":{"key":"12063357","name":"Wustermark","type":"Kreisangehörige_Gemeinde"},"district":{"key":"12063","name":"Havelland","type":"Landkreis"},"federalState":{"key":"12","name":"Brandenburg"}},{"name":"Kiefernweg","postalCode":"14641","locality":"Wustermark","municipality":{"key":"12063357","name":"Wustermark","type":"Kreisangehörige_Gemeinde"},"district":{"key":"12063","name":"Havelland","type":"Landkreis"},"federalState":{"key":"12","name":"Brandenburg"}},{"name":"Kietzstr.","postalCode":"14641","locality":"Wustermark","municipality":{"key":"12063357","name":"Wustermark","type":"Kreisangehörige_Gemeinde"},"district":{"key":"12063","name":"Havelland","type":"Landkreis"},"federalState":{"key":"12","name":"Brandenburg"}},{"name":"Kirchstr.","postalCode":"14641","locality":"Wustermark","municipality":{"key":"12063357","name":"Wustermark","type":"Kreisangehörige_Gemeinde"},"district":{"key":"12063","name":"Havelland","type":"Landkreis"},"federalState":{"key":"12","name":"Brandenburg"}},{"name":"Kirschblütenweg","postalCode":"14641","locality":"Wustermark","municipality":{"key":"12063357","name":"Wustermark","type":"Kreisangehörige_Gemeinde"},"district":{"key":"12063","name":"Havelland","type":"Landkreis"},"federalState":{"key":"12","name":"Brandenburg"}},{"name":"Knoblaucher Weg","postalCode":"14641","locality":"Wustermark","municipality":{"key":"12063357","name":"Wustermark","type":"Kreisangehörige_Gemeinde"},"district":{"key":"12063","name":"Havelland","type":"Landkreis"},"federalState":{"key":"12","name":"Brandenburg"}},{"name":"Koboldsteg","postalCode":"14641","locality":"Wustermark","municipality":{"key":"12063357","name":"Wustermark","type":"Kreisangehörige_Gemeinde"},"district":{"key":"12063","name":"Havelland","type":"Landkreis"},"federalState":{"key":"12","name":"Brandenburg"}},{"name":"Kurt-Nagel-Str.","postalCode":"14641","locality":"Wustermark","municipality":{"key":"12063357","name":"Wustermark","type":"Kreisangehörige_Gemeinde"},"district":{"key":"12063","name":"Havelland","type":"Landkreis"},"federalState":{"key":"12","name":"Brandenburg"}},{"name":"Kurzer Weg","postalCode":"14641","locality":"Wustermark","municipality":{"key":"12063357","name":"Wustermark","type":"Kreisangehörige_Gemeinde"},"district":{"key":"12063","name":"Havelland","type":"Landkreis"},"federalState":{"key":"12","name":"Brandenburg"}},{"name":"Leipziger Str.","postalCode":"14641","locality":"Wustermark","municipality":{"key":"12063357","name":"Wustermark","type":"Kreisangehörige_Gemeinde"},"district":{"key":"12063","name":"Havelland","type":"Landkreis"},"federalState":{"key":"12","name":"Brandenburg"}},{"name":"Lerchenweg","postalCode":"14641","locality":"Wustermark","municipality":{"key":"12063357","name":"Wustermark","type":"Kreisangehörige_Gemeinde"},"district":{"key":"12063","name":"Havelland","type":"Landkreis"},"federalState":{"key":"12","name":"Brandenburg"}},{"name":"Lindenstr.","postalCode":"14641","locality":"Wustermark","municipality":{"key":"12063357","name":"Wustermark","type":"Kreisangehörige_Gemeinde"},"district":{"key":"12063","name":"Havelland","type":"Landkreis"},"federalState":{"key":"12","name":"Brandenburg"}},{"name":"Londoner Str.","postalCode":"14641","locality":"Wustermark","municipality":{"key":"12063357","name":"Wustermark","type":"Kreisangehörige_Gemeinde"},"district":{"key":"12063","name":"Havelland","type":"Landkreis"},"federalState":{"key":"12","name":"Brandenburg"}},{"name":"Luchweg","postalCode":"14641","locality":"Wustermark","municipality":{"key":"12063357","name":"Wustermark","type":"Kreisangehörige_Gemeinde"},"district":{"key":"12063","name":"Havelland","type":"Landkreis"},"federalState":{"key":"12","name":"Brandenburg"}},{"name":"Lützowstr.","postalCode":"14641","locality":"Wustermark","municipality":{"key":"12063357","name":"Wustermark","type":"Kreisangehörige_Gemeinde"},"district":{"key":"12063","name":"Havelland","type":"Landkreis"},"federalState":{"key":"12","name":"Brandenburg"}},{"name":"Magdeburger Str.","postalCode":"14641","locality":"Wustermark","municipality":{"key":"12063357","name":"Wustermark","type":"Kreisangehörige_Gemeinde"},"district":{"key":"12063","name":"Havelland","type":"Landkreis"},"federalState":{"key":"12","name":"Brandenburg"}},{"name":"Maulbeerallee","postalCode":"14641","locality":"Wustermark","municipality":{"key":"12063357","name":"Wustermark","type":"Kreisangehörige_Gemeinde"},"district":{"key":"12063","name":"Havelland","type":"Landkreis"},"federalState":{"key":"12","name":"Brandenburg"}},{"name":"Meisengasse","postalCode":"14641","locality":"Wustermark","municipality":{"key":"12063357","name":"Wustermark","type":"Kreisangehörige_Gemeinde"},"district":{"key":"12063","name":"Havelland","type":"Landkreis"},"federalState":{"key":"12","name":"Brandenburg"}},{"name":"Meisenweg","postalCode":"14641","locality":"Wustermark","municipality":{"key":"12063357","name":"Wustermark","type":"Kreisangehörige_Gemeinde"},"district":{"key":"12063","name":"Havelland","type":"Landkreis"},"federalState":{"key":"12","name":"Brandenburg"}},{"name":"Mittelallee","postalCode":"14641","locality":"Wustermark","municipality":{"key":"12063357","name":"Wustermark","type":"Kreisangehörige_Gemeinde"},"district":{"key":"12063","name":"Havelland","type":"Landkreis"},"federalState":{"key":"12","name":"Brandenburg"}},{"name":"Mittelweg","postalCode":"14641","locality":"Wustermark","municipality":{"key":"12063357","name":"Wustermark","type":"Kreisangehörige_Gemeinde"},"district":{"key":"12063","name":"Havelland","type":"Landkreis"},"federalState":{"key":"12","name":"Brandenburg"}},{"name":"Mühlenweg","postalCode":"14641","locality":"Wustermark","municipality":{"key":"12063357","name":"Wustermark","type":"Kreisangehörige_Gemeinde"},"district":{"key":"12063","name":"Havelland","type":"Landkreis"},"federalState":{"key":"12","name":"Brandenburg"}},{"name":"Nauener Str.","postalCode":"14641","locality":"Wustermark","municipality":{"key":"12063357","name":"Wustermark","type":"Kreisangehörige_Gemeinde"},"district":{"key":"12063","name":"Havelland","type":"Landkreis"},"federalState":{"key":"12","name":"Brandenburg"}},{"name":"Neubauernweg","postalCode":"14641","locality":"Wustermark","municipality":{"key":"12063357","name":"Wustermark","type":"Kreisangehörige_Gemeinde"},"district":{"key":"12063","name":"Havelland","type":"Landkreis"},"federalState":{"key":"12","name":"Brandenburg"}},{"name":"Neue Bahnhofstr.","postalCode":"14641","locality":"Wustermark","municipality":{"key":"12063357","name":"Wustermark","type":"Kreisangehörige_Gemeinde"},"district":{"key":"12063","name":"Havelland","type":"Landkreis"},"federalState":{"key":"12","name":"Brandenburg"}},{"name":"Neue Chaussee","postalCode":"14641","locality":"Wustermark","municipality":{"key":"12063357","name":"Wustermark","type":"Kreisangehörige_Gemeinde"},"district":{"key":"12063","name":"Havelland","type":"Landkreis"},"federalState":{"key":"12","name":"Brandenburg"}},{"name":"Nickelstr.","postalCode":"14641","locality":"Wustermark","municipality":{"key":"12063357","name":"Wustermark","type":"Kreisangehörige_Gemeinde"},"district":{"key":"12063","name":"Havelland","type":"Landkreis"},"federalState":{"key":"12","name":"Brandenburg"}},{"name":"Nürnberger Str.","postalCode":"14641","locality":"Wustermark","municipality":{"key":"12063357","name":"Wustermark","type":"Kreisangehörige_Gemeinde"},"district":{"key":"12063","name":"Havelland","type":"Landkreis"},"federalState":{"key":"12","name":"Brandenburg"}},{"name":"Pappelweg","postalCode":"14641","locality":"Wustermark","municipality":{"key":"12063357","name":"Wustermark","type":"Kreisangehörige_Gemeinde"},"district":{"key":"12063","name":"Havelland","type":"Landkreis"},"federalState":{"key":"12","name":"Brandenburg"}},{"name":"Pariser Str.","postalCode":"14641","locality":"Wustermark","municipality":{"key":"12063357","name":"Wustermark","type":"Kreisangehörige_Gemeinde"},"district":{"key":"12063","name":"Havelland","type":"Landkreis"},"federalState":{"key":"12","name":"Brandenburg"}},{"name":"Parkstr.","postalCode":"14641","locality":"Wustermark","municipality":{"key":"12063357","name":"Wustermark","type":"Kreisangehörige_Gemeinde"},"district":{"key":"12063","name":"Havelland","type":"Landkreis"},"federalState":{"key":"12","name":"Brandenburg"}},{"name":"Plantagenstr.","postalCode":"14641","locality":"Wustermark","municipality":{"key":"12063357","name":"Wustermark","type":"Kreisangehörige_Gemeinde"},"district":{"key":"12063","name":"Havelland","type":"Landkreis"},"federalState":{"key":"12","name":"Brandenburg"}},{"name":"Potsdamer Allee","postalCode":"14641","locality":"Wustermark","municipality":{"key":"12063357","name":"Wustermark","type":"Kreisangehörige_Gemeinde"},"district":{"key":"12063","name":"Havelland","type":"Landkreis"},"federalState":{"key":"12","name":"Brandenburg"}},{"name":"Potsdamer Landstr.","postalCode":"14641","locality":"Wustermark","municipality":{"key":"12063357","name":"Wustermark","type":"Kreisangehörige_Gemeinde"},"district":{"key":"12063","name":"Havelland","type":"Landkreis"},"federalState":{"key":"12","name":"Brandenburg"}},{"name":"Potsdamer Str.","postalCode":"14641","locality":"Wustermark","municipality":{"key":"12063357","name":"Wustermark","type":"Kreisangehörige_Gemeinde"},"district":{"key":"12063","name":"Havelland","type":"Landkreis"},"federalState":{"key":"12","name":"Brandenburg"}},{"name":"Potsdamer Weg","postalCode":"14641","locality":"Wustermark","municipality":{"key":"12063357","name":"Wustermark","type":"Kreisangehörige_Gemeinde"},"district":{"key":"12063","name":"Havelland","type":"Landkreis"},"federalState":{"key":"12","name":"Brandenburg"}},{"name":"Priorter Dorfstr.","postalCode":"14641","locality":"Wustermark","municipality":{"key":"12063357","name":"Wustermark","type":"Kreisangehörige_Gemeinde"},"district":{"key":"12063","name":"Havelland","type":"Landkreis"},"federalState":{"key":"12","name":"Brandenburg"}},{"name":"Priorter Str.","postalCode":"14641","locality":"Wustermark","municipality":{"key":"12063357","name":"Wustermark","type":"Kreisangehörige_Gemeinde"},"district":{"key":"12063","name":"Havelland","type":"Landkreis"},"federalState":{"key":"12","name":"Brandenburg"}},{"name":"Puschkinstr.","postalCode":"14641","locality":"Wustermark","municipality":{"key":"12063357","name":"Wustermark","type":"Kreisangehörige_Gemeinde"},"district":{"key":"12063","name":"Havelland","type":"Landkreis"},"federalState":{"key":"12","name":"Brandenburg"}},{"name":"Radelandberg","postalCode":"14641","locality":"Wustermark","municipality":{"key":"12063357","name":"Wustermark","type":"Kreisangehörige_Gemeinde"},"district":{"key":"12063","name":"Havelland","type":"Landkreis"},"federalState":{"key":"12","name":"Brandenburg"}},{"name":"Rosa-Luxemburg-Allee","postalCode":"14641","locality":"Wustermark","municipality":{"key":"12063357","name":"Wustermark","type":"Kreisangehörige_Gemeinde"},"district":{"key":"12063","name":"Havelland","type":"Landkreis"},"federalState":{"key":"12","name":"Brandenburg"}},{"name":"Rosenweg","postalCode":"14641","locality":"Wustermark","municipality":{"key":"12063357","name":"Wustermark","type":"Kreisangehörige_Gemeinde"},"district":{"key":"12063","name":"Havelland","type":"Landkreis"},"federalState":{"key":"12","name":"Brandenburg"}},{"name":"Rostocker Str.","postalCode":"14641","locality":"Wustermark","municipality":{"key":"12063357","name":"Wustermark","type":"Kreisangehörige_Gemeinde"},"district":{"key":"12063","name":"Havelland","type":"Landkreis"},"federalState":{"key":"12","name":"Brandenburg"}},{"name":"Rotkehlchenweg","postalCode":"14641","locality":"Wustermark","municipality":{"key":"12063357","name":"Wustermark","type":"Kreisangehörige_Gemeinde"},"district":{"key":"12063","name":"Havelland","type":"Landkreis"},"federalState":{"key":"12","name":"Brandenburg"}},{"name":"Rudi-Nowack-Str.","postalCode":"14641","locality":"Wustermark","municipality":{"key":"12063357","name":"Wustermark","type":"Kreisangehörige_Gemeinde"},"district":{"key":"12063","name":"Havelland","type":"Landkreis"},"federalState":{"key":"12","name":"Brandenburg"}},{"name":"Rudolf-Breitscheid-Str.","postalCode":"14641","locality":"Wustermark","municipality":{"key":"12063357","name":"Wustermark","type":"Kreisangehörige_Gemeinde"},"district":{"key":"12063","name":"Havelland","type":"Landkreis"},"federalState":{"key":"12","name":"Brandenburg"}},{"name":"Scharnhorststr.","postalCode":"14641","locality":"Wustermark","municipality":{"key":"12063357","name":"Wustermark","type":"Kreisangehörige_Gemeinde"},"district":{"key":"12063","name":"Havelland","type":"Landkreis"},"federalState":{"key":"12","name":"Brandenburg"}},{"name":"Schneeheidering","postalCode":"14641","locality":"Wustermark","municipality":{"key":"12063357","name":"Wustermark","type":"Kreisangehörige_Gemeinde"},"district":{"key":"12063","name":"Havelland","type":"Landkreis"},"federalState":{"key":"12","name":"Brandenburg"}},{"name":"Schulstr.","postalCode":"14641","locality":"Wustermark","municipality":{"key":"12063357","name":"Wustermark","type":"Kreisangehörige_Gemeinde"},"district":{"key":"12063","name":"Havelland","type":"Landkreis"},"federalState":{"key":"12","name":"Brandenburg"}},{"name":"Schwalbenweg","postalCode":"14641","locality":"Wustermark","municipality":{"key":"12063357","name":"Wustermark","type":"Kreisangehörige_Gemeinde"},"district":{"key":"12063","name":"Havelland","type":"Landkreis"},"federalState":{"key":"12","name":"Brandenburg"}},{"name":"Sonnenallee","postalCode":"14641","locality":"Wustermark","municipality":{"key":"12063357","name":"Wustermark","type":"Kreisangehörige_Gemeinde"},"district":{"key":"12063","name":"Havelland","type":"Landkreis"},"federalState":{"key":"12","name":"Brandenburg"}},{"name":"Sophie-Scholl-Str.","postalCode":"14641","locality":"Wustermark","municipality":{"key":"12063357","name":"Wustermark","type":"Kreisangehörige_Gemeinde"},"district":{"key":"12063","name":"Havelland","type":"Landkreis"},"federalState":{"key":"12","name":"Brandenburg"}},{"name":"Sperlingsgasse","postalCode":"14641","locality":"Wustermark","municipality":{"key":"12063357","name":"Wustermark","type":"Kreisangehörige_Gemeinde"},"district":{"key":"12063","name":"Havelland","type":"Landkreis"},"federalState":{"key":"12","name":"Brandenburg"}},{"name":"Starengasse","postalCode":"14641","locality":"Wustermark","municipality":{"key":"12063357","name":"Wustermark","type":"Kreisangehörige_Gemeinde"},"district":{"key":"12063","name":"Havelland","type":"Landkreis"},"federalState":{"key":"12","name":"Brandenburg"}},{"name":"Starenweg","postalCode":"14641","locality":"Wustermark","municipality":{"key":"12063357","name":"Wustermark","type":"Kreisangehörige_Gemeinde"},"district":{"key":"12063","name":"Havelland","type":"Landkreis"},"federalState":{"key":"12","name":"Brandenburg"}},{"name":"Steinstr.","postalCode":"14641","locality":"Wustermark","municipality":{"key":"12063357","name":"Wustermark","type":"Kreisangehörige_Gemeinde"},"district":{"key":"12063","name":"Havelland","type":"Landkreis"},"federalState":{"key":"12","name":"Brandenburg"}},{"name":"Stieglitzgasse","postalCode":"14641","locality":"Wustermark","municipality":{"key":"12063357","name":"Wustermark","type":"Kreisangehörige_Gemeinde"},"district":{"key":"12063","name":"Havelland","type":"Landkreis"},"federalState":{"key":"12","name":"Brandenburg"}},{"name":"St. Louiser Str.","postalCode":"14641","locality":"Wustermark","municipality":{"key":"12063357","name":"Wustermark","type":"Kreisangehörige_Gemeinde"},"district":{"key":"12063","name":"Havelland","type":"Landkreis"},"federalState":{"key":"12","name":"Brandenburg"}},{"name":"Stockholmer Str.","postalCode":"14641","locality":"Wustermark","municipality":{"key":"12063357","name":"Wustermark","type":"Kreisangehörige_Gemeinde"},"district":{"key":"12063","name":"Havelland","type":"Landkreis"},"federalState":{"key":"12","name":"Brandenburg"}},{"name":"Str. der Gemeinschaft","postalCode":"14641","locality":"Wustermark","municipality":{"key":"12063357","name":"Wustermark","type":"Kreisangehörige_Gemeinde"},"district":{"key":"12063","name":"Havelland","type":"Landkreis"},"federalState":{"key":"12","name":"Brandenburg"}},{"name":"Theodor-Fontane-Ring","postalCode":"14641","locality":"Wustermark","municipality":{"key":"12063357","name":"Wustermark","type":"Kreisangehörige_Gemeinde"},"district":{"key":"12063","name":"Havelland","type":"Landkreis"},"federalState":{"key":"12","name":"Brandenburg"}},{"name":"Tulpenweg","postalCode":"14641","locality":"Wustermark","municipality":{"key":"12063357","name":"Wustermark","type":"Kreisangehörige_Gemeinde"},"district":{"key":"12063","name":"Havelland","type":"Landkreis"},"federalState":{"key":"12","name":"Brandenburg"}},{"name":"Unter den Kiefern","postalCode":"14641","locality":"Wustermark","municipality":{"key":"12063357","name":"Wustermark","type":"Kreisangehörige_Gemeinde"},"district":{"key":"12063","name":"Havelland","type":"Landkreis"},"federalState":{"key":"12","name":"Brandenburg"}},{"name":"Upstallweg","postalCode":"14641","locality":"Wustermark","municipality":{"key":"12063357","name":"Wustermark","type":"Kreisangehörige_Gemeinde"},"district":{"key":"12063","name":"Havelland","type":"Landkreis"},"federalState":{"key":"12","name":"Brandenburg"}},{"name":"Weinbergsweg","postalCode":"14641","locality":"Wustermark","municipality":{"key":"12063357","name":"Wustermark","type":"Kreisangehörige_Gemeinde"},"district":{"key":"12063","name":"Havelland","type":"Landkreis"},"federalState":{"key":"12","name":"Brandenburg"}},{"name":"Wernitzer Weg","postalCode":"14641","locality":"Wustermark","municipality":{"key":"12063357","name":"Wustermark","type":"Kreisangehörige_Gemeinde"},"district":{"key":"12063","name":"Havelland","type":"Landkreis"},"federalState":{"key":"12","name":"Brandenburg"}},{"name":"Wiesenstr.","postalCode":"14641","locality":"Wustermark","municipality":{"key":"12063357","name":"Wustermark","type":"Kreisangehörige_Gemeinde"},"district":{"key":"12063","name":"Havelland","type":"Landkreis"},"federalState":{"key":"12","name":"Brandenburg"}},{"name":"Zaunkönigweg","postalCode":"14641","locality":"Wustermark","municipality":{"key":"12063357","name":"Wustermark","type":"Kreisangehörige_Gemeinde"},"district":{"key":"12063","name":"Havelland","type":"Landkreis"},"federalState":{"key":"12","name":"Brandenburg"}},{"name":"Zeestower Str.","postalCode":"14641","locality":"Wustermark","municipality":{"key":"12063357","name":"Wustermark","type":"Kreisangehörige_Gemeinde"},"district":{"key":"12063","name":"Havelland","type":"Landkreis"},"federalState":{"key":"12","name":"Brandenburg"}},{"name":"Zeisigweg","postalCode":"14641","locality":"Wustermark","municipality":{"key":"12063357","name":"Wustermark","type":"Kreisangehörige_Gemeinde"},"district":{"key":"12063","name":"Havelland","type":"Landkreis"},"federalState":{"key":"12","name":"Brandenburg"}},{"name":"Zum Bahncampus","postalCode":"14641","locality":"Wustermark","municipality":{"key":"12063357","name":"Wustermark","type":"Kreisangehörige_Gemeinde"},"district":{"key":"12063","name":"Havelland","type":"Landkreis"},"federalState":{"key":"12","name":"Brandenburg"}},{"name":"Zum Hakenberg","postalCode":"14641","locality":"Wustermark","municipality":{"key":"12063357","name":"Wustermark","type":"Kreisangehörige_Gemeinde"},"district":{"key":"12063","name":"Havelland","type":"Landkreis"},"federalState":{"key":"12","name":"Brandenburg"}},{"name":"Zum Klärwerk","postalCode":"14641","locality":"Wustermark","municipality":{"key":"12063357","name":"Wustermark","type":"Kreisangehörige_Gemeinde"},"district":{"key":"12063","name":"Havelland","type":"Landkreis"},"federalState":{"key":"12","name":"Brandenburg"}},{"name":"Zum Olympischen Dorf","postalCode":"14641","locality":"Wustermark","municipality":{"key":"12063357","name":"Wustermark","type":"Kreisangehörige_Gemeinde"},"district":{"key":"12063","name":"Havelland","type":"Landkreis"},"federalState":{"key":"12","name":"Brandenburg"}},{"name":"Zum Torfstich","postalCode":"14641","locality":"Wustermark","municipality":{"key":"12063357","name":"Wustermark","type":"Kreisangehörige_Gemeinde"},"district":{"key":"12063","name":"Havelland","type":"Landkreis"},"federalState":{"key":"12","name":"Brandenburg"}},{"name":"Zum Wasserwerk","postalCode":"14641","locality":"Wustermark","municipality":{"key":"12063357","name":"Wustermark","type":"Kreisangehörige_Gemeinde"},"district":{"key":"12063","name":"Havelland","type":"Landkreis"},"federalState":{"key":"12","name":"Brandenburg"}},{"name":"Zwergensteg","postalCode":"14641","locality":"Wustermark","municipality":{"key":"12063357","name":"Wustermark","type":"Kreisangehörige_Gemeinde"},"district":{"key":"12063","name":"Havelland","type":"Landkreis"},"federalState":{"key":"12","name":"Brandenburg"}},]