[{"key":"10140900","name":"Aabachweg","postalCode":"8617","locality":"Mönchaltorf","commune":{"key":"196","name":"Mönchaltorf","shortName":"Mönchaltorf"},"district":{"key":"109","name":"Bezirk Uster"},"canton":{"key":"1","code":"ZH","name":"Zürich"},"status":"Real"},{"key":"10119297","name":"Aaspitz","postalCode":"8617","locality":"Mönchaltorf","commune":{"key":"196","name":"Mönchaltorf","shortName":"Mönchaltorf"},"district":{"key":"109","name":"Bezirk Uster"},"canton":{"key":"1","code":"ZH","name":"Zürich"},"status":"Real"},{"key":"10064502","name":"Ackerstrasse","postalCode":"8617","locality":"Mönchaltorf","commune":{"key":"196","name":"Mönchaltorf","shortName":"Mönchaltorf"},"district":{"key":"109","name":"Bezirk Uster"},"canton":{"key":"1","code":"ZH","name":"Zürich"},"status":"Real"},{"key":"10055711","name":"Auenstrasse","postalCode":"8617","locality":"Mönchaltorf","commune":{"key":"196","name":"Mönchaltorf","shortName":"Mönchaltorf"},"district":{"key":"109","name":"Bezirk Uster"},"canton":{"key":"1","code":"ZH","name":"Zürich"},"status":"Real"},{"key":"10125701","name":"Bachstrasse","postalCode":"8617","locality":"Mönchaltorf","commune":{"key":"196","name":"Mönchaltorf","shortName":"Mönchaltorf"},"district":{"key":"109","name":"Bezirk Uster"},"canton":{"key":"1","code":"ZH","name":"Zürich"},"status":"Real"},{"key":"10140901","name":"Beataweg","postalCode":"8617","locality":"Mönchaltorf","commune":{"key":"196","name":"Mönchaltorf","shortName":"Mönchaltorf"},"district":{"key":"109","name":"Bezirk Uster"},"canton":{"key":"1","code":"ZH","name":"Zürich"},"status":"Real"},{"key":"10207724","name":"Bergholz","postalCode":"8617","locality":"Mönchaltorf","commune":{"key":"196","name":"Mönchaltorf","shortName":"Mönchaltorf"},"district":{"key":"109","name":"Bezirk Uster"},"canton":{"key":"1","code":"ZH","name":"Zürich"},"status":"Real"},{"key":"10242595","name":"Binzhölzliweg","postalCode":"8617","locality":"Mönchaltorf","commune":{"key":"196","name":"Mönchaltorf","shortName":"Mönchaltorf"},"district":{"key":"109","name":"Bezirk Uster"},"canton":{"key":"1","code":"ZH","name":"Zürich"},"status":"Real"},{"key":"10003534","name":"Brandstrasse","postalCode":"8617","locality":"Mönchaltorf","commune":{"key":"196","name":"Mönchaltorf","shortName":"Mönchaltorf"},"district":{"key":"109","name":"Bezirk Uster"},"canton":{"key":"1","code":"ZH","name":"Zürich"},"status":"Real"},{"key":"10169694","name":"Breitacherstrasse","postalCode":"8617","locality":"Mönchaltorf","commune":{"key":"196","name":"Mönchaltorf","shortName":"Mönchaltorf"},"district":{"key":"109","name":"Bezirk Uster"},"canton":{"key":"1","code":"ZH","name":"Zürich"},"status":"Real"},{"key":"10121000","name":"Bruggächerstrasse","postalCode":"8617","locality":"Mönchaltorf","commune":{"key":"196","name":"Mönchaltorf","shortName":"Mönchaltorf"},"district":{"key":"109","name":"Bezirk Uster"},"canton":{"key":"1","code":"ZH","name":"Zürich"},"status":"Real"},{"key":"10003535","name":"Brunnenweg","postalCode":"8617","locality":"Mönchaltorf","commune":{"key":"196","name":"Mönchaltorf","shortName":"Mönchaltorf"},"district":{"key":"109","name":"Bezirk Uster"},"canton":{"key":"1","code":"ZH","name":"Zürich"},"status":"Real"},{"key":"10140902","name":"Buechholzweg","postalCode":"8617","locality":"Mönchaltorf","commune":{"key":"196","name":"Mönchaltorf","shortName":"Mönchaltorf"},"district":{"key":"109","name":"Bezirk Uster"},"canton":{"key":"1","code":"ZH","name":"Zürich"},"status":"Real"},{"key":"10140903","name":"Büelweg","postalCode":"8617","locality":"Mönchaltorf","commune":{"key":"196","name":"Mönchaltorf","shortName":"Mönchaltorf"},"district":{"key":"109","name":"Bezirk Uster"},"canton":{"key":"1","code":"ZH","name":"Zürich"},"status":"Real"},{"key":"10140904","name":"Bühneweg","postalCode":"8617","locality":"Mönchaltorf","commune":{"key":"196","name":"Mönchaltorf","shortName":"Mönchaltorf"},"district":{"key":"109","name":"Bezirk Uster"},"canton":{"key":"1","code":"ZH","name":"Zürich"},"status":"Real"},{"key":"10055712","name":"Burgstrasse","postalCode":"8617","locality":"Mönchaltorf","commune":{"key":"196","name":"Mönchaltorf","shortName":"Mönchaltorf"},"district":{"key":"109","name":"Bezirk Uster"},"canton":{"key":"1","code":"ZH","name":"Zürich"},"status":"Real"},{"key":"10144463","name":"Chilchli","postalCode":"8617","locality":"Mönchaltorf","commune":{"key":"196","name":"Mönchaltorf","shortName":"Mönchaltorf"},"district":{"key":"109","name":"Bezirk Uster"},"canton":{"key":"1","code":"ZH","name":"Zürich"},"status":"Real"},{"key":"10166368","name":"Eggerstrasse","postalCode":"8617","locality":"Mönchaltorf","commune":{"key":"196","name":"Mönchaltorf","shortName":"Mönchaltorf"},"district":{"key":"109","name":"Bezirk Uster"},"canton":{"key":"1","code":"ZH","name":"Zürich"},"status":"Real"},{"key":"10003536","name":"Esslingerstrasse","postalCode":"8617","locality":"Mönchaltorf","commune":{"key":"196","name":"Mönchaltorf","shortName":"Mönchaltorf"},"district":{"key":"109","name":"Bezirk Uster"},"canton":{"key":"1","code":"ZH","name":"Zürich"},"status":"Real"},{"key":"10247571","name":"Frobergstrasse","postalCode":"8617","locality":"Mönchaltorf","commune":{"key":"196","name":"Mönchaltorf","shortName":"Mönchaltorf"},"district":{"key":"109","name":"Bezirk Uster"},"canton":{"key":"1","code":"ZH","name":"Zürich"},"status":"Real"},{"key":"10085226","name":"Gartenstrasse","postalCode":"8617","locality":"Mönchaltorf","commune":{"key":"196","name":"Mönchaltorf","shortName":"Mönchaltorf"},"district":{"key":"109","name":"Bezirk Uster"},"canton":{"key":"1","code":"ZH","name":"Zürich"},"status":"Real"},{"key":"10099487","name":"Gossauerstrasse","postalCode":"8617","locality":"Mönchaltorf","commune":{"key":"196","name":"Mönchaltorf","shortName":"Mönchaltorf"},"district":{"key":"109","name":"Bezirk Uster"},"canton":{"key":"1","code":"ZH","name":"Zürich"},"status":"Real"},{"key":"10104133","name":"Hanflandstrasse","postalCode":"8617","locality":"Mönchaltorf","commune":{"key":"196","name":"Mönchaltorf","shortName":"Mönchaltorf"},"district":{"key":"109","name":"Bezirk Uster"},"canton":{"key":"1","code":"ZH","name":"Zürich"},"status":"Real"},{"key":"10166651","name":"Hänslerstrasse","postalCode":"8617","locality":"Mönchaltorf","commune":{"key":"196","name":"Mönchaltorf","shortName":"Mönchaltorf"},"district":{"key":"109","name":"Bezirk Uster"},"canton":{"key":"1","code":"ZH","name":"Zürich"},"status":"Real"},{"key":"10003537","name":"Heidihof","postalCode":"8617","locality":"Mönchaltorf","commune":{"key":"196","name":"Mönchaltorf","shortName":"Mönchaltorf"},"district":{"key":"109","name":"Bezirk Uster"},"canton":{"key":"1","code":"ZH","name":"Zürich"},"status":"Real"},{"key":"10164613","name":"Heizibüelstrasse","postalCode":"8617","locality":"Mönchaltorf","commune":{"key":"196","name":"Mönchaltorf","shortName":"Mönchaltorf"},"district":{"key":"109","name":"Bezirk Uster"},"canton":{"key":"1","code":"ZH","name":"Zürich"},"status":"Real"},{"key":"10175839","name":"Himmelsbergstrasse","postalCode":"8617","locality":"Mönchaltorf","commune":{"key":"196","name":"Mönchaltorf","shortName":"Mönchaltorf"},"district":{"key":"109","name":"Bezirk Uster"},"canton":{"key":"1","code":"ZH","name":"Zürich"},"status":"Real"},{"key":"10168674","name":"Hinterrütistrasse","postalCode":"8617","locality":"Mönchaltorf","commune":{"key":"196","name":"Mönchaltorf","shortName":"Mönchaltorf"},"district":{"key":"109","name":"Bezirk Uster"},"canton":{"key":"1","code":"ZH","name":"Zürich"},"status":"Real"},{"key":"10159801","name":"Hohfurrenstrasse","postalCode":"8617","locality":"Mönchaltorf","commune":{"key":"196","name":"Mönchaltorf","shortName":"Mönchaltorf"},"district":{"key":"109","name":"Bezirk Uster"},"canton":{"key":"1","code":"ZH","name":"Zürich"},"status":"Real"},{"key":"10194984","name":"Huebstockstrasse","postalCode":"8617","locality":"Mönchaltorf","commune":{"key":"196","name":"Mönchaltorf","shortName":"Mönchaltorf"},"district":{"key":"109","name":"Bezirk Uster"},"canton":{"key":"1","code":"ZH","name":"Zürich"},"status":"Real"},{"key":"10056722","name":"Im Chislig","postalCode":"8617","locality":"Mönchaltorf","commune":{"key":"196","name":"Mönchaltorf","shortName":"Mönchaltorf"},"district":{"key":"109","name":"Bezirk Uster"},"canton":{"key":"1","code":"ZH","name":"Zürich"},"status":"Real"},{"key":"10157853","name":"Im Eichhof","postalCode":"8617","locality":"Mönchaltorf","commune":{"key":"196","name":"Mönchaltorf","shortName":"Mönchaltorf"},"district":{"key":"109","name":"Bezirk Uster"},"canton":{"key":"1","code":"ZH","name":"Zürich"},"status":"Real"},{"key":"10183764","name":"Im Heinacher","postalCode":"8617","locality":"Mönchaltorf","commune":{"key":"196","name":"Mönchaltorf","shortName":"Mönchaltorf"},"district":{"key":"109","name":"Bezirk Uster"},"canton":{"key":"1","code":"ZH","name":"Zürich"},"status":"Real"},{"key":"10160854","name":"Im Heiwinkel","postalCode":"8617","locality":"Mönchaltorf","commune":{"key":"196","name":"Mönchaltorf","shortName":"Mönchaltorf"},"district":{"key":"109","name":"Bezirk Uster"},"canton":{"key":"1","code":"ZH","name":"Zürich"},"status":"Real"},{"key":"10107425","name":"Im Heugarten","postalCode":"8617","locality":"Mönchaltorf","commune":{"key":"196","name":"Mönchaltorf","shortName":"Mönchaltorf"},"district":{"key":"109","name":"Bezirk Uster"},"canton":{"key":"1","code":"ZH","name":"Zürich"},"status":"Real"},{"key":"10176672","name":"Im Lindhof","postalCode":"8617","locality":"Mönchaltorf","commune":{"key":"196","name":"Mönchaltorf","shortName":"Mönchaltorf"},"district":{"key":"109","name":"Bezirk Uster"},"canton":{"key":"1","code":"ZH","name":"Zürich"},"status":"Real"},{"key":"10113285","name":"Im Mattenhof","postalCode":"8617","locality":"Mönchaltorf","commune":{"key":"196","name":"Mönchaltorf","shortName":"Mönchaltorf"},"district":{"key":"109","name":"Bezirk Uster"},"canton":{"key":"1","code":"ZH","name":"Zürich"},"status":"Real"},{"key":"10064504","name":"Im Seehof","postalCode":"8617","locality":"Mönchaltorf","commune":{"key":"196","name":"Mönchaltorf","shortName":"Mönchaltorf"},"district":{"key":"109","name":"Bezirk Uster"},"canton":{"key":"1","code":"ZH","name":"Zürich"},"status":"Real"},{"key":"10003538","name":"Im Widenbüel","postalCode":"8617","locality":"Mönchaltorf","commune":{"key":"196","name":"Mönchaltorf","shortName":"Mönchaltorf"},"district":{"key":"109","name":"Bezirk Uster"},"canton":{"key":"1","code":"ZH","name":"Zürich"},"status":"Real"},{"key":"10121832","name":"In der Schwerzi","postalCode":"8617","locality":"Mönchaltorf","commune":{"key":"196","name":"Mönchaltorf","shortName":"Mönchaltorf"},"district":{"key":"109","name":"Bezirk Uster"},"canton":{"key":"1","code":"ZH","name":"Zürich"},"status":"Real"},{"key":"10157856","name":"In der Waldau","postalCode":"8617","locality":"Mönchaltorf","commune":{"key":"196","name":"Mönchaltorf","shortName":"Mönchaltorf"},"district":{"key":"109","name":"Bezirk Uster"},"canton":{"key":"1","code":"ZH","name":"Zürich"},"status":"Real"},{"key":"10173079","name":"In der Walderen","postalCode":"8617","locality":"Mönchaltorf","commune":{"key":"196","name":"Mönchaltorf","shortName":"Mönchaltorf"},"district":{"key":"109","name":"Bezirk Uster"},"canton":{"key":"1","code":"ZH","name":"Zürich"},"status":"Real"},{"key":"10064505","name":"Isenrietstrasse","postalCode":"8617","locality":"Mönchaltorf","commune":{"key":"196","name":"Mönchaltorf","shortName":"Mönchaltorf"},"district":{"key":"109","name":"Bezirk Uster"},"canton":{"key":"1","code":"ZH","name":"Zürich"},"status":"Real"},{"key":"10003539","name":"Kurvenstrasse","postalCode":"8617","locality":"Mönchaltorf","commune":{"key":"196","name":"Mönchaltorf","shortName":"Mönchaltorf"},"district":{"key":"109","name":"Bezirk Uster"},"canton":{"key":"1","code":"ZH","name":"Zürich"},"status":"Real"},{"key":"10085227","name":"Langenmattstrasse","postalCode":"8617","locality":"Mönchaltorf","commune":{"key":"196","name":"Mönchaltorf","shortName":"Mönchaltorf"},"district":{"key":"109","name":"Bezirk Uster"},"canton":{"key":"1","code":"ZH","name":"Zürich"},"status":"Real"},{"key":"10003540","name":"Laubenstrasse","postalCode":"8617","locality":"Mönchaltorf","commune":{"key":"196","name":"Mönchaltorf","shortName":"Mönchaltorf"},"district":{"key":"109","name":"Bezirk Uster"},"canton":{"key":"1","code":"ZH","name":"Zürich"},"status":"Real"},{"key":"10104006","name":"Lindenmatt","postalCode":"8617","locality":"Mönchaltorf","commune":{"key":"196","name":"Mönchaltorf","shortName":"Mönchaltorf"},"district":{"key":"109","name":"Bezirk Uster"},"canton":{"key":"1","code":"ZH","name":"Zürich"},"status":"Real"},{"key":"10003541","name":"Lindhofstrasse","postalCode":"8617","locality":"Mönchaltorf","commune":{"key":"196","name":"Mönchaltorf","shortName":"Mönchaltorf"},"district":{"key":"109","name":"Bezirk Uster"},"canton":{"key":"1","code":"ZH","name":"Zürich"},"status":"Real"},{"key":"10064506","name":"Lindhofweg","postalCode":"8617","locality":"Mönchaltorf","commune":{"key":"196","name":"Mönchaltorf","shortName":"Mönchaltorf"},"district":{"key":"109","name":"Bezirk Uster"},"canton":{"key":"1","code":"ZH","name":"Zürich"},"status":"Real"},{"key":"10247581","name":"Lochholzweg","postalCode":"8617","locality":"Mönchaltorf","commune":{"key":"196","name":"Mönchaltorf","shortName":"Mönchaltorf"},"district":{"key":"109","name":"Bezirk Uster"},"canton":{"key":"1","code":"ZH","name":"Zürich"},"status":"Real"},{"key":"10003542","name":"Mettlenbachstrasse","postalCode":"8617","locality":"Mönchaltorf","commune":{"key":"196","name":"Mönchaltorf","shortName":"Mönchaltorf"},"district":{"key":"109","name":"Bezirk Uster"},"canton":{"key":"1","code":"ZH","name":"Zürich"},"status":"Real"},{"key":"10080142","name":"Mönchaltorferstrasse","postalCode":"8617","locality":"Mönchaltorf","commune":{"key":"196","name":"Mönchaltorf","shortName":"Mönchaltorf"},"district":{"key":"109","name":"Bezirk Uster"},"canton":{"key":"1","code":"ZH","name":"Zürich"},"status":"Real"},{"key":"10085228","name":"Mönchhof","postalCode":"8617","locality":"Mönchaltorf","commune":{"key":"196","name":"Mönchaltorf","shortName":"Mönchaltorf"},"district":{"key":"109","name":"Bezirk Uster"},"canton":{"key":"1","code":"ZH","name":"Zürich"},"status":"Real"},{"key":"10003543","name":"Mülibachstrasse","postalCode":"8617","locality":"Mönchaltorf","commune":{"key":"196","name":"Mönchaltorf","shortName":"Mönchaltorf"},"district":{"key":"109","name":"Bezirk Uster"},"canton":{"key":"1","code":"ZH","name":"Zürich"},"status":"Real"},{"key":"10056723","name":"Neumüli","postalCode":"8617","locality":"Mönchaltorf","commune":{"key":"196","name":"Mönchaltorf","shortName":"Mönchaltorf"},"district":{"key":"109","name":"Bezirk Uster"},"canton":{"key":"1","code":"ZH","name":"Zürich"},"status":"Real"},{"key":"10085229","name":"Oberdorfstrasse","postalCode":"8617","locality":"Mönchaltorf","commune":{"key":"196","name":"Mönchaltorf","shortName":"Mönchaltorf"},"district":{"key":"109","name":"Bezirk Uster"},"canton":{"key":"1","code":"ZH","name":"Zürich"},"status":"Real"},{"key":"10166652","name":"Obere Burgstrasse","postalCode":"8617","locality":"Mönchaltorf","commune":{"key":"196","name":"Mönchaltorf","shortName":"Mönchaltorf"},"district":{"key":"109","name":"Bezirk Uster"},"canton":{"key":"1","code":"ZH","name":"Zürich"},"status":"Real"},{"key":"10242596","name":"Oberrütistrasse","postalCode":"8617","locality":"Mönchaltorf","commune":{"key":"196","name":"Mönchaltorf","shortName":"Mönchaltorf"},"district":{"key":"109","name":"Bezirk Uster"},"canton":{"key":"1","code":"ZH","name":"Zürich"},"status":"Real"},{"key":"10170429","name":"Obstgartenweg","postalCode":"8617","locality":"Mönchaltorf","commune":{"key":"196","name":"Mönchaltorf","shortName":"Mönchaltorf"},"district":{"key":"109","name":"Bezirk Uster"},"canton":{"key":"1","code":"ZH","name":"Zürich"},"status":"Real"},{"key":"10170428","name":"Otmarweg","postalCode":"8617","locality":"Mönchaltorf","commune":{"key":"196","name":"Mönchaltorf","shortName":"Mönchaltorf"},"district":{"key":"109","name":"Bezirk Uster"},"canton":{"key":"1","code":"ZH","name":"Zürich"},"status":"Real"},{"key":"10140905","name":"Püntenweg","postalCode":"8617","locality":"Mönchaltorf","commune":{"key":"196","name":"Mönchaltorf","shortName":"Mönchaltorf"},"district":{"key":"109","name":"Bezirk Uster"},"canton":{"key":"1","code":"ZH","name":"Zürich"},"status":"Real"},{"key":"10140906","name":"Quellenweg","postalCode":"8617","locality":"Mönchaltorf","commune":{"key":"196","name":"Mönchaltorf","shortName":"Mönchaltorf"},"district":{"key":"109","name":"Bezirk Uster"},"canton":{"key":"1","code":"ZH","name":"Zürich"},"status":"Real"},{"key":"10176673","name":"Räbacherstrasse","postalCode":"8617","locality":"Mönchaltorf","commune":{"key":"196","name":"Mönchaltorf","shortName":"Mönchaltorf"},"district":{"key":"109","name":"Bezirk Uster"},"canton":{"key":"1","code":"ZH","name":"Zürich"},"status":"Real"},{"key":"10003544","name":"Rainstrasse","postalCode":"8617","locality":"Mönchaltorf","commune":{"key":"196","name":"Mönchaltorf","shortName":"Mönchaltorf"},"district":{"key":"109","name":"Bezirk Uster"},"canton":{"key":"1","code":"ZH","name":"Zürich"},"status":"Real"},{"key":"10085230","name":"Rällikerstrasse","postalCode":"8617","locality":"Mönchaltorf","commune":{"key":"196","name":"Mönchaltorf","shortName":"Mönchaltorf"},"district":{"key":"109","name":"Bezirk Uster"},"canton":{"key":"1","code":"ZH","name":"Zürich"},"status":"Real"},{"key":"10140907","name":"Rellikerstrasse","postalCode":"8617","locality":"Mönchaltorf","commune":{"key":"196","name":"Mönchaltorf","shortName":"Mönchaltorf"},"district":{"key":"109","name":"Bezirk Uster"},"canton":{"key":"1","code":"ZH","name":"Zürich"},"status":"Real"},{"key":"10003545","name":"Rietwisstrasse","postalCode":"8617","locality":"Mönchaltorf","commune":{"key":"196","name":"Mönchaltorf","shortName":"Mönchaltorf"},"district":{"key":"109","name":"Bezirk Uster"},"canton":{"key":"1","code":"ZH","name":"Zürich"},"status":"Real"},{"key":"10003546","name":"Schulhausstrasse","postalCode":"8617","locality":"Mönchaltorf","commune":{"key":"196","name":"Mönchaltorf","shortName":"Mönchaltorf"},"district":{"key":"109","name":"Bezirk Uster"},"canton":{"key":"1","code":"ZH","name":"Zürich"},"status":"Real"},{"key":"10064507","name":"Schwerzisteg","postalCode":"8617","locality":"Mönchaltorf","commune":{"key":"196","name":"Mönchaltorf","shortName":"Mönchaltorf"},"district":{"key":"109","name":"Bezirk Uster"},"canton":{"key":"1","code":"ZH","name":"Zürich"},"status":"Real"},{"key":"10003547","name":"Seestrasse","postalCode":"8617","locality":"Mönchaltorf","commune":{"key":"196","name":"Mönchaltorf","shortName":"Mönchaltorf"},"district":{"key":"109","name":"Bezirk Uster"},"canton":{"key":"1","code":"ZH","name":"Zürich"},"status":"Real"},{"key":"10140908","name":"Sennhüttenstrasse","postalCode":"8617","locality":"Mönchaltorf","commune":{"key":"196","name":"Mönchaltorf","shortName":"Mönchaltorf"},"district":{"key":"109","name":"Bezirk Uster"},"canton":{"key":"1","code":"ZH","name":"Zürich"},"status":"Real"},{"key":"10194983","name":"Silbergruebstrasse","postalCode":"8617","locality":"Mönchaltorf","commune":{"key":"196","name":"Mönchaltorf","shortName":"Mönchaltorf"},"district":{"key":"109","name":"Bezirk Uster"},"canton":{"key":"1","code":"ZH","name":"Zürich"},"status":"Real"},{"key":"10131670","name":"Sportplatzweg","postalCode":"8617","locality":"Mönchaltorf","commune":{"key":"196","name":"Mönchaltorf","shortName":"Mönchaltorf"},"district":{"key":"109","name":"Bezirk Uster"},"canton":{"key":"1","code":"ZH","name":"Zürich"},"status":"Real"},{"key":"10085231","name":"Sternenweg","postalCode":"8617","locality":"Mönchaltorf","commune":{"key":"196","name":"Mönchaltorf","shortName":"Mönchaltorf"},"district":{"key":"109","name":"Bezirk Uster"},"canton":{"key":"1","code":"ZH","name":"Zürich"},"status":"Real"},{"key":"10000418","name":"Stockenstrasse","postalCode":"8617","locality":"Mönchaltorf","commune":{"key":"196","name":"Mönchaltorf","shortName":"Mönchaltorf"},"district":{"key":"109","name":"Bezirk Uster"},"canton":{"key":"1","code":"ZH","name":"Zürich"},"status":"Real"},{"key":"10116880","name":"Südstrasse","postalCode":"8617","locality":"Mönchaltorf","commune":{"key":"196","name":"Mönchaltorf","shortName":"Mönchaltorf"},"district":{"key":"109","name":"Bezirk Uster"},"canton":{"key":"1","code":"ZH","name":"Zürich"},"status":"Real"},{"key":"10107426","name":"Sunneweg","postalCode":"8617","locality":"Mönchaltorf","commune":{"key":"196","name":"Mönchaltorf","shortName":"Mönchaltorf"},"district":{"key":"109","name":"Bezirk Uster"},"canton":{"key":"1","code":"ZH","name":"Zürich"},"status":"Real"},{"key":"10003548","name":"Tobel","postalCode":"8617","locality":"Mönchaltorf","commune":{"key":"196","name":"Mönchaltorf","shortName":"Mönchaltorf"},"district":{"key":"109","name":"Bezirk Uster"},"canton":{"key":"1","code":"ZH","name":"Zürich"},"status":"Real"},{"key":"10003549","name":"Unterdorfstrasse","postalCode":"8617","locality":"Mönchaltorf","commune":{"key":"196","name":"Mönchaltorf","shortName":"Mönchaltorf"},"district":{"key":"109","name":"Bezirk Uster"},"canton":{"key":"1","code":"ZH","name":"Zürich"},"status":"Real"},{"key":"10140909","name":"Untere Burgstrasse","postalCode":"8617","locality":"Mönchaltorf","commune":{"key":"196","name":"Mönchaltorf","shortName":"Mönchaltorf"},"district":{"key":"109","name":"Bezirk Uster"},"canton":{"key":"1","code":"ZH","name":"Zürich"},"status":"Real"},{"key":"10085232","name":"Usterstrasse","postalCode":"8617","locality":"Mönchaltorf","commune":{"key":"196","name":"Mönchaltorf","shortName":"Mönchaltorf"},"district":{"key":"109","name":"Bezirk Uster"},"canton":{"key":"1","code":"ZH","name":"Zürich"},"status":"Real"},{"key":"10003550","name":"Weibelacherstrasse","postalCode":"8617","locality":"Mönchaltorf","commune":{"key":"196","name":"Mönchaltorf","shortName":"Mönchaltorf"},"district":{"key":"109","name":"Bezirk Uster"},"canton":{"key":"1","code":"ZH","name":"Zürich"},"status":"Real"},{"key":"10064508","name":"Weidstrasse","postalCode":"8617","locality":"Mönchaltorf","commune":{"key":"196","name":"Mönchaltorf","shortName":"Mönchaltorf"},"district":{"key":"109","name":"Bezirk Uster"},"canton":{"key":"1","code":"ZH","name":"Zürich"},"status":"Real"},{"key":"10121833","name":"Widenbüelstrasse","postalCode":"8617","locality":"Mönchaltorf","commune":{"key":"196","name":"Mönchaltorf","shortName":"Mönchaltorf"},"district":{"key":"109","name":"Bezirk Uster"},"canton":{"key":"1","code":"ZH","name":"Zürich"},"status":"Real"},{"key":"10182245","name":"Wiesenstrasse","postalCode":"8617","locality":"Mönchaltorf","commune":{"key":"196","name":"Mönchaltorf","shortName":"Mönchaltorf"},"district":{"key":"109","name":"Bezirk Uster"},"canton":{"key":"1","code":"ZH","name":"Zürich"},"status":"Real"},{"key":"10140910","name":"Wüeriholzstrasse","postalCode":"8617","locality":"Mönchaltorf","commune":{"key":"196","name":"Mönchaltorf","shortName":"Mönchaltorf"},"district":{"key":"109","name":"Bezirk Uster"},"canton":{"key":"1","code":"ZH","name":"Zürich"},"status":"Real"},{"key":"10003551","name":"Wüeristrasse","postalCode":"8617","locality":"Mönchaltorf","commune":{"key":"196","name":"Mönchaltorf","shortName":"Mönchaltorf"},"district":{"key":"109","name":"Bezirk Uster"},"canton":{"key":"1","code":"ZH","name":"Zürich"},"status":"Real"},]