[{"name":"Adam-Riese-Str.","postalCode":"53757","locality":"Sankt Augustin","municipality":{"key":"05382056","name":"Sankt Augustin, Stadt","type":"Stadt"},"district":{"key":"05382","name":"Rhein-Sieg-Kreis","type":"Kreis"},"federalState":{"key":"05","name":"Nordrhein-Westfalen"}},{"name":"Adelheidisstr.","postalCode":"53757","locality":"Sankt Augustin","municipality":{"key":"05382056","name":"Sankt Augustin, Stadt","type":"Stadt"},"district":{"key":"05382","name":"Rhein-Sieg-Kreis","type":"Kreis"},"federalState":{"key":"05","name":"Nordrhein-Westfalen"}},{"name":"Agnes-Miegel-Str.","postalCode":"53757","locality":"Sankt Augustin","municipality":{"key":"05382056","name":"Sankt Augustin, Stadt","type":"Stadt"},"district":{"key":"05382","name":"Rhein-Sieg-Kreis","type":"Kreis"},"federalState":{"key":"05","name":"Nordrhein-Westfalen"}},{"name":"Agnesstr.","postalCode":"53757","locality":"Sankt Augustin","municipality":{"key":"05382056","name":"Sankt Augustin, Stadt","type":"Stadt"},"district":{"key":"05382","name":"Rhein-Sieg-Kreis","type":"Kreis"},"federalState":{"key":"05","name":"Nordrhein-Westfalen"}},{"name":"Ahornweg","postalCode":"53757","locality":"Sankt Augustin","municipality":{"key":"05382056","name":"Sankt Augustin, Stadt","type":"Stadt"},"district":{"key":"05382","name":"Rhein-Sieg-Kreis","type":"Kreis"},"federalState":{"key":"05","name":"Nordrhein-Westfalen"}},{"name":"Ahrstr.","postalCode":"53757","locality":"Sankt Augustin","municipality":{"key":"05382056","name":"Sankt Augustin, Stadt","type":"Stadt"},"district":{"key":"05382","name":"Rhein-Sieg-Kreis","type":"Kreis"},"federalState":{"key":"05","name":"Nordrhein-Westfalen"}},{"name":"Akazienweg","postalCode":"53757","locality":"Sankt Augustin","municipality":{"key":"05382056","name":"Sankt Augustin, Stadt","type":"Stadt"},"district":{"key":"05382","name":"Rhein-Sieg-Kreis","type":"Kreis"},"federalState":{"key":"05","name":"Nordrhein-Westfalen"}},{"name":"Albert-Schweitzer-Str.","postalCode":"53757","locality":"Sankt Augustin","municipality":{"key":"05382056","name":"Sankt Augustin, Stadt","type":"Stadt"},"district":{"key":"05382","name":"Rhein-Sieg-Kreis","type":"Kreis"},"federalState":{"key":"05","name":"Nordrhein-Westfalen"}},{"name":"Albert-Sonntag-Str.","postalCode":"53757","locality":"Sankt Augustin","municipality":{"key":"05382056","name":"Sankt Augustin, Stadt","type":"Stadt"},"district":{"key":"05382","name":"Rhein-Sieg-Kreis","type":"Kreis"},"federalState":{"key":"05","name":"Nordrhein-Westfalen"}},{"name":"Alfred-Delp-Str.","postalCode":"53757","locality":"Sankt Augustin","municipality":{"key":"05382056","name":"Sankt Augustin, Stadt","type":"Stadt"},"district":{"key":"05382","name":"Rhein-Sieg-Kreis","type":"Kreis"},"federalState":{"key":"05","name":"Nordrhein-Westfalen"}},{"name":"Alleestr.","postalCode":"53757","locality":"Sankt Augustin","municipality":{"key":"05382056","name":"Sankt Augustin, Stadt","type":"Stadt"},"district":{"key":"05382","name":"Rhein-Sieg-Kreis","type":"Kreis"},"federalState":{"key":"05","name":"Nordrhein-Westfalen"}},{"name":"Alte Bonner Str.","postalCode":"53757","locality":"Sankt Augustin","municipality":{"key":"05382056","name":"Sankt Augustin, Stadt","type":"Stadt"},"district":{"key":"05382","name":"Rhein-Sieg-Kreis","type":"Kreis"},"federalState":{"key":"05","name":"Nordrhein-Westfalen"}},{"name":"Alte Heerstr.","postalCode":"53757","locality":"Sankt Augustin","municipality":{"key":"05382056","name":"Sankt Augustin, Stadt","type":"Stadt"},"district":{"key":"05382","name":"Rhein-Sieg-Kreis","type":"Kreis"},"federalState":{"key":"05","name":"Nordrhein-Westfalen"}},{"name":"Alte Marktstr.","postalCode":"53757","locality":"Sankt Augustin","municipality":{"key":"05382056","name":"Sankt Augustin, Stadt","type":"Stadt"},"district":{"key":"05382","name":"Rhein-Sieg-Kreis","type":"Kreis"},"federalState":{"key":"05","name":"Nordrhein-Westfalen"}},{"name":"Alter Kirchweg","postalCode":"53757","locality":"Sankt Augustin","municipality":{"key":"05382056","name":"Sankt Augustin, Stadt","type":"Stadt"},"district":{"key":"05382","name":"Rhein-Sieg-Kreis","type":"Kreis"},"federalState":{"key":"05","name":"Nordrhein-Westfalen"}},{"name":"Alte Schulstr.","postalCode":"53757","locality":"Sankt Augustin","municipality":{"key":"05382056","name":"Sankt Augustin, Stadt","type":"Stadt"},"district":{"key":"05382","name":"Rhein-Sieg-Kreis","type":"Kreis"},"federalState":{"key":"05","name":"Nordrhein-Westfalen"}},{"name":"Am Apfelbäumchen","postalCode":"53757","locality":"Sankt Augustin","municipality":{"key":"05382056","name":"Sankt Augustin, Stadt","type":"Stadt"},"district":{"key":"05382","name":"Rhein-Sieg-Kreis","type":"Kreis"},"federalState":{"key":"05","name":"Nordrhein-Westfalen"}},{"name":"Am Bahnhof","postalCode":"53757","locality":"Sankt Augustin","municipality":{"key":"05382056","name":"Sankt Augustin, Stadt","type":"Stadt"},"district":{"key":"05382","name":"Rhein-Sieg-Kreis","type":"Kreis"},"federalState":{"key":"05","name":"Nordrhein-Westfalen"}},{"name":"Am Bauhof","postalCode":"53757","locality":"Sankt Augustin","municipality":{"key":"05382056","name":"Sankt Augustin, Stadt","type":"Stadt"},"district":{"key":"05382","name":"Rhein-Sieg-Kreis","type":"Kreis"},"federalState":{"key":"05","name":"Nordrhein-Westfalen"}},{"name":"Am Dachsbau","postalCode":"53757","locality":"Sankt Augustin","municipality":{"key":"05382056","name":"Sankt Augustin, Stadt","type":"Stadt"},"district":{"key":"05382","name":"Rhein-Sieg-Kreis","type":"Kreis"},"federalState":{"key":"05","name":"Nordrhein-Westfalen"}},{"name":"Am Eichelkämpchen","postalCode":"53757","locality":"Sankt Augustin","municipality":{"key":"05382056","name":"Sankt Augustin, Stadt","type":"Stadt"},"district":{"key":"05382","name":"Rhein-Sieg-Kreis","type":"Kreis"},"federalState":{"key":"05","name":"Nordrhein-Westfalen"}},{"name":"Am Engelsgraben","postalCode":"53757","locality":"Sankt Augustin","municipality":{"key":"05382056","name":"Sankt Augustin, Stadt","type":"Stadt"},"district":{"key":"05382","name":"Rhein-Sieg-Kreis","type":"Kreis"},"federalState":{"key":"05","name":"Nordrhein-Westfalen"}},{"name":"Am Gänsepütz","postalCode":"53757","locality":"Sankt Augustin","municipality":{"key":"05382056","name":"Sankt Augustin, Stadt","type":"Stadt"},"district":{"key":"05382","name":"Rhein-Sieg-Kreis","type":"Kreis"},"federalState":{"key":"05","name":"Nordrhein-Westfalen"}},{"name":"Am Heiligenhäuschen","postalCode":"53757","locality":"Sankt Augustin","municipality":{"key":"05382056","name":"Sankt Augustin, Stadt","type":"Stadt"},"district":{"key":"05382","name":"Rhein-Sieg-Kreis","type":"Kreis"},"federalState":{"key":"05","name":"Nordrhein-Westfalen"}},{"name":"Am Jesuitenhof","postalCode":"53757","locality":"Sankt Augustin","municipality":{"key":"05382056","name":"Sankt Augustin, Stadt","type":"Stadt"},"district":{"key":"05382","name":"Rhein-Sieg-Kreis","type":"Kreis"},"federalState":{"key":"05","name":"Nordrhein-Westfalen"}},{"name":"Am Jeuchel","postalCode":"53757","locality":"Sankt Augustin","municipality":{"key":"05382056","name":"Sankt Augustin, Stadt","type":"Stadt"},"district":{"key":"05382","name":"Rhein-Sieg-Kreis","type":"Kreis"},"federalState":{"key":"05","name":"Nordrhein-Westfalen"}},{"name":"Am Kirchenberg","postalCode":"53757","locality":"Sankt Augustin","municipality":{"key":"05382056","name":"Sankt Augustin, Stadt","type":"Stadt"},"district":{"key":"05382","name":"Rhein-Sieg-Kreis","type":"Kreis"},"federalState":{"key":"05","name":"Nordrhein-Westfalen"}},{"name":"Am Kirchhof","postalCode":"53757","locality":"Sankt Augustin","municipality":{"key":"05382056","name":"Sankt Augustin, Stadt","type":"Stadt"},"district":{"key":"05382","name":"Rhein-Sieg-Kreis","type":"Kreis"},"federalState":{"key":"05","name":"Nordrhein-Westfalen"}},{"name":"Am Kirschbäumchen","postalCode":"53757","locality":"Sankt Augustin","municipality":{"key":"05382056","name":"Sankt Augustin, Stadt","type":"Stadt"},"district":{"key":"05382","name":"Rhein-Sieg-Kreis","type":"Kreis"},"federalState":{"key":"05","name":"Nordrhein-Westfalen"}},{"name":"Am Knippchen","postalCode":"53757","locality":"Sankt Augustin","municipality":{"key":"05382056","name":"Sankt Augustin, Stadt","type":"Stadt"},"district":{"key":"05382","name":"Rhein-Sieg-Kreis","type":"Kreis"},"federalState":{"key":"05","name":"Nordrhein-Westfalen"}},{"name":"Am Kreuzeck","postalCode":"53757","locality":"Sankt Augustin","municipality":{"key":"05382056","name":"Sankt Augustin, Stadt","type":"Stadt"},"district":{"key":"05382","name":"Rhein-Sieg-Kreis","type":"Kreis"},"federalState":{"key":"05","name":"Nordrhein-Westfalen"}},{"name":"Am Lauterbach","postalCode":"53757","locality":"Sankt Augustin","municipality":{"key":"05382056","name":"Sankt Augustin, Stadt","type":"Stadt"},"district":{"key":"05382","name":"Rhein-Sieg-Kreis","type":"Kreis"},"federalState":{"key":"05","name":"Nordrhein-Westfalen"}},{"name":"Am Lindenhof","postalCode":"53757","locality":"Sankt Augustin","municipality":{"key":"05382056","name":"Sankt Augustin, Stadt","type":"Stadt"},"district":{"key":"05382","name":"Rhein-Sieg-Kreis","type":"Kreis"},"federalState":{"key":"05","name":"Nordrhein-Westfalen"}},{"name":"Am Mühlengraben","postalCode":"53757","locality":"Sankt Augustin","municipality":{"key":"05382056","name":"Sankt Augustin, Stadt","type":"Stadt"},"district":{"key":"05382","name":"Rhein-Sieg-Kreis","type":"Kreis"},"federalState":{"key":"05","name":"Nordrhein-Westfalen"}},{"name":"Am Otenberg","postalCode":"53757","locality":"Sankt Augustin","municipality":{"key":"05382056","name":"Sankt Augustin, Stadt","type":"Stadt"},"district":{"key":"05382","name":"Rhein-Sieg-Kreis","type":"Kreis"},"federalState":{"key":"05","name":"Nordrhein-Westfalen"}},{"name":"Am Paddenofen","postalCode":"53757","locality":"Sankt Augustin","municipality":{"key":"05382056","name":"Sankt Augustin, Stadt","type":"Stadt"},"district":{"key":"05382","name":"Rhein-Sieg-Kreis","type":"Kreis"},"federalState":{"key":"05","name":"Nordrhein-Westfalen"}},{"name":"Am Park","postalCode":"53757","locality":"Sankt Augustin","municipality":{"key":"05382056","name":"Sankt Augustin, Stadt","type":"Stadt"},"district":{"key":"05382","name":"Rhein-Sieg-Kreis","type":"Kreis"},"federalState":{"key":"05","name":"Nordrhein-Westfalen"}},{"name":"Am Pleisbach","postalCode":"53757","locality":"Sankt Augustin","municipality":{"key":"05382056","name":"Sankt Augustin, Stadt","type":"Stadt"},"district":{"key":"05382","name":"Rhein-Sieg-Kreis","type":"Kreis"},"federalState":{"key":"05","name":"Nordrhein-Westfalen"}},{"name":"Am Pleiser Wald","postalCode":"53757","locality":"Sankt Augustin","municipality":{"key":"05382056","name":"Sankt Augustin, Stadt","type":"Stadt"},"district":{"key":"05382","name":"Rhein-Sieg-Kreis","type":"Kreis"},"federalState":{"key":"05","name":"Nordrhein-Westfalen"}},{"name":"Am Pleistalwerk","postalCode":"53757","locality":"Sankt Augustin","municipality":{"key":"05382056","name":"Sankt Augustin, Stadt","type":"Stadt"},"district":{"key":"05382","name":"Rhein-Sieg-Kreis","type":"Kreis"},"federalState":{"key":"05","name":"Nordrhein-Westfalen"}},{"name":"Am Rehsprung","postalCode":"53757","locality":"Sankt Augustin","municipality":{"key":"05382056","name":"Sankt Augustin, Stadt","type":"Stadt"},"district":{"key":"05382","name":"Rhein-Sieg-Kreis","type":"Kreis"},"federalState":{"key":"05","name":"Nordrhein-Westfalen"}},{"name":"Am Rosenhain","postalCode":"53757","locality":"Sankt Augustin","municipality":{"key":"05382056","name":"Sankt Augustin, Stadt","type":"Stadt"},"district":{"key":"05382","name":"Rhein-Sieg-Kreis","type":"Kreis"},"federalState":{"key":"05","name":"Nordrhein-Westfalen"}},{"name":"Am Rotbusch","postalCode":"53757","locality":"Sankt Augustin","municipality":{"key":"05382056","name":"Sankt Augustin, Stadt","type":"Stadt"},"district":{"key":"05382","name":"Rhein-Sieg-Kreis","type":"Kreis"},"federalState":{"key":"05","name":"Nordrhein-Westfalen"}},{"name":"Am Sandberg","postalCode":"53757","locality":"Sankt Augustin","municipality":{"key":"05382056","name":"Sankt Augustin, Stadt","type":"Stadt"},"district":{"key":"05382","name":"Rhein-Sieg-Kreis","type":"Kreis"},"federalState":{"key":"05","name":"Nordrhein-Westfalen"}},{"name":"Am Scherenstück","postalCode":"53757","locality":"Sankt Augustin","municipality":{"key":"05382056","name":"Sankt Augustin, Stadt","type":"Stadt"},"district":{"key":"05382","name":"Rhein-Sieg-Kreis","type":"Kreis"},"federalState":{"key":"05","name":"Nordrhein-Westfalen"}},{"name":"Am Schiedsberg","postalCode":"53757","locality":"Sankt Augustin","municipality":{"key":"05382056","name":"Sankt Augustin, Stadt","type":"Stadt"},"district":{"key":"05382","name":"Rhein-Sieg-Kreis","type":"Kreis"},"federalState":{"key":"05","name":"Nordrhein-Westfalen"}},{"name":"Am Schmerbroich","postalCode":"53757","locality":"Sankt Augustin","municipality":{"key":"05382056","name":"Sankt Augustin, Stadt","type":"Stadt"},"district":{"key":"05382","name":"Rhein-Sieg-Kreis","type":"Kreis"},"federalState":{"key":"05","name":"Nordrhein-Westfalen"}},{"name":"Amselweg","postalCode":"53757","locality":"Sankt Augustin","municipality":{"key":"05382056","name":"Sankt Augustin, Stadt","type":"Stadt"},"district":{"key":"05382","name":"Rhein-Sieg-Kreis","type":"Kreis"},"federalState":{"key":"05","name":"Nordrhein-Westfalen"}},{"name":"Am Siemensbach","postalCode":"53757","locality":"Sankt Augustin","municipality":{"key":"05382056","name":"Sankt Augustin, Stadt","type":"Stadt"},"district":{"key":"05382","name":"Rhein-Sieg-Kreis","type":"Kreis"},"federalState":{"key":"05","name":"Nordrhein-Westfalen"}},{"name":"Am Steg","postalCode":"53757","locality":"Sankt Augustin","municipality":{"key":"05382056","name":"Sankt Augustin, Stadt","type":"Stadt"},"district":{"key":"05382","name":"Rhein-Sieg-Kreis","type":"Kreis"},"federalState":{"key":"05","name":"Nordrhein-Westfalen"}},{"name":"Bachstr.","postalCode":"53757","locality":"Sankt Augustin","municipality":{"key":"05382056","name":"Sankt Augustin, Stadt","type":"Stadt"},"district":{"key":"05382","name":"Rhein-Sieg-Kreis","type":"Kreis"},"federalState":{"key":"05","name":"Nordrhein-Westfalen"}},{"name":"Bahnhofstr.","postalCode":"53757","locality":"Sankt Augustin","municipality":{"key":"05382056","name":"Sankt Augustin, Stadt","type":"Stadt"},"district":{"key":"05382","name":"Rhein-Sieg-Kreis","type":"Kreis"},"federalState":{"key":"05","name":"Nordrhein-Westfalen"}},{"name":"Bahnstr.","postalCode":"53757","locality":"Sankt Augustin","municipality":{"key":"05382056","name":"Sankt Augustin, Stadt","type":"Stadt"},"district":{"key":"05382","name":"Rhein-Sieg-Kreis","type":"Kreis"},"federalState":{"key":"05","name":"Nordrhein-Westfalen"}},{"name":"Beethovenstr.","postalCode":"53757","locality":"Sankt Augustin","municipality":{"key":"05382056","name":"Sankt Augustin, Stadt","type":"Stadt"},"district":{"key":"05382","name":"Rhein-Sieg-Kreis","type":"Kreis"},"federalState":{"key":"05","name":"Nordrhein-Westfalen"}},{"name":"Behringstr.","postalCode":"53757","locality":"Sankt Augustin","municipality":{"key":"05382056","name":"Sankt Augustin, Stadt","type":"Stadt"},"district":{"key":"05382","name":"Rhein-Sieg-Kreis","type":"Kreis"},"federalState":{"key":"05","name":"Nordrhein-Westfalen"}},{"name":"Bergstr.","postalCode":"53757","locality":"Sankt Augustin","municipality":{"key":"05382056","name":"Sankt Augustin, Stadt","type":"Stadt"},"district":{"key":"05382","name":"Rhein-Sieg-Kreis","type":"Kreis"},"federalState":{"key":"05","name":"Nordrhein-Westfalen"}},{"name":"Berliner Str.","postalCode":"53757","locality":"Sankt Augustin","municipality":{"key":"05382056","name":"Sankt Augustin, Stadt","type":"Stadt"},"district":{"key":"05382","name":"Rhein-Sieg-Kreis","type":"Kreis"},"federalState":{"key":"05","name":"Nordrhein-Westfalen"}},{"name":"Bernsteinstr.","postalCode":"53757","locality":"Sankt Augustin","municipality":{"key":"05382056","name":"Sankt Augustin, Stadt","type":"Stadt"},"district":{"key":"05382","name":"Rhein-Sieg-Kreis","type":"Kreis"},"federalState":{"key":"05","name":"Nordrhein-Westfalen"}},{"name":"Bertha-von-Suttner-Str.","postalCode":"53757","locality":"Sankt Augustin","municipality":{"key":"05382056","name":"Sankt Augustin, Stadt","type":"Stadt"},"district":{"key":"05382","name":"Rhein-Sieg-Kreis","type":"Kreis"},"federalState":{"key":"05","name":"Nordrhein-Westfalen"}},{"name":"Biberweg","postalCode":"53757","locality":"Sankt Augustin","municipality":{"key":"05382056","name":"Sankt Augustin, Stadt","type":"Stadt"},"district":{"key":"05382","name":"Rhein-Sieg-Kreis","type":"Kreis"},"federalState":{"key":"05","name":"Nordrhein-Westfalen"}},{"name":"Birkenbusch","postalCode":"53757","locality":"Sankt Augustin","municipality":{"key":"05382056","name":"Sankt Augustin, Stadt","type":"Stadt"},"district":{"key":"05382","name":"Rhein-Sieg-Kreis","type":"Kreis"},"federalState":{"key":"05","name":"Nordrhein-Westfalen"}},{"name":"Birkenweg","postalCode":"53757","locality":"Sankt Augustin","municipality":{"key":"05382056","name":"Sankt Augustin, Stadt","type":"Stadt"},"district":{"key":"05382","name":"Rhein-Sieg-Kreis","type":"Kreis"},"federalState":{"key":"05","name":"Nordrhein-Westfalen"}},{"name":"Birlinghovener Str.","postalCode":"53757","locality":"Sankt Augustin","municipality":{"key":"05382056","name":"Sankt Augustin, Stadt","type":"Stadt"},"district":{"key":"05382","name":"Rhein-Sieg-Kreis","type":"Kreis"},"federalState":{"key":"05","name":"Nordrhein-Westfalen"}},{"name":"Blumenstr.","postalCode":"53757","locality":"Sankt Augustin","municipality":{"key":"05382056","name":"Sankt Augustin, Stadt","type":"Stadt"},"district":{"key":"05382","name":"Rhein-Sieg-Kreis","type":"Kreis"},"federalState":{"key":"05","name":"Nordrhein-Westfalen"}},{"name":"Bodelschwinghstr.","postalCode":"53757","locality":"Sankt Augustin","municipality":{"key":"05382056","name":"Sankt Augustin, Stadt","type":"Stadt"},"district":{"key":"05382","name":"Rhein-Sieg-Kreis","type":"Kreis"},"federalState":{"key":"05","name":"Nordrhein-Westfalen"}},{"name":"Boelckestr.","postalCode":"53757","locality":"Sankt Augustin","municipality":{"key":"05382056","name":"Sankt Augustin, Stadt","type":"Stadt"},"district":{"key":"05382","name":"Rhein-Sieg-Kreis","type":"Kreis"},"federalState":{"key":"05","name":"Nordrhein-Westfalen"}},{"name":"Boettgerstr.","postalCode":"53757","locality":"Sankt Augustin","municipality":{"key":"05382056","name":"Sankt Augustin, Stadt","type":"Stadt"},"district":{"key":"05382","name":"Rhein-Sieg-Kreis","type":"Kreis"},"federalState":{"key":"05","name":"Nordrhein-Westfalen"}},{"name":"Bonner Str.","postalCode":"53757","locality":"Sankt Augustin","municipality":{"key":"05382056","name":"Sankt Augustin, Stadt","type":"Stadt"},"district":{"key":"05382","name":"Rhein-Sieg-Kreis","type":"Kreis"},"federalState":{"key":"05","name":"Nordrhein-Westfalen"}},{"name":"Bönnscher Weg","postalCode":"53757","locality":"Sankt Augustin","municipality":{"key":"05382056","name":"Sankt Augustin, Stadt","type":"Stadt"},"district":{"key":"05382","name":"Rhein-Sieg-Kreis","type":"Kreis"},"federalState":{"key":"05","name":"Nordrhein-Westfalen"}},{"name":"Bootsweg","postalCode":"53757","locality":"Sankt Augustin","municipality":{"key":"05382056","name":"Sankt Augustin, Stadt","type":"Stadt"},"district":{"key":"05382","name":"Rhein-Sieg-Kreis","type":"Kreis"},"federalState":{"key":"05","name":"Nordrhein-Westfalen"}},{"name":"Boschstr.","postalCode":"53757","locality":"Sankt Augustin","municipality":{"key":"05382056","name":"Sankt Augustin, Stadt","type":"Stadt"},"district":{"key":"05382","name":"Rhein-Sieg-Kreis","type":"Kreis"},"federalState":{"key":"05","name":"Nordrhein-Westfalen"}},{"name":"Brahmsstr.","postalCode":"53757","locality":"Sankt Augustin","municipality":{"key":"05382056","name":"Sankt Augustin, Stadt","type":"Stadt"},"district":{"key":"05382","name":"Rhein-Sieg-Kreis","type":"Kreis"},"federalState":{"key":"05","name":"Nordrhein-Westfalen"}},{"name":"Breslauer Str.","postalCode":"53757","locality":"Sankt Augustin","municipality":{"key":"05382056","name":"Sankt Augustin, Stadt","type":"Stadt"},"district":{"key":"05382","name":"Rhein-Sieg-Kreis","type":"Kreis"},"federalState":{"key":"05","name":"Nordrhein-Westfalen"}},{"name":"Brölweg","postalCode":"53757","locality":"Sankt Augustin","municipality":{"key":"05382056","name":"Sankt Augustin, Stadt","type":"Stadt"},"district":{"key":"05382","name":"Rhein-Sieg-Kreis","type":"Kreis"},"federalState":{"key":"05","name":"Nordrhein-Westfalen"}},{"name":"Brückenstr.","postalCode":"53757","locality":"Sankt Augustin","municipality":{"key":"05382056","name":"Sankt Augustin, Stadt","type":"Stadt"},"district":{"key":"05382","name":"Rhein-Sieg-Kreis","type":"Kreis"},"federalState":{"key":"05","name":"Nordrhein-Westfalen"}},{"name":"Brueghelstr.","postalCode":"53757","locality":"Sankt Augustin","municipality":{"key":"05382056","name":"Sankt Augustin, Stadt","type":"Stadt"},"district":{"key":"05382","name":"Rhein-Sieg-Kreis","type":"Kreis"},"federalState":{"key":"05","name":"Nordrhein-Westfalen"}},{"name":"Brunnenstr.","postalCode":"53757","locality":"Sankt Augustin","municipality":{"key":"05382056","name":"Sankt Augustin, Stadt","type":"Stadt"},"district":{"key":"05382","name":"Rhein-Sieg-Kreis","type":"Kreis"},"federalState":{"key":"05","name":"Nordrhein-Westfalen"}},{"name":"Bruno-Werntgen-Str.","postalCode":"53757","locality":"Sankt Augustin","municipality":{"key":"05382056","name":"Sankt Augustin, Stadt","type":"Stadt"},"district":{"key":"05382","name":"Rhein-Sieg-Kreis","type":"Kreis"},"federalState":{"key":"05","name":"Nordrhein-Westfalen"}},{"name":"Brüsseler Str.","postalCode":"53757","locality":"Sankt Augustin","municipality":{"key":"05382056","name":"Sankt Augustin, Stadt","type":"Stadt"},"district":{"key":"05382","name":"Rhein-Sieg-Kreis","type":"Kreis"},"federalState":{"key":"05","name":"Nordrhein-Westfalen"}},{"name":"Buchenweg","postalCode":"53757","locality":"Sankt Augustin","municipality":{"key":"05382056","name":"Sankt Augustin, Stadt","type":"Stadt"},"district":{"key":"05382","name":"Rhein-Sieg-Kreis","type":"Kreis"},"federalState":{"key":"05","name":"Nordrhein-Westfalen"}},{"name":"Buisdorfer Str.","postalCode":"53757","locality":"Sankt Augustin","municipality":{"key":"05382056","name":"Sankt Augustin, Stadt","type":"Stadt"},"district":{"key":"05382","name":"Rhein-Sieg-Kreis","type":"Kreis"},"federalState":{"key":"05","name":"Nordrhein-Westfalen"}},{"name":"Bülsenstr.","postalCode":"53757","locality":"Sankt Augustin","municipality":{"key":"05382056","name":"Sankt Augustin, Stadt","type":"Stadt"},"district":{"key":"05382","name":"Rhein-Sieg-Kreis","type":"Kreis"},"federalState":{"key":"05","name":"Nordrhein-Westfalen"}},{"name":"Burbankstr.","postalCode":"53757","locality":"Sankt Augustin","municipality":{"key":"05382056","name":"Sankt Augustin, Stadt","type":"Stadt"},"district":{"key":"05382","name":"Rhein-Sieg-Kreis","type":"Kreis"},"federalState":{"key":"05","name":"Nordrhein-Westfalen"}},{"name":"Burggasse","postalCode":"53757","locality":"Sankt Augustin","municipality":{"key":"05382056","name":"Sankt Augustin, Stadt","type":"Stadt"},"district":{"key":"05382","name":"Rhein-Sieg-Kreis","type":"Kreis"},"federalState":{"key":"05","name":"Nordrhein-Westfalen"}},{"name":"Burgstr.","postalCode":"53757","locality":"Sankt Augustin","municipality":{"key":"05382056","name":"Sankt Augustin, Stadt","type":"Stadt"},"district":{"key":"05382","name":"Rhein-Sieg-Kreis","type":"Kreis"},"federalState":{"key":"05","name":"Nordrhein-Westfalen"}},{"name":"Buschberg","postalCode":"53757","locality":"Sankt Augustin","municipality":{"key":"05382056","name":"Sankt Augustin, Stadt","type":"Stadt"},"district":{"key":"05382","name":"Rhein-Sieg-Kreis","type":"Kreis"},"federalState":{"key":"05","name":"Nordrhein-Westfalen"}},{"name":"Buschweg","postalCode":"53757","locality":"Sankt Augustin","municipality":{"key":"05382056","name":"Sankt Augustin, Stadt","type":"Stadt"},"district":{"key":"05382","name":"Rhein-Sieg-Kreis","type":"Kreis"},"federalState":{"key":"05","name":"Nordrhein-Westfalen"}},{"name":"Bussardstr.","postalCode":"53757","locality":"Sankt Augustin","municipality":{"key":"05382056","name":"Sankt Augustin, Stadt","type":"Stadt"},"district":{"key":"05382","name":"Rhein-Sieg-Kreis","type":"Kreis"},"federalState":{"key":"05","name":"Nordrhein-Westfalen"}},{"name":"Cäcilienstr.","postalCode":"53757","locality":"Sankt Augustin","municipality":{"key":"05382056","name":"Sankt Augustin, Stadt","type":"Stadt"},"district":{"key":"05382","name":"Rhein-Sieg-Kreis","type":"Kreis"},"federalState":{"key":"05","name":"Nordrhein-Westfalen"}},{"name":"Carl-Zeiss-Str.","postalCode":"53757","locality":"Sankt Augustin","municipality":{"key":"05382056","name":"Sankt Augustin, Stadt","type":"Stadt"},"district":{"key":"05382","name":"Rhein-Sieg-Kreis","type":"Kreis"},"federalState":{"key":"05","name":"Nordrhein-Westfalen"}},{"name":"Cranachstr.","postalCode":"53757","locality":"Sankt Augustin","municipality":{"key":"05382056","name":"Sankt Augustin, Stadt","type":"Stadt"},"district":{"key":"05382","name":"Rhein-Sieg-Kreis","type":"Kreis"},"federalState":{"key":"05","name":"Nordrhein-Westfalen"}},{"name":"Dahlienweg","postalCode":"53757","locality":"Sankt Augustin","municipality":{"key":"05382056","name":"Sankt Augustin, Stadt","type":"Stadt"},"district":{"key":"05382","name":"Rhein-Sieg-Kreis","type":"Kreis"},"federalState":{"key":"05","name":"Nordrhein-Westfalen"}},{"name":"Dammstr.","postalCode":"53757","locality":"Sankt Augustin","municipality":{"key":"05382056","name":"Sankt Augustin, Stadt","type":"Stadt"},"district":{"key":"05382","name":"Rhein-Sieg-Kreis","type":"Kreis"},"federalState":{"key":"05","name":"Nordrhein-Westfalen"}},{"name":"Danziger Str.","postalCode":"53757","locality":"Sankt Augustin","municipality":{"key":"05382056","name":"Sankt Augustin, Stadt","type":"Stadt"},"district":{"key":"05382","name":"Rhein-Sieg-Kreis","type":"Kreis"},"federalState":{"key":"05","name":"Nordrhein-Westfalen"}},{"name":"Deichstr.","postalCode":"53757","locality":"Sankt Augustin","municipality":{"key":"05382056","name":"Sankt Augustin, Stadt","type":"Stadt"},"district":{"key":"05382","name":"Rhein-Sieg-Kreis","type":"Kreis"},"federalState":{"key":"05","name":"Nordrhein-Westfalen"}},{"name":"Dietrich-Bonhoeffer-Str.","postalCode":"53757","locality":"Sankt Augustin","municipality":{"key":"05382056","name":"Sankt Augustin, Stadt","type":"Stadt"},"district":{"key":"05382","name":"Rhein-Sieg-Kreis","type":"Kreis"},"federalState":{"key":"05","name":"Nordrhein-Westfalen"}},{"name":"Distelweg","postalCode":"53757","locality":"Sankt Augustin","municipality":{"key":"05382056","name":"Sankt Augustin, Stadt","type":"Stadt"},"district":{"key":"05382","name":"Rhein-Sieg-Kreis","type":"Kreis"},"federalState":{"key":"05","name":"Nordrhein-Westfalen"}},{"name":"Dornierstr.","postalCode":"53757","locality":"Sankt Augustin","municipality":{"key":"05382056","name":"Sankt Augustin, Stadt","type":"Stadt"},"district":{"key":"05382","name":"Rhein-Sieg-Kreis","type":"Kreis"},"federalState":{"key":"05","name":"Nordrhein-Westfalen"}},{"name":"Drachenfelsstr.","postalCode":"53757","locality":"Sankt Augustin","municipality":{"key":"05382056","name":"Sankt Augustin, Stadt","type":"Stadt"},"district":{"key":"05382","name":"Rhein-Sieg-Kreis","type":"Kreis"},"federalState":{"key":"05","name":"Nordrhein-Westfalen"}},{"name":"Drosselweg","postalCode":"53757","locality":"Sankt Augustin","municipality":{"key":"05382056","name":"Sankt Augustin, Stadt","type":"Stadt"},"district":{"key":"05382","name":"Rhein-Sieg-Kreis","type":"Kreis"},"federalState":{"key":"05","name":"Nordrhein-Westfalen"}},{"name":"Dürerstr.","postalCode":"53757","locality":"Sankt Augustin","municipality":{"key":"05382056","name":"Sankt Augustin, Stadt","type":"Stadt"},"district":{"key":"05382","name":"Rhein-Sieg-Kreis","type":"Kreis"},"federalState":{"key":"05","name":"Nordrhein-Westfalen"}},{"name":"Eckenerstr.","postalCode":"53757","locality":"Sankt Augustin","municipality":{"key":"05382056","name":"Sankt Augustin, Stadt","type":"Stadt"},"district":{"key":"05382","name":"Rhein-Sieg-Kreis","type":"Kreis"},"federalState":{"key":"05","name":"Nordrhein-Westfalen"}},{"name":"Eibenweg","postalCode":"53757","locality":"Sankt Augustin","municipality":{"key":"05382056","name":"Sankt Augustin, Stadt","type":"Stadt"},"district":{"key":"05382","name":"Rhein-Sieg-Kreis","type":"Kreis"},"federalState":{"key":"05","name":"Nordrhein-Westfalen"}},{"name":"Eichhörnchenweg","postalCode":"53757","locality":"Sankt Augustin","municipality":{"key":"05382056","name":"Sankt Augustin, Stadt","type":"Stadt"},"district":{"key":"05382","name":"Rhein-Sieg-Kreis","type":"Kreis"},"federalState":{"key":"05","name":"Nordrhein-Westfalen"}},{"name":"Eifelstr.","postalCode":"53757","locality":"Sankt Augustin","municipality":{"key":"05382056","name":"Sankt Augustin, Stadt","type":"Stadt"},"district":{"key":"05382","name":"Rhein-Sieg-Kreis","type":"Kreis"},"federalState":{"key":"05","name":"Nordrhein-Westfalen"}},{"name":"Einsteinstr.","postalCode":"53757","locality":"Sankt Augustin","municipality":{"key":"05382056","name":"Sankt Augustin, Stadt","type":"Stadt"},"district":{"key":"05382","name":"Rhein-Sieg-Kreis","type":"Kreis"},"federalState":{"key":"05","name":"Nordrhein-Westfalen"}},{"name":"Eisenachstr.","postalCode":"53757","locality":"Sankt Augustin","municipality":{"key":"05382056","name":"Sankt Augustin, Stadt","type":"Stadt"},"district":{"key":"05382","name":"Rhein-Sieg-Kreis","type":"Kreis"},"federalState":{"key":"05","name":"Nordrhein-Westfalen"}},{"name":"Elsa-Brandström-Str.","postalCode":"53757","locality":"Sankt Augustin","municipality":{"key":"05382056","name":"Sankt Augustin, Stadt","type":"Stadt"},"district":{"key":"05382","name":"Rhein-Sieg-Kreis","type":"Kreis"},"federalState":{"key":"05","name":"Nordrhein-Westfalen"}},{"name":"Erftstr.","postalCode":"53757","locality":"Sankt Augustin","municipality":{"key":"05382056","name":"Sankt Augustin, Stadt","type":"Stadt"},"district":{"key":"05382","name":"Rhein-Sieg-Kreis","type":"Kreis"},"federalState":{"key":"05","name":"Nordrhein-Westfalen"}},{"name":"Erfurtstr.","postalCode":"53757","locality":"Sankt Augustin","municipality":{"key":"05382056","name":"Sankt Augustin, Stadt","type":"Stadt"},"district":{"key":"05382","name":"Rhein-Sieg-Kreis","type":"Kreis"},"federalState":{"key":"05","name":"Nordrhein-Westfalen"}},{"name":"Ernst-Moritz-Arndt-Str.","postalCode":"53757","locality":"Sankt Augustin","municipality":{"key":"05382056","name":"Sankt Augustin, Stadt","type":"Stadt"},"district":{"key":"05382","name":"Rhein-Sieg-Kreis","type":"Kreis"},"federalState":{"key":"05","name":"Nordrhein-Westfalen"}},{"name":"Ernst-Reuter-Str.","postalCode":"53757","locality":"Sankt Augustin","municipality":{"key":"05382056","name":"Sankt Augustin, Stadt","type":"Stadt"},"district":{"key":"05382","name":"Rhein-Sieg-Kreis","type":"Kreis"},"federalState":{"key":"05","name":"Nordrhein-Westfalen"}},{"name":"Ernststr.","postalCode":"53757","locality":"Sankt Augustin","municipality":{"key":"05382056","name":"Sankt Augustin, Stadt","type":"Stadt"},"district":{"key":"05382","name":"Rhein-Sieg-Kreis","type":"Kreis"},"federalState":{"key":"05","name":"Nordrhein-Westfalen"}},{"name":"Eschenweg","postalCode":"53757","locality":"Sankt Augustin","municipality":{"key":"05382056","name":"Sankt Augustin, Stadt","type":"Stadt"},"district":{"key":"05382","name":"Rhein-Sieg-Kreis","type":"Kreis"},"federalState":{"key":"05","name":"Nordrhein-Westfalen"}},{"name":"Europaring","postalCode":"53757","locality":"Sankt Augustin","municipality":{"key":"05382056","name":"Sankt Augustin, Stadt","type":"Stadt"},"district":{"key":"05382","name":"Rhein-Sieg-Kreis","type":"Kreis"},"federalState":{"key":"05","name":"Nordrhein-Westfalen"}},{"name":"Fährstr.","postalCode":"53757","locality":"Sankt Augustin","municipality":{"key":"05382056","name":"Sankt Augustin, Stadt","type":"Stadt"},"district":{"key":"05382","name":"Rhein-Sieg-Kreis","type":"Kreis"},"federalState":{"key":"05","name":"Nordrhein-Westfalen"}},{"name":"Falderbaumstr.","postalCode":"53757","locality":"Sankt Augustin","municipality":{"key":"05382056","name":"Sankt Augustin, Stadt","type":"Stadt"},"district":{"key":"05382","name":"Rhein-Sieg-Kreis","type":"Kreis"},"federalState":{"key":"05","name":"Nordrhein-Westfalen"}},{"name":"Falkenweg","postalCode":"53757","locality":"Sankt Augustin","municipality":{"key":"05382056","name":"Sankt Augustin, Stadt","type":"Stadt"},"district":{"key":"05382","name":"Rhein-Sieg-Kreis","type":"Kreis"},"federalState":{"key":"05","name":"Nordrhein-Westfalen"}},{"name":"Fasanenweg","postalCode":"53757","locality":"Sankt Augustin","municipality":{"key":"05382056","name":"Sankt Augustin, Stadt","type":"Stadt"},"district":{"key":"05382","name":"Rhein-Sieg-Kreis","type":"Kreis"},"federalState":{"key":"05","name":"Nordrhein-Westfalen"}},{"name":"Feuerbachstr.","postalCode":"53757","locality":"Sankt Augustin","municipality":{"key":"05382056","name":"Sankt Augustin, Stadt","type":"Stadt"},"district":{"key":"05382","name":"Rhein-Sieg-Kreis","type":"Kreis"},"federalState":{"key":"05","name":"Nordrhein-Westfalen"}},{"name":"Fichtenweg","postalCode":"53757","locality":"Sankt Augustin","municipality":{"key":"05382056","name":"Sankt Augustin, Stadt","type":"Stadt"},"district":{"key":"05382","name":"Rhein-Sieg-Kreis","type":"Kreis"},"federalState":{"key":"05","name":"Nordrhein-Westfalen"}},{"name":"Finkenweg","postalCode":"53757","locality":"Sankt Augustin","municipality":{"key":"05382056","name":"Sankt Augustin, Stadt","type":"Stadt"},"district":{"key":"05382","name":"Rhein-Sieg-Kreis","type":"Kreis"},"federalState":{"key":"05","name":"Nordrhein-Westfalen"}},{"name":"Fliederweg","postalCode":"53757","locality":"Sankt Augustin","municipality":{"key":"05382056","name":"Sankt Augustin, Stadt","type":"Stadt"},"district":{"key":"05382","name":"Rhein-Sieg-Kreis","type":"Kreis"},"federalState":{"key":"05","name":"Nordrhein-Westfalen"}},{"name":"Florianstr.","postalCode":"53757","locality":"Sankt Augustin","municipality":{"key":"05382056","name":"Sankt Augustin, Stadt","type":"Stadt"},"district":{"key":"05382","name":"Rhein-Sieg-Kreis","type":"Kreis"},"federalState":{"key":"05","name":"Nordrhein-Westfalen"}},{"name":"Fontanestr.","postalCode":"53757","locality":"Sankt Augustin","municipality":{"key":"05382056","name":"Sankt Augustin, Stadt","type":"Stadt"},"district":{"key":"05382","name":"Rhein-Sieg-Kreis","type":"Kreis"},"federalState":{"key":"05","name":"Nordrhein-Westfalen"}},{"name":"Frankfurter Str.","postalCode":"53757","locality":"Sankt Augustin","municipality":{"key":"05382056","name":"Sankt Augustin, Stadt","type":"Stadt"},"district":{"key":"05382","name":"Rhein-Sieg-Kreis","type":"Kreis"},"federalState":{"key":"05","name":"Nordrhein-Westfalen"}},{"name":"Frans-Hals-Str.","postalCode":"53757","locality":"Sankt Augustin","municipality":{"key":"05382056","name":"Sankt Augustin, Stadt","type":"Stadt"},"district":{"key":"05382","name":"Rhein-Sieg-Kreis","type":"Kreis"},"federalState":{"key":"05","name":"Nordrhein-Westfalen"}},{"name":"Franz-Jacobi-Str.","postalCode":"53757","locality":"Sankt Augustin","municipality":{"key":"05382056","name":"Sankt Augustin, Stadt","type":"Stadt"},"district":{"key":"05382","name":"Rhein-Sieg-Kreis","type":"Kreis"},"federalState":{"key":"05","name":"Nordrhein-Westfalen"}},{"name":"Franz-Josef-Halm-Platz","postalCode":"53757","locality":"Sankt Augustin","municipality":{"key":"05382056","name":"Sankt Augustin, Stadt","type":"Stadt"},"district":{"key":"05382","name":"Rhein-Sieg-Kreis","type":"Kreis"},"federalState":{"key":"05","name":"Nordrhein-Westfalen"}},{"name":"Freie Buschstr.","postalCode":"53757","locality":"Sankt Augustin","municipality":{"key":"05382056","name":"Sankt Augustin, Stadt","type":"Stadt"},"district":{"key":"05382","name":"Rhein-Sieg-Kreis","type":"Kreis"},"federalState":{"key":"05","name":"Nordrhein-Westfalen"}},{"name":"Freiheitsstr.","postalCode":"53757","locality":"Sankt Augustin","municipality":{"key":"05382056","name":"Sankt Augustin, Stadt","type":"Stadt"},"district":{"key":"05382","name":"Rhein-Sieg-Kreis","type":"Kreis"},"federalState":{"key":"05","name":"Nordrhein-Westfalen"}},{"name":"Friedensstr.","postalCode":"53757","locality":"Sankt Augustin","municipality":{"key":"05382056","name":"Sankt Augustin, Stadt","type":"Stadt"},"district":{"key":"05382","name":"Rhein-Sieg-Kreis","type":"Kreis"},"federalState":{"key":"05","name":"Nordrhein-Westfalen"}},{"name":"Friedhofstr.","postalCode":"53757","locality":"Sankt Augustin","municipality":{"key":"05382056","name":"Sankt Augustin, Stadt","type":"Stadt"},"district":{"key":"05382","name":"Rhein-Sieg-Kreis","type":"Kreis"},"federalState":{"key":"05","name":"Nordrhein-Westfalen"}},{"name":"Friedrich-Gauß-Str.","postalCode":"53757","locality":"Sankt Augustin","municipality":{"key":"05382056","name":"Sankt Augustin, Stadt","type":"Stadt"},"district":{"key":"05382","name":"Rhein-Sieg-Kreis","type":"Kreis"},"federalState":{"key":"05","name":"Nordrhein-Westfalen"}},{"name":"Friedrich-Hegel-Str.","postalCode":"53757","locality":"Sankt Augustin","municipality":{"key":"05382056","name":"Sankt Augustin, Stadt","type":"Stadt"},"district":{"key":"05382","name":"Rhein-Sieg-Kreis","type":"Kreis"},"federalState":{"key":"05","name":"Nordrhein-Westfalen"}},{"name":"Friedrichstr.","postalCode":"53757","locality":"Sankt Augustin","municipality":{"key":"05382056","name":"Sankt Augustin, Stadt","type":"Stadt"},"district":{"key":"05382","name":"Rhein-Sieg-Kreis","type":"Kreis"},"federalState":{"key":"05","name":"Nordrhein-Westfalen"}},{"name":"Fritz-Pullig-Str.","postalCode":"53757","locality":"Sankt Augustin","municipality":{"key":"05382056","name":"Sankt Augustin, Stadt","type":"Stadt"},"district":{"key":"05382","name":"Rhein-Sieg-Kreis","type":"Kreis"},"federalState":{"key":"05","name":"Nordrhein-Westfalen"}},{"name":"Fritz-Schröder-Str.","postalCode":"53757","locality":"Sankt Augustin","municipality":{"key":"05382056","name":"Sankt Augustin, Stadt","type":"Stadt"},"district":{"key":"05382","name":"Rhein-Sieg-Kreis","type":"Kreis"},"federalState":{"key":"05","name":"Nordrhein-Westfalen"}},{"name":"Fröbelstr.","postalCode":"53757","locality":"Sankt Augustin","municipality":{"key":"05382056","name":"Sankt Augustin, Stadt","type":"Stadt"},"district":{"key":"05382","name":"Rhein-Sieg-Kreis","type":"Kreis"},"federalState":{"key":"05","name":"Nordrhein-Westfalen"}},{"name":"Fuchspfad","postalCode":"53757","locality":"Sankt Augustin","municipality":{"key":"05382056","name":"Sankt Augustin, Stadt","type":"Stadt"},"district":{"key":"05382","name":"Rhein-Sieg-Kreis","type":"Kreis"},"federalState":{"key":"05","name":"Nordrhein-Westfalen"}},{"name":"Gartenstr.","postalCode":"53757","locality":"Sankt Augustin","municipality":{"key":"05382056","name":"Sankt Augustin, Stadt","type":"Stadt"},"district":{"key":"05382","name":"Rhein-Sieg-Kreis","type":"Kreis"},"federalState":{"key":"05","name":"Nordrhein-Westfalen"}},{"name":"Geislarer Str.","postalCode":"53757","locality":"Sankt Augustin","municipality":{"key":"05382056","name":"Sankt Augustin, Stadt","type":"Stadt"},"district":{"key":"05382","name":"Rhein-Sieg-Kreis","type":"Kreis"},"federalState":{"key":"05","name":"Nordrhein-Westfalen"}},{"name":"Gerastr.","postalCode":"53757","locality":"Sankt Augustin","municipality":{"key":"05382056","name":"Sankt Augustin, Stadt","type":"Stadt"},"district":{"key":"05382","name":"Rhein-Sieg-Kreis","type":"Kreis"},"federalState":{"key":"05","name":"Nordrhein-Westfalen"}},{"name":"Gerhart-Hauptmann-Str.","postalCode":"53757","locality":"Sankt Augustin","municipality":{"key":"05382056","name":"Sankt Augustin, Stadt","type":"Stadt"},"district":{"key":"05382","name":"Rhein-Sieg-Kreis","type":"Kreis"},"federalState":{"key":"05","name":"Nordrhein-Westfalen"}},{"name":"Gertrudisstr.","postalCode":"53757","locality":"Sankt Augustin","municipality":{"key":"05382056","name":"Sankt Augustin, Stadt","type":"Stadt"},"district":{"key":"05382","name":"Rhein-Sieg-Kreis","type":"Kreis"},"federalState":{"key":"05","name":"Nordrhein-Westfalen"}},{"name":"Geschwister-Scholl-Str.","postalCode":"53757","locality":"Sankt Augustin","municipality":{"key":"05382056","name":"Sankt Augustin, Stadt","type":"Stadt"},"district":{"key":"05382","name":"Rhein-Sieg-Kreis","type":"Kreis"},"federalState":{"key":"05","name":"Nordrhein-Westfalen"}},{"name":"Gießereiweg","postalCode":"53757","locality":"Sankt Augustin","municipality":{"key":"05382056","name":"Sankt Augustin, Stadt","type":"Stadt"},"district":{"key":"05382","name":"Rhein-Sieg-Kreis","type":"Kreis"},"federalState":{"key":"05","name":"Nordrhein-Westfalen"}},{"name":"Ginsterweg","postalCode":"53757","locality":"Sankt Augustin","municipality":{"key":"05382056","name":"Sankt Augustin, Stadt","type":"Stadt"},"district":{"key":"05382","name":"Rhein-Sieg-Kreis","type":"Kreis"},"federalState":{"key":"05","name":"Nordrhein-Westfalen"}},{"name":"Goerdelerstr.","postalCode":"53757","locality":"Sankt Augustin","municipality":{"key":"05382056","name":"Sankt Augustin, Stadt","type":"Stadt"},"district":{"key":"05382","name":"Rhein-Sieg-Kreis","type":"Kreis"},"federalState":{"key":"05","name":"Nordrhein-Westfalen"}},{"name":"Goethestr.","postalCode":"53757","locality":"Sankt Augustin","municipality":{"key":"05382056","name":"Sankt Augustin, Stadt","type":"Stadt"},"district":{"key":"05382","name":"Rhein-Sieg-Kreis","type":"Kreis"},"federalState":{"key":"05","name":"Nordrhein-Westfalen"}},{"name":"Goldregenweg","postalCode":"53757","locality":"Sankt Augustin","municipality":{"key":"05382056","name":"Sankt Augustin, Stadt","type":"Stadt"},"district":{"key":"05382","name":"Rhein-Sieg-Kreis","type":"Kreis"},"federalState":{"key":"05","name":"Nordrhein-Westfalen"}},{"name":"Gothastr.","postalCode":"53757","locality":"Sankt Augustin","municipality":{"key":"05382056","name":"Sankt Augustin, Stadt","type":"Stadt"},"district":{"key":"05382","name":"Rhein-Sieg-Kreis","type":"Kreis"},"federalState":{"key":"05","name":"Nordrhein-Westfalen"}},{"name":"Gottfried-Keller-Str.","postalCode":"53757","locality":"Sankt Augustin","municipality":{"key":"05382056","name":"Sankt Augustin, Stadt","type":"Stadt"},"district":{"key":"05382","name":"Rhein-Sieg-Kreis","type":"Kreis"},"federalState":{"key":"05","name":"Nordrhein-Westfalen"}},{"name":"Gottfried-Kinkel-Str.","postalCode":"53757","locality":"Sankt Augustin","municipality":{"key":"05382056","name":"Sankt Augustin, Stadt","type":"Stadt"},"district":{"key":"05382","name":"Rhein-Sieg-Kreis","type":"Kreis"},"federalState":{"key":"05","name":"Nordrhein-Westfalen"}},{"name":"Gottfried-Salz-Str.","postalCode":"53757","locality":"Sankt Augustin","municipality":{"key":"05382056","name":"Sankt Augustin, Stadt","type":"Stadt"},"district":{"key":"05382","name":"Rhein-Sieg-Kreis","type":"Kreis"},"federalState":{"key":"05","name":"Nordrhein-Westfalen"}},{"name":"Grabenstr.","postalCode":"53757","locality":"Sankt Augustin","municipality":{"key":"05382056","name":"Sankt Augustin, Stadt","type":"Stadt"},"district":{"key":"05382","name":"Rhein-Sieg-Kreis","type":"Kreis"},"federalState":{"key":"05","name":"Nordrhein-Westfalen"}},{"name":"Graf-Zeppelin-Str.","postalCode":"53757","locality":"Sankt Augustin","municipality":{"key":"05382056","name":"Sankt Augustin, Stadt","type":"Stadt"},"district":{"key":"05382","name":"Rhein-Sieg-Kreis","type":"Kreis"},"federalState":{"key":"05","name":"Nordrhein-Westfalen"}},{"name":"Grantham-Allee","postalCode":"53757","locality":"Sankt Augustin","municipality":{"key":"05382056","name":"Sankt Augustin, Stadt","type":"Stadt"},"district":{"key":"05382","name":"Rhein-Sieg-Kreis","type":"Kreis"},"federalState":{"key":"05","name":"Nordrhein-Westfalen"}},{"name":"Großenbuschstr.","postalCode":"53757","locality":"Sankt Augustin","municipality":{"key":"05382056","name":"Sankt Augustin, Stadt","type":"Stadt"},"district":{"key":"05382","name":"Rhein-Sieg-Kreis","type":"Kreis"},"federalState":{"key":"05","name":"Nordrhein-Westfalen"}},{"name":"Grüne Mitte","postalCode":"53757","locality":"Sankt Augustin","municipality":{"key":"05382056","name":"Sankt Augustin, Stadt","type":"Stadt"},"district":{"key":"05382","name":"Rhein-Sieg-Kreis","type":"Kreis"},"federalState":{"key":"05","name":"Nordrhein-Westfalen"}},{"name":"Grüner Weg","postalCode":"53757","locality":"Sankt Augustin","municipality":{"key":"05382056","name":"Sankt Augustin, Stadt","type":"Stadt"},"district":{"key":"05382","name":"Rhein-Sieg-Kreis","type":"Kreis"},"federalState":{"key":"05","name":"Nordrhein-Westfalen"}},{"name":"Gutenbergstr.","postalCode":"53757","locality":"Sankt Augustin","municipality":{"key":"05382056","name":"Sankt Augustin, Stadt","type":"Stadt"},"district":{"key":"05382","name":"Rhein-Sieg-Kreis","type":"Kreis"},"federalState":{"key":"05","name":"Nordrhein-Westfalen"}},{"name":"Haberstr.","postalCode":"53757","locality":"Sankt Augustin","municipality":{"key":"05382056","name":"Sankt Augustin, Stadt","type":"Stadt"},"district":{"key":"05382","name":"Rhein-Sieg-Kreis","type":"Kreis"},"federalState":{"key":"05","name":"Nordrhein-Westfalen"}},{"name":"Habichtweg","postalCode":"53757","locality":"Sankt Augustin","municipality":{"key":"05382056","name":"Sankt Augustin, Stadt","type":"Stadt"},"district":{"key":"05382","name":"Rhein-Sieg-Kreis","type":"Kreis"},"federalState":{"key":"05","name":"Nordrhein-Westfalen"}},{"name":"Hahnbitzenweg","postalCode":"53757","locality":"Sankt Augustin","municipality":{"key":"05382056","name":"Sankt Augustin, Stadt","type":"Stadt"},"district":{"key":"05382","name":"Rhein-Sieg-Kreis","type":"Kreis"},"federalState":{"key":"05","name":"Nordrhein-Westfalen"}},{"name":"Hammstr.","postalCode":"53757","locality":"Sankt Augustin","municipality":{"key":"05382056","name":"Sankt Augustin, Stadt","type":"Stadt"},"district":{"key":"05382","name":"Rhein-Sieg-Kreis","type":"Kreis"},"federalState":{"key":"05","name":"Nordrhein-Westfalen"}},{"name":"Händelstr.","postalCode":"53757","locality":"Sankt Augustin","municipality":{"key":"05382056","name":"Sankt Augustin, Stadt","type":"Stadt"},"district":{"key":"05382","name":"Rhein-Sieg-Kreis","type":"Kreis"},"federalState":{"key":"05","name":"Nordrhein-Westfalen"}},{"name":"Hangelarer Str.","postalCode":"53757","locality":"Sankt Augustin","municipality":{"key":"05382056","name":"Sankt Augustin, Stadt","type":"Stadt"},"district":{"key":"05382","name":"Rhein-Sieg-Kreis","type":"Kreis"},"federalState":{"key":"05","name":"Nordrhein-Westfalen"}},{"name":"Hangweg","postalCode":"53757","locality":"Sankt Augustin","municipality":{"key":"05382056","name":"Sankt Augustin, Stadt","type":"Stadt"},"district":{"key":"05382","name":"Rhein-Sieg-Kreis","type":"Kreis"},"federalState":{"key":"05","name":"Nordrhein-Westfalen"}},{"name":"Hasenweg","postalCode":"53757","locality":"Sankt Augustin","municipality":{"key":"05382056","name":"Sankt Augustin, Stadt","type":"Stadt"},"district":{"key":"05382","name":"Rhein-Sieg-Kreis","type":"Kreis"},"federalState":{"key":"05","name":"Nordrhein-Westfalen"}},{"name":"Hauptstr.","postalCode":"53757","locality":"Sankt Augustin","municipality":{"key":"05382056","name":"Sankt Augustin, Stadt","type":"Stadt"},"district":{"key":"05382","name":"Rhein-Sieg-Kreis","type":"Kreis"},"federalState":{"key":"05","name":"Nordrhein-Westfalen"}},{"name":"Heckenweg","postalCode":"53757","locality":"Sankt Augustin","municipality":{"key":"05382056","name":"Sankt Augustin, Stadt","type":"Stadt"},"district":{"key":"05382","name":"Rhein-Sieg-Kreis","type":"Kreis"},"federalState":{"key":"05","name":"Nordrhein-Westfalen"}},{"name":"Heilsberger Str.","postalCode":"53757","locality":"Sankt Augustin","municipality":{"key":"05382056","name":"Sankt Augustin, Stadt","type":"Stadt"},"district":{"key":"05382","name":"Rhein-Sieg-Kreis","type":"Kreis"},"federalState":{"key":"05","name":"Nordrhein-Westfalen"}},{"name":"Heinrich-Busch-Str.","postalCode":"53757","locality":"Sankt Augustin","municipality":{"key":"05382056","name":"Sankt Augustin, Stadt","type":"Stadt"},"district":{"key":"05382","name":"Rhein-Sieg-Kreis","type":"Kreis"},"federalState":{"key":"05","name":"Nordrhein-Westfalen"}},{"name":"Heinrich-Heine-Str.","postalCode":"53757","locality":"Sankt Augustin","municipality":{"key":"05382056","name":"Sankt Augustin, Stadt","type":"Stadt"},"district":{"key":"05382","name":"Rhein-Sieg-Kreis","type":"Kreis"},"federalState":{"key":"05","name":"Nordrhein-Westfalen"}},{"name":"Helene-Lange-Str.","postalCode":"53757","locality":"Sankt Augustin","municipality":{"key":"05382056","name":"Sankt Augustin, Stadt","type":"Stadt"},"district":{"key":"05382","name":"Rhein-Sieg-Kreis","type":"Kreis"},"federalState":{"key":"05","name":"Nordrhein-Westfalen"}},{"name":"Hennefer Str.","postalCode":"53757","locality":"Sankt Augustin","municipality":{"key":"05382056","name":"Sankt Augustin, Stadt","type":"Stadt"},"district":{"key":"05382","name":"Rhein-Sieg-Kreis","type":"Kreis"},"federalState":{"key":"05","name":"Nordrhein-Westfalen"}},{"name":"Henri-Dunant-Str.","postalCode":"53757","locality":"Sankt Augustin","municipality":{"key":"05382056","name":"Sankt Augustin, Stadt","type":"Stadt"},"district":{"key":"05382","name":"Rhein-Sieg-Kreis","type":"Kreis"},"federalState":{"key":"05","name":"Nordrhein-Westfalen"}},{"name":"Herderstr.","postalCode":"53757","locality":"Sankt Augustin","municipality":{"key":"05382056","name":"Sankt Augustin, Stadt","type":"Stadt"},"district":{"key":"05382","name":"Rhein-Sieg-Kreis","type":"Kreis"},"federalState":{"key":"05","name":"Nordrhein-Westfalen"}},{"name":"Hermann-Löns-Str.","postalCode":"53757","locality":"Sankt Augustin","municipality":{"key":"05382056","name":"Sankt Augustin, Stadt","type":"Stadt"},"district":{"key":"05382","name":"Rhein-Sieg-Kreis","type":"Kreis"},"federalState":{"key":"05","name":"Nordrhein-Westfalen"}},{"name":"Hertzstr.","postalCode":"53757","locality":"Sankt Augustin","municipality":{"key":"05382056","name":"Sankt Augustin, Stadt","type":"Stadt"},"district":{"key":"05382","name":"Rhein-Sieg-Kreis","type":"Kreis"},"federalState":{"key":"05","name":"Nordrhein-Westfalen"}},{"name":"Hirschbergweg","postalCode":"53757","locality":"Sankt Augustin","municipality":{"key":"05382056","name":"Sankt Augustin, Stadt","type":"Stadt"},"district":{"key":"05382","name":"Rhein-Sieg-Kreis","type":"Kreis"},"federalState":{"key":"05","name":"Nordrhein-Westfalen"}},{"name":"Hochmeisterstr.","postalCode":"53757","locality":"Sankt Augustin","municipality":{"key":"05382056","name":"Sankt Augustin, Stadt","type":"Stadt"},"district":{"key":"05382","name":"Rhein-Sieg-Kreis","type":"Kreis"},"federalState":{"key":"05","name":"Nordrhein-Westfalen"}},{"name":"Hofgartenstr.","postalCode":"53757","locality":"Sankt Augustin","municipality":{"key":"05382056","name":"Sankt Augustin, Stadt","type":"Stadt"},"district":{"key":"05382","name":"Rhein-Sieg-Kreis","type":"Kreis"},"federalState":{"key":"05","name":"Nordrhein-Westfalen"}},{"name":"Höldersteg","postalCode":"53757","locality":"Sankt Augustin","municipality":{"key":"05382056","name":"Sankt Augustin, Stadt","type":"Stadt"},"district":{"key":"05382","name":"Rhein-Sieg-Kreis","type":"Kreis"},"federalState":{"key":"05","name":"Nordrhein-Westfalen"}},{"name":"Holunderweg","postalCode":"53757","locality":"Sankt Augustin","municipality":{"key":"05382056","name":"Sankt Augustin, Stadt","type":"Stadt"},"district":{"key":"05382","name":"Rhein-Sieg-Kreis","type":"Kreis"},"federalState":{"key":"05","name":"Nordrhein-Westfalen"}},{"name":"Holzlarer Str.","postalCode":"53757","locality":"Sankt Augustin","municipality":{"key":"05382056","name":"Sankt Augustin, Stadt","type":"Stadt"},"district":{"key":"05382","name":"Rhein-Sieg-Kreis","type":"Kreis"},"federalState":{"key":"05","name":"Nordrhein-Westfalen"}},{"name":"Holzweg","postalCode":"53757","locality":"Sankt Augustin","municipality":{"key":"05382056","name":"Sankt Augustin, Stadt","type":"Stadt"},"district":{"key":"05382","name":"Rhein-Sieg-Kreis","type":"Kreis"},"federalState":{"key":"05","name":"Nordrhein-Westfalen"}},{"name":"Hubert-Minz-Str.","postalCode":"53757","locality":"Sankt Augustin","municipality":{"key":"05382056","name":"Sankt Augustin, Stadt","type":"Stadt"},"district":{"key":"05382","name":"Rhein-Sieg-Kreis","type":"Kreis"},"federalState":{"key":"05","name":"Nordrhein-Westfalen"}},{"name":"Hubert-Wallich-Str.","postalCode":"53757","locality":"Sankt Augustin","municipality":{"key":"05382056","name":"Sankt Augustin, Stadt","type":"Stadt"},"district":{"key":"05382","name":"Rhein-Sieg-Kreis","type":"Kreis"},"federalState":{"key":"05","name":"Nordrhein-Westfalen"}},{"name":"Huflattichweg","postalCode":"53757","locality":"Sankt Augustin","municipality":{"key":"05382056","name":"Sankt Augustin, Stadt","type":"Stadt"},"district":{"key":"05382","name":"Rhein-Sieg-Kreis","type":"Kreis"},"federalState":{"key":"05","name":"Nordrhein-Westfalen"}},{"name":"Humperdinckstr.","postalCode":"53757","locality":"Sankt Augustin","municipality":{"key":"05382056","name":"Sankt Augustin, Stadt","type":"Stadt"},"district":{"key":"05382","name":"Rhein-Sieg-Kreis","type":"Kreis"},"federalState":{"key":"05","name":"Nordrhein-Westfalen"}},{"name":"Husarenstr.","postalCode":"53757","locality":"Sankt Augustin","municipality":{"key":"05382056","name":"Sankt Augustin, Stadt","type":"Stadt"},"district":{"key":"05382","name":"Rhein-Sieg-Kreis","type":"Kreis"},"federalState":{"key":"05","name":"Nordrhein-Westfalen"}},{"name":"Ignatiusstr.","postalCode":"53757","locality":"Sankt Augustin","municipality":{"key":"05382056","name":"Sankt Augustin, Stadt","type":"Stadt"},"district":{"key":"05382","name":"Rhein-Sieg-Kreis","type":"Kreis"},"federalState":{"key":"05","name":"Nordrhein-Westfalen"}},{"name":"Ilmenaustr.","postalCode":"53757","locality":"Sankt Augustin","municipality":{"key":"05382056","name":"Sankt Augustin, Stadt","type":"Stadt"},"district":{"key":"05382","name":"Rhein-Sieg-Kreis","type":"Kreis"},"federalState":{"key":"05","name":"Nordrhein-Westfalen"}},{"name":"Iltisweg","postalCode":"53757","locality":"Sankt Augustin","municipality":{"key":"05382056","name":"Sankt Augustin, Stadt","type":"Stadt"},"district":{"key":"05382","name":"Rhein-Sieg-Kreis","type":"Kreis"},"federalState":{"key":"05","name":"Nordrhein-Westfalen"}},{"name":"Im alten Garten","postalCode":"53757","locality":"Sankt Augustin","municipality":{"key":"05382056","name":"Sankt Augustin, Stadt","type":"Stadt"},"district":{"key":"05382","name":"Rhein-Sieg-Kreis","type":"Kreis"},"federalState":{"key":"05","name":"Nordrhein-Westfalen"}},{"name":"Im alten Keller","postalCode":"53757","locality":"Sankt Augustin","municipality":{"key":"05382056","name":"Sankt Augustin, Stadt","type":"Stadt"},"district":{"key":"05382","name":"Rhein-Sieg-Kreis","type":"Kreis"},"federalState":{"key":"05","name":"Nordrhein-Westfalen"}},{"name":"Im Baumgarten","postalCode":"53757","locality":"Sankt Augustin","municipality":{"key":"05382056","name":"Sankt Augustin, Stadt","type":"Stadt"},"district":{"key":"05382","name":"Rhein-Sieg-Kreis","type":"Kreis"},"federalState":{"key":"05","name":"Nordrhein-Westfalen"}},{"name":"Im Bungert","postalCode":"53757","locality":"Sankt Augustin","municipality":{"key":"05382056","name":"Sankt Augustin, Stadt","type":"Stadt"},"district":{"key":"05382","name":"Rhein-Sieg-Kreis","type":"Kreis"},"federalState":{"key":"05","name":"Nordrhein-Westfalen"}},{"name":"Im Erlengrund","postalCode":"53757","locality":"Sankt Augustin","municipality":{"key":"05382056","name":"Sankt Augustin, Stadt","type":"Stadt"},"district":{"key":"05382","name":"Rhein-Sieg-Kreis","type":"Kreis"},"federalState":{"key":"05","name":"Nordrhein-Westfalen"}},{"name":"Im Feldchen","postalCode":"53757","locality":"Sankt Augustin","municipality":{"key":"05382056","name":"Sankt Augustin, Stadt","type":"Stadt"},"district":{"key":"05382","name":"Rhein-Sieg-Kreis","type":"Kreis"},"federalState":{"key":"05","name":"Nordrhein-Westfalen"}},{"name":"Im Feldgarten","postalCode":"53757","locality":"Sankt Augustin","municipality":{"key":"05382056","name":"Sankt Augustin, Stadt","type":"Stadt"},"district":{"key":"05382","name":"Rhein-Sieg-Kreis","type":"Kreis"},"federalState":{"key":"05","name":"Nordrhein-Westfalen"}},{"name":"Im Forst","postalCode":"53757","locality":"Sankt Augustin","municipality":{"key":"05382056","name":"Sankt Augustin, Stadt","type":"Stadt"},"district":{"key":"05382","name":"Rhein-Sieg-Kreis","type":"Kreis"},"federalState":{"key":"05","name":"Nordrhein-Westfalen"}},{"name":"Im Gäßchen","postalCode":"53757","locality":"Sankt Augustin","municipality":{"key":"05382056","name":"Sankt Augustin, Stadt","type":"Stadt"},"district":{"key":"05382","name":"Rhein-Sieg-Kreis","type":"Kreis"},"federalState":{"key":"05","name":"Nordrhein-Westfalen"}},{"name":"Im Goldwinkel","postalCode":"53757","locality":"Sankt Augustin","municipality":{"key":"05382056","name":"Sankt Augustin, Stadt","type":"Stadt"},"district":{"key":"05382","name":"Rhein-Sieg-Kreis","type":"Kreis"},"federalState":{"key":"05","name":"Nordrhein-Westfalen"}},{"name":"Im Kleefeld","postalCode":"53757","locality":"Sankt Augustin","municipality":{"key":"05382056","name":"Sankt Augustin, Stadt","type":"Stadt"},"district":{"key":"05382","name":"Rhein-Sieg-Kreis","type":"Kreis"},"federalState":{"key":"05","name":"Nordrhein-Westfalen"}},{"name":"Immelmannstr.","postalCode":"53757","locality":"Sankt Augustin","municipality":{"key":"05382056","name":"Sankt Augustin, Stadt","type":"Stadt"},"district":{"key":"05382","name":"Rhein-Sieg-Kreis","type":"Kreis"},"federalState":{"key":"05","name":"Nordrhein-Westfalen"}},{"name":"Im Mittelfeld","postalCode":"53757","locality":"Sankt Augustin","municipality":{"key":"05382056","name":"Sankt Augustin, Stadt","type":"Stadt"},"district":{"key":"05382","name":"Rhein-Sieg-Kreis","type":"Kreis"},"federalState":{"key":"05","name":"Nordrhein-Westfalen"}},{"name":"Im Rebhuhnfeld","postalCode":"53757","locality":"Sankt Augustin","municipality":{"key":"05382056","name":"Sankt Augustin, Stadt","type":"Stadt"},"district":{"key":"05382","name":"Rhein-Sieg-Kreis","type":"Kreis"},"federalState":{"key":"05","name":"Nordrhein-Westfalen"}},{"name":"Im Rehefeld","postalCode":"53757","locality":"Sankt Augustin","municipality":{"key":"05382056","name":"Sankt Augustin, Stadt","type":"Stadt"},"district":{"key":"05382","name":"Rhein-Sieg-Kreis","type":"Kreis"},"federalState":{"key":"05","name":"Nordrhein-Westfalen"}},{"name":"Im Rosengarten","postalCode":"53757","locality":"Sankt Augustin","municipality":{"key":"05382056","name":"Sankt Augustin, Stadt","type":"Stadt"},"district":{"key":"05382","name":"Rhein-Sieg-Kreis","type":"Kreis"},"federalState":{"key":"05","name":"Nordrhein-Westfalen"}},{"name":"Im Spichelsfeld","postalCode":"53757","locality":"Sankt Augustin","municipality":{"key":"05382056","name":"Sankt Augustin, Stadt","type":"Stadt"},"district":{"key":"05382","name":"Rhein-Sieg-Kreis","type":"Kreis"},"federalState":{"key":"05","name":"Nordrhein-Westfalen"}},{"name":"Im Wehrfeld","postalCode":"53757","locality":"Sankt Augustin","municipality":{"key":"05382056","name":"Sankt Augustin, Stadt","type":"Stadt"},"district":{"key":"05382","name":"Rhein-Sieg-Kreis","type":"Kreis"},"federalState":{"key":"05","name":"Nordrhein-Westfalen"}},{"name":"Im Werthchen","postalCode":"53757","locality":"Sankt Augustin","municipality":{"key":"05382056","name":"Sankt Augustin, Stadt","type":"Stadt"},"district":{"key":"05382","name":"Rhein-Sieg-Kreis","type":"Kreis"},"federalState":{"key":"05","name":"Nordrhein-Westfalen"}},{"name":"Im Winkel","postalCode":"53757","locality":"Sankt Augustin","municipality":{"key":"05382056","name":"Sankt Augustin, Stadt","type":"Stadt"},"district":{"key":"05382","name":"Rhein-Sieg-Kreis","type":"Kreis"},"federalState":{"key":"05","name":"Nordrhein-Westfalen"}},{"name":"Ina-Seidel-Str.","postalCode":"53757","locality":"Sankt Augustin","municipality":{"key":"05382056","name":"Sankt Augustin, Stadt","type":"Stadt"},"district":{"key":"05382","name":"Rhein-Sieg-Kreis","type":"Kreis"},"federalState":{"key":"05","name":"Nordrhein-Westfalen"}},{"name":"In den Tannen","postalCode":"53757","locality":"Sankt Augustin","municipality":{"key":"05382056","name":"Sankt Augustin, Stadt","type":"Stadt"},"district":{"key":"05382","name":"Rhein-Sieg-Kreis","type":"Kreis"},"federalState":{"key":"05","name":"Nordrhein-Westfalen"}},{"name":"In den Tannen 23-25","postalCode":"53757","locality":"Sankt Augustin","municipality":{"key":"05382056","name":"Sankt Augustin, Stadt","type":"Stadt"},"district":{"key":"05382","name":"Rhein-Sieg-Kreis","type":"Kreis"},"federalState":{"key":"05","name":"Nordrhein-Westfalen"}},{"name":"In der Aue","postalCode":"53757","locality":"Sankt Augustin","municipality":{"key":"05382056","name":"Sankt Augustin, Stadt","type":"Stadt"},"district":{"key":"05382","name":"Rhein-Sieg-Kreis","type":"Kreis"},"federalState":{"key":"05","name":"Nordrhein-Westfalen"}},{"name":"In der Bitze","postalCode":"53757","locality":"Sankt Augustin","municipality":{"key":"05382056","name":"Sankt Augustin, Stadt","type":"Stadt"},"district":{"key":"05382","name":"Rhein-Sieg-Kreis","type":"Kreis"},"federalState":{"key":"05","name":"Nordrhein-Westfalen"}},{"name":"In der Holle","postalCode":"53757","locality":"Sankt Augustin","municipality":{"key":"05382056","name":"Sankt Augustin, Stadt","type":"Stadt"},"district":{"key":"05382","name":"Rhein-Sieg-Kreis","type":"Kreis"},"federalState":{"key":"05","name":"Nordrhein-Westfalen"}},{"name":"In der Mersbach","postalCode":"53757","locality":"Sankt Augustin","municipality":{"key":"05382056","name":"Sankt Augustin, Stadt","type":"Stadt"},"district":{"key":"05382","name":"Rhein-Sieg-Kreis","type":"Kreis"},"federalState":{"key":"05","name":"Nordrhein-Westfalen"}},{"name":"Jagdweg","postalCode":"53757","locality":"Sankt Augustin","municipality":{"key":"05382056","name":"Sankt Augustin, Stadt","type":"Stadt"},"district":{"key":"05382","name":"Rhein-Sieg-Kreis","type":"Kreis"},"federalState":{"key":"05","name":"Nordrhein-Westfalen"}},{"name":"Jahnstr.","postalCode":"53757","locality":"Sankt Augustin","municipality":{"key":"05382056","name":"Sankt Augustin, Stadt","type":"Stadt"},"district":{"key":"05382","name":"Rhein-Sieg-Kreis","type":"Kreis"},"federalState":{"key":"05","name":"Nordrhein-Westfalen"}},{"name":"Jasminweg","postalCode":"53757","locality":"Sankt Augustin","municipality":{"key":"05382056","name":"Sankt Augustin, Stadt","type":"Stadt"},"district":{"key":"05382","name":"Rhein-Sieg-Kreis","type":"Kreis"},"federalState":{"key":"05","name":"Nordrhein-Westfalen"}},{"name":"Jenastr.","postalCode":"53757","locality":"Sankt Augustin","municipality":{"key":"05382056","name":"Sankt Augustin, Stadt","type":"Stadt"},"district":{"key":"05382","name":"Rhein-Sieg-Kreis","type":"Kreis"},"federalState":{"key":"05","name":"Nordrhein-Westfalen"}},{"name":"Johannes-Görgens-Str.","postalCode":"53757","locality":"Sankt Augustin","municipality":{"key":"05382056","name":"Sankt Augustin, Stadt","type":"Stadt"},"district":{"key":"05382","name":"Rhein-Sieg-Kreis","type":"Kreis"},"federalState":{"key":"05","name":"Nordrhein-Westfalen"}},{"name":"Johannesstr.","postalCode":"53757","locality":"Sankt Augustin","municipality":{"key":"05382056","name":"Sankt Augustin, Stadt","type":"Stadt"},"district":{"key":"05382","name":"Rhein-Sieg-Kreis","type":"Kreis"},"federalState":{"key":"05","name":"Nordrhein-Westfalen"}},{"name":"Johann-Quadt-Str.","postalCode":"53757","locality":"Sankt Augustin","municipality":{"key":"05382056","name":"Sankt Augustin, Stadt","type":"Stadt"},"district":{"key":"05382","name":"Rhein-Sieg-Kreis","type":"Kreis"},"federalState":{"key":"05","name":"Nordrhein-Westfalen"}},{"name":"Josef-Decker-Str.","postalCode":"53757","locality":"Sankt Augustin","municipality":{"key":"05382056","name":"Sankt Augustin, Stadt","type":"Stadt"},"district":{"key":"05382","name":"Rhein-Sieg-Kreis","type":"Kreis"},"federalState":{"key":"05","name":"Nordrhein-Westfalen"}},{"name":"Josef-Menne-Str.","postalCode":"53757","locality":"Sankt Augustin","municipality":{"key":"05382056","name":"Sankt Augustin, Stadt","type":"Stadt"},"district":{"key":"05382","name":"Rhein-Sieg-Kreis","type":"Kreis"},"federalState":{"key":"05","name":"Nordrhein-Westfalen"}},{"name":"Jüchstr.","postalCode":"53757","locality":"Sankt Augustin","municipality":{"key":"05382056","name":"Sankt Augustin, Stadt","type":"Stadt"},"district":{"key":"05382","name":"Rhein-Sieg-Kreis","type":"Kreis"},"federalState":{"key":"05","name":"Nordrhein-Westfalen"}},{"name":"Junkersstr.","postalCode":"53757","locality":"Sankt Augustin","municipality":{"key":"05382056","name":"Sankt Augustin, Stadt","type":"Stadt"},"district":{"key":"05382","name":"Rhein-Sieg-Kreis","type":"Kreis"},"federalState":{"key":"05","name":"Nordrhein-Westfalen"}},{"name":"Kahnweg","postalCode":"53757","locality":"Sankt Augustin","municipality":{"key":"05382056","name":"Sankt Augustin, Stadt","type":"Stadt"},"district":{"key":"05382","name":"Rhein-Sieg-Kreis","type":"Kreis"},"federalState":{"key":"05","name":"Nordrhein-Westfalen"}},{"name":"Kamillenweg","postalCode":"53757","locality":"Sankt Augustin","municipality":{"key":"05382056","name":"Sankt Augustin, Stadt","type":"Stadt"},"district":{"key":"05382","name":"Rhein-Sieg-Kreis","type":"Kreis"},"federalState":{"key":"05","name":"Nordrhein-Westfalen"}},{"name":"Kantstr.","postalCode":"53757","locality":"Sankt Augustin","municipality":{"key":"05382056","name":"Sankt Augustin, Stadt","type":"Stadt"},"district":{"key":"05382","name":"Rhein-Sieg-Kreis","type":"Kreis"},"federalState":{"key":"05","name":"Nordrhein-Westfalen"}},{"name":"Kapellenstr.","postalCode":"53757","locality":"Sankt Augustin","municipality":{"key":"05382056","name":"Sankt Augustin, Stadt","type":"Stadt"},"district":{"key":"05382","name":"Rhein-Sieg-Kreis","type":"Kreis"},"federalState":{"key":"05","name":"Nordrhein-Westfalen"}},{"name":"Karl-Hennecke-Str.","postalCode":"53757","locality":"Sankt Augustin","municipality":{"key":"05382056","name":"Sankt Augustin, Stadt","type":"Stadt"},"district":{"key":"05382","name":"Rhein-Sieg-Kreis","type":"Kreis"},"federalState":{"key":"05","name":"Nordrhein-Westfalen"}},{"name":"Karl-Schurz-Str.","postalCode":"53757","locality":"Sankt Augustin","municipality":{"key":"05382056","name":"Sankt Augustin, Stadt","type":"Stadt"},"district":{"key":"05382","name":"Rhein-Sieg-Kreis","type":"Kreis"},"federalState":{"key":"05","name":"Nordrhein-Westfalen"}},{"name":"Kastanienweg","postalCode":"53757","locality":"Sankt Augustin","municipality":{"key":"05382056","name":"Sankt Augustin, Stadt","type":"Stadt"},"district":{"key":"05382","name":"Rhein-Sieg-Kreis","type":"Kreis"},"federalState":{"key":"05","name":"Nordrhein-Westfalen"}},{"name":"Katharinenstr.","postalCode":"53757","locality":"Sankt Augustin","municipality":{"key":"05382056","name":"Sankt Augustin, Stadt","type":"Stadt"},"district":{"key":"05382","name":"Rhein-Sieg-Kreis","type":"Kreis"},"federalState":{"key":"05","name":"Nordrhein-Westfalen"}},{"name":"Käthe-Kollwitz-Str.","postalCode":"53757","locality":"Sankt Augustin","municipality":{"key":"05382056","name":"Sankt Augustin, Stadt","type":"Stadt"},"district":{"key":"05382","name":"Rhein-Sieg-Kreis","type":"Kreis"},"federalState":{"key":"05","name":"Nordrhein-Westfalen"}},{"name":"Keplerstr.","postalCode":"53757","locality":"Sankt Augustin","municipality":{"key":"05382056","name":"Sankt Augustin, Stadt","type":"Stadt"},"district":{"key":"05382","name":"Rhein-Sieg-Kreis","type":"Kreis"},"federalState":{"key":"05","name":"Nordrhein-Westfalen"}},{"name":"Kiefernweg","postalCode":"53757","locality":"Sankt Augustin","municipality":{"key":"05382056","name":"Sankt Augustin, Stadt","type":"Stadt"},"district":{"key":"05382","name":"Rhein-Sieg-Kreis","type":"Kreis"},"federalState":{"key":"05","name":"Nordrhein-Westfalen"}},{"name":"Kirchstr.","postalCode":"53757","locality":"Sankt Augustin","municipality":{"key":"05382056","name":"Sankt Augustin, Stadt","type":"Stadt"},"district":{"key":"05382","name":"Rhein-Sieg-Kreis","type":"Kreis"},"federalState":{"key":"05","name":"Nordrhein-Westfalen"}},{"name":"Kleiststr.","postalCode":"53757","locality":"Sankt Augustin","municipality":{"key":"05382056","name":"Sankt Augustin, Stadt","type":"Stadt"},"district":{"key":"05382","name":"Rhein-Sieg-Kreis","type":"Kreis"},"federalState":{"key":"05","name":"Nordrhein-Westfalen"}},{"name":"Klöckner-Mannstaedt-Str.","postalCode":"53757","locality":"Sankt Augustin","municipality":{"key":"05382056","name":"Sankt Augustin, Stadt","type":"Stadt"},"district":{"key":"05382","name":"Rhein-Sieg-Kreis","type":"Kreis"},"federalState":{"key":"05","name":"Nordrhein-Westfalen"}},{"name":"Klosterstr.","postalCode":"53757","locality":"Sankt Augustin","municipality":{"key":"05382056","name":"Sankt Augustin, Stadt","type":"Stadt"},"district":{"key":"05382","name":"Rhein-Sieg-Kreis","type":"Kreis"},"federalState":{"key":"05","name":"Nordrhein-Westfalen"}},{"name":"Kohlkauler Str.","postalCode":"53757","locality":"Sankt Augustin","municipality":{"key":"05382056","name":"Sankt Augustin, Stadt","type":"Stadt"},"district":{"key":"05382","name":"Rhein-Sieg-Kreis","type":"Kreis"},"federalState":{"key":"05","name":"Nordrhein-Westfalen"}},{"name":"Kölnstr.","postalCode":"53757","locality":"Sankt Augustin","municipality":{"key":"05382056","name":"Sankt Augustin, Stadt","type":"Stadt"},"district":{"key":"05382","name":"Rhein-Sieg-Kreis","type":"Kreis"},"federalState":{"key":"05","name":"Nordrhein-Westfalen"}},{"name":"Kolpingstr.","postalCode":"53757","locality":"Sankt Augustin","municipality":{"key":"05382056","name":"Sankt Augustin, Stadt","type":"Stadt"},"district":{"key":"05382","name":"Rhein-Sieg-Kreis","type":"Kreis"},"federalState":{"key":"05","name":"Nordrhein-Westfalen"}},{"name":"Königsberger Str.","postalCode":"53757","locality":"Sankt Augustin","municipality":{"key":"05382056","name":"Sankt Augustin, Stadt","type":"Stadt"},"district":{"key":"05382","name":"Rhein-Sieg-Kreis","type":"Kreis"},"federalState":{"key":"05","name":"Nordrhein-Westfalen"}},{"name":"Konrad-Adenauer-Str.","postalCode":"53757","locality":"Sankt Augustin","municipality":{"key":"05382056","name":"Sankt Augustin, Stadt","type":"Stadt"},"district":{"key":"05382","name":"Rhein-Sieg-Kreis","type":"Kreis"},"federalState":{"key":"05","name":"Nordrhein-Westfalen"}},{"name":"Kopernikusstr.","postalCode":"53757","locality":"Sankt Augustin","municipality":{"key":"05382056","name":"Sankt Augustin, Stadt","type":"Stadt"},"district":{"key":"05382","name":"Rhein-Sieg-Kreis","type":"Kreis"},"federalState":{"key":"05","name":"Nordrhein-Westfalen"}},{"name":"Kreuzstr.","postalCode":"53757","locality":"Sankt Augustin","municipality":{"key":"05382056","name":"Sankt Augustin, Stadt","type":"Stadt"},"district":{"key":"05382","name":"Rhein-Sieg-Kreis","type":"Kreis"},"federalState":{"key":"05","name":"Nordrhein-Westfalen"}},{"name":"Krokusweg","postalCode":"53757","locality":"Sankt Augustin","municipality":{"key":"05382056","name":"Sankt Augustin, Stadt","type":"Stadt"},"district":{"key":"05382","name":"Rhein-Sieg-Kreis","type":"Kreis"},"federalState":{"key":"05","name":"Nordrhein-Westfalen"}},{"name":"Krumme Lanke","postalCode":"53757","locality":"Sankt Augustin","municipality":{"key":"05382056","name":"Sankt Augustin, Stadt","type":"Stadt"},"district":{"key":"05382","name":"Rhein-Sieg-Kreis","type":"Kreis"},"federalState":{"key":"05","name":"Nordrhein-Westfalen"}},{"name":"Kuckuckweg","postalCode":"53757","locality":"Sankt Augustin","municipality":{"key":"05382056","name":"Sankt Augustin, Stadt","type":"Stadt"},"district":{"key":"05382","name":"Rhein-Sieg-Kreis","type":"Kreis"},"federalState":{"key":"05","name":"Nordrhein-Westfalen"}},{"name":"Ladestr.","postalCode":"53757","locality":"Sankt Augustin","municipality":{"key":"05382056","name":"Sankt Augustin, Stadt","type":"Stadt"},"district":{"key":"05382","name":"Rhein-Sieg-Kreis","type":"Kreis"},"federalState":{"key":"05","name":"Nordrhein-Westfalen"}},{"name":"Lahnstr.","postalCode":"53757","locality":"Sankt Augustin","municipality":{"key":"05382056","name":"Sankt Augustin, Stadt","type":"Stadt"},"district":{"key":"05382","name":"Rhein-Sieg-Kreis","type":"Kreis"},"federalState":{"key":"05","name":"Nordrhein-Westfalen"}},{"name":"Langemarckstr.","postalCode":"53757","locality":"Sankt Augustin","municipality":{"key":"05382056","name":"Sankt Augustin, Stadt","type":"Stadt"},"district":{"key":"05382","name":"Rhein-Sieg-Kreis","type":"Kreis"},"federalState":{"key":"05","name":"Nordrhein-Westfalen"}},{"name":"Langstr.","postalCode":"53757","locality":"Sankt Augustin","municipality":{"key":"05382056","name":"Sankt Augustin, Stadt","type":"Stadt"},"district":{"key":"05382","name":"Rhein-Sieg-Kreis","type":"Kreis"},"federalState":{"key":"05","name":"Nordrhein-Westfalen"}},{"name":"Laubenweg","postalCode":"53757","locality":"Sankt Augustin","municipality":{"key":"05382056","name":"Sankt Augustin, Stadt","type":"Stadt"},"district":{"key":"05382","name":"Rhein-Sieg-Kreis","type":"Kreis"},"federalState":{"key":"05","name":"Nordrhein-Westfalen"}},{"name":"Lerchenweg","postalCode":"53757","locality":"Sankt Augustin","municipality":{"key":"05382056","name":"Sankt Augustin, Stadt","type":"Stadt"},"district":{"key":"05382","name":"Rhein-Sieg-Kreis","type":"Kreis"},"federalState":{"key":"05","name":"Nordrhein-Westfalen"}},{"name":"Lessingstr.","postalCode":"53757","locality":"Sankt Augustin","municipality":{"key":"05382056","name":"Sankt Augustin, Stadt","type":"Stadt"},"district":{"key":"05382","name":"Rhein-Sieg-Kreis","type":"Kreis"},"federalState":{"key":"05","name":"Nordrhein-Westfalen"}},{"name":"Lichweg","postalCode":"53757","locality":"Sankt Augustin","municipality":{"key":"05382056","name":"Sankt Augustin, Stadt","type":"Stadt"},"district":{"key":"05382","name":"Rhein-Sieg-Kreis","type":"Kreis"},"federalState":{"key":"05","name":"Nordrhein-Westfalen"}},{"name":"Liebfrauenstr.","postalCode":"53757","locality":"Sankt Augustin","municipality":{"key":"05382056","name":"Sankt Augustin, Stadt","type":"Stadt"},"district":{"key":"05382","name":"Rhein-Sieg-Kreis","type":"Kreis"},"federalState":{"key":"05","name":"Nordrhein-Westfalen"}},{"name":"Liegnitzstr.","postalCode":"53757","locality":"Sankt Augustin","municipality":{"key":"05382056","name":"Sankt Augustin, Stadt","type":"Stadt"},"district":{"key":"05382","name":"Rhein-Sieg-Kreis","type":"Kreis"},"federalState":{"key":"05","name":"Nordrhein-Westfalen"}},{"name":"Lilienthalstr.","postalCode":"53757","locality":"Sankt Augustin","municipality":{"key":"05382056","name":"Sankt Augustin, Stadt","type":"Stadt"},"district":{"key":"05382","name":"Rhein-Sieg-Kreis","type":"Kreis"},"federalState":{"key":"05","name":"Nordrhein-Westfalen"}},{"name":"Lindenstr.","postalCode":"53757","locality":"Sankt Augustin","municipality":{"key":"05382056","name":"Sankt Augustin, Stadt","type":"Stadt"},"district":{"key":"05382","name":"Rhein-Sieg-Kreis","type":"Kreis"},"federalState":{"key":"05","name":"Nordrhein-Westfalen"}},{"name":"Lochnerstr.","postalCode":"53757","locality":"Sankt Augustin","municipality":{"key":"05382056","name":"Sankt Augustin, Stadt","type":"Stadt"},"district":{"key":"05382","name":"Rhein-Sieg-Kreis","type":"Kreis"},"federalState":{"key":"05","name":"Nordrhein-Westfalen"}},{"name":"Lohrbergstr.","postalCode":"53757","locality":"Sankt Augustin","municipality":{"key":"05382056","name":"Sankt Augustin, Stadt","type":"Stadt"},"district":{"key":"05382","name":"Rhein-Sieg-Kreis","type":"Kreis"},"federalState":{"key":"05","name":"Nordrhein-Westfalen"}},{"name":"Louis-Hagen-Str.","postalCode":"53757","locality":"Sankt Augustin","municipality":{"key":"05382056","name":"Sankt Augustin, Stadt","type":"Stadt"},"district":{"key":"05382","name":"Rhein-Sieg-Kreis","type":"Kreis"},"federalState":{"key":"05","name":"Nordrhein-Westfalen"}},{"name":"Löwenburgstr.","postalCode":"53757","locality":"Sankt Augustin","municipality":{"key":"05382056","name":"Sankt Augustin, Stadt","type":"Stadt"},"district":{"key":"05382","name":"Rhein-Sieg-Kreis","type":"Kreis"},"federalState":{"key":"05","name":"Nordrhein-Westfalen"}},{"name":"Luisenstr.","postalCode":"53757","locality":"Sankt Augustin","municipality":{"key":"05382056","name":"Sankt Augustin, Stadt","type":"Stadt"},"district":{"key":"05382","name":"Rhein-Sieg-Kreis","type":"Kreis"},"federalState":{"key":"05","name":"Nordrhein-Westfalen"}},{"name":"Luxemburger Str.","postalCode":"53757","locality":"Sankt Augustin","municipality":{"key":"05382056","name":"Sankt Augustin, Stadt","type":"Stadt"},"district":{"key":"05382","name":"Rhein-Sieg-Kreis","type":"Kreis"},"federalState":{"key":"05","name":"Nordrhein-Westfalen"}},{"name":"Maarstr.","postalCode":"53757","locality":"Sankt Augustin","municipality":{"key":"05382056","name":"Sankt Augustin, Stadt","type":"Stadt"},"district":{"key":"05382","name":"Rhein-Sieg-Kreis","type":"Kreis"},"federalState":{"key":"05","name":"Nordrhein-Westfalen"}},{"name":"Magnolienweg","postalCode":"53757","locality":"Sankt Augustin","municipality":{"key":"05382056","name":"Sankt Augustin, Stadt","type":"Stadt"},"district":{"key":"05382","name":"Rhein-Sieg-Kreis","type":"Kreis"},"federalState":{"key":"05","name":"Nordrhein-Westfalen"}},{"name":"Mainstr.","postalCode":"53757","locality":"Sankt Augustin","municipality":{"key":"05382056","name":"Sankt Augustin, Stadt","type":"Stadt"},"district":{"key":"05382","name":"Rhein-Sieg-Kreis","type":"Kreis"},"federalState":{"key":"05","name":"Nordrhein-Westfalen"}},{"name":"Malvenweg","postalCode":"53757","locality":"Sankt Augustin","municipality":{"key":"05382056","name":"Sankt Augustin, Stadt","type":"Stadt"},"district":{"key":"05382","name":"Rhein-Sieg-Kreis","type":"Kreis"},"federalState":{"key":"05","name":"Nordrhein-Westfalen"}},{"name":"Marderweg","postalCode":"53757","locality":"Sankt Augustin","municipality":{"key":"05382056","name":"Sankt Augustin, Stadt","type":"Stadt"},"district":{"key":"05382","name":"Rhein-Sieg-Kreis","type":"Kreis"},"federalState":{"key":"05","name":"Nordrhein-Westfalen"}},{"name":"Maria-Montessori-Str.","postalCode":"53757","locality":"Sankt Augustin","municipality":{"key":"05382056","name":"Sankt Augustin, Stadt","type":"Stadt"},"district":{"key":"05382","name":"Rhein-Sieg-Kreis","type":"Kreis"},"federalState":{"key":"05","name":"Nordrhein-Westfalen"}},{"name":"Marie-Curie-Str.","postalCode":"53757","locality":"Sankt Augustin","municipality":{"key":"05382056","name":"Sankt Augustin, Stadt","type":"Stadt"},"district":{"key":"05382","name":"Rhein-Sieg-Kreis","type":"Kreis"},"federalState":{"key":"05","name":"Nordrhein-Westfalen"}},{"name":"Marienburgstr.","postalCode":"53757","locality":"Sankt Augustin","municipality":{"key":"05382056","name":"Sankt Augustin, Stadt","type":"Stadt"},"district":{"key":"05382","name":"Rhein-Sieg-Kreis","type":"Kreis"},"federalState":{"key":"05","name":"Nordrhein-Westfalen"}},{"name":"Marienkirchstr.","postalCode":"53757","locality":"Sankt Augustin","municipality":{"key":"05382056","name":"Sankt Augustin, Stadt","type":"Stadt"},"district":{"key":"05382","name":"Rhein-Sieg-Kreis","type":"Kreis"},"federalState":{"key":"05","name":"Nordrhein-Westfalen"}},{"name":"Marienstr.","postalCode":"53757","locality":"Sankt Augustin","municipality":{"key":"05382056","name":"Sankt Augustin, Stadt","type":"Stadt"},"district":{"key":"05382","name":"Rhein-Sieg-Kreis","type":"Kreis"},"federalState":{"key":"05","name":"Nordrhein-Westfalen"}},{"name":"Markt","postalCode":"53757","locality":"Sankt Augustin","municipality":{"key":"05382056","name":"Sankt Augustin, Stadt","type":"Stadt"},"district":{"key":"05382","name":"Rhein-Sieg-Kreis","type":"Kreis"},"federalState":{"key":"05","name":"Nordrhein-Westfalen"}},{"name":"Marktstr.","postalCode":"53757","locality":"Sankt Augustin","municipality":{"key":"05382056","name":"Sankt Augustin, Stadt","type":"Stadt"},"district":{"key":"05382","name":"Rhein-Sieg-Kreis","type":"Kreis"},"federalState":{"key":"05","name":"Nordrhein-Westfalen"}},{"name":"Markusstr.","postalCode":"53757","locality":"Sankt Augustin","municipality":{"key":"05382056","name":"Sankt Augustin, Stadt","type":"Stadt"},"district":{"key":"05382","name":"Rhein-Sieg-Kreis","type":"Kreis"},"federalState":{"key":"05","name":"Nordrhein-Westfalen"}},{"name":"Martin-Luther-Str.","postalCode":"53757","locality":"Sankt Augustin","municipality":{"key":"05382056","name":"Sankt Augustin, Stadt","type":"Stadt"},"district":{"key":"05382","name":"Rhein-Sieg-Kreis","type":"Kreis"},"federalState":{"key":"05","name":"Nordrhein-Westfalen"}},{"name":"Martinstr.","postalCode":"53757","locality":"Sankt Augustin","municipality":{"key":"05382056","name":"Sankt Augustin, Stadt","type":"Stadt"},"district":{"key":"05382","name":"Rhein-Sieg-Kreis","type":"Kreis"},"federalState":{"key":"05","name":"Nordrhein-Westfalen"}},{"name":"Martinuskirchstr.","postalCode":"53757","locality":"Sankt Augustin","municipality":{"key":"05382056","name":"Sankt Augustin, Stadt","type":"Stadt"},"district":{"key":"05382","name":"Rhein-Sieg-Kreis","type":"Kreis"},"federalState":{"key":"05","name":"Nordrhein-Westfalen"}},{"name":"Matthias-Claudius-Str.","postalCode":"53757","locality":"Sankt Augustin","municipality":{"key":"05382056","name":"Sankt Augustin, Stadt","type":"Stadt"},"district":{"key":"05382","name":"Rhein-Sieg-Kreis","type":"Kreis"},"federalState":{"key":"05","name":"Nordrhein-Westfalen"}},{"name":"Max-Planck-Str.","postalCode":"53757","locality":"Sankt Augustin","municipality":{"key":"05382056","name":"Sankt Augustin, Stadt","type":"Stadt"},"district":{"key":"05382","name":"Rhein-Sieg-Kreis","type":"Kreis"},"federalState":{"key":"05","name":"Nordrhein-Westfalen"}},{"name":"Meerstr.","postalCode":"53757","locality":"Sankt Augustin","municipality":{"key":"05382056","name":"Sankt Augustin, Stadt","type":"Stadt"},"district":{"key":"05382","name":"Rhein-Sieg-Kreis","type":"Kreis"},"federalState":{"key":"05","name":"Nordrhein-Westfalen"}},{"name":"Meindorfer Str.","postalCode":"53757","locality":"Sankt Augustin","municipality":{"key":"05382056","name":"Sankt Augustin, Stadt","type":"Stadt"},"district":{"key":"05382","name":"Rhein-Sieg-Kreis","type":"Kreis"},"federalState":{"key":"05","name":"Nordrhein-Westfalen"}},{"name":"Meiningenstr.","postalCode":"53757","locality":"Sankt Augustin","municipality":{"key":"05382056","name":"Sankt Augustin, Stadt","type":"Stadt"},"district":{"key":"05382","name":"Rhein-Sieg-Kreis","type":"Kreis"},"federalState":{"key":"05","name":"Nordrhein-Westfalen"}},{"name":"Meisenweg","postalCode":"53757","locality":"Sankt Augustin","municipality":{"key":"05382056","name":"Sankt Augustin, Stadt","type":"Stadt"},"district":{"key":"05382","name":"Rhein-Sieg-Kreis","type":"Kreis"},"federalState":{"key":"05","name":"Nordrhein-Westfalen"}},{"name":"Mendener Str.","postalCode":"53757","locality":"Sankt Augustin","municipality":{"key":"05382056","name":"Sankt Augustin, Stadt","type":"Stadt"},"district":{"key":"05382","name":"Rhein-Sieg-Kreis","type":"Kreis"},"federalState":{"key":"05","name":"Nordrhein-Westfalen"}},{"name":"Menzelstr.","postalCode":"53757","locality":"Sankt Augustin","municipality":{"key":"05382056","name":"Sankt Augustin, Stadt","type":"Stadt"},"district":{"key":"05382","name":"Rhein-Sieg-Kreis","type":"Kreis"},"federalState":{"key":"05","name":"Nordrhein-Westfalen"}},{"name":"Michaelsbergstr.","postalCode":"53757","locality":"Sankt Augustin","municipality":{"key":"05382056","name":"Sankt Augustin, Stadt","type":"Stadt"},"district":{"key":"05382","name":"Rhein-Sieg-Kreis","type":"Kreis"},"federalState":{"key":"05","name":"Nordrhein-Westfalen"}},{"name":"Michelstr.","postalCode":"53757","locality":"Sankt Augustin","municipality":{"key":"05382056","name":"Sankt Augustin, Stadt","type":"Stadt"},"district":{"key":"05382","name":"Rhein-Sieg-Kreis","type":"Kreis"},"federalState":{"key":"05","name":"Nordrhein-Westfalen"}},{"name":"Milanweg","postalCode":"53757","locality":"Sankt Augustin","municipality":{"key":"05382056","name":"Sankt Augustin, Stadt","type":"Stadt"},"district":{"key":"05382","name":"Rhein-Sieg-Kreis","type":"Kreis"},"federalState":{"key":"05","name":"Nordrhein-Westfalen"}},{"name":"Mittelstr.","postalCode":"53757","locality":"Sankt Augustin","municipality":{"key":"05382056","name":"Sankt Augustin, Stadt","type":"Stadt"},"district":{"key":"05382","name":"Rhein-Sieg-Kreis","type":"Kreis"},"federalState":{"key":"05","name":"Nordrhein-Westfalen"}},{"name":"Möldersstr.","postalCode":"53757","locality":"Sankt Augustin","municipality":{"key":"05382056","name":"Sankt Augustin, Stadt","type":"Stadt"},"district":{"key":"05382","name":"Rhein-Sieg-Kreis","type":"Kreis"},"federalState":{"key":"05","name":"Nordrhein-Westfalen"}},{"name":"Monikastr.","postalCode":"53757","locality":"Sankt Augustin","municipality":{"key":"05382056","name":"Sankt Augustin, Stadt","type":"Stadt"},"district":{"key":"05382","name":"Rhein-Sieg-Kreis","type":"Kreis"},"federalState":{"key":"05","name":"Nordrhein-Westfalen"}},{"name":"Moselstr.","postalCode":"53757","locality":"Sankt Augustin","municipality":{"key":"05382056","name":"Sankt Augustin, Stadt","type":"Stadt"},"district":{"key":"05382","name":"Rhein-Sieg-Kreis","type":"Kreis"},"federalState":{"key":"05","name":"Nordrhein-Westfalen"}},{"name":"Mozartstr.","postalCode":"53757","locality":"Sankt Augustin","municipality":{"key":"05382056","name":"Sankt Augustin, Stadt","type":"Stadt"},"district":{"key":"05382","name":"Rhein-Sieg-Kreis","type":"Kreis"},"federalState":{"key":"05","name":"Nordrhein-Westfalen"}},{"name":"Mühlenweg","postalCode":"53757","locality":"Sankt Augustin","municipality":{"key":"05382056","name":"Sankt Augustin, Stadt","type":"Stadt"},"district":{"key":"05382","name":"Rhein-Sieg-Kreis","type":"Kreis"},"federalState":{"key":"05","name":"Nordrhein-Westfalen"}},{"name":"Mülldorfer Str.","postalCode":"53757","locality":"Sankt Augustin","municipality":{"key":"05382056","name":"Sankt Augustin, Stadt","type":"Stadt"},"district":{"key":"05382","name":"Rhein-Sieg-Kreis","type":"Kreis"},"federalState":{"key":"05","name":"Nordrhein-Westfalen"}},{"name":"Nachbargasse","postalCode":"53757","locality":"Sankt Augustin","municipality":{"key":"05382056","name":"Sankt Augustin, Stadt","type":"Stadt"},"district":{"key":"05382","name":"Rhein-Sieg-Kreis","type":"Kreis"},"federalState":{"key":"05","name":"Nordrhein-Westfalen"}},{"name":"Nachtigallenweg","postalCode":"53757","locality":"Sankt Augustin","municipality":{"key":"05382056","name":"Sankt Augustin, Stadt","type":"Stadt"},"district":{"key":"05382","name":"Rhein-Sieg-Kreis","type":"Kreis"},"federalState":{"key":"05","name":"Nordrhein-Westfalen"}},{"name":"Nahestr.","postalCode":"53757","locality":"Sankt Augustin","municipality":{"key":"05382056","name":"Sankt Augustin, Stadt","type":"Stadt"},"district":{"key":"05382","name":"Rhein-Sieg-Kreis","type":"Kreis"},"federalState":{"key":"05","name":"Nordrhein-Westfalen"}},{"name":"Narzissenweg","postalCode":"53757","locality":"Sankt Augustin","municipality":{"key":"05382056","name":"Sankt Augustin, Stadt","type":"Stadt"},"district":{"key":"05382","name":"Rhein-Sieg-Kreis","type":"Kreis"},"federalState":{"key":"05","name":"Nordrhein-Westfalen"}},{"name":"Neckarstr.","postalCode":"53757","locality":"Sankt Augustin","municipality":{"key":"05382056","name":"Sankt Augustin, Stadt","type":"Stadt"},"district":{"key":"05382","name":"Rhein-Sieg-Kreis","type":"Kreis"},"federalState":{"key":"05","name":"Nordrhein-Westfalen"}},{"name":"Nelly-Sachs-Str.","postalCode":"53757","locality":"Sankt Augustin","municipality":{"key":"05382056","name":"Sankt Augustin, Stadt","type":"Stadt"},"district":{"key":"05382","name":"Rhein-Sieg-Kreis","type":"Kreis"},"federalState":{"key":"05","name":"Nordrhein-Westfalen"}},{"name":"Niederpleiser Str.","postalCode":"53757","locality":"Sankt Augustin","municipality":{"key":"05382056","name":"Sankt Augustin, Stadt","type":"Stadt"},"district":{"key":"05382","name":"Rhein-Sieg-Kreis","type":"Kreis"},"federalState":{"key":"05","name":"Nordrhein-Westfalen"}},{"name":"Nobelstr.","postalCode":"53757","locality":"Sankt Augustin","municipality":{"key":"05382056","name":"Sankt Augustin, Stadt","type":"Stadt"},"district":{"key":"05382","name":"Rhein-Sieg-Kreis","type":"Kreis"},"federalState":{"key":"05","name":"Nordrhein-Westfalen"}},{"name":"Nonnenstrombergstr.","postalCode":"53757","locality":"Sankt Augustin","municipality":{"key":"05382056","name":"Sankt Augustin, Stadt","type":"Stadt"},"district":{"key":"05382","name":"Rhein-Sieg-Kreis","type":"Kreis"},"federalState":{"key":"05","name":"Nordrhein-Westfalen"}},{"name":"Nordstr.","postalCode":"53757","locality":"Sankt Augustin","municipality":{"key":"05382056","name":"Sankt Augustin, Stadt","type":"Stadt"},"district":{"key":"05382","name":"Rhein-Sieg-Kreis","type":"Kreis"},"federalState":{"key":"05","name":"Nordrhein-Westfalen"}},{"name":"Oberdorfstr.","postalCode":"53757","locality":"Sankt Augustin","municipality":{"key":"05382056","name":"Sankt Augustin, Stadt","type":"Stadt"},"district":{"key":"05382","name":"Rhein-Sieg-Kreis","type":"Kreis"},"federalState":{"key":"05","name":"Nordrhein-Westfalen"}},{"name":"Oelbergstr.","postalCode":"53757","locality":"Sankt Augustin","municipality":{"key":"05382056","name":"Sankt Augustin, Stadt","type":"Stadt"},"district":{"key":"05382","name":"Rhein-Sieg-Kreis","type":"Kreis"},"federalState":{"key":"05","name":"Nordrhein-Westfalen"}},{"name":"Oelgartenstr.","postalCode":"53757","locality":"Sankt Augustin","municipality":{"key":"05382056","name":"Sankt Augustin, Stadt","type":"Stadt"},"district":{"key":"05382","name":"Rhein-Sieg-Kreis","type":"Kreis"},"federalState":{"key":"05","name":"Nordrhein-Westfalen"}},{"name":"Ohmstr.","postalCode":"53757","locality":"Sankt Augustin","municipality":{"key":"05382056","name":"Sankt Augustin, Stadt","type":"Stadt"},"district":{"key":"05382","name":"Rhein-Sieg-Kreis","type":"Kreis"},"federalState":{"key":"05","name":"Nordrhein-Westfalen"}},{"name":"Ortsgasse","postalCode":"53757","locality":"Sankt Augustin","municipality":{"key":"05382056","name":"Sankt Augustin, Stadt","type":"Stadt"},"district":{"key":"05382","name":"Rhein-Sieg-Kreis","type":"Kreis"},"federalState":{"key":"05","name":"Nordrhein-Westfalen"}},{"name":"Ost-West-Spange","postalCode":"53757","locality":"Sankt Augustin","municipality":{"key":"05382056","name":"Sankt Augustin, Stadt","type":"Stadt"},"district":{"key":"05382","name":"Rhein-Sieg-Kreis","type":"Kreis"},"federalState":{"key":"05","name":"Nordrhein-Westfalen"}},{"name":"Otto-von-Guericke-Str.","postalCode":"53757","locality":"Sankt Augustin","municipality":{"key":"05382056","name":"Sankt Augustin, Stadt","type":"Stadt"},"district":{"key":"05382","name":"Rhein-Sieg-Kreis","type":"Kreis"},"federalState":{"key":"05","name":"Nordrhein-Westfalen"}},{"name":"Otto-Wels-Str.","postalCode":"53757","locality":"Sankt Augustin","municipality":{"key":"05382056","name":"Sankt Augustin, Stadt","type":"Stadt"},"district":{"key":"05382","name":"Rhein-Sieg-Kreis","type":"Kreis"},"federalState":{"key":"05","name":"Nordrhein-Westfalen"}},{"name":"Pappelweg","postalCode":"53757","locality":"Sankt Augustin","municipality":{"key":"05382056","name":"Sankt Augustin, Stadt","type":"Stadt"},"district":{"key":"05382","name":"Rhein-Sieg-Kreis","type":"Kreis"},"federalState":{"key":"05","name":"Nordrhein-Westfalen"}},{"name":"Paracelsusstr.","postalCode":"53757","locality":"Sankt Augustin","municipality":{"key":"05382056","name":"Sankt Augustin, Stadt","type":"Stadt"},"district":{"key":"05382","name":"Rhein-Sieg-Kreis","type":"Kreis"},"federalState":{"key":"05","name":"Nordrhein-Westfalen"}},{"name":"Parsevalstr.","postalCode":"53757","locality":"Sankt Augustin","municipality":{"key":"05382056","name":"Sankt Augustin, Stadt","type":"Stadt"},"district":{"key":"05382","name":"Rhein-Sieg-Kreis","type":"Kreis"},"federalState":{"key":"05","name":"Nordrhein-Westfalen"}},{"name":"Pastoratsweg","postalCode":"53757","locality":"Sankt Augustin","municipality":{"key":"05382056","name":"Sankt Augustin, Stadt","type":"Stadt"},"district":{"key":"05382","name":"Rhein-Sieg-Kreis","type":"Kreis"},"federalState":{"key":"05","name":"Nordrhein-Westfalen"}},{"name":"Pastor-Hochhard-Str.","postalCode":"53757","locality":"Sankt Augustin","municipality":{"key":"05382056","name":"Sankt Augustin, Stadt","type":"Stadt"},"district":{"key":"05382","name":"Rhein-Sieg-Kreis","type":"Kreis"},"federalState":{"key":"05","name":"Nordrhein-Westfalen"}},{"name":"Paul-Gerhardt-Str.","postalCode":"53757","locality":"Sankt Augustin","municipality":{"key":"05382056","name":"Sankt Augustin, Stadt","type":"Stadt"},"district":{"key":"05382","name":"Rhein-Sieg-Kreis","type":"Kreis"},"federalState":{"key":"05","name":"Nordrhein-Westfalen"}},{"name":"Paul-Schulte-Str.","postalCode":"53757","locality":"Sankt Augustin","municipality":{"key":"05382056","name":"Sankt Augustin, Stadt","type":"Stadt"},"district":{"key":"05382","name":"Rhein-Sieg-Kreis","type":"Kreis"},"federalState":{"key":"05","name":"Nordrhein-Westfalen"}},{"name":"Pauluskirchstr.","postalCode":"53757","locality":"Sankt Augustin","municipality":{"key":"05382056","name":"Sankt Augustin, Stadt","type":"Stadt"},"district":{"key":"05382","name":"Rhein-Sieg-Kreis","type":"Kreis"},"federalState":{"key":"05","name":"Nordrhein-Westfalen"}},{"name":"Pestalozzistr.","postalCode":"53757","locality":"Sankt Augustin","municipality":{"key":"05382056","name":"Sankt Augustin, Stadt","type":"Stadt"},"district":{"key":"05382","name":"Rhein-Sieg-Kreis","type":"Kreis"},"federalState":{"key":"05","name":"Nordrhein-Westfalen"}},{"name":"Petersbergstr.","postalCode":"53757","locality":"Sankt Augustin","municipality":{"key":"05382056","name":"Sankt Augustin, Stadt","type":"Stadt"},"district":{"key":"05382","name":"Rhein-Sieg-Kreis","type":"Kreis"},"federalState":{"key":"05","name":"Nordrhein-Westfalen"}},{"name":"Pfarrweg","postalCode":"53757","locality":"Sankt Augustin","municipality":{"key":"05382056","name":"Sankt Augustin, Stadt","type":"Stadt"},"district":{"key":"05382","name":"Rhein-Sieg-Kreis","type":"Kreis"},"federalState":{"key":"05","name":"Nordrhein-Westfalen"}},{"name":"Platanenweg","postalCode":"53757","locality":"Sankt Augustin","municipality":{"key":"05382056","name":"Sankt Augustin, Stadt","type":"Stadt"},"district":{"key":"05382","name":"Rhein-Sieg-Kreis","type":"Kreis"},"federalState":{"key":"05","name":"Nordrhein-Westfalen"}},{"name":"Pleiser Dreieck","postalCode":"53757","locality":"Sankt Augustin","municipality":{"key":"05382056","name":"Sankt Augustin, Stadt","type":"Stadt"},"district":{"key":"05382","name":"Rhein-Sieg-Kreis","type":"Kreis"},"federalState":{"key":"05","name":"Nordrhein-Westfalen"}},{"name":"Pleistalstr.","postalCode":"53757","locality":"Sankt Augustin","municipality":{"key":"05382056","name":"Sankt Augustin, Stadt","type":"Stadt"},"district":{"key":"05382","name":"Rhein-Sieg-Kreis","type":"Kreis"},"federalState":{"key":"05","name":"Nordrhein-Westfalen"}},{"name":"Pleisufer","postalCode":"53757","locality":"Sankt Augustin","municipality":{"key":"05382056","name":"Sankt Augustin, Stadt","type":"Stadt"},"district":{"key":"05382","name":"Rhein-Sieg-Kreis","type":"Kreis"},"federalState":{"key":"05","name":"Nordrhein-Westfalen"}},{"name":"Prinz-Eugen-Str.","postalCode":"53757","locality":"Sankt Augustin","municipality":{"key":"05382056","name":"Sankt Augustin, Stadt","type":"Stadt"},"district":{"key":"05382","name":"Rhein-Sieg-Kreis","type":"Kreis"},"federalState":{"key":"05","name":"Nordrhein-Westfalen"}},{"name":"Pützchensweg","postalCode":"53757","locality":"Sankt Augustin","municipality":{"key":"05382056","name":"Sankt Augustin, Stadt","type":"Stadt"},"district":{"key":"05382","name":"Rhein-Sieg-Kreis","type":"Kreis"},"federalState":{"key":"05","name":"Nordrhein-Westfalen"}},{"name":"Raiffeisenstr.","postalCode":"53757","locality":"Sankt Augustin","municipality":{"key":"05382056","name":"Sankt Augustin, Stadt","type":"Stadt"},"district":{"key":"05382","name":"Rhein-Sieg-Kreis","type":"Kreis"},"federalState":{"key":"05","name":"Nordrhein-Westfalen"}},{"name":"Rathausallee","postalCode":"53757","locality":"Sankt Augustin","municipality":{"key":"05382056","name":"Sankt Augustin, Stadt","type":"Stadt"},"district":{"key":"05382","name":"Rhein-Sieg-Kreis","type":"Kreis"},"federalState":{"key":"05","name":"Nordrhein-Westfalen"}},{"name":"Rautenstrauchstr.","postalCode":"53757","locality":"Sankt Augustin","municipality":{"key":"05382056","name":"Sankt Augustin, Stadt","type":"Stadt"},"district":{"key":"05382","name":"Rhein-Sieg-Kreis","type":"Kreis"},"federalState":{"key":"05","name":"Nordrhein-Westfalen"}},{"name":"Rebenstr.","postalCode":"53757","locality":"Sankt Augustin","municipality":{"key":"05382056","name":"Sankt Augustin, Stadt","type":"Stadt"},"district":{"key":"05382","name":"Rhein-Sieg-Kreis","type":"Kreis"},"federalState":{"key":"05","name":"Nordrhein-Westfalen"}},{"name":"Rethelstr.","postalCode":"53757","locality":"Sankt Augustin","municipality":{"key":"05382056","name":"Sankt Augustin, Stadt","type":"Stadt"},"district":{"key":"05382","name":"Rhein-Sieg-Kreis","type":"Kreis"},"federalState":{"key":"05","name":"Nordrhein-Westfalen"}},{"name":"Rheinstr.","postalCode":"53757","locality":"Sankt Augustin","municipality":{"key":"05382056","name":"Sankt Augustin, Stadt","type":"Stadt"},"district":{"key":"05382","name":"Rhein-Sieg-Kreis","type":"Kreis"},"federalState":{"key":"05","name":"Nordrhein-Westfalen"}},{"name":"Richard-Wagner-Str.","postalCode":"53757","locality":"Sankt Augustin","municipality":{"key":"05382056","name":"Sankt Augustin, Stadt","type":"Stadt"},"district":{"key":"05382","name":"Rhein-Sieg-Kreis","type":"Kreis"},"federalState":{"key":"05","name":"Nordrhein-Westfalen"}},{"name":"Richthofenstr.","postalCode":"53757","locality":"Sankt Augustin","municipality":{"key":"05382056","name":"Sankt Augustin, Stadt","type":"Stadt"},"district":{"key":"05382","name":"Rhein-Sieg-Kreis","type":"Kreis"},"federalState":{"key":"05","name":"Nordrhein-Westfalen"}},{"name":"Rilkestr.","postalCode":"53757","locality":"Sankt Augustin","municipality":{"key":"05382056","name":"Sankt Augustin, Stadt","type":"Stadt"},"district":{"key":"05382","name":"Rhein-Sieg-Kreis","type":"Kreis"},"federalState":{"key":"05","name":"Nordrhein-Westfalen"}},{"name":"Ringstr.","postalCode":"53757","locality":"Sankt Augustin","municipality":{"key":"05382056","name":"Sankt Augustin, Stadt","type":"Stadt"},"district":{"key":"05382","name":"Rhein-Sieg-Kreis","type":"Kreis"},"federalState":{"key":"05","name":"Nordrhein-Westfalen"}},{"name":"Robert-Koch-Str.","postalCode":"53757","locality":"Sankt Augustin","municipality":{"key":"05382056","name":"Sankt Augustin, Stadt","type":"Stadt"},"district":{"key":"05382","name":"Rhein-Sieg-Kreis","type":"Kreis"},"federalState":{"key":"05","name":"Nordrhein-Westfalen"}},{"name":"Roncallistr.","postalCode":"53757","locality":"Sankt Augustin","municipality":{"key":"05382056","name":"Sankt Augustin, Stadt","type":"Stadt"},"district":{"key":"05382","name":"Rhein-Sieg-Kreis","type":"Kreis"},"federalState":{"key":"05","name":"Nordrhein-Westfalen"}},{"name":"Röntgenstr.","postalCode":"53757","locality":"Sankt Augustin","municipality":{"key":"05382056","name":"Sankt Augustin, Stadt","type":"Stadt"},"district":{"key":"05382","name":"Rhein-Sieg-Kreis","type":"Kreis"},"federalState":{"key":"05","name":"Nordrhein-Westfalen"}},{"name":"Rosenauweg","postalCode":"53757","locality":"Sankt Augustin","municipality":{"key":"05382056","name":"Sankt Augustin, Stadt","type":"Stadt"},"district":{"key":"05382","name":"Rhein-Sieg-Kreis","type":"Kreis"},"federalState":{"key":"05","name":"Nordrhein-Westfalen"}},{"name":"Rosenweg","postalCode":"53757","locality":"Sankt Augustin","municipality":{"key":"05382056","name":"Sankt Augustin, Stadt","type":"Stadt"},"district":{"key":"05382","name":"Rhein-Sieg-Kreis","type":"Kreis"},"federalState":{"key":"05","name":"Nordrhein-Westfalen"}},{"name":"Rostocker Str.","postalCode":"53757","locality":"Sankt Augustin","municipality":{"key":"05382056","name":"Sankt Augustin, Stadt","type":"Stadt"},"district":{"key":"05382","name":"Rhein-Sieg-Kreis","type":"Kreis"},"federalState":{"key":"05","name":"Nordrhein-Westfalen"}},{"name":"Rotdornweg","postalCode":"53757","locality":"Sankt Augustin","municipality":{"key":"05382056","name":"Sankt Augustin, Stadt","type":"Stadt"},"district":{"key":"05382","name":"Rhein-Sieg-Kreis","type":"Kreis"},"federalState":{"key":"05","name":"Nordrhein-Westfalen"}},{"name":"Rubensstr.","postalCode":"53757","locality":"Sankt Augustin","municipality":{"key":"05382056","name":"Sankt Augustin, Stadt","type":"Stadt"},"district":{"key":"05382","name":"Rhein-Sieg-Kreis","type":"Kreis"},"federalState":{"key":"05","name":"Nordrhein-Westfalen"}},{"name":"Sanddornweg","postalCode":"53757","locality":"Sankt Augustin","municipality":{"key":"05382056","name":"Sankt Augustin, Stadt","type":"Stadt"},"district":{"key":"05382","name":"Rhein-Sieg-Kreis","type":"Kreis"},"federalState":{"key":"05","name":"Nordrhein-Westfalen"}},{"name":"Sandkaule","postalCode":"53757","locality":"Sankt Augustin","municipality":{"key":"05382056","name":"Sankt Augustin, Stadt","type":"Stadt"},"district":{"key":"05382","name":"Rhein-Sieg-Kreis","type":"Kreis"},"federalState":{"key":"05","name":"Nordrhein-Westfalen"}},{"name":"Sandstr.","postalCode":"53757","locality":"Sankt Augustin","municipality":{"key":"05382056","name":"Sankt Augustin, Stadt","type":"Stadt"},"district":{"key":"05382","name":"Rhein-Sieg-Kreis","type":"Kreis"},"federalState":{"key":"05","name":"Nordrhein-Westfalen"}},{"name":"Sankt-Georgs-Weg","postalCode":"53757","locality":"Sankt Augustin","municipality":{"key":"05382056","name":"Sankt Augustin, Stadt","type":"Stadt"},"district":{"key":"05382","name":"Rhein-Sieg-Kreis","type":"Kreis"},"federalState":{"key":"05","name":"Nordrhein-Westfalen"}},{"name":"Sankt-Sebastianus-Platz","postalCode":"53757","locality":"Sankt Augustin","municipality":{"key":"05382056","name":"Sankt Augustin, Stadt","type":"Stadt"},"district":{"key":"05382","name":"Rhein-Sieg-Kreis","type":"Kreis"},"federalState":{"key":"05","name":"Nordrhein-Westfalen"}},{"name":"Schiffsstr.","postalCode":"53757","locality":"Sankt Augustin","municipality":{"key":"05382056","name":"Sankt Augustin, Stadt","type":"Stadt"},"district":{"key":"05382","name":"Rhein-Sieg-Kreis","type":"Kreis"},"federalState":{"key":"05","name":"Nordrhein-Westfalen"}},{"name":"Schillerstr.","postalCode":"53757","locality":"Sankt Augustin","municipality":{"key":"05382056","name":"Sankt Augustin, Stadt","type":"Stadt"},"district":{"key":"05382","name":"Rhein-Sieg-Kreis","type":"Kreis"},"federalState":{"key":"05","name":"Nordrhein-Westfalen"}},{"name":"Schloßstr.","postalCode":"53757","locality":"Sankt Augustin","municipality":{"key":"05382056","name":"Sankt Augustin, Stadt","type":"Stadt"},"district":{"key":"05382","name":"Rhein-Sieg-Kreis","type":"Kreis"},"federalState":{"key":"05","name":"Nordrhein-Westfalen"}},{"name":"Schnepfenweg","postalCode":"53757","locality":"Sankt Augustin","municipality":{"key":"05382056","name":"Sankt Augustin, Stadt","type":"Stadt"},"district":{"key":"05382","name":"Rhein-Sieg-Kreis","type":"Kreis"},"federalState":{"key":"05","name":"Nordrhein-Westfalen"}},{"name":"Schubertstr.","postalCode":"53757","locality":"Sankt Augustin","municipality":{"key":"05382056","name":"Sankt Augustin, Stadt","type":"Stadt"},"district":{"key":"05382","name":"Rhein-Sieg-Kreis","type":"Kreis"},"federalState":{"key":"05","name":"Nordrhein-Westfalen"}},{"name":"Schulstr.","postalCode":"53757","locality":"Sankt Augustin","municipality":{"key":"05382056","name":"Sankt Augustin, Stadt","type":"Stadt"},"district":{"key":"05382","name":"Rhein-Sieg-Kreis","type":"Kreis"},"federalState":{"key":"05","name":"Nordrhein-Westfalen"}},{"name":"Schumannstr.","postalCode":"53757","locality":"Sankt Augustin","municipality":{"key":"05382056","name":"Sankt Augustin, Stadt","type":"Stadt"},"district":{"key":"05382","name":"Rhein-Sieg-Kreis","type":"Kreis"},"federalState":{"key":"05","name":"Nordrhein-Westfalen"}},{"name":"Schützeiche","postalCode":"53757","locality":"Sankt Augustin","municipality":{"key":"05382056","name":"Sankt Augustin, Stadt","type":"Stadt"},"district":{"key":"05382","name":"Rhein-Sieg-Kreis","type":"Kreis"},"federalState":{"key":"05","name":"Nordrhein-Westfalen"}},{"name":"Schützenweg","postalCode":"53757","locality":"Sankt Augustin","municipality":{"key":"05382056","name":"Sankt Augustin, Stadt","type":"Stadt"},"district":{"key":"05382","name":"Rhein-Sieg-Kreis","type":"Kreis"},"federalState":{"key":"05","name":"Nordrhein-Westfalen"}},{"name":"Schwalbenweg","postalCode":"53757","locality":"Sankt Augustin","municipality":{"key":"05382056","name":"Sankt Augustin, Stadt","type":"Stadt"},"district":{"key":"05382","name":"Rhein-Sieg-Kreis","type":"Kreis"},"federalState":{"key":"05","name":"Nordrhein-Westfalen"}},{"name":"Siebengebirgsstr.","postalCode":"53757","locality":"Sankt Augustin","municipality":{"key":"05382056","name":"Sankt Augustin, Stadt","type":"Stadt"},"district":{"key":"05382","name":"Rhein-Sieg-Kreis","type":"Kreis"},"federalState":{"key":"05","name":"Nordrhein-Westfalen"}},{"name":"Siegburger Str.","postalCode":"53757","locality":"Sankt Augustin","municipality":{"key":"05382056","name":"Sankt Augustin, Stadt","type":"Stadt"},"district":{"key":"05382","name":"Rhein-Sieg-Kreis","type":"Kreis"},"federalState":{"key":"05","name":"Nordrhein-Westfalen"}},{"name":"Siegstr.","postalCode":"53757","locality":"Sankt Augustin","municipality":{"key":"05382056","name":"Sankt Augustin, Stadt","type":"Stadt"},"district":{"key":"05382","name":"Rhein-Sieg-Kreis","type":"Kreis"},"federalState":{"key":"05","name":"Nordrhein-Westfalen"}},{"name":"Siemensstr.","postalCode":"53757","locality":"Sankt Augustin","municipality":{"key":"05382056","name":"Sankt Augustin, Stadt","type":"Stadt"},"district":{"key":"05382","name":"Rhein-Sieg-Kreis","type":"Kreis"},"federalState":{"key":"05","name":"Nordrhein-Westfalen"}},{"name":"Sofienstr.","postalCode":"53757","locality":"Sankt Augustin","municipality":{"key":"05382056","name":"Sankt Augustin, Stadt","type":"Stadt"},"district":{"key":"05382","name":"Rhein-Sieg-Kreis","type":"Kreis"},"federalState":{"key":"05","name":"Nordrhein-Westfalen"}},{"name":"Sonnenrain","postalCode":"53757","locality":"Sankt Augustin","municipality":{"key":"05382056","name":"Sankt Augustin, Stadt","type":"Stadt"},"district":{"key":"05382","name":"Rhein-Sieg-Kreis","type":"Kreis"},"federalState":{"key":"05","name":"Nordrhein-Westfalen"}},{"name":"Sonnenweg","postalCode":"53757","locality":"Sankt Augustin","municipality":{"key":"05382056","name":"Sankt Augustin, Stadt","type":"Stadt"},"district":{"key":"05382","name":"Rhein-Sieg-Kreis","type":"Kreis"},"federalState":{"key":"05","name":"Nordrhein-Westfalen"}},{"name":"Spechtweg","postalCode":"53757","locality":"Sankt Augustin","municipality":{"key":"05382056","name":"Sankt Augustin, Stadt","type":"Stadt"},"district":{"key":"05382","name":"Rhein-Sieg-Kreis","type":"Kreis"},"federalState":{"key":"05","name":"Nordrhein-Westfalen"}},{"name":"Sperberweg","postalCode":"53757","locality":"Sankt Augustin","municipality":{"key":"05382056","name":"Sankt Augustin, Stadt","type":"Stadt"},"district":{"key":"05382","name":"Rhein-Sieg-Kreis","type":"Kreis"},"federalState":{"key":"05","name":"Nordrhein-Westfalen"}},{"name":"Sperlingsweg","postalCode":"53757","locality":"Sankt Augustin","municipality":{"key":"05382056","name":"Sankt Augustin, Stadt","type":"Stadt"},"district":{"key":"05382","name":"Rhein-Sieg-Kreis","type":"Kreis"},"federalState":{"key":"05","name":"Nordrhein-Westfalen"}},{"name":"Spitzwegstr.","postalCode":"53757","locality":"Sankt Augustin","municipality":{"key":"05382056","name":"Sankt Augustin, Stadt","type":"Stadt"},"district":{"key":"05382","name":"Rhein-Sieg-Kreis","type":"Kreis"},"federalState":{"key":"05","name":"Nordrhein-Westfalen"}},{"name":"Steiferhofstr.","postalCode":"53757","locality":"Sankt Augustin","municipality":{"key":"05382056","name":"Sankt Augustin, Stadt","type":"Stadt"},"district":{"key":"05382","name":"Rhein-Sieg-Kreis","type":"Kreis"},"federalState":{"key":"05","name":"Nordrhein-Westfalen"}},{"name":"Steinergasse","postalCode":"53757","locality":"Sankt Augustin","municipality":{"key":"05382056","name":"Sankt Augustin, Stadt","type":"Stadt"},"district":{"key":"05382","name":"Rhein-Sieg-Kreis","type":"Kreis"},"federalState":{"key":"05","name":"Nordrhein-Westfalen"}},{"name":"Steinkaule","postalCode":"53757","locality":"Sankt Augustin","municipality":{"key":"05382056","name":"Sankt Augustin, Stadt","type":"Stadt"},"district":{"key":"05382","name":"Rhein-Sieg-Kreis","type":"Kreis"},"federalState":{"key":"05","name":"Nordrhein-Westfalen"}},{"name":"Steinkreuzstr.","postalCode":"53757","locality":"Sankt Augustin","municipality":{"key":"05382056","name":"Sankt Augustin, Stadt","type":"Stadt"},"district":{"key":"05382","name":"Rhein-Sieg-Kreis","type":"Kreis"},"federalState":{"key":"05","name":"Nordrhein-Westfalen"}},{"name":"Steinweg","postalCode":"53757","locality":"Sankt Augustin","municipality":{"key":"05382056","name":"Sankt Augustin, Stadt","type":"Stadt"},"district":{"key":"05382","name":"Rhein-Sieg-Kreis","type":"Kreis"},"federalState":{"key":"05","name":"Nordrhein-Westfalen"}},{"name":"Sternenstr.","postalCode":"53757","locality":"Sankt Augustin","municipality":{"key":"05382056","name":"Sankt Augustin, Stadt","type":"Stadt"},"district":{"key":"05382","name":"Rhein-Sieg-Kreis","type":"Kreis"},"federalState":{"key":"05","name":"Nordrhein-Westfalen"}},{"name":"Stettiner Str.","postalCode":"53757","locality":"Sankt Augustin","municipality":{"key":"05382056","name":"Sankt Augustin, Stadt","type":"Stadt"},"district":{"key":"05382","name":"Rhein-Sieg-Kreis","type":"Kreis"},"federalState":{"key":"05","name":"Nordrhein-Westfalen"}},{"name":"Stralsunder Str.","postalCode":"53757","locality":"Sankt Augustin","municipality":{"key":"05382056","name":"Sankt Augustin, Stadt","type":"Stadt"},"district":{"key":"05382","name":"Rhein-Sieg-Kreis","type":"Kreis"},"federalState":{"key":"05","name":"Nordrhein-Westfalen"}},{"name":"Straßburger Str.","postalCode":"53757","locality":"Sankt Augustin","municipality":{"key":"05382056","name":"Sankt Augustin, Stadt","type":"Stadt"},"district":{"key":"05382","name":"Rhein-Sieg-Kreis","type":"Kreis"},"federalState":{"key":"05","name":"Nordrhein-Westfalen"}},{"name":"Stresemannstr.","postalCode":"53757","locality":"Sankt Augustin","municipality":{"key":"05382056","name":"Sankt Augustin, Stadt","type":"Stadt"},"district":{"key":"05382","name":"Rhein-Sieg-Kreis","type":"Kreis"},"federalState":{"key":"05","name":"Nordrhein-Westfalen"}},{"name":"Südstr.","postalCode":"53757","locality":"Sankt Augustin","municipality":{"key":"05382056","name":"Sankt Augustin, Stadt","type":"Stadt"},"district":{"key":"05382","name":"Rhein-Sieg-Kreis","type":"Kreis"},"federalState":{"key":"05","name":"Nordrhein-Westfalen"}},{"name":"Tannenweg","postalCode":"53757","locality":"Sankt Augustin","municipality":{"key":"05382056","name":"Sankt Augustin, Stadt","type":"Stadt"},"district":{"key":"05382","name":"Rhein-Sieg-Kreis","type":"Kreis"},"federalState":{"key":"05","name":"Nordrhein-Westfalen"}},{"name":"Taubenweg","postalCode":"53757","locality":"Sankt Augustin","municipality":{"key":"05382056","name":"Sankt Augustin, Stadt","type":"Stadt"},"district":{"key":"05382","name":"Rhein-Sieg-Kreis","type":"Kreis"},"federalState":{"key":"05","name":"Nordrhein-Westfalen"}},{"name":"Tegeler Weg","postalCode":"53757","locality":"Sankt Augustin","municipality":{"key":"05382056","name":"Sankt Augustin, Stadt","type":"Stadt"},"district":{"key":"05382","name":"Rhein-Sieg-Kreis","type":"Kreis"},"federalState":{"key":"05","name":"Nordrhein-Westfalen"}},{"name":"Teichgraben","postalCode":"53757","locality":"Sankt Augustin","municipality":{"key":"05382056","name":"Sankt Augustin, Stadt","type":"Stadt"},"district":{"key":"05382","name":"Rhein-Sieg-Kreis","type":"Kreis"},"federalState":{"key":"05","name":"Nordrhein-Westfalen"}},{"name":"Telemannstr.","postalCode":"53757","locality":"Sankt Augustin","municipality":{"key":"05382056","name":"Sankt Augustin, Stadt","type":"Stadt"},"district":{"key":"05382","name":"Rhein-Sieg-Kreis","type":"Kreis"},"federalState":{"key":"05","name":"Nordrhein-Westfalen"}},{"name":"Theodor-Heuss-Str.","postalCode":"53757","locality":"Sankt Augustin","municipality":{"key":"05382056","name":"Sankt Augustin, Stadt","type":"Stadt"},"district":{"key":"05382","name":"Rhein-Sieg-Kreis","type":"Kreis"},"federalState":{"key":"05","name":"Nordrhein-Westfalen"}},{"name":"Theodor-Kurscheid-Str.","postalCode":"53757","locality":"Sankt Augustin","municipality":{"key":"05382056","name":"Sankt Augustin, Stadt","type":"Stadt"},"district":{"key":"05382","name":"Rhein-Sieg-Kreis","type":"Kreis"},"federalState":{"key":"05","name":"Nordrhein-Westfalen"}},{"name":"Theodor-Storm-Allee","postalCode":"53757","locality":"Sankt Augustin","municipality":{"key":"05382056","name":"Sankt Augustin, Stadt","type":"Stadt"},"district":{"key":"05382","name":"Rhein-Sieg-Kreis","type":"Kreis"},"federalState":{"key":"05","name":"Nordrhein-Westfalen"}},{"name":"Theresienstr.","postalCode":"53757","locality":"Sankt Augustin","municipality":{"key":"05382056","name":"Sankt Augustin, Stadt","type":"Stadt"},"district":{"key":"05382","name":"Rhein-Sieg-Kreis","type":"Kreis"},"federalState":{"key":"05","name":"Nordrhein-Westfalen"}},{"name":"Thüringer Allee","postalCode":"53757","locality":"Sankt Augustin","municipality":{"key":"05382056","name":"Sankt Augustin, Stadt","type":"Stadt"},"district":{"key":"05382","name":"Rhein-Sieg-Kreis","type":"Kreis"},"federalState":{"key":"05","name":"Nordrhein-Westfalen"}},{"name":"Tulpenweg","postalCode":"53757","locality":"Sankt Augustin","municipality":{"key":"05382056","name":"Sankt Augustin, Stadt","type":"Stadt"},"district":{"key":"05382","name":"Rhein-Sieg-Kreis","type":"Kreis"},"federalState":{"key":"05","name":"Nordrhein-Westfalen"}},{"name":"Udetstr.","postalCode":"53757","locality":"Sankt Augustin","municipality":{"key":"05382056","name":"Sankt Augustin, Stadt","type":"Stadt"},"district":{"key":"05382","name":"Rhein-Sieg-Kreis","type":"Kreis"},"federalState":{"key":"05","name":"Nordrhein-Westfalen"}},{"name":"Uferstr.","postalCode":"53757","locality":"Sankt Augustin","municipality":{"key":"05382056","name":"Sankt Augustin, Stadt","type":"Stadt"},"district":{"key":"05382","name":"Rhein-Sieg-Kreis","type":"Kreis"},"federalState":{"key":"05","name":"Nordrhein-Westfalen"}},{"name":"Uhlandplatz","postalCode":"53757","locality":"Sankt Augustin","municipality":{"key":"05382056","name":"Sankt Augustin, Stadt","type":"Stadt"},"district":{"key":"05382","name":"Rhein-Sieg-Kreis","type":"Kreis"},"federalState":{"key":"05","name":"Nordrhein-Westfalen"}},{"name":"Uhlandstr.","postalCode":"53757","locality":"Sankt Augustin","municipality":{"key":"05382056","name":"Sankt Augustin, Stadt","type":"Stadt"},"district":{"key":"05382","name":"Rhein-Sieg-Kreis","type":"Kreis"},"federalState":{"key":"05","name":"Nordrhein-Westfalen"}},{"name":"Ulmenweg","postalCode":"53757","locality":"Sankt Augustin","municipality":{"key":"05382056","name":"Sankt Augustin, Stadt","type":"Stadt"},"district":{"key":"05382","name":"Rhein-Sieg-Kreis","type":"Kreis"},"federalState":{"key":"05","name":"Nordrhein-Westfalen"}},{"name":"Van-Dyck-Str.","postalCode":"53757","locality":"Sankt Augustin","municipality":{"key":"05382056","name":"Sankt Augustin, Stadt","type":"Stadt"},"district":{"key":"05382","name":"Rhein-Sieg-Kreis","type":"Kreis"},"federalState":{"key":"05","name":"Nordrhein-Westfalen"}},{"name":"Veilchenweg","postalCode":"53757","locality":"Sankt Augustin","municipality":{"key":"05382056","name":"Sankt Augustin, Stadt","type":"Stadt"},"district":{"key":"05382","name":"Rhein-Sieg-Kreis","type":"Kreis"},"federalState":{"key":"05","name":"Nordrhein-Westfalen"}},{"name":"Viehtrift","postalCode":"53757","locality":"Sankt Augustin","municipality":{"key":"05382056","name":"Sankt Augustin, Stadt","type":"Stadt"},"district":{"key":"05382","name":"Rhein-Sieg-Kreis","type":"Kreis"},"federalState":{"key":"05","name":"Nordrhein-Westfalen"}},{"name":"Vilicher Str.","postalCode":"53757","locality":"Sankt Augustin","municipality":{"key":"05382056","name":"Sankt Augustin, Stadt","type":"Stadt"},"district":{"key":"05382","name":"Rhein-Sieg-Kreis","type":"Kreis"},"federalState":{"key":"05","name":"Nordrhein-Westfalen"}},{"name":"Vom-Stein-Str.","postalCode":"53757","locality":"Sankt Augustin","municipality":{"key":"05382056","name":"Sankt Augustin, Stadt","type":"Stadt"},"district":{"key":"05382","name":"Rhein-Sieg-Kreis","type":"Kreis"},"federalState":{"key":"05","name":"Nordrhein-Westfalen"}},{"name":"Von-Claer-Str.","postalCode":"53757","locality":"Sankt Augustin","municipality":{"key":"05382056","name":"Sankt Augustin, Stadt","type":"Stadt"},"district":{"key":"05382","name":"Rhein-Sieg-Kreis","type":"Kreis"},"federalState":{"key":"05","name":"Nordrhein-Westfalen"}},{"name":"Von-Eichendorff-Str.","postalCode":"53757","locality":"Sankt Augustin","municipality":{"key":"05382056","name":"Sankt Augustin, Stadt","type":"Stadt"},"district":{"key":"05382","name":"Rhein-Sieg-Kreis","type":"Kreis"},"federalState":{"key":"05","name":"Nordrhein-Westfalen"}},{"name":"Von-Galen-Str.","postalCode":"53757","locality":"Sankt Augustin","municipality":{"key":"05382056","name":"Sankt Augustin, Stadt","type":"Stadt"},"district":{"key":"05382","name":"Rhein-Sieg-Kreis","type":"Kreis"},"federalState":{"key":"05","name":"Nordrhein-Westfalen"}},{"name":"Von-Ketteler-Str.","postalCode":"53757","locality":"Sankt Augustin","municipality":{"key":"05382056","name":"Sankt Augustin, Stadt","type":"Stadt"},"district":{"key":"05382","name":"Rhein-Sieg-Kreis","type":"Kreis"},"federalState":{"key":"05","name":"Nordrhein-Westfalen"}},{"name":"Von-Stauffenberg-Str.","postalCode":"53757","locality":"Sankt Augustin","municipality":{"key":"05382056","name":"Sankt Augustin, Stadt","type":"Stadt"},"district":{"key":"05382","name":"Rhein-Sieg-Kreis","type":"Kreis"},"federalState":{"key":"05","name":"Nordrhein-Westfalen"}},{"name":"Wacholderweg","postalCode":"53757","locality":"Sankt Augustin","municipality":{"key":"05382056","name":"Sankt Augustin, Stadt","type":"Stadt"},"district":{"key":"05382","name":"Rhein-Sieg-Kreis","type":"Kreis"},"federalState":{"key":"05","name":"Nordrhein-Westfalen"}},{"name":"Waldkauzweg","postalCode":"53757","locality":"Sankt Augustin","municipality":{"key":"05382056","name":"Sankt Augustin, Stadt","type":"Stadt"},"district":{"key":"05382","name":"Rhein-Sieg-Kreis","type":"Kreis"},"federalState":{"key":"05","name":"Nordrhein-Westfalen"}},{"name":"Waldstr.","postalCode":"53757","locality":"Sankt Augustin","municipality":{"key":"05382056","name":"Sankt Augustin, Stadt","type":"Stadt"},"district":{"key":"05382","name":"Rhein-Sieg-Kreis","type":"Kreis"},"federalState":{"key":"05","name":"Nordrhein-Westfalen"}},{"name":"Wehrfeldstr.","postalCode":"53757","locality":"Sankt Augustin","municipality":{"key":"05382056","name":"Sankt Augustin, Stadt","type":"Stadt"},"district":{"key":"05382","name":"Rhein-Sieg-Kreis","type":"Kreis"},"federalState":{"key":"05","name":"Nordrhein-Westfalen"}},{"name":"Weilbergweg","postalCode":"53757","locality":"Sankt Augustin","municipality":{"key":"05382056","name":"Sankt Augustin, Stadt","type":"Stadt"},"district":{"key":"05382","name":"Rhein-Sieg-Kreis","type":"Kreis"},"federalState":{"key":"05","name":"Nordrhein-Westfalen"}},{"name":"Weimarstr.","postalCode":"53757","locality":"Sankt Augustin","municipality":{"key":"05382056","name":"Sankt Augustin, Stadt","type":"Stadt"},"district":{"key":"05382","name":"Rhein-Sieg-Kreis","type":"Kreis"},"federalState":{"key":"05","name":"Nordrhein-Westfalen"}},{"name":"Weißdornweg","postalCode":"53757","locality":"Sankt Augustin","municipality":{"key":"05382056","name":"Sankt Augustin, Stadt","type":"Stadt"},"district":{"key":"05382","name":"Rhein-Sieg-Kreis","type":"Kreis"},"federalState":{"key":"05","name":"Nordrhein-Westfalen"}},{"name":"Wellenstr.","postalCode":"53757","locality":"Sankt Augustin","municipality":{"key":"05382056","name":"Sankt Augustin, Stadt","type":"Stadt"},"district":{"key":"05382","name":"Rhein-Sieg-Kreis","type":"Kreis"},"federalState":{"key":"05","name":"Nordrhein-Westfalen"}},{"name":"Westerwaldstr.","postalCode":"53757","locality":"Sankt Augustin","municipality":{"key":"05382056","name":"Sankt Augustin, Stadt","type":"Stadt"},"district":{"key":"05382","name":"Rhein-Sieg-Kreis","type":"Kreis"},"federalState":{"key":"05","name":"Nordrhein-Westfalen"}},{"name":"Wiesenpfad","postalCode":"53757","locality":"Sankt Augustin","municipality":{"key":"05382056","name":"Sankt Augustin, Stadt","type":"Stadt"},"district":{"key":"05382","name":"Rhein-Sieg-Kreis","type":"Kreis"},"federalState":{"key":"05","name":"Nordrhein-Westfalen"}},{"name":"Wilhelm-Mittelmeier-Str.","postalCode":"53757","locality":"Sankt Augustin","municipality":{"key":"05382056","name":"Sankt Augustin, Stadt","type":"Stadt"},"district":{"key":"05382","name":"Rhein-Sieg-Kreis","type":"Kreis"},"federalState":{"key":"05","name":"Nordrhein-Westfalen"}},{"name":"Wismarer Str.","postalCode":"53757","locality":"Sankt Augustin","municipality":{"key":"05382056","name":"Sankt Augustin, Stadt","type":"Stadt"},"district":{"key":"05382","name":"Rhein-Sieg-Kreis","type":"Kreis"},"federalState":{"key":"05","name":"Nordrhein-Westfalen"}},{"name":"Wohnpark","postalCode":"53757","locality":"Sankt Augustin","municipality":{"key":"05382056","name":"Sankt Augustin, Stadt","type":"Stadt"},"district":{"key":"05382","name":"Rhein-Sieg-Kreis","type":"Kreis"},"federalState":{"key":"05","name":"Nordrhein-Westfalen"}},{"name":"Wolkenburgstr.","postalCode":"53757","locality":"Sankt Augustin","municipality":{"key":"05382056","name":"Sankt Augustin, Stadt","type":"Stadt"},"district":{"key":"05382","name":"Rhein-Sieg-Kreis","type":"Kreis"},"federalState":{"key":"05","name":"Nordrhein-Westfalen"}},{"name":"Zedernweg","postalCode":"53757","locality":"Sankt Augustin","municipality":{"key":"05382056","name":"Sankt Augustin, Stadt","type":"Stadt"},"district":{"key":"05382","name":"Rhein-Sieg-Kreis","type":"Kreis"},"federalState":{"key":"05","name":"Nordrhein-Westfalen"}},{"name":"Zeisigweg","postalCode":"53757","locality":"Sankt Augustin","municipality":{"key":"05382056","name":"Sankt Augustin, Stadt","type":"Stadt"},"district":{"key":"05382","name":"Rhein-Sieg-Kreis","type":"Kreis"},"federalState":{"key":"05","name":"Nordrhein-Westfalen"}},{"name":"Zissendorfer Str.","postalCode":"53757","locality":"Sankt Augustin","municipality":{"key":"05382056","name":"Sankt Augustin, Stadt","type":"Stadt"},"district":{"key":"05382","name":"Rhein-Sieg-Kreis","type":"Kreis"},"federalState":{"key":"05","name":"Nordrhein-Westfalen"}},{"name":"Zum Siegblick","postalCode":"53757","locality":"Sankt Augustin","municipality":{"key":"05382056","name":"Sankt Augustin, Stadt","type":"Stadt"},"district":{"key":"05382","name":"Rhein-Sieg-Kreis","type":"Kreis"},"federalState":{"key":"05","name":"Nordrhein-Westfalen"}},{"name":"Zur Sonnenuhr","postalCode":"53757","locality":"Sankt Augustin","municipality":{"key":"05382056","name":"Sankt Augustin, Stadt","type":"Stadt"},"district":{"key":"05382","name":"Rhein-Sieg-Kreis","type":"Kreis"},"federalState":{"key":"05","name":"Nordrhein-Westfalen"}},]