[{"key":"10083937","name":"Ahornweg","postalCode":"3125","locality":"Toffen","commune":{"key":"872","name":"Kirchdorf (BE)","shortName":"Kirchdorf (BE)"},"district":{"key":"246","name":"Verwaltungskreis Bern-Mittelland"},"canton":{"key":"2","code":"BE","name":"Bern / Berne"},"status":"Real"},{"key":"10219367","name":"Allmend","postalCode":"3125","locality":"Toffen","commune":{"key":"872","name":"Kirchdorf (BE)","shortName":"Kirchdorf (BE)"},"district":{"key":"246","name":"Verwaltungskreis Bern-Mittelland"},"canton":{"key":"2","code":"BE","name":"Bern / Berne"},"status":"Real"},{"key":"10067771","name":"Allmendstrasse","postalCode":"3125","locality":"Toffen","commune":{"key":"872","name":"Kirchdorf (BE)","shortName":"Kirchdorf (BE)"},"district":{"key":"246","name":"Verwaltungskreis Bern-Mittelland"},"canton":{"key":"2","code":"BE","name":"Bern / Berne"},"status":"Real"},{"key":"10155788","name":"Asterweg","postalCode":"3125","locality":"Toffen","commune":{"key":"872","name":"Kirchdorf (BE)","shortName":"Kirchdorf (BE)"},"district":{"key":"246","name":"Verwaltungskreis Bern-Mittelland"},"canton":{"key":"2","code":"BE","name":"Bern / Berne"},"status":"Real"},{"key":"10013468","name":"Bahnhofstrasse","postalCode":"3125","locality":"Toffen","commune":{"key":"872","name":"Kirchdorf (BE)","shortName":"Kirchdorf (BE)"},"district":{"key":"246","name":"Verwaltungskreis Bern-Mittelland"},"canton":{"key":"2","code":"BE","name":"Bern / Berne"},"status":"Real"},{"key":"10013469","name":"Bahnweg","postalCode":"3125","locality":"Toffen","commune":{"key":"872","name":"Kirchdorf (BE)","shortName":"Kirchdorf (BE)"},"district":{"key":"246","name":"Verwaltungskreis Bern-Mittelland"},"canton":{"key":"2","code":"BE","name":"Bern / Berne"},"status":"Real"},{"key":"10083938","name":"Belpbergstrasse","postalCode":"3125","locality":"Toffen","commune":{"key":"872","name":"Kirchdorf (BE)","shortName":"Kirchdorf (BE)"},"district":{"key":"246","name":"Verwaltungskreis Bern-Mittelland"},"canton":{"key":"2","code":"BE","name":"Bern / Berne"},"status":"Real"},{"key":"10013470","name":"Bernstrasse","postalCode":"3125","locality":"Toffen","commune":{"key":"872","name":"Kirchdorf (BE)","shortName":"Kirchdorf (BE)"},"district":{"key":"246","name":"Verwaltungskreis Bern-Mittelland"},"canton":{"key":"2","code":"BE","name":"Bern / Berne"},"status":"Real"},{"key":"10013471","name":"Bifangweg","postalCode":"3125","locality":"Toffen","commune":{"key":"872","name":"Kirchdorf (BE)","shortName":"Kirchdorf (BE)"},"district":{"key":"246","name":"Verwaltungskreis Bern-Mittelland"},"canton":{"key":"2","code":"BE","name":"Bern / Berne"},"status":"Real"},{"key":"10083939","name":"Birkenweg","postalCode":"3125","locality":"Toffen","commune":{"key":"872","name":"Kirchdorf (BE)","shortName":"Kirchdorf (BE)"},"district":{"key":"246","name":"Verwaltungskreis Bern-Mittelland"},"canton":{"key":"2","code":"BE","name":"Bern / Berne"},"status":"Real"},{"key":"10179875","name":"Breitlohnweg","postalCode":"3125","locality":"Toffen","commune":{"key":"872","name":"Kirchdorf (BE)","shortName":"Kirchdorf (BE)"},"district":{"key":"246","name":"Verwaltungskreis Bern-Mittelland"},"canton":{"key":"2","code":"BE","name":"Bern / Berne"},"status":"Real"},{"key":"10189186","name":"Breitmattweg","postalCode":"3125","locality":"Toffen","commune":{"key":"872","name":"Kirchdorf (BE)","shortName":"Kirchdorf (BE)"},"district":{"key":"246","name":"Verwaltungskreis Bern-Mittelland"},"canton":{"key":"2","code":"BE","name":"Bern / Berne"},"status":"Real"},{"key":"10219371","name":"Bützmatte","postalCode":"3125","locality":"Toffen","commune":{"key":"872","name":"Kirchdorf (BE)","shortName":"Kirchdorf (BE)"},"district":{"key":"246","name":"Verwaltungskreis Bern-Mittelland"},"canton":{"key":"2","code":"BE","name":"Bern / Berne"},"status":"Real"},{"key":"10013472","name":"Chutzenweg","postalCode":"3125","locality":"Toffen","commune":{"key":"872","name":"Kirchdorf (BE)","shortName":"Kirchdorf (BE)"},"district":{"key":"246","name":"Verwaltungskreis Bern-Mittelland"},"canton":{"key":"2","code":"BE","name":"Bern / Berne"},"status":"Real"},{"key":"10013473","name":"Dahlienweg","postalCode":"3125","locality":"Toffen","commune":{"key":"872","name":"Kirchdorf (BE)","shortName":"Kirchdorf (BE)"},"district":{"key":"246","name":"Verwaltungskreis Bern-Mittelland"},"canton":{"key":"2","code":"BE","name":"Bern / Berne"},"status":"Real"},{"key":"10174244","name":"Eigerweg","postalCode":"3125","locality":"Toffen","commune":{"key":"872","name":"Kirchdorf (BE)","shortName":"Kirchdorf (BE)"},"district":{"key":"246","name":"Verwaltungskreis Bern-Mittelland"},"canton":{"key":"2","code":"BE","name":"Bern / Berne"},"status":"Real"},{"key":"10083940","name":"Fahrbühlweg","postalCode":"3125","locality":"Toffen","commune":{"key":"872","name":"Kirchdorf (BE)","shortName":"Kirchdorf (BE)"},"district":{"key":"246","name":"Verwaltungskreis Bern-Mittelland"},"canton":{"key":"2","code":"BE","name":"Bern / Berne"},"status":"Real"},{"key":"10013474","name":"Fliederweg","postalCode":"3125","locality":"Toffen","commune":{"key":"872","name":"Kirchdorf (BE)","shortName":"Kirchdorf (BE)"},"district":{"key":"246","name":"Verwaltungskreis Bern-Mittelland"},"canton":{"key":"2","code":"BE","name":"Bern / Berne"},"status":"Real"},{"key":"10067772","name":"Gantrischweg","postalCode":"3125","locality":"Toffen","commune":{"key":"872","name":"Kirchdorf (BE)","shortName":"Kirchdorf (BE)"},"district":{"key":"246","name":"Verwaltungskreis Bern-Mittelland"},"canton":{"key":"2","code":"BE","name":"Bern / Berne"},"status":"Real"},{"key":"10013475","name":"Gartenstrasse","postalCode":"3125","locality":"Toffen","commune":{"key":"872","name":"Kirchdorf (BE)","shortName":"Kirchdorf (BE)"},"district":{"key":"246","name":"Verwaltungskreis Bern-Mittelland"},"canton":{"key":"2","code":"BE","name":"Bern / Berne"},"status":"Real"},{"key":"10013476","name":"Grabenweg","postalCode":"3125","locality":"Toffen","commune":{"key":"872","name":"Kirchdorf (BE)","shortName":"Kirchdorf (BE)"},"district":{"key":"246","name":"Verwaltungskreis Bern-Mittelland"},"canton":{"key":"2","code":"BE","name":"Bern / Berne"},"status":"Real"},{"key":"10083941","name":"Grossmattweg","postalCode":"3125","locality":"Toffen","commune":{"key":"872","name":"Kirchdorf (BE)","shortName":"Kirchdorf (BE)"},"district":{"key":"246","name":"Verwaltungskreis Bern-Mittelland"},"canton":{"key":"2","code":"BE","name":"Bern / Berne"},"status":"Real"},{"key":"10061849","name":"Grubenriedli","postalCode":"3125","locality":"Toffen","commune":{"key":"872","name":"Kirchdorf (BE)","shortName":"Kirchdorf (BE)"},"district":{"key":"246","name":"Verwaltungskreis Bern-Mittelland"},"canton":{"key":"2","code":"BE","name":"Bern / Berne"},"status":"Real"},{"key":"10114359","name":"Grüdstrasse","postalCode":"3125","locality":"Toffen","commune":{"key":"872","name":"Kirchdorf (BE)","shortName":"Kirchdorf (BE)"},"district":{"key":"246","name":"Verwaltungskreis Bern-Mittelland"},"canton":{"key":"2","code":"BE","name":"Bern / Berne"},"status":"Real"},{"key":"10013477","name":"Gürbestrasse","postalCode":"3125","locality":"Toffen","commune":{"key":"872","name":"Kirchdorf (BE)","shortName":"Kirchdorf (BE)"},"district":{"key":"246","name":"Verwaltungskreis Bern-Mittelland"},"canton":{"key":"2","code":"BE","name":"Bern / Berne"},"status":"Real"},{"key":"10067773","name":"Gutenbrünnenweg","postalCode":"3125","locality":"Toffen","commune":{"key":"872","name":"Kirchdorf (BE)","shortName":"Kirchdorf (BE)"},"district":{"key":"246","name":"Verwaltungskreis Bern-Mittelland"},"canton":{"key":"2","code":"BE","name":"Bern / Berne"},"status":"Real"},{"key":"10179876","name":"Hangweg","postalCode":"3125","locality":"Toffen","commune":{"key":"872","name":"Kirchdorf (BE)","shortName":"Kirchdorf (BE)"},"district":{"key":"246","name":"Verwaltungskreis Bern-Mittelland"},"canton":{"key":"2","code":"BE","name":"Bern / Berne"},"status":"Real"},{"key":"10084209","name":"Heitern","postalCode":"3125","locality":"Toffen","commune":{"key":"872","name":"Kirchdorf (BE)","shortName":"Kirchdorf (BE)"},"district":{"key":"246","name":"Verwaltungskreis Bern-Mittelland"},"canton":{"key":"2","code":"BE","name":"Bern / Berne"},"status":"Real"},{"key":"10084181","name":"Heitern","postalCode":"3125","locality":"Toffen","commune":{"key":"872","name":"Kirchdorf (BE)","shortName":"Kirchdorf (BE)"},"district":{"key":"246","name":"Verwaltungskreis Bern-Mittelland"},"canton":{"key":"2","code":"BE","name":"Bern / Berne"},"status":"Real"},{"key":"10083942","name":"Hübeliweg","postalCode":"3125","locality":"Toffen","commune":{"key":"872","name":"Kirchdorf (BE)","shortName":"Kirchdorf (BE)"},"district":{"key":"246","name":"Verwaltungskreis Bern-Mittelland"},"canton":{"key":"2","code":"BE","name":"Bern / Berne"},"status":"Real"},{"key":"10132244","name":"Im Spitz","postalCode":"3125","locality":"Toffen","commune":{"key":"872","name":"Kirchdorf (BE)","shortName":"Kirchdorf (BE)"},"district":{"key":"246","name":"Verwaltungskreis Bern-Mittelland"},"canton":{"key":"2","code":"BE","name":"Bern / Berne"},"status":"Real"},{"key":"10013478","name":"Kanalweg","postalCode":"3125","locality":"Toffen","commune":{"key":"872","name":"Kirchdorf (BE)","shortName":"Kirchdorf (BE)"},"district":{"key":"246","name":"Verwaltungskreis Bern-Mittelland"},"canton":{"key":"2","code":"BE","name":"Bern / Berne"},"status":"Real"},{"key":"10191945","name":"Kaufdorfstrasse","postalCode":"3125","locality":"Toffen","commune":{"key":"872","name":"Kirchdorf (BE)","shortName":"Kirchdorf (BE)"},"district":{"key":"246","name":"Verwaltungskreis Bern-Mittelland"},"canton":{"key":"2","code":"BE","name":"Bern / Berne"},"status":"Real"},{"key":"10067774","name":"Lerchenweg","postalCode":"3125","locality":"Toffen","commune":{"key":"872","name":"Kirchdorf (BE)","shortName":"Kirchdorf (BE)"},"district":{"key":"246","name":"Verwaltungskreis Bern-Mittelland"},"canton":{"key":"2","code":"BE","name":"Bern / Berne"},"status":"Real"},{"key":"10013479","name":"Lindenweg","postalCode":"3125","locality":"Toffen","commune":{"key":"872","name":"Kirchdorf (BE)","shortName":"Kirchdorf (BE)"},"district":{"key":"246","name":"Verwaltungskreis Bern-Mittelland"},"canton":{"key":"2","code":"BE","name":"Bern / Berne"},"status":"Real"},{"key":"10129655","name":"Lochackerweg","postalCode":"3125","locality":"Toffen","commune":{"key":"872","name":"Kirchdorf (BE)","shortName":"Kirchdorf (BE)"},"district":{"key":"246","name":"Verwaltungskreis Bern-Mittelland"},"canton":{"key":"2","code":"BE","name":"Bern / Berne"},"status":"Real"},{"key":"10013480","name":"Muheimern","postalCode":"3125","locality":"Toffen","commune":{"key":"872","name":"Kirchdorf (BE)","shortName":"Kirchdorf (BE)"},"district":{"key":"246","name":"Verwaltungskreis Bern-Mittelland"},"canton":{"key":"2","code":"BE","name":"Bern / Berne"},"status":"Real"},{"key":"10155786","name":"Mühlehubelstrasse","postalCode":"3125","locality":"Toffen","commune":{"key":"872","name":"Kirchdorf (BE)","shortName":"Kirchdorf (BE)"},"district":{"key":"246","name":"Verwaltungskreis Bern-Mittelland"},"canton":{"key":"2","code":"BE","name":"Bern / Berne"},"status":"Real"},{"key":"10219374","name":"Müschmatte","postalCode":"3125","locality":"Toffen","commune":{"key":"872","name":"Kirchdorf (BE)","shortName":"Kirchdorf (BE)"},"district":{"key":"246","name":"Verwaltungskreis Bern-Mittelland"},"canton":{"key":"2","code":"BE","name":"Bern / Berne"},"status":"Real"},{"key":"10219378","name":"Mutte","postalCode":"3125","locality":"Toffen","commune":{"key":"872","name":"Kirchdorf (BE)","shortName":"Kirchdorf (BE)"},"district":{"key":"246","name":"Verwaltungskreis Bern-Mittelland"},"canton":{"key":"2","code":"BE","name":"Bern / Berne"},"status":"Real"},{"key":"10013481","name":"Nelkenweg","postalCode":"3125","locality":"Toffen","commune":{"key":"872","name":"Kirchdorf (BE)","shortName":"Kirchdorf (BE)"},"district":{"key":"246","name":"Verwaltungskreis Bern-Mittelland"},"canton":{"key":"2","code":"BE","name":"Bern / Berne"},"status":"Real"},{"key":"10060409","name":"Neuhaus","postalCode":"3125","locality":"Toffen","commune":{"key":"872","name":"Kirchdorf (BE)","shortName":"Kirchdorf (BE)"},"district":{"key":"246","name":"Verwaltungskreis Bern-Mittelland"},"canton":{"key":"2","code":"BE","name":"Bern / Berne"},"status":"Real"},{"key":"10067775","name":"Niesenweg","postalCode":"3125","locality":"Toffen","commune":{"key":"872","name":"Kirchdorf (BE)","shortName":"Kirchdorf (BE)"},"district":{"key":"246","name":"Verwaltungskreis Bern-Mittelland"},"canton":{"key":"2","code":"BE","name":"Bern / Berne"},"status":"Real"},{"key":"10219382","name":"Ob der Flue","postalCode":"3125","locality":"Toffen","commune":{"key":"872","name":"Kirchdorf (BE)","shortName":"Kirchdorf (BE)"},"district":{"key":"246","name":"Verwaltungskreis Bern-Mittelland"},"canton":{"key":"2","code":"BE","name":"Bern / Berne"},"status":"Real"},{"key":"10219386","name":"Rohrmatte","postalCode":"3125","locality":"Toffen","commune":{"key":"872","name":"Kirchdorf (BE)","shortName":"Kirchdorf (BE)"},"district":{"key":"246","name":"Verwaltungskreis Bern-Mittelland"},"canton":{"key":"2","code":"BE","name":"Bern / Berne"},"status":"Real"},{"key":"10083943","name":"Römerstrasse","postalCode":"3125","locality":"Toffen","commune":{"key":"872","name":"Kirchdorf (BE)","shortName":"Kirchdorf (BE)"},"district":{"key":"246","name":"Verwaltungskreis Bern-Mittelland"},"canton":{"key":"2","code":"BE","name":"Bern / Berne"},"status":"Real"},{"key":"10013482","name":"Rosenweg","postalCode":"3125","locality":"Toffen","commune":{"key":"872","name":"Kirchdorf (BE)","shortName":"Kirchdorf (BE)"},"district":{"key":"246","name":"Verwaltungskreis Bern-Mittelland"},"canton":{"key":"2","code":"BE","name":"Bern / Berne"},"status":"Real"},{"key":"10179877","name":"Rüdlenweg","postalCode":"3125","locality":"Toffen","commune":{"key":"872","name":"Kirchdorf (BE)","shortName":"Kirchdorf (BE)"},"district":{"key":"246","name":"Verwaltungskreis Bern-Mittelland"},"canton":{"key":"2","code":"BE","name":"Bern / Berne"},"status":"Real"},{"key":"10219390","name":"Säumlimoos","postalCode":"3125","locality":"Toffen","commune":{"key":"872","name":"Kirchdorf (BE)","shortName":"Kirchdorf (BE)"},"district":{"key":"246","name":"Verwaltungskreis Bern-Mittelland"},"canton":{"key":"2","code":"BE","name":"Bern / Berne"},"status":"Real"},{"key":"10013483","name":"Schlossweg","postalCode":"3125","locality":"Toffen","commune":{"key":"872","name":"Kirchdorf (BE)","shortName":"Kirchdorf (BE)"},"district":{"key":"246","name":"Verwaltungskreis Bern-Mittelland"},"canton":{"key":"2","code":"BE","name":"Bern / Berne"},"status":"Real"},{"key":"10219394","name":"Seematte","postalCode":"3125","locality":"Toffen","commune":{"key":"872","name":"Kirchdorf (BE)","shortName":"Kirchdorf (BE)"},"district":{"key":"246","name":"Verwaltungskreis Bern-Mittelland"},"canton":{"key":"2","code":"BE","name":"Bern / Berne"},"status":"Real"},{"key":"10067776","name":"Steinackerweg","postalCode":"3125","locality":"Toffen","commune":{"key":"872","name":"Kirchdorf (BE)","shortName":"Kirchdorf (BE)"},"district":{"key":"246","name":"Verwaltungskreis Bern-Mittelland"},"canton":{"key":"2","code":"BE","name":"Bern / Berne"},"status":"Real"},{"key":"10013484","name":"Stockhornstrasse","postalCode":"3125","locality":"Toffen","commune":{"key":"872","name":"Kirchdorf (BE)","shortName":"Kirchdorf (BE)"},"district":{"key":"246","name":"Verwaltungskreis Bern-Mittelland"},"canton":{"key":"2","code":"BE","name":"Bern / Berne"},"status":"Real"},{"key":"10083944","name":"Sygartweg","postalCode":"3125","locality":"Toffen","commune":{"key":"872","name":"Kirchdorf (BE)","shortName":"Kirchdorf (BE)"},"district":{"key":"246","name":"Verwaltungskreis Bern-Mittelland"},"canton":{"key":"2","code":"BE","name":"Bern / Berne"},"status":"Real"},{"key":"10013485","name":"Taubenweg","postalCode":"3125","locality":"Toffen","commune":{"key":"872","name":"Kirchdorf (BE)","shortName":"Kirchdorf (BE)"},"district":{"key":"246","name":"Verwaltungskreis Bern-Mittelland"},"canton":{"key":"2","code":"BE","name":"Bern / Berne"},"status":"Real"},{"key":"10013486","name":"Thunstrasse","postalCode":"3125","locality":"Toffen","commune":{"key":"872","name":"Kirchdorf (BE)","shortName":"Kirchdorf (BE)"},"district":{"key":"246","name":"Verwaltungskreis Bern-Mittelland"},"canton":{"key":"2","code":"BE","name":"Bern / Berne"},"status":"Real"},{"key":"10067777","name":"Toffenhohle","postalCode":"3125","locality":"Toffen","commune":{"key":"872","name":"Kirchdorf (BE)","shortName":"Kirchdorf (BE)"},"district":{"key":"246","name":"Verwaltungskreis Bern-Mittelland"},"canton":{"key":"2","code":"BE","name":"Bern / Berne"},"status":"Real"},{"key":"10083945","name":"Tufterenweg","postalCode":"3125","locality":"Toffen","commune":{"key":"872","name":"Kirchdorf (BE)","shortName":"Kirchdorf (BE)"},"district":{"key":"246","name":"Verwaltungskreis Bern-Mittelland"},"canton":{"key":"2","code":"BE","name":"Bern / Berne"},"status":"Real"},{"key":"10112548","name":"Tulpenweg","postalCode":"3125","locality":"Toffen","commune":{"key":"872","name":"Kirchdorf (BE)","shortName":"Kirchdorf (BE)"},"district":{"key":"246","name":"Verwaltungskreis Bern-Mittelland"},"canton":{"key":"2","code":"BE","name":"Bern / Berne"},"status":"Real"},]