[{"key":"10072161","name":"Andrau","postalCode":"7013","locality":"Domat/Ems","commune":{"key":"3722","name":"Domat/Ems","shortName":"Domat/Ems"},"district":{"key":"1844","name":"Region Imboden"},"canton":{"key":"18","code":"GR","name":"Graubünden / Grigioni / Grischun"},"status":"Real"},{"key":"10097433","name":"Anemonas","postalCode":"7013","locality":"Domat/Ems","commune":{"key":"3722","name":"Domat/Ems","shortName":"Domat/Ems"},"district":{"key":"1844","name":"Region Imboden"},"canton":{"key":"18","code":"GR","name":"Graubünden / Grigioni / Grischun"},"status":"Real"},{"key":"10016883","name":"Bagliel","postalCode":"7013","locality":"Domat/Ems","commune":{"key":"3722","name":"Domat/Ems","shortName":"Domat/Ems"},"district":{"key":"1844","name":"Region Imboden"},"canton":{"key":"18","code":"GR","name":"Graubünden / Grigioni / Grischun"},"status":"Real"},{"key":"10072162","name":"Barnaus","postalCode":"7013","locality":"Domat/Ems","commune":{"key":"3722","name":"Domat/Ems","shortName":"Domat/Ems"},"district":{"key":"1844","name":"Region Imboden"},"canton":{"key":"18","code":"GR","name":"Graubünden / Grigioni / Grischun"},"status":"Real"},{"key":"10025521","name":"Bot Ping","postalCode":"7013","locality":"Domat/Ems","commune":{"key":"3722","name":"Domat/Ems","shortName":"Domat/Ems"},"district":{"key":"1844","name":"Region Imboden"},"canton":{"key":"18","code":"GR","name":"Graubünden / Grigioni / Grischun"},"status":"Real"},{"key":"10025522","name":"Bottaholds","postalCode":"7013","locality":"Domat/Ems","commune":{"key":"3722","name":"Domat/Ems","shortName":"Domat/Ems"},"district":{"key":"1844","name":"Region Imboden"},"canton":{"key":"18","code":"GR","name":"Graubünden / Grigioni / Grischun"},"status":"Real"},{"key":"10122293","name":"Caneua","postalCode":"7013","locality":"Domat/Ems","commune":{"key":"3722","name":"Domat/Ems","shortName":"Domat/Ems"},"district":{"key":"1844","name":"Region Imboden"},"canton":{"key":"18","code":"GR","name":"Graubünden / Grigioni / Grischun"},"status":"Real"},{"key":"10072163","name":"Caschnés","postalCode":"7013","locality":"Domat/Ems","commune":{"key":"3722","name":"Domat/Ems","shortName":"Domat/Ems"},"district":{"key":"1844","name":"Region Imboden"},"canton":{"key":"18","code":"GR","name":"Graubünden / Grigioni / Grischun"},"status":"Real"},{"key":"10097434","name":"Churerstrasse","postalCode":"7013","locality":"Domat/Ems","commune":{"key":"3722","name":"Domat/Ems","shortName":"Domat/Ems"},"district":{"key":"1844","name":"Region Imboden"},"canton":{"key":"18","code":"GR","name":"Graubünden / Grigioni / Grischun"},"status":"Real"},{"key":"10185243","name":"Crestas","postalCode":"7013","locality":"Domat/Ems","commune":{"key":"3722","name":"Domat/Ems","shortName":"Domat/Ems"},"district":{"key":"1844","name":"Region Imboden"},"canton":{"key":"18","code":"GR","name":"Graubünden / Grigioni / Grischun"},"status":"Real"},{"key":"10025523","name":"Curtinella","postalCode":"7013","locality":"Domat/Ems","commune":{"key":"3722","name":"Domat/Ems","shortName":"Domat/Ems"},"district":{"key":"1844","name":"Region Imboden"},"canton":{"key":"18","code":"GR","name":"Graubünden / Grigioni / Grischun"},"status":"Real"},{"key":"10025524","name":"Davos Turera","postalCode":"7013","locality":"Domat/Ems","commune":{"key":"3722","name":"Domat/Ems","shortName":"Domat/Ems"},"district":{"key":"1844","name":"Region Imboden"},"canton":{"key":"18","code":"GR","name":"Graubünden / Grigioni / Grischun"},"status":"Real"},{"key":"10072164","name":"Denter Tumas","postalCode":"7013","locality":"Domat/Ems","commune":{"key":"3722","name":"Domat/Ems","shortName":"Domat/Ems"},"district":{"key":"1844","name":"Region Imboden"},"canton":{"key":"18","code":"GR","name":"Graubünden / Grigioni / Grischun"},"status":"Real"},{"key":"10176475","name":"En Streia","postalCode":"7013","locality":"Domat/Ems","commune":{"key":"3722","name":"Domat/Ems","shortName":"Domat/Ems"},"district":{"key":"1844","name":"Region Imboden"},"canton":{"key":"18","code":"GR","name":"Graubünden / Grigioni / Grischun"},"status":"Real"},{"key":"10109507","name":"Frassen","postalCode":"7013","locality":"Domat/Ems","commune":{"key":"3722","name":"Domat/Ems","shortName":"Domat/Ems"},"district":{"key":"1844","name":"Region Imboden"},"canton":{"key":"18","code":"GR","name":"Graubünden / Grigioni / Grischun"},"status":"Real"},{"key":"10250441","name":"Gass'arsa","postalCode":"7013","locality":"Domat/Ems","commune":{"key":"3722","name":"Domat/Ems","shortName":"Domat/Ems"},"district":{"key":"1844","name":"Region Imboden"},"canton":{"key":"18","code":"GR","name":"Graubünden / Grigioni / Grischun"},"status":"Real"},{"key":"10191145","name":"Gassa surò","postalCode":"7013","locality":"Domat/Ems","commune":{"key":"3722","name":"Domat/Ems","shortName":"Domat/Ems"},"district":{"key":"1844","name":"Region Imboden"},"canton":{"key":"18","code":"GR","name":"Graubünden / Grigioni / Grischun"},"status":"Real"},{"key":"10025525","name":"Gassa sutò","postalCode":"7013","locality":"Domat/Ems","commune":{"key":"3722","name":"Domat/Ems","shortName":"Domat/Ems"},"district":{"key":"1844","name":"Region Imboden"},"canton":{"key":"18","code":"GR","name":"Graubünden / Grigioni / Grischun"},"status":"Real"},{"key":"10184875","name":"Gion Gioder","postalCode":"7013","locality":"Domat/Ems","commune":{"key":"3722","name":"Domat/Ems","shortName":"Domat/Ems"},"district":{"key":"1844","name":"Region Imboden"},"canton":{"key":"18","code":"GR","name":"Graubünden / Grigioni / Grischun"},"status":"Real"},{"key":"10072165","name":"Glashüttenweg","postalCode":"7013","locality":"Domat/Ems","commune":{"key":"3722","name":"Domat/Ems","shortName":"Domat/Ems"},"district":{"key":"1844","name":"Region Imboden"},"canton":{"key":"18","code":"GR","name":"Graubünden / Grigioni / Grischun"},"status":"Real"},{"key":"10097435","name":"Gliemgnas","postalCode":"7013","locality":"Domat/Ems","commune":{"key":"3722","name":"Domat/Ems","shortName":"Domat/Ems"},"district":{"key":"1844","name":"Region Imboden"},"canton":{"key":"18","code":"GR","name":"Graubünden / Grigioni / Grischun"},"status":"Real"},{"key":"10025527","name":"Hof Plarenga","postalCode":"7013","locality":"Domat/Ems","commune":{"key":"3722","name":"Domat/Ems","shortName":"Domat/Ems"},"district":{"key":"1844","name":"Region Imboden"},"canton":{"key":"18","code":"GR","name":"Graubünden / Grigioni / Grischun"},"status":"Real"},{"key":"10207895","name":"Hofstättle","postalCode":"7013","locality":"Domat/Ems","commune":{"key":"3722","name":"Domat/Ems","shortName":"Domat/Ems"},"district":{"key":"1844","name":"Region Imboden"},"canton":{"key":"18","code":"GR","name":"Graubünden / Grigioni / Grischun"},"status":"Real"},{"key":"10207768","name":"Industriepark Vial","postalCode":"7013","locality":"Domat/Ems","commune":{"key":"3722","name":"Domat/Ems","shortName":"Domat/Ems"},"district":{"key":"1844","name":"Region Imboden"},"canton":{"key":"18","code":"GR","name":"Graubünden / Grigioni / Grischun"},"status":"Real"},{"key":"10025526","name":"Paleu sura","postalCode":"7013","locality":"Domat/Ems","commune":{"key":"3722","name":"Domat/Ems","shortName":"Domat/Ems"},"district":{"key":"1844","name":"Region Imboden"},"canton":{"key":"18","code":"GR","name":"Graubünden / Grigioni / Grischun"},"status":"Real"},{"key":"10025528","name":"Plaz","postalCode":"7013","locality":"Domat/Ems","commune":{"key":"3722","name":"Domat/Ems","shortName":"Domat/Ems"},"district":{"key":"1844","name":"Region Imboden"},"canton":{"key":"18","code":"GR","name":"Graubünden / Grigioni / Grischun"},"status":"Real"},{"key":"10072166","name":"Plazza Staziun","postalCode":"7013","locality":"Domat/Ems","commune":{"key":"3722","name":"Domat/Ems","shortName":"Domat/Ems"},"district":{"key":"1844","name":"Region Imboden"},"canton":{"key":"18","code":"GR","name":"Graubünden / Grigioni / Grischun"},"status":"Real"},{"key":"10061374","name":"Plong Muling","postalCode":"7013","locality":"Domat/Ems","commune":{"key":"3722","name":"Domat/Ems","shortName":"Domat/Ems"},"district":{"key":"1844","name":"Region Imboden"},"canton":{"key":"18","code":"GR","name":"Graubünden / Grigioni / Grischun"},"status":"Real"},{"key":"10255943","name":"Plong Puntzoll","postalCode":"7013","locality":"Domat/Ems","commune":{"key":"3722","name":"Domat/Ems","shortName":"Domat/Ems"},"district":{"key":"1844","name":"Region Imboden"},"canton":{"key":"18","code":"GR","name":"Graubünden / Grigioni / Grischun"},"status":"Real"},{"key":"10046849","name":"Punt Arsa","postalCode":"7013","locality":"Domat/Ems","commune":{"key":"3722","name":"Domat/Ems","shortName":"Domat/Ems"},"district":{"key":"1844","name":"Region Imboden"},"canton":{"key":"18","code":"GR","name":"Graubünden / Grigioni / Grischun"},"status":"Real"},{"key":"10025529","name":"Quadrella","postalCode":"7013","locality":"Domat/Ems","commune":{"key":"3722","name":"Domat/Ems","shortName":"Domat/Ems"},"district":{"key":"1844","name":"Region Imboden"},"canton":{"key":"18","code":"GR","name":"Graubünden / Grigioni / Grischun"},"status":"Real"},{"key":"10176476","name":"Reichenauerstrasse","postalCode":"7013","locality":"Domat/Ems","commune":{"key":"3722","name":"Domat/Ems","shortName":"Domat/Ems"},"district":{"key":"1844","name":"Region Imboden"},"canton":{"key":"18","code":"GR","name":"Graubünden / Grigioni / Grischun"},"status":"Real"},{"key":"10072167","name":"Riel","postalCode":"7013","locality":"Domat/Ems","commune":{"key":"3722","name":"Domat/Ems","shortName":"Domat/Ems"},"district":{"key":"1844","name":"Region Imboden"},"canton":{"key":"18","code":"GR","name":"Graubünden / Grigioni / Grischun"},"status":"Real"},{"key":"10025530","name":"Rieven","postalCode":"7013","locality":"Domat/Ems","commune":{"key":"3722","name":"Domat/Ems","shortName":"Domat/Ems"},"district":{"key":"1844","name":"Region Imboden"},"canton":{"key":"18","code":"GR","name":"Graubünden / Grigioni / Grischun"},"status":"Real"},{"key":"10026648","name":"Scalina","postalCode":"7013","locality":"Domat/Ems","commune":{"key":"3722","name":"Domat/Ems","shortName":"Domat/Ems"},"district":{"key":"1844","name":"Region Imboden"},"canton":{"key":"18","code":"GR","name":"Graubünden / Grigioni / Grischun"},"status":"Real"},{"key":"10072168","name":"Scherrat","postalCode":"7013","locality":"Domat/Ems","commune":{"key":"3722","name":"Domat/Ems","shortName":"Domat/Ems"},"district":{"key":"1844","name":"Region Imboden"},"canton":{"key":"18","code":"GR","name":"Graubünden / Grigioni / Grischun"},"status":"Real"},{"key":"10097436","name":"Senda","postalCode":"7013","locality":"Domat/Ems","commune":{"key":"3722","name":"Domat/Ems","shortName":"Domat/Ems"},"district":{"key":"1844","name":"Region Imboden"},"canton":{"key":"18","code":"GR","name":"Graubünden / Grigioni / Grischun"},"status":"Real"},{"key":"10216515","name":"Sorts di Lagher","postalCode":"7013","locality":"Domat/Ems","commune":{"key":"3722","name":"Domat/Ems","shortName":"Domat/Ems"},"district":{"key":"1844","name":"Region Imboden"},"canton":{"key":"18","code":"GR","name":"Graubünden / Grigioni / Grischun"},"status":"Real"},{"key":"10155782","name":"Station Felsberg","postalCode":"7013","locality":"Domat/Ems","commune":{"key":"3722","name":"Domat/Ems","shortName":"Domat/Ems"},"district":{"key":"1844","name":"Region Imboden"},"canton":{"key":"18","code":"GR","name":"Graubünden / Grigioni / Grischun"},"status":"Real"},{"key":"10115277","name":"Station Reichenau","postalCode":"7013","locality":"Domat/Ems","commune":{"key":"3722","name":"Domat/Ems","shortName":"Domat/Ems"},"district":{"key":"1844","name":"Region Imboden"},"canton":{"key":"18","code":"GR","name":"Graubünden / Grigioni / Grischun"},"status":"Real"},{"key":"10185244","name":"Sum Curtgins","postalCode":"7013","locality":"Domat/Ems","commune":{"key":"3722","name":"Domat/Ems","shortName":"Domat/Ems"},"district":{"key":"1844","name":"Region Imboden"},"canton":{"key":"18","code":"GR","name":"Graubünden / Grigioni / Grischun"},"status":"Real"},{"key":"10108817","name":"Sur Falveng","postalCode":"7013","locality":"Domat/Ems","commune":{"key":"3722","name":"Domat/Ems","shortName":"Domat/Ems"},"district":{"key":"1844","name":"Region Imboden"},"canton":{"key":"18","code":"GR","name":"Graubünden / Grigioni / Grischun"},"status":"Real"},{"key":"10097437","name":"Sur Rieven","postalCode":"7013","locality":"Domat/Ems","commune":{"key":"3722","name":"Domat/Ems","shortName":"Domat/Ems"},"district":{"key":"1844","name":"Region Imboden"},"canton":{"key":"18","code":"GR","name":"Graubünden / Grigioni / Grischun"},"status":"Real"},{"key":"10026649","name":"Sut Rieven","postalCode":"7013","locality":"Domat/Ems","commune":{"key":"3722","name":"Domat/Ems","shortName":"Domat/Ems"},"district":{"key":"1844","name":"Region Imboden"},"canton":{"key":"18","code":"GR","name":"Graubünden / Grigioni / Grischun"},"status":"Real"},{"key":"10072169","name":"Sut Tuma","postalCode":"7013","locality":"Domat/Ems","commune":{"key":"3722","name":"Domat/Ems","shortName":"Domat/Ems"},"district":{"key":"1844","name":"Region Imboden"},"canton":{"key":"18","code":"GR","name":"Graubünden / Grigioni / Grischun"},"status":"Real"},{"key":"10061375","name":"Tardels","postalCode":"7013","locality":"Domat/Ems","commune":{"key":"3722","name":"Domat/Ems","shortName":"Domat/Ems"},"district":{"key":"1844","name":"Region Imboden"},"canton":{"key":"18","code":"GR","name":"Graubünden / Grigioni / Grischun"},"status":"Real"},{"key":"10026650","name":"Tircal","postalCode":"7013","locality":"Domat/Ems","commune":{"key":"3722","name":"Domat/Ems","shortName":"Domat/Ems"},"district":{"key":"1844","name":"Region Imboden"},"canton":{"key":"18","code":"GR","name":"Graubünden / Grigioni / Grischun"},"status":"Real"},{"key":"10216519","name":"Trutg","postalCode":"7013","locality":"Domat/Ems","commune":{"key":"3722","name":"Domat/Ems","shortName":"Domat/Ems"},"district":{"key":"1844","name":"Region Imboden"},"canton":{"key":"18","code":"GR","name":"Graubünden / Grigioni / Grischun"},"status":"Real"},{"key":"10026651","name":"Val Mulingas","postalCode":"7013","locality":"Domat/Ems","commune":{"key":"3722","name":"Domat/Ems","shortName":"Domat/Ems"},"district":{"key":"1844","name":"Region Imboden"},"canton":{"key":"18","code":"GR","name":"Graubünden / Grigioni / Grischun"},"status":"Real"},{"key":"10072170","name":"Val Purchera","postalCode":"7013","locality":"Domat/Ems","commune":{"key":"3722","name":"Domat/Ems","shortName":"Domat/Ems"},"district":{"key":"1844","name":"Region Imboden"},"canton":{"key":"18","code":"GR","name":"Graubünden / Grigioni / Grischun"},"status":"Real"},{"key":"10151041","name":"Via Ardisla","postalCode":"7013","locality":"Domat/Ems","commune":{"key":"3722","name":"Domat/Ems","shortName":"Domat/Ems"},"district":{"key":"1844","name":"Region Imboden"},"canton":{"key":"18","code":"GR","name":"Graubünden / Grigioni / Grischun"},"status":"Real"},{"key":"10097438","name":"Via Baselga","postalCode":"7013","locality":"Domat/Ems","commune":{"key":"3722","name":"Domat/Ems","shortName":"Domat/Ems"},"district":{"key":"1844","name":"Region Imboden"},"canton":{"key":"18","code":"GR","name":"Graubünden / Grigioni / Grischun"},"status":"Real"},{"key":"10124004","name":"Via Bavurca","postalCode":"7013","locality":"Domat/Ems","commune":{"key":"3722","name":"Domat/Ems","shortName":"Domat/Ems"},"district":{"key":"1844","name":"Region Imboden"},"canton":{"key":"18","code":"GR","name":"Graubünden / Grigioni / Grischun"},"status":"Real"},{"key":"10176770","name":"Via Burgaisa","postalCode":"7013","locality":"Domat/Ems","commune":{"key":"3722","name":"Domat/Ems","shortName":"Domat/Ems"},"district":{"key":"1844","name":"Region Imboden"},"canton":{"key":"18","code":"GR","name":"Graubünden / Grigioni / Grischun"},"status":"Real"},{"key":"10191146","name":"Via Caguils","postalCode":"7013","locality":"Domat/Ems","commune":{"key":"3722","name":"Domat/Ems","shortName":"Domat/Ems"},"district":{"key":"1844","name":"Region Imboden"},"canton":{"key":"18","code":"GR","name":"Graubünden / Grigioni / Grischun"},"status":"Real"},{"key":"10250521","name":"Via Calanca","postalCode":"7013","locality":"Domat/Ems","commune":{"key":"3722","name":"Domat/Ems","shortName":"Domat/Ems"},"district":{"key":"1844","name":"Region Imboden"},"canton":{"key":"18","code":"GR","name":"Graubünden / Grigioni / Grischun"},"status":"Real"},{"key":"10108184","name":"Via Calanda","postalCode":"7013","locality":"Domat/Ems","commune":{"key":"3722","name":"Domat/Ems","shortName":"Domat/Ems"},"district":{"key":"1844","name":"Region Imboden"},"canton":{"key":"18","code":"GR","name":"Graubünden / Grigioni / Grischun"},"status":"Real"},{"key":"10097439","name":"Via Calundis","postalCode":"7013","locality":"Domat/Ems","commune":{"key":"3722","name":"Domat/Ems","shortName":"Domat/Ems"},"district":{"key":"1844","name":"Region Imboden"},"canton":{"key":"18","code":"GR","name":"Graubünden / Grigioni / Grischun"},"status":"Real"},{"key":"10068060","name":"Via Carpera","postalCode":"7013","locality":"Domat/Ems","commune":{"key":"3722","name":"Domat/Ems","shortName":"Domat/Ems"},"district":{"key":"1844","name":"Region Imboden"},"canton":{"key":"18","code":"GR","name":"Graubünden / Grigioni / Grischun"},"status":"Real"},{"key":"10026652","name":"Via Carpusa","postalCode":"7013","locality":"Domat/Ems","commune":{"key":"3722","name":"Domat/Ems","shortName":"Domat/Ems"},"district":{"key":"1844","name":"Region Imboden"},"canton":{"key":"18","code":"GR","name":"Graubünden / Grigioni / Grischun"},"status":"Real"},{"key":"10124000","name":"Via Carrera","postalCode":"7013","locality":"Domat/Ems","commune":{"key":"3722","name":"Domat/Ems","shortName":"Domat/Ems"},"district":{"key":"1844","name":"Region Imboden"},"canton":{"key":"18","code":"GR","name":"Graubünden / Grigioni / Grischun"},"status":"Real"},{"key":"10176477","name":"Via Cisterna","postalCode":"7013","locality":"Domat/Ems","commune":{"key":"3722","name":"Domat/Ems","shortName":"Domat/Ems"},"district":{"key":"1844","name":"Region Imboden"},"canton":{"key":"18","code":"GR","name":"Graubünden / Grigioni / Grischun"},"status":"Real"},{"key":"10026653","name":"Via Coller","postalCode":"7013","locality":"Domat/Ems","commune":{"key":"3722","name":"Domat/Ems","shortName":"Domat/Ems"},"district":{"key":"1844","name":"Region Imboden"},"canton":{"key":"18","code":"GR","name":"Graubünden / Grigioni / Grischun"},"status":"Real"},{"key":"10097440","name":"Via Concordia","postalCode":"7013","locality":"Domat/Ems","commune":{"key":"3722","name":"Domat/Ems","shortName":"Domat/Ems"},"district":{"key":"1844","name":"Region Imboden"},"canton":{"key":"18","code":"GR","name":"Graubünden / Grigioni / Grischun"},"status":"Real"},{"key":"10068061","name":"Via Crusch","postalCode":"7013","locality":"Domat/Ems","commune":{"key":"3722","name":"Domat/Ems","shortName":"Domat/Ems"},"district":{"key":"1844","name":"Region Imboden"},"canton":{"key":"18","code":"GR","name":"Graubünden / Grigioni / Grischun"},"status":"Real"},{"key":"10026654","name":"Via Cunclas","postalCode":"7013","locality":"Domat/Ems","commune":{"key":"3722","name":"Domat/Ems","shortName":"Domat/Ems"},"district":{"key":"1844","name":"Region Imboden"},"canton":{"key":"18","code":"GR","name":"Graubünden / Grigioni / Grischun"},"status":"Real"},{"key":"10026655","name":"Via Curta","postalCode":"7013","locality":"Domat/Ems","commune":{"key":"3722","name":"Domat/Ems","shortName":"Domat/Ems"},"district":{"key":"1844","name":"Region Imboden"},"canton":{"key":"18","code":"GR","name":"Graubünden / Grigioni / Grischun"},"status":"Real"},{"key":"10026656","name":"Via Cuschas","postalCode":"7013","locality":"Domat/Ems","commune":{"key":"3722","name":"Domat/Ems","shortName":"Domat/Ems"},"district":{"key":"1844","name":"Region Imboden"},"canton":{"key":"18","code":"GR","name":"Graubünden / Grigioni / Grischun"},"status":"Real"},{"key":"10026949","name":"Via da Munt","postalCode":"7013","locality":"Domat/Ems","commune":{"key":"3722","name":"Domat/Ems","shortName":"Domat/Ems"},"district":{"key":"1844","name":"Region Imboden"},"canton":{"key":"18","code":"GR","name":"Graubünden / Grigioni / Grischun"},"status":"Real"},{"key":"10040325","name":"Via Falveng","postalCode":"7013","locality":"Domat/Ems","commune":{"key":"3722","name":"Domat/Ems","shortName":"Domat/Ems"},"district":{"key":"1844","name":"Region Imboden"},"canton":{"key":"18","code":"GR","name":"Graubünden / Grigioni / Grischun"},"status":"Real"},{"key":"10026657","name":"Via Faveras","postalCode":"7013","locality":"Domat/Ems","commune":{"key":"3722","name":"Domat/Ems","shortName":"Domat/Ems"},"district":{"key":"1844","name":"Region Imboden"},"canton":{"key":"18","code":"GR","name":"Graubünden / Grigioni / Grischun"},"status":"Real"},{"key":"10124005","name":"Via Flucs","postalCode":"7013","locality":"Domat/Ems","commune":{"key":"3722","name":"Domat/Ems","shortName":"Domat/Ems"},"district":{"key":"1844","name":"Region Imboden"},"canton":{"key":"18","code":"GR","name":"Graubünden / Grigioni / Grischun"},"status":"Real"},{"key":"10068062","name":"Via Fravi","postalCode":"7013","locality":"Domat/Ems","commune":{"key":"3722","name":"Domat/Ems","shortName":"Domat/Ems"},"district":{"key":"1844","name":"Region Imboden"},"canton":{"key":"18","code":"GR","name":"Graubünden / Grigioni / Grischun"},"status":"Real"},{"key":"10191865","name":"Via Froslas","postalCode":"7013","locality":"Domat/Ems","commune":{"key":"3722","name":"Domat/Ems","shortName":"Domat/Ems"},"district":{"key":"1844","name":"Region Imboden"},"canton":{"key":"18","code":"GR","name":"Graubünden / Grigioni / Grischun"},"status":"Real"},{"key":"10186974","name":"Via Giuvs","postalCode":"7013","locality":"Domat/Ems","commune":{"key":"3722","name":"Domat/Ems","shortName":"Domat/Ems"},"district":{"key":"1844","name":"Region Imboden"},"canton":{"key":"18","code":"GR","name":"Graubünden / Grigioni / Grischun"},"status":"Real"},{"key":"10026658","name":"Via Gletsch","postalCode":"7013","locality":"Domat/Ems","commune":{"key":"3722","name":"Domat/Ems","shortName":"Domat/Ems"},"district":{"key":"1844","name":"Region Imboden"},"canton":{"key":"18","code":"GR","name":"Graubünden / Grigioni / Grischun"},"status":"Real"},{"key":"10040326","name":"Via Haidel","postalCode":"7013","locality":"Domat/Ems","commune":{"key":"3722","name":"Domat/Ems","shortName":"Domat/Ems"},"district":{"key":"1844","name":"Region Imboden"},"canton":{"key":"18","code":"GR","name":"Graubünden / Grigioni / Grischun"},"status":"Real"},{"key":"10177092","name":"Via Innovativa","postalCode":"7013","locality":"Domat/Ems","commune":{"key":"3722","name":"Domat/Ems","shortName":"Domat/Ems"},"district":{"key":"1844","name":"Region Imboden"},"canton":{"key":"18","code":"GR","name":"Graubünden / Grigioni / Grischun"},"status":"Real"},{"key":"10255944","name":"Via Isola","postalCode":"7013","locality":"Domat/Ems","commune":{"key":"3722","name":"Domat/Ems","shortName":"Domat/Ems"},"district":{"key":"1844","name":"Region Imboden"},"canton":{"key":"18","code":"GR","name":"Graubünden / Grigioni / Grischun"},"status":"Real"},{"key":"10162142","name":"Vial","postalCode":"7013","locality":"Domat/Ems","commune":{"key":"3722","name":"Domat/Ems","shortName":"Domat/Ems"},"district":{"key":"1844","name":"Region Imboden"},"canton":{"key":"18","code":"GR","name":"Graubünden / Grigioni / Grischun"},"status":"Real"},{"key":"10176478","name":"Via Lagher","postalCode":"7013","locality":"Domat/Ems","commune":{"key":"3722","name":"Domat/Ems","shortName":"Domat/Ems"},"district":{"key":"1844","name":"Region Imboden"},"canton":{"key":"18","code":"GR","name":"Graubünden / Grigioni / Grischun"},"status":"Real"},{"key":"10210202","name":"Via Lavada","postalCode":"7013","locality":"Domat/Ems","commune":{"key":"3722","name":"Domat/Ems","shortName":"Domat/Ems"},"district":{"key":"1844","name":"Region Imboden"},"canton":{"key":"18","code":"GR","name":"Graubünden / Grigioni / Grischun"},"status":"Real"},{"key":"10026659","name":"Via la Val","postalCode":"7013","locality":"Domat/Ems","commune":{"key":"3722","name":"Domat/Ems","shortName":"Domat/Ems"},"district":{"key":"1844","name":"Region Imboden"},"canton":{"key":"18","code":"GR","name":"Graubünden / Grigioni / Grischun"},"status":"Real"},{"key":"10040327","name":"Via Lucmagn","postalCode":"7013","locality":"Domat/Ems","commune":{"key":"3722","name":"Domat/Ems","shortName":"Domat/Ems"},"district":{"key":"1844","name":"Region Imboden"},"canton":{"key":"18","code":"GR","name":"Graubünden / Grigioni / Grischun"},"status":"Real"},{"key":"10068063","name":"Via Marchesa","postalCode":"7013","locality":"Domat/Ems","commune":{"key":"3722","name":"Domat/Ems","shortName":"Domat/Ems"},"district":{"key":"1844","name":"Region Imboden"},"canton":{"key":"18","code":"GR","name":"Graubünden / Grigioni / Grischun"},"status":"Real"},{"key":"10117378","name":"Via Montalin","postalCode":"7013","locality":"Domat/Ems","commune":{"key":"3722","name":"Domat/Ems","shortName":"Domat/Ems"},"district":{"key":"1844","name":"Region Imboden"},"canton":{"key":"18","code":"GR","name":"Graubünden / Grigioni / Grischun"},"status":"Real"},{"key":"10129803","name":"Via Muling","postalCode":"7013","locality":"Domat/Ems","commune":{"key":"3722","name":"Domat/Ems","shortName":"Domat/Ems"},"district":{"key":"1844","name":"Region Imboden"},"canton":{"key":"18","code":"GR","name":"Graubünden / Grigioni / Grischun"},"status":"Real"},{"key":"10123992","name":"Via Musel","postalCode":"7013","locality":"Domat/Ems","commune":{"key":"3722","name":"Domat/Ems","shortName":"Domat/Ems"},"district":{"key":"1844","name":"Region Imboden"},"canton":{"key":"18","code":"GR","name":"Graubünden / Grigioni / Grischun"},"status":"Real"},{"key":"10124034","name":"Via Navinal","postalCode":"7013","locality":"Domat/Ems","commune":{"key":"3722","name":"Domat/Ems","shortName":"Domat/Ems"},"district":{"key":"1844","name":"Region Imboden"},"canton":{"key":"18","code":"GR","name":"Graubünden / Grigioni / Grischun"},"status":"Real"},{"key":"10096422","name":"Via Nitscholas","postalCode":"7013","locality":"Domat/Ems","commune":{"key":"3722","name":"Domat/Ems","shortName":"Domat/Ems"},"district":{"key":"1844","name":"Region Imboden"},"canton":{"key":"18","code":"GR","name":"Graubünden / Grigioni / Grischun"},"status":"Real"},{"key":"10026660","name":"Via Nova","postalCode":"7013","locality":"Domat/Ems","commune":{"key":"3722","name":"Domat/Ems","shortName":"Domat/Ems"},"district":{"key":"1844","name":"Region Imboden"},"canton":{"key":"18","code":"GR","name":"Graubünden / Grigioni / Grischun"},"status":"Real"},{"key":"10191147","name":"Via Padrusa","postalCode":"7013","locality":"Domat/Ems","commune":{"key":"3722","name":"Domat/Ems","shortName":"Domat/Ems"},"district":{"key":"1844","name":"Region Imboden"},"canton":{"key":"18","code":"GR","name":"Graubünden / Grigioni / Grischun"},"status":"Real"},{"key":"10040328","name":"Via Pizokel","postalCode":"7013","locality":"Domat/Ems","commune":{"key":"3722","name":"Domat/Ems","shortName":"Domat/Ems"},"district":{"key":"1844","name":"Region Imboden"},"canton":{"key":"18","code":"GR","name":"Graubünden / Grigioni / Grischun"},"status":"Real"},{"key":"10068064","name":"Via Plarenga","postalCode":"7013","locality":"Domat/Ems","commune":{"key":"3722","name":"Domat/Ems","shortName":"Domat/Ems"},"district":{"key":"1844","name":"Region Imboden"},"canton":{"key":"18","code":"GR","name":"Graubünden / Grigioni / Grischun"},"status":"Real"},{"key":"10123768","name":"Via Plaz Cumpogna","postalCode":"7013","locality":"Domat/Ems","commune":{"key":"3722","name":"Domat/Ems","shortName":"Domat/Ems"},"district":{"key":"1844","name":"Region Imboden"},"canton":{"key":"18","code":"GR","name":"Graubünden / Grigioni / Grischun"},"status":"Real"},{"key":"10248191","name":"Via Pumera","postalCode":"7013","locality":"Domat/Ems","commune":{"key":"3722","name":"Domat/Ems","shortName":"Domat/Ems"},"district":{"key":"1844","name":"Region Imboden"},"canton":{"key":"18","code":"GR","name":"Graubünden / Grigioni / Grischun"},"status":"Real"},{"key":"10040329","name":"Via Quadras","postalCode":"7013","locality":"Domat/Ems","commune":{"key":"3722","name":"Domat/Ems","shortName":"Domat/Ems"},"district":{"key":"1844","name":"Region Imboden"},"canton":{"key":"18","code":"GR","name":"Graubünden / Grigioni / Grischun"},"status":"Real"},{"key":"10026661","name":"Via Rezia","postalCode":"7013","locality":"Domat/Ems","commune":{"key":"3722","name":"Domat/Ems","shortName":"Domat/Ems"},"district":{"key":"1844","name":"Region Imboden"},"canton":{"key":"18","code":"GR","name":"Graubünden / Grigioni / Grischun"},"status":"Real"},{"key":"10026950","name":"Wulftieni","postalCode":"7013","locality":"Domat/Ems","commune":{"key":"3722","name":"Domat/Ems","shortName":"Domat/Ems"},"district":{"key":"1844","name":"Region Imboden"},"canton":{"key":"18","code":"GR","name":"Graubünden / Grigioni / Grischun"},"status":"Real"},]