[{"name":"Am Bahnhof","postalCode":"24376","locality":"Grödersby","municipality":{"key":"01059034","name":"Grödersby","type":"Kreisangehörige_Gemeinde"},"district":{"key":"01059","name":"Schleswig-Flensburg","type":"Kreis"},"federalState":{"key":"01","name":"Schleswig-Holstein"}},{"name":"An de Bydiek","postalCode":"24376","locality":"Grödersby","municipality":{"key":"01059034","name":"Grödersby","type":"Kreisangehörige_Gemeinde"},"district":{"key":"01059","name":"Schleswig-Flensburg","type":"Kreis"},"federalState":{"key":"01","name":"Schleswig-Holstein"}},{"name":"Dorfstr.","postalCode":"24376","locality":"Grödersby","municipality":{"key":"01059034","name":"Grödersby","type":"Kreisangehörige_Gemeinde"},"district":{"key":"01059","name":"Schleswig-Flensburg","type":"Kreis"},"federalState":{"key":"01","name":"Schleswig-Holstein"}},{"name":"Friedenshöher Str.","postalCode":"24376","locality":"Grödersby","municipality":{"key":"01059034","name":"Grödersby","type":"Kreisangehörige_Gemeinde"},"district":{"key":"01059","name":"Schleswig-Flensburg","type":"Kreis"},"federalState":{"key":"01","name":"Schleswig-Holstein"}},{"name":"Goosstraat","postalCode":"24376","locality":"Grödersby","municipality":{"key":"01059034","name":"Grödersby","type":"Kreisangehörige_Gemeinde"},"district":{"key":"01059","name":"Schleswig-Flensburg","type":"Kreis"},"federalState":{"key":"01","name":"Schleswig-Holstein"}},{"name":"Habertwedt","postalCode":"24376","locality":"Grödersby","municipality":{"key":"01059034","name":"Grödersby","type":"Kreisangehörige_Gemeinde"},"district":{"key":"01059","name":"Schleswig-Flensburg","type":"Kreis"},"federalState":{"key":"01","name":"Schleswig-Holstein"}},{"name":"Königstein","postalCode":"24376","locality":"Grödersby","municipality":{"key":"01059034","name":"Grödersby","type":"Kreisangehörige_Gemeinde"},"district":{"key":"01059","name":"Schleswig-Flensburg","type":"Kreis"},"federalState":{"key":"01","name":"Schleswig-Holstein"}},{"name":"Königsteiner Str.","postalCode":"24376","locality":"Grödersby","municipality":{"key":"01059034","name":"Grödersby","type":"Kreisangehörige_Gemeinde"},"district":{"key":"01059","name":"Schleswig-Flensburg","type":"Kreis"},"federalState":{"key":"01","name":"Schleswig-Holstein"}},{"name":"Marienhof","postalCode":"24376","locality":"Grödersby","municipality":{"key":"01059034","name":"Grödersby","type":"Kreisangehörige_Gemeinde"},"district":{"key":"01059","name":"Schleswig-Flensburg","type":"Kreis"},"federalState":{"key":"01","name":"Schleswig-Holstein"}},{"name":"Marienhof","postalCode":"24399","locality":"Grödersby","municipality":{"key":"01059034","name":"Grödersby","type":"Kreisangehörige_Gemeinde"},"district":{"key":"01059","name":"Schleswig-Flensburg","type":"Kreis"},"federalState":{"key":"01","name":"Schleswig-Holstein"}},{"name":"Marienhofer Weg","postalCode":"24376","locality":"Grödersby","municipality":{"key":"01059034","name":"Grödersby","type":"Kreisangehörige_Gemeinde"},"district":{"key":"01059","name":"Schleswig-Flensburg","type":"Kreis"},"federalState":{"key":"01","name":"Schleswig-Holstein"}},{"name":"Mooser Weg","postalCode":"24376","locality":"Grödersby","municipality":{"key":"01059034","name":"Grödersby","type":"Kreisangehörige_Gemeinde"},"district":{"key":"01059","name":"Schleswig-Flensburg","type":"Kreis"},"federalState":{"key":"01","name":"Schleswig-Holstein"}},{"name":"Mühlenholz","postalCode":"24376","locality":"Grödersby","municipality":{"key":"01059034","name":"Grödersby","type":"Kreisangehörige_Gemeinde"},"district":{"key":"01059","name":"Schleswig-Flensburg","type":"Kreis"},"federalState":{"key":"01","name":"Schleswig-Holstein"}},{"name":"Mühlenstr.","postalCode":"24376","locality":"Grödersby","municipality":{"key":"01059034","name":"Grödersby","type":"Kreisangehörige_Gemeinde"},"district":{"key":"01059","name":"Schleswig-Flensburg","type":"Kreis"},"federalState":{"key":"01","name":"Schleswig-Holstein"}},{"name":"Teufelsbrücke","postalCode":"24376","locality":"Grödersby","municipality":{"key":"01059034","name":"Grödersby","type":"Kreisangehörige_Gemeinde"},"district":{"key":"01059","name":"Schleswig-Flensburg","type":"Kreis"},"federalState":{"key":"01","name":"Schleswig-Holstein"}},{"name":"Westerlücken","postalCode":"24376","locality":"Grödersby","municipality":{"key":"01059034","name":"Grödersby","type":"Kreisangehörige_Gemeinde"},"district":{"key":"01059","name":"Schleswig-Flensburg","type":"Kreis"},"federalState":{"key":"01","name":"Schleswig-Holstein"}},]