[{"name":"Altestr.","postalCode":"56575","locality":"Weißenthurm","municipality":{"key":"07137228","name":"Weißenthurm, Stadt","type":"Stadt"},"district":{"key":"07137","name":"Mayen-Koblenz","type":"Landkreis"},"federalState":{"key":"07","name":"Rheinland-Pfalz"}},{"name":"Am Eisernen Mann","postalCode":"56575","locality":"Weißenthurm","municipality":{"key":"07137228","name":"Weißenthurm, Stadt","type":"Stadt"},"district":{"key":"07137","name":"Mayen-Koblenz","type":"Landkreis"},"federalState":{"key":"07","name":"Rheinland-Pfalz"}},{"name":"Am Glückauf","postalCode":"56575","locality":"Weißenthurm","municipality":{"key":"07137228","name":"Weißenthurm, Stadt","type":"Stadt"},"district":{"key":"07137","name":"Mayen-Koblenz","type":"Landkreis"},"federalState":{"key":"07","name":"Rheinland-Pfalz"}},{"name":"Am Hoche","postalCode":"56575","locality":"Weißenthurm","municipality":{"key":"07137228","name":"Weißenthurm, Stadt","type":"Stadt"},"district":{"key":"07137","name":"Mayen-Koblenz","type":"Landkreis"},"federalState":{"key":"07","name":"Rheinland-Pfalz"}},{"name":"Am Kahlenberg","postalCode":"56575","locality":"Weißenthurm","municipality":{"key":"07137228","name":"Weißenthurm, Stadt","type":"Stadt"},"district":{"key":"07137","name":"Mayen-Koblenz","type":"Landkreis"},"federalState":{"key":"07","name":"Rheinland-Pfalz"}},{"name":"Am Nette-Gut","postalCode":"56575","locality":"Weißenthurm","municipality":{"key":"07137228","name":"Weißenthurm, Stadt","type":"Stadt"},"district":{"key":"07137","name":"Mayen-Koblenz","type":"Landkreis"},"federalState":{"key":"07","name":"Rheinland-Pfalz"}},{"name":"Am Wasserturm","postalCode":"56575","locality":"Weißenthurm","municipality":{"key":"07137228","name":"Weißenthurm, Stadt","type":"Stadt"},"district":{"key":"07137","name":"Mayen-Koblenz","type":"Landkreis"},"federalState":{"key":"07","name":"Rheinland-Pfalz"}},{"name":"Am Werkmeisterhaus","postalCode":"56575","locality":"Weißenthurm","municipality":{"key":"07137228","name":"Weißenthurm, Stadt","type":"Stadt"},"district":{"key":"07137","name":"Mayen-Koblenz","type":"Landkreis"},"federalState":{"key":"07","name":"Rheinland-Pfalz"}},{"name":"Andernacher Str.","postalCode":"56575","locality":"Weißenthurm","municipality":{"key":"07137228","name":"Weißenthurm, Stadt","type":"Stadt"},"district":{"key":"07137","name":"Mayen-Koblenz","type":"Landkreis"},"federalState":{"key":"07","name":"Rheinland-Pfalz"}},{"name":"Annastr.","postalCode":"56575","locality":"Weißenthurm","municipality":{"key":"07137228","name":"Weißenthurm, Stadt","type":"Stadt"},"district":{"key":"07137","name":"Mayen-Koblenz","type":"Landkreis"},"federalState":{"key":"07","name":"Rheinland-Pfalz"}},{"name":"Antoniusstr.","postalCode":"56575","locality":"Weißenthurm","municipality":{"key":"07137228","name":"Weißenthurm, Stadt","type":"Stadt"},"district":{"key":"07137","name":"Mayen-Koblenz","type":"Landkreis"},"federalState":{"key":"07","name":"Rheinland-Pfalz"}},{"name":"Arkenstr.","postalCode":"56575","locality":"Weißenthurm","municipality":{"key":"07137228","name":"Weißenthurm, Stadt","type":"Stadt"},"district":{"key":"07137","name":"Mayen-Koblenz","type":"Landkreis"},"federalState":{"key":"07","name":"Rheinland-Pfalz"}},{"name":"Auf der Ahr","postalCode":"56575","locality":"Weißenthurm","municipality":{"key":"07137228","name":"Weißenthurm, Stadt","type":"Stadt"},"district":{"key":"07137","name":"Mayen-Koblenz","type":"Landkreis"},"federalState":{"key":"07","name":"Rheinland-Pfalz"}},{"name":"Auf der Bünn","postalCode":"56575","locality":"Weißenthurm","municipality":{"key":"07137228","name":"Weißenthurm, Stadt","type":"Stadt"},"district":{"key":"07137","name":"Mayen-Koblenz","type":"Landkreis"},"federalState":{"key":"07","name":"Rheinland-Pfalz"}},{"name":"Auf der Ley","postalCode":"56575","locality":"Weißenthurm","municipality":{"key":"07137228","name":"Weißenthurm, Stadt","type":"Stadt"},"district":{"key":"07137","name":"Mayen-Koblenz","type":"Landkreis"},"federalState":{"key":"07","name":"Rheinland-Pfalz"}},{"name":"Auf der Stier","postalCode":"56575","locality":"Weißenthurm","municipality":{"key":"07137228","name":"Weißenthurm, Stadt","type":"Stadt"},"district":{"key":"07137","name":"Mayen-Koblenz","type":"Landkreis"},"federalState":{"key":"07","name":"Rheinland-Pfalz"}},{"name":"Bahnhofstr.","postalCode":"56575","locality":"Weißenthurm","municipality":{"key":"07137228","name":"Weißenthurm, Stadt","type":"Stadt"},"district":{"key":"07137","name":"Mayen-Koblenz","type":"Landkreis"},"federalState":{"key":"07","name":"Rheinland-Pfalz"}},{"name":"Becherstr.","postalCode":"56575","locality":"Weißenthurm","municipality":{"key":"07137228","name":"Weißenthurm, Stadt","type":"Stadt"},"district":{"key":"07137","name":"Mayen-Koblenz","type":"Landkreis"},"federalState":{"key":"07","name":"Rheinland-Pfalz"}},{"name":"Berliner Str.","postalCode":"56575","locality":"Weißenthurm","municipality":{"key":"07137228","name":"Weißenthurm, Stadt","type":"Stadt"},"district":{"key":"07137","name":"Mayen-Koblenz","type":"Landkreis"},"federalState":{"key":"07","name":"Rheinland-Pfalz"}},{"name":"Bethelstr.","postalCode":"56575","locality":"Weißenthurm","municipality":{"key":"07137228","name":"Weißenthurm, Stadt","type":"Stadt"},"district":{"key":"07137","name":"Mayen-Koblenz","type":"Landkreis"},"federalState":{"key":"07","name":"Rheinland-Pfalz"}},{"name":"Blütenstr.","postalCode":"56575","locality":"Weißenthurm","municipality":{"key":"07137228","name":"Weißenthurm, Stadt","type":"Stadt"},"district":{"key":"07137","name":"Mayen-Koblenz","type":"Landkreis"},"federalState":{"key":"07","name":"Rheinland-Pfalz"}},{"name":"Breslauer Str.","postalCode":"56575","locality":"Weißenthurm","municipality":{"key":"07137228","name":"Weißenthurm, Stadt","type":"Stadt"},"district":{"key":"07137","name":"Mayen-Koblenz","type":"Landkreis"},"federalState":{"key":"07","name":"Rheinland-Pfalz"}},{"name":"Brückenstr.","postalCode":"56575","locality":"Weißenthurm","municipality":{"key":"07137228","name":"Weißenthurm, Stadt","type":"Stadt"},"district":{"key":"07137","name":"Mayen-Koblenz","type":"Landkreis"},"federalState":{"key":"07","name":"Rheinland-Pfalz"}},{"name":"Buchenstr.","postalCode":"56575","locality":"Weißenthurm","municipality":{"key":"07137228","name":"Weißenthurm, Stadt","type":"Stadt"},"district":{"key":"07137","name":"Mayen-Koblenz","type":"Landkreis"},"federalState":{"key":"07","name":"Rheinland-Pfalz"}},{"name":"Bürgermeister-Hubaleck-Str.","postalCode":"56575","locality":"Weißenthurm","municipality":{"key":"07137228","name":"Weißenthurm, Stadt","type":"Stadt"},"district":{"key":"07137","name":"Mayen-Koblenz","type":"Landkreis"},"federalState":{"key":"07","name":"Rheinland-Pfalz"}},{"name":"Courrières-Park","postalCode":"56575","locality":"Weißenthurm","municipality":{"key":"07137228","name":"Weißenthurm, Stadt","type":"Stadt"},"district":{"key":"07137","name":"Mayen-Koblenz","type":"Landkreis"},"federalState":{"key":"07","name":"Rheinland-Pfalz"}},{"name":"Dahlienstr.","postalCode":"56575","locality":"Weißenthurm","municipality":{"key":"07137228","name":"Weißenthurm, Stadt","type":"Stadt"},"district":{"key":"07137","name":"Mayen-Koblenz","type":"Landkreis"},"federalState":{"key":"07","name":"Rheinland-Pfalz"}},{"name":"Dammstr.","postalCode":"56575","locality":"Weißenthurm","municipality":{"key":"07137228","name":"Weißenthurm, Stadt","type":"Stadt"},"district":{"key":"07137","name":"Mayen-Koblenz","type":"Landkreis"},"federalState":{"key":"07","name":"Rheinland-Pfalz"}},{"name":"Danziger Str.","postalCode":"56575","locality":"Weißenthurm","municipality":{"key":"07137228","name":"Weißenthurm, Stadt","type":"Stadt"},"district":{"key":"07137","name":"Mayen-Koblenz","type":"Landkreis"},"federalState":{"key":"07","name":"Rheinland-Pfalz"}},{"name":"Dechant-Schmitt-Str.","postalCode":"56575","locality":"Weißenthurm","municipality":{"key":"07137228","name":"Weißenthurm, Stadt","type":"Stadt"},"district":{"key":"07137","name":"Mayen-Koblenz","type":"Landkreis"},"federalState":{"key":"07","name":"Rheinland-Pfalz"}},{"name":"Domstr.","postalCode":"56575","locality":"Weißenthurm","municipality":{"key":"07137228","name":"Weißenthurm, Stadt","type":"Stadt"},"district":{"key":"07137","name":"Mayen-Koblenz","type":"Landkreis"},"federalState":{"key":"07","name":"Rheinland-Pfalz"}},{"name":"Fährstr.","postalCode":"56575","locality":"Weißenthurm","municipality":{"key":"07137228","name":"Weißenthurm, Stadt","type":"Stadt"},"district":{"key":"07137","name":"Mayen-Koblenz","type":"Landkreis"},"federalState":{"key":"07","name":"Rheinland-Pfalz"}},{"name":"Falkenstr.","postalCode":"56575","locality":"Weißenthurm","municipality":{"key":"07137228","name":"Weißenthurm, Stadt","type":"Stadt"},"district":{"key":"07137","name":"Mayen-Koblenz","type":"Landkreis"},"federalState":{"key":"07","name":"Rheinland-Pfalz"}},{"name":"Fliederweg","postalCode":"56575","locality":"Weißenthurm","municipality":{"key":"07137228","name":"Weißenthurm, Stadt","type":"Stadt"},"district":{"key":"07137","name":"Mayen-Koblenz","type":"Landkreis"},"federalState":{"key":"07","name":"Rheinland-Pfalz"}},{"name":"Friedrich-Lohner-Str.","postalCode":"56575","locality":"Weißenthurm","municipality":{"key":"07137228","name":"Weißenthurm, Stadt","type":"Stadt"},"district":{"key":"07137","name":"Mayen-Koblenz","type":"Landkreis"},"federalState":{"key":"07","name":"Rheinland-Pfalz"}},{"name":"Friedrichstr.","postalCode":"56575","locality":"Weißenthurm","municipality":{"key":"07137228","name":"Weißenthurm, Stadt","type":"Stadt"},"district":{"key":"07137","name":"Mayen-Koblenz","type":"Landkreis"},"federalState":{"key":"07","name":"Rheinland-Pfalz"}},{"name":"Gartenstr.","postalCode":"56575","locality":"Weißenthurm","municipality":{"key":"07137228","name":"Weißenthurm, Stadt","type":"Stadt"},"district":{"key":"07137","name":"Mayen-Koblenz","type":"Landkreis"},"federalState":{"key":"07","name":"Rheinland-Pfalz"}},{"name":"Goethestr.","postalCode":"56575","locality":"Weißenthurm","municipality":{"key":"07137228","name":"Weißenthurm, Stadt","type":"Stadt"},"district":{"key":"07137","name":"Mayen-Koblenz","type":"Landkreis"},"federalState":{"key":"07","name":"Rheinland-Pfalz"}},{"name":"Grabenstr.","postalCode":"56575","locality":"Weißenthurm","municipality":{"key":"07137228","name":"Weißenthurm, Stadt","type":"Stadt"},"district":{"key":"07137","name":"Mayen-Koblenz","type":"Landkreis"},"federalState":{"key":"07","name":"Rheinland-Pfalz"}},{"name":"Grüner Weg","postalCode":"56575","locality":"Weißenthurm","municipality":{"key":"07137228","name":"Weißenthurm, Stadt","type":"Stadt"},"district":{"key":"07137","name":"Mayen-Koblenz","type":"Landkreis"},"federalState":{"key":"07","name":"Rheinland-Pfalz"}},{"name":"Hafenstr.","postalCode":"56575","locality":"Weißenthurm","municipality":{"key":"07137228","name":"Weißenthurm, Stadt","type":"Stadt"},"district":{"key":"07137","name":"Mayen-Koblenz","type":"Landkreis"},"federalState":{"key":"07","name":"Rheinland-Pfalz"}},{"name":"Hauptstr.","postalCode":"56575","locality":"Weißenthurm","municipality":{"key":"07137228","name":"Weißenthurm, Stadt","type":"Stadt"},"district":{"key":"07137","name":"Mayen-Koblenz","type":"Landkreis"},"federalState":{"key":"07","name":"Rheinland-Pfalz"}},{"name":"Hermannstr.","postalCode":"56575","locality":"Weißenthurm","municipality":{"key":"07137228","name":"Weißenthurm, Stadt","type":"Stadt"},"district":{"key":"07137","name":"Mayen-Koblenz","type":"Landkreis"},"federalState":{"key":"07","name":"Rheinland-Pfalz"}},{"name":"Honiggasse","postalCode":"56575","locality":"Weißenthurm","municipality":{"key":"07137228","name":"Weißenthurm, Stadt","type":"Stadt"},"district":{"key":"07137","name":"Mayen-Koblenz","type":"Landkreis"},"federalState":{"key":"07","name":"Rheinland-Pfalz"}},{"name":"Hubaleck-Siedlung","postalCode":"56575","locality":"Weißenthurm","municipality":{"key":"07137228","name":"Weißenthurm, Stadt","type":"Stadt"},"district":{"key":"07137","name":"Mayen-Koblenz","type":"Landkreis"},"federalState":{"key":"07","name":"Rheinland-Pfalz"}},{"name":"Im Berg","postalCode":"56575","locality":"Weißenthurm","municipality":{"key":"07137228","name":"Weißenthurm, Stadt","type":"Stadt"},"district":{"key":"07137","name":"Mayen-Koblenz","type":"Landkreis"},"federalState":{"key":"07","name":"Rheinland-Pfalz"}},{"name":"Im Freundsborn","postalCode":"56575","locality":"Weißenthurm","municipality":{"key":"07137228","name":"Weißenthurm, Stadt","type":"Stadt"},"district":{"key":"07137","name":"Mayen-Koblenz","type":"Landkreis"},"federalState":{"key":"07","name":"Rheinland-Pfalz"}},{"name":"Im Wohnpark Nette","postalCode":"56575","locality":"Weißenthurm","municipality":{"key":"07137228","name":"Weißenthurm, Stadt","type":"Stadt"},"district":{"key":"07137","name":"Mayen-Koblenz","type":"Landkreis"},"federalState":{"key":"07","name":"Rheinland-Pfalz"}},{"name":"Jahnstr.","postalCode":"56575","locality":"Weißenthurm","municipality":{"key":"07137228","name":"Weißenthurm, Stadt","type":"Stadt"},"district":{"key":"07137","name":"Mayen-Koblenz","type":"Landkreis"},"federalState":{"key":"07","name":"Rheinland-Pfalz"}},{"name":"Jakob-Bubser-Str.","postalCode":"56575","locality":"Weißenthurm","municipality":{"key":"07137228","name":"Weißenthurm, Stadt","type":"Stadt"},"district":{"key":"07137","name":"Mayen-Koblenz","type":"Landkreis"},"federalState":{"key":"07","name":"Rheinland-Pfalz"}},{"name":"Kapellenstr.","postalCode":"56575","locality":"Weißenthurm","municipality":{"key":"07137228","name":"Weißenthurm, Stadt","type":"Stadt"},"district":{"key":"07137","name":"Mayen-Koblenz","type":"Landkreis"},"federalState":{"key":"07","name":"Rheinland-Pfalz"}},{"name":"Kärlicherstr.","postalCode":"56575","locality":"Weißenthurm","municipality":{"key":"07137228","name":"Weißenthurm, Stadt","type":"Stadt"},"district":{"key":"07137","name":"Mayen-Koblenz","type":"Landkreis"},"federalState":{"key":"07","name":"Rheinland-Pfalz"}},{"name":"Karlstr.","postalCode":"56575","locality":"Weißenthurm","municipality":{"key":"07137228","name":"Weißenthurm, Stadt","type":"Stadt"},"district":{"key":"07137","name":"Mayen-Koblenz","type":"Landkreis"},"federalState":{"key":"07","name":"Rheinland-Pfalz"}},{"name":"Kettiger Str.","postalCode":"56575","locality":"Weißenthurm","municipality":{"key":"07137228","name":"Weißenthurm, Stadt","type":"Stadt"},"district":{"key":"07137","name":"Mayen-Koblenz","type":"Landkreis"},"federalState":{"key":"07","name":"Rheinland-Pfalz"}},{"name":"Kirchstr.","postalCode":"56575","locality":"Weißenthurm","municipality":{"key":"07137228","name":"Weißenthurm, Stadt","type":"Stadt"},"district":{"key":"07137","name":"Mayen-Koblenz","type":"Landkreis"},"federalState":{"key":"07","name":"Rheinland-Pfalz"}},{"name":"Kolpingstr.","postalCode":"56575","locality":"Weißenthurm","municipality":{"key":"07137228","name":"Weißenthurm, Stadt","type":"Stadt"},"district":{"key":"07137","name":"Mayen-Koblenz","type":"Landkreis"},"federalState":{"key":"07","name":"Rheinland-Pfalz"}},{"name":"Landstr.","postalCode":"56575","locality":"Weißenthurm","municipality":{"key":"07137228","name":"Weißenthurm, Stadt","type":"Stadt"},"district":{"key":"07137","name":"Mayen-Koblenz","type":"Landkreis"},"federalState":{"key":"07","name":"Rheinland-Pfalz"}},{"name":"Langfuhr","postalCode":"56575","locality":"Weißenthurm","municipality":{"key":"07137228","name":"Weißenthurm, Stadt","type":"Stadt"},"district":{"key":"07137","name":"Mayen-Koblenz","type":"Landkreis"},"federalState":{"key":"07","name":"Rheinland-Pfalz"}},{"name":"Lerchenstr.","postalCode":"56575","locality":"Weißenthurm","municipality":{"key":"07137228","name":"Weißenthurm, Stadt","type":"Stadt"},"district":{"key":"07137","name":"Mayen-Koblenz","type":"Landkreis"},"federalState":{"key":"07","name":"Rheinland-Pfalz"}},{"name":"Leyheck","postalCode":"56575","locality":"Weißenthurm","municipality":{"key":"07137228","name":"Weißenthurm, Stadt","type":"Stadt"},"district":{"key":"07137","name":"Mayen-Koblenz","type":"Landkreis"},"federalState":{"key":"07","name":"Rheinland-Pfalz"}},{"name":"Lilienstr.","postalCode":"56575","locality":"Weißenthurm","municipality":{"key":"07137228","name":"Weißenthurm, Stadt","type":"Stadt"},"district":{"key":"07137","name":"Mayen-Koblenz","type":"Landkreis"},"federalState":{"key":"07","name":"Rheinland-Pfalz"}},{"name":"Lindenstr.","postalCode":"56575","locality":"Weißenthurm","municipality":{"key":"07137228","name":"Weißenthurm, Stadt","type":"Stadt"},"district":{"key":"07137","name":"Mayen-Koblenz","type":"Landkreis"},"federalState":{"key":"07","name":"Rheinland-Pfalz"}},{"name":"Ludwigstr.","postalCode":"56575","locality":"Weißenthurm","municipality":{"key":"07137228","name":"Weißenthurm, Stadt","type":"Stadt"},"district":{"key":"07137","name":"Mayen-Koblenz","type":"Landkreis"},"federalState":{"key":"07","name":"Rheinland-Pfalz"}},{"name":"Luisenhöhe","postalCode":"56575","locality":"Weißenthurm","municipality":{"key":"07137228","name":"Weißenthurm, Stadt","type":"Stadt"},"district":{"key":"07137","name":"Mayen-Koblenz","type":"Landkreis"},"federalState":{"key":"07","name":"Rheinland-Pfalz"}},{"name":"Marienstr.","postalCode":"56575","locality":"Weißenthurm","municipality":{"key":"07137228","name":"Weißenthurm, Stadt","type":"Stadt"},"district":{"key":"07137","name":"Mayen-Koblenz","type":"Landkreis"},"federalState":{"key":"07","name":"Rheinland-Pfalz"}},{"name":"Miesenheimer Weg","postalCode":"56575","locality":"Weißenthurm","municipality":{"key":"07137228","name":"Weißenthurm, Stadt","type":"Stadt"},"district":{"key":"07137","name":"Mayen-Koblenz","type":"Landkreis"},"federalState":{"key":"07","name":"Rheinland-Pfalz"}},{"name":"Mittelort-Siedlung","postalCode":"56575","locality":"Weißenthurm","municipality":{"key":"07137228","name":"Weißenthurm, Stadt","type":"Stadt"},"district":{"key":"07137","name":"Mayen-Koblenz","type":"Landkreis"},"federalState":{"key":"07","name":"Rheinland-Pfalz"}},{"name":"Mittelweg","postalCode":"56575","locality":"Weißenthurm","municipality":{"key":"07137228","name":"Weißenthurm, Stadt","type":"Stadt"},"district":{"key":"07137","name":"Mayen-Koblenz","type":"Landkreis"},"federalState":{"key":"07","name":"Rheinland-Pfalz"}},{"name":"Nelkenweg","postalCode":"56575","locality":"Weißenthurm","municipality":{"key":"07137228","name":"Weißenthurm, Stadt","type":"Stadt"},"district":{"key":"07137","name":"Mayen-Koblenz","type":"Landkreis"},"federalState":{"key":"07","name":"Rheinland-Pfalz"}},{"name":"Nettestr.","postalCode":"56575","locality":"Weißenthurm","municipality":{"key":"07137228","name":"Weißenthurm, Stadt","type":"Stadt"},"district":{"key":"07137","name":"Mayen-Koblenz","type":"Landkreis"},"federalState":{"key":"07","name":"Rheinland-Pfalz"}},{"name":"Neustr.","postalCode":"56575","locality":"Weißenthurm","municipality":{"key":"07137228","name":"Weißenthurm, Stadt","type":"Stadt"},"district":{"key":"07137","name":"Mayen-Koblenz","type":"Landkreis"},"federalState":{"key":"07","name":"Rheinland-Pfalz"}},{"name":"Neuwieder Weg","postalCode":"56575","locality":"Weißenthurm","municipality":{"key":"07137228","name":"Weißenthurm, Stadt","type":"Stadt"},"district":{"key":"07137","name":"Mayen-Koblenz","type":"Landkreis"},"federalState":{"key":"07","name":"Rheinland-Pfalz"}},{"name":"Obere Fährstr.","postalCode":"56575","locality":"Weißenthurm","municipality":{"key":"07137228","name":"Weißenthurm, Stadt","type":"Stadt"},"district":{"key":"07137","name":"Mayen-Koblenz","type":"Landkreis"},"federalState":{"key":"07","name":"Rheinland-Pfalz"}},{"name":"Ottostr.","postalCode":"56575","locality":"Weißenthurm","municipality":{"key":"07137228","name":"Weißenthurm, Stadt","type":"Stadt"},"district":{"key":"07137","name":"Mayen-Koblenz","type":"Landkreis"},"federalState":{"key":"07","name":"Rheinland-Pfalz"}},{"name":"Pielau","postalCode":"56575","locality":"Weißenthurm","municipality":{"key":"07137228","name":"Weißenthurm, Stadt","type":"Stadt"},"district":{"key":"07137","name":"Mayen-Koblenz","type":"Landkreis"},"federalState":{"key":"07","name":"Rheinland-Pfalz"}},{"name":"Raiffeisenstr.","postalCode":"56575","locality":"Weißenthurm","municipality":{"key":"07137228","name":"Weißenthurm, Stadt","type":"Stadt"},"district":{"key":"07137","name":"Mayen-Koblenz","type":"Landkreis"},"federalState":{"key":"07","name":"Rheinland-Pfalz"}},{"name":"Rheinblick-Siedlung","postalCode":"56575","locality":"Weißenthurm","municipality":{"key":"07137228","name":"Weißenthurm, Stadt","type":"Stadt"},"district":{"key":"07137","name":"Mayen-Koblenz","type":"Landkreis"},"federalState":{"key":"07","name":"Rheinland-Pfalz"}},{"name":"Rheinhell","postalCode":"56575","locality":"Weißenthurm","municipality":{"key":"07137228","name":"Weißenthurm, Stadt","type":"Stadt"},"district":{"key":"07137","name":"Mayen-Koblenz","type":"Landkreis"},"federalState":{"key":"07","name":"Rheinland-Pfalz"}},{"name":"Rheinufer","postalCode":"56575","locality":"Weißenthurm","municipality":{"key":"07137228","name":"Weißenthurm, Stadt","type":"Stadt"},"district":{"key":"07137","name":"Mayen-Koblenz","type":"Landkreis"},"federalState":{"key":"07","name":"Rheinland-Pfalz"}},{"name":"Rosensiedlung","postalCode":"56575","locality":"Weißenthurm","municipality":{"key":"07137228","name":"Weißenthurm, Stadt","type":"Stadt"},"district":{"key":"07137","name":"Mayen-Koblenz","type":"Landkreis"},"federalState":{"key":"07","name":"Rheinland-Pfalz"}},{"name":"Rosenstr.","postalCode":"56575","locality":"Weißenthurm","municipality":{"key":"07137228","name":"Weißenthurm, Stadt","type":"Stadt"},"district":{"key":"07137","name":"Mayen-Koblenz","type":"Landkreis"},"federalState":{"key":"07","name":"Rheinland-Pfalz"}},{"name":"Saffiger Str.","postalCode":"56575","locality":"Weißenthurm","municipality":{"key":"07137228","name":"Weißenthurm, Stadt","type":"Stadt"},"district":{"key":"07137","name":"Mayen-Koblenz","type":"Landkreis"},"federalState":{"key":"07","name":"Rheinland-Pfalz"}},{"name":"Schillerstr.","postalCode":"56575","locality":"Weißenthurm","municipality":{"key":"07137228","name":"Weißenthurm, Stadt","type":"Stadt"},"district":{"key":"07137","name":"Mayen-Koblenz","type":"Landkreis"},"federalState":{"key":"07","name":"Rheinland-Pfalz"}},{"name":"Schmittgasse","postalCode":"56575","locality":"Weißenthurm","municipality":{"key":"07137228","name":"Weißenthurm, Stadt","type":"Stadt"},"district":{"key":"07137","name":"Mayen-Koblenz","type":"Landkreis"},"federalState":{"key":"07","name":"Rheinland-Pfalz"}},{"name":"Schwarze Erde","postalCode":"56575","locality":"Weißenthurm","municipality":{"key":"07137228","name":"Weißenthurm, Stadt","type":"Stadt"},"district":{"key":"07137","name":"Mayen-Koblenz","type":"Landkreis"},"federalState":{"key":"07","name":"Rheinland-Pfalz"}},{"name":"Steinacker","postalCode":"56575","locality":"Weißenthurm","municipality":{"key":"07137228","name":"Weißenthurm, Stadt","type":"Stadt"},"district":{"key":"07137","name":"Mayen-Koblenz","type":"Landkreis"},"federalState":{"key":"07","name":"Rheinland-Pfalz"}},{"name":"Stierweg","postalCode":"56575","locality":"Weißenthurm","municipality":{"key":"07137228","name":"Weißenthurm, Stadt","type":"Stadt"},"district":{"key":"07137","name":"Mayen-Koblenz","type":"Landkreis"},"federalState":{"key":"07","name":"Rheinland-Pfalz"}},{"name":"Taubenstr.","postalCode":"56575","locality":"Weißenthurm","municipality":{"key":"07137228","name":"Weißenthurm, Stadt","type":"Stadt"},"district":{"key":"07137","name":"Mayen-Koblenz","type":"Landkreis"},"federalState":{"key":"07","name":"Rheinland-Pfalz"}},{"name":"Tulpenstr.","postalCode":"56575","locality":"Weißenthurm","municipality":{"key":"07137228","name":"Weißenthurm, Stadt","type":"Stadt"},"district":{"key":"07137","name":"Mayen-Koblenz","type":"Landkreis"},"federalState":{"key":"07","name":"Rheinland-Pfalz"}},{"name":"Turmhof","postalCode":"56575","locality":"Weißenthurm","municipality":{"key":"07137228","name":"Weißenthurm, Stadt","type":"Stadt"},"district":{"key":"07137","name":"Mayen-Koblenz","type":"Landkreis"},"federalState":{"key":"07","name":"Rheinland-Pfalz"}},{"name":"Waldstr.","postalCode":"56575","locality":"Weißenthurm","municipality":{"key":"07137228","name":"Weißenthurm, Stadt","type":"Stadt"},"district":{"key":"07137","name":"Mayen-Koblenz","type":"Landkreis"},"federalState":{"key":"07","name":"Rheinland-Pfalz"}},{"name":"Werftstr.","postalCode":"56575","locality":"Weißenthurm","municipality":{"key":"07137228","name":"Weißenthurm, Stadt","type":"Stadt"},"district":{"key":"07137","name":"Mayen-Koblenz","type":"Landkreis"},"federalState":{"key":"07","name":"Rheinland-Pfalz"}},{"name":"Wiesenweg","postalCode":"56575","locality":"Weißenthurm","municipality":{"key":"07137228","name":"Weißenthurm, Stadt","type":"Stadt"},"district":{"key":"07137","name":"Mayen-Koblenz","type":"Landkreis"},"federalState":{"key":"07","name":"Rheinland-Pfalz"}},{"name":"Wilhelm-Schultheis-Str.","postalCode":"56575","locality":"Weißenthurm","municipality":{"key":"07137228","name":"Weißenthurm, Stadt","type":"Stadt"},"district":{"key":"07137","name":"Mayen-Koblenz","type":"Landkreis"},"federalState":{"key":"07","name":"Rheinland-Pfalz"}},{"name":"Zum Schützenplatz","postalCode":"56575","locality":"Weißenthurm","municipality":{"key":"07137228","name":"Weißenthurm, Stadt","type":"Stadt"},"district":{"key":"07137","name":"Mayen-Koblenz","type":"Landkreis"},"federalState":{"key":"07","name":"Rheinland-Pfalz"}},]