[{"name":"Baruther Str.","postalCode":"15910","locality":"Rietzneuendorf-Staakow","municipality":{"key":"12061405","name":"Rietzneuendorf-Staakow","type":"Kreisangehörige_Gemeinde"},"district":{"key":"12061","name":"Dahme-Spreewald","type":"Landkreis"},"federalState":{"key":"12","name":"Brandenburg"}},{"name":"Brand","postalCode":"15910","locality":"Rietzneuendorf-Staakow","municipality":{"key":"12061405","name":"Rietzneuendorf-Staakow","type":"Kreisangehörige_Gemeinde"},"district":{"key":"12061","name":"Dahme-Spreewald","type":"Landkreis"},"federalState":{"key":"12","name":"Brandenburg"}},{"name":"Dorfstr.","postalCode":"15910","locality":"Rietzneuendorf-Staakow","municipality":{"key":"12061405","name":"Rietzneuendorf-Staakow","type":"Kreisangehörige_Gemeinde"},"district":{"key":"12061","name":"Dahme-Spreewald","type":"Landkreis"},"federalState":{"key":"12","name":"Brandenburg"}},{"name":"Hauptstr.","postalCode":"15910","locality":"Rietzneuendorf-Staakow","municipality":{"key":"12061405","name":"Rietzneuendorf-Staakow","type":"Kreisangehörige_Gemeinde"},"district":{"key":"12061","name":"Dahme-Spreewald","type":"Landkreis"},"federalState":{"key":"12","name":"Brandenburg"}},{"name":"Schloßplatz","postalCode":"15910","locality":"Rietzneuendorf-Staakow","municipality":{"key":"12061405","name":"Rietzneuendorf-Staakow","type":"Kreisangehörige_Gemeinde"},"district":{"key":"12061","name":"Dahme-Spreewald","type":"Landkreis"},"federalState":{"key":"12","name":"Brandenburg"}},{"name":"Schloßstr.","postalCode":"15910","locality":"Rietzneuendorf-Staakow","municipality":{"key":"12061405","name":"Rietzneuendorf-Staakow","type":"Kreisangehörige_Gemeinde"},"district":{"key":"12061","name":"Dahme-Spreewald","type":"Landkreis"},"federalState":{"key":"12","name":"Brandenburg"}},{"name":"Staakower Str.","postalCode":"15910","locality":"Rietzneuendorf-Staakow","municipality":{"key":"12061405","name":"Rietzneuendorf-Staakow","type":"Kreisangehörige_Gemeinde"},"district":{"key":"12061","name":"Dahme-Spreewald","type":"Landkreis"},"federalState":{"key":"12","name":"Brandenburg"}},{"name":"Waldstr.","postalCode":"15910","locality":"Rietzneuendorf-Staakow","municipality":{"key":"12061405","name":"Rietzneuendorf-Staakow","type":"Kreisangehörige_Gemeinde"},"district":{"key":"12061","name":"Dahme-Spreewald","type":"Landkreis"},"federalState":{"key":"12","name":"Brandenburg"}},{"name":"Zum Sandberg","postalCode":"15910","locality":"Rietzneuendorf-Staakow","municipality":{"key":"12061405","name":"Rietzneuendorf-Staakow","type":"Kreisangehörige_Gemeinde"},"district":{"key":"12061","name":"Dahme-Spreewald","type":"Landkreis"},"federalState":{"key":"12","name":"Brandenburg"}},]