[{"name":"Anger","postalCode":"99869","locality":"Pferdingsleben","municipality":{"key":"16067055","name":"Pferdingsleben","type":"Kreisangehörige_Gemeinde"},"district":{"key":"16067","name":"Gotha","type":"Landkreis"},"federalState":{"key":"16","name":"Thüringen"}},{"name":"Brauhausstr.","postalCode":"99869","locality":"Pferdingsleben","municipality":{"key":"16067055","name":"Pferdingsleben","type":"Kreisangehörige_Gemeinde"},"district":{"key":"16067","name":"Gotha","type":"Landkreis"},"federalState":{"key":"16","name":"Thüringen"}},{"name":"Clara-Zetkin-Str.","postalCode":"98646","locality":"Hildburghausen","municipality":{"key":"16069024","name":"Hildburghausen, Stadt","type":"Stadt"},"district":{"key":"16069","name":"Hildburghausen","type":"Landkreis"},"federalState":{"key":"16","name":"Thüringen"}},{"name":"Coburger Str.","postalCode":"98646","locality":"Hildburghausen","municipality":{"key":"16069024","name":"Hildburghausen, Stadt","type":"Stadt"},"district":{"key":"16069","name":"Hildburghausen","type":"Landkreis"},"federalState":{"key":"16","name":"Thüringen"}},{"name":"Dachsweg","postalCode":"98646","locality":"Hildburghausen","municipality":{"key":"16069024","name":"Hildburghausen, Stadt","type":"Stadt"},"district":{"key":"16069","name":"Hildburghausen","type":"Landkreis"},"federalState":{"key":"16","name":"Thüringen"}},{"name":"Dammstr.","postalCode":"98646","locality":"Hildburghausen","municipality":{"key":"16069024","name":"Hildburghausen, Stadt","type":"Stadt"},"district":{"key":"16069","name":"Hildburghausen","type":"Landkreis"},"federalState":{"key":"16","name":"Thüringen"}},{"name":"Dorfplatz","postalCode":"98646","locality":"Hildburghausen","municipality":{"key":"16069024","name":"Hildburghausen, Stadt","type":"Stadt"},"district":{"key":"16069","name":"Hildburghausen","type":"Landkreis"},"federalState":{"key":"16","name":"Thüringen"}},{"name":"Dorfstr.","postalCode":"98646","locality":"Hildburghausen","municipality":{"key":"16069024","name":"Hildburghausen, Stadt","type":"Stadt"},"district":{"key":"16069","name":"Hildburghausen","type":"Landkreis"},"federalState":{"key":"16","name":"Thüringen"}},{"name":"Dr.-Moritz-Mitzenheim-Str.","postalCode":"98646","locality":"Hildburghausen","municipality":{"key":"16069024","name":"Hildburghausen, Stadt","type":"Stadt"},"district":{"key":"16069","name":"Hildburghausen","type":"Landkreis"},"federalState":{"key":"16","name":"Thüringen"}},{"name":"Drosselweg","postalCode":"98646","locality":"Hildburghausen","municipality":{"key":"16069024","name":"Hildburghausen, Stadt","type":"Stadt"},"district":{"key":"16069","name":"Hildburghausen","type":"Landkreis"},"federalState":{"key":"16","name":"Thüringen"}},{"name":"Dr.-Theodor-Neubauer-Str.","postalCode":"98646","locality":"Hildburghausen","municipality":{"key":"16069024","name":"Hildburghausen, Stadt","type":"Stadt"},"district":{"key":"16069","name":"Hildburghausen","type":"Landkreis"},"federalState":{"key":"16","name":"Thüringen"}},{"name":"Dr.-Wilhelm-Külz-Str.","postalCode":"98646","locality":"Hildburghausen","municipality":{"key":"16069024","name":"Hildburghausen, Stadt","type":"Stadt"},"district":{"key":"16069","name":"Hildburghausen","type":"Landkreis"},"federalState":{"key":"16","name":"Thüringen"}},{"name":"Ebenhardser Brunnenweg","postalCode":"98646","locality":"Hildburghausen","municipality":{"key":"16069024","name":"Hildburghausen, Stadt","type":"Stadt"},"district":{"key":"16069","name":"Hildburghausen","type":"Landkreis"},"federalState":{"key":"16","name":"Thüringen"}},{"name":"Ebenhardser Dorfstr.","postalCode":"98646","locality":"Hildburghausen","municipality":{"key":"16069024","name":"Hildburghausen, Stadt","type":"Stadt"},"district":{"key":"16069","name":"Hildburghausen","type":"Landkreis"},"federalState":{"key":"16","name":"Thüringen"}},{"name":"Ebenhardser Neustadt","postalCode":"98646","locality":"Hildburghausen","municipality":{"key":"16069024","name":"Hildburghausen, Stadt","type":"Stadt"},"district":{"key":"16069","name":"Hildburghausen","type":"Landkreis"},"federalState":{"key":"16","name":"Thüringen"}},{"name":"Eberhardser Dorfstr.","postalCode":"98646","locality":"Hildburghausen","municipality":{"key":"16069024","name":"Hildburghausen, Stadt","type":"Stadt"},"district":{"key":"16069","name":"Hildburghausen","type":"Landkreis"},"federalState":{"key":"16","name":"Thüringen"}},{"name":"Eibenweg","postalCode":"98646","locality":"Hildburghausen","municipality":{"key":"16069024","name":"Hildburghausen, Stadt","type":"Stadt"},"district":{"key":"16069","name":"Hildburghausen","type":"Landkreis"},"federalState":{"key":"16","name":"Thüringen"}},{"name":"Eisfelder Str.","postalCode":"98646","locality":"Hildburghausen","municipality":{"key":"16069024","name":"Hildburghausen, Stadt","type":"Stadt"},"district":{"key":"16069","name":"Hildburghausen","type":"Landkreis"},"federalState":{"key":"16","name":"Thüringen"}},{"name":"Eishäuser Str.","postalCode":"98646","locality":"Hildburghausen","municipality":{"key":"16069024","name":"Hildburghausen, Stadt","type":"Stadt"},"district":{"key":"16069","name":"Hildburghausen","type":"Landkreis"},"federalState":{"key":"16","name":"Thüringen"}},{"name":"Elsternweg","postalCode":"98646","locality":"Hildburghausen","municipality":{"key":"16069024","name":"Hildburghausen, Stadt","type":"Stadt"},"district":{"key":"16069","name":"Hildburghausen","type":"Landkreis"},"federalState":{"key":"16","name":"Thüringen"}},{"name":"Erlenweg","postalCode":"98646","locality":"Hildburghausen","municipality":{"key":"16069024","name":"Hildburghausen, Stadt","type":"Stadt"},"district":{"key":"16069","name":"Hildburghausen","type":"Landkreis"},"federalState":{"key":"16","name":"Thüringen"}},{"name":"Ernst-Thälmann-Platz","postalCode":"98646","locality":"Hildburghausen","municipality":{"key":"16069024","name":"Hildburghausen, Stadt","type":"Stadt"},"district":{"key":"16069","name":"Hildburghausen","type":"Landkreis"},"federalState":{"key":"16","name":"Thüringen"}},{"name":"Finkenmühlenweg","postalCode":"98646","locality":"Hildburghausen","municipality":{"key":"16069024","name":"Hildburghausen, Stadt","type":"Stadt"},"district":{"key":"16069","name":"Hildburghausen","type":"Landkreis"},"federalState":{"key":"16","name":"Thüringen"}},{"name":"Finkenweg","postalCode":"98646","locality":"Hildburghausen","municipality":{"key":"16069024","name":"Hildburghausen, Stadt","type":"Stadt"},"district":{"key":"16069","name":"Hildburghausen","type":"Landkreis"},"federalState":{"key":"16","name":"Thüringen"}},{"name":"Forstweg","postalCode":"98646","locality":"Hildburghausen","municipality":{"key":"16069024","name":"Hildburghausen, Stadt","type":"Stadt"},"district":{"key":"16069","name":"Hildburghausen","type":"Landkreis"},"federalState":{"key":"16","name":"Thüringen"}},{"name":"Friedensstr.","postalCode":"98646","locality":"Hildburghausen","municipality":{"key":"16069024","name":"Hildburghausen, Stadt","type":"Stadt"},"district":{"key":"16069","name":"Hildburghausen","type":"Landkreis"},"federalState":{"key":"16","name":"Thüringen"}},{"name":"Friedensweg","postalCode":"98646","locality":"Hildburghausen","municipality":{"key":"16069024","name":"Hildburghausen, Stadt","type":"Stadt"},"district":{"key":"16069","name":"Hildburghausen","type":"Landkreis"},"federalState":{"key":"16","name":"Thüringen"}},{"name":"Friedrich-Fröbel-Str.","postalCode":"98646","locality":"Hildburghausen","municipality":{"key":"16069024","name":"Hildburghausen, Stadt","type":"Stadt"},"district":{"key":"16069","name":"Hildburghausen","type":"Landkreis"},"federalState":{"key":"16","name":"Thüringen"}},{"name":"Friedrich-Rückert-Str.","postalCode":"98646","locality":"Hildburghausen","municipality":{"key":"16069024","name":"Hildburghausen, Stadt","type":"Stadt"},"district":{"key":"16069","name":"Hildburghausen","type":"Landkreis"},"federalState":{"key":"16","name":"Thüringen"}},{"name":"Friedrichsanfang","postalCode":"98646","locality":"Hildburghausen","municipality":{"key":"16069024","name":"Hildburghausen, Stadt","type":"Stadt"},"district":{"key":"16069","name":"Hildburghausen","type":"Landkreis"},"federalState":{"key":"16","name":"Thüringen"}},{"name":"Friedrich-Sickler-Str.","postalCode":"98646","locality":"Hildburghausen","municipality":{"key":"16069024","name":"Hildburghausen, Stadt","type":"Stadt"},"district":{"key":"16069","name":"Hildburghausen","type":"Landkreis"},"federalState":{"key":"16","name":"Thüringen"}},{"name":"Friesenstr.","postalCode":"98646","locality":"Hildburghausen","municipality":{"key":"16069024","name":"Hildburghausen, Stadt","type":"Stadt"},"district":{"key":"16069","name":"Hildburghausen","type":"Landkreis"},"federalState":{"key":"16","name":"Thüringen"}},{"name":"Fuchsweg","postalCode":"98646","locality":"Hildburghausen","municipality":{"key":"16069024","name":"Hildburghausen, Stadt","type":"Stadt"},"district":{"key":"16069","name":"Hildburghausen","type":"Landkreis"},"federalState":{"key":"16","name":"Thüringen"}},{"name":"Gartenstr.","postalCode":"98646","locality":"Hildburghausen","municipality":{"key":"16069024","name":"Hildburghausen, Stadt","type":"Stadt"},"district":{"key":"16069","name":"Hildburghausen","type":"Landkreis"},"federalState":{"key":"16","name":"Thüringen"}},{"name":"Gerbergasse","postalCode":"98646","locality":"Hildburghausen","municipality":{"key":"16069024","name":"Hildburghausen, Stadt","type":"Stadt"},"district":{"key":"16069","name":"Hildburghausen","type":"Landkreis"},"federalState":{"key":"16","name":"Thüringen"}},{"name":"Geschwister-Scholl-Str.","postalCode":"98646","locality":"Hildburghausen","municipality":{"key":"16069024","name":"Hildburghausen, Stadt","type":"Stadt"},"district":{"key":"16069","name":"Hildburghausen","type":"Landkreis"},"federalState":{"key":"16","name":"Thüringen"}},{"name":"Goldbachstr.","postalCode":"98646","locality":"Hildburghausen","municipality":{"key":"16069024","name":"Hildburghausen, Stadt","type":"Stadt"},"district":{"key":"16069","name":"Hildburghausen","type":"Landkreis"},"federalState":{"key":"16","name":"Thüringen"}},{"name":"Goldbergweg","postalCode":"98646","locality":"Hildburghausen","municipality":{"key":"16069024","name":"Hildburghausen, Stadt","type":"Stadt"},"district":{"key":"16069","name":"Hildburghausen","type":"Landkreis"},"federalState":{"key":"16","name":"Thüringen"}},{"name":"Herrenstr.","postalCode":"99869","locality":"Pferdingsleben","municipality":{"key":"16067055","name":"Pferdingsleben","type":"Kreisangehörige_Gemeinde"},"district":{"key":"16067","name":"Gotha","type":"Landkreis"},"federalState":{"key":"16","name":"Thüringen"}},{"name":"Igelweg","postalCode":"98646","locality":"Hildburghausen","municipality":{"key":"16069024","name":"Hildburghausen, Stadt","type":"Stadt"},"district":{"key":"16069","name":"Hildburghausen","type":"Landkreis"},"federalState":{"key":"16","name":"Thüringen"}},{"name":"Iltisweg","postalCode":"98646","locality":"Hildburghausen","municipality":{"key":"16069024","name":"Hildburghausen, Stadt","type":"Stadt"},"district":{"key":"16069","name":"Hildburghausen","type":"Landkreis"},"federalState":{"key":"16","name":"Thüringen"}},{"name":"Immanuel-Kant-Platz","postalCode":"98646","locality":"Hildburghausen","municipality":{"key":"16069024","name":"Hildburghausen, Stadt","type":"Stadt"},"district":{"key":"16069","name":"Hildburghausen","type":"Landkreis"},"federalState":{"key":"16","name":"Thüringen"}},{"name":"Johann-Sebastian-Bach-Platz","postalCode":"98646","locality":"Hildburghausen","municipality":{"key":"16069024","name":"Hildburghausen, Stadt","type":"Stadt"},"district":{"key":"16069","name":"Hildburghausen","type":"Landkreis"},"federalState":{"key":"16","name":"Thüringen"}},{"name":"Johann-Sebastian-Bach-Str.","postalCode":"98646","locality":"Hildburghausen","municipality":{"key":"16069024","name":"Hildburghausen, Stadt","type":"Stadt"},"district":{"key":"16069","name":"Hildburghausen","type":"Landkreis"},"federalState":{"key":"16","name":"Thüringen"}},{"name":"Joseph-Meyer-Str.","postalCode":"98646","locality":"Hildburghausen","municipality":{"key":"16069024","name":"Hildburghausen, Stadt","type":"Stadt"},"district":{"key":"16069","name":"Hildburghausen","type":"Landkreis"},"federalState":{"key":"16","name":"Thüringen"}},{"name":"Kirchstr.","postalCode":"99869","locality":"Pferdingsleben","municipality":{"key":"16067055","name":"Pferdingsleben","type":"Kreisangehörige_Gemeinde"},"district":{"key":"16067","name":"Gotha","type":"Landkreis"},"federalState":{"key":"16","name":"Thüringen"}},{"name":"Lange Str.","postalCode":"99869","locality":"Pferdingsleben","municipality":{"key":"16067055","name":"Pferdingsleben","type":"Kreisangehörige_Gemeinde"},"district":{"key":"16067","name":"Gotha","type":"Landkreis"},"federalState":{"key":"16","name":"Thüringen"}},{"name":"Marderwiesen","postalCode":"98646","locality":"Hildburghausen","municipality":{"key":"16069024","name":"Hildburghausen, Stadt","type":"Stadt"},"district":{"key":"16069","name":"Hildburghausen","type":"Landkreis"},"federalState":{"key":"16","name":"Thüringen"}},{"name":"Marienstr.","postalCode":"98646","locality":"Hildburghausen","municipality":{"key":"16069024","name":"Hildburghausen, Stadt","type":"Stadt"},"district":{"key":"16069","name":"Hildburghausen","type":"Landkreis"},"federalState":{"key":"16","name":"Thüringen"}},{"name":"Martin-Luther-Str.","postalCode":"98646","locality":"Hildburghausen","municipality":{"key":"16069024","name":"Hildburghausen, Stadt","type":"Stadt"},"district":{"key":"16069","name":"Hildburghausen","type":"Landkreis"},"federalState":{"key":"16","name":"Thüringen"}},{"name":"Massenhäuser Str.","postalCode":"98646","locality":"Hildburghausen","municipality":{"key":"16069024","name":"Hildburghausen, Stadt","type":"Stadt"},"district":{"key":"16069","name":"Hildburghausen","type":"Landkreis"},"federalState":{"key":"16","name":"Thüringen"}},{"name":"Max-Michaelis-Str.","postalCode":"98646","locality":"Hildburghausen","municipality":{"key":"16069024","name":"Hildburghausen, Stadt","type":"Stadt"},"district":{"key":"16069","name":"Hildburghausen","type":"Landkreis"},"federalState":{"key":"16","name":"Thüringen"}},{"name":"Mohnhäcksweg","postalCode":"98646","locality":"Hildburghausen","municipality":{"key":"16069024","name":"Hildburghausen, Stadt","type":"Stadt"},"district":{"key":"16069","name":"Hildburghausen","type":"Landkreis"},"federalState":{"key":"16","name":"Thüringen"}},{"name":"Mühlrangen","postalCode":"98646","locality":"Hildburghausen","municipality":{"key":"16069024","name":"Hildburghausen, Stadt","type":"Stadt"},"district":{"key":"16069","name":"Hildburghausen","type":"Landkreis"},"federalState":{"key":"16","name":"Thüringen"}},{"name":"Nelkenweg","postalCode":"98646","locality":"Hildburghausen","municipality":{"key":"16069024","name":"Hildburghausen, Stadt","type":"Stadt"},"district":{"key":"16069","name":"Hildburghausen","type":"Landkreis"},"federalState":{"key":"16","name":"Thüringen"}},{"name":"Neustädter Kirchplan","postalCode":"98646","locality":"Hildburghausen","municipality":{"key":"16069024","name":"Hildburghausen, Stadt","type":"Stadt"},"district":{"key":"16069","name":"Hildburghausen","type":"Landkreis"},"federalState":{"key":"16","name":"Thüringen"}},{"name":"Nonneplatz","postalCode":"98646","locality":"Hildburghausen","municipality":{"key":"16069024","name":"Hildburghausen, Stadt","type":"Stadt"},"district":{"key":"16069","name":"Hildburghausen","type":"Landkreis"},"federalState":{"key":"16","name":"Thüringen"}},{"name":"Ortsstr.","postalCode":"98646","locality":"Dingsleben","municipality":{"key":"16069008","name":"Dingsleben","type":"Kreisangehörige_Gemeinde"},"district":{"key":"16069","name":"Hildburghausen","type":"Landkreis"},"federalState":{"key":"16","name":"Thüringen"}},{"name":"Pfaffenstieg","postalCode":"99869","locality":"Pferdingsleben","municipality":{"key":"16067055","name":"Pferdingsleben","type":"Kreisangehörige_Gemeinde"},"district":{"key":"16067","name":"Gotha","type":"Landkreis"},"federalState":{"key":"16","name":"Thüringen"}},{"name":"Reuriether Str.","postalCode":"98646","locality":"Dingsleben","municipality":{"key":"16069008","name":"Dingsleben","type":"Kreisangehörige_Gemeinde"},"district":{"key":"16069","name":"Hildburghausen","type":"Landkreis"},"federalState":{"key":"16","name":"Thüringen"}},{"name":"Steinhof","postalCode":"99869","locality":"Pferdingsleben","municipality":{"key":"16067055","name":"Pferdingsleben","type":"Kreisangehörige_Gemeinde"},"district":{"key":"16067","name":"Gotha","type":"Landkreis"},"federalState":{"key":"16","name":"Thüringen"}},{"name":"Tannenweg","postalCode":"98646","locality":"Hildburghausen","municipality":{"key":"16069024","name":"Hildburghausen, Stadt","type":"Stadt"},"district":{"key":"16069","name":"Hildburghausen","type":"Landkreis"},"federalState":{"key":"16","name":"Thüringen"}},{"name":"Tulpenweg","postalCode":"98646","locality":"Hildburghausen","municipality":{"key":"16069024","name":"Hildburghausen, Stadt","type":"Stadt"},"district":{"key":"16069","name":"Hildburghausen","type":"Landkreis"},"federalState":{"key":"16","name":"Thüringen"}},{"name":"Ulmenweg","postalCode":"98646","locality":"Hildburghausen","municipality":{"key":"16069024","name":"Hildburghausen, Stadt","type":"Stadt"},"district":{"key":"16069","name":"Hildburghausen","type":"Landkreis"},"federalState":{"key":"16","name":"Thüringen"}},{"name":"Unter den Weinbergen","postalCode":"98646","locality":"Hildburghausen","municipality":{"key":"16069024","name":"Hildburghausen, Stadt","type":"Stadt"},"district":{"key":"16069","name":"Hildburghausen","type":"Landkreis"},"federalState":{"key":"16","name":"Thüringen"}},{"name":"Untere Allee","postalCode":"98646","locality":"Hildburghausen","municipality":{"key":"16069024","name":"Hildburghausen, Stadt","type":"Stadt"},"district":{"key":"16069","name":"Hildburghausen","type":"Landkreis"},"federalState":{"key":"16","name":"Thüringen"}},{"name":"Untere Braugasse","postalCode":"98646","locality":"Hildburghausen","municipality":{"key":"16069024","name":"Hildburghausen, Stadt","type":"Stadt"},"district":{"key":"16069","name":"Hildburghausen","type":"Landkreis"},"federalState":{"key":"16","name":"Thüringen"}},{"name":"Untere Dorfstr.","postalCode":"98646","locality":"Hildburghausen","municipality":{"key":"16069024","name":"Hildburghausen, Stadt","type":"Stadt"},"district":{"key":"16069","name":"Hildburghausen","type":"Landkreis"},"federalState":{"key":"16","name":"Thüringen"}},{"name":"Untere Marktstr.","postalCode":"98646","locality":"Hildburghausen","municipality":{"key":"16069024","name":"Hildburghausen, Stadt","type":"Stadt"},"district":{"key":"16069","name":"Hildburghausen","type":"Landkreis"},"federalState":{"key":"16","name":"Thüringen"}},{"name":"Unterer Gemeindeberg","postalCode":"98646","locality":"Hildburghausen","municipality":{"key":"16069024","name":"Hildburghausen, Stadt","type":"Stadt"},"district":{"key":"16069","name":"Hildburghausen","type":"Landkreis"},"federalState":{"key":"16","name":"Thüringen"}},{"name":"Unterer Gries","postalCode":"98646","locality":"Hildburghausen","municipality":{"key":"16069024","name":"Hildburghausen, Stadt","type":"Stadt"},"district":{"key":"16069","name":"Hildburghausen","type":"Landkreis"},"federalState":{"key":"16","name":"Thüringen"}},{"name":"Unterer Weinberg","postalCode":"98646","locality":"Hildburghausen","municipality":{"key":"16069024","name":"Hildburghausen, Stadt","type":"Stadt"},"district":{"key":"16069","name":"Hildburghausen","type":"Landkreis"},"federalState":{"key":"16","name":"Thüringen"}},{"name":"Unteres Kleinodsfeld","postalCode":"98646","locality":"Hildburghausen","municipality":{"key":"16069024","name":"Hildburghausen, Stadt","type":"Stadt"},"district":{"key":"16069","name":"Hildburghausen","type":"Landkreis"},"federalState":{"key":"16","name":"Thüringen"}},{"name":"Vorderer Steig","postalCode":"98646","locality":"Hildburghausen","municipality":{"key":"16069024","name":"Hildburghausen, Stadt","type":"Stadt"},"district":{"key":"16069","name":"Hildburghausen","type":"Landkreis"},"federalState":{"key":"16","name":"Thüringen"}},{"name":"Waidmühlenstr.","postalCode":"99869","locality":"Pferdingsleben","municipality":{"key":"16067055","name":"Pferdingsleben","type":"Kreisangehörige_Gemeinde"},"district":{"key":"16067","name":"Gotha","type":"Landkreis"},"federalState":{"key":"16","name":"Thüringen"}},{"name":"Weißtorweg","postalCode":"99869","locality":"Pferdingsleben","municipality":{"key":"16067055","name":"Pferdingsleben","type":"Kreisangehörige_Gemeinde"},"district":{"key":"16067","name":"Gotha","type":"Landkreis"},"federalState":{"key":"16","name":"Thüringen"}},{"name":"Zapfenbahn","postalCode":"98646","locality":"Hildburghausen","municipality":{"key":"16069024","name":"Hildburghausen, Stadt","type":"Stadt"},"district":{"key":"16069","name":"Hildburghausen","type":"Landkreis"},"federalState":{"key":"16","name":"Thüringen"}},{"name":"Ziegeleiweg","postalCode":"98646","locality":"Hildburghausen","municipality":{"key":"16069024","name":"Hildburghausen, Stadt","type":"Stadt"},"district":{"key":"16069","name":"Hildburghausen","type":"Landkreis"},"federalState":{"key":"16","name":"Thüringen"}},{"name":"Zum Heckenbühl","postalCode":"98646","locality":"Hildburghausen","municipality":{"key":"16069024","name":"Hildburghausen, Stadt","type":"Stadt"},"district":{"key":"16069","name":"Hildburghausen","type":"Landkreis"},"federalState":{"key":"16","name":"Thüringen"}},{"name":"Zum Heiligen Grund","postalCode":"98646","locality":"Hildburghausen","municipality":{"key":"16069024","name":"Hildburghausen, Stadt","type":"Stadt"},"district":{"key":"16069","name":"Hildburghausen","type":"Landkreis"},"federalState":{"key":"16","name":"Thüringen"}},{"name":"Zum Hölzchen","postalCode":"98646","locality":"Hildburghausen","municipality":{"key":"16069024","name":"Hildburghausen, Stadt","type":"Stadt"},"district":{"key":"16069","name":"Hildburghausen","type":"Landkreis"},"federalState":{"key":"16","name":"Thüringen"}},{"name":"Zum Sportplatz","postalCode":"98646","locality":"Hildburghausen","municipality":{"key":"16069024","name":"Hildburghausen, Stadt","type":"Stadt"},"district":{"key":"16069","name":"Hildburghausen","type":"Landkreis"},"federalState":{"key":"16","name":"Thüringen"}},{"name":"Zum Stickelsteich","postalCode":"98646","locality":"Hildburghausen","municipality":{"key":"16069024","name":"Hildburghausen, Stadt","type":"Stadt"},"district":{"key":"16069","name":"Hildburghausen","type":"Landkreis"},"federalState":{"key":"16","name":"Thüringen"}},{"name":"Zum Werrablick","postalCode":"98646","locality":"Hildburghausen","municipality":{"key":"16069024","name":"Hildburghausen, Stadt","type":"Stadt"},"district":{"key":"16069","name":"Hildburghausen","type":"Landkreis"},"federalState":{"key":"16","name":"Thüringen"}},{"name":"Zur Mühle","postalCode":"98646","locality":"Hildburghausen","municipality":{"key":"16069024","name":"Hildburghausen, Stadt","type":"Stadt"},"district":{"key":"16069","name":"Hildburghausen","type":"Landkreis"},"federalState":{"key":"16","name":"Thüringen"}},]