[{"name":"Ahornstr.","postalCode":"01445","locality":"Radebeul","municipality":{"key":"14627210","name":"Radebeul, Stadt","type":"Stadt"},"district":{"key":"14627","name":"Meißen","type":"Landkreis"},"federalState":{"key":"14","name":"Sachsen"}},{"name":"Albert-Eyckhout-Str.","postalCode":"01445","locality":"Radebeul","municipality":{"key":"14627210","name":"Radebeul, Stadt","type":"Stadt"},"district":{"key":"14627","name":"Meißen","type":"Landkreis"},"federalState":{"key":"14","name":"Sachsen"}},{"name":"Alfred-Naumann-Str.","postalCode":"01445","locality":"Radebeul","municipality":{"key":"14627210","name":"Radebeul, Stadt","type":"Stadt"},"district":{"key":"14627","name":"Meißen","type":"Landkreis"},"federalState":{"key":"14","name":"Sachsen"}},{"name":"Altfriedstein","postalCode":"01445","locality":"Radebeul","municipality":{"key":"14627210","name":"Radebeul, Stadt","type":"Stadt"},"district":{"key":"14627","name":"Meißen","type":"Landkreis"},"federalState":{"key":"14","name":"Sachsen"}},{"name":"Altkötzschenbroda","postalCode":"01445","locality":"Radebeul","municipality":{"key":"14627210","name":"Radebeul, Stadt","type":"Stadt"},"district":{"key":"14627","name":"Meißen","type":"Landkreis"},"federalState":{"key":"14","name":"Sachsen"}},{"name":"Altlindenau","postalCode":"01445","locality":"Radebeul","municipality":{"key":"14627210","name":"Radebeul, Stadt","type":"Stadt"},"district":{"key":"14627","name":"Meißen","type":"Landkreis"},"federalState":{"key":"14","name":"Sachsen"}},{"name":"Altnaundorf","postalCode":"01445","locality":"Radebeul","municipality":{"key":"14627210","name":"Radebeul, Stadt","type":"Stadt"},"district":{"key":"14627","name":"Meißen","type":"Landkreis"},"federalState":{"key":"14","name":"Sachsen"}},{"name":"Altserkowitz","postalCode":"01445","locality":"Radebeul","municipality":{"key":"14627210","name":"Radebeul, Stadt","type":"Stadt"},"district":{"key":"14627","name":"Meißen","type":"Landkreis"},"federalState":{"key":"14","name":"Sachsen"}},{"name":"Altwahnsdorf","postalCode":"01445","locality":"Radebeul","municipality":{"key":"14627210","name":"Radebeul, Stadt","type":"Stadt"},"district":{"key":"14627","name":"Meißen","type":"Landkreis"},"federalState":{"key":"14","name":"Sachsen"}},{"name":"Alt-Wettinshöhe","postalCode":"01445","locality":"Radebeul","municipality":{"key":"14627210","name":"Radebeul, Stadt","type":"Stadt"},"district":{"key":"14627","name":"Meißen","type":"Landkreis"},"federalState":{"key":"14","name":"Sachsen"}},{"name":"Altzitzschewig","postalCode":"01445","locality":"Radebeul","municipality":{"key":"14627210","name":"Radebeul, Stadt","type":"Stadt"},"district":{"key":"14627","name":"Meißen","type":"Landkreis"},"federalState":{"key":"14","name":"Sachsen"}},{"name":"Alvslebenplatz","postalCode":"01445","locality":"Radebeul","municipality":{"key":"14627210","name":"Radebeul, Stadt","type":"Stadt"},"district":{"key":"14627","name":"Meißen","type":"Landkreis"},"federalState":{"key":"14","name":"Sachsen"}},{"name":"Am Alten Güterboden","postalCode":"01445","locality":"Radebeul","municipality":{"key":"14627210","name":"Radebeul, Stadt","type":"Stadt"},"district":{"key":"14627","name":"Meißen","type":"Landkreis"},"federalState":{"key":"14","name":"Sachsen"}},{"name":"Am Bornberge","postalCode":"01445","locality":"Radebeul","municipality":{"key":"14627210","name":"Radebeul, Stadt","type":"Stadt"},"district":{"key":"14627","name":"Meißen","type":"Landkreis"},"federalState":{"key":"14","name":"Sachsen"}},{"name":"Am Dammberg","postalCode":"01445","locality":"Radebeul","municipality":{"key":"14627210","name":"Radebeul, Stadt","type":"Stadt"},"district":{"key":"14627","name":"Meißen","type":"Landkreis"},"federalState":{"key":"14","name":"Sachsen"}},{"name":"Am Dichterviertel","postalCode":"01445","locality":"Radebeul","municipality":{"key":"14627210","name":"Radebeul, Stadt","type":"Stadt"},"district":{"key":"14627","name":"Meißen","type":"Landkreis"},"federalState":{"key":"14","name":"Sachsen"}},{"name":"Am Eichberg","postalCode":"01445","locality":"Radebeul","municipality":{"key":"14627210","name":"Radebeul, Stadt","type":"Stadt"},"district":{"key":"14627","name":"Meißen","type":"Landkreis"},"federalState":{"key":"14","name":"Sachsen"}},{"name":"Am Gasthof","postalCode":"01445","locality":"Radebeul","municipality":{"key":"14627210","name":"Radebeul, Stadt","type":"Stadt"},"district":{"key":"14627","name":"Meißen","type":"Landkreis"},"federalState":{"key":"14","name":"Sachsen"}},{"name":"Am Goldenen Wagen","postalCode":"01445","locality":"Radebeul","municipality":{"key":"14627210","name":"Radebeul, Stadt","type":"Stadt"},"district":{"key":"14627","name":"Meißen","type":"Landkreis"},"federalState":{"key":"14","name":"Sachsen"}},{"name":"Am Gottesacker","postalCode":"01445","locality":"Radebeul","municipality":{"key":"14627210","name":"Radebeul, Stadt","type":"Stadt"},"district":{"key":"14627","name":"Meißen","type":"Landkreis"},"federalState":{"key":"14","name":"Sachsen"}},{"name":"Am Gymnasium","postalCode":"01445","locality":"Radebeul","municipality":{"key":"14627210","name":"Radebeul, Stadt","type":"Stadt"},"district":{"key":"14627","name":"Meißen","type":"Landkreis"},"federalState":{"key":"14","name":"Sachsen"}},{"name":"Am Hasenbruch","postalCode":"01445","locality":"Radebeul","municipality":{"key":"14627210","name":"Radebeul, Stadt","type":"Stadt"},"district":{"key":"14627","name":"Meißen","type":"Landkreis"},"federalState":{"key":"14","name":"Sachsen"}},{"name":"Am Heiteren Blick","postalCode":"01445","locality":"Radebeul","municipality":{"key":"14627210","name":"Radebeul, Stadt","type":"Stadt"},"district":{"key":"14627","name":"Meißen","type":"Landkreis"},"federalState":{"key":"14","name":"Sachsen"}},{"name":"Am Jacobstein","postalCode":"01445","locality":"Radebeul","municipality":{"key":"14627210","name":"Radebeul, Stadt","type":"Stadt"},"district":{"key":"14627","name":"Meißen","type":"Landkreis"},"federalState":{"key":"14","name":"Sachsen"}},{"name":"Am Katzenloch","postalCode":"01445","locality":"Radebeul","municipality":{"key":"14627210","name":"Radebeul, Stadt","type":"Stadt"},"district":{"key":"14627","name":"Meißen","type":"Landkreis"},"federalState":{"key":"14","name":"Sachsen"}},{"name":"Am Kreis","postalCode":"01445","locality":"Radebeul","municipality":{"key":"14627210","name":"Radebeul, Stadt","type":"Stadt"},"district":{"key":"14627","name":"Meißen","type":"Landkreis"},"federalState":{"key":"14","name":"Sachsen"}},{"name":"Am Kuffenhaus","postalCode":"01445","locality":"Radebeul","municipality":{"key":"14627210","name":"Radebeul, Stadt","type":"Stadt"},"district":{"key":"14627","name":"Meißen","type":"Landkreis"},"federalState":{"key":"14","name":"Sachsen"}},{"name":"Am Mardersprung","postalCode":"01445","locality":"Radebeul","municipality":{"key":"14627210","name":"Radebeul, Stadt","type":"Stadt"},"district":{"key":"14627","name":"Meißen","type":"Landkreis"},"federalState":{"key":"14","name":"Sachsen"}},{"name":"Am Rosenhof","postalCode":"01445","locality":"Radebeul","municipality":{"key":"14627210","name":"Radebeul, Stadt","type":"Stadt"},"district":{"key":"14627","name":"Meißen","type":"Landkreis"},"federalState":{"key":"14","name":"Sachsen"}},{"name":"Amselweg","postalCode":"01445","locality":"Radebeul","municipality":{"key":"14627210","name":"Radebeul, Stadt","type":"Stadt"},"district":{"key":"14627","name":"Meißen","type":"Landkreis"},"federalState":{"key":"14","name":"Sachsen"}},{"name":"Am Spittelholz","postalCode":"01445","locality":"Radebeul","municipality":{"key":"14627210","name":"Radebeul, Stadt","type":"Stadt"},"district":{"key":"14627","name":"Meißen","type":"Landkreis"},"federalState":{"key":"14","name":"Sachsen"}},{"name":"Am Wasserturm","postalCode":"01445","locality":"Radebeul","municipality":{"key":"14627210","name":"Radebeul, Stadt","type":"Stadt"},"district":{"key":"14627","name":"Meißen","type":"Landkreis"},"federalState":{"key":"14","name":"Sachsen"}},{"name":"Am Weingut Hausberg","postalCode":"01445","locality":"Radebeul","municipality":{"key":"14627210","name":"Radebeul, Stadt","type":"Stadt"},"district":{"key":"14627","name":"Meißen","type":"Landkreis"},"federalState":{"key":"14","name":"Sachsen"}},{"name":"Am Zechstein","postalCode":"01445","locality":"Radebeul","municipality":{"key":"14627210","name":"Radebeul, Stadt","type":"Stadt"},"district":{"key":"14627","name":"Meißen","type":"Landkreis"},"federalState":{"key":"14","name":"Sachsen"}},{"name":"An den Brunnen","postalCode":"01445","locality":"Radebeul","municipality":{"key":"14627210","name":"Radebeul, Stadt","type":"Stadt"},"district":{"key":"14627","name":"Meißen","type":"Landkreis"},"federalState":{"key":"14","name":"Sachsen"}},{"name":"An den Querstücken","postalCode":"01445","locality":"Radebeul","municipality":{"key":"14627210","name":"Radebeul, Stadt","type":"Stadt"},"district":{"key":"14627","name":"Meißen","type":"Landkreis"},"federalState":{"key":"14","name":"Sachsen"}},{"name":"An den Wiesen","postalCode":"01445","locality":"Radebeul","municipality":{"key":"14627210","name":"Radebeul, Stadt","type":"Stadt"},"district":{"key":"14627","name":"Meißen","type":"Landkreis"},"federalState":{"key":"14","name":"Sachsen"}},{"name":"An der Festwiese","postalCode":"01445","locality":"Radebeul","municipality":{"key":"14627210","name":"Radebeul, Stadt","type":"Stadt"},"district":{"key":"14627","name":"Meißen","type":"Landkreis"},"federalState":{"key":"14","name":"Sachsen"}},{"name":"An der Jägermühle","postalCode":"01445","locality":"Radebeul","municipality":{"key":"14627210","name":"Radebeul, Stadt","type":"Stadt"},"district":{"key":"14627","name":"Meißen","type":"Landkreis"},"federalState":{"key":"14","name":"Sachsen"}},{"name":"An der Juchhöh","postalCode":"01445","locality":"Radebeul","municipality":{"key":"14627210","name":"Radebeul, Stadt","type":"Stadt"},"district":{"key":"14627","name":"Meißen","type":"Landkreis"},"federalState":{"key":"14","name":"Sachsen"}},{"name":"An der Kaiserbrauerei","postalCode":"01445","locality":"Radebeul","municipality":{"key":"14627210","name":"Radebeul, Stadt","type":"Stadt"},"district":{"key":"14627","name":"Meißen","type":"Landkreis"},"federalState":{"key":"14","name":"Sachsen"}},{"name":"An der Siedlung","postalCode":"01445","locality":"Radebeul","municipality":{"key":"14627210","name":"Radebeul, Stadt","type":"Stadt"},"district":{"key":"14627","name":"Meißen","type":"Landkreis"},"federalState":{"key":"14","name":"Sachsen"}},{"name":"An der Unterführung","postalCode":"01445","locality":"Radebeul","municipality":{"key":"14627210","name":"Radebeul, Stadt","type":"Stadt"},"district":{"key":"14627","name":"Meißen","type":"Landkreis"},"federalState":{"key":"14","name":"Sachsen"}},{"name":"An der Wetterwarte","postalCode":"01445","locality":"Radebeul","municipality":{"key":"14627210","name":"Radebeul, Stadt","type":"Stadt"},"district":{"key":"14627","name":"Meißen","type":"Landkreis"},"federalState":{"key":"14","name":"Sachsen"}},{"name":"An der Wilhelmshöhe","postalCode":"01445","locality":"Radebeul","municipality":{"key":"14627210","name":"Radebeul, Stadt","type":"Stadt"},"district":{"key":"14627","name":"Meißen","type":"Landkreis"},"federalState":{"key":"14","name":"Sachsen"}},{"name":"Andreas-Hofer-Str.","postalCode":"01445","locality":"Radebeul","municipality":{"key":"14627210","name":"Radebeul, Stadt","type":"Stadt"},"district":{"key":"14627","name":"Meißen","type":"Landkreis"},"federalState":{"key":"14","name":"Sachsen"}},{"name":"Anne-Frank-Str.","postalCode":"01445","locality":"Radebeul","municipality":{"key":"14627210","name":"Radebeul, Stadt","type":"Stadt"},"district":{"key":"14627","name":"Meißen","type":"Landkreis"},"federalState":{"key":"14","name":"Sachsen"}},{"name":"Anton-Günther-Str.","postalCode":"01445","locality":"Radebeul","municipality":{"key":"14627210","name":"Radebeul, Stadt","type":"Stadt"},"district":{"key":"14627","name":"Meißen","type":"Landkreis"},"federalState":{"key":"14","name":"Sachsen"}},{"name":"Auenweg","postalCode":"01445","locality":"Radebeul","municipality":{"key":"14627210","name":"Radebeul, Stadt","type":"Stadt"},"district":{"key":"14627","name":"Meißen","type":"Landkreis"},"federalState":{"key":"14","name":"Sachsen"}},{"name":"Auerweg","postalCode":"01445","locality":"Radebeul","municipality":{"key":"14627210","name":"Radebeul, Stadt","type":"Stadt"},"district":{"key":"14627","name":"Meißen","type":"Landkreis"},"federalState":{"key":"14","name":"Sachsen"}},{"name":"Bahnhofstr.","postalCode":"01445","locality":"Radebeul","municipality":{"key":"14627210","name":"Radebeul, Stadt","type":"Stadt"},"district":{"key":"14627","name":"Meißen","type":"Landkreis"},"federalState":{"key":"14","name":"Sachsen"}},{"name":"Bahnsteg","postalCode":"01445","locality":"Radebeul","municipality":{"key":"14627210","name":"Radebeul, Stadt","type":"Stadt"},"district":{"key":"14627","name":"Meißen","type":"Landkreis"},"federalState":{"key":"14","name":"Sachsen"}},{"name":"Barkengasse","postalCode":"01445","locality":"Radebeul","municipality":{"key":"14627210","name":"Radebeul, Stadt","type":"Stadt"},"district":{"key":"14627","name":"Meißen","type":"Landkreis"},"federalState":{"key":"14","name":"Sachsen"}},{"name":"Barthübelstr.","postalCode":"01445","locality":"Radebeul","municipality":{"key":"14627210","name":"Radebeul, Stadt","type":"Stadt"},"district":{"key":"14627","name":"Meißen","type":"Landkreis"},"federalState":{"key":"14","name":"Sachsen"}},{"name":"Bennostr.","postalCode":"01445","locality":"Radebeul","municipality":{"key":"14627210","name":"Radebeul, Stadt","type":"Stadt"},"district":{"key":"14627","name":"Meißen","type":"Landkreis"},"federalState":{"key":"14","name":"Sachsen"}},{"name":"Bergblick","postalCode":"01445","locality":"Radebeul","municipality":{"key":"14627210","name":"Radebeul, Stadt","type":"Stadt"},"district":{"key":"14627","name":"Meißen","type":"Landkreis"},"federalState":{"key":"14","name":"Sachsen"}},{"name":"Bernhard-Voß-Str.","postalCode":"01445","locality":"Radebeul","municipality":{"key":"14627210","name":"Radebeul, Stadt","type":"Stadt"},"district":{"key":"14627","name":"Meißen","type":"Landkreis"},"federalState":{"key":"14","name":"Sachsen"}},{"name":"Bertheltstr.","postalCode":"01445","locality":"Radebeul","municipality":{"key":"14627210","name":"Radebeul, Stadt","type":"Stadt"},"district":{"key":"14627","name":"Meißen","type":"Landkreis"},"federalState":{"key":"14","name":"Sachsen"}},{"name":"Bertolt-Brecht-Str.","postalCode":"01445","locality":"Radebeul","municipality":{"key":"14627210","name":"Radebeul, Stadt","type":"Stadt"},"district":{"key":"14627","name":"Meißen","type":"Landkreis"},"federalState":{"key":"14","name":"Sachsen"}},{"name":"Bettina-von-Arnim-Str.","postalCode":"01445","locality":"Radebeul","municipality":{"key":"14627210","name":"Radebeul, Stadt","type":"Stadt"},"district":{"key":"14627","name":"Meißen","type":"Landkreis"},"federalState":{"key":"14","name":"Sachsen"}},{"name":"Bilz-Wanderweg","postalCode":"01445","locality":"Radebeul","municipality":{"key":"14627210","name":"Radebeul, Stadt","type":"Stadt"},"district":{"key":"14627","name":"Meißen","type":"Landkreis"},"federalState":{"key":"14","name":"Sachsen"}},{"name":"Birkenbruch","postalCode":"01445","locality":"Radebeul","municipality":{"key":"14627210","name":"Radebeul, Stadt","type":"Stadt"},"district":{"key":"14627","name":"Meißen","type":"Landkreis"},"federalState":{"key":"14","name":"Sachsen"}},{"name":"Birkenstr.","postalCode":"01445","locality":"Radebeul","municipality":{"key":"14627210","name":"Radebeul, Stadt","type":"Stadt"},"district":{"key":"14627","name":"Meißen","type":"Landkreis"},"federalState":{"key":"14","name":"Sachsen"}},{"name":"Bischofsweg","postalCode":"01445","locality":"Radebeul","municipality":{"key":"14627210","name":"Radebeul, Stadt","type":"Stadt"},"district":{"key":"14627","name":"Meißen","type":"Landkreis"},"federalState":{"key":"14","name":"Sachsen"}},{"name":"Blumenstr.","postalCode":"01445","locality":"Radebeul","municipality":{"key":"14627210","name":"Radebeul, Stadt","type":"Stadt"},"district":{"key":"14627","name":"Meißen","type":"Landkreis"},"federalState":{"key":"14","name":"Sachsen"}},{"name":"Bodelschwinghstr.","postalCode":"01445","locality":"Radebeul","municipality":{"key":"14627210","name":"Radebeul, Stadt","type":"Stadt"},"district":{"key":"14627","name":"Meißen","type":"Landkreis"},"federalState":{"key":"14","name":"Sachsen"}},{"name":"Bodenweg","postalCode":"01445","locality":"Radebeul","municipality":{"key":"14627210","name":"Radebeul, Stadt","type":"Stadt"},"district":{"key":"14627","name":"Meißen","type":"Landkreis"},"federalState":{"key":"14","name":"Sachsen"}},{"name":"Borstr.","postalCode":"01445","locality":"Radebeul","municipality":{"key":"14627210","name":"Radebeul, Stadt","type":"Stadt"},"district":{"key":"14627","name":"Meißen","type":"Landkreis"},"federalState":{"key":"14","name":"Sachsen"}},{"name":"Brockwitzer Str.","postalCode":"01445","locality":"Radebeul","municipality":{"key":"14627210","name":"Radebeul, Stadt","type":"Stadt"},"district":{"key":"14627","name":"Meißen","type":"Landkreis"},"federalState":{"key":"14","name":"Sachsen"}},{"name":"Brunnenplatz","postalCode":"01445","locality":"Radebeul","municipality":{"key":"14627210","name":"Radebeul, Stadt","type":"Stadt"},"district":{"key":"14627","name":"Meißen","type":"Landkreis"},"federalState":{"key":"14","name":"Sachsen"}},{"name":"Buchholzweg","postalCode":"01445","locality":"Radebeul","municipality":{"key":"14627210","name":"Radebeul, Stadt","type":"Stadt"},"district":{"key":"14627","name":"Meißen","type":"Landkreis"},"federalState":{"key":"14","name":"Sachsen"}},{"name":"Burgstr.","postalCode":"01445","locality":"Radebeul","municipality":{"key":"14627210","name":"Radebeul, Stadt","type":"Stadt"},"district":{"key":"14627","name":"Meißen","type":"Landkreis"},"federalState":{"key":"14","name":"Sachsen"}},{"name":"Buschweg","postalCode":"01445","locality":"Radebeul","municipality":{"key":"14627210","name":"Radebeul, Stadt","type":"Stadt"},"district":{"key":"14627","name":"Meißen","type":"Landkreis"},"federalState":{"key":"14","name":"Sachsen"}},{"name":"Carl-Pfeiffer-Str.","postalCode":"01445","locality":"Radebeul","municipality":{"key":"14627210","name":"Radebeul, Stadt","type":"Stadt"},"district":{"key":"14627","name":"Meißen","type":"Landkreis"},"federalState":{"key":"14","name":"Sachsen"}},{"name":"Carl-Schröder-Str.","postalCode":"01445","locality":"Radebeul","municipality":{"key":"14627210","name":"Radebeul, Stadt","type":"Stadt"},"district":{"key":"14627","name":"Meißen","type":"Landkreis"},"federalState":{"key":"14","name":"Sachsen"}},{"name":"Clara-Zetkin-Str.","postalCode":"01445","locality":"Radebeul","municipality":{"key":"14627210","name":"Radebeul, Stadt","type":"Stadt"},"district":{"key":"14627","name":"Meißen","type":"Landkreis"},"federalState":{"key":"14","name":"Sachsen"}},{"name":"Clemens-Brentano-Str.","postalCode":"01445","locality":"Radebeul","municipality":{"key":"14627210","name":"Radebeul, Stadt","type":"Stadt"},"district":{"key":"14627","name":"Meißen","type":"Landkreis"},"federalState":{"key":"14","name":"Sachsen"}},{"name":"Cossebauder Str.","postalCode":"01445","locality":"Radebeul","municipality":{"key":"14627210","name":"Radebeul, Stadt","type":"Stadt"},"district":{"key":"14627","name":"Meißen","type":"Landkreis"},"federalState":{"key":"14","name":"Sachsen"}},{"name":"Coswiger Str.","postalCode":"01445","locality":"Radebeul","municipality":{"key":"14627210","name":"Radebeul, Stadt","type":"Stadt"},"district":{"key":"14627","name":"Meißen","type":"Landkreis"},"federalState":{"key":"14","name":"Sachsen"}},{"name":"Damaschkeweg","postalCode":"01445","locality":"Radebeul","municipality":{"key":"14627210","name":"Radebeul, Stadt","type":"Stadt"},"district":{"key":"14627","name":"Meißen","type":"Landkreis"},"federalState":{"key":"14","name":"Sachsen"}},{"name":"Dammweg","postalCode":"01445","locality":"Radebeul","municipality":{"key":"14627210","name":"Radebeul, Stadt","type":"Stadt"},"district":{"key":"14627","name":"Meißen","type":"Landkreis"},"federalState":{"key":"14","name":"Sachsen"}},{"name":"Dippelsdorfer Str.","postalCode":"01445","locality":"Radebeul","municipality":{"key":"14627210","name":"Radebeul, Stadt","type":"Stadt"},"district":{"key":"14627","name":"Meißen","type":"Landkreis"},"federalState":{"key":"14","name":"Sachsen"}},{"name":"Dresdner Str.","postalCode":"01445","locality":"Radebeul","municipality":{"key":"14627210","name":"Radebeul, Stadt","type":"Stadt"},"district":{"key":"14627","name":"Meißen","type":"Landkreis"},"federalState":{"key":"14","name":"Sachsen"}},{"name":"Dr.-Külz-Str.","postalCode":"01445","locality":"Radebeul","municipality":{"key":"14627210","name":"Radebeul, Stadt","type":"Stadt"},"district":{"key":"14627","name":"Meißen","type":"Landkreis"},"federalState":{"key":"14","name":"Sachsen"}},{"name":"Drosselweg","postalCode":"01445","locality":"Radebeul","municipality":{"key":"14627210","name":"Radebeul, Stadt","type":"Stadt"},"district":{"key":"14627","name":"Meißen","type":"Landkreis"},"federalState":{"key":"14","name":"Sachsen"}},{"name":"Dr.-Rudolf-Friedrichs-Str.","postalCode":"01445","locality":"Radebeul","municipality":{"key":"14627210","name":"Radebeul, Stadt","type":"Stadt"},"district":{"key":"14627","name":"Meißen","type":"Landkreis"},"federalState":{"key":"14","name":"Sachsen"}},{"name":"Dr.-Schmincke-Allee","postalCode":"01445","locality":"Radebeul","municipality":{"key":"14627210","name":"Radebeul, Stadt","type":"Stadt"},"district":{"key":"14627","name":"Meißen","type":"Landkreis"},"federalState":{"key":"14","name":"Sachsen"}},{"name":"Dürerstr.","postalCode":"01445","locality":"Radebeul","municipality":{"key":"14627210","name":"Radebeul, Stadt","type":"Stadt"},"district":{"key":"14627","name":"Meißen","type":"Landkreis"},"federalState":{"key":"14","name":"Sachsen"}},{"name":"Ebereschenweg","postalCode":"01445","locality":"Radebeul","municipality":{"key":"14627210","name":"Radebeul, Stadt","type":"Stadt"},"district":{"key":"14627","name":"Meißen","type":"Landkreis"},"federalState":{"key":"14","name":"Sachsen"}},{"name":"Eduard-Bilz-Platz","postalCode":"01445","locality":"Radebeul","municipality":{"key":"14627210","name":"Radebeul, Stadt","type":"Stadt"},"district":{"key":"14627","name":"Meißen","type":"Landkreis"},"federalState":{"key":"14","name":"Sachsen"}},{"name":"Eduard-Bilz-Str.","postalCode":"01445","locality":"Radebeul","municipality":{"key":"14627210","name":"Radebeul, Stadt","type":"Stadt"},"district":{"key":"14627","name":"Meißen","type":"Landkreis"},"federalState":{"key":"14","name":"Sachsen"}},{"name":"Eggersweg","postalCode":"01445","locality":"Radebeul","municipality":{"key":"14627210","name":"Radebeul, Stadt","type":"Stadt"},"district":{"key":"14627","name":"Meißen","type":"Landkreis"},"federalState":{"key":"14","name":"Sachsen"}},{"name":"Ehrenhain","postalCode":"01445","locality":"Radebeul","municipality":{"key":"14627210","name":"Radebeul, Stadt","type":"Stadt"},"district":{"key":"14627","name":"Meißen","type":"Landkreis"},"federalState":{"key":"14","name":"Sachsen"}},{"name":"Eigenheimstr.","postalCode":"01445","locality":"Radebeul","municipality":{"key":"14627210","name":"Radebeul, Stadt","type":"Stadt"},"district":{"key":"14627","name":"Meißen","type":"Landkreis"},"federalState":{"key":"14","name":"Sachsen"}},{"name":"Einsteinstr.","postalCode":"01445","locality":"Radebeul","municipality":{"key":"14627210","name":"Radebeul, Stadt","type":"Stadt"},"district":{"key":"14627","name":"Meißen","type":"Landkreis"},"federalState":{"key":"14","name":"Sachsen"}},{"name":"Elbblick","postalCode":"01445","locality":"Radebeul","municipality":{"key":"14627210","name":"Radebeul, Stadt","type":"Stadt"},"district":{"key":"14627","name":"Meißen","type":"Landkreis"},"federalState":{"key":"14","name":"Sachsen"}},{"name":"Elbstr.","postalCode":"01445","locality":"Radebeul","municipality":{"key":"14627210","name":"Radebeul, Stadt","type":"Stadt"},"district":{"key":"14627","name":"Meißen","type":"Landkreis"},"federalState":{"key":"14","name":"Sachsen"}},{"name":"Emil-Högg-Str.","postalCode":"01445","locality":"Radebeul","municipality":{"key":"14627210","name":"Radebeul, Stadt","type":"Stadt"},"district":{"key":"14627","name":"Meißen","type":"Landkreis"},"federalState":{"key":"14","name":"Sachsen"}},{"name":"Emilienstr.","postalCode":"01445","locality":"Radebeul","municipality":{"key":"14627210","name":"Radebeul, Stadt","type":"Stadt"},"district":{"key":"14627","name":"Meißen","type":"Landkreis"},"federalState":{"key":"14","name":"Sachsen"}},{"name":"Emil-Schüller-Str.","postalCode":"01445","locality":"Radebeul","municipality":{"key":"14627210","name":"Radebeul, Stadt","type":"Stadt"},"district":{"key":"14627","name":"Meißen","type":"Landkreis"},"federalState":{"key":"14","name":"Sachsen"}},{"name":"Ernst-Kegel-Str.","postalCode":"01445","locality":"Radebeul","municipality":{"key":"14627210","name":"Radebeul, Stadt","type":"Stadt"},"district":{"key":"14627","name":"Meißen","type":"Landkreis"},"federalState":{"key":"14","name":"Sachsen"}},{"name":"Eulengrund","postalCode":"01445","locality":"Radebeul","municipality":{"key":"14627210","name":"Radebeul, Stadt","type":"Stadt"},"district":{"key":"14627","name":"Meißen","type":"Landkreis"},"federalState":{"key":"14","name":"Sachsen"}},{"name":"Fabrikstr.","postalCode":"01445","locality":"Radebeul","municipality":{"key":"14627210","name":"Radebeul, Stadt","type":"Stadt"},"district":{"key":"14627","name":"Meißen","type":"Landkreis"},"federalState":{"key":"14","name":"Sachsen"}},{"name":"Fichtenweg","postalCode":"01445","locality":"Radebeul","municipality":{"key":"14627210","name":"Radebeul, Stadt","type":"Stadt"},"district":{"key":"14627","name":"Meißen","type":"Landkreis"},"federalState":{"key":"14","name":"Sachsen"}},{"name":"Fichtestr.","postalCode":"01445","locality":"Radebeul","municipality":{"key":"14627210","name":"Radebeul, Stadt","type":"Stadt"},"district":{"key":"14627","name":"Meißen","type":"Landkreis"},"federalState":{"key":"14","name":"Sachsen"}},{"name":"Fiedlergrund","postalCode":"01445","locality":"Radebeul","municipality":{"key":"14627210","name":"Radebeul, Stadt","type":"Stadt"},"district":{"key":"14627","name":"Meißen","type":"Landkreis"},"federalState":{"key":"14","name":"Sachsen"}},{"name":"Finkenweg","postalCode":"01445","locality":"Radebeul","municipality":{"key":"14627210","name":"Radebeul, Stadt","type":"Stadt"},"district":{"key":"14627","name":"Meißen","type":"Landkreis"},"federalState":{"key":"14","name":"Sachsen"}},{"name":"Finstere Gasse","postalCode":"01445","locality":"Radebeul","municipality":{"key":"14627210","name":"Radebeul, Stadt","type":"Stadt"},"district":{"key":"14627","name":"Meißen","type":"Landkreis"},"federalState":{"key":"14","name":"Sachsen"}},{"name":"Flemmingstr.","postalCode":"01445","locality":"Radebeul","municipality":{"key":"14627210","name":"Radebeul, Stadt","type":"Stadt"},"district":{"key":"14627","name":"Meißen","type":"Landkreis"},"federalState":{"key":"14","name":"Sachsen"}},{"name":"Fontanering","postalCode":"01445","locality":"Radebeul","municipality":{"key":"14627210","name":"Radebeul, Stadt","type":"Stadt"},"district":{"key":"14627","name":"Meißen","type":"Landkreis"},"federalState":{"key":"14","name":"Sachsen"}},{"name":"Forststr.","postalCode":"01445","locality":"Radebeul","municipality":{"key":"14627210","name":"Radebeul, Stadt","type":"Stadt"},"district":{"key":"14627","name":"Meißen","type":"Landkreis"},"federalState":{"key":"14","name":"Sachsen"}},{"name":"Freiligrathstr.","postalCode":"01445","locality":"Radebeul","municipality":{"key":"14627210","name":"Radebeul, Stadt","type":"Stadt"},"district":{"key":"14627","name":"Meißen","type":"Landkreis"},"federalState":{"key":"14","name":"Sachsen"}},{"name":"Friedewaldweg","postalCode":"01445","locality":"Radebeul","municipality":{"key":"14627210","name":"Radebeul, Stadt","type":"Stadt"},"district":{"key":"14627","name":"Meißen","type":"Landkreis"},"federalState":{"key":"14","name":"Sachsen"}},{"name":"Friedhofstr.","postalCode":"01445","locality":"Radebeul","municipality":{"key":"14627210","name":"Radebeul, Stadt","type":"Stadt"},"district":{"key":"14627","name":"Meißen","type":"Landkreis"},"federalState":{"key":"14","name":"Sachsen"}},{"name":"Friedlandstr.","postalCode":"01445","locality":"Radebeul","municipality":{"key":"14627210","name":"Radebeul, Stadt","type":"Stadt"},"district":{"key":"14627","name":"Meißen","type":"Landkreis"},"federalState":{"key":"14","name":"Sachsen"}},{"name":"Friedrich-List-Str.","postalCode":"01445","locality":"Radebeul","municipality":{"key":"14627210","name":"Radebeul, Stadt","type":"Stadt"},"district":{"key":"14627","name":"Meißen","type":"Landkreis"},"federalState":{"key":"14","name":"Sachsen"}},{"name":"Friedrich-von-Heyden-Weg","postalCode":"01445","locality":"Radebeul","municipality":{"key":"14627210","name":"Radebeul, Stadt","type":"Stadt"},"district":{"key":"14627","name":"Meißen","type":"Landkreis"},"federalState":{"key":"14","name":"Sachsen"}},{"name":"Friedsteinstr.","postalCode":"01445","locality":"Radebeul","municipality":{"key":"14627210","name":"Radebeul, Stadt","type":"Stadt"},"district":{"key":"14627","name":"Meißen","type":"Landkreis"},"federalState":{"key":"14","name":"Sachsen"}},{"name":"Fritz-Schulze-Str.","postalCode":"01445","locality":"Radebeul","municipality":{"key":"14627210","name":"Radebeul, Stadt","type":"Stadt"},"district":{"key":"14627","name":"Meißen","type":"Landkreis"},"federalState":{"key":"14","name":"Sachsen"}},{"name":"Fürstenhainer Str.","postalCode":"01445","locality":"Radebeul","municipality":{"key":"14627210","name":"Radebeul, Stadt","type":"Stadt"},"district":{"key":"14627","name":"Meißen","type":"Landkreis"},"federalState":{"key":"14","name":"Sachsen"}},{"name":"Gartenweg","postalCode":"01445","locality":"Radebeul","municipality":{"key":"14627210","name":"Radebeul, Stadt","type":"Stadt"},"district":{"key":"14627","name":"Meißen","type":"Landkreis"},"federalState":{"key":"14","name":"Sachsen"}},{"name":"Gauernitzer Str.","postalCode":"01445","locality":"Radebeul","municipality":{"key":"14627210","name":"Radebeul, Stadt","type":"Stadt"},"district":{"key":"14627","name":"Meißen","type":"Landkreis"},"federalState":{"key":"14","name":"Sachsen"}},{"name":"Gellertstr.","postalCode":"01445","locality":"Radebeul","municipality":{"key":"14627210","name":"Radebeul, Stadt","type":"Stadt"},"district":{"key":"14627","name":"Meißen","type":"Landkreis"},"federalState":{"key":"14","name":"Sachsen"}},{"name":"Gerhard-Madaus-Str.","postalCode":"01445","locality":"Radebeul","municipality":{"key":"14627210","name":"Radebeul, Stadt","type":"Stadt"},"district":{"key":"14627","name":"Meißen","type":"Landkreis"},"federalState":{"key":"14","name":"Sachsen"}},{"name":"Gerhart-Hauptmann-Str.","postalCode":"01445","locality":"Radebeul","municipality":{"key":"14627210","name":"Radebeul, Stadt","type":"Stadt"},"district":{"key":"14627","name":"Meißen","type":"Landkreis"},"federalState":{"key":"14","name":"Sachsen"}},{"name":"Geschwister-Scholl-Str.","postalCode":"01445","locality":"Radebeul","municipality":{"key":"14627210","name":"Radebeul, Stadt","type":"Stadt"},"district":{"key":"14627","name":"Meißen","type":"Landkreis"},"federalState":{"key":"14","name":"Sachsen"}},{"name":"Ginsterweg","postalCode":"01445","locality":"Radebeul","municipality":{"key":"14627210","name":"Radebeul, Stadt","type":"Stadt"},"district":{"key":"14627","name":"Meißen","type":"Landkreis"},"federalState":{"key":"14","name":"Sachsen"}},{"name":"Goethestr.","postalCode":"01445","locality":"Radebeul","municipality":{"key":"14627210","name":"Radebeul, Stadt","type":"Stadt"},"district":{"key":"14627","name":"Meißen","type":"Landkreis"},"federalState":{"key":"14","name":"Sachsen"}},{"name":"Gohliser Str.","postalCode":"01445","locality":"Radebeul","municipality":{"key":"14627210","name":"Radebeul, Stadt","type":"Stadt"},"district":{"key":"14627","name":"Meißen","type":"Landkreis"},"federalState":{"key":"14","name":"Sachsen"}},{"name":"Gradsteg","postalCode":"01445","locality":"Radebeul","municipality":{"key":"14627210","name":"Radebeul, Stadt","type":"Stadt"},"district":{"key":"14627","name":"Meißen","type":"Landkreis"},"federalState":{"key":"14","name":"Sachsen"}},{"name":"Graue-Presse-Weg","postalCode":"01445","locality":"Radebeul","municipality":{"key":"14627210","name":"Radebeul, Stadt","type":"Stadt"},"district":{"key":"14627","name":"Meißen","type":"Landkreis"},"federalState":{"key":"14","name":"Sachsen"}},{"name":"Grillecke","postalCode":"01445","locality":"Radebeul","municipality":{"key":"14627210","name":"Radebeul, Stadt","type":"Stadt"},"district":{"key":"14627","name":"Meißen","type":"Landkreis"},"federalState":{"key":"14","name":"Sachsen"}},{"name":"Gröbastr.","postalCode":"01445","locality":"Radebeul","municipality":{"key":"14627210","name":"Radebeul, Stadt","type":"Stadt"},"district":{"key":"14627","name":"Meißen","type":"Landkreis"},"federalState":{"key":"14","name":"Sachsen"}},{"name":"Großstückenweg","postalCode":"01445","locality":"Radebeul","municipality":{"key":"14627210","name":"Radebeul, Stadt","type":"Stadt"},"district":{"key":"14627","name":"Meißen","type":"Landkreis"},"federalState":{"key":"14","name":"Sachsen"}},{"name":"Grüne Str.","postalCode":"01445","locality":"Radebeul","municipality":{"key":"14627210","name":"Radebeul, Stadt","type":"Stadt"},"district":{"key":"14627","name":"Meißen","type":"Landkreis"},"federalState":{"key":"14","name":"Sachsen"}},{"name":"Gutenbergstr.","postalCode":"01445","locality":"Radebeul","municipality":{"key":"14627210","name":"Radebeul, Stadt","type":"Stadt"},"district":{"key":"14627","name":"Meißen","type":"Landkreis"},"federalState":{"key":"14","name":"Sachsen"}},{"name":"Güterhofstr.","postalCode":"01445","locality":"Radebeul","municipality":{"key":"14627210","name":"Radebeul, Stadt","type":"Stadt"},"district":{"key":"14627","name":"Meißen","type":"Landkreis"},"federalState":{"key":"14","name":"Sachsen"}},{"name":"Haidebergstr.","postalCode":"01445","locality":"Radebeul","municipality":{"key":"14627210","name":"Radebeul, Stadt","type":"Stadt"},"district":{"key":"14627","name":"Meißen","type":"Landkreis"},"federalState":{"key":"14","name":"Sachsen"}},{"name":"Hainstr.","postalCode":"01445","locality":"Radebeul","municipality":{"key":"14627210","name":"Radebeul, Stadt","type":"Stadt"},"district":{"key":"14627","name":"Meißen","type":"Landkreis"},"federalState":{"key":"14","name":"Sachsen"}},{"name":"Harmoniestr.","postalCode":"01445","locality":"Radebeul","municipality":{"key":"14627210","name":"Radebeul, Stadt","type":"Stadt"},"district":{"key":"14627","name":"Meißen","type":"Landkreis"},"federalState":{"key":"14","name":"Sachsen"}},{"name":"Hauptstr.","postalCode":"01445","locality":"Radebeul","municipality":{"key":"14627210","name":"Radebeul, Stadt","type":"Stadt"},"district":{"key":"14627","name":"Meißen","type":"Landkreis"},"federalState":{"key":"14","name":"Sachsen"}},{"name":"Hausbergweg","postalCode":"01445","locality":"Radebeul","municipality":{"key":"14627210","name":"Radebeul, Stadt","type":"Stadt"},"district":{"key":"14627","name":"Meißen","type":"Landkreis"},"federalState":{"key":"14","name":"Sachsen"}},{"name":"Haußigstr.","postalCode":"01445","locality":"Radebeul","municipality":{"key":"14627210","name":"Radebeul, Stadt","type":"Stadt"},"district":{"key":"14627","name":"Meißen","type":"Landkreis"},"federalState":{"key":"14","name":"Sachsen"}},{"name":"Heckenweg","postalCode":"01445","locality":"Radebeul","municipality":{"key":"14627210","name":"Radebeul, Stadt","type":"Stadt"},"district":{"key":"14627","name":"Meißen","type":"Landkreis"},"federalState":{"key":"14","name":"Sachsen"}},{"name":"Heinrich-Heine-Str.","postalCode":"01445","locality":"Radebeul","municipality":{"key":"14627210","name":"Radebeul, Stadt","type":"Stadt"},"district":{"key":"14627","name":"Meißen","type":"Landkreis"},"federalState":{"key":"14","name":"Sachsen"}},{"name":"Heinrichstr.","postalCode":"01445","locality":"Radebeul","municipality":{"key":"14627210","name":"Radebeul, Stadt","type":"Stadt"},"district":{"key":"14627","name":"Meißen","type":"Landkreis"},"federalState":{"key":"14","name":"Sachsen"}},{"name":"Heinrich-Zille-Str.","postalCode":"01445","locality":"Radebeul","municipality":{"key":"14627210","name":"Radebeul, Stadt","type":"Stadt"},"district":{"key":"14627","name":"Meißen","type":"Landkreis"},"federalState":{"key":"14","name":"Sachsen"}},{"name":"Hellerstr.","postalCode":"01445","locality":"Radebeul","municipality":{"key":"14627210","name":"Radebeul, Stadt","type":"Stadt"},"district":{"key":"14627","name":"Meißen","type":"Landkreis"},"federalState":{"key":"14","name":"Sachsen"}},{"name":"Herderstr.","postalCode":"01445","locality":"Radebeul","municipality":{"key":"14627210","name":"Radebeul, Stadt","type":"Stadt"},"district":{"key":"14627","name":"Meißen","type":"Landkreis"},"federalState":{"key":"14","name":"Sachsen"}},{"name":"Hermann-Hesse-Str.","postalCode":"01445","locality":"Radebeul","municipality":{"key":"14627210","name":"Radebeul, Stadt","type":"Stadt"},"district":{"key":"14627","name":"Meißen","type":"Landkreis"},"federalState":{"key":"14","name":"Sachsen"}},{"name":"Hermann-Ilgen-Str.","postalCode":"01445","locality":"Radebeul","municipality":{"key":"14627210","name":"Radebeul, Stadt","type":"Stadt"},"district":{"key":"14627","name":"Meißen","type":"Landkreis"},"federalState":{"key":"14","name":"Sachsen"}},{"name":"Hermann-Löns-Weg","postalCode":"01445","locality":"Radebeul","municipality":{"key":"14627210","name":"Radebeul, Stadt","type":"Stadt"},"district":{"key":"14627","name":"Meißen","type":"Landkreis"},"federalState":{"key":"14","name":"Sachsen"}},{"name":"Hinter den Gärten","postalCode":"01445","locality":"Radebeul","municipality":{"key":"14627210","name":"Radebeul, Stadt","type":"Stadt"},"district":{"key":"14627","name":"Meißen","type":"Landkreis"},"federalState":{"key":"14","name":"Sachsen"}},{"name":"Hinter den Weinbergen","postalCode":"01445","locality":"Radebeul","municipality":{"key":"14627210","name":"Radebeul, Stadt","type":"Stadt"},"district":{"key":"14627","name":"Meißen","type":"Landkreis"},"federalState":{"key":"14","name":"Sachsen"}},{"name":"Hoflößnitzstr.","postalCode":"01445","locality":"Radebeul","municipality":{"key":"14627210","name":"Radebeul, Stadt","type":"Stadt"},"district":{"key":"14627","name":"Meißen","type":"Landkreis"},"federalState":{"key":"14","name":"Sachsen"}},{"name":"Höhenweg","postalCode":"01445","locality":"Radebeul","municipality":{"key":"14627210","name":"Radebeul, Stadt","type":"Stadt"},"district":{"key":"14627","name":"Meißen","type":"Landkreis"},"federalState":{"key":"14","name":"Sachsen"}},{"name":"Hohe Str.","postalCode":"01445","locality":"Radebeul","municipality":{"key":"14627210","name":"Radebeul, Stadt","type":"Stadt"},"district":{"key":"14627","name":"Meißen","type":"Landkreis"},"federalState":{"key":"14","name":"Sachsen"}},{"name":"Hohlweg","postalCode":"01445","locality":"Radebeul","municipality":{"key":"14627210","name":"Radebeul, Stadt","type":"Stadt"},"district":{"key":"14627","name":"Meißen","type":"Landkreis"},"federalState":{"key":"14","name":"Sachsen"}},{"name":"Hölderlinstr.","postalCode":"01445","locality":"Radebeul","municipality":{"key":"14627210","name":"Radebeul, Stadt","type":"Stadt"},"district":{"key":"14627","name":"Meißen","type":"Landkreis"},"federalState":{"key":"14","name":"Sachsen"}},{"name":"Horkenweg","postalCode":"01445","locality":"Radebeul","municipality":{"key":"14627210","name":"Radebeul, Stadt","type":"Stadt"},"district":{"key":"14627","name":"Meißen","type":"Landkreis"},"federalState":{"key":"14","name":"Sachsen"}},{"name":"Hörningplatz","postalCode":"01445","locality":"Radebeul","municipality":{"key":"14627210","name":"Radebeul, Stadt","type":"Stadt"},"district":{"key":"14627","name":"Meißen","type":"Landkreis"},"federalState":{"key":"14","name":"Sachsen"}},{"name":"Horst-Viedt-Str.","postalCode":"01445","locality":"Radebeul","municipality":{"key":"14627210","name":"Radebeul, Stadt","type":"Stadt"},"district":{"key":"14627","name":"Meißen","type":"Landkreis"},"federalState":{"key":"14","name":"Sachsen"}},{"name":"Huhlbergweg","postalCode":"01445","locality":"Radebeul","municipality":{"key":"14627210","name":"Radebeul, Stadt","type":"Stadt"},"district":{"key":"14627","name":"Meißen","type":"Landkreis"},"federalState":{"key":"14","name":"Sachsen"}},{"name":"Humboldtstr.","postalCode":"01445","locality":"Radebeul","municipality":{"key":"14627210","name":"Radebeul, Stadt","type":"Stadt"},"district":{"key":"14627","name":"Meißen","type":"Landkreis"},"federalState":{"key":"14","name":"Sachsen"}},{"name":"Ichenheimer Weg","postalCode":"77974","locality":"Meißenheim","municipality":{"key":"08317075","name":"Meißenheim","type":"Kreisangehörige_Gemeinde"},"district":{"key":"08317","name":"Ortenaukreis","type":"Landkreis"},"federalState":{"key":"08","name":"Baden-Württemberg"}},{"name":"Ilschnerstr.","postalCode":"01662","locality":"Meißen","municipality":{"key":"14627140","name":"Meißen, Stadt","type":"Stadt"},"district":{"key":"14627","name":"Meißen","type":"Landkreis"},"federalState":{"key":"14","name":"Sachsen"}},{"name":"Im Älmel","postalCode":"77974","locality":"Meißenheim","municipality":{"key":"08317075","name":"Meißenheim","type":"Kreisangehörige_Gemeinde"},"district":{"key":"08317","name":"Ortenaukreis","type":"Landkreis"},"federalState":{"key":"08","name":"Baden-Württemberg"}},{"name":"Im Grün","postalCode":"77974","locality":"Meißenheim","municipality":{"key":"08317075","name":"Meißenheim","type":"Kreisangehörige_Gemeinde"},"district":{"key":"08317","name":"Ortenaukreis","type":"Landkreis"},"federalState":{"key":"08","name":"Baden-Württemberg"}},{"name":"Im Grund","postalCode":"77974","locality":"Meißenheim","municipality":{"key":"08317075","name":"Meißenheim","type":"Kreisangehörige_Gemeinde"},"district":{"key":"08317","name":"Ortenaukreis","type":"Landkreis"},"federalState":{"key":"08","name":"Baden-Württemberg"}},{"name":"Im Haargarten","postalCode":"77974","locality":"Meißenheim","municipality":{"key":"08317075","name":"Meißenheim","type":"Kreisangehörige_Gemeinde"},"district":{"key":"08317","name":"Ortenaukreis","type":"Landkreis"},"federalState":{"key":"08","name":"Baden-Württemberg"}},{"name":"Im Hellersgrund","postalCode":"77974","locality":"Meißenheim","municipality":{"key":"08317075","name":"Meißenheim","type":"Kreisangehörige_Gemeinde"},"district":{"key":"08317","name":"Ortenaukreis","type":"Landkreis"},"federalState":{"key":"08","name":"Baden-Württemberg"}},{"name":"Im Kleinfeldele","postalCode":"77974","locality":"Meißenheim","municipality":{"key":"08317075","name":"Meißenheim","type":"Kreisangehörige_Gemeinde"},"district":{"key":"08317","name":"Ortenaukreis","type":"Landkreis"},"federalState":{"key":"08","name":"Baden-Württemberg"}},{"name":"Im Luckenloch","postalCode":"77974","locality":"Meißenheim","municipality":{"key":"08317075","name":"Meißenheim","type":"Kreisangehörige_Gemeinde"},"district":{"key":"08317","name":"Ortenaukreis","type":"Landkreis"},"federalState":{"key":"08","name":"Baden-Württemberg"}},{"name":"Im Winkel","postalCode":"77974","locality":"Meißenheim","municipality":{"key":"08317075","name":"Meißenheim","type":"Kreisangehörige_Gemeinde"},"district":{"key":"08317","name":"Ortenaukreis","type":"Landkreis"},"federalState":{"key":"08","name":"Baden-Württemberg"}},{"name":"Jagdweg","postalCode":"01445","locality":"Radebeul","municipality":{"key":"14627210","name":"Radebeul, Stadt","type":"Stadt"},"district":{"key":"14627","name":"Meißen","type":"Landkreis"},"federalState":{"key":"14","name":"Sachsen"}},{"name":"Jägerhofstr.","postalCode":"01445","locality":"Radebeul","municipality":{"key":"14627210","name":"Radebeul, Stadt","type":"Stadt"},"district":{"key":"14627","name":"Meißen","type":"Landkreis"},"federalState":{"key":"14","name":"Sachsen"}},{"name":"Jägerstr.","postalCode":"01445","locality":"Radebeul","municipality":{"key":"14627210","name":"Radebeul, Stadt","type":"Stadt"},"district":{"key":"14627","name":"Meißen","type":"Landkreis"},"federalState":{"key":"14","name":"Sachsen"}},{"name":"Jakob-Michael-Lenz-Str.","postalCode":"01445","locality":"Radebeul","municipality":{"key":"14627210","name":"Radebeul, Stadt","type":"Stadt"},"district":{"key":"14627","name":"Meißen","type":"Landkreis"},"federalState":{"key":"14","name":"Sachsen"}},{"name":"Johannesstr.","postalCode":"01445","locality":"Radebeul","municipality":{"key":"14627210","name":"Radebeul, Stadt","type":"Stadt"},"district":{"key":"14627","name":"Meißen","type":"Landkreis"},"federalState":{"key":"14","name":"Sachsen"}},{"name":"Johannisbergstr.","postalCode":"01445","locality":"Radebeul","municipality":{"key":"14627210","name":"Radebeul, Stadt","type":"Stadt"},"district":{"key":"14627","name":"Meißen","type":"Landkreis"},"federalState":{"key":"14","name":"Sachsen"}},{"name":"Kaditzer Str.","postalCode":"01445","locality":"Radebeul","municipality":{"key":"14627210","name":"Radebeul, Stadt","type":"Stadt"},"district":{"key":"14627","name":"Meißen","type":"Landkreis"},"federalState":{"key":"14","name":"Sachsen"}},{"name":"Kantstr.","postalCode":"01445","locality":"Radebeul","municipality":{"key":"14627210","name":"Radebeul, Stadt","type":"Stadt"},"district":{"key":"14627","name":"Meißen","type":"Landkreis"},"federalState":{"key":"14","name":"Sachsen"}},{"name":"Kapellenweg","postalCode":"01445","locality":"Radebeul","municipality":{"key":"14627210","name":"Radebeul, Stadt","type":"Stadt"},"district":{"key":"14627","name":"Meißen","type":"Landkreis"},"federalState":{"key":"14","name":"Sachsen"}},{"name":"Karl-Kröner-Str.","postalCode":"01445","locality":"Radebeul","municipality":{"key":"14627210","name":"Radebeul, Stadt","type":"Stadt"},"district":{"key":"14627","name":"Meißen","type":"Landkreis"},"federalState":{"key":"14","name":"Sachsen"}},{"name":"Karl-Liebknecht-Str.","postalCode":"01445","locality":"Radebeul","municipality":{"key":"14627210","name":"Radebeul, Stadt","type":"Stadt"},"district":{"key":"14627","name":"Meißen","type":"Landkreis"},"federalState":{"key":"14","name":"Sachsen"}},{"name":"Karl-Marx-Str.","postalCode":"01445","locality":"Radebeul","municipality":{"key":"14627210","name":"Radebeul, Stadt","type":"Stadt"},"district":{"key":"14627","name":"Meißen","type":"Landkreis"},"federalState":{"key":"14","name":"Sachsen"}},{"name":"Karl-May-Hain","postalCode":"01445","locality":"Radebeul","municipality":{"key":"14627210","name":"Radebeul, Stadt","type":"Stadt"},"district":{"key":"14627","name":"Meißen","type":"Landkreis"},"federalState":{"key":"14","name":"Sachsen"}},{"name":"Karl-May-Str.","postalCode":"01445","locality":"Radebeul","municipality":{"key":"14627210","name":"Radebeul, Stadt","type":"Stadt"},"district":{"key":"14627","name":"Meißen","type":"Landkreis"},"federalState":{"key":"14","name":"Sachsen"}},{"name":"Karlstr.","postalCode":"01445","locality":"Radebeul","municipality":{"key":"14627210","name":"Radebeul, Stadt","type":"Stadt"},"district":{"key":"14627","name":"Meißen","type":"Landkreis"},"federalState":{"key":"14","name":"Sachsen"}},{"name":"Käthe-Kollwitz-Str.","postalCode":"01445","locality":"Radebeul","municipality":{"key":"14627210","name":"Radebeul, Stadt","type":"Stadt"},"district":{"key":"14627","name":"Meißen","type":"Landkreis"},"federalState":{"key":"14","name":"Sachsen"}},{"name":"Käuzchenweg","postalCode":"01445","locality":"Radebeul","municipality":{"key":"14627210","name":"Radebeul, Stadt","type":"Stadt"},"district":{"key":"14627","name":"Meißen","type":"Landkreis"},"federalState":{"key":"14","name":"Sachsen"}},{"name":"Kellereistr.","postalCode":"01445","locality":"Radebeul","municipality":{"key":"14627210","name":"Radebeul, Stadt","type":"Stadt"},"district":{"key":"14627","name":"Meißen","type":"Landkreis"},"federalState":{"key":"14","name":"Sachsen"}},{"name":"Kiebitzweg","postalCode":"01445","locality":"Radebeul","municipality":{"key":"14627210","name":"Radebeul, Stadt","type":"Stadt"},"district":{"key":"14627","name":"Meißen","type":"Landkreis"},"federalState":{"key":"14","name":"Sachsen"}},{"name":"Kiefernbruch","postalCode":"01445","locality":"Radebeul","municipality":{"key":"14627210","name":"Radebeul, Stadt","type":"Stadt"},"district":{"key":"14627","name":"Meißen","type":"Landkreis"},"federalState":{"key":"14","name":"Sachsen"}},{"name":"Kiefernstr.","postalCode":"01445","locality":"Radebeul","municipality":{"key":"14627210","name":"Radebeul, Stadt","type":"Stadt"},"district":{"key":"14627","name":"Meißen","type":"Landkreis"},"federalState":{"key":"14","name":"Sachsen"}},{"name":"Kiesgrubenweg","postalCode":"01445","locality":"Radebeul","municipality":{"key":"14627210","name":"Radebeul, Stadt","type":"Stadt"},"district":{"key":"14627","name":"Meißen","type":"Landkreis"},"federalState":{"key":"14","name":"Sachsen"}},{"name":"Kirchvorplatz","postalCode":"01445","locality":"Radebeul","municipality":{"key":"14627210","name":"Radebeul, Stadt","type":"Stadt"},"district":{"key":"14627","name":"Meißen","type":"Landkreis"},"federalState":{"key":"14","name":"Sachsen"}},{"name":"Klara-May-Weg","postalCode":"01445","locality":"Radebeul","municipality":{"key":"14627210","name":"Radebeul, Stadt","type":"Stadt"},"district":{"key":"14627","name":"Meißen","type":"Landkreis"},"federalState":{"key":"14","name":"Sachsen"}},{"name":"Kleine Elbstr.","postalCode":"01445","locality":"Radebeul","municipality":{"key":"14627210","name":"Radebeul, Stadt","type":"Stadt"},"district":{"key":"14627","name":"Meißen","type":"Landkreis"},"federalState":{"key":"14","name":"Sachsen"}},{"name":"Kleine Rietzschke","postalCode":"01445","locality":"Radebeul","municipality":{"key":"14627210","name":"Radebeul, Stadt","type":"Stadt"},"district":{"key":"14627","name":"Meißen","type":"Landkreis"},"federalState":{"key":"14","name":"Sachsen"}},{"name":"Kleinstückenweg","postalCode":"01445","locality":"Radebeul","municipality":{"key":"14627210","name":"Radebeul, Stadt","type":"Stadt"},"district":{"key":"14627","name":"Meißen","type":"Landkreis"},"federalState":{"key":"14","name":"Sachsen"}},{"name":"Kleiststr.","postalCode":"01445","locality":"Radebeul","municipality":{"key":"14627210","name":"Radebeul, Stadt","type":"Stadt"},"district":{"key":"14627","name":"Meißen","type":"Landkreis"},"federalState":{"key":"14","name":"Sachsen"}},{"name":"Knohllweg","postalCode":"01445","locality":"Radebeul","municipality":{"key":"14627210","name":"Radebeul, Stadt","type":"Stadt"},"district":{"key":"14627","name":"Meißen","type":"Landkreis"},"federalState":{"key":"14","name":"Sachsen"}},{"name":"Knollenweg","postalCode":"01445","locality":"Radebeul","municipality":{"key":"14627210","name":"Radebeul, Stadt","type":"Stadt"},"district":{"key":"14627","name":"Meißen","type":"Landkreis"},"federalState":{"key":"14","name":"Sachsen"}},{"name":"Kolbestr.","postalCode":"01445","locality":"Radebeul","municipality":{"key":"14627210","name":"Radebeul, Stadt","type":"Stadt"},"district":{"key":"14627","name":"Meißen","type":"Landkreis"},"federalState":{"key":"14","name":"Sachsen"}},{"name":"Körnerweg","postalCode":"01445","locality":"Radebeul","municipality":{"key":"14627210","name":"Radebeul, Stadt","type":"Stadt"},"district":{"key":"14627","name":"Meißen","type":"Landkreis"},"federalState":{"key":"14","name":"Sachsen"}},{"name":"Kötitzer Str.","postalCode":"01445","locality":"Radebeul","municipality":{"key":"14627210","name":"Radebeul, Stadt","type":"Stadt"},"district":{"key":"14627","name":"Meißen","type":"Landkreis"},"federalState":{"key":"14","name":"Sachsen"}},{"name":"Kottenleite","postalCode":"01445","locality":"Radebeul","municipality":{"key":"14627210","name":"Radebeul, Stadt","type":"Stadt"},"district":{"key":"14627","name":"Meißen","type":"Landkreis"},"federalState":{"key":"14","name":"Sachsen"}},{"name":"Kötzschenbrodaer Str.","postalCode":"01445","locality":"Radebeul","municipality":{"key":"14627210","name":"Radebeul, Stadt","type":"Stadt"},"district":{"key":"14627","name":"Meißen","type":"Landkreis"},"federalState":{"key":"14","name":"Sachsen"}},{"name":"Krapenbergweg","postalCode":"01445","locality":"Radebeul","municipality":{"key":"14627210","name":"Radebeul, Stadt","type":"Stadt"},"district":{"key":"14627","name":"Meißen","type":"Landkreis"},"federalState":{"key":"14","name":"Sachsen"}},{"name":"Kreyernweg","postalCode":"01445","locality":"Radebeul","municipality":{"key":"14627210","name":"Radebeul, Stadt","type":"Stadt"},"district":{"key":"14627","name":"Meißen","type":"Landkreis"},"federalState":{"key":"14","name":"Sachsen"}},{"name":"Kroatengrund","postalCode":"01445","locality":"Radebeul","municipality":{"key":"14627210","name":"Radebeul, Stadt","type":"Stadt"},"district":{"key":"14627","name":"Meißen","type":"Landkreis"},"federalState":{"key":"14","name":"Sachsen"}},{"name":"Kuckucksweg","postalCode":"01445","locality":"Radebeul","municipality":{"key":"14627210","name":"Radebeul, Stadt","type":"Stadt"},"district":{"key":"14627","name":"Meißen","type":"Landkreis"},"federalState":{"key":"14","name":"Sachsen"}},{"name":"Kynastweg","postalCode":"01445","locality":"Radebeul","municipality":{"key":"14627210","name":"Radebeul, Stadt","type":"Stadt"},"district":{"key":"14627","name":"Meißen","type":"Landkreis"},"federalState":{"key":"14","name":"Sachsen"}},{"name":"Lachenweg","postalCode":"01445","locality":"Radebeul","municipality":{"key":"14627210","name":"Radebeul, Stadt","type":"Stadt"},"district":{"key":"14627","name":"Meißen","type":"Landkreis"},"federalState":{"key":"14","name":"Sachsen"}},{"name":"Langenbergweg","postalCode":"01445","locality":"Radebeul","municipality":{"key":"14627210","name":"Radebeul, Stadt","type":"Stadt"},"district":{"key":"14627","name":"Meißen","type":"Landkreis"},"federalState":{"key":"14","name":"Sachsen"}},{"name":"Langenwiesenweg","postalCode":"01445","locality":"Radebeul","municipality":{"key":"14627210","name":"Radebeul, Stadt","type":"Stadt"},"district":{"key":"14627","name":"Meißen","type":"Landkreis"},"federalState":{"key":"14","name":"Sachsen"}},{"name":"Ledenweg","postalCode":"01445","locality":"Radebeul","municipality":{"key":"14627210","name":"Radebeul, Stadt","type":"Stadt"},"district":{"key":"14627","name":"Meißen","type":"Landkreis"},"federalState":{"key":"14","name":"Sachsen"}},{"name":"Lerchenweg","postalCode":"01445","locality":"Radebeul","municipality":{"key":"14627210","name":"Radebeul, Stadt","type":"Stadt"},"district":{"key":"14627","name":"Meißen","type":"Landkreis"},"federalState":{"key":"14","name":"Sachsen"}},{"name":"Lessingstr.","postalCode":"01445","locality":"Radebeul","municipality":{"key":"14627210","name":"Radebeul, Stadt","type":"Stadt"},"district":{"key":"14627","name":"Meißen","type":"Landkreis"},"federalState":{"key":"14","name":"Sachsen"}},{"name":"Lindenaustr.","postalCode":"01445","locality":"Radebeul","municipality":{"key":"14627210","name":"Radebeul, Stadt","type":"Stadt"},"district":{"key":"14627","name":"Meißen","type":"Landkreis"},"federalState":{"key":"14","name":"Sachsen"}},{"name":"Lindenweg","postalCode":"01445","locality":"Radebeul","municipality":{"key":"14627210","name":"Radebeul, Stadt","type":"Stadt"},"district":{"key":"14627","name":"Meißen","type":"Landkreis"},"federalState":{"key":"14","name":"Sachsen"}},{"name":"Löfflergasse","postalCode":"01445","locality":"Radebeul","municipality":{"key":"14627210","name":"Radebeul, Stadt","type":"Stadt"},"district":{"key":"14627","name":"Meißen","type":"Landkreis"},"federalState":{"key":"14","name":"Sachsen"}},{"name":"Lößnitzgrundstr.","postalCode":"01445","locality":"Radebeul","municipality":{"key":"14627210","name":"Radebeul, Stadt","type":"Stadt"},"district":{"key":"14627","name":"Meißen","type":"Landkreis"},"federalState":{"key":"14","name":"Sachsen"}},{"name":"Lößnitzhöhe","postalCode":"01445","locality":"Radebeul","municipality":{"key":"14627210","name":"Radebeul, Stadt","type":"Stadt"},"district":{"key":"14627","name":"Meißen","type":"Landkreis"},"federalState":{"key":"14","name":"Sachsen"}},{"name":"Lößnitzstr.","postalCode":"01445","locality":"Radebeul","municipality":{"key":"14627210","name":"Radebeul, Stadt","type":"Stadt"},"district":{"key":"14627","name":"Meißen","type":"Landkreis"},"federalState":{"key":"14","name":"Sachsen"}},{"name":"Louisenstr.","postalCode":"01445","locality":"Radebeul","municipality":{"key":"14627210","name":"Radebeul, Stadt","type":"Stadt"},"district":{"key":"14627","name":"Meißen","type":"Landkreis"},"federalState":{"key":"14","name":"Sachsen"}},{"name":"Ludwig-Jahn-Str.","postalCode":"01445","locality":"Radebeul","municipality":{"key":"14627210","name":"Radebeul, Stadt","type":"Stadt"},"district":{"key":"14627","name":"Meißen","type":"Landkreis"},"federalState":{"key":"14","name":"Sachsen"}},{"name":"Ludwig-Richter-Allee","postalCode":"01445","locality":"Radebeul","municipality":{"key":"14627210","name":"Radebeul, Stadt","type":"Stadt"},"district":{"key":"14627","name":"Meißen","type":"Landkreis"},"federalState":{"key":"14","name":"Sachsen"}},{"name":"Lutherstr.","postalCode":"01445","locality":"Radebeul","municipality":{"key":"14627210","name":"Radebeul, Stadt","type":"Stadt"},"district":{"key":"14627","name":"Meißen","type":"Landkreis"},"federalState":{"key":"14","name":"Sachsen"}},{"name":"L-Weg","postalCode":"01445","locality":"Radebeul","municipality":{"key":"14627210","name":"Radebeul, Stadt","type":"Stadt"},"district":{"key":"14627","name":"Meißen","type":"Landkreis"},"federalState":{"key":"14","name":"Sachsen"}},{"name":"Magdalenenstr.","postalCode":"01445","locality":"Radebeul","municipality":{"key":"14627210","name":"Radebeul, Stadt","type":"Stadt"},"district":{"key":"14627","name":"Meißen","type":"Landkreis"},"federalState":{"key":"14","name":"Sachsen"}},{"name":"Makarenkostr.","postalCode":"01445","locality":"Radebeul","municipality":{"key":"14627210","name":"Radebeul, Stadt","type":"Stadt"},"district":{"key":"14627","name":"Meißen","type":"Landkreis"},"federalState":{"key":"14","name":"Sachsen"}},{"name":"Marienstr.","postalCode":"01445","locality":"Radebeul","municipality":{"key":"14627210","name":"Radebeul, Stadt","type":"Stadt"},"district":{"key":"14627","name":"Meißen","type":"Landkreis"},"federalState":{"key":"14","name":"Sachsen"}},{"name":"Maxim-Gorki-Str.","postalCode":"01445","locality":"Radebeul","municipality":{"key":"14627210","name":"Radebeul, Stadt","type":"Stadt"},"district":{"key":"14627","name":"Meißen","type":"Landkreis"},"federalState":{"key":"14","name":"Sachsen"}},{"name":"Meiereiweg","postalCode":"01445","locality":"Radebeul","municipality":{"key":"14627210","name":"Radebeul, Stadt","type":"Stadt"},"district":{"key":"14627","name":"Meißen","type":"Landkreis"},"federalState":{"key":"14","name":"Sachsen"}},{"name":"Meißner Str.","postalCode":"01445","locality":"Radebeul","municipality":{"key":"14627210","name":"Radebeul, Stadt","type":"Stadt"},"district":{"key":"14627","name":"Meißen","type":"Landkreis"},"federalState":{"key":"14","name":"Sachsen"}},{"name":"Melanchthonstr.","postalCode":"01445","locality":"Radebeul","municipality":{"key":"14627210","name":"Radebeul, Stadt","type":"Stadt"},"district":{"key":"14627","name":"Meißen","type":"Landkreis"},"federalState":{"key":"14","name":"Sachsen"}},{"name":"Mittelsteg","postalCode":"01445","locality":"Radebeul","municipality":{"key":"14627210","name":"Radebeul, Stadt","type":"Stadt"},"district":{"key":"14627","name":"Meißen","type":"Landkreis"},"federalState":{"key":"14","name":"Sachsen"}},{"name":"Mittelstr.","postalCode":"01445","locality":"Radebeul","municipality":{"key":"14627210","name":"Radebeul, Stadt","type":"Stadt"},"district":{"key":"14627","name":"Meißen","type":"Landkreis"},"federalState":{"key":"14","name":"Sachsen"}},{"name":"Mittelweg","postalCode":"01445","locality":"Radebeul","municipality":{"key":"14627210","name":"Radebeul, Stadt","type":"Stadt"},"district":{"key":"14627","name":"Meißen","type":"Landkreis"},"federalState":{"key":"14","name":"Sachsen"}},{"name":"Mittlere Bergstr.","postalCode":"01445","locality":"Radebeul","municipality":{"key":"14627210","name":"Radebeul, Stadt","type":"Stadt"},"district":{"key":"14627","name":"Meißen","type":"Landkreis"},"federalState":{"key":"14","name":"Sachsen"}},{"name":"Mittlere Johannisbergstr.","postalCode":"01445","locality":"Radebeul","municipality":{"key":"14627210","name":"Radebeul, Stadt","type":"Stadt"},"district":{"key":"14627","name":"Meißen","type":"Landkreis"},"federalState":{"key":"14","name":"Sachsen"}},{"name":"Mohrenstr.","postalCode":"01445","locality":"Radebeul","municipality":{"key":"14627210","name":"Radebeul, Stadt","type":"Stadt"},"district":{"key":"14627","name":"Meißen","type":"Landkreis"},"federalState":{"key":"14","name":"Sachsen"}},{"name":"Morgenleite","postalCode":"01445","locality":"Radebeul","municipality":{"key":"14627210","name":"Radebeul, Stadt","type":"Stadt"},"district":{"key":"14627","name":"Meißen","type":"Landkreis"},"federalState":{"key":"14","name":"Sachsen"}},{"name":"Moritzburger Str.","postalCode":"01445","locality":"Radebeul","municipality":{"key":"14627210","name":"Radebeul, Stadt","type":"Stadt"},"district":{"key":"14627","name":"Meißen","type":"Landkreis"},"federalState":{"key":"14","name":"Sachsen"}},{"name":"Moritz-Garte-Steg","postalCode":"01445","locality":"Radebeul","municipality":{"key":"14627210","name":"Radebeul, Stadt","type":"Stadt"},"district":{"key":"14627","name":"Meißen","type":"Landkreis"},"federalState":{"key":"14","name":"Sachsen"}},{"name":"Mozartstr.","postalCode":"01445","locality":"Radebeul","municipality":{"key":"14627210","name":"Radebeul, Stadt","type":"Stadt"},"district":{"key":"14627","name":"Meißen","type":"Landkreis"},"federalState":{"key":"14","name":"Sachsen"}},{"name":"Mühlgraben","postalCode":"01445","locality":"Radebeul","municipality":{"key":"14627210","name":"Radebeul, Stadt","type":"Stadt"},"district":{"key":"14627","name":"Meißen","type":"Landkreis"},"federalState":{"key":"14","name":"Sachsen"}},{"name":"Mühlweg","postalCode":"01445","locality":"Radebeul","municipality":{"key":"14627210","name":"Radebeul, Stadt","type":"Stadt"},"district":{"key":"14627","name":"Meißen","type":"Landkreis"},"federalState":{"key":"14","name":"Sachsen"}},{"name":"Nach der Schiffsmühle","postalCode":"01445","locality":"Radebeul","municipality":{"key":"14627210","name":"Radebeul, Stadt","type":"Stadt"},"district":{"key":"14627","name":"Meißen","type":"Landkreis"},"federalState":{"key":"14","name":"Sachsen"}},{"name":"Naundorfer Str.","postalCode":"01445","locality":"Radebeul","municipality":{"key":"14627210","name":"Radebeul, Stadt","type":"Stadt"},"district":{"key":"14627","name":"Meißen","type":"Landkreis"},"federalState":{"key":"14","name":"Sachsen"}},{"name":"Neubrunnstr.","postalCode":"01445","locality":"Radebeul","municipality":{"key":"14627210","name":"Radebeul, Stadt","type":"Stadt"},"district":{"key":"14627","name":"Meißen","type":"Landkreis"},"federalState":{"key":"14","name":"Sachsen"}},{"name":"Neue Str.","postalCode":"01445","locality":"Radebeul","municipality":{"key":"14627210","name":"Radebeul, Stadt","type":"Stadt"},"district":{"key":"14627","name":"Meißen","type":"Landkreis"},"federalState":{"key":"14","name":"Sachsen"}},{"name":"Neufriedstein","postalCode":"01445","locality":"Radebeul","municipality":{"key":"14627210","name":"Radebeul, Stadt","type":"Stadt"},"district":{"key":"14627","name":"Meißen","type":"Landkreis"},"federalState":{"key":"14","name":"Sachsen"}},{"name":"Neuländer Str.","postalCode":"01445","locality":"Radebeul","municipality":{"key":"14627210","name":"Radebeul, Stadt","type":"Stadt"},"district":{"key":"14627","name":"Meißen","type":"Landkreis"},"federalState":{"key":"14","name":"Sachsen"}},{"name":"Niederwarthaer Str.","postalCode":"01445","locality":"Radebeul","municipality":{"key":"14627210","name":"Radebeul, Stadt","type":"Stadt"},"district":{"key":"14627","name":"Meißen","type":"Landkreis"},"federalState":{"key":"14","name":"Sachsen"}},{"name":"Nizzastr.","postalCode":"01445","locality":"Radebeul","municipality":{"key":"14627210","name":"Radebeul, Stadt","type":"Stadt"},"district":{"key":"14627","name":"Meißen","type":"Landkreis"},"federalState":{"key":"14","name":"Sachsen"}},{"name":"Nordstr.","postalCode":"01445","locality":"Radebeul","municipality":{"key":"14627210","name":"Radebeul, Stadt","type":"Stadt"},"district":{"key":"14627","name":"Meißen","type":"Landkreis"},"federalState":{"key":"14","name":"Sachsen"}},{"name":"Novalisstr.","postalCode":"01445","locality":"Radebeul","municipality":{"key":"14627210","name":"Radebeul, Stadt","type":"Stadt"},"district":{"key":"14627","name":"Meißen","type":"Landkreis"},"federalState":{"key":"14","name":"Sachsen"}},{"name":"Obere Bergstr.","postalCode":"01445","locality":"Radebeul","municipality":{"key":"14627210","name":"Radebeul, Stadt","type":"Stadt"},"district":{"key":"14627","name":"Meißen","type":"Landkreis"},"federalState":{"key":"14","name":"Sachsen"}},{"name":"Obere Burgstr.","postalCode":"01445","locality":"Radebeul","municipality":{"key":"14627210","name":"Radebeul, Stadt","type":"Stadt"},"district":{"key":"14627","name":"Meißen","type":"Landkreis"},"federalState":{"key":"14","name":"Sachsen"}},{"name":"Obere Johannisbergstr.","postalCode":"01445","locality":"Radebeul","municipality":{"key":"14627210","name":"Radebeul, Stadt","type":"Stadt"},"district":{"key":"14627","name":"Meißen","type":"Landkreis"},"federalState":{"key":"14","name":"Sachsen"}},{"name":"Oscar-Pletsch-Str.","postalCode":"01445","locality":"Radebeul","municipality":{"key":"14627210","name":"Radebeul, Stadt","type":"Stadt"},"district":{"key":"14627","name":"Meißen","type":"Landkreis"},"federalState":{"key":"14","name":"Sachsen"}},{"name":"Oststr.","postalCode":"01445","locality":"Radebeul","municipality":{"key":"14627210","name":"Radebeul, Stadt","type":"Stadt"},"district":{"key":"14627","name":"Meißen","type":"Landkreis"},"federalState":{"key":"14","name":"Sachsen"}},{"name":"Otto-Baer-Str.","postalCode":"01445","locality":"Radebeul","municipality":{"key":"14627210","name":"Radebeul, Stadt","type":"Stadt"},"district":{"key":"14627","name":"Meißen","type":"Landkreis"},"federalState":{"key":"14","name":"Sachsen"}},{"name":"Paradiesstr.","postalCode":"01445","locality":"Radebeul","municipality":{"key":"14627210","name":"Radebeul, Stadt","type":"Stadt"},"district":{"key":"14627","name":"Meißen","type":"Landkreis"},"federalState":{"key":"14","name":"Sachsen"}},{"name":"Patty-Frank-Weg","postalCode":"01445","locality":"Radebeul","municipality":{"key":"14627210","name":"Radebeul, Stadt","type":"Stadt"},"district":{"key":"14627","name":"Meißen","type":"Landkreis"},"federalState":{"key":"14","name":"Sachsen"}},{"name":"Paul-Gerhardt-Str.","postalCode":"01445","locality":"Radebeul","municipality":{"key":"14627210","name":"Radebeul, Stadt","type":"Stadt"},"district":{"key":"14627","name":"Meißen","type":"Landkreis"},"federalState":{"key":"14","name":"Sachsen"}},{"name":"Paul-Grosse-Passage","postalCode":"01445","locality":"Radebeul","municipality":{"key":"14627210","name":"Radebeul, Stadt","type":"Stadt"},"district":{"key":"14627","name":"Meißen","type":"Landkreis"},"federalState":{"key":"14","name":"Sachsen"}},{"name":"Paulsbergweg","postalCode":"01445","locality":"Radebeul","municipality":{"key":"14627210","name":"Radebeul, Stadt","type":"Stadt"},"district":{"key":"14627","name":"Meißen","type":"Landkreis"},"federalState":{"key":"14","name":"Sachsen"}},{"name":"Pestalozzistr.","postalCode":"01445","locality":"Radebeul","municipality":{"key":"14627210","name":"Radebeul, Stadt","type":"Stadt"},"district":{"key":"14627","name":"Meißen","type":"Landkreis"},"federalState":{"key":"14","name":"Sachsen"}},{"name":"Pfeifferweg","postalCode":"01445","locality":"Radebeul","municipality":{"key":"14627210","name":"Radebeul, Stadt","type":"Stadt"},"district":{"key":"14627","name":"Meißen","type":"Landkreis"},"federalState":{"key":"14","name":"Sachsen"}},{"name":"Planstr.","postalCode":"01445","locality":"Radebeul","municipality":{"key":"14627210","name":"Radebeul, Stadt","type":"Stadt"},"district":{"key":"14627","name":"Meißen","type":"Landkreis"},"federalState":{"key":"14","name":"Sachsen"}},{"name":"Preußerstr.","postalCode":"01445","locality":"Radebeul","municipality":{"key":"14627210","name":"Radebeul, Stadt","type":"Stadt"},"district":{"key":"14627","name":"Meißen","type":"Landkreis"},"federalState":{"key":"14","name":"Sachsen"}},{"name":"Professor-von-Finck-Str.","postalCode":"01445","locality":"Radebeul","municipality":{"key":"14627210","name":"Radebeul, Stadt","type":"Stadt"},"district":{"key":"14627","name":"Meißen","type":"Landkreis"},"federalState":{"key":"14","name":"Sachsen"}},{"name":"Prof.-Wilhelm-Ring","postalCode":"01445","locality":"Radebeul","municipality":{"key":"14627210","name":"Radebeul, Stadt","type":"Stadt"},"district":{"key":"14627","name":"Meißen","type":"Landkreis"},"federalState":{"key":"14","name":"Sachsen"}},{"name":"Querstr.","postalCode":"01445","locality":"Radebeul","municipality":{"key":"14627210","name":"Radebeul, Stadt","type":"Stadt"},"district":{"key":"14627","name":"Meißen","type":"Landkreis"},"federalState":{"key":"14","name":"Sachsen"}},{"name":"Rathenaustr.","postalCode":"01445","locality":"Radebeul","municipality":{"key":"14627210","name":"Radebeul, Stadt","type":"Stadt"},"district":{"key":"14627","name":"Meißen","type":"Landkreis"},"federalState":{"key":"14","name":"Sachsen"}},{"name":"Rebenwinkel","postalCode":"01445","locality":"Radebeul","municipality":{"key":"14627210","name":"Radebeul, Stadt","type":"Stadt"},"district":{"key":"14627","name":"Meißen","type":"Landkreis"},"federalState":{"key":"14","name":"Sachsen"}},{"name":"Reichenberger Str.","postalCode":"01445","locality":"Radebeul","municipality":{"key":"14627210","name":"Radebeul, Stadt","type":"Stadt"},"district":{"key":"14627","name":"Meißen","type":"Landkreis"},"federalState":{"key":"14","name":"Sachsen"}},{"name":"Reichsstr.","postalCode":"01445","locality":"Radebeul","municipality":{"key":"14627210","name":"Radebeul, Stadt","type":"Stadt"},"district":{"key":"14627","name":"Meißen","type":"Landkreis"},"federalState":{"key":"14","name":"Sachsen"}},{"name":"Rennerbergstr.","postalCode":"01445","locality":"Radebeul","municipality":{"key":"14627210","name":"Radebeul, Stadt","type":"Stadt"},"district":{"key":"14627","name":"Meißen","type":"Landkreis"},"federalState":{"key":"14","name":"Sachsen"}},{"name":"Retzschgasse","postalCode":"01445","locality":"Radebeul","municipality":{"key":"14627210","name":"Radebeul, Stadt","type":"Stadt"},"district":{"key":"14627","name":"Meißen","type":"Landkreis"},"federalState":{"key":"14","name":"Sachsen"}},{"name":"Richard-Müller-Str.","postalCode":"01445","locality":"Radebeul","municipality":{"key":"14627210","name":"Radebeul, Stadt","type":"Stadt"},"district":{"key":"14627","name":"Meißen","type":"Landkreis"},"federalState":{"key":"14","name":"Sachsen"}},{"name":"Richard-Wagner-Str.","postalCode":"01445","locality":"Radebeul","municipality":{"key":"14627210","name":"Radebeul, Stadt","type":"Stadt"},"district":{"key":"14627","name":"Meißen","type":"Landkreis"},"federalState":{"key":"14","name":"Sachsen"}},{"name":"Rieselgrund","postalCode":"01445","locality":"Radebeul","municipality":{"key":"14627210","name":"Radebeul, Stadt","type":"Stadt"},"district":{"key":"14627","name":"Meißen","type":"Landkreis"},"federalState":{"key":"14","name":"Sachsen"}},{"name":"Rieselgrundweg","postalCode":"01445","locality":"Radebeul","municipality":{"key":"14627210","name":"Radebeul, Stadt","type":"Stadt"},"district":{"key":"14627","name":"Meißen","type":"Landkreis"},"federalState":{"key":"14","name":"Sachsen"}},{"name":"Riesestr.","postalCode":"01445","locality":"Radebeul","municipality":{"key":"14627210","name":"Radebeul, Stadt","type":"Stadt"},"district":{"key":"14627","name":"Meißen","type":"Landkreis"},"federalState":{"key":"14","name":"Sachsen"}},{"name":"Rietzschkegrund","postalCode":"01445","locality":"Radebeul","municipality":{"key":"14627210","name":"Radebeul, Stadt","type":"Stadt"},"district":{"key":"14627","name":"Meißen","type":"Landkreis"},"federalState":{"key":"14","name":"Sachsen"}},{"name":"Ringstr.","postalCode":"01445","locality":"Radebeul","municipality":{"key":"14627210","name":"Radebeul, Stadt","type":"Stadt"},"district":{"key":"14627","name":"Meißen","type":"Landkreis"},"federalState":{"key":"14","name":"Sachsen"}},{"name":"Robert-Koch-Str.","postalCode":"01445","locality":"Radebeul","municipality":{"key":"14627210","name":"Radebeul, Stadt","type":"Stadt"},"district":{"key":"14627","name":"Meißen","type":"Landkreis"},"federalState":{"key":"14","name":"Sachsen"}},{"name":"Robert-Werner-Platz","postalCode":"01445","locality":"Radebeul","municipality":{"key":"14627210","name":"Radebeul, Stadt","type":"Stadt"},"district":{"key":"14627","name":"Meißen","type":"Landkreis"},"federalState":{"key":"14","name":"Sachsen"}},{"name":"Rodung","postalCode":"01445","locality":"Radebeul","municipality":{"key":"14627210","name":"Radebeul, Stadt","type":"Stadt"},"district":{"key":"14627","name":"Meißen","type":"Landkreis"},"federalState":{"key":"14","name":"Sachsen"}},{"name":"Rosa-Luxemburg-Platz","postalCode":"01445","locality":"Radebeul","municipality":{"key":"14627210","name":"Radebeul, Stadt","type":"Stadt"},"district":{"key":"14627","name":"Meißen","type":"Landkreis"},"federalState":{"key":"14","name":"Sachsen"}},{"name":"Roseggerstr.","postalCode":"01445","locality":"Radebeul","municipality":{"key":"14627210","name":"Radebeul, Stadt","type":"Stadt"},"district":{"key":"14627","name":"Meißen","type":"Landkreis"},"federalState":{"key":"14","name":"Sachsen"}},{"name":"Rosenstr.","postalCode":"01445","locality":"Radebeul","municipality":{"key":"14627210","name":"Radebeul, Stadt","type":"Stadt"},"district":{"key":"14627","name":"Meißen","type":"Landkreis"},"federalState":{"key":"14","name":"Sachsen"}},{"name":"Rudolf-Harbig-Str.","postalCode":"01445","locality":"Radebeul","municipality":{"key":"14627210","name":"Radebeul, Stadt","type":"Stadt"},"district":{"key":"14627","name":"Meißen","type":"Landkreis"},"federalState":{"key":"14","name":"Sachsen"}},{"name":"Sachsenstr.","postalCode":"01445","locality":"Radebeul","municipality":{"key":"14627210","name":"Radebeul, Stadt","type":"Stadt"},"district":{"key":"14627","name":"Meißen","type":"Landkreis"},"federalState":{"key":"14","name":"Sachsen"}},{"name":"Sandleite","postalCode":"01445","locality":"Radebeul","municipality":{"key":"14627210","name":"Radebeul, Stadt","type":"Stadt"},"district":{"key":"14627","name":"Meißen","type":"Landkreis"},"federalState":{"key":"14","name":"Sachsen"}},{"name":"Scharfenberger Str.","postalCode":"01445","locality":"Radebeul","municipality":{"key":"14627210","name":"Radebeul, Stadt","type":"Stadt"},"district":{"key":"14627","name":"Meißen","type":"Landkreis"},"federalState":{"key":"14","name":"Sachsen"}},{"name":"Schildenstr.","postalCode":"01445","locality":"Radebeul","municipality":{"key":"14627210","name":"Radebeul, Stadt","type":"Stadt"},"district":{"key":"14627","name":"Meißen","type":"Landkreis"},"federalState":{"key":"14","name":"Sachsen"}},{"name":"Schillerstr.","postalCode":"01445","locality":"Radebeul","municipality":{"key":"14627210","name":"Radebeul, Stadt","type":"Stadt"},"district":{"key":"14627","name":"Meißen","type":"Landkreis"},"federalState":{"key":"14","name":"Sachsen"}},{"name":"Schlegelstr.","postalCode":"01445","locality":"Radebeul","municipality":{"key":"14627210","name":"Radebeul, Stadt","type":"Stadt"},"district":{"key":"14627","name":"Meißen","type":"Landkreis"},"federalState":{"key":"14","name":"Sachsen"}},{"name":"Schluchtenweg","postalCode":"01445","locality":"Radebeul","municipality":{"key":"14627210","name":"Radebeul, Stadt","type":"Stadt"},"district":{"key":"14627","name":"Meißen","type":"Landkreis"},"federalState":{"key":"14","name":"Sachsen"}},{"name":"Schuchstr.","postalCode":"01445","locality":"Radebeul","municipality":{"key":"14627210","name":"Radebeul, Stadt","type":"Stadt"},"district":{"key":"14627","name":"Meißen","type":"Landkreis"},"federalState":{"key":"14","name":"Sachsen"}},{"name":"Schulstr.","postalCode":"01445","locality":"Radebeul","municipality":{"key":"14627210","name":"Radebeul, Stadt","type":"Stadt"},"district":{"key":"14627","name":"Meißen","type":"Landkreis"},"federalState":{"key":"14","name":"Sachsen"}},{"name":"Schumannstr.","postalCode":"01445","locality":"Radebeul","municipality":{"key":"14627210","name":"Radebeul, Stadt","type":"Stadt"},"district":{"key":"14627","name":"Meißen","type":"Landkreis"},"federalState":{"key":"14","name":"Sachsen"}},{"name":"Schützenweg","postalCode":"01445","locality":"Radebeul","municipality":{"key":"14627210","name":"Radebeul, Stadt","type":"Stadt"},"district":{"key":"14627","name":"Meißen","type":"Landkreis"},"federalState":{"key":"14","name":"Sachsen"}},{"name":"Schweizerstr.","postalCode":"01445","locality":"Radebeul","municipality":{"key":"14627210","name":"Radebeul, Stadt","type":"Stadt"},"district":{"key":"14627","name":"Meißen","type":"Landkreis"},"federalState":{"key":"14","name":"Sachsen"}},{"name":"Seestr.","postalCode":"01445","locality":"Radebeul","municipality":{"key":"14627210","name":"Radebeul, Stadt","type":"Stadt"},"district":{"key":"14627","name":"Meißen","type":"Landkreis"},"federalState":{"key":"14","name":"Sachsen"}},{"name":"Serkowitzer Str.","postalCode":"01445","locality":"Radebeul","municipality":{"key":"14627210","name":"Radebeul, Stadt","type":"Stadt"},"district":{"key":"14627","name":"Meißen","type":"Landkreis"},"federalState":{"key":"14","name":"Sachsen"}},{"name":"Seweningstr.","postalCode":"01445","locality":"Radebeul","municipality":{"key":"14627210","name":"Radebeul, Stadt","type":"Stadt"},"district":{"key":"14627","name":"Meißen","type":"Landkreis"},"federalState":{"key":"14","name":"Sachsen"}},{"name":"Sidonienstr.","postalCode":"01445","locality":"Radebeul","municipality":{"key":"14627210","name":"Radebeul, Stadt","type":"Stadt"},"district":{"key":"14627","name":"Meißen","type":"Landkreis"},"federalState":{"key":"14","name":"Sachsen"}},{"name":"Soermusstr.","postalCode":"01445","locality":"Radebeul","municipality":{"key":"14627210","name":"Radebeul, Stadt","type":"Stadt"},"district":{"key":"14627","name":"Meißen","type":"Landkreis"},"federalState":{"key":"14","name":"Sachsen"}},{"name":"Sonnenleite","postalCode":"01445","locality":"Radebeul","municipality":{"key":"14627210","name":"Radebeul, Stadt","type":"Stadt"},"district":{"key":"14627","name":"Meißen","type":"Landkreis"},"federalState":{"key":"14","name":"Sachsen"}},{"name":"Sonnenweg","postalCode":"01445","locality":"Radebeul","municipality":{"key":"14627210","name":"Radebeul, Stadt","type":"Stadt"},"district":{"key":"14627","name":"Meißen","type":"Landkreis"},"federalState":{"key":"14","name":"Sachsen"}},{"name":"Sörnewitzer Str.","postalCode":"01445","locality":"Radebeul","municipality":{"key":"14627210","name":"Radebeul, Stadt","type":"Stadt"},"district":{"key":"14627","name":"Meißen","type":"Landkreis"},"federalState":{"key":"14","name":"Sachsen"}},{"name":"Spitzgrundweg","postalCode":"01445","locality":"Radebeul","municipality":{"key":"14627210","name":"Radebeul, Stadt","type":"Stadt"},"district":{"key":"14627","name":"Meißen","type":"Landkreis"},"federalState":{"key":"14","name":"Sachsen"}},{"name":"Spitzhausstr.","postalCode":"01445","locality":"Radebeul","municipality":{"key":"14627210","name":"Radebeul, Stadt","type":"Stadt"},"district":{"key":"14627","name":"Meißen","type":"Landkreis"},"federalState":{"key":"14","name":"Sachsen"}},{"name":"Spitzhaustreppe","postalCode":"01445","locality":"Radebeul","municipality":{"key":"14627210","name":"Radebeul, Stadt","type":"Stadt"},"district":{"key":"14627","name":"Meißen","type":"Landkreis"},"federalState":{"key":"14","name":"Sachsen"}},{"name":"Steinbachstr.","postalCode":"01445","locality":"Radebeul","municipality":{"key":"14627210","name":"Radebeul, Stadt","type":"Stadt"},"district":{"key":"14627","name":"Meißen","type":"Landkreis"},"federalState":{"key":"14","name":"Sachsen"}},{"name":"Steinbergweg","postalCode":"01445","locality":"Radebeul","municipality":{"key":"14627210","name":"Radebeul, Stadt","type":"Stadt"},"district":{"key":"14627","name":"Meißen","type":"Landkreis"},"federalState":{"key":"14","name":"Sachsen"}},{"name":"Steineichenweg","postalCode":"01445","locality":"Radebeul","municipality":{"key":"14627210","name":"Radebeul, Stadt","type":"Stadt"},"district":{"key":"14627","name":"Meißen","type":"Landkreis"},"federalState":{"key":"14","name":"Sachsen"}},{"name":"Steinweg","postalCode":"01445","locality":"Radebeul","municipality":{"key":"14627210","name":"Radebeul, Stadt","type":"Stadt"},"district":{"key":"14627","name":"Meißen","type":"Landkreis"},"federalState":{"key":"14","name":"Sachsen"}},{"name":"Stosch-Sarrasani-Str.","postalCode":"01445","locality":"Radebeul","municipality":{"key":"14627210","name":"Radebeul, Stadt","type":"Stadt"},"district":{"key":"14627","name":"Meißen","type":"Landkreis"},"federalState":{"key":"14","name":"Sachsen"}},{"name":"Straken","postalCode":"01445","locality":"Radebeul","municipality":{"key":"14627210","name":"Radebeul, Stadt","type":"Stadt"},"district":{"key":"14627","name":"Meißen","type":"Landkreis"},"federalState":{"key":"14","name":"Sachsen"}},{"name":"Str. der Jugend","postalCode":"01445","locality":"Radebeul","municipality":{"key":"14627210","name":"Radebeul, Stadt","type":"Stadt"},"district":{"key":"14627","name":"Meißen","type":"Landkreis"},"federalState":{"key":"14","name":"Sachsen"}},{"name":"Str. des Friedens","postalCode":"01445","locality":"Radebeul","municipality":{"key":"14627210","name":"Radebeul, Stadt","type":"Stadt"},"district":{"key":"14627","name":"Meißen","type":"Landkreis"},"federalState":{"key":"14","name":"Sachsen"}},{"name":"Südstr.","postalCode":"01445","locality":"Radebeul","municipality":{"key":"14627210","name":"Radebeul, Stadt","type":"Stadt"},"district":{"key":"14627","name":"Meißen","type":"Landkreis"},"federalState":{"key":"14","name":"Sachsen"}},{"name":"Talkenbergweg","postalCode":"01445","locality":"Radebeul","municipality":{"key":"14627210","name":"Radebeul, Stadt","type":"Stadt"},"district":{"key":"14627","name":"Meißen","type":"Landkreis"},"federalState":{"key":"14","name":"Sachsen"}},{"name":"Tännichtweg","postalCode":"01445","locality":"Radebeul","municipality":{"key":"14627210","name":"Radebeul, Stadt","type":"Stadt"},"district":{"key":"14627","name":"Meißen","type":"Landkreis"},"federalState":{"key":"14","name":"Sachsen"}},{"name":"Terrassenstr.","postalCode":"01445","locality":"Radebeul","municipality":{"key":"14627210","name":"Radebeul, Stadt","type":"Stadt"},"district":{"key":"14627","name":"Meißen","type":"Landkreis"},"federalState":{"key":"14","name":"Sachsen"}},{"name":"Thalheimstr.","postalCode":"01445","locality":"Radebeul","municipality":{"key":"14627210","name":"Radebeul, Stadt","type":"Stadt"},"district":{"key":"14627","name":"Meißen","type":"Landkreis"},"federalState":{"key":"14","name":"Sachsen"}},{"name":"Thomas-Mann-Str.","postalCode":"01445","locality":"Radebeul","municipality":{"key":"14627210","name":"Radebeul, Stadt","type":"Stadt"},"district":{"key":"14627","name":"Meißen","type":"Landkreis"},"federalState":{"key":"14","name":"Sachsen"}},{"name":"Trachauer Str.","postalCode":"01445","locality":"Radebeul","municipality":{"key":"14627210","name":"Radebeul, Stadt","type":"Stadt"},"district":{"key":"14627","name":"Meißen","type":"Landkreis"},"federalState":{"key":"14","name":"Sachsen"}},{"name":"Turmleite","postalCode":"01445","locality":"Radebeul","municipality":{"key":"14627210","name":"Radebeul, Stadt","type":"Stadt"},"district":{"key":"14627","name":"Meißen","type":"Landkreis"},"federalState":{"key":"14","name":"Sachsen"}},{"name":"Uferstr.","postalCode":"01445","locality":"Radebeul","municipality":{"key":"14627210","name":"Radebeul, Stadt","type":"Stadt"},"district":{"key":"14627","name":"Meißen","type":"Landkreis"},"federalState":{"key":"14","name":"Sachsen"}},{"name":"Uhlandring","postalCode":"01445","locality":"Radebeul","municipality":{"key":"14627210","name":"Radebeul, Stadt","type":"Stadt"},"district":{"key":"14627","name":"Meißen","type":"Landkreis"},"federalState":{"key":"14","name":"Sachsen"}},{"name":"Untere Barkengasse","postalCode":"01445","locality":"Radebeul","municipality":{"key":"14627210","name":"Radebeul, Stadt","type":"Stadt"},"district":{"key":"14627","name":"Meißen","type":"Landkreis"},"federalState":{"key":"14","name":"Sachsen"}},{"name":"Untere Finstere Gasse","postalCode":"01445","locality":"Radebeul","municipality":{"key":"14627210","name":"Radebeul, Stadt","type":"Stadt"},"district":{"key":"14627","name":"Meißen","type":"Landkreis"},"federalState":{"key":"14","name":"Sachsen"}},{"name":"Vorwerkstr.","postalCode":"01445","locality":"Radebeul","municipality":{"key":"14627210","name":"Radebeul, Stadt","type":"Stadt"},"district":{"key":"14627","name":"Meißen","type":"Landkreis"},"federalState":{"key":"14","name":"Sachsen"}},{"name":"Wackerbarthstr.","postalCode":"01445","locality":"Radebeul","municipality":{"key":"14627210","name":"Radebeul, Stadt","type":"Stadt"},"district":{"key":"14627","name":"Meißen","type":"Landkreis"},"federalState":{"key":"14","name":"Sachsen"}},{"name":"Wahnsdorfer Weg","postalCode":"01445","locality":"Radebeul","municipality":{"key":"14627210","name":"Radebeul, Stadt","type":"Stadt"},"district":{"key":"14627","name":"Meißen","type":"Landkreis"},"federalState":{"key":"14","name":"Sachsen"}},{"name":"Waldstr.","postalCode":"01445","locality":"Radebeul","municipality":{"key":"14627210","name":"Radebeul, Stadt","type":"Stadt"},"district":{"key":"14627","name":"Meißen","type":"Landkreis"},"federalState":{"key":"14","name":"Sachsen"}},{"name":"Waldweg","postalCode":"01445","locality":"Radebeul","municipality":{"key":"14627210","name":"Radebeul, Stadt","type":"Stadt"},"district":{"key":"14627","name":"Meißen","type":"Landkreis"},"federalState":{"key":"14","name":"Sachsen"}},{"name":"Waldwiesenweg","postalCode":"01445","locality":"Radebeul","municipality":{"key":"14627210","name":"Radebeul, Stadt","type":"Stadt"},"district":{"key":"14627","name":"Meißen","type":"Landkreis"},"federalState":{"key":"14","name":"Sachsen"}},{"name":"Wasastr.","postalCode":"01445","locality":"Radebeul","municipality":{"key":"14627210","name":"Radebeul, Stadt","type":"Stadt"},"district":{"key":"14627","name":"Meißen","type":"Landkreis"},"federalState":{"key":"14","name":"Sachsen"}},{"name":"Weberstr.","postalCode":"01445","locality":"Radebeul","municipality":{"key":"14627210","name":"Radebeul, Stadt","type":"Stadt"},"district":{"key":"14627","name":"Meißen","type":"Landkreis"},"federalState":{"key":"14","name":"Sachsen"}},{"name":"Weidenweg","postalCode":"01445","locality":"Radebeul","municipality":{"key":"14627210","name":"Radebeul, Stadt","type":"Stadt"},"district":{"key":"14627","name":"Meißen","type":"Landkreis"},"federalState":{"key":"14","name":"Sachsen"}},{"name":"Weinbergstr.","postalCode":"01445","locality":"Radebeul","municipality":{"key":"14627210","name":"Radebeul, Stadt","type":"Stadt"},"district":{"key":"14627","name":"Meißen","type":"Landkreis"},"federalState":{"key":"14","name":"Sachsen"}},{"name":"Weinböhlaer Str.","postalCode":"01445","locality":"Radebeul","municipality":{"key":"14627210","name":"Radebeul, Stadt","type":"Stadt"},"district":{"key":"14627","name":"Meißen","type":"Landkreis"},"federalState":{"key":"14","name":"Sachsen"}},{"name":"Weintraubenstr.","postalCode":"01445","locality":"Radebeul","municipality":{"key":"14627210","name":"Radebeul, Stadt","type":"Stadt"},"district":{"key":"14627","name":"Meißen","type":"Landkreis"},"federalState":{"key":"14","name":"Sachsen"}},{"name":"Weinwanderweg","postalCode":"01445","locality":"Radebeul","municipality":{"key":"14627210","name":"Radebeul, Stadt","type":"Stadt"},"district":{"key":"14627","name":"Meißen","type":"Landkreis"},"federalState":{"key":"14","name":"Sachsen"}},{"name":"Weinwanderweg Friedensburg","postalCode":"01445","locality":"Radebeul","municipality":{"key":"14627210","name":"Radebeul, Stadt","type":"Stadt"},"district":{"key":"14627","name":"Meißen","type":"Landkreis"},"federalState":{"key":"14","name":"Sachsen"}},{"name":"Weistropper Str.","postalCode":"01445","locality":"Radebeul","municipality":{"key":"14627210","name":"Radebeul, Stadt","type":"Stadt"},"district":{"key":"14627","name":"Meißen","type":"Landkreis"},"federalState":{"key":"14","name":"Sachsen"}},{"name":"Werner-Wittig-Weg","postalCode":"01445","locality":"Radebeul","municipality":{"key":"14627210","name":"Radebeul, Stadt","type":"Stadt"},"district":{"key":"14627","name":"Meißen","type":"Landkreis"},"federalState":{"key":"14","name":"Sachsen"}},{"name":"Weststr.","postalCode":"01445","locality":"Radebeul","municipality":{"key":"14627210","name":"Radebeul, Stadt","type":"Stadt"},"district":{"key":"14627","name":"Meißen","type":"Landkreis"},"federalState":{"key":"14","name":"Sachsen"}},{"name":"Wettinstr.","postalCode":"01445","locality":"Radebeul","municipality":{"key":"14627210","name":"Radebeul, Stadt","type":"Stadt"},"district":{"key":"14627","name":"Meißen","type":"Landkreis"},"federalState":{"key":"14","name":"Sachsen"}},{"name":"Wichernstr.","postalCode":"01445","locality":"Radebeul","municipality":{"key":"14627210","name":"Radebeul, Stadt","type":"Stadt"},"district":{"key":"14627","name":"Meißen","type":"Landkreis"},"federalState":{"key":"14","name":"Sachsen"}},{"name":"Wielandstr.","postalCode":"01445","locality":"Radebeul","municipality":{"key":"14627210","name":"Radebeul, Stadt","type":"Stadt"},"district":{"key":"14627","name":"Meißen","type":"Landkreis"},"federalState":{"key":"14","name":"Sachsen"}},{"name":"Wiesenstr.","postalCode":"01445","locality":"Radebeul","municipality":{"key":"14627210","name":"Radebeul, Stadt","type":"Stadt"},"district":{"key":"14627","name":"Meißen","type":"Landkreis"},"federalState":{"key":"14","name":"Sachsen"}},{"name":"Wilhelm-Busch-Str.","postalCode":"01445","locality":"Radebeul","municipality":{"key":"14627210","name":"Radebeul, Stadt","type":"Stadt"},"district":{"key":"14627","name":"Meißen","type":"Landkreis"},"federalState":{"key":"14","name":"Sachsen"}},{"name":"Wilhelm-Eichler-Str.","postalCode":"01445","locality":"Radebeul","municipality":{"key":"14627210","name":"Radebeul, Stadt","type":"Stadt"},"district":{"key":"14627","name":"Meißen","type":"Landkreis"},"federalState":{"key":"14","name":"Sachsen"}},{"name":"Wilhelmstr.","postalCode":"01445","locality":"Radebeul","municipality":{"key":"14627210","name":"Radebeul, Stadt","type":"Stadt"},"district":{"key":"14627","name":"Meißen","type":"Landkreis"},"federalState":{"key":"14","name":"Sachsen"}},{"name":"Winterkehle","postalCode":"01445","locality":"Radebeul","municipality":{"key":"14627210","name":"Radebeul, Stadt","type":"Stadt"},"district":{"key":"14627","name":"Meißen","type":"Landkreis"},"federalState":{"key":"14","name":"Sachsen"}},{"name":"Winzerstr.","postalCode":"01445","locality":"Radebeul","municipality":{"key":"14627210","name":"Radebeul, Stadt","type":"Stadt"},"district":{"key":"14627","name":"Meißen","type":"Landkreis"},"federalState":{"key":"14","name":"Sachsen"}},{"name":"Zechsteinweg","postalCode":"01445","locality":"Radebeul","municipality":{"key":"14627210","name":"Radebeul, Stadt","type":"Stadt"},"district":{"key":"14627","name":"Meißen","type":"Landkreis"},"federalState":{"key":"14","name":"Sachsen"}},{"name":"Ziegeleiweg","postalCode":"01445","locality":"Radebeul","municipality":{"key":"14627210","name":"Radebeul, Stadt","type":"Stadt"},"district":{"key":"14627","name":"Meißen","type":"Landkreis"},"federalState":{"key":"14","name":"Sachsen"}},{"name":"Zillerplatz","postalCode":"01445","locality":"Radebeul","municipality":{"key":"14627210","name":"Radebeul, Stadt","type":"Stadt"},"district":{"key":"14627","name":"Meißen","type":"Landkreis"},"federalState":{"key":"14","name":"Sachsen"}},{"name":"Zillerstr.","postalCode":"01445","locality":"Radebeul","municipality":{"key":"14627210","name":"Radebeul, Stadt","type":"Stadt"},"district":{"key":"14627","name":"Meißen","type":"Landkreis"},"federalState":{"key":"14","name":"Sachsen"}},{"name":"Älterstr.","postalCode":"77974","locality":"Meißenheim","municipality":{"key":"08317075","name":"Meißenheim","type":"Kreisangehörige_Gemeinde"},"district":{"key":"08317","name":"Ortenaukreis","type":"Landkreis"},"federalState":{"key":"08","name":"Baden-Württemberg"}},]