[{"key":"10079939","name":"Adlibogenstrasse","postalCode":"8155","locality":"Niederhasli","commune":{"key":"90","name":"Niederhasli","shortName":"Niederhasli"},"district":{"key":"104","name":"Bezirk Dielsdorf"},"canton":{"key":"1","code":"ZH","name":"Zürich"},"status":"Real"},{"key":"10118923","name":"Adlirain","postalCode":"8155","locality":"Niederhasli","commune":{"key":"90","name":"Niederhasli","shortName":"Niederhasli"},"district":{"key":"104","name":"Bezirk Dielsdorf"},"canton":{"key":"1","code":"ZH","name":"Zürich"},"status":"Real"},{"key":"10061074","name":"Ahornweg","postalCode":"8155","locality":"Niederhasli","commune":{"key":"90","name":"Niederhasli","shortName":"Niederhasli"},"district":{"key":"104","name":"Bezirk Dielsdorf"},"canton":{"key":"1","code":"ZH","name":"Zürich"},"status":"Real"},{"key":"10118924","name":"Allmendweg","postalCode":"8155","locality":"Niederhasli","commune":{"key":"90","name":"Niederhasli","shortName":"Niederhasli"},"district":{"key":"104","name":"Bezirk Dielsdorf"},"canton":{"key":"1","code":"ZH","name":"Zürich"},"status":"Real"},{"key":"10165120","name":"Appizellerweg","postalCode":"8155","locality":"Niederhasli","commune":{"key":"90","name":"Niederhasli","shortName":"Niederhasli"},"district":{"key":"104","name":"Bezirk Dielsdorf"},"canton":{"key":"1","code":"ZH","name":"Zürich"},"status":"Real"},{"key":"10000762","name":"Bächelweg","postalCode":"8155","locality":"Niederhasli","commune":{"key":"90","name":"Niederhasli","shortName":"Niederhasli"},"district":{"key":"104","name":"Bezirk Dielsdorf"},"canton":{"key":"1","code":"ZH","name":"Zürich"},"status":"Real"},{"key":"10020381","name":"Bächenhauweg","postalCode":"8155","locality":"Niederhasli","commune":{"key":"90","name":"Niederhasli","shortName":"Niederhasli"},"district":{"key":"104","name":"Bezirk Dielsdorf"},"canton":{"key":"1","code":"ZH","name":"Zürich"},"status":"Real"},{"key":"10088682","name":"Bachtobelweg","postalCode":"8155","locality":"Niederhasli","commune":{"key":"90","name":"Niederhasli","shortName":"Niederhasli"},"district":{"key":"104","name":"Bezirk Dielsdorf"},"canton":{"key":"1","code":"ZH","name":"Zürich"},"status":"Real"},{"key":"10088691","name":"Bettlenweg","postalCode":"8155","locality":"Niederhasli","commune":{"key":"90","name":"Niederhasli","shortName":"Niederhasli"},"district":{"key":"104","name":"Bezirk Dielsdorf"},"canton":{"key":"1","code":"ZH","name":"Zürich"},"status":"Real"},{"key":"10088692","name":"Brenntensteinweg","postalCode":"8155","locality":"Niederhasli","commune":{"key":"90","name":"Niederhasli","shortName":"Niederhasli"},"district":{"key":"104","name":"Bezirk Dielsdorf"},"canton":{"key":"1","code":"ZH","name":"Zürich"},"status":"Real"},{"key":"10088694","name":"Bruggenweg","postalCode":"8155","locality":"Niederhasli","commune":{"key":"90","name":"Niederhasli","shortName":"Niederhasli"},"district":{"key":"104","name":"Bezirk Dielsdorf"},"canton":{"key":"1","code":"ZH","name":"Zürich"},"status":"Real"},{"key":"10088696","name":"Brunneweg","postalCode":"8155","locality":"Niederhasli","commune":{"key":"90","name":"Niederhasli","shortName":"Niederhasli"},"district":{"key":"104","name":"Bezirk Dielsdorf"},"canton":{"key":"1","code":"ZH","name":"Zürich"},"status":"Real"},{"key":"10000760","name":"Brünnlistrasse","postalCode":"8155","locality":"Niederhasli","commune":{"key":"90","name":"Niederhasli","shortName":"Niederhasli"},"district":{"key":"104","name":"Bezirk Dielsdorf"},"canton":{"key":"1","code":"ZH","name":"Zürich"},"status":"Real"},{"key":"10000761","name":"Buchenweg","postalCode":"8155","locality":"Niederhasli","commune":{"key":"90","name":"Niederhasli","shortName":"Niederhasli"},"district":{"key":"104","name":"Bezirk Dielsdorf"},"canton":{"key":"1","code":"ZH","name":"Zürich"},"status":"Real"},{"key":"10079940","name":"Bungertweg","postalCode":"8155","locality":"Niederhasli","commune":{"key":"90","name":"Niederhasli","shortName":"Niederhasli"},"district":{"key":"104","name":"Bezirk Dielsdorf"},"canton":{"key":"1","code":"ZH","name":"Zürich"},"status":"Real"},{"key":"10163860","name":"Burgenrainweg","postalCode":"8155","locality":"Niederhasli","commune":{"key":"90","name":"Niederhasli","shortName":"Niederhasli"},"district":{"key":"104","name":"Bezirk Dielsdorf"},"canton":{"key":"1","code":"ZH","name":"Zürich"},"status":"Real"},{"key":"10000763","name":"Chileweg","postalCode":"8155","locality":"Niederhasli","commune":{"key":"90","name":"Niederhasli","shortName":"Niederhasli"},"district":{"key":"104","name":"Bezirk Dielsdorf"},"canton":{"key":"1","code":"ZH","name":"Zürich"},"status":"Real"},{"key":"10019044","name":"Chilmisweg","postalCode":"8155","locality":"Niederhasli","commune":{"key":"90","name":"Niederhasli","shortName":"Niederhasli"},"district":{"key":"104","name":"Bezirk Dielsdorf"},"canton":{"key":"1","code":"ZH","name":"Zürich"},"status":"Real"},{"key":"10092214","name":"Chutzenmoosstrasse","postalCode":"8155","locality":"Niederhasli","commune":{"key":"90","name":"Niederhasli","shortName":"Niederhasli"},"district":{"key":"104","name":"Bezirk Dielsdorf"},"canton":{"key":"1","code":"ZH","name":"Zürich"},"status":"Real"},{"key":"10166139","name":"Dickweg","postalCode":"8155","locality":"Niederhasli","commune":{"key":"90","name":"Niederhasli","shortName":"Niederhasli"},"district":{"key":"104","name":"Bezirk Dielsdorf"},"canton":{"key":"1","code":"ZH","name":"Zürich"},"status":"Real"},{"key":"10079941","name":"Dielsdorferstrasse","postalCode":"8155","locality":"Niederhasli","commune":{"key":"90","name":"Niederhasli","shortName":"Niederhasli"},"district":{"key":"104","name":"Bezirk Dielsdorf"},"canton":{"key":"1","code":"ZH","name":"Zürich"},"status":"Real"},{"key":"10000957","name":"Dorfstrasse","postalCode":"8155","locality":"Niederhasli","commune":{"key":"90","name":"Niederhasli","shortName":"Niederhasli"},"district":{"key":"104","name":"Bezirk Dielsdorf"},"canton":{"key":"1","code":"ZH","name":"Zürich"},"status":"Real"},{"key":"10000958","name":"Dreierweg","postalCode":"8155","locality":"Niederhasli","commune":{"key":"90","name":"Niederhasli","shortName":"Niederhasli"},"district":{"key":"104","name":"Bezirk Dielsdorf"},"canton":{"key":"1","code":"ZH","name":"Zürich"},"status":"Real"},{"key":"10088485","name":"Ebistweg","postalCode":"8155","locality":"Niederhasli","commune":{"key":"90","name":"Niederhasli","shortName":"Niederhasli"},"district":{"key":"104","name":"Bezirk Dielsdorf"},"canton":{"key":"1","code":"ZH","name":"Zürich"},"status":"Real"},{"key":"10000959","name":"Ehrliweg","postalCode":"8155","locality":"Niederhasli","commune":{"key":"90","name":"Niederhasli","shortName":"Niederhasli"},"district":{"key":"104","name":"Bezirk Dielsdorf"},"canton":{"key":"1","code":"ZH","name":"Zürich"},"status":"Real"},{"key":"10061076","name":"Eichstrasse","postalCode":"8155","locality":"Niederhasli","commune":{"key":"90","name":"Niederhasli","shortName":"Niederhasli"},"district":{"key":"104","name":"Bezirk Dielsdorf"},"canton":{"key":"1","code":"ZH","name":"Zürich"},"status":"Real"},{"key":"10000960","name":"Eierbachstrasse","postalCode":"8155","locality":"Niederhasli","commune":{"key":"90","name":"Niederhasli","shortName":"Niederhasli"},"district":{"key":"104","name":"Bezirk Dielsdorf"},"canton":{"key":"1","code":"ZH","name":"Zürich"},"status":"Real"},{"key":"10119912","name":"Eigenbühlweg","postalCode":"8155","locality":"Niederhasli","commune":{"key":"90","name":"Niederhasli","shortName":"Niederhasli"},"district":{"key":"104","name":"Bezirk Dielsdorf"},"canton":{"key":"1","code":"ZH","name":"Zürich"},"status":"Real"},{"key":"10088489","name":"Eschenrainweg","postalCode":"8155","locality":"Niederhasli","commune":{"key":"90","name":"Niederhasli","shortName":"Niederhasli"},"district":{"key":"104","name":"Bezirk Dielsdorf"},"canton":{"key":"1","code":"ZH","name":"Zürich"},"status":"Real"},{"key":"10117356","name":"Farnweg","postalCode":"8155","locality":"Niederhasli","commune":{"key":"90","name":"Niederhasli","shortName":"Niederhasli"},"district":{"key":"104","name":"Bezirk Dielsdorf"},"canton":{"key":"1","code":"ZH","name":"Zürich"},"status":"Real"},{"key":"10088490","name":"Federenwiesenweg","postalCode":"8155","locality":"Niederhasli","commune":{"key":"90","name":"Niederhasli","shortName":"Niederhasli"},"district":{"key":"104","name":"Bezirk Dielsdorf"},"canton":{"key":"1","code":"ZH","name":"Zürich"},"status":"Real"},{"key":"10088781","name":"Feldhofstrasse","postalCode":"8155","locality":"Niederhasli","commune":{"key":"90","name":"Niederhasli","shortName":"Niederhasli"},"district":{"key":"104","name":"Bezirk Dielsdorf"},"canton":{"key":"1","code":"ZH","name":"Zürich"},"status":"Real"},{"key":"10241663","name":"Fischbachweg","postalCode":"8155","locality":"Niederhasli","commune":{"key":"90","name":"Niederhasli","shortName":"Niederhasli"},"district":{"key":"104","name":"Bezirk Dielsdorf"},"canton":{"key":"1","code":"ZH","name":"Zürich"},"status":"Real"},{"key":"10174606","name":"Fräfligweg","postalCode":"8155","locality":"Niederhasli","commune":{"key":"90","name":"Niederhasli","shortName":"Niederhasli"},"district":{"key":"104","name":"Bezirk Dielsdorf"},"canton":{"key":"1","code":"ZH","name":"Zürich"},"status":"Real"},{"key":"10113652","name":"Frevligstrasse","postalCode":"8155","locality":"Niederhasli","commune":{"key":"90","name":"Niederhasli","shortName":"Niederhasli"},"district":{"key":"104","name":"Bezirk Dielsdorf"},"canton":{"key":"1","code":"ZH","name":"Zürich"},"status":"Real"},{"key":"10088504","name":"Füezeriweg","postalCode":"8155","locality":"Niederhasli","commune":{"key":"90","name":"Niederhasli","shortName":"Niederhasli"},"district":{"key":"104","name":"Bezirk Dielsdorf"},"canton":{"key":"1","code":"ZH","name":"Zürich"},"status":"Real"},{"key":"10072950","name":"Furtbachweg","postalCode":"8155","locality":"Niederhasli","commune":{"key":"90","name":"Niederhasli","shortName":"Niederhasli"},"district":{"key":"104","name":"Bezirk Dielsdorf"},"canton":{"key":"1","code":"ZH","name":"Zürich"},"status":"Real"},{"key":"10172245","name":"Furtstrasse","postalCode":"8155","locality":"Niederhasli","commune":{"key":"90","name":"Niederhasli","shortName":"Niederhasli"},"district":{"key":"104","name":"Bezirk Dielsdorf"},"canton":{"key":"1","code":"ZH","name":"Zürich"},"status":"Real"},{"key":"10088505","name":"Geissmattweg","postalCode":"8155","locality":"Niederhasli","commune":{"key":"90","name":"Niederhasli","shortName":"Niederhasli"},"district":{"key":"104","name":"Bezirk Dielsdorf"},"canton":{"key":"1","code":"ZH","name":"Zürich"},"status":"Real"},{"key":"10110238","name":"Gewerbestrasse","postalCode":"8155","locality":"Niederhasli","commune":{"key":"90","name":"Niederhasli","shortName":"Niederhasli"},"district":{"key":"104","name":"Bezirk Dielsdorf"},"canton":{"key":"1","code":"ZH","name":"Zürich"},"status":"Real"},{"key":"10079942","name":"Glärnischstrasse","postalCode":"8155","locality":"Niederhasli","commune":{"key":"90","name":"Niederhasli","shortName":"Niederhasli"},"district":{"key":"104","name":"Bezirk Dielsdorf"},"canton":{"key":"1","code":"ZH","name":"Zürich"},"status":"Real"},{"key":"10158123","name":"Grabenstrasse","postalCode":"8155","locality":"Niederhasli","commune":{"key":"90","name":"Niederhasli","shortName":"Niederhasli"},"district":{"key":"104","name":"Bezirk Dielsdorf"},"canton":{"key":"1","code":"ZH","name":"Zürich"},"status":"Real"},{"key":"10000961","name":"Griessweg","postalCode":"8155","locality":"Niederhasli","commune":{"key":"90","name":"Niederhasli","shortName":"Niederhasli"},"district":{"key":"104","name":"Bezirk Dielsdorf"},"canton":{"key":"1","code":"ZH","name":"Zürich"},"status":"Real"},{"key":"10088507","name":"Grossackerweg","postalCode":"8155","locality":"Niederhasli","commune":{"key":"90","name":"Niederhasli","shortName":"Niederhasli"},"district":{"key":"104","name":"Bezirk Dielsdorf"},"canton":{"key":"1","code":"ZH","name":"Zürich"},"status":"Real"},{"key":"10245050","name":"Grossrietweg","postalCode":"8155","locality":"Niederhasli","commune":{"key":"90","name":"Niederhasli","shortName":"Niederhasli"},"district":{"key":"104","name":"Bezirk Dielsdorf"},"canton":{"key":"1","code":"ZH","name":"Zürich"},"status":"Real"},{"key":"10110982","name":"Haagächerstrasse","postalCode":"8155","locality":"Niederhasli","commune":{"key":"90","name":"Niederhasli","shortName":"Niederhasli"},"district":{"key":"104","name":"Bezirk Dielsdorf"},"canton":{"key":"1","code":"ZH","name":"Zürich"},"status":"Real"},{"key":"10193798","name":"Haagächerweg","postalCode":"8155","locality":"Niederhasli","commune":{"key":"90","name":"Niederhasli","shortName":"Niederhasli"},"district":{"key":"104","name":"Bezirk Dielsdorf"},"canton":{"key":"1","code":"ZH","name":"Zürich"},"status":"Real"},{"key":"10199404","name":"Haagwiesenstrasse","postalCode":"8155","locality":"Niederhasli","commune":{"key":"90","name":"Niederhasli","shortName":"Niederhasli"},"district":{"key":"104","name":"Bezirk Dielsdorf"},"canton":{"key":"1","code":"ZH","name":"Zürich"},"status":"Real"},{"key":"10061078","name":"Haldenstrasse","postalCode":"8155","locality":"Niederhasli","commune":{"key":"90","name":"Niederhasli","shortName":"Niederhasli"},"district":{"key":"104","name":"Bezirk Dielsdorf"},"canton":{"key":"1","code":"ZH","name":"Zürich"},"status":"Real"},{"key":"10079943","name":"Hanfackerstrasse","postalCode":"8155","locality":"Niederhasli","commune":{"key":"90","name":"Niederhasli","shortName":"Niederhasli"},"district":{"key":"104","name":"Bezirk Dielsdorf"},"canton":{"key":"1","code":"ZH","name":"Zürich"},"status":"Real"},{"key":"10174611","name":"Haslibachweg","postalCode":"8155","locality":"Niederhasli","commune":{"key":"90","name":"Niederhasli","shortName":"Niederhasli"},"district":{"key":"104","name":"Bezirk Dielsdorf"},"canton":{"key":"1","code":"ZH","name":"Zürich"},"status":"Real"},{"key":"10115742","name":"Haspelstrasse","postalCode":"8155","locality":"Niederhasli","commune":{"key":"90","name":"Niederhasli","shortName":"Niederhasli"},"district":{"key":"104","name":"Bezirk Dielsdorf"},"canton":{"key":"1","code":"ZH","name":"Zürich"},"status":"Real"},{"key":"10072953","name":"Hausackerweg","postalCode":"8155","locality":"Niederhasli","commune":{"key":"90","name":"Niederhasli","shortName":"Niederhasli"},"district":{"key":"104","name":"Bezirk Dielsdorf"},"canton":{"key":"1","code":"ZH","name":"Zürich"},"status":"Real"},{"key":"10174612","name":"Hauswiesenweg","postalCode":"8155","locality":"Niederhasli","commune":{"key":"90","name":"Niederhasli","shortName":"Niederhasli"},"district":{"key":"104","name":"Bezirk Dielsdorf"},"canton":{"key":"1","code":"ZH","name":"Zürich"},"status":"Real"},{"key":"10141886","name":"Hechtstrasse","postalCode":"8155","locality":"Niederhasli","commune":{"key":"90","name":"Niederhasli","shortName":"Niederhasli"},"district":{"key":"104","name":"Bezirk Dielsdorf"},"canton":{"key":"1","code":"ZH","name":"Zürich"},"status":"Real"},{"key":"10089798","name":"Hegliwiesenweg","postalCode":"8155","locality":"Niederhasli","commune":{"key":"90","name":"Niederhasli","shortName":"Niederhasli"},"district":{"key":"104","name":"Bezirk Dielsdorf"},"canton":{"key":"1","code":"ZH","name":"Zürich"},"status":"Real"},{"key":"10000963","name":"Heiselstrasse","postalCode":"8155","locality":"Niederhasli","commune":{"key":"90","name":"Niederhasli","shortName":"Niederhasli"},"district":{"key":"104","name":"Bezirk Dielsdorf"},"canton":{"key":"1","code":"ZH","name":"Zürich"},"status":"Real"},{"key":"10119603","name":"Heiselweg","postalCode":"8155","locality":"Niederhasli","commune":{"key":"90","name":"Niederhasli","shortName":"Niederhasli"},"district":{"key":"104","name":"Bezirk Dielsdorf"},"canton":{"key":"1","code":"ZH","name":"Zürich"},"status":"Real"},{"key":"10061079","name":"Herrenbergstrasse","postalCode":"8155","locality":"Niederhasli","commune":{"key":"90","name":"Niederhasli","shortName":"Niederhasli"},"district":{"key":"104","name":"Bezirk Dielsdorf"},"canton":{"key":"1","code":"ZH","name":"Zürich"},"status":"Real"},{"key":"10089799","name":"Hexenackerweg","postalCode":"8155","locality":"Niederhasli","commune":{"key":"90","name":"Niederhasli","shortName":"Niederhasli"},"district":{"key":"104","name":"Bezirk Dielsdorf"},"canton":{"key":"1","code":"ZH","name":"Zürich"},"status":"Real"},{"key":"10020895","name":"Hintersmattweg","postalCode":"8155","locality":"Niederhasli","commune":{"key":"90","name":"Niederhasli","shortName":"Niederhasli"},"district":{"key":"104","name":"Bezirk Dielsdorf"},"canton":{"key":"1","code":"ZH","name":"Zürich"},"status":"Real"},{"key":"10119604","name":"Hofstetterstrasse","postalCode":"8155","locality":"Niederhasli","commune":{"key":"90","name":"Niederhasli","shortName":"Niederhasli"},"district":{"key":"104","name":"Bezirk Dielsdorf"},"canton":{"key":"1","code":"ZH","name":"Zürich"},"status":"Real"},{"key":"10072954","name":"Holzmorgenweg","postalCode":"8155","locality":"Niederhasli","commune":{"key":"90","name":"Niederhasli","shortName":"Niederhasli"},"district":{"key":"104","name":"Bezirk Dielsdorf"},"canton":{"key":"1","code":"ZH","name":"Zürich"},"status":"Real"},{"key":"10079944","name":"Huebwiesenstrasse","postalCode":"8155","locality":"Niederhasli","commune":{"key":"90","name":"Niederhasli","shortName":"Niederhasli"},"district":{"key":"104","name":"Bezirk Dielsdorf"},"canton":{"key":"1","code":"ZH","name":"Zürich"},"status":"Real"},{"key":"10020470","name":"Huebwiesenweg","postalCode":"8155","locality":"Niederhasli","commune":{"key":"90","name":"Niederhasli","shortName":"Niederhasli"},"district":{"key":"104","name":"Bezirk Dielsdorf"},"canton":{"key":"1","code":"ZH","name":"Zürich"},"status":"Real"},{"key":"10072955","name":"Hundsruggenweg","postalCode":"8155","locality":"Niederhasli","commune":{"key":"90","name":"Niederhasli","shortName":"Niederhasli"},"district":{"key":"104","name":"Bezirk Dielsdorf"},"canton":{"key":"1","code":"ZH","name":"Zürich"},"status":"Real"},{"key":"10079945","name":"Industriestrasse","postalCode":"8155","locality":"Niederhasli","commune":{"key":"90","name":"Niederhasli","shortName":"Niederhasli"},"district":{"key":"104","name":"Bezirk Dielsdorf"},"canton":{"key":"1","code":"ZH","name":"Zürich"},"status":"Real"},{"key":"10000968","name":"Kastelhof","postalCode":"8155","locality":"Niederhasli","commune":{"key":"90","name":"Niederhasli","shortName":"Niederhasli"},"district":{"key":"104","name":"Bezirk Dielsdorf"},"canton":{"key":"1","code":"ZH","name":"Zürich"},"status":"Real"},{"key":"10164930","name":"Kastelhofweg","postalCode":"8155","locality":"Niederhasli","commune":{"key":"90","name":"Niederhasli","shortName":"Niederhasli"},"district":{"key":"104","name":"Bezirk Dielsdorf"},"canton":{"key":"1","code":"ZH","name":"Zürich"},"status":"Real"},{"key":"10174614","name":"Kirchweg","postalCode":"8155","locality":"Niederhasli","commune":{"key":"90","name":"Niederhasli","shortName":"Niederhasli"},"district":{"key":"104","name":"Bezirk Dielsdorf"},"canton":{"key":"1","code":"ZH","name":"Zürich"},"status":"Real"},{"key":"10021487","name":"Klugackerweg","postalCode":"8155","locality":"Niederhasli","commune":{"key":"90","name":"Niederhasli","shortName":"Niederhasli"},"district":{"key":"104","name":"Bezirk Dielsdorf"},"canton":{"key":"1","code":"ZH","name":"Zürich"},"status":"Real"},{"key":"10055074","name":"Lägernstrasse","postalCode":"8155","locality":"Niederhasli","commune":{"key":"90","name":"Niederhasli","shortName":"Niederhasli"},"district":{"key":"104","name":"Bezirk Dielsdorf"},"canton":{"key":"1","code":"ZH","name":"Zürich"},"status":"Real"},{"key":"10116782","name":"Langackerweg","postalCode":"8155","locality":"Niederhasli","commune":{"key":"90","name":"Niederhasli","shortName":"Niederhasli"},"district":{"key":"104","name":"Bezirk Dielsdorf"},"canton":{"key":"1","code":"ZH","name":"Zürich"},"status":"Real"},{"key":"10174616","name":"Längiweg","postalCode":"8155","locality":"Niederhasli","commune":{"key":"90","name":"Niederhasli","shortName":"Niederhasli"},"district":{"key":"104","name":"Bezirk Dielsdorf"},"canton":{"key":"1","code":"ZH","name":"Zürich"},"status":"Real"},{"key":"10021502","name":"Langjutenweg","postalCode":"8155","locality":"Niederhasli","commune":{"key":"90","name":"Niederhasli","shortName":"Niederhasli"},"district":{"key":"104","name":"Bezirk Dielsdorf"},"canton":{"key":"1","code":"ZH","name":"Zürich"},"status":"Real"},{"key":"10055073","name":"Lindackerweg","postalCode":"8155","locality":"Niederhasli","commune":{"key":"90","name":"Niederhasli","shortName":"Niederhasli"},"district":{"key":"104","name":"Bezirk Dielsdorf"},"canton":{"key":"1","code":"ZH","name":"Zürich"},"status":"Real"},{"key":"10110983","name":"Lindenstrasse","postalCode":"8155","locality":"Niederhasli","commune":{"key":"90","name":"Niederhasli","shortName":"Niederhasli"},"district":{"key":"104","name":"Bezirk Dielsdorf"},"canton":{"key":"1","code":"ZH","name":"Zürich"},"status":"Real"},{"key":"10174617","name":"Loogartenweg","postalCode":"8155","locality":"Niederhasli","commune":{"key":"90","name":"Niederhasli","shortName":"Niederhasli"},"district":{"key":"104","name":"Bezirk Dielsdorf"},"canton":{"key":"1","code":"ZH","name":"Zürich"},"status":"Real"},{"key":"10021504","name":"Loohofweg","postalCode":"8155","locality":"Niederhasli","commune":{"key":"90","name":"Niederhasli","shortName":"Niederhasli"},"district":{"key":"104","name":"Bezirk Dielsdorf"},"canton":{"key":"1","code":"ZH","name":"Zürich"},"status":"Real"},{"key":"10000969","name":"Luxweg","postalCode":"8155","locality":"Niederhasli","commune":{"key":"90","name":"Niederhasli","shortName":"Niederhasli"},"district":{"key":"104","name":"Bezirk Dielsdorf"},"canton":{"key":"1","code":"ZH","name":"Zürich"},"status":"Real"},{"key":"10061081","name":"Mandachstrasse","postalCode":"8155","locality":"Niederhasli","commune":{"key":"90","name":"Niederhasli","shortName":"Niederhasli"},"district":{"key":"104","name":"Bezirk Dielsdorf"},"canton":{"key":"1","code":"ZH","name":"Zürich"},"status":"Real"},{"key":"10079946","name":"Mettmenhaslistrasse","postalCode":"8155","locality":"Niederhasli","commune":{"key":"90","name":"Niederhasli","shortName":"Niederhasli"},"district":{"key":"104","name":"Bezirk Dielsdorf"},"canton":{"key":"1","code":"ZH","name":"Zürich"},"status":"Real"},{"key":"10170258","name":"Metzweg","postalCode":"8155","locality":"Niederhasli","commune":{"key":"90","name":"Niederhasli","shortName":"Niederhasli"},"district":{"key":"104","name":"Bezirk Dielsdorf"},"canton":{"key":"1","code":"ZH","name":"Zürich"},"status":"Real"},{"key":"10021507","name":"Mörgliweg","postalCode":"8155","locality":"Niederhasli","commune":{"key":"90","name":"Niederhasli","shortName":"Niederhasli"},"district":{"key":"104","name":"Bezirk Dielsdorf"},"canton":{"key":"1","code":"ZH","name":"Zürich"},"status":"Real"},{"key":"10021508","name":"Moschtgässli","postalCode":"8155","locality":"Niederhasli","commune":{"key":"90","name":"Niederhasli","shortName":"Niederhasli"},"district":{"key":"104","name":"Bezirk Dielsdorf"},"canton":{"key":"1","code":"ZH","name":"Zürich"},"status":"Real"},{"key":"10055075","name":"Möslistrasse","postalCode":"8155","locality":"Niederhasli","commune":{"key":"90","name":"Niederhasli","shortName":"Niederhasli"},"district":{"key":"104","name":"Bezirk Dielsdorf"},"canton":{"key":"1","code":"ZH","name":"Zürich"},"status":"Real"},{"key":"10000970","name":"Mühlackerweg","postalCode":"8155","locality":"Niederhasli","commune":{"key":"90","name":"Niederhasli","shortName":"Niederhasli"},"district":{"key":"104","name":"Bezirk Dielsdorf"},"canton":{"key":"1","code":"ZH","name":"Zürich"},"status":"Real"},{"key":"10000971","name":"Nassenwilerstrasse","postalCode":"8155","locality":"Niederhasli","commune":{"key":"90","name":"Niederhasli","shortName":"Niederhasli"},"district":{"key":"104","name":"Bezirk Dielsdorf"},"canton":{"key":"1","code":"ZH","name":"Zürich"},"status":"Real"},{"key":"10132459","name":"Niederglatterstrasse","postalCode":"8155","locality":"Niederhasli","commune":{"key":"90","name":"Niederhasli","shortName":"Niederhasli"},"district":{"key":"104","name":"Bezirk Dielsdorf"},"canton":{"key":"1","code":"ZH","name":"Zürich"},"status":"Real"},{"key":"10000972","name":"Nöschikonerstrasse","postalCode":"8155","locality":"Niederhasli","commune":{"key":"90","name":"Niederhasli","shortName":"Niederhasli"},"district":{"key":"104","name":"Bezirk Dielsdorf"},"canton":{"key":"1","code":"ZH","name":"Zürich"},"status":"Real"},{"key":"10021521","name":"Oberbuckweg","postalCode":"8155","locality":"Niederhasli","commune":{"key":"90","name":"Niederhasli","shortName":"Niederhasli"},"district":{"key":"104","name":"Bezirk Dielsdorf"},"canton":{"key":"1","code":"ZH","name":"Zürich"},"status":"Real"},{"key":"10170262","name":"Oberholzweg","postalCode":"8155","locality":"Niederhasli","commune":{"key":"90","name":"Niederhasli","shortName":"Niederhasli"},"district":{"key":"104","name":"Bezirk Dielsdorf"},"canton":{"key":"1","code":"ZH","name":"Zürich"},"status":"Real"},{"key":"10168862","name":"Ottenackerweg","postalCode":"8155","locality":"Niederhasli","commune":{"key":"90","name":"Niederhasli","shortName":"Niederhasli"},"district":{"key":"104","name":"Bezirk Dielsdorf"},"canton":{"key":"1","code":"ZH","name":"Zürich"},"status":"Real"},{"key":"10128131","name":"Päpperiestrasse","postalCode":"8155","locality":"Niederhasli","commune":{"key":"90","name":"Niederhasli","shortName":"Niederhasli"},"district":{"key":"104","name":"Bezirk Dielsdorf"},"canton":{"key":"1","code":"ZH","name":"Zürich"},"status":"Real"},{"key":"10119913","name":"Postweg","postalCode":"8155","locality":"Niederhasli","commune":{"key":"90","name":"Niederhasli","shortName":"Niederhasli"},"district":{"key":"104","name":"Bezirk Dielsdorf"},"canton":{"key":"1","code":"ZH","name":"Zürich"},"status":"Real"},{"key":"10061082","name":"Püntstrasse","postalCode":"8155","locality":"Niederhasli","commune":{"key":"90","name":"Niederhasli","shortName":"Niederhasli"},"district":{"key":"104","name":"Bezirk Dielsdorf"},"canton":{"key":"1","code":"ZH","name":"Zürich"},"status":"Real"},{"key":"10055076","name":"Püntweg","postalCode":"8155","locality":"Niederhasli","commune":{"key":"90","name":"Niederhasli","shortName":"Niederhasli"},"district":{"key":"104","name":"Bezirk Dielsdorf"},"canton":{"key":"1","code":"ZH","name":"Zürich"},"status":"Real"},{"key":"10168863","name":"Purstwiesenweg","postalCode":"8155","locality":"Niederhasli","commune":{"key":"90","name":"Niederhasli","shortName":"Niederhasli"},"district":{"key":"104","name":"Bezirk Dielsdorf"},"canton":{"key":"1","code":"ZH","name":"Zürich"},"status":"Real"},{"key":"10168864","name":"Ränkelweg","postalCode":"8155","locality":"Niederhasli","commune":{"key":"90","name":"Niederhasli","shortName":"Niederhasli"},"district":{"key":"104","name":"Bezirk Dielsdorf"},"canton":{"key":"1","code":"ZH","name":"Zürich"},"status":"Real"},{"key":"10189886","name":"Rätschegass","postalCode":"8155","locality":"Niederhasli","commune":{"key":"90","name":"Niederhasli","shortName":"Niederhasli"},"district":{"key":"104","name":"Bezirk Dielsdorf"},"canton":{"key":"1","code":"ZH","name":"Zürich"},"status":"Real"},{"key":"10115743","name":"Regensdorferstrasse","postalCode":"8155","locality":"Niederhasli","commune":{"key":"90","name":"Niederhasli","shortName":"Niederhasli"},"district":{"key":"104","name":"Bezirk Dielsdorf"},"canton":{"key":"1","code":"ZH","name":"Zürich"},"status":"Real"},{"key":"10055077","name":"Riedgasse","postalCode":"8155","locality":"Niederhasli","commune":{"key":"90","name":"Niederhasli","shortName":"Niederhasli"},"district":{"key":"104","name":"Bezirk Dielsdorf"},"canton":{"key":"1","code":"ZH","name":"Zürich"},"status":"Real"},{"key":"10171321","name":"Riedstrasse","postalCode":"8155","locality":"Niederhasli","commune":{"key":"90","name":"Niederhasli","shortName":"Niederhasli"},"district":{"key":"104","name":"Bezirk Dielsdorf"},"canton":{"key":"1","code":"ZH","name":"Zürich"},"status":"Real"},{"key":"10165197","name":"Romisweg","postalCode":"8155","locality":"Niederhasli","commune":{"key":"90","name":"Niederhasli","shortName":"Niederhasli"},"district":{"key":"104","name":"Bezirk Dielsdorf"},"canton":{"key":"1","code":"ZH","name":"Zürich"},"status":"Real"},{"key":"10079947","name":"Rooswiesenstrasse","postalCode":"8155","locality":"Niederhasli","commune":{"key":"90","name":"Niederhasli","shortName":"Niederhasli"},"district":{"key":"104","name":"Bezirk Dielsdorf"},"canton":{"key":"1","code":"ZH","name":"Zürich"},"status":"Real"},{"key":"10166140","name":"Rösliackerweg","postalCode":"8155","locality":"Niederhasli","commune":{"key":"90","name":"Niederhasli","shortName":"Niederhasli"},"district":{"key":"104","name":"Bezirk Dielsdorf"},"canton":{"key":"1","code":"ZH","name":"Zürich"},"status":"Real"},{"key":"10183174","name":"Rüchligstrasse","postalCode":"8155","locality":"Niederhasli","commune":{"key":"90","name":"Niederhasli","shortName":"Niederhasli"},"district":{"key":"104","name":"Bezirk Dielsdorf"},"canton":{"key":"1","code":"ZH","name":"Zürich"},"status":"Real"},{"key":"10110986","name":"Rümlangerstrasse","postalCode":"8155","locality":"Niederhasli","commune":{"key":"90","name":"Niederhasli","shortName":"Niederhasli"},"district":{"key":"104","name":"Bezirk Dielsdorf"},"canton":{"key":"1","code":"ZH","name":"Zürich"},"status":"Real"},{"key":"10172323","name":"Rütihof","postalCode":"8155","locality":"Niederhasli","commune":{"key":"90","name":"Niederhasli","shortName":"Niederhasli"},"district":{"key":"104","name":"Bezirk Dielsdorf"},"canton":{"key":"1","code":"ZH","name":"Zürich"},"status":"Real"},{"key":"10119914","name":"Sägetweg","postalCode":"8155","locality":"Niederhasli","commune":{"key":"90","name":"Niederhasli","shortName":"Niederhasli"},"district":{"key":"104","name":"Bezirk Dielsdorf"},"canton":{"key":"1","code":"ZH","name":"Zürich"},"status":"Real"},{"key":"10245042","name":"Scheidbachweg","postalCode":"8155","locality":"Niederhasli","commune":{"key":"90","name":"Niederhasli","shortName":"Niederhasli"},"district":{"key":"104","name":"Bezirk Dielsdorf"},"canton":{"key":"1","code":"ZH","name":"Zürich"},"status":"Real"},{"key":"10168865","name":"Schiligweg","postalCode":"8155","locality":"Niederhasli","commune":{"key":"90","name":"Niederhasli","shortName":"Niederhasli"},"district":{"key":"104","name":"Bezirk Dielsdorf"},"canton":{"key":"1","code":"ZH","name":"Zürich"},"status":"Real"},{"key":"10170265","name":"Schlifiweg","postalCode":"8155","locality":"Niederhasli","commune":{"key":"90","name":"Niederhasli","shortName":"Niederhasli"},"district":{"key":"104","name":"Bezirk Dielsdorf"},"canton":{"key":"1","code":"ZH","name":"Zürich"},"status":"Real"},{"key":"10245043","name":"Schneckenweg","postalCode":"8155","locality":"Niederhasli","commune":{"key":"90","name":"Niederhasli","shortName":"Niederhasli"},"district":{"key":"104","name":"Bezirk Dielsdorf"},"canton":{"key":"1","code":"ZH","name":"Zürich"},"status":"Real"},{"key":"10165199","name":"Schnellerweg","postalCode":"8155","locality":"Niederhasli","commune":{"key":"90","name":"Niederhasli","shortName":"Niederhasli"},"district":{"key":"104","name":"Bezirk Dielsdorf"},"canton":{"key":"1","code":"ZH","name":"Zürich"},"status":"Real"},{"key":"10167714","name":"Schümelhauweg","postalCode":"8155","locality":"Niederhasli","commune":{"key":"90","name":"Niederhasli","shortName":"Niederhasli"},"district":{"key":"104","name":"Bezirk Dielsdorf"},"canton":{"key":"1","code":"ZH","name":"Zürich"},"status":"Real"},{"key":"10168866","name":"Schwarzackerweg","postalCode":"8155","locality":"Niederhasli","commune":{"key":"90","name":"Niederhasli","shortName":"Niederhasli"},"district":{"key":"104","name":"Bezirk Dielsdorf"},"canton":{"key":"1","code":"ZH","name":"Zürich"},"status":"Real"},{"key":"10170266","name":"Schwendiweg","postalCode":"8155","locality":"Niederhasli","commune":{"key":"90","name":"Niederhasli","shortName":"Niederhasli"},"district":{"key":"104","name":"Bezirk Dielsdorf"},"canton":{"key":"1","code":"ZH","name":"Zürich"},"status":"Real"},{"key":"10165200","name":"Seeackerstrasse","postalCode":"8155","locality":"Niederhasli","commune":{"key":"90","name":"Niederhasli","shortName":"Niederhasli"},"district":{"key":"104","name":"Bezirk Dielsdorf"},"canton":{"key":"1","code":"ZH","name":"Zürich"},"status":"Real"},{"key":"10245044","name":"Seeblerstrasse","postalCode":"8155","locality":"Niederhasli","commune":{"key":"90","name":"Niederhasli","shortName":"Niederhasli"},"district":{"key":"104","name":"Bezirk Dielsdorf"},"canton":{"key":"1","code":"ZH","name":"Zürich"},"status":"Real"},{"key":"10000973","name":"Seebruggstrasse","postalCode":"8155","locality":"Niederhasli","commune":{"key":"90","name":"Niederhasli","shortName":"Niederhasli"},"district":{"key":"104","name":"Bezirk Dielsdorf"},"canton":{"key":"1","code":"ZH","name":"Zürich"},"status":"Real"},{"key":"10169039","name":"Seefeldstrasse","postalCode":"8155","locality":"Niederhasli","commune":{"key":"90","name":"Niederhasli","shortName":"Niederhasli"},"district":{"key":"104","name":"Bezirk Dielsdorf"},"canton":{"key":"1","code":"ZH","name":"Zürich"},"status":"Real"},{"key":"10119610","name":"Seegrabenweg","postalCode":"8155","locality":"Niederhasli","commune":{"key":"90","name":"Niederhasli","shortName":"Niederhasli"},"district":{"key":"104","name":"Bezirk Dielsdorf"},"canton":{"key":"1","code":"ZH","name":"Zürich"},"status":"Real"},{"key":"10166142","name":"Seehaldenweg","postalCode":"8155","locality":"Niederhasli","commune":{"key":"90","name":"Niederhasli","shortName":"Niederhasli"},"district":{"key":"104","name":"Bezirk Dielsdorf"},"canton":{"key":"1","code":"ZH","name":"Zürich"},"status":"Real"},{"key":"10161110","name":"Seerietweg","postalCode":"8155","locality":"Niederhasli","commune":{"key":"90","name":"Niederhasli","shortName":"Niederhasli"},"district":{"key":"104","name":"Bezirk Dielsdorf"},"canton":{"key":"1","code":"ZH","name":"Zürich"},"status":"Real"},{"key":"10000974","name":"Seestrasse","postalCode":"8155","locality":"Niederhasli","commune":{"key":"90","name":"Niederhasli","shortName":"Niederhasli"},"district":{"key":"104","name":"Bezirk Dielsdorf"},"canton":{"key":"1","code":"ZH","name":"Zürich"},"status":"Real"},{"key":"10163592","name":"Seeweg","postalCode":"8155","locality":"Niederhasli","commune":{"key":"90","name":"Niederhasli","shortName":"Niederhasli"},"district":{"key":"104","name":"Bezirk Dielsdorf"},"canton":{"key":"1","code":"ZH","name":"Zürich"},"status":"Real"},{"key":"10061084","name":"Spitzstrasse","postalCode":"8155","locality":"Niederhasli","commune":{"key":"90","name":"Niederhasli","shortName":"Niederhasli"},"district":{"key":"104","name":"Bezirk Dielsdorf"},"canton":{"key":"1","code":"ZH","name":"Zürich"},"status":"Real"},{"key":"10191199","name":"Spycherweg","postalCode":"8155","locality":"Niederhasli","commune":{"key":"90","name":"Niederhasli","shortName":"Niederhasli"},"district":{"key":"104","name":"Bezirk Dielsdorf"},"canton":{"key":"1","code":"ZH","name":"Zürich"},"status":"Real"},{"key":"10079948","name":"Stationsstrasse","postalCode":"8155","locality":"Niederhasli","commune":{"key":"90","name":"Niederhasli","shortName":"Niederhasli"},"district":{"key":"104","name":"Bezirk Dielsdorf"},"canton":{"key":"1","code":"ZH","name":"Zürich"},"status":"Real"},{"key":"10170267","name":"Steinbruchweg","postalCode":"8155","locality":"Niederhasli","commune":{"key":"90","name":"Niederhasli","shortName":"Niederhasli"},"district":{"key":"104","name":"Bezirk Dielsdorf"},"canton":{"key":"1","code":"ZH","name":"Zürich"},"status":"Real"},{"key":"10118925","name":"Tollackerweg","postalCode":"8155","locality":"Niederhasli","commune":{"key":"90","name":"Niederhasli","shortName":"Niederhasli"},"district":{"key":"104","name":"Bezirk Dielsdorf"},"canton":{"key":"1","code":"ZH","name":"Zürich"},"status":"Real"},{"key":"10000976","name":"Trockenriedstrasse","postalCode":"8155","locality":"Niederhasli","commune":{"key":"90","name":"Niederhasli","shortName":"Niederhasli"},"district":{"key":"104","name":"Bezirk Dielsdorf"},"canton":{"key":"1","code":"ZH","name":"Zürich"},"status":"Real"},{"key":"10245045","name":"Trockenriedweg","postalCode":"8155","locality":"Niederhasli","commune":{"key":"90","name":"Niederhasli","shortName":"Niederhasli"},"district":{"key":"104","name":"Bezirk Dielsdorf"},"canton":{"key":"1","code":"ZH","name":"Zürich"},"status":"Real"},{"key":"10168867","name":"Türniweg","postalCode":"8155","locality":"Niederhasli","commune":{"key":"90","name":"Niederhasli","shortName":"Niederhasli"},"district":{"key":"104","name":"Bezirk Dielsdorf"},"canton":{"key":"1","code":"ZH","name":"Zürich"},"status":"Real"},{"key":"10163589","name":"Unterbuckweg","postalCode":"8155","locality":"Niederhasli","commune":{"key":"90","name":"Niederhasli","shortName":"Niederhasli"},"district":{"key":"104","name":"Bezirk Dielsdorf"},"canton":{"key":"1","code":"ZH","name":"Zürich"},"status":"Real"},{"key":"10166146","name":"Unterdickweg","postalCode":"8155","locality":"Niederhasli","commune":{"key":"90","name":"Niederhasli","shortName":"Niederhasli"},"district":{"key":"104","name":"Bezirk Dielsdorf"},"canton":{"key":"1","code":"ZH","name":"Zürich"},"status":"Real"},{"key":"10170269","name":"Weberackerweg","postalCode":"8155","locality":"Niederhasli","commune":{"key":"90","name":"Niederhasli","shortName":"Niederhasli"},"district":{"key":"104","name":"Bezirk Dielsdorf"},"canton":{"key":"1","code":"ZH","name":"Zürich"},"status":"Real"},{"key":"10000977","name":"Wigärtliweg","postalCode":"8155","locality":"Niederhasli","commune":{"key":"90","name":"Niederhasli","shortName":"Niederhasli"},"district":{"key":"104","name":"Bezirk Dielsdorf"},"canton":{"key":"1","code":"ZH","name":"Zürich"},"status":"Real"},{"key":"10167716","name":"Winkelweg","postalCode":"8155","locality":"Niederhasli","commune":{"key":"90","name":"Niederhasli","shortName":"Niederhasli"},"district":{"key":"104","name":"Bezirk Dielsdorf"},"canton":{"key":"1","code":"ZH","name":"Zürich"},"status":"Real"},{"key":"10055078","name":"Zentrumweg","postalCode":"8155","locality":"Niederhasli","commune":{"key":"90","name":"Niederhasli","shortName":"Niederhasli"},"district":{"key":"104","name":"Bezirk Dielsdorf"},"canton":{"key":"1","code":"ZH","name":"Zürich"},"status":"Real"},]