[{"name":"Am Bollenberg","postalCode":"88422","locality":"Dürnau","municipality":{"key":"08426036","name":"Dürnau","type":"Kreisangehörige_Gemeinde"},"district":{"key":"08426","name":"Biberach","type":"Landkreis"},"federalState":{"key":"08","name":"Baden-Württemberg"}},{"name":"Am Kirchberg","postalCode":"73105","locality":"Dürnau","municipality":{"key":"08117017","name":"Dürnau","type":"Kreisangehörige_Gemeinde"},"district":{"key":"08117","name":"Göppingen","type":"Landkreis"},"federalState":{"key":"08","name":"Baden-Württemberg"}},{"name":"Am Kirchberg","postalCode":"88422","locality":"Dürnau","municipality":{"key":"08426036","name":"Dürnau","type":"Kreisangehörige_Gemeinde"},"district":{"key":"08426","name":"Biberach","type":"Landkreis"},"federalState":{"key":"08","name":"Baden-Württemberg"}},{"name":"An der Staig","postalCode":"88422","locality":"Dürnau","municipality":{"key":"08426036","name":"Dürnau","type":"Kreisangehörige_Gemeinde"},"district":{"key":"08426","name":"Biberach","type":"Landkreis"},"federalState":{"key":"08","name":"Baden-Württemberg"}},{"name":"Bahnhofstr.","postalCode":"73105","locality":"Dürnau","municipality":{"key":"08117017","name":"Dürnau","type":"Kreisangehörige_Gemeinde"},"district":{"key":"08117","name":"Göppingen","type":"Landkreis"},"federalState":{"key":"08","name":"Baden-Württemberg"}},{"name":"Benzstr.","postalCode":"73105","locality":"Dürnau","municipality":{"key":"08117017","name":"Dürnau","type":"Kreisangehörige_Gemeinde"},"district":{"key":"08117","name":"Göppingen","type":"Landkreis"},"federalState":{"key":"08","name":"Baden-Württemberg"}},{"name":"Blumenstr.","postalCode":"73105","locality":"Dürnau","municipality":{"key":"08117017","name":"Dürnau","type":"Kreisangehörige_Gemeinde"},"district":{"key":"08117","name":"Göppingen","type":"Landkreis"},"federalState":{"key":"08","name":"Baden-Württemberg"}},{"name":"Boller Str.","postalCode":"73105","locality":"Dürnau","municipality":{"key":"08117017","name":"Dürnau","type":"Kreisangehörige_Gemeinde"},"district":{"key":"08117","name":"Göppingen","type":"Landkreis"},"federalState":{"key":"08","name":"Baden-Württemberg"}},{"name":"Braunenweilerstr.","postalCode":"88422","locality":"Dürnau","municipality":{"key":"08426036","name":"Dürnau","type":"Kreisangehörige_Gemeinde"},"district":{"key":"08426","name":"Biberach","type":"Landkreis"},"federalState":{"key":"08","name":"Baden-Württemberg"}},{"name":"Brühlstr.","postalCode":"73105","locality":"Dürnau","municipality":{"key":"08117017","name":"Dürnau","type":"Kreisangehörige_Gemeinde"},"district":{"key":"08117","name":"Göppingen","type":"Landkreis"},"federalState":{"key":"08","name":"Baden-Württemberg"}},{"name":"Brunnenbühlstr.","postalCode":"73105","locality":"Dürnau","municipality":{"key":"08117017","name":"Dürnau","type":"Kreisangehörige_Gemeinde"},"district":{"key":"08117","name":"Göppingen","type":"Landkreis"},"federalState":{"key":"08","name":"Baden-Württemberg"}},{"name":"Brunnenwiesen","postalCode":"73105","locality":"Dürnau","municipality":{"key":"08117017","name":"Dürnau","type":"Kreisangehörige_Gemeinde"},"district":{"key":"08117","name":"Göppingen","type":"Landkreis"},"federalState":{"key":"08","name":"Baden-Württemberg"}},{"name":"Buchauer Str.","postalCode":"88422","locality":"Dürnau","municipality":{"key":"08426036","name":"Dürnau","type":"Kreisangehörige_Gemeinde"},"district":{"key":"08426","name":"Biberach","type":"Landkreis"},"federalState":{"key":"08","name":"Baden-Württemberg"}},{"name":"Carl-Benz-Str.","postalCode":"73037","locality":"Göppingen","municipality":{"key":"08117026","name":"Göppingen, Stadt","type":"Große_Kreisstadt"},"district":{"key":"08117","name":"Göppingen","type":"Landkreis"},"federalState":{"key":"08","name":"Baden-Württemberg"}},{"name":"Carl-Hermann-Gaiser-Str.","postalCode":"73033","locality":"Göppingen","municipality":{"key":"08117026","name":"Göppingen, Stadt","type":"Große_Kreisstadt"},"district":{"key":"08117","name":"Göppingen","type":"Landkreis"},"federalState":{"key":"08","name":"Baden-Württemberg"}},{"name":"Carl-Martin-Weg","postalCode":"73037","locality":"Göppingen","municipality":{"key":"08117026","name":"Göppingen, Stadt","type":"Große_Kreisstadt"},"district":{"key":"08117","name":"Göppingen","type":"Landkreis"},"federalState":{"key":"08","name":"Baden-Württemberg"}},{"name":"Cäsar-Flaischlen-Str.","postalCode":"73033","locality":"Göppingen","municipality":{"key":"08117026","name":"Göppingen, Stadt","type":"Große_Kreisstadt"},"district":{"key":"08117","name":"Göppingen","type":"Landkreis"},"federalState":{"key":"08","name":"Baden-Württemberg"}},{"name":"Charlottenstr.","postalCode":"73037","locality":"Göppingen","municipality":{"key":"08117026","name":"Göppingen, Stadt","type":"Große_Kreisstadt"},"district":{"key":"08117","name":"Göppingen","type":"Landkreis"},"federalState":{"key":"08","name":"Baden-Württemberg"}},{"name":"Christian-Grüninger-Str.","postalCode":"73033","locality":"Göppingen","municipality":{"key":"08117026","name":"Göppingen, Stadt","type":"Große_Kreisstadt"},"district":{"key":"08117","name":"Göppingen","type":"Landkreis"},"federalState":{"key":"08","name":"Baden-Württemberg"}},{"name":"Christian-Grüninger-Str.","postalCode":"73035","locality":"Göppingen","municipality":{"key":"08117026","name":"Göppingen, Stadt","type":"Große_Kreisstadt"},"district":{"key":"08117","name":"Göppingen","type":"Landkreis"},"federalState":{"key":"08","name":"Baden-Württemberg"}},{"name":"Christophstr.","postalCode":"73033","locality":"Göppingen","municipality":{"key":"08117026","name":"Göppingen, Stadt","type":"Große_Kreisstadt"},"district":{"key":"08117","name":"Göppingen","type":"Landkreis"},"federalState":{"key":"08","name":"Baden-Württemberg"}},{"name":"Cranachweg","postalCode":"73033","locality":"Göppingen","municipality":{"key":"08117026","name":"Göppingen, Stadt","type":"Große_Kreisstadt"},"district":{"key":"08117","name":"Göppingen","type":"Landkreis"},"federalState":{"key":"08","name":"Baden-Württemberg"}},{"name":"Daimlerstr.","postalCode":"73105","locality":"Dürnau","municipality":{"key":"08117017","name":"Dürnau","type":"Kreisangehörige_Gemeinde"},"district":{"key":"08117","name":"Göppingen","type":"Landkreis"},"federalState":{"key":"08","name":"Baden-Württemberg"}},{"name":"Dinkelweg","postalCode":"88422","locality":"Dürnau","municipality":{"key":"08426036","name":"Dürnau","type":"Kreisangehörige_Gemeinde"},"district":{"key":"08426","name":"Biberach","type":"Landkreis"},"federalState":{"key":"08","name":"Baden-Württemberg"}},{"name":"Dorfäcker","postalCode":"88422","locality":"Dürnau","municipality":{"key":"08426036","name":"Dürnau","type":"Kreisangehörige_Gemeinde"},"district":{"key":"08426","name":"Biberach","type":"Landkreis"},"federalState":{"key":"08","name":"Baden-Württemberg"}},{"name":"Emmerweg","postalCode":"88422","locality":"Dürnau","municipality":{"key":"08426036","name":"Dürnau","type":"Kreisangehörige_Gemeinde"},"district":{"key":"08426","name":"Biberach","type":"Landkreis"},"federalState":{"key":"08","name":"Baden-Württemberg"}},{"name":"Fabrikstr.","postalCode":"73105","locality":"Dürnau","municipality":{"key":"08117017","name":"Dürnau","type":"Kreisangehörige_Gemeinde"},"district":{"key":"08117","name":"Göppingen","type":"Landkreis"},"federalState":{"key":"08","name":"Baden-Württemberg"}},{"name":"Flachsweg","postalCode":"88422","locality":"Dürnau","municipality":{"key":"08426036","name":"Dürnau","type":"Kreisangehörige_Gemeinde"},"district":{"key":"08426","name":"Biberach","type":"Landkreis"},"federalState":{"key":"08","name":"Baden-Württemberg"}},{"name":"Franzeneschle","postalCode":"88422","locality":"Dürnau","municipality":{"key":"08426036","name":"Dürnau","type":"Kreisangehörige_Gemeinde"},"district":{"key":"08426","name":"Biberach","type":"Landkreis"},"federalState":{"key":"08","name":"Baden-Württemberg"}},{"name":"Friedrichstr.","postalCode":"73105","locality":"Dürnau","municipality":{"key":"08117017","name":"Dürnau","type":"Kreisangehörige_Gemeinde"},"district":{"key":"08117","name":"Göppingen","type":"Landkreis"},"federalState":{"key":"08","name":"Baden-Württemberg"}},{"name":"Frühlingstr.","postalCode":"73105","locality":"Dürnau","municipality":{"key":"08117017","name":"Dürnau","type":"Kreisangehörige_Gemeinde"},"district":{"key":"08117","name":"Göppingen","type":"Landkreis"},"federalState":{"key":"08","name":"Baden-Württemberg"}},{"name":"Gammelshauser Str.","postalCode":"73105","locality":"Dürnau","municipality":{"key":"08117017","name":"Dürnau","type":"Kreisangehörige_Gemeinde"},"district":{"key":"08117","name":"Göppingen","type":"Landkreis"},"federalState":{"key":"08","name":"Baden-Württemberg"}},{"name":"Gartenstr.","postalCode":"73105","locality":"Dürnau","municipality":{"key":"08117017","name":"Dürnau","type":"Kreisangehörige_Gemeinde"},"district":{"key":"08117","name":"Göppingen","type":"Landkreis"},"federalState":{"key":"08","name":"Baden-Württemberg"}},{"name":"Grabenstr.","postalCode":"73105","locality":"Dürnau","municipality":{"key":"08117017","name":"Dürnau","type":"Kreisangehörige_Gemeinde"},"district":{"key":"08117","name":"Göppingen","type":"Landkreis"},"federalState":{"key":"08","name":"Baden-Württemberg"}},{"name":"Hauptstr.","postalCode":"73105","locality":"Dürnau","municipality":{"key":"08117017","name":"Dürnau","type":"Kreisangehörige_Gemeinde"},"district":{"key":"08117","name":"Göppingen","type":"Landkreis"},"federalState":{"key":"08","name":"Baden-Württemberg"}},{"name":"Hauptstr.","postalCode":"88422","locality":"Dürnau","municipality":{"key":"08426036","name":"Dürnau","type":"Kreisangehörige_Gemeinde"},"district":{"key":"08426","name":"Biberach","type":"Landkreis"},"federalState":{"key":"08","name":"Baden-Württemberg"}},{"name":"Hennenwiesen","postalCode":"88422","locality":"Dürnau","municipality":{"key":"08426036","name":"Dürnau","type":"Kreisangehörige_Gemeinde"},"district":{"key":"08426","name":"Biberach","type":"Landkreis"},"federalState":{"key":"08","name":"Baden-Württemberg"}},{"name":"Heuweg","postalCode":"88422","locality":"Dürnau","municipality":{"key":"08426036","name":"Dürnau","type":"Kreisangehörige_Gemeinde"},"district":{"key":"08426","name":"Biberach","type":"Landkreis"},"federalState":{"key":"08","name":"Baden-Württemberg"}},{"name":"Im Flenner","postalCode":"73105","locality":"Dürnau","municipality":{"key":"08117017","name":"Dürnau","type":"Kreisangehörige_Gemeinde"},"district":{"key":"08117","name":"Göppingen","type":"Landkreis"},"federalState":{"key":"08","name":"Baden-Württemberg"}},{"name":"Im Henkeler","postalCode":"88422","locality":"Dürnau","municipality":{"key":"08426036","name":"Dürnau","type":"Kreisangehörige_Gemeinde"},"district":{"key":"08426","name":"Biberach","type":"Landkreis"},"federalState":{"key":"08","name":"Baden-Württemberg"}},{"name":"Im Morgen","postalCode":"73105","locality":"Dürnau","municipality":{"key":"08117017","name":"Dürnau","type":"Kreisangehörige_Gemeinde"},"district":{"key":"08117","name":"Göppingen","type":"Landkreis"},"federalState":{"key":"08","name":"Baden-Württemberg"}},{"name":"Im Winkel","postalCode":"88422","locality":"Dürnau","municipality":{"key":"08426036","name":"Dürnau","type":"Kreisangehörige_Gemeinde"},"district":{"key":"08426","name":"Biberach","type":"Landkreis"},"federalState":{"key":"08","name":"Baden-Württemberg"}},{"name":"Josef-Buck-Str.","postalCode":"88422","locality":"Dürnau","municipality":{"key":"08426036","name":"Dürnau","type":"Kreisangehörige_Gemeinde"},"district":{"key":"08426","name":"Biberach","type":"Landkreis"},"federalState":{"key":"08","name":"Baden-Württemberg"}},{"name":"Jurastr.","postalCode":"73105","locality":"Dürnau","municipality":{"key":"08117017","name":"Dürnau","type":"Kreisangehörige_Gemeinde"},"district":{"key":"08117","name":"Göppingen","type":"Landkreis"},"federalState":{"key":"08","name":"Baden-Württemberg"}},{"name":"Kanzacher Str.","postalCode":"88422","locality":"Dürnau","municipality":{"key":"08426036","name":"Dürnau","type":"Kreisangehörige_Gemeinde"},"district":{"key":"08426","name":"Biberach","type":"Landkreis"},"federalState":{"key":"08","name":"Baden-Württemberg"}},{"name":"Katzenhäuleweg","postalCode":"73105","locality":"Dürnau","municipality":{"key":"08117017","name":"Dürnau","type":"Kreisangehörige_Gemeinde"},"district":{"key":"08117","name":"Göppingen","type":"Landkreis"},"federalState":{"key":"08","name":"Baden-Württemberg"}},{"name":"Kirchstr.","postalCode":"73105","locality":"Dürnau","municipality":{"key":"08117017","name":"Dürnau","type":"Kreisangehörige_Gemeinde"},"district":{"key":"08117","name":"Göppingen","type":"Landkreis"},"federalState":{"key":"08","name":"Baden-Württemberg"}},{"name":"Kornbergweg","postalCode":"73105","locality":"Dürnau","municipality":{"key":"08117017","name":"Dürnau","type":"Kreisangehörige_Gemeinde"},"district":{"key":"08117","name":"Göppingen","type":"Landkreis"},"federalState":{"key":"08","name":"Baden-Württemberg"}},{"name":"Lindenstr.","postalCode":"73105","locality":"Dürnau","municipality":{"key":"08117017","name":"Dürnau","type":"Kreisangehörige_Gemeinde"},"district":{"key":"08117","name":"Göppingen","type":"Landkreis"},"federalState":{"key":"08","name":"Baden-Württemberg"}},{"name":"Morgenäcker","postalCode":"73105","locality":"Dürnau","municipality":{"key":"08117017","name":"Dürnau","type":"Kreisangehörige_Gemeinde"},"district":{"key":"08117","name":"Göppingen","type":"Landkreis"},"federalState":{"key":"08","name":"Baden-Württemberg"}},{"name":"Nägelesgasse","postalCode":"73037","locality":"Göppingen","municipality":{"key":"08117026","name":"Göppingen, Stadt","type":"Große_Kreisstadt"},"district":{"key":"08117","name":"Göppingen","type":"Landkreis"},"federalState":{"key":"08","name":"Baden-Württemberg"}},{"name":"Neue Fischstr.","postalCode":"73033","locality":"Göppingen","municipality":{"key":"08117026","name":"Göppingen, Stadt","type":"Große_Kreisstadt"},"district":{"key":"08117","name":"Göppingen","type":"Landkreis"},"federalState":{"key":"08","name":"Baden-Württemberg"}},{"name":"Neue Mitte","postalCode":"73035","locality":"Göppingen","municipality":{"key":"08117026","name":"Göppingen, Stadt","type":"Große_Kreisstadt"},"district":{"key":"08117","name":"Göppingen","type":"Landkreis"},"federalState":{"key":"08","name":"Baden-Württemberg"}},{"name":"Niels-Bohr-Str.","postalCode":"73037","locality":"Göppingen","municipality":{"key":"08117026","name":"Göppingen, Stadt","type":"Große_Kreisstadt"},"district":{"key":"08117","name":"Göppingen","type":"Landkreis"},"federalState":{"key":"08","name":"Baden-Württemberg"}},{"name":"Nikolaus-Lenau-Str.","postalCode":"73035","locality":"Göppingen","municipality":{"key":"08117026","name":"Göppingen, Stadt","type":"Große_Kreisstadt"},"district":{"key":"08117","name":"Göppingen","type":"Landkreis"},"federalState":{"key":"08","name":"Baden-Württemberg"}},{"name":"Nördliche Ringstr.","postalCode":"73033","locality":"Göppingen","municipality":{"key":"08117026","name":"Göppingen, Stadt","type":"Große_Kreisstadt"},"district":{"key":"08117","name":"Göppingen","type":"Landkreis"},"federalState":{"key":"08","name":"Baden-Württemberg"}},{"name":"Nortelweg","postalCode":"73037","locality":"Göppingen","municipality":{"key":"08117026","name":"Göppingen, Stadt","type":"Große_Kreisstadt"},"district":{"key":"08117","name":"Göppingen","type":"Landkreis"},"federalState":{"key":"08","name":"Baden-Württemberg"}},{"name":"Obererhangweg","postalCode":"73105","locality":"Dürnau","municipality":{"key":"08117017","name":"Dürnau","type":"Kreisangehörige_Gemeinde"},"district":{"key":"08117","name":"Göppingen","type":"Landkreis"},"federalState":{"key":"08","name":"Baden-Württemberg"}},{"name":"Osterhäuleweg","postalCode":"73105","locality":"Dürnau","municipality":{"key":"08117017","name":"Dürnau","type":"Kreisangehörige_Gemeinde"},"district":{"key":"08117","name":"Göppingen","type":"Landkreis"},"federalState":{"key":"08","name":"Baden-Württemberg"}},{"name":"Osterwiesen","postalCode":"73105","locality":"Dürnau","municipality":{"key":"08117017","name":"Dürnau","type":"Kreisangehörige_Gemeinde"},"district":{"key":"08117","name":"Göppingen","type":"Landkreis"},"federalState":{"key":"08","name":"Baden-Württemberg"}},{"name":"Pfarrer-Steeb-Weg","postalCode":"73105","locality":"Dürnau","municipality":{"key":"08117017","name":"Dürnau","type":"Kreisangehörige_Gemeinde"},"district":{"key":"08117","name":"Göppingen","type":"Landkreis"},"federalState":{"key":"08","name":"Baden-Württemberg"}},{"name":"Querstr.","postalCode":"73105","locality":"Dürnau","municipality":{"key":"08117017","name":"Dürnau","type":"Kreisangehörige_Gemeinde"},"district":{"key":"08117","name":"Göppingen","type":"Landkreis"},"federalState":{"key":"08","name":"Baden-Württemberg"}},{"name":"Raubeckstr.","postalCode":"73105","locality":"Dürnau","municipality":{"key":"08117017","name":"Dürnau","type":"Kreisangehörige_Gemeinde"},"district":{"key":"08117","name":"Göppingen","type":"Landkreis"},"federalState":{"key":"08","name":"Baden-Württemberg"}},{"name":"Reise","postalCode":"88422","locality":"Dürnau","municipality":{"key":"08426036","name":"Dürnau","type":"Kreisangehörige_Gemeinde"},"district":{"key":"08426","name":"Biberach","type":"Landkreis"},"federalState":{"key":"08","name":"Baden-Württemberg"}},{"name":"Reuteleweg","postalCode":"73105","locality":"Dürnau","municipality":{"key":"08117017","name":"Dürnau","type":"Kreisangehörige_Gemeinde"},"district":{"key":"08117","name":"Göppingen","type":"Landkreis"},"federalState":{"key":"08","name":"Baden-Württemberg"}},{"name":"Riedstr.","postalCode":"73105","locality":"Dürnau","municipality":{"key":"08117017","name":"Dürnau","type":"Kreisangehörige_Gemeinde"},"district":{"key":"08117","name":"Göppingen","type":"Landkreis"},"federalState":{"key":"08","name":"Baden-Württemberg"}},{"name":"Ringstr.","postalCode":"73105","locality":"Dürnau","municipality":{"key":"08117017","name":"Dürnau","type":"Kreisangehörige_Gemeinde"},"district":{"key":"08117","name":"Göppingen","type":"Landkreis"},"federalState":{"key":"08","name":"Baden-Württemberg"}},{"name":"Schillerstr.","postalCode":"73105","locality":"Dürnau","municipality":{"key":"08117017","name":"Dürnau","type":"Kreisangehörige_Gemeinde"},"district":{"key":"08117","name":"Göppingen","type":"Landkreis"},"federalState":{"key":"08","name":"Baden-Württemberg"}},{"name":"Schloßstr.","postalCode":"73105","locality":"Dürnau","municipality":{"key":"08117017","name":"Dürnau","type":"Kreisangehörige_Gemeinde"},"district":{"key":"08117","name":"Göppingen","type":"Landkreis"},"federalState":{"key":"08","name":"Baden-Württemberg"}},{"name":"Schulstr.","postalCode":"73105","locality":"Dürnau","municipality":{"key":"08117017","name":"Dürnau","type":"Kreisangehörige_Gemeinde"},"district":{"key":"08117","name":"Göppingen","type":"Landkreis"},"federalState":{"key":"08","name":"Baden-Württemberg"}},{"name":"Tabakäcker","postalCode":"73037","locality":"Göppingen","municipality":{"key":"08117026","name":"Göppingen, Stadt","type":"Große_Kreisstadt"},"district":{"key":"08117","name":"Göppingen","type":"Landkreis"},"federalState":{"key":"08","name":"Baden-Württemberg"}},{"name":"Talweg","postalCode":"73037","locality":"Göppingen","municipality":{"key":"08117026","name":"Göppingen, Stadt","type":"Große_Kreisstadt"},"district":{"key":"08117","name":"Göppingen","type":"Landkreis"},"federalState":{"key":"08","name":"Baden-Württemberg"}},{"name":"Tannenstr.","postalCode":"73035","locality":"Göppingen","municipality":{"key":"08117026","name":"Göppingen, Stadt","type":"Große_Kreisstadt"},"district":{"key":"08117","name":"Göppingen","type":"Landkreis"},"federalState":{"key":"08","name":"Baden-Württemberg"}},{"name":"Tannenstr.","postalCode":"73037","locality":"Göppingen","municipality":{"key":"08117026","name":"Göppingen, Stadt","type":"Große_Kreisstadt"},"district":{"key":"08117","name":"Göppingen","type":"Landkreis"},"federalState":{"key":"08","name":"Baden-Württemberg"}},{"name":"Teckstr.","postalCode":"73035","locality":"Göppingen","municipality":{"key":"08117026","name":"Göppingen, Stadt","type":"Große_Kreisstadt"},"district":{"key":"08117","name":"Göppingen","type":"Landkreis"},"federalState":{"key":"08","name":"Baden-Württemberg"}},{"name":"Tegelbergweg","postalCode":"73033","locality":"Göppingen","municipality":{"key":"08117026","name":"Göppingen, Stadt","type":"Große_Kreisstadt"},"district":{"key":"08117","name":"Göppingen","type":"Landkreis"},"federalState":{"key":"08","name":"Baden-Württemberg"}},{"name":"Tennenbergstr.","postalCode":"73037","locality":"Göppingen","municipality":{"key":"08117026","name":"Göppingen, Stadt","type":"Große_Kreisstadt"},"district":{"key":"08117","name":"Göppingen","type":"Landkreis"},"federalState":{"key":"08","name":"Baden-Württemberg"}},{"name":"Theodor-Heuss-Str.","postalCode":"73033","locality":"Göppingen","municipality":{"key":"08117026","name":"Göppingen, Stadt","type":"Große_Kreisstadt"},"district":{"key":"08117","name":"Göppingen","type":"Landkreis"},"federalState":{"key":"08","name":"Baden-Württemberg"}},{"name":"Thomas-Mann-Str.","postalCode":"73037","locality":"Göppingen","municipality":{"key":"08117026","name":"Göppingen, Stadt","type":"Große_Kreisstadt"},"district":{"key":"08117","name":"Göppingen","type":"Landkreis"},"federalState":{"key":"08","name":"Baden-Württemberg"}},{"name":"Tintenbachstr.","postalCode":"73035","locality":"Göppingen","municipality":{"key":"08117026","name":"Göppingen, Stadt","type":"Große_Kreisstadt"},"district":{"key":"08117","name":"Göppingen","type":"Landkreis"},"federalState":{"key":"08","name":"Baden-Württemberg"}},{"name":"Tobelbachstr.","postalCode":"73035","locality":"Göppingen","municipality":{"key":"08117026","name":"Göppingen, Stadt","type":"Große_Kreisstadt"},"district":{"key":"08117","name":"Göppingen","type":"Landkreis"},"federalState":{"key":"08","name":"Baden-Württemberg"}},{"name":"Töbele","postalCode":"73037","locality":"Göppingen","municipality":{"key":"08117026","name":"Göppingen, Stadt","type":"Große_Kreisstadt"},"district":{"key":"08117","name":"Göppingen","type":"Landkreis"},"federalState":{"key":"08","name":"Baden-Württemberg"}},{"name":"Tobelweg","postalCode":"73037","locality":"Göppingen","municipality":{"key":"08117026","name":"Göppingen, Stadt","type":"Große_Kreisstadt"},"district":{"key":"08117","name":"Göppingen","type":"Landkreis"},"federalState":{"key":"08","name":"Baden-Württemberg"}},{"name":"Troppauer Str.","postalCode":"73035","locality":"Göppingen","municipality":{"key":"08117026","name":"Göppingen, Stadt","type":"Große_Kreisstadt"},"district":{"key":"08117","name":"Göppingen","type":"Landkreis"},"federalState":{"key":"08","name":"Baden-Württemberg"}},{"name":"Trübauer Weg","postalCode":"73033","locality":"Göppingen","municipality":{"key":"08117026","name":"Göppingen, Stadt","type":"Große_Kreisstadt"},"district":{"key":"08117","name":"Göppingen","type":"Landkreis"},"federalState":{"key":"08","name":"Baden-Württemberg"}},{"name":"Turmweg","postalCode":"73037","locality":"Göppingen","municipality":{"key":"08117026","name":"Göppingen, Stadt","type":"Große_Kreisstadt"},"district":{"key":"08117","name":"Göppingen","type":"Landkreis"},"federalState":{"key":"08","name":"Baden-Württemberg"}},{"name":"Turnerstr.","postalCode":"73033","locality":"Göppingen","municipality":{"key":"08117026","name":"Göppingen, Stadt","type":"Große_Kreisstadt"},"district":{"key":"08117","name":"Göppingen","type":"Landkreis"},"federalState":{"key":"08","name":"Baden-Württemberg"}},{"name":"Turnhallenstr.","postalCode":"73035","locality":"Göppingen","municipality":{"key":"08117026","name":"Göppingen, Stadt","type":"Große_Kreisstadt"},"district":{"key":"08117","name":"Göppingen","type":"Landkreis"},"federalState":{"key":"08","name":"Baden-Württemberg"}},{"name":"Uhlandstr.","postalCode":"73035","locality":"Göppingen","municipality":{"key":"08117026","name":"Göppingen, Stadt","type":"Große_Kreisstadt"},"district":{"key":"08117","name":"Göppingen","type":"Landkreis"},"federalState":{"key":"08","name":"Baden-Württemberg"}},{"name":"Ulmenstr.","postalCode":"73035","locality":"Göppingen","municipality":{"key":"08117026","name":"Göppingen, Stadt","type":"Große_Kreisstadt"},"district":{"key":"08117","name":"Göppingen","type":"Landkreis"},"federalState":{"key":"08","name":"Baden-Württemberg"}},{"name":"Ulmenweg","postalCode":"73037","locality":"Göppingen","municipality":{"key":"08117026","name":"Göppingen, Stadt","type":"Große_Kreisstadt"},"district":{"key":"08117","name":"Göppingen","type":"Landkreis"},"federalState":{"key":"08","name":"Baden-Württemberg"}},{"name":"Ulmer Str.","postalCode":"73033","locality":"Göppingen","municipality":{"key":"08117026","name":"Göppingen, Stadt","type":"Große_Kreisstadt"},"district":{"key":"08117","name":"Göppingen","type":"Landkreis"},"federalState":{"key":"08","name":"Baden-Württemberg"}},{"name":"Ulmer Str.","postalCode":"73037","locality":"Göppingen","municipality":{"key":"08117026","name":"Göppingen, Stadt","type":"Große_Kreisstadt"},"district":{"key":"08117","name":"Göppingen","type":"Landkreis"},"federalState":{"key":"08","name":"Baden-Württemberg"}},{"name":"Ulrichstr.","postalCode":"73033","locality":"Göppingen","municipality":{"key":"08117026","name":"Göppingen, Stadt","type":"Große_Kreisstadt"},"district":{"key":"08117","name":"Göppingen","type":"Landkreis"},"federalState":{"key":"08","name":"Baden-Württemberg"}},{"name":"Unterdorfstr.","postalCode":"73037","locality":"Göppingen","municipality":{"key":"08117026","name":"Göppingen, Stadt","type":"Große_Kreisstadt"},"district":{"key":"08117","name":"Göppingen","type":"Landkreis"},"federalState":{"key":"08","name":"Baden-Württemberg"}},{"name":"Untere Halde","postalCode":"73037","locality":"Göppingen","municipality":{"key":"08117026","name":"Göppingen, Stadt","type":"Große_Kreisstadt"},"district":{"key":"08117","name":"Göppingen","type":"Landkreis"},"federalState":{"key":"08","name":"Baden-Württemberg"}},{"name":"Unterer Lederberg","postalCode":"73035","locality":"Göppingen","municipality":{"key":"08117026","name":"Göppingen, Stadt","type":"Große_Kreisstadt"},"district":{"key":"08117","name":"Göppingen","type":"Landkreis"},"federalState":{"key":"08","name":"Baden-Württemberg"}},{"name":"Unterer Weiler","postalCode":"73037","locality":"Göppingen","municipality":{"key":"08117026","name":"Göppingen, Stadt","type":"Große_Kreisstadt"},"district":{"key":"08117","name":"Göppingen","type":"Landkreis"},"federalState":{"key":"08","name":"Baden-Württemberg"}},{"name":"Untere Wasenstr.","postalCode":"73035","locality":"Göppingen","municipality":{"key":"08117026","name":"Göppingen, Stadt","type":"Große_Kreisstadt"},"district":{"key":"08117","name":"Göppingen","type":"Landkreis"},"federalState":{"key":"08","name":"Baden-Württemberg"}},{"name":"Ursenwanger Weg","postalCode":"73037","locality":"Göppingen","municipality":{"key":"08117026","name":"Göppingen, Stadt","type":"Große_Kreisstadt"},"district":{"key":"08117","name":"Göppingen","type":"Landkreis"},"federalState":{"key":"08","name":"Baden-Württemberg"}},{"name":"Viehausteerweg","postalCode":"73105","locality":"Dürnau","municipality":{"key":"08117017","name":"Dürnau","type":"Kreisangehörige_Gemeinde"},"district":{"key":"08117","name":"Göppingen","type":"Landkreis"},"federalState":{"key":"08","name":"Baden-Württemberg"}},{"name":"Viehhausteerweg","postalCode":"73105","locality":"Dürnau","municipality":{"key":"08117017","name":"Dürnau","type":"Kreisangehörige_Gemeinde"},"district":{"key":"08117","name":"Göppingen","type":"Landkreis"},"federalState":{"key":"08","name":"Baden-Württemberg"}},{"name":"Von-Degenfeld-Weg","postalCode":"73105","locality":"Dürnau","municipality":{"key":"08117017","name":"Dürnau","type":"Kreisangehörige_Gemeinde"},"district":{"key":"08117","name":"Göppingen","type":"Landkreis"},"federalState":{"key":"08","name":"Baden-Württemberg"}},{"name":"Wühlestr.","postalCode":"73105","locality":"Dürnau","municipality":{"key":"08117017","name":"Dürnau","type":"Kreisangehörige_Gemeinde"},"district":{"key":"08117","name":"Göppingen","type":"Landkreis"},"federalState":{"key":"08","name":"Baden-Württemberg"}},{"name":"Zeppelinstr.","postalCode":"73105","locality":"Dürnau","municipality":{"key":"08117017","name":"Dürnau","type":"Kreisangehörige_Gemeinde"},"district":{"key":"08117","name":"Göppingen","type":"Landkreis"},"federalState":{"key":"08","name":"Baden-Württemberg"}},{"name":"Zillenhardtweg","postalCode":"73105","locality":"Dürnau","municipality":{"key":"08117017","name":"Dürnau","type":"Kreisangehörige_Gemeinde"},"district":{"key":"08117","name":"Göppingen","type":"Landkreis"},"federalState":{"key":"08","name":"Baden-Württemberg"}},{"name":"Zum Köpfle","postalCode":"73105","locality":"Dürnau","municipality":{"key":"08117017","name":"Dürnau","type":"Kreisangehörige_Gemeinde"},"district":{"key":"08117","name":"Göppingen","type":"Landkreis"},"federalState":{"key":"08","name":"Baden-Württemberg"}},{"name":"Öchslinstr.","postalCode":"73033","locality":"Göppingen","municipality":{"key":"08117026","name":"Göppingen, Stadt","type":"Große_Kreisstadt"},"district":{"key":"08117","name":"Göppingen","type":"Landkreis"},"federalState":{"key":"08","name":"Baden-Württemberg"}},{"name":"Ödeweg","postalCode":"73035","locality":"Göppingen","municipality":{"key":"08117026","name":"Göppingen, Stadt","type":"Große_Kreisstadt"},"district":{"key":"08117","name":"Göppingen","type":"Landkreis"},"federalState":{"key":"08","name":"Baden-Württemberg"}},{"name":"Österbachstr.","postalCode":"73033","locality":"Göppingen","municipality":{"key":"08117026","name":"Göppingen, Stadt","type":"Große_Kreisstadt"},"district":{"key":"08117","name":"Göppingen","type":"Landkreis"},"federalState":{"key":"08","name":"Baden-Württemberg"}},{"name":"Östliche Linsenholz-Ausfahrt","postalCode":"73037","locality":"Göppingen","municipality":{"key":"08117026","name":"Göppingen, Stadt","type":"Große_Kreisstadt"},"district":{"key":"08117","name":"Göppingen","type":"Landkreis"},"federalState":{"key":"08","name":"Baden-Württemberg"}},{"name":"Östliche Ringstr.","postalCode":"73033","locality":"Göppingen","municipality":{"key":"08117026","name":"Göppingen, Stadt","type":"Große_Kreisstadt"},"district":{"key":"08117","name":"Göppingen","type":"Landkreis"},"federalState":{"key":"08","name":"Baden-Württemberg"}},]