[{"key":"10052653","name":"Amselweg","postalCode":"8835","locality":"Feusisberg","commune":{"key":"1321","name":"Feusisberg","shortName":"Feusisberg"},"district":{"key":"503","name":"Bezirk Höfe"},"canton":{"key":"5","code":"SZ","name":"Schwyz"},"status":"Real"},{"key":"10019104","name":"Birrenstrasse","postalCode":"8835","locality":"Feusisberg","commune":{"key":"1321","name":"Feusisberg","shortName":"Feusisberg"},"district":{"key":"503","name":"Bezirk Höfe"},"canton":{"key":"5","code":"SZ","name":"Schwyz"},"status":"Real"},{"key":"10019129","name":"Bleikenstrasse","postalCode":"8835","locality":"Feusisberg","commune":{"key":"1321","name":"Feusisberg","shortName":"Feusisberg"},"district":{"key":"503","name":"Bezirk Höfe"},"canton":{"key":"5","code":"SZ","name":"Schwyz"},"status":"Real"},{"key":"10102778","name":"Brandstrasse","postalCode":"8835","locality":"Feusisberg","commune":{"key":"1321","name":"Feusisberg","shortName":"Feusisberg"},"district":{"key":"503","name":"Bezirk Höfe"},"canton":{"key":"5","code":"SZ","name":"Schwyz"},"status":"Real"},{"key":"10066510","name":"Buchenweg","postalCode":"8835","locality":"Feusisberg","commune":{"key":"1321","name":"Feusisberg","shortName":"Feusisberg"},"district":{"key":"503","name":"Bezirk Höfe"},"canton":{"key":"5","code":"SZ","name":"Schwyz"},"status":"Real"},{"key":"10019130","name":"Büeleggstrasse","postalCode":"8835","locality":"Feusisberg","commune":{"key":"1321","name":"Feusisberg","shortName":"Feusisberg"},"district":{"key":"503","name":"Bezirk Höfe"},"canton":{"key":"5","code":"SZ","name":"Schwyz"},"status":"Real"},{"key":"10052654","name":"Casamattweg","postalCode":"8835","locality":"Feusisberg","commune":{"key":"1321","name":"Feusisberg","shortName":"Feusisberg"},"district":{"key":"503","name":"Bezirk Höfe"},"canton":{"key":"5","code":"SZ","name":"Schwyz"},"status":"Real"},{"key":"10223234","name":"Chilenholzweg","postalCode":"8835","locality":"Feusisberg","commune":{"key":"1321","name":"Feusisberg","shortName":"Feusisberg"},"district":{"key":"503","name":"Bezirk Höfe"},"canton":{"key":"5","code":"SZ","name":"Schwyz"},"status":"Real"},{"key":"10235915","name":"Dorfstrasse","postalCode":"8835","locality":"Feusisberg","commune":{"key":"1321","name":"Feusisberg","shortName":"Feusisberg"},"district":{"key":"503","name":"Bezirk Höfe"},"canton":{"key":"5","code":"SZ","name":"Schwyz"},"status":"Real"},{"key":"10180551","name":"Ebnetweg","postalCode":"8835","locality":"Feusisberg","commune":{"key":"1321","name":"Feusisberg","shortName":"Feusisberg"},"district":{"key":"503","name":"Bezirk Höfe"},"canton":{"key":"5","code":"SZ","name":"Schwyz"},"status":"Real"},{"key":"10066511","name":"Enzenaustrasse","postalCode":"8835","locality":"Feusisberg","commune":{"key":"1321","name":"Feusisberg","shortName":"Feusisberg"},"district":{"key":"503","name":"Bezirk Höfe"},"canton":{"key":"5","code":"SZ","name":"Schwyz"},"status":"Real"},{"key":"10188821","name":"Erlistrasse","postalCode":"8835","locality":"Feusisberg","commune":{"key":"1321","name":"Feusisberg","shortName":"Feusisberg"},"district":{"key":"503","name":"Bezirk Höfe"},"canton":{"key":"5","code":"SZ","name":"Schwyz"},"status":"Real"},{"key":"10019108","name":"Etzelstrasse","postalCode":"8835","locality":"Feusisberg","commune":{"key":"1321","name":"Feusisberg","shortName":"Feusisberg"},"district":{"key":"503","name":"Bezirk Höfe"},"canton":{"key":"5","code":"SZ","name":"Schwyz"},"status":"Real"},{"key":"10081384","name":"Etzelweg","postalCode":"8835","locality":"Feusisberg","commune":{"key":"1321","name":"Feusisberg","shortName":"Feusisberg"},"district":{"key":"503","name":"Bezirk Höfe"},"canton":{"key":"5","code":"SZ","name":"Schwyz"},"status":"Real"},{"key":"10194973","name":"Feldstrasse","postalCode":"8835","locality":"Feusisberg","commune":{"key":"1321","name":"Feusisberg","shortName":"Feusisberg"},"district":{"key":"503","name":"Bezirk Höfe"},"canton":{"key":"5","code":"SZ","name":"Schwyz"},"status":"Real"},{"key":"10115673","name":"Feusisgartenstrasse","postalCode":"8835","locality":"Feusisberg","commune":{"key":"1321","name":"Feusisberg","shortName":"Feusisberg"},"district":{"key":"503","name":"Bezirk Höfe"},"canton":{"key":"5","code":"SZ","name":"Schwyz"},"status":"Real"},{"key":"10136503","name":"Firststrasse","postalCode":"8835","locality":"Feusisberg","commune":{"key":"1321","name":"Feusisberg","shortName":"Feusisberg"},"district":{"key":"503","name":"Bezirk Höfe"},"canton":{"key":"5","code":"SZ","name":"Schwyz"},"status":"Real"},{"key":"10019101","name":"Firstweg","postalCode":"8835","locality":"Feusisberg","commune":{"key":"1321","name":"Feusisberg","shortName":"Feusisberg"},"district":{"key":"503","name":"Bezirk Höfe"},"canton":{"key":"5","code":"SZ","name":"Schwyz"},"status":"Real"},{"key":"10188823","name":"Frohe Aussicht","postalCode":"8835","locality":"Feusisberg","commune":{"key":"1321","name":"Feusisberg","shortName":"Feusisberg"},"district":{"key":"503","name":"Bezirk Höfe"},"canton":{"key":"5","code":"SZ","name":"Schwyz"},"status":"Real"},{"key":"10177762","name":"Giessenstrasse","postalCode":"8835","locality":"Feusisberg","commune":{"key":"1321","name":"Feusisberg","shortName":"Feusisberg"},"district":{"key":"503","name":"Bezirk Höfe"},"canton":{"key":"5","code":"SZ","name":"Schwyz"},"status":"Real"},{"key":"10190807","name":"Hinterstossweg","postalCode":"8835","locality":"Feusisberg","commune":{"key":"1321","name":"Feusisberg","shortName":"Feusisberg"},"district":{"key":"503","name":"Bezirk Höfe"},"canton":{"key":"5","code":"SZ","name":"Schwyz"},"status":"Real"},{"key":"10052655","name":"Kasteneggstrasse","postalCode":"8835","locality":"Feusisberg","commune":{"key":"1321","name":"Feusisberg","shortName":"Feusisberg"},"district":{"key":"503","name":"Bezirk Höfe"},"canton":{"key":"5","code":"SZ","name":"Schwyz"},"status":"Real"},{"key":"10081385","name":"Kroneggstrasse","postalCode":"8835","locality":"Feusisberg","commune":{"key":"1321","name":"Feusisberg","shortName":"Feusisberg"},"district":{"key":"503","name":"Bezirk Höfe"},"canton":{"key":"5","code":"SZ","name":"Schwyz"},"status":"Real"},{"key":"10019131","name":"Lerchenweg","postalCode":"8835","locality":"Feusisberg","commune":{"key":"1321","name":"Feusisberg","shortName":"Feusisberg"},"district":{"key":"503","name":"Bezirk Höfe"},"canton":{"key":"5","code":"SZ","name":"Schwyz"},"status":"Real"},{"key":"10066514","name":"Miltenweg","postalCode":"8835","locality":"Feusisberg","commune":{"key":"1321","name":"Feusisberg","shortName":"Feusisberg"},"district":{"key":"503","name":"Bezirk Höfe"},"canton":{"key":"5","code":"SZ","name":"Schwyz"},"status":"Real"},{"key":"10102779","name":"Miltenweidweg","postalCode":"8835","locality":"Feusisberg","commune":{"key":"1321","name":"Feusisberg","shortName":"Feusisberg"},"district":{"key":"503","name":"Bezirk Höfe"},"canton":{"key":"5","code":"SZ","name":"Schwyz"},"status":"Real"},{"key":"10019132","name":"Moosgässli","postalCode":"8835","locality":"Feusisberg","commune":{"key":"1321","name":"Feusisberg","shortName":"Feusisberg"},"district":{"key":"503","name":"Bezirk Höfe"},"canton":{"key":"5","code":"SZ","name":"Schwyz"},"status":"Real"},{"key":"10019133","name":"Moosstrasse","postalCode":"8835","locality":"Feusisberg","commune":{"key":"1321","name":"Feusisberg","shortName":"Feusisberg"},"district":{"key":"503","name":"Bezirk Höfe"},"canton":{"key":"5","code":"SZ","name":"Schwyz"},"status":"Real"},{"key":"10177756","name":"Oberschwändistrasse","postalCode":"8835","locality":"Feusisberg","commune":{"key":"1321","name":"Feusisberg","shortName":"Feusisberg"},"district":{"key":"503","name":"Bezirk Höfe"},"canton":{"key":"5","code":"SZ","name":"Schwyz"},"status":"Real"},{"key":"10052656","name":"Oberstossweg","postalCode":"8835","locality":"Feusisberg","commune":{"key":"1321","name":"Feusisberg","shortName":"Feusisberg"},"district":{"key":"503","name":"Bezirk Höfe"},"canton":{"key":"5","code":"SZ","name":"Schwyz"},"status":"Real"},{"key":"10081371","name":"Pfäffikonerstrasse","postalCode":"8835","locality":"Feusisberg","commune":{"key":"1321","name":"Feusisberg","shortName":"Feusisberg"},"district":{"key":"503","name":"Bezirk Höfe"},"canton":{"key":"5","code":"SZ","name":"Schwyz"},"status":"Real"},{"key":"10131238","name":"Pfannenstilstrasse","postalCode":"8835","locality":"Feusisberg","commune":{"key":"1321","name":"Feusisberg","shortName":"Feusisberg"},"district":{"key":"503","name":"Bezirk Höfe"},"canton":{"key":"5","code":"SZ","name":"Schwyz"},"status":"Real"},{"key":"10246684","name":"Ragenau","postalCode":"8835","locality":"Feusisberg","commune":{"key":"1321","name":"Feusisberg","shortName":"Feusisberg"},"district":{"key":"503","name":"Bezirk Höfe"},"canton":{"key":"5","code":"SZ","name":"Schwyz"},"status":"Real"},{"key":"10020218","name":"Riedstrasse","postalCode":"8835","locality":"Feusisberg","commune":{"key":"1321","name":"Feusisberg","shortName":"Feusisberg"},"district":{"key":"503","name":"Bezirk Höfe"},"canton":{"key":"5","code":"SZ","name":"Schwyz"},"status":"Real"},{"key":"10020219","name":"Riedweg","postalCode":"8835","locality":"Feusisberg","commune":{"key":"1321","name":"Feusisberg","shortName":"Feusisberg"},"district":{"key":"503","name":"Bezirk Höfe"},"canton":{"key":"5","code":"SZ","name":"Schwyz"},"status":"Real"},{"key":"10052657","name":"Riedweidweg","postalCode":"8835","locality":"Feusisberg","commune":{"key":"1321","name":"Feusisberg","shortName":"Feusisberg"},"district":{"key":"503","name":"Bezirk Höfe"},"canton":{"key":"5","code":"SZ","name":"Schwyz"},"status":"Real"},{"key":"10112284","name":"Rohnenrainweg","postalCode":"8835","locality":"Feusisberg","commune":{"key":"1321","name":"Feusisberg","shortName":"Feusisberg"},"district":{"key":"503","name":"Bezirk Höfe"},"canton":{"key":"5","code":"SZ","name":"Schwyz"},"status":"Real"},{"key":"10020220","name":"Rohnenstrasse","postalCode":"8835","locality":"Feusisberg","commune":{"key":"1321","name":"Feusisberg","shortName":"Feusisberg"},"district":{"key":"503","name":"Bezirk Höfe"},"canton":{"key":"5","code":"SZ","name":"Schwyz"},"status":"Real"},{"key":"10187168","name":"Rosenweg","postalCode":"8835","locality":"Feusisberg","commune":{"key":"1321","name":"Feusisberg","shortName":"Feusisberg"},"district":{"key":"503","name":"Bezirk Höfe"},"canton":{"key":"5","code":"SZ","name":"Schwyz"},"status":"Real"},{"key":"10081386","name":"Rotbachstrasse","postalCode":"8835","locality":"Feusisberg","commune":{"key":"1321","name":"Feusisberg","shortName":"Feusisberg"},"district":{"key":"503","name":"Bezirk Höfe"},"canton":{"key":"5","code":"SZ","name":"Schwyz"},"status":"Real"},{"key":"10020221","name":"Ruostelstrasse","postalCode":"8835","locality":"Feusisberg","commune":{"key":"1321","name":"Feusisberg","shortName":"Feusisberg"},"district":{"key":"503","name":"Bezirk Höfe"},"canton":{"key":"5","code":"SZ","name":"Schwyz"},"status":"Real"},{"key":"10246983","name":"Rüti","postalCode":"8835","locality":"Feusisberg","commune":{"key":"1321","name":"Feusisberg","shortName":"Feusisberg"},"district":{"key":"503","name":"Bezirk Höfe"},"canton":{"key":"5","code":"SZ","name":"Schwyz"},"status":"Real"},{"key":"10115674","name":"Säntisweg","postalCode":"8835","locality":"Feusisberg","commune":{"key":"1321","name":"Feusisberg","shortName":"Feusisberg"},"district":{"key":"503","name":"Bezirk Höfe"},"canton":{"key":"5","code":"SZ","name":"Schwyz"},"status":"Real"},{"key":"10246873","name":"Schnäggeburgwald","postalCode":"8835","locality":"Feusisberg","commune":{"key":"1321","name":"Feusisberg","shortName":"Feusisberg"},"district":{"key":"503","name":"Bezirk Höfe"},"canton":{"key":"5","code":"SZ","name":"Schwyz"},"status":"Real"},{"key":"10052658","name":"Schneckenburgweg","postalCode":"8835","locality":"Feusisberg","commune":{"key":"1321","name":"Feusisberg","shortName":"Feusisberg"},"district":{"key":"503","name":"Bezirk Höfe"},"canton":{"key":"5","code":"SZ","name":"Schwyz"},"status":"Real"},{"key":"10102780","name":"Schönfelsstrasse","postalCode":"8835","locality":"Feusisberg","commune":{"key":"1321","name":"Feusisberg","shortName":"Feusisberg"},"district":{"key":"503","name":"Bezirk Höfe"},"canton":{"key":"5","code":"SZ","name":"Schwyz"},"status":"Real"},{"key":"10235923","name":"Schulhausstrasse","postalCode":"8835","locality":"Feusisberg","commune":{"key":"1321","name":"Feusisberg","shortName":"Feusisberg"},"district":{"key":"503","name":"Bezirk Höfe"},"canton":{"key":"5","code":"SZ","name":"Schwyz"},"status":"Real"},{"key":"10019119","name":"Schweigwiesstrasse","postalCode":"8835","locality":"Feusisberg","commune":{"key":"1321","name":"Feusisberg","shortName":"Feusisberg"},"district":{"key":"503","name":"Bezirk Höfe"},"canton":{"key":"5","code":"SZ","name":"Schwyz"},"status":"Real"},{"key":"10066791","name":"Sennweidweg","postalCode":"8835","locality":"Feusisberg","commune":{"key":"1321","name":"Feusisberg","shortName":"Feusisberg"},"district":{"key":"503","name":"Bezirk Höfe"},"canton":{"key":"5","code":"SZ","name":"Schwyz"},"status":"Real"},{"key":"10020222","name":"Sonnenbergstrasse","postalCode":"8835","locality":"Feusisberg","commune":{"key":"1321","name":"Feusisberg","shortName":"Feusisberg"},"district":{"key":"503","name":"Bezirk Höfe"},"canton":{"key":"5","code":"SZ","name":"Schwyz"},"status":"Real"},{"key":"10144291","name":"Staldenweg","postalCode":"8835","locality":"Feusisberg","commune":{"key":"1321","name":"Feusisberg","shortName":"Feusisberg"},"district":{"key":"503","name":"Bezirk Höfe"},"canton":{"key":"5","code":"SZ","name":"Schwyz"},"status":"Real"},{"key":"10243166","name":"St.-Meinrad-Strasse","postalCode":"8835","locality":"Feusisberg","commune":{"key":"1321","name":"Feusisberg","shortName":"Feusisberg"},"district":{"key":"503","name":"Bezirk Höfe"},"canton":{"key":"5","code":"SZ","name":"Schwyz"},"status":"Real"},{"key":"10019102","name":"Stossweg","postalCode":"8835","locality":"Feusisberg","commune":{"key":"1321","name":"Feusisberg","shortName":"Feusisberg"},"district":{"key":"503","name":"Bezirk Höfe"},"canton":{"key":"5","code":"SZ","name":"Schwyz"},"status":"Real"},{"key":"10066793","name":"Strickliweg","postalCode":"8835","locality":"Feusisberg","commune":{"key":"1321","name":"Feusisberg","shortName":"Feusisberg"},"district":{"key":"503","name":"Bezirk Höfe"},"canton":{"key":"5","code":"SZ","name":"Schwyz"},"status":"Real"},{"key":"10052659","name":"Stuckstrasse","postalCode":"8835","locality":"Feusisberg","commune":{"key":"1321","name":"Feusisberg","shortName":"Feusisberg"},"district":{"key":"503","name":"Bezirk Höfe"},"canton":{"key":"5","code":"SZ","name":"Schwyz"},"status":"Real"},{"key":"10246698","name":"Vorderer Brand","postalCode":"8835","locality":"Feusisberg","commune":{"key":"1321","name":"Feusisberg","shortName":"Feusisberg"},"district":{"key":"503","name":"Bezirk Höfe"},"canton":{"key":"5","code":"SZ","name":"Schwyz"},"status":"Real"},{"key":"10020223","name":"Waldeggstrasse","postalCode":"8835","locality":"Feusisberg","commune":{"key":"1321","name":"Feusisberg","shortName":"Feusisberg"},"district":{"key":"503","name":"Bezirk Höfe"},"canton":{"key":"5","code":"SZ","name":"Schwyz"},"status":"Real"},]