[{"name":"Am Moor","postalCode":"24582","locality":"Mühbrook","municipality":{"key":"01058108","name":"Mühbrook","type":"Kreisangehörige_Gemeinde"},"district":{"key":"01058","name":"Rendsburg-Eckernförde","type":"Kreis"},"federalState":{"key":"01","name":"Schleswig-Holstein"}},{"name":"Am Mühbrooker Meer","postalCode":"24582","locality":"Mühbrook","municipality":{"key":"01058108","name":"Mühbrook","type":"Kreisangehörige_Gemeinde"},"district":{"key":"01058","name":"Rendsburg-Eckernförde","type":"Kreis"},"federalState":{"key":"01","name":"Schleswig-Holstein"}},{"name":"Am Wohld","postalCode":"24582","locality":"Mühbrook","municipality":{"key":"01058108","name":"Mühbrook","type":"Kreisangehörige_Gemeinde"},"district":{"key":"01058","name":"Rendsburg-Eckernförde","type":"Kreis"},"federalState":{"key":"01","name":"Schleswig-Holstein"}},{"name":"Bundesstr. 4","postalCode":"24582","locality":"Mühbrook","municipality":{"key":"01058108","name":"Mühbrook","type":"Kreisangehörige_Gemeinde"},"district":{"key":"01058","name":"Rendsburg-Eckernförde","type":"Kreis"},"federalState":{"key":"01","name":"Schleswig-Holstein"}},{"name":"Dorfstr.","postalCode":"24582","locality":"Mühbrook","municipality":{"key":"01058108","name":"Mühbrook","type":"Kreisangehörige_Gemeinde"},"district":{"key":"01058","name":"Rendsburg-Eckernförde","type":"Kreis"},"federalState":{"key":"01","name":"Schleswig-Holstein"}},{"name":"Eichenweg","postalCode":"24582","locality":"Mühbrook","municipality":{"key":"01058108","name":"Mühbrook","type":"Kreisangehörige_Gemeinde"},"district":{"key":"01058","name":"Rendsburg-Eckernförde","type":"Kreis"},"federalState":{"key":"01","name":"Schleswig-Holstein"}},{"name":"Mühlenweg","postalCode":"24582","locality":"Mühbrook","municipality":{"key":"01058108","name":"Mühbrook","type":"Kreisangehörige_Gemeinde"},"district":{"key":"01058","name":"Rendsburg-Eckernförde","type":"Kreis"},"federalState":{"key":"01","name":"Schleswig-Holstein"}},{"name":"Nortorfer Chaussee","postalCode":"24582","locality":"Mühbrook","municipality":{"key":"01058108","name":"Mühbrook","type":"Kreisangehörige_Gemeinde"},"district":{"key":"01058","name":"Rendsburg-Eckernförde","type":"Kreis"},"federalState":{"key":"01","name":"Schleswig-Holstein"}},{"name":"Querland","postalCode":"24582","locality":"Mühbrook","municipality":{"key":"01058108","name":"Mühbrook","type":"Kreisangehörige_Gemeinde"},"district":{"key":"01058","name":"Rendsburg-Eckernförde","type":"Kreis"},"federalState":{"key":"01","name":"Schleswig-Holstein"}},{"name":"Schatzinsel","postalCode":"24582","locality":"Mühbrook","municipality":{"key":"01058108","name":"Mühbrook","type":"Kreisangehörige_Gemeinde"},"district":{"key":"01058","name":"Rendsburg-Eckernförde","type":"Kreis"},"federalState":{"key":"01","name":"Schleswig-Holstein"}},{"name":"Schönbeker Weg","postalCode":"24582","locality":"Mühbrook","municipality":{"key":"01058108","name":"Mühbrook","type":"Kreisangehörige_Gemeinde"},"district":{"key":"01058","name":"Rendsburg-Eckernförde","type":"Kreis"},"federalState":{"key":"01","name":"Schleswig-Holstein"}},{"name":"Seekamp","postalCode":"24582","locality":"Mühbrook","municipality":{"key":"01058108","name":"Mühbrook","type":"Kreisangehörige_Gemeinde"},"district":{"key":"01058","name":"Rendsburg-Eckernförde","type":"Kreis"},"federalState":{"key":"01","name":"Schleswig-Holstein"}},{"name":"Seeredder","postalCode":"24582","locality":"Mühbrook","municipality":{"key":"01058108","name":"Mühbrook","type":"Kreisangehörige_Gemeinde"},"district":{"key":"01058","name":"Rendsburg-Eckernförde","type":"Kreis"},"federalState":{"key":"01","name":"Schleswig-Holstein"}},{"name":"Tannenweg","postalCode":"24582","locality":"Mühbrook","municipality":{"key":"01058108","name":"Mühbrook","type":"Kreisangehörige_Gemeinde"},"district":{"key":"01058","name":"Rendsburg-Eckernförde","type":"Kreis"},"federalState":{"key":"01","name":"Schleswig-Holstein"}},{"name":"Tökshorst","postalCode":"24582","locality":"Mühbrook","municipality":{"key":"01058108","name":"Mühbrook","type":"Kreisangehörige_Gemeinde"},"district":{"key":"01058","name":"Rendsburg-Eckernförde","type":"Kreis"},"federalState":{"key":"01","name":"Schleswig-Holstein"}},{"name":"Unter den Linden","postalCode":"24582","locality":"Mühbrook","municipality":{"key":"01058108","name":"Mühbrook","type":"Kreisangehörige_Gemeinde"},"district":{"key":"01058","name":"Rendsburg-Eckernförde","type":"Kreis"},"federalState":{"key":"01","name":"Schleswig-Holstein"}},{"name":"Waldeck","postalCode":"24582","locality":"Mühbrook","municipality":{"key":"01058108","name":"Mühbrook","type":"Kreisangehörige_Gemeinde"},"district":{"key":"01058","name":"Rendsburg-Eckernförde","type":"Kreis"},"federalState":{"key":"01","name":"Schleswig-Holstein"}},{"name":"Waldwiese","postalCode":"24582","locality":"Mühbrook","municipality":{"key":"01058108","name":"Mühbrook","type":"Kreisangehörige_Gemeinde"},"district":{"key":"01058","name":"Rendsburg-Eckernförde","type":"Kreis"},"federalState":{"key":"01","name":"Schleswig-Holstein"}},]