[{"name":"Alte Dorfstr.","postalCode":"39393","locality":"Am Großen Bruch","municipality":{"key":"15083025","name":"Am Großen Bruch","type":"Kreisangehörige_Gemeinde"},"district":{"key":"15083","name":"Börde","type":"Landkreis"},"federalState":{"key":"15","name":"Sachsen-Anhalt"}},{"name":"Am Bach","postalCode":"39393","locality":"Am Großen Bruch","municipality":{"key":"15083025","name":"Am Großen Bruch","type":"Kreisangehörige_Gemeinde"},"district":{"key":"15083","name":"Börde","type":"Landkreis"},"federalState":{"key":"15","name":"Sachsen-Anhalt"}},{"name":"Am Bahnhof","postalCode":"39393","locality":"Am Großen Bruch","municipality":{"key":"15083025","name":"Am Großen Bruch","type":"Kreisangehörige_Gemeinde"},"district":{"key":"15083","name":"Börde","type":"Landkreis"},"federalState":{"key":"15","name":"Sachsen-Anhalt"}},{"name":"Am Berge","postalCode":"39393","locality":"Am Großen Bruch","municipality":{"key":"15083025","name":"Am Großen Bruch","type":"Kreisangehörige_Gemeinde"},"district":{"key":"15083","name":"Börde","type":"Landkreis"},"federalState":{"key":"15","name":"Sachsen-Anhalt"}},{"name":"Am Löschteich","postalCode":"39393","locality":"Am Großen Bruch","municipality":{"key":"15083025","name":"Am Großen Bruch","type":"Kreisangehörige_Gemeinde"},"district":{"key":"15083","name":"Börde","type":"Landkreis"},"federalState":{"key":"15","name":"Sachsen-Anhalt"}},{"name":"Am Mühlenberg","postalCode":"39393","locality":"Am Großen Bruch","municipality":{"key":"15083025","name":"Am Großen Bruch","type":"Kreisangehörige_Gemeinde"},"district":{"key":"15083","name":"Börde","type":"Landkreis"},"federalState":{"key":"15","name":"Sachsen-Anhalt"}},{"name":"Am Park","postalCode":"39393","locality":"Am Großen Bruch","municipality":{"key":"15083025","name":"Am Großen Bruch","type":"Kreisangehörige_Gemeinde"},"district":{"key":"15083","name":"Börde","type":"Landkreis"},"federalState":{"key":"15","name":"Sachsen-Anhalt"}},{"name":"Amt","postalCode":"39393","locality":"Am Großen Bruch","municipality":{"key":"15083025","name":"Am Großen Bruch","type":"Kreisangehörige_Gemeinde"},"district":{"key":"15083","name":"Börde","type":"Landkreis"},"federalState":{"key":"15","name":"Sachsen-Anhalt"}},{"name":"An der Bleiche","postalCode":"39393","locality":"Am Großen Bruch","municipality":{"key":"15083025","name":"Am Großen Bruch","type":"Kreisangehörige_Gemeinde"},"district":{"key":"15083","name":"Börde","type":"Landkreis"},"federalState":{"key":"15","name":"Sachsen-Anhalt"}},{"name":"An der Pferdekoppel","postalCode":"39393","locality":"Am Großen Bruch","municipality":{"key":"15083025","name":"Am Großen Bruch","type":"Kreisangehörige_Gemeinde"},"district":{"key":"15083","name":"Börde","type":"Landkreis"},"federalState":{"key":"15","name":"Sachsen-Anhalt"}},{"name":"Angerweg","postalCode":"39393","locality":"Am Großen Bruch","municipality":{"key":"15083025","name":"Am Großen Bruch","type":"Kreisangehörige_Gemeinde"},"district":{"key":"15083","name":"Börde","type":"Landkreis"},"federalState":{"key":"15","name":"Sachsen-Anhalt"}},{"name":"Backtwete","postalCode":"39393","locality":"Am Großen Bruch","municipality":{"key":"15083025","name":"Am Großen Bruch","type":"Kreisangehörige_Gemeinde"},"district":{"key":"15083","name":"Börde","type":"Landkreis"},"federalState":{"key":"15","name":"Sachsen-Anhalt"}},{"name":"Bahnhof","postalCode":"39393","locality":"Am Großen Bruch","municipality":{"key":"15083025","name":"Am Großen Bruch","type":"Kreisangehörige_Gemeinde"},"district":{"key":"15083","name":"Börde","type":"Landkreis"},"federalState":{"key":"15","name":"Sachsen-Anhalt"}},{"name":"Bergstr.","postalCode":"39393","locality":"Am Großen Bruch","municipality":{"key":"15083025","name":"Am Großen Bruch","type":"Kreisangehörige_Gemeinde"},"district":{"key":"15083","name":"Börde","type":"Landkreis"},"federalState":{"key":"15","name":"Sachsen-Anhalt"}},{"name":"Brennhof","postalCode":"39393","locality":"Am Großen Bruch","municipality":{"key":"15083025","name":"Am Großen Bruch","type":"Kreisangehörige_Gemeinde"},"district":{"key":"15083","name":"Börde","type":"Landkreis"},"federalState":{"key":"15","name":"Sachsen-Anhalt"}},{"name":"Brockenblick","postalCode":"39393","locality":"Am Großen Bruch","municipality":{"key":"15083025","name":"Am Großen Bruch","type":"Kreisangehörige_Gemeinde"},"district":{"key":"15083","name":"Börde","type":"Landkreis"},"federalState":{"key":"15","name":"Sachsen-Anhalt"}},{"name":"Columbusstr.","postalCode":"39393","locality":"Am Großen Bruch","municipality":{"key":"15083025","name":"Am Großen Bruch","type":"Kreisangehörige_Gemeinde"},"district":{"key":"15083","name":"Börde","type":"Landkreis"},"federalState":{"key":"15","name":"Sachsen-Anhalt"}},{"name":"Damaschke-Siedlung","postalCode":"39393","locality":"Am Großen Bruch","municipality":{"key":"15083025","name":"Am Großen Bruch","type":"Kreisangehörige_Gemeinde"},"district":{"key":"15083","name":"Börde","type":"Landkreis"},"federalState":{"key":"15","name":"Sachsen-Anhalt"}},{"name":"Dorfmitte","postalCode":"39393","locality":"Am Großen Bruch","municipality":{"key":"15083025","name":"Am Großen Bruch","type":"Kreisangehörige_Gemeinde"},"district":{"key":"15083","name":"Börde","type":"Landkreis"},"federalState":{"key":"15","name":"Sachsen-Anhalt"}},{"name":"Dreschehaus","postalCode":"39393","locality":"Am Großen Bruch","municipality":{"key":"15083025","name":"Am Großen Bruch","type":"Kreisangehörige_Gemeinde"},"district":{"key":"15083","name":"Börde","type":"Landkreis"},"federalState":{"key":"15","name":"Sachsen-Anhalt"}},{"name":"Eikengasse","postalCode":"39393","locality":"Am Großen Bruch","municipality":{"key":"15083025","name":"Am Großen Bruch","type":"Kreisangehörige_Gemeinde"},"district":{"key":"15083","name":"Börde","type":"Landkreis"},"federalState":{"key":"15","name":"Sachsen-Anhalt"}},{"name":"Fabrikstr.","postalCode":"39393","locality":"Am Großen Bruch","municipality":{"key":"15083025","name":"Am Großen Bruch","type":"Kreisangehörige_Gemeinde"},"district":{"key":"15083","name":"Börde","type":"Landkreis"},"federalState":{"key":"15","name":"Sachsen-Anhalt"}},{"name":"Fasanenberg","postalCode":"39393","locality":"Am Großen Bruch","municipality":{"key":"15083025","name":"Am Großen Bruch","type":"Kreisangehörige_Gemeinde"},"district":{"key":"15083","name":"Börde","type":"Landkreis"},"federalState":{"key":"15","name":"Sachsen-Anhalt"}},{"name":"Feldstr.","postalCode":"39393","locality":"Am Großen Bruch","municipality":{"key":"15083025","name":"Am Großen Bruch","type":"Kreisangehörige_Gemeinde"},"district":{"key":"15083","name":"Börde","type":"Landkreis"},"federalState":{"key":"15","name":"Sachsen-Anhalt"}},{"name":"Fürstenberg","postalCode":"39393","locality":"Am Großen Bruch","municipality":{"key":"15083025","name":"Am Großen Bruch","type":"Kreisangehörige_Gemeinde"},"district":{"key":"15083","name":"Börde","type":"Landkreis"},"federalState":{"key":"15","name":"Sachsen-Anhalt"}},{"name":"Gartenweg","postalCode":"39393","locality":"Am Großen Bruch","municipality":{"key":"15083025","name":"Am Großen Bruch","type":"Kreisangehörige_Gemeinde"},"district":{"key":"15083","name":"Börde","type":"Landkreis"},"federalState":{"key":"15","name":"Sachsen-Anhalt"}},{"name":"Grandsteig","postalCode":"39393","locality":"Am Großen Bruch","municipality":{"key":"15083025","name":"Am Großen Bruch","type":"Kreisangehörige_Gemeinde"},"district":{"key":"15083","name":"Börde","type":"Landkreis"},"federalState":{"key":"15","name":"Sachsen-Anhalt"}},{"name":"Grauer Hof","postalCode":"39393","locality":"Am Großen Bruch","municipality":{"key":"15083025","name":"Am Großen Bruch","type":"Kreisangehörige_Gemeinde"},"district":{"key":"15083","name":"Börde","type":"Landkreis"},"federalState":{"key":"15","name":"Sachsen-Anhalt"}},{"name":"Große Twete","postalCode":"39393","locality":"Am Großen Bruch","municipality":{"key":"15083025","name":"Am Großen Bruch","type":"Kreisangehörige_Gemeinde"},"district":{"key":"15083","name":"Börde","type":"Landkreis"},"federalState":{"key":"15","name":"Sachsen-Anhalt"}},{"name":"Grüne Str.","postalCode":"39393","locality":"Am Großen Bruch","municipality":{"key":"15083025","name":"Am Großen Bruch","type":"Kreisangehörige_Gemeinde"},"district":{"key":"15083","name":"Börde","type":"Landkreis"},"federalState":{"key":"15","name":"Sachsen-Anhalt"}},{"name":"Hauptstr.","postalCode":"39393","locality":"Am Großen Bruch","municipality":{"key":"15083025","name":"Am Großen Bruch","type":"Kreisangehörige_Gemeinde"},"district":{"key":"15083","name":"Börde","type":"Landkreis"},"federalState":{"key":"15","name":"Sachsen-Anhalt"}},{"name":"Hinter der Kirche","postalCode":"39393","locality":"Am Großen Bruch","municipality":{"key":"15083025","name":"Am Großen Bruch","type":"Kreisangehörige_Gemeinde"},"district":{"key":"15083","name":"Börde","type":"Landkreis"},"federalState":{"key":"15","name":"Sachsen-Anhalt"}},{"name":"Hornhäuser Str.","postalCode":"39393","locality":"Am Großen Bruch","municipality":{"key":"15083025","name":"Am Großen Bruch","type":"Kreisangehörige_Gemeinde"},"district":{"key":"15083","name":"Börde","type":"Landkreis"},"federalState":{"key":"15","name":"Sachsen-Anhalt"}},{"name":"Im Cönterstieg","postalCode":"39167","locality":"Hohe Börde","municipality":{"key":"15083298","name":"Hohe Börde","type":"Kreisangehörige_Gemeinde"},"district":{"key":"15083","name":"Börde","type":"Landkreis"},"federalState":{"key":"15","name":"Sachsen-Anhalt"}},{"name":"Im Fuchstal","postalCode":"39167","locality":"Hohe Börde","municipality":{"key":"15083298","name":"Hohe Börde","type":"Kreisangehörige_Gemeinde"},"district":{"key":"15083","name":"Börde","type":"Landkreis"},"federalState":{"key":"15","name":"Sachsen-Anhalt"}},{"name":"Im Lämmertal","postalCode":"39167","locality":"Hohe Börde","municipality":{"key":"15083298","name":"Hohe Börde","type":"Kreisangehörige_Gemeinde"},"district":{"key":"15083","name":"Börde","type":"Landkreis"},"federalState":{"key":"15","name":"Sachsen-Anhalt"}},{"name":"Im Lerchenfeld","postalCode":"39221","locality":"Bördeland","municipality":{"key":"15089042","name":"Bördeland","type":"Kreisangehörige_Gemeinde"},"district":{"key":"15089","name":"Salzlandkreis","type":"Landkreis"},"federalState":{"key":"15","name":"Sachsen-Anhalt"}},{"name":"Im Oberdorf","postalCode":"39164","locality":"Wanzleben-Börde","municipality":{"key":"15083531","name":"Wanzleben-Börde, Stadt","type":"Stadt"},"district":{"key":"15083","name":"Börde","type":"Landkreis"},"federalState":{"key":"15","name":"Sachsen-Anhalt"}},{"name":"Im Ring","postalCode":"39167","locality":"Hohe Börde","municipality":{"key":"15083298","name":"Hohe Börde","type":"Kreisangehörige_Gemeinde"},"district":{"key":"15083","name":"Börde","type":"Landkreis"},"federalState":{"key":"15","name":"Sachsen-Anhalt"}},{"name":"Im Sack","postalCode":"39343","locality":"Hohe Börde","municipality":{"key":"15083298","name":"Hohe Börde","type":"Kreisangehörige_Gemeinde"},"district":{"key":"15083","name":"Börde","type":"Landkreis"},"federalState":{"key":"15","name":"Sachsen-Anhalt"}},{"name":"Im Schrotetal","postalCode":"39167","locality":"Hohe Börde","municipality":{"key":"15083298","name":"Hohe Börde","type":"Kreisangehörige_Gemeinde"},"district":{"key":"15083","name":"Börde","type":"Landkreis"},"federalState":{"key":"15","name":"Sachsen-Anhalt"}},{"name":"Im Winkel","postalCode":"39164","locality":"Wanzleben-Börde","municipality":{"key":"15083531","name":"Wanzleben-Börde, Stadt","type":"Stadt"},"district":{"key":"15083","name":"Börde","type":"Landkreis"},"federalState":{"key":"15","name":"Sachsen-Anhalt"}},{"name":"Im Winkel","postalCode":"39167","locality":"Hohe Börde","municipality":{"key":"15083298","name":"Hohe Börde","type":"Kreisangehörige_Gemeinde"},"district":{"key":"15083","name":"Börde","type":"Landkreis"},"federalState":{"key":"15","name":"Sachsen-Anhalt"}},{"name":"Im Winkel","postalCode":"39221","locality":"Bördeland","municipality":{"key":"15089042","name":"Bördeland","type":"Kreisangehörige_Gemeinde"},"district":{"key":"15089","name":"Salzlandkreis","type":"Landkreis"},"federalState":{"key":"15","name":"Sachsen-Anhalt"}},{"name":"Im Winkel","postalCode":"39326","locality":"Hohe Börde","municipality":{"key":"15083298","name":"Hohe Börde","type":"Kreisangehörige_Gemeinde"},"district":{"key":"15083","name":"Börde","type":"Landkreis"},"federalState":{"key":"15","name":"Sachsen-Anhalt"}},{"name":"Im Winkel","postalCode":"39326","locality":"Niedere Börde","municipality":{"key":"15083390","name":"Niedere Börde","type":"Kreisangehörige_Gemeinde"},"district":{"key":"15083","name":"Börde","type":"Landkreis"},"federalState":{"key":"15","name":"Sachsen-Anhalt"}},{"name":"Im Winkel","postalCode":"39343","locality":"Hohe Börde","municipality":{"key":"15083298","name":"Hohe Börde","type":"Kreisangehörige_Gemeinde"},"district":{"key":"15083","name":"Börde","type":"Landkreis"},"federalState":{"key":"15","name":"Sachsen-Anhalt"}},{"name":"Im Winkel","postalCode":"39345","locality":"Niedere Börde","municipality":{"key":"15083390","name":"Niedere Börde","type":"Kreisangehörige_Gemeinde"},"district":{"key":"15083","name":"Börde","type":"Landkreis"},"federalState":{"key":"15","name":"Sachsen-Anhalt"}},{"name":"Industriestr.","postalCode":"39435","locality":"Bördeaue","municipality":{"key":"15089041","name":"Bördeaue","type":"Kreisangehörige_Gemeinde"},"district":{"key":"15089","name":"Salzlandkreis","type":"Landkreis"},"federalState":{"key":"15","name":"Sachsen-Anhalt"}},{"name":"Irxlebener Siedlung","postalCode":"39167","locality":"Hohe Börde","municipality":{"key":"15083298","name":"Hohe Börde","type":"Kreisangehörige_Gemeinde"},"district":{"key":"15083","name":"Börde","type":"Landkreis"},"federalState":{"key":"15","name":"Sachsen-Anhalt"}},{"name":"Irxlebener Str.","postalCode":"39167","locality":"Hohe Börde","municipality":{"key":"15083298","name":"Hohe Börde","type":"Kreisangehörige_Gemeinde"},"district":{"key":"15083","name":"Börde","type":"Landkreis"},"federalState":{"key":"15","name":"Sachsen-Anhalt"}},{"name":"Irxleber Str.","postalCode":"39326","locality":"Hohe Börde","municipality":{"key":"15083298","name":"Hohe Börde","type":"Kreisangehörige_Gemeinde"},"district":{"key":"15083","name":"Börde","type":"Landkreis"},"federalState":{"key":"15","name":"Sachsen-Anhalt"}},{"name":"Irxleber Weg","postalCode":"39167","locality":"Hohe Börde","municipality":{"key":"15083298","name":"Hohe Börde","type":"Kreisangehörige_Gemeinde"},"district":{"key":"15083","name":"Börde","type":"Landkreis"},"federalState":{"key":"15","name":"Sachsen-Anhalt"}},{"name":"Jersleber Str.","postalCode":"39326","locality":"Niedere Börde","municipality":{"key":"15083390","name":"Niedere Börde","type":"Kreisangehörige_Gemeinde"},"district":{"key":"15083","name":"Börde","type":"Landkreis"},"federalState":{"key":"15","name":"Sachsen-Anhalt"}},{"name":"Jersleber Weg","postalCode":"39326","locality":"Niedere Börde","municipality":{"key":"15083390","name":"Niedere Börde","type":"Kreisangehörige_Gemeinde"},"district":{"key":"15083","name":"Börde","type":"Landkreis"},"federalState":{"key":"15","name":"Sachsen-Anhalt"}},{"name":"Johann-Gottfried-Herder-Weg","postalCode":"39164","locality":"Wanzleben-Börde","municipality":{"key":"15083531","name":"Wanzleben-Börde, Stadt","type":"Stadt"},"district":{"key":"15083","name":"Börde","type":"Landkreis"},"federalState":{"key":"15","name":"Sachsen-Anhalt"}},{"name":"Johann-Wolfgang-von-Goethe-Str.","postalCode":"39164","locality":"Wanzleben-Börde","municipality":{"key":"15083531","name":"Wanzleben-Börde, Stadt","type":"Stadt"},"district":{"key":"15083","name":"Börde","type":"Landkreis"},"federalState":{"key":"15","name":"Sachsen-Anhalt"}},{"name":"Kampweg","postalCode":"39393","locality":"Am Großen Bruch","municipality":{"key":"15083025","name":"Am Großen Bruch","type":"Kreisangehörige_Gemeinde"},"district":{"key":"15083","name":"Börde","type":"Landkreis"},"federalState":{"key":"15","name":"Sachsen-Anhalt"}},{"name":"Kastanienplatz","postalCode":"39393","locality":"Am Großen Bruch","municipality":{"key":"15083025","name":"Am Großen Bruch","type":"Kreisangehörige_Gemeinde"},"district":{"key":"15083","name":"Börde","type":"Landkreis"},"federalState":{"key":"15","name":"Sachsen-Anhalt"}},{"name":"Kirchstr.","postalCode":"39393","locality":"Am Großen Bruch","municipality":{"key":"15083025","name":"Am Großen Bruch","type":"Kreisangehörige_Gemeinde"},"district":{"key":"15083","name":"Börde","type":"Landkreis"},"federalState":{"key":"15","name":"Sachsen-Anhalt"}},{"name":"Kleine Twete","postalCode":"39393","locality":"Am Großen Bruch","municipality":{"key":"15083025","name":"Am Großen Bruch","type":"Kreisangehörige_Gemeinde"},"district":{"key":"15083","name":"Börde","type":"Landkreis"},"federalState":{"key":"15","name":"Sachsen-Anhalt"}},{"name":"Klosterhof","postalCode":"39393","locality":"Am Großen Bruch","municipality":{"key":"15083025","name":"Am Großen Bruch","type":"Kreisangehörige_Gemeinde"},"district":{"key":"15083","name":"Börde","type":"Landkreis"},"federalState":{"key":"15","name":"Sachsen-Anhalt"}},{"name":"Klosterpark","postalCode":"39393","locality":"Am Großen Bruch","municipality":{"key":"15083025","name":"Am Großen Bruch","type":"Kreisangehörige_Gemeinde"},"district":{"key":"15083","name":"Börde","type":"Landkreis"},"federalState":{"key":"15","name":"Sachsen-Anhalt"}},{"name":"Knielweg","postalCode":"39393","locality":"Am Großen Bruch","municipality":{"key":"15083025","name":"Am Großen Bruch","type":"Kreisangehörige_Gemeinde"},"district":{"key":"15083","name":"Börde","type":"Landkreis"},"federalState":{"key":"15","name":"Sachsen-Anhalt"}},{"name":"Krottorfer Weg","postalCode":"39393","locality":"Am Großen Bruch","municipality":{"key":"15083025","name":"Am Großen Bruch","type":"Kreisangehörige_Gemeinde"},"district":{"key":"15083","name":"Börde","type":"Landkreis"},"federalState":{"key":"15","name":"Sachsen-Anhalt"}},{"name":"Kurze Str.","postalCode":"39393","locality":"Am Großen Bruch","municipality":{"key":"15083025","name":"Am Großen Bruch","type":"Kreisangehörige_Gemeinde"},"district":{"key":"15083","name":"Börde","type":"Landkreis"},"federalState":{"key":"15","name":"Sachsen-Anhalt"}},{"name":"Lange Str.","postalCode":"39393","locality":"Am Großen Bruch","municipality":{"key":"15083025","name":"Am Großen Bruch","type":"Kreisangehörige_Gemeinde"},"district":{"key":"15083","name":"Börde","type":"Landkreis"},"federalState":{"key":"15","name":"Sachsen-Anhalt"}},{"name":"LPG-Hof","postalCode":"39393","locality":"Am Großen Bruch","municipality":{"key":"15083025","name":"Am Großen Bruch","type":"Kreisangehörige_Gemeinde"},"district":{"key":"15083","name":"Börde","type":"Landkreis"},"federalState":{"key":"15","name":"Sachsen-Anhalt"}},{"name":"Malinshof","postalCode":"39393","locality":"Am Großen Bruch","municipality":{"key":"15083025","name":"Am Großen Bruch","type":"Kreisangehörige_Gemeinde"},"district":{"key":"15083","name":"Börde","type":"Landkreis"},"federalState":{"key":"15","name":"Sachsen-Anhalt"}},{"name":"Neue Reihe","postalCode":"39393","locality":"Am Großen Bruch","municipality":{"key":"15083025","name":"Am Großen Bruch","type":"Kreisangehörige_Gemeinde"},"district":{"key":"15083","name":"Börde","type":"Landkreis"},"federalState":{"key":"15","name":"Sachsen-Anhalt"}},{"name":"Neuer Hof","postalCode":"39393","locality":"Am Großen Bruch","municipality":{"key":"15083025","name":"Am Großen Bruch","type":"Kreisangehörige_Gemeinde"},"district":{"key":"15083","name":"Börde","type":"Landkreis"},"federalState":{"key":"15","name":"Sachsen-Anhalt"}},{"name":"Neuer Markt","postalCode":"39393","locality":"Am Großen Bruch","municipality":{"key":"15083025","name":"Am Großen Bruch","type":"Kreisangehörige_Gemeinde"},"district":{"key":"15083","name":"Börde","type":"Landkreis"},"federalState":{"key":"15","name":"Sachsen-Anhalt"}},{"name":"Neue Str.","postalCode":"39393","locality":"Am Großen Bruch","municipality":{"key":"15083025","name":"Am Großen Bruch","type":"Kreisangehörige_Gemeinde"},"district":{"key":"15083","name":"Börde","type":"Landkreis"},"federalState":{"key":"15","name":"Sachsen-Anhalt"}},{"name":"Neuwegersleber Str.","postalCode":"39393","locality":"Am Großen Bruch","municipality":{"key":"15083025","name":"Am Großen Bruch","type":"Kreisangehörige_Gemeinde"},"district":{"key":"15083","name":"Börde","type":"Landkreis"},"federalState":{"key":"15","name":"Sachsen-Anhalt"}},{"name":"Obere Bergstr.","postalCode":"39393","locality":"Am Großen Bruch","municipality":{"key":"15083025","name":"Am Großen Bruch","type":"Kreisangehörige_Gemeinde"},"district":{"key":"15083","name":"Börde","type":"Landkreis"},"federalState":{"key":"15","name":"Sachsen-Anhalt"}},{"name":"Ottlebener Str.","postalCode":"39393","locality":"Am Großen Bruch","municipality":{"key":"15083025","name":"Am Großen Bruch","type":"Kreisangehörige_Gemeinde"},"district":{"key":"15083","name":"Börde","type":"Landkreis"},"federalState":{"key":"15","name":"Sachsen-Anhalt"}},{"name":"Papenberg","postalCode":"39393","locality":"Am Großen Bruch","municipality":{"key":"15083025","name":"Am Großen Bruch","type":"Kreisangehörige_Gemeinde"},"district":{"key":"15083","name":"Börde","type":"Landkreis"},"federalState":{"key":"15","name":"Sachsen-Anhalt"}},{"name":"Philipp-Müller-Str.","postalCode":"39393","locality":"Am Großen Bruch","municipality":{"key":"15083025","name":"Am Großen Bruch","type":"Kreisangehörige_Gemeinde"},"district":{"key":"15083","name":"Börde","type":"Landkreis"},"federalState":{"key":"15","name":"Sachsen-Anhalt"}},{"name":"Poststr.","postalCode":"39393","locality":"Am Großen Bruch","municipality":{"key":"15083025","name":"Am Großen Bruch","type":"Kreisangehörige_Gemeinde"},"district":{"key":"15083","name":"Börde","type":"Landkreis"},"federalState":{"key":"15","name":"Sachsen-Anhalt"}},{"name":"Quergasse","postalCode":"39221","locality":"Bördeland","municipality":{"key":"15089042","name":"Bördeland","type":"Kreisangehörige_Gemeinde"},"district":{"key":"15089","name":"Salzlandkreis","type":"Landkreis"},"federalState":{"key":"15","name":"Sachsen-Anhalt"}},{"name":"Querstr.","postalCode":"39164","locality":"Wanzleben-Börde","municipality":{"key":"15083531","name":"Wanzleben-Börde, Stadt","type":"Stadt"},"district":{"key":"15083","name":"Börde","type":"Landkreis"},"federalState":{"key":"15","name":"Sachsen-Anhalt"}},{"name":"Querstr.","postalCode":"39221","locality":"Bördeland","municipality":{"key":"15089042","name":"Bördeland","type":"Kreisangehörige_Gemeinde"},"district":{"key":"15089","name":"Salzlandkreis","type":"Landkreis"},"federalState":{"key":"15","name":"Sachsen-Anhalt"}},{"name":"Querstr.","postalCode":"39343","locality":"Hohe Börde","municipality":{"key":"15083298","name":"Hohe Börde","type":"Kreisangehörige_Gemeinde"},"district":{"key":"15083","name":"Börde","type":"Landkreis"},"federalState":{"key":"15","name":"Sachsen-Anhalt"}},{"name":"Rosmarienstr.","postalCode":"39393","locality":"Am Großen Bruch","municipality":{"key":"15083025","name":"Am Großen Bruch","type":"Kreisangehörige_Gemeinde"},"district":{"key":"15083","name":"Börde","type":"Landkreis"},"federalState":{"key":"15","name":"Sachsen-Anhalt"}},{"name":"Schulstr.","postalCode":"39393","locality":"Am Großen Bruch","municipality":{"key":"15083025","name":"Am Großen Bruch","type":"Kreisangehörige_Gemeinde"},"district":{"key":"15083","name":"Börde","type":"Landkreis"},"federalState":{"key":"15","name":"Sachsen-Anhalt"}},{"name":"Schulwinkel","postalCode":"39393","locality":"Am Großen Bruch","municipality":{"key":"15083025","name":"Am Großen Bruch","type":"Kreisangehörige_Gemeinde"},"district":{"key":"15083","name":"Börde","type":"Landkreis"},"federalState":{"key":"15","name":"Sachsen-Anhalt"}},{"name":"Schwanebecker Weg","postalCode":"39393","locality":"Am Großen Bruch","municipality":{"key":"15083025","name":"Am Großen Bruch","type":"Kreisangehörige_Gemeinde"},"district":{"key":"15083","name":"Börde","type":"Landkreis"},"federalState":{"key":"15","name":"Sachsen-Anhalt"}},{"name":"Speicher","postalCode":"39393","locality":"Am Großen Bruch","municipality":{"key":"15083025","name":"Am Großen Bruch","type":"Kreisangehörige_Gemeinde"},"district":{"key":"15083","name":"Börde","type":"Landkreis"},"federalState":{"key":"15","name":"Sachsen-Anhalt"}},{"name":"Steinberg","postalCode":"39393","locality":"Am Großen Bruch","municipality":{"key":"15083025","name":"Am Großen Bruch","type":"Kreisangehörige_Gemeinde"},"district":{"key":"15083","name":"Börde","type":"Landkreis"},"federalState":{"key":"15","name":"Sachsen-Anhalt"}},{"name":"Str. an der Kirche","postalCode":"39393","locality":"Am Großen Bruch","municipality":{"key":"15083025","name":"Am Großen Bruch","type":"Kreisangehörige_Gemeinde"},"district":{"key":"15083","name":"Börde","type":"Landkreis"},"federalState":{"key":"15","name":"Sachsen-Anhalt"}},{"name":"Str. der Einheit","postalCode":"39393","locality":"Am Großen Bruch","municipality":{"key":"15083025","name":"Am Großen Bruch","type":"Kreisangehörige_Gemeinde"},"district":{"key":"15083","name":"Börde","type":"Landkreis"},"federalState":{"key":"15","name":"Sachsen-Anhalt"}},{"name":"Str. der Freundschaft","postalCode":"39393","locality":"Am Großen Bruch","municipality":{"key":"15083025","name":"Am Großen Bruch","type":"Kreisangehörige_Gemeinde"},"district":{"key":"15083","name":"Börde","type":"Landkreis"},"federalState":{"key":"15","name":"Sachsen-Anhalt"}},{"name":"Thomas-Müntzer-Str.","postalCode":"39393","locality":"Am Großen Bruch","municipality":{"key":"15083025","name":"Am Großen Bruch","type":"Kreisangehörige_Gemeinde"},"district":{"key":"15083","name":"Börde","type":"Landkreis"},"federalState":{"key":"15","name":"Sachsen-Anhalt"}},{"name":"Unter den Wellerwänden","postalCode":"39393","locality":"Am Großen Bruch","municipality":{"key":"15083025","name":"Am Großen Bruch","type":"Kreisangehörige_Gemeinde"},"district":{"key":"15083","name":"Börde","type":"Landkreis"},"federalState":{"key":"15","name":"Sachsen-Anhalt"}},{"name":"Untere Bergstr.","postalCode":"39393","locality":"Am Großen Bruch","municipality":{"key":"15083025","name":"Am Großen Bruch","type":"Kreisangehörige_Gemeinde"},"district":{"key":"15083","name":"Börde","type":"Landkreis"},"federalState":{"key":"15","name":"Sachsen-Anhalt"}},{"name":"Vahldorfer Weg","postalCode":"39326","locality":"Niedere Börde","municipality":{"key":"15083390","name":"Niedere Börde","type":"Kreisangehörige_Gemeinde"},"district":{"key":"15083","name":"Börde","type":"Landkreis"},"federalState":{"key":"15","name":"Sachsen-Anhalt"}},{"name":"Viehmarkt","postalCode":"39221","locality":"Bördeland","municipality":{"key":"15089042","name":"Bördeland","type":"Kreisangehörige_Gemeinde"},"district":{"key":"15089","name":"Salzlandkreis","type":"Landkreis"},"federalState":{"key":"15","name":"Sachsen-Anhalt"}},{"name":"Vogelbreite","postalCode":"39167","locality":"Hohe Börde","municipality":{"key":"15083298","name":"Hohe Börde","type":"Kreisangehörige_Gemeinde"},"district":{"key":"15083","name":"Börde","type":"Landkreis"},"federalState":{"key":"15","name":"Sachsen-Anhalt"}},{"name":"Vogelgesang","postalCode":"39221","locality":"Bördeland","municipality":{"key":"15089042","name":"Bördeland","type":"Kreisangehörige_Gemeinde"},"district":{"key":"15089","name":"Salzlandkreis","type":"Landkreis"},"federalState":{"key":"15","name":"Sachsen-Anhalt"}},{"name":"Vogelsang","postalCode":"39221","locality":"Bördeland","municipality":{"key":"15089042","name":"Bördeland","type":"Kreisangehörige_Gemeinde"},"district":{"key":"15089","name":"Salzlandkreis","type":"Landkreis"},"federalState":{"key":"15","name":"Sachsen-Anhalt"}},{"name":"Vor dem Hohen Tor","postalCode":"39164","locality":"Wanzleben-Börde","municipality":{"key":"15083531","name":"Wanzleben-Börde, Stadt","type":"Stadt"},"district":{"key":"15083","name":"Börde","type":"Landkreis"},"federalState":{"key":"15","name":"Sachsen-Anhalt"}},{"name":"Vor dem Kirchtore","postalCode":"39164","locality":"Wanzleben-Börde","municipality":{"key":"15083531","name":"Wanzleben-Börde, Stadt","type":"Stadt"},"district":{"key":"15083","name":"Börde","type":"Landkreis"},"federalState":{"key":"15","name":"Sachsen-Anhalt"}},{"name":"Vor dem Mühlentor","postalCode":"39221","locality":"Bördeland","municipality":{"key":"15089042","name":"Bördeland","type":"Kreisangehörige_Gemeinde"},"district":{"key":"15089","name":"Salzlandkreis","type":"Landkreis"},"federalState":{"key":"15","name":"Sachsen-Anhalt"}},{"name":"Vor dem Rittertor","postalCode":"39164","locality":"Wanzleben-Börde","municipality":{"key":"15083531","name":"Wanzleben-Börde, Stadt","type":"Stadt"},"district":{"key":"15083","name":"Börde","type":"Landkreis"},"federalState":{"key":"15","name":"Sachsen-Anhalt"}},{"name":"Vor dem Schloßtor","postalCode":"39164","locality":"Wanzleben-Börde","municipality":{"key":"15083531","name":"Wanzleben-Börde, Stadt","type":"Stadt"},"district":{"key":"15083","name":"Börde","type":"Landkreis"},"federalState":{"key":"15","name":"Sachsen-Anhalt"}},{"name":"Vor dem Sportplatz","postalCode":"39164","locality":"Wanzleben-Börde","municipality":{"key":"15083531","name":"Wanzleben-Börde, Stadt","type":"Stadt"},"district":{"key":"15083","name":"Börde","type":"Landkreis"},"federalState":{"key":"15","name":"Sachsen-Anhalt"}},{"name":"Vor dem Tore","postalCode":"39326","locality":"Niedere Börde","municipality":{"key":"15083390","name":"Niedere Börde","type":"Kreisangehörige_Gemeinde"},"district":{"key":"15083","name":"Börde","type":"Landkreis"},"federalState":{"key":"15","name":"Sachsen-Anhalt"}},{"name":"Vor dem Tore","postalCode":"39343","locality":"Hohe Börde","municipality":{"key":"15083298","name":"Hohe Börde","type":"Kreisangehörige_Gemeinde"},"district":{"key":"15083","name":"Börde","type":"Landkreis"},"federalState":{"key":"15","name":"Sachsen-Anhalt"}},{"name":"Vor dem Tore","postalCode":"39448","locality":"Börde-Hakel","municipality":{"key":"15089043","name":"Börde-Hakel","type":"Kreisangehörige_Gemeinde"},"district":{"key":"15089","name":"Salzlandkreis","type":"Landkreis"},"federalState":{"key":"15","name":"Sachsen-Anhalt"}},{"name":"Vor dem Welschen Tor","postalCode":"39164","locality":"Wanzleben-Börde","municipality":{"key":"15083531","name":"Wanzleben-Börde, Stadt","type":"Stadt"},"district":{"key":"15083","name":"Börde","type":"Landkreis"},"federalState":{"key":"15","name":"Sachsen-Anhalt"}},{"name":"Vor der Reihe","postalCode":"39343","locality":"Hohe Börde","municipality":{"key":"15083298","name":"Hohe Börde","type":"Kreisangehörige_Gemeinde"},"district":{"key":"15083","name":"Börde","type":"Landkreis"},"federalState":{"key":"15","name":"Sachsen-Anhalt"}},{"name":"Vor der Scheue","postalCode":"39343","locality":"Hohe Börde","municipality":{"key":"15083298","name":"Hohe Börde","type":"Kreisangehörige_Gemeinde"},"district":{"key":"15083","name":"Börde","type":"Landkreis"},"federalState":{"key":"15","name":"Sachsen-Anhalt"}},{"name":"Wackerslebener Str.","postalCode":"39393","locality":"Am Großen Bruch","municipality":{"key":"15083025","name":"Am Großen Bruch","type":"Kreisangehörige_Gemeinde"},"district":{"key":"15083","name":"Börde","type":"Landkreis"},"federalState":{"key":"15","name":"Sachsen-Anhalt"}},{"name":"Windmühlenbreite","postalCode":"39393","locality":"Am Großen Bruch","municipality":{"key":"15083025","name":"Am Großen Bruch","type":"Kreisangehörige_Gemeinde"},"district":{"key":"15083","name":"Börde","type":"Landkreis"},"federalState":{"key":"15","name":"Sachsen-Anhalt"}},{"name":"Zickzack","postalCode":"39393","locality":"Am Großen Bruch","municipality":{"key":"15083025","name":"Am Großen Bruch","type":"Kreisangehörige_Gemeinde"},"district":{"key":"15083","name":"Börde","type":"Landkreis"},"federalState":{"key":"15","name":"Sachsen-Anhalt"}},{"name":"Österling","postalCode":"39164","locality":"Wanzleben-Börde","municipality":{"key":"15083531","name":"Wanzleben-Börde, Stadt","type":"Stadt"},"district":{"key":"15083","name":"Börde","type":"Landkreis"},"federalState":{"key":"15","name":"Sachsen-Anhalt"}},{"name":"Üppling","postalCode":"39393","locality":"Am Großen Bruch","municipality":{"key":"15083025","name":"Am Großen Bruch","type":"Kreisangehörige_Gemeinde"},"district":{"key":"15083","name":"Börde","type":"Landkreis"},"federalState":{"key":"15","name":"Sachsen-Anhalt"}},]