[{"name":"Ahornweg","postalCode":"33178","locality":"Borchen","municipality":{"key":"05774012","name":"Borchen","type":"Kreisangehörige_Gemeinde"},"district":{"key":"05774","name":"Paderborn","type":"Kreis"},"federalState":{"key":"05","name":"Nordrhein-Westfalen"}},{"name":"Akazienweg","postalCode":"33178","locality":"Borchen","municipality":{"key":"05774012","name":"Borchen","type":"Kreisangehörige_Gemeinde"},"district":{"key":"05774","name":"Paderborn","type":"Kreis"},"federalState":{"key":"05","name":"Nordrhein-Westfalen"}},{"name":"Alfener Kirchweg","postalCode":"33178","locality":"Borchen","municipality":{"key":"05774012","name":"Borchen","type":"Kreisangehörige_Gemeinde"},"district":{"key":"05774","name":"Paderborn","type":"Kreis"},"federalState":{"key":"05","name":"Nordrhein-Westfalen"}},{"name":"Altenaupark","postalCode":"33178","locality":"Borchen","municipality":{"key":"05774012","name":"Borchen","type":"Kreisangehörige_Gemeinde"},"district":{"key":"05774","name":"Paderborn","type":"Kreis"},"federalState":{"key":"05","name":"Nordrhein-Westfalen"}},{"name":"Altenaustr.","postalCode":"33178","locality":"Borchen","municipality":{"key":"05774012","name":"Borchen","type":"Kreisangehörige_Gemeinde"},"district":{"key":"05774","name":"Paderborn","type":"Kreis"},"federalState":{"key":"05","name":"Nordrhein-Westfalen"}},{"name":"Alter Hahnweg","postalCode":"33178","locality":"Borchen","municipality":{"key":"05774012","name":"Borchen","type":"Kreisangehörige_Gemeinde"},"district":{"key":"05774","name":"Paderborn","type":"Kreis"},"federalState":{"key":"05","name":"Nordrhein-Westfalen"}},{"name":"Alter Hellweg","postalCode":"33178","locality":"Borchen","municipality":{"key":"05774012","name":"Borchen","type":"Kreisangehörige_Gemeinde"},"district":{"key":"05774","name":"Paderborn","type":"Kreis"},"federalState":{"key":"05","name":"Nordrhein-Westfalen"}},{"name":"Alter Kirchweg","postalCode":"33178","locality":"Borchen","municipality":{"key":"05774012","name":"Borchen","type":"Kreisangehörige_Gemeinde"},"district":{"key":"05774","name":"Paderborn","type":"Kreis"},"federalState":{"key":"05","name":"Nordrhein-Westfalen"}},{"name":"Am Almehang","postalCode":"33178","locality":"Borchen","municipality":{"key":"05774012","name":"Borchen","type":"Kreisangehörige_Gemeinde"},"district":{"key":"05774","name":"Paderborn","type":"Kreis"},"federalState":{"key":"05","name":"Nordrhein-Westfalen"}},{"name":"Am Bahneinschnitt","postalCode":"33178","locality":"Borchen","municipality":{"key":"05774012","name":"Borchen","type":"Kreisangehörige_Gemeinde"},"district":{"key":"05774","name":"Paderborn","type":"Kreis"},"federalState":{"key":"05","name":"Nordrhein-Westfalen"}},{"name":"Am Bogen","postalCode":"33178","locality":"Borchen","municipality":{"key":"05774012","name":"Borchen","type":"Kreisangehörige_Gemeinde"},"district":{"key":"05774","name":"Paderborn","type":"Kreis"},"federalState":{"key":"05","name":"Nordrhein-Westfalen"}},{"name":"Am Dorfteich","postalCode":"33178","locality":"Borchen","municipality":{"key":"05774012","name":"Borchen","type":"Kreisangehörige_Gemeinde"},"district":{"key":"05774","name":"Paderborn","type":"Kreis"},"federalState":{"key":"05","name":"Nordrhein-Westfalen"}},{"name":"Am Ehrenmal","postalCode":"33178","locality":"Borchen","municipality":{"key":"05774012","name":"Borchen","type":"Kreisangehörige_Gemeinde"},"district":{"key":"05774","name":"Paderborn","type":"Kreis"},"federalState":{"key":"05","name":"Nordrhein-Westfalen"}},{"name":"Am Glockenstuhl","postalCode":"33178","locality":"Borchen","municipality":{"key":"05774012","name":"Borchen","type":"Kreisangehörige_Gemeinde"},"district":{"key":"05774","name":"Paderborn","type":"Kreis"},"federalState":{"key":"05","name":"Nordrhein-Westfalen"}},{"name":"Am Holtsaut","postalCode":"33178","locality":"Borchen","municipality":{"key":"05774012","name":"Borchen","type":"Kreisangehörige_Gemeinde"},"district":{"key":"05774","name":"Paderborn","type":"Kreis"},"federalState":{"key":"05","name":"Nordrhein-Westfalen"}},{"name":"Am Kleeberg","postalCode":"33178","locality":"Borchen","municipality":{"key":"05774012","name":"Borchen","type":"Kreisangehörige_Gemeinde"},"district":{"key":"05774","name":"Paderborn","type":"Kreis"},"federalState":{"key":"05","name":"Nordrhein-Westfalen"}},{"name":"Am Knick","postalCode":"33178","locality":"Borchen","municipality":{"key":"05774012","name":"Borchen","type":"Kreisangehörige_Gemeinde"},"district":{"key":"05774","name":"Paderborn","type":"Kreis"},"federalState":{"key":"05","name":"Nordrhein-Westfalen"}},{"name":"Am Knocken","postalCode":"33178","locality":"Borchen","municipality":{"key":"05774012","name":"Borchen","type":"Kreisangehörige_Gemeinde"},"district":{"key":"05774","name":"Paderborn","type":"Kreis"},"federalState":{"key":"05","name":"Nordrhein-Westfalen"}},{"name":"Am Kottenberg","postalCode":"33178","locality":"Borchen","municipality":{"key":"05774012","name":"Borchen","type":"Kreisangehörige_Gemeinde"},"district":{"key":"05774","name":"Paderborn","type":"Kreis"},"federalState":{"key":"05","name":"Nordrhein-Westfalen"}},{"name":"Am Mallinckrodtpark","postalCode":"33178","locality":"Borchen","municipality":{"key":"05774012","name":"Borchen","type":"Kreisangehörige_Gemeinde"},"district":{"key":"05774","name":"Paderborn","type":"Kreis"},"federalState":{"key":"05","name":"Nordrhein-Westfalen"}},{"name":"Am Rüenmarkt","postalCode":"33178","locality":"Borchen","municipality":{"key":"05774012","name":"Borchen","type":"Kreisangehörige_Gemeinde"},"district":{"key":"05774","name":"Paderborn","type":"Kreis"},"federalState":{"key":"05","name":"Nordrhein-Westfalen"}},{"name":"Amselweg","postalCode":"33178","locality":"Borchen","municipality":{"key":"05774012","name":"Borchen","type":"Kreisangehörige_Gemeinde"},"district":{"key":"05774","name":"Paderborn","type":"Kreis"},"federalState":{"key":"05","name":"Nordrhein-Westfalen"}},{"name":"Am Solmerge","postalCode":"33178","locality":"Borchen","municipality":{"key":"05774012","name":"Borchen","type":"Kreisangehörige_Gemeinde"},"district":{"key":"05774","name":"Paderborn","type":"Kreis"},"federalState":{"key":"05","name":"Nordrhein-Westfalen"}},{"name":"Am Sonneneck","postalCode":"33178","locality":"Borchen","municipality":{"key":"05774012","name":"Borchen","type":"Kreisangehörige_Gemeinde"},"district":{"key":"05774","name":"Paderborn","type":"Kreis"},"federalState":{"key":"05","name":"Nordrhein-Westfalen"}},{"name":"Amtsweg","postalCode":"33178","locality":"Borchen","municipality":{"key":"05774012","name":"Borchen","type":"Kreisangehörige_Gemeinde"},"district":{"key":"05774","name":"Paderborn","type":"Kreis"},"federalState":{"key":"05","name":"Nordrhein-Westfalen"}},{"name":"Am Turnplatz","postalCode":"33178","locality":"Borchen","municipality":{"key":"05774012","name":"Borchen","type":"Kreisangehörige_Gemeinde"},"district":{"key":"05774","name":"Paderborn","type":"Kreis"},"federalState":{"key":"05","name":"Nordrhein-Westfalen"}},{"name":"Am Wallgraben","postalCode":"33178","locality":"Borchen","municipality":{"key":"05774012","name":"Borchen","type":"Kreisangehörige_Gemeinde"},"district":{"key":"05774","name":"Paderborn","type":"Kreis"},"federalState":{"key":"05","name":"Nordrhein-Westfalen"}},{"name":"An den Steinkisten","postalCode":"33178","locality":"Borchen","municipality":{"key":"05774012","name":"Borchen","type":"Kreisangehörige_Gemeinde"},"district":{"key":"05774","name":"Paderborn","type":"Kreis"},"federalState":{"key":"05","name":"Nordrhein-Westfalen"}},{"name":"An der Altenau","postalCode":"33178","locality":"Borchen","municipality":{"key":"05774012","name":"Borchen","type":"Kreisangehörige_Gemeinde"},"district":{"key":"05774","name":"Paderborn","type":"Kreis"},"federalState":{"key":"05","name":"Nordrhein-Westfalen"}},{"name":"An der Trappe","postalCode":"33178","locality":"Borchen","municipality":{"key":"05774012","name":"Borchen","type":"Kreisangehörige_Gemeinde"},"district":{"key":"05774","name":"Paderborn","type":"Kreis"},"federalState":{"key":"05","name":"Nordrhein-Westfalen"}},{"name":"An der Trift","postalCode":"33178","locality":"Borchen","municipality":{"key":"05774012","name":"Borchen","type":"Kreisangehörige_Gemeinde"},"district":{"key":"05774","name":"Paderborn","type":"Kreis"},"federalState":{"key":"05","name":"Nordrhein-Westfalen"}},{"name":"Anhalter Weg","postalCode":"33178","locality":"Borchen","municipality":{"key":"05774012","name":"Borchen","type":"Kreisangehörige_Gemeinde"},"district":{"key":"05774","name":"Paderborn","type":"Kreis"},"federalState":{"key":"05","name":"Nordrhein-Westfalen"}},{"name":"Asternweg","postalCode":"33178","locality":"Borchen","municipality":{"key":"05774012","name":"Borchen","type":"Kreisangehörige_Gemeinde"},"district":{"key":"05774","name":"Paderborn","type":"Kreis"},"federalState":{"key":"05","name":"Nordrhein-Westfalen"}},{"name":"Auf dem Bühl","postalCode":"33178","locality":"Borchen","municipality":{"key":"05774012","name":"Borchen","type":"Kreisangehörige_Gemeinde"},"district":{"key":"05774","name":"Paderborn","type":"Kreis"},"federalState":{"key":"05","name":"Nordrhein-Westfalen"}},{"name":"Auf dem Heg","postalCode":"33178","locality":"Borchen","municipality":{"key":"05774012","name":"Borchen","type":"Kreisangehörige_Gemeinde"},"district":{"key":"05774","name":"Paderborn","type":"Kreis"},"federalState":{"key":"05","name":"Nordrhein-Westfalen"}},{"name":"Auf dem Kerslah","postalCode":"33178","locality":"Borchen","municipality":{"key":"05774012","name":"Borchen","type":"Kreisangehörige_Gemeinde"},"district":{"key":"05774","name":"Paderborn","type":"Kreis"},"federalState":{"key":"05","name":"Nordrhein-Westfalen"}},{"name":"Auf der Rute","postalCode":"33178","locality":"Borchen","municipality":{"key":"05774012","name":"Borchen","type":"Kreisangehörige_Gemeinde"},"district":{"key":"05774","name":"Paderborn","type":"Kreis"},"federalState":{"key":"05","name":"Nordrhein-Westfalen"}},{"name":"Auf der Schanze","postalCode":"33178","locality":"Borchen","municipality":{"key":"05774012","name":"Borchen","type":"Kreisangehörige_Gemeinde"},"district":{"key":"05774","name":"Paderborn","type":"Kreis"},"federalState":{"key":"05","name":"Nordrhein-Westfalen"}},{"name":"Auf der Schweiz","postalCode":"33178","locality":"Borchen","municipality":{"key":"05774012","name":"Borchen","type":"Kreisangehörige_Gemeinde"},"district":{"key":"05774","name":"Paderborn","type":"Kreis"},"federalState":{"key":"05","name":"Nordrhein-Westfalen"}},{"name":"Bachstr.","postalCode":"33178","locality":"Borchen","municipality":{"key":"05774012","name":"Borchen","type":"Kreisangehörige_Gemeinde"},"district":{"key":"05774","name":"Paderborn","type":"Kreis"},"federalState":{"key":"05","name":"Nordrhein-Westfalen"}},{"name":"Bahnhofstr.","postalCode":"33178","locality":"Borchen","municipality":{"key":"05774012","name":"Borchen","type":"Kreisangehörige_Gemeinde"},"district":{"key":"05774","name":"Paderborn","type":"Kreis"},"federalState":{"key":"05","name":"Nordrhein-Westfalen"}},{"name":"Bangerweg","postalCode":"33178","locality":"Borchen","municipality":{"key":"05774012","name":"Borchen","type":"Kreisangehörige_Gemeinde"},"district":{"key":"05774","name":"Paderborn","type":"Kreis"},"federalState":{"key":"05","name":"Nordrhein-Westfalen"}},{"name":"Bänkelweg","postalCode":"33178","locality":"Borchen","municipality":{"key":"05774012","name":"Borchen","type":"Kreisangehörige_Gemeinde"},"district":{"key":"05774","name":"Paderborn","type":"Kreis"},"federalState":{"key":"05","name":"Nordrhein-Westfalen"}},{"name":"Bäumerweg","postalCode":"33178","locality":"Borchen","municipality":{"key":"05774012","name":"Borchen","type":"Kreisangehörige_Gemeinde"},"district":{"key":"05774","name":"Paderborn","type":"Kreis"},"federalState":{"key":"05","name":"Nordrhein-Westfalen"}},{"name":"Beerengrund","postalCode":"33178","locality":"Borchen","municipality":{"key":"05774012","name":"Borchen","type":"Kreisangehörige_Gemeinde"},"district":{"key":"05774","name":"Paderborn","type":"Kreis"},"federalState":{"key":"05","name":"Nordrhein-Westfalen"}},{"name":"Beim Kampe","postalCode":"33178","locality":"Borchen","municipality":{"key":"05774012","name":"Borchen","type":"Kreisangehörige_Gemeinde"},"district":{"key":"05774","name":"Paderborn","type":"Kreis"},"federalState":{"key":"05","name":"Nordrhein-Westfalen"}},{"name":"Bellenstr.","postalCode":"33178","locality":"Borchen","municipality":{"key":"05774012","name":"Borchen","type":"Kreisangehörige_Gemeinde"},"district":{"key":"05774","name":"Paderborn","type":"Kreis"},"federalState":{"key":"05","name":"Nordrhein-Westfalen"}},{"name":"Bergstr.","postalCode":"33178","locality":"Borchen","municipality":{"key":"05774012","name":"Borchen","type":"Kreisangehörige_Gemeinde"},"district":{"key":"05774","name":"Paderborn","type":"Kreis"},"federalState":{"key":"05","name":"Nordrhein-Westfalen"}},{"name":"Bilkentalweg","postalCode":"33178","locality":"Borchen","municipality":{"key":"05774012","name":"Borchen","type":"Kreisangehörige_Gemeinde"},"district":{"key":"05774","name":"Paderborn","type":"Kreis"},"federalState":{"key":"05","name":"Nordrhein-Westfalen"}},{"name":"Birkenweg","postalCode":"33178","locality":"Borchen","municipality":{"key":"05774012","name":"Borchen","type":"Kreisangehörige_Gemeinde"},"district":{"key":"05774","name":"Paderborn","type":"Kreis"},"federalState":{"key":"05","name":"Nordrhein-Westfalen"}},{"name":"Bohmweg","postalCode":"33178","locality":"Borchen","municipality":{"key":"05774012","name":"Borchen","type":"Kreisangehörige_Gemeinde"},"district":{"key":"05774","name":"Paderborn","type":"Kreis"},"federalState":{"key":"05","name":"Nordrhein-Westfalen"}},{"name":"Bohnenkamp","postalCode":"33178","locality":"Borchen","municipality":{"key":"05774012","name":"Borchen","type":"Kreisangehörige_Gemeinde"},"district":{"key":"05774","name":"Paderborn","type":"Kreis"},"federalState":{"key":"05","name":"Nordrhein-Westfalen"}},{"name":"Bökerweg","postalCode":"33178","locality":"Borchen","municipality":{"key":"05774012","name":"Borchen","type":"Kreisangehörige_Gemeinde"},"district":{"key":"05774","name":"Paderborn","type":"Kreis"},"federalState":{"key":"05","name":"Nordrhein-Westfalen"}},{"name":"Bomerfeld","postalCode":"33178","locality":"Borchen","municipality":{"key":"05774012","name":"Borchen","type":"Kreisangehörige_Gemeinde"},"district":{"key":"05774","name":"Paderborn","type":"Kreis"},"federalState":{"key":"05","name":"Nordrhein-Westfalen"}},{"name":"Bonifatiusstr.","postalCode":"33178","locality":"Borchen","municipality":{"key":"05774012","name":"Borchen","type":"Kreisangehörige_Gemeinde"},"district":{"key":"05774","name":"Paderborn","type":"Kreis"},"federalState":{"key":"05","name":"Nordrhein-Westfalen"}},{"name":"Bornweg","postalCode":"33178","locality":"Borchen","municipality":{"key":"05774012","name":"Borchen","type":"Kreisangehörige_Gemeinde"},"district":{"key":"05774","name":"Paderborn","type":"Kreis"},"federalState":{"key":"05","name":"Nordrhein-Westfalen"}},{"name":"Brandenburger Weg","postalCode":"33178","locality":"Borchen","municipality":{"key":"05774012","name":"Borchen","type":"Kreisangehörige_Gemeinde"},"district":{"key":"05774","name":"Paderborn","type":"Kreis"},"federalState":{"key":"05","name":"Nordrhein-Westfalen"}},{"name":"Bühlberg","postalCode":"33178","locality":"Borchen","municipality":{"key":"05774012","name":"Borchen","type":"Kreisangehörige_Gemeinde"},"district":{"key":"05774","name":"Paderborn","type":"Kreis"},"federalState":{"key":"05","name":"Nordrhein-Westfalen"}},{"name":"Bülte","postalCode":"33178","locality":"Borchen","municipality":{"key":"05774012","name":"Borchen","type":"Kreisangehörige_Gemeinde"},"district":{"key":"05774","name":"Paderborn","type":"Kreis"},"federalState":{"key":"05","name":"Nordrhein-Westfalen"}},{"name":"Burdahl","postalCode":"33178","locality":"Borchen","municipality":{"key":"05774012","name":"Borchen","type":"Kreisangehörige_Gemeinde"},"district":{"key":"05774","name":"Paderborn","type":"Kreis"},"federalState":{"key":"05","name":"Nordrhein-Westfalen"}},{"name":"Burggraben","postalCode":"33178","locality":"Borchen","municipality":{"key":"05774012","name":"Borchen","type":"Kreisangehörige_Gemeinde"},"district":{"key":"05774","name":"Paderborn","type":"Kreis"},"federalState":{"key":"05","name":"Nordrhein-Westfalen"}},{"name":"Burgstr.","postalCode":"33178","locality":"Borchen","municipality":{"key":"05774012","name":"Borchen","type":"Kreisangehörige_Gemeinde"},"district":{"key":"05774","name":"Paderborn","type":"Kreis"},"federalState":{"key":"05","name":"Nordrhein-Westfalen"}},{"name":"Burgweg","postalCode":"33178","locality":"Borchen","municipality":{"key":"05774012","name":"Borchen","type":"Kreisangehörige_Gemeinde"},"district":{"key":"05774","name":"Paderborn","type":"Kreis"},"federalState":{"key":"05","name":"Nordrhein-Westfalen"}},{"name":"Buschfeld","postalCode":"33178","locality":"Borchen","municipality":{"key":"05774012","name":"Borchen","type":"Kreisangehörige_Gemeinde"},"district":{"key":"05774","name":"Paderborn","type":"Kreis"},"federalState":{"key":"05","name":"Nordrhein-Westfalen"}},{"name":"Buschholzweg","postalCode":"33178","locality":"Borchen","municipality":{"key":"05774012","name":"Borchen","type":"Kreisangehörige_Gemeinde"},"district":{"key":"05774","name":"Paderborn","type":"Kreis"},"federalState":{"key":"05","name":"Nordrhein-Westfalen"}},{"name":"Cäcilienstr.","postalCode":"33104","locality":"Paderborn","municipality":{"key":"05774032","name":"Paderborn, Stadt","type":"Stadt"},"district":{"key":"05774","name":"Paderborn","type":"Kreis"},"federalState":{"key":"05","name":"Nordrhein-Westfalen"}},{"name":"Cheruskerstr.","postalCode":"33102","locality":"Paderborn","municipality":{"key":"05774032","name":"Paderborn, Stadt","type":"Stadt"},"district":{"key":"05774","name":"Paderborn","type":"Kreis"},"federalState":{"key":"05","name":"Nordrhein-Westfalen"}},{"name":"Christel-Poll-Weg","postalCode":"33100","locality":"Paderborn","municipality":{"key":"05774032","name":"Paderborn, Stadt","type":"Stadt"},"district":{"key":"05774","name":"Paderborn","type":"Kreis"},"federalState":{"key":"05","name":"Nordrhein-Westfalen"}},{"name":"Christine-Koch-Str.","postalCode":"33106","locality":"Paderborn","municipality":{"key":"05774032","name":"Paderborn, Stadt","type":"Stadt"},"district":{"key":"05774","name":"Paderborn","type":"Kreis"},"federalState":{"key":"05","name":"Nordrhein-Westfalen"}},{"name":"Christoph-Tölle-Str.","postalCode":"33100","locality":"Paderborn","municipality":{"key":"05774032","name":"Paderborn, Stadt","type":"Stadt"},"district":{"key":"05774","name":"Paderborn","type":"Kreis"},"federalState":{"key":"05","name":"Nordrhein-Westfalen"}},{"name":"Clemens-August-Str.","postalCode":"33102","locality":"Paderborn","municipality":{"key":"05774032","name":"Paderborn, Stadt","type":"Stadt"},"district":{"key":"05774","name":"Paderborn","type":"Kreis"},"federalState":{"key":"05","name":"Nordrhein-Westfalen"}},{"name":"Contzenhof","postalCode":"33104","locality":"Paderborn","municipality":{"key":"05774032","name":"Paderborn, Stadt","type":"Stadt"},"district":{"key":"05774","name":"Paderborn","type":"Kreis"},"federalState":{"key":"05","name":"Nordrhein-Westfalen"}},{"name":"Corveyer Weg","postalCode":"33098","locality":"Paderborn","municipality":{"key":"05774032","name":"Paderborn, Stadt","type":"Stadt"},"district":{"key":"05774","name":"Paderborn","type":"Kreis"},"federalState":{"key":"05","name":"Nordrhein-Westfalen"}},{"name":"Cromptonstr.","postalCode":"33106","locality":"Paderborn","municipality":{"key":"05774032","name":"Paderborn, Stadt","type":"Stadt"},"district":{"key":"05774","name":"Paderborn","type":"Kreis"},"federalState":{"key":"05","name":"Nordrhein-Westfalen"}},{"name":"Csilla-von-Boeselager-Str.","postalCode":"33104","locality":"Paderborn","municipality":{"key":"05774032","name":"Paderborn, Stadt","type":"Stadt"},"district":{"key":"05774","name":"Paderborn","type":"Kreis"},"federalState":{"key":"05","name":"Nordrhein-Westfalen"}},{"name":"Dahlbergweg","postalCode":"33178","locality":"Borchen","municipality":{"key":"05774012","name":"Borchen","type":"Kreisangehörige_Gemeinde"},"district":{"key":"05774","name":"Paderborn","type":"Kreis"},"federalState":{"key":"05","name":"Nordrhein-Westfalen"}},{"name":"Dahler Str.","postalCode":"33178","locality":"Borchen","municipality":{"key":"05774012","name":"Borchen","type":"Kreisangehörige_Gemeinde"},"district":{"key":"05774","name":"Paderborn","type":"Kreis"},"federalState":{"key":"05","name":"Nordrhein-Westfalen"}},{"name":"Dahlienweg","postalCode":"33178","locality":"Borchen","municipality":{"key":"05774012","name":"Borchen","type":"Kreisangehörige_Gemeinde"},"district":{"key":"05774","name":"Paderborn","type":"Kreis"},"federalState":{"key":"05","name":"Nordrhein-Westfalen"}},{"name":"Diekberg","postalCode":"33178","locality":"Borchen","municipality":{"key":"05774012","name":"Borchen","type":"Kreisangehörige_Gemeinde"},"district":{"key":"05774","name":"Paderborn","type":"Kreis"},"federalState":{"key":"05","name":"Nordrhein-Westfalen"}},{"name":"Dirksenstr.","postalCode":"33178","locality":"Borchen","municipality":{"key":"05774012","name":"Borchen","type":"Kreisangehörige_Gemeinde"},"district":{"key":"05774","name":"Paderborn","type":"Kreis"},"federalState":{"key":"05","name":"Nordrhein-Westfalen"}},{"name":"Dörenhagener Str.","postalCode":"33178","locality":"Borchen","municipality":{"key":"05774012","name":"Borchen","type":"Kreisangehörige_Gemeinde"},"district":{"key":"05774","name":"Paderborn","type":"Kreis"},"federalState":{"key":"05","name":"Nordrhein-Westfalen"}},{"name":"Dorfstr.","postalCode":"33178","locality":"Borchen","municipality":{"key":"05774012","name":"Borchen","type":"Kreisangehörige_Gemeinde"},"district":{"key":"05774","name":"Paderborn","type":"Kreis"},"federalState":{"key":"05","name":"Nordrhein-Westfalen"}},{"name":"Dorstenfeld","postalCode":"33178","locality":"Borchen","municipality":{"key":"05774012","name":"Borchen","type":"Kreisangehörige_Gemeinde"},"district":{"key":"05774","name":"Paderborn","type":"Kreis"},"federalState":{"key":"05","name":"Nordrhein-Westfalen"}},{"name":"Drosselweg","postalCode":"33178","locality":"Borchen","municipality":{"key":"05774012","name":"Borchen","type":"Kreisangehörige_Gemeinde"},"district":{"key":"05774","name":"Paderborn","type":"Kreis"},"federalState":{"key":"05","name":"Nordrhein-Westfalen"}},{"name":"Drostenstr.","postalCode":"33178","locality":"Borchen","municipality":{"key":"05774012","name":"Borchen","type":"Kreisangehörige_Gemeinde"},"district":{"key":"05774","name":"Paderborn","type":"Kreis"},"federalState":{"key":"05","name":"Nordrhein-Westfalen"}},{"name":"Ebbinghauser Str.","postalCode":"33178","locality":"Borchen","municipality":{"key":"05774012","name":"Borchen","type":"Kreisangehörige_Gemeinde"},"district":{"key":"05774","name":"Paderborn","type":"Kreis"},"federalState":{"key":"05","name":"Nordrhein-Westfalen"}},{"name":"Eckernkampweg","postalCode":"33178","locality":"Borchen","municipality":{"key":"05774012","name":"Borchen","type":"Kreisangehörige_Gemeinde"},"district":{"key":"05774","name":"Paderborn","type":"Kreis"},"federalState":{"key":"05","name":"Nordrhein-Westfalen"}},{"name":"Eggestr.","postalCode":"33178","locality":"Borchen","municipality":{"key":"05774012","name":"Borchen","type":"Kreisangehörige_Gemeinde"},"district":{"key":"05774","name":"Paderborn","type":"Kreis"},"federalState":{"key":"05","name":"Nordrhein-Westfalen"}},{"name":"Eichenweg","postalCode":"33178","locality":"Borchen","municipality":{"key":"05774012","name":"Borchen","type":"Kreisangehörige_Gemeinde"},"district":{"key":"05774","name":"Paderborn","type":"Kreis"},"federalState":{"key":"05","name":"Nordrhein-Westfalen"}},{"name":"Eichsfeld","postalCode":"33178","locality":"Borchen","municipality":{"key":"05774012","name":"Borchen","type":"Kreisangehörige_Gemeinde"},"district":{"key":"05774","name":"Paderborn","type":"Kreis"},"federalState":{"key":"05","name":"Nordrhein-Westfalen"}},{"name":"Eiferslohn","postalCode":"33178","locality":"Borchen","municipality":{"key":"05774012","name":"Borchen","type":"Kreisangehörige_Gemeinde"},"district":{"key":"05774","name":"Paderborn","type":"Kreis"},"federalState":{"key":"05","name":"Nordrhein-Westfalen"}},{"name":"Eschenkamp","postalCode":"33178","locality":"Borchen","municipality":{"key":"05774012","name":"Borchen","type":"Kreisangehörige_Gemeinde"},"district":{"key":"05774","name":"Paderborn","type":"Kreis"},"federalState":{"key":"05","name":"Nordrhein-Westfalen"}},{"name":"Eulenberg","postalCode":"33178","locality":"Borchen","municipality":{"key":"05774012","name":"Borchen","type":"Kreisangehörige_Gemeinde"},"district":{"key":"05774","name":"Paderborn","type":"Kreis"},"federalState":{"key":"05","name":"Nordrhein-Westfalen"}},{"name":"Finkenweg","postalCode":"33178","locality":"Borchen","municipality":{"key":"05774012","name":"Borchen","type":"Kreisangehörige_Gemeinde"},"district":{"key":"05774","name":"Paderborn","type":"Kreis"},"federalState":{"key":"05","name":"Nordrhein-Westfalen"}},{"name":"Fischteiche","postalCode":"33178","locality":"Borchen","municipality":{"key":"05774012","name":"Borchen","type":"Kreisangehörige_Gemeinde"},"district":{"key":"05774","name":"Paderborn","type":"Kreis"},"federalState":{"key":"05","name":"Nordrhein-Westfalen"}},{"name":"Fliederweg","postalCode":"33178","locality":"Borchen","municipality":{"key":"05774012","name":"Borchen","type":"Kreisangehörige_Gemeinde"},"district":{"key":"05774","name":"Paderborn","type":"Kreis"},"federalState":{"key":"05","name":"Nordrhein-Westfalen"}},{"name":"Florianstr.","postalCode":"33178","locality":"Borchen","municipality":{"key":"05774012","name":"Borchen","type":"Kreisangehörige_Gemeinde"},"district":{"key":"05774","name":"Paderborn","type":"Kreis"},"federalState":{"key":"05","name":"Nordrhein-Westfalen"}},{"name":"Frankenweg","postalCode":"33178","locality":"Borchen","municipality":{"key":"05774012","name":"Borchen","type":"Kreisangehörige_Gemeinde"},"district":{"key":"05774","name":"Paderborn","type":"Kreis"},"federalState":{"key":"05","name":"Nordrhein-Westfalen"}},{"name":"Frauental","postalCode":"33178","locality":"Borchen","municipality":{"key":"05774012","name":"Borchen","type":"Kreisangehörige_Gemeinde"},"district":{"key":"05774","name":"Paderborn","type":"Kreis"},"federalState":{"key":"05","name":"Nordrhein-Westfalen"}},{"name":"Friedhofsweg","postalCode":"33178","locality":"Borchen","municipality":{"key":"05774012","name":"Borchen","type":"Kreisangehörige_Gemeinde"},"district":{"key":"05774","name":"Paderborn","type":"Kreis"},"federalState":{"key":"05","name":"Nordrhein-Westfalen"}},{"name":"Füllekengrund","postalCode":"33178","locality":"Borchen","municipality":{"key":"05774012","name":"Borchen","type":"Kreisangehörige_Gemeinde"},"district":{"key":"05774","name":"Paderborn","type":"Kreis"},"federalState":{"key":"05","name":"Nordrhein-Westfalen"}},{"name":"Gartenstr.","postalCode":"33178","locality":"Borchen","municipality":{"key":"05774012","name":"Borchen","type":"Kreisangehörige_Gemeinde"},"district":{"key":"05774","name":"Paderborn","type":"Kreis"},"federalState":{"key":"05","name":"Nordrhein-Westfalen"}},{"name":"Gembrisweg","postalCode":"33178","locality":"Borchen","municipality":{"key":"05774012","name":"Borchen","type":"Kreisangehörige_Gemeinde"},"district":{"key":"05774","name":"Paderborn","type":"Kreis"},"federalState":{"key":"05","name":"Nordrhein-Westfalen"}},{"name":"Generalvikar-Dr. Drüke-Weg","postalCode":"33178","locality":"Borchen","municipality":{"key":"05774012","name":"Borchen","type":"Kreisangehörige_Gemeinde"},"district":{"key":"05774","name":"Paderborn","type":"Kreis"},"federalState":{"key":"05","name":"Nordrhein-Westfalen"}},{"name":"Ginsterweg","postalCode":"33178","locality":"Borchen","municipality":{"key":"05774012","name":"Borchen","type":"Kreisangehörige_Gemeinde"},"district":{"key":"05774","name":"Paderborn","type":"Kreis"},"federalState":{"key":"05","name":"Nordrhein-Westfalen"}},{"name":"Goldregenweg","postalCode":"33178","locality":"Borchen","municipality":{"key":"05774012","name":"Borchen","type":"Kreisangehörige_Gemeinde"},"district":{"key":"05774","name":"Paderborn","type":"Kreis"},"federalState":{"key":"05","name":"Nordrhein-Westfalen"}},{"name":"Grüner Weg","postalCode":"33178","locality":"Borchen","municipality":{"key":"05774012","name":"Borchen","type":"Kreisangehörige_Gemeinde"},"district":{"key":"05774","name":"Paderborn","type":"Kreis"},"federalState":{"key":"05","name":"Nordrhein-Westfalen"}},{"name":"Gut Wilhelmsburg","postalCode":"33178","locality":"Borchen","municipality":{"key":"05774012","name":"Borchen","type":"Kreisangehörige_Gemeinde"},"district":{"key":"05774","name":"Paderborn","type":"Kreis"},"federalState":{"key":"05","name":"Nordrhein-Westfalen"}},{"name":"Haarener Str.","postalCode":"33178","locality":"Borchen","municipality":{"key":"05774012","name":"Borchen","type":"Kreisangehörige_Gemeinde"},"district":{"key":"05774","name":"Paderborn","type":"Kreis"},"federalState":{"key":"05","name":"Nordrhein-Westfalen"}},{"name":"Hakesberg","postalCode":"33178","locality":"Borchen","municipality":{"key":"05774012","name":"Borchen","type":"Kreisangehörige_Gemeinde"},"district":{"key":"05774","name":"Paderborn","type":"Kreis"},"federalState":{"key":"05","name":"Nordrhein-Westfalen"}},{"name":"Hauptstr.","postalCode":"33178","locality":"Borchen","municipality":{"key":"05774012","name":"Borchen","type":"Kreisangehörige_Gemeinde"},"district":{"key":"05774","name":"Paderborn","type":"Kreis"},"federalState":{"key":"05","name":"Nordrhein-Westfalen"}},{"name":"Haxterberg","postalCode":"33178","locality":"Borchen","municipality":{"key":"05774012","name":"Borchen","type":"Kreisangehörige_Gemeinde"},"district":{"key":"05774","name":"Paderborn","type":"Kreis"},"federalState":{"key":"05","name":"Nordrhein-Westfalen"}},{"name":"Haxtergrund","postalCode":"33178","locality":"Borchen","municipality":{"key":"05774012","name":"Borchen","type":"Kreisangehörige_Gemeinde"},"district":{"key":"05774","name":"Paderborn","type":"Kreis"},"federalState":{"key":"05","name":"Nordrhein-Westfalen"}},{"name":"Heinrichstr.","postalCode":"33178","locality":"Borchen","municipality":{"key":"05774012","name":"Borchen","type":"Kreisangehörige_Gemeinde"},"district":{"key":"05774","name":"Paderborn","type":"Kreis"},"federalState":{"key":"05","name":"Nordrhein-Westfalen"}},{"name":"Hellenberg","postalCode":"33178","locality":"Borchen","municipality":{"key":"05774012","name":"Borchen","type":"Kreisangehörige_Gemeinde"},"district":{"key":"05774","name":"Paderborn","type":"Kreis"},"federalState":{"key":"05","name":"Nordrhein-Westfalen"}},{"name":"Hellhof","postalCode":"33178","locality":"Borchen","municipality":{"key":"05774012","name":"Borchen","type":"Kreisangehörige_Gemeinde"},"district":{"key":"05774","name":"Paderborn","type":"Kreis"},"federalState":{"key":"05","name":"Nordrhein-Westfalen"}},{"name":"Hessenberg","postalCode":"33178","locality":"Borchen","municipality":{"key":"05774012","name":"Borchen","type":"Kreisangehörige_Gemeinde"},"district":{"key":"05774","name":"Paderborn","type":"Kreis"},"federalState":{"key":"05","name":"Nordrhein-Westfalen"}},{"name":"Heusers Weg","postalCode":"33178","locality":"Borchen","municipality":{"key":"05774012","name":"Borchen","type":"Kreisangehörige_Gemeinde"},"district":{"key":"05774","name":"Paderborn","type":"Kreis"},"federalState":{"key":"05","name":"Nordrhein-Westfalen"}},{"name":"Hilgenweg","postalCode":"33178","locality":"Borchen","municipality":{"key":"05774012","name":"Borchen","type":"Kreisangehörige_Gemeinde"},"district":{"key":"05774","name":"Paderborn","type":"Kreis"},"federalState":{"key":"05","name":"Nordrhein-Westfalen"}},{"name":"Hirgenstr.","postalCode":"33178","locality":"Borchen","municipality":{"key":"05774012","name":"Borchen","type":"Kreisangehörige_Gemeinde"},"district":{"key":"05774","name":"Paderborn","type":"Kreis"},"federalState":{"key":"05","name":"Nordrhein-Westfalen"}},{"name":"Höhenweg","postalCode":"33178","locality":"Borchen","municipality":{"key":"05774012","name":"Borchen","type":"Kreisangehörige_Gemeinde"},"district":{"key":"05774","name":"Paderborn","type":"Kreis"},"federalState":{"key":"05","name":"Nordrhein-Westfalen"}},{"name":"Hohlweg","postalCode":"33178","locality":"Borchen","municipality":{"key":"05774012","name":"Borchen","type":"Kreisangehörige_Gemeinde"},"district":{"key":"05774","name":"Paderborn","type":"Kreis"},"federalState":{"key":"05","name":"Nordrhein-Westfalen"}},{"name":"Holsteiner Weg","postalCode":"33178","locality":"Borchen","municipality":{"key":"05774012","name":"Borchen","type":"Kreisangehörige_Gemeinde"},"district":{"key":"05774","name":"Paderborn","type":"Kreis"},"federalState":{"key":"05","name":"Nordrhein-Westfalen"}},{"name":"Hubertusstr.","postalCode":"33178","locality":"Borchen","municipality":{"key":"05774012","name":"Borchen","type":"Kreisangehörige_Gemeinde"},"district":{"key":"05774","name":"Paderborn","type":"Kreis"},"federalState":{"key":"05","name":"Nordrhein-Westfalen"}},{"name":"Husener Weg","postalCode":"33178","locality":"Borchen","municipality":{"key":"05774012","name":"Borchen","type":"Kreisangehörige_Gemeinde"},"district":{"key":"05774","name":"Paderborn","type":"Kreis"},"federalState":{"key":"05","name":"Nordrhein-Westfalen"}},{"name":"Im Birkeneck","postalCode":"33178","locality":"Borchen","municipality":{"key":"05774012","name":"Borchen","type":"Kreisangehörige_Gemeinde"},"district":{"key":"05774","name":"Paderborn","type":"Kreis"},"federalState":{"key":"05","name":"Nordrhein-Westfalen"}},{"name":"Imbsenburgweg","postalCode":"33178","locality":"Borchen","municipality":{"key":"05774012","name":"Borchen","type":"Kreisangehörige_Gemeinde"},"district":{"key":"05774","name":"Paderborn","type":"Kreis"},"federalState":{"key":"05","name":"Nordrhein-Westfalen"}},{"name":"Im Kirchenfelde","postalCode":"33178","locality":"Borchen","municipality":{"key":"05774012","name":"Borchen","type":"Kreisangehörige_Gemeinde"},"district":{"key":"05774","name":"Paderborn","type":"Kreis"},"federalState":{"key":"05","name":"Nordrhein-Westfalen"}},{"name":"Im Winkel","postalCode":"33178","locality":"Borchen","municipality":{"key":"05774012","name":"Borchen","type":"Kreisangehörige_Gemeinde"},"district":{"key":"05774","name":"Paderborn","type":"Kreis"},"federalState":{"key":"05","name":"Nordrhein-Westfalen"}},{"name":"Johannesstr.","postalCode":"33178","locality":"Borchen","municipality":{"key":"05774012","name":"Borchen","type":"Kreisangehörige_Gemeinde"},"district":{"key":"05774","name":"Paderborn","type":"Kreis"},"federalState":{"key":"05","name":"Nordrhein-Westfalen"}},{"name":"Johannesweg","postalCode":"33178","locality":"Borchen","municipality":{"key":"05774012","name":"Borchen","type":"Kreisangehörige_Gemeinde"},"district":{"key":"05774","name":"Paderborn","type":"Kreis"},"federalState":{"key":"05","name":"Nordrhein-Westfalen"}},{"name":"Johanniwiese","postalCode":"33178","locality":"Borchen","municipality":{"key":"05774012","name":"Borchen","type":"Kreisangehörige_Gemeinde"},"district":{"key":"05774","name":"Paderborn","type":"Kreis"},"federalState":{"key":"05","name":"Nordrhein-Westfalen"}},{"name":"Josefstr.","postalCode":"33178","locality":"Borchen","municipality":{"key":"05774012","name":"Borchen","type":"Kreisangehörige_Gemeinde"},"district":{"key":"05774","name":"Paderborn","type":"Kreis"},"federalState":{"key":"05","name":"Nordrhein-Westfalen"}},{"name":"Judenweg","postalCode":"33178","locality":"Borchen","municipality":{"key":"05774012","name":"Borchen","type":"Kreisangehörige_Gemeinde"},"district":{"key":"05774","name":"Paderborn","type":"Kreis"},"federalState":{"key":"05","name":"Nordrhein-Westfalen"}},{"name":"K 22","postalCode":"33178","locality":"Borchen","municipality":{"key":"05774012","name":"Borchen","type":"Kreisangehörige_Gemeinde"},"district":{"key":"05774","name":"Paderborn","type":"Kreis"},"federalState":{"key":"05","name":"Nordrhein-Westfalen"}},{"name":"Kapellenweg","postalCode":"33178","locality":"Borchen","municipality":{"key":"05774012","name":"Borchen","type":"Kreisangehörige_Gemeinde"},"district":{"key":"05774","name":"Paderborn","type":"Kreis"},"federalState":{"key":"05","name":"Nordrhein-Westfalen"}},{"name":"Kastanienweg","postalCode":"33178","locality":"Borchen","municipality":{"key":"05774012","name":"Borchen","type":"Kreisangehörige_Gemeinde"},"district":{"key":"05774","name":"Paderborn","type":"Kreis"},"federalState":{"key":"05","name":"Nordrhein-Westfalen"}},{"name":"Kattenecke","postalCode":"33178","locality":"Borchen","municipality":{"key":"05774012","name":"Borchen","type":"Kreisangehörige_Gemeinde"},"district":{"key":"05774","name":"Paderborn","type":"Kreis"},"federalState":{"key":"05","name":"Nordrhein-Westfalen"}},{"name":"Kirchborchener Str.","postalCode":"33178","locality":"Borchen","municipality":{"key":"05774012","name":"Borchen","type":"Kreisangehörige_Gemeinde"},"district":{"key":"05774","name":"Paderborn","type":"Kreis"},"federalState":{"key":"05","name":"Nordrhein-Westfalen"}},{"name":"Kirchstr.","postalCode":"33178","locality":"Borchen","municipality":{"key":"05774012","name":"Borchen","type":"Kreisangehörige_Gemeinde"},"district":{"key":"05774","name":"Paderborn","type":"Kreis"},"federalState":{"key":"05","name":"Nordrhein-Westfalen"}},{"name":"Kleiner Hellweg","postalCode":"33178","locality":"Borchen","municipality":{"key":"05774012","name":"Borchen","type":"Kreisangehörige_Gemeinde"},"district":{"key":"05774","name":"Paderborn","type":"Kreis"},"federalState":{"key":"05","name":"Nordrhein-Westfalen"}},{"name":"Klingeweg","postalCode":"33178","locality":"Borchen","municipality":{"key":"05774012","name":"Borchen","type":"Kreisangehörige_Gemeinde"},"district":{"key":"05774","name":"Paderborn","type":"Kreis"},"federalState":{"key":"05","name":"Nordrhein-Westfalen"}},{"name":"Knappenweg","postalCode":"33178","locality":"Borchen","municipality":{"key":"05774012","name":"Borchen","type":"Kreisangehörige_Gemeinde"},"district":{"key":"05774","name":"Paderborn","type":"Kreis"},"federalState":{"key":"05","name":"Nordrhein-Westfalen"}},{"name":"Königsallee","postalCode":"33178","locality":"Borchen","municipality":{"key":"05774012","name":"Borchen","type":"Kreisangehörige_Gemeinde"},"district":{"key":"05774","name":"Paderborn","type":"Kreis"},"federalState":{"key":"05","name":"Nordrhein-Westfalen"}},{"name":"Kötterhagen","postalCode":"33178","locality":"Borchen","municipality":{"key":"05774012","name":"Borchen","type":"Kreisangehörige_Gemeinde"},"district":{"key":"05774","name":"Paderborn","type":"Kreis"},"federalState":{"key":"05","name":"Nordrhein-Westfalen"}},{"name":"Kreuzricke","postalCode":"33178","locality":"Borchen","municipality":{"key":"05774012","name":"Borchen","type":"Kreisangehörige_Gemeinde"},"district":{"key":"05774","name":"Paderborn","type":"Kreis"},"federalState":{"key":"05","name":"Nordrhein-Westfalen"}},{"name":"Kreuzweg","postalCode":"33178","locality":"Borchen","municipality":{"key":"05774012","name":"Borchen","type":"Kreisangehörige_Gemeinde"},"district":{"key":"05774","name":"Paderborn","type":"Kreis"},"federalState":{"key":"05","name":"Nordrhein-Westfalen"}},{"name":"Kriegerweg","postalCode":"33178","locality":"Borchen","municipality":{"key":"05774012","name":"Borchen","type":"Kreisangehörige_Gemeinde"},"district":{"key":"05774","name":"Paderborn","type":"Kreis"},"federalState":{"key":"05","name":"Nordrhein-Westfalen"}},{"name":"Krummes Ohr","postalCode":"33178","locality":"Borchen","municipality":{"key":"05774012","name":"Borchen","type":"Kreisangehörige_Gemeinde"},"district":{"key":"05774","name":"Paderborn","type":"Kreis"},"federalState":{"key":"05","name":"Nordrhein-Westfalen"}},{"name":"Kümerschlag","postalCode":"33178","locality":"Borchen","municipality":{"key":"05774012","name":"Borchen","type":"Kreisangehörige_Gemeinde"},"district":{"key":"05774","name":"Paderborn","type":"Kreis"},"federalState":{"key":"05","name":"Nordrhein-Westfalen"}},{"name":"Laurentiusstr.","postalCode":"33178","locality":"Borchen","municipality":{"key":"05774012","name":"Borchen","type":"Kreisangehörige_Gemeinde"},"district":{"key":"05774","name":"Paderborn","type":"Kreis"},"federalState":{"key":"05","name":"Nordrhein-Westfalen"}},{"name":"Leinertsberg","postalCode":"33178","locality":"Borchen","municipality":{"key":"05774012","name":"Borchen","type":"Kreisangehörige_Gemeinde"},"district":{"key":"05774","name":"Paderborn","type":"Kreis"},"federalState":{"key":"05","name":"Nordrhein-Westfalen"}},{"name":"Lerchenweg","postalCode":"33178","locality":"Borchen","municipality":{"key":"05774012","name":"Borchen","type":"Kreisangehörige_Gemeinde"},"district":{"key":"05774","name":"Paderborn","type":"Kreis"},"federalState":{"key":"05","name":"Nordrhein-Westfalen"}},{"name":"Liboriusstr.","postalCode":"33178","locality":"Borchen","municipality":{"key":"05774012","name":"Borchen","type":"Kreisangehörige_Gemeinde"},"district":{"key":"05774","name":"Paderborn","type":"Kreis"},"federalState":{"key":"05","name":"Nordrhein-Westfalen"}},{"name":"Liethberg","postalCode":"33178","locality":"Borchen","municipality":{"key":"05774012","name":"Borchen","type":"Kreisangehörige_Gemeinde"},"district":{"key":"05774","name":"Paderborn","type":"Kreis"},"federalState":{"key":"05","name":"Nordrhein-Westfalen"}},{"name":"Limberg","postalCode":"33178","locality":"Borchen","municipality":{"key":"05774012","name":"Borchen","type":"Kreisangehörige_Gemeinde"},"district":{"key":"05774","name":"Paderborn","type":"Kreis"},"federalState":{"key":"05","name":"Nordrhein-Westfalen"}},{"name":"Lindenweg","postalCode":"33178","locality":"Borchen","municipality":{"key":"05774012","name":"Borchen","type":"Kreisangehörige_Gemeinde"},"district":{"key":"05774","name":"Paderborn","type":"Kreis"},"federalState":{"key":"05","name":"Nordrhein-Westfalen"}},{"name":"Lümmergen","postalCode":"33178","locality":"Borchen","municipality":{"key":"05774012","name":"Borchen","type":"Kreisangehörige_Gemeinde"},"district":{"key":"05774","name":"Paderborn","type":"Kreis"},"federalState":{"key":"05","name":"Nordrhein-Westfalen"}},{"name":"Mallinckrodtpark","postalCode":"33178","locality":"Borchen","municipality":{"key":"05774012","name":"Borchen","type":"Kreisangehörige_Gemeinde"},"district":{"key":"05774","name":"Paderborn","type":"Kreis"},"federalState":{"key":"05","name":"Nordrhein-Westfalen"}},{"name":"Mallinckrodtstr.","postalCode":"33178","locality":"Borchen","municipality":{"key":"05774012","name":"Borchen","type":"Kreisangehörige_Gemeinde"},"district":{"key":"05774","name":"Paderborn","type":"Kreis"},"federalState":{"key":"05","name":"Nordrhein-Westfalen"}},{"name":"Marienstr.","postalCode":"33178","locality":"Borchen","municipality":{"key":"05774012","name":"Borchen","type":"Kreisangehörige_Gemeinde"},"district":{"key":"05774","name":"Paderborn","type":"Kreis"},"federalState":{"key":"05","name":"Nordrhein-Westfalen"}},{"name":"Mecklenburger Weg","postalCode":"33178","locality":"Borchen","municipality":{"key":"05774012","name":"Borchen","type":"Kreisangehörige_Gemeinde"},"district":{"key":"05774","name":"Paderborn","type":"Kreis"},"federalState":{"key":"05","name":"Nordrhein-Westfalen"}},{"name":"Meinolfusstr.","postalCode":"33178","locality":"Borchen","municipality":{"key":"05774012","name":"Borchen","type":"Kreisangehörige_Gemeinde"},"district":{"key":"05774","name":"Paderborn","type":"Kreis"},"federalState":{"key":"05","name":"Nordrhein-Westfalen"}},{"name":"Meinwerkstr.","postalCode":"33178","locality":"Borchen","municipality":{"key":"05774012","name":"Borchen","type":"Kreisangehörige_Gemeinde"},"district":{"key":"05774","name":"Paderborn","type":"Kreis"},"federalState":{"key":"05","name":"Nordrhein-Westfalen"}},{"name":"Meisenweg","postalCode":"33178","locality":"Borchen","municipality":{"key":"05774012","name":"Borchen","type":"Kreisangehörige_Gemeinde"},"district":{"key":"05774","name":"Paderborn","type":"Kreis"},"federalState":{"key":"05","name":"Nordrhein-Westfalen"}},{"name":"Melschen Kamp","postalCode":"33178","locality":"Borchen","municipality":{"key":"05774012","name":"Borchen","type":"Kreisangehörige_Gemeinde"},"district":{"key":"05774","name":"Paderborn","type":"Kreis"},"federalState":{"key":"05","name":"Nordrhein-Westfalen"}},{"name":"Menkenfeld","postalCode":"33178","locality":"Borchen","municipality":{"key":"05774012","name":"Borchen","type":"Kreisangehörige_Gemeinde"},"district":{"key":"05774","name":"Paderborn","type":"Kreis"},"federalState":{"key":"05","name":"Nordrhein-Westfalen"}},{"name":"Merschweg","postalCode":"33178","locality":"Borchen","municipality":{"key":"05774012","name":"Borchen","type":"Kreisangehörige_Gemeinde"},"district":{"key":"05774","name":"Paderborn","type":"Kreis"},"federalState":{"key":"05","name":"Nordrhein-Westfalen"}},{"name":"Michaelstr.","postalCode":"33178","locality":"Borchen","municipality":{"key":"05774012","name":"Borchen","type":"Kreisangehörige_Gemeinde"},"district":{"key":"05774","name":"Paderborn","type":"Kreis"},"federalState":{"key":"05","name":"Nordrhein-Westfalen"}},{"name":"Mühlbachtal","postalCode":"33178","locality":"Borchen","municipality":{"key":"05774012","name":"Borchen","type":"Kreisangehörige_Gemeinde"},"district":{"key":"05774","name":"Paderborn","type":"Kreis"},"federalState":{"key":"05","name":"Nordrhein-Westfalen"}},{"name":"Mühlenbergweg","postalCode":"33178","locality":"Borchen","municipality":{"key":"05774012","name":"Borchen","type":"Kreisangehörige_Gemeinde"},"district":{"key":"05774","name":"Paderborn","type":"Kreis"},"federalState":{"key":"05","name":"Nordrhein-Westfalen"}},{"name":"Mühlenweg","postalCode":"33178","locality":"Borchen","municipality":{"key":"05774012","name":"Borchen","type":"Kreisangehörige_Gemeinde"},"district":{"key":"05774","name":"Paderborn","type":"Kreis"},"federalState":{"key":"05","name":"Nordrhein-Westfalen"}},{"name":"Mühlenwinkel","postalCode":"33178","locality":"Borchen","municipality":{"key":"05774012","name":"Borchen","type":"Kreisangehörige_Gemeinde"},"district":{"key":"05774","name":"Paderborn","type":"Kreis"},"federalState":{"key":"05","name":"Nordrhein-Westfalen"}},{"name":"Neuenhöfe","postalCode":"33178","locality":"Borchen","municipality":{"key":"05774012","name":"Borchen","type":"Kreisangehörige_Gemeinde"},"district":{"key":"05774","name":"Paderborn","type":"Kreis"},"federalState":{"key":"05","name":"Nordrhein-Westfalen"}},{"name":"Nikolaus-Otto-Str.","postalCode":"33178","locality":"Borchen","municipality":{"key":"05774012","name":"Borchen","type":"Kreisangehörige_Gemeinde"},"district":{"key":"05774","name":"Paderborn","type":"Kreis"},"federalState":{"key":"05","name":"Nordrhein-Westfalen"}},{"name":"Oberförsterweg","postalCode":"33178","locality":"Borchen","municipality":{"key":"05774012","name":"Borchen","type":"Kreisangehörige_Gemeinde"},"district":{"key":"05774","name":"Paderborn","type":"Kreis"},"federalState":{"key":"05","name":"Nordrhein-Westfalen"}},{"name":"Ortberg","postalCode":"33178","locality":"Borchen","municipality":{"key":"05774012","name":"Borchen","type":"Kreisangehörige_Gemeinde"},"district":{"key":"05774","name":"Paderborn","type":"Kreis"},"federalState":{"key":"05","name":"Nordrhein-Westfalen"}},{"name":"Paderborner Str.","postalCode":"33178","locality":"Borchen","municipality":{"key":"05774012","name":"Borchen","type":"Kreisangehörige_Gemeinde"},"district":{"key":"05774","name":"Paderborn","type":"Kreis"},"federalState":{"key":"05","name":"Nordrhein-Westfalen"}},{"name":"Parkstr.","postalCode":"33178","locality":"Borchen","municipality":{"key":"05774012","name":"Borchen","type":"Kreisangehörige_Gemeinde"},"district":{"key":"05774","name":"Paderborn","type":"Kreis"},"federalState":{"key":"05","name":"Nordrhein-Westfalen"}},{"name":"Pirolweg","postalCode":"33178","locality":"Borchen","municipality":{"key":"05774012","name":"Borchen","type":"Kreisangehörige_Gemeinde"},"district":{"key":"05774","name":"Paderborn","type":"Kreis"},"federalState":{"key":"05","name":"Nordrhein-Westfalen"}},{"name":"Pommernweg","postalCode":"33178","locality":"Borchen","municipality":{"key":"05774012","name":"Borchen","type":"Kreisangehörige_Gemeinde"},"district":{"key":"05774","name":"Paderborn","type":"Kreis"},"federalState":{"key":"05","name":"Nordrhein-Westfalen"}},{"name":"Pöppenweg","postalCode":"33178","locality":"Borchen","municipality":{"key":"05774012","name":"Borchen","type":"Kreisangehörige_Gemeinde"},"district":{"key":"05774","name":"Paderborn","type":"Kreis"},"federalState":{"key":"05","name":"Nordrhein-Westfalen"}},{"name":"Prozessionsweg","postalCode":"33178","locality":"Borchen","municipality":{"key":"05774012","name":"Borchen","type":"Kreisangehörige_Gemeinde"},"district":{"key":"05774","name":"Paderborn","type":"Kreis"},"federalState":{"key":"05","name":"Nordrhein-Westfalen"}},{"name":"Querholz","postalCode":"33178","locality":"Borchen","municipality":{"key":"05774012","name":"Borchen","type":"Kreisangehörige_Gemeinde"},"district":{"key":"05774","name":"Paderborn","type":"Kreis"},"federalState":{"key":"05","name":"Nordrhein-Westfalen"}},{"name":"Rahmental","postalCode":"33178","locality":"Borchen","municipality":{"key":"05774012","name":"Borchen","type":"Kreisangehörige_Gemeinde"},"district":{"key":"05774","name":"Paderborn","type":"Kreis"},"federalState":{"key":"05","name":"Nordrhein-Westfalen"}},{"name":"Ranzenberg","postalCode":"33178","locality":"Borchen","municipality":{"key":"05774012","name":"Borchen","type":"Kreisangehörige_Gemeinde"},"district":{"key":"05774","name":"Paderborn","type":"Kreis"},"federalState":{"key":"05","name":"Nordrhein-Westfalen"}},{"name":"Rauher Berg","postalCode":"33178","locality":"Borchen","municipality":{"key":"05774012","name":"Borchen","type":"Kreisangehörige_Gemeinde"},"district":{"key":"05774","name":"Paderborn","type":"Kreis"},"federalState":{"key":"05","name":"Nordrhein-Westfalen"}},{"name":"Remmert","postalCode":"33178","locality":"Borchen","municipality":{"key":"05774012","name":"Borchen","type":"Kreisangehörige_Gemeinde"},"district":{"key":"05774","name":"Paderborn","type":"Kreis"},"federalState":{"key":"05","name":"Nordrhein-Westfalen"}},{"name":"Ringstr.","postalCode":"33178","locality":"Borchen","municipality":{"key":"05774012","name":"Borchen","type":"Kreisangehörige_Gemeinde"},"district":{"key":"05774","name":"Paderborn","type":"Kreis"},"federalState":{"key":"05","name":"Nordrhein-Westfalen"}},{"name":"Ritterholz","postalCode":"33178","locality":"Borchen","municipality":{"key":"05774012","name":"Borchen","type":"Kreisangehörige_Gemeinde"},"district":{"key":"05774","name":"Paderborn","type":"Kreis"},"federalState":{"key":"05","name":"Nordrhein-Westfalen"}},{"name":"Robert-Bosch-Str.","postalCode":"33178","locality":"Borchen","municipality":{"key":"05774012","name":"Borchen","type":"Kreisangehörige_Gemeinde"},"district":{"key":"05774","name":"Paderborn","type":"Kreis"},"federalState":{"key":"05","name":"Nordrhein-Westfalen"}},{"name":"Römerweg","postalCode":"33178","locality":"Borchen","municipality":{"key":"05774012","name":"Borchen","type":"Kreisangehörige_Gemeinde"},"district":{"key":"05774","name":"Paderborn","type":"Kreis"},"federalState":{"key":"05","name":"Nordrhein-Westfalen"}},{"name":"Rosenstr.","postalCode":"33178","locality":"Borchen","municipality":{"key":"05774012","name":"Borchen","type":"Kreisangehörige_Gemeinde"},"district":{"key":"05774","name":"Paderborn","type":"Kreis"},"federalState":{"key":"05","name":"Nordrhein-Westfalen"}},{"name":"Rotdornweg","postalCode":"33178","locality":"Borchen","municipality":{"key":"05774012","name":"Borchen","type":"Kreisangehörige_Gemeinde"},"district":{"key":"05774","name":"Paderborn","type":"Kreis"},"federalState":{"key":"05","name":"Nordrhein-Westfalen"}},{"name":"Rudolfallee","postalCode":"33178","locality":"Borchen","municipality":{"key":"05774012","name":"Borchen","type":"Kreisangehörige_Gemeinde"},"district":{"key":"05774","name":"Paderborn","type":"Kreis"},"federalState":{"key":"05","name":"Nordrhein-Westfalen"}},{"name":"Rudolf-Diesel-Str.","postalCode":"33178","locality":"Borchen","municipality":{"key":"05774012","name":"Borchen","type":"Kreisangehörige_Gemeinde"},"district":{"key":"05774","name":"Paderborn","type":"Kreis"},"federalState":{"key":"05","name":"Nordrhein-Westfalen"}},{"name":"Sachsenweg","postalCode":"33178","locality":"Borchen","municipality":{"key":"05774012","name":"Borchen","type":"Kreisangehörige_Gemeinde"},"district":{"key":"05774","name":"Paderborn","type":"Kreis"},"federalState":{"key":"05","name":"Nordrhein-Westfalen"}},{"name":"Salzkottener Str.","postalCode":"33178","locality":"Borchen","municipality":{"key":"05774012","name":"Borchen","type":"Kreisangehörige_Gemeinde"},"district":{"key":"05774","name":"Paderborn","type":"Kreis"},"federalState":{"key":"05","name":"Nordrhein-Westfalen"}},{"name":"Salzstr.","postalCode":"33178","locality":"Borchen","municipality":{"key":"05774012","name":"Borchen","type":"Kreisangehörige_Gemeinde"},"district":{"key":"05774","name":"Paderborn","type":"Kreis"},"federalState":{"key":"05","name":"Nordrhein-Westfalen"}},{"name":"Schauernweg","postalCode":"33178","locality":"Borchen","municipality":{"key":"05774012","name":"Borchen","type":"Kreisangehörige_Gemeinde"},"district":{"key":"05774","name":"Paderborn","type":"Kreis"},"federalState":{"key":"05","name":"Nordrhein-Westfalen"}},{"name":"Schlagweg","postalCode":"33178","locality":"Borchen","municipality":{"key":"05774012","name":"Borchen","type":"Kreisangehörige_Gemeinde"},"district":{"key":"05774","name":"Paderborn","type":"Kreis"},"federalState":{"key":"05","name":"Nordrhein-Westfalen"}},{"name":"Schlesierweg","postalCode":"33178","locality":"Borchen","municipality":{"key":"05774012","name":"Borchen","type":"Kreisangehörige_Gemeinde"},"district":{"key":"05774","name":"Paderborn","type":"Kreis"},"federalState":{"key":"05","name":"Nordrhein-Westfalen"}},{"name":"Schloß Hamborn","postalCode":"33178","locality":"Borchen","municipality":{"key":"05774012","name":"Borchen","type":"Kreisangehörige_Gemeinde"},"district":{"key":"05774","name":"Paderborn","type":"Kreis"},"federalState":{"key":"05","name":"Nordrhein-Westfalen"}},{"name":"Schmalzgrube","postalCode":"33178","locality":"Borchen","municipality":{"key":"05774012","name":"Borchen","type":"Kreisangehörige_Gemeinde"},"district":{"key":"05774","name":"Paderborn","type":"Kreis"},"federalState":{"key":"05","name":"Nordrhein-Westfalen"}},{"name":"Schöne Aussicht","postalCode":"33178","locality":"Borchen","municipality":{"key":"05774012","name":"Borchen","type":"Kreisangehörige_Gemeinde"},"district":{"key":"05774","name":"Paderborn","type":"Kreis"},"federalState":{"key":"05","name":"Nordrhein-Westfalen"}},{"name":"Schören","postalCode":"33178","locality":"Borchen","municipality":{"key":"05774012","name":"Borchen","type":"Kreisangehörige_Gemeinde"},"district":{"key":"05774","name":"Paderborn","type":"Kreis"},"federalState":{"key":"05","name":"Nordrhein-Westfalen"}},{"name":"Schulstr.","postalCode":"33178","locality":"Borchen","municipality":{"key":"05774012","name":"Borchen","type":"Kreisangehörige_Gemeinde"},"district":{"key":"05774","name":"Paderborn","type":"Kreis"},"federalState":{"key":"05","name":"Nordrhein-Westfalen"}},{"name":"Schützenstr.","postalCode":"33178","locality":"Borchen","municipality":{"key":"05774012","name":"Borchen","type":"Kreisangehörige_Gemeinde"},"district":{"key":"05774","name":"Paderborn","type":"Kreis"},"federalState":{"key":"05","name":"Nordrhein-Westfalen"}},{"name":"Schwabenweg","postalCode":"33178","locality":"Borchen","municipality":{"key":"05774012","name":"Borchen","type":"Kreisangehörige_Gemeinde"},"district":{"key":"05774","name":"Paderborn","type":"Kreis"},"federalState":{"key":"05","name":"Nordrhein-Westfalen"}},{"name":"Schwarzenberger Str.","postalCode":"33178","locality":"Borchen","municipality":{"key":"05774012","name":"Borchen","type":"Kreisangehörige_Gemeinde"},"district":{"key":"05774","name":"Paderborn","type":"Kreis"},"federalState":{"key":"05","name":"Nordrhein-Westfalen"}},{"name":"Sebastianstr.","postalCode":"33178","locality":"Borchen","municipality":{"key":"05774012","name":"Borchen","type":"Kreisangehörige_Gemeinde"},"district":{"key":"05774","name":"Paderborn","type":"Kreis"},"federalState":{"key":"05","name":"Nordrhein-Westfalen"}},{"name":"Siekenweg","postalCode":"33178","locality":"Borchen","municipality":{"key":"05774012","name":"Borchen","type":"Kreisangehörige_Gemeinde"},"district":{"key":"05774","name":"Paderborn","type":"Kreis"},"federalState":{"key":"05","name":"Nordrhein-Westfalen"}},{"name":"Sonnenbergstr.","postalCode":"33178","locality":"Borchen","municipality":{"key":"05774012","name":"Borchen","type":"Kreisangehörige_Gemeinde"},"district":{"key":"05774","name":"Paderborn","type":"Kreis"},"federalState":{"key":"05","name":"Nordrhein-Westfalen"}},{"name":"Sonnenhügel","postalCode":"33178","locality":"Borchen","municipality":{"key":"05774012","name":"Borchen","type":"Kreisangehörige_Gemeinde"},"district":{"key":"05774","name":"Paderborn","type":"Kreis"},"federalState":{"key":"05","name":"Nordrhein-Westfalen"}},{"name":"Sperenberger Str.","postalCode":"33178","locality":"Borchen","municipality":{"key":"05774012","name":"Borchen","type":"Kreisangehörige_Gemeinde"},"district":{"key":"05774","name":"Paderborn","type":"Kreis"},"federalState":{"key":"05","name":"Nordrhein-Westfalen"}},{"name":"Stadtweg","postalCode":"33178","locality":"Borchen","municipality":{"key":"05774012","name":"Borchen","type":"Kreisangehörige_Gemeinde"},"district":{"key":"05774","name":"Paderborn","type":"Kreis"},"federalState":{"key":"05","name":"Nordrhein-Westfalen"}},{"name":"Stapelsberg","postalCode":"33178","locality":"Borchen","municipality":{"key":"05774012","name":"Borchen","type":"Kreisangehörige_Gemeinde"},"district":{"key":"05774","name":"Paderborn","type":"Kreis"},"federalState":{"key":"05","name":"Nordrhein-Westfalen"}},{"name":"Stapelsgrund","postalCode":"33178","locality":"Borchen","municipality":{"key":"05774012","name":"Borchen","type":"Kreisangehörige_Gemeinde"},"district":{"key":"05774","name":"Paderborn","type":"Kreis"},"federalState":{"key":"05","name":"Nordrhein-Westfalen"}},{"name":"Steinbergweg","postalCode":"33178","locality":"Borchen","municipality":{"key":"05774012","name":"Borchen","type":"Kreisangehörige_Gemeinde"},"district":{"key":"05774","name":"Paderborn","type":"Kreis"},"federalState":{"key":"05","name":"Nordrhein-Westfalen"}},{"name":"Steinweg","postalCode":"33178","locality":"Borchen","municipality":{"key":"05774012","name":"Borchen","type":"Kreisangehörige_Gemeinde"},"district":{"key":"05774","name":"Paderborn","type":"Kreis"},"federalState":{"key":"05","name":"Nordrhein-Westfalen"}},{"name":"Stemberg","postalCode":"33178","locality":"Borchen","municipality":{"key":"05774012","name":"Borchen","type":"Kreisangehörige_Gemeinde"},"district":{"key":"05774","name":"Paderborn","type":"Kreis"},"federalState":{"key":"05","name":"Nordrhein-Westfalen"}},{"name":"Sternstr.","postalCode":"33178","locality":"Borchen","municipality":{"key":"05774012","name":"Borchen","type":"Kreisangehörige_Gemeinde"},"district":{"key":"05774","name":"Paderborn","type":"Kreis"},"federalState":{"key":"05","name":"Nordrhein-Westfalen"}},{"name":"Stiegweg","postalCode":"33178","locality":"Borchen","municipality":{"key":"05774012","name":"Borchen","type":"Kreisangehörige_Gemeinde"},"district":{"key":"05774","name":"Paderborn","type":"Kreis"},"federalState":{"key":"05","name":"Nordrhein-Westfalen"}},{"name":"Sumpweg","postalCode":"33178","locality":"Borchen","municipality":{"key":"05774012","name":"Borchen","type":"Kreisangehörige_Gemeinde"},"district":{"key":"05774","name":"Paderborn","type":"Kreis"},"federalState":{"key":"05","name":"Nordrhein-Westfalen"}},{"name":"Talweg","postalCode":"33178","locality":"Borchen","municipality":{"key":"05774012","name":"Borchen","type":"Kreisangehörige_Gemeinde"},"district":{"key":"05774","name":"Paderborn","type":"Kreis"},"federalState":{"key":"05","name":"Nordrhein-Westfalen"}},{"name":"Tannenweg","postalCode":"33178","locality":"Borchen","municipality":{"key":"05774012","name":"Borchen","type":"Kreisangehörige_Gemeinde"},"district":{"key":"05774","name":"Paderborn","type":"Kreis"},"federalState":{"key":"05","name":"Nordrhein-Westfalen"}},{"name":"Thüringer Weg","postalCode":"33178","locality":"Borchen","municipality":{"key":"05774012","name":"Borchen","type":"Kreisangehörige_Gemeinde"},"district":{"key":"05774","name":"Paderborn","type":"Kreis"},"federalState":{"key":"05","name":"Nordrhein-Westfalen"}},{"name":"Triftweg","postalCode":"33178","locality":"Borchen","municipality":{"key":"05774012","name":"Borchen","type":"Kreisangehörige_Gemeinde"},"district":{"key":"05774","name":"Paderborn","type":"Kreis"},"federalState":{"key":"05","name":"Nordrhein-Westfalen"}},{"name":"Tudorfer Str.","postalCode":"33178","locality":"Borchen","municipality":{"key":"05774012","name":"Borchen","type":"Kreisangehörige_Gemeinde"},"district":{"key":"05774","name":"Paderborn","type":"Kreis"},"federalState":{"key":"05","name":"Nordrhein-Westfalen"}},{"name":"Twete","postalCode":"33178","locality":"Borchen","municipality":{"key":"05774012","name":"Borchen","type":"Kreisangehörige_Gemeinde"},"district":{"key":"05774","name":"Paderborn","type":"Kreis"},"federalState":{"key":"05","name":"Nordrhein-Westfalen"}},{"name":"Uhlenweg","postalCode":"33178","locality":"Borchen","municipality":{"key":"05774012","name":"Borchen","type":"Kreisangehörige_Gemeinde"},"district":{"key":"05774","name":"Paderborn","type":"Kreis"},"federalState":{"key":"05","name":"Nordrhein-Westfalen"}},{"name":"Unter der Burg","postalCode":"33178","locality":"Borchen","municipality":{"key":"05774012","name":"Borchen","type":"Kreisangehörige_Gemeinde"},"district":{"key":"05774","name":"Paderborn","type":"Kreis"},"federalState":{"key":"05","name":"Nordrhein-Westfalen"}},{"name":"Untere Helle","postalCode":"33178","locality":"Borchen","municipality":{"key":"05774012","name":"Borchen","type":"Kreisangehörige_Gemeinde"},"district":{"key":"05774","name":"Paderborn","type":"Kreis"},"federalState":{"key":"05","name":"Nordrhein-Westfalen"}},{"name":"Unterm Berge","postalCode":"33178","locality":"Borchen","municipality":{"key":"05774012","name":"Borchen","type":"Kreisangehörige_Gemeinde"},"district":{"key":"05774","name":"Paderborn","type":"Kreis"},"federalState":{"key":"05","name":"Nordrhein-Westfalen"}},{"name":"Unterm Hahnen","postalCode":"33178","locality":"Borchen","municipality":{"key":"05774012","name":"Borchen","type":"Kreisangehörige_Gemeinde"},"district":{"key":"05774","name":"Paderborn","type":"Kreis"},"federalState":{"key":"05","name":"Nordrhein-Westfalen"}},{"name":"Veilchenweg","postalCode":"33178","locality":"Borchen","municipality":{"key":"05774012","name":"Borchen","type":"Kreisangehörige_Gemeinde"},"district":{"key":"05774","name":"Paderborn","type":"Kreis"},"federalState":{"key":"05","name":"Nordrhein-Westfalen"}},{"name":"Vitusstr.","postalCode":"33178","locality":"Borchen","municipality":{"key":"05774012","name":"Borchen","type":"Kreisangehörige_Gemeinde"},"district":{"key":"05774","name":"Paderborn","type":"Kreis"},"federalState":{"key":"05","name":"Nordrhein-Westfalen"}},{"name":"Walburgisstr.","postalCode":"33178","locality":"Borchen","municipality":{"key":"05774012","name":"Borchen","type":"Kreisangehörige_Gemeinde"},"district":{"key":"05774","name":"Paderborn","type":"Kreis"},"federalState":{"key":"05","name":"Nordrhein-Westfalen"}},{"name":"Wallburgweg","postalCode":"33178","locality":"Borchen","municipality":{"key":"05774012","name":"Borchen","type":"Kreisangehörige_Gemeinde"},"district":{"key":"05774","name":"Paderborn","type":"Kreis"},"federalState":{"key":"05","name":"Nordrhein-Westfalen"}},{"name":"Warburger Str.","postalCode":"33178","locality":"Borchen","municipality":{"key":"05774012","name":"Borchen","type":"Kreisangehörige_Gemeinde"},"district":{"key":"05774","name":"Paderborn","type":"Kreis"},"federalState":{"key":"05","name":"Nordrhein-Westfalen"}},{"name":"Wasserweg","postalCode":"33178","locality":"Borchen","municipality":{"key":"05774012","name":"Borchen","type":"Kreisangehörige_Gemeinde"},"district":{"key":"05774","name":"Paderborn","type":"Kreis"},"federalState":{"key":"05","name":"Nordrhein-Westfalen"}},{"name":"Wegelange","postalCode":"33178","locality":"Borchen","municipality":{"key":"05774012","name":"Borchen","type":"Kreisangehörige_Gemeinde"},"district":{"key":"05774","name":"Paderborn","type":"Kreis"},"federalState":{"key":"05","name":"Nordrhein-Westfalen"}},{"name":"Wehrstr.","postalCode":"33178","locality":"Borchen","municipality":{"key":"05774012","name":"Borchen","type":"Kreisangehörige_Gemeinde"},"district":{"key":"05774","name":"Paderborn","type":"Kreis"},"federalState":{"key":"05","name":"Nordrhein-Westfalen"}},{"name":"Weidekamp","postalCode":"33178","locality":"Borchen","municipality":{"key":"05774012","name":"Borchen","type":"Kreisangehörige_Gemeinde"},"district":{"key":"05774","name":"Paderborn","type":"Kreis"},"federalState":{"key":"05","name":"Nordrhein-Westfalen"}},{"name":"Weltsöden","postalCode":"33178","locality":"Borchen","municipality":{"key":"05774012","name":"Borchen","type":"Kreisangehörige_Gemeinde"},"district":{"key":"05774","name":"Paderborn","type":"Kreis"},"federalState":{"key":"05","name":"Nordrhein-Westfalen"}},{"name":"Westernecke","postalCode":"33178","locality":"Borchen","municipality":{"key":"05774012","name":"Borchen","type":"Kreisangehörige_Gemeinde"},"district":{"key":"05774","name":"Paderborn","type":"Kreis"},"federalState":{"key":"05","name":"Nordrhein-Westfalen"}},{"name":"Westernstr.","postalCode":"33178","locality":"Borchen","municipality":{"key":"05774012","name":"Borchen","type":"Kreisangehörige_Gemeinde"},"district":{"key":"05774","name":"Paderborn","type":"Kreis"},"federalState":{"key":"05","name":"Nordrhein-Westfalen"}},{"name":"Westfalenweg","postalCode":"33178","locality":"Borchen","municipality":{"key":"05774012","name":"Borchen","type":"Kreisangehörige_Gemeinde"},"district":{"key":"05774","name":"Paderborn","type":"Kreis"},"federalState":{"key":"05","name":"Nordrhein-Westfalen"}},{"name":"Wewersche Str.","postalCode":"33178","locality":"Borchen","municipality":{"key":"05774012","name":"Borchen","type":"Kreisangehörige_Gemeinde"},"district":{"key":"05774","name":"Paderborn","type":"Kreis"},"federalState":{"key":"05","name":"Nordrhein-Westfalen"}},{"name":"Wilhelmweg","postalCode":"33178","locality":"Borchen","municipality":{"key":"05774012","name":"Borchen","type":"Kreisangehörige_Gemeinde"},"district":{"key":"05774","name":"Paderborn","type":"Kreis"},"federalState":{"key":"05","name":"Nordrhein-Westfalen"}},{"name":"Zum Freistuhl","postalCode":"33178","locality":"Borchen","municipality":{"key":"05774012","name":"Borchen","type":"Kreisangehörige_Gemeinde"},"district":{"key":"05774","name":"Paderborn","type":"Kreis"},"federalState":{"key":"05","name":"Nordrhein-Westfalen"}},{"name":"Zur dicken Linde","postalCode":"33178","locality":"Borchen","municipality":{"key":"05774012","name":"Borchen","type":"Kreisangehörige_Gemeinde"},"district":{"key":"05774","name":"Paderborn","type":"Kreis"},"federalState":{"key":"05","name":"Nordrhein-Westfalen"}},{"name":"Zur Lohne","postalCode":"33178","locality":"Borchen","municipality":{"key":"05774012","name":"Borchen","type":"Kreisangehörige_Gemeinde"},"district":{"key":"05774","name":"Paderborn","type":"Kreis"},"federalState":{"key":"05","name":"Nordrhein-Westfalen"}},{"name":"Österreicher Weg","postalCode":"33102","locality":"Paderborn","municipality":{"key":"05774032","name":"Paderborn, Stadt","type":"Stadt"},"district":{"key":"05774","name":"Paderborn","type":"Kreis"},"federalState":{"key":"05","name":"Nordrhein-Westfalen"}},{"name":"Überwasserstr.","postalCode":"33100","locality":"Paderborn","municipality":{"key":"05774032","name":"Paderborn, Stadt","type":"Stadt"},"district":{"key":"05774","name":"Paderborn","type":"Kreis"},"federalState":{"key":"05","name":"Nordrhein-Westfalen"}},{"name":"Ükern","postalCode":"33098","locality":"Paderborn","municipality":{"key":"05774032","name":"Paderborn, Stadt","type":"Stadt"},"district":{"key":"05774","name":"Paderborn","type":"Kreis"},"federalState":{"key":"05","name":"Nordrhein-Westfalen"}},]