[{"name":"Adolf-Meyer-Str.","postalCode":"49828","locality":"Neuenhaus","municipality":{"key":"03456014","name":"Neuenhaus, Stadt","type":"Stadt"},"district":{"key":"03456","name":"Grafschaft Bentheim","type":"Landkreis"},"federalState":{"key":"03","name":"Niedersachsen"}},{"name":"Agnesstr.","postalCode":"49828","locality":"Neuenhaus","municipality":{"key":"03456014","name":"Neuenhaus, Stadt","type":"Stadt"},"district":{"key":"03456","name":"Grafschaft Bentheim","type":"Landkreis"},"federalState":{"key":"03","name":"Niedersachsen"}},{"name":"Am Bahnhof","postalCode":"49828","locality":"Neuenhaus","municipality":{"key":"03456014","name":"Neuenhaus, Stadt","type":"Stadt"},"district":{"key":"03456","name":"Grafschaft Bentheim","type":"Landkreis"},"federalState":{"key":"03","name":"Niedersachsen"}},{"name":"Am Bosthorstgraben","postalCode":"49828","locality":"Neuenhaus","municipality":{"key":"03456014","name":"Neuenhaus, Stadt","type":"Stadt"},"district":{"key":"03456","name":"Grafschaft Bentheim","type":"Landkreis"},"federalState":{"key":"03","name":"Niedersachsen"}},{"name":"Am Filoort","postalCode":"49828","locality":"Neuenhaus","municipality":{"key":"03456014","name":"Neuenhaus, Stadt","type":"Stadt"},"district":{"key":"03456","name":"Grafschaft Bentheim","type":"Landkreis"},"federalState":{"key":"03","name":"Niedersachsen"}},{"name":"Am Friedhof","postalCode":"49828","locality":"Neuenhaus","municipality":{"key":"03456014","name":"Neuenhaus, Stadt","type":"Stadt"},"district":{"key":"03456","name":"Grafschaft Bentheim","type":"Landkreis"},"federalState":{"key":"03","name":"Niedersachsen"}},{"name":"Am Kaiserplatz","postalCode":"49828","locality":"Neuenhaus","municipality":{"key":"03456014","name":"Neuenhaus, Stadt","type":"Stadt"},"district":{"key":"03456","name":"Grafschaft Bentheim","type":"Landkreis"},"federalState":{"key":"03","name":"Niedersachsen"}},{"name":"Am Ramsel","postalCode":"49828","locality":"Neuenhaus","municipality":{"key":"03456014","name":"Neuenhaus, Stadt","type":"Stadt"},"district":{"key":"03456","name":"Grafschaft Bentheim","type":"Landkreis"},"federalState":{"key":"03","name":"Niedersachsen"}},{"name":"Am Rott","postalCode":"49828","locality":"Neuenhaus","municipality":{"key":"03456014","name":"Neuenhaus, Stadt","type":"Stadt"},"district":{"key":"03456","name":"Grafschaft Bentheim","type":"Landkreis"},"federalState":{"key":"03","name":"Niedersachsen"}},{"name":"Amselstiege","postalCode":"49828","locality":"Neuenhaus","municipality":{"key":"03456014","name":"Neuenhaus, Stadt","type":"Stadt"},"district":{"key":"03456","name":"Grafschaft Bentheim","type":"Landkreis"},"federalState":{"key":"03","name":"Niedersachsen"}},{"name":"Am Spöllberg","postalCode":"49828","locality":"Neuenhaus","municipality":{"key":"03456014","name":"Neuenhaus, Stadt","type":"Stadt"},"district":{"key":"03456","name":"Grafschaft Bentheim","type":"Landkreis"},"federalState":{"key":"03","name":"Niedersachsen"}},{"name":"Am Sportplatz","postalCode":"49828","locality":"Neuenhaus","municipality":{"key":"03456014","name":"Neuenhaus, Stadt","type":"Stadt"},"district":{"key":"03456","name":"Grafschaft Bentheim","type":"Landkreis"},"federalState":{"key":"03","name":"Niedersachsen"}},{"name":"Am Storkebrink","postalCode":"49828","locality":"Neuenhaus","municipality":{"key":"03456014","name":"Neuenhaus, Stadt","type":"Stadt"},"district":{"key":"03456","name":"Grafschaft Bentheim","type":"Landkreis"},"federalState":{"key":"03","name":"Niedersachsen"}},{"name":"Am Wall","postalCode":"49828","locality":"Neuenhaus","municipality":{"key":"03456014","name":"Neuenhaus, Stadt","type":"Stadt"},"district":{"key":"03456","name":"Grafschaft Bentheim","type":"Landkreis"},"federalState":{"key":"03","name":"Niedersachsen"}},{"name":"Am Winkel","postalCode":"49828","locality":"Neuenhaus","municipality":{"key":"03456014","name":"Neuenhaus, Stadt","type":"Stadt"},"district":{"key":"03456","name":"Grafschaft Bentheim","type":"Landkreis"},"federalState":{"key":"03","name":"Niedersachsen"}},{"name":"An der Bree","postalCode":"49828","locality":"Neuenhaus","municipality":{"key":"03456014","name":"Neuenhaus, Stadt","type":"Stadt"},"district":{"key":"03456","name":"Grafschaft Bentheim","type":"Landkreis"},"federalState":{"key":"03","name":"Niedersachsen"}},{"name":"An der Schulenburg","postalCode":"49828","locality":"Neuenhaus","municipality":{"key":"03456014","name":"Neuenhaus, Stadt","type":"Stadt"},"district":{"key":"03456","name":"Grafschaft Bentheim","type":"Landkreis"},"federalState":{"key":"03","name":"Niedersachsen"}},{"name":"Anemonenstr.","postalCode":"49828","locality":"Neuenhaus","municipality":{"key":"03456014","name":"Neuenhaus, Stadt","type":"Stadt"},"district":{"key":"03456","name":"Grafschaft Bentheim","type":"Landkreis"},"federalState":{"key":"03","name":"Niedersachsen"}},{"name":"Annastr.","postalCode":"49828","locality":"Neuenhaus","municipality":{"key":"03456014","name":"Neuenhaus, Stadt","type":"Stadt"},"district":{"key":"03456","name":"Grafschaft Bentheim","type":"Landkreis"},"federalState":{"key":"03","name":"Niedersachsen"}},{"name":"Asternstr.","postalCode":"49828","locality":"Neuenhaus","municipality":{"key":"03456014","name":"Neuenhaus, Stadt","type":"Stadt"},"district":{"key":"03456","name":"Grafschaft Bentheim","type":"Landkreis"},"federalState":{"key":"03","name":"Niedersachsen"}},{"name":"Azaleenstr.","postalCode":"49828","locality":"Neuenhaus","municipality":{"key":"03456014","name":"Neuenhaus, Stadt","type":"Stadt"},"district":{"key":"03456","name":"Grafschaft Bentheim","type":"Landkreis"},"federalState":{"key":"03","name":"Niedersachsen"}},{"name":"Bachstelzenstr.","postalCode":"49828","locality":"Neuenhaus","municipality":{"key":"03456014","name":"Neuenhaus, Stadt","type":"Stadt"},"district":{"key":"03456","name":"Grafschaft Bentheim","type":"Landkreis"},"federalState":{"key":"03","name":"Niedersachsen"}},{"name":"Bachstr.","postalCode":"49828","locality":"Neuenhaus","municipality":{"key":"03456014","name":"Neuenhaus, Stadt","type":"Stadt"},"district":{"key":"03456","name":"Grafschaft Bentheim","type":"Landkreis"},"federalState":{"key":"03","name":"Niedersachsen"}},{"name":"Bahnhofstr.","postalCode":"49828","locality":"Neuenhaus","municipality":{"key":"03456014","name":"Neuenhaus, Stadt","type":"Stadt"},"district":{"key":"03456","name":"Grafschaft Bentheim","type":"Landkreis"},"federalState":{"key":"03","name":"Niedersachsen"}},{"name":"Beethovenstr.","postalCode":"49828","locality":"Neuenhaus","municipality":{"key":"03456014","name":"Neuenhaus, Stadt","type":"Stadt"},"district":{"key":"03456","name":"Grafschaft Bentheim","type":"Landkreis"},"federalState":{"key":"03","name":"Niedersachsen"}},{"name":"Bei der Braake","postalCode":"49828","locality":"Neuenhaus","municipality":{"key":"03456014","name":"Neuenhaus, Stadt","type":"Stadt"},"district":{"key":"03456","name":"Grafschaft Bentheim","type":"Landkreis"},"federalState":{"key":"03","name":"Niedersachsen"}},{"name":"Beinsstiege","postalCode":"49828","locality":"Neuenhaus","municipality":{"key":"03456014","name":"Neuenhaus, Stadt","type":"Stadt"},"district":{"key":"03456","name":"Grafschaft Bentheim","type":"Landkreis"},"federalState":{"key":"03","name":"Niedersachsen"}},{"name":"Beningstr.","postalCode":"49828","locality":"Neuenhaus","municipality":{"key":"03456014","name":"Neuenhaus, Stadt","type":"Stadt"},"district":{"key":"03456","name":"Grafschaft Bentheim","type":"Landkreis"},"federalState":{"key":"03","name":"Niedersachsen"}},{"name":"Berliner Str.","postalCode":"49828","locality":"Neuenhaus","municipality":{"key":"03456014","name":"Neuenhaus, Stadt","type":"Stadt"},"district":{"key":"03456","name":"Grafschaft Bentheim","type":"Landkreis"},"federalState":{"key":"03","name":"Niedersachsen"}},{"name":"Bimolter Str.","postalCode":"49828","locality":"Neuenhaus","municipality":{"key":"03456014","name":"Neuenhaus, Stadt","type":"Stadt"},"district":{"key":"03456","name":"Grafschaft Bentheim","type":"Landkreis"},"federalState":{"key":"03","name":"Niedersachsen"}},{"name":"Birkenstr.","postalCode":"49828","locality":"Neuenhaus","municipality":{"key":"03456014","name":"Neuenhaus, Stadt","type":"Stadt"},"district":{"key":"03456","name":"Grafschaft Bentheim","type":"Landkreis"},"federalState":{"key":"03","name":"Niedersachsen"}},{"name":"Bollmerweg","postalCode":"49828","locality":"Neuenhaus","municipality":{"key":"03456014","name":"Neuenhaus, Stadt","type":"Stadt"},"district":{"key":"03456","name":"Grafschaft Bentheim","type":"Landkreis"},"federalState":{"key":"03","name":"Niedersachsen"}},{"name":"Borggreves Weg","postalCode":"49828","locality":"Neuenhaus","municipality":{"key":"03456014","name":"Neuenhaus, Stadt","type":"Stadt"},"district":{"key":"03456","name":"Grafschaft Bentheim","type":"Landkreis"},"federalState":{"key":"03","name":"Niedersachsen"}},{"name":"Bosthorst","postalCode":"49828","locality":"Neuenhaus","municipality":{"key":"03456014","name":"Neuenhaus, Stadt","type":"Stadt"},"district":{"key":"03456","name":"Grafschaft Bentheim","type":"Landkreis"},"federalState":{"key":"03","name":"Niedersachsen"}},{"name":"Braakendiek","postalCode":"49828","locality":"Neuenhaus","municipality":{"key":"03456014","name":"Neuenhaus, Stadt","type":"Stadt"},"district":{"key":"03456","name":"Grafschaft Bentheim","type":"Landkreis"},"federalState":{"key":"03","name":"Niedersachsen"}},{"name":"Braakestr.","postalCode":"49828","locality":"Neuenhaus","municipality":{"key":"03456014","name":"Neuenhaus, Stadt","type":"Stadt"},"district":{"key":"03456","name":"Grafschaft Bentheim","type":"Landkreis"},"federalState":{"key":"03","name":"Niedersachsen"}},{"name":"Breslauer Str.","postalCode":"49828","locality":"Neuenhaus","municipality":{"key":"03456014","name":"Neuenhaus, Stadt","type":"Stadt"},"district":{"key":"03456","name":"Grafschaft Bentheim","type":"Landkreis"},"federalState":{"key":"03","name":"Niedersachsen"}},{"name":"Brömmels Kamp","postalCode":"49828","locality":"Neuenhaus","municipality":{"key":"03456014","name":"Neuenhaus, Stadt","type":"Stadt"},"district":{"key":"03456","name":"Grafschaft Bentheim","type":"Landkreis"},"federalState":{"key":"03","name":"Niedersachsen"}},{"name":"Buchenstr.","postalCode":"49828","locality":"Neuenhaus","municipality":{"key":"03456014","name":"Neuenhaus, Stadt","type":"Stadt"},"district":{"key":"03456","name":"Grafschaft Bentheim","type":"Landkreis"},"federalState":{"key":"03","name":"Niedersachsen"}},{"name":"Buddenstiege","postalCode":"49828","locality":"Neuenhaus","municipality":{"key":"03456014","name":"Neuenhaus, Stadt","type":"Stadt"},"district":{"key":"03456","name":"Grafschaft Bentheim","type":"Landkreis"},"federalState":{"key":"03","name":"Niedersachsen"}},{"name":"Buitenborg","postalCode":"49828","locality":"Neuenhaus","municipality":{"key":"03456014","name":"Neuenhaus, Stadt","type":"Stadt"},"district":{"key":"03456","name":"Grafschaft Bentheim","type":"Landkreis"},"federalState":{"key":"03","name":"Niedersachsen"}},{"name":"Burgstr.","postalCode":"49828","locality":"Neuenhaus","municipality":{"key":"03456014","name":"Neuenhaus, Stadt","type":"Stadt"},"district":{"key":"03456","name":"Grafschaft Bentheim","type":"Landkreis"},"federalState":{"key":"03","name":"Niedersachsen"}},{"name":"Buschmaate","postalCode":"49828","locality":"Neuenhaus","municipality":{"key":"03456014","name":"Neuenhaus, Stadt","type":"Stadt"},"district":{"key":"03456","name":"Grafschaft Bentheim","type":"Landkreis"},"federalState":{"key":"03","name":"Niedersachsen"}},{"name":"Bussardweg","postalCode":"49828","locality":"Neuenhaus","municipality":{"key":"03456014","name":"Neuenhaus, Stadt","type":"Stadt"},"district":{"key":"03456","name":"Grafschaft Bentheim","type":"Landkreis"},"federalState":{"key":"03","name":"Niedersachsen"}},{"name":"Carl-van-der-Linde-Str.","postalCode":"49828","locality":"Neuenhaus","municipality":{"key":"03456014","name":"Neuenhaus, Stadt","type":"Stadt"},"district":{"key":"03456","name":"Grafschaft Bentheim","type":"Landkreis"},"federalState":{"key":"03","name":"Niedersachsen"}},{"name":"Clara-Schumann-Ring","postalCode":"49828","locality":"Neuenhaus","municipality":{"key":"03456014","name":"Neuenhaus, Stadt","type":"Stadt"},"district":{"key":"03456","name":"Grafschaft Bentheim","type":"Landkreis"},"federalState":{"key":"03","name":"Niedersachsen"}},{"name":"Claus-von-Stauffenberg-Str.","postalCode":"49828","locality":"Neuenhaus","municipality":{"key":"03456014","name":"Neuenhaus, Stadt","type":"Stadt"},"district":{"key":"03456","name":"Grafschaft Bentheim","type":"Landkreis"},"federalState":{"key":"03","name":"Niedersachsen"}},{"name":"Dackhorstweg","postalCode":"49828","locality":"Neuenhaus","municipality":{"key":"03456014","name":"Neuenhaus, Stadt","type":"Stadt"},"district":{"key":"03456","name":"Grafschaft Bentheim","type":"Landkreis"},"federalState":{"key":"03","name":"Niedersachsen"}},{"name":"Daimlerstr.","postalCode":"49828","locality":"Neuenhaus","municipality":{"key":"03456014","name":"Neuenhaus, Stadt","type":"Stadt"},"district":{"key":"03456","name":"Grafschaft Bentheim","type":"Landkreis"},"federalState":{"key":"03","name":"Niedersachsen"}},{"name":"Danziger Str.","postalCode":"49828","locality":"Neuenhaus","municipality":{"key":"03456014","name":"Neuenhaus, Stadt","type":"Stadt"},"district":{"key":"03456","name":"Grafschaft Bentheim","type":"Landkreis"},"federalState":{"key":"03","name":"Niedersachsen"}},{"name":"Dapperskamp","postalCode":"49828","locality":"Neuenhaus","municipality":{"key":"03456014","name":"Neuenhaus, Stadt","type":"Stadt"},"district":{"key":"03456","name":"Grafschaft Bentheim","type":"Landkreis"},"federalState":{"key":"03","name":"Niedersachsen"}},{"name":"Dietrich-Bonhoeffer-Str.","postalCode":"49828","locality":"Neuenhaus","municipality":{"key":"03456014","name":"Neuenhaus, Stadt","type":"Stadt"},"district":{"key":"03456","name":"Grafschaft Bentheim","type":"Landkreis"},"federalState":{"key":"03","name":"Niedersachsen"}},{"name":"Dietrich-Borggreve-Str.","postalCode":"49828","locality":"Neuenhaus","municipality":{"key":"03456014","name":"Neuenhaus, Stadt","type":"Stadt"},"district":{"key":"03456","name":"Grafschaft Bentheim","type":"Landkreis"},"federalState":{"key":"03","name":"Niedersachsen"}},{"name":"Dinkelbogen","postalCode":"49828","locality":"Neuenhaus","municipality":{"key":"03456014","name":"Neuenhaus, Stadt","type":"Stadt"},"district":{"key":"03456","name":"Grafschaft Bentheim","type":"Landkreis"},"federalState":{"key":"03","name":"Niedersachsen"}},{"name":"Dinkelmaate","postalCode":"49828","locality":"Neuenhaus","municipality":{"key":"03456014","name":"Neuenhaus, Stadt","type":"Stadt"},"district":{"key":"03456","name":"Grafschaft Bentheim","type":"Landkreis"},"federalState":{"key":"03","name":"Niedersachsen"}},{"name":"Dinkelufer","postalCode":"49828","locality":"Neuenhaus","municipality":{"key":"03456014","name":"Neuenhaus, Stadt","type":"Stadt"},"district":{"key":"03456","name":"Grafschaft Bentheim","type":"Landkreis"},"federalState":{"key":"03","name":"Niedersachsen"}},{"name":"Drosselstr.","postalCode":"49828","locality":"Neuenhaus","municipality":{"key":"03456014","name":"Neuenhaus, Stadt","type":"Stadt"},"district":{"key":"03456","name":"Grafschaft Bentheim","type":"Landkreis"},"federalState":{"key":"03","name":"Niedersachsen"}},{"name":"Dr.-Picardt-Str.","postalCode":"49828","locality":"Neuenhaus","municipality":{"key":"03456014","name":"Neuenhaus, Stadt","type":"Stadt"},"district":{"key":"03456","name":"Grafschaft Bentheim","type":"Landkreis"},"federalState":{"key":"03","name":"Niedersachsen"}},{"name":"Edelweißstr.","postalCode":"49828","locality":"Neuenhaus","municipality":{"key":"03456014","name":"Neuenhaus, Stadt","type":"Stadt"},"district":{"key":"03456","name":"Grafschaft Bentheim","type":"Landkreis"},"federalState":{"key":"03","name":"Niedersachsen"}},{"name":"Eibenstr.","postalCode":"49828","locality":"Neuenhaus","municipality":{"key":"03456014","name":"Neuenhaus, Stadt","type":"Stadt"},"district":{"key":"03456","name":"Grafschaft Bentheim","type":"Landkreis"},"federalState":{"key":"03","name":"Niedersachsen"}},{"name":"Eichenhorst","postalCode":"49828","locality":"Neuenhaus","municipality":{"key":"03456014","name":"Neuenhaus, Stadt","type":"Stadt"},"district":{"key":"03456","name":"Grafschaft Bentheim","type":"Landkreis"},"federalState":{"key":"03","name":"Niedersachsen"}},{"name":"Eichenstr.","postalCode":"49828","locality":"Neuenhaus","municipality":{"key":"03456014","name":"Neuenhaus, Stadt","type":"Stadt"},"district":{"key":"03456","name":"Grafschaft Bentheim","type":"Landkreis"},"federalState":{"key":"03","name":"Niedersachsen"}},{"name":"Eisvogelweg","postalCode":"49828","locality":"Neuenhaus","municipality":{"key":"03456014","name":"Neuenhaus, Stadt","type":"Stadt"},"district":{"key":"03456","name":"Grafschaft Bentheim","type":"Landkreis"},"federalState":{"key":"03","name":"Niedersachsen"}},{"name":"Elisabeth-Selbert-Str.","postalCode":"49828","locality":"Neuenhaus","municipality":{"key":"03456014","name":"Neuenhaus, Stadt","type":"Stadt"},"district":{"key":"03456","name":"Grafschaft Bentheim","type":"Landkreis"},"federalState":{"key":"03","name":"Niedersachsen"}},{"name":"Elisabethstr.","postalCode":"49828","locality":"Neuenhaus","municipality":{"key":"03456014","name":"Neuenhaus, Stadt","type":"Stadt"},"district":{"key":"03456","name":"Grafschaft Bentheim","type":"Landkreis"},"federalState":{"key":"03","name":"Niedersachsen"}},{"name":"Elsterngasse","postalCode":"49828","locality":"Neuenhaus","municipality":{"key":"03456014","name":"Neuenhaus, Stadt","type":"Stadt"},"district":{"key":"03456","name":"Grafschaft Bentheim","type":"Landkreis"},"federalState":{"key":"03","name":"Niedersachsen"}},{"name":"Enzianstr.","postalCode":"49828","locality":"Neuenhaus","municipality":{"key":"03456014","name":"Neuenhaus, Stadt","type":"Stadt"},"district":{"key":"03456","name":"Grafschaft Bentheim","type":"Landkreis"},"federalState":{"key":"03","name":"Niedersachsen"}},{"name":"Epmannssteege","postalCode":"49828","locality":"Neuenhaus","municipality":{"key":"03456014","name":"Neuenhaus, Stadt","type":"Stadt"},"district":{"key":"03456","name":"Grafschaft Bentheim","type":"Landkreis"},"federalState":{"key":"03","name":"Niedersachsen"}},{"name":"Erdbeerweg","postalCode":"49828","locality":"Neuenhaus","municipality":{"key":"03456014","name":"Neuenhaus, Stadt","type":"Stadt"},"district":{"key":"03456","name":"Grafschaft Bentheim","type":"Landkreis"},"federalState":{"key":"03","name":"Niedersachsen"}},{"name":"Erikastr.","postalCode":"49828","locality":"Neuenhaus","municipality":{"key":"03456014","name":"Neuenhaus, Stadt","type":"Stadt"},"district":{"key":"03456","name":"Grafschaft Bentheim","type":"Landkreis"},"federalState":{"key":"03","name":"Niedersachsen"}},{"name":"Eschenstr.","postalCode":"49828","locality":"Neuenhaus","municipality":{"key":"03456014","name":"Neuenhaus, Stadt","type":"Stadt"},"district":{"key":"03456","name":"Grafschaft Bentheim","type":"Landkreis"},"federalState":{"key":"03","name":"Niedersachsen"}},{"name":"Escher Str.","postalCode":"49828","locality":"Neuenhaus","municipality":{"key":"03456014","name":"Neuenhaus, Stadt","type":"Stadt"},"district":{"key":"03456","name":"Grafschaft Bentheim","type":"Landkreis"},"federalState":{"key":"03","name":"Niedersachsen"}},{"name":"Eulenweg","postalCode":"49828","locality":"Neuenhaus","municipality":{"key":"03456014","name":"Neuenhaus, Stadt","type":"Stadt"},"district":{"key":"03456","name":"Grafschaft Bentheim","type":"Landkreis"},"federalState":{"key":"03","name":"Niedersachsen"}},{"name":"Falkenstr.","postalCode":"49828","locality":"Neuenhaus","municipality":{"key":"03456014","name":"Neuenhaus, Stadt","type":"Stadt"},"district":{"key":"03456","name":"Grafschaft Bentheim","type":"Landkreis"},"federalState":{"key":"03","name":"Niedersachsen"}},{"name":"Fasanenweg","postalCode":"49828","locality":"Neuenhaus","municipality":{"key":"03456014","name":"Neuenhaus, Stadt","type":"Stadt"},"district":{"key":"03456","name":"Grafschaft Bentheim","type":"Landkreis"},"federalState":{"key":"03","name":"Niedersachsen"}},{"name":"Feldkampstr.","postalCode":"49828","locality":"Neuenhaus","municipality":{"key":"03456014","name":"Neuenhaus, Stadt","type":"Stadt"},"district":{"key":"03456","name":"Grafschaft Bentheim","type":"Landkreis"},"federalState":{"key":"03","name":"Niedersachsen"}},{"name":"Fennhook","postalCode":"49828","locality":"Neuenhaus","municipality":{"key":"03456014","name":"Neuenhaus, Stadt","type":"Stadt"},"district":{"key":"03456","name":"Grafschaft Bentheim","type":"Landkreis"},"federalState":{"key":"03","name":"Niedersachsen"}},{"name":"Finkenstr.","postalCode":"49828","locality":"Neuenhaus","municipality":{"key":"03456014","name":"Neuenhaus, Stadt","type":"Stadt"},"district":{"key":"03456","name":"Grafschaft Bentheim","type":"Landkreis"},"federalState":{"key":"03","name":"Niedersachsen"}},{"name":"Finkenweg","postalCode":"49828","locality":"Neuenhaus","municipality":{"key":"03456014","name":"Neuenhaus, Stadt","type":"Stadt"},"district":{"key":"03456","name":"Grafschaft Bentheim","type":"Landkreis"},"federalState":{"key":"03","name":"Niedersachsen"}},{"name":"Fliederstr.","postalCode":"49828","locality":"Neuenhaus","municipality":{"key":"03456014","name":"Neuenhaus, Stadt","type":"Stadt"},"district":{"key":"03456","name":"Grafschaft Bentheim","type":"Landkreis"},"federalState":{"key":"03","name":"Niedersachsen"}},{"name":"Fohlenstr.","postalCode":"49828","locality":"Neuenhaus","municipality":{"key":"03456014","name":"Neuenhaus, Stadt","type":"Stadt"},"district":{"key":"03456","name":"Grafschaft Bentheim","type":"Landkreis"},"federalState":{"key":"03","name":"Niedersachsen"}},{"name":"Freiherr-vom-Stein-Str.","postalCode":"49828","locality":"Neuenhaus","municipality":{"key":"03456014","name":"Neuenhaus, Stadt","type":"Stadt"},"district":{"key":"03456","name":"Grafschaft Bentheim","type":"Landkreis"},"federalState":{"key":"03","name":"Niedersachsen"}},{"name":"Frieda-Nading-Str.","postalCode":"49828","locality":"Neuenhaus","municipality":{"key":"03456014","name":"Neuenhaus, Stadt","type":"Stadt"},"district":{"key":"03456","name":"Grafschaft Bentheim","type":"Landkreis"},"federalState":{"key":"03","name":"Niedersachsen"}},{"name":"Friedastr.","postalCode":"49828","locality":"Neuenhaus","municipality":{"key":"03456014","name":"Neuenhaus, Stadt","type":"Stadt"},"district":{"key":"03456","name":"Grafschaft Bentheim","type":"Landkreis"},"federalState":{"key":"03","name":"Niedersachsen"}},{"name":"Fuchsienstr.","postalCode":"49828","locality":"Neuenhaus","municipality":{"key":"03456014","name":"Neuenhaus, Stadt","type":"Stadt"},"district":{"key":"03456","name":"Grafschaft Bentheim","type":"Landkreis"},"federalState":{"key":"03","name":"Niedersachsen"}},{"name":"Fürstenstr.","postalCode":"49828","locality":"Neuenhaus","municipality":{"key":"03456014","name":"Neuenhaus, Stadt","type":"Stadt"},"district":{"key":"03456","name":"Grafschaft Bentheim","type":"Landkreis"},"federalState":{"key":"03","name":"Niedersachsen"}},{"name":"Galgensteege","postalCode":"49828","locality":"Neuenhaus","municipality":{"key":"03456014","name":"Neuenhaus, Stadt","type":"Stadt"},"district":{"key":"03456","name":"Grafschaft Bentheim","type":"Landkreis"},"federalState":{"key":"03","name":"Niedersachsen"}},{"name":"Gartenstr.","postalCode":"49828","locality":"Neuenhaus","municipality":{"key":"03456014","name":"Neuenhaus, Stadt","type":"Stadt"},"district":{"key":"03456","name":"Grafschaft Bentheim","type":"Landkreis"},"federalState":{"key":"03","name":"Niedersachsen"}},{"name":"Georgsdorfer Str.","postalCode":"49828","locality":"Neuenhaus","municipality":{"key":"03456014","name":"Neuenhaus, Stadt","type":"Stadt"},"district":{"key":"03456","name":"Grafschaft Bentheim","type":"Landkreis"},"federalState":{"key":"03","name":"Niedersachsen"}},{"name":"Gerdastr.","postalCode":"49828","locality":"Neuenhaus","municipality":{"key":"03456014","name":"Neuenhaus, Stadt","type":"Stadt"},"district":{"key":"03456","name":"Grafschaft Bentheim","type":"Landkreis"},"federalState":{"key":"03","name":"Niedersachsen"}},{"name":"Ginsterweg","postalCode":"49828","locality":"Neuenhaus","municipality":{"key":"03456014","name":"Neuenhaus, Stadt","type":"Stadt"},"district":{"key":"03456","name":"Grafschaft Bentheim","type":"Landkreis"},"federalState":{"key":"03","name":"Niedersachsen"}},{"name":"Gladiolenstr.","postalCode":"49828","locality":"Neuenhaus","municipality":{"key":"03456014","name":"Neuenhaus, Stadt","type":"Stadt"},"district":{"key":"03456","name":"Grafschaft Bentheim","type":"Landkreis"},"federalState":{"key":"03","name":"Niedersachsen"}},{"name":"Goldammerweg","postalCode":"49828","locality":"Neuenhaus","municipality":{"key":"03456014","name":"Neuenhaus, Stadt","type":"Stadt"},"district":{"key":"03456","name":"Grafschaft Bentheim","type":"Landkreis"},"federalState":{"key":"03","name":"Niedersachsen"}},{"name":"Gölenkamper Str.","postalCode":"49828","locality":"Neuenhaus","municipality":{"key":"03456014","name":"Neuenhaus, Stadt","type":"Stadt"},"district":{"key":"03456","name":"Grafschaft Bentheim","type":"Landkreis"},"federalState":{"key":"03","name":"Niedersachsen"}},{"name":"Gommerstiege","postalCode":"49828","locality":"Neuenhaus","municipality":{"key":"03456014","name":"Neuenhaus, Stadt","type":"Stadt"},"district":{"key":"03456","name":"Grafschaft Bentheim","type":"Landkreis"},"federalState":{"key":"03","name":"Niedersachsen"}},{"name":"Gommersweg","postalCode":"49828","locality":"Neuenhaus","municipality":{"key":"03456014","name":"Neuenhaus, Stadt","type":"Stadt"},"district":{"key":"03456","name":"Grafschaft Bentheim","type":"Landkreis"},"federalState":{"key":"03","name":"Niedersachsen"}},{"name":"Grafenstr.","postalCode":"49828","locality":"Neuenhaus","municipality":{"key":"03456014","name":"Neuenhaus, Stadt","type":"Stadt"},"district":{"key":"03456","name":"Grafschaft Bentheim","type":"Landkreis"},"federalState":{"key":"03","name":"Niedersachsen"}},{"name":"Grasdorfer Weg","postalCode":"49828","locality":"Neuenhaus","municipality":{"key":"03456014","name":"Neuenhaus, Stadt","type":"Stadt"},"district":{"key":"03456","name":"Grafschaft Bentheim","type":"Landkreis"},"federalState":{"key":"03","name":"Niedersachsen"}},{"name":"Grasmückenweg","postalCode":"49828","locality":"Neuenhaus","municipality":{"key":"03456014","name":"Neuenhaus, Stadt","type":"Stadt"},"district":{"key":"03456","name":"Grafschaft Bentheim","type":"Landkreis"},"federalState":{"key":"03","name":"Niedersachsen"}},{"name":"Grenzpfad","postalCode":"49828","locality":"Neuenhaus","municipality":{"key":"03456014","name":"Neuenhaus, Stadt","type":"Stadt"},"district":{"key":"03456","name":"Grafschaft Bentheim","type":"Landkreis"},"federalState":{"key":"03","name":"Niedersachsen"}},{"name":"Grenzstr.","postalCode":"49828","locality":"Neuenhaus","municipality":{"key":"03456014","name":"Neuenhaus, Stadt","type":"Stadt"},"district":{"key":"03456","name":"Grafschaft Bentheim","type":"Landkreis"},"federalState":{"key":"03","name":"Niedersachsen"}},{"name":"Grüner Weg","postalCode":"49828","locality":"Neuenhaus","municipality":{"key":"03456014","name":"Neuenhaus, Stadt","type":"Stadt"},"district":{"key":"03456","name":"Grafschaft Bentheim","type":"Landkreis"},"federalState":{"key":"03","name":"Niedersachsen"}},{"name":"Haardiek","postalCode":"49828","locality":"Neuenhaus","municipality":{"key":"03456014","name":"Neuenhaus, Stadt","type":"Stadt"},"district":{"key":"03456","name":"Grafschaft Bentheim","type":"Landkreis"},"federalState":{"key":"03","name":"Niedersachsen"}},{"name":"Habichtstr.","postalCode":"49828","locality":"Neuenhaus","municipality":{"key":"03456014","name":"Neuenhaus, Stadt","type":"Stadt"},"district":{"key":"03456","name":"Grafschaft Bentheim","type":"Landkreis"},"federalState":{"key":"03","name":"Niedersachsen"}},{"name":"Hachtdiek","postalCode":"49828","locality":"Neuenhaus","municipality":{"key":"03456014","name":"Neuenhaus, Stadt","type":"Stadt"},"district":{"key":"03456","name":"Grafschaft Bentheim","type":"Landkreis"},"federalState":{"key":"03","name":"Niedersachsen"}},{"name":"Hafenstr.","postalCode":"49828","locality":"Neuenhaus","municipality":{"key":"03456014","name":"Neuenhaus, Stadt","type":"Stadt"},"district":{"key":"03456","name":"Grafschaft Bentheim","type":"Landkreis"},"federalState":{"key":"03","name":"Niedersachsen"}},{"name":"Haferkamp","postalCode":"49828","locality":"Neuenhaus","municipality":{"key":"03456014","name":"Neuenhaus, Stadt","type":"Stadt"},"district":{"key":"03456","name":"Grafschaft Bentheim","type":"Landkreis"},"federalState":{"key":"03","name":"Niedersachsen"}},{"name":"Hakenstr.","postalCode":"49828","locality":"Neuenhaus","municipality":{"key":"03456014","name":"Neuenhaus, Stadt","type":"Stadt"},"district":{"key":"03456","name":"Grafschaft Bentheim","type":"Landkreis"},"federalState":{"key":"03","name":"Niedersachsen"}},{"name":"Hardenbergstr.","postalCode":"49828","locality":"Neuenhaus","municipality":{"key":"03456014","name":"Neuenhaus, Stadt","type":"Stadt"},"district":{"key":"03456","name":"Grafschaft Bentheim","type":"Landkreis"},"federalState":{"key":"03","name":"Niedersachsen"}},{"name":"Hardinger Str.","postalCode":"49828","locality":"Neuenhaus","municipality":{"key":"03456014","name":"Neuenhaus, Stadt","type":"Stadt"},"district":{"key":"03456","name":"Grafschaft Bentheim","type":"Landkreis"},"federalState":{"key":"03","name":"Niedersachsen"}},{"name":"Harmtienstr.","postalCode":"49828","locality":"Neuenhaus","municipality":{"key":"03456014","name":"Neuenhaus, Stadt","type":"Stadt"},"district":{"key":"03456","name":"Grafschaft Bentheim","type":"Landkreis"},"federalState":{"key":"03","name":"Niedersachsen"}},{"name":"Hauptstr.","postalCode":"49828","locality":"Neuenhaus","municipality":{"key":"03456014","name":"Neuenhaus, Stadt","type":"Stadt"},"district":{"key":"03456","name":"Grafschaft Bentheim","type":"Landkreis"},"federalState":{"key":"03","name":"Niedersachsen"}},{"name":"Hedwigstr.","postalCode":"49828","locality":"Neuenhaus","municipality":{"key":"03456014","name":"Neuenhaus, Stadt","type":"Stadt"},"district":{"key":"03456","name":"Grafschaft Bentheim","type":"Landkreis"},"federalState":{"key":"03","name":"Niedersachsen"}},{"name":"Hegelstr.","postalCode":"49828","locality":"Neuenhaus","municipality":{"key":"03456014","name":"Neuenhaus, Stadt","type":"Stadt"},"district":{"key":"03456","name":"Grafschaft Bentheim","type":"Landkreis"},"federalState":{"key":"03","name":"Niedersachsen"}},{"name":"Heinrich-Winkelmann-Str.","postalCode":"49828","locality":"Neuenhaus","municipality":{"key":"03456014","name":"Neuenhaus, Stadt","type":"Stadt"},"district":{"key":"03456","name":"Grafschaft Bentheim","type":"Landkreis"},"federalState":{"key":"03","name":"Niedersachsen"}},{"name":"Helene-Weber-Str.","postalCode":"49828","locality":"Neuenhaus","municipality":{"key":"03456014","name":"Neuenhaus, Stadt","type":"Stadt"},"district":{"key":"03456","name":"Grafschaft Bentheim","type":"Landkreis"},"federalState":{"key":"03","name":"Niedersachsen"}},{"name":"Helene-Wessel-Str.","postalCode":"49828","locality":"Neuenhaus","municipality":{"key":"03456014","name":"Neuenhaus, Stadt","type":"Stadt"},"district":{"key":"03456","name":"Grafschaft Bentheim","type":"Landkreis"},"federalState":{"key":"03","name":"Niedersachsen"}},{"name":"Hertastr.","postalCode":"49828","locality":"Neuenhaus","municipality":{"key":"03456014","name":"Neuenhaus, Stadt","type":"Stadt"},"district":{"key":"03456","name":"Grafschaft Bentheim","type":"Landkreis"},"federalState":{"key":"03","name":"Niedersachsen"}},{"name":"Heysenstiege","postalCode":"49828","locality":"Neuenhaus","municipality":{"key":"03456014","name":"Neuenhaus, Stadt","type":"Stadt"},"district":{"key":"03456","name":"Grafschaft Bentheim","type":"Landkreis"},"federalState":{"key":"03","name":"Niedersachsen"}},{"name":"Hildegardstr.","postalCode":"49828","locality":"Neuenhaus","municipality":{"key":"03456014","name":"Neuenhaus, Stadt","type":"Stadt"},"district":{"key":"03456","name":"Grafschaft Bentheim","type":"Landkreis"},"federalState":{"key":"03","name":"Niedersachsen"}},{"name":"Hillger Hoff","postalCode":"49828","locality":"Neuenhaus","municipality":{"key":"03456014","name":"Neuenhaus, Stadt","type":"Stadt"},"district":{"key":"03456","name":"Grafschaft Bentheim","type":"Landkreis"},"federalState":{"key":"03","name":"Niedersachsen"}},{"name":"Hiltener Weg","postalCode":"49828","locality":"Neuenhaus","municipality":{"key":"03456014","name":"Neuenhaus, Stadt","type":"Stadt"},"district":{"key":"03456","name":"Grafschaft Bentheim","type":"Landkreis"},"federalState":{"key":"03","name":"Niedersachsen"}},{"name":"Hinterstr.","postalCode":"49828","locality":"Neuenhaus","municipality":{"key":"03456014","name":"Neuenhaus, Stadt","type":"Stadt"},"district":{"key":"03456","name":"Grafschaft Bentheim","type":"Landkreis"},"federalState":{"key":"03","name":"Niedersachsen"}},{"name":"Hoffbeckenweg","postalCode":"49828","locality":"Neuenhaus","municipality":{"key":"03456014","name":"Neuenhaus, Stadt","type":"Stadt"},"district":{"key":"03456","name":"Grafschaft Bentheim","type":"Landkreis"},"federalState":{"key":"03","name":"Niedersachsen"}},{"name":"Hoffweg","postalCode":"49828","locality":"Neuenhaus","municipality":{"key":"03456014","name":"Neuenhaus, Stadt","type":"Stadt"},"district":{"key":"03456","name":"Grafschaft Bentheim","type":"Landkreis"},"federalState":{"key":"03","name":"Niedersachsen"}},{"name":"Hohenhorst","postalCode":"49828","locality":"Neuenhaus","municipality":{"key":"03456014","name":"Neuenhaus, Stadt","type":"Stadt"},"district":{"key":"03456","name":"Grafschaft Bentheim","type":"Landkreis"},"federalState":{"key":"03","name":"Niedersachsen"}},{"name":"Holunderweg","postalCode":"49828","locality":"Neuenhaus","municipality":{"key":"03456014","name":"Neuenhaus, Stadt","type":"Stadt"},"district":{"key":"03456","name":"Grafschaft Bentheim","type":"Landkreis"},"federalState":{"key":"03","name":"Niedersachsen"}},{"name":"Hyazinthenring","postalCode":"49828","locality":"Neuenhaus","municipality":{"key":"03456014","name":"Neuenhaus, Stadt","type":"Stadt"},"district":{"key":"03456","name":"Grafschaft Bentheim","type":"Landkreis"},"federalState":{"key":"03","name":"Niedersachsen"}},{"name":"Ilexweg","postalCode":"49828","locality":"Neuenhaus","municipality":{"key":"03456014","name":"Neuenhaus, Stadt","type":"Stadt"},"district":{"key":"03456","name":"Grafschaft Bentheim","type":"Landkreis"},"federalState":{"key":"03","name":"Niedersachsen"}},{"name":"Iltisstr.","postalCode":"49828","locality":"Neuenhaus","municipality":{"key":"03456014","name":"Neuenhaus, Stadt","type":"Stadt"},"district":{"key":"03456","name":"Grafschaft Bentheim","type":"Landkreis"},"federalState":{"key":"03","name":"Niedersachsen"}},{"name":"Im Mühlenpark","postalCode":"49828","locality":"Neuenhaus","municipality":{"key":"03456014","name":"Neuenhaus, Stadt","type":"Stadt"},"district":{"key":"03456","name":"Grafschaft Bentheim","type":"Landkreis"},"federalState":{"key":"03","name":"Niedersachsen"}},{"name":"Irisstr.","postalCode":"49828","locality":"Neuenhaus","municipality":{"key":"03456014","name":"Neuenhaus, Stadt","type":"Stadt"},"district":{"key":"03456","name":"Grafschaft Bentheim","type":"Landkreis"},"federalState":{"key":"03","name":"Niedersachsen"}},{"name":"Jahnstr.","postalCode":"49828","locality":"Neuenhaus","municipality":{"key":"03456014","name":"Neuenhaus, Stadt","type":"Stadt"},"district":{"key":"03456","name":"Grafschaft Bentheim","type":"Landkreis"},"federalState":{"key":"03","name":"Niedersachsen"}},{"name":"Jan-Albert-Blekker-Str.","postalCode":"49828","locality":"Neuenhaus","municipality":{"key":"03456014","name":"Neuenhaus, Stadt","type":"Stadt"},"district":{"key":"03456","name":"Grafschaft Bentheim","type":"Landkreis"},"federalState":{"key":"03","name":"Niedersachsen"}},{"name":"Jasminstr.","postalCode":"49828","locality":"Neuenhaus","municipality":{"key":"03456014","name":"Neuenhaus, Stadt","type":"Stadt"},"district":{"key":"03456","name":"Grafschaft Bentheim","type":"Landkreis"},"federalState":{"key":"03","name":"Niedersachsen"}},{"name":"Julius-Leber-Str.","postalCode":"49828","locality":"Neuenhaus","municipality":{"key":"03456014","name":"Neuenhaus, Stadt","type":"Stadt"},"district":{"key":"03456","name":"Grafschaft Bentheim","type":"Landkreis"},"federalState":{"key":"03","name":"Niedersachsen"}},{"name":"Kantstr.","postalCode":"49828","locality":"Neuenhaus","municipality":{"key":"03456014","name":"Neuenhaus, Stadt","type":"Stadt"},"district":{"key":"03456","name":"Grafschaft Bentheim","type":"Landkreis"},"federalState":{"key":"03","name":"Niedersachsen"}},{"name":"Karinstr.","postalCode":"49828","locality":"Neuenhaus","municipality":{"key":"03456014","name":"Neuenhaus, Stadt","type":"Stadt"},"district":{"key":"03456","name":"Grafschaft Bentheim","type":"Landkreis"},"federalState":{"key":"03","name":"Niedersachsen"}},{"name":"Karl-Naber-Str.","postalCode":"49828","locality":"Neuenhaus","municipality":{"key":"03456014","name":"Neuenhaus, Stadt","type":"Stadt"},"district":{"key":"03456","name":"Grafschaft Bentheim","type":"Landkreis"},"federalState":{"key":"03","name":"Niedersachsen"}},{"name":"Karl-Sauvagerd-Stiege","postalCode":"49828","locality":"Neuenhaus","municipality":{"key":"03456014","name":"Neuenhaus, Stadt","type":"Stadt"},"district":{"key":"03456","name":"Grafschaft Bentheim","type":"Landkreis"},"federalState":{"key":"03","name":"Niedersachsen"}},{"name":"Kastanienstr.","postalCode":"49828","locality":"Neuenhaus","municipality":{"key":"03456014","name":"Neuenhaus, Stadt","type":"Stadt"},"district":{"key":"03456","name":"Grafschaft Bentheim","type":"Landkreis"},"federalState":{"key":"03","name":"Niedersachsen"}},{"name":"Katharina-Heinroth-Str.","postalCode":"49828","locality":"Neuenhaus","municipality":{"key":"03456014","name":"Neuenhaus, Stadt","type":"Stadt"},"district":{"key":"03456","name":"Grafschaft Bentheim","type":"Landkreis"},"federalState":{"key":"03","name":"Niedersachsen"}},{"name":"Kiebitzstr.","postalCode":"49828","locality":"Neuenhaus","municipality":{"key":"03456014","name":"Neuenhaus, Stadt","type":"Stadt"},"district":{"key":"03456","name":"Grafschaft Bentheim","type":"Landkreis"},"federalState":{"key":"03","name":"Niedersachsen"}},{"name":"Kipstiege","postalCode":"49828","locality":"Neuenhaus","municipality":{"key":"03456014","name":"Neuenhaus, Stadt","type":"Stadt"},"district":{"key":"03456","name":"Grafschaft Bentheim","type":"Landkreis"},"federalState":{"key":"03","name":"Niedersachsen"}},{"name":"Kirchstr.","postalCode":"49828","locality":"Neuenhaus","municipality":{"key":"03456014","name":"Neuenhaus, Stadt","type":"Stadt"},"district":{"key":"03456","name":"Grafschaft Bentheim","type":"Landkreis"},"federalState":{"key":"03","name":"Niedersachsen"}},{"name":"Kirschbaumweg","postalCode":"49828","locality":"Neuenhaus","municipality":{"key":"03456014","name":"Neuenhaus, Stadt","type":"Stadt"},"district":{"key":"03456","name":"Grafschaft Bentheim","type":"Landkreis"},"federalState":{"key":"03","name":"Niedersachsen"}},{"name":"Kleefmannsweg","postalCode":"49828","locality":"Neuenhaus","municipality":{"key":"03456014","name":"Neuenhaus, Stadt","type":"Stadt"},"district":{"key":"03456","name":"Grafschaft Bentheim","type":"Landkreis"},"federalState":{"key":"03","name":"Niedersachsen"}},{"name":"Kleiststr.","postalCode":"49828","locality":"Neuenhaus","municipality":{"key":"03456014","name":"Neuenhaus, Stadt","type":"Stadt"},"district":{"key":"03456","name":"Grafschaft Bentheim","type":"Landkreis"},"federalState":{"key":"03","name":"Niedersachsen"}},{"name":"Klinkhamerstr.","postalCode":"49828","locality":"Neuenhaus","municipality":{"key":"03456014","name":"Neuenhaus, Stadt","type":"Stadt"},"district":{"key":"03456","name":"Grafschaft Bentheim","type":"Landkreis"},"federalState":{"key":"03","name":"Niedersachsen"}},{"name":"Knollendiek","postalCode":"49828","locality":"Neuenhaus","municipality":{"key":"03456014","name":"Neuenhaus, Stadt","type":"Stadt"},"district":{"key":"03456","name":"Grafschaft Bentheim","type":"Landkreis"},"federalState":{"key":"03","name":"Niedersachsen"}},{"name":"Kohdiek","postalCode":"49828","locality":"Neuenhaus","municipality":{"key":"03456014","name":"Neuenhaus, Stadt","type":"Stadt"},"district":{"key":"03456","name":"Grafschaft Bentheim","type":"Landkreis"},"federalState":{"key":"03","name":"Niedersachsen"}},{"name":"Kokkelinksvenne","postalCode":"49828","locality":"Neuenhaus","municipality":{"key":"03456014","name":"Neuenhaus, Stadt","type":"Stadt"},"district":{"key":"03456","name":"Grafschaft Bentheim","type":"Landkreis"},"federalState":{"key":"03","name":"Niedersachsen"}},{"name":"Kolberger Str.","postalCode":"49828","locality":"Neuenhaus","municipality":{"key":"03456014","name":"Neuenhaus, Stadt","type":"Stadt"},"district":{"key":"03456","name":"Grafschaft Bentheim","type":"Landkreis"},"federalState":{"key":"03","name":"Niedersachsen"}},{"name":"Kollwitzstr.","postalCode":"49828","locality":"Neuenhaus","municipality":{"key":"03456014","name":"Neuenhaus, Stadt","type":"Stadt"},"district":{"key":"03456","name":"Grafschaft Bentheim","type":"Landkreis"},"federalState":{"key":"03","name":"Niedersachsen"}},{"name":"Königsberger Str.","postalCode":"49828","locality":"Neuenhaus","municipality":{"key":"03456014","name":"Neuenhaus, Stadt","type":"Stadt"},"district":{"key":"03456","name":"Grafschaft Bentheim","type":"Landkreis"},"federalState":{"key":"03","name":"Niedersachsen"}},{"name":"Koppelstr.","postalCode":"49828","locality":"Neuenhaus","municipality":{"key":"03456014","name":"Neuenhaus, Stadt","type":"Stadt"},"district":{"key":"03456","name":"Grafschaft Bentheim","type":"Landkreis"},"federalState":{"key":"03","name":"Niedersachsen"}},{"name":"Kornblumenstr.","postalCode":"49828","locality":"Neuenhaus","municipality":{"key":"03456014","name":"Neuenhaus, Stadt","type":"Stadt"},"district":{"key":"03456","name":"Grafschaft Bentheim","type":"Landkreis"},"federalState":{"key":"03","name":"Niedersachsen"}},{"name":"Kranichring","postalCode":"49828","locality":"Neuenhaus","municipality":{"key":"03456014","name":"Neuenhaus, Stadt","type":"Stadt"},"district":{"key":"03456","name":"Grafschaft Bentheim","type":"Landkreis"},"federalState":{"key":"03","name":"Niedersachsen"}},{"name":"Krokusstr.","postalCode":"49828","locality":"Neuenhaus","municipality":{"key":"03456014","name":"Neuenhaus, Stadt","type":"Stadt"},"district":{"key":"03456","name":"Grafschaft Bentheim","type":"Landkreis"},"federalState":{"key":"03","name":"Niedersachsen"}},{"name":"Krullskamp","postalCode":"49828","locality":"Neuenhaus","municipality":{"key":"03456014","name":"Neuenhaus, Stadt","type":"Stadt"},"district":{"key":"03456","name":"Grafschaft Bentheim","type":"Landkreis"},"federalState":{"key":"03","name":"Niedersachsen"}},{"name":"Laardiek","postalCode":"49828","locality":"Neuenhaus","municipality":{"key":"03456014","name":"Neuenhaus, Stadt","type":"Stadt"},"district":{"key":"03456","name":"Grafschaft Bentheim","type":"Landkreis"},"federalState":{"key":"03","name":"Niedersachsen"}},{"name":"Laarkamp","postalCode":"49828","locality":"Neuenhaus","municipality":{"key":"03456014","name":"Neuenhaus, Stadt","type":"Stadt"},"district":{"key":"03456","name":"Grafschaft Bentheim","type":"Landkreis"},"federalState":{"key":"03","name":"Niedersachsen"}},{"name":"Lager Str.","postalCode":"49828","locality":"Neuenhaus","municipality":{"key":"03456014","name":"Neuenhaus, Stadt","type":"Stadt"},"district":{"key":"03456","name":"Grafschaft Bentheim","type":"Landkreis"},"federalState":{"key":"03","name":"Niedersachsen"}},{"name":"Langen Barg","postalCode":"49828","locality":"Neuenhaus","municipality":{"key":"03456014","name":"Neuenhaus, Stadt","type":"Stadt"},"district":{"key":"03456","name":"Grafschaft Bentheim","type":"Landkreis"},"federalState":{"key":"03","name":"Niedersachsen"}},{"name":"Langen Diek","postalCode":"49828","locality":"Neuenhaus","municipality":{"key":"03456014","name":"Neuenhaus, Stadt","type":"Stadt"},"district":{"key":"03456","name":"Grafschaft Bentheim","type":"Landkreis"},"federalState":{"key":"03","name":"Niedersachsen"}},{"name":"Langersfeld","postalCode":"49828","locality":"Neuenhaus","municipality":{"key":"03456014","name":"Neuenhaus, Stadt","type":"Stadt"},"district":{"key":"03456","name":"Grafschaft Bentheim","type":"Landkreis"},"federalState":{"key":"03","name":"Niedersachsen"}},{"name":"Laubsängerweg","postalCode":"49828","locality":"Neuenhaus","municipality":{"key":"03456014","name":"Neuenhaus, Stadt","type":"Stadt"},"district":{"key":"03456","name":"Grafschaft Bentheim","type":"Landkreis"},"federalState":{"key":"03","name":"Niedersachsen"}},{"name":"Lavendelweg","postalCode":"49828","locality":"Neuenhaus","municipality":{"key":"03456014","name":"Neuenhaus, Stadt","type":"Stadt"},"district":{"key":"03456","name":"Grafschaft Bentheim","type":"Landkreis"},"federalState":{"key":"03","name":"Niedersachsen"}},{"name":"Leipziger Str.","postalCode":"49828","locality":"Neuenhaus","municipality":{"key":"03456014","name":"Neuenhaus, Stadt","type":"Stadt"},"district":{"key":"03456","name":"Grafschaft Bentheim","type":"Landkreis"},"federalState":{"key":"03","name":"Niedersachsen"}},{"name":"Lemker Weg","postalCode":"49828","locality":"Neuenhaus","municipality":{"key":"03456014","name":"Neuenhaus, Stadt","type":"Stadt"},"district":{"key":"03456","name":"Grafschaft Bentheim","type":"Landkreis"},"federalState":{"key":"03","name":"Niedersachsen"}},{"name":"Ligusterweg","postalCode":"49828","locality":"Neuenhaus","municipality":{"key":"03456014","name":"Neuenhaus, Stadt","type":"Stadt"},"district":{"key":"03456","name":"Grafschaft Bentheim","type":"Landkreis"},"federalState":{"key":"03","name":"Niedersachsen"}},{"name":"Lilienweg","postalCode":"49828","locality":"Neuenhaus","municipality":{"key":"03456014","name":"Neuenhaus, Stadt","type":"Stadt"},"district":{"key":"03456","name":"Grafschaft Bentheim","type":"Landkreis"},"federalState":{"key":"03","name":"Niedersachsen"}},{"name":"Lindertschen Diek","postalCode":"49828","locality":"Neuenhaus","municipality":{"key":"03456014","name":"Neuenhaus, Stadt","type":"Stadt"},"district":{"key":"03456","name":"Grafschaft Bentheim","type":"Landkreis"},"federalState":{"key":"03","name":"Niedersachsen"}},{"name":"Lingener Str.","postalCode":"49828","locality":"Neuenhaus","municipality":{"key":"03456014","name":"Neuenhaus, Stadt","type":"Stadt"},"district":{"key":"03456","name":"Grafschaft Bentheim","type":"Landkreis"},"federalState":{"key":"03","name":"Niedersachsen"}},{"name":"Lönsweg","postalCode":"49828","locality":"Neuenhaus","municipality":{"key":"03456014","name":"Neuenhaus, Stadt","type":"Stadt"},"district":{"key":"03456","name":"Grafschaft Bentheim","type":"Landkreis"},"federalState":{"key":"03","name":"Niedersachsen"}},{"name":"Lortzingstr.","postalCode":"49828","locality":"Neuenhaus","municipality":{"key":"03456014","name":"Neuenhaus, Stadt","type":"Stadt"},"district":{"key":"03456","name":"Grafschaft Bentheim","type":"Landkreis"},"federalState":{"key":"03","name":"Niedersachsen"}},{"name":"Ludwig-Sager-Str.","postalCode":"49828","locality":"Neuenhaus","municipality":{"key":"03456014","name":"Neuenhaus, Stadt","type":"Stadt"},"district":{"key":"03456","name":"Grafschaft Bentheim","type":"Landkreis"},"federalState":{"key":"03","name":"Niedersachsen"}},{"name":"Luisenstr.","postalCode":"49828","locality":"Neuenhaus","municipality":{"key":"03456014","name":"Neuenhaus, Stadt","type":"Stadt"},"district":{"key":"03456","name":"Grafschaft Bentheim","type":"Landkreis"},"federalState":{"key":"03","name":"Niedersachsen"}},{"name":"Lupinenweg","postalCode":"49828","locality":"Neuenhaus","municipality":{"key":"03456014","name":"Neuenhaus, Stadt","type":"Stadt"},"district":{"key":"03456","name":"Grafschaft Bentheim","type":"Landkreis"},"federalState":{"key":"03","name":"Niedersachsen"}},{"name":"Mählersgrund","postalCode":"49828","locality":"Neuenhaus","municipality":{"key":"03456014","name":"Neuenhaus, Stadt","type":"Stadt"},"district":{"key":"03456","name":"Grafschaft Bentheim","type":"Landkreis"},"federalState":{"key":"03","name":"Niedersachsen"}},{"name":"Malvenstr.","postalCode":"49828","locality":"Neuenhaus","municipality":{"key":"03456014","name":"Neuenhaus, Stadt","type":"Stadt"},"district":{"key":"03456","name":"Grafschaft Bentheim","type":"Landkreis"},"federalState":{"key":"03","name":"Niedersachsen"}},{"name":"Marderweg","postalCode":"49828","locality":"Neuenhaus","municipality":{"key":"03456014","name":"Neuenhaus, Stadt","type":"Stadt"},"district":{"key":"03456","name":"Grafschaft Bentheim","type":"Landkreis"},"federalState":{"key":"03","name":"Niedersachsen"}},{"name":"Margeritenweg","postalCode":"49828","locality":"Neuenhaus","municipality":{"key":"03456014","name":"Neuenhaus, Stadt","type":"Stadt"},"district":{"key":"03456","name":"Grafschaft Bentheim","type":"Landkreis"},"federalState":{"key":"03","name":"Niedersachsen"}},{"name":"Marktstr.","postalCode":"49828","locality":"Neuenhaus","municipality":{"key":"03456014","name":"Neuenhaus, Stadt","type":"Stadt"},"district":{"key":"03456","name":"Grafschaft Bentheim","type":"Landkreis"},"federalState":{"key":"03","name":"Niedersachsen"}},{"name":"Meisenweg","postalCode":"49828","locality":"Neuenhaus","municipality":{"key":"03456014","name":"Neuenhaus, Stadt","type":"Stadt"},"district":{"key":"03456","name":"Grafschaft Bentheim","type":"Landkreis"},"federalState":{"key":"03","name":"Niedersachsen"}},{"name":"Menzelstr.","postalCode":"49828","locality":"Neuenhaus","municipality":{"key":"03456014","name":"Neuenhaus, Stadt","type":"Stadt"},"district":{"key":"03456","name":"Grafschaft Bentheim","type":"Landkreis"},"federalState":{"key":"03","name":"Niedersachsen"}},{"name":"Miquelstr.","postalCode":"49828","locality":"Neuenhaus","municipality":{"key":"03456014","name":"Neuenhaus, Stadt","type":"Stadt"},"district":{"key":"03456","name":"Grafschaft Bentheim","type":"Landkreis"},"federalState":{"key":"03","name":"Niedersachsen"}},{"name":"Mohnweg","postalCode":"49828","locality":"Neuenhaus","municipality":{"key":"03456014","name":"Neuenhaus, Stadt","type":"Stadt"},"district":{"key":"03456","name":"Grafschaft Bentheim","type":"Landkreis"},"federalState":{"key":"03","name":"Niedersachsen"}},{"name":"Möhrenweg","postalCode":"49828","locality":"Neuenhaus","municipality":{"key":"03456014","name":"Neuenhaus, Stadt","type":"Stadt"},"district":{"key":"03456","name":"Grafschaft Bentheim","type":"Landkreis"},"federalState":{"key":"03","name":"Niedersachsen"}},{"name":"Mons Hof","postalCode":"49828","locality":"Neuenhaus","municipality":{"key":"03456014","name":"Neuenhaus, Stadt","type":"Stadt"},"district":{"key":"03456","name":"Grafschaft Bentheim","type":"Landkreis"},"federalState":{"key":"03","name":"Niedersachsen"}},{"name":"Morsstr.","postalCode":"49828","locality":"Neuenhaus","municipality":{"key":"03456014","name":"Neuenhaus, Stadt","type":"Stadt"},"district":{"key":"03456","name":"Grafschaft Bentheim","type":"Landkreis"},"federalState":{"key":"03","name":"Niedersachsen"}},{"name":"Moßweg","postalCode":"49828","locality":"Neuenhaus","municipality":{"key":"03456014","name":"Neuenhaus, Stadt","type":"Stadt"},"district":{"key":"03456","name":"Grafschaft Bentheim","type":"Landkreis"},"federalState":{"key":"03","name":"Niedersachsen"}},{"name":"Möwenstr.","postalCode":"49828","locality":"Neuenhaus","municipality":{"key":"03456014","name":"Neuenhaus, Stadt","type":"Stadt"},"district":{"key":"03456","name":"Grafschaft Bentheim","type":"Landkreis"},"federalState":{"key":"03","name":"Niedersachsen"}},{"name":"Mozartstr.","postalCode":"49828","locality":"Neuenhaus","municipality":{"key":"03456014","name":"Neuenhaus, Stadt","type":"Stadt"},"district":{"key":"03456","name":"Grafschaft Bentheim","type":"Landkreis"},"federalState":{"key":"03","name":"Niedersachsen"}},{"name":"Mühlenstr.","postalCode":"49828","locality":"Neuenhaus","municipality":{"key":"03456014","name":"Neuenhaus, Stadt","type":"Stadt"},"district":{"key":"03456","name":"Grafschaft Bentheim","type":"Landkreis"},"federalState":{"key":"03","name":"Niedersachsen"}},{"name":"Museumsweg","postalCode":"49828","locality":"Neuenhaus","municipality":{"key":"03456014","name":"Neuenhaus, Stadt","type":"Stadt"},"district":{"key":"03456","name":"Grafschaft Bentheim","type":"Landkreis"},"federalState":{"key":"03","name":"Niedersachsen"}},{"name":"Nachtigallenweg","postalCode":"49828","locality":"Neuenhaus","municipality":{"key":"03456014","name":"Neuenhaus, Stadt","type":"Stadt"},"district":{"key":"03456","name":"Grafschaft Bentheim","type":"Landkreis"},"federalState":{"key":"03","name":"Niedersachsen"}},{"name":"Narzissengasse","postalCode":"49828","locality":"Neuenhaus","municipality":{"key":"03456014","name":"Neuenhaus, Stadt","type":"Stadt"},"district":{"key":"03456","name":"Grafschaft Bentheim","type":"Landkreis"},"federalState":{"key":"03","name":"Niedersachsen"}},{"name":"Neegen Barge","postalCode":"49828","locality":"Neuenhaus","municipality":{"key":"03456014","name":"Neuenhaus, Stadt","type":"Stadt"},"district":{"key":"03456","name":"Grafschaft Bentheim","type":"Landkreis"},"federalState":{"key":"03","name":"Niedersachsen"}},{"name":"Negen Barge","postalCode":"49828","locality":"Neuenhaus","municipality":{"key":"03456014","name":"Neuenhaus, Stadt","type":"Stadt"},"district":{"key":"03456","name":"Grafschaft Bentheim","type":"Landkreis"},"federalState":{"key":"03","name":"Niedersachsen"}},{"name":"Nelkenstr.","postalCode":"49828","locality":"Neuenhaus","municipality":{"key":"03456014","name":"Neuenhaus, Stadt","type":"Stadt"},"district":{"key":"03456","name":"Grafschaft Bentheim","type":"Landkreis"},"federalState":{"key":"03","name":"Niedersachsen"}},{"name":"Nerling","postalCode":"49828","locality":"Neuenhaus","municipality":{"key":"03456014","name":"Neuenhaus, Stadt","type":"Stadt"},"district":{"key":"03456","name":"Grafschaft Bentheim","type":"Landkreis"},"federalState":{"key":"03","name":"Niedersachsen"}},{"name":"Neulandstr.","postalCode":"49828","locality":"Neuenhaus","municipality":{"key":"03456014","name":"Neuenhaus, Stadt","type":"Stadt"},"district":{"key":"03456","name":"Grafschaft Bentheim","type":"Landkreis"},"federalState":{"key":"03","name":"Niedersachsen"}},{"name":"Neumarktstiege","postalCode":"49828","locality":"Neuenhaus","municipality":{"key":"03456014","name":"Neuenhaus, Stadt","type":"Stadt"},"district":{"key":"03456","name":"Grafschaft Bentheim","type":"Landkreis"},"federalState":{"key":"03","name":"Niedersachsen"}},{"name":"Nordhorner Str.","postalCode":"49828","locality":"Neuenhaus","municipality":{"key":"03456014","name":"Neuenhaus, Stadt","type":"Stadt"},"district":{"key":"03456","name":"Grafschaft Bentheim","type":"Landkreis"},"federalState":{"key":"03","name":"Niedersachsen"}},{"name":"Nord-West-Ring","postalCode":"49828","locality":"Neuenhaus","municipality":{"key":"03456014","name":"Neuenhaus, Stadt","type":"Stadt"},"district":{"key":"03456","name":"Grafschaft Bentheim","type":"Landkreis"},"federalState":{"key":"03","name":"Niedersachsen"}},{"name":"Nußbaumweg","postalCode":"49828","locality":"Neuenhaus","municipality":{"key":"03456014","name":"Neuenhaus, Stadt","type":"Stadt"},"district":{"key":"03456","name":"Grafschaft Bentheim","type":"Landkreis"},"federalState":{"key":"03","name":"Niedersachsen"}},{"name":"Oelweg","postalCode":"49828","locality":"Neuenhaus","municipality":{"key":"03456014","name":"Neuenhaus, Stadt","type":"Stadt"},"district":{"key":"03456","name":"Grafschaft Bentheim","type":"Landkreis"},"federalState":{"key":"03","name":"Niedersachsen"}},{"name":"Orchideenweg","postalCode":"49828","locality":"Neuenhaus","municipality":{"key":"03456014","name":"Neuenhaus, Stadt","type":"Stadt"},"district":{"key":"03456","name":"Grafschaft Bentheim","type":"Landkreis"},"federalState":{"key":"03","name":"Niedersachsen"}},{"name":"Osterwalder Str.","postalCode":"49828","locality":"Neuenhaus","municipality":{"key":"03456014","name":"Neuenhaus, Stadt","type":"Stadt"},"district":{"key":"03456","name":"Grafschaft Bentheim","type":"Landkreis"},"federalState":{"key":"03","name":"Niedersachsen"}},{"name":"Papestr.","postalCode":"49828","locality":"Neuenhaus","municipality":{"key":"03456014","name":"Neuenhaus, Stadt","type":"Stadt"},"district":{"key":"03456","name":"Grafschaft Bentheim","type":"Landkreis"},"federalState":{"key":"03","name":"Niedersachsen"}},{"name":"Paul-Gerhardt-Str.","postalCode":"49828","locality":"Neuenhaus","municipality":{"key":"03456014","name":"Neuenhaus, Stadt","type":"Stadt"},"district":{"key":"03456","name":"Grafschaft Bentheim","type":"Landkreis"},"federalState":{"key":"03","name":"Niedersachsen"}},{"name":"Pestalozzistr.","postalCode":"49828","locality":"Neuenhaus","municipality":{"key":"03456014","name":"Neuenhaus, Stadt","type":"Stadt"},"district":{"key":"03456","name":"Grafschaft Bentheim","type":"Landkreis"},"federalState":{"key":"03","name":"Niedersachsen"}},{"name":"Pinienstr.","postalCode":"49828","locality":"Neuenhaus","municipality":{"key":"03456014","name":"Neuenhaus, Stadt","type":"Stadt"},"district":{"key":"03456","name":"Grafschaft Bentheim","type":"Landkreis"},"federalState":{"key":"03","name":"Niedersachsen"}},{"name":"Platanenweg","postalCode":"49828","locality":"Neuenhaus","municipality":{"key":"03456014","name":"Neuenhaus, Stadt","type":"Stadt"},"district":{"key":"03456","name":"Grafschaft Bentheim","type":"Landkreis"},"federalState":{"key":"03","name":"Niedersachsen"}},{"name":"Primelweg","postalCode":"49828","locality":"Neuenhaus","municipality":{"key":"03456014","name":"Neuenhaus, Stadt","type":"Stadt"},"district":{"key":"03456","name":"Grafschaft Bentheim","type":"Landkreis"},"federalState":{"key":"03","name":"Niedersachsen"}},{"name":"Prinzen Hof","postalCode":"49828","locality":"Neuenhaus","municipality":{"key":"03456014","name":"Neuenhaus, Stadt","type":"Stadt"},"district":{"key":"03456","name":"Grafschaft Bentheim","type":"Landkreis"},"federalState":{"key":"03","name":"Niedersachsen"}},{"name":"Prinzenstr.","postalCode":"49828","locality":"Neuenhaus","municipality":{"key":"03456014","name":"Neuenhaus, Stadt","type":"Stadt"},"district":{"key":"03456","name":"Grafschaft Bentheim","type":"Landkreis"},"federalState":{"key":"03","name":"Niedersachsen"}},{"name":"Rabenhauptstr.","postalCode":"49828","locality":"Neuenhaus","municipality":{"key":"03456014","name":"Neuenhaus, Stadt","type":"Stadt"},"district":{"key":"03456","name":"Grafschaft Bentheim","type":"Landkreis"},"federalState":{"key":"03","name":"Niedersachsen"}},{"name":"Rabenweg","postalCode":"49828","locality":"Neuenhaus","municipality":{"key":"03456014","name":"Neuenhaus, Stadt","type":"Stadt"},"district":{"key":"03456","name":"Grafschaft Bentheim","type":"Landkreis"},"federalState":{"key":"03","name":"Niedersachsen"}},{"name":"Rasenweg","postalCode":"49828","locality":"Neuenhaus","municipality":{"key":"03456014","name":"Neuenhaus, Stadt","type":"Stadt"},"district":{"key":"03456","name":"Grafschaft Bentheim","type":"Landkreis"},"federalState":{"key":"03","name":"Niedersachsen"}},{"name":"Rathausstiege","postalCode":"49828","locality":"Neuenhaus","municipality":{"key":"03456014","name":"Neuenhaus, Stadt","type":"Stadt"},"district":{"key":"03456","name":"Grafschaft Bentheim","type":"Landkreis"},"federalState":{"key":"03","name":"Niedersachsen"}},{"name":"Rebhuhnweg","postalCode":"49828","locality":"Neuenhaus","municipality":{"key":"03456014","name":"Neuenhaus, Stadt","type":"Stadt"},"district":{"key":"03456","name":"Grafschaft Bentheim","type":"Landkreis"},"federalState":{"key":"03","name":"Niedersachsen"}},{"name":"Reefmannsweg","postalCode":"49828","locality":"Neuenhaus","municipality":{"key":"03456014","name":"Neuenhaus, Stadt","type":"Stadt"},"district":{"key":"03456","name":"Grafschaft Bentheim","type":"Landkreis"},"federalState":{"key":"03","name":"Niedersachsen"}},{"name":"Rehweg","postalCode":"49828","locality":"Neuenhaus","municipality":{"key":"03456014","name":"Neuenhaus, Stadt","type":"Stadt"},"district":{"key":"03456","name":"Grafschaft Bentheim","type":"Landkreis"},"federalState":{"key":"03","name":"Niedersachsen"}},{"name":"Reiherweg","postalCode":"49828","locality":"Neuenhaus","municipality":{"key":"03456014","name":"Neuenhaus, Stadt","type":"Stadt"},"district":{"key":"03456","name":"Grafschaft Bentheim","type":"Landkreis"},"federalState":{"key":"03","name":"Niedersachsen"}},{"name":"Reitgaarstr.","postalCode":"49828","locality":"Neuenhaus","municipality":{"key":"03456014","name":"Neuenhaus, Stadt","type":"Stadt"},"district":{"key":"03456","name":"Grafschaft Bentheim","type":"Landkreis"},"federalState":{"key":"03","name":"Niedersachsen"}},{"name":"Richtweg","postalCode":"49828","locality":"Neuenhaus","municipality":{"key":"03456014","name":"Neuenhaus, Stadt","type":"Stadt"},"district":{"key":"03456","name":"Grafschaft Bentheim","type":"Landkreis"},"federalState":{"key":"03","name":"Niedersachsen"}},{"name":"Ringgasse","postalCode":"49828","locality":"Neuenhaus","municipality":{"key":"03456014","name":"Neuenhaus, Stadt","type":"Stadt"},"district":{"key":"03456","name":"Grafschaft Bentheim","type":"Landkreis"},"federalState":{"key":"03","name":"Niedersachsen"}},{"name":"Ringstr.","postalCode":"49828","locality":"Neuenhaus","municipality":{"key":"03456014","name":"Neuenhaus, Stadt","type":"Stadt"},"district":{"key":"03456","name":"Grafschaft Bentheim","type":"Landkreis"},"federalState":{"key":"03","name":"Niedersachsen"}},{"name":"Roggenkamp","postalCode":"49828","locality":"Neuenhaus","municipality":{"key":"03456014","name":"Neuenhaus, Stadt","type":"Stadt"},"district":{"key":"03456","name":"Grafschaft Bentheim","type":"Landkreis"},"federalState":{"key":"03","name":"Niedersachsen"}},{"name":"Rosenstr.","postalCode":"49828","locality":"Neuenhaus","municipality":{"key":"03456014","name":"Neuenhaus, Stadt","type":"Stadt"},"district":{"key":"03456","name":"Grafschaft Bentheim","type":"Landkreis"},"federalState":{"key":"03","name":"Niedersachsen"}},{"name":"Rostocker Str.","postalCode":"49828","locality":"Neuenhaus","municipality":{"key":"03456014","name":"Neuenhaus, Stadt","type":"Stadt"},"district":{"key":"03456","name":"Grafschaft Bentheim","type":"Landkreis"},"federalState":{"key":"03","name":"Niedersachsen"}},{"name":"Rotkehlchenstr.","postalCode":"49828","locality":"Neuenhaus","municipality":{"key":"03456014","name":"Neuenhaus, Stadt","type":"Stadt"},"district":{"key":"03456","name":"Grafschaft Bentheim","type":"Landkreis"},"federalState":{"key":"03","name":"Niedersachsen"}},{"name":"Rudolf-Diesel-Str.","postalCode":"49828","locality":"Neuenhaus","municipality":{"key":"03456014","name":"Neuenhaus, Stadt","type":"Stadt"},"district":{"key":"03456","name":"Grafschaft Bentheim","type":"Landkreis"},"federalState":{"key":"03","name":"Niedersachsen"}},{"name":"Rundweg","postalCode":"49828","locality":"Neuenhaus","municipality":{"key":"03456014","name":"Neuenhaus, Stadt","type":"Stadt"},"district":{"key":"03456","name":"Grafschaft Bentheim","type":"Landkreis"},"federalState":{"key":"03","name":"Niedersachsen"}},{"name":"Satingsbaane","postalCode":"49828","locality":"Neuenhaus","municipality":{"key":"03456014","name":"Neuenhaus, Stadt","type":"Stadt"},"district":{"key":"03456","name":"Grafschaft Bentheim","type":"Landkreis"},"federalState":{"key":"03","name":"Niedersachsen"}},{"name":"Schimmelweg","postalCode":"49828","locality":"Neuenhaus","municipality":{"key":"03456014","name":"Neuenhaus, Stadt","type":"Stadt"},"district":{"key":"03456","name":"Grafschaft Bentheim","type":"Landkreis"},"federalState":{"key":"03","name":"Niedersachsen"}},{"name":"Schlehenweg","postalCode":"49828","locality":"Neuenhaus","municipality":{"key":"03456014","name":"Neuenhaus, Stadt","type":"Stadt"},"district":{"key":"03456","name":"Grafschaft Bentheim","type":"Landkreis"},"federalState":{"key":"03","name":"Niedersachsen"}},{"name":"Schnepfenstiege","postalCode":"49828","locality":"Neuenhaus","municipality":{"key":"03456014","name":"Neuenhaus, Stadt","type":"Stadt"},"district":{"key":"03456","name":"Grafschaft Bentheim","type":"Landkreis"},"federalState":{"key":"03","name":"Niedersachsen"}},{"name":"Schubertstr.","postalCode":"49828","locality":"Neuenhaus","municipality":{"key":"03456014","name":"Neuenhaus, Stadt","type":"Stadt"},"district":{"key":"03456","name":"Grafschaft Bentheim","type":"Landkreis"},"federalState":{"key":"03","name":"Niedersachsen"}},{"name":"Schulenburgshof","postalCode":"49828","locality":"Neuenhaus","municipality":{"key":"03456014","name":"Neuenhaus, Stadt","type":"Stadt"},"district":{"key":"03456","name":"Grafschaft Bentheim","type":"Landkreis"},"federalState":{"key":"03","name":"Niedersachsen"}},{"name":"Schulstr.","postalCode":"49828","locality":"Neuenhaus","municipality":{"key":"03456014","name":"Neuenhaus, Stadt","type":"Stadt"},"district":{"key":"03456","name":"Grafschaft Bentheim","type":"Landkreis"},"federalState":{"key":"03","name":"Niedersachsen"}},{"name":"Schüürmannsweg","postalCode":"49828","locality":"Neuenhaus","municipality":{"key":"03456014","name":"Neuenhaus, Stadt","type":"Stadt"},"district":{"key":"03456","name":"Grafschaft Bentheim","type":"Landkreis"},"federalState":{"key":"03","name":"Niedersachsen"}},{"name":"Schwalbenstr.","postalCode":"49828","locality":"Neuenhaus","municipality":{"key":"03456014","name":"Neuenhaus, Stadt","type":"Stadt"},"district":{"key":"03456","name":"Grafschaft Bentheim","type":"Landkreis"},"federalState":{"key":"03","name":"Niedersachsen"}},{"name":"Schwattenkamp","postalCode":"49828","locality":"Neuenhaus","municipality":{"key":"03456014","name":"Neuenhaus, Stadt","type":"Stadt"},"district":{"key":"03456","name":"Grafschaft Bentheim","type":"Landkreis"},"federalState":{"key":"03","name":"Niedersachsen"}},{"name":"Seifendamm","postalCode":"49828","locality":"Neuenhaus","municipality":{"key":"03456014","name":"Neuenhaus, Stadt","type":"Stadt"},"district":{"key":"03456","name":"Grafschaft Bentheim","type":"Landkreis"},"federalState":{"key":"03","name":"Niedersachsen"}},{"name":"Slingkampstr.","postalCode":"49828","locality":"Neuenhaus","municipality":{"key":"03456014","name":"Neuenhaus, Stadt","type":"Stadt"},"district":{"key":"03456","name":"Grafschaft Bentheim","type":"Landkreis"},"federalState":{"key":"03","name":"Niedersachsen"}},{"name":"Soeker Weg","postalCode":"49828","locality":"Neuenhaus","municipality":{"key":"03456014","name":"Neuenhaus, Stadt","type":"Stadt"},"district":{"key":"03456","name":"Grafschaft Bentheim","type":"Landkreis"},"federalState":{"key":"03","name":"Niedersachsen"}},{"name":"Spechtstr.","postalCode":"49828","locality":"Neuenhaus","municipality":{"key":"03456014","name":"Neuenhaus, Stadt","type":"Stadt"},"district":{"key":"03456","name":"Grafschaft Bentheim","type":"Landkreis"},"federalState":{"key":"03","name":"Niedersachsen"}},{"name":"Sperberstr.","postalCode":"49828","locality":"Neuenhaus","municipality":{"key":"03456014","name":"Neuenhaus, Stadt","type":"Stadt"},"district":{"key":"03456","name":"Grafschaft Bentheim","type":"Landkreis"},"federalState":{"key":"03","name":"Niedersachsen"}},{"name":"Stamps Diek","postalCode":"49828","locality":"Neuenhaus","municipality":{"key":"03456014","name":"Neuenhaus, Stadt","type":"Stadt"},"district":{"key":"03456","name":"Grafschaft Bentheim","type":"Landkreis"},"federalState":{"key":"03","name":"Niedersachsen"}},{"name":"Stettiner Str.","postalCode":"49828","locality":"Neuenhaus","municipality":{"key":"03456014","name":"Neuenhaus, Stadt","type":"Stadt"},"district":{"key":"03456","name":"Grafschaft Bentheim","type":"Landkreis"},"federalState":{"key":"03","name":"Niedersachsen"}},{"name":"Stieglitzgasse","postalCode":"49828","locality":"Neuenhaus","municipality":{"key":"03456014","name":"Neuenhaus, Stadt","type":"Stadt"},"district":{"key":"03456","name":"Grafschaft Bentheim","type":"Landkreis"},"federalState":{"key":"03","name":"Niedersachsen"}},{"name":"Storchenweg","postalCode":"49828","locality":"Neuenhaus","municipality":{"key":"03456014","name":"Neuenhaus, Stadt","type":"Stadt"},"district":{"key":"03456","name":"Grafschaft Bentheim","type":"Landkreis"},"federalState":{"key":"03","name":"Niedersachsen"}},{"name":"Stralsunder Hof","postalCode":"49828","locality":"Neuenhaus","municipality":{"key":"03456014","name":"Neuenhaus, Stadt","type":"Stadt"},"district":{"key":"03456","name":"Grafschaft Bentheim","type":"Landkreis"},"federalState":{"key":"03","name":"Niedersachsen"}},{"name":"Südring","postalCode":"49828","locality":"Neuenhaus","municipality":{"key":"03456014","name":"Neuenhaus, Stadt","type":"Stadt"},"district":{"key":"03456","name":"Grafschaft Bentheim","type":"Landkreis"},"federalState":{"key":"03","name":"Niedersachsen"}},{"name":"Swennastr.","postalCode":"49828","locality":"Neuenhaus","municipality":{"key":"03456014","name":"Neuenhaus, Stadt","type":"Stadt"},"district":{"key":"03456","name":"Grafschaft Bentheim","type":"Landkreis"},"federalState":{"key":"03","name":"Niedersachsen"}},{"name":"Tannenweg","postalCode":"49828","locality":"Neuenhaus","municipality":{"key":"03456014","name":"Neuenhaus, Stadt","type":"Stadt"},"district":{"key":"03456","name":"Grafschaft Bentheim","type":"Landkreis"},"federalState":{"key":"03","name":"Niedersachsen"}},{"name":"Taubenweg","postalCode":"49828","locality":"Neuenhaus","municipality":{"key":"03456014","name":"Neuenhaus, Stadt","type":"Stadt"},"district":{"key":"03456","name":"Grafschaft Bentheim","type":"Landkreis"},"federalState":{"key":"03","name":"Niedersachsen"}},{"name":"Teichplaß","postalCode":"49828","locality":"Neuenhaus","municipality":{"key":"03456014","name":"Neuenhaus, Stadt","type":"Stadt"},"district":{"key":"03456","name":"Grafschaft Bentheim","type":"Landkreis"},"federalState":{"key":"03","name":"Niedersachsen"}},{"name":"Teichstr.","postalCode":"49828","locality":"Neuenhaus","municipality":{"key":"03456014","name":"Neuenhaus, Stadt","type":"Stadt"},"district":{"key":"03456","name":"Grafschaft Bentheim","type":"Landkreis"},"federalState":{"key":"03","name":"Niedersachsen"}},{"name":"Teland","postalCode":"49828","locality":"Neuenhaus","municipality":{"key":"03456014","name":"Neuenhaus, Stadt","type":"Stadt"},"district":{"key":"03456","name":"Grafschaft Bentheim","type":"Landkreis"},"federalState":{"key":"03","name":"Niedersachsen"}},{"name":"Thesingfelder Str.","postalCode":"49828","locality":"Neuenhaus","municipality":{"key":"03456014","name":"Neuenhaus, Stadt","type":"Stadt"},"district":{"key":"03456","name":"Grafschaft Bentheim","type":"Landkreis"},"federalState":{"key":"03","name":"Niedersachsen"}},{"name":"Tulpenweg","postalCode":"49828","locality":"Neuenhaus","municipality":{"key":"03456014","name":"Neuenhaus, Stadt","type":"Stadt"},"district":{"key":"03456","name":"Grafschaft Bentheim","type":"Landkreis"},"federalState":{"key":"03","name":"Niedersachsen"}},{"name":"Tummelhook","postalCode":"49828","locality":"Neuenhaus","municipality":{"key":"03456014","name":"Neuenhaus, Stadt","type":"Stadt"},"district":{"key":"03456","name":"Grafschaft Bentheim","type":"Landkreis"},"federalState":{"key":"03","name":"Niedersachsen"}},{"name":"Turmstr.","postalCode":"49828","locality":"Neuenhaus","municipality":{"key":"03456014","name":"Neuenhaus, Stadt","type":"Stadt"},"district":{"key":"03456","name":"Grafschaft Bentheim","type":"Landkreis"},"federalState":{"key":"03","name":"Niedersachsen"}},{"name":"Uelsener Str.","postalCode":"49828","locality":"Neuenhaus","municipality":{"key":"03456014","name":"Neuenhaus, Stadt","type":"Stadt"},"district":{"key":"03456","name":"Grafschaft Bentheim","type":"Landkreis"},"federalState":{"key":"03","name":"Niedersachsen"}},{"name":"Uferstr.","postalCode":"49828","locality":"Neuenhaus","municipality":{"key":"03456014","name":"Neuenhaus, Stadt","type":"Stadt"},"district":{"key":"03456","name":"Grafschaft Bentheim","type":"Landkreis"},"federalState":{"key":"03","name":"Niedersachsen"}},{"name":"Uhlandstr.","postalCode":"49828","locality":"Neuenhaus","municipality":{"key":"03456014","name":"Neuenhaus, Stadt","type":"Stadt"},"district":{"key":"03456","name":"Grafschaft Bentheim","type":"Landkreis"},"federalState":{"key":"03","name":"Niedersachsen"}},{"name":"Ulmenweg","postalCode":"49828","locality":"Neuenhaus","municipality":{"key":"03456014","name":"Neuenhaus, Stadt","type":"Stadt"},"district":{"key":"03456","name":"Grafschaft Bentheim","type":"Landkreis"},"federalState":{"key":"03","name":"Niedersachsen"}},{"name":"Unterm Nordesch","postalCode":"49828","locality":"Neuenhaus","municipality":{"key":"03456014","name":"Neuenhaus, Stadt","type":"Stadt"},"district":{"key":"03456","name":"Grafschaft Bentheim","type":"Landkreis"},"federalState":{"key":"03","name":"Niedersachsen"}},{"name":"Van-der-Reis-Str.","postalCode":"49828","locality":"Neuenhaus","municipality":{"key":"03456014","name":"Neuenhaus, Stadt","type":"Stadt"},"district":{"key":"03456","name":"Grafschaft Bentheim","type":"Landkreis"},"federalState":{"key":"03","name":"Niedersachsen"}},{"name":"Vechtetalstr.","postalCode":"49828","locality":"Neuenhaus","municipality":{"key":"03456014","name":"Neuenhaus, Stadt","type":"Stadt"},"district":{"key":"03456","name":"Grafschaft Bentheim","type":"Landkreis"},"federalState":{"key":"03","name":"Niedersachsen"}},{"name":"Vechteufer","postalCode":"49828","locality":"Neuenhaus","municipality":{"key":"03456014","name":"Neuenhaus, Stadt","type":"Stadt"},"district":{"key":"03456","name":"Grafschaft Bentheim","type":"Landkreis"},"federalState":{"key":"03","name":"Niedersachsen"}},{"name":"Veilchengasse","postalCode":"49828","locality":"Neuenhaus","municipality":{"key":"03456014","name":"Neuenhaus, Stadt","type":"Stadt"},"district":{"key":"03456","name":"Grafschaft Bentheim","type":"Landkreis"},"federalState":{"key":"03","name":"Niedersachsen"}},{"name":"Veldhausener Str.","postalCode":"49828","locality":"Neuenhaus","municipality":{"key":"03456014","name":"Neuenhaus, Stadt","type":"Stadt"},"district":{"key":"03456","name":"Grafschaft Bentheim","type":"Landkreis"},"federalState":{"key":"03","name":"Niedersachsen"}},{"name":"Vogeskamp","postalCode":"49828","locality":"Neuenhaus","municipality":{"key":"03456014","name":"Neuenhaus, Stadt","type":"Stadt"},"district":{"key":"03456","name":"Grafschaft Bentheim","type":"Landkreis"},"federalState":{"key":"03","name":"Niedersachsen"}},{"name":"Vogtstiege","postalCode":"49828","locality":"Neuenhaus","municipality":{"key":"03456014","name":"Neuenhaus, Stadt","type":"Stadt"},"district":{"key":"03456","name":"Grafschaft Bentheim","type":"Landkreis"},"federalState":{"key":"03","name":"Niedersachsen"}},{"name":"Von-Beesten-Str.","postalCode":"49828","locality":"Neuenhaus","municipality":{"key":"03456014","name":"Neuenhaus, Stadt","type":"Stadt"},"district":{"key":"03456","name":"Grafschaft Bentheim","type":"Landkreis"},"federalState":{"key":"03","name":"Niedersachsen"}},{"name":"Von-Bodelschwingh-Str.","postalCode":"49828","locality":"Neuenhaus","municipality":{"key":"03456014","name":"Neuenhaus, Stadt","type":"Stadt"},"district":{"key":"03456","name":"Grafschaft Bentheim","type":"Landkreis"},"federalState":{"key":"03","name":"Niedersachsen"}},{"name":"Wacholderweg","postalCode":"49828","locality":"Neuenhaus","municipality":{"key":"03456014","name":"Neuenhaus, Stadt","type":"Stadt"},"district":{"key":"03456","name":"Grafschaft Bentheim","type":"Landkreis"},"federalState":{"key":"03","name":"Niedersachsen"}},{"name":"Wagenhorst","postalCode":"49828","locality":"Neuenhaus","municipality":{"key":"03456014","name":"Neuenhaus, Stadt","type":"Stadt"},"district":{"key":"03456","name":"Grafschaft Bentheim","type":"Landkreis"},"federalState":{"key":"03","name":"Niedersachsen"}},{"name":"Wagnerstr.","postalCode":"49828","locality":"Neuenhaus","municipality":{"key":"03456014","name":"Neuenhaus, Stadt","type":"Stadt"},"district":{"key":"03456","name":"Grafschaft Bentheim","type":"Landkreis"},"federalState":{"key":"03","name":"Niedersachsen"}},{"name":"Wallstr.","postalCode":"49828","locality":"Neuenhaus","municipality":{"key":"03456014","name":"Neuenhaus, Stadt","type":"Stadt"},"district":{"key":"03456","name":"Grafschaft Bentheim","type":"Landkreis"},"federalState":{"key":"03","name":"Niedersachsen"}},{"name":"wanderweg","postalCode":"49828","locality":"Neuenhaus","municipality":{"key":"03456014","name":"Neuenhaus, Stadt","type":"Stadt"},"district":{"key":"03456","name":"Grafschaft Bentheim","type":"Landkreis"},"federalState":{"key":"03","name":"Niedersachsen"}},{"name":"Weghorst","postalCode":"49828","locality":"Neuenhaus","municipality":{"key":"03456014","name":"Neuenhaus, Stadt","type":"Stadt"},"district":{"key":"03456","name":"Grafschaft Bentheim","type":"Landkreis"},"federalState":{"key":"03","name":"Niedersachsen"}},{"name":"Weidenstr.","postalCode":"49828","locality":"Neuenhaus","municipality":{"key":"03456014","name":"Neuenhaus, Stadt","type":"Stadt"},"district":{"key":"03456","name":"Grafschaft Bentheim","type":"Landkreis"},"federalState":{"key":"03","name":"Niedersachsen"}},{"name":"Weimarer Ring","postalCode":"49828","locality":"Neuenhaus","municipality":{"key":"03456014","name":"Neuenhaus, Stadt","type":"Stadt"},"district":{"key":"03456","name":"Grafschaft Bentheim","type":"Landkreis"},"federalState":{"key":"03","name":"Niedersachsen"}},{"name":"Weizenweg","postalCode":"49828","locality":"Neuenhaus","municipality":{"key":"03456014","name":"Neuenhaus, Stadt","type":"Stadt"},"district":{"key":"03456","name":"Grafschaft Bentheim","type":"Landkreis"},"federalState":{"key":"03","name":"Niedersachsen"}},{"name":"Westring","postalCode":"49828","locality":"Neuenhaus","municipality":{"key":"03456014","name":"Neuenhaus, Stadt","type":"Stadt"},"district":{"key":"03456","name":"Grafschaft Bentheim","type":"Landkreis"},"federalState":{"key":"03","name":"Niedersachsen"}},{"name":"Wichmannstiege","postalCode":"49828","locality":"Neuenhaus","municipality":{"key":"03456014","name":"Neuenhaus, Stadt","type":"Stadt"},"district":{"key":"03456","name":"Grafschaft Bentheim","type":"Landkreis"},"federalState":{"key":"03","name":"Niedersachsen"}},{"name":"Wiesenstr.","postalCode":"49828","locality":"Neuenhaus","municipality":{"key":"03456014","name":"Neuenhaus, Stadt","type":"Stadt"},"district":{"key":"03456","name":"Grafschaft Bentheim","type":"Landkreis"},"federalState":{"key":"03","name":"Niedersachsen"}},{"name":"Wilhelm-Staehle-Str.","postalCode":"49828","locality":"Neuenhaus","municipality":{"key":"03456014","name":"Neuenhaus, Stadt","type":"Stadt"},"district":{"key":"03456","name":"Grafschaft Bentheim","type":"Landkreis"},"federalState":{"key":"03","name":"Niedersachsen"}},{"name":"Winkelfeld","postalCode":"49828","locality":"Neuenhaus","municipality":{"key":"03456014","name":"Neuenhaus, Stadt","type":"Stadt"},"district":{"key":"03456","name":"Grafschaft Bentheim","type":"Landkreis"},"federalState":{"key":"03","name":"Niedersachsen"}},{"name":"Wittenkamp","postalCode":"49828","locality":"Neuenhaus","municipality":{"key":"03456014","name":"Neuenhaus, Stadt","type":"Stadt"},"district":{"key":"03456","name":"Grafschaft Bentheim","type":"Landkreis"},"federalState":{"key":"03","name":"Niedersachsen"}},{"name":"Zedernstr.","postalCode":"49828","locality":"Neuenhaus","municipality":{"key":"03456014","name":"Neuenhaus, Stadt","type":"Stadt"},"district":{"key":"03456","name":"Grafschaft Bentheim","type":"Landkreis"},"federalState":{"key":"03","name":"Niedersachsen"}},{"name":"Zeisiggasse","postalCode":"49828","locality":"Neuenhaus","municipality":{"key":"03456014","name":"Neuenhaus, Stadt","type":"Stadt"},"district":{"key":"03456","name":"Grafschaft Bentheim","type":"Landkreis"},"federalState":{"key":"03","name":"Niedersachsen"}},{"name":"Zufahrt Reitgar","postalCode":"49828","locality":"Neuenhaus","municipality":{"key":"03456014","name":"Neuenhaus, Stadt","type":"Stadt"},"district":{"key":"03456","name":"Grafschaft Bentheim","type":"Landkreis"},"federalState":{"key":"03","name":"Niedersachsen"}},{"name":"Zur Hoffbecke","postalCode":"49828","locality":"Neuenhaus","municipality":{"key":"03456014","name":"Neuenhaus, Stadt","type":"Stadt"},"district":{"key":"03456","name":"Grafschaft Bentheim","type":"Landkreis"},"federalState":{"key":"03","name":"Niedersachsen"}},]