[{"name":"Allee","postalCode":"25797","locality":"Wöhrden","municipality":{"key":"01051113","name":"Wöhrden","type":"Kreisangehörige_Gemeinde"},"district":{"key":"01051","name":"Dithmarschen","type":"Kreis"},"federalState":{"key":"01","name":"Schleswig-Holstein"}},{"name":"Alte Landstr.","postalCode":"25704","locality":"Epenwöhrden","municipality":{"key":"01051028","name":"Epenwöhrden","type":"Kreisangehörige_Gemeinde"},"district":{"key":"01051","name":"Dithmarschen","type":"Kreis"},"federalState":{"key":"01","name":"Schleswig-Holstein"}},{"name":"Am Böhnäckernstrom","postalCode":"25704","locality":"Epenwöhrden","municipality":{"key":"01051028","name":"Epenwöhrden","type":"Kreisangehörige_Gemeinde"},"district":{"key":"01051","name":"Dithmarschen","type":"Kreis"},"federalState":{"key":"01","name":"Schleswig-Holstein"}},{"name":"Am Kamp","postalCode":"25797","locality":"Wöhrden","municipality":{"key":"01051113","name":"Wöhrden","type":"Kreisangehörige_Gemeinde"},"district":{"key":"01051","name":"Dithmarschen","type":"Kreis"},"federalState":{"key":"01","name":"Schleswig-Holstein"}},{"name":"Am Karpfenteich","postalCode":"25704","locality":"Epenwöhrden","municipality":{"key":"01051028","name":"Epenwöhrden","type":"Kreisangehörige_Gemeinde"},"district":{"key":"01051","name":"Dithmarschen","type":"Kreis"},"federalState":{"key":"01","name":"Schleswig-Holstein"}},{"name":"An de Bornsteed","postalCode":"25797","locality":"Wöhrden","municipality":{"key":"01051113","name":"Wöhrden","type":"Kreisangehörige_Gemeinde"},"district":{"key":"01051","name":"Dithmarschen","type":"Kreis"},"federalState":{"key":"01","name":"Schleswig-Holstein"}},{"name":"Bäckerstr.","postalCode":"25797","locality":"Wöhrden","municipality":{"key":"01051113","name":"Wöhrden","type":"Kreisangehörige_Gemeinde"},"district":{"key":"01051","name":"Dithmarschen","type":"Kreis"},"federalState":{"key":"01","name":"Schleswig-Holstein"}},{"name":"Bauernschaftsweg","postalCode":"25797","locality":"Wöhrden","municipality":{"key":"01051113","name":"Wöhrden","type":"Kreisangehörige_Gemeinde"},"district":{"key":"01051","name":"Dithmarschen","type":"Kreis"},"federalState":{"key":"01","name":"Schleswig-Holstein"}},{"name":"Birkenweg","postalCode":"25704","locality":"Epenwöhrden","municipality":{"key":"01051028","name":"Epenwöhrden","type":"Kreisangehörige_Gemeinde"},"district":{"key":"01051","name":"Dithmarschen","type":"Kreis"},"federalState":{"key":"01","name":"Schleswig-Holstein"}},{"name":"Breiter Weg","postalCode":"25797","locality":"Wöhrden","municipality":{"key":"01051113","name":"Wöhrden","type":"Kreisangehörige_Gemeinde"},"district":{"key":"01051","name":"Dithmarschen","type":"Kreis"},"federalState":{"key":"01","name":"Schleswig-Holstein"}},{"name":"Breite Str.","postalCode":"25797","locality":"Wöhrden","municipality":{"key":"01051113","name":"Wöhrden","type":"Kreisangehörige_Gemeinde"},"district":{"key":"01051","name":"Dithmarschen","type":"Kreis"},"federalState":{"key":"01","name":"Schleswig-Holstein"}},{"name":"Breslauer Str.","postalCode":"25797","locality":"Wöhrden","municipality":{"key":"01051113","name":"Wöhrden","type":"Kreisangehörige_Gemeinde"},"district":{"key":"01051","name":"Dithmarschen","type":"Kreis"},"federalState":{"key":"01","name":"Schleswig-Holstein"}},{"name":"Brückenweg","postalCode":"25797","locality":"Wöhrden","municipality":{"key":"01051113","name":"Wöhrden","type":"Kreisangehörige_Gemeinde"},"district":{"key":"01051","name":"Dithmarschen","type":"Kreis"},"federalState":{"key":"01","name":"Schleswig-Holstein"}},{"name":"Carstenstr.","postalCode":"25797","locality":"Wöhrden","municipality":{"key":"01051113","name":"Wöhrden","type":"Kreisangehörige_Gemeinde"},"district":{"key":"01051","name":"Dithmarschen","type":"Kreis"},"federalState":{"key":"01","name":"Schleswig-Holstein"}},{"name":"Chausseestr.","postalCode":"25797","locality":"Wöhrden","municipality":{"key":"01051113","name":"Wöhrden","type":"Kreisangehörige_Gemeinde"},"district":{"key":"01051","name":"Dithmarschen","type":"Kreis"},"federalState":{"key":"01","name":"Schleswig-Holstein"}},{"name":"Claus-Nissen-Str.","postalCode":"25797","locality":"Wöhrden","municipality":{"key":"01051113","name":"Wöhrden","type":"Kreisangehörige_Gemeinde"},"district":{"key":"01051","name":"Dithmarschen","type":"Kreis"},"federalState":{"key":"01","name":"Schleswig-Holstein"}},{"name":"Dellweg","postalCode":"25797","locality":"Wöhrden","municipality":{"key":"01051113","name":"Wöhrden","type":"Kreisangehörige_Gemeinde"},"district":{"key":"01051","name":"Dithmarschen","type":"Kreis"},"federalState":{"key":"01","name":"Schleswig-Holstein"}},{"name":"Dorfstr.","postalCode":"25704","locality":"Epenwöhrden","municipality":{"key":"01051028","name":"Epenwöhrden","type":"Kreisangehörige_Gemeinde"},"district":{"key":"01051","name":"Dithmarschen","type":"Kreis"},"federalState":{"key":"01","name":"Schleswig-Holstein"}},{"name":"Dorfstr.","postalCode":"25797","locality":"Wöhrden","municipality":{"key":"01051113","name":"Wöhrden","type":"Kreisangehörige_Gemeinde"},"district":{"key":"01051","name":"Dithmarschen","type":"Kreis"},"federalState":{"key":"01","name":"Schleswig-Holstein"}},{"name":"Dritter Neuenkruger Weg","postalCode":"25797","locality":"Wöhrden","municipality":{"key":"01051113","name":"Wöhrden","type":"Kreisangehörige_Gemeinde"},"district":{"key":"01051","name":"Dithmarschen","type":"Kreis"},"federalState":{"key":"01","name":"Schleswig-Holstein"}},{"name":"Eckernweg","postalCode":"25704","locality":"Epenwöhrden","municipality":{"key":"01051028","name":"Epenwöhrden","type":"Kreisangehörige_Gemeinde"},"district":{"key":"01051","name":"Dithmarschen","type":"Kreis"},"federalState":{"key":"01","name":"Schleswig-Holstein"}},{"name":"Edemannswisch","postalCode":"25746","locality":"Norderwöhrden","municipality":{"key":"01051081","name":"Norderwöhrden","type":"Kreisangehörige_Gemeinde"},"district":{"key":"01051","name":"Dithmarschen","type":"Kreis"},"federalState":{"key":"01","name":"Schleswig-Holstein"}},{"name":"Edemannswurth","postalCode":"25746","locality":"Norderwöhrden","municipality":{"key":"01051081","name":"Norderwöhrden","type":"Kreisangehörige_Gemeinde"},"district":{"key":"01051","name":"Dithmarschen","type":"Kreis"},"federalState":{"key":"01","name":"Schleswig-Holstein"}},{"name":"Eidertwiete","postalCode":"25779","locality":"Bergewöhrden","municipality":{"key":"01051008","name":"Bergewöhrden","type":"Kreisangehörige_Gemeinde"},"district":{"key":"01051","name":"Dithmarschen","type":"Kreis"},"federalState":{"key":"01","name":"Schleswig-Holstein"}},{"name":"Epenwöhrdenermoor","postalCode":"25704","locality":"Epenwöhrden","municipality":{"key":"01051028","name":"Epenwöhrden","type":"Kreisangehörige_Gemeinde"},"district":{"key":"01051","name":"Dithmarschen","type":"Kreis"},"federalState":{"key":"01","name":"Schleswig-Holstein"}},{"name":"Erster Neuenkruger Weg","postalCode":"25797","locality":"Wöhrden","municipality":{"key":"01051113","name":"Wöhrden","type":"Kreisangehörige_Gemeinde"},"district":{"key":"01051","name":"Dithmarschen","type":"Kreis"},"federalState":{"key":"01","name":"Schleswig-Holstein"}},{"name":"Feddenweg","postalCode":"25746","locality":"Norderwöhrden","municipality":{"key":"01051081","name":"Norderwöhrden","type":"Kreisangehörige_Gemeinde"},"district":{"key":"01051","name":"Dithmarschen","type":"Kreis"},"federalState":{"key":"01","name":"Schleswig-Holstein"}},{"name":"Friedhofsweg","postalCode":"25797","locality":"Wöhrden","municipality":{"key":"01051113","name":"Wöhrden","type":"Kreisangehörige_Gemeinde"},"district":{"key":"01051","name":"Dithmarschen","type":"Kreis"},"federalState":{"key":"01","name":"Schleswig-Holstein"}},{"name":"Greifenberger Str.","postalCode":"25797","locality":"Wöhrden","municipality":{"key":"01051113","name":"Wöhrden","type":"Kreisangehörige_Gemeinde"},"district":{"key":"01051","name":"Dithmarschen","type":"Kreis"},"federalState":{"key":"01","name":"Schleswig-Holstein"}},{"name":"Große Str.","postalCode":"25797","locality":"Wöhrden","municipality":{"key":"01051113","name":"Wöhrden","type":"Kreisangehörige_Gemeinde"},"district":{"key":"01051","name":"Dithmarschen","type":"Kreis"},"federalState":{"key":"01","name":"Schleswig-Holstein"}},{"name":"Grüner Weg","postalCode":"25704","locality":"Epenwöhrden","municipality":{"key":"01051028","name":"Epenwöhrden","type":"Kreisangehörige_Gemeinde"},"district":{"key":"01051","name":"Dithmarschen","type":"Kreis"},"federalState":{"key":"01","name":"Schleswig-Holstein"}},{"name":"Hafenstr.","postalCode":"25797","locality":"Wöhrden","municipality":{"key":"01051113","name":"Wöhrden","type":"Kreisangehörige_Gemeinde"},"district":{"key":"01051","name":"Dithmarschen","type":"Kreis"},"federalState":{"key":"01","name":"Schleswig-Holstein"}},{"name":"Hauptstr.","postalCode":"25704","locality":"Epenwöhrden","municipality":{"key":"01051028","name":"Epenwöhrden","type":"Kreisangehörige_Gemeinde"},"district":{"key":"01051","name":"Dithmarschen","type":"Kreis"},"federalState":{"key":"01","name":"Schleswig-Holstein"}},{"name":"Hauptstr.","postalCode":"25746","locality":"Norderwöhrden","municipality":{"key":"01051081","name":"Norderwöhrden","type":"Kreisangehörige_Gemeinde"},"district":{"key":"01051","name":"Dithmarschen","type":"Kreis"},"federalState":{"key":"01","name":"Schleswig-Holstein"}},{"name":"Hauptstr.","postalCode":"25797","locality":"Wöhrden","municipality":{"key":"01051113","name":"Wöhrden","type":"Kreisangehörige_Gemeinde"},"district":{"key":"01051","name":"Dithmarschen","type":"Kreis"},"federalState":{"key":"01","name":"Schleswig-Holstein"}},{"name":"Heisternweg","postalCode":"25797","locality":"Wöhrden","municipality":{"key":"01051113","name":"Wöhrden","type":"Kreisangehörige_Gemeinde"},"district":{"key":"01051","name":"Dithmarschen","type":"Kreis"},"federalState":{"key":"01","name":"Schleswig-Holstein"}},{"name":"Helgoländer Str.","postalCode":"25797","locality":"Wöhrden","municipality":{"key":"01051113","name":"Wöhrden","type":"Kreisangehörige_Gemeinde"},"district":{"key":"01051","name":"Dithmarschen","type":"Kreis"},"federalState":{"key":"01","name":"Schleswig-Holstein"}},{"name":"Hinkweg","postalCode":"25797","locality":"Wöhrden","municipality":{"key":"01051113","name":"Wöhrden","type":"Kreisangehörige_Gemeinde"},"district":{"key":"01051","name":"Dithmarschen","type":"Kreis"},"federalState":{"key":"01","name":"Schleswig-Holstein"}},{"name":"Hochwöhrden","postalCode":"25797","locality":"Wöhrden","municipality":{"key":"01051113","name":"Wöhrden","type":"Kreisangehörige_Gemeinde"},"district":{"key":"01051","name":"Dithmarschen","type":"Kreis"},"federalState":{"key":"01","name":"Schleswig-Holstein"}},{"name":"Hochwöhrdener Weg","postalCode":"25797","locality":"Wöhrden","municipality":{"key":"01051113","name":"Wöhrden","type":"Kreisangehörige_Gemeinde"},"district":{"key":"01051","name":"Dithmarschen","type":"Kreis"},"federalState":{"key":"01","name":"Schleswig-Holstein"}},{"name":"Johannes-Kuhrt-Str.","postalCode":"25712","locality":"Burg (Dithmarschen)","municipality":{"key":"01051016","name":"Burg (Dithmarschen)","type":"Kreisangehörige_Gemeinde"},"district":{"key":"01051","name":"Dithmarschen","type":"Kreis"},"federalState":{"key":"01","name":"Schleswig-Holstein"}},{"name":"Karl-Peters-Str.","postalCode":"25797","locality":"Wöhrden","municipality":{"key":"01051113","name":"Wöhrden","type":"Kreisangehörige_Gemeinde"},"district":{"key":"01051","name":"Dithmarschen","type":"Kreis"},"federalState":{"key":"01","name":"Schleswig-Holstein"}},{"name":"Kastanienweg","postalCode":"25704","locality":"Epenwöhrden","municipality":{"key":"01051028","name":"Epenwöhrden","type":"Kreisangehörige_Gemeinde"},"district":{"key":"01051","name":"Dithmarschen","type":"Kreis"},"federalState":{"key":"01","name":"Schleswig-Holstein"}},{"name":"Kiebitzweg","postalCode":"25746","locality":"Norderwöhrden","municipality":{"key":"01051081","name":"Norderwöhrden","type":"Kreisangehörige_Gemeinde"},"district":{"key":"01051","name":"Dithmarschen","type":"Kreis"},"federalState":{"key":"01","name":"Schleswig-Holstein"}},{"name":"Kirchenstr.","postalCode":"25797","locality":"Wöhrden","municipality":{"key":"01051113","name":"Wöhrden","type":"Kreisangehörige_Gemeinde"},"district":{"key":"01051","name":"Dithmarschen","type":"Kreis"},"federalState":{"key":"01","name":"Schleswig-Holstein"}},{"name":"Kirchweg","postalCode":"25746","locality":"Norderwöhrden","municipality":{"key":"01051081","name":"Norderwöhrden","type":"Kreisangehörige_Gemeinde"},"district":{"key":"01051","name":"Dithmarschen","type":"Kreis"},"federalState":{"key":"01","name":"Schleswig-Holstein"}},{"name":"Klampwehr","postalCode":"25704","locality":"Epenwöhrden","municipality":{"key":"01051028","name":"Epenwöhrden","type":"Kreisangehörige_Gemeinde"},"district":{"key":"01051","name":"Dithmarschen","type":"Kreis"},"federalState":{"key":"01","name":"Schleswig-Holstein"}},{"name":"Klaus-Groth-Str.","postalCode":"25797","locality":"Wöhrden","municipality":{"key":"01051113","name":"Wöhrden","type":"Kreisangehörige_Gemeinde"},"district":{"key":"01051","name":"Dithmarschen","type":"Kreis"},"federalState":{"key":"01","name":"Schleswig-Holstein"}},{"name":"Lilienthal","postalCode":"25704","locality":"Epenwöhrden","municipality":{"key":"01051028","name":"Epenwöhrden","type":"Kreisangehörige_Gemeinde"},"district":{"key":"01051","name":"Dithmarschen","type":"Kreis"},"federalState":{"key":"01","name":"Schleswig-Holstein"}},{"name":"Lindenstr.","postalCode":"25704","locality":"Epenwöhrden","municipality":{"key":"01051028","name":"Epenwöhrden","type":"Kreisangehörige_Gemeinde"},"district":{"key":"01051","name":"Dithmarschen","type":"Kreis"},"federalState":{"key":"01","name":"Schleswig-Holstein"}},{"name":"Lindenstr.","postalCode":"25797","locality":"Wöhrden","municipality":{"key":"01051113","name":"Wöhrden","type":"Kreisangehörige_Gemeinde"},"district":{"key":"01051","name":"Dithmarschen","type":"Kreis"},"federalState":{"key":"01","name":"Schleswig-Holstein"}},{"name":"Materialienstr.","postalCode":"25797","locality":"Wöhrden","municipality":{"key":"01051113","name":"Wöhrden","type":"Kreisangehörige_Gemeinde"},"district":{"key":"01051","name":"Dithmarschen","type":"Kreis"},"federalState":{"key":"01","name":"Schleswig-Holstein"}},{"name":"Meldorfer Str.","postalCode":"25797","locality":"Wöhrden","municipality":{"key":"01051113","name":"Wöhrden","type":"Kreisangehörige_Gemeinde"},"district":{"key":"01051","name":"Dithmarschen","type":"Kreis"},"federalState":{"key":"01","name":"Schleswig-Holstein"}},{"name":"Mittelweg","postalCode":"25704","locality":"Epenwöhrden","municipality":{"key":"01051028","name":"Epenwöhrden","type":"Kreisangehörige_Gemeinde"},"district":{"key":"01051","name":"Dithmarschen","type":"Kreis"},"federalState":{"key":"01","name":"Schleswig-Holstein"}},{"name":"Mühlenweg","postalCode":"25704","locality":"Epenwöhrden","municipality":{"key":"01051028","name":"Epenwöhrden","type":"Kreisangehörige_Gemeinde"},"district":{"key":"01051","name":"Dithmarschen","type":"Kreis"},"federalState":{"key":"01","name":"Schleswig-Holstein"}},{"name":"Mühlenweg","postalCode":"25797","locality":"Wöhrden","municipality":{"key":"01051113","name":"Wöhrden","type":"Kreisangehörige_Gemeinde"},"district":{"key":"01051","name":"Dithmarschen","type":"Kreis"},"federalState":{"key":"01","name":"Schleswig-Holstein"}},{"name":"Nannemannshusen","postalCode":"25797","locality":"Wöhrden","municipality":{"key":"01051113","name":"Wöhrden","type":"Kreisangehörige_Gemeinde"},"district":{"key":"01051","name":"Dithmarschen","type":"Kreis"},"federalState":{"key":"01","name":"Schleswig-Holstein"}},{"name":"Neuenkrug","postalCode":"25797","locality":"Wöhrden","municipality":{"key":"01051113","name":"Wöhrden","type":"Kreisangehörige_Gemeinde"},"district":{"key":"01051","name":"Dithmarschen","type":"Kreis"},"federalState":{"key":"01","name":"Schleswig-Holstein"}},{"name":"Neuenkruger Kirchweg","postalCode":"25797","locality":"Wöhrden","municipality":{"key":"01051113","name":"Wöhrden","type":"Kreisangehörige_Gemeinde"},"district":{"key":"01051","name":"Dithmarschen","type":"Kreis"},"federalState":{"key":"01","name":"Schleswig-Holstein"}},{"name":"Neuenkruger Weg","postalCode":"25797","locality":"Wöhrden","municipality":{"key":"01051113","name":"Wöhrden","type":"Kreisangehörige_Gemeinde"},"district":{"key":"01051","name":"Dithmarschen","type":"Kreis"},"federalState":{"key":"01","name":"Schleswig-Holstein"}},{"name":"Neuenwisch","postalCode":"25746","locality":"Norderwöhrden","municipality":{"key":"01051081","name":"Norderwöhrden","type":"Kreisangehörige_Gemeinde"},"district":{"key":"01051","name":"Dithmarschen","type":"Kreis"},"federalState":{"key":"01","name":"Schleswig-Holstein"}},{"name":"Neuenwisch","postalCode":"25797","locality":"Wöhrden","municipality":{"key":"01051113","name":"Wöhrden","type":"Kreisangehörige_Gemeinde"},"district":{"key":"01051","name":"Dithmarschen","type":"Kreis"},"federalState":{"key":"01","name":"Schleswig-Holstein"}},{"name":"Neuer Weg","postalCode":"25797","locality":"Wöhrden","municipality":{"key":"01051113","name":"Wöhrden","type":"Kreisangehörige_Gemeinde"},"district":{"key":"01051","name":"Dithmarschen","type":"Kreis"},"federalState":{"key":"01","name":"Schleswig-Holstein"}},{"name":"Nixdorf","postalCode":"25797","locality":"Wöhrden","municipality":{"key":"01051113","name":"Wöhrden","type":"Kreisangehörige_Gemeinde"},"district":{"key":"01051","name":"Dithmarschen","type":"Kreis"},"federalState":{"key":"01","name":"Schleswig-Holstein"}},{"name":"Norderstr.","postalCode":"25797","locality":"Wöhrden","municipality":{"key":"01051113","name":"Wöhrden","type":"Kreisangehörige_Gemeinde"},"district":{"key":"01051","name":"Dithmarschen","type":"Kreis"},"federalState":{"key":"01","name":"Schleswig-Holstein"}},{"name":"Oeverwisch","postalCode":"25746","locality":"Norderwöhrden","municipality":{"key":"01051081","name":"Norderwöhrden","type":"Kreisangehörige_Gemeinde"},"district":{"key":"01051","name":"Dithmarschen","type":"Kreis"},"federalState":{"key":"01","name":"Schleswig-Holstein"}},{"name":"Offerweg","postalCode":"25797","locality":"Wöhrden","municipality":{"key":"01051113","name":"Wöhrden","type":"Kreisangehörige_Gemeinde"},"district":{"key":"01051","name":"Dithmarschen","type":"Kreis"},"federalState":{"key":"01","name":"Schleswig-Holstein"}},{"name":"Ohrtweg","postalCode":"25704","locality":"Epenwöhrden","municipality":{"key":"01051028","name":"Epenwöhrden","type":"Kreisangehörige_Gemeinde"},"district":{"key":"01051","name":"Dithmarschen","type":"Kreis"},"federalState":{"key":"01","name":"Schleswig-Holstein"}},{"name":"Op de Weid","postalCode":"25797","locality":"Wöhrden","municipality":{"key":"01051113","name":"Wöhrden","type":"Kreisangehörige_Gemeinde"},"district":{"key":"01051","name":"Dithmarschen","type":"Kreis"},"federalState":{"key":"01","name":"Schleswig-Holstein"}},{"name":"Op'n Pasterkroog","postalCode":"25797","locality":"Wöhrden","municipality":{"key":"01051113","name":"Wöhrden","type":"Kreisangehörige_Gemeinde"},"district":{"key":"01051","name":"Dithmarschen","type":"Kreis"},"federalState":{"key":"01","name":"Schleswig-Holstein"}},{"name":"Parallelstr.","postalCode":"25712","locality":"Burg (Dithmarschen)","municipality":{"key":"01051016","name":"Burg (Dithmarschen)","type":"Kreisangehörige_Gemeinde"},"district":{"key":"01051","name":"Dithmarschen","type":"Kreis"},"federalState":{"key":"01","name":"Schleswig-Holstein"}},{"name":"Peter-Göttsche-Str.","postalCode":"25712","locality":"Burg (Dithmarschen)","municipality":{"key":"01051016","name":"Burg (Dithmarschen)","type":"Kreisangehörige_Gemeinde"},"district":{"key":"01051","name":"Dithmarschen","type":"Kreis"},"federalState":{"key":"01","name":"Schleswig-Holstein"}},{"name":"Querstr.","postalCode":"25797","locality":"Wöhrden","municipality":{"key":"01051113","name":"Wöhrden","type":"Kreisangehörige_Gemeinde"},"district":{"key":"01051","name":"Dithmarschen","type":"Kreis"},"federalState":{"key":"01","name":"Schleswig-Holstein"}},{"name":"Ringstr.","postalCode":"25797","locality":"Wöhrden","municipality":{"key":"01051113","name":"Wöhrden","type":"Kreisangehörige_Gemeinde"},"district":{"key":"01051","name":"Dithmarschen","type":"Kreis"},"federalState":{"key":"01","name":"Schleswig-Holstein"}},{"name":"Schulstr.","postalCode":"25704","locality":"Epenwöhrden","municipality":{"key":"01051028","name":"Epenwöhrden","type":"Kreisangehörige_Gemeinde"},"district":{"key":"01051","name":"Dithmarschen","type":"Kreis"},"federalState":{"key":"01","name":"Schleswig-Holstein"}},{"name":"Schulstr.","postalCode":"25797","locality":"Wöhrden","municipality":{"key":"01051113","name":"Wöhrden","type":"Kreisangehörige_Gemeinde"},"district":{"key":"01051","name":"Dithmarschen","type":"Kreis"},"federalState":{"key":"01","name":"Schleswig-Holstein"}},{"name":"Schwarzer Weg","postalCode":"25797","locality":"Wöhrden","municipality":{"key":"01051113","name":"Wöhrden","type":"Kreisangehörige_Gemeinde"},"district":{"key":"01051","name":"Dithmarschen","type":"Kreis"},"federalState":{"key":"01","name":"Schleswig-Holstein"}},{"name":"Seeweg","postalCode":"25746","locality":"Norderwöhrden","municipality":{"key":"01051081","name":"Norderwöhrden","type":"Kreisangehörige_Gemeinde"},"district":{"key":"01051","name":"Dithmarschen","type":"Kreis"},"federalState":{"key":"01","name":"Schleswig-Holstein"}},{"name":"Siedlungsweg","postalCode":"25797","locality":"Wöhrden","municipality":{"key":"01051113","name":"Wöhrden","type":"Kreisangehörige_Gemeinde"},"district":{"key":"01051","name":"Dithmarschen","type":"Kreis"},"federalState":{"key":"01","name":"Schleswig-Holstein"}},{"name":"Siem'sche Weide","postalCode":"25779","locality":"Bergewöhrden","municipality":{"key":"01051008","name":"Bergewöhrden","type":"Kreisangehörige_Gemeinde"},"district":{"key":"01051","name":"Dithmarschen","type":"Kreis"},"federalState":{"key":"01","name":"Schleswig-Holstein"}},{"name":"Steindamm","postalCode":"25797","locality":"Wöhrden","municipality":{"key":"01051113","name":"Wöhrden","type":"Kreisangehörige_Gemeinde"},"district":{"key":"01051","name":"Dithmarschen","type":"Kreis"},"federalState":{"key":"01","name":"Schleswig-Holstein"}},{"name":"Süderhammwurthsweg","postalCode":"25746","locality":"Norderwöhrden","municipality":{"key":"01051081","name":"Norderwöhrden","type":"Kreisangehörige_Gemeinde"},"district":{"key":"01051","name":"Dithmarschen","type":"Kreis"},"federalState":{"key":"01","name":"Schleswig-Holstein"}},{"name":"Südersiddeldeich","postalCode":"25797","locality":"Wöhrden","municipality":{"key":"01051113","name":"Wöhrden","type":"Kreisangehörige_Gemeinde"},"district":{"key":"01051","name":"Dithmarschen","type":"Kreis"},"federalState":{"key":"01","name":"Schleswig-Holstein"}},{"name":"Südlicher Dorfweg","postalCode":"25797","locality":"Wöhrden","municipality":{"key":"01051113","name":"Wöhrden","type":"Kreisangehörige_Gemeinde"},"district":{"key":"01051","name":"Dithmarschen","type":"Kreis"},"federalState":{"key":"01","name":"Schleswig-Holstein"}},{"name":"Swülkennest","postalCode":"25797","locality":"Wöhrden","municipality":{"key":"01051113","name":"Wöhrden","type":"Kreisangehörige_Gemeinde"},"district":{"key":"01051","name":"Dithmarschen","type":"Kreis"},"federalState":{"key":"01","name":"Schleswig-Holstein"}},{"name":"Telsekamp","postalCode":"25704","locality":"Epenwöhrden","municipality":{"key":"01051028","name":"Epenwöhrden","type":"Kreisangehörige_Gemeinde"},"district":{"key":"01051","name":"Dithmarschen","type":"Kreis"},"federalState":{"key":"01","name":"Schleswig-Holstein"}},{"name":"Theodor-Meyer-Str.","postalCode":"25797","locality":"Wöhrden","municipality":{"key":"01051113","name":"Wöhrden","type":"Kreisangehörige_Gemeinde"},"district":{"key":"01051","name":"Dithmarschen","type":"Kreis"},"federalState":{"key":"01","name":"Schleswig-Holstein"}},{"name":"Theodor-Storm-Str.","postalCode":"25797","locality":"Wöhrden","municipality":{"key":"01051113","name":"Wöhrden","type":"Kreisangehörige_Gemeinde"},"district":{"key":"01051","name":"Dithmarschen","type":"Kreis"},"federalState":{"key":"01","name":"Schleswig-Holstein"}},{"name":"Uhlenstroot","postalCode":"25797","locality":"Wöhrden","municipality":{"key":"01051113","name":"Wöhrden","type":"Kreisangehörige_Gemeinde"},"district":{"key":"01051","name":"Dithmarschen","type":"Kreis"},"federalState":{"key":"01","name":"Schleswig-Holstein"}},{"name":"Voßallee","postalCode":"25712","locality":"Burg (Dithmarschen)","municipality":{"key":"01051016","name":"Burg (Dithmarschen)","type":"Kreisangehörige_Gemeinde"},"district":{"key":"01051","name":"Dithmarschen","type":"Kreis"},"federalState":{"key":"01","name":"Schleswig-Holstein"}},{"name":"Voßweg","postalCode":"25712","locality":"Burg (Dithmarschen)","municipality":{"key":"01051016","name":"Burg (Dithmarschen)","type":"Kreisangehörige_Gemeinde"},"district":{"key":"01051","name":"Dithmarschen","type":"Kreis"},"federalState":{"key":"01","name":"Schleswig-Holstein"}},{"name":"Walle","postalCode":"25797","locality":"Wöhrden","municipality":{"key":"01051113","name":"Wöhrden","type":"Kreisangehörige_Gemeinde"},"district":{"key":"01051","name":"Dithmarschen","type":"Kreis"},"federalState":{"key":"01","name":"Schleswig-Holstein"}},{"name":"Weidenweg","postalCode":"25704","locality":"Epenwöhrden","municipality":{"key":"01051028","name":"Epenwöhrden","type":"Kreisangehörige_Gemeinde"},"district":{"key":"01051","name":"Dithmarschen","type":"Kreis"},"federalState":{"key":"01","name":"Schleswig-Holstein"}},{"name":"Wennemannswisch","postalCode":"25746","locality":"Norderwöhrden","municipality":{"key":"01051081","name":"Norderwöhrden","type":"Kreisangehörige_Gemeinde"},"district":{"key":"01051","name":"Dithmarschen","type":"Kreis"},"federalState":{"key":"01","name":"Schleswig-Holstein"}},{"name":"Wester-Anlage","postalCode":"25704","locality":"Epenwöhrden","municipality":{"key":"01051028","name":"Epenwöhrden","type":"Kreisangehörige_Gemeinde"},"district":{"key":"01051","name":"Dithmarschen","type":"Kreis"},"federalState":{"key":"01","name":"Schleswig-Holstein"}},{"name":"Westerlandstr.","postalCode":"25704","locality":"Epenwöhrden","municipality":{"key":"01051028","name":"Epenwöhrden","type":"Kreisangehörige_Gemeinde"},"district":{"key":"01051","name":"Dithmarschen","type":"Kreis"},"federalState":{"key":"01","name":"Schleswig-Holstein"}},{"name":"Westerstr.","postalCode":"25797","locality":"Wöhrden","municipality":{"key":"01051113","name":"Wöhrden","type":"Kreisangehörige_Gemeinde"},"district":{"key":"01051","name":"Dithmarschen","type":"Kreis"},"federalState":{"key":"01","name":"Schleswig-Holstein"}},{"name":"Wittmehren","postalCode":"25704","locality":"Epenwöhrden","municipality":{"key":"01051028","name":"Epenwöhrden","type":"Kreisangehörige_Gemeinde"},"district":{"key":"01051","name":"Dithmarschen","type":"Kreis"},"federalState":{"key":"01","name":"Schleswig-Holstein"}},{"name":"Wöhrdener Hafen","postalCode":"25797","locality":"Wöhrden","municipality":{"key":"01051113","name":"Wöhrden","type":"Kreisangehörige_Gemeinde"},"district":{"key":"01051","name":"Dithmarschen","type":"Kreis"},"federalState":{"key":"01","name":"Schleswig-Holstein"}},{"name":"Wöhrdener Park","postalCode":"25797","locality":"Wöhrden","municipality":{"key":"01051113","name":"Wöhrden","type":"Kreisangehörige_Gemeinde"},"district":{"key":"01051","name":"Dithmarschen","type":"Kreis"},"federalState":{"key":"01","name":"Schleswig-Holstein"}},{"name":"Wulf-Isebrand-Str.","postalCode":"25704","locality":"Epenwöhrden","municipality":{"key":"01051028","name":"Epenwöhrden","type":"Kreisangehörige_Gemeinde"},"district":{"key":"01051","name":"Dithmarschen","type":"Kreis"},"federalState":{"key":"01","name":"Schleswig-Holstein"}},{"name":"Zaunkönigweg","postalCode":"25712","locality":"Burg (Dithmarschen)","municipality":{"key":"01051016","name":"Burg (Dithmarschen)","type":"Kreisangehörige_Gemeinde"},"district":{"key":"01051","name":"Dithmarschen","type":"Kreis"},"federalState":{"key":"01","name":"Schleswig-Holstein"}},{"name":"Öster-Anlage","postalCode":"25704","locality":"Epenwöhrden","municipality":{"key":"01051028","name":"Epenwöhrden","type":"Kreisangehörige_Gemeinde"},"district":{"key":"01051","name":"Dithmarschen","type":"Kreis"},"federalState":{"key":"01","name":"Schleswig-Holstein"}},]