[{"name":"Alte Heerstr.","postalCode":"07580","locality":"Reichstädt","municipality":{"key":"16076059","name":"Reichstädt","type":"Kreisangehörige_Gemeinde"},"district":{"key":"16076","name":"Greiz","type":"Landkreis"},"federalState":{"key":"16","name":"Thüringen"}},{"name":"Am Fichtenberg","postalCode":"07580","locality":"Reichstädt","municipality":{"key":"16076059","name":"Reichstädt","type":"Kreisangehörige_Gemeinde"},"district":{"key":"16076","name":"Greiz","type":"Landkreis"},"federalState":{"key":"16","name":"Thüringen"}},{"name":"Am Südhang","postalCode":"07580","locality":"Reichstädt","municipality":{"key":"16076059","name":"Reichstädt","type":"Kreisangehörige_Gemeinde"},"district":{"key":"16076","name":"Greiz","type":"Landkreis"},"federalState":{"key":"16","name":"Thüringen"}},{"name":"Birkenweg","postalCode":"07580","locality":"Reichstädt","municipality":{"key":"16076059","name":"Reichstädt","type":"Kreisangehörige_Gemeinde"},"district":{"key":"16076","name":"Greiz","type":"Landkreis"},"federalState":{"key":"16","name":"Thüringen"}},{"name":"Carl-Röder-Str.","postalCode":"07973","locality":"Greiz","municipality":{"key":"16076022","name":"Greiz, Stadt","type":"Stadt"},"district":{"key":"16076","name":"Greiz","type":"Landkreis"},"federalState":{"key":"16","name":"Thüringen"}},{"name":"Carolinenstr.","postalCode":"07973","locality":"Greiz","municipality":{"key":"16076022","name":"Greiz, Stadt","type":"Stadt"},"district":{"key":"16076","name":"Greiz","type":"Landkreis"},"federalState":{"key":"16","name":"Thüringen"}},{"name":"Clara-Zetkin-Str.","postalCode":"07973","locality":"Greiz","municipality":{"key":"16076022","name":"Greiz, Stadt","type":"Stadt"},"district":{"key":"16076","name":"Greiz","type":"Landkreis"},"federalState":{"key":"16","name":"Thüringen"}},{"name":"Cloßstr.","postalCode":"07973","locality":"Greiz","municipality":{"key":"16076022","name":"Greiz, Stadt","type":"Stadt"},"district":{"key":"16076","name":"Greiz","type":"Landkreis"},"federalState":{"key":"16","name":"Thüringen"}},{"name":"Cossengrün","postalCode":"07973","locality":"Greiz","municipality":{"key":"16076022","name":"Greiz, Stadt","type":"Stadt"},"district":{"key":"16076","name":"Greiz","type":"Landkreis"},"federalState":{"key":"16","name":"Thüringen"}},{"name":"Dreimäderlweg","postalCode":"07973","locality":"Greiz","municipality":{"key":"16076022","name":"Greiz, Stadt","type":"Stadt"},"district":{"key":"16076","name":"Greiz","type":"Landkreis"},"federalState":{"key":"16","name":"Thüringen"}},{"name":"Dr.-Otto-Nuschke-Str.","postalCode":"07973","locality":"Greiz","municipality":{"key":"16076022","name":"Greiz, Stadt","type":"Stadt"},"district":{"key":"16076","name":"Greiz","type":"Landkreis"},"federalState":{"key":"16","name":"Thüringen"}},{"name":"Dr.-Rathenau-Platz","postalCode":"07973","locality":"Greiz","municipality":{"key":"16076022","name":"Greiz, Stadt","type":"Stadt"},"district":{"key":"16076","name":"Greiz","type":"Landkreis"},"federalState":{"key":"16","name":"Thüringen"}},{"name":"Dr.-Scheube-Str.","postalCode":"07973","locality":"Greiz","municipality":{"key":"16076022","name":"Greiz, Stadt","type":"Stadt"},"district":{"key":"16076","name":"Greiz","type":"Landkreis"},"federalState":{"key":"16","name":"Thüringen"}},{"name":"Eckweg","postalCode":"07973","locality":"Greiz","municipality":{"key":"16076022","name":"Greiz, Stadt","type":"Stadt"},"district":{"key":"16076","name":"Greiz","type":"Landkreis"},"federalState":{"key":"16","name":"Thüringen"}},{"name":"Eichberg","postalCode":"07973","locality":"Greiz","municipality":{"key":"16076022","name":"Greiz, Stadt","type":"Stadt"},"district":{"key":"16076","name":"Greiz","type":"Landkreis"},"federalState":{"key":"16","name":"Thüringen"}},{"name":"Elsterberger Str.","postalCode":"07973","locality":"Greiz","municipality":{"key":"16076022","name":"Greiz, Stadt","type":"Stadt"},"district":{"key":"16076","name":"Greiz","type":"Landkreis"},"federalState":{"key":"16","name":"Thüringen"}},{"name":"Elsterperlenweg","postalCode":"07973","locality":"Greiz","municipality":{"key":"16076022","name":"Greiz, Stadt","type":"Stadt"},"district":{"key":"16076","name":"Greiz","type":"Landkreis"},"federalState":{"key":"16","name":"Thüringen"}},{"name":"Elsterplatz","postalCode":"07973","locality":"Greiz","municipality":{"key":"16076022","name":"Greiz, Stadt","type":"Stadt"},"district":{"key":"16076","name":"Greiz","type":"Landkreis"},"federalState":{"key":"16","name":"Thüringen"}},{"name":"Elstersteig","postalCode":"07973","locality":"Greiz","municipality":{"key":"16076022","name":"Greiz, Stadt","type":"Stadt"},"district":{"key":"16076","name":"Greiz","type":"Landkreis"},"federalState":{"key":"16","name":"Thüringen"}},{"name":"Enges Gäßchen","postalCode":"07973","locality":"Greiz","municipality":{"key":"16076022","name":"Greiz, Stadt","type":"Stadt"},"district":{"key":"16076","name":"Greiz","type":"Landkreis"},"federalState":{"key":"16","name":"Thüringen"}},{"name":"Eubenberg","postalCode":"07973","locality":"Greiz","municipality":{"key":"16076022","name":"Greiz, Stadt","type":"Stadt"},"district":{"key":"16076","name":"Greiz","type":"Landkreis"},"federalState":{"key":"16","name":"Thüringen"}},{"name":"Frankenau","postalCode":"07580","locality":"Reichstädt","municipality":{"key":"16076059","name":"Reichstädt","type":"Kreisangehörige_Gemeinde"},"district":{"key":"16076","name":"Greiz","type":"Landkreis"},"federalState":{"key":"16","name":"Thüringen"}},{"name":"Gasse","postalCode":"07580","locality":"Reichstädt","municipality":{"key":"16076059","name":"Reichstädt","type":"Kreisangehörige_Gemeinde"},"district":{"key":"16076","name":"Greiz","type":"Landkreis"},"federalState":{"key":"16","name":"Thüringen"}},{"name":"Hartrodaer Steg","postalCode":"07580","locality":"Reichstädt","municipality":{"key":"16076059","name":"Reichstädt","type":"Kreisangehörige_Gemeinde"},"district":{"key":"16076","name":"Greiz","type":"Landkreis"},"federalState":{"key":"16","name":"Thüringen"}},{"name":"Hauptstr.","postalCode":"07580","locality":"Reichstädt","municipality":{"key":"16076059","name":"Reichstädt","type":"Kreisangehörige_Gemeinde"},"district":{"key":"16076","name":"Greiz","type":"Landkreis"},"federalState":{"key":"16","name":"Thüringen"}},{"name":"Hohle","postalCode":"07580","locality":"Reichstädt","municipality":{"key":"16076059","name":"Reichstädt","type":"Kreisangehörige_Gemeinde"},"district":{"key":"16076","name":"Greiz","type":"Landkreis"},"federalState":{"key":"16","name":"Thüringen"}},{"name":"I. Bergstr.","postalCode":"07973","locality":"Greiz","municipality":{"key":"16076022","name":"Greiz, Stadt","type":"Stadt"},"district":{"key":"16076","name":"Greiz","type":"Landkreis"},"federalState":{"key":"16","name":"Thüringen"}},{"name":"II. Bergstr.","postalCode":"07973","locality":"Greiz","municipality":{"key":"16076022","name":"Greiz, Stadt","type":"Stadt"},"district":{"key":"16076","name":"Greiz","type":"Landkreis"},"federalState":{"key":"16","name":"Thüringen"}},{"name":"II. Tscherlichstr.","postalCode":"07973","locality":"Greiz","municipality":{"key":"16076022","name":"Greiz, Stadt","type":"Stadt"},"district":{"key":"16076","name":"Greiz","type":"Landkreis"},"federalState":{"key":"16","name":"Thüringen"}},{"name":"Irchwitzer Str.","postalCode":"07973","locality":"Greiz","municipality":{"key":"16076022","name":"Greiz, Stadt","type":"Stadt"},"district":{"key":"16076","name":"Greiz","type":"Landkreis"},"federalState":{"key":"16","name":"Thüringen"}},{"name":"I. Tscherlichstr.","postalCode":"07973","locality":"Greiz","municipality":{"key":"16076022","name":"Greiz, Stadt","type":"Stadt"},"district":{"key":"16076","name":"Greiz","type":"Landkreis"},"federalState":{"key":"16","name":"Thüringen"}},{"name":"Johann-Friedrich-Fasch-Str.","postalCode":"07973","locality":"Greiz","municipality":{"key":"16076022","name":"Greiz, Stadt","type":"Stadt"},"district":{"key":"16076","name":"Greiz","type":"Landkreis"},"federalState":{"key":"16","name":"Thüringen"}},{"name":"Johann-Sebastian-Bach-Str.","postalCode":"07973","locality":"Greiz","municipality":{"key":"16076022","name":"Greiz, Stadt","type":"Stadt"},"district":{"key":"16076","name":"Greiz","type":"Landkreis"},"federalState":{"key":"16","name":"Thüringen"}},{"name":"Juri-Gagarin-Str.","postalCode":"07973","locality":"Greiz","municipality":{"key":"16076022","name":"Greiz, Stadt","type":"Stadt"},"district":{"key":"16076","name":"Greiz","type":"Landkreis"},"federalState":{"key":"16","name":"Thüringen"}},{"name":"Kirchberg","postalCode":"07580","locality":"Reichstädt","municipality":{"key":"16076059","name":"Reichstädt","type":"Kreisangehörige_Gemeinde"},"district":{"key":"16076","name":"Greiz","type":"Landkreis"},"federalState":{"key":"16","name":"Thüringen"}},{"name":"Laagweg","postalCode":"07973","locality":"Greiz","municipality":{"key":"16076022","name":"Greiz, Stadt","type":"Stadt"},"district":{"key":"16076","name":"Greiz","type":"Landkreis"},"federalState":{"key":"16","name":"Thüringen"}},{"name":"Landesgrenze","postalCode":"07973","locality":"Greiz","municipality":{"key":"16076022","name":"Greiz, Stadt","type":"Stadt"},"district":{"key":"16076","name":"Greiz","type":"Landkreis"},"federalState":{"key":"16","name":"Thüringen"}},{"name":"Lehnamühle","postalCode":"07973","locality":"Greiz","municipality":{"key":"16076022","name":"Greiz, Stadt","type":"Stadt"},"district":{"key":"16076","name":"Greiz","type":"Landkreis"},"federalState":{"key":"16","name":"Thüringen"}},{"name":"Leiningen","postalCode":"07973","locality":"Greiz","municipality":{"key":"16076022","name":"Greiz, Stadt","type":"Stadt"},"district":{"key":"16076","name":"Greiz","type":"Landkreis"},"federalState":{"key":"16","name":"Thüringen"}},{"name":"Leonhardtstr.","postalCode":"07973","locality":"Greiz","municipality":{"key":"16076022","name":"Greiz, Stadt","type":"Stadt"},"district":{"key":"16076","name":"Greiz","type":"Landkreis"},"federalState":{"key":"16","name":"Thüringen"}},{"name":"Lessingstr.","postalCode":"07973","locality":"Greiz","municipality":{"key":"16076022","name":"Greiz, Stadt","type":"Stadt"},"district":{"key":"16076","name":"Greiz","type":"Landkreis"},"federalState":{"key":"16","name":"Thüringen"}},{"name":"Lindenstr.","postalCode":"07973","locality":"Greiz","municipality":{"key":"16076022","name":"Greiz, Stadt","type":"Stadt"},"district":{"key":"16076","name":"Greiz","type":"Landkreis"},"federalState":{"key":"16","name":"Thüringen"}},{"name":"Listnerstr.","postalCode":"07973","locality":"Greiz","municipality":{"key":"16076022","name":"Greiz, Stadt","type":"Stadt"},"district":{"key":"16076","name":"Greiz","type":"Landkreis"},"federalState":{"key":"16","name":"Thüringen"}},{"name":"Löschweg","postalCode":"07973","locality":"Greiz","municipality":{"key":"16076022","name":"Greiz, Stadt","type":"Stadt"},"district":{"key":"16076","name":"Greiz","type":"Landkreis"},"federalState":{"key":"16","name":"Thüringen"}},{"name":"Ludwig-Pfröpffer-Str.","postalCode":"07973","locality":"Greiz","municipality":{"key":"16076022","name":"Greiz, Stadt","type":"Stadt"},"district":{"key":"16076","name":"Greiz","type":"Landkreis"},"federalState":{"key":"16","name":"Thüringen"}},{"name":"Luftbrücke","postalCode":"07973","locality":"Greiz","municipality":{"key":"16076022","name":"Greiz, Stadt","type":"Stadt"},"district":{"key":"16076","name":"Greiz","type":"Landkreis"},"federalState":{"key":"16","name":"Thüringen"}},{"name":"Lutherplatz","postalCode":"07973","locality":"Greiz","municipality":{"key":"16076022","name":"Greiz, Stadt","type":"Stadt"},"district":{"key":"16076","name":"Greiz","type":"Landkreis"},"federalState":{"key":"16","name":"Thüringen"}},{"name":"Marienstr.","postalCode":"07973","locality":"Greiz","municipality":{"key":"16076022","name":"Greiz, Stadt","type":"Stadt"},"district":{"key":"16076","name":"Greiz","type":"Landkreis"},"federalState":{"key":"16","name":"Thüringen"}},{"name":"Marstallstr.","postalCode":"07973","locality":"Greiz","municipality":{"key":"16076022","name":"Greiz, Stadt","type":"Stadt"},"district":{"key":"16076","name":"Greiz","type":"Landkreis"},"federalState":{"key":"16","name":"Thüringen"}},{"name":"Mitschurinweg","postalCode":"07973","locality":"Greiz","municipality":{"key":"16076022","name":"Greiz, Stadt","type":"Stadt"},"district":{"key":"16076","name":"Greiz","type":"Landkreis"},"federalState":{"key":"16","name":"Thüringen"}},{"name":"Mittelweg","postalCode":"07973","locality":"Greiz","municipality":{"key":"16076022","name":"Greiz, Stadt","type":"Stadt"},"district":{"key":"16076","name":"Greiz","type":"Landkreis"},"federalState":{"key":"16","name":"Thüringen"}},{"name":"Mohlsdorfer Str.","postalCode":"07973","locality":"Greiz","municipality":{"key":"16076022","name":"Greiz, Stadt","type":"Stadt"},"district":{"key":"16076","name":"Greiz","type":"Landkreis"},"federalState":{"key":"16","name":"Thüringen"}},{"name":"Mollbergstr.","postalCode":"07973","locality":"Greiz","municipality":{"key":"16076022","name":"Greiz, Stadt","type":"Stadt"},"district":{"key":"16076","name":"Greiz","type":"Landkreis"},"federalState":{"key":"16","name":"Thüringen"}},{"name":"Mönchsweg","postalCode":"07973","locality":"Greiz","municipality":{"key":"16076022","name":"Greiz, Stadt","type":"Stadt"},"district":{"key":"16076","name":"Greiz","type":"Landkreis"},"federalState":{"key":"16","name":"Thüringen"}},{"name":"Mühlberg","postalCode":"07973","locality":"Greiz","municipality":{"key":"16076022","name":"Greiz, Stadt","type":"Stadt"},"district":{"key":"16076","name":"Greiz","type":"Landkreis"},"federalState":{"key":"16","name":"Thüringen"}},{"name":"Mühlenhäuser Str.","postalCode":"07973","locality":"Greiz","municipality":{"key":"16076022","name":"Greiz, Stadt","type":"Stadt"},"district":{"key":"16076","name":"Greiz","type":"Landkreis"},"federalState":{"key":"16","name":"Thüringen"}},{"name":"Mühlgasse","postalCode":"07973","locality":"Greiz","municipality":{"key":"16076022","name":"Greiz, Stadt","type":"Stadt"},"district":{"key":"16076","name":"Greiz","type":"Landkreis"},"federalState":{"key":"16","name":"Thüringen"}},{"name":"Mühlweg","postalCode":"07973","locality":"Greiz","municipality":{"key":"16076022","name":"Greiz, Stadt","type":"Stadt"},"district":{"key":"16076","name":"Greiz","type":"Landkreis"},"federalState":{"key":"16","name":"Thüringen"}},{"name":"Mylauer Str.","postalCode":"07973","locality":"Greiz","municipality":{"key":"16076022","name":"Greiz, Stadt","type":"Stadt"},"district":{"key":"16076","name":"Greiz","type":"Landkreis"},"federalState":{"key":"16","name":"Thüringen"}},{"name":"Nahmmacherstr.","postalCode":"07973","locality":"Greiz","municipality":{"key":"16076022","name":"Greiz, Stadt","type":"Stadt"},"district":{"key":"16076","name":"Greiz","type":"Landkreis"},"federalState":{"key":"16","name":"Thüringen"}},{"name":"Neuer Weg","postalCode":"07973","locality":"Greiz","municipality":{"key":"16076022","name":"Greiz, Stadt","type":"Stadt"},"district":{"key":"16076","name":"Greiz","type":"Landkreis"},"federalState":{"key":"16","name":"Thüringen"}},{"name":"Neumühler Gartenweg","postalCode":"07973","locality":"Greiz","municipality":{"key":"16076022","name":"Greiz, Stadt","type":"Stadt"},"district":{"key":"16076","name":"Greiz","type":"Landkreis"},"federalState":{"key":"16","name":"Thüringen"}},{"name":"Neustadtring","postalCode":"07973","locality":"Greiz","municipality":{"key":"16076022","name":"Greiz, Stadt","type":"Stadt"},"district":{"key":"16076","name":"Greiz","type":"Landkreis"},"federalState":{"key":"16","name":"Thüringen"}},{"name":"Nordstr.","postalCode":"07973","locality":"Greiz","municipality":{"key":"16076022","name":"Greiz, Stadt","type":"Stadt"},"district":{"key":"16076","name":"Greiz","type":"Landkreis"},"federalState":{"key":"16","name":"Thüringen"}},{"name":"Nuschweg","postalCode":"07973","locality":"Greiz","municipality":{"key":"16076022","name":"Greiz, Stadt","type":"Stadt"},"district":{"key":"16076","name":"Greiz","type":"Landkreis"},"federalState":{"key":"16","name":"Thüringen"}},{"name":"Obere Braunstr.","postalCode":"07973","locality":"Greiz","municipality":{"key":"16076022","name":"Greiz, Stadt","type":"Stadt"},"district":{"key":"16076","name":"Greiz","type":"Landkreis"},"federalState":{"key":"16","name":"Thüringen"}},{"name":"Obere Silberstr.","postalCode":"07973","locality":"Greiz","municipality":{"key":"16076022","name":"Greiz, Stadt","type":"Stadt"},"district":{"key":"16076","name":"Greiz","type":"Landkreis"},"federalState":{"key":"16","name":"Thüringen"}},{"name":"Oberes Schloß","postalCode":"07973","locality":"Greiz","municipality":{"key":"16076022","name":"Greiz, Stadt","type":"Stadt"},"district":{"key":"16076","name":"Greiz","type":"Landkreis"},"federalState":{"key":"16","name":"Thüringen"}},{"name":"Obere Waltersdorfer Str.","postalCode":"07973","locality":"Greiz","municipality":{"key":"16076022","name":"Greiz, Stadt","type":"Stadt"},"district":{"key":"16076","name":"Greiz","type":"Landkreis"},"federalState":{"key":"16","name":"Thüringen"}},{"name":"Oekonomenweg","postalCode":"07973","locality":"Greiz","municipality":{"key":"16076022","name":"Greiz, Stadt","type":"Stadt"},"district":{"key":"16076","name":"Greiz","type":"Landkreis"},"federalState":{"key":"16","name":"Thüringen"}},{"name":"Oeltzschweg","postalCode":"07973","locality":"Greiz","municipality":{"key":"16076022","name":"Greiz, Stadt","type":"Stadt"},"district":{"key":"16076","name":"Greiz","type":"Landkreis"},"federalState":{"key":"16","name":"Thüringen"}},{"name":"Oettlerstr.","postalCode":"07973","locality":"Greiz","municipality":{"key":"16076022","name":"Greiz, Stadt","type":"Stadt"},"district":{"key":"16076","name":"Greiz","type":"Landkreis"},"federalState":{"key":"16","name":"Thüringen"}},{"name":"Oskar-Sala-Str.","postalCode":"07973","locality":"Greiz","municipality":{"key":"16076022","name":"Greiz, Stadt","type":"Stadt"},"district":{"key":"16076","name":"Greiz","type":"Landkreis"},"federalState":{"key":"16","name":"Thüringen"}},{"name":"Oßwaldstr.","postalCode":"07973","locality":"Greiz","municipality":{"key":"16076022","name":"Greiz, Stadt","type":"Stadt"},"district":{"key":"16076","name":"Greiz","type":"Landkreis"},"federalState":{"key":"16","name":"Thüringen"}},{"name":"Otto-Güther-Str.","postalCode":"07973","locality":"Greiz","municipality":{"key":"16076022","name":"Greiz, Stadt","type":"Stadt"},"district":{"key":"16076","name":"Greiz","type":"Landkreis"},"federalState":{"key":"16","name":"Thüringen"}},{"name":"Otto-Meier-Str.","postalCode":"07973","locality":"Greiz","municipality":{"key":"16076022","name":"Greiz, Stadt","type":"Stadt"},"district":{"key":"16076","name":"Greiz","type":"Landkreis"},"federalState":{"key":"16","name":"Thüringen"}},{"name":"Panoramaweg","postalCode":"07973","locality":"Greiz","municipality":{"key":"16076022","name":"Greiz, Stadt","type":"Stadt"},"district":{"key":"16076","name":"Greiz","type":"Landkreis"},"federalState":{"key":"16","name":"Thüringen"}},{"name":"Pansdorf","postalCode":"07973","locality":"Greiz","municipality":{"key":"16076022","name":"Greiz, Stadt","type":"Stadt"},"district":{"key":"16076","name":"Greiz","type":"Landkreis"},"federalState":{"key":"16","name":"Thüringen"}},{"name":"Pansdorfer Str.","postalCode":"07973","locality":"Greiz","municipality":{"key":"16076022","name":"Greiz, Stadt","type":"Stadt"},"district":{"key":"16076","name":"Greiz","type":"Landkreis"},"federalState":{"key":"16","name":"Thüringen"}},{"name":"Papiermühlenweg","postalCode":"07973","locality":"Greiz","municipality":{"key":"16076022","name":"Greiz, Stadt","type":"Stadt"},"district":{"key":"16076","name":"Greiz","type":"Landkreis"},"federalState":{"key":"16","name":"Thüringen"}},{"name":"Parkgasse","postalCode":"07973","locality":"Greiz","municipality":{"key":"16076022","name":"Greiz, Stadt","type":"Stadt"},"district":{"key":"16076","name":"Greiz","type":"Landkreis"},"federalState":{"key":"16","name":"Thüringen"}},{"name":"Paul-Ernst-Weg","postalCode":"07973","locality":"Greiz","municipality":{"key":"16076022","name":"Greiz, Stadt","type":"Stadt"},"district":{"key":"16076","name":"Greiz","type":"Landkreis"},"federalState":{"key":"16","name":"Thüringen"}},{"name":"Paul-Kiß-Str.","postalCode":"07973","locality":"Greiz","municipality":{"key":"16076022","name":"Greiz, Stadt","type":"Stadt"},"district":{"key":"16076","name":"Greiz","type":"Landkreis"},"federalState":{"key":"16","name":"Thüringen"}},{"name":"Petzoldstr.","postalCode":"07973","locality":"Greiz","municipality":{"key":"16076022","name":"Greiz, Stadt","type":"Stadt"},"district":{"key":"16076","name":"Greiz","type":"Landkreis"},"federalState":{"key":"16","name":"Thüringen"}},{"name":"Pfarrweg","postalCode":"07973","locality":"Greiz","municipality":{"key":"16076022","name":"Greiz, Stadt","type":"Stadt"},"district":{"key":"16076","name":"Greiz","type":"Landkreis"},"federalState":{"key":"16","name":"Thüringen"}},{"name":"Plauensche Str.","postalCode":"07973","locality":"Greiz","municipality":{"key":"16076022","name":"Greiz, Stadt","type":"Stadt"},"district":{"key":"16076","name":"Greiz","type":"Landkreis"},"federalState":{"key":"16","name":"Thüringen"}},{"name":"Plietzstr.","postalCode":"07973","locality":"Greiz","municipality":{"key":"16076022","name":"Greiz, Stadt","type":"Stadt"},"district":{"key":"16076","name":"Greiz","type":"Landkreis"},"federalState":{"key":"16","name":"Thüringen"}},{"name":"Pohlitzer Str.","postalCode":"07973","locality":"Greiz","municipality":{"key":"16076022","name":"Greiz, Stadt","type":"Stadt"},"district":{"key":"16076","name":"Greiz","type":"Landkreis"},"federalState":{"key":"16","name":"Thüringen"}},{"name":"Pohlitzer Weg","postalCode":"07973","locality":"Greiz","municipality":{"key":"16076022","name":"Greiz, Stadt","type":"Stadt"},"district":{"key":"16076","name":"Greiz","type":"Landkreis"},"federalState":{"key":"16","name":"Thüringen"}},{"name":"Pohlitzplatz","postalCode":"07973","locality":"Greiz","municipality":{"key":"16076022","name":"Greiz, Stadt","type":"Stadt"},"district":{"key":"16076","name":"Greiz","type":"Landkreis"},"federalState":{"key":"16","name":"Thüringen"}},{"name":"Pommeranz","postalCode":"07973","locality":"Greiz","municipality":{"key":"16076022","name":"Greiz, Stadt","type":"Stadt"},"district":{"key":"16076","name":"Greiz","type":"Landkreis"},"federalState":{"key":"16","name":"Thüringen"}},{"name":"Poststr.","postalCode":"07973","locality":"Greiz","municipality":{"key":"16076022","name":"Greiz, Stadt","type":"Stadt"},"district":{"key":"16076","name":"Greiz","type":"Landkreis"},"federalState":{"key":"16","name":"Thüringen"}},{"name":"Prof.-Dr.-Friedrich-Schneider-Str.","postalCode":"07973","locality":"Greiz","municipality":{"key":"16076022","name":"Greiz, Stadt","type":"Stadt"},"district":{"key":"16076","name":"Greiz","type":"Landkreis"},"federalState":{"key":"16","name":"Thüringen"}},{"name":"Puschkinplatz","postalCode":"07973","locality":"Greiz","municipality":{"key":"16076022","name":"Greiz, Stadt","type":"Stadt"},"district":{"key":"16076","name":"Greiz","type":"Landkreis"},"federalState":{"key":"16","name":"Thüringen"}},{"name":"Raasdorfer Str.","postalCode":"07973","locality":"Greiz","municipality":{"key":"16076022","name":"Greiz, Stadt","type":"Stadt"},"district":{"key":"16076","name":"Greiz","type":"Landkreis"},"federalState":{"key":"16","name":"Thüringen"}},{"name":"Raunerstr.","postalCode":"07973","locality":"Greiz","municipality":{"key":"16076022","name":"Greiz, Stadt","type":"Stadt"},"district":{"key":"16076","name":"Greiz","type":"Landkreis"},"federalState":{"key":"16","name":"Thüringen"}},{"name":"Reichenbacher Str.","postalCode":"07973","locality":"Greiz","municipality":{"key":"16076022","name":"Greiz, Stadt","type":"Stadt"},"district":{"key":"16076","name":"Greiz","type":"Landkreis"},"federalState":{"key":"16","name":"Thüringen"}},{"name":"Reinsdorfer Alte Gasse","postalCode":"07973","locality":"Greiz","municipality":{"key":"16076022","name":"Greiz, Stadt","type":"Stadt"},"district":{"key":"16076","name":"Greiz","type":"Landkreis"},"federalState":{"key":"16","name":"Thüringen"}},{"name":"Reinsdorfer Str.","postalCode":"07973","locality":"Greiz","municipality":{"key":"16076022","name":"Greiz, Stadt","type":"Stadt"},"district":{"key":"16076","name":"Greiz","type":"Landkreis"},"federalState":{"key":"16","name":"Thüringen"}},{"name":"Reißbergplatz","postalCode":"07973","locality":"Greiz","municipality":{"key":"16076022","name":"Greiz, Stadt","type":"Stadt"},"district":{"key":"16076","name":"Greiz","type":"Landkreis"},"federalState":{"key":"16","name":"Thüringen"}},{"name":"Rilkestr.","postalCode":"07973","locality":"Greiz","municipality":{"key":"16076022","name":"Greiz, Stadt","type":"Stadt"},"district":{"key":"16076","name":"Greiz","type":"Landkreis"},"federalState":{"key":"16","name":"Thüringen"}},{"name":"Rosa-Luxemburg-Str.","postalCode":"07973","locality":"Greiz","municipality":{"key":"16076022","name":"Greiz, Stadt","type":"Stadt"},"district":{"key":"16076","name":"Greiz","type":"Landkreis"},"federalState":{"key":"16","name":"Thüringen"}},{"name":"Rosenweg","postalCode":"07973","locality":"Greiz","municipality":{"key":"16076022","name":"Greiz, Stadt","type":"Stadt"},"district":{"key":"16076","name":"Greiz","type":"Landkreis"},"federalState":{"key":"16","name":"Thüringen"}},{"name":"Rückeweg","postalCode":"07973","locality":"Greiz","municipality":{"key":"16076022","name":"Greiz, Stadt","type":"Stadt"},"district":{"key":"16076","name":"Greiz","type":"Landkreis"},"federalState":{"key":"16","name":"Thüringen"}},{"name":"Rudolf-Breitscheid-Str.","postalCode":"07973","locality":"Greiz","municipality":{"key":"16076022","name":"Greiz, Stadt","type":"Stadt"},"district":{"key":"16076","name":"Greiz","type":"Landkreis"},"federalState":{"key":"16","name":"Thüringen"}},{"name":"Schmöllner Str.","postalCode":"07580","locality":"Reichstädt","municipality":{"key":"16076059","name":"Reichstädt","type":"Kreisangehörige_Gemeinde"},"district":{"key":"16076","name":"Greiz","type":"Landkreis"},"federalState":{"key":"16","name":"Thüringen"}},{"name":"Siedlerweg","postalCode":"07580","locality":"Reichstädt","municipality":{"key":"16076059","name":"Reichstädt","type":"Kreisangehörige_Gemeinde"},"district":{"key":"16076","name":"Greiz","type":"Landkreis"},"federalState":{"key":"16","name":"Thüringen"}},{"name":"Thal","postalCode":"07580","locality":"Reichstädt","municipality":{"key":"16076059","name":"Reichstädt","type":"Kreisangehörige_Gemeinde"},"district":{"key":"16076","name":"Greiz","type":"Landkreis"},"federalState":{"key":"16","name":"Thüringen"}},{"name":"Uhlandstr.","postalCode":"07973","locality":"Greiz","municipality":{"key":"16076022","name":"Greiz, Stadt","type":"Stadt"},"district":{"key":"16076","name":"Greiz","type":"Landkreis"},"federalState":{"key":"16","name":"Thüringen"}},{"name":"Untere Bahnstr.","postalCode":"07973","locality":"Greiz","municipality":{"key":"16076022","name":"Greiz, Stadt","type":"Stadt"},"district":{"key":"16076","name":"Greiz","type":"Landkreis"},"federalState":{"key":"16","name":"Thüringen"}},{"name":"Untere Braunstr.","postalCode":"07973","locality":"Greiz","municipality":{"key":"16076022","name":"Greiz, Stadt","type":"Stadt"},"district":{"key":"16076","name":"Greiz","type":"Landkreis"},"federalState":{"key":"16","name":"Thüringen"}},{"name":"Untere Silberstr.","postalCode":"07973","locality":"Greiz","municipality":{"key":"16076022","name":"Greiz, Stadt","type":"Stadt"},"district":{"key":"16076","name":"Greiz","type":"Landkreis"},"federalState":{"key":"16","name":"Thüringen"}},{"name":"Untergrochlitzer Str.","postalCode":"07973","locality":"Greiz","municipality":{"key":"16076022","name":"Greiz, Stadt","type":"Stadt"},"district":{"key":"16076","name":"Greiz","type":"Landkreis"},"federalState":{"key":"16","name":"Thüringen"}},{"name":"Vater-Jahn-Str.","postalCode":"07973","locality":"Greiz","municipality":{"key":"16076022","name":"Greiz, Stadt","type":"Stadt"},"district":{"key":"16076","name":"Greiz","type":"Landkreis"},"federalState":{"key":"16","name":"Thüringen"}},{"name":"Verbindungsweg 1","postalCode":"07973","locality":"Greiz","municipality":{"key":"16076022","name":"Greiz, Stadt","type":"Stadt"},"district":{"key":"16076","name":"Greiz","type":"Landkreis"},"federalState":{"key":"16","name":"Thüringen"}},{"name":"Verbindungsweg 2","postalCode":"07973","locality":"Greiz","municipality":{"key":"16076022","name":"Greiz, Stadt","type":"Stadt"},"district":{"key":"16076","name":"Greiz","type":"Landkreis"},"federalState":{"key":"16","name":"Thüringen"}},{"name":"verlängerte Irchwitzer Str.","postalCode":"07973","locality":"Greiz","municipality":{"key":"16076022","name":"Greiz, Stadt","type":"Stadt"},"district":{"key":"16076","name":"Greiz","type":"Landkreis"},"federalState":{"key":"16","name":"Thüringen"}},{"name":"Vogtlandblick","postalCode":"07973","locality":"Greiz","municipality":{"key":"16076022","name":"Greiz, Stadt","type":"Stadt"},"district":{"key":"16076","name":"Greiz","type":"Landkreis"},"federalState":{"key":"16","name":"Thüringen"}},{"name":"Vogtland-Panorama-Weg","postalCode":"07973","locality":"Greiz","municipality":{"key":"16076022","name":"Greiz, Stadt","type":"Stadt"},"district":{"key":"16076","name":"Greiz","type":"Landkreis"},"federalState":{"key":"16","name":"Thüringen"}},{"name":"Von-Westernhagen-Platz","postalCode":"07973","locality":"Greiz","municipality":{"key":"16076022","name":"Greiz, Stadt","type":"Stadt"},"district":{"key":"16076","name":"Greiz","type":"Landkreis"},"federalState":{"key":"16","name":"Thüringen"}},{"name":"Vorwerkstr.","postalCode":"07973","locality":"Greiz","municipality":{"key":"16076022","name":"Greiz, Stadt","type":"Stadt"},"district":{"key":"16076","name":"Greiz","type":"Landkreis"},"federalState":{"key":"16","name":"Thüringen"}},{"name":"Waldhausstr.","postalCode":"07973","locality":"Greiz","municipality":{"key":"16076022","name":"Greiz, Stadt","type":"Stadt"},"district":{"key":"16076","name":"Greiz","type":"Landkreis"},"federalState":{"key":"16","name":"Thüringen"}},{"name":"Waldstr.","postalCode":"07973","locality":"Greiz","municipality":{"key":"16076022","name":"Greiz, Stadt","type":"Stadt"},"district":{"key":"16076","name":"Greiz","type":"Landkreis"},"federalState":{"key":"16","name":"Thüringen"}},{"name":"Waltersdorfer Str.","postalCode":"07973","locality":"Greiz","municipality":{"key":"16076022","name":"Greiz, Stadt","type":"Stadt"},"district":{"key":"16076","name":"Greiz","type":"Landkreis"},"federalState":{"key":"16","name":"Thüringen"}},{"name":"Wasserweg","postalCode":"07973","locality":"Greiz","municipality":{"key":"16076022","name":"Greiz, Stadt","type":"Stadt"},"district":{"key":"16076","name":"Greiz","type":"Landkreis"},"federalState":{"key":"16","name":"Thüringen"}},{"name":"Weberstr.","postalCode":"07973","locality":"Greiz","municipality":{"key":"16076022","name":"Greiz, Stadt","type":"Stadt"},"district":{"key":"16076","name":"Greiz","type":"Landkreis"},"federalState":{"key":"16","name":"Thüringen"}},{"name":"Werdauer Str.","postalCode":"07973","locality":"Greiz","municipality":{"key":"16076022","name":"Greiz, Stadt","type":"Stadt"},"district":{"key":"16076","name":"Greiz","type":"Landkreis"},"federalState":{"key":"16","name":"Thüringen"}},{"name":"Wettengelstr.","postalCode":"07973","locality":"Greiz","municipality":{"key":"16076022","name":"Greiz, Stadt","type":"Stadt"},"district":{"key":"16076","name":"Greiz","type":"Landkreis"},"federalState":{"key":"16","name":"Thüringen"}},{"name":"Wiesenstr.","postalCode":"07973","locality":"Greiz","municipality":{"key":"16076022","name":"Greiz, Stadt","type":"Stadt"},"district":{"key":"16076","name":"Greiz","type":"Landkreis"},"federalState":{"key":"16","name":"Thüringen"}},{"name":"Windmühlenweg","postalCode":"07973","locality":"Greiz","municipality":{"key":"16076022","name":"Greiz, Stadt","type":"Stadt"},"district":{"key":"16076","name":"Greiz","type":"Landkreis"},"federalState":{"key":"16","name":"Thüringen"}},{"name":"Wüstenteichstr.","postalCode":"07973","locality":"Greiz","municipality":{"key":"16076022","name":"Greiz, Stadt","type":"Stadt"},"district":{"key":"16076","name":"Greiz","type":"Landkreis"},"federalState":{"key":"16","name":"Thüringen"}},{"name":"Zaschbergstr.","postalCode":"07973","locality":"Greiz","municipality":{"key":"16076022","name":"Greiz, Stadt","type":"Stadt"},"district":{"key":"16076","name":"Greiz","type":"Landkreis"},"federalState":{"key":"16","name":"Thüringen"}},{"name":"Zentastr.","postalCode":"07973","locality":"Greiz","municipality":{"key":"16076022","name":"Greiz, Stadt","type":"Stadt"},"district":{"key":"16076","name":"Greiz","type":"Landkreis"},"federalState":{"key":"16","name":"Thüringen"}},{"name":"Zeulenrodaer Str.","postalCode":"07973","locality":"Greiz","municipality":{"key":"16076022","name":"Greiz, Stadt","type":"Stadt"},"district":{"key":"16076","name":"Greiz","type":"Landkreis"},"federalState":{"key":"16","name":"Thüringen"}},{"name":"Ziegeleistr.","postalCode":"07973","locality":"Greiz","municipality":{"key":"16076022","name":"Greiz, Stadt","type":"Stadt"},"district":{"key":"16076","name":"Greiz","type":"Landkreis"},"federalState":{"key":"16","name":"Thüringen"}},{"name":"Zieglersweg","postalCode":"07973","locality":"Greiz","municipality":{"key":"16076022","name":"Greiz, Stadt","type":"Stadt"},"district":{"key":"16076","name":"Greiz","type":"Landkreis"},"federalState":{"key":"16","name":"Thüringen"}},{"name":"Zur Gasse","postalCode":"07973","locality":"Greiz","municipality":{"key":"16076022","name":"Greiz, Stadt","type":"Stadt"},"district":{"key":"16076","name":"Greiz","type":"Landkreis"},"federalState":{"key":"16","name":"Thüringen"}},{"name":"Zur Steinermühle","postalCode":"07973","locality":"Greiz","municipality":{"key":"16076022","name":"Greiz, Stadt","type":"Stadt"},"district":{"key":"16076","name":"Greiz","type":"Landkreis"},"federalState":{"key":"16","name":"Thüringen"}},{"name":"Zwischen den Sandgruben","postalCode":"07973","locality":"Greiz","municipality":{"key":"16076022","name":"Greiz, Stadt","type":"Stadt"},"district":{"key":"16076","name":"Greiz","type":"Landkreis"},"federalState":{"key":"16","name":"Thüringen"}},{"name":"Äußere Zeulenrodaer Str.","postalCode":"07973","locality":"Greiz","municipality":{"key":"16076022","name":"Greiz, Stadt","type":"Stadt"},"district":{"key":"16076","name":"Greiz","type":"Landkreis"},"federalState":{"key":"16","name":"Thüringen"}},]