[{"name":"Ahornweg","postalCode":"34388","locality":"Trendelburg","municipality":{"key":"06633025","name":"Trendelburg, Stadt","type":"Stadt"},"district":{"key":"06633","name":"Kassel","type":"Landkreis"},"federalState":{"key":"06","name":"Hessen"}},{"name":"Albrecht-Dürer-Str.","postalCode":"34388","locality":"Trendelburg","municipality":{"key":"06633025","name":"Trendelburg, Stadt","type":"Stadt"},"district":{"key":"06633","name":"Kassel","type":"Landkreis"},"federalState":{"key":"06","name":"Hessen"}},{"name":"Alter Schulhof","postalCode":"34388","locality":"Trendelburg","municipality":{"key":"06633025","name":"Trendelburg, Stadt","type":"Stadt"},"district":{"key":"06633","name":"Kassel","type":"Landkreis"},"federalState":{"key":"06","name":"Hessen"}},{"name":"Altes Tor","postalCode":"34388","locality":"Trendelburg","municipality":{"key":"06633025","name":"Trendelburg, Stadt","type":"Stadt"},"district":{"key":"06633","name":"Kassel","type":"Landkreis"},"federalState":{"key":"06","name":"Hessen"}},{"name":"Am Alten Backhaus","postalCode":"34388","locality":"Trendelburg","municipality":{"key":"06633025","name":"Trendelburg, Stadt","type":"Stadt"},"district":{"key":"06633","name":"Kassel","type":"Landkreis"},"federalState":{"key":"06","name":"Hessen"}},{"name":"Am Alten Dreschplatz","postalCode":"34388","locality":"Trendelburg","municipality":{"key":"06633025","name":"Trendelburg, Stadt","type":"Stadt"},"district":{"key":"06633","name":"Kassel","type":"Landkreis"},"federalState":{"key":"06","name":"Hessen"}},{"name":"Am Anger","postalCode":"34388","locality":"Trendelburg","municipality":{"key":"06633025","name":"Trendelburg, Stadt","type":"Stadt"},"district":{"key":"06633","name":"Kassel","type":"Landkreis"},"federalState":{"key":"06","name":"Hessen"}},{"name":"Am Bach","postalCode":"34388","locality":"Trendelburg","municipality":{"key":"06633025","name":"Trendelburg, Stadt","type":"Stadt"},"district":{"key":"06633","name":"Kassel","type":"Landkreis"},"federalState":{"key":"06","name":"Hessen"}},{"name":"Am Berg","postalCode":"34388","locality":"Trendelburg","municipality":{"key":"06633025","name":"Trendelburg, Stadt","type":"Stadt"},"district":{"key":"06633","name":"Kassel","type":"Landkreis"},"federalState":{"key":"06","name":"Hessen"}},{"name":"Am Brunnen","postalCode":"34388","locality":"Trendelburg","municipality":{"key":"06633025","name":"Trendelburg, Stadt","type":"Stadt"},"district":{"key":"06633","name":"Kassel","type":"Landkreis"},"federalState":{"key":"06","name":"Hessen"}},{"name":"Am Exterberg","postalCode":"34388","locality":"Trendelburg","municipality":{"key":"06633025","name":"Trendelburg, Stadt","type":"Stadt"},"district":{"key":"06633","name":"Kassel","type":"Landkreis"},"federalState":{"key":"06","name":"Hessen"}},{"name":"Am Graben","postalCode":"34388","locality":"Trendelburg","municipality":{"key":"06633025","name":"Trendelburg, Stadt","type":"Stadt"},"district":{"key":"06633","name":"Kassel","type":"Landkreis"},"federalState":{"key":"06","name":"Hessen"}},{"name":"Am Hassel","postalCode":"34388","locality":"Trendelburg","municipality":{"key":"06633025","name":"Trendelburg, Stadt","type":"Stadt"},"district":{"key":"06633","name":"Kassel","type":"Landkreis"},"federalState":{"key":"06","name":"Hessen"}},{"name":"Am Hungerbach","postalCode":"34388","locality":"Trendelburg","municipality":{"key":"06633025","name":"Trendelburg, Stadt","type":"Stadt"},"district":{"key":"06633","name":"Kassel","type":"Landkreis"},"federalState":{"key":"06","name":"Hessen"}},{"name":"Am Kalkofen","postalCode":"34388","locality":"Trendelburg","municipality":{"key":"06633025","name":"Trendelburg, Stadt","type":"Stadt"},"district":{"key":"06633","name":"Kassel","type":"Landkreis"},"federalState":{"key":"06","name":"Hessen"}},{"name":"Am Katzbach","postalCode":"34388","locality":"Trendelburg","municipality":{"key":"06633025","name":"Trendelburg, Stadt","type":"Stadt"},"district":{"key":"06633","name":"Kassel","type":"Landkreis"},"federalState":{"key":"06","name":"Hessen"}},{"name":"Am Kirchhof","postalCode":"34388","locality":"Trendelburg","municipality":{"key":"06633025","name":"Trendelburg, Stadt","type":"Stadt"},"district":{"key":"06633","name":"Kassel","type":"Landkreis"},"federalState":{"key":"06","name":"Hessen"}},{"name":"Am Nacken","postalCode":"34388","locality":"Trendelburg","municipality":{"key":"06633025","name":"Trendelburg, Stadt","type":"Stadt"},"district":{"key":"06633","name":"Kassel","type":"Landkreis"},"federalState":{"key":"06","name":"Hessen"}},{"name":"Am Rathaus","postalCode":"34388","locality":"Trendelburg","municipality":{"key":"06633025","name":"Trendelburg, Stadt","type":"Stadt"},"district":{"key":"06633","name":"Kassel","type":"Landkreis"},"federalState":{"key":"06","name":"Hessen"}},{"name":"Am Sandwurf","postalCode":"34388","locality":"Trendelburg","municipality":{"key":"06633025","name":"Trendelburg, Stadt","type":"Stadt"},"district":{"key":"06633","name":"Kassel","type":"Landkreis"},"federalState":{"key":"06","name":"Hessen"}},{"name":"Am Schöneberger Hof","postalCode":"34388","locality":"Trendelburg","municipality":{"key":"06633025","name":"Trendelburg, Stadt","type":"Stadt"},"district":{"key":"06633","name":"Kassel","type":"Landkreis"},"federalState":{"key":"06","name":"Hessen"}},{"name":"Am Sonnenhang","postalCode":"34388","locality":"Trendelburg","municipality":{"key":"06633025","name":"Trendelburg, Stadt","type":"Stadt"},"district":{"key":"06633","name":"Kassel","type":"Landkreis"},"federalState":{"key":"06","name":"Hessen"}},{"name":"Am Winterhof","postalCode":"34388","locality":"Trendelburg","municipality":{"key":"06633025","name":"Trendelburg, Stadt","type":"Stadt"},"district":{"key":"06633","name":"Kassel","type":"Landkreis"},"federalState":{"key":"06","name":"Hessen"}},{"name":"An den Anlagen","postalCode":"34388","locality":"Trendelburg","municipality":{"key":"06633025","name":"Trendelburg, Stadt","type":"Stadt"},"district":{"key":"06633","name":"Kassel","type":"Landkreis"},"federalState":{"key":"06","name":"Hessen"}},{"name":"An der Diemel","postalCode":"34388","locality":"Trendelburg","municipality":{"key":"06633025","name":"Trendelburg, Stadt","type":"Stadt"},"district":{"key":"06633","name":"Kassel","type":"Landkreis"},"federalState":{"key":"06","name":"Hessen"}},{"name":"An der Halbe","postalCode":"34388","locality":"Trendelburg","municipality":{"key":"06633025","name":"Trendelburg, Stadt","type":"Stadt"},"district":{"key":"06633","name":"Kassel","type":"Landkreis"},"federalState":{"key":"06","name":"Hessen"}},{"name":"An der Kirche","postalCode":"34388","locality":"Trendelburg","municipality":{"key":"06633025","name":"Trendelburg, Stadt","type":"Stadt"},"district":{"key":"06633","name":"Kassel","type":"Landkreis"},"federalState":{"key":"06","name":"Hessen"}},{"name":"Auf der Breite","postalCode":"34388","locality":"Trendelburg","municipality":{"key":"06633025","name":"Trendelburg, Stadt","type":"Stadt"},"district":{"key":"06633","name":"Kassel","type":"Landkreis"},"federalState":{"key":"06","name":"Hessen"}},{"name":"Auf der Steingrube","postalCode":"34388","locality":"Trendelburg","municipality":{"key":"06633025","name":"Trendelburg, Stadt","type":"Stadt"},"district":{"key":"06633","name":"Kassel","type":"Landkreis"},"federalState":{"key":"06","name":"Hessen"}},{"name":"Auf der Walme","postalCode":"34388","locality":"Trendelburg","municipality":{"key":"06633025","name":"Trendelburg, Stadt","type":"Stadt"},"district":{"key":"06633","name":"Kassel","type":"Landkreis"},"federalState":{"key":"06","name":"Hessen"}},{"name":"Auf der Worth","postalCode":"34388","locality":"Trendelburg","municipality":{"key":"06633025","name":"Trendelburg, Stadt","type":"Stadt"},"district":{"key":"06633","name":"Kassel","type":"Landkreis"},"federalState":{"key":"06","name":"Hessen"}},{"name":"Bachstr.","postalCode":"34388","locality":"Trendelburg","municipality":{"key":"06633025","name":"Trendelburg, Stadt","type":"Stadt"},"district":{"key":"06633","name":"Kassel","type":"Landkreis"},"federalState":{"key":"06","name":"Hessen"}},{"name":"Bahnhofsweg","postalCode":"34388","locality":"Trendelburg","municipality":{"key":"06633025","name":"Trendelburg, Stadt","type":"Stadt"},"district":{"key":"06633","name":"Kassel","type":"Landkreis"},"federalState":{"key":"06","name":"Hessen"}},{"name":"Baubergstr.","postalCode":"34388","locality":"Trendelburg","municipality":{"key":"06633025","name":"Trendelburg, Stadt","type":"Stadt"},"district":{"key":"06633","name":"Kassel","type":"Landkreis"},"federalState":{"key":"06","name":"Hessen"}},{"name":"Beckerseite","postalCode":"34388","locality":"Trendelburg","municipality":{"key":"06633025","name":"Trendelburg, Stadt","type":"Stadt"},"district":{"key":"06633","name":"Kassel","type":"Landkreis"},"federalState":{"key":"06","name":"Hessen"}},{"name":"Bei der Kirche","postalCode":"34388","locality":"Trendelburg","municipality":{"key":"06633025","name":"Trendelburg, Stadt","type":"Stadt"},"district":{"key":"06633","name":"Kassel","type":"Landkreis"},"federalState":{"key":"06","name":"Hessen"}},{"name":"Bensdorf","postalCode":"34388","locality":"Trendelburg","municipality":{"key":"06633025","name":"Trendelburg, Stadt","type":"Stadt"},"district":{"key":"06633","name":"Kassel","type":"Landkreis"},"federalState":{"key":"06","name":"Hessen"}},{"name":"Birkenweg","postalCode":"34388","locality":"Trendelburg","municipality":{"key":"06633025","name":"Trendelburg, Stadt","type":"Stadt"},"district":{"key":"06633","name":"Kassel","type":"Landkreis"},"federalState":{"key":"06","name":"Hessen"}},{"name":"Borngrund","postalCode":"34388","locality":"Trendelburg","municipality":{"key":"06633025","name":"Trendelburg, Stadt","type":"Stadt"},"district":{"key":"06633","name":"Kassel","type":"Landkreis"},"federalState":{"key":"06","name":"Hessen"}},{"name":"Breite","postalCode":"34388","locality":"Trendelburg","municipality":{"key":"06633025","name":"Trendelburg, Stadt","type":"Stadt"},"district":{"key":"06633","name":"Kassel","type":"Landkreis"},"federalState":{"key":"06","name":"Hessen"}},{"name":"Bremer Str.","postalCode":"34388","locality":"Trendelburg","municipality":{"key":"06633025","name":"Trendelburg, Stadt","type":"Stadt"},"district":{"key":"06633","name":"Kassel","type":"Landkreis"},"federalState":{"key":"06","name":"Hessen"}},{"name":"Bruchweg","postalCode":"34388","locality":"Trendelburg","municipality":{"key":"06633025","name":"Trendelburg, Stadt","type":"Stadt"},"district":{"key":"06633","name":"Kassel","type":"Landkreis"},"federalState":{"key":"06","name":"Hessen"}},{"name":"Brückenstr.","postalCode":"34388","locality":"Trendelburg","municipality":{"key":"06633025","name":"Trendelburg, Stadt","type":"Stadt"},"district":{"key":"06633","name":"Kassel","type":"Landkreis"},"federalState":{"key":"06","name":"Hessen"}},{"name":"Brückeweg","postalCode":"34388","locality":"Trendelburg","municipality":{"key":"06633025","name":"Trendelburg, Stadt","type":"Stadt"},"district":{"key":"06633","name":"Kassel","type":"Landkreis"},"federalState":{"key":"06","name":"Hessen"}},{"name":"Brüder-Grimm-Weg","postalCode":"34388","locality":"Trendelburg","municipality":{"key":"06633025","name":"Trendelburg, Stadt","type":"Stadt"},"district":{"key":"06633","name":"Kassel","type":"Landkreis"},"federalState":{"key":"06","name":"Hessen"}},{"name":"Brunnenweg","postalCode":"34388","locality":"Trendelburg","municipality":{"key":"06633025","name":"Trendelburg, Stadt","type":"Stadt"},"district":{"key":"06633","name":"Kassel","type":"Landkreis"},"federalState":{"key":"06","name":"Hessen"}},{"name":"Buchenweg","postalCode":"34388","locality":"Trendelburg","municipality":{"key":"06633025","name":"Trendelburg, Stadt","type":"Stadt"},"district":{"key":"06633","name":"Kassel","type":"Landkreis"},"federalState":{"key":"06","name":"Hessen"}},{"name":"Büngeberg","postalCode":"34388","locality":"Trendelburg","municipality":{"key":"06633025","name":"Trendelburg, Stadt","type":"Stadt"},"district":{"key":"06633","name":"Kassel","type":"Landkreis"},"federalState":{"key":"06","name":"Hessen"}},{"name":"Burgblickweg","postalCode":"34388","locality":"Trendelburg","municipality":{"key":"06633025","name":"Trendelburg, Stadt","type":"Stadt"},"district":{"key":"06633","name":"Kassel","type":"Landkreis"},"federalState":{"key":"06","name":"Hessen"}},{"name":"Bürgermeister-Franz-Witzel-Str.","postalCode":"34388","locality":"Trendelburg","municipality":{"key":"06633025","name":"Trendelburg, Stadt","type":"Stadt"},"district":{"key":"06633","name":"Kassel","type":"Landkreis"},"federalState":{"key":"06","name":"Hessen"}},{"name":"Bürgermeister-Gertenbach-Str.","postalCode":"34388","locality":"Trendelburg","municipality":{"key":"06633025","name":"Trendelburg, Stadt","type":"Stadt"},"district":{"key":"06633","name":"Kassel","type":"Landkreis"},"federalState":{"key":"06","name":"Hessen"}},{"name":"Bürgermeister-Scherp-Str.","postalCode":"34388","locality":"Trendelburg","municipality":{"key":"06633025","name":"Trendelburg, Stadt","type":"Stadt"},"district":{"key":"06633","name":"Kassel","type":"Landkreis"},"federalState":{"key":"06","name":"Hessen"}},{"name":"Burgweg","postalCode":"34388","locality":"Trendelburg","municipality":{"key":"06633025","name":"Trendelburg, Stadt","type":"Stadt"},"district":{"key":"06633","name":"Kassel","type":"Landkreis"},"federalState":{"key":"06","name":"Hessen"}},{"name":"Buschlandweg","postalCode":"34388","locality":"Trendelburg","municipality":{"key":"06633025","name":"Trendelburg, Stadt","type":"Stadt"},"district":{"key":"06633","name":"Kassel","type":"Landkreis"},"federalState":{"key":"06","name":"Hessen"}},{"name":"Cäcilienweg","postalCode":"53859","locality":"Niederkassel","municipality":{"key":"05382044","name":"Niederkassel, Stadt","type":"Stadt"},"district":{"key":"05382","name":"Rhein-Sieg-Kreis","type":"Kreis"},"federalState":{"key":"05","name":"Nordrhein-Westfalen"}},{"name":"Caldener Str.","postalCode":"34127","locality":"Kassel","municipality":{"key":"06611000","name":"Kassel, documenta-Stadt","type":"Kreisfreie_Stadt"},"district":{"key":"06611","name":"Kassel, documenta-Stadt","type":"Kreisfreie_Stadt"},"federalState":{"key":"06","name":"Hessen"}},{"name":"Carl-Benz-Ring","postalCode":"53859","locality":"Niederkassel","municipality":{"key":"05382044","name":"Niederkassel, Stadt","type":"Stadt"},"district":{"key":"05382","name":"Rhein-Sieg-Kreis","type":"Kreis"},"federalState":{"key":"05","name":"Nordrhein-Westfalen"}},{"name":"Carlo-Mierendorff-Str.","postalCode":"34132","locality":"Kassel","municipality":{"key":"06611000","name":"Kassel, documenta-Stadt","type":"Kreisfreie_Stadt"},"district":{"key":"06611","name":"Kassel, documenta-Stadt","type":"Kreisfreie_Stadt"},"federalState":{"key":"06","name":"Hessen"}},{"name":"Carlo-Schmid-Str.","postalCode":"53859","locality":"Niederkassel","municipality":{"key":"05382044","name":"Niederkassel, Stadt","type":"Stadt"},"district":{"key":"05382","name":"Rhein-Sieg-Kreis","type":"Kreis"},"federalState":{"key":"05","name":"Nordrhein-Westfalen"}},{"name":"Carlsdorfer Str.","postalCode":"34128","locality":"Kassel","municipality":{"key":"06611000","name":"Kassel, documenta-Stadt","type":"Kreisfreie_Stadt"},"district":{"key":"06611","name":"Kassel, documenta-Stadt","type":"Kreisfreie_Stadt"},"federalState":{"key":"06","name":"Hessen"}},{"name":"Carl-Zeiss-Str.","postalCode":"53859","locality":"Niederkassel","municipality":{"key":"05382044","name":"Niederkassel, Stadt","type":"Stadt"},"district":{"key":"05382","name":"Rhein-Sieg-Kreis","type":"Kreis"},"federalState":{"key":"05","name":"Nordrhein-Westfalen"}},{"name":"Cassiusweg","postalCode":"53859","locality":"Niederkassel","municipality":{"key":"05382044","name":"Niederkassel, Stadt","type":"Stadt"},"district":{"key":"05382","name":"Rhein-Sieg-Kreis","type":"Kreis"},"federalState":{"key":"05","name":"Nordrhein-Westfalen"}},{"name":"Cauerstr.","postalCode":"34125","locality":"Kassel","municipality":{"key":"06611000","name":"Kassel, documenta-Stadt","type":"Kreisfreie_Stadt"},"district":{"key":"06611","name":"Kassel, documenta-Stadt","type":"Kreisfreie_Stadt"},"federalState":{"key":"06","name":"Hessen"}},{"name":"Chamissostr.","postalCode":"34125","locality":"Kassel","municipality":{"key":"06611000","name":"Kassel, documenta-Stadt","type":"Kreisfreie_Stadt"},"district":{"key":"06611","name":"Kassel, documenta-Stadt","type":"Kreisfreie_Stadt"},"federalState":{"key":"06","name":"Hessen"}},{"name":"Cheruskerstr.","postalCode":"53859","locality":"Niederkassel","municipality":{"key":"05382044","name":"Niederkassel, Stadt","type":"Stadt"},"district":{"key":"05382","name":"Rhein-Sieg-Kreis","type":"Kreis"},"federalState":{"key":"05","name":"Nordrhein-Westfalen"}},{"name":"Christbuchenstr.","postalCode":"34130","locality":"Kassel","municipality":{"key":"06611000","name":"Kassel, documenta-Stadt","type":"Kreisfreie_Stadt"},"district":{"key":"06611","name":"Kassel, documenta-Stadt","type":"Kreisfreie_Stadt"},"federalState":{"key":"06","name":"Hessen"}},{"name":"Christian-Beyer-Str.","postalCode":"34128","locality":"Kassel","municipality":{"key":"06611000","name":"Kassel, documenta-Stadt","type":"Kreisfreie_Stadt"},"district":{"key":"06611","name":"Kassel, documenta-Stadt","type":"Kreisfreie_Stadt"},"federalState":{"key":"06","name":"Hessen"}},{"name":"Christian-Reul-Str.","postalCode":"34121","locality":"Kassel","municipality":{"key":"06611000","name":"Kassel, documenta-Stadt","type":"Kreisfreie_Stadt"},"district":{"key":"06611","name":"Kassel, documenta-Stadt","type":"Kreisfreie_Stadt"},"federalState":{"key":"06","name":"Hessen"}},{"name":"Christian-von-Rommel-Str.","postalCode":"34128","locality":"Kassel","municipality":{"key":"06611000","name":"Kassel, documenta-Stadt","type":"Kreisfreie_Stadt"},"district":{"key":"06611","name":"Kassel, documenta-Stadt","type":"Kreisfreie_Stadt"},"federalState":{"key":"06","name":"Hessen"}},{"name":"Christine-Teusch-Str.","postalCode":"53859","locality":"Niederkassel","municipality":{"key":"05382044","name":"Niederkassel, Stadt","type":"Stadt"},"district":{"key":"05382","name":"Rhein-Sieg-Kreis","type":"Kreis"},"federalState":{"key":"05","name":"Nordrhein-Westfalen"}},{"name":"Christophstr.","postalCode":"34123","locality":"Kassel","municipality":{"key":"06611000","name":"Kassel, documenta-Stadt","type":"Kreisfreie_Stadt"},"district":{"key":"06611","name":"Kassel, documenta-Stadt","type":"Kreisfreie_Stadt"},"federalState":{"key":"06","name":"Hessen"}},{"name":"Cimbernstr.","postalCode":"53859","locality":"Niederkassel","municipality":{"key":"05382044","name":"Niederkassel, Stadt","type":"Stadt"},"district":{"key":"05382","name":"Rhein-Sieg-Kreis","type":"Kreis"},"federalState":{"key":"05","name":"Nordrhein-Westfalen"}},{"name":"Clara-Immerwahr-Str.","postalCode":"34117","locality":"Kassel","municipality":{"key":"06611000","name":"Kassel, documenta-Stadt","type":"Kreisfreie_Stadt"},"district":{"key":"06611","name":"Kassel, documenta-Stadt","type":"Kreisfreie_Stadt"},"federalState":{"key":"06","name":"Hessen"}},{"name":"Coburger Weg","postalCode":"53859","locality":"Niederkassel","municipality":{"key":"05382044","name":"Niederkassel, Stadt","type":"Stadt"},"district":{"key":"05382","name":"Rhein-Sieg-Kreis","type":"Kreis"},"federalState":{"key":"05","name":"Nordrhein-Westfalen"}},{"name":"Cordulaweg","postalCode":"53859","locality":"Niederkassel","municipality":{"key":"05382044","name":"Niederkassel, Stadt","type":"Stadt"},"district":{"key":"05382","name":"Rhein-Sieg-Kreis","type":"Kreis"},"federalState":{"key":"05","name":"Nordrhein-Westfalen"}},{"name":"Credéstr.","postalCode":"34121","locality":"Kassel","municipality":{"key":"06611000","name":"Kassel, documenta-Stadt","type":"Kreisfreie_Stadt"},"district":{"key":"06611","name":"Kassel, documenta-Stadt","type":"Kreisfreie_Stadt"},"federalState":{"key":"06","name":"Hessen"}},{"name":"Credéstr.","postalCode":"34134","locality":"Kassel","municipality":{"key":"06611000","name":"Kassel, documenta-Stadt","type":"Kreisfreie_Stadt"},"district":{"key":"06611","name":"Kassel, documenta-Stadt","type":"Kreisfreie_Stadt"},"federalState":{"key":"06","name":"Hessen"}},{"name":"Crumbacher Str.","postalCode":"34123","locality":"Kassel","municipality":{"key":"06611000","name":"Kassel, documenta-Stadt","type":"Kreisfreie_Stadt"},"district":{"key":"06611","name":"Kassel, documenta-Stadt","type":"Kreisfreie_Stadt"},"federalState":{"key":"06","name":"Hessen"}},{"name":"Deiselberg","postalCode":"34388","locality":"Trendelburg","municipality":{"key":"06633025","name":"Trendelburg, Stadt","type":"Stadt"},"district":{"key":"06633","name":"Kassel","type":"Landkreis"},"federalState":{"key":"06","name":"Hessen"}},{"name":"Deiseler Str.","postalCode":"34388","locality":"Trendelburg","municipality":{"key":"06633025","name":"Trendelburg, Stadt","type":"Stadt"},"district":{"key":"06633","name":"Kassel","type":"Landkreis"},"federalState":{"key":"06","name":"Hessen"}},{"name":"Deiseler Weg","postalCode":"34388","locality":"Trendelburg","municipality":{"key":"06633025","name":"Trendelburg, Stadt","type":"Stadt"},"district":{"key":"06633","name":"Kassel","type":"Landkreis"},"federalState":{"key":"06","name":"Hessen"}},{"name":"Deiseler Zwethe","postalCode":"34388","locality":"Trendelburg","municipality":{"key":"06633025","name":"Trendelburg, Stadt","type":"Stadt"},"district":{"key":"06633","name":"Kassel","type":"Landkreis"},"federalState":{"key":"06","name":"Hessen"}},{"name":"Diemelbrücke","postalCode":"34388","locality":"Trendelburg","municipality":{"key":"06633025","name":"Trendelburg, Stadt","type":"Stadt"},"district":{"key":"06633","name":"Kassel","type":"Landkreis"},"federalState":{"key":"06","name":"Hessen"}},{"name":"Domäne","postalCode":"34388","locality":"Trendelburg","municipality":{"key":"06633025","name":"Trendelburg, Stadt","type":"Stadt"},"district":{"key":"06633","name":"Kassel","type":"Landkreis"},"federalState":{"key":"06","name":"Hessen"}},{"name":"Dorfplatz","postalCode":"34388","locality":"Trendelburg","municipality":{"key":"06633025","name":"Trendelburg, Stadt","type":"Stadt"},"district":{"key":"06633","name":"Kassel","type":"Landkreis"},"federalState":{"key":"06","name":"Hessen"}},{"name":"Ecke","postalCode":"34388","locality":"Trendelburg","municipality":{"key":"06633025","name":"Trendelburg, Stadt","type":"Stadt"},"district":{"key":"06633","name":"Kassel","type":"Landkreis"},"federalState":{"key":"06","name":"Hessen"}},{"name":"Eichenweg","postalCode":"34388","locality":"Trendelburg","municipality":{"key":"06633025","name":"Trendelburg, Stadt","type":"Stadt"},"district":{"key":"06633","name":"Kassel","type":"Landkreis"},"federalState":{"key":"06","name":"Hessen"}},{"name":"Erlenweg","postalCode":"34388","locality":"Trendelburg","municipality":{"key":"06633025","name":"Trendelburg, Stadt","type":"Stadt"},"district":{"key":"06633","name":"Kassel","type":"Landkreis"},"federalState":{"key":"06","name":"Hessen"}},{"name":"Europaplatz","postalCode":"34388","locality":"Trendelburg","municipality":{"key":"06633025","name":"Trendelburg, Stadt","type":"Stadt"},"district":{"key":"06633","name":"Kassel","type":"Landkreis"},"federalState":{"key":"06","name":"Hessen"}},{"name":"Exen","postalCode":"34388","locality":"Trendelburg","municipality":{"key":"06633025","name":"Trendelburg, Stadt","type":"Stadt"},"district":{"key":"06633","name":"Kassel","type":"Landkreis"},"federalState":{"key":"06","name":"Hessen"}},{"name":"Florbachsweg","postalCode":"34388","locality":"Trendelburg","municipality":{"key":"06633025","name":"Trendelburg, Stadt","type":"Stadt"},"district":{"key":"06633","name":"Kassel","type":"Landkreis"},"federalState":{"key":"06","name":"Hessen"}},{"name":"Försterhof","postalCode":"34388","locality":"Trendelburg","municipality":{"key":"06633025","name":"Trendelburg, Stadt","type":"Stadt"},"district":{"key":"06633","name":"Kassel","type":"Landkreis"},"federalState":{"key":"06","name":"Hessen"}},{"name":"Friedrichsfelder Str.","postalCode":"34388","locality":"Trendelburg","municipality":{"key":"06633025","name":"Trendelburg, Stadt","type":"Stadt"},"district":{"key":"06633","name":"Kassel","type":"Landkreis"},"federalState":{"key":"06","name":"Hessen"}},{"name":"Gänsewinkel","postalCode":"34388","locality":"Trendelburg","municipality":{"key":"06633025","name":"Trendelburg, Stadt","type":"Stadt"},"district":{"key":"06633","name":"Kassel","type":"Landkreis"},"federalState":{"key":"06","name":"Hessen"}},{"name":"Gartenstr.","postalCode":"34388","locality":"Trendelburg","municipality":{"key":"06633025","name":"Trendelburg, Stadt","type":"Stadt"},"district":{"key":"06633","name":"Kassel","type":"Landkreis"},"federalState":{"key":"06","name":"Hessen"}},{"name":"Grüner Weg","postalCode":"34388","locality":"Trendelburg","municipality":{"key":"06633025","name":"Trendelburg, Stadt","type":"Stadt"},"district":{"key":"06633","name":"Kassel","type":"Landkreis"},"federalState":{"key":"06","name":"Hessen"}},{"name":"Haarbrücker Str.","postalCode":"34388","locality":"Trendelburg","municipality":{"key":"06633025","name":"Trendelburg, Stadt","type":"Stadt"},"district":{"key":"06633","name":"Kassel","type":"Landkreis"},"federalState":{"key":"06","name":"Hessen"}},{"name":"Hasselliet","postalCode":"34388","locality":"Trendelburg","municipality":{"key":"06633025","name":"Trendelburg, Stadt","type":"Stadt"},"district":{"key":"06633","name":"Kassel","type":"Landkreis"},"federalState":{"key":"06","name":"Hessen"}},{"name":"Helmarshäuser Str.","postalCode":"34388","locality":"Trendelburg","municipality":{"key":"06633025","name":"Trendelburg, Stadt","type":"Stadt"},"district":{"key":"06633","name":"Kassel","type":"Landkreis"},"federalState":{"key":"06","name":"Hessen"}},{"name":"Helmarshäuser Weg","postalCode":"34388","locality":"Trendelburg","municipality":{"key":"06633025","name":"Trendelburg, Stadt","type":"Stadt"},"district":{"key":"06633","name":"Kassel","type":"Landkreis"},"federalState":{"key":"06","name":"Hessen"}},{"name":"Hofgeismarer Str.","postalCode":"34388","locality":"Trendelburg","municipality":{"key":"06633025","name":"Trendelburg, Stadt","type":"Stadt"},"district":{"key":"06633","name":"Kassel","type":"Landkreis"},"federalState":{"key":"06","name":"Hessen"}},{"name":"Hopfenberg","postalCode":"34388","locality":"Trendelburg","municipality":{"key":"06633025","name":"Trendelburg, Stadt","type":"Stadt"},"district":{"key":"06633","name":"Kassel","type":"Landkreis"},"federalState":{"key":"06","name":"Hessen"}},{"name":"Hümmer Str.","postalCode":"34388","locality":"Trendelburg","municipality":{"key":"06633025","name":"Trendelburg, Stadt","type":"Stadt"},"district":{"key":"06633","name":"Kassel","type":"Landkreis"},"federalState":{"key":"06","name":"Hessen"}},{"name":"Im Faulen Hohl","postalCode":"34388","locality":"Trendelburg","municipality":{"key":"06633025","name":"Trendelburg, Stadt","type":"Stadt"},"district":{"key":"06633","name":"Kassel","type":"Landkreis"},"federalState":{"key":"06","name":"Hessen"}},{"name":"Im Fleek","postalCode":"34388","locality":"Trendelburg","municipality":{"key":"06633025","name":"Trendelburg, Stadt","type":"Stadt"},"district":{"key":"06633","name":"Kassel","type":"Landkreis"},"federalState":{"key":"06","name":"Hessen"}},{"name":"Im Schilf","postalCode":"34388","locality":"Trendelburg","municipality":{"key":"06633025","name":"Trendelburg, Stadt","type":"Stadt"},"district":{"key":"06633","name":"Kassel","type":"Landkreis"},"federalState":{"key":"06","name":"Hessen"}},{"name":"Im Winkel","postalCode":"34388","locality":"Trendelburg","municipality":{"key":"06633025","name":"Trendelburg, Stadt","type":"Stadt"},"district":{"key":"06633","name":"Kassel","type":"Landkreis"},"federalState":{"key":"06","name":"Hessen"}},{"name":"In den Klappenhöfen","postalCode":"34388","locality":"Trendelburg","municipality":{"key":"06633025","name":"Trendelburg, Stadt","type":"Stadt"},"district":{"key":"06633","name":"Kassel","type":"Landkreis"},"federalState":{"key":"06","name":"Hessen"}},{"name":"In der Bau","postalCode":"34388","locality":"Trendelburg","municipality":{"key":"06633025","name":"Trendelburg, Stadt","type":"Stadt"},"district":{"key":"06633","name":"Kassel","type":"Landkreis"},"federalState":{"key":"06","name":"Hessen"}},{"name":"Jäckhstr.","postalCode":"34121","locality":"Kassel","municipality":{"key":"06611000","name":"Kassel, documenta-Stadt","type":"Kreisfreie_Stadt"},"district":{"key":"06611","name":"Kassel, documenta-Stadt","type":"Kreisfreie_Stadt"},"federalState":{"key":"06","name":"Hessen"}},{"name":"Jägerstr.","postalCode":"34117","locality":"Kassel","municipality":{"key":"06611000","name":"Kassel, documenta-Stadt","type":"Kreisfreie_Stadt"},"district":{"key":"06611","name":"Kassel, documenta-Stadt","type":"Kreisfreie_Stadt"},"federalState":{"key":"06","name":"Hessen"}},{"name":"Jahnstr.","postalCode":"34123","locality":"Kassel","municipality":{"key":"06611000","name":"Kassel, documenta-Stadt","type":"Kreisfreie_Stadt"},"district":{"key":"06611","name":"Kassel, documenta-Stadt","type":"Kreisfreie_Stadt"},"federalState":{"key":"06","name":"Hessen"}},{"name":"Jakobsgasse","postalCode":"34123","locality":"Kassel","municipality":{"key":"06611000","name":"Kassel, documenta-Stadt","type":"Kreisfreie_Stadt"},"district":{"key":"06611","name":"Kassel, documenta-Stadt","type":"Kreisfreie_Stadt"},"federalState":{"key":"06","name":"Hessen"}},{"name":"Jakobstr.","postalCode":"53859","locality":"Niederkassel","municipality":{"key":"05382044","name":"Niederkassel, Stadt","type":"Stadt"},"district":{"key":"05382","name":"Rhein-Sieg-Kreis","type":"Kreis"},"federalState":{"key":"05","name":"Nordrhein-Westfalen"}},{"name":"Jasminweg","postalCode":"34125","locality":"Kassel","municipality":{"key":"06611000","name":"Kassel, documenta-Stadt","type":"Kreisfreie_Stadt"},"district":{"key":"06611","name":"Kassel, documenta-Stadt","type":"Kreisfreie_Stadt"},"federalState":{"key":"06","name":"Hessen"}},{"name":"Jean-Sibelius-Str.","postalCode":"34128","locality":"Kassel","municipality":{"key":"06611000","name":"Kassel, documenta-Stadt","type":"Kreisfreie_Stadt"},"district":{"key":"06611","name":"Kassel, documenta-Stadt","type":"Kreisfreie_Stadt"},"federalState":{"key":"06","name":"Hessen"}},{"name":"Johanna-Vogt-Str.","postalCode":"34131","locality":"Kassel","municipality":{"key":"06611000","name":"Kassel, documenta-Stadt","type":"Kreisfreie_Stadt"},"district":{"key":"06611","name":"Kassel, documenta-Stadt","type":"Kreisfreie_Stadt"},"federalState":{"key":"06","name":"Hessen"}},{"name":"Johanna-Waescher-Str.","postalCode":"34131","locality":"Kassel","municipality":{"key":"06611000","name":"Kassel, documenta-Stadt","type":"Kreisfreie_Stadt"},"district":{"key":"06611","name":"Kassel, documenta-Stadt","type":"Kreisfreie_Stadt"},"federalState":{"key":"06","name":"Hessen"}},{"name":"Johann-Christian-Eberle-Str.","postalCode":"34134","locality":"Kassel","municipality":{"key":"06611000","name":"Kassel, documenta-Stadt","type":"Kreisfreie_Stadt"},"district":{"key":"06611","name":"Kassel, documenta-Stadt","type":"Kreisfreie_Stadt"},"federalState":{"key":"06","name":"Hessen"}},{"name":"Johannesstr.","postalCode":"34121","locality":"Kassel","municipality":{"key":"06611000","name":"Kassel, documenta-Stadt","type":"Kreisfreie_Stadt"},"district":{"key":"06611","name":"Kassel, documenta-Stadt","type":"Kreisfreie_Stadt"},"federalState":{"key":"06","name":"Hessen"}},{"name":"Johannesstr.","postalCode":"53859","locality":"Niederkassel","municipality":{"key":"05382044","name":"Niederkassel, Stadt","type":"Stadt"},"district":{"key":"05382","name":"Rhein-Sieg-Kreis","type":"Kreis"},"federalState":{"key":"05","name":"Nordrhein-Westfalen"}},{"name":"Johann-Hermann-Schein-Str.","postalCode":"34131","locality":"Kassel","municipality":{"key":"06611000","name":"Kassel, documenta-Stadt","type":"Kreisfreie_Stadt"},"district":{"key":"06611","name":"Kassel, documenta-Stadt","type":"Kreisfreie_Stadt"},"federalState":{"key":"06","name":"Hessen"}},{"name":"Johann-Jakoby-Str.","postalCode":"34132","locality":"Kassel","municipality":{"key":"06611000","name":"Kassel, documenta-Stadt","type":"Kreisfreie_Stadt"},"district":{"key":"06611","name":"Kassel, documenta-Stadt","type":"Kreisfreie_Stadt"},"federalState":{"key":"06","name":"Hessen"}},{"name":"Johann-Sebastian-Bach-Str.","postalCode":"34134","locality":"Kassel","municipality":{"key":"06611000","name":"Kassel, documenta-Stadt","type":"Kreisfreie_Stadt"},"district":{"key":"06611","name":"Kassel, documenta-Stadt","type":"Kreisfreie_Stadt"},"federalState":{"key":"06","name":"Hessen"}},{"name":"John-F.-Kennedy-Str.","postalCode":"34128","locality":"Kassel","municipality":{"key":"06611000","name":"Kassel, documenta-Stadt","type":"Kreisfreie_Stadt"},"district":{"key":"06611","name":"Kassel, documenta-Stadt","type":"Kreisfreie_Stadt"},"federalState":{"key":"06","name":"Hessen"}},{"name":"Jordanstr.","postalCode":"34117","locality":"Kassel","municipality":{"key":"06611000","name":"Kassel, documenta-Stadt","type":"Kreisfreie_Stadt"},"district":{"key":"06611","name":"Kassel, documenta-Stadt","type":"Kreisfreie_Stadt"},"federalState":{"key":"06","name":"Hessen"}},{"name":"Josef-Fischer-Str.","postalCode":"34127","locality":"Kassel","municipality":{"key":"06611000","name":"Kassel, documenta-Stadt","type":"Kreisfreie_Stadt"},"district":{"key":"06611","name":"Kassel, documenta-Stadt","type":"Kreisfreie_Stadt"},"federalState":{"key":"06","name":"Hessen"}},{"name":"Josefstr.","postalCode":"53859","locality":"Niederkassel","municipality":{"key":"05382044","name":"Niederkassel, Stadt","type":"Stadt"},"district":{"key":"05382","name":"Rhein-Sieg-Kreis","type":"Kreis"},"federalState":{"key":"05","name":"Nordrhein-Westfalen"}},{"name":"Joseph-Beuys-Str.","postalCode":"34117","locality":"Kassel","municipality":{"key":"06611000","name":"Kassel, documenta-Stadt","type":"Kreisfreie_Stadt"},"district":{"key":"06611","name":"Kassel, documenta-Stadt","type":"Kreisfreie_Stadt"},"federalState":{"key":"06","name":"Hessen"}},{"name":"Josephstr.","postalCode":"34125","locality":"Kassel","municipality":{"key":"06611000","name":"Kassel, documenta-Stadt","type":"Kreisfreie_Stadt"},"district":{"key":"06611","name":"Kassel, documenta-Stadt","type":"Kreisfreie_Stadt"},"federalState":{"key":"06","name":"Hessen"}},{"name":"Jugendheimstr.","postalCode":"34132","locality":"Kassel","municipality":{"key":"06611000","name":"Kassel, documenta-Stadt","type":"Kreisfreie_Stadt"},"district":{"key":"06611","name":"Kassel, documenta-Stadt","type":"Kreisfreie_Stadt"},"federalState":{"key":"06","name":"Hessen"}},{"name":"Julienstr.","postalCode":"34121","locality":"Kassel","municipality":{"key":"06611000","name":"Kassel, documenta-Stadt","type":"Kreisfreie_Stadt"},"district":{"key":"06611","name":"Kassel, documenta-Stadt","type":"Kreisfreie_Stadt"},"federalState":{"key":"06","name":"Hessen"}},{"name":"Julie-von-Kästner-Str.","postalCode":"34131","locality":"Kassel","municipality":{"key":"06611000","name":"Kassel, documenta-Stadt","type":"Kreisfreie_Stadt"},"district":{"key":"06611","name":"Kassel, documenta-Stadt","type":"Kreisfreie_Stadt"},"federalState":{"key":"06","name":"Hessen"}},{"name":"Julius-Leber-Str.","postalCode":"34132","locality":"Kassel","municipality":{"key":"06611000","name":"Kassel, documenta-Stadt","type":"Kreisfreie_Stadt"},"district":{"key":"06611","name":"Kassel, documenta-Stadt","type":"Kreisfreie_Stadt"},"federalState":{"key":"06","name":"Hessen"}},{"name":"Junkerstr.","postalCode":"53859","locality":"Niederkassel","municipality":{"key":"05382044","name":"Niederkassel, Stadt","type":"Stadt"},"district":{"key":"05382","name":"Rhein-Sieg-Kreis","type":"Kreis"},"federalState":{"key":"05","name":"Nordrhein-Westfalen"}},{"name":"Jussowstr.","postalCode":"34125","locality":"Kassel","municipality":{"key":"06611000","name":"Kassel, documenta-Stadt","type":"Kreisfreie_Stadt"},"district":{"key":"06611","name":"Kassel, documenta-Stadt","type":"Kreisfreie_Stadt"},"federalState":{"key":"06","name":"Hessen"}},{"name":"Kampfgrund","postalCode":"34388","locality":"Trendelburg","municipality":{"key":"06633025","name":"Trendelburg, Stadt","type":"Stadt"},"district":{"key":"06633","name":"Kassel","type":"Landkreis"},"federalState":{"key":"06","name":"Hessen"}},{"name":"Kampfhügel","postalCode":"34388","locality":"Trendelburg","municipality":{"key":"06633025","name":"Trendelburg, Stadt","type":"Stadt"},"district":{"key":"06633","name":"Kassel","type":"Landkreis"},"federalState":{"key":"06","name":"Hessen"}},{"name":"Karlshafener Str.","postalCode":"34388","locality":"Trendelburg","municipality":{"key":"06633025","name":"Trendelburg, Stadt","type":"Stadt"},"district":{"key":"06633","name":"Kassel","type":"Landkreis"},"federalState":{"key":"06","name":"Hessen"}},{"name":"Kasseler Str.","postalCode":"34388","locality":"Trendelburg","municipality":{"key":"06633025","name":"Trendelburg, Stadt","type":"Stadt"},"district":{"key":"06633","name":"Kassel","type":"Landkreis"},"federalState":{"key":"06","name":"Hessen"}},{"name":"Kastanienweg","postalCode":"34388","locality":"Trendelburg","municipality":{"key":"06633025","name":"Trendelburg, Stadt","type":"Stadt"},"district":{"key":"06633","name":"Kassel","type":"Landkreis"},"federalState":{"key":"06","name":"Hessen"}},{"name":"Kirschweg","postalCode":"34388","locality":"Trendelburg","municipality":{"key":"06633025","name":"Trendelburg, Stadt","type":"Stadt"},"district":{"key":"06633","name":"Kassel","type":"Landkreis"},"federalState":{"key":"06","name":"Hessen"}},{"name":"Kleine Trift","postalCode":"34388","locality":"Trendelburg","municipality":{"key":"06633025","name":"Trendelburg, Stadt","type":"Stadt"},"district":{"key":"06633","name":"Kassel","type":"Landkreis"},"federalState":{"key":"06","name":"Hessen"}},{"name":"Krumme Äcker","postalCode":"34388","locality":"Trendelburg","municipality":{"key":"06633025","name":"Trendelburg, Stadt","type":"Stadt"},"district":{"key":"06633","name":"Kassel","type":"Landkreis"},"federalState":{"key":"06","name":"Hessen"}},{"name":"Kupfergrund","postalCode":"34388","locality":"Trendelburg","municipality":{"key":"06633025","name":"Trendelburg, Stadt","type":"Stadt"},"district":{"key":"06633","name":"Kassel","type":"Landkreis"},"federalState":{"key":"06","name":"Hessen"}},{"name":"Kurzer Weg","postalCode":"34388","locality":"Trendelburg","municipality":{"key":"06633025","name":"Trendelburg, Stadt","type":"Stadt"},"district":{"key":"06633","name":"Kassel","type":"Landkreis"},"federalState":{"key":"06","name":"Hessen"}},{"name":"Lamerder Str.","postalCode":"34388","locality":"Trendelburg","municipality":{"key":"06633025","name":"Trendelburg, Stadt","type":"Stadt"},"district":{"key":"06633","name":"Kassel","type":"Landkreis"},"federalState":{"key":"06","name":"Hessen"}},{"name":"Landgraf-Carl-Weg","postalCode":"34388","locality":"Trendelburg","municipality":{"key":"06633025","name":"Trendelburg, Stadt","type":"Stadt"},"district":{"key":"06633","name":"Kassel","type":"Landkreis"},"federalState":{"key":"06","name":"Hessen"}},{"name":"Langenthaler Str.","postalCode":"34388","locality":"Trendelburg","municipality":{"key":"06633025","name":"Trendelburg, Stadt","type":"Stadt"},"district":{"key":"06633","name":"Kassel","type":"Landkreis"},"federalState":{"key":"06","name":"Hessen"}},{"name":"Langer Kamp","postalCode":"34388","locality":"Trendelburg","municipality":{"key":"06633025","name":"Trendelburg, Stadt","type":"Stadt"},"district":{"key":"06633","name":"Kassel","type":"Landkreis"},"federalState":{"key":"06","name":"Hessen"}},{"name":"Lärchenweg","postalCode":"34388","locality":"Trendelburg","municipality":{"key":"06633025","name":"Trendelburg, Stadt","type":"Stadt"},"district":{"key":"06633","name":"Kassel","type":"Landkreis"},"federalState":{"key":"06","name":"Hessen"}},{"name":"Lehmkaute","postalCode":"34388","locality":"Trendelburg","municipality":{"key":"06633025","name":"Trendelburg, Stadt","type":"Stadt"},"district":{"key":"06633","name":"Kassel","type":"Landkreis"},"federalState":{"key":"06","name":"Hessen"}},{"name":"Lehmkuhle","postalCode":"34388","locality":"Trendelburg","municipality":{"key":"06633025","name":"Trendelburg, Stadt","type":"Stadt"},"district":{"key":"06633","name":"Kassel","type":"Landkreis"},"federalState":{"key":"06","name":"Hessen"}},{"name":"Leimdiek","postalCode":"34388","locality":"Trendelburg","municipality":{"key":"06633025","name":"Trendelburg, Stadt","type":"Stadt"},"district":{"key":"06633","name":"Kassel","type":"Landkreis"},"federalState":{"key":"06","name":"Hessen"}},{"name":"Leineweberstr.","postalCode":"34388","locality":"Trendelburg","municipality":{"key":"06633025","name":"Trendelburg, Stadt","type":"Stadt"},"district":{"key":"06633","name":"Kassel","type":"Landkreis"},"federalState":{"key":"06","name":"Hessen"}},{"name":"Lindenweg","postalCode":"34388","locality":"Trendelburg","municipality":{"key":"06633025","name":"Trendelburg, Stadt","type":"Stadt"},"district":{"key":"06633","name":"Kassel","type":"Landkreis"},"federalState":{"key":"06","name":"Hessen"}},{"name":"Lumbachsgrund","postalCode":"34388","locality":"Trendelburg","municipality":{"key":"06633025","name":"Trendelburg, Stadt","type":"Stadt"},"district":{"key":"06633","name":"Kassel","type":"Landkreis"},"federalState":{"key":"06","name":"Hessen"}},{"name":"Manroder Str.","postalCode":"34388","locality":"Trendelburg","municipality":{"key":"06633025","name":"Trendelburg, Stadt","type":"Stadt"},"district":{"key":"06633","name":"Kassel","type":"Landkreis"},"federalState":{"key":"06","name":"Hessen"}},{"name":"Manroder Weg","postalCode":"34388","locality":"Trendelburg","municipality":{"key":"06633025","name":"Trendelburg, Stadt","type":"Stadt"},"district":{"key":"06633","name":"Kassel","type":"Landkreis"},"federalState":{"key":"06","name":"Hessen"}},{"name":"Marktplatz","postalCode":"34388","locality":"Trendelburg","municipality":{"key":"06633025","name":"Trendelburg, Stadt","type":"Stadt"},"district":{"key":"06633","name":"Kassel","type":"Landkreis"},"federalState":{"key":"06","name":"Hessen"}},{"name":"Mensfelder Str.","postalCode":"34388","locality":"Trendelburg","municipality":{"key":"06633025","name":"Trendelburg, Stadt","type":"Stadt"},"district":{"key":"06633","name":"Kassel","type":"Landkreis"},"federalState":{"key":"06","name":"Hessen"}},{"name":"Mittelstr.","postalCode":"34388","locality":"Trendelburg","municipality":{"key":"06633025","name":"Trendelburg, Stadt","type":"Stadt"},"district":{"key":"06633","name":"Kassel","type":"Landkreis"},"federalState":{"key":"06","name":"Hessen"}},{"name":"Mittelweg","postalCode":"34388","locality":"Trendelburg","municipality":{"key":"06633025","name":"Trendelburg, Stadt","type":"Stadt"},"district":{"key":"06633","name":"Kassel","type":"Landkreis"},"federalState":{"key":"06","name":"Hessen"}},{"name":"Muddenhagener Weg","postalCode":"34388","locality":"Trendelburg","municipality":{"key":"06633025","name":"Trendelburg, Stadt","type":"Stadt"},"district":{"key":"06633","name":"Kassel","type":"Landkreis"},"federalState":{"key":"06","name":"Hessen"}},{"name":"Mühlenboden","postalCode":"34388","locality":"Trendelburg","municipality":{"key":"06633025","name":"Trendelburg, Stadt","type":"Stadt"},"district":{"key":"06633","name":"Kassel","type":"Landkreis"},"federalState":{"key":"06","name":"Hessen"}},{"name":"Mühlenstr.","postalCode":"34388","locality":"Trendelburg","municipality":{"key":"06633025","name":"Trendelburg, Stadt","type":"Stadt"},"district":{"key":"06633","name":"Kassel","type":"Landkreis"},"federalState":{"key":"06","name":"Hessen"}},{"name":"Mühlenweg","postalCode":"34388","locality":"Trendelburg","municipality":{"key":"06633025","name":"Trendelburg, Stadt","type":"Stadt"},"district":{"key":"06633","name":"Kassel","type":"Landkreis"},"federalState":{"key":"06","name":"Hessen"}},{"name":"Nesselgrund","postalCode":"34388","locality":"Trendelburg","municipality":{"key":"06633025","name":"Trendelburg, Stadt","type":"Stadt"},"district":{"key":"06633","name":"Kassel","type":"Landkreis"},"federalState":{"key":"06","name":"Hessen"}},{"name":"Nonnenstelle","postalCode":"34388","locality":"Trendelburg","municipality":{"key":"06633025","name":"Trendelburg, Stadt","type":"Stadt"},"district":{"key":"06633","name":"Kassel","type":"Landkreis"},"federalState":{"key":"06","name":"Hessen"}},{"name":"Oberer Weg","postalCode":"34388","locality":"Trendelburg","municipality":{"key":"06633025","name":"Trendelburg, Stadt","type":"Stadt"},"district":{"key":"06633","name":"Kassel","type":"Landkreis"},"federalState":{"key":"06","name":"Hessen"}},{"name":"Pfarrstr.","postalCode":"34388","locality":"Trendelburg","municipality":{"key":"06633025","name":"Trendelburg, Stadt","type":"Stadt"},"district":{"key":"06633","name":"Kassel","type":"Landkreis"},"federalState":{"key":"06","name":"Hessen"}},{"name":"Pilgerweg","postalCode":"34388","locality":"Trendelburg","municipality":{"key":"06633025","name":"Trendelburg, Stadt","type":"Stadt"},"district":{"key":"06633","name":"Kassel","type":"Landkreis"},"federalState":{"key":"06","name":"Hessen"}},{"name":"Poststr.","postalCode":"34388","locality":"Trendelburg","municipality":{"key":"06633025","name":"Trendelburg, Stadt","type":"Stadt"},"district":{"key":"06633","name":"Kassel","type":"Landkreis"},"federalState":{"key":"06","name":"Hessen"}},{"name":"Quelbergweg","postalCode":"34125","locality":"Kassel","municipality":{"key":"06611000","name":"Kassel, documenta-Stadt","type":"Kreisfreie_Stadt"},"district":{"key":"06611","name":"Kassel, documenta-Stadt","type":"Kreisfreie_Stadt"},"federalState":{"key":"06","name":"Hessen"}},{"name":"Quellbachweg","postalCode":"34125","locality":"Kassel","municipality":{"key":"06611000","name":"Kassel, documenta-Stadt","type":"Kreisfreie_Stadt"},"district":{"key":"06611","name":"Kassel, documenta-Stadt","type":"Kreisfreie_Stadt"},"federalState":{"key":"06","name":"Hessen"}},{"name":"Quellbachweg","postalCode":"34127","locality":"Kassel","municipality":{"key":"06611000","name":"Kassel, documenta-Stadt","type":"Kreisfreie_Stadt"},"district":{"key":"06611","name":"Kassel, documenta-Stadt","type":"Kreisfreie_Stadt"},"federalState":{"key":"06","name":"Hessen"}},{"name":"Quellenstr.","postalCode":"34134","locality":"Kassel","municipality":{"key":"06611000","name":"Kassel, documenta-Stadt","type":"Kreisfreie_Stadt"},"district":{"key":"06611","name":"Kassel, documenta-Stadt","type":"Kreisfreie_Stadt"},"federalState":{"key":"06","name":"Hessen"}},{"name":"Quellhofstr.","postalCode":"34127","locality":"Kassel","municipality":{"key":"06611000","name":"Kassel, documenta-Stadt","type":"Kreisfreie_Stadt"},"district":{"key":"06611","name":"Kassel, documenta-Stadt","type":"Kreisfreie_Stadt"},"federalState":{"key":"06","name":"Hessen"}},{"name":"Querallee","postalCode":"34119","locality":"Kassel","municipality":{"key":"06611000","name":"Kassel, documenta-Stadt","type":"Kreisfreie_Stadt"},"district":{"key":"06611","name":"Kassel, documenta-Stadt","type":"Kreisfreie_Stadt"},"federalState":{"key":"06","name":"Hessen"}},{"name":"Quiddestr.","postalCode":"34121","locality":"Kassel","municipality":{"key":"06611000","name":"Kassel, documenta-Stadt","type":"Kreisfreie_Stadt"},"district":{"key":"06611","name":"Kassel, documenta-Stadt","type":"Kreisfreie_Stadt"},"federalState":{"key":"06","name":"Hessen"}},{"name":"Raiffeisenstr.","postalCode":"34388","locality":"Trendelburg","municipality":{"key":"06633025","name":"Trendelburg, Stadt","type":"Stadt"},"district":{"key":"06633","name":"Kassel","type":"Landkreis"},"federalState":{"key":"06","name":"Hessen"}},{"name":"Reinhardswaldstr.","postalCode":"34388","locality":"Trendelburg","municipality":{"key":"06633025","name":"Trendelburg, Stadt","type":"Stadt"},"district":{"key":"06633","name":"Kassel","type":"Landkreis"},"federalState":{"key":"06","name":"Hessen"}},{"name":"Rosenstr.","postalCode":"34388","locality":"Trendelburg","municipality":{"key":"06633025","name":"Trendelburg, Stadt","type":"Stadt"},"district":{"key":"06633","name":"Kassel","type":"Landkreis"},"federalState":{"key":"06","name":"Hessen"}},{"name":"Rotenberg","postalCode":"34388","locality":"Trendelburg","municipality":{"key":"06633025","name":"Trendelburg, Stadt","type":"Stadt"},"district":{"key":"06633","name":"Kassel","type":"Landkreis"},"federalState":{"key":"06","name":"Hessen"}},{"name":"Roter Weg","postalCode":"34388","locality":"Trendelburg","municipality":{"key":"06633025","name":"Trendelburg, Stadt","type":"Stadt"},"district":{"key":"06633","name":"Kassel","type":"Landkreis"},"federalState":{"key":"06","name":"Hessen"}},{"name":"Rusteberg","postalCode":"34388","locality":"Trendelburg","municipality":{"key":"06633025","name":"Trendelburg, Stadt","type":"Stadt"},"district":{"key":"06633","name":"Kassel","type":"Landkreis"},"federalState":{"key":"06","name":"Hessen"}},{"name":"Sababurger Str.","postalCode":"34388","locality":"Trendelburg","municipality":{"key":"06633025","name":"Trendelburg, Stadt","type":"Stadt"},"district":{"key":"06633","name":"Kassel","type":"Landkreis"},"federalState":{"key":"06","name":"Hessen"}},{"name":"Schaarbusch","postalCode":"34388","locality":"Trendelburg","municipality":{"key":"06633025","name":"Trendelburg, Stadt","type":"Stadt"},"district":{"key":"06633","name":"Kassel","type":"Landkreis"},"federalState":{"key":"06","name":"Hessen"}},{"name":"Schlagweg","postalCode":"34388","locality":"Trendelburg","municipality":{"key":"06633025","name":"Trendelburg, Stadt","type":"Stadt"},"district":{"key":"06633","name":"Kassel","type":"Landkreis"},"federalState":{"key":"06","name":"Hessen"}},{"name":"Schloßstr.","postalCode":"34388","locality":"Trendelburg","municipality":{"key":"06633025","name":"Trendelburg, Stadt","type":"Stadt"},"district":{"key":"06633","name":"Kassel","type":"Landkreis"},"federalState":{"key":"06","name":"Hessen"}},{"name":"Schöne Aussicht","postalCode":"34388","locality":"Trendelburg","municipality":{"key":"06633025","name":"Trendelburg, Stadt","type":"Stadt"},"district":{"key":"06633","name":"Kassel","type":"Landkreis"},"federalState":{"key":"06","name":"Hessen"}},{"name":"Schulweg","postalCode":"34388","locality":"Trendelburg","municipality":{"key":"06633025","name":"Trendelburg, Stadt","type":"Stadt"},"district":{"key":"06633","name":"Kassel","type":"Landkreis"},"federalState":{"key":"06","name":"Hessen"}},{"name":"Schusterweg","postalCode":"34388","locality":"Trendelburg","municipality":{"key":"06633025","name":"Trendelburg, Stadt","type":"Stadt"},"district":{"key":"06633","name":"Kassel","type":"Landkreis"},"federalState":{"key":"06","name":"Hessen"}},{"name":"Schützenstr.","postalCode":"34388","locality":"Trendelburg","municipality":{"key":"06633025","name":"Trendelburg, Stadt","type":"Stadt"},"district":{"key":"06633","name":"Kassel","type":"Landkreis"},"federalState":{"key":"06","name":"Hessen"}},{"name":"Schützentrift","postalCode":"34388","locality":"Trendelburg","municipality":{"key":"06633025","name":"Trendelburg, Stadt","type":"Stadt"},"district":{"key":"06633","name":"Kassel","type":"Landkreis"},"federalState":{"key":"06","name":"Hessen"}},{"name":"Schwelligengrund","postalCode":"34388","locality":"Trendelburg","municipality":{"key":"06633025","name":"Trendelburg, Stadt","type":"Stadt"},"district":{"key":"06633","name":"Kassel","type":"Landkreis"},"federalState":{"key":"06","name":"Hessen"}},{"name":"Siedlung","postalCode":"34388","locality":"Trendelburg","municipality":{"key":"06633025","name":"Trendelburg, Stadt","type":"Stadt"},"district":{"key":"06633","name":"Kassel","type":"Landkreis"},"federalState":{"key":"06","name":"Hessen"}},{"name":"Sieler Feld","postalCode":"34388","locality":"Trendelburg","municipality":{"key":"06633025","name":"Trendelburg, Stadt","type":"Stadt"},"district":{"key":"06633","name":"Kassel","type":"Landkreis"},"federalState":{"key":"06","name":"Hessen"}},{"name":"Sieler Str.","postalCode":"34388","locality":"Trendelburg","municipality":{"key":"06633025","name":"Trendelburg, Stadt","type":"Stadt"},"district":{"key":"06633","name":"Kassel","type":"Landkreis"},"federalState":{"key":"06","name":"Hessen"}},{"name":"Sieler Weg","postalCode":"34388","locality":"Trendelburg","municipality":{"key":"06633025","name":"Trendelburg, Stadt","type":"Stadt"},"district":{"key":"06633","name":"Kassel","type":"Landkreis"},"federalState":{"key":"06","name":"Hessen"}},{"name":"Speckswinkel","postalCode":"34388","locality":"Trendelburg","municipality":{"key":"06633025","name":"Trendelburg, Stadt","type":"Stadt"},"district":{"key":"06633","name":"Kassel","type":"Landkreis"},"federalState":{"key":"06","name":"Hessen"}},{"name":"Spiegelstr.","postalCode":"34388","locality":"Trendelburg","municipality":{"key":"06633025","name":"Trendelburg, Stadt","type":"Stadt"},"district":{"key":"06633","name":"Kassel","type":"Landkreis"},"federalState":{"key":"06","name":"Hessen"}},{"name":"Steintor","postalCode":"34388","locality":"Trendelburg","municipality":{"key":"06633025","name":"Trendelburg, Stadt","type":"Stadt"},"district":{"key":"06633","name":"Kassel","type":"Landkreis"},"federalState":{"key":"06","name":"Hessen"}},{"name":"Steinweg","postalCode":"34388","locality":"Trendelburg","municipality":{"key":"06633025","name":"Trendelburg, Stadt","type":"Stadt"},"district":{"key":"06633","name":"Kassel","type":"Landkreis"},"federalState":{"key":"06","name":"Hessen"}},{"name":"Sudetenweg","postalCode":"34388","locality":"Trendelburg","municipality":{"key":"06633025","name":"Trendelburg, Stadt","type":"Stadt"},"district":{"key":"06633","name":"Kassel","type":"Landkreis"},"federalState":{"key":"06","name":"Hessen"}},{"name":"Teichstr.","postalCode":"34388","locality":"Trendelburg","municipality":{"key":"06633025","name":"Trendelburg, Stadt","type":"Stadt"},"district":{"key":"06633","name":"Kassel","type":"Landkreis"},"federalState":{"key":"06","name":"Hessen"}},{"name":"Töpferweg","postalCode":"34388","locality":"Trendelburg","municipality":{"key":"06633025","name":"Trendelburg, Stadt","type":"Stadt"},"district":{"key":"06633","name":"Kassel","type":"Landkreis"},"federalState":{"key":"06","name":"Hessen"}},{"name":"Triftweg","postalCode":"34388","locality":"Trendelburg","municipality":{"key":"06633025","name":"Trendelburg, Stadt","type":"Stadt"},"district":{"key":"06633","name":"Kassel","type":"Landkreis"},"federalState":{"key":"06","name":"Hessen"}},{"name":"Turnerbruch","postalCode":"34388","locality":"Trendelburg","municipality":{"key":"06633025","name":"Trendelburg, Stadt","type":"Stadt"},"district":{"key":"06633","name":"Kassel","type":"Landkreis"},"federalState":{"key":"06","name":"Hessen"}},{"name":"Ulmenweg","postalCode":"34388","locality":"Trendelburg","municipality":{"key":"06633025","name":"Trendelburg, Stadt","type":"Stadt"},"district":{"key":"06633","name":"Kassel","type":"Landkreis"},"federalState":{"key":"06","name":"Hessen"}},{"name":"Unter den Eichen","postalCode":"34388","locality":"Trendelburg","municipality":{"key":"06633025","name":"Trendelburg, Stadt","type":"Stadt"},"district":{"key":"06633","name":"Kassel","type":"Landkreis"},"federalState":{"key":"06","name":"Hessen"}},{"name":"Vor der Hergenlieth","postalCode":"34388","locality":"Trendelburg","municipality":{"key":"06633025","name":"Trendelburg, Stadt","type":"Stadt"},"district":{"key":"06633","name":"Kassel","type":"Landkreis"},"federalState":{"key":"06","name":"Hessen"}},{"name":"Wahmbecker Weg","postalCode":"34388","locality":"Trendelburg","municipality":{"key":"06633025","name":"Trendelburg, Stadt","type":"Stadt"},"district":{"key":"06633","name":"Kassel","type":"Landkreis"},"federalState":{"key":"06","name":"Hessen"}},{"name":"Wasserberg","postalCode":"34388","locality":"Trendelburg","municipality":{"key":"06633025","name":"Trendelburg, Stadt","type":"Stadt"},"district":{"key":"06633","name":"Kassel","type":"Landkreis"},"federalState":{"key":"06","name":"Hessen"}},{"name":"Wehr","postalCode":"34388","locality":"Trendelburg","municipality":{"key":"06633025","name":"Trendelburg, Stadt","type":"Stadt"},"district":{"key":"06633","name":"Kassel","type":"Landkreis"},"federalState":{"key":"06","name":"Hessen"}},{"name":"Wiesenweg","postalCode":"34388","locality":"Trendelburg","municipality":{"key":"06633025","name":"Trendelburg, Stadt","type":"Stadt"},"district":{"key":"06633","name":"Kassel","type":"Landkreis"},"federalState":{"key":"06","name":"Hessen"}},{"name":"Wilhelmstr.","postalCode":"34388","locality":"Trendelburg","municipality":{"key":"06633025","name":"Trendelburg, Stadt","type":"Stadt"},"district":{"key":"06633","name":"Kassel","type":"Landkreis"},"federalState":{"key":"06","name":"Hessen"}},{"name":"Wülmerser Weg","postalCode":"34388","locality":"Trendelburg","municipality":{"key":"06633025","name":"Trendelburg, Stadt","type":"Stadt"},"district":{"key":"06633","name":"Kassel","type":"Landkreis"},"federalState":{"key":"06","name":"Hessen"}},{"name":"Yorckstr.","postalCode":"34123","locality":"Kassel","municipality":{"key":"06611000","name":"Kassel, documenta-Stadt","type":"Kreisfreie_Stadt"},"district":{"key":"06611","name":"Kassel, documenta-Stadt","type":"Kreisfreie_Stadt"},"federalState":{"key":"06","name":"Hessen"}},{"name":"Ysenburgstr.","postalCode":"34125","locality":"Kassel","municipality":{"key":"06611000","name":"Kassel, documenta-Stadt","type":"Kreisfreie_Stadt"},"district":{"key":"06611","name":"Kassel, documenta-Stadt","type":"Kreisfreie_Stadt"},"federalState":{"key":"06","name":"Hessen"}},{"name":"Zum Bienenbusch","postalCode":"34388","locality":"Trendelburg","municipality":{"key":"06633025","name":"Trendelburg, Stadt","type":"Stadt"},"district":{"key":"06633","name":"Kassel","type":"Landkreis"},"federalState":{"key":"06","name":"Hessen"}},{"name":"Zum Flugplatz","postalCode":"34388","locality":"Trendelburg","municipality":{"key":"06633025","name":"Trendelburg, Stadt","type":"Stadt"},"district":{"key":"06633","name":"Kassel","type":"Landkreis"},"federalState":{"key":"06","name":"Hessen"}},{"name":"Zum Forsthaus","postalCode":"34388","locality":"Trendelburg","municipality":{"key":"06633025","name":"Trendelburg, Stadt","type":"Stadt"},"district":{"key":"06633","name":"Kassel","type":"Landkreis"},"federalState":{"key":"06","name":"Hessen"}},{"name":"Zum Ohmsberg","postalCode":"34388","locality":"Trendelburg","municipality":{"key":"06633025","name":"Trendelburg, Stadt","type":"Stadt"},"district":{"key":"06633","name":"Kassel","type":"Landkreis"},"federalState":{"key":"06","name":"Hessen"}},{"name":"Zum Waldeck","postalCode":"34388","locality":"Trendelburg","municipality":{"key":"06633025","name":"Trendelburg, Stadt","type":"Stadt"},"district":{"key":"06633","name":"Kassel","type":"Landkreis"},"federalState":{"key":"06","name":"Hessen"}},{"name":"Zur Abgunst","postalCode":"34388","locality":"Trendelburg","municipality":{"key":"06633025","name":"Trendelburg, Stadt","type":"Stadt"},"district":{"key":"06633","name":"Kassel","type":"Landkreis"},"federalState":{"key":"06","name":"Hessen"}},{"name":"Zur Alten Mühle","postalCode":"34388","locality":"Trendelburg","municipality":{"key":"06633025","name":"Trendelburg, Stadt","type":"Stadt"},"district":{"key":"06633","name":"Kassel","type":"Landkreis"},"federalState":{"key":"06","name":"Hessen"}},{"name":"Zur Burg","postalCode":"34388","locality":"Trendelburg","municipality":{"key":"06633025","name":"Trendelburg, Stadt","type":"Stadt"},"district":{"key":"06633","name":"Kassel","type":"Landkreis"},"federalState":{"key":"06","name":"Hessen"}},{"name":"Zur Fleete","postalCode":"34388","locality":"Trendelburg","municipality":{"key":"06633025","name":"Trendelburg, Stadt","type":"Stadt"},"district":{"key":"06633","name":"Kassel","type":"Landkreis"},"federalState":{"key":"06","name":"Hessen"}},{"name":"Zur Friedenseiche","postalCode":"34388","locality":"Trendelburg","municipality":{"key":"06633025","name":"Trendelburg, Stadt","type":"Stadt"},"district":{"key":"06633","name":"Kassel","type":"Landkreis"},"federalState":{"key":"06","name":"Hessen"}},{"name":"Zur Schmiede","postalCode":"34388","locality":"Trendelburg","municipality":{"key":"06633025","name":"Trendelburg, Stadt","type":"Stadt"},"district":{"key":"06633","name":"Kassel","type":"Landkreis"},"federalState":{"key":"06","name":"Hessen"}},{"name":"Zur Siechenkirche","postalCode":"34388","locality":"Trendelburg","municipality":{"key":"06633025","name":"Trendelburg, Stadt","type":"Stadt"},"district":{"key":"06633","name":"Kassel","type":"Landkreis"},"federalState":{"key":"06","name":"Hessen"}},{"name":"Öderaner Str.","postalCode":"34123","locality":"Kassel","municipality":{"key":"06611000","name":"Kassel, documenta-Stadt","type":"Kreisfreie_Stadt"},"district":{"key":"06611","name":"Kassel, documenta-Stadt","type":"Kreisfreie_Stadt"},"federalState":{"key":"06","name":"Hessen"}},{"name":"Ölbergweg","postalCode":"53859","locality":"Niederkassel","municipality":{"key":"05382044","name":"Niederkassel, Stadt","type":"Stadt"},"district":{"key":"05382","name":"Rhein-Sieg-Kreis","type":"Kreis"},"federalState":{"key":"05","name":"Nordrhein-Westfalen"}},{"name":"Ölmühlenweg","postalCode":"34123","locality":"Kassel","municipality":{"key":"06611000","name":"Kassel, documenta-Stadt","type":"Kreisfreie_Stadt"},"district":{"key":"06611","name":"Kassel, documenta-Stadt","type":"Kreisfreie_Stadt"},"federalState":{"key":"06","name":"Hessen"}},{"name":"Über der Wanne","postalCode":"34388","locality":"Trendelburg","municipality":{"key":"06633025","name":"Trendelburg, Stadt","type":"Stadt"},"district":{"key":"06633","name":"Kassel","type":"Landkreis"},"federalState":{"key":"06","name":"Hessen"}},]