[{"name":"Ahornweg","postalCode":"91469","locality":"Hagenbüchach","municipality":{"key":"09575129","name":"Hagenbüchach","type":"Kreisangehörige_Gemeinde"},"district":{"key":"09575","name":"Neustadt a.d.Aisch-Bad Windsheim","type":"Landkreis"},"federalState":{"key":"09","name":"Bayern"}},{"name":"Am Bahnhof","postalCode":"91469","locality":"Hagenbüchach","municipality":{"key":"09575129","name":"Hagenbüchach","type":"Kreisangehörige_Gemeinde"},"district":{"key":"09575","name":"Neustadt a.d.Aisch-Bad Windsheim","type":"Landkreis"},"federalState":{"key":"09","name":"Bayern"}},{"name":"An den Hausäckern","postalCode":"91469","locality":"Hagenbüchach","municipality":{"key":"09575129","name":"Hagenbüchach","type":"Kreisangehörige_Gemeinde"},"district":{"key":"09575","name":"Neustadt a.d.Aisch-Bad Windsheim","type":"Landkreis"},"federalState":{"key":"09","name":"Bayern"}},{"name":"Barbarossaweg","postalCode":"91469","locality":"Hagenbüchach","municipality":{"key":"09575129","name":"Hagenbüchach","type":"Kreisangehörige_Gemeinde"},"district":{"key":"09575","name":"Neustadt a.d.Aisch-Bad Windsheim","type":"Landkreis"},"federalState":{"key":"09","name":"Bayern"}},{"name":"Bräuersdorfer Str.","postalCode":"91469","locality":"Hagenbüchach","municipality":{"key":"09575129","name":"Hagenbüchach","type":"Kreisangehörige_Gemeinde"},"district":{"key":"09575","name":"Neustadt a.d.Aisch-Bad Windsheim","type":"Landkreis"},"federalState":{"key":"09","name":"Bayern"}},{"name":"Buchenweg","postalCode":"91469","locality":"Hagenbüchach","municipality":{"key":"09575129","name":"Hagenbüchach","type":"Kreisangehörige_Gemeinde"},"district":{"key":"09575","name":"Neustadt a.d.Aisch-Bad Windsheim","type":"Landkreis"},"federalState":{"key":"09","name":"Bayern"}},{"name":"Eichenweg","postalCode":"91469","locality":"Hagenbüchach","municipality":{"key":"09575129","name":"Hagenbüchach","type":"Kreisangehörige_Gemeinde"},"district":{"key":"09575","name":"Neustadt a.d.Aisch-Bad Windsheim","type":"Landkreis"},"federalState":{"key":"09","name":"Bayern"}},{"name":"Emskirchener Str.","postalCode":"91469","locality":"Hagenbüchach","municipality":{"key":"09575129","name":"Hagenbüchach","type":"Kreisangehörige_Gemeinde"},"district":{"key":"09575","name":"Neustadt a.d.Aisch-Bad Windsheim","type":"Landkreis"},"federalState":{"key":"09","name":"Bayern"}},{"name":"Fichtenweg","postalCode":"91469","locality":"Hagenbüchach","municipality":{"key":"09575129","name":"Hagenbüchach","type":"Kreisangehörige_Gemeinde"},"district":{"key":"09575","name":"Neustadt a.d.Aisch-Bad Windsheim","type":"Landkreis"},"federalState":{"key":"09","name":"Bayern"}},{"name":"Fischleitenweg","postalCode":"91469","locality":"Hagenbüchach","municipality":{"key":"09575129","name":"Hagenbüchach","type":"Kreisangehörige_Gemeinde"},"district":{"key":"09575","name":"Neustadt a.d.Aisch-Bad Windsheim","type":"Landkreis"},"federalState":{"key":"09","name":"Bayern"}},{"name":"Fliederweg","postalCode":"91469","locality":"Hagenbüchach","municipality":{"key":"09575129","name":"Hagenbüchach","type":"Kreisangehörige_Gemeinde"},"district":{"key":"09575","name":"Neustadt a.d.Aisch-Bad Windsheim","type":"Landkreis"},"federalState":{"key":"09","name":"Bayern"}},{"name":"Föhrenweg","postalCode":"91469","locality":"Hagenbüchach","municipality":{"key":"09575129","name":"Hagenbüchach","type":"Kreisangehörige_Gemeinde"},"district":{"key":"09575","name":"Neustadt a.d.Aisch-Bad Windsheim","type":"Landkreis"},"federalState":{"key":"09","name":"Bayern"}},{"name":"Gartenstr.","postalCode":"91469","locality":"Hagenbüchach","municipality":{"key":"09575129","name":"Hagenbüchach","type":"Kreisangehörige_Gemeinde"},"district":{"key":"09575","name":"Neustadt a.d.Aisch-Bad Windsheim","type":"Landkreis"},"federalState":{"key":"09","name":"Bayern"}},{"name":"Grundweg","postalCode":"91469","locality":"Hagenbüchach","municipality":{"key":"09575129","name":"Hagenbüchach","type":"Kreisangehörige_Gemeinde"},"district":{"key":"09575","name":"Neustadt a.d.Aisch-Bad Windsheim","type":"Landkreis"},"federalState":{"key":"09","name":"Bayern"}},{"name":"Gunzendorfer Weg","postalCode":"91469","locality":"Hagenbüchach","municipality":{"key":"09575129","name":"Hagenbüchach","type":"Kreisangehörige_Gemeinde"},"district":{"key":"09575","name":"Neustadt a.d.Aisch-Bad Windsheim","type":"Landkreis"},"federalState":{"key":"09","name":"Bayern"}},{"name":"Hardtstr.","postalCode":"91469","locality":"Hagenbüchach","municipality":{"key":"09575129","name":"Hagenbüchach","type":"Kreisangehörige_Gemeinde"},"district":{"key":"09575","name":"Neustadt a.d.Aisch-Bad Windsheim","type":"Landkreis"},"federalState":{"key":"09","name":"Bayern"}},{"name":"Haselnussweg","postalCode":"91469","locality":"Hagenbüchach","municipality":{"key":"09575129","name":"Hagenbüchach","type":"Kreisangehörige_Gemeinde"},"district":{"key":"09575","name":"Neustadt a.d.Aisch-Bad Windsheim","type":"Landkreis"},"federalState":{"key":"09","name":"Bayern"}},{"name":"Hauptstr.","postalCode":"91469","locality":"Hagenbüchach","municipality":{"key":"09575129","name":"Hagenbüchach","type":"Kreisangehörige_Gemeinde"},"district":{"key":"09575","name":"Neustadt a.d.Aisch-Bad Windsheim","type":"Landkreis"},"federalState":{"key":"09","name":"Bayern"}},{"name":"Hochstr.","postalCode":"91469","locality":"Hagenbüchach","municipality":{"key":"09575129","name":"Hagenbüchach","type":"Kreisangehörige_Gemeinde"},"district":{"key":"09575","name":"Neustadt a.d.Aisch-Bad Windsheim","type":"Landkreis"},"federalState":{"key":"09","name":"Bayern"}},{"name":"Holunderweg","postalCode":"91469","locality":"Hagenbüchach","municipality":{"key":"09575129","name":"Hagenbüchach","type":"Kreisangehörige_Gemeinde"},"district":{"key":"09575","name":"Neustadt a.d.Aisch-Bad Windsheim","type":"Landkreis"},"federalState":{"key":"09","name":"Bayern"}},{"name":"Langenzenner Weg","postalCode":"91469","locality":"Hagenbüchach","municipality":{"key":"09575129","name":"Hagenbüchach","type":"Kreisangehörige_Gemeinde"},"district":{"key":"09575","name":"Neustadt a.d.Aisch-Bad Windsheim","type":"Landkreis"},"federalState":{"key":"09","name":"Bayern"}},{"name":"Lindenweg","postalCode":"91469","locality":"Hagenbüchach","municipality":{"key":"09575129","name":"Hagenbüchach","type":"Kreisangehörige_Gemeinde"},"district":{"key":"09575","name":"Neustadt a.d.Aisch-Bad Windsheim","type":"Landkreis"},"federalState":{"key":"09","name":"Bayern"}},{"name":"Nelkenweg","postalCode":"91469","locality":"Hagenbüchach","municipality":{"key":"09575129","name":"Hagenbüchach","type":"Kreisangehörige_Gemeinde"},"district":{"key":"09575","name":"Neustadt a.d.Aisch-Bad Windsheim","type":"Landkreis"},"federalState":{"key":"09","name":"Bayern"}},{"name":"Pfarrer-Blank-Weg","postalCode":"91469","locality":"Hagenbüchach","municipality":{"key":"09575129","name":"Hagenbüchach","type":"Kreisangehörige_Gemeinde"},"district":{"key":"09575","name":"Neustadt a.d.Aisch-Bad Windsheim","type":"Landkreis"},"federalState":{"key":"09","name":"Bayern"}},{"name":"Pirkacher Str.","postalCode":"91469","locality":"Hagenbüchach","municipality":{"key":"09575129","name":"Hagenbüchach","type":"Kreisangehörige_Gemeinde"},"district":{"key":"09575","name":"Neustadt a.d.Aisch-Bad Windsheim","type":"Landkreis"},"federalState":{"key":"09","name":"Bayern"}},{"name":"Platanenweg","postalCode":"91469","locality":"Hagenbüchach","municipality":{"key":"09575129","name":"Hagenbüchach","type":"Kreisangehörige_Gemeinde"},"district":{"key":"09575","name":"Neustadt a.d.Aisch-Bad Windsheim","type":"Landkreis"},"federalState":{"key":"09","name":"Bayern"}},{"name":"Rosenweg","postalCode":"91469","locality":"Hagenbüchach","municipality":{"key":"09575129","name":"Hagenbüchach","type":"Kreisangehörige_Gemeinde"},"district":{"key":"09575","name":"Neustadt a.d.Aisch-Bad Windsheim","type":"Landkreis"},"federalState":{"key":"09","name":"Bayern"}},{"name":"Rotdornweg","postalCode":"91469","locality":"Hagenbüchach","municipality":{"key":"09575129","name":"Hagenbüchach","type":"Kreisangehörige_Gemeinde"},"district":{"key":"09575","name":"Neustadt a.d.Aisch-Bad Windsheim","type":"Landkreis"},"federalState":{"key":"09","name":"Bayern"}},{"name":"Schulstr.","postalCode":"91469","locality":"Hagenbüchach","municipality":{"key":"09575129","name":"Hagenbüchach","type":"Kreisangehörige_Gemeinde"},"district":{"key":"09575","name":"Neustadt a.d.Aisch-Bad Windsheim","type":"Landkreis"},"federalState":{"key":"09","name":"Bayern"}},{"name":"Siedlerstr.","postalCode":"91469","locality":"Hagenbüchach","municipality":{"key":"09575129","name":"Hagenbüchach","type":"Kreisangehörige_Gemeinde"},"district":{"key":"09575","name":"Neustadt a.d.Aisch-Bad Windsheim","type":"Landkreis"},"federalState":{"key":"09","name":"Bayern"}},{"name":"Tannenweg","postalCode":"91469","locality":"Hagenbüchach","municipality":{"key":"09575129","name":"Hagenbüchach","type":"Kreisangehörige_Gemeinde"},"district":{"key":"09575","name":"Neustadt a.d.Aisch-Bad Windsheim","type":"Landkreis"},"federalState":{"key":"09","name":"Bayern"}},{"name":"Teichweg","postalCode":"91469","locality":"Hagenbüchach","municipality":{"key":"09575129","name":"Hagenbüchach","type":"Kreisangehörige_Gemeinde"},"district":{"key":"09575","name":"Neustadt a.d.Aisch-Bad Windsheim","type":"Landkreis"},"federalState":{"key":"09","name":"Bayern"}},{"name":"Tulpenweg","postalCode":"91469","locality":"Hagenbüchach","municipality":{"key":"09575129","name":"Hagenbüchach","type":"Kreisangehörige_Gemeinde"},"district":{"key":"09575","name":"Neustadt a.d.Aisch-Bad Windsheim","type":"Landkreis"},"federalState":{"key":"09","name":"Bayern"}},{"name":"Ulmenweg","postalCode":"91469","locality":"Hagenbüchach","municipality":{"key":"09575129","name":"Hagenbüchach","type":"Kreisangehörige_Gemeinde"},"district":{"key":"09575","name":"Neustadt a.d.Aisch-Bad Windsheim","type":"Landkreis"},"federalState":{"key":"09","name":"Bayern"}},{"name":"Wacholderweg","postalCode":"91469","locality":"Hagenbüchach","municipality":{"key":"09575129","name":"Hagenbüchach","type":"Kreisangehörige_Gemeinde"},"district":{"key":"09575","name":"Neustadt a.d.Aisch-Bad Windsheim","type":"Landkreis"},"federalState":{"key":"09","name":"Bayern"}},{"name":"Waldstr.","postalCode":"91469","locality":"Hagenbüchach","municipality":{"key":"09575129","name":"Hagenbüchach","type":"Kreisangehörige_Gemeinde"},"district":{"key":"09575","name":"Neustadt a.d.Aisch-Bad Windsheim","type":"Landkreis"},"federalState":{"key":"09","name":"Bayern"}},{"name":"Wiesenstr.","postalCode":"91469","locality":"Hagenbüchach","municipality":{"key":"09575129","name":"Hagenbüchach","type":"Kreisangehörige_Gemeinde"},"district":{"key":"09575","name":"Neustadt a.d.Aisch-Bad Windsheim","type":"Landkreis"},"federalState":{"key":"09","name":"Bayern"}},]