[{"name":"Alter Weg","postalCode":"54649","locality":"Waxweiler","municipality":{"key":"07232322","name":"Waxweiler","type":"Kreisangehörige_Gemeinde"},"district":{"key":"07232","name":"Eifelkreis Bitburg-Prüm","type":"Landkreis"},"federalState":{"key":"07","name":"Rheinland-Pfalz"}},{"name":"Am Kanal","postalCode":"54649","locality":"Waxweiler","municipality":{"key":"07232322","name":"Waxweiler","type":"Kreisangehörige_Gemeinde"},"district":{"key":"07232","name":"Eifelkreis Bitburg-Prüm","type":"Landkreis"},"federalState":{"key":"07","name":"Rheinland-Pfalz"}},{"name":"Am Sonnenhang","postalCode":"54649","locality":"Waxweiler","municipality":{"key":"07232322","name":"Waxweiler","type":"Kreisangehörige_Gemeinde"},"district":{"key":"07232","name":"Eifelkreis Bitburg-Prüm","type":"Landkreis"},"federalState":{"key":"07","name":"Rheinland-Pfalz"}},{"name":"Auf dem Hüttenberg","postalCode":"54649","locality":"Waxweiler","municipality":{"key":"07232322","name":"Waxweiler","type":"Kreisangehörige_Gemeinde"},"district":{"key":"07232","name":"Eifelkreis Bitburg-Prüm","type":"Landkreis"},"federalState":{"key":"07","name":"Rheinland-Pfalz"}},{"name":"Auf der Kehr","postalCode":"54649","locality":"Waxweiler","municipality":{"key":"07232322","name":"Waxweiler","type":"Kreisangehörige_Gemeinde"},"district":{"key":"07232","name":"Eifelkreis Bitburg-Prüm","type":"Landkreis"},"federalState":{"key":"07","name":"Rheinland-Pfalz"}},{"name":"Auf Staudigt","postalCode":"54649","locality":"Waxweiler","municipality":{"key":"07232322","name":"Waxweiler","type":"Kreisangehörige_Gemeinde"},"district":{"key":"07232","name":"Eifelkreis Bitburg-Prüm","type":"Landkreis"},"federalState":{"key":"07","name":"Rheinland-Pfalz"}},{"name":"Bahnhofstr.","postalCode":"54649","locality":"Waxweiler","municipality":{"key":"07232322","name":"Waxweiler","type":"Kreisangehörige_Gemeinde"},"district":{"key":"07232","name":"Eifelkreis Bitburg-Prüm","type":"Landkreis"},"federalState":{"key":"07","name":"Rheinland-Pfalz"}},{"name":"Bornwiese","postalCode":"54649","locality":"Waxweiler","municipality":{"key":"07232322","name":"Waxweiler","type":"Kreisangehörige_Gemeinde"},"district":{"key":"07232","name":"Eifelkreis Bitburg-Prüm","type":"Landkreis"},"federalState":{"key":"07","name":"Rheinland-Pfalz"}},{"name":"Devonpfad","postalCode":"54649","locality":"Waxweiler","municipality":{"key":"07232322","name":"Waxweiler","type":"Kreisangehörige_Gemeinde"},"district":{"key":"07232","name":"Eifelkreis Bitburg-Prüm","type":"Landkreis"},"federalState":{"key":"07","name":"Rheinland-Pfalz"}},{"name":"Eichelsberg","postalCode":"54649","locality":"Waxweiler","municipality":{"key":"07232322","name":"Waxweiler","type":"Kreisangehörige_Gemeinde"},"district":{"key":"07232","name":"Eifelkreis Bitburg-Prüm","type":"Landkreis"},"federalState":{"key":"07","name":"Rheinland-Pfalz"}},{"name":"Floriansweg","postalCode":"54649","locality":"Waxweiler","municipality":{"key":"07232322","name":"Waxweiler","type":"Kreisangehörige_Gemeinde"},"district":{"key":"07232","name":"Eifelkreis Bitburg-Prüm","type":"Landkreis"},"federalState":{"key":"07","name":"Rheinland-Pfalz"}},{"name":"Gerhard-Faber-Str.","postalCode":"54649","locality":"Waxweiler","municipality":{"key":"07232322","name":"Waxweiler","type":"Kreisangehörige_Gemeinde"},"district":{"key":"07232","name":"Eifelkreis Bitburg-Prüm","type":"Landkreis"},"federalState":{"key":"07","name":"Rheinland-Pfalz"}},{"name":"Ginshausermühle","postalCode":"54649","locality":"Waxweiler","municipality":{"key":"07232322","name":"Waxweiler","type":"Kreisangehörige_Gemeinde"},"district":{"key":"07232","name":"Eifelkreis Bitburg-Prüm","type":"Landkreis"},"federalState":{"key":"07","name":"Rheinland-Pfalz"}},{"name":"Hauptstr.","postalCode":"54649","locality":"Waxweiler","municipality":{"key":"07232322","name":"Waxweiler","type":"Kreisangehörige_Gemeinde"},"district":{"key":"07232","name":"Eifelkreis Bitburg-Prüm","type":"Landkreis"},"federalState":{"key":"07","name":"Rheinland-Pfalz"}},{"name":"Heilhausen","postalCode":"54649","locality":"Waxweiler","municipality":{"key":"07232322","name":"Waxweiler","type":"Kreisangehörige_Gemeinde"},"district":{"key":"07232","name":"Eifelkreis Bitburg-Prüm","type":"Landkreis"},"federalState":{"key":"07","name":"Rheinland-Pfalz"}},{"name":"Heimesbachweg","postalCode":"54649","locality":"Waxweiler","municipality":{"key":"07232322","name":"Waxweiler","type":"Kreisangehörige_Gemeinde"},"district":{"key":"07232","name":"Eifelkreis Bitburg-Prüm","type":"Landkreis"},"federalState":{"key":"07","name":"Rheinland-Pfalz"}},{"name":"In der Gauch","postalCode":"54649","locality":"Waxweiler","municipality":{"key":"07232322","name":"Waxweiler","type":"Kreisangehörige_Gemeinde"},"district":{"key":"07232","name":"Eifelkreis Bitburg-Prüm","type":"Landkreis"},"federalState":{"key":"07","name":"Rheinland-Pfalz"}},{"name":"Lünebacher Str.","postalCode":"54649","locality":"Waxweiler","municipality":{"key":"07232322","name":"Waxweiler","type":"Kreisangehörige_Gemeinde"},"district":{"key":"07232","name":"Eifelkreis Bitburg-Prüm","type":"Landkreis"},"federalState":{"key":"07","name":"Rheinland-Pfalz"}},{"name":"Luxemburger Str.","postalCode":"54649","locality":"Waxweiler","municipality":{"key":"07232322","name":"Waxweiler","type":"Kreisangehörige_Gemeinde"},"district":{"key":"07232","name":"Eifelkreis Bitburg-Prüm","type":"Landkreis"},"federalState":{"key":"07","name":"Rheinland-Pfalz"}},{"name":"Pintesfelder Str.","postalCode":"54649","locality":"Waxweiler","municipality":{"key":"07232322","name":"Waxweiler","type":"Kreisangehörige_Gemeinde"},"district":{"key":"07232","name":"Eifelkreis Bitburg-Prüm","type":"Landkreis"},"federalState":{"key":"07","name":"Rheinland-Pfalz"}},{"name":"Scheuerweg","postalCode":"54649","locality":"Waxweiler","municipality":{"key":"07232322","name":"Waxweiler","type":"Kreisangehörige_Gemeinde"},"district":{"key":"07232","name":"Eifelkreis Bitburg-Prüm","type":"Landkreis"},"federalState":{"key":"07","name":"Rheinland-Pfalz"}},{"name":"Schmelzberg","postalCode":"54649","locality":"Waxweiler","municipality":{"key":"07232322","name":"Waxweiler","type":"Kreisangehörige_Gemeinde"},"district":{"key":"07232","name":"Eifelkreis Bitburg-Prüm","type":"Landkreis"},"federalState":{"key":"07","name":"Rheinland-Pfalz"}},{"name":"Schulstr.","postalCode":"54649","locality":"Waxweiler","municipality":{"key":"07232322","name":"Waxweiler","type":"Kreisangehörige_Gemeinde"},"district":{"key":"07232","name":"Eifelkreis Bitburg-Prüm","type":"Landkreis"},"federalState":{"key":"07","name":"Rheinland-Pfalz"}},{"name":"Schwimmbadstr.","postalCode":"54649","locality":"Waxweiler","municipality":{"key":"07232322","name":"Waxweiler","type":"Kreisangehörige_Gemeinde"},"district":{"key":"07232","name":"Eifelkreis Bitburg-Prüm","type":"Landkreis"},"federalState":{"key":"07","name":"Rheinland-Pfalz"}},{"name":"Trierer Str.","postalCode":"54649","locality":"Waxweiler","municipality":{"key":"07232322","name":"Waxweiler","type":"Kreisangehörige_Gemeinde"},"district":{"key":"07232","name":"Eifelkreis Bitburg-Prüm","type":"Landkreis"},"federalState":{"key":"07","name":"Rheinland-Pfalz"}},{"name":"Unter der Mühle","postalCode":"54649","locality":"Waxweiler","municipality":{"key":"07232322","name":"Waxweiler","type":"Kreisangehörige_Gemeinde"},"district":{"key":"07232","name":"Eifelkreis Bitburg-Prüm","type":"Landkreis"},"federalState":{"key":"07","name":"Rheinland-Pfalz"}},{"name":"Weiherbachstr.","postalCode":"54649","locality":"Waxweiler","municipality":{"key":"07232322","name":"Waxweiler","type":"Kreisangehörige_Gemeinde"},"district":{"key":"07232","name":"Eifelkreis Bitburg-Prüm","type":"Landkreis"},"federalState":{"key":"07","name":"Rheinland-Pfalz"}},]