[{"key":"10118353","name":"Ausserdorf","postalCode":"8235","locality":"Lohn SH","commune":{"key":"2917","name":"Lohn (SH)","shortName":"Lohn (SH)"},"district":{"key":"1402","name":"Bezirk Reiat"},"canton":{"key":"14","code":"SH","name":"Schaffhausen"},"status":"Real"},{"key":"10024956","name":"Bibermerweg","postalCode":"8235","locality":"Lohn SH","commune":{"key":"2917","name":"Lohn (SH)","shortName":"Lohn (SH)"},"district":{"key":"1402","name":"Bezirk Reiat"},"canton":{"key":"14","code":"SH","name":"Schaffhausen"},"status":"Real"},{"key":"10024957","name":"Blattenacker","postalCode":"8235","locality":"Lohn SH","commune":{"key":"2917","name":"Lohn (SH)","shortName":"Lohn (SH)"},"district":{"key":"1402","name":"Bezirk Reiat"},"canton":{"key":"14","code":"SH","name":"Schaffhausen"},"status":"Real"},{"key":"10104917","name":"Blattenweg","postalCode":"8235","locality":"Lohn SH","commune":{"key":"2917","name":"Lohn (SH)","shortName":"Lohn (SH)"},"district":{"key":"1402","name":"Bezirk Reiat"},"canton":{"key":"14","code":"SH","name":"Schaffhausen"},"status":"Real"},{"key":"10086755","name":"Brettlocher","postalCode":"8235","locality":"Lohn SH","commune":{"key":"2917","name":"Lohn (SH)","shortName":"Lohn (SH)"},"district":{"key":"1402","name":"Bezirk Reiat"},"canton":{"key":"14","code":"SH","name":"Schaffhausen"},"status":"Real"},{"key":"10024958","name":"Dettenwies","postalCode":"8235","locality":"Lohn SH","commune":{"key":"2917","name":"Lohn (SH)","shortName":"Lohn (SH)"},"district":{"key":"1402","name":"Bezirk Reiat"},"canton":{"key":"14","code":"SH","name":"Schaffhausen"},"status":"Real"},{"key":"10024959","name":"Dettenwiesweg","postalCode":"8235","locality":"Lohn SH","commune":{"key":"2917","name":"Lohn (SH)","shortName":"Lohn (SH)"},"district":{"key":"1402","name":"Bezirk Reiat"},"canton":{"key":"14","code":"SH","name":"Schaffhausen"},"status":"Real"},{"key":"10072980","name":"Freudentalstrasse","postalCode":"8235","locality":"Lohn SH","commune":{"key":"2917","name":"Lohn (SH)","shortName":"Lohn (SH)"},"district":{"key":"1402","name":"Bezirk Reiat"},"canton":{"key":"14","code":"SH","name":"Schaffhausen"},"status":"Real"},{"key":"10086756","name":"Gässli","postalCode":"8235","locality":"Lohn SH","commune":{"key":"2917","name":"Lohn (SH)","shortName":"Lohn (SH)"},"district":{"key":"1402","name":"Bezirk Reiat"},"canton":{"key":"14","code":"SH","name":"Schaffhausen"},"status":"Real"},{"key":"10024960","name":"Heerebuck","postalCode":"8235","locality":"Lohn SH","commune":{"key":"2917","name":"Lohn (SH)","shortName":"Lohn (SH)"},"district":{"key":"1402","name":"Bezirk Reiat"},"canton":{"key":"14","code":"SH","name":"Schaffhausen"},"status":"Real"},{"key":"10144429","name":"Hegaustrasse","postalCode":"8235","locality":"Lohn SH","commune":{"key":"2917","name":"Lohn (SH)","shortName":"Lohn (SH)"},"district":{"key":"1402","name":"Bezirk Reiat"},"canton":{"key":"14","code":"SH","name":"Schaffhausen"},"status":"Real"},{"key":"10153561","name":"Herti","postalCode":"8235","locality":"Lohn SH","commune":{"key":"2917","name":"Lohn (SH)","shortName":"Lohn (SH)"},"district":{"key":"1402","name":"Bezirk Reiat"},"canton":{"key":"14","code":"SH","name":"Schaffhausen"},"status":"Real"},{"key":"10111808","name":"Im Ifang","postalCode":"8235","locality":"Lohn SH","commune":{"key":"2917","name":"Lohn (SH)","shortName":"Lohn (SH)"},"district":{"key":"1402","name":"Bezirk Reiat"},"canton":{"key":"14","code":"SH","name":"Schaffhausen"},"status":"Real"},{"key":"10086757","name":"Im Rietacker","postalCode":"8235","locality":"Lohn SH","commune":{"key":"2917","name":"Lohn (SH)","shortName":"Lohn (SH)"},"district":{"key":"1402","name":"Bezirk Reiat"},"canton":{"key":"14","code":"SH","name":"Schaffhausen"},"status":"Real"},{"key":"10117539","name":"Im Winkel","postalCode":"8235","locality":"Lohn SH","commune":{"key":"2917","name":"Lohn (SH)","shortName":"Lohn (SH)"},"district":{"key":"1402","name":"Bezirk Reiat"},"canton":{"key":"14","code":"SH","name":"Schaffhausen"},"status":"Real"},{"key":"10024961","name":"In Gärten","postalCode":"8235","locality":"Lohn SH","commune":{"key":"2917","name":"Lohn (SH)","shortName":"Lohn (SH)"},"district":{"key":"1402","name":"Bezirk Reiat"},"canton":{"key":"14","code":"SH","name":"Schaffhausen"},"status":"Real"},{"key":"10185478","name":"Isenbühlweg","postalCode":"8235","locality":"Lohn SH","commune":{"key":"2917","name":"Lohn (SH)","shortName":"Lohn (SH)"},"district":{"key":"1402","name":"Bezirk Reiat"},"canton":{"key":"14","code":"SH","name":"Schaffhausen"},"status":"Real"},{"key":"10072981","name":"Kerzenstübliweg","postalCode":"8235","locality":"Lohn SH","commune":{"key":"2917","name":"Lohn (SH)","shortName":"Lohn (SH)"},"district":{"key":"1402","name":"Bezirk Reiat"},"canton":{"key":"14","code":"SH","name":"Schaffhausen"},"status":"Real"},{"key":"10024962","name":"Oberer Studsteig","postalCode":"8235","locality":"Lohn SH","commune":{"key":"2917","name":"Lohn (SH)","shortName":"Lohn (SH)"},"district":{"key":"1402","name":"Bezirk Reiat"},"canton":{"key":"14","code":"SH","name":"Schaffhausen"},"status":"Real"},{"key":"10086758","name":"Quellenstrasse","postalCode":"8235","locality":"Lohn SH","commune":{"key":"2917","name":"Lohn (SH)","shortName":"Lohn (SH)"},"district":{"key":"1402","name":"Bezirk Reiat"},"canton":{"key":"14","code":"SH","name":"Schaffhausen"},"status":"Real"},{"key":"10024963","name":"Rebacker","postalCode":"8235","locality":"Lohn SH","commune":{"key":"2917","name":"Lohn (SH)","shortName":"Lohn (SH)"},"district":{"key":"1402","name":"Bezirk Reiat"},"canton":{"key":"14","code":"SH","name":"Schaffhausen"},"status":"Real"},{"key":"10120404","name":"Rietackerstrasse","postalCode":"8235","locality":"Lohn SH","commune":{"key":"2917","name":"Lohn (SH)","shortName":"Lohn (SH)"},"district":{"key":"1402","name":"Bezirk Reiat"},"canton":{"key":"14","code":"SH","name":"Schaffhausen"},"status":"Real"},{"key":"10104918","name":"Rietli","postalCode":"8235","locality":"Lohn SH","commune":{"key":"2917","name":"Lohn (SH)","shortName":"Lohn (SH)"},"district":{"key":"1402","name":"Bezirk Reiat"},"canton":{"key":"14","code":"SH","name":"Schaffhausen"},"status":"Real"},{"key":"10139328","name":"Rietstrasse","postalCode":"8235","locality":"Lohn SH","commune":{"key":"2917","name":"Lohn (SH)","shortName":"Lohn (SH)"},"district":{"key":"1402","name":"Bezirk Reiat"},"canton":{"key":"14","code":"SH","name":"Schaffhausen"},"status":"Real"},{"key":"10024964","name":"Rosenhügel","postalCode":"8235","locality":"Lohn SH","commune":{"key":"2917","name":"Lohn (SH)","shortName":"Lohn (SH)"},"district":{"key":"1402","name":"Bezirk Reiat"},"canton":{"key":"14","code":"SH","name":"Schaffhausen"},"status":"Real"},{"key":"10149226","name":"Rotackerstrasse","postalCode":"8235","locality":"Lohn SH","commune":{"key":"2917","name":"Lohn (SH)","shortName":"Lohn (SH)"},"district":{"key":"1402","name":"Bezirk Reiat"},"canton":{"key":"14","code":"SH","name":"Schaffhausen"},"status":"Real"},{"key":"10086759","name":"Schenenbühlstrasse","postalCode":"8235","locality":"Lohn SH","commune":{"key":"2917","name":"Lohn (SH)","shortName":"Lohn (SH)"},"district":{"key":"1402","name":"Bezirk Reiat"},"canton":{"key":"14","code":"SH","name":"Schaffhausen"},"status":"Real"},{"key":"10072982","name":"Schmittengasse","postalCode":"8235","locality":"Lohn SH","commune":{"key":"2917","name":"Lohn (SH)","shortName":"Lohn (SH)"},"district":{"key":"1402","name":"Bezirk Reiat"},"canton":{"key":"14","code":"SH","name":"Schaffhausen"},"status":"Real"},{"key":"10087035","name":"Schulbückli","postalCode":"8235","locality":"Lohn SH","commune":{"key":"2917","name":"Lohn (SH)","shortName":"Lohn (SH)"},"district":{"key":"1402","name":"Bezirk Reiat"},"canton":{"key":"14","code":"SH","name":"Schaffhausen"},"status":"Real"},{"key":"10185479","name":"Stettemerstrasse","postalCode":"8235","locality":"Lohn SH","commune":{"key":"2917","name":"Lohn (SH)","shortName":"Lohn (SH)"},"district":{"key":"1402","name":"Bezirk Reiat"},"canton":{"key":"14","code":"SH","name":"Schaffhausen"},"status":"Real"},{"key":"10122737","name":"Studesteig","postalCode":"8235","locality":"Lohn SH","commune":{"key":"2917","name":"Lohn (SH)","shortName":"Lohn (SH)"},"district":{"key":"1402","name":"Bezirk Reiat"},"canton":{"key":"14","code":"SH","name":"Schaffhausen"},"status":"Real"},{"key":"10024965","name":"Thayngerstrasse","postalCode":"8235","locality":"Lohn SH","commune":{"key":"2917","name":"Lohn (SH)","shortName":"Lohn (SH)"},"district":{"key":"1402","name":"Bezirk Reiat"},"canton":{"key":"14","code":"SH","name":"Schaffhausen"},"status":"Real"},{"key":"10072983","name":"Unterdorf","postalCode":"8235","locality":"Lohn SH","commune":{"key":"2917","name":"Lohn (SH)","shortName":"Lohn (SH)"},"district":{"key":"1402","name":"Bezirk Reiat"},"canton":{"key":"14","code":"SH","name":"Schaffhausen"},"status":"Real"},{"key":"10087036","name":"Unterer Studsteig","postalCode":"8235","locality":"Lohn SH","commune":{"key":"2917","name":"Lohn (SH)","shortName":"Lohn (SH)"},"district":{"key":"1402","name":"Bezirk Reiat"},"canton":{"key":"14","code":"SH","name":"Schaffhausen"},"status":"Real"},{"key":"10111809","name":"Vorderdorf","postalCode":"8235","locality":"Lohn SH","commune":{"key":"2917","name":"Lohn (SH)","shortName":"Lohn (SH)"},"district":{"key":"1402","name":"Bezirk Reiat"},"canton":{"key":"14","code":"SH","name":"Schaffhausen"},"status":"Real"},{"key":"10104919","name":"Wasserbrunnen","postalCode":"8235","locality":"Lohn SH","commune":{"key":"2917","name":"Lohn (SH)","shortName":"Lohn (SH)"},"district":{"key":"1402","name":"Bezirk Reiat"},"canton":{"key":"14","code":"SH","name":"Schaffhausen"},"status":"Real"},{"key":"10141933","name":"Wiesenstrasse","postalCode":"8235","locality":"Lohn SH","commune":{"key":"2917","name":"Lohn (SH)","shortName":"Lohn (SH)"},"district":{"key":"1402","name":"Bezirk Reiat"},"canton":{"key":"14","code":"SH","name":"Schaffhausen"},"status":"Real"},{"key":"10024966","name":"Windegg","postalCode":"8235","locality":"Lohn SH","commune":{"key":"2917","name":"Lohn (SH)","shortName":"Lohn (SH)"},"district":{"key":"1402","name":"Bezirk Reiat"},"canton":{"key":"14","code":"SH","name":"Schaffhausen"},"status":"Real"},]