[{"name":"Alter Graben","postalCode":"54610","locality":"Büdesheim","municipality":{"key":"07232209","name":"Büdesheim","type":"Kreisangehörige_Gemeinde"},"district":{"key":"07232","name":"Eifelkreis Bitburg-Prüm","type":"Landkreis"},"federalState":{"key":"07","name":"Rheinland-Pfalz"}},{"name":"Alte Römerstr.","postalCode":"54610","locality":"Büdesheim","municipality":{"key":"07232209","name":"Büdesheim","type":"Kreisangehörige_Gemeinde"},"district":{"key":"07232","name":"Eifelkreis Bitburg-Prüm","type":"Landkreis"},"federalState":{"key":"07","name":"Rheinland-Pfalz"}},{"name":"Alzeyer Str.","postalCode":"55234","locality":"Erbes-Büdesheim","municipality":{"key":"07331021","name":"Erbes-Büdesheim","type":"Kreisangehörige_Gemeinde"},"district":{"key":"07331","name":"Alzey-Worms","type":"Landkreis"},"federalState":{"key":"07","name":"Rheinland-Pfalz"}},{"name":"Am Alzeyer Berg","postalCode":"55234","locality":"Erbes-Büdesheim","municipality":{"key":"07331021","name":"Erbes-Büdesheim","type":"Kreisangehörige_Gemeinde"},"district":{"key":"07331","name":"Alzey-Worms","type":"Landkreis"},"federalState":{"key":"07","name":"Rheinland-Pfalz"}},{"name":"Am Birngraben","postalCode":"55234","locality":"Erbes-Büdesheim","municipality":{"key":"07331021","name":"Erbes-Büdesheim","type":"Kreisangehörige_Gemeinde"},"district":{"key":"07331","name":"Alzey-Worms","type":"Landkreis"},"federalState":{"key":"07","name":"Rheinland-Pfalz"}},{"name":"Am Breiten Weg","postalCode":"55234","locality":"Erbes-Büdesheim","municipality":{"key":"07331021","name":"Erbes-Büdesheim","type":"Kreisangehörige_Gemeinde"},"district":{"key":"07331","name":"Alzey-Worms","type":"Landkreis"},"federalState":{"key":"07","name":"Rheinland-Pfalz"}},{"name":"Am Goldborn","postalCode":"54610","locality":"Büdesheim","municipality":{"key":"07232209","name":"Büdesheim","type":"Kreisangehörige_Gemeinde"},"district":{"key":"07232","name":"Eifelkreis Bitburg-Prüm","type":"Landkreis"},"federalState":{"key":"07","name":"Rheinland-Pfalz"}},{"name":"Am Holler","postalCode":"55234","locality":"Erbes-Büdesheim","municipality":{"key":"07331021","name":"Erbes-Büdesheim","type":"Kreisangehörige_Gemeinde"},"district":{"key":"07331","name":"Alzey-Worms","type":"Landkreis"},"federalState":{"key":"07","name":"Rheinland-Pfalz"}},{"name":"Am Kleeberg","postalCode":"54610","locality":"Büdesheim","municipality":{"key":"07232209","name":"Büdesheim","type":"Kreisangehörige_Gemeinde"},"district":{"key":"07232","name":"Eifelkreis Bitburg-Prüm","type":"Landkreis"},"federalState":{"key":"07","name":"Rheinland-Pfalz"}},{"name":"Am Osterberg","postalCode":"54610","locality":"Büdesheim","municipality":{"key":"07232209","name":"Büdesheim","type":"Kreisangehörige_Gemeinde"},"district":{"key":"07232","name":"Eifelkreis Bitburg-Prüm","type":"Landkreis"},"federalState":{"key":"07","name":"Rheinland-Pfalz"}},{"name":"Am Rosengarten","postalCode":"55234","locality":"Erbes-Büdesheim","municipality":{"key":"07331021","name":"Erbes-Büdesheim","type":"Kreisangehörige_Gemeinde"},"district":{"key":"07331","name":"Alzey-Worms","type":"Landkreis"},"federalState":{"key":"07","name":"Rheinland-Pfalz"}},{"name":"Am Schloss","postalCode":"55234","locality":"Erbes-Büdesheim","municipality":{"key":"07331021","name":"Erbes-Büdesheim","type":"Kreisangehörige_Gemeinde"},"district":{"key":"07331","name":"Alzey-Worms","type":"Landkreis"},"federalState":{"key":"07","name":"Rheinland-Pfalz"}},{"name":"Auf der Rode","postalCode":"55234","locality":"Erbes-Büdesheim","municipality":{"key":"07331021","name":"Erbes-Büdesheim","type":"Kreisangehörige_Gemeinde"},"district":{"key":"07331","name":"Alzey-Worms","type":"Landkreis"},"federalState":{"key":"07","name":"Rheinland-Pfalz"}},{"name":"Auf Erden","postalCode":"54610","locality":"Büdesheim","municipality":{"key":"07232209","name":"Büdesheim","type":"Kreisangehörige_Gemeinde"},"district":{"key":"07232","name":"Eifelkreis Bitburg-Prüm","type":"Landkreis"},"federalState":{"key":"07","name":"Rheinland-Pfalz"}},{"name":"Auf Naubrich","postalCode":"54610","locality":"Büdesheim","municipality":{"key":"07232209","name":"Büdesheim","type":"Kreisangehörige_Gemeinde"},"district":{"key":"07232","name":"Eifelkreis Bitburg-Prüm","type":"Landkreis"},"federalState":{"key":"07","name":"Rheinland-Pfalz"}},{"name":"Bahnhofstr.","postalCode":"54610","locality":"Büdesheim","municipality":{"key":"07232209","name":"Büdesheim","type":"Kreisangehörige_Gemeinde"},"district":{"key":"07232","name":"Eifelkreis Bitburg-Prüm","type":"Landkreis"},"federalState":{"key":"07","name":"Rheinland-Pfalz"}},{"name":"Bechenheimer Weg","postalCode":"55234","locality":"Erbes-Büdesheim","municipality":{"key":"07331021","name":"Erbes-Büdesheim","type":"Kreisangehörige_Gemeinde"},"district":{"key":"07331","name":"Alzey-Worms","type":"Landkreis"},"federalState":{"key":"07","name":"Rheinland-Pfalz"}},{"name":"Bergstr.","postalCode":"54610","locality":"Büdesheim","municipality":{"key":"07232209","name":"Büdesheim","type":"Kreisangehörige_Gemeinde"},"district":{"key":"07232","name":"Eifelkreis Bitburg-Prüm","type":"Landkreis"},"federalState":{"key":"07","name":"Rheinland-Pfalz"}},{"name":"Birnweg","postalCode":"55234","locality":"Erbes-Büdesheim","municipality":{"key":"07331021","name":"Erbes-Büdesheim","type":"Kreisangehörige_Gemeinde"},"district":{"key":"07331","name":"Alzey-Worms","type":"Landkreis"},"federalState":{"key":"07","name":"Rheinland-Pfalz"}},{"name":"Brunnenstr.","postalCode":"54610","locality":"Büdesheim","municipality":{"key":"07232209","name":"Büdesheim","type":"Kreisangehörige_Gemeinde"},"district":{"key":"07232","name":"Eifelkreis Bitburg-Prüm","type":"Landkreis"},"federalState":{"key":"07","name":"Rheinland-Pfalz"}},{"name":"Burgring","postalCode":"54610","locality":"Büdesheim","municipality":{"key":"07232209","name":"Büdesheim","type":"Kreisangehörige_Gemeinde"},"district":{"key":"07232","name":"Eifelkreis Bitburg-Prüm","type":"Landkreis"},"federalState":{"key":"07","name":"Rheinland-Pfalz"}},{"name":"Eichensuhr","postalCode":"54610","locality":"Büdesheim","municipality":{"key":"07232209","name":"Büdesheim","type":"Kreisangehörige_Gemeinde"},"district":{"key":"07232","name":"Eifelkreis Bitburg-Prüm","type":"Landkreis"},"federalState":{"key":"07","name":"Rheinland-Pfalz"}},{"name":"Eicherwaldstr.","postalCode":"55234","locality":"Erbes-Büdesheim","municipality":{"key":"07331021","name":"Erbes-Büdesheim","type":"Kreisangehörige_Gemeinde"},"district":{"key":"07331","name":"Alzey-Worms","type":"Landkreis"},"federalState":{"key":"07","name":"Rheinland-Pfalz"}},{"name":"Ernst-Neunecker-Weg","postalCode":"55234","locality":"Erbes-Büdesheim","municipality":{"key":"07331021","name":"Erbes-Büdesheim","type":"Kreisangehörige_Gemeinde"},"district":{"key":"07331","name":"Alzey-Worms","type":"Landkreis"},"federalState":{"key":"07","name":"Rheinland-Pfalz"}},{"name":"Franz-Seitner-Str.","postalCode":"55234","locality":"Erbes-Büdesheim","municipality":{"key":"07331021","name":"Erbes-Büdesheim","type":"Kreisangehörige_Gemeinde"},"district":{"key":"07331","name":"Alzey-Worms","type":"Landkreis"},"federalState":{"key":"07","name":"Rheinland-Pfalz"}},{"name":"Gartenstr.","postalCode":"55234","locality":"Erbes-Büdesheim","municipality":{"key":"07331021","name":"Erbes-Büdesheim","type":"Kreisangehörige_Gemeinde"},"district":{"key":"07331","name":"Alzey-Worms","type":"Landkreis"},"federalState":{"key":"07","name":"Rheinland-Pfalz"}},{"name":"Goldbornstr.","postalCode":"54610","locality":"Büdesheim","municipality":{"key":"07232209","name":"Büdesheim","type":"Kreisangehörige_Gemeinde"},"district":{"key":"07232","name":"Eifelkreis Bitburg-Prüm","type":"Landkreis"},"federalState":{"key":"07","name":"Rheinland-Pfalz"}},{"name":"Grabengasse","postalCode":"55234","locality":"Erbes-Büdesheim","municipality":{"key":"07331021","name":"Erbes-Büdesheim","type":"Kreisangehörige_Gemeinde"},"district":{"key":"07331","name":"Alzey-Worms","type":"Landkreis"},"federalState":{"key":"07","name":"Rheinland-Pfalz"}},{"name":"Hauptstr.","postalCode":"54610","locality":"Büdesheim","municipality":{"key":"07232209","name":"Büdesheim","type":"Kreisangehörige_Gemeinde"},"district":{"key":"07232","name":"Eifelkreis Bitburg-Prüm","type":"Landkreis"},"federalState":{"key":"07","name":"Rheinland-Pfalz"}},{"name":"Hauptstr.","postalCode":"55234","locality":"Erbes-Büdesheim","municipality":{"key":"07331021","name":"Erbes-Büdesheim","type":"Kreisangehörige_Gemeinde"},"district":{"key":"07331","name":"Alzey-Worms","type":"Landkreis"},"federalState":{"key":"07","name":"Rheinland-Pfalz"}},{"name":"Heimersheimer Weg","postalCode":"55234","locality":"Erbes-Büdesheim","municipality":{"key":"07331021","name":"Erbes-Büdesheim","type":"Kreisangehörige_Gemeinde"},"district":{"key":"07331","name":"Alzey-Worms","type":"Landkreis"},"federalState":{"key":"07","name":"Rheinland-Pfalz"}},{"name":"Hildegardisweg","postalCode":"55234","locality":"Erbes-Büdesheim","municipality":{"key":"07331021","name":"Erbes-Büdesheim","type":"Kreisangehörige_Gemeinde"},"district":{"key":"07331","name":"Alzey-Worms","type":"Landkreis"},"federalState":{"key":"07","name":"Rheinland-Pfalz"}},{"name":"Hillesheimer Str.","postalCode":"54610","locality":"Büdesheim","municipality":{"key":"07232209","name":"Büdesheim","type":"Kreisangehörige_Gemeinde"},"district":{"key":"07232","name":"Eifelkreis Bitburg-Prüm","type":"Landkreis"},"federalState":{"key":"07","name":"Rheinland-Pfalz"}},{"name":"Hollerweg","postalCode":"55234","locality":"Erbes-Büdesheim","municipality":{"key":"07331021","name":"Erbes-Büdesheim","type":"Kreisangehörige_Gemeinde"},"district":{"key":"07331","name":"Alzey-Worms","type":"Landkreis"},"federalState":{"key":"07","name":"Rheinland-Pfalz"}},{"name":"Im Ehrenpesch","postalCode":"54610","locality":"Büdesheim","municipality":{"key":"07232209","name":"Büdesheim","type":"Kreisangehörige_Gemeinde"},"district":{"key":"07232","name":"Eifelkreis Bitburg-Prüm","type":"Landkreis"},"federalState":{"key":"07","name":"Rheinland-Pfalz"}},{"name":"Im Woog","postalCode":"55234","locality":"Erbes-Büdesheim","municipality":{"key":"07331021","name":"Erbes-Büdesheim","type":"Kreisangehörige_Gemeinde"},"district":{"key":"07331","name":"Alzey-Worms","type":"Landkreis"},"federalState":{"key":"07","name":"Rheinland-Pfalz"}},{"name":"In der Hesch","postalCode":"54610","locality":"Büdesheim","municipality":{"key":"07232209","name":"Büdesheim","type":"Kreisangehörige_Gemeinde"},"district":{"key":"07232","name":"Eifelkreis Bitburg-Prüm","type":"Landkreis"},"federalState":{"key":"07","name":"Rheinland-Pfalz"}},{"name":"In der Schlak","postalCode":"54610","locality":"Büdesheim","municipality":{"key":"07232209","name":"Büdesheim","type":"Kreisangehörige_Gemeinde"},"district":{"key":"07232","name":"Eifelkreis Bitburg-Prüm","type":"Landkreis"},"federalState":{"key":"07","name":"Rheinland-Pfalz"}},{"name":"Kirchweg","postalCode":"54610","locality":"Büdesheim","municipality":{"key":"07232209","name":"Büdesheim","type":"Kreisangehörige_Gemeinde"},"district":{"key":"07232","name":"Eifelkreis Bitburg-Prüm","type":"Landkreis"},"federalState":{"key":"07","name":"Rheinland-Pfalz"}},{"name":"Kirschgarten","postalCode":"55234","locality":"Erbes-Büdesheim","municipality":{"key":"07331021","name":"Erbes-Büdesheim","type":"Kreisangehörige_Gemeinde"},"district":{"key":"07331","name":"Alzey-Worms","type":"Landkreis"},"federalState":{"key":"07","name":"Rheinland-Pfalz"}},{"name":"Lindenweg","postalCode":"54610","locality":"Büdesheim","municipality":{"key":"07232209","name":"Büdesheim","type":"Kreisangehörige_Gemeinde"},"district":{"key":"07232","name":"Eifelkreis Bitburg-Prüm","type":"Landkreis"},"federalState":{"key":"07","name":"Rheinland-Pfalz"}},{"name":"Mehrgenerationenplatz","postalCode":"55234","locality":"Erbes-Büdesheim","municipality":{"key":"07331021","name":"Erbes-Büdesheim","type":"Kreisangehörige_Gemeinde"},"district":{"key":"07331","name":"Alzey-Worms","type":"Landkreis"},"federalState":{"key":"07","name":"Rheinland-Pfalz"}},{"name":"Moosbachstr.","postalCode":"55234","locality":"Erbes-Büdesheim","municipality":{"key":"07331021","name":"Erbes-Büdesheim","type":"Kreisangehörige_Gemeinde"},"district":{"key":"07331","name":"Alzey-Worms","type":"Landkreis"},"federalState":{"key":"07","name":"Rheinland-Pfalz"}},{"name":"Nacker Str.","postalCode":"55234","locality":"Erbes-Büdesheim","municipality":{"key":"07331021","name":"Erbes-Büdesheim","type":"Kreisangehörige_Gemeinde"},"district":{"key":"07331","name":"Alzey-Worms","type":"Landkreis"},"federalState":{"key":"07","name":"Rheinland-Pfalz"}},{"name":"Neugasse","postalCode":"55234","locality":"Erbes-Büdesheim","municipality":{"key":"07331021","name":"Erbes-Büdesheim","type":"Kreisangehörige_Gemeinde"},"district":{"key":"07331","name":"Alzey-Worms","type":"Landkreis"},"federalState":{"key":"07","name":"Rheinland-Pfalz"}},{"name":"Niedergasse","postalCode":"55234","locality":"Erbes-Büdesheim","municipality":{"key":"07331021","name":"Erbes-Büdesheim","type":"Kreisangehörige_Gemeinde"},"district":{"key":"07331","name":"Alzey-Worms","type":"Landkreis"},"federalState":{"key":"07","name":"Rheinland-Pfalz"}},{"name":"Obere Kirchgasse","postalCode":"55234","locality":"Erbes-Büdesheim","municipality":{"key":"07331021","name":"Erbes-Büdesheim","type":"Kreisangehörige_Gemeinde"},"district":{"key":"07331","name":"Alzey-Worms","type":"Landkreis"},"federalState":{"key":"07","name":"Rheinland-Pfalz"}},{"name":"Obere Torstr.","postalCode":"55234","locality":"Erbes-Büdesheim","municipality":{"key":"07331021","name":"Erbes-Büdesheim","type":"Kreisangehörige_Gemeinde"},"district":{"key":"07331","name":"Alzey-Worms","type":"Landkreis"},"federalState":{"key":"07","name":"Rheinland-Pfalz"}},{"name":"Offenheimer Str.","postalCode":"55234","locality":"Erbes-Büdesheim","municipality":{"key":"07331021","name":"Erbes-Büdesheim","type":"Kreisangehörige_Gemeinde"},"district":{"key":"07331","name":"Alzey-Worms","type":"Landkreis"},"federalState":{"key":"07","name":"Rheinland-Pfalz"}},{"name":"Pankratiushofstr.","postalCode":"55234","locality":"Erbes-Büdesheim","municipality":{"key":"07331021","name":"Erbes-Büdesheim","type":"Kreisangehörige_Gemeinde"},"district":{"key":"07331","name":"Alzey-Worms","type":"Landkreis"},"federalState":{"key":"07","name":"Rheinland-Pfalz"}},{"name":"Pilgerstr.","postalCode":"54610","locality":"Büdesheim","municipality":{"key":"07232209","name":"Büdesheim","type":"Kreisangehörige_Gemeinde"},"district":{"key":"07232","name":"Eifelkreis Bitburg-Prüm","type":"Landkreis"},"federalState":{"key":"07","name":"Rheinland-Pfalz"}},{"name":"Professor-Rüdinger-Str.","postalCode":"55234","locality":"Erbes-Büdesheim","municipality":{"key":"07331021","name":"Erbes-Büdesheim","type":"Kreisangehörige_Gemeinde"},"district":{"key":"07331","name":"Alzey-Worms","type":"Landkreis"},"federalState":{"key":"07","name":"Rheinland-Pfalz"}},{"name":"Prümer Berg","postalCode":"54610","locality":"Büdesheim","municipality":{"key":"07232209","name":"Büdesheim","type":"Kreisangehörige_Gemeinde"},"district":{"key":"07232","name":"Eifelkreis Bitburg-Prüm","type":"Landkreis"},"federalState":{"key":"07","name":"Rheinland-Pfalz"}},{"name":"Riederweg","postalCode":"55234","locality":"Erbes-Büdesheim","municipality":{"key":"07331021","name":"Erbes-Büdesheim","type":"Kreisangehörige_Gemeinde"},"district":{"key":"07331","name":"Alzey-Worms","type":"Landkreis"},"federalState":{"key":"07","name":"Rheinland-Pfalz"}},{"name":"Riedstr.","postalCode":"55234","locality":"Erbes-Büdesheim","municipality":{"key":"07331021","name":"Erbes-Büdesheim","type":"Kreisangehörige_Gemeinde"},"district":{"key":"07331","name":"Alzey-Worms","type":"Landkreis"},"federalState":{"key":"07","name":"Rheinland-Pfalz"}},{"name":"Sackgasse","postalCode":"55234","locality":"Erbes-Büdesheim","municipality":{"key":"07331021","name":"Erbes-Büdesheim","type":"Kreisangehörige_Gemeinde"},"district":{"key":"07331","name":"Alzey-Worms","type":"Landkreis"},"federalState":{"key":"07","name":"Rheinland-Pfalz"}},{"name":"Schulstr.","postalCode":"54610","locality":"Büdesheim","municipality":{"key":"07232209","name":"Büdesheim","type":"Kreisangehörige_Gemeinde"},"district":{"key":"07232","name":"Eifelkreis Bitburg-Prüm","type":"Landkreis"},"federalState":{"key":"07","name":"Rheinland-Pfalz"}},{"name":"Schulstr.","postalCode":"55234","locality":"Erbes-Büdesheim","municipality":{"key":"07331021","name":"Erbes-Büdesheim","type":"Kreisangehörige_Gemeinde"},"district":{"key":"07331","name":"Alzey-Worms","type":"Landkreis"},"federalState":{"key":"07","name":"Rheinland-Pfalz"}},{"name":"Schusterweg","postalCode":"54610","locality":"Büdesheim","municipality":{"key":"07232209","name":"Büdesheim","type":"Kreisangehörige_Gemeinde"},"district":{"key":"07232","name":"Eifelkreis Bitburg-Prüm","type":"Landkreis"},"federalState":{"key":"07","name":"Rheinland-Pfalz"}},{"name":"Sonnenweg","postalCode":"54610","locality":"Büdesheim","municipality":{"key":"07232209","name":"Büdesheim","type":"Kreisangehörige_Gemeinde"},"district":{"key":"07232","name":"Eifelkreis Bitburg-Prüm","type":"Landkreis"},"federalState":{"key":"07","name":"Rheinland-Pfalz"}},{"name":"Spitzenberg","postalCode":"55234","locality":"Erbes-Büdesheim","municipality":{"key":"07331021","name":"Erbes-Büdesheim","type":"Kreisangehörige_Gemeinde"},"district":{"key":"07331","name":"Alzey-Worms","type":"Landkreis"},"federalState":{"key":"07","name":"Rheinland-Pfalz"}},{"name":"Tannenweg","postalCode":"54610","locality":"Büdesheim","municipality":{"key":"07232209","name":"Büdesheim","type":"Kreisangehörige_Gemeinde"},"district":{"key":"07232","name":"Eifelkreis Bitburg-Prüm","type":"Landkreis"},"federalState":{"key":"07","name":"Rheinland-Pfalz"}},{"name":"Untere Kirchgasse","postalCode":"55234","locality":"Erbes-Büdesheim","municipality":{"key":"07331021","name":"Erbes-Büdesheim","type":"Kreisangehörige_Gemeinde"},"district":{"key":"07331","name":"Alzey-Worms","type":"Landkreis"},"federalState":{"key":"07","name":"Rheinland-Pfalz"}},{"name":"Wallersheimer Str.","postalCode":"54610","locality":"Büdesheim","municipality":{"key":"07232209","name":"Büdesheim","type":"Kreisangehörige_Gemeinde"},"district":{"key":"07232","name":"Eifelkreis Bitburg-Prüm","type":"Landkreis"},"federalState":{"key":"07","name":"Rheinland-Pfalz"}},{"name":"Weedgasse","postalCode":"55234","locality":"Erbes-Büdesheim","municipality":{"key":"07331021","name":"Erbes-Büdesheim","type":"Kreisangehörige_Gemeinde"},"district":{"key":"07331","name":"Alzey-Worms","type":"Landkreis"},"federalState":{"key":"07","name":"Rheinland-Pfalz"}},{"name":"Weinheimer Weg","postalCode":"55234","locality":"Erbes-Büdesheim","municipality":{"key":"07331021","name":"Erbes-Büdesheim","type":"Kreisangehörige_Gemeinde"},"district":{"key":"07331","name":"Alzey-Worms","type":"Landkreis"},"federalState":{"key":"07","name":"Rheinland-Pfalz"}},{"name":"Zu den Eschen","postalCode":"54610","locality":"Büdesheim","municipality":{"key":"07232209","name":"Büdesheim","type":"Kreisangehörige_Gemeinde"},"district":{"key":"07232","name":"Eifelkreis Bitburg-Prüm","type":"Landkreis"},"federalState":{"key":"07","name":"Rheinland-Pfalz"}},]