[{"key":"10082604","name":"Alpenthermestrasse","postalCode":"3954","locality":"Leukerbad","commune":{"key":"6111","name":"Leukerbad","shortName":"Leukerbad"},"district":{"key":"2306","name":"Bezirk Leuk"},"canton":{"key":"23","code":"VS","name":"Valais / Wallis"},"status":"Real"},{"key":"10046303","name":"Dorfallmeiweg","postalCode":"3954","locality":"Leukerbad","commune":{"key":"6111","name":"Leukerbad","shortName":"Leukerbad"},"district":{"key":"2306","name":"Bezirk Leuk"},"canton":{"key":"23","code":"VS","name":"Valais / Wallis"},"status":"Real"},{"key":"10058355","name":"Dorfplatz","postalCode":"3954","locality":"Leukerbad","commune":{"key":"6111","name":"Leukerbad","shortName":"Leukerbad"},"district":{"key":"2306","name":"Bezirk Leuk"},"canton":{"key":"23","code":"VS","name":"Valais / Wallis"},"status":"Real"},{"key":"10082605","name":"Dorfstrasse","postalCode":"3954","locality":"Leukerbad","commune":{"key":"6111","name":"Leukerbad","shortName":"Leukerbad"},"district":{"key":"2306","name":"Bezirk Leuk"},"canton":{"key":"23","code":"VS","name":"Valais / Wallis"},"status":"Real"},{"key":"10185392","name":"Gassenstutz","postalCode":"3954","locality":"Leukerbad","commune":{"key":"6111","name":"Leukerbad","shortName":"Leukerbad"},"district":{"key":"2306","name":"Bezirk Leuk"},"canton":{"key":"23","code":"VS","name":"Valais / Wallis"},"status":"Real"},{"key":"10082606","name":"Gemmistrasse","postalCode":"3954","locality":"Leukerbad","commune":{"key":"6111","name":"Leukerbad","shortName":"Leukerbad"},"district":{"key":"2306","name":"Bezirk Leuk"},"canton":{"key":"23","code":"VS","name":"Valais / Wallis"},"status":"Real"},{"key":"10046306","name":"Gribelierstrasse","postalCode":"3954","locality":"Leukerbad","commune":{"key":"6111","name":"Leukerbad","shortName":"Leukerbad"},"district":{"key":"2306","name":"Bezirk Leuk"},"canton":{"key":"23","code":"VS","name":"Valais / Wallis"},"status":"Real"},{"key":"10105706","name":"Heilbadweg","postalCode":"3954","locality":"Leukerbad","commune":{"key":"6111","name":"Leukerbad","shortName":"Leukerbad"},"district":{"key":"2306","name":"Bezirk Leuk"},"canton":{"key":"23","code":"VS","name":"Valais / Wallis"},"status":"Real"},{"key":"10046307","name":"Kantonsstrasse","postalCode":"3954","locality":"Leukerbad","commune":{"key":"6111","name":"Leukerbad","shortName":"Leukerbad"},"district":{"key":"2306","name":"Bezirk Leuk"},"canton":{"key":"23","code":"VS","name":"Valais / Wallis"},"status":"Real"},{"key":"10056465","name":"Kirchstrasse","postalCode":"3954","locality":"Leukerbad","commune":{"key":"6111","name":"Leukerbad","shortName":"Leukerbad"},"district":{"key":"2306","name":"Bezirk Leuk"},"canton":{"key":"23","code":"VS","name":"Valais / Wallis"},"status":"Real"},{"key":"10046308","name":"Klibenstrasse","postalCode":"3954","locality":"Leukerbad","commune":{"key":"6111","name":"Leukerbad","shortName":"Leukerbad"},"district":{"key":"2306","name":"Bezirk Leuk"},"canton":{"key":"23","code":"VS","name":"Valais / Wallis"},"status":"Real"},{"key":"10100848","name":"Kunibergstrasse","postalCode":"3954","locality":"Leukerbad","commune":{"key":"6111","name":"Leukerbad","shortName":"Leukerbad"},"district":{"key":"2306","name":"Bezirk Leuk"},"canton":{"key":"23","code":"VS","name":"Valais / Wallis"},"status":"Real"},{"key":"10046309","name":"Kurparkstrasse","postalCode":"3954","locality":"Leukerbad","commune":{"key":"6111","name":"Leukerbad","shortName":"Leukerbad"},"district":{"key":"2306","name":"Bezirk Leuk"},"canton":{"key":"23","code":"VS","name":"Valais / Wallis"},"status":"Real"},{"key":"10082608","name":"Lärchmattenstrasse","postalCode":"3954","locality":"Leukerbad","commune":{"key":"6111","name":"Leukerbad","shortName":"Leukerbad"},"district":{"key":"2306","name":"Bezirk Leuk"},"canton":{"key":"23","code":"VS","name":"Valais / Wallis"},"status":"Real"},{"key":"10082607","name":"Lichtenweg","postalCode":"3954","locality":"Leukerbad","commune":{"key":"6111","name":"Leukerbad","shortName":"Leukerbad"},"district":{"key":"2306","name":"Bezirk Leuk"},"canton":{"key":"23","code":"VS","name":"Valais / Wallis"},"status":"Real"},{"key":"10185393","name":"Lischelierstrasse","postalCode":"3954","locality":"Leukerbad","commune":{"key":"6111","name":"Leukerbad","shortName":"Leukerbad"},"district":{"key":"2306","name":"Bezirk Leuk"},"canton":{"key":"23","code":"VS","name":"Valais / Wallis"},"status":"Real"},{"key":"10046311","name":"Lomparaweg","postalCode":"3954","locality":"Leukerbad","commune":{"key":"6111","name":"Leukerbad","shortName":"Leukerbad"},"district":{"key":"2306","name":"Bezirk Leuk"},"canton":{"key":"23","code":"VS","name":"Valais / Wallis"},"status":"Real"},{"key":"10185394","name":"Noyerstrasse","postalCode":"3954","locality":"Leukerbad","commune":{"key":"6111","name":"Leukerbad","shortName":"Leukerbad"},"district":{"key":"2306","name":"Bezirk Leuk"},"canton":{"key":"23","code":"VS","name":"Valais / Wallis"},"status":"Real"},{"key":"10100849","name":"Pfeirenstutz","postalCode":"3954","locality":"Leukerbad","commune":{"key":"6111","name":"Leukerbad","shortName":"Leukerbad"},"district":{"key":"2306","name":"Bezirk Leuk"},"canton":{"key":"23","code":"VS","name":"Valais / Wallis"},"status":"Real"},{"key":"10046315","name":"Promenade","postalCode":"3954","locality":"Leukerbad","commune":{"key":"6111","name":"Leukerbad","shortName":"Leukerbad"},"district":{"key":"2306","name":"Bezirk Leuk"},"canton":{"key":"23","code":"VS","name":"Valais / Wallis"},"status":"Real"},{"key":"10100850","name":"Quellenweg","postalCode":"3954","locality":"Leukerbad","commune":{"key":"6111","name":"Leukerbad","shortName":"Leukerbad"},"district":{"key":"2306","name":"Bezirk Leuk"},"canton":{"key":"23","code":"VS","name":"Valais / Wallis"},"status":"Real"},{"key":"10046316","name":"Rathausstrasse","postalCode":"3954","locality":"Leukerbad","commune":{"key":"6111","name":"Leukerbad","shortName":"Leukerbad"},"district":{"key":"2306","name":"Bezirk Leuk"},"canton":{"key":"23","code":"VS","name":"Valais / Wallis"},"status":"Real"},{"key":"10046317","name":"Römerweg","postalCode":"3954","locality":"Leukerbad","commune":{"key":"6111","name":"Leukerbad","shortName":"Leukerbad"},"district":{"key":"2306","name":"Bezirk Leuk"},"canton":{"key":"23","code":"VS","name":"Valais / Wallis"},"status":"Real"},{"key":"10100851","name":"Schleifstrasse","postalCode":"3954","locality":"Leukerbad","commune":{"key":"6111","name":"Leukerbad","shortName":"Leukerbad"},"district":{"key":"2306","name":"Bezirk Leuk"},"canton":{"key":"23","code":"VS","name":"Valais / Wallis"},"status":"Real"},{"key":"10046318","name":"Sonnenstrasse","postalCode":"3954","locality":"Leukerbad","commune":{"key":"6111","name":"Leukerbad","shortName":"Leukerbad"},"district":{"key":"2306","name":"Bezirk Leuk"},"canton":{"key":"23","code":"VS","name":"Valais / Wallis"},"status":"Real"},{"key":"10124796","name":"Teretschenstrasse","postalCode":"3954","locality":"Leukerbad","commune":{"key":"6111","name":"Leukerbad","shortName":"Leukerbad"},"district":{"key":"2306","name":"Bezirk Leuk"},"canton":{"key":"23","code":"VS","name":"Valais / Wallis"},"status":"Real"},{"key":"10047365","name":"Tuftstrasse","postalCode":"3954","locality":"Leukerbad","commune":{"key":"6111","name":"Leukerbad","shortName":"Leukerbad"},"district":{"key":"2306","name":"Bezirk Leuk"},"canton":{"key":"23","code":"VS","name":"Valais / Wallis"},"status":"Real"},{"key":"10187627","name":"Turmstrasse","postalCode":"3954","locality":"Leukerbad","commune":{"key":"6111","name":"Leukerbad","shortName":"Leukerbad"},"district":{"key":"2306","name":"Bezirk Leuk"},"canton":{"key":"23","code":"VS","name":"Valais / Wallis"},"status":"Real"},{"key":"10100852","name":"Untere Maressenstrasse","postalCode":"3954","locality":"Leukerbad","commune":{"key":"6111","name":"Leukerbad","shortName":"Leukerbad"},"district":{"key":"2306","name":"Bezirk Leuk"},"canton":{"key":"23","code":"VS","name":"Valais / Wallis"},"status":"Real"},{"key":"10047366","name":"Wiletenweg","postalCode":"3954","locality":"Leukerbad","commune":{"key":"6111","name":"Leukerbad","shortName":"Leukerbad"},"district":{"key":"2306","name":"Bezirk Leuk"},"canton":{"key":"23","code":"VS","name":"Valais / Wallis"},"status":"Real"},{"key":"10111985","name":"Willy-Spühler-Strasse","postalCode":"3954","locality":"Leukerbad","commune":{"key":"6111","name":"Leukerbad","shortName":"Leukerbad"},"district":{"key":"2306","name":"Bezirk Leuk"},"canton":{"key":"23","code":"VS","name":"Valais / Wallis"},"status":"Real"},{"key":"10047367","name":"Zur Gasse","postalCode":"3954","locality":"Leukerbad","commune":{"key":"6111","name":"Leukerbad","shortName":"Leukerbad"},"district":{"key":"2306","name":"Bezirk Leuk"},"canton":{"key":"23","code":"VS","name":"Valais / Wallis"},"status":"Real"},]