[{"name":"Am Spielplatz","postalCode":"67808","locality":"Weitersweiler","municipality":{"key":"07333081","name":"Weitersweiler","type":"Kreisangehörige_Gemeinde"},"district":{"key":"07333","name":"Donnersbergkreis","type":"Landkreis"},"federalState":{"key":"07","name":"Rheinland-Pfalz"}},{"name":"An der Kirche","postalCode":"67808","locality":"Weitersweiler","municipality":{"key":"07333081","name":"Weitersweiler","type":"Kreisangehörige_Gemeinde"},"district":{"key":"07333","name":"Donnersbergkreis","type":"Landkreis"},"federalState":{"key":"07","name":"Rheinland-Pfalz"}},{"name":"Auf dem Hof","postalCode":"67808","locality":"Weitersweiler","municipality":{"key":"07333081","name":"Weitersweiler","type":"Kreisangehörige_Gemeinde"},"district":{"key":"07333","name":"Donnersbergkreis","type":"Landkreis"},"federalState":{"key":"07","name":"Rheinland-Pfalz"}},{"name":"Bergstr.","postalCode":"67808","locality":"Weitersweiler","municipality":{"key":"07333081","name":"Weitersweiler","type":"Kreisangehörige_Gemeinde"},"district":{"key":"07333","name":"Donnersbergkreis","type":"Landkreis"},"federalState":{"key":"07","name":"Rheinland-Pfalz"}},{"name":"Bolander Str.","postalCode":"67808","locality":"Weitersweiler","municipality":{"key":"07333081","name":"Weitersweiler","type":"Kreisangehörige_Gemeinde"},"district":{"key":"07333","name":"Donnersbergkreis","type":"Landkreis"},"federalState":{"key":"07","name":"Rheinland-Pfalz"}},{"name":"Hauptstr.","postalCode":"67808","locality":"Weitersweiler","municipality":{"key":"07333081","name":"Weitersweiler","type":"Kreisangehörige_Gemeinde"},"district":{"key":"07333","name":"Donnersbergkreis","type":"Landkreis"},"federalState":{"key":"07","name":"Rheinland-Pfalz"}},{"name":"Im Gäßchen","postalCode":"67808","locality":"Weitersweiler","municipality":{"key":"07333081","name":"Weitersweiler","type":"Kreisangehörige_Gemeinde"},"district":{"key":"07333","name":"Donnersbergkreis","type":"Landkreis"},"federalState":{"key":"07","name":"Rheinland-Pfalz"}},{"name":"Im Winkelstück","postalCode":"67808","locality":"Weitersweiler","municipality":{"key":"07333081","name":"Weitersweiler","type":"Kreisangehörige_Gemeinde"},"district":{"key":"07333","name":"Donnersbergkreis","type":"Landkreis"},"federalState":{"key":"07","name":"Rheinland-Pfalz"}},{"name":"Jakobsweiler Weg","postalCode":"67808","locality":"Weitersweiler","municipality":{"key":"07333081","name":"Weitersweiler","type":"Kreisangehörige_Gemeinde"},"district":{"key":"07333","name":"Donnersbergkreis","type":"Landkreis"},"federalState":{"key":"07","name":"Rheinland-Pfalz"}},{"name":"Kapellenweg","postalCode":"67808","locality":"Weitersweiler","municipality":{"key":"07333081","name":"Weitersweiler","type":"Kreisangehörige_Gemeinde"},"district":{"key":"07333","name":"Donnersbergkreis","type":"Landkreis"},"federalState":{"key":"07","name":"Rheinland-Pfalz"}},{"name":"Kirchberg","postalCode":"67808","locality":"Weitersweiler","municipality":{"key":"07333081","name":"Weitersweiler","type":"Kreisangehörige_Gemeinde"},"district":{"key":"07333","name":"Donnersbergkreis","type":"Landkreis"},"federalState":{"key":"07","name":"Rheinland-Pfalz"}},{"name":"Lindenstr.","postalCode":"67808","locality":"Weitersweiler","municipality":{"key":"07333081","name":"Weitersweiler","type":"Kreisangehörige_Gemeinde"},"district":{"key":"07333","name":"Donnersbergkreis","type":"Landkreis"},"federalState":{"key":"07","name":"Rheinland-Pfalz"}},{"name":"Marnheimer Weg","postalCode":"67808","locality":"Weitersweiler","municipality":{"key":"07333081","name":"Weitersweiler","type":"Kreisangehörige_Gemeinde"},"district":{"key":"07333","name":"Donnersbergkreis","type":"Landkreis"},"federalState":{"key":"07","name":"Rheinland-Pfalz"}},{"name":"Neunmorgen","postalCode":"67808","locality":"Weitersweiler","municipality":{"key":"07333081","name":"Weitersweiler","type":"Kreisangehörige_Gemeinde"},"district":{"key":"07333","name":"Donnersbergkreis","type":"Landkreis"},"federalState":{"key":"07","name":"Rheinland-Pfalz"}},{"name":"Sommerwiese","postalCode":"67808","locality":"Weitersweiler","municipality":{"key":"07333081","name":"Weitersweiler","type":"Kreisangehörige_Gemeinde"},"district":{"key":"07333","name":"Donnersbergkreis","type":"Landkreis"},"federalState":{"key":"07","name":"Rheinland-Pfalz"}},]