[{"name":"Am Biefel","postalCode":"31628","locality":"Landesbergen","municipality":{"key":"03256017","name":"Landesbergen","type":"Kreisangehörige_Gemeinde"},"district":{"key":"03256","name":"Nienburg (Weser)","type":"Landkreis"},"federalState":{"key":"03","name":"Niedersachsen"}},{"name":"Am Edelhof","postalCode":"31628","locality":"Landesbergen","municipality":{"key":"03256017","name":"Landesbergen","type":"Kreisangehörige_Gemeinde"},"district":{"key":"03256","name":"Nienburg (Weser)","type":"Landkreis"},"federalState":{"key":"03","name":"Niedersachsen"}},{"name":"Am Gemeindekamp","postalCode":"31628","locality":"Landesbergen","municipality":{"key":"03256017","name":"Landesbergen","type":"Kreisangehörige_Gemeinde"},"district":{"key":"03256","name":"Nienburg (Weser)","type":"Landkreis"},"federalState":{"key":"03","name":"Niedersachsen"}},{"name":"Am Kirchplatz","postalCode":"31628","locality":"Landesbergen","municipality":{"key":"03256017","name":"Landesbergen","type":"Kreisangehörige_Gemeinde"},"district":{"key":"03256","name":"Nienburg (Weser)","type":"Landkreis"},"federalState":{"key":"03","name":"Niedersachsen"}},{"name":"Am Kleinen Maschsee","postalCode":"31628","locality":"Landesbergen","municipality":{"key":"03256017","name":"Landesbergen","type":"Kreisangehörige_Gemeinde"},"district":{"key":"03256","name":"Nienburg (Weser)","type":"Landkreis"},"federalState":{"key":"03","name":"Niedersachsen"}},{"name":"Am Schlagbaum","postalCode":"31628","locality":"Landesbergen","municipality":{"key":"03256017","name":"Landesbergen","type":"Kreisangehörige_Gemeinde"},"district":{"key":"03256","name":"Nienburg (Weser)","type":"Landkreis"},"federalState":{"key":"03","name":"Niedersachsen"}},{"name":"Amselweg","postalCode":"31628","locality":"Landesbergen","municipality":{"key":"03256017","name":"Landesbergen","type":"Kreisangehörige_Gemeinde"},"district":{"key":"03256","name":"Nienburg (Weser)","type":"Landkreis"},"federalState":{"key":"03","name":"Niedersachsen"}},{"name":"An der Koppel","postalCode":"31628","locality":"Landesbergen","municipality":{"key":"03256017","name":"Landesbergen","type":"Kreisangehörige_Gemeinde"},"district":{"key":"03256","name":"Nienburg (Weser)","type":"Landkreis"},"federalState":{"key":"03","name":"Niedersachsen"}},{"name":"Bahnhofstr.","postalCode":"31628","locality":"Landesbergen","municipality":{"key":"03256017","name":"Landesbergen","type":"Kreisangehörige_Gemeinde"},"district":{"key":"03256","name":"Nienburg (Weser)","type":"Landkreis"},"federalState":{"key":"03","name":"Niedersachsen"}},{"name":"Barkhof Brokeloh","postalCode":"31628","locality":"Landesbergen","municipality":{"key":"03256017","name":"Landesbergen","type":"Kreisangehörige_Gemeinde"},"district":{"key":"03256","name":"Nienburg (Weser)","type":"Landkreis"},"federalState":{"key":"03","name":"Niedersachsen"}},{"name":"Baumeisterstr.","postalCode":"31628","locality":"Landesbergen","municipality":{"key":"03256017","name":"Landesbergen","type":"Kreisangehörige_Gemeinde"},"district":{"key":"03256","name":"Nienburg (Weser)","type":"Landkreis"},"federalState":{"key":"03","name":"Niedersachsen"}},{"name":"Birkenweg","postalCode":"31628","locality":"Landesbergen","municipality":{"key":"03256017","name":"Landesbergen","type":"Kreisangehörige_Gemeinde"},"district":{"key":"03256","name":"Nienburg (Weser)","type":"Landkreis"},"federalState":{"key":"03","name":"Niedersachsen"}},{"name":"Blumenweg","postalCode":"31628","locality":"Landesbergen","municipality":{"key":"03256017","name":"Landesbergen","type":"Kreisangehörige_Gemeinde"},"district":{"key":"03256","name":"Nienburg (Weser)","type":"Landkreis"},"federalState":{"key":"03","name":"Niedersachsen"}},{"name":"Bogenstr.","postalCode":"31628","locality":"Landesbergen","municipality":{"key":"03256017","name":"Landesbergen","type":"Kreisangehörige_Gemeinde"},"district":{"key":"03256","name":"Nienburg (Weser)","type":"Landkreis"},"federalState":{"key":"03","name":"Niedersachsen"}},{"name":"Bollwerder","postalCode":"31628","locality":"Landesbergen","municipality":{"key":"03256017","name":"Landesbergen","type":"Kreisangehörige_Gemeinde"},"district":{"key":"03256","name":"Nienburg (Weser)","type":"Landkreis"},"federalState":{"key":"03","name":"Niedersachsen"}},{"name":"Brokeloher Bergstr.","postalCode":"31628","locality":"Landesbergen","municipality":{"key":"03256017","name":"Landesbergen","type":"Kreisangehörige_Gemeinde"},"district":{"key":"03256","name":"Nienburg (Weser)","type":"Landkreis"},"federalState":{"key":"03","name":"Niedersachsen"}},{"name":"Brokeloher Brinkstr.","postalCode":"31628","locality":"Landesbergen","municipality":{"key":"03256017","name":"Landesbergen","type":"Kreisangehörige_Gemeinde"},"district":{"key":"03256","name":"Nienburg (Weser)","type":"Landkreis"},"federalState":{"key":"03","name":"Niedersachsen"}},{"name":"Brokeloher Dorfstr.","postalCode":"31628","locality":"Landesbergen","municipality":{"key":"03256017","name":"Landesbergen","type":"Kreisangehörige_Gemeinde"},"district":{"key":"03256","name":"Nienburg (Weser)","type":"Landkreis"},"federalState":{"key":"03","name":"Niedersachsen"}},{"name":"Brokeloher Hauptstr.","postalCode":"31628","locality":"Landesbergen","municipality":{"key":"03256017","name":"Landesbergen","type":"Kreisangehörige_Gemeinde"},"district":{"key":"03256","name":"Nienburg (Weser)","type":"Landkreis"},"federalState":{"key":"03","name":"Niedersachsen"}},{"name":"Brokeloher Heide","postalCode":"31628","locality":"Landesbergen","municipality":{"key":"03256017","name":"Landesbergen","type":"Kreisangehörige_Gemeinde"},"district":{"key":"03256","name":"Nienburg (Weser)","type":"Landkreis"},"federalState":{"key":"03","name":"Niedersachsen"}},{"name":"Brokeloher Hellberg","postalCode":"31628","locality":"Landesbergen","municipality":{"key":"03256017","name":"Landesbergen","type":"Kreisangehörige_Gemeinde"},"district":{"key":"03256","name":"Nienburg (Weser)","type":"Landkreis"},"federalState":{"key":"03","name":"Niedersachsen"}},{"name":"Brokeloher Kamp","postalCode":"31628","locality":"Landesbergen","municipality":{"key":"03256017","name":"Landesbergen","type":"Kreisangehörige_Gemeinde"},"district":{"key":"03256","name":"Nienburg (Weser)","type":"Landkreis"},"federalState":{"key":"03","name":"Niedersachsen"}},{"name":"Brokeloher Str.","postalCode":"31628","locality":"Landesbergen","municipality":{"key":"03256017","name":"Landesbergen","type":"Kreisangehörige_Gemeinde"},"district":{"key":"03256","name":"Nienburg (Weser)","type":"Landkreis"},"federalState":{"key":"03","name":"Niedersachsen"}},{"name":"Drosselweg","postalCode":"31628","locality":"Landesbergen","municipality":{"key":"03256017","name":"Landesbergen","type":"Kreisangehörige_Gemeinde"},"district":{"key":"03256","name":"Nienburg (Weser)","type":"Landkreis"},"federalState":{"key":"03","name":"Niedersachsen"}},{"name":"Fährstr.","postalCode":"31628","locality":"Landesbergen","municipality":{"key":"03256017","name":"Landesbergen","type":"Kreisangehörige_Gemeinde"},"district":{"key":"03256","name":"Nienburg (Weser)","type":"Landkreis"},"federalState":{"key":"03","name":"Niedersachsen"}},{"name":"Feldstr.","postalCode":"31628","locality":"Landesbergen","municipality":{"key":"03256017","name":"Landesbergen","type":"Kreisangehörige_Gemeinde"},"district":{"key":"03256","name":"Nienburg (Weser)","type":"Landkreis"},"federalState":{"key":"03","name":"Niedersachsen"}},{"name":"Fritz-Reuter-Weg","postalCode":"31628","locality":"Landesbergen","municipality":{"key":"03256017","name":"Landesbergen","type":"Kreisangehörige_Gemeinde"},"district":{"key":"03256","name":"Nienburg (Weser)","type":"Landkreis"},"federalState":{"key":"03","name":"Niedersachsen"}},{"name":"Gartenstr.","postalCode":"31628","locality":"Landesbergen","municipality":{"key":"03256017","name":"Landesbergen","type":"Kreisangehörige_Gemeinde"},"district":{"key":"03256","name":"Nienburg (Weser)","type":"Landkreis"},"federalState":{"key":"03","name":"Niedersachsen"}},{"name":"Ginsterweg","postalCode":"31628","locality":"Landesbergen","municipality":{"key":"03256017","name":"Landesbergen","type":"Kreisangehörige_Gemeinde"},"district":{"key":"03256","name":"Nienburg (Weser)","type":"Landkreis"},"federalState":{"key":"03","name":"Niedersachsen"}},{"name":"Hävern","postalCode":"31628","locality":"Landesbergen","municipality":{"key":"03256017","name":"Landesbergen","type":"Kreisangehörige_Gemeinde"},"district":{"key":"03256","name":"Nienburg (Weser)","type":"Landkreis"},"federalState":{"key":"03","name":"Niedersachsen"}},{"name":"Heideweg","postalCode":"31628","locality":"Landesbergen","municipality":{"key":"03256017","name":"Landesbergen","type":"Kreisangehörige_Gemeinde"},"district":{"key":"03256","name":"Nienburg (Weser)","type":"Landkreis"},"federalState":{"key":"03","name":"Niedersachsen"}},{"name":"Heidhausen","postalCode":"31628","locality":"Landesbergen","municipality":{"key":"03256017","name":"Landesbergen","type":"Kreisangehörige_Gemeinde"},"district":{"key":"03256","name":"Nienburg (Weser)","type":"Landkreis"},"federalState":{"key":"03","name":"Niedersachsen"}},{"name":"Heidhäuser Str.","postalCode":"31628","locality":"Landesbergen","municipality":{"key":"03256017","name":"Landesbergen","type":"Kreisangehörige_Gemeinde"},"district":{"key":"03256","name":"Nienburg (Weser)","type":"Landkreis"},"federalState":{"key":"03","name":"Niedersachsen"}},{"name":"Hermann-Löns-Weg","postalCode":"31628","locality":"Landesbergen","municipality":{"key":"03256017","name":"Landesbergen","type":"Kreisangehörige_Gemeinde"},"district":{"key":"03256","name":"Nienburg (Weser)","type":"Landkreis"},"federalState":{"key":"03","name":"Niedersachsen"}},{"name":"Hinter den Höfen","postalCode":"31628","locality":"Landesbergen","municipality":{"key":"03256017","name":"Landesbergen","type":"Kreisangehörige_Gemeinde"},"district":{"key":"03256","name":"Nienburg (Weser)","type":"Landkreis"},"federalState":{"key":"03","name":"Niedersachsen"}},{"name":"Holunderweg","postalCode":"31628","locality":"Landesbergen","municipality":{"key":"03256017","name":"Landesbergen","type":"Kreisangehörige_Gemeinde"},"district":{"key":"03256","name":"Nienburg (Weser)","type":"Landkreis"},"federalState":{"key":"03","name":"Niedersachsen"}},{"name":"Im Ohr","postalCode":"31628","locality":"Landesbergen","municipality":{"key":"03256017","name":"Landesbergen","type":"Kreisangehörige_Gemeinde"},"district":{"key":"03256","name":"Nienburg (Weser)","type":"Landkreis"},"federalState":{"key":"03","name":"Niedersachsen"}},{"name":"Im Winkel","postalCode":"31628","locality":"Landesbergen","municipality":{"key":"03256017","name":"Landesbergen","type":"Kreisangehörige_Gemeinde"},"district":{"key":"03256","name":"Nienburg (Weser)","type":"Landkreis"},"federalState":{"key":"03","name":"Niedersachsen"}},{"name":"In den Büschen","postalCode":"31628","locality":"Landesbergen","municipality":{"key":"03256017","name":"Landesbergen","type":"Kreisangehörige_Gemeinde"},"district":{"key":"03256","name":"Nienburg (Weser)","type":"Landkreis"},"federalState":{"key":"03","name":"Niedersachsen"}},{"name":"Kastanienweg","postalCode":"31628","locality":"Landesbergen","municipality":{"key":"03256017","name":"Landesbergen","type":"Kreisangehörige_Gemeinde"},"district":{"key":"03256","name":"Nienburg (Weser)","type":"Landkreis"},"federalState":{"key":"03","name":"Niedersachsen"}},{"name":"Kirchweg","postalCode":"31628","locality":"Landesbergen","municipality":{"key":"03256017","name":"Landesbergen","type":"Kreisangehörige_Gemeinde"},"district":{"key":"03256","name":"Nienburg (Weser)","type":"Landkreis"},"federalState":{"key":"03","name":"Niedersachsen"}},{"name":"Klaus-Groth-Weg","postalCode":"31628","locality":"Landesbergen","municipality":{"key":"03256017","name":"Landesbergen","type":"Kreisangehörige_Gemeinde"},"district":{"key":"03256","name":"Nienburg (Weser)","type":"Landkreis"},"federalState":{"key":"03","name":"Niedersachsen"}},{"name":"Kleine Marschstr.","postalCode":"31628","locality":"Landesbergen","municipality":{"key":"03256017","name":"Landesbergen","type":"Kreisangehörige_Gemeinde"},"district":{"key":"03256","name":"Nienburg (Weser)","type":"Landkreis"},"federalState":{"key":"03","name":"Niedersachsen"}},{"name":"Kleines Moor Brokeloh","postalCode":"31628","locality":"Landesbergen","municipality":{"key":"03256017","name":"Landesbergen","type":"Kreisangehörige_Gemeinde"},"district":{"key":"03256","name":"Nienburg (Weser)","type":"Landkreis"},"federalState":{"key":"03","name":"Niedersachsen"}},{"name":"Lange Str.","postalCode":"31628","locality":"Landesbergen","municipality":{"key":"03256017","name":"Landesbergen","type":"Kreisangehörige_Gemeinde"},"district":{"key":"03256","name":"Nienburg (Weser)","type":"Landkreis"},"federalState":{"key":"03","name":"Niedersachsen"}},{"name":"Lerchenweg","postalCode":"31628","locality":"Landesbergen","municipality":{"key":"03256017","name":"Landesbergen","type":"Kreisangehörige_Gemeinde"},"district":{"key":"03256","name":"Nienburg (Weser)","type":"Landkreis"},"federalState":{"key":"03","name":"Niedersachsen"}},{"name":"Lindenweg","postalCode":"31628","locality":"Landesbergen","municipality":{"key":"03256017","name":"Landesbergen","type":"Kreisangehörige_Gemeinde"},"district":{"key":"03256","name":"Nienburg (Weser)","type":"Landkreis"},"federalState":{"key":"03","name":"Niedersachsen"}},{"name":"Ludwig-Jahn-Str.","postalCode":"31628","locality":"Landesbergen","municipality":{"key":"03256017","name":"Landesbergen","type":"Kreisangehörige_Gemeinde"},"district":{"key":"03256","name":"Nienburg (Weser)","type":"Landkreis"},"federalState":{"key":"03","name":"Niedersachsen"}},{"name":"Meisenweg","postalCode":"31628","locality":"Landesbergen","municipality":{"key":"03256017","name":"Landesbergen","type":"Kreisangehörige_Gemeinde"},"district":{"key":"03256","name":"Nienburg (Weser)","type":"Landkreis"},"federalState":{"key":"03","name":"Niedersachsen"}},{"name":"Nordstr.","postalCode":"31628","locality":"Landesbergen","municipality":{"key":"03256017","name":"Landesbergen","type":"Kreisangehörige_Gemeinde"},"district":{"key":"03256","name":"Nienburg (Weser)","type":"Landkreis"},"federalState":{"key":"03","name":"Niedersachsen"}},{"name":"Rittergut Brokeloh","postalCode":"31628","locality":"Landesbergen","municipality":{"key":"03256017","name":"Landesbergen","type":"Kreisangehörige_Gemeinde"},"district":{"key":"03256","name":"Nienburg (Weser)","type":"Landkreis"},"federalState":{"key":"03","name":"Niedersachsen"}},{"name":"Rudolf-Kinau-Str.","postalCode":"31628","locality":"Landesbergen","municipality":{"key":"03256017","name":"Landesbergen","type":"Kreisangehörige_Gemeinde"},"district":{"key":"03256","name":"Nienburg (Weser)","type":"Landkreis"},"federalState":{"key":"03","name":"Niedersachsen"}},{"name":"Sackstr.","postalCode":"31628","locality":"Landesbergen","municipality":{"key":"03256017","name":"Landesbergen","type":"Kreisangehörige_Gemeinde"},"district":{"key":"03256","name":"Nienburg (Weser)","type":"Landkreis"},"federalState":{"key":"03","name":"Niedersachsen"}},{"name":"Schäferrusch","postalCode":"31628","locality":"Landesbergen","municipality":{"key":"03256017","name":"Landesbergen","type":"Kreisangehörige_Gemeinde"},"district":{"key":"03256","name":"Nienburg (Weser)","type":"Landkreis"},"federalState":{"key":"03","name":"Niedersachsen"}},{"name":"Schneiderstr.","postalCode":"31628","locality":"Landesbergen","municipality":{"key":"03256017","name":"Landesbergen","type":"Kreisangehörige_Gemeinde"},"district":{"key":"03256","name":"Nienburg (Weser)","type":"Landkreis"},"federalState":{"key":"03","name":"Niedersachsen"}},{"name":"Schulweg","postalCode":"31628","locality":"Landesbergen","municipality":{"key":"03256017","name":"Landesbergen","type":"Kreisangehörige_Gemeinde"},"district":{"key":"03256","name":"Nienburg (Weser)","type":"Landkreis"},"federalState":{"key":"03","name":"Niedersachsen"}},{"name":"Süllhof","postalCode":"31628","locality":"Landesbergen","municipality":{"key":"03256017","name":"Landesbergen","type":"Kreisangehörige_Gemeinde"},"district":{"key":"03256","name":"Nienburg (Weser)","type":"Landkreis"},"federalState":{"key":"03","name":"Niedersachsen"}},{"name":"Unter den Weiden","postalCode":"31628","locality":"Landesbergen","municipality":{"key":"03256017","name":"Landesbergen","type":"Kreisangehörige_Gemeinde"},"district":{"key":"03256","name":"Nienburg (Weser)","type":"Landkreis"},"federalState":{"key":"03","name":"Niedersachsen"}},{"name":"Vagesweg","postalCode":"31628","locality":"Landesbergen","municipality":{"key":"03256017","name":"Landesbergen","type":"Kreisangehörige_Gemeinde"},"district":{"key":"03256","name":"Nienburg (Weser)","type":"Landkreis"},"federalState":{"key":"03","name":"Niedersachsen"}},{"name":"Vor dem Bruche","postalCode":"31628","locality":"Landesbergen","municipality":{"key":"03256017","name":"Landesbergen","type":"Kreisangehörige_Gemeinde"},"district":{"key":"03256","name":"Nienburg (Weser)","type":"Landkreis"},"federalState":{"key":"03","name":"Niedersachsen"}},{"name":"Wacholderweg","postalCode":"31628","locality":"Landesbergen","municipality":{"key":"03256017","name":"Landesbergen","type":"Kreisangehörige_Gemeinde"},"district":{"key":"03256","name":"Nienburg (Weser)","type":"Landkreis"},"federalState":{"key":"03","name":"Niedersachsen"}},{"name":"Wilhelm-Busch-Str.","postalCode":"31628","locality":"Landesbergen","municipality":{"key":"03256017","name":"Landesbergen","type":"Kreisangehörige_Gemeinde"},"district":{"key":"03256","name":"Nienburg (Weser)","type":"Landkreis"},"federalState":{"key":"03","name":"Niedersachsen"}},]