[{"name":"Albertshofener Str.","postalCode":"97320","locality":"Großlangheim","municipality":{"key":"09675131","name":"Großlangheim, M","type":"Markt"},"district":{"key":"09675","name":"Kitzingen","type":"Landkreis"},"federalState":{"key":"09","name":"Bayern"}},{"name":"Am Kalkofen","postalCode":"97320","locality":"Großlangheim","municipality":{"key":"09675131","name":"Großlangheim, M","type":"Markt"},"district":{"key":"09675","name":"Kitzingen","type":"Landkreis"},"federalState":{"key":"09","name":"Bayern"}},{"name":"Am Viehtrieb","postalCode":"97320","locality":"Großlangheim","municipality":{"key":"09675131","name":"Großlangheim, M","type":"Markt"},"district":{"key":"09675","name":"Kitzingen","type":"Landkreis"},"federalState":{"key":"09","name":"Bayern"}},{"name":"Bahnhofstr.","postalCode":"97320","locality":"Großlangheim","municipality":{"key":"09675131","name":"Großlangheim, M","type":"Markt"},"district":{"key":"09675","name":"Kitzingen","type":"Landkreis"},"federalState":{"key":"09","name":"Bayern"}},{"name":"conneKT","postalCode":"97318","locality":"Kitzingen","municipality":{"key":"09675141","name":"Kitzingen, GKSt","type":"Große_Kreisstadt"},"district":{"key":"09675","name":"Kitzingen","type":"Landkreis"},"federalState":{"key":"09","name":"Bayern"}},{"name":"Dagmar-Voßkühler-Str.","postalCode":"97318","locality":"Kitzingen","municipality":{"key":"09675141","name":"Kitzingen, GKSt","type":"Große_Kreisstadt"},"district":{"key":"09675","name":"Kitzingen","type":"Landkreis"},"federalState":{"key":"09","name":"Bayern"}},{"name":"Dietwarstr.","postalCode":"97318","locality":"Kitzingen","municipality":{"key":"09675141","name":"Kitzingen, GKSt","type":"Große_Kreisstadt"},"district":{"key":"09675","name":"Kitzingen","type":"Landkreis"},"federalState":{"key":"09","name":"Bayern"}},{"name":"Distelweg","postalCode":"97318","locality":"Kitzingen","municipality":{"key":"09675141","name":"Kitzingen, GKSt","type":"Große_Kreisstadt"},"district":{"key":"09675","name":"Kitzingen","type":"Landkreis"},"federalState":{"key":"09","name":"Bayern"}},{"name":"Drosselweg","postalCode":"97318","locality":"Kitzingen","municipality":{"key":"09675141","name":"Kitzingen, GKSt","type":"Große_Kreisstadt"},"district":{"key":"09675","name":"Kitzingen","type":"Landkreis"},"federalState":{"key":"09","name":"Bayern"}},{"name":"Egerländer Str.","postalCode":"97318","locality":"Kitzingen","municipality":{"key":"09675141","name":"Kitzingen, GKSt","type":"Große_Kreisstadt"},"district":{"key":"09675","name":"Kitzingen","type":"Landkreis"},"federalState":{"key":"09","name":"Bayern"}},{"name":"Engelbert-Bach-Str.","postalCode":"97318","locality":"Kitzingen","municipality":{"key":"09675141","name":"Kitzingen, GKSt","type":"Große_Kreisstadt"},"district":{"key":"09675","name":"Kitzingen","type":"Landkreis"},"federalState":{"key":"09","name":"Bayern"}},{"name":"Ernst-Reuter-Str.","postalCode":"97318","locality":"Kitzingen","municipality":{"key":"09675141","name":"Kitzingen, GKSt","type":"Große_Kreisstadt"},"district":{"key":"09675","name":"Kitzingen","type":"Landkreis"},"federalState":{"key":"09","name":"Bayern"}},{"name":"Eselsberg","postalCode":"97318","locality":"Kitzingen","municipality":{"key":"09675141","name":"Kitzingen, GKSt","type":"Große_Kreisstadt"},"district":{"key":"09675","name":"Kitzingen","type":"Landkreis"},"federalState":{"key":"09","name":"Bayern"}},{"name":"Felsengasse","postalCode":"97320","locality":"Großlangheim","municipality":{"key":"09675131","name":"Großlangheim, M","type":"Markt"},"district":{"key":"09675","name":"Kitzingen","type":"Landkreis"},"federalState":{"key":"09","name":"Bayern"}},{"name":"Gartenweg","postalCode":"97320","locality":"Großlangheim","municipality":{"key":"09675131","name":"Großlangheim, M","type":"Markt"},"district":{"key":"09675","name":"Kitzingen","type":"Landkreis"},"federalState":{"key":"09","name":"Bayern"}},{"name":"Haidter Weg","postalCode":"97320","locality":"Großlangheim","municipality":{"key":"09675131","name":"Großlangheim, M","type":"Markt"},"district":{"key":"09675","name":"Kitzingen","type":"Landkreis"},"federalState":{"key":"09","name":"Bayern"}},{"name":"Hauptstr.","postalCode":"97320","locality":"Großlangheim","municipality":{"key":"09675131","name":"Großlangheim, M","type":"Markt"},"district":{"key":"09675","name":"Kitzingen","type":"Landkreis"},"federalState":{"key":"09","name":"Bayern"}},{"name":"Im Eigen","postalCode":"97318","locality":"Kitzingen","municipality":{"key":"09675141","name":"Kitzingen, GKSt","type":"Große_Kreisstadt"},"district":{"key":"09675","name":"Kitzingen","type":"Landkreis"},"federalState":{"key":"09","name":"Bayern"}},{"name":"Im Gartenland","postalCode":"97318","locality":"Kitzingen","municipality":{"key":"09675141","name":"Kitzingen, GKSt","type":"Große_Kreisstadt"},"district":{"key":"09675","name":"Kitzingen","type":"Landkreis"},"federalState":{"key":"09","name":"Bayern"}},{"name":"Im Hasenlauf","postalCode":"97318","locality":"Kitzingen","municipality":{"key":"09675141","name":"Kitzingen, GKSt","type":"Große_Kreisstadt"},"district":{"key":"09675","name":"Kitzingen","type":"Landkreis"},"federalState":{"key":"09","name":"Bayern"}},{"name":"Innere Sulzfelder Str.","postalCode":"97318","locality":"Kitzingen","municipality":{"key":"09675141","name":"Kitzingen, GKSt","type":"Große_Kreisstadt"},"district":{"key":"09675","name":"Kitzingen","type":"Landkreis"},"federalState":{"key":"09","name":"Bayern"}},{"name":"Jahnstr.","postalCode":"97318","locality":"Kitzingen","municipality":{"key":"09675141","name":"Kitzingen, GKSt","type":"Große_Kreisstadt"},"district":{"key":"09675","name":"Kitzingen","type":"Landkreis"},"federalState":{"key":"09","name":"Bayern"}},{"name":"Johann-Adam-Kleinschroth-Str.","postalCode":"97318","locality":"Kitzingen","municipality":{"key":"09675141","name":"Kitzingen, GKSt","type":"Große_Kreisstadt"},"district":{"key":"09675","name":"Kitzingen","type":"Landkreis"},"federalState":{"key":"09","name":"Bayern"}},{"name":"Kirchgasse","postalCode":"97320","locality":"Großlangheim","municipality":{"key":"09675131","name":"Großlangheim, M","type":"Markt"},"district":{"key":"09675","name":"Kitzingen","type":"Landkreis"},"federalState":{"key":"09","name":"Bayern"}},{"name":"Kitzinger Str.","postalCode":"97320","locality":"Großlangheim","municipality":{"key":"09675131","name":"Großlangheim, M","type":"Markt"},"district":{"key":"09675","name":"Kitzingen","type":"Landkreis"},"federalState":{"key":"09","name":"Bayern"}},{"name":"Kläranlage","postalCode":"97320","locality":"Großlangheim","municipality":{"key":"09675131","name":"Großlangheim, M","type":"Markt"},"district":{"key":"09675","name":"Kitzingen","type":"Landkreis"},"federalState":{"key":"09","name":"Bayern"}},{"name":"Kranzerhöhe","postalCode":"97320","locality":"Großlangheim","municipality":{"key":"09675131","name":"Großlangheim, M","type":"Markt"},"district":{"key":"09675","name":"Kitzingen","type":"Landkreis"},"federalState":{"key":"09","name":"Bayern"}},{"name":"Kranzerweg","postalCode":"97320","locality":"Großlangheim","municipality":{"key":"09675131","name":"Großlangheim, M","type":"Markt"},"district":{"key":"09675","name":"Kitzingen","type":"Landkreis"},"federalState":{"key":"09","name":"Bayern"}},{"name":"Landwehrstr.","postalCode":"97320","locality":"Großlangheim","municipality":{"key":"09675131","name":"Großlangheim, M","type":"Markt"},"district":{"key":"09675","name":"Kitzingen","type":"Landkreis"},"federalState":{"key":"09","name":"Bayern"}},{"name":"Marktplatz","postalCode":"97320","locality":"Großlangheim","municipality":{"key":"09675131","name":"Großlangheim, M","type":"Markt"},"district":{"key":"09675","name":"Kitzingen","type":"Landkreis"},"federalState":{"key":"09","name":"Bayern"}},{"name":"Neubaustr.","postalCode":"97320","locality":"Großlangheim","municipality":{"key":"09675131","name":"Großlangheim, M","type":"Markt"},"district":{"key":"09675","name":"Kitzingen","type":"Landkreis"},"federalState":{"key":"09","name":"Bayern"}},{"name":"Obere Bachgasse","postalCode":"97318","locality":"Kitzingen","municipality":{"key":"09675141","name":"Kitzingen, GKSt","type":"Große_Kreisstadt"},"district":{"key":"09675","name":"Kitzingen","type":"Landkreis"},"federalState":{"key":"09","name":"Bayern"}},{"name":"Obere Neue Gasse","postalCode":"97318","locality":"Kitzingen","municipality":{"key":"09675141","name":"Kitzingen, GKSt","type":"Große_Kreisstadt"},"district":{"key":"09675","name":"Kitzingen","type":"Landkreis"},"federalState":{"key":"09","name":"Bayern"}},{"name":"Oberer Fuchsgraben","postalCode":"97318","locality":"Kitzingen","municipality":{"key":"09675141","name":"Kitzingen, GKSt","type":"Große_Kreisstadt"},"district":{"key":"09675","name":"Kitzingen","type":"Landkreis"},"federalState":{"key":"09","name":"Bayern"}},{"name":"Oberer Mainkai","postalCode":"97318","locality":"Kitzingen","municipality":{"key":"09675141","name":"Kitzingen, GKSt","type":"Große_Kreisstadt"},"district":{"key":"09675","name":"Kitzingen","type":"Landkreis"},"federalState":{"key":"09","name":"Bayern"}},{"name":"Olga-Pöhlmann-Str.","postalCode":"97318","locality":"Kitzingen","municipality":{"key":"09675141","name":"Kitzingen, GKSt","type":"Große_Kreisstadt"},"district":{"key":"09675","name":"Kitzingen","type":"Landkreis"},"federalState":{"key":"09","name":"Bayern"}},{"name":"Professor-Mader-Str.","postalCode":"97320","locality":"Großlangheim","municipality":{"key":"09675131","name":"Großlangheim, M","type":"Markt"},"district":{"key":"09675","name":"Kitzingen","type":"Landkreis"},"federalState":{"key":"09","name":"Bayern"}},{"name":"Rödelseer Str.","postalCode":"97320","locality":"Großlangheim","municipality":{"key":"09675131","name":"Großlangheim, M","type":"Markt"},"district":{"key":"09675","name":"Kitzingen","type":"Landkreis"},"federalState":{"key":"09","name":"Bayern"}},{"name":"Rosengasse","postalCode":"97320","locality":"Großlangheim","municipality":{"key":"09675131","name":"Großlangheim, M","type":"Markt"},"district":{"key":"09675","name":"Kitzingen","type":"Landkreis"},"federalState":{"key":"09","name":"Bayern"}},{"name":"Rossgasse","postalCode":"97320","locality":"Großlangheim","municipality":{"key":"09675131","name":"Großlangheim, M","type":"Markt"},"district":{"key":"09675","name":"Kitzingen","type":"Landkreis"},"federalState":{"key":"09","name":"Bayern"}},{"name":"Sängergasse","postalCode":"97320","locality":"Großlangheim","municipality":{"key":"09675131","name":"Großlangheim, M","type":"Markt"},"district":{"key":"09675","name":"Kitzingen","type":"Landkreis"},"federalState":{"key":"09","name":"Bayern"}},{"name":"Schiessmauerweg","postalCode":"97320","locality":"Großlangheim","municipality":{"key":"09675131","name":"Großlangheim, M","type":"Markt"},"district":{"key":"09675","name":"Kitzingen","type":"Landkreis"},"federalState":{"key":"09","name":"Bayern"}},{"name":"Schlosshof","postalCode":"97320","locality":"Großlangheim","municipality":{"key":"09675131","name":"Großlangheim, M","type":"Markt"},"district":{"key":"09675","name":"Kitzingen","type":"Landkreis"},"federalState":{"key":"09","name":"Bayern"}},{"name":"Schwarzacher Str.","postalCode":"97320","locality":"Großlangheim","municipality":{"key":"09675131","name":"Großlangheim, M","type":"Markt"},"district":{"key":"09675","name":"Kitzingen","type":"Landkreis"},"federalState":{"key":"09","name":"Bayern"}},{"name":"Talstr.","postalCode":"97318","locality":"Kitzingen","municipality":{"key":"09675141","name":"Kitzingen, GKSt","type":"Große_Kreisstadt"},"district":{"key":"09675","name":"Kitzingen","type":"Landkreis"},"federalState":{"key":"09","name":"Bayern"}},{"name":"Tannenbergstr.","postalCode":"97318","locality":"Kitzingen","municipality":{"key":"09675141","name":"Kitzingen, GKSt","type":"Große_Kreisstadt"},"district":{"key":"09675","name":"Kitzingen","type":"Landkreis"},"federalState":{"key":"09","name":"Bayern"}},{"name":"Tännigstr.","postalCode":"97318","locality":"Kitzingen","municipality":{"key":"09675141","name":"Kitzingen, GKSt","type":"Große_Kreisstadt"},"district":{"key":"09675","name":"Kitzingen","type":"Landkreis"},"federalState":{"key":"09","name":"Bayern"}},{"name":"Texasweg","postalCode":"97318","locality":"Kitzingen","municipality":{"key":"09675141","name":"Kitzingen, GKSt","type":"Große_Kreisstadt"},"district":{"key":"09675","name":"Kitzingen","type":"Landkreis"},"federalState":{"key":"09","name":"Bayern"}},{"name":"Thomas-Ehemann-Str.","postalCode":"97318","locality":"Kitzingen","municipality":{"key":"09675141","name":"Kitzingen, GKSt","type":"Große_Kreisstadt"},"district":{"key":"09675","name":"Kitzingen","type":"Landkreis"},"federalState":{"key":"09","name":"Bayern"}},{"name":"Thüringer Str.","postalCode":"97318","locality":"Kitzingen","municipality":{"key":"09675141","name":"Kitzingen, GKSt","type":"Große_Kreisstadt"},"district":{"key":"09675","name":"Kitzingen","type":"Landkreis"},"federalState":{"key":"09","name":"Bayern"}},{"name":"Tilsiter Str.","postalCode":"97318","locality":"Kitzingen","municipality":{"key":"09675141","name":"Kitzingen, GKSt","type":"Große_Kreisstadt"},"district":{"key":"09675","name":"Kitzingen","type":"Landkreis"},"federalState":{"key":"09","name":"Bayern"}},{"name":"Uhlandstr.","postalCode":"97318","locality":"Kitzingen","municipality":{"key":"09675141","name":"Kitzingen, GKSt","type":"Große_Kreisstadt"},"district":{"key":"09675","name":"Kitzingen","type":"Landkreis"},"federalState":{"key":"09","name":"Bayern"}},{"name":"Umgehungsstr.","postalCode":"97318","locality":"Kitzingen","municipality":{"key":"09675141","name":"Kitzingen, GKSt","type":"Große_Kreisstadt"},"district":{"key":"09675","name":"Kitzingen","type":"Landkreis"},"federalState":{"key":"09","name":"Bayern"}},{"name":"Untere Bachgasse","postalCode":"97318","locality":"Kitzingen","municipality":{"key":"09675141","name":"Kitzingen, GKSt","type":"Große_Kreisstadt"},"district":{"key":"09675","name":"Kitzingen","type":"Landkreis"},"federalState":{"key":"09","name":"Bayern"}},{"name":"Untere Neue Gasse","postalCode":"97318","locality":"Kitzingen","municipality":{"key":"09675141","name":"Kitzingen, GKSt","type":"Große_Kreisstadt"},"district":{"key":"09675","name":"Kitzingen","type":"Landkreis"},"federalState":{"key":"09","name":"Bayern"}},{"name":"Unterer Fuchsgraben","postalCode":"97318","locality":"Kitzingen","municipality":{"key":"09675141","name":"Kitzingen, GKSt","type":"Große_Kreisstadt"},"district":{"key":"09675","name":"Kitzingen","type":"Landkreis"},"federalState":{"key":"09","name":"Bayern"}},{"name":"Unterer Mainkai","postalCode":"97318","locality":"Kitzingen","municipality":{"key":"09675141","name":"Kitzingen, GKSt","type":"Große_Kreisstadt"},"district":{"key":"09675","name":"Kitzingen","type":"Landkreis"},"federalState":{"key":"09","name":"Bayern"}},{"name":"Völkersgasse","postalCode":"97318","locality":"Kitzingen","municipality":{"key":"09675141","name":"Kitzingen, GKSt","type":"Große_Kreisstadt"},"district":{"key":"09675","name":"Kitzingen","type":"Landkreis"},"federalState":{"key":"09","name":"Bayern"}},{"name":"Von-Deuster-Str.","postalCode":"97318","locality":"Kitzingen","municipality":{"key":"09675141","name":"Kitzingen, GKSt","type":"Große_Kreisstadt"},"district":{"key":"09675","name":"Kitzingen","type":"Landkreis"},"federalState":{"key":"09","name":"Bayern"}},{"name":"Waldstr.","postalCode":"97318","locality":"Kitzingen","municipality":{"key":"09675141","name":"Kitzingen, GKSt","type":"Große_Kreisstadt"},"district":{"key":"09675","name":"Kitzingen","type":"Landkreis"},"federalState":{"key":"09","name":"Bayern"}},{"name":"Westheimer Str.","postalCode":"97318","locality":"Kitzingen","municipality":{"key":"09675141","name":"Kitzingen, GKSt","type":"Große_Kreisstadt"},"district":{"key":"09675","name":"Kitzingen","type":"Landkreis"},"federalState":{"key":"09","name":"Bayern"}},{"name":"Westtangente","postalCode":"97318","locality":"Kitzingen","municipality":{"key":"09675141","name":"Kitzingen, GKSt","type":"Große_Kreisstadt"},"district":{"key":"09675","name":"Kitzingen","type":"Landkreis"},"federalState":{"key":"09","name":"Bayern"}},{"name":"Wiesenweg","postalCode":"97318","locality":"Kitzingen","municipality":{"key":"09675141","name":"Kitzingen, GKSt","type":"Große_Kreisstadt"},"district":{"key":"09675","name":"Kitzingen","type":"Landkreis"},"federalState":{"key":"09","name":"Bayern"}},{"name":"Wilhelmsbühl","postalCode":"97318","locality":"Kitzingen","municipality":{"key":"09675141","name":"Kitzingen, GKSt","type":"Große_Kreisstadt"},"district":{"key":"09675","name":"Kitzingen","type":"Landkreis"},"federalState":{"key":"09","name":"Bayern"}},{"name":"Winterleitenweg","postalCode":"97318","locality":"Kitzingen","municipality":{"key":"09675141","name":"Kitzingen, GKSt","type":"Große_Kreisstadt"},"district":{"key":"09675","name":"Kitzingen","type":"Landkreis"},"federalState":{"key":"09","name":"Bayern"}},{"name":"Wörthstr.","postalCode":"97318","locality":"Kitzingen","municipality":{"key":"09675141","name":"Kitzingen, GKSt","type":"Große_Kreisstadt"},"district":{"key":"09675","name":"Kitzingen","type":"Landkreis"},"federalState":{"key":"09","name":"Bayern"}},{"name":"Würzburger Str.","postalCode":"97318","locality":"Kitzingen","municipality":{"key":"09675141","name":"Kitzingen, GKSt","type":"Große_Kreisstadt"},"district":{"key":"09675","name":"Kitzingen","type":"Landkreis"},"federalState":{"key":"09","name":"Bayern"}},{"name":"Zehnthofgasse","postalCode":"97318","locality":"Kitzingen","municipality":{"key":"09675141","name":"Kitzingen, GKSt","type":"Große_Kreisstadt"},"district":{"key":"09675","name":"Kitzingen","type":"Landkreis"},"federalState":{"key":"09","name":"Bayern"}},{"name":"Zeppelinstr.","postalCode":"97318","locality":"Kitzingen","municipality":{"key":"09675141","name":"Kitzingen, GKSt","type":"Große_Kreisstadt"},"district":{"key":"09675","name":"Kitzingen","type":"Landkreis"},"federalState":{"key":"09","name":"Bayern"}},{"name":"Ziegelbergstr.","postalCode":"97318","locality":"Kitzingen","municipality":{"key":"09675141","name":"Kitzingen, GKSt","type":"Große_Kreisstadt"},"district":{"key":"09675","name":"Kitzingen","type":"Landkreis"},"federalState":{"key":"09","name":"Bayern"}},{"name":"Zitterackerweg","postalCode":"97318","locality":"Kitzingen","municipality":{"key":"09675141","name":"Kitzingen, GKSt","type":"Große_Kreisstadt"},"district":{"key":"09675","name":"Kitzingen","type":"Landkreis"},"federalState":{"key":"09","name":"Bayern"}},{"name":"Zum Oberbäumle","postalCode":"97318","locality":"Kitzingen","municipality":{"key":"09675141","name":"Kitzingen, GKSt","type":"Große_Kreisstadt"},"district":{"key":"09675","name":"Kitzingen","type":"Landkreis"},"federalState":{"key":"09","name":"Bayern"}},{"name":"Äußere Sulzfelder Str.","postalCode":"97318","locality":"Kitzingen","municipality":{"key":"09675141","name":"Kitzingen, GKSt","type":"Große_Kreisstadt"},"district":{"key":"09675","name":"Kitzingen","type":"Landkreis"},"federalState":{"key":"09","name":"Bayern"}},{"name":"Ödersgasse","postalCode":"97318","locality":"Kitzingen","municipality":{"key":"09675141","name":"Kitzingen, GKSt","type":"Große_Kreisstadt"},"district":{"key":"09675","name":"Kitzingen","type":"Landkreis"},"federalState":{"key":"09","name":"Bayern"}},]