[{"name":"Allerfeld","postalCode":"31702","locality":"Lüdersfeld","municipality":{"key":"03257021","name":"Lüdersfeld","type":"Kreisangehörige_Gemeinde"},"district":{"key":"03257","name":"Schaumburg","type":"Landkreis"},"federalState":{"key":"03","name":"Niedersachsen"}},{"name":"Alter Kirchweg","postalCode":"31702","locality":"Lüdersfeld","municipality":{"key":"03257021","name":"Lüdersfeld","type":"Kreisangehörige_Gemeinde"},"district":{"key":"03257","name":"Schaumburg","type":"Landkreis"},"federalState":{"key":"03","name":"Niedersachsen"}},{"name":"Am Hülsebrink","postalCode":"31702","locality":"Lüdersfeld","municipality":{"key":"03257021","name":"Lüdersfeld","type":"Kreisangehörige_Gemeinde"},"district":{"key":"03257","name":"Schaumburg","type":"Landkreis"},"federalState":{"key":"03","name":"Niedersachsen"}},{"name":"Am Landweg","postalCode":"31702","locality":"Lüdersfeld","municipality":{"key":"03257021","name":"Lüdersfeld","type":"Kreisangehörige_Gemeinde"},"district":{"key":"03257","name":"Schaumburg","type":"Landkreis"},"federalState":{"key":"03","name":"Niedersachsen"}},{"name":"Am Sportplatz","postalCode":"31702","locality":"Lüdersfeld","municipality":{"key":"03257021","name":"Lüdersfeld","type":"Kreisangehörige_Gemeinde"},"district":{"key":"03257","name":"Schaumburg","type":"Landkreis"},"federalState":{"key":"03","name":"Niedersachsen"}},{"name":"An der Kapelle","postalCode":"31702","locality":"Lüdersfeld","municipality":{"key":"03257021","name":"Lüdersfeld","type":"Kreisangehörige_Gemeinde"},"district":{"key":"03257","name":"Schaumburg","type":"Landkreis"},"federalState":{"key":"03","name":"Niedersachsen"}},{"name":"An der Mühle","postalCode":"31702","locality":"Lüdersfeld","municipality":{"key":"03257021","name":"Lüdersfeld","type":"Kreisangehörige_Gemeinde"},"district":{"key":"03257","name":"Schaumburg","type":"Landkreis"},"federalState":{"key":"03","name":"Niedersachsen"}},{"name":"Im freien Land","postalCode":"31702","locality":"Lüdersfeld","municipality":{"key":"03257021","name":"Lüdersfeld","type":"Kreisangehörige_Gemeinde"},"district":{"key":"03257","name":"Schaumburg","type":"Landkreis"},"federalState":{"key":"03","name":"Niedersachsen"}},{"name":"Meierhof","postalCode":"31702","locality":"Lüdersfeld","municipality":{"key":"03257021","name":"Lüdersfeld","type":"Kreisangehörige_Gemeinde"},"district":{"key":"03257","name":"Schaumburg","type":"Landkreis"},"federalState":{"key":"03","name":"Niedersachsen"}},{"name":"Mittelstr.","postalCode":"31702","locality":"Lüdersfeld","municipality":{"key":"03257021","name":"Lüdersfeld","type":"Kreisangehörige_Gemeinde"},"district":{"key":"03257","name":"Schaumburg","type":"Landkreis"},"federalState":{"key":"03","name":"Niedersachsen"}},{"name":"Mühlenbruch","postalCode":"31702","locality":"Lüdersfeld","municipality":{"key":"03257021","name":"Lüdersfeld","type":"Kreisangehörige_Gemeinde"},"district":{"key":"03257","name":"Schaumburg","type":"Landkreis"},"federalState":{"key":"03","name":"Niedersachsen"}},{"name":"Niedernhagen","postalCode":"31702","locality":"Lüdersfeld","municipality":{"key":"03257021","name":"Lüdersfeld","type":"Kreisangehörige_Gemeinde"},"district":{"key":"03257","name":"Schaumburg","type":"Landkreis"},"federalState":{"key":"03","name":"Niedersachsen"}},{"name":"Niedernholz","postalCode":"31702","locality":"Lüdersfeld","municipality":{"key":"03257021","name":"Lüdersfeld","type":"Kreisangehörige_Gemeinde"},"district":{"key":"03257","name":"Schaumburg","type":"Landkreis"},"federalState":{"key":"03","name":"Niedersachsen"}},{"name":"Niederstr.","postalCode":"31702","locality":"Lüdersfeld","municipality":{"key":"03257021","name":"Lüdersfeld","type":"Kreisangehörige_Gemeinde"},"district":{"key":"03257","name":"Schaumburg","type":"Landkreis"},"federalState":{"key":"03","name":"Niedersachsen"}},{"name":"Obere Str.","postalCode":"31702","locality":"Lüdersfeld","municipality":{"key":"03257021","name":"Lüdersfeld","type":"Kreisangehörige_Gemeinde"},"district":{"key":"03257","name":"Schaumburg","type":"Landkreis"},"federalState":{"key":"03","name":"Niedersachsen"}},{"name":"Obernhagen","postalCode":"31702","locality":"Lüdersfeld","municipality":{"key":"03257021","name":"Lüdersfeld","type":"Kreisangehörige_Gemeinde"},"district":{"key":"03257","name":"Schaumburg","type":"Landkreis"},"federalState":{"key":"03","name":"Niedersachsen"}},{"name":"Querstr.","postalCode":"31702","locality":"Lüdersfeld","municipality":{"key":"03257021","name":"Lüdersfeld","type":"Kreisangehörige_Gemeinde"},"district":{"key":"03257","name":"Schaumburg","type":"Landkreis"},"federalState":{"key":"03","name":"Niedersachsen"}},{"name":"Riehanger","postalCode":"31702","locality":"Lüdersfeld","municipality":{"key":"03257021","name":"Lüdersfeld","type":"Kreisangehörige_Gemeinde"},"district":{"key":"03257","name":"Schaumburg","type":"Landkreis"},"federalState":{"key":"03","name":"Niedersachsen"}},{"name":"Riehweg","postalCode":"31702","locality":"Lüdersfeld","municipality":{"key":"03257021","name":"Lüdersfeld","type":"Kreisangehörige_Gemeinde"},"district":{"key":"03257","name":"Schaumburg","type":"Landkreis"},"federalState":{"key":"03","name":"Niedersachsen"}},{"name":"Schaulstraten","postalCode":"31702","locality":"Lüdersfeld","municipality":{"key":"03257021","name":"Lüdersfeld","type":"Kreisangehörige_Gemeinde"},"district":{"key":"03257","name":"Schaumburg","type":"Landkreis"},"federalState":{"key":"03","name":"Niedersachsen"}},{"name":"Untere Str.","postalCode":"31702","locality":"Lüdersfeld","municipality":{"key":"03257021","name":"Lüdersfeld","type":"Kreisangehörige_Gemeinde"},"district":{"key":"03257","name":"Schaumburg","type":"Landkreis"},"federalState":{"key":"03","name":"Niedersachsen"}},{"name":"Vornhagen","postalCode":"31702","locality":"Lüdersfeld","municipality":{"key":"03257021","name":"Lüdersfeld","type":"Kreisangehörige_Gemeinde"},"district":{"key":"03257","name":"Schaumburg","type":"Landkreis"},"federalState":{"key":"03","name":"Niedersachsen"}},{"name":"Vornhagen Siedlung","postalCode":"31702","locality":"Lüdersfeld","municipality":{"key":"03257021","name":"Lüdersfeld","type":"Kreisangehörige_Gemeinde"},"district":{"key":"03257","name":"Schaumburg","type":"Landkreis"},"federalState":{"key":"03","name":"Niedersachsen"}},]