[{"name":"Adam-Stegerwald-Str.","postalCode":"45739","locality":"Oer-Erkenschwick","municipality":{"key":"05562028","name":"Oer-Erkenschwick, Stadt","type":"Stadt"},"district":{"key":"05562","name":"Recklinghausen","type":"Kreis"},"federalState":{"key":"05","name":"Nordrhein-Westfalen"}},{"name":"Adolph-Kolping-Weg","postalCode":"45739","locality":"Oer-Erkenschwick","municipality":{"key":"05562028","name":"Oer-Erkenschwick, Stadt","type":"Stadt"},"district":{"key":"05562","name":"Recklinghausen","type":"Kreis"},"federalState":{"key":"05","name":"Nordrhein-Westfalen"}},{"name":"Agnesstr.","postalCode":"45739","locality":"Oer-Erkenschwick","municipality":{"key":"05562028","name":"Oer-Erkenschwick, Stadt","type":"Stadt"},"district":{"key":"05562","name":"Recklinghausen","type":"Kreis"},"federalState":{"key":"05","name":"Nordrhein-Westfalen"}},{"name":"Ahornstr.","postalCode":"45739","locality":"Oer-Erkenschwick","municipality":{"key":"05562028","name":"Oer-Erkenschwick, Stadt","type":"Stadt"},"district":{"key":"05562","name":"Recklinghausen","type":"Kreis"},"federalState":{"key":"05","name":"Nordrhein-Westfalen"}},{"name":"Ahsener Allee","postalCode":"45739","locality":"Oer-Erkenschwick","municipality":{"key":"05562028","name":"Oer-Erkenschwick, Stadt","type":"Stadt"},"district":{"key":"05562","name":"Recklinghausen","type":"Kreis"},"federalState":{"key":"05","name":"Nordrhein-Westfalen"}},{"name":"Ahsener Str.","postalCode":"45739","locality":"Oer-Erkenschwick","municipality":{"key":"05562028","name":"Oer-Erkenschwick, Stadt","type":"Stadt"},"district":{"key":"05562","name":"Recklinghausen","type":"Kreis"},"federalState":{"key":"05","name":"Nordrhein-Westfalen"}},{"name":"Albertstr.","postalCode":"45739","locality":"Oer-Erkenschwick","municipality":{"key":"05562028","name":"Oer-Erkenschwick, Stadt","type":"Stadt"},"district":{"key":"05562","name":"Recklinghausen","type":"Kreis"},"federalState":{"key":"05","name":"Nordrhein-Westfalen"}},{"name":"Albrechtstr.","postalCode":"45739","locality":"Oer-Erkenschwick","municipality":{"key":"05562028","name":"Oer-Erkenschwick, Stadt","type":"Stadt"},"district":{"key":"05562","name":"Recklinghausen","type":"Kreis"},"federalState":{"key":"05","name":"Nordrhein-Westfalen"}},{"name":"Am Eichenhof","postalCode":"45739","locality":"Oer-Erkenschwick","municipality":{"key":"05562028","name":"Oer-Erkenschwick, Stadt","type":"Stadt"},"district":{"key":"05562","name":"Recklinghausen","type":"Kreis"},"federalState":{"key":"05","name":"Nordrhein-Westfalen"}},{"name":"Am Förderturm","postalCode":"45739","locality":"Oer-Erkenschwick","municipality":{"key":"05562028","name":"Oer-Erkenschwick, Stadt","type":"Stadt"},"district":{"key":"05562","name":"Recklinghausen","type":"Kreis"},"federalState":{"key":"05","name":"Nordrhein-Westfalen"}},{"name":"Am Hain","postalCode":"45739","locality":"Oer-Erkenschwick","municipality":{"key":"05562028","name":"Oer-Erkenschwick, Stadt","type":"Stadt"},"district":{"key":"05562","name":"Recklinghausen","type":"Kreis"},"federalState":{"key":"05","name":"Nordrhein-Westfalen"}},{"name":"Am Hilgenbach","postalCode":"45739","locality":"Oer-Erkenschwick","municipality":{"key":"05562028","name":"Oer-Erkenschwick, Stadt","type":"Stadt"},"district":{"key":"05562","name":"Recklinghausen","type":"Kreis"},"federalState":{"key":"05","name":"Nordrhein-Westfalen"}},{"name":"Am Kippgarten","postalCode":"45739","locality":"Oer-Erkenschwick","municipality":{"key":"05562028","name":"Oer-Erkenschwick, Stadt","type":"Stadt"},"district":{"key":"05562","name":"Recklinghausen","type":"Kreis"},"federalState":{"key":"05","name":"Nordrhein-Westfalen"}},{"name":"Am Schillerpark","postalCode":"45739","locality":"Oer-Erkenschwick","municipality":{"key":"05562028","name":"Oer-Erkenschwick, Stadt","type":"Stadt"},"district":{"key":"05562","name":"Recklinghausen","type":"Kreis"},"federalState":{"key":"05","name":"Nordrhein-Westfalen"}},{"name":"Amselweg","postalCode":"45739","locality":"Oer-Erkenschwick","municipality":{"key":"05562028","name":"Oer-Erkenschwick, Stadt","type":"Stadt"},"district":{"key":"05562","name":"Recklinghausen","type":"Kreis"},"federalState":{"key":"05","name":"Nordrhein-Westfalen"}},{"name":"Am Stimbergpark","postalCode":"45739","locality":"Oer-Erkenschwick","municipality":{"key":"05562028","name":"Oer-Erkenschwick, Stadt","type":"Stadt"},"district":{"key":"05562","name":"Recklinghausen","type":"Kreis"},"federalState":{"key":"05","name":"Nordrhein-Westfalen"}},{"name":"Am Tellkamp","postalCode":"45739","locality":"Oer-Erkenschwick","municipality":{"key":"05562028","name":"Oer-Erkenschwick, Stadt","type":"Stadt"},"district":{"key":"05562","name":"Recklinghausen","type":"Kreis"},"federalState":{"key":"05","name":"Nordrhein-Westfalen"}},{"name":"Am Weidenbaum","postalCode":"45739","locality":"Oer-Erkenschwick","municipality":{"key":"05562028","name":"Oer-Erkenschwick, Stadt","type":"Stadt"},"district":{"key":"05562","name":"Recklinghausen","type":"Kreis"},"federalState":{"key":"05","name":"Nordrhein-Westfalen"}},{"name":"Am Ziegeleitor","postalCode":"45739","locality":"Oer-Erkenschwick","municipality":{"key":"05562028","name":"Oer-Erkenschwick, Stadt","type":"Stadt"},"district":{"key":"05562","name":"Recklinghausen","type":"Kreis"},"federalState":{"key":"05","name":"Nordrhein-Westfalen"}},{"name":"An der Aue","postalCode":"45739","locality":"Oer-Erkenschwick","municipality":{"key":"05562028","name":"Oer-Erkenschwick, Stadt","type":"Stadt"},"district":{"key":"05562","name":"Recklinghausen","type":"Kreis"},"federalState":{"key":"05","name":"Nordrhein-Westfalen"}},{"name":"An der Bredde","postalCode":"45739","locality":"Oer-Erkenschwick","municipality":{"key":"05562028","name":"Oer-Erkenschwick, Stadt","type":"Stadt"},"district":{"key":"05562","name":"Recklinghausen","type":"Kreis"},"federalState":{"key":"05","name":"Nordrhein-Westfalen"}},{"name":"An der Dillenburg","postalCode":"45739","locality":"Oer-Erkenschwick","municipality":{"key":"05562028","name":"Oer-Erkenschwick, Stadt","type":"Stadt"},"district":{"key":"05562","name":"Recklinghausen","type":"Kreis"},"federalState":{"key":"05","name":"Nordrhein-Westfalen"}},{"name":"An der Stimbergschule","postalCode":"45739","locality":"Oer-Erkenschwick","municipality":{"key":"05562028","name":"Oer-Erkenschwick, Stadt","type":"Stadt"},"district":{"key":"05562","name":"Recklinghausen","type":"Kreis"},"federalState":{"key":"05","name":"Nordrhein-Westfalen"}},{"name":"An der Zechenbahn","postalCode":"45739","locality":"Oer-Erkenschwick","municipality":{"key":"05562028","name":"Oer-Erkenschwick, Stadt","type":"Stadt"},"district":{"key":"05562","name":"Recklinghausen","type":"Kreis"},"federalState":{"key":"05","name":"Nordrhein-Westfalen"}},{"name":"Auf dem Kolven","postalCode":"45739","locality":"Oer-Erkenschwick","municipality":{"key":"05562028","name":"Oer-Erkenschwick, Stadt","type":"Stadt"},"district":{"key":"05562","name":"Recklinghausen","type":"Kreis"},"federalState":{"key":"05","name":"Nordrhein-Westfalen"}},{"name":"August-Schmidt-Str.","postalCode":"45739","locality":"Oer-Erkenschwick","municipality":{"key":"05562028","name":"Oer-Erkenschwick, Stadt","type":"Stadt"},"district":{"key":"05562","name":"Recklinghausen","type":"Kreis"},"federalState":{"key":"05","name":"Nordrhein-Westfalen"}},{"name":"Auguststr.","postalCode":"45739","locality":"Oer-Erkenschwick","municipality":{"key":"05562028","name":"Oer-Erkenschwick, Stadt","type":"Stadt"},"district":{"key":"05562","name":"Recklinghausen","type":"Kreis"},"federalState":{"key":"05","name":"Nordrhein-Westfalen"}},{"name":"Bachstr.","postalCode":"45739","locality":"Oer-Erkenschwick","municipality":{"key":"05562028","name":"Oer-Erkenschwick, Stadt","type":"Stadt"},"district":{"key":"05562","name":"Recklinghausen","type":"Kreis"},"federalState":{"key":"05","name":"Nordrhein-Westfalen"}},{"name":"Barbarastr.","postalCode":"45739","locality":"Oer-Erkenschwick","municipality":{"key":"05562028","name":"Oer-Erkenschwick, Stadt","type":"Stadt"},"district":{"key":"05562","name":"Recklinghausen","type":"Kreis"},"federalState":{"key":"05","name":"Nordrhein-Westfalen"}},{"name":"Beethovenstr.","postalCode":"45739","locality":"Oer-Erkenschwick","municipality":{"key":"05562028","name":"Oer-Erkenschwick, Stadt","type":"Stadt"},"district":{"key":"05562","name":"Recklinghausen","type":"Kreis"},"federalState":{"key":"05","name":"Nordrhein-Westfalen"}},{"name":"Bergstr.","postalCode":"45739","locality":"Oer-Erkenschwick","municipality":{"key":"05562028","name":"Oer-Erkenschwick, Stadt","type":"Stadt"},"district":{"key":"05562","name":"Recklinghausen","type":"Kreis"},"federalState":{"key":"05","name":"Nordrhein-Westfalen"}},{"name":"Berliner Platz","postalCode":"45739","locality":"Oer-Erkenschwick","municipality":{"key":"05562028","name":"Oer-Erkenschwick, Stadt","type":"Stadt"},"district":{"key":"05562","name":"Recklinghausen","type":"Kreis"},"federalState":{"key":"05","name":"Nordrhein-Westfalen"}},{"name":"Bernhardstr.","postalCode":"45739","locality":"Oer-Erkenschwick","municipality":{"key":"05562028","name":"Oer-Erkenschwick, Stadt","type":"Stadt"},"district":{"key":"05562","name":"Recklinghausen","type":"Kreis"},"federalState":{"key":"05","name":"Nordrhein-Westfalen"}},{"name":"Birkenweg","postalCode":"45739","locality":"Oer-Erkenschwick","municipality":{"key":"05562028","name":"Oer-Erkenschwick, Stadt","type":"Stadt"},"district":{"key":"05562","name":"Recklinghausen","type":"Kreis"},"federalState":{"key":"05","name":"Nordrhein-Westfalen"}},{"name":"Blumenstr.","postalCode":"45739","locality":"Oer-Erkenschwick","municipality":{"key":"05562028","name":"Oer-Erkenschwick, Stadt","type":"Stadt"},"district":{"key":"05562","name":"Recklinghausen","type":"Kreis"},"federalState":{"key":"05","name":"Nordrhein-Westfalen"}},{"name":"Börster Grenzweg","postalCode":"45739","locality":"Oer-Erkenschwick","municipality":{"key":"05562028","name":"Oer-Erkenschwick, Stadt","type":"Stadt"},"district":{"key":"05562","name":"Recklinghausen","type":"Kreis"},"federalState":{"key":"05","name":"Nordrhein-Westfalen"}},{"name":"Bossbrauck","postalCode":"45739","locality":"Oer-Erkenschwick","municipality":{"key":"05562028","name":"Oer-Erkenschwick, Stadt","type":"Stadt"},"district":{"key":"05562","name":"Recklinghausen","type":"Kreis"},"federalState":{"key":"05","name":"Nordrhein-Westfalen"}},{"name":"Brahmsstr.","postalCode":"45739","locality":"Oer-Erkenschwick","municipality":{"key":"05562028","name":"Oer-Erkenschwick, Stadt","type":"Stadt"},"district":{"key":"05562","name":"Recklinghausen","type":"Kreis"},"federalState":{"key":"05","name":"Nordrhein-Westfalen"}},{"name":"Brandenburger Str.","postalCode":"45739","locality":"Oer-Erkenschwick","municipality":{"key":"05562028","name":"Oer-Erkenschwick, Stadt","type":"Stadt"},"district":{"key":"05562","name":"Recklinghausen","type":"Kreis"},"federalState":{"key":"05","name":"Nordrhein-Westfalen"}},{"name":"Brandstr.","postalCode":"45739","locality":"Oer-Erkenschwick","municipality":{"key":"05562028","name":"Oer-Erkenschwick, Stadt","type":"Stadt"},"district":{"key":"05562","name":"Recklinghausen","type":"Kreis"},"federalState":{"key":"05","name":"Nordrhein-Westfalen"}},{"name":"Brauckweg","postalCode":"45739","locality":"Oer-Erkenschwick","municipality":{"key":"05562028","name":"Oer-Erkenschwick, Stadt","type":"Stadt"},"district":{"key":"05562","name":"Recklinghausen","type":"Kreis"},"federalState":{"key":"05","name":"Nordrhein-Westfalen"}},{"name":"Brechtstr.","postalCode":"45739","locality":"Oer-Erkenschwick","municipality":{"key":"05562028","name":"Oer-Erkenschwick, Stadt","type":"Stadt"},"district":{"key":"05562","name":"Recklinghausen","type":"Kreis"},"federalState":{"key":"05","name":"Nordrhein-Westfalen"}},{"name":"Breslauer Str.","postalCode":"45739","locality":"Oer-Erkenschwick","municipality":{"key":"05562028","name":"Oer-Erkenschwick, Stadt","type":"Stadt"},"district":{"key":"05562","name":"Recklinghausen","type":"Kreis"},"federalState":{"key":"05","name":"Nordrhein-Westfalen"}},{"name":"Brinkmannstr.","postalCode":"45739","locality":"Oer-Erkenschwick","municipality":{"key":"05562028","name":"Oer-Erkenschwick, Stadt","type":"Stadt"},"district":{"key":"05562","name":"Recklinghausen","type":"Kreis"},"federalState":{"key":"05","name":"Nordrhein-Westfalen"}},{"name":"Buchenstr.","postalCode":"45739","locality":"Oer-Erkenschwick","municipality":{"key":"05562028","name":"Oer-Erkenschwick, Stadt","type":"Stadt"},"district":{"key":"05562","name":"Recklinghausen","type":"Kreis"},"federalState":{"key":"05","name":"Nordrhein-Westfalen"}},{"name":"Buhrort","postalCode":"45739","locality":"Oer-Erkenschwick","municipality":{"key":"05562028","name":"Oer-Erkenschwick, Stadt","type":"Stadt"},"district":{"key":"05562","name":"Recklinghausen","type":"Kreis"},"federalState":{"key":"05","name":"Nordrhein-Westfalen"}},{"name":"Buschstr.","postalCode":"45739","locality":"Oer-Erkenschwick","municipality":{"key":"05562028","name":"Oer-Erkenschwick, Stadt","type":"Stadt"},"district":{"key":"05562","name":"Recklinghausen","type":"Kreis"},"federalState":{"key":"05","name":"Nordrhein-Westfalen"}},{"name":"Christoph-Stöver-Str.","postalCode":"45739","locality":"Oer-Erkenschwick","municipality":{"key":"05562028","name":"Oer-Erkenschwick, Stadt","type":"Stadt"},"district":{"key":"05562","name":"Recklinghausen","type":"Kreis"},"federalState":{"key":"05","name":"Nordrhein-Westfalen"}},{"name":"Clemensstr.","postalCode":"45739","locality":"Oer-Erkenschwick","municipality":{"key":"05562028","name":"Oer-Erkenschwick, Stadt","type":"Stadt"},"district":{"key":"05562","name":"Recklinghausen","type":"Kreis"},"federalState":{"key":"05","name":"Nordrhein-Westfalen"}},{"name":"Dahlbredde","postalCode":"45739","locality":"Oer-Erkenschwick","municipality":{"key":"05562028","name":"Oer-Erkenschwick, Stadt","type":"Stadt"},"district":{"key":"05562","name":"Recklinghausen","type":"Kreis"},"federalState":{"key":"05","name":"Nordrhein-Westfalen"}},{"name":"Dahlienweg","postalCode":"45739","locality":"Oer-Erkenschwick","municipality":{"key":"05562028","name":"Oer-Erkenschwick, Stadt","type":"Stadt"},"district":{"key":"05562","name":"Recklinghausen","type":"Kreis"},"federalState":{"key":"05","name":"Nordrhein-Westfalen"}},{"name":"Danziger Str.","postalCode":"45739","locality":"Oer-Erkenschwick","municipality":{"key":"05562028","name":"Oer-Erkenschwick, Stadt","type":"Stadt"},"district":{"key":"05562","name":"Recklinghausen","type":"Kreis"},"federalState":{"key":"05","name":"Nordrhein-Westfalen"}},{"name":"Denningsgraben","postalCode":"45739","locality":"Oer-Erkenschwick","municipality":{"key":"05562028","name":"Oer-Erkenschwick, Stadt","type":"Stadt"},"district":{"key":"05562","name":"Recklinghausen","type":"Kreis"},"federalState":{"key":"05","name":"Nordrhein-Westfalen"}},{"name":"Devensstr.","postalCode":"45739","locality":"Oer-Erkenschwick","municipality":{"key":"05562028","name":"Oer-Erkenschwick, Stadt","type":"Stadt"},"district":{"key":"05562","name":"Recklinghausen","type":"Kreis"},"federalState":{"key":"05","name":"Nordrhein-Westfalen"}},{"name":"Dirtpark in Planung","postalCode":"45739","locality":"Oer-Erkenschwick","municipality":{"key":"05562028","name":"Oer-Erkenschwick, Stadt","type":"Stadt"},"district":{"key":"05562","name":"Recklinghausen","type":"Kreis"},"federalState":{"key":"05","name":"Nordrhein-Westfalen"}},{"name":"Donaustr.","postalCode":"45739","locality":"Oer-Erkenschwick","municipality":{"key":"05562028","name":"Oer-Erkenschwick, Stadt","type":"Stadt"},"district":{"key":"05562","name":"Recklinghausen","type":"Kreis"},"federalState":{"key":"05","name":"Nordrhein-Westfalen"}},{"name":"Dreischenkamp","postalCode":"45739","locality":"Oer-Erkenschwick","municipality":{"key":"05562028","name":"Oer-Erkenschwick, Stadt","type":"Stadt"},"district":{"key":"05562","name":"Recklinghausen","type":"Kreis"},"federalState":{"key":"05","name":"Nordrhein-Westfalen"}},{"name":"Dresdener Str.","postalCode":"45739","locality":"Oer-Erkenschwick","municipality":{"key":"05562028","name":"Oer-Erkenschwick, Stadt","type":"Stadt"},"district":{"key":"05562","name":"Recklinghausen","type":"Kreis"},"federalState":{"key":"05","name":"Nordrhein-Westfalen"}},{"name":"Drosselweg","postalCode":"45739","locality":"Oer-Erkenschwick","municipality":{"key":"05562028","name":"Oer-Erkenschwick, Stadt","type":"Stadt"},"district":{"key":"05562","name":"Recklinghausen","type":"Kreis"},"federalState":{"key":"05","name":"Nordrhein-Westfalen"}},{"name":"Eichendorffstr.","postalCode":"45739","locality":"Oer-Erkenschwick","municipality":{"key":"05562028","name":"Oer-Erkenschwick, Stadt","type":"Stadt"},"district":{"key":"05562","name":"Recklinghausen","type":"Kreis"},"federalState":{"key":"05","name":"Nordrhein-Westfalen"}},{"name":"Elbestr.","postalCode":"45739","locality":"Oer-Erkenschwick","municipality":{"key":"05562028","name":"Oer-Erkenschwick, Stadt","type":"Stadt"},"district":{"key":"05562","name":"Recklinghausen","type":"Kreis"},"federalState":{"key":"05","name":"Nordrhein-Westfalen"}},{"name":"Elisabethstr.","postalCode":"45739","locality":"Oer-Erkenschwick","municipality":{"key":"05562028","name":"Oer-Erkenschwick, Stadt","type":"Stadt"},"district":{"key":"05562","name":"Recklinghausen","type":"Kreis"},"federalState":{"key":"05","name":"Nordrhein-Westfalen"}},{"name":"Elsa-Brandström-Str.","postalCode":"45739","locality":"Oer-Erkenschwick","municipality":{"key":"05562028","name":"Oer-Erkenschwick, Stadt","type":"Stadt"},"district":{"key":"05562","name":"Recklinghausen","type":"Kreis"},"federalState":{"key":"05","name":"Nordrhein-Westfalen"}},{"name":"Emscherstr.","postalCode":"45739","locality":"Oer-Erkenschwick","municipality":{"key":"05562028","name":"Oer-Erkenschwick, Stadt","type":"Stadt"},"district":{"key":"05562","name":"Recklinghausen","type":"Kreis"},"federalState":{"key":"05","name":"Nordrhein-Westfalen"}},{"name":"Engelbertstr.","postalCode":"45739","locality":"Oer-Erkenschwick","municipality":{"key":"05562028","name":"Oer-Erkenschwick, Stadt","type":"Stadt"},"district":{"key":"05562","name":"Recklinghausen","type":"Kreis"},"federalState":{"key":"05","name":"Nordrhein-Westfalen"}},{"name":"Engelskamp","postalCode":"45739","locality":"Oer-Erkenschwick","municipality":{"key":"05562028","name":"Oer-Erkenschwick, Stadt","type":"Stadt"},"district":{"key":"05562","name":"Recklinghausen","type":"Kreis"},"federalState":{"key":"05","name":"Nordrhein-Westfalen"}},{"name":"Erkenschwicker Weg","postalCode":"45739","locality":"Oer-Erkenschwick","municipality":{"key":"05562028","name":"Oer-Erkenschwick, Stadt","type":"Stadt"},"district":{"key":"05562","name":"Recklinghausen","type":"Kreis"},"federalState":{"key":"05","name":"Nordrhein-Westfalen"}},{"name":"Erlenweg","postalCode":"45739","locality":"Oer-Erkenschwick","municipality":{"key":"05562028","name":"Oer-Erkenschwick, Stadt","type":"Stadt"},"district":{"key":"05562","name":"Recklinghausen","type":"Kreis"},"federalState":{"key":"05","name":"Nordrhein-Westfalen"}},{"name":"Ernststr.","postalCode":"45739","locality":"Oer-Erkenschwick","municipality":{"key":"05562028","name":"Oer-Erkenschwick, Stadt","type":"Stadt"},"district":{"key":"05562","name":"Recklinghausen","type":"Kreis"},"federalState":{"key":"05","name":"Nordrhein-Westfalen"}},{"name":"Esseler Str.","postalCode":"45739","locality":"Oer-Erkenschwick","municipality":{"key":"05562028","name":"Oer-Erkenschwick, Stadt","type":"Stadt"},"district":{"key":"05562","name":"Recklinghausen","type":"Kreis"},"federalState":{"key":"05","name":"Nordrhein-Westfalen"}},{"name":"Ewaldstr.","postalCode":"45739","locality":"Oer-Erkenschwick","municipality":{"key":"05562028","name":"Oer-Erkenschwick, Stadt","type":"Stadt"},"district":{"key":"05562","name":"Recklinghausen","type":"Kreis"},"federalState":{"key":"05","name":"Nordrhein-Westfalen"}},{"name":"Feldstr.","postalCode":"45739","locality":"Oer-Erkenschwick","municipality":{"key":"05562028","name":"Oer-Erkenschwick, Stadt","type":"Stadt"},"district":{"key":"05562","name":"Recklinghausen","type":"Kreis"},"federalState":{"key":"05","name":"Nordrhein-Westfalen"}},{"name":"Fichtestr.","postalCode":"45739","locality":"Oer-Erkenschwick","municipality":{"key":"05562028","name":"Oer-Erkenschwick, Stadt","type":"Stadt"},"district":{"key":"05562","name":"Recklinghausen","type":"Kreis"},"federalState":{"key":"05","name":"Nordrhein-Westfalen"}},{"name":"Finkenweg","postalCode":"45739","locality":"Oer-Erkenschwick","municipality":{"key":"05562028","name":"Oer-Erkenschwick, Stadt","type":"Stadt"},"district":{"key":"05562","name":"Recklinghausen","type":"Kreis"},"federalState":{"key":"05","name":"Nordrhein-Westfalen"}},{"name":"Flaesheimer Meilerweg","postalCode":"45739","locality":"Oer-Erkenschwick","municipality":{"key":"05562028","name":"Oer-Erkenschwick, Stadt","type":"Stadt"},"district":{"key":"05562","name":"Recklinghausen","type":"Kreis"},"federalState":{"key":"05","name":"Nordrhein-Westfalen"}},{"name":"Flaesheimer Str.","postalCode":"45739","locality":"Oer-Erkenschwick","municipality":{"key":"05562028","name":"Oer-Erkenschwick, Stadt","type":"Stadt"},"district":{"key":"05562","name":"Recklinghausen","type":"Kreis"},"federalState":{"key":"05","name":"Nordrhein-Westfalen"}},{"name":"Flaesheimer Weg","postalCode":"45739","locality":"Oer-Erkenschwick","municipality":{"key":"05562028","name":"Oer-Erkenschwick, Stadt","type":"Stadt"},"district":{"key":"05562","name":"Recklinghausen","type":"Kreis"},"federalState":{"key":"05","name":"Nordrhein-Westfalen"}},{"name":"Fliederweg","postalCode":"45739","locality":"Oer-Erkenschwick","municipality":{"key":"05562028","name":"Oer-Erkenschwick, Stadt","type":"Stadt"},"district":{"key":"05562","name":"Recklinghausen","type":"Kreis"},"federalState":{"key":"05","name":"Nordrhein-Westfalen"}},{"name":"Föhrenweg","postalCode":"45739","locality":"Oer-Erkenschwick","municipality":{"key":"05562028","name":"Oer-Erkenschwick, Stadt","type":"Stadt"},"district":{"key":"05562","name":"Recklinghausen","type":"Kreis"},"federalState":{"key":"05","name":"Nordrhein-Westfalen"}},{"name":"Freiheitstr.","postalCode":"45739","locality":"Oer-Erkenschwick","municipality":{"key":"05562028","name":"Oer-Erkenschwick, Stadt","type":"Stadt"},"district":{"key":"05562","name":"Recklinghausen","type":"Kreis"},"federalState":{"key":"05","name":"Nordrhein-Westfalen"}},{"name":"Freiligrathstr.","postalCode":"45739","locality":"Oer-Erkenschwick","municipality":{"key":"05562028","name":"Oer-Erkenschwick, Stadt","type":"Stadt"},"district":{"key":"05562","name":"Recklinghausen","type":"Kreis"},"federalState":{"key":"05","name":"Nordrhein-Westfalen"}},{"name":"Friedhofstr.","postalCode":"45739","locality":"Oer-Erkenschwick","municipality":{"key":"05562028","name":"Oer-Erkenschwick, Stadt","type":"Stadt"},"district":{"key":"05562","name":"Recklinghausen","type":"Kreis"},"federalState":{"key":"05","name":"Nordrhein-Westfalen"}},{"name":"Friedrichstr.","postalCode":"45739","locality":"Oer-Erkenschwick","municipality":{"key":"05562028","name":"Oer-Erkenschwick, Stadt","type":"Stadt"},"district":{"key":"05562","name":"Recklinghausen","type":"Kreis"},"federalState":{"key":"05","name":"Nordrhein-Westfalen"}},{"name":"Fritz-Husemann-Str.","postalCode":"45739","locality":"Oer-Erkenschwick","municipality":{"key":"05562028","name":"Oer-Erkenschwick, Stadt","type":"Stadt"},"district":{"key":"05562","name":"Recklinghausen","type":"Kreis"},"federalState":{"key":"05","name":"Nordrhein-Westfalen"}},{"name":"Fritz-Reuter-Str.","postalCode":"45739","locality":"Oer-Erkenschwick","municipality":{"key":"05562028","name":"Oer-Erkenschwick, Stadt","type":"Stadt"},"district":{"key":"05562","name":"Recklinghausen","type":"Kreis"},"federalState":{"key":"05","name":"Nordrhein-Westfalen"}},{"name":"Fussweg Arbeit und Freude","postalCode":"45739","locality":"Oer-Erkenschwick","municipality":{"key":"05562028","name":"Oer-Erkenschwick, Stadt","type":"Stadt"},"district":{"key":"05562","name":"Recklinghausen","type":"Kreis"},"federalState":{"key":"05","name":"Nordrhein-Westfalen"}},{"name":"Gartenstr.","postalCode":"45739","locality":"Oer-Erkenschwick","municipality":{"key":"05562028","name":"Oer-Erkenschwick, Stadt","type":"Stadt"},"district":{"key":"05562","name":"Recklinghausen","type":"Kreis"},"federalState":{"key":"05","name":"Nordrhein-Westfalen"}},{"name":"Geranienweg","postalCode":"45739","locality":"Oer-Erkenschwick","municipality":{"key":"05562028","name":"Oer-Erkenschwick, Stadt","type":"Stadt"},"district":{"key":"05562","name":"Recklinghausen","type":"Kreis"},"federalState":{"key":"05","name":"Nordrhein-Westfalen"}},{"name":"Ginsterweg","postalCode":"45739","locality":"Oer-Erkenschwick","municipality":{"key":"05562028","name":"Oer-Erkenschwick, Stadt","type":"Stadt"},"district":{"key":"05562","name":"Recklinghausen","type":"Kreis"},"federalState":{"key":"05","name":"Nordrhein-Westfalen"}},{"name":"Glück-Auf-Str.","postalCode":"45739","locality":"Oer-Erkenschwick","municipality":{"key":"05562028","name":"Oer-Erkenschwick, Stadt","type":"Stadt"},"district":{"key":"05562","name":"Recklinghausen","type":"Kreis"},"federalState":{"key":"05","name":"Nordrhein-Westfalen"}},{"name":"Goethestr.","postalCode":"45739","locality":"Oer-Erkenschwick","municipality":{"key":"05562028","name":"Oer-Erkenschwick, Stadt","type":"Stadt"},"district":{"key":"05562","name":"Recklinghausen","type":"Kreis"},"federalState":{"key":"05","name":"Nordrhein-Westfalen"}},{"name":"Gregorstr.","postalCode":"45739","locality":"Oer-Erkenschwick","municipality":{"key":"05562028","name":"Oer-Erkenschwick, Stadt","type":"Stadt"},"district":{"key":"05562","name":"Recklinghausen","type":"Kreis"},"federalState":{"key":"05","name":"Nordrhein-Westfalen"}},{"name":"Grevelstr.","postalCode":"45739","locality":"Oer-Erkenschwick","municipality":{"key":"05562028","name":"Oer-Erkenschwick, Stadt","type":"Stadt"},"district":{"key":"05562","name":"Recklinghausen","type":"Kreis"},"federalState":{"key":"05","name":"Nordrhein-Westfalen"}},{"name":"Grimmweg","postalCode":"45739","locality":"Oer-Erkenschwick","municipality":{"key":"05562028","name":"Oer-Erkenschwick, Stadt","type":"Stadt"},"district":{"key":"05562","name":"Recklinghausen","type":"Kreis"},"federalState":{"key":"05","name":"Nordrhein-Westfalen"}},{"name":"Groß-Erkenschwicker-Str.","postalCode":"45739","locality":"Oer-Erkenschwick","municipality":{"key":"05562028","name":"Oer-Erkenschwick, Stadt","type":"Stadt"},"district":{"key":"05562","name":"Recklinghausen","type":"Kreis"},"federalState":{"key":"05","name":"Nordrhein-Westfalen"}},{"name":"Grüner Weg","postalCode":"45739","locality":"Oer-Erkenschwick","municipality":{"key":"05562028","name":"Oer-Erkenschwick, Stadt","type":"Stadt"},"district":{"key":"05562","name":"Recklinghausen","type":"Kreis"},"federalState":{"key":"05","name":"Nordrhein-Westfalen"}},{"name":"Haardgrenzweg","postalCode":"45739","locality":"Oer-Erkenschwick","municipality":{"key":"05562028","name":"Oer-Erkenschwick, Stadt","type":"Stadt"},"district":{"key":"05562","name":"Recklinghausen","type":"Kreis"},"federalState":{"key":"05","name":"Nordrhein-Westfalen"}},{"name":"Haardstr.","postalCode":"45739","locality":"Oer-Erkenschwick","municipality":{"key":"05562028","name":"Oer-Erkenschwick, Stadt","type":"Stadt"},"district":{"key":"05562","name":"Recklinghausen","type":"Kreis"},"federalState":{"key":"05","name":"Nordrhein-Westfalen"}},{"name":"Halde General Blumenthal 8","postalCode":"45739","locality":"Oer-Erkenschwick","municipality":{"key":"05562028","name":"Oer-Erkenschwick, Stadt","type":"Stadt"},"district":{"key":"05562","name":"Recklinghausen","type":"Kreis"},"federalState":{"key":"05","name":"Nordrhein-Westfalen"}},{"name":"Halluinstr.","postalCode":"45739","locality":"Oer-Erkenschwick","municipality":{"key":"05562028","name":"Oer-Erkenschwick, Stadt","type":"Stadt"},"district":{"key":"05562","name":"Recklinghausen","type":"Kreis"},"federalState":{"key":"05","name":"Nordrhein-Westfalen"}},{"name":"Halterner Weg","postalCode":"45739","locality":"Oer-Erkenschwick","municipality":{"key":"05562028","name":"Oer-Erkenschwick, Stadt","type":"Stadt"},"district":{"key":"05562","name":"Recklinghausen","type":"Kreis"},"federalState":{"key":"05","name":"Nordrhein-Westfalen"}},{"name":"Händelweg","postalCode":"45739","locality":"Oer-Erkenschwick","municipality":{"key":"05562028","name":"Oer-Erkenschwick, Stadt","type":"Stadt"},"district":{"key":"05562","name":"Recklinghausen","type":"Kreis"},"federalState":{"key":"05","name":"Nordrhein-Westfalen"}},{"name":"Hans-Böckler-Str.","postalCode":"45739","locality":"Oer-Erkenschwick","municipality":{"key":"05562028","name":"Oer-Erkenschwick, Stadt","type":"Stadt"},"district":{"key":"05562","name":"Recklinghausen","type":"Kreis"},"federalState":{"key":"05","name":"Nordrhein-Westfalen"}},{"name":"Hauerweg","postalCode":"45739","locality":"Oer-Erkenschwick","municipality":{"key":"05562028","name":"Oer-Erkenschwick, Stadt","type":"Stadt"},"district":{"key":"05562","name":"Recklinghausen","type":"Kreis"},"federalState":{"key":"05","name":"Nordrhein-Westfalen"}},{"name":"Haydnstr.","postalCode":"45739","locality":"Oer-Erkenschwick","municipality":{"key":"05562028","name":"Oer-Erkenschwick, Stadt","type":"Stadt"},"district":{"key":"05562","name":"Recklinghausen","type":"Kreis"},"federalState":{"key":"05","name":"Nordrhein-Westfalen"}},{"name":"Heinenbohm","postalCode":"45739","locality":"Oer-Erkenschwick","municipality":{"key":"05562028","name":"Oer-Erkenschwick, Stadt","type":"Stadt"},"district":{"key":"05562","name":"Recklinghausen","type":"Kreis"},"federalState":{"key":"05","name":"Nordrhein-Westfalen"}},{"name":"Heinestr.","postalCode":"45739","locality":"Oer-Erkenschwick","municipality":{"key":"05562028","name":"Oer-Erkenschwick, Stadt","type":"Stadt"},"district":{"key":"05562","name":"Recklinghausen","type":"Kreis"},"federalState":{"key":"05","name":"Nordrhein-Westfalen"}},{"name":"Heinrich-Imbusch-Str.","postalCode":"45739","locality":"Oer-Erkenschwick","municipality":{"key":"05562028","name":"Oer-Erkenschwick, Stadt","type":"Stadt"},"district":{"key":"05562","name":"Recklinghausen","type":"Kreis"},"federalState":{"key":"05","name":"Nordrhein-Westfalen"}},{"name":"Heinrich-Imig-Str.","postalCode":"45739","locality":"Oer-Erkenschwick","municipality":{"key":"05562028","name":"Oer-Erkenschwick, Stadt","type":"Stadt"},"district":{"key":"05562","name":"Recklinghausen","type":"Kreis"},"federalState":{"key":"05","name":"Nordrhein-Westfalen"}},{"name":"Heinrichstr.","postalCode":"45739","locality":"Oer-Erkenschwick","municipality":{"key":"05562028","name":"Oer-Erkenschwick, Stadt","type":"Stadt"},"district":{"key":"05562","name":"Recklinghausen","type":"Kreis"},"federalState":{"key":"05","name":"Nordrhein-Westfalen"}},{"name":"Heinz-Netta-Str.","postalCode":"45739","locality":"Oer-Erkenschwick","municipality":{"key":"05562028","name":"Oer-Erkenschwick, Stadt","type":"Stadt"},"district":{"key":"05562","name":"Recklinghausen","type":"Kreis"},"federalState":{"key":"05","name":"Nordrhein-Westfalen"}},{"name":"Henri-Dunant-Str.","postalCode":"45739","locality":"Oer-Erkenschwick","municipality":{"key":"05562028","name":"Oer-Erkenschwick, Stadt","type":"Stadt"},"district":{"key":"05562","name":"Recklinghausen","type":"Kreis"},"federalState":{"key":"05","name":"Nordrhein-Westfalen"}},{"name":"Herbertsheide","postalCode":"45739","locality":"Oer-Erkenschwick","municipality":{"key":"05562028","name":"Oer-Erkenschwick, Stadt","type":"Stadt"},"district":{"key":"05562","name":"Recklinghausen","type":"Kreis"},"federalState":{"key":"05","name":"Nordrhein-Westfalen"}},{"name":"Herbertstr.","postalCode":"45739","locality":"Oer-Erkenschwick","municipality":{"key":"05562028","name":"Oer-Erkenschwick, Stadt","type":"Stadt"},"district":{"key":"05562","name":"Recklinghausen","type":"Kreis"},"federalState":{"key":"05","name":"Nordrhein-Westfalen"}},{"name":"Hermann-Löns-Str.","postalCode":"45739","locality":"Oer-Erkenschwick","municipality":{"key":"05562028","name":"Oer-Erkenschwick, Stadt","type":"Stadt"},"district":{"key":"05562","name":"Recklinghausen","type":"Kreis"},"federalState":{"key":"05","name":"Nordrhein-Westfalen"}},{"name":"Hochstr.","postalCode":"45739","locality":"Oer-Erkenschwick","municipality":{"key":"05562028","name":"Oer-Erkenschwick, Stadt","type":"Stadt"},"district":{"key":"05562","name":"Recklinghausen","type":"Kreis"},"federalState":{"key":"05","name":"Nordrhein-Westfalen"}},{"name":"Höhenweg","postalCode":"45739","locality":"Oer-Erkenschwick","municipality":{"key":"05562028","name":"Oer-Erkenschwick, Stadt","type":"Stadt"},"district":{"key":"05562","name":"Recklinghausen","type":"Kreis"},"federalState":{"key":"05","name":"Nordrhein-Westfalen"}},{"name":"Holtgarde","postalCode":"45739","locality":"Oer-Erkenschwick","municipality":{"key":"05562028","name":"Oer-Erkenschwick, Stadt","type":"Stadt"},"district":{"key":"05562","name":"Recklinghausen","type":"Kreis"},"federalState":{"key":"05","name":"Nordrhein-Westfalen"}},{"name":"Holthäuser Str.","postalCode":"45739","locality":"Oer-Erkenschwick","municipality":{"key":"05562028","name":"Oer-Erkenschwick, Stadt","type":"Stadt"},"district":{"key":"05562","name":"Recklinghausen","type":"Kreis"},"federalState":{"key":"05","name":"Nordrhein-Westfalen"}},{"name":"Holunderweg","postalCode":"45739","locality":"Oer-Erkenschwick","municipality":{"key":"05562028","name":"Oer-Erkenschwick, Stadt","type":"Stadt"},"district":{"key":"05562","name":"Recklinghausen","type":"Kreis"},"federalState":{"key":"05","name":"Nordrhein-Westfalen"}},{"name":"Horneburger Str.","postalCode":"45739","locality":"Oer-Erkenschwick","municipality":{"key":"05562028","name":"Oer-Erkenschwick, Stadt","type":"Stadt"},"district":{"key":"05562","name":"Recklinghausen","type":"Kreis"},"federalState":{"key":"05","name":"Nordrhein-Westfalen"}},{"name":"Hovelfeldweg","postalCode":"45739","locality":"Oer-Erkenschwick","municipality":{"key":"05562028","name":"Oer-Erkenschwick, Stadt","type":"Stadt"},"district":{"key":"05562","name":"Recklinghausen","type":"Kreis"},"federalState":{"key":"05","name":"Nordrhein-Westfalen"}},{"name":"Hügelstr.","postalCode":"45739","locality":"Oer-Erkenschwick","municipality":{"key":"05562028","name":"Oer-Erkenschwick, Stadt","type":"Stadt"},"district":{"key":"05562","name":"Recklinghausen","type":"Kreis"},"federalState":{"key":"05","name":"Nordrhein-Westfalen"}},{"name":"Im Bickefeld","postalCode":"45739","locality":"Oer-Erkenschwick","municipality":{"key":"05562028","name":"Oer-Erkenschwick, Stadt","type":"Stadt"},"district":{"key":"05562","name":"Recklinghausen","type":"Kreis"},"federalState":{"key":"05","name":"Nordrhein-Westfalen"}},{"name":"Im Bollwerk","postalCode":"45739","locality":"Oer-Erkenschwick","municipality":{"key":"05562028","name":"Oer-Erkenschwick, Stadt","type":"Stadt"},"district":{"key":"05562","name":"Recklinghausen","type":"Kreis"},"federalState":{"key":"05","name":"Nordrhein-Westfalen"}},{"name":"Im Bruch","postalCode":"45739","locality":"Oer-Erkenschwick","municipality":{"key":"05562028","name":"Oer-Erkenschwick, Stadt","type":"Stadt"},"district":{"key":"05562","name":"Recklinghausen","type":"Kreis"},"federalState":{"key":"05","name":"Nordrhein-Westfalen"}},{"name":"Im Buschkamp","postalCode":"45739","locality":"Oer-Erkenschwick","municipality":{"key":"05562028","name":"Oer-Erkenschwick, Stadt","type":"Stadt"},"district":{"key":"05562","name":"Recklinghausen","type":"Kreis"},"federalState":{"key":"05","name":"Nordrhein-Westfalen"}},{"name":"Im Grund","postalCode":"45739","locality":"Oer-Erkenschwick","municipality":{"key":"05562028","name":"Oer-Erkenschwick, Stadt","type":"Stadt"},"district":{"key":"05562","name":"Recklinghausen","type":"Kreis"},"federalState":{"key":"05","name":"Nordrhein-Westfalen"}},{"name":"Im Hampffeld","postalCode":"45739","locality":"Oer-Erkenschwick","municipality":{"key":"05562028","name":"Oer-Erkenschwick, Stadt","type":"Stadt"},"district":{"key":"05562","name":"Recklinghausen","type":"Kreis"},"federalState":{"key":"05","name":"Nordrhein-Westfalen"}},{"name":"Im Heidkamp","postalCode":"45739","locality":"Oer-Erkenschwick","municipality":{"key":"05562028","name":"Oer-Erkenschwick, Stadt","type":"Stadt"},"district":{"key":"05562","name":"Recklinghausen","type":"Kreis"},"federalState":{"key":"05","name":"Nordrhein-Westfalen"}},{"name":"Im Heitkamp","postalCode":"45739","locality":"Oer-Erkenschwick","municipality":{"key":"05562028","name":"Oer-Erkenschwick, Stadt","type":"Stadt"},"district":{"key":"05562","name":"Recklinghausen","type":"Kreis"},"federalState":{"key":"05","name":"Nordrhein-Westfalen"}},{"name":"Im Ort","postalCode":"45739","locality":"Oer-Erkenschwick","municipality":{"key":"05562028","name":"Oer-Erkenschwick, Stadt","type":"Stadt"},"district":{"key":"05562","name":"Recklinghausen","type":"Kreis"},"federalState":{"key":"05","name":"Nordrhein-Westfalen"}},{"name":"Im Siepen","postalCode":"45739","locality":"Oer-Erkenschwick","municipality":{"key":"05562028","name":"Oer-Erkenschwick, Stadt","type":"Stadt"},"district":{"key":"05562","name":"Recklinghausen","type":"Kreis"},"federalState":{"key":"05","name":"Nordrhein-Westfalen"}},{"name":"Im Silvertbruch","postalCode":"45739","locality":"Oer-Erkenschwick","municipality":{"key":"05562028","name":"Oer-Erkenschwick, Stadt","type":"Stadt"},"district":{"key":"05562","name":"Recklinghausen","type":"Kreis"},"federalState":{"key":"05","name":"Nordrhein-Westfalen"}},{"name":"Im Spring","postalCode":"45739","locality":"Oer-Erkenschwick","municipality":{"key":"05562028","name":"Oer-Erkenschwick, Stadt","type":"Stadt"},"district":{"key":"05562","name":"Recklinghausen","type":"Kreis"},"federalState":{"key":"05","name":"Nordrhein-Westfalen"}},{"name":"In den Kämpen","postalCode":"45739","locality":"Oer-Erkenschwick","municipality":{"key":"05562028","name":"Oer-Erkenschwick, Stadt","type":"Stadt"},"district":{"key":"05562","name":"Recklinghausen","type":"Kreis"},"federalState":{"key":"05","name":"Nordrhein-Westfalen"}},{"name":"In der Kneife","postalCode":"45739","locality":"Oer-Erkenschwick","municipality":{"key":"05562028","name":"Oer-Erkenschwick, Stadt","type":"Stadt"},"district":{"key":"05562","name":"Recklinghausen","type":"Kreis"},"federalState":{"key":"05","name":"Nordrhein-Westfalen"}},{"name":"In der Lusenheide","postalCode":"45739","locality":"Oer-Erkenschwick","municipality":{"key":"05562028","name":"Oer-Erkenschwick, Stadt","type":"Stadt"},"district":{"key":"05562","name":"Recklinghausen","type":"Kreis"},"federalState":{"key":"05","name":"Nordrhein-Westfalen"}},{"name":"Industriestr.","postalCode":"45739","locality":"Oer-Erkenschwick","municipality":{"key":"05562028","name":"Oer-Erkenschwick, Stadt","type":"Stadt"},"district":{"key":"05562","name":"Recklinghausen","type":"Kreis"},"federalState":{"key":"05","name":"Nordrhein-Westfalen"}},{"name":"Jahnstr.","postalCode":"45739","locality":"Oer-Erkenschwick","municipality":{"key":"05562028","name":"Oer-Erkenschwick, Stadt","type":"Stadt"},"district":{"key":"05562","name":"Recklinghausen","type":"Kreis"},"federalState":{"key":"05","name":"Nordrhein-Westfalen"}},{"name":"Jasminweg","postalCode":"45739","locality":"Oer-Erkenschwick","municipality":{"key":"05562028","name":"Oer-Erkenschwick, Stadt","type":"Stadt"},"district":{"key":"05562","name":"Recklinghausen","type":"Kreis"},"federalState":{"key":"05","name":"Nordrhein-Westfalen"}},{"name":"Johannesstr.","postalCode":"45739","locality":"Oer-Erkenschwick","municipality":{"key":"05562028","name":"Oer-Erkenschwick, Stadt","type":"Stadt"},"district":{"key":"05562","name":"Recklinghausen","type":"Kreis"},"federalState":{"key":"05","name":"Nordrhein-Westfalen"}},{"name":"Josefstr.","postalCode":"45739","locality":"Oer-Erkenschwick","municipality":{"key":"05562028","name":"Oer-Erkenschwick, Stadt","type":"Stadt"},"district":{"key":"05562","name":"Recklinghausen","type":"Kreis"},"federalState":{"key":"05","name":"Nordrhein-Westfalen"}},{"name":"Kampstr.","postalCode":"45739","locality":"Oer-Erkenschwick","municipality":{"key":"05562028","name":"Oer-Erkenschwick, Stadt","type":"Stadt"},"district":{"key":"05562","name":"Recklinghausen","type":"Kreis"},"federalState":{"key":"05","name":"Nordrhein-Westfalen"}},{"name":"Kantstr.","postalCode":"45739","locality":"Oer-Erkenschwick","municipality":{"key":"05562028","name":"Oer-Erkenschwick, Stadt","type":"Stadt"},"district":{"key":"05562","name":"Recklinghausen","type":"Kreis"},"federalState":{"key":"05","name":"Nordrhein-Westfalen"}},{"name":"Karl-Legien-Str.","postalCode":"45739","locality":"Oer-Erkenschwick","municipality":{"key":"05562028","name":"Oer-Erkenschwick, Stadt","type":"Stadt"},"district":{"key":"05562","name":"Recklinghausen","type":"Kreis"},"federalState":{"key":"05","name":"Nordrhein-Westfalen"}},{"name":"Karlstr.","postalCode":"45739","locality":"Oer-Erkenschwick","municipality":{"key":"05562028","name":"Oer-Erkenschwick, Stadt","type":"Stadt"},"district":{"key":"05562","name":"Recklinghausen","type":"Kreis"},"federalState":{"key":"05","name":"Nordrhein-Westfalen"}},{"name":"Kastanienweg","postalCode":"45739","locality":"Oer-Erkenschwick","municipality":{"key":"05562028","name":"Oer-Erkenschwick, Stadt","type":"Stadt"},"district":{"key":"05562","name":"Recklinghausen","type":"Kreis"},"federalState":{"key":"05","name":"Nordrhein-Westfalen"}},{"name":"Kästnerweg","postalCode":"45739","locality":"Oer-Erkenschwick","municipality":{"key":"05562028","name":"Oer-Erkenschwick, Stadt","type":"Stadt"},"district":{"key":"05562","name":"Recklinghausen","type":"Kreis"},"federalState":{"key":"05","name":"Nordrhein-Westfalen"}},{"name":"Kiefernweg","postalCode":"45739","locality":"Oer-Erkenschwick","municipality":{"key":"05562028","name":"Oer-Erkenschwick, Stadt","type":"Stadt"},"district":{"key":"05562","name":"Recklinghausen","type":"Kreis"},"federalState":{"key":"05","name":"Nordrhein-Westfalen"}},{"name":"Kiesenfeldweg","postalCode":"45739","locality":"Oer-Erkenschwick","municipality":{"key":"05562028","name":"Oer-Erkenschwick, Stadt","type":"Stadt"},"district":{"key":"05562","name":"Recklinghausen","type":"Kreis"},"federalState":{"key":"05","name":"Nordrhein-Westfalen"}},{"name":"Kirchstr.","postalCode":"45739","locality":"Oer-Erkenschwick","municipality":{"key":"05562028","name":"Oer-Erkenschwick, Stadt","type":"Stadt"},"district":{"key":"05562","name":"Recklinghausen","type":"Kreis"},"federalState":{"key":"05","name":"Nordrhein-Westfalen"}},{"name":"Klein-Erkenschwicker-Str.","postalCode":"45739","locality":"Oer-Erkenschwick","municipality":{"key":"05562028","name":"Oer-Erkenschwick, Stadt","type":"Stadt"},"district":{"key":"05562","name":"Recklinghausen","type":"Kreis"},"federalState":{"key":"05","name":"Nordrhein-Westfalen"}},{"name":"Knappenstr.","postalCode":"45739","locality":"Oer-Erkenschwick","municipality":{"key":"05562028","name":"Oer-Erkenschwick, Stadt","type":"Stadt"},"district":{"key":"05562","name":"Recklinghausen","type":"Kreis"},"federalState":{"key":"05","name":"Nordrhein-Westfalen"}},{"name":"Königsberger Str.","postalCode":"45739","locality":"Oer-Erkenschwick","municipality":{"key":"05562028","name":"Oer-Erkenschwick, Stadt","type":"Stadt"},"district":{"key":"05562","name":"Recklinghausen","type":"Kreis"},"federalState":{"key":"05","name":"Nordrhein-Westfalen"}},{"name":"Konrad-Adenauer-Str.","postalCode":"45739","locality":"Oer-Erkenschwick","municipality":{"key":"05562028","name":"Oer-Erkenschwick, Stadt","type":"Stadt"},"district":{"key":"05562","name":"Recklinghausen","type":"Kreis"},"federalState":{"key":"05","name":"Nordrhein-Westfalen"}},{"name":"Körnerstr.","postalCode":"45739","locality":"Oer-Erkenschwick","municipality":{"key":"05562028","name":"Oer-Erkenschwick, Stadt","type":"Stadt"},"district":{"key":"05562","name":"Recklinghausen","type":"Kreis"},"federalState":{"key":"05","name":"Nordrhein-Westfalen"}},{"name":"Krawehlstr.","postalCode":"45739","locality":"Oer-Erkenschwick","municipality":{"key":"05562028","name":"Oer-Erkenschwick, Stadt","type":"Stadt"},"district":{"key":"05562","name":"Recklinghausen","type":"Kreis"},"federalState":{"key":"05","name":"Nordrhein-Westfalen"}},{"name":"Krikedillweg","postalCode":"45739","locality":"Oer-Erkenschwick","municipality":{"key":"05562028","name":"Oer-Erkenschwick, Stadt","type":"Stadt"},"district":{"key":"05562","name":"Recklinghausen","type":"Kreis"},"federalState":{"key":"05","name":"Nordrhein-Westfalen"}},{"name":"Landwehrring","postalCode":"45739","locality":"Oer-Erkenschwick","municipality":{"key":"05562028","name":"Oer-Erkenschwick, Stadt","type":"Stadt"},"district":{"key":"05562","name":"Recklinghausen","type":"Kreis"},"federalState":{"key":"05","name":"Nordrhein-Westfalen"}},{"name":"Lavendelweg","postalCode":"45739","locality":"Oer-Erkenschwick","municipality":{"key":"05562028","name":"Oer-Erkenschwick, Stadt","type":"Stadt"},"district":{"key":"05562","name":"Recklinghausen","type":"Kreis"},"federalState":{"key":"05","name":"Nordrhein-Westfalen"}},{"name":"Leharstr.","postalCode":"45739","locality":"Oer-Erkenschwick","municipality":{"key":"05562028","name":"Oer-Erkenschwick, Stadt","type":"Stadt"},"district":{"key":"05562","name":"Recklinghausen","type":"Kreis"},"federalState":{"key":"05","name":"Nordrhein-Westfalen"}},{"name":"Leipziger Str.","postalCode":"45739","locality":"Oer-Erkenschwick","municipality":{"key":"05562028","name":"Oer-Erkenschwick, Stadt","type":"Stadt"},"district":{"key":"05562","name":"Recklinghausen","type":"Kreis"},"federalState":{"key":"05","name":"Nordrhein-Westfalen"}},{"name":"Lerchenweg","postalCode":"45739","locality":"Oer-Erkenschwick","municipality":{"key":"05562028","name":"Oer-Erkenschwick, Stadt","type":"Stadt"},"district":{"key":"05562","name":"Recklinghausen","type":"Kreis"},"federalState":{"key":"05","name":"Nordrhein-Westfalen"}},{"name":"Lessingstr.","postalCode":"45739","locality":"Oer-Erkenschwick","municipality":{"key":"05562028","name":"Oer-Erkenschwick, Stadt","type":"Stadt"},"district":{"key":"05562","name":"Recklinghausen","type":"Kreis"},"federalState":{"key":"05","name":"Nordrhein-Westfalen"}},{"name":"Levener Weg","postalCode":"45739","locality":"Oer-Erkenschwick","municipality":{"key":"05562028","name":"Oer-Erkenschwick, Stadt","type":"Stadt"},"district":{"key":"05562","name":"Recklinghausen","type":"Kreis"},"federalState":{"key":"05","name":"Nordrhein-Westfalen"}},{"name":"Lilienweg","postalCode":"45739","locality":"Oer-Erkenschwick","municipality":{"key":"05562028","name":"Oer-Erkenschwick, Stadt","type":"Stadt"},"district":{"key":"05562","name":"Recklinghausen","type":"Kreis"},"federalState":{"key":"05","name":"Nordrhein-Westfalen"}},{"name":"Lindenstr.","postalCode":"45739","locality":"Oer-Erkenschwick","municipality":{"key":"05562028","name":"Oer-Erkenschwick, Stadt","type":"Stadt"},"district":{"key":"05562","name":"Recklinghausen","type":"Kreis"},"federalState":{"key":"05","name":"Nordrhein-Westfalen"}},{"name":"Lippestr.","postalCode":"45739","locality":"Oer-Erkenschwick","municipality":{"key":"05562028","name":"Oer-Erkenschwick, Stadt","type":"Stadt"},"district":{"key":"05562","name":"Recklinghausen","type":"Kreis"},"federalState":{"key":"05","name":"Nordrhein-Westfalen"}},{"name":"Lohhäuser Str.","postalCode":"45739","locality":"Oer-Erkenschwick","municipality":{"key":"05562028","name":"Oer-Erkenschwick, Stadt","type":"Stadt"},"district":{"key":"05562","name":"Recklinghausen","type":"Kreis"},"federalState":{"key":"05","name":"Nordrhein-Westfalen"}},{"name":"Longbentonstr.","postalCode":"45739","locality":"Oer-Erkenschwick","municipality":{"key":"05562028","name":"Oer-Erkenschwick, Stadt","type":"Stadt"},"district":{"key":"05562","name":"Recklinghausen","type":"Kreis"},"federalState":{"key":"05","name":"Nordrhein-Westfalen"}},{"name":"Lortzingstr.","postalCode":"45739","locality":"Oer-Erkenschwick","municipality":{"key":"05562028","name":"Oer-Erkenschwick, Stadt","type":"Stadt"},"district":{"key":"05562","name":"Recklinghausen","type":"Kreis"},"federalState":{"key":"05","name":"Nordrhein-Westfalen"}},{"name":"Lübbenauer Str.","postalCode":"45739","locality":"Oer-Erkenschwick","municipality":{"key":"05562028","name":"Oer-Erkenschwick, Stadt","type":"Stadt"},"district":{"key":"05562","name":"Recklinghausen","type":"Kreis"},"federalState":{"key":"05","name":"Nordrhein-Westfalen"}},{"name":"Ludwigstr.","postalCode":"45739","locality":"Oer-Erkenschwick","municipality":{"key":"05562028","name":"Oer-Erkenschwick, Stadt","type":"Stadt"},"district":{"key":"05562","name":"Recklinghausen","type":"Kreis"},"federalState":{"key":"05","name":"Nordrhein-Westfalen"}},{"name":"Magnolienweg","postalCode":"45739","locality":"Oer-Erkenschwick","municipality":{"key":"05562028","name":"Oer-Erkenschwick, Stadt","type":"Stadt"},"district":{"key":"05562","name":"Recklinghausen","type":"Kreis"},"federalState":{"key":"05","name":"Nordrhein-Westfalen"}},{"name":"Marktstr.","postalCode":"45739","locality":"Oer-Erkenschwick","municipality":{"key":"05562028","name":"Oer-Erkenschwick, Stadt","type":"Stadt"},"district":{"key":"05562","name":"Recklinghausen","type":"Kreis"},"federalState":{"key":"05","name":"Nordrhein-Westfalen"}},{"name":"Meisenweg","postalCode":"45739","locality":"Oer-Erkenschwick","municipality":{"key":"05562028","name":"Oer-Erkenschwick, Stadt","type":"Stadt"},"district":{"key":"05562","name":"Recklinghausen","type":"Kreis"},"federalState":{"key":"05","name":"Nordrhein-Westfalen"}},{"name":"Memelstr.","postalCode":"45739","locality":"Oer-Erkenschwick","municipality":{"key":"05562028","name":"Oer-Erkenschwick, Stadt","type":"Stadt"},"district":{"key":"05562","name":"Recklinghausen","type":"Kreis"},"federalState":{"key":"05","name":"Nordrhein-Westfalen"}},{"name":"Michaelstr.","postalCode":"45739","locality":"Oer-Erkenschwick","municipality":{"key":"05562028","name":"Oer-Erkenschwick, Stadt","type":"Stadt"},"district":{"key":"05562","name":"Recklinghausen","type":"Kreis"},"federalState":{"key":"05","name":"Nordrhein-Westfalen"}},{"name":"Moselstr.","postalCode":"45739","locality":"Oer-Erkenschwick","municipality":{"key":"05562028","name":"Oer-Erkenschwick, Stadt","type":"Stadt"},"district":{"key":"05562","name":"Recklinghausen","type":"Kreis"},"federalState":{"key":"05","name":"Nordrhein-Westfalen"}},{"name":"Mozartstr.","postalCode":"45739","locality":"Oer-Erkenschwick","municipality":{"key":"05562028","name":"Oer-Erkenschwick, Stadt","type":"Stadt"},"district":{"key":"05562","name":"Recklinghausen","type":"Kreis"},"federalState":{"key":"05","name":"Nordrhein-Westfalen"}},{"name":"Mühlenweg","postalCode":"45739","locality":"Oer-Erkenschwick","municipality":{"key":"05562028","name":"Oer-Erkenschwick, Stadt","type":"Stadt"},"district":{"key":"05562","name":"Recklinghausen","type":"Kreis"},"federalState":{"key":"05","name":"Nordrhein-Westfalen"}},{"name":"Mutter-Teresa-Str.","postalCode":"45739","locality":"Oer-Erkenschwick","municipality":{"key":"05562028","name":"Oer-Erkenschwick, Stadt","type":"Stadt"},"district":{"key":"05562","name":"Recklinghausen","type":"Kreis"},"federalState":{"key":"05","name":"Nordrhein-Westfalen"}},{"name":"Neckarstr.","postalCode":"45739","locality":"Oer-Erkenschwick","municipality":{"key":"05562028","name":"Oer-Erkenschwick, Stadt","type":"Stadt"},"district":{"key":"05562","name":"Recklinghausen","type":"Kreis"},"federalState":{"key":"05","name":"Nordrhein-Westfalen"}},{"name":"Nelkenweg","postalCode":"45739","locality":"Oer-Erkenschwick","municipality":{"key":"05562028","name":"Oer-Erkenschwick, Stadt","type":"Stadt"},"district":{"key":"05562","name":"Recklinghausen","type":"Kreis"},"federalState":{"key":"05","name":"Nordrhein-Westfalen"}},{"name":"Nigelenkamp","postalCode":"45739","locality":"Oer-Erkenschwick","municipality":{"key":"05562028","name":"Oer-Erkenschwick, Stadt","type":"Stadt"},"district":{"key":"05562","name":"Recklinghausen","type":"Kreis"},"federalState":{"key":"05","name":"Nordrhein-Westfalen"}},{"name":"Norbertstr.","postalCode":"45739","locality":"Oer-Erkenschwick","municipality":{"key":"05562028","name":"Oer-Erkenschwick, Stadt","type":"Stadt"},"district":{"key":"05562","name":"Recklinghausen","type":"Kreis"},"federalState":{"key":"05","name":"Nordrhein-Westfalen"}},{"name":"Nußbaumweg","postalCode":"45739","locality":"Oer-Erkenschwick","municipality":{"key":"05562028","name":"Oer-Erkenschwick, Stadt","type":"Stadt"},"district":{"key":"05562","name":"Recklinghausen","type":"Kreis"},"federalState":{"key":"05","name":"Nordrhein-Westfalen"}},{"name":"Obersinsener Str.","postalCode":"45739","locality":"Oer-Erkenschwick","municipality":{"key":"05562028","name":"Oer-Erkenschwick, Stadt","type":"Stadt"},"district":{"key":"05562","name":"Recklinghausen","type":"Kreis"},"federalState":{"key":"05","name":"Nordrhein-Westfalen"}},{"name":"Oberstr.","postalCode":"45739","locality":"Oer-Erkenschwick","municipality":{"key":"05562028","name":"Oer-Erkenschwick, Stadt","type":"Stadt"},"district":{"key":"05562","name":"Recklinghausen","type":"Kreis"},"federalState":{"key":"05","name":"Nordrhein-Westfalen"}},{"name":"Oderstr.","postalCode":"45739","locality":"Oer-Erkenschwick","municipality":{"key":"05562028","name":"Oer-Erkenschwick, Stadt","type":"Stadt"},"district":{"key":"05562","name":"Recklinghausen","type":"Kreis"},"federalState":{"key":"05","name":"Nordrhein-Westfalen"}},{"name":"Oerweg","postalCode":"45739","locality":"Oer-Erkenschwick","municipality":{"key":"05562028","name":"Oer-Erkenschwick, Stadt","type":"Stadt"},"district":{"key":"05562","name":"Recklinghausen","type":"Kreis"},"federalState":{"key":"05","name":"Nordrhein-Westfalen"}},{"name":"Olga-Eckstein-Str.","postalCode":"45739","locality":"Oer-Erkenschwick","municipality":{"key":"05562028","name":"Oer-Erkenschwick, Stadt","type":"Stadt"},"district":{"key":"05562","name":"Recklinghausen","type":"Kreis"},"federalState":{"key":"05","name":"Nordrhein-Westfalen"}},{"name":"Otto-Hue-Str.","postalCode":"45739","locality":"Oer-Erkenschwick","municipality":{"key":"05562028","name":"Oer-Erkenschwick, Stadt","type":"Stadt"},"district":{"key":"05562","name":"Recklinghausen","type":"Kreis"},"federalState":{"key":"05","name":"Nordrhein-Westfalen"}},{"name":"Pappelweg","postalCode":"45739","locality":"Oer-Erkenschwick","municipality":{"key":"05562028","name":"Oer-Erkenschwick, Stadt","type":"Stadt"},"district":{"key":"05562","name":"Recklinghausen","type":"Kreis"},"federalState":{"key":"05","name":"Nordrhein-Westfalen"}},{"name":"Paracelsusweg","postalCode":"45739","locality":"Oer-Erkenschwick","municipality":{"key":"05562028","name":"Oer-Erkenschwick, Stadt","type":"Stadt"},"district":{"key":"05562","name":"Recklinghausen","type":"Kreis"},"federalState":{"key":"05","name":"Nordrhein-Westfalen"}},{"name":"Passage","postalCode":"45739","locality":"Oer-Erkenschwick","municipality":{"key":"05562028","name":"Oer-Erkenschwick, Stadt","type":"Stadt"},"district":{"key":"05562","name":"Recklinghausen","type":"Kreis"},"federalState":{"key":"05","name":"Nordrhein-Westfalen"}},{"name":"Pastoratsweg","postalCode":"45739","locality":"Oer-Erkenschwick","municipality":{"key":"05562028","name":"Oer-Erkenschwick, Stadt","type":"Stadt"},"district":{"key":"05562","name":"Recklinghausen","type":"Kreis"},"federalState":{"key":"05","name":"Nordrhein-Westfalen"}},{"name":"Paulstr.","postalCode":"45739","locality":"Oer-Erkenschwick","municipality":{"key":"05562028","name":"Oer-Erkenschwick, Stadt","type":"Stadt"},"district":{"key":"05562","name":"Recklinghausen","type":"Kreis"},"federalState":{"key":"05","name":"Nordrhein-Westfalen"}},{"name":"Peterstr.","postalCode":"45739","locality":"Oer-Erkenschwick","municipality":{"key":"05562028","name":"Oer-Erkenschwick, Stadt","type":"Stadt"},"district":{"key":"05562","name":"Recklinghausen","type":"Kreis"},"federalState":{"key":"05","name":"Nordrhein-Westfalen"}},{"name":"Platanenring","postalCode":"45739","locality":"Oer-Erkenschwick","municipality":{"key":"05562028","name":"Oer-Erkenschwick, Stadt","type":"Stadt"},"district":{"key":"05562","name":"Recklinghausen","type":"Kreis"},"federalState":{"key":"05","name":"Nordrhein-Westfalen"}},{"name":"Pniewystr.","postalCode":"45739","locality":"Oer-Erkenschwick","municipality":{"key":"05562028","name":"Oer-Erkenschwick, Stadt","type":"Stadt"},"district":{"key":"05562","name":"Recklinghausen","type":"Kreis"},"federalState":{"key":"05","name":"Nordrhein-Westfalen"}},{"name":"Pregelstr.","postalCode":"45739","locality":"Oer-Erkenschwick","municipality":{"key":"05562028","name":"Oer-Erkenschwick, Stadt","type":"Stadt"},"district":{"key":"05562","name":"Recklinghausen","type":"Kreis"},"federalState":{"key":"05","name":"Nordrhein-Westfalen"}},{"name":"Quellenkamp","postalCode":"45739","locality":"Oer-Erkenschwick","municipality":{"key":"05562028","name":"Oer-Erkenschwick, Stadt","type":"Stadt"},"district":{"key":"05562","name":"Recklinghausen","type":"Kreis"},"federalState":{"key":"05","name":"Nordrhein-Westfalen"}},{"name":"Raiffeisenstr.","postalCode":"45739","locality":"Oer-Erkenschwick","municipality":{"key":"05562028","name":"Oer-Erkenschwick, Stadt","type":"Stadt"},"district":{"key":"05562","name":"Recklinghausen","type":"Kreis"},"federalState":{"key":"05","name":"Nordrhein-Westfalen"}},{"name":"Rapener Str.","postalCode":"45739","locality":"Oer-Erkenschwick","municipality":{"key":"05562028","name":"Oer-Erkenschwick, Stadt","type":"Stadt"},"district":{"key":"05562","name":"Recklinghausen","type":"Kreis"},"federalState":{"key":"05","name":"Nordrhein-Westfalen"}},{"name":"Recklinghäuser Str.","postalCode":"45739","locality":"Oer-Erkenschwick","municipality":{"key":"05562028","name":"Oer-Erkenschwick, Stadt","type":"Stadt"},"district":{"key":"05562","name":"Recklinghausen","type":"Kreis"},"federalState":{"key":"05","name":"Nordrhein-Westfalen"}},{"name":"Reifsfeldstr.","postalCode":"45739","locality":"Oer-Erkenschwick","municipality":{"key":"05562028","name":"Oer-Erkenschwick, Stadt","type":"Stadt"},"district":{"key":"05562","name":"Recklinghausen","type":"Kreis"},"federalState":{"key":"05","name":"Nordrhein-Westfalen"}},{"name":"Rheinstr.","postalCode":"45739","locality":"Oer-Erkenschwick","municipality":{"key":"05562028","name":"Oer-Erkenschwick, Stadt","type":"Stadt"},"district":{"key":"05562","name":"Recklinghausen","type":"Kreis"},"federalState":{"key":"05","name":"Nordrhein-Westfalen"}},{"name":"Richard-Wagner-Str.","postalCode":"45739","locality":"Oer-Erkenschwick","municipality":{"key":"05562028","name":"Oer-Erkenschwick, Stadt","type":"Stadt"},"district":{"key":"05562","name":"Recklinghausen","type":"Kreis"},"federalState":{"key":"05","name":"Nordrhein-Westfalen"}},{"name":"Rittbörden","postalCode":"45739","locality":"Oer-Erkenschwick","municipality":{"key":"05562028","name":"Oer-Erkenschwick, Stadt","type":"Stadt"},"district":{"key":"05562","name":"Recklinghausen","type":"Kreis"},"federalState":{"key":"05","name":"Nordrhein-Westfalen"}},{"name":"Robertstr.","postalCode":"45739","locality":"Oer-Erkenschwick","municipality":{"key":"05562028","name":"Oer-Erkenschwick, Stadt","type":"Stadt"},"district":{"key":"05562","name":"Recklinghausen","type":"Kreis"},"federalState":{"key":"05","name":"Nordrhein-Westfalen"}},{"name":"Rosenweg","postalCode":"45739","locality":"Oer-Erkenschwick","municipality":{"key":"05562028","name":"Oer-Erkenschwick, Stadt","type":"Stadt"},"district":{"key":"05562","name":"Recklinghausen","type":"Kreis"},"federalState":{"key":"05","name":"Nordrhein-Westfalen"}},{"name":"Rostocker Str.","postalCode":"45739","locality":"Oer-Erkenschwick","municipality":{"key":"05562028","name":"Oer-Erkenschwick, Stadt","type":"Stadt"},"district":{"key":"05562","name":"Recklinghausen","type":"Kreis"},"federalState":{"key":"05","name":"Nordrhein-Westfalen"}},{"name":"Rübenkämpe","postalCode":"45739","locality":"Oer-Erkenschwick","municipality":{"key":"05562028","name":"Oer-Erkenschwick, Stadt","type":"Stadt"},"district":{"key":"05562","name":"Recklinghausen","type":"Kreis"},"federalState":{"key":"05","name":"Nordrhein-Westfalen"}},{"name":"Rudolfstr.","postalCode":"45739","locality":"Oer-Erkenschwick","municipality":{"key":"05562028","name":"Oer-Erkenschwick, Stadt","type":"Stadt"},"district":{"key":"05562","name":"Recklinghausen","type":"Kreis"},"federalState":{"key":"05","name":"Nordrhein-Westfalen"}},{"name":"Rügener Str.","postalCode":"45739","locality":"Oer-Erkenschwick","municipality":{"key":"05562028","name":"Oer-Erkenschwick, Stadt","type":"Stadt"},"district":{"key":"05562","name":"Recklinghausen","type":"Kreis"},"federalState":{"key":"05","name":"Nordrhein-Westfalen"}},{"name":"Ruhrstr.","postalCode":"45739","locality":"Oer-Erkenschwick","municipality":{"key":"05562028","name":"Oer-Erkenschwick, Stadt","type":"Stadt"},"district":{"key":"05562","name":"Recklinghausen","type":"Kreis"},"federalState":{"key":"05","name":"Nordrhein-Westfalen"}},{"name":"Sandweg","postalCode":"45739","locality":"Oer-Erkenschwick","municipality":{"key":"05562028","name":"Oer-Erkenschwick, Stadt","type":"Stadt"},"district":{"key":"05562","name":"Recklinghausen","type":"Kreis"},"federalState":{"key":"05","name":"Nordrhein-Westfalen"}},{"name":"Schachtstr.","postalCode":"45739","locality":"Oer-Erkenschwick","municipality":{"key":"05562028","name":"Oer-Erkenschwick, Stadt","type":"Stadt"},"district":{"key":"05562","name":"Recklinghausen","type":"Kreis"},"federalState":{"key":"05","name":"Nordrhein-Westfalen"}},{"name":"Schäferweg","postalCode":"45739","locality":"Oer-Erkenschwick","municipality":{"key":"05562028","name":"Oer-Erkenschwick, Stadt","type":"Stadt"},"district":{"key":"05562","name":"Recklinghausen","type":"Kreis"},"federalState":{"key":"05","name":"Nordrhein-Westfalen"}},{"name":"Schillerpark","postalCode":"45739","locality":"Oer-Erkenschwick","municipality":{"key":"05562028","name":"Oer-Erkenschwick, Stadt","type":"Stadt"},"district":{"key":"05562","name":"Recklinghausen","type":"Kreis"},"federalState":{"key":"05","name":"Nordrhein-Westfalen"}},{"name":"Schillerstr.","postalCode":"45739","locality":"Oer-Erkenschwick","municipality":{"key":"05562028","name":"Oer-Erkenschwick, Stadt","type":"Stadt"},"district":{"key":"05562","name":"Recklinghausen","type":"Kreis"},"federalState":{"key":"05","name":"Nordrhein-Westfalen"}},{"name":"Schleppweg","postalCode":"45739","locality":"Oer-Erkenschwick","municipality":{"key":"05562028","name":"Oer-Erkenschwick, Stadt","type":"Stadt"},"district":{"key":"05562","name":"Recklinghausen","type":"Kreis"},"federalState":{"key":"05","name":"Nordrhein-Westfalen"}},{"name":"Schlingweg","postalCode":"45739","locality":"Oer-Erkenschwick","municipality":{"key":"05562028","name":"Oer-Erkenschwick, Stadt","type":"Stadt"},"district":{"key":"05562","name":"Recklinghausen","type":"Kreis"},"federalState":{"key":"05","name":"Nordrhein-Westfalen"}},{"name":"Schmaler Weg","postalCode":"45739","locality":"Oer-Erkenschwick","municipality":{"key":"05562028","name":"Oer-Erkenschwick, Stadt","type":"Stadt"},"district":{"key":"05562","name":"Recklinghausen","type":"Kreis"},"federalState":{"key":"05","name":"Nordrhein-Westfalen"}},{"name":"Schubertstr.","postalCode":"45739","locality":"Oer-Erkenschwick","municipality":{"key":"05562028","name":"Oer-Erkenschwick, Stadt","type":"Stadt"},"district":{"key":"05562","name":"Recklinghausen","type":"Kreis"},"federalState":{"key":"05","name":"Nordrhein-Westfalen"}},{"name":"Schulstr.","postalCode":"45739","locality":"Oer-Erkenschwick","municipality":{"key":"05562028","name":"Oer-Erkenschwick, Stadt","type":"Stadt"},"district":{"key":"05562","name":"Recklinghausen","type":"Kreis"},"federalState":{"key":"05","name":"Nordrhein-Westfalen"}},{"name":"Schultenstr.","postalCode":"45739","locality":"Oer-Erkenschwick","municipality":{"key":"05562028","name":"Oer-Erkenschwick, Stadt","type":"Stadt"},"district":{"key":"05562","name":"Recklinghausen","type":"Kreis"},"federalState":{"key":"05","name":"Nordrhein-Westfalen"}},{"name":"Schumannstr.","postalCode":"45739","locality":"Oer-Erkenschwick","municipality":{"key":"05562028","name":"Oer-Erkenschwick, Stadt","type":"Stadt"},"district":{"key":"05562","name":"Recklinghausen","type":"Kreis"},"federalState":{"key":"05","name":"Nordrhein-Westfalen"}},{"name":"Schüttacker","postalCode":"45739","locality":"Oer-Erkenschwick","municipality":{"key":"05562028","name":"Oer-Erkenschwick, Stadt","type":"Stadt"},"district":{"key":"05562","name":"Recklinghausen","type":"Kreis"},"federalState":{"key":"05","name":"Nordrhein-Westfalen"}},{"name":"Schwalbenweg","postalCode":"45739","locality":"Oer-Erkenschwick","municipality":{"key":"05562028","name":"Oer-Erkenschwick, Stadt","type":"Stadt"},"district":{"key":"05562","name":"Recklinghausen","type":"Kreis"},"federalState":{"key":"05","name":"Nordrhein-Westfalen"}},{"name":"Schwarzer Weg","postalCode":"45739","locality":"Oer-Erkenschwick","municipality":{"key":"05562028","name":"Oer-Erkenschwick, Stadt","type":"Stadt"},"district":{"key":"05562","name":"Recklinghausen","type":"Kreis"},"federalState":{"key":"05","name":"Nordrhein-Westfalen"}},{"name":"Schweriner Str.","postalCode":"45739","locality":"Oer-Erkenschwick","municipality":{"key":"05562028","name":"Oer-Erkenschwick, Stadt","type":"Stadt"},"district":{"key":"05562","name":"Recklinghausen","type":"Kreis"},"federalState":{"key":"05","name":"Nordrhein-Westfalen"}},{"name":"Sinsener Str.","postalCode":"45739","locality":"Oer-Erkenschwick","municipality":{"key":"05562028","name":"Oer-Erkenschwick, Stadt","type":"Stadt"},"district":{"key":"05562","name":"Recklinghausen","type":"Kreis"},"federalState":{"key":"05","name":"Nordrhein-Westfalen"}},{"name":"Stadtpark","postalCode":"45739","locality":"Oer-Erkenschwick","municipality":{"key":"05562028","name":"Oer-Erkenschwick, Stadt","type":"Stadt"},"district":{"key":"05562","name":"Recklinghausen","type":"Kreis"},"federalState":{"key":"05","name":"Nordrhein-Westfalen"}},{"name":"Steigerweg","postalCode":"45739","locality":"Oer-Erkenschwick","municipality":{"key":"05562028","name":"Oer-Erkenschwick, Stadt","type":"Stadt"},"district":{"key":"05562","name":"Recklinghausen","type":"Kreis"},"federalState":{"key":"05","name":"Nordrhein-Westfalen"}},{"name":"Steinacker","postalCode":"45739","locality":"Oer-Erkenschwick","municipality":{"key":"05562028","name":"Oer-Erkenschwick, Stadt","type":"Stadt"},"district":{"key":"05562","name":"Recklinghausen","type":"Kreis"},"federalState":{"key":"05","name":"Nordrhein-Westfalen"}},{"name":"Steinrapener Weg","postalCode":"45739","locality":"Oer-Erkenschwick","municipality":{"key":"05562028","name":"Oer-Erkenschwick, Stadt","type":"Stadt"},"district":{"key":"05562","name":"Recklinghausen","type":"Kreis"},"federalState":{"key":"05","name":"Nordrhein-Westfalen"}},{"name":"Stettiner Str.","postalCode":"45739","locality":"Oer-Erkenschwick","municipality":{"key":"05562028","name":"Oer-Erkenschwick, Stadt","type":"Stadt"},"district":{"key":"05562","name":"Recklinghausen","type":"Kreis"},"federalState":{"key":"05","name":"Nordrhein-Westfalen"}},{"name":"Steverstr.","postalCode":"45739","locality":"Oer-Erkenschwick","municipality":{"key":"05562028","name":"Oer-Erkenschwick, Stadt","type":"Stadt"},"district":{"key":"05562","name":"Recklinghausen","type":"Kreis"},"federalState":{"key":"05","name":"Nordrhein-Westfalen"}},{"name":"Stimbergstr.","postalCode":"45739","locality":"Oer-Erkenschwick","municipality":{"key":"05562028","name":"Oer-Erkenschwick, Stadt","type":"Stadt"},"district":{"key":"05562","name":"Recklinghausen","type":"Kreis"},"federalState":{"key":"05","name":"Nordrhein-Westfalen"}},{"name":"Talstr.","postalCode":"45739","locality":"Oer-Erkenschwick","municipality":{"key":"05562028","name":"Oer-Erkenschwick, Stadt","type":"Stadt"},"district":{"key":"05562","name":"Recklinghausen","type":"Kreis"},"federalState":{"key":"05","name":"Nordrhein-Westfalen"}},{"name":"Tannenweg","postalCode":"45739","locality":"Oer-Erkenschwick","municipality":{"key":"05562028","name":"Oer-Erkenschwick, Stadt","type":"Stadt"},"district":{"key":"05562","name":"Recklinghausen","type":"Kreis"},"federalState":{"key":"05","name":"Nordrhein-Westfalen"}},{"name":"Taubengasse","postalCode":"45739","locality":"Oer-Erkenschwick","municipality":{"key":"05562028","name":"Oer-Erkenschwick, Stadt","type":"Stadt"},"district":{"key":"05562","name":"Recklinghausen","type":"Kreis"},"federalState":{"key":"05","name":"Nordrhein-Westfalen"}},{"name":"Theodorstr.","postalCode":"45739","locality":"Oer-Erkenschwick","municipality":{"key":"05562028","name":"Oer-Erkenschwick, Stadt","type":"Stadt"},"district":{"key":"05562","name":"Recklinghausen","type":"Kreis"},"federalState":{"key":"05","name":"Nordrhein-Westfalen"}},{"name":"Tulpenweg","postalCode":"45739","locality":"Oer-Erkenschwick","municipality":{"key":"05562028","name":"Oer-Erkenschwick, Stadt","type":"Stadt"},"district":{"key":"05562","name":"Recklinghausen","type":"Kreis"},"federalState":{"key":"05","name":"Nordrhein-Westfalen"}},{"name":"Uferweg","postalCode":"45739","locality":"Oer-Erkenschwick","municipality":{"key":"05562028","name":"Oer-Erkenschwick, Stadt","type":"Stadt"},"district":{"key":"05562","name":"Recklinghausen","type":"Kreis"},"federalState":{"key":"05","name":"Nordrhein-Westfalen"}},{"name":"Uhlandstr.","postalCode":"45739","locality":"Oer-Erkenschwick","municipality":{"key":"05562028","name":"Oer-Erkenschwick, Stadt","type":"Stadt"},"district":{"key":"05562","name":"Recklinghausen","type":"Kreis"},"federalState":{"key":"05","name":"Nordrhein-Westfalen"}},{"name":"Ulmenstr.","postalCode":"45739","locality":"Oer-Erkenschwick","municipality":{"key":"05562028","name":"Oer-Erkenschwick, Stadt","type":"Stadt"},"district":{"key":"05562","name":"Recklinghausen","type":"Kreis"},"federalState":{"key":"05","name":"Nordrhein-Westfalen"}},{"name":"Veilchenweg","postalCode":"45739","locality":"Oer-Erkenschwick","municipality":{"key":"05562028","name":"Oer-Erkenschwick, Stadt","type":"Stadt"},"district":{"key":"05562","name":"Recklinghausen","type":"Kreis"},"federalState":{"key":"05","name":"Nordrhein-Westfalen"}},{"name":"Verbandsstr.","postalCode":"45739","locality":"Oer-Erkenschwick","municipality":{"key":"05562028","name":"Oer-Erkenschwick, Stadt","type":"Stadt"},"district":{"key":"05562","name":"Recklinghausen","type":"Kreis"},"federalState":{"key":"05","name":"Nordrhein-Westfalen"}},{"name":"Verbindungsstr.","postalCode":"45739","locality":"Oer-Erkenschwick","municipality":{"key":"05562028","name":"Oer-Erkenschwick, Stadt","type":"Stadt"},"district":{"key":"05562","name":"Recklinghausen","type":"Kreis"},"federalState":{"key":"05","name":"Nordrhein-Westfalen"}},{"name":"Von-Waldthausen-Str.","postalCode":"45739","locality":"Oer-Erkenschwick","municipality":{"key":"05562028","name":"Oer-Erkenschwick, Stadt","type":"Stadt"},"district":{"key":"05562","name":"Recklinghausen","type":"Kreis"},"federalState":{"key":"05","name":"Nordrhein-Westfalen"}},{"name":"Voßacker","postalCode":"45739","locality":"Oer-Erkenschwick","municipality":{"key":"05562028","name":"Oer-Erkenschwick, Stadt","type":"Stadt"},"district":{"key":"05562","name":"Recklinghausen","type":"Kreis"},"federalState":{"key":"05","name":"Nordrhein-Westfalen"}},{"name":"Wacholderweg","postalCode":"45739","locality":"Oer-Erkenschwick","municipality":{"key":"05562028","name":"Oer-Erkenschwick, Stadt","type":"Stadt"},"district":{"key":"05562","name":"Recklinghausen","type":"Kreis"},"federalState":{"key":"05","name":"Nordrhein-Westfalen"}},{"name":"Waldenburger Str.","postalCode":"45739","locality":"Oer-Erkenschwick","municipality":{"key":"05562028","name":"Oer-Erkenschwick, Stadt","type":"Stadt"},"district":{"key":"05562","name":"Recklinghausen","type":"Kreis"},"federalState":{"key":"05","name":"Nordrhein-Westfalen"}},{"name":"Waldstr.","postalCode":"45739","locality":"Oer-Erkenschwick","municipality":{"key":"05562028","name":"Oer-Erkenschwick, Stadt","type":"Stadt"},"district":{"key":"05562","name":"Recklinghausen","type":"Kreis"},"federalState":{"key":"05","name":"Nordrhein-Westfalen"}},{"name":"Walterstr.","postalCode":"45739","locality":"Oer-Erkenschwick","municipality":{"key":"05562028","name":"Oer-Erkenschwick, Stadt","type":"Stadt"},"district":{"key":"05562","name":"Recklinghausen","type":"Kreis"},"federalState":{"key":"05","name":"Nordrhein-Westfalen"}},{"name":"Weichselstr.","postalCode":"45739","locality":"Oer-Erkenschwick","municipality":{"key":"05562028","name":"Oer-Erkenschwick, Stadt","type":"Stadt"},"district":{"key":"05562","name":"Recklinghausen","type":"Kreis"},"federalState":{"key":"05","name":"Nordrhein-Westfalen"}},{"name":"Weidenstr.","postalCode":"45739","locality":"Oer-Erkenschwick","municipality":{"key":"05562028","name":"Oer-Erkenschwick, Stadt","type":"Stadt"},"district":{"key":"05562","name":"Recklinghausen","type":"Kreis"},"federalState":{"key":"05","name":"Nordrhein-Westfalen"}},{"name":"Werderstr.","postalCode":"45739","locality":"Oer-Erkenschwick","municipality":{"key":"05562028","name":"Oer-Erkenschwick, Stadt","type":"Stadt"},"district":{"key":"05562","name":"Recklinghausen","type":"Kreis"},"federalState":{"key":"05","name":"Nordrhein-Westfalen"}},{"name":"Werkstr.","postalCode":"45739","locality":"Oer-Erkenschwick","municipality":{"key":"05562028","name":"Oer-Erkenschwick, Stadt","type":"Stadt"},"district":{"key":"05562","name":"Recklinghausen","type":"Kreis"},"federalState":{"key":"05","name":"Nordrhein-Westfalen"}},{"name":"Weserstr.","postalCode":"45739","locality":"Oer-Erkenschwick","municipality":{"key":"05562028","name":"Oer-Erkenschwick, Stadt","type":"Stadt"},"district":{"key":"05562","name":"Recklinghausen","type":"Kreis"},"federalState":{"key":"05","name":"Nordrhein-Westfalen"}},{"name":"Westerbachstr.","postalCode":"45739","locality":"Oer-Erkenschwick","municipality":{"key":"05562028","name":"Oer-Erkenschwick, Stadt","type":"Stadt"},"district":{"key":"05562","name":"Recklinghausen","type":"Kreis"},"federalState":{"key":"05","name":"Nordrhein-Westfalen"}},{"name":"Westfalenring","postalCode":"45739","locality":"Oer-Erkenschwick","municipality":{"key":"05562028","name":"Oer-Erkenschwick, Stadt","type":"Stadt"},"district":{"key":"05562","name":"Recklinghausen","type":"Kreis"},"federalState":{"key":"05","name":"Nordrhein-Westfalen"}},{"name":"Wiechertstr.","postalCode":"45739","locality":"Oer-Erkenschwick","municipality":{"key":"05562028","name":"Oer-Erkenschwick, Stadt","type":"Stadt"},"district":{"key":"05562","name":"Recklinghausen","type":"Kreis"},"federalState":{"key":"05","name":"Nordrhein-Westfalen"}},{"name":"Wiesenstr.","postalCode":"45739","locality":"Oer-Erkenschwick","municipality":{"key":"05562028","name":"Oer-Erkenschwick, Stadt","type":"Stadt"},"district":{"key":"05562","name":"Recklinghausen","type":"Kreis"},"federalState":{"key":"05","name":"Nordrhein-Westfalen"}},{"name":"Wilhelm-Busch-Str.","postalCode":"45739","locality":"Oer-Erkenschwick","municipality":{"key":"05562028","name":"Oer-Erkenschwick, Stadt","type":"Stadt"},"district":{"key":"05562","name":"Recklinghausen","type":"Kreis"},"federalState":{"key":"05","name":"Nordrhein-Westfalen"}},{"name":"Wilhelmstr.","postalCode":"45739","locality":"Oer-Erkenschwick","municipality":{"key":"05562028","name":"Oer-Erkenschwick, Stadt","type":"Stadt"},"district":{"key":"05562","name":"Recklinghausen","type":"Kreis"},"federalState":{"key":"05","name":"Nordrhein-Westfalen"}},{"name":"Winkelfeld","postalCode":"45739","locality":"Oer-Erkenschwick","municipality":{"key":"05562028","name":"Oer-Erkenschwick, Stadt","type":"Stadt"},"district":{"key":"05562","name":"Recklinghausen","type":"Kreis"},"federalState":{"key":"05","name":"Nordrhein-Westfalen"}},{"name":"Wittekindstr.","postalCode":"45739","locality":"Oer-Erkenschwick","municipality":{"key":"05562028","name":"Oer-Erkenschwick, Stadt","type":"Stadt"},"district":{"key":"05562","name":"Recklinghausen","type":"Kreis"},"federalState":{"key":"05","name":"Nordrhein-Westfalen"}},{"name":"Wittlohstr.","postalCode":"45739","locality":"Oer-Erkenschwick","municipality":{"key":"05562028","name":"Oer-Erkenschwick, Stadt","type":"Stadt"},"district":{"key":"05562","name":"Recklinghausen","type":"Kreis"},"federalState":{"key":"05","name":"Nordrhein-Westfalen"}},{"name":"Zillestr.","postalCode":"45739","locality":"Oer-Erkenschwick","municipality":{"key":"05562028","name":"Oer-Erkenschwick, Stadt","type":"Stadt"},"district":{"key":"05562","name":"Recklinghausen","type":"Kreis"},"federalState":{"key":"05","name":"Nordrhein-Westfalen"}},{"name":"Ölpfad","postalCode":"45665","locality":"Recklinghausen","municipality":{"key":"05562032","name":"Recklinghausen, Stadt","type":"Stadt"},"district":{"key":"05562","name":"Recklinghausen","type":"Kreis"},"federalState":{"key":"05","name":"Nordrhein-Westfalen"}},]