[{"name":"Alte Hauptstr.","postalCode":"76848","locality":"Wilgartswiesen","municipality":{"key":"07340057","name":"Wilgartswiesen","type":"Kreisangehörige_Gemeinde"},"district":{"key":"07340","name":"Südwestpfalz","type":"Landkreis"},"federalState":{"key":"07","name":"Rheinland-Pfalz"}},{"name":"Alte Schulstr.","postalCode":"76848","locality":"Wilgartswiesen","municipality":{"key":"07340057","name":"Wilgartswiesen","type":"Kreisangehörige_Gemeinde"},"district":{"key":"07340","name":"Südwestpfalz","type":"Landkreis"},"federalState":{"key":"07","name":"Rheinland-Pfalz"}},{"name":"Am Fahrnberg","postalCode":"76848","locality":"Wilgartswiesen","municipality":{"key":"07340057","name":"Wilgartswiesen","type":"Kreisangehörige_Gemeinde"},"district":{"key":"07340","name":"Südwestpfalz","type":"Landkreis"},"federalState":{"key":"07","name":"Rheinland-Pfalz"}},{"name":"Am Hirschhorn","postalCode":"76848","locality":"Wilgartswiesen","municipality":{"key":"07340057","name":"Wilgartswiesen","type":"Kreisangehörige_Gemeinde"},"district":{"key":"07340","name":"Südwestpfalz","type":"Landkreis"},"federalState":{"key":"07","name":"Rheinland-Pfalz"}},{"name":"Austr.","postalCode":"76848","locality":"Wilgartswiesen","municipality":{"key":"07340057","name":"Wilgartswiesen","type":"Kreisangehörige_Gemeinde"},"district":{"key":"07340","name":"Südwestpfalz","type":"Landkreis"},"federalState":{"key":"07","name":"Rheinland-Pfalz"}},{"name":"Bahnhofstr.","postalCode":"76848","locality":"Wilgartswiesen","municipality":{"key":"07340057","name":"Wilgartswiesen","type":"Kreisangehörige_Gemeinde"},"district":{"key":"07340","name":"Südwestpfalz","type":"Landkreis"},"federalState":{"key":"07","name":"Rheinland-Pfalz"}},{"name":"Breitenbergstr.","postalCode":"76848","locality":"Wilgartswiesen","municipality":{"key":"07340057","name":"Wilgartswiesen","type":"Kreisangehörige_Gemeinde"},"district":{"key":"07340","name":"Südwestpfalz","type":"Landkreis"},"federalState":{"key":"07","name":"Rheinland-Pfalz"}},{"name":"Burgstr.","postalCode":"76848","locality":"Wilgartswiesen","municipality":{"key":"07340057","name":"Wilgartswiesen","type":"Kreisangehörige_Gemeinde"},"district":{"key":"07340","name":"Südwestpfalz","type":"Landkreis"},"federalState":{"key":"07","name":"Rheinland-Pfalz"}},{"name":"Dammweg","postalCode":"76848","locality":"Wilgartswiesen","municipality":{"key":"07340057","name":"Wilgartswiesen","type":"Kreisangehörige_Gemeinde"},"district":{"key":"07340","name":"Südwestpfalz","type":"Landkreis"},"federalState":{"key":"07","name":"Rheinland-Pfalz"}},{"name":"Falkenburgermühle","postalCode":"76848","locality":"Wilgartswiesen","municipality":{"key":"07340057","name":"Wilgartswiesen","type":"Kreisangehörige_Gemeinde"},"district":{"key":"07340","name":"Südwestpfalz","type":"Landkreis"},"federalState":{"key":"07","name":"Rheinland-Pfalz"}},{"name":"Flitschbergstr.","postalCode":"76848","locality":"Wilgartswiesen","municipality":{"key":"07340057","name":"Wilgartswiesen","type":"Kreisangehörige_Gemeinde"},"district":{"key":"07340","name":"Südwestpfalz","type":"Landkreis"},"federalState":{"key":"07","name":"Rheinland-Pfalz"}},{"name":"Friedhofstr.","postalCode":"76848","locality":"Wilgartswiesen","municipality":{"key":"07340057","name":"Wilgartswiesen","type":"Kreisangehörige_Gemeinde"},"district":{"key":"07340","name":"Südwestpfalz","type":"Landkreis"},"federalState":{"key":"07","name":"Rheinland-Pfalz"}},{"name":"Hauptstr.","postalCode":"76848","locality":"Wilgartswiesen","municipality":{"key":"07340057","name":"Wilgartswiesen","type":"Kreisangehörige_Gemeinde"},"district":{"key":"07340","name":"Südwestpfalz","type":"Landkreis"},"federalState":{"key":"07","name":"Rheinland-Pfalz"}},{"name":"Helmut-Wölfel-Weg","postalCode":"76848","locality":"Wilgartswiesen","municipality":{"key":"07340057","name":"Wilgartswiesen","type":"Kreisangehörige_Gemeinde"},"district":{"key":"07340","name":"Südwestpfalz","type":"Landkreis"},"federalState":{"key":"07","name":"Rheinland-Pfalz"}},{"name":"Herrengasse","postalCode":"76848","locality":"Wilgartswiesen","municipality":{"key":"07340057","name":"Wilgartswiesen","type":"Kreisangehörige_Gemeinde"},"district":{"key":"07340","name":"Südwestpfalz","type":"Landkreis"},"federalState":{"key":"07","name":"Rheinland-Pfalz"}},{"name":"Hohlstr.","postalCode":"76848","locality":"Wilgartswiesen","municipality":{"key":"07340057","name":"Wilgartswiesen","type":"Kreisangehörige_Gemeinde"},"district":{"key":"07340","name":"Südwestpfalz","type":"Landkreis"},"federalState":{"key":"07","name":"Rheinland-Pfalz"}},{"name":"In den Bergäckern","postalCode":"76848","locality":"Wilgartswiesen","municipality":{"key":"07340057","name":"Wilgartswiesen","type":"Kreisangehörige_Gemeinde"},"district":{"key":"07340","name":"Südwestpfalz","type":"Landkreis"},"federalState":{"key":"07","name":"Rheinland-Pfalz"}},{"name":"Kuhpfad","postalCode":"76848","locality":"Wilgartswiesen","municipality":{"key":"07340057","name":"Wilgartswiesen","type":"Kreisangehörige_Gemeinde"},"district":{"key":"07340","name":"Südwestpfalz","type":"Landkreis"},"federalState":{"key":"07","name":"Rheinland-Pfalz"}},{"name":"Kurt Reinhard Pfad","postalCode":"76848","locality":"Wilgartswiesen","municipality":{"key":"07340057","name":"Wilgartswiesen","type":"Kreisangehörige_Gemeinde"},"district":{"key":"07340","name":"Südwestpfalz","type":"Landkreis"},"federalState":{"key":"07","name":"Rheinland-Pfalz"}},{"name":"Mühlweg","postalCode":"76848","locality":"Wilgartswiesen","municipality":{"key":"07340057","name":"Wilgartswiesen","type":"Kreisangehörige_Gemeinde"},"district":{"key":"07340","name":"Südwestpfalz","type":"Landkreis"},"federalState":{"key":"07","name":"Rheinland-Pfalz"}},{"name":"Ortsstr.","postalCode":"76848","locality":"Wilgartswiesen","municipality":{"key":"07340057","name":"Wilgartswiesen","type":"Kreisangehörige_Gemeinde"},"district":{"key":"07340","name":"Südwestpfalz","type":"Landkreis"},"federalState":{"key":"07","name":"Rheinland-Pfalz"}},{"name":"Ostergasse","postalCode":"76848","locality":"Wilgartswiesen","municipality":{"key":"07340057","name":"Wilgartswiesen","type":"Kreisangehörige_Gemeinde"},"district":{"key":"07340","name":"Südwestpfalz","type":"Landkreis"},"federalState":{"key":"07","name":"Rheinland-Pfalz"}},{"name":"Rauhbergstr.","postalCode":"76848","locality":"Wilgartswiesen","municipality":{"key":"07340057","name":"Wilgartswiesen","type":"Kreisangehörige_Gemeinde"},"district":{"key":"07340","name":"Südwestpfalz","type":"Landkreis"},"federalState":{"key":"07","name":"Rheinland-Pfalz"}},{"name":"Riederplatz","postalCode":"76848","locality":"Wilgartswiesen","municipality":{"key":"07340057","name":"Wilgartswiesen","type":"Kreisangehörige_Gemeinde"},"district":{"key":"07340","name":"Südwestpfalz","type":"Landkreis"},"federalState":{"key":"07","name":"Rheinland-Pfalz"}},{"name":"Ringstr.","postalCode":"76848","locality":"Wilgartswiesen","municipality":{"key":"07340057","name":"Wilgartswiesen","type":"Kreisangehörige_Gemeinde"},"district":{"key":"07340","name":"Südwestpfalz","type":"Landkreis"},"federalState":{"key":"07","name":"Rheinland-Pfalz"}},{"name":"Schloßgartenstr.","postalCode":"76848","locality":"Wilgartswiesen","municipality":{"key":"07340057","name":"Wilgartswiesen","type":"Kreisangehörige_Gemeinde"},"district":{"key":"07340","name":"Südwestpfalz","type":"Landkreis"},"federalState":{"key":"07","name":"Rheinland-Pfalz"}},{"name":"Schulstr.","postalCode":"76848","locality":"Wilgartswiesen","municipality":{"key":"07340057","name":"Wilgartswiesen","type":"Kreisangehörige_Gemeinde"},"district":{"key":"07340","name":"Südwestpfalz","type":"Landkreis"},"federalState":{"key":"07","name":"Rheinland-Pfalz"}},{"name":"Schuppertstr.","postalCode":"76848","locality":"Wilgartswiesen","municipality":{"key":"07340057","name":"Wilgartswiesen","type":"Kreisangehörige_Gemeinde"},"district":{"key":"07340","name":"Südwestpfalz","type":"Landkreis"},"federalState":{"key":"07","name":"Rheinland-Pfalz"}},{"name":"Sportplatzstr.","postalCode":"76848","locality":"Wilgartswiesen","municipality":{"key":"07340057","name":"Wilgartswiesen","type":"Kreisangehörige_Gemeinde"},"district":{"key":"07340","name":"Südwestpfalz","type":"Landkreis"},"federalState":{"key":"07","name":"Rheinland-Pfalz"}},{"name":"Tiergartenstr.","postalCode":"76848","locality":"Wilgartswiesen","municipality":{"key":"07340057","name":"Wilgartswiesen","type":"Kreisangehörige_Gemeinde"},"district":{"key":"07340","name":"Südwestpfalz","type":"Landkreis"},"federalState":{"key":"07","name":"Rheinland-Pfalz"}},{"name":"Triftstr.","postalCode":"76848","locality":"Wilgartswiesen","municipality":{"key":"07340057","name":"Wilgartswiesen","type":"Kreisangehörige_Gemeinde"},"district":{"key":"07340","name":"Südwestpfalz","type":"Landkreis"},"federalState":{"key":"07","name":"Rheinland-Pfalz"}},{"name":"Waldstr.","postalCode":"76848","locality":"Wilgartswiesen","municipality":{"key":"07340057","name":"Wilgartswiesen","type":"Kreisangehörige_Gemeinde"},"district":{"key":"07340","name":"Südwestpfalz","type":"Landkreis"},"federalState":{"key":"07","name":"Rheinland-Pfalz"}},{"name":"Wilgartswieser Weg","postalCode":"76848","locality":"Wilgartswiesen","municipality":{"key":"07340057","name":"Wilgartswiesen","type":"Kreisangehörige_Gemeinde"},"district":{"key":"07340","name":"Südwestpfalz","type":"Landkreis"},"federalState":{"key":"07","name":"Rheinland-Pfalz"}},]