[{"name":"Alter Platz","postalCode":"97859","locality":"Wiesthal","municipality":{"key":"09677200","name":"Wiesthal","type":"Kreisangehörige_Gemeinde"},"district":{"key":"09677","name":"Main-Spessart","type":"Landkreis"},"federalState":{"key":"09","name":"Bayern"}},{"name":"Am Bahnhof","postalCode":"97859","locality":"Wiesthal","municipality":{"key":"09677200","name":"Wiesthal","type":"Kreisangehörige_Gemeinde"},"district":{"key":"09677","name":"Main-Spessart","type":"Landkreis"},"federalState":{"key":"09","name":"Bayern"}},{"name":"Am Gleisberg","postalCode":"67472","locality":"Esthal","municipality":{"key":"07332016","name":"Esthal","type":"Kreisangehörige_Gemeinde"},"district":{"key":"07332","name":"Bad Dürkheim","type":"Landkreis"},"federalState":{"key":"07","name":"Rheinland-Pfalz"}},{"name":"Am Kirchberg","postalCode":"97859","locality":"Wiesthal","municipality":{"key":"09677200","name":"Wiesthal","type":"Kreisangehörige_Gemeinde"},"district":{"key":"09677","name":"Main-Spessart","type":"Landkreis"},"federalState":{"key":"09","name":"Bayern"}},{"name":"Am Mühlberg","postalCode":"97859","locality":"Wiesthal","municipality":{"key":"09677200","name":"Wiesthal","type":"Kreisangehörige_Gemeinde"},"district":{"key":"09677","name":"Main-Spessart","type":"Landkreis"},"federalState":{"key":"09","name":"Bayern"}},{"name":"Am Münzberg","postalCode":"97859","locality":"Wiesthal","municipality":{"key":"09677200","name":"Wiesthal","type":"Kreisangehörige_Gemeinde"},"district":{"key":"09677","name":"Main-Spessart","type":"Landkreis"},"federalState":{"key":"09","name":"Bayern"}},{"name":"Am Sportplatz","postalCode":"97859","locality":"Wiesthal","municipality":{"key":"09677200","name":"Wiesthal","type":"Kreisangehörige_Gemeinde"},"district":{"key":"09677","name":"Main-Spessart","type":"Landkreis"},"federalState":{"key":"09","name":"Bayern"}},{"name":"Am Steinbruch","postalCode":"97859","locality":"Wiesthal","municipality":{"key":"09677200","name":"Wiesthal","type":"Kreisangehörige_Gemeinde"},"district":{"key":"09677","name":"Main-Spessart","type":"Landkreis"},"federalState":{"key":"09","name":"Bayern"}},{"name":"Aubachbrücke","postalCode":"97859","locality":"Wiesthal","municipality":{"key":"09677200","name":"Wiesthal","type":"Kreisangehörige_Gemeinde"},"district":{"key":"09677","name":"Main-Spessart","type":"Landkreis"},"federalState":{"key":"09","name":"Bayern"}},{"name":"Bachweg","postalCode":"97859","locality":"Wiesthal","municipality":{"key":"09677200","name":"Wiesthal","type":"Kreisangehörige_Gemeinde"},"district":{"key":"09677","name":"Main-Spessart","type":"Landkreis"},"federalState":{"key":"09","name":"Bayern"}},{"name":"Bahnhofstr.","postalCode":"67466","locality":"Esthal","municipality":{"key":"07332016","name":"Esthal","type":"Kreisangehörige_Gemeinde"},"district":{"key":"07332","name":"Bad Dürkheim","type":"Landkreis"},"federalState":{"key":"07","name":"Rheinland-Pfalz"}},{"name":"Bahnhofstr.","postalCode":"97859","locality":"Wiesthal","municipality":{"key":"09677200","name":"Wiesthal","type":"Kreisangehörige_Gemeinde"},"district":{"key":"09677","name":"Main-Spessart","type":"Landkreis"},"federalState":{"key":"09","name":"Bayern"}},{"name":"Bergstr.","postalCode":"67472","locality":"Esthal","municipality":{"key":"07332016","name":"Esthal","type":"Kreisangehörige_Gemeinde"},"district":{"key":"07332","name":"Bad Dürkheim","type":"Landkreis"},"federalState":{"key":"07","name":"Rheinland-Pfalz"}},{"name":"Bergstr.","postalCode":"97859","locality":"Wiesthal","municipality":{"key":"09677200","name":"Wiesthal","type":"Kreisangehörige_Gemeinde"},"district":{"key":"09677","name":"Main-Spessart","type":"Landkreis"},"federalState":{"key":"09","name":"Bayern"}},{"name":"Birkenweg","postalCode":"97859","locality":"Wiesthal","municipality":{"key":"09677200","name":"Wiesthal","type":"Kreisangehörige_Gemeinde"},"district":{"key":"09677","name":"Main-Spessart","type":"Landkreis"},"federalState":{"key":"09","name":"Bayern"}},{"name":"Blumenstr.","postalCode":"67472","locality":"Esthal","municipality":{"key":"07332016","name":"Esthal","type":"Kreisangehörige_Gemeinde"},"district":{"key":"07332","name":"Bad Dürkheim","type":"Landkreis"},"federalState":{"key":"07","name":"Rheinland-Pfalz"}},{"name":"Breitenbachstr.","postalCode":"67472","locality":"Esthal","municipality":{"key":"07332016","name":"Esthal","type":"Kreisangehörige_Gemeinde"},"district":{"key":"07332","name":"Bad Dürkheim","type":"Landkreis"},"federalState":{"key":"07","name":"Rheinland-Pfalz"}},{"name":"Breitenstein","postalCode":"67466","locality":"Esthal","municipality":{"key":"07332016","name":"Esthal","type":"Kreisangehörige_Gemeinde"},"district":{"key":"07332","name":"Bad Dürkheim","type":"Landkreis"},"federalState":{"key":"07","name":"Rheinland-Pfalz"}},{"name":"Brückenstr.","postalCode":"97859","locality":"Wiesthal","municipality":{"key":"09677200","name":"Wiesthal","type":"Kreisangehörige_Gemeinde"},"district":{"key":"09677","name":"Main-Spessart","type":"Landkreis"},"federalState":{"key":"09","name":"Bayern"}},{"name":"Brunnenstr.","postalCode":"67472","locality":"Esthal","municipality":{"key":"07332016","name":"Esthal","type":"Kreisangehörige_Gemeinde"},"district":{"key":"07332","name":"Bad Dürkheim","type":"Landkreis"},"federalState":{"key":"07","name":"Rheinland-Pfalz"}},{"name":"Buchenweg","postalCode":"97859","locality":"Wiesthal","municipality":{"key":"09677200","name":"Wiesthal","type":"Kreisangehörige_Gemeinde"},"district":{"key":"09677","name":"Main-Spessart","type":"Landkreis"},"federalState":{"key":"09","name":"Bayern"}},{"name":"Carl-Korbmann-Str.","postalCode":"67098","locality":"Bad Dürkheim","municipality":{"key":"07332002","name":"Bad Dürkheim, Stadt","type":"Stadt"},"district":{"key":"07332","name":"Bad Dürkheim","type":"Landkreis"},"federalState":{"key":"07","name":"Rheinland-Pfalz"}},{"name":"Chemnitzer Str.","postalCode":"67098","locality":"Bad Dürkheim","municipality":{"key":"07332002","name":"Bad Dürkheim, Stadt","type":"Stadt"},"district":{"key":"07332","name":"Bad Dürkheim","type":"Landkreis"},"federalState":{"key":"07","name":"Rheinland-Pfalz"}},{"name":"Dorfstr.","postalCode":"97859","locality":"Wiesthal","municipality":{"key":"09677200","name":"Wiesthal","type":"Kreisangehörige_Gemeinde"},"district":{"key":"09677","name":"Main-Spessart","type":"Landkreis"},"federalState":{"key":"09","name":"Bayern"}},{"name":"Engersgrundstr.","postalCode":"97859","locality":"Wiesthal","municipality":{"key":"09677200","name":"Wiesthal","type":"Kreisangehörige_Gemeinde"},"district":{"key":"09677","name":"Main-Spessart","type":"Landkreis"},"federalState":{"key":"09","name":"Bayern"}},{"name":"Entengasse","postalCode":"67472","locality":"Esthal","municipality":{"key":"07332016","name":"Esthal","type":"Kreisangehörige_Gemeinde"},"district":{"key":"07332","name":"Bad Dürkheim","type":"Landkreis"},"federalState":{"key":"07","name":"Rheinland-Pfalz"}},{"name":"Erfensteiner Dorfplatz","postalCode":"67466","locality":"Esthal","municipality":{"key":"07332016","name":"Esthal","type":"Kreisangehörige_Gemeinde"},"district":{"key":"07332","name":"Bad Dürkheim","type":"Landkreis"},"federalState":{"key":"07","name":"Rheinland-Pfalz"}},{"name":"Esthaler Str.","postalCode":"67472","locality":"Esthal","municipality":{"key":"07332016","name":"Esthal","type":"Kreisangehörige_Gemeinde"},"district":{"key":"07332","name":"Bad Dürkheim","type":"Landkreis"},"federalState":{"key":"07","name":"Rheinland-Pfalz"}},{"name":"Fichtenweg","postalCode":"97859","locality":"Wiesthal","municipality":{"key":"09677200","name":"Wiesthal","type":"Kreisangehörige_Gemeinde"},"district":{"key":"09677","name":"Main-Spessart","type":"Landkreis"},"federalState":{"key":"09","name":"Bayern"}},{"name":"Forststr.","postalCode":"97859","locality":"Wiesthal","municipality":{"key":"09677200","name":"Wiesthal","type":"Kreisangehörige_Gemeinde"},"district":{"key":"09677","name":"Main-Spessart","type":"Landkreis"},"federalState":{"key":"09","name":"Bayern"}},{"name":"Friedhofstr.","postalCode":"67472","locality":"Esthal","municipality":{"key":"07332016","name":"Esthal","type":"Kreisangehörige_Gemeinde"},"district":{"key":"07332","name":"Bad Dürkheim","type":"Landkreis"},"federalState":{"key":"07","name":"Rheinland-Pfalz"}},{"name":"Furthweg","postalCode":"97859","locality":"Wiesthal","municipality":{"key":"09677200","name":"Wiesthal","type":"Kreisangehörige_Gemeinde"},"district":{"key":"09677","name":"Main-Spessart","type":"Landkreis"},"federalState":{"key":"09","name":"Bayern"}},{"name":"Gartenstr.","postalCode":"67472","locality":"Esthal","municipality":{"key":"07332016","name":"Esthal","type":"Kreisangehörige_Gemeinde"},"district":{"key":"07332","name":"Bad Dürkheim","type":"Landkreis"},"federalState":{"key":"07","name":"Rheinland-Pfalz"}},{"name":"Grabengasse","postalCode":"97859","locality":"Wiesthal","municipality":{"key":"09677200","name":"Wiesthal","type":"Kreisangehörige_Gemeinde"},"district":{"key":"09677","name":"Main-Spessart","type":"Landkreis"},"federalState":{"key":"09","name":"Bayern"}},{"name":"Gräfenbergstr.","postalCode":"97859","locality":"Wiesthal","municipality":{"key":"09677200","name":"Wiesthal","type":"Kreisangehörige_Gemeinde"},"district":{"key":"09677","name":"Main-Spessart","type":"Landkreis"},"federalState":{"key":"09","name":"Bayern"}},{"name":"Graupnerstr.","postalCode":"97859","locality":"Wiesthal","municipality":{"key":"09677200","name":"Wiesthal","type":"Kreisangehörige_Gemeinde"},"district":{"key":"09677","name":"Main-Spessart","type":"Landkreis"},"federalState":{"key":"09","name":"Bayern"}},{"name":"Grottenweg","postalCode":"97859","locality":"Wiesthal","municipality":{"key":"09677200","name":"Wiesthal","type":"Kreisangehörige_Gemeinde"},"district":{"key":"09677","name":"Main-Spessart","type":"Landkreis"},"federalState":{"key":"09","name":"Bayern"}},{"name":"Grundstr.","postalCode":"97859","locality":"Wiesthal","municipality":{"key":"09677200","name":"Wiesthal","type":"Kreisangehörige_Gemeinde"},"district":{"key":"09677","name":"Main-Spessart","type":"Landkreis"},"federalState":{"key":"09","name":"Bayern"}},{"name":"Haardtstr.","postalCode":"97859","locality":"Wiesthal","municipality":{"key":"09677200","name":"Wiesthal","type":"Kreisangehörige_Gemeinde"},"district":{"key":"09677","name":"Main-Spessart","type":"Landkreis"},"federalState":{"key":"09","name":"Bayern"}},{"name":"Hauptstr.","postalCode":"67472","locality":"Esthal","municipality":{"key":"07332016","name":"Esthal","type":"Kreisangehörige_Gemeinde"},"district":{"key":"07332","name":"Bad Dürkheim","type":"Landkreis"},"federalState":{"key":"07","name":"Rheinland-Pfalz"}},{"name":"Hauptstr.","postalCode":"97859","locality":"Wiesthal","municipality":{"key":"09677200","name":"Wiesthal","type":"Kreisangehörige_Gemeinde"},"district":{"key":"09677","name":"Main-Spessart","type":"Landkreis"},"federalState":{"key":"09","name":"Bayern"}},{"name":"Hirtenweg","postalCode":"97859","locality":"Wiesthal","municipality":{"key":"09677200","name":"Wiesthal","type":"Kreisangehörige_Gemeinde"},"district":{"key":"09677","name":"Main-Spessart","type":"Landkreis"},"federalState":{"key":"09","name":"Bayern"}},{"name":"Hockenruh","postalCode":"97859","locality":"Wiesthal","municipality":{"key":"09677200","name":"Wiesthal","type":"Kreisangehörige_Gemeinde"},"district":{"key":"09677","name":"Main-Spessart","type":"Landkreis"},"federalState":{"key":"09","name":"Bayern"}},{"name":"Hohlweg","postalCode":"67472","locality":"Esthal","municipality":{"key":"07332016","name":"Esthal","type":"Kreisangehörige_Gemeinde"},"district":{"key":"07332","name":"Bad Dürkheim","type":"Landkreis"},"federalState":{"key":"07","name":"Rheinland-Pfalz"}},{"name":"Im Stengerts","postalCode":"97859","locality":"Wiesthal","municipality":{"key":"09677200","name":"Wiesthal","type":"Kreisangehörige_Gemeinde"},"district":{"key":"09677","name":"Main-Spessart","type":"Landkreis"},"federalState":{"key":"09","name":"Bayern"}},{"name":"Iptestal","postalCode":"67466","locality":"Esthal","municipality":{"key":"07332016","name":"Esthal","type":"Kreisangehörige_Gemeinde"},"district":{"key":"07332","name":"Bad Dürkheim","type":"Landkreis"},"federalState":{"key":"07","name":"Rheinland-Pfalz"}},{"name":"Jägerweg","postalCode":"67472","locality":"Esthal","municipality":{"key":"07332016","name":"Esthal","type":"Kreisangehörige_Gemeinde"},"district":{"key":"07332","name":"Bad Dürkheim","type":"Landkreis"},"federalState":{"key":"07","name":"Rheinland-Pfalz"}},{"name":"Kirchstr.","postalCode":"67472","locality":"Esthal","municipality":{"key":"07332016","name":"Esthal","type":"Kreisangehörige_Gemeinde"},"district":{"key":"07332","name":"Bad Dürkheim","type":"Landkreis"},"federalState":{"key":"07","name":"Rheinland-Pfalz"}},{"name":"Kirchstr.","postalCode":"97859","locality":"Wiesthal","municipality":{"key":"09677200","name":"Wiesthal","type":"Kreisangehörige_Gemeinde"},"district":{"key":"09677","name":"Main-Spessart","type":"Landkreis"},"federalState":{"key":"09","name":"Bayern"}},{"name":"Klosterstr.","postalCode":"67472","locality":"Esthal","municipality":{"key":"07332016","name":"Esthal","type":"Kreisangehörige_Gemeinde"},"district":{"key":"07332","name":"Bad Dürkheim","type":"Landkreis"},"federalState":{"key":"07","name":"Rheinland-Pfalz"}},{"name":"Krommenthaler Str.","postalCode":"97859","locality":"Wiesthal","municipality":{"key":"09677200","name":"Wiesthal","type":"Kreisangehörige_Gemeinde"},"district":{"key":"09677","name":"Main-Spessart","type":"Landkreis"},"federalState":{"key":"09","name":"Bayern"}},{"name":"Langer Krummer Weg","postalCode":"67098","locality":"Bad Dürkheim","municipality":{"key":"07332002","name":"Bad Dürkheim, Stadt","type":"Stadt"},"district":{"key":"07332","name":"Bad Dürkheim","type":"Landkreis"},"federalState":{"key":"07","name":"Rheinland-Pfalz"}},{"name":"Langer Wingert","postalCode":"67098","locality":"Bad Dürkheim","municipality":{"key":"07332002","name":"Bad Dürkheim, Stadt","type":"Stadt"},"district":{"key":"07332","name":"Bad Dürkheim","type":"Landkreis"},"federalState":{"key":"07","name":"Rheinland-Pfalz"}},{"name":"Lärchenweg","postalCode":"67098","locality":"Bad Dürkheim","municipality":{"key":"07332002","name":"Bad Dürkheim, Stadt","type":"Stadt"},"district":{"key":"07332","name":"Bad Dürkheim","type":"Landkreis"},"federalState":{"key":"07","name":"Rheinland-Pfalz"}},{"name":"Lavendelweg","postalCode":"67098","locality":"Bad Dürkheim","municipality":{"key":"07332002","name":"Bad Dürkheim, Stadt","type":"Stadt"},"district":{"key":"07332","name":"Bad Dürkheim","type":"Landkreis"},"federalState":{"key":"07","name":"Rheinland-Pfalz"}},{"name":"Leiningerstr.","postalCode":"67098","locality":"Bad Dürkheim","municipality":{"key":"07332002","name":"Bad Dürkheim, Stadt","type":"Stadt"},"district":{"key":"07332","name":"Bad Dürkheim","type":"Landkreis"},"federalState":{"key":"07","name":"Rheinland-Pfalz"}},{"name":"Leistadter Str.","postalCode":"67098","locality":"Bad Dürkheim","municipality":{"key":"07332002","name":"Bad Dürkheim, Stadt","type":"Stadt"},"district":{"key":"07332","name":"Bad Dürkheim","type":"Landkreis"},"federalState":{"key":"07","name":"Rheinland-Pfalz"}},{"name":"Leopoldstr.","postalCode":"67098","locality":"Bad Dürkheim","municipality":{"key":"07332002","name":"Bad Dürkheim, Stadt","type":"Stadt"},"district":{"key":"07332","name":"Bad Dürkheim","type":"Landkreis"},"federalState":{"key":"07","name":"Rheinland-Pfalz"}},{"name":"Limburgstr.","postalCode":"67098","locality":"Bad Dürkheim","municipality":{"key":"07332002","name":"Bad Dürkheim, Stadt","type":"Stadt"},"district":{"key":"07332","name":"Bad Dürkheim","type":"Landkreis"},"federalState":{"key":"07","name":"Rheinland-Pfalz"}},{"name":"Lindenring","postalCode":"67098","locality":"Bad Dürkheim","municipality":{"key":"07332002","name":"Bad Dürkheim, Stadt","type":"Stadt"},"district":{"key":"07332","name":"Bad Dürkheim","type":"Landkreis"},"federalState":{"key":"07","name":"Rheinland-Pfalz"}},{"name":"Lingenfelder Str.","postalCode":"67098","locality":"Bad Dürkheim","municipality":{"key":"07332002","name":"Bad Dürkheim, Stadt","type":"Stadt"},"district":{"key":"07332","name":"Bad Dürkheim","type":"Landkreis"},"federalState":{"key":"07","name":"Rheinland-Pfalz"}},{"name":"Lorbeerweg","postalCode":"67098","locality":"Bad Dürkheim","municipality":{"key":"07332002","name":"Bad Dürkheim, Stadt","type":"Stadt"},"district":{"key":"07332","name":"Bad Dürkheim","type":"Landkreis"},"federalState":{"key":"07","name":"Rheinland-Pfalz"}},{"name":"Ludwig-Strauß-Str.","postalCode":"67098","locality":"Bad Dürkheim","municipality":{"key":"07332002","name":"Bad Dürkheim, Stadt","type":"Stadt"},"district":{"key":"07332","name":"Bad Dürkheim","type":"Landkreis"},"federalState":{"key":"07","name":"Rheinland-Pfalz"}},{"name":"Michelsbergstr.","postalCode":"67472","locality":"Esthal","municipality":{"key":"07332016","name":"Esthal","type":"Kreisangehörige_Gemeinde"},"district":{"key":"07332","name":"Bad Dürkheim","type":"Landkreis"},"federalState":{"key":"07","name":"Rheinland-Pfalz"}},{"name":"Neuer Weg","postalCode":"97859","locality":"Wiesthal","municipality":{"key":"09677200","name":"Wiesthal","type":"Kreisangehörige_Gemeinde"},"district":{"key":"09677","name":"Main-Spessart","type":"Landkreis"},"federalState":{"key":"09","name":"Bayern"}},{"name":"Oberer Finkenpfad","postalCode":"67098","locality":"Bad Dürkheim","municipality":{"key":"07332002","name":"Bad Dürkheim, Stadt","type":"Stadt"},"district":{"key":"07332","name":"Bad Dürkheim","type":"Landkreis"},"federalState":{"key":"07","name":"Rheinland-Pfalz"}},{"name":"Oberes Gaistal","postalCode":"67098","locality":"Bad Dürkheim","municipality":{"key":"07332002","name":"Bad Dürkheim, Stadt","type":"Stadt"},"district":{"key":"07332","name":"Bad Dürkheim","type":"Landkreis"},"federalState":{"key":"07","name":"Rheinland-Pfalz"}},{"name":"Obergasse","postalCode":"67098","locality":"Bad Dürkheim","municipality":{"key":"07332002","name":"Bad Dürkheim, Stadt","type":"Stadt"},"district":{"key":"07332","name":"Bad Dürkheim","type":"Landkreis"},"federalState":{"key":"07","name":"Rheinland-Pfalz"}},{"name":"Oleanderweg","postalCode":"67098","locality":"Bad Dürkheim","municipality":{"key":"07332002","name":"Bad Dürkheim, Stadt","type":"Stadt"},"district":{"key":"07332","name":"Bad Dürkheim","type":"Landkreis"},"federalState":{"key":"07","name":"Rheinland-Pfalz"}},{"name":"Otto-Schmitt-Groß-Str.","postalCode":"67098","locality":"Bad Dürkheim","municipality":{"key":"07332002","name":"Bad Dürkheim, Stadt","type":"Stadt"},"district":{"key":"07332","name":"Bad Dürkheim","type":"Landkreis"},"federalState":{"key":"07","name":"Rheinland-Pfalz"}},{"name":"Partensteiner Str.","postalCode":"97859","locality":"Wiesthal","municipality":{"key":"09677200","name":"Wiesthal","type":"Kreisangehörige_Gemeinde"},"district":{"key":"09677","name":"Main-Spessart","type":"Landkreis"},"federalState":{"key":"09","name":"Bayern"}},{"name":"Ringstr.","postalCode":"97859","locality":"Wiesthal","municipality":{"key":"09677200","name":"Wiesthal","type":"Kreisangehörige_Gemeinde"},"district":{"key":"09677","name":"Main-Spessart","type":"Landkreis"},"federalState":{"key":"09","name":"Bayern"}},{"name":"Rosenstr.","postalCode":"67472","locality":"Esthal","municipality":{"key":"07332016","name":"Esthal","type":"Kreisangehörige_Gemeinde"},"district":{"key":"07332","name":"Bad Dürkheim","type":"Landkreis"},"federalState":{"key":"07","name":"Rheinland-Pfalz"}},{"name":"RW 2 PWV","postalCode":"67472","locality":"Esthal","municipality":{"key":"07332016","name":"Esthal","type":"Kreisangehörige_Gemeinde"},"district":{"key":"07332","name":"Bad Dürkheim","type":"Landkreis"},"federalState":{"key":"07","name":"Rheinland-Pfalz"}},{"name":"RW 2 PWV, WW weiß-grün PWV","postalCode":"67466","locality":"Esthal","municipality":{"key":"07332016","name":"Esthal","type":"Kreisangehörige_Gemeinde"},"district":{"key":"07332","name":"Bad Dürkheim","type":"Landkreis"},"federalState":{"key":"07","name":"Rheinland-Pfalz"}},{"name":"Sattelmühle","postalCode":"67468","locality":"Esthal","municipality":{"key":"07332016","name":"Esthal","type":"Kreisangehörige_Gemeinde"},"district":{"key":"07332","name":"Bad Dürkheim","type":"Landkreis"},"federalState":{"key":"07","name":"Rheinland-Pfalz"}},{"name":"Schankentalstr.","postalCode":"67466","locality":"Esthal","municipality":{"key":"07332016","name":"Esthal","type":"Kreisangehörige_Gemeinde"},"district":{"key":"07332","name":"Bad Dürkheim","type":"Landkreis"},"federalState":{"key":"07","name":"Rheinland-Pfalz"}},{"name":"Schöllersgrund","postalCode":"97859","locality":"Wiesthal","municipality":{"key":"09677200","name":"Wiesthal","type":"Kreisangehörige_Gemeinde"},"district":{"key":"09677","name":"Main-Spessart","type":"Landkreis"},"federalState":{"key":"09","name":"Bayern"}},{"name":"Schulstr.","postalCode":"97859","locality":"Wiesthal","municipality":{"key":"09677200","name":"Wiesthal","type":"Kreisangehörige_Gemeinde"},"district":{"key":"09677","name":"Main-Spessart","type":"Landkreis"},"federalState":{"key":"09","name":"Bayern"}},{"name":"Seewieseneck","postalCode":"97859","locality":"Wiesthal","municipality":{"key":"09677200","name":"Wiesthal","type":"Kreisangehörige_Gemeinde"},"district":{"key":"09677","name":"Main-Spessart","type":"Landkreis"},"federalState":{"key":"09","name":"Bayern"}},{"name":"Sonnenrain","postalCode":"97859","locality":"Wiesthal","municipality":{"key":"09677200","name":"Wiesthal","type":"Kreisangehörige_Gemeinde"},"district":{"key":"09677","name":"Main-Spessart","type":"Landkreis"},"federalState":{"key":"09","name":"Bayern"}},{"name":"Spangenbergstr.","postalCode":"67466","locality":"Esthal","municipality":{"key":"07332016","name":"Esthal","type":"Kreisangehörige_Gemeinde"},"district":{"key":"07332","name":"Bad Dürkheim","type":"Landkreis"},"federalState":{"key":"07","name":"Rheinland-Pfalz"}},{"name":"Spertelsweg","postalCode":"97859","locality":"Wiesthal","municipality":{"key":"09677200","name":"Wiesthal","type":"Kreisangehörige_Gemeinde"},"district":{"key":"09677","name":"Main-Spessart","type":"Landkreis"},"federalState":{"key":"09","name":"Bayern"}},{"name":"Steinstr.","postalCode":"67472","locality":"Esthal","municipality":{"key":"07332016","name":"Esthal","type":"Kreisangehörige_Gemeinde"},"district":{"key":"07332","name":"Bad Dürkheim","type":"Landkreis"},"federalState":{"key":"07","name":"Rheinland-Pfalz"}},{"name":"Talstr.","postalCode":"67466","locality":"Esthal","municipality":{"key":"07332016","name":"Esthal","type":"Kreisangehörige_Gemeinde"},"district":{"key":"07332","name":"Bad Dürkheim","type":"Landkreis"},"federalState":{"key":"07","name":"Rheinland-Pfalz"}},{"name":"Tannenstr.","postalCode":"67472","locality":"Esthal","municipality":{"key":"07332016","name":"Esthal","type":"Kreisangehörige_Gemeinde"},"district":{"key":"07332","name":"Bad Dürkheim","type":"Landkreis"},"federalState":{"key":"07","name":"Rheinland-Pfalz"}},{"name":"Tannenweg","postalCode":"97859","locality":"Wiesthal","municipality":{"key":"09677200","name":"Wiesthal","type":"Kreisangehörige_Gemeinde"},"district":{"key":"09677","name":"Main-Spessart","type":"Landkreis"},"federalState":{"key":"09","name":"Bayern"}},{"name":"Totenkopfstr.","postalCode":"67466","locality":"Esthal","municipality":{"key":"07332016","name":"Esthal","type":"Kreisangehörige_Gemeinde"},"district":{"key":"07332","name":"Bad Dürkheim","type":"Landkreis"},"federalState":{"key":"07","name":"Rheinland-Pfalz"}},{"name":"Unter der Hardenburg","postalCode":"67098","locality":"Bad Dürkheim","municipality":{"key":"07332002","name":"Bad Dürkheim, Stadt","type":"Stadt"},"district":{"key":"07332","name":"Bad Dürkheim","type":"Landkreis"},"federalState":{"key":"07","name":"Rheinland-Pfalz"}},{"name":"Unteres Gaistal","postalCode":"67098","locality":"Bad Dürkheim","municipality":{"key":"07332002","name":"Bad Dürkheim, Stadt","type":"Stadt"},"district":{"key":"07332","name":"Bad Dürkheim","type":"Landkreis"},"federalState":{"key":"07","name":"Rheinland-Pfalz"}},{"name":"Valentin-Ostertag-Str.","postalCode":"67098","locality":"Bad Dürkheim","municipality":{"key":"07332002","name":"Bad Dürkheim, Stadt","type":"Stadt"},"district":{"key":"07332","name":"Bad Dürkheim","type":"Landkreis"},"federalState":{"key":"07","name":"Rheinland-Pfalz"}},{"name":"Vigilienstr.","postalCode":"67098","locality":"Bad Dürkheim","municipality":{"key":"07332002","name":"Bad Dürkheim, Stadt","type":"Stadt"},"district":{"key":"07332","name":"Bad Dürkheim","type":"Landkreis"},"federalState":{"key":"07","name":"Rheinland-Pfalz"}},{"name":"Waldstr.","postalCode":"67472","locality":"Esthal","municipality":{"key":"07332016","name":"Esthal","type":"Kreisangehörige_Gemeinde"},"district":{"key":"07332","name":"Bad Dürkheim","type":"Landkreis"},"federalState":{"key":"07","name":"Rheinland-Pfalz"}},{"name":"Werner-Wenzel-Str.","postalCode":"97859","locality":"Wiesthal","municipality":{"key":"09677200","name":"Wiesthal","type":"Kreisangehörige_Gemeinde"},"district":{"key":"09677","name":"Main-Spessart","type":"Landkreis"},"federalState":{"key":"09","name":"Bayern"}},{"name":"Wiesthaler Str.","postalCode":"97859","locality":"Wiesthal","municipality":{"key":"09677200","name":"Wiesthal","type":"Kreisangehörige_Gemeinde"},"district":{"key":"09677","name":"Main-Spessart","type":"Landkreis"},"federalState":{"key":"09","name":"Bayern"}},{"name":"Zeppelinstr.","postalCode":"67098","locality":"Bad Dürkheim","municipality":{"key":"07332002","name":"Bad Dürkheim, Stadt","type":"Stadt"},"district":{"key":"07332","name":"Bad Dürkheim","type":"Landkreis"},"federalState":{"key":"07","name":"Rheinland-Pfalz"}},{"name":"Zum Röhrig","postalCode":"67098","locality":"Bad Dürkheim","municipality":{"key":"07332002","name":"Bad Dürkheim, Stadt","type":"Stadt"},"district":{"key":"07332","name":"Bad Dürkheim","type":"Landkreis"},"federalState":{"key":"07","name":"Rheinland-Pfalz"}},{"name":"Östlicher Kurpark","postalCode":"67098","locality":"Bad Dürkheim","municipality":{"key":"07332002","name":"Bad Dürkheim, Stadt","type":"Stadt"},"district":{"key":"07332","name":"Bad Dürkheim","type":"Landkreis"},"federalState":{"key":"07","name":"Rheinland-Pfalz"}},]