[{"name":"Adolf-Brütt-Str.","postalCode":"99438","locality":"Bad Berka","municipality":{"key":"16071003","name":"Bad Berka, Stadt","type":"Stadt"},"district":{"key":"16071","name":"Weimarer Land","type":"Landkreis"},"federalState":{"key":"16","name":"Thüringen"}},{"name":"Adolf-Brütt-Weg","postalCode":"99438","locality":"Bad Berka","municipality":{"key":"16071003","name":"Bad Berka, Stadt","type":"Stadt"},"district":{"key":"16071","name":"Weimarer Land","type":"Landkreis"},"federalState":{"key":"16","name":"Thüringen"}},{"name":"Adolf-Tegtmeier-Allee","postalCode":"99438","locality":"Bad Berka","municipality":{"key":"16071003","name":"Bad Berka, Stadt","type":"Stadt"},"district":{"key":"16071","name":"Weimarer Land","type":"Landkreis"},"federalState":{"key":"16","name":"Thüringen"}},{"name":"Am Anger","postalCode":"99438","locality":"Bad Berka","municipality":{"key":"16071003","name":"Bad Berka, Stadt","type":"Stadt"},"district":{"key":"16071","name":"Weimarer Land","type":"Landkreis"},"federalState":{"key":"16","name":"Thüringen"}},{"name":"Am Ärzteheim","postalCode":"99438","locality":"Bad Berka","municipality":{"key":"16071003","name":"Bad Berka, Stadt","type":"Stadt"},"district":{"key":"16071","name":"Weimarer Land","type":"Landkreis"},"federalState":{"key":"16","name":"Thüringen"}},{"name":"Am Friedhof","postalCode":"99438","locality":"Bad Berka","municipality":{"key":"16071003","name":"Bad Berka, Stadt","type":"Stadt"},"district":{"key":"16071","name":"Weimarer Land","type":"Landkreis"},"federalState":{"key":"16","name":"Thüringen"}},{"name":"Am Goethehaus","postalCode":"99438","locality":"Bad Berka","municipality":{"key":"16071003","name":"Bad Berka, Stadt","type":"Stadt"},"district":{"key":"16071","name":"Weimarer Land","type":"Landkreis"},"federalState":{"key":"16","name":"Thüringen"}},{"name":"Am Graben","postalCode":"99438","locality":"Bad Berka","municipality":{"key":"16071003","name":"Bad Berka, Stadt","type":"Stadt"},"district":{"key":"16071","name":"Weimarer Land","type":"Landkreis"},"federalState":{"key":"16","name":"Thüringen"}},{"name":"Am Hexenberg","postalCode":"99438","locality":"Bad Berka","municipality":{"key":"16071003","name":"Bad Berka, Stadt","type":"Stadt"},"district":{"key":"16071","name":"Weimarer Land","type":"Landkreis"},"federalState":{"key":"16","name":"Thüringen"}},{"name":"Am Hundehügel","postalCode":"99438","locality":"Bad Berka","municipality":{"key":"16071003","name":"Bad Berka, Stadt","type":"Stadt"},"district":{"key":"16071","name":"Weimarer Land","type":"Landkreis"},"federalState":{"key":"16","name":"Thüringen"}},{"name":"Am Jagdzeughaus","postalCode":"99438","locality":"Bad Berka","municipality":{"key":"16071003","name":"Bad Berka, Stadt","type":"Stadt"},"district":{"key":"16071","name":"Weimarer Land","type":"Landkreis"},"federalState":{"key":"16","name":"Thüringen"}},{"name":"Am Kaiserhain","postalCode":"99438","locality":"Bad Berka","municipality":{"key":"16071003","name":"Bad Berka, Stadt","type":"Stadt"},"district":{"key":"16071","name":"Weimarer Land","type":"Landkreis"},"federalState":{"key":"16","name":"Thüringen"}},{"name":"Am Markt","postalCode":"99438","locality":"Bad Berka","municipality":{"key":"16071003","name":"Bad Berka, Stadt","type":"Stadt"},"district":{"key":"16071","name":"Weimarer Land","type":"Landkreis"},"federalState":{"key":"16","name":"Thüringen"}},{"name":"Am Plan","postalCode":"99438","locality":"Bad Berka","municipality":{"key":"16071003","name":"Bad Berka, Stadt","type":"Stadt"},"district":{"key":"16071","name":"Weimarer Land","type":"Landkreis"},"federalState":{"key":"16","name":"Thüringen"}},{"name":"Am Teiche","postalCode":"99438","locality":"Bad Berka","municipality":{"key":"16071003","name":"Bad Berka, Stadt","type":"Stadt"},"district":{"key":"16071","name":"Weimarer Land","type":"Landkreis"},"federalState":{"key":"16","name":"Thüringen"}},{"name":"Am Weimarweg","postalCode":"99438","locality":"Bad Berka","municipality":{"key":"16071003","name":"Bad Berka, Stadt","type":"Stadt"},"district":{"key":"16071","name":"Weimarer Land","type":"Landkreis"},"federalState":{"key":"16","name":"Thüringen"}},{"name":"Am Ziegelbrunnen","postalCode":"99438","locality":"Bad Berka","municipality":{"key":"16071003","name":"Bad Berka, Stadt","type":"Stadt"},"district":{"key":"16071","name":"Weimarer Land","type":"Landkreis"},"federalState":{"key":"16","name":"Thüringen"}},{"name":"An der Lehmgrube","postalCode":"99438","locality":"Bad Berka","municipality":{"key":"16071003","name":"Bad Berka, Stadt","type":"Stadt"},"district":{"key":"16071","name":"Weimarer Land","type":"Landkreis"},"federalState":{"key":"16","name":"Thüringen"}},{"name":"An der Trift","postalCode":"99438","locality":"Bad Berka","municipality":{"key":"16071003","name":"Bad Berka, Stadt","type":"Stadt"},"district":{"key":"16071","name":"Weimarer Land","type":"Landkreis"},"federalState":{"key":"16","name":"Thüringen"}},{"name":"An der Waidmühle","postalCode":"99438","locality":"Bad Berka","municipality":{"key":"16071003","name":"Bad Berka, Stadt","type":"Stadt"},"district":{"key":"16071","name":"Weimarer Land","type":"Landkreis"},"federalState":{"key":"16","name":"Thüringen"}},{"name":"Auf der Harth","postalCode":"99438","locality":"Bad Berka","municipality":{"key":"16071003","name":"Bad Berka, Stadt","type":"Stadt"},"district":{"key":"16071","name":"Weimarer Land","type":"Landkreis"},"federalState":{"key":"16","name":"Thüringen"}},{"name":"Bachstr.","postalCode":"99438","locality":"Bad Berka","municipality":{"key":"16071003","name":"Bad Berka, Stadt","type":"Stadt"},"district":{"key":"16071","name":"Weimarer Land","type":"Landkreis"},"federalState":{"key":"16","name":"Thüringen"}},{"name":"Bad Berkaer Str.","postalCode":"99438","locality":"Bad Berka","municipality":{"key":"16071003","name":"Bad Berka, Stadt","type":"Stadt"},"district":{"key":"16071","name":"Weimarer Land","type":"Landkreis"},"federalState":{"key":"16","name":"Thüringen"}},{"name":"Bad Dürkheimer Str.","postalCode":"99438","locality":"Bad Berka","municipality":{"key":"16071003","name":"Bad Berka, Stadt","type":"Stadt"},"district":{"key":"16071","name":"Weimarer Land","type":"Landkreis"},"federalState":{"key":"16","name":"Thüringen"}},{"name":"Badegasse","postalCode":"99438","locality":"Bad Berka","municipality":{"key":"16071003","name":"Bad Berka, Stadt","type":"Stadt"},"district":{"key":"16071","name":"Weimarer Land","type":"Landkreis"},"federalState":{"key":"16","name":"Thüringen"}},{"name":"Bad Wildunger Str.","postalCode":"99438","locality":"Bad Berka","municipality":{"key":"16071003","name":"Bad Berka, Stadt","type":"Stadt"},"district":{"key":"16071","name":"Weimarer Land","type":"Landkreis"},"federalState":{"key":"16","name":"Thüringen"}},{"name":"Bahnhofstr.","postalCode":"99438","locality":"Bad Berka","municipality":{"key":"16071003","name":"Bad Berka, Stadt","type":"Stadt"},"district":{"key":"16071","name":"Weimarer Land","type":"Landkreis"},"federalState":{"key":"16","name":"Thüringen"}},{"name":"Bartold-Asendorpf-Str.","postalCode":"99438","locality":"Bad Berka","municipality":{"key":"16071003","name":"Bad Berka, Stadt","type":"Stadt"},"district":{"key":"16071","name":"Weimarer Land","type":"Landkreis"},"federalState":{"key":"16","name":"Thüringen"}},{"name":"Berggasse","postalCode":"99438","locality":"Bad Berka","municipality":{"key":"16071003","name":"Bad Berka, Stadt","type":"Stadt"},"district":{"key":"16071","name":"Weimarer Land","type":"Landkreis"},"federalState":{"key":"16","name":"Thüringen"}},{"name":"Bergstr.","postalCode":"99438","locality":"Bad Berka","municipality":{"key":"16071003","name":"Bad Berka, Stadt","type":"Stadt"},"district":{"key":"16071","name":"Weimarer Land","type":"Landkreis"},"federalState":{"key":"16","name":"Thüringen"}},{"name":"Blankenhainer Str.","postalCode":"99438","locality":"Bad Berka","municipality":{"key":"16071003","name":"Bad Berka, Stadt","type":"Stadt"},"district":{"key":"16071","name":"Weimarer Land","type":"Landkreis"},"federalState":{"key":"16","name":"Thüringen"}},{"name":"Bleichstr.","postalCode":"99438","locality":"Bad Berka","municipality":{"key":"16071003","name":"Bad Berka, Stadt","type":"Stadt"},"district":{"key":"16071","name":"Weimarer Land","type":"Landkreis"},"federalState":{"key":"16","name":"Thüringen"}},{"name":"Bornweg","postalCode":"99438","locality":"Bad Berka","municipality":{"key":"16071003","name":"Bad Berka, Stadt","type":"Stadt"},"district":{"key":"16071","name":"Weimarer Land","type":"Landkreis"},"federalState":{"key":"16","name":"Thüringen"}},{"name":"Braugasse","postalCode":"99438","locality":"Bad Berka","municipality":{"key":"16071003","name":"Bad Berka, Stadt","type":"Stadt"},"district":{"key":"16071","name":"Weimarer Land","type":"Landkreis"},"federalState":{"key":"16","name":"Thüringen"}},{"name":"Brauhausstr.","postalCode":"99438","locality":"Bad Berka","municipality":{"key":"16071003","name":"Bad Berka, Stadt","type":"Stadt"},"district":{"key":"16071","name":"Weimarer Land","type":"Landkreis"},"federalState":{"key":"16","name":"Thüringen"}},{"name":"Brühl","postalCode":"99438","locality":"Bad Berka","municipality":{"key":"16071003","name":"Bad Berka, Stadt","type":"Stadt"},"district":{"key":"16071","name":"Weimarer Land","type":"Landkreis"},"federalState":{"key":"16","name":"Thüringen"}},{"name":"Burg","postalCode":"99438","locality":"Bad Berka","municipality":{"key":"16071003","name":"Bad Berka, Stadt","type":"Stadt"},"district":{"key":"16071","name":"Weimarer Land","type":"Landkreis"},"federalState":{"key":"16","name":"Thüringen"}},{"name":"Burgstr.","postalCode":"99438","locality":"Bad Berka","municipality":{"key":"16071003","name":"Bad Berka, Stadt","type":"Stadt"},"district":{"key":"16071","name":"Weimarer Land","type":"Landkreis"},"federalState":{"key":"16","name":"Thüringen"}},{"name":"Calmettestr.","postalCode":"99438","locality":"Bad Berka","municipality":{"key":"16071003","name":"Bad Berka, Stadt","type":"Stadt"},"district":{"key":"16071","name":"Weimarer Land","type":"Landkreis"},"federalState":{"key":"16","name":"Thüringen"}},{"name":"Conrad-Röntgen-Str.","postalCode":"99438","locality":"Bad Berka","municipality":{"key":"16071003","name":"Bad Berka, Stadt","type":"Stadt"},"district":{"key":"16071","name":"Weimarer Land","type":"Landkreis"},"federalState":{"key":"16","name":"Thüringen"}},{"name":"Dammbachsgrund","postalCode":"99438","locality":"Bad Berka","municipality":{"key":"16071003","name":"Bad Berka, Stadt","type":"Stadt"},"district":{"key":"16071","name":"Weimarer Land","type":"Landkreis"},"federalState":{"key":"16","name":"Thüringen"}},{"name":"Dorfstr.","postalCode":"99438","locality":"Bad Berka","municipality":{"key":"16071003","name":"Bad Berka, Stadt","type":"Stadt"},"district":{"key":"16071","name":"Weimarer Land","type":"Landkreis"},"federalState":{"key":"16","name":"Thüringen"}},{"name":"Drachenburg","postalCode":"99438","locality":"Bad Berka","municipality":{"key":"16071003","name":"Bad Berka, Stadt","type":"Stadt"},"district":{"key":"16071","name":"Weimarer Land","type":"Landkreis"},"federalState":{"key":"16","name":"Thüringen"}},{"name":"Dreiteichsgrund","postalCode":"99438","locality":"Bad Berka","municipality":{"key":"16071003","name":"Bad Berka, Stadt","type":"Stadt"},"district":{"key":"16071","name":"Weimarer Land","type":"Landkreis"},"federalState":{"key":"16","name":"Thüringen"}},{"name":"Eberhard-Hasche-Weg","postalCode":"99438","locality":"Bad Berka","municipality":{"key":"16071003","name":"Bad Berka, Stadt","type":"Stadt"},"district":{"key":"16071","name":"Weimarer Land","type":"Landkreis"},"federalState":{"key":"16","name":"Thüringen"}},{"name":"Elise-Ebert-Brücke","postalCode":"99438","locality":"Bad Berka","municipality":{"key":"16071003","name":"Bad Berka, Stadt","type":"Stadt"},"district":{"key":"16071","name":"Weimarer Land","type":"Landkreis"},"federalState":{"key":"16","name":"Thüringen"}},{"name":"Erlenweg","postalCode":"99438","locality":"Bad Berka","municipality":{"key":"16071003","name":"Bad Berka, Stadt","type":"Stadt"},"district":{"key":"16071","name":"Weimarer Land","type":"Landkreis"},"federalState":{"key":"16","name":"Thüringen"}},{"name":"Ernst-Thälmann-Str.","postalCode":"99438","locality":"Bad Berka","municipality":{"key":"16071003","name":"Bad Berka, Stadt","type":"Stadt"},"district":{"key":"16071","name":"Weimarer Land","type":"Landkreis"},"federalState":{"key":"16","name":"Thüringen"}},{"name":"Feldstr.","postalCode":"99438","locality":"Bad Berka","municipality":{"key":"16071003","name":"Bad Berka, Stadt","type":"Stadt"},"district":{"key":"16071","name":"Weimarer Land","type":"Landkreis"},"federalState":{"key":"16","name":"Thüringen"}},{"name":"Ferdinand-Staatz-Str.","postalCode":"99438","locality":"Bad Berka","municipality":{"key":"16071003","name":"Bad Berka, Stadt","type":"Stadt"},"district":{"key":"16071","name":"Weimarer Land","type":"Landkreis"},"federalState":{"key":"16","name":"Thüringen"}},{"name":"Friedensplatz","postalCode":"99438","locality":"Bad Berka","municipality":{"key":"16071003","name":"Bad Berka, Stadt","type":"Stadt"},"district":{"key":"16071","name":"Weimarer Land","type":"Landkreis"},"federalState":{"key":"16","name":"Thüringen"}},{"name":"Friedhofsgasse","postalCode":"99438","locality":"Bad Berka","municipality":{"key":"16071003","name":"Bad Berka, Stadt","type":"Stadt"},"district":{"key":"16071","name":"Weimarer Land","type":"Landkreis"},"federalState":{"key":"16","name":"Thüringen"}},{"name":"Friedhofstr.","postalCode":"99438","locality":"Bad Berka","municipality":{"key":"16071003","name":"Bad Berka, Stadt","type":"Stadt"},"district":{"key":"16071","name":"Weimarer Land","type":"Landkreis"},"federalState":{"key":"16","name":"Thüringen"}},{"name":"Friedrichsdorfer Str.","postalCode":"99438","locality":"Bad Berka","municipality":{"key":"16071003","name":"Bad Berka, Stadt","type":"Stadt"},"district":{"key":"16071","name":"Weimarer Land","type":"Landkreis"},"federalState":{"key":"16","name":"Thüringen"}},{"name":"Gartenstr.","postalCode":"99438","locality":"Bad Berka","municipality":{"key":"16071003","name":"Bad Berka, Stadt","type":"Stadt"},"district":{"key":"16071","name":"Weimarer Land","type":"Landkreis"},"federalState":{"key":"16","name":"Thüringen"}},{"name":"Gerhard-Domagk-Str.","postalCode":"99438","locality":"Bad Berka","municipality":{"key":"16071003","name":"Bad Berka, Stadt","type":"Stadt"},"district":{"key":"16071","name":"Weimarer Land","type":"Landkreis"},"federalState":{"key":"16","name":"Thüringen"}},{"name":"Glitschergasse","postalCode":"99438","locality":"Bad Berka","municipality":{"key":"16071003","name":"Bad Berka, Stadt","type":"Stadt"},"district":{"key":"16071","name":"Weimarer Land","type":"Landkreis"},"federalState":{"key":"16","name":"Thüringen"}},{"name":"Goetheallee","postalCode":"99438","locality":"Bad Berka","municipality":{"key":"16071003","name":"Bad Berka, Stadt","type":"Stadt"},"district":{"key":"16071","name":"Weimarer Land","type":"Landkreis"},"federalState":{"key":"16","name":"Thüringen"}},{"name":"Goethepark","postalCode":"99438","locality":"Bad Berka","municipality":{"key":"16071003","name":"Bad Berka, Stadt","type":"Stadt"},"district":{"key":"16071","name":"Weimarer Land","type":"Landkreis"},"federalState":{"key":"16","name":"Thüringen"}},{"name":"Gutendorfer Str.","postalCode":"99438","locality":"Bad Berka","municipality":{"key":"16071003","name":"Bad Berka, Stadt","type":"Stadt"},"district":{"key":"16071","name":"Weimarer Land","type":"Landkreis"},"federalState":{"key":"16","name":"Thüringen"}},{"name":"Harlache","postalCode":"99438","locality":"Bad Berka","municipality":{"key":"16071003","name":"Bad Berka, Stadt","type":"Stadt"},"district":{"key":"16071","name":"Weimarer Land","type":"Landkreis"},"federalState":{"key":"16","name":"Thüringen"}},{"name":"Harthallee","postalCode":"99438","locality":"Bad Berka","municipality":{"key":"16071003","name":"Bad Berka, Stadt","type":"Stadt"},"district":{"key":"16071","name":"Weimarer Land","type":"Landkreis"},"federalState":{"key":"16","name":"Thüringen"}},{"name":"Harthstr.","postalCode":"99438","locality":"Bad Berka","municipality":{"key":"16071003","name":"Bad Berka, Stadt","type":"Stadt"},"district":{"key":"16071","name":"Weimarer Land","type":"Landkreis"},"federalState":{"key":"16","name":"Thüringen"}},{"name":"Hauptstr.","postalCode":"99438","locality":"Bad Berka","municipality":{"key":"16071003","name":"Bad Berka, Stadt","type":"Stadt"},"district":{"key":"16071","name":"Weimarer Land","type":"Landkreis"},"federalState":{"key":"16","name":"Thüringen"}},{"name":"Hebammenweg","postalCode":"99438","locality":"Bad Berka","municipality":{"key":"16071003","name":"Bad Berka, Stadt","type":"Stadt"},"district":{"key":"16071","name":"Weimarer Land","type":"Landkreis"},"federalState":{"key":"16","name":"Thüringen"}},{"name":"Heinrich-Heine-Allee","postalCode":"99438","locality":"Bad Berka","municipality":{"key":"16071003","name":"Bad Berka, Stadt","type":"Stadt"},"district":{"key":"16071","name":"Weimarer Land","type":"Landkreis"},"federalState":{"key":"16","name":"Thüringen"}},{"name":"Heinrich-Schütz-Str.","postalCode":"99438","locality":"Bad Berka","municipality":{"key":"16071003","name":"Bad Berka, Stadt","type":"Stadt"},"district":{"key":"16071","name":"Weimarer Land","type":"Landkreis"},"federalState":{"key":"16","name":"Thüringen"}},{"name":"Herderstr.","postalCode":"99438","locality":"Bad Berka","municipality":{"key":"16071003","name":"Bad Berka, Stadt","type":"Stadt"},"district":{"key":"16071","name":"Weimarer Land","type":"Landkreis"},"federalState":{"key":"16","name":"Thüringen"}},{"name":"Hetschburger Str.","postalCode":"99438","locality":"Bad Berka","municipality":{"key":"16071003","name":"Bad Berka, Stadt","type":"Stadt"},"district":{"key":"16071","name":"Weimarer Land","type":"Landkreis"},"federalState":{"key":"16","name":"Thüringen"}},{"name":"Hexenbergstr.","postalCode":"99438","locality":"Bad Berka","municipality":{"key":"16071003","name":"Bad Berka, Stadt","type":"Stadt"},"district":{"key":"16071","name":"Weimarer Land","type":"Landkreis"},"federalState":{"key":"16","name":"Thüringen"}},{"name":"Hinterdorfstr.","postalCode":"99438","locality":"Bad Berka","municipality":{"key":"16071003","name":"Bad Berka, Stadt","type":"Stadt"},"district":{"key":"16071","name":"Weimarer Land","type":"Landkreis"},"federalState":{"key":"16","name":"Thüringen"}},{"name":"Hinter Weitzelsgarten","postalCode":"99438","locality":"Bad Berka","municipality":{"key":"16071003","name":"Bad Berka, Stadt","type":"Stadt"},"district":{"key":"16071","name":"Weimarer Land","type":"Landkreis"},"federalState":{"key":"16","name":"Thüringen"}},{"name":"Hoher Weg","postalCode":"99438","locality":"Bad Berka","municipality":{"key":"16071003","name":"Bad Berka, Stadt","type":"Stadt"},"district":{"key":"16071","name":"Weimarer Land","type":"Landkreis"},"federalState":{"key":"16","name":"Thüringen"}},{"name":"Hohlgasse","postalCode":"99438","locality":"Bad Berka","municipality":{"key":"16071003","name":"Bad Berka, Stadt","type":"Stadt"},"district":{"key":"16071","name":"Weimarer Land","type":"Landkreis"},"federalState":{"key":"16","name":"Thüringen"}},{"name":"Hospitalweg","postalCode":"99438","locality":"Bad Berka","municipality":{"key":"16071003","name":"Bad Berka, Stadt","type":"Stadt"},"district":{"key":"16071","name":"Weimarer Land","type":"Landkreis"},"federalState":{"key":"16","name":"Thüringen"}},{"name":"Ilmstr.","postalCode":"99438","locality":"Bad Berka","municipality":{"key":"16071003","name":"Bad Berka, Stadt","type":"Stadt"},"district":{"key":"16071","name":"Weimarer Land","type":"Landkreis"},"federalState":{"key":"16","name":"Thüringen"}},{"name":"Im Dorfe","postalCode":"99438","locality":"Bad Berka","municipality":{"key":"16071003","name":"Bad Berka, Stadt","type":"Stadt"},"district":{"key":"16071","name":"Weimarer Land","type":"Landkreis"},"federalState":{"key":"16","name":"Thüringen"}},{"name":"Im Rod","postalCode":"99438","locality":"Bad Berka","municipality":{"key":"16071003","name":"Bad Berka, Stadt","type":"Stadt"},"district":{"key":"16071","name":"Weimarer Land","type":"Landkreis"},"federalState":{"key":"16","name":"Thüringen"}},{"name":"Johann-Scholz-Str.","postalCode":"99438","locality":"Bad Berka","municipality":{"key":"16071003","name":"Bad Berka, Stadt","type":"Stadt"},"district":{"key":"16071","name":"Weimarer Land","type":"Landkreis"},"federalState":{"key":"16","name":"Thüringen"}},{"name":"Kellnersbergstr.","postalCode":"99438","locality":"Bad Berka","municipality":{"key":"16071003","name":"Bad Berka, Stadt","type":"Stadt"},"district":{"key":"16071","name":"Weimarer Land","type":"Landkreis"},"federalState":{"key":"16","name":"Thüringen"}},{"name":"Kirchgasse","postalCode":"99438","locality":"Bad Berka","municipality":{"key":"16071003","name":"Bad Berka, Stadt","type":"Stadt"},"district":{"key":"16071","name":"Weimarer Land","type":"Landkreis"},"federalState":{"key":"16","name":"Thüringen"}},{"name":"Kirchstr.","postalCode":"99438","locality":"Bad Berka","municipality":{"key":"16071003","name":"Bad Berka, Stadt","type":"Stadt"},"district":{"key":"16071","name":"Weimarer Land","type":"Landkreis"},"federalState":{"key":"16","name":"Thüringen"}},{"name":"Klosterberg","postalCode":"99438","locality":"Bad Berka","municipality":{"key":"16071003","name":"Bad Berka, Stadt","type":"Stadt"},"district":{"key":"16071","name":"Weimarer Land","type":"Landkreis"},"federalState":{"key":"16","name":"Thüringen"}},{"name":"Klosterweg","postalCode":"99438","locality":"Bad Berka","municipality":{"key":"16071003","name":"Bad Berka, Stadt","type":"Stadt"},"district":{"key":"16071","name":"Weimarer Land","type":"Landkreis"},"federalState":{"key":"16","name":"Thüringen"}},{"name":"Kohlgrund","postalCode":"99438","locality":"Bad Berka","municipality":{"key":"16071003","name":"Bad Berka, Stadt","type":"Stadt"},"district":{"key":"16071","name":"Weimarer Land","type":"Landkreis"},"federalState":{"key":"16","name":"Thüringen"}},{"name":"Kohlstatt","postalCode":"99438","locality":"Bad Berka","municipality":{"key":"16071003","name":"Bad Berka, Stadt","type":"Stadt"},"district":{"key":"16071","name":"Weimarer Land","type":"Landkreis"},"federalState":{"key":"16","name":"Thüringen"}},{"name":"Kranichfelder Str.","postalCode":"99438","locality":"Bad Berka","municipality":{"key":"16071003","name":"Bad Berka, Stadt","type":"Stadt"},"district":{"key":"16071","name":"Weimarer Land","type":"Landkreis"},"federalState":{"key":"16","name":"Thüringen"}},{"name":"Liebfrauenweg","postalCode":"99438","locality":"Bad Berka","municipality":{"key":"16071003","name":"Bad Berka, Stadt","type":"Stadt"},"district":{"key":"16071","name":"Weimarer Land","type":"Landkreis"},"federalState":{"key":"16","name":"Thüringen"}},{"name":"Lindenberg","postalCode":"99438","locality":"Bad Berka","municipality":{"key":"16071003","name":"Bad Berka, Stadt","type":"Stadt"},"district":{"key":"16071","name":"Weimarer Land","type":"Landkreis"},"federalState":{"key":"16","name":"Thüringen"}},{"name":"Lindenplatz","postalCode":"99438","locality":"Bad Berka","municipality":{"key":"16071003","name":"Bad Berka, Stadt","type":"Stadt"},"district":{"key":"16071","name":"Weimarer Land","type":"Landkreis"},"federalState":{"key":"16","name":"Thüringen"}},{"name":"Ludolph-Brauer-Str.","postalCode":"99438","locality":"Bad Berka","municipality":{"key":"16071003","name":"Bad Berka, Stadt","type":"Stadt"},"district":{"key":"16071","name":"Weimarer Land","type":"Landkreis"},"federalState":{"key":"16","name":"Thüringen"}},{"name":"Marktplatz","postalCode":"99438","locality":"Bad Berka","municipality":{"key":"16071003","name":"Bad Berka, Stadt","type":"Stadt"},"district":{"key":"16071","name":"Weimarer Land","type":"Landkreis"},"federalState":{"key":"16","name":"Thüringen"}},{"name":"Marktstr.","postalCode":"99438","locality":"Bad Berka","municipality":{"key":"16071003","name":"Bad Berka, Stadt","type":"Stadt"},"district":{"key":"16071","name":"Weimarer Land","type":"Landkreis"},"federalState":{"key":"16","name":"Thüringen"}},{"name":"Marktweg","postalCode":"99438","locality":"Bad Berka","municipality":{"key":"16071003","name":"Bad Berka, Stadt","type":"Stadt"},"district":{"key":"16071","name":"Weimarer Land","type":"Landkreis"},"federalState":{"key":"16","name":"Thüringen"}},{"name":"Martha-Stein-Weg","postalCode":"99438","locality":"Bad Berka","municipality":{"key":"16071003","name":"Bad Berka, Stadt","type":"Stadt"},"district":{"key":"16071","name":"Weimarer Land","type":"Landkreis"},"federalState":{"key":"16","name":"Thüringen"}},{"name":"Max-Linke-Str.","postalCode":"99438","locality":"Bad Berka","municipality":{"key":"16071003","name":"Bad Berka, Stadt","type":"Stadt"},"district":{"key":"16071","name":"Weimarer Land","type":"Landkreis"},"federalState":{"key":"16","name":"Thüringen"}},{"name":"Mühlgasse","postalCode":"99438","locality":"Bad Berka","municipality":{"key":"16071003","name":"Bad Berka, Stadt","type":"Stadt"},"district":{"key":"16071","name":"Weimarer Land","type":"Landkreis"},"federalState":{"key":"16","name":"Thüringen"}},{"name":"Neugasse","postalCode":"99438","locality":"Bad Berka","municipality":{"key":"16071003","name":"Bad Berka, Stadt","type":"Stadt"},"district":{"key":"16071","name":"Weimarer Land","type":"Landkreis"},"federalState":{"key":"16","name":"Thüringen"}},{"name":"Neusaalborn","postalCode":"99438","locality":"Bad Berka","municipality":{"key":"16071003","name":"Bad Berka, Stadt","type":"Stadt"},"district":{"key":"16071","name":"Weimarer Land","type":"Landkreis"},"federalState":{"key":"16","name":"Thüringen"}},{"name":"Nordstr.","postalCode":"99438","locality":"Bad Berka","municipality":{"key":"16071003","name":"Bad Berka, Stadt","type":"Stadt"},"district":{"key":"16071","name":"Weimarer Land","type":"Landkreis"},"federalState":{"key":"16","name":"Thüringen"}},{"name":"Pappelallee","postalCode":"99438","locality":"Bad Berka","municipality":{"key":"16071003","name":"Bad Berka, Stadt","type":"Stadt"},"district":{"key":"16071","name":"Weimarer Land","type":"Landkreis"},"federalState":{"key":"16","name":"Thüringen"}},{"name":"Parkstr.","postalCode":"99438","locality":"Bad Berka","municipality":{"key":"16071003","name":"Bad Berka, Stadt","type":"Stadt"},"district":{"key":"16071","name":"Weimarer Land","type":"Landkreis"},"federalState":{"key":"16","name":"Thüringen"}},{"name":"Pfarrgasse","postalCode":"99438","locality":"Bad Berka","municipality":{"key":"16071003","name":"Bad Berka, Stadt","type":"Stadt"},"district":{"key":"16071","name":"Weimarer Land","type":"Landkreis"},"federalState":{"key":"16","name":"Thüringen"}},{"name":"Privatweg - Private Path","postalCode":"99438","locality":"Bad Berka","municipality":{"key":"16071003","name":"Bad Berka, Stadt","type":"Stadt"},"district":{"key":"16071","name":"Weimarer Land","type":"Landkreis"},"federalState":{"key":"16","name":"Thüringen"}},{"name":"Quergasse","postalCode":"99438","locality":"Bad Berka","municipality":{"key":"16071003","name":"Bad Berka, Stadt","type":"Stadt"},"district":{"key":"16071","name":"Weimarer Land","type":"Landkreis"},"federalState":{"key":"16","name":"Thüringen"}},{"name":"Rittersdorfer Weg","postalCode":"99438","locality":"Bad Berka","municipality":{"key":"16071003","name":"Bad Berka, Stadt","type":"Stadt"},"district":{"key":"16071","name":"Weimarer Land","type":"Landkreis"},"federalState":{"key":"16","name":"Thüringen"}},{"name":"Robert-Koch-Allee","postalCode":"99438","locality":"Bad Berka","municipality":{"key":"16071003","name":"Bad Berka, Stadt","type":"Stadt"},"district":{"key":"16071","name":"Weimarer Land","type":"Landkreis"},"federalState":{"key":"16","name":"Thüringen"}},{"name":"Rodbergstr.","postalCode":"99438","locality":"Bad Berka","municipality":{"key":"16071003","name":"Bad Berka, Stadt","type":"Stadt"},"district":{"key":"16071","name":"Weimarer Land","type":"Landkreis"},"federalState":{"key":"16","name":"Thüringen"}},{"name":"Rudolstädter Str.","postalCode":"99438","locality":"Bad Berka","municipality":{"key":"16071003","name":"Bad Berka, Stadt","type":"Stadt"},"district":{"key":"16071","name":"Weimarer Land","type":"Landkreis"},"federalState":{"key":"16","name":"Thüringen"}},{"name":"Schillerstr.","postalCode":"99438","locality":"Bad Berka","municipality":{"key":"16071003","name":"Bad Berka, Stadt","type":"Stadt"},"district":{"key":"16071","name":"Weimarer Land","type":"Landkreis"},"federalState":{"key":"16","name":"Thüringen"}},{"name":"Schmalzgrube","postalCode":"99438","locality":"Bad Berka","municipality":{"key":"16071003","name":"Bad Berka, Stadt","type":"Stadt"},"district":{"key":"16071","name":"Weimarer Land","type":"Landkreis"},"federalState":{"key":"16","name":"Thüringen"}},{"name":"Schneidergasse","postalCode":"99438","locality":"Bad Berka","municipality":{"key":"16071003","name":"Bad Berka, Stadt","type":"Stadt"},"district":{"key":"16071","name":"Weimarer Land","type":"Landkreis"},"federalState":{"key":"16","name":"Thüringen"}},{"name":"Schönefeld","postalCode":"99438","locality":"Bad Berka","municipality":{"key":"16071003","name":"Bad Berka, Stadt","type":"Stadt"},"district":{"key":"16071","name":"Weimarer Land","type":"Landkreis"},"federalState":{"key":"16","name":"Thüringen"}},{"name":"Schönengrund","postalCode":"99438","locality":"Bad Berka","municipality":{"key":"16071003","name":"Bad Berka, Stadt","type":"Stadt"},"district":{"key":"16071","name":"Weimarer Land","type":"Landkreis"},"federalState":{"key":"16","name":"Thüringen"}},{"name":"Schulberg","postalCode":"99438","locality":"Bad Berka","municipality":{"key":"16071003","name":"Bad Berka, Stadt","type":"Stadt"},"district":{"key":"16071","name":"Weimarer Land","type":"Landkreis"},"federalState":{"key":"16","name":"Thüringen"}},{"name":"Schulgasse","postalCode":"99438","locality":"Bad Berka","municipality":{"key":"16071003","name":"Bad Berka, Stadt","type":"Stadt"},"district":{"key":"16071","name":"Weimarer Land","type":"Landkreis"},"federalState":{"key":"16","name":"Thüringen"}},{"name":"Schulstr.","postalCode":"99438","locality":"Bad Berka","municipality":{"key":"16071003","name":"Bad Berka, Stadt","type":"Stadt"},"district":{"key":"16071","name":"Weimarer Land","type":"Landkreis"},"federalState":{"key":"16","name":"Thüringen"}},{"name":"Siedlerweg","postalCode":"99438","locality":"Bad Berka","municipality":{"key":"16071003","name":"Bad Berka, Stadt","type":"Stadt"},"district":{"key":"16071","name":"Weimarer Land","type":"Landkreis"},"federalState":{"key":"16","name":"Thüringen"}},{"name":"Siedlung","postalCode":"99438","locality":"Bad Berka","municipality":{"key":"16071003","name":"Bad Berka, Stadt","type":"Stadt"},"district":{"key":"16071","name":"Weimarer Land","type":"Landkreis"},"federalState":{"key":"16","name":"Thüringen"}},{"name":"Solesmeser Str.","postalCode":"99438","locality":"Bad Berka","municipality":{"key":"16071003","name":"Bad Berka, Stadt","type":"Stadt"},"district":{"key":"16071","name":"Weimarer Land","type":"Landkreis"},"federalState":{"key":"16","name":"Thüringen"}},{"name":"Sonnenhöhe","postalCode":"99438","locality":"Bad Berka","municipality":{"key":"16071003","name":"Bad Berka, Stadt","type":"Stadt"},"district":{"key":"16071","name":"Weimarer Land","type":"Landkreis"},"federalState":{"key":"16","name":"Thüringen"}},{"name":"Sperlingsberg","postalCode":"99438","locality":"Bad Berka","municipality":{"key":"16071003","name":"Bad Berka, Stadt","type":"Stadt"},"district":{"key":"16071","name":"Weimarer Land","type":"Landkreis"},"federalState":{"key":"16","name":"Thüringen"}},{"name":"Steingasse","postalCode":"99438","locality":"Bad Berka","municipality":{"key":"16071003","name":"Bad Berka, Stadt","type":"Stadt"},"district":{"key":"16071","name":"Weimarer Land","type":"Landkreis"},"federalState":{"key":"16","name":"Thüringen"}},{"name":"Steingraben","postalCode":"99438","locality":"Bad Berka","municipality":{"key":"16071003","name":"Bad Berka, Stadt","type":"Stadt"},"district":{"key":"16071","name":"Weimarer Land","type":"Landkreis"},"federalState":{"key":"16","name":"Thüringen"}},{"name":"Steinweg","postalCode":"99438","locality":"Bad Berka","municipality":{"key":"16071003","name":"Bad Berka, Stadt","type":"Stadt"},"district":{"key":"16071","name":"Weimarer Land","type":"Landkreis"},"federalState":{"key":"16","name":"Thüringen"}},{"name":"Strauchenbruchweg","postalCode":"99438","locality":"Bad Berka","municipality":{"key":"16071003","name":"Bad Berka, Stadt","type":"Stadt"},"district":{"key":"16071","name":"Weimarer Land","type":"Landkreis"},"federalState":{"key":"16","name":"Thüringen"}},{"name":"Südstr.","postalCode":"99438","locality":"Bad Berka","municipality":{"key":"16071003","name":"Bad Berka, Stadt","type":"Stadt"},"district":{"key":"16071","name":"Weimarer Land","type":"Landkreis"},"federalState":{"key":"16","name":"Thüringen"}},{"name":"Tannrodaer Str.","postalCode":"99438","locality":"Bad Berka","municipality":{"key":"16071003","name":"Bad Berka, Stadt","type":"Stadt"},"district":{"key":"16071","name":"Weimarer Land","type":"Landkreis"},"federalState":{"key":"16","name":"Thüringen"}},{"name":"Thüringenweg","postalCode":"99438","locality":"Bad Berka","municipality":{"key":"16071003","name":"Bad Berka, Stadt","type":"Stadt"},"district":{"key":"16071","name":"Weimarer Land","type":"Landkreis"},"federalState":{"key":"16","name":"Thüringen"}},{"name":"Tiefengrubener Str.","postalCode":"99438","locality":"Bad Berka","municipality":{"key":"16071003","name":"Bad Berka, Stadt","type":"Stadt"},"district":{"key":"16071","name":"Weimarer Land","type":"Landkreis"},"federalState":{"key":"16","name":"Thüringen"}},{"name":"Tonndorfer Stieg","postalCode":"99438","locality":"Bad Berka","municipality":{"key":"16071003","name":"Bad Berka, Stadt","type":"Stadt"},"district":{"key":"16071","name":"Weimarer Land","type":"Landkreis"},"federalState":{"key":"16","name":"Thüringen"}},{"name":"Tonndorfer Str.","postalCode":"99438","locality":"Bad Berka","municipality":{"key":"16071003","name":"Bad Berka, Stadt","type":"Stadt"},"district":{"key":"16071","name":"Weimarer Land","type":"Landkreis"},"federalState":{"key":"16","name":"Thüringen"}},{"name":"Töpferweg","postalCode":"99438","locality":"Bad Berka","municipality":{"key":"16071003","name":"Bad Berka, Stadt","type":"Stadt"},"district":{"key":"16071","name":"Weimarer Land","type":"Landkreis"},"federalState":{"key":"16","name":"Thüringen"}},{"name":"Trebestr.","postalCode":"99438","locality":"Bad Berka","municipality":{"key":"16071003","name":"Bad Berka, Stadt","type":"Stadt"},"district":{"key":"16071","name":"Weimarer Land","type":"Landkreis"},"federalState":{"key":"16","name":"Thüringen"}},{"name":"Troistedter Str.","postalCode":"99438","locality":"Bad Berka","municipality":{"key":"16071003","name":"Bad Berka, Stadt","type":"Stadt"},"district":{"key":"16071","name":"Weimarer Land","type":"Landkreis"},"federalState":{"key":"16","name":"Thüringen"}},{"name":"Turmweg","postalCode":"99438","locality":"Bad Berka","municipality":{"key":"16071003","name":"Bad Berka, Stadt","type":"Stadt"},"district":{"key":"16071","name":"Weimarer Land","type":"Landkreis"},"federalState":{"key":"16","name":"Thüringen"}},{"name":"Unter dem Dorfe","postalCode":"99438","locality":"Bad Berka","municipality":{"key":"16071003","name":"Bad Berka, Stadt","type":"Stadt"},"district":{"key":"16071","name":"Weimarer Land","type":"Landkreis"},"federalState":{"key":"16","name":"Thüringen"}},{"name":"Unter der Steinrütsche","postalCode":"99438","locality":"Bad Berka","municipality":{"key":"16071003","name":"Bad Berka, Stadt","type":"Stadt"},"district":{"key":"16071","name":"Weimarer Land","type":"Landkreis"},"federalState":{"key":"16","name":"Thüringen"}},{"name":"Vor dem dürren Grunde","postalCode":"99438","locality":"Bad Berka","municipality":{"key":"16071003","name":"Bad Berka, Stadt","type":"Stadt"},"district":{"key":"16071","name":"Weimarer Land","type":"Landkreis"},"federalState":{"key":"16","name":"Thüringen"}},{"name":"Vor dem Gemeindeberge","postalCode":"99438","locality":"Bad Berka","municipality":{"key":"16071003","name":"Bad Berka, Stadt","type":"Stadt"},"district":{"key":"16071","name":"Weimarer Land","type":"Landkreis"},"federalState":{"key":"16","name":"Thüringen"}},{"name":"Vor dem Hexenberg","postalCode":"99438","locality":"Bad Berka","municipality":{"key":"16071003","name":"Bad Berka, Stadt","type":"Stadt"},"district":{"key":"16071","name":"Weimarer Land","type":"Landkreis"},"federalState":{"key":"16","name":"Thüringen"}},{"name":"Vordere Harth","postalCode":"99438","locality":"Bad Berka","municipality":{"key":"16071003","name":"Bad Berka, Stadt","type":"Stadt"},"district":{"key":"16071","name":"Weimarer Land","type":"Landkreis"},"federalState":{"key":"16","name":"Thüringen"}},{"name":"Wacholderbergstr.","postalCode":"99438","locality":"Bad Berka","municipality":{"key":"16071003","name":"Bad Berka, Stadt","type":"Stadt"},"district":{"key":"16071","name":"Weimarer Land","type":"Landkreis"},"federalState":{"key":"16","name":"Thüringen"}},{"name":"Walpertalstr.","postalCode":"99438","locality":"Bad Berka","municipality":{"key":"16071003","name":"Bad Berka, Stadt","type":"Stadt"},"district":{"key":"16071","name":"Weimarer Land","type":"Landkreis"},"federalState":{"key":"16","name":"Thüringen"}},{"name":"Weimarische Str.","postalCode":"99438","locality":"Bad Berka","municipality":{"key":"16071003","name":"Bad Berka, Stadt","type":"Stadt"},"district":{"key":"16071","name":"Weimarer Land","type":"Landkreis"},"federalState":{"key":"16","name":"Thüringen"}},{"name":"Weststr.","postalCode":"99438","locality":"Bad Berka","municipality":{"key":"16071003","name":"Bad Berka, Stadt","type":"Stadt"},"district":{"key":"16071","name":"Weimarer Land","type":"Landkreis"},"federalState":{"key":"16","name":"Thüringen"}},{"name":"Wielandstr.","postalCode":"99438","locality":"Bad Berka","municipality":{"key":"16071003","name":"Bad Berka, Stadt","type":"Stadt"},"district":{"key":"16071","name":"Weimarer Land","type":"Landkreis"},"federalState":{"key":"16","name":"Thüringen"}},{"name":"Wiesenweg","postalCode":"99438","locality":"Bad Berka","municipality":{"key":"16071003","name":"Bad Berka, Stadt","type":"Stadt"},"district":{"key":"16071","name":"Weimarer Land","type":"Landkreis"},"federalState":{"key":"16","name":"Thüringen"}},{"name":"Zabnoer Str.","postalCode":"99438","locality":"Bad Berka","municipality":{"key":"16071003","name":"Bad Berka, Stadt","type":"Stadt"},"district":{"key":"16071","name":"Weimarer Land","type":"Landkreis"},"federalState":{"key":"16","name":"Thüringen"}},{"name":"Zeughausplatz","postalCode":"99438","locality":"Bad Berka","municipality":{"key":"16071003","name":"Bad Berka, Stadt","type":"Stadt"},"district":{"key":"16071","name":"Weimarer Land","type":"Landkreis"},"federalState":{"key":"16","name":"Thüringen"}},{"name":"Zeughausstr.","postalCode":"99438","locality":"Bad Berka","municipality":{"key":"16071003","name":"Bad Berka, Stadt","type":"Stadt"},"district":{"key":"16071","name":"Weimarer Land","type":"Landkreis"},"federalState":{"key":"16","name":"Thüringen"}},{"name":"Zum Erfurter Tal","postalCode":"99438","locality":"Bad Berka","municipality":{"key":"16071003","name":"Bad Berka, Stadt","type":"Stadt"},"district":{"key":"16071","name":"Weimarer Land","type":"Landkreis"},"federalState":{"key":"16","name":"Thüringen"}},]