[{"name":"Gartenfeldstr.","postalCode":"54429","locality":"Heddert","municipality":{"key":"07235040","name":"Heddert","type":"Kreisangehörige_Gemeinde"},"district":{"key":"07235","name":"Trier-Saarburg","type":"Landkreis"},"federalState":{"key":"07","name":"Rheinland-Pfalz"}},{"name":"Hauptstr.","postalCode":"54429","locality":"Heddert","municipality":{"key":"07235040","name":"Heddert","type":"Kreisangehörige_Gemeinde"},"district":{"key":"07235","name":"Trier-Saarburg","type":"Landkreis"},"federalState":{"key":"07","name":"Rheinland-Pfalz"}},{"name":"Johannesstr.","postalCode":"54429","locality":"Heddert","municipality":{"key":"07235040","name":"Heddert","type":"Kreisangehörige_Gemeinde"},"district":{"key":"07235","name":"Trier-Saarburg","type":"Landkreis"},"federalState":{"key":"07","name":"Rheinland-Pfalz"}},{"name":"Kapellenstr.","postalCode":"54429","locality":"Heddert","municipality":{"key":"07235040","name":"Heddert","type":"Kreisangehörige_Gemeinde"},"district":{"key":"07235","name":"Trier-Saarburg","type":"Landkreis"},"federalState":{"key":"07","name":"Rheinland-Pfalz"}},{"name":"Laurentiusstr.","postalCode":"54429","locality":"Heddert","municipality":{"key":"07235040","name":"Heddert","type":"Kreisangehörige_Gemeinde"},"district":{"key":"07235","name":"Trier-Saarburg","type":"Landkreis"},"federalState":{"key":"07","name":"Rheinland-Pfalz"}},{"name":"Margaretengäßchen","postalCode":"54429","locality":"Heddert","municipality":{"key":"07235040","name":"Heddert","type":"Kreisangehörige_Gemeinde"},"district":{"key":"07235","name":"Trier-Saarburg","type":"Landkreis"},"federalState":{"key":"07","name":"Rheinland-Pfalz"}},{"name":"Mühlenweg","postalCode":"54429","locality":"Heddert","municipality":{"key":"07235040","name":"Heddert","type":"Kreisangehörige_Gemeinde"},"district":{"key":"07235","name":"Trier-Saarburg","type":"Landkreis"},"federalState":{"key":"07","name":"Rheinland-Pfalz"}},{"name":"Waldstr.","postalCode":"54429","locality":"Heddert","municipality":{"key":"07235040","name":"Heddert","type":"Kreisangehörige_Gemeinde"},"district":{"key":"07235","name":"Trier-Saarburg","type":"Landkreis"},"federalState":{"key":"07","name":"Rheinland-Pfalz"}},{"name":"Zur Farm","postalCode":"54429","locality":"Heddert","municipality":{"key":"07235040","name":"Heddert","type":"Kreisangehörige_Gemeinde"},"district":{"key":"07235","name":"Trier-Saarburg","type":"Landkreis"},"federalState":{"key":"07","name":"Rheinland-Pfalz"}},]