[{"name":"Am Bethof","postalCode":"76889","locality":"Vorderweidenthal","municipality":{"key":"07337079","name":"Vorderweidenthal","type":"Kreisangehörige_Gemeinde"},"district":{"key":"07337","name":"Südliche Weinstraße","type":"Landkreis"},"federalState":{"key":"07","name":"Rheinland-Pfalz"}},{"name":"Am Döllenpfad","postalCode":"76889","locality":"Vorderweidenthal","municipality":{"key":"07337079","name":"Vorderweidenthal","type":"Kreisangehörige_Gemeinde"},"district":{"key":"07337","name":"Südliche Weinstraße","type":"Landkreis"},"federalState":{"key":"07","name":"Rheinland-Pfalz"}},{"name":"Am Wingertsberg","postalCode":"76889","locality":"Vorderweidenthal","municipality":{"key":"07337079","name":"Vorderweidenthal","type":"Kreisangehörige_Gemeinde"},"district":{"key":"07337","name":"Südliche Weinstraße","type":"Landkreis"},"federalState":{"key":"07","name":"Rheinland-Pfalz"}},{"name":"Bergstr.","postalCode":"76889","locality":"Vorderweidenthal","municipality":{"key":"07337079","name":"Vorderweidenthal","type":"Kreisangehörige_Gemeinde"},"district":{"key":"07337","name":"Südliche Weinstraße","type":"Landkreis"},"federalState":{"key":"07","name":"Rheinland-Pfalz"}},{"name":"Berwartsteinstr.","postalCode":"76889","locality":"Vorderweidenthal","municipality":{"key":"07337079","name":"Vorderweidenthal","type":"Kreisangehörige_Gemeinde"},"district":{"key":"07337","name":"Südliche Weinstraße","type":"Landkreis"},"federalState":{"key":"07","name":"Rheinland-Pfalz"}},{"name":"Brühlstr.","postalCode":"76889","locality":"Vorderweidenthal","municipality":{"key":"07337079","name":"Vorderweidenthal","type":"Kreisangehörige_Gemeinde"},"district":{"key":"07337","name":"Südliche Weinstraße","type":"Landkreis"},"federalState":{"key":"07","name":"Rheinland-Pfalz"}},{"name":"Gartenstr.","postalCode":"76889","locality":"Vorderweidenthal","municipality":{"key":"07337079","name":"Vorderweidenthal","type":"Kreisangehörige_Gemeinde"},"district":{"key":"07337","name":"Südliche Weinstraße","type":"Landkreis"},"federalState":{"key":"07","name":"Rheinland-Pfalz"}},{"name":"Hauptstr.","postalCode":"76889","locality":"Vorderweidenthal","municipality":{"key":"07337079","name":"Vorderweidenthal","type":"Kreisangehörige_Gemeinde"},"district":{"key":"07337","name":"Südliche Weinstraße","type":"Landkreis"},"federalState":{"key":"07","name":"Rheinland-Pfalz"}},{"name":"Im Entenbruch","postalCode":"76889","locality":"Vorderweidenthal","municipality":{"key":"07337079","name":"Vorderweidenthal","type":"Kreisangehörige_Gemeinde"},"district":{"key":"07337","name":"Südliche Weinstraße","type":"Landkreis"},"federalState":{"key":"07","name":"Rheinland-Pfalz"}},{"name":"In den Pitzenäckern","postalCode":"76889","locality":"Vorderweidenthal","municipality":{"key":"07337079","name":"Vorderweidenthal","type":"Kreisangehörige_Gemeinde"},"district":{"key":"07337","name":"Südliche Weinstraße","type":"Landkreis"},"federalState":{"key":"07","name":"Rheinland-Pfalz"}},{"name":"Kirchstr.","postalCode":"76889","locality":"Vorderweidenthal","municipality":{"key":"07337079","name":"Vorderweidenthal","type":"Kreisangehörige_Gemeinde"},"district":{"key":"07337","name":"Südliche Weinstraße","type":"Landkreis"},"federalState":{"key":"07","name":"Rheinland-Pfalz"}},{"name":"Lindelbrunnstr.","postalCode":"76889","locality":"Vorderweidenthal","municipality":{"key":"07337079","name":"Vorderweidenthal","type":"Kreisangehörige_Gemeinde"},"district":{"key":"07337","name":"Südliche Weinstraße","type":"Landkreis"},"federalState":{"key":"07","name":"Rheinland-Pfalz"}},{"name":"Mühlstr.","postalCode":"76889","locality":"Vorderweidenthal","municipality":{"key":"07337079","name":"Vorderweidenthal","type":"Kreisangehörige_Gemeinde"},"district":{"key":"07337","name":"Südliche Weinstraße","type":"Landkreis"},"federalState":{"key":"07","name":"Rheinland-Pfalz"}},{"name":"Rödelsteinstr.","postalCode":"76889","locality":"Vorderweidenthal","municipality":{"key":"07337079","name":"Vorderweidenthal","type":"Kreisangehörige_Gemeinde"},"district":{"key":"07337","name":"Südliche Weinstraße","type":"Landkreis"},"federalState":{"key":"07","name":"Rheinland-Pfalz"}},{"name":"Schulstr.","postalCode":"76889","locality":"Vorderweidenthal","municipality":{"key":"07337079","name":"Vorderweidenthal","type":"Kreisangehörige_Gemeinde"},"district":{"key":"07337","name":"Südliche Weinstraße","type":"Landkreis"},"federalState":{"key":"07","name":"Rheinland-Pfalz"}},{"name":"Thalstr.","postalCode":"76889","locality":"Vorderweidenthal","municipality":{"key":"07337079","name":"Vorderweidenthal","type":"Kreisangehörige_Gemeinde"},"district":{"key":"07337","name":"Südliche Weinstraße","type":"Landkreis"},"federalState":{"key":"07","name":"Rheinland-Pfalz"}},{"name":"Untere Bergstr.","postalCode":"76889","locality":"Vorderweidenthal","municipality":{"key":"07337079","name":"Vorderweidenthal","type":"Kreisangehörige_Gemeinde"},"district":{"key":"07337","name":"Südliche Weinstraße","type":"Landkreis"},"federalState":{"key":"07","name":"Rheinland-Pfalz"}},{"name":"Waldstr.","postalCode":"76889","locality":"Vorderweidenthal","municipality":{"key":"07337079","name":"Vorderweidenthal","type":"Kreisangehörige_Gemeinde"},"district":{"key":"07337","name":"Südliche Weinstraße","type":"Landkreis"},"federalState":{"key":"07","name":"Rheinland-Pfalz"}},{"name":"Wiesenstr.","postalCode":"76889","locality":"Vorderweidenthal","municipality":{"key":"07337079","name":"Vorderweidenthal","type":"Kreisangehörige_Gemeinde"},"district":{"key":"07337","name":"Südliche Weinstraße","type":"Landkreis"},"federalState":{"key":"07","name":"Rheinland-Pfalz"}},]