[{"name":"Abt-Bachmeyer-Str.","postalCode":"94081","locality":"Fürstenzell","municipality":{"key":"09275122","name":"Fürstenzell, M","type":"Markt"},"district":{"key":"09275","name":"Passau","type":"Landkreis"},"federalState":{"key":"09","name":"Bayern"}},{"name":"Abt-Walther-Str.","postalCode":"94081","locality":"Fürstenzell","municipality":{"key":"09275122","name":"Fürstenzell, M","type":"Markt"},"district":{"key":"09275","name":"Passau","type":"Landkreis"},"federalState":{"key":"09","name":"Bayern"}},{"name":"Adalbert-Stifter-Weg","postalCode":"94081","locality":"Fürstenzell","municipality":{"key":"09275122","name":"Fürstenzell, M","type":"Markt"},"district":{"key":"09275","name":"Passau","type":"Landkreis"},"federalState":{"key":"09","name":"Bayern"}},{"name":"Aivoglweg","postalCode":"94081","locality":"Fürstenzell","municipality":{"key":"09275122","name":"Fürstenzell, M","type":"Markt"},"district":{"key":"09275","name":"Passau","type":"Landkreis"},"federalState":{"key":"09","name":"Bayern"}},{"name":"Alfred-Kubin-Str.","postalCode":"94081","locality":"Fürstenzell","municipality":{"key":"09275122","name":"Fürstenzell, M","type":"Markt"},"district":{"key":"09275","name":"Passau","type":"Landkreis"},"federalState":{"key":"09","name":"Bayern"}},{"name":"Alte Schmiede","postalCode":"94081","locality":"Fürstenzell","municipality":{"key":"09275122","name":"Fürstenzell, M","type":"Markt"},"district":{"key":"09275","name":"Passau","type":"Landkreis"},"federalState":{"key":"09","name":"Bayern"}},{"name":"Alte Str.","postalCode":"94081","locality":"Fürstenzell","municipality":{"key":"09275122","name":"Fürstenzell, M","type":"Markt"},"district":{"key":"09275","name":"Passau","type":"Landkreis"},"federalState":{"key":"09","name":"Bayern"}},{"name":"Am Bergfeld","postalCode":"94081","locality":"Fürstenzell","municipality":{"key":"09275122","name":"Fürstenzell, M","type":"Markt"},"district":{"key":"09275","name":"Passau","type":"Landkreis"},"federalState":{"key":"09","name":"Bayern"}},{"name":"Am Kastenfeld","postalCode":"94081","locality":"Fürstenzell","municipality":{"key":"09275122","name":"Fürstenzell, M","type":"Markt"},"district":{"key":"09275","name":"Passau","type":"Landkreis"},"federalState":{"key":"09","name":"Bayern"}},{"name":"Am Mühlbach","postalCode":"94081","locality":"Fürstenzell","municipality":{"key":"09275122","name":"Fürstenzell, M","type":"Markt"},"district":{"key":"09275","name":"Passau","type":"Landkreis"},"federalState":{"key":"09","name":"Bayern"}},{"name":"Amselweg","postalCode":"94081","locality":"Fürstenzell","municipality":{"key":"09275122","name":"Fürstenzell, M","type":"Markt"},"district":{"key":"09275","name":"Passau","type":"Landkreis"},"federalState":{"key":"09","name":"Bayern"}},{"name":"Am Weinhügel","postalCode":"94081","locality":"Fürstenzell","municipality":{"key":"09275122","name":"Fürstenzell, M","type":"Markt"},"district":{"key":"09275","name":"Passau","type":"Landkreis"},"federalState":{"key":"09","name":"Bayern"}},{"name":"Am Wirtsfeld","postalCode":"94081","locality":"Fürstenzell","municipality":{"key":"09275122","name":"Fürstenzell, M","type":"Markt"},"district":{"key":"09275","name":"Passau","type":"Landkreis"},"federalState":{"key":"09","name":"Bayern"}},{"name":"Asenhamer Str.","postalCode":"94081","locality":"Fürstenzell","municipality":{"key":"09275122","name":"Fürstenzell, M","type":"Markt"},"district":{"key":"09275","name":"Passau","type":"Landkreis"},"federalState":{"key":"09","name":"Bayern"}},{"name":"Aspertsham","postalCode":"94081","locality":"Fürstenzell","municipality":{"key":"09275122","name":"Fürstenzell, M","type":"Markt"},"district":{"key":"09275","name":"Passau","type":"Landkreis"},"federalState":{"key":"09","name":"Bayern"}},{"name":"Auerweg","postalCode":"94081","locality":"Fürstenzell","municipality":{"key":"09275122","name":"Fürstenzell, M","type":"Markt"},"district":{"key":"09275","name":"Passau","type":"Landkreis"},"federalState":{"key":"09","name":"Bayern"}},{"name":"August-Wieschemeyer-Str.","postalCode":"94081","locality":"Fürstenzell","municipality":{"key":"09275122","name":"Fürstenzell, M","type":"Markt"},"district":{"key":"09275","name":"Passau","type":"Landkreis"},"federalState":{"key":"09","name":"Bayern"}},{"name":"Bad Höhenstadt","postalCode":"94081","locality":"Fürstenzell","municipality":{"key":"09275122","name":"Fürstenzell, M","type":"Markt"},"district":{"key":"09275","name":"Passau","type":"Landkreis"},"federalState":{"key":"09","name":"Bayern"}},{"name":"Bahnhofstr.","postalCode":"94081","locality":"Fürstenzell","municipality":{"key":"09275122","name":"Fürstenzell, M","type":"Markt"},"district":{"key":"09275","name":"Passau","type":"Landkreis"},"federalState":{"key":"09","name":"Bayern"}},{"name":"Bergstr.","postalCode":"94081","locality":"Fürstenzell","municipality":{"key":"09275122","name":"Fürstenzell, M","type":"Markt"},"district":{"key":"09275","name":"Passau","type":"Landkreis"},"federalState":{"key":"09","name":"Bayern"}},{"name":"Bibelgarten","postalCode":"94081","locality":"Fürstenzell","municipality":{"key":"09275122","name":"Fürstenzell, M","type":"Markt"},"district":{"key":"09275","name":"Passau","type":"Landkreis"},"federalState":{"key":"09","name":"Bayern"}},{"name":"Birkenweg","postalCode":"94081","locality":"Fürstenzell","municipality":{"key":"09275122","name":"Fürstenzell, M","type":"Markt"},"district":{"key":"09275","name":"Passau","type":"Landkreis"},"federalState":{"key":"09","name":"Bayern"}},{"name":"Brandweg","postalCode":"94081","locality":"Fürstenzell","municipality":{"key":"09275122","name":"Fürstenzell, M","type":"Markt"},"district":{"key":"09275","name":"Passau","type":"Landkreis"},"federalState":{"key":"09","name":"Bayern"}},{"name":"Bromberg","postalCode":"94081","locality":"Fürstenzell","municipality":{"key":"09275122","name":"Fürstenzell, M","type":"Markt"},"district":{"key":"09275","name":"Passau","type":"Landkreis"},"federalState":{"key":"09","name":"Bayern"}},{"name":"Buchenweg","postalCode":"94081","locality":"Fürstenzell","municipality":{"key":"09275122","name":"Fürstenzell, M","type":"Markt"},"district":{"key":"09275","name":"Passau","type":"Landkreis"},"federalState":{"key":"09","name":"Bayern"}},{"name":"Carlonegasse","postalCode":"94032","locality":"Passau","municipality":{"key":"09262000","name":"Passau","type":"Kreisfreie_Stadt"},"district":{"key":"09262","name":"Passau","type":"Kreisfreie_Stadt"},"federalState":{"key":"09","name":"Bayern"}},{"name":"Carossastr.","postalCode":"94036","locality":"Passau","municipality":{"key":"09262000","name":"Passau","type":"Kreisfreie_Stadt"},"district":{"key":"09262","name":"Passau","type":"Kreisfreie_Stadt"},"federalState":{"key":"09","name":"Bayern"}},{"name":"Christdobl","postalCode":"94034","locality":"Passau","municipality":{"key":"09262000","name":"Passau","type":"Kreisfreie_Stadt"},"district":{"key":"09262","name":"Passau","type":"Kreisfreie_Stadt"},"federalState":{"key":"09","name":"Bayern"}},{"name":"Doktorweg","postalCode":"94081","locality":"Fürstenzell","municipality":{"key":"09275122","name":"Fürstenzell, M","type":"Markt"},"district":{"key":"09275","name":"Passau","type":"Landkreis"},"federalState":{"key":"09","name":"Bayern"}},{"name":"Dorfgasse","postalCode":"94081","locality":"Fürstenzell","municipality":{"key":"09275122","name":"Fürstenzell, M","type":"Markt"},"district":{"key":"09275","name":"Passau","type":"Landkreis"},"federalState":{"key":"09","name":"Bayern"}},{"name":"Drosselweg","postalCode":"94081","locality":"Fürstenzell","municipality":{"key":"09275122","name":"Fürstenzell, M","type":"Markt"},"district":{"key":"09275","name":"Passau","type":"Landkreis"},"federalState":{"key":"09","name":"Bayern"}},{"name":"Durheimer Str.","postalCode":"94081","locality":"Fürstenzell","municipality":{"key":"09275122","name":"Fürstenzell, M","type":"Markt"},"district":{"key":"09275","name":"Passau","type":"Landkreis"},"federalState":{"key":"09","name":"Bayern"}},{"name":"Eichendorffstr.","postalCode":"94081","locality":"Fürstenzell","municipality":{"key":"09275122","name":"Fürstenzell, M","type":"Markt"},"district":{"key":"09275","name":"Passau","type":"Landkreis"},"federalState":{"key":"09","name":"Bayern"}},{"name":"Eichenweg","postalCode":"94081","locality":"Fürstenzell","municipality":{"key":"09275122","name":"Fürstenzell, M","type":"Markt"},"district":{"key":"09275","name":"Passau","type":"Landkreis"},"federalState":{"key":"09","name":"Bayern"}},{"name":"Emerenz-Maier-Weg","postalCode":"94081","locality":"Fürstenzell","municipality":{"key":"09275122","name":"Fürstenzell, M","type":"Markt"},"district":{"key":"09275","name":"Passau","type":"Landkreis"},"federalState":{"key":"09","name":"Bayern"}},{"name":"Endau","postalCode":"94081","locality":"Fürstenzell","municipality":{"key":"09275122","name":"Fürstenzell, M","type":"Markt"},"district":{"key":"09275","name":"Passau","type":"Landkreis"},"federalState":{"key":"09","name":"Bayern"}},{"name":"Erlengasse","postalCode":"94081","locality":"Fürstenzell","municipality":{"key":"09275122","name":"Fürstenzell, M","type":"Markt"},"district":{"key":"09275","name":"Passau","type":"Landkreis"},"federalState":{"key":"09","name":"Bayern"}},{"name":"Fasanenweg","postalCode":"94081","locality":"Fürstenzell","municipality":{"key":"09275122","name":"Fürstenzell, M","type":"Markt"},"district":{"key":"09275","name":"Passau","type":"Landkreis"},"federalState":{"key":"09","name":"Bayern"}},{"name":"Franz-Ringseis-Weg","postalCode":"94081","locality":"Fürstenzell","municipality":{"key":"09275122","name":"Fürstenzell, M","type":"Markt"},"district":{"key":"09275","name":"Passau","type":"Landkreis"},"federalState":{"key":"09","name":"Bayern"}},{"name":"Franz-Stelzhamer-Str.","postalCode":"94081","locality":"Fürstenzell","municipality":{"key":"09275122","name":"Fürstenzell, M","type":"Markt"},"district":{"key":"09275","name":"Passau","type":"Landkreis"},"federalState":{"key":"09","name":"Bayern"}},{"name":"Frühlingstr.","postalCode":"94081","locality":"Fürstenzell","municipality":{"key":"09275122","name":"Fürstenzell, M","type":"Markt"},"district":{"key":"09275","name":"Passau","type":"Landkreis"},"federalState":{"key":"09","name":"Bayern"}},{"name":"Gabingerweg","postalCode":"94081","locality":"Fürstenzell","municipality":{"key":"09275122","name":"Fürstenzell, M","type":"Markt"},"district":{"key":"09275","name":"Passau","type":"Landkreis"},"federalState":{"key":"09","name":"Bayern"}},{"name":"Gartenstr.","postalCode":"94081","locality":"Fürstenzell","municipality":{"key":"09275122","name":"Fürstenzell, M","type":"Markt"},"district":{"key":"09275","name":"Passau","type":"Landkreis"},"federalState":{"key":"09","name":"Bayern"}},{"name":"Gföhret","postalCode":"94081","locality":"Fürstenzell","municipality":{"key":"09275122","name":"Fürstenzell, M","type":"Markt"},"district":{"key":"09275","name":"Passau","type":"Landkreis"},"federalState":{"key":"09","name":"Bayern"}},{"name":"Griesbacher Str.","postalCode":"94081","locality":"Fürstenzell","municipality":{"key":"09275122","name":"Fürstenzell, M","type":"Markt"},"district":{"key":"09275","name":"Passau","type":"Landkreis"},"federalState":{"key":"09","name":"Bayern"}},{"name":"Gruberfeld","postalCode":"94081","locality":"Fürstenzell","municipality":{"key":"09275122","name":"Fürstenzell, M","type":"Markt"},"district":{"key":"09275","name":"Passau","type":"Landkreis"},"federalState":{"key":"09","name":"Bayern"}},{"name":"Gründoblweg","postalCode":"94081","locality":"Fürstenzell","municipality":{"key":"09275122","name":"Fürstenzell, M","type":"Markt"},"district":{"key":"09275","name":"Passau","type":"Landkreis"},"federalState":{"key":"09","name":"Bayern"}},{"name":"Hafering","postalCode":"94081","locality":"Fürstenzell","municipality":{"key":"09275122","name":"Fürstenzell, M","type":"Markt"},"district":{"key":"09275","name":"Passau","type":"Landkreis"},"federalState":{"key":"09","name":"Bayern"}},{"name":"Hans-Carossa-Str.","postalCode":"94081","locality":"Fürstenzell","municipality":{"key":"09275122","name":"Fürstenzell, M","type":"Markt"},"district":{"key":"09275","name":"Passau","type":"Landkreis"},"federalState":{"key":"09","name":"Bayern"}},{"name":"Hartwigstr.","postalCode":"94081","locality":"Fürstenzell","municipality":{"key":"09275122","name":"Fürstenzell, M","type":"Markt"},"district":{"key":"09275","name":"Passau","type":"Landkreis"},"federalState":{"key":"09","name":"Bayern"}},{"name":"Haydnweg","postalCode":"94081","locality":"Fürstenzell","municipality":{"key":"09275122","name":"Fürstenzell, M","type":"Markt"},"district":{"key":"09275","name":"Passau","type":"Landkreis"},"federalState":{"key":"09","name":"Bayern"}},{"name":"Herzog-Heinrich-Str.","postalCode":"94081","locality":"Fürstenzell","municipality":{"key":"09275122","name":"Fürstenzell, M","type":"Markt"},"district":{"key":"09275","name":"Passau","type":"Landkreis"},"federalState":{"key":"09","name":"Bayern"}},{"name":"Hirschsteinblick","postalCode":"94081","locality":"Fürstenzell","municipality":{"key":"09275122","name":"Fürstenzell, M","type":"Markt"},"district":{"key":"09275","name":"Passau","type":"Landkreis"},"federalState":{"key":"09","name":"Bayern"}},{"name":"Hochstr.","postalCode":"94081","locality":"Fürstenzell","municipality":{"key":"09275122","name":"Fürstenzell, M","type":"Markt"},"district":{"key":"09275","name":"Passau","type":"Landkreis"},"federalState":{"key":"09","name":"Bayern"}},{"name":"Holzbach","postalCode":"94081","locality":"Fürstenzell","municipality":{"key":"09275122","name":"Fürstenzell, M","type":"Markt"},"district":{"key":"09275","name":"Passau","type":"Landkreis"},"federalState":{"key":"09","name":"Bayern"}},{"name":"Holzbacher Str.","postalCode":"94081","locality":"Fürstenzell","municipality":{"key":"09275122","name":"Fürstenzell, M","type":"Markt"},"district":{"key":"09275","name":"Passau","type":"Landkreis"},"federalState":{"key":"09","name":"Bayern"}},{"name":"Hubert-Neufeld-Weg","postalCode":"94081","locality":"Fürstenzell","municipality":{"key":"09275122","name":"Fürstenzell, M","type":"Markt"},"district":{"key":"09275","name":"Passau","type":"Landkreis"},"federalState":{"key":"09","name":"Bayern"}},{"name":"Ignaz-Keil-Str.","postalCode":"94081","locality":"Fürstenzell","municipality":{"key":"09275122","name":"Fürstenzell, M","type":"Markt"},"district":{"key":"09275","name":"Passau","type":"Landkreis"},"federalState":{"key":"09","name":"Bayern"}},{"name":"Imbacherstr.","postalCode":"94081","locality":"Fürstenzell","municipality":{"key":"09275122","name":"Fürstenzell, M","type":"Markt"},"district":{"key":"09275","name":"Passau","type":"Landkreis"},"federalState":{"key":"09","name":"Bayern"}},{"name":"Irsham","postalCode":"94081","locality":"Fürstenzell","municipality":{"key":"09275122","name":"Fürstenzell, M","type":"Markt"},"district":{"key":"09275","name":"Passau","type":"Landkreis"},"federalState":{"key":"09","name":"Bayern"}},{"name":"Jägerwirth","postalCode":"94081","locality":"Fürstenzell","municipality":{"key":"09275122","name":"Fürstenzell, M","type":"Markt"},"district":{"key":"09275","name":"Passau","type":"Landkreis"},"federalState":{"key":"09","name":"Bayern"}},{"name":"Jägerwirthsteig","postalCode":"94081","locality":"Fürstenzell","municipality":{"key":"09275122","name":"Fürstenzell, M","type":"Markt"},"district":{"key":"09275","name":"Passau","type":"Landkreis"},"federalState":{"key":"09","name":"Bayern"}},{"name":"Johann-Baptist-Modler-Weg","postalCode":"94081","locality":"Fürstenzell","municipality":{"key":"09275122","name":"Fürstenzell, M","type":"Markt"},"district":{"key":"09275","name":"Passau","type":"Landkreis"},"federalState":{"key":"09","name":"Bayern"}},{"name":"Johann-Baptist-Straub-Str.","postalCode":"94081","locality":"Fürstenzell","municipality":{"key":"09275122","name":"Fürstenzell, M","type":"Markt"},"district":{"key":"09275","name":"Passau","type":"Landkreis"},"federalState":{"key":"09","name":"Bayern"}},{"name":"Johannes-Schletterer-Weg","postalCode":"94081","locality":"Fürstenzell","municipality":{"key":"09275122","name":"Fürstenzell, M","type":"Markt"},"district":{"key":"09275","name":"Passau","type":"Landkreis"},"federalState":{"key":"09","name":"Bayern"}},{"name":"Josef-Deutschmann-Straß","postalCode":"94081","locality":"Fürstenzell","municipality":{"key":"09275122","name":"Fürstenzell, M","type":"Markt"},"district":{"key":"09275","name":"Passau","type":"Landkreis"},"federalState":{"key":"09","name":"Bayern"}},{"name":"Kalterschlagweg","postalCode":"94081","locality":"Fürstenzell","municipality":{"key":"09275122","name":"Fürstenzell, M","type":"Markt"},"district":{"key":"09275","name":"Passau","type":"Landkreis"},"federalState":{"key":"09","name":"Bayern"}},{"name":"Kirchenstr.","postalCode":"94081","locality":"Fürstenzell","municipality":{"key":"09275122","name":"Fürstenzell, M","type":"Markt"},"district":{"key":"09275","name":"Passau","type":"Landkreis"},"federalState":{"key":"09","name":"Bayern"}},{"name":"Kirchenweg","postalCode":"94081","locality":"Fürstenzell","municipality":{"key":"09275122","name":"Fürstenzell, M","type":"Markt"},"district":{"key":"09275","name":"Passau","type":"Landkreis"},"federalState":{"key":"09","name":"Bayern"}},{"name":"Kohlweg","postalCode":"94081","locality":"Fürstenzell","municipality":{"key":"09275122","name":"Fürstenzell, M","type":"Markt"},"district":{"key":"09275","name":"Passau","type":"Landkreis"},"federalState":{"key":"09","name":"Bayern"}},{"name":"Kreuzsäulenweg","postalCode":"94081","locality":"Fürstenzell","municipality":{"key":"09275122","name":"Fürstenzell, M","type":"Markt"},"district":{"key":"09275","name":"Passau","type":"Landkreis"},"federalState":{"key":"09","name":"Bayern"}},{"name":"Laurentiusweg","postalCode":"94081","locality":"Fürstenzell","municipality":{"key":"09275122","name":"Fürstenzell, M","type":"Markt"},"district":{"key":"09275","name":"Passau","type":"Landkreis"},"federalState":{"key":"09","name":"Bayern"}},{"name":"Lerchenweg","postalCode":"94081","locality":"Fürstenzell","municipality":{"key":"09275122","name":"Fürstenzell, M","type":"Markt"},"district":{"key":"09275","name":"Passau","type":"Landkreis"},"federalState":{"key":"09","name":"Bayern"}},{"name":"Lindenweg","postalCode":"94081","locality":"Fürstenzell","municipality":{"key":"09275122","name":"Fürstenzell, M","type":"Markt"},"district":{"key":"09275","name":"Passau","type":"Landkreis"},"federalState":{"key":"09","name":"Bayern"}},{"name":"Ludwig-Thoma-Str.","postalCode":"94081","locality":"Fürstenzell","municipality":{"key":"09275122","name":"Fürstenzell, M","type":"Markt"},"district":{"key":"09275","name":"Passau","type":"Landkreis"},"federalState":{"key":"09","name":"Bayern"}},{"name":"Maierhofweg","postalCode":"94081","locality":"Fürstenzell","municipality":{"key":"09275122","name":"Fürstenzell, M","type":"Markt"},"district":{"key":"09275","name":"Passau","type":"Landkreis"},"federalState":{"key":"09","name":"Bayern"}},{"name":"Marienplatz","postalCode":"94081","locality":"Fürstenzell","municipality":{"key":"09275122","name":"Fürstenzell, M","type":"Markt"},"district":{"key":"09275","name":"Passau","type":"Landkreis"},"federalState":{"key":"09","name":"Bayern"}},{"name":"Marktplatz","postalCode":"94081","locality":"Fürstenzell","municipality":{"key":"09275122","name":"Fürstenzell, M","type":"Markt"},"district":{"key":"09275","name":"Passau","type":"Landkreis"},"federalState":{"key":"09","name":"Bayern"}},{"name":"Max-Peinkofer-Weg","postalCode":"94081","locality":"Fürstenzell","municipality":{"key":"09275122","name":"Fürstenzell, M","type":"Markt"},"district":{"key":"09275","name":"Passau","type":"Landkreis"},"federalState":{"key":"09","name":"Bayern"}},{"name":"Meisenweg","postalCode":"94081","locality":"Fürstenzell","municipality":{"key":"09275122","name":"Fürstenzell, M","type":"Markt"},"district":{"key":"09275","name":"Passau","type":"Landkreis"},"federalState":{"key":"09","name":"Bayern"}},{"name":"Michael-Fischer-Str.","postalCode":"94081","locality":"Fürstenzell","municipality":{"key":"09275122","name":"Fürstenzell, M","type":"Markt"},"district":{"key":"09275","name":"Passau","type":"Landkreis"},"federalState":{"key":"09","name":"Bayern"}},{"name":"Mozartstr.","postalCode":"94081","locality":"Fürstenzell","municipality":{"key":"09275122","name":"Fürstenzell, M","type":"Markt"},"district":{"key":"09275","name":"Passau","type":"Landkreis"},"federalState":{"key":"09","name":"Bayern"}},{"name":"Mühlenweg","postalCode":"94081","locality":"Fürstenzell","municipality":{"key":"09275122","name":"Fürstenzell, M","type":"Markt"},"district":{"key":"09275","name":"Passau","type":"Landkreis"},"federalState":{"key":"09","name":"Bayern"}},{"name":"Neue Str.","postalCode":"94081","locality":"Fürstenzell","municipality":{"key":"09275122","name":"Fürstenzell, M","type":"Markt"},"district":{"key":"09275","name":"Passau","type":"Landkreis"},"federalState":{"key":"09","name":"Bayern"}},{"name":"Neuhauser Str.","postalCode":"94081","locality":"Fürstenzell","municipality":{"key":"09275122","name":"Fürstenzell, M","type":"Markt"},"district":{"key":"09275","name":"Passau","type":"Landkreis"},"federalState":{"key":"09","name":"Bayern"}},{"name":"Nikolastr.","postalCode":"94081","locality":"Fürstenzell","municipality":{"key":"09275122","name":"Fürstenzell, M","type":"Markt"},"district":{"key":"09275","name":"Passau","type":"Landkreis"},"federalState":{"key":"09","name":"Bayern"}},{"name":"Oberaign","postalCode":"94081","locality":"Fürstenzell","municipality":{"key":"09275122","name":"Fürstenzell, M","type":"Markt"},"district":{"key":"09275","name":"Passau","type":"Landkreis"},"federalState":{"key":"09","name":"Bayern"}},{"name":"Obereichet","postalCode":"94081","locality":"Fürstenzell","municipality":{"key":"09275122","name":"Fürstenzell, M","type":"Markt"},"district":{"key":"09275","name":"Passau","type":"Landkreis"},"federalState":{"key":"09","name":"Bayern"}},{"name":"Oberreisching","postalCode":"94081","locality":"Fürstenzell","municipality":{"key":"09275122","name":"Fürstenzell, M","type":"Markt"},"district":{"key":"09275","name":"Passau","type":"Landkreis"},"federalState":{"key":"09","name":"Bayern"}},{"name":"Ortenburger Str.","postalCode":"94081","locality":"Fürstenzell","municipality":{"key":"09275122","name":"Fürstenzell, M","type":"Markt"},"district":{"key":"09275","name":"Passau","type":"Landkreis"},"federalState":{"key":"09","name":"Bayern"}},{"name":"Ottostr.","postalCode":"94081","locality":"Fürstenzell","municipality":{"key":"09275122","name":"Fürstenzell, M","type":"Markt"},"district":{"key":"09275","name":"Passau","type":"Landkreis"},"federalState":{"key":"09","name":"Bayern"}},{"name":"Park am Abundus","postalCode":"94081","locality":"Fürstenzell","municipality":{"key":"09275122","name":"Fürstenzell, M","type":"Markt"},"district":{"key":"09275","name":"Passau","type":"Landkreis"},"federalState":{"key":"09","name":"Bayern"}},{"name":"Park am Kirchplatz","postalCode":"94081","locality":"Fürstenzell","municipality":{"key":"09275122","name":"Fürstenzell, M","type":"Markt"},"district":{"key":"09275","name":"Passau","type":"Landkreis"},"federalState":{"key":"09","name":"Bayern"}},{"name":"Passauer Str.","postalCode":"94081","locality":"Fürstenzell","municipality":{"key":"09275122","name":"Fürstenzell, M","type":"Markt"},"district":{"key":"09275","name":"Passau","type":"Landkreis"},"federalState":{"key":"09","name":"Bayern"}},{"name":"Pauerstr.","postalCode":"94081","locality":"Fürstenzell","municipality":{"key":"09275122","name":"Fürstenzell, M","type":"Markt"},"district":{"key":"09275","name":"Passau","type":"Landkreis"},"federalState":{"key":"09","name":"Bayern"}},{"name":"Paulus-Rieger-Str.","postalCode":"94081","locality":"Fürstenzell","municipality":{"key":"09275122","name":"Fürstenzell, M","type":"Markt"},"district":{"key":"09275","name":"Passau","type":"Landkreis"},"federalState":{"key":"09","name":"Bayern"}},{"name":"Pemelöd","postalCode":"94081","locality":"Fürstenzell","municipality":{"key":"09275122","name":"Fürstenzell, M","type":"Markt"},"district":{"key":"09275","name":"Passau","type":"Landkreis"},"federalState":{"key":"09","name":"Bayern"}},{"name":"Peter-Rosegger-Weg","postalCode":"94081","locality":"Fürstenzell","municipality":{"key":"09275122","name":"Fürstenzell, M","type":"Markt"},"district":{"key":"09275","name":"Passau","type":"Landkreis"},"federalState":{"key":"09","name":"Bayern"}},{"name":"Pfalsauer Weg","postalCode":"94081","locality":"Fürstenzell","municipality":{"key":"09275122","name":"Fürstenzell, M","type":"Markt"},"district":{"key":"09275","name":"Passau","type":"Landkreis"},"federalState":{"key":"09","name":"Bayern"}},{"name":"Pfandlweg","postalCode":"94081","locality":"Fürstenzell","municipality":{"key":"09275122","name":"Fürstenzell, M","type":"Markt"},"district":{"key":"09275","name":"Passau","type":"Landkreis"},"federalState":{"key":"09","name":"Bayern"}},{"name":"Prof.-Winklhofer-Weg","postalCode":"94081","locality":"Fürstenzell","municipality":{"key":"09275122","name":"Fürstenzell, M","type":"Markt"},"district":{"key":"09275","name":"Passau","type":"Landkreis"},"federalState":{"key":"09","name":"Bayern"}},{"name":"Quellenweg","postalCode":"94036","locality":"Passau","municipality":{"key":"09262000","name":"Passau","type":"Kreisfreie_Stadt"},"district":{"key":"09262","name":"Passau","type":"Kreisfreie_Stadt"},"federalState":{"key":"09","name":"Bayern"}},{"name":"Raiffeisenstr.","postalCode":"94081","locality":"Fürstenzell","municipality":{"key":"09275122","name":"Fürstenzell, M","type":"Markt"},"district":{"key":"09275","name":"Passau","type":"Landkreis"},"federalState":{"key":"09","name":"Bayern"}},{"name":"Rehschaln","postalCode":"94081","locality":"Fürstenzell","municipality":{"key":"09275122","name":"Fürstenzell, M","type":"Markt"},"district":{"key":"09275","name":"Passau","type":"Landkreis"},"federalState":{"key":"09","name":"Bayern"}},{"name":"Richard-Billinger-Weg","postalCode":"94081","locality":"Fürstenzell","municipality":{"key":"09275122","name":"Fürstenzell, M","type":"Markt"},"district":{"key":"09275","name":"Passau","type":"Landkreis"},"federalState":{"key":"09","name":"Bayern"}},{"name":"Ringstr.","postalCode":"94081","locality":"Fürstenzell","municipality":{"key":"09275122","name":"Fürstenzell, M","type":"Markt"},"district":{"key":"09275","name":"Passau","type":"Landkreis"},"federalState":{"key":"09","name":"Bayern"}},{"name":"Scheuereck","postalCode":"94081","locality":"Fürstenzell","municipality":{"key":"09275122","name":"Fürstenzell, M","type":"Markt"},"district":{"key":"09275","name":"Passau","type":"Landkreis"},"federalState":{"key":"09","name":"Bayern"}},{"name":"Schmiedbergstr.","postalCode":"94081","locality":"Fürstenzell","municipality":{"key":"09275122","name":"Fürstenzell, M","type":"Markt"},"district":{"key":"09275","name":"Passau","type":"Landkreis"},"federalState":{"key":"09","name":"Bayern"}},{"name":"Schubertstr.","postalCode":"94081","locality":"Fürstenzell","municipality":{"key":"09275122","name":"Fürstenzell, M","type":"Markt"},"district":{"key":"09275","name":"Passau","type":"Landkreis"},"federalState":{"key":"09","name":"Bayern"}},{"name":"Schulstr.","postalCode":"94081","locality":"Fürstenzell","municipality":{"key":"09275122","name":"Fürstenzell, M","type":"Markt"},"district":{"key":"09275","name":"Passau","type":"Landkreis"},"federalState":{"key":"09","name":"Bayern"}},{"name":"Sieglmühlweg","postalCode":"94081","locality":"Fürstenzell","municipality":{"key":"09275122","name":"Fürstenzell, M","type":"Markt"},"district":{"key":"09275","name":"Passau","type":"Landkreis"},"federalState":{"key":"09","name":"Bayern"}},{"name":"Soldatenbrunnweg","postalCode":"94081","locality":"Fürstenzell","municipality":{"key":"09275122","name":"Fürstenzell, M","type":"Markt"},"district":{"key":"09275","name":"Passau","type":"Landkreis"},"federalState":{"key":"09","name":"Bayern"}},{"name":"Sonnenweg","postalCode":"94081","locality":"Fürstenzell","municipality":{"key":"09275122","name":"Fürstenzell, M","type":"Markt"},"district":{"key":"09275","name":"Passau","type":"Landkreis"},"federalState":{"key":"09","name":"Bayern"}},{"name":"Sportplatzstr.","postalCode":"94081","locality":"Fürstenzell","municipality":{"key":"09275122","name":"Fürstenzell, M","type":"Markt"},"district":{"key":"09275","name":"Passau","type":"Landkreis"},"federalState":{"key":"09","name":"Bayern"}},{"name":"Stephanstr.","postalCode":"94081","locality":"Fürstenzell","municipality":{"key":"09275122","name":"Fürstenzell, M","type":"Markt"},"district":{"key":"09275","name":"Passau","type":"Landkreis"},"federalState":{"key":"09","name":"Bayern"}},{"name":"Stockerfeld","postalCode":"94081","locality":"Fürstenzell","municipality":{"key":"09275122","name":"Fürstenzell, M","type":"Markt"},"district":{"key":"09275","name":"Passau","type":"Landkreis"},"federalState":{"key":"09","name":"Bayern"}},{"name":"Sulzbachstr.","postalCode":"94081","locality":"Fürstenzell","municipality":{"key":"09275122","name":"Fürstenzell, M","type":"Markt"},"district":{"key":"09275","name":"Passau","type":"Landkreis"},"federalState":{"key":"09","name":"Bayern"}},{"name":"Tannenweg","postalCode":"94081","locality":"Fürstenzell","municipality":{"key":"09275122","name":"Fürstenzell, M","type":"Markt"},"district":{"key":"09275","name":"Passau","type":"Landkreis"},"federalState":{"key":"09","name":"Bayern"}},{"name":"Totenweg","postalCode":"94081","locality":"Fürstenzell","municipality":{"key":"09275122","name":"Fürstenzell, M","type":"Markt"},"district":{"key":"09275","name":"Passau","type":"Landkreis"},"federalState":{"key":"09","name":"Bayern"}},{"name":"Untereichet","postalCode":"94081","locality":"Fürstenzell","municipality":{"key":"09275122","name":"Fürstenzell, M","type":"Markt"},"district":{"key":"09275","name":"Passau","type":"Landkreis"},"federalState":{"key":"09","name":"Bayern"}},{"name":"Von Lamberg Str.","postalCode":"94081","locality":"Fürstenzell","municipality":{"key":"09275122","name":"Fürstenzell, M","type":"Markt"},"district":{"key":"09275","name":"Passau","type":"Landkreis"},"federalState":{"key":"09","name":"Bayern"}},{"name":"Weidenberg","postalCode":"94081","locality":"Fürstenzell","municipality":{"key":"09275122","name":"Fürstenzell, M","type":"Markt"},"district":{"key":"09275","name":"Passau","type":"Landkreis"},"federalState":{"key":"09","name":"Bayern"}},{"name":"Weinbergerweg","postalCode":"94081","locality":"Fürstenzell","municipality":{"key":"09275122","name":"Fürstenzell, M","type":"Markt"},"district":{"key":"09275","name":"Passau","type":"Landkreis"},"federalState":{"key":"09","name":"Bayern"}},{"name":"Wieninger Str.","postalCode":"94081","locality":"Fürstenzell","municipality":{"key":"09275122","name":"Fürstenzell, M","type":"Markt"},"district":{"key":"09275","name":"Passau","type":"Landkreis"},"federalState":{"key":"09","name":"Bayern"}},{"name":"Wilhelm-Diess-Weg","postalCode":"94081","locality":"Fürstenzell","municipality":{"key":"09275122","name":"Fürstenzell, M","type":"Markt"},"district":{"key":"09275","name":"Passau","type":"Landkreis"},"federalState":{"key":"09","name":"Bayern"}},{"name":"Wimberger Höhe","postalCode":"94081","locality":"Fürstenzell","municipality":{"key":"09275122","name":"Fürstenzell, M","type":"Markt"},"district":{"key":"09275","name":"Passau","type":"Landkreis"},"federalState":{"key":"09","name":"Bayern"}},{"name":"Wimberger Str.","postalCode":"94081","locality":"Fürstenzell","municipality":{"key":"09275122","name":"Fürstenzell, M","type":"Markt"},"district":{"key":"09275","name":"Passau","type":"Landkreis"},"federalState":{"key":"09","name":"Bayern"}},{"name":"Wirtsfeldring","postalCode":"94081","locality":"Fürstenzell","municipality":{"key":"09275122","name":"Fürstenzell, M","type":"Markt"},"district":{"key":"09275","name":"Passau","type":"Landkreis"},"federalState":{"key":"09","name":"Bayern"}},{"name":"Wöhrlweg","postalCode":"94081","locality":"Fürstenzell","municipality":{"key":"09275122","name":"Fürstenzell, M","type":"Markt"},"district":{"key":"09275","name":"Passau","type":"Landkreis"},"federalState":{"key":"09","name":"Bayern"}},{"name":"Wolfgang-Marius-Weg","postalCode":"94081","locality":"Fürstenzell","municipality":{"key":"09275122","name":"Fürstenzell, M","type":"Markt"},"district":{"key":"09275","name":"Passau","type":"Landkreis"},"federalState":{"key":"09","name":"Bayern"}},{"name":"Zellauerweg","postalCode":"94081","locality":"Fürstenzell","municipality":{"key":"09275122","name":"Fürstenzell, M","type":"Markt"},"district":{"key":"09275","name":"Passau","type":"Landkreis"},"federalState":{"key":"09","name":"Bayern"}},{"name":"Zentralpark Fürstenzell","postalCode":"94081","locality":"Fürstenzell","municipality":{"key":"09275122","name":"Fürstenzell, M","type":"Markt"},"district":{"key":"09275","name":"Passau","type":"Landkreis"},"federalState":{"key":"09","name":"Bayern"}},{"name":"Äußere Spitalhofstr.","postalCode":"94036","locality":"Passau","municipality":{"key":"09262000","name":"Passau","type":"Kreisfreie_Stadt"},"district":{"key":"09262","name":"Passau","type":"Kreisfreie_Stadt"},"federalState":{"key":"09","name":"Bayern"}},]