[{"key":"10032755","name":"Aabachstrasse","postalCode":"5703","locality":"Seon","commune":{"key":"4209","name":"Seon","shortName":"Seon"},"district":{"key":"1907","name":"Bezirk Lenzburg"},"canton":{"key":"19","code":"AG","name":"Aargau"},"status":"Real"},{"key":"10075615","name":"Aarauerstrasse","postalCode":"5703","locality":"Seon","commune":{"key":"4209","name":"Seon","shortName":"Seon"},"district":{"key":"1907","name":"Bezirk Lenzburg"},"canton":{"key":"19","code":"AG","name":"Aargau"},"status":"Real"},{"key":"10096829","name":"Ackerweg","postalCode":"5703","locality":"Seon","commune":{"key":"4209","name":"Seon","shortName":"Seon"},"district":{"key":"1907","name":"Bezirk Lenzburg"},"canton":{"key":"19","code":"AG","name":"Aargau"},"status":"Real"},{"key":"10184514","name":"Ahornweg","postalCode":"5703","locality":"Seon","commune":{"key":"4209","name":"Seon","shortName":"Seon"},"district":{"key":"1907","name":"Bezirk Lenzburg"},"canton":{"key":"19","code":"AG","name":"Aargau"},"status":"Real"},{"key":"10032756","name":"Alpenweg","postalCode":"5703","locality":"Seon","commune":{"key":"4209","name":"Seon","shortName":"Seon"},"district":{"key":"1907","name":"Bezirk Lenzburg"},"canton":{"key":"19","code":"AG","name":"Aargau"},"status":"Real"},{"key":"10032757","name":"Arvenweg","postalCode":"5703","locality":"Seon","commune":{"key":"4209","name":"Seon","shortName":"Seon"},"district":{"key":"1907","name":"Bezirk Lenzburg"},"canton":{"key":"19","code":"AG","name":"Aargau"},"status":"Real"},{"key":"10075616","name":"Ausserdorfstrasse","postalCode":"5703","locality":"Seon","commune":{"key":"4209","name":"Seon","shortName":"Seon"},"district":{"key":"1907","name":"Bezirk Lenzburg"},"canton":{"key":"19","code":"AG","name":"Aargau"},"status":"Real"},{"key":"10096830","name":"Bachmattweg","postalCode":"5703","locality":"Seon","commune":{"key":"4209","name":"Seon","shortName":"Seon"},"district":{"key":"1907","name":"Bezirk Lenzburg"},"canton":{"key":"19","code":"AG","name":"Aargau"},"status":"Real"},{"key":"10032758","name":"Bachweg","postalCode":"5703","locality":"Seon","commune":{"key":"4209","name":"Seon","shortName":"Seon"},"district":{"key":"1907","name":"Bezirk Lenzburg"},"canton":{"key":"19","code":"AG","name":"Aargau"},"status":"Real"},{"key":"10032759","name":"Bergmattstrasse","postalCode":"5703","locality":"Seon","commune":{"key":"4209","name":"Seon","shortName":"Seon"},"district":{"key":"1907","name":"Bezirk Lenzburg"},"canton":{"key":"19","code":"AG","name":"Aargau"},"status":"Real"},{"key":"10120094","name":"Birackerstrasse","postalCode":"5703","locality":"Seon","commune":{"key":"4209","name":"Seon","shortName":"Seon"},"district":{"key":"1907","name":"Bezirk Lenzburg"},"canton":{"key":"19","code":"AG","name":"Aargau"},"status":"Real"},{"key":"10096831","name":"Birchmattstrasse","postalCode":"5703","locality":"Seon","commune":{"key":"4209","name":"Seon","shortName":"Seon"},"district":{"key":"1907","name":"Bezirk Lenzburg"},"canton":{"key":"19","code":"AG","name":"Aargau"},"status":"Real"},{"key":"10075617","name":"Birren","postalCode":"5703","locality":"Seon","commune":{"key":"4209","name":"Seon","shortName":"Seon"},"district":{"key":"1907","name":"Bezirk Lenzburg"},"canton":{"key":"19","code":"AG","name":"Aargau"},"status":"Real"},{"key":"10032760","name":"Blumenweg","postalCode":"5703","locality":"Seon","commune":{"key":"4209","name":"Seon","shortName":"Seon"},"district":{"key":"1907","name":"Bezirk Lenzburg"},"canton":{"key":"19","code":"AG","name":"Aargau"},"status":"Real"},{"key":"10184515","name":"Brauereiweg","postalCode":"5703","locality":"Seon","commune":{"key":"4209","name":"Seon","shortName":"Seon"},"district":{"key":"1907","name":"Bezirk Lenzburg"},"canton":{"key":"19","code":"AG","name":"Aargau"},"status":"Real"},{"key":"10117735","name":"Breitenrainweg","postalCode":"5703","locality":"Seon","commune":{"key":"4209","name":"Seon","shortName":"Seon"},"district":{"key":"1907","name":"Bezirk Lenzburg"},"canton":{"key":"19","code":"AG","name":"Aargau"},"status":"Real"},{"key":"10075618","name":"Breitenweg","postalCode":"5703","locality":"Seon","commune":{"key":"4209","name":"Seon","shortName":"Seon"},"district":{"key":"1907","name":"Bezirk Lenzburg"},"canton":{"key":"19","code":"AG","name":"Aargau"},"status":"Real"},{"key":"10247072","name":"Brisenweg","postalCode":"5703","locality":"Seon","commune":{"key":"4209","name":"Seon","shortName":"Seon"},"district":{"key":"1907","name":"Bezirk Lenzburg"},"canton":{"key":"19","code":"AG","name":"Aargau"},"status":"Real"},{"key":"10096832","name":"Buchenweg","postalCode":"5703","locality":"Seon","commune":{"key":"4209","name":"Seon","shortName":"Seon"},"district":{"key":"1907","name":"Bezirk Lenzburg"},"canton":{"key":"19","code":"AG","name":"Aargau"},"status":"Real"},{"key":"10032761","name":"Chrischonaweg","postalCode":"5703","locality":"Seon","commune":{"key":"4209","name":"Seon","shortName":"Seon"},"district":{"key":"1907","name":"Bezirk Lenzburg"},"canton":{"key":"19","code":"AG","name":"Aargau"},"status":"Real"},{"key":"10032762","name":"Chüferweg","postalCode":"5703","locality":"Seon","commune":{"key":"4209","name":"Seon","shortName":"Seon"},"district":{"key":"1907","name":"Bezirk Lenzburg"},"canton":{"key":"19","code":"AG","name":"Aargau"},"status":"Real"},{"key":"10096833","name":"Egliswilerstrasse","postalCode":"5703","locality":"Seon","commune":{"key":"4209","name":"Seon","shortName":"Seon"},"district":{"key":"1907","name":"Bezirk Lenzburg"},"canton":{"key":"19","code":"AG","name":"Aargau"},"status":"Real"},{"key":"10075619","name":"Eichbergweg","postalCode":"5703","locality":"Seon","commune":{"key":"4209","name":"Seon","shortName":"Seon"},"district":{"key":"1907","name":"Bezirk Lenzburg"},"canton":{"key":"19","code":"AG","name":"Aargau"},"status":"Real"},{"key":"10032763","name":"Emmet","postalCode":"5703","locality":"Seon","commune":{"key":"4209","name":"Seon","shortName":"Seon"},"district":{"key":"1907","name":"Bezirk Lenzburg"},"canton":{"key":"19","code":"AG","name":"Aargau"},"status":"Real"},{"key":"10159902","name":"Erlenweg","postalCode":"5703","locality":"Seon","commune":{"key":"4209","name":"Seon","shortName":"Seon"},"district":{"key":"1907","name":"Bezirk Lenzburg"},"canton":{"key":"19","code":"AG","name":"Aargau"},"status":"Real"},{"key":"10032764","name":"Esterliweg","postalCode":"5703","locality":"Seon","commune":{"key":"4209","name":"Seon","shortName":"Seon"},"district":{"key":"1907","name":"Bezirk Lenzburg"},"canton":{"key":"19","code":"AG","name":"Aargau"},"status":"Real"},{"key":"10032765","name":"Fliederweg","postalCode":"5703","locality":"Seon","commune":{"key":"4209","name":"Seon","shortName":"Seon"},"district":{"key":"1907","name":"Bezirk Lenzburg"},"canton":{"key":"19","code":"AG","name":"Aargau"},"status":"Real"},{"key":"10075620","name":"Flurweg","postalCode":"5703","locality":"Seon","commune":{"key":"4209","name":"Seon","shortName":"Seon"},"district":{"key":"1907","name":"Bezirk Lenzburg"},"canton":{"key":"19","code":"AG","name":"Aargau"},"status":"Real"},{"key":"10184516","name":"Fornholz","postalCode":"5703","locality":"Seon","commune":{"key":"4209","name":"Seon","shortName":"Seon"},"district":{"key":"1907","name":"Bezirk Lenzburg"},"canton":{"key":"19","code":"AG","name":"Aargau"},"status":"Real"},{"key":"10032766","name":"Friedhofweg","postalCode":"5703","locality":"Seon","commune":{"key":"4209","name":"Seon","shortName":"Seon"},"district":{"key":"1907","name":"Bezirk Lenzburg"},"canton":{"key":"19","code":"AG","name":"Aargau"},"status":"Real"},{"key":"10096834","name":"Galglirain","postalCode":"5703","locality":"Seon","commune":{"key":"4209","name":"Seon","shortName":"Seon"},"district":{"key":"1907","name":"Bezirk Lenzburg"},"canton":{"key":"19","code":"AG","name":"Aargau"},"status":"Real"},{"key":"10032767","name":"Galgliweg","postalCode":"5703","locality":"Seon","commune":{"key":"4209","name":"Seon","shortName":"Seon"},"district":{"key":"1907","name":"Bezirk Lenzburg"},"canton":{"key":"19","code":"AG","name":"Aargau"},"status":"Real"},{"key":"10075621","name":"Gartenweg","postalCode":"5703","locality":"Seon","commune":{"key":"4209","name":"Seon","shortName":"Seon"},"district":{"key":"1907","name":"Bezirk Lenzburg"},"canton":{"key":"19","code":"AG","name":"Aargau"},"status":"Real"},{"key":"10096835","name":"Gässli","postalCode":"5703","locality":"Seon","commune":{"key":"4209","name":"Seon","shortName":"Seon"},"district":{"key":"1907","name":"Bezirk Lenzburg"},"canton":{"key":"19","code":"AG","name":"Aargau"},"status":"Real"},{"key":"10156073","name":"Gässlimattweg","postalCode":"5703","locality":"Seon","commune":{"key":"4209","name":"Seon","shortName":"Seon"},"district":{"key":"1907","name":"Bezirk Lenzburg"},"canton":{"key":"19","code":"AG","name":"Aargau"},"status":"Real"},{"key":"10109627","name":"Giessereiweg","postalCode":"5703","locality":"Seon","commune":{"key":"4209","name":"Seon","shortName":"Seon"},"district":{"key":"1907","name":"Bezirk Lenzburg"},"canton":{"key":"19","code":"AG","name":"Aargau"},"status":"Real"},{"key":"10186886","name":"Grubenweg","postalCode":"5703","locality":"Seon","commune":{"key":"4209","name":"Seon","shortName":"Seon"},"district":{"key":"1907","name":"Bezirk Lenzburg"},"canton":{"key":"19","code":"AG","name":"Aargau"},"status":"Real"},{"key":"10032768","name":"Haldenweg","postalCode":"5703","locality":"Seon","commune":{"key":"4209","name":"Seon","shortName":"Seon"},"district":{"key":"1907","name":"Bezirk Lenzburg"},"canton":{"key":"19","code":"AG","name":"Aargau"},"status":"Real"},{"key":"10075622","name":"Hammer","postalCode":"5703","locality":"Seon","commune":{"key":"4209","name":"Seon","shortName":"Seon"},"district":{"key":"1907","name":"Bezirk Lenzburg"},"canton":{"key":"19","code":"AG","name":"Aargau"},"status":"Real"},{"key":"10052812","name":"Hargartenstrasse","postalCode":"5703","locality":"Seon","commune":{"key":"4209","name":"Seon","shortName":"Seon"},"district":{"key":"1907","name":"Bezirk Lenzburg"},"canton":{"key":"19","code":"AG","name":"Aargau"},"status":"Real"},{"key":"10032769","name":"Hinterbergstrasse","postalCode":"5703","locality":"Seon","commune":{"key":"4209","name":"Seon","shortName":"Seon"},"district":{"key":"1907","name":"Bezirk Lenzburg"},"canton":{"key":"19","code":"AG","name":"Aargau"},"status":"Real"},{"key":"10096836","name":"Holdernweg","postalCode":"5703","locality":"Seon","commune":{"key":"4209","name":"Seon","shortName":"Seon"},"district":{"key":"1907","name":"Bezirk Lenzburg"},"canton":{"key":"19","code":"AG","name":"Aargau"},"status":"Real"},{"key":"10075623","name":"Iglisten","postalCode":"5703","locality":"Seon","commune":{"key":"4209","name":"Seon","shortName":"Seon"},"district":{"key":"1907","name":"Bezirk Lenzburg"},"canton":{"key":"19","code":"AG","name":"Aargau"},"status":"Real"},{"key":"10052813","name":"Jägersteg","postalCode":"5703","locality":"Seon","commune":{"key":"4209","name":"Seon","shortName":"Seon"},"district":{"key":"1907","name":"Bezirk Lenzburg"},"canton":{"key":"19","code":"AG","name":"Aargau"},"status":"Real"},{"key":"10032770","name":"Juraweg","postalCode":"5703","locality":"Seon","commune":{"key":"4209","name":"Seon","shortName":"Seon"},"district":{"key":"1907","name":"Bezirk Lenzburg"},"canton":{"key":"19","code":"AG","name":"Aargau"},"status":"Real"},{"key":"10032771","name":"Kindergartenstrasse","postalCode":"5703","locality":"Seon","commune":{"key":"4209","name":"Seon","shortName":"Seon"},"district":{"key":"1907","name":"Bezirk Lenzburg"},"canton":{"key":"19","code":"AG","name":"Aargau"},"status":"Real"},{"key":"10096837","name":"Kirchtalstrasse","postalCode":"5703","locality":"Seon","commune":{"key":"4209","name":"Seon","shortName":"Seon"},"district":{"key":"1907","name":"Bezirk Lenzburg"},"canton":{"key":"19","code":"AG","name":"Aargau"},"status":"Real"},{"key":"10052814","name":"Lärchenweg","postalCode":"5703","locality":"Seon","commune":{"key":"4209","name":"Seon","shortName":"Seon"},"district":{"key":"1907","name":"Bezirk Lenzburg"},"canton":{"key":"19","code":"AG","name":"Aargau"},"status":"Real"},{"key":"10184517","name":"Lenzburgerstrasse","postalCode":"5703","locality":"Seon","commune":{"key":"4209","name":"Seon","shortName":"Seon"},"district":{"key":"1907","name":"Bezirk Lenzburg"},"canton":{"key":"19","code":"AG","name":"Aargau"},"status":"Real"},{"key":"10116111","name":"Lindenweg","postalCode":"5703","locality":"Seon","commune":{"key":"4209","name":"Seon","shortName":"Seon"},"district":{"key":"1907","name":"Bezirk Lenzburg"},"canton":{"key":"19","code":"AG","name":"Aargau"},"status":"Real"},{"key":"10032772","name":"Luegetshalde","postalCode":"5703","locality":"Seon","commune":{"key":"4209","name":"Seon","shortName":"Seon"},"district":{"key":"1907","name":"Bezirk Lenzburg"},"canton":{"key":"19","code":"AG","name":"Aargau"},"status":"Real"},{"key":"10117736","name":"Maienweg","postalCode":"5703","locality":"Seon","commune":{"key":"4209","name":"Seon","shortName":"Seon"},"district":{"key":"1907","name":"Bezirk Lenzburg"},"canton":{"key":"19","code":"AG","name":"Aargau"},"status":"Real"},{"key":"10096838","name":"Mattenweg","postalCode":"5703","locality":"Seon","commune":{"key":"4209","name":"Seon","shortName":"Seon"},"district":{"key":"1907","name":"Bezirk Lenzburg"},"canton":{"key":"19","code":"AG","name":"Aargau"},"status":"Real"},{"key":"10052815","name":"Milchgasse","postalCode":"5703","locality":"Seon","commune":{"key":"4209","name":"Seon","shortName":"Seon"},"district":{"key":"1907","name":"Bezirk Lenzburg"},"canton":{"key":"19","code":"AG","name":"Aargau"},"status":"Real"},{"key":"10032773","name":"Mostereiweg","postalCode":"5703","locality":"Seon","commune":{"key":"4209","name":"Seon","shortName":"Seon"},"district":{"key":"1907","name":"Bezirk Lenzburg"},"canton":{"key":"19","code":"AG","name":"Aargau"},"status":"Real"},{"key":"10075624","name":"Mühleweg","postalCode":"5703","locality":"Seon","commune":{"key":"4209","name":"Seon","shortName":"Seon"},"district":{"key":"1907","name":"Bezirk Lenzburg"},"canton":{"key":"19","code":"AG","name":"Aargau"},"status":"Real"},{"key":"10146823","name":"Musterplatzweg","postalCode":"5703","locality":"Seon","commune":{"key":"4209","name":"Seon","shortName":"Seon"},"district":{"key":"1907","name":"Bezirk Lenzburg"},"canton":{"key":"19","code":"AG","name":"Aargau"},"status":"Real"},{"key":"10032774","name":"Neue Breite","postalCode":"5703","locality":"Seon","commune":{"key":"4209","name":"Seon","shortName":"Seon"},"district":{"key":"1907","name":"Bezirk Lenzburg"},"canton":{"key":"19","code":"AG","name":"Aargau"},"status":"Real"},{"key":"10052816","name":"Neulenstrasse","postalCode":"5703","locality":"Seon","commune":{"key":"4209","name":"Seon","shortName":"Seon"},"district":{"key":"1907","name":"Bezirk Lenzburg"},"canton":{"key":"19","code":"AG","name":"Aargau"},"status":"Real"},{"key":"10096839","name":"Neumattstrasse","postalCode":"5703","locality":"Seon","commune":{"key":"4209","name":"Seon","shortName":"Seon"},"district":{"key":"1907","name":"Bezirk Lenzburg"},"canton":{"key":"19","code":"AG","name":"Aargau"},"status":"Real"},{"key":"10032775","name":"Oberdorfstrasse","postalCode":"5703","locality":"Seon","commune":{"key":"4209","name":"Seon","shortName":"Seon"},"district":{"key":"1907","name":"Bezirk Lenzburg"},"canton":{"key":"19","code":"AG","name":"Aargau"},"status":"Real"},{"key":"10120082","name":"Oberfeldweg","postalCode":"5703","locality":"Seon","commune":{"key":"4209","name":"Seon","shortName":"Seon"},"district":{"key":"1907","name":"Bezirk Lenzburg"},"canton":{"key":"19","code":"AG","name":"Aargau"},"status":"Real"},{"key":"10120794","name":"Oholten","postalCode":"5703","locality":"Seon","commune":{"key":"4209","name":"Seon","shortName":"Seon"},"district":{"key":"1907","name":"Bezirk Lenzburg"},"canton":{"key":"19","code":"AG","name":"Aargau"},"status":"Real"},{"key":"10197311","name":"Oholten","postalCode":"5703","locality":"Seon","commune":{"key":"4209","name":"Seon","shortName":"Seon"},"district":{"key":"1907","name":"Bezirk Lenzburg"},"canton":{"key":"19","code":"AG","name":"Aargau"},"status":"Real"},{"key":"10202464","name":"Pfaffenbiel","postalCode":"5703","locality":"Seon","commune":{"key":"4209","name":"Seon","shortName":"Seon"},"district":{"key":"1907","name":"Bezirk Lenzburg"},"canton":{"key":"19","code":"AG","name":"Aargau"},"status":"Real"},{"key":"10075625","name":"Pilatusstrasse","postalCode":"5703","locality":"Seon","commune":{"key":"4209","name":"Seon","shortName":"Seon"},"district":{"key":"1907","name":"Bezirk Lenzburg"},"canton":{"key":"19","code":"AG","name":"Aargau"},"status":"Real"},{"key":"10032776","name":"Postweg","postalCode":"5703","locality":"Seon","commune":{"key":"4209","name":"Seon","shortName":"Seon"},"district":{"key":"1907","name":"Bezirk Lenzburg"},"canton":{"key":"19","code":"AG","name":"Aargau"},"status":"Real"},{"key":"10102042","name":"Rebhügelweg","postalCode":"5703","locality":"Seon","commune":{"key":"4209","name":"Seon","shortName":"Seon"},"district":{"key":"1907","name":"Bezirk Lenzburg"},"canton":{"key":"19","code":"AG","name":"Aargau"},"status":"Real"},{"key":"10032777","name":"Reiterweg","postalCode":"5703","locality":"Seon","commune":{"key":"4209","name":"Seon","shortName":"Seon"},"district":{"key":"1907","name":"Bezirk Lenzburg"},"canton":{"key":"19","code":"AG","name":"Aargau"},"status":"Real"},{"key":"10184518","name":"Retterswil","postalCode":"5703","locality":"Seon","commune":{"key":"4209","name":"Seon","shortName":"Seon"},"district":{"key":"1907","name":"Bezirk Lenzburg"},"canton":{"key":"19","code":"AG","name":"Aargau"},"status":"Real"},{"key":"10096840","name":"Retterswilerstrasse","postalCode":"5703","locality":"Seon","commune":{"key":"4209","name":"Seon","shortName":"Seon"},"district":{"key":"1907","name":"Bezirk Lenzburg"},"canton":{"key":"19","code":"AG","name":"Aargau"},"status":"Real"},{"key":"10053071","name":"Reussgasse","postalCode":"5703","locality":"Seon","commune":{"key":"4209","name":"Seon","shortName":"Seon"},"district":{"key":"1907","name":"Bezirk Lenzburg"},"canton":{"key":"19","code":"AG","name":"Aargau"},"status":"Real"},{"key":"10075626","name":"Rigiweg","postalCode":"5703","locality":"Seon","commune":{"key":"4209","name":"Seon","shortName":"Seon"},"district":{"key":"1907","name":"Bezirk Lenzburg"},"canton":{"key":"19","code":"AG","name":"Aargau"},"status":"Real"},{"key":"10032778","name":"Ringstrasse","postalCode":"5703","locality":"Seon","commune":{"key":"4209","name":"Seon","shortName":"Seon"},"district":{"key":"1907","name":"Bezirk Lenzburg"},"canton":{"key":"19","code":"AG","name":"Aargau"},"status":"Real"},{"key":"10186544","name":"Rosenweg","postalCode":"5703","locality":"Seon","commune":{"key":"4209","name":"Seon","shortName":"Seon"},"district":{"key":"1907","name":"Bezirk Lenzburg"},"canton":{"key":"19","code":"AG","name":"Aargau"},"status":"Real"},{"key":"10109628","name":"Schafisheimerstrasse","postalCode":"5703","locality":"Seon","commune":{"key":"4209","name":"Seon","shortName":"Seon"},"district":{"key":"1907","name":"Bezirk Lenzburg"},"canton":{"key":"19","code":"AG","name":"Aargau"},"status":"Real"},{"key":"10146824","name":"Scheuerbergstrasse","postalCode":"5703","locality":"Seon","commune":{"key":"4209","name":"Seon","shortName":"Seon"},"district":{"key":"1907","name":"Bezirk Lenzburg"},"canton":{"key":"19","code":"AG","name":"Aargau"},"status":"Real"},{"key":"10056290","name":"Schlatthof","postalCode":"5703","locality":"Seon","commune":{"key":"4209","name":"Seon","shortName":"Seon"},"district":{"key":"1907","name":"Bezirk Lenzburg"},"canton":{"key":"19","code":"AG","name":"Aargau"},"status":"Real"},{"key":"10051817","name":"Schönbühl","postalCode":"5703","locality":"Seon","commune":{"key":"4209","name":"Seon","shortName":"Seon"},"district":{"key":"1907","name":"Bezirk Lenzburg"},"canton":{"key":"19","code":"AG","name":"Aargau"},"status":"Real"},{"key":"10123574","name":"Seetalstrasse","postalCode":"5703","locality":"Seon","commune":{"key":"4209","name":"Seon","shortName":"Seon"},"district":{"key":"1907","name":"Bezirk Lenzburg"},"canton":{"key":"19","code":"AG","name":"Aargau"},"status":"Real"},{"key":"10075627","name":"Sigismühle","postalCode":"5703","locality":"Seon","commune":{"key":"4209","name":"Seon","shortName":"Seon"},"district":{"key":"1907","name":"Bezirk Lenzburg"},"canton":{"key":"19","code":"AG","name":"Aargau"},"status":"Real"},{"key":"10186887","name":"Spauselweg","postalCode":"5703","locality":"Seon","commune":{"key":"4209","name":"Seon","shortName":"Seon"},"district":{"key":"1907","name":"Bezirk Lenzburg"},"canton":{"key":"19","code":"AG","name":"Aargau"},"status":"Real"},{"key":"10032779","name":"Spitzensteinstrasse","postalCode":"5703","locality":"Seon","commune":{"key":"4209","name":"Seon","shortName":"Seon"},"district":{"key":"1907","name":"Bezirk Lenzburg"},"canton":{"key":"19","code":"AG","name":"Aargau"},"status":"Real"},{"key":"10146825","name":"Staufferstrasse","postalCode":"5703","locality":"Seon","commune":{"key":"4209","name":"Seon","shortName":"Seon"},"district":{"key":"1907","name":"Bezirk Lenzburg"},"canton":{"key":"19","code":"AG","name":"Aargau"},"status":"Real"},{"key":"10032780","name":"Stegmätteliweg","postalCode":"5703","locality":"Seon","commune":{"key":"4209","name":"Seon","shortName":"Seon"},"district":{"key":"1907","name":"Bezirk Lenzburg"},"canton":{"key":"19","code":"AG","name":"Aargau"},"status":"Real"},{"key":"10108150","name":"Steingässli","postalCode":"5703","locality":"Seon","commune":{"key":"4209","name":"Seon","shortName":"Seon"},"district":{"key":"1907","name":"Bezirk Lenzburg"},"canton":{"key":"19","code":"AG","name":"Aargau"},"status":"Real"},{"key":"10032781","name":"Stoltenweg","postalCode":"5703","locality":"Seon","commune":{"key":"4209","name":"Seon","shortName":"Seon"},"district":{"key":"1907","name":"Bezirk Lenzburg"},"canton":{"key":"19","code":"AG","name":"Aargau"},"status":"Real"},{"key":"10075628","name":"Sustenweg","postalCode":"5703","locality":"Seon","commune":{"key":"4209","name":"Seon","shortName":"Seon"},"district":{"key":"1907","name":"Bezirk Lenzburg"},"canton":{"key":"19","code":"AG","name":"Aargau"},"status":"Real"},{"key":"10102043","name":"Talstrasse","postalCode":"5703","locality":"Seon","commune":{"key":"4209","name":"Seon","shortName":"Seon"},"district":{"key":"1907","name":"Bezirk Lenzburg"},"canton":{"key":"19","code":"AG","name":"Aargau"},"status":"Real"},{"key":"10096841","name":"Tannenweg","postalCode":"5703","locality":"Seon","commune":{"key":"4209","name":"Seon","shortName":"Seon"},"district":{"key":"1907","name":"Bezirk Lenzburg"},"canton":{"key":"19","code":"AG","name":"Aargau"},"status":"Real"},{"key":"10117737","name":"Tannlihag","postalCode":"5703","locality":"Seon","commune":{"key":"4209","name":"Seon","shortName":"Seon"},"district":{"key":"1907","name":"Bezirk Lenzburg"},"canton":{"key":"19","code":"AG","name":"Aargau"},"status":"Real"},{"key":"10032782","name":"Titlisweg","postalCode":"5703","locality":"Seon","commune":{"key":"4209","name":"Seon","shortName":"Seon"},"district":{"key":"1907","name":"Bezirk Lenzburg"},"canton":{"key":"19","code":"AG","name":"Aargau"},"status":"Real"},{"key":"10053072","name":"Tulpenweg","postalCode":"5703","locality":"Seon","commune":{"key":"4209","name":"Seon","shortName":"Seon"},"district":{"key":"1907","name":"Bezirk Lenzburg"},"canton":{"key":"19","code":"AG","name":"Aargau"},"status":"Real"},{"key":"10096842","name":"Unterdorfstrasse","postalCode":"5703","locality":"Seon","commune":{"key":"4209","name":"Seon","shortName":"Seon"},"district":{"key":"1907","name":"Bezirk Lenzburg"},"canton":{"key":"19","code":"AG","name":"Aargau"},"status":"Real"},{"key":"10075629","name":"Vorderbergstrasse","postalCode":"5703","locality":"Seon","commune":{"key":"4209","name":"Seon","shortName":"Seon"},"district":{"key":"1907","name":"Bezirk Lenzburg"},"canton":{"key":"19","code":"AG","name":"Aargau"},"status":"Real"},{"key":"10187715","name":"Wäbiparkweg","postalCode":"5703","locality":"Seon","commune":{"key":"4209","name":"Seon","shortName":"Seon"},"district":{"key":"1907","name":"Bezirk Lenzburg"},"canton":{"key":"19","code":"AG","name":"Aargau"},"status":"Real"},{"key":"10051026","name":"Webereistrasse","postalCode":"5703","locality":"Seon","commune":{"key":"4209","name":"Seon","shortName":"Seon"},"district":{"key":"1907","name":"Bezirk Lenzburg"},"canton":{"key":"19","code":"AG","name":"Aargau"},"status":"Real"},{"key":"10134358","name":"Weihermattweg","postalCode":"5703","locality":"Seon","commune":{"key":"4209","name":"Seon","shortName":"Seon"},"district":{"key":"1907","name":"Bezirk Lenzburg"},"canton":{"key":"19","code":"AG","name":"Aargau"},"status":"Real"},{"key":"10184519","name":"Weinhalde","postalCode":"5703","locality":"Seon","commune":{"key":"4209","name":"Seon","shortName":"Seon"},"district":{"key":"1907","name":"Bezirk Lenzburg"},"canton":{"key":"19","code":"AG","name":"Aargau"},"status":"Real"},{"key":"10032783","name":"Zelglirain","postalCode":"5703","locality":"Seon","commune":{"key":"4209","name":"Seon","shortName":"Seon"},"district":{"key":"1907","name":"Bezirk Lenzburg"},"canton":{"key":"19","code":"AG","name":"Aargau"},"status":"Real"},{"key":"10032784","name":"Zelgliweg","postalCode":"5703","locality":"Seon","commune":{"key":"4209","name":"Seon","shortName":"Seon"},"district":{"key":"1907","name":"Bezirk Lenzburg"},"canton":{"key":"19","code":"AG","name":"Aargau"},"status":"Real"},{"key":"10032785","name":"Ziertalstrasse","postalCode":"5703","locality":"Seon","commune":{"key":"4209","name":"Seon","shortName":"Seon"},"district":{"key":"1907","name":"Bezirk Lenzburg"},"canton":{"key":"19","code":"AG","name":"Aargau"},"status":"Real"},{"key":"10075630","name":"Zopfweg","postalCode":"5703","locality":"Seon","commune":{"key":"4209","name":"Seon","shortName":"Seon"},"district":{"key":"1907","name":"Bezirk Lenzburg"},"canton":{"key":"19","code":"AG","name":"Aargau"},"status":"Real"},]