[{"name":"Adolf-von-Nassau-Str.","postalCode":"67308","locality":"Rüssingen","municipality":{"key":"07333064","name":"Rüssingen","type":"Kreisangehörige_Gemeinde"},"district":{"key":"07333","name":"Donnersbergkreis","type":"Landkreis"},"federalState":{"key":"07","name":"Rheinland-Pfalz"}},{"name":"Bangertsgasse","postalCode":"67308","locality":"Rüssingen","municipality":{"key":"07333064","name":"Rüssingen","type":"Kreisangehörige_Gemeinde"},"district":{"key":"07333","name":"Donnersbergkreis","type":"Landkreis"},"federalState":{"key":"07","name":"Rheinland-Pfalz"}},{"name":"Biedesheimer Str.","postalCode":"67308","locality":"Rüssingen","municipality":{"key":"07333064","name":"Rüssingen","type":"Kreisangehörige_Gemeinde"},"district":{"key":"07333","name":"Donnersbergkreis","type":"Landkreis"},"federalState":{"key":"07","name":"Rheinland-Pfalz"}},{"name":"Fasanenweg","postalCode":"67308","locality":"Rüssingen","municipality":{"key":"07333064","name":"Rüssingen","type":"Kreisangehörige_Gemeinde"},"district":{"key":"07333","name":"Donnersbergkreis","type":"Landkreis"},"federalState":{"key":"07","name":"Rheinland-Pfalz"}},{"name":"Gaubergstr.","postalCode":"67308","locality":"Rüssingen","municipality":{"key":"07333064","name":"Rüssingen","type":"Kreisangehörige_Gemeinde"},"district":{"key":"07333","name":"Donnersbergkreis","type":"Landkreis"},"federalState":{"key":"07","name":"Rheinland-Pfalz"}},{"name":"Göllheimer Str.","postalCode":"67308","locality":"Rüssingen","municipality":{"key":"07333064","name":"Rüssingen","type":"Kreisangehörige_Gemeinde"},"district":{"key":"07333","name":"Donnersbergkreis","type":"Landkreis"},"federalState":{"key":"07","name":"Rheinland-Pfalz"}},{"name":"Hauptstr.","postalCode":"67308","locality":"Rüssingen","municipality":{"key":"07333064","name":"Rüssingen","type":"Kreisangehörige_Gemeinde"},"district":{"key":"07333","name":"Donnersbergkreis","type":"Landkreis"},"federalState":{"key":"07","name":"Rheinland-Pfalz"}},{"name":"Hinter der Kirche","postalCode":"67308","locality":"Rüssingen","municipality":{"key":"07333064","name":"Rüssingen","type":"Kreisangehörige_Gemeinde"},"district":{"key":"07333","name":"Donnersbergkreis","type":"Landkreis"},"federalState":{"key":"07","name":"Rheinland-Pfalz"}},{"name":"Kristeiner Weg","postalCode":"67308","locality":"Rüssingen","municipality":{"key":"07333064","name":"Rüssingen","type":"Kreisangehörige_Gemeinde"},"district":{"key":"07333","name":"Donnersbergkreis","type":"Landkreis"},"federalState":{"key":"07","name":"Rheinland-Pfalz"}},{"name":"Ringstr.","postalCode":"67308","locality":"Rüssingen","municipality":{"key":"07333064","name":"Rüssingen","type":"Kreisangehörige_Gemeinde"},"district":{"key":"07333","name":"Donnersbergkreis","type":"Landkreis"},"federalState":{"key":"07","name":"Rheinland-Pfalz"}},{"name":"Weinbergstr.","postalCode":"67308","locality":"Rüssingen","municipality":{"key":"07333064","name":"Rüssingen","type":"Kreisangehörige_Gemeinde"},"district":{"key":"07333","name":"Donnersbergkreis","type":"Landkreis"},"federalState":{"key":"07","name":"Rheinland-Pfalz"}},]