[{"name":"4","postalCode":"01936","locality":"Laußnitz","municipality":{"key":"14625300","name":"Laußnitz","type":"Kreisangehörige_Gemeinde"},"district":{"key":"14625","name":"Bautzen","type":"Landkreis"},"federalState":{"key":"14","name":"Sachsen"}},{"name":"Aidlinger Str.","postalCode":"01936","locality":"Laußnitz","municipality":{"key":"14625300","name":"Laußnitz","type":"Kreisangehörige_Gemeinde"},"district":{"key":"14625","name":"Bautzen","type":"Landkreis"},"federalState":{"key":"14","name":"Sachsen"}},{"name":"Alte Drei","postalCode":"01936","locality":"Laußnitz","municipality":{"key":"14625300","name":"Laußnitz","type":"Kreisangehörige_Gemeinde"},"district":{"key":"14625","name":"Bautzen","type":"Landkreis"},"federalState":{"key":"14","name":"Sachsen"}},{"name":"Alte Mühle","postalCode":"09236","locality":"Claußnitz","municipality":{"key":"14522070","name":"Claußnitz","type":"Kreisangehörige_Gemeinde"},"district":{"key":"14522","name":"Mittelsachsen","type":"Landkreis"},"federalState":{"key":"14","name":"Sachsen"}},{"name":"Alter Sparren","postalCode":"01936","locality":"Laußnitz","municipality":{"key":"14625300","name":"Laußnitz","type":"Kreisangehörige_Gemeinde"},"district":{"key":"14625","name":"Bautzen","type":"Landkreis"},"federalState":{"key":"14","name":"Sachsen"}},{"name":"Alte Sechs","postalCode":"01936","locality":"Laußnitz","municipality":{"key":"14625300","name":"Laußnitz","type":"Kreisangehörige_Gemeinde"},"district":{"key":"14625","name":"Bautzen","type":"Landkreis"},"federalState":{"key":"14","name":"Sachsen"}},{"name":"Alte Sieben","postalCode":"01936","locality":"Laußnitz","municipality":{"key":"14625300","name":"Laußnitz","type":"Kreisangehörige_Gemeinde"},"district":{"key":"14625","name":"Bautzen","type":"Landkreis"},"federalState":{"key":"14","name":"Sachsen"}},{"name":"Alte Str.","postalCode":"01936","locality":"Laußnitz","municipality":{"key":"14625300","name":"Laußnitz","type":"Kreisangehörige_Gemeinde"},"district":{"key":"14625","name":"Bautzen","type":"Landkreis"},"federalState":{"key":"14","name":"Sachsen"}},{"name":"Altes W","postalCode":"01936","locality":"Laußnitz","municipality":{"key":"14625300","name":"Laußnitz","type":"Kreisangehörige_Gemeinde"},"district":{"key":"14625","name":"Bautzen","type":"Landkreis"},"federalState":{"key":"14","name":"Sachsen"}},{"name":"Am Alten Sportplatz","postalCode":"09236","locality":"Claußnitz","municipality":{"key":"14522070","name":"Claußnitz","type":"Kreisangehörige_Gemeinde"},"district":{"key":"14522","name":"Mittelsachsen","type":"Landkreis"},"federalState":{"key":"14","name":"Sachsen"}},{"name":"Am Anger","postalCode":"01936","locality":"Laußnitz","municipality":{"key":"14625300","name":"Laußnitz","type":"Kreisangehörige_Gemeinde"},"district":{"key":"14625","name":"Bautzen","type":"Landkreis"},"federalState":{"key":"14","name":"Sachsen"}},{"name":"Am Anger","postalCode":"09236","locality":"Claußnitz","municipality":{"key":"14522070","name":"Claußnitz","type":"Kreisangehörige_Gemeinde"},"district":{"key":"14522","name":"Mittelsachsen","type":"Landkreis"},"federalState":{"key":"14","name":"Sachsen"}},{"name":"Am Bahnhof","postalCode":"01936","locality":"Laußnitz","municipality":{"key":"14625300","name":"Laußnitz","type":"Kreisangehörige_Gemeinde"},"district":{"key":"14625","name":"Bautzen","type":"Landkreis"},"federalState":{"key":"14","name":"Sachsen"}},{"name":"Am Gemeindeamt","postalCode":"01936","locality":"Laußnitz","municipality":{"key":"14625300","name":"Laußnitz","type":"Kreisangehörige_Gemeinde"},"district":{"key":"14625","name":"Bautzen","type":"Landkreis"},"federalState":{"key":"14","name":"Sachsen"}},{"name":"Am Graben","postalCode":"01936","locality":"Laußnitz","municipality":{"key":"14625300","name":"Laußnitz","type":"Kreisangehörige_Gemeinde"},"district":{"key":"14625","name":"Bautzen","type":"Landkreis"},"federalState":{"key":"14","name":"Sachsen"}},{"name":"Am Hang","postalCode":"01936","locality":"Laußnitz","municipality":{"key":"14625300","name":"Laußnitz","type":"Kreisangehörige_Gemeinde"},"district":{"key":"14625","name":"Bautzen","type":"Landkreis"},"federalState":{"key":"14","name":"Sachsen"}},{"name":"Am Hang","postalCode":"09236","locality":"Claußnitz","municipality":{"key":"14522070","name":"Claußnitz","type":"Kreisangehörige_Gemeinde"},"district":{"key":"14522","name":"Mittelsachsen","type":"Landkreis"},"federalState":{"key":"14","name":"Sachsen"}},{"name":"Am Kirchsteg","postalCode":"01936","locality":"Laußnitz","municipality":{"key":"14625300","name":"Laußnitz","type":"Kreisangehörige_Gemeinde"},"district":{"key":"14625","name":"Bautzen","type":"Landkreis"},"federalState":{"key":"14","name":"Sachsen"}},{"name":"Am Lehrpfad","postalCode":"09236","locality":"Claußnitz","municipality":{"key":"14522070","name":"Claußnitz","type":"Kreisangehörige_Gemeinde"},"district":{"key":"14522","name":"Mittelsachsen","type":"Landkreis"},"federalState":{"key":"14","name":"Sachsen"}},{"name":"Am Mühlgraben","postalCode":"01936","locality":"Laußnitz","municipality":{"key":"14625300","name":"Laußnitz","type":"Kreisangehörige_Gemeinde"},"district":{"key":"14625","name":"Bautzen","type":"Landkreis"},"federalState":{"key":"14","name":"Sachsen"}},{"name":"Am Pflanzegarten","postalCode":"01936","locality":"Laußnitz","municipality":{"key":"14625300","name":"Laußnitz","type":"Kreisangehörige_Gemeinde"},"district":{"key":"14625","name":"Bautzen","type":"Landkreis"},"federalState":{"key":"14","name":"Sachsen"}},{"name":"Am Sonnenhang","postalCode":"09236","locality":"Claußnitz","municipality":{"key":"14522070","name":"Claußnitz","type":"Kreisangehörige_Gemeinde"},"district":{"key":"14522","name":"Mittelsachsen","type":"Landkreis"},"federalState":{"key":"14","name":"Sachsen"}},{"name":"Am Sportplatz","postalCode":"01936","locality":"Laußnitz","municipality":{"key":"14625300","name":"Laußnitz","type":"Kreisangehörige_Gemeinde"},"district":{"key":"14625","name":"Bautzen","type":"Landkreis"},"federalState":{"key":"14","name":"Sachsen"}},{"name":"Am Strahlberg","postalCode":"09236","locality":"Claußnitz","municipality":{"key":"14522070","name":"Claußnitz","type":"Kreisangehörige_Gemeinde"},"district":{"key":"14522","name":"Mittelsachsen","type":"Landkreis"},"federalState":{"key":"14","name":"Sachsen"}},{"name":"Am Teich","postalCode":"01936","locality":"Laußnitz","municipality":{"key":"14625300","name":"Laußnitz","type":"Kreisangehörige_Gemeinde"},"district":{"key":"14625","name":"Bautzen","type":"Landkreis"},"federalState":{"key":"14","name":"Sachsen"}},{"name":"Am Walberberg","postalCode":"01936","locality":"Laußnitz","municipality":{"key":"14625300","name":"Laußnitz","type":"Kreisangehörige_Gemeinde"},"district":{"key":"14625","name":"Bautzen","type":"Landkreis"},"federalState":{"key":"14","name":"Sachsen"}},{"name":"Am Wald","postalCode":"01936","locality":"Laußnitz","municipality":{"key":"14625300","name":"Laußnitz","type":"Kreisangehörige_Gemeinde"},"district":{"key":"14625","name":"Bautzen","type":"Landkreis"},"federalState":{"key":"14","name":"Sachsen"}},{"name":"An den Dorfwiesen","postalCode":"01936","locality":"Laußnitz","municipality":{"key":"14625300","name":"Laußnitz","type":"Kreisangehörige_Gemeinde"},"district":{"key":"14625","name":"Bautzen","type":"Landkreis"},"federalState":{"key":"14","name":"Sachsen"}},{"name":"An den Teichen","postalCode":"01936","locality":"Laußnitz","municipality":{"key":"14625300","name":"Laußnitz","type":"Kreisangehörige_Gemeinde"},"district":{"key":"14625","name":"Bautzen","type":"Landkreis"},"federalState":{"key":"14","name":"Sachsen"}},{"name":"Auenweg","postalCode":"01936","locality":"Laußnitz","municipality":{"key":"14625300","name":"Laußnitz","type":"Kreisangehörige_Gemeinde"},"district":{"key":"14625","name":"Bautzen","type":"Landkreis"},"federalState":{"key":"14","name":"Sachsen"}},{"name":"Bergstr.","postalCode":"01936","locality":"Laußnitz","municipality":{"key":"14625300","name":"Laußnitz","type":"Kreisangehörige_Gemeinde"},"district":{"key":"14625","name":"Bautzen","type":"Landkreis"},"federalState":{"key":"14","name":"Sachsen"}},{"name":"Bibergasse","postalCode":"01936","locality":"Laußnitz","municipality":{"key":"14625300","name":"Laußnitz","type":"Kreisangehörige_Gemeinde"},"district":{"key":"14625","name":"Bautzen","type":"Landkreis"},"federalState":{"key":"14","name":"Sachsen"}},{"name":"Birkenweg","postalCode":"09236","locality":"Claußnitz","municipality":{"key":"14522070","name":"Claußnitz","type":"Kreisangehörige_Gemeinde"},"district":{"key":"14522","name":"Mittelsachsen","type":"Landkreis"},"federalState":{"key":"14","name":"Sachsen"}},{"name":"Blumenstr.","postalCode":"01936","locality":"Laußnitz","municipality":{"key":"14625300","name":"Laußnitz","type":"Kreisangehörige_Gemeinde"},"district":{"key":"14625","name":"Bautzen","type":"Landkreis"},"federalState":{"key":"14","name":"Sachsen"}},{"name":"Borngasse","postalCode":"01936","locality":"Laußnitz","municipality":{"key":"14625300","name":"Laußnitz","type":"Kreisangehörige_Gemeinde"},"district":{"key":"14625","name":"Bautzen","type":"Landkreis"},"federalState":{"key":"14","name":"Sachsen"}},{"name":"Bornsteg","postalCode":"01936","locality":"Laußnitz","municipality":{"key":"14625300","name":"Laußnitz","type":"Kreisangehörige_Gemeinde"},"district":{"key":"14625","name":"Bautzen","type":"Landkreis"},"federalState":{"key":"14","name":"Sachsen"}},{"name":"Brandweg","postalCode":"01936","locality":"Laußnitz","municipality":{"key":"14625300","name":"Laußnitz","type":"Kreisangehörige_Gemeinde"},"district":{"key":"14625","name":"Bautzen","type":"Landkreis"},"federalState":{"key":"14","name":"Sachsen"}},{"name":"Bruchweg","postalCode":"01936","locality":"Laußnitz","municipality":{"key":"14625300","name":"Laußnitz","type":"Kreisangehörige_Gemeinde"},"district":{"key":"14625","name":"Bautzen","type":"Landkreis"},"federalState":{"key":"14","name":"Sachsen"}},{"name":"Burgstädter Str.","postalCode":"09236","locality":"Claußnitz","municipality":{"key":"14522070","name":"Claußnitz","type":"Kreisangehörige_Gemeinde"},"district":{"key":"14522","name":"Mittelsachsen","type":"Landkreis"},"federalState":{"key":"14","name":"Sachsen"}},{"name":"Buttersteig","postalCode":"01936","locality":"Laußnitz","municipality":{"key":"14625300","name":"Laußnitz","type":"Kreisangehörige_Gemeinde"},"district":{"key":"14625","name":"Bautzen","type":"Landkreis"},"federalState":{"key":"14","name":"Sachsen"}},{"name":"Chemnitzer Str.","postalCode":"09236","locality":"Claußnitz","municipality":{"key":"14522070","name":"Claußnitz","type":"Kreisangehörige_Gemeinde"},"district":{"key":"14522","name":"Mittelsachsen","type":"Landkreis"},"federalState":{"key":"14","name":"Sachsen"}},{"name":"Chemnitztalradweg","postalCode":"09236","locality":"Claußnitz","municipality":{"key":"14522070","name":"Claußnitz","type":"Kreisangehörige_Gemeinde"},"district":{"key":"14522","name":"Mittelsachsen","type":"Landkreis"},"federalState":{"key":"14","name":"Sachsen"}},{"name":"Chemnitztalstr.","postalCode":"09236","locality":"Claußnitz","municipality":{"key":"14522070","name":"Claußnitz","type":"Kreisangehörige_Gemeinde"},"district":{"key":"14522","name":"Mittelsachsen","type":"Landkreis"},"federalState":{"key":"14","name":"Sachsen"}},{"name":"Dammweg","postalCode":"01936","locality":"Laußnitz","municipality":{"key":"14625300","name":"Laußnitz","type":"Kreisangehörige_Gemeinde"},"district":{"key":"14625","name":"Bautzen","type":"Landkreis"},"federalState":{"key":"14","name":"Sachsen"}},{"name":"Daniel-Gottlob-Türk-Str.","postalCode":"09236","locality":"Claußnitz","municipality":{"key":"14522070","name":"Claußnitz","type":"Kreisangehörige_Gemeinde"},"district":{"key":"14522","name":"Mittelsachsen","type":"Landkreis"},"federalState":{"key":"14","name":"Sachsen"}},{"name":"Der Luck Weg","postalCode":"01936","locality":"Laußnitz","municipality":{"key":"14625300","name":"Laußnitz","type":"Kreisangehörige_Gemeinde"},"district":{"key":"14625","name":"Bautzen","type":"Landkreis"},"federalState":{"key":"14","name":"Sachsen"}},{"name":"Der Pfaffentannen Weg","postalCode":"01936","locality":"Laußnitz","municipality":{"key":"14625300","name":"Laußnitz","type":"Kreisangehörige_Gemeinde"},"district":{"key":"14625","name":"Bautzen","type":"Landkreis"},"federalState":{"key":"14","name":"Sachsen"}},{"name":"Der Ringel","postalCode":"01936","locality":"Laußnitz","municipality":{"key":"14625300","name":"Laußnitz","type":"Kreisangehörige_Gemeinde"},"district":{"key":"14625","name":"Bautzen","type":"Landkreis"},"federalState":{"key":"14","name":"Sachsen"}},{"name":"Der Sparren","postalCode":"01936","locality":"Laußnitz","municipality":{"key":"14625300","name":"Laußnitz","type":"Kreisangehörige_Gemeinde"},"district":{"key":"14625","name":"Bautzen","type":"Landkreis"},"federalState":{"key":"14","name":"Sachsen"}},{"name":"Diebsteig/Flügel Z","postalCode":"01936","locality":"Laußnitz","municipality":{"key":"14625300","name":"Laußnitz","type":"Kreisangehörige_Gemeinde"},"district":{"key":"14625","name":"Bautzen","type":"Landkreis"},"federalState":{"key":"14","name":"Sachsen"}},{"name":"Diethensdorfer Str.","postalCode":"09236","locality":"Claußnitz","municipality":{"key":"14522070","name":"Claußnitz","type":"Kreisangehörige_Gemeinde"},"district":{"key":"14522","name":"Mittelsachsen","type":"Landkreis"},"federalState":{"key":"14","name":"Sachsen"}},{"name":"Dorfstr.","postalCode":"09236","locality":"Claußnitz","municipality":{"key":"14522070","name":"Claußnitz","type":"Kreisangehörige_Gemeinde"},"district":{"key":"14522","name":"Mittelsachsen","type":"Landkreis"},"federalState":{"key":"14","name":"Sachsen"}},{"name":"Dresdner Str.","postalCode":"01936","locality":"Laußnitz","municipality":{"key":"14625300","name":"Laußnitz","type":"Kreisangehörige_Gemeinde"},"district":{"key":"14625","name":"Bautzen","type":"Landkreis"},"federalState":{"key":"14","name":"Sachsen"}},{"name":"Eichenweg","postalCode":"09236","locality":"Claußnitz","municipality":{"key":"14522070","name":"Claußnitz","type":"Kreisangehörige_Gemeinde"},"district":{"key":"14522","name":"Mittelsachsen","type":"Landkreis"},"federalState":{"key":"14","name":"Sachsen"}},{"name":"Feldstr.","postalCode":"01936","locality":"Laußnitz","municipality":{"key":"14625300","name":"Laußnitz","type":"Kreisangehörige_Gemeinde"},"district":{"key":"14625","name":"Bautzen","type":"Landkreis"},"federalState":{"key":"14","name":"Sachsen"}},{"name":"Fichtenweg","postalCode":"09236","locality":"Claußnitz","municipality":{"key":"14522070","name":"Claußnitz","type":"Kreisangehörige_Gemeinde"},"district":{"key":"14522","name":"Mittelsachsen","type":"Landkreis"},"federalState":{"key":"14","name":"Sachsen"}},{"name":"Flügel 3","postalCode":"01936","locality":"Laußnitz","municipality":{"key":"14625300","name":"Laußnitz","type":"Kreisangehörige_Gemeinde"},"district":{"key":"14625","name":"Bautzen","type":"Landkreis"},"federalState":{"key":"14","name":"Sachsen"}},{"name":"Flügel H- Z","postalCode":"01936","locality":"Laußnitz","municipality":{"key":"14625300","name":"Laußnitz","type":"Kreisangehörige_Gemeinde"},"district":{"key":"14625","name":"Bautzen","type":"Landkreis"},"federalState":{"key":"14","name":"Sachsen"}},{"name":"Flügel R","postalCode":"01936","locality":"Laußnitz","municipality":{"key":"14625300","name":"Laußnitz","type":"Kreisangehörige_Gemeinde"},"district":{"key":"14625","name":"Bautzen","type":"Landkreis"},"federalState":{"key":"14","name":"Sachsen"}},{"name":"Flügel Ringel","postalCode":"01936","locality":"Laußnitz","municipality":{"key":"14625300","name":"Laußnitz","type":"Kreisangehörige_Gemeinde"},"district":{"key":"14625","name":"Bautzen","type":"Landkreis"},"federalState":{"key":"14","name":"Sachsen"}},{"name":"Flügelweg A","postalCode":"01936","locality":"Laußnitz","municipality":{"key":"14625300","name":"Laußnitz","type":"Kreisangehörige_Gemeinde"},"district":{"key":"14625","name":"Bautzen","type":"Landkreis"},"federalState":{"key":"14","name":"Sachsen"}},{"name":"Flügelweg B","postalCode":"01936","locality":"Laußnitz","municipality":{"key":"14625300","name":"Laußnitz","type":"Kreisangehörige_Gemeinde"},"district":{"key":"14625","name":"Bautzen","type":"Landkreis"},"federalState":{"key":"14","name":"Sachsen"}},{"name":"Flügelweg C","postalCode":"01936","locality":"Laußnitz","municipality":{"key":"14625300","name":"Laußnitz","type":"Kreisangehörige_Gemeinde"},"district":{"key":"14625","name":"Bautzen","type":"Landkreis"},"federalState":{"key":"14","name":"Sachsen"}},{"name":"Flügelweg D","postalCode":"01936","locality":"Laußnitz","municipality":{"key":"14625300","name":"Laußnitz","type":"Kreisangehörige_Gemeinde"},"district":{"key":"14625","name":"Bautzen","type":"Landkreis"},"federalState":{"key":"14","name":"Sachsen"}},{"name":"Flügelweg E","postalCode":"01936","locality":"Laußnitz","municipality":{"key":"14625300","name":"Laußnitz","type":"Kreisangehörige_Gemeinde"},"district":{"key":"14625","name":"Bautzen","type":"Landkreis"},"federalState":{"key":"14","name":"Sachsen"}},{"name":"Flügelweg F","postalCode":"01936","locality":"Laußnitz","municipality":{"key":"14625300","name":"Laußnitz","type":"Kreisangehörige_Gemeinde"},"district":{"key":"14625","name":"Bautzen","type":"Landkreis"},"federalState":{"key":"14","name":"Sachsen"}},{"name":"Forststr.","postalCode":"01936","locality":"Laußnitz","municipality":{"key":"14625300","name":"Laußnitz","type":"Kreisangehörige_Gemeinde"},"district":{"key":"14625","name":"Bautzen","type":"Landkreis"},"federalState":{"key":"14","name":"Sachsen"}},{"name":"Friedensstr.","postalCode":"09236","locality":"Claußnitz","municipality":{"key":"14522070","name":"Claußnitz","type":"Kreisangehörige_Gemeinde"},"district":{"key":"14522","name":"Mittelsachsen","type":"Landkreis"},"federalState":{"key":"14","name":"Sachsen"}},{"name":"Furtweg","postalCode":"01936","locality":"Laußnitz","municipality":{"key":"14625300","name":"Laußnitz","type":"Kreisangehörige_Gemeinde"},"district":{"key":"14625","name":"Bautzen","type":"Landkreis"},"federalState":{"key":"14","name":"Sachsen"}},{"name":"Gartenstr.","postalCode":"01936","locality":"Laußnitz","municipality":{"key":"14625300","name":"Laußnitz","type":"Kreisangehörige_Gemeinde"},"district":{"key":"14625","name":"Bautzen","type":"Landkreis"},"federalState":{"key":"14","name":"Sachsen"}},{"name":"Gräfenhainer Str.","postalCode":"01936","locality":"Laußnitz","municipality":{"key":"14625300","name":"Laußnitz","type":"Kreisangehörige_Gemeinde"},"district":{"key":"14625","name":"Bautzen","type":"Landkreis"},"federalState":{"key":"14","name":"Sachsen"}},{"name":"Grenzstr.","postalCode":"01936","locality":"Laußnitz","municipality":{"key":"14625300","name":"Laußnitz","type":"Kreisangehörige_Gemeinde"},"district":{"key":"14625","name":"Bautzen","type":"Landkreis"},"federalState":{"key":"14","name":"Sachsen"}},{"name":"Großdittmannsdorfer Weg","postalCode":"01936","locality":"Laußnitz","municipality":{"key":"14625300","name":"Laußnitz","type":"Kreisangehörige_Gemeinde"},"district":{"key":"14625","name":"Bautzen","type":"Landkreis"},"federalState":{"key":"14","name":"Sachsen"}},{"name":"Großenhainer Str.","postalCode":"01936","locality":"Laußnitz","municipality":{"key":"14625300","name":"Laußnitz","type":"Kreisangehörige_Gemeinde"},"district":{"key":"14625","name":"Bautzen","type":"Landkreis"},"federalState":{"key":"14","name":"Sachsen"}},{"name":"Grüne Eins","postalCode":"01936","locality":"Laußnitz","municipality":{"key":"14625300","name":"Laußnitz","type":"Kreisangehörige_Gemeinde"},"district":{"key":"14625","name":"Bautzen","type":"Landkreis"},"federalState":{"key":"14","name":"Sachsen"}},{"name":"Grüne Str.","postalCode":"01936","locality":"Laußnitz","municipality":{"key":"14625300","name":"Laußnitz","type":"Kreisangehörige_Gemeinde"},"district":{"key":"14625","name":"Bautzen","type":"Landkreis"},"federalState":{"key":"14","name":"Sachsen"}},{"name":"Grünmetzweg","postalCode":"01936","locality":"Laußnitz","municipality":{"key":"14625300","name":"Laußnitz","type":"Kreisangehörige_Gemeinde"},"district":{"key":"14625","name":"Bautzen","type":"Landkreis"},"federalState":{"key":"14","name":"Sachsen"}},{"name":"Hauptstr.","postalCode":"09236","locality":"Claußnitz","municipality":{"key":"14522070","name":"Claußnitz","type":"Kreisangehörige_Gemeinde"},"district":{"key":"14522","name":"Mittelsachsen","type":"Landkreis"},"federalState":{"key":"14","name":"Sachsen"}},{"name":"Hinterm Zaun","postalCode":"09236","locality":"Claußnitz","municipality":{"key":"14522070","name":"Claußnitz","type":"Kreisangehörige_Gemeinde"},"district":{"key":"14522","name":"Mittelsachsen","type":"Landkreis"},"federalState":{"key":"14","name":"Sachsen"}},{"name":"Höckendorfer Heideweg","postalCode":"01936","locality":"Laußnitz","municipality":{"key":"14625300","name":"Laußnitz","type":"Kreisangehörige_Gemeinde"},"district":{"key":"14625","name":"Bautzen","type":"Landkreis"},"federalState":{"key":"14","name":"Sachsen"}},{"name":"Höckendorfer Str.","postalCode":"01936","locality":"Laußnitz","municipality":{"key":"14625300","name":"Laußnitz","type":"Kreisangehörige_Gemeinde"},"district":{"key":"14625","name":"Bautzen","type":"Landkreis"},"federalState":{"key":"14","name":"Sachsen"}},{"name":"Hofegasse","postalCode":"01936","locality":"Laußnitz","municipality":{"key":"14625300","name":"Laußnitz","type":"Kreisangehörige_Gemeinde"},"district":{"key":"14625","name":"Bautzen","type":"Landkreis"},"federalState":{"key":"14","name":"Sachsen"}},{"name":"Hofeweg","postalCode":"01936","locality":"Laußnitz","municipality":{"key":"14625300","name":"Laußnitz","type":"Kreisangehörige_Gemeinde"},"district":{"key":"14625","name":"Bautzen","type":"Landkreis"},"federalState":{"key":"14","name":"Sachsen"}},{"name":"Hohe Str.","postalCode":"09236","locality":"Claußnitz","municipality":{"key":"14522070","name":"Claußnitz","type":"Kreisangehörige_Gemeinde"},"district":{"key":"14522","name":"Mittelsachsen","type":"Landkreis"},"federalState":{"key":"14","name":"Sachsen"}},{"name":"Hohlweg","postalCode":"09236","locality":"Claußnitz","municipality":{"key":"14522070","name":"Claußnitz","type":"Kreisangehörige_Gemeinde"},"district":{"key":"14522","name":"Mittelsachsen","type":"Landkreis"},"federalState":{"key":"14","name":"Sachsen"}},{"name":"Industriestr.","postalCode":"09236","locality":"Claußnitz","municipality":{"key":"14522070","name":"Claußnitz","type":"Kreisangehörige_Gemeinde"},"district":{"key":"14522","name":"Mittelsachsen","type":"Landkreis"},"federalState":{"key":"14","name":"Sachsen"}},{"name":"Jagdweg","postalCode":"02625","locality":"Bautzen","municipality":{"key":"14625020","name":"Bautzen / Budyšin, Stadt","type":"Stadt"},"district":{"key":"14625","name":"Bautzen","type":"Landkreis"},"federalState":{"key":"14","name":"Sachsen"}},{"name":"Jägerstr.","postalCode":"02625","locality":"Bautzen","municipality":{"key":"14625020","name":"Bautzen / Budyšin, Stadt","type":"Stadt"},"district":{"key":"14625","name":"Bautzen","type":"Landkreis"},"federalState":{"key":"14","name":"Sachsen"}},{"name":"Jahnstr.","postalCode":"02625","locality":"Bautzen","municipality":{"key":"14625020","name":"Bautzen / Budyšin, Stadt","type":"Stadt"},"district":{"key":"14625","name":"Bautzen","type":"Landkreis"},"federalState":{"key":"14","name":"Sachsen"}},{"name":"Jan-Skala-Str.","postalCode":"02625","locality":"Bautzen","municipality":{"key":"14625020","name":"Bautzen / Budyšin, Stadt","type":"Stadt"},"district":{"key":"14625","name":"Bautzen","type":"Landkreis"},"federalState":{"key":"14","name":"Sachsen"}},{"name":"Johannes-Kepler-Str.","postalCode":"02625","locality":"Bautzen","municipality":{"key":"14625020","name":"Bautzen / Budyšin, Stadt","type":"Stadt"},"district":{"key":"14625","name":"Bautzen","type":"Landkreis"},"federalState":{"key":"14","name":"Sachsen"}},{"name":"Johannes-R.-Becher-Str.","postalCode":"02625","locality":"Bautzen","municipality":{"key":"14625020","name":"Bautzen / Budyšin, Stadt","type":"Stadt"},"district":{"key":"14625","name":"Bautzen","type":"Landkreis"},"federalState":{"key":"14","name":"Sachsen"}},{"name":"Johann-Sebastian-Bach-Str.","postalCode":"02625","locality":"Bautzen","municipality":{"key":"14625020","name":"Bautzen / Budyšin, Stadt","type":"Stadt"},"district":{"key":"14625","name":"Bautzen","type":"Landkreis"},"federalState":{"key":"14","name":"Sachsen"}},{"name":"Jordantalbrücke","postalCode":"02625","locality":"Bautzen","municipality":{"key":"14625020","name":"Bautzen / Budyšin, Stadt","type":"Stadt"},"district":{"key":"14625","name":"Bautzen","type":"Landkreis"},"federalState":{"key":"14","name":"Sachsen"}},{"name":"Juri-Gagarin-Str.","postalCode":"02625","locality":"Bautzen","municipality":{"key":"14625020","name":"Bautzen / Budyšin, Stadt","type":"Stadt"},"district":{"key":"14625","name":"Bautzen","type":"Landkreis"},"federalState":{"key":"14","name":"Sachsen"}},{"name":"Kannenhenkel","postalCode":"01936","locality":"Laußnitz","municipality":{"key":"14625300","name":"Laußnitz","type":"Kreisangehörige_Gemeinde"},"district":{"key":"14625","name":"Bautzen","type":"Landkreis"},"federalState":{"key":"14","name":"Sachsen"}},{"name":"Kastanienweg","postalCode":"09236","locality":"Claußnitz","municipality":{"key":"14522070","name":"Claußnitz","type":"Kreisangehörige_Gemeinde"},"district":{"key":"14522","name":"Mittelsachsen","type":"Landkreis"},"federalState":{"key":"14","name":"Sachsen"}},{"name":"Kirchsteig","postalCode":"09236","locality":"Claußnitz","municipality":{"key":"14522070","name":"Claußnitz","type":"Kreisangehörige_Gemeinde"},"district":{"key":"14522","name":"Mittelsachsen","type":"Landkreis"},"federalState":{"key":"14","name":"Sachsen"}},{"name":"Kirschweg","postalCode":"09236","locality":"Claußnitz","municipality":{"key":"14522070","name":"Claußnitz","type":"Kreisangehörige_Gemeinde"},"district":{"key":"14522","name":"Mittelsachsen","type":"Landkreis"},"federalState":{"key":"14","name":"Sachsen"}},{"name":"Königsbrücker Str.","postalCode":"01936","locality":"Laußnitz","municipality":{"key":"14625300","name":"Laußnitz","type":"Kreisangehörige_Gemeinde"},"district":{"key":"14625","name":"Bautzen","type":"Landkreis"},"federalState":{"key":"14","name":"Sachsen"}},{"name":"Laußnitz- Würschnitzer Weg","postalCode":"01936","locality":"Laußnitz","municipality":{"key":"14625300","name":"Laußnitz","type":"Kreisangehörige_Gemeinde"},"district":{"key":"14625","name":"Bautzen","type":"Landkreis"},"federalState":{"key":"14","name":"Sachsen"}},{"name":"Lerchenweg","postalCode":"01936","locality":"Laußnitz","municipality":{"key":"14625300","name":"Laußnitz","type":"Kreisangehörige_Gemeinde"},"district":{"key":"14625","name":"Bautzen","type":"Landkreis"},"federalState":{"key":"14","name":"Sachsen"}},{"name":"Lindenweg","postalCode":"09236","locality":"Claußnitz","municipality":{"key":"14522070","name":"Claußnitz","type":"Kreisangehörige_Gemeinde"},"district":{"key":"14522","name":"Mittelsachsen","type":"Landkreis"},"federalState":{"key":"14","name":"Sachsen"}},{"name":"Lomnitzer Str.","postalCode":"01936","locality":"Laußnitz","municipality":{"key":"14625300","name":"Laußnitz","type":"Kreisangehörige_Gemeinde"},"district":{"key":"14625","name":"Bautzen","type":"Landkreis"},"federalState":{"key":"14","name":"Sachsen"}},{"name":"Mittelweg","postalCode":"09236","locality":"Claußnitz","municipality":{"key":"14522070","name":"Claußnitz","type":"Kreisangehörige_Gemeinde"},"district":{"key":"14522","name":"Mittelsachsen","type":"Landkreis"},"federalState":{"key":"14","name":"Sachsen"}},{"name":"Mittweidaer Str.","postalCode":"09236","locality":"Claußnitz","municipality":{"key":"14522070","name":"Claußnitz","type":"Kreisangehörige_Gemeinde"},"district":{"key":"14522","name":"Mittelsachsen","type":"Landkreis"},"federalState":{"key":"14","name":"Sachsen"}},{"name":"Mühlberg","postalCode":"09236","locality":"Claußnitz","municipality":{"key":"14522070","name":"Claußnitz","type":"Kreisangehörige_Gemeinde"},"district":{"key":"14522","name":"Mittelsachsen","type":"Landkreis"},"federalState":{"key":"14","name":"Sachsen"}},{"name":"Niederer Vierhufenweg","postalCode":"01936","locality":"Laußnitz","municipality":{"key":"14625300","name":"Laußnitz","type":"Kreisangehörige_Gemeinde"},"district":{"key":"14625","name":"Bautzen","type":"Landkreis"},"federalState":{"key":"14","name":"Sachsen"}},{"name":"Nordweg","postalCode":"09236","locality":"Claußnitz","municipality":{"key":"14522070","name":"Claußnitz","type":"Kreisangehörige_Gemeinde"},"district":{"key":"14522","name":"Mittelsachsen","type":"Landkreis"},"federalState":{"key":"14","name":"Sachsen"}},{"name":"Obere Dorfstr.","postalCode":"09236","locality":"Claußnitz","municipality":{"key":"14522070","name":"Claußnitz","type":"Kreisangehörige_Gemeinde"},"district":{"key":"14522","name":"Mittelsachsen","type":"Landkreis"},"federalState":{"key":"14","name":"Sachsen"}},{"name":"Obere Siedlung","postalCode":"09236","locality":"Claußnitz","municipality":{"key":"14522070","name":"Claußnitz","type":"Kreisangehörige_Gemeinde"},"district":{"key":"14522","name":"Mittelsachsen","type":"Landkreis"},"federalState":{"key":"14","name":"Sachsen"}},{"name":"Ottendorfer Str.","postalCode":"09236","locality":"Claußnitz","municipality":{"key":"14522070","name":"Claußnitz","type":"Kreisangehörige_Gemeinde"},"district":{"key":"14522","name":"Mittelsachsen","type":"Landkreis"},"federalState":{"key":"14","name":"Sachsen"}},{"name":"Pechofenweg","postalCode":"01936","locality":"Laußnitz","municipality":{"key":"14625300","name":"Laußnitz","type":"Kreisangehörige_Gemeinde"},"district":{"key":"14625","name":"Bautzen","type":"Landkreis"},"federalState":{"key":"14","name":"Sachsen"}},{"name":"Pechweg","postalCode":"01936","locality":"Laußnitz","municipality":{"key":"14625300","name":"Laußnitz","type":"Kreisangehörige_Gemeinde"},"district":{"key":"14625","name":"Bautzen","type":"Landkreis"},"federalState":{"key":"14","name":"Sachsen"}},{"name":"Pfarrgasse","postalCode":"09236","locality":"Claußnitz","municipality":{"key":"14522070","name":"Claußnitz","type":"Kreisangehörige_Gemeinde"},"district":{"key":"14522","name":"Mittelsachsen","type":"Landkreis"},"federalState":{"key":"14","name":"Sachsen"}},{"name":"Poststr.","postalCode":"01936","locality":"Laußnitz","municipality":{"key":"14625300","name":"Laußnitz","type":"Kreisangehörige_Gemeinde"},"district":{"key":"14625","name":"Bautzen","type":"Landkreis"},"federalState":{"key":"14","name":"Sachsen"}},{"name":"Postweg","postalCode":"09236","locality":"Claußnitz","municipality":{"key":"14522070","name":"Claußnitz","type":"Kreisangehörige_Gemeinde"},"district":{"key":"14522","name":"Mittelsachsen","type":"Landkreis"},"federalState":{"key":"14","name":"Sachsen"}},{"name":"Pulsnitzer Str.","postalCode":"01936","locality":"Laußnitz","municipality":{"key":"14625300","name":"Laußnitz","type":"Kreisangehörige_Gemeinde"},"district":{"key":"14625","name":"Bautzen","type":"Landkreis"},"federalState":{"key":"14","name":"Sachsen"}},{"name":"Querweg","postalCode":"09236","locality":"Claußnitz","municipality":{"key":"14522070","name":"Claußnitz","type":"Kreisangehörige_Gemeinde"},"district":{"key":"14522","name":"Mittelsachsen","type":"Landkreis"},"federalState":{"key":"14","name":"Sachsen"}},{"name":"Radeburger Str.","postalCode":"01936","locality":"Laußnitz","municipality":{"key":"14625300","name":"Laußnitz","type":"Kreisangehörige_Gemeinde"},"district":{"key":"14625","name":"Bautzen","type":"Landkreis"},"federalState":{"key":"14","name":"Sachsen"}},{"name":"Rathausstr.","postalCode":"09236","locality":"Claußnitz","municipality":{"key":"14522070","name":"Claußnitz","type":"Kreisangehörige_Gemeinde"},"district":{"key":"14522","name":"Mittelsachsen","type":"Landkreis"},"federalState":{"key":"14","name":"Sachsen"}},{"name":"Rochlitzer Str.","postalCode":"09236","locality":"Claußnitz","municipality":{"key":"14522070","name":"Claußnitz","type":"Kreisangehörige_Gemeinde"},"district":{"key":"14522","name":"Mittelsachsen","type":"Landkreis"},"federalState":{"key":"14","name":"Sachsen"}},{"name":"Röhrsdorfer Weg","postalCode":"01936","locality":"Laußnitz","municipality":{"key":"14625300","name":"Laußnitz","type":"Kreisangehörige_Gemeinde"},"district":{"key":"14625","name":"Bautzen","type":"Landkreis"},"federalState":{"key":"14","name":"Sachsen"}},{"name":"Röllingshainer Dorfstr.","postalCode":"09236","locality":"Claußnitz","municipality":{"key":"14522070","name":"Claußnitz","type":"Kreisangehörige_Gemeinde"},"district":{"key":"14522","name":"Mittelsachsen","type":"Landkreis"},"federalState":{"key":"14","name":"Sachsen"}},{"name":"Röllingshainer Str.","postalCode":"09236","locality":"Claußnitz","municipality":{"key":"14522070","name":"Claußnitz","type":"Kreisangehörige_Gemeinde"},"district":{"key":"14522","name":"Mittelsachsen","type":"Landkreis"},"federalState":{"key":"14","name":"Sachsen"}},{"name":"Sandweg","postalCode":"01936","locality":"Laußnitz","municipality":{"key":"14625300","name":"Laußnitz","type":"Kreisangehörige_Gemeinde"},"district":{"key":"14625","name":"Bautzen","type":"Landkreis"},"federalState":{"key":"14","name":"Sachsen"}},{"name":"Schlägenweg","postalCode":"01936","locality":"Laußnitz","municipality":{"key":"14625300","name":"Laußnitz","type":"Kreisangehörige_Gemeinde"},"district":{"key":"14625","name":"Bautzen","type":"Landkreis"},"federalState":{"key":"14","name":"Sachsen"}},{"name":"Schmelzbergstr.","postalCode":"01936","locality":"Laußnitz","municipality":{"key":"14625300","name":"Laußnitz","type":"Kreisangehörige_Gemeinde"},"district":{"key":"14625","name":"Bautzen","type":"Landkreis"},"federalState":{"key":"14","name":"Sachsen"}},{"name":"Schneise 10","postalCode":"01936","locality":"Laußnitz","municipality":{"key":"14625300","name":"Laußnitz","type":"Kreisangehörige_Gemeinde"},"district":{"key":"14625","name":"Bautzen","type":"Landkreis"},"federalState":{"key":"14","name":"Sachsen"}},{"name":"Schneise 11","postalCode":"01936","locality":"Laußnitz","municipality":{"key":"14625300","name":"Laußnitz","type":"Kreisangehörige_Gemeinde"},"district":{"key":"14625","name":"Bautzen","type":"Landkreis"},"federalState":{"key":"14","name":"Sachsen"}},{"name":"Schneise 12","postalCode":"01936","locality":"Laußnitz","municipality":{"key":"14625300","name":"Laußnitz","type":"Kreisangehörige_Gemeinde"},"district":{"key":"14625","name":"Bautzen","type":"Landkreis"},"federalState":{"key":"14","name":"Sachsen"}},{"name":"Schneise 13","postalCode":"01936","locality":"Laußnitz","municipality":{"key":"14625300","name":"Laußnitz","type":"Kreisangehörige_Gemeinde"},"district":{"key":"14625","name":"Bautzen","type":"Landkreis"},"federalState":{"key":"14","name":"Sachsen"}},{"name":"Schneise 14","postalCode":"01936","locality":"Laußnitz","municipality":{"key":"14625300","name":"Laußnitz","type":"Kreisangehörige_Gemeinde"},"district":{"key":"14625","name":"Bautzen","type":"Landkreis"},"federalState":{"key":"14","name":"Sachsen"}},{"name":"Schneise 15","postalCode":"01936","locality":"Laußnitz","municipality":{"key":"14625300","name":"Laußnitz","type":"Kreisangehörige_Gemeinde"},"district":{"key":"14625","name":"Bautzen","type":"Landkreis"},"federalState":{"key":"14","name":"Sachsen"}},{"name":"Schneise 16","postalCode":"01936","locality":"Laußnitz","municipality":{"key":"14625300","name":"Laußnitz","type":"Kreisangehörige_Gemeinde"},"district":{"key":"14625","name":"Bautzen","type":"Landkreis"},"federalState":{"key":"14","name":"Sachsen"}},{"name":"Schneise 17","postalCode":"01936","locality":"Laußnitz","municipality":{"key":"14625300","name":"Laußnitz","type":"Kreisangehörige_Gemeinde"},"district":{"key":"14625","name":"Bautzen","type":"Landkreis"},"federalState":{"key":"14","name":"Sachsen"}},{"name":"Schneise 18","postalCode":"01936","locality":"Laußnitz","municipality":{"key":"14625300","name":"Laußnitz","type":"Kreisangehörige_Gemeinde"},"district":{"key":"14625","name":"Bautzen","type":"Landkreis"},"federalState":{"key":"14","name":"Sachsen"}},{"name":"Schneise 20","postalCode":"01936","locality":"Laußnitz","municipality":{"key":"14625300","name":"Laußnitz","type":"Kreisangehörige_Gemeinde"},"district":{"key":"14625","name":"Bautzen","type":"Landkreis"},"federalState":{"key":"14","name":"Sachsen"}},{"name":"Schneise 4","postalCode":"01936","locality":"Laußnitz","municipality":{"key":"14625300","name":"Laußnitz","type":"Kreisangehörige_Gemeinde"},"district":{"key":"14625","name":"Bautzen","type":"Landkreis"},"federalState":{"key":"14","name":"Sachsen"}},{"name":"Schneise 5","postalCode":"01936","locality":"Laußnitz","municipality":{"key":"14625300","name":"Laußnitz","type":"Kreisangehörige_Gemeinde"},"district":{"key":"14625","name":"Bautzen","type":"Landkreis"},"federalState":{"key":"14","name":"Sachsen"}},{"name":"Schneise 6","postalCode":"01936","locality":"Laußnitz","municipality":{"key":"14625300","name":"Laußnitz","type":"Kreisangehörige_Gemeinde"},"district":{"key":"14625","name":"Bautzen","type":"Landkreis"},"federalState":{"key":"14","name":"Sachsen"}},{"name":"Schneise 7","postalCode":"01936","locality":"Laußnitz","municipality":{"key":"14625300","name":"Laußnitz","type":"Kreisangehörige_Gemeinde"},"district":{"key":"14625","name":"Bautzen","type":"Landkreis"},"federalState":{"key":"14","name":"Sachsen"}},{"name":"Schneise 8","postalCode":"01936","locality":"Laußnitz","municipality":{"key":"14625300","name":"Laußnitz","type":"Kreisangehörige_Gemeinde"},"district":{"key":"14625","name":"Bautzen","type":"Landkreis"},"federalState":{"key":"14","name":"Sachsen"}},{"name":"Schneise 9","postalCode":"01936","locality":"Laußnitz","municipality":{"key":"14625300","name":"Laußnitz","type":"Kreisangehörige_Gemeinde"},"district":{"key":"14625","name":"Bautzen","type":"Landkreis"},"federalState":{"key":"14","name":"Sachsen"}},{"name":"Schneise D","postalCode":"01936","locality":"Laußnitz","municipality":{"key":"14625300","name":"Laußnitz","type":"Kreisangehörige_Gemeinde"},"district":{"key":"14625","name":"Bautzen","type":"Landkreis"},"federalState":{"key":"14","name":"Sachsen"}},{"name":"Schneise E","postalCode":"01936","locality":"Laußnitz","municipality":{"key":"14625300","name":"Laußnitz","type":"Kreisangehörige_Gemeinde"},"district":{"key":"14625","name":"Bautzen","type":"Landkreis"},"federalState":{"key":"14","name":"Sachsen"}},{"name":"Schneise F","postalCode":"01936","locality":"Laußnitz","municipality":{"key":"14625300","name":"Laußnitz","type":"Kreisangehörige_Gemeinde"},"district":{"key":"14625","name":"Bautzen","type":"Landkreis"},"federalState":{"key":"14","name":"Sachsen"}},{"name":"Schneise G","postalCode":"01936","locality":"Laußnitz","municipality":{"key":"14625300","name":"Laußnitz","type":"Kreisangehörige_Gemeinde"},"district":{"key":"14625","name":"Bautzen","type":"Landkreis"},"federalState":{"key":"14","name":"Sachsen"}},{"name":"Schneise H","postalCode":"01936","locality":"Laußnitz","municipality":{"key":"14625300","name":"Laußnitz","type":"Kreisangehörige_Gemeinde"},"district":{"key":"14625","name":"Bautzen","type":"Landkreis"},"federalState":{"key":"14","name":"Sachsen"}},{"name":"Schneise I","postalCode":"01936","locality":"Laußnitz","municipality":{"key":"14625300","name":"Laußnitz","type":"Kreisangehörige_Gemeinde"},"district":{"key":"14625","name":"Bautzen","type":"Landkreis"},"federalState":{"key":"14","name":"Sachsen"}},{"name":"Schneise K","postalCode":"01936","locality":"Laußnitz","municipality":{"key":"14625300","name":"Laußnitz","type":"Kreisangehörige_Gemeinde"},"district":{"key":"14625","name":"Bautzen","type":"Landkreis"},"federalState":{"key":"14","name":"Sachsen"}},{"name":"Schneise L","postalCode":"01936","locality":"Laußnitz","municipality":{"key":"14625300","name":"Laußnitz","type":"Kreisangehörige_Gemeinde"},"district":{"key":"14625","name":"Bautzen","type":"Landkreis"},"federalState":{"key":"14","name":"Sachsen"}},{"name":"Schneise M","postalCode":"01936","locality":"Laußnitz","municipality":{"key":"14625300","name":"Laußnitz","type":"Kreisangehörige_Gemeinde"},"district":{"key":"14625","name":"Bautzen","type":"Landkreis"},"federalState":{"key":"14","name":"Sachsen"}},{"name":"Schulstr.","postalCode":"01936","locality":"Laußnitz","municipality":{"key":"14625300","name":"Laußnitz","type":"Kreisangehörige_Gemeinde"},"district":{"key":"14625","name":"Bautzen","type":"Landkreis"},"federalState":{"key":"14","name":"Sachsen"}},{"name":"Schulweg","postalCode":"09236","locality":"Claußnitz","municipality":{"key":"14522070","name":"Claußnitz","type":"Kreisangehörige_Gemeinde"},"district":{"key":"14522","name":"Mittelsachsen","type":"Landkreis"},"federalState":{"key":"14","name":"Sachsen"}},{"name":"Seitengäßchen","postalCode":"01936","locality":"Laußnitz","municipality":{"key":"14625300","name":"Laußnitz","type":"Kreisangehörige_Gemeinde"},"district":{"key":"14625","name":"Bautzen","type":"Landkreis"},"federalState":{"key":"14","name":"Sachsen"}},{"name":"Siedlung","postalCode":"09236","locality":"Claußnitz","municipality":{"key":"14522070","name":"Claußnitz","type":"Kreisangehörige_Gemeinde"},"district":{"key":"14522","name":"Mittelsachsen","type":"Landkreis"},"federalState":{"key":"14","name":"Sachsen"}},{"name":"Siedlungsweg","postalCode":"01936","locality":"Laußnitz","municipality":{"key":"14625300","name":"Laußnitz","type":"Kreisangehörige_Gemeinde"},"district":{"key":"14625","name":"Bautzen","type":"Landkreis"},"federalState":{"key":"14","name":"Sachsen"}},{"name":"Siedlungsweg","postalCode":"09236","locality":"Claußnitz","municipality":{"key":"14522070","name":"Claußnitz","type":"Kreisangehörige_Gemeinde"},"district":{"key":"14522","name":"Mittelsachsen","type":"Landkreis"},"federalState":{"key":"14","name":"Sachsen"}},{"name":"Sommerweg","postalCode":"01936","locality":"Laußnitz","municipality":{"key":"14625300","name":"Laußnitz","type":"Kreisangehörige_Gemeinde"},"district":{"key":"14625","name":"Bautzen","type":"Landkreis"},"federalState":{"key":"14","name":"Sachsen"}},{"name":"Spiessweg","postalCode":"01936","locality":"Laußnitz","municipality":{"key":"14625300","name":"Laußnitz","type":"Kreisangehörige_Gemeinde"},"district":{"key":"14625","name":"Bautzen","type":"Landkreis"},"federalState":{"key":"14","name":"Sachsen"}},{"name":"Spießweg","postalCode":"01936","locality":"Laußnitz","municipality":{"key":"14625300","name":"Laußnitz","type":"Kreisangehörige_Gemeinde"},"district":{"key":"14625","name":"Bautzen","type":"Landkreis"},"federalState":{"key":"14","name":"Sachsen"}},{"name":"Stenzer Weg","postalCode":"01936","locality":"Laußnitz","municipality":{"key":"14625300","name":"Laußnitz","type":"Kreisangehörige_Gemeinde"},"district":{"key":"14625","name":"Bautzen","type":"Landkreis"},"federalState":{"key":"14","name":"Sachsen"}},{"name":"Südweg","postalCode":"09236","locality":"Claußnitz","municipality":{"key":"14522070","name":"Claußnitz","type":"Kreisangehörige_Gemeinde"},"district":{"key":"14522","name":"Mittelsachsen","type":"Landkreis"},"federalState":{"key":"14","name":"Sachsen"}},{"name":"Talstr.","postalCode":"09236","locality":"Claußnitz","municipality":{"key":"14522070","name":"Claußnitz","type":"Kreisangehörige_Gemeinde"},"district":{"key":"14522","name":"Mittelsachsen","type":"Landkreis"},"federalState":{"key":"14","name":"Sachsen"}},{"name":"Teichstr.","postalCode":"01936","locality":"Laußnitz","municipality":{"key":"14625300","name":"Laußnitz","type":"Kreisangehörige_Gemeinde"},"district":{"key":"14625","name":"Bautzen","type":"Landkreis"},"federalState":{"key":"14","name":"Sachsen"}},{"name":"Thälmannstr.","postalCode":"01936","locality":"Laußnitz","municipality":{"key":"14625300","name":"Laußnitz","type":"Kreisangehörige_Gemeinde"},"district":{"key":"14625","name":"Bautzen","type":"Landkreis"},"federalState":{"key":"14","name":"Sachsen"}},{"name":"Untere Dorfstr.","postalCode":"09236","locality":"Claußnitz","municipality":{"key":"14522070","name":"Claußnitz","type":"Kreisangehörige_Gemeinde"},"district":{"key":"14522","name":"Mittelsachsen","type":"Landkreis"},"federalState":{"key":"14","name":"Sachsen"}},{"name":"Untere Hauptstr.","postalCode":"09236","locality":"Claußnitz","municipality":{"key":"14522070","name":"Claußnitz","type":"Kreisangehörige_Gemeinde"},"district":{"key":"14522","name":"Mittelsachsen","type":"Landkreis"},"federalState":{"key":"14","name":"Sachsen"}},{"name":"Veilchenberg","postalCode":"02625","locality":"Bautzen","municipality":{"key":"14625020","name":"Bautzen / Budyšin, Stadt","type":"Stadt"},"district":{"key":"14625","name":"Bautzen","type":"Landkreis"},"federalState":{"key":"14","name":"Sachsen"}},{"name":"Vor dem Gerbertor","postalCode":"02625","locality":"Bautzen","municipality":{"key":"14625020","name":"Bautzen / Budyšin, Stadt","type":"Stadt"},"district":{"key":"14625","name":"Bautzen","type":"Landkreis"},"federalState":{"key":"14","name":"Sachsen"}},{"name":"Vor dem Schülertor","postalCode":"02625","locality":"Bautzen","municipality":{"key":"14625020","name":"Bautzen / Budyšin, Stadt","type":"Stadt"},"district":{"key":"14625","name":"Bautzen","type":"Landkreis"},"federalState":{"key":"14","name":"Sachsen"}},{"name":"Vor der Fischerpforte","postalCode":"02625","locality":"Bautzen","municipality":{"key":"14625020","name":"Bautzen / Budyšin, Stadt","type":"Stadt"},"district":{"key":"14625","name":"Bautzen","type":"Landkreis"},"federalState":{"key":"14","name":"Sachsen"}},{"name":"Waldweg","postalCode":"09236","locality":"Claußnitz","municipality":{"key":"14522070","name":"Claußnitz","type":"Kreisangehörige_Gemeinde"},"district":{"key":"14522","name":"Mittelsachsen","type":"Landkreis"},"federalState":{"key":"14","name":"Sachsen"}},{"name":"Wiesengrund","postalCode":"01936","locality":"Laußnitz","municipality":{"key":"14625300","name":"Laußnitz","type":"Kreisangehörige_Gemeinde"},"district":{"key":"14625","name":"Bautzen","type":"Landkreis"},"federalState":{"key":"14","name":"Sachsen"}},{"name":"Wiesenweg","postalCode":"01936","locality":"Laußnitz","municipality":{"key":"14625300","name":"Laußnitz","type":"Kreisangehörige_Gemeinde"},"district":{"key":"14625","name":"Bautzen","type":"Landkreis"},"federalState":{"key":"14","name":"Sachsen"}},{"name":"Wiesenweg","postalCode":"09236","locality":"Claußnitz","municipality":{"key":"14522070","name":"Claußnitz","type":"Kreisangehörige_Gemeinde"},"district":{"key":"14522","name":"Mittelsachsen","type":"Landkreis"},"federalState":{"key":"14","name":"Sachsen"}},{"name":"Würschnitzer Str.","postalCode":"01936","locality":"Laußnitz","municipality":{"key":"14625300","name":"Laußnitz","type":"Kreisangehörige_Gemeinde"},"district":{"key":"14625","name":"Bautzen","type":"Landkreis"},"federalState":{"key":"14","name":"Sachsen"}},{"name":"Würschnitzer Weg","postalCode":"01936","locality":"Laußnitz","municipality":{"key":"14625300","name":"Laußnitz","type":"Kreisangehörige_Gemeinde"},"district":{"key":"14625","name":"Bautzen","type":"Landkreis"},"federalState":{"key":"14","name":"Sachsen"}},{"name":"Yorckstr.","postalCode":"02625","locality":"Bautzen","municipality":{"key":"14625020","name":"Bautzen / Budyšin, Stadt","type":"Stadt"},"district":{"key":"14625","name":"Bautzen","type":"Landkreis"},"federalState":{"key":"14","name":"Sachsen"}},{"name":"Zum neuen Friedhof","postalCode":"09236","locality":"Claußnitz","municipality":{"key":"14522070","name":"Claußnitz","type":"Kreisangehörige_Gemeinde"},"district":{"key":"14522","name":"Mittelsachsen","type":"Landkreis"},"federalState":{"key":"14","name":"Sachsen"}},{"name":"Zur Jahnhöhe","postalCode":"09236","locality":"Claußnitz","municipality":{"key":"14522070","name":"Claußnitz","type":"Kreisangehörige_Gemeinde"},"district":{"key":"14522","name":"Mittelsachsen","type":"Landkreis"},"federalState":{"key":"14","name":"Sachsen"}},{"name":"Äußere Lauenstr.","postalCode":"02625","locality":"Bautzen","municipality":{"key":"14625020","name":"Bautzen / Budyšin, Stadt","type":"Stadt"},"district":{"key":"14625","name":"Bautzen","type":"Landkreis"},"federalState":{"key":"14","name":"Sachsen"}},]