[{"name":"Achter de Borg","postalCode":"27628","locality":"Hagen im Bremischen","municipality":{"key":"03352060","name":"Hagen im Bremischen","type":"Kreisangehörige_Gemeinde"},"district":{"key":"03352","name":"Cuxhaven","type":"Landkreis"},"federalState":{"key":"03","name":"Niedersachsen"}},{"name":"Achterweg","postalCode":"27628","locality":"Hagen im Bremischen","municipality":{"key":"03352060","name":"Hagen im Bremischen","type":"Kreisangehörige_Gemeinde"},"district":{"key":"03352","name":"Cuxhaven","type":"Landkreis"},"federalState":{"key":"03","name":"Niedersachsen"}},{"name":"Albstedter Str.","postalCode":"27628","locality":"Hagen im Bremischen","municipality":{"key":"03352060","name":"Hagen im Bremischen","type":"Kreisangehörige_Gemeinde"},"district":{"key":"03352","name":"Cuxhaven","type":"Landkreis"},"federalState":{"key":"03","name":"Niedersachsen"}},{"name":"Alte Dorfstr.","postalCode":"27628","locality":"Hagen im Bremischen","municipality":{"key":"03352060","name":"Hagen im Bremischen","type":"Kreisangehörige_Gemeinde"},"district":{"key":"03352","name":"Cuxhaven","type":"Landkreis"},"federalState":{"key":"03","name":"Niedersachsen"}},{"name":"Alte Parkstr.","postalCode":"27628","locality":"Hagen im Bremischen","municipality":{"key":"03352060","name":"Hagen im Bremischen","type":"Kreisangehörige_Gemeinde"},"district":{"key":"03352","name":"Cuxhaven","type":"Landkreis"},"federalState":{"key":"03","name":"Niedersachsen"}},{"name":"Alter Buchenweg","postalCode":"27628","locality":"Hagen im Bremischen","municipality":{"key":"03352060","name":"Hagen im Bremischen","type":"Kreisangehörige_Gemeinde"},"district":{"key":"03352","name":"Cuxhaven","type":"Landkreis"},"federalState":{"key":"03","name":"Niedersachsen"}},{"name":"Alter Heideweg","postalCode":"27628","locality":"Hagen im Bremischen","municipality":{"key":"03352060","name":"Hagen im Bremischen","type":"Kreisangehörige_Gemeinde"},"district":{"key":"03352","name":"Cuxhaven","type":"Landkreis"},"federalState":{"key":"03","name":"Niedersachsen"}},{"name":"Alter Postweg","postalCode":"27628","locality":"Hagen im Bremischen","municipality":{"key":"03352060","name":"Hagen im Bremischen","type":"Kreisangehörige_Gemeinde"},"district":{"key":"03352","name":"Cuxhaven","type":"Landkreis"},"federalState":{"key":"03","name":"Niedersachsen"}},{"name":"Am Amtsholz","postalCode":"27628","locality":"Hagen im Bremischen","municipality":{"key":"03352060","name":"Hagen im Bremischen","type":"Kreisangehörige_Gemeinde"},"district":{"key":"03352","name":"Cuxhaven","type":"Landkreis"},"federalState":{"key":"03","name":"Niedersachsen"}},{"name":"Am Bahndamm","postalCode":"27628","locality":"Hagen im Bremischen","municipality":{"key":"03352060","name":"Hagen im Bremischen","type":"Kreisangehörige_Gemeinde"},"district":{"key":"03352","name":"Cuxhaven","type":"Landkreis"},"federalState":{"key":"03","name":"Niedersachsen"}},{"name":"Am Berg","postalCode":"27628","locality":"Hagen im Bremischen","municipality":{"key":"03352060","name":"Hagen im Bremischen","type":"Kreisangehörige_Gemeinde"},"district":{"key":"03352","name":"Cuxhaven","type":"Landkreis"},"federalState":{"key":"03","name":"Niedersachsen"}},{"name":"Am Bergring","postalCode":"27628","locality":"Hagen im Bremischen","municipality":{"key":"03352060","name":"Hagen im Bremischen","type":"Kreisangehörige_Gemeinde"},"district":{"key":"03352","name":"Cuxhaven","type":"Landkreis"},"federalState":{"key":"03","name":"Niedersachsen"}},{"name":"Am Birkenwald","postalCode":"27628","locality":"Hagen im Bremischen","municipality":{"key":"03352060","name":"Hagen im Bremischen","type":"Kreisangehörige_Gemeinde"},"district":{"key":"03352","name":"Cuxhaven","type":"Landkreis"},"federalState":{"key":"03","name":"Niedersachsen"}},{"name":"Am Blumenkamp","postalCode":"27628","locality":"Hagen im Bremischen","municipality":{"key":"03352060","name":"Hagen im Bremischen","type":"Kreisangehörige_Gemeinde"},"district":{"key":"03352","name":"Cuxhaven","type":"Landkreis"},"federalState":{"key":"03","name":"Niedersachsen"}},{"name":"Am Bogen","postalCode":"27628","locality":"Hagen im Bremischen","municipality":{"key":"03352060","name":"Hagen im Bremischen","type":"Kreisangehörige_Gemeinde"},"district":{"key":"03352","name":"Cuxhaven","type":"Landkreis"},"federalState":{"key":"03","name":"Niedersachsen"}},{"name":"Am Brink","postalCode":"27628","locality":"Hagen im Bremischen","municipality":{"key":"03352060","name":"Hagen im Bremischen","type":"Kreisangehörige_Gemeinde"},"district":{"key":"03352","name":"Cuxhaven","type":"Landkreis"},"federalState":{"key":"03","name":"Niedersachsen"}},{"name":"Am Dorfbogen","postalCode":"27628","locality":"Hagen im Bremischen","municipality":{"key":"03352060","name":"Hagen im Bremischen","type":"Kreisangehörige_Gemeinde"},"district":{"key":"03352","name":"Cuxhaven","type":"Landkreis"},"federalState":{"key":"03","name":"Niedersachsen"}},{"name":"Am Felde","postalCode":"27628","locality":"Hagen im Bremischen","municipality":{"key":"03352060","name":"Hagen im Bremischen","type":"Kreisangehörige_Gemeinde"},"district":{"key":"03352","name":"Cuxhaven","type":"Landkreis"},"federalState":{"key":"03","name":"Niedersachsen"}},{"name":"Am Gewerbepark","postalCode":"27628","locality":"Hagen im Bremischen","municipality":{"key":"03352060","name":"Hagen im Bremischen","type":"Kreisangehörige_Gemeinde"},"district":{"key":"03352","name":"Cuxhaven","type":"Landkreis"},"federalState":{"key":"03","name":"Niedersachsen"}},{"name":"Am Hang","postalCode":"27628","locality":"Hagen im Bremischen","municipality":{"key":"03352060","name":"Hagen im Bremischen","type":"Kreisangehörige_Gemeinde"},"district":{"key":"03352","name":"Cuxhaven","type":"Landkreis"},"federalState":{"key":"03","name":"Niedersachsen"}},{"name":"Am Hasenkamp","postalCode":"27628","locality":"Hagen im Bremischen","municipality":{"key":"03352060","name":"Hagen im Bremischen","type":"Kreisangehörige_Gemeinde"},"district":{"key":"03352","name":"Cuxhaven","type":"Landkreis"},"federalState":{"key":"03","name":"Niedersachsen"}},{"name":"Am Heideweg","postalCode":"27628","locality":"Hagen im Bremischen","municipality":{"key":"03352060","name":"Hagen im Bremischen","type":"Kreisangehörige_Gemeinde"},"district":{"key":"03352","name":"Cuxhaven","type":"Landkreis"},"federalState":{"key":"03","name":"Niedersachsen"}},{"name":"Am Kamp","postalCode":"27628","locality":"Hagen im Bremischen","municipality":{"key":"03352060","name":"Hagen im Bremischen","type":"Kreisangehörige_Gemeinde"},"district":{"key":"03352","name":"Cuxhaven","type":"Landkreis"},"federalState":{"key":"03","name":"Niedersachsen"}},{"name":"Am Kückskamp","postalCode":"27628","locality":"Hagen im Bremischen","municipality":{"key":"03352060","name":"Hagen im Bremischen","type":"Kreisangehörige_Gemeinde"},"district":{"key":"03352","name":"Cuxhaven","type":"Landkreis"},"federalState":{"key":"03","name":"Niedersachsen"}},{"name":"Am Leuchtturm","postalCode":"27628","locality":"Hagen im Bremischen","municipality":{"key":"03352060","name":"Hagen im Bremischen","type":"Kreisangehörige_Gemeinde"},"district":{"key":"03352","name":"Cuxhaven","type":"Landkreis"},"federalState":{"key":"03","name":"Niedersachsen"}},{"name":"Am Mühlenberg","postalCode":"27628","locality":"Hagen im Bremischen","municipality":{"key":"03352060","name":"Hagen im Bremischen","type":"Kreisangehörige_Gemeinde"},"district":{"key":"03352","name":"Cuxhaven","type":"Landkreis"},"federalState":{"key":"03","name":"Niedersachsen"}},{"name":"Am Neumarkt","postalCode":"27628","locality":"Hagen im Bremischen","municipality":{"key":"03352060","name":"Hagen im Bremischen","type":"Kreisangehörige_Gemeinde"},"district":{"key":"03352","name":"Cuxhaven","type":"Landkreis"},"federalState":{"key":"03","name":"Niedersachsen"}},{"name":"Am Papenkamp","postalCode":"27628","locality":"Hagen im Bremischen","municipality":{"key":"03352060","name":"Hagen im Bremischen","type":"Kreisangehörige_Gemeinde"},"district":{"key":"03352","name":"Cuxhaven","type":"Landkreis"},"federalState":{"key":"03","name":"Niedersachsen"}},{"name":"Am Sandberg","postalCode":"27628","locality":"Hagen im Bremischen","municipality":{"key":"03352060","name":"Hagen im Bremischen","type":"Kreisangehörige_Gemeinde"},"district":{"key":"03352","name":"Cuxhaven","type":"Landkreis"},"federalState":{"key":"03","name":"Niedersachsen"}},{"name":"Am Schießstand","postalCode":"27628","locality":"Hagen im Bremischen","municipality":{"key":"03352060","name":"Hagen im Bremischen","type":"Kreisangehörige_Gemeinde"},"district":{"key":"03352","name":"Cuxhaven","type":"Landkreis"},"federalState":{"key":"03","name":"Niedersachsen"}},{"name":"Am Schützenplatz","postalCode":"27628","locality":"Hagen im Bremischen","municipality":{"key":"03352060","name":"Hagen im Bremischen","type":"Kreisangehörige_Gemeinde"},"district":{"key":"03352","name":"Cuxhaven","type":"Landkreis"},"federalState":{"key":"03","name":"Niedersachsen"}},{"name":"Amselweg","postalCode":"27628","locality":"Hagen im Bremischen","municipality":{"key":"03352060","name":"Hagen im Bremischen","type":"Kreisangehörige_Gemeinde"},"district":{"key":"03352","name":"Cuxhaven","type":"Landkreis"},"federalState":{"key":"03","name":"Niedersachsen"}},{"name":"Am Sielfleet","postalCode":"27628","locality":"Hagen im Bremischen","municipality":{"key":"03352060","name":"Hagen im Bremischen","type":"Kreisangehörige_Gemeinde"},"district":{"key":"03352","name":"Cuxhaven","type":"Landkreis"},"federalState":{"key":"03","name":"Niedersachsen"}},{"name":"Am Sportplatz","postalCode":"27628","locality":"Hagen im Bremischen","municipality":{"key":"03352060","name":"Hagen im Bremischen","type":"Kreisangehörige_Gemeinde"},"district":{"key":"03352","name":"Cuxhaven","type":"Landkreis"},"federalState":{"key":"03","name":"Niedersachsen"}},{"name":"Amtsdamm","postalCode":"27628","locality":"Hagen im Bremischen","municipality":{"key":"03352060","name":"Hagen im Bremischen","type":"Kreisangehörige_Gemeinde"},"district":{"key":"03352","name":"Cuxhaven","type":"Landkreis"},"federalState":{"key":"03","name":"Niedersachsen"}},{"name":"Amtsplatz","postalCode":"27628","locality":"Hagen im Bremischen","municipality":{"key":"03352060","name":"Hagen im Bremischen","type":"Kreisangehörige_Gemeinde"},"district":{"key":"03352","name":"Cuxhaven","type":"Landkreis"},"federalState":{"key":"03","name":"Niedersachsen"}},{"name":"Am Türlürsberg","postalCode":"27628","locality":"Hagen im Bremischen","municipality":{"key":"03352060","name":"Hagen im Bremischen","type":"Kreisangehörige_Gemeinde"},"district":{"key":"03352","name":"Cuxhaven","type":"Landkreis"},"federalState":{"key":"03","name":"Niedersachsen"}},{"name":"Am Vordel","postalCode":"27628","locality":"Hagen im Bremischen","municipality":{"key":"03352060","name":"Hagen im Bremischen","type":"Kreisangehörige_Gemeinde"},"district":{"key":"03352","name":"Cuxhaven","type":"Landkreis"},"federalState":{"key":"03","name":"Niedersachsen"}},{"name":"Am Waldhang","postalCode":"27628","locality":"Hagen im Bremischen","municipality":{"key":"03352060","name":"Hagen im Bremischen","type":"Kreisangehörige_Gemeinde"},"district":{"key":"03352","name":"Cuxhaven","type":"Landkreis"},"federalState":{"key":"03","name":"Niedersachsen"}},{"name":"Am Waldrand","postalCode":"27628","locality":"Hagen im Bremischen","municipality":{"key":"03352060","name":"Hagen im Bremischen","type":"Kreisangehörige_Gemeinde"},"district":{"key":"03352","name":"Cuxhaven","type":"Landkreis"},"federalState":{"key":"03","name":"Niedersachsen"}},{"name":"Am Wall","postalCode":"27628","locality":"Hagen im Bremischen","municipality":{"key":"03352060","name":"Hagen im Bremischen","type":"Kreisangehörige_Gemeinde"},"district":{"key":"03352","name":"Cuxhaven","type":"Landkreis"},"federalState":{"key":"03","name":"Niedersachsen"}},{"name":"Am Wasserwerk","postalCode":"27628","locality":"Hagen im Bremischen","municipality":{"key":"03352060","name":"Hagen im Bremischen","type":"Kreisangehörige_Gemeinde"},"district":{"key":"03352","name":"Cuxhaven","type":"Landkreis"},"federalState":{"key":"03","name":"Niedersachsen"}},{"name":"Am Weißen Moor","postalCode":"27628","locality":"Hagen im Bremischen","municipality":{"key":"03352060","name":"Hagen im Bremischen","type":"Kreisangehörige_Gemeinde"},"district":{"key":"03352","name":"Cuxhaven","type":"Landkreis"},"federalState":{"key":"03","name":"Niedersachsen"}},{"name":"Am Weserdeich","postalCode":"27628","locality":"Hagen im Bremischen","municipality":{"key":"03352060","name":"Hagen im Bremischen","type":"Kreisangehörige_Gemeinde"},"district":{"key":"03352","name":"Cuxhaven","type":"Landkreis"},"federalState":{"key":"03","name":"Niedersachsen"}},{"name":"Am Wiehefleet","postalCode":"27628","locality":"Hagen im Bremischen","municipality":{"key":"03352060","name":"Hagen im Bremischen","type":"Kreisangehörige_Gemeinde"},"district":{"key":"03352","name":"Cuxhaven","type":"Landkreis"},"federalState":{"key":"03","name":"Niedersachsen"}},{"name":"Am Wintersberg","postalCode":"27628","locality":"Hagen im Bremischen","municipality":{"key":"03352060","name":"Hagen im Bremischen","type":"Kreisangehörige_Gemeinde"},"district":{"key":"03352","name":"Cuxhaven","type":"Landkreis"},"federalState":{"key":"03","name":"Niedersachsen"}},{"name":"An den Höfen","postalCode":"27628","locality":"Hagen im Bremischen","municipality":{"key":"03352060","name":"Hagen im Bremischen","type":"Kreisangehörige_Gemeinde"},"district":{"key":"03352","name":"Cuxhaven","type":"Landkreis"},"federalState":{"key":"03","name":"Niedersachsen"}},{"name":"An den Wallhecken","postalCode":"27628","locality":"Hagen im Bremischen","municipality":{"key":"03352060","name":"Hagen im Bremischen","type":"Kreisangehörige_Gemeinde"},"district":{"key":"03352","name":"Cuxhaven","type":"Landkreis"},"federalState":{"key":"03","name":"Niedersachsen"}},{"name":"An der Aue","postalCode":"27628","locality":"Hagen im Bremischen","municipality":{"key":"03352060","name":"Hagen im Bremischen","type":"Kreisangehörige_Gemeinde"},"district":{"key":"03352","name":"Cuxhaven","type":"Landkreis"},"federalState":{"key":"03","name":"Niedersachsen"}},{"name":"An der Bundesstr.","postalCode":"27628","locality":"Hagen im Bremischen","municipality":{"key":"03352060","name":"Hagen im Bremischen","type":"Kreisangehörige_Gemeinde"},"district":{"key":"03352","name":"Cuxhaven","type":"Landkreis"},"federalState":{"key":"03","name":"Niedersachsen"}},{"name":"Bahnhof","postalCode":"27628","locality":"Hagen im Bremischen","municipality":{"key":"03352060","name":"Hagen im Bremischen","type":"Kreisangehörige_Gemeinde"},"district":{"key":"03352","name":"Cuxhaven","type":"Landkreis"},"federalState":{"key":"03","name":"Niedersachsen"}},{"name":"Barloh","postalCode":"27628","locality":"Hagen im Bremischen","municipality":{"key":"03352060","name":"Hagen im Bremischen","type":"Kreisangehörige_Gemeinde"},"district":{"key":"03352","name":"Cuxhaven","type":"Landkreis"},"federalState":{"key":"03","name":"Niedersachsen"}},{"name":"Bei der neuen Mühle","postalCode":"27628","locality":"Hagen im Bremischen","municipality":{"key":"03352060","name":"Hagen im Bremischen","type":"Kreisangehörige_Gemeinde"},"district":{"key":"03352","name":"Cuxhaven","type":"Landkreis"},"federalState":{"key":"03","name":"Niedersachsen"}},{"name":"Bergahornweg","postalCode":"27628","locality":"Hagen im Bremischen","municipality":{"key":"03352060","name":"Hagen im Bremischen","type":"Kreisangehörige_Gemeinde"},"district":{"key":"03352","name":"Cuxhaven","type":"Landkreis"},"federalState":{"key":"03","name":"Niedersachsen"}},{"name":"Bergulmenweg","postalCode":"27628","locality":"Hagen im Bremischen","municipality":{"key":"03352060","name":"Hagen im Bremischen","type":"Kreisangehörige_Gemeinde"},"district":{"key":"03352","name":"Cuxhaven","type":"Landkreis"},"federalState":{"key":"03","name":"Niedersachsen"}},{"name":"Birkenweg","postalCode":"27628","locality":"Hagen im Bremischen","municipality":{"key":"03352060","name":"Hagen im Bremischen","type":"Kreisangehörige_Gemeinde"},"district":{"key":"03352","name":"Cuxhaven","type":"Landkreis"},"federalState":{"key":"03","name":"Niedersachsen"}},{"name":"Blumenstr.","postalCode":"27628","locality":"Hagen im Bremischen","municipality":{"key":"03352060","name":"Hagen im Bremischen","type":"Kreisangehörige_Gemeinde"},"district":{"key":"03352","name":"Cuxhaven","type":"Landkreis"},"federalState":{"key":"03","name":"Niedersachsen"}},{"name":"Bogenstr.","postalCode":"27628","locality":"Hagen im Bremischen","municipality":{"key":"03352060","name":"Hagen im Bremischen","type":"Kreisangehörige_Gemeinde"},"district":{"key":"03352","name":"Cuxhaven","type":"Landkreis"},"federalState":{"key":"03","name":"Niedersachsen"}},{"name":"Bohrturmstr.","postalCode":"27628","locality":"Hagen im Bremischen","municipality":{"key":"03352060","name":"Hagen im Bremischen","type":"Kreisangehörige_Gemeinde"},"district":{"key":"03352","name":"Cuxhaven","type":"Landkreis"},"federalState":{"key":"03","name":"Niedersachsen"}},{"name":"Borner Str.","postalCode":"27628","locality":"Hagen im Bremischen","municipality":{"key":"03352060","name":"Hagen im Bremischen","type":"Kreisangehörige_Gemeinde"},"district":{"key":"03352","name":"Cuxhaven","type":"Landkreis"},"federalState":{"key":"03","name":"Niedersachsen"}},{"name":"Börsten","postalCode":"27628","locality":"Hagen im Bremischen","municipality":{"key":"03352060","name":"Hagen im Bremischen","type":"Kreisangehörige_Gemeinde"},"district":{"key":"03352","name":"Cuxhaven","type":"Landkreis"},"federalState":{"key":"03","name":"Niedersachsen"}},{"name":"Bramstedter Str.","postalCode":"27628","locality":"Hagen im Bremischen","municipality":{"key":"03352060","name":"Hagen im Bremischen","type":"Kreisangehörige_Gemeinde"},"district":{"key":"03352","name":"Cuxhaven","type":"Landkreis"},"federalState":{"key":"03","name":"Niedersachsen"}},{"name":"Breite Str.","postalCode":"27628","locality":"Hagen im Bremischen","municipality":{"key":"03352060","name":"Hagen im Bremischen","type":"Kreisangehörige_Gemeinde"},"district":{"key":"03352","name":"Cuxhaven","type":"Landkreis"},"federalState":{"key":"03","name":"Niedersachsen"}},{"name":"Bremerhorner Str.","postalCode":"27628","locality":"Hagen im Bremischen","municipality":{"key":"03352060","name":"Hagen im Bremischen","type":"Kreisangehörige_Gemeinde"},"district":{"key":"03352","name":"Cuxhaven","type":"Landkreis"},"federalState":{"key":"03","name":"Niedersachsen"}},{"name":"Bremer Kamp","postalCode":"27628","locality":"Hagen im Bremischen","municipality":{"key":"03352060","name":"Hagen im Bremischen","type":"Kreisangehörige_Gemeinde"},"district":{"key":"03352","name":"Cuxhaven","type":"Landkreis"},"federalState":{"key":"03","name":"Niedersachsen"}},{"name":"Buchenkamp","postalCode":"27628","locality":"Hagen im Bremischen","municipality":{"key":"03352060","name":"Hagen im Bremischen","type":"Kreisangehörige_Gemeinde"},"district":{"key":"03352","name":"Cuxhaven","type":"Landkreis"},"federalState":{"key":"03","name":"Niedersachsen"}},{"name":"Buchenweg","postalCode":"27628","locality":"Hagen im Bremischen","municipality":{"key":"03352060","name":"Hagen im Bremischen","type":"Kreisangehörige_Gemeinde"},"district":{"key":"03352","name":"Cuxhaven","type":"Landkreis"},"federalState":{"key":"03","name":"Niedersachsen"}},{"name":"Bundesstr.","postalCode":"27628","locality":"Hagen im Bremischen","municipality":{"key":"03352060","name":"Hagen im Bremischen","type":"Kreisangehörige_Gemeinde"},"district":{"key":"03352","name":"Cuxhaven","type":"Landkreis"},"federalState":{"key":"03","name":"Niedersachsen"}},{"name":"Burgallee","postalCode":"27628","locality":"Hagen im Bremischen","municipality":{"key":"03352060","name":"Hagen im Bremischen","type":"Kreisangehörige_Gemeinde"},"district":{"key":"03352","name":"Cuxhaven","type":"Landkreis"},"federalState":{"key":"03","name":"Niedersachsen"}},{"name":"Cleve","postalCode":"27628","locality":"Hagen im Bremischen","municipality":{"key":"03352060","name":"Hagen im Bremischen","type":"Kreisangehörige_Gemeinde"},"district":{"key":"03352","name":"Cuxhaven","type":"Landkreis"},"federalState":{"key":"03","name":"Niedersachsen"}},{"name":"Dachsweg","postalCode":"27628","locality":"Hagen im Bremischen","municipality":{"key":"03352060","name":"Hagen im Bremischen","type":"Kreisangehörige_Gemeinde"},"district":{"key":"03352","name":"Cuxhaven","type":"Landkreis"},"federalState":{"key":"03","name":"Niedersachsen"}},{"name":"Dahlienweg","postalCode":"27628","locality":"Hagen im Bremischen","municipality":{"key":"03352060","name":"Hagen im Bremischen","type":"Kreisangehörige_Gemeinde"},"district":{"key":"03352","name":"Cuxhaven","type":"Landkreis"},"federalState":{"key":"03","name":"Niedersachsen"}},{"name":"Dammacker","postalCode":"27628","locality":"Hagen im Bremischen","municipality":{"key":"03352060","name":"Hagen im Bremischen","type":"Kreisangehörige_Gemeinde"},"district":{"key":"03352","name":"Cuxhaven","type":"Landkreis"},"federalState":{"key":"03","name":"Niedersachsen"}},{"name":"Deckenberg","postalCode":"27628","locality":"Hagen im Bremischen","municipality":{"key":"03352060","name":"Hagen im Bremischen","type":"Kreisangehörige_Gemeinde"},"district":{"key":"03352","name":"Cuxhaven","type":"Landkreis"},"federalState":{"key":"03","name":"Niedersachsen"}},{"name":"Deichstrenge","postalCode":"27628","locality":"Hagen im Bremischen","municipality":{"key":"03352060","name":"Hagen im Bremischen","type":"Kreisangehörige_Gemeinde"},"district":{"key":"03352","name":"Cuxhaven","type":"Landkreis"},"federalState":{"key":"03","name":"Niedersachsen"}},{"name":"Döhrnweg","postalCode":"27628","locality":"Hagen im Bremischen","municipality":{"key":"03352060","name":"Hagen im Bremischen","type":"Kreisangehörige_Gemeinde"},"district":{"key":"03352","name":"Cuxhaven","type":"Landkreis"},"federalState":{"key":"03","name":"Niedersachsen"}},{"name":"Dorfhagener Weg","postalCode":"27628","locality":"Hagen im Bremischen","municipality":{"key":"03352060","name":"Hagen im Bremischen","type":"Kreisangehörige_Gemeinde"},"district":{"key":"03352","name":"Cuxhaven","type":"Landkreis"},"federalState":{"key":"03","name":"Niedersachsen"}},{"name":"Dorfring","postalCode":"27628","locality":"Hagen im Bremischen","municipality":{"key":"03352060","name":"Hagen im Bremischen","type":"Kreisangehörige_Gemeinde"},"district":{"key":"03352","name":"Cuxhaven","type":"Landkreis"},"federalState":{"key":"03","name":"Niedersachsen"}},{"name":"Dorfstr.","postalCode":"27628","locality":"Hagen im Bremischen","municipality":{"key":"03352060","name":"Hagen im Bremischen","type":"Kreisangehörige_Gemeinde"},"district":{"key":"03352","name":"Cuxhaven","type":"Landkreis"},"federalState":{"key":"03","name":"Niedersachsen"}},{"name":"Driftsether Weg","postalCode":"27628","locality":"Hagen im Bremischen","municipality":{"key":"03352060","name":"Hagen im Bremischen","type":"Kreisangehörige_Gemeinde"},"district":{"key":"03352","name":"Cuxhaven","type":"Landkreis"},"federalState":{"key":"03","name":"Niedersachsen"}},{"name":"Eichenkamp","postalCode":"27628","locality":"Hagen im Bremischen","municipality":{"key":"03352060","name":"Hagen im Bremischen","type":"Kreisangehörige_Gemeinde"},"district":{"key":"03352","name":"Cuxhaven","type":"Landkreis"},"federalState":{"key":"03","name":"Niedersachsen"}},{"name":"Eichenweg","postalCode":"27628","locality":"Hagen im Bremischen","municipality":{"key":"03352060","name":"Hagen im Bremischen","type":"Kreisangehörige_Gemeinde"},"district":{"key":"03352","name":"Cuxhaven","type":"Landkreis"},"federalState":{"key":"03","name":"Niedersachsen"}},{"name":"Eilandstr.","postalCode":"27628","locality":"Hagen im Bremischen","municipality":{"key":"03352060","name":"Hagen im Bremischen","type":"Kreisangehörige_Gemeinde"},"district":{"key":"03352","name":"Cuxhaven","type":"Landkreis"},"federalState":{"key":"03","name":"Niedersachsen"}},{"name":"Ellhornstr.","postalCode":"27628","locality":"Hagen im Bremischen","municipality":{"key":"03352060","name":"Hagen im Bremischen","type":"Kreisangehörige_Gemeinde"},"district":{"key":"03352","name":"Cuxhaven","type":"Landkreis"},"federalState":{"key":"03","name":"Niedersachsen"}},{"name":"Engelnstr.","postalCode":"27628","locality":"Hagen im Bremischen","municipality":{"key":"03352060","name":"Hagen im Bremischen","type":"Kreisangehörige_Gemeinde"},"district":{"key":"03352","name":"Cuxhaven","type":"Landkreis"},"federalState":{"key":"03","name":"Niedersachsen"}},{"name":"Erlenweg","postalCode":"27628","locality":"Hagen im Bremischen","municipality":{"key":"03352060","name":"Hagen im Bremischen","type":"Kreisangehörige_Gemeinde"},"district":{"key":"03352","name":"Cuxhaven","type":"Landkreis"},"federalState":{"key":"03","name":"Niedersachsen"}},{"name":"Fasanenweg","postalCode":"27628","locality":"Hagen im Bremischen","municipality":{"key":"03352060","name":"Hagen im Bremischen","type":"Kreisangehörige_Gemeinde"},"district":{"key":"03352","name":"Cuxhaven","type":"Landkreis"},"federalState":{"key":"03","name":"Niedersachsen"}},{"name":"Feldkamp","postalCode":"27628","locality":"Hagen im Bremischen","municipality":{"key":"03352060","name":"Hagen im Bremischen","type":"Kreisangehörige_Gemeinde"},"district":{"key":"03352","name":"Cuxhaven","type":"Landkreis"},"federalState":{"key":"03","name":"Niedersachsen"}},{"name":"Feldstr.","postalCode":"27628","locality":"Hagen im Bremischen","municipality":{"key":"03352060","name":"Hagen im Bremischen","type":"Kreisangehörige_Gemeinde"},"district":{"key":"03352","name":"Cuxhaven","type":"Landkreis"},"federalState":{"key":"03","name":"Niedersachsen"}},{"name":"Feldweg","postalCode":"27628","locality":"Hagen im Bremischen","municipality":{"key":"03352060","name":"Hagen im Bremischen","type":"Kreisangehörige_Gemeinde"},"district":{"key":"03352","name":"Cuxhaven","type":"Landkreis"},"federalState":{"key":"03","name":"Niedersachsen"}},{"name":"Finna","postalCode":"27628","locality":"Hagen im Bremischen","municipality":{"key":"03352060","name":"Hagen im Bremischen","type":"Kreisangehörige_Gemeinde"},"district":{"key":"03352","name":"Cuxhaven","type":"Landkreis"},"federalState":{"key":"03","name":"Niedersachsen"}},{"name":"Finnaerberg","postalCode":"27628","locality":"Hagen im Bremischen","municipality":{"key":"03352060","name":"Hagen im Bremischen","type":"Kreisangehörige_Gemeinde"},"district":{"key":"03352","name":"Cuxhaven","type":"Landkreis"},"federalState":{"key":"03","name":"Niedersachsen"}},{"name":"Flethstr.","postalCode":"27628","locality":"Hagen im Bremischen","municipality":{"key":"03352060","name":"Hagen im Bremischen","type":"Kreisangehörige_Gemeinde"},"district":{"key":"03352","name":"Cuxhaven","type":"Landkreis"},"federalState":{"key":"03","name":"Niedersachsen"}},{"name":"Forstweg","postalCode":"27628","locality":"Hagen im Bremischen","municipality":{"key":"03352060","name":"Hagen im Bremischen","type":"Kreisangehörige_Gemeinde"},"district":{"key":"03352","name":"Cuxhaven","type":"Landkreis"},"federalState":{"key":"03","name":"Niedersachsen"}},{"name":"Forthmoorweg","postalCode":"27628","locality":"Hagen im Bremischen","municipality":{"key":"03352060","name":"Hagen im Bremischen","type":"Kreisangehörige_Gemeinde"},"district":{"key":"03352","name":"Cuxhaven","type":"Landkreis"},"federalState":{"key":"03","name":"Niedersachsen"}},{"name":"Friedhofstr.","postalCode":"27628","locality":"Hagen im Bremischen","municipality":{"key":"03352060","name":"Hagen im Bremischen","type":"Kreisangehörige_Gemeinde"},"district":{"key":"03352","name":"Cuxhaven","type":"Landkreis"},"federalState":{"key":"03","name":"Niedersachsen"}},{"name":"Friedhofsweg","postalCode":"27628","locality":"Hagen im Bremischen","municipality":{"key":"03352060","name":"Hagen im Bremischen","type":"Kreisangehörige_Gemeinde"},"district":{"key":"03352","name":"Cuxhaven","type":"Landkreis"},"federalState":{"key":"03","name":"Niedersachsen"}},{"name":"Fuchsbergdamm","postalCode":"27628","locality":"Hagen im Bremischen","municipality":{"key":"03352060","name":"Hagen im Bremischen","type":"Kreisangehörige_Gemeinde"},"district":{"key":"03352","name":"Cuxhaven","type":"Landkreis"},"federalState":{"key":"03","name":"Niedersachsen"}},{"name":"Gackauer Str.","postalCode":"27628","locality":"Hagen im Bremischen","municipality":{"key":"03352060","name":"Hagen im Bremischen","type":"Kreisangehörige_Gemeinde"},"district":{"key":"03352","name":"Cuxhaven","type":"Landkreis"},"federalState":{"key":"03","name":"Niedersachsen"}},{"name":"Garlstedter Weg","postalCode":"27628","locality":"Hagen im Bremischen","municipality":{"key":"03352060","name":"Hagen im Bremischen","type":"Kreisangehörige_Gemeinde"},"district":{"key":"03352","name":"Cuxhaven","type":"Landkreis"},"federalState":{"key":"03","name":"Niedersachsen"}},{"name":"Gartenstr.","postalCode":"27628","locality":"Hagen im Bremischen","municipality":{"key":"03352060","name":"Hagen im Bremischen","type":"Kreisangehörige_Gemeinde"},"district":{"key":"03352","name":"Cuxhaven","type":"Landkreis"},"federalState":{"key":"03","name":"Niedersachsen"}},{"name":"Gebrüder-Grimm-Weg","postalCode":"27628","locality":"Hagen im Bremischen","municipality":{"key":"03352060","name":"Hagen im Bremischen","type":"Kreisangehörige_Gemeinde"},"district":{"key":"03352","name":"Cuxhaven","type":"Landkreis"},"federalState":{"key":"03","name":"Niedersachsen"}},{"name":"Ginsterweg","postalCode":"27628","locality":"Hagen im Bremischen","municipality":{"key":"03352060","name":"Hagen im Bremischen","type":"Kreisangehörige_Gemeinde"},"district":{"key":"03352","name":"Cuxhaven","type":"Landkreis"},"federalState":{"key":"03","name":"Niedersachsen"}},{"name":"Grashofstr.","postalCode":"27628","locality":"Hagen im Bremischen","municipality":{"key":"03352060","name":"Hagen im Bremischen","type":"Kreisangehörige_Gemeinde"},"district":{"key":"03352","name":"Cuxhaven","type":"Landkreis"},"federalState":{"key":"03","name":"Niedersachsen"}},{"name":"Grauer Hengst","postalCode":"27628","locality":"Hagen im Bremischen","municipality":{"key":"03352060","name":"Hagen im Bremischen","type":"Kreisangehörige_Gemeinde"},"district":{"key":"03352","name":"Cuxhaven","type":"Landkreis"},"federalState":{"key":"03","name":"Niedersachsen"}},{"name":"Grienenberg","postalCode":"27628","locality":"Hagen im Bremischen","municipality":{"key":"03352060","name":"Hagen im Bremischen","type":"Kreisangehörige_Gemeinde"},"district":{"key":"03352","name":"Cuxhaven","type":"Landkreis"},"federalState":{"key":"03","name":"Niedersachsen"}},{"name":"Grüner Weg","postalCode":"27628","locality":"Hagen im Bremischen","municipality":{"key":"03352060","name":"Hagen im Bremischen","type":"Kreisangehörige_Gemeinde"},"district":{"key":"03352","name":"Cuxhaven","type":"Landkreis"},"federalState":{"key":"03","name":"Niedersachsen"}},{"name":"Grüne Wurth","postalCode":"27628","locality":"Hagen im Bremischen","municipality":{"key":"03352060","name":"Hagen im Bremischen","type":"Kreisangehörige_Gemeinde"},"district":{"key":"03352","name":"Cuxhaven","type":"Landkreis"},"federalState":{"key":"03","name":"Niedersachsen"}},{"name":"Grützmacherstr.","postalCode":"27628","locality":"Hagen im Bremischen","municipality":{"key":"03352060","name":"Hagen im Bremischen","type":"Kreisangehörige_Gemeinde"},"district":{"key":"03352","name":"Cuxhaven","type":"Landkreis"},"federalState":{"key":"03","name":"Niedersachsen"}},{"name":"Hagener Landstr.","postalCode":"27628","locality":"Hagen im Bremischen","municipality":{"key":"03352060","name":"Hagen im Bremischen","type":"Kreisangehörige_Gemeinde"},"district":{"key":"03352","name":"Cuxhaven","type":"Landkreis"},"federalState":{"key":"03","name":"Niedersachsen"}},{"name":"Hagener Str.","postalCode":"27628","locality":"Hagen im Bremischen","municipality":{"key":"03352060","name":"Hagen im Bremischen","type":"Kreisangehörige_Gemeinde"},"district":{"key":"03352","name":"Cuxhaven","type":"Landkreis"},"federalState":{"key":"03","name":"Niedersachsen"}},{"name":"Hang","postalCode":"27628","locality":"Hagen im Bremischen","municipality":{"key":"03352060","name":"Hagen im Bremischen","type":"Kreisangehörige_Gemeinde"},"district":{"key":"03352","name":"Cuxhaven","type":"Landkreis"},"federalState":{"key":"03","name":"Niedersachsen"}},{"name":"Harmonie","postalCode":"27628","locality":"Hagen im Bremischen","municipality":{"key":"03352060","name":"Hagen im Bremischen","type":"Kreisangehörige_Gemeinde"},"district":{"key":"03352","name":"Cuxhaven","type":"Landkreis"},"federalState":{"key":"03","name":"Niedersachsen"}},{"name":"Harrendorf","postalCode":"27628","locality":"Hagen im Bremischen","municipality":{"key":"03352060","name":"Hagen im Bremischen","type":"Kreisangehörige_Gemeinde"},"district":{"key":"03352","name":"Cuxhaven","type":"Landkreis"},"federalState":{"key":"03","name":"Niedersachsen"}},{"name":"Hauptstr.","postalCode":"27628","locality":"Hagen im Bremischen","municipality":{"key":"03352060","name":"Hagen im Bremischen","type":"Kreisangehörige_Gemeinde"},"district":{"key":"03352","name":"Cuxhaven","type":"Landkreis"},"federalState":{"key":"03","name":"Niedersachsen"}},{"name":"Häusler Heide","postalCode":"27628","locality":"Hagen im Bremischen","municipality":{"key":"03352060","name":"Hagen im Bremischen","type":"Kreisangehörige_Gemeinde"},"district":{"key":"03352","name":"Cuxhaven","type":"Landkreis"},"federalState":{"key":"03","name":"Niedersachsen"}},{"name":"Heerweg","postalCode":"27628","locality":"Hagen im Bremischen","municipality":{"key":"03352060","name":"Hagen im Bremischen","type":"Kreisangehörige_Gemeinde"},"district":{"key":"03352","name":"Cuxhaven","type":"Landkreis"},"federalState":{"key":"03","name":"Niedersachsen"}},{"name":"Heideweg","postalCode":"27628","locality":"Hagen im Bremischen","municipality":{"key":"03352060","name":"Hagen im Bremischen","type":"Kreisangehörige_Gemeinde"},"district":{"key":"03352","name":"Cuxhaven","type":"Landkreis"},"federalState":{"key":"03","name":"Niedersachsen"}},{"name":"Heidkamp","postalCode":"27628","locality":"Hagen im Bremischen","municipality":{"key":"03352060","name":"Hagen im Bremischen","type":"Kreisangehörige_Gemeinde"},"district":{"key":"03352","name":"Cuxhaven","type":"Landkreis"},"federalState":{"key":"03","name":"Niedersachsen"}},{"name":"Heidkampsweg","postalCode":"27628","locality":"Hagen im Bremischen","municipality":{"key":"03352060","name":"Hagen im Bremischen","type":"Kreisangehörige_Gemeinde"},"district":{"key":"03352","name":"Cuxhaven","type":"Landkreis"},"federalState":{"key":"03","name":"Niedersachsen"}},{"name":"Heinrich-Schriefer-Str.","postalCode":"27628","locality":"Hagen im Bremischen","municipality":{"key":"03352060","name":"Hagen im Bremischen","type":"Kreisangehörige_Gemeinde"},"district":{"key":"03352","name":"Cuxhaven","type":"Landkreis"},"federalState":{"key":"03","name":"Niedersachsen"}},{"name":"Herdenmoor","postalCode":"27628","locality":"Hagen im Bremischen","municipality":{"key":"03352060","name":"Hagen im Bremischen","type":"Kreisangehörige_Gemeinde"},"district":{"key":"03352","name":"Cuxhaven","type":"Landkreis"},"federalState":{"key":"03","name":"Niedersachsen"}},{"name":"Hermann-Allmers-Str.","postalCode":"27628","locality":"Hagen im Bremischen","municipality":{"key":"03352060","name":"Hagen im Bremischen","type":"Kreisangehörige_Gemeinde"},"district":{"key":"03352","name":"Cuxhaven","type":"Landkreis"},"federalState":{"key":"03","name":"Niedersachsen"}},{"name":"Hermann-Löns-Weg","postalCode":"27628","locality":"Hagen im Bremischen","municipality":{"key":"03352060","name":"Hagen im Bremischen","type":"Kreisangehörige_Gemeinde"},"district":{"key":"03352","name":"Cuxhaven","type":"Landkreis"},"federalState":{"key":"03","name":"Niedersachsen"}},{"name":"Hesterberg","postalCode":"27628","locality":"Hagen im Bremischen","municipality":{"key":"03352060","name":"Hagen im Bremischen","type":"Kreisangehörige_Gemeinde"},"district":{"key":"03352","name":"Cuxhaven","type":"Landkreis"},"federalState":{"key":"03","name":"Niedersachsen"}},{"name":"Hesternstr.","postalCode":"27628","locality":"Hagen im Bremischen","municipality":{"key":"03352060","name":"Hagen im Bremischen","type":"Kreisangehörige_Gemeinde"},"district":{"key":"03352","name":"Cuxhaven","type":"Landkreis"},"federalState":{"key":"03","name":"Niedersachsen"}},{"name":"Hinter dem Schießstand","postalCode":"27628","locality":"Hagen im Bremischen","municipality":{"key":"03352060","name":"Hagen im Bremischen","type":"Kreisangehörige_Gemeinde"},"district":{"key":"03352","name":"Cuxhaven","type":"Landkreis"},"federalState":{"key":"03","name":"Niedersachsen"}},{"name":"Hinter dem Weserdeich","postalCode":"27628","locality":"Hagen im Bremischen","municipality":{"key":"03352060","name":"Hagen im Bremischen","type":"Kreisangehörige_Gemeinde"},"district":{"key":"03352","name":"Cuxhaven","type":"Landkreis"},"federalState":{"key":"03","name":"Niedersachsen"}},{"name":"Hinter den Tannen","postalCode":"27628","locality":"Hagen im Bremischen","municipality":{"key":"03352060","name":"Hagen im Bremischen","type":"Kreisangehörige_Gemeinde"},"district":{"key":"03352","name":"Cuxhaven","type":"Landkreis"},"federalState":{"key":"03","name":"Niedersachsen"}},{"name":"Hinter der Loge","postalCode":"27628","locality":"Hagen im Bremischen","municipality":{"key":"03352060","name":"Hagen im Bremischen","type":"Kreisangehörige_Gemeinde"},"district":{"key":"03352","name":"Cuxhaven","type":"Landkreis"},"federalState":{"key":"03","name":"Niedersachsen"}},{"name":"Hinter der Mühle","postalCode":"27628","locality":"Hagen im Bremischen","municipality":{"key":"03352060","name":"Hagen im Bremischen","type":"Kreisangehörige_Gemeinde"},"district":{"key":"03352","name":"Cuxhaven","type":"Landkreis"},"federalState":{"key":"03","name":"Niedersachsen"}},{"name":"Hof Gackau","postalCode":"27628","locality":"Hagen im Bremischen","municipality":{"key":"03352060","name":"Hagen im Bremischen","type":"Kreisangehörige_Gemeinde"},"district":{"key":"03352","name":"Cuxhaven","type":"Landkreis"},"federalState":{"key":"03","name":"Niedersachsen"}},{"name":"Hohenhammsweg","postalCode":"27628","locality":"Hagen im Bremischen","municipality":{"key":"03352060","name":"Hagen im Bremischen","type":"Kreisangehörige_Gemeinde"},"district":{"key":"03352","name":"Cuxhaven","type":"Landkreis"},"federalState":{"key":"03","name":"Niedersachsen"}},{"name":"Hohes Feld","postalCode":"27628","locality":"Hagen im Bremischen","municipality":{"key":"03352060","name":"Hagen im Bremischen","type":"Kreisangehörige_Gemeinde"},"district":{"key":"03352","name":"Cuxhaven","type":"Landkreis"},"federalState":{"key":"03","name":"Niedersachsen"}},{"name":"Hohes Wehr","postalCode":"27628","locality":"Hagen im Bremischen","municipality":{"key":"03352060","name":"Hagen im Bremischen","type":"Kreisangehörige_Gemeinde"},"district":{"key":"03352","name":"Cuxhaven","type":"Landkreis"},"federalState":{"key":"03","name":"Niedersachsen"}},{"name":"Horwedelsweg","postalCode":"27628","locality":"Hagen im Bremischen","municipality":{"key":"03352060","name":"Hagen im Bremischen","type":"Kreisangehörige_Gemeinde"},"district":{"key":"03352","name":"Cuxhaven","type":"Landkreis"},"federalState":{"key":"03","name":"Niedersachsen"}},{"name":"Ilquaben","postalCode":"27628","locality":"Hagen im Bremischen","municipality":{"key":"03352060","name":"Hagen im Bremischen","type":"Kreisangehörige_Gemeinde"},"district":{"key":"03352","name":"Cuxhaven","type":"Landkreis"},"federalState":{"key":"03","name":"Niedersachsen"}},{"name":"Im Bocksacker","postalCode":"27628","locality":"Hagen im Bremischen","municipality":{"key":"03352060","name":"Hagen im Bremischen","type":"Kreisangehörige_Gemeinde"},"district":{"key":"03352","name":"Cuxhaven","type":"Landkreis"},"federalState":{"key":"03","name":"Niedersachsen"}},{"name":"Im Bogen","postalCode":"27628","locality":"Hagen im Bremischen","municipality":{"key":"03352060","name":"Hagen im Bremischen","type":"Kreisangehörige_Gemeinde"},"district":{"key":"03352","name":"Cuxhaven","type":"Landkreis"},"federalState":{"key":"03","name":"Niedersachsen"}},{"name":"Im Deel","postalCode":"27628","locality":"Hagen im Bremischen","municipality":{"key":"03352060","name":"Hagen im Bremischen","type":"Kreisangehörige_Gemeinde"},"district":{"key":"03352","name":"Cuxhaven","type":"Landkreis"},"federalState":{"key":"03","name":"Niedersachsen"}},{"name":"Im Dorfe","postalCode":"27628","locality":"Hagen im Bremischen","municipality":{"key":"03352060","name":"Hagen im Bremischen","type":"Kreisangehörige_Gemeinde"},"district":{"key":"03352","name":"Cuxhaven","type":"Landkreis"},"federalState":{"key":"03","name":"Niedersachsen"}},{"name":"Im Eichengrund","postalCode":"27628","locality":"Hagen im Bremischen","municipality":{"key":"03352060","name":"Hagen im Bremischen","type":"Kreisangehörige_Gemeinde"},"district":{"key":"03352","name":"Cuxhaven","type":"Landkreis"},"federalState":{"key":"03","name":"Niedersachsen"}},{"name":"Im Grashof","postalCode":"27628","locality":"Hagen im Bremischen","municipality":{"key":"03352060","name":"Hagen im Bremischen","type":"Kreisangehörige_Gemeinde"},"district":{"key":"03352","name":"Cuxhaven","type":"Landkreis"},"federalState":{"key":"03","name":"Niedersachsen"}},{"name":"Im Grund","postalCode":"27628","locality":"Hagen im Bremischen","municipality":{"key":"03352060","name":"Hagen im Bremischen","type":"Kreisangehörige_Gemeinde"},"district":{"key":"03352","name":"Cuxhaven","type":"Landkreis"},"federalState":{"key":"03","name":"Niedersachsen"}},{"name":"Im Leegmoor","postalCode":"27628","locality":"Hagen im Bremischen","municipality":{"key":"03352060","name":"Hagen im Bremischen","type":"Kreisangehörige_Gemeinde"},"district":{"key":"03352","name":"Cuxhaven","type":"Landkreis"},"federalState":{"key":"03","name":"Niedersachsen"}},{"name":"Immenweg","postalCode":"27628","locality":"Hagen im Bremischen","municipality":{"key":"03352060","name":"Hagen im Bremischen","type":"Kreisangehörige_Gemeinde"},"district":{"key":"03352","name":"Cuxhaven","type":"Landkreis"},"federalState":{"key":"03","name":"Niedersachsen"}},{"name":"Im Pasch","postalCode":"27628","locality":"Hagen im Bremischen","municipality":{"key":"03352060","name":"Hagen im Bremischen","type":"Kreisangehörige_Gemeinde"},"district":{"key":"03352","name":"Cuxhaven","type":"Landkreis"},"federalState":{"key":"03","name":"Niedersachsen"}},{"name":"Im Ruschort","postalCode":"27628","locality":"Hagen im Bremischen","municipality":{"key":"03352060","name":"Hagen im Bremischen","type":"Kreisangehörige_Gemeinde"},"district":{"key":"03352","name":"Cuxhaven","type":"Landkreis"},"federalState":{"key":"03","name":"Niedersachsen"}},{"name":"Im Seegen","postalCode":"27628","locality":"Hagen im Bremischen","municipality":{"key":"03352060","name":"Hagen im Bremischen","type":"Kreisangehörige_Gemeinde"},"district":{"key":"03352","name":"Cuxhaven","type":"Landkreis"},"federalState":{"key":"03","name":"Niedersachsen"}},{"name":"Im Tal","postalCode":"27628","locality":"Hagen im Bremischen","municipality":{"key":"03352060","name":"Hagen im Bremischen","type":"Kreisangehörige_Gemeinde"},"district":{"key":"03352","name":"Cuxhaven","type":"Landkreis"},"federalState":{"key":"03","name":"Niedersachsen"}},{"name":"Im Tannenweg","postalCode":"27628","locality":"Hagen im Bremischen","municipality":{"key":"03352060","name":"Hagen im Bremischen","type":"Kreisangehörige_Gemeinde"},"district":{"key":"03352","name":"Cuxhaven","type":"Landkreis"},"federalState":{"key":"03","name":"Niedersachsen"}},{"name":"Im Vorbusch","postalCode":"27628","locality":"Hagen im Bremischen","municipality":{"key":"03352060","name":"Hagen im Bremischen","type":"Kreisangehörige_Gemeinde"},"district":{"key":"03352","name":"Cuxhaven","type":"Landkreis"},"federalState":{"key":"03","name":"Niedersachsen"}},{"name":"In de Hörn","postalCode":"27628","locality":"Hagen im Bremischen","municipality":{"key":"03352060","name":"Hagen im Bremischen","type":"Kreisangehörige_Gemeinde"},"district":{"key":"03352","name":"Cuxhaven","type":"Landkreis"},"federalState":{"key":"03","name":"Niedersachsen"}},{"name":"In der Feldbraake","postalCode":"27628","locality":"Hagen im Bremischen","municipality":{"key":"03352060","name":"Hagen im Bremischen","type":"Kreisangehörige_Gemeinde"},"district":{"key":"03352","name":"Cuxhaven","type":"Landkreis"},"federalState":{"key":"03","name":"Niedersachsen"}},{"name":"In der Schöge","postalCode":"27628","locality":"Hagen im Bremischen","municipality":{"key":"03352060","name":"Hagen im Bremischen","type":"Kreisangehörige_Gemeinde"},"district":{"key":"03352","name":"Cuxhaven","type":"Landkreis"},"federalState":{"key":"03","name":"Niedersachsen"}},{"name":"In der Siedlung","postalCode":"27628","locality":"Hagen im Bremischen","municipality":{"key":"03352060","name":"Hagen im Bremischen","type":"Kreisangehörige_Gemeinde"},"district":{"key":"03352","name":"Cuxhaven","type":"Landkreis"},"federalState":{"key":"03","name":"Niedersachsen"}},{"name":"Industriestr.","postalCode":"27628","locality":"Hagen im Bremischen","municipality":{"key":"03352060","name":"Hagen im Bremischen","type":"Kreisangehörige_Gemeinde"},"district":{"key":"03352","name":"Cuxhaven","type":"Landkreis"},"federalState":{"key":"03","name":"Niedersachsen"}},{"name":"Johann-Hinrich-Schmelen-Str.","postalCode":"27628","locality":"Hagen im Bremischen","municipality":{"key":"03352060","name":"Hagen im Bremischen","type":"Kreisangehörige_Gemeinde"},"district":{"key":"03352","name":"Cuxhaven","type":"Landkreis"},"federalState":{"key":"03","name":"Niedersachsen"}},{"name":"Kastanienweg","postalCode":"27628","locality":"Hagen im Bremischen","municipality":{"key":"03352060","name":"Hagen im Bremischen","type":"Kreisangehörige_Gemeinde"},"district":{"key":"03352","name":"Cuxhaven","type":"Landkreis"},"federalState":{"key":"03","name":"Niedersachsen"}},{"name":"Kehrje","postalCode":"27628","locality":"Hagen im Bremischen","municipality":{"key":"03352060","name":"Hagen im Bremischen","type":"Kreisangehörige_Gemeinde"},"district":{"key":"03352","name":"Cuxhaven","type":"Landkreis"},"federalState":{"key":"03","name":"Niedersachsen"}},{"name":"Kiefernweg","postalCode":"27628","locality":"Hagen im Bremischen","municipality":{"key":"03352060","name":"Hagen im Bremischen","type":"Kreisangehörige_Gemeinde"},"district":{"key":"03352","name":"Cuxhaven","type":"Landkreis"},"federalState":{"key":"03","name":"Niedersachsen"}},{"name":"Kinderwald","postalCode":"27628","locality":"Hagen im Bremischen","municipality":{"key":"03352060","name":"Hagen im Bremischen","type":"Kreisangehörige_Gemeinde"},"district":{"key":"03352","name":"Cuxhaven","type":"Landkreis"},"federalState":{"key":"03","name":"Niedersachsen"}},{"name":"Kirchbuschweg","postalCode":"27628","locality":"Hagen im Bremischen","municipality":{"key":"03352060","name":"Hagen im Bremischen","type":"Kreisangehörige_Gemeinde"},"district":{"key":"03352","name":"Cuxhaven","type":"Landkreis"},"federalState":{"key":"03","name":"Niedersachsen"}},{"name":"Kirchweg","postalCode":"27628","locality":"Hagen im Bremischen","municipality":{"key":"03352060","name":"Hagen im Bremischen","type":"Kreisangehörige_Gemeinde"},"district":{"key":"03352","name":"Cuxhaven","type":"Landkreis"},"federalState":{"key":"03","name":"Niedersachsen"}},{"name":"Klus","postalCode":"27628","locality":"Hagen im Bremischen","municipality":{"key":"03352060","name":"Hagen im Bremischen","type":"Kreisangehörige_Gemeinde"},"district":{"key":"03352","name":"Cuxhaven","type":"Landkreis"},"federalState":{"key":"03","name":"Niedersachsen"}},{"name":"Kohlhöfe","postalCode":"27628","locality":"Hagen im Bremischen","municipality":{"key":"03352060","name":"Hagen im Bremischen","type":"Kreisangehörige_Gemeinde"},"district":{"key":"03352","name":"Cuxhaven","type":"Landkreis"},"federalState":{"key":"03","name":"Niedersachsen"}},{"name":"Kreisstr.","postalCode":"27628","locality":"Hagen im Bremischen","municipality":{"key":"03352060","name":"Hagen im Bremischen","type":"Kreisangehörige_Gemeinde"},"district":{"key":"03352","name":"Cuxhaven","type":"Landkreis"},"federalState":{"key":"03","name":"Niedersachsen"}},{"name":"Kuhlmoorsdamm","postalCode":"27628","locality":"Hagen im Bremischen","municipality":{"key":"03352060","name":"Hagen im Bremischen","type":"Kreisangehörige_Gemeinde"},"district":{"key":"03352","name":"Cuxhaven","type":"Landkreis"},"federalState":{"key":"03","name":"Niedersachsen"}},{"name":"Kurzer Weg","postalCode":"27628","locality":"Hagen im Bremischen","municipality":{"key":"03352060","name":"Hagen im Bremischen","type":"Kreisangehörige_Gemeinde"},"district":{"key":"03352","name":"Cuxhaven","type":"Landkreis"},"federalState":{"key":"03","name":"Niedersachsen"}},{"name":"Kurze Str.","postalCode":"27628","locality":"Hagen im Bremischen","municipality":{"key":"03352060","name":"Hagen im Bremischen","type":"Kreisangehörige_Gemeinde"},"district":{"key":"03352","name":"Cuxhaven","type":"Landkreis"},"federalState":{"key":"03","name":"Niedersachsen"}},{"name":"Lammerhofstr.","postalCode":"27628","locality":"Hagen im Bremischen","municipality":{"key":"03352060","name":"Hagen im Bremischen","type":"Kreisangehörige_Gemeinde"},"district":{"key":"03352","name":"Cuxhaven","type":"Landkreis"},"federalState":{"key":"03","name":"Niedersachsen"}},{"name":"Landesstr.","postalCode":"27628","locality":"Hagen im Bremischen","municipality":{"key":"03352060","name":"Hagen im Bremischen","type":"Kreisangehörige_Gemeinde"},"district":{"key":"03352","name":"Cuxhaven","type":"Landkreis"},"federalState":{"key":"03","name":"Niedersachsen"}},{"name":"Landrat-Allmers-Weg","postalCode":"27628","locality":"Hagen im Bremischen","municipality":{"key":"03352060","name":"Hagen im Bremischen","type":"Kreisangehörige_Gemeinde"},"district":{"key":"03352","name":"Cuxhaven","type":"Landkreis"},"federalState":{"key":"03","name":"Niedersachsen"}},{"name":"Landstr.","postalCode":"27628","locality":"Hagen im Bremischen","municipality":{"key":"03352060","name":"Hagen im Bremischen","type":"Kreisangehörige_Gemeinde"},"district":{"key":"03352","name":"Cuxhaven","type":"Landkreis"},"federalState":{"key":"03","name":"Niedersachsen"}},{"name":"Landwehrstr.","postalCode":"27628","locality":"Hagen im Bremischen","municipality":{"key":"03352060","name":"Hagen im Bremischen","type":"Kreisangehörige_Gemeinde"},"district":{"key":"03352","name":"Cuxhaven","type":"Landkreis"},"federalState":{"key":"03","name":"Niedersachsen"}},{"name":"Lärchenweg","postalCode":"27628","locality":"Hagen im Bremischen","municipality":{"key":"03352060","name":"Hagen im Bremischen","type":"Kreisangehörige_Gemeinde"},"district":{"key":"03352","name":"Cuxhaven","type":"Landkreis"},"federalState":{"key":"03","name":"Niedersachsen"}},{"name":"Lehmkuhlstr.","postalCode":"27628","locality":"Hagen im Bremischen","municipality":{"key":"03352060","name":"Hagen im Bremischen","type":"Kreisangehörige_Gemeinde"},"district":{"key":"03352","name":"Cuxhaven","type":"Landkreis"},"federalState":{"key":"03","name":"Niedersachsen"}},{"name":"Lehnstedter Damm","postalCode":"27628","locality":"Hagen im Bremischen","municipality":{"key":"03352060","name":"Hagen im Bremischen","type":"Kreisangehörige_Gemeinde"},"district":{"key":"03352","name":"Cuxhaven","type":"Landkreis"},"federalState":{"key":"03","name":"Niedersachsen"}},{"name":"Lehnstedter Str.","postalCode":"27628","locality":"Hagen im Bremischen","municipality":{"key":"03352060","name":"Hagen im Bremischen","type":"Kreisangehörige_Gemeinde"},"district":{"key":"03352","name":"Cuxhaven","type":"Landkreis"},"federalState":{"key":"03","name":"Niedersachsen"}},{"name":"Lindenallee","postalCode":"27628","locality":"Hagen im Bremischen","municipality":{"key":"03352060","name":"Hagen im Bremischen","type":"Kreisangehörige_Gemeinde"},"district":{"key":"03352","name":"Cuxhaven","type":"Landkreis"},"federalState":{"key":"03","name":"Niedersachsen"}},{"name":"Lindenbruchstr.","postalCode":"27628","locality":"Hagen im Bremischen","municipality":{"key":"03352060","name":"Hagen im Bremischen","type":"Kreisangehörige_Gemeinde"},"district":{"key":"03352","name":"Cuxhaven","type":"Landkreis"},"federalState":{"key":"03","name":"Niedersachsen"}},{"name":"Lindenstr.","postalCode":"27628","locality":"Hagen im Bremischen","municipality":{"key":"03352060","name":"Hagen im Bremischen","type":"Kreisangehörige_Gemeinde"},"district":{"key":"03352","name":"Cuxhaven","type":"Landkreis"},"federalState":{"key":"03","name":"Niedersachsen"}},{"name":"Lindenweg","postalCode":"27628","locality":"Hagen im Bremischen","municipality":{"key":"03352060","name":"Hagen im Bremischen","type":"Kreisangehörige_Gemeinde"},"district":{"key":"03352","name":"Cuxhaven","type":"Landkreis"},"federalState":{"key":"03","name":"Niedersachsen"}},{"name":"Loge","postalCode":"27628","locality":"Hagen im Bremischen","municipality":{"key":"03352060","name":"Hagen im Bremischen","type":"Kreisangehörige_Gemeinde"},"district":{"key":"03352","name":"Cuxhaven","type":"Landkreis"},"federalState":{"key":"03","name":"Niedersachsen"}},{"name":"Loher Dobben","postalCode":"27628","locality":"Hagen im Bremischen","municipality":{"key":"03352060","name":"Hagen im Bremischen","type":"Kreisangehörige_Gemeinde"},"district":{"key":"03352","name":"Cuxhaven","type":"Landkreis"},"federalState":{"key":"03","name":"Niedersachsen"}},{"name":"Loher Dorfring","postalCode":"27628","locality":"Hagen im Bremischen","municipality":{"key":"03352060","name":"Hagen im Bremischen","type":"Kreisangehörige_Gemeinde"},"district":{"key":"03352","name":"Cuxhaven","type":"Landkreis"},"federalState":{"key":"03","name":"Niedersachsen"}},{"name":"Loher Friedhofstr.","postalCode":"27628","locality":"Hagen im Bremischen","municipality":{"key":"03352060","name":"Hagen im Bremischen","type":"Kreisangehörige_Gemeinde"},"district":{"key":"03352","name":"Cuxhaven","type":"Landkreis"},"federalState":{"key":"03","name":"Niedersachsen"}},{"name":"Loher Gartenstr.","postalCode":"27628","locality":"Hagen im Bremischen","municipality":{"key":"03352060","name":"Hagen im Bremischen","type":"Kreisangehörige_Gemeinde"},"district":{"key":"03352","name":"Cuxhaven","type":"Landkreis"},"federalState":{"key":"03","name":"Niedersachsen"}},{"name":"Loher Hauptstr.","postalCode":"27628","locality":"Hagen im Bremischen","municipality":{"key":"03352060","name":"Hagen im Bremischen","type":"Kreisangehörige_Gemeinde"},"district":{"key":"03352","name":"Cuxhaven","type":"Landkreis"},"federalState":{"key":"03","name":"Niedersachsen"}},{"name":"Lüttje Wurth","postalCode":"27628","locality":"Hagen im Bremischen","municipality":{"key":"03352060","name":"Hagen im Bremischen","type":"Kreisangehörige_Gemeinde"},"district":{"key":"03352","name":"Cuxhaven","type":"Landkreis"},"federalState":{"key":"03","name":"Niedersachsen"}},{"name":"Marktstr.","postalCode":"27628","locality":"Hagen im Bremischen","municipality":{"key":"03352060","name":"Hagen im Bremischen","type":"Kreisangehörige_Gemeinde"},"district":{"key":"03352","name":"Cuxhaven","type":"Landkreis"},"federalState":{"key":"03","name":"Niedersachsen"}},{"name":"Mehrgenerationenplatz","postalCode":"27628","locality":"Hagen im Bremischen","municipality":{"key":"03352060","name":"Hagen im Bremischen","type":"Kreisangehörige_Gemeinde"},"district":{"key":"03352","name":"Cuxhaven","type":"Landkreis"},"federalState":{"key":"03","name":"Niedersachsen"}},{"name":"Memelstr.","postalCode":"27628","locality":"Hagen im Bremischen","municipality":{"key":"03352060","name":"Hagen im Bremischen","type":"Kreisangehörige_Gemeinde"},"district":{"key":"03352","name":"Cuxhaven","type":"Landkreis"},"federalState":{"key":"03","name":"Niedersachsen"}},{"name":"Meyenburger Str.","postalCode":"27628","locality":"Hagen im Bremischen","municipality":{"key":"03352060","name":"Hagen im Bremischen","type":"Kreisangehörige_Gemeinde"},"district":{"key":"03352","name":"Cuxhaven","type":"Landkreis"},"federalState":{"key":"03","name":"Niedersachsen"}},{"name":"Mittelstr.","postalCode":"27628","locality":"Hagen im Bremischen","municipality":{"key":"03352060","name":"Hagen im Bremischen","type":"Kreisangehörige_Gemeinde"},"district":{"key":"03352","name":"Cuxhaven","type":"Landkreis"},"federalState":{"key":"03","name":"Niedersachsen"}},{"name":"Möhlenstroot","postalCode":"27628","locality":"Hagen im Bremischen","municipality":{"key":"03352060","name":"Hagen im Bremischen","type":"Kreisangehörige_Gemeinde"},"district":{"key":"03352","name":"Cuxhaven","type":"Landkreis"},"federalState":{"key":"03","name":"Niedersachsen"}},{"name":"Moorblöcken","postalCode":"27628","locality":"Hagen im Bremischen","municipality":{"key":"03352060","name":"Hagen im Bremischen","type":"Kreisangehörige_Gemeinde"},"district":{"key":"03352","name":"Cuxhaven","type":"Landkreis"},"federalState":{"key":"03","name":"Niedersachsen"}},{"name":"Moorhöfe","postalCode":"27628","locality":"Hagen im Bremischen","municipality":{"key":"03352060","name":"Hagen im Bremischen","type":"Kreisangehörige_Gemeinde"},"district":{"key":"03352","name":"Cuxhaven","type":"Landkreis"},"federalState":{"key":"03","name":"Niedersachsen"}},{"name":"Moorkampsweg","postalCode":"27628","locality":"Hagen im Bremischen","municipality":{"key":"03352060","name":"Hagen im Bremischen","type":"Kreisangehörige_Gemeinde"},"district":{"key":"03352","name":"Cuxhaven","type":"Landkreis"},"federalState":{"key":"03","name":"Niedersachsen"}},{"name":"Moorstr.","postalCode":"27628","locality":"Hagen im Bremischen","municipality":{"key":"03352060","name":"Hagen im Bremischen","type":"Kreisangehörige_Gemeinde"},"district":{"key":"03352","name":"Cuxhaven","type":"Landkreis"},"federalState":{"key":"03","name":"Niedersachsen"}},{"name":"Moorweg","postalCode":"27628","locality":"Hagen im Bremischen","municipality":{"key":"03352060","name":"Hagen im Bremischen","type":"Kreisangehörige_Gemeinde"},"district":{"key":"03352","name":"Cuxhaven","type":"Landkreis"},"federalState":{"key":"03","name":"Niedersachsen"}},{"name":"Mühlenstr.","postalCode":"27628","locality":"Hagen im Bremischen","municipality":{"key":"03352060","name":"Hagen im Bremischen","type":"Kreisangehörige_Gemeinde"},"district":{"key":"03352","name":"Cuxhaven","type":"Landkreis"},"federalState":{"key":"03","name":"Niedersachsen"}},{"name":"Mühlenteich","postalCode":"27628","locality":"Hagen im Bremischen","municipality":{"key":"03352060","name":"Hagen im Bremischen","type":"Kreisangehörige_Gemeinde"},"district":{"key":"03352","name":"Cuxhaven","type":"Landkreis"},"federalState":{"key":"03","name":"Niedersachsen"}},{"name":"Neue Höft","postalCode":"27628","locality":"Hagen im Bremischen","municipality":{"key":"03352060","name":"Hagen im Bremischen","type":"Kreisangehörige_Gemeinde"},"district":{"key":"03352","name":"Cuxhaven","type":"Landkreis"},"federalState":{"key":"03","name":"Niedersachsen"}},{"name":"Neue Landstr.","postalCode":"27628","locality":"Hagen im Bremischen","municipality":{"key":"03352060","name":"Hagen im Bremischen","type":"Kreisangehörige_Gemeinde"},"district":{"key":"03352","name":"Cuxhaven","type":"Landkreis"},"federalState":{"key":"03","name":"Niedersachsen"}},{"name":"Neue Str.","postalCode":"27628","locality":"Hagen im Bremischen","municipality":{"key":"03352060","name":"Hagen im Bremischen","type":"Kreisangehörige_Gemeinde"},"district":{"key":"03352","name":"Cuxhaven","type":"Landkreis"},"federalState":{"key":"03","name":"Niedersachsen"}},{"name":"Oberster Hof","postalCode":"27628","locality":"Hagen im Bremischen","municipality":{"key":"03352060","name":"Hagen im Bremischen","type":"Kreisangehörige_Gemeinde"},"district":{"key":"03352","name":"Cuxhaven","type":"Landkreis"},"federalState":{"key":"03","name":"Niedersachsen"}},{"name":"Offenwarder Str.","postalCode":"27628","locality":"Hagen im Bremischen","municipality":{"key":"03352060","name":"Hagen im Bremischen","type":"Kreisangehörige_Gemeinde"},"district":{"key":"03352","name":"Cuxhaven","type":"Landkreis"},"federalState":{"key":"03","name":"Niedersachsen"}},{"name":"Op de Borg","postalCode":"27628","locality":"Hagen im Bremischen","municipality":{"key":"03352060","name":"Hagen im Bremischen","type":"Kreisangehörige_Gemeinde"},"district":{"key":"03352","name":"Cuxhaven","type":"Landkreis"},"federalState":{"key":"03","name":"Niedersachsen"}},{"name":"Op'n Hoff","postalCode":"27628","locality":"Hagen im Bremischen","municipality":{"key":"03352060","name":"Hagen im Bremischen","type":"Kreisangehörige_Gemeinde"},"district":{"key":"03352","name":"Cuxhaven","type":"Landkreis"},"federalState":{"key":"03","name":"Niedersachsen"}},{"name":"Osterstader Str.","postalCode":"27628","locality":"Hagen im Bremischen","municipality":{"key":"03352060","name":"Hagen im Bremischen","type":"Kreisangehörige_Gemeinde"},"district":{"key":"03352","name":"Cuxhaven","type":"Landkreis"},"federalState":{"key":"03","name":"Niedersachsen"}},{"name":"Ostlandstr.","postalCode":"27628","locality":"Hagen im Bremischen","municipality":{"key":"03352060","name":"Hagen im Bremischen","type":"Kreisangehörige_Gemeinde"},"district":{"key":"03352","name":"Cuxhaven","type":"Landkreis"},"federalState":{"key":"03","name":"Niedersachsen"}},{"name":"Ostlandweg","postalCode":"27628","locality":"Hagen im Bremischen","municipality":{"key":"03352060","name":"Hagen im Bremischen","type":"Kreisangehörige_Gemeinde"},"district":{"key":"03352","name":"Cuxhaven","type":"Landkreis"},"federalState":{"key":"03","name":"Niedersachsen"}},{"name":"Padstucker","postalCode":"27628","locality":"Hagen im Bremischen","municipality":{"key":"03352060","name":"Hagen im Bremischen","type":"Kreisangehörige_Gemeinde"},"district":{"key":"03352","name":"Cuxhaven","type":"Landkreis"},"federalState":{"key":"03","name":"Niedersachsen"}},{"name":"Parkstr.","postalCode":"27628","locality":"Hagen im Bremischen","municipality":{"key":"03352060","name":"Hagen im Bremischen","type":"Kreisangehörige_Gemeinde"},"district":{"key":"03352","name":"Cuxhaven","type":"Landkreis"},"federalState":{"key":"03","name":"Niedersachsen"}},{"name":"Paschberg","postalCode":"27628","locality":"Hagen im Bremischen","municipality":{"key":"03352060","name":"Hagen im Bremischen","type":"Kreisangehörige_Gemeinde"},"district":{"key":"03352","name":"Cuxhaven","type":"Landkreis"},"federalState":{"key":"03","name":"Niedersachsen"}},{"name":"Pferdekamp","postalCode":"27628","locality":"Hagen im Bremischen","municipality":{"key":"03352060","name":"Hagen im Bremischen","type":"Kreisangehörige_Gemeinde"},"district":{"key":"03352","name":"Cuxhaven","type":"Landkreis"},"federalState":{"key":"03","name":"Niedersachsen"}},{"name":"Popenstr.","postalCode":"27628","locality":"Hagen im Bremischen","municipality":{"key":"03352060","name":"Hagen im Bremischen","type":"Kreisangehörige_Gemeinde"},"district":{"key":"03352","name":"Cuxhaven","type":"Landkreis"},"federalState":{"key":"03","name":"Niedersachsen"}},{"name":"Potthofsweg","postalCode":"27628","locality":"Hagen im Bremischen","municipality":{"key":"03352060","name":"Hagen im Bremischen","type":"Kreisangehörige_Gemeinde"},"district":{"key":"03352","name":"Cuxhaven","type":"Landkreis"},"federalState":{"key":"03","name":"Niedersachsen"}},{"name":"Quabenmoor","postalCode":"27628","locality":"Hagen im Bremischen","municipality":{"key":"03352060","name":"Hagen im Bremischen","type":"Kreisangehörige_Gemeinde"},"district":{"key":"03352","name":"Cuxhaven","type":"Landkreis"},"federalState":{"key":"03","name":"Niedersachsen"}},{"name":"Querkampstr.","postalCode":"27628","locality":"Hagen im Bremischen","municipality":{"key":"03352060","name":"Hagen im Bremischen","type":"Kreisangehörige_Gemeinde"},"district":{"key":"03352","name":"Cuxhaven","type":"Landkreis"},"federalState":{"key":"03","name":"Niedersachsen"}},{"name":"Rechteber Str.","postalCode":"27628","locality":"Hagen im Bremischen","municipality":{"key":"03352060","name":"Hagen im Bremischen","type":"Kreisangehörige_Gemeinde"},"district":{"key":"03352","name":"Cuxhaven","type":"Landkreis"},"federalState":{"key":"03","name":"Niedersachsen"}},{"name":"Redesweg","postalCode":"27628","locality":"Hagen im Bremischen","municipality":{"key":"03352060","name":"Hagen im Bremischen","type":"Kreisangehörige_Gemeinde"},"district":{"key":"03352","name":"Cuxhaven","type":"Landkreis"},"federalState":{"key":"03","name":"Niedersachsen"}},{"name":"Reihe","postalCode":"27628","locality":"Hagen im Bremischen","municipality":{"key":"03352060","name":"Hagen im Bremischen","type":"Kreisangehörige_Gemeinde"},"district":{"key":"03352","name":"Cuxhaven","type":"Landkreis"},"federalState":{"key":"03","name":"Niedersachsen"}},{"name":"Richard-Burmeister-Str.","postalCode":"27628","locality":"Hagen im Bremischen","municipality":{"key":"03352060","name":"Hagen im Bremischen","type":"Kreisangehörige_Gemeinde"},"district":{"key":"03352","name":"Cuxhaven","type":"Landkreis"},"federalState":{"key":"03","name":"Niedersachsen"}},{"name":"Ringstr.","postalCode":"27628","locality":"Hagen im Bremischen","municipality":{"key":"03352060","name":"Hagen im Bremischen","type":"Kreisangehörige_Gemeinde"},"district":{"key":"03352","name":"Cuxhaven","type":"Landkreis"},"federalState":{"key":"03","name":"Niedersachsen"}},{"name":"Rispeljaden","postalCode":"27628","locality":"Hagen im Bremischen","municipality":{"key":"03352060","name":"Hagen im Bremischen","type":"Kreisangehörige_Gemeinde"},"district":{"key":"03352","name":"Cuxhaven","type":"Landkreis"},"federalState":{"key":"03","name":"Niedersachsen"}},{"name":"Rosenstr.","postalCode":"27628","locality":"Hagen im Bremischen","municipality":{"key":"03352060","name":"Hagen im Bremischen","type":"Kreisangehörige_Gemeinde"},"district":{"key":"03352","name":"Cuxhaven","type":"Landkreis"},"federalState":{"key":"03","name":"Niedersachsen"}},{"name":"Rosenweg","postalCode":"27628","locality":"Hagen im Bremischen","municipality":{"key":"03352060","name":"Hagen im Bremischen","type":"Kreisangehörige_Gemeinde"},"district":{"key":"03352","name":"Cuxhaven","type":"Landkreis"},"federalState":{"key":"03","name":"Niedersachsen"}},{"name":"Sandgraben","postalCode":"27628","locality":"Hagen im Bremischen","municipality":{"key":"03352060","name":"Hagen im Bremischen","type":"Kreisangehörige_Gemeinde"},"district":{"key":"03352","name":"Cuxhaven","type":"Landkreis"},"federalState":{"key":"03","name":"Niedersachsen"}},{"name":"Schögenstr.","postalCode":"27628","locality":"Hagen im Bremischen","municipality":{"key":"03352060","name":"Hagen im Bremischen","type":"Kreisangehörige_Gemeinde"},"district":{"key":"03352","name":"Cuxhaven","type":"Landkreis"},"federalState":{"key":"03","name":"Niedersachsen"}},{"name":"Schoolpad","postalCode":"27628","locality":"Hagen im Bremischen","municipality":{"key":"03352060","name":"Hagen im Bremischen","type":"Kreisangehörige_Gemeinde"},"district":{"key":"03352","name":"Cuxhaven","type":"Landkreis"},"federalState":{"key":"03","name":"Niedersachsen"}},{"name":"Schulstr.","postalCode":"27628","locality":"Hagen im Bremischen","municipality":{"key":"03352060","name":"Hagen im Bremischen","type":"Kreisangehörige_Gemeinde"},"district":{"key":"03352","name":"Cuxhaven","type":"Landkreis"},"federalState":{"key":"03","name":"Niedersachsen"}},{"name":"Schulweg","postalCode":"27628","locality":"Hagen im Bremischen","municipality":{"key":"03352060","name":"Hagen im Bremischen","type":"Kreisangehörige_Gemeinde"},"district":{"key":"03352","name":"Cuxhaven","type":"Landkreis"},"federalState":{"key":"03","name":"Niedersachsen"}},{"name":"Schützenweg","postalCode":"27628","locality":"Hagen im Bremischen","municipality":{"key":"03352060","name":"Hagen im Bremischen","type":"Kreisangehörige_Gemeinde"},"district":{"key":"03352","name":"Cuxhaven","type":"Landkreis"},"federalState":{"key":"03","name":"Niedersachsen"}},{"name":"Schwarzer Weg","postalCode":"27628","locality":"Hagen im Bremischen","municipality":{"key":"03352060","name":"Hagen im Bremischen","type":"Kreisangehörige_Gemeinde"},"district":{"key":"03352","name":"Cuxhaven","type":"Landkreis"},"federalState":{"key":"03","name":"Niedersachsen"}},{"name":"Siebenbergsheide","postalCode":"27628","locality":"Hagen im Bremischen","municipality":{"key":"03352060","name":"Hagen im Bremischen","type":"Kreisangehörige_Gemeinde"},"district":{"key":"03352","name":"Cuxhaven","type":"Landkreis"},"federalState":{"key":"03","name":"Niedersachsen"}},{"name":"Siebenbergsweg","postalCode":"27628","locality":"Hagen im Bremischen","municipality":{"key":"03352060","name":"Hagen im Bremischen","type":"Kreisangehörige_Gemeinde"},"district":{"key":"03352","name":"Cuxhaven","type":"Landkreis"},"federalState":{"key":"03","name":"Niedersachsen"}},{"name":"Sieldensweg","postalCode":"27628","locality":"Hagen im Bremischen","municipality":{"key":"03352060","name":"Hagen im Bremischen","type":"Kreisangehörige_Gemeinde"},"district":{"key":"03352","name":"Cuxhaven","type":"Landkreis"},"federalState":{"key":"03","name":"Niedersachsen"}},{"name":"Sommerweg","postalCode":"27628","locality":"Hagen im Bremischen","municipality":{"key":"03352060","name":"Hagen im Bremischen","type":"Kreisangehörige_Gemeinde"},"district":{"key":"03352","name":"Cuxhaven","type":"Landkreis"},"federalState":{"key":"03","name":"Niedersachsen"}},{"name":"Sonnentauweg","postalCode":"27628","locality":"Hagen im Bremischen","municipality":{"key":"03352060","name":"Hagen im Bremischen","type":"Kreisangehörige_Gemeinde"},"district":{"key":"03352","name":"Cuxhaven","type":"Landkreis"},"federalState":{"key":"03","name":"Niedersachsen"}},{"name":"Stedinger Str.","postalCode":"27628","locality":"Hagen im Bremischen","municipality":{"key":"03352060","name":"Hagen im Bremischen","type":"Kreisangehörige_Gemeinde"},"district":{"key":"03352","name":"Cuxhaven","type":"Landkreis"},"federalState":{"key":"03","name":"Niedersachsen"}},{"name":"Steinbergsweg","postalCode":"27628","locality":"Hagen im Bremischen","municipality":{"key":"03352060","name":"Hagen im Bremischen","type":"Kreisangehörige_Gemeinde"},"district":{"key":"03352","name":"Cuxhaven","type":"Landkreis"},"federalState":{"key":"03","name":"Niedersachsen"}},{"name":"Steinkamp","postalCode":"27628","locality":"Hagen im Bremischen","municipality":{"key":"03352060","name":"Hagen im Bremischen","type":"Kreisangehörige_Gemeinde"},"district":{"key":"03352","name":"Cuxhaven","type":"Landkreis"},"federalState":{"key":"03","name":"Niedersachsen"}},{"name":"Stichtstr.","postalCode":"27628","locality":"Hagen im Bremischen","municipality":{"key":"03352060","name":"Hagen im Bremischen","type":"Kreisangehörige_Gemeinde"},"district":{"key":"03352","name":"Cuxhaven","type":"Landkreis"},"federalState":{"key":"03","name":"Niedersachsen"}},{"name":"Stimsenberg","postalCode":"27628","locality":"Hagen im Bremischen","municipality":{"key":"03352060","name":"Hagen im Bremischen","type":"Kreisangehörige_Gemeinde"},"district":{"key":"03352","name":"Cuxhaven","type":"Landkreis"},"federalState":{"key":"03","name":"Niedersachsen"}},{"name":"Surwisch","postalCode":"27628","locality":"Hagen im Bremischen","municipality":{"key":"03352060","name":"Hagen im Bremischen","type":"Kreisangehörige_Gemeinde"},"district":{"key":"03352","name":"Cuxhaven","type":"Landkreis"},"federalState":{"key":"03","name":"Niedersachsen"}},{"name":"Tannenweg","postalCode":"27628","locality":"Hagen im Bremischen","municipality":{"key":"03352060","name":"Hagen im Bremischen","type":"Kreisangehörige_Gemeinde"},"district":{"key":"03352","name":"Cuxhaven","type":"Landkreis"},"federalState":{"key":"03","name":"Niedersachsen"}},{"name":"Theodor-Fontane-Weg","postalCode":"27628","locality":"Hagen im Bremischen","municipality":{"key":"03352060","name":"Hagen im Bremischen","type":"Kreisangehörige_Gemeinde"},"district":{"key":"03352","name":"Cuxhaven","type":"Landkreis"},"federalState":{"key":"03","name":"Niedersachsen"}},{"name":"Tjögenstr.","postalCode":"27628","locality":"Hagen im Bremischen","municipality":{"key":"03352060","name":"Hagen im Bremischen","type":"Kreisangehörige_Gemeinde"},"district":{"key":"03352","name":"Cuxhaven","type":"Landkreis"},"federalState":{"key":"03","name":"Niedersachsen"}},{"name":"Toogmoorstr.","postalCode":"27628","locality":"Hagen im Bremischen","municipality":{"key":"03352060","name":"Hagen im Bremischen","type":"Kreisangehörige_Gemeinde"},"district":{"key":"03352","name":"Cuxhaven","type":"Landkreis"},"federalState":{"key":"03","name":"Niedersachsen"}},{"name":"Unter den Eichen","postalCode":"27628","locality":"Hagen im Bremischen","municipality":{"key":"03352060","name":"Hagen im Bremischen","type":"Kreisangehörige_Gemeinde"},"district":{"key":"03352","name":"Cuxhaven","type":"Landkreis"},"federalState":{"key":"03","name":"Niedersachsen"}},{"name":"Unterm Deich","postalCode":"27628","locality":"Hagen im Bremischen","municipality":{"key":"03352060","name":"Hagen im Bremischen","type":"Kreisangehörige_Gemeinde"},"district":{"key":"03352","name":"Cuxhaven","type":"Landkreis"},"federalState":{"key":"03","name":"Niedersachsen"}},{"name":"Uthledes neue Str.","postalCode":"27628","locality":"Hagen im Bremischen","municipality":{"key":"03352060","name":"Hagen im Bremischen","type":"Kreisangehörige_Gemeinde"},"district":{"key":"03352","name":"Cuxhaven","type":"Landkreis"},"federalState":{"key":"03","name":"Niedersachsen"}},{"name":"Viehtrift","postalCode":"27628","locality":"Hagen im Bremischen","municipality":{"key":"03352060","name":"Hagen im Bremischen","type":"Kreisangehörige_Gemeinde"},"district":{"key":"03352","name":"Cuxhaven","type":"Landkreis"},"federalState":{"key":"03","name":"Niedersachsen"}},{"name":"Viehweg","postalCode":"27628","locality":"Hagen im Bremischen","municipality":{"key":"03352060","name":"Hagen im Bremischen","type":"Kreisangehörige_Gemeinde"},"district":{"key":"03352","name":"Cuxhaven","type":"Landkreis"},"federalState":{"key":"03","name":"Niedersachsen"}},{"name":"Vierhausen","postalCode":"27628","locality":"Hagen im Bremischen","municipality":{"key":"03352060","name":"Hagen im Bremischen","type":"Kreisangehörige_Gemeinde"},"district":{"key":"03352","name":"Cuxhaven","type":"Landkreis"},"federalState":{"key":"03","name":"Niedersachsen"}},{"name":"Vietsmoorweg","postalCode":"27628","locality":"Hagen im Bremischen","municipality":{"key":"03352060","name":"Hagen im Bremischen","type":"Kreisangehörige_Gemeinde"},"district":{"key":"03352","name":"Cuxhaven","type":"Landkreis"},"federalState":{"key":"03","name":"Niedersachsen"}},{"name":"Vorbuschstr.","postalCode":"27628","locality":"Hagen im Bremischen","municipality":{"key":"03352060","name":"Hagen im Bremischen","type":"Kreisangehörige_Gemeinde"},"district":{"key":"03352","name":"Cuxhaven","type":"Landkreis"},"federalState":{"key":"03","name":"Niedersachsen"}},{"name":"Vorderstr.","postalCode":"27628","locality":"Hagen im Bremischen","municipality":{"key":"03352060","name":"Hagen im Bremischen","type":"Kreisangehörige_Gemeinde"},"district":{"key":"03352","name":"Cuxhaven","type":"Landkreis"},"federalState":{"key":"03","name":"Niedersachsen"}},{"name":"Vorm Dorf","postalCode":"27628","locality":"Hagen im Bremischen","municipality":{"key":"03352060","name":"Hagen im Bremischen","type":"Kreisangehörige_Gemeinde"},"district":{"key":"03352","name":"Cuxhaven","type":"Landkreis"},"federalState":{"key":"03","name":"Niedersachsen"}},{"name":"Vosloge","postalCode":"27628","locality":"Hagen im Bremischen","municipality":{"key":"03352060","name":"Hagen im Bremischen","type":"Kreisangehörige_Gemeinde"},"district":{"key":"03352","name":"Cuxhaven","type":"Landkreis"},"federalState":{"key":"03","name":"Niedersachsen"}},{"name":"Vosloger Str.","postalCode":"27628","locality":"Hagen im Bremischen","municipality":{"key":"03352060","name":"Hagen im Bremischen","type":"Kreisangehörige_Gemeinde"},"district":{"key":"03352","name":"Cuxhaven","type":"Landkreis"},"federalState":{"key":"03","name":"Niedersachsen"}},{"name":"Vosloger Weg","postalCode":"27628","locality":"Hagen im Bremischen","municipality":{"key":"03352060","name":"Hagen im Bremischen","type":"Kreisangehörige_Gemeinde"},"district":{"key":"03352","name":"Cuxhaven","type":"Landkreis"},"federalState":{"key":"03","name":"Niedersachsen"}},{"name":"Waldstr.","postalCode":"27628","locality":"Hagen im Bremischen","municipality":{"key":"03352060","name":"Hagen im Bremischen","type":"Kreisangehörige_Gemeinde"},"district":{"key":"03352","name":"Cuxhaven","type":"Landkreis"},"federalState":{"key":"03","name":"Niedersachsen"}},{"name":"Waldweg","postalCode":"27628","locality":"Hagen im Bremischen","municipality":{"key":"03352060","name":"Hagen im Bremischen","type":"Kreisangehörige_Gemeinde"},"district":{"key":"03352","name":"Cuxhaven","type":"Landkreis"},"federalState":{"key":"03","name":"Niedersachsen"}},{"name":"Wassergarde","postalCode":"27628","locality":"Hagen im Bremischen","municipality":{"key":"03352060","name":"Hagen im Bremischen","type":"Kreisangehörige_Gemeinde"},"district":{"key":"03352","name":"Cuxhaven","type":"Landkreis"},"federalState":{"key":"03","name":"Niedersachsen"}},{"name":"Weißenberg","postalCode":"27628","locality":"Hagen im Bremischen","municipality":{"key":"03352060","name":"Hagen im Bremischen","type":"Kreisangehörige_Gemeinde"},"district":{"key":"03352","name":"Cuxhaven","type":"Landkreis"},"federalState":{"key":"03","name":"Niedersachsen"}},{"name":"Weißenberger Str.","postalCode":"27628","locality":"Hagen im Bremischen","municipality":{"key":"03352060","name":"Hagen im Bremischen","type":"Kreisangehörige_Gemeinde"},"district":{"key":"03352","name":"Cuxhaven","type":"Landkreis"},"federalState":{"key":"03","name":"Niedersachsen"}},{"name":"Weißenbergsweg","postalCode":"27628","locality":"Hagen im Bremischen","municipality":{"key":"03352060","name":"Hagen im Bremischen","type":"Kreisangehörige_Gemeinde"},"district":{"key":"03352","name":"Cuxhaven","type":"Landkreis"},"federalState":{"key":"03","name":"Niedersachsen"}},{"name":"Weizenbergsweg","postalCode":"27628","locality":"Hagen im Bremischen","municipality":{"key":"03352060","name":"Hagen im Bremischen","type":"Kreisangehörige_Gemeinde"},"district":{"key":"03352","name":"Cuxhaven","type":"Landkreis"},"federalState":{"key":"03","name":"Niedersachsen"}},{"name":"Wersaber Dorfstr.","postalCode":"27628","locality":"Hagen im Bremischen","municipality":{"key":"03352060","name":"Hagen im Bremischen","type":"Kreisangehörige_Gemeinde"},"district":{"key":"03352","name":"Cuxhaven","type":"Landkreis"},"federalState":{"key":"03","name":"Niedersachsen"}},{"name":"Wesermünder Str.","postalCode":"27628","locality":"Hagen im Bremischen","municipality":{"key":"03352060","name":"Hagen im Bremischen","type":"Kreisangehörige_Gemeinde"},"district":{"key":"03352","name":"Cuxhaven","type":"Landkreis"},"federalState":{"key":"03","name":"Niedersachsen"}},{"name":"Weserstr.","postalCode":"27628","locality":"Hagen im Bremischen","municipality":{"key":"03352060","name":"Hagen im Bremischen","type":"Kreisangehörige_Gemeinde"},"district":{"key":"03352","name":"Cuxhaven","type":"Landkreis"},"federalState":{"key":"03","name":"Niedersachsen"}},{"name":"Westpreußenweg","postalCode":"27628","locality":"Hagen im Bremischen","municipality":{"key":"03352060","name":"Hagen im Bremischen","type":"Kreisangehörige_Gemeinde"},"district":{"key":"03352","name":"Cuxhaven","type":"Landkreis"},"federalState":{"key":"03","name":"Niedersachsen"}},{"name":"Wiesenstr.","postalCode":"27628","locality":"Hagen im Bremischen","municipality":{"key":"03352060","name":"Hagen im Bremischen","type":"Kreisangehörige_Gemeinde"},"district":{"key":"03352","name":"Cuxhaven","type":"Landkreis"},"federalState":{"key":"03","name":"Niedersachsen"}},{"name":"Wiesenweg","postalCode":"27628","locality":"Hagen im Bremischen","municipality":{"key":"03352060","name":"Hagen im Bremischen","type":"Kreisangehörige_Gemeinde"},"district":{"key":"03352","name":"Cuxhaven","type":"Landkreis"},"federalState":{"key":"03","name":"Niedersachsen"}},{"name":"Wilhelm-Busch-Weg","postalCode":"27628","locality":"Hagen im Bremischen","municipality":{"key":"03352060","name":"Hagen im Bremischen","type":"Kreisangehörige_Gemeinde"},"district":{"key":"03352","name":"Cuxhaven","type":"Landkreis"},"federalState":{"key":"03","name":"Niedersachsen"}},{"name":"Wittschen Kamp","postalCode":"27628","locality":"Hagen im Bremischen","municipality":{"key":"03352060","name":"Hagen im Bremischen","type":"Kreisangehörige_Gemeinde"},"district":{"key":"03352","name":"Cuxhaven","type":"Landkreis"},"federalState":{"key":"03","name":"Niedersachsen"}},{"name":"Wührdenstr.","postalCode":"27628","locality":"Hagen im Bremischen","municipality":{"key":"03352060","name":"Hagen im Bremischen","type":"Kreisangehörige_Gemeinde"},"district":{"key":"03352","name":"Cuxhaven","type":"Landkreis"},"federalState":{"key":"03","name":"Niedersachsen"}},{"name":"Wulfkampsweg","postalCode":"27628","locality":"Hagen im Bremischen","municipality":{"key":"03352060","name":"Hagen im Bremischen","type":"Kreisangehörige_Gemeinde"},"district":{"key":"03352","name":"Cuxhaven","type":"Landkreis"},"federalState":{"key":"03","name":"Niedersachsen"}},{"name":"Wulsbütteler Str.","postalCode":"27628","locality":"Hagen im Bremischen","municipality":{"key":"03352060","name":"Hagen im Bremischen","type":"Kreisangehörige_Gemeinde"},"district":{"key":"03352","name":"Cuxhaven","type":"Landkreis"},"federalState":{"key":"03","name":"Niedersachsen"}},{"name":"Wurthflether Kirchweg","postalCode":"27628","locality":"Hagen im Bremischen","municipality":{"key":"03352060","name":"Hagen im Bremischen","type":"Kreisangehörige_Gemeinde"},"district":{"key":"03352","name":"Cuxhaven","type":"Landkreis"},"federalState":{"key":"03","name":"Niedersachsen"}},{"name":"Zollweg","postalCode":"27628","locality":"Hagen im Bremischen","municipality":{"key":"03352060","name":"Hagen im Bremischen","type":"Kreisangehörige_Gemeinde"},"district":{"key":"03352","name":"Cuxhaven","type":"Landkreis"},"federalState":{"key":"03","name":"Niedersachsen"}},{"name":"Zu den Äckern","postalCode":"27628","locality":"Hagen im Bremischen","municipality":{"key":"03352060","name":"Hagen im Bremischen","type":"Kreisangehörige_Gemeinde"},"district":{"key":"03352","name":"Cuxhaven","type":"Landkreis"},"federalState":{"key":"03","name":"Niedersachsen"}},{"name":"Zum Außendeich","postalCode":"27628","locality":"Hagen im Bremischen","municipality":{"key":"03352060","name":"Hagen im Bremischen","type":"Kreisangehörige_Gemeinde"},"district":{"key":"03352","name":"Cuxhaven","type":"Landkreis"},"federalState":{"key":"03","name":"Niedersachsen"}},{"name":"Zum Dorfe","postalCode":"27628","locality":"Hagen im Bremischen","municipality":{"key":"03352060","name":"Hagen im Bremischen","type":"Kreisangehörige_Gemeinde"},"district":{"key":"03352","name":"Cuxhaven","type":"Landkreis"},"federalState":{"key":"03","name":"Niedersachsen"}},{"name":"Zum Forst","postalCode":"27628","locality":"Hagen im Bremischen","municipality":{"key":"03352060","name":"Hagen im Bremischen","type":"Kreisangehörige_Gemeinde"},"district":{"key":"03352","name":"Cuxhaven","type":"Landkreis"},"federalState":{"key":"03","name":"Niedersachsen"}},{"name":"Zum Häsebusch","postalCode":"27628","locality":"Hagen im Bremischen","municipality":{"key":"03352060","name":"Hagen im Bremischen","type":"Kreisangehörige_Gemeinde"},"district":{"key":"03352","name":"Cuxhaven","type":"Landkreis"},"federalState":{"key":"03","name":"Niedersachsen"}},{"name":"Zum Walde","postalCode":"27628","locality":"Hagen im Bremischen","municipality":{"key":"03352060","name":"Hagen im Bremischen","type":"Kreisangehörige_Gemeinde"},"district":{"key":"03352","name":"Cuxhaven","type":"Landkreis"},"federalState":{"key":"03","name":"Niedersachsen"}},{"name":"Zum Weserblick","postalCode":"27628","locality":"Hagen im Bremischen","municipality":{"key":"03352060","name":"Hagen im Bremischen","type":"Kreisangehörige_Gemeinde"},"district":{"key":"03352","name":"Cuxhaven","type":"Landkreis"},"federalState":{"key":"03","name":"Niedersachsen"}},{"name":"Zur Aue","postalCode":"27628","locality":"Hagen im Bremischen","municipality":{"key":"03352060","name":"Hagen im Bremischen","type":"Kreisangehörige_Gemeinde"},"district":{"key":"03352","name":"Cuxhaven","type":"Landkreis"},"federalState":{"key":"03","name":"Niedersachsen"}},{"name":"Zur Mühle","postalCode":"27628","locality":"Hagen im Bremischen","municipality":{"key":"03352060","name":"Hagen im Bremischen","type":"Kreisangehörige_Gemeinde"},"district":{"key":"03352","name":"Cuxhaven","type":"Landkreis"},"federalState":{"key":"03","name":"Niedersachsen"}},{"name":"Zur Niederweserbahn","postalCode":"27628","locality":"Hagen im Bremischen","municipality":{"key":"03352060","name":"Hagen im Bremischen","type":"Kreisangehörige_Gemeinde"},"district":{"key":"03352","name":"Cuxhaven","type":"Landkreis"},"federalState":{"key":"03","name":"Niedersachsen"}},{"name":"Zur Süderwaterlöse","postalCode":"27628","locality":"Hagen im Bremischen","municipality":{"key":"03352060","name":"Hagen im Bremischen","type":"Kreisangehörige_Gemeinde"},"district":{"key":"03352","name":"Cuxhaven","type":"Landkreis"},"federalState":{"key":"03","name":"Niedersachsen"}},{"name":"Zwischendeichsweg","postalCode":"27628","locality":"Hagen im Bremischen","municipality":{"key":"03352060","name":"Hagen im Bremischen","type":"Kreisangehörige_Gemeinde"},"district":{"key":"03352","name":"Cuxhaven","type":"Landkreis"},"federalState":{"key":"03","name":"Niedersachsen"}},{"name":"Über der Braake","postalCode":"27478","locality":"Cuxhaven","municipality":{"key":"03352011","name":"Cuxhaven, Stadt","type":"Stadt"},"district":{"key":"03352","name":"Cuxhaven","type":"Landkreis"},"federalState":{"key":"03","name":"Niedersachsen"}},]