[{"name":"Alter Weg","postalCode":"57520","locality":"Niederdreisbach","municipality":{"key":"07132075","name":"Niederdreisbach","type":"Kreisangehörige_Gemeinde"},"district":{"key":"07132","name":"Altenkirchen (Westerwald)","type":"Landkreis"},"federalState":{"key":"07","name":"Rheinland-Pfalz"}},{"name":"Am Dreisberg","postalCode":"57520","locality":"Niederdreisbach","municipality":{"key":"07132075","name":"Niederdreisbach","type":"Kreisangehörige_Gemeinde"},"district":{"key":"07132","name":"Altenkirchen (Westerwald)","type":"Landkreis"},"federalState":{"key":"07","name":"Rheinland-Pfalz"}},{"name":"Am Koppelberg","postalCode":"57520","locality":"Niederdreisbach","municipality":{"key":"07132075","name":"Niederdreisbach","type":"Kreisangehörige_Gemeinde"},"district":{"key":"07132","name":"Altenkirchen (Westerwald)","type":"Landkreis"},"federalState":{"key":"07","name":"Rheinland-Pfalz"}},{"name":"Auf der Ströh","postalCode":"57520","locality":"Niederdreisbach","municipality":{"key":"07132075","name":"Niederdreisbach","type":"Kreisangehörige_Gemeinde"},"district":{"key":"07132","name":"Altenkirchen (Westerwald)","type":"Landkreis"},"federalState":{"key":"07","name":"Rheinland-Pfalz"}},{"name":"Bahnhofstr.","postalCode":"57520","locality":"Niederdreisbach","municipality":{"key":"07132075","name":"Niederdreisbach","type":"Kreisangehörige_Gemeinde"},"district":{"key":"07132","name":"Altenkirchen (Westerwald)","type":"Landkreis"},"federalState":{"key":"07","name":"Rheinland-Pfalz"}},{"name":"Bergstr.","postalCode":"57520","locality":"Niederdreisbach","municipality":{"key":"07132075","name":"Niederdreisbach","type":"Kreisangehörige_Gemeinde"},"district":{"key":"07132","name":"Altenkirchen (Westerwald)","type":"Landkreis"},"federalState":{"key":"07","name":"Rheinland-Pfalz"}},{"name":"Bremenfeld","postalCode":"57520","locality":"Niederdreisbach","municipality":{"key":"07132075","name":"Niederdreisbach","type":"Kreisangehörige_Gemeinde"},"district":{"key":"07132","name":"Altenkirchen (Westerwald)","type":"Landkreis"},"federalState":{"key":"07","name":"Rheinland-Pfalz"}},{"name":"Brunnenstr.","postalCode":"57520","locality":"Niederdreisbach","municipality":{"key":"07132075","name":"Niederdreisbach","type":"Kreisangehörige_Gemeinde"},"district":{"key":"07132","name":"Altenkirchen (Westerwald)","type":"Landkreis"},"federalState":{"key":"07","name":"Rheinland-Pfalz"}},{"name":"Denkmalstr.","postalCode":"57520","locality":"Niederdreisbach","municipality":{"key":"07132075","name":"Niederdreisbach","type":"Kreisangehörige_Gemeinde"},"district":{"key":"07132","name":"Altenkirchen (Westerwald)","type":"Landkreis"},"federalState":{"key":"07","name":"Rheinland-Pfalz"}},{"name":"Hauptstr.","postalCode":"57520","locality":"Niederdreisbach","municipality":{"key":"07132075","name":"Niederdreisbach","type":"Kreisangehörige_Gemeinde"},"district":{"key":"07132","name":"Altenkirchen (Westerwald)","type":"Landkreis"},"federalState":{"key":"07","name":"Rheinland-Pfalz"}},{"name":"Hohe Str.","postalCode":"57520","locality":"Niederdreisbach","municipality":{"key":"07132075","name":"Niederdreisbach","type":"Kreisangehörige_Gemeinde"},"district":{"key":"07132","name":"Altenkirchen (Westerwald)","type":"Landkreis"},"federalState":{"key":"07","name":"Rheinland-Pfalz"}},{"name":"Hüttenweg","postalCode":"57520","locality":"Niederdreisbach","municipality":{"key":"07132075","name":"Niederdreisbach","type":"Kreisangehörige_Gemeinde"},"district":{"key":"07132","name":"Altenkirchen (Westerwald)","type":"Landkreis"},"federalState":{"key":"07","name":"Rheinland-Pfalz"}},{"name":"In der Breitenwiese","postalCode":"57520","locality":"Niederdreisbach","municipality":{"key":"07132075","name":"Niederdreisbach","type":"Kreisangehörige_Gemeinde"},"district":{"key":"07132","name":"Altenkirchen (Westerwald)","type":"Landkreis"},"federalState":{"key":"07","name":"Rheinland-Pfalz"}},{"name":"In der Ecke","postalCode":"57520","locality":"Niederdreisbach","municipality":{"key":"07132075","name":"Niederdreisbach","type":"Kreisangehörige_Gemeinde"},"district":{"key":"07132","name":"Altenkirchen (Westerwald)","type":"Landkreis"},"federalState":{"key":"07","name":"Rheinland-Pfalz"}},{"name":"Kupferkaule","postalCode":"57520","locality":"Niederdreisbach","municipality":{"key":"07132075","name":"Niederdreisbach","type":"Kreisangehörige_Gemeinde"},"district":{"key":"07132","name":"Altenkirchen (Westerwald)","type":"Landkreis"},"federalState":{"key":"07","name":"Rheinland-Pfalz"}},{"name":"Lärchenweg","postalCode":"57520","locality":"Niederdreisbach","municipality":{"key":"07132075","name":"Niederdreisbach","type":"Kreisangehörige_Gemeinde"},"district":{"key":"07132","name":"Altenkirchen (Westerwald)","type":"Landkreis"},"federalState":{"key":"07","name":"Rheinland-Pfalz"}},{"name":"Neue Hoffnung","postalCode":"57520","locality":"Niederdreisbach","municipality":{"key":"07132075","name":"Niederdreisbach","type":"Kreisangehörige_Gemeinde"},"district":{"key":"07132","name":"Altenkirchen (Westerwald)","type":"Landkreis"},"federalState":{"key":"07","name":"Rheinland-Pfalz"}},{"name":"Ringstr.","postalCode":"57520","locality":"Niederdreisbach","municipality":{"key":"07132075","name":"Niederdreisbach","type":"Kreisangehörige_Gemeinde"},"district":{"key":"07132","name":"Altenkirchen (Westerwald)","type":"Landkreis"},"federalState":{"key":"07","name":"Rheinland-Pfalz"}},{"name":"Robert-Schutte-Weg","postalCode":"57520","locality":"Niederdreisbach","municipality":{"key":"07132075","name":"Niederdreisbach","type":"Kreisangehörige_Gemeinde"},"district":{"key":"07132","name":"Altenkirchen (Westerwald)","type":"Landkreis"},"federalState":{"key":"07","name":"Rheinland-Pfalz"}},{"name":"Schöne Aussicht","postalCode":"57520","locality":"Niederdreisbach","municipality":{"key":"07132075","name":"Niederdreisbach","type":"Kreisangehörige_Gemeinde"},"district":{"key":"07132","name":"Altenkirchen (Westerwald)","type":"Landkreis"},"federalState":{"key":"07","name":"Rheinland-Pfalz"}},{"name":"Schulstr.","postalCode":"57520","locality":"Niederdreisbach","municipality":{"key":"07132075","name":"Niederdreisbach","type":"Kreisangehörige_Gemeinde"},"district":{"key":"07132","name":"Altenkirchen (Westerwald)","type":"Landkreis"},"federalState":{"key":"07","name":"Rheinland-Pfalz"}},{"name":"Sonnenweg","postalCode":"57520","locality":"Niederdreisbach","municipality":{"key":"07132075","name":"Niederdreisbach","type":"Kreisangehörige_Gemeinde"},"district":{"key":"07132","name":"Altenkirchen (Westerwald)","type":"Landkreis"},"federalState":{"key":"07","name":"Rheinland-Pfalz"}},{"name":"Wiesenstr.","postalCode":"57520","locality":"Niederdreisbach","municipality":{"key":"07132075","name":"Niederdreisbach","type":"Kreisangehörige_Gemeinde"},"district":{"key":"07132","name":"Altenkirchen (Westerwald)","type":"Landkreis"},"federalState":{"key":"07","name":"Rheinland-Pfalz"}},{"name":"Zum Steinchen","postalCode":"57520","locality":"Niederdreisbach","municipality":{"key":"07132075","name":"Niederdreisbach","type":"Kreisangehörige_Gemeinde"},"district":{"key":"07132","name":"Altenkirchen (Westerwald)","type":"Landkreis"},"federalState":{"key":"07","name":"Rheinland-Pfalz"}},]