[{"key":"10178966","name":"Allmend","postalCode":"3645","locality":"Zwieselberg","commune":{"key":"947","name":"Zwieselberg","shortName":"Zwieselberg"},"district":{"key":"247","name":"Verwaltungskreis Thun"},"canton":{"key":"2","code":"BE","name":"Bern / Berne"},"status":"Real"},{"key":"10080676","name":"Alti Schlyffi","postalCode":"3645","locality":"Zwieselberg","commune":{"key":"947","name":"Zwieselberg","shortName":"Zwieselberg"},"district":{"key":"247","name":"Verwaltungskreis Thun"},"canton":{"key":"2","code":"BE","name":"Bern / Berne"},"status":"Real"},{"key":"10004913","name":"Beim Stöckli","postalCode":"3645","locality":"Zwieselberg","commune":{"key":"947","name":"Zwieselberg","shortName":"Zwieselberg"},"district":{"key":"247","name":"Verwaltungskreis Thun"},"canton":{"key":"2","code":"BE","name":"Bern / Berne"},"status":"Real"},{"key":"10014316","name":"Beim Wald","postalCode":"3645","locality":"Zwieselberg","commune":{"key":"947","name":"Zwieselberg","shortName":"Zwieselberg"},"district":{"key":"247","name":"Verwaltungskreis Thun"},"canton":{"key":"2","code":"BE","name":"Bern / Berne"},"status":"Real"},{"key":"10193373","name":"Bodenstrasse","postalCode":"3645","locality":"Zwieselberg","commune":{"key":"947","name":"Zwieselberg","shortName":"Zwieselberg"},"district":{"key":"247","name":"Verwaltungskreis Thun"},"canton":{"key":"2","code":"BE","name":"Bern / Berne"},"status":"Real"},{"key":"10062043","name":"Bodmatt","postalCode":"3645","locality":"Zwieselberg","commune":{"key":"947","name":"Zwieselberg","shortName":"Zwieselberg"},"district":{"key":"247","name":"Verwaltungskreis Thun"},"canton":{"key":"2","code":"BE","name":"Bern / Berne"},"status":"Real"},{"key":"10014318","name":"Bühl","postalCode":"3645","locality":"Zwieselberg","commune":{"key":"947","name":"Zwieselberg","shortName":"Zwieselberg"},"district":{"key":"247","name":"Verwaltungskreis Thun"},"canton":{"key":"2","code":"BE","name":"Bern / Berne"},"status":"Real"},{"key":"10014317","name":"Bühlweidli","postalCode":"3645","locality":"Zwieselberg","commune":{"key":"947","name":"Zwieselberg","shortName":"Zwieselberg"},"district":{"key":"247","name":"Verwaltungskreis Thun"},"canton":{"key":"2","code":"BE","name":"Bern / Berne"},"status":"Real"},{"key":"10004919","name":"Burgstaad","postalCode":"3645","locality":"Zwieselberg","commune":{"key":"947","name":"Zwieselberg","shortName":"Zwieselberg"},"district":{"key":"247","name":"Verwaltungskreis Thun"},"canton":{"key":"2","code":"BE","name":"Bern / Berne"},"status":"Real"},{"key":"10178149","name":"Chalchmaad","postalCode":"3645","locality":"Zwieselberg","commune":{"key":"947","name":"Zwieselberg","shortName":"Zwieselberg"},"district":{"key":"247","name":"Verwaltungskreis Thun"},"canton":{"key":"2","code":"BE","name":"Bern / Berne"},"status":"Real"},{"key":"10186145","name":"Egg","postalCode":"3645","locality":"Zwieselberg","commune":{"key":"947","name":"Zwieselberg","shortName":"Zwieselberg"},"district":{"key":"247","name":"Verwaltungskreis Thun"},"canton":{"key":"2","code":"BE","name":"Bern / Berne"},"status":"Real"},{"key":"10062044","name":"Farnern","postalCode":"3645","locality":"Zwieselberg","commune":{"key":"947","name":"Zwieselberg","shortName":"Zwieselberg"},"district":{"key":"247","name":"Verwaltungskreis Thun"},"canton":{"key":"2","code":"BE","name":"Bern / Berne"},"status":"Real"},{"key":"10178967","name":"Glütsch","postalCode":"3645","locality":"Zwieselberg","commune":{"key":"947","name":"Zwieselberg","shortName":"Zwieselberg"},"district":{"key":"247","name":"Verwaltungskreis Thun"},"canton":{"key":"2","code":"BE","name":"Bern / Berne"},"status":"Real"},{"key":"10014320","name":"Glütschmatt","postalCode":"3645","locality":"Zwieselberg","commune":{"key":"947","name":"Zwieselberg","shortName":"Zwieselberg"},"district":{"key":"247","name":"Verwaltungskreis Thun"},"canton":{"key":"2","code":"BE","name":"Bern / Berne"},"status":"Real"},{"key":"10108706","name":"Hani","postalCode":"3645","locality":"Zwieselberg","commune":{"key":"947","name":"Zwieselberg","shortName":"Zwieselberg"},"district":{"key":"247","name":"Verwaltungskreis Thun"},"canton":{"key":"2","code":"BE","name":"Bern / Berne"},"status":"Real"},{"key":"10062045","name":"Hubel","postalCode":"3645","locality":"Zwieselberg","commune":{"key":"947","name":"Zwieselberg","shortName":"Zwieselberg"},"district":{"key":"247","name":"Verwaltungskreis Thun"},"canton":{"key":"2","code":"BE","name":"Bern / Berne"},"status":"Real"},{"key":"10080677","name":"Kreuzgasse","postalCode":"3645","locality":"Zwieselberg","commune":{"key":"947","name":"Zwieselberg","shortName":"Zwieselberg"},"district":{"key":"247","name":"Verwaltungskreis Thun"},"canton":{"key":"2","code":"BE","name":"Bern / Berne"},"status":"Real"},{"key":"10167818","name":"Lyssenmatt","postalCode":"3645","locality":"Zwieselberg","commune":{"key":"947","name":"Zwieselberg","shortName":"Zwieselberg"},"district":{"key":"247","name":"Verwaltungskreis Thun"},"canton":{"key":"2","code":"BE","name":"Bern / Berne"},"status":"Real"},{"key":"10014321","name":"Mädern","postalCode":"3645","locality":"Zwieselberg","commune":{"key":"947","name":"Zwieselberg","shortName":"Zwieselberg"},"district":{"key":"247","name":"Verwaltungskreis Thun"},"canton":{"key":"2","code":"BE","name":"Bern / Berne"},"status":"Real"},{"key":"10191452","name":"Moos","postalCode":"3645","locality":"Zwieselberg","commune":{"key":"947","name":"Zwieselberg","shortName":"Zwieselberg"},"district":{"key":"247","name":"Verwaltungskreis Thun"},"canton":{"key":"2","code":"BE","name":"Bern / Berne"},"status":"Real"},{"key":"10167404","name":"Mühleeggen","postalCode":"3645","locality":"Zwieselberg","commune":{"key":"947","name":"Zwieselberg","shortName":"Zwieselberg"},"district":{"key":"247","name":"Verwaltungskreis Thun"},"canton":{"key":"2","code":"BE","name":"Bern / Berne"},"status":"Real"},{"key":"10062046","name":"Neuhaus","postalCode":"3645","locality":"Zwieselberg","commune":{"key":"947","name":"Zwieselberg","shortName":"Zwieselberg"},"district":{"key":"247","name":"Verwaltungskreis Thun"},"canton":{"key":"2","code":"BE","name":"Bern / Berne"},"status":"Real"},{"key":"10014322","name":"Obere Gasse","postalCode":"3645","locality":"Zwieselberg","commune":{"key":"947","name":"Zwieselberg","shortName":"Zwieselberg"},"district":{"key":"247","name":"Verwaltungskreis Thun"},"canton":{"key":"2","code":"BE","name":"Bern / Berne"},"status":"Real"},{"key":"10125028","name":"Oberes Moos","postalCode":"3645","locality":"Zwieselberg","commune":{"key":"947","name":"Zwieselberg","shortName":"Zwieselberg"},"district":{"key":"247","name":"Verwaltungskreis Thun"},"canton":{"key":"2","code":"BE","name":"Bern / Berne"},"status":"Real"},{"key":"10062047","name":"Obergut","postalCode":"3645","locality":"Zwieselberg","commune":{"key":"947","name":"Zwieselberg","shortName":"Zwieselberg"},"district":{"key":"247","name":"Verwaltungskreis Thun"},"canton":{"key":"2","code":"BE","name":"Bern / Berne"},"status":"Real"},{"key":"10187191","name":"Rüttigut","postalCode":"3645","locality":"Zwieselberg","commune":{"key":"947","name":"Zwieselberg","shortName":"Zwieselberg"},"district":{"key":"247","name":"Verwaltungskreis Thun"},"canton":{"key":"2","code":"BE","name":"Bern / Berne"},"status":"Real"},{"key":"10158908","name":"Schafallmend","postalCode":"3645","locality":"Zwieselberg","commune":{"key":"947","name":"Zwieselberg","shortName":"Zwieselberg"},"district":{"key":"247","name":"Verwaltungskreis Thun"},"canton":{"key":"2","code":"BE","name":"Bern / Berne"},"status":"Real"},{"key":"10217969","name":"Stallägerten","postalCode":"3645","locality":"Zwieselberg","commune":{"key":"947","name":"Zwieselberg","shortName":"Zwieselberg"},"district":{"key":"247","name":"Verwaltungskreis Thun"},"canton":{"key":"2","code":"BE","name":"Bern / Berne"},"status":"Real"},{"key":"10158909","name":"Stützli","postalCode":"3645","locality":"Zwieselberg","commune":{"key":"947","name":"Zwieselberg","shortName":"Zwieselberg"},"district":{"key":"247","name":"Verwaltungskreis Thun"},"canton":{"key":"2","code":"BE","name":"Bern / Berne"},"status":"Real"},{"key":"10178968","name":"Untere Gasse","postalCode":"3645","locality":"Zwieselberg","commune":{"key":"947","name":"Zwieselberg","shortName":"Zwieselberg"},"district":{"key":"247","name":"Verwaltungskreis Thun"},"canton":{"key":"2","code":"BE","name":"Bern / Berne"},"status":"Real"},{"key":"10165859","name":"Unteres Moos","postalCode":"3645","locality":"Zwieselberg","commune":{"key":"947","name":"Zwieselberg","shortName":"Zwieselberg"},"district":{"key":"247","name":"Verwaltungskreis Thun"},"canton":{"key":"2","code":"BE","name":"Bern / Berne"},"status":"Real"},{"key":"10158911","name":"Weid","postalCode":"3645","locality":"Zwieselberg","commune":{"key":"947","name":"Zwieselberg","shortName":"Zwieselberg"},"district":{"key":"247","name":"Verwaltungskreis Thun"},"canton":{"key":"2","code":"BE","name":"Bern / Berne"},"status":"Real"},{"key":"10118178","name":"Weidli","postalCode":"3645","locality":"Zwieselberg","commune":{"key":"947","name":"Zwieselberg","shortName":"Zwieselberg"},"district":{"key":"247","name":"Verwaltungskreis Thun"},"canton":{"key":"2","code":"BE","name":"Bern / Berne"},"status":"Real"},]