[{"name":"Am Hain","postalCode":"65558","locality":"Balduinstein","municipality":{"key":"07141503","name":"Balduinstein","type":"Kreisangehörige_Gemeinde"},"district":{"key":"07141","name":"Rhein-Lahn-Kreis","type":"Landkreis"},"federalState":{"key":"07","name":"Rheinland-Pfalz"}},{"name":"Am Rießberg","postalCode":"65558","locality":"Balduinstein","municipality":{"key":"07141503","name":"Balduinstein","type":"Kreisangehörige_Gemeinde"},"district":{"key":"07141","name":"Rhein-Lahn-Kreis","type":"Landkreis"},"federalState":{"key":"07","name":"Rheinland-Pfalz"}},{"name":"Auf dem Wäscher","postalCode":"65558","locality":"Balduinstein","municipality":{"key":"07141503","name":"Balduinstein","type":"Kreisangehörige_Gemeinde"},"district":{"key":"07141","name":"Rhein-Lahn-Kreis","type":"Landkreis"},"federalState":{"key":"07","name":"Rheinland-Pfalz"}},{"name":"Auf der Ecke","postalCode":"65558","locality":"Balduinstein","municipality":{"key":"07141503","name":"Balduinstein","type":"Kreisangehörige_Gemeinde"},"district":{"key":"07141","name":"Rhein-Lahn-Kreis","type":"Landkreis"},"federalState":{"key":"07","name":"Rheinland-Pfalz"}},{"name":"Bahnhofstr.","postalCode":"65558","locality":"Balduinstein","municipality":{"key":"07141503","name":"Balduinstein","type":"Kreisangehörige_Gemeinde"},"district":{"key":"07141","name":"Rhein-Lahn-Kreis","type":"Landkreis"},"federalState":{"key":"07","name":"Rheinland-Pfalz"}},{"name":"Brühlstr.","postalCode":"65558","locality":"Balduinstein","municipality":{"key":"07141503","name":"Balduinstein","type":"Kreisangehörige_Gemeinde"},"district":{"key":"07141","name":"Rhein-Lahn-Kreis","type":"Landkreis"},"federalState":{"key":"07","name":"Rheinland-Pfalz"}},{"name":"Burgweg","postalCode":"65558","locality":"Balduinstein","municipality":{"key":"07141503","name":"Balduinstein","type":"Kreisangehörige_Gemeinde"},"district":{"key":"07141","name":"Rhein-Lahn-Kreis","type":"Landkreis"},"federalState":{"key":"07","name":"Rheinland-Pfalz"}},{"name":"Cramberger Str.","postalCode":"65558","locality":"Balduinstein","municipality":{"key":"07141503","name":"Balduinstein","type":"Kreisangehörige_Gemeinde"},"district":{"key":"07141","name":"Rhein-Lahn-Kreis","type":"Landkreis"},"federalState":{"key":"07","name":"Rheinland-Pfalz"}},{"name":"Hauptstr.","postalCode":"65558","locality":"Balduinstein","municipality":{"key":"07141503","name":"Balduinstein","type":"Kreisangehörige_Gemeinde"},"district":{"key":"07141","name":"Rhein-Lahn-Kreis","type":"Landkreis"},"federalState":{"key":"07","name":"Rheinland-Pfalz"}},{"name":"Hausen","postalCode":"65558","locality":"Balduinstein","municipality":{"key":"07141503","name":"Balduinstein","type":"Kreisangehörige_Gemeinde"},"district":{"key":"07141","name":"Rhein-Lahn-Kreis","type":"Landkreis"},"federalState":{"key":"07","name":"Rheinland-Pfalz"}},{"name":"Im Kleinfeldchen","postalCode":"65558","locality":"Balduinstein","municipality":{"key":"07141503","name":"Balduinstein","type":"Kreisangehörige_Gemeinde"},"district":{"key":"07141","name":"Rhein-Lahn-Kreis","type":"Landkreis"},"federalState":{"key":"07","name":"Rheinland-Pfalz"}},{"name":"Im Roten Löwen","postalCode":"65558","locality":"Balduinstein","municipality":{"key":"07141503","name":"Balduinstein","type":"Kreisangehörige_Gemeinde"},"district":{"key":"07141","name":"Rhein-Lahn-Kreis","type":"Landkreis"},"federalState":{"key":"07","name":"Rheinland-Pfalz"}},{"name":"Lahnhöhenweg","postalCode":"65558","locality":"Balduinstein","municipality":{"key":"07141503","name":"Balduinstein","type":"Kreisangehörige_Gemeinde"},"district":{"key":"07141","name":"Rhein-Lahn-Kreis","type":"Landkreis"},"federalState":{"key":"07","name":"Rheinland-Pfalz"}},{"name":"Schaumburger Str.","postalCode":"65558","locality":"Balduinstein","municipality":{"key":"07141503","name":"Balduinstein","type":"Kreisangehörige_Gemeinde"},"district":{"key":"07141","name":"Rhein-Lahn-Kreis","type":"Landkreis"},"federalState":{"key":"07","name":"Rheinland-Pfalz"}},]