[{"name":"Alte Pressecker Str.","postalCode":"95346","locality":"Stadtsteinach","municipality":{"key":"09477156","name":"Stadtsteinach, St","type":"Stadt"},"district":{"key":"09477","name":"Kulmbach","type":"Landkreis"},"federalState":{"key":"09","name":"Bayern"}},{"name":"An der Zaubach","postalCode":"95346","locality":"Stadtsteinach","municipality":{"key":"09477156","name":"Stadtsteinach, St","type":"Stadt"},"district":{"key":"09477","name":"Kulmbach","type":"Landkreis"},"federalState":{"key":"09","name":"Bayern"}},{"name":"Bachstr.","postalCode":"95346","locality":"Stadtsteinach","municipality":{"key":"09477156","name":"Stadtsteinach, St","type":"Stadt"},"district":{"key":"09477","name":"Kulmbach","type":"Landkreis"},"federalState":{"key":"09","name":"Bayern"}},{"name":"Bahnhofstr.","postalCode":"95346","locality":"Stadtsteinach","municipality":{"key":"09477156","name":"Stadtsteinach, St","type":"Stadt"},"district":{"key":"09477","name":"Kulmbach","type":"Landkreis"},"federalState":{"key":"09","name":"Bayern"}},{"name":"Baumgartner Weg","postalCode":"95346","locality":"Stadtsteinach","municipality":{"key":"09477156","name":"Stadtsteinach, St","type":"Stadt"},"district":{"key":"09477","name":"Kulmbach","type":"Landkreis"},"federalState":{"key":"09","name":"Bayern"}},{"name":"Beethovenstr.","postalCode":"95346","locality":"Stadtsteinach","municipality":{"key":"09477156","name":"Stadtsteinach, St","type":"Stadt"},"district":{"key":"09477","name":"Kulmbach","type":"Landkreis"},"federalState":{"key":"09","name":"Bayern"}},{"name":"Breslauer Str.","postalCode":"95346","locality":"Stadtsteinach","municipality":{"key":"09477156","name":"Stadtsteinach, St","type":"Stadt"},"district":{"key":"09477","name":"Kulmbach","type":"Landkreis"},"federalState":{"key":"09","name":"Bayern"}},{"name":"Burggraben","postalCode":"95346","locality":"Stadtsteinach","municipality":{"key":"09477156","name":"Stadtsteinach, St","type":"Stadt"},"district":{"key":"09477","name":"Kulmbach","type":"Landkreis"},"federalState":{"key":"09","name":"Bayern"}},{"name":"Caspar-Fischer-Str.","postalCode":"95326","locality":"Kulmbach","municipality":{"key":"09477128","name":"Kulmbach, GKSt","type":"Große_Kreisstadt"},"district":{"key":"09477","name":"Kulmbach","type":"Landkreis"},"federalState":{"key":"09","name":"Bayern"}},{"name":"Christian-Pertsch-Str.","postalCode":"95326","locality":"Kulmbach","municipality":{"key":"09477128","name":"Kulmbach, GKSt","type":"Große_Kreisstadt"},"district":{"key":"09477","name":"Kulmbach","type":"Landkreis"},"federalState":{"key":"09","name":"Bayern"}},{"name":"Dammweg","postalCode":"95346","locality":"Stadtsteinach","municipality":{"key":"09477156","name":"Stadtsteinach, St","type":"Stadt"},"district":{"key":"09477","name":"Kulmbach","type":"Landkreis"},"federalState":{"key":"09","name":"Bayern"}},{"name":"Egerländer Str.","postalCode":"95346","locality":"Stadtsteinach","municipality":{"key":"09477156","name":"Stadtsteinach, St","type":"Stadt"},"district":{"key":"09477","name":"Kulmbach","type":"Landkreis"},"federalState":{"key":"09","name":"Bayern"}},{"name":"Eichbergstr.","postalCode":"95346","locality":"Stadtsteinach","municipality":{"key":"09477156","name":"Stadtsteinach, St","type":"Stadt"},"district":{"key":"09477","name":"Kulmbach","type":"Landkreis"},"federalState":{"key":"09","name":"Bayern"}},{"name":"Flürlein","postalCode":"95346","locality":"Stadtsteinach","municipality":{"key":"09477156","name":"Stadtsteinach, St","type":"Stadt"},"district":{"key":"09477","name":"Kulmbach","type":"Landkreis"},"federalState":{"key":"09","name":"Bayern"}},{"name":"Forstamtstr.","postalCode":"95346","locality":"Stadtsteinach","municipality":{"key":"09477156","name":"Stadtsteinach, St","type":"Stadt"},"district":{"key":"09477","name":"Kulmbach","type":"Landkreis"},"federalState":{"key":"09","name":"Bayern"}},{"name":"Frankenstr.","postalCode":"95346","locality":"Stadtsteinach","municipality":{"key":"09477156","name":"Stadtsteinach, St","type":"Stadt"},"district":{"key":"09477","name":"Kulmbach","type":"Landkreis"},"federalState":{"key":"09","name":"Bayern"}},{"name":"Friedhofstr.","postalCode":"95346","locality":"Stadtsteinach","municipality":{"key":"09477156","name":"Stadtsteinach, St","type":"Stadt"},"district":{"key":"09477","name":"Kulmbach","type":"Landkreis"},"federalState":{"key":"09","name":"Bayern"}},{"name":"Goethestr.","postalCode":"95346","locality":"Stadtsteinach","municipality":{"key":"09477156","name":"Stadtsteinach, St","type":"Stadt"},"district":{"key":"09477","name":"Kulmbach","type":"Landkreis"},"federalState":{"key":"09","name":"Bayern"}},{"name":"Grünbürgstr.","postalCode":"95346","locality":"Stadtsteinach","municipality":{"key":"09477156","name":"Stadtsteinach, St","type":"Stadt"},"district":{"key":"09477","name":"Kulmbach","type":"Landkreis"},"federalState":{"key":"09","name":"Bayern"}},{"name":"Grundbergstr.","postalCode":"95346","locality":"Stadtsteinach","municipality":{"key":"09477156","name":"Stadtsteinach, St","type":"Stadt"},"district":{"key":"09477","name":"Kulmbach","type":"Landkreis"},"federalState":{"key":"09","name":"Bayern"}},{"name":"Hammergrundstr.","postalCode":"95346","locality":"Stadtsteinach","municipality":{"key":"09477156","name":"Stadtsteinach, St","type":"Stadt"},"district":{"key":"09477","name":"Kulmbach","type":"Landkreis"},"federalState":{"key":"09","name":"Bayern"}},{"name":"Hauptstr.","postalCode":"95346","locality":"Stadtsteinach","municipality":{"key":"09477156","name":"Stadtsteinach, St","type":"Stadt"},"district":{"key":"09477","name":"Kulmbach","type":"Landkreis"},"federalState":{"key":"09","name":"Bayern"}},{"name":"Industriestr.","postalCode":"95346","locality":"Stadtsteinach","municipality":{"key":"09477156","name":"Stadtsteinach, St","type":"Stadt"},"district":{"key":"09477","name":"Kulmbach","type":"Landkreis"},"federalState":{"key":"09","name":"Bayern"}},{"name":"Jägerndorfer Str.","postalCode":"95326","locality":"Kulmbach","municipality":{"key":"09477128","name":"Kulmbach, GKSt","type":"Große_Kreisstadt"},"district":{"key":"09477","name":"Kulmbach","type":"Landkreis"},"federalState":{"key":"09","name":"Bayern"}},{"name":"Jean-Paul-Str.","postalCode":"95326","locality":"Kulmbach","municipality":{"key":"09477128","name":"Kulmbach, GKSt","type":"Große_Kreisstadt"},"district":{"key":"09477","name":"Kulmbach","type":"Landkreis"},"federalState":{"key":"09","name":"Bayern"}},{"name":"Joachimsthaler Weg","postalCode":"95326","locality":"Kulmbach","municipality":{"key":"09477128","name":"Kulmbach, GKSt","type":"Große_Kreisstadt"},"district":{"key":"09477","name":"Kulmbach","type":"Landkreis"},"federalState":{"key":"09","name":"Bayern"}},{"name":"Johann-Brenk-Str.","postalCode":"95326","locality":"Kulmbach","municipality":{"key":"09477128","name":"Kulmbach, GKSt","type":"Große_Kreisstadt"},"district":{"key":"09477","name":"Kulmbach","type":"Landkreis"},"federalState":{"key":"09","name":"Bayern"}},{"name":"Johann-Eck-Str.","postalCode":"95326","locality":"Kulmbach","municipality":{"key":"09477128","name":"Kulmbach, GKSt","type":"Große_Kreisstadt"},"district":{"key":"09477","name":"Kulmbach","type":"Landkreis"},"federalState":{"key":"09","name":"Bayern"}},{"name":"Johannesweg","postalCode":"95326","locality":"Kulmbach","municipality":{"key":"09477128","name":"Kulmbach, GKSt","type":"Große_Kreisstadt"},"district":{"key":"09477","name":"Kulmbach","type":"Landkreis"},"federalState":{"key":"09","name":"Bayern"}},{"name":"Johann-Völker-Str.","postalCode":"95326","locality":"Kulmbach","municipality":{"key":"09477128","name":"Kulmbach, GKSt","type":"Große_Kreisstadt"},"district":{"key":"09477","name":"Kulmbach","type":"Landkreis"},"federalState":{"key":"09","name":"Bayern"}},{"name":"Kapellenweg","postalCode":"95346","locality":"Stadtsteinach","municipality":{"key":"09477156","name":"Stadtsteinach, St","type":"Stadt"},"district":{"key":"09477","name":"Kulmbach","type":"Landkreis"},"federalState":{"key":"09","name":"Bayern"}},{"name":"Kellerweg","postalCode":"95346","locality":"Stadtsteinach","municipality":{"key":"09477156","name":"Stadtsteinach, St","type":"Stadt"},"district":{"key":"09477","name":"Kulmbach","type":"Landkreis"},"federalState":{"key":"09","name":"Bayern"}},{"name":"Knollenstr.","postalCode":"95346","locality":"Stadtsteinach","municipality":{"key":"09477156","name":"Stadtsteinach, St","type":"Stadt"},"district":{"key":"09477","name":"Kulmbach","type":"Landkreis"},"federalState":{"key":"09","name":"Bayern"}},{"name":"Kronacher Str.","postalCode":"95346","locality":"Stadtsteinach","municipality":{"key":"09477156","name":"Stadtsteinach, St","type":"Stadt"},"district":{"key":"09477","name":"Kulmbach","type":"Landkreis"},"federalState":{"key":"09","name":"Bayern"}},{"name":"Kulmbacher Str.","postalCode":"95346","locality":"Stadtsteinach","municipality":{"key":"09477156","name":"Stadtsteinach, St","type":"Stadt"},"district":{"key":"09477","name":"Kulmbach","type":"Landkreis"},"federalState":{"key":"09","name":"Bayern"}},{"name":"Lehenthaler Weg","postalCode":"95346","locality":"Stadtsteinach","municipality":{"key":"09477156","name":"Stadtsteinach, St","type":"Stadt"},"district":{"key":"09477","name":"Kulmbach","type":"Landkreis"},"federalState":{"key":"09","name":"Bayern"}},{"name":"Lindenweg","postalCode":"95346","locality":"Stadtsteinach","municipality":{"key":"09477156","name":"Stadtsteinach, St","type":"Stadt"},"district":{"key":"09477","name":"Kulmbach","type":"Landkreis"},"federalState":{"key":"09","name":"Bayern"}},{"name":"Lindig","postalCode":"95346","locality":"Stadtsteinach","municipality":{"key":"09477156","name":"Stadtsteinach, St","type":"Stadt"},"district":{"key":"09477","name":"Kulmbach","type":"Landkreis"},"federalState":{"key":"09","name":"Bayern"}},{"name":"Lohmühlweg","postalCode":"95346","locality":"Stadtsteinach","municipality":{"key":"09477156","name":"Stadtsteinach, St","type":"Stadt"},"district":{"key":"09477","name":"Kulmbach","type":"Landkreis"},"federalState":{"key":"09","name":"Bayern"}},{"name":"Marktplatz","postalCode":"95346","locality":"Stadtsteinach","municipality":{"key":"09477156","name":"Stadtsteinach, St","type":"Stadt"},"district":{"key":"09477","name":"Kulmbach","type":"Landkreis"},"federalState":{"key":"09","name":"Bayern"}},{"name":"Mozartstr.","postalCode":"95346","locality":"Stadtsteinach","municipality":{"key":"09477156","name":"Stadtsteinach, St","type":"Stadt"},"district":{"key":"09477","name":"Kulmbach","type":"Landkreis"},"federalState":{"key":"09","name":"Bayern"}},{"name":"Mühlbach","postalCode":"95346","locality":"Stadtsteinach","municipality":{"key":"09477156","name":"Stadtsteinach, St","type":"Stadt"},"district":{"key":"09477","name":"Kulmbach","type":"Landkreis"},"federalState":{"key":"09","name":"Bayern"}},{"name":"Nordeckstr.","postalCode":"95346","locality":"Stadtsteinach","municipality":{"key":"09477156","name":"Stadtsteinach, St","type":"Stadt"},"district":{"key":"09477","name":"Kulmbach","type":"Landkreis"},"federalState":{"key":"09","name":"Bayern"}},{"name":"Obere Buchgasse","postalCode":"95326","locality":"Kulmbach","municipality":{"key":"09477128","name":"Kulmbach, GKSt","type":"Große_Kreisstadt"},"district":{"key":"09477","name":"Kulmbach","type":"Landkreis"},"federalState":{"key":"09","name":"Bayern"}},{"name":"Oberes Dorf","postalCode":"95326","locality":"Kulmbach","municipality":{"key":"09477128","name":"Kulmbach, GKSt","type":"Große_Kreisstadt"},"district":{"key":"09477","name":"Kulmbach","type":"Landkreis"},"federalState":{"key":"09","name":"Bayern"}},{"name":"Oberes Stadtgäßchen","postalCode":"95326","locality":"Kulmbach","municipality":{"key":"09477128","name":"Kulmbach, GKSt","type":"Große_Kreisstadt"},"district":{"key":"09477","name":"Kulmbach","type":"Landkreis"},"federalState":{"key":"09","name":"Bayern"}},{"name":"Obere Stadt","postalCode":"95326","locality":"Kulmbach","municipality":{"key":"09477128","name":"Kulmbach, GKSt","type":"Große_Kreisstadt"},"district":{"key":"09477","name":"Kulmbach","type":"Landkreis"},"federalState":{"key":"09","name":"Bayern"}},{"name":"Obere Weinberggasse","postalCode":"95326","locality":"Kulmbach","municipality":{"key":"09477128","name":"Kulmbach, GKSt","type":"Große_Kreisstadt"},"district":{"key":"09477","name":"Kulmbach","type":"Landkreis"},"federalState":{"key":"09","name":"Bayern"}},{"name":"Oberhacken","postalCode":"95326","locality":"Kulmbach","municipality":{"key":"09477128","name":"Kulmbach, GKSt","type":"Große_Kreisstadt"},"district":{"key":"09477","name":"Kulmbach","type":"Landkreis"},"federalState":{"key":"09","name":"Bayern"}},{"name":"Oberzettlitz","postalCode":"95326","locality":"Kulmbach","municipality":{"key":"09477128","name":"Kulmbach, GKSt","type":"Große_Kreisstadt"},"district":{"key":"09477","name":"Kulmbach","type":"Landkreis"},"federalState":{"key":"09","name":"Bayern"}},{"name":"Orlamünderstr.","postalCode":"95326","locality":"Kulmbach","municipality":{"key":"09477128","name":"Kulmbach, GKSt","type":"Große_Kreisstadt"},"district":{"key":"09477","name":"Kulmbach","type":"Landkreis"},"federalState":{"key":"09","name":"Bayern"}},{"name":"Pechgrabenbrücke","postalCode":"95346","locality":"Stadtsteinach","municipality":{"key":"09477156","name":"Stadtsteinach, St","type":"Stadt"},"district":{"key":"09477","name":"Kulmbach","type":"Landkreis"},"federalState":{"key":"09","name":"Bayern"}},{"name":"Richard-Wagner-Str.","postalCode":"95346","locality":"Stadtsteinach","municipality":{"key":"09477156","name":"Stadtsteinach, St","type":"Stadt"},"district":{"key":"09477","name":"Kulmbach","type":"Landkreis"},"federalState":{"key":"09","name":"Bayern"}},{"name":"Roßbachleite","postalCode":"95346","locality":"Stadtsteinach","municipality":{"key":"09477156","name":"Stadtsteinach, St","type":"Stadt"},"district":{"key":"09477","name":"Kulmbach","type":"Landkreis"},"federalState":{"key":"09","name":"Bayern"}},{"name":"Rotkreuzplatz","postalCode":"95346","locality":"Stadtsteinach","municipality":{"key":"09477156","name":"Stadtsteinach, St","type":"Stadt"},"district":{"key":"09477","name":"Kulmbach","type":"Landkreis"},"federalState":{"key":"09","name":"Bayern"}},{"name":"Schillerstr.","postalCode":"95346","locality":"Stadtsteinach","municipality":{"key":"09477156","name":"Stadtsteinach, St","type":"Stadt"},"district":{"key":"09477","name":"Kulmbach","type":"Landkreis"},"federalState":{"key":"09","name":"Bayern"}},{"name":"Spitalgasse","postalCode":"95346","locality":"Stadtsteinach","municipality":{"key":"09477156","name":"Stadtsteinach, St","type":"Stadt"},"district":{"key":"09477","name":"Kulmbach","type":"Landkreis"},"federalState":{"key":"09","name":"Bayern"}},{"name":"Staffel","postalCode":"95346","locality":"Stadtsteinach","municipality":{"key":"09477156","name":"Stadtsteinach, St","type":"Stadt"},"district":{"key":"09477","name":"Kulmbach","type":"Landkreis"},"federalState":{"key":"09","name":"Bayern"}},{"name":"Taubmannstr.","postalCode":"95326","locality":"Kulmbach","municipality":{"key":"09477128","name":"Kulmbach, GKSt","type":"Große_Kreisstadt"},"district":{"key":"09477","name":"Kulmbach","type":"Landkreis"},"federalState":{"key":"09","name":"Bayern"}},{"name":"Teichweg","postalCode":"95326","locality":"Kulmbach","municipality":{"key":"09477128","name":"Kulmbach, GKSt","type":"Große_Kreisstadt"},"district":{"key":"09477","name":"Kulmbach","type":"Landkreis"},"federalState":{"key":"09","name":"Bayern"}},{"name":"Theodor-Heublein-Str.","postalCode":"95326","locality":"Kulmbach","municipality":{"key":"09477128","name":"Kulmbach, GKSt","type":"Große_Kreisstadt"},"district":{"key":"09477","name":"Kulmbach","type":"Landkreis"},"federalState":{"key":"09","name":"Bayern"}},{"name":"Theodor-Heuss-Allee","postalCode":"95326","locality":"Kulmbach","municipality":{"key":"09477128","name":"Kulmbach, GKSt","type":"Große_Kreisstadt"},"district":{"key":"09477","name":"Kulmbach","type":"Landkreis"},"federalState":{"key":"09","name":"Bayern"}},{"name":"Thurnauer Str.","postalCode":"95326","locality":"Kulmbach","municipality":{"key":"09477128","name":"Kulmbach, GKSt","type":"Große_Kreisstadt"},"district":{"key":"09477","name":"Kulmbach","type":"Landkreis"},"federalState":{"key":"09","name":"Bayern"}},{"name":"Tiefenbacher Weg","postalCode":"95326","locality":"Kulmbach","municipality":{"key":"09477128","name":"Kulmbach, GKSt","type":"Große_Kreisstadt"},"district":{"key":"09477","name":"Kulmbach","type":"Landkreis"},"federalState":{"key":"09","name":"Bayern"}},{"name":"Tilsiter Str.","postalCode":"95326","locality":"Kulmbach","municipality":{"key":"09477128","name":"Kulmbach, GKSt","type":"Große_Kreisstadt"},"district":{"key":"09477","name":"Kulmbach","type":"Landkreis"},"federalState":{"key":"09","name":"Bayern"}},{"name":"Tonwiesenweg","postalCode":"95326","locality":"Kulmbach","municipality":{"key":"09477128","name":"Kulmbach, GKSt","type":"Große_Kreisstadt"},"district":{"key":"09477","name":"Kulmbach","type":"Landkreis"},"federalState":{"key":"09","name":"Bayern"}},{"name":"Trendelstr.","postalCode":"95326","locality":"Kulmbach","municipality":{"key":"09477128","name":"Kulmbach, GKSt","type":"Große_Kreisstadt"},"district":{"key":"09477","name":"Kulmbach","type":"Landkreis"},"federalState":{"key":"09","name":"Bayern"}},{"name":"Trimm-Dich-Pfad Kulmbach","postalCode":"95326","locality":"Kulmbach","municipality":{"key":"09477128","name":"Kulmbach, GKSt","type":"Große_Kreisstadt"},"district":{"key":"09477","name":"Kulmbach","type":"Landkreis"},"federalState":{"key":"09","name":"Bayern"}},{"name":"Tulpenweg","postalCode":"95326","locality":"Kulmbach","municipality":{"key":"09477128","name":"Kulmbach, GKSt","type":"Große_Kreisstadt"},"district":{"key":"09477","name":"Kulmbach","type":"Landkreis"},"federalState":{"key":"09","name":"Bayern"}},{"name":"Untere Buchgasse","postalCode":"95326","locality":"Kulmbach","municipality":{"key":"09477128","name":"Kulmbach, GKSt","type":"Große_Kreisstadt"},"district":{"key":"09477","name":"Kulmbach","type":"Landkreis"},"federalState":{"key":"09","name":"Bayern"}},{"name":"Unteres Stadtgäßchen","postalCode":"95326","locality":"Kulmbach","municipality":{"key":"09477128","name":"Kulmbach, GKSt","type":"Große_Kreisstadt"},"district":{"key":"09477","name":"Kulmbach","type":"Landkreis"},"federalState":{"key":"09","name":"Bayern"}},{"name":"Untere Weinberggasse","postalCode":"95326","locality":"Kulmbach","municipality":{"key":"09477128","name":"Kulmbach, GKSt","type":"Große_Kreisstadt"},"district":{"key":"09477","name":"Kulmbach","type":"Landkreis"},"federalState":{"key":"09","name":"Bayern"}},{"name":"Unterkodach","postalCode":"95326","locality":"Kulmbach","municipality":{"key":"09477128","name":"Kulmbach, GKSt","type":"Große_Kreisstadt"},"district":{"key":"09477","name":"Kulmbach","type":"Landkreis"},"federalState":{"key":"09","name":"Bayern"}},{"name":"Unterpurbach","postalCode":"95326","locality":"Kulmbach","municipality":{"key":"09477128","name":"Kulmbach, GKSt","type":"Große_Kreisstadt"},"district":{"key":"09477","name":"Kulmbach","type":"Landkreis"},"federalState":{"key":"09","name":"Bayern"}},{"name":"Unterzettlitz","postalCode":"95326","locality":"Kulmbach","municipality":{"key":"09477128","name":"Kulmbach, GKSt","type":"Große_Kreisstadt"},"district":{"key":"09477","name":"Kulmbach","type":"Landkreis"},"federalState":{"key":"09","name":"Bayern"}},{"name":"Vorderreuther Str.","postalCode":"95346","locality":"Stadtsteinach","municipality":{"key":"09477156","name":"Stadtsteinach, St","type":"Stadt"},"district":{"key":"09477","name":"Kulmbach","type":"Landkreis"},"federalState":{"key":"09","name":"Bayern"}},{"name":"Wahlleite","postalCode":"95346","locality":"Stadtsteinach","municipality":{"key":"09477156","name":"Stadtsteinach, St","type":"Stadt"},"district":{"key":"09477","name":"Kulmbach","type":"Landkreis"},"federalState":{"key":"09","name":"Bayern"}},{"name":"Wehrstr.","postalCode":"95346","locality":"Stadtsteinach","municipality":{"key":"09477156","name":"Stadtsteinach, St","type":"Stadt"},"district":{"key":"09477","name":"Kulmbach","type":"Landkreis"},"federalState":{"key":"09","name":"Bayern"}},{"name":"Zettlitzer Str.","postalCode":"95326","locality":"Kulmbach","municipality":{"key":"09477128","name":"Kulmbach, GKSt","type":"Große_Kreisstadt"},"district":{"key":"09477","name":"Kulmbach","type":"Landkreis"},"federalState":{"key":"09","name":"Bayern"}},{"name":"Ziegeleiweg","postalCode":"95326","locality":"Kulmbach","municipality":{"key":"09477128","name":"Kulmbach, GKSt","type":"Große_Kreisstadt"},"district":{"key":"09477","name":"Kulmbach","type":"Landkreis"},"federalState":{"key":"09","name":"Bayern"}},{"name":"Ziegelhüttener Hang","postalCode":"95326","locality":"Kulmbach","municipality":{"key":"09477128","name":"Kulmbach, GKSt","type":"Große_Kreisstadt"},"district":{"key":"09477","name":"Kulmbach","type":"Landkreis"},"federalState":{"key":"09","name":"Bayern"}},{"name":"Ziegelhüttener Str.","postalCode":"95326","locality":"Kulmbach","municipality":{"key":"09477128","name":"Kulmbach, GKSt","type":"Große_Kreisstadt"},"district":{"key":"09477","name":"Kulmbach","type":"Landkreis"},"federalState":{"key":"09","name":"Bayern"}},{"name":"Zieglerweg","postalCode":"95326","locality":"Kulmbach","municipality":{"key":"09477128","name":"Kulmbach, GKSt","type":"Große_Kreisstadt"},"district":{"key":"09477","name":"Kulmbach","type":"Landkreis"},"federalState":{"key":"09","name":"Bayern"}},{"name":"Zinsfelderstr.","postalCode":"95326","locality":"Kulmbach","municipality":{"key":"09477128","name":"Kulmbach, GKSt","type":"Große_Kreisstadt"},"district":{"key":"09477","name":"Kulmbach","type":"Landkreis"},"federalState":{"key":"09","name":"Bayern"}},{"name":"Zu den Gärten","postalCode":"95326","locality":"Kulmbach","municipality":{"key":"09477128","name":"Kulmbach, GKSt","type":"Große_Kreisstadt"},"district":{"key":"09477","name":"Kulmbach","type":"Landkreis"},"federalState":{"key":"09","name":"Bayern"}},{"name":"Zum Aubühl","postalCode":"95326","locality":"Kulmbach","municipality":{"key":"09477128","name":"Kulmbach, GKSt","type":"Große_Kreisstadt"},"district":{"key":"09477","name":"Kulmbach","type":"Landkreis"},"federalState":{"key":"09","name":"Bayern"}},{"name":"Zum Weiherbach","postalCode":"95326","locality":"Kulmbach","municipality":{"key":"09477128","name":"Kulmbach, GKSt","type":"Große_Kreisstadt"},"district":{"key":"09477","name":"Kulmbach","type":"Landkreis"},"federalState":{"key":"09","name":"Bayern"}},{"name":"zwischerfeller","postalCode":"95326","locality":"Kulmbach","municipality":{"key":"09477128","name":"Kulmbach, GKSt","type":"Große_Kreisstadt"},"district":{"key":"09477","name":"Kulmbach","type":"Landkreis"},"federalState":{"key":"09","name":"Bayern"}},{"name":"Ängerlein","postalCode":"95326","locality":"Kulmbach","municipality":{"key":"09477128","name":"Kulmbach, GKSt","type":"Große_Kreisstadt"},"district":{"key":"09477","name":"Kulmbach","type":"Landkreis"},"federalState":{"key":"09","name":"Bayern"}},]