[{"key":"10059355","name":"Adelberg","postalCode":"8505","locality":"Pfyn","commune":{"key":"4841","name":"Pfyn","shortName":"Pfyn"},"district":{"key":"2012","name":"Bezirk Frauenfeld"},"canton":{"key":"20","code":"TG","name":"Thurgau"},"status":"Real"},{"key":"10044205","name":"Alte Landstrasse","postalCode":"8505","locality":"Pfyn","commune":{"key":"4841","name":"Pfyn","shortName":"Pfyn"},"district":{"key":"2012","name":"Bezirk Frauenfeld"},"canton":{"key":"20","code":"TG","name":"Thurgau"},"status":"Real"},{"key":"10176525","name":"Austrasse","postalCode":"8505","locality":"Pfyn","commune":{"key":"4841","name":"Pfyn","shortName":"Pfyn"},"district":{"key":"2012","name":"Bezirk Frauenfeld"},"canton":{"key":"20","code":"TG","name":"Thurgau"},"status":"Real"},{"key":"10168499","name":"Auweg","postalCode":"8505","locality":"Pfyn","commune":{"key":"4841","name":"Pfyn","shortName":"Pfyn"},"district":{"key":"2012","name":"Bezirk Frauenfeld"},"canton":{"key":"20","code":"TG","name":"Thurgau"},"status":"Real"},{"key":"10069156","name":"Bachstrasse","postalCode":"8505","locality":"Pfyn","commune":{"key":"4841","name":"Pfyn","shortName":"Pfyn"},"district":{"key":"2012","name":"Bezirk Frauenfeld"},"canton":{"key":"20","code":"TG","name":"Thurgau"},"status":"Real"},{"key":"10140012","name":"Badistrasse","postalCode":"8505","locality":"Pfyn","commune":{"key":"4841","name":"Pfyn","shortName":"Pfyn"},"district":{"key":"2012","name":"Bezirk Frauenfeld"},"canton":{"key":"20","code":"TG","name":"Thurgau"},"status":"Real"},{"key":"10199336","name":"Bärg","postalCode":"8505","locality":"Pfyn","commune":{"key":"4841","name":"Pfyn","shortName":"Pfyn"},"district":{"key":"2012","name":"Bezirk Frauenfeld"},"canton":{"key":"20","code":"TG","name":"Thurgau"},"status":"Real"},{"key":"10097163","name":"Berghofstrasse","postalCode":"8505","locality":"Pfyn","commune":{"key":"4841","name":"Pfyn","shortName":"Pfyn"},"district":{"key":"2012","name":"Bezirk Frauenfeld"},"canton":{"key":"20","code":"TG","name":"Thurgau"},"status":"Real"},{"key":"10167769","name":"Berglirain","postalCode":"8505","locality":"Pfyn","commune":{"key":"4841","name":"Pfyn","shortName":"Pfyn"},"district":{"key":"2012","name":"Bezirk Frauenfeld"},"canton":{"key":"20","code":"TG","name":"Thurgau"},"status":"Real"},{"key":"10044206","name":"Berglistrasse","postalCode":"8505","locality":"Pfyn","commune":{"key":"4841","name":"Pfyn","shortName":"Pfyn"},"district":{"key":"2012","name":"Bezirk Frauenfeld"},"canton":{"key":"20","code":"TG","name":"Thurgau"},"status":"Real"},{"key":"10199394","name":"Binder","postalCode":"8505","locality":"Pfyn","commune":{"key":"4841","name":"Pfyn","shortName":"Pfyn"},"district":{"key":"2012","name":"Bezirk Frauenfeld"},"canton":{"key":"20","code":"TG","name":"Thurgau"},"status":"Real"},{"key":"10044207","name":"Breitenbühl","postalCode":"8505","locality":"Pfyn","commune":{"key":"4841","name":"Pfyn","shortName":"Pfyn"},"district":{"key":"2012","name":"Bezirk Frauenfeld"},"canton":{"key":"20","code":"TG","name":"Thurgau"},"status":"Real"},{"key":"10140013","name":"Breitestrasse","postalCode":"8505","locality":"Pfyn","commune":{"key":"4841","name":"Pfyn","shortName":"Pfyn"},"district":{"key":"2012","name":"Bezirk Frauenfeld"},"canton":{"key":"20","code":"TG","name":"Thurgau"},"status":"Real"},{"key":"10044208","name":"Brüelstrasse","postalCode":"8505","locality":"Pfyn","commune":{"key":"4841","name":"Pfyn","shortName":"Pfyn"},"district":{"key":"2012","name":"Bezirk Frauenfeld"},"canton":{"key":"20","code":"TG","name":"Thurgau"},"status":"Real"},{"key":"10199345","name":"Brunenacker","postalCode":"8505","locality":"Pfyn","commune":{"key":"4841","name":"Pfyn","shortName":"Pfyn"},"district":{"key":"2012","name":"Bezirk Frauenfeld"},"canton":{"key":"20","code":"TG","name":"Thurgau"},"status":"Real"},{"key":"10199629","name":"Chalchtoore","postalCode":"8505","locality":"Pfyn","commune":{"key":"4841","name":"Pfyn","shortName":"Pfyn"},"district":{"key":"2012","name":"Bezirk Frauenfeld"},"canton":{"key":"20","code":"TG","name":"Thurgau"},"status":"Real"},{"key":"10097164","name":"Chruchenbergstrasse","postalCode":"8505","locality":"Pfyn","commune":{"key":"4841","name":"Pfyn","shortName":"Pfyn"},"district":{"key":"2012","name":"Bezirk Frauenfeld"},"canton":{"key":"20","code":"TG","name":"Thurgau"},"status":"Real"},{"key":"10199630","name":"Chruuchebärg","postalCode":"8505","locality":"Pfyn","commune":{"key":"4841","name":"Pfyn","shortName":"Pfyn"},"district":{"key":"2012","name":"Bezirk Frauenfeld"},"canton":{"key":"20","code":"TG","name":"Thurgau"},"status":"Real"},{"key":"10198914","name":"Drei Bueche","postalCode":"8505","locality":"Pfyn","commune":{"key":"4841","name":"Pfyn","shortName":"Pfyn"},"district":{"key":"2012","name":"Bezirk Frauenfeld"},"canton":{"key":"20","code":"TG","name":"Thurgau"},"status":"Real"},{"key":"10198339","name":"Drei Eiche","postalCode":"8505","locality":"Pfyn","commune":{"key":"4841","name":"Pfyn","shortName":"Pfyn"},"district":{"key":"2012","name":"Bezirk Frauenfeld"},"canton":{"key":"20","code":"TG","name":"Thurgau"},"status":"Real"},{"key":"10044209","name":"Ebnet","postalCode":"8505","locality":"Pfyn","commune":{"key":"4841","name":"Pfyn","shortName":"Pfyn"},"district":{"key":"2012","name":"Bezirk Frauenfeld"},"canton":{"key":"20","code":"TG","name":"Thurgau"},"status":"Real"},{"key":"10199346","name":"Egg","postalCode":"8505","locality":"Pfyn","commune":{"key":"4841","name":"Pfyn","shortName":"Pfyn"},"district":{"key":"2012","name":"Bezirk Frauenfeld"},"canton":{"key":"20","code":"TG","name":"Thurgau"},"status":"Real"},{"key":"10199344","name":"Eggeraa","postalCode":"8505","locality":"Pfyn","commune":{"key":"4841","name":"Pfyn","shortName":"Pfyn"},"district":{"key":"2012","name":"Bezirk Frauenfeld"},"canton":{"key":"20","code":"TG","name":"Thurgau"},"status":"Real"},{"key":"10069158","name":"Emmerig","postalCode":"8505","locality":"Pfyn","commune":{"key":"4841","name":"Pfyn","shortName":"Pfyn"},"district":{"key":"2012","name":"Bezirk Frauenfeld"},"canton":{"key":"20","code":"TG","name":"Thurgau"},"status":"Real"},{"key":"10044210","name":"Fabrikstrasse","postalCode":"8505","locality":"Pfyn","commune":{"key":"4841","name":"Pfyn","shortName":"Pfyn"},"district":{"key":"2012","name":"Bezirk Frauenfeld"},"canton":{"key":"20","code":"TG","name":"Thurgau"},"status":"Real"},{"key":"10044211","name":"Flurhof","postalCode":"8505","locality":"Pfyn","commune":{"key":"4841","name":"Pfyn","shortName":"Pfyn"},"district":{"key":"2012","name":"Bezirk Frauenfeld"},"canton":{"key":"20","code":"TG","name":"Thurgau"},"status":"Real"},{"key":"10198915","name":"Frankriichli","postalCode":"8505","locality":"Pfyn","commune":{"key":"4841","name":"Pfyn","shortName":"Pfyn"},"district":{"key":"2012","name":"Bezirk Frauenfeld"},"canton":{"key":"20","code":"TG","name":"Thurgau"},"status":"Real"},{"key":"10199370","name":"Fröölichshalde","postalCode":"8505","locality":"Pfyn","commune":{"key":"4841","name":"Pfyn","shortName":"Pfyn"},"district":{"key":"2012","name":"Bezirk Frauenfeld"},"canton":{"key":"20","code":"TG","name":"Thurgau"},"status":"Real"},{"key":"10198916","name":"Groossholz","postalCode":"8505","locality":"Pfyn","commune":{"key":"4841","name":"Pfyn","shortName":"Pfyn"},"district":{"key":"2012","name":"Bezirk Frauenfeld"},"canton":{"key":"20","code":"TG","name":"Thurgau"},"status":"Real"},{"key":"10176793","name":"Grütlistrasse","postalCode":"8505","locality":"Pfyn","commune":{"key":"4841","name":"Pfyn","shortName":"Pfyn"},"district":{"key":"2012","name":"Bezirk Frauenfeld"},"canton":{"key":"20","code":"TG","name":"Thurgau"},"status":"Real"},{"key":"10199387","name":"Haaligwis","postalCode":"8505","locality":"Pfyn","commune":{"key":"4841","name":"Pfyn","shortName":"Pfyn"},"district":{"key":"2012","name":"Bezirk Frauenfeld"},"canton":{"key":"20","code":"TG","name":"Thurgau"},"status":"Real"},{"key":"10097165","name":"Hauptstrasse","postalCode":"8505","locality":"Pfyn","commune":{"key":"4841","name":"Pfyn","shortName":"Pfyn"},"district":{"key":"2012","name":"Bezirk Frauenfeld"},"canton":{"key":"20","code":"TG","name":"Thurgau"},"status":"Real"},{"key":"10107846","name":"Himmelberg","postalCode":"8505","locality":"Pfyn","commune":{"key":"4841","name":"Pfyn","shortName":"Pfyn"},"district":{"key":"2012","name":"Bezirk Frauenfeld"},"canton":{"key":"20","code":"TG","name":"Thurgau"},"status":"Real"},{"key":"10199392","name":"Hindere Lendwäg","postalCode":"8505","locality":"Pfyn","commune":{"key":"4841","name":"Pfyn","shortName":"Pfyn"},"district":{"key":"2012","name":"Bezirk Frauenfeld"},"canton":{"key":"20","code":"TG","name":"Thurgau"},"status":"Real"},{"key":"10199354","name":"Hindere Staabach","postalCode":"8505","locality":"Pfyn","commune":{"key":"4841","name":"Pfyn","shortName":"Pfyn"},"district":{"key":"2012","name":"Bezirk Frauenfeld"},"canton":{"key":"20","code":"TG","name":"Thurgau"},"status":"Real"},{"key":"10069159","name":"Höchi","postalCode":"8505","locality":"Pfyn","commune":{"key":"4841","name":"Pfyn","shortName":"Pfyn"},"district":{"key":"2012","name":"Bezirk Frauenfeld"},"canton":{"key":"20","code":"TG","name":"Thurgau"},"status":"Real"},{"key":"10199357","name":"Hoowäg","postalCode":"8505","locality":"Pfyn","commune":{"key":"4841","name":"Pfyn","shortName":"Pfyn"},"district":{"key":"2012","name":"Bezirk Frauenfeld"},"canton":{"key":"20","code":"TG","name":"Thurgau"},"status":"Real"},{"key":"10044212","name":"Hungerbühlstrasse","postalCode":"8505","locality":"Pfyn","commune":{"key":"4841","name":"Pfyn","shortName":"Pfyn"},"district":{"key":"2012","name":"Bezirk Frauenfeld"},"canton":{"key":"20","code":"TG","name":"Thurgau"},"status":"Real"},{"key":"10110479","name":"Im Bergli","postalCode":"8505","locality":"Pfyn","commune":{"key":"4841","name":"Pfyn","shortName":"Pfyn"},"district":{"key":"2012","name":"Bezirk Frauenfeld"},"canton":{"key":"20","code":"TG","name":"Thurgau"},"status":"Real"},{"key":"10044213","name":"Im Lindenfeld","postalCode":"8505","locality":"Pfyn","commune":{"key":"4841","name":"Pfyn","shortName":"Pfyn"},"district":{"key":"2012","name":"Bezirk Frauenfeld"},"canton":{"key":"20","code":"TG","name":"Thurgau"},"status":"Real"},{"key":"10044214","name":"Käsereistrasse","postalCode":"8505","locality":"Pfyn","commune":{"key":"4841","name":"Pfyn","shortName":"Pfyn"},"district":{"key":"2012","name":"Bezirk Frauenfeld"},"canton":{"key":"20","code":"TG","name":"Thurgau"},"status":"Real"},{"key":"10097166","name":"Kastellweg","postalCode":"8505","locality":"Pfyn","commune":{"key":"4841","name":"Pfyn","shortName":"Pfyn"},"district":{"key":"2012","name":"Bezirk Frauenfeld"},"canton":{"key":"20","code":"TG","name":"Thurgau"},"status":"Real"},{"key":"10121770","name":"Kirchrain","postalCode":"8505","locality":"Pfyn","commune":{"key":"4841","name":"Pfyn","shortName":"Pfyn"},"district":{"key":"2012","name":"Bezirk Frauenfeld"},"canton":{"key":"20","code":"TG","name":"Thurgau"},"status":"Real"},{"key":"10199371","name":"Langacker","postalCode":"8505","locality":"Pfyn","commune":{"key":"4841","name":"Pfyn","shortName":"Pfyn"},"district":{"key":"2012","name":"Bezirk Frauenfeld"},"canton":{"key":"20","code":"TG","name":"Thurgau"},"status":"Real"},{"key":"10102931","name":"Langfuristrasse","postalCode":"8505","locality":"Pfyn","commune":{"key":"4841","name":"Pfyn","shortName":"Pfyn"},"district":{"key":"2012","name":"Bezirk Frauenfeld"},"canton":{"key":"20","code":"TG","name":"Thurgau"},"status":"Real"},{"key":"10044215","name":"Lindenweg","postalCode":"8505","locality":"Pfyn","commune":{"key":"4841","name":"Pfyn","shortName":"Pfyn"},"district":{"key":"2012","name":"Bezirk Frauenfeld"},"canton":{"key":"20","code":"TG","name":"Thurgau"},"status":"Real"},{"key":"10097167","name":"Malerweg","postalCode":"8505","locality":"Pfyn","commune":{"key":"4841","name":"Pfyn","shortName":"Pfyn"},"district":{"key":"2012","name":"Bezirk Frauenfeld"},"canton":{"key":"20","code":"TG","name":"Thurgau"},"status":"Real"},{"key":"10044216","name":"Mühlegasse","postalCode":"8505","locality":"Pfyn","commune":{"key":"4841","name":"Pfyn","shortName":"Pfyn"},"district":{"key":"2012","name":"Bezirk Frauenfeld"},"canton":{"key":"20","code":"TG","name":"Thurgau"},"status":"Real"},{"key":"10176794","name":"Neuhofstrasse","postalCode":"8505","locality":"Pfyn","commune":{"key":"4841","name":"Pfyn","shortName":"Pfyn"},"district":{"key":"2012","name":"Bezirk Frauenfeld"},"canton":{"key":"20","code":"TG","name":"Thurgau"},"status":"Real"},{"key":"10198637","name":"Oberi Au","postalCode":"8505","locality":"Pfyn","commune":{"key":"4841","name":"Pfyn","shortName":"Pfyn"},"district":{"key":"2012","name":"Bezirk Frauenfeld"},"canton":{"key":"20","code":"TG","name":"Thurgau"},"status":"Real"},{"key":"10164223","name":"Oberi Wiide","postalCode":"8505","locality":"Pfyn","commune":{"key":"4841","name":"Pfyn","shortName":"Pfyn"},"district":{"key":"2012","name":"Bezirk Frauenfeld"},"canton":{"key":"20","code":"TG","name":"Thurgau"},"status":"Real"},{"key":"10189573","name":"Poststrasse","postalCode":"8505","locality":"Pfyn","commune":{"key":"4841","name":"Pfyn","shortName":"Pfyn"},"district":{"key":"2012","name":"Bezirk Frauenfeld"},"canton":{"key":"20","code":"TG","name":"Thurgau"},"status":"Real"},{"key":"10199342","name":"Reckebüel","postalCode":"8505","locality":"Pfyn","commune":{"key":"4841","name":"Pfyn","shortName":"Pfyn"},"district":{"key":"2012","name":"Bezirk Frauenfeld"},"canton":{"key":"20","code":"TG","name":"Thurgau"},"status":"Real"},{"key":"10115192","name":"Rietgässli","postalCode":"8505","locality":"Pfyn","commune":{"key":"4841","name":"Pfyn","shortName":"Pfyn"},"district":{"key":"2012","name":"Bezirk Frauenfeld"},"canton":{"key":"20","code":"TG","name":"Thurgau"},"status":"Real"},{"key":"10124466","name":"Rietstrasse","postalCode":"8505","locality":"Pfyn","commune":{"key":"4841","name":"Pfyn","shortName":"Pfyn"},"district":{"key":"2012","name":"Bezirk Frauenfeld"},"canton":{"key":"20","code":"TG","name":"Thurgau"},"status":"Real"},{"key":"10199338","name":"Roosewisli","postalCode":"8505","locality":"Pfyn","commune":{"key":"4841","name":"Pfyn","shortName":"Pfyn"},"district":{"key":"2012","name":"Bezirk Frauenfeld"},"canton":{"key":"20","code":"TG","name":"Thurgau"},"status":"Real"},{"key":"10199390","name":"Röötelwase","postalCode":"8505","locality":"Pfyn","commune":{"key":"4841","name":"Pfyn","shortName":"Pfyn"},"district":{"key":"2012","name":"Bezirk Frauenfeld"},"canton":{"key":"20","code":"TG","name":"Thurgau"},"status":"Real"},{"key":"10101554","name":"Rumpelgasse","postalCode":"8505","locality":"Pfyn","commune":{"key":"4841","name":"Pfyn","shortName":"Pfyn"},"district":{"key":"2012","name":"Bezirk Frauenfeld"},"canton":{"key":"20","code":"TG","name":"Thurgau"},"status":"Real"},{"key":"10199389","name":"Schiibewis","postalCode":"8505","locality":"Pfyn","commune":{"key":"4841","name":"Pfyn","shortName":"Pfyn"},"district":{"key":"2012","name":"Bezirk Frauenfeld"},"canton":{"key":"20","code":"TG","name":"Thurgau"},"status":"Real"},{"key":"10044217","name":"Schlosshalde","postalCode":"8505","locality":"Pfyn","commune":{"key":"4841","name":"Pfyn","shortName":"Pfyn"},"district":{"key":"2012","name":"Bezirk Frauenfeld"},"canton":{"key":"20","code":"TG","name":"Thurgau"},"status":"Real"},{"key":"10161192","name":"Schönbühl","postalCode":"8505","locality":"Pfyn","commune":{"key":"4841","name":"Pfyn","shortName":"Pfyn"},"district":{"key":"2012","name":"Bezirk Frauenfeld"},"canton":{"key":"20","code":"TG","name":"Thurgau"},"status":"Real"},{"key":"10198638","name":"Schoore","postalCode":"8505","locality":"Pfyn","commune":{"key":"4841","name":"Pfyn","shortName":"Pfyn"},"district":{"key":"2012","name":"Bezirk Frauenfeld"},"canton":{"key":"20","code":"TG","name":"Thurgau"},"status":"Real"},{"key":"10175235","name":"Schülerweg","postalCode":"8505","locality":"Pfyn","commune":{"key":"4841","name":"Pfyn","shortName":"Pfyn"},"district":{"key":"2012","name":"Bezirk Frauenfeld"},"canton":{"key":"20","code":"TG","name":"Thurgau"},"status":"Real"},{"key":"10115995","name":"Schützenhausstrasse","postalCode":"8505","locality":"Pfyn","commune":{"key":"4841","name":"Pfyn","shortName":"Pfyn"},"district":{"key":"2012","name":"Bezirk Frauenfeld"},"canton":{"key":"20","code":"TG","name":"Thurgau"},"status":"Real"},{"key":"10044219","name":"Städtli","postalCode":"8505","locality":"Pfyn","commune":{"key":"4841","name":"Pfyn","shortName":"Pfyn"},"district":{"key":"2012","name":"Bezirk Frauenfeld"},"canton":{"key":"20","code":"TG","name":"Thurgau"},"status":"Real"},{"key":"10044218","name":"Steckbornstrasse","postalCode":"8505","locality":"Pfyn","commune":{"key":"4841","name":"Pfyn","shortName":"Pfyn"},"district":{"key":"2012","name":"Bezirk Frauenfeld"},"canton":{"key":"20","code":"TG","name":"Thurgau"},"status":"Real"},{"key":"10069161","name":"Steinacker","postalCode":"8505","locality":"Pfyn","commune":{"key":"4841","name":"Pfyn","shortName":"Pfyn"},"district":{"key":"2012","name":"Bezirk Frauenfeld"},"canton":{"key":"20","code":"TG","name":"Thurgau"},"status":"Real"},{"key":"10183816","name":"Steinbach","postalCode":"8505","locality":"Pfyn","commune":{"key":"4841","name":"Pfyn","shortName":"Pfyn"},"district":{"key":"2012","name":"Bezirk Frauenfeld"},"canton":{"key":"20","code":"TG","name":"Thurgau"},"status":"Real"},{"key":"10110480","name":"Tiergarten","postalCode":"8505","locality":"Pfyn","commune":{"key":"4841","name":"Pfyn","shortName":"Pfyn"},"district":{"key":"2012","name":"Bezirk Frauenfeld"},"canton":{"key":"20","code":"TG","name":"Thurgau"},"status":"Real"},{"key":"10199339","name":"Trittebach","postalCode":"8505","locality":"Pfyn","commune":{"key":"4841","name":"Pfyn","shortName":"Pfyn"},"district":{"key":"2012","name":"Bezirk Frauenfeld"},"canton":{"key":"20","code":"TG","name":"Thurgau"},"status":"Real"},{"key":"10199631","name":"Tuuracker","postalCode":"8505","locality":"Pfyn","commune":{"key":"4841","name":"Pfyn","shortName":"Pfyn"},"district":{"key":"2012","name":"Bezirk Frauenfeld"},"canton":{"key":"20","code":"TG","name":"Thurgau"},"status":"Real"},{"key":"10199340","name":"Tuurvorland","postalCode":"8505","locality":"Pfyn","commune":{"key":"4841","name":"Pfyn","shortName":"Pfyn"},"district":{"key":"2012","name":"Bezirk Frauenfeld"},"canton":{"key":"20","code":"TG","name":"Thurgau"},"status":"Real"},{"key":"10199391","name":"Underi Wiide","postalCode":"8505","locality":"Pfyn","commune":{"key":"4841","name":"Pfyn","shortName":"Pfyn"},"district":{"key":"2012","name":"Bezirk Frauenfeld"},"canton":{"key":"20","code":"TG","name":"Thurgau"},"status":"Real"},{"key":"10044220","name":"Unterer Brüel","postalCode":"8505","locality":"Pfyn","commune":{"key":"4841","name":"Pfyn","shortName":"Pfyn"},"district":{"key":"2012","name":"Bezirk Frauenfeld"},"canton":{"key":"20","code":"TG","name":"Thurgau"},"status":"Real"},{"key":"10097168","name":"Unterer Chruchenberg","postalCode":"8505","locality":"Pfyn","commune":{"key":"4841","name":"Pfyn","shortName":"Pfyn"},"district":{"key":"2012","name":"Bezirk Frauenfeld"},"canton":{"key":"20","code":"TG","name":"Thurgau"},"status":"Real"},{"key":"10198639","name":"Vogelhärd","postalCode":"8505","locality":"Pfyn","commune":{"key":"4841","name":"Pfyn","shortName":"Pfyn"},"district":{"key":"2012","name":"Bezirk Frauenfeld"},"canton":{"key":"20","code":"TG","name":"Thurgau"},"status":"Real"},{"key":"10198344","name":"Vorderriet","postalCode":"8505","locality":"Pfyn","commune":{"key":"4841","name":"Pfyn","shortName":"Pfyn"},"district":{"key":"2012","name":"Bezirk Frauenfeld"},"canton":{"key":"20","code":"TG","name":"Thurgau"},"status":"Real"},{"key":"10199374","name":"Watt","postalCode":"8505","locality":"Pfyn","commune":{"key":"4841","name":"Pfyn","shortName":"Pfyn"},"district":{"key":"2012","name":"Bezirk Frauenfeld"},"canton":{"key":"20","code":"TG","name":"Thurgau"},"status":"Real"},{"key":"10048941","name":"Wiedenstrasse","postalCode":"8505","locality":"Pfyn","commune":{"key":"4841","name":"Pfyn","shortName":"Pfyn"},"district":{"key":"2012","name":"Bezirk Frauenfeld"},"canton":{"key":"20","code":"TG","name":"Thurgau"},"status":"Real"},{"key":"10044221","name":"Winkelstrasse","postalCode":"8505","locality":"Pfyn","commune":{"key":"4841","name":"Pfyn","shortName":"Pfyn"},"district":{"key":"2012","name":"Bezirk Frauenfeld"},"canton":{"key":"20","code":"TG","name":"Thurgau"},"status":"Real"},{"key":"10069163","name":"Wybergstrasse","postalCode":"8505","locality":"Pfyn","commune":{"key":"4841","name":"Pfyn","shortName":"Pfyn"},"district":{"key":"2012","name":"Bezirk Frauenfeld"},"canton":{"key":"20","code":"TG","name":"Thurgau"},"status":"Real"},{"key":"10198640","name":"Zälgli","postalCode":"8505","locality":"Pfyn","commune":{"key":"4841","name":"Pfyn","shortName":"Pfyn"},"district":{"key":"2012","name":"Bezirk Frauenfeld"},"canton":{"key":"20","code":"TG","name":"Thurgau"},"status":"Real"},{"key":"10044222","name":"Ziegelhütte","postalCode":"8505","locality":"Pfyn","commune":{"key":"4841","name":"Pfyn","shortName":"Pfyn"},"district":{"key":"2012","name":"Bezirk Frauenfeld"},"canton":{"key":"20","code":"TG","name":"Thurgau"},"status":"Real"},{"key":"10097169","name":"Zieglerwiese","postalCode":"8505","locality":"Pfyn","commune":{"key":"4841","name":"Pfyn","shortName":"Pfyn"},"district":{"key":"2012","name":"Bezirk Frauenfeld"},"canton":{"key":"20","code":"TG","name":"Thurgau"},"status":"Real"},{"key":"10199393","name":"Ziilhag","postalCode":"8505","locality":"Pfyn","commune":{"key":"4841","name":"Pfyn","shortName":"Pfyn"},"district":{"key":"2012","name":"Bezirk Frauenfeld"},"canton":{"key":"20","code":"TG","name":"Thurgau"},"status":"Real"},{"key":"10048942","name":"Zollhausstrasse","postalCode":"8505","locality":"Pfyn","commune":{"key":"4841","name":"Pfyn","shortName":"Pfyn"},"district":{"key":"2012","name":"Bezirk Frauenfeld"},"canton":{"key":"20","code":"TG","name":"Thurgau"},"status":"Real"},]