[{"key":"10215147","name":"Bächliweg","postalCode":"8558","locality":"Raperswilen","commune":{"key":"4701","name":"Wäldi","shortName":"Wäldi"},"district":{"key":"2013","name":"Bezirk Kreuzlingen"},"canton":{"key":"20","code":"TG","name":"Thurgau"},"status":"Real"},{"key":"10124320","name":"Bachstrasse","postalCode":"8558","locality":"Raperswilen","commune":{"key":"4701","name":"Wäldi","shortName":"Wäldi"},"district":{"key":"2013","name":"Bezirk Kreuzlingen"},"canton":{"key":"20","code":"TG","name":"Thurgau"},"status":"Real"},{"key":"10059356","name":"Bettenweiherstrasse","postalCode":"8558","locality":"Raperswilen","commune":{"key":"4701","name":"Wäldi","shortName":"Wäldi"},"district":{"key":"2013","name":"Bezirk Kreuzlingen"},"canton":{"key":"20","code":"TG","name":"Thurgau"},"status":"Real"},{"key":"10202427","name":"Bilchraa","postalCode":"8558","locality":"Raperswilen","commune":{"key":"4701","name":"Wäldi","shortName":"Wäldi"},"district":{"key":"2013","name":"Bezirk Kreuzlingen"},"canton":{"key":"20","code":"TG","name":"Thurgau"},"status":"Real"},{"key":"10165312","name":"Birkenhofstrasse","postalCode":"8558","locality":"Raperswilen","commune":{"key":"4701","name":"Wäldi","shortName":"Wäldi"},"district":{"key":"2013","name":"Bezirk Kreuzlingen"},"canton":{"key":"20","code":"TG","name":"Thurgau"},"status":"Real"},{"key":"10110481","name":"Blumenau","postalCode":"8558","locality":"Raperswilen","commune":{"key":"4701","name":"Wäldi","shortName":"Wäldi"},"district":{"key":"2013","name":"Bezirk Kreuzlingen"},"canton":{"key":"20","code":"TG","name":"Thurgau"},"status":"Real"},{"key":"10199927","name":"Bool","postalCode":"8558","locality":"Raperswilen","commune":{"key":"4701","name":"Wäldi","shortName":"Wäldi"},"district":{"key":"2013","name":"Bezirk Kreuzlingen"},"canton":{"key":"20","code":"TG","name":"Thurgau"},"status":"Real"},{"key":"10204134","name":"Brünneli","postalCode":"8558","locality":"Raperswilen","commune":{"key":"4701","name":"Wäldi","shortName":"Wäldi"},"district":{"key":"2013","name":"Bezirk Kreuzlingen"},"canton":{"key":"20","code":"TG","name":"Thurgau"},"status":"Real"},{"key":"10203290","name":"Büren","postalCode":"8558","locality":"Raperswilen","commune":{"key":"4701","name":"Wäldi","shortName":"Wäldi"},"district":{"key":"2013","name":"Bezirk Kreuzlingen"},"canton":{"key":"20","code":"TG","name":"Thurgau"},"status":"Real"},{"key":"10123230","name":"Bürenstrasse","postalCode":"8558","locality":"Raperswilen","commune":{"key":"4701","name":"Wäldi","shortName":"Wäldi"},"district":{"key":"2013","name":"Bezirk Kreuzlingen"},"canton":{"key":"20","code":"TG","name":"Thurgau"},"status":"Real"},{"key":"10203582","name":"Chalchhuuser","postalCode":"8558","locality":"Raperswilen","commune":{"key":"4701","name":"Wäldi","shortName":"Wäldi"},"district":{"key":"2013","name":"Bezirk Kreuzlingen"},"canton":{"key":"20","code":"TG","name":"Thurgau"},"status":"Real"},{"key":"10203800","name":"Chisgrueb","postalCode":"8558","locality":"Raperswilen","commune":{"key":"4701","name":"Wäldi","shortName":"Wäldi"},"district":{"key":"2013","name":"Bezirk Kreuzlingen"},"canton":{"key":"20","code":"TG","name":"Thurgau"},"status":"Real"},{"key":"10202428","name":"Cholholz","postalCode":"8558","locality":"Raperswilen","commune":{"key":"4701","name":"Wäldi","shortName":"Wäldi"},"district":{"key":"2013","name":"Bezirk Kreuzlingen"},"canton":{"key":"20","code":"TG","name":"Thurgau"},"status":"Real"},{"key":"10127606","name":"Eichhof","postalCode":"8558","locality":"Raperswilen","commune":{"key":"4701","name":"Wäldi","shortName":"Wäldi"},"district":{"key":"2013","name":"Bezirk Kreuzlingen"},"canton":{"key":"20","code":"TG","name":"Thurgau"},"status":"Real"},{"key":"10176796","name":"Erlengrund","postalCode":"8558","locality":"Raperswilen","commune":{"key":"4701","name":"Wäldi","shortName":"Wäldi"},"district":{"key":"2013","name":"Bezirk Kreuzlingen"},"canton":{"key":"20","code":"TG","name":"Thurgau"},"status":"Real"},{"key":"10135013","name":"Erlengrundstrasse","postalCode":"8558","locality":"Raperswilen","commune":{"key":"4701","name":"Wäldi","shortName":"Wäldi"},"district":{"key":"2013","name":"Bezirk Kreuzlingen"},"canton":{"key":"20","code":"TG","name":"Thurgau"},"status":"Real"},{"key":"10123236","name":"Felsenhof","postalCode":"8558","locality":"Raperswilen","commune":{"key":"4701","name":"Wäldi","shortName":"Wäldi"},"district":{"key":"2013","name":"Bezirk Kreuzlingen"},"canton":{"key":"20","code":"TG","name":"Thurgau"},"status":"Real"},{"key":"10203291","name":"Fischbach","postalCode":"8558","locality":"Raperswilen","commune":{"key":"4701","name":"Wäldi","shortName":"Wäldi"},"district":{"key":"2013","name":"Bezirk Kreuzlingen"},"canton":{"key":"20","code":"TG","name":"Thurgau"},"status":"Real"},{"key":"10199928","name":"Fischbächlerweier","postalCode":"8558","locality":"Raperswilen","commune":{"key":"4701","name":"Wäldi","shortName":"Wäldi"},"district":{"key":"2013","name":"Bezirk Kreuzlingen"},"canton":{"key":"20","code":"TG","name":"Thurgau"},"status":"Real"},{"key":"10123229","name":"Fischbachstrasse","postalCode":"8558","locality":"Raperswilen","commune":{"key":"4701","name":"Wäldi","shortName":"Wäldi"},"district":{"key":"2013","name":"Bezirk Kreuzlingen"},"canton":{"key":"20","code":"TG","name":"Thurgau"},"status":"Real"},{"key":"10204411","name":"Groossrüüti","postalCode":"8558","locality":"Raperswilen","commune":{"key":"4701","name":"Wäldi","shortName":"Wäldi"},"district":{"key":"2013","name":"Bezirk Kreuzlingen"},"canton":{"key":"20","code":"TG","name":"Thurgau"},"status":"Real"},{"key":"10123238","name":"Haldenhof","postalCode":"8558","locality":"Raperswilen","commune":{"key":"4701","name":"Wäldi","shortName":"Wäldi"},"district":{"key":"2013","name":"Bezirk Kreuzlingen"},"canton":{"key":"20","code":"TG","name":"Thurgau"},"status":"Real"},{"key":"10123237","name":"Hattenhauserstrasse","postalCode":"8558","locality":"Raperswilen","commune":{"key":"4701","name":"Wäldi","shortName":"Wäldi"},"district":{"key":"2013","name":"Bezirk Kreuzlingen"},"canton":{"key":"20","code":"TG","name":"Thurgau"},"status":"Real"},{"key":"10048944","name":"Hauptstrasse","postalCode":"8558","locality":"Raperswilen","commune":{"key":"4701","name":"Wäldi","shortName":"Wäldi"},"district":{"key":"2013","name":"Bezirk Kreuzlingen"},"canton":{"key":"20","code":"TG","name":"Thurgau"},"status":"Real"},{"key":"10123233","name":"Helsighauserstrasse","postalCode":"8558","locality":"Raperswilen","commune":{"key":"4701","name":"Wäldi","shortName":"Wäldi"},"district":{"key":"2013","name":"Bezirk Kreuzlingen"},"canton":{"key":"20","code":"TG","name":"Thurgau"},"status":"Real"},{"key":"10204135","name":"Hoetane","postalCode":"8558","locality":"Raperswilen","commune":{"key":"4701","name":"Wäldi","shortName":"Wäldi"},"district":{"key":"2013","name":"Bezirk Kreuzlingen"},"canton":{"key":"20","code":"TG","name":"Thurgau"},"status":"Real"},{"key":"10092648","name":"Holzhäusern","postalCode":"8558","locality":"Raperswilen","commune":{"key":"4701","name":"Wäldi","shortName":"Wäldi"},"district":{"key":"2013","name":"Bezirk Kreuzlingen"},"canton":{"key":"20","code":"TG","name":"Thurgau"},"status":"Real"},{"key":"10203292","name":"Hööli","postalCode":"8558","locality":"Raperswilen","commune":{"key":"4701","name":"Wäldi","shortName":"Wäldi"},"district":{"key":"2013","name":"Bezirk Kreuzlingen"},"canton":{"key":"20","code":"TG","name":"Thurgau"},"status":"Real"},{"key":"10154926","name":"Ifang","postalCode":"8558","locality":"Raperswilen","commune":{"key":"4701","name":"Wäldi","shortName":"Wäldi"},"district":{"key":"2013","name":"Bezirk Kreuzlingen"},"canton":{"key":"20","code":"TG","name":"Thurgau"},"status":"Real"},{"key":"10069165","name":"Ifangstrasse","postalCode":"8558","locality":"Raperswilen","commune":{"key":"4701","name":"Wäldi","shortName":"Wäldi"},"district":{"key":"2013","name":"Bezirk Kreuzlingen"},"canton":{"key":"20","code":"TG","name":"Thurgau"},"status":"Real"},{"key":"10202459","name":"Kirche","postalCode":"8558","locality":"Raperswilen","commune":{"key":"4701","name":"Wäldi","shortName":"Wäldi"},"district":{"key":"2013","name":"Bezirk Kreuzlingen"},"canton":{"key":"20","code":"TG","name":"Thurgau"},"status":"Real"},{"key":"10124325","name":"Kodenreute","postalCode":"8558","locality":"Raperswilen","commune":{"key":"4701","name":"Wäldi","shortName":"Wäldi"},"district":{"key":"2013","name":"Bezirk Kreuzlingen"},"canton":{"key":"20","code":"TG","name":"Thurgau"},"status":"Real"},{"key":"10124323","name":"Lindenstrasse","postalCode":"8558","locality":"Raperswilen","commune":{"key":"4701","name":"Wäldi","shortName":"Wäldi"},"district":{"key":"2013","name":"Bezirk Kreuzlingen"},"canton":{"key":"20","code":"TG","name":"Thurgau"},"status":"Real"},{"key":"10203583","name":"Lochacker","postalCode":"8558","locality":"Raperswilen","commune":{"key":"4701","name":"Wäldi","shortName":"Wäldi"},"district":{"key":"2013","name":"Bezirk Kreuzlingen"},"canton":{"key":"20","code":"TG","name":"Thurgau"},"status":"Real"},{"key":"10203293","name":"Mueltscheere","postalCode":"8558","locality":"Raperswilen","commune":{"key":"4701","name":"Wäldi","shortName":"Wäldi"},"district":{"key":"2013","name":"Bezirk Kreuzlingen"},"canton":{"key":"20","code":"TG","name":"Thurgau"},"status":"Real"},{"key":"10202429","name":"Mülbärger Tobel","postalCode":"8558","locality":"Raperswilen","commune":{"key":"4701","name":"Wäldi","shortName":"Wäldi"},"district":{"key":"2013","name":"Bezirk Kreuzlingen"},"canton":{"key":"20","code":"TG","name":"Thurgau"},"status":"Real"},{"key":"10145794","name":"Neuhof","postalCode":"8558","locality":"Raperswilen","commune":{"key":"4701","name":"Wäldi","shortName":"Wäldi"},"district":{"key":"2013","name":"Bezirk Kreuzlingen"},"canton":{"key":"20","code":"TG","name":"Thurgau"},"status":"Real"},{"key":"10044488","name":"Oberdorf","postalCode":"8558","locality":"Raperswilen","commune":{"key":"4701","name":"Wäldi","shortName":"Wäldi"},"district":{"key":"2013","name":"Bezirk Kreuzlingen"},"canton":{"key":"20","code":"TG","name":"Thurgau"},"status":"Real"},{"key":"10246366","name":"Oberdorfstrasse","postalCode":"8558","locality":"Raperswilen","commune":{"key":"4701","name":"Wäldi","shortName":"Wäldi"},"district":{"key":"2013","name":"Bezirk Kreuzlingen"},"canton":{"key":"20","code":"TG","name":"Thurgau"},"status":"Planned"},{"key":"10124326","name":"Obere Müllbergstrasse","postalCode":"8558","locality":"Raperswilen","commune":{"key":"4701","name":"Wäldi","shortName":"Wäldi"},"district":{"key":"2013","name":"Bezirk Kreuzlingen"},"canton":{"key":"20","code":"TG","name":"Thurgau"},"status":"Real"},{"key":"10199929","name":"Oberfäld","postalCode":"8558","locality":"Raperswilen","commune":{"key":"4701","name":"Wäldi","shortName":"Wäldi"},"district":{"key":"2013","name":"Bezirk Kreuzlingen"},"canton":{"key":"20","code":"TG","name":"Thurgau"},"status":"Real"},{"key":"10123235","name":"Oberfischbach","postalCode":"8558","locality":"Raperswilen","commune":{"key":"4701","name":"Wäldi","shortName":"Wäldi"},"district":{"key":"2013","name":"Bezirk Kreuzlingen"},"canton":{"key":"20","code":"TG","name":"Thurgau"},"status":"Real"},{"key":"10123231","name":"Panoramaweg","postalCode":"8558","locality":"Raperswilen","commune":{"key":"4701","name":"Wäldi","shortName":"Wäldi"},"district":{"key":"2013","name":"Bezirk Kreuzlingen"},"canton":{"key":"20","code":"TG","name":"Thurgau"},"status":"Real"},{"key":"10123232","name":"Pilgerweg","postalCode":"8558","locality":"Raperswilen","commune":{"key":"4701","name":"Wäldi","shortName":"Wäldi"},"district":{"key":"2013","name":"Bezirk Kreuzlingen"},"canton":{"key":"20","code":"TG","name":"Thurgau"},"status":"Real"},{"key":"10203294","name":"Puppewis","postalCode":"8558","locality":"Raperswilen","commune":{"key":"4701","name":"Wäldi","shortName":"Wäldi"},"district":{"key":"2013","name":"Bezirk Kreuzlingen"},"canton":{"key":"20","code":"TG","name":"Thurgau"},"status":"Real"},{"key":"10124322","name":"Rebbergstrasse","postalCode":"8558","locality":"Raperswilen","commune":{"key":"4701","name":"Wäldi","shortName":"Wäldi"},"district":{"key":"2013","name":"Bezirk Kreuzlingen"},"canton":{"key":"20","code":"TG","name":"Thurgau"},"status":"Real"},{"key":"10044489","name":"Rennentalstrasse","postalCode":"8558","locality":"Raperswilen","commune":{"key":"4701","name":"Wäldi","shortName":"Wäldi"},"district":{"key":"2013","name":"Bezirk Kreuzlingen"},"canton":{"key":"20","code":"TG","name":"Thurgau"},"status":"Real"},{"key":"10203295","name":"Rüti","postalCode":"8558","locality":"Raperswilen","commune":{"key":"4701","name":"Wäldi","shortName":"Wäldi"},"district":{"key":"2013","name":"Bezirk Kreuzlingen"},"canton":{"key":"20","code":"TG","name":"Thurgau"},"status":"Real"},{"key":"10124324","name":"Säntisblickstrasse","postalCode":"8558","locality":"Raperswilen","commune":{"key":"4701","name":"Wäldi","shortName":"Wäldi"},"district":{"key":"2013","name":"Bezirk Kreuzlingen"},"canton":{"key":"20","code":"TG","name":"Thurgau"},"status":"Real"},{"key":"10059357","name":"Schulacker","postalCode":"8558","locality":"Raperswilen","commune":{"key":"4701","name":"Wäldi","shortName":"Wäldi"},"district":{"key":"2013","name":"Bezirk Kreuzlingen"},"canton":{"key":"20","code":"TG","name":"Thurgau"},"status":"Real"},{"key":"10146420","name":"Schulerweg","postalCode":"8558","locality":"Raperswilen","commune":{"key":"4701","name":"Wäldi","shortName":"Wäldi"},"district":{"key":"2013","name":"Bezirk Kreuzlingen"},"canton":{"key":"20","code":"TG","name":"Thurgau"},"status":"Real"},{"key":"10165317","name":"Schulhausstrasse","postalCode":"8558","locality":"Raperswilen","commune":{"key":"4701","name":"Wäldi","shortName":"Wäldi"},"district":{"key":"2013","name":"Bezirk Kreuzlingen"},"canton":{"key":"20","code":"TG","name":"Thurgau"},"status":"Real"},{"key":"10148557","name":"Schwaaberüüti","postalCode":"8558","locality":"Raperswilen","commune":{"key":"4701","name":"Wäldi","shortName":"Wäldi"},"district":{"key":"2013","name":"Bezirk Kreuzlingen"},"canton":{"key":"20","code":"TG","name":"Thurgau"},"status":"Real"},{"key":"10203801","name":"Schwarzärgete","postalCode":"8558","locality":"Raperswilen","commune":{"key":"4701","name":"Wäldi","shortName":"Wäldi"},"district":{"key":"2013","name":"Bezirk Kreuzlingen"},"canton":{"key":"20","code":"TG","name":"Thurgau"},"status":"Real"},{"key":"10069166","name":"Sonnenberg","postalCode":"8558","locality":"Raperswilen","commune":{"key":"4701","name":"Wäldi","shortName":"Wäldi"},"district":{"key":"2013","name":"Bezirk Kreuzlingen"},"canton":{"key":"20","code":"TG","name":"Thurgau"},"status":"Real"},{"key":"10176116","name":"Sunnehof","postalCode":"8558","locality":"Raperswilen","commune":{"key":"4701","name":"Wäldi","shortName":"Wäldi"},"district":{"key":"2013","name":"Bezirk Kreuzlingen"},"canton":{"key":"20","code":"TG","name":"Thurgau"},"status":"Real"},{"key":"10203584","name":"Taalhölzli","postalCode":"8558","locality":"Raperswilen","commune":{"key":"4701","name":"Wäldi","shortName":"Wäldi"},"district":{"key":"2013","name":"Bezirk Kreuzlingen"},"canton":{"key":"20","code":"TG","name":"Thurgau"},"status":"Real"},{"key":"10124327","name":"Untere Müllbergstrasse","postalCode":"8558","locality":"Raperswilen","commune":{"key":"4701","name":"Wäldi","shortName":"Wäldi"},"district":{"key":"2013","name":"Bezirk Kreuzlingen"},"canton":{"key":"20","code":"TG","name":"Thurgau"},"status":"Real"},{"key":"10123234","name":"Weiherstrasse","postalCode":"8558","locality":"Raperswilen","commune":{"key":"4701","name":"Wäldi","shortName":"Wäldi"},"district":{"key":"2013","name":"Bezirk Kreuzlingen"},"canton":{"key":"20","code":"TG","name":"Thurgau"},"status":"Real"},{"key":"10044490","name":"Wiel","postalCode":"8558","locality":"Raperswilen","commune":{"key":"4701","name":"Wäldi","shortName":"Wäldi"},"district":{"key":"2013","name":"Bezirk Kreuzlingen"},"canton":{"key":"20","code":"TG","name":"Thurgau"},"status":"Real"},]