[{"name":"Ackerstr.","postalCode":"92708","locality":"Mantel","municipality":{"key":"09374134","name":"Mantel, M","type":"Markt"},"district":{"key":"09374","name":"Neustadt a.d.Waldnaab","type":"Landkreis"},"federalState":{"key":"09","name":"Bayern"}},{"name":"Adolf-Kolping-Str.","postalCode":"92708","locality":"Mantel","municipality":{"key":"09374134","name":"Mantel, M","type":"Markt"},"district":{"key":"09374","name":"Neustadt a.d.Waldnaab","type":"Landkreis"},"federalState":{"key":"09","name":"Bayern"}},{"name":"Am Kalkhäusl","postalCode":"92708","locality":"Mantel","municipality":{"key":"09374134","name":"Mantel, M","type":"Markt"},"district":{"key":"09374","name":"Neustadt a.d.Waldnaab","type":"Landkreis"},"federalState":{"key":"09","name":"Bayern"}},{"name":"Am Mühlbach","postalCode":"92708","locality":"Mantel","municipality":{"key":"09374134","name":"Mantel, M","type":"Markt"},"district":{"key":"09374","name":"Neustadt a.d.Waldnaab","type":"Landkreis"},"federalState":{"key":"09","name":"Bayern"}},{"name":"Amselweg","postalCode":"92708","locality":"Mantel","municipality":{"key":"09374134","name":"Mantel, M","type":"Markt"},"district":{"key":"09374","name":"Neustadt a.d.Waldnaab","type":"Landkreis"},"federalState":{"key":"09","name":"Bayern"}},{"name":"Angerweg","postalCode":"92708","locality":"Mantel","municipality":{"key":"09374134","name":"Mantel, M","type":"Markt"},"district":{"key":"09374","name":"Neustadt a.d.Waldnaab","type":"Landkreis"},"federalState":{"key":"09","name":"Bayern"}},{"name":"Anton-Forster-Str.","postalCode":"92708","locality":"Mantel","municipality":{"key":"09374134","name":"Mantel, M","type":"Markt"},"district":{"key":"09374","name":"Neustadt a.d.Waldnaab","type":"Landkreis"},"federalState":{"key":"09","name":"Bayern"}},{"name":"Auenstr.","postalCode":"92708","locality":"Mantel","municipality":{"key":"09374134","name":"Mantel, M","type":"Markt"},"district":{"key":"09374","name":"Neustadt a.d.Waldnaab","type":"Landkreis"},"federalState":{"key":"09","name":"Bayern"}},{"name":"Bachstr.","postalCode":"92708","locality":"Mantel","municipality":{"key":"09374134","name":"Mantel, M","type":"Markt"},"district":{"key":"09374","name":"Neustadt a.d.Waldnaab","type":"Landkreis"},"federalState":{"key":"09","name":"Bayern"}},{"name":"Bgm.-Josef-Janner-Str.","postalCode":"92708","locality":"Mantel","municipality":{"key":"09374134","name":"Mantel, M","type":"Markt"},"district":{"key":"09374","name":"Neustadt a.d.Waldnaab","type":"Landkreis"},"federalState":{"key":"09","name":"Bayern"}},{"name":"Blumenstr.","postalCode":"92708","locality":"Mantel","municipality":{"key":"09374134","name":"Mantel, M","type":"Markt"},"district":{"key":"09374","name":"Neustadt a.d.Waldnaab","type":"Landkreis"},"federalState":{"key":"09","name":"Bayern"}},{"name":"Bonhoefferstr.","postalCode":"92708","locality":"Mantel","municipality":{"key":"09374134","name":"Mantel, M","type":"Markt"},"district":{"key":"09374","name":"Neustadt a.d.Waldnaab","type":"Landkreis"},"federalState":{"key":"09","name":"Bayern"}},{"name":"Brückenweg","postalCode":"92708","locality":"Mantel","municipality":{"key":"09374134","name":"Mantel, M","type":"Markt"},"district":{"key":"09374","name":"Neustadt a.d.Waldnaab","type":"Landkreis"},"federalState":{"key":"09","name":"Bayern"}},{"name":"Buchenweg","postalCode":"92708","locality":"Mantel","municipality":{"key":"09374134","name":"Mantel, M","type":"Markt"},"district":{"key":"09374","name":"Neustadt a.d.Waldnaab","type":"Landkreis"},"federalState":{"key":"09","name":"Bayern"}},{"name":"Bussardweg","postalCode":"92708","locality":"Mantel","municipality":{"key":"09374134","name":"Mantel, M","type":"Markt"},"district":{"key":"09374","name":"Neustadt a.d.Waldnaab","type":"Landkreis"},"federalState":{"key":"09","name":"Bayern"}},{"name":"Dianastr.","postalCode":"92708","locality":"Mantel","municipality":{"key":"09374134","name":"Mantel, M","type":"Markt"},"district":{"key":"09374","name":"Neustadt a.d.Waldnaab","type":"Landkreis"},"federalState":{"key":"09","name":"Bayern"}},{"name":"Domprediger-Dr.-Maier-Str.","postalCode":"92708","locality":"Mantel","municipality":{"key":"09374134","name":"Mantel, M","type":"Markt"},"district":{"key":"09374","name":"Neustadt a.d.Waldnaab","type":"Landkreis"},"federalState":{"key":"09","name":"Bayern"}},{"name":"Dr.-Martin-Luther-Str.","postalCode":"92708","locality":"Mantel","municipality":{"key":"09374134","name":"Mantel, M","type":"Markt"},"district":{"key":"09374","name":"Neustadt a.d.Waldnaab","type":"Landkreis"},"federalState":{"key":"09","name":"Bayern"}},{"name":"Drosselweg","postalCode":"92708","locality":"Mantel","municipality":{"key":"09374134","name":"Mantel, M","type":"Markt"},"district":{"key":"09374","name":"Neustadt a.d.Waldnaab","type":"Landkreis"},"federalState":{"key":"09","name":"Bayern"}},{"name":"Ebenweg","postalCode":"92708","locality":"Mantel","municipality":{"key":"09374134","name":"Mantel, M","type":"Markt"},"district":{"key":"09374","name":"Neustadt a.d.Waldnaab","type":"Landkreis"},"federalState":{"key":"09","name":"Bayern"}},{"name":"Eichenweg","postalCode":"92708","locality":"Mantel","municipality":{"key":"09374134","name":"Mantel, M","type":"Markt"},"district":{"key":"09374","name":"Neustadt a.d.Waldnaab","type":"Landkreis"},"federalState":{"key":"09","name":"Bayern"}},{"name":"Etzenrichter Str.","postalCode":"92708","locality":"Mantel","municipality":{"key":"09374134","name":"Mantel, M","type":"Markt"},"district":{"key":"09374","name":"Neustadt a.d.Waldnaab","type":"Landkreis"},"federalState":{"key":"09","name":"Bayern"}},{"name":"Eulenweg","postalCode":"92708","locality":"Mantel","municipality":{"key":"09374134","name":"Mantel, M","type":"Markt"},"district":{"key":"09374","name":"Neustadt a.d.Waldnaab","type":"Landkreis"},"federalState":{"key":"09","name":"Bayern"}},{"name":"Falkenweg","postalCode":"92708","locality":"Mantel","municipality":{"key":"09374134","name":"Mantel, M","type":"Markt"},"district":{"key":"09374","name":"Neustadt a.d.Waldnaab","type":"Landkreis"},"federalState":{"key":"09","name":"Bayern"}},{"name":"Fasanenweg","postalCode":"92708","locality":"Mantel","municipality":{"key":"09374134","name":"Mantel, M","type":"Markt"},"district":{"key":"09374","name":"Neustadt a.d.Waldnaab","type":"Landkreis"},"federalState":{"key":"09","name":"Bayern"}},{"name":"Fichtenstr.","postalCode":"92708","locality":"Mantel","municipality":{"key":"09374134","name":"Mantel, M","type":"Markt"},"district":{"key":"09374","name":"Neustadt a.d.Waldnaab","type":"Landkreis"},"federalState":{"key":"09","name":"Bayern"}},{"name":"Finkenstr.","postalCode":"92708","locality":"Mantel","municipality":{"key":"09374134","name":"Mantel, M","type":"Markt"},"district":{"key":"09374","name":"Neustadt a.d.Waldnaab","type":"Landkreis"},"federalState":{"key":"09","name":"Bayern"}},{"name":"Fliederstr.","postalCode":"92708","locality":"Mantel","municipality":{"key":"09374134","name":"Mantel, M","type":"Markt"},"district":{"key":"09374","name":"Neustadt a.d.Waldnaab","type":"Landkreis"},"federalState":{"key":"09","name":"Bayern"}},{"name":"Flurstr.","postalCode":"92708","locality":"Mantel","municipality":{"key":"09374134","name":"Mantel, M","type":"Markt"},"district":{"key":"09374","name":"Neustadt a.d.Waldnaab","type":"Landkreis"},"federalState":{"key":"09","name":"Bayern"}},{"name":"Freihunger Str.","postalCode":"92708","locality":"Mantel","municipality":{"key":"09374134","name":"Mantel, M","type":"Markt"},"district":{"key":"09374","name":"Neustadt a.d.Waldnaab","type":"Landkreis"},"federalState":{"key":"09","name":"Bayern"}},{"name":"Friedhofstr.","postalCode":"92708","locality":"Mantel","municipality":{"key":"09374134","name":"Mantel, M","type":"Markt"},"district":{"key":"09374","name":"Neustadt a.d.Waldnaab","type":"Landkreis"},"federalState":{"key":"09","name":"Bayern"}},{"name":"Frühlingstr.","postalCode":"92708","locality":"Mantel","municipality":{"key":"09374134","name":"Mantel, M","type":"Markt"},"district":{"key":"09374","name":"Neustadt a.d.Waldnaab","type":"Landkreis"},"federalState":{"key":"09","name":"Bayern"}},{"name":"Gartenstr.","postalCode":"92708","locality":"Mantel","municipality":{"key":"09374134","name":"Mantel, M","type":"Markt"},"district":{"key":"09374","name":"Neustadt a.d.Waldnaab","type":"Landkreis"},"federalState":{"key":"09","name":"Bayern"}},{"name":"Hammerweg","postalCode":"92708","locality":"Mantel","municipality":{"key":"09374134","name":"Mantel, M","type":"Markt"},"district":{"key":"09374","name":"Neustadt a.d.Waldnaab","type":"Landkreis"},"federalState":{"key":"09","name":"Bayern"}},{"name":"Heidestr.","postalCode":"92708","locality":"Mantel","municipality":{"key":"09374134","name":"Mantel, M","type":"Markt"},"district":{"key":"09374","name":"Neustadt a.d.Waldnaab","type":"Landkreis"},"federalState":{"key":"09","name":"Bayern"}},{"name":"Hochstr.","postalCode":"92708","locality":"Mantel","municipality":{"key":"09374134","name":"Mantel, M","type":"Markt"},"district":{"key":"09374","name":"Neustadt a.d.Waldnaab","type":"Landkreis"},"federalState":{"key":"09","name":"Bayern"}},{"name":"Hohlbach-Linie","postalCode":"92708","locality":"Mantel","municipality":{"key":"09374134","name":"Mantel, M","type":"Markt"},"district":{"key":"09374","name":"Neustadt a.d.Waldnaab","type":"Landkreis"},"federalState":{"key":"09","name":"Bayern"}},{"name":"Hohlbach-Linie","postalCode":"92708","locality":"Manteler Forst","municipality":{"key":"09374452","name":"Manteler Forst","type":"Gemeindefreies_Gebiet_Unbewohnt"},"district":{"key":"09374","name":"Neustadt a.d.Waldnaab","type":"Landkreis"},"federalState":{"key":"09","name":"Bayern"}},{"name":"Hüttener Str.","postalCode":"92708","locality":"Mantel","municipality":{"key":"09374134","name":"Mantel, M","type":"Markt"},"district":{"key":"09374","name":"Neustadt a.d.Waldnaab","type":"Landkreis"},"federalState":{"key":"09","name":"Bayern"}},{"name":"Im Gewerbepark","postalCode":"92708","locality":"Mantel","municipality":{"key":"09374134","name":"Mantel, M","type":"Markt"},"district":{"key":"09374","name":"Neustadt a.d.Waldnaab","type":"Landkreis"},"federalState":{"key":"09","name":"Bayern"}},{"name":"Jahnstr.","postalCode":"92708","locality":"Mantel","municipality":{"key":"09374134","name":"Mantel, M","type":"Markt"},"district":{"key":"09374","name":"Neustadt a.d.Waldnaab","type":"Landkreis"},"federalState":{"key":"09","name":"Bayern"}},{"name":"Kettelerstr.","postalCode":"92708","locality":"Mantel","municipality":{"key":"09374134","name":"Mantel, M","type":"Markt"},"district":{"key":"09374","name":"Neustadt a.d.Waldnaab","type":"Landkreis"},"federalState":{"key":"09","name":"Bayern"}},{"name":"Klingerstr.","postalCode":"92708","locality":"Mantel","municipality":{"key":"09374134","name":"Mantel, M","type":"Markt"},"district":{"key":"09374","name":"Neustadt a.d.Waldnaab","type":"Landkreis"},"federalState":{"key":"09","name":"Bayern"}},{"name":"Kreuzäckerstr.","postalCode":"92708","locality":"Mantel","municipality":{"key":"09374134","name":"Mantel, M","type":"Markt"},"district":{"key":"09374","name":"Neustadt a.d.Waldnaab","type":"Landkreis"},"federalState":{"key":"09","name":"Bayern"}},{"name":"Lerchenstr.","postalCode":"92708","locality":"Mantel","municipality":{"key":"09374134","name":"Mantel, M","type":"Markt"},"district":{"key":"09374","name":"Neustadt a.d.Waldnaab","type":"Landkreis"},"federalState":{"key":"09","name":"Bayern"}},{"name":"Lessingstr.","postalCode":"92708","locality":"Mantel","municipality":{"key":"09374134","name":"Mantel, M","type":"Markt"},"district":{"key":"09374","name":"Neustadt a.d.Waldnaab","type":"Landkreis"},"federalState":{"key":"09","name":"Bayern"}},{"name":"Liegewiese am Manteler Weiher","postalCode":"92708","locality":"Mantel","municipality":{"key":"09374134","name":"Mantel, M","type":"Markt"},"district":{"key":"09374","name":"Neustadt a.d.Waldnaab","type":"Landkreis"},"federalState":{"key":"09","name":"Bayern"}},{"name":"Lindachweg","postalCode":"92708","locality":"Mantel","municipality":{"key":"09374134","name":"Mantel, M","type":"Markt"},"district":{"key":"09374","name":"Neustadt a.d.Waldnaab","type":"Landkreis"},"federalState":{"key":"09","name":"Bayern"}},{"name":"Lupinenstr.","postalCode":"92708","locality":"Mantel","municipality":{"key":"09374134","name":"Mantel, M","type":"Markt"},"district":{"key":"09374","name":"Neustadt a.d.Waldnaab","type":"Landkreis"},"federalState":{"key":"09","name":"Bayern"}},{"name":"Marktplatz","postalCode":"92708","locality":"Mantel","municipality":{"key":"09374134","name":"Mantel, M","type":"Markt"},"district":{"key":"09374","name":"Neustadt a.d.Waldnaab","type":"Landkreis"},"federalState":{"key":"09","name":"Bayern"}},{"name":"Mittlerer Gruberweg","postalCode":"92708","locality":"Manteler Forst","municipality":{"key":"09374452","name":"Manteler Forst","type":"Gemeindefreies_Gebiet_Unbewohnt"},"district":{"key":"09374","name":"Neustadt a.d.Waldnaab","type":"Landkreis"},"federalState":{"key":"09","name":"Bayern"}},{"name":"Moiergasse","postalCode":"92708","locality":"Mantel","municipality":{"key":"09374134","name":"Mantel, M","type":"Markt"},"district":{"key":"09374","name":"Neustadt a.d.Waldnaab","type":"Landkreis"},"federalState":{"key":"09","name":"Bayern"}},{"name":"Moritzweg","postalCode":"92708","locality":"Mantel","municipality":{"key":"09374134","name":"Mantel, M","type":"Markt"},"district":{"key":"09374","name":"Neustadt a.d.Waldnaab","type":"Landkreis"},"federalState":{"key":"09","name":"Bayern"}},{"name":"Naabstr.","postalCode":"92708","locality":"Mantel","municipality":{"key":"09374134","name":"Mantel, M","type":"Markt"},"district":{"key":"09374","name":"Neustadt a.d.Waldnaab","type":"Landkreis"},"federalState":{"key":"09","name":"Bayern"}},{"name":"Ossangerweg","postalCode":"92708","locality":"Mantel","municipality":{"key":"09374134","name":"Mantel, M","type":"Markt"},"district":{"key":"09374","name":"Neustadt a.d.Waldnaab","type":"Landkreis"},"federalState":{"key":"09","name":"Bayern"}},{"name":"Pechhofer Strässl","postalCode":"92708","locality":"Mantel","municipality":{"key":"09374134","name":"Mantel, M","type":"Markt"},"district":{"key":"09374","name":"Neustadt a.d.Waldnaab","type":"Landkreis"},"federalState":{"key":"09","name":"Bayern"}},{"name":"Pechhofer Strässl","postalCode":"92708","locality":"Manteler Forst","municipality":{"key":"09374452","name":"Manteler Forst","type":"Gemeindefreies_Gebiet_Unbewohnt"},"district":{"key":"09374","name":"Neustadt a.d.Waldnaab","type":"Landkreis"},"federalState":{"key":"09","name":"Bayern"}},{"name":"Pfarrer-Knorr-Str.","postalCode":"92708","locality":"Mantel","municipality":{"key":"09374134","name":"Mantel, M","type":"Markt"},"district":{"key":"09374","name":"Neustadt a.d.Waldnaab","type":"Landkreis"},"federalState":{"key":"09","name":"Bayern"}},{"name":"Raiffeisenstr.","postalCode":"92708","locality":"Mantel","municipality":{"key":"09374134","name":"Mantel, M","type":"Markt"},"district":{"key":"09374","name":"Neustadt a.d.Waldnaab","type":"Landkreis"},"federalState":{"key":"09","name":"Bayern"}},{"name":"Rosenstr.","postalCode":"92708","locality":"Mantel","municipality":{"key":"09374134","name":"Mantel, M","type":"Markt"},"district":{"key":"09374","name":"Neustadt a.d.Waldnaab","type":"Landkreis"},"federalState":{"key":"09","name":"Bayern"}},{"name":"Rupprechtsreuth","postalCode":"92708","locality":"Mantel","municipality":{"key":"09374134","name":"Mantel, M","type":"Markt"},"district":{"key":"09374","name":"Neustadt a.d.Waldnaab","type":"Landkreis"},"federalState":{"key":"09","name":"Bayern"}},{"name":"Sägstr.","postalCode":"92708","locality":"Mantel","municipality":{"key":"09374134","name":"Mantel, M","type":"Markt"},"district":{"key":"09374","name":"Neustadt a.d.Waldnaab","type":"Landkreis"},"federalState":{"key":"09","name":"Bayern"}},{"name":"Sandweg","postalCode":"92708","locality":"Mantel","municipality":{"key":"09374134","name":"Mantel, M","type":"Markt"},"district":{"key":"09374","name":"Neustadt a.d.Waldnaab","type":"Landkreis"},"federalState":{"key":"09","name":"Bayern"}},{"name":"Schlossäckerring","postalCode":"92708","locality":"Mantel","municipality":{"key":"09374134","name":"Mantel, M","type":"Markt"},"district":{"key":"09374","name":"Neustadt a.d.Waldnaab","type":"Landkreis"},"federalState":{"key":"09","name":"Bayern"}},{"name":"Schulanger","postalCode":"92708","locality":"Mantel","municipality":{"key":"09374134","name":"Mantel, M","type":"Markt"},"district":{"key":"09374","name":"Neustadt a.d.Waldnaab","type":"Landkreis"},"federalState":{"key":"09","name":"Bayern"}},{"name":"Schulstr.","postalCode":"92708","locality":"Mantel","municipality":{"key":"09374134","name":"Mantel, M","type":"Markt"},"district":{"key":"09374","name":"Neustadt a.d.Waldnaab","type":"Landkreis"},"federalState":{"key":"09","name":"Bayern"}},{"name":"Schwalbenweg","postalCode":"92708","locality":"Mantel","municipality":{"key":"09374134","name":"Mantel, M","type":"Markt"},"district":{"key":"09374","name":"Neustadt a.d.Waldnaab","type":"Landkreis"},"federalState":{"key":"09","name":"Bayern"}},{"name":"Siedlerweg","postalCode":"92708","locality":"Mantel","municipality":{"key":"09374134","name":"Mantel, M","type":"Markt"},"district":{"key":"09374","name":"Neustadt a.d.Waldnaab","type":"Landkreis"},"federalState":{"key":"09","name":"Bayern"}},{"name":"Sonnenstr.","postalCode":"92708","locality":"Mantel","municipality":{"key":"09374134","name":"Mantel, M","type":"Markt"},"district":{"key":"09374","name":"Neustadt a.d.Waldnaab","type":"Landkreis"},"federalState":{"key":"09","name":"Bayern"}},{"name":"Sophie-Scholl-Str.","postalCode":"92708","locality":"Mantel","municipality":{"key":"09374134","name":"Mantel, M","type":"Markt"},"district":{"key":"09374","name":"Neustadt a.d.Waldnaab","type":"Landkreis"},"federalState":{"key":"09","name":"Bayern"}},{"name":"Sperberweg","postalCode":"92708","locality":"Mantel","municipality":{"key":"09374134","name":"Mantel, M","type":"Markt"},"district":{"key":"09374","name":"Neustadt a.d.Waldnaab","type":"Landkreis"},"federalState":{"key":"09","name":"Bayern"}},{"name":"Starenweg","postalCode":"92708","locality":"Mantel","municipality":{"key":"09374134","name":"Mantel, M","type":"Markt"},"district":{"key":"09374","name":"Neustadt a.d.Waldnaab","type":"Landkreis"},"federalState":{"key":"09","name":"Bayern"}},{"name":"Steinfels","postalCode":"92708","locality":"Mantel","municipality":{"key":"09374134","name":"Mantel, M","type":"Markt"},"district":{"key":"09374","name":"Neustadt a.d.Waldnaab","type":"Landkreis"},"federalState":{"key":"09","name":"Bayern"}},{"name":"Steinstr.","postalCode":"92708","locality":"Mantel","municipality":{"key":"09374134","name":"Mantel, M","type":"Markt"},"district":{"key":"09374","name":"Neustadt a.d.Waldnaab","type":"Landkreis"},"federalState":{"key":"09","name":"Bayern"}},{"name":"Sternstr.","postalCode":"92708","locality":"Mantel","municipality":{"key":"09374134","name":"Mantel, M","type":"Markt"},"district":{"key":"09374","name":"Neustadt a.d.Waldnaab","type":"Landkreis"},"federalState":{"key":"09","name":"Bayern"}},{"name":"Trippacher Weg","postalCode":"92708","locality":"Mantel","municipality":{"key":"09374134","name":"Mantel, M","type":"Markt"},"district":{"key":"09374","name":"Neustadt a.d.Waldnaab","type":"Landkreis"},"federalState":{"key":"09","name":"Bayern"}},{"name":"Tulpenstr.","postalCode":"92708","locality":"Mantel","municipality":{"key":"09374134","name":"Mantel, M","type":"Markt"},"district":{"key":"09374","name":"Neustadt a.d.Waldnaab","type":"Landkreis"},"federalState":{"key":"09","name":"Bayern"}},{"name":"Waldstr.","postalCode":"92708","locality":"Mantel","municipality":{"key":"09374134","name":"Mantel, M","type":"Markt"},"district":{"key":"09374","name":"Neustadt a.d.Waldnaab","type":"Landkreis"},"federalState":{"key":"09","name":"Bayern"}},{"name":"Weidener Str.","postalCode":"92708","locality":"Mantel","municipality":{"key":"09374134","name":"Mantel, M","type":"Markt"},"district":{"key":"09374","name":"Neustadt a.d.Waldnaab","type":"Landkreis"},"federalState":{"key":"09","name":"Bayern"}},{"name":"Weiherweg","postalCode":"92708","locality":"Mantel","municipality":{"key":"09374134","name":"Mantel, M","type":"Markt"},"district":{"key":"09374","name":"Neustadt a.d.Waldnaab","type":"Landkreis"},"federalState":{"key":"09","name":"Bayern"}},{"name":"Weinstr.","postalCode":"92708","locality":"Mantel","municipality":{"key":"09374134","name":"Mantel, M","type":"Markt"},"district":{"key":"09374","name":"Neustadt a.d.Waldnaab","type":"Landkreis"},"federalState":{"key":"09","name":"Bayern"}},{"name":"Wiesenstr.","postalCode":"92708","locality":"Mantel","municipality":{"key":"09374134","name":"Mantel, M","type":"Markt"},"district":{"key":"09374","name":"Neustadt a.d.Waldnaab","type":"Landkreis"},"federalState":{"key":"09","name":"Bayern"}},]