[{"name":"Dorfstr.","postalCode":"17209","locality":"Walow","municipality":{"key":"13071155","name":"Walow","type":"Kreisangehörige_Gemeinde"},"district":{"key":"13071","name":"Mecklenburgische Seenplatte","type":"Landkreis"},"federalState":{"key":"13","name":"Mecklenburg-Vorpommern"}},{"name":"Forsthofer Str.","postalCode":"17209","locality":"Walow","municipality":{"key":"13071155","name":"Walow","type":"Kreisangehörige_Gemeinde"},"district":{"key":"13071","name":"Mecklenburgische Seenplatte","type":"Landkreis"},"federalState":{"key":"13","name":"Mecklenburg-Vorpommern"}},{"name":"Hinrichsberger Weg","postalCode":"17209","locality":"Walow","municipality":{"key":"13071155","name":"Walow","type":"Kreisangehörige_Gemeinde"},"district":{"key":"13071","name":"Mecklenburgische Seenplatte","type":"Landkreis"},"federalState":{"key":"13","name":"Mecklenburg-Vorpommern"}},{"name":"Im Lekkerland","postalCode":"17209","locality":"Walow","municipality":{"key":"13071155","name":"Walow","type":"Kreisangehörige_Gemeinde"},"district":{"key":"13071","name":"Mecklenburgische Seenplatte","type":"Landkreis"},"federalState":{"key":"13","name":"Mecklenburg-Vorpommern"}},{"name":"Kisserower Str.","postalCode":"17209","locality":"Walow","municipality":{"key":"13071155","name":"Walow","type":"Kreisangehörige_Gemeinde"},"district":{"key":"13071","name":"Mecklenburgische Seenplatte","type":"Landkreis"},"federalState":{"key":"13","name":"Mecklenburg-Vorpommern"}},{"name":"Kisserower Weg","postalCode":"17209","locality":"Walow","municipality":{"key":"13071155","name":"Walow","type":"Kreisangehörige_Gemeinde"},"district":{"key":"13071","name":"Mecklenburgische Seenplatte","type":"Landkreis"},"federalState":{"key":"13","name":"Mecklenburg-Vorpommern"}},{"name":"Lexower Str.","postalCode":"17209","locality":"Walow","municipality":{"key":"13071155","name":"Walow","type":"Kreisangehörige_Gemeinde"},"district":{"key":"13071","name":"Mecklenburgische Seenplatte","type":"Landkreis"},"federalState":{"key":"13","name":"Mecklenburg-Vorpommern"}},{"name":"Lindenweg","postalCode":"17209","locality":"Walow","municipality":{"key":"13071155","name":"Walow","type":"Kreisangehörige_Gemeinde"},"district":{"key":"13071","name":"Mecklenburgische Seenplatte","type":"Landkreis"},"federalState":{"key":"13","name":"Mecklenburg-Vorpommern"}},{"name":"Malchower Str.","postalCode":"17209","locality":"Walow","municipality":{"key":"13071155","name":"Walow","type":"Kreisangehörige_Gemeinde"},"district":{"key":"13071","name":"Mecklenburgische Seenplatte","type":"Landkreis"},"federalState":{"key":"13","name":"Mecklenburg-Vorpommern"}},{"name":"Roezer Weg","postalCode":"17209","locality":"Walow","municipality":{"key":"13071155","name":"Walow","type":"Kreisangehörige_Gemeinde"},"district":{"key":"13071","name":"Mecklenburgische Seenplatte","type":"Landkreis"},"federalState":{"key":"13","name":"Mecklenburg-Vorpommern"}},{"name":"Schloßstr.","postalCode":"17209","locality":"Walow","municipality":{"key":"13071155","name":"Walow","type":"Kreisangehörige_Gemeinde"},"district":{"key":"13071","name":"Mecklenburgische Seenplatte","type":"Landkreis"},"federalState":{"key":"13","name":"Mecklenburg-Vorpommern"}},{"name":"Schwalbenweg","postalCode":"17209","locality":"Walow","municipality":{"key":"13071155","name":"Walow","type":"Kreisangehörige_Gemeinde"},"district":{"key":"13071","name":"Mecklenburgische Seenplatte","type":"Landkreis"},"federalState":{"key":"13","name":"Mecklenburg-Vorpommern"}},{"name":"Seestr.","postalCode":"17209","locality":"Walow","municipality":{"key":"13071155","name":"Walow","type":"Kreisangehörige_Gemeinde"},"district":{"key":"13071","name":"Mecklenburgische Seenplatte","type":"Landkreis"},"federalState":{"key":"13","name":"Mecklenburg-Vorpommern"}},{"name":"Sietower Weg","postalCode":"17209","locality":"Walow","municipality":{"key":"13071155","name":"Walow","type":"Kreisangehörige_Gemeinde"},"district":{"key":"13071","name":"Mecklenburgische Seenplatte","type":"Landkreis"},"federalState":{"key":"13","name":"Mecklenburg-Vorpommern"}},{"name":"Strietfeld","postalCode":"17209","locality":"Walow","municipality":{"key":"13071155","name":"Walow","type":"Kreisangehörige_Gemeinde"},"district":{"key":"13071","name":"Mecklenburgische Seenplatte","type":"Landkreis"},"federalState":{"key":"13","name":"Mecklenburg-Vorpommern"}},{"name":"Woldzegartener Chaussee","postalCode":"17209","locality":"Walow","municipality":{"key":"13071155","name":"Walow","type":"Kreisangehörige_Gemeinde"},"district":{"key":"13071","name":"Mecklenburgische Seenplatte","type":"Landkreis"},"federalState":{"key":"13","name":"Mecklenburg-Vorpommern"}},{"name":"Zinnowitzer Str.","postalCode":"17209","locality":"Walow","municipality":{"key":"13071155","name":"Walow","type":"Kreisangehörige_Gemeinde"},"district":{"key":"13071","name":"Mecklenburgische Seenplatte","type":"Landkreis"},"federalState":{"key":"13","name":"Mecklenburg-Vorpommern"}},]