[{"name":"Ahornweg","postalCode":"73489","locality":"Jagstzell","municipality":{"key":"08136035","name":"Jagstzell","type":"Kreisangehörige_Gemeinde"},"district":{"key":"08136","name":"Ostalbkreis","type":"Landkreis"},"federalState":{"key":"08","name":"Baden-Württemberg"}},{"name":"Alte Gasse","postalCode":"73489","locality":"Jagstzell","municipality":{"key":"08136035","name":"Jagstzell","type":"Kreisangehörige_Gemeinde"},"district":{"key":"08136","name":"Ostalbkreis","type":"Landkreis"},"federalState":{"key":"08","name":"Baden-Württemberg"}},{"name":"Am Gaisberg","postalCode":"73489","locality":"Jagstzell","municipality":{"key":"08136035","name":"Jagstzell","type":"Kreisangehörige_Gemeinde"},"district":{"key":"08136","name":"Ostalbkreis","type":"Landkreis"},"federalState":{"key":"08","name":"Baden-Württemberg"}},{"name":"Am Kerlesbach","postalCode":"73489","locality":"Jagstzell","municipality":{"key":"08136035","name":"Jagstzell","type":"Kreisangehörige_Gemeinde"},"district":{"key":"08136","name":"Ostalbkreis","type":"Landkreis"},"federalState":{"key":"08","name":"Baden-Württemberg"}},{"name":"Am Lohweiher","postalCode":"73489","locality":"Jagstzell","municipality":{"key":"08136035","name":"Jagstzell","type":"Kreisangehörige_Gemeinde"},"district":{"key":"08136","name":"Ostalbkreis","type":"Landkreis"},"federalState":{"key":"08","name":"Baden-Württemberg"}},{"name":"An der Jagstbrücke","postalCode":"73489","locality":"Jagstzell","municipality":{"key":"08136035","name":"Jagstzell","type":"Kreisangehörige_Gemeinde"},"district":{"key":"08136","name":"Ostalbkreis","type":"Landkreis"},"federalState":{"key":"08","name":"Baden-Württemberg"}},{"name":"Andreas-Prühl-Str.","postalCode":"73489","locality":"Jagstzell","municipality":{"key":"08136035","name":"Jagstzell","type":"Kreisangehörige_Gemeinde"},"district":{"key":"08136","name":"Ostalbkreis","type":"Landkreis"},"federalState":{"key":"08","name":"Baden-Württemberg"}},{"name":"Badgasse","postalCode":"73489","locality":"Jagstzell","municipality":{"key":"08136035","name":"Jagstzell","type":"Kreisangehörige_Gemeinde"},"district":{"key":"08136","name":"Ostalbkreis","type":"Landkreis"},"federalState":{"key":"08","name":"Baden-Württemberg"}},{"name":"Beckenteich-Weg","postalCode":"73489","locality":"Jagstzell","municipality":{"key":"08136035","name":"Jagstzell","type":"Kreisangehörige_Gemeinde"},"district":{"key":"08136","name":"Ostalbkreis","type":"Landkreis"},"federalState":{"key":"08","name":"Baden-Württemberg"}},{"name":"Beethovenstr.","postalCode":"73489","locality":"Jagstzell","municipality":{"key":"08136035","name":"Jagstzell","type":"Kreisangehörige_Gemeinde"},"district":{"key":"08136","name":"Ostalbkreis","type":"Landkreis"},"federalState":{"key":"08","name":"Baden-Württemberg"}},{"name":"Bergstr.","postalCode":"73489","locality":"Jagstzell","municipality":{"key":"08136035","name":"Jagstzell","type":"Kreisangehörige_Gemeinde"},"district":{"key":"08136","name":"Ostalbkreis","type":"Landkreis"},"federalState":{"key":"08","name":"Baden-Württemberg"}},{"name":"Birkenweg","postalCode":"73489","locality":"Jagstzell","municipality":{"key":"08136035","name":"Jagstzell","type":"Kreisangehörige_Gemeinde"},"district":{"key":"08136","name":"Ostalbkreis","type":"Landkreis"},"federalState":{"key":"08","name":"Baden-Württemberg"}},{"name":"Buchgehrenweg","postalCode":"73489","locality":"Jagstzell","municipality":{"key":"08136035","name":"Jagstzell","type":"Kreisangehörige_Gemeinde"},"district":{"key":"08136","name":"Ostalbkreis","type":"Landkreis"},"federalState":{"key":"08","name":"Baden-Württemberg"}},{"name":"Buschle","postalCode":"73489","locality":"Jagstzell","municipality":{"key":"08136035","name":"Jagstzell","type":"Kreisangehörige_Gemeinde"},"district":{"key":"08136","name":"Ostalbkreis","type":"Landkreis"},"federalState":{"key":"08","name":"Baden-Württemberg"}},{"name":"Christgasse","postalCode":"73489","locality":"Jagstzell","municipality":{"key":"08136035","name":"Jagstzell","type":"Kreisangehörige_Gemeinde"},"district":{"key":"08136","name":"Ostalbkreis","type":"Landkreis"},"federalState":{"key":"08","name":"Baden-Württemberg"}},{"name":"Crailsheimer Str.","postalCode":"73489","locality":"Jagstzell","municipality":{"key":"08136035","name":"Jagstzell","type":"Kreisangehörige_Gemeinde"},"district":{"key":"08136","name":"Ostalbkreis","type":"Landkreis"},"federalState":{"key":"08","name":"Baden-Württemberg"}},{"name":"Dankoltsweiler Sägmühle","postalCode":"73489","locality":"Jagstzell","municipality":{"key":"08136035","name":"Jagstzell","type":"Kreisangehörige_Gemeinde"},"district":{"key":"08136","name":"Ostalbkreis","type":"Landkreis"},"federalState":{"key":"08","name":"Baden-Württemberg"}},{"name":"Dicker Buschweg","postalCode":"73489","locality":"Jagstzell","municipality":{"key":"08136035","name":"Jagstzell","type":"Kreisangehörige_Gemeinde"},"district":{"key":"08136","name":"Ostalbkreis","type":"Landkreis"},"federalState":{"key":"08","name":"Baden-Württemberg"}},{"name":"Ellwanger Weg","postalCode":"73489","locality":"Jagstzell","municipality":{"key":"08136035","name":"Jagstzell","type":"Kreisangehörige_Gemeinde"},"district":{"key":"08136","name":"Ostalbkreis","type":"Landkreis"},"federalState":{"key":"08","name":"Baden-Württemberg"}},{"name":"Fichtenweg","postalCode":"73489","locality":"Jagstzell","municipality":{"key":"08136035","name":"Jagstzell","type":"Kreisangehörige_Gemeinde"},"district":{"key":"08136","name":"Ostalbkreis","type":"Landkreis"},"federalState":{"key":"08","name":"Baden-Württemberg"}},{"name":"Franz-Fischer-Weg","postalCode":"73489","locality":"Jagstzell","municipality":{"key":"08136035","name":"Jagstzell","type":"Kreisangehörige_Gemeinde"},"district":{"key":"08136","name":"Ostalbkreis","type":"Landkreis"},"federalState":{"key":"08","name":"Baden-Württemberg"}},{"name":"Gartenstr.","postalCode":"73489","locality":"Jagstzell","municipality":{"key":"08136035","name":"Jagstzell","type":"Kreisangehörige_Gemeinde"},"district":{"key":"08136","name":"Ostalbkreis","type":"Landkreis"},"federalState":{"key":"08","name":"Baden-Württemberg"}},{"name":"Goethestr.","postalCode":"73489","locality":"Jagstzell","municipality":{"key":"08136035","name":"Jagstzell","type":"Kreisangehörige_Gemeinde"},"district":{"key":"08136","name":"Ostalbkreis","type":"Landkreis"},"federalState":{"key":"08","name":"Baden-Württemberg"}},{"name":"Grüner Weg","postalCode":"73489","locality":"Jagstzell","municipality":{"key":"08136035","name":"Jagstzell","type":"Kreisangehörige_Gemeinde"},"district":{"key":"08136","name":"Ostalbkreis","type":"Landkreis"},"federalState":{"key":"08","name":"Baden-Württemberg"}},{"name":"Hauptstr.","postalCode":"73489","locality":"Jagstzell","municipality":{"key":"08136035","name":"Jagstzell","type":"Kreisangehörige_Gemeinde"},"district":{"key":"08136","name":"Ostalbkreis","type":"Landkreis"},"federalState":{"key":"08","name":"Baden-Württemberg"}},{"name":"Hundsbrunnenweg","postalCode":"73489","locality":"Jagstzell","municipality":{"key":"08136035","name":"Jagstzell","type":"Kreisangehörige_Gemeinde"},"district":{"key":"08136","name":"Ostalbkreis","type":"Landkreis"},"federalState":{"key":"08","name":"Baden-Württemberg"}},{"name":"Industriestr.","postalCode":"73489","locality":"Jagstzell","municipality":{"key":"08136035","name":"Jagstzell","type":"Kreisangehörige_Gemeinde"},"district":{"key":"08136","name":"Ostalbkreis","type":"Landkreis"},"federalState":{"key":"08","name":"Baden-Württemberg"}},{"name":"Kapellenweg","postalCode":"73489","locality":"Jagstzell","municipality":{"key":"08136035","name":"Jagstzell","type":"Kreisangehörige_Gemeinde"},"district":{"key":"08136","name":"Ostalbkreis","type":"Landkreis"},"federalState":{"key":"08","name":"Baden-Württemberg"}},{"name":"Keueräckerweg","postalCode":"73489","locality":"Jagstzell","municipality":{"key":"08136035","name":"Jagstzell","type":"Kreisangehörige_Gemeinde"},"district":{"key":"08136","name":"Ostalbkreis","type":"Landkreis"},"federalState":{"key":"08","name":"Baden-Württemberg"}},{"name":"Kiefernweg","postalCode":"73489","locality":"Jagstzell","municipality":{"key":"08136035","name":"Jagstzell","type":"Kreisangehörige_Gemeinde"},"district":{"key":"08136","name":"Ostalbkreis","type":"Landkreis"},"federalState":{"key":"08","name":"Baden-Württemberg"}},{"name":"Knausbergsteige","postalCode":"73489","locality":"Jagstzell","municipality":{"key":"08136035","name":"Jagstzell","type":"Kreisangehörige_Gemeinde"},"district":{"key":"08136","name":"Ostalbkreis","type":"Landkreis"},"federalState":{"key":"08","name":"Baden-Württemberg"}},{"name":"Knausbergstr.","postalCode":"73489","locality":"Jagstzell","municipality":{"key":"08136035","name":"Jagstzell","type":"Kreisangehörige_Gemeinde"},"district":{"key":"08136","name":"Ostalbkreis","type":"Landkreis"},"federalState":{"key":"08","name":"Baden-Württemberg"}},{"name":"Kohläckerstr.","postalCode":"73489","locality":"Jagstzell","municipality":{"key":"08136035","name":"Jagstzell","type":"Kreisangehörige_Gemeinde"},"district":{"key":"08136","name":"Ostalbkreis","type":"Landkreis"},"federalState":{"key":"08","name":"Baden-Württemberg"}},{"name":"Kreuzklingenweg","postalCode":"73489","locality":"Jagstzell","municipality":{"key":"08136035","name":"Jagstzell","type":"Kreisangehörige_Gemeinde"},"district":{"key":"08136","name":"Ostalbkreis","type":"Landkreis"},"federalState":{"key":"08","name":"Baden-Württemberg"}},{"name":"Lange Gasse","postalCode":"73489","locality":"Jagstzell","municipality":{"key":"08136035","name":"Jagstzell","type":"Kreisangehörige_Gemeinde"},"district":{"key":"08136","name":"Ostalbkreis","type":"Landkreis"},"federalState":{"key":"08","name":"Baden-Württemberg"}},{"name":"Lindenstr.","postalCode":"73489","locality":"Jagstzell","municipality":{"key":"08136035","name":"Jagstzell","type":"Kreisangehörige_Gemeinde"},"district":{"key":"08136","name":"Ostalbkreis","type":"Landkreis"},"federalState":{"key":"08","name":"Baden-Württemberg"}},{"name":"Mächelweg","postalCode":"73489","locality":"Jagstzell","municipality":{"key":"08136035","name":"Jagstzell","type":"Kreisangehörige_Gemeinde"},"district":{"key":"08136","name":"Ostalbkreis","type":"Landkreis"},"federalState":{"key":"08","name":"Baden-Württemberg"}},{"name":"Matzenbacher Sträßchen","postalCode":"73489","locality":"Jagstzell","municipality":{"key":"08136035","name":"Jagstzell","type":"Kreisangehörige_Gemeinde"},"district":{"key":"08136","name":"Ostalbkreis","type":"Landkreis"},"federalState":{"key":"08","name":"Baden-Württemberg"}},{"name":"Mörikeweg","postalCode":"73489","locality":"Jagstzell","municipality":{"key":"08136035","name":"Jagstzell","type":"Kreisangehörige_Gemeinde"},"district":{"key":"08136","name":"Ostalbkreis","type":"Landkreis"},"federalState":{"key":"08","name":"Baden-Württemberg"}},{"name":"Mozartstr.","postalCode":"73489","locality":"Jagstzell","municipality":{"key":"08136035","name":"Jagstzell","type":"Kreisangehörige_Gemeinde"},"district":{"key":"08136","name":"Ostalbkreis","type":"Landkreis"},"federalState":{"key":"08","name":"Baden-Württemberg"}},{"name":"Mühlstr.","postalCode":"73489","locality":"Jagstzell","municipality":{"key":"08136035","name":"Jagstzell","type":"Kreisangehörige_Gemeinde"},"district":{"key":"08136","name":"Ostalbkreis","type":"Landkreis"},"federalState":{"key":"08","name":"Baden-Württemberg"}},{"name":"Oberer Triebweg","postalCode":"73489","locality":"Jagstzell","municipality":{"key":"08136035","name":"Jagstzell","type":"Kreisangehörige_Gemeinde"},"district":{"key":"08136","name":"Ostalbkreis","type":"Landkreis"},"federalState":{"key":"08","name":"Baden-Württemberg"}},{"name":"Oberer Weiler","postalCode":"73489","locality":"Jagstzell","municipality":{"key":"08136035","name":"Jagstzell","type":"Kreisangehörige_Gemeinde"},"district":{"key":"08136","name":"Ostalbkreis","type":"Landkreis"},"federalState":{"key":"08","name":"Baden-Württemberg"}},{"name":"Panoramastr.","postalCode":"73489","locality":"Jagstzell","municipality":{"key":"08136035","name":"Jagstzell","type":"Kreisangehörige_Gemeinde"},"district":{"key":"08136","name":"Ostalbkreis","type":"Landkreis"},"federalState":{"key":"08","name":"Baden-Württemberg"}},{"name":"Rappenklingen-Weg","postalCode":"73489","locality":"Jagstzell","municipality":{"key":"08136035","name":"Jagstzell","type":"Kreisangehörige_Gemeinde"},"district":{"key":"08136","name":"Ostalbkreis","type":"Landkreis"},"federalState":{"key":"08","name":"Baden-Württemberg"}},{"name":"Rechenberger Str.","postalCode":"73489","locality":"Jagstzell","municipality":{"key":"08136035","name":"Jagstzell","type":"Kreisangehörige_Gemeinde"},"district":{"key":"08136","name":"Ostalbkreis","type":"Landkreis"},"federalState":{"key":"08","name":"Baden-Württemberg"}},{"name":"Rennecker Weg","postalCode":"73489","locality":"Jagstzell","municipality":{"key":"08136035","name":"Jagstzell","type":"Kreisangehörige_Gemeinde"},"district":{"key":"08136","name":"Ostalbkreis","type":"Landkreis"},"federalState":{"key":"08","name":"Baden-Württemberg"}},{"name":"Rennlesbuckweg","postalCode":"73489","locality":"Jagstzell","municipality":{"key":"08136035","name":"Jagstzell","type":"Kreisangehörige_Gemeinde"},"district":{"key":"08136","name":"Ostalbkreis","type":"Landkreis"},"federalState":{"key":"08","name":"Baden-Württemberg"}},{"name":"Richard-Wagner-Str.","postalCode":"73489","locality":"Jagstzell","municipality":{"key":"08136035","name":"Jagstzell","type":"Kreisangehörige_Gemeinde"},"district":{"key":"08136","name":"Ostalbkreis","type":"Landkreis"},"federalState":{"key":"08","name":"Baden-Württemberg"}},{"name":"Riegelhof","postalCode":"73489","locality":"Jagstzell","municipality":{"key":"08136035","name":"Jagstzell","type":"Kreisangehörige_Gemeinde"},"district":{"key":"08136","name":"Ostalbkreis","type":"Landkreis"},"federalState":{"key":"08","name":"Baden-Württemberg"}},{"name":"Riegersheimer Halde","postalCode":"73489","locality":"Jagstzell","municipality":{"key":"08136035","name":"Jagstzell","type":"Kreisangehörige_Gemeinde"},"district":{"key":"08136","name":"Ostalbkreis","type":"Landkreis"},"federalState":{"key":"08","name":"Baden-Württemberg"}},{"name":"Riegersheimer Weg","postalCode":"73489","locality":"Jagstzell","municipality":{"key":"08136035","name":"Jagstzell","type":"Kreisangehörige_Gemeinde"},"district":{"key":"08136","name":"Ostalbkreis","type":"Landkreis"},"federalState":{"key":"08","name":"Baden-Württemberg"}},{"name":"Riemenfeldstr.","postalCode":"73489","locality":"Jagstzell","municipality":{"key":"08136035","name":"Jagstzell","type":"Kreisangehörige_Gemeinde"},"district":{"key":"08136","name":"Ostalbkreis","type":"Landkreis"},"federalState":{"key":"08","name":"Baden-Württemberg"}},{"name":"Rindelbacher Str.","postalCode":"73489","locality":"Jagstzell","municipality":{"key":"08136035","name":"Jagstzell","type":"Kreisangehörige_Gemeinde"},"district":{"key":"08136","name":"Ostalbkreis","type":"Landkreis"},"federalState":{"key":"08","name":"Baden-Württemberg"}},{"name":"Rosenberger Str.","postalCode":"73489","locality":"Jagstzell","municipality":{"key":"08136035","name":"Jagstzell","type":"Kreisangehörige_Gemeinde"},"district":{"key":"08136","name":"Ostalbkreis","type":"Landkreis"},"federalState":{"key":"08","name":"Baden-Württemberg"}},{"name":"Rotbachsägmühle","postalCode":"73489","locality":"Jagstzell","municipality":{"key":"08136035","name":"Jagstzell","type":"Kreisangehörige_Gemeinde"},"district":{"key":"08136","name":"Ostalbkreis","type":"Landkreis"},"federalState":{"key":"08","name":"Baden-Württemberg"}},{"name":"Rotfeldweg","postalCode":"73489","locality":"Jagstzell","municipality":{"key":"08136035","name":"Jagstzell","type":"Kreisangehörige_Gemeinde"},"district":{"key":"08136","name":"Ostalbkreis","type":"Landkreis"},"federalState":{"key":"08","name":"Baden-Württemberg"}},{"name":"Schillerstr.","postalCode":"73489","locality":"Jagstzell","municipality":{"key":"08136035","name":"Jagstzell","type":"Kreisangehörige_Gemeinde"},"district":{"key":"08136","name":"Ostalbkreis","type":"Landkreis"},"federalState":{"key":"08","name":"Baden-Württemberg"}},{"name":"Schmiedgasse","postalCode":"73489","locality":"Jagstzell","municipality":{"key":"08136035","name":"Jagstzell","type":"Kreisangehörige_Gemeinde"},"district":{"key":"08136","name":"Ostalbkreis","type":"Landkreis"},"federalState":{"key":"08","name":"Baden-Württemberg"}},{"name":"Schubartstr.","postalCode":"73489","locality":"Jagstzell","municipality":{"key":"08136035","name":"Jagstzell","type":"Kreisangehörige_Gemeinde"},"district":{"key":"08136","name":"Ostalbkreis","type":"Landkreis"},"federalState":{"key":"08","name":"Baden-Württemberg"}},{"name":"Schulsteige","postalCode":"73489","locality":"Jagstzell","municipality":{"key":"08136035","name":"Jagstzell","type":"Kreisangehörige_Gemeinde"},"district":{"key":"08136","name":"Ostalbkreis","type":"Landkreis"},"federalState":{"key":"08","name":"Baden-Württemberg"}},{"name":"Schulstr.","postalCode":"73489","locality":"Jagstzell","municipality":{"key":"08136035","name":"Jagstzell","type":"Kreisangehörige_Gemeinde"},"district":{"key":"08136","name":"Ostalbkreis","type":"Landkreis"},"federalState":{"key":"08","name":"Baden-Württemberg"}},{"name":"Sonnenhalde","postalCode":"73489","locality":"Jagstzell","municipality":{"key":"08136035","name":"Jagstzell","type":"Kreisangehörige_Gemeinde"},"district":{"key":"08136","name":"Ostalbkreis","type":"Landkreis"},"federalState":{"key":"08","name":"Baden-Württemberg"}},{"name":"Sonnenrain","postalCode":"73489","locality":"Jagstzell","municipality":{"key":"08136035","name":"Jagstzell","type":"Kreisangehörige_Gemeinde"},"district":{"key":"08136","name":"Ostalbkreis","type":"Landkreis"},"federalState":{"key":"08","name":"Baden-Württemberg"}},{"name":"Stöckle","postalCode":"73489","locality":"Jagstzell","municipality":{"key":"08136035","name":"Jagstzell","type":"Kreisangehörige_Gemeinde"},"district":{"key":"08136","name":"Ostalbkreis","type":"Landkreis"},"federalState":{"key":"08","name":"Baden-Württemberg"}},{"name":"Storrenbuck","postalCode":"73489","locality":"Jagstzell","municipality":{"key":"08136035","name":"Jagstzell","type":"Kreisangehörige_Gemeinde"},"district":{"key":"08136","name":"Ostalbkreis","type":"Landkreis"},"federalState":{"key":"08","name":"Baden-Württemberg"}},{"name":"Strütweg","postalCode":"73489","locality":"Jagstzell","municipality":{"key":"08136035","name":"Jagstzell","type":"Kreisangehörige_Gemeinde"},"district":{"key":"08136","name":"Ostalbkreis","type":"Landkreis"},"federalState":{"key":"08","name":"Baden-Württemberg"}},{"name":"Talblick","postalCode":"73489","locality":"Jagstzell","municipality":{"key":"08136035","name":"Jagstzell","type":"Kreisangehörige_Gemeinde"},"district":{"key":"08136","name":"Ostalbkreis","type":"Landkreis"},"federalState":{"key":"08","name":"Baden-Württemberg"}},{"name":"Triebweg","postalCode":"73489","locality":"Jagstzell","municipality":{"key":"08136035","name":"Jagstzell","type":"Kreisangehörige_Gemeinde"},"district":{"key":"08136","name":"Ostalbkreis","type":"Landkreis"},"federalState":{"key":"08","name":"Baden-Württemberg"}},{"name":"Uhlandweg","postalCode":"73489","locality":"Jagstzell","municipality":{"key":"08136035","name":"Jagstzell","type":"Kreisangehörige_Gemeinde"},"district":{"key":"08136","name":"Ostalbkreis","type":"Landkreis"},"federalState":{"key":"08","name":"Baden-Württemberg"}},{"name":"Unterer Weiler","postalCode":"73489","locality":"Jagstzell","municipality":{"key":"08136035","name":"Jagstzell","type":"Kreisangehörige_Gemeinde"},"district":{"key":"08136","name":"Ostalbkreis","type":"Landkreis"},"federalState":{"key":"08","name":"Baden-Württemberg"}},{"name":"Verbindungsweg HW 4","postalCode":"73489","locality":"Jagstzell","municipality":{"key":"08136035","name":"Jagstzell","type":"Kreisangehörige_Gemeinde"},"district":{"key":"08136","name":"Ostalbkreis","type":"Landkreis"},"federalState":{"key":"08","name":"Baden-Württemberg"}},{"name":"Wacholderweg","postalCode":"73489","locality":"Jagstzell","municipality":{"key":"08136035","name":"Jagstzell","type":"Kreisangehörige_Gemeinde"},"district":{"key":"08136","name":"Ostalbkreis","type":"Landkreis"},"federalState":{"key":"08","name":"Baden-Württemberg"}},{"name":"Wartfeldweg","postalCode":"73489","locality":"Jagstzell","municipality":{"key":"08136035","name":"Jagstzell","type":"Kreisangehörige_Gemeinde"},"district":{"key":"08136","name":"Ostalbkreis","type":"Landkreis"},"federalState":{"key":"08","name":"Baden-Württemberg"}},{"name":"Weidweg","postalCode":"73489","locality":"Jagstzell","municipality":{"key":"08136035","name":"Jagstzell","type":"Kreisangehörige_Gemeinde"},"district":{"key":"08136","name":"Ostalbkreis","type":"Landkreis"},"federalState":{"key":"08","name":"Baden-Württemberg"}},{"name":"Weiherweg","postalCode":"73489","locality":"Jagstzell","municipality":{"key":"08136035","name":"Jagstzell","type":"Kreisangehörige_Gemeinde"},"district":{"key":"08136","name":"Ostalbkreis","type":"Landkreis"},"federalState":{"key":"08","name":"Baden-Württemberg"}},{"name":"Wiesenweg","postalCode":"73489","locality":"Jagstzell","municipality":{"key":"08136035","name":"Jagstzell","type":"Kreisangehörige_Gemeinde"},"district":{"key":"08136","name":"Ostalbkreis","type":"Landkreis"},"federalState":{"key":"08","name":"Baden-Württemberg"}},{"name":"Winterberg","postalCode":"73489","locality":"Jagstzell","municipality":{"key":"08136035","name":"Jagstzell","type":"Kreisangehörige_Gemeinde"},"district":{"key":"08136","name":"Ostalbkreis","type":"Landkreis"},"federalState":{"key":"08","name":"Baden-Württemberg"}},]