[{"name":"Ahornstr.","postalCode":"84149","locality":"Velden","municipality":{"key":"09274183","name":"Velden, M","type":"Markt"},"district":{"key":"09274","name":"Landshut","type":"Landkreis"},"federalState":{"key":"09","name":"Bayern"}},{"name":"Ahornweg","postalCode":"91235","locality":"Velden","municipality":{"key":"09574160","name":"Velden, St","type":"Stadt"},"district":{"key":"09574","name":"Nürnberger Land","type":"Landkreis"},"federalState":{"key":"09","name":"Bayern"}},{"name":"Am Anger","postalCode":"84149","locality":"Velden","municipality":{"key":"09274183","name":"Velden, M","type":"Markt"},"district":{"key":"09274","name":"Landshut","type":"Landkreis"},"federalState":{"key":"09","name":"Bayern"}},{"name":"Am Birkenberg","postalCode":"84149","locality":"Velden","municipality":{"key":"09274183","name":"Velden, M","type":"Markt"},"district":{"key":"09274","name":"Landshut","type":"Landkreis"},"federalState":{"key":"09","name":"Bayern"}},{"name":"Am Doppl","postalCode":"84149","locality":"Velden","municipality":{"key":"09274183","name":"Velden, M","type":"Markt"},"district":{"key":"09274","name":"Landshut","type":"Landkreis"},"federalState":{"key":"09","name":"Bayern"}},{"name":"Am Forsteracker","postalCode":"84149","locality":"Velden","municipality":{"key":"09274183","name":"Velden, M","type":"Markt"},"district":{"key":"09274","name":"Landshut","type":"Landkreis"},"federalState":{"key":"09","name":"Bayern"}},{"name":"Am Hochfeld","postalCode":"84149","locality":"Velden","municipality":{"key":"09274183","name":"Velden, M","type":"Markt"},"district":{"key":"09274","name":"Landshut","type":"Landkreis"},"federalState":{"key":"09","name":"Bayern"}},{"name":"Am Kornfeld","postalCode":"84149","locality":"Velden","municipality":{"key":"09274183","name":"Velden, M","type":"Markt"},"district":{"key":"09274","name":"Landshut","type":"Landkreis"},"federalState":{"key":"09","name":"Bayern"}},{"name":"Am Schulgarten","postalCode":"54472","locality":"Veldenz","municipality":{"key":"07231126","name":"Veldenz","type":"Kreisangehörige_Gemeinde"},"district":{"key":"07231","name":"Bernkastel-Wittlich","type":"Landkreis"},"federalState":{"key":"07","name":"Rheinland-Pfalz"}},{"name":"Amselweg","postalCode":"84149","locality":"Velden","municipality":{"key":"09274183","name":"Velden, M","type":"Markt"},"district":{"key":"09274","name":"Landshut","type":"Landkreis"},"federalState":{"key":"09","name":"Bayern"}},{"name":"Am Tannenturm","postalCode":"91235","locality":"Velden","municipality":{"key":"09574160","name":"Velden, St","type":"Stadt"},"district":{"key":"09574","name":"Nürnberger Land","type":"Landkreis"},"federalState":{"key":"09","name":"Bayern"}},{"name":"Am Veldenzer Bach","postalCode":"54472","locality":"Veldenz","municipality":{"key":"07231126","name":"Veldenz","type":"Kreisangehörige_Gemeinde"},"district":{"key":"07231","name":"Bernkastel-Wittlich","type":"Landkreis"},"federalState":{"key":"07","name":"Rheinland-Pfalz"}},{"name":"Am Wachtberg","postalCode":"91235","locality":"Velden","municipality":{"key":"09574160","name":"Velden, St","type":"Stadt"},"district":{"key":"09574","name":"Nürnberger Land","type":"Landkreis"},"federalState":{"key":"09","name":"Bayern"}},{"name":"Arberstr.","postalCode":"84149","locality":"Velden","municipality":{"key":"09274183","name":"Velden, M","type":"Markt"},"district":{"key":"09274","name":"Landshut","type":"Landkreis"},"federalState":{"key":"09","name":"Bayern"}},{"name":"Auf der Olk","postalCode":"54472","locality":"Veldenz","municipality":{"key":"07231126","name":"Veldenz","type":"Kreisangehörige_Gemeinde"},"district":{"key":"07231","name":"Bernkastel-Wittlich","type":"Landkreis"},"federalState":{"key":"07","name":"Rheinland-Pfalz"}},{"name":"Babinger Str.","postalCode":"84149","locality":"Velden","municipality":{"key":"09274183","name":"Velden, M","type":"Markt"},"district":{"key":"09274","name":"Landshut","type":"Landkreis"},"federalState":{"key":"09","name":"Bayern"}},{"name":"Bachstr.","postalCode":"84149","locality":"Velden","municipality":{"key":"09274183","name":"Velden, M","type":"Markt"},"district":{"key":"09274","name":"Landshut","type":"Landkreis"},"federalState":{"key":"09","name":"Bayern"}},{"name":"Baderstr.","postalCode":"84149","locality":"Velden","municipality":{"key":"09274183","name":"Velden, M","type":"Markt"},"district":{"key":"09274","name":"Landshut","type":"Landkreis"},"federalState":{"key":"09","name":"Bayern"}},{"name":"Bahnhofstr.","postalCode":"84149","locality":"Velden","municipality":{"key":"09274183","name":"Velden, M","type":"Markt"},"district":{"key":"09274","name":"Landshut","type":"Landkreis"},"federalState":{"key":"09","name":"Bayern"}},{"name":"Bahnhofstr.","postalCode":"91235","locality":"Velden","municipality":{"key":"09574160","name":"Velden, St","type":"Stadt"},"district":{"key":"09574","name":"Nürnberger Land","type":"Landkreis"},"federalState":{"key":"09","name":"Bayern"}},{"name":"Bayernwaldring","postalCode":"84149","locality":"Velden","municipality":{"key":"09274183","name":"Velden, M","type":"Markt"},"district":{"key":"09274","name":"Landshut","type":"Landkreis"},"federalState":{"key":"09","name":"Bayern"}},{"name":"Bergstr.","postalCode":"54472","locality":"Veldenz","municipality":{"key":"07231126","name":"Veldenz","type":"Kreisangehörige_Gemeinde"},"district":{"key":"07231","name":"Bernkastel-Wittlich","type":"Landkreis"},"federalState":{"key":"07","name":"Rheinland-Pfalz"}},{"name":"Bergstr.","postalCode":"91235","locality":"Velden","municipality":{"key":"09574160","name":"Velden, St","type":"Stadt"},"district":{"key":"09574","name":"Nürnberger Land","type":"Landkreis"},"federalState":{"key":"09","name":"Bayern"}},{"name":"Bindergasse","postalCode":"84149","locality":"Velden","municipality":{"key":"09274183","name":"Velden, M","type":"Markt"},"district":{"key":"09274","name":"Landshut","type":"Landkreis"},"federalState":{"key":"09","name":"Bayern"}},{"name":"Birkenstr.","postalCode":"84149","locality":"Velden","municipality":{"key":"09274183","name":"Velden, M","type":"Markt"},"district":{"key":"09274","name":"Landshut","type":"Landkreis"},"federalState":{"key":"09","name":"Bayern"}},{"name":"Birkenweg","postalCode":"84149","locality":"Velden","municipality":{"key":"09274183","name":"Velden, M","type":"Markt"},"district":{"key":"09274","name":"Landshut","type":"Landkreis"},"federalState":{"key":"09","name":"Bayern"}},{"name":"Birkenweg","postalCode":"91235","locality":"Velden","municipality":{"key":"09574160","name":"Velden, St","type":"Stadt"},"district":{"key":"09574","name":"Nürnberger Land","type":"Landkreis"},"federalState":{"key":"09","name":"Bayern"}},{"name":"Blumenweg","postalCode":"84149","locality":"Velden","municipality":{"key":"09274183","name":"Velden, M","type":"Markt"},"district":{"key":"09274","name":"Landshut","type":"Landkreis"},"federalState":{"key":"09","name":"Bayern"}},{"name":"Bogenbergstr.","postalCode":"84149","locality":"Velden","municipality":{"key":"09274183","name":"Velden, M","type":"Markt"},"district":{"key":"09274","name":"Landshut","type":"Landkreis"},"federalState":{"key":"09","name":"Bayern"}},{"name":"Bogengasse","postalCode":"54472","locality":"Veldenz","municipality":{"key":"07231126","name":"Veldenz","type":"Kreisangehörige_Gemeinde"},"district":{"key":"07231","name":"Bernkastel-Wittlich","type":"Landkreis"},"federalState":{"key":"07","name":"Rheinland-Pfalz"}},{"name":"Brauerstr.","postalCode":"84149","locality":"Velden","municipality":{"key":"09274183","name":"Velden, M","type":"Markt"},"district":{"key":"09274","name":"Landshut","type":"Landkreis"},"federalState":{"key":"09","name":"Bayern"}},{"name":"Brückenstr.","postalCode":"54472","locality":"Veldenz","municipality":{"key":"07231126","name":"Veldenz","type":"Kreisangehörige_Gemeinde"},"district":{"key":"07231","name":"Bernkastel-Wittlich","type":"Landkreis"},"federalState":{"key":"07","name":"Rheinland-Pfalz"}},{"name":"Buchbacher Str.","postalCode":"84149","locality":"Velden","municipality":{"key":"09274183","name":"Velden, M","type":"Markt"},"district":{"key":"09274","name":"Landshut","type":"Landkreis"},"federalState":{"key":"09","name":"Bayern"}},{"name":"Buchenstr.","postalCode":"91235","locality":"Velden","municipality":{"key":"09574160","name":"Velden, St","type":"Stadt"},"district":{"key":"09574","name":"Nürnberger Land","type":"Landkreis"},"federalState":{"key":"09","name":"Bayern"}},{"name":"Buchgraben","postalCode":"91257","locality":"Veldensteiner Forst","municipality":{"key":"09472468","name":"Veldensteinerforst","type":"Gemeindefreies_Gebiet_Unbewohnt"},"district":{"key":"09472","name":"Bayreuth","type":"Landkreis"},"federalState":{"key":"09","name":"Bayern"}},{"name":"Daimerweg","postalCode":"84149","locality":"Velden","municipality":{"key":"09274183","name":"Velden, M","type":"Markt"},"district":{"key":"09274","name":"Landshut","type":"Landkreis"},"federalState":{"key":"09","name":"Bayern"}},{"name":"Dekan-Maier-Str.","postalCode":"84149","locality":"Velden","municipality":{"key":"09274183","name":"Velden, M","type":"Markt"},"district":{"key":"09274","name":"Landshut","type":"Landkreis"},"federalState":{"key":"09","name":"Bayern"}},{"name":"Dinkelring","postalCode":"84149","locality":"Velden","municipality":{"key":"09274183","name":"Velden, M","type":"Markt"},"district":{"key":"09274","name":"Landshut","type":"Landkreis"},"federalState":{"key":"09","name":"Bayern"}},{"name":"Doktor-Sturm-Str.","postalCode":"84149","locality":"Velden","municipality":{"key":"09274183","name":"Velden, M","type":"Markt"},"district":{"key":"09274","name":"Landshut","type":"Landkreis"},"federalState":{"key":"09","name":"Bayern"}},{"name":"Dorfstr.","postalCode":"84149","locality":"Velden","municipality":{"key":"09274183","name":"Velden, M","type":"Markt"},"district":{"key":"09274","name":"Landshut","type":"Landkreis"},"federalState":{"key":"09","name":"Bayern"}},{"name":"Drechslerstr.","postalCode":"84149","locality":"Velden","municipality":{"key":"09274183","name":"Velden, M","type":"Markt"},"district":{"key":"09274","name":"Landshut","type":"Landkreis"},"federalState":{"key":"09","name":"Bayern"}},{"name":"Dreisesselstr.","postalCode":"84149","locality":"Velden","municipality":{"key":"09274183","name":"Velden, M","type":"Markt"},"district":{"key":"09274","name":"Landshut","type":"Landkreis"},"federalState":{"key":"09","name":"Bayern"}},{"name":"Eichenweg","postalCode":"84149","locality":"Velden","municipality":{"key":"09274183","name":"Velden, M","type":"Markt"},"district":{"key":"09274","name":"Landshut","type":"Landkreis"},"federalState":{"key":"09","name":"Bayern"}},{"name":"Eichgasse","postalCode":"91235","locality":"Velden","municipality":{"key":"09574160","name":"Velden, St","type":"Stadt"},"district":{"key":"09574","name":"Nürnberger Land","type":"Landkreis"},"federalState":{"key":"09","name":"Bayern"}},{"name":"Emmerstr.","postalCode":"84149","locality":"Velden","municipality":{"key":"09274183","name":"Velden, M","type":"Markt"},"district":{"key":"09274","name":"Landshut","type":"Landkreis"},"federalState":{"key":"09","name":"Bayern"}},{"name":"Eschenweg","postalCode":"84149","locality":"Velden","municipality":{"key":"09274183","name":"Velden, M","type":"Markt"},"district":{"key":"09274","name":"Landshut","type":"Landkreis"},"federalState":{"key":"09","name":"Bayern"}},{"name":"Esterbergring","postalCode":"84149","locality":"Velden","municipality":{"key":"09274183","name":"Velden, M","type":"Markt"},"district":{"key":"09274","name":"Landshut","type":"Landkreis"},"federalState":{"key":"09","name":"Bayern"}},{"name":"Falkensteinstr.","postalCode":"84149","locality":"Velden","municipality":{"key":"09274183","name":"Velden, M","type":"Markt"},"district":{"key":"09274","name":"Landshut","type":"Landkreis"},"federalState":{"key":"09","name":"Bayern"}},{"name":"Färberanger","postalCode":"84149","locality":"Velden","municipality":{"key":"09274183","name":"Velden, M","type":"Markt"},"district":{"key":"09274","name":"Landshut","type":"Landkreis"},"federalState":{"key":"09","name":"Bayern"}},{"name":"Feiteler Weg","postalCode":"54472","locality":"Veldenz","municipality":{"key":"07231126","name":"Veldenz","type":"Kreisangehörige_Gemeinde"},"district":{"key":"07231","name":"Bernkastel-Wittlich","type":"Landkreis"},"federalState":{"key":"07","name":"Rheinland-Pfalz"}},{"name":"Feldstr.","postalCode":"54472","locality":"Veldenz","municipality":{"key":"07231126","name":"Veldenz","type":"Kreisangehörige_Gemeinde"},"district":{"key":"07231","name":"Bernkastel-Wittlich","type":"Landkreis"},"federalState":{"key":"07","name":"Rheinland-Pfalz"}},{"name":"Felsenweg","postalCode":"91235","locality":"Velden","municipality":{"key":"09574160","name":"Velden, St","type":"Stadt"},"district":{"key":"09574","name":"Nürnberger Land","type":"Landkreis"},"federalState":{"key":"09","name":"Bayern"}},{"name":"Fichtenweg","postalCode":"84149","locality":"Velden","municipality":{"key":"09274183","name":"Velden, M","type":"Markt"},"district":{"key":"09274","name":"Landshut","type":"Landkreis"},"federalState":{"key":"09","name":"Bayern"}},{"name":"Finkenstr.","postalCode":"84149","locality":"Velden","municipality":{"key":"09274183","name":"Velden, M","type":"Markt"},"district":{"key":"09274","name":"Landshut","type":"Landkreis"},"federalState":{"key":"09","name":"Bayern"}},{"name":"Finkenweg","postalCode":"84149","locality":"Velden","municipality":{"key":"09274183","name":"Velden, M","type":"Markt"},"district":{"key":"09274","name":"Landshut","type":"Landkreis"},"federalState":{"key":"09","name":"Bayern"}},{"name":"Fliederstr.","postalCode":"84149","locality":"Velden","municipality":{"key":"09274183","name":"Velden, M","type":"Markt"},"district":{"key":"09274","name":"Landshut","type":"Landkreis"},"federalState":{"key":"09","name":"Bayern"}},{"name":"Fliederweg","postalCode":"91235","locality":"Velden","municipality":{"key":"09574160","name":"Velden, St","type":"Stadt"},"district":{"key":"09574","name":"Nürnberger Land","type":"Landkreis"},"federalState":{"key":"09","name":"Bayern"}},{"name":"Flurstr.","postalCode":"84149","locality":"Velden","municipality":{"key":"09274183","name":"Velden, M","type":"Markt"},"district":{"key":"09274","name":"Landshut","type":"Landkreis"},"federalState":{"key":"09","name":"Bayern"}},{"name":"Flurwiesen","postalCode":"54472","locality":"Veldenz","municipality":{"key":"07231126","name":"Veldenz","type":"Kreisangehörige_Gemeinde"},"district":{"key":"07231","name":"Bernkastel-Wittlich","type":"Landkreis"},"federalState":{"key":"07","name":"Rheinland-Pfalz"}},{"name":"Föhrenweg","postalCode":"91235","locality":"Velden","municipality":{"key":"09574160","name":"Velden, St","type":"Stadt"},"district":{"key":"09574","name":"Nürnberger Land","type":"Landkreis"},"federalState":{"key":"09","name":"Bayern"}},{"name":"Forellenstr.","postalCode":"91257","locality":"Veldensteiner Forst","municipality":{"key":"09472468","name":"Veldensteinerforst","type":"Gemeindefreies_Gebiet_Unbewohnt"},"district":{"key":"09472","name":"Bayreuth","type":"Landkreis"},"federalState":{"key":"09","name":"Bayern"}},{"name":"Freizeitanlage Roter Bohles","postalCode":"54472","locality":"Veldenz","municipality":{"key":"07231126","name":"Veldenz","type":"Kreisangehörige_Gemeinde"},"district":{"key":"07231","name":"Bernkastel-Wittlich","type":"Landkreis"},"federalState":{"key":"07","name":"Rheinland-Pfalz"}},{"name":"Friedhofstr.","postalCode":"91235","locality":"Velden","municipality":{"key":"09574160","name":"Velden, St","type":"Stadt"},"district":{"key":"09574","name":"Nürnberger Land","type":"Landkreis"},"federalState":{"key":"09","name":"Bayern"}},{"name":"Gartenstr.","postalCode":"54472","locality":"Veldenz","municipality":{"key":"07231126","name":"Veldenz","type":"Kreisangehörige_Gemeinde"},"district":{"key":"07231","name":"Bernkastel-Wittlich","type":"Landkreis"},"federalState":{"key":"07","name":"Rheinland-Pfalz"}},{"name":"Gartenstr.","postalCode":"91235","locality":"Velden","municipality":{"key":"09574160","name":"Velden, St","type":"Stadt"},"district":{"key":"09574","name":"Nürnberger Land","type":"Landkreis"},"federalState":{"key":"09","name":"Bayern"}},{"name":"Gartenweg","postalCode":"84149","locality":"Velden","municipality":{"key":"09274183","name":"Velden, M","type":"Markt"},"district":{"key":"09274","name":"Landshut","type":"Landkreis"},"federalState":{"key":"09","name":"Bayern"}},{"name":"Georg-Brenninger-Str.","postalCode":"84149","locality":"Velden","municipality":{"key":"09274183","name":"Velden, M","type":"Markt"},"district":{"key":"09274","name":"Landshut","type":"Landkreis"},"federalState":{"key":"09","name":"Bayern"}},{"name":"Georg-Ehrenthaler-Str.","postalCode":"84149","locality":"Velden","municipality":{"key":"09274183","name":"Velden, M","type":"Markt"},"district":{"key":"09274","name":"Landshut","type":"Landkreis"},"federalState":{"key":"09","name":"Bayern"}},{"name":"Gerstenstr.","postalCode":"84149","locality":"Velden","municipality":{"key":"09274183","name":"Velden, M","type":"Markt"},"district":{"key":"09274","name":"Landshut","type":"Landkreis"},"federalState":{"key":"09","name":"Bayern"}},{"name":"Gewerbering","postalCode":"84149","locality":"Velden","municipality":{"key":"09274183","name":"Velden, M","type":"Markt"},"district":{"key":"09274","name":"Landshut","type":"Landkreis"},"federalState":{"key":"09","name":"Bayern"}},{"name":"Glaserstr.","postalCode":"84149","locality":"Velden","municipality":{"key":"09274183","name":"Velden, M","type":"Markt"},"district":{"key":"09274","name":"Landshut","type":"Landkreis"},"federalState":{"key":"09","name":"Bayern"}},{"name":"Goldschmiedstr.","postalCode":"84149","locality":"Velden","municipality":{"key":"09274183","name":"Velden, M","type":"Markt"},"district":{"key":"09274","name":"Landshut","type":"Landkreis"},"federalState":{"key":"09","name":"Bayern"}},{"name":"Graf-Eberhard-Str.","postalCode":"84149","locality":"Velden","municipality":{"key":"09274183","name":"Velden, M","type":"Markt"},"district":{"key":"09274","name":"Landshut","type":"Landkreis"},"federalState":{"key":"09","name":"Bayern"}},{"name":"Grafenweg","postalCode":"54472","locality":"Veldenz","municipality":{"key":"07231126","name":"Veldenz","type":"Kreisangehörige_Gemeinde"},"district":{"key":"07231","name":"Bernkastel-Wittlich","type":"Landkreis"},"federalState":{"key":"07","name":"Rheinland-Pfalz"}},{"name":"Hafnerstr.","postalCode":"84149","locality":"Velden","municipality":{"key":"09274183","name":"Velden, M","type":"Markt"},"district":{"key":"09274","name":"Landshut","type":"Landkreis"},"federalState":{"key":"09","name":"Bayern"}},{"name":"Haideck","postalCode":"84149","locality":"Velden","municipality":{"key":"09274183","name":"Velden, M","type":"Markt"},"district":{"key":"09274","name":"Landshut","type":"Landkreis"},"federalState":{"key":"09","name":"Bayern"}},{"name":"Haldenweber","postalCode":"84149","locality":"Velden","municipality":{"key":"09274183","name":"Velden, M","type":"Markt"},"district":{"key":"09274","name":"Landshut","type":"Landkreis"},"federalState":{"key":"09","name":"Bayern"}},{"name":"Hammerschgasse","postalCode":"54472","locality":"Veldenz","municipality":{"key":"07231126","name":"Veldenz","type":"Kreisangehörige_Gemeinde"},"district":{"key":"07231","name":"Bernkastel-Wittlich","type":"Landkreis"},"federalState":{"key":"07","name":"Rheinland-Pfalz"}},{"name":"Hauptstr.","postalCode":"54472","locality":"Veldenz","municipality":{"key":"07231126","name":"Veldenz","type":"Kreisangehörige_Gemeinde"},"district":{"key":"07231","name":"Bernkastel-Wittlich","type":"Landkreis"},"federalState":{"key":"07","name":"Rheinland-Pfalz"}},{"name":"Hauptstr.","postalCode":"84149","locality":"Velden","municipality":{"key":"09274183","name":"Velden, M","type":"Markt"},"district":{"key":"09274","name":"Landshut","type":"Landkreis"},"federalState":{"key":"09","name":"Bayern"}},{"name":"Heinz-Neidhardt-Ring","postalCode":"91235","locality":"Velden","municipality":{"key":"09574160","name":"Velden, St","type":"Stadt"},"district":{"key":"09574","name":"Nürnberger Land","type":"Landkreis"},"federalState":{"key":"09","name":"Bayern"}},{"name":"Henneberg","postalCode":"91235","locality":"Velden","municipality":{"key":"09574160","name":"Velden, St","type":"Stadt"},"district":{"key":"09574","name":"Nürnberger Land","type":"Landkreis"},"federalState":{"key":"09","name":"Bayern"}},{"name":"Hintergasse","postalCode":"54472","locality":"Veldenz","municipality":{"key":"07231126","name":"Veldenz","type":"Kreisangehörige_Gemeinde"},"district":{"key":"07231","name":"Bernkastel-Wittlich","type":"Landkreis"},"federalState":{"key":"07","name":"Rheinland-Pfalz"}},{"name":"Hochstr.","postalCode":"84149","locality":"Velden","municipality":{"key":"09274183","name":"Velden, M","type":"Markt"},"district":{"key":"09274","name":"Landshut","type":"Landkreis"},"federalState":{"key":"09","name":"Bayern"}},{"name":"Hofbruck","postalCode":"84149","locality":"Velden","municipality":{"key":"09274183","name":"Velden, M","type":"Markt"},"district":{"key":"09274","name":"Landshut","type":"Landkreis"},"federalState":{"key":"09","name":"Bayern"}},{"name":"Hofweg","postalCode":"54472","locality":"Veldenz","municipality":{"key":"07231126","name":"Veldenz","type":"Kreisangehörige_Gemeinde"},"district":{"key":"07231","name":"Bernkastel-Wittlich","type":"Landkreis"},"federalState":{"key":"07","name":"Rheinland-Pfalz"}},{"name":"Hohensteinweg","postalCode":"84149","locality":"Velden","municipality":{"key":"09274183","name":"Velden, M","type":"Markt"},"district":{"key":"09274","name":"Landshut","type":"Landkreis"},"federalState":{"key":"09","name":"Bayern"}},{"name":"Hollandstr.","postalCode":"54472","locality":"Veldenz","municipality":{"key":"07231126","name":"Veldenz","type":"Kreisangehörige_Gemeinde"},"district":{"key":"07231","name":"Bernkastel-Wittlich","type":"Landkreis"},"federalState":{"key":"07","name":"Rheinland-Pfalz"}},{"name":"Holunderweg","postalCode":"91235","locality":"Velden","municipality":{"key":"09574160","name":"Velden, St","type":"Stadt"},"district":{"key":"09574","name":"Nürnberger Land","type":"Landkreis"},"federalState":{"key":"09","name":"Bayern"}},{"name":"Hopfenring","postalCode":"84149","locality":"Velden","municipality":{"key":"09274183","name":"Velden, M","type":"Markt"},"district":{"key":"09274","name":"Landshut","type":"Landkreis"},"federalState":{"key":"09","name":"Bayern"}},{"name":"Hufschmiedstr.","postalCode":"84149","locality":"Velden","municipality":{"key":"09274183","name":"Velden, M","type":"Markt"},"district":{"key":"09274","name":"Landshut","type":"Landkreis"},"federalState":{"key":"09","name":"Bayern"}},{"name":"Hügelweg","postalCode":"54472","locality":"Veldenz","municipality":{"key":"07231126","name":"Veldenz","type":"Kreisangehörige_Gemeinde"},"district":{"key":"07231","name":"Bernkastel-Wittlich","type":"Landkreis"},"federalState":{"key":"07","name":"Rheinland-Pfalz"}},{"name":"Im Bann","postalCode":"54472","locality":"Veldenz","municipality":{"key":"07231126","name":"Veldenz","type":"Kreisangehörige_Gemeinde"},"district":{"key":"07231","name":"Bernkastel-Wittlich","type":"Landkreis"},"federalState":{"key":"07","name":"Rheinland-Pfalz"}},{"name":"Im Teich","postalCode":"91235","locality":"Velden","municipality":{"key":"09574160","name":"Velden, St","type":"Stadt"},"district":{"key":"09574","name":"Nürnberger Land","type":"Landkreis"},"federalState":{"key":"09","name":"Bayern"}},{"name":"In den Banngärten","postalCode":"54472","locality":"Veldenz","municipality":{"key":"07231126","name":"Veldenz","type":"Kreisangehörige_Gemeinde"},"district":{"key":"07231","name":"Bernkastel-Wittlich","type":"Landkreis"},"federalState":{"key":"07","name":"Rheinland-Pfalz"}},{"name":"In der Trift","postalCode":"54472","locality":"Veldenz","municipality":{"key":"07231126","name":"Veldenz","type":"Kreisangehörige_Gemeinde"},"district":{"key":"07231","name":"Bernkastel-Wittlich","type":"Landkreis"},"federalState":{"key":"07","name":"Rheinland-Pfalz"}},{"name":"Industriestr.","postalCode":"84149","locality":"Velden","municipality":{"key":"09274183","name":"Velden, M","type":"Markt"},"district":{"key":"09274","name":"Landshut","type":"Landkreis"},"federalState":{"key":"09","name":"Bayern"}},{"name":"Jacob-Eckart-Str.","postalCode":"91235","locality":"Velden","municipality":{"key":"09574160","name":"Velden, St","type":"Stadt"},"district":{"key":"09574","name":"Nürnberger Land","type":"Landkreis"},"federalState":{"key":"09","name":"Bayern"}},{"name":"Jahnstr.","postalCode":"84149","locality":"Velden","municipality":{"key":"09274183","name":"Velden, M","type":"Markt"},"district":{"key":"09274","name":"Landshut","type":"Landkreis"},"federalState":{"key":"09","name":"Bayern"}},{"name":"Johann-Weger-Str.","postalCode":"84149","locality":"Velden","municipality":{"key":"09274183","name":"Velden, M","type":"Markt"},"district":{"key":"09274","name":"Landshut","type":"Landkreis"},"federalState":{"key":"09","name":"Bayern"}},{"name":"Jöhstädter Str.","postalCode":"91235","locality":"Velden","municipality":{"key":"09574160","name":"Velden, St","type":"Stadt"},"district":{"key":"09574","name":"Nürnberger Land","type":"Landkreis"},"federalState":{"key":"09","name":"Bayern"}},{"name":"Josef-Böckl-Str.","postalCode":"84149","locality":"Velden","municipality":{"key":"09274183","name":"Velden, M","type":"Markt"},"district":{"key":"09274","name":"Landshut","type":"Landkreis"},"federalState":{"key":"09","name":"Bayern"}},{"name":"Kellerbergstr.","postalCode":"84149","locality":"Velden","municipality":{"key":"09274183","name":"Velden, M","type":"Markt"},"district":{"key":"09274","name":"Landshut","type":"Landkreis"},"federalState":{"key":"09","name":"Bayern"}},{"name":"Kirchenweg","postalCode":"84149","locality":"Velden","municipality":{"key":"09274183","name":"Velden, M","type":"Markt"},"district":{"key":"09274","name":"Landshut","type":"Landkreis"},"federalState":{"key":"09","name":"Bayern"}},{"name":"Kirchfeldweg","postalCode":"84149","locality":"Velden","municipality":{"key":"09274183","name":"Velden, M","type":"Markt"},"district":{"key":"09274","name":"Landshut","type":"Landkreis"},"federalState":{"key":"09","name":"Bayern"}},{"name":"Kirchgasse","postalCode":"91235","locality":"Velden","municipality":{"key":"09574160","name":"Velden, St","type":"Stadt"},"district":{"key":"09574","name":"Nürnberger Land","type":"Landkreis"},"federalState":{"key":"09","name":"Bayern"}},{"name":"Kirchplatz","postalCode":"84149","locality":"Velden","municipality":{"key":"09274183","name":"Velden, M","type":"Markt"},"district":{"key":"09274","name":"Landshut","type":"Landkreis"},"federalState":{"key":"09","name":"Bayern"}},{"name":"Kirchstr.","postalCode":"84149","locality":"Velden","municipality":{"key":"09274183","name":"Velden, M","type":"Markt"},"district":{"key":"09274","name":"Landshut","type":"Landkreis"},"federalState":{"key":"09","name":"Bayern"}},{"name":"Kleinvelden","postalCode":"84149","locality":"Velden","municipality":{"key":"09274183","name":"Velden, M","type":"Markt"},"district":{"key":"09274","name":"Landshut","type":"Landkreis"},"federalState":{"key":"09","name":"Bayern"}},{"name":"Kornstr.","postalCode":"84149","locality":"Velden","municipality":{"key":"09274183","name":"Velden, M","type":"Markt"},"district":{"key":"09274","name":"Landshut","type":"Landkreis"},"federalState":{"key":"09","name":"Bayern"}},{"name":"Kreuzbergstr.","postalCode":"84149","locality":"Velden","municipality":{"key":"09274183","name":"Velden, M","type":"Markt"},"district":{"key":"09274","name":"Landshut","type":"Landkreis"},"federalState":{"key":"09","name":"Bayern"}},{"name":"Krokusweg","postalCode":"84149","locality":"Velden","municipality":{"key":"09274183","name":"Velden, M","type":"Markt"},"district":{"key":"09274","name":"Landshut","type":"Landkreis"},"federalState":{"key":"09","name":"Bayern"}},{"name":"Landshuter Str.","postalCode":"84149","locality":"Velden","municipality":{"key":"09274183","name":"Velden, M","type":"Markt"},"district":{"key":"09274","name":"Landshut","type":"Landkreis"},"federalState":{"key":"09","name":"Bayern"}},{"name":"Lautereckener Str.","postalCode":"54472","locality":"Veldenz","municipality":{"key":"07231126","name":"Veldenz","type":"Kreisangehörige_Gemeinde"},"district":{"key":"07231","name":"Bernkastel-Wittlich","type":"Landkreis"},"federalState":{"key":"07","name":"Rheinland-Pfalz"}},{"name":"Lebzelterweg","postalCode":"84149","locality":"Velden","municipality":{"key":"09274183","name":"Velden, M","type":"Markt"},"district":{"key":"09274","name":"Landshut","type":"Landkreis"},"federalState":{"key":"09","name":"Bayern"}},{"name":"Leitenweg","postalCode":"91235","locality":"Velden","municipality":{"key":"09574160","name":"Velden, St","type":"Stadt"},"district":{"key":"09574","name":"Nürnberger Land","type":"Landkreis"},"federalState":{"key":"09","name":"Bayern"}},{"name":"Lerchenweg","postalCode":"84149","locality":"Velden","municipality":{"key":"09274183","name":"Velden, M","type":"Markt"},"district":{"key":"09274","name":"Landshut","type":"Landkreis"},"federalState":{"key":"09","name":"Bayern"}},{"name":"Lernbachtaler Str.","postalCode":"84149","locality":"Velden","municipality":{"key":"09274183","name":"Velden, M","type":"Markt"},"district":{"key":"09274","name":"Landshut","type":"Landkreis"},"federalState":{"key":"09","name":"Bayern"}},{"name":"Lilienstr.","postalCode":"84149","locality":"Velden","municipality":{"key":"09274183","name":"Velden, M","type":"Markt"},"district":{"key":"09274","name":"Landshut","type":"Landkreis"},"federalState":{"key":"09","name":"Bayern"}},{"name":"Lindenstr.","postalCode":"84149","locality":"Velden","municipality":{"key":"09274183","name":"Velden, M","type":"Markt"},"district":{"key":"09274","name":"Landshut","type":"Landkreis"},"federalState":{"key":"09","name":"Bayern"}},{"name":"Lindenstr.","postalCode":"91235","locality":"Velden","municipality":{"key":"09574160","name":"Velden, St","type":"Stadt"},"district":{"key":"09574","name":"Nürnberger Land","type":"Landkreis"},"federalState":{"key":"09","name":"Bayern"}},{"name":"Lindenweg","postalCode":"54472","locality":"Veldenz","municipality":{"key":"07231126","name":"Veldenz","type":"Kreisangehörige_Gemeinde"},"district":{"key":"07231","name":"Bernkastel-Wittlich","type":"Landkreis"},"federalState":{"key":"07","name":"Rheinland-Pfalz"}},{"name":"Lindenweg","postalCode":"84149","locality":"Velden","municipality":{"key":"09274183","name":"Velden, M","type":"Markt"},"district":{"key":"09274","name":"Landshut","type":"Landkreis"},"federalState":{"key":"09","name":"Bayern"}},{"name":"Ludwig-List-Str.","postalCode":"84149","locality":"Velden","municipality":{"key":"09274183","name":"Velden, M","type":"Markt"},"district":{"key":"09274","name":"Landshut","type":"Landkreis"},"federalState":{"key":"09","name":"Bayern"}},{"name":"Lusenstr.","postalCode":"84149","locality":"Velden","municipality":{"key":"09274183","name":"Velden, M","type":"Markt"},"district":{"key":"09274","name":"Landshut","type":"Landkreis"},"federalState":{"key":"09","name":"Bayern"}},{"name":"Lützelsteiner Str.","postalCode":"54472","locality":"Veldenz","municipality":{"key":"07231126","name":"Veldenz","type":"Kreisangehörige_Gemeinde"},"district":{"key":"07231","name":"Bernkastel-Wittlich","type":"Landkreis"},"federalState":{"key":"07","name":"Rheinland-Pfalz"}},{"name":"Mälzerstr.","postalCode":"84149","locality":"Velden","municipality":{"key":"09274183","name":"Velden, M","type":"Markt"},"district":{"key":"09274","name":"Landshut","type":"Landkreis"},"federalState":{"key":"09","name":"Bayern"}},{"name":"Marktplatz","postalCode":"84149","locality":"Velden","municipality":{"key":"09274183","name":"Velden, M","type":"Markt"},"district":{"key":"09274","name":"Landshut","type":"Landkreis"},"federalState":{"key":"09","name":"Bayern"}},{"name":"Marktplatz","postalCode":"91235","locality":"Velden","municipality":{"key":"09574160","name":"Velden, St","type":"Stadt"},"district":{"key":"09574","name":"Nürnberger Land","type":"Landkreis"},"federalState":{"key":"09","name":"Bayern"}},{"name":"Metzgergasse","postalCode":"84149","locality":"Velden","municipality":{"key":"09274183","name":"Velden, M","type":"Markt"},"district":{"key":"09274","name":"Landshut","type":"Landkreis"},"federalState":{"key":"09","name":"Bayern"}},{"name":"Mölling","postalCode":"84149","locality":"Velden","municipality":{"key":"09274183","name":"Velden, M","type":"Markt"},"district":{"key":"09274","name":"Landshut","type":"Landkreis"},"federalState":{"key":"09","name":"Bayern"}},{"name":"Mühlenweg","postalCode":"54472","locality":"Veldenz","municipality":{"key":"07231126","name":"Veldenz","type":"Kreisangehörige_Gemeinde"},"district":{"key":"07231","name":"Bernkastel-Wittlich","type":"Landkreis"},"federalState":{"key":"07","name":"Rheinland-Pfalz"}},{"name":"Mühlgasse","postalCode":"91235","locality":"Velden","municipality":{"key":"09574160","name":"Velden, St","type":"Stadt"},"district":{"key":"09574","name":"Nürnberger Land","type":"Landkreis"},"federalState":{"key":"09","name":"Bayern"}},{"name":"Mühltorstr.","postalCode":"91235","locality":"Velden","municipality":{"key":"09574160","name":"Velden, St","type":"Stadt"},"district":{"key":"09574","name":"Nürnberger Land","type":"Landkreis"},"federalState":{"key":"09","name":"Bayern"}},{"name":"Mühlweg","postalCode":"84149","locality":"Velden","municipality":{"key":"09274183","name":"Velden, M","type":"Markt"},"district":{"key":"09274","name":"Landshut","type":"Landkreis"},"federalState":{"key":"09","name":"Bayern"}},{"name":"Münzinghof","postalCode":"91235","locality":"Velden","municipality":{"key":"09574160","name":"Velden, St","type":"Stadt"},"district":{"key":"09574","name":"Nürnberger Land","type":"Landkreis"},"federalState":{"key":"09","name":"Bayern"}},{"name":"Münzstr.","postalCode":"54472","locality":"Veldenz","municipality":{"key":"07231126","name":"Veldenz","type":"Kreisangehörige_Gemeinde"},"district":{"key":"07231","name":"Bernkastel-Wittlich","type":"Landkreis"},"federalState":{"key":"07","name":"Rheinland-Pfalz"}},{"name":"Natternbergstr.","postalCode":"84149","locality":"Velden","municipality":{"key":"09274183","name":"Velden, M","type":"Markt"},"district":{"key":"09274","name":"Landshut","type":"Landkreis"},"federalState":{"key":"09","name":"Bayern"}},{"name":"Nelkenstr.","postalCode":"84149","locality":"Velden","municipality":{"key":"09274183","name":"Velden, M","type":"Markt"},"district":{"key":"09274","name":"Landshut","type":"Landkreis"},"federalState":{"key":"09","name":"Bayern"}},{"name":"Nürnberger Str.","postalCode":"91235","locality":"Velden","municipality":{"key":"09574160","name":"Velden, St","type":"Stadt"},"district":{"key":"09574","name":"Nürnberger Land","type":"Landkreis"},"federalState":{"key":"09","name":"Bayern"}},{"name":"Nußbaumstr.","postalCode":"84149","locality":"Velden","municipality":{"key":"09274183","name":"Velden, M","type":"Markt"},"district":{"key":"09274","name":"Landshut","type":"Landkreis"},"federalState":{"key":"09","name":"Bayern"}},{"name":"Oberbabing","postalCode":"84149","locality":"Velden","municipality":{"key":"09274183","name":"Velden, M","type":"Markt"},"district":{"key":"09274","name":"Landshut","type":"Landkreis"},"federalState":{"key":"09","name":"Bayern"}},{"name":"Obere Bahnhofstr.","postalCode":"91235","locality":"Velden","municipality":{"key":"09574160","name":"Velden, St","type":"Stadt"},"district":{"key":"09574","name":"Nürnberger Land","type":"Landkreis"},"federalState":{"key":"09","name":"Bayern"}},{"name":"Osserstr.","postalCode":"84149","locality":"Velden","municipality":{"key":"09274183","name":"Velden, M","type":"Markt"},"district":{"key":"09274","name":"Landshut","type":"Landkreis"},"federalState":{"key":"09","name":"Bayern"}},{"name":"Pasbergstr.","postalCode":"84149","locality":"Velden","municipality":{"key":"09274183","name":"Velden, M","type":"Markt"},"district":{"key":"09274","name":"Landshut","type":"Landkreis"},"federalState":{"key":"09","name":"Bayern"}},{"name":"Pfaffenhofen","postalCode":"91235","locality":"Velden","municipality":{"key":"09574160","name":"Velden, St","type":"Stadt"},"district":{"key":"09574","name":"Nürnberger Land","type":"Landkreis"},"federalState":{"key":"09","name":"Bayern"}},{"name":"Pfarrer-Maier-Str.","postalCode":"84149","locality":"Velden","municipality":{"key":"09274183","name":"Velden, M","type":"Markt"},"district":{"key":"09274","name":"Landshut","type":"Landkreis"},"federalState":{"key":"09","name":"Bayern"}},{"name":"Pflastererstr.","postalCode":"84149","locality":"Velden","municipality":{"key":"09274183","name":"Velden, M","type":"Markt"},"district":{"key":"09274","name":"Landshut","type":"Landkreis"},"federalState":{"key":"09","name":"Bayern"}},{"name":"Plecher Str.","postalCode":"91235","locality":"Velden","municipality":{"key":"09574160","name":"Velden, St","type":"Stadt"},"district":{"key":"09574","name":"Nürnberger Land","type":"Landkreis"},"federalState":{"key":"09","name":"Bayern"}},{"name":"Posthaltergasse","postalCode":"84149","locality":"Velden","municipality":{"key":"09274183","name":"Velden, M","type":"Markt"},"district":{"key":"09274","name":"Landshut","type":"Landkreis"},"federalState":{"key":"09","name":"Bayern"}},{"name":"Preysing-Allee","postalCode":"84149","locality":"Velden","municipality":{"key":"09274183","name":"Velden, M","type":"Markt"},"district":{"key":"09274","name":"Landshut","type":"Landkreis"},"federalState":{"key":"09","name":"Bayern"}},{"name":"Professor-Sedlmeier-Weg","postalCode":"84149","locality":"Velden","municipality":{"key":"09274183","name":"Velden, M","type":"Markt"},"district":{"key":"09274","name":"Landshut","type":"Landkreis"},"federalState":{"key":"09","name":"Bayern"}},{"name":"Rachelstr.","postalCode":"84149","locality":"Velden","municipality":{"key":"09274183","name":"Velden, M","type":"Markt"},"district":{"key":"09274","name":"Landshut","type":"Landkreis"},"federalState":{"key":"09","name":"Bayern"}},{"name":"Raffelberger Str.","postalCode":"84149","locality":"Velden","municipality":{"key":"09274183","name":"Velden, M","type":"Markt"},"district":{"key":"09274","name":"Landshut","type":"Landkreis"},"federalState":{"key":"09","name":"Bayern"}},{"name":"Raiffeisenplatz","postalCode":"54472","locality":"Veldenz","municipality":{"key":"07231126","name":"Veldenz","type":"Kreisangehörige_Gemeinde"},"district":{"key":"07231","name":"Bernkastel-Wittlich","type":"Landkreis"},"federalState":{"key":"07","name":"Rheinland-Pfalz"}},{"name":"Raiffeisenstr.","postalCode":"54472","locality":"Veldenz","municipality":{"key":"07231126","name":"Veldenz","type":"Kreisangehörige_Gemeinde"},"district":{"key":"07231","name":"Bernkastel-Wittlich","type":"Landkreis"},"federalState":{"key":"07","name":"Rheinland-Pfalz"}},{"name":"Raitenberg","postalCode":"91235","locality":"Velden","municipality":{"key":"09574160","name":"Velden, St","type":"Stadt"},"district":{"key":"09574","name":"Nürnberger Land","type":"Landkreis"},"federalState":{"key":"09","name":"Bayern"}},{"name":"Reitstr.","postalCode":"84149","locality":"Velden","municipality":{"key":"09274183","name":"Velden, M","type":"Markt"},"district":{"key":"09274","name":"Landshut","type":"Landkreis"},"federalState":{"key":"09","name":"Bayern"}},{"name":"Riegergasse","postalCode":"84149","locality":"Velden","municipality":{"key":"09274183","name":"Velden, M","type":"Markt"},"district":{"key":"09274","name":"Landshut","type":"Landkreis"},"federalState":{"key":"09","name":"Bayern"}},{"name":"Riemerweg","postalCode":"84149","locality":"Velden","municipality":{"key":"09274183","name":"Velden, M","type":"Markt"},"district":{"key":"09274","name":"Landshut","type":"Landkreis"},"federalState":{"key":"09","name":"Bayern"}},{"name":"Rosenau","postalCode":"91235","locality":"Velden","municipality":{"key":"09574160","name":"Velden, St","type":"Stadt"},"district":{"key":"09574","name":"Nürnberger Land","type":"Landkreis"},"federalState":{"key":"09","name":"Bayern"}},{"name":"Rosenstr.","postalCode":"54472","locality":"Veldenz","municipality":{"key":"07231126","name":"Veldenz","type":"Kreisangehörige_Gemeinde"},"district":{"key":"07231","name":"Bernkastel-Wittlich","type":"Landkreis"},"federalState":{"key":"07","name":"Rheinland-Pfalz"}},{"name":"Rosenstr.","postalCode":"84149","locality":"Velden","municipality":{"key":"09274183","name":"Velden, M","type":"Markt"},"district":{"key":"09274","name":"Landshut","type":"Landkreis"},"federalState":{"key":"09","name":"Bayern"}},{"name":"Rotgerberstr.","postalCode":"84149","locality":"Velden","municipality":{"key":"09274183","name":"Velden, M","type":"Markt"},"district":{"key":"09274","name":"Landshut","type":"Landkreis"},"federalState":{"key":"09","name":"Bayern"}},{"name":"Ruselstr.","postalCode":"84149","locality":"Velden","municipality":{"key":"09274183","name":"Velden, M","type":"Markt"},"district":{"key":"09274","name":"Landshut","type":"Landkreis"},"federalState":{"key":"09","name":"Bayern"}},{"name":"Sattlergassl","postalCode":"84149","locality":"Velden","municipality":{"key":"09274183","name":"Velden, M","type":"Markt"},"district":{"key":"09274","name":"Landshut","type":"Landkreis"},"federalState":{"key":"09","name":"Bayern"}},{"name":"Schäfflerstr.","postalCode":"84149","locality":"Velden","municipality":{"key":"09274183","name":"Velden, M","type":"Markt"},"district":{"key":"09274","name":"Landshut","type":"Landkreis"},"federalState":{"key":"09","name":"Bayern"}},{"name":"Scheunenweg","postalCode":"91235","locality":"Velden","municipality":{"key":"09574160","name":"Velden, St","type":"Stadt"},"district":{"key":"09574","name":"Nürnberger Land","type":"Landkreis"},"federalState":{"key":"09","name":"Bayern"}},{"name":"Schlehenweg","postalCode":"91235","locality":"Velden","municipality":{"key":"09574160","name":"Velden, St","type":"Stadt"},"district":{"key":"09574","name":"Nürnberger Land","type":"Landkreis"},"federalState":{"key":"09","name":"Bayern"}},{"name":"Schlesierring","postalCode":"84149","locality":"Velden","municipality":{"key":"09274183","name":"Velden, M","type":"Markt"},"district":{"key":"09274","name":"Landshut","type":"Landkreis"},"federalState":{"key":"09","name":"Bayern"}},{"name":"Schlesierweg","postalCode":"84149","locality":"Velden","municipality":{"key":"09274183","name":"Velden, M","type":"Markt"},"district":{"key":"09274","name":"Landshut","type":"Landkreis"},"federalState":{"key":"09","name":"Bayern"}},{"name":"Schloßbergstr.","postalCode":"84149","locality":"Velden","municipality":{"key":"09274183","name":"Velden, M","type":"Markt"},"district":{"key":"09274","name":"Landshut","type":"Landkreis"},"federalState":{"key":"09","name":"Bayern"}},{"name":"Schloßhof","postalCode":"91235","locality":"Velden","municipality":{"key":"09574160","name":"Velden, St","type":"Stadt"},"district":{"key":"09574","name":"Nürnberger Land","type":"Landkreis"},"federalState":{"key":"09","name":"Bayern"}},{"name":"Schloßstr.","postalCode":"54472","locality":"Veldenz","municipality":{"key":"07231126","name":"Veldenz","type":"Kreisangehörige_Gemeinde"},"district":{"key":"07231","name":"Bernkastel-Wittlich","type":"Landkreis"},"federalState":{"key":"07","name":"Rheinland-Pfalz"}},{"name":"Schuberteck","postalCode":"84149","locality":"Velden","municipality":{"key":"09274183","name":"Velden, M","type":"Markt"},"district":{"key":"09274","name":"Landshut","type":"Landkreis"},"federalState":{"key":"09","name":"Bayern"}},{"name":"Schulstr.","postalCode":"54472","locality":"Veldenz","municipality":{"key":"07231126","name":"Veldenz","type":"Kreisangehörige_Gemeinde"},"district":{"key":"07231","name":"Bernkastel-Wittlich","type":"Landkreis"},"federalState":{"key":"07","name":"Rheinland-Pfalz"}},{"name":"Schulstr.","postalCode":"84149","locality":"Velden","municipality":{"key":"09274183","name":"Velden, M","type":"Markt"},"district":{"key":"09274","name":"Landshut","type":"Landkreis"},"federalState":{"key":"09","name":"Bayern"}},{"name":"Schwalbenberg","postalCode":"91235","locality":"Velden","municipality":{"key":"09574160","name":"Velden, St","type":"Stadt"},"district":{"key":"09574","name":"Nürnberger Land","type":"Landkreis"},"federalState":{"key":"09","name":"Bayern"}},{"name":"Schwellergasse","postalCode":"84149","locality":"Velden","municipality":{"key":"09274183","name":"Velden, M","type":"Markt"},"district":{"key":"09274","name":"Landshut","type":"Landkreis"},"federalState":{"key":"09","name":"Bayern"}},{"name":"Seilerstr.","postalCode":"84149","locality":"Velden","municipality":{"key":"09274183","name":"Velden, M","type":"Markt"},"district":{"key":"09274","name":"Landshut","type":"Landkreis"},"federalState":{"key":"09","name":"Bayern"}},{"name":"Silberbergstr.","postalCode":"84149","locality":"Velden","municipality":{"key":"09274183","name":"Velden, M","type":"Markt"},"district":{"key":"09274","name":"Landshut","type":"Landkreis"},"federalState":{"key":"09","name":"Bayern"}},{"name":"Sonnenweg","postalCode":"54472","locality":"Veldenz","municipality":{"key":"07231126","name":"Veldenz","type":"Kreisangehörige_Gemeinde"},"district":{"key":"07231","name":"Bernkastel-Wittlich","type":"Landkreis"},"federalState":{"key":"07","name":"Rheinland-Pfalz"}},{"name":"Spirkavilsweg","postalCode":"84149","locality":"Velden","municipality":{"key":"09274183","name":"Velden, M","type":"Markt"},"district":{"key":"09274","name":"Landshut","type":"Landkreis"},"federalState":{"key":"09","name":"Bayern"}},{"name":"Spitzbergstr.","postalCode":"84149","locality":"Velden","municipality":{"key":"09274183","name":"Velden, M","type":"Markt"},"district":{"key":"09274","name":"Landshut","type":"Landkreis"},"federalState":{"key":"09","name":"Bayern"}},{"name":"Sportplatzstr.","postalCode":"84149","locality":"Velden","municipality":{"key":"09274183","name":"Velden, M","type":"Markt"},"district":{"key":"09274","name":"Landshut","type":"Landkreis"},"federalState":{"key":"09","name":"Bayern"}},{"name":"Steinbergstr.","postalCode":"84149","locality":"Velden","municipality":{"key":"09274183","name":"Velden, M","type":"Markt"},"district":{"key":"09274","name":"Landshut","type":"Landkreis"},"federalState":{"key":"09","name":"Bayern"}},{"name":"St.-Emmeran-Str.","postalCode":"84149","locality":"Velden","municipality":{"key":"09274183","name":"Velden, M","type":"Markt"},"district":{"key":"09274","name":"Landshut","type":"Landkreis"},"federalState":{"key":"09","name":"Bayern"}},{"name":"Stiftstr.","postalCode":"84149","locality":"Velden","municipality":{"key":"09274183","name":"Velden, M","type":"Markt"},"district":{"key":"09274","name":"Landshut","type":"Landkreis"},"federalState":{"key":"09","name":"Bayern"}},{"name":"Sudetenstr.","postalCode":"84149","locality":"Velden","municipality":{"key":"09274183","name":"Velden, M","type":"Markt"},"district":{"key":"09274","name":"Landshut","type":"Landkreis"},"federalState":{"key":"09","name":"Bayern"}},{"name":"Tannenweg","postalCode":"84149","locality":"Velden","municipality":{"key":"09274183","name":"Velden, M","type":"Markt"},"district":{"key":"09274","name":"Landshut","type":"Landkreis"},"federalState":{"key":"09","name":"Bayern"}},{"name":"Theodor-Triebenbacher-Str.","postalCode":"84149","locality":"Velden","municipality":{"key":"09274183","name":"Velden, M","type":"Markt"},"district":{"key":"09274","name":"Landshut","type":"Landkreis"},"federalState":{"key":"09","name":"Bayern"}},{"name":"Trappentreustr.","postalCode":"84149","locality":"Velden","municipality":{"key":"09274183","name":"Velden, M","type":"Markt"},"district":{"key":"09274","name":"Landshut","type":"Landkreis"},"federalState":{"key":"09","name":"Bayern"}},{"name":"Tulpenstr.","postalCode":"84149","locality":"Velden","municipality":{"key":"09274183","name":"Velden, M","type":"Markt"},"district":{"key":"09274","name":"Landshut","type":"Landkreis"},"federalState":{"key":"09","name":"Bayern"}},{"name":"Ulmenstr.","postalCode":"91235","locality":"Velden","municipality":{"key":"09574160","name":"Velden, St","type":"Stadt"},"district":{"key":"09574","name":"Nürnberger Land","type":"Landkreis"},"federalState":{"key":"09","name":"Bayern"}},{"name":"Veilchenweg","postalCode":"84149","locality":"Velden","municipality":{"key":"09274183","name":"Velden, M","type":"Markt"},"district":{"key":"09274","name":"Landshut","type":"Landkreis"},"federalState":{"key":"09","name":"Bayern"}},{"name":"Veldenzer Hammer","postalCode":"54472","locality":"Veldenz","municipality":{"key":"07231126","name":"Veldenz","type":"Kreisangehörige_Gemeinde"},"district":{"key":"07231","name":"Bernkastel-Wittlich","type":"Landkreis"},"federalState":{"key":"07","name":"Rheinland-Pfalz"}},{"name":"Venusbergstr.","postalCode":"84149","locality":"Velden","municipality":{"key":"09274183","name":"Velden, M","type":"Markt"},"district":{"key":"09274","name":"Landshut","type":"Landkreis"},"federalState":{"key":"09","name":"Bayern"}},{"name":"Viehweide","postalCode":"84149","locality":"Velden","municipality":{"key":"09274183","name":"Velden, M","type":"Markt"},"district":{"key":"09274","name":"Landshut","type":"Landkreis"},"federalState":{"key":"09","name":"Bayern"}},{"name":"Vils","postalCode":"84149","locality":"Velden","municipality":{"key":"09274183","name":"Velden, M","type":"Markt"},"district":{"key":"09274","name":"Landshut","type":"Landkreis"},"federalState":{"key":"09","name":"Bayern"}},{"name":"Vilsbiburger Str.","postalCode":"84149","locality":"Velden","municipality":{"key":"09274183","name":"Velden, M","type":"Markt"},"district":{"key":"09274","name":"Landshut","type":"Landkreis"},"federalState":{"key":"09","name":"Bayern"}},{"name":"Vilssteg","postalCode":"84149","locality":"Velden","municipality":{"key":"09274183","name":"Velden, M","type":"Markt"},"district":{"key":"09274","name":"Landshut","type":"Landkreis"},"federalState":{"key":"09","name":"Bayern"}},{"name":"Vilsstr.","postalCode":"84149","locality":"Velden","municipality":{"key":"09274183","name":"Velden, M","type":"Markt"},"district":{"key":"09274","name":"Landshut","type":"Landkreis"},"federalState":{"key":"09","name":"Bayern"}},{"name":"Vilsweg","postalCode":"84149","locality":"Velden","municipality":{"key":"09274183","name":"Velden, M","type":"Markt"},"district":{"key":"09274","name":"Landshut","type":"Landkreis"},"federalState":{"key":"09","name":"Bayern"}},{"name":"Vogelsangstr.","postalCode":"84149","locality":"Velden","municipality":{"key":"09274183","name":"Velden, M","type":"Markt"},"district":{"key":"09274","name":"Landshut","type":"Landkreis"},"federalState":{"key":"09","name":"Bayern"}},{"name":"Wagnerweg","postalCode":"84149","locality":"Velden","municipality":{"key":"09274183","name":"Velden, M","type":"Markt"},"district":{"key":"09274","name":"Landshut","type":"Landkreis"},"federalState":{"key":"09","name":"Bayern"}},{"name":"Waldstr.","postalCode":"84149","locality":"Velden","municipality":{"key":"09274183","name":"Velden, M","type":"Markt"},"district":{"key":"09274","name":"Landshut","type":"Landkreis"},"federalState":{"key":"09","name":"Bayern"}},{"name":"Wassergarten","postalCode":"91235","locality":"Velden","municipality":{"key":"09574160","name":"Velden, St","type":"Stadt"},"district":{"key":"09574","name":"Nürnberger Land","type":"Landkreis"},"federalState":{"key":"09","name":"Bayern"}},{"name":"Watzmannstr.","postalCode":"84149","locality":"Velden","municipality":{"key":"09274183","name":"Velden, M","type":"Markt"},"district":{"key":"09274","name":"Landshut","type":"Landkreis"},"federalState":{"key":"09","name":"Bayern"}},{"name":"Weberstr.","postalCode":"84149","locality":"Velden","municipality":{"key":"09274183","name":"Velden, M","type":"Markt"},"district":{"key":"09274","name":"Landshut","type":"Landkreis"},"federalState":{"key":"09","name":"Bayern"}},{"name":"Weingartenstr.","postalCode":"54472","locality":"Veldenz","municipality":{"key":"07231126","name":"Veldenz","type":"Kreisangehörige_Gemeinde"},"district":{"key":"07231","name":"Bernkastel-Wittlich","type":"Landkreis"},"federalState":{"key":"07","name":"Rheinland-Pfalz"}},{"name":"Wendelsteinstr.","postalCode":"84149","locality":"Velden","municipality":{"key":"09274183","name":"Velden, M","type":"Markt"},"district":{"key":"09274","name":"Landshut","type":"Landkreis"},"federalState":{"key":"09","name":"Bayern"}},{"name":"Wiesenweg","postalCode":"84149","locality":"Velden","municipality":{"key":"09274183","name":"Velden, M","type":"Markt"},"district":{"key":"09274","name":"Landshut","type":"Landkreis"},"federalState":{"key":"09","name":"Bayern"}},{"name":"Winzergasse","postalCode":"54472","locality":"Veldenz","municipality":{"key":"07231126","name":"Veldenz","type":"Kreisangehörige_Gemeinde"},"district":{"key":"07231","name":"Bernkastel-Wittlich","type":"Landkreis"},"federalState":{"key":"07","name":"Rheinland-Pfalz"}},{"name":"Ziegeleistr.","postalCode":"84149","locality":"Velden","municipality":{"key":"09274183","name":"Velden, M","type":"Markt"},"district":{"key":"09274","name":"Landshut","type":"Landkreis"},"federalState":{"key":"09","name":"Bayern"}},{"name":"Zugspitzstr.","postalCode":"84149","locality":"Velden","municipality":{"key":"09274183","name":"Velden, M","type":"Markt"},"district":{"key":"09274","name":"Landshut","type":"Landkreis"},"federalState":{"key":"09","name":"Bayern"}},{"name":"Zum Sonnenberg","postalCode":"54472","locality":"Veldenz","municipality":{"key":"07231126","name":"Veldenz","type":"Kreisangehörige_Gemeinde"},"district":{"key":"07231","name":"Bernkastel-Wittlich","type":"Landkreis"},"federalState":{"key":"07","name":"Rheinland-Pfalz"}},{"name":"Zum Vilssteg","postalCode":"84149","locality":"Velden","municipality":{"key":"09274183","name":"Velden, M","type":"Markt"},"district":{"key":"09274","name":"Landshut","type":"Landkreis"},"federalState":{"key":"09","name":"Bayern"}},]