[{"name":"Am Anger","postalCode":"16767","locality":"Leegebruch","municipality":{"key":"12065180","name":"Leegebruch","type":"Kreisangehörige_Gemeinde"},"district":{"key":"12065","name":"Oberhavel","type":"Landkreis"},"federalState":{"key":"12","name":"Brandenburg"}},{"name":"Am Backofenberg","postalCode":"16767","locality":"Leegebruch","municipality":{"key":"12065180","name":"Leegebruch","type":"Kreisangehörige_Gemeinde"},"district":{"key":"12065","name":"Oberhavel","type":"Landkreis"},"federalState":{"key":"12","name":"Brandenburg"}},{"name":"Am Birkenberg","postalCode":"16767","locality":"Leegebruch","municipality":{"key":"12065180","name":"Leegebruch","type":"Kreisangehörige_Gemeinde"},"district":{"key":"12065","name":"Oberhavel","type":"Landkreis"},"federalState":{"key":"12","name":"Brandenburg"}},{"name":"Am Hauptgraben","postalCode":"16767","locality":"Leegebruch","municipality":{"key":"12065180","name":"Leegebruch","type":"Kreisangehörige_Gemeinde"},"district":{"key":"12065","name":"Oberhavel","type":"Landkreis"},"federalState":{"key":"12","name":"Brandenburg"}},{"name":"Am Kleeschlag","postalCode":"16767","locality":"Leegebruch","municipality":{"key":"12065180","name":"Leegebruch","type":"Kreisangehörige_Gemeinde"},"district":{"key":"12065","name":"Oberhavel","type":"Landkreis"},"federalState":{"key":"12","name":"Brandenburg"}},{"name":"Am Luch","postalCode":"16767","locality":"Leegebruch","municipality":{"key":"12065180","name":"Leegebruch","type":"Kreisangehörige_Gemeinde"},"district":{"key":"12065","name":"Oberhavel","type":"Landkreis"},"federalState":{"key":"12","name":"Brandenburg"}},{"name":"Am Roggenfeld","postalCode":"16767","locality":"Leegebruch","municipality":{"key":"12065180","name":"Leegebruch","type":"Kreisangehörige_Gemeinde"},"district":{"key":"12065","name":"Oberhavel","type":"Landkreis"},"federalState":{"key":"12","name":"Brandenburg"}},{"name":"Am Schlangenberg","postalCode":"16767","locality":"Leegebruch","municipality":{"key":"12065180","name":"Leegebruch","type":"Kreisangehörige_Gemeinde"},"district":{"key":"12065","name":"Oberhavel","type":"Landkreis"},"federalState":{"key":"12","name":"Brandenburg"}},{"name":"Am Wall","postalCode":"16767","locality":"Leegebruch","municipality":{"key":"12065180","name":"Leegebruch","type":"Kreisangehörige_Gemeinde"},"district":{"key":"12065","name":"Oberhavel","type":"Landkreis"},"federalState":{"key":"12","name":"Brandenburg"}},{"name":"Am Wasserwerk","postalCode":"16767","locality":"Leegebruch","municipality":{"key":"12065180","name":"Leegebruch","type":"Kreisangehörige_Gemeinde"},"district":{"key":"12065","name":"Oberhavel","type":"Landkreis"},"federalState":{"key":"12","name":"Brandenburg"}},{"name":"An den Schlenken","postalCode":"16767","locality":"Leegebruch","municipality":{"key":"12065180","name":"Leegebruch","type":"Kreisangehörige_Gemeinde"},"district":{"key":"12065","name":"Oberhavel","type":"Landkreis"},"federalState":{"key":"12","name":"Brandenburg"}},{"name":"An der Aue","postalCode":"16767","locality":"Leegebruch","municipality":{"key":"12065180","name":"Leegebruch","type":"Kreisangehörige_Gemeinde"},"district":{"key":"12065","name":"Oberhavel","type":"Landkreis"},"federalState":{"key":"12","name":"Brandenburg"}},{"name":"An der Muhre","postalCode":"16767","locality":"Leegebruch","municipality":{"key":"12065180","name":"Leegebruch","type":"Kreisangehörige_Gemeinde"},"district":{"key":"12065","name":"Oberhavel","type":"Landkreis"},"federalState":{"key":"12","name":"Brandenburg"}},{"name":"Bärenklauer Weg","postalCode":"16767","locality":"Leegebruch","municipality":{"key":"12065180","name":"Leegebruch","type":"Kreisangehörige_Gemeinde"},"district":{"key":"12065","name":"Oberhavel","type":"Landkreis"},"federalState":{"key":"12","name":"Brandenburg"}},{"name":"Birkenallee","postalCode":"16767","locality":"Leegebruch","municipality":{"key":"12065180","name":"Leegebruch","type":"Kreisangehörige_Gemeinde"},"district":{"key":"12065","name":"Oberhavel","type":"Landkreis"},"federalState":{"key":"12","name":"Brandenburg"}},{"name":"Birkenhof","postalCode":"16767","locality":"Leegebruch","municipality":{"key":"12065180","name":"Leegebruch","type":"Kreisangehörige_Gemeinde"},"district":{"key":"12065","name":"Oberhavel","type":"Landkreis"},"federalState":{"key":"12","name":"Brandenburg"}},{"name":"Blumenstr.","postalCode":"16767","locality":"Leegebruch","municipality":{"key":"12065180","name":"Leegebruch","type":"Kreisangehörige_Gemeinde"},"district":{"key":"12065","name":"Oberhavel","type":"Landkreis"},"federalState":{"key":"12","name":"Brandenburg"}},{"name":"Dorfaue","postalCode":"16767","locality":"Leegebruch","municipality":{"key":"12065180","name":"Leegebruch","type":"Kreisangehörige_Gemeinde"},"district":{"key":"12065","name":"Oberhavel","type":"Landkreis"},"federalState":{"key":"12","name":"Brandenburg"}},{"name":"Dorfstr.","postalCode":"16767","locality":"Leegebruch","municipality":{"key":"12065180","name":"Leegebruch","type":"Kreisangehörige_Gemeinde"},"district":{"key":"12065","name":"Oberhavel","type":"Landkreis"},"federalState":{"key":"12","name":"Brandenburg"}},{"name":"Eichenallee","postalCode":"16767","locality":"Leegebruch","municipality":{"key":"12065180","name":"Leegebruch","type":"Kreisangehörige_Gemeinde"},"district":{"key":"12065","name":"Oberhavel","type":"Landkreis"},"federalState":{"key":"12","name":"Brandenburg"}},{"name":"Eichenhain","postalCode":"16767","locality":"Leegebruch","municipality":{"key":"12065180","name":"Leegebruch","type":"Kreisangehörige_Gemeinde"},"district":{"key":"12065","name":"Oberhavel","type":"Landkreis"},"federalState":{"key":"12","name":"Brandenburg"}},{"name":"Ernst-Thälmann-Str.","postalCode":"16767","locality":"Leegebruch","municipality":{"key":"12065180","name":"Leegebruch","type":"Kreisangehörige_Gemeinde"},"district":{"key":"12065","name":"Oberhavel","type":"Landkreis"},"federalState":{"key":"12","name":"Brandenburg"}},{"name":"Fohlenweg","postalCode":"16767","locality":"Leegebruch","municipality":{"key":"12065180","name":"Leegebruch","type":"Kreisangehörige_Gemeinde"},"district":{"key":"12065","name":"Oberhavel","type":"Landkreis"},"federalState":{"key":"12","name":"Brandenburg"}},{"name":"Fohlenweide","postalCode":"16767","locality":"Leegebruch","municipality":{"key":"12065180","name":"Leegebruch","type":"Kreisangehörige_Gemeinde"},"district":{"key":"12065","name":"Oberhavel","type":"Landkreis"},"federalState":{"key":"12","name":"Brandenburg"}},{"name":"Fontanehof","postalCode":"16767","locality":"Leegebruch","municipality":{"key":"12065180","name":"Leegebruch","type":"Kreisangehörige_Gemeinde"},"district":{"key":"12065","name":"Oberhavel","type":"Landkreis"},"federalState":{"key":"12","name":"Brandenburg"}},{"name":"Fontanestr.","postalCode":"16767","locality":"Leegebruch","municipality":{"key":"12065180","name":"Leegebruch","type":"Kreisangehörige_Gemeinde"},"district":{"key":"12065","name":"Oberhavel","type":"Landkreis"},"federalState":{"key":"12","name":"Brandenburg"}},{"name":"Gartenstr.","postalCode":"16767","locality":"Leegebruch","municipality":{"key":"12065180","name":"Leegebruch","type":"Kreisangehörige_Gemeinde"},"district":{"key":"12065","name":"Oberhavel","type":"Landkreis"},"federalState":{"key":"12","name":"Brandenburg"}},{"name":"Geschwister-Scholl-Str.","postalCode":"16767","locality":"Leegebruch","municipality":{"key":"12065180","name":"Leegebruch","type":"Kreisangehörige_Gemeinde"},"district":{"key":"12065","name":"Oberhavel","type":"Landkreis"},"federalState":{"key":"12","name":"Brandenburg"}},{"name":"Grünstr.","postalCode":"16767","locality":"Leegebruch","municipality":{"key":"12065180","name":"Leegebruch","type":"Kreisangehörige_Gemeinde"},"district":{"key":"12065","name":"Oberhavel","type":"Landkreis"},"federalState":{"key":"12","name":"Brandenburg"}},{"name":"Hauptstr.","postalCode":"16767","locality":"Leegebruch","municipality":{"key":"12065180","name":"Leegebruch","type":"Kreisangehörige_Gemeinde"},"district":{"key":"12065","name":"Oberhavel","type":"Landkreis"},"federalState":{"key":"12","name":"Brandenburg"}},{"name":"Havelhausener Str.","postalCode":"16767","locality":"Leegebruch","municipality":{"key":"12065180","name":"Leegebruch","type":"Kreisangehörige_Gemeinde"},"district":{"key":"12065","name":"Oberhavel","type":"Landkreis"},"federalState":{"key":"12","name":"Brandenburg"}},{"name":"Havelhausener Weg","postalCode":"16767","locality":"Leegebruch","municipality":{"key":"12065180","name":"Leegebruch","type":"Kreisangehörige_Gemeinde"},"district":{"key":"12065","name":"Oberhavel","type":"Landkreis"},"federalState":{"key":"12","name":"Brandenburg"}},{"name":"Hufeisenweg","postalCode":"16767","locality":"Leegebruch","municipality":{"key":"12065180","name":"Leegebruch","type":"Kreisangehörige_Gemeinde"},"district":{"key":"12065","name":"Oberhavel","type":"Landkreis"},"federalState":{"key":"12","name":"Brandenburg"}},{"name":"Karl-Marx-Str.","postalCode":"16767","locality":"Leegebruch","municipality":{"key":"12065180","name":"Leegebruch","type":"Kreisangehörige_Gemeinde"},"district":{"key":"12065","name":"Oberhavel","type":"Landkreis"},"federalState":{"key":"12","name":"Brandenburg"}},{"name":"Kirchhofstr.","postalCode":"16767","locality":"Leegebruch","municipality":{"key":"12065180","name":"Leegebruch","type":"Kreisangehörige_Gemeinde"},"district":{"key":"12065","name":"Oberhavel","type":"Landkreis"},"federalState":{"key":"12","name":"Brandenburg"}},{"name":"Kornweg","postalCode":"16767","locality":"Leegebruch","municipality":{"key":"12065180","name":"Leegebruch","type":"Kreisangehörige_Gemeinde"},"district":{"key":"12065","name":"Oberhavel","type":"Landkreis"},"federalState":{"key":"12","name":"Brandenburg"}},{"name":"Kurze Str.","postalCode":"16767","locality":"Leegebruch","municipality":{"key":"12065180","name":"Leegebruch","type":"Kreisangehörige_Gemeinde"},"district":{"key":"12065","name":"Oberhavel","type":"Landkreis"},"federalState":{"key":"12","name":"Brandenburg"}},{"name":"Leegebrucher Weg","postalCode":"16767","locality":"Leegebruch","municipality":{"key":"12065180","name":"Leegebruch","type":"Kreisangehörige_Gemeinde"},"district":{"key":"12065","name":"Oberhavel","type":"Landkreis"},"federalState":{"key":"12","name":"Brandenburg"}},{"name":"Lindenstr.","postalCode":"16767","locality":"Leegebruch","municipality":{"key":"12065180","name":"Leegebruch","type":"Kreisangehörige_Gemeinde"},"district":{"key":"12065","name":"Oberhavel","type":"Landkreis"},"federalState":{"key":"12","name":"Brandenburg"}},{"name":"Maxim-Gorki-Str.","postalCode":"16767","locality":"Leegebruch","municipality":{"key":"12065180","name":"Leegebruch","type":"Kreisangehörige_Gemeinde"},"district":{"key":"12065","name":"Oberhavel","type":"Landkreis"},"federalState":{"key":"12","name":"Brandenburg"}},{"name":"Mittelweg","postalCode":"16767","locality":"Leegebruch","municipality":{"key":"12065180","name":"Leegebruch","type":"Kreisangehörige_Gemeinde"},"district":{"key":"12065","name":"Oberhavel","type":"Landkreis"},"federalState":{"key":"12","name":"Brandenburg"}},{"name":"Moorgrabenstr.","postalCode":"16767","locality":"Leegebruch","municipality":{"key":"12065180","name":"Leegebruch","type":"Kreisangehörige_Gemeinde"},"district":{"key":"12065","name":"Oberhavel","type":"Landkreis"},"federalState":{"key":"12","name":"Brandenburg"}},{"name":"Nordweg","postalCode":"16767","locality":"Leegebruch","municipality":{"key":"12065180","name":"Leegebruch","type":"Kreisangehörige_Gemeinde"},"district":{"key":"12065","name":"Oberhavel","type":"Landkreis"},"federalState":{"key":"12","name":"Brandenburg"}},{"name":"Oranienburger Weg","postalCode":"16767","locality":"Leegebruch","municipality":{"key":"12065180","name":"Leegebruch","type":"Kreisangehörige_Gemeinde"},"district":{"key":"12065","name":"Oberhavel","type":"Landkreis"},"federalState":{"key":"12","name":"Brandenburg"}},{"name":"Ostweg","postalCode":"16767","locality":"Leegebruch","municipality":{"key":"12065180","name":"Leegebruch","type":"Kreisangehörige_Gemeinde"},"district":{"key":"12065","name":"Oberhavel","type":"Landkreis"},"federalState":{"key":"12","name":"Brandenburg"}},{"name":"Park im Eichenhof","postalCode":"16767","locality":"Leegebruch","municipality":{"key":"12065180","name":"Leegebruch","type":"Kreisangehörige_Gemeinde"},"district":{"key":"12065","name":"Oberhavel","type":"Landkreis"},"federalState":{"key":"12","name":"Brandenburg"}},{"name":"Parkstr.","postalCode":"16767","locality":"Leegebruch","municipality":{"key":"12065180","name":"Leegebruch","type":"Kreisangehörige_Gemeinde"},"district":{"key":"12065","name":"Oberhavel","type":"Landkreis"},"federalState":{"key":"12","name":"Brandenburg"}},{"name":"Remontehof","postalCode":"16767","locality":"Leegebruch","municipality":{"key":"12065180","name":"Leegebruch","type":"Kreisangehörige_Gemeinde"},"district":{"key":"12065","name":"Oberhavel","type":"Landkreis"},"federalState":{"key":"12","name":"Brandenburg"}},{"name":"Ringstr.","postalCode":"16767","locality":"Leegebruch","municipality":{"key":"12065180","name":"Leegebruch","type":"Kreisangehörige_Gemeinde"},"district":{"key":"12065","name":"Oberhavel","type":"Landkreis"},"federalState":{"key":"12","name":"Brandenburg"}},{"name":"Robert-Koch-Platz","postalCode":"16767","locality":"Leegebruch","municipality":{"key":"12065180","name":"Leegebruch","type":"Kreisangehörige_Gemeinde"},"district":{"key":"12065","name":"Oberhavel","type":"Landkreis"},"federalState":{"key":"12","name":"Brandenburg"}},{"name":"Rosenstr.","postalCode":"16767","locality":"Leegebruch","municipality":{"key":"12065180","name":"Leegebruch","type":"Kreisangehörige_Gemeinde"},"district":{"key":"12065","name":"Oberhavel","type":"Landkreis"},"federalState":{"key":"12","name":"Brandenburg"}},{"name":"Rudolf-Breitscheid-Str.","postalCode":"16767","locality":"Leegebruch","municipality":{"key":"12065180","name":"Leegebruch","type":"Kreisangehörige_Gemeinde"},"district":{"key":"12065","name":"Oberhavel","type":"Landkreis"},"federalState":{"key":"12","name":"Brandenburg"}},{"name":"Sandweg","postalCode":"16767","locality":"Leegebruch","municipality":{"key":"12065180","name":"Leegebruch","type":"Kreisangehörige_Gemeinde"},"district":{"key":"12065","name":"Oberhavel","type":"Landkreis"},"federalState":{"key":"12","name":"Brandenburg"}},{"name":"Schulweg","postalCode":"16767","locality":"Leegebruch","municipality":{"key":"12065180","name":"Leegebruch","type":"Kreisangehörige_Gemeinde"},"district":{"key":"12065","name":"Oberhavel","type":"Landkreis"},"federalState":{"key":"12","name":"Brandenburg"}},{"name":"Stadtpark","postalCode":"16767","locality":"Leegebruch","municipality":{"key":"12065180","name":"Leegebruch","type":"Kreisangehörige_Gemeinde"},"district":{"key":"12065","name":"Oberhavel","type":"Landkreis"},"federalState":{"key":"12","name":"Brandenburg"}},{"name":"Str. der Jungen Pioniere","postalCode":"16767","locality":"Leegebruch","municipality":{"key":"12065180","name":"Leegebruch","type":"Kreisangehörige_Gemeinde"},"district":{"key":"12065","name":"Oberhavel","type":"Landkreis"},"federalState":{"key":"12","name":"Brandenburg"}},{"name":"Veltener Str.","postalCode":"16767","locality":"Leegebruch","municipality":{"key":"12065180","name":"Leegebruch","type":"Kreisangehörige_Gemeinde"},"district":{"key":"12065","name":"Oberhavel","type":"Landkreis"},"federalState":{"key":"12","name":"Brandenburg"}},{"name":"Wasserstr.","postalCode":"16767","locality":"Leegebruch","municipality":{"key":"12065180","name":"Leegebruch","type":"Kreisangehörige_Gemeinde"},"district":{"key":"12065","name":"Oberhavel","type":"Landkreis"},"federalState":{"key":"12","name":"Brandenburg"}},{"name":"Weidensteg","postalCode":"16767","locality":"Leegebruch","municipality":{"key":"12065180","name":"Leegebruch","type":"Kreisangehörige_Gemeinde"},"district":{"key":"12065","name":"Oberhavel","type":"Landkreis"},"federalState":{"key":"12","name":"Brandenburg"}},{"name":"Wiesenstr.","postalCode":"16767","locality":"Leegebruch","municipality":{"key":"12065180","name":"Leegebruch","type":"Kreisangehörige_Gemeinde"},"district":{"key":"12065","name":"Oberhavel","type":"Landkreis"},"federalState":{"key":"12","name":"Brandenburg"}},{"name":"Wiesenweg","postalCode":"16767","locality":"Leegebruch","municipality":{"key":"12065180","name":"Leegebruch","type":"Kreisangehörige_Gemeinde"},"district":{"key":"12065","name":"Oberhavel","type":"Landkreis"},"federalState":{"key":"12","name":"Brandenburg"}},]