[{"name":"Ahornweg","postalCode":"87448","locality":"Waltenhofen","municipality":{"key":"09780143","name":"Waltenhofen","type":"Kreisangehörige_Gemeinde"},"district":{"key":"09780","name":"Oberallgäu","type":"Landkreis"},"federalState":{"key":"09","name":"Bayern"}},{"name":"Alfons-Steinhauser-Str.","postalCode":"87448","locality":"Waltenhofen","municipality":{"key":"09780143","name":"Waltenhofen","type":"Kreisangehörige_Gemeinde"},"district":{"key":"09780","name":"Oberallgäu","type":"Landkreis"},"federalState":{"key":"09","name":"Bayern"}},{"name":"Alpspitzweg","postalCode":"87448","locality":"Waltenhofen","municipality":{"key":"09780143","name":"Waltenhofen","type":"Kreisangehörige_Gemeinde"},"district":{"key":"09780","name":"Oberallgäu","type":"Landkreis"},"federalState":{"key":"09","name":"Bayern"}},{"name":"Am Altersheim","postalCode":"87448","locality":"Waltenhofen","municipality":{"key":"09780143","name":"Waltenhofen","type":"Kreisangehörige_Gemeinde"},"district":{"key":"09780","name":"Oberallgäu","type":"Landkreis"},"federalState":{"key":"09","name":"Bayern"}},{"name":"Am Angerfeld","postalCode":"87448","locality":"Waltenhofen","municipality":{"key":"09780143","name":"Waltenhofen","type":"Kreisangehörige_Gemeinde"},"district":{"key":"09780","name":"Oberallgäu","type":"Landkreis"},"federalState":{"key":"09","name":"Bayern"}},{"name":"Am Bahndamm","postalCode":"87448","locality":"Waltenhofen","municipality":{"key":"09780143","name":"Waltenhofen","type":"Kreisangehörige_Gemeinde"},"district":{"key":"09780","name":"Oberallgäu","type":"Landkreis"},"federalState":{"key":"09","name":"Bayern"}},{"name":"Am Bahnhof","postalCode":"87448","locality":"Waltenhofen","municipality":{"key":"09780143","name":"Waltenhofen","type":"Kreisangehörige_Gemeinde"},"district":{"key":"09780","name":"Oberallgäu","type":"Landkreis"},"federalState":{"key":"09","name":"Bayern"}},{"name":"Am Dorfbach","postalCode":"87448","locality":"Waltenhofen","municipality":{"key":"09780143","name":"Waltenhofen","type":"Kreisangehörige_Gemeinde"},"district":{"key":"09780","name":"Oberallgäu","type":"Landkreis"},"federalState":{"key":"09","name":"Bayern"}},{"name":"Am Drumlin","postalCode":"87448","locality":"Waltenhofen","municipality":{"key":"09780143","name":"Waltenhofen","type":"Kreisangehörige_Gemeinde"},"district":{"key":"09780","name":"Oberallgäu","type":"Landkreis"},"federalState":{"key":"09","name":"Bayern"}},{"name":"Am Durchlaß","postalCode":"87448","locality":"Waltenhofen","municipality":{"key":"09780143","name":"Waltenhofen","type":"Kreisangehörige_Gemeinde"},"district":{"key":"09780","name":"Oberallgäu","type":"Landkreis"},"federalState":{"key":"09","name":"Bayern"}},{"name":"Am Herrenbühl","postalCode":"87448","locality":"Waltenhofen","municipality":{"key":"09780143","name":"Waltenhofen","type":"Kreisangehörige_Gemeinde"},"district":{"key":"09780","name":"Oberallgäu","type":"Landkreis"},"federalState":{"key":"09","name":"Bayern"}},{"name":"Am Holzplatz","postalCode":"87448","locality":"Waltenhofen","municipality":{"key":"09780143","name":"Waltenhofen","type":"Kreisangehörige_Gemeinde"},"district":{"key":"09780","name":"Oberallgäu","type":"Landkreis"},"federalState":{"key":"09","name":"Bayern"}},{"name":"Am Kollergang","postalCode":"87448","locality":"Waltenhofen","municipality":{"key":"09780143","name":"Waltenhofen","type":"Kreisangehörige_Gemeinde"},"district":{"key":"09780","name":"Oberallgäu","type":"Landkreis"},"federalState":{"key":"09","name":"Bayern"}},{"name":"Am Pfarrgarten","postalCode":"87448","locality":"Waltenhofen","municipality":{"key":"09780143","name":"Waltenhofen","type":"Kreisangehörige_Gemeinde"},"district":{"key":"09780","name":"Oberallgäu","type":"Landkreis"},"federalState":{"key":"09","name":"Bayern"}},{"name":"Am Sonnenbühl","postalCode":"87448","locality":"Waltenhofen","municipality":{"key":"09780143","name":"Waltenhofen","type":"Kreisangehörige_Gemeinde"},"district":{"key":"09780","name":"Oberallgäu","type":"Landkreis"},"federalState":{"key":"09","name":"Bayern"}},{"name":"Am Südhang","postalCode":"87448","locality":"Waltenhofen","municipality":{"key":"09780143","name":"Waltenhofen","type":"Kreisangehörige_Gemeinde"},"district":{"key":"09780","name":"Oberallgäu","type":"Landkreis"},"federalState":{"key":"09","name":"Bayern"}},{"name":"Am Tobel","postalCode":"87448","locality":"Waltenhofen","municipality":{"key":"09780143","name":"Waltenhofen","type":"Kreisangehörige_Gemeinde"},"district":{"key":"09780","name":"Oberallgäu","type":"Landkreis"},"federalState":{"key":"09","name":"Bayern"}},{"name":"An der Halde","postalCode":"87448","locality":"Waltenhofen","municipality":{"key":"09780143","name":"Waltenhofen","type":"Kreisangehörige_Gemeinde"},"district":{"key":"09780","name":"Oberallgäu","type":"Landkreis"},"federalState":{"key":"09","name":"Bayern"}},{"name":"An der Marktwiese","postalCode":"87448","locality":"Waltenhofen","municipality":{"key":"09780143","name":"Waltenhofen","type":"Kreisangehörige_Gemeinde"},"district":{"key":"09780","name":"Oberallgäu","type":"Landkreis"},"federalState":{"key":"09","name":"Bayern"}},{"name":"Annaweg","postalCode":"87448","locality":"Waltenhofen","municipality":{"key":"09780143","name":"Waltenhofen","type":"Kreisangehörige_Gemeinde"},"district":{"key":"09780","name":"Oberallgäu","type":"Landkreis"},"federalState":{"key":"09","name":"Bayern"}},{"name":"Auweg","postalCode":"87448","locality":"Waltenhofen","municipality":{"key":"09780143","name":"Waltenhofen","type":"Kreisangehörige_Gemeinde"},"district":{"key":"09780","name":"Oberallgäu","type":"Landkreis"},"federalState":{"key":"09","name":"Bayern"}},{"name":"Bahnhofstr.","postalCode":"87448","locality":"Waltenhofen","municipality":{"key":"09780143","name":"Waltenhofen","type":"Kreisangehörige_Gemeinde"},"district":{"key":"09780","name":"Oberallgäu","type":"Landkreis"},"federalState":{"key":"09","name":"Bayern"}},{"name":"Bahnweg","postalCode":"87448","locality":"Waltenhofen","municipality":{"key":"09780143","name":"Waltenhofen","type":"Kreisangehörige_Gemeinde"},"district":{"key":"09780","name":"Oberallgäu","type":"Landkreis"},"federalState":{"key":"09","name":"Bayern"}},{"name":"Benzstr.","postalCode":"87448","locality":"Waltenhofen","municipality":{"key":"09780143","name":"Waltenhofen","type":"Kreisangehörige_Gemeinde"},"district":{"key":"09780","name":"Oberallgäu","type":"Landkreis"},"federalState":{"key":"09","name":"Bayern"}},{"name":"Blumenweg","postalCode":"87448","locality":"Waltenhofen","municipality":{"key":"09780143","name":"Waltenhofen","type":"Kreisangehörige_Gemeinde"},"district":{"key":"09780","name":"Oberallgäu","type":"Landkreis"},"federalState":{"key":"09","name":"Bayern"}},{"name":"Blütenweg","postalCode":"87448","locality":"Waltenhofen","municipality":{"key":"09780143","name":"Waltenhofen","type":"Kreisangehörige_Gemeinde"},"district":{"key":"09780","name":"Oberallgäu","type":"Landkreis"},"federalState":{"key":"09","name":"Bayern"}},{"name":"Buchenberger Str.","postalCode":"87448","locality":"Waltenhofen","municipality":{"key":"09780143","name":"Waltenhofen","type":"Kreisangehörige_Gemeinde"},"district":{"key":"09780","name":"Oberallgäu","type":"Landkreis"},"federalState":{"key":"09","name":"Bayern"}},{"name":"Bucher Weg","postalCode":"87448","locality":"Waltenhofen","municipality":{"key":"09780143","name":"Waltenhofen","type":"Kreisangehörige_Gemeinde"},"district":{"key":"09780","name":"Oberallgäu","type":"Landkreis"},"federalState":{"key":"09","name":"Bayern"}},{"name":"Bürgermeister-Hengeler-Str.","postalCode":"87448","locality":"Waltenhofen","municipality":{"key":"09780143","name":"Waltenhofen","type":"Kreisangehörige_Gemeinde"},"district":{"key":"09780","name":"Oberallgäu","type":"Landkreis"},"federalState":{"key":"09","name":"Bayern"}},{"name":"Bürgermeister-Karl-Fritz-Str.","postalCode":"87448","locality":"Waltenhofen","municipality":{"key":"09780143","name":"Waltenhofen","type":"Kreisangehörige_Gemeinde"},"district":{"key":"09780","name":"Oberallgäu","type":"Landkreis"},"federalState":{"key":"09","name":"Bayern"}},{"name":"Bürgermeister-Wegmann-Str.","postalCode":"87448","locality":"Waltenhofen","municipality":{"key":"09780143","name":"Waltenhofen","type":"Kreisangehörige_Gemeinde"},"district":{"key":"09780","name":"Oberallgäu","type":"Landkreis"},"federalState":{"key":"09","name":"Bayern"}},{"name":"Burgstr.","postalCode":"87448","locality":"Waltenhofen","municipality":{"key":"09780143","name":"Waltenhofen","type":"Kreisangehörige_Gemeinde"},"district":{"key":"09780","name":"Oberallgäu","type":"Landkreis"},"federalState":{"key":"09","name":"Bayern"}},{"name":"Christophorusweg","postalCode":"87448","locality":"Waltenhofen","municipality":{"key":"09780143","name":"Waltenhofen","type":"Kreisangehörige_Gemeinde"},"district":{"key":"09780","name":"Oberallgäu","type":"Landkreis"},"federalState":{"key":"09","name":"Bayern"}},{"name":"Daimlerstr.","postalCode":"87448","locality":"Waltenhofen","municipality":{"key":"09780143","name":"Waltenhofen","type":"Kreisangehörige_Gemeinde"},"district":{"key":"09780","name":"Oberallgäu","type":"Landkreis"},"federalState":{"key":"09","name":"Bayern"}},{"name":"Dekan-Erhard-Str.","postalCode":"87448","locality":"Waltenhofen","municipality":{"key":"09780143","name":"Waltenhofen","type":"Kreisangehörige_Gemeinde"},"district":{"key":"09780","name":"Oberallgäu","type":"Landkreis"},"federalState":{"key":"09","name":"Bayern"}},{"name":"Dekan-Karl-Nold-Weg","postalCode":"87448","locality":"Waltenhofen","municipality":{"key":"09780143","name":"Waltenhofen","type":"Kreisangehörige_Gemeinde"},"district":{"key":"09780","name":"Oberallgäu","type":"Landkreis"},"federalState":{"key":"09","name":"Bayern"}},{"name":"Dieselstr.","postalCode":"87448","locality":"Waltenhofen","municipality":{"key":"09780143","name":"Waltenhofen","type":"Kreisangehörige_Gemeinde"},"district":{"key":"09780","name":"Oberallgäu","type":"Landkreis"},"federalState":{"key":"09","name":"Bayern"}},{"name":"Dietrich-Bonhoeffer-Str.","postalCode":"87448","locality":"Waltenhofen","municipality":{"key":"09780143","name":"Waltenhofen","type":"Kreisangehörige_Gemeinde"},"district":{"key":"09780","name":"Oberallgäu","type":"Landkreis"},"federalState":{"key":"09","name":"Bayern"}},{"name":"Edelsbergstr.","postalCode":"87448","locality":"Waltenhofen","municipality":{"key":"09780143","name":"Waltenhofen","type":"Kreisangehörige_Gemeinde"},"district":{"key":"09780","name":"Oberallgäu","type":"Landkreis"},"federalState":{"key":"09","name":"Bayern"}},{"name":"Eggener Weg","postalCode":"87448","locality":"Waltenhofen","municipality":{"key":"09780143","name":"Waltenhofen","type":"Kreisangehörige_Gemeinde"},"district":{"key":"09780","name":"Oberallgäu","type":"Landkreis"},"federalState":{"key":"09","name":"Bayern"}},{"name":"Eibenweg","postalCode":"87448","locality":"Waltenhofen","municipality":{"key":"09780143","name":"Waltenhofen","type":"Kreisangehörige_Gemeinde"},"district":{"key":"09780","name":"Oberallgäu","type":"Landkreis"},"federalState":{"key":"09","name":"Bayern"}},{"name":"Erlenweg","postalCode":"87448","locality":"Waltenhofen","municipality":{"key":"09780143","name":"Waltenhofen","type":"Kreisangehörige_Gemeinde"},"district":{"key":"09780","name":"Oberallgäu","type":"Landkreis"},"federalState":{"key":"09","name":"Bayern"}},{"name":"Eschenweg","postalCode":"87448","locality":"Waltenhofen","municipality":{"key":"09780143","name":"Waltenhofen","type":"Kreisangehörige_Gemeinde"},"district":{"key":"09780","name":"Oberallgäu","type":"Landkreis"},"federalState":{"key":"09","name":"Bayern"}},{"name":"Falkensteinweg","postalCode":"87448","locality":"Waltenhofen","municipality":{"key":"09780143","name":"Waltenhofen","type":"Kreisangehörige_Gemeinde"},"district":{"key":"09780","name":"Oberallgäu","type":"Landkreis"},"federalState":{"key":"09","name":"Bayern"}},{"name":"Fichtenweg","postalCode":"87448","locality":"Waltenhofen","municipality":{"key":"09780143","name":"Waltenhofen","type":"Kreisangehörige_Gemeinde"},"district":{"key":"09780","name":"Oberallgäu","type":"Landkreis"},"federalState":{"key":"09","name":"Bayern"}},{"name":"Föhrenweg","postalCode":"87448","locality":"Waltenhofen","municipality":{"key":"09780143","name":"Waltenhofen","type":"Kreisangehörige_Gemeinde"},"district":{"key":"09780","name":"Oberallgäu","type":"Landkreis"},"federalState":{"key":"09","name":"Bayern"}},{"name":"Friedrich-Silcher-Str.","postalCode":"87448","locality":"Waltenhofen","municipality":{"key":"09780143","name":"Waltenhofen","type":"Kreisangehörige_Gemeinde"},"district":{"key":"09780","name":"Oberallgäu","type":"Landkreis"},"federalState":{"key":"09","name":"Bayern"}},{"name":"Gartenstr.","postalCode":"87448","locality":"Waltenhofen","municipality":{"key":"09780143","name":"Waltenhofen","type":"Kreisangehörige_Gemeinde"},"district":{"key":"09780","name":"Oberallgäu","type":"Landkreis"},"federalState":{"key":"09","name":"Bayern"}},{"name":"Georg-Haindl-Str.","postalCode":"87448","locality":"Waltenhofen","municipality":{"key":"09780143","name":"Waltenhofen","type":"Kreisangehörige_Gemeinde"},"district":{"key":"09780","name":"Oberallgäu","type":"Landkreis"},"federalState":{"key":"09","name":"Bayern"}},{"name":"Gerats","postalCode":"87448","locality":"Waltenhofen","municipality":{"key":"09780143","name":"Waltenhofen","type":"Kreisangehörige_Gemeinde"},"district":{"key":"09780","name":"Oberallgäu","type":"Landkreis"},"federalState":{"key":"09","name":"Bayern"}},{"name":"Gewerbestr.","postalCode":"87448","locality":"Waltenhofen","municipality":{"key":"09780143","name":"Waltenhofen","type":"Kreisangehörige_Gemeinde"},"district":{"key":"09780","name":"Oberallgäu","type":"Landkreis"},"federalState":{"key":"09","name":"Bayern"}},{"name":"Grotzstr.","postalCode":"87448","locality":"Waltenhofen","municipality":{"key":"09780143","name":"Waltenhofen","type":"Kreisangehörige_Gemeinde"},"district":{"key":"09780","name":"Oberallgäu","type":"Landkreis"},"federalState":{"key":"09","name":"Bayern"}},{"name":"Grüntenstr.","postalCode":"87448","locality":"Waltenhofen","municipality":{"key":"09780143","name":"Waltenhofen","type":"Kreisangehörige_Gemeinde"},"district":{"key":"09780","name":"Oberallgäu","type":"Landkreis"},"federalState":{"key":"09","name":"Bayern"}},{"name":"Grüntenweg","postalCode":"87448","locality":"Waltenhofen","municipality":{"key":"09780143","name":"Waltenhofen","type":"Kreisangehörige_Gemeinde"},"district":{"key":"09780","name":"Oberallgäu","type":"Landkreis"},"federalState":{"key":"09","name":"Bayern"}},{"name":"Haselnußweg","postalCode":"87448","locality":"Waltenhofen","municipality":{"key":"09780143","name":"Waltenhofen","type":"Kreisangehörige_Gemeinde"},"district":{"key":"09780","name":"Oberallgäu","type":"Landkreis"},"federalState":{"key":"09","name":"Bayern"}},{"name":"Hauptstr.","postalCode":"87448","locality":"Waltenhofen","municipality":{"key":"09780143","name":"Waltenhofen","type":"Kreisangehörige_Gemeinde"},"district":{"key":"09780","name":"Oberallgäu","type":"Landkreis"},"federalState":{"key":"09","name":"Bayern"}},{"name":"Hochgratweg","postalCode":"87448","locality":"Waltenhofen","municipality":{"key":"09780143","name":"Waltenhofen","type":"Kreisangehörige_Gemeinde"},"district":{"key":"09780","name":"Oberallgäu","type":"Landkreis"},"federalState":{"key":"09","name":"Bayern"}},{"name":"Höhenweg","postalCode":"87448","locality":"Waltenhofen","municipality":{"key":"09780143","name":"Waltenhofen","type":"Kreisangehörige_Gemeinde"},"district":{"key":"09780","name":"Oberallgäu","type":"Landkreis"},"federalState":{"key":"09","name":"Bayern"}},{"name":"Holzachweg","postalCode":"87448","locality":"Waltenhofen","municipality":{"key":"09780143","name":"Waltenhofen","type":"Kreisangehörige_Gemeinde"},"district":{"key":"09780","name":"Oberallgäu","type":"Landkreis"},"federalState":{"key":"09","name":"Bayern"}},{"name":"Horbenstr.","postalCode":"87448","locality":"Waltenhofen","municipality":{"key":"09780143","name":"Waltenhofen","type":"Kreisangehörige_Gemeinde"},"district":{"key":"09780","name":"Oberallgäu","type":"Landkreis"},"federalState":{"key":"09","name":"Bayern"}},{"name":"Hornweg","postalCode":"87448","locality":"Waltenhofen","municipality":{"key":"09780143","name":"Waltenhofen","type":"Kreisangehörige_Gemeinde"},"district":{"key":"09780","name":"Oberallgäu","type":"Landkreis"},"federalState":{"key":"09","name":"Bayern"}},{"name":"Immenstädter Str.","postalCode":"87448","locality":"Waltenhofen","municipality":{"key":"09780143","name":"Waltenhofen","type":"Kreisangehörige_Gemeinde"},"district":{"key":"09780","name":"Oberallgäu","type":"Landkreis"},"federalState":{"key":"09","name":"Bayern"}},{"name":"Im Weggenturm","postalCode":"87448","locality":"Waltenhofen","municipality":{"key":"09780143","name":"Waltenhofen","type":"Kreisangehörige_Gemeinde"},"district":{"key":"09780","name":"Oberallgäu","type":"Landkreis"},"federalState":{"key":"09","name":"Bayern"}},{"name":"Industriestr.","postalCode":"87448","locality":"Waltenhofen","municipality":{"key":"09780143","name":"Waltenhofen","type":"Kreisangehörige_Gemeinde"},"district":{"key":"09780","name":"Oberallgäu","type":"Landkreis"},"federalState":{"key":"09","name":"Bayern"}},{"name":"Ins Thal","postalCode":"87448","locality":"Waltenhofen","municipality":{"key":"09780143","name":"Waltenhofen","type":"Kreisangehörige_Gemeinde"},"district":{"key":"09780","name":"Oberallgäu","type":"Landkreis"},"federalState":{"key":"09","name":"Bayern"}},{"name":"Jahnstr.","postalCode":"87448","locality":"Waltenhofen","municipality":{"key":"09780143","name":"Waltenhofen","type":"Kreisangehörige_Gemeinde"},"district":{"key":"09780","name":"Oberallgäu","type":"Landkreis"},"federalState":{"key":"09","name":"Bayern"}},{"name":"Kalvarienberg","postalCode":"87448","locality":"Waltenhofen","municipality":{"key":"09780143","name":"Waltenhofen","type":"Kreisangehörige_Gemeinde"},"district":{"key":"09780","name":"Oberallgäu","type":"Landkreis"},"federalState":{"key":"09","name":"Bayern"}},{"name":"Kapellenweg","postalCode":"87448","locality":"Waltenhofen","municipality":{"key":"09780143","name":"Waltenhofen","type":"Kreisangehörige_Gemeinde"},"district":{"key":"09780","name":"Oberallgäu","type":"Landkreis"},"federalState":{"key":"09","name":"Bayern"}},{"name":"Kastanienweg","postalCode":"87448","locality":"Waltenhofen","municipality":{"key":"09780143","name":"Waltenhofen","type":"Kreisangehörige_Gemeinde"},"district":{"key":"09780","name":"Oberallgäu","type":"Landkreis"},"federalState":{"key":"09","name":"Bayern"}},{"name":"Kemptener Str.","postalCode":"87448","locality":"Waltenhofen","municipality":{"key":"09780143","name":"Waltenhofen","type":"Kreisangehörige_Gemeinde"},"district":{"key":"09780","name":"Oberallgäu","type":"Landkreis"},"federalState":{"key":"09","name":"Bayern"}},{"name":"Kettelerstr.","postalCode":"87448","locality":"Waltenhofen","municipality":{"key":"09780143","name":"Waltenhofen","type":"Kreisangehörige_Gemeinde"},"district":{"key":"09780","name":"Oberallgäu","type":"Landkreis"},"federalState":{"key":"09","name":"Bayern"}},{"name":"Kiefernweg","postalCode":"87448","locality":"Waltenhofen","municipality":{"key":"09780143","name":"Waltenhofen","type":"Kreisangehörige_Gemeinde"},"district":{"key":"09780","name":"Oberallgäu","type":"Landkreis"},"federalState":{"key":"09","name":"Bayern"}},{"name":"Kirchberg","postalCode":"87448","locality":"Waltenhofen","municipality":{"key":"09780143","name":"Waltenhofen","type":"Kreisangehörige_Gemeinde"},"district":{"key":"09780","name":"Oberallgäu","type":"Landkreis"},"federalState":{"key":"09","name":"Bayern"}},{"name":"Kohlerbergstr.","postalCode":"87448","locality":"Waltenhofen","municipality":{"key":"09780143","name":"Waltenhofen","type":"Kreisangehörige_Gemeinde"},"district":{"key":"09780","name":"Oberallgäu","type":"Landkreis"},"federalState":{"key":"09","name":"Bayern"}},{"name":"Kolpingstr.","postalCode":"87448","locality":"Waltenhofen","municipality":{"key":"09780143","name":"Waltenhofen","type":"Kreisangehörige_Gemeinde"},"district":{"key":"09780","name":"Oberallgäu","type":"Landkreis"},"federalState":{"key":"09","name":"Bayern"}},{"name":"Königplatz","postalCode":"87448","locality":"Waltenhofen","municipality":{"key":"09780143","name":"Waltenhofen","type":"Kreisangehörige_Gemeinde"},"district":{"key":"09780","name":"Oberallgäu","type":"Landkreis"},"federalState":{"key":"09","name":"Bayern"}},{"name":"Kornacherstr.","postalCode":"87448","locality":"Waltenhofen","municipality":{"key":"09780143","name":"Waltenhofen","type":"Kreisangehörige_Gemeinde"},"district":{"key":"09780","name":"Oberallgäu","type":"Landkreis"},"federalState":{"key":"09","name":"Bayern"}},{"name":"Kuchener Weg","postalCode":"87448","locality":"Waltenhofen","municipality":{"key":"09780143","name":"Waltenhofen","type":"Kreisangehörige_Gemeinde"},"district":{"key":"09780","name":"Oberallgäu","type":"Landkreis"},"federalState":{"key":"09","name":"Bayern"}},{"name":"Kurzberg","postalCode":"87448","locality":"Waltenhofen","municipality":{"key":"09780143","name":"Waltenhofen","type":"Kreisangehörige_Gemeinde"},"district":{"key":"09780","name":"Oberallgäu","type":"Landkreis"},"federalState":{"key":"09","name":"Bayern"}},{"name":"Langenegg","postalCode":"87448","locality":"Waltenhofen","municipality":{"key":"09780143","name":"Waltenhofen","type":"Kreisangehörige_Gemeinde"},"district":{"key":"09780","name":"Oberallgäu","type":"Landkreis"},"federalState":{"key":"09","name":"Bayern"}},{"name":"Lanzen","postalCode":"87448","locality":"Waltenhofen","municipality":{"key":"09780143","name":"Waltenhofen","type":"Kreisangehörige_Gemeinde"},"district":{"key":"09780","name":"Oberallgäu","type":"Landkreis"},"federalState":{"key":"09","name":"Bayern"}},{"name":"Lärchenweg","postalCode":"87448","locality":"Waltenhofen","municipality":{"key":"09780143","name":"Waltenhofen","type":"Kreisangehörige_Gemeinde"},"district":{"key":"09780","name":"Oberallgäu","type":"Landkreis"},"federalState":{"key":"09","name":"Bayern"}},{"name":"Laubgarten","postalCode":"87448","locality":"Waltenhofen","municipality":{"key":"09780143","name":"Waltenhofen","type":"Kreisangehörige_Gemeinde"},"district":{"key":"09780","name":"Oberallgäu","type":"Landkreis"},"federalState":{"key":"09","name":"Bayern"}},{"name":"Lerchenweg","postalCode":"87448","locality":"Waltenhofen","municipality":{"key":"09780143","name":"Waltenhofen","type":"Kreisangehörige_Gemeinde"},"district":{"key":"09780","name":"Oberallgäu","type":"Landkreis"},"federalState":{"key":"09","name":"Bayern"}},{"name":"Lindenweg","postalCode":"87448","locality":"Waltenhofen","municipality":{"key":"09780143","name":"Waltenhofen","type":"Kreisangehörige_Gemeinde"},"district":{"key":"09780","name":"Oberallgäu","type":"Landkreis"},"federalState":{"key":"09","name":"Bayern"}},{"name":"Ludwig-Gruber-Weg","postalCode":"87448","locality":"Waltenhofen","municipality":{"key":"09780143","name":"Waltenhofen","type":"Kreisangehörige_Gemeinde"},"district":{"key":"09780","name":"Oberallgäu","type":"Landkreis"},"federalState":{"key":"09","name":"Bayern"}},{"name":"Ludwig-Prandtl-Str.","postalCode":"87448","locality":"Waltenhofen","municipality":{"key":"09780143","name":"Waltenhofen","type":"Kreisangehörige_Gemeinde"},"district":{"key":"09780","name":"Oberallgäu","type":"Landkreis"},"federalState":{"key":"09","name":"Bayern"}},{"name":"Magnusstr.","postalCode":"87448","locality":"Waltenhofen","municipality":{"key":"09780143","name":"Waltenhofen","type":"Kreisangehörige_Gemeinde"},"district":{"key":"09780","name":"Oberallgäu","type":"Landkreis"},"federalState":{"key":"09","name":"Bayern"}},{"name":"Maind","postalCode":"87448","locality":"Waltenhofen","municipality":{"key":"09780143","name":"Waltenhofen","type":"Kreisangehörige_Gemeinde"},"district":{"key":"09780","name":"Oberallgäu","type":"Landkreis"},"federalState":{"key":"09","name":"Bayern"}},{"name":"Martin-Schweiger-Str.","postalCode":"87448","locality":"Waltenhofen","municipality":{"key":"09780143","name":"Waltenhofen","type":"Kreisangehörige_Gemeinde"},"district":{"key":"09780","name":"Oberallgäu","type":"Landkreis"},"federalState":{"key":"09","name":"Bayern"}},{"name":"Metzgergasse","postalCode":"87448","locality":"Waltenhofen","municipality":{"key":"09780143","name":"Waltenhofen","type":"Kreisangehörige_Gemeinde"},"district":{"key":"09780","name":"Oberallgäu","type":"Landkreis"},"federalState":{"key":"09","name":"Bayern"}},{"name":"Michael-Beer-Str.","postalCode":"87448","locality":"Waltenhofen","municipality":{"key":"09780143","name":"Waltenhofen","type":"Kreisangehörige_Gemeinde"},"district":{"key":"09780","name":"Oberallgäu","type":"Landkreis"},"federalState":{"key":"09","name":"Bayern"}},{"name":"Mittagweg","postalCode":"87448","locality":"Waltenhofen","municipality":{"key":"09780143","name":"Waltenhofen","type":"Kreisangehörige_Gemeinde"},"district":{"key":"09780","name":"Oberallgäu","type":"Landkreis"},"federalState":{"key":"09","name":"Bayern"}},{"name":"Mühlenbergstr.","postalCode":"87448","locality":"Waltenhofen","municipality":{"key":"09780143","name":"Waltenhofen","type":"Kreisangehörige_Gemeinde"},"district":{"key":"09780","name":"Oberallgäu","type":"Landkreis"},"federalState":{"key":"09","name":"Bayern"}},{"name":"Nebelhornstr.","postalCode":"87448","locality":"Waltenhofen","municipality":{"key":"09780143","name":"Waltenhofen","type":"Kreisangehörige_Gemeinde"},"district":{"key":"09780","name":"Oberallgäu","type":"Landkreis"},"federalState":{"key":"09","name":"Bayern"}},{"name":"Nestlestr.","postalCode":"87448","locality":"Waltenhofen","municipality":{"key":"09780143","name":"Waltenhofen","type":"Kreisangehörige_Gemeinde"},"district":{"key":"09780","name":"Oberallgäu","type":"Landkreis"},"federalState":{"key":"09","name":"Bayern"}},{"name":"Niedersonthofener Str.","postalCode":"87448","locality":"Waltenhofen","municipality":{"key":"09780143","name":"Waltenhofen","type":"Kreisangehörige_Gemeinde"},"district":{"key":"09780","name":"Oberallgäu","type":"Landkreis"},"federalState":{"key":"09","name":"Bayern"}},{"name":"Oberdorfer Bahnhofstr.","postalCode":"87448","locality":"Waltenhofen","municipality":{"key":"09780143","name":"Waltenhofen","type":"Kreisangehörige_Gemeinde"},"district":{"key":"09780","name":"Oberallgäu","type":"Landkreis"},"federalState":{"key":"09","name":"Bayern"}},{"name":"Oberstdorfer Str.","postalCode":"87448","locality":"Waltenhofen","municipality":{"key":"09780143","name":"Waltenhofen","type":"Kreisangehörige_Gemeinde"},"district":{"key":"09780","name":"Oberallgäu","type":"Landkreis"},"federalState":{"key":"09","name":"Bayern"}},{"name":"Ottostr.","postalCode":"87448","locality":"Waltenhofen","municipality":{"key":"09780143","name":"Waltenhofen","type":"Kreisangehörige_Gemeinde"},"district":{"key":"09780","name":"Oberallgäu","type":"Landkreis"},"federalState":{"key":"09","name":"Bayern"}},{"name":"Papiermühlenweg","postalCode":"87448","locality":"Waltenhofen","municipality":{"key":"09780143","name":"Waltenhofen","type":"Kreisangehörige_Gemeinde"},"district":{"key":"09780","name":"Oberallgäu","type":"Landkreis"},"federalState":{"key":"09","name":"Bayern"}},{"name":"Paul-Zoll-Str.","postalCode":"87448","locality":"Waltenhofen","municipality":{"key":"09780143","name":"Waltenhofen","type":"Kreisangehörige_Gemeinde"},"district":{"key":"09780","name":"Oberallgäu","type":"Landkreis"},"federalState":{"key":"09","name":"Bayern"}},{"name":"Rathausstr.","postalCode":"87448","locality":"Waltenhofen","municipality":{"key":"09780143","name":"Waltenhofen","type":"Kreisangehörige_Gemeinde"},"district":{"key":"09780","name":"Oberallgäu","type":"Landkreis"},"federalState":{"key":"09","name":"Bayern"}},{"name":"Rauholzstr.","postalCode":"87448","locality":"Waltenhofen","municipality":{"key":"09780143","name":"Waltenhofen","type":"Kreisangehörige_Gemeinde"},"district":{"key":"09780","name":"Oberallgäu","type":"Landkreis"},"federalState":{"key":"09","name":"Bayern"}},{"name":"Rieggis","postalCode":"87448","locality":"Waltenhofen","municipality":{"key":"09780143","name":"Waltenhofen","type":"Kreisangehörige_Gemeinde"},"district":{"key":"09780","name":"Oberallgäu","type":"Landkreis"},"federalState":{"key":"09","name":"Bayern"}},{"name":"Ringstr.","postalCode":"87448","locality":"Waltenhofen","municipality":{"key":"09780143","name":"Waltenhofen","type":"Kreisangehörige_Gemeinde"},"district":{"key":"09780","name":"Oberallgäu","type":"Landkreis"},"federalState":{"key":"09","name":"Bayern"}},{"name":"Rottachbergstr.","postalCode":"87448","locality":"Waltenhofen","municipality":{"key":"09780143","name":"Waltenhofen","type":"Kreisangehörige_Gemeinde"},"district":{"key":"09780","name":"Oberallgäu","type":"Landkreis"},"federalState":{"key":"09","name":"Bayern"}},{"name":"Sankt-Martin-Str.","postalCode":"87448","locality":"Waltenhofen","municipality":{"key":"09780143","name":"Waltenhofen","type":"Kreisangehörige_Gemeinde"},"district":{"key":"09780","name":"Oberallgäu","type":"Landkreis"},"federalState":{"key":"09","name":"Bayern"}},{"name":"Schlesierstr.","postalCode":"87448","locality":"Waltenhofen","municipality":{"key":"09780143","name":"Waltenhofen","type":"Kreisangehörige_Gemeinde"},"district":{"key":"09780","name":"Oberallgäu","type":"Landkreis"},"federalState":{"key":"09","name":"Bayern"}},{"name":"Schorrenweg","postalCode":"87448","locality":"Waltenhofen","municipality":{"key":"09780143","name":"Waltenhofen","type":"Kreisangehörige_Gemeinde"},"district":{"key":"09780","name":"Oberallgäu","type":"Landkreis"},"federalState":{"key":"09","name":"Bayern"}},{"name":"Seestr.","postalCode":"87448","locality":"Waltenhofen","municipality":{"key":"09780143","name":"Waltenhofen","type":"Kreisangehörige_Gemeinde"},"district":{"key":"09780","name":"Oberallgäu","type":"Landkreis"},"federalState":{"key":"09","name":"Bayern"}},{"name":"Seewiesenweg","postalCode":"87448","locality":"Waltenhofen","municipality":{"key":"09780143","name":"Waltenhofen","type":"Kreisangehörige_Gemeinde"},"district":{"key":"09780","name":"Oberallgäu","type":"Landkreis"},"federalState":{"key":"09","name":"Bayern"}},{"name":"Serrostr.","postalCode":"87448","locality":"Waltenhofen","municipality":{"key":"09780143","name":"Waltenhofen","type":"Kreisangehörige_Gemeinde"},"district":{"key":"09780","name":"Oberallgäu","type":"Landkreis"},"federalState":{"key":"09","name":"Bayern"}},{"name":"Sonnenstr.","postalCode":"87448","locality":"Waltenhofen","municipality":{"key":"09780143","name":"Waltenhofen","type":"Kreisangehörige_Gemeinde"},"district":{"key":"09780","name":"Oberallgäu","type":"Landkreis"},"federalState":{"key":"09","name":"Bayern"}},{"name":"Sportplatzstr.","postalCode":"87448","locality":"Waltenhofen","municipality":{"key":"09780143","name":"Waltenhofen","type":"Kreisangehörige_Gemeinde"},"district":{"key":"09780","name":"Oberallgäu","type":"Landkreis"},"federalState":{"key":"09","name":"Bayern"}},{"name":"Steinebergstr.","postalCode":"87448","locality":"Waltenhofen","municipality":{"key":"09780143","name":"Waltenhofen","type":"Kreisangehörige_Gemeinde"},"district":{"key":"09780","name":"Oberallgäu","type":"Landkreis"},"federalState":{"key":"09","name":"Bayern"}},{"name":"Stoffelbergweg","postalCode":"87448","locality":"Waltenhofen","municipality":{"key":"09780143","name":"Waltenhofen","type":"Kreisangehörige_Gemeinde"},"district":{"key":"09780","name":"Oberallgäu","type":"Landkreis"},"federalState":{"key":"09","name":"Bayern"}},{"name":"Stuibenblick","postalCode":"87448","locality":"Waltenhofen","municipality":{"key":"09780143","name":"Waltenhofen","type":"Kreisangehörige_Gemeinde"},"district":{"key":"09780","name":"Oberallgäu","type":"Landkreis"},"federalState":{"key":"09","name":"Bayern"}},{"name":"Stuibenweg","postalCode":"87448","locality":"Waltenhofen","municipality":{"key":"09780143","name":"Waltenhofen","type":"Kreisangehörige_Gemeinde"},"district":{"key":"09780","name":"Oberallgäu","type":"Landkreis"},"federalState":{"key":"09","name":"Bayern"}},{"name":"Sudetenstr.","postalCode":"87448","locality":"Waltenhofen","municipality":{"key":"09780143","name":"Waltenhofen","type":"Kreisangehörige_Gemeinde"},"district":{"key":"09780","name":"Oberallgäu","type":"Landkreis"},"federalState":{"key":"09","name":"Bayern"}},{"name":"Tannenweg","postalCode":"87448","locality":"Waltenhofen","municipality":{"key":"09780143","name":"Waltenhofen","type":"Kreisangehörige_Gemeinde"},"district":{"key":"09780","name":"Oberallgäu","type":"Landkreis"},"federalState":{"key":"09","name":"Bayern"}},{"name":"Tossostr.","postalCode":"87448","locality":"Waltenhofen","municipality":{"key":"09780143","name":"Waltenhofen","type":"Kreisangehörige_Gemeinde"},"district":{"key":"09780","name":"Oberallgäu","type":"Landkreis"},"federalState":{"key":"09","name":"Bayern"}},{"name":"Ulrichgasse","postalCode":"87448","locality":"Waltenhofen","municipality":{"key":"09780143","name":"Waltenhofen","type":"Kreisangehörige_Gemeinde"},"district":{"key":"09780","name":"Oberallgäu","type":"Landkreis"},"federalState":{"key":"09","name":"Bayern"}},{"name":"Untere Dorfstr.","postalCode":"87448","locality":"Waltenhofen","municipality":{"key":"09780143","name":"Waltenhofen","type":"Kreisangehörige_Gemeinde"},"district":{"key":"09780","name":"Oberallgäu","type":"Landkreis"},"federalState":{"key":"09","name":"Bayern"}},{"name":"Waldstr.","postalCode":"87448","locality":"Waltenhofen","municipality":{"key":"09780143","name":"Waltenhofen","type":"Kreisangehörige_Gemeinde"},"district":{"key":"09780","name":"Oberallgäu","type":"Landkreis"},"federalState":{"key":"09","name":"Bayern"}},{"name":"Wankelstr.","postalCode":"87448","locality":"Waltenhofen","municipality":{"key":"09780143","name":"Waltenhofen","type":"Kreisangehörige_Gemeinde"},"district":{"key":"09780","name":"Oberallgäu","type":"Landkreis"},"federalState":{"key":"09","name":"Bayern"}},{"name":"Weiberg","postalCode":"87448","locality":"Waltenhofen","municipality":{"key":"09780143","name":"Waltenhofen","type":"Kreisangehörige_Gemeinde"},"district":{"key":"09780","name":"Oberallgäu","type":"Landkreis"},"federalState":{"key":"09","name":"Bayern"}},{"name":"Weidenweg","postalCode":"87448","locality":"Waltenhofen","municipality":{"key":"09780143","name":"Waltenhofen","type":"Kreisangehörige_Gemeinde"},"district":{"key":"09780","name":"Oberallgäu","type":"Landkreis"},"federalState":{"key":"09","name":"Bayern"}},{"name":"Werdensteiner Weg","postalCode":"87448","locality":"Waltenhofen","municipality":{"key":"09780143","name":"Waltenhofen","type":"Kreisangehörige_Gemeinde"},"district":{"key":"09780","name":"Oberallgäu","type":"Landkreis"},"federalState":{"key":"09","name":"Bayern"}},{"name":"Wiesenweg","postalCode":"87448","locality":"Waltenhofen","municipality":{"key":"09780143","name":"Waltenhofen","type":"Kreisangehörige_Gemeinde"},"district":{"key":"09780","name":"Oberallgäu","type":"Landkreis"},"federalState":{"key":"09","name":"Bayern"}},{"name":"Wilhelm-Brehm-Weg","postalCode":"87448","locality":"Waltenhofen","municipality":{"key":"09780143","name":"Waltenhofen","type":"Kreisangehörige_Gemeinde"},"district":{"key":"09780","name":"Oberallgäu","type":"Landkreis"},"federalState":{"key":"09","name":"Bayern"}},{"name":"Wolfen","postalCode":"87448","locality":"Waltenhofen","municipality":{"key":"09780143","name":"Waltenhofen","type":"Kreisangehörige_Gemeinde"},"district":{"key":"09780","name":"Oberallgäu","type":"Landkreis"},"federalState":{"key":"09","name":"Bayern"}},{"name":"Yves-Fily-Str.","postalCode":"87448","locality":"Waltenhofen","municipality":{"key":"09780143","name":"Waltenhofen","type":"Kreisangehörige_Gemeinde"},"district":{"key":"09780","name":"Oberallgäu","type":"Landkreis"},"federalState":{"key":"09","name":"Bayern"}},{"name":"Zellen","postalCode":"87448","locality":"Waltenhofen","municipality":{"key":"09780143","name":"Waltenhofen","type":"Kreisangehörige_Gemeinde"},"district":{"key":"09780","name":"Oberallgäu","type":"Landkreis"},"federalState":{"key":"09","name":"Bayern"}},{"name":"Zettlerstr.","postalCode":"87448","locality":"Waltenhofen","municipality":{"key":"09780143","name":"Waltenhofen","type":"Kreisangehörige_Gemeinde"},"district":{"key":"09780","name":"Oberallgäu","type":"Landkreis"},"federalState":{"key":"09","name":"Bayern"}},{"name":"Ziegeleiweg","postalCode":"87448","locality":"Waltenhofen","municipality":{"key":"09780143","name":"Waltenhofen","type":"Kreisangehörige_Gemeinde"},"district":{"key":"09780","name":"Oberallgäu","type":"Landkreis"},"federalState":{"key":"09","name":"Bayern"}},{"name":"Zirbenweg","postalCode":"87448","locality":"Waltenhofen","municipality":{"key":"09780143","name":"Waltenhofen","type":"Kreisangehörige_Gemeinde"},"district":{"key":"09780","name":"Oberallgäu","type":"Landkreis"},"federalState":{"key":"09","name":"Bayern"}},{"name":"Zu den Birken","postalCode":"87448","locality":"Waltenhofen","municipality":{"key":"09780143","name":"Waltenhofen","type":"Kreisangehörige_Gemeinde"},"district":{"key":"09780","name":"Oberallgäu","type":"Landkreis"},"federalState":{"key":"09","name":"Bayern"}},{"name":"Zugspitzstr.","postalCode":"87448","locality":"Waltenhofen","municipality":{"key":"09780143","name":"Waltenhofen","type":"Kreisangehörige_Gemeinde"},"district":{"key":"09780","name":"Oberallgäu","type":"Landkreis"},"federalState":{"key":"09","name":"Bayern"}},{"name":"Zum Illerfeld","postalCode":"87448","locality":"Waltenhofen","municipality":{"key":"09780143","name":"Waltenhofen","type":"Kreisangehörige_Gemeinde"},"district":{"key":"09780","name":"Oberallgäu","type":"Landkreis"},"federalState":{"key":"09","name":"Bayern"}},{"name":"Zum Stein","postalCode":"87448","locality":"Waltenhofen","municipality":{"key":"09780143","name":"Waltenhofen","type":"Kreisangehörige_Gemeinde"},"district":{"key":"09780","name":"Oberallgäu","type":"Landkreis"},"federalState":{"key":"09","name":"Bayern"}},]