[{"name":"A5","postalCode":"93474","locality":"Arrach","municipality":{"key":"09372113","name":"Arrach","type":"Kreisangehörige_Gemeinde"},"district":{"key":"09372","name":"Cham","type":"Landkreis"},"federalState":{"key":"09","name":"Bayern"}},{"name":"A8","postalCode":"93474","locality":"Arrach","municipality":{"key":"09372113","name":"Arrach","type":"Kreisangehörige_Gemeinde"},"district":{"key":"09372","name":"Cham","type":"Landkreis"},"federalState":{"key":"09","name":"Bayern"}},{"name":"Ahornstr.","postalCode":"93474","locality":"Arrach","municipality":{"key":"09372113","name":"Arrach","type":"Kreisangehörige_Gemeinde"},"district":{"key":"09372","name":"Cham","type":"Landkreis"},"federalState":{"key":"09","name":"Bayern"}},{"name":"Am Anger","postalCode":"93474","locality":"Arrach","municipality":{"key":"09372113","name":"Arrach","type":"Kreisangehörige_Gemeinde"},"district":{"key":"09372","name":"Cham","type":"Landkreis"},"federalState":{"key":"09","name":"Bayern"}},{"name":"Am Hochfeld","postalCode":"93474","locality":"Arrach","municipality":{"key":"09372113","name":"Arrach","type":"Kreisangehörige_Gemeinde"},"district":{"key":"09372","name":"Cham","type":"Landkreis"},"federalState":{"key":"09","name":"Bayern"}},{"name":"Am Hochrain","postalCode":"93474","locality":"Arrach","municipality":{"key":"09372113","name":"Arrach","type":"Kreisangehörige_Gemeinde"},"district":{"key":"09372","name":"Cham","type":"Landkreis"},"federalState":{"key":"09","name":"Bayern"}},{"name":"Auerhahnloipe","postalCode":"93474","locality":"Arrach","municipality":{"key":"09372113","name":"Arrach","type":"Kreisangehörige_Gemeinde"},"district":{"key":"09372","name":"Cham","type":"Landkreis"},"federalState":{"key":"09","name":"Bayern"}},{"name":"Auerhahnweg","postalCode":"93474","locality":"Arrach","municipality":{"key":"09372113","name":"Arrach","type":"Kreisangehörige_Gemeinde"},"district":{"key":"09372","name":"Cham","type":"Landkreis"},"federalState":{"key":"09","name":"Bayern"}},{"name":"Bachweg","postalCode":"93474","locality":"Arrach","municipality":{"key":"09372113","name":"Arrach","type":"Kreisangehörige_Gemeinde"},"district":{"key":"09372","name":"Cham","type":"Landkreis"},"federalState":{"key":"09","name":"Bayern"}},{"name":"Bahnhofstr.","postalCode":"93474","locality":"Arrach","municipality":{"key":"09372113","name":"Arrach","type":"Kreisangehörige_Gemeinde"},"district":{"key":"09372","name":"Cham","type":"Landkreis"},"federalState":{"key":"09","name":"Bayern"}},{"name":"Bergweg","postalCode":"93474","locality":"Arrach","municipality":{"key":"09372113","name":"Arrach","type":"Kreisangehörige_Gemeinde"},"district":{"key":"09372","name":"Cham","type":"Landkreis"},"federalState":{"key":"09","name":"Bayern"}},{"name":"Birkenstr.","postalCode":"93474","locality":"Arrach","municipality":{"key":"09372113","name":"Arrach","type":"Kreisangehörige_Gemeinde"},"district":{"key":"09372","name":"Cham","type":"Landkreis"},"federalState":{"key":"09","name":"Bayern"}},{"name":"Birkenweg","postalCode":"93474","locality":"Arrach","municipality":{"key":"09372113","name":"Arrach","type":"Kreisangehörige_Gemeinde"},"district":{"key":"09372","name":"Cham","type":"Landkreis"},"federalState":{"key":"09","name":"Bayern"}},{"name":"Chambstr.","postalCode":"93413","locality":"Cham","municipality":{"key":"09372116","name":"Cham, St","type":"Stadt"},"district":{"key":"09372","name":"Cham","type":"Landkreis"},"federalState":{"key":"09","name":"Bayern"}},{"name":"Chamer Str.","postalCode":"93466","locality":"Chamerau","municipality":{"key":"09372117","name":"Chamerau","type":"Kreisangehörige_Gemeinde"},"district":{"key":"09372","name":"Cham","type":"Landkreis"},"federalState":{"key":"09","name":"Bayern"}},{"name":"Clemensstr.","postalCode":"93413","locality":"Cham","municipality":{"key":"09372116","name":"Cham, St","type":"Stadt"},"district":{"key":"09372","name":"Cham","type":"Landkreis"},"federalState":{"key":"09","name":"Bayern"}},{"name":"Cu5","postalCode":"93466","locality":"Chamerau","municipality":{"key":"09372117","name":"Chamerau","type":"Kreisangehörige_Gemeinde"},"district":{"key":"09372","name":"Cham","type":"Landkreis"},"federalState":{"key":"09","name":"Bayern"}},{"name":"Dorfstr.","postalCode":"93474","locality":"Arrach","municipality":{"key":"09372113","name":"Arrach","type":"Kreisangehörige_Gemeinde"},"district":{"key":"09372","name":"Cham","type":"Landkreis"},"federalState":{"key":"09","name":"Bayern"}},{"name":"Drittenzell","postalCode":"93474","locality":"Arrach","municipality":{"key":"09372113","name":"Arrach","type":"Kreisangehörige_Gemeinde"},"district":{"key":"09372","name":"Cham","type":"Landkreis"},"federalState":{"key":"09","name":"Bayern"}},{"name":"E6","postalCode":"93474","locality":"Arrach","municipality":{"key":"09372113","name":"Arrach","type":"Kreisangehörige_Gemeinde"},"district":{"key":"09372","name":"Cham","type":"Landkreis"},"federalState":{"key":"09","name":"Bayern"}},{"name":"Eckstr.","postalCode":"93474","locality":"Arrach","municipality":{"key":"09372113","name":"Arrach","type":"Kreisangehörige_Gemeinde"},"district":{"key":"09372","name":"Cham","type":"Landkreis"},"federalState":{"key":"09","name":"Bayern"}},{"name":"Eichenweg","postalCode":"93474","locality":"Arrach","municipality":{"key":"09372113","name":"Arrach","type":"Kreisangehörige_Gemeinde"},"district":{"key":"09372","name":"Cham","type":"Landkreis"},"federalState":{"key":"09","name":"Bayern"}},{"name":"Engelshütter Str.","postalCode":"93474","locality":"Arrach","municipality":{"key":"09372113","name":"Arrach","type":"Kreisangehörige_Gemeinde"},"district":{"key":"09372","name":"Cham","type":"Landkreis"},"federalState":{"key":"09","name":"Bayern"}},{"name":"Erlenweg","postalCode":"93474","locality":"Arrach","municipality":{"key":"09372113","name":"Arrach","type":"Kreisangehörige_Gemeinde"},"district":{"key":"09372","name":"Cham","type":"Landkreis"},"federalState":{"key":"09","name":"Bayern"}},{"name":"Eschlsaigner Str.","postalCode":"93474","locality":"Arrach","municipality":{"key":"09372113","name":"Arrach","type":"Kreisangehörige_Gemeinde"},"district":{"key":"09372","name":"Cham","type":"Landkreis"},"federalState":{"key":"09","name":"Bayern"}},{"name":"Falkenweg","postalCode":"93413","locality":"Cham","municipality":{"key":"09372116","name":"Cham, St","type":"Stadt"},"district":{"key":"09372","name":"Cham","type":"Landkreis"},"federalState":{"key":"09","name":"Bayern"}},{"name":"Fasanenweg","postalCode":"93413","locality":"Cham","municipality":{"key":"09372116","name":"Cham, St","type":"Stadt"},"district":{"key":"09372","name":"Cham","type":"Landkreis"},"federalState":{"key":"09","name":"Bayern"}},{"name":"Fichtenstr.","postalCode":"93413","locality":"Cham","municipality":{"key":"09372116","name":"Cham, St","type":"Stadt"},"district":{"key":"09372","name":"Cham","type":"Landkreis"},"federalState":{"key":"09","name":"Bayern"}},{"name":"Finkenstr.","postalCode":"93413","locality":"Cham","municipality":{"key":"09372116","name":"Cham, St","type":"Stadt"},"district":{"key":"09372","name":"Cham","type":"Landkreis"},"federalState":{"key":"09","name":"Bayern"}},{"name":"Fischerweg","postalCode":"93413","locality":"Cham","municipality":{"key":"09372116","name":"Cham, St","type":"Stadt"},"district":{"key":"09372","name":"Cham","type":"Landkreis"},"federalState":{"key":"09","name":"Bayern"}},{"name":"Fliederstr.","postalCode":"93413","locality":"Cham","municipality":{"key":"09372116","name":"Cham, St","type":"Stadt"},"district":{"key":"09372","name":"Cham","type":"Landkreis"},"federalState":{"key":"09","name":"Bayern"}},{"name":"Flugplatzweg","postalCode":"93413","locality":"Cham","municipality":{"key":"09372116","name":"Cham, St","type":"Stadt"},"district":{"key":"09372","name":"Cham","type":"Landkreis"},"federalState":{"key":"09","name":"Bayern"}},{"name":"Flurweg","postalCode":"93413","locality":"Cham","municipality":{"key":"09372116","name":"Cham, St","type":"Stadt"},"district":{"key":"09372","name":"Cham","type":"Landkreis"},"federalState":{"key":"09","name":"Bayern"}},{"name":"Föhrenweg","postalCode":"93413","locality":"Cham","municipality":{"key":"09372116","name":"Cham, St","type":"Stadt"},"district":{"key":"09372","name":"Cham","type":"Landkreis"},"federalState":{"key":"09","name":"Bayern"}},{"name":"Forstamtstr.","postalCode":"93413","locality":"Cham","municipality":{"key":"09372116","name":"Cham, St","type":"Stadt"},"district":{"key":"09372","name":"Cham","type":"Landkreis"},"federalState":{"key":"09","name":"Bayern"}},{"name":"Frauendorferweg","postalCode":"93413","locality":"Cham","municipality":{"key":"09372116","name":"Cham, St","type":"Stadt"},"district":{"key":"09372","name":"Cham","type":"Landkreis"},"federalState":{"key":"09","name":"Bayern"}},{"name":"Fritz-Dedat-Str.","postalCode":"93413","locality":"Cham","municipality":{"key":"09372116","name":"Cham, St","type":"Stadt"},"district":{"key":"09372","name":"Cham","type":"Landkreis"},"federalState":{"key":"09","name":"Bayern"}},{"name":"Frühlingsstr.","postalCode":"93413","locality":"Cham","municipality":{"key":"09372116","name":"Cham, St","type":"Stadt"},"district":{"key":"09372","name":"Cham","type":"Landkreis"},"federalState":{"key":"09","name":"Bayern"}},{"name":"Frühlingstr.","postalCode":"93413","locality":"Cham","municipality":{"key":"09372116","name":"Cham, St","type":"Stadt"},"district":{"key":"09372","name":"Cham","type":"Landkreis"},"federalState":{"key":"09","name":"Bayern"}},{"name":"Fuhrmannstr.","postalCode":"93413","locality":"Cham","municipality":{"key":"09372116","name":"Cham, St","type":"Stadt"},"district":{"key":"09372","name":"Cham","type":"Landkreis"},"federalState":{"key":"09","name":"Bayern"}},{"name":"Fürstenweg","postalCode":"93413","locality":"Cham","municipality":{"key":"09372116","name":"Cham, St","type":"Stadt"},"district":{"key":"09372","name":"Cham","type":"Landkreis"},"federalState":{"key":"09","name":"Bayern"}},{"name":"Further Str.","postalCode":"93413","locality":"Cham","municipality":{"key":"09372116","name":"Cham, St","type":"Stadt"},"district":{"key":"09372","name":"Cham","type":"Landkreis"},"federalState":{"key":"09","name":"Bayern"}},{"name":"Gartenweg","postalCode":"93474","locality":"Arrach","municipality":{"key":"09372113","name":"Arrach","type":"Kreisangehörige_Gemeinde"},"district":{"key":"09372","name":"Cham","type":"Landkreis"},"federalState":{"key":"09","name":"Bayern"}},{"name":"Glasstr.","postalCode":"93474","locality":"Arrach","municipality":{"key":"09372113","name":"Arrach","type":"Kreisangehörige_Gemeinde"},"district":{"key":"09372","name":"Cham","type":"Landkreis"},"federalState":{"key":"09","name":"Bayern"}},{"name":"Hochfeldstr.","postalCode":"93474","locality":"Arrach","municipality":{"key":"09372113","name":"Arrach","type":"Kreisangehörige_Gemeinde"},"district":{"key":"09372","name":"Cham","type":"Landkreis"},"federalState":{"key":"09","name":"Bayern"}},{"name":"Hohenbogenstr.","postalCode":"93474","locality":"Arrach","municipality":{"key":"09372113","name":"Arrach","type":"Kreisangehörige_Gemeinde"},"district":{"key":"09372","name":"Cham","type":"Landkreis"},"federalState":{"key":"09","name":"Bayern"}},{"name":"Irlsaigner Str.","postalCode":"93474","locality":"Arrach","municipality":{"key":"09372113","name":"Arrach","type":"Kreisangehörige_Gemeinde"},"district":{"key":"09372","name":"Cham","type":"Landkreis"},"federalState":{"key":"09","name":"Bayern"}},{"name":"Jägerweg","postalCode":"93413","locality":"Cham","municipality":{"key":"09372116","name":"Cham, St","type":"Stadt"},"district":{"key":"09372","name":"Cham","type":"Landkreis"},"federalState":{"key":"09","name":"Bayern"}},{"name":"Jahnetweg","postalCode":"93413","locality":"Cham","municipality":{"key":"09372116","name":"Cham, St","type":"Stadt"},"district":{"key":"09372","name":"Cham","type":"Landkreis"},"federalState":{"key":"09","name":"Bayern"}},{"name":"Jahnstr.","postalCode":"93413","locality":"Cham","municipality":{"key":"09372116","name":"Cham, St","type":"Stadt"},"district":{"key":"09372","name":"Cham","type":"Landkreis"},"federalState":{"key":"09","name":"Bayern"}},{"name":"Jakobstr.","postalCode":"93413","locality":"Cham","municipality":{"key":"09372116","name":"Cham, St","type":"Stadt"},"district":{"key":"09372","name":"Cham","type":"Landkreis"},"federalState":{"key":"09","name":"Bayern"}},{"name":"Janahof","postalCode":"93413","locality":"Cham","municipality":{"key":"09372116","name":"Cham, St","type":"Stadt"},"district":{"key":"09372","name":"Cham","type":"Landkreis"},"federalState":{"key":"09","name":"Bayern"}},{"name":"Janahofer Str.","postalCode":"93413","locality":"Cham","municipality":{"key":"09372116","name":"Cham, St","type":"Stadt"},"district":{"key":"09372","name":"Cham","type":"Landkreis"},"federalState":{"key":"09","name":"Bayern"}},{"name":"Johann-Brunner-Str.","postalCode":"93413","locality":"Cham","municipality":{"key":"09372116","name":"Cham, St","type":"Stadt"},"district":{"key":"09372","name":"Cham","type":"Landkreis"},"federalState":{"key":"09","name":"Bayern"}},{"name":"Josef-Heilingbrunner-Str.","postalCode":"93413","locality":"Cham","municipality":{"key":"09372116","name":"Cham, St","type":"Stadt"},"district":{"key":"09372","name":"Cham","type":"Landkreis"},"federalState":{"key":"09","name":"Bayern"}},{"name":"Josef-Schlicht Str.","postalCode":"93413","locality":"Cham","municipality":{"key":"09372116","name":"Cham, St","type":"Stadt"},"district":{"key":"09372","name":"Cham","type":"Landkreis"},"federalState":{"key":"09","name":"Bayern"}},{"name":"Judenstr.","postalCode":"93413","locality":"Cham","municipality":{"key":"09372116","name":"Cham, St","type":"Stadt"},"district":{"key":"09372","name":"Cham","type":"Landkreis"},"federalState":{"key":"09","name":"Bayern"}},{"name":"Kaitersbergstr.","postalCode":"93474","locality":"Arrach","municipality":{"key":"09372113","name":"Arrach","type":"Kreisangehörige_Gemeinde"},"district":{"key":"09372","name":"Cham","type":"Landkreis"},"federalState":{"key":"09","name":"Bayern"}},{"name":"Kapellenweg","postalCode":"93474","locality":"Arrach","municipality":{"key":"09372113","name":"Arrach","type":"Kreisangehörige_Gemeinde"},"district":{"key":"09372","name":"Cham","type":"Landkreis"},"federalState":{"key":"09","name":"Bayern"}},{"name":"Kirchenstr.","postalCode":"93474","locality":"Arrach","municipality":{"key":"09372113","name":"Arrach","type":"Kreisangehörige_Gemeinde"},"district":{"key":"09372","name":"Cham","type":"Landkreis"},"federalState":{"key":"09","name":"Bayern"}},{"name":"Kirchenweg","postalCode":"93474","locality":"Arrach","municipality":{"key":"09372113","name":"Arrach","type":"Kreisangehörige_Gemeinde"},"district":{"key":"09372","name":"Cham","type":"Landkreis"},"federalState":{"key":"09","name":"Bayern"}},{"name":"Lissen","postalCode":"93474","locality":"Arrach","municipality":{"key":"09372113","name":"Arrach","type":"Kreisangehörige_Gemeinde"},"district":{"key":"09372","name":"Cham","type":"Landkreis"},"federalState":{"key":"09","name":"Bayern"}},{"name":"Mittagsteinstr.","postalCode":"93474","locality":"Arrach","municipality":{"key":"09372113","name":"Arrach","type":"Kreisangehörige_Gemeinde"},"district":{"key":"09372","name":"Cham","type":"Landkreis"},"federalState":{"key":"09","name":"Bayern"}},{"name":"Mittelweg","postalCode":"93474","locality":"Arrach","municipality":{"key":"09372113","name":"Arrach","type":"Kreisangehörige_Gemeinde"},"district":{"key":"09372","name":"Cham","type":"Landkreis"},"federalState":{"key":"09","name":"Bayern"}},{"name":"Moorlehrpfad","postalCode":"93474","locality":"Arrach","municipality":{"key":"09372113","name":"Arrach","type":"Kreisangehörige_Gemeinde"},"district":{"key":"09372","name":"Cham","type":"Landkreis"},"federalState":{"key":"09","name":"Bayern"}},{"name":"Nariskerstr.","postalCode":"93413","locality":"Cham","municipality":{"key":"09372116","name":"Cham, St","type":"Stadt"},"district":{"key":"09372","name":"Cham","type":"Landkreis"},"federalState":{"key":"09","name":"Bayern"}},{"name":"Nikolaus-Brantl-Weg","postalCode":"93413","locality":"Cham","municipality":{"key":"09372116","name":"Cham, St","type":"Stadt"},"district":{"key":"09372","name":"Cham","type":"Landkreis"},"federalState":{"key":"09","name":"Bayern"}},{"name":"Nordgaustr.","postalCode":"93413","locality":"Cham","municipality":{"key":"09372116","name":"Cham, St","type":"Stadt"},"district":{"key":"09372","name":"Cham","type":"Landkreis"},"federalState":{"key":"09","name":"Bayern"}},{"name":"Nunsting","postalCode":"93413","locality":"Cham","municipality":{"key":"09372116","name":"Cham, St","type":"Stadt"},"district":{"key":"09372","name":"Cham","type":"Landkreis"},"federalState":{"key":"09","name":"Bayern"}},{"name":"Nunstinger Str.","postalCode":"93413","locality":"Cham","municipality":{"key":"09372116","name":"Cham, St","type":"Stadt"},"district":{"key":"09372","name":"Cham","type":"Landkreis"},"federalState":{"key":"09","name":"Bayern"}},{"name":"Obere Bergstr.","postalCode":"93474","locality":"Arrach","municipality":{"key":"09372113","name":"Arrach","type":"Kreisangehörige_Gemeinde"},"district":{"key":"09372","name":"Cham","type":"Landkreis"},"federalState":{"key":"09","name":"Bayern"}},{"name":"Osserstr.","postalCode":"93474","locality":"Arrach","municipality":{"key":"09372113","name":"Arrach","type":"Kreisangehörige_Gemeinde"},"district":{"key":"09372","name":"Cham","type":"Landkreis"},"federalState":{"key":"09","name":"Bayern"}},{"name":"Pfarrer-Busch-Str.","postalCode":"93474","locality":"Arrach","municipality":{"key":"09372113","name":"Arrach","type":"Kreisangehörige_Gemeinde"},"district":{"key":"09372","name":"Cham","type":"Landkreis"},"federalState":{"key":"09","name":"Bayern"}},{"name":"Quadfeldmühle","postalCode":"93413","locality":"Cham","municipality":{"key":"09372116","name":"Cham, St","type":"Stadt"},"district":{"key":"09372","name":"Cham","type":"Landkreis"},"federalState":{"key":"09","name":"Bayern"}},{"name":"Rathausplatz","postalCode":"93474","locality":"Arrach","municipality":{"key":"09372113","name":"Arrach","type":"Kreisangehörige_Gemeinde"},"district":{"key":"09372","name":"Cham","type":"Landkreis"},"federalState":{"key":"09","name":"Bayern"}},{"name":"Rathausstr.","postalCode":"93474","locality":"Arrach","municipality":{"key":"09372113","name":"Arrach","type":"Kreisangehörige_Gemeinde"},"district":{"key":"09372","name":"Cham","type":"Landkreis"},"federalState":{"key":"09","name":"Bayern"}},{"name":"Regenhäuser Str.","postalCode":"93474","locality":"Arrach","municipality":{"key":"09372113","name":"Arrach","type":"Kreisangehörige_Gemeinde"},"district":{"key":"09372","name":"Cham","type":"Landkreis"},"federalState":{"key":"09","name":"Bayern"}},{"name":"Regenstr.","postalCode":"93474","locality":"Arrach","municipality":{"key":"09372113","name":"Arrach","type":"Kreisangehörige_Gemeinde"},"district":{"key":"09372","name":"Cham","type":"Landkreis"},"federalState":{"key":"09","name":"Bayern"}},{"name":"Regentalstr.","postalCode":"93474","locality":"Arrach","municipality":{"key":"09372113","name":"Arrach","type":"Kreisangehörige_Gemeinde"},"district":{"key":"09372","name":"Cham","type":"Landkreis"},"federalState":{"key":"09","name":"Bayern"}},{"name":"Riedlsteinstr.","postalCode":"93474","locality":"Arrach","municipality":{"key":"09372113","name":"Arrach","type":"Kreisangehörige_Gemeinde"},"district":{"key":"09372","name":"Cham","type":"Landkreis"},"federalState":{"key":"09","name":"Bayern"}},{"name":"Rosenweg","postalCode":"93474","locality":"Arrach","municipality":{"key":"09372113","name":"Arrach","type":"Kreisangehörige_Gemeinde"},"district":{"key":"09372","name":"Cham","type":"Landkreis"},"federalState":{"key":"09","name":"Bayern"}},{"name":"Sandweg","postalCode":"93474","locality":"Arrach","municipality":{"key":"09372113","name":"Arrach","type":"Kreisangehörige_Gemeinde"},"district":{"key":"09372","name":"Cham","type":"Landkreis"},"federalState":{"key":"09","name":"Bayern"}},{"name":"Schellenfelder Str.","postalCode":"93474","locality":"Arrach","municipality":{"key":"09372113","name":"Arrach","type":"Kreisangehörige_Gemeinde"},"district":{"key":"09372","name":"Cham","type":"Landkreis"},"federalState":{"key":"09","name":"Bayern"}},{"name":"Schulweg","postalCode":"93474","locality":"Arrach","municipality":{"key":"09372113","name":"Arrach","type":"Kreisangehörige_Gemeinde"},"district":{"key":"09372","name":"Cham","type":"Landkreis"},"federalState":{"key":"09","name":"Bayern"}},{"name":"Skywalk-Arnbruck","postalCode":"93474","locality":"Arrach","municipality":{"key":"09372113","name":"Arrach","type":"Kreisangehörige_Gemeinde"},"district":{"key":"09372","name":"Cham","type":"Landkreis"},"federalState":{"key":"09","name":"Bayern"}},{"name":"Sonnenweg","postalCode":"93474","locality":"Arrach","municipality":{"key":"09372113","name":"Arrach","type":"Kreisangehörige_Gemeinde"},"district":{"key":"09372","name":"Cham","type":"Landkreis"},"federalState":{"key":"09","name":"Bayern"}},{"name":"Sperlgasse","postalCode":"93474","locality":"Arrach","municipality":{"key":"09372113","name":"Arrach","type":"Kreisangehörige_Gemeinde"},"district":{"key":"09372","name":"Cham","type":"Landkreis"},"federalState":{"key":"09","name":"Bayern"}},{"name":"Sportplatzweg","postalCode":"93474","locality":"Arrach","municipality":{"key":"09372113","name":"Arrach","type":"Kreisangehörige_Gemeinde"},"district":{"key":"09372","name":"Cham","type":"Landkreis"},"federalState":{"key":"09","name":"Bayern"}},{"name":"Stadlern","postalCode":"93474","locality":"Arrach","municipality":{"key":"09372113","name":"Arrach","type":"Kreisangehörige_Gemeinde"},"district":{"key":"09372","name":"Cham","type":"Landkreis"},"federalState":{"key":"09","name":"Bayern"}},{"name":"St.-Leonhard-Str.","postalCode":"93474","locality":"Arrach","municipality":{"key":"09372113","name":"Arrach","type":"Kreisangehörige_Gemeinde"},"district":{"key":"09372","name":"Cham","type":"Landkreis"},"federalState":{"key":"09","name":"Bayern"}},{"name":"St.-Michael-Str.","postalCode":"93474","locality":"Arrach","municipality":{"key":"09372113","name":"Arrach","type":"Kreisangehörige_Gemeinde"},"district":{"key":"09372","name":"Cham","type":"Landkreis"},"federalState":{"key":"09","name":"Bayern"}},{"name":"Talweg","postalCode":"93474","locality":"Arrach","municipality":{"key":"09372113","name":"Arrach","type":"Kreisangehörige_Gemeinde"},"district":{"key":"09372","name":"Cham","type":"Landkreis"},"federalState":{"key":"09","name":"Bayern"}},{"name":"Tannenecker Weg","postalCode":"93474","locality":"Arrach","municipality":{"key":"09372113","name":"Arrach","type":"Kreisangehörige_Gemeinde"},"district":{"key":"09372","name":"Cham","type":"Landkreis"},"federalState":{"key":"09","name":"Bayern"}},{"name":"Tannenweg","postalCode":"93474","locality":"Arrach","municipality":{"key":"09372113","name":"Arrach","type":"Kreisangehörige_Gemeinde"},"district":{"key":"09372","name":"Cham","type":"Landkreis"},"federalState":{"key":"09","name":"Bayern"}},{"name":"Triftstr.","postalCode":"93474","locality":"Arrach","municipality":{"key":"09372113","name":"Arrach","type":"Kreisangehörige_Gemeinde"},"district":{"key":"09372","name":"Cham","type":"Landkreis"},"federalState":{"key":"09","name":"Bayern"}},{"name":"Tulpenweg","postalCode":"93474","locality":"Arrach","municipality":{"key":"09372113","name":"Arrach","type":"Kreisangehörige_Gemeinde"},"district":{"key":"09372","name":"Cham","type":"Landkreis"},"federalState":{"key":"09","name":"Bayern"}},{"name":"Ulmenstr.","postalCode":"93413","locality":"Cham","municipality":{"key":"09372116","name":"Cham, St","type":"Stadt"},"district":{"key":"09372","name":"Cham","type":"Landkreis"},"federalState":{"key":"09","name":"Bayern"}},{"name":"Untere Bachstr.","postalCode":"93466","locality":"Chamerau","municipality":{"key":"09372117","name":"Chamerau","type":"Kreisangehörige_Gemeinde"},"district":{"key":"09372","name":"Cham","type":"Landkreis"},"federalState":{"key":"09","name":"Bayern"}},{"name":"Unterer Altbachweg","postalCode":"93413","locality":"Cham","municipality":{"key":"09372116","name":"Cham, St","type":"Stadt"},"district":{"key":"09372","name":"Cham","type":"Landkreis"},"federalState":{"key":"09","name":"Bayern"}},{"name":"Untere Regenstr.","postalCode":"93413","locality":"Cham","municipality":{"key":"09372116","name":"Cham, St","type":"Stadt"},"district":{"key":"09372","name":"Cham","type":"Landkreis"},"federalState":{"key":"09","name":"Bayern"}},{"name":"Untere Schulstr.","postalCode":"93413","locality":"Cham","municipality":{"key":"09372116","name":"Cham, St","type":"Stadt"},"district":{"key":"09372","name":"Cham","type":"Landkreis"},"federalState":{"key":"09","name":"Bayern"}},{"name":"Untertraubenbach","postalCode":"93413","locality":"Cham","municipality":{"key":"09372116","name":"Cham, St","type":"Stadt"},"district":{"key":"09372","name":"Cham","type":"Landkreis"},"federalState":{"key":"09","name":"Bayern"}},{"name":"Urbergweg","postalCode":"93413","locality":"Cham","municipality":{"key":"09372116","name":"Cham, St","type":"Stadt"},"district":{"key":"09372","name":"Cham","type":"Landkreis"},"federalState":{"key":"09","name":"Bayern"}},{"name":"Verboten","postalCode":"93474","locality":"Arrach","municipality":{"key":"09372113","name":"Arrach","type":"Kreisangehörige_Gemeinde"},"district":{"key":"09372","name":"Cham","type":"Landkreis"},"federalState":{"key":"09","name":"Bayern"}},{"name":"Wegenfelder Str.","postalCode":"93474","locality":"Arrach","municipality":{"key":"09372113","name":"Arrach","type":"Kreisangehörige_Gemeinde"},"district":{"key":"09372","name":"Cham","type":"Landkreis"},"federalState":{"key":"09","name":"Bayern"}},{"name":"Zum Wasthof","postalCode":"93474","locality":"Arrach","municipality":{"key":"09372113","name":"Arrach","type":"Kreisangehörige_Gemeinde"},"district":{"key":"09372","name":"Cham","type":"Landkreis"},"federalState":{"key":"09","name":"Bayern"}},{"name":"Zwerchlüß","postalCode":"93474","locality":"Arrach","municipality":{"key":"09372113","name":"Arrach","type":"Kreisangehörige_Gemeinde"},"district":{"key":"09372","name":"Cham","type":"Landkreis"},"federalState":{"key":"09","name":"Bayern"}},]