[{"name":"Am Binsenbuck","postalCode":"91740","locality":"Röckingen","municipality":{"key":"09571192","name":"Röckingen","type":"Kreisangehörige_Gemeinde"},"district":{"key":"09571","name":"Ansbach","type":"Landkreis"},"federalState":{"key":"09","name":"Bayern"}},{"name":"Am Schloßgarten","postalCode":"91740","locality":"Röckingen","municipality":{"key":"09571192","name":"Röckingen","type":"Kreisangehörige_Gemeinde"},"district":{"key":"09571","name":"Ansbach","type":"Landkreis"},"federalState":{"key":"09","name":"Bayern"}},{"name":"Bergstr.","postalCode":"91740","locality":"Röckingen","municipality":{"key":"09571192","name":"Röckingen","type":"Kreisangehörige_Gemeinde"},"district":{"key":"09571","name":"Ansbach","type":"Landkreis"},"federalState":{"key":"09","name":"Bayern"}},{"name":"Brauhausstr.","postalCode":"91740","locality":"Röckingen","municipality":{"key":"09571192","name":"Röckingen","type":"Kreisangehörige_Gemeinde"},"district":{"key":"09571","name":"Ansbach","type":"Landkreis"},"federalState":{"key":"09","name":"Bayern"}},{"name":"Brechhausweg","postalCode":"91740","locality":"Röckingen","municipality":{"key":"09571192","name":"Röckingen","type":"Kreisangehörige_Gemeinde"},"district":{"key":"09571","name":"Ansbach","type":"Landkreis"},"federalState":{"key":"09","name":"Bayern"}},{"name":"Charlottenhöhe","postalCode":"91522","locality":"Ansbach","municipality":{"key":"09561000","name":"Ansbach","type":"Kreisfreie_Stadt"},"district":{"key":"09561","name":"Ansbach","type":"Kreisfreie_Stadt"},"federalState":{"key":"09","name":"Bayern"}},{"name":"Charlottenstr.","postalCode":"91522","locality":"Ansbach","municipality":{"key":"09561000","name":"Ansbach","type":"Kreisfreie_Stadt"},"district":{"key":"09561","name":"Ansbach","type":"Kreisfreie_Stadt"},"federalState":{"key":"09","name":"Bayern"}},{"name":"Christian-Sturm-Str.","postalCode":"91522","locality":"Ansbach","municipality":{"key":"09561000","name":"Ansbach","type":"Kreisfreie_Stadt"},"district":{"key":"09561","name":"Ansbach","type":"Kreisfreie_Stadt"},"federalState":{"key":"09","name":"Bayern"}},{"name":"Claffheim","postalCode":"91522","locality":"Ansbach","municipality":{"key":"09561000","name":"Ansbach","type":"Kreisfreie_Stadt"},"district":{"key":"09561","name":"Ansbach","type":"Kreisfreie_Stadt"},"federalState":{"key":"09","name":"Bayern"}},{"name":"Crailsheimstr.","postalCode":"91522","locality":"Ansbach","municipality":{"key":"09561000","name":"Ansbach","type":"Kreisfreie_Stadt"},"district":{"key":"09561","name":"Ansbach","type":"Kreisfreie_Stadt"},"federalState":{"key":"09","name":"Bayern"}},{"name":"Cronegkstr.","postalCode":"91522","locality":"Ansbach","municipality":{"key":"09561000","name":"Ansbach","type":"Kreisfreie_Stadt"},"district":{"key":"09561","name":"Ansbach","type":"Kreisfreie_Stadt"},"federalState":{"key":"09","name":"Bayern"}},{"name":"Danziger Str.","postalCode":"56235","locality":"Ransbach-Baumbach","municipality":{"key":"07143062","name":"Ransbach-Baumbach, Stadt","type":"Stadt"},"district":{"key":"07143","name":"Westerwaldkreis","type":"Landkreis"},"federalState":{"key":"07","name":"Rheinland-Pfalz"}},{"name":"Danziger Str.","postalCode":"91522","locality":"Ansbach","municipality":{"key":"09561000","name":"Ansbach","type":"Kreisfreie_Stadt"},"district":{"key":"09561","name":"Ansbach","type":"Kreisfreie_Stadt"},"federalState":{"key":"09","name":"Bayern"}},{"name":"Dautenwinden","postalCode":"91522","locality":"Ansbach","municipality":{"key":"09561000","name":"Ansbach","type":"Kreisfreie_Stadt"},"district":{"key":"09561","name":"Ansbach","type":"Kreisfreie_Stadt"},"federalState":{"key":"09","name":"Bayern"}},{"name":"Dautenwindener Schneise","postalCode":"91522","locality":"Ansbach","municipality":{"key":"09561000","name":"Ansbach","type":"Kreisfreie_Stadt"},"district":{"key":"09561","name":"Ansbach","type":"Kreisfreie_Stadt"},"federalState":{"key":"09","name":"Bayern"}},{"name":"Dautenwindener Str.","postalCode":"91522","locality":"Ansbach","municipality":{"key":"09561000","name":"Ansbach","type":"Kreisfreie_Stadt"},"district":{"key":"09561","name":"Ansbach","type":"Kreisfreie_Stadt"},"federalState":{"key":"09","name":"Bayern"}},{"name":"Dedinsburger Str.","postalCode":"56235","locality":"Ransbach-Baumbach","municipality":{"key":"07143062","name":"Ransbach-Baumbach, Stadt","type":"Stadt"},"district":{"key":"07143","name":"Westerwaldkreis","type":"Landkreis"},"federalState":{"key":"07","name":"Rheinland-Pfalz"}},{"name":"Desperweg","postalCode":"56235","locality":"Ransbach-Baumbach","municipality":{"key":"07143062","name":"Ransbach-Baumbach, Stadt","type":"Stadt"},"district":{"key":"07143","name":"Westerwaldkreis","type":"Landkreis"},"federalState":{"key":"07","name":"Rheinland-Pfalz"}},{"name":"d'Esterstr.","postalCode":"56235","locality":"Ransbach-Baumbach","municipality":{"key":"07143062","name":"Ransbach-Baumbach, Stadt","type":"Stadt"},"district":{"key":"07143","name":"Westerwaldkreis","type":"Landkreis"},"federalState":{"key":"07","name":"Rheinland-Pfalz"}},{"name":"Dillstr.","postalCode":"56235","locality":"Ransbach-Baumbach","municipality":{"key":"07143062","name":"Ransbach-Baumbach, Stadt","type":"Stadt"},"district":{"key":"07143","name":"Westerwaldkreis","type":"Landkreis"},"federalState":{"key":"07","name":"Rheinland-Pfalz"}},{"name":"Distlerweg","postalCode":"91522","locality":"Ansbach","municipality":{"key":"09561000","name":"Ansbach","type":"Kreisfreie_Stadt"},"district":{"key":"09561","name":"Ansbach","type":"Kreisfreie_Stadt"},"federalState":{"key":"09","name":"Bayern"}},{"name":"Dollmannstr.","postalCode":"91522","locality":"Ansbach","municipality":{"key":"09561000","name":"Ansbach","type":"Kreisfreie_Stadt"},"district":{"key":"09561","name":"Ansbach","type":"Kreisfreie_Stadt"},"federalState":{"key":"09","name":"Bayern"}},{"name":"Dombach im Loch","postalCode":"91522","locality":"Ansbach","municipality":{"key":"09561000","name":"Ansbach","type":"Kreisfreie_Stadt"},"district":{"key":"09561","name":"Ansbach","type":"Kreisfreie_Stadt"},"federalState":{"key":"09","name":"Bayern"}},{"name":"Dombachstr.","postalCode":"91522","locality":"Ansbach","municipality":{"key":"09561000","name":"Ansbach","type":"Kreisfreie_Stadt"},"district":{"key":"09561","name":"Ansbach","type":"Kreisfreie_Stadt"},"federalState":{"key":"09","name":"Bayern"}},{"name":"Dombachtalweg","postalCode":"91522","locality":"Ansbach","municipality":{"key":"09561000","name":"Ansbach","type":"Kreisfreie_Stadt"},"district":{"key":"09561","name":"Ansbach","type":"Kreisfreie_Stadt"},"federalState":{"key":"09","name":"Bayern"}},{"name":"Dora-Hitz-Str.","postalCode":"91522","locality":"Ansbach","municipality":{"key":"09561000","name":"Ansbach","type":"Kreisfreie_Stadt"},"district":{"key":"09561","name":"Ansbach","type":"Kreisfreie_Stadt"},"federalState":{"key":"09","name":"Bayern"}},{"name":"Dorffeldstr.","postalCode":"91522","locality":"Ansbach","municipality":{"key":"09561000","name":"Ansbach","type":"Kreisfreie_Stadt"},"district":{"key":"09561","name":"Ansbach","type":"Kreisfreie_Stadt"},"federalState":{"key":"09","name":"Bayern"}},{"name":"Dorfstr.","postalCode":"91522","locality":"Ansbach","municipality":{"key":"09561000","name":"Ansbach","type":"Kreisfreie_Stadt"},"district":{"key":"09561","name":"Ansbach","type":"Kreisfreie_Stadt"},"federalState":{"key":"09","name":"Bayern"}},{"name":"Dornberger Weg","postalCode":"91522","locality":"Ansbach","municipality":{"key":"09561000","name":"Ansbach","type":"Kreisfreie_Stadt"},"district":{"key":"09561","name":"Ansbach","type":"Kreisfreie_Stadt"},"federalState":{"key":"09","name":"Bayern"}},{"name":"Draisstr.","postalCode":"91522","locality":"Ansbach","municipality":{"key":"09561000","name":"Ansbach","type":"Kreisfreie_Stadt"},"district":{"key":"09561","name":"Ansbach","type":"Kreisfreie_Stadt"},"federalState":{"key":"09","name":"Bayern"}},{"name":"Dresdener Str.","postalCode":"56235","locality":"Ransbach-Baumbach","municipality":{"key":"07143062","name":"Ransbach-Baumbach, Stadt","type":"Stadt"},"district":{"key":"07143","name":"Westerwaldkreis","type":"Landkreis"},"federalState":{"key":"07","name":"Rheinland-Pfalz"}},{"name":"Drosselstr.","postalCode":"91522","locality":"Ansbach","municipality":{"key":"09561000","name":"Ansbach","type":"Kreisfreie_Stadt"},"district":{"key":"09561","name":"Ansbach","type":"Kreisfreie_Stadt"},"federalState":{"key":"09","name":"Bayern"}},{"name":"Drosselweg","postalCode":"56235","locality":"Ransbach-Baumbach","municipality":{"key":"07143062","name":"Ransbach-Baumbach, Stadt","type":"Stadt"},"district":{"key":"07143","name":"Westerwaldkreis","type":"Landkreis"},"federalState":{"key":"07","name":"Rheinland-Pfalz"}},{"name":"Dr.-Zumach-Ring","postalCode":"91522","locality":"Ansbach","municipality":{"key":"09561000","name":"Ansbach","type":"Kreisfreie_Stadt"},"district":{"key":"09561","name":"Ansbach","type":"Kreisfreie_Stadt"},"federalState":{"key":"09","name":"Bayern"}},{"name":"Dürerstr.","postalCode":"91623","locality":"Sachsen bei Ansbach","municipality":{"key":"09571196","name":"Sachsen b.Ansbach","type":"Kreisangehörige_Gemeinde"},"district":{"key":"09571","name":"Ansbach","type":"Landkreis"},"federalState":{"key":"09","name":"Bayern"}},{"name":"Dürrnerstr.","postalCode":"91522","locality":"Ansbach","municipality":{"key":"09561000","name":"Ansbach","type":"Kreisfreie_Stadt"},"district":{"key":"09561","name":"Ansbach","type":"Kreisfreie_Stadt"},"federalState":{"key":"09","name":"Bayern"}},{"name":"Egerstr.","postalCode":"91740","locality":"Röckingen","municipality":{"key":"09571192","name":"Röckingen","type":"Kreisangehörige_Gemeinde"},"district":{"key":"09571","name":"Ansbach","type":"Landkreis"},"federalState":{"key":"09","name":"Bayern"}},{"name":"Falkenweg","postalCode":"91522","locality":"Ansbach","municipality":{"key":"09561000","name":"Ansbach","type":"Kreisfreie_Stadt"},"district":{"key":"09561","name":"Ansbach","type":"Kreisfreie_Stadt"},"federalState":{"key":"09","name":"Bayern"}},{"name":"Fasanensteig","postalCode":"91522","locality":"Ansbach","municipality":{"key":"09561000","name":"Ansbach","type":"Kreisfreie_Stadt"},"district":{"key":"09561","name":"Ansbach","type":"Kreisfreie_Stadt"},"federalState":{"key":"09","name":"Bayern"}},{"name":"Fasanenweg","postalCode":"56235","locality":"Ransbach-Baumbach","municipality":{"key":"07143062","name":"Ransbach-Baumbach, Stadt","type":"Stadt"},"district":{"key":"07143","name":"Westerwaldkreis","type":"Landkreis"},"federalState":{"key":"07","name":"Rheinland-Pfalz"}},{"name":"Faunstr.","postalCode":"91522","locality":"Ansbach","municipality":{"key":"09561000","name":"Ansbach","type":"Kreisfreie_Stadt"},"district":{"key":"09561","name":"Ansbach","type":"Kreisfreie_Stadt"},"federalState":{"key":"09","name":"Bayern"}},{"name":"Feldstr.","postalCode":"56235","locality":"Ransbach-Baumbach","municipality":{"key":"07143062","name":"Ransbach-Baumbach, Stadt","type":"Stadt"},"district":{"key":"07143","name":"Westerwaldkreis","type":"Landkreis"},"federalState":{"key":"07","name":"Rheinland-Pfalz"}},{"name":"Feldstr.","postalCode":"91522","locality":"Ansbach","municipality":{"key":"09561000","name":"Ansbach","type":"Kreisfreie_Stadt"},"district":{"key":"09561","name":"Ansbach","type":"Kreisfreie_Stadt"},"federalState":{"key":"09","name":"Bayern"}},{"name":"Feldwiesenstr.","postalCode":"91522","locality":"Ansbach","municipality":{"key":"09561000","name":"Ansbach","type":"Kreisfreie_Stadt"},"district":{"key":"09561","name":"Ansbach","type":"Kreisfreie_Stadt"},"federalState":{"key":"09","name":"Bayern"}},{"name":"Fermoplatz","postalCode":"91522","locality":"Ansbach","municipality":{"key":"09561000","name":"Ansbach","type":"Kreisfreie_Stadt"},"district":{"key":"09561","name":"Ansbach","type":"Kreisfreie_Stadt"},"federalState":{"key":"09","name":"Bayern"}},{"name":"Feuchtlachfeld","postalCode":"91522","locality":"Ansbach","municipality":{"key":"09561000","name":"Ansbach","type":"Kreisfreie_Stadt"},"district":{"key":"09561","name":"Ansbach","type":"Kreisfreie_Stadt"},"federalState":{"key":"09","name":"Bayern"}},{"name":"Feuchtlachweg","postalCode":"91522","locality":"Ansbach","municipality":{"key":"09561000","name":"Ansbach","type":"Kreisfreie_Stadt"},"district":{"key":"09561","name":"Ansbach","type":"Kreisfreie_Stadt"},"federalState":{"key":"09","name":"Bayern"}},{"name":"Feuchtlachweg","postalCode":"91623","locality":"Sachsen bei Ansbach","municipality":{"key":"09571196","name":"Sachsen b.Ansbach","type":"Kreisangehörige_Gemeinde"},"district":{"key":"09571","name":"Ansbach","type":"Landkreis"},"federalState":{"key":"09","name":"Bayern"}},{"name":"Feuchtwanger Str.","postalCode":"91522","locality":"Ansbach","municipality":{"key":"09561000","name":"Ansbach","type":"Kreisfreie_Stadt"},"district":{"key":"09561","name":"Ansbach","type":"Kreisfreie_Stadt"},"federalState":{"key":"09","name":"Bayern"}},{"name":"Feuerbachstr.","postalCode":"91522","locality":"Ansbach","municipality":{"key":"09561000","name":"Ansbach","type":"Kreisfreie_Stadt"},"district":{"key":"09561","name":"Ansbach","type":"Kreisfreie_Stadt"},"federalState":{"key":"09","name":"Bayern"}},{"name":"Fichtenstr.","postalCode":"91623","locality":"Sachsen bei Ansbach","municipality":{"key":"09571196","name":"Sachsen b.Ansbach","type":"Kreisangehörige_Gemeinde"},"district":{"key":"09571","name":"Ansbach","type":"Landkreis"},"federalState":{"key":"09","name":"Bayern"}},{"name":"Fichtestr.","postalCode":"91522","locality":"Ansbach","municipality":{"key":"09561000","name":"Ansbach","type":"Kreisfreie_Stadt"},"district":{"key":"09561","name":"Ansbach","type":"Kreisfreie_Stadt"},"federalState":{"key":"09","name":"Bayern"}},{"name":"Finkenbuckweg","postalCode":"91522","locality":"Ansbach","municipality":{"key":"09561000","name":"Ansbach","type":"Kreisfreie_Stadt"},"district":{"key":"09561","name":"Ansbach","type":"Kreisfreie_Stadt"},"federalState":{"key":"09","name":"Bayern"}},{"name":"Finkenstr.","postalCode":"91522","locality":"Ansbach","municipality":{"key":"09561000","name":"Ansbach","type":"Kreisfreie_Stadt"},"district":{"key":"09561","name":"Ansbach","type":"Kreisfreie_Stadt"},"federalState":{"key":"09","name":"Bayern"}},{"name":"Finkenweg","postalCode":"56235","locality":"Ransbach-Baumbach","municipality":{"key":"07143062","name":"Ransbach-Baumbach, Stadt","type":"Stadt"},"district":{"key":"07143","name":"Westerwaldkreis","type":"Landkreis"},"federalState":{"key":"07","name":"Rheinland-Pfalz"}},{"name":"Fischerstr.","postalCode":"91522","locality":"Ansbach","municipality":{"key":"09561000","name":"Ansbach","type":"Kreisfreie_Stadt"},"district":{"key":"09561","name":"Ansbach","type":"Kreisfreie_Stadt"},"federalState":{"key":"09","name":"Bayern"}},{"name":"Fischerweg","postalCode":"56235","locality":"Ransbach-Baumbach","municipality":{"key":"07143062","name":"Ransbach-Baumbach, Stadt","type":"Stadt"},"district":{"key":"07143","name":"Westerwaldkreis","type":"Landkreis"},"federalState":{"key":"07","name":"Rheinland-Pfalz"}},{"name":"Fischstr.","postalCode":"91522","locality":"Ansbach","municipality":{"key":"09561000","name":"Ansbach","type":"Kreisfreie_Stadt"},"district":{"key":"09561","name":"Ansbach","type":"Kreisfreie_Stadt"},"federalState":{"key":"09","name":"Bayern"}},{"name":"Flemingweg","postalCode":"91522","locality":"Ansbach","municipality":{"key":"09561000","name":"Ansbach","type":"Kreisfreie_Stadt"},"district":{"key":"09561","name":"Ansbach","type":"Kreisfreie_Stadt"},"federalState":{"key":"09","name":"Bayern"}},{"name":"Flurweg","postalCode":"91623","locality":"Sachsen bei Ansbach","municipality":{"key":"09571196","name":"Sachsen b.Ansbach","type":"Kreisangehörige_Gemeinde"},"district":{"key":"09571","name":"Ansbach","type":"Landkreis"},"federalState":{"key":"09","name":"Bayern"}},{"name":"Föhrenstr.","postalCode":"91522","locality":"Ansbach","municipality":{"key":"09561000","name":"Ansbach","type":"Kreisfreie_Stadt"},"district":{"key":"09561","name":"Ansbach","type":"Kreisfreie_Stadt"},"federalState":{"key":"09","name":"Bayern"}},{"name":"Föhrenstr.","postalCode":"91623","locality":"Sachsen bei Ansbach","municipality":{"key":"09571196","name":"Sachsen b.Ansbach","type":"Kreisangehörige_Gemeinde"},"district":{"key":"09571","name":"Ansbach","type":"Landkreis"},"federalState":{"key":"09","name":"Bayern"}},{"name":"Forellenweg","postalCode":"56235","locality":"Ransbach-Baumbach","municipality":{"key":"07143062","name":"Ransbach-Baumbach, Stadt","type":"Stadt"},"district":{"key":"07143","name":"Westerwaldkreis","type":"Landkreis"},"federalState":{"key":"07","name":"Rheinland-Pfalz"}},{"name":"Frankenhöhe","postalCode":"91522","locality":"Ansbach","municipality":{"key":"09561000","name":"Ansbach","type":"Kreisfreie_Stadt"},"district":{"key":"09561","name":"Ansbach","type":"Kreisfreie_Stadt"},"federalState":{"key":"09","name":"Bayern"}},{"name":"Frankenstr.","postalCode":"91522","locality":"Ansbach","municipality":{"key":"09561000","name":"Ansbach","type":"Kreisfreie_Stadt"},"district":{"key":"09561","name":"Ansbach","type":"Kreisfreie_Stadt"},"federalState":{"key":"09","name":"Bayern"}},{"name":"Frankenweg","postalCode":"91522","locality":"Ansbach","municipality":{"key":"09561000","name":"Ansbach","type":"Kreisfreie_Stadt"},"district":{"key":"09561","name":"Ansbach","type":"Kreisfreie_Stadt"},"federalState":{"key":"09","name":"Bayern"}},{"name":"Freiherr-vom-Stein-Str.","postalCode":"56235","locality":"Ransbach-Baumbach","municipality":{"key":"07143062","name":"Ransbach-Baumbach, Stadt","type":"Stadt"},"district":{"key":"07143","name":"Westerwaldkreis","type":"Landkreis"},"federalState":{"key":"07","name":"Rheinland-Pfalz"}},{"name":"Friedhofsweg","postalCode":"56235","locality":"Ransbach-Baumbach","municipality":{"key":"07143062","name":"Ransbach-Baumbach, Stadt","type":"Stadt"},"district":{"key":"07143","name":"Westerwaldkreis","type":"Landkreis"},"federalState":{"key":"07","name":"Rheinland-Pfalz"}},{"name":"Friedrich-Samhammer-Str.","postalCode":"91522","locality":"Ansbach","municipality":{"key":"09561000","name":"Ansbach","type":"Kreisfreie_Stadt"},"district":{"key":"09561","name":"Ansbach","type":"Kreisfreie_Stadt"},"federalState":{"key":"09","name":"Bayern"}},{"name":"Friedrichstr.","postalCode":"91522","locality":"Ansbach","municipality":{"key":"09561000","name":"Ansbach","type":"Kreisfreie_Stadt"},"district":{"key":"09561","name":"Ansbach","type":"Kreisfreie_Stadt"},"federalState":{"key":"09","name":"Bayern"}},{"name":"Frühlingsstr.","postalCode":"91522","locality":"Ansbach","municipality":{"key":"09561000","name":"Ansbach","type":"Kreisfreie_Stadt"},"district":{"key":"09561","name":"Ansbach","type":"Kreisfreie_Stadt"},"federalState":{"key":"09","name":"Bayern"}},{"name":"Funkenbachstr.","postalCode":"91522","locality":"Ansbach","municipality":{"key":"09561000","name":"Ansbach","type":"Kreisfreie_Stadt"},"district":{"key":"09561","name":"Ansbach","type":"Kreisfreie_Stadt"},"federalState":{"key":"09","name":"Bayern"}},{"name":"Fürstenstr.","postalCode":"91522","locality":"Ansbach","municipality":{"key":"09561000","name":"Ansbach","type":"Kreisfreie_Stadt"},"district":{"key":"09561","name":"Ansbach","type":"Kreisfreie_Stadt"},"federalState":{"key":"09","name":"Bayern"}},{"name":"Gartenstr.","postalCode":"91740","locality":"Röckingen","municipality":{"key":"09571192","name":"Röckingen","type":"Kreisangehörige_Gemeinde"},"district":{"key":"09571","name":"Ansbach","type":"Landkreis"},"federalState":{"key":"09","name":"Bayern"}},{"name":"Gugelmühle","postalCode":"91740","locality":"Röckingen","municipality":{"key":"09571192","name":"Röckingen","type":"Kreisangehörige_Gemeinde"},"district":{"key":"09571","name":"Ansbach","type":"Landkreis"},"federalState":{"key":"09","name":"Bayern"}},{"name":"Gugelmühler Str.","postalCode":"91740","locality":"Röckingen","municipality":{"key":"09571192","name":"Röckingen","type":"Kreisangehörige_Gemeinde"},"district":{"key":"09571","name":"Ansbach","type":"Landkreis"},"federalState":{"key":"09","name":"Bayern"}},{"name":"Hauptstr.","postalCode":"91740","locality":"Röckingen","municipality":{"key":"09571192","name":"Röckingen","type":"Kreisangehörige_Gemeinde"},"district":{"key":"09571","name":"Ansbach","type":"Landkreis"},"federalState":{"key":"09","name":"Bayern"}},{"name":"Hesselbergweg","postalCode":"91740","locality":"Röckingen","municipality":{"key":"09571192","name":"Röckingen","type":"Kreisangehörige_Gemeinde"},"district":{"key":"09571","name":"Ansbach","type":"Landkreis"},"federalState":{"key":"09","name":"Bayern"}},{"name":"Im Eichholz","postalCode":"56235","locality":"Ransbach-Baumbach","municipality":{"key":"07143062","name":"Ransbach-Baumbach, Stadt","type":"Stadt"},"district":{"key":"07143","name":"Westerwaldkreis","type":"Landkreis"},"federalState":{"key":"07","name":"Rheinland-Pfalz"}},{"name":"Im Erlengarten","postalCode":"56235","locality":"Ransbach-Baumbach","municipality":{"key":"07143062","name":"Ransbach-Baumbach, Stadt","type":"Stadt"},"district":{"key":"07143","name":"Westerwaldkreis","type":"Landkreis"},"federalState":{"key":"07","name":"Rheinland-Pfalz"}},{"name":"Im Gebück","postalCode":"56235","locality":"Ransbach-Baumbach","municipality":{"key":"07143062","name":"Ransbach-Baumbach, Stadt","type":"Stadt"},"district":{"key":"07143","name":"Westerwaldkreis","type":"Landkreis"},"federalState":{"key":"07","name":"Rheinland-Pfalz"}},{"name":"Im Glockenschall","postalCode":"56235","locality":"Ransbach-Baumbach","municipality":{"key":"07143062","name":"Ransbach-Baumbach, Stadt","type":"Stadt"},"district":{"key":"07143","name":"Westerwaldkreis","type":"Landkreis"},"federalState":{"key":"07","name":"Rheinland-Pfalz"}},{"name":"Im Grauert","postalCode":"56235","locality":"Ransbach-Baumbach","municipality":{"key":"07143062","name":"Ransbach-Baumbach, Stadt","type":"Stadt"},"district":{"key":"07143","name":"Westerwaldkreis","type":"Landkreis"},"federalState":{"key":"07","name":"Rheinland-Pfalz"}},{"name":"Im Neurod","postalCode":"56235","locality":"Ransbach-Baumbach","municipality":{"key":"07143062","name":"Ransbach-Baumbach, Stadt","type":"Stadt"},"district":{"key":"07143","name":"Westerwaldkreis","type":"Landkreis"},"federalState":{"key":"07","name":"Rheinland-Pfalz"}},{"name":"Im Oberstaudchen","postalCode":"56235","locality":"Ransbach-Baumbach","municipality":{"key":"07143062","name":"Ransbach-Baumbach, Stadt","type":"Stadt"},"district":{"key":"07143","name":"Westerwaldkreis","type":"Landkreis"},"federalState":{"key":"07","name":"Rheinland-Pfalz"}},{"name":"Im schwarzen Graben","postalCode":"56235","locality":"Ransbach-Baumbach","municipality":{"key":"07143062","name":"Ransbach-Baumbach, Stadt","type":"Stadt"},"district":{"key":"07143","name":"Westerwaldkreis","type":"Landkreis"},"federalState":{"key":"07","name":"Rheinland-Pfalz"}},{"name":"Im Staudchen","postalCode":"56235","locality":"Ransbach-Baumbach","municipality":{"key":"07143062","name":"Ransbach-Baumbach, Stadt","type":"Stadt"},"district":{"key":"07143","name":"Westerwaldkreis","type":"Landkreis"},"federalState":{"key":"07","name":"Rheinland-Pfalz"}},{"name":"Im Tal","postalCode":"91623","locality":"Sachsen bei Ansbach","municipality":{"key":"09571196","name":"Sachsen b.Ansbach","type":"Kreisangehörige_Gemeinde"},"district":{"key":"09571","name":"Ansbach","type":"Landkreis"},"federalState":{"key":"09","name":"Bayern"}},{"name":"Im Tannenhain","postalCode":"56235","locality":"Ransbach-Baumbach","municipality":{"key":"07143062","name":"Ransbach-Baumbach, Stadt","type":"Stadt"},"district":{"key":"07143","name":"Westerwaldkreis","type":"Landkreis"},"federalState":{"key":"07","name":"Rheinland-Pfalz"}},{"name":"Im Vogelsang","postalCode":"56235","locality":"Ransbach-Baumbach","municipality":{"key":"07143062","name":"Ransbach-Baumbach, Stadt","type":"Stadt"},"district":{"key":"07143","name":"Westerwaldkreis","type":"Landkreis"},"federalState":{"key":"07","name":"Rheinland-Pfalz"}},{"name":"Im Winkel","postalCode":"56235","locality":"Ransbach-Baumbach","municipality":{"key":"07143062","name":"Ransbach-Baumbach, Stadt","type":"Stadt"},"district":{"key":"07143","name":"Westerwaldkreis","type":"Landkreis"},"federalState":{"key":"07","name":"Rheinland-Pfalz"}},{"name":"In der Bornwiese","postalCode":"56235","locality":"Ransbach-Baumbach","municipality":{"key":"07143062","name":"Ransbach-Baumbach, Stadt","type":"Stadt"},"district":{"key":"07143","name":"Westerwaldkreis","type":"Landkreis"},"federalState":{"key":"07","name":"Rheinland-Pfalz"}},{"name":"In der Speidt","postalCode":"56235","locality":"Ransbach-Baumbach","municipality":{"key":"07143062","name":"Ransbach-Baumbach, Stadt","type":"Stadt"},"district":{"key":"07143","name":"Westerwaldkreis","type":"Landkreis"},"federalState":{"key":"07","name":"Rheinland-Pfalz"}},{"name":"In der Struth","postalCode":"56235","locality":"Ransbach-Baumbach","municipality":{"key":"07143062","name":"Ransbach-Baumbach, Stadt","type":"Stadt"},"district":{"key":"07143","name":"Westerwaldkreis","type":"Landkreis"},"federalState":{"key":"07","name":"Rheinland-Pfalz"}},{"name":"Industriestr.","postalCode":"91522","locality":"Ansbach","municipality":{"key":"09561000","name":"Ansbach","type":"Kreisfreie_Stadt"},"district":{"key":"09561","name":"Ansbach","type":"Kreisfreie_Stadt"},"federalState":{"key":"09","name":"Bayern"}},{"name":"Jägerndorfer Str.","postalCode":"91522","locality":"Ansbach","municipality":{"key":"09561000","name":"Ansbach","type":"Kreisfreie_Stadt"},"district":{"key":"09561","name":"Ansbach","type":"Kreisfreie_Stadt"},"federalState":{"key":"09","name":"Bayern"}},{"name":"Jägerpfad","postalCode":"56235","locality":"Ransbach-Baumbach","municipality":{"key":"07143062","name":"Ransbach-Baumbach, Stadt","type":"Stadt"},"district":{"key":"07143","name":"Westerwaldkreis","type":"Landkreis"},"federalState":{"key":"07","name":"Rheinland-Pfalz"}},{"name":"Jahnstr.","postalCode":"56235","locality":"Ransbach-Baumbach","municipality":{"key":"07143062","name":"Ransbach-Baumbach, Stadt","type":"Stadt"},"district":{"key":"07143","name":"Westerwaldkreis","type":"Landkreis"},"federalState":{"key":"07","name":"Rheinland-Pfalz"}},{"name":"Jahnstr.","postalCode":"91522","locality":"Ansbach","municipality":{"key":"09561000","name":"Ansbach","type":"Kreisfreie_Stadt"},"district":{"key":"09561","name":"Ansbach","type":"Kreisfreie_Stadt"},"federalState":{"key":"09","name":"Bayern"}},{"name":"Johannisweg","postalCode":"91522","locality":"Ansbach","municipality":{"key":"09561000","name":"Ansbach","type":"Kreisfreie_Stadt"},"district":{"key":"09561","name":"Ansbach","type":"Kreisfreie_Stadt"},"federalState":{"key":"09","name":"Bayern"}},{"name":"Johann-Matthie-Str.","postalCode":"56235","locality":"Ransbach-Baumbach","municipality":{"key":"07143062","name":"Ransbach-Baumbach, Stadt","type":"Stadt"},"district":{"key":"07143","name":"Westerwaldkreis","type":"Landkreis"},"federalState":{"key":"07","name":"Rheinland-Pfalz"}},{"name":"Johann-Sebastian-Bach-Platz","postalCode":"91522","locality":"Ansbach","municipality":{"key":"09561000","name":"Ansbach","type":"Kreisfreie_Stadt"},"district":{"key":"09561","name":"Ansbach","type":"Kreisfreie_Stadt"},"federalState":{"key":"09","name":"Bayern"}},{"name":"Jüdtstr.","postalCode":"91522","locality":"Ansbach","municipality":{"key":"09561000","name":"Ansbach","type":"Kreisfreie_Stadt"},"district":{"key":"09561","name":"Ansbach","type":"Kreisfreie_Stadt"},"federalState":{"key":"09","name":"Bayern"}},{"name":"Julius-Meyer-Str.","postalCode":"91522","locality":"Ansbach","municipality":{"key":"09561000","name":"Ansbach","type":"Kreisfreie_Stadt"},"district":{"key":"09561","name":"Ansbach","type":"Kreisfreie_Stadt"},"federalState":{"key":"09","name":"Bayern"}},{"name":"Junckerweg","postalCode":"91522","locality":"Ansbach","municipality":{"key":"09561000","name":"Ansbach","type":"Kreisfreie_Stadt"},"district":{"key":"09561","name":"Ansbach","type":"Kreisfreie_Stadt"},"federalState":{"key":"09","name":"Bayern"}},{"name":"Junkernstr.","postalCode":"56235","locality":"Ransbach-Baumbach","municipality":{"key":"07143062","name":"Ransbach-Baumbach, Stadt","type":"Stadt"},"district":{"key":"07143","name":"Westerwaldkreis","type":"Landkreis"},"federalState":{"key":"07","name":"Rheinland-Pfalz"}},{"name":"Kirchenweg","postalCode":"91740","locality":"Röckingen","municipality":{"key":"09571192","name":"Röckingen","type":"Kreisangehörige_Gemeinde"},"district":{"key":"09571","name":"Ansbach","type":"Landkreis"},"federalState":{"key":"09","name":"Bayern"}},{"name":"Lahnstr.","postalCode":"56235","locality":"Ransbach-Baumbach","municipality":{"key":"07143062","name":"Ransbach-Baumbach, Stadt","type":"Stadt"},"district":{"key":"07143","name":"Westerwaldkreis","type":"Landkreis"},"federalState":{"key":"07","name":"Rheinland-Pfalz"}},{"name":"Lambarenestr.","postalCode":"91522","locality":"Ansbach","municipality":{"key":"09561000","name":"Ansbach","type":"Kreisfreie_Stadt"},"district":{"key":"09561","name":"Ansbach","type":"Kreisfreie_Stadt"},"federalState":{"key":"09","name":"Bayern"}},{"name":"Lambrechtstr.","postalCode":"91522","locality":"Ansbach","municipality":{"key":"09561000","name":"Ansbach","type":"Kreisfreie_Stadt"},"district":{"key":"09561","name":"Ansbach","type":"Kreisfreie_Stadt"},"federalState":{"key":"09","name":"Bayern"}},{"name":"Landshuber Str.","postalCode":"56235","locality":"Ransbach-Baumbach","municipality":{"key":"07143062","name":"Ransbach-Baumbach, Stadt","type":"Stadt"},"district":{"key":"07143","name":"Westerwaldkreis","type":"Landkreis"},"federalState":{"key":"07","name":"Rheinland-Pfalz"}},{"name":"Lärchenstr.","postalCode":"91623","locality":"Sachsen bei Ansbach","municipality":{"key":"09571196","name":"Sachsen b.Ansbach","type":"Kreisangehörige_Gemeinde"},"district":{"key":"09571","name":"Ansbach","type":"Landkreis"},"federalState":{"key":"09","name":"Bayern"}},{"name":"Lärchenweg","postalCode":"56235","locality":"Ransbach-Baumbach","municipality":{"key":"07143062","name":"Ransbach-Baumbach, Stadt","type":"Stadt"},"district":{"key":"07143","name":"Westerwaldkreis","type":"Landkreis"},"federalState":{"key":"07","name":"Rheinland-Pfalz"}},{"name":"Laurentiusstr.","postalCode":"91522","locality":"Ansbach","municipality":{"key":"09561000","name":"Ansbach","type":"Kreisfreie_Stadt"},"district":{"key":"09561","name":"Ansbach","type":"Kreisfreie_Stadt"},"federalState":{"key":"09","name":"Bayern"}},{"name":"Lehnertweg","postalCode":"91522","locality":"Ansbach","municipality":{"key":"09561000","name":"Ansbach","type":"Kreisfreie_Stadt"},"district":{"key":"09561","name":"Ansbach","type":"Kreisfreie_Stadt"},"federalState":{"key":"09","name":"Bayern"}},{"name":"Leipziger Str.","postalCode":"56235","locality":"Ransbach-Baumbach","municipality":{"key":"07143062","name":"Ransbach-Baumbach, Stadt","type":"Stadt"},"district":{"key":"07143","name":"Westerwaldkreis","type":"Landkreis"},"federalState":{"key":"07","name":"Rheinland-Pfalz"}},{"name":"Leipziger Str.","postalCode":"91522","locality":"Ansbach","municipality":{"key":"09561000","name":"Ansbach","type":"Kreisfreie_Stadt"},"district":{"key":"09561","name":"Ansbach","type":"Kreisfreie_Stadt"},"federalState":{"key":"09","name":"Bayern"}},{"name":"Lenauweg","postalCode":"91522","locality":"Ansbach","municipality":{"key":"09561000","name":"Ansbach","type":"Kreisfreie_Stadt"},"district":{"key":"09561","name":"Ansbach","type":"Kreisfreie_Stadt"},"federalState":{"key":"09","name":"Bayern"}},{"name":"Leonhart-Fuchs-Garten","postalCode":"91522","locality":"Ansbach","municipality":{"key":"09561000","name":"Ansbach","type":"Kreisfreie_Stadt"},"district":{"key":"09561","name":"Ansbach","type":"Kreisfreie_Stadt"},"federalState":{"key":"09","name":"Bayern"}},{"name":"Leonhart-Fuchs-Str.","postalCode":"91522","locality":"Ansbach","municipality":{"key":"09561000","name":"Ansbach","type":"Kreisfreie_Stadt"},"district":{"key":"09561","name":"Ansbach","type":"Kreisfreie_Stadt"},"federalState":{"key":"09","name":"Bayern"}},{"name":"Lerchenberg","postalCode":"91623","locality":"Sachsen bei Ansbach","municipality":{"key":"09571196","name":"Sachsen b.Ansbach","type":"Kreisangehörige_Gemeinde"},"district":{"key":"09571","name":"Ansbach","type":"Landkreis"},"federalState":{"key":"09","name":"Bayern"}},{"name":"Lerchenstr.","postalCode":"91522","locality":"Ansbach","municipality":{"key":"09561000","name":"Ansbach","type":"Kreisfreie_Stadt"},"district":{"key":"09561","name":"Ansbach","type":"Kreisfreie_Stadt"},"federalState":{"key":"09","name":"Bayern"}},{"name":"Lessingstr.","postalCode":"91522","locality":"Ansbach","municipality":{"key":"09561000","name":"Ansbach","type":"Kreisfreie_Stadt"},"district":{"key":"09561","name":"Ansbach","type":"Kreisfreie_Stadt"},"federalState":{"key":"09","name":"Bayern"}},{"name":"Leutershäuser Str.","postalCode":"91522","locality":"Ansbach","municipality":{"key":"09561000","name":"Ansbach","type":"Kreisfreie_Stadt"},"district":{"key":"09561","name":"Ansbach","type":"Kreisfreie_Stadt"},"federalState":{"key":"09","name":"Bayern"}},{"name":"Liebigstr.","postalCode":"91522","locality":"Ansbach","municipality":{"key":"09561000","name":"Ansbach","type":"Kreisfreie_Stadt"},"district":{"key":"09561","name":"Ansbach","type":"Kreisfreie_Stadt"},"federalState":{"key":"09","name":"Bayern"}},{"name":"Lindenstr.","postalCode":"91522","locality":"Ansbach","municipality":{"key":"09561000","name":"Ansbach","type":"Kreisfreie_Stadt"},"district":{"key":"09561","name":"Ansbach","type":"Kreisfreie_Stadt"},"federalState":{"key":"09","name":"Bayern"}},{"name":"Lindenstr.","postalCode":"91623","locality":"Sachsen bei Ansbach","municipality":{"key":"09571196","name":"Sachsen b.Ansbach","type":"Kreisangehörige_Gemeinde"},"district":{"key":"09571","name":"Ansbach","type":"Landkreis"},"federalState":{"key":"09","name":"Bayern"}},{"name":"Lindenweg","postalCode":"91522","locality":"Ansbach","municipality":{"key":"09561000","name":"Ansbach","type":"Kreisfreie_Stadt"},"district":{"key":"09561","name":"Ansbach","type":"Kreisfreie_Stadt"},"federalState":{"key":"09","name":"Bayern"}},{"name":"Louis-Schmetzer-Str.","postalCode":"91522","locality":"Ansbach","municipality":{"key":"09561000","name":"Ansbach","type":"Kreisfreie_Stadt"},"district":{"key":"09561","name":"Ansbach","type":"Kreisfreie_Stadt"},"federalState":{"key":"09","name":"Bayern"}},{"name":"Ludwig-Keller-Str.","postalCode":"91522","locality":"Ansbach","municipality":{"key":"09561000","name":"Ansbach","type":"Kreisfreie_Stadt"},"district":{"key":"09561","name":"Ansbach","type":"Kreisfreie_Stadt"},"federalState":{"key":"09","name":"Bayern"}},{"name":"Ludwigstr.","postalCode":"56235","locality":"Ransbach-Baumbach","municipality":{"key":"07143062","name":"Ransbach-Baumbach, Stadt","type":"Stadt"},"district":{"key":"07143","name":"Westerwaldkreis","type":"Landkreis"},"federalState":{"key":"07","name":"Rheinland-Pfalz"}},{"name":"Luisenstr.","postalCode":"91522","locality":"Ansbach","municipality":{"key":"09561000","name":"Ansbach","type":"Kreisfreie_Stadt"},"district":{"key":"09561","name":"Ansbach","type":"Kreisfreie_Stadt"},"federalState":{"key":"09","name":"Bayern"}},{"name":"Lunckenbeinstr.","postalCode":"91522","locality":"Ansbach","municipality":{"key":"09561000","name":"Ansbach","type":"Kreisfreie_Stadt"},"district":{"key":"09561","name":"Ansbach","type":"Kreisfreie_Stadt"},"federalState":{"key":"09","name":"Bayern"}},{"name":"Marktweg","postalCode":"91740","locality":"Röckingen","municipality":{"key":"09571192","name":"Röckingen","type":"Kreisangehörige_Gemeinde"},"district":{"key":"09571","name":"Ansbach","type":"Landkreis"},"federalState":{"key":"09","name":"Bayern"}},{"name":"Mittelburgerweg","postalCode":"91740","locality":"Röckingen","municipality":{"key":"09571192","name":"Röckingen","type":"Kreisangehörige_Gemeinde"},"district":{"key":"09571","name":"Ansbach","type":"Landkreis"},"federalState":{"key":"09","name":"Bayern"}},{"name":"Naglerstr.","postalCode":"91522","locality":"Ansbach","municipality":{"key":"09561000","name":"Ansbach","type":"Kreisfreie_Stadt"},"district":{"key":"09561","name":"Ansbach","type":"Kreisfreie_Stadt"},"federalState":{"key":"09","name":"Bayern"}},{"name":"Naumannstr.","postalCode":"91522","locality":"Ansbach","municipality":{"key":"09561000","name":"Ansbach","type":"Kreisfreie_Stadt"},"district":{"key":"09561","name":"Ansbach","type":"Kreisfreie_Stadt"},"federalState":{"key":"09","name":"Bayern"}},{"name":"Nelkenstr.","postalCode":"91522","locality":"Ansbach","municipality":{"key":"09561000","name":"Ansbach","type":"Kreisfreie_Stadt"},"district":{"key":"09561","name":"Ansbach","type":"Kreisfreie_Stadt"},"federalState":{"key":"09","name":"Bayern"}},{"name":"Neufeldstr.","postalCode":"56235","locality":"Ransbach-Baumbach","municipality":{"key":"07143062","name":"Ransbach-Baumbach, Stadt","type":"Stadt"},"district":{"key":"07143","name":"Westerwaldkreis","type":"Landkreis"},"federalState":{"key":"07","name":"Rheinland-Pfalz"}},{"name":"Neukirchen","postalCode":"91623","locality":"Sachsen bei Ansbach","municipality":{"key":"09571196","name":"Sachsen b.Ansbach","type":"Kreisangehörige_Gemeinde"},"district":{"key":"09571","name":"Ansbach","type":"Landkreis"},"federalState":{"key":"09","name":"Bayern"}},{"name":"Neukirchener Str.","postalCode":"91522","locality":"Ansbach","municipality":{"key":"09561000","name":"Ansbach","type":"Kreisfreie_Stadt"},"district":{"key":"09561","name":"Ansbach","type":"Kreisfreie_Stadt"},"federalState":{"key":"09","name":"Bayern"}},{"name":"Neukirchner Str.","postalCode":"91623","locality":"Sachsen bei Ansbach","municipality":{"key":"09571196","name":"Sachsen b.Ansbach","type":"Kreisangehörige_Gemeinde"},"district":{"key":"09571","name":"Ansbach","type":"Landkreis"},"federalState":{"key":"09","name":"Bayern"}},{"name":"Neustr.","postalCode":"56235","locality":"Ransbach-Baumbach","municipality":{"key":"07143062","name":"Ransbach-Baumbach, Stadt","type":"Stadt"},"district":{"key":"07143","name":"Westerwaldkreis","type":"Landkreis"},"federalState":{"key":"07","name":"Rheinland-Pfalz"}},{"name":"Niederfeldstr.","postalCode":"56235","locality":"Ransbach-Baumbach","municipality":{"key":"07143062","name":"Ransbach-Baumbach, Stadt","type":"Stadt"},"district":{"key":"07143","name":"Westerwaldkreis","type":"Landkreis"},"federalState":{"key":"07","name":"Rheinland-Pfalz"}},{"name":"Norbert-Hochsieder-Str.","postalCode":"91522","locality":"Ansbach","municipality":{"key":"09561000","name":"Ansbach","type":"Kreisfreie_Stadt"},"district":{"key":"09561","name":"Ansbach","type":"Kreisfreie_Stadt"},"federalState":{"key":"09","name":"Bayern"}},{"name":"Nordweg","postalCode":"91522","locality":"Ansbach","municipality":{"key":"09561000","name":"Ansbach","type":"Kreisfreie_Stadt"},"district":{"key":"09561","name":"Ansbach","type":"Kreisfreie_Stadt"},"federalState":{"key":"09","name":"Bayern"}},{"name":"Nürnberger Str.","postalCode":"91522","locality":"Ansbach","municipality":{"key":"09561000","name":"Ansbach","type":"Kreisfreie_Stadt"},"district":{"key":"09561","name":"Ansbach","type":"Kreisfreie_Stadt"},"federalState":{"key":"09","name":"Bayern"}},{"name":"Nußbaumweg","postalCode":"91522","locality":"Ansbach","municipality":{"key":"09561000","name":"Ansbach","type":"Kreisfreie_Stadt"},"district":{"key":"09561","name":"Ansbach","type":"Kreisfreie_Stadt"},"federalState":{"key":"09","name":"Bayern"}},{"name":"Obere Dorfstr.","postalCode":"91740","locality":"Röckingen","municipality":{"key":"09571192","name":"Röckingen","type":"Kreisangehörige_Gemeinde"},"district":{"key":"09571","name":"Ansbach","type":"Landkreis"},"federalState":{"key":"09","name":"Bayern"}},{"name":"Opfenrieder Str.","postalCode":"91740","locality":"Röckingen","municipality":{"key":"09571192","name":"Röckingen","type":"Kreisangehörige_Gemeinde"},"district":{"key":"09571","name":"Ansbach","type":"Landkreis"},"federalState":{"key":"09","name":"Bayern"}},{"name":"Pommernweg","postalCode":"91740","locality":"Röckingen","municipality":{"key":"09571192","name":"Röckingen","type":"Kreisangehörige_Gemeinde"},"district":{"key":"09571","name":"Ansbach","type":"Landkreis"},"federalState":{"key":"09","name":"Bayern"}},{"name":"Quaststr.","postalCode":"91522","locality":"Ansbach","municipality":{"key":"09561000","name":"Ansbach","type":"Kreisfreie_Stadt"},"district":{"key":"09561","name":"Ansbach","type":"Kreisfreie_Stadt"},"federalState":{"key":"09","name":"Bayern"}},{"name":"Raabstr.","postalCode":"91522","locality":"Ansbach","municipality":{"key":"09561000","name":"Ansbach","type":"Kreisfreie_Stadt"},"district":{"key":"09561","name":"Ansbach","type":"Kreisfreie_Stadt"},"federalState":{"key":"09","name":"Bayern"}},{"name":"Rabenhofstr.","postalCode":"91522","locality":"Ansbach","municipality":{"key":"09561000","name":"Ansbach","type":"Kreisfreie_Stadt"},"district":{"key":"09561","name":"Ansbach","type":"Kreisfreie_Stadt"},"federalState":{"key":"09","name":"Bayern"}},{"name":"Raiffeisenstr.","postalCode":"91623","locality":"Sachsen bei Ansbach","municipality":{"key":"09571196","name":"Sachsen b.Ansbach","type":"Kreisangehörige_Gemeinde"},"district":{"key":"09571","name":"Ansbach","type":"Landkreis"},"federalState":{"key":"09","name":"Bayern"}},{"name":"Rathausstr.","postalCode":"91522","locality":"Ansbach","municipality":{"key":"09561000","name":"Ansbach","type":"Kreisfreie_Stadt"},"district":{"key":"09561","name":"Ansbach","type":"Kreisfreie_Stadt"},"federalState":{"key":"09","name":"Bayern"}},{"name":"Rebenweg","postalCode":"91623","locality":"Sachsen bei Ansbach","municipality":{"key":"09571196","name":"Sachsen b.Ansbach","type":"Kreisangehörige_Gemeinde"},"district":{"key":"09571","name":"Ansbach","type":"Landkreis"},"federalState":{"key":"09","name":"Bayern"}},{"name":"Regerstr.","postalCode":"91522","locality":"Ansbach","municipality":{"key":"09561000","name":"Ansbach","type":"Kreisfreie_Stadt"},"district":{"key":"09561","name":"Ansbach","type":"Kreisfreie_Stadt"},"federalState":{"key":"09","name":"Bayern"}},{"name":"Rehweg","postalCode":"56235","locality":"Ransbach-Baumbach","municipality":{"key":"07143062","name":"Ransbach-Baumbach, Stadt","type":"Stadt"},"district":{"key":"07143","name":"Westerwaldkreis","type":"Landkreis"},"federalState":{"key":"07","name":"Rheinland-Pfalz"}},{"name":"Reiterweg","postalCode":"56235","locality":"Ransbach-Baumbach","municipality":{"key":"07143062","name":"Ransbach-Baumbach, Stadt","type":"Stadt"},"district":{"key":"07143","name":"Westerwaldkreis","type":"Landkreis"},"federalState":{"key":"07","name":"Rheinland-Pfalz"}},{"name":"Reiterweg","postalCode":"91522","locality":"Ansbach","municipality":{"key":"09561000","name":"Ansbach","type":"Kreisfreie_Stadt"},"district":{"key":"09561","name":"Ansbach","type":"Kreisfreie_Stadt"},"federalState":{"key":"09","name":"Bayern"}},{"name":"Residenzstr.","postalCode":"91522","locality":"Ansbach","municipality":{"key":"09561000","name":"Ansbach","type":"Kreisfreie_Stadt"},"district":{"key":"09561","name":"Ansbach","type":"Kreisfreie_Stadt"},"federalState":{"key":"09","name":"Bayern"}},{"name":"Rettistr.","postalCode":"91522","locality":"Ansbach","municipality":{"key":"09561000","name":"Ansbach","type":"Kreisfreie_Stadt"},"district":{"key":"09561","name":"Ansbach","type":"Kreisfreie_Stadt"},"federalState":{"key":"09","name":"Bayern"}},{"name":"Reuterstr.","postalCode":"91522","locality":"Ansbach","municipality":{"key":"09561000","name":"Ansbach","type":"Kreisfreie_Stadt"},"district":{"key":"09561","name":"Ansbach","type":"Kreisfreie_Stadt"},"federalState":{"key":"09","name":"Bayern"}},{"name":"Rezatstr.","postalCode":"91522","locality":"Ansbach","municipality":{"key":"09561000","name":"Ansbach","type":"Kreisfreie_Stadt"},"district":{"key":"09561","name":"Ansbach","type":"Kreisfreie_Stadt"},"federalState":{"key":"09","name":"Bayern"}},{"name":"Rezatweg","postalCode":"91623","locality":"Sachsen bei Ansbach","municipality":{"key":"09571196","name":"Sachsen b.Ansbach","type":"Kreisangehörige_Gemeinde"},"district":{"key":"09571","name":"Ansbach","type":"Landkreis"},"federalState":{"key":"09","name":"Bayern"}},{"name":"Rheinstr.","postalCode":"56235","locality":"Ransbach-Baumbach","municipality":{"key":"07143062","name":"Ransbach-Baumbach, Stadt","type":"Stadt"},"district":{"key":"07143","name":"Westerwaldkreis","type":"Landkreis"},"federalState":{"key":"07","name":"Rheinland-Pfalz"}},{"name":"Richard-Wagner-Str.","postalCode":"91522","locality":"Ansbach","municipality":{"key":"09561000","name":"Ansbach","type":"Kreisfreie_Stadt"},"district":{"key":"09561","name":"Ansbach","type":"Kreisfreie_Stadt"},"federalState":{"key":"09","name":"Bayern"}},{"name":"Ringstr.","postalCode":"91522","locality":"Ansbach","municipality":{"key":"09561000","name":"Ansbach","type":"Kreisfreie_Stadt"},"district":{"key":"09561","name":"Ansbach","type":"Kreisfreie_Stadt"},"federalState":{"key":"09","name":"Bayern"}},{"name":"Ritterstr.","postalCode":"56235","locality":"Ransbach-Baumbach","municipality":{"key":"07143062","name":"Ransbach-Baumbach, Stadt","type":"Stadt"},"district":{"key":"07143","name":"Westerwaldkreis","type":"Landkreis"},"federalState":{"key":"07","name":"Rheinland-Pfalz"}},{"name":"Ritter-von-Eyb-Str.","postalCode":"91522","locality":"Ansbach","municipality":{"key":"09561000","name":"Ansbach","type":"Kreisfreie_Stadt"},"district":{"key":"09561","name":"Ansbach","type":"Kreisfreie_Stadt"},"federalState":{"key":"09","name":"Bayern"}},{"name":"Ritter-von-Lang-Allee","postalCode":"91522","locality":"Ansbach","municipality":{"key":"09561000","name":"Ansbach","type":"Kreisfreie_Stadt"},"district":{"key":"09561","name":"Ansbach","type":"Kreisfreie_Stadt"},"federalState":{"key":"09","name":"Bayern"}},{"name":"Rivierasteg","postalCode":"91522","locality":"Ansbach","municipality":{"key":"09561000","name":"Ansbach","type":"Kreisfreie_Stadt"},"district":{"key":"09561","name":"Ansbach","type":"Kreisfreie_Stadt"},"federalState":{"key":"09","name":"Bayern"}},{"name":"Robert-Bosch-Str.","postalCode":"91522","locality":"Ansbach","municipality":{"key":"09561000","name":"Ansbach","type":"Kreisfreie_Stadt"},"district":{"key":"09561","name":"Ansbach","type":"Kreisfreie_Stadt"},"federalState":{"key":"09","name":"Bayern"}},{"name":"Robert-Fischbach-Str.","postalCode":"56235","locality":"Ransbach-Baumbach","municipality":{"key":"07143062","name":"Ransbach-Baumbach, Stadt","type":"Stadt"},"district":{"key":"07143","name":"Westerwaldkreis","type":"Landkreis"},"federalState":{"key":"07","name":"Rheinland-Pfalz"}},{"name":"Robert-Koch-Str.","postalCode":"91522","locality":"Ansbach","municipality":{"key":"09561000","name":"Ansbach","type":"Kreisfreie_Stadt"},"district":{"key":"09561","name":"Ansbach","type":"Kreisfreie_Stadt"},"federalState":{"key":"09","name":"Bayern"}},{"name":"Robert-Limpert-Str.","postalCode":"91522","locality":"Ansbach","municipality":{"key":"09561000","name":"Ansbach","type":"Kreisfreie_Stadt"},"district":{"key":"09561","name":"Ansbach","type":"Kreisfreie_Stadt"},"federalState":{"key":"09","name":"Bayern"}},{"name":"Rohmederweg","postalCode":"91522","locality":"Ansbach","municipality":{"key":"09561000","name":"Ansbach","type":"Kreisfreie_Stadt"},"district":{"key":"09561","name":"Ansbach","type":"Kreisfreie_Stadt"},"federalState":{"key":"09","name":"Bayern"}},{"name":"Rohrhofstr.","postalCode":"56235","locality":"Ransbach-Baumbach","municipality":{"key":"07143062","name":"Ransbach-Baumbach, Stadt","type":"Stadt"},"district":{"key":"07143","name":"Westerwaldkreis","type":"Landkreis"},"federalState":{"key":"07","name":"Rheinland-Pfalz"}},{"name":"Röntgenstr.","postalCode":"91522","locality":"Ansbach","municipality":{"key":"09561000","name":"Ansbach","type":"Kreisfreie_Stadt"},"district":{"key":"09561","name":"Ansbach","type":"Kreisfreie_Stadt"},"federalState":{"key":"09","name":"Bayern"}},{"name":"Roseggerweg","postalCode":"91522","locality":"Ansbach","municipality":{"key":"09561000","name":"Ansbach","type":"Kreisfreie_Stadt"},"district":{"key":"09561","name":"Ansbach","type":"Kreisfreie_Stadt"},"federalState":{"key":"09","name":"Bayern"}},{"name":"Rosenbadstr.","postalCode":"91522","locality":"Ansbach","municipality":{"key":"09561000","name":"Ansbach","type":"Kreisfreie_Stadt"},"district":{"key":"09561","name":"Ansbach","type":"Kreisfreie_Stadt"},"federalState":{"key":"09","name":"Bayern"}},{"name":"Roseneck","postalCode":"91522","locality":"Ansbach","municipality":{"key":"09561000","name":"Ansbach","type":"Kreisfreie_Stadt"},"district":{"key":"09561","name":"Ansbach","type":"Kreisfreie_Stadt"},"federalState":{"key":"09","name":"Bayern"}},{"name":"Rosenstr.","postalCode":"91522","locality":"Ansbach","municipality":{"key":"09561000","name":"Ansbach","type":"Kreisfreie_Stadt"},"district":{"key":"09561","name":"Ansbach","type":"Kreisfreie_Stadt"},"federalState":{"key":"09","name":"Bayern"}},{"name":"Rosenweg","postalCode":"56235","locality":"Ransbach-Baumbach","municipality":{"key":"07143062","name":"Ransbach-Baumbach, Stadt","type":"Stadt"},"district":{"key":"07143","name":"Westerwaldkreis","type":"Landkreis"},"federalState":{"key":"07","name":"Rheinland-Pfalz"}},{"name":"Rothenburger Str.","postalCode":"91522","locality":"Ansbach","municipality":{"key":"09561000","name":"Ansbach","type":"Kreisfreie_Stadt"},"district":{"key":"09561","name":"Ansbach","type":"Kreisfreie_Stadt"},"federalState":{"key":"09","name":"Bayern"}},{"name":"Röttenbacherstr.","postalCode":"91522","locality":"Ansbach","municipality":{"key":"09561000","name":"Ansbach","type":"Kreisfreie_Stadt"},"district":{"key":"09561","name":"Ansbach","type":"Kreisfreie_Stadt"},"federalState":{"key":"09","name":"Bayern"}},{"name":"Rügländer Str.","postalCode":"91522","locality":"Ansbach","municipality":{"key":"09561000","name":"Ansbach","type":"Kreisfreie_Stadt"},"district":{"key":"09561","name":"Ansbach","type":"Kreisfreie_Stadt"},"federalState":{"key":"09","name":"Bayern"}},{"name":"Rummelsberger Str.","postalCode":"91522","locality":"Ansbach","municipality":{"key":"09561000","name":"Ansbach","type":"Kreisfreie_Stadt"},"district":{"key":"09561","name":"Ansbach","type":"Kreisfreie_Stadt"},"federalState":{"key":"09","name":"Bayern"}},{"name":"Schlesierstr.","postalCode":"91740","locality":"Röckingen","municipality":{"key":"09571192","name":"Röckingen","type":"Kreisangehörige_Gemeinde"},"district":{"key":"09571","name":"Ansbach","type":"Landkreis"},"federalState":{"key":"09","name":"Bayern"}},{"name":"Schulweg","postalCode":"91740","locality":"Röckingen","municipality":{"key":"09571192","name":"Röckingen","type":"Kreisangehörige_Gemeinde"},"district":{"key":"09571","name":"Ansbach","type":"Landkreis"},"federalState":{"key":"09","name":"Bayern"}},{"name":"Sudetenstr.","postalCode":"91740","locality":"Röckingen","municipality":{"key":"09571192","name":"Röckingen","type":"Kreisangehörige_Gemeinde"},"district":{"key":"09571","name":"Ansbach","type":"Landkreis"},"federalState":{"key":"09","name":"Bayern"}},{"name":"Triebweg","postalCode":"91740","locality":"Röckingen","municipality":{"key":"09571192","name":"Röckingen","type":"Kreisangehörige_Gemeinde"},"district":{"key":"09571","name":"Ansbach","type":"Landkreis"},"federalState":{"key":"09","name":"Bayern"}},{"name":"Untere Dorfstr.","postalCode":"91740","locality":"Röckingen","municipality":{"key":"09571192","name":"Röckingen","type":"Kreisangehörige_Gemeinde"},"district":{"key":"09571","name":"Ansbach","type":"Landkreis"},"federalState":{"key":"09","name":"Bayern"}},{"name":"Veit-Stoß-Str.","postalCode":"91623","locality":"Sachsen bei Ansbach","municipality":{"key":"09571196","name":"Sachsen b.Ansbach","type":"Kreisangehörige_Gemeinde"},"district":{"key":"09571","name":"Ansbach","type":"Landkreis"},"federalState":{"key":"09","name":"Bayern"}},{"name":"Vetterstr.","postalCode":"91522","locality":"Ansbach","municipality":{"key":"09561000","name":"Ansbach","type":"Kreisfreie_Stadt"},"district":{"key":"09561","name":"Ansbach","type":"Kreisfreie_Stadt"},"federalState":{"key":"09","name":"Bayern"}},{"name":"Virchowstr.","postalCode":"91522","locality":"Ansbach","municipality":{"key":"09561000","name":"Ansbach","type":"Kreisfreie_Stadt"},"district":{"key":"09561","name":"Ansbach","type":"Kreisfreie_Stadt"},"federalState":{"key":"09","name":"Bayern"}},{"name":"Vogelherd","postalCode":"91522","locality":"Ansbach","municipality":{"key":"09561000","name":"Ansbach","type":"Kreisfreie_Stadt"},"district":{"key":"09561","name":"Ansbach","type":"Kreisfreie_Stadt"},"federalState":{"key":"09","name":"Bayern"}},{"name":"Vogelweide","postalCode":"91522","locality":"Ansbach","municipality":{"key":"09561000","name":"Ansbach","type":"Kreisfreie_Stadt"},"district":{"key":"09561","name":"Ansbach","type":"Kreisfreie_Stadt"},"federalState":{"key":"09","name":"Bayern"}},{"name":"Vogtherrstr.","postalCode":"91522","locality":"Ansbach","municipality":{"key":"09561000","name":"Ansbach","type":"Kreisfreie_Stadt"},"district":{"key":"09561","name":"Ansbach","type":"Kreisfreie_Stadt"},"federalState":{"key":"09","name":"Bayern"}},{"name":"Volkersdorfer Str.","postalCode":"91623","locality":"Sachsen bei Ansbach","municipality":{"key":"09571196","name":"Sachsen b.Ansbach","type":"Kreisangehörige_Gemeinde"},"district":{"key":"09571","name":"Ansbach","type":"Landkreis"},"federalState":{"key":"09","name":"Bayern"}},{"name":"Von-Reifenberg-Str.","postalCode":"56235","locality":"Ransbach-Baumbach","municipality":{"key":"07143062","name":"Ransbach-Baumbach, Stadt","type":"Stadt"},"district":{"key":"07143","name":"Westerwaldkreis","type":"Landkreis"},"federalState":{"key":"07","name":"Rheinland-Pfalz"}},{"name":"Von-Steuben-Str.","postalCode":"91522","locality":"Ansbach","municipality":{"key":"09561000","name":"Ansbach","type":"Kreisfreie_Stadt"},"district":{"key":"09561","name":"Ansbach","type":"Kreisfreie_Stadt"},"federalState":{"key":"09","name":"Bayern"}},{"name":"Von-Weber-Str.","postalCode":"91522","locality":"Ansbach","municipality":{"key":"09561000","name":"Ansbach","type":"Kreisfreie_Stadt"},"district":{"key":"09561","name":"Ansbach","type":"Kreisfreie_Stadt"},"federalState":{"key":"09","name":"Bayern"}},{"name":"Wurmstallweg","postalCode":"91740","locality":"Röckingen","municipality":{"key":"09571192","name":"Röckingen","type":"Kreisangehörige_Gemeinde"},"district":{"key":"09571","name":"Ansbach","type":"Landkreis"},"federalState":{"key":"09","name":"Bayern"}},{"name":"Ziegelhütte","postalCode":"91522","locality":"Ansbach","municipality":{"key":"09561000","name":"Ansbach","type":"Kreisfreie_Stadt"},"district":{"key":"09561","name":"Ansbach","type":"Kreisfreie_Stadt"},"federalState":{"key":"09","name":"Bayern"}},{"name":"Ziegelhüttenweg","postalCode":"91522","locality":"Ansbach","municipality":{"key":"09561000","name":"Ansbach","type":"Kreisfreie_Stadt"},"district":{"key":"09561","name":"Ansbach","type":"Kreisfreie_Stadt"},"federalState":{"key":"09","name":"Bayern"}},{"name":"Zochastr.","postalCode":"91522","locality":"Ansbach","municipality":{"key":"09561000","name":"Ansbach","type":"Kreisfreie_Stadt"},"district":{"key":"09561","name":"Ansbach","type":"Kreisfreie_Stadt"},"federalState":{"key":"09","name":"Bayern"}},{"name":"Zogelweg","postalCode":"91522","locality":"Ansbach","municipality":{"key":"09561000","name":"Ansbach","type":"Kreisfreie_Stadt"},"district":{"key":"09561","name":"Ansbach","type":"Kreisfreie_Stadt"},"federalState":{"key":"09","name":"Bayern"}},{"name":"Zumach-Gärtchen","postalCode":"91522","locality":"Ansbach","municipality":{"key":"09561000","name":"Ansbach","type":"Kreisfreie_Stadt"},"district":{"key":"09561","name":"Ansbach","type":"Kreisfreie_Stadt"},"federalState":{"key":"09","name":"Bayern"}},{"name":"Zum Geißplatz","postalCode":"91522","locality":"Ansbach","municipality":{"key":"09561000","name":"Ansbach","type":"Kreisfreie_Stadt"},"district":{"key":"09561","name":"Ansbach","type":"Kreisfreie_Stadt"},"federalState":{"key":"09","name":"Bayern"}},{"name":"Zum Kirmesplatz","postalCode":"56235","locality":"Ransbach-Baumbach","municipality":{"key":"07143062","name":"Ransbach-Baumbach, Stadt","type":"Stadt"},"district":{"key":"07143","name":"Westerwaldkreis","type":"Landkreis"},"federalState":{"key":"07","name":"Rheinland-Pfalz"}},{"name":"Zum Schafwasen","postalCode":"91522","locality":"Ansbach","municipality":{"key":"09561000","name":"Ansbach","type":"Kreisfreie_Stadt"},"district":{"key":"09561","name":"Ansbach","type":"Kreisfreie_Stadt"},"federalState":{"key":"09","name":"Bayern"}},{"name":"Zum Silberwald","postalCode":"91522","locality":"Ansbach","municipality":{"key":"09561000","name":"Ansbach","type":"Kreisfreie_Stadt"},"district":{"key":"09561","name":"Ansbach","type":"Kreisfreie_Stadt"},"federalState":{"key":"09","name":"Bayern"}},{"name":"Zum Steinernen Gaul","postalCode":"91522","locality":"Ansbach","municipality":{"key":"09561000","name":"Ansbach","type":"Kreisfreie_Stadt"},"district":{"key":"09561","name":"Ansbach","type":"Kreisfreie_Stadt"},"federalState":{"key":"09","name":"Bayern"}},{"name":"Zum Texas","postalCode":"56235","locality":"Ransbach-Baumbach","municipality":{"key":"07143062","name":"Ransbach-Baumbach, Stadt","type":"Stadt"},"district":{"key":"07143","name":"Westerwaldkreis","type":"Landkreis"},"federalState":{"key":"07","name":"Rheinland-Pfalz"}},{"name":"Zur alten Villa","postalCode":"56235","locality":"Ransbach-Baumbach","municipality":{"key":"07143062","name":"Ransbach-Baumbach, Stadt","type":"Stadt"},"district":{"key":"07143","name":"Westerwaldkreis","type":"Landkreis"},"federalState":{"key":"07","name":"Rheinland-Pfalz"}},{"name":"Zur Bahnschau","postalCode":"91522","locality":"Ansbach","municipality":{"key":"09561000","name":"Ansbach","type":"Kreisfreie_Stadt"},"district":{"key":"09561","name":"Ansbach","type":"Kreisfreie_Stadt"},"federalState":{"key":"09","name":"Bayern"}},{"name":"Zur Schanz","postalCode":"91522","locality":"Ansbach","municipality":{"key":"09561000","name":"Ansbach","type":"Kreisfreie_Stadt"},"district":{"key":"09561","name":"Ansbach","type":"Kreisfreie_Stadt"},"federalState":{"key":"09","name":"Bayern"}},{"name":"Zur Schockenmühle","postalCode":"91522","locality":"Ansbach","municipality":{"key":"09561000","name":"Ansbach","type":"Kreisfreie_Stadt"},"district":{"key":"09561","name":"Ansbach","type":"Kreisfreie_Stadt"},"federalState":{"key":"09","name":"Bayern"}},{"name":"Zur Schwedenschanz","postalCode":"91522","locality":"Ansbach","municipality":{"key":"09561000","name":"Ansbach","type":"Kreisfreie_Stadt"},"district":{"key":"09561","name":"Ansbach","type":"Kreisfreie_Stadt"},"federalState":{"key":"09","name":"Bayern"}},{"name":"Zur Silbermühle","postalCode":"91522","locality":"Ansbach","municipality":{"key":"09561000","name":"Ansbach","type":"Kreisfreie_Stadt"},"district":{"key":"09561","name":"Ansbach","type":"Kreisfreie_Stadt"},"federalState":{"key":"09","name":"Bayern"}},{"name":"Zur Tongrube","postalCode":"56235","locality":"Ransbach-Baumbach","municipality":{"key":"07143062","name":"Ransbach-Baumbach, Stadt","type":"Stadt"},"district":{"key":"07143","name":"Westerwaldkreis","type":"Landkreis"},"federalState":{"key":"07","name":"Rheinland-Pfalz"}},{"name":"Zwergstr.","postalCode":"56235","locality":"Ransbach-Baumbach","municipality":{"key":"07143062","name":"Ransbach-Baumbach, Stadt","type":"Stadt"},"district":{"key":"07143","name":"Westerwaldkreis","type":"Landkreis"},"federalState":{"key":"07","name":"Rheinland-Pfalz"}},]