[{"name":"1. Feuerbahn","postalCode":"75217","locality":"Birkenfeld","municipality":{"key":"08236004","name":"Birkenfeld","type":"Kreisangehörige_Gemeinde"},"district":{"key":"08236","name":"Enzkreis","type":"Landkreis"},"federalState":{"key":"08","name":"Baden-Württemberg"}},{"name":"2. Feuerweg","postalCode":"75217","locality":"Birkenfeld","municipality":{"key":"08236004","name":"Birkenfeld","type":"Kreisangehörige_Gemeinde"},"district":{"key":"08236","name":"Enzkreis","type":"Landkreis"},"federalState":{"key":"08","name":"Baden-Württemberg"}},{"name":"3. Feuerweg","postalCode":"75217","locality":"Birkenfeld","municipality":{"key":"08236004","name":"Birkenfeld","type":"Kreisangehörige_Gemeinde"},"district":{"key":"08236","name":"Enzkreis","type":"Landkreis"},"federalState":{"key":"08","name":"Baden-Württemberg"}},{"name":"Am Wachthübel","postalCode":"55626","locality":"Bundenbach","municipality":{"key":"07134017","name":"Bundenbach","type":"Kreisangehörige_Gemeinde"},"district":{"key":"07134","name":"Birkenfeld","type":"Landkreis"},"federalState":{"key":"07","name":"Rheinland-Pfalz"}},{"name":"Auf der Bitze","postalCode":"55626","locality":"Bundenbach","municipality":{"key":"07134017","name":"Bundenbach","type":"Kreisangehörige_Gemeinde"},"district":{"key":"07134","name":"Birkenfeld","type":"Landkreis"},"federalState":{"key":"07","name":"Rheinland-Pfalz"}},{"name":"Auf Dick Heck","postalCode":"55626","locality":"Bundenbach","municipality":{"key":"07134017","name":"Bundenbach","type":"Kreisangehörige_Gemeinde"},"district":{"key":"07134","name":"Birkenfeld","type":"Landkreis"},"federalState":{"key":"07","name":"Rheinland-Pfalz"}},{"name":"Auf Heibenacker","postalCode":"55626","locality":"Bundenbach","municipality":{"key":"07134017","name":"Bundenbach","type":"Kreisangehörige_Gemeinde"},"district":{"key":"07134","name":"Birkenfeld","type":"Landkreis"},"federalState":{"key":"07","name":"Rheinland-Pfalz"}},{"name":"Auf Isels","postalCode":"55626","locality":"Bundenbach","municipality":{"key":"07134017","name":"Bundenbach","type":"Kreisangehörige_Gemeinde"},"district":{"key":"07134","name":"Birkenfeld","type":"Landkreis"},"federalState":{"key":"07","name":"Rheinland-Pfalz"}},{"name":"Auf Sins","postalCode":"55626","locality":"Bundenbach","municipality":{"key":"07134017","name":"Bundenbach","type":"Kreisangehörige_Gemeinde"},"district":{"key":"07134","name":"Birkenfeld","type":"Landkreis"},"federalState":{"key":"07","name":"Rheinland-Pfalz"}},{"name":"Bildchesweg","postalCode":"55626","locality":"Bundenbach","municipality":{"key":"07134017","name":"Bundenbach","type":"Kreisangehörige_Gemeinde"},"district":{"key":"07134","name":"Birkenfeld","type":"Landkreis"},"federalState":{"key":"07","name":"Rheinland-Pfalz"}},{"name":"Bollenbacher Weg","postalCode":"55626","locality":"Bundenbach","municipality":{"key":"07134017","name":"Bundenbach","type":"Kreisangehörige_Gemeinde"},"district":{"key":"07134","name":"Birkenfeld","type":"Landkreis"},"federalState":{"key":"07","name":"Rheinland-Pfalz"}},{"name":"Burgweg","postalCode":"55626","locality":"Bundenbach","municipality":{"key":"07134017","name":"Bundenbach","type":"Kreisangehörige_Gemeinde"},"district":{"key":"07134","name":"Birkenfeld","type":"Landkreis"},"federalState":{"key":"07","name":"Rheinland-Pfalz"}},{"name":"Daimlerstr.","postalCode":"75217","locality":"Birkenfeld","municipality":{"key":"08236004","name":"Birkenfeld","type":"Kreisangehörige_Gemeinde"},"district":{"key":"08236","name":"Enzkreis","type":"Landkreis"},"federalState":{"key":"08","name":"Baden-Württemberg"}},{"name":"Damaschkestr.","postalCode":"75217","locality":"Birkenfeld","municipality":{"key":"08236004","name":"Birkenfeld","type":"Kreisangehörige_Gemeinde"},"district":{"key":"08236","name":"Enzkreis","type":"Landkreis"},"federalState":{"key":"08","name":"Baden-Württemberg"}},{"name":"Dambacher Weg","postalCode":"55765","locality":"Birkenfeld","municipality":{"key":"07134010","name":"Birkenfeld, Stadt","type":"Stadt"},"district":{"key":"07134","name":"Birkenfeld","type":"Landkreis"},"federalState":{"key":"07","name":"Rheinland-Pfalz"}},{"name":"Dantelaustr.","postalCode":"75217","locality":"Birkenfeld","municipality":{"key":"08236004","name":"Birkenfeld","type":"Kreisangehörige_Gemeinde"},"district":{"key":"08236","name":"Enzkreis","type":"Landkreis"},"federalState":{"key":"08","name":"Baden-Württemberg"}},{"name":"Danziger Weg","postalCode":"75217","locality":"Birkenfeld","municipality":{"key":"08236004","name":"Birkenfeld","type":"Kreisangehörige_Gemeinde"},"district":{"key":"08236","name":"Enzkreis","type":"Landkreis"},"federalState":{"key":"08","name":"Baden-Württemberg"}},{"name":"Der Steinsche Platz","postalCode":"37318","locality":"Birkenfelde","municipality":{"key":"16061007","name":"Birkenfelde","type":"Kreisangehörige_Gemeinde"},"district":{"key":"16061","name":"Eichsfeld","type":"Landkreis"},"federalState":{"key":"16","name":"Thüringen"}},{"name":"Dieselstr.","postalCode":"75217","locality":"Birkenfeld","municipality":{"key":"08236004","name":"Birkenfeld","type":"Kreisangehörige_Gemeinde"},"district":{"key":"08236","name":"Enzkreis","type":"Landkreis"},"federalState":{"key":"08","name":"Baden-Württemberg"}},{"name":"Dietlinger Str.","postalCode":"75217","locality":"Birkenfeld","municipality":{"key":"08236004","name":"Birkenfeld","type":"Kreisangehörige_Gemeinde"},"district":{"key":"08236","name":"Enzkreis","type":"Landkreis"},"federalState":{"key":"08","name":"Baden-Württemberg"}},{"name":"Drei Linden","postalCode":"75217","locality":"Birkenfeld","municipality":{"key":"08236004","name":"Birkenfeld","type":"Kreisangehörige_Gemeinde"},"district":{"key":"08236","name":"Enzkreis","type":"Landkreis"},"federalState":{"key":"08","name":"Baden-Württemberg"}},{"name":"Dresdener Str.","postalCode":"75217","locality":"Birkenfeld","municipality":{"key":"08236004","name":"Birkenfeld","type":"Kreisangehörige_Gemeinde"},"district":{"key":"08236","name":"Enzkreis","type":"Landkreis"},"federalState":{"key":"08","name":"Baden-Württemberg"}},{"name":"Drosselweg","postalCode":"55765","locality":"Birkenfeld","municipality":{"key":"07134010","name":"Birkenfeld, Stadt","type":"Stadt"},"district":{"key":"07134","name":"Birkenfeld","type":"Landkreis"},"federalState":{"key":"07","name":"Rheinland-Pfalz"}},{"name":"Drosselweg","postalCode":"75217","locality":"Birkenfeld","municipality":{"key":"08236004","name":"Birkenfeld","type":"Kreisangehörige_Gemeinde"},"district":{"key":"08236","name":"Enzkreis","type":"Landkreis"},"federalState":{"key":"08","name":"Baden-Württemberg"}},{"name":"Duttenbrunner Str.","postalCode":"97834","locality":"Birkenfeld","municipality":{"key":"09677119","name":"Birkenfeld","type":"Kreisangehörige_Gemeinde"},"district":{"key":"09677","name":"Main-Spessart","type":"Landkreis"},"federalState":{"key":"09","name":"Bayern"}},{"name":"Düttstein","postalCode":"97834","locality":"Birkenfeld","municipality":{"key":"09677119","name":"Birkenfeld","type":"Kreisangehörige_Gemeinde"},"district":{"key":"09677","name":"Main-Spessart","type":"Landkreis"},"federalState":{"key":"09","name":"Bayern"}},{"name":"Edelberg","postalCode":"97834","locality":"Birkenfeld","municipality":{"key":"09677119","name":"Birkenfeld","type":"Kreisangehörige_Gemeinde"},"district":{"key":"09677","name":"Main-Spessart","type":"Landkreis"},"federalState":{"key":"09","name":"Bayern"}},{"name":"Eichenring","postalCode":"55765","locality":"Birkenfeld","municipality":{"key":"07134010","name":"Birkenfeld, Stadt","type":"Stadt"},"district":{"key":"07134","name":"Birkenfeld","type":"Landkreis"},"federalState":{"key":"07","name":"Rheinland-Pfalz"}},{"name":"Eichenstr.","postalCode":"75217","locality":"Birkenfeld","municipality":{"key":"08236004","name":"Birkenfeld","type":"Kreisangehörige_Gemeinde"},"district":{"key":"08236","name":"Enzkreis","type":"Landkreis"},"federalState":{"key":"08","name":"Baden-Württemberg"}},{"name":"Eisenacher Str.","postalCode":"75217","locality":"Birkenfeld","municipality":{"key":"08236004","name":"Birkenfeld","type":"Kreisangehörige_Gemeinde"},"district":{"key":"08236","name":"Enzkreis","type":"Landkreis"},"federalState":{"key":"08","name":"Baden-Württemberg"}},{"name":"Ellmendinger Str.","postalCode":"75217","locality":"Birkenfeld","municipality":{"key":"08236004","name":"Birkenfeld","type":"Kreisangehörige_Gemeinde"},"district":{"key":"08236","name":"Enzkreis","type":"Landkreis"},"federalState":{"key":"08","name":"Baden-Württemberg"}},{"name":"Endelbachstr.","postalCode":"75217","locality":"Birkenfeld","municipality":{"key":"08236004","name":"Birkenfeld","type":"Kreisangehörige_Gemeinde"},"district":{"key":"08236","name":"Enzkreis","type":"Landkreis"},"federalState":{"key":"08","name":"Baden-Württemberg"}},{"name":"Enzhangweg","postalCode":"75217","locality":"Birkenfeld","municipality":{"key":"08236004","name":"Birkenfeld","type":"Kreisangehörige_Gemeinde"},"district":{"key":"08236","name":"Enzkreis","type":"Landkreis"},"federalState":{"key":"08","name":"Baden-Württemberg"}},{"name":"Enzweg","postalCode":"75217","locality":"Birkenfeld","municipality":{"key":"08236004","name":"Birkenfeld","type":"Kreisangehörige_Gemeinde"},"district":{"key":"08236","name":"Enzkreis","type":"Landkreis"},"federalState":{"key":"08","name":"Baden-Württemberg"}},{"name":"Erfurter Str.","postalCode":"75217","locality":"Birkenfeld","municipality":{"key":"08236004","name":"Birkenfeld","type":"Kreisangehörige_Gemeinde"},"district":{"key":"08236","name":"Enzkreis","type":"Landkreis"},"federalState":{"key":"08","name":"Baden-Württemberg"}},{"name":"Erlachstr.","postalCode":"75217","locality":"Birkenfeld","municipality":{"key":"08236004","name":"Birkenfeld","type":"Kreisangehörige_Gemeinde"},"district":{"key":"08236","name":"Enzkreis","type":"Landkreis"},"federalState":{"key":"08","name":"Baden-Württemberg"}},{"name":"Erlengrund","postalCode":"55765","locality":"Birkenfeld","municipality":{"key":"07134010","name":"Birkenfeld, Stadt","type":"Stadt"},"district":{"key":"07134","name":"Birkenfeld","type":"Landkreis"},"federalState":{"key":"07","name":"Rheinland-Pfalz"}},{"name":"Erlenstr.","postalCode":"75217","locality":"Birkenfeld","municipality":{"key":"08236004","name":"Birkenfeld","type":"Kreisangehörige_Gemeinde"},"district":{"key":"08236","name":"Enzkreis","type":"Landkreis"},"federalState":{"key":"08","name":"Baden-Württemberg"}},{"name":"Erlenstr.","postalCode":"97834","locality":"Birkenfeld","municipality":{"key":"09677119","name":"Birkenfeld","type":"Kreisangehörige_Gemeinde"},"district":{"key":"09677","name":"Main-Spessart","type":"Landkreis"},"federalState":{"key":"09","name":"Bayern"}},{"name":"Eschenstr.","postalCode":"75217","locality":"Birkenfeld","municipality":{"key":"08236004","name":"Birkenfeld","type":"Kreisangehörige_Gemeinde"},"district":{"key":"08236","name":"Enzkreis","type":"Landkreis"},"federalState":{"key":"08","name":"Baden-Württemberg"}},{"name":"Eselsweg","postalCode":"75217","locality":"Birkenfeld","municipality":{"key":"08236004","name":"Birkenfeld","type":"Kreisangehörige_Gemeinde"},"district":{"key":"08236","name":"Enzkreis","type":"Landkreis"},"federalState":{"key":"08","name":"Baden-Württemberg"}},{"name":"Flurstr.","postalCode":"55626","locality":"Bundenbach","municipality":{"key":"07134017","name":"Bundenbach","type":"Kreisangehörige_Gemeinde"},"district":{"key":"07134","name":"Birkenfeld","type":"Landkreis"},"federalState":{"key":"07","name":"Rheinland-Pfalz"}},{"name":"Friedhofstr.","postalCode":"66501","locality":"Kleinbundenbach","municipality":{"key":"07340213","name":"Kleinbundenbach","type":"Kreisangehörige_Gemeinde"},"district":{"key":"07340","name":"Südwestpfalz","type":"Landkreis"},"federalState":{"key":"07","name":"Rheinland-Pfalz"}},{"name":"Friedhofsweg","postalCode":"55626","locality":"Bundenbach","municipality":{"key":"07134017","name":"Bundenbach","type":"Kreisangehörige_Gemeinde"},"district":{"key":"07134","name":"Birkenfeld","type":"Landkreis"},"federalState":{"key":"07","name":"Rheinland-Pfalz"}},{"name":"Frühlingstr.","postalCode":"66501","locality":"Großbundenbach","municipality":{"key":"07340209","name":"Großbundenbach","type":"Kreisangehörige_Gemeinde"},"district":{"key":"07340","name":"Südwestpfalz","type":"Landkreis"},"federalState":{"key":"07","name":"Rheinland-Pfalz"}},{"name":"Gartenstr.","postalCode":"55626","locality":"Bundenbach","municipality":{"key":"07134017","name":"Bundenbach","type":"Kreisangehörige_Gemeinde"},"district":{"key":"07134","name":"Birkenfeld","type":"Landkreis"},"federalState":{"key":"07","name":"Rheinland-Pfalz"}},{"name":"Gartenstr.","postalCode":"66501","locality":"Kleinbundenbach","municipality":{"key":"07340213","name":"Kleinbundenbach","type":"Kreisangehörige_Gemeinde"},"district":{"key":"07340","name":"Südwestpfalz","type":"Landkreis"},"federalState":{"key":"07","name":"Rheinland-Pfalz"}},{"name":"Hauptstr.","postalCode":"55626","locality":"Bundenbach","municipality":{"key":"07134017","name":"Bundenbach","type":"Kreisangehörige_Gemeinde"},"district":{"key":"07134","name":"Birkenfeld","type":"Landkreis"},"federalState":{"key":"07","name":"Rheinland-Pfalz"}},{"name":"Hauptstr.","postalCode":"66501","locality":"Großbundenbach","municipality":{"key":"07340209","name":"Großbundenbach","type":"Kreisangehörige_Gemeinde"},"district":{"key":"07340","name":"Südwestpfalz","type":"Landkreis"},"federalState":{"key":"07","name":"Rheinland-Pfalz"}},{"name":"Hauptstr.","postalCode":"66501","locality":"Kleinbundenbach","municipality":{"key":"07340213","name":"Kleinbundenbach","type":"Kreisangehörige_Gemeinde"},"district":{"key":"07340","name":"Südwestpfalz","type":"Landkreis"},"federalState":{"key":"07","name":"Rheinland-Pfalz"}},{"name":"Höhenstr.","postalCode":"66501","locality":"Kleinbundenbach","municipality":{"key":"07340213","name":"Kleinbundenbach","type":"Kreisangehörige_Gemeinde"},"district":{"key":"07340","name":"Südwestpfalz","type":"Landkreis"},"federalState":{"key":"07","name":"Rheinland-Pfalz"}},{"name":"Hohlweg","postalCode":"55626","locality":"Bundenbach","municipality":{"key":"07134017","name":"Bundenbach","type":"Kreisangehörige_Gemeinde"},"district":{"key":"07134","name":"Birkenfeld","type":"Landkreis"},"federalState":{"key":"07","name":"Rheinland-Pfalz"}},{"name":"Im Hanfgarten","postalCode":"55626","locality":"Bundenbach","municipality":{"key":"07134017","name":"Bundenbach","type":"Kreisangehörige_Gemeinde"},"district":{"key":"07134","name":"Birkenfeld","type":"Landkreis"},"federalState":{"key":"07","name":"Rheinland-Pfalz"}},{"name":"Im Liebestal","postalCode":"66501","locality":"Großbundenbach","municipality":{"key":"07340209","name":"Großbundenbach","type":"Kreisangehörige_Gemeinde"},"district":{"key":"07340","name":"Südwestpfalz","type":"Landkreis"},"federalState":{"key":"07","name":"Rheinland-Pfalz"}},{"name":"Jägersteig","postalCode":"75217","locality":"Birkenfeld","municipality":{"key":"08236004","name":"Birkenfeld","type":"Kreisangehörige_Gemeinde"},"district":{"key":"08236","name":"Enzkreis","type":"Landkreis"},"federalState":{"key":"08","name":"Baden-Württemberg"}},{"name":"Jägersteig-Kreisel","postalCode":"75217","locality":"Birkenfeld","municipality":{"key":"08236004","name":"Birkenfeld","type":"Kreisangehörige_Gemeinde"},"district":{"key":"08236","name":"Enzkreis","type":"Landkreis"},"federalState":{"key":"08","name":"Baden-Württemberg"}},{"name":"Jahnstr.","postalCode":"75217","locality":"Birkenfeld","municipality":{"key":"08236004","name":"Birkenfeld","type":"Kreisangehörige_Gemeinde"},"district":{"key":"08236","name":"Enzkreis","type":"Landkreis"},"federalState":{"key":"08","name":"Baden-Württemberg"}},{"name":"Kallenfelser Str.","postalCode":"55626","locality":"Bundenbach","municipality":{"key":"07134017","name":"Bundenbach","type":"Kreisangehörige_Gemeinde"},"district":{"key":"07134","name":"Birkenfeld","type":"Landkreis"},"federalState":{"key":"07","name":"Rheinland-Pfalz"}},{"name":"Laierserweg","postalCode":"75217","locality":"Birkenfeld","municipality":{"key":"08236004","name":"Birkenfeld","type":"Kreisangehörige_Gemeinde"},"district":{"key":"08236","name":"Enzkreis","type":"Landkreis"},"federalState":{"key":"08","name":"Baden-Württemberg"}},{"name":"Langgasse","postalCode":"97834","locality":"Birkenfeld","municipality":{"key":"09677119","name":"Birkenfeld","type":"Kreisangehörige_Gemeinde"},"district":{"key":"09677","name":"Main-Spessart","type":"Landkreis"},"federalState":{"key":"09","name":"Bayern"}},{"name":"Langwiesenstr.","postalCode":"75217","locality":"Birkenfeld","municipality":{"key":"08236004","name":"Birkenfeld","type":"Kreisangehörige_Gemeinde"},"district":{"key":"08236","name":"Enzkreis","type":"Landkreis"},"federalState":{"key":"08","name":"Baden-Württemberg"}},{"name":"Lärchenstr.","postalCode":"75217","locality":"Birkenfeld","municipality":{"key":"08236004","name":"Birkenfeld","type":"Kreisangehörige_Gemeinde"},"district":{"key":"08236","name":"Enzkreis","type":"Landkreis"},"federalState":{"key":"08","name":"Baden-Württemberg"}},{"name":"Lärchenstr.","postalCode":"97834","locality":"Birkenfeld","municipality":{"key":"09677119","name":"Birkenfeld","type":"Kreisangehörige_Gemeinde"},"district":{"key":"09677","name":"Main-Spessart","type":"Landkreis"},"federalState":{"key":"09","name":"Bayern"}},{"name":"Leipziger Str.","postalCode":"75217","locality":"Birkenfeld","municipality":{"key":"08236004","name":"Birkenfeld","type":"Kreisangehörige_Gemeinde"},"district":{"key":"08236","name":"Enzkreis","type":"Landkreis"},"federalState":{"key":"08","name":"Baden-Württemberg"}},{"name":"Leitgertsweg","postalCode":"55765","locality":"Birkenfeld","municipality":{"key":"07134010","name":"Birkenfeld, Stadt","type":"Stadt"},"district":{"key":"07134","name":"Birkenfeld","type":"Landkreis"},"federalState":{"key":"07","name":"Rheinland-Pfalz"}},{"name":"Lerchenweg","postalCode":"55765","locality":"Birkenfeld","municipality":{"key":"07134010","name":"Birkenfeld, Stadt","type":"Stadt"},"district":{"key":"07134","name":"Birkenfeld","type":"Landkreis"},"federalState":{"key":"07","name":"Rheinland-Pfalz"}},{"name":"Lessingstr.","postalCode":"75217","locality":"Birkenfeld","municipality":{"key":"08236004","name":"Birkenfeld","type":"Kreisangehörige_Gemeinde"},"district":{"key":"08236","name":"Enzkreis","type":"Landkreis"},"federalState":{"key":"08","name":"Baden-Württemberg"}},{"name":"Lindenstr.","postalCode":"55765","locality":"Birkenfeld","municipality":{"key":"07134010","name":"Birkenfeld, Stadt","type":"Stadt"},"district":{"key":"07134","name":"Birkenfeld","type":"Landkreis"},"federalState":{"key":"07","name":"Rheinland-Pfalz"}},{"name":"Lindenstr.","postalCode":"75217","locality":"Birkenfeld","municipality":{"key":"08236004","name":"Birkenfeld","type":"Kreisangehörige_Gemeinde"},"district":{"key":"08236","name":"Enzkreis","type":"Landkreis"},"federalState":{"key":"08","name":"Baden-Württemberg"}},{"name":"Lindenstr.","postalCode":"97834","locality":"Birkenfeld","municipality":{"key":"09677119","name":"Birkenfeld","type":"Kreisangehörige_Gemeinde"},"district":{"key":"09677","name":"Main-Spessart","type":"Landkreis"},"federalState":{"key":"09","name":"Bayern"}},{"name":"Lotharweg","postalCode":"75217","locality":"Birkenfeld","municipality":{"key":"08236004","name":"Birkenfeld","type":"Kreisangehörige_Gemeinde"},"district":{"key":"08236","name":"Enzkreis","type":"Landkreis"},"federalState":{"key":"08","name":"Baden-Württemberg"}},{"name":"Lothringer Str.","postalCode":"55765","locality":"Birkenfeld","municipality":{"key":"07134010","name":"Birkenfeld, Stadt","type":"Stadt"},"district":{"key":"07134","name":"Birkenfeld","type":"Landkreis"},"federalState":{"key":"07","name":"Rheinland-Pfalz"}},{"name":"Magdeburger Str.","postalCode":"75217","locality":"Birkenfeld","municipality":{"key":"08236004","name":"Birkenfeld","type":"Kreisangehörige_Gemeinde"},"district":{"key":"08236","name":"Enzkreis","type":"Landkreis"},"federalState":{"key":"08","name":"Baden-Württemberg"}},{"name":"Magnolienweg","postalCode":"75217","locality":"Birkenfeld","municipality":{"key":"08236004","name":"Birkenfeld","type":"Kreisangehörige_Gemeinde"},"district":{"key":"08236","name":"Enzkreis","type":"Landkreis"},"federalState":{"key":"08","name":"Baden-Württemberg"}},{"name":"Maiwiese","postalCode":"55765","locality":"Birkenfeld","municipality":{"key":"07134010","name":"Birkenfeld, Stadt","type":"Stadt"},"district":{"key":"07134","name":"Birkenfeld","type":"Landkreis"},"federalState":{"key":"07","name":"Rheinland-Pfalz"}},{"name":"Martin-Luther-Str.","postalCode":"75217","locality":"Birkenfeld","municipality":{"key":"08236004","name":"Birkenfeld","type":"Kreisangehörige_Gemeinde"},"district":{"key":"08236","name":"Enzkreis","type":"Landkreis"},"federalState":{"key":"08","name":"Baden-Württemberg"}},{"name":"Maybachstr.","postalCode":"75217","locality":"Birkenfeld","municipality":{"key":"08236004","name":"Birkenfeld","type":"Kreisangehörige_Gemeinde"},"district":{"key":"08236","name":"Enzkreis","type":"Landkreis"},"federalState":{"key":"08","name":"Baden-Württemberg"}},{"name":"Meisenweg","postalCode":"55765","locality":"Birkenfeld","municipality":{"key":"07134010","name":"Birkenfeld, Stadt","type":"Stadt"},"district":{"key":"07134","name":"Birkenfeld","type":"Landkreis"},"federalState":{"key":"07","name":"Rheinland-Pfalz"}},{"name":"Meisterweg","postalCode":"75217","locality":"Birkenfeld","municipality":{"key":"08236004","name":"Birkenfeld","type":"Kreisangehörige_Gemeinde"},"district":{"key":"08236","name":"Enzkreis","type":"Landkreis"},"federalState":{"key":"08","name":"Baden-Württemberg"}},{"name":"Merkurstr.","postalCode":"75217","locality":"Birkenfeld","municipality":{"key":"08236004","name":"Birkenfeld","type":"Kreisangehörige_Gemeinde"},"district":{"key":"08236","name":"Enzkreis","type":"Landkreis"},"federalState":{"key":"08","name":"Baden-Württemberg"}},{"name":"Mittelbusch","postalCode":"75217","locality":"Birkenfeld","municipality":{"key":"08236004","name":"Birkenfeld","type":"Kreisangehörige_Gemeinde"},"district":{"key":"08236","name":"Enzkreis","type":"Landkreis"},"federalState":{"key":"08","name":"Baden-Württemberg"}},{"name":"Mitteldorf","postalCode":"37318","locality":"Birkenfelde","municipality":{"key":"16061007","name":"Birkenfelde","type":"Kreisangehörige_Gemeinde"},"district":{"key":"16061","name":"Eichsfeld","type":"Landkreis"},"federalState":{"key":"16","name":"Thüringen"}},{"name":"Mittlerer Hardweg","postalCode":"75217","locality":"Birkenfeld","municipality":{"key":"08236004","name":"Birkenfeld","type":"Kreisangehörige_Gemeinde"},"district":{"key":"08236","name":"Enzkreis","type":"Landkreis"},"federalState":{"key":"08","name":"Baden-Württemberg"}},{"name":"Mittlerer Rixweg","postalCode":"75217","locality":"Birkenfeld","municipality":{"key":"08236004","name":"Birkenfeld","type":"Kreisangehörige_Gemeinde"},"district":{"key":"08236","name":"Enzkreis","type":"Landkreis"},"federalState":{"key":"08","name":"Baden-Württemberg"}},{"name":"Mörikestr.","postalCode":"75217","locality":"Birkenfeld","municipality":{"key":"08236004","name":"Birkenfeld","type":"Kreisangehörige_Gemeinde"},"district":{"key":"08236","name":"Enzkreis","type":"Landkreis"},"federalState":{"key":"08","name":"Baden-Württemberg"}},{"name":"Mozartplatz","postalCode":"55765","locality":"Birkenfeld","municipality":{"key":"07134010","name":"Birkenfeld, Stadt","type":"Stadt"},"district":{"key":"07134","name":"Birkenfeld","type":"Landkreis"},"federalState":{"key":"07","name":"Rheinland-Pfalz"}},{"name":"Mozartstr.","postalCode":"55765","locality":"Birkenfeld","municipality":{"key":"07134010","name":"Birkenfeld, Stadt","type":"Stadt"},"district":{"key":"07134","name":"Birkenfeld","type":"Landkreis"},"federalState":{"key":"07","name":"Rheinland-Pfalz"}},{"name":"Mozartstr.","postalCode":"75217","locality":"Birkenfeld","municipality":{"key":"08236004","name":"Birkenfeld","type":"Kreisangehörige_Gemeinde"},"district":{"key":"08236","name":"Enzkreis","type":"Landkreis"},"federalState":{"key":"08","name":"Baden-Württemberg"}},{"name":"Mühlgasse","postalCode":"75217","locality":"Birkenfeld","municipality":{"key":"08236004","name":"Birkenfeld","type":"Kreisangehörige_Gemeinde"},"district":{"key":"08236","name":"Enzkreis","type":"Landkreis"},"federalState":{"key":"08","name":"Baden-Württemberg"}},{"name":"Mühlweg","postalCode":"97834","locality":"Birkenfeld","municipality":{"key":"09677119","name":"Birkenfeld","type":"Kreisangehörige_Gemeinde"},"district":{"key":"09677","name":"Main-Spessart","type":"Landkreis"},"federalState":{"key":"09","name":"Bayern"}},{"name":"Nachtigallenweg","postalCode":"55765","locality":"Birkenfeld","municipality":{"key":"07134010","name":"Birkenfeld, Stadt","type":"Stadt"},"district":{"key":"07134","name":"Birkenfeld","type":"Landkreis"},"federalState":{"key":"07","name":"Rheinland-Pfalz"}},{"name":"Neubaustr.","postalCode":"97834","locality":"Birkenfeld","municipality":{"key":"09677119","name":"Birkenfeld","type":"Kreisangehörige_Gemeinde"},"district":{"key":"09677","name":"Main-Spessart","type":"Landkreis"},"federalState":{"key":"09","name":"Bayern"}},{"name":"Neue Gasse","postalCode":"75217","locality":"Birkenfeld","municipality":{"key":"08236004","name":"Birkenfeld","type":"Kreisangehörige_Gemeinde"},"district":{"key":"08236","name":"Enzkreis","type":"Landkreis"},"federalState":{"key":"08","name":"Baden-Württemberg"}},{"name":"Neuenbürger Str.","postalCode":"75217","locality":"Birkenfeld","municipality":{"key":"08236004","name":"Birkenfeld","type":"Kreisangehörige_Gemeinde"},"district":{"key":"08236","name":"Enzkreis","type":"Landkreis"},"federalState":{"key":"08","name":"Baden-Württemberg"}},{"name":"Neuenbürger Weg","postalCode":"75217","locality":"Birkenfeld","municipality":{"key":"08236004","name":"Birkenfeld","type":"Kreisangehörige_Gemeinde"},"district":{"key":"08236","name":"Enzkreis","type":"Landkreis"},"federalState":{"key":"08","name":"Baden-Württemberg"}},{"name":"Neuer Weg","postalCode":"75217","locality":"Birkenfeld","municipality":{"key":"08236004","name":"Birkenfeld","type":"Kreisangehörige_Gemeinde"},"district":{"key":"08236","name":"Enzkreis","type":"Landkreis"},"federalState":{"key":"08","name":"Baden-Württemberg"}},{"name":"Niebelsbacher Str.","postalCode":"75217","locality":"Birkenfeld","municipality":{"key":"08236004","name":"Birkenfeld","type":"Kreisangehörige_Gemeinde"},"district":{"key":"08236","name":"Enzkreis","type":"Landkreis"},"federalState":{"key":"08","name":"Baden-Württemberg"}},{"name":"Niebelsbacher Weg","postalCode":"75217","locality":"Birkenfeld","municipality":{"key":"08236004","name":"Birkenfeld","type":"Kreisangehörige_Gemeinde"},"district":{"key":"08236","name":"Enzkreis","type":"Landkreis"},"federalState":{"key":"08","name":"Baden-Württemberg"}},{"name":"Oberdorf","postalCode":"37318","locality":"Birkenfelde","municipality":{"key":"16061007","name":"Birkenfelde","type":"Kreisangehörige_Gemeinde"},"district":{"key":"16061","name":"Eichsfeld","type":"Landkreis"},"federalState":{"key":"16","name":"Thüringen"}},{"name":"Oberes Eichholz","postalCode":"37318","locality":"Birkenfelde","municipality":{"key":"16061007","name":"Birkenfelde","type":"Kreisangehörige_Gemeinde"},"district":{"key":"16061","name":"Eichsfeld","type":"Landkreis"},"federalState":{"key":"16","name":"Thüringen"}},{"name":"Obernhausen-Neuenbürger-Weg","postalCode":"75217","locality":"Birkenfeld","municipality":{"key":"08236004","name":"Birkenfeld","type":"Kreisangehörige_Gemeinde"},"district":{"key":"08236","name":"Enzkreis","type":"Landkreis"},"federalState":{"key":"08","name":"Baden-Württemberg"}},{"name":"Obernhäuser Str.","postalCode":"75217","locality":"Birkenfeld","municipality":{"key":"08236004","name":"Birkenfeld","type":"Kreisangehörige_Gemeinde"},"district":{"key":"08236","name":"Enzkreis","type":"Landkreis"},"federalState":{"key":"08","name":"Baden-Württemberg"}},{"name":"Oldenburger Str.","postalCode":"55765","locality":"Birkenfeld","municipality":{"key":"07134010","name":"Birkenfeld, Stadt","type":"Stadt"},"district":{"key":"07134","name":"Birkenfeld","type":"Landkreis"},"federalState":{"key":"07","name":"Rheinland-Pfalz"}},{"name":"Panoramastr.","postalCode":"75217","locality":"Birkenfeld","municipality":{"key":"08236004","name":"Birkenfeld","type":"Kreisangehörige_Gemeinde"},"district":{"key":"08236","name":"Enzkreis","type":"Landkreis"},"federalState":{"key":"08","name":"Baden-Württemberg"}},{"name":"Pappelstr.","postalCode":"75217","locality":"Birkenfeld","municipality":{"key":"08236004","name":"Birkenfeld","type":"Kreisangehörige_Gemeinde"},"district":{"key":"08236","name":"Enzkreis","type":"Landkreis"},"federalState":{"key":"08","name":"Baden-Württemberg"}},{"name":"Pappelweg","postalCode":"55765","locality":"Birkenfeld","municipality":{"key":"07134010","name":"Birkenfeld, Stadt","type":"Stadt"},"district":{"key":"07134","name":"Birkenfeld","type":"Landkreis"},"federalState":{"key":"07","name":"Rheinland-Pfalz"}},{"name":"Parkstr.","postalCode":"55765","locality":"Birkenfeld","municipality":{"key":"07134010","name":"Birkenfeld, Stadt","type":"Stadt"},"district":{"key":"07134","name":"Birkenfeld","type":"Landkreis"},"federalState":{"key":"07","name":"Rheinland-Pfalz"}},{"name":"Pfalzgrafenweg","postalCode":"55765","locality":"Birkenfeld","municipality":{"key":"07134010","name":"Birkenfeld, Stadt","type":"Stadt"},"district":{"key":"07134","name":"Birkenfeld","type":"Landkreis"},"federalState":{"key":"07","name":"Rheinland-Pfalz"}},{"name":"Pfarrer-Lengler-Weg","postalCode":"55765","locality":"Birkenfeld","municipality":{"key":"07134010","name":"Birkenfeld, Stadt","type":"Stadt"},"district":{"key":"07134","name":"Birkenfeld","type":"Landkreis"},"federalState":{"key":"07","name":"Rheinland-Pfalz"}},{"name":"Pfarrgasse","postalCode":"55765","locality":"Birkenfeld","municipality":{"key":"07134010","name":"Birkenfeld, Stadt","type":"Stadt"},"district":{"key":"07134","name":"Birkenfeld","type":"Landkreis"},"federalState":{"key":"07","name":"Rheinland-Pfalz"}},{"name":"Pfarrgasse","postalCode":"75217","locality":"Birkenfeld","municipality":{"key":"08236004","name":"Birkenfeld","type":"Kreisangehörige_Gemeinde"},"district":{"key":"08236","name":"Enzkreis","type":"Landkreis"},"federalState":{"key":"08","name":"Baden-Württemberg"}},{"name":"Pfetzerstr.","postalCode":"97834","locality":"Birkenfeld","municipality":{"key":"09677119","name":"Birkenfeld","type":"Kreisangehörige_Gemeinde"},"district":{"key":"09677","name":"Main-Spessart","type":"Landkreis"},"federalState":{"key":"09","name":"Bayern"}},{"name":"Pforzheimer Landstr.","postalCode":"75217","locality":"Birkenfeld","municipality":{"key":"08236004","name":"Birkenfeld","type":"Kreisangehörige_Gemeinde"},"district":{"key":"08236","name":"Enzkreis","type":"Landkreis"},"federalState":{"key":"08","name":"Baden-Württemberg"}},{"name":"Planckstr.","postalCode":"75217","locality":"Birkenfeld","municipality":{"key":"08236004","name":"Birkenfeld","type":"Kreisangehörige_Gemeinde"},"district":{"key":"08236","name":"Enzkreis","type":"Landkreis"},"federalState":{"key":"08","name":"Baden-Württemberg"}},{"name":"Platanenstr.","postalCode":"75217","locality":"Birkenfeld","municipality":{"key":"08236004","name":"Birkenfeld","type":"Kreisangehörige_Gemeinde"},"district":{"key":"08236","name":"Enzkreis","type":"Landkreis"},"federalState":{"key":"08","name":"Baden-Württemberg"}},{"name":"Potsdamer Weg","postalCode":"75217","locality":"Birkenfeld","municipality":{"key":"08236004","name":"Birkenfeld","type":"Kreisangehörige_Gemeinde"},"district":{"key":"08236","name":"Enzkreis","type":"Landkreis"},"federalState":{"key":"08","name":"Baden-Württemberg"}},{"name":"Prof.-Baldes-Str.","postalCode":"55765","locality":"Birkenfeld","municipality":{"key":"07134010","name":"Birkenfeld, Stadt","type":"Stadt"},"district":{"key":"07134","name":"Birkenfeld","type":"Landkreis"},"federalState":{"key":"07","name":"Rheinland-Pfalz"}},{"name":"Prof.-Behrens-Str.","postalCode":"55765","locality":"Birkenfeld","municipality":{"key":"07134010","name":"Birkenfeld, Stadt","type":"Stadt"},"district":{"key":"07134","name":"Birkenfeld","type":"Landkreis"},"federalState":{"key":"07","name":"Rheinland-Pfalz"}},{"name":"Professor-Rippel-Str.","postalCode":"55765","locality":"Birkenfeld","municipality":{"key":"07134010","name":"Birkenfeld, Stadt","type":"Stadt"},"district":{"key":"07134","name":"Birkenfeld","type":"Landkreis"},"federalState":{"key":"07","name":"Rheinland-Pfalz"}},{"name":"Quellenweg","postalCode":"97834","locality":"Birkenfeld","municipality":{"key":"09677119","name":"Birkenfeld","type":"Kreisangehörige_Gemeinde"},"district":{"key":"09677","name":"Main-Spessart","type":"Landkreis"},"federalState":{"key":"09","name":"Bayern"}},{"name":"Ringstr.","postalCode":"55626","locality":"Bundenbach","municipality":{"key":"07134017","name":"Bundenbach","type":"Kreisangehörige_Gemeinde"},"district":{"key":"07134","name":"Birkenfeld","type":"Landkreis"},"federalState":{"key":"07","name":"Rheinland-Pfalz"}},{"name":"Rohrweg","postalCode":"55626","locality":"Bundenbach","municipality":{"key":"07134017","name":"Bundenbach","type":"Kreisangehörige_Gemeinde"},"district":{"key":"07134","name":"Birkenfeld","type":"Landkreis"},"federalState":{"key":"07","name":"Rheinland-Pfalz"}},{"name":"Schulstr.","postalCode":"55626","locality":"Bundenbach","municipality":{"key":"07134017","name":"Bundenbach","type":"Kreisangehörige_Gemeinde"},"district":{"key":"07134","name":"Birkenfeld","type":"Landkreis"},"federalState":{"key":"07","name":"Rheinland-Pfalz"}},{"name":"Schulstr.","postalCode":"66501","locality":"Kleinbundenbach","municipality":{"key":"07340213","name":"Kleinbundenbach","type":"Kreisangehörige_Gemeinde"},"district":{"key":"07340","name":"Südwestpfalz","type":"Landkreis"},"federalState":{"key":"07","name":"Rheinland-Pfalz"}},{"name":"Sonnenstr.","postalCode":"66501","locality":"Kleinbundenbach","municipality":{"key":"07340213","name":"Kleinbundenbach","type":"Kreisangehörige_Gemeinde"},"district":{"key":"07340","name":"Südwestpfalz","type":"Landkreis"},"federalState":{"key":"07","name":"Rheinland-Pfalz"}},{"name":"Stein-Kallenfels-Str.","postalCode":"66501","locality":"Großbundenbach","municipality":{"key":"07340209","name":"Großbundenbach","type":"Kreisangehörige_Gemeinde"},"district":{"key":"07340","name":"Südwestpfalz","type":"Landkreis"},"federalState":{"key":"07","name":"Rheinland-Pfalz"}},{"name":"Talstr.","postalCode":"66501","locality":"Kleinbundenbach","municipality":{"key":"07340213","name":"Kleinbundenbach","type":"Kreisangehörige_Gemeinde"},"district":{"key":"07340","name":"Südwestpfalz","type":"Landkreis"},"federalState":{"key":"07","name":"Rheinland-Pfalz"}},{"name":"Uhlandstr.","postalCode":"75217","locality":"Birkenfeld","municipality":{"key":"08236004","name":"Birkenfeld","type":"Kreisangehörige_Gemeinde"},"district":{"key":"08236","name":"Enzkreis","type":"Landkreis"},"federalState":{"key":"08","name":"Baden-Württemberg"}},{"name":"Ulmenstr.","postalCode":"75217","locality":"Birkenfeld","municipality":{"key":"08236004","name":"Birkenfeld","type":"Kreisangehörige_Gemeinde"},"district":{"key":"08236","name":"Enzkreis","type":"Landkreis"},"federalState":{"key":"08","name":"Baden-Württemberg"}},{"name":"Untertorstr.","postalCode":"97834","locality":"Birkenfeld","municipality":{"key":"09677119","name":"Birkenfeld","type":"Kreisangehörige_Gemeinde"},"district":{"key":"09677","name":"Main-Spessart","type":"Landkreis"},"federalState":{"key":"09","name":"Bayern"}},{"name":"Von-Drais-Str.","postalCode":"75217","locality":"Birkenfeld","municipality":{"key":"08236004","name":"Birkenfeld","type":"Kreisangehörige_Gemeinde"},"district":{"key":"08236","name":"Enzkreis","type":"Landkreis"},"federalState":{"key":"08","name":"Baden-Württemberg"}},{"name":"Vor der Sielbach","postalCode":"55765","locality":"Birkenfeld","municipality":{"key":"07134010","name":"Birkenfeld, Stadt","type":"Stadt"},"district":{"key":"07134","name":"Birkenfeld","type":"Landkreis"},"federalState":{"key":"07","name":"Rheinland-Pfalz"}},{"name":"Vor Klopp","postalCode":"55765","locality":"Birkenfeld","municipality":{"key":"07134010","name":"Birkenfeld, Stadt","type":"Stadt"},"district":{"key":"07134","name":"Birkenfeld","type":"Landkreis"},"federalState":{"key":"07","name":"Rheinland-Pfalz"}},{"name":"Wickenrodter Weg","postalCode":"55626","locality":"Bundenbach","municipality":{"key":"07134017","name":"Bundenbach","type":"Kreisangehörige_Gemeinde"},"district":{"key":"07134","name":"Birkenfeld","type":"Landkreis"},"federalState":{"key":"07","name":"Rheinland-Pfalz"}},{"name":"Wilhelmstr.","postalCode":"55626","locality":"Bundenbach","municipality":{"key":"07134017","name":"Bundenbach","type":"Kreisangehörige_Gemeinde"},"district":{"key":"07134","name":"Birkenfeld","type":"Landkreis"},"federalState":{"key":"07","name":"Rheinland-Pfalz"}},{"name":"Zum Bassin","postalCode":"55626","locality":"Bundenbach","municipality":{"key":"07134017","name":"Bundenbach","type":"Kreisangehörige_Gemeinde"},"district":{"key":"07134","name":"Birkenfeld","type":"Landkreis"},"federalState":{"key":"07","name":"Rheinland-Pfalz"}},{"name":"Ölmühle","postalCode":"66501","locality":"Kleinbundenbach","municipality":{"key":"07340213","name":"Kleinbundenbach","type":"Kreisangehörige_Gemeinde"},"district":{"key":"07340","name":"Südwestpfalz","type":"Landkreis"},"federalState":{"key":"07","name":"Rheinland-Pfalz"}},]