[{"name":"Ahornweg","postalCode":"73116","locality":"Wäschenbeuren","municipality":{"key":"08117053","name":"Wäschenbeuren","type":"Kreisangehörige_Gemeinde"},"district":{"key":"08117","name":"Göppingen","type":"Landkreis"},"federalState":{"key":"08","name":"Baden-Württemberg"}},{"name":"Albblick","postalCode":"73116","locality":"Wäschenbeuren","municipality":{"key":"08117053","name":"Wäschenbeuren","type":"Kreisangehörige_Gemeinde"},"district":{"key":"08117","name":"Göppingen","type":"Landkreis"},"federalState":{"key":"08","name":"Baden-Württemberg"}},{"name":"Alte Lorcher Str.","postalCode":"73116","locality":"Wäschenbeuren","municipality":{"key":"08117053","name":"Wäschenbeuren","type":"Kreisangehörige_Gemeinde"},"district":{"key":"08117","name":"Göppingen","type":"Landkreis"},"federalState":{"key":"08","name":"Baden-Württemberg"}},{"name":"Am Bahnhof","postalCode":"73116","locality":"Wäschenbeuren","municipality":{"key":"08117053","name":"Wäschenbeuren","type":"Kreisangehörige_Gemeinde"},"district":{"key":"08117","name":"Göppingen","type":"Landkreis"},"federalState":{"key":"08","name":"Baden-Württemberg"}},{"name":"Asternweg","postalCode":"73116","locality":"Wäschenbeuren","municipality":{"key":"08117053","name":"Wäschenbeuren","type":"Kreisangehörige_Gemeinde"},"district":{"key":"08117","name":"Göppingen","type":"Landkreis"},"federalState":{"key":"08","name":"Baden-Württemberg"}},{"name":"Bachstr.","postalCode":"73116","locality":"Wäschenbeuren","municipality":{"key":"08117053","name":"Wäschenbeuren","type":"Kreisangehörige_Gemeinde"},"district":{"key":"08117","name":"Göppingen","type":"Landkreis"},"federalState":{"key":"08","name":"Baden-Württemberg"}},{"name":"Bahnhofstr.","postalCode":"73116","locality":"Wäschenbeuren","municipality":{"key":"08117053","name":"Wäschenbeuren","type":"Kreisangehörige_Gemeinde"},"district":{"key":"08117","name":"Göppingen","type":"Landkreis"},"federalState":{"key":"08","name":"Baden-Württemberg"}},{"name":"Bahnweg","postalCode":"73116","locality":"Wäschenbeuren","municipality":{"key":"08117053","name":"Wäschenbeuren","type":"Kreisangehörige_Gemeinde"},"district":{"key":"08117","name":"Göppingen","type":"Landkreis"},"federalState":{"key":"08","name":"Baden-Württemberg"}},{"name":"Barbarossastr.","postalCode":"73116","locality":"Wäschenbeuren","municipality":{"key":"08117053","name":"Wäschenbeuren","type":"Kreisangehörige_Gemeinde"},"district":{"key":"08117","name":"Göppingen","type":"Landkreis"},"federalState":{"key":"08","name":"Baden-Württemberg"}},{"name":"Bergstr.","postalCode":"73116","locality":"Wäschenbeuren","municipality":{"key":"08117053","name":"Wäschenbeuren","type":"Kreisangehörige_Gemeinde"},"district":{"key":"08117","name":"Göppingen","type":"Landkreis"},"federalState":{"key":"08","name":"Baden-Württemberg"}},{"name":"Blockhausweg","postalCode":"73116","locality":"Wäschenbeuren","municipality":{"key":"08117053","name":"Wäschenbeuren","type":"Kreisangehörige_Gemeinde"},"district":{"key":"08117","name":"Göppingen","type":"Landkreis"},"federalState":{"key":"08","name":"Baden-Württemberg"}},{"name":"Breiter Weg","postalCode":"73116","locality":"Wäschenbeuren","municipality":{"key":"08117053","name":"Wäschenbeuren","type":"Kreisangehörige_Gemeinde"},"district":{"key":"08117","name":"Göppingen","type":"Landkreis"},"federalState":{"key":"08","name":"Baden-Württemberg"}},{"name":"Bruckstr.","postalCode":"73116","locality":"Wäschenbeuren","municipality":{"key":"08117053","name":"Wäschenbeuren","type":"Kreisangehörige_Gemeinde"},"district":{"key":"08117","name":"Göppingen","type":"Landkreis"},"federalState":{"key":"08","name":"Baden-Württemberg"}},{"name":"Brühlstr.","postalCode":"73116","locality":"Wäschenbeuren","municipality":{"key":"08117053","name":"Wäschenbeuren","type":"Kreisangehörige_Gemeinde"},"district":{"key":"08117","name":"Göppingen","type":"Landkreis"},"federalState":{"key":"08","name":"Baden-Württemberg"}},{"name":"Buchenweg","postalCode":"73116","locality":"Wäschenbeuren","municipality":{"key":"08117053","name":"Wäschenbeuren","type":"Kreisangehörige_Gemeinde"},"district":{"key":"08117","name":"Göppingen","type":"Landkreis"},"federalState":{"key":"08","name":"Baden-Württemberg"}},{"name":"Burrenweg","postalCode":"73116","locality":"Wäschenbeuren","municipality":{"key":"08117053","name":"Wäschenbeuren","type":"Kreisangehörige_Gemeinde"},"district":{"key":"08117","name":"Göppingen","type":"Landkreis"},"federalState":{"key":"08","name":"Baden-Württemberg"}},{"name":"Carl-Benz-Str.","postalCode":"73037","locality":"Göppingen","municipality":{"key":"08117026","name":"Göppingen, Stadt","type":"Große_Kreisstadt"},"district":{"key":"08117","name":"Göppingen","type":"Landkreis"},"federalState":{"key":"08","name":"Baden-Württemberg"}},{"name":"Carl-Hermann-Gaiser-Str.","postalCode":"73033","locality":"Göppingen","municipality":{"key":"08117026","name":"Göppingen, Stadt","type":"Große_Kreisstadt"},"district":{"key":"08117","name":"Göppingen","type":"Landkreis"},"federalState":{"key":"08","name":"Baden-Württemberg"}},{"name":"Carl-Martin-Weg","postalCode":"73037","locality":"Göppingen","municipality":{"key":"08117026","name":"Göppingen, Stadt","type":"Große_Kreisstadt"},"district":{"key":"08117","name":"Göppingen","type":"Landkreis"},"federalState":{"key":"08","name":"Baden-Württemberg"}},{"name":"Cäsar-Flaischlen-Str.","postalCode":"73033","locality":"Göppingen","municipality":{"key":"08117026","name":"Göppingen, Stadt","type":"Große_Kreisstadt"},"district":{"key":"08117","name":"Göppingen","type":"Landkreis"},"federalState":{"key":"08","name":"Baden-Württemberg"}},{"name":"Charlottenstr.","postalCode":"73037","locality":"Göppingen","municipality":{"key":"08117026","name":"Göppingen, Stadt","type":"Große_Kreisstadt"},"district":{"key":"08117","name":"Göppingen","type":"Landkreis"},"federalState":{"key":"08","name":"Baden-Württemberg"}},{"name":"Christian-Grüninger-Str.","postalCode":"73033","locality":"Göppingen","municipality":{"key":"08117026","name":"Göppingen, Stadt","type":"Große_Kreisstadt"},"district":{"key":"08117","name":"Göppingen","type":"Landkreis"},"federalState":{"key":"08","name":"Baden-Württemberg"}},{"name":"Christian-Grüninger-Str.","postalCode":"73035","locality":"Göppingen","municipality":{"key":"08117026","name":"Göppingen, Stadt","type":"Große_Kreisstadt"},"district":{"key":"08117","name":"Göppingen","type":"Landkreis"},"federalState":{"key":"08","name":"Baden-Württemberg"}},{"name":"Christophstr.","postalCode":"73033","locality":"Göppingen","municipality":{"key":"08117026","name":"Göppingen, Stadt","type":"Große_Kreisstadt"},"district":{"key":"08117","name":"Göppingen","type":"Landkreis"},"federalState":{"key":"08","name":"Baden-Württemberg"}},{"name":"Cranachweg","postalCode":"73033","locality":"Göppingen","municipality":{"key":"08117026","name":"Göppingen, Stadt","type":"Große_Kreisstadt"},"district":{"key":"08117","name":"Göppingen","type":"Landkreis"},"federalState":{"key":"08","name":"Baden-Württemberg"}},{"name":"Dahlienweg","postalCode":"73116","locality":"Wäschenbeuren","municipality":{"key":"08117053","name":"Wäschenbeuren","type":"Kreisangehörige_Gemeinde"},"district":{"key":"08117","name":"Göppingen","type":"Landkreis"},"federalState":{"key":"08","name":"Baden-Württemberg"}},{"name":"Dürerweg","postalCode":"73116","locality":"Wäschenbeuren","municipality":{"key":"08117053","name":"Wäschenbeuren","type":"Kreisangehörige_Gemeinde"},"district":{"key":"08117","name":"Göppingen","type":"Landkreis"},"federalState":{"key":"08","name":"Baden-Württemberg"}},{"name":"Erlenweg","postalCode":"73116","locality":"Wäschenbeuren","municipality":{"key":"08117053","name":"Wäschenbeuren","type":"Kreisangehörige_Gemeinde"},"district":{"key":"08117","name":"Göppingen","type":"Landkreis"},"federalState":{"key":"08","name":"Baden-Württemberg"}},{"name":"Fliederweg","postalCode":"73116","locality":"Wäschenbeuren","municipality":{"key":"08117053","name":"Wäschenbeuren","type":"Kreisangehörige_Gemeinde"},"district":{"key":"08117","name":"Göppingen","type":"Landkreis"},"federalState":{"key":"08","name":"Baden-Württemberg"}},{"name":"Friedhofweg","postalCode":"73116","locality":"Wäschenbeuren","municipality":{"key":"08117053","name":"Wäschenbeuren","type":"Kreisangehörige_Gemeinde"},"district":{"key":"08117","name":"Göppingen","type":"Landkreis"},"federalState":{"key":"08","name":"Baden-Württemberg"}},{"name":"Friedrich-von-Büren-Str.","postalCode":"73116","locality":"Wäschenbeuren","municipality":{"key":"08117053","name":"Wäschenbeuren","type":"Kreisangehörige_Gemeinde"},"district":{"key":"08117","name":"Göppingen","type":"Landkreis"},"federalState":{"key":"08","name":"Baden-Württemberg"}},{"name":"Frühlingstr.","postalCode":"73116","locality":"Wäschenbeuren","municipality":{"key":"08117053","name":"Wäschenbeuren","type":"Kreisangehörige_Gemeinde"},"district":{"key":"08117","name":"Göppingen","type":"Landkreis"},"federalState":{"key":"08","name":"Baden-Württemberg"}},{"name":"Gairen Sträßchen","postalCode":"73116","locality":"Wäschenbeuren","municipality":{"key":"08117053","name":"Wäschenbeuren","type":"Kreisangehörige_Gemeinde"},"district":{"key":"08117","name":"Göppingen","type":"Landkreis"},"federalState":{"key":"08","name":"Baden-Württemberg"}},{"name":"Gairentraufweg","postalCode":"73116","locality":"Wäschenbeuren","municipality":{"key":"08117053","name":"Wäschenbeuren","type":"Kreisangehörige_Gemeinde"},"district":{"key":"08117","name":"Göppingen","type":"Landkreis"},"federalState":{"key":"08","name":"Baden-Württemberg"}},{"name":"Gartenstr.","postalCode":"73116","locality":"Wäschenbeuren","municipality":{"key":"08117053","name":"Wäschenbeuren","type":"Kreisangehörige_Gemeinde"},"district":{"key":"08117","name":"Göppingen","type":"Landkreis"},"federalState":{"key":"08","name":"Baden-Württemberg"}},{"name":"Geißrain","postalCode":"73116","locality":"Wäschenbeuren","municipality":{"key":"08117053","name":"Wäschenbeuren","type":"Kreisangehörige_Gemeinde"},"district":{"key":"08117","name":"Göppingen","type":"Landkreis"},"federalState":{"key":"08","name":"Baden-Württemberg"}},{"name":"Geranienstr.","postalCode":"73116","locality":"Wäschenbeuren","municipality":{"key":"08117053","name":"Wäschenbeuren","type":"Kreisangehörige_Gemeinde"},"district":{"key":"08117","name":"Göppingen","type":"Landkreis"},"federalState":{"key":"08","name":"Baden-Württemberg"}},{"name":"Goethestr.","postalCode":"73116","locality":"Wäschenbeuren","municipality":{"key":"08117053","name":"Wäschenbeuren","type":"Kreisangehörige_Gemeinde"},"district":{"key":"08117","name":"Göppingen","type":"Landkreis"},"federalState":{"key":"08","name":"Baden-Württemberg"}},{"name":"Göppinger Str.","postalCode":"73102","locality":"Wäschenbeuren","municipality":{"key":"08117053","name":"Wäschenbeuren","type":"Kreisangehörige_Gemeinde"},"district":{"key":"08117","name":"Göppingen","type":"Landkreis"},"federalState":{"key":"08","name":"Baden-Württemberg"}},{"name":"Göppinger Str.","postalCode":"73116","locality":"Wäschenbeuren","municipality":{"key":"08117053","name":"Wäschenbeuren","type":"Kreisangehörige_Gemeinde"},"district":{"key":"08117","name":"Göppingen","type":"Landkreis"},"federalState":{"key":"08","name":"Baden-Württemberg"}},{"name":"Haidweg","postalCode":"73116","locality":"Wäschenbeuren","municipality":{"key":"08117053","name":"Wäschenbeuren","type":"Kreisangehörige_Gemeinde"},"district":{"key":"08117","name":"Göppingen","type":"Landkreis"},"federalState":{"key":"08","name":"Baden-Württemberg"}},{"name":"Hetzengasse","postalCode":"73116","locality":"Wäschenbeuren","municipality":{"key":"08117053","name":"Wäschenbeuren","type":"Kreisangehörige_Gemeinde"},"district":{"key":"08117","name":"Göppingen","type":"Landkreis"},"federalState":{"key":"08","name":"Baden-Württemberg"}},{"name":"Heubeundstr.","postalCode":"73116","locality":"Wäschenbeuren","municipality":{"key":"08117053","name":"Wäschenbeuren","type":"Kreisangehörige_Gemeinde"},"district":{"key":"08117","name":"Göppingen","type":"Landkreis"},"federalState":{"key":"08","name":"Baden-Württemberg"}},{"name":"Heuhof","postalCode":"73116","locality":"Wäschenbeuren","municipality":{"key":"08117053","name":"Wäschenbeuren","type":"Kreisangehörige_Gemeinde"},"district":{"key":"08117","name":"Göppingen","type":"Landkreis"},"federalState":{"key":"08","name":"Baden-Württemberg"}},{"name":"Heuhofstr.","postalCode":"73116","locality":"Wäschenbeuren","municipality":{"key":"08117053","name":"Wäschenbeuren","type":"Kreisangehörige_Gemeinde"},"district":{"key":"08117","name":"Göppingen","type":"Landkreis"},"federalState":{"key":"08","name":"Baden-Württemberg"}},{"name":"Himmelreichweg","postalCode":"73116","locality":"Wäschenbeuren","municipality":{"key":"08117053","name":"Wäschenbeuren","type":"Kreisangehörige_Gemeinde"},"district":{"key":"08117","name":"Göppingen","type":"Landkreis"},"federalState":{"key":"08","name":"Baden-Württemberg"}},{"name":"Hinter dem Hag","postalCode":"73116","locality":"Wäschenbeuren","municipality":{"key":"08117053","name":"Wäschenbeuren","type":"Kreisangehörige_Gemeinde"},"district":{"key":"08117","name":"Göppingen","type":"Landkreis"},"federalState":{"key":"08","name":"Baden-Württemberg"}},{"name":"Hockengasse","postalCode":"73116","locality":"Wäschenbeuren","municipality":{"key":"08117053","name":"Wäschenbeuren","type":"Kreisangehörige_Gemeinde"},"district":{"key":"08117","name":"Göppingen","type":"Landkreis"},"federalState":{"key":"08","name":"Baden-Württemberg"}},{"name":"Hohreiner Waldweg","postalCode":"73116","locality":"Wäschenbeuren","municipality":{"key":"08117053","name":"Wäschenbeuren","type":"Kreisangehörige_Gemeinde"},"district":{"key":"08117","name":"Göppingen","type":"Landkreis"},"federalState":{"key":"08","name":"Baden-Württemberg"}},{"name":"Hölderlinstr.","postalCode":"73116","locality":"Wäschenbeuren","municipality":{"key":"08117053","name":"Wäschenbeuren","type":"Kreisangehörige_Gemeinde"},"district":{"key":"08117","name":"Göppingen","type":"Landkreis"},"federalState":{"key":"08","name":"Baden-Württemberg"}},{"name":"Holunderweg","postalCode":"73116","locality":"Wäschenbeuren","municipality":{"key":"08117053","name":"Wäschenbeuren","type":"Kreisangehörige_Gemeinde"},"district":{"key":"08117","name":"Göppingen","type":"Landkreis"},"federalState":{"key":"08","name":"Baden-Württemberg"}},{"name":"Im Beergarten","postalCode":"73116","locality":"Wäschenbeuren","municipality":{"key":"08117053","name":"Wäschenbeuren","type":"Kreisangehörige_Gemeinde"},"district":{"key":"08117","name":"Göppingen","type":"Landkreis"},"federalState":{"key":"08","name":"Baden-Württemberg"}},{"name":"Im Gewerbegebiet","postalCode":"73116","locality":"Wäschenbeuren","municipality":{"key":"08117053","name":"Wäschenbeuren","type":"Kreisangehörige_Gemeinde"},"district":{"key":"08117","name":"Göppingen","type":"Landkreis"},"federalState":{"key":"08","name":"Baden-Württemberg"}},{"name":"Im Wiesental","postalCode":"73116","locality":"Wäschenbeuren","municipality":{"key":"08117053","name":"Wäschenbeuren","type":"Kreisangehörige_Gemeinde"},"district":{"key":"08117","name":"Göppingen","type":"Landkreis"},"federalState":{"key":"08","name":"Baden-Württemberg"}},{"name":"In den Obstgärten","postalCode":"73116","locality":"Wäschenbeuren","municipality":{"key":"08117053","name":"Wäschenbeuren","type":"Kreisangehörige_Gemeinde"},"district":{"key":"08117","name":"Göppingen","type":"Landkreis"},"federalState":{"key":"08","name":"Baden-Württemberg"}},{"name":"Jahnstr.","postalCode":"73116","locality":"Wäschenbeuren","municipality":{"key":"08117053","name":"Wäschenbeuren","type":"Kreisangehörige_Gemeinde"},"district":{"key":"08117","name":"Göppingen","type":"Landkreis"},"federalState":{"key":"08","name":"Baden-Württemberg"}},{"name":"Kapellenweg","postalCode":"73116","locality":"Wäschenbeuren","municipality":{"key":"08117053","name":"Wäschenbeuren","type":"Kreisangehörige_Gemeinde"},"district":{"key":"08117","name":"Göppingen","type":"Landkreis"},"federalState":{"key":"08","name":"Baden-Württemberg"}},{"name":"Karl Hinterberger-Weg","postalCode":"73116","locality":"Wäschenbeuren","municipality":{"key":"08117053","name":"Wäschenbeuren","type":"Kreisangehörige_Gemeinde"},"district":{"key":"08117","name":"Göppingen","type":"Landkreis"},"federalState":{"key":"08","name":"Baden-Württemberg"}},{"name":"Kolpingstr.","postalCode":"73116","locality":"Wäschenbeuren","municipality":{"key":"08117053","name":"Wäschenbeuren","type":"Kreisangehörige_Gemeinde"},"district":{"key":"08117","name":"Göppingen","type":"Landkreis"},"federalState":{"key":"08","name":"Baden-Württemberg"}},{"name":"Krettenbachstr.","postalCode":"73116","locality":"Wäschenbeuren","municipality":{"key":"08117053","name":"Wäschenbeuren","type":"Kreisangehörige_Gemeinde"},"district":{"key":"08117","name":"Göppingen","type":"Landkreis"},"federalState":{"key":"08","name":"Baden-Württemberg"}},{"name":"Kronengasse","postalCode":"73116","locality":"Wäschenbeuren","municipality":{"key":"08117053","name":"Wäschenbeuren","type":"Kreisangehörige_Gemeinde"},"district":{"key":"08117","name":"Göppingen","type":"Landkreis"},"federalState":{"key":"08","name":"Baden-Württemberg"}},{"name":"Lilienweg","postalCode":"73116","locality":"Wäschenbeuren","municipality":{"key":"08117053","name":"Wäschenbeuren","type":"Kreisangehörige_Gemeinde"},"district":{"key":"08117","name":"Göppingen","type":"Landkreis"},"federalState":{"key":"08","name":"Baden-Württemberg"}},{"name":"Lindenbronn","postalCode":"73116","locality":"Wäschenbeuren","municipality":{"key":"08117053","name":"Wäschenbeuren","type":"Kreisangehörige_Gemeinde"},"district":{"key":"08117","name":"Göppingen","type":"Landkreis"},"federalState":{"key":"08","name":"Baden-Württemberg"}},{"name":"Lindenstr.","postalCode":"73116","locality":"Wäschenbeuren","municipality":{"key":"08117053","name":"Wäschenbeuren","type":"Kreisangehörige_Gemeinde"},"district":{"key":"08117","name":"Göppingen","type":"Landkreis"},"federalState":{"key":"08","name":"Baden-Württemberg"}},{"name":"Lorcher Str.","postalCode":"73116","locality":"Wäschenbeuren","municipality":{"key":"08117053","name":"Wäschenbeuren","type":"Kreisangehörige_Gemeinde"},"district":{"key":"08117","name":"Göppingen","type":"Landkreis"},"federalState":{"key":"08","name":"Baden-Württemberg"}},{"name":"Luginsland","postalCode":"73116","locality":"Wäschenbeuren","municipality":{"key":"08117053","name":"Wäschenbeuren","type":"Kreisangehörige_Gemeinde"},"district":{"key":"08117","name":"Göppingen","type":"Landkreis"},"federalState":{"key":"08","name":"Baden-Württemberg"}},{"name":"Maiergasse","postalCode":"73116","locality":"Wäschenbeuren","municipality":{"key":"08117053","name":"Wäschenbeuren","type":"Kreisangehörige_Gemeinde"},"district":{"key":"08117","name":"Göppingen","type":"Landkreis"},"federalState":{"key":"08","name":"Baden-Württemberg"}},{"name":"Maitiser Str.","postalCode":"73116","locality":"Wäschenbeuren","municipality":{"key":"08117053","name":"Wäschenbeuren","type":"Kreisangehörige_Gemeinde"},"district":{"key":"08117","name":"Göppingen","type":"Landkreis"},"federalState":{"key":"08","name":"Baden-Württemberg"}},{"name":"Manfred-Wörner-Platz","postalCode":"73116","locality":"Wäschenbeuren","municipality":{"key":"08117053","name":"Wäschenbeuren","type":"Kreisangehörige_Gemeinde"},"district":{"key":"08117","name":"Göppingen","type":"Landkreis"},"federalState":{"key":"08","name":"Baden-Württemberg"}},{"name":"Mantzentalweg","postalCode":"73116","locality":"Wäschenbeuren","municipality":{"key":"08117053","name":"Wäschenbeuren","type":"Kreisangehörige_Gemeinde"},"district":{"key":"08117","name":"Göppingen","type":"Landkreis"},"federalState":{"key":"08","name":"Baden-Württemberg"}},{"name":"Manzentalweg","postalCode":"73116","locality":"Wäschenbeuren","municipality":{"key":"08117053","name":"Wäschenbeuren","type":"Kreisangehörige_Gemeinde"},"district":{"key":"08117","name":"Göppingen","type":"Landkreis"},"federalState":{"key":"08","name":"Baden-Württemberg"}},{"name":"Marbachweg","postalCode":"73116","locality":"Wäschenbeuren","municipality":{"key":"08117053","name":"Wäschenbeuren","type":"Kreisangehörige_Gemeinde"},"district":{"key":"08117","name":"Göppingen","type":"Landkreis"},"federalState":{"key":"08","name":"Baden-Württemberg"}},{"name":"Michelbuchweg","postalCode":"73116","locality":"Wäschenbeuren","municipality":{"key":"08117053","name":"Wäschenbeuren","type":"Kreisangehörige_Gemeinde"},"district":{"key":"08117","name":"Göppingen","type":"Landkreis"},"federalState":{"key":"08","name":"Baden-Württemberg"}},{"name":"Mörikestr.","postalCode":"73116","locality":"Wäschenbeuren","municipality":{"key":"08117053","name":"Wäschenbeuren","type":"Kreisangehörige_Gemeinde"},"district":{"key":"08117","name":"Göppingen","type":"Landkreis"},"federalState":{"key":"08","name":"Baden-Württemberg"}},{"name":"Mozartstr.","postalCode":"73116","locality":"Wäschenbeuren","municipality":{"key":"08117053","name":"Wäschenbeuren","type":"Kreisangehörige_Gemeinde"},"district":{"key":"08117","name":"Göppingen","type":"Landkreis"},"federalState":{"key":"08","name":"Baden-Württemberg"}},{"name":"Mühlgasse","postalCode":"73116","locality":"Wäschenbeuren","municipality":{"key":"08117053","name":"Wäschenbeuren","type":"Kreisangehörige_Gemeinde"},"district":{"key":"08117","name":"Göppingen","type":"Landkreis"},"federalState":{"key":"08","name":"Baden-Württemberg"}},{"name":"Narzissenweg","postalCode":"73116","locality":"Wäschenbeuren","municipality":{"key":"08117053","name":"Wäschenbeuren","type":"Kreisangehörige_Gemeinde"},"district":{"key":"08117","name":"Göppingen","type":"Landkreis"},"federalState":{"key":"08","name":"Baden-Württemberg"}},{"name":"Nelkenweg","postalCode":"73116","locality":"Wäschenbeuren","municipality":{"key":"08117053","name":"Wäschenbeuren","type":"Kreisangehörige_Gemeinde"},"district":{"key":"08117","name":"Göppingen","type":"Landkreis"},"federalState":{"key":"08","name":"Baden-Württemberg"}},{"name":"Neuffenstr.","postalCode":"73116","locality":"Wäschenbeuren","municipality":{"key":"08117053","name":"Wäschenbeuren","type":"Kreisangehörige_Gemeinde"},"district":{"key":"08117","name":"Göppingen","type":"Landkreis"},"federalState":{"key":"08","name":"Baden-Württemberg"}},{"name":"Oberdorfstr.","postalCode":"73116","locality":"Wäschenbeuren","municipality":{"key":"08117053","name":"Wäschenbeuren","type":"Kreisangehörige_Gemeinde"},"district":{"key":"08117","name":"Göppingen","type":"Landkreis"},"federalState":{"key":"08","name":"Baden-Württemberg"}},{"name":"Oberer Steineweg","postalCode":"73116","locality":"Wäschenbeuren","municipality":{"key":"08117053","name":"Wäschenbeuren","type":"Kreisangehörige_Gemeinde"},"district":{"key":"08117","name":"Göppingen","type":"Landkreis"},"federalState":{"key":"08","name":"Baden-Württemberg"}},{"name":"Pfarrer-Fiderer-Str.","postalCode":"73116","locality":"Wäschenbeuren","municipality":{"key":"08117053","name":"Wäschenbeuren","type":"Kreisangehörige_Gemeinde"},"district":{"key":"08117","name":"Göppingen","type":"Landkreis"},"federalState":{"key":"08","name":"Baden-Württemberg"}},{"name":"Prof.-Kaisser-Str.","postalCode":"73116","locality":"Wäschenbeuren","municipality":{"key":"08117053","name":"Wäschenbeuren","type":"Kreisangehörige_Gemeinde"},"district":{"key":"08117","name":"Göppingen","type":"Landkreis"},"federalState":{"key":"08","name":"Baden-Württemberg"}},{"name":"Prof.-Kuhn-Str.","postalCode":"73116","locality":"Wäschenbeuren","municipality":{"key":"08117053","name":"Wäschenbeuren","type":"Kreisangehörige_Gemeinde"},"district":{"key":"08117","name":"Göppingen","type":"Landkreis"},"federalState":{"key":"08","name":"Baden-Württemberg"}},{"name":"Quäkerstr.","postalCode":"73033","locality":"Göppingen","municipality":{"key":"08117026","name":"Göppingen, Stadt","type":"Große_Kreisstadt"},"district":{"key":"08117","name":"Göppingen","type":"Landkreis"},"federalState":{"key":"08","name":"Baden-Württemberg"}},{"name":"Querstr.","postalCode":"73033","locality":"Göppingen","municipality":{"key":"08117026","name":"Göppingen, Stadt","type":"Große_Kreisstadt"},"district":{"key":"08117","name":"Göppingen","type":"Landkreis"},"federalState":{"key":"08","name":"Baden-Württemberg"}},{"name":"Raiffeisenstr.","postalCode":"73116","locality":"Wäschenbeuren","municipality":{"key":"08117053","name":"Wäschenbeuren","type":"Kreisangehörige_Gemeinde"},"district":{"key":"08117","name":"Göppingen","type":"Landkreis"},"federalState":{"key":"08","name":"Baden-Württemberg"}},{"name":"Rechbergstr.","postalCode":"73116","locality":"Wäschenbeuren","municipality":{"key":"08117053","name":"Wäschenbeuren","type":"Kreisangehörige_Gemeinde"},"district":{"key":"08117","name":"Göppingen","type":"Landkreis"},"federalState":{"key":"08","name":"Baden-Württemberg"}},{"name":"Riedweg","postalCode":"73116","locality":"Wäschenbeuren","municipality":{"key":"08117053","name":"Wäschenbeuren","type":"Kreisangehörige_Gemeinde"},"district":{"key":"08117","name":"Göppingen","type":"Landkreis"},"federalState":{"key":"08","name":"Baden-Württemberg"}},{"name":"Ringstr.","postalCode":"73116","locality":"Wäschenbeuren","municipality":{"key":"08117053","name":"Wäschenbeuren","type":"Kreisangehörige_Gemeinde"},"district":{"key":"08117","name":"Göppingen","type":"Landkreis"},"federalState":{"key":"08","name":"Baden-Württemberg"}},{"name":"Römerstr.","postalCode":"73116","locality":"Wäschenbeuren","municipality":{"key":"08117053","name":"Wäschenbeuren","type":"Kreisangehörige_Gemeinde"},"district":{"key":"08117","name":"Göppingen","type":"Landkreis"},"federalState":{"key":"08","name":"Baden-Württemberg"}},{"name":"Rosensteinstr.","postalCode":"73116","locality":"Wäschenbeuren","municipality":{"key":"08117053","name":"Wäschenbeuren","type":"Kreisangehörige_Gemeinde"},"district":{"key":"08117","name":"Göppingen","type":"Landkreis"},"federalState":{"key":"08","name":"Baden-Württemberg"}},{"name":"Schießmauer","postalCode":"73116","locality":"Wäschenbeuren","municipality":{"key":"08117053","name":"Wäschenbeuren","type":"Kreisangehörige_Gemeinde"},"district":{"key":"08117","name":"Göppingen","type":"Landkreis"},"federalState":{"key":"08","name":"Baden-Württemberg"}},{"name":"Schillerstr.","postalCode":"73116","locality":"Wäschenbeuren","municipality":{"key":"08117053","name":"Wäschenbeuren","type":"Kreisangehörige_Gemeinde"},"district":{"key":"08117","name":"Göppingen","type":"Landkreis"},"federalState":{"key":"08","name":"Baden-Württemberg"}},{"name":"Schlehenweg","postalCode":"73116","locality":"Wäschenbeuren","municipality":{"key":"08117053","name":"Wäschenbeuren","type":"Kreisangehörige_Gemeinde"},"district":{"key":"08117","name":"Göppingen","type":"Landkreis"},"federalState":{"key":"08","name":"Baden-Württemberg"}},{"name":"Schubertstr.","postalCode":"73116","locality":"Wäschenbeuren","municipality":{"key":"08117053","name":"Wäschenbeuren","type":"Kreisangehörige_Gemeinde"},"district":{"key":"08117","name":"Göppingen","type":"Landkreis"},"federalState":{"key":"08","name":"Baden-Württemberg"}},{"name":"Schulstr.","postalCode":"73116","locality":"Wäschenbeuren","municipality":{"key":"08117053","name":"Wäschenbeuren","type":"Kreisangehörige_Gemeinde"},"district":{"key":"08117","name":"Göppingen","type":"Landkreis"},"federalState":{"key":"08","name":"Baden-Württemberg"}},{"name":"Schwabstr.","postalCode":"73116","locality":"Wäschenbeuren","municipality":{"key":"08117053","name":"Wäschenbeuren","type":"Kreisangehörige_Gemeinde"},"district":{"key":"08117","name":"Göppingen","type":"Landkreis"},"federalState":{"key":"08","name":"Baden-Württemberg"}},{"name":"Seeäckerstr.","postalCode":"73116","locality":"Wäschenbeuren","municipality":{"key":"08117053","name":"Wäschenbeuren","type":"Kreisangehörige_Gemeinde"},"district":{"key":"08117","name":"Göppingen","type":"Landkreis"},"federalState":{"key":"08","name":"Baden-Württemberg"}},{"name":"Seestr.","postalCode":"73116","locality":"Wäschenbeuren","municipality":{"key":"08117053","name":"Wäschenbeuren","type":"Kreisangehörige_Gemeinde"},"district":{"key":"08117","name":"Göppingen","type":"Landkreis"},"federalState":{"key":"08","name":"Baden-Württemberg"}},{"name":"Siedlungstr.","postalCode":"73116","locality":"Wäschenbeuren","municipality":{"key":"08117053","name":"Wäschenbeuren","type":"Kreisangehörige_Gemeinde"},"district":{"key":"08117","name":"Göppingen","type":"Landkreis"},"federalState":{"key":"08","name":"Baden-Württemberg"}},{"name":"Silcherstr.","postalCode":"73116","locality":"Wäschenbeuren","municipality":{"key":"08117053","name":"Wäschenbeuren","type":"Kreisangehörige_Gemeinde"},"district":{"key":"08117","name":"Göppingen","type":"Landkreis"},"federalState":{"key":"08","name":"Baden-Württemberg"}},{"name":"Sonderbachstr.","postalCode":"73116","locality":"Wäschenbeuren","municipality":{"key":"08117053","name":"Wäschenbeuren","type":"Kreisangehörige_Gemeinde"},"district":{"key":"08117","name":"Göppingen","type":"Landkreis"},"federalState":{"key":"08","name":"Baden-Württemberg"}},{"name":"Staufenstr.","postalCode":"73116","locality":"Wäschenbeuren","municipality":{"key":"08117053","name":"Wäschenbeuren","type":"Kreisangehörige_Gemeinde"},"district":{"key":"08117","name":"Göppingen","type":"Landkreis"},"federalState":{"key":"08","name":"Baden-Württemberg"}},{"name":"Steineweg","postalCode":"73116","locality":"Wäschenbeuren","municipality":{"key":"08117053","name":"Wäschenbeuren","type":"Kreisangehörige_Gemeinde"},"district":{"key":"08117","name":"Göppingen","type":"Landkreis"},"federalState":{"key":"08","name":"Baden-Württemberg"}},{"name":"Stuifenstr.","postalCode":"73116","locality":"Wäschenbeuren","municipality":{"key":"08117053","name":"Wäschenbeuren","type":"Kreisangehörige_Gemeinde"},"district":{"key":"08117","name":"Göppingen","type":"Landkreis"},"federalState":{"key":"08","name":"Baden-Württemberg"}},{"name":"Teckstr.","postalCode":"73116","locality":"Wäschenbeuren","municipality":{"key":"08117053","name":"Wäschenbeuren","type":"Kreisangehörige_Gemeinde"},"district":{"key":"08117","name":"Göppingen","type":"Landkreis"},"federalState":{"key":"08","name":"Baden-Württemberg"}},{"name":"Tulpenweg","postalCode":"73116","locality":"Wäschenbeuren","municipality":{"key":"08117053","name":"Wäschenbeuren","type":"Kreisangehörige_Gemeinde"},"district":{"key":"08117","name":"Göppingen","type":"Landkreis"},"federalState":{"key":"08","name":"Baden-Württemberg"}},{"name":"Uhlandstr.","postalCode":"73116","locality":"Wäschenbeuren","municipality":{"key":"08117053","name":"Wäschenbeuren","type":"Kreisangehörige_Gemeinde"},"district":{"key":"08117","name":"Göppingen","type":"Landkreis"},"federalState":{"key":"08","name":"Baden-Württemberg"}},{"name":"Urweg","postalCode":"73116","locality":"Wäschenbeuren","municipality":{"key":"08117053","name":"Wäschenbeuren","type":"Kreisangehörige_Gemeinde"},"district":{"key":"08117","name":"Göppingen","type":"Landkreis"},"federalState":{"key":"08","name":"Baden-Württemberg"}},{"name":"Vorderer Franzosenklingenweg","postalCode":"73116","locality":"Wäschenbeuren","municipality":{"key":"08117053","name":"Wäschenbeuren","type":"Kreisangehörige_Gemeinde"},"district":{"key":"08117","name":"Göppingen","type":"Landkreis"},"federalState":{"key":"08","name":"Baden-Württemberg"}},{"name":"Wäscherburgsteige","postalCode":"73116","locality":"Wäschenbeuren","municipality":{"key":"08117053","name":"Wäschenbeuren","type":"Kreisangehörige_Gemeinde"},"district":{"key":"08117","name":"Göppingen","type":"Landkreis"},"federalState":{"key":"08","name":"Baden-Württemberg"}},{"name":"Wäscherhof","postalCode":"73116","locality":"Wäschenbeuren","municipality":{"key":"08117053","name":"Wäschenbeuren","type":"Kreisangehörige_Gemeinde"},"district":{"key":"08117","name":"Göppingen","type":"Landkreis"},"federalState":{"key":"08","name":"Baden-Württemberg"}},{"name":"Wäscherhofstr.","postalCode":"73116","locality":"Wäschenbeuren","municipality":{"key":"08117053","name":"Wäschenbeuren","type":"Kreisangehörige_Gemeinde"},"district":{"key":"08117","name":"Göppingen","type":"Landkreis"},"federalState":{"key":"08","name":"Baden-Württemberg"}},{"name":"Welkartswiesen","postalCode":"73116","locality":"Wäschenbeuren","municipality":{"key":"08117053","name":"Wäschenbeuren","type":"Kreisangehörige_Gemeinde"},"district":{"key":"08117","name":"Göppingen","type":"Landkreis"},"federalState":{"key":"08","name":"Baden-Württemberg"}},{"name":"Wettegasse","postalCode":"73116","locality":"Wäschenbeuren","municipality":{"key":"08117053","name":"Wäschenbeuren","type":"Kreisangehörige_Gemeinde"},"district":{"key":"08117","name":"Göppingen","type":"Landkreis"},"federalState":{"key":"08","name":"Baden-Württemberg"}},{"name":"Wilmetstr.","postalCode":"73116","locality":"Wäschenbeuren","municipality":{"key":"08117053","name":"Wäschenbeuren","type":"Kreisangehörige_Gemeinde"},"district":{"key":"08117","name":"Göppingen","type":"Landkreis"},"federalState":{"key":"08","name":"Baden-Württemberg"}},{"name":"Ziegelhütte","postalCode":"73116","locality":"Wäschenbeuren","municipality":{"key":"08117053","name":"Wäschenbeuren","type":"Kreisangehörige_Gemeinde"},"district":{"key":"08117","name":"Göppingen","type":"Landkreis"},"federalState":{"key":"08","name":"Baden-Württemberg"}},{"name":"Ziegelhütteweg","postalCode":"73116","locality":"Wäschenbeuren","municipality":{"key":"08117053","name":"Wäschenbeuren","type":"Kreisangehörige_Gemeinde"},"district":{"key":"08117","name":"Göppingen","type":"Landkreis"},"federalState":{"key":"08","name":"Baden-Württemberg"}},{"name":"Ökling","postalCode":"73116","locality":"Wäschenbeuren","municipality":{"key":"08117053","name":"Wäschenbeuren","type":"Kreisangehörige_Gemeinde"},"district":{"key":"08117","name":"Göppingen","type":"Landkreis"},"federalState":{"key":"08","name":"Baden-Württemberg"}},]