[
  {
    "code": "62007",
    "district": {
      "code": "620",
      "name": "Murtal",
      "key": "620"
    },
    "federalProvince": {
      "name": "Steiermark",
      "key": "6"
    },
    "postalCode": "8753",
    "name": "Fohnsdorf",
    "multiplePostalCodes": true,
    "key": "62007",
    "status": "None"
  },
  {
    "code": "62008",
    "district": {
      "code": "620",
      "name": "Murtal",
      "key": "620"
    },
    "federalProvince": {
      "name": "Steiermark",
      "key": "6"
    },
    "postalCode": "8731",
    "name": "Gaal",
    "multiplePostalCodes": false,
    "key": "62008",
    "status": "None"
  },
  {
    "code": "62010",
    "district": {
      "code": "620",
      "name": "Murtal",
      "key": "620"
    },
    "federalProvince": {
      "name": "Steiermark",
      "key": "6"
    },
    "postalCode": "8785",
    "name": "Hohentauern",
    "multiplePostalCodes": false,
    "key": "62010",
    "status": "None"
  },
  {
    "code": "62014",
    "district": {
      "code": "620",
      "name": "Murtal",
      "key": "620"
    },
    "federalProvince": {
      "name": "Steiermark",
      "key": "6"
    },
    "postalCode": "8723",
    "name": "Kobenz",
    "multiplePostalCodes": false,
    "key": "62014",
    "status": "MarketTown"
  },
  {
    "code": "62021",
    "district": {
      "code": "620",
      "name": "Murtal",
      "key": "620"
    },
    "federalProvince": {
      "name": "Steiermark",
      "key": "6"
    },
    "postalCode": "8764",
    "name": "Pusterwald",
    "multiplePostalCodes": true,
    "key": "62021",
    "status": "None"
  },
  {
    "code": "62026",
    "district": {
      "code": "620",
      "name": "Murtal",
      "key": "620"
    },
    "federalProvince": {
      "name": "Steiermark",
      "key": "6"
    },
    "postalCode": "8756",
    "name": "Sankt Georgen ob Judenburg",
    "multiplePostalCodes": true,
    "key": "62026",
    "status": "None"
  },
  {
    "code": "62032",
    "district": {
      "code": "620",
      "name": "Murtal",
      "key": "620"
    },
    "federalProvince": {
      "name": "Steiermark",
      "key": "6"
    },
    "postalCode": "8755",
    "name": "Sankt Peter ob Judenburg",
    "multiplePostalCodes": false,
    "key": "62032",
    "status": "None"
  },
  {
    "code": "62034",
    "district": {
      "code": "620",
      "name": "Murtal",
      "key": "620"
    },
    "federalProvince": {
      "name": "Steiermark",
      "key": "6"
    },
    "postalCode": "8732",
    "name": "Seckau",
    "multiplePostalCodes": true,
    "key": "62034",
    "status": "MarketTown"
  },
  {
    "code": "62036",
    "district": {
      "code": "620",
      "name": "Murtal",
      "key": "620"
    },
    "federalProvince": {
      "name": "Steiermark",
      "key": "6"
    },
    "postalCode": "8800",
    "name": "Unzmarkt-Frauenburg",
    "multiplePostalCodes": false,
    "key": "62036",
    "status": "MarketTown"
  },
  {
    "code": "62038",
    "district": {
      "code": "620",
      "name": "Murtal",
      "key": "620"
    },
    "federalProvince": {
      "name": "Steiermark",
      "key": "6"
    },
    "postalCode": "8740",
    "name": "Zeltweg",
    "multiplePostalCodes": false,
    "key": "62038",
    "status": "UrbanMunicipality"
  },
  {
    "code": "62039",
    "district": {
      "code": "620",
      "name": "Murtal",
      "key": "620"
    },
    "federalProvince": {
      "name": "Steiermark",
      "key": "6"
    },
    "postalCode": "8734",
    "name": "Lobmingtal",
    "multiplePostalCodes": true,
    "key": "62039",
    "status": "None"
  },
  {
    "code": "62040",
    "district": {
      "code": "620",
      "name": "Murtal",
      "key": "620"
    },
    "federalProvince": {
      "name": "Steiermark",
      "key": "6"
    },
    "postalCode": "8750",
    "name": "Judenburg",
    "multiplePostalCodes": true,
    "key": "62040",
    "status": "UrbanMunicipality"
  },
  {
    "code": "62041",
    "district": {
      "code": "620",
      "name": "Murtal",
      "key": "620"
    },
    "federalProvince": {
      "name": "Steiermark",
      "key": "6"
    },
    "postalCode": "8720",
    "name": "Knittelfeld",
    "multiplePostalCodes": true,
    "key": "62041",
    "status": "UrbanMunicipality"
  },
  {
    "code": "62042",
    "district": {
      "code": "620",
      "name": "Murtal",
      "key": "620"
    },
    "federalProvince": {
      "name": "Steiermark",
      "key": "6"
    },
    "postalCode": "8742",
    "name": "Obdach",
    "multiplePostalCodes": true,
    "key": "62042",
    "status": "MarketTown"
  },
  {
    "code": "62043",
    "district": {
      "code": "620",
      "name": "Murtal",
      "key": "620"
    },
    "federalProvince": {
      "name": "Steiermark",
      "key": "6"
    },
    "postalCode": "8761",
    "name": "Pöls-Oberkurzheim",
    "multiplePostalCodes": true,
    "key": "62043",
    "status": "MarketTown"
  },
  {
    "code": "62044",
    "district": {
      "code": "620",
      "name": "Murtal",
      "key": "620"
    },
    "federalProvince": {
      "name": "Steiermark",
      "key": "6"
    },
    "postalCode": "8763",
    "name": "Pölstal",
    "multiplePostalCodes": true,
    "key": "62044",
    "status": "MarketTown"
  },
  {
    "code": "62045",
    "district": {
      "code": "620",
      "name": "Murtal",
      "key": "620"
    },
    "federalProvince": {
      "name": "Steiermark",
      "key": "6"
    },
    "postalCode": "8733",
    "name": "Sankt Marein-Feistritz",
    "multiplePostalCodes": false,
    "key": "62045",
    "status": "None"
  },
  {
    "code": "62046",
    "district": {
      "code": "620",
      "name": "Murtal",
      "key": "620"
    },
    "federalProvince": {
      "name": "Steiermark",
      "key": "6"
    },
    "postalCode": "8720",
    "name": "Sankt Margarethen bei Knittelfeld",
    "multiplePostalCodes": true,
    "key": "62046",
    "status": "None"
  },
  {
    "code": "62047",
    "district": {
      "code": "620",
      "name": "Murtal",
      "key": "620"
    },
    "federalProvince": {
      "name": "Steiermark",
      "key": "6"
    },
    "postalCode": "8724",
    "name": "Spielberg",
    "multiplePostalCodes": true,
    "key": "62047",
    "status": "UrbanMunicipality"
  },
  {
    "code": "62048",
    "district": {
      "code": "620",
      "name": "Murtal",
      "key": "620"
    },
    "federalProvince": {
      "name": "Steiermark",
      "key": "6"
    },
    "postalCode": "8741",
    "name": "Weißkirchen in Steiermark",
    "multiplePostalCodes": true,
    "key": "62048",
    "status": "MarketTown"
  }
]