[{"name":"Ahornweg","postalCode":"14552","locality":"Michendorf","municipality":{"key":"12069397","name":"Michendorf","type":"Kreisangehörige_Gemeinde"},"district":{"key":"12069","name":"Potsdam-Mittelmark","type":"Landkreis"},"federalState":{"key":"12","name":"Brandenburg"}},{"name":"Akazienallee","postalCode":"14552","locality":"Michendorf","municipality":{"key":"12069397","name":"Michendorf","type":"Kreisangehörige_Gemeinde"},"district":{"key":"12069","name":"Potsdam-Mittelmark","type":"Landkreis"},"federalState":{"key":"12","name":"Brandenburg"}},{"name":"Akazienweg","postalCode":"14552","locality":"Michendorf","municipality":{"key":"12069397","name":"Michendorf","type":"Kreisangehörige_Gemeinde"},"district":{"key":"12069","name":"Potsdam-Mittelmark","type":"Landkreis"},"federalState":{"key":"12","name":"Brandenburg"}},{"name":"Alte Poststr.","postalCode":"14552","locality":"Michendorf","municipality":{"key":"12069397","name":"Michendorf","type":"Kreisangehörige_Gemeinde"},"district":{"key":"12069","name":"Potsdam-Mittelmark","type":"Landkreis"},"federalState":{"key":"12","name":"Brandenburg"}},{"name":"Am Alten Vorwerk","postalCode":"14552","locality":"Michendorf","municipality":{"key":"12069397","name":"Michendorf","type":"Kreisangehörige_Gemeinde"},"district":{"key":"12069","name":"Potsdam-Mittelmark","type":"Landkreis"},"federalState":{"key":"12","name":"Brandenburg"}},{"name":"Am Anger","postalCode":"14552","locality":"Michendorf","municipality":{"key":"12069397","name":"Michendorf","type":"Kreisangehörige_Gemeinde"},"district":{"key":"12069","name":"Potsdam-Mittelmark","type":"Landkreis"},"federalState":{"key":"12","name":"Brandenburg"}},{"name":"Am Ansitz","postalCode":"14552","locality":"Michendorf","municipality":{"key":"12069397","name":"Michendorf","type":"Kreisangehörige_Gemeinde"},"district":{"key":"12069","name":"Potsdam-Mittelmark","type":"Landkreis"},"federalState":{"key":"12","name":"Brandenburg"}},{"name":"Am Bauernteich","postalCode":"14552","locality":"Michendorf","municipality":{"key":"12069397","name":"Michendorf","type":"Kreisangehörige_Gemeinde"},"district":{"key":"12069","name":"Potsdam-Mittelmark","type":"Landkreis"},"federalState":{"key":"12","name":"Brandenburg"}},{"name":"Am Berg","postalCode":"14552","locality":"Michendorf","municipality":{"key":"12069397","name":"Michendorf","type":"Kreisangehörige_Gemeinde"},"district":{"key":"12069","name":"Potsdam-Mittelmark","type":"Landkreis"},"federalState":{"key":"12","name":"Brandenburg"}},{"name":"Am Birkenwäldchen","postalCode":"14552","locality":"Michendorf","municipality":{"key":"12069397","name":"Michendorf","type":"Kreisangehörige_Gemeinde"},"district":{"key":"12069","name":"Potsdam-Mittelmark","type":"Landkreis"},"federalState":{"key":"12","name":"Brandenburg"}},{"name":"Am Birnbaum","postalCode":"14552","locality":"Michendorf","municipality":{"key":"12069397","name":"Michendorf","type":"Kreisangehörige_Gemeinde"},"district":{"key":"12069","name":"Potsdam-Mittelmark","type":"Landkreis"},"federalState":{"key":"12","name":"Brandenburg"}},{"name":"Am Dieck","postalCode":"14552","locality":"Michendorf","municipality":{"key":"12069397","name":"Michendorf","type":"Kreisangehörige_Gemeinde"},"district":{"key":"12069","name":"Potsdam-Mittelmark","type":"Landkreis"},"federalState":{"key":"12","name":"Brandenburg"}},{"name":"Am Dornbusch","postalCode":"14552","locality":"Michendorf","municipality":{"key":"12069397","name":"Michendorf","type":"Kreisangehörige_Gemeinde"},"district":{"key":"12069","name":"Potsdam-Mittelmark","type":"Landkreis"},"federalState":{"key":"12","name":"Brandenburg"}},{"name":"Ameisenweg","postalCode":"14552","locality":"Michendorf","municipality":{"key":"12069397","name":"Michendorf","type":"Kreisangehörige_Gemeinde"},"district":{"key":"12069","name":"Potsdam-Mittelmark","type":"Landkreis"},"federalState":{"key":"12","name":"Brandenburg"}},{"name":"Am Feldgraben","postalCode":"14552","locality":"Michendorf","municipality":{"key":"12069397","name":"Michendorf","type":"Kreisangehörige_Gemeinde"},"district":{"key":"12069","name":"Potsdam-Mittelmark","type":"Landkreis"},"federalState":{"key":"12","name":"Brandenburg"}},{"name":"Am Feldrain","postalCode":"14552","locality":"Michendorf","municipality":{"key":"12069397","name":"Michendorf","type":"Kreisangehörige_Gemeinde"},"district":{"key":"12069","name":"Potsdam-Mittelmark","type":"Landkreis"},"federalState":{"key":"12","name":"Brandenburg"}},{"name":"Am Fichtenberg","postalCode":"14552","locality":"Michendorf","municipality":{"key":"12069397","name":"Michendorf","type":"Kreisangehörige_Gemeinde"},"district":{"key":"12069","name":"Potsdam-Mittelmark","type":"Landkreis"},"federalState":{"key":"12","name":"Brandenburg"}},{"name":"Am Galgenberg","postalCode":"14552","locality":"Michendorf","municipality":{"key":"12069397","name":"Michendorf","type":"Kreisangehörige_Gemeinde"},"district":{"key":"12069","name":"Potsdam-Mittelmark","type":"Landkreis"},"federalState":{"key":"12","name":"Brandenburg"}},{"name":"Am Gut","postalCode":"14552","locality":"Michendorf","municipality":{"key":"12069397","name":"Michendorf","type":"Kreisangehörige_Gemeinde"},"district":{"key":"12069","name":"Potsdam-Mittelmark","type":"Landkreis"},"federalState":{"key":"12","name":"Brandenburg"}},{"name":"Am Hang","postalCode":"14552","locality":"Michendorf","municipality":{"key":"12069397","name":"Michendorf","type":"Kreisangehörige_Gemeinde"},"district":{"key":"12069","name":"Potsdam-Mittelmark","type":"Landkreis"},"federalState":{"key":"12","name":"Brandenburg"}},{"name":"Am Herthasee","postalCode":"14552","locality":"Michendorf","municipality":{"key":"12069397","name":"Michendorf","type":"Kreisangehörige_Gemeinde"},"district":{"key":"12069","name":"Potsdam-Mittelmark","type":"Landkreis"},"federalState":{"key":"12","name":"Brandenburg"}},{"name":"Am Hirschsprung","postalCode":"14552","locality":"Michendorf","municipality":{"key":"12069397","name":"Michendorf","type":"Kreisangehörige_Gemeinde"},"district":{"key":"12069","name":"Potsdam-Mittelmark","type":"Landkreis"},"federalState":{"key":"12","name":"Brandenburg"}},{"name":"Am Julienhof","postalCode":"14552","locality":"Michendorf","municipality":{"key":"12069397","name":"Michendorf","type":"Kreisangehörige_Gemeinde"},"district":{"key":"12069","name":"Potsdam-Mittelmark","type":"Landkreis"},"federalState":{"key":"12","name":"Brandenburg"}},{"name":"Am Kiefernberg","postalCode":"14552","locality":"Michendorf","municipality":{"key":"12069397","name":"Michendorf","type":"Kreisangehörige_Gemeinde"},"district":{"key":"12069","name":"Potsdam-Mittelmark","type":"Landkreis"},"federalState":{"key":"12","name":"Brandenburg"}},{"name":"Am Kirschbaum","postalCode":"14552","locality":"Michendorf","municipality":{"key":"12069397","name":"Michendorf","type":"Kreisangehörige_Gemeinde"},"district":{"key":"12069","name":"Potsdam-Mittelmark","type":"Landkreis"},"federalState":{"key":"12","name":"Brandenburg"}},{"name":"Am Krugberg","postalCode":"14552","locality":"Michendorf","municipality":{"key":"12069397","name":"Michendorf","type":"Kreisangehörige_Gemeinde"},"district":{"key":"12069","name":"Potsdam-Mittelmark","type":"Landkreis"},"federalState":{"key":"12","name":"Brandenburg"}},{"name":"Am Mirabellenbaum","postalCode":"14552","locality":"Michendorf","municipality":{"key":"12069397","name":"Michendorf","type":"Kreisangehörige_Gemeinde"},"district":{"key":"12069","name":"Potsdam-Mittelmark","type":"Landkreis"},"federalState":{"key":"12","name":"Brandenburg"}},{"name":"Am Mühlenberg","postalCode":"14552","locality":"Michendorf","municipality":{"key":"12069397","name":"Michendorf","type":"Kreisangehörige_Gemeinde"},"district":{"key":"12069","name":"Potsdam-Mittelmark","type":"Landkreis"},"federalState":{"key":"12","name":"Brandenburg"}},{"name":"Am Plan","postalCode":"14552","locality":"Michendorf","municipality":{"key":"12069397","name":"Michendorf","type":"Kreisangehörige_Gemeinde"},"district":{"key":"12069","name":"Potsdam-Mittelmark","type":"Landkreis"},"federalState":{"key":"12","name":"Brandenburg"}},{"name":"Am Reitstall","postalCode":"14552","locality":"Michendorf","municipality":{"key":"12069397","name":"Michendorf","type":"Kreisangehörige_Gemeinde"},"district":{"key":"12069","name":"Potsdam-Mittelmark","type":"Landkreis"},"federalState":{"key":"12","name":"Brandenburg"}},{"name":"Amselweg","postalCode":"14552","locality":"Michendorf","municipality":{"key":"12069397","name":"Michendorf","type":"Kreisangehörige_Gemeinde"},"district":{"key":"12069","name":"Potsdam-Mittelmark","type":"Landkreis"},"federalState":{"key":"12","name":"Brandenburg"}},{"name":"Am Spiegelberg","postalCode":"14552","locality":"Michendorf","municipality":{"key":"12069397","name":"Michendorf","type":"Kreisangehörige_Gemeinde"},"district":{"key":"12069","name":"Potsdam-Mittelmark","type":"Landkreis"},"federalState":{"key":"12","name":"Brandenburg"}},{"name":"Am Upstall","postalCode":"14552","locality":"Michendorf","municipality":{"key":"12069397","name":"Michendorf","type":"Kreisangehörige_Gemeinde"},"district":{"key":"12069","name":"Potsdam-Mittelmark","type":"Landkreis"},"federalState":{"key":"12","name":"Brandenburg"}},{"name":"Am Waldrand","postalCode":"14552","locality":"Michendorf","municipality":{"key":"12069397","name":"Michendorf","type":"Kreisangehörige_Gemeinde"},"district":{"key":"12069","name":"Potsdam-Mittelmark","type":"Landkreis"},"federalState":{"key":"12","name":"Brandenburg"}},{"name":"Am Weinberg","postalCode":"14552","locality":"Michendorf","municipality":{"key":"12069397","name":"Michendorf","type":"Kreisangehörige_Gemeinde"},"district":{"key":"12069","name":"Potsdam-Mittelmark","type":"Landkreis"},"federalState":{"key":"12","name":"Brandenburg"}},{"name":"Am Wolkenberg","postalCode":"14552","locality":"Michendorf","municipality":{"key":"12069397","name":"Michendorf","type":"Kreisangehörige_Gemeinde"},"district":{"key":"12069","name":"Potsdam-Mittelmark","type":"Landkreis"},"federalState":{"key":"12","name":"Brandenburg"}},{"name":"An den Bergen","postalCode":"14552","locality":"Michendorf","municipality":{"key":"12069397","name":"Michendorf","type":"Kreisangehörige_Gemeinde"},"district":{"key":"12069","name":"Potsdam-Mittelmark","type":"Landkreis"},"federalState":{"key":"12","name":"Brandenburg"}},{"name":"An den Caputher Gärten","postalCode":"14552","locality":"Michendorf","municipality":{"key":"12069397","name":"Michendorf","type":"Kreisangehörige_Gemeinde"},"district":{"key":"12069","name":"Potsdam-Mittelmark","type":"Landkreis"},"federalState":{"key":"12","name":"Brandenburg"}},{"name":"An den Lauben","postalCode":"14552","locality":"Michendorf","municipality":{"key":"12069397","name":"Michendorf","type":"Kreisangehörige_Gemeinde"},"district":{"key":"12069","name":"Potsdam-Mittelmark","type":"Landkreis"},"federalState":{"key":"12","name":"Brandenburg"}},{"name":"An den Sieben Ruthen","postalCode":"14552","locality":"Michendorf","municipality":{"key":"12069397","name":"Michendorf","type":"Kreisangehörige_Gemeinde"},"district":{"key":"12069","name":"Potsdam-Mittelmark","type":"Landkreis"},"federalState":{"key":"12","name":"Brandenburg"}},{"name":"An der Aue","postalCode":"14552","locality":"Michendorf","municipality":{"key":"12069397","name":"Michendorf","type":"Kreisangehörige_Gemeinde"},"district":{"key":"12069","name":"Potsdam-Mittelmark","type":"Landkreis"},"federalState":{"key":"12","name":"Brandenburg"}},{"name":"An der Autobahn","postalCode":"14552","locality":"Michendorf","municipality":{"key":"12069397","name":"Michendorf","type":"Kreisangehörige_Gemeinde"},"district":{"key":"12069","name":"Potsdam-Mittelmark","type":"Landkreis"},"federalState":{"key":"12","name":"Brandenburg"}},{"name":"An der Bahn","postalCode":"14552","locality":"Michendorf","municipality":{"key":"12069397","name":"Michendorf","type":"Kreisangehörige_Gemeinde"},"district":{"key":"12069","name":"Potsdam-Mittelmark","type":"Landkreis"},"federalState":{"key":"12","name":"Brandenburg"}},{"name":"An der Kirche","postalCode":"14552","locality":"Michendorf","municipality":{"key":"12069397","name":"Michendorf","type":"Kreisangehörige_Gemeinde"},"district":{"key":"12069","name":"Potsdam-Mittelmark","type":"Landkreis"},"federalState":{"key":"12","name":"Brandenburg"}},{"name":"An der Mühle","postalCode":"14552","locality":"Michendorf","municipality":{"key":"12069397","name":"Michendorf","type":"Kreisangehörige_Gemeinde"},"district":{"key":"12069","name":"Potsdam-Mittelmark","type":"Landkreis"},"federalState":{"key":"12","name":"Brandenburg"}},{"name":"An der Trift","postalCode":"14552","locality":"Michendorf","municipality":{"key":"12069397","name":"Michendorf","type":"Kreisangehörige_Gemeinde"},"district":{"key":"12069","name":"Potsdam-Mittelmark","type":"Landkreis"},"federalState":{"key":"12","name":"Brandenburg"}},{"name":"An der Umgehungsbahn","postalCode":"14552","locality":"Michendorf","municipality":{"key":"12069397","name":"Michendorf","type":"Kreisangehörige_Gemeinde"},"district":{"key":"12069","name":"Potsdam-Mittelmark","type":"Landkreis"},"federalState":{"key":"12","name":"Brandenburg"}},{"name":"Bahnstr.","postalCode":"14552","locality":"Michendorf","municipality":{"key":"12069397","name":"Michendorf","type":"Kreisangehörige_Gemeinde"},"district":{"key":"12069","name":"Potsdam-Mittelmark","type":"Landkreis"},"federalState":{"key":"12","name":"Brandenburg"}},{"name":"Beelitzer Str.","postalCode":"14552","locality":"Michendorf","municipality":{"key":"12069397","name":"Michendorf","type":"Kreisangehörige_Gemeinde"},"district":{"key":"12069","name":"Potsdam-Mittelmark","type":"Landkreis"},"federalState":{"key":"12","name":"Brandenburg"}},{"name":"Beelitzer Weg","postalCode":"14552","locality":"Michendorf","municipality":{"key":"12069397","name":"Michendorf","type":"Kreisangehörige_Gemeinde"},"district":{"key":"12069","name":"Potsdam-Mittelmark","type":"Landkreis"},"federalState":{"key":"12","name":"Brandenburg"}},{"name":"Bergholzer Str.","postalCode":"14552","locality":"Michendorf","municipality":{"key":"12069397","name":"Michendorf","type":"Kreisangehörige_Gemeinde"},"district":{"key":"12069","name":"Potsdam-Mittelmark","type":"Landkreis"},"federalState":{"key":"12","name":"Brandenburg"}},{"name":"Berglehne","postalCode":"14552","locality":"Michendorf","municipality":{"key":"12069397","name":"Michendorf","type":"Kreisangehörige_Gemeinde"},"district":{"key":"12069","name":"Potsdam-Mittelmark","type":"Landkreis"},"federalState":{"key":"12","name":"Brandenburg"}},{"name":"Bergstr.","postalCode":"14552","locality":"Michendorf","municipality":{"key":"12069397","name":"Michendorf","type":"Kreisangehörige_Gemeinde"},"district":{"key":"12069","name":"Potsdam-Mittelmark","type":"Landkreis"},"federalState":{"key":"12","name":"Brandenburg"}},{"name":"Betonweg","postalCode":"14552","locality":"Michendorf","municipality":{"key":"12069397","name":"Michendorf","type":"Kreisangehörige_Gemeinde"},"district":{"key":"12069","name":"Potsdam-Mittelmark","type":"Landkreis"},"federalState":{"key":"12","name":"Brandenburg"}},{"name":"Bienenweg","postalCode":"14552","locality":"Michendorf","municipality":{"key":"12069397","name":"Michendorf","type":"Kreisangehörige_Gemeinde"},"district":{"key":"12069","name":"Potsdam-Mittelmark","type":"Landkreis"},"federalState":{"key":"12","name":"Brandenburg"}},{"name":"Birkenallee","postalCode":"14552","locality":"Michendorf","municipality":{"key":"12069397","name":"Michendorf","type":"Kreisangehörige_Gemeinde"},"district":{"key":"12069","name":"Potsdam-Mittelmark","type":"Landkreis"},"federalState":{"key":"12","name":"Brandenburg"}},{"name":"Birkensteig","postalCode":"14552","locality":"Michendorf","municipality":{"key":"12069397","name":"Michendorf","type":"Kreisangehörige_Gemeinde"},"district":{"key":"12069","name":"Potsdam-Mittelmark","type":"Landkreis"},"federalState":{"key":"12","name":"Brandenburg"}},{"name":"Birkenwäldchen","postalCode":"14552","locality":"Michendorf","municipality":{"key":"12069397","name":"Michendorf","type":"Kreisangehörige_Gemeinde"},"district":{"key":"12069","name":"Potsdam-Mittelmark","type":"Landkreis"},"federalState":{"key":"12","name":"Brandenburg"}},{"name":"Birkenweg","postalCode":"14552","locality":"Michendorf","municipality":{"key":"12069397","name":"Michendorf","type":"Kreisangehörige_Gemeinde"},"district":{"key":"12069","name":"Potsdam-Mittelmark","type":"Landkreis"},"federalState":{"key":"12","name":"Brandenburg"}},{"name":"Brunnenplatz","postalCode":"14552","locality":"Michendorf","municipality":{"key":"12069397","name":"Michendorf","type":"Kreisangehörige_Gemeinde"},"district":{"key":"12069","name":"Potsdam-Mittelmark","type":"Landkreis"},"federalState":{"key":"12","name":"Brandenburg"}},{"name":"Brunnenweg","postalCode":"14552","locality":"Michendorf","municipality":{"key":"12069397","name":"Michendorf","type":"Kreisangehörige_Gemeinde"},"district":{"key":"12069","name":"Potsdam-Mittelmark","type":"Landkreis"},"federalState":{"key":"12","name":"Brandenburg"}},{"name":"Bussardsteig","postalCode":"14552","locality":"Michendorf","municipality":{"key":"12069397","name":"Michendorf","type":"Kreisangehörige_Gemeinde"},"district":{"key":"12069","name":"Potsdam-Mittelmark","type":"Landkreis"},"federalState":{"key":"12","name":"Brandenburg"}},{"name":"Buswendeschleife","postalCode":"14552","locality":"Michendorf","municipality":{"key":"12069397","name":"Michendorf","type":"Kreisangehörige_Gemeinde"},"district":{"key":"12069","name":"Potsdam-Mittelmark","type":"Landkreis"},"federalState":{"key":"12","name":"Brandenburg"}},{"name":"Caputher Chaussee","postalCode":"14552","locality":"Michendorf","municipality":{"key":"12069397","name":"Michendorf","type":"Kreisangehörige_Gemeinde"},"district":{"key":"12069","name":"Potsdam-Mittelmark","type":"Landkreis"},"federalState":{"key":"12","name":"Brandenburg"}},{"name":"Caputher Str.","postalCode":"14552","locality":"Michendorf","municipality":{"key":"12069397","name":"Michendorf","type":"Kreisangehörige_Gemeinde"},"district":{"key":"12069","name":"Potsdam-Mittelmark","type":"Landkreis"},"federalState":{"key":"12","name":"Brandenburg"}},{"name":"Caputher Weg","postalCode":"14552","locality":"Michendorf","municipality":{"key":"12069397","name":"Michendorf","type":"Kreisangehörige_Gemeinde"},"district":{"key":"12069","name":"Potsdam-Mittelmark","type":"Landkreis"},"federalState":{"key":"12","name":"Brandenburg"}},{"name":"Dachsstr.","postalCode":"14552","locality":"Michendorf","municipality":{"key":"12069397","name":"Michendorf","type":"Kreisangehörige_Gemeinde"},"district":{"key":"12069","name":"Potsdam-Mittelmark","type":"Landkreis"},"federalState":{"key":"12","name":"Brandenburg"}},{"name":"Dahlienweg","postalCode":"14552","locality":"Michendorf","municipality":{"key":"12069397","name":"Michendorf","type":"Kreisangehörige_Gemeinde"},"district":{"key":"12069","name":"Potsdam-Mittelmark","type":"Landkreis"},"federalState":{"key":"12","name":"Brandenburg"}},{"name":"Damhirschstr.","postalCode":"14552","locality":"Michendorf","municipality":{"key":"12069397","name":"Michendorf","type":"Kreisangehörige_Gemeinde"},"district":{"key":"12069","name":"Potsdam-Mittelmark","type":"Landkreis"},"federalState":{"key":"12","name":"Brandenburg"}},{"name":"Dehlinger Weg","postalCode":"14552","locality":"Michendorf","municipality":{"key":"12069397","name":"Michendorf","type":"Kreisangehörige_Gemeinde"},"district":{"key":"12069","name":"Potsdam-Mittelmark","type":"Landkreis"},"federalState":{"key":"12","name":"Brandenburg"}},{"name":"Der Weinberg","postalCode":"14552","locality":"Michendorf","municipality":{"key":"12069397","name":"Michendorf","type":"Kreisangehörige_Gemeinde"},"district":{"key":"12069","name":"Potsdam-Mittelmark","type":"Landkreis"},"federalState":{"key":"12","name":"Brandenburg"}},{"name":"Dianastr.","postalCode":"14552","locality":"Michendorf","municipality":{"key":"12069397","name":"Michendorf","type":"Kreisangehörige_Gemeinde"},"district":{"key":"12069","name":"Potsdam-Mittelmark","type":"Landkreis"},"federalState":{"key":"12","name":"Brandenburg"}},{"name":"Dorfblick","postalCode":"14552","locality":"Michendorf","municipality":{"key":"12069397","name":"Michendorf","type":"Kreisangehörige_Gemeinde"},"district":{"key":"12069","name":"Potsdam-Mittelmark","type":"Landkreis"},"federalState":{"key":"12","name":"Brandenburg"}},{"name":"Dorfstr.","postalCode":"14552","locality":"Michendorf","municipality":{"key":"12069397","name":"Michendorf","type":"Kreisangehörige_Gemeinde"},"district":{"key":"12069","name":"Potsdam-Mittelmark","type":"Landkreis"},"federalState":{"key":"12","name":"Brandenburg"}},{"name":"Dr.-Albert-Schweitzer-Str.","postalCode":"14552","locality":"Michendorf","municipality":{"key":"12069397","name":"Michendorf","type":"Kreisangehörige_Gemeinde"},"district":{"key":"12069","name":"Potsdam-Mittelmark","type":"Landkreis"},"federalState":{"key":"12","name":"Brandenburg"}},{"name":"Drosselsteig","postalCode":"14552","locality":"Michendorf","municipality":{"key":"12069397","name":"Michendorf","type":"Kreisangehörige_Gemeinde"},"district":{"key":"12069","name":"Potsdam-Mittelmark","type":"Landkreis"},"federalState":{"key":"12","name":"Brandenburg"}},{"name":"Drosselweg","postalCode":"14552","locality":"Michendorf","municipality":{"key":"12069397","name":"Michendorf","type":"Kreisangehörige_Gemeinde"},"district":{"key":"12069","name":"Potsdam-Mittelmark","type":"Landkreis"},"federalState":{"key":"12","name":"Brandenburg"}},{"name":"Dürerstr.","postalCode":"14552","locality":"Michendorf","municipality":{"key":"12069397","name":"Michendorf","type":"Kreisangehörige_Gemeinde"},"district":{"key":"12069","name":"Potsdam-Mittelmark","type":"Landkreis"},"federalState":{"key":"12","name":"Brandenburg"}},{"name":"Ebereschenallee","postalCode":"14552","locality":"Michendorf","municipality":{"key":"12069397","name":"Michendorf","type":"Kreisangehörige_Gemeinde"},"district":{"key":"12069","name":"Potsdam-Mittelmark","type":"Landkreis"},"federalState":{"key":"12","name":"Brandenburg"}},{"name":"Ebereschenweg","postalCode":"14552","locality":"Michendorf","municipality":{"key":"12069397","name":"Michendorf","type":"Kreisangehörige_Gemeinde"},"district":{"key":"12069","name":"Potsdam-Mittelmark","type":"Landkreis"},"federalState":{"key":"12","name":"Brandenburg"}},{"name":"Eichenallee","postalCode":"14552","locality":"Michendorf","municipality":{"key":"12069397","name":"Michendorf","type":"Kreisangehörige_Gemeinde"},"district":{"key":"12069","name":"Potsdam-Mittelmark","type":"Landkreis"},"federalState":{"key":"12","name":"Brandenburg"}},{"name":"Eichenweg","postalCode":"14552","locality":"Michendorf","municipality":{"key":"12069397","name":"Michendorf","type":"Kreisangehörige_Gemeinde"},"district":{"key":"12069","name":"Potsdam-Mittelmark","type":"Landkreis"},"federalState":{"key":"12","name":"Brandenburg"}},{"name":"Elsterstr.","postalCode":"14552","locality":"Michendorf","municipality":{"key":"12069397","name":"Michendorf","type":"Kreisangehörige_Gemeinde"},"district":{"key":"12069","name":"Potsdam-Mittelmark","type":"Landkreis"},"federalState":{"key":"12","name":"Brandenburg"}},{"name":"Entensteig","postalCode":"14552","locality":"Michendorf","municipality":{"key":"12069397","name":"Michendorf","type":"Kreisangehörige_Gemeinde"},"district":{"key":"12069","name":"Potsdam-Mittelmark","type":"Landkreis"},"federalState":{"key":"12","name":"Brandenburg"}},{"name":"Erlenallee","postalCode":"14552","locality":"Michendorf","municipality":{"key":"12069397","name":"Michendorf","type":"Kreisangehörige_Gemeinde"},"district":{"key":"12069","name":"Potsdam-Mittelmark","type":"Landkreis"},"federalState":{"key":"12","name":"Brandenburg"}},{"name":"Eulenkamp","postalCode":"14552","locality":"Michendorf","municipality":{"key":"12069397","name":"Michendorf","type":"Kreisangehörige_Gemeinde"},"district":{"key":"12069","name":"Potsdam-Mittelmark","type":"Landkreis"},"federalState":{"key":"12","name":"Brandenburg"}},{"name":"Falkenweg","postalCode":"14552","locality":"Michendorf","municipality":{"key":"12069397","name":"Michendorf","type":"Kreisangehörige_Gemeinde"},"district":{"key":"12069","name":"Potsdam-Mittelmark","type":"Landkreis"},"federalState":{"key":"12","name":"Brandenburg"}},{"name":"Feldstr.","postalCode":"14552","locality":"Michendorf","municipality":{"key":"12069397","name":"Michendorf","type":"Kreisangehörige_Gemeinde"},"district":{"key":"12069","name":"Potsdam-Mittelmark","type":"Landkreis"},"federalState":{"key":"12","name":"Brandenburg"}},{"name":"Feldweg","postalCode":"14552","locality":"Michendorf","municipality":{"key":"12069397","name":"Michendorf","type":"Kreisangehörige_Gemeinde"},"district":{"key":"12069","name":"Potsdam-Mittelmark","type":"Landkreis"},"federalState":{"key":"12","name":"Brandenburg"}},{"name":"Feuerbachstr.","postalCode":"14552","locality":"Michendorf","municipality":{"key":"12069397","name":"Michendorf","type":"Kreisangehörige_Gemeinde"},"district":{"key":"12069","name":"Potsdam-Mittelmark","type":"Landkreis"},"federalState":{"key":"12","name":"Brandenburg"}},{"name":"Fichtenallee","postalCode":"14552","locality":"Michendorf","municipality":{"key":"12069397","name":"Michendorf","type":"Kreisangehörige_Gemeinde"},"district":{"key":"12069","name":"Potsdam-Mittelmark","type":"Landkreis"},"federalState":{"key":"12","name":"Brandenburg"}},{"name":"Finkenweg","postalCode":"14552","locality":"Michendorf","municipality":{"key":"12069397","name":"Michendorf","type":"Kreisangehörige_Gemeinde"},"district":{"key":"12069","name":"Potsdam-Mittelmark","type":"Landkreis"},"federalState":{"key":"12","name":"Brandenburg"}},{"name":"Fliederhang","postalCode":"14552","locality":"Michendorf","municipality":{"key":"12069397","name":"Michendorf","type":"Kreisangehörige_Gemeinde"},"district":{"key":"12069","name":"Potsdam-Mittelmark","type":"Landkreis"},"federalState":{"key":"12","name":"Brandenburg"}},{"name":"Flottsteller Str.","postalCode":"14552","locality":"Michendorf","municipality":{"key":"12069397","name":"Michendorf","type":"Kreisangehörige_Gemeinde"},"district":{"key":"12069","name":"Potsdam-Mittelmark","type":"Landkreis"},"federalState":{"key":"12","name":"Brandenburg"}},{"name":"Föhrenhang","postalCode":"14552","locality":"Michendorf","municipality":{"key":"12069397","name":"Michendorf","type":"Kreisangehörige_Gemeinde"},"district":{"key":"12069","name":"Potsdam-Mittelmark","type":"Landkreis"},"federalState":{"key":"12","name":"Brandenburg"}},{"name":"Forstweg","postalCode":"14552","locality":"Michendorf","municipality":{"key":"12069397","name":"Michendorf","type":"Kreisangehörige_Gemeinde"},"district":{"key":"12069","name":"Potsdam-Mittelmark","type":"Landkreis"},"federalState":{"key":"12","name":"Brandenburg"}},{"name":"Fresdorfer Bergstr.","postalCode":"14552","locality":"Michendorf","municipality":{"key":"12069397","name":"Michendorf","type":"Kreisangehörige_Gemeinde"},"district":{"key":"12069","name":"Potsdam-Mittelmark","type":"Landkreis"},"federalState":{"key":"12","name":"Brandenburg"}},{"name":"Fresdorfer Feldstr.","postalCode":"14552","locality":"Michendorf","municipality":{"key":"12069397","name":"Michendorf","type":"Kreisangehörige_Gemeinde"},"district":{"key":"12069","name":"Potsdam-Mittelmark","type":"Landkreis"},"federalState":{"key":"12","name":"Brandenburg"}},{"name":"Friedensplatz","postalCode":"14552","locality":"Michendorf","municipality":{"key":"12069397","name":"Michendorf","type":"Kreisangehörige_Gemeinde"},"district":{"key":"12069","name":"Potsdam-Mittelmark","type":"Landkreis"},"federalState":{"key":"12","name":"Brandenburg"}},{"name":"Fuchsweg","postalCode":"14552","locality":"Michendorf","municipality":{"key":"12069397","name":"Michendorf","type":"Kreisangehörige_Gemeinde"},"district":{"key":"12069","name":"Potsdam-Mittelmark","type":"Landkreis"},"federalState":{"key":"12","name":"Brandenburg"}},{"name":"Gartenstr.","postalCode":"14552","locality":"Michendorf","municipality":{"key":"12069397","name":"Michendorf","type":"Kreisangehörige_Gemeinde"},"district":{"key":"12069","name":"Potsdam-Mittelmark","type":"Landkreis"},"federalState":{"key":"12","name":"Brandenburg"}},{"name":"Ginsterberg","postalCode":"14552","locality":"Michendorf","municipality":{"key":"12069397","name":"Michendorf","type":"Kreisangehörige_Gemeinde"},"district":{"key":"12069","name":"Potsdam-Mittelmark","type":"Landkreis"},"federalState":{"key":"12","name":"Brandenburg"}},{"name":"Ginsterweg","postalCode":"14552","locality":"Michendorf","municipality":{"key":"12069397","name":"Michendorf","type":"Kreisangehörige_Gemeinde"},"district":{"key":"12069","name":"Potsdam-Mittelmark","type":"Landkreis"},"federalState":{"key":"12","name":"Brandenburg"}},{"name":"Goetheplatz","postalCode":"14552","locality":"Michendorf","municipality":{"key":"12069397","name":"Michendorf","type":"Kreisangehörige_Gemeinde"},"district":{"key":"12069","name":"Potsdam-Mittelmark","type":"Landkreis"},"federalState":{"key":"12","name":"Brandenburg"}},{"name":"Grenzstr.","postalCode":"14552","locality":"Michendorf","municipality":{"key":"12069397","name":"Michendorf","type":"Kreisangehörige_Gemeinde"},"district":{"key":"12069","name":"Potsdam-Mittelmark","type":"Landkreis"},"federalState":{"key":"12","name":"Brandenburg"}},{"name":"Grüner Steig","postalCode":"14552","locality":"Michendorf","municipality":{"key":"12069397","name":"Michendorf","type":"Kreisangehörige_Gemeinde"},"district":{"key":"12069","name":"Potsdam-Mittelmark","type":"Landkreis"},"federalState":{"key":"12","name":"Brandenburg"}},{"name":"Grüner Weg","postalCode":"14552","locality":"Michendorf","municipality":{"key":"12069397","name":"Michendorf","type":"Kreisangehörige_Gemeinde"},"district":{"key":"12069","name":"Potsdam-Mittelmark","type":"Landkreis"},"federalState":{"key":"12","name":"Brandenburg"}},{"name":"Habichtweg","postalCode":"14552","locality":"Michendorf","municipality":{"key":"12069397","name":"Michendorf","type":"Kreisangehörige_Gemeinde"},"district":{"key":"12069","name":"Potsdam-Mittelmark","type":"Landkreis"},"federalState":{"key":"12","name":"Brandenburg"}},{"name":"Hasenpfad","postalCode":"14552","locality":"Michendorf","municipality":{"key":"12069397","name":"Michendorf","type":"Kreisangehörige_Gemeinde"},"district":{"key":"12069","name":"Potsdam-Mittelmark","type":"Landkreis"},"federalState":{"key":"12","name":"Brandenburg"}},{"name":"Hasensprung","postalCode":"14552","locality":"Michendorf","municipality":{"key":"12069397","name":"Michendorf","type":"Kreisangehörige_Gemeinde"},"district":{"key":"12069","name":"Potsdam-Mittelmark","type":"Landkreis"},"federalState":{"key":"12","name":"Brandenburg"}},{"name":"Hasenweg","postalCode":"14552","locality":"Michendorf","municipality":{"key":"12069397","name":"Michendorf","type":"Kreisangehörige_Gemeinde"},"district":{"key":"12069","name":"Potsdam-Mittelmark","type":"Landkreis"},"federalState":{"key":"12","name":"Brandenburg"}},{"name":"Hauptstr.","postalCode":"14552","locality":"Michendorf","municipality":{"key":"12069397","name":"Michendorf","type":"Kreisangehörige_Gemeinde"},"district":{"key":"12069","name":"Potsdam-Mittelmark","type":"Landkreis"},"federalState":{"key":"12","name":"Brandenburg"}},{"name":"Heidekrautstr.","postalCode":"14552","locality":"Michendorf","municipality":{"key":"12069397","name":"Michendorf","type":"Kreisangehörige_Gemeinde"},"district":{"key":"12069","name":"Potsdam-Mittelmark","type":"Landkreis"},"federalState":{"key":"12","name":"Brandenburg"}},{"name":"Heidereuterweg","postalCode":"14552","locality":"Michendorf","municipality":{"key":"12069397","name":"Michendorf","type":"Kreisangehörige_Gemeinde"},"district":{"key":"12069","name":"Potsdam-Mittelmark","type":"Landkreis"},"federalState":{"key":"12","name":"Brandenburg"}},{"name":"Heidestr.","postalCode":"14552","locality":"Michendorf","municipality":{"key":"12069397","name":"Michendorf","type":"Kreisangehörige_Gemeinde"},"district":{"key":"12069","name":"Potsdam-Mittelmark","type":"Landkreis"},"federalState":{"key":"12","name":"Brandenburg"}},{"name":"Heideweg","postalCode":"14552","locality":"Michendorf","municipality":{"key":"12069397","name":"Michendorf","type":"Kreisangehörige_Gemeinde"},"district":{"key":"12069","name":"Potsdam-Mittelmark","type":"Landkreis"},"federalState":{"key":"12","name":"Brandenburg"}},{"name":"Himmelszeltarena","postalCode":"14552","locality":"Michendorf","municipality":{"key":"12069397","name":"Michendorf","type":"Kreisangehörige_Gemeinde"},"district":{"key":"12069","name":"Potsdam-Mittelmark","type":"Landkreis"},"federalState":{"key":"12","name":"Brandenburg"}},{"name":"Hubertusstr.","postalCode":"14552","locality":"Michendorf","municipality":{"key":"12069397","name":"Michendorf","type":"Kreisangehörige_Gemeinde"},"district":{"key":"12069","name":"Potsdam-Mittelmark","type":"Landkreis"},"federalState":{"key":"12","name":"Brandenburg"}},{"name":"Hubertusweg","postalCode":"14552","locality":"Michendorf","municipality":{"key":"12069397","name":"Michendorf","type":"Kreisangehörige_Gemeinde"},"district":{"key":"12069","name":"Potsdam-Mittelmark","type":"Landkreis"},"federalState":{"key":"12","name":"Brandenburg"}},{"name":"Hügelweg","postalCode":"14552","locality":"Michendorf","municipality":{"key":"12069397","name":"Michendorf","type":"Kreisangehörige_Gemeinde"},"district":{"key":"12069","name":"Potsdam-Mittelmark","type":"Landkreis"},"federalState":{"key":"12","name":"Brandenburg"}},{"name":"Igelpfad","postalCode":"14552","locality":"Michendorf","municipality":{"key":"12069397","name":"Michendorf","type":"Kreisangehörige_Gemeinde"},"district":{"key":"12069","name":"Potsdam-Mittelmark","type":"Landkreis"},"federalState":{"key":"12","name":"Brandenburg"}},{"name":"Igelweg","postalCode":"14552","locality":"Michendorf","municipality":{"key":"12069397","name":"Michendorf","type":"Kreisangehörige_Gemeinde"},"district":{"key":"12069","name":"Potsdam-Mittelmark","type":"Landkreis"},"federalState":{"key":"12","name":"Brandenburg"}},{"name":"Iltisweg","postalCode":"14552","locality":"Michendorf","municipality":{"key":"12069397","name":"Michendorf","type":"Kreisangehörige_Gemeinde"},"district":{"key":"12069","name":"Potsdam-Mittelmark","type":"Landkreis"},"federalState":{"key":"12","name":"Brandenburg"}},{"name":"Im Gehege","postalCode":"14552","locality":"Michendorf","municipality":{"key":"12069397","name":"Michendorf","type":"Kreisangehörige_Gemeinde"},"district":{"key":"12069","name":"Potsdam-Mittelmark","type":"Landkreis"},"federalState":{"key":"12","name":"Brandenburg"}},{"name":"Im Sande","postalCode":"14552","locality":"Michendorf","municipality":{"key":"12069397","name":"Michendorf","type":"Kreisangehörige_Gemeinde"},"district":{"key":"12069","name":"Potsdam-Mittelmark","type":"Landkreis"},"federalState":{"key":"12","name":"Brandenburg"}},{"name":"Im Winkel","postalCode":"14552","locality":"Michendorf","municipality":{"key":"12069397","name":"Michendorf","type":"Kreisangehörige_Gemeinde"},"district":{"key":"12069","name":"Potsdam-Mittelmark","type":"Landkreis"},"federalState":{"key":"12","name":"Brandenburg"}},{"name":"In der Bienenfarm","postalCode":"14552","locality":"Michendorf","municipality":{"key":"12069397","name":"Michendorf","type":"Kreisangehörige_Gemeinde"},"district":{"key":"12069","name":"Potsdam-Mittelmark","type":"Landkreis"},"federalState":{"key":"12","name":"Brandenburg"}},{"name":"In der Lehnmarke","postalCode":"14552","locality":"Michendorf","municipality":{"key":"12069397","name":"Michendorf","type":"Kreisangehörige_Gemeinde"},"district":{"key":"12069","name":"Potsdam-Mittelmark","type":"Landkreis"},"federalState":{"key":"12","name":"Brandenburg"}},{"name":"Irissteig","postalCode":"14552","locality":"Michendorf","municipality":{"key":"12069397","name":"Michendorf","type":"Kreisangehörige_Gemeinde"},"district":{"key":"12069","name":"Potsdam-Mittelmark","type":"Landkreis"},"federalState":{"key":"12","name":"Brandenburg"}},{"name":"Jägerstr.","postalCode":"14552","locality":"Michendorf","municipality":{"key":"12069397","name":"Michendorf","type":"Kreisangehörige_Gemeinde"},"district":{"key":"12069","name":"Potsdam-Mittelmark","type":"Landkreis"},"federalState":{"key":"12","name":"Brandenburg"}},{"name":"Jungfernweg","postalCode":"14552","locality":"Michendorf","municipality":{"key":"12069397","name":"Michendorf","type":"Kreisangehörige_Gemeinde"},"district":{"key":"12069","name":"Potsdam-Mittelmark","type":"Landkreis"},"federalState":{"key":"12","name":"Brandenburg"}},{"name":"Kähnsdorfer Str.","postalCode":"14552","locality":"Michendorf","municipality":{"key":"12069397","name":"Michendorf","type":"Kreisangehörige_Gemeinde"},"district":{"key":"12069","name":"Potsdam-Mittelmark","type":"Landkreis"},"federalState":{"key":"12","name":"Brandenburg"}},{"name":"Karl-Marx-Str.","postalCode":"14552","locality":"Michendorf","municipality":{"key":"12069397","name":"Michendorf","type":"Kreisangehörige_Gemeinde"},"district":{"key":"12069","name":"Potsdam-Mittelmark","type":"Landkreis"},"federalState":{"key":"12","name":"Brandenburg"}},{"name":"Kastanienallee","postalCode":"14552","locality":"Michendorf","municipality":{"key":"12069397","name":"Michendorf","type":"Kreisangehörige_Gemeinde"},"district":{"key":"12069","name":"Potsdam-Mittelmark","type":"Landkreis"},"federalState":{"key":"12","name":"Brandenburg"}},{"name":"Käuzchensteig","postalCode":"14552","locality":"Michendorf","municipality":{"key":"12069397","name":"Michendorf","type":"Kreisangehörige_Gemeinde"},"district":{"key":"12069","name":"Potsdam-Mittelmark","type":"Landkreis"},"federalState":{"key":"12","name":"Brandenburg"}},{"name":"Kiebitzweg","postalCode":"14552","locality":"Michendorf","municipality":{"key":"12069397","name":"Michendorf","type":"Kreisangehörige_Gemeinde"},"district":{"key":"12069","name":"Potsdam-Mittelmark","type":"Landkreis"},"federalState":{"key":"12","name":"Brandenburg"}},{"name":"Kiefernallee","postalCode":"14552","locality":"Michendorf","municipality":{"key":"12069397","name":"Michendorf","type":"Kreisangehörige_Gemeinde"},"district":{"key":"12069","name":"Potsdam-Mittelmark","type":"Landkreis"},"federalState":{"key":"12","name":"Brandenburg"}},{"name":"Kiefernring","postalCode":"14552","locality":"Michendorf","municipality":{"key":"12069397","name":"Michendorf","type":"Kreisangehörige_Gemeinde"},"district":{"key":"12069","name":"Potsdam-Mittelmark","type":"Landkreis"},"federalState":{"key":"12","name":"Brandenburg"}},{"name":"Kiefernweg","postalCode":"14552","locality":"Michendorf","municipality":{"key":"12069397","name":"Michendorf","type":"Kreisangehörige_Gemeinde"},"district":{"key":"12069","name":"Potsdam-Mittelmark","type":"Landkreis"},"federalState":{"key":"12","name":"Brandenburg"}},{"name":"Kirchblick","postalCode":"14552","locality":"Michendorf","municipality":{"key":"12069397","name":"Michendorf","type":"Kreisangehörige_Gemeinde"},"district":{"key":"12069","name":"Potsdam-Mittelmark","type":"Landkreis"},"federalState":{"key":"12","name":"Brandenburg"}},{"name":"Kirchweg","postalCode":"14552","locality":"Michendorf","municipality":{"key":"12069397","name":"Michendorf","type":"Kreisangehörige_Gemeinde"},"district":{"key":"12069","name":"Potsdam-Mittelmark","type":"Landkreis"},"federalState":{"key":"12","name":"Brandenburg"}},{"name":"Kirschallee","postalCode":"14552","locality":"Michendorf","municipality":{"key":"12069397","name":"Michendorf","type":"Kreisangehörige_Gemeinde"},"district":{"key":"12069","name":"Potsdam-Mittelmark","type":"Landkreis"},"federalState":{"key":"12","name":"Brandenburg"}},{"name":"Kirschsteig","postalCode":"14552","locality":"Michendorf","municipality":{"key":"12069397","name":"Michendorf","type":"Kreisangehörige_Gemeinde"},"district":{"key":"12069","name":"Potsdam-Mittelmark","type":"Landkreis"},"federalState":{"key":"12","name":"Brandenburg"}},{"name":"Kleine Gasse","postalCode":"14552","locality":"Michendorf","municipality":{"key":"12069397","name":"Michendorf","type":"Kreisangehörige_Gemeinde"},"district":{"key":"12069","name":"Potsdam-Mittelmark","type":"Landkreis"},"federalState":{"key":"12","name":"Brandenburg"}},{"name":"Kornblumenweg","postalCode":"14552","locality":"Michendorf","municipality":{"key":"12069397","name":"Michendorf","type":"Kreisangehörige_Gemeinde"},"district":{"key":"12069","name":"Potsdam-Mittelmark","type":"Landkreis"},"federalState":{"key":"12","name":"Brandenburg"}},{"name":"Krumme Str.","postalCode":"14552","locality":"Michendorf","municipality":{"key":"12069397","name":"Michendorf","type":"Kreisangehörige_Gemeinde"},"district":{"key":"12069","name":"Potsdam-Mittelmark","type":"Landkreis"},"federalState":{"key":"12","name":"Brandenburg"}},{"name":"Kuckucksweg","postalCode":"14552","locality":"Michendorf","municipality":{"key":"12069397","name":"Michendorf","type":"Kreisangehörige_Gemeinde"},"district":{"key":"12069","name":"Potsdam-Mittelmark","type":"Landkreis"},"federalState":{"key":"12","name":"Brandenburg"}},{"name":"Kunersdorfer Str.","postalCode":"14552","locality":"Michendorf","municipality":{"key":"12069397","name":"Michendorf","type":"Kreisangehörige_Gemeinde"},"district":{"key":"12069","name":"Potsdam-Mittelmark","type":"Landkreis"},"federalState":{"key":"12","name":"Brandenburg"}},{"name":"Ladestr.","postalCode":"14552","locality":"Michendorf","municipality":{"key":"12069397","name":"Michendorf","type":"Kreisangehörige_Gemeinde"},"district":{"key":"12069","name":"Potsdam-Mittelmark","type":"Landkreis"},"federalState":{"key":"12","name":"Brandenburg"}},{"name":"Langer Grund","postalCode":"14552","locality":"Michendorf","municipality":{"key":"12069397","name":"Michendorf","type":"Kreisangehörige_Gemeinde"},"district":{"key":"12069","name":"Potsdam-Mittelmark","type":"Landkreis"},"federalState":{"key":"12","name":"Brandenburg"}},{"name":"Langerwischer Feldstr.","postalCode":"14552","locality":"Michendorf","municipality":{"key":"12069397","name":"Michendorf","type":"Kreisangehörige_Gemeinde"},"district":{"key":"12069","name":"Potsdam-Mittelmark","type":"Landkreis"},"federalState":{"key":"12","name":"Brandenburg"}},{"name":"Langerwischer Str.","postalCode":"14552","locality":"Michendorf","municipality":{"key":"12069397","name":"Michendorf","type":"Kreisangehörige_Gemeinde"},"district":{"key":"12069","name":"Potsdam-Mittelmark","type":"Landkreis"},"federalState":{"key":"12","name":"Brandenburg"}},{"name":"Langerwischer Weg","postalCode":"14552","locality":"Michendorf","municipality":{"key":"12069397","name":"Michendorf","type":"Kreisangehörige_Gemeinde"},"district":{"key":"12069","name":"Potsdam-Mittelmark","type":"Landkreis"},"federalState":{"key":"12","name":"Brandenburg"}},{"name":"Leipziger Chaussee","postalCode":"14552","locality":"Michendorf","municipality":{"key":"12069397","name":"Michendorf","type":"Kreisangehörige_Gemeinde"},"district":{"key":"12069","name":"Potsdam-Mittelmark","type":"Landkreis"},"federalState":{"key":"12","name":"Brandenburg"}},{"name":"Lenbachstr.","postalCode":"14552","locality":"Michendorf","municipality":{"key":"12069397","name":"Michendorf","type":"Kreisangehörige_Gemeinde"},"district":{"key":"12069","name":"Potsdam-Mittelmark","type":"Landkreis"},"federalState":{"key":"12","name":"Brandenburg"}},{"name":"Lerchenweg","postalCode":"14552","locality":"Michendorf","municipality":{"key":"12069397","name":"Michendorf","type":"Kreisangehörige_Gemeinde"},"district":{"key":"12069","name":"Potsdam-Mittelmark","type":"Landkreis"},"federalState":{"key":"12","name":"Brandenburg"}},{"name":"Libellenweg","postalCode":"14552","locality":"Michendorf","municipality":{"key":"12069397","name":"Michendorf","type":"Kreisangehörige_Gemeinde"},"district":{"key":"12069","name":"Potsdam-Mittelmark","type":"Landkreis"},"federalState":{"key":"12","name":"Brandenburg"}},{"name":"Lienewitzseeallee","postalCode":"14552","locality":"Michendorf","municipality":{"key":"12069397","name":"Michendorf","type":"Kreisangehörige_Gemeinde"},"district":{"key":"12069","name":"Potsdam-Mittelmark","type":"Landkreis"},"federalState":{"key":"12","name":"Brandenburg"}},{"name":"Lilienweg","postalCode":"14552","locality":"Michendorf","municipality":{"key":"12069397","name":"Michendorf","type":"Kreisangehörige_Gemeinde"},"district":{"key":"12069","name":"Potsdam-Mittelmark","type":"Landkreis"},"federalState":{"key":"12","name":"Brandenburg"}},{"name":"Lindenallee","postalCode":"14552","locality":"Michendorf","municipality":{"key":"12069397","name":"Michendorf","type":"Kreisangehörige_Gemeinde"},"district":{"key":"12069","name":"Potsdam-Mittelmark","type":"Landkreis"},"federalState":{"key":"12","name":"Brandenburg"}},{"name":"Luchweg","postalCode":"14552","locality":"Michendorf","municipality":{"key":"12069397","name":"Michendorf","type":"Kreisangehörige_Gemeinde"},"district":{"key":"12069","name":"Potsdam-Mittelmark","type":"Landkreis"},"federalState":{"key":"12","name":"Brandenburg"}},{"name":"Luckenwalder Str.","postalCode":"14552","locality":"Michendorf","municipality":{"key":"12069397","name":"Michendorf","type":"Kreisangehörige_Gemeinde"},"district":{"key":"12069","name":"Potsdam-Mittelmark","type":"Landkreis"},"federalState":{"key":"12","name":"Brandenburg"}},{"name":"Malvenhang","postalCode":"14552","locality":"Michendorf","municipality":{"key":"12069397","name":"Michendorf","type":"Kreisangehörige_Gemeinde"},"district":{"key":"12069","name":"Potsdam-Mittelmark","type":"Landkreis"},"federalState":{"key":"12","name":"Brandenburg"}},{"name":"Margeritenweg","postalCode":"14552","locality":"Michendorf","municipality":{"key":"12069397","name":"Michendorf","type":"Kreisangehörige_Gemeinde"},"district":{"key":"12069","name":"Potsdam-Mittelmark","type":"Landkreis"},"federalState":{"key":"12","name":"Brandenburg"}},{"name":"Marienallee","postalCode":"14552","locality":"Michendorf","municipality":{"key":"12069397","name":"Michendorf","type":"Kreisangehörige_Gemeinde"},"district":{"key":"12069","name":"Potsdam-Mittelmark","type":"Landkreis"},"federalState":{"key":"12","name":"Brandenburg"}},{"name":"Meisenweg","postalCode":"14552","locality":"Michendorf","municipality":{"key":"12069397","name":"Michendorf","type":"Kreisangehörige_Gemeinde"},"district":{"key":"12069","name":"Potsdam-Mittelmark","type":"Landkreis"},"federalState":{"key":"12","name":"Brandenburg"}},{"name":"Menzelstr.","postalCode":"14552","locality":"Michendorf","municipality":{"key":"12069397","name":"Michendorf","type":"Kreisangehörige_Gemeinde"},"district":{"key":"12069","name":"Potsdam-Mittelmark","type":"Landkreis"},"federalState":{"key":"12","name":"Brandenburg"}},{"name":"Michendorfer Chaussee","postalCode":"14552","locality":"Michendorf","municipality":{"key":"12069397","name":"Michendorf","type":"Kreisangehörige_Gemeinde"},"district":{"key":"12069","name":"Potsdam-Mittelmark","type":"Landkreis"},"federalState":{"key":"12","name":"Brandenburg"}},{"name":"Michendorfer Forstweg","postalCode":"14552","locality":"Michendorf","municipality":{"key":"12069397","name":"Michendorf","type":"Kreisangehörige_Gemeinde"},"district":{"key":"12069","name":"Potsdam-Mittelmark","type":"Landkreis"},"federalState":{"key":"12","name":"Brandenburg"}},{"name":"Michendorfer Gartenstr.","postalCode":"14552","locality":"Michendorf","municipality":{"key":"12069397","name":"Michendorf","type":"Kreisangehörige_Gemeinde"},"district":{"key":"12069","name":"Potsdam-Mittelmark","type":"Landkreis"},"federalState":{"key":"12","name":"Brandenburg"}},{"name":"Michendorfer Heideweg","postalCode":"14552","locality":"Michendorf","municipality":{"key":"12069397","name":"Michendorf","type":"Kreisangehörige_Gemeinde"},"district":{"key":"12069","name":"Potsdam-Mittelmark","type":"Landkreis"},"federalState":{"key":"12","name":"Brandenburg"}},{"name":"Michendorfer Platz","postalCode":"14552","locality":"Michendorf","municipality":{"key":"12069397","name":"Michendorf","type":"Kreisangehörige_Gemeinde"},"district":{"key":"12069","name":"Potsdam-Mittelmark","type":"Landkreis"},"federalState":{"key":"12","name":"Brandenburg"}},{"name":"Michendorfer Weg","postalCode":"14552","locality":"Michendorf","municipality":{"key":"12069397","name":"Michendorf","type":"Kreisangehörige_Gemeinde"},"district":{"key":"12069","name":"Potsdam-Mittelmark","type":"Landkreis"},"federalState":{"key":"12","name":"Brandenburg"}},{"name":"Mittelstr.","postalCode":"14552","locality":"Michendorf","municipality":{"key":"12069397","name":"Michendorf","type":"Kreisangehörige_Gemeinde"},"district":{"key":"12069","name":"Potsdam-Mittelmark","type":"Landkreis"},"federalState":{"key":"12","name":"Brandenburg"}},{"name":"Mittelweg","postalCode":"14552","locality":"Michendorf","municipality":{"key":"12069397","name":"Michendorf","type":"Kreisangehörige_Gemeinde"},"district":{"key":"12069","name":"Potsdam-Mittelmark","type":"Landkreis"},"federalState":{"key":"12","name":"Brandenburg"}},{"name":"Mühlenstr.","postalCode":"14552","locality":"Michendorf","municipality":{"key":"12069397","name":"Michendorf","type":"Kreisangehörige_Gemeinde"},"district":{"key":"12069","name":"Potsdam-Mittelmark","type":"Landkreis"},"federalState":{"key":"12","name":"Brandenburg"}},{"name":"Mühlenweg","postalCode":"14552","locality":"Michendorf","municipality":{"key":"12069397","name":"Michendorf","type":"Kreisangehörige_Gemeinde"},"district":{"key":"12069","name":"Potsdam-Mittelmark","type":"Landkreis"},"federalState":{"key":"12","name":"Brandenburg"}},{"name":"Nelkenweg","postalCode":"14552","locality":"Michendorf","municipality":{"key":"12069397","name":"Michendorf","type":"Kreisangehörige_Gemeinde"},"district":{"key":"12069","name":"Potsdam-Mittelmark","type":"Landkreis"},"federalState":{"key":"12","name":"Brandenburg"}},{"name":"Neu-Langerwisch","postalCode":"14552","locality":"Michendorf","municipality":{"key":"12069397","name":"Michendorf","type":"Kreisangehörige_Gemeinde"},"district":{"key":"12069","name":"Potsdam-Mittelmark","type":"Landkreis"},"federalState":{"key":"12","name":"Brandenburg"}},{"name":"Nussbaumweg","postalCode":"14552","locality":"Michendorf","municipality":{"key":"12069397","name":"Michendorf","type":"Kreisangehörige_Gemeinde"},"district":{"key":"12069","name":"Potsdam-Mittelmark","type":"Landkreis"},"federalState":{"key":"12","name":"Brandenburg"}},{"name":"Orionstr.","postalCode":"14552","locality":"Michendorf","municipality":{"key":"12069397","name":"Michendorf","type":"Kreisangehörige_Gemeinde"},"district":{"key":"12069","name":"Potsdam-Mittelmark","type":"Landkreis"},"federalState":{"key":"12","name":"Brandenburg"}},{"name":"Parkstr.","postalCode":"14552","locality":"Michendorf","municipality":{"key":"12069397","name":"Michendorf","type":"Kreisangehörige_Gemeinde"},"district":{"key":"12069","name":"Potsdam-Mittelmark","type":"Landkreis"},"federalState":{"key":"12","name":"Brandenburg"}},{"name":"Peter-Huchel-Chaussee","postalCode":"14552","locality":"Michendorf","municipality":{"key":"12069397","name":"Michendorf","type":"Kreisangehörige_Gemeinde"},"district":{"key":"12069","name":"Potsdam-Mittelmark","type":"Landkreis"},"federalState":{"key":"12","name":"Brandenburg"}},{"name":"Pferdesteig","postalCode":"14552","locality":"Michendorf","municipality":{"key":"12069397","name":"Michendorf","type":"Kreisangehörige_Gemeinde"},"district":{"key":"12069","name":"Potsdam-Mittelmark","type":"Landkreis"},"federalState":{"key":"12","name":"Brandenburg"}},{"name":"Poststr.","postalCode":"14552","locality":"Michendorf","municipality":{"key":"12069397","name":"Michendorf","type":"Kreisangehörige_Gemeinde"},"district":{"key":"12069","name":"Potsdam-Mittelmark","type":"Landkreis"},"federalState":{"key":"12","name":"Brandenburg"}},{"name":"Potsdamer Allee","postalCode":"14552","locality":"Michendorf","municipality":{"key":"12069397","name":"Michendorf","type":"Kreisangehörige_Gemeinde"},"district":{"key":"12069","name":"Potsdam-Mittelmark","type":"Landkreis"},"federalState":{"key":"12","name":"Brandenburg"}},{"name":"Potsdamer Str.","postalCode":"14552","locality":"Michendorf","municipality":{"key":"12069397","name":"Michendorf","type":"Kreisangehörige_Gemeinde"},"district":{"key":"12069","name":"Potsdam-Mittelmark","type":"Landkreis"},"federalState":{"key":"12","name":"Brandenburg"}},{"name":"Priesterweg","postalCode":"14552","locality":"Michendorf","municipality":{"key":"12069397","name":"Michendorf","type":"Kreisangehörige_Gemeinde"},"district":{"key":"12069","name":"Potsdam-Mittelmark","type":"Landkreis"},"federalState":{"key":"12","name":"Brandenburg"}},{"name":"Querstr.","postalCode":"14552","locality":"Michendorf","municipality":{"key":"12069397","name":"Michendorf","type":"Kreisangehörige_Gemeinde"},"district":{"key":"12069","name":"Potsdam-Mittelmark","type":"Landkreis"},"federalState":{"key":"12","name":"Brandenburg"}},{"name":"Ravensbergweg","postalCode":"14552","locality":"Michendorf","municipality":{"key":"12069397","name":"Michendorf","type":"Kreisangehörige_Gemeinde"},"district":{"key":"12069","name":"Potsdam-Mittelmark","type":"Landkreis"},"federalState":{"key":"12","name":"Brandenburg"}},{"name":"Rehsteig","postalCode":"14552","locality":"Michendorf","municipality":{"key":"12069397","name":"Michendorf","type":"Kreisangehörige_Gemeinde"},"district":{"key":"12069","name":"Potsdam-Mittelmark","type":"Landkreis"},"federalState":{"key":"12","name":"Brandenburg"}},{"name":"Reiherweg","postalCode":"14552","locality":"Michendorf","municipality":{"key":"12069397","name":"Michendorf","type":"Kreisangehörige_Gemeinde"},"district":{"key":"12069","name":"Potsdam-Mittelmark","type":"Landkreis"},"federalState":{"key":"12","name":"Brandenburg"}},{"name":"Rembrandtstr.","postalCode":"14552","locality":"Michendorf","municipality":{"key":"12069397","name":"Michendorf","type":"Kreisangehörige_Gemeinde"},"district":{"key":"12069","name":"Potsdam-Mittelmark","type":"Landkreis"},"federalState":{"key":"12","name":"Brandenburg"}},{"name":"Rennsteig","postalCode":"14552","locality":"Michendorf","municipality":{"key":"12069397","name":"Michendorf","type":"Kreisangehörige_Gemeinde"},"district":{"key":"12069","name":"Potsdam-Mittelmark","type":"Landkreis"},"federalState":{"key":"12","name":"Brandenburg"}},{"name":"Robinienallee","postalCode":"14552","locality":"Michendorf","municipality":{"key":"12069397","name":"Michendorf","type":"Kreisangehörige_Gemeinde"},"district":{"key":"12069","name":"Potsdam-Mittelmark","type":"Landkreis"},"federalState":{"key":"12","name":"Brandenburg"}},{"name":"Rosenweg","postalCode":"14552","locality":"Michendorf","municipality":{"key":"12069397","name":"Michendorf","type":"Kreisangehörige_Gemeinde"},"district":{"key":"12069","name":"Potsdam-Mittelmark","type":"Landkreis"},"federalState":{"key":"12","name":"Brandenburg"}},{"name":"Rotdornallee","postalCode":"14552","locality":"Michendorf","municipality":{"key":"12069397","name":"Michendorf","type":"Kreisangehörige_Gemeinde"},"district":{"key":"12069","name":"Potsdam-Mittelmark","type":"Landkreis"},"federalState":{"key":"12","name":"Brandenburg"}},{"name":"Rotdornweg","postalCode":"14552","locality":"Michendorf","municipality":{"key":"12069397","name":"Michendorf","type":"Kreisangehörige_Gemeinde"},"district":{"key":"12069","name":"Potsdam-Mittelmark","type":"Landkreis"},"federalState":{"key":"12","name":"Brandenburg"}},{"name":"Rotkehlchensteig","postalCode":"14552","locality":"Michendorf","municipality":{"key":"12069397","name":"Michendorf","type":"Kreisangehörige_Gemeinde"},"district":{"key":"12069","name":"Potsdam-Mittelmark","type":"Landkreis"},"federalState":{"key":"12","name":"Brandenburg"}},{"name":"Rubensstr.","postalCode":"14552","locality":"Michendorf","municipality":{"key":"12069397","name":"Michendorf","type":"Kreisangehörige_Gemeinde"},"district":{"key":"12069","name":"Potsdam-Mittelmark","type":"Landkreis"},"federalState":{"key":"12","name":"Brandenburg"}},{"name":"Rüsternallee","postalCode":"14552","locality":"Michendorf","municipality":{"key":"12069397","name":"Michendorf","type":"Kreisangehörige_Gemeinde"},"district":{"key":"12069","name":"Potsdam-Mittelmark","type":"Landkreis"},"federalState":{"key":"12","name":"Brandenburg"}},{"name":"Saarmunder Str.","postalCode":"14552","locality":"Michendorf","municipality":{"key":"12069397","name":"Michendorf","type":"Kreisangehörige_Gemeinde"},"district":{"key":"12069","name":"Potsdam-Mittelmark","type":"Landkreis"},"federalState":{"key":"12","name":"Brandenburg"}},{"name":"Saarmunder Weg","postalCode":"14552","locality":"Michendorf","municipality":{"key":"12069397","name":"Michendorf","type":"Kreisangehörige_Gemeinde"},"district":{"key":"12069","name":"Potsdam-Mittelmark","type":"Landkreis"},"federalState":{"key":"12","name":"Brandenburg"}},{"name":"Saugartengestell","postalCode":"14552","locality":"Michendorf","municipality":{"key":"12069397","name":"Michendorf","type":"Kreisangehörige_Gemeinde"},"district":{"key":"12069","name":"Potsdam-Mittelmark","type":"Landkreis"},"federalState":{"key":"12","name":"Brandenburg"}},{"name":"Schanzenweg","postalCode":"14552","locality":"Michendorf","municipality":{"key":"12069397","name":"Michendorf","type":"Kreisangehörige_Gemeinde"},"district":{"key":"12069","name":"Potsdam-Mittelmark","type":"Landkreis"},"federalState":{"key":"12","name":"Brandenburg"}},{"name":"Schmerberger Allee","postalCode":"14552","locality":"Michendorf","municipality":{"key":"12069397","name":"Michendorf","type":"Kreisangehörige_Gemeinde"},"district":{"key":"12069","name":"Potsdam-Mittelmark","type":"Landkreis"},"federalState":{"key":"12","name":"Brandenburg"}},{"name":"Schmerberger Str.","postalCode":"14552","locality":"Michendorf","municipality":{"key":"12069397","name":"Michendorf","type":"Kreisangehörige_Gemeinde"},"district":{"key":"12069","name":"Potsdam-Mittelmark","type":"Landkreis"},"federalState":{"key":"12","name":"Brandenburg"}},{"name":"Schulstr.","postalCode":"14552","locality":"Michendorf","municipality":{"key":"12069397","name":"Michendorf","type":"Kreisangehörige_Gemeinde"},"district":{"key":"12069","name":"Potsdam-Mittelmark","type":"Landkreis"},"federalState":{"key":"12","name":"Brandenburg"}},{"name":"Schwalbenweg","postalCode":"14552","locality":"Michendorf","municipality":{"key":"12069397","name":"Michendorf","type":"Kreisangehörige_Gemeinde"},"district":{"key":"12069","name":"Potsdam-Mittelmark","type":"Landkreis"},"federalState":{"key":"12","name":"Brandenburg"}},{"name":"Schwanensteig","postalCode":"14552","locality":"Michendorf","municipality":{"key":"12069397","name":"Michendorf","type":"Kreisangehörige_Gemeinde"},"district":{"key":"12069","name":"Potsdam-Mittelmark","type":"Landkreis"},"federalState":{"key":"12","name":"Brandenburg"}},{"name":"Seddiner Str.","postalCode":"14552","locality":"Michendorf","municipality":{"key":"12069397","name":"Michendorf","type":"Kreisangehörige_Gemeinde"},"district":{"key":"12069","name":"Potsdam-Mittelmark","type":"Landkreis"},"federalState":{"key":"12","name":"Brandenburg"}},{"name":"Starstr.","postalCode":"14552","locality":"Michendorf","municipality":{"key":"12069397","name":"Michendorf","type":"Kreisangehörige_Gemeinde"},"district":{"key":"12069","name":"Potsdam-Mittelmark","type":"Landkreis"},"federalState":{"key":"12","name":"Brandenburg"}},{"name":"Steinweg","postalCode":"14552","locality":"Michendorf","municipality":{"key":"12069397","name":"Michendorf","type":"Kreisangehörige_Gemeinde"},"district":{"key":"12069","name":"Potsdam-Mittelmark","type":"Landkreis"},"federalState":{"key":"12","name":"Brandenburg"}},{"name":"Stichweg","postalCode":"14552","locality":"Michendorf","municipality":{"key":"12069397","name":"Michendorf","type":"Kreisangehörige_Gemeinde"},"district":{"key":"12069","name":"Potsdam-Mittelmark","type":"Landkreis"},"federalState":{"key":"12","name":"Brandenburg"}},{"name":"Stieglitzweg","postalCode":"14552","locality":"Michendorf","municipality":{"key":"12069397","name":"Michendorf","type":"Kreisangehörige_Gemeinde"},"district":{"key":"12069","name":"Potsdam-Mittelmark","type":"Landkreis"},"federalState":{"key":"12","name":"Brandenburg"}},{"name":"Str. Am Sportplatz","postalCode":"14552","locality":"Michendorf","municipality":{"key":"12069397","name":"Michendorf","type":"Kreisangehörige_Gemeinde"},"district":{"key":"12069","name":"Potsdam-Mittelmark","type":"Landkreis"},"federalState":{"key":"12","name":"Brandenburg"}},{"name":"Str. des Friedens","postalCode":"14552","locality":"Michendorf","municipality":{"key":"12069397","name":"Michendorf","type":"Kreisangehörige_Gemeinde"},"district":{"key":"12069","name":"Potsdam-Mittelmark","type":"Landkreis"},"federalState":{"key":"12","name":"Brandenburg"}},{"name":"Stückener Dorfstr.","postalCode":"14552","locality":"Michendorf","municipality":{"key":"12069397","name":"Michendorf","type":"Kreisangehörige_Gemeinde"},"district":{"key":"12069","name":"Potsdam-Mittelmark","type":"Landkreis"},"federalState":{"key":"12","name":"Brandenburg"}},{"name":"Tannenhof","postalCode":"14552","locality":"Michendorf","municipality":{"key":"12069397","name":"Michendorf","type":"Kreisangehörige_Gemeinde"},"district":{"key":"12069","name":"Potsdam-Mittelmark","type":"Landkreis"},"federalState":{"key":"12","name":"Brandenburg"}},{"name":"Teltower Str.","postalCode":"14552","locality":"Michendorf","municipality":{"key":"12069397","name":"Michendorf","type":"Kreisangehörige_Gemeinde"},"district":{"key":"12069","name":"Potsdam-Mittelmark","type":"Landkreis"},"federalState":{"key":"12","name":"Brandenburg"}},{"name":"Theaterweg","postalCode":"14552","locality":"Michendorf","municipality":{"key":"12069397","name":"Michendorf","type":"Kreisangehörige_Gemeinde"},"district":{"key":"12069","name":"Potsdam-Mittelmark","type":"Landkreis"},"federalState":{"key":"12","name":"Brandenburg"}},{"name":"Tremsdorfer Str.","postalCode":"14552","locality":"Michendorf","municipality":{"key":"12069397","name":"Michendorf","type":"Kreisangehörige_Gemeinde"},"district":{"key":"12069","name":"Potsdam-Mittelmark","type":"Landkreis"},"federalState":{"key":"12","name":"Brandenburg"}},{"name":"Tremsdorfer Weg","postalCode":"14552","locality":"Michendorf","municipality":{"key":"12069397","name":"Michendorf","type":"Kreisangehörige_Gemeinde"},"district":{"key":"12069","name":"Potsdam-Mittelmark","type":"Landkreis"},"federalState":{"key":"12","name":"Brandenburg"}},{"name":"Tulpenweg","postalCode":"14552","locality":"Michendorf","municipality":{"key":"12069397","name":"Michendorf","type":"Kreisangehörige_Gemeinde"},"district":{"key":"12069","name":"Potsdam-Mittelmark","type":"Landkreis"},"federalState":{"key":"12","name":"Brandenburg"}},{"name":"Vogelsang","postalCode":"14552","locality":"Michendorf","municipality":{"key":"12069397","name":"Michendorf","type":"Kreisangehörige_Gemeinde"},"district":{"key":"12069","name":"Potsdam-Mittelmark","type":"Landkreis"},"federalState":{"key":"12","name":"Brandenburg"}},{"name":"Vogelweide","postalCode":"14552","locality":"Michendorf","municipality":{"key":"12069397","name":"Michendorf","type":"Kreisangehörige_Gemeinde"},"district":{"key":"12069","name":"Potsdam-Mittelmark","type":"Landkreis"},"federalState":{"key":"12","name":"Brandenburg"}},{"name":"Waldheimstr.","postalCode":"14552","locality":"Michendorf","municipality":{"key":"12069397","name":"Michendorf","type":"Kreisangehörige_Gemeinde"},"district":{"key":"12069","name":"Potsdam-Mittelmark","type":"Landkreis"},"federalState":{"key":"12","name":"Brandenburg"}},{"name":"Waldstr.","postalCode":"14552","locality":"Michendorf","municipality":{"key":"12069397","name":"Michendorf","type":"Kreisangehörige_Gemeinde"},"district":{"key":"12069","name":"Potsdam-Mittelmark","type":"Landkreis"},"federalState":{"key":"12","name":"Brandenburg"}},{"name":"Weg nach Caputh","postalCode":"14552","locality":"Michendorf","municipality":{"key":"12069397","name":"Michendorf","type":"Kreisangehörige_Gemeinde"},"district":{"key":"12069","name":"Potsdam-Mittelmark","type":"Landkreis"},"federalState":{"key":"12","name":"Brandenburg"}},{"name":"Weißdornallee","postalCode":"14552","locality":"Michendorf","municipality":{"key":"12069397","name":"Michendorf","type":"Kreisangehörige_Gemeinde"},"district":{"key":"12069","name":"Potsdam-Mittelmark","type":"Landkreis"},"federalState":{"key":"12","name":"Brandenburg"}},{"name":"Wieselweg","postalCode":"14552","locality":"Michendorf","municipality":{"key":"12069397","name":"Michendorf","type":"Kreisangehörige_Gemeinde"},"district":{"key":"12069","name":"Potsdam-Mittelmark","type":"Landkreis"},"federalState":{"key":"12","name":"Brandenburg"}},{"name":"Wiesenweg","postalCode":"14552","locality":"Michendorf","municipality":{"key":"12069397","name":"Michendorf","type":"Kreisangehörige_Gemeinde"},"district":{"key":"12069","name":"Potsdam-Mittelmark","type":"Landkreis"},"federalState":{"key":"12","name":"Brandenburg"}},{"name":"Wilhelm-Mühler-Platz","postalCode":"14552","locality":"Michendorf","municipality":{"key":"12069397","name":"Michendorf","type":"Kreisangehörige_Gemeinde"},"district":{"key":"12069","name":"Potsdam-Mittelmark","type":"Landkreis"},"federalState":{"key":"12","name":"Brandenburg"}},{"name":"Zauchwitzer Str.","postalCode":"14552","locality":"Michendorf","municipality":{"key":"12069397","name":"Michendorf","type":"Kreisangehörige_Gemeinde"},"district":{"key":"12069","name":"Potsdam-Mittelmark","type":"Landkreis"},"federalState":{"key":"12","name":"Brandenburg"}},{"name":"Zum Kreuzpfuhl","postalCode":"14552","locality":"Michendorf","municipality":{"key":"12069397","name":"Michendorf","type":"Kreisangehörige_Gemeinde"},"district":{"key":"12069","name":"Potsdam-Mittelmark","type":"Landkreis"},"federalState":{"key":"12","name":"Brandenburg"}},{"name":"Zum Weiher","postalCode":"14552","locality":"Michendorf","municipality":{"key":"12069397","name":"Michendorf","type":"Kreisangehörige_Gemeinde"},"district":{"key":"12069","name":"Potsdam-Mittelmark","type":"Landkreis"},"federalState":{"key":"12","name":"Brandenburg"}},{"name":"Zum Weinberg","postalCode":"14552","locality":"Michendorf","municipality":{"key":"12069397","name":"Michendorf","type":"Kreisangehörige_Gemeinde"},"district":{"key":"12069","name":"Potsdam-Mittelmark","type":"Landkreis"},"federalState":{"key":"12","name":"Brandenburg"}},{"name":"Zur Lehnmarke","postalCode":"14552","locality":"Michendorf","municipality":{"key":"12069397","name":"Michendorf","type":"Kreisangehörige_Gemeinde"},"district":{"key":"12069","name":"Potsdam-Mittelmark","type":"Landkreis"},"federalState":{"key":"12","name":"Brandenburg"}},{"name":"Zur Nachthütung","postalCode":"14552","locality":"Michendorf","municipality":{"key":"12069397","name":"Michendorf","type":"Kreisangehörige_Gemeinde"},"district":{"key":"12069","name":"Potsdam-Mittelmark","type":"Landkreis"},"federalState":{"key":"12","name":"Brandenburg"}},]