[{"name":"Adolf-Kolping-Str.","postalCode":"66583","locality":"Spiesen-Elversberg","municipality":{"key":"10043117","name":"Spiesen-Elversberg","type":"Kreisangehörige_Gemeinde"},"district":{"key":"10043","name":"Neunkirchen","type":"Landkreis"},"federalState":{"key":"10","name":"Saarland"}},{"name":"Albert-Einstein-Str.","postalCode":"66583","locality":"Spiesen-Elversberg","municipality":{"key":"10043117","name":"Spiesen-Elversberg","type":"Kreisangehörige_Gemeinde"},"district":{"key":"10043","name":"Neunkirchen","type":"Landkreis"},"federalState":{"key":"10","name":"Saarland"}},{"name":"Albert-Schweitzer-Str.","postalCode":"66583","locality":"Spiesen-Elversberg","municipality":{"key":"10043117","name":"Spiesen-Elversberg","type":"Kreisangehörige_Gemeinde"},"district":{"key":"10043","name":"Neunkirchen","type":"Landkreis"},"federalState":{"key":"10","name":"Saarland"}},{"name":"Alexanderstr.","postalCode":"66583","locality":"Spiesen-Elversberg","municipality":{"key":"10043117","name":"Spiesen-Elversberg","type":"Kreisangehörige_Gemeinde"},"district":{"key":"10043","name":"Neunkirchen","type":"Landkreis"},"federalState":{"key":"10","name":"Saarland"}},{"name":"Alte Gasse","postalCode":"66583","locality":"Spiesen-Elversberg","municipality":{"key":"10043117","name":"Spiesen-Elversberg","type":"Kreisangehörige_Gemeinde"},"district":{"key":"10043","name":"Neunkirchen","type":"Landkreis"},"federalState":{"key":"10","name":"Saarland"}},{"name":"Alter Markt","postalCode":"66583","locality":"Spiesen-Elversberg","municipality":{"key":"10043117","name":"Spiesen-Elversberg","type":"Kreisangehörige_Gemeinde"},"district":{"key":"10043","name":"Neunkirchen","type":"Landkreis"},"federalState":{"key":"10","name":"Saarland"}},{"name":"Am Beckerwald","postalCode":"66583","locality":"Spiesen-Elversberg","municipality":{"key":"10043117","name":"Spiesen-Elversberg","type":"Kreisangehörige_Gemeinde"},"district":{"key":"10043","name":"Neunkirchen","type":"Landkreis"},"federalState":{"key":"10","name":"Saarland"}},{"name":"Am Bergmannspfad","postalCode":"66583","locality":"Spiesen-Elversberg","municipality":{"key":"10043117","name":"Spiesen-Elversberg","type":"Kreisangehörige_Gemeinde"},"district":{"key":"10043","name":"Neunkirchen","type":"Landkreis"},"federalState":{"key":"10","name":"Saarland"}},{"name":"Am Europadorf","postalCode":"66583","locality":"Spiesen-Elversberg","municipality":{"key":"10043117","name":"Spiesen-Elversberg","type":"Kreisangehörige_Gemeinde"},"district":{"key":"10043","name":"Neunkirchen","type":"Landkreis"},"federalState":{"key":"10","name":"Saarland"}},{"name":"Am Freidelbrunnen","postalCode":"66583","locality":"Spiesen-Elversberg","municipality":{"key":"10043117","name":"Spiesen-Elversberg","type":"Kreisangehörige_Gemeinde"},"district":{"key":"10043","name":"Neunkirchen","type":"Landkreis"},"federalState":{"key":"10","name":"Saarland"}},{"name":"Am Friedhof","postalCode":"66583","locality":"Spiesen-Elversberg","municipality":{"key":"10043117","name":"Spiesen-Elversberg","type":"Kreisangehörige_Gemeinde"},"district":{"key":"10043","name":"Neunkirchen","type":"Landkreis"},"federalState":{"key":"10","name":"Saarland"}},{"name":"Am Kellerberg","postalCode":"66583","locality":"Spiesen-Elversberg","municipality":{"key":"10043117","name":"Spiesen-Elversberg","type":"Kreisangehörige_Gemeinde"},"district":{"key":"10043","name":"Neunkirchen","type":"Landkreis"},"federalState":{"key":"10","name":"Saarland"}},{"name":"Am Kirchenpfad","postalCode":"66583","locality":"Spiesen-Elversberg","municipality":{"key":"10043117","name":"Spiesen-Elversberg","type":"Kreisangehörige_Gemeinde"},"district":{"key":"10043","name":"Neunkirchen","type":"Landkreis"},"federalState":{"key":"10","name":"Saarland"}},{"name":"Am Köppchen","postalCode":"66583","locality":"Spiesen-Elversberg","municipality":{"key":"10043117","name":"Spiesen-Elversberg","type":"Kreisangehörige_Gemeinde"},"district":{"key":"10043","name":"Neunkirchen","type":"Landkreis"},"federalState":{"key":"10","name":"Saarland"}},{"name":"Am Marienwäldchen","postalCode":"66583","locality":"Spiesen-Elversberg","municipality":{"key":"10043117","name":"Spiesen-Elversberg","type":"Kreisangehörige_Gemeinde"},"district":{"key":"10043","name":"Neunkirchen","type":"Landkreis"},"federalState":{"key":"10","name":"Saarland"}},{"name":"Am Mittelberg","postalCode":"66583","locality":"Spiesen-Elversberg","municipality":{"key":"10043117","name":"Spiesen-Elversberg","type":"Kreisangehörige_Gemeinde"},"district":{"key":"10043","name":"Neunkirchen","type":"Landkreis"},"federalState":{"key":"10","name":"Saarland"}},{"name":"Am Ring","postalCode":"66583","locality":"Spiesen-Elversberg","municipality":{"key":"10043117","name":"Spiesen-Elversberg","type":"Kreisangehörige_Gemeinde"},"district":{"key":"10043","name":"Neunkirchen","type":"Landkreis"},"federalState":{"key":"10","name":"Saarland"}},{"name":"Am Schlößchen","postalCode":"66583","locality":"Spiesen-Elversberg","municipality":{"key":"10043117","name":"Spiesen-Elversberg","type":"Kreisangehörige_Gemeinde"},"district":{"key":"10043","name":"Neunkirchen","type":"Landkreis"},"federalState":{"key":"10","name":"Saarland"}},{"name":"Amselweg","postalCode":"66583","locality":"Spiesen-Elversberg","municipality":{"key":"10043117","name":"Spiesen-Elversberg","type":"Kreisangehörige_Gemeinde"},"district":{"key":"10043","name":"Neunkirchen","type":"Landkreis"},"federalState":{"key":"10","name":"Saarland"}},{"name":"Am Truckenbrunnen","postalCode":"66583","locality":"Spiesen-Elversberg","municipality":{"key":"10043117","name":"Spiesen-Elversberg","type":"Kreisangehörige_Gemeinde"},"district":{"key":"10043","name":"Neunkirchen","type":"Landkreis"},"federalState":{"key":"10","name":"Saarland"}},{"name":"Am Waldhaus","postalCode":"66583","locality":"Spiesen-Elversberg","municipality":{"key":"10043117","name":"Spiesen-Elversberg","type":"Kreisangehörige_Gemeinde"},"district":{"key":"10043","name":"Neunkirchen","type":"Landkreis"},"federalState":{"key":"10","name":"Saarland"}},{"name":"Am Wildbertsstock","postalCode":"66583","locality":"Spiesen-Elversberg","municipality":{"key":"10043117","name":"Spiesen-Elversberg","type":"Kreisangehörige_Gemeinde"},"district":{"key":"10043","name":"Neunkirchen","type":"Landkreis"},"federalState":{"key":"10","name":"Saarland"}},{"name":"Am Zankwald","postalCode":"66583","locality":"Spiesen-Elversberg","municipality":{"key":"10043117","name":"Spiesen-Elversberg","type":"Kreisangehörige_Gemeinde"},"district":{"key":"10043","name":"Neunkirchen","type":"Landkreis"},"federalState":{"key":"10","name":"Saarland"}},{"name":"An der Eisernen Brück","postalCode":"66583","locality":"Spiesen-Elversberg","municipality":{"key":"10043117","name":"Spiesen-Elversberg","type":"Kreisangehörige_Gemeinde"},"district":{"key":"10043","name":"Neunkirchen","type":"Landkreis"},"federalState":{"key":"10","name":"Saarland"}},{"name":"An der Turnhalle","postalCode":"66583","locality":"Spiesen-Elversberg","municipality":{"key":"10043117","name":"Spiesen-Elversberg","type":"Kreisangehörige_Gemeinde"},"district":{"key":"10043","name":"Neunkirchen","type":"Landkreis"},"federalState":{"key":"10","name":"Saarland"}},{"name":"Arndtstr.","postalCode":"66583","locality":"Spiesen-Elversberg","municipality":{"key":"10043117","name":"Spiesen-Elversberg","type":"Kreisangehörige_Gemeinde"},"district":{"key":"10043","name":"Neunkirchen","type":"Landkreis"},"federalState":{"key":"10","name":"Saarland"}},{"name":"Bachstr.","postalCode":"66583","locality":"Spiesen-Elversberg","municipality":{"key":"10043117","name":"Spiesen-Elversberg","type":"Kreisangehörige_Gemeinde"},"district":{"key":"10043","name":"Neunkirchen","type":"Landkreis"},"federalState":{"key":"10","name":"Saarland"}},{"name":"Beethovenstr.","postalCode":"66583","locality":"Spiesen-Elversberg","municipality":{"key":"10043117","name":"Spiesen-Elversberg","type":"Kreisangehörige_Gemeinde"},"district":{"key":"10043","name":"Neunkirchen","type":"Landkreis"},"federalState":{"key":"10","name":"Saarland"}},{"name":"Bethelstr.","postalCode":"66583","locality":"Spiesen-Elversberg","municipality":{"key":"10043117","name":"Spiesen-Elversberg","type":"Kreisangehörige_Gemeinde"},"district":{"key":"10043","name":"Neunkirchen","type":"Landkreis"},"federalState":{"key":"10","name":"Saarland"}},{"name":"Bismarckstr.","postalCode":"66583","locality":"Spiesen-Elversberg","municipality":{"key":"10043117","name":"Spiesen-Elversberg","type":"Kreisangehörige_Gemeinde"},"district":{"key":"10043","name":"Neunkirchen","type":"Landkreis"},"federalState":{"key":"10","name":"Saarland"}},{"name":"Blumenstr.","postalCode":"66583","locality":"Spiesen-Elversberg","municipality":{"key":"10043117","name":"Spiesen-Elversberg","type":"Kreisangehörige_Gemeinde"},"district":{"key":"10043","name":"Neunkirchen","type":"Landkreis"},"federalState":{"key":"10","name":"Saarland"}},{"name":"Brunnenstr.","postalCode":"66583","locality":"Spiesen-Elversberg","municipality":{"key":"10043117","name":"Spiesen-Elversberg","type":"Kreisangehörige_Gemeinde"},"district":{"key":"10043","name":"Neunkirchen","type":"Landkreis"},"federalState":{"key":"10","name":"Saarland"}},{"name":"Butterberg","postalCode":"66583","locality":"Spiesen-Elversberg","municipality":{"key":"10043117","name":"Spiesen-Elversberg","type":"Kreisangehörige_Gemeinde"},"district":{"key":"10043","name":"Neunkirchen","type":"Landkreis"},"federalState":{"key":"10","name":"Saarland"}},{"name":"Carl-Ferdinand-Str.","postalCode":"66538","locality":"Neunkirchen","municipality":{"key":"10043114","name":"Neunkirchen, Kreisstadt","type":"Stadt"},"district":{"key":"10043","name":"Neunkirchen","type":"Landkreis"},"federalState":{"key":"10","name":"Saarland"}},{"name":"Claudiusstr.","postalCode":"53819","locality":"Neunkirchen-Seelscheid","municipality":{"key":"05382040","name":"Neunkirchen-Seelscheid","type":"Kreisangehörige_Gemeinde"},"district":{"key":"05382","name":"Rhein-Sieg-Kreis","type":"Kreis"},"federalState":{"key":"05","name":"Nordrhein-Westfalen"}},{"name":"Drosselweg","postalCode":"66583","locality":"Spiesen-Elversberg","municipality":{"key":"10043117","name":"Spiesen-Elversberg","type":"Kreisangehörige_Gemeinde"},"district":{"key":"10043","name":"Neunkirchen","type":"Landkreis"},"federalState":{"key":"10","name":"Saarland"}},{"name":"Dr.Trittelvitzstr.","postalCode":"66583","locality":"Spiesen-Elversberg","municipality":{"key":"10043117","name":"Spiesen-Elversberg","type":"Kreisangehörige_Gemeinde"},"district":{"key":"10043","name":"Neunkirchen","type":"Landkreis"},"federalState":{"key":"10","name":"Saarland"}},{"name":"Eckstr.","postalCode":"66583","locality":"Spiesen-Elversberg","municipality":{"key":"10043117","name":"Spiesen-Elversberg","type":"Kreisangehörige_Gemeinde"},"district":{"key":"10043","name":"Neunkirchen","type":"Landkreis"},"federalState":{"key":"10","name":"Saarland"}},{"name":"Eichendorffstr.","postalCode":"66583","locality":"Spiesen-Elversberg","municipality":{"key":"10043117","name":"Spiesen-Elversberg","type":"Kreisangehörige_Gemeinde"},"district":{"key":"10043","name":"Neunkirchen","type":"Landkreis"},"federalState":{"key":"10","name":"Saarland"}},{"name":"Elisabethstr.","postalCode":"66583","locality":"Spiesen-Elversberg","municipality":{"key":"10043117","name":"Spiesen-Elversberg","type":"Kreisangehörige_Gemeinde"},"district":{"key":"10043","name":"Neunkirchen","type":"Landkreis"},"federalState":{"key":"10","name":"Saarland"}},{"name":"Elsterweg","postalCode":"66583","locality":"Spiesen-Elversberg","municipality":{"key":"10043117","name":"Spiesen-Elversberg","type":"Kreisangehörige_Gemeinde"},"district":{"key":"10043","name":"Neunkirchen","type":"Landkreis"},"federalState":{"key":"10","name":"Saarland"}},{"name":"Elversberger Str.","postalCode":"66583","locality":"Spiesen-Elversberg","municipality":{"key":"10043117","name":"Spiesen-Elversberg","type":"Kreisangehörige_Gemeinde"},"district":{"key":"10043","name":"Neunkirchen","type":"Landkreis"},"federalState":{"key":"10","name":"Saarland"}},{"name":"Erzpfuhlstr.","postalCode":"66583","locality":"Spiesen-Elversberg","municipality":{"key":"10043117","name":"Spiesen-Elversberg","type":"Kreisangehörige_Gemeinde"},"district":{"key":"10043","name":"Neunkirchen","type":"Landkreis"},"federalState":{"key":"10","name":"Saarland"}},{"name":"Fasanenweg","postalCode":"66583","locality":"Spiesen-Elversberg","municipality":{"key":"10043117","name":"Spiesen-Elversberg","type":"Kreisangehörige_Gemeinde"},"district":{"key":"10043","name":"Neunkirchen","type":"Landkreis"},"federalState":{"key":"10","name":"Saarland"}},{"name":"Felsweg","postalCode":"66583","locality":"Spiesen-Elversberg","municipality":{"key":"10043117","name":"Spiesen-Elversberg","type":"Kreisangehörige_Gemeinde"},"district":{"key":"10043","name":"Neunkirchen","type":"Landkreis"},"federalState":{"key":"10","name":"Saarland"}},{"name":"Fichtenstr.","postalCode":"66583","locality":"Spiesen-Elversberg","municipality":{"key":"10043117","name":"Spiesen-Elversberg","type":"Kreisangehörige_Gemeinde"},"district":{"key":"10043","name":"Neunkirchen","type":"Landkreis"},"federalState":{"key":"10","name":"Saarland"}},{"name":"Finkenweg","postalCode":"66583","locality":"Spiesen-Elversberg","municipality":{"key":"10043117","name":"Spiesen-Elversberg","type":"Kreisangehörige_Gemeinde"},"district":{"key":"10043","name":"Neunkirchen","type":"Landkreis"},"federalState":{"key":"10","name":"Saarland"}},{"name":"Forsthausstr.","postalCode":"66583","locality":"Spiesen-Elversberg","municipality":{"key":"10043117","name":"Spiesen-Elversberg","type":"Kreisangehörige_Gemeinde"},"district":{"key":"10043","name":"Neunkirchen","type":"Landkreis"},"federalState":{"key":"10","name":"Saarland"}},{"name":"Freiherr-vom-Stein-Str.","postalCode":"66583","locality":"Spiesen-Elversberg","municipality":{"key":"10043117","name":"Spiesen-Elversberg","type":"Kreisangehörige_Gemeinde"},"district":{"key":"10043","name":"Neunkirchen","type":"Landkreis"},"federalState":{"key":"10","name":"Saarland"}},{"name":"Friedhofstr.","postalCode":"66583","locality":"Spiesen-Elversberg","municipality":{"key":"10043117","name":"Spiesen-Elversberg","type":"Kreisangehörige_Gemeinde"},"district":{"key":"10043","name":"Neunkirchen","type":"Landkreis"},"federalState":{"key":"10","name":"Saarland"}},{"name":"Friedrichsthaler Str.","postalCode":"66583","locality":"Spiesen-Elversberg","municipality":{"key":"10043117","name":"Spiesen-Elversberg","type":"Kreisangehörige_Gemeinde"},"district":{"key":"10043","name":"Neunkirchen","type":"Landkreis"},"federalState":{"key":"10","name":"Saarland"}},{"name":"Friedrichstr.","postalCode":"66583","locality":"Spiesen-Elversberg","municipality":{"key":"10043117","name":"Spiesen-Elversberg","type":"Kreisangehörige_Gemeinde"},"district":{"key":"10043","name":"Neunkirchen","type":"Landkreis"},"federalState":{"key":"10","name":"Saarland"}},{"name":"Galgenbergstr.","postalCode":"66583","locality":"Spiesen-Elversberg","municipality":{"key":"10043117","name":"Spiesen-Elversberg","type":"Kreisangehörige_Gemeinde"},"district":{"key":"10043","name":"Neunkirchen","type":"Landkreis"},"federalState":{"key":"10","name":"Saarland"}},{"name":"Gänsberg","postalCode":"66583","locality":"Spiesen-Elversberg","municipality":{"key":"10043117","name":"Spiesen-Elversberg","type":"Kreisangehörige_Gemeinde"},"district":{"key":"10043","name":"Neunkirchen","type":"Landkreis"},"federalState":{"key":"10","name":"Saarland"}},{"name":"Gänselieselplatz","postalCode":"66583","locality":"Spiesen-Elversberg","municipality":{"key":"10043117","name":"Spiesen-Elversberg","type":"Kreisangehörige_Gemeinde"},"district":{"key":"10043","name":"Neunkirchen","type":"Landkreis"},"federalState":{"key":"10","name":"Saarland"}},{"name":"Gartenstr.","postalCode":"66583","locality":"Spiesen-Elversberg","municipality":{"key":"10043117","name":"Spiesen-Elversberg","type":"Kreisangehörige_Gemeinde"},"district":{"key":"10043","name":"Neunkirchen","type":"Landkreis"},"federalState":{"key":"10","name":"Saarland"}},{"name":"Gebr.-Grimm-Str.","postalCode":"66583","locality":"Spiesen-Elversberg","municipality":{"key":"10043117","name":"Spiesen-Elversberg","type":"Kreisangehörige_Gemeinde"},"district":{"key":"10043","name":"Neunkirchen","type":"Landkreis"},"federalState":{"key":"10","name":"Saarland"}},{"name":"Georg-Bauer-Str.","postalCode":"66583","locality":"Spiesen-Elversberg","municipality":{"key":"10043117","name":"Spiesen-Elversberg","type":"Kreisangehörige_Gemeinde"},"district":{"key":"10043","name":"Neunkirchen","type":"Landkreis"},"federalState":{"key":"10","name":"Saarland"}},{"name":"Gewerbepark","postalCode":"66583","locality":"Spiesen-Elversberg","municipality":{"key":"10043117","name":"Spiesen-Elversberg","type":"Kreisangehörige_Gemeinde"},"district":{"key":"10043","name":"Neunkirchen","type":"Landkreis"},"federalState":{"key":"10","name":"Saarland"}},{"name":"Glück-Auf-Str.","postalCode":"66583","locality":"Spiesen-Elversberg","municipality":{"key":"10043117","name":"Spiesen-Elversberg","type":"Kreisangehörige_Gemeinde"},"district":{"key":"10043","name":"Neunkirchen","type":"Landkreis"},"federalState":{"key":"10","name":"Saarland"}},{"name":"Goethestr.","postalCode":"66583","locality":"Spiesen-Elversberg","municipality":{"key":"10043117","name":"Spiesen-Elversberg","type":"Kreisangehörige_Gemeinde"},"district":{"key":"10043","name":"Neunkirchen","type":"Landkreis"},"federalState":{"key":"10","name":"Saarland"}},{"name":"Große Bergstr.","postalCode":"66583","locality":"Spiesen-Elversberg","municipality":{"key":"10043117","name":"Spiesen-Elversberg","type":"Kreisangehörige_Gemeinde"},"district":{"key":"10043","name":"Neunkirchen","type":"Landkreis"},"federalState":{"key":"10","name":"Saarland"}},{"name":"Grubenstr.","postalCode":"66583","locality":"Spiesen-Elversberg","municipality":{"key":"10043117","name":"Spiesen-Elversberg","type":"Kreisangehörige_Gemeinde"},"district":{"key":"10043","name":"Neunkirchen","type":"Landkreis"},"federalState":{"key":"10","name":"Saarland"}},{"name":"Grünewaldstr.","postalCode":"66583","locality":"Spiesen-Elversberg","municipality":{"key":"10043117","name":"Spiesen-Elversberg","type":"Kreisangehörige_Gemeinde"},"district":{"key":"10043","name":"Neunkirchen","type":"Landkreis"},"federalState":{"key":"10","name":"Saarland"}},{"name":"Hackenborner Trift","postalCode":"66583","locality":"Spiesen-Elversberg","municipality":{"key":"10043117","name":"Spiesen-Elversberg","type":"Kreisangehörige_Gemeinde"},"district":{"key":"10043","name":"Neunkirchen","type":"Landkreis"},"federalState":{"key":"10","name":"Saarland"}},{"name":"Hangweg","postalCode":"66583","locality":"Spiesen-Elversberg","municipality":{"key":"10043117","name":"Spiesen-Elversberg","type":"Kreisangehörige_Gemeinde"},"district":{"key":"10043","name":"Neunkirchen","type":"Landkreis"},"federalState":{"key":"10","name":"Saarland"}},{"name":"Hans-Sachs-Str.","postalCode":"66583","locality":"Spiesen-Elversberg","municipality":{"key":"10043117","name":"Spiesen-Elversberg","type":"Kreisangehörige_Gemeinde"},"district":{"key":"10043","name":"Neunkirchen","type":"Landkreis"},"federalState":{"key":"10","name":"Saarland"}},{"name":"Hauptstr.","postalCode":"66583","locality":"Spiesen-Elversberg","municipality":{"key":"10043117","name":"Spiesen-Elversberg","type":"Kreisangehörige_Gemeinde"},"district":{"key":"10043","name":"Neunkirchen","type":"Landkreis"},"federalState":{"key":"10","name":"Saarland"}},{"name":"Haydnstr.","postalCode":"66583","locality":"Spiesen-Elversberg","municipality":{"key":"10043117","name":"Spiesen-Elversberg","type":"Kreisangehörige_Gemeinde"},"district":{"key":"10043","name":"Neunkirchen","type":"Landkreis"},"federalState":{"key":"10","name":"Saarland"}},{"name":"Heinestr.","postalCode":"66583","locality":"Spiesen-Elversberg","municipality":{"key":"10043117","name":"Spiesen-Elversberg","type":"Kreisangehörige_Gemeinde"},"district":{"key":"10043","name":"Neunkirchen","type":"Landkreis"},"federalState":{"key":"10","name":"Saarland"}},{"name":"Heinitzer Str.","postalCode":"66583","locality":"Spiesen-Elversberg","municipality":{"key":"10043117","name":"Spiesen-Elversberg","type":"Kreisangehörige_Gemeinde"},"district":{"key":"10043","name":"Neunkirchen","type":"Landkreis"},"federalState":{"key":"10","name":"Saarland"}},{"name":"Heinitzstr.","postalCode":"66583","locality":"Spiesen-Elversberg","municipality":{"key":"10043117","name":"Spiesen-Elversberg","type":"Kreisangehörige_Gemeinde"},"district":{"key":"10043","name":"Neunkirchen","type":"Landkreis"},"federalState":{"key":"10","name":"Saarland"}},{"name":"Heinrichstr.","postalCode":"66583","locality":"Spiesen-Elversberg","municipality":{"key":"10043117","name":"Spiesen-Elversberg","type":"Kreisangehörige_Gemeinde"},"district":{"key":"10043","name":"Neunkirchen","type":"Landkreis"},"federalState":{"key":"10","name":"Saarland"}},{"name":"Herrenstr.","postalCode":"66583","locality":"Spiesen-Elversberg","municipality":{"key":"10043117","name":"Spiesen-Elversberg","type":"Kreisangehörige_Gemeinde"},"district":{"key":"10043","name":"Neunkirchen","type":"Landkreis"},"federalState":{"key":"10","name":"Saarland"}},{"name":"Heufahrtstr.","postalCode":"66583","locality":"Spiesen-Elversberg","municipality":{"key":"10043117","name":"Spiesen-Elversberg","type":"Kreisangehörige_Gemeinde"},"district":{"key":"10043","name":"Neunkirchen","type":"Landkreis"},"federalState":{"key":"10","name":"Saarland"}},{"name":"Hinrich-Wichern-Str.","postalCode":"66583","locality":"Spiesen-Elversberg","municipality":{"key":"10043117","name":"Spiesen-Elversberg","type":"Kreisangehörige_Gemeinde"},"district":{"key":"10043","name":"Neunkirchen","type":"Landkreis"},"federalState":{"key":"10","name":"Saarland"}},{"name":"Hirschbergstr.","postalCode":"66583","locality":"Spiesen-Elversberg","municipality":{"key":"10043117","name":"Spiesen-Elversberg","type":"Kreisangehörige_Gemeinde"},"district":{"key":"10043","name":"Neunkirchen","type":"Landkreis"},"federalState":{"key":"10","name":"Saarland"}},{"name":"Hochstr.","postalCode":"66583","locality":"Spiesen-Elversberg","municipality":{"key":"10043117","name":"Spiesen-Elversberg","type":"Kreisangehörige_Gemeinde"},"district":{"key":"10043","name":"Neunkirchen","type":"Landkreis"},"federalState":{"key":"10","name":"Saarland"}},{"name":"Hohlstr.","postalCode":"66583","locality":"Spiesen-Elversberg","municipality":{"key":"10043117","name":"Spiesen-Elversberg","type":"Kreisangehörige_Gemeinde"},"district":{"key":"10043","name":"Neunkirchen","type":"Landkreis"},"federalState":{"key":"10","name":"Saarland"}},{"name":"Holzgehäu","postalCode":"66583","locality":"Spiesen-Elversberg","municipality":{"key":"10043117","name":"Spiesen-Elversberg","type":"Kreisangehörige_Gemeinde"},"district":{"key":"10043","name":"Neunkirchen","type":"Landkreis"},"federalState":{"key":"10","name":"Saarland"}},{"name":"Hüttenstr.","postalCode":"66583","locality":"Spiesen-Elversberg","municipality":{"key":"10043117","name":"Spiesen-Elversberg","type":"Kreisangehörige_Gemeinde"},"district":{"key":"10043","name":"Neunkirchen","type":"Landkreis"},"federalState":{"key":"10","name":"Saarland"}},{"name":"Im Birkenstück","postalCode":"66583","locality":"Spiesen-Elversberg","municipality":{"key":"10043117","name":"Spiesen-Elversberg","type":"Kreisangehörige_Gemeinde"},"district":{"key":"10043","name":"Neunkirchen","type":"Landkreis"},"federalState":{"key":"10","name":"Saarland"}},{"name":"Im Eichenwald","postalCode":"66583","locality":"Spiesen-Elversberg","municipality":{"key":"10043117","name":"Spiesen-Elversberg","type":"Kreisangehörige_Gemeinde"},"district":{"key":"10043","name":"Neunkirchen","type":"Landkreis"},"federalState":{"key":"10","name":"Saarland"}},{"name":"Im Großenbruch","postalCode":"66583","locality":"Spiesen-Elversberg","municipality":{"key":"10043117","name":"Spiesen-Elversberg","type":"Kreisangehörige_Gemeinde"},"district":{"key":"10043","name":"Neunkirchen","type":"Landkreis"},"federalState":{"key":"10","name":"Saarland"}},{"name":"Im Kirchendick","postalCode":"66583","locality":"Spiesen-Elversberg","municipality":{"key":"10043117","name":"Spiesen-Elversberg","type":"Kreisangehörige_Gemeinde"},"district":{"key":"10043","name":"Neunkirchen","type":"Landkreis"},"federalState":{"key":"10","name":"Saarland"}},{"name":"Im Kircheneck","postalCode":"66583","locality":"Spiesen-Elversberg","municipality":{"key":"10043117","name":"Spiesen-Elversberg","type":"Kreisangehörige_Gemeinde"},"district":{"key":"10043","name":"Neunkirchen","type":"Landkreis"},"federalState":{"key":"10","name":"Saarland"}},{"name":"Im Roth","postalCode":"66583","locality":"Spiesen-Elversberg","municipality":{"key":"10043117","name":"Spiesen-Elversberg","type":"Kreisangehörige_Gemeinde"},"district":{"key":"10043","name":"Neunkirchen","type":"Landkreis"},"federalState":{"key":"10","name":"Saarland"}},{"name":"Im Wiesengrund","postalCode":"66583","locality":"Spiesen-Elversberg","municipality":{"key":"10043117","name":"Spiesen-Elversberg","type":"Kreisangehörige_Gemeinde"},"district":{"key":"10043","name":"Neunkirchen","type":"Landkreis"},"federalState":{"key":"10","name":"Saarland"}},{"name":"In der Dreispitz","postalCode":"66583","locality":"Spiesen-Elversberg","municipality":{"key":"10043117","name":"Spiesen-Elversberg","type":"Kreisangehörige_Gemeinde"},"district":{"key":"10043","name":"Neunkirchen","type":"Landkreis"},"federalState":{"key":"10","name":"Saarland"}},{"name":"In der Haberdell","postalCode":"66583","locality":"Spiesen-Elversberg","municipality":{"key":"10043117","name":"Spiesen-Elversberg","type":"Kreisangehörige_Gemeinde"},"district":{"key":"10043","name":"Neunkirchen","type":"Landkreis"},"federalState":{"key":"10","name":"Saarland"}},{"name":"In der Kirschenallee","postalCode":"66583","locality":"Spiesen-Elversberg","municipality":{"key":"10043117","name":"Spiesen-Elversberg","type":"Kreisangehörige_Gemeinde"},"district":{"key":"10043","name":"Neunkirchen","type":"Landkreis"},"federalState":{"key":"10","name":"Saarland"}},{"name":"In der Langdell","postalCode":"66583","locality":"Spiesen-Elversberg","municipality":{"key":"10043117","name":"Spiesen-Elversberg","type":"Kreisangehörige_Gemeinde"},"district":{"key":"10043","name":"Neunkirchen","type":"Landkreis"},"federalState":{"key":"10","name":"Saarland"}},{"name":"In der Sandgrube","postalCode":"66583","locality":"Spiesen-Elversberg","municipality":{"key":"10043117","name":"Spiesen-Elversberg","type":"Kreisangehörige_Gemeinde"},"district":{"key":"10043","name":"Neunkirchen","type":"Landkreis"},"federalState":{"key":"10","name":"Saarland"}},{"name":"Industriestr.","postalCode":"66583","locality":"Spiesen-Elversberg","municipality":{"key":"10043117","name":"Spiesen-Elversberg","type":"Kreisangehörige_Gemeinde"},"district":{"key":"10043","name":"Neunkirchen","type":"Landkreis"},"federalState":{"key":"10","name":"Saarland"}},{"name":"Jahnstr.","postalCode":"66583","locality":"Spiesen-Elversberg","municipality":{"key":"10043117","name":"Spiesen-Elversberg","type":"Kreisangehörige_Gemeinde"},"district":{"key":"10043","name":"Neunkirchen","type":"Landkreis"},"federalState":{"key":"10","name":"Saarland"}},{"name":"Jakobstr.","postalCode":"66583","locality":"Spiesen-Elversberg","municipality":{"key":"10043117","name":"Spiesen-Elversberg","type":"Kreisangehörige_Gemeinde"},"district":{"key":"10043","name":"Neunkirchen","type":"Landkreis"},"federalState":{"key":"10","name":"Saarland"}},{"name":"Josefstr.","postalCode":"66583","locality":"Spiesen-Elversberg","municipality":{"key":"10043117","name":"Spiesen-Elversberg","type":"Kreisangehörige_Gemeinde"},"district":{"key":"10043","name":"Neunkirchen","type":"Landkreis"},"federalState":{"key":"10","name":"Saarland"}},{"name":"Karl-May-Weg","postalCode":"66583","locality":"Spiesen-Elversberg","municipality":{"key":"10043117","name":"Spiesen-Elversberg","type":"Kreisangehörige_Gemeinde"},"district":{"key":"10043","name":"Neunkirchen","type":"Landkreis"},"federalState":{"key":"10","name":"Saarland"}},{"name":"Karlstr.","postalCode":"66583","locality":"Spiesen-Elversberg","municipality":{"key":"10043117","name":"Spiesen-Elversberg","type":"Kreisangehörige_Gemeinde"},"district":{"key":"10043","name":"Neunkirchen","type":"Landkreis"},"federalState":{"key":"10","name":"Saarland"}},{"name":"Kettelerstr.","postalCode":"66583","locality":"Spiesen-Elversberg","municipality":{"key":"10043117","name":"Spiesen-Elversberg","type":"Kreisangehörige_Gemeinde"},"district":{"key":"10043","name":"Neunkirchen","type":"Landkreis"},"federalState":{"key":"10","name":"Saarland"}},{"name":"Kiefernweg","postalCode":"66583","locality":"Spiesen-Elversberg","municipality":{"key":"10043117","name":"Spiesen-Elversberg","type":"Kreisangehörige_Gemeinde"},"district":{"key":"10043","name":"Neunkirchen","type":"Landkreis"},"federalState":{"key":"10","name":"Saarland"}},{"name":"Kleine Bergstr.","postalCode":"66583","locality":"Spiesen-Elversberg","municipality":{"key":"10043117","name":"Spiesen-Elversberg","type":"Kreisangehörige_Gemeinde"},"district":{"key":"10043","name":"Neunkirchen","type":"Landkreis"},"federalState":{"key":"10","name":"Saarland"}},{"name":"Kleiststr.","postalCode":"66583","locality":"Spiesen-Elversberg","municipality":{"key":"10043117","name":"Spiesen-Elversberg","type":"Kreisangehörige_Gemeinde"},"district":{"key":"10043","name":"Neunkirchen","type":"Landkreis"},"federalState":{"key":"10","name":"Saarland"}},{"name":"Knappenstr.","postalCode":"66583","locality":"Spiesen-Elversberg","municipality":{"key":"10043117","name":"Spiesen-Elversberg","type":"Kreisangehörige_Gemeinde"},"district":{"key":"10043","name":"Neunkirchen","type":"Landkreis"},"federalState":{"key":"10","name":"Saarland"}},{"name":"Leibnizstr.","postalCode":"66583","locality":"Spiesen-Elversberg","municipality":{"key":"10043117","name":"Spiesen-Elversberg","type":"Kreisangehörige_Gemeinde"},"district":{"key":"10043","name":"Neunkirchen","type":"Landkreis"},"federalState":{"key":"10","name":"Saarland"}},{"name":"Lessingstr.","postalCode":"66583","locality":"Spiesen-Elversberg","municipality":{"key":"10043117","name":"Spiesen-Elversberg","type":"Kreisangehörige_Gemeinde"},"district":{"key":"10043","name":"Neunkirchen","type":"Landkreis"},"federalState":{"key":"10","name":"Saarland"}},{"name":"Lindenstr.","postalCode":"66583","locality":"Spiesen-Elversberg","municipality":{"key":"10043117","name":"Spiesen-Elversberg","type":"Kreisangehörige_Gemeinde"},"district":{"key":"10043","name":"Neunkirchen","type":"Landkreis"},"federalState":{"key":"10","name":"Saarland"}},{"name":"Löwenstr.","postalCode":"66583","locality":"Spiesen-Elversberg","municipality":{"key":"10043117","name":"Spiesen-Elversberg","type":"Kreisangehörige_Gemeinde"},"district":{"key":"10043","name":"Neunkirchen","type":"Landkreis"},"federalState":{"key":"10","name":"Saarland"}},{"name":"Ludwigstr.","postalCode":"66583","locality":"Spiesen-Elversberg","municipality":{"key":"10043117","name":"Spiesen-Elversberg","type":"Kreisangehörige_Gemeinde"},"district":{"key":"10043","name":"Neunkirchen","type":"Landkreis"},"federalState":{"key":"10","name":"Saarland"}},{"name":"Luisenstr.","postalCode":"66583","locality":"Spiesen-Elversberg","municipality":{"key":"10043117","name":"Spiesen-Elversberg","type":"Kreisangehörige_Gemeinde"},"district":{"key":"10043","name":"Neunkirchen","type":"Landkreis"},"federalState":{"key":"10","name":"Saarland"}},{"name":"Marktstr.","postalCode":"66583","locality":"Spiesen-Elversberg","municipality":{"key":"10043117","name":"Spiesen-Elversberg","type":"Kreisangehörige_Gemeinde"},"district":{"key":"10043","name":"Neunkirchen","type":"Landkreis"},"federalState":{"key":"10","name":"Saarland"}},{"name":"Martin-Luther-Str.","postalCode":"66583","locality":"Spiesen-Elversberg","municipality":{"key":"10043117","name":"Spiesen-Elversberg","type":"Kreisangehörige_Gemeinde"},"district":{"key":"10043","name":"Neunkirchen","type":"Landkreis"},"federalState":{"key":"10","name":"Saarland"}},{"name":"Max-Planck-Str.","postalCode":"66583","locality":"Spiesen-Elversberg","municipality":{"key":"10043117","name":"Spiesen-Elversberg","type":"Kreisangehörige_Gemeinde"},"district":{"key":"10043","name":"Neunkirchen","type":"Landkreis"},"federalState":{"key":"10","name":"Saarland"}},{"name":"Meisenweg","postalCode":"66583","locality":"Spiesen-Elversberg","municipality":{"key":"10043117","name":"Spiesen-Elversberg","type":"Kreisangehörige_Gemeinde"},"district":{"key":"10043","name":"Neunkirchen","type":"Landkreis"},"federalState":{"key":"10","name":"Saarland"}},{"name":"Mörikestr.","postalCode":"66583","locality":"Spiesen-Elversberg","municipality":{"key":"10043117","name":"Spiesen-Elversberg","type":"Kreisangehörige_Gemeinde"},"district":{"key":"10043","name":"Neunkirchen","type":"Landkreis"},"federalState":{"key":"10","name":"Saarland"}},{"name":"Mozartstr.","postalCode":"66583","locality":"Spiesen-Elversberg","municipality":{"key":"10043117","name":"Spiesen-Elversberg","type":"Kreisangehörige_Gemeinde"},"district":{"key":"10043","name":"Neunkirchen","type":"Landkreis"},"federalState":{"key":"10","name":"Saarland"}},{"name":"Mühlentalblick","postalCode":"66583","locality":"Spiesen-Elversberg","municipality":{"key":"10043117","name":"Spiesen-Elversberg","type":"Kreisangehörige_Gemeinde"},"district":{"key":"10043","name":"Neunkirchen","type":"Landkreis"},"federalState":{"key":"10","name":"Saarland"}},{"name":"Mutterbachweg","postalCode":"66583","locality":"Spiesen-Elversberg","municipality":{"key":"10043117","name":"Spiesen-Elversberg","type":"Kreisangehörige_Gemeinde"},"district":{"key":"10043","name":"Neunkirchen","type":"Landkreis"},"federalState":{"key":"10","name":"Saarland"}},{"name":"Nachtigallenweg","postalCode":"66583","locality":"Spiesen-Elversberg","municipality":{"key":"10043117","name":"Spiesen-Elversberg","type":"Kreisangehörige_Gemeinde"},"district":{"key":"10043","name":"Neunkirchen","type":"Landkreis"},"federalState":{"key":"10","name":"Saarland"}},{"name":"Neunkircher Str.","postalCode":"66583","locality":"Spiesen-Elversberg","municipality":{"key":"10043117","name":"Spiesen-Elversberg","type":"Kreisangehörige_Gemeinde"},"district":{"key":"10043","name":"Neunkirchen","type":"Landkreis"},"federalState":{"key":"10","name":"Saarland"}},{"name":"Neustr.","postalCode":"66583","locality":"Spiesen-Elversberg","municipality":{"key":"10043117","name":"Spiesen-Elversberg","type":"Kreisangehörige_Gemeinde"},"district":{"key":"10043","name":"Neunkirchen","type":"Landkreis"},"federalState":{"key":"10","name":"Saarland"}},{"name":"Oben am Godtal","postalCode":"66540","locality":"Neunkirchen","municipality":{"key":"10043114","name":"Neunkirchen, Kreisstadt","type":"Stadt"},"district":{"key":"10043","name":"Neunkirchen","type":"Landkreis"},"federalState":{"key":"10","name":"Saarland"}},{"name":"Oberdorst","postalCode":"53819","locality":"Neunkirchen-Seelscheid","municipality":{"key":"05382040","name":"Neunkirchen-Seelscheid","type":"Kreisangehörige_Gemeinde"},"district":{"key":"05382","name":"Rhein-Sieg-Kreis","type":"Kreis"},"federalState":{"key":"05","name":"Nordrhein-Westfalen"}},{"name":"Oberdorster Str.","postalCode":"53819","locality":"Neunkirchen-Seelscheid","municipality":{"key":"05382040","name":"Neunkirchen-Seelscheid","type":"Kreisangehörige_Gemeinde"},"district":{"key":"05382","name":"Rhein-Sieg-Kreis","type":"Kreis"},"federalState":{"key":"05","name":"Nordrhein-Westfalen"}},{"name":"Obere Daadenbach","postalCode":"57290","locality":"Neunkirchen","municipality":{"key":"05970036","name":"Neunkirchen","type":"Kreisangehörige_Gemeinde"},"district":{"key":"05970","name":"Siegen-Wittgenstein","type":"Kreis"},"federalState":{"key":"05","name":"Nordrhein-Westfalen"}},{"name":"Obere Gasse","postalCode":"53819","locality":"Neunkirchen-Seelscheid","municipality":{"key":"05382040","name":"Neunkirchen-Seelscheid","type":"Kreisangehörige_Gemeinde"},"district":{"key":"05382","name":"Rhein-Sieg-Kreis","type":"Kreis"},"federalState":{"key":"05","name":"Nordrhein-Westfalen"}},{"name":"Obere Kirchbergstr.","postalCode":"57290","locality":"Neunkirchen","municipality":{"key":"05970036","name":"Neunkirchen","type":"Kreisangehörige_Gemeinde"},"district":{"key":"05970","name":"Siegen-Wittgenstein","type":"Kreis"},"federalState":{"key":"05","name":"Nordrhein-Westfalen"}},{"name":"Obere Liebach","postalCode":"57290","locality":"Neunkirchen","municipality":{"key":"05970036","name":"Neunkirchen","type":"Kreisangehörige_Gemeinde"},"district":{"key":"05970","name":"Siegen-Wittgenstein","type":"Kreis"},"federalState":{"key":"05","name":"Nordrhein-Westfalen"}},{"name":"Obere Reihe","postalCode":"57290","locality":"Neunkirchen","municipality":{"key":"05970036","name":"Neunkirchen","type":"Kreisangehörige_Gemeinde"},"district":{"key":"05970","name":"Siegen-Wittgenstein","type":"Kreis"},"federalState":{"key":"05","name":"Nordrhein-Westfalen"}},{"name":"Oberer Friedhofsweg","postalCode":"66538","locality":"Neunkirchen","municipality":{"key":"10043114","name":"Neunkirchen, Kreisstadt","type":"Stadt"},"district":{"key":"10043","name":"Neunkirchen","type":"Landkreis"},"federalState":{"key":"10","name":"Saarland"}},{"name":"Oberer Grenzweg","postalCode":"91077","locality":"Neunkirchen a.Brand","municipality":{"key":"09474154","name":"Neunkirchen a.Brand, M","type":"Markt"},"district":{"key":"09474","name":"Forchheim","type":"Landkreis"},"federalState":{"key":"09","name":"Bayern"}},{"name":"Oberer Illsbergweg","postalCode":"74867","locality":"Neunkirchen","municipality":{"key":"08225068","name":"Neunkirchen","type":"Kreisangehörige_Gemeinde"},"district":{"key":"08225","name":"Neckar-Odenwald-Kreis","type":"Landkreis"},"federalState":{"key":"08","name":"Baden-Württemberg"}},{"name":"Oberer Markt","postalCode":"66538","locality":"Neunkirchen","municipality":{"key":"10043114","name":"Neunkirchen, Kreisstadt","type":"Stadt"},"district":{"key":"10043","name":"Neunkirchen","type":"Landkreis"},"federalState":{"key":"10","name":"Saarland"}},{"name":"Oberer Pfad","postalCode":"57290","locality":"Neunkirchen","municipality":{"key":"05970036","name":"Neunkirchen","type":"Kreisangehörige_Gemeinde"},"district":{"key":"05970","name":"Siegen-Wittgenstein","type":"Kreis"},"federalState":{"key":"05","name":"Nordrhein-Westfalen"}},{"name":"Oberes Gerstenfeld","postalCode":"57290","locality":"Neunkirchen","municipality":{"key":"05970036","name":"Neunkirchen","type":"Kreisangehörige_Gemeinde"},"district":{"key":"05970","name":"Siegen-Wittgenstein","type":"Kreis"},"federalState":{"key":"05","name":"Nordrhein-Westfalen"}},{"name":"Obere Stautenbergstr.","postalCode":"57290","locality":"Neunkirchen","municipality":{"key":"05970036","name":"Neunkirchen","type":"Kreisangehörige_Gemeinde"},"district":{"key":"05970","name":"Siegen-Wittgenstein","type":"Kreis"},"federalState":{"key":"05","name":"Nordrhein-Westfalen"}},{"name":"Oberhorbacher Str.","postalCode":"53819","locality":"Neunkirchen-Seelscheid","municipality":{"key":"05382040","name":"Neunkirchen-Seelscheid","type":"Kreisangehörige_Gemeinde"},"district":{"key":"05382","name":"Rhein-Sieg-Kreis","type":"Kreis"},"federalState":{"key":"05","name":"Nordrhein-Westfalen"}},{"name":"Oberndorfer Str.","postalCode":"91233","locality":"Neunkirchen a. Sand","municipality":{"key":"09574141","name":"Neunkirchen a.Sand","type":"Kreisangehörige_Gemeinde"},"district":{"key":"09574","name":"Nürnberger Land","type":"Landkreis"},"federalState":{"key":"09","name":"Bayern"}},{"name":"Oberstr.","postalCode":"57290","locality":"Neunkirchen","municipality":{"key":"05970036","name":"Neunkirchen","type":"Kreisangehörige_Gemeinde"},"district":{"key":"05970","name":"Siegen-Wittgenstein","type":"Kreis"},"federalState":{"key":"05","name":"Nordrhein-Westfalen"}},{"name":"Odenwaldstr.","postalCode":"63930","locality":"Neunkirchen","municipality":{"key":"09676143","name":"Neunkirchen","type":"Kreisangehörige_Gemeinde"},"district":{"key":"09676","name":"Miltenberg","type":"Landkreis"},"federalState":{"key":"09","name":"Bayern"}},{"name":"Offermannstr.","postalCode":"66540","locality":"Neunkirchen","municipality":{"key":"10043114","name":"Neunkirchen, Kreisstadt","type":"Stadt"},"district":{"key":"10043","name":"Neunkirchen","type":"Landkreis"},"federalState":{"key":"10","name":"Saarland"}},{"name":"Ohlenhohnstr.","postalCode":"53819","locality":"Neunkirchen-Seelscheid","municipality":{"key":"05382040","name":"Neunkirchen-Seelscheid","type":"Kreisangehörige_Gemeinde"},"district":{"key":"05382","name":"Rhein-Sieg-Kreis","type":"Kreis"},"federalState":{"key":"05","name":"Nordrhein-Westfalen"}},{"name":"Ohlertstr.","postalCode":"53819","locality":"Neunkirchen-Seelscheid","municipality":{"key":"05382040","name":"Neunkirchen-Seelscheid","type":"Kreisangehörige_Gemeinde"},"district":{"key":"05382","name":"Rhein-Sieg-Kreis","type":"Kreis"},"federalState":{"key":"05","name":"Nordrhein-Westfalen"}},{"name":"Oranienstr.","postalCode":"57290","locality":"Neunkirchen","municipality":{"key":"05970036","name":"Neunkirchen","type":"Kreisangehörige_Gemeinde"},"district":{"key":"05970","name":"Siegen-Wittgenstein","type":"Kreis"},"federalState":{"key":"05","name":"Nordrhein-Westfalen"}},{"name":"Ortsbitze","postalCode":"53819","locality":"Neunkirchen-Seelscheid","municipality":{"key":"05382040","name":"Neunkirchen-Seelscheid","type":"Kreisangehörige_Gemeinde"},"district":{"key":"05382","name":"Rhein-Sieg-Kreis","type":"Kreis"},"federalState":{"key":"05","name":"Nordrhein-Westfalen"}},{"name":"Ortsgarten","postalCode":"53819","locality":"Neunkirchen-Seelscheid","municipality":{"key":"05382040","name":"Neunkirchen-Seelscheid","type":"Kreisangehörige_Gemeinde"},"district":{"key":"05382","name":"Rhein-Sieg-Kreis","type":"Kreis"},"federalState":{"key":"05","name":"Nordrhein-Westfalen"}},{"name":"Ostendstr.","postalCode":"91233","locality":"Neunkirchen a. Sand","municipality":{"key":"09574141","name":"Neunkirchen a.Sand","type":"Kreisangehörige_Gemeinde"},"district":{"key":"09574","name":"Nürnberger Land","type":"Landkreis"},"federalState":{"key":"09","name":"Bayern"}},{"name":"Ostertalstr.","postalCode":"66540","locality":"Neunkirchen","municipality":{"key":"10043114","name":"Neunkirchen, Kreisstadt","type":"Stadt"},"district":{"key":"10043","name":"Neunkirchen","type":"Landkreis"},"federalState":{"key":"10","name":"Saarland"}},{"name":"Ostpreußenweg","postalCode":"66540","locality":"Neunkirchen","municipality":{"key":"10043114","name":"Neunkirchen, Kreisstadt","type":"Stadt"},"district":{"key":"10043","name":"Neunkirchen","type":"Landkreis"},"federalState":{"key":"10","name":"Saarland"}},{"name":"Oststr.","postalCode":"66538","locality":"Neunkirchen","municipality":{"key":"10043114","name":"Neunkirchen, Kreisstadt","type":"Stadt"},"district":{"key":"10043","name":"Neunkirchen","type":"Landkreis"},"federalState":{"key":"10","name":"Saarland"}},{"name":"Ottensooser Weg","postalCode":"91233","locality":"Neunkirchen a. Sand","municipality":{"key":"09574141","name":"Neunkirchen a.Sand","type":"Kreisangehörige_Gemeinde"},"district":{"key":"09574","name":"Nürnberger Land","type":"Landkreis"},"federalState":{"key":"09","name":"Bayern"}},{"name":"Ottweilerstr.","postalCode":"66540","locality":"Neunkirchen","municipality":{"key":"10043114","name":"Neunkirchen, Kreisstadt","type":"Stadt"},"district":{"key":"10043","name":"Neunkirchen","type":"Landkreis"},"federalState":{"key":"10","name":"Saarland"}},{"name":"Ouessantschafe","postalCode":"66538","locality":"Neunkirchen","municipality":{"key":"10043114","name":"Neunkirchen, Kreisstadt","type":"Stadt"},"district":{"key":"10043","name":"Neunkirchen","type":"Landkreis"},"federalState":{"key":"10","name":"Saarland"}},{"name":"Overather Str.","postalCode":"53819","locality":"Neunkirchen-Seelscheid","municipality":{"key":"05382040","name":"Neunkirchen-Seelscheid","type":"Kreisangehörige_Gemeinde"},"district":{"key":"05382","name":"Rhein-Sieg-Kreis","type":"Kreis"},"federalState":{"key":"05","name":"Nordrhein-Westfalen"}},{"name":"Parallelstr.","postalCode":"66583","locality":"Spiesen-Elversberg","municipality":{"key":"10043117","name":"Spiesen-Elversberg","type":"Kreisangehörige_Gemeinde"},"district":{"key":"10043","name":"Neunkirchen","type":"Landkreis"},"federalState":{"key":"10","name":"Saarland"}},{"name":"Pasteurstr.","postalCode":"66583","locality":"Spiesen-Elversberg","municipality":{"key":"10043117","name":"Spiesen-Elversberg","type":"Kreisangehörige_Gemeinde"},"district":{"key":"10043","name":"Neunkirchen","type":"Landkreis"},"federalState":{"key":"10","name":"Saarland"}},{"name":"Pastor-Kollmann-Str.","postalCode":"66583","locality":"Spiesen-Elversberg","municipality":{"key":"10043117","name":"Spiesen-Elversberg","type":"Kreisangehörige_Gemeinde"},"district":{"key":"10043","name":"Neunkirchen","type":"Landkreis"},"federalState":{"key":"10","name":"Saarland"}},{"name":"Paulstr.","postalCode":"66583","locality":"Spiesen-Elversberg","municipality":{"key":"10043117","name":"Spiesen-Elversberg","type":"Kreisangehörige_Gemeinde"},"district":{"key":"10043","name":"Neunkirchen","type":"Landkreis"},"federalState":{"key":"10","name":"Saarland"}},{"name":"Pestalozzistr.","postalCode":"66583","locality":"Spiesen-Elversberg","municipality":{"key":"10043117","name":"Spiesen-Elversberg","type":"Kreisangehörige_Gemeinde"},"district":{"key":"10043","name":"Neunkirchen","type":"Landkreis"},"federalState":{"key":"10","name":"Saarland"}},{"name":"Peterstr.","postalCode":"66583","locality":"Spiesen-Elversberg","municipality":{"key":"10043117","name":"Spiesen-Elversberg","type":"Kreisangehörige_Gemeinde"},"district":{"key":"10043","name":"Neunkirchen","type":"Landkreis"},"federalState":{"key":"10","name":"Saarland"}},{"name":"Pfarrer-Ries-Str.","postalCode":"66583","locality":"Spiesen-Elversberg","municipality":{"key":"10043117","name":"Spiesen-Elversberg","type":"Kreisangehörige_Gemeinde"},"district":{"key":"10043","name":"Neunkirchen","type":"Landkreis"},"federalState":{"key":"10","name":"Saarland"}},{"name":"Poststr.","postalCode":"66583","locality":"Spiesen-Elversberg","municipality":{"key":"10043117","name":"Spiesen-Elversberg","type":"Kreisangehörige_Gemeinde"},"district":{"key":"10043","name":"Neunkirchen","type":"Landkreis"},"federalState":{"key":"10","name":"Saarland"}},{"name":"Querstr.","postalCode":"66583","locality":"Spiesen-Elversberg","municipality":{"key":"10043117","name":"Spiesen-Elversberg","type":"Kreisangehörige_Gemeinde"},"district":{"key":"10043","name":"Neunkirchen","type":"Landkreis"},"federalState":{"key":"10","name":"Saarland"}},{"name":"Rathausstr.","postalCode":"66583","locality":"Spiesen-Elversberg","municipality":{"key":"10043117","name":"Spiesen-Elversberg","type":"Kreisangehörige_Gemeinde"},"district":{"key":"10043","name":"Neunkirchen","type":"Landkreis"},"federalState":{"key":"10","name":"Saarland"}},{"name":"Richard-Wagner-Str.","postalCode":"66583","locality":"Spiesen-Elversberg","municipality":{"key":"10043117","name":"Spiesen-Elversberg","type":"Kreisangehörige_Gemeinde"},"district":{"key":"10043","name":"Neunkirchen","type":"Landkreis"},"federalState":{"key":"10","name":"Saarland"}},{"name":"Rilkestr.","postalCode":"66583","locality":"Spiesen-Elversberg","municipality":{"key":"10043117","name":"Spiesen-Elversberg","type":"Kreisangehörige_Gemeinde"},"district":{"key":"10043","name":"Neunkirchen","type":"Landkreis"},"federalState":{"key":"10","name":"Saarland"}},{"name":"Robert-Koch-Str.","postalCode":"66583","locality":"Spiesen-Elversberg","municipality":{"key":"10043117","name":"Spiesen-Elversberg","type":"Kreisangehörige_Gemeinde"},"district":{"key":"10043","name":"Neunkirchen","type":"Landkreis"},"federalState":{"key":"10","name":"Saarland"}},{"name":"Rohrbacher Str.","postalCode":"66583","locality":"Spiesen-Elversberg","municipality":{"key":"10043117","name":"Spiesen-Elversberg","type":"Kreisangehörige_Gemeinde"},"district":{"key":"10043","name":"Neunkirchen","type":"Landkreis"},"federalState":{"key":"10","name":"Saarland"}},{"name":"Römerweg","postalCode":"66583","locality":"Spiesen-Elversberg","municipality":{"key":"10043117","name":"Spiesen-Elversberg","type":"Kreisangehörige_Gemeinde"},"district":{"key":"10043","name":"Neunkirchen","type":"Landkreis"},"federalState":{"key":"10","name":"Saarland"}},{"name":"Rosengarten","postalCode":"66583","locality":"Spiesen-Elversberg","municipality":{"key":"10043117","name":"Spiesen-Elversberg","type":"Kreisangehörige_Gemeinde"},"district":{"key":"10043","name":"Neunkirchen","type":"Landkreis"},"federalState":{"key":"10","name":"Saarland"}},{"name":"Rosenweg","postalCode":"66583","locality":"Spiesen-Elversberg","municipality":{"key":"10043117","name":"Spiesen-Elversberg","type":"Kreisangehörige_Gemeinde"},"district":{"key":"10043","name":"Neunkirchen","type":"Landkreis"},"federalState":{"key":"10","name":"Saarland"}},{"name":"Ruhbachstr.","postalCode":"66583","locality":"Spiesen-Elversberg","municipality":{"key":"10043117","name":"Spiesen-Elversberg","type":"Kreisangehörige_Gemeinde"},"district":{"key":"10043","name":"Neunkirchen","type":"Landkreis"},"federalState":{"key":"10","name":"Saarland"}},{"name":"Sandweg","postalCode":"66583","locality":"Spiesen-Elversberg","municipality":{"key":"10043117","name":"Spiesen-Elversberg","type":"Kreisangehörige_Gemeinde"},"district":{"key":"10043","name":"Neunkirchen","type":"Landkreis"},"federalState":{"key":"10","name":"Saarland"}},{"name":"Schillerstr.","postalCode":"66583","locality":"Spiesen-Elversberg","municipality":{"key":"10043117","name":"Spiesen-Elversberg","type":"Kreisangehörige_Gemeinde"},"district":{"key":"10043","name":"Neunkirchen","type":"Landkreis"},"federalState":{"key":"10","name":"Saarland"}},{"name":"Schmalwiese","postalCode":"66583","locality":"Spiesen-Elversberg","municipality":{"key":"10043117","name":"Spiesen-Elversberg","type":"Kreisangehörige_Gemeinde"},"district":{"key":"10043","name":"Neunkirchen","type":"Landkreis"},"federalState":{"key":"10","name":"Saarland"}},{"name":"Schubertstr.","postalCode":"66583","locality":"Spiesen-Elversberg","municipality":{"key":"10043117","name":"Spiesen-Elversberg","type":"Kreisangehörige_Gemeinde"},"district":{"key":"10043","name":"Neunkirchen","type":"Landkreis"},"federalState":{"key":"10","name":"Saarland"}},{"name":"Schulstr.","postalCode":"66583","locality":"Spiesen-Elversberg","municipality":{"key":"10043117","name":"Spiesen-Elversberg","type":"Kreisangehörige_Gemeinde"},"district":{"key":"10043","name":"Neunkirchen","type":"Landkreis"},"federalState":{"key":"10","name":"Saarland"}},{"name":"Schwalbenweg","postalCode":"66583","locality":"Spiesen-Elversberg","municipality":{"key":"10043117","name":"Spiesen-Elversberg","type":"Kreisangehörige_Gemeinde"},"district":{"key":"10043","name":"Neunkirchen","type":"Landkreis"},"federalState":{"key":"10","name":"Saarland"}},{"name":"Sonnenring","postalCode":"66583","locality":"Spiesen-Elversberg","municipality":{"key":"10043117","name":"Spiesen-Elversberg","type":"Kreisangehörige_Gemeinde"},"district":{"key":"10043","name":"Neunkirchen","type":"Landkreis"},"federalState":{"key":"10","name":"Saarland"}},{"name":"Spiesermühle","postalCode":"66583","locality":"Spiesen-Elversberg","municipality":{"key":"10043117","name":"Spiesen-Elversberg","type":"Kreisangehörige_Gemeinde"},"district":{"key":"10043","name":"Neunkirchen","type":"Landkreis"},"federalState":{"key":"10","name":"Saarland"}},{"name":"Spieser Str.","postalCode":"66583","locality":"Spiesen-Elversberg","municipality":{"key":"10043117","name":"Spiesen-Elversberg","type":"Kreisangehörige_Gemeinde"},"district":{"key":"10043","name":"Neunkirchen","type":"Landkreis"},"federalState":{"key":"10","name":"Saarland"}},{"name":"Sportplatzstr.","postalCode":"66583","locality":"Spiesen-Elversberg","municipality":{"key":"10043117","name":"Spiesen-Elversberg","type":"Kreisangehörige_Gemeinde"},"district":{"key":"10043","name":"Neunkirchen","type":"Landkreis"},"federalState":{"key":"10","name":"Saarland"}},{"name":"Starenweg","postalCode":"66583","locality":"Spiesen-Elversberg","municipality":{"key":"10043117","name":"Spiesen-Elversberg","type":"Kreisangehörige_Gemeinde"},"district":{"key":"10043","name":"Neunkirchen","type":"Landkreis"},"federalState":{"key":"10","name":"Saarland"}},{"name":"St.Ingberter Str.","postalCode":"66583","locality":"Spiesen-Elversberg","municipality":{"key":"10043117","name":"Spiesen-Elversberg","type":"Kreisangehörige_Gemeinde"},"district":{"key":"10043","name":"Neunkirchen","type":"Landkreis"},"federalState":{"key":"10","name":"Saarland"}},{"name":"Tannenweg","postalCode":"66583","locality":"Spiesen-Elversberg","municipality":{"key":"10043117","name":"Spiesen-Elversberg","type":"Kreisangehörige_Gemeinde"},"district":{"key":"10043","name":"Neunkirchen","type":"Landkreis"},"federalState":{"key":"10","name":"Saarland"}},{"name":"Thomas-Mann-Str.","postalCode":"66583","locality":"Spiesen-Elversberg","municipality":{"key":"10043117","name":"Spiesen-Elversberg","type":"Kreisangehörige_Gemeinde"},"district":{"key":"10043","name":"Neunkirchen","type":"Landkreis"},"federalState":{"key":"10","name":"Saarland"}},{"name":"Uhlandstr.","postalCode":"66583","locality":"Spiesen-Elversberg","municipality":{"key":"10043117","name":"Spiesen-Elversberg","type":"Kreisangehörige_Gemeinde"},"district":{"key":"10043","name":"Neunkirchen","type":"Landkreis"},"federalState":{"key":"10","name":"Saarland"}},{"name":"Unterm Hungerpfuhl","postalCode":"66583","locality":"Spiesen-Elversberg","municipality":{"key":"10043117","name":"Spiesen-Elversberg","type":"Kreisangehörige_Gemeinde"},"district":{"key":"10043","name":"Neunkirchen","type":"Landkreis"},"federalState":{"key":"10","name":"Saarland"}},{"name":"van-Kinsbergen-Ring","postalCode":"57290","locality":"Neunkirchen","municipality":{"key":"05970036","name":"Neunkirchen","type":"Kreisangehörige_Gemeinde"},"district":{"key":"05970","name":"Siegen-Wittgenstein","type":"Kreis"},"federalState":{"key":"05","name":"Nordrhein-Westfalen"}},{"name":"Veilchenweg","postalCode":"53819","locality":"Neunkirchen-Seelscheid","municipality":{"key":"05382040","name":"Neunkirchen-Seelscheid","type":"Kreisangehörige_Gemeinde"},"district":{"key":"05382","name":"Rhein-Sieg-Kreis","type":"Kreis"},"federalState":{"key":"05","name":"Nordrhein-Westfalen"}},{"name":"Veilchenweg","postalCode":"66540","locality":"Neunkirchen","municipality":{"key":"10043114","name":"Neunkirchen, Kreisstadt","type":"Stadt"},"district":{"key":"10043","name":"Neunkirchen","type":"Landkreis"},"federalState":{"key":"10","name":"Saarland"}},{"name":"Verdistr.","postalCode":"66540","locality":"Neunkirchen","municipality":{"key":"10043114","name":"Neunkirchen, Kreisstadt","type":"Stadt"},"district":{"key":"10043","name":"Neunkirchen","type":"Landkreis"},"federalState":{"key":"10","name":"Saarland"}},{"name":"Viehgasse","postalCode":"53819","locality":"Neunkirchen-Seelscheid","municipality":{"key":"05382040","name":"Neunkirchen-Seelscheid","type":"Kreisangehörige_Gemeinde"},"district":{"key":"05382","name":"Rhein-Sieg-Kreis","type":"Kreis"},"federalState":{"key":"05","name":"Nordrhein-Westfalen"}},{"name":"Viehtrift","postalCode":"53819","locality":"Neunkirchen-Seelscheid","municipality":{"key":"05382040","name":"Neunkirchen-Seelscheid","type":"Kreisangehörige_Gemeinde"},"district":{"key":"05382","name":"Rhein-Sieg-Kreis","type":"Kreis"},"federalState":{"key":"05","name":"Nordrhein-Westfalen"}},{"name":"Vietnam-Sikahirsche","postalCode":"66538","locality":"Neunkirchen","municipality":{"key":"10043114","name":"Neunkirchen, Kreisstadt","type":"Stadt"},"district":{"key":"10043","name":"Neunkirchen","type":"Landkreis"},"federalState":{"key":"10","name":"Saarland"}},{"name":"Viktor-von-Scheffel-Str.","postalCode":"91077","locality":"Neunkirchen a.Brand","municipality":{"key":"09474154","name":"Neunkirchen a.Brand, M","type":"Markt"},"district":{"key":"09474","name":"Forchheim","type":"Landkreis"},"federalState":{"key":"09","name":"Bayern"}},{"name":"Vogelsangstr.","postalCode":"53819","locality":"Neunkirchen-Seelscheid","municipality":{"key":"05382040","name":"Neunkirchen-Seelscheid","type":"Kreisangehörige_Gemeinde"},"district":{"key":"05382","name":"Rhein-Sieg-Kreis","type":"Kreis"},"federalState":{"key":"05","name":"Nordrhein-Westfalen"}},{"name":"Vogelschlagstr.","postalCode":"66538","locality":"Neunkirchen","municipality":{"key":"10043114","name":"Neunkirchen, Kreisstadt","type":"Stadt"},"district":{"key":"10043","name":"Neunkirchen","type":"Landkreis"},"federalState":{"key":"10","name":"Saarland"}},{"name":"Vogelstr.","postalCode":"66538","locality":"Neunkirchen","municipality":{"key":"10043114","name":"Neunkirchen, Kreisstadt","type":"Stadt"},"district":{"key":"10043","name":"Neunkirchen","type":"Landkreis"},"federalState":{"key":"10","name":"Saarland"}},{"name":"Volkerstal","postalCode":"66539","locality":"Neunkirchen","municipality":{"key":"10043114","name":"Neunkirchen, Kreisstadt","type":"Stadt"},"district":{"key":"10043","name":"Neunkirchen","type":"Landkreis"},"federalState":{"key":"10","name":"Saarland"}},{"name":"Von-Egloffstein-Str.","postalCode":"91077","locality":"Neunkirchen a.Brand","municipality":{"key":"09474154","name":"Neunkirchen a.Brand, M","type":"Markt"},"district":{"key":"09474","name":"Forchheim","type":"Landkreis"},"federalState":{"key":"09","name":"Bayern"}},{"name":"Von-Hirschberg-Str.","postalCode":"91077","locality":"Neunkirchen a.Brand","municipality":{"key":"09474154","name":"Neunkirchen a.Brand, M","type":"Markt"},"district":{"key":"09474","name":"Forchheim","type":"Landkreis"},"federalState":{"key":"09","name":"Bayern"}},{"name":"Von-Kleist-Weg","postalCode":"57290","locality":"Neunkirchen","municipality":{"key":"05970036","name":"Neunkirchen","type":"Kreisangehörige_Gemeinde"},"district":{"key":"05970","name":"Siegen-Wittgenstein","type":"Kreis"},"federalState":{"key":"05","name":"Nordrhein-Westfalen"}},{"name":"Von-Pechmann-Str.","postalCode":"91077","locality":"Neunkirchen a.Brand","municipality":{"key":"09474154","name":"Neunkirchen a.Brand, M","type":"Markt"},"district":{"key":"09474","name":"Forchheim","type":"Landkreis"},"federalState":{"key":"09","name":"Bayern"}},{"name":"Von-Roenne-Str.","postalCode":"66540","locality":"Neunkirchen","municipality":{"key":"10043114","name":"Neunkirchen, Kreisstadt","type":"Stadt"},"district":{"key":"10043","name":"Neunkirchen","type":"Landkreis"},"federalState":{"key":"10","name":"Saarland"}},{"name":"Von-Stieber-Str.","postalCode":"91077","locality":"Neunkirchen a.Brand","municipality":{"key":"09474154","name":"Neunkirchen a.Brand, M","type":"Markt"},"district":{"key":"09474","name":"Forchheim","type":"Landkreis"},"federalState":{"key":"09","name":"Bayern"}},{"name":"Vor dem Berge","postalCode":"57290","locality":"Neunkirchen","municipality":{"key":"05970036","name":"Neunkirchen","type":"Kreisangehörige_Gemeinde"},"district":{"key":"05970","name":"Siegen-Wittgenstein","type":"Kreis"},"federalState":{"key":"05","name":"Nordrhein-Westfalen"}},{"name":"Vor dem Heidenkopf","postalCode":"66539","locality":"Neunkirchen","municipality":{"key":"10043114","name":"Neunkirchen, Kreisstadt","type":"Stadt"},"district":{"key":"10043","name":"Neunkirchen","type":"Landkreis"},"federalState":{"key":"10","name":"Saarland"}},{"name":"Vor dem Lieh","postalCode":"56479","locality":"Neunkirchen","municipality":{"key":"07143271","name":"Neunkirchen","type":"Kreisangehörige_Gemeinde"},"district":{"key":"07143","name":"Westerwaldkreis","type":"Landkreis"},"federalState":{"key":"07","name":"Rheinland-Pfalz"}},{"name":"Vor dem Schwarzenkopf","postalCode":"66539","locality":"Neunkirchen","municipality":{"key":"10043114","name":"Neunkirchen, Kreisstadt","type":"Stadt"},"district":{"key":"10043","name":"Neunkirchen","type":"Landkreis"},"federalState":{"key":"10","name":"Saarland"}},{"name":"Vorderer Grund","postalCode":"74867","locality":"Neunkirchen","municipality":{"key":"08225068","name":"Neunkirchen","type":"Kreisangehörige_Gemeinde"},"district":{"key":"08225","name":"Neckar-Odenwald-Kreis","type":"Landkreis"},"federalState":{"key":"08","name":"Baden-Württemberg"}},{"name":"Vor Seiters","postalCode":"66540","locality":"Neunkirchen","municipality":{"key":"10043114","name":"Neunkirchen, Kreisstadt","type":"Stadt"},"district":{"key":"10043","name":"Neunkirchen","type":"Landkreis"},"federalState":{"key":"10","name":"Saarland"}},{"name":"Vossbitze","postalCode":"53819","locality":"Neunkirchen-Seelscheid","municipality":{"key":"05382040","name":"Neunkirchen-Seelscheid","type":"Kreisangehörige_Gemeinde"},"district":{"key":"05382","name":"Rhein-Sieg-Kreis","type":"Kreis"},"federalState":{"key":"05","name":"Nordrhein-Westfalen"}},{"name":"Waldstr.","postalCode":"66583","locality":"Spiesen-Elversberg","municipality":{"key":"10043117","name":"Spiesen-Elversberg","type":"Kreisangehörige_Gemeinde"},"district":{"key":"10043","name":"Neunkirchen","type":"Landkreis"},"federalState":{"key":"10","name":"Saarland"}},{"name":"Weiherweg","postalCode":"66583","locality":"Spiesen-Elversberg","municipality":{"key":"10043117","name":"Spiesen-Elversberg","type":"Kreisangehörige_Gemeinde"},"district":{"key":"10043","name":"Neunkirchen","type":"Landkreis"},"federalState":{"key":"10","name":"Saarland"}},{"name":"Weilerbachstr.","postalCode":"66583","locality":"Spiesen-Elversberg","municipality":{"key":"10043117","name":"Spiesen-Elversberg","type":"Kreisangehörige_Gemeinde"},"district":{"key":"10043","name":"Neunkirchen","type":"Landkreis"},"federalState":{"key":"10","name":"Saarland"}},{"name":"Wiesenweg","postalCode":"66583","locality":"Spiesen-Elversberg","municipality":{"key":"10043117","name":"Spiesen-Elversberg","type":"Kreisangehörige_Gemeinde"},"district":{"key":"10043","name":"Neunkirchen","type":"Landkreis"},"federalState":{"key":"10","name":"Saarland"}},{"name":"Wilhelm-Busch-Str.","postalCode":"66583","locality":"Spiesen-Elversberg","municipality":{"key":"10043117","name":"Spiesen-Elversberg","type":"Kreisangehörige_Gemeinde"},"district":{"key":"10043","name":"Neunkirchen","type":"Landkreis"},"federalState":{"key":"10","name":"Saarland"}},{"name":"Wilhelmstr.","postalCode":"66583","locality":"Spiesen-Elversberg","municipality":{"key":"10043117","name":"Spiesen-Elversberg","type":"Kreisangehörige_Gemeinde"},"district":{"key":"10043","name":"Neunkirchen","type":"Landkreis"},"federalState":{"key":"10","name":"Saarland"}},{"name":"Willi-Neu-Ring","postalCode":"66583","locality":"Spiesen-Elversberg","municipality":{"key":"10043117","name":"Spiesen-Elversberg","type":"Kreisangehörige_Gemeinde"},"district":{"key":"10043","name":"Neunkirchen","type":"Landkreis"},"federalState":{"key":"10","name":"Saarland"}},{"name":"Zum Brünnchen","postalCode":"66583","locality":"Spiesen-Elversberg","municipality":{"key":"10043117","name":"Spiesen-Elversberg","type":"Kreisangehörige_Gemeinde"},"district":{"key":"10043","name":"Neunkirchen","type":"Landkreis"},"federalState":{"key":"10","name":"Saarland"}},{"name":"Zum Obstgarten","postalCode":"66583","locality":"Spiesen-Elversberg","municipality":{"key":"10043117","name":"Spiesen-Elversberg","type":"Kreisangehörige_Gemeinde"},"district":{"key":"10043","name":"Neunkirchen","type":"Landkreis"},"federalState":{"key":"10","name":"Saarland"}},{"name":"Zum Rödgestal","postalCode":"66583","locality":"Spiesen-Elversberg","municipality":{"key":"10043117","name":"Spiesen-Elversberg","type":"Kreisangehörige_Gemeinde"},"district":{"key":"10043","name":"Neunkirchen","type":"Landkreis"},"federalState":{"key":"10","name":"Saarland"}},{"name":"Zum Spitzen Stein","postalCode":"66583","locality":"Spiesen-Elversberg","municipality":{"key":"10043117","name":"Spiesen-Elversberg","type":"Kreisangehörige_Gemeinde"},"district":{"key":"10043","name":"Neunkirchen","type":"Landkreis"},"federalState":{"key":"10","name":"Saarland"}},{"name":"Zum Turm","postalCode":"66583","locality":"Spiesen-Elversberg","municipality":{"key":"10043117","name":"Spiesen-Elversberg","type":"Kreisangehörige_Gemeinde"},"district":{"key":"10043","name":"Neunkirchen","type":"Landkreis"},"federalState":{"key":"10","name":"Saarland"}},{"name":"Zur Bayrischen Grenze","postalCode":"66583","locality":"Spiesen-Elversberg","municipality":{"key":"10043117","name":"Spiesen-Elversberg","type":"Kreisangehörige_Gemeinde"},"district":{"key":"10043","name":"Neunkirchen","type":"Landkreis"},"federalState":{"key":"10","name":"Saarland"}},{"name":"Äußerer Markt","postalCode":"91077","locality":"Neunkirchen a.Brand","municipality":{"key":"09474154","name":"Neunkirchen a.Brand, M","type":"Markt"},"district":{"key":"09474","name":"Forchheim","type":"Landkreis"},"federalState":{"key":"09","name":"Bayern"}},{"name":"Ölbergstr.","postalCode":"53819","locality":"Neunkirchen-Seelscheid","municipality":{"key":"05382040","name":"Neunkirchen-Seelscheid","type":"Kreisangehörige_Gemeinde"},"district":{"key":"05382","name":"Rhein-Sieg-Kreis","type":"Kreis"},"federalState":{"key":"05","name":"Nordrhein-Westfalen"}},{"name":"Überdorfer Weg","postalCode":"53819","locality":"Neunkirchen-Seelscheid","municipality":{"key":"05382040","name":"Neunkirchen-Seelscheid","type":"Kreisangehörige_Gemeinde"},"district":{"key":"05382","name":"Rhein-Sieg-Kreis","type":"Kreis"},"federalState":{"key":"05","name":"Nordrhein-Westfalen"}},]