[{"name":"Alter Weg","postalCode":"56767","locality":"Kaperich","municipality":{"key":"07233217","name":"Kaperich","type":"Kreisangehörige_Gemeinde"},"district":{"key":"07233","name":"Vulkaneifel","type":"Landkreis"},"federalState":{"key":"07","name":"Rheinland-Pfalz"}},{"name":"Am Berg","postalCode":"56767","locality":"Kaperich","municipality":{"key":"07233217","name":"Kaperich","type":"Kreisangehörige_Gemeinde"},"district":{"key":"07233","name":"Vulkaneifel","type":"Landkreis"},"federalState":{"key":"07","name":"Rheinland-Pfalz"}},{"name":"Gartenstr.","postalCode":"56767","locality":"Kaperich","municipality":{"key":"07233217","name":"Kaperich","type":"Kreisangehörige_Gemeinde"},"district":{"key":"07233","name":"Vulkaneifel","type":"Landkreis"},"federalState":{"key":"07","name":"Rheinland-Pfalz"}},{"name":"Hauptstr.","postalCode":"56767","locality":"Kaperich","municipality":{"key":"07233217","name":"Kaperich","type":"Kreisangehörige_Gemeinde"},"district":{"key":"07233","name":"Vulkaneifel","type":"Landkreis"},"federalState":{"key":"07","name":"Rheinland-Pfalz"}},{"name":"Hochstr.","postalCode":"56767","locality":"Kaperich","municipality":{"key":"07233217","name":"Kaperich","type":"Kreisangehörige_Gemeinde"},"district":{"key":"07233","name":"Vulkaneifel","type":"Landkreis"},"federalState":{"key":"07","name":"Rheinland-Pfalz"}},{"name":"Im Robig","postalCode":"56767","locality":"Kaperich","municipality":{"key":"07233217","name":"Kaperich","type":"Kreisangehörige_Gemeinde"},"district":{"key":"07233","name":"Vulkaneifel","type":"Landkreis"},"federalState":{"key":"07","name":"Rheinland-Pfalz"}},{"name":"Kirchweg","postalCode":"56767","locality":"Kaperich","municipality":{"key":"07233217","name":"Kaperich","type":"Kreisangehörige_Gemeinde"},"district":{"key":"07233","name":"Vulkaneifel","type":"Landkreis"},"federalState":{"key":"07","name":"Rheinland-Pfalz"}},{"name":"Kölnische Höfe","postalCode":"56767","locality":"Kaperich","municipality":{"key":"07233217","name":"Kaperich","type":"Kreisangehörige_Gemeinde"},"district":{"key":"07233","name":"Vulkaneifel","type":"Landkreis"},"federalState":{"key":"07","name":"Rheinland-Pfalz"}},{"name":"Leimplatz","postalCode":"56767","locality":"Kaperich","municipality":{"key":"07233217","name":"Kaperich","type":"Kreisangehörige_Gemeinde"},"district":{"key":"07233","name":"Vulkaneifel","type":"Landkreis"},"federalState":{"key":"07","name":"Rheinland-Pfalz"}},{"name":"Lindenstr.","postalCode":"56767","locality":"Kaperich","municipality":{"key":"07233217","name":"Kaperich","type":"Kreisangehörige_Gemeinde"},"district":{"key":"07233","name":"Vulkaneifel","type":"Landkreis"},"federalState":{"key":"07","name":"Rheinland-Pfalz"}},{"name":"Ringstr.","postalCode":"56767","locality":"Kaperich","municipality":{"key":"07233217","name":"Kaperich","type":"Kreisangehörige_Gemeinde"},"district":{"key":"07233","name":"Vulkaneifel","type":"Landkreis"},"federalState":{"key":"07","name":"Rheinland-Pfalz"}},{"name":"Schuleplan","postalCode":"56767","locality":"Kaperich","municipality":{"key":"07233217","name":"Kaperich","type":"Kreisangehörige_Gemeinde"},"district":{"key":"07233","name":"Vulkaneifel","type":"Landkreis"},"federalState":{"key":"07","name":"Rheinland-Pfalz"}},]