[{"name":"Achtern Hoff","postalCode":"23623","locality":"Ahrensbök","municipality":{"key":"01055001","name":"Ahrensbök","type":"Kreisangehörige_Gemeinde"},"district":{"key":"01055","name":"Ostholstein","type":"Kreis"},"federalState":{"key":"01","name":"Schleswig-Holstein"}},{"name":"Ahrensböker Str.","postalCode":"23623","locality":"Ahrensbök","municipality":{"key":"01055001","name":"Ahrensbök","type":"Kreisangehörige_Gemeinde"},"district":{"key":"01055","name":"Ostholstein","type":"Kreis"},"federalState":{"key":"01","name":"Schleswig-Holstein"}},{"name":"Am Bach","postalCode":"23623","locality":"Ahrensbök","municipality":{"key":"01055001","name":"Ahrensbök","type":"Kreisangehörige_Gemeinde"},"district":{"key":"01055","name":"Ostholstein","type":"Kreis"},"federalState":{"key":"01","name":"Schleswig-Holstein"}},{"name":"Am Flachsacker","postalCode":"23623","locality":"Ahrensbök","municipality":{"key":"01055001","name":"Ahrensbök","type":"Kreisangehörige_Gemeinde"},"district":{"key":"01055","name":"Ostholstein","type":"Kreis"},"federalState":{"key":"01","name":"Schleswig-Holstein"}},{"name":"Am Hang","postalCode":"23623","locality":"Ahrensbök","municipality":{"key":"01055001","name":"Ahrensbök","type":"Kreisangehörige_Gemeinde"},"district":{"key":"01055","name":"Ostholstein","type":"Kreis"},"federalState":{"key":"01","name":"Schleswig-Holstein"}},{"name":"Am Hayckenstift","postalCode":"23623","locality":"Ahrensbök","municipality":{"key":"01055001","name":"Ahrensbök","type":"Kreisangehörige_Gemeinde"},"district":{"key":"01055","name":"Ostholstein","type":"Kreis"},"federalState":{"key":"01","name":"Schleswig-Holstein"}},{"name":"Am Heck","postalCode":"23623","locality":"Ahrensbök","municipality":{"key":"01055001","name":"Ahrensbök","type":"Kreisangehörige_Gemeinde"},"district":{"key":"01055","name":"Ostholstein","type":"Kreis"},"federalState":{"key":"01","name":"Schleswig-Holstein"}},{"name":"Am Jägerhof","postalCode":"23623","locality":"Ahrensbök","municipality":{"key":"01055001","name":"Ahrensbök","type":"Kreisangehörige_Gemeinde"},"district":{"key":"01055","name":"Ostholstein","type":"Kreis"},"federalState":{"key":"01","name":"Schleswig-Holstein"}},{"name":"Am Piepenbrook","postalCode":"23623","locality":"Ahrensbök","municipality":{"key":"01055001","name":"Ahrensbök","type":"Kreisangehörige_Gemeinde"},"district":{"key":"01055","name":"Ostholstein","type":"Kreis"},"federalState":{"key":"01","name":"Schleswig-Holstein"}},{"name":"Am Sandberg","postalCode":"23623","locality":"Ahrensbök","municipality":{"key":"01055001","name":"Ahrensbök","type":"Kreisangehörige_Gemeinde"},"district":{"key":"01055","name":"Ostholstein","type":"Kreis"},"federalState":{"key":"01","name":"Schleswig-Holstein"}},{"name":"Am Schulberg","postalCode":"23623","locality":"Ahrensbök","municipality":{"key":"01055001","name":"Ahrensbök","type":"Kreisangehörige_Gemeinde"},"district":{"key":"01055","name":"Ostholstein","type":"Kreis"},"federalState":{"key":"01","name":"Schleswig-Holstein"}},{"name":"Amselweg","postalCode":"23623","locality":"Ahrensbök","municipality":{"key":"01055001","name":"Ahrensbök","type":"Kreisangehörige_Gemeinde"},"district":{"key":"01055","name":"Ostholstein","type":"Kreis"},"federalState":{"key":"01","name":"Schleswig-Holstein"}},{"name":"Am Spannbrook","postalCode":"23623","locality":"Ahrensbök","municipality":{"key":"01055001","name":"Ahrensbök","type":"Kreisangehörige_Gemeinde"},"district":{"key":"01055","name":"Ostholstein","type":"Kreis"},"federalState":{"key":"01","name":"Schleswig-Holstein"}},{"name":"Am Wallbach","postalCode":"23623","locality":"Ahrensbök","municipality":{"key":"01055001","name":"Ahrensbök","type":"Kreisangehörige_Gemeinde"},"district":{"key":"01055","name":"Ostholstein","type":"Kreis"},"federalState":{"key":"01","name":"Schleswig-Holstein"}},{"name":"An der Au","postalCode":"23623","locality":"Ahrensbök","municipality":{"key":"01055001","name":"Ahrensbök","type":"Kreisangehörige_Gemeinde"},"district":{"key":"01055","name":"Ostholstein","type":"Kreis"},"federalState":{"key":"01","name":"Schleswig-Holstein"}},{"name":"An der Gnisse","postalCode":"23623","locality":"Ahrensbök","municipality":{"key":"01055001","name":"Ahrensbök","type":"Kreisangehörige_Gemeinde"},"district":{"key":"01055","name":"Ostholstein","type":"Kreis"},"federalState":{"key":"01","name":"Schleswig-Holstein"}},{"name":"An der L 184","postalCode":"23623","locality":"Ahrensbök","municipality":{"key":"01055001","name":"Ahrensbök","type":"Kreisangehörige_Gemeinde"},"district":{"key":"01055","name":"Ostholstein","type":"Kreis"},"federalState":{"key":"01","name":"Schleswig-Holstein"}},{"name":"An der Trave","postalCode":"23623","locality":"Ahrensbök","municipality":{"key":"01055001","name":"Ahrensbök","type":"Kreisangehörige_Gemeinde"},"district":{"key":"01055","name":"Ostholstein","type":"Kreis"},"federalState":{"key":"01","name":"Schleswig-Holstein"}},{"name":"Bahnhofstr.","postalCode":"23623","locality":"Ahrensbök","municipality":{"key":"01055001","name":"Ahrensbök","type":"Kreisangehörige_Gemeinde"},"district":{"key":"01055","name":"Ostholstein","type":"Kreis"},"federalState":{"key":"01","name":"Schleswig-Holstein"}},{"name":"Barkenweg","postalCode":"23623","locality":"Ahrensbök","municipality":{"key":"01055001","name":"Ahrensbök","type":"Kreisangehörige_Gemeinde"},"district":{"key":"01055","name":"Ostholstein","type":"Kreis"},"federalState":{"key":"01","name":"Schleswig-Holstein"}},{"name":"Bergstr.","postalCode":"23623","locality":"Ahrensbök","municipality":{"key":"01055001","name":"Ahrensbök","type":"Kreisangehörige_Gemeinde"},"district":{"key":"01055","name":"Ostholstein","type":"Kreis"},"federalState":{"key":"01","name":"Schleswig-Holstein"}},{"name":"Bienenweide","postalCode":"23623","locality":"Ahrensbök","municipality":{"key":"01055001","name":"Ahrensbök","type":"Kreisangehörige_Gemeinde"},"district":{"key":"01055","name":"Ostholstein","type":"Kreis"},"federalState":{"key":"01","name":"Schleswig-Holstein"}},{"name":"Birkenweg","postalCode":"23623","locality":"Ahrensbök","municipality":{"key":"01055001","name":"Ahrensbök","type":"Kreisangehörige_Gemeinde"},"district":{"key":"01055","name":"Ostholstein","type":"Kreis"},"federalState":{"key":"01","name":"Schleswig-Holstein"}},{"name":"Bökenbarg","postalCode":"23623","locality":"Ahrensbök","municipality":{"key":"01055001","name":"Ahrensbök","type":"Kreisangehörige_Gemeinde"},"district":{"key":"01055","name":"Ostholstein","type":"Kreis"},"federalState":{"key":"01","name":"Schleswig-Holstein"}},{"name":"Bokshagen","postalCode":"23623","locality":"Ahrensbök","municipality":{"key":"01055001","name":"Ahrensbök","type":"Kreisangehörige_Gemeinde"},"district":{"key":"01055","name":"Ostholstein","type":"Kreis"},"federalState":{"key":"01","name":"Schleswig-Holstein"}},{"name":"Brauner Hirsch","postalCode":"23623","locality":"Ahrensbök","municipality":{"key":"01055001","name":"Ahrensbök","type":"Kreisangehörige_Gemeinde"},"district":{"key":"01055","name":"Ostholstein","type":"Kreis"},"federalState":{"key":"01","name":"Schleswig-Holstein"}},{"name":"Breslauer Str.","postalCode":"23623","locality":"Ahrensbök","municipality":{"key":"01055001","name":"Ahrensbök","type":"Kreisangehörige_Gemeinde"},"district":{"key":"01055","name":"Ostholstein","type":"Kreis"},"federalState":{"key":"01","name":"Schleswig-Holstein"}},{"name":"Bungberg","postalCode":"23623","locality":"Ahrensbök","municipality":{"key":"01055001","name":"Ahrensbök","type":"Kreisangehörige_Gemeinde"},"district":{"key":"01055","name":"Ostholstein","type":"Kreis"},"federalState":{"key":"01","name":"Schleswig-Holstein"}},{"name":"Carl-Fey-Allee","postalCode":"23623","locality":"Ahrensbök","municipality":{"key":"01055001","name":"Ahrensbök","type":"Kreisangehörige_Gemeinde"},"district":{"key":"01055","name":"Ostholstein","type":"Kreis"},"federalState":{"key":"01","name":"Schleswig-Holstein"}},{"name":"Danziger Str.","postalCode":"23623","locality":"Ahrensbök","municipality":{"key":"01055001","name":"Ahrensbök","type":"Kreisangehörige_Gemeinde"},"district":{"key":"01055","name":"Ostholstein","type":"Kreis"},"federalState":{"key":"01","name":"Schleswig-Holstein"}},{"name":"Distelkamp","postalCode":"23623","locality":"Ahrensbök","municipality":{"key":"01055001","name":"Ahrensbök","type":"Kreisangehörige_Gemeinde"},"district":{"key":"01055","name":"Ostholstein","type":"Kreis"},"federalState":{"key":"01","name":"Schleswig-Holstein"}},{"name":"Dorfallee","postalCode":"23623","locality":"Ahrensbök","municipality":{"key":"01055001","name":"Ahrensbök","type":"Kreisangehörige_Gemeinde"},"district":{"key":"01055","name":"Ostholstein","type":"Kreis"},"federalState":{"key":"01","name":"Schleswig-Holstein"}},{"name":"Dorfchaussee","postalCode":"23623","locality":"Ahrensbök","municipality":{"key":"01055001","name":"Ahrensbök","type":"Kreisangehörige_Gemeinde"},"district":{"key":"01055","name":"Ostholstein","type":"Kreis"},"federalState":{"key":"01","name":"Schleswig-Holstein"}},{"name":"Dorfstr.","postalCode":"23623","locality":"Ahrensbök","municipality":{"key":"01055001","name":"Ahrensbök","type":"Kreisangehörige_Gemeinde"},"district":{"key":"01055","name":"Ostholstein","type":"Kreis"},"federalState":{"key":"01","name":"Schleswig-Holstein"}},{"name":"Dörpstraat","postalCode":"23623","locality":"Ahrensbök","municipality":{"key":"01055001","name":"Ahrensbök","type":"Kreisangehörige_Gemeinde"},"district":{"key":"01055","name":"Ostholstein","type":"Kreis"},"federalState":{"key":"01","name":"Schleswig-Holstein"}},{"name":"Drosselweg","postalCode":"23623","locality":"Ahrensbök","municipality":{"key":"01055001","name":"Ahrensbök","type":"Kreisangehörige_Gemeinde"},"district":{"key":"01055","name":"Ostholstein","type":"Kreis"},"federalState":{"key":"01","name":"Schleswig-Holstein"}},{"name":"Eiskeller","postalCode":"23623","locality":"Ahrensbök","municipality":{"key":"01055001","name":"Ahrensbök","type":"Kreisangehörige_Gemeinde"},"district":{"key":"01055","name":"Ostholstein","type":"Kreis"},"federalState":{"key":"01","name":"Schleswig-Holstein"}},{"name":"Ententeich","postalCode":"23623","locality":"Ahrensbök","municipality":{"key":"01055001","name":"Ahrensbök","type":"Kreisangehörige_Gemeinde"},"district":{"key":"01055","name":"Ostholstein","type":"Kreis"},"federalState":{"key":"01","name":"Schleswig-Holstein"}},{"name":"Ernst-Prüß-Weg","postalCode":"23623","locality":"Ahrensbök","municipality":{"key":"01055001","name":"Ahrensbök","type":"Kreisangehörige_Gemeinde"},"district":{"key":"01055","name":"Ostholstein","type":"Kreis"},"federalState":{"key":"01","name":"Schleswig-Holstein"}},{"name":"Eulenweg","postalCode":"23623","locality":"Ahrensbök","municipality":{"key":"01055001","name":"Ahrensbök","type":"Kreisangehörige_Gemeinde"},"district":{"key":"01055","name":"Ostholstein","type":"Kreis"},"federalState":{"key":"01","name":"Schleswig-Holstein"}},{"name":"Färberweg","postalCode":"23623","locality":"Ahrensbök","municipality":{"key":"01055001","name":"Ahrensbök","type":"Kreisangehörige_Gemeinde"},"district":{"key":"01055","name":"Ostholstein","type":"Kreis"},"federalState":{"key":"01","name":"Schleswig-Holstein"}},{"name":"Fasanenweg","postalCode":"23623","locality":"Ahrensbök","municipality":{"key":"01055001","name":"Ahrensbök","type":"Kreisangehörige_Gemeinde"},"district":{"key":"01055","name":"Ostholstein","type":"Kreis"},"federalState":{"key":"01","name":"Schleswig-Holstein"}},{"name":"Fichel","postalCode":"23623","locality":"Ahrensbök","municipality":{"key":"01055001","name":"Ahrensbök","type":"Kreisangehörige_Gemeinde"},"district":{"key":"01055","name":"Ostholstein","type":"Kreis"},"federalState":{"key":"01","name":"Schleswig-Holstein"}},{"name":"Flörkendorfer Weg","postalCode":"23623","locality":"Ahrensbök","municipality":{"key":"01055001","name":"Ahrensbök","type":"Kreisangehörige_Gemeinde"},"district":{"key":"01055","name":"Ostholstein","type":"Kreis"},"federalState":{"key":"01","name":"Schleswig-Holstein"}},{"name":"Forsteck","postalCode":"23623","locality":"Ahrensbök","municipality":{"key":"01055001","name":"Ahrensbök","type":"Kreisangehörige_Gemeinde"},"district":{"key":"01055","name":"Ostholstein","type":"Kreis"},"federalState":{"key":"01","name":"Schleswig-Holstein"}},{"name":"Forsthof","postalCode":"23623","locality":"Ahrensbök","municipality":{"key":"01055001","name":"Ahrensbök","type":"Kreisangehörige_Gemeinde"},"district":{"key":"01055","name":"Ostholstein","type":"Kreis"},"federalState":{"key":"01","name":"Schleswig-Holstein"}},{"name":"Friedensstr.","postalCode":"23623","locality":"Ahrensbök","municipality":{"key":"01055001","name":"Ahrensbök","type":"Kreisangehörige_Gemeinde"},"district":{"key":"01055","name":"Ostholstein","type":"Kreis"},"federalState":{"key":"01","name":"Schleswig-Holstein"}},{"name":"Fuchsröhre","postalCode":"23623","locality":"Ahrensbök","municipality":{"key":"01055001","name":"Ahrensbök","type":"Kreisangehörige_Gemeinde"},"district":{"key":"01055","name":"Ostholstein","type":"Kreis"},"federalState":{"key":"01","name":"Schleswig-Holstein"}},{"name":"Ganterbarg","postalCode":"23623","locality":"Ahrensbök","municipality":{"key":"01055001","name":"Ahrensbök","type":"Kreisangehörige_Gemeinde"},"district":{"key":"01055","name":"Ostholstein","type":"Kreis"},"federalState":{"key":"01","name":"Schleswig-Holstein"}},{"name":"Gartenweg","postalCode":"23623","locality":"Ahrensbök","municipality":{"key":"01055001","name":"Ahrensbök","type":"Kreisangehörige_Gemeinde"},"district":{"key":"01055","name":"Ostholstein","type":"Kreis"},"federalState":{"key":"01","name":"Schleswig-Holstein"}},{"name":"Geschwister-Scholl-Weg","postalCode":"23623","locality":"Ahrensbök","municipality":{"key":"01055001","name":"Ahrensbök","type":"Kreisangehörige_Gemeinde"},"district":{"key":"01055","name":"Ostholstein","type":"Kreis"},"federalState":{"key":"01","name":"Schleswig-Holstein"}},{"name":"Gnissanastr.","postalCode":"23623","locality":"Ahrensbök","municipality":{"key":"01055001","name":"Ahrensbök","type":"Kreisangehörige_Gemeinde"},"district":{"key":"01055","name":"Ostholstein","type":"Kreis"},"federalState":{"key":"01","name":"Schleswig-Holstein"}},{"name":"Gramenzer Weg","postalCode":"23623","locality":"Ahrensbök","municipality":{"key":"01055001","name":"Ahrensbök","type":"Kreisangehörige_Gemeinde"},"district":{"key":"01055","name":"Ostholstein","type":"Kreis"},"federalState":{"key":"01","name":"Schleswig-Holstein"}},{"name":"Grevesmühlener Weg","postalCode":"23623","locality":"Ahrensbök","municipality":{"key":"01055001","name":"Ahrensbök","type":"Kreisangehörige_Gemeinde"},"district":{"key":"01055","name":"Ostholstein","type":"Kreis"},"federalState":{"key":"01","name":"Schleswig-Holstein"}},{"name":"Grotenhof","postalCode":"23623","locality":"Ahrensbök","municipality":{"key":"01055001","name":"Ahrensbök","type":"Kreisangehörige_Gemeinde"},"district":{"key":"01055","name":"Ostholstein","type":"Kreis"},"federalState":{"key":"01","name":"Schleswig-Holstein"}},{"name":"Grüner Redder","postalCode":"23623","locality":"Ahrensbök","municipality":{"key":"01055001","name":"Ahrensbök","type":"Kreisangehörige_Gemeinde"},"district":{"key":"01055","name":"Ostholstein","type":"Kreis"},"federalState":{"key":"01","name":"Schleswig-Holstein"}},{"name":"Heisterbusch","postalCode":"23623","locality":"Ahrensbök","municipality":{"key":"01055001","name":"Ahrensbök","type":"Kreisangehörige_Gemeinde"},"district":{"key":"01055","name":"Ostholstein","type":"Kreis"},"federalState":{"key":"01","name":"Schleswig-Holstein"}},{"name":"Hingstbarg","postalCode":"23623","locality":"Ahrensbök","municipality":{"key":"01055001","name":"Ahrensbök","type":"Kreisangehörige_Gemeinde"},"district":{"key":"01055","name":"Ostholstein","type":"Kreis"},"federalState":{"key":"01","name":"Schleswig-Holstein"}},{"name":"Hörn","postalCode":"23623","locality":"Ahrensbök","municipality":{"key":"01055001","name":"Ahrensbök","type":"Kreisangehörige_Gemeinde"},"district":{"key":"01055","name":"Ostholstein","type":"Kreis"},"federalState":{"key":"01","name":"Schleswig-Holstein"}},{"name":"Hörsten","postalCode":"23623","locality":"Ahrensbök","municipality":{"key":"01055001","name":"Ahrensbök","type":"Kreisangehörige_Gemeinde"},"district":{"key":"01055","name":"Ostholstein","type":"Kreis"},"federalState":{"key":"01","name":"Schleswig-Holstein"}},{"name":"Hülsdiek","postalCode":"23623","locality":"Ahrensbök","municipality":{"key":"01055001","name":"Ahrensbök","type":"Kreisangehörige_Gemeinde"},"district":{"key":"01055","name":"Ostholstein","type":"Kreis"},"federalState":{"key":"01","name":"Schleswig-Holstein"}},{"name":"Igelweg","postalCode":"23623","locality":"Ahrensbök","municipality":{"key":"01055001","name":"Ahrensbök","type":"Kreisangehörige_Gemeinde"},"district":{"key":"01055","name":"Ostholstein","type":"Kreis"},"federalState":{"key":"01","name":"Schleswig-Holstein"}},{"name":"Im Winkel","postalCode":"23623","locality":"Ahrensbök","municipality":{"key":"01055001","name":"Ahrensbök","type":"Kreisangehörige_Gemeinde"},"district":{"key":"01055","name":"Ostholstein","type":"Kreis"},"federalState":{"key":"01","name":"Schleswig-Holstein"}},{"name":"Instenweg","postalCode":"23623","locality":"Ahrensbök","municipality":{"key":"01055001","name":"Ahrensbök","type":"Kreisangehörige_Gemeinde"},"district":{"key":"01055","name":"Ostholstein","type":"Kreis"},"federalState":{"key":"01","name":"Schleswig-Holstein"}},{"name":"Iskuhle","postalCode":"23623","locality":"Ahrensbök","municipality":{"key":"01055001","name":"Ahrensbök","type":"Kreisangehörige_Gemeinde"},"district":{"key":"01055","name":"Ostholstein","type":"Kreis"},"federalState":{"key":"01","name":"Schleswig-Holstein"}},{"name":"Iskuhler Weg","postalCode":"23623","locality":"Ahrensbök","municipality":{"key":"01055001","name":"Ahrensbök","type":"Kreisangehörige_Gemeinde"},"district":{"key":"01055","name":"Ostholstein","type":"Kreis"},"federalState":{"key":"01","name":"Schleswig-Holstein"}},{"name":"Kannenbusch","postalCode":"23623","locality":"Ahrensbök","municipality":{"key":"01055001","name":"Ahrensbök","type":"Kreisangehörige_Gemeinde"},"district":{"key":"01055","name":"Ostholstein","type":"Kreis"},"federalState":{"key":"01","name":"Schleswig-Holstein"}},{"name":"Karl-Schmidt-Weg","postalCode":"23623","locality":"Ahrensbök","municipality":{"key":"01055001","name":"Ahrensbök","type":"Kreisangehörige_Gemeinde"},"district":{"key":"01055","name":"Ostholstein","type":"Kreis"},"federalState":{"key":"01","name":"Schleswig-Holstein"}},{"name":"Kastanienweg","postalCode":"23623","locality":"Ahrensbök","municipality":{"key":"01055001","name":"Ahrensbök","type":"Kreisangehörige_Gemeinde"},"district":{"key":"01055","name":"Ostholstein","type":"Kreis"},"federalState":{"key":"01","name":"Schleswig-Holstein"}},{"name":"Kirchstr.","postalCode":"23623","locality":"Ahrensbök","municipality":{"key":"01055001","name":"Ahrensbök","type":"Kreisangehörige_Gemeinde"},"district":{"key":"01055","name":"Ostholstein","type":"Kreis"},"federalState":{"key":"01","name":"Schleswig-Holstein"}},{"name":"Klosterstr.","postalCode":"23623","locality":"Ahrensbök","municipality":{"key":"01055001","name":"Ahrensbök","type":"Kreisangehörige_Gemeinde"},"district":{"key":"01055","name":"Ostholstein","type":"Kreis"},"federalState":{"key":"01","name":"Schleswig-Holstein"}},{"name":"Königsberger Str.","postalCode":"23623","locality":"Ahrensbök","municipality":{"key":"01055001","name":"Ahrensbök","type":"Kreisangehörige_Gemeinde"},"district":{"key":"01055","name":"Ostholstein","type":"Kreis"},"federalState":{"key":"01","name":"Schleswig-Holstein"}},{"name":"Kuhkoppel","postalCode":"23623","locality":"Ahrensbök","municipality":{"key":"01055001","name":"Ahrensbök","type":"Kreisangehörige_Gemeinde"},"district":{"key":"01055","name":"Ostholstein","type":"Kreis"},"federalState":{"key":"01","name":"Schleswig-Holstein"}},{"name":"Kükenwiese","postalCode":"23623","locality":"Ahrensbök","municipality":{"key":"01055001","name":"Ahrensbök","type":"Kreisangehörige_Gemeinde"},"district":{"key":"01055","name":"Ostholstein","type":"Kreis"},"federalState":{"key":"01","name":"Schleswig-Holstein"}},{"name":"Langendamm","postalCode":"23623","locality":"Ahrensbök","municipality":{"key":"01055001","name":"Ahrensbök","type":"Kreisangehörige_Gemeinde"},"district":{"key":"01055","name":"Ostholstein","type":"Kreis"},"federalState":{"key":"01","name":"Schleswig-Holstein"}},{"name":"Langenschlag","postalCode":"23623","locality":"Ahrensbök","municipality":{"key":"01055001","name":"Ahrensbök","type":"Kreisangehörige_Gemeinde"},"district":{"key":"01055","name":"Ostholstein","type":"Kreis"},"federalState":{"key":"01","name":"Schleswig-Holstein"}},{"name":"Lerchengrund","postalCode":"23623","locality":"Ahrensbök","municipality":{"key":"01055001","name":"Ahrensbök","type":"Kreisangehörige_Gemeinde"},"district":{"key":"01055","name":"Ostholstein","type":"Kreis"},"federalState":{"key":"01","name":"Schleswig-Holstein"}},{"name":"Lindenstr.","postalCode":"23623","locality":"Ahrensbök","municipality":{"key":"01055001","name":"Ahrensbök","type":"Kreisangehörige_Gemeinde"},"district":{"key":"01055","name":"Ostholstein","type":"Kreis"},"federalState":{"key":"01","name":"Schleswig-Holstein"}},{"name":"Lindenweg","postalCode":"23623","locality":"Ahrensbök","municipality":{"key":"01055001","name":"Ahrensbök","type":"Kreisangehörige_Gemeinde"},"district":{"key":"01055","name":"Ostholstein","type":"Kreis"},"federalState":{"key":"01","name":"Schleswig-Holstein"}},{"name":"Lübecker Str.","postalCode":"23623","locality":"Ahrensbök","municipality":{"key":"01055001","name":"Ahrensbök","type":"Kreisangehörige_Gemeinde"},"district":{"key":"01055","name":"Ostholstein","type":"Kreis"},"federalState":{"key":"01","name":"Schleswig-Holstein"}},{"name":"Lübkeweg","postalCode":"23623","locality":"Ahrensbök","municipality":{"key":"01055001","name":"Ahrensbök","type":"Kreisangehörige_Gemeinde"},"district":{"key":"01055","name":"Ostholstein","type":"Kreis"},"federalState":{"key":"01","name":"Schleswig-Holstein"}},{"name":"Meisenweg","postalCode":"23623","locality":"Ahrensbök","municipality":{"key":"01055001","name":"Ahrensbök","type":"Kreisangehörige_Gemeinde"},"district":{"key":"01055","name":"Ostholstein","type":"Kreis"},"federalState":{"key":"01","name":"Schleswig-Holstein"}},{"name":"Mittelweg","postalCode":"23623","locality":"Ahrensbök","municipality":{"key":"01055001","name":"Ahrensbök","type":"Kreisangehörige_Gemeinde"},"district":{"key":"01055","name":"Ostholstein","type":"Kreis"},"federalState":{"key":"01","name":"Schleswig-Holstein"}},{"name":"Mönkenbarg","postalCode":"23623","locality":"Ahrensbök","municipality":{"key":"01055001","name":"Ahrensbök","type":"Kreisangehörige_Gemeinde"},"district":{"key":"01055","name":"Ostholstein","type":"Kreis"},"federalState":{"key":"01","name":"Schleswig-Holstein"}},{"name":"Moorblick","postalCode":"23623","locality":"Ahrensbök","municipality":{"key":"01055001","name":"Ahrensbök","type":"Kreisangehörige_Gemeinde"},"district":{"key":"01055","name":"Ostholstein","type":"Kreis"},"federalState":{"key":"01","name":"Schleswig-Holstein"}},{"name":"Mösberg","postalCode":"23623","locality":"Ahrensbök","municipality":{"key":"01055001","name":"Ahrensbök","type":"Kreisangehörige_Gemeinde"},"district":{"key":"01055","name":"Ostholstein","type":"Kreis"},"federalState":{"key":"01","name":"Schleswig-Holstein"}},{"name":"Mühlenberg","postalCode":"23623","locality":"Ahrensbök","municipality":{"key":"01055001","name":"Ahrensbök","type":"Kreisangehörige_Gemeinde"},"district":{"key":"01055","name":"Ostholstein","type":"Kreis"},"federalState":{"key":"01","name":"Schleswig-Holstein"}},{"name":"Neue Dorfstr.","postalCode":"23623","locality":"Ahrensbök","municipality":{"key":"01055001","name":"Ahrensbök","type":"Kreisangehörige_Gemeinde"},"district":{"key":"01055","name":"Ostholstein","type":"Kreis"},"federalState":{"key":"01","name":"Schleswig-Holstein"}},{"name":"Neustädter Chaussee","postalCode":"23623","locality":"Ahrensbök","municipality":{"key":"01055001","name":"Ahrensbök","type":"Kreisangehörige_Gemeinde"},"district":{"key":"01055","name":"Ostholstein","type":"Kreis"},"federalState":{"key":"01","name":"Schleswig-Holstein"}},{"name":"Nørre-Alslev-Ring","postalCode":"23623","locality":"Ahrensbök","municipality":{"key":"01055001","name":"Ahrensbök","type":"Kreisangehörige_Gemeinde"},"district":{"key":"01055","name":"Ostholstein","type":"Kreis"},"federalState":{"key":"01","name":"Schleswig-Holstein"}},{"name":"Obere Triftstr.","postalCode":"23623","locality":"Ahrensbök","municipality":{"key":"01055001","name":"Ahrensbök","type":"Kreisangehörige_Gemeinde"},"district":{"key":"01055","name":"Ostholstein","type":"Kreis"},"federalState":{"key":"01","name":"Schleswig-Holstein"}},{"name":"Ottenbergkamp","postalCode":"23623","locality":"Ahrensbök","municipality":{"key":"01055001","name":"Ahrensbök","type":"Kreisangehörige_Gemeinde"},"district":{"key":"01055","name":"Ostholstein","type":"Kreis"},"federalState":{"key":"01","name":"Schleswig-Holstein"}},{"name":"Otternbergkamp","postalCode":"23623","locality":"Ahrensbök","municipality":{"key":"01055001","name":"Ahrensbök","type":"Kreisangehörige_Gemeinde"},"district":{"key":"01055","name":"Ostholstein","type":"Kreis"},"federalState":{"key":"01","name":"Schleswig-Holstein"}},{"name":"Pferdekoppel","postalCode":"23623","locality":"Ahrensbök","municipality":{"key":"01055001","name":"Ahrensbök","type":"Kreisangehörige_Gemeinde"},"district":{"key":"01055","name":"Ostholstein","type":"Kreis"},"federalState":{"key":"01","name":"Schleswig-Holstein"}},{"name":"Pferdemarktstr.","postalCode":"23623","locality":"Ahrensbök","municipality":{"key":"01055001","name":"Ahrensbök","type":"Kreisangehörige_Gemeinde"},"district":{"key":"01055","name":"Ostholstein","type":"Kreis"},"federalState":{"key":"01","name":"Schleswig-Holstein"}},{"name":"Plöner Str.","postalCode":"23623","locality":"Ahrensbök","municipality":{"key":"01055001","name":"Ahrensbök","type":"Kreisangehörige_Gemeinde"},"district":{"key":"01055","name":"Ostholstein","type":"Kreis"},"federalState":{"key":"01","name":"Schleswig-Holstein"}},{"name":"Postredder","postalCode":"23623","locality":"Ahrensbök","municipality":{"key":"01055001","name":"Ahrensbök","type":"Kreisangehörige_Gemeinde"},"district":{"key":"01055","name":"Ostholstein","type":"Kreis"},"federalState":{"key":"01","name":"Schleswig-Holstein"}},{"name":"Poststr.","postalCode":"23623","locality":"Ahrensbök","municipality":{"key":"01055001","name":"Ahrensbök","type":"Kreisangehörige_Gemeinde"},"district":{"key":"01055","name":"Ostholstein","type":"Kreis"},"federalState":{"key":"01","name":"Schleswig-Holstein"}},{"name":"Raiffeisenweg","postalCode":"23623","locality":"Ahrensbök","municipality":{"key":"01055001","name":"Ahrensbök","type":"Kreisangehörige_Gemeinde"},"district":{"key":"01055","name":"Ostholstein","type":"Kreis"},"federalState":{"key":"01","name":"Schleswig-Holstein"}},{"name":"Redderkate","postalCode":"23623","locality":"Ahrensbök","municipality":{"key":"01055001","name":"Ahrensbök","type":"Kreisangehörige_Gemeinde"},"district":{"key":"01055","name":"Ostholstein","type":"Kreis"},"federalState":{"key":"01","name":"Schleswig-Holstein"}},{"name":"Reeperbahn","postalCode":"23623","locality":"Ahrensbök","municipality":{"key":"01055001","name":"Ahrensbök","type":"Kreisangehörige_Gemeinde"},"district":{"key":"01055","name":"Ostholstein","type":"Kreis"},"federalState":{"key":"01","name":"Schleswig-Holstein"}},{"name":"Reiherstieg","postalCode":"23623","locality":"Ahrensbök","municipality":{"key":"01055001","name":"Ahrensbök","type":"Kreisangehörige_Gemeinde"},"district":{"key":"01055","name":"Ostholstein","type":"Kreis"},"federalState":{"key":"01","name":"Schleswig-Holstein"}},{"name":"Reinskamp","postalCode":"23623","locality":"Ahrensbök","municipality":{"key":"01055001","name":"Ahrensbök","type":"Kreisangehörige_Gemeinde"},"district":{"key":"01055","name":"Ostholstein","type":"Kreis"},"federalState":{"key":"01","name":"Schleswig-Holstein"}},{"name":"Saint-Savinien-Weg","postalCode":"23623","locality":"Ahrensbök","municipality":{"key":"01055001","name":"Ahrensbök","type":"Kreisangehörige_Gemeinde"},"district":{"key":"01055","name":"Ostholstein","type":"Kreis"},"federalState":{"key":"01","name":"Schleswig-Holstein"}},{"name":"Schmiedekamp","postalCode":"23623","locality":"Ahrensbök","municipality":{"key":"01055001","name":"Ahrensbök","type":"Kreisangehörige_Gemeinde"},"district":{"key":"01055","name":"Ostholstein","type":"Kreis"},"federalState":{"key":"01","name":"Schleswig-Holstein"}},{"name":"Schmiedeweg","postalCode":"23623","locality":"Ahrensbök","municipality":{"key":"01055001","name":"Ahrensbök","type":"Kreisangehörige_Gemeinde"},"district":{"key":"01055","name":"Ostholstein","type":"Kreis"},"federalState":{"key":"01","name":"Schleswig-Holstein"}},{"name":"Schwinkenrade","postalCode":"23623","locality":"Ahrensbök","municipality":{"key":"01055001","name":"Ahrensbök","type":"Kreisangehörige_Gemeinde"},"district":{"key":"01055","name":"Ostholstein","type":"Kreis"},"federalState":{"key":"01","name":"Schleswig-Holstein"}},{"name":"Schwochel","postalCode":"23623","locality":"Ahrensbök","municipality":{"key":"01055001","name":"Ahrensbök","type":"Kreisangehörige_Gemeinde"},"district":{"key":"01055","name":"Ostholstein","type":"Kreis"},"federalState":{"key":"01","name":"Schleswig-Holstein"}},{"name":"Seeadlerweg","postalCode":"23623","locality":"Ahrensbök","municipality":{"key":"01055001","name":"Ahrensbök","type":"Kreisangehörige_Gemeinde"},"district":{"key":"01055","name":"Ostholstein","type":"Kreis"},"federalState":{"key":"01","name":"Schleswig-Holstein"}},{"name":"Segeberger Chaussee","postalCode":"23623","locality":"Ahrensbök","municipality":{"key":"01055001","name":"Ahrensbök","type":"Kreisangehörige_Gemeinde"},"district":{"key":"01055","name":"Ostholstein","type":"Kreis"},"federalState":{"key":"01","name":"Schleswig-Holstein"}},{"name":"Spechserholz","postalCode":"23623","locality":"Ahrensbök","municipality":{"key":"01055001","name":"Ahrensbök","type":"Kreisangehörige_Gemeinde"},"district":{"key":"01055","name":"Ostholstein","type":"Kreis"},"federalState":{"key":"01","name":"Schleswig-Holstein"}},{"name":"Speelkamp","postalCode":"23623","locality":"Ahrensbök","municipality":{"key":"01055001","name":"Ahrensbök","type":"Kreisangehörige_Gemeinde"},"district":{"key":"01055","name":"Ostholstein","type":"Kreis"},"federalState":{"key":"01","name":"Schleswig-Holstein"}},{"name":"Steenkamp","postalCode":"23623","locality":"Ahrensbök","municipality":{"key":"01055001","name":"Ahrensbök","type":"Kreisangehörige_Gemeinde"},"district":{"key":"01055","name":"Ostholstein","type":"Kreis"},"federalState":{"key":"01","name":"Schleswig-Holstein"}},{"name":"Steenkrug","postalCode":"23623","locality":"Ahrensbök","municipality":{"key":"01055001","name":"Ahrensbök","type":"Kreisangehörige_Gemeinde"},"district":{"key":"01055","name":"Ostholstein","type":"Kreis"},"federalState":{"key":"01","name":"Schleswig-Holstein"}},{"name":"Steenkrütz","postalCode":"23623","locality":"Ahrensbök","municipality":{"key":"01055001","name":"Ahrensbök","type":"Kreisangehörige_Gemeinde"},"district":{"key":"01055","name":"Ostholstein","type":"Kreis"},"federalState":{"key":"01","name":"Schleswig-Holstein"}},{"name":"Steindamm","postalCode":"23623","locality":"Ahrensbök","municipality":{"key":"01055001","name":"Ahrensbök","type":"Kreisangehörige_Gemeinde"},"district":{"key":"01055","name":"Ostholstein","type":"Kreis"},"federalState":{"key":"01","name":"Schleswig-Holstein"}},{"name":"Stettiner Str.","postalCode":"23623","locality":"Ahrensbök","municipality":{"key":"01055001","name":"Ahrensbök","type":"Kreisangehörige_Gemeinde"},"district":{"key":"01055","name":"Ostholstein","type":"Kreis"},"federalState":{"key":"01","name":"Schleswig-Holstein"}},{"name":"Tankenrade","postalCode":"23623","locality":"Ahrensbök","municipality":{"key":"01055001","name":"Ahrensbök","type":"Kreisangehörige_Gemeinde"},"district":{"key":"01055","name":"Ostholstein","type":"Kreis"},"federalState":{"key":"01","name":"Schleswig-Holstein"}},{"name":"Tankenrader Berg","postalCode":"23623","locality":"Ahrensbök","municipality":{"key":"01055001","name":"Ahrensbök","type":"Kreisangehörige_Gemeinde"},"district":{"key":"01055","name":"Ostholstein","type":"Kreis"},"federalState":{"key":"01","name":"Schleswig-Holstein"}},{"name":"Tegelkamp","postalCode":"23623","locality":"Ahrensbök","municipality":{"key":"01055001","name":"Ahrensbök","type":"Kreisangehörige_Gemeinde"},"district":{"key":"01055","name":"Ostholstein","type":"Kreis"},"federalState":{"key":"01","name":"Schleswig-Holstein"}},{"name":"Theodor-Möller-Park","postalCode":"23623","locality":"Ahrensbök","municipality":{"key":"01055001","name":"Ahrensbök","type":"Kreisangehörige_Gemeinde"},"district":{"key":"01055","name":"Ostholstein","type":"Kreis"},"federalState":{"key":"01","name":"Schleswig-Holstein"}},{"name":"Triftstr.","postalCode":"23623","locality":"Ahrensbök","municipality":{"key":"01055001","name":"Ahrensbök","type":"Kreisangehörige_Gemeinde"},"district":{"key":"01055","name":"Ostholstein","type":"Kreis"},"federalState":{"key":"01","name":"Schleswig-Holstein"}},{"name":"Waldstr.","postalCode":"23623","locality":"Ahrensbök","municipality":{"key":"01055001","name":"Ahrensbök","type":"Kreisangehörige_Gemeinde"},"district":{"key":"01055","name":"Ostholstein","type":"Kreis"},"federalState":{"key":"01","name":"Schleswig-Holstein"}},{"name":"Wallrothstr.","postalCode":"23623","locality":"Ahrensbök","municipality":{"key":"01055001","name":"Ahrensbök","type":"Kreisangehörige_Gemeinde"},"district":{"key":"01055","name":"Ostholstein","type":"Kreis"},"federalState":{"key":"01","name":"Schleswig-Holstein"}},{"name":"Weberstr.","postalCode":"23623","locality":"Ahrensbök","municipality":{"key":"01055001","name":"Ahrensbök","type":"Kreisangehörige_Gemeinde"},"district":{"key":"01055","name":"Ostholstein","type":"Kreis"},"federalState":{"key":"01","name":"Schleswig-Holstein"}},{"name":"Wieselweg","postalCode":"23623","locality":"Ahrensbök","municipality":{"key":"01055001","name":"Ahrensbök","type":"Kreisangehörige_Gemeinde"},"district":{"key":"01055","name":"Ostholstein","type":"Kreis"},"federalState":{"key":"01","name":"Schleswig-Holstein"}},{"name":"Wiesenredder","postalCode":"23623","locality":"Ahrensbök","municipality":{"key":"01055001","name":"Ahrensbök","type":"Kreisangehörige_Gemeinde"},"district":{"key":"01055","name":"Ostholstein","type":"Kreis"},"federalState":{"key":"01","name":"Schleswig-Holstein"}},{"name":"Wiesenweg","postalCode":"23623","locality":"Ahrensbök","municipality":{"key":"01055001","name":"Ahrensbök","type":"Kreisangehörige_Gemeinde"},"district":{"key":"01055","name":"Ostholstein","type":"Kreis"},"federalState":{"key":"01","name":"Schleswig-Holstein"}},{"name":"Willi-Grimm-Weg","postalCode":"23623","locality":"Ahrensbök","municipality":{"key":"01055001","name":"Ahrensbök","type":"Kreisangehörige_Gemeinde"},"district":{"key":"01055","name":"Ostholstein","type":"Kreis"},"federalState":{"key":"01","name":"Schleswig-Holstein"}},{"name":"Willy-Grimm-Weg","postalCode":"23623","locality":"Ahrensbök","municipality":{"key":"01055001","name":"Ahrensbök","type":"Kreisangehörige_Gemeinde"},"district":{"key":"01055","name":"Ostholstein","type":"Kreis"},"federalState":{"key":"01","name":"Schleswig-Holstein"}},{"name":"Zum Wiesengrund","postalCode":"23623","locality":"Ahrensbök","municipality":{"key":"01055001","name":"Ahrensbök","type":"Kreisangehörige_Gemeinde"},"district":{"key":"01055","name":"Ostholstein","type":"Kreis"},"federalState":{"key":"01","name":"Schleswig-Holstein"}},{"name":"Zur Bauschule","postalCode":"23623","locality":"Ahrensbök","municipality":{"key":"01055001","name":"Ahrensbök","type":"Kreisangehörige_Gemeinde"},"district":{"key":"01055","name":"Ostholstein","type":"Kreis"},"federalState":{"key":"01","name":"Schleswig-Holstein"}},]