[{"name":"Am Berg","postalCode":"96358","locality":"Teuschnitz","municipality":{"key":"09476180","name":"Teuschnitz, St","type":"Stadt"},"district":{"key":"09476","name":"Kronach","type":"Landkreis"},"federalState":{"key":"09","name":"Bayern"}},{"name":"Am Hügel","postalCode":"96358","locality":"Teuschnitz","municipality":{"key":"09476180","name":"Teuschnitz, St","type":"Stadt"},"district":{"key":"09476","name":"Kronach","type":"Landkreis"},"federalState":{"key":"09","name":"Bayern"}},{"name":"Am Knock","postalCode":"96358","locality":"Teuschnitz","municipality":{"key":"09476180","name":"Teuschnitz, St","type":"Stadt"},"district":{"key":"09476","name":"Kronach","type":"Landkreis"},"federalState":{"key":"09","name":"Bayern"}},{"name":"Am Roller","postalCode":"96358","locality":"Teuschnitz","municipality":{"key":"09476180","name":"Teuschnitz, St","type":"Stadt"},"district":{"key":"09476","name":"Kronach","type":"Landkreis"},"federalState":{"key":"09","name":"Bayern"}},{"name":"An der Stadtmauer","postalCode":"96358","locality":"Teuschnitz","municipality":{"key":"09476180","name":"Teuschnitz, St","type":"Stadt"},"district":{"key":"09476","name":"Kronach","type":"Landkreis"},"federalState":{"key":"09","name":"Bayern"}},{"name":"Austr.","postalCode":"96358","locality":"Teuschnitz","municipality":{"key":"09476180","name":"Teuschnitz, St","type":"Stadt"},"district":{"key":"09476","name":"Kronach","type":"Landkreis"},"federalState":{"key":"09","name":"Bayern"}},{"name":"Bachstr.","postalCode":"96358","locality":"Teuschnitz","municipality":{"key":"09476180","name":"Teuschnitz, St","type":"Stadt"},"district":{"key":"09476","name":"Kronach","type":"Landkreis"},"federalState":{"key":"09","name":"Bayern"}},{"name":"Bergbrunn","postalCode":"96358","locality":"Teuschnitz","municipality":{"key":"09476180","name":"Teuschnitz, St","type":"Stadt"},"district":{"key":"09476","name":"Kronach","type":"Landkreis"},"federalState":{"key":"09","name":"Bayern"}},{"name":"Bergenweg","postalCode":"96358","locality":"Teuschnitz","municipality":{"key":"09476180","name":"Teuschnitz, St","type":"Stadt"},"district":{"key":"09476","name":"Kronach","type":"Landkreis"},"federalState":{"key":"09","name":"Bayern"}},{"name":"Brunnenstr.","postalCode":"96358","locality":"Teuschnitz","municipality":{"key":"09476180","name":"Teuschnitz, St","type":"Stadt"},"district":{"key":"09476","name":"Kronach","type":"Landkreis"},"federalState":{"key":"09","name":"Bayern"}},{"name":"Dorfplatz","postalCode":"96358","locality":"Teuschnitz","municipality":{"key":"09476180","name":"Teuschnitz, St","type":"Stadt"},"district":{"key":"09476","name":"Kronach","type":"Landkreis"},"federalState":{"key":"09","name":"Bayern"}},{"name":"Dorfstr.","postalCode":"96358","locality":"Teuschnitz","municipality":{"key":"09476180","name":"Teuschnitz, St","type":"Stadt"},"district":{"key":"09476","name":"Kronach","type":"Landkreis"},"federalState":{"key":"09","name":"Bayern"}},{"name":"Dr.-Karl-Braun-Str.","postalCode":"96358","locality":"Teuschnitz","municipality":{"key":"09476180","name":"Teuschnitz, St","type":"Stadt"},"district":{"key":"09476","name":"Kronach","type":"Landkreis"},"federalState":{"key":"09","name":"Bayern"}},{"name":"Enges Gäßlein","postalCode":"96358","locality":"Teuschnitz","municipality":{"key":"09476180","name":"Teuschnitz, St","type":"Stadt"},"district":{"key":"09476","name":"Kronach","type":"Landkreis"},"federalState":{"key":"09","name":"Bayern"}},{"name":"Fibigstr.","postalCode":"96358","locality":"Teuschnitz","municipality":{"key":"09476180","name":"Teuschnitz, St","type":"Stadt"},"district":{"key":"09476","name":"Kronach","type":"Landkreis"},"federalState":{"key":"09","name":"Bayern"}},{"name":"Fichtenstr.","postalCode":"96358","locality":"Teuschnitz","municipality":{"key":"09476180","name":"Teuschnitz, St","type":"Stadt"},"district":{"key":"09476","name":"Kronach","type":"Landkreis"},"federalState":{"key":"09","name":"Bayern"}},{"name":"Förtschendorfer Str.","postalCode":"96358","locality":"Teuschnitz","municipality":{"key":"09476180","name":"Teuschnitz, St","type":"Stadt"},"district":{"key":"09476","name":"Kronach","type":"Landkreis"},"federalState":{"key":"09","name":"Bayern"}},{"name":"Frankenwaldsteig","postalCode":"96358","locality":"Teuschnitz","municipality":{"key":"09476180","name":"Teuschnitz, St","type":"Stadt"},"district":{"key":"09476","name":"Kronach","type":"Landkreis"},"federalState":{"key":"09","name":"Bayern"}},{"name":"Frankenwaldstr.","postalCode":"96358","locality":"Teuschnitz","municipality":{"key":"09476180","name":"Teuschnitz, St","type":"Stadt"},"district":{"key":"09476","name":"Kronach","type":"Landkreis"},"federalState":{"key":"09","name":"Bayern"}},{"name":"Gartenstr.","postalCode":"96358","locality":"Teuschnitz","municipality":{"key":"09476180","name":"Teuschnitz, St","type":"Stadt"},"district":{"key":"09476","name":"Kronach","type":"Landkreis"},"federalState":{"key":"09","name":"Bayern"}},{"name":"Hauptstr.","postalCode":"96358","locality":"Teuschnitz","municipality":{"key":"09476180","name":"Teuschnitz, St","type":"Stadt"},"district":{"key":"09476","name":"Kronach","type":"Landkreis"},"federalState":{"key":"09","name":"Bayern"}},{"name":"Heckenstr.","postalCode":"96358","locality":"Teuschnitz","municipality":{"key":"09476180","name":"Teuschnitz, St","type":"Stadt"},"district":{"key":"09476","name":"Kronach","type":"Landkreis"},"federalState":{"key":"09","name":"Bayern"}},{"name":"Hintere Str.","postalCode":"96358","locality":"Teuschnitz","municipality":{"key":"09476180","name":"Teuschnitz, St","type":"Stadt"},"district":{"key":"09476","name":"Kronach","type":"Landkreis"},"federalState":{"key":"09","name":"Bayern"}},{"name":"Hoher Weg","postalCode":"96358","locality":"Teuschnitz","municipality":{"key":"09476180","name":"Teuschnitz, St","type":"Stadt"},"district":{"key":"09476","name":"Kronach","type":"Landkreis"},"federalState":{"key":"09","name":"Bayern"}},{"name":"Im Ziegelwinkel","postalCode":"96317","locality":"Kronach","municipality":{"key":"09476145","name":"Kronach, St","type":"Stadt"},"district":{"key":"09476","name":"Kronach","type":"Landkreis"},"federalState":{"key":"09","name":"Bayern"}},{"name":"Innerer Ring","postalCode":"96317","locality":"Kronach","municipality":{"key":"09476145","name":"Kronach, St","type":"Stadt"},"district":{"key":"09476","name":"Kronach","type":"Landkreis"},"federalState":{"key":"09","name":"Bayern"}},{"name":"Jahnsallee","postalCode":"96317","locality":"Kronach","municipality":{"key":"09476145","name":"Kronach, St","type":"Stadt"},"district":{"key":"09476","name":"Kronach","type":"Landkreis"},"federalState":{"key":"09","name":"Bayern"}},{"name":"Jakob-Degen-Str.","postalCode":"96317","locality":"Kronach","municipality":{"key":"09476145","name":"Kronach, St","type":"Stadt"},"district":{"key":"09476","name":"Kronach","type":"Landkreis"},"federalState":{"key":"09","name":"Bayern"}},{"name":"Jean-Paul Weg - Weg 1 gelb","postalCode":"95497","locality":"Goldkronach","municipality":{"key":"09472143","name":"Goldkronach, St","type":"Stadt"},"district":{"key":"09472","name":"Bayreuth","type":"Landkreis"},"federalState":{"key":"09","name":"Bayern"}},{"name":"Johann-Kaspar-Zeuß-Str.","postalCode":"96317","locality":"Kronach","municipality":{"key":"09476145","name":"Kronach, St","type":"Stadt"},"district":{"key":"09476","name":"Kronach","type":"Landkreis"},"federalState":{"key":"09","name":"Bayern"}},{"name":"Johann-Knoch-Gasse","postalCode":"96317","locality":"Kronach","municipality":{"key":"09476145","name":"Kronach, St","type":"Stadt"},"district":{"key":"09476","name":"Kronach","type":"Landkreis"},"federalState":{"key":"09","name":"Bayern"}},{"name":"Johann-Nikolaus-Zitter-Str.","postalCode":"96317","locality":"Kronach","municipality":{"key":"09476145","name":"Kronach, St","type":"Stadt"},"district":{"key":"09476","name":"Kronach","type":"Landkreis"},"federalState":{"key":"09","name":"Bayern"}},{"name":"Joseph-Haydn-Str.","postalCode":"96317","locality":"Kronach","municipality":{"key":"09476145","name":"Kronach, St","type":"Stadt"},"district":{"key":"09476","name":"Kronach","type":"Landkreis"},"federalState":{"key":"09","name":"Bayern"}},{"name":"Judengasse","postalCode":"96317","locality":"Kronach","municipality":{"key":"09476145","name":"Kronach, St","type":"Stadt"},"district":{"key":"09476","name":"Kronach","type":"Landkreis"},"federalState":{"key":"09","name":"Bayern"}},{"name":"Judengraben","postalCode":"96317","locality":"Kronach","municipality":{"key":"09476145","name":"Kronach, St","type":"Stadt"},"district":{"key":"09476","name":"Kronach","type":"Landkreis"},"federalState":{"key":"09","name":"Bayern"}},{"name":"Kirchstr.","postalCode":"96358","locality":"Teuschnitz","municipality":{"key":"09476180","name":"Teuschnitz, St","type":"Stadt"},"district":{"key":"09476","name":"Kronach","type":"Landkreis"},"federalState":{"key":"09","name":"Bayern"}},{"name":"Körnergasse","postalCode":"96358","locality":"Teuschnitz","municipality":{"key":"09476180","name":"Teuschnitz, St","type":"Stadt"},"district":{"key":"09476","name":"Kronach","type":"Landkreis"},"federalState":{"key":"09","name":"Bayern"}},{"name":"Kremnitzweg","postalCode":"96358","locality":"Teuschnitz","municipality":{"key":"09476180","name":"Teuschnitz, St","type":"Stadt"},"district":{"key":"09476","name":"Kronach","type":"Landkreis"},"federalState":{"key":"09","name":"Bayern"}},{"name":"Kronenweg","postalCode":"96358","locality":"Teuschnitz","municipality":{"key":"09476180","name":"Teuschnitz, St","type":"Stadt"},"district":{"key":"09476","name":"Kronach","type":"Landkreis"},"federalState":{"key":"09","name":"Bayern"}},{"name":"Lange Str.","postalCode":"96358","locality":"Teuschnitz","municipality":{"key":"09476180","name":"Teuschnitz, St","type":"Stadt"},"district":{"key":"09476","name":"Kronach","type":"Landkreis"},"federalState":{"key":"09","name":"Bayern"}},{"name":"Lolesgasse","postalCode":"96358","locality":"Teuschnitz","municipality":{"key":"09476180","name":"Teuschnitz, St","type":"Stadt"},"district":{"key":"09476","name":"Kronach","type":"Landkreis"},"federalState":{"key":"09","name":"Bayern"}},{"name":"Luckenberg","postalCode":"96358","locality":"Teuschnitz","municipality":{"key":"09476180","name":"Teuschnitz, St","type":"Stadt"},"district":{"key":"09476","name":"Kronach","type":"Landkreis"},"federalState":{"key":"09","name":"Bayern"}},{"name":"Mittlere Str.","postalCode":"96358","locality":"Teuschnitz","municipality":{"key":"09476180","name":"Teuschnitz, St","type":"Stadt"},"district":{"key":"09476","name":"Kronach","type":"Landkreis"},"federalState":{"key":"09","name":"Bayern"}},{"name":"Moosweg","postalCode":"96358","locality":"Teuschnitz","municipality":{"key":"09476180","name":"Teuschnitz, St","type":"Stadt"},"district":{"key":"09476","name":"Kronach","type":"Landkreis"},"federalState":{"key":"09","name":"Bayern"}},{"name":"Mühlenweg","postalCode":"96358","locality":"Teuschnitz","municipality":{"key":"09476180","name":"Teuschnitz, St","type":"Stadt"},"district":{"key":"09476","name":"Kronach","type":"Landkreis"},"federalState":{"key":"09","name":"Bayern"}},{"name":"Nebelgasse","postalCode":"96358","locality":"Teuschnitz","municipality":{"key":"09476180","name":"Teuschnitz, St","type":"Stadt"},"district":{"key":"09476","name":"Kronach","type":"Landkreis"},"federalState":{"key":"09","name":"Bayern"}},{"name":"Neue Siedlung","postalCode":"96358","locality":"Teuschnitz","municipality":{"key":"09476180","name":"Teuschnitz, St","type":"Stadt"},"district":{"key":"09476","name":"Kronach","type":"Landkreis"},"federalState":{"key":"09","name":"Bayern"}},{"name":"Obere Str.","postalCode":"96358","locality":"Teuschnitz","municipality":{"key":"09476180","name":"Teuschnitz, St","type":"Stadt"},"district":{"key":"09476","name":"Kronach","type":"Landkreis"},"federalState":{"key":"09","name":"Bayern"}},{"name":"Obere Trab","postalCode":"96358","locality":"Teuschnitz","municipality":{"key":"09476180","name":"Teuschnitz, St","type":"Stadt"},"district":{"key":"09476","name":"Kronach","type":"Landkreis"},"federalState":{"key":"09","name":"Bayern"}},{"name":"Petrus-Zweidler-Str.","postalCode":"96358","locality":"Teuschnitz","municipality":{"key":"09476180","name":"Teuschnitz, St","type":"Stadt"},"district":{"key":"09476","name":"Kronach","type":"Landkreis"},"federalState":{"key":"09","name":"Bayern"}},{"name":"Querstr.","postalCode":"96317","locality":"Kronach","municipality":{"key":"09476145","name":"Kronach, St","type":"Stadt"},"district":{"key":"09476","name":"Kronach","type":"Landkreis"},"federalState":{"key":"09","name":"Bayern"}},{"name":"Rappoltengrün","postalCode":"96358","locality":"Teuschnitz","municipality":{"key":"09476180","name":"Teuschnitz, St","type":"Stadt"},"district":{"key":"09476","name":"Kronach","type":"Landkreis"},"federalState":{"key":"09","name":"Bayern"}},{"name":"Rappoltengrüner Str.","postalCode":"96358","locality":"Teuschnitz","municipality":{"key":"09476180","name":"Teuschnitz, St","type":"Stadt"},"district":{"key":"09476","name":"Kronach","type":"Landkreis"},"federalState":{"key":"09","name":"Bayern"}},{"name":"Reichenbacher Str.","postalCode":"96358","locality":"Teuschnitz","municipality":{"key":"09476180","name":"Teuschnitz, St","type":"Stadt"},"district":{"key":"09476","name":"Kronach","type":"Landkreis"},"federalState":{"key":"09","name":"Bayern"}},{"name":"Ringstr.","postalCode":"96358","locality":"Teuschnitz","municipality":{"key":"09476180","name":"Teuschnitz, St","type":"Stadt"},"district":{"key":"09476","name":"Kronach","type":"Landkreis"},"federalState":{"key":"09","name":"Bayern"}},{"name":"Rosengasse","postalCode":"96358","locality":"Teuschnitz","municipality":{"key":"09476180","name":"Teuschnitz, St","type":"Stadt"},"district":{"key":"09476","name":"Kronach","type":"Landkreis"},"federalState":{"key":"09","name":"Bayern"}},{"name":"Sailerweg","postalCode":"96358","locality":"Teuschnitz","municipality":{"key":"09476180","name":"Teuschnitz, St","type":"Stadt"},"district":{"key":"09476","name":"Kronach","type":"Landkreis"},"federalState":{"key":"09","name":"Bayern"}},{"name":"Schießhausstr.","postalCode":"96358","locality":"Teuschnitz","municipality":{"key":"09476180","name":"Teuschnitz, St","type":"Stadt"},"district":{"key":"09476","name":"Kronach","type":"Landkreis"},"federalState":{"key":"09","name":"Bayern"}},{"name":"Schlossgarten","postalCode":"96358","locality":"Teuschnitz","municipality":{"key":"09476180","name":"Teuschnitz, St","type":"Stadt"},"district":{"key":"09476","name":"Kronach","type":"Landkreis"},"federalState":{"key":"09","name":"Bayern"}},{"name":"Schulstr.","postalCode":"96358","locality":"Teuschnitz","municipality":{"key":"09476180","name":"Teuschnitz, St","type":"Stadt"},"district":{"key":"09476","name":"Kronach","type":"Landkreis"},"federalState":{"key":"09","name":"Bayern"}},{"name":"Sportplatzstr.","postalCode":"96358","locality":"Teuschnitz","municipality":{"key":"09476180","name":"Teuschnitz, St","type":"Stadt"},"district":{"key":"09476","name":"Kronach","type":"Landkreis"},"federalState":{"key":"09","name":"Bayern"}},{"name":"Stadtgraben","postalCode":"96358","locality":"Teuschnitz","municipality":{"key":"09476180","name":"Teuschnitz, St","type":"Stadt"},"district":{"key":"09476","name":"Kronach","type":"Landkreis"},"federalState":{"key":"09","name":"Bayern"}},{"name":"Steinbacher Str.","postalCode":"96358","locality":"Teuschnitz","municipality":{"key":"09476180","name":"Teuschnitz, St","type":"Stadt"},"district":{"key":"09476","name":"Kronach","type":"Landkreis"},"federalState":{"key":"09","name":"Bayern"}},{"name":"Steinbacher Weg","postalCode":"96358","locality":"Teuschnitz","municipality":{"key":"09476180","name":"Teuschnitz, St","type":"Stadt"},"district":{"key":"09476","name":"Kronach","type":"Landkreis"},"federalState":{"key":"09","name":"Bayern"}},{"name":"Steinweg","postalCode":"96358","locality":"Teuschnitz","municipality":{"key":"09476180","name":"Teuschnitz, St","type":"Stadt"},"district":{"key":"09476","name":"Kronach","type":"Landkreis"},"federalState":{"key":"09","name":"Bayern"}},{"name":"Talstr.","postalCode":"96358","locality":"Teuschnitz","municipality":{"key":"09476180","name":"Teuschnitz, St","type":"Stadt"},"district":{"key":"09476","name":"Kronach","type":"Landkreis"},"federalState":{"key":"09","name":"Bayern"}},{"name":"Torberg","postalCode":"96358","locality":"Teuschnitz","municipality":{"key":"09476180","name":"Teuschnitz, St","type":"Stadt"},"district":{"key":"09476","name":"Kronach","type":"Landkreis"},"federalState":{"key":"09","name":"Bayern"}},{"name":"Untere Bamberger Str.","postalCode":"96317","locality":"Kronach","municipality":{"key":"09476145","name":"Kronach, St","type":"Stadt"},"district":{"key":"09476","name":"Kronach","type":"Landkreis"},"federalState":{"key":"09","name":"Bayern"}},{"name":"Vogtendorf","postalCode":"96317","locality":"Kronach","municipality":{"key":"09476145","name":"Kronach, St","type":"Stadt"},"district":{"key":"09476","name":"Kronach","type":"Landkreis"},"federalState":{"key":"09","name":"Bayern"}},{"name":"Vogtlandstr.","postalCode":"95497","locality":"Goldkronach","municipality":{"key":"09472143","name":"Goldkronach, St","type":"Stadt"},"district":{"key":"09472","name":"Bayreuth","type":"Landkreis"},"federalState":{"key":"09","name":"Bayern"}},{"name":"Weidenstr.","postalCode":"96358","locality":"Teuschnitz","municipality":{"key":"09476180","name":"Teuschnitz, St","type":"Stadt"},"district":{"key":"09476","name":"Kronach","type":"Landkreis"},"federalState":{"key":"09","name":"Bayern"}},{"name":"Wiesenbrüterweg","postalCode":"96358","locality":"Teuschnitz","municipality":{"key":"09476180","name":"Teuschnitz, St","type":"Stadt"},"district":{"key":"09476","name":"Kronach","type":"Landkreis"},"federalState":{"key":"09","name":"Bayern"}},{"name":"Wiesenstr.","postalCode":"96358","locality":"Teuschnitz","municipality":{"key":"09476180","name":"Teuschnitz, St","type":"Stadt"},"district":{"key":"09476","name":"Kronach","type":"Landkreis"},"federalState":{"key":"09","name":"Bayern"}},{"name":"Wiesenweg","postalCode":"96358","locality":"Teuschnitz","municipality":{"key":"09476180","name":"Teuschnitz, St","type":"Stadt"},"district":{"key":"09476","name":"Kronach","type":"Landkreis"},"federalState":{"key":"09","name":"Bayern"}},{"name":"Windberg","postalCode":"96358","locality":"Teuschnitz","municipality":{"key":"09476180","name":"Teuschnitz, St","type":"Stadt"},"district":{"key":"09476","name":"Kronach","type":"Landkreis"},"federalState":{"key":"09","name":"Bayern"}},{"name":"Ziegelanger","postalCode":"96317","locality":"Kronach","municipality":{"key":"09476145","name":"Kronach, St","type":"Stadt"},"district":{"key":"09476","name":"Kronach","type":"Landkreis"},"federalState":{"key":"09","name":"Bayern"}},{"name":"Ziegelangerbergweg","postalCode":"96317","locality":"Kronach","municipality":{"key":"09476145","name":"Kronach, St","type":"Stadt"},"district":{"key":"09476","name":"Kronach","type":"Landkreis"},"federalState":{"key":"09","name":"Bayern"}},{"name":"Ziegelerden","postalCode":"96317","locality":"Kronach","municipality":{"key":"09476145","name":"Kronach, St","type":"Stadt"},"district":{"key":"09476","name":"Kronach","type":"Landkreis"},"federalState":{"key":"09","name":"Bayern"}},{"name":"Zollbrunn","postalCode":"96317","locality":"Kronach","municipality":{"key":"09476145","name":"Kronach, St","type":"Stadt"},"district":{"key":"09476","name":"Kronach","type":"Landkreis"},"federalState":{"key":"09","name":"Bayern"}},{"name":"Zollbühlweg","postalCode":"96317","locality":"Kronach","municipality":{"key":"09476145","name":"Kronach, St","type":"Stadt"},"district":{"key":"09476","name":"Kronach","type":"Landkreis"},"federalState":{"key":"09","name":"Bayern"}},{"name":"Zollwehrsteig","postalCode":"96317","locality":"Kronach","municipality":{"key":"09476145","name":"Kronach, St","type":"Stadt"},"district":{"key":"09476","name":"Kronach","type":"Landkreis"},"federalState":{"key":"09","name":"Bayern"}},{"name":"Zoppatenstr.","postalCode":"95497","locality":"Goldkronach","municipality":{"key":"09472143","name":"Goldkronach, St","type":"Stadt"},"district":{"key":"09472","name":"Bayreuth","type":"Landkreis"},"federalState":{"key":"09","name":"Bayern"}},{"name":"Zum Gries","postalCode":"96317","locality":"Kronach","municipality":{"key":"09476145","name":"Kronach, St","type":"Stadt"},"district":{"key":"09476","name":"Kronach","type":"Landkreis"},"federalState":{"key":"09","name":"Bayern"}},{"name":"Zum Vogelherd","postalCode":"96317","locality":"Kronach","municipality":{"key":"09476145","name":"Kronach, St","type":"Stadt"},"district":{"key":"09476","name":"Kronach","type":"Landkreis"},"federalState":{"key":"09","name":"Bayern"}},{"name":"Zur Pfalz","postalCode":"96317","locality":"Kronach","municipality":{"key":"09476145","name":"Kronach, St","type":"Stadt"},"district":{"key":"09476","name":"Kronach","type":"Landkreis"},"federalState":{"key":"09","name":"Bayern"}},{"name":"Äußerer Ring","postalCode":"96317","locality":"Kronach","municipality":{"key":"09476145","name":"Kronach, St","type":"Stadt"},"district":{"key":"09476","name":"Kronach","type":"Landkreis"},"federalState":{"key":"09","name":"Bayern"}},]