[{"name":"Adlerstr.","postalCode":"92353","locality":"Postbauer-Heng","municipality":{"key":"09373155","name":"Postbauer-Heng, M","type":"Markt"},"district":{"key":"09373","name":"Neumarkt i.d.OPf.","type":"Landkreis"},"federalState":{"key":"09","name":"Bayern"}},{"name":"Alte Köstlbacher Str.","postalCode":"92353","locality":"Postbauer-Heng","municipality":{"key":"09373155","name":"Postbauer-Heng, M","type":"Markt"},"district":{"key":"09373","name":"Neumarkt i.d.OPf.","type":"Landkreis"},"federalState":{"key":"09","name":"Bayern"}},{"name":"Am Ährenkranz","postalCode":"92353","locality":"Postbauer-Heng","municipality":{"key":"09373155","name":"Postbauer-Heng, M","type":"Markt"},"district":{"key":"09373","name":"Neumarkt i.d.OPf.","type":"Landkreis"},"federalState":{"key":"09","name":"Bayern"}},{"name":"Am Anger","postalCode":"92353","locality":"Postbauer-Heng","municipality":{"key":"09373155","name":"Postbauer-Heng, M","type":"Markt"},"district":{"key":"09373","name":"Neumarkt i.d.OPf.","type":"Landkreis"},"federalState":{"key":"09","name":"Bayern"}},{"name":"Am Backofen","postalCode":"92353","locality":"Postbauer-Heng","municipality":{"key":"09373155","name":"Postbauer-Heng, M","type":"Markt"},"district":{"key":"09373","name":"Neumarkt i.d.OPf.","type":"Landkreis"},"federalState":{"key":"09","name":"Bayern"}},{"name":"Am Grünberg","postalCode":"92353","locality":"Postbauer-Heng","municipality":{"key":"09373155","name":"Postbauer-Heng, M","type":"Markt"},"district":{"key":"09373","name":"Neumarkt i.d.OPf.","type":"Landkreis"},"federalState":{"key":"09","name":"Bayern"}},{"name":"Am Henger Kühanger","postalCode":"92353","locality":"Postbauer-Heng","municipality":{"key":"09373155","name":"Postbauer-Heng, M","type":"Markt"},"district":{"key":"09373","name":"Neumarkt i.d.OPf.","type":"Landkreis"},"federalState":{"key":"09","name":"Bayern"}},{"name":"Am Kleeacker","postalCode":"92353","locality":"Postbauer-Heng","municipality":{"key":"09373155","name":"Postbauer-Heng, M","type":"Markt"},"district":{"key":"09373","name":"Neumarkt i.d.OPf.","type":"Landkreis"},"federalState":{"key":"09","name":"Bayern"}},{"name":"Am Schauerholz","postalCode":"92353","locality":"Postbauer-Heng","municipality":{"key":"09373155","name":"Postbauer-Heng, M","type":"Markt"},"district":{"key":"09373","name":"Neumarkt i.d.OPf.","type":"Landkreis"},"federalState":{"key":"09","name":"Bayern"}},{"name":"Am Schwall","postalCode":"92353","locality":"Postbauer-Heng","municipality":{"key":"09373155","name":"Postbauer-Heng, M","type":"Markt"},"district":{"key":"09373","name":"Neumarkt i.d.OPf.","type":"Landkreis"},"federalState":{"key":"09","name":"Bayern"}},{"name":"Amselweg","postalCode":"92353","locality":"Postbauer-Heng","municipality":{"key":"09373155","name":"Postbauer-Heng, M","type":"Markt"},"district":{"key":"09373","name":"Neumarkt i.d.OPf.","type":"Landkreis"},"federalState":{"key":"09","name":"Bayern"}},{"name":"Am Siegenbach","postalCode":"92353","locality":"Postbauer-Heng","municipality":{"key":"09373155","name":"Postbauer-Heng, M","type":"Markt"},"district":{"key":"09373","name":"Neumarkt i.d.OPf.","type":"Landkreis"},"federalState":{"key":"09","name":"Bayern"}},{"name":"Am Tiefenweg","postalCode":"92353","locality":"Postbauer-Heng","municipality":{"key":"09373155","name":"Postbauer-Heng, M","type":"Markt"},"district":{"key":"09373","name":"Neumarkt i.d.OPf.","type":"Landkreis"},"federalState":{"key":"09","name":"Bayern"}},{"name":"Am Weiher","postalCode":"92353","locality":"Postbauer-Heng","municipality":{"key":"09373155","name":"Postbauer-Heng, M","type":"Markt"},"district":{"key":"09373","name":"Neumarkt i.d.OPf.","type":"Landkreis"},"federalState":{"key":"09","name":"Bayern"}},{"name":"Am Weizenfeld","postalCode":"92353","locality":"Postbauer-Heng","municipality":{"key":"09373155","name":"Postbauer-Heng, M","type":"Markt"},"district":{"key":"09373","name":"Neumarkt i.d.OPf.","type":"Landkreis"},"federalState":{"key":"09","name":"Bayern"}},{"name":"Annastr.","postalCode":"92353","locality":"Postbauer-Heng","municipality":{"key":"09373155","name":"Postbauer-Heng, M","type":"Markt"},"district":{"key":"09373","name":"Neumarkt i.d.OPf.","type":"Landkreis"},"federalState":{"key":"09","name":"Bayern"}},{"name":"Badener Str.","postalCode":"92353","locality":"Postbauer-Heng","municipality":{"key":"09373155","name":"Postbauer-Heng, M","type":"Markt"},"district":{"key":"09373","name":"Neumarkt i.d.OPf.","type":"Landkreis"},"federalState":{"key":"09","name":"Bayern"}},{"name":"Bahnhofstr.","postalCode":"92353","locality":"Postbauer-Heng","municipality":{"key":"09373155","name":"Postbauer-Heng, M","type":"Markt"},"district":{"key":"09373","name":"Neumarkt i.d.OPf.","type":"Landkreis"},"federalState":{"key":"09","name":"Bayern"}},{"name":"Bayernstr.","postalCode":"92353","locality":"Postbauer-Heng","municipality":{"key":"09373155","name":"Postbauer-Heng, M","type":"Markt"},"district":{"key":"09373","name":"Neumarkt i.d.OPf.","type":"Landkreis"},"federalState":{"key":"09","name":"Bayern"}},{"name":"Bergstr.","postalCode":"92353","locality":"Postbauer-Heng","municipality":{"key":"09373155","name":"Postbauer-Heng, M","type":"Markt"},"district":{"key":"09373","name":"Neumarkt i.d.OPf.","type":"Landkreis"},"federalState":{"key":"09","name":"Bayern"}},{"name":"Berngauer Weg","postalCode":"92353","locality":"Postbauer-Heng","municipality":{"key":"09373155","name":"Postbauer-Heng, M","type":"Markt"},"district":{"key":"09373","name":"Neumarkt i.d.OPf.","type":"Landkreis"},"federalState":{"key":"09","name":"Bayern"}},{"name":"Blumenstr.","postalCode":"92353","locality":"Postbauer-Heng","municipality":{"key":"09373155","name":"Postbauer-Heng, M","type":"Markt"},"district":{"key":"09373","name":"Neumarkt i.d.OPf.","type":"Landkreis"},"federalState":{"key":"09","name":"Bayern"}},{"name":"Bogenstr.","postalCode":"92353","locality":"Postbauer-Heng","municipality":{"key":"09373155","name":"Postbauer-Heng, M","type":"Markt"},"district":{"key":"09373","name":"Neumarkt i.d.OPf.","type":"Landkreis"},"federalState":{"key":"09","name":"Bayern"}},{"name":"Brandmühle","postalCode":"92353","locality":"Postbauer-Heng","municipality":{"key":"09373155","name":"Postbauer-Heng, M","type":"Markt"},"district":{"key":"09373","name":"Neumarkt i.d.OPf.","type":"Landkreis"},"federalState":{"key":"09","name":"Bayern"}},{"name":"Brombühlweg","postalCode":"92353","locality":"Postbauer-Heng","municipality":{"key":"09373155","name":"Postbauer-Heng, M","type":"Markt"},"district":{"key":"09373","name":"Neumarkt i.d.OPf.","type":"Landkreis"},"federalState":{"key":"09","name":"Bayern"}},{"name":"Brückenstr.","postalCode":"92353","locality":"Postbauer-Heng","municipality":{"key":"09373155","name":"Postbauer-Heng, M","type":"Markt"},"district":{"key":"09373","name":"Neumarkt i.d.OPf.","type":"Landkreis"},"federalState":{"key":"09","name":"Bayern"}},{"name":"Brunnenweg","postalCode":"92353","locality":"Postbauer-Heng","municipality":{"key":"09373155","name":"Postbauer-Heng, M","type":"Markt"},"district":{"key":"09373","name":"Neumarkt i.d.OPf.","type":"Landkreis"},"federalState":{"key":"09","name":"Bayern"}},{"name":"Bucher Str.","postalCode":"92353","locality":"Postbauer-Heng","municipality":{"key":"09373155","name":"Postbauer-Heng, M","type":"Markt"},"district":{"key":"09373","name":"Neumarkt i.d.OPf.","type":"Landkreis"},"federalState":{"key":"09","name":"Bayern"}},{"name":"Bussardweg","postalCode":"92353","locality":"Postbauer-Heng","municipality":{"key":"09373155","name":"Postbauer-Heng, M","type":"Markt"},"district":{"key":"09373","name":"Neumarkt i.d.OPf.","type":"Landkreis"},"federalState":{"key":"09","name":"Bayern"}},{"name":"Cäciliastr.","postalCode":"92353","locality":"Postbauer-Heng","municipality":{"key":"09373155","name":"Postbauer-Heng, M","type":"Markt"},"district":{"key":"09373","name":"Neumarkt i.d.OPf.","type":"Landkreis"},"federalState":{"key":"09","name":"Bayern"}},{"name":"Centrum","postalCode":"92353","locality":"Postbauer-Heng","municipality":{"key":"09373155","name":"Postbauer-Heng, M","type":"Markt"},"district":{"key":"09373","name":"Neumarkt i.d.OPf.","type":"Landkreis"},"federalState":{"key":"09","name":"Bayern"}},{"name":"Deutschherrnstr.","postalCode":"92353","locality":"Postbauer-Heng","municipality":{"key":"09373155","name":"Postbauer-Heng, M","type":"Markt"},"district":{"key":"09373","name":"Neumarkt i.d.OPf.","type":"Landkreis"},"federalState":{"key":"09","name":"Bayern"}},{"name":"Dinkelweg","postalCode":"92353","locality":"Postbauer-Heng","municipality":{"key":"09373155","name":"Postbauer-Heng, M","type":"Markt"},"district":{"key":"09373","name":"Neumarkt i.d.OPf.","type":"Landkreis"},"federalState":{"key":"09","name":"Bayern"}},{"name":"Drosselweg","postalCode":"92353","locality":"Postbauer-Heng","municipality":{"key":"09373155","name":"Postbauer-Heng, M","type":"Markt"},"district":{"key":"09373","name":"Neumarkt i.d.OPf.","type":"Landkreis"},"federalState":{"key":"09","name":"Bayern"}},{"name":"Dürerstr.","postalCode":"92353","locality":"Postbauer-Heng","municipality":{"key":"09373155","name":"Postbauer-Heng, M","type":"Markt"},"district":{"key":"09373","name":"Neumarkt i.d.OPf.","type":"Landkreis"},"federalState":{"key":"09","name":"Bayern"}},{"name":"Entenweg","postalCode":"92353","locality":"Postbauer-Heng","municipality":{"key":"09373155","name":"Postbauer-Heng, M","type":"Markt"},"district":{"key":"09373","name":"Neumarkt i.d.OPf.","type":"Landkreis"},"federalState":{"key":"09","name":"Bayern"}},{"name":"Eppeleinstr.","postalCode":"92353","locality":"Postbauer-Heng","municipality":{"key":"09373155","name":"Postbauer-Heng, M","type":"Markt"},"district":{"key":"09373","name":"Neumarkt i.d.OPf.","type":"Landkreis"},"federalState":{"key":"09","name":"Bayern"}},{"name":"Esslinger Str.","postalCode":"92353","locality":"Postbauer-Heng","municipality":{"key":"09373155","name":"Postbauer-Heng, M","type":"Markt"},"district":{"key":"09373","name":"Neumarkt i.d.OPf.","type":"Landkreis"},"federalState":{"key":"09","name":"Bayern"}},{"name":"Ezelsdorfer Str.","postalCode":"92353","locality":"Postbauer-Heng","municipality":{"key":"09373155","name":"Postbauer-Heng, M","type":"Markt"},"district":{"key":"09373","name":"Neumarkt i.d.OPf.","type":"Landkreis"},"federalState":{"key":"09","name":"Bayern"}},{"name":"Falkenweg","postalCode":"92353","locality":"Postbauer-Heng","municipality":{"key":"09373155","name":"Postbauer-Heng, M","type":"Markt"},"district":{"key":"09373","name":"Neumarkt i.d.OPf.","type":"Landkreis"},"federalState":{"key":"09","name":"Bayern"}},{"name":"Fasanenweg","postalCode":"92353","locality":"Postbauer-Heng","municipality":{"key":"09373155","name":"Postbauer-Heng, M","type":"Markt"},"district":{"key":"09373","name":"Neumarkt i.d.OPf.","type":"Landkreis"},"federalState":{"key":"09","name":"Bayern"}},{"name":"Feldstr.","postalCode":"92353","locality":"Postbauer-Heng","municipality":{"key":"09373155","name":"Postbauer-Heng, M","type":"Markt"},"district":{"key":"09373","name":"Neumarkt i.d.OPf.","type":"Landkreis"},"federalState":{"key":"09","name":"Bayern"}},{"name":"Felsenstr.","postalCode":"92353","locality":"Postbauer-Heng","municipality":{"key":"09373155","name":"Postbauer-Heng, M","type":"Markt"},"district":{"key":"09373","name":"Neumarkt i.d.OPf.","type":"Landkreis"},"federalState":{"key":"09","name":"Bayern"}},{"name":"Finkenweg","postalCode":"92353","locality":"Postbauer-Heng","municipality":{"key":"09373155","name":"Postbauer-Heng, M","type":"Markt"},"district":{"key":"09373","name":"Neumarkt i.d.OPf.","type":"Landkreis"},"federalState":{"key":"09","name":"Bayern"}},{"name":"Fliederstr.","postalCode":"92353","locality":"Postbauer-Heng","municipality":{"key":"09373155","name":"Postbauer-Heng, M","type":"Markt"},"district":{"key":"09373","name":"Neumarkt i.d.OPf.","type":"Landkreis"},"federalState":{"key":"09","name":"Bayern"}},{"name":"Florianstr.","postalCode":"92353","locality":"Postbauer-Heng","municipality":{"key":"09373155","name":"Postbauer-Heng, M","type":"Markt"},"district":{"key":"09373","name":"Neumarkt i.d.OPf.","type":"Landkreis"},"federalState":{"key":"09","name":"Bayern"}},{"name":"Flurstr.","postalCode":"92353","locality":"Postbauer-Heng","municipality":{"key":"09373155","name":"Postbauer-Heng, M","type":"Markt"},"district":{"key":"09373","name":"Neumarkt i.d.OPf.","type":"Landkreis"},"federalState":{"key":"09","name":"Bayern"}},{"name":"Frankenstr.","postalCode":"92353","locality":"Postbauer-Heng","municipality":{"key":"09373155","name":"Postbauer-Heng, M","type":"Markt"},"district":{"key":"09373","name":"Neumarkt i.d.OPf.","type":"Landkreis"},"federalState":{"key":"09","name":"Bayern"}},{"name":"Freiburger Str.","postalCode":"92353","locality":"Postbauer-Heng","municipality":{"key":"09373155","name":"Postbauer-Heng, M","type":"Markt"},"district":{"key":"09373","name":"Neumarkt i.d.OPf.","type":"Landkreis"},"federalState":{"key":"09","name":"Bayern"}},{"name":"Friedenstr.","postalCode":"92353","locality":"Postbauer-Heng","municipality":{"key":"09373155","name":"Postbauer-Heng, M","type":"Markt"},"district":{"key":"09373","name":"Neumarkt i.d.OPf.","type":"Landkreis"},"federalState":{"key":"09","name":"Bayern"}},{"name":"gerade 26 - 40","postalCode":"92353","locality":"Postbauer-Heng","municipality":{"key":"09373155","name":"Postbauer-Heng, M","type":"Markt"},"district":{"key":"09373","name":"Neumarkt i.d.OPf.","type":"Landkreis"},"federalState":{"key":"09","name":"Bayern"}},{"name":"Gewerbegebiet Ost","postalCode":"92353","locality":"Postbauer-Heng","municipality":{"key":"09373155","name":"Postbauer-Heng, M","type":"Markt"},"district":{"key":"09373","name":"Neumarkt i.d.OPf.","type":"Landkreis"},"federalState":{"key":"09","name":"Bayern"}},{"name":"Grünberg Süd","postalCode":"92353","locality":"Postbauer-Heng","municipality":{"key":"09373155","name":"Postbauer-Heng, M","type":"Markt"},"district":{"key":"09373","name":"Neumarkt i.d.OPf.","type":"Landkreis"},"federalState":{"key":"09","name":"Bayern"}},{"name":"Habichtweg","postalCode":"92353","locality":"Postbauer-Heng","municipality":{"key":"09373155","name":"Postbauer-Heng, M","type":"Markt"},"district":{"key":"09373","name":"Neumarkt i.d.OPf.","type":"Landkreis"},"federalState":{"key":"09","name":"Bayern"}},{"name":"Haferweg","postalCode":"92353","locality":"Postbauer-Heng","municipality":{"key":"09373155","name":"Postbauer-Heng, M","type":"Markt"},"district":{"key":"09373","name":"Neumarkt i.d.OPf.","type":"Landkreis"},"federalState":{"key":"09","name":"Bayern"}},{"name":"Haffner Ring","postalCode":"92353","locality":"Postbauer-Heng","municipality":{"key":"09373155","name":"Postbauer-Heng, M","type":"Markt"},"district":{"key":"09373","name":"Neumarkt i.d.OPf.","type":"Landkreis"},"federalState":{"key":"09","name":"Bayern"}},{"name":"Hans-Ritter-Str.","postalCode":"92353","locality":"Postbauer-Heng","municipality":{"key":"09373155","name":"Postbauer-Heng, M","type":"Markt"},"district":{"key":"09373","name":"Neumarkt i.d.OPf.","type":"Landkreis"},"federalState":{"key":"09","name":"Bayern"}},{"name":"Hans-Sachs-Str.","postalCode":"92353","locality":"Postbauer-Heng","municipality":{"key":"09373155","name":"Postbauer-Heng, M","type":"Markt"},"district":{"key":"09373","name":"Neumarkt i.d.OPf.","type":"Landkreis"},"federalState":{"key":"09","name":"Bayern"}},{"name":"Hauptstr.","postalCode":"92353","locality":"Postbauer-Heng","municipality":{"key":"09373155","name":"Postbauer-Heng, M","type":"Markt"},"district":{"key":"09373","name":"Neumarkt i.d.OPf.","type":"Landkreis"},"federalState":{"key":"09","name":"Bayern"}},{"name":"Heinrichstr.","postalCode":"92353","locality":"Postbauer-Heng","municipality":{"key":"09373155","name":"Postbauer-Heng, M","type":"Markt"},"district":{"key":"09373","name":"Neumarkt i.d.OPf.","type":"Landkreis"},"federalState":{"key":"09","name":"Bayern"}},{"name":"Henger Str.","postalCode":"92353","locality":"Postbauer-Heng","municipality":{"key":"09373155","name":"Postbauer-Heng, M","type":"Markt"},"district":{"key":"09373","name":"Neumarkt i.d.OPf.","type":"Landkreis"},"federalState":{"key":"09","name":"Bayern"}},{"name":"Hofweg","postalCode":"92353","locality":"Postbauer-Heng","municipality":{"key":"09373155","name":"Postbauer-Heng, M","type":"Markt"},"district":{"key":"09373","name":"Neumarkt i.d.OPf.","type":"Landkreis"},"federalState":{"key":"09","name":"Bayern"}},{"name":"Hohenzollernstr.","postalCode":"92353","locality":"Postbauer-Heng","municipality":{"key":"09373155","name":"Postbauer-Heng, M","type":"Markt"},"district":{"key":"09373","name":"Neumarkt i.d.OPf.","type":"Landkreis"},"federalState":{"key":"09","name":"Bayern"}},{"name":"Im Schloßgwend","postalCode":"92353","locality":"Postbauer-Heng","municipality":{"key":"09373155","name":"Postbauer-Heng, M","type":"Markt"},"district":{"key":"09373","name":"Neumarkt i.d.OPf.","type":"Landkreis"},"federalState":{"key":"09","name":"Bayern"}},{"name":"Im Winkel","postalCode":"92353","locality":"Postbauer-Heng","municipality":{"key":"09373155","name":"Postbauer-Heng, M","type":"Markt"},"district":{"key":"09373","name":"Neumarkt i.d.OPf.","type":"Landkreis"},"federalState":{"key":"09","name":"Bayern"}},{"name":"Jäckleinstr.","postalCode":"92353","locality":"Postbauer-Heng","municipality":{"key":"09373155","name":"Postbauer-Heng, M","type":"Markt"},"district":{"key":"09373","name":"Neumarkt i.d.OPf.","type":"Landkreis"},"federalState":{"key":"09","name":"Bayern"}},{"name":"Josefstr.","postalCode":"92353","locality":"Postbauer-Heng","municipality":{"key":"09373155","name":"Postbauer-Heng, M","type":"Markt"},"district":{"key":"09373","name":"Neumarkt i.d.OPf.","type":"Landkreis"},"federalState":{"key":"09","name":"Bayern"}},{"name":"Jurastr.","postalCode":"92353","locality":"Postbauer-Heng","municipality":{"key":"09373155","name":"Postbauer-Heng, M","type":"Markt"},"district":{"key":"09373","name":"Neumarkt i.d.OPf.","type":"Landkreis"},"federalState":{"key":"09","name":"Bayern"}},{"name":"Kago-Platz","postalCode":"92353","locality":"Postbauer-Heng","municipality":{"key":"09373155","name":"Postbauer-Heng, M","type":"Markt"},"district":{"key":"09373","name":"Neumarkt i.d.OPf.","type":"Landkreis"},"federalState":{"key":"09","name":"Bayern"}},{"name":"Kapellenweg","postalCode":"92353","locality":"Postbauer-Heng","municipality":{"key":"09373155","name":"Postbauer-Heng, M","type":"Markt"},"district":{"key":"09373","name":"Neumarkt i.d.OPf.","type":"Landkreis"},"federalState":{"key":"09","name":"Bayern"}},{"name":"Kemnather Str.","postalCode":"92353","locality":"Postbauer-Heng","municipality":{"key":"09373155","name":"Postbauer-Heng, M","type":"Markt"},"district":{"key":"09373","name":"Neumarkt i.d.OPf.","type":"Landkreis"},"federalState":{"key":"09","name":"Bayern"}},{"name":"Kirchenweg","postalCode":"92353","locality":"Postbauer-Heng","municipality":{"key":"09373155","name":"Postbauer-Heng, M","type":"Markt"},"district":{"key":"09373","name":"Neumarkt i.d.OPf.","type":"Landkreis"},"federalState":{"key":"09","name":"Bayern"}},{"name":"Kornweg","postalCode":"92353","locality":"Postbauer-Heng","municipality":{"key":"09373155","name":"Postbauer-Heng, M","type":"Markt"},"district":{"key":"09373","name":"Neumarkt i.d.OPf.","type":"Landkreis"},"federalState":{"key":"09","name":"Bayern"}},{"name":"Köstlbach","postalCode":"92353","locality":"Postbauer-Heng","municipality":{"key":"09373155","name":"Postbauer-Heng, M","type":"Markt"},"district":{"key":"09373","name":"Neumarkt i.d.OPf.","type":"Landkreis"},"federalState":{"key":"09","name":"Bayern"}},{"name":"Köstlbacher Str.","postalCode":"92353","locality":"Postbauer-Heng","municipality":{"key":"09373155","name":"Postbauer-Heng, M","type":"Markt"},"district":{"key":"09373","name":"Neumarkt i.d.OPf.","type":"Landkreis"},"federalState":{"key":"09","name":"Bayern"}},{"name":"Kothmühlweg","postalCode":"92353","locality":"Postbauer-Heng","municipality":{"key":"09373155","name":"Postbauer-Heng, M","type":"Markt"},"district":{"key":"09373","name":"Neumarkt i.d.OPf.","type":"Landkreis"},"federalState":{"key":"09","name":"Bayern"}},{"name":"Kranichweg","postalCode":"92353","locality":"Postbauer-Heng","municipality":{"key":"09373155","name":"Postbauer-Heng, M","type":"Markt"},"district":{"key":"09373","name":"Neumarkt i.d.OPf.","type":"Landkreis"},"federalState":{"key":"09","name":"Bayern"}},{"name":"Kuckucksweg","postalCode":"92353","locality":"Postbauer-Heng","municipality":{"key":"09373155","name":"Postbauer-Heng, M","type":"Markt"},"district":{"key":"09373","name":"Neumarkt i.d.OPf.","type":"Landkreis"},"federalState":{"key":"09","name":"Bayern"}},{"name":"Langenweg","postalCode":"92353","locality":"Postbauer-Heng","municipality":{"key":"09373155","name":"Postbauer-Heng, M","type":"Markt"},"district":{"key":"09373","name":"Neumarkt i.d.OPf.","type":"Landkreis"},"federalState":{"key":"09","name":"Bayern"}},{"name":"Leonhardstr.","postalCode":"92353","locality":"Postbauer-Heng","municipality":{"key":"09373155","name":"Postbauer-Heng, M","type":"Markt"},"district":{"key":"09373","name":"Neumarkt i.d.OPf.","type":"Landkreis"},"federalState":{"key":"09","name":"Bayern"}},{"name":"Lerchenweg","postalCode":"92353","locality":"Postbauer-Heng","municipality":{"key":"09373155","name":"Postbauer-Heng, M","type":"Markt"},"district":{"key":"09373","name":"Neumarkt i.d.OPf.","type":"Landkreis"},"federalState":{"key":"09","name":"Bayern"}},{"name":"Lorenzer Str.","postalCode":"92353","locality":"Postbauer-Heng","municipality":{"key":"09373155","name":"Postbauer-Heng, M","type":"Markt"},"district":{"key":"09373","name":"Neumarkt i.d.OPf.","type":"Landkreis"},"federalState":{"key":"09","name":"Bayern"}},{"name":"Ludwigstr.","postalCode":"92353","locality":"Postbauer-Heng","municipality":{"key":"09373155","name":"Postbauer-Heng, M","type":"Markt"},"district":{"key":"09373","name":"Neumarkt i.d.OPf.","type":"Landkreis"},"federalState":{"key":"09","name":"Bayern"}},{"name":"Marienstr.","postalCode":"92353","locality":"Postbauer-Heng","municipality":{"key":"09373155","name":"Postbauer-Heng, M","type":"Markt"},"district":{"key":"09373","name":"Neumarkt i.d.OPf.","type":"Landkreis"},"federalState":{"key":"09","name":"Bayern"}},{"name":"Martin-Behaim-Str.","postalCode":"92353","locality":"Postbauer-Heng","municipality":{"key":"09373155","name":"Postbauer-Heng, M","type":"Markt"},"district":{"key":"09373","name":"Neumarkt i.d.OPf.","type":"Landkreis"},"federalState":{"key":"09","name":"Bayern"}},{"name":"Maximilianstr.","postalCode":"92353","locality":"Postbauer-Heng","municipality":{"key":"09373155","name":"Postbauer-Heng, M","type":"Markt"},"district":{"key":"09373","name":"Neumarkt i.d.OPf.","type":"Landkreis"},"federalState":{"key":"09","name":"Bayern"}},{"name":"Meisenweg","postalCode":"92353","locality":"Postbauer-Heng","municipality":{"key":"09373155","name":"Postbauer-Heng, M","type":"Markt"},"district":{"key":"09373","name":"Neumarkt i.d.OPf.","type":"Landkreis"},"federalState":{"key":"09","name":"Bayern"}},{"name":"Meistersingerstr.","postalCode":"92353","locality":"Postbauer-Heng","municipality":{"key":"09373155","name":"Postbauer-Heng, M","type":"Markt"},"district":{"key":"09373","name":"Neumarkt i.d.OPf.","type":"Landkreis"},"federalState":{"key":"09","name":"Bayern"}},{"name":"Moosangerstr.","postalCode":"92353","locality":"Postbauer-Heng","municipality":{"key":"09373155","name":"Postbauer-Heng, M","type":"Markt"},"district":{"key":"09373","name":"Neumarkt i.d.OPf.","type":"Landkreis"},"federalState":{"key":"09","name":"Bayern"}},{"name":"Moselstr.","postalCode":"92353","locality":"Postbauer-Heng","municipality":{"key":"09373155","name":"Postbauer-Heng, M","type":"Markt"},"district":{"key":"09373","name":"Neumarkt i.d.OPf.","type":"Landkreis"},"federalState":{"key":"09","name":"Bayern"}},{"name":"Möwenweg","postalCode":"92353","locality":"Postbauer-Heng","municipality":{"key":"09373155","name":"Postbauer-Heng, M","type":"Markt"},"district":{"key":"09373","name":"Neumarkt i.d.OPf.","type":"Landkreis"},"federalState":{"key":"09","name":"Bayern"}},{"name":"Nahestr.","postalCode":"92353","locality":"Postbauer-Heng","municipality":{"key":"09373155","name":"Postbauer-Heng, M","type":"Markt"},"district":{"key":"09373","name":"Neumarkt i.d.OPf.","type":"Landkreis"},"federalState":{"key":"09","name":"Bayern"}},{"name":"Naturbad Postbauer-Heng","postalCode":"92353","locality":"Postbauer-Heng","municipality":{"key":"09373155","name":"Postbauer-Heng, M","type":"Markt"},"district":{"key":"09373","name":"Neumarkt i.d.OPf.","type":"Landkreis"},"federalState":{"key":"09","name":"Bayern"}},{"name":"Neumarkter Str.","postalCode":"92353","locality":"Postbauer-Heng","municipality":{"key":"09373155","name":"Postbauer-Heng, M","type":"Markt"},"district":{"key":"09373","name":"Neumarkt i.d.OPf.","type":"Landkreis"},"federalState":{"key":"09","name":"Bayern"}},{"name":"Neuwiesenstr.","postalCode":"92353","locality":"Postbauer-Heng","municipality":{"key":"09373155","name":"Postbauer-Heng, M","type":"Markt"},"district":{"key":"09373","name":"Neumarkt i.d.OPf.","type":"Landkreis"},"federalState":{"key":"09","name":"Bayern"}},{"name":"Nürnberger Str.","postalCode":"92353","locality":"Postbauer-Heng","municipality":{"key":"09373155","name":"Postbauer-Heng, M","type":"Markt"},"district":{"key":"09373","name":"Neumarkt i.d.OPf.","type":"Landkreis"},"federalState":{"key":"09","name":"Bayern"}},{"name":"Oberpfalzstr.","postalCode":"92353","locality":"Postbauer-Heng","municipality":{"key":"09373155","name":"Postbauer-Heng, M","type":"Markt"},"district":{"key":"09373","name":"Neumarkt i.d.OPf.","type":"Landkreis"},"federalState":{"key":"09","name":"Bayern"}},{"name":"Ottostr.","postalCode":"92353","locality":"Postbauer-Heng","municipality":{"key":"09373155","name":"Postbauer-Heng, M","type":"Markt"},"district":{"key":"09373","name":"Neumarkt i.d.OPf.","type":"Landkreis"},"federalState":{"key":"09","name":"Bayern"}},{"name":"Paulstr.","postalCode":"92353","locality":"Postbauer-Heng","municipality":{"key":"09373155","name":"Postbauer-Heng, M","type":"Markt"},"district":{"key":"09373","name":"Neumarkt i.d.OPf.","type":"Landkreis"},"federalState":{"key":"09","name":"Bayern"}},{"name":"Peter-Henlein-Str.","postalCode":"92353","locality":"Postbauer-Heng","municipality":{"key":"09373155","name":"Postbauer-Heng, M","type":"Markt"},"district":{"key":"09373","name":"Neumarkt i.d.OPf.","type":"Landkreis"},"federalState":{"key":"09","name":"Bayern"}},{"name":"Peter-Vischer-Str.","postalCode":"92353","locality":"Postbauer-Heng","municipality":{"key":"09373155","name":"Postbauer-Heng, M","type":"Markt"},"district":{"key":"09373","name":"Neumarkt i.d.OPf.","type":"Landkreis"},"federalState":{"key":"09","name":"Bayern"}},{"name":"Pfälzerstr.","postalCode":"92353","locality":"Postbauer-Heng","municipality":{"key":"09373155","name":"Postbauer-Heng, M","type":"Markt"},"district":{"key":"09373","name":"Neumarkt i.d.OPf.","type":"Landkreis"},"federalState":{"key":"09","name":"Bayern"}},{"name":"Pirckheimer Str.","postalCode":"92353","locality":"Postbauer-Heng","municipality":{"key":"09373155","name":"Postbauer-Heng, M","type":"Markt"},"district":{"key":"09373","name":"Neumarkt i.d.OPf.","type":"Landkreis"},"federalState":{"key":"09","name":"Bayern"}},{"name":"Postbauer Str.","postalCode":"92353","locality":"Postbauer-Heng","municipality":{"key":"09373155","name":"Postbauer-Heng, M","type":"Markt"},"district":{"key":"09373","name":"Neumarkt i.d.OPf.","type":"Landkreis"},"federalState":{"key":"09","name":"Bayern"}},{"name":"Pyrbaumer Str.","postalCode":"92353","locality":"Postbauer-Heng","municipality":{"key":"09373155","name":"Postbauer-Heng, M","type":"Markt"},"district":{"key":"09373","name":"Neumarkt i.d.OPf.","type":"Landkreis"},"federalState":{"key":"09","name":"Bayern"}},{"name":"Raiffeisenstr.","postalCode":"92353","locality":"Postbauer-Heng","municipality":{"key":"09373155","name":"Postbauer-Heng, M","type":"Markt"},"district":{"key":"09373","name":"Neumarkt i.d.OPf.","type":"Landkreis"},"federalState":{"key":"09","name":"Bayern"}},{"name":"Rebhuhnweg","postalCode":"92353","locality":"Postbauer-Heng","municipality":{"key":"09373155","name":"Postbauer-Heng, M","type":"Markt"},"district":{"key":"09373","name":"Neumarkt i.d.OPf.","type":"Landkreis"},"federalState":{"key":"09","name":"Bayern"}},{"name":"Rosenstr.","postalCode":"92353","locality":"Postbauer-Heng","municipality":{"key":"09373155","name":"Postbauer-Heng, M","type":"Markt"},"district":{"key":"09373","name":"Neumarkt i.d.OPf.","type":"Landkreis"},"federalState":{"key":"09","name":"Bayern"}},{"name":"Sandstr.","postalCode":"92353","locality":"Postbauer-Heng","municipality":{"key":"09373155","name":"Postbauer-Heng, M","type":"Markt"},"district":{"key":"09373","name":"Neumarkt i.d.OPf.","type":"Landkreis"},"federalState":{"key":"09","name":"Bayern"}},{"name":"Sartoriusweg","postalCode":"92353","locality":"Postbauer-Heng","municipality":{"key":"09373155","name":"Postbauer-Heng, M","type":"Markt"},"district":{"key":"09373","name":"Neumarkt i.d.OPf.","type":"Landkreis"},"federalState":{"key":"09","name":"Bayern"}},{"name":"Schulstr.","postalCode":"92353","locality":"Postbauer-Heng","municipality":{"key":"09373155","name":"Postbauer-Heng, M","type":"Markt"},"district":{"key":"09373","name":"Neumarkt i.d.OPf.","type":"Landkreis"},"federalState":{"key":"09","name":"Bayern"}},{"name":"Schwabenstr.","postalCode":"92353","locality":"Postbauer-Heng","municipality":{"key":"09373155","name":"Postbauer-Heng, M","type":"Markt"},"district":{"key":"09373","name":"Neumarkt i.d.OPf.","type":"Landkreis"},"federalState":{"key":"09","name":"Bayern"}},{"name":"Schwalbenweg","postalCode":"92353","locality":"Postbauer-Heng","municipality":{"key":"09373155","name":"Postbauer-Heng, M","type":"Markt"},"district":{"key":"09373","name":"Neumarkt i.d.OPf.","type":"Landkreis"},"federalState":{"key":"09","name":"Bayern"}},{"name":"Sebaldusstr.","postalCode":"92353","locality":"Postbauer-Heng","municipality":{"key":"09373155","name":"Postbauer-Heng, M","type":"Markt"},"district":{"key":"09373","name":"Neumarkt i.d.OPf.","type":"Landkreis"},"federalState":{"key":"09","name":"Bayern"}},{"name":"Sebastianstr.","postalCode":"92353","locality":"Postbauer-Heng","municipality":{"key":"09373155","name":"Postbauer-Heng, M","type":"Markt"},"district":{"key":"09373","name":"Neumarkt i.d.OPf.","type":"Landkreis"},"federalState":{"key":"09","name":"Bayern"}},{"name":"Siedlerstr.","postalCode":"92353","locality":"Postbauer-Heng","municipality":{"key":"09373155","name":"Postbauer-Heng, M","type":"Markt"},"district":{"key":"09373","name":"Neumarkt i.d.OPf.","type":"Landkreis"},"federalState":{"key":"09","name":"Bayern"}},{"name":"Simonstr.","postalCode":"92353","locality":"Postbauer-Heng","municipality":{"key":"09373155","name":"Postbauer-Heng, M","type":"Markt"},"district":{"key":"09373","name":"Neumarkt i.d.OPf.","type":"Landkreis"},"federalState":{"key":"09","name":"Bayern"}},{"name":"Spechtweg","postalCode":"92353","locality":"Postbauer-Heng","municipality":{"key":"09373155","name":"Postbauer-Heng, M","type":"Markt"},"district":{"key":"09373","name":"Neumarkt i.d.OPf.","type":"Landkreis"},"federalState":{"key":"09","name":"Bayern"}},{"name":"Sperlingweg","postalCode":"92353","locality":"Postbauer-Heng","municipality":{"key":"09373155","name":"Postbauer-Heng, M","type":"Markt"},"district":{"key":"09373","name":"Neumarkt i.d.OPf.","type":"Landkreis"},"federalState":{"key":"09","name":"Bayern"}},{"name":"Stefanstr.","postalCode":"92353","locality":"Postbauer-Heng","municipality":{"key":"09373155","name":"Postbauer-Heng, M","type":"Markt"},"district":{"key":"09373","name":"Neumarkt i.d.OPf.","type":"Landkreis"},"federalState":{"key":"09","name":"Bayern"}},{"name":"Steinwiese","postalCode":"92353","locality":"Postbauer-Heng","municipality":{"key":"09373155","name":"Postbauer-Heng, M","type":"Markt"},"district":{"key":"09373","name":"Neumarkt i.d.OPf.","type":"Landkreis"},"federalState":{"key":"09","name":"Bayern"}},{"name":"Stockäckerstr.","postalCode":"92353","locality":"Postbauer-Heng","municipality":{"key":"09373155","name":"Postbauer-Heng, M","type":"Markt"},"district":{"key":"09373","name":"Neumarkt i.d.OPf.","type":"Landkreis"},"federalState":{"key":"09","name":"Bayern"}},{"name":"Storchenweg","postalCode":"92353","locality":"Postbauer-Heng","municipality":{"key":"09373155","name":"Postbauer-Heng, M","type":"Markt"},"district":{"key":"09373","name":"Neumarkt i.d.OPf.","type":"Landkreis"},"federalState":{"key":"09","name":"Bayern"}},{"name":"Sudetenstr.","postalCode":"92353","locality":"Postbauer-Heng","municipality":{"key":"09373155","name":"Postbauer-Heng, M","type":"Markt"},"district":{"key":"09373","name":"Neumarkt i.d.OPf.","type":"Landkreis"},"federalState":{"key":"09","name":"Bayern"}},{"name":"Talwiese","postalCode":"92353","locality":"Postbauer-Heng","municipality":{"key":"09373155","name":"Postbauer-Heng, M","type":"Markt"},"district":{"key":"09373","name":"Neumarkt i.d.OPf.","type":"Landkreis"},"federalState":{"key":"09","name":"Bayern"}},{"name":"Taubenweg","postalCode":"92353","locality":"Postbauer-Heng","municipality":{"key":"09373155","name":"Postbauer-Heng, M","type":"Markt"},"district":{"key":"09373","name":"Neumarkt i.d.OPf.","type":"Landkreis"},"federalState":{"key":"09","name":"Bayern"}},{"name":"Teichwiesen","postalCode":"92353","locality":"Postbauer-Heng","municipality":{"key":"09373155","name":"Postbauer-Heng, M","type":"Markt"},"district":{"key":"09373","name":"Neumarkt i.d.OPf.","type":"Landkreis"},"federalState":{"key":"09","name":"Bayern"}},{"name":"Theresienstr.","postalCode":"92353","locality":"Postbauer-Heng","municipality":{"key":"09373155","name":"Postbauer-Heng, M","type":"Markt"},"district":{"key":"09373","name":"Neumarkt i.d.OPf.","type":"Landkreis"},"federalState":{"key":"09","name":"Bayern"}},{"name":"Tiefwiesenstr.","postalCode":"92353","locality":"Postbauer-Heng","municipality":{"key":"09373155","name":"Postbauer-Heng, M","type":"Markt"},"district":{"key":"09373","name":"Neumarkt i.d.OPf.","type":"Landkreis"},"federalState":{"key":"09","name":"Bayern"}},{"name":"Trichterstr.","postalCode":"92353","locality":"Postbauer-Heng","municipality":{"key":"09373155","name":"Postbauer-Heng, M","type":"Markt"},"district":{"key":"09373","name":"Neumarkt i.d.OPf.","type":"Landkreis"},"federalState":{"key":"09","name":"Bayern"}},{"name":"Tübinger Str.","postalCode":"92353","locality":"Postbauer-Heng","municipality":{"key":"09373155","name":"Postbauer-Heng, M","type":"Markt"},"district":{"key":"09373","name":"Neumarkt i.d.OPf.","type":"Landkreis"},"federalState":{"key":"09","name":"Bayern"}},{"name":"Ulrichstr.","postalCode":"92353","locality":"Postbauer-Heng","municipality":{"key":"09373155","name":"Postbauer-Heng, M","type":"Markt"},"district":{"key":"09373","name":"Neumarkt i.d.OPf.","type":"Landkreis"},"federalState":{"key":"09","name":"Bayern"}},{"name":"Unterferrieder Weg","postalCode":"92353","locality":"Postbauer-Heng","municipality":{"key":"09373155","name":"Postbauer-Heng, M","type":"Markt"},"district":{"key":"09373","name":"Neumarkt i.d.OPf.","type":"Landkreis"},"federalState":{"key":"09","name":"Bayern"}},{"name":"Veitstr.","postalCode":"92353","locality":"Postbauer-Heng","municipality":{"key":"09373155","name":"Postbauer-Heng, M","type":"Markt"},"district":{"key":"09373","name":"Neumarkt i.d.OPf.","type":"Landkreis"},"federalState":{"key":"09","name":"Bayern"}},{"name":"Von-Hornstein-Str.","postalCode":"92353","locality":"Postbauer-Heng","municipality":{"key":"09373155","name":"Postbauer-Heng, M","type":"Markt"},"district":{"key":"09373","name":"Neumarkt i.d.OPf.","type":"Landkreis"},"federalState":{"key":"09","name":"Bayern"}},{"name":"Von-Tucher-Str.","postalCode":"92353","locality":"Postbauer-Heng","municipality":{"key":"09373155","name":"Postbauer-Heng, M","type":"Markt"},"district":{"key":"09373","name":"Neumarkt i.d.OPf.","type":"Landkreis"},"federalState":{"key":"09","name":"Bayern"}},{"name":"Waldstr.","postalCode":"92353","locality":"Postbauer-Heng","municipality":{"key":"09373155","name":"Postbauer-Heng, M","type":"Markt"},"district":{"key":"09373","name":"Neumarkt i.d.OPf.","type":"Landkreis"},"federalState":{"key":"09","name":"Bayern"}},{"name":"Wiesenstr.","postalCode":"92353","locality":"Postbauer-Heng","municipality":{"key":"09373155","name":"Postbauer-Heng, M","type":"Markt"},"district":{"key":"09373","name":"Neumarkt i.d.OPf.","type":"Landkreis"},"federalState":{"key":"09","name":"Bayern"}},{"name":"Württemberger Str.","postalCode":"92353","locality":"Postbauer-Heng","municipality":{"key":"09373155","name":"Postbauer-Heng, M","type":"Markt"},"district":{"key":"09373","name":"Neumarkt i.d.OPf.","type":"Landkreis"},"federalState":{"key":"09","name":"Bayern"}},{"name":"Zeisigweg","postalCode":"92353","locality":"Postbauer-Heng","municipality":{"key":"09373155","name":"Postbauer-Heng, M","type":"Markt"},"district":{"key":"09373","name":"Neumarkt i.d.OPf.","type":"Landkreis"},"federalState":{"key":"09","name":"Bayern"}},]