[{"name":"Achalmstr.","postalCode":"72184","locality":"Eutingen im Gäu","municipality":{"key":"08237027","name":"Eutingen im Gäu","type":"Kreisangehörige_Gemeinde"},"district":{"key":"08237","name":"Freudenstadt","type":"Landkreis"},"federalState":{"key":"08","name":"Baden-Württemberg"}},{"name":"Ahornweg","postalCode":"72184","locality":"Eutingen im Gäu","municipality":{"key":"08237027","name":"Eutingen im Gäu","type":"Kreisangehörige_Gemeinde"},"district":{"key":"08237","name":"Freudenstadt","type":"Landkreis"},"federalState":{"key":"08","name":"Baden-Württemberg"}},{"name":"Albblickstr.","postalCode":"72184","locality":"Eutingen im Gäu","municipality":{"key":"08237027","name":"Eutingen im Gäu","type":"Kreisangehörige_Gemeinde"},"district":{"key":"08237","name":"Freudenstadt","type":"Landkreis"},"federalState":{"key":"08","name":"Baden-Württemberg"}},{"name":"Alemannenstr.","postalCode":"72184","locality":"Eutingen im Gäu","municipality":{"key":"08237027","name":"Eutingen im Gäu","type":"Kreisangehörige_Gemeinde"},"district":{"key":"08237","name":"Freudenstadt","type":"Landkreis"},"federalState":{"key":"08","name":"Baden-Württemberg"}},{"name":"Alter Bahnhof","postalCode":"72184","locality":"Eutingen im Gäu","municipality":{"key":"08237027","name":"Eutingen im Gäu","type":"Kreisangehörige_Gemeinde"},"district":{"key":"08237","name":"Freudenstadt","type":"Landkreis"},"federalState":{"key":"08","name":"Baden-Württemberg"}},{"name":"Alte Steige","postalCode":"72184","locality":"Eutingen im Gäu","municipality":{"key":"08237027","name":"Eutingen im Gäu","type":"Kreisangehörige_Gemeinde"},"district":{"key":"08237","name":"Freudenstadt","type":"Landkreis"},"federalState":{"key":"08","name":"Baden-Württemberg"}},{"name":"Altheimerweg","postalCode":"72184","locality":"Eutingen im Gäu","municipality":{"key":"08237027","name":"Eutingen im Gäu","type":"Kreisangehörige_Gemeinde"},"district":{"key":"08237","name":"Freudenstadt","type":"Landkreis"},"federalState":{"key":"08","name":"Baden-Württemberg"}},{"name":"Am Bahnhof","postalCode":"72184","locality":"Eutingen im Gäu","municipality":{"key":"08237027","name":"Eutingen im Gäu","type":"Kreisangehörige_Gemeinde"},"district":{"key":"08237","name":"Freudenstadt","type":"Landkreis"},"federalState":{"key":"08","name":"Baden-Württemberg"}},{"name":"Am Käppele","postalCode":"72184","locality":"Eutingen im Gäu","municipality":{"key":"08237027","name":"Eutingen im Gäu","type":"Kreisangehörige_Gemeinde"},"district":{"key":"08237","name":"Freudenstadt","type":"Landkreis"},"federalState":{"key":"08","name":"Baden-Württemberg"}},{"name":"Am Sportplatz","postalCode":"72184","locality":"Eutingen im Gäu","municipality":{"key":"08237027","name":"Eutingen im Gäu","type":"Kreisangehörige_Gemeinde"},"district":{"key":"08237","name":"Freudenstadt","type":"Landkreis"},"federalState":{"key":"08","name":"Baden-Württemberg"}},{"name":"Am Wiesenrain","postalCode":"72184","locality":"Eutingen im Gäu","municipality":{"key":"08237027","name":"Eutingen im Gäu","type":"Kreisangehörige_Gemeinde"},"district":{"key":"08237","name":"Freudenstadt","type":"Landkreis"},"federalState":{"key":"08","name":"Baden-Württemberg"}},{"name":"Aschenberg","postalCode":"72184","locality":"Eutingen im Gäu","municipality":{"key":"08237027","name":"Eutingen im Gäu","type":"Kreisangehörige_Gemeinde"},"district":{"key":"08237","name":"Freudenstadt","type":"Landkreis"},"federalState":{"key":"08","name":"Baden-Württemberg"}},{"name":"Aschengrundweg","postalCode":"72184","locality":"Eutingen im Gäu","municipality":{"key":"08237027","name":"Eutingen im Gäu","type":"Kreisangehörige_Gemeinde"},"district":{"key":"08237","name":"Freudenstadt","type":"Landkreis"},"federalState":{"key":"08","name":"Baden-Württemberg"}},{"name":"Asternweg","postalCode":"72184","locality":"Eutingen im Gäu","municipality":{"key":"08237027","name":"Eutingen im Gäu","type":"Kreisangehörige_Gemeinde"},"district":{"key":"08237","name":"Freudenstadt","type":"Landkreis"},"federalState":{"key":"08","name":"Baden-Württemberg"}},{"name":"Auchtert","postalCode":"72184","locality":"Eutingen im Gäu","municipality":{"key":"08237027","name":"Eutingen im Gäu","type":"Kreisangehörige_Gemeinde"},"district":{"key":"08237","name":"Freudenstadt","type":"Landkreis"},"federalState":{"key":"08","name":"Baden-Württemberg"}},{"name":"Austr.","postalCode":"72184","locality":"Eutingen im Gäu","municipality":{"key":"08237027","name":"Eutingen im Gäu","type":"Kreisangehörige_Gemeinde"},"district":{"key":"08237","name":"Freudenstadt","type":"Landkreis"},"federalState":{"key":"08","name":"Baden-Württemberg"}},{"name":"Auwaldweg","postalCode":"72184","locality":"Eutingen im Gäu","municipality":{"key":"08237027","name":"Eutingen im Gäu","type":"Kreisangehörige_Gemeinde"},"district":{"key":"08237","name":"Freudenstadt","type":"Landkreis"},"federalState":{"key":"08","name":"Baden-Württemberg"}},{"name":"Bachstr.","postalCode":"72184","locality":"Eutingen im Gäu","municipality":{"key":"08237027","name":"Eutingen im Gäu","type":"Kreisangehörige_Gemeinde"},"district":{"key":"08237","name":"Freudenstadt","type":"Landkreis"},"federalState":{"key":"08","name":"Baden-Württemberg"}},{"name":"Bahnhof Hochdorf","postalCode":"72184","locality":"Eutingen im Gäu","municipality":{"key":"08237027","name":"Eutingen im Gäu","type":"Kreisangehörige_Gemeinde"},"district":{"key":"08237","name":"Freudenstadt","type":"Landkreis"},"federalState":{"key":"08","name":"Baden-Württemberg"}},{"name":"Bahnhofstr.","postalCode":"72184","locality":"Eutingen im Gäu","municipality":{"key":"08237027","name":"Eutingen im Gäu","type":"Kreisangehörige_Gemeinde"},"district":{"key":"08237","name":"Freudenstadt","type":"Landkreis"},"federalState":{"key":"08","name":"Baden-Württemberg"}},{"name":"Baisinger Str.","postalCode":"72184","locality":"Eutingen im Gäu","municipality":{"key":"08237027","name":"Eutingen im Gäu","type":"Kreisangehörige_Gemeinde"},"district":{"key":"08237","name":"Freudenstadt","type":"Landkreis"},"federalState":{"key":"08","name":"Baden-Württemberg"}},{"name":"Bannbühlweg","postalCode":"72184","locality":"Eutingen im Gäu","municipality":{"key":"08237027","name":"Eutingen im Gäu","type":"Kreisangehörige_Gemeinde"},"district":{"key":"08237","name":"Freudenstadt","type":"Landkreis"},"federalState":{"key":"08","name":"Baden-Württemberg"}},{"name":"Bei der Kirche","postalCode":"72184","locality":"Eutingen im Gäu","municipality":{"key":"08237027","name":"Eutingen im Gäu","type":"Kreisangehörige_Gemeinde"},"district":{"key":"08237","name":"Freudenstadt","type":"Landkreis"},"federalState":{"key":"08","name":"Baden-Württemberg"}},{"name":"Benzstr.","postalCode":"72184","locality":"Eutingen im Gäu","municipality":{"key":"08237027","name":"Eutingen im Gäu","type":"Kreisangehörige_Gemeinde"},"district":{"key":"08237","name":"Freudenstadt","type":"Landkreis"},"federalState":{"key":"08","name":"Baden-Württemberg"}},{"name":"Bergstr.","postalCode":"72184","locality":"Eutingen im Gäu","municipality":{"key":"08237027","name":"Eutingen im Gäu","type":"Kreisangehörige_Gemeinde"},"district":{"key":"08237","name":"Freudenstadt","type":"Landkreis"},"federalState":{"key":"08","name":"Baden-Württemberg"}},{"name":"Beundleweg","postalCode":"72184","locality":"Eutingen im Gäu","municipality":{"key":"08237027","name":"Eutingen im Gäu","type":"Kreisangehörige_Gemeinde"},"district":{"key":"08237","name":"Freudenstadt","type":"Landkreis"},"federalState":{"key":"08","name":"Baden-Württemberg"}},{"name":"Birkenweg","postalCode":"72184","locality":"Eutingen im Gäu","municipality":{"key":"08237027","name":"Eutingen im Gäu","type":"Kreisangehörige_Gemeinde"},"district":{"key":"08237","name":"Freudenstadt","type":"Landkreis"},"federalState":{"key":"08","name":"Baden-Württemberg"}},{"name":"Blumenstr.","postalCode":"72184","locality":"Eutingen im Gäu","municipality":{"key":"08237027","name":"Eutingen im Gäu","type":"Kreisangehörige_Gemeinde"},"district":{"key":"08237","name":"Freudenstadt","type":"Landkreis"},"federalState":{"key":"08","name":"Baden-Württemberg"}},{"name":"Blumenweg","postalCode":"72184","locality":"Eutingen im Gäu","municipality":{"key":"08237027","name":"Eutingen im Gäu","type":"Kreisangehörige_Gemeinde"},"district":{"key":"08237","name":"Freudenstadt","type":"Landkreis"},"federalState":{"key":"08","name":"Baden-Württemberg"}},{"name":"Börstinger Str.","postalCode":"72184","locality":"Eutingen im Gäu","municipality":{"key":"08237027","name":"Eutingen im Gäu","type":"Kreisangehörige_Gemeinde"},"district":{"key":"08237","name":"Freudenstadt","type":"Landkreis"},"federalState":{"key":"08","name":"Baden-Württemberg"}},{"name":"Breite","postalCode":"72184","locality":"Eutingen im Gäu","municipality":{"key":"08237027","name":"Eutingen im Gäu","type":"Kreisangehörige_Gemeinde"},"district":{"key":"08237","name":"Freudenstadt","type":"Landkreis"},"federalState":{"key":"08","name":"Baden-Württemberg"}},{"name":"Brühlgäßle","postalCode":"72184","locality":"Eutingen im Gäu","municipality":{"key":"08237027","name":"Eutingen im Gäu","type":"Kreisangehörige_Gemeinde"},"district":{"key":"08237","name":"Freudenstadt","type":"Landkreis"},"federalState":{"key":"08","name":"Baden-Württemberg"}},{"name":"Brühlweg","postalCode":"72184","locality":"Eutingen im Gäu","municipality":{"key":"08237027","name":"Eutingen im Gäu","type":"Kreisangehörige_Gemeinde"},"district":{"key":"08237","name":"Freudenstadt","type":"Landkreis"},"federalState":{"key":"08","name":"Baden-Württemberg"}},{"name":"Brunnenstr.","postalCode":"72184","locality":"Eutingen im Gäu","municipality":{"key":"08237027","name":"Eutingen im Gäu","type":"Kreisangehörige_Gemeinde"},"district":{"key":"08237","name":"Freudenstadt","type":"Landkreis"},"federalState":{"key":"08","name":"Baden-Württemberg"}},{"name":"Buchenweg","postalCode":"72184","locality":"Eutingen im Gäu","municipality":{"key":"08237027","name":"Eutingen im Gäu","type":"Kreisangehörige_Gemeinde"},"district":{"key":"08237","name":"Freudenstadt","type":"Landkreis"},"federalState":{"key":"08","name":"Baden-Württemberg"}},{"name":"Bühlen","postalCode":"72184","locality":"Eutingen im Gäu","municipality":{"key":"08237027","name":"Eutingen im Gäu","type":"Kreisangehörige_Gemeinde"},"district":{"key":"08237","name":"Freudenstadt","type":"Landkreis"},"federalState":{"key":"08","name":"Baden-Württemberg"}},{"name":"Burgweg","postalCode":"72184","locality":"Eutingen im Gäu","municipality":{"key":"08237027","name":"Eutingen im Gäu","type":"Kreisangehörige_Gemeinde"},"district":{"key":"08237","name":"Freudenstadt","type":"Landkreis"},"federalState":{"key":"08","name":"Baden-Württemberg"}},{"name":"Carl-Beer-Str.","postalCode":"72250","locality":"Freudenstadt","municipality":{"key":"08237028","name":"Freudenstadt, Stadt","type":"Große_Kreisstadt"},"district":{"key":"08237","name":"Freudenstadt","type":"Landkreis"},"federalState":{"key":"08","name":"Baden-Württemberg"}},{"name":"Carl-Benz-Str.","postalCode":"72250","locality":"Freudenstadt","municipality":{"key":"08237028","name":"Freudenstadt, Stadt","type":"Große_Kreisstadt"},"district":{"key":"08237","name":"Freudenstadt","type":"Landkreis"},"federalState":{"key":"08","name":"Baden-Württemberg"}},{"name":"Carl-Zeiss-Str.","postalCode":"72250","locality":"Freudenstadt","municipality":{"key":"08237028","name":"Freudenstadt, Stadt","type":"Große_Kreisstadt"},"district":{"key":"08237","name":"Freudenstadt","type":"Landkreis"},"federalState":{"key":"08","name":"Baden-Württemberg"}},{"name":"Christophstaler Steige","postalCode":"72250","locality":"Freudenstadt","municipality":{"key":"08237028","name":"Freudenstadt, Stadt","type":"Große_Kreisstadt"},"district":{"key":"08237","name":"Freudenstadt","type":"Landkreis"},"federalState":{"key":"08","name":"Baden-Württemberg"}},{"name":"Christophstr.","postalCode":"72250","locality":"Freudenstadt","municipality":{"key":"08237028","name":"Freudenstadt, Stadt","type":"Große_Kreisstadt"},"district":{"key":"08237","name":"Freudenstadt","type":"Landkreis"},"federalState":{"key":"08","name":"Baden-Württemberg"}},{"name":"Clara-Schumann-Weg","postalCode":"72250","locality":"Freudenstadt","municipality":{"key":"08237028","name":"Freudenstadt, Stadt","type":"Große_Kreisstadt"},"district":{"key":"08237","name":"Freudenstadt","type":"Landkreis"},"federalState":{"key":"08","name":"Baden-Württemberg"}},{"name":"Daimlerstr.","postalCode":"72184","locality":"Eutingen im Gäu","municipality":{"key":"08237027","name":"Eutingen im Gäu","type":"Kreisangehörige_Gemeinde"},"district":{"key":"08237","name":"Freudenstadt","type":"Landkreis"},"federalState":{"key":"08","name":"Baden-Württemberg"}},{"name":"Dekan-Wagner-Str.","postalCode":"72184","locality":"Eutingen im Gäu","municipality":{"key":"08237027","name":"Eutingen im Gäu","type":"Kreisangehörige_Gemeinde"},"district":{"key":"08237","name":"Freudenstadt","type":"Landkreis"},"federalState":{"key":"08","name":"Baden-Württemberg"}},{"name":"Dolinenweg","postalCode":"72184","locality":"Eutingen im Gäu","municipality":{"key":"08237027","name":"Eutingen im Gäu","type":"Kreisangehörige_Gemeinde"},"district":{"key":"08237","name":"Freudenstadt","type":"Landkreis"},"federalState":{"key":"08","name":"Baden-Württemberg"}},{"name":"Dorfstr.","postalCode":"72184","locality":"Eutingen im Gäu","municipality":{"key":"08237027","name":"Eutingen im Gäu","type":"Kreisangehörige_Gemeinde"},"district":{"key":"08237","name":"Freudenstadt","type":"Landkreis"},"federalState":{"key":"08","name":"Baden-Württemberg"}},{"name":"Dorfwiesenweg","postalCode":"72184","locality":"Eutingen im Gäu","municipality":{"key":"08237027","name":"Eutingen im Gäu","type":"Kreisangehörige_Gemeinde"},"district":{"key":"08237","name":"Freudenstadt","type":"Landkreis"},"federalState":{"key":"08","name":"Baden-Württemberg"}},{"name":"Drosselstr.","postalCode":"72184","locality":"Eutingen im Gäu","municipality":{"key":"08237027","name":"Eutingen im Gäu","type":"Kreisangehörige_Gemeinde"},"district":{"key":"08237","name":"Freudenstadt","type":"Landkreis"},"federalState":{"key":"08","name":"Baden-Württemberg"}},{"name":"Eckenweilerstr.","postalCode":"72184","locality":"Eutingen im Gäu","municipality":{"key":"08237027","name":"Eutingen im Gäu","type":"Kreisangehörige_Gemeinde"},"district":{"key":"08237","name":"Freudenstadt","type":"Landkreis"},"federalState":{"key":"08","name":"Baden-Württemberg"}},{"name":"Eichenbergstr.","postalCode":"72184","locality":"Eutingen im Gäu","municipality":{"key":"08237027","name":"Eutingen im Gäu","type":"Kreisangehörige_Gemeinde"},"district":{"key":"08237","name":"Freudenstadt","type":"Landkreis"},"federalState":{"key":"08","name":"Baden-Württemberg"}},{"name":"Eichenrain","postalCode":"72184","locality":"Eutingen im Gäu","municipality":{"key":"08237027","name":"Eutingen im Gäu","type":"Kreisangehörige_Gemeinde"},"district":{"key":"08237","name":"Freudenstadt","type":"Landkreis"},"federalState":{"key":"08","name":"Baden-Württemberg"}},{"name":"Erdfallweg","postalCode":"72184","locality":"Eutingen im Gäu","municipality":{"key":"08237027","name":"Eutingen im Gäu","type":"Kreisangehörige_Gemeinde"},"district":{"key":"08237","name":"Freudenstadt","type":"Landkreis"},"federalState":{"key":"08","name":"Baden-Württemberg"}},{"name":"Ergenzinger Str.","postalCode":"72184","locality":"Eutingen im Gäu","municipality":{"key":"08237027","name":"Eutingen im Gäu","type":"Kreisangehörige_Gemeinde"},"district":{"key":"08237","name":"Freudenstadt","type":"Landkreis"},"federalState":{"key":"08","name":"Baden-Württemberg"}},{"name":"Erlenweg","postalCode":"72184","locality":"Eutingen im Gäu","municipality":{"key":"08237027","name":"Eutingen im Gäu","type":"Kreisangehörige_Gemeinde"},"district":{"key":"08237","name":"Freudenstadt","type":"Landkreis"},"federalState":{"key":"08","name":"Baden-Württemberg"}},{"name":"Eutinger Str.","postalCode":"72184","locality":"Eutingen im Gäu","municipality":{"key":"08237027","name":"Eutingen im Gäu","type":"Kreisangehörige_Gemeinde"},"district":{"key":"08237","name":"Freudenstadt","type":"Landkreis"},"federalState":{"key":"08","name":"Baden-Württemberg"}},{"name":"Eyacher Str.","postalCode":"72184","locality":"Eutingen im Gäu","municipality":{"key":"08237027","name":"Eutingen im Gäu","type":"Kreisangehörige_Gemeinde"},"district":{"key":"08237","name":"Freudenstadt","type":"Landkreis"},"federalState":{"key":"08","name":"Baden-Württemberg"}},{"name":"Fichtenstr.","postalCode":"72184","locality":"Eutingen im Gäu","municipality":{"key":"08237027","name":"Eutingen im Gäu","type":"Kreisangehörige_Gemeinde"},"district":{"key":"08237","name":"Freudenstadt","type":"Landkreis"},"federalState":{"key":"08","name":"Baden-Württemberg"}},{"name":"Finkenweg","postalCode":"72184","locality":"Eutingen im Gäu","municipality":{"key":"08237027","name":"Eutingen im Gäu","type":"Kreisangehörige_Gemeinde"},"district":{"key":"08237","name":"Freudenstadt","type":"Landkreis"},"federalState":{"key":"08","name":"Baden-Württemberg"}},{"name":"Fliederweg","postalCode":"72184","locality":"Eutingen im Gäu","municipality":{"key":"08237027","name":"Eutingen im Gäu","type":"Kreisangehörige_Gemeinde"},"district":{"key":"08237","name":"Freudenstadt","type":"Landkreis"},"federalState":{"key":"08","name":"Baden-Württemberg"}},{"name":"Forchenweg","postalCode":"72184","locality":"Eutingen im Gäu","municipality":{"key":"08237027","name":"Eutingen im Gäu","type":"Kreisangehörige_Gemeinde"},"district":{"key":"08237","name":"Freudenstadt","type":"Landkreis"},"federalState":{"key":"08","name":"Baden-Württemberg"}},{"name":"Friedhofstr.","postalCode":"72184","locality":"Eutingen im Gäu","municipality":{"key":"08237027","name":"Eutingen im Gäu","type":"Kreisangehörige_Gemeinde"},"district":{"key":"08237","name":"Freudenstadt","type":"Landkreis"},"federalState":{"key":"08","name":"Baden-Württemberg"}},{"name":"Gartenstr.","postalCode":"72184","locality":"Eutingen im Gäu","municipality":{"key":"08237027","name":"Eutingen im Gäu","type":"Kreisangehörige_Gemeinde"},"district":{"key":"08237","name":"Freudenstadt","type":"Landkreis"},"federalState":{"key":"08","name":"Baden-Württemberg"}},{"name":"Goethestr.","postalCode":"72184","locality":"Eutingen im Gäu","municipality":{"key":"08237027","name":"Eutingen im Gäu","type":"Kreisangehörige_Gemeinde"},"district":{"key":"08237","name":"Freudenstadt","type":"Landkreis"},"federalState":{"key":"08","name":"Baden-Württemberg"}},{"name":"Göttelfinger Str.","postalCode":"72184","locality":"Eutingen im Gäu","municipality":{"key":"08237027","name":"Eutingen im Gäu","type":"Kreisangehörige_Gemeinde"},"district":{"key":"08237","name":"Freudenstadt","type":"Landkreis"},"federalState":{"key":"08","name":"Baden-Württemberg"}},{"name":"Grabenäcker","postalCode":"72184","locality":"Eutingen im Gäu","municipality":{"key":"08237027","name":"Eutingen im Gäu","type":"Kreisangehörige_Gemeinde"},"district":{"key":"08237","name":"Freudenstadt","type":"Landkreis"},"federalState":{"key":"08","name":"Baden-Württemberg"}},{"name":"Grund","postalCode":"72184","locality":"Eutingen im Gäu","municipality":{"key":"08237027","name":"Eutingen im Gäu","type":"Kreisangehörige_Gemeinde"},"district":{"key":"08237","name":"Freudenstadt","type":"Landkreis"},"federalState":{"key":"08","name":"Baden-Württemberg"}},{"name":"Grundweg","postalCode":"72184","locality":"Eutingen im Gäu","municipality":{"key":"08237027","name":"Eutingen im Gäu","type":"Kreisangehörige_Gemeinde"},"district":{"key":"08237","name":"Freudenstadt","type":"Landkreis"},"federalState":{"key":"08","name":"Baden-Württemberg"}},{"name":"Hauptstr.","postalCode":"72184","locality":"Eutingen im Gäu","municipality":{"key":"08237027","name":"Eutingen im Gäu","type":"Kreisangehörige_Gemeinde"},"district":{"key":"08237","name":"Freudenstadt","type":"Landkreis"},"federalState":{"key":"08","name":"Baden-Württemberg"}},{"name":"Hausäckerstr.","postalCode":"72184","locality":"Eutingen im Gäu","municipality":{"key":"08237027","name":"Eutingen im Gäu","type":"Kreisangehörige_Gemeinde"},"district":{"key":"08237","name":"Freudenstadt","type":"Landkreis"},"federalState":{"key":"08","name":"Baden-Württemberg"}},{"name":"Heinrich-Heine-Str.","postalCode":"72184","locality":"Eutingen im Gäu","municipality":{"key":"08237027","name":"Eutingen im Gäu","type":"Kreisangehörige_Gemeinde"},"district":{"key":"08237","name":"Freudenstadt","type":"Landkreis"},"federalState":{"key":"08","name":"Baden-Württemberg"}},{"name":"Heubergstr.","postalCode":"72184","locality":"Eutingen im Gäu","municipality":{"key":"08237027","name":"Eutingen im Gäu","type":"Kreisangehörige_Gemeinde"},"district":{"key":"08237","name":"Freudenstadt","type":"Landkreis"},"federalState":{"key":"08","name":"Baden-Württemberg"}},{"name":"Hirtenhausweg","postalCode":"72184","locality":"Eutingen im Gäu","municipality":{"key":"08237027","name":"Eutingen im Gäu","type":"Kreisangehörige_Gemeinde"},"district":{"key":"08237","name":"Freudenstadt","type":"Landkreis"},"federalState":{"key":"08","name":"Baden-Württemberg"}},{"name":"Historischer Wanderweg","postalCode":"72184","locality":"Eutingen im Gäu","municipality":{"key":"08237027","name":"Eutingen im Gäu","type":"Kreisangehörige_Gemeinde"},"district":{"key":"08237","name":"Freudenstadt","type":"Landkreis"},"federalState":{"key":"08","name":"Baden-Württemberg"}},{"name":"Hochdorfer Str.","postalCode":"72184","locality":"Eutingen im Gäu","municipality":{"key":"08237027","name":"Eutingen im Gäu","type":"Kreisangehörige_Gemeinde"},"district":{"key":"08237","name":"Freudenstadt","type":"Landkreis"},"federalState":{"key":"08","name":"Baden-Württemberg"}},{"name":"Hochdorfer Weg","postalCode":"72184","locality":"Eutingen im Gäu","municipality":{"key":"08237027","name":"Eutingen im Gäu","type":"Kreisangehörige_Gemeinde"},"district":{"key":"08237","name":"Freudenstadt","type":"Landkreis"},"federalState":{"key":"08","name":"Baden-Württemberg"}},{"name":"Hohenbergstr.","postalCode":"72184","locality":"Eutingen im Gäu","municipality":{"key":"08237027","name":"Eutingen im Gäu","type":"Kreisangehörige_Gemeinde"},"district":{"key":"08237","name":"Freudenstadt","type":"Landkreis"},"federalState":{"key":"08","name":"Baden-Württemberg"}},{"name":"Höhenstr.","postalCode":"72184","locality":"Eutingen im Gäu","municipality":{"key":"08237027","name":"Eutingen im Gäu","type":"Kreisangehörige_Gemeinde"},"district":{"key":"08237","name":"Freudenstadt","type":"Landkreis"},"federalState":{"key":"08","name":"Baden-Württemberg"}},{"name":"Hölderlinstr.","postalCode":"72184","locality":"Eutingen im Gäu","municipality":{"key":"08237027","name":"Eutingen im Gäu","type":"Kreisangehörige_Gemeinde"},"district":{"key":"08237","name":"Freudenstadt","type":"Landkreis"},"federalState":{"key":"08","name":"Baden-Württemberg"}},{"name":"Holderstr.","postalCode":"72184","locality":"Eutingen im Gäu","municipality":{"key":"08237027","name":"Eutingen im Gäu","type":"Kreisangehörige_Gemeinde"},"district":{"key":"08237","name":"Freudenstadt","type":"Landkreis"},"federalState":{"key":"08","name":"Baden-Württemberg"}},{"name":"Holunderweg","postalCode":"72184","locality":"Eutingen im Gäu","municipality":{"key":"08237027","name":"Eutingen im Gäu","type":"Kreisangehörige_Gemeinde"},"district":{"key":"08237","name":"Freudenstadt","type":"Landkreis"},"federalState":{"key":"08","name":"Baden-Württemberg"}},{"name":"Holzgasse","postalCode":"72184","locality":"Eutingen im Gäu","municipality":{"key":"08237027","name":"Eutingen im Gäu","type":"Kreisangehörige_Gemeinde"},"district":{"key":"08237","name":"Freudenstadt","type":"Landkreis"},"federalState":{"key":"08","name":"Baden-Württemberg"}},{"name":"Horber Weg","postalCode":"72184","locality":"Eutingen im Gäu","municipality":{"key":"08237027","name":"Eutingen im Gäu","type":"Kreisangehörige_Gemeinde"},"district":{"key":"08237","name":"Freudenstadt","type":"Landkreis"},"federalState":{"key":"08","name":"Baden-Württemberg"}},{"name":"Hummelbergstr.","postalCode":"72184","locality":"Eutingen im Gäu","municipality":{"key":"08237027","name":"Eutingen im Gäu","type":"Kreisangehörige_Gemeinde"},"district":{"key":"08237","name":"Freudenstadt","type":"Landkreis"},"federalState":{"key":"08","name":"Baden-Württemberg"}},{"name":"Im Bocksbart","postalCode":"72184","locality":"Eutingen im Gäu","municipality":{"key":"08237027","name":"Eutingen im Gäu","type":"Kreisangehörige_Gemeinde"},"district":{"key":"08237","name":"Freudenstadt","type":"Landkreis"},"federalState":{"key":"08","name":"Baden-Württemberg"}},{"name":"Im Brühl","postalCode":"72184","locality":"Eutingen im Gäu","municipality":{"key":"08237027","name":"Eutingen im Gäu","type":"Kreisangehörige_Gemeinde"},"district":{"key":"08237","name":"Freudenstadt","type":"Landkreis"},"federalState":{"key":"08","name":"Baden-Württemberg"}},{"name":"Im Wengert","postalCode":"72184","locality":"Eutingen im Gäu","municipality":{"key":"08237027","name":"Eutingen im Gäu","type":"Kreisangehörige_Gemeinde"},"district":{"key":"08237","name":"Freudenstadt","type":"Landkreis"},"federalState":{"key":"08","name":"Baden-Württemberg"}},{"name":"In der Seite","postalCode":"72184","locality":"Eutingen im Gäu","municipality":{"key":"08237027","name":"Eutingen im Gäu","type":"Kreisangehörige_Gemeinde"},"district":{"key":"08237","name":"Freudenstadt","type":"Landkreis"},"federalState":{"key":"08","name":"Baden-Württemberg"}},{"name":"Jägerhäusleweg","postalCode":"72184","locality":"Eutingen im Gäu","municipality":{"key":"08237027","name":"Eutingen im Gäu","type":"Kreisangehörige_Gemeinde"},"district":{"key":"08237","name":"Freudenstadt","type":"Landkreis"},"federalState":{"key":"08","name":"Baden-Württemberg"}},{"name":"Jahnstr.","postalCode":"72184","locality":"Eutingen im Gäu","municipality":{"key":"08237027","name":"Eutingen im Gäu","type":"Kreisangehörige_Gemeinde"},"district":{"key":"08237","name":"Freudenstadt","type":"Landkreis"},"federalState":{"key":"08","name":"Baden-Württemberg"}},{"name":"Jakobsweg","postalCode":"72184","locality":"Eutingen im Gäu","municipality":{"key":"08237027","name":"Eutingen im Gäu","type":"Kreisangehörige_Gemeinde"},"district":{"key":"08237","name":"Freudenstadt","type":"Landkreis"},"federalState":{"key":"08","name":"Baden-Württemberg"}},{"name":"Kaiserstr.","postalCode":"72184","locality":"Eutingen im Gäu","municipality":{"key":"08237027","name":"Eutingen im Gäu","type":"Kreisangehörige_Gemeinde"},"district":{"key":"08237","name":"Freudenstadt","type":"Landkreis"},"federalState":{"key":"08","name":"Baden-Württemberg"}},{"name":"Kapellenweg","postalCode":"72184","locality":"Eutingen im Gäu","municipality":{"key":"08237027","name":"Eutingen im Gäu","type":"Kreisangehörige_Gemeinde"},"district":{"key":"08237","name":"Freudenstadt","type":"Landkreis"},"federalState":{"key":"08","name":"Baden-Württemberg"}},{"name":"Karl-Akermann-Weg","postalCode":"72184","locality":"Eutingen im Gäu","municipality":{"key":"08237027","name":"Eutingen im Gäu","type":"Kreisangehörige_Gemeinde"},"district":{"key":"08237","name":"Freudenstadt","type":"Landkreis"},"federalState":{"key":"08","name":"Baden-Württemberg"}},{"name":"Kirchsteigleweg","postalCode":"72184","locality":"Eutingen im Gäu","municipality":{"key":"08237027","name":"Eutingen im Gäu","type":"Kreisangehörige_Gemeinde"},"district":{"key":"08237","name":"Freudenstadt","type":"Landkreis"},"federalState":{"key":"08","name":"Baden-Württemberg"}},{"name":"Kirchstr.","postalCode":"72184","locality":"Eutingen im Gäu","municipality":{"key":"08237027","name":"Eutingen im Gäu","type":"Kreisangehörige_Gemeinde"},"district":{"key":"08237","name":"Freudenstadt","type":"Landkreis"},"federalState":{"key":"08","name":"Baden-Württemberg"}},{"name":"Kleiststr.","postalCode":"72184","locality":"Eutingen im Gäu","municipality":{"key":"08237027","name":"Eutingen im Gäu","type":"Kreisangehörige_Gemeinde"},"district":{"key":"08237","name":"Freudenstadt","type":"Landkreis"},"federalState":{"key":"08","name":"Baden-Württemberg"}},{"name":"Kniebisstr.","postalCode":"72184","locality":"Eutingen im Gäu","municipality":{"key":"08237027","name":"Eutingen im Gäu","type":"Kreisangehörige_Gemeinde"},"district":{"key":"08237","name":"Freudenstadt","type":"Landkreis"},"federalState":{"key":"08","name":"Baden-Württemberg"}},{"name":"Kreuzstr.","postalCode":"72184","locality":"Eutingen im Gäu","municipality":{"key":"08237027","name":"Eutingen im Gäu","type":"Kreisangehörige_Gemeinde"},"district":{"key":"08237","name":"Freudenstadt","type":"Landkreis"},"federalState":{"key":"08","name":"Baden-Württemberg"}},{"name":"Laiberweg","postalCode":"72184","locality":"Eutingen im Gäu","municipality":{"key":"08237027","name":"Eutingen im Gäu","type":"Kreisangehörige_Gemeinde"},"district":{"key":"08237","name":"Freudenstadt","type":"Landkreis"},"federalState":{"key":"08","name":"Baden-Württemberg"}},{"name":"Landhausstr.","postalCode":"72184","locality":"Eutingen im Gäu","municipality":{"key":"08237027","name":"Eutingen im Gäu","type":"Kreisangehörige_Gemeinde"},"district":{"key":"08237","name":"Freudenstadt","type":"Landkreis"},"federalState":{"key":"08","name":"Baden-Württemberg"}},{"name":"Lenzhalde","postalCode":"72184","locality":"Eutingen im Gäu","municipality":{"key":"08237027","name":"Eutingen im Gäu","type":"Kreisangehörige_Gemeinde"},"district":{"key":"08237","name":"Freudenstadt","type":"Landkreis"},"federalState":{"key":"08","name":"Baden-Württemberg"}},{"name":"Lerchenweg","postalCode":"72184","locality":"Eutingen im Gäu","municipality":{"key":"08237027","name":"Eutingen im Gäu","type":"Kreisangehörige_Gemeinde"},"district":{"key":"08237","name":"Freudenstadt","type":"Landkreis"},"federalState":{"key":"08","name":"Baden-Württemberg"}},{"name":"Lessingstr.","postalCode":"72184","locality":"Eutingen im Gäu","municipality":{"key":"08237027","name":"Eutingen im Gäu","type":"Kreisangehörige_Gemeinde"},"district":{"key":"08237","name":"Freudenstadt","type":"Landkreis"},"federalState":{"key":"08","name":"Baden-Württemberg"}},{"name":"Lettstatt","postalCode":"72184","locality":"Eutingen im Gäu","municipality":{"key":"08237027","name":"Eutingen im Gäu","type":"Kreisangehörige_Gemeinde"},"district":{"key":"08237","name":"Freudenstadt","type":"Landkreis"},"federalState":{"key":"08","name":"Baden-Württemberg"}},{"name":"Lichtensteinstr.","postalCode":"72184","locality":"Eutingen im Gäu","municipality":{"key":"08237027","name":"Eutingen im Gäu","type":"Kreisangehörige_Gemeinde"},"district":{"key":"08237","name":"Freudenstadt","type":"Landkreis"},"federalState":{"key":"08","name":"Baden-Württemberg"}},{"name":"Lindenstr.","postalCode":"72184","locality":"Eutingen im Gäu","municipality":{"key":"08237027","name":"Eutingen im Gäu","type":"Kreisangehörige_Gemeinde"},"district":{"key":"08237","name":"Freudenstadt","type":"Landkreis"},"federalState":{"key":"08","name":"Baden-Württemberg"}},{"name":"Lochenstr.","postalCode":"72184","locality":"Eutingen im Gäu","municipality":{"key":"08237027","name":"Eutingen im Gäu","type":"Kreisangehörige_Gemeinde"},"district":{"key":"08237","name":"Freudenstadt","type":"Landkreis"},"federalState":{"key":"08","name":"Baden-Württemberg"}},{"name":"Ludwig-Thoma-Str.","postalCode":"72184","locality":"Eutingen im Gäu","municipality":{"key":"08237027","name":"Eutingen im Gäu","type":"Kreisangehörige_Gemeinde"},"district":{"key":"08237","name":"Freudenstadt","type":"Landkreis"},"federalState":{"key":"08","name":"Baden-Württemberg"}},{"name":"Marktstr.","postalCode":"72184","locality":"Eutingen im Gäu","municipality":{"key":"08237027","name":"Eutingen im Gäu","type":"Kreisangehörige_Gemeinde"},"district":{"key":"08237","name":"Freudenstadt","type":"Landkreis"},"federalState":{"key":"08","name":"Baden-Württemberg"}},{"name":"Martin-Faßnacht-Str.","postalCode":"72184","locality":"Eutingen im Gäu","municipality":{"key":"08237027","name":"Eutingen im Gäu","type":"Kreisangehörige_Gemeinde"},"district":{"key":"08237","name":"Freudenstadt","type":"Landkreis"},"federalState":{"key":"08","name":"Baden-Württemberg"}},{"name":"Merkurstr.","postalCode":"72184","locality":"Eutingen im Gäu","municipality":{"key":"08237027","name":"Eutingen im Gäu","type":"Kreisangehörige_Gemeinde"},"district":{"key":"08237","name":"Freudenstadt","type":"Landkreis"},"federalState":{"key":"08","name":"Baden-Württemberg"}},{"name":"Mörikeweg","postalCode":"72184","locality":"Eutingen im Gäu","municipality":{"key":"08237027","name":"Eutingen im Gäu","type":"Kreisangehörige_Gemeinde"},"district":{"key":"08237","name":"Freudenstadt","type":"Landkreis"},"federalState":{"key":"08","name":"Baden-Württemberg"}},{"name":"Neckarstr.","postalCode":"72184","locality":"Eutingen im Gäu","municipality":{"key":"08237027","name":"Eutingen im Gäu","type":"Kreisangehörige_Gemeinde"},"district":{"key":"08237","name":"Freudenstadt","type":"Landkreis"},"federalState":{"key":"08","name":"Baden-Württemberg"}},{"name":"Neckarweg","postalCode":"72184","locality":"Eutingen im Gäu","municipality":{"key":"08237027","name":"Eutingen im Gäu","type":"Kreisangehörige_Gemeinde"},"district":{"key":"08237","name":"Freudenstadt","type":"Landkreis"},"federalState":{"key":"08","name":"Baden-Württemberg"}},{"name":"Nelkenweg","postalCode":"72184","locality":"Eutingen im Gäu","municipality":{"key":"08237027","name":"Eutingen im Gäu","type":"Kreisangehörige_Gemeinde"},"district":{"key":"08237","name":"Freudenstadt","type":"Landkreis"},"federalState":{"key":"08","name":"Baden-Württemberg"}},{"name":"Neuffenweg","postalCode":"72184","locality":"Eutingen im Gäu","municipality":{"key":"08237027","name":"Eutingen im Gäu","type":"Kreisangehörige_Gemeinde"},"district":{"key":"08237","name":"Freudenstadt","type":"Landkreis"},"federalState":{"key":"08","name":"Baden-Württemberg"}},{"name":"Obere Wiesen","postalCode":"72184","locality":"Eutingen im Gäu","municipality":{"key":"08237027","name":"Eutingen im Gäu","type":"Kreisangehörige_Gemeinde"},"district":{"key":"08237","name":"Freudenstadt","type":"Landkreis"},"federalState":{"key":"08","name":"Baden-Württemberg"}},{"name":"Ortsstr.","postalCode":"72184","locality":"Eutingen im Gäu","municipality":{"key":"08237027","name":"Eutingen im Gäu","type":"Kreisangehörige_Gemeinde"},"district":{"key":"08237","name":"Freudenstadt","type":"Landkreis"},"federalState":{"key":"08","name":"Baden-Württemberg"}},{"name":"Panoramastr.","postalCode":"72184","locality":"Eutingen im Gäu","municipality":{"key":"08237027","name":"Eutingen im Gäu","type":"Kreisangehörige_Gemeinde"},"district":{"key":"08237","name":"Freudenstadt","type":"Landkreis"},"federalState":{"key":"08","name":"Baden-Württemberg"}},{"name":"Pappelweg","postalCode":"72184","locality":"Eutingen im Gäu","municipality":{"key":"08237027","name":"Eutingen im Gäu","type":"Kreisangehörige_Gemeinde"},"district":{"key":"08237","name":"Freudenstadt","type":"Landkreis"},"federalState":{"key":"08","name":"Baden-Württemberg"}},{"name":"Poststr.","postalCode":"72184","locality":"Eutingen im Gäu","municipality":{"key":"08237027","name":"Eutingen im Gäu","type":"Kreisangehörige_Gemeinde"},"district":{"key":"08237","name":"Freudenstadt","type":"Landkreis"},"federalState":{"key":"08","name":"Baden-Württemberg"}},{"name":"Prälat-Dorr-Str.","postalCode":"72184","locality":"Eutingen im Gäu","municipality":{"key":"08237027","name":"Eutingen im Gäu","type":"Kreisangehörige_Gemeinde"},"district":{"key":"08237","name":"Freudenstadt","type":"Landkreis"},"federalState":{"key":"08","name":"Baden-Württemberg"}},{"name":"Quellenweg","postalCode":"72250","locality":"Freudenstadt","municipality":{"key":"08237028","name":"Freudenstadt, Stadt","type":"Große_Kreisstadt"},"district":{"key":"08237","name":"Freudenstadt","type":"Landkreis"},"federalState":{"key":"08","name":"Baden-Württemberg"}},{"name":"Raichbergstr.","postalCode":"72184","locality":"Eutingen im Gäu","municipality":{"key":"08237027","name":"Eutingen im Gäu","type":"Kreisangehörige_Gemeinde"},"district":{"key":"08237","name":"Freudenstadt","type":"Landkreis"},"federalState":{"key":"08","name":"Baden-Württemberg"}},{"name":"Rathausstr.","postalCode":"72184","locality":"Eutingen im Gäu","municipality":{"key":"08237027","name":"Eutingen im Gäu","type":"Kreisangehörige_Gemeinde"},"district":{"key":"08237","name":"Freudenstadt","type":"Landkreis"},"federalState":{"key":"08","name":"Baden-Württemberg"}},{"name":"Ringbühl","postalCode":"72184","locality":"Eutingen im Gäu","municipality":{"key":"08237027","name":"Eutingen im Gäu","type":"Kreisangehörige_Gemeinde"},"district":{"key":"08237","name":"Freudenstadt","type":"Landkreis"},"federalState":{"key":"08","name":"Baden-Württemberg"}},{"name":"Rohrdorfer Brücke","postalCode":"72184","locality":"Eutingen im Gäu","municipality":{"key":"08237027","name":"Eutingen im Gäu","type":"Kreisangehörige_Gemeinde"},"district":{"key":"08237","name":"Freudenstadt","type":"Landkreis"},"federalState":{"key":"08","name":"Baden-Württemberg"}},{"name":"Rohrdorfer Str.","postalCode":"72184","locality":"Eutingen im Gäu","municipality":{"key":"08237027","name":"Eutingen im Gäu","type":"Kreisangehörige_Gemeinde"},"district":{"key":"08237","name":"Freudenstadt","type":"Landkreis"},"federalState":{"key":"08","name":"Baden-Württemberg"}},{"name":"Römerstr.","postalCode":"72184","locality":"Eutingen im Gäu","municipality":{"key":"08237027","name":"Eutingen im Gäu","type":"Kreisangehörige_Gemeinde"},"district":{"key":"08237","name":"Freudenstadt","type":"Landkreis"},"federalState":{"key":"08","name":"Baden-Württemberg"}},{"name":"Rosenstr.","postalCode":"72184","locality":"Eutingen im Gäu","municipality":{"key":"08237027","name":"Eutingen im Gäu","type":"Kreisangehörige_Gemeinde"},"district":{"key":"08237","name":"Freudenstadt","type":"Landkreis"},"federalState":{"key":"08","name":"Baden-Württemberg"}},{"name":"Roßbergstr.","postalCode":"72184","locality":"Eutingen im Gäu","municipality":{"key":"08237027","name":"Eutingen im Gäu","type":"Kreisangehörige_Gemeinde"},"district":{"key":"08237","name":"Freudenstadt","type":"Landkreis"},"federalState":{"key":"08","name":"Baden-Württemberg"}},{"name":"Rottweiler Str.","postalCode":"72184","locality":"Eutingen im Gäu","municipality":{"key":"08237027","name":"Eutingen im Gäu","type":"Kreisangehörige_Gemeinde"},"district":{"key":"08237","name":"Freudenstadt","type":"Landkreis"},"federalState":{"key":"08","name":"Baden-Württemberg"}},{"name":"Salzäcker","postalCode":"72184","locality":"Eutingen im Gäu","municipality":{"key":"08237027","name":"Eutingen im Gäu","type":"Kreisangehörige_Gemeinde"},"district":{"key":"08237","name":"Freudenstadt","type":"Landkreis"},"federalState":{"key":"08","name":"Baden-Württemberg"}},{"name":"Schelmengrabenweg","postalCode":"72184","locality":"Eutingen im Gäu","municipality":{"key":"08237027","name":"Eutingen im Gäu","type":"Kreisangehörige_Gemeinde"},"district":{"key":"08237","name":"Freudenstadt","type":"Landkreis"},"federalState":{"key":"08","name":"Baden-Württemberg"}},{"name":"Schießmauerstr.","postalCode":"72184","locality":"Eutingen im Gäu","municipality":{"key":"08237027","name":"Eutingen im Gäu","type":"Kreisangehörige_Gemeinde"},"district":{"key":"08237","name":"Freudenstadt","type":"Landkreis"},"federalState":{"key":"08","name":"Baden-Württemberg"}},{"name":"Schillerstr.","postalCode":"72184","locality":"Eutingen im Gäu","municipality":{"key":"08237027","name":"Eutingen im Gäu","type":"Kreisangehörige_Gemeinde"},"district":{"key":"08237","name":"Freudenstadt","type":"Landkreis"},"federalState":{"key":"08","name":"Baden-Württemberg"}},{"name":"Schlößleweg","postalCode":"72184","locality":"Eutingen im Gäu","municipality":{"key":"08237027","name":"Eutingen im Gäu","type":"Kreisangehörige_Gemeinde"},"district":{"key":"08237","name":"Freudenstadt","type":"Landkreis"},"federalState":{"key":"08","name":"Baden-Württemberg"}},{"name":"Schulstr.","postalCode":"72184","locality":"Eutingen im Gäu","municipality":{"key":"08237027","name":"Eutingen im Gäu","type":"Kreisangehörige_Gemeinde"},"district":{"key":"08237","name":"Freudenstadt","type":"Landkreis"},"federalState":{"key":"08","name":"Baden-Württemberg"}},{"name":"Schützenweg","postalCode":"72184","locality":"Eutingen im Gäu","municipality":{"key":"08237027","name":"Eutingen im Gäu","type":"Kreisangehörige_Gemeinde"},"district":{"key":"08237","name":"Freudenstadt","type":"Landkreis"},"federalState":{"key":"08","name":"Baden-Württemberg"}},{"name":"Schwalbenstr.","postalCode":"72184","locality":"Eutingen im Gäu","municipality":{"key":"08237027","name":"Eutingen im Gäu","type":"Kreisangehörige_Gemeinde"},"district":{"key":"08237","name":"Freudenstadt","type":"Landkreis"},"federalState":{"key":"08","name":"Baden-Württemberg"}},{"name":"Siemensstr.","postalCode":"72184","locality":"Eutingen im Gäu","municipality":{"key":"08237027","name":"Eutingen im Gäu","type":"Kreisangehörige_Gemeinde"},"district":{"key":"08237","name":"Freudenstadt","type":"Landkreis"},"federalState":{"key":"08","name":"Baden-Württemberg"}},{"name":"Silcherweg","postalCode":"72184","locality":"Eutingen im Gäu","municipality":{"key":"08237027","name":"Eutingen im Gäu","type":"Kreisangehörige_Gemeinde"},"district":{"key":"08237","name":"Freudenstadt","type":"Landkreis"},"federalState":{"key":"08","name":"Baden-Württemberg"}},{"name":"Sommerhalde","postalCode":"72184","locality":"Eutingen im Gäu","municipality":{"key":"08237027","name":"Eutingen im Gäu","type":"Kreisangehörige_Gemeinde"},"district":{"key":"08237","name":"Freudenstadt","type":"Landkreis"},"federalState":{"key":"08","name":"Baden-Württemberg"}},{"name":"Sonnenberg","postalCode":"72184","locality":"Eutingen im Gäu","municipality":{"key":"08237027","name":"Eutingen im Gäu","type":"Kreisangehörige_Gemeinde"},"district":{"key":"08237","name":"Freudenstadt","type":"Landkreis"},"federalState":{"key":"08","name":"Baden-Württemberg"}},{"name":"Sonnenstr.","postalCode":"72184","locality":"Eutingen im Gäu","municipality":{"key":"08237027","name":"Eutingen im Gäu","type":"Kreisangehörige_Gemeinde"},"district":{"key":"08237","name":"Freudenstadt","type":"Landkreis"},"federalState":{"key":"08","name":"Baden-Württemberg"}},{"name":"Spitzäcker","postalCode":"72184","locality":"Eutingen im Gäu","municipality":{"key":"08237027","name":"Eutingen im Gäu","type":"Kreisangehörige_Gemeinde"},"district":{"key":"08237","name":"Freudenstadt","type":"Landkreis"},"federalState":{"key":"08","name":"Baden-Württemberg"}},{"name":"Stauffenbergstr.","postalCode":"72184","locality":"Eutingen im Gäu","municipality":{"key":"08237027","name":"Eutingen im Gäu","type":"Kreisangehörige_Gemeinde"},"district":{"key":"08237","name":"Freudenstadt","type":"Landkreis"},"federalState":{"key":"08","name":"Baden-Württemberg"}},{"name":"Steigweg","postalCode":"72184","locality":"Eutingen im Gäu","municipality":{"key":"08237027","name":"Eutingen im Gäu","type":"Kreisangehörige_Gemeinde"},"district":{"key":"08237","name":"Freudenstadt","type":"Landkreis"},"federalState":{"key":"08","name":"Baden-Württemberg"}},{"name":"Steinweg","postalCode":"72184","locality":"Eutingen im Gäu","municipality":{"key":"08237027","name":"Eutingen im Gäu","type":"Kreisangehörige_Gemeinde"},"district":{"key":"08237","name":"Freudenstadt","type":"Landkreis"},"federalState":{"key":"08","name":"Baden-Württemberg"}},{"name":"Stuttgarter Str.","postalCode":"72184","locality":"Eutingen im Gäu","municipality":{"key":"08237027","name":"Eutingen im Gäu","type":"Kreisangehörige_Gemeinde"},"district":{"key":"08237","name":"Freudenstadt","type":"Landkreis"},"federalState":{"key":"08","name":"Baden-Württemberg"}},{"name":"Stützen","postalCode":"72184","locality":"Eutingen im Gäu","municipality":{"key":"08237027","name":"Eutingen im Gäu","type":"Kreisangehörige_Gemeinde"},"district":{"key":"08237","name":"Freudenstadt","type":"Landkreis"},"federalState":{"key":"08","name":"Baden-Württemberg"}},{"name":"Tälesweg","postalCode":"72184","locality":"Eutingen im Gäu","municipality":{"key":"08237027","name":"Eutingen im Gäu","type":"Kreisangehörige_Gemeinde"},"district":{"key":"08237","name":"Freudenstadt","type":"Landkreis"},"federalState":{"key":"08","name":"Baden-Württemberg"}},{"name":"Talmühleweg","postalCode":"72184","locality":"Eutingen im Gäu","municipality":{"key":"08237027","name":"Eutingen im Gäu","type":"Kreisangehörige_Gemeinde"},"district":{"key":"08237","name":"Freudenstadt","type":"Landkreis"},"federalState":{"key":"08","name":"Baden-Württemberg"}},{"name":"Talwaldweg","postalCode":"72184","locality":"Eutingen im Gäu","municipality":{"key":"08237027","name":"Eutingen im Gäu","type":"Kreisangehörige_Gemeinde"},"district":{"key":"08237","name":"Freudenstadt","type":"Landkreis"},"federalState":{"key":"08","name":"Baden-Württemberg"}},{"name":"Teckstr.","postalCode":"72184","locality":"Eutingen im Gäu","municipality":{"key":"08237027","name":"Eutingen im Gäu","type":"Kreisangehörige_Gemeinde"},"district":{"key":"08237","name":"Freudenstadt","type":"Landkreis"},"federalState":{"key":"08","name":"Baden-Württemberg"}},{"name":"Tübinger Weg","postalCode":"72184","locality":"Eutingen im Gäu","municipality":{"key":"08237027","name":"Eutingen im Gäu","type":"Kreisangehörige_Gemeinde"},"district":{"key":"08237","name":"Freudenstadt","type":"Landkreis"},"federalState":{"key":"08","name":"Baden-Württemberg"}},{"name":"Tulpenweg","postalCode":"72184","locality":"Eutingen im Gäu","municipality":{"key":"08237027","name":"Eutingen im Gäu","type":"Kreisangehörige_Gemeinde"},"district":{"key":"08237","name":"Freudenstadt","type":"Landkreis"},"federalState":{"key":"08","name":"Baden-Württemberg"}},{"name":"Uhlandweg","postalCode":"72184","locality":"Eutingen im Gäu","municipality":{"key":"08237027","name":"Eutingen im Gäu","type":"Kreisangehörige_Gemeinde"},"district":{"key":"08237","name":"Freudenstadt","type":"Landkreis"},"federalState":{"key":"08","name":"Baden-Württemberg"}},{"name":"Ulmenweg","postalCode":"72184","locality":"Eutingen im Gäu","municipality":{"key":"08237027","name":"Eutingen im Gäu","type":"Kreisangehörige_Gemeinde"},"district":{"key":"08237","name":"Freudenstadt","type":"Landkreis"},"federalState":{"key":"08","name":"Baden-Württemberg"}},{"name":"Urnburger Weg","postalCode":"72184","locality":"Eutingen im Gäu","municipality":{"key":"08237027","name":"Eutingen im Gäu","type":"Kreisangehörige_Gemeinde"},"district":{"key":"08237","name":"Freudenstadt","type":"Landkreis"},"federalState":{"key":"08","name":"Baden-Württemberg"}},{"name":"Veilchenweg","postalCode":"72184","locality":"Eutingen im Gäu","municipality":{"key":"08237027","name":"Eutingen im Gäu","type":"Kreisangehörige_Gemeinde"},"district":{"key":"08237","name":"Freudenstadt","type":"Landkreis"},"federalState":{"key":"08","name":"Baden-Württemberg"}},{"name":"Vogelsangstr.","postalCode":"72184","locality":"Eutingen im Gäu","municipality":{"key":"08237027","name":"Eutingen im Gäu","type":"Kreisangehörige_Gemeinde"},"district":{"key":"08237","name":"Freudenstadt","type":"Landkreis"},"federalState":{"key":"08","name":"Baden-Württemberg"}},{"name":"Vollmaringer Weg","postalCode":"72184","locality":"Eutingen im Gäu","municipality":{"key":"08237027","name":"Eutingen im Gäu","type":"Kreisangehörige_Gemeinde"},"district":{"key":"08237","name":"Freudenstadt","type":"Landkreis"},"federalState":{"key":"08","name":"Baden-Württemberg"}},{"name":"Weinbergstr.","postalCode":"72184","locality":"Eutingen im Gäu","municipality":{"key":"08237027","name":"Eutingen im Gäu","type":"Kreisangehörige_Gemeinde"},"district":{"key":"08237","name":"Freudenstadt","type":"Landkreis"},"federalState":{"key":"08","name":"Baden-Württemberg"}},{"name":"Weitenburger Str.","postalCode":"72184","locality":"Eutingen im Gäu","municipality":{"key":"08237027","name":"Eutingen im Gäu","type":"Kreisangehörige_Gemeinde"},"district":{"key":"08237","name":"Freudenstadt","type":"Landkreis"},"federalState":{"key":"08","name":"Baden-Württemberg"}},{"name":"Weitinger Kniebisstr.","postalCode":"72184","locality":"Eutingen im Gäu","municipality":{"key":"08237027","name":"Eutingen im Gäu","type":"Kreisangehörige_Gemeinde"},"district":{"key":"08237","name":"Freudenstadt","type":"Landkreis"},"federalState":{"key":"08","name":"Baden-Württemberg"}},{"name":"Weitinger Mühle","postalCode":"72184","locality":"Eutingen im Gäu","municipality":{"key":"08237027","name":"Eutingen im Gäu","type":"Kreisangehörige_Gemeinde"},"district":{"key":"08237","name":"Freudenstadt","type":"Landkreis"},"federalState":{"key":"08","name":"Baden-Württemberg"}},{"name":"Weitinger Str.","postalCode":"72184","locality":"Eutingen im Gäu","municipality":{"key":"08237027","name":"Eutingen im Gäu","type":"Kreisangehörige_Gemeinde"},"district":{"key":"08237","name":"Freudenstadt","type":"Landkreis"},"federalState":{"key":"08","name":"Baden-Württemberg"}},{"name":"Wiesenstr.","postalCode":"72184","locality":"Eutingen im Gäu","municipality":{"key":"08237027","name":"Eutingen im Gäu","type":"Kreisangehörige_Gemeinde"},"district":{"key":"08237","name":"Freudenstadt","type":"Landkreis"},"federalState":{"key":"08","name":"Baden-Württemberg"}},{"name":"Wiesenweg","postalCode":"72184","locality":"Eutingen im Gäu","municipality":{"key":"08237027","name":"Eutingen im Gäu","type":"Kreisangehörige_Gemeinde"},"district":{"key":"08237","name":"Freudenstadt","type":"Landkreis"},"federalState":{"key":"08","name":"Baden-Württemberg"}},{"name":"Ziegelweg","postalCode":"72184","locality":"Eutingen im Gäu","municipality":{"key":"08237027","name":"Eutingen im Gäu","type":"Kreisangehörige_Gemeinde"},"district":{"key":"08237","name":"Freudenstadt","type":"Landkreis"},"federalState":{"key":"08","name":"Baden-Württemberg"}},{"name":"Zollernstr.","postalCode":"72184","locality":"Eutingen im Gäu","municipality":{"key":"08237027","name":"Eutingen im Gäu","type":"Kreisangehörige_Gemeinde"},"district":{"key":"08237","name":"Freudenstadt","type":"Landkreis"},"federalState":{"key":"08","name":"Baden-Württemberg"}},{"name":"Äußere Riviera","postalCode":"72250","locality":"Freudenstadt","municipality":{"key":"08237028","name":"Freudenstadt, Stadt","type":"Große_Kreisstadt"},"district":{"key":"08237","name":"Freudenstadt","type":"Landkreis"},"federalState":{"key":"08","name":"Baden-Württemberg"}},{"name":"Österbach","postalCode":"72250","locality":"Freudenstadt","municipality":{"key":"08237028","name":"Freudenstadt, Stadt","type":"Große_Kreisstadt"},"district":{"key":"08237","name":"Freudenstadt","type":"Landkreis"},"federalState":{"key":"08","name":"Baden-Württemberg"}},]