[{"key":"10108945","name":"Alte Horgenbachstrasse","postalCode":"8548","locality":"Ellikon an der Thur","commune":{"key":"218","name":"Ellikon an der Thur","shortName":"Ellikon an der Thur"},"district":{"key":"110","name":"Bezirk Winterthur"},"canton":{"key":"1","code":"ZH","name":"Zürich"},"status":"Real"},{"key":"10113305","name":"Andelfingerstrasse","postalCode":"8548","locality":"Ellikon an der Thur","commune":{"key":"218","name":"Ellikon an der Thur","shortName":"Ellikon an der Thur"},"district":{"key":"110","name":"Bezirk Winterthur"},"canton":{"key":"1","code":"ZH","name":"Zürich"},"status":"Real"},{"key":"10062850","name":"Bergstrasse","postalCode":"8548","locality":"Ellikon an der Thur","commune":{"key":"218","name":"Ellikon an der Thur","shortName":"Ellikon an der Thur"},"district":{"key":"110","name":"Bezirk Winterthur"},"canton":{"key":"1","code":"ZH","name":"Zürich"},"status":"Real"},{"key":"10075447","name":"Bergwisstrasse","postalCode":"8548","locality":"Ellikon an der Thur","commune":{"key":"218","name":"Ellikon an der Thur","shortName":"Ellikon an der Thur"},"district":{"key":"110","name":"Bezirk Winterthur"},"canton":{"key":"1","code":"ZH","name":"Zürich"},"status":"Real"},{"key":"10241740","name":"Bichenlooweg","postalCode":"8548","locality":"Ellikon an der Thur","commune":{"key":"218","name":"Ellikon an der Thur","shortName":"Ellikon an der Thur"},"district":{"key":"110","name":"Bezirk Winterthur"},"canton":{"key":"1","code":"ZH","name":"Zürich"},"status":"Real"},{"key":"10241739","name":"Breitenbuechweg","postalCode":"8548","locality":"Ellikon an der Thur","commune":{"key":"218","name":"Ellikon an der Thur","shortName":"Ellikon an der Thur"},"district":{"key":"110","name":"Bezirk Winterthur"},"canton":{"key":"1","code":"ZH","name":"Zürich"},"status":"Real"},{"key":"10112225","name":"Bruggwisenstrasse","postalCode":"8548","locality":"Ellikon an der Thur","commune":{"key":"218","name":"Ellikon an der Thur","shortName":"Ellikon an der Thur"},"district":{"key":"110","name":"Bezirk Winterthur"},"canton":{"key":"1","code":"ZH","name":"Zürich"},"status":"Real"},{"key":"10062851","name":"Bürglistrasse","postalCode":"8548","locality":"Ellikon an der Thur","commune":{"key":"218","name":"Ellikon an der Thur","shortName":"Ellikon an der Thur"},"district":{"key":"110","name":"Bezirk Winterthur"},"canton":{"key":"1","code":"ZH","name":"Zürich"},"status":"Real"},{"key":"10008658","name":"Chrümiswis","postalCode":"8548","locality":"Ellikon an der Thur","commune":{"key":"218","name":"Ellikon an der Thur","shortName":"Ellikon an der Thur"},"district":{"key":"110","name":"Bezirk Winterthur"},"canton":{"key":"1","code":"ZH","name":"Zürich"},"status":"Real"},{"key":"10008659","name":"Dunaspistrasse","postalCode":"8548","locality":"Ellikon an der Thur","commune":{"key":"218","name":"Ellikon an der Thur","shortName":"Ellikon an der Thur"},"district":{"key":"110","name":"Bezirk Winterthur"},"canton":{"key":"1","code":"ZH","name":"Zürich"},"status":"Real"},{"key":"10241738","name":"Federliackerweg","postalCode":"8548","locality":"Ellikon an der Thur","commune":{"key":"218","name":"Ellikon an der Thur","shortName":"Ellikon an der Thur"},"district":{"key":"110","name":"Bezirk Winterthur"},"canton":{"key":"1","code":"ZH","name":"Zürich"},"status":"Real"},{"key":"10075448","name":"Felmenackerstrasse","postalCode":"8548","locality":"Ellikon an der Thur","commune":{"key":"218","name":"Ellikon an der Thur","shortName":"Ellikon an der Thur"},"district":{"key":"110","name":"Bezirk Winterthur"},"canton":{"key":"1","code":"ZH","name":"Zürich"},"status":"Real"},{"key":"10062852","name":"Frauenfelderstrasse","postalCode":"8548","locality":"Ellikon an der Thur","commune":{"key":"218","name":"Ellikon an der Thur","shortName":"Ellikon an der Thur"},"district":{"key":"110","name":"Bezirk Winterthur"},"canton":{"key":"1","code":"ZH","name":"Zürich"},"status":"Real"},{"key":"10182586","name":"Grabenackerstrasse","postalCode":"8548","locality":"Ellikon an der Thur","commune":{"key":"218","name":"Ellikon an der Thur","shortName":"Ellikon an der Thur"},"district":{"key":"110","name":"Bezirk Winterthur"},"canton":{"key":"1","code":"ZH","name":"Zürich"},"status":"Real"},{"key":"10236099","name":"Grosswisstrasse","postalCode":"8548","locality":"Ellikon an der Thur","commune":{"key":"218","name":"Ellikon an der Thur","shortName":"Ellikon an der Thur"},"district":{"key":"110","name":"Bezirk Winterthur"},"canton":{"key":"1","code":"ZH","name":"Zürich"},"status":"Real"},{"key":"10241735","name":"Gulditalweg","postalCode":"8548","locality":"Ellikon an der Thur","commune":{"key":"218","name":"Ellikon an der Thur","shortName":"Ellikon an der Thur"},"district":{"key":"110","name":"Bezirk Winterthur"},"canton":{"key":"1","code":"ZH","name":"Zürich"},"status":"Real"},{"key":"10112226","name":"Hallgartenstrasse","postalCode":"8548","locality":"Ellikon an der Thur","commune":{"key":"218","name":"Ellikon an der Thur","shortName":"Ellikon an der Thur"},"district":{"key":"110","name":"Bezirk Winterthur"},"canton":{"key":"1","code":"ZH","name":"Zürich"},"status":"Real"},{"key":"10108939","name":"Hinterdorfstrasse","postalCode":"8548","locality":"Ellikon an der Thur","commune":{"key":"218","name":"Ellikon an der Thur","shortName":"Ellikon an der Thur"},"district":{"key":"110","name":"Bezirk Winterthur"},"canton":{"key":"1","code":"ZH","name":"Zürich"},"status":"Real"},{"key":"10108940","name":"Huebackerstrasse","postalCode":"8548","locality":"Ellikon an der Thur","commune":{"key":"218","name":"Ellikon an der Thur","shortName":"Ellikon an der Thur"},"district":{"key":"110","name":"Bezirk Winterthur"},"canton":{"key":"1","code":"ZH","name":"Zürich"},"status":"Real"},{"key":"10052061","name":"Im Baumgarten","postalCode":"8548","locality":"Ellikon an der Thur","commune":{"key":"218","name":"Ellikon an der Thur","shortName":"Ellikon an der Thur"},"district":{"key":"110","name":"Bezirk Winterthur"},"canton":{"key":"1","code":"ZH","name":"Zürich"},"status":"Real"},{"key":"10104011","name":"Im Eichhof","postalCode":"8548","locality":"Ellikon an der Thur","commune":{"key":"218","name":"Ellikon an der Thur","shortName":"Ellikon an der Thur"},"district":{"key":"110","name":"Bezirk Winterthur"},"canton":{"key":"1","code":"ZH","name":"Zürich"},"status":"Real"},{"key":"10008661","name":"Im Grundstein","postalCode":"8548","locality":"Ellikon an der Thur","commune":{"key":"218","name":"Ellikon an der Thur","shortName":"Ellikon an der Thur"},"district":{"key":"110","name":"Bezirk Winterthur"},"canton":{"key":"1","code":"ZH","name":"Zürich"},"status":"Real"},{"key":"10075449","name":"Im Winkel","postalCode":"8548","locality":"Ellikon an der Thur","commune":{"key":"218","name":"Ellikon an der Thur","shortName":"Ellikon an der Thur"},"district":{"key":"110","name":"Bezirk Winterthur"},"canton":{"key":"1","code":"ZH","name":"Zürich"},"status":"Real"},{"key":"10062854","name":"In der Loos","postalCode":"8548","locality":"Ellikon an der Thur","commune":{"key":"218","name":"Ellikon an der Thur","shortName":"Ellikon an der Thur"},"district":{"key":"110","name":"Bezirk Winterthur"},"canton":{"key":"1","code":"ZH","name":"Zürich"},"status":"Real"},{"key":"10008663","name":"Islikonerstrasse","postalCode":"8548","locality":"Ellikon an der Thur","commune":{"key":"218","name":"Ellikon an der Thur","shortName":"Ellikon an der Thur"},"district":{"key":"110","name":"Bezirk Winterthur"},"canton":{"key":"1","code":"ZH","name":"Zürich"},"status":"Real"},{"key":"10201689","name":"Langbreite","postalCode":"8548","locality":"Ellikon an der Thur","commune":{"key":"218","name":"Ellikon an der Thur","shortName":"Ellikon an der Thur"},"district":{"key":"110","name":"Bezirk Winterthur"},"canton":{"key":"1","code":"ZH","name":"Zürich"},"status":"Real"},{"key":"10075450","name":"Langfuristrasse","postalCode":"8548","locality":"Ellikon an der Thur","commune":{"key":"218","name":"Ellikon an der Thur","shortName":"Ellikon an der Thur"},"district":{"key":"110","name":"Bezirk Winterthur"},"canton":{"key":"1","code":"ZH","name":"Zürich"},"status":"Real"},{"key":"10241737","name":"Leeberenweg","postalCode":"8548","locality":"Ellikon an der Thur","commune":{"key":"218","name":"Ellikon an der Thur","shortName":"Ellikon an der Thur"},"district":{"key":"110","name":"Bezirk Winterthur"},"canton":{"key":"1","code":"ZH","name":"Zürich"},"status":"Real"},{"key":"10131191","name":"Lindenweg","postalCode":"8548","locality":"Ellikon an der Thur","commune":{"key":"218","name":"Ellikon an der Thur","shortName":"Ellikon an der Thur"},"district":{"key":"110","name":"Bezirk Winterthur"},"canton":{"key":"1","code":"ZH","name":"Zürich"},"status":"Real"},{"key":"10052060","name":"Mattenhof","postalCode":"8548","locality":"Ellikon an der Thur","commune":{"key":"218","name":"Ellikon an der Thur","shortName":"Ellikon an der Thur"},"district":{"key":"110","name":"Bezirk Winterthur"},"canton":{"key":"1","code":"ZH","name":"Zürich"},"status":"Real"},{"key":"10241736","name":"Moosweg","postalCode":"8548","locality":"Ellikon an der Thur","commune":{"key":"218","name":"Ellikon an der Thur","shortName":"Ellikon an der Thur"},"district":{"key":"110","name":"Bezirk Winterthur"},"canton":{"key":"1","code":"ZH","name":"Zürich"},"status":"Real"},{"key":"10108941","name":"Mühlegasse","postalCode":"8548","locality":"Ellikon an der Thur","commune":{"key":"218","name":"Ellikon an der Thur","shortName":"Ellikon an der Thur"},"district":{"key":"110","name":"Bezirk Winterthur"},"canton":{"key":"1","code":"ZH","name":"Zürich"},"status":"Real"},{"key":"10157990","name":"Mühlehaldenstrasse","postalCode":"8548","locality":"Ellikon an der Thur","commune":{"key":"218","name":"Ellikon an der Thur","shortName":"Ellikon an der Thur"},"district":{"key":"110","name":"Bezirk Winterthur"},"canton":{"key":"1","code":"ZH","name":"Zürich"},"status":"Real"},{"key":"10008664","name":"Müracker","postalCode":"8548","locality":"Ellikon an der Thur","commune":{"key":"218","name":"Ellikon an der Thur","shortName":"Ellikon an der Thur"},"district":{"key":"110","name":"Bezirk Winterthur"},"canton":{"key":"1","code":"ZH","name":"Zürich"},"status":"Real"},{"key":"10075451","name":"Neue Horgenbachstrasse","postalCode":"8548","locality":"Ellikon an der Thur","commune":{"key":"218","name":"Ellikon an der Thur","shortName":"Ellikon an der Thur"},"district":{"key":"110","name":"Bezirk Winterthur"},"canton":{"key":"1","code":"ZH","name":"Zürich"},"status":"Real"},{"key":"10110084","name":"Oberdorf","postalCode":"8548","locality":"Ellikon an der Thur","commune":{"key":"218","name":"Ellikon an der Thur","shortName":"Ellikon an der Thur"},"district":{"key":"110","name":"Bezirk Winterthur"},"canton":{"key":"1","code":"ZH","name":"Zürich"},"status":"Real"},{"key":"10008665","name":"Oberholz","postalCode":"8548","locality":"Ellikon an der Thur","commune":{"key":"218","name":"Ellikon an der Thur","shortName":"Ellikon an der Thur"},"district":{"key":"110","name":"Bezirk Winterthur"},"canton":{"key":"1","code":"ZH","name":"Zürich"},"status":"Real"},{"key":"10108944","name":"Platanenweg","postalCode":"8548","locality":"Ellikon an der Thur","commune":{"key":"218","name":"Ellikon an der Thur","shortName":"Ellikon an der Thur"},"district":{"key":"110","name":"Bezirk Winterthur"},"canton":{"key":"1","code":"ZH","name":"Zürich"},"status":"Real"},{"key":"10108942","name":"Rickenbacherstrasse","postalCode":"8548","locality":"Ellikon an der Thur","commune":{"key":"218","name":"Ellikon an der Thur","shortName":"Ellikon an der Thur"},"district":{"key":"110","name":"Bezirk Winterthur"},"canton":{"key":"1","code":"ZH","name":"Zürich"},"status":"Real"},{"key":"10062855","name":"Römerstrasse","postalCode":"8548","locality":"Ellikon an der Thur","commune":{"key":"218","name":"Ellikon an der Thur","shortName":"Ellikon an der Thur"},"district":{"key":"110","name":"Bezirk Winterthur"},"canton":{"key":"1","code":"ZH","name":"Zürich"},"status":"Real"},{"key":"10104012","name":"Schilrüti","postalCode":"8548","locality":"Ellikon an der Thur","commune":{"key":"218","name":"Ellikon an der Thur","shortName":"Ellikon an der Thur"},"district":{"key":"110","name":"Bezirk Winterthur"},"canton":{"key":"1","code":"ZH","name":"Zürich"},"status":"Real"},{"key":"10108947","name":"Schützenhausstrasse","postalCode":"8548","locality":"Ellikon an der Thur","commune":{"key":"218","name":"Ellikon an der Thur","shortName":"Ellikon an der Thur"},"district":{"key":"110","name":"Bezirk Winterthur"},"canton":{"key":"1","code":"ZH","name":"Zürich"},"status":"Real"},{"key":"10008666","name":"Striegelgasse","postalCode":"8548","locality":"Ellikon an der Thur","commune":{"key":"218","name":"Ellikon an der Thur","shortName":"Ellikon an der Thur"},"district":{"key":"110","name":"Bezirk Winterthur"},"canton":{"key":"1","code":"ZH","name":"Zürich"},"status":"Real"},{"key":"10008667","name":"Thuracker","postalCode":"8548","locality":"Ellikon an der Thur","commune":{"key":"218","name":"Ellikon an der Thur","shortName":"Ellikon an der Thur"},"district":{"key":"110","name":"Bezirk Winterthur"},"canton":{"key":"1","code":"ZH","name":"Zürich"},"status":"Real"},{"key":"10108943","name":"Trottenrebenstrasse","postalCode":"8548","locality":"Ellikon an der Thur","commune":{"key":"218","name":"Ellikon an der Thur","shortName":"Ellikon an der Thur"},"district":{"key":"110","name":"Bezirk Winterthur"},"canton":{"key":"1","code":"ZH","name":"Zürich"},"status":"Real"},{"key":"10108946","name":"Trottenrebenweg","postalCode":"8548","locality":"Ellikon an der Thur","commune":{"key":"218","name":"Ellikon an der Thur","shortName":"Ellikon an der Thur"},"district":{"key":"110","name":"Bezirk Winterthur"},"canton":{"key":"1","code":"ZH","name":"Zürich"},"status":"Real"},{"key":"10158250","name":"Uesslingerstrasse","postalCode":"8548","locality":"Ellikon an der Thur","commune":{"key":"218","name":"Ellikon an der Thur","shortName":"Ellikon an der Thur"},"district":{"key":"110","name":"Bezirk Winterthur"},"canton":{"key":"1","code":"ZH","name":"Zürich"},"status":"Real"},{"key":"10008668","name":"Untergris","postalCode":"8548","locality":"Ellikon an der Thur","commune":{"key":"218","name":"Ellikon an der Thur","shortName":"Ellikon an der Thur"},"district":{"key":"110","name":"Bezirk Winterthur"},"canton":{"key":"1","code":"ZH","name":"Zürich"},"status":"Real"},{"key":"10247617","name":"Waldhüttenweg","postalCode":"8548","locality":"Ellikon an der Thur","commune":{"key":"218","name":"Ellikon an der Thur","shortName":"Ellikon an der Thur"},"district":{"key":"110","name":"Bezirk Winterthur"},"canton":{"key":"1","code":"ZH","name":"Zürich"},"status":"Real"},{"key":"10241734","name":"Winkelweg","postalCode":"8548","locality":"Ellikon an der Thur","commune":{"key":"218","name":"Ellikon an der Thur","shortName":"Ellikon an der Thur"},"district":{"key":"110","name":"Bezirk Winterthur"},"canton":{"key":"1","code":"ZH","name":"Zürich"},"status":"Real"},{"key":"10241733","name":"Zugwisenweg","postalCode":"8548","locality":"Ellikon an der Thur","commune":{"key":"218","name":"Ellikon an der Thur","shortName":"Ellikon an der Thur"},"district":{"key":"110","name":"Bezirk Winterthur"},"canton":{"key":"1","code":"ZH","name":"Zürich"},"status":"Real"},]