[{"name":"Adalbert-Stifter-Str.","postalCode":"90587","locality":"Veitsbronn","municipality":{"key":"09573130","name":"Veitsbronn","type":"Kreisangehörige_Gemeinde"},"district":{"key":"09573","name":"Fürth","type":"Landkreis"},"federalState":{"key":"09","name":"Bayern"}},{"name":"Albrecht-Dürer-Str.","postalCode":"90587","locality":"Veitsbronn","municipality":{"key":"09573130","name":"Veitsbronn","type":"Kreisangehörige_Gemeinde"},"district":{"key":"09573","name":"Fürth","type":"Landkreis"},"federalState":{"key":"09","name":"Bayern"}},{"name":"Am Alten Sportplatz","postalCode":"90587","locality":"Veitsbronn","municipality":{"key":"09573130","name":"Veitsbronn","type":"Kreisangehörige_Gemeinde"},"district":{"key":"09573","name":"Fürth","type":"Landkreis"},"federalState":{"key":"09","name":"Bayern"}},{"name":"Am Ankeleberg","postalCode":"90587","locality":"Veitsbronn","municipality":{"key":"09573130","name":"Veitsbronn","type":"Kreisangehörige_Gemeinde"},"district":{"key":"09573","name":"Fürth","type":"Landkreis"},"federalState":{"key":"09","name":"Bayern"}},{"name":"Am Bad","postalCode":"90587","locality":"Veitsbronn","municipality":{"key":"09573130","name":"Veitsbronn","type":"Kreisangehörige_Gemeinde"},"district":{"key":"09573","name":"Fürth","type":"Landkreis"},"federalState":{"key":"09","name":"Bayern"}},{"name":"Am Bahndamm","postalCode":"90587","locality":"Veitsbronn","municipality":{"key":"09573130","name":"Veitsbronn","type":"Kreisangehörige_Gemeinde"},"district":{"key":"09573","name":"Fürth","type":"Landkreis"},"federalState":{"key":"09","name":"Bayern"}},{"name":"Am Dorfplatz","postalCode":"90587","locality":"Veitsbronn","municipality":{"key":"09573130","name":"Veitsbronn","type":"Kreisangehörige_Gemeinde"},"district":{"key":"09573","name":"Fürth","type":"Landkreis"},"federalState":{"key":"09","name":"Bayern"}},{"name":"Am Heinrichsberg","postalCode":"90587","locality":"Veitsbronn","municipality":{"key":"09573130","name":"Veitsbronn","type":"Kreisangehörige_Gemeinde"},"district":{"key":"09573","name":"Fürth","type":"Landkreis"},"federalState":{"key":"09","name":"Bayern"}},{"name":"Am Kirchberg","postalCode":"90587","locality":"Veitsbronn","municipality":{"key":"09573130","name":"Veitsbronn","type":"Kreisangehörige_Gemeinde"},"district":{"key":"09573","name":"Fürth","type":"Landkreis"},"federalState":{"key":"09","name":"Bayern"}},{"name":"Am Schelmengraben","postalCode":"90587","locality":"Veitsbronn","municipality":{"key":"09573130","name":"Veitsbronn","type":"Kreisangehörige_Gemeinde"},"district":{"key":"09573","name":"Fürth","type":"Landkreis"},"federalState":{"key":"09","name":"Bayern"}},{"name":"Amselstr.","postalCode":"90587","locality":"Veitsbronn","municipality":{"key":"09573130","name":"Veitsbronn","type":"Kreisangehörige_Gemeinde"},"district":{"key":"09573","name":"Fürth","type":"Landkreis"},"federalState":{"key":"09","name":"Bayern"}},{"name":"An der Bachleite","postalCode":"90587","locality":"Veitsbronn","municipality":{"key":"09573130","name":"Veitsbronn","type":"Kreisangehörige_Gemeinde"},"district":{"key":"09573","name":"Fürth","type":"Landkreis"},"federalState":{"key":"09","name":"Bayern"}},{"name":"An der Rampe","postalCode":"90587","locality":"Veitsbronn","municipality":{"key":"09573130","name":"Veitsbronn","type":"Kreisangehörige_Gemeinde"},"district":{"key":"09573","name":"Fürth","type":"Landkreis"},"federalState":{"key":"09","name":"Bayern"}},{"name":"Bachmühlweg","postalCode":"90587","locality":"Veitsbronn","municipality":{"key":"09573130","name":"Veitsbronn","type":"Kreisangehörige_Gemeinde"},"district":{"key":"09573","name":"Fürth","type":"Landkreis"},"federalState":{"key":"09","name":"Bayern"}},{"name":"Bäckergässchen","postalCode":"90587","locality":"Veitsbronn","municipality":{"key":"09573130","name":"Veitsbronn","type":"Kreisangehörige_Gemeinde"},"district":{"key":"09573","name":"Fürth","type":"Landkreis"},"federalState":{"key":"09","name":"Bayern"}},{"name":"Bahnhofstr.","postalCode":"90587","locality":"Veitsbronn","municipality":{"key":"09573130","name":"Veitsbronn","type":"Kreisangehörige_Gemeinde"},"district":{"key":"09573","name":"Fürth","type":"Landkreis"},"federalState":{"key":"09","name":"Bayern"}},{"name":"Bauer-Steg","postalCode":"90587","locality":"Veitsbronn","municipality":{"key":"09573130","name":"Veitsbronn","type":"Kreisangehörige_Gemeinde"},"district":{"key":"09573","name":"Fürth","type":"Landkreis"},"federalState":{"key":"09","name":"Bayern"}},{"name":"Bergstr.","postalCode":"90587","locality":"Veitsbronn","municipality":{"key":"09573130","name":"Veitsbronn","type":"Kreisangehörige_Gemeinde"},"district":{"key":"09573","name":"Fürth","type":"Landkreis"},"federalState":{"key":"09","name":"Bayern"}},{"name":"Bert-Brecht-Str.","postalCode":"90587","locality":"Veitsbronn","municipality":{"key":"09573130","name":"Veitsbronn","type":"Kreisangehörige_Gemeinde"},"district":{"key":"09573","name":"Fürth","type":"Landkreis"},"federalState":{"key":"09","name":"Bayern"}},{"name":"Bienenweg","postalCode":"90587","locality":"Veitsbronn","municipality":{"key":"09573130","name":"Veitsbronn","type":"Kreisangehörige_Gemeinde"},"district":{"key":"09573","name":"Fürth","type":"Landkreis"},"federalState":{"key":"09","name":"Bayern"}},{"name":"Birkenstr.","postalCode":"90587","locality":"Veitsbronn","municipality":{"key":"09573130","name":"Veitsbronn","type":"Kreisangehörige_Gemeinde"},"district":{"key":"09573","name":"Fürth","type":"Landkreis"},"federalState":{"key":"09","name":"Bayern"}},{"name":"Blumenstr.","postalCode":"90587","locality":"Veitsbronn","municipality":{"key":"09573130","name":"Veitsbronn","type":"Kreisangehörige_Gemeinde"},"district":{"key":"09573","name":"Fürth","type":"Landkreis"},"federalState":{"key":"09","name":"Bayern"}},{"name":"Breitfeldweg","postalCode":"90587","locality":"Veitsbronn","municipality":{"key":"09573130","name":"Veitsbronn","type":"Kreisangehörige_Gemeinde"},"district":{"key":"09573","name":"Fürth","type":"Landkreis"},"federalState":{"key":"09","name":"Bayern"}},{"name":"Breslauer Str.","postalCode":"90587","locality":"Veitsbronn","municipality":{"key":"09573130","name":"Veitsbronn","type":"Kreisangehörige_Gemeinde"},"district":{"key":"09573","name":"Fürth","type":"Landkreis"},"federalState":{"key":"09","name":"Bayern"}},{"name":"Bruckleite","postalCode":"90587","locality":"Veitsbronn","municipality":{"key":"09573130","name":"Veitsbronn","type":"Kreisangehörige_Gemeinde"},"district":{"key":"09573","name":"Fürth","type":"Landkreis"},"federalState":{"key":"09","name":"Bayern"}},{"name":"Buchenstr.","postalCode":"90587","locality":"Veitsbronn","municipality":{"key":"09573130","name":"Veitsbronn","type":"Kreisangehörige_Gemeinde"},"district":{"key":"09573","name":"Fürth","type":"Landkreis"},"federalState":{"key":"09","name":"Bayern"}},{"name":"Caritas-Pirckheimer-Str.","postalCode":"90587","locality":"Veitsbronn","municipality":{"key":"09573130","name":"Veitsbronn","type":"Kreisangehörige_Gemeinde"},"district":{"key":"09573","name":"Fürth","type":"Landkreis"},"federalState":{"key":"09","name":"Bayern"}},{"name":"Dorfstr.","postalCode":"90587","locality":"Veitsbronn","municipality":{"key":"09573130","name":"Veitsbronn","type":"Kreisangehörige_Gemeinde"},"district":{"key":"09573","name":"Fürth","type":"Landkreis"},"federalState":{"key":"09","name":"Bayern"}},{"name":"Ehem. Lessingstr.","postalCode":"90587","locality":"Veitsbronn","municipality":{"key":"09573130","name":"Veitsbronn","type":"Kreisangehörige_Gemeinde"},"district":{"key":"09573","name":"Fürth","type":"Landkreis"},"federalState":{"key":"09","name":"Bayern"}},{"name":"Eichendorffstr.","postalCode":"90587","locality":"Veitsbronn","municipality":{"key":"09573130","name":"Veitsbronn","type":"Kreisangehörige_Gemeinde"},"district":{"key":"09573","name":"Fürth","type":"Landkreis"},"federalState":{"key":"09","name":"Bayern"}},{"name":"Eichenstorn","postalCode":"90587","locality":"Veitsbronn","municipality":{"key":"09573130","name":"Veitsbronn","type":"Kreisangehörige_Gemeinde"},"district":{"key":"09573","name":"Fürth","type":"Landkreis"},"federalState":{"key":"09","name":"Bayern"}},{"name":"Eichenstr.","postalCode":"90587","locality":"Veitsbronn","municipality":{"key":"09573130","name":"Veitsbronn","type":"Kreisangehörige_Gemeinde"},"district":{"key":"09573","name":"Fürth","type":"Landkreis"},"federalState":{"key":"09","name":"Bayern"}},{"name":"Eichholzstr.","postalCode":"90587","locality":"Veitsbronn","municipality":{"key":"09573130","name":"Veitsbronn","type":"Kreisangehörige_Gemeinde"},"district":{"key":"09573","name":"Fürth","type":"Landkreis"},"federalState":{"key":"09","name":"Bayern"}},{"name":"Erlenstr.","postalCode":"90587","locality":"Veitsbronn","municipality":{"key":"09573130","name":"Veitsbronn","type":"Kreisangehörige_Gemeinde"},"district":{"key":"09573","name":"Fürth","type":"Landkreis"},"federalState":{"key":"09","name":"Bayern"}},{"name":"Fasanenstr.","postalCode":"90587","locality":"Veitsbronn","municipality":{"key":"09573130","name":"Veitsbronn","type":"Kreisangehörige_Gemeinde"},"district":{"key":"09573","name":"Fürth","type":"Landkreis"},"federalState":{"key":"09","name":"Bayern"}},{"name":"Fembachstr.","postalCode":"90587","locality":"Veitsbronn","municipality":{"key":"09573130","name":"Veitsbronn","type":"Kreisangehörige_Gemeinde"},"district":{"key":"09573","name":"Fürth","type":"Landkreis"},"federalState":{"key":"09","name":"Bayern"}},{"name":"Fichtenstr.","postalCode":"90587","locality":"Veitsbronn","municipality":{"key":"09573130","name":"Veitsbronn","type":"Kreisangehörige_Gemeinde"},"district":{"key":"09573","name":"Fürth","type":"Landkreis"},"federalState":{"key":"09","name":"Bayern"}},{"name":"Finkenstr.","postalCode":"90587","locality":"Veitsbronn","municipality":{"key":"09573130","name":"Veitsbronn","type":"Kreisangehörige_Gemeinde"},"district":{"key":"09573","name":"Fürth","type":"Landkreis"},"federalState":{"key":"09","name":"Bayern"}},{"name":"Fliederweg","postalCode":"90587","locality":"Veitsbronn","municipality":{"key":"09573130","name":"Veitsbronn","type":"Kreisangehörige_Gemeinde"},"district":{"key":"09573","name":"Fürth","type":"Landkreis"},"federalState":{"key":"09","name":"Bayern"}},{"name":"Friedenstr.","postalCode":"90587","locality":"Veitsbronn","municipality":{"key":"09573130","name":"Veitsbronn","type":"Kreisangehörige_Gemeinde"},"district":{"key":"09573","name":"Fürth","type":"Landkreis"},"federalState":{"key":"09","name":"Bayern"}},{"name":"Friedrichstr.","postalCode":"90587","locality":"Veitsbronn","municipality":{"key":"09573130","name":"Veitsbronn","type":"Kreisangehörige_Gemeinde"},"district":{"key":"09573","name":"Fürth","type":"Landkreis"},"federalState":{"key":"09","name":"Bayern"}},{"name":"Fürther Str.","postalCode":"90587","locality":"Veitsbronn","municipality":{"key":"09573130","name":"Veitsbronn","type":"Kreisangehörige_Gemeinde"},"district":{"key":"09573","name":"Fürth","type":"Landkreis"},"federalState":{"key":"09","name":"Bayern"}},{"name":"Gartenstr.","postalCode":"90587","locality":"Veitsbronn","municipality":{"key":"09573130","name":"Veitsbronn","type":"Kreisangehörige_Gemeinde"},"district":{"key":"09573","name":"Fürth","type":"Landkreis"},"federalState":{"key":"09","name":"Bayern"}},{"name":"Goethestr.","postalCode":"90587","locality":"Veitsbronn","municipality":{"key":"09573130","name":"Veitsbronn","type":"Kreisangehörige_Gemeinde"},"district":{"key":"09573","name":"Fürth","type":"Landkreis"},"federalState":{"key":"09","name":"Bayern"}},{"name":"Hans-Sachs-Str.","postalCode":"90587","locality":"Veitsbronn","municipality":{"key":"09573130","name":"Veitsbronn","type":"Kreisangehörige_Gemeinde"},"district":{"key":"09573","name":"Fürth","type":"Landkreis"},"federalState":{"key":"09","name":"Bayern"}},{"name":"Hardstr.","postalCode":"90587","locality":"Veitsbronn","municipality":{"key":"09573130","name":"Veitsbronn","type":"Kreisangehörige_Gemeinde"},"district":{"key":"09573","name":"Fürth","type":"Landkreis"},"federalState":{"key":"09","name":"Bayern"}},{"name":"Hasenstr.","postalCode":"90587","locality":"Veitsbronn","municipality":{"key":"09573130","name":"Veitsbronn","type":"Kreisangehörige_Gemeinde"},"district":{"key":"09573","name":"Fürth","type":"Landkreis"},"federalState":{"key":"09","name":"Bayern"}},{"name":"Hauptstr.","postalCode":"90587","locality":"Veitsbronn","municipality":{"key":"09573130","name":"Veitsbronn","type":"Kreisangehörige_Gemeinde"},"district":{"key":"09573","name":"Fürth","type":"Landkreis"},"federalState":{"key":"09","name":"Bayern"}},{"name":"Hausener Weg","postalCode":"90587","locality":"Veitsbronn","municipality":{"key":"09573130","name":"Veitsbronn","type":"Kreisangehörige_Gemeinde"},"district":{"key":"09573","name":"Fürth","type":"Landkreis"},"federalState":{"key":"09","name":"Bayern"}},{"name":"Heide","postalCode":"90587","locality":"Veitsbronn","municipality":{"key":"09573130","name":"Veitsbronn","type":"Kreisangehörige_Gemeinde"},"district":{"key":"09573","name":"Fürth","type":"Landkreis"},"federalState":{"key":"09","name":"Bayern"}},{"name":"Heinrich-Böll-Str.","postalCode":"90587","locality":"Veitsbronn","municipality":{"key":"09573130","name":"Veitsbronn","type":"Kreisangehörige_Gemeinde"},"district":{"key":"09573","name":"Fürth","type":"Landkreis"},"federalState":{"key":"09","name":"Bayern"}},{"name":"Heinrich-Heine-Str.","postalCode":"90587","locality":"Veitsbronn","municipality":{"key":"09573130","name":"Veitsbronn","type":"Kreisangehörige_Gemeinde"},"district":{"key":"09573","name":"Fürth","type":"Landkreis"},"federalState":{"key":"09","name":"Bayern"}},{"name":"Hirtenleite","postalCode":"90587","locality":"Veitsbronn","municipality":{"key":"09573130","name":"Veitsbronn","type":"Kreisangehörige_Gemeinde"},"district":{"key":"09573","name":"Fürth","type":"Landkreis"},"federalState":{"key":"09","name":"Bayern"}},{"name":"Ibach","postalCode":"51688","locality":"Wipperfürth","municipality":{"key":"05374052","name":"Wipperfürth, Hansestadt","type":"Stadt"},"district":{"key":"05374","name":"Oberbergischer Kreis","type":"Kreis"},"federalState":{"key":"05","name":"Nordrhein-Westfalen"}},{"name":"Igelweg","postalCode":"90766","locality":"Fürth","municipality":{"key":"09563000","name":"Fürth","type":"Kreisfreie_Stadt"},"district":{"key":"09563","name":"Fürth","type":"Kreisfreie_Stadt"},"federalState":{"key":"09","name":"Bayern"}},{"name":"Iltisstr.","postalCode":"90766","locality":"Fürth","municipality":{"key":"09563000","name":"Fürth","type":"Kreisfreie_Stadt"},"district":{"key":"09563","name":"Fürth","type":"Kreisfreie_Stadt"},"federalState":{"key":"09","name":"Bayern"}},{"name":"Im alten Ohl","postalCode":"51688","locality":"Wipperfürth","municipality":{"key":"05374052","name":"Wipperfürth, Hansestadt","type":"Stadt"},"district":{"key":"05374","name":"Oberbergischer Kreis","type":"Kreis"},"federalState":{"key":"05","name":"Nordrhein-Westfalen"}},{"name":"Im Bangert","postalCode":"64658","locality":"Fürth","municipality":{"key":"06431007","name":"Fürth","type":"Kreisangehörige_Gemeinde"},"district":{"key":"06431","name":"Bergstraße","type":"Landkreis"},"federalState":{"key":"06","name":"Hessen"}},{"name":"Im Eck","postalCode":"64658","locality":"Fürth","municipality":{"key":"06431007","name":"Fürth","type":"Kreisangehörige_Gemeinde"},"district":{"key":"06431","name":"Bergstraße","type":"Landkreis"},"federalState":{"key":"06","name":"Hessen"}},{"name":"Im Eichels","postalCode":"64658","locality":"Fürth","municipality":{"key":"06431007","name":"Fürth","type":"Kreisangehörige_Gemeinde"},"district":{"key":"06431","name":"Bergstraße","type":"Landkreis"},"federalState":{"key":"06","name":"Hessen"}},{"name":"Im Erlengrund","postalCode":"64658","locality":"Fürth","municipality":{"key":"06431007","name":"Fürth","type":"Kreisangehörige_Gemeinde"},"district":{"key":"06431","name":"Bergstraße","type":"Landkreis"},"federalState":{"key":"06","name":"Hessen"}},{"name":"Im Feld","postalCode":"51688","locality":"Wipperfürth","municipality":{"key":"05374052","name":"Wipperfürth, Hansestadt","type":"Stadt"},"district":{"key":"05374","name":"Oberbergischer Kreis","type":"Kreis"},"federalState":{"key":"05","name":"Nordrhein-Westfalen"}},{"name":"Im Gärtel","postalCode":"64658","locality":"Fürth","municipality":{"key":"06431007","name":"Fürth","type":"Kreisangehörige_Gemeinde"},"district":{"key":"06431","name":"Bergstraße","type":"Landkreis"},"federalState":{"key":"06","name":"Hessen"}},{"name":"Im Glasloch","postalCode":"64658","locality":"Fürth","municipality":{"key":"06431007","name":"Fürth","type":"Kreisangehörige_Gemeinde"},"district":{"key":"06431","name":"Bergstraße","type":"Landkreis"},"federalState":{"key":"06","name":"Hessen"}},{"name":"Im Grund","postalCode":"90765","locality":"Fürth","municipality":{"key":"09563000","name":"Fürth","type":"Kreisfreie_Stadt"},"district":{"key":"09563","name":"Fürth","type":"Kreisfreie_Stadt"},"federalState":{"key":"09","name":"Bayern"}},{"name":"Im Heinegarten","postalCode":"64658","locality":"Fürth","municipality":{"key":"06431007","name":"Fürth","type":"Kreisangehörige_Gemeinde"},"district":{"key":"06431","name":"Bergstraße","type":"Landkreis"},"federalState":{"key":"06","name":"Hessen"}},{"name":"Im Hof","postalCode":"51688","locality":"Wipperfürth","municipality":{"key":"05374052","name":"Wipperfürth, Hansestadt","type":"Stadt"},"district":{"key":"05374","name":"Oberbergischer Kreis","type":"Kreis"},"federalState":{"key":"05","name":"Nordrhein-Westfalen"}},{"name":"Im Hofacker","postalCode":"64658","locality":"Fürth","municipality":{"key":"06431007","name":"Fürth","type":"Kreisangehörige_Gemeinde"},"district":{"key":"06431","name":"Bergstraße","type":"Landkreis"},"federalState":{"key":"06","name":"Hessen"}},{"name":"Im Klingen","postalCode":"64658","locality":"Fürth","municipality":{"key":"06431007","name":"Fürth","type":"Kreisangehörige_Gemeinde"},"district":{"key":"06431","name":"Bergstraße","type":"Landkreis"},"federalState":{"key":"06","name":"Hessen"}},{"name":"Im Leimenacker","postalCode":"64658","locality":"Fürth","municipality":{"key":"06431007","name":"Fürth","type":"Kreisangehörige_Gemeinde"},"district":{"key":"06431","name":"Bergstraße","type":"Landkreis"},"federalState":{"key":"06","name":"Hessen"}},{"name":"Im Lottersgarten","postalCode":"90766","locality":"Fürth","municipality":{"key":"09563000","name":"Fürth","type":"Kreisfreie_Stadt"},"district":{"key":"09563","name":"Fürth","type":"Kreisfreie_Stadt"},"federalState":{"key":"09","name":"Bayern"}},{"name":"Im Oberst","postalCode":"64658","locality":"Fürth","municipality":{"key":"06431007","name":"Fürth","type":"Kreisangehörige_Gemeinde"},"district":{"key":"06431","name":"Bergstraße","type":"Landkreis"},"federalState":{"key":"06","name":"Hessen"}},{"name":"Im Ort","postalCode":"64658","locality":"Fürth","municipality":{"key":"06431007","name":"Fürth","type":"Kreisangehörige_Gemeinde"},"district":{"key":"06431","name":"Bergstraße","type":"Landkreis"},"federalState":{"key":"06","name":"Hessen"}},{"name":"Im Schaafacker","postalCode":"64658","locality":"Fürth","municipality":{"key":"06431007","name":"Fürth","type":"Kreisangehörige_Gemeinde"},"district":{"key":"06431","name":"Bergstraße","type":"Landkreis"},"federalState":{"key":"06","name":"Hessen"}},{"name":"Im Schilf","postalCode":"64658","locality":"Fürth","municipality":{"key":"06431007","name":"Fürth","type":"Kreisangehörige_Gemeinde"},"district":{"key":"06431","name":"Bergstraße","type":"Landkreis"},"federalState":{"key":"06","name":"Hessen"}},{"name":"Im Siebenborn","postalCode":"51688","locality":"Wipperfürth","municipality":{"key":"05374052","name":"Wipperfürth, Hansestadt","type":"Stadt"},"district":{"key":"05374","name":"Oberbergischer Kreis","type":"Kreis"},"federalState":{"key":"05","name":"Nordrhein-Westfalen"}},{"name":"Im Sieggarten","postalCode":"57539","locality":"Fürthen","municipality":{"key":"07132038","name":"Fürthen","type":"Kreisangehörige_Gemeinde"},"district":{"key":"07132","name":"Altenkirchen (Westerwald)","type":"Landkreis"},"federalState":{"key":"07","name":"Rheinland-Pfalz"}},{"name":"Im Siepen","postalCode":"51688","locality":"Wipperfürth","municipality":{"key":"05374052","name":"Wipperfürth, Hansestadt","type":"Stadt"},"district":{"key":"05374","name":"Oberbergischer Kreis","type":"Kreis"},"federalState":{"key":"05","name":"Nordrhein-Westfalen"}},{"name":"Im Stöckig","postalCode":"90765","locality":"Fürth","municipality":{"key":"09563000","name":"Fürth","type":"Kreisfreie_Stadt"},"district":{"key":"09563","name":"Fürth","type":"Kreisfreie_Stadt"},"federalState":{"key":"09","name":"Bayern"}},{"name":"Im Störzel","postalCode":"64658","locality":"Fürth","municipality":{"key":"06431007","name":"Fürth","type":"Kreisangehörige_Gemeinde"},"district":{"key":"06431","name":"Bergstraße","type":"Landkreis"},"federalState":{"key":"06","name":"Hessen"}},{"name":"Im Weller","postalCode":"90768","locality":"Fürth","municipality":{"key":"09563000","name":"Fürth","type":"Kreisfreie_Stadt"},"district":{"key":"09563","name":"Fürth","type":"Kreisfreie_Stadt"},"federalState":{"key":"09","name":"Bayern"}},{"name":"Im Weyerhof","postalCode":"57539","locality":"Fürthen","municipality":{"key":"07132038","name":"Fürthen","type":"Kreisangehörige_Gemeinde"},"district":{"key":"07132","name":"Altenkirchen (Westerwald)","type":"Landkreis"},"federalState":{"key":"07","name":"Rheinland-Pfalz"}},{"name":"Im Wiesental","postalCode":"64658","locality":"Fürth","municipality":{"key":"06431007","name":"Fürth","type":"Kreisangehörige_Gemeinde"},"district":{"key":"06431","name":"Bergstraße","type":"Landkreis"},"federalState":{"key":"06","name":"Hessen"}},{"name":"Im Zennwald","postalCode":"90768","locality":"Fürth","municipality":{"key":"09563000","name":"Fürth","type":"Kreisfreie_Stadt"},"district":{"key":"09563","name":"Fürth","type":"Kreisfreie_Stadt"},"federalState":{"key":"09","name":"Bayern"}},{"name":"In den Gärten","postalCode":"64658","locality":"Fürth","municipality":{"key":"06431007","name":"Fürth","type":"Kreisangehörige_Gemeinde"},"district":{"key":"06431","name":"Bergstraße","type":"Landkreis"},"federalState":{"key":"06","name":"Hessen"}},{"name":"In den Lehmkuhlen","postalCode":"51688","locality":"Wipperfürth","municipality":{"key":"05374052","name":"Wipperfürth, Hansestadt","type":"Stadt"},"district":{"key":"05374","name":"Oberbergischer Kreis","type":"Kreis"},"federalState":{"key":"05","name":"Nordrhein-Westfalen"}},{"name":"In den Pfarrwiesen","postalCode":"64658","locality":"Fürth","municipality":{"key":"06431007","name":"Fürth","type":"Kreisangehörige_Gemeinde"},"district":{"key":"06431","name":"Bergstraße","type":"Landkreis"},"federalState":{"key":"06","name":"Hessen"}},{"name":"In der Altwiese","postalCode":"64658","locality":"Fürth","municipality":{"key":"06431007","name":"Fürth","type":"Kreisangehörige_Gemeinde"},"district":{"key":"06431","name":"Bergstraße","type":"Landkreis"},"federalState":{"key":"06","name":"Hessen"}},{"name":"In der Berten","postalCode":"90766","locality":"Fürth","municipality":{"key":"09563000","name":"Fürth","type":"Kreisfreie_Stadt"},"district":{"key":"09563","name":"Fürth","type":"Kreisfreie_Stadt"},"federalState":{"key":"09","name":"Bayern"}},{"name":"In der Bicke","postalCode":"51688","locality":"Wipperfürth","municipality":{"key":"05374052","name":"Wipperfürth, Hansestadt","type":"Stadt"},"district":{"key":"05374","name":"Oberbergischer Kreis","type":"Kreis"},"federalState":{"key":"05","name":"Nordrhein-Westfalen"}},{"name":"In der Hohl","postalCode":"64658","locality":"Fürth","municipality":{"key":"06431007","name":"Fürth","type":"Kreisangehörige_Gemeinde"},"district":{"key":"06431","name":"Bergstraße","type":"Landkreis"},"federalState":{"key":"06","name":"Hessen"}},{"name":"In der Lohe","postalCode":"90765","locality":"Fürth","municipality":{"key":"09563000","name":"Fürth","type":"Kreisfreie_Stadt"},"district":{"key":"09563","name":"Fürth","type":"Kreisfreie_Stadt"},"federalState":{"key":"09","name":"Bayern"}},{"name":"In der Mümmelbach","postalCode":"57539","locality":"Fürthen","municipality":{"key":"07132038","name":"Fürthen","type":"Kreisangehörige_Gemeinde"},"district":{"key":"07132","name":"Altenkirchen (Westerwald)","type":"Landkreis"},"federalState":{"key":"07","name":"Rheinland-Pfalz"}},{"name":"In der Schmalau","postalCode":"90765","locality":"Fürth","municipality":{"key":"09563000","name":"Fürth","type":"Kreisfreie_Stadt"},"district":{"key":"09563","name":"Fürth","type":"Kreisfreie_Stadt"},"federalState":{"key":"09","name":"Bayern"}},{"name":"Industriestr.","postalCode":"64658","locality":"Fürth","municipality":{"key":"06431007","name":"Fürth","type":"Kreisangehörige_Gemeinde"},"district":{"key":"06431","name":"Bergstraße","type":"Landkreis"},"federalState":{"key":"06","name":"Hessen"}},{"name":"Industriestr.","postalCode":"90765","locality":"Fürth","municipality":{"key":"09563000","name":"Fürth","type":"Kreisfreie_Stadt"},"district":{"key":"09563","name":"Fürth","type":"Kreisfreie_Stadt"},"federalState":{"key":"09","name":"Bayern"}},{"name":"Inselstr.","postalCode":"64658","locality":"Fürth","municipality":{"key":"06431007","name":"Fürth","type":"Kreisangehörige_Gemeinde"},"district":{"key":"06431","name":"Bergstraße","type":"Landkreis"},"federalState":{"key":"06","name":"Hessen"}},{"name":"Insterburger Str.","postalCode":"90766","locality":"Fürth","municipality":{"key":"09563000","name":"Fürth","type":"Kreisfreie_Stadt"},"district":{"key":"09563","name":"Fürth","type":"Kreisfreie_Stadt"},"federalState":{"key":"09","name":"Bayern"}},{"name":"Irisweg","postalCode":"90768","locality":"Fürth","municipality":{"key":"09563000","name":"Fürth","type":"Kreisfreie_Stadt"},"district":{"key":"09563","name":"Fürth","type":"Kreisfreie_Stadt"},"federalState":{"key":"09","name":"Bayern"}},{"name":"Isaak-Loewi-Str.","postalCode":"90763","locality":"Fürth","municipality":{"key":"09563000","name":"Fürth","type":"Kreisfreie_Stadt"},"district":{"key":"09563","name":"Fürth","type":"Kreisfreie_Stadt"},"federalState":{"key":"09","name":"Bayern"}},{"name":"Jagdstr.","postalCode":"90587","locality":"Veitsbronn","municipality":{"key":"09573130","name":"Veitsbronn","type":"Kreisangehörige_Gemeinde"},"district":{"key":"09573","name":"Fürth","type":"Landkreis"},"federalState":{"key":"09","name":"Bayern"}},{"name":"Jahnstr.","postalCode":"90587","locality":"Veitsbronn","municipality":{"key":"09573130","name":"Veitsbronn","type":"Kreisangehörige_Gemeinde"},"district":{"key":"09573","name":"Fürth","type":"Landkreis"},"federalState":{"key":"09","name":"Bayern"}},{"name":"Josefstr.","postalCode":"90587","locality":"Veitsbronn","municipality":{"key":"09573130","name":"Veitsbronn","type":"Kreisangehörige_Gemeinde"},"district":{"key":"09573","name":"Fürth","type":"Landkreis"},"federalState":{"key":"09","name":"Bayern"}},{"name":"Kagenhof","postalCode":"90587","locality":"Veitsbronn","municipality":{"key":"09573130","name":"Veitsbronn","type":"Kreisangehörige_Gemeinde"},"district":{"key":"09573","name":"Fürth","type":"Landkreis"},"federalState":{"key":"09","name":"Bayern"}},{"name":"Kagenhofer Weg","postalCode":"90587","locality":"Veitsbronn","municipality":{"key":"09573130","name":"Veitsbronn","type":"Kreisangehörige_Gemeinde"},"district":{"key":"09573","name":"Fürth","type":"Landkreis"},"federalState":{"key":"09","name":"Bayern"}},{"name":"Karlsbader Str.","postalCode":"90587","locality":"Veitsbronn","municipality":{"key":"09573130","name":"Veitsbronn","type":"Kreisangehörige_Gemeinde"},"district":{"key":"09573","name":"Fürth","type":"Landkreis"},"federalState":{"key":"09","name":"Bayern"}},{"name":"Königsberger Str.","postalCode":"90587","locality":"Veitsbronn","municipality":{"key":"09573130","name":"Veitsbronn","type":"Kreisangehörige_Gemeinde"},"district":{"key":"09573","name":"Fürth","type":"Landkreis"},"federalState":{"key":"09","name":"Bayern"}},{"name":"Kreppendorf","postalCode":"90587","locality":"Veitsbronn","municipality":{"key":"09573130","name":"Veitsbronn","type":"Kreisangehörige_Gemeinde"},"district":{"key":"09573","name":"Fürth","type":"Landkreis"},"federalState":{"key":"09","name":"Bayern"}},{"name":"Kreppendorfer Str.","postalCode":"90587","locality":"Veitsbronn","municipality":{"key":"09573130","name":"Veitsbronn","type":"Kreisangehörige_Gemeinde"},"district":{"key":"09573","name":"Fürth","type":"Landkreis"},"federalState":{"key":"09","name":"Bayern"}},{"name":"Langenzenner Str.","postalCode":"90587","locality":"Veitsbronn","municipality":{"key":"09573130","name":"Veitsbronn","type":"Kreisangehörige_Gemeinde"},"district":{"key":"09573","name":"Fürth","type":"Landkreis"},"federalState":{"key":"09","name":"Bayern"}},{"name":"Lerchenstr.","postalCode":"90587","locality":"Veitsbronn","municipality":{"key":"09573130","name":"Veitsbronn","type":"Kreisangehörige_Gemeinde"},"district":{"key":"09573","name":"Fürth","type":"Landkreis"},"federalState":{"key":"09","name":"Bayern"}},{"name":"Lilienstr.","postalCode":"90587","locality":"Veitsbronn","municipality":{"key":"09573130","name":"Veitsbronn","type":"Kreisangehörige_Gemeinde"},"district":{"key":"09573","name":"Fürth","type":"Landkreis"},"federalState":{"key":"09","name":"Bayern"}},{"name":"Luise-Rinser-Weg","postalCode":"90587","locality":"Veitsbronn","municipality":{"key":"09573130","name":"Veitsbronn","type":"Kreisangehörige_Gemeinde"},"district":{"key":"09573","name":"Fürth","type":"Landkreis"},"federalState":{"key":"09","name":"Bayern"}},{"name":"Magazinstr.","postalCode":"90763","locality":"Fürth","municipality":{"key":"09563000","name":"Fürth","type":"Kreisfreie_Stadt"},"district":{"key":"09563","name":"Fürth","type":"Kreisfreie_Stadt"},"federalState":{"key":"09","name":"Bayern"}},{"name":"Magnolienweg","postalCode":"90768","locality":"Fürth","municipality":{"key":"09563000","name":"Fürth","type":"Kreisfreie_Stadt"},"district":{"key":"09563","name":"Fürth","type":"Kreisfreie_Stadt"},"federalState":{"key":"09","name":"Bayern"}},{"name":"Mainstr.","postalCode":"90768","locality":"Fürth","municipality":{"key":"09563000","name":"Fürth","type":"Kreisfreie_Stadt"},"district":{"key":"09563","name":"Fürth","type":"Kreisfreie_Stadt"},"federalState":{"key":"09","name":"Bayern"}},{"name":"Maistr.","postalCode":"90762","locality":"Fürth","municipality":{"key":"09563000","name":"Fürth","type":"Kreisfreie_Stadt"},"district":{"key":"09563","name":"Fürth","type":"Kreisfreie_Stadt"},"federalState":{"key":"09","name":"Bayern"}},{"name":"Malvenweg","postalCode":"90768","locality":"Fürth","municipality":{"key":"09563000","name":"Fürth","type":"Kreisfreie_Stadt"},"district":{"key":"09563","name":"Fürth","type":"Kreisfreie_Stadt"},"federalState":{"key":"09","name":"Bayern"}},{"name":"Manfred-Roth-Str.","postalCode":"90766","locality":"Fürth","municipality":{"key":"09563000","name":"Fürth","type":"Kreisfreie_Stadt"},"district":{"key":"09563","name":"Fürth","type":"Kreisfreie_Stadt"},"federalState":{"key":"09","name":"Bayern"}},{"name":"Manfred-Roth-Str.","postalCode":"90768","locality":"Fürth","municipality":{"key":"09563000","name":"Fürth","type":"Kreisfreie_Stadt"},"district":{"key":"09563","name":"Fürth","type":"Kreisfreie_Stadt"},"federalState":{"key":"09","name":"Bayern"}},{"name":"Mannhofer Str.","postalCode":"90765","locality":"Fürth","municipality":{"key":"09563000","name":"Fürth","type":"Kreisfreie_Stadt"},"district":{"key":"09563","name":"Fürth","type":"Kreisfreie_Stadt"},"federalState":{"key":"09","name":"Bayern"}},{"name":"Marie-Juchacz-Str.","postalCode":"90765","locality":"Fürth","municipality":{"key":"09563000","name":"Fürth","type":"Kreisfreie_Stadt"},"district":{"key":"09563","name":"Fürth","type":"Kreisfreie_Stadt"},"federalState":{"key":"09","name":"Bayern"}},{"name":"Marienburger Str.","postalCode":"90766","locality":"Fürth","municipality":{"key":"09563000","name":"Fürth","type":"Kreisfreie_Stadt"},"district":{"key":"09563","name":"Fürth","type":"Kreisfreie_Stadt"},"federalState":{"key":"09","name":"Bayern"}},{"name":"Marienheider Str.","postalCode":"51688","locality":"Wipperfürth","municipality":{"key":"05374052","name":"Wipperfürth, Hansestadt","type":"Stadt"},"district":{"key":"05374","name":"Oberbergischer Kreis","type":"Kreis"},"federalState":{"key":"05","name":"Nordrhein-Westfalen"}},{"name":"Marienring","postalCode":"90765","locality":"Fürth","municipality":{"key":"09563000","name":"Fürth","type":"Kreisfreie_Stadt"},"district":{"key":"09563","name":"Fürth","type":"Kreisfreie_Stadt"},"federalState":{"key":"09","name":"Bayern"}},{"name":"Mariensteig","postalCode":"90762","locality":"Fürth","municipality":{"key":"09563000","name":"Fürth","type":"Kreisfreie_Stadt"},"district":{"key":"09563","name":"Fürth","type":"Kreisfreie_Stadt"},"federalState":{"key":"09","name":"Bayern"}},{"name":"Marienstr.","postalCode":"90762","locality":"Fürth","municipality":{"key":"09563000","name":"Fürth","type":"Kreisfreie_Stadt"},"district":{"key":"09563","name":"Fürth","type":"Kreisfreie_Stadt"},"federalState":{"key":"09","name":"Bayern"}},{"name":"Marktackerweg","postalCode":"90765","locality":"Fürth","municipality":{"key":"09563000","name":"Fürth","type":"Kreisfreie_Stadt"},"district":{"key":"09563","name":"Fürth","type":"Kreisfreie_Stadt"},"federalState":{"key":"09","name":"Bayern"}},{"name":"Marktplatz","postalCode":"51688","locality":"Wipperfürth","municipality":{"key":"05374052","name":"Wipperfürth, Hansestadt","type":"Stadt"},"district":{"key":"05374","name":"Oberbergischer Kreis","type":"Kreis"},"federalState":{"key":"05","name":"Nordrhein-Westfalen"}},{"name":"Marktplatz","postalCode":"64658","locality":"Fürth","municipality":{"key":"06431007","name":"Fürth","type":"Kreisangehörige_Gemeinde"},"district":{"key":"06431","name":"Bergstraße","type":"Landkreis"},"federalState":{"key":"06","name":"Hessen"}},{"name":"Marktstr.","postalCode":"51688","locality":"Wipperfürth","municipality":{"key":"05374052","name":"Wipperfürth, Hansestadt","type":"Stadt"},"district":{"key":"05374","name":"Oberbergischer Kreis","type":"Kreis"},"federalState":{"key":"05","name":"Nordrhein-Westfalen"}},{"name":"Marmarisplatz","postalCode":"90763","locality":"Fürth","municipality":{"key":"09563000","name":"Fürth","type":"Kreisfreie_Stadt"},"district":{"key":"09563","name":"Fürth","type":"Kreisfreie_Stadt"},"federalState":{"key":"09","name":"Bayern"}},{"name":"Marmaris-Wanderweg","postalCode":"90768","locality":"Fürth","municipality":{"key":"09563000","name":"Fürth","type":"Kreisfreie_Stadt"},"district":{"key":"09563","name":"Fürth","type":"Kreisfreie_Stadt"},"federalState":{"key":"09","name":"Bayern"}},{"name":"Marsweg","postalCode":"90763","locality":"Fürth","municipality":{"key":"09563000","name":"Fürth","type":"Kreisfreie_Stadt"},"district":{"key":"09563","name":"Fürth","type":"Kreisfreie_Stadt"},"federalState":{"key":"09","name":"Bayern"}},{"name":"Martin-Luther-Str.","postalCode":"64658","locality":"Fürth","municipality":{"key":"06431007","name":"Fürth","type":"Kreisangehörige_Gemeinde"},"district":{"key":"06431","name":"Bergstraße","type":"Landkreis"},"federalState":{"key":"06","name":"Hessen"}},{"name":"Maternusweg","postalCode":"51688","locality":"Wipperfürth","municipality":{"key":"05374052","name":"Wipperfürth, Hansestadt","type":"Stadt"},"district":{"key":"05374","name":"Oberbergischer Kreis","type":"Kreis"},"federalState":{"key":"05","name":"Nordrhein-Westfalen"}},{"name":"Mathildenstr.","postalCode":"90762","locality":"Fürth","municipality":{"key":"09563000","name":"Fürth","type":"Kreisfreie_Stadt"},"district":{"key":"09563","name":"Fürth","type":"Kreisfreie_Stadt"},"federalState":{"key":"09","name":"Bayern"}},{"name":"Mauerstr.","postalCode":"90765","locality":"Fürth","municipality":{"key":"09563000","name":"Fürth","type":"Kreisfreie_Stadt"},"district":{"key":"09563","name":"Fürth","type":"Kreisfreie_Stadt"},"federalState":{"key":"09","name":"Bayern"}},{"name":"Max-Liebermann-Str.","postalCode":"90768","locality":"Fürth","municipality":{"key":"09563000","name":"Fürth","type":"Kreisfreie_Stadt"},"district":{"key":"09563","name":"Fürth","type":"Kreisfreie_Stadt"},"federalState":{"key":"09","name":"Bayern"}},{"name":"Max-Planck-Str.","postalCode":"90766","locality":"Fürth","municipality":{"key":"09563000","name":"Fürth","type":"Kreisfreie_Stadt"},"district":{"key":"09563","name":"Fürth","type":"Kreisfreie_Stadt"},"federalState":{"key":"09","name":"Bayern"}},{"name":"Maxstr.","postalCode":"90762","locality":"Fürth","municipality":{"key":"09563000","name":"Fürth","type":"Kreisfreie_Stadt"},"district":{"key":"09563","name":"Fürth","type":"Kreisfreie_Stadt"},"federalState":{"key":"09","name":"Bayern"}},{"name":"Meckstr.","postalCode":"90762","locality":"Fürth","municipality":{"key":"09563000","name":"Fürth","type":"Kreisfreie_Stadt"},"district":{"key":"09563","name":"Fürth","type":"Kreisfreie_Stadt"},"federalState":{"key":"09","name":"Bayern"}},{"name":"Meddenbick","postalCode":"51688","locality":"Wipperfürth","municipality":{"key":"05374052","name":"Wipperfürth, Hansestadt","type":"Stadt"},"district":{"key":"05374","name":"Oberbergischer Kreis","type":"Kreis"},"federalState":{"key":"05","name":"Nordrhein-Westfalen"}},{"name":"Meisenweg","postalCode":"51688","locality":"Wipperfürth","municipality":{"key":"05374052","name":"Wipperfürth, Hansestadt","type":"Stadt"},"district":{"key":"05374","name":"Oberbergischer Kreis","type":"Kreis"},"federalState":{"key":"05","name":"Nordrhein-Westfalen"}},{"name":"Meisenweg","postalCode":"90768","locality":"Fürth","municipality":{"key":"09563000","name":"Fürth","type":"Kreisfreie_Stadt"},"district":{"key":"09563","name":"Fürth","type":"Kreisfreie_Stadt"},"federalState":{"key":"09","name":"Bayern"}},{"name":"Meißener Str.","postalCode":"90765","locality":"Fürth","municipality":{"key":"09563000","name":"Fürth","type":"Kreisfreie_Stadt"},"district":{"key":"09563","name":"Fürth","type":"Kreisfreie_Stadt"},"federalState":{"key":"09","name":"Bayern"}},{"name":"Melissenweg","postalCode":"90768","locality":"Fürth","municipality":{"key":"09563000","name":"Fürth","type":"Kreisfreie_Stadt"},"district":{"key":"09563","name":"Fürth","type":"Kreisfreie_Stadt"},"federalState":{"key":"09","name":"Bayern"}},{"name":"Melli-Beese-Str.","postalCode":"90768","locality":"Fürth","municipality":{"key":"09563000","name":"Fürth","type":"Kreisfreie_Stadt"},"district":{"key":"09563","name":"Fürth","type":"Kreisfreie_Stadt"},"federalState":{"key":"09","name":"Bayern"}},{"name":"Memellandstr.","postalCode":"51688","locality":"Wipperfürth","municipality":{"key":"05374052","name":"Wipperfürth, Hansestadt","type":"Stadt"},"district":{"key":"05374","name":"Oberbergischer Kreis","type":"Kreis"},"federalState":{"key":"05","name":"Nordrhein-Westfalen"}},{"name":"Merkurstr.","postalCode":"90763","locality":"Fürth","municipality":{"key":"09563000","name":"Fürth","type":"Kreisfreie_Stadt"},"district":{"key":"09563","name":"Fürth","type":"Kreisfreie_Stadt"},"federalState":{"key":"09","name":"Bayern"}},{"name":"Mesewinkler Weg","postalCode":"51688","locality":"Wipperfürth","municipality":{"key":"05374052","name":"Wipperfürth, Hansestadt","type":"Stadt"},"district":{"key":"05374","name":"Oberbergischer Kreis","type":"Kreis"},"federalState":{"key":"05","name":"Nordrhein-Westfalen"}},{"name":"Metzer Str.","postalCode":"90768","locality":"Fürth","municipality":{"key":"09563000","name":"Fürth","type":"Kreisfreie_Stadt"},"district":{"key":"09563","name":"Fürth","type":"Kreisfreie_Stadt"},"federalState":{"key":"09","name":"Bayern"}},{"name":"Michaelstr.","postalCode":"51688","locality":"Wipperfürth","municipality":{"key":"05374052","name":"Wipperfürth, Hansestadt","type":"Stadt"},"district":{"key":"05374","name":"Oberbergischer Kreis","type":"Kreis"},"federalState":{"key":"05","name":"Nordrhein-Westfalen"}},{"name":"Mitlechterner Str.","postalCode":"64658","locality":"Fürth","municipality":{"key":"06431007","name":"Fürth","type":"Kreisangehörige_Gemeinde"},"district":{"key":"06431","name":"Bergstraße","type":"Landkreis"},"federalState":{"key":"06","name":"Hessen"}},{"name":"Mittelerlen","postalCode":"51688","locality":"Wipperfürth","municipality":{"key":"05374052","name":"Wipperfürth, Hansestadt","type":"Stadt"},"district":{"key":"05374","name":"Oberbergischer Kreis","type":"Kreis"},"federalState":{"key":"05","name":"Nordrhein-Westfalen"}},{"name":"Mittelschneppen","postalCode":"51688","locality":"Wipperfürth","municipality":{"key":"05374052","name":"Wipperfürth, Hansestadt","type":"Stadt"},"district":{"key":"05374","name":"Oberbergischer Kreis","type":"Kreis"},"federalState":{"key":"05","name":"Nordrhein-Westfalen"}},{"name":"Mittelweg","postalCode":"57539","locality":"Fürthen","municipality":{"key":"07132038","name":"Fürthen","type":"Kreisangehörige_Gemeinde"},"district":{"key":"07132","name":"Altenkirchen (Westerwald)","type":"Landkreis"},"federalState":{"key":"07","name":"Rheinland-Pfalz"}},{"name":"Mittershäuser Weg","postalCode":"64658","locality":"Fürth","municipality":{"key":"06431007","name":"Fürth","type":"Kreisangehörige_Gemeinde"},"district":{"key":"06431","name":"Bergstraße","type":"Landkreis"},"federalState":{"key":"06","name":"Hessen"}},{"name":"Mittlere Str.","postalCode":"90768","locality":"Fürth","municipality":{"key":"09563000","name":"Fürth","type":"Kreisfreie_Stadt"},"district":{"key":"09563","name":"Fürth","type":"Kreisfreie_Stadt"},"federalState":{"key":"09","name":"Bayern"}},{"name":"Mohnweg","postalCode":"90768","locality":"Fürth","municipality":{"key":"09563000","name":"Fürth","type":"Kreisfreie_Stadt"},"district":{"key":"09563","name":"Fürth","type":"Kreisfreie_Stadt"},"federalState":{"key":"09","name":"Bayern"}},{"name":"Mohrenstr.","postalCode":"90762","locality":"Fürth","municipality":{"key":"09563000","name":"Fürth","type":"Kreisfreie_Stadt"},"district":{"key":"09563","name":"Fürth","type":"Kreisfreie_Stadt"},"federalState":{"key":"09","name":"Bayern"}},{"name":"Mondstr.","postalCode":"90762","locality":"Fürth","municipality":{"key":"09563000","name":"Fürth","type":"Kreisfreie_Stadt"},"district":{"key":"09563","name":"Fürth","type":"Kreisfreie_Stadt"},"federalState":{"key":"09","name":"Bayern"}},{"name":"Moosweg","postalCode":"90768","locality":"Fürth","municipality":{"key":"09563000","name":"Fürth","type":"Kreisfreie_Stadt"},"district":{"key":"09563","name":"Fürth","type":"Kreisfreie_Stadt"},"federalState":{"key":"09","name":"Bayern"}},{"name":"Nelkenstr.","postalCode":"90587","locality":"Veitsbronn","municipality":{"key":"09573130","name":"Veitsbronn","type":"Kreisangehörige_Gemeinde"},"district":{"key":"09573","name":"Fürth","type":"Landkreis"},"federalState":{"key":"09","name":"Bayern"}},{"name":"Nürnberger Str.","postalCode":"90587","locality":"Veitsbronn","municipality":{"key":"09573130","name":"Veitsbronn","type":"Kreisangehörige_Gemeinde"},"district":{"key":"09573","name":"Fürth","type":"Landkreis"},"federalState":{"key":"09","name":"Bayern"}},{"name":"Obere Bergstr.","postalCode":"90587","locality":"Veitsbronn","municipality":{"key":"09573130","name":"Veitsbronn","type":"Kreisangehörige_Gemeinde"},"district":{"key":"09573","name":"Fürth","type":"Landkreis"},"federalState":{"key":"09","name":"Bayern"}},{"name":"Obermichelbacher Str.","postalCode":"90587","locality":"Veitsbronn","municipality":{"key":"09573130","name":"Veitsbronn","type":"Kreisangehörige_Gemeinde"},"district":{"key":"09573","name":"Fürth","type":"Landkreis"},"federalState":{"key":"09","name":"Bayern"}},{"name":"Puschendorfer Str.","postalCode":"90587","locality":"Veitsbronn","municipality":{"key":"09573130","name":"Veitsbronn","type":"Kreisangehörige_Gemeinde"},"district":{"key":"09573","name":"Fürth","type":"Landkreis"},"federalState":{"key":"09","name":"Bayern"}},{"name":"Quäkerstr.","postalCode":"90766","locality":"Fürth","municipality":{"key":"09563000","name":"Fürth","type":"Kreisfreie_Stadt"},"district":{"key":"09563","name":"Fürth","type":"Kreisfreie_Stadt"},"federalState":{"key":"09","name":"Bayern"}},{"name":"Quittenweg","postalCode":"90768","locality":"Fürth","municipality":{"key":"09563000","name":"Fürth","type":"Kreisfreie_Stadt"},"district":{"key":"09563","name":"Fürth","type":"Kreisfreie_Stadt"},"federalState":{"key":"09","name":"Bayern"}},{"name":"Raabstr.","postalCode":"90587","locality":"Veitsbronn","municipality":{"key":"09573130","name":"Veitsbronn","type":"Kreisangehörige_Gemeinde"},"district":{"key":"09573","name":"Fürth","type":"Landkreis"},"federalState":{"key":"09","name":"Bayern"}},{"name":"Raindorfer Hauptstr.","postalCode":"90587","locality":"Veitsbronn","municipality":{"key":"09573130","name":"Veitsbronn","type":"Kreisangehörige_Gemeinde"},"district":{"key":"09573","name":"Fürth","type":"Landkreis"},"federalState":{"key":"09","name":"Bayern"}},{"name":"Raindorfer Mühlenweg","postalCode":"90587","locality":"Veitsbronn","municipality":{"key":"09573130","name":"Veitsbronn","type":"Kreisangehörige_Gemeinde"},"district":{"key":"09573","name":"Fürth","type":"Landkreis"},"federalState":{"key":"09","name":"Bayern"}},{"name":"Reitweg","postalCode":"90587","locality":"Veitsbronn","municipality":{"key":"09573130","name":"Veitsbronn","type":"Kreisangehörige_Gemeinde"},"district":{"key":"09573","name":"Fürth","type":"Landkreis"},"federalState":{"key":"09","name":"Bayern"}},{"name":"Ritzmannshofer Weg","postalCode":"90587","locality":"Veitsbronn","municipality":{"key":"09573130","name":"Veitsbronn","type":"Kreisangehörige_Gemeinde"},"district":{"key":"09573","name":"Fürth","type":"Landkreis"},"federalState":{"key":"09","name":"Bayern"}},{"name":"Rosenstr.","postalCode":"90587","locality":"Veitsbronn","municipality":{"key":"09573130","name":"Veitsbronn","type":"Kreisangehörige_Gemeinde"},"district":{"key":"09573","name":"Fürth","type":"Landkreis"},"federalState":{"key":"09","name":"Bayern"}},{"name":"Rothenberger Weg","postalCode":"90587","locality":"Veitsbronn","municipality":{"key":"09573130","name":"Veitsbronn","type":"Kreisangehörige_Gemeinde"},"district":{"key":"09573","name":"Fürth","type":"Landkreis"},"federalState":{"key":"09","name":"Bayern"}},{"name":"Schillerstr.","postalCode":"90587","locality":"Veitsbronn","municipality":{"key":"09573130","name":"Veitsbronn","type":"Kreisangehörige_Gemeinde"},"district":{"key":"09573","name":"Fürth","type":"Landkreis"},"federalState":{"key":"09","name":"Bayern"}},{"name":"Schlehenweg","postalCode":"90587","locality":"Veitsbronn","municipality":{"key":"09573130","name":"Veitsbronn","type":"Kreisangehörige_Gemeinde"},"district":{"key":"09573","name":"Fürth","type":"Landkreis"},"federalState":{"key":"09","name":"Bayern"}},{"name":"Seckendorfer Str.","postalCode":"90587","locality":"Veitsbronn","municipality":{"key":"09573130","name":"Veitsbronn","type":"Kreisangehörige_Gemeinde"},"district":{"key":"09573","name":"Fürth","type":"Landkreis"},"federalState":{"key":"09","name":"Bayern"}},{"name":"Seukendorfer Str.","postalCode":"90587","locality":"Veitsbronn","municipality":{"key":"09573130","name":"Veitsbronn","type":"Kreisangehörige_Gemeinde"},"district":{"key":"09573","name":"Fürth","type":"Landkreis"},"federalState":{"key":"09","name":"Bayern"}},{"name":"Siegelsdorfer Str.","postalCode":"90587","locality":"Veitsbronn","municipality":{"key":"09573130","name":"Veitsbronn","type":"Kreisangehörige_Gemeinde"},"district":{"key":"09573","name":"Fürth","type":"Landkreis"},"federalState":{"key":"09","name":"Bayern"}},{"name":"Steinleitenweg","postalCode":"90587","locality":"Veitsbronn","municipality":{"key":"09573130","name":"Veitsbronn","type":"Kreisangehörige_Gemeinde"},"district":{"key":"09573","name":"Fürth","type":"Landkreis"},"federalState":{"key":"09","name":"Bayern"}},{"name":"Stockäckerstr.","postalCode":"90587","locality":"Veitsbronn","municipality":{"key":"09573130","name":"Veitsbronn","type":"Kreisangehörige_Gemeinde"},"district":{"key":"09573","name":"Fürth","type":"Landkreis"},"federalState":{"key":"09","name":"Bayern"}},{"name":"Tannenstr.","postalCode":"90587","locality":"Veitsbronn","municipality":{"key":"09573130","name":"Veitsbronn","type":"Kreisangehörige_Gemeinde"},"district":{"key":"09573","name":"Fürth","type":"Landkreis"},"federalState":{"key":"09","name":"Bayern"}},{"name":"Tuchenbacher Str.","postalCode":"90587","locality":"Veitsbronn","municipality":{"key":"09573130","name":"Veitsbronn","type":"Kreisangehörige_Gemeinde"},"district":{"key":"09573","name":"Fürth","type":"Landkreis"},"federalState":{"key":"09","name":"Bayern"}},{"name":"Tulpenstr.","postalCode":"90587","locality":"Veitsbronn","municipality":{"key":"09573130","name":"Veitsbronn","type":"Kreisangehörige_Gemeinde"},"district":{"key":"09573","name":"Fürth","type":"Landkreis"},"federalState":{"key":"09","name":"Bayern"}},{"name":"Uhlandstr.","postalCode":"90587","locality":"Veitsbronn","municipality":{"key":"09573130","name":"Veitsbronn","type":"Kreisangehörige_Gemeinde"},"district":{"key":"09573","name":"Fürth","type":"Landkreis"},"federalState":{"key":"09","name":"Bayern"}},{"name":"Unterer Wiesenweg","postalCode":"90587","locality":"Veitsbronn","municipality":{"key":"09573130","name":"Veitsbronn","type":"Kreisangehörige_Gemeinde"},"district":{"key":"09573","name":"Fürth","type":"Landkreis"},"federalState":{"key":"09","name":"Bayern"}},{"name":"Veilchenstr.","postalCode":"90587","locality":"Veitsbronn","municipality":{"key":"09573130","name":"Veitsbronn","type":"Kreisangehörige_Gemeinde"},"district":{"key":"09573","name":"Fürth","type":"Landkreis"},"federalState":{"key":"09","name":"Bayern"}},{"name":"Veit-Stoß-Str.","postalCode":"90587","locality":"Veitsbronn","municipality":{"key":"09573130","name":"Veitsbronn","type":"Kreisangehörige_Gemeinde"},"district":{"key":"09573","name":"Fürth","type":"Landkreis"},"federalState":{"key":"09","name":"Bayern"}},{"name":"Wacholderbergstr.","postalCode":"90587","locality":"Veitsbronn","municipality":{"key":"09573130","name":"Veitsbronn","type":"Kreisangehörige_Gemeinde"},"district":{"key":"09573","name":"Fürth","type":"Landkreis"},"federalState":{"key":"09","name":"Bayern"}},{"name":"Waldkapelle Retzelfembach","postalCode":"90587","locality":"Veitsbronn","municipality":{"key":"09573130","name":"Veitsbronn","type":"Kreisangehörige_Gemeinde"},"district":{"key":"09573","name":"Fürth","type":"Landkreis"},"federalState":{"key":"09","name":"Bayern"}},{"name":"Waldstr.","postalCode":"90587","locality":"Veitsbronn","municipality":{"key":"09573130","name":"Veitsbronn","type":"Kreisangehörige_Gemeinde"},"district":{"key":"09573","name":"Fürth","type":"Landkreis"},"federalState":{"key":"09","name":"Bayern"}},{"name":"Weihergasse","postalCode":"90587","locality":"Veitsbronn","municipality":{"key":"09573130","name":"Veitsbronn","type":"Kreisangehörige_Gemeinde"},"district":{"key":"09573","name":"Fürth","type":"Landkreis"},"federalState":{"key":"09","name":"Bayern"}},{"name":"Weiherwiese","postalCode":"90587","locality":"Veitsbronn","municipality":{"key":"09573130","name":"Veitsbronn","type":"Kreisangehörige_Gemeinde"},"district":{"key":"09573","name":"Fürth","type":"Landkreis"},"federalState":{"key":"09","name":"Bayern"}},{"name":"Wiesenweg","postalCode":"90587","locality":"Veitsbronn","municipality":{"key":"09573130","name":"Veitsbronn","type":"Kreisangehörige_Gemeinde"},"district":{"key":"09573","name":"Fürth","type":"Landkreis"},"federalState":{"key":"09","name":"Bayern"}},{"name":"Winterleite","postalCode":"90587","locality":"Veitsbronn","municipality":{"key":"09573130","name":"Veitsbronn","type":"Kreisangehörige_Gemeinde"},"district":{"key":"09573","name":"Fürth","type":"Landkreis"},"federalState":{"key":"09","name":"Bayern"}},{"name":"Xylokastroplatz","postalCode":"90763","locality":"Fürth","municipality":{"key":"09563000","name":"Fürth","type":"Kreisfreie_Stadt"},"district":{"key":"09563","name":"Fürth","type":"Kreisfreie_Stadt"},"federalState":{"key":"09","name":"Bayern"}},{"name":"Zennweg","postalCode":"90587","locality":"Veitsbronn","municipality":{"key":"09573130","name":"Veitsbronn","type":"Kreisangehörige_Gemeinde"},"district":{"key":"09573","name":"Fürth","type":"Landkreis"},"federalState":{"key":"09","name":"Bayern"}},{"name":"Ährenweg","postalCode":"90765","locality":"Fürth","municipality":{"key":"09563000","name":"Fürth","type":"Kreisfreie_Stadt"},"district":{"key":"09563","name":"Fürth","type":"Kreisfreie_Stadt"},"federalState":{"key":"09","name":"Bayern"}},{"name":"Östliche Waldringstr.","postalCode":"90765","locality":"Fürth","municipality":{"key":"09563000","name":"Fürth","type":"Kreisfreie_Stadt"},"district":{"key":"09563","name":"Fürth","type":"Kreisfreie_Stadt"},"federalState":{"key":"09","name":"Bayern"}},]