[{"name":"Adam-Olearius-Str.","postalCode":"06449","locality":"Aschersleben","municipality":{"key":"15089015","name":"Aschersleben, Stadt","type":"Stadt"},"district":{"key":"15089","name":"Salzlandkreis","type":"Landkreis"},"federalState":{"key":"15","name":"Sachsen-Anhalt"}},{"name":"Agnetenstr.","postalCode":"06449","locality":"Aschersleben","municipality":{"key":"15089015","name":"Aschersleben, Stadt","type":"Stadt"},"district":{"key":"15089","name":"Salzlandkreis","type":"Landkreis"},"federalState":{"key":"15","name":"Sachsen-Anhalt"}},{"name":"Ahornweg","postalCode":"06449","locality":"Aschersleben","municipality":{"key":"15089015","name":"Aschersleben, Stadt","type":"Stadt"},"district":{"key":"15089","name":"Salzlandkreis","type":"Landkreis"},"federalState":{"key":"15","name":"Sachsen-Anhalt"}},{"name":"Akazienweg","postalCode":"06449","locality":"Aschersleben","municipality":{"key":"15089015","name":"Aschersleben, Stadt","type":"Stadt"},"district":{"key":"15089","name":"Salzlandkreis","type":"Landkreis"},"federalState":{"key":"15","name":"Sachsen-Anhalt"}},{"name":"Albert-Drosihn-Str.","postalCode":"06449","locality":"Aschersleben","municipality":{"key":"15089015","name":"Aschersleben, Stadt","type":"Stadt"},"district":{"key":"15089","name":"Salzlandkreis","type":"Landkreis"},"federalState":{"key":"15","name":"Sachsen-Anhalt"}},{"name":"Alte Bahnhofstr.","postalCode":"06449","locality":"Aschersleben","municipality":{"key":"15089015","name":"Aschersleben, Stadt","type":"Stadt"},"district":{"key":"15089","name":"Salzlandkreis","type":"Landkreis"},"federalState":{"key":"15","name":"Sachsen-Anhalt"}},{"name":"Alte Siedlung","postalCode":"06449","locality":"Aschersleben","municipality":{"key":"15089015","name":"Aschersleben, Stadt","type":"Stadt"},"district":{"key":"15089","name":"Salzlandkreis","type":"Landkreis"},"federalState":{"key":"15","name":"Sachsen-Anhalt"}},{"name":"Am Anger","postalCode":"06449","locality":"Aschersleben","municipality":{"key":"15089015","name":"Aschersleben, Stadt","type":"Stadt"},"district":{"key":"15089","name":"Salzlandkreis","type":"Landkreis"},"federalState":{"key":"15","name":"Sachsen-Anhalt"}},{"name":"Am Bahnhof","postalCode":"06449","locality":"Aschersleben","municipality":{"key":"15089015","name":"Aschersleben, Stadt","type":"Stadt"},"district":{"key":"15089","name":"Salzlandkreis","type":"Landkreis"},"federalState":{"key":"15","name":"Sachsen-Anhalt"}},{"name":"Am Borntal","postalCode":"06449","locality":"Aschersleben","municipality":{"key":"15089015","name":"Aschersleben, Stadt","type":"Stadt"},"district":{"key":"15089","name":"Salzlandkreis","type":"Landkreis"},"federalState":{"key":"15","name":"Sachsen-Anhalt"}},{"name":"Am Böttchersberg","postalCode":"06449","locality":"Aschersleben","municipality":{"key":"15089015","name":"Aschersleben, Stadt","type":"Stadt"},"district":{"key":"15089","name":"Salzlandkreis","type":"Landkreis"},"federalState":{"key":"15","name":"Sachsen-Anhalt"}},{"name":"Am Busch","postalCode":"06449","locality":"Aschersleben","municipality":{"key":"15089015","name":"Aschersleben, Stadt","type":"Stadt"},"district":{"key":"15089","name":"Salzlandkreis","type":"Landkreis"},"federalState":{"key":"15","name":"Sachsen-Anhalt"}},{"name":"Am Friedhof","postalCode":"06449","locality":"Aschersleben","municipality":{"key":"15089015","name":"Aschersleben, Stadt","type":"Stadt"},"district":{"key":"15089","name":"Salzlandkreis","type":"Landkreis"},"federalState":{"key":"15","name":"Sachsen-Anhalt"}},{"name":"Am Grauen Hof","postalCode":"06449","locality":"Aschersleben","municipality":{"key":"15089015","name":"Aschersleben, Stadt","type":"Stadt"},"district":{"key":"15089","name":"Salzlandkreis","type":"Landkreis"},"federalState":{"key":"15","name":"Sachsen-Anhalt"}},{"name":"Am Kloster","postalCode":"06449","locality":"Aschersleben","municipality":{"key":"15089015","name":"Aschersleben, Stadt","type":"Stadt"},"district":{"key":"15089","name":"Salzlandkreis","type":"Landkreis"},"federalState":{"key":"15","name":"Sachsen-Anhalt"}},{"name":"Am Landgraben","postalCode":"06449","locality":"Aschersleben","municipality":{"key":"15089015","name":"Aschersleben, Stadt","type":"Stadt"},"district":{"key":"15089","name":"Salzlandkreis","type":"Landkreis"},"federalState":{"key":"15","name":"Sachsen-Anhalt"}},{"name":"Am Mühlgraben","postalCode":"06449","locality":"Aschersleben","municipality":{"key":"15089015","name":"Aschersleben, Stadt","type":"Stadt"},"district":{"key":"15089","name":"Salzlandkreis","type":"Landkreis"},"federalState":{"key":"15","name":"Sachsen-Anhalt"}},{"name":"Am neuen Friedhof","postalCode":"06449","locality":"Aschersleben","municipality":{"key":"15089015","name":"Aschersleben, Stadt","type":"Stadt"},"district":{"key":"15089","name":"Salzlandkreis","type":"Landkreis"},"federalState":{"key":"15","name":"Sachsen-Anhalt"}},{"name":"Am Plan","postalCode":"06449","locality":"Aschersleben","municipality":{"key":"15089015","name":"Aschersleben, Stadt","type":"Stadt"},"district":{"key":"15089","name":"Salzlandkreis","type":"Landkreis"},"federalState":{"key":"15","name":"Sachsen-Anhalt"}},{"name":"Am Quellgrund","postalCode":"06449","locality":"Aschersleben","municipality":{"key":"15089015","name":"Aschersleben, Stadt","type":"Stadt"},"district":{"key":"15089","name":"Salzlandkreis","type":"Landkreis"},"federalState":{"key":"15","name":"Sachsen-Anhalt"}},{"name":"Am Roten Berg","postalCode":"06449","locality":"Aschersleben","municipality":{"key":"15089015","name":"Aschersleben, Stadt","type":"Stadt"},"district":{"key":"15089","name":"Salzlandkreis","type":"Landkreis"},"federalState":{"key":"15","name":"Sachsen-Anhalt"}},{"name":"Am Schloßteich","postalCode":"06449","locality":"Aschersleben","municipality":{"key":"15089015","name":"Aschersleben, Stadt","type":"Stadt"},"district":{"key":"15089","name":"Salzlandkreis","type":"Landkreis"},"federalState":{"key":"15","name":"Sachsen-Anhalt"}},{"name":"Am Schmiedeplatz","postalCode":"06449","locality":"Aschersleben","municipality":{"key":"15089015","name":"Aschersleben, Stadt","type":"Stadt"},"district":{"key":"15089","name":"Salzlandkreis","type":"Landkreis"},"federalState":{"key":"15","name":"Sachsen-Anhalt"}},{"name":"Amselweg","postalCode":"06449","locality":"Aschersleben","municipality":{"key":"15089015","name":"Aschersleben, Stadt","type":"Stadt"},"district":{"key":"15089","name":"Salzlandkreis","type":"Landkreis"},"federalState":{"key":"15","name":"Sachsen-Anhalt"}},{"name":"Am Spittelsberg","postalCode":"06449","locality":"Aschersleben","municipality":{"key":"15089015","name":"Aschersleben, Stadt","type":"Stadt"},"district":{"key":"15089","name":"Salzlandkreis","type":"Landkreis"},"federalState":{"key":"15","name":"Sachsen-Anhalt"}},{"name":"Am Teich","postalCode":"06449","locality":"Aschersleben","municipality":{"key":"15089015","name":"Aschersleben, Stadt","type":"Stadt"},"district":{"key":"15089","name":"Salzlandkreis","type":"Landkreis"},"federalState":{"key":"15","name":"Sachsen-Anhalt"}},{"name":"Am Teichberg","postalCode":"06449","locality":"Aschersleben","municipality":{"key":"15089015","name":"Aschersleben, Stadt","type":"Stadt"},"district":{"key":"15089","name":"Salzlandkreis","type":"Landkreis"},"federalState":{"key":"15","name":"Sachsen-Anhalt"}},{"name":"Am Weinberg","postalCode":"06449","locality":"Aschersleben","municipality":{"key":"15089015","name":"Aschersleben, Stadt","type":"Stadt"},"district":{"key":"15089","name":"Salzlandkreis","type":"Landkreis"},"federalState":{"key":"15","name":"Sachsen-Anhalt"}},{"name":"Am Wolfsberg","postalCode":"06449","locality":"Aschersleben","municipality":{"key":"15089015","name":"Aschersleben, Stadt","type":"Stadt"},"district":{"key":"15089","name":"Salzlandkreis","type":"Landkreis"},"federalState":{"key":"15","name":"Sachsen-Anhalt"}},{"name":"An der Alten Schule","postalCode":"06449","locality":"Aschersleben","municipality":{"key":"15089015","name":"Aschersleben, Stadt","type":"Stadt"},"district":{"key":"15089","name":"Salzlandkreis","type":"Landkreis"},"federalState":{"key":"15","name":"Sachsen-Anhalt"}},{"name":"An der alten Siedlung","postalCode":"06449","locality":"Aschersleben","municipality":{"key":"15089015","name":"Aschersleben, Stadt","type":"Stadt"},"district":{"key":"15089","name":"Salzlandkreis","type":"Landkreis"},"federalState":{"key":"15","name":"Sachsen-Anhalt"}},{"name":"An der Bäckermühle","postalCode":"06449","locality":"Aschersleben","municipality":{"key":"15089015","name":"Aschersleben, Stadt","type":"Stadt"},"district":{"key":"15089","name":"Salzlandkreis","type":"Landkreis"},"federalState":{"key":"15","name":"Sachsen-Anhalt"}},{"name":"An der Buschmühle","postalCode":"06449","locality":"Aschersleben","municipality":{"key":"15089015","name":"Aschersleben, Stadt","type":"Stadt"},"district":{"key":"15089","name":"Salzlandkreis","type":"Landkreis"},"federalState":{"key":"15","name":"Sachsen-Anhalt"}},{"name":"An der Darre","postalCode":"06449","locality":"Aschersleben","municipality":{"key":"15089015","name":"Aschersleben, Stadt","type":"Stadt"},"district":{"key":"15089","name":"Salzlandkreis","type":"Landkreis"},"federalState":{"key":"15","name":"Sachsen-Anhalt"}},{"name":"An der Dorfstr.","postalCode":"06449","locality":"Aschersleben","municipality":{"key":"15089015","name":"Aschersleben, Stadt","type":"Stadt"},"district":{"key":"15089","name":"Salzlandkreis","type":"Landkreis"},"federalState":{"key":"15","name":"Sachsen-Anhalt"}},{"name":"An der Eisenbahn","postalCode":"06449","locality":"Aschersleben","municipality":{"key":"15089015","name":"Aschersleben, Stadt","type":"Stadt"},"district":{"key":"15089","name":"Salzlandkreis","type":"Landkreis"},"federalState":{"key":"15","name":"Sachsen-Anhalt"}},{"name":"An der Grube","postalCode":"06449","locality":"Aschersleben","municipality":{"key":"15089015","name":"Aschersleben, Stadt","type":"Stadt"},"district":{"key":"15089","name":"Salzlandkreis","type":"Landkreis"},"federalState":{"key":"15","name":"Sachsen-Anhalt"}},{"name":"An der Knochendarre","postalCode":"06449","locality":"Aschersleben","municipality":{"key":"15089015","name":"Aschersleben, Stadt","type":"Stadt"},"district":{"key":"15089","name":"Salzlandkreis","type":"Landkreis"},"federalState":{"key":"15","name":"Sachsen-Anhalt"}},{"name":"An der Lehmkuhle","postalCode":"06449","locality":"Aschersleben","municipality":{"key":"15089015","name":"Aschersleben, Stadt","type":"Stadt"},"district":{"key":"15089","name":"Salzlandkreis","type":"Landkreis"},"federalState":{"key":"15","name":"Sachsen-Anhalt"}},{"name":"An der Margarethenkirche","postalCode":"06449","locality":"Aschersleben","municipality":{"key":"15089015","name":"Aschersleben, Stadt","type":"Stadt"},"district":{"key":"15089","name":"Salzlandkreis","type":"Landkreis"},"federalState":{"key":"15","name":"Sachsen-Anhalt"}},{"name":"An der neuen Siedlung","postalCode":"06449","locality":"Aschersleben","municipality":{"key":"15089015","name":"Aschersleben, Stadt","type":"Stadt"},"district":{"key":"15089","name":"Salzlandkreis","type":"Landkreis"},"federalState":{"key":"15","name":"Sachsen-Anhalt"}},{"name":"An der Siedlung","postalCode":"06449","locality":"Aschersleben","municipality":{"key":"15089015","name":"Aschersleben, Stadt","type":"Stadt"},"district":{"key":"15089","name":"Salzlandkreis","type":"Landkreis"},"federalState":{"key":"15","name":"Sachsen-Anhalt"}},{"name":"An der Worth","postalCode":"06449","locality":"Aschersleben","municipality":{"key":"15089015","name":"Aschersleben, Stadt","type":"Stadt"},"district":{"key":"15089","name":"Salzlandkreis","type":"Landkreis"},"federalState":{"key":"15","name":"Sachsen-Anhalt"}},{"name":"An der Wunne","postalCode":"06449","locality":"Aschersleben","municipality":{"key":"15089015","name":"Aschersleben, Stadt","type":"Stadt"},"district":{"key":"15089","name":"Salzlandkreis","type":"Landkreis"},"federalState":{"key":"15","name":"Sachsen-Anhalt"}},{"name":"Angerstr.","postalCode":"06449","locality":"Aschersleben","municipality":{"key":"15089015","name":"Aschersleben, Stadt","type":"Stadt"},"district":{"key":"15089","name":"Salzlandkreis","type":"Landkreis"},"federalState":{"key":"15","name":"Sachsen-Anhalt"}},{"name":"Antonienstr.","postalCode":"06449","locality":"Aschersleben","municipality":{"key":"15089015","name":"Aschersleben, Stadt","type":"Stadt"},"district":{"key":"15089","name":"Salzlandkreis","type":"Landkreis"},"federalState":{"key":"15","name":"Sachsen-Anhalt"}},{"name":"Apothekergraben","postalCode":"06449","locality":"Aschersleben","municipality":{"key":"15089015","name":"Aschersleben, Stadt","type":"Stadt"},"district":{"key":"15089","name":"Salzlandkreis","type":"Landkreis"},"federalState":{"key":"15","name":"Sachsen-Anhalt"}},{"name":"Armesündergasse","postalCode":"06449","locality":"Aschersleben","municipality":{"key":"15089015","name":"Aschersleben, Stadt","type":"Stadt"},"district":{"key":"15089","name":"Salzlandkreis","type":"Landkreis"},"federalState":{"key":"15","name":"Sachsen-Anhalt"}},{"name":"Armstrongstr.","postalCode":"06449","locality":"Aschersleben","municipality":{"key":"15089015","name":"Aschersleben, Stadt","type":"Stadt"},"district":{"key":"15089","name":"Salzlandkreis","type":"Landkreis"},"federalState":{"key":"15","name":"Sachsen-Anhalt"}},{"name":"Arnstedter Str.","postalCode":"06449","locality":"Aschersleben","municipality":{"key":"15089015","name":"Aschersleben, Stadt","type":"Stadt"},"district":{"key":"15089","name":"Salzlandkreis","type":"Landkreis"},"federalState":{"key":"15","name":"Sachsen-Anhalt"}},{"name":"Bachstelzenweg","postalCode":"06449","locality":"Aschersleben","municipality":{"key":"15089015","name":"Aschersleben, Stadt","type":"Stadt"},"district":{"key":"15089","name":"Salzlandkreis","type":"Landkreis"},"federalState":{"key":"15","name":"Sachsen-Anhalt"}},{"name":"Bäckerstieg","postalCode":"06449","locality":"Aschersleben","municipality":{"key":"15089015","name":"Aschersleben, Stadt","type":"Stadt"},"district":{"key":"15089","name":"Salzlandkreis","type":"Landkreis"},"federalState":{"key":"15","name":"Sachsen-Anhalt"}},{"name":"Badergasse","postalCode":"06449","locality":"Aschersleben","municipality":{"key":"15089015","name":"Aschersleben, Stadt","type":"Stadt"},"district":{"key":"15089","name":"Salzlandkreis","type":"Landkreis"},"federalState":{"key":"15","name":"Sachsen-Anhalt"}},{"name":"Badstuben","postalCode":"06449","locality":"Aschersleben","municipality":{"key":"15089015","name":"Aschersleben, Stadt","type":"Stadt"},"district":{"key":"15089","name":"Salzlandkreis","type":"Landkreis"},"federalState":{"key":"15","name":"Sachsen-Anhalt"}},{"name":"Bahnhofstr.","postalCode":"06449","locality":"Aschersleben","municipality":{"key":"15089015","name":"Aschersleben, Stadt","type":"Stadt"},"district":{"key":"15089","name":"Salzlandkreis","type":"Landkreis"},"federalState":{"key":"15","name":"Sachsen-Anhalt"}},{"name":"Bahnsiedlung","postalCode":"06449","locality":"Aschersleben","municipality":{"key":"15089015","name":"Aschersleben, Stadt","type":"Stadt"},"district":{"key":"15089","name":"Salzlandkreis","type":"Landkreis"},"federalState":{"key":"15","name":"Sachsen-Anhalt"}},{"name":"Balkendorfer Platz","postalCode":"06449","locality":"Aschersleben","municipality":{"key":"15089015","name":"Aschersleben, Stadt","type":"Stadt"},"district":{"key":"15089","name":"Salzlandkreis","type":"Landkreis"},"federalState":{"key":"15","name":"Sachsen-Anhalt"}},{"name":"Baumgartenstr.","postalCode":"06449","locality":"Aschersleben","municipality":{"key":"15089015","name":"Aschersleben, Stadt","type":"Stadt"},"district":{"key":"15089","name":"Salzlandkreis","type":"Landkreis"},"federalState":{"key":"15","name":"Sachsen-Anhalt"}},{"name":"Bellebener Weg","postalCode":"06449","locality":"Aschersleben","municipality":{"key":"15089015","name":"Aschersleben, Stadt","type":"Stadt"},"district":{"key":"15089","name":"Salzlandkreis","type":"Landkreis"},"federalState":{"key":"15","name":"Sachsen-Anhalt"}},{"name":"Berliner Str.","postalCode":"06449","locality":"Aschersleben","municipality":{"key":"15089015","name":"Aschersleben, Stadt","type":"Stadt"},"district":{"key":"15089","name":"Salzlandkreis","type":"Landkreis"},"federalState":{"key":"15","name":"Sachsen-Anhalt"}},{"name":"Bernburger Str.","postalCode":"06449","locality":"Aschersleben","municipality":{"key":"15089015","name":"Aschersleben, Stadt","type":"Stadt"},"district":{"key":"15089","name":"Salzlandkreis","type":"Landkreis"},"federalState":{"key":"15","name":"Sachsen-Anhalt"}},{"name":"Bestehornpark","postalCode":"06449","locality":"Aschersleben","municipality":{"key":"15089015","name":"Aschersleben, Stadt","type":"Stadt"},"district":{"key":"15089","name":"Salzlandkreis","type":"Landkreis"},"federalState":{"key":"15","name":"Sachsen-Anhalt"}},{"name":"Bestehornstr.","postalCode":"06449","locality":"Aschersleben","municipality":{"key":"15089015","name":"Aschersleben, Stadt","type":"Stadt"},"district":{"key":"15089","name":"Salzlandkreis","type":"Landkreis"},"federalState":{"key":"15","name":"Sachsen-Anhalt"}},{"name":"Birkenweg","postalCode":"06449","locality":"Aschersleben","municipality":{"key":"15089015","name":"Aschersleben, Stadt","type":"Stadt"},"district":{"key":"15089","name":"Salzlandkreis","type":"Landkreis"},"federalState":{"key":"15","name":"Sachsen-Anhalt"}},{"name":"Blumenstr.","postalCode":"06449","locality":"Aschersleben","municipality":{"key":"15089015","name":"Aschersleben, Stadt","type":"Stadt"},"district":{"key":"15089","name":"Salzlandkreis","type":"Landkreis"},"federalState":{"key":"15","name":"Sachsen-Anhalt"}},{"name":"Bonifatiuskirchhof","postalCode":"06449","locality":"Aschersleben","municipality":{"key":"15089015","name":"Aschersleben, Stadt","type":"Stadt"},"district":{"key":"15089","name":"Salzlandkreis","type":"Landkreis"},"federalState":{"key":"15","name":"Sachsen-Anhalt"}},{"name":"Bördeweg","postalCode":"06449","locality":"Aschersleben","municipality":{"key":"15089015","name":"Aschersleben, Stadt","type":"Stadt"},"district":{"key":"15089","name":"Salzlandkreis","type":"Landkreis"},"federalState":{"key":"15","name":"Sachsen-Anhalt"}},{"name":"Breite Str.","postalCode":"06449","locality":"Aschersleben","municipality":{"key":"15089015","name":"Aschersleben, Stadt","type":"Stadt"},"district":{"key":"15089","name":"Salzlandkreis","type":"Landkreis"},"federalState":{"key":"15","name":"Sachsen-Anhalt"}},{"name":"Breslauer Weg","postalCode":"06449","locality":"Aschersleben","municipality":{"key":"15089015","name":"Aschersleben, Stadt","type":"Stadt"},"district":{"key":"15089","name":"Salzlandkreis","type":"Landkreis"},"federalState":{"key":"15","name":"Sachsen-Anhalt"}},{"name":"Brunnenstr.","postalCode":"06449","locality":"Aschersleben","municipality":{"key":"15089015","name":"Aschersleben, Stadt","type":"Stadt"},"district":{"key":"15089","name":"Salzlandkreis","type":"Landkreis"},"federalState":{"key":"15","name":"Sachsen-Anhalt"}},{"name":"Bullenwinkel","postalCode":"06449","locality":"Aschersleben","municipality":{"key":"15089015","name":"Aschersleben, Stadt","type":"Stadt"},"district":{"key":"15089","name":"Salzlandkreis","type":"Landkreis"},"federalState":{"key":"15","name":"Sachsen-Anhalt"}},{"name":"Burgplatz","postalCode":"06449","locality":"Aschersleben","municipality":{"key":"15089015","name":"Aschersleben, Stadt","type":"Stadt"},"district":{"key":"15089","name":"Salzlandkreis","type":"Landkreis"},"federalState":{"key":"15","name":"Sachsen-Anhalt"}},{"name":"Burgstr.","postalCode":"06449","locality":"Aschersleben","municipality":{"key":"15089015","name":"Aschersleben, Stadt","type":"Stadt"},"district":{"key":"15089","name":"Salzlandkreis","type":"Landkreis"},"federalState":{"key":"15","name":"Sachsen-Anhalt"}},{"name":"Buschmühlenweg","postalCode":"06449","locality":"Aschersleben","municipality":{"key":"15089015","name":"Aschersleben, Stadt","type":"Stadt"},"district":{"key":"15089","name":"Salzlandkreis","type":"Landkreis"},"federalState":{"key":"15","name":"Sachsen-Anhalt"}},{"name":"Buschweg","postalCode":"06449","locality":"Aschersleben","municipality":{"key":"15089015","name":"Aschersleben, Stadt","type":"Stadt"},"district":{"key":"15089","name":"Salzlandkreis","type":"Landkreis"},"federalState":{"key":"15","name":"Sachsen-Anhalt"}},{"name":"Carl-von-Ossietzky-Platz","postalCode":"06449","locality":"Aschersleben","municipality":{"key":"15089015","name":"Aschersleben, Stadt","type":"Stadt"},"district":{"key":"15089","name":"Salzlandkreis","type":"Landkreis"},"federalState":{"key":"15","name":"Sachsen-Anhalt"}},{"name":"Clara-Zetkin-Str.","postalCode":"06449","locality":"Aschersleben","municipality":{"key":"15089015","name":"Aschersleben, Stadt","type":"Stadt"},"district":{"key":"15089","name":"Salzlandkreis","type":"Landkreis"},"federalState":{"key":"15","name":"Sachsen-Anhalt"}},{"name":"Cochstedter Str.","postalCode":"06449","locality":"Aschersleben","municipality":{"key":"15089015","name":"Aschersleben, Stadt","type":"Stadt"},"district":{"key":"15089","name":"Salzlandkreis","type":"Landkreis"},"federalState":{"key":"15","name":"Sachsen-Anhalt"}},{"name":"Cochstedter Weg","postalCode":"06449","locality":"Aschersleben","municipality":{"key":"15089015","name":"Aschersleben, Stadt","type":"Stadt"},"district":{"key":"15089","name":"Salzlandkreis","type":"Landkreis"},"federalState":{"key":"15","name":"Sachsen-Anhalt"}},{"name":"Curthstr.","postalCode":"06449","locality":"Aschersleben","municipality":{"key":"15089015","name":"Aschersleben, Stadt","type":"Stadt"},"district":{"key":"15089","name":"Salzlandkreis","type":"Landkreis"},"federalState":{"key":"15","name":"Sachsen-Anhalt"}},{"name":"Daimlerstr.","postalCode":"06449","locality":"Aschersleben","municipality":{"key":"15089015","name":"Aschersleben, Stadt","type":"Stadt"},"district":{"key":"15089","name":"Salzlandkreis","type":"Landkreis"},"federalState":{"key":"15","name":"Sachsen-Anhalt"}},{"name":"Damaschkeweg","postalCode":"06449","locality":"Aschersleben","municipality":{"key":"15089015","name":"Aschersleben, Stadt","type":"Stadt"},"district":{"key":"15089","name":"Salzlandkreis","type":"Landkreis"},"federalState":{"key":"15","name":"Sachsen-Anhalt"}},{"name":"Deibelsberg","postalCode":"06449","locality":"Aschersleben","municipality":{"key":"15089015","name":"Aschersleben, Stadt","type":"Stadt"},"district":{"key":"15089","name":"Salzlandkreis","type":"Landkreis"},"federalState":{"key":"15","name":"Sachsen-Anhalt"}},{"name":"Dieselstr.","postalCode":"06449","locality":"Aschersleben","municipality":{"key":"15089015","name":"Aschersleben, Stadt","type":"Stadt"},"district":{"key":"15089","name":"Salzlandkreis","type":"Landkreis"},"federalState":{"key":"15","name":"Sachsen-Anhalt"}},{"name":"Domäne","postalCode":"06449","locality":"Aschersleben","municipality":{"key":"15089015","name":"Aschersleben, Stadt","type":"Stadt"},"district":{"key":"15089","name":"Salzlandkreis","type":"Landkreis"},"federalState":{"key":"15","name":"Sachsen-Anhalt"}},{"name":"Dorfplatz","postalCode":"06449","locality":"Aschersleben","municipality":{"key":"15089015","name":"Aschersleben, Stadt","type":"Stadt"},"district":{"key":"15089","name":"Salzlandkreis","type":"Landkreis"},"federalState":{"key":"15","name":"Sachsen-Anhalt"}},{"name":"Dorfstr.","postalCode":"06449","locality":"Aschersleben","municipality":{"key":"15089015","name":"Aschersleben, Stadt","type":"Stadt"},"district":{"key":"15089","name":"Salzlandkreis","type":"Landkreis"},"federalState":{"key":"15","name":"Sachsen-Anhalt"}},{"name":"Douglasstr.","postalCode":"06449","locality":"Aschersleben","municipality":{"key":"15089015","name":"Aschersleben, Stadt","type":"Stadt"},"district":{"key":"15089","name":"Salzlandkreis","type":"Landkreis"},"federalState":{"key":"15","name":"Sachsen-Anhalt"}},{"name":"Dr.-Cammerer-Str.","postalCode":"06449","locality":"Aschersleben","municipality":{"key":"15089015","name":"Aschersleben, Stadt","type":"Stadt"},"district":{"key":"15089","name":"Salzlandkreis","type":"Landkreis"},"federalState":{"key":"15","name":"Sachsen-Anhalt"}},{"name":"Drohndorfer Landstr.","postalCode":"06449","locality":"Aschersleben","municipality":{"key":"15089015","name":"Aschersleben, Stadt","type":"Stadt"},"district":{"key":"15089","name":"Salzlandkreis","type":"Landkreis"},"federalState":{"key":"15","name":"Sachsen-Anhalt"}},{"name":"Drohndorfer Str.","postalCode":"06449","locality":"Aschersleben","municipality":{"key":"15089015","name":"Aschersleben, Stadt","type":"Stadt"},"district":{"key":"15089","name":"Salzlandkreis","type":"Landkreis"},"federalState":{"key":"15","name":"Sachsen-Anhalt"}},{"name":"Drosselweg","postalCode":"06449","locality":"Aschersleben","municipality":{"key":"15089015","name":"Aschersleben, Stadt","type":"Stadt"},"district":{"key":"15089","name":"Salzlandkreis","type":"Landkreis"},"federalState":{"key":"15","name":"Sachsen-Anhalt"}},{"name":"Dr.-Wilhelm-Feit-Str.","postalCode":"06449","locality":"Aschersleben","municipality":{"key":"15089015","name":"Aschersleben, Stadt","type":"Stadt"},"district":{"key":"15089","name":"Salzlandkreis","type":"Landkreis"},"federalState":{"key":"15","name":"Sachsen-Anhalt"}},{"name":"Düsteres Tor","postalCode":"06449","locality":"Aschersleben","municipality":{"key":"15089015","name":"Aschersleben, Stadt","type":"Stadt"},"district":{"key":"15089","name":"Salzlandkreis","type":"Landkreis"},"federalState":{"key":"15","name":"Sachsen-Anhalt"}},{"name":"Einestr.","postalCode":"06449","locality":"Aschersleben","municipality":{"key":"15089015","name":"Aschersleben, Stadt","type":"Stadt"},"district":{"key":"15089","name":"Salzlandkreis","type":"Landkreis"},"federalState":{"key":"15","name":"Sachsen-Anhalt"}},{"name":"Eine-Terasse","postalCode":"06449","locality":"Aschersleben","municipality":{"key":"15089015","name":"Aschersleben, Stadt","type":"Stadt"},"district":{"key":"15089","name":"Salzlandkreis","type":"Landkreis"},"federalState":{"key":"15","name":"Sachsen-Anhalt"}},{"name":"Eislebener Str.","postalCode":"06449","locality":"Aschersleben","municipality":{"key":"15089015","name":"Aschersleben, Stadt","type":"Stadt"},"district":{"key":"15089","name":"Salzlandkreis","type":"Landkreis"},"federalState":{"key":"15","name":"Sachsen-Anhalt"}},{"name":"Elisabeth-Str.","postalCode":"06449","locality":"Aschersleben","municipality":{"key":"15089015","name":"Aschersleben, Stadt","type":"Stadt"},"district":{"key":"15089","name":"Salzlandkreis","type":"Landkreis"},"federalState":{"key":"15","name":"Sachsen-Anhalt"}},{"name":"Emslebener Strasse","postalCode":"06449","locality":"Aschersleben","municipality":{"key":"15089015","name":"Aschersleben, Stadt","type":"Stadt"},"district":{"key":"15089","name":"Salzlandkreis","type":"Landkreis"},"federalState":{"key":"15","name":"Sachsen-Anhalt"}},{"name":"Engelgasse","postalCode":"06449","locality":"Aschersleben","municipality":{"key":"15089015","name":"Aschersleben, Stadt","type":"Stadt"},"district":{"key":"15089","name":"Salzlandkreis","type":"Landkreis"},"federalState":{"key":"15","name":"Sachsen-Anhalt"}},{"name":"Engels-Str.","postalCode":"06449","locality":"Aschersleben","municipality":{"key":"15089015","name":"Aschersleben, Stadt","type":"Stadt"},"district":{"key":"15089","name":"Salzlandkreis","type":"Landkreis"},"federalState":{"key":"15","name":"Sachsen-Anhalt"}},{"name":"Erdkerbe","postalCode":"06449","locality":"Aschersleben","municipality":{"key":"15089015","name":"Aschersleben, Stadt","type":"Stadt"},"district":{"key":"15089","name":"Salzlandkreis","type":"Landkreis"},"federalState":{"key":"15","name":"Sachsen-Anhalt"}},{"name":"Erich-Mühsam-Str.","postalCode":"06449","locality":"Aschersleben","municipality":{"key":"15089015","name":"Aschersleben, Stadt","type":"Stadt"},"district":{"key":"15089","name":"Salzlandkreis","type":"Landkreis"},"federalState":{"key":"15","name":"Sachsen-Anhalt"}},{"name":"Ermslebener Str.","postalCode":"06449","locality":"Aschersleben","municipality":{"key":"15089015","name":"Aschersleben, Stadt","type":"Stadt"},"district":{"key":"15089","name":"Salzlandkreis","type":"Landkreis"},"federalState":{"key":"15","name":"Sachsen-Anhalt"}},{"name":"Ernst-Thälmann-Str.","postalCode":"06449","locality":"Aschersleben","municipality":{"key":"15089015","name":"Aschersleben, Stadt","type":"Stadt"},"district":{"key":"15089","name":"Salzlandkreis","type":"Landkreis"},"federalState":{"key":"15","name":"Sachsen-Anhalt"}},{"name":"Ernst-Toller-Str.","postalCode":"06449","locality":"Aschersleben","municipality":{"key":"15089015","name":"Aschersleben, Stadt","type":"Stadt"},"district":{"key":"15089","name":"Salzlandkreis","type":"Landkreis"},"federalState":{"key":"15","name":"Sachsen-Anhalt"}},{"name":"Fabrikhof","postalCode":"06449","locality":"Aschersleben","municipality":{"key":"15089015","name":"Aschersleben, Stadt","type":"Stadt"},"district":{"key":"15089","name":"Salzlandkreis","type":"Landkreis"},"federalState":{"key":"15","name":"Sachsen-Anhalt"}},{"name":"Fallerslebener Weg","postalCode":"06449","locality":"Aschersleben","municipality":{"key":"15089015","name":"Aschersleben, Stadt","type":"Stadt"},"district":{"key":"15089","name":"Salzlandkreis","type":"Landkreis"},"federalState":{"key":"15","name":"Sachsen-Anhalt"}},{"name":"Feldstr.","postalCode":"06449","locality":"Aschersleben","municipality":{"key":"15089015","name":"Aschersleben, Stadt","type":"Stadt"},"district":{"key":"15089","name":"Salzlandkreis","type":"Landkreis"},"federalState":{"key":"15","name":"Sachsen-Anhalt"}},{"name":"Finkenlust","postalCode":"06449","locality":"Aschersleben","municipality":{"key":"15089015","name":"Aschersleben, Stadt","type":"Stadt"},"district":{"key":"15089","name":"Salzlandkreis","type":"Landkreis"},"federalState":{"key":"15","name":"Sachsen-Anhalt"}},{"name":"Fleischhauerstr.","postalCode":"06449","locality":"Aschersleben","municipality":{"key":"15089015","name":"Aschersleben, Stadt","type":"Stadt"},"district":{"key":"15089","name":"Salzlandkreis","type":"Landkreis"},"federalState":{"key":"15","name":"Sachsen-Anhalt"}},{"name":"Fliederweg","postalCode":"06449","locality":"Aschersleben","municipality":{"key":"15089015","name":"Aschersleben, Stadt","type":"Stadt"},"district":{"key":"15089","name":"Salzlandkreis","type":"Landkreis"},"federalState":{"key":"15","name":"Sachsen-Anhalt"}},{"name":"Florian-Geyer-Str.","postalCode":"06449","locality":"Aschersleben","municipality":{"key":"15089015","name":"Aschersleben, Stadt","type":"Stadt"},"district":{"key":"15089","name":"Salzlandkreis","type":"Landkreis"},"federalState":{"key":"15","name":"Sachsen-Anhalt"}},{"name":"Flugplatzweg","postalCode":"06449","locality":"Aschersleben","municipality":{"key":"15089015","name":"Aschersleben, Stadt","type":"Stadt"},"district":{"key":"15089","name":"Salzlandkreis","type":"Landkreis"},"federalState":{"key":"15","name":"Sachsen-Anhalt"}},{"name":"Freiligrathstr.","postalCode":"06449","locality":"Aschersleben","municipality":{"key":"15089015","name":"Aschersleben, Stadt","type":"Stadt"},"district":{"key":"15089","name":"Salzlandkreis","type":"Landkreis"},"federalState":{"key":"15","name":"Sachsen-Anhalt"}},{"name":"Friedensstr.","postalCode":"06449","locality":"Aschersleben","municipality":{"key":"15089015","name":"Aschersleben, Stadt","type":"Stadt"},"district":{"key":"15089","name":"Salzlandkreis","type":"Landkreis"},"federalState":{"key":"15","name":"Sachsen-Anhalt"}},{"name":"Friedhafstr.","postalCode":"06449","locality":"Aschersleben","municipality":{"key":"15089015","name":"Aschersleben, Stadt","type":"Stadt"},"district":{"key":"15089","name":"Salzlandkreis","type":"Landkreis"},"federalState":{"key":"15","name":"Sachsen-Anhalt"}},{"name":"Friedhofsweg","postalCode":"06449","locality":"Aschersleben","municipality":{"key":"15089015","name":"Aschersleben, Stadt","type":"Stadt"},"district":{"key":"15089","name":"Salzlandkreis","type":"Landkreis"},"federalState":{"key":"15","name":"Sachsen-Anhalt"}},{"name":"Fritz-Knape-Str.","postalCode":"06449","locality":"Aschersleben","municipality":{"key":"15089015","name":"Aschersleben, Stadt","type":"Stadt"},"district":{"key":"15089","name":"Salzlandkreis","type":"Landkreis"},"federalState":{"key":"15","name":"Sachsen-Anhalt"}},{"name":"Froser Str.","postalCode":"06449","locality":"Aschersleben","municipality":{"key":"15089015","name":"Aschersleben, Stadt","type":"Stadt"},"district":{"key":"15089","name":"Salzlandkreis","type":"Landkreis"},"federalState":{"key":"15","name":"Sachsen-Anhalt"}},{"name":"Fuchsloch","postalCode":"06449","locality":"Aschersleben","municipality":{"key":"15089015","name":"Aschersleben, Stadt","type":"Stadt"},"district":{"key":"15089","name":"Salzlandkreis","type":"Landkreis"},"federalState":{"key":"15","name":"Sachsen-Anhalt"}},{"name":"Gartenstr.","postalCode":"06449","locality":"Aschersleben","municipality":{"key":"15089015","name":"Aschersleben, Stadt","type":"Stadt"},"district":{"key":"15089","name":"Salzlandkreis","type":"Landkreis"},"federalState":{"key":"15","name":"Sachsen-Anhalt"}},{"name":"Gartenweg","postalCode":"06449","locality":"Aschersleben","municipality":{"key":"15089015","name":"Aschersleben, Stadt","type":"Stadt"},"district":{"key":"15089","name":"Salzlandkreis","type":"Landkreis"},"federalState":{"key":"15","name":"Sachsen-Anhalt"}},{"name":"Gemeindeplatz","postalCode":"06449","locality":"Aschersleben","municipality":{"key":"15089015","name":"Aschersleben, Stadt","type":"Stadt"},"district":{"key":"15089","name":"Salzlandkreis","type":"Landkreis"},"federalState":{"key":"15","name":"Sachsen-Anhalt"}},{"name":"George-Grosz-Str.","postalCode":"06449","locality":"Aschersleben","municipality":{"key":"15089015","name":"Aschersleben, Stadt","type":"Stadt"},"district":{"key":"15089","name":"Salzlandkreis","type":"Landkreis"},"federalState":{"key":"15","name":"Sachsen-Anhalt"}},{"name":"Georg-Friedrich-Händel-Str.","postalCode":"06449","locality":"Aschersleben","municipality":{"key":"15089015","name":"Aschersleben, Stadt","type":"Stadt"},"district":{"key":"15089","name":"Salzlandkreis","type":"Landkreis"},"federalState":{"key":"15","name":"Sachsen-Anhalt"}},{"name":"Georgstr.","postalCode":"06449","locality":"Aschersleben","municipality":{"key":"15089015","name":"Aschersleben, Stadt","type":"Stadt"},"district":{"key":"15089","name":"Salzlandkreis","type":"Landkreis"},"federalState":{"key":"15","name":"Sachsen-Anhalt"}},{"name":"German-Titow-Str.","postalCode":"06449","locality":"Aschersleben","municipality":{"key":"15089015","name":"Aschersleben, Stadt","type":"Stadt"},"district":{"key":"15089","name":"Salzlandkreis","type":"Landkreis"},"federalState":{"key":"15","name":"Sachsen-Anhalt"}},{"name":"Geschwister-Scholl-Str.","postalCode":"06449","locality":"Aschersleben","municipality":{"key":"15089015","name":"Aschersleben, Stadt","type":"Stadt"},"district":{"key":"15089","name":"Salzlandkreis","type":"Landkreis"},"federalState":{"key":"15","name":"Sachsen-Anhalt"}},{"name":"Gierslebener Str.","postalCode":"06449","locality":"Aschersleben","municipality":{"key":"15089015","name":"Aschersleben, Stadt","type":"Stadt"},"district":{"key":"15089","name":"Salzlandkreis","type":"Landkreis"},"federalState":{"key":"15","name":"Sachsen-Anhalt"}},{"name":"Gleimstr.","postalCode":"06449","locality":"Aschersleben","municipality":{"key":"15089015","name":"Aschersleben, Stadt","type":"Stadt"},"district":{"key":"15089","name":"Salzlandkreis","type":"Landkreis"},"federalState":{"key":"15","name":"Sachsen-Anhalt"}},{"name":"Goetheblick","postalCode":"06449","locality":"Aschersleben","municipality":{"key":"15089015","name":"Aschersleben, Stadt","type":"Stadt"},"district":{"key":"15089","name":"Salzlandkreis","type":"Landkreis"},"federalState":{"key":"15","name":"Sachsen-Anhalt"}},{"name":"Goetheweg","postalCode":"06449","locality":"Aschersleben","municipality":{"key":"15089015","name":"Aschersleben, Stadt","type":"Stadt"},"district":{"key":"15089","name":"Salzlandkreis","type":"Landkreis"},"federalState":{"key":"15","name":"Sachsen-Anhalt"}},{"name":"Gottfried-August-Bürger-Str.","postalCode":"06449","locality":"Aschersleben","municipality":{"key":"15089015","name":"Aschersleben, Stadt","type":"Stadt"},"district":{"key":"15089","name":"Salzlandkreis","type":"Landkreis"},"federalState":{"key":"15","name":"Sachsen-Anhalt"}},{"name":"Großer Halken","postalCode":"06449","locality":"Aschersleben","municipality":{"key":"15089015","name":"Aschersleben, Stadt","type":"Stadt"},"district":{"key":"15089","name":"Salzlandkreis","type":"Landkreis"},"federalState":{"key":"15","name":"Sachsen-Anhalt"}},{"name":"Großer Winkel","postalCode":"06449","locality":"Aschersleben","municipality":{"key":"15089015","name":"Aschersleben, Stadt","type":"Stadt"},"district":{"key":"15089","name":"Salzlandkreis","type":"Landkreis"},"federalState":{"key":"15","name":"Sachsen-Anhalt"}},{"name":"Grund","postalCode":"06449","locality":"Aschersleben","municipality":{"key":"15089015","name":"Aschersleben, Stadt","type":"Stadt"},"district":{"key":"15089","name":"Salzlandkreis","type":"Landkreis"},"federalState":{"key":"15","name":"Sachsen-Anhalt"}},{"name":"Grüne Str.","postalCode":"06449","locality":"Aschersleben","municipality":{"key":"15089015","name":"Aschersleben, Stadt","type":"Stadt"},"district":{"key":"15089","name":"Salzlandkreis","type":"Landkreis"},"federalState":{"key":"15","name":"Sachsen-Anhalt"}},{"name":"Güstener Chaussee","postalCode":"06449","locality":"Aschersleben","municipality":{"key":"15089015","name":"Aschersleben, Stadt","type":"Stadt"},"district":{"key":"15089","name":"Salzlandkreis","type":"Landkreis"},"federalState":{"key":"15","name":"Sachsen-Anhalt"}},{"name":"Güstener Str.","postalCode":"06449","locality":"Aschersleben","municipality":{"key":"15089015","name":"Aschersleben, Stadt","type":"Stadt"},"district":{"key":"15089","name":"Salzlandkreis","type":"Landkreis"},"federalState":{"key":"15","name":"Sachsen-Anhalt"}},{"name":"Halberstädter Str.","postalCode":"06449","locality":"Aschersleben","municipality":{"key":"15089015","name":"Aschersleben, Stadt","type":"Stadt"},"district":{"key":"15089","name":"Salzlandkreis","type":"Landkreis"},"federalState":{"key":"15","name":"Sachsen-Anhalt"}},{"name":"Haldenweg","postalCode":"06449","locality":"Aschersleben","municipality":{"key":"15089015","name":"Aschersleben, Stadt","type":"Stadt"},"district":{"key":"15089","name":"Salzlandkreis","type":"Landkreis"},"federalState":{"key":"15","name":"Sachsen-Anhalt"}},{"name":"Hans-Grade-Str.","postalCode":"06449","locality":"Aschersleben","municipality":{"key":"15089015","name":"Aschersleben, Stadt","type":"Stadt"},"district":{"key":"15089","name":"Salzlandkreis","type":"Landkreis"},"federalState":{"key":"15","name":"Sachsen-Anhalt"}},{"name":"Hargisdorfer Str.","postalCode":"06449","locality":"Aschersleben","municipality":{"key":"15089015","name":"Aschersleben, Stadt","type":"Stadt"},"district":{"key":"15089","name":"Salzlandkreis","type":"Landkreis"},"federalState":{"key":"15","name":"Sachsen-Anhalt"}},{"name":"Harzblick","postalCode":"06449","locality":"Aschersleben","municipality":{"key":"15089015","name":"Aschersleben, Stadt","type":"Stadt"},"district":{"key":"15089","name":"Salzlandkreis","type":"Landkreis"},"federalState":{"key":"15","name":"Sachsen-Anhalt"}},{"name":"Harzweg","postalCode":"06449","locality":"Aschersleben","municipality":{"key":"15089015","name":"Aschersleben, Stadt","type":"Stadt"},"district":{"key":"15089","name":"Salzlandkreis","type":"Landkreis"},"federalState":{"key":"15","name":"Sachsen-Anhalt"}},{"name":"Hauptstr.","postalCode":"06449","locality":"Aschersleben","municipality":{"key":"15089015","name":"Aschersleben, Stadt","type":"Stadt"},"district":{"key":"15089","name":"Salzlandkreis","type":"Landkreis"},"federalState":{"key":"15","name":"Sachsen-Anhalt"}},{"name":"Hecklinger Str.","postalCode":"06449","locality":"Aschersleben","municipality":{"key":"15089015","name":"Aschersleben, Stadt","type":"Stadt"},"district":{"key":"15089","name":"Salzlandkreis","type":"Landkreis"},"federalState":{"key":"15","name":"Sachsen-Anhalt"}},{"name":"Hecknerstr.","postalCode":"06449","locality":"Aschersleben","municipality":{"key":"15089015","name":"Aschersleben, Stadt","type":"Stadt"},"district":{"key":"15089","name":"Salzlandkreis","type":"Landkreis"},"federalState":{"key":"15","name":"Sachsen-Anhalt"}},{"name":"Heerstr.","postalCode":"06449","locality":"Aschersleben","municipality":{"key":"15089015","name":"Aschersleben, Stadt","type":"Stadt"},"district":{"key":"15089","name":"Salzlandkreis","type":"Landkreis"},"federalState":{"key":"15","name":"Sachsen-Anhalt"}},{"name":"Heinrich-Heine-Str.","postalCode":"06449","locality":"Aschersleben","municipality":{"key":"15089015","name":"Aschersleben, Stadt","type":"Stadt"},"district":{"key":"15089","name":"Salzlandkreis","type":"Landkreis"},"federalState":{"key":"15","name":"Sachsen-Anhalt"}},{"name":"Heinrich-Lapp-Str.","postalCode":"06449","locality":"Aschersleben","municipality":{"key":"15089015","name":"Aschersleben, Stadt","type":"Stadt"},"district":{"key":"15089","name":"Salzlandkreis","type":"Landkreis"},"federalState":{"key":"15","name":"Sachsen-Anhalt"}},{"name":"Heinrichstr.","postalCode":"06449","locality":"Aschersleben","municipality":{"key":"15089015","name":"Aschersleben, Stadt","type":"Stadt"},"district":{"key":"15089","name":"Salzlandkreis","type":"Landkreis"},"federalState":{"key":"15","name":"Sachsen-Anhalt"}},{"name":"Heinrich-Zille-Str.","postalCode":"06449","locality":"Aschersleben","municipality":{"key":"15089015","name":"Aschersleben, Stadt","type":"Stadt"},"district":{"key":"15089","name":"Salzlandkreis","type":"Landkreis"},"federalState":{"key":"15","name":"Sachsen-Anhalt"}},{"name":"Hellgraben","postalCode":"06449","locality":"Aschersleben","municipality":{"key":"15089015","name":"Aschersleben, Stadt","type":"Stadt"},"district":{"key":"15089","name":"Salzlandkreis","type":"Landkreis"},"federalState":{"key":"15","name":"Sachsen-Anhalt"}},{"name":"Helmut-Just-Str.","postalCode":"06449","locality":"Aschersleben","municipality":{"key":"15089015","name":"Aschersleben, Stadt","type":"Stadt"},"district":{"key":"15089","name":"Salzlandkreis","type":"Landkreis"},"federalState":{"key":"15","name":"Sachsen-Anhalt"}},{"name":"Hennestr.","postalCode":"06449","locality":"Aschersleben","municipality":{"key":"15089015","name":"Aschersleben, Stadt","type":"Stadt"},"district":{"key":"15089","name":"Salzlandkreis","type":"Landkreis"},"federalState":{"key":"15","name":"Sachsen-Anhalt"}},{"name":"Herderstr.","postalCode":"06449","locality":"Aschersleben","municipality":{"key":"15089015","name":"Aschersleben, Stadt","type":"Stadt"},"district":{"key":"15089","name":"Salzlandkreis","type":"Landkreis"},"federalState":{"key":"15","name":"Sachsen-Anhalt"}},{"name":"Herrenbreite","postalCode":"06449","locality":"Aschersleben","municipality":{"key":"15089015","name":"Aschersleben, Stadt","type":"Stadt"},"district":{"key":"15089","name":"Salzlandkreis","type":"Landkreis"},"federalState":{"key":"15","name":"Sachsen-Anhalt"}},{"name":"Hertzstr.","postalCode":"06449","locality":"Aschersleben","municipality":{"key":"15089015","name":"Aschersleben, Stadt","type":"Stadt"},"district":{"key":"15089","name":"Salzlandkreis","type":"Landkreis"},"federalState":{"key":"15","name":"Sachsen-Anhalt"}},{"name":"Heynemannstr.","postalCode":"06449","locality":"Aschersleben","municipality":{"key":"15089015","name":"Aschersleben, Stadt","type":"Stadt"},"district":{"key":"15089","name":"Salzlandkreis","type":"Landkreis"},"federalState":{"key":"15","name":"Sachsen-Anhalt"}},{"name":"Hinterbreite","postalCode":"06449","locality":"Aschersleben","municipality":{"key":"15089015","name":"Aschersleben, Stadt","type":"Stadt"},"district":{"key":"15089","name":"Salzlandkreis","type":"Landkreis"},"federalState":{"key":"15","name":"Sachsen-Anhalt"}},{"name":"Hinter dem Friedhof","postalCode":"06449","locality":"Aschersleben","municipality":{"key":"15089015","name":"Aschersleben, Stadt","type":"Stadt"},"district":{"key":"15089","name":"Salzlandkreis","type":"Landkreis"},"federalState":{"key":"15","name":"Sachsen-Anhalt"}},{"name":"Hinter dem Turm","postalCode":"06449","locality":"Aschersleben","municipality":{"key":"15089015","name":"Aschersleben, Stadt","type":"Stadt"},"district":{"key":"15089","name":"Salzlandkreis","type":"Landkreis"},"federalState":{"key":"15","name":"Sachsen-Anhalt"}},{"name":"Hinter dem Walkmühlenbad","postalCode":"06449","locality":"Aschersleben","municipality":{"key":"15089015","name":"Aschersleben, Stadt","type":"Stadt"},"district":{"key":"15089","name":"Salzlandkreis","type":"Landkreis"},"federalState":{"key":"15","name":"Sachsen-Anhalt"}},{"name":"Hinter dem Zoll","postalCode":"06449","locality":"Aschersleben","municipality":{"key":"15089015","name":"Aschersleben, Stadt","type":"Stadt"},"district":{"key":"15089","name":"Salzlandkreis","type":"Landkreis"},"federalState":{"key":"15","name":"Sachsen-Anhalt"}},{"name":"Hinter der Papenbrücke","postalCode":"06449","locality":"Aschersleben","municipality":{"key":"15089015","name":"Aschersleben, Stadt","type":"Stadt"},"district":{"key":"15089","name":"Salzlandkreis","type":"Landkreis"},"federalState":{"key":"15","name":"Sachsen-Anhalt"}},{"name":"Hinter der Pechhütte","postalCode":"06449","locality":"Aschersleben","municipality":{"key":"15089015","name":"Aschersleben, Stadt","type":"Stadt"},"district":{"key":"15089","name":"Salzlandkreis","type":"Landkreis"},"federalState":{"key":"15","name":"Sachsen-Anhalt"}},{"name":"Hinter der Salpeterhütte","postalCode":"06449","locality":"Aschersleben","municipality":{"key":"15089015","name":"Aschersleben, Stadt","type":"Stadt"},"district":{"key":"15089","name":"Salzlandkreis","type":"Landkreis"},"federalState":{"key":"15","name":"Sachsen-Anhalt"}},{"name":"Hinter der Wipperbrücke","postalCode":"06449","locality":"Aschersleben","municipality":{"key":"15089015","name":"Aschersleben, Stadt","type":"Stadt"},"district":{"key":"15089","name":"Salzlandkreis","type":"Landkreis"},"federalState":{"key":"15","name":"Sachsen-Anhalt"}},{"name":"Hohe Str.","postalCode":"06449","locality":"Aschersleben","municipality":{"key":"15089015","name":"Aschersleben, Stadt","type":"Stadt"},"district":{"key":"15089","name":"Salzlandkreis","type":"Landkreis"},"federalState":{"key":"15","name":"Sachsen-Anhalt"}},{"name":"Hohler Graben","postalCode":"06449","locality":"Aschersleben","municipality":{"key":"15089015","name":"Aschersleben, Stadt","type":"Stadt"},"district":{"key":"15089","name":"Salzlandkreis","type":"Landkreis"},"federalState":{"key":"15","name":"Sachsen-Anhalt"}},{"name":"Hohlweg","postalCode":"06449","locality":"Aschersleben","municipality":{"key":"15089015","name":"Aschersleben, Stadt","type":"Stadt"},"district":{"key":"15089","name":"Salzlandkreis","type":"Landkreis"},"federalState":{"key":"15","name":"Sachsen-Anhalt"}},{"name":"Holzgasse","postalCode":"06449","locality":"Aschersleben","municipality":{"key":"15089015","name":"Aschersleben, Stadt","type":"Stadt"},"district":{"key":"15089","name":"Salzlandkreis","type":"Landkreis"},"federalState":{"key":"15","name":"Sachsen-Anhalt"}},{"name":"Hopfengrund","postalCode":"06449","locality":"Aschersleben","municipality":{"key":"15089015","name":"Aschersleben, Stadt","type":"Stadt"},"district":{"key":"15089","name":"Salzlandkreis","type":"Landkreis"},"federalState":{"key":"15","name":"Sachsen-Anhalt"}},{"name":"Hopfenmarkt","postalCode":"06449","locality":"Aschersleben","municipality":{"key":"15089015","name":"Aschersleben, Stadt","type":"Stadt"},"district":{"key":"15089","name":"Salzlandkreis","type":"Landkreis"},"federalState":{"key":"15","name":"Sachsen-Anhalt"}},{"name":"Hoppberg","postalCode":"06449","locality":"Aschersleben","municipality":{"key":"15089015","name":"Aschersleben, Stadt","type":"Stadt"},"district":{"key":"15089","name":"Salzlandkreis","type":"Landkreis"},"federalState":{"key":"15","name":"Sachsen-Anhalt"}},{"name":"Hoymer Chaussee","postalCode":"06449","locality":"Aschersleben","municipality":{"key":"15089015","name":"Aschersleben, Stadt","type":"Stadt"},"district":{"key":"15089","name":"Salzlandkreis","type":"Landkreis"},"federalState":{"key":"15","name":"Sachsen-Anhalt"}},{"name":"Im Busch","postalCode":"06449","locality":"Aschersleben","municipality":{"key":"15089015","name":"Aschersleben, Stadt","type":"Stadt"},"district":{"key":"15089","name":"Salzlandkreis","type":"Landkreis"},"federalState":{"key":"15","name":"Sachsen-Anhalt"}},{"name":"Im Sperlingswinkel","postalCode":"06449","locality":"Aschersleben","municipality":{"key":"15089015","name":"Aschersleben, Stadt","type":"Stadt"},"district":{"key":"15089","name":"Salzlandkreis","type":"Landkreis"},"federalState":{"key":"15","name":"Sachsen-Anhalt"}},{"name":"Im Unterdorf","postalCode":"06449","locality":"Aschersleben","municipality":{"key":"15089015","name":"Aschersleben, Stadt","type":"Stadt"},"district":{"key":"15089","name":"Salzlandkreis","type":"Landkreis"},"federalState":{"key":"15","name":"Sachsen-Anhalt"}},{"name":"Im Winkel","postalCode":"06449","locality":"Aschersleben","municipality":{"key":"15089015","name":"Aschersleben, Stadt","type":"Stadt"},"district":{"key":"15089","name":"Salzlandkreis","type":"Landkreis"},"federalState":{"key":"15","name":"Sachsen-Anhalt"}},{"name":"In der Grube","postalCode":"06449","locality":"Aschersleben","municipality":{"key":"15089015","name":"Aschersleben, Stadt","type":"Stadt"},"district":{"key":"15089","name":"Salzlandkreis","type":"Landkreis"},"federalState":{"key":"15","name":"Sachsen-Anhalt"}},{"name":"Insel","postalCode":"06449","locality":"Aschersleben","municipality":{"key":"15089015","name":"Aschersleben, Stadt","type":"Stadt"},"district":{"key":"15089","name":"Salzlandkreis","type":"Landkreis"},"federalState":{"key":"15","name":"Sachsen-Anhalt"}},{"name":"Johannes-Brahms-Str.","postalCode":"06449","locality":"Aschersleben","municipality":{"key":"15089015","name":"Aschersleben, Stadt","type":"Stadt"},"district":{"key":"15089","name":"Salzlandkreis","type":"Landkreis"},"federalState":{"key":"15","name":"Sachsen-Anhalt"}},{"name":"Johannisplatz","postalCode":"06449","locality":"Aschersleben","municipality":{"key":"15089015","name":"Aschersleben, Stadt","type":"Stadt"},"district":{"key":"15089","name":"Salzlandkreis","type":"Landkreis"},"federalState":{"key":"15","name":"Sachsen-Anhalt"}},{"name":"Johannispromenade","postalCode":"06449","locality":"Aschersleben","municipality":{"key":"15089015","name":"Aschersleben, Stadt","type":"Stadt"},"district":{"key":"15089","name":"Salzlandkreis","type":"Landkreis"},"federalState":{"key":"15","name":"Sachsen-Anhalt"}},{"name":"Johann-Sebastian-Bach-Str.","postalCode":"06449","locality":"Aschersleben","municipality":{"key":"15089015","name":"Aschersleben, Stadt","type":"Stadt"},"district":{"key":"15089","name":"Salzlandkreis","type":"Landkreis"},"federalState":{"key":"15","name":"Sachsen-Anhalt"}},{"name":"Jüdendorf","postalCode":"06449","locality":"Aschersleben","municipality":{"key":"15089015","name":"Aschersleben, Stadt","type":"Stadt"},"district":{"key":"15089","name":"Salzlandkreis","type":"Landkreis"},"federalState":{"key":"15","name":"Sachsen-Anhalt"}},{"name":"Judith-Resnik-Str.","postalCode":"06449","locality":"Aschersleben","municipality":{"key":"15089015","name":"Aschersleben, Stadt","type":"Stadt"},"district":{"key":"15089","name":"Salzlandkreis","type":"Landkreis"},"federalState":{"key":"15","name":"Sachsen-Anhalt"}},{"name":"Juri-Gagarin-Str.","postalCode":"06449","locality":"Aschersleben","municipality":{"key":"15089015","name":"Aschersleben, Stadt","type":"Stadt"},"district":{"key":"15089","name":"Salzlandkreis","type":"Landkreis"},"federalState":{"key":"15","name":"Sachsen-Anhalt"}},{"name":"Kapellenweg","postalCode":"06449","locality":"Aschersleben","municipality":{"key":"15089015","name":"Aschersleben, Stadt","type":"Stadt"},"district":{"key":"15089","name":"Salzlandkreis","type":"Landkreis"},"federalState":{"key":"15","name":"Sachsen-Anhalt"}},{"name":"Karl-Liebknecht-Str.","postalCode":"06449","locality":"Aschersleben","municipality":{"key":"15089015","name":"Aschersleben, Stadt","type":"Stadt"},"district":{"key":"15089","name":"Salzlandkreis","type":"Landkreis"},"federalState":{"key":"15","name":"Sachsen-Anhalt"}},{"name":"Karl-Marx-Str.","postalCode":"06449","locality":"Aschersleben","municipality":{"key":"15089015","name":"Aschersleben, Stadt","type":"Stadt"},"district":{"key":"15089","name":"Salzlandkreis","type":"Landkreis"},"federalState":{"key":"15","name":"Sachsen-Anhalt"}},{"name":"Karlstr.","postalCode":"06449","locality":"Aschersleben","municipality":{"key":"15089015","name":"Aschersleben, Stadt","type":"Stadt"},"district":{"key":"15089","name":"Salzlandkreis","type":"Landkreis"},"federalState":{"key":"15","name":"Sachsen-Anhalt"}},{"name":"Katharinenstr.","postalCode":"06449","locality":"Aschersleben","municipality":{"key":"15089015","name":"Aschersleben, Stadt","type":"Stadt"},"district":{"key":"15089","name":"Salzlandkreis","type":"Landkreis"},"federalState":{"key":"15","name":"Sachsen-Anhalt"}},{"name":"Käthe-Kollwitz-Str.","postalCode":"06449","locality":"Aschersleben","municipality":{"key":"15089015","name":"Aschersleben, Stadt","type":"Stadt"},"district":{"key":"15089","name":"Salzlandkreis","type":"Landkreis"},"federalState":{"key":"15","name":"Sachsen-Anhalt"}},{"name":"Keplerstr.","postalCode":"06449","locality":"Aschersleben","municipality":{"key":"15089015","name":"Aschersleben, Stadt","type":"Stadt"},"district":{"key":"15089","name":"Salzlandkreis","type":"Landkreis"},"federalState":{"key":"15","name":"Sachsen-Anhalt"}},{"name":"Kiethof","postalCode":"06449","locality":"Aschersleben","municipality":{"key":"15089015","name":"Aschersleben, Stadt","type":"Stadt"},"district":{"key":"15089","name":"Salzlandkreis","type":"Landkreis"},"federalState":{"key":"15","name":"Sachsen-Anhalt"}},{"name":"Kindergartenstr.","postalCode":"06449","locality":"Aschersleben","municipality":{"key":"15089015","name":"Aschersleben, Stadt","type":"Stadt"},"district":{"key":"15089","name":"Salzlandkreis","type":"Landkreis"},"federalState":{"key":"15","name":"Sachsen-Anhalt"}},{"name":"Kirchhof Marienkirche","postalCode":"06449","locality":"Aschersleben","municipality":{"key":"15089015","name":"Aschersleben, Stadt","type":"Stadt"},"district":{"key":"15089","name":"Salzlandkreis","type":"Landkreis"},"federalState":{"key":"15","name":"Sachsen-Anhalt"}},{"name":"Kirchstr.","postalCode":"06449","locality":"Aschersleben","municipality":{"key":"15089015","name":"Aschersleben, Stadt","type":"Stadt"},"district":{"key":"15089","name":"Salzlandkreis","type":"Landkreis"},"federalState":{"key":"15","name":"Sachsen-Anhalt"}},{"name":"Kirschweg","postalCode":"06449","locality":"Aschersleben","municipality":{"key":"15089015","name":"Aschersleben, Stadt","type":"Stadt"},"district":{"key":"15089","name":"Salzlandkreis","type":"Landkreis"},"federalState":{"key":"15","name":"Sachsen-Anhalt"}},{"name":"Kleine Gasse","postalCode":"06449","locality":"Aschersleben","municipality":{"key":"15089015","name":"Aschersleben, Stadt","type":"Stadt"},"district":{"key":"15089","name":"Salzlandkreis","type":"Landkreis"},"federalState":{"key":"15","name":"Sachsen-Anhalt"}},{"name":"Kleiner Halken","postalCode":"06449","locality":"Aschersleben","municipality":{"key":"15089015","name":"Aschersleben, Stadt","type":"Stadt"},"district":{"key":"15089","name":"Salzlandkreis","type":"Landkreis"},"federalState":{"key":"15","name":"Sachsen-Anhalt"}},{"name":"Klopstockstr.","postalCode":"06449","locality":"Aschersleben","municipality":{"key":"15089015","name":"Aschersleben, Stadt","type":"Stadt"},"district":{"key":"15089","name":"Salzlandkreis","type":"Landkreis"},"federalState":{"key":"15","name":"Sachsen-Anhalt"}},{"name":"Klosterhof","postalCode":"06449","locality":"Aschersleben","municipality":{"key":"15089015","name":"Aschersleben, Stadt","type":"Stadt"},"district":{"key":"15089","name":"Salzlandkreis","type":"Landkreis"},"federalState":{"key":"15","name":"Sachsen-Anhalt"}},{"name":"Klosterstr.","postalCode":"06449","locality":"Aschersleben","municipality":{"key":"15089015","name":"Aschersleben, Stadt","type":"Stadt"},"district":{"key":"15089","name":"Salzlandkreis","type":"Landkreis"},"federalState":{"key":"15","name":"Sachsen-Anhalt"}},{"name":"Konstantin-Ziolkowski-Str.","postalCode":"06449","locality":"Aschersleben","municipality":{"key":"15089015","name":"Aschersleben, Stadt","type":"Stadt"},"district":{"key":"15089","name":"Salzlandkreis","type":"Landkreis"},"federalState":{"key":"15","name":"Sachsen-Anhalt"}},{"name":"Konstantin-Ziolkowsky-Str.","postalCode":"06449","locality":"Aschersleben","municipality":{"key":"15089015","name":"Aschersleben, Stadt","type":"Stadt"},"district":{"key":"15089","name":"Salzlandkreis","type":"Landkreis"},"federalState":{"key":"15","name":"Sachsen-Anhalt"}},{"name":"Kopernikusstr.","postalCode":"06449","locality":"Aschersleben","municipality":{"key":"15089015","name":"Aschersleben, Stadt","type":"Stadt"},"district":{"key":"15089","name":"Salzlandkreis","type":"Landkreis"},"federalState":{"key":"15","name":"Sachsen-Anhalt"}},{"name":"Körtestr.","postalCode":"06449","locality":"Aschersleben","municipality":{"key":"15089015","name":"Aschersleben, Stadt","type":"Stadt"},"district":{"key":"15089","name":"Salzlandkreis","type":"Landkreis"},"federalState":{"key":"15","name":"Sachsen-Anhalt"}},{"name":"Krähengeschrei","postalCode":"06449","locality":"Aschersleben","municipality":{"key":"15089015","name":"Aschersleben, Stadt","type":"Stadt"},"district":{"key":"15089","name":"Salzlandkreis","type":"Landkreis"},"federalState":{"key":"15","name":"Sachsen-Anhalt"}},{"name":"Kreisstr.","postalCode":"06449","locality":"Aschersleben","municipality":{"key":"15089015","name":"Aschersleben, Stadt","type":"Stadt"},"district":{"key":"15089","name":"Salzlandkreis","type":"Landkreis"},"federalState":{"key":"15","name":"Sachsen-Anhalt"}},{"name":"Kreuzmühlenweg","postalCode":"06449","locality":"Aschersleben","municipality":{"key":"15089015","name":"Aschersleben, Stadt","type":"Stadt"},"district":{"key":"15089","name":"Salzlandkreis","type":"Landkreis"},"federalState":{"key":"15","name":"Sachsen-Anhalt"}},{"name":"Kreuzstr.","postalCode":"06449","locality":"Aschersleben","municipality":{"key":"15089015","name":"Aschersleben, Stadt","type":"Stadt"},"district":{"key":"15089","name":"Salzlandkreis","type":"Landkreis"},"federalState":{"key":"15","name":"Sachsen-Anhalt"}},{"name":"Kuks","postalCode":"06449","locality":"Aschersleben","municipality":{"key":"15089015","name":"Aschersleben, Stadt","type":"Stadt"},"district":{"key":"15089","name":"Salzlandkreis","type":"Landkreis"},"federalState":{"key":"15","name":"Sachsen-Anhalt"}},{"name":"Kunst an der Strasse","postalCode":"06449","locality":"Aschersleben","municipality":{"key":"15089015","name":"Aschersleben, Stadt","type":"Stadt"},"district":{"key":"15089","name":"Salzlandkreis","type":"Landkreis"},"federalState":{"key":"15","name":"Sachsen-Anhalt"}},{"name":"Kuntzestr.","postalCode":"06449","locality":"Aschersleben","municipality":{"key":"15089015","name":"Aschersleben, Stadt","type":"Stadt"},"district":{"key":"15089","name":"Salzlandkreis","type":"Landkreis"},"federalState":{"key":"15","name":"Sachsen-Anhalt"}},{"name":"Kurze Str.","postalCode":"06449","locality":"Aschersleben","municipality":{"key":"15089015","name":"Aschersleben, Stadt","type":"Stadt"},"district":{"key":"15089","name":"Salzlandkreis","type":"Landkreis"},"federalState":{"key":"15","name":"Sachsen-Anhalt"}},{"name":"Lange Gasse","postalCode":"06449","locality":"Aschersleben","municipality":{"key":"15089015","name":"Aschersleben, Stadt","type":"Stadt"},"district":{"key":"15089","name":"Salzlandkreis","type":"Landkreis"},"federalState":{"key":"15","name":"Sachsen-Anhalt"}},{"name":"Lange Reihe","postalCode":"06449","locality":"Aschersleben","municipality":{"key":"15089015","name":"Aschersleben, Stadt","type":"Stadt"},"district":{"key":"15089","name":"Salzlandkreis","type":"Landkreis"},"federalState":{"key":"15","name":"Sachsen-Anhalt"}},{"name":"Lange Str.","postalCode":"06449","locality":"Aschersleben","municipality":{"key":"15089015","name":"Aschersleben, Stadt","type":"Stadt"},"district":{"key":"15089","name":"Salzlandkreis","type":"Landkreis"},"federalState":{"key":"15","name":"Sachsen-Anhalt"}},{"name":"Langwagen","postalCode":"06449","locality":"Aschersleben","municipality":{"key":"15089015","name":"Aschersleben, Stadt","type":"Stadt"},"district":{"key":"15089","name":"Salzlandkreis","type":"Landkreis"},"federalState":{"key":"15","name":"Sachsen-Anhalt"}},{"name":"Lauestr.","postalCode":"06449","locality":"Aschersleben","municipality":{"key":"15089015","name":"Aschersleben, Stadt","type":"Stadt"},"district":{"key":"15089","name":"Salzlandkreis","type":"Landkreis"},"federalState":{"key":"15","name":"Sachsen-Anhalt"}},{"name":"Lausestrumpf","postalCode":"06449","locality":"Aschersleben","municipality":{"key":"15089015","name":"Aschersleben, Stadt","type":"Stadt"},"district":{"key":"15089","name":"Salzlandkreis","type":"Landkreis"},"federalState":{"key":"15","name":"Sachsen-Anhalt"}},{"name":"Leeger Weg","postalCode":"06449","locality":"Aschersleben","municipality":{"key":"15089015","name":"Aschersleben, Stadt","type":"Stadt"},"district":{"key":"15089","name":"Salzlandkreis","type":"Landkreis"},"federalState":{"key":"15","name":"Sachsen-Anhalt"}},{"name":"Leopoldstr.","postalCode":"06449","locality":"Aschersleben","municipality":{"key":"15089015","name":"Aschersleben, Stadt","type":"Stadt"},"district":{"key":"15089","name":"Salzlandkreis","type":"Landkreis"},"federalState":{"key":"15","name":"Sachsen-Anhalt"}},{"name":"Lerchenweg","postalCode":"06449","locality":"Aschersleben","municipality":{"key":"15089015","name":"Aschersleben, Stadt","type":"Stadt"},"district":{"key":"15089","name":"Salzlandkreis","type":"Landkreis"},"federalState":{"key":"15","name":"Sachsen-Anhalt"}},{"name":"Lessingstr.","postalCode":"06449","locality":"Aschersleben","municipality":{"key":"15089015","name":"Aschersleben, Stadt","type":"Stadt"},"district":{"key":"15089","name":"Salzlandkreis","type":"Landkreis"},"federalState":{"key":"15","name":"Sachsen-Anhalt"}},{"name":"Liebenwahnscher Plan","postalCode":"06449","locality":"Aschersleben","municipality":{"key":"15089015","name":"Aschersleben, Stadt","type":"Stadt"},"district":{"key":"15089","name":"Salzlandkreis","type":"Landkreis"},"federalState":{"key":"15","name":"Sachsen-Anhalt"}},{"name":"Lindenallee","postalCode":"06449","locality":"Aschersleben","municipality":{"key":"15089015","name":"Aschersleben, Stadt","type":"Stadt"},"district":{"key":"15089","name":"Salzlandkreis","type":"Landkreis"},"federalState":{"key":"15","name":"Sachsen-Anhalt"}},{"name":"Lindenberg","postalCode":"06449","locality":"Aschersleben","municipality":{"key":"15089015","name":"Aschersleben, Stadt","type":"Stadt"},"district":{"key":"15089","name":"Salzlandkreis","type":"Landkreis"},"federalState":{"key":"15","name":"Sachsen-Anhalt"}},{"name":"Lindenstr.","postalCode":"06449","locality":"Aschersleben","municipality":{"key":"15089015","name":"Aschersleben, Stadt","type":"Stadt"},"district":{"key":"15089","name":"Salzlandkreis","type":"Landkreis"},"federalState":{"key":"15","name":"Sachsen-Anhalt"}},{"name":"Lindenweg","postalCode":"06449","locality":"Aschersleben","municipality":{"key":"15089015","name":"Aschersleben, Stadt","type":"Stadt"},"district":{"key":"15089","name":"Salzlandkreis","type":"Landkreis"},"federalState":{"key":"15","name":"Sachsen-Anhalt"}},{"name":"Lübenstr.","postalCode":"06449","locality":"Aschersleben","municipality":{"key":"15089015","name":"Aschersleben, Stadt","type":"Stadt"},"district":{"key":"15089","name":"Salzlandkreis","type":"Landkreis"},"federalState":{"key":"15","name":"Sachsen-Anhalt"}},{"name":"Ludwig-van-Beethoven-Str.","postalCode":"06449","locality":"Aschersleben","municipality":{"key":"15089015","name":"Aschersleben, Stadt","type":"Stadt"},"district":{"key":"15089","name":"Salzlandkreis","type":"Landkreis"},"federalState":{"key":"15","name":"Sachsen-Anhalt"}},{"name":"Luisenpromenade","postalCode":"06449","locality":"Aschersleben","municipality":{"key":"15089015","name":"Aschersleben, Stadt","type":"Stadt"},"district":{"key":"15089","name":"Salzlandkreis","type":"Landkreis"},"federalState":{"key":"15","name":"Sachsen-Anhalt"}},{"name":"Lutherstr.","postalCode":"06449","locality":"Aschersleben","municipality":{"key":"15089015","name":"Aschersleben, Stadt","type":"Stadt"},"district":{"key":"15089","name":"Salzlandkreis","type":"Landkreis"},"federalState":{"key":"15","name":"Sachsen-Anhalt"}},{"name":"Magdeburger Chaussee","postalCode":"06449","locality":"Aschersleben","municipality":{"key":"15089015","name":"Aschersleben, Stadt","type":"Stadt"},"district":{"key":"15089","name":"Salzlandkreis","type":"Landkreis"},"federalState":{"key":"15","name":"Sachsen-Anhalt"}},{"name":"Magdeburger Str.","postalCode":"06449","locality":"Aschersleben","municipality":{"key":"15089015","name":"Aschersleben, Stadt","type":"Stadt"},"district":{"key":"15089","name":"Salzlandkreis","type":"Landkreis"},"federalState":{"key":"15","name":"Sachsen-Anhalt"}},{"name":"Magnolienweg","postalCode":"06449","locality":"Aschersleben","municipality":{"key":"15089015","name":"Aschersleben, Stadt","type":"Stadt"},"district":{"key":"15089","name":"Salzlandkreis","type":"Landkreis"},"federalState":{"key":"15","name":"Sachsen-Anhalt"}},{"name":"Marienstr.","postalCode":"06449","locality":"Aschersleben","municipality":{"key":"15089015","name":"Aschersleben, Stadt","type":"Stadt"},"district":{"key":"15089","name":"Salzlandkreis","type":"Landkreis"},"federalState":{"key":"15","name":"Sachsen-Anhalt"}},{"name":"Markt","postalCode":"06449","locality":"Aschersleben","municipality":{"key":"15089015","name":"Aschersleben, Stadt","type":"Stadt"},"district":{"key":"15089","name":"Salzlandkreis","type":"Landkreis"},"federalState":{"key":"15","name":"Sachsen-Anhalt"}},{"name":"Marktring","postalCode":"06449","locality":"Aschersleben","municipality":{"key":"15089015","name":"Aschersleben, Stadt","type":"Stadt"},"district":{"key":"15089","name":"Salzlandkreis","type":"Landkreis"},"federalState":{"key":"15","name":"Sachsen-Anhalt"}},{"name":"Mauerstr.","postalCode":"06449","locality":"Aschersleben","municipality":{"key":"15089015","name":"Aschersleben, Stadt","type":"Stadt"},"district":{"key":"15089","name":"Salzlandkreis","type":"Landkreis"},"federalState":{"key":"15","name":"Sachsen-Anhalt"}},{"name":"Maxim-Gorki-Str.","postalCode":"06449","locality":"Aschersleben","municipality":{"key":"15089015","name":"Aschersleben, Stadt","type":"Stadt"},"district":{"key":"15089","name":"Salzlandkreis","type":"Landkreis"},"federalState":{"key":"15","name":"Sachsen-Anhalt"}},{"name":"Max-Oelgart-Str.","postalCode":"06449","locality":"Aschersleben","municipality":{"key":"15089015","name":"Aschersleben, Stadt","type":"Stadt"},"district":{"key":"15089","name":"Salzlandkreis","type":"Landkreis"},"federalState":{"key":"15","name":"Sachsen-Anhalt"}},{"name":"Mehringer Str.","postalCode":"06449","locality":"Aschersleben","municipality":{"key":"15089015","name":"Aschersleben, Stadt","type":"Stadt"},"district":{"key":"15089","name":"Salzlandkreis","type":"Landkreis"},"federalState":{"key":"15","name":"Sachsen-Anhalt"}},{"name":"Meisenweg","postalCode":"06449","locality":"Aschersleben","municipality":{"key":"15089015","name":"Aschersleben, Stadt","type":"Stadt"},"district":{"key":"15089","name":"Salzlandkreis","type":"Landkreis"},"federalState":{"key":"15","name":"Sachsen-Anhalt"}},{"name":"Mittelstr.","postalCode":"06449","locality":"Aschersleben","municipality":{"key":"15089015","name":"Aschersleben, Stadt","type":"Stadt"},"district":{"key":"15089","name":"Salzlandkreis","type":"Landkreis"},"federalState":{"key":"15","name":"Sachsen-Anhalt"}},{"name":"Moritzkirchhof","postalCode":"06449","locality":"Aschersleben","municipality":{"key":"15089015","name":"Aschersleben, Stadt","type":"Stadt"},"district":{"key":"15089","name":"Salzlandkreis","type":"Landkreis"},"federalState":{"key":"15","name":"Sachsen-Anhalt"}},{"name":"Mühlengrund","postalCode":"06449","locality":"Aschersleben","municipality":{"key":"15089015","name":"Aschersleben, Stadt","type":"Stadt"},"district":{"key":"15089","name":"Salzlandkreis","type":"Landkreis"},"federalState":{"key":"15","name":"Sachsen-Anhalt"}},{"name":"Mühlgasse","postalCode":"06449","locality":"Aschersleben","municipality":{"key":"15089015","name":"Aschersleben, Stadt","type":"Stadt"},"district":{"key":"15089","name":"Salzlandkreis","type":"Landkreis"},"federalState":{"key":"15","name":"Sachsen-Anhalt"}},{"name":"Neue Gasse","postalCode":"06449","locality":"Aschersleben","municipality":{"key":"15089015","name":"Aschersleben, Stadt","type":"Stadt"},"district":{"key":"15089","name":"Salzlandkreis","type":"Landkreis"},"federalState":{"key":"15","name":"Sachsen-Anhalt"}},{"name":"Neue Reihe","postalCode":"06449","locality":"Aschersleben","municipality":{"key":"15089015","name":"Aschersleben, Stadt","type":"Stadt"},"district":{"key":"15089","name":"Salzlandkreis","type":"Landkreis"},"federalState":{"key":"15","name":"Sachsen-Anhalt"}},{"name":"Neue Siedlung","postalCode":"06449","locality":"Aschersleben","municipality":{"key":"15089015","name":"Aschersleben, Stadt","type":"Stadt"},"district":{"key":"15089","name":"Salzlandkreis","type":"Landkreis"},"federalState":{"key":"15","name":"Sachsen-Anhalt"}},{"name":"Neue Str.","postalCode":"06449","locality":"Aschersleben","municipality":{"key":"15089015","name":"Aschersleben, Stadt","type":"Stadt"},"district":{"key":"15089","name":"Salzlandkreis","type":"Landkreis"},"federalState":{"key":"15","name":"Sachsen-Anhalt"}},{"name":"Oberdorf","postalCode":"06449","locality":"Aschersleben","municipality":{"key":"15089015","name":"Aschersleben, Stadt","type":"Stadt"},"district":{"key":"15089","name":"Salzlandkreis","type":"Landkreis"},"federalState":{"key":"15","name":"Sachsen-Anhalt"}},{"name":"Obere Dorfstr.","postalCode":"06449","locality":"Aschersleben","municipality":{"key":"15089015","name":"Aschersleben, Stadt","type":"Stadt"},"district":{"key":"15089","name":"Salzlandkreis","type":"Landkreis"},"federalState":{"key":"15","name":"Sachsen-Anhalt"}},{"name":"Oberstr.","postalCode":"06449","locality":"Aschersleben","municipality":{"key":"15089015","name":"Aschersleben, Stadt","type":"Stadt"},"district":{"key":"15089","name":"Salzlandkreis","type":"Landkreis"},"federalState":{"key":"15","name":"Sachsen-Anhalt"}},{"name":"Ochsengasse","postalCode":"06449","locality":"Aschersleben","municipality":{"key":"15089015","name":"Aschersleben, Stadt","type":"Stadt"},"district":{"key":"15089","name":"Salzlandkreis","type":"Landkreis"},"federalState":{"key":"15","name":"Sachsen-Anhalt"}},{"name":"Oststr.","postalCode":"06449","locality":"Aschersleben","municipality":{"key":"15089015","name":"Aschersleben, Stadt","type":"Stadt"},"district":{"key":"15089","name":"Salzlandkreis","type":"Landkreis"},"federalState":{"key":"15","name":"Sachsen-Anhalt"}},{"name":"Otto-Arndt-Str.","postalCode":"06449","locality":"Aschersleben","municipality":{"key":"15089015","name":"Aschersleben, Stadt","type":"Stadt"},"district":{"key":"15089","name":"Salzlandkreis","type":"Landkreis"},"federalState":{"key":"15","name":"Sachsen-Anhalt"}},{"name":"Otto-Buchwitz-Str.","postalCode":"06449","locality":"Aschersleben","municipality":{"key":"15089015","name":"Aschersleben, Stadt","type":"Stadt"},"district":{"key":"15089","name":"Salzlandkreis","type":"Landkreis"},"federalState":{"key":"15","name":"Sachsen-Anhalt"}},{"name":"Otto-Lilienthal-Str.","postalCode":"06449","locality":"Aschersleben","municipality":{"key":"15089015","name":"Aschersleben, Stadt","type":"Stadt"},"district":{"key":"15089","name":"Salzlandkreis","type":"Landkreis"},"federalState":{"key":"15","name":"Sachsen-Anhalt"}},{"name":"Otto-Sander-Str.","postalCode":"06449","locality":"Aschersleben","municipality":{"key":"15089015","name":"Aschersleben, Stadt","type":"Stadt"},"district":{"key":"15089","name":"Salzlandkreis","type":"Landkreis"},"federalState":{"key":"15","name":"Sachsen-Anhalt"}},{"name":"Ottostr.","postalCode":"06449","locality":"Aschersleben","municipality":{"key":"15089015","name":"Aschersleben, Stadt","type":"Stadt"},"district":{"key":"15089","name":"Salzlandkreis","type":"Landkreis"},"federalState":{"key":"15","name":"Sachsen-Anhalt"}},{"name":"Papiermühle","postalCode":"06449","locality":"Aschersleben","municipality":{"key":"15089015","name":"Aschersleben, Stadt","type":"Stadt"},"district":{"key":"15089","name":"Salzlandkreis","type":"Landkreis"},"federalState":{"key":"15","name":"Sachsen-Anhalt"}},{"name":"Parkstr.","postalCode":"06449","locality":"Aschersleben","municipality":{"key":"15089015","name":"Aschersleben, Stadt","type":"Stadt"},"district":{"key":"15089","name":"Salzlandkreis","type":"Landkreis"},"federalState":{"key":"15","name":"Sachsen-Anhalt"}},{"name":"Pestberg","postalCode":"06449","locality":"Aschersleben","municipality":{"key":"15089015","name":"Aschersleben, Stadt","type":"Stadt"},"district":{"key":"15089","name":"Salzlandkreis","type":"Landkreis"},"federalState":{"key":"15","name":"Sachsen-Anhalt"}},{"name":"Pfahlgasse","postalCode":"06449","locality":"Aschersleben","municipality":{"key":"15089015","name":"Aschersleben, Stadt","type":"Stadt"},"district":{"key":"15089","name":"Salzlandkreis","type":"Landkreis"},"federalState":{"key":"15","name":"Sachsen-Anhalt"}},{"name":"Pfälzer Str.","postalCode":"06449","locality":"Aschersleben","municipality":{"key":"15089015","name":"Aschersleben, Stadt","type":"Stadt"},"district":{"key":"15089","name":"Salzlandkreis","type":"Landkreis"},"federalState":{"key":"15","name":"Sachsen-Anhalt"}},{"name":"Pfarrwinkel","postalCode":"06449","locality":"Aschersleben","municipality":{"key":"15089015","name":"Aschersleben, Stadt","type":"Stadt"},"district":{"key":"15089","name":"Salzlandkreis","type":"Landkreis"},"federalState":{"key":"15","name":"Sachsen-Anhalt"}},{"name":"Pfeilergraben","postalCode":"06449","locality":"Aschersleben","municipality":{"key":"15089015","name":"Aschersleben, Stadt","type":"Stadt"},"district":{"key":"15089","name":"Salzlandkreis","type":"Landkreis"},"federalState":{"key":"15","name":"Sachsen-Anhalt"}},{"name":"Pferde Eine","postalCode":"06449","locality":"Aschersleben","municipality":{"key":"15089015","name":"Aschersleben, Stadt","type":"Stadt"},"district":{"key":"15089","name":"Salzlandkreis","type":"Landkreis"},"federalState":{"key":"15","name":"Sachsen-Anhalt"}},{"name":"Poststr.","postalCode":"06449","locality":"Aschersleben","municipality":{"key":"15089015","name":"Aschersleben, Stadt","type":"Stadt"},"district":{"key":"15089","name":"Salzlandkreis","type":"Landkreis"},"federalState":{"key":"15","name":"Sachsen-Anhalt"}},{"name":"Professor-Doktor-Walter-Friedrich-Str.","postalCode":"06449","locality":"Aschersleben","municipality":{"key":"15089015","name":"Aschersleben, Stadt","type":"Stadt"},"district":{"key":"15089","name":"Salzlandkreis","type":"Landkreis"},"federalState":{"key":"15","name":"Sachsen-Anhalt"}},{"name":"Ramdohrstr.","postalCode":"06449","locality":"Aschersleben","municipality":{"key":"15089015","name":"Aschersleben, Stadt","type":"Stadt"},"district":{"key":"15089","name":"Salzlandkreis","type":"Landkreis"},"federalState":{"key":"15","name":"Sachsen-Anhalt"}},{"name":"Rathausgasse","postalCode":"06449","locality":"Aschersleben","municipality":{"key":"15089015","name":"Aschersleben, Stadt","type":"Stadt"},"district":{"key":"15089","name":"Salzlandkreis","type":"Landkreis"},"federalState":{"key":"15","name":"Sachsen-Anhalt"}},{"name":"Richard-Lehmann-Str.","postalCode":"06449","locality":"Aschersleben","municipality":{"key":"15089015","name":"Aschersleben, Stadt","type":"Stadt"},"district":{"key":"15089","name":"Salzlandkreis","type":"Landkreis"},"federalState":{"key":"15","name":"Sachsen-Anhalt"}},{"name":"Richard-Wagner-Str.","postalCode":"06449","locality":"Aschersleben","municipality":{"key":"15089015","name":"Aschersleben, Stadt","type":"Stadt"},"district":{"key":"15089","name":"Salzlandkreis","type":"Landkreis"},"federalState":{"key":"15","name":"Sachsen-Anhalt"}},{"name":"Ritterstr.","postalCode":"06449","locality":"Aschersleben","municipality":{"key":"15089015","name":"Aschersleben, Stadt","type":"Stadt"},"district":{"key":"15089","name":"Salzlandkreis","type":"Landkreis"},"federalState":{"key":"15","name":"Sachsen-Anhalt"}},{"name":"Rosa-Luxemburg-Str.","postalCode":"06449","locality":"Aschersleben","municipality":{"key":"15089015","name":"Aschersleben, Stadt","type":"Stadt"},"district":{"key":"15089","name":"Salzlandkreis","type":"Landkreis"},"federalState":{"key":"15","name":"Sachsen-Anhalt"}},{"name":"Rosenstr.","postalCode":"06449","locality":"Aschersleben","municipality":{"key":"15089015","name":"Aschersleben, Stadt","type":"Stadt"},"district":{"key":"15089","name":"Salzlandkreis","type":"Landkreis"},"federalState":{"key":"15","name":"Sachsen-Anhalt"}},{"name":"Rotkehlchenweg","postalCode":"06449","locality":"Aschersleben","municipality":{"key":"15089015","name":"Aschersleben, Stadt","type":"Stadt"},"district":{"key":"15089","name":"Salzlandkreis","type":"Landkreis"},"federalState":{"key":"15","name":"Sachsen-Anhalt"}},{"name":"Rudolf-Breitscheid-Str.","postalCode":"06449","locality":"Aschersleben","municipality":{"key":"15089015","name":"Aschersleben, Stadt","type":"Stadt"},"district":{"key":"15089","name":"Salzlandkreis","type":"Landkreis"},"federalState":{"key":"15","name":"Sachsen-Anhalt"}},{"name":"Salzkoth","postalCode":"06449","locality":"Aschersleben","municipality":{"key":"15089015","name":"Aschersleben, Stadt","type":"Stadt"},"district":{"key":"15089","name":"Salzlandkreis","type":"Landkreis"},"federalState":{"key":"15","name":"Sachsen-Anhalt"}},{"name":"Salzweg","postalCode":"06449","locality":"Aschersleben","municipality":{"key":"15089015","name":"Aschersleben, Stadt","type":"Stadt"},"district":{"key":"15089","name":"Salzlandkreis","type":"Landkreis"},"federalState":{"key":"15","name":"Sachsen-Anhalt"}},{"name":"Sanderslebener Str.","postalCode":"06449","locality":"Aschersleben","municipality":{"key":"15089015","name":"Aschersleben, Stadt","type":"Stadt"},"district":{"key":"15089","name":"Salzlandkreis","type":"Landkreis"},"federalState":{"key":"15","name":"Sachsen-Anhalt"}},{"name":"Schachtberg","postalCode":"06449","locality":"Aschersleben","municipality":{"key":"15089015","name":"Aschersleben, Stadt","type":"Stadt"},"district":{"key":"15089","name":"Salzlandkreis","type":"Landkreis"},"federalState":{"key":"15","name":"Sachsen-Anhalt"}},{"name":"Schachtbreite","postalCode":"06449","locality":"Aschersleben","municipality":{"key":"15089015","name":"Aschersleben, Stadt","type":"Stadt"},"district":{"key":"15089","name":"Salzlandkreis","type":"Landkreis"},"federalState":{"key":"15","name":"Sachsen-Anhalt"}},{"name":"Schachtstr.","postalCode":"06449","locality":"Aschersleben","municipality":{"key":"15089015","name":"Aschersleben, Stadt","type":"Stadt"},"district":{"key":"15089","name":"Salzlandkreis","type":"Landkreis"},"federalState":{"key":"15","name":"Sachsen-Anhalt"}},{"name":"Schackstedter Str.","postalCode":"06449","locality":"Aschersleben","municipality":{"key":"15089015","name":"Aschersleben, Stadt","type":"Stadt"},"district":{"key":"15089","name":"Salzlandkreis","type":"Landkreis"},"federalState":{"key":"15","name":"Sachsen-Anhalt"}},{"name":"Schäfereiweg","postalCode":"06449","locality":"Aschersleben","municipality":{"key":"15089015","name":"Aschersleben, Stadt","type":"Stadt"},"district":{"key":"15089","name":"Salzlandkreis","type":"Landkreis"},"federalState":{"key":"15","name":"Sachsen-Anhalt"}},{"name":"Schafhof","postalCode":"06449","locality":"Aschersleben","municipality":{"key":"15089015","name":"Aschersleben, Stadt","type":"Stadt"},"district":{"key":"15089","name":"Salzlandkreis","type":"Landkreis"},"federalState":{"key":"15","name":"Sachsen-Anhalt"}},{"name":"Scharren","postalCode":"06449","locality":"Aschersleben","municipality":{"key":"15089015","name":"Aschersleben, Stadt","type":"Stadt"},"district":{"key":"15089","name":"Salzlandkreis","type":"Landkreis"},"federalState":{"key":"15","name":"Sachsen-Anhalt"}},{"name":"Schenkgasse","postalCode":"06449","locality":"Aschersleben","municipality":{"key":"15089015","name":"Aschersleben, Stadt","type":"Stadt"},"district":{"key":"15089","name":"Salzlandkreis","type":"Landkreis"},"federalState":{"key":"15","name":"Sachsen-Anhalt"}},{"name":"Schierstedter Chaussee","postalCode":"06449","locality":"Aschersleben","municipality":{"key":"15089015","name":"Aschersleben, Stadt","type":"Stadt"},"district":{"key":"15089","name":"Salzlandkreis","type":"Landkreis"},"federalState":{"key":"15","name":"Sachsen-Anhalt"}},{"name":"Schierstedter Str.","postalCode":"06449","locality":"Aschersleben","municipality":{"key":"15089015","name":"Aschersleben, Stadt","type":"Stadt"},"district":{"key":"15089","name":"Salzlandkreis","type":"Landkreis"},"federalState":{"key":"15","name":"Sachsen-Anhalt"}},{"name":"Schillerstr.","postalCode":"06449","locality":"Aschersleben","municipality":{"key":"15089015","name":"Aschersleben, Stadt","type":"Stadt"},"district":{"key":"15089","name":"Salzlandkreis","type":"Landkreis"},"federalState":{"key":"15","name":"Sachsen-Anhalt"}},{"name":"Schinkenstr.","postalCode":"06449","locality":"Aschersleben","municipality":{"key":"15089015","name":"Aschersleben, Stadt","type":"Stadt"},"district":{"key":"15089","name":"Salzlandkreis","type":"Landkreis"},"federalState":{"key":"15","name":"Sachsen-Anhalt"}},{"name":"Schlachthofstr.","postalCode":"06449","locality":"Aschersleben","municipality":{"key":"15089015","name":"Aschersleben, Stadt","type":"Stadt"},"district":{"key":"15089","name":"Salzlandkreis","type":"Landkreis"},"federalState":{"key":"15","name":"Sachsen-Anhalt"}},{"name":"Schloßblick","postalCode":"06449","locality":"Aschersleben","municipality":{"key":"15089015","name":"Aschersleben, Stadt","type":"Stadt"},"district":{"key":"15089","name":"Salzlandkreis","type":"Landkreis"},"federalState":{"key":"15","name":"Sachsen-Anhalt"}},{"name":"Schmidtmannstr.","postalCode":"06449","locality":"Aschersleben","municipality":{"key":"15089015","name":"Aschersleben, Stadt","type":"Stadt"},"district":{"key":"15089","name":"Salzlandkreis","type":"Landkreis"},"federalState":{"key":"15","name":"Sachsen-Anhalt"}},{"name":"Schmidtstr.","postalCode":"06449","locality":"Aschersleben","municipality":{"key":"15089015","name":"Aschersleben, Stadt","type":"Stadt"},"district":{"key":"15089","name":"Salzlandkreis","type":"Landkreis"},"federalState":{"key":"15","name":"Sachsen-Anhalt"}},{"name":"Schrötenbreite","postalCode":"06449","locality":"Aschersleben","municipality":{"key":"15089015","name":"Aschersleben, Stadt","type":"Stadt"},"district":{"key":"15089","name":"Salzlandkreis","type":"Landkreis"},"federalState":{"key":"15","name":"Sachsen-Anhalt"}},{"name":"Schuhstieg","postalCode":"06449","locality":"Aschersleben","municipality":{"key":"15089015","name":"Aschersleben, Stadt","type":"Stadt"},"district":{"key":"15089","name":"Salzlandkreis","type":"Landkreis"},"federalState":{"key":"15","name":"Sachsen-Anhalt"}},{"name":"Schulberg","postalCode":"06449","locality":"Aschersleben","municipality":{"key":"15089015","name":"Aschersleben, Stadt","type":"Stadt"},"district":{"key":"15089","name":"Salzlandkreis","type":"Landkreis"},"federalState":{"key":"15","name":"Sachsen-Anhalt"}},{"name":"Schulplatz","postalCode":"06449","locality":"Aschersleben","municipality":{"key":"15089015","name":"Aschersleben, Stadt","type":"Stadt"},"district":{"key":"15089","name":"Salzlandkreis","type":"Landkreis"},"federalState":{"key":"15","name":"Sachsen-Anhalt"}},{"name":"Schulstr.","postalCode":"06449","locality":"Aschersleben","municipality":{"key":"15089015","name":"Aschersleben, Stadt","type":"Stadt"},"district":{"key":"15089","name":"Salzlandkreis","type":"Landkreis"},"federalState":{"key":"15","name":"Sachsen-Anhalt"}},{"name":"Schusterberg","postalCode":"06449","locality":"Aschersleben","municipality":{"key":"15089015","name":"Aschersleben, Stadt","type":"Stadt"},"district":{"key":"15089","name":"Salzlandkreis","type":"Landkreis"},"federalState":{"key":"15","name":"Sachsen-Anhalt"}},{"name":"Schützenstr.","postalCode":"06449","locality":"Aschersleben","municipality":{"key":"15089015","name":"Aschersleben, Stadt","type":"Stadt"},"district":{"key":"15089","name":"Salzlandkreis","type":"Landkreis"},"federalState":{"key":"15","name":"Sachsen-Anhalt"}},{"name":"Schwalbenweg","postalCode":"06449","locality":"Aschersleben","municipality":{"key":"15089015","name":"Aschersleben, Stadt","type":"Stadt"},"district":{"key":"15089","name":"Salzlandkreis","type":"Landkreis"},"federalState":{"key":"15","name":"Sachsen-Anhalt"}},{"name":"Seegraben","postalCode":"06449","locality":"Aschersleben","municipality":{"key":"15089015","name":"Aschersleben, Stadt","type":"Stadt"},"district":{"key":"15089","name":"Salzlandkreis","type":"Landkreis"},"federalState":{"key":"15","name":"Sachsen-Anhalt"}},{"name":"Seelandstr.","postalCode":"06449","locality":"Aschersleben","municipality":{"key":"15089015","name":"Aschersleben, Stadt","type":"Stadt"},"district":{"key":"15089","name":"Salzlandkreis","type":"Landkreis"},"federalState":{"key":"15","name":"Sachsen-Anhalt"}},{"name":"Seestr.","postalCode":"06449","locality":"Aschersleben","municipality":{"key":"15089015","name":"Aschersleben, Stadt","type":"Stadt"},"district":{"key":"15089","name":"Salzlandkreis","type":"Landkreis"},"federalState":{"key":"15","name":"Sachsen-Anhalt"}},{"name":"Siebzehnerberg","postalCode":"06449","locality":"Aschersleben","municipality":{"key":"15089015","name":"Aschersleben, Stadt","type":"Stadt"},"district":{"key":"15089","name":"Salzlandkreis","type":"Landkreis"},"federalState":{"key":"15","name":"Sachsen-Anhalt"}},{"name":"Siedlungsweg","postalCode":"06449","locality":"Aschersleben","municipality":{"key":"15089015","name":"Aschersleben, Stadt","type":"Stadt"},"district":{"key":"15089","name":"Salzlandkreis","type":"Landkreis"},"federalState":{"key":"15","name":"Sachsen-Anhalt"}},{"name":"Siemensstr.","postalCode":"06449","locality":"Aschersleben","municipality":{"key":"15089015","name":"Aschersleben, Stadt","type":"Stadt"},"district":{"key":"15089","name":"Salzlandkreis","type":"Landkreis"},"federalState":{"key":"15","name":"Sachsen-Anhalt"}},{"name":"Sonnenblumenweg","postalCode":"06449","locality":"Aschersleben","municipality":{"key":"15089015","name":"Aschersleben, Stadt","type":"Stadt"},"district":{"key":"15089","name":"Salzlandkreis","type":"Landkreis"},"federalState":{"key":"15","name":"Sachsen-Anhalt"}},{"name":"Sophienstr.","postalCode":"06449","locality":"Aschersleben","municipality":{"key":"15089015","name":"Aschersleben, Stadt","type":"Stadt"},"district":{"key":"15089","name":"Salzlandkreis","type":"Landkreis"},"federalState":{"key":"15","name":"Sachsen-Anhalt"}},{"name":"Speckgasse","postalCode":"06449","locality":"Aschersleben","municipality":{"key":"15089015","name":"Aschersleben, Stadt","type":"Stadt"},"district":{"key":"15089","name":"Salzlandkreis","type":"Landkreis"},"federalState":{"key":"15","name":"Sachsen-Anhalt"}},{"name":"Spitzer Winkel","postalCode":"06449","locality":"Aschersleben","municipality":{"key":"15089015","name":"Aschersleben, Stadt","type":"Stadt"},"district":{"key":"15089","name":"Salzlandkreis","type":"Landkreis"},"federalState":{"key":"15","name":"Sachsen-Anhalt"}},{"name":"Stadtpark","postalCode":"06449","locality":"Aschersleben","municipality":{"key":"15089015","name":"Aschersleben, Stadt","type":"Stadt"},"district":{"key":"15089","name":"Salzlandkreis","type":"Landkreis"},"federalState":{"key":"15","name":"Sachsen-Anhalt"}},{"name":"Stadtweg","postalCode":"06449","locality":"Aschersleben","municipality":{"key":"15089015","name":"Aschersleben, Stadt","type":"Stadt"},"district":{"key":"15089","name":"Salzlandkreis","type":"Landkreis"},"federalState":{"key":"15","name":"Sachsen-Anhalt"}},{"name":"Staßfurter Höhe","postalCode":"06449","locality":"Aschersleben","municipality":{"key":"15089015","name":"Aschersleben, Stadt","type":"Stadt"},"district":{"key":"15089","name":"Salzlandkreis","type":"Landkreis"},"federalState":{"key":"15","name":"Sachsen-Anhalt"}},{"name":"Steiler Weg","postalCode":"06449","locality":"Aschersleben","municipality":{"key":"15089015","name":"Aschersleben, Stadt","type":"Stadt"},"district":{"key":"15089","name":"Salzlandkreis","type":"Landkreis"},"federalState":{"key":"15","name":"Sachsen-Anhalt"}},{"name":"Steinbrücke","postalCode":"06449","locality":"Aschersleben","municipality":{"key":"15089015","name":"Aschersleben, Stadt","type":"Stadt"},"district":{"key":"15089","name":"Salzlandkreis","type":"Landkreis"},"federalState":{"key":"15","name":"Sachsen-Anhalt"}},{"name":"Stephanikirchhof","postalCode":"06449","locality":"Aschersleben","municipality":{"key":"15089015","name":"Aschersleben, Stadt","type":"Stadt"},"district":{"key":"15089","name":"Salzlandkreis","type":"Landkreis"},"federalState":{"key":"15","name":"Sachsen-Anhalt"}},{"name":"Stephanstr.","postalCode":"06449","locality":"Aschersleben","municipality":{"key":"15089015","name":"Aschersleben, Stadt","type":"Stadt"},"district":{"key":"15089","name":"Salzlandkreis","type":"Landkreis"},"federalState":{"key":"15","name":"Sachsen-Anhalt"}},{"name":"Str. der Freundschaft","postalCode":"06449","locality":"Aschersleben","municipality":{"key":"15089015","name":"Aschersleben, Stadt","type":"Stadt"},"district":{"key":"15089","name":"Salzlandkreis","type":"Landkreis"},"federalState":{"key":"15","name":"Sachsen-Anhalt"}},{"name":"Theodor-Römer-Weg","postalCode":"06449","locality":"Aschersleben","municipality":{"key":"15089015","name":"Aschersleben, Stadt","type":"Stadt"},"district":{"key":"15089","name":"Salzlandkreis","type":"Landkreis"},"federalState":{"key":"15","name":"Sachsen-Anhalt"}},{"name":"Thomas-Mann-Str.","postalCode":"06449","locality":"Aschersleben","municipality":{"key":"15089015","name":"Aschersleben, Stadt","type":"Stadt"},"district":{"key":"15089","name":"Salzlandkreis","type":"Landkreis"},"federalState":{"key":"15","name":"Sachsen-Anhalt"}},{"name":"Thomas-Müntzer-Str.","postalCode":"06449","locality":"Aschersleben","municipality":{"key":"15089015","name":"Aschersleben, Stadt","type":"Stadt"},"district":{"key":"15089","name":"Salzlandkreis","type":"Landkreis"},"federalState":{"key":"15","name":"Sachsen-Anhalt"}},{"name":"Tie","postalCode":"06449","locality":"Aschersleben","municipality":{"key":"15089015","name":"Aschersleben, Stadt","type":"Stadt"},"district":{"key":"15089","name":"Salzlandkreis","type":"Landkreis"},"federalState":{"key":"15","name":"Sachsen-Anhalt"}},{"name":"Tolstoistr.","postalCode":"06449","locality":"Aschersleben","municipality":{"key":"15089015","name":"Aschersleben, Stadt","type":"Stadt"},"district":{"key":"15089","name":"Salzlandkreis","type":"Landkreis"},"federalState":{"key":"15","name":"Sachsen-Anhalt"}},{"name":"Tonkuhle","postalCode":"06449","locality":"Aschersleben","municipality":{"key":"15089015","name":"Aschersleben, Stadt","type":"Stadt"},"district":{"key":"15089","name":"Salzlandkreis","type":"Landkreis"},"federalState":{"key":"15","name":"Sachsen-Anhalt"}},{"name":"Trift","postalCode":"06449","locality":"Aschersleben","municipality":{"key":"15089015","name":"Aschersleben, Stadt","type":"Stadt"},"district":{"key":"15089","name":"Salzlandkreis","type":"Landkreis"},"federalState":{"key":"15","name":"Sachsen-Anhalt"}},{"name":"Uhlenwinkel","postalCode":"06449","locality":"Aschersleben","municipality":{"key":"15089015","name":"Aschersleben, Stadt","type":"Stadt"},"district":{"key":"15089","name":"Salzlandkreis","type":"Landkreis"},"federalState":{"key":"15","name":"Sachsen-Anhalt"}},{"name":"Unter den Linden","postalCode":"06449","locality":"Aschersleben","municipality":{"key":"15089015","name":"Aschersleben, Stadt","type":"Stadt"},"district":{"key":"15089","name":"Salzlandkreis","type":"Landkreis"},"federalState":{"key":"15","name":"Sachsen-Anhalt"}},{"name":"Unter der Alten Burg","postalCode":"06449","locality":"Aschersleben","municipality":{"key":"15089015","name":"Aschersleben, Stadt","type":"Stadt"},"district":{"key":"15089","name":"Salzlandkreis","type":"Landkreis"},"federalState":{"key":"15","name":"Sachsen-Anhalt"}},{"name":"Untere Dorfstr.","postalCode":"06449","locality":"Aschersleben","municipality":{"key":"15089015","name":"Aschersleben, Stadt","type":"Stadt"},"district":{"key":"15089","name":"Salzlandkreis","type":"Landkreis"},"federalState":{"key":"15","name":"Sachsen-Anhalt"}},{"name":"Unterstr.","postalCode":"06449","locality":"Aschersleben","municipality":{"key":"15089015","name":"Aschersleben, Stadt","type":"Stadt"},"district":{"key":"15089","name":"Salzlandkreis","type":"Landkreis"},"federalState":{"key":"15","name":"Sachsen-Anhalt"}},{"name":"Valentina-Tereschkowa-Str.","postalCode":"06449","locality":"Aschersleben","municipality":{"key":"15089015","name":"Aschersleben, Stadt","type":"Stadt"},"district":{"key":"15089","name":"Salzlandkreis","type":"Landkreis"},"federalState":{"key":"15","name":"Sachsen-Anhalt"}},{"name":"Vierhausen","postalCode":"06449","locality":"Aschersleben","municipality":{"key":"15089015","name":"Aschersleben, Stadt","type":"Stadt"},"district":{"key":"15089","name":"Salzlandkreis","type":"Landkreis"},"federalState":{"key":"15","name":"Sachsen-Anhalt"}},{"name":"Vogelgesang","postalCode":"06449","locality":"Aschersleben","municipality":{"key":"15089015","name":"Aschersleben, Stadt","type":"Stadt"},"district":{"key":"15089","name":"Salzlandkreis","type":"Landkreis"},"federalState":{"key":"15","name":"Sachsen-Anhalt"}},{"name":"Vor dem Friedhof","postalCode":"06449","locality":"Aschersleben","municipality":{"key":"15089015","name":"Aschersleben, Stadt","type":"Stadt"},"district":{"key":"15089","name":"Salzlandkreis","type":"Landkreis"},"federalState":{"key":"15","name":"Sachsen-Anhalt"}},{"name":"Vor dem Hohen Tor","postalCode":"06449","locality":"Aschersleben","municipality":{"key":"15089015","name":"Aschersleben, Stadt","type":"Stadt"},"district":{"key":"15089","name":"Salzlandkreis","type":"Landkreis"},"federalState":{"key":"15","name":"Sachsen-Anhalt"}},{"name":"Vor dem Johannistor","postalCode":"06449","locality":"Aschersleben","municipality":{"key":"15089015","name":"Aschersleben, Stadt","type":"Stadt"},"district":{"key":"15089","name":"Salzlandkreis","type":"Landkreis"},"federalState":{"key":"15","name":"Sachsen-Anhalt"}},{"name":"Vor dem Steintor","postalCode":"06449","locality":"Aschersleben","municipality":{"key":"15089015","name":"Aschersleben, Stadt","type":"Stadt"},"district":{"key":"15089","name":"Salzlandkreis","type":"Landkreis"},"federalState":{"key":"15","name":"Sachsen-Anhalt"}},{"name":"Vor dem Wassertor","postalCode":"06449","locality":"Aschersleben","municipality":{"key":"15089015","name":"Aschersleben, Stadt","type":"Stadt"},"district":{"key":"15089","name":"Salzlandkreis","type":"Landkreis"},"federalState":{"key":"15","name":"Sachsen-Anhalt"}},{"name":"Vorderbreite","postalCode":"06449","locality":"Aschersleben","municipality":{"key":"15089015","name":"Aschersleben, Stadt","type":"Stadt"},"district":{"key":"15089","name":"Salzlandkreis","type":"Landkreis"},"federalState":{"key":"15","name":"Sachsen-Anhalt"}},{"name":"Vor der Marktkirche","postalCode":"06449","locality":"Aschersleben","municipality":{"key":"15089015","name":"Aschersleben, Stadt","type":"Stadt"},"district":{"key":"15089","name":"Salzlandkreis","type":"Landkreis"},"federalState":{"key":"15","name":"Sachsen-Anhalt"}},{"name":"Waldemar-Holtz-Str.","postalCode":"06449","locality":"Aschersleben","municipality":{"key":"15089015","name":"Aschersleben, Stadt","type":"Stadt"},"district":{"key":"15089","name":"Salzlandkreis","type":"Landkreis"},"federalState":{"key":"15","name":"Sachsen-Anhalt"}},{"name":"Walkmühlenweg","postalCode":"06449","locality":"Aschersleben","municipality":{"key":"15089015","name":"Aschersleben, Stadt","type":"Stadt"},"district":{"key":"15089","name":"Salzlandkreis","type":"Landkreis"},"federalState":{"key":"15","name":"Sachsen-Anhalt"}},{"name":"Wallstr.","postalCode":"06449","locality":"Aschersleben","municipality":{"key":"15089015","name":"Aschersleben, Stadt","type":"Stadt"},"district":{"key":"15089","name":"Salzlandkreis","type":"Landkreis"},"federalState":{"key":"15","name":"Sachsen-Anhalt"}},{"name":"Walter-Dammköhler Str.","postalCode":"06449","locality":"Aschersleben","municipality":{"key":"15089015","name":"Aschersleben, Stadt","type":"Stadt"},"district":{"key":"15089","name":"Salzlandkreis","type":"Landkreis"},"federalState":{"key":"15","name":"Sachsen-Anhalt"}},{"name":"Walther-Rathenau-Str.","postalCode":"06449","locality":"Aschersleben","municipality":{"key":"15089015","name":"Aschersleben, Stadt","type":"Stadt"},"district":{"key":"15089","name":"Salzlandkreis","type":"Landkreis"},"federalState":{"key":"15","name":"Sachsen-Anhalt"}},{"name":"Wasserplan","postalCode":"06449","locality":"Aschersleben","municipality":{"key":"15089015","name":"Aschersleben, Stadt","type":"Stadt"},"district":{"key":"15089","name":"Salzlandkreis","type":"Landkreis"},"federalState":{"key":"15","name":"Sachsen-Anhalt"}},{"name":"Wasserteich","postalCode":"06449","locality":"Aschersleben","municipality":{"key":"15089015","name":"Aschersleben, Stadt","type":"Stadt"},"district":{"key":"15089","name":"Salzlandkreis","type":"Landkreis"},"federalState":{"key":"15","name":"Sachsen-Anhalt"}},{"name":"Weinberg","postalCode":"06449","locality":"Aschersleben","municipality":{"key":"15089015","name":"Aschersleben, Stadt","type":"Stadt"},"district":{"key":"15089","name":"Salzlandkreis","type":"Landkreis"},"federalState":{"key":"15","name":"Sachsen-Anhalt"}},{"name":"Welbslebener Chaussee","postalCode":"06449","locality":"Aschersleben","municipality":{"key":"15089015","name":"Aschersleben, Stadt","type":"Stadt"},"district":{"key":"15089","name":"Salzlandkreis","type":"Landkreis"},"federalState":{"key":"15","name":"Sachsen-Anhalt"}},{"name":"Welbslebener Weg","postalCode":"06449","locality":"Aschersleben","municipality":{"key":"15089015","name":"Aschersleben, Stadt","type":"Stadt"},"district":{"key":"15089","name":"Salzlandkreis","type":"Landkreis"},"federalState":{"key":"15","name":"Sachsen-Anhalt"}},{"name":"Westdorfer Str.","postalCode":"06449","locality":"Aschersleben","municipality":{"key":"15089015","name":"Aschersleben, Stadt","type":"Stadt"},"district":{"key":"15089","name":"Salzlandkreis","type":"Landkreis"},"federalState":{"key":"15","name":"Sachsen-Anhalt"}},{"name":"Westerberg","postalCode":"06449","locality":"Aschersleben","municipality":{"key":"15089015","name":"Aschersleben, Stadt","type":"Stadt"},"district":{"key":"15089","name":"Salzlandkreis","type":"Landkreis"},"federalState":{"key":"15","name":"Sachsen-Anhalt"}},{"name":"Westerbergstr.","postalCode":"06449","locality":"Aschersleben","municipality":{"key":"15089015","name":"Aschersleben, Stadt","type":"Stadt"},"district":{"key":"15089","name":"Salzlandkreis","type":"Landkreis"},"federalState":{"key":"15","name":"Sachsen-Anhalt"}},{"name":"Weststr.","postalCode":"06449","locality":"Aschersleben","municipality":{"key":"15089015","name":"Aschersleben, Stadt","type":"Stadt"},"district":{"key":"15089","name":"Salzlandkreis","type":"Landkreis"},"federalState":{"key":"15","name":"Sachsen-Anhalt"}},{"name":"Wickenbreite","postalCode":"06449","locality":"Aschersleben","municipality":{"key":"15089015","name":"Aschersleben, Stadt","type":"Stadt"},"district":{"key":"15089","name":"Salzlandkreis","type":"Landkreis"},"federalState":{"key":"15","name":"Sachsen-Anhalt"}},{"name":"Wiesengrund","postalCode":"06449","locality":"Aschersleben","municipality":{"key":"15089015","name":"Aschersleben, Stadt","type":"Stadt"},"district":{"key":"15089","name":"Salzlandkreis","type":"Landkreis"},"federalState":{"key":"15","name":"Sachsen-Anhalt"}},{"name":"Wiesenwinkel","postalCode":"06449","locality":"Aschersleben","municipality":{"key":"15089015","name":"Aschersleben, Stadt","type":"Stadt"},"district":{"key":"15089","name":"Salzlandkreis","type":"Landkreis"},"federalState":{"key":"15","name":"Sachsen-Anhalt"}},{"name":"Wilhelm-Bestel-Str.","postalCode":"06449","locality":"Aschersleben","municipality":{"key":"15089015","name":"Aschersleben, Stadt","type":"Stadt"},"district":{"key":"15089","name":"Salzlandkreis","type":"Landkreis"},"federalState":{"key":"15","name":"Sachsen-Anhalt"}},{"name":"Wilhelmstr.","postalCode":"06449","locality":"Aschersleben","municipality":{"key":"15089015","name":"Aschersleben, Stadt","type":"Stadt"},"district":{"key":"15089","name":"Salzlandkreis","type":"Landkreis"},"federalState":{"key":"15","name":"Sachsen-Anhalt"}},{"name":"Wilhelm-Trumann-Str.","postalCode":"06449","locality":"Aschersleben","municipality":{"key":"15089015","name":"Aschersleben, Stadt","type":"Stadt"},"district":{"key":"15089","name":"Salzlandkreis","type":"Landkreis"},"federalState":{"key":"15","name":"Sachsen-Anhalt"}},{"name":"Wilslebener Chaussee","postalCode":"06449","locality":"Aschersleben","municipality":{"key":"15089015","name":"Aschersleben, Stadt","type":"Stadt"},"district":{"key":"15089","name":"Salzlandkreis","type":"Landkreis"},"federalState":{"key":"15","name":"Sachsen-Anhalt"}},{"name":"Wilslebener Str.","postalCode":"06449","locality":"Aschersleben","municipality":{"key":"15089015","name":"Aschersleben, Stadt","type":"Stadt"},"district":{"key":"15089","name":"Salzlandkreis","type":"Landkreis"},"federalState":{"key":"15","name":"Sachsen-Anhalt"}},{"name":"Winninger Str.","postalCode":"06449","locality":"Aschersleben","municipality":{"key":"15089015","name":"Aschersleben, Stadt","type":"Stadt"},"district":{"key":"15089","name":"Salzlandkreis","type":"Landkreis"},"federalState":{"key":"15","name":"Sachsen-Anhalt"}},{"name":"Wippersteg","postalCode":"06449","locality":"Aschersleben","municipality":{"key":"15089015","name":"Aschersleben, Stadt","type":"Stadt"},"district":{"key":"15089","name":"Salzlandkreis","type":"Landkreis"},"federalState":{"key":"15","name":"Sachsen-Anhalt"}},{"name":"Wipperwanderweg","postalCode":"06449","locality":"Aschersleben","municipality":{"key":"15089015","name":"Aschersleben, Stadt","type":"Stadt"},"district":{"key":"15089","name":"Salzlandkreis","type":"Landkreis"},"federalState":{"key":"15","name":"Sachsen-Anhalt"}},{"name":"Worthstr.","postalCode":"06449","locality":"Aschersleben","municipality":{"key":"15089015","name":"Aschersleben, Stadt","type":"Stadt"},"district":{"key":"15089","name":"Salzlandkreis","type":"Landkreis"},"federalState":{"key":"15","name":"Sachsen-Anhalt"}},{"name":"Zeisigweg","postalCode":"06449","locality":"Aschersleben","municipality":{"key":"15089015","name":"Aschersleben, Stadt","type":"Stadt"},"district":{"key":"15089","name":"Salzlandkreis","type":"Landkreis"},"federalState":{"key":"15","name":"Sachsen-Anhalt"}},{"name":"Zippelmarkt","postalCode":"06449","locality":"Aschersleben","municipality":{"key":"15089015","name":"Aschersleben, Stadt","type":"Stadt"},"district":{"key":"15089","name":"Salzlandkreis","type":"Landkreis"},"federalState":{"key":"15","name":"Sachsen-Anhalt"}},{"name":"Zollberg","postalCode":"06449","locality":"Aschersleben","municipality":{"key":"15089015","name":"Aschersleben, Stadt","type":"Stadt"},"district":{"key":"15089","name":"Salzlandkreis","type":"Landkreis"},"federalState":{"key":"15","name":"Sachsen-Anhalt"}},{"name":"Zornitzer Weg","postalCode":"06449","locality":"Aschersleben","municipality":{"key":"15089015","name":"Aschersleben, Stadt","type":"Stadt"},"district":{"key":"15089","name":"Salzlandkreis","type":"Landkreis"},"federalState":{"key":"15","name":"Sachsen-Anhalt"}},{"name":"Zum Einetal","postalCode":"06449","locality":"Aschersleben","municipality":{"key":"15089015","name":"Aschersleben, Stadt","type":"Stadt"},"district":{"key":"15089","name":"Salzlandkreis","type":"Landkreis"},"federalState":{"key":"15","name":"Sachsen-Anhalt"}},{"name":"Zum Klint","postalCode":"06449","locality":"Aschersleben","municipality":{"key":"15089015","name":"Aschersleben, Stadt","type":"Stadt"},"district":{"key":"15089","name":"Salzlandkreis","type":"Landkreis"},"federalState":{"key":"15","name":"Sachsen-Anhalt"}},{"name":"Zum Kuks","postalCode":"06449","locality":"Aschersleben","municipality":{"key":"15089015","name":"Aschersleben, Stadt","type":"Stadt"},"district":{"key":"15089","name":"Salzlandkreis","type":"Landkreis"},"federalState":{"key":"15","name":"Sachsen-Anhalt"}},{"name":"Zur Walkmühle","postalCode":"06449","locality":"Aschersleben","municipality":{"key":"15089015","name":"Aschersleben, Stadt","type":"Stadt"},"district":{"key":"15089","name":"Salzlandkreis","type":"Landkreis"},"federalState":{"key":"15","name":"Sachsen-Anhalt"}},{"name":"Ölstr.","postalCode":"06449","locality":"Aschersleben","municipality":{"key":"15089015","name":"Aschersleben, Stadt","type":"Stadt"},"district":{"key":"15089","name":"Salzlandkreis","type":"Landkreis"},"federalState":{"key":"15","name":"Sachsen-Anhalt"}},{"name":"Über dem Wasser","postalCode":"06449","locality":"Aschersleben","municipality":{"key":"15089015","name":"Aschersleben, Stadt","type":"Stadt"},"district":{"key":"15089","name":"Salzlandkreis","type":"Landkreis"},"federalState":{"key":"15","name":"Sachsen-Anhalt"}},{"name":"Über den Brücken","postalCode":"06449","locality":"Aschersleben","municipality":{"key":"15089015","name":"Aschersleben, Stadt","type":"Stadt"},"district":{"key":"15089","name":"Salzlandkreis","type":"Landkreis"},"federalState":{"key":"15","name":"Sachsen-Anhalt"}},{"name":"Über den Steinen","postalCode":"06449","locality":"Aschersleben","municipality":{"key":"15089015","name":"Aschersleben, Stadt","type":"Stadt"},"district":{"key":"15089","name":"Salzlandkreis","type":"Landkreis"},"federalState":{"key":"15","name":"Sachsen-Anhalt"}},{"name":"Über der Eine","postalCode":"06449","locality":"Aschersleben","municipality":{"key":"15089015","name":"Aschersleben, Stadt","type":"Stadt"},"district":{"key":"15089","name":"Salzlandkreis","type":"Landkreis"},"federalState":{"key":"15","name":"Sachsen-Anhalt"}},]