[{"name":"Ahornweg","postalCode":"09232","locality":"Hartmannsdorf","municipality":{"key":"14522260","name":"Hartmannsdorf","type":"Kreisangehörige_Gemeinde"},"district":{"key":"14522","name":"Mittelsachsen","type":"Landkreis"},"federalState":{"key":"14","name":"Sachsen"}},{"name":"Alte Dippoldiswalder Str.","postalCode":"01762","locality":"Hartmannsdorf-Reichenau","municipality":{"key":"14628150","name":"Hartmannsdorf-Reichenau","type":"Kreisangehörige_Gemeinde"},"district":{"key":"14628","name":"Sächsische Schweiz-Osterzgebirge","type":"Landkreis"},"federalState":{"key":"14","name":"Sachsen"}},{"name":"Alte Poststr.","postalCode":"01762","locality":"Hartmannsdorf-Reichenau","municipality":{"key":"14628150","name":"Hartmannsdorf-Reichenau","type":"Kreisangehörige_Gemeinde"},"district":{"key":"14628","name":"Sächsische Schweiz-Osterzgebirge","type":"Landkreis"},"federalState":{"key":"14","name":"Sachsen"}},{"name":"Alte Str.","postalCode":"07613","locality":"Hartmannsdorf","municipality":{"key":"16074038","name":"Hartmannsdorf","type":"Kreisangehörige_Gemeinde"},"district":{"key":"16074","name":"Saale-Holzland-Kreis","type":"Landkreis"},"federalState":{"key":"16","name":"Thüringen"}},{"name":"Alte Wiesenburger Landstr.","postalCode":"08107","locality":"Hartmannsdorf bei Kirchberg","municipality":{"key":"14524100","name":"Hartmannsdorf b. Kirchberg","type":"Kreisangehörige_Gemeinde"},"district":{"key":"14524","name":"Zwickau","type":"Landkreis"},"federalState":{"key":"14","name":"Sachsen"}},{"name":"Am Bahndamm","postalCode":"07613","locality":"Hartmannsdorf","municipality":{"key":"16074038","name":"Hartmannsdorf","type":"Kreisangehörige_Gemeinde"},"district":{"key":"16074","name":"Saale-Holzland-Kreis","type":"Landkreis"},"federalState":{"key":"16","name":"Thüringen"}},{"name":"Am Berg","postalCode":"09232","locality":"Hartmannsdorf","municipality":{"key":"14522260","name":"Hartmannsdorf","type":"Kreisangehörige_Gemeinde"},"district":{"key":"14522","name":"Mittelsachsen","type":"Landkreis"},"federalState":{"key":"14","name":"Sachsen"}},{"name":"Am Filzteich","postalCode":"08107","locality":"Hartmannsdorf bei Kirchberg","municipality":{"key":"14524100","name":"Hartmannsdorf b. Kirchberg","type":"Kreisangehörige_Gemeinde"},"district":{"key":"14524","name":"Zwickau","type":"Landkreis"},"federalState":{"key":"14","name":"Sachsen"}},{"name":"Am Forsthaus","postalCode":"08107","locality":"Hartmannsdorf bei Kirchberg","municipality":{"key":"14524100","name":"Hartmannsdorf b. Kirchberg","type":"Kreisangehörige_Gemeinde"},"district":{"key":"14524","name":"Zwickau","type":"Landkreis"},"federalState":{"key":"14","name":"Sachsen"}},{"name":"Am Glockenturm","postalCode":"07613","locality":"Hartmannsdorf","municipality":{"key":"16074038","name":"Hartmannsdorf","type":"Kreisangehörige_Gemeinde"},"district":{"key":"16074","name":"Saale-Holzland-Kreis","type":"Landkreis"},"federalState":{"key":"16","name":"Thüringen"}},{"name":"Am Kindergarten","postalCode":"01762","locality":"Hartmannsdorf-Reichenau","municipality":{"key":"14628150","name":"Hartmannsdorf-Reichenau","type":"Kreisangehörige_Gemeinde"},"district":{"key":"14628","name":"Sächsische Schweiz-Osterzgebirge","type":"Landkreis"},"federalState":{"key":"14","name":"Sachsen"}},{"name":"Am Kunstgraben","postalCode":"09618","locality":"Großhartmannsdorf","municipality":{"key":"14522200","name":"Großhartmannsdorf","type":"Kreisangehörige_Gemeinde"},"district":{"key":"14522","name":"Mittelsachsen","type":"Landkreis"},"federalState":{"key":"14","name":"Sachsen"}},{"name":"Am Mühlengraben","postalCode":"08107","locality":"Hartmannsdorf bei Kirchberg","municipality":{"key":"14524100","name":"Hartmannsdorf b. Kirchberg","type":"Kreisangehörige_Gemeinde"},"district":{"key":"14524","name":"Zwickau","type":"Landkreis"},"federalState":{"key":"14","name":"Sachsen"}},{"name":"Am Raudabach","postalCode":"07613","locality":"Hartmannsdorf","municipality":{"key":"16074038","name":"Hartmannsdorf","type":"Kreisangehörige_Gemeinde"},"district":{"key":"16074","name":"Saale-Holzland-Kreis","type":"Landkreis"},"federalState":{"key":"16","name":"Thüringen"}},{"name":"Am Saidenbach","postalCode":"09618","locality":"Großhartmannsdorf","municipality":{"key":"14522200","name":"Großhartmannsdorf","type":"Kreisangehörige_Gemeinde"},"district":{"key":"14522","name":"Mittelsachsen","type":"Landkreis"},"federalState":{"key":"14","name":"Sachsen"}},{"name":"Am Saidenberg","postalCode":"09618","locality":"Großhartmannsdorf","municipality":{"key":"14522200","name":"Großhartmannsdorf","type":"Kreisangehörige_Gemeinde"},"district":{"key":"14522","name":"Mittelsachsen","type":"Landkreis"},"federalState":{"key":"14","name":"Sachsen"}},{"name":"Am Sportplatz","postalCode":"09232","locality":"Hartmannsdorf","municipality":{"key":"14522260","name":"Hartmannsdorf","type":"Kreisangehörige_Gemeinde"},"district":{"key":"14522","name":"Mittelsachsen","type":"Landkreis"},"federalState":{"key":"14","name":"Sachsen"}},{"name":"Amtssteig","postalCode":"01762","locality":"Hartmannsdorf-Reichenau","municipality":{"key":"14628150","name":"Hartmannsdorf-Reichenau","type":"Kreisangehörige_Gemeinde"},"district":{"key":"14628","name":"Sächsische Schweiz-Osterzgebirge","type":"Landkreis"},"federalState":{"key":"14","name":"Sachsen"}},{"name":"An der alten Salzstr.","postalCode":"09232","locality":"Hartmannsdorf","municipality":{"key":"14522260","name":"Hartmannsdorf","type":"Kreisangehörige_Gemeinde"},"district":{"key":"14522","name":"Mittelsachsen","type":"Landkreis"},"federalState":{"key":"14","name":"Sachsen"}},{"name":"An der alten Schäferei","postalCode":"09618","locality":"Großhartmannsdorf","municipality":{"key":"14522200","name":"Großhartmannsdorf","type":"Kreisangehörige_Gemeinde"},"district":{"key":"14522","name":"Mittelsachsen","type":"Landkreis"},"federalState":{"key":"14","name":"Sachsen"}},{"name":"An der alten Schule","postalCode":"07613","locality":"Hartmannsdorf","municipality":{"key":"16074038","name":"Hartmannsdorf","type":"Kreisangehörige_Gemeinde"},"district":{"key":"16074","name":"Saale-Holzland-Kreis","type":"Landkreis"},"federalState":{"key":"16","name":"Thüringen"}},{"name":"An der Hammerschänke","postalCode":"08107","locality":"Hartmannsdorf bei Kirchberg","municipality":{"key":"14524100","name":"Hartmannsdorf b. Kirchberg","type":"Kreisangehörige_Gemeinde"},"district":{"key":"14524","name":"Zwickau","type":"Landkreis"},"federalState":{"key":"14","name":"Sachsen"}},{"name":"An der Sandleite","postalCode":"08107","locality":"Hartmannsdorf bei Kirchberg","municipality":{"key":"14524100","name":"Hartmannsdorf b. Kirchberg","type":"Kreisangehörige_Gemeinde"},"district":{"key":"14524","name":"Zwickau","type":"Landkreis"},"federalState":{"key":"14","name":"Sachsen"}},{"name":"Annaberger Str.","postalCode":"09618","locality":"Großhartmannsdorf","municipality":{"key":"14522200","name":"Großhartmannsdorf","type":"Kreisangehörige_Gemeinde"},"district":{"key":"14522","name":"Mittelsachsen","type":"Landkreis"},"federalState":{"key":"14","name":"Sachsen"}},{"name":"Anton-Günther-Platz","postalCode":"09232","locality":"Hartmannsdorf","municipality":{"key":"14522260","name":"Hartmannsdorf","type":"Kreisangehörige_Gemeinde"},"district":{"key":"14522","name":"Mittelsachsen","type":"Landkreis"},"federalState":{"key":"14","name":"Sachsen"}},{"name":"Armin-Baumert-Weg","postalCode":"07613","locality":"Hartmannsdorf","municipality":{"key":"16074038","name":"Hartmannsdorf","type":"Kreisangehörige_Gemeinde"},"district":{"key":"16074","name":"Saale-Holzland-Kreis","type":"Landkreis"},"federalState":{"key":"16","name":"Thüringen"}},{"name":"Bachgasse","postalCode":"09232","locality":"Hartmannsdorf","municipality":{"key":"14522260","name":"Hartmannsdorf","type":"Kreisangehörige_Gemeinde"},"district":{"key":"14522","name":"Mittelsachsen","type":"Landkreis"},"federalState":{"key":"14","name":"Sachsen"}},{"name":"Bäckerstr.","postalCode":"09232","locality":"Hartmannsdorf","municipality":{"key":"14522260","name":"Hartmannsdorf","type":"Kreisangehörige_Gemeinde"},"district":{"key":"14522","name":"Mittelsachsen","type":"Landkreis"},"federalState":{"key":"14","name":"Sachsen"}},{"name":"Badstr.","postalCode":"08107","locality":"Hartmannsdorf bei Kirchberg","municipality":{"key":"14524100","name":"Hartmannsdorf b. Kirchberg","type":"Kreisangehörige_Gemeinde"},"district":{"key":"14524","name":"Zwickau","type":"Landkreis"},"federalState":{"key":"14","name":"Sachsen"}},{"name":"Bahnhofstr.","postalCode":"09232","locality":"Hartmannsdorf","municipality":{"key":"14522260","name":"Hartmannsdorf","type":"Kreisangehörige_Gemeinde"},"district":{"key":"14522","name":"Mittelsachsen","type":"Landkreis"},"federalState":{"key":"14","name":"Sachsen"}},{"name":"Bärenwalder Str.","postalCode":"08107","locality":"Hartmannsdorf bei Kirchberg","municipality":{"key":"14524100","name":"Hartmannsdorf b. Kirchberg","type":"Kreisangehörige_Gemeinde"},"district":{"key":"14524","name":"Zwickau","type":"Landkreis"},"federalState":{"key":"14","name":"Sachsen"}},{"name":"Bärlochweg","postalCode":"09618","locality":"Großhartmannsdorf","municipality":{"key":"14522200","name":"Großhartmannsdorf","type":"Kreisangehörige_Gemeinde"},"district":{"key":"14522","name":"Mittelsachsen","type":"Landkreis"},"federalState":{"key":"14","name":"Sachsen"}},{"name":"Bergstr.","postalCode":"08107","locality":"Hartmannsdorf bei Kirchberg","municipality":{"key":"14524100","name":"Hartmannsdorf b. Kirchberg","type":"Kreisangehörige_Gemeinde"},"district":{"key":"14524","name":"Zwickau","type":"Landkreis"},"federalState":{"key":"14","name":"Sachsen"}},{"name":"Bergstr.","postalCode":"09232","locality":"Hartmannsdorf","municipality":{"key":"14522260","name":"Hartmannsdorf","type":"Kreisangehörige_Gemeinde"},"district":{"key":"14522","name":"Mittelsachsen","type":"Landkreis"},"federalState":{"key":"14","name":"Sachsen"}},{"name":"Birkenweg","postalCode":"07613","locality":"Hartmannsdorf","municipality":{"key":"16074038","name":"Hartmannsdorf","type":"Kreisangehörige_Gemeinde"},"district":{"key":"16074","name":"Saale-Holzland-Kreis","type":"Landkreis"},"federalState":{"key":"16","name":"Thüringen"}},{"name":"Birkenweg","postalCode":"09232","locality":"Hartmannsdorf","municipality":{"key":"14522260","name":"Hartmannsdorf","type":"Kreisangehörige_Gemeinde"},"district":{"key":"14522","name":"Mittelsachsen","type":"Landkreis"},"federalState":{"key":"14","name":"Sachsen"}},{"name":"Blumenweg","postalCode":"09232","locality":"Hartmannsdorf","municipality":{"key":"14522260","name":"Hartmannsdorf","type":"Kreisangehörige_Gemeinde"},"district":{"key":"14522","name":"Mittelsachsen","type":"Landkreis"},"federalState":{"key":"14","name":"Sachsen"}},{"name":"Brücke - Abriss geplant bis Ende 2016","postalCode":"07613","locality":"Hartmannsdorf","municipality":{"key":"16074038","name":"Hartmannsdorf","type":"Kreisangehörige_Gemeinde"},"district":{"key":"16074","name":"Saale-Holzland-Kreis","type":"Landkreis"},"federalState":{"key":"16","name":"Thüringen"}},{"name":"Buchenweg","postalCode":"09232","locality":"Hartmannsdorf","municipality":{"key":"14522260","name":"Hartmannsdorf","type":"Kreisangehörige_Gemeinde"},"district":{"key":"14522","name":"Mittelsachsen","type":"Landkreis"},"federalState":{"key":"14","name":"Sachsen"}},{"name":"Burgstädter Str.","postalCode":"09232","locality":"Hartmannsdorf","municipality":{"key":"14522260","name":"Hartmannsdorf","type":"Kreisangehörige_Gemeinde"},"district":{"key":"14522","name":"Mittelsachsen","type":"Landkreis"},"federalState":{"key":"14","name":"Sachsen"}},{"name":"Burkersdorfer Weg","postalCode":"09232","locality":"Hartmannsdorf","municipality":{"key":"14522260","name":"Hartmannsdorf","type":"Kreisangehörige_Gemeinde"},"district":{"key":"14522","name":"Mittelsachsen","type":"Landkreis"},"federalState":{"key":"14","name":"Sachsen"}},{"name":"Buschhausweg","postalCode":"09618","locality":"Großhartmannsdorf","municipality":{"key":"14522200","name":"Großhartmannsdorf","type":"Kreisangehörige_Gemeinde"},"district":{"key":"14522","name":"Mittelsachsen","type":"Landkreis"},"federalState":{"key":"14","name":"Sachsen"}},{"name":"Carl-Kirchhof-Str.","postalCode":"09232","locality":"Hartmannsdorf","municipality":{"key":"14522260","name":"Hartmannsdorf","type":"Kreisangehörige_Gemeinde"},"district":{"key":"14522","name":"Mittelsachsen","type":"Landkreis"},"federalState":{"key":"14","name":"Sachsen"}},{"name":"Chemnitzer Str.","postalCode":"09232","locality":"Hartmannsdorf","municipality":{"key":"14522260","name":"Hartmannsdorf","type":"Kreisangehörige_Gemeinde"},"district":{"key":"14522","name":"Mittelsachsen","type":"Landkreis"},"federalState":{"key":"14","name":"Sachsen"}},{"name":"Damaschkestr.","postalCode":"09232","locality":"Hartmannsdorf","municipality":{"key":"14522260","name":"Hartmannsdorf","type":"Kreisangehörige_Gemeinde"},"district":{"key":"14522","name":"Mittelsachsen","type":"Landkreis"},"federalState":{"key":"14","name":"Sachsen"}},{"name":"Dammweg","postalCode":"09232","locality":"Hartmannsdorf","municipality":{"key":"14522260","name":"Hartmannsdorf","type":"Kreisangehörige_Gemeinde"},"district":{"key":"14522","name":"Mittelsachsen","type":"Landkreis"},"federalState":{"key":"14","name":"Sachsen"}},{"name":"Dorfstr.","postalCode":"08107","locality":"Hartmannsdorf bei Kirchberg","municipality":{"key":"14524100","name":"Hartmannsdorf b. Kirchberg","type":"Kreisangehörige_Gemeinde"},"district":{"key":"14524","name":"Zwickau","type":"Landkreis"},"federalState":{"key":"14","name":"Sachsen"}},{"name":"Dorfstr.","postalCode":"09618","locality":"Großhartmannsdorf","municipality":{"key":"14522200","name":"Großhartmannsdorf","type":"Kreisangehörige_Gemeinde"},"district":{"key":"14522","name":"Mittelsachsen","type":"Landkreis"},"federalState":{"key":"14","name":"Sachsen"}},{"name":"Dürrenberg","postalCode":"07586","locality":"Hartmannsdorf","municipality":{"key":"16076026","name":"Hartmannsdorf","type":"Kreisangehörige_Gemeinde"},"district":{"key":"16076","name":"Greiz","type":"Landkreis"},"federalState":{"key":"16","name":"Thüringen"}},{"name":"Eichenweg","postalCode":"09232","locality":"Hartmannsdorf","municipality":{"key":"14522260","name":"Hartmannsdorf","type":"Kreisangehörige_Gemeinde"},"district":{"key":"14522","name":"Mittelsachsen","type":"Landkreis"},"federalState":{"key":"14","name":"Sachsen"}},{"name":"Eisenberger Str.","postalCode":"07613","locality":"Hartmannsdorf","municipality":{"key":"16074038","name":"Hartmannsdorf","type":"Kreisangehörige_Gemeinde"},"district":{"key":"16074","name":"Saale-Holzland-Kreis","type":"Landkreis"},"federalState":{"key":"16","name":"Thüringen"}},{"name":"Eppendorfer Str.","postalCode":"09618","locality":"Großhartmannsdorf","municipality":{"key":"14522200","name":"Großhartmannsdorf","type":"Kreisangehörige_Gemeinde"},"district":{"key":"14522","name":"Mittelsachsen","type":"Landkreis"},"federalState":{"key":"14","name":"Sachsen"}},{"name":"Ernst-Lässig-Str.","postalCode":"09232","locality":"Hartmannsdorf","municipality":{"key":"14522260","name":"Hartmannsdorf","type":"Kreisangehörige_Gemeinde"},"district":{"key":"14522","name":"Mittelsachsen","type":"Landkreis"},"federalState":{"key":"14","name":"Sachsen"}},{"name":"Etzdorfer Weg","postalCode":"07613","locality":"Hartmannsdorf","municipality":{"key":"16074038","name":"Hartmannsdorf","type":"Kreisangehörige_Gemeinde"},"district":{"key":"16074","name":"Saale-Holzland-Kreis","type":"Landkreis"},"federalState":{"key":"16","name":"Thüringen"}},{"name":"Feldgasse","postalCode":"07613","locality":"Hartmannsdorf","municipality":{"key":"16074038","name":"Hartmannsdorf","type":"Kreisangehörige_Gemeinde"},"district":{"key":"16074","name":"Saale-Holzland-Kreis","type":"Landkreis"},"federalState":{"key":"16","name":"Thüringen"}},{"name":"Feldstr.","postalCode":"09232","locality":"Hartmannsdorf","municipality":{"key":"14522260","name":"Hartmannsdorf","type":"Kreisangehörige_Gemeinde"},"district":{"key":"14522","name":"Mittelsachsen","type":"Landkreis"},"federalState":{"key":"14","name":"Sachsen"}},{"name":"Feuerwehrplatz","postalCode":"09232","locality":"Hartmannsdorf","municipality":{"key":"14522260","name":"Hartmannsdorf","type":"Kreisangehörige_Gemeinde"},"district":{"key":"14522","name":"Mittelsachsen","type":"Landkreis"},"federalState":{"key":"14","name":"Sachsen"}},{"name":"Flügel","postalCode":"08107","locality":"Hartmannsdorf bei Kirchberg","municipality":{"key":"14524100","name":"Hartmannsdorf b. Kirchberg","type":"Kreisangehörige_Gemeinde"},"district":{"key":"14524","name":"Zwickau","type":"Landkreis"},"federalState":{"key":"14","name":"Sachsen"}},{"name":"Flügel III","postalCode":"08107","locality":"Hartmannsdorf bei Kirchberg","municipality":{"key":"14524100","name":"Hartmannsdorf b. Kirchberg","type":"Kreisangehörige_Gemeinde"},"district":{"key":"14524","name":"Zwickau","type":"Landkreis"},"federalState":{"key":"14","name":"Sachsen"}},{"name":"Friedensweg","postalCode":"07613","locality":"Hartmannsdorf","municipality":{"key":"16074038","name":"Hartmannsdorf","type":"Kreisangehörige_Gemeinde"},"district":{"key":"16074","name":"Saale-Holzland-Kreis","type":"Landkreis"},"federalState":{"key":"16","name":"Thüringen"}},{"name":"Friedrichstr.","postalCode":"09232","locality":"Hartmannsdorf","municipality":{"key":"14522260","name":"Hartmannsdorf","type":"Kreisangehörige_Gemeinde"},"district":{"key":"14522","name":"Mittelsachsen","type":"Landkreis"},"federalState":{"key":"14","name":"Sachsen"}},{"name":"Fundgrube Peter und Paul","postalCode":"08107","locality":"Hartmannsdorf bei Kirchberg","municipality":{"key":"14524100","name":"Hartmannsdorf b. Kirchberg","type":"Kreisangehörige_Gemeinde"},"district":{"key":"14524","name":"Zwickau","type":"Landkreis"},"federalState":{"key":"14","name":"Sachsen"}},{"name":"Fürstenweg","postalCode":"08107","locality":"Hartmannsdorf bei Kirchberg","municipality":{"key":"14524100","name":"Hartmannsdorf b. Kirchberg","type":"Kreisangehörige_Gemeinde"},"district":{"key":"14524","name":"Zwickau","type":"Landkreis"},"federalState":{"key":"14","name":"Sachsen"}},{"name":"Gartenweg","postalCode":"09232","locality":"Hartmannsdorf","municipality":{"key":"14522260","name":"Hartmannsdorf","type":"Kreisangehörige_Gemeinde"},"district":{"key":"14522","name":"Mittelsachsen","type":"Landkreis"},"federalState":{"key":"14","name":"Sachsen"}},{"name":"Geraer Str.","postalCode":"07613","locality":"Hartmannsdorf","municipality":{"key":"16074038","name":"Hartmannsdorf","type":"Kreisangehörige_Gemeinde"},"district":{"key":"16074","name":"Saale-Holzland-Kreis","type":"Landkreis"},"federalState":{"key":"16","name":"Thüringen"}},{"name":"Geschwister-Scholl-Str.","postalCode":"09232","locality":"Hartmannsdorf","municipality":{"key":"14522260","name":"Hartmannsdorf","type":"Kreisangehörige_Gemeinde"},"district":{"key":"14522","name":"Mittelsachsen","type":"Landkreis"},"federalState":{"key":"14","name":"Sachsen"}},{"name":"Giegengrün","postalCode":"08107","locality":"Hartmannsdorf bei Kirchberg","municipality":{"key":"14524100","name":"Hartmannsdorf b. Kirchberg","type":"Kreisangehörige_Gemeinde"},"district":{"key":"14524","name":"Zwickau","type":"Landkreis"},"federalState":{"key":"14","name":"Sachsen"}},{"name":"Giegengrüner Str.","postalCode":"08107","locality":"Hartmannsdorf bei Kirchberg","municipality":{"key":"14524100","name":"Hartmannsdorf b. Kirchberg","type":"Kreisangehörige_Gemeinde"},"district":{"key":"14524","name":"Zwickau","type":"Landkreis"},"federalState":{"key":"14","name":"Sachsen"}},{"name":"Gimmlitztal","postalCode":"01762","locality":"Hartmannsdorf-Reichenau","municipality":{"key":"14628150","name":"Hartmannsdorf-Reichenau","type":"Kreisangehörige_Gemeinde"},"district":{"key":"14628","name":"Sächsische Schweiz-Osterzgebirge","type":"Landkreis"},"federalState":{"key":"14","name":"Sachsen"}},{"name":"Goethestr.","postalCode":"09232","locality":"Hartmannsdorf","municipality":{"key":"14522260","name":"Hartmannsdorf","type":"Kreisangehörige_Gemeinde"},"district":{"key":"14522","name":"Mittelsachsen","type":"Landkreis"},"federalState":{"key":"14","name":"Sachsen"}},{"name":"Hainweg","postalCode":"09232","locality":"Hartmannsdorf","municipality":{"key":"14522260","name":"Hartmannsdorf","type":"Kreisangehörige_Gemeinde"},"district":{"key":"14522","name":"Mittelsachsen","type":"Landkreis"},"federalState":{"key":"14","name":"Sachsen"}},{"name":"Hartmannsdorf","postalCode":"07586","locality":"Hartmannsdorf","municipality":{"key":"16076026","name":"Hartmannsdorf","type":"Kreisangehörige_Gemeinde"},"district":{"key":"16076","name":"Greiz","type":"Landkreis"},"federalState":{"key":"16","name":"Thüringen"}},{"name":"Haselbacher Str.","postalCode":"09618","locality":"Großhartmannsdorf","municipality":{"key":"14522200","name":"Großhartmannsdorf","type":"Kreisangehörige_Gemeinde"},"district":{"key":"14522","name":"Mittelsachsen","type":"Landkreis"},"federalState":{"key":"14","name":"Sachsen"}},{"name":"Hauptstr.","postalCode":"01762","locality":"Hartmannsdorf-Reichenau","municipality":{"key":"14628150","name":"Hartmannsdorf-Reichenau","type":"Kreisangehörige_Gemeinde"},"district":{"key":"14628","name":"Sächsische Schweiz-Osterzgebirge","type":"Landkreis"},"federalState":{"key":"14","name":"Sachsen"}},{"name":"Hauptstr.","postalCode":"09618","locality":"Großhartmannsdorf","municipality":{"key":"14522200","name":"Großhartmannsdorf","type":"Kreisangehörige_Gemeinde"},"district":{"key":"14522","name":"Mittelsachsen","type":"Landkreis"},"federalState":{"key":"14","name":"Sachsen"}},{"name":"Heiersdorfer Str.","postalCode":"09232","locality":"Hartmannsdorf","municipality":{"key":"14522260","name":"Hartmannsdorf","type":"Kreisangehörige_Gemeinde"},"district":{"key":"14522","name":"Mittelsachsen","type":"Landkreis"},"federalState":{"key":"14","name":"Sachsen"}},{"name":"Helbigsdorfer Siedlung","postalCode":"09618","locality":"Großhartmannsdorf","municipality":{"key":"14522200","name":"Großhartmannsdorf","type":"Kreisangehörige_Gemeinde"},"district":{"key":"14522","name":"Mittelsachsen","type":"Landkreis"},"federalState":{"key":"14","name":"Sachsen"}},{"name":"Hennersdorfer Str.","postalCode":"01762","locality":"Hartmannsdorf-Reichenau","municipality":{"key":"14628150","name":"Hartmannsdorf-Reichenau","type":"Kreisangehörige_Gemeinde"},"district":{"key":"14628","name":"Sächsische Schweiz-Osterzgebirge","type":"Landkreis"},"federalState":{"key":"14","name":"Sachsen"}},{"name":"Herrenhaider Str.","postalCode":"09232","locality":"Hartmannsdorf","municipality":{"key":"14522260","name":"Hartmannsdorf","type":"Kreisangehörige_Gemeinde"},"district":{"key":"14522","name":"Mittelsachsen","type":"Landkreis"},"federalState":{"key":"14","name":"Sachsen"}},{"name":"Heuweg","postalCode":"07586","locality":"Hartmannsdorf","municipality":{"key":"16076026","name":"Hartmannsdorf","type":"Kreisangehörige_Gemeinde"},"district":{"key":"16076","name":"Greiz","type":"Landkreis"},"federalState":{"key":"16","name":"Thüringen"}},{"name":"Hildebrandweg","postalCode":"08107","locality":"Hartmannsdorf bei Kirchberg","municipality":{"key":"14524100","name":"Hartmannsdorf b. Kirchberg","type":"Kreisangehörige_Gemeinde"},"district":{"key":"14524","name":"Zwickau","type":"Landkreis"},"federalState":{"key":"14","name":"Sachsen"}},{"name":"Hirschensteinstr.","postalCode":"08107","locality":"Hartmannsdorf bei Kirchberg","municipality":{"key":"14524100","name":"Hartmannsdorf b. Kirchberg","type":"Kreisangehörige_Gemeinde"},"district":{"key":"14524","name":"Zwickau","type":"Landkreis"},"federalState":{"key":"14","name":"Sachsen"}},{"name":"Hofbuschweg","postalCode":"09618","locality":"Großhartmannsdorf","municipality":{"key":"14522200","name":"Großhartmannsdorf","type":"Kreisangehörige_Gemeinde"},"district":{"key":"14522","name":"Mittelsachsen","type":"Landkreis"},"federalState":{"key":"14","name":"Sachsen"}},{"name":"Hofstatt","postalCode":"09232","locality":"Hartmannsdorf","municipality":{"key":"14522260","name":"Hartmannsdorf","type":"Kreisangehörige_Gemeinde"},"district":{"key":"14522","name":"Mittelsachsen","type":"Landkreis"},"federalState":{"key":"14","name":"Sachsen"}},{"name":"Hohe Str.","postalCode":"09232","locality":"Hartmannsdorf","municipality":{"key":"14522260","name":"Hartmannsdorf","type":"Kreisangehörige_Gemeinde"},"district":{"key":"14522","name":"Mittelsachsen","type":"Landkreis"},"federalState":{"key":"14","name":"Sachsen"}},{"name":"Hohlweg","postalCode":"07613","locality":"Hartmannsdorf","municipality":{"key":"16074038","name":"Hartmannsdorf","type":"Kreisangehörige_Gemeinde"},"district":{"key":"16074","name":"Saale-Holzland-Kreis","type":"Landkreis"},"federalState":{"key":"16","name":"Thüringen"}},{"name":"Hundshübler Str.","postalCode":"08107","locality":"Hartmannsdorf bei Kirchberg","municipality":{"key":"14524100","name":"Hartmannsdorf b. Kirchberg","type":"Kreisangehörige_Gemeinde"},"district":{"key":"14524","name":"Zwickau","type":"Landkreis"},"federalState":{"key":"14","name":"Sachsen"}},{"name":"Im Park","postalCode":"09618","locality":"Großhartmannsdorf","municipality":{"key":"14522200","name":"Großhartmannsdorf","type":"Kreisangehörige_Gemeinde"},"district":{"key":"14522","name":"Mittelsachsen","type":"Landkreis"},"federalState":{"key":"14","name":"Sachsen"}},{"name":"Johann-Friedrich-Fasch-Str.","postalCode":"07973","locality":"Greiz","municipality":{"key":"16076022","name":"Greiz, Stadt","type":"Stadt"},"district":{"key":"16076","name":"Greiz","type":"Landkreis"},"federalState":{"key":"16","name":"Thüringen"}},{"name":"Johann-Sebastian-Bach-Str.","postalCode":"07973","locality":"Greiz","municipality":{"key":"16076022","name":"Greiz, Stadt","type":"Stadt"},"district":{"key":"16076","name":"Greiz","type":"Landkreis"},"federalState":{"key":"16","name":"Thüringen"}},{"name":"Juri-Gagarin-Str.","postalCode":"07973","locality":"Greiz","municipality":{"key":"16076022","name":"Greiz, Stadt","type":"Stadt"},"district":{"key":"16076","name":"Greiz","type":"Landkreis"},"federalState":{"key":"16","name":"Thüringen"}},{"name":"Kammweg","postalCode":"01762","locality":"Hartmannsdorf-Reichenau","municipality":{"key":"14628150","name":"Hartmannsdorf-Reichenau","type":"Kreisangehörige_Gemeinde"},"district":{"key":"14628","name":"Sächsische Schweiz-Osterzgebirge","type":"Landkreis"},"federalState":{"key":"14","name":"Sachsen"}},{"name":"Kastanienhof","postalCode":"09232","locality":"Hartmannsdorf","municipality":{"key":"14522260","name":"Hartmannsdorf","type":"Kreisangehörige_Gemeinde"},"district":{"key":"14522","name":"Mittelsachsen","type":"Landkreis"},"federalState":{"key":"14","name":"Sachsen"}},{"name":"Kirchfeld","postalCode":"09232","locality":"Hartmannsdorf","municipality":{"key":"14522260","name":"Hartmannsdorf","type":"Kreisangehörige_Gemeinde"},"district":{"key":"14522","name":"Mittelsachsen","type":"Landkreis"},"federalState":{"key":"14","name":"Sachsen"}},{"name":"Kirchsteig","postalCode":"08107","locality":"Hartmannsdorf bei Kirchberg","municipality":{"key":"14524100","name":"Hartmannsdorf b. Kirchberg","type":"Kreisangehörige_Gemeinde"},"district":{"key":"14524","name":"Zwickau","type":"Landkreis"},"federalState":{"key":"14","name":"Sachsen"}},{"name":"Kirchweg","postalCode":"01762","locality":"Hartmannsdorf-Reichenau","municipality":{"key":"14628150","name":"Hartmannsdorf-Reichenau","type":"Kreisangehörige_Gemeinde"},"district":{"key":"14628","name":"Sächsische Schweiz-Osterzgebirge","type":"Landkreis"},"federalState":{"key":"14","name":"Sachsen"}},{"name":"Kirchweg","postalCode":"09232","locality":"Hartmannsdorf","municipality":{"key":"14522260","name":"Hartmannsdorf","type":"Kreisangehörige_Gemeinde"},"district":{"key":"14522","name":"Mittelsachsen","type":"Landkreis"},"federalState":{"key":"14","name":"Sachsen"}},{"name":"Kirschbergweg","postalCode":"07613","locality":"Hartmannsdorf","municipality":{"key":"16074038","name":"Hartmannsdorf","type":"Kreisangehörige_Gemeinde"},"district":{"key":"16074","name":"Saale-Holzland-Kreis","type":"Landkreis"},"federalState":{"key":"16","name":"Thüringen"}},{"name":"Kleiner Flügel","postalCode":"08107","locality":"Hartmannsdorf bei Kirchberg","municipality":{"key":"14524100","name":"Hartmannsdorf b. Kirchberg","type":"Kreisangehörige_Gemeinde"},"district":{"key":"14524","name":"Zwickau","type":"Landkreis"},"federalState":{"key":"14","name":"Sachsen"}},{"name":"Kleiner Fürstenweg","postalCode":"08107","locality":"Hartmannsdorf bei Kirchberg","municipality":{"key":"14524100","name":"Hartmannsdorf b. Kirchberg","type":"Kreisangehörige_Gemeinde"},"district":{"key":"14524","name":"Zwickau","type":"Landkreis"},"federalState":{"key":"14","name":"Sachsen"}},{"name":"Kombinatsstr.","postalCode":"09618","locality":"Großhartmannsdorf","municipality":{"key":"14522200","name":"Großhartmannsdorf","type":"Kreisangehörige_Gemeinde"},"district":{"key":"14522","name":"Mittelsachsen","type":"Landkreis"},"federalState":{"key":"14","name":"Sachsen"}},{"name":"Konrad-Weichelt-Wanderweg","postalCode":"01762","locality":"Hartmannsdorf-Reichenau","municipality":{"key":"14628150","name":"Hartmannsdorf-Reichenau","type":"Kreisangehörige_Gemeinde"},"district":{"key":"14628","name":"Sächsische Schweiz-Osterzgebirge","type":"Landkreis"},"federalState":{"key":"14","name":"Sachsen"}},{"name":"Kreuzeichenweg","postalCode":"09232","locality":"Hartmannsdorf","municipality":{"key":"14522260","name":"Hartmannsdorf","type":"Kreisangehörige_Gemeinde"},"district":{"key":"14522","name":"Mittelsachsen","type":"Landkreis"},"federalState":{"key":"14","name":"Sachsen"}},{"name":"Krippenweg","postalCode":"09618","locality":"Großhartmannsdorf","municipality":{"key":"14522200","name":"Großhartmannsdorf","type":"Kreisangehörige_Gemeinde"},"district":{"key":"14522","name":"Mittelsachsen","type":"Landkreis"},"federalState":{"key":"14","name":"Sachsen"}},{"name":"Krummer Weg","postalCode":"08107","locality":"Hartmannsdorf bei Kirchberg","municipality":{"key":"14524100","name":"Hartmannsdorf b. Kirchberg","type":"Kreisangehörige_Gemeinde"},"district":{"key":"14524","name":"Zwickau","type":"Landkreis"},"federalState":{"key":"14","name":"Sachsen"}},{"name":"Kurze Str.","postalCode":"09232","locality":"Hartmannsdorf","municipality":{"key":"14522260","name":"Hartmannsdorf","type":"Kreisangehörige_Gemeinde"},"district":{"key":"14522","name":"Mittelsachsen","type":"Landkreis"},"federalState":{"key":"14","name":"Sachsen"}},{"name":"Langer Flügel","postalCode":"08107","locality":"Hartmannsdorf bei Kirchberg","municipality":{"key":"14524100","name":"Hartmannsdorf b. Kirchberg","type":"Kreisangehörige_Gemeinde"},"district":{"key":"14524","name":"Zwickau","type":"Landkreis"},"federalState":{"key":"14","name":"Sachsen"}},{"name":"Lärchenweg","postalCode":"08107","locality":"Hartmannsdorf bei Kirchberg","municipality":{"key":"14524100","name":"Hartmannsdorf b. Kirchberg","type":"Kreisangehörige_Gemeinde"},"district":{"key":"14524","name":"Zwickau","type":"Landkreis"},"federalState":{"key":"14","name":"Sachsen"}},{"name":"Lärchenweg","postalCode":"09232","locality":"Hartmannsdorf","municipality":{"key":"14522260","name":"Hartmannsdorf","type":"Kreisangehörige_Gemeinde"},"district":{"key":"14522","name":"Mittelsachsen","type":"Landkreis"},"federalState":{"key":"14","name":"Sachsen"}},{"name":"Leipziger Str.","postalCode":"09232","locality":"Hartmannsdorf","municipality":{"key":"14522260","name":"Hartmannsdorf","type":"Kreisangehörige_Gemeinde"},"district":{"key":"14522","name":"Mittelsachsen","type":"Landkreis"},"federalState":{"key":"14","name":"Sachsen"}},{"name":"Lichtenauer Flügel","postalCode":"08107","locality":"Hartmannsdorf bei Kirchberg","municipality":{"key":"14524100","name":"Hartmannsdorf b. Kirchberg","type":"Kreisangehörige_Gemeinde"},"district":{"key":"14524","name":"Zwickau","type":"Landkreis"},"federalState":{"key":"14","name":"Sachsen"}},{"name":"Limbacher Str.","postalCode":"09232","locality":"Hartmannsdorf","municipality":{"key":"14522260","name":"Hartmannsdorf","type":"Kreisangehörige_Gemeinde"},"district":{"key":"14522","name":"Mittelsachsen","type":"Landkreis"},"federalState":{"key":"14","name":"Sachsen"}},{"name":"Lindenberg","postalCode":"07613","locality":"Hartmannsdorf","municipality":{"key":"16074038","name":"Hartmannsdorf","type":"Kreisangehörige_Gemeinde"},"district":{"key":"16074","name":"Saale-Holzland-Kreis","type":"Landkreis"},"federalState":{"key":"16","name":"Thüringen"}},{"name":"Lindenweg","postalCode":"08107","locality":"Hartmannsdorf bei Kirchberg","municipality":{"key":"14524100","name":"Hartmannsdorf b. Kirchberg","type":"Kreisangehörige_Gemeinde"},"district":{"key":"14524","name":"Zwickau","type":"Landkreis"},"federalState":{"key":"14","name":"Sachsen"}},{"name":"Lohsen","postalCode":"09618","locality":"Großhartmannsdorf","municipality":{"key":"14522200","name":"Großhartmannsdorf","type":"Kreisangehörige_Gemeinde"},"district":{"key":"14522","name":"Mittelsachsen","type":"Landkreis"},"federalState":{"key":"14","name":"Sachsen"}},{"name":"Melkhüttenweg","postalCode":"07613","locality":"Hartmannsdorf","municipality":{"key":"16074038","name":"Hartmannsdorf","type":"Kreisangehörige_Gemeinde"},"district":{"key":"16074","name":"Saale-Holzland-Kreis","type":"Landkreis"},"federalState":{"key":"16","name":"Thüringen"}},{"name":"Metznergasse","postalCode":"09232","locality":"Hartmannsdorf","municipality":{"key":"14522260","name":"Hartmannsdorf","type":"Kreisangehörige_Gemeinde"},"district":{"key":"14522","name":"Mittelsachsen","type":"Landkreis"},"federalState":{"key":"14","name":"Sachsen"}},{"name":"Mittelsaidaer Str.","postalCode":"09618","locality":"Großhartmannsdorf","municipality":{"key":"14522200","name":"Großhartmannsdorf","type":"Kreisangehörige_Gemeinde"},"district":{"key":"14522","name":"Mittelsachsen","type":"Landkreis"},"federalState":{"key":"14","name":"Sachsen"}},{"name":"Mittelstr.","postalCode":"09232","locality":"Hartmannsdorf","municipality":{"key":"14522260","name":"Hartmannsdorf","type":"Kreisangehörige_Gemeinde"},"district":{"key":"14522","name":"Mittelsachsen","type":"Landkreis"},"federalState":{"key":"14","name":"Sachsen"}},{"name":"Mittelstr.","postalCode":"09618","locality":"Großhartmannsdorf","municipality":{"key":"14522200","name":"Großhartmannsdorf","type":"Kreisangehörige_Gemeinde"},"district":{"key":"14522","name":"Mittelsachsen","type":"Landkreis"},"federalState":{"key":"14","name":"Sachsen"}},{"name":"Mittlerer Hang","postalCode":"08107","locality":"Hartmannsdorf bei Kirchberg","municipality":{"key":"14524100","name":"Hartmannsdorf b. Kirchberg","type":"Kreisangehörige_Gemeinde"},"district":{"key":"14524","name":"Zwickau","type":"Landkreis"},"federalState":{"key":"14","name":"Sachsen"}},{"name":"Mühlauer Str.","postalCode":"09232","locality":"Hartmannsdorf","municipality":{"key":"14522260","name":"Hartmannsdorf","type":"Kreisangehörige_Gemeinde"},"district":{"key":"14522","name":"Mittelsachsen","type":"Landkreis"},"federalState":{"key":"14","name":"Sachsen"}},{"name":"Mühlweg","postalCode":"09618","locality":"Großhartmannsdorf","municipality":{"key":"14522200","name":"Großhartmannsdorf","type":"Kreisangehörige_Gemeinde"},"district":{"key":"14522","name":"Mittelsachsen","type":"Landkreis"},"federalState":{"key":"14","name":"Sachsen"}},{"name":"Muldaer Str.","postalCode":"09618","locality":"Großhartmannsdorf","municipality":{"key":"14522200","name":"Großhartmannsdorf","type":"Kreisangehörige_Gemeinde"},"district":{"key":"14522","name":"Mittelsachsen","type":"Landkreis"},"federalState":{"key":"14","name":"Sachsen"}},{"name":"Neuwaltersdorfer Str.","postalCode":"09618","locality":"Großhartmannsdorf","municipality":{"key":"14522200","name":"Großhartmannsdorf","type":"Kreisangehörige_Gemeinde"},"district":{"key":"14522","name":"Mittelsachsen","type":"Landkreis"},"federalState":{"key":"14","name":"Sachsen"}},{"name":"Niederfrohnaer Weg","postalCode":"09232","locality":"Hartmannsdorf","municipality":{"key":"14522260","name":"Hartmannsdorf","type":"Kreisangehörige_Gemeinde"},"district":{"key":"14522","name":"Mittelsachsen","type":"Landkreis"},"federalState":{"key":"14","name":"Sachsen"}},{"name":"Niedersaidaer Str.","postalCode":"09618","locality":"Großhartmannsdorf","municipality":{"key":"14522200","name":"Großhartmannsdorf","type":"Kreisangehörige_Gemeinde"},"district":{"key":"14522","name":"Mittelsachsen","type":"Landkreis"},"federalState":{"key":"14","name":"Sachsen"}},{"name":"Obere Dorfstr.","postalCode":"01762","locality":"Hartmannsdorf-Reichenau","municipality":{"key":"14628150","name":"Hartmannsdorf-Reichenau","type":"Kreisangehörige_Gemeinde"},"district":{"key":"14628","name":"Sächsische Schweiz-Osterzgebirge","type":"Landkreis"},"federalState":{"key":"14","name":"Sachsen"}},{"name":"Obere Hauptstr.","postalCode":"09232","locality":"Hartmannsdorf","municipality":{"key":"14522260","name":"Hartmannsdorf","type":"Kreisangehörige_Gemeinde"},"district":{"key":"14522","name":"Mittelsachsen","type":"Landkreis"},"federalState":{"key":"14","name":"Sachsen"}},{"name":"Oberer Gutsweg","postalCode":"09232","locality":"Hartmannsdorf","municipality":{"key":"14522260","name":"Hartmannsdorf","type":"Kreisangehörige_Gemeinde"},"district":{"key":"14522","name":"Mittelsachsen","type":"Landkreis"},"federalState":{"key":"14","name":"Sachsen"}},{"name":"Oberer Hang","postalCode":"08107","locality":"Hartmannsdorf bei Kirchberg","municipality":{"key":"14524100","name":"Hartmannsdorf b. Kirchberg","type":"Kreisangehörige_Gemeinde"},"district":{"key":"14524","name":"Zwickau","type":"Landkreis"},"federalState":{"key":"14","name":"Sachsen"}},{"name":"Obere Ufergasse","postalCode":"09232","locality":"Hartmannsdorf","municipality":{"key":"14522260","name":"Hartmannsdorf","type":"Kreisangehörige_Gemeinde"},"district":{"key":"14522","name":"Mittelsachsen","type":"Landkreis"},"federalState":{"key":"14","name":"Sachsen"}},{"name":"Obersaidaer Str.","postalCode":"09618","locality":"Großhartmannsdorf","municipality":{"key":"14522200","name":"Großhartmannsdorf","type":"Kreisangehörige_Gemeinde"},"district":{"key":"14522","name":"Mittelsachsen","type":"Landkreis"},"federalState":{"key":"14","name":"Sachsen"}},{"name":"Olbernhauer Str.","postalCode":"09618","locality":"Großhartmannsdorf","municipality":{"key":"14522200","name":"Großhartmannsdorf","type":"Kreisangehörige_Gemeinde"},"district":{"key":"14522","name":"Mittelsachsen","type":"Landkreis"},"federalState":{"key":"14","name":"Sachsen"}},{"name":"Oststr.","postalCode":"09232","locality":"Hartmannsdorf","municipality":{"key":"14522260","name":"Hartmannsdorf","type":"Kreisangehörige_Gemeinde"},"district":{"key":"14522","name":"Mittelsachsen","type":"Landkreis"},"federalState":{"key":"14","name":"Sachsen"}},{"name":"Pappelweg","postalCode":"09232","locality":"Hartmannsdorf","municipality":{"key":"14522260","name":"Hartmannsdorf","type":"Kreisangehörige_Gemeinde"},"district":{"key":"14522","name":"Mittelsachsen","type":"Landkreis"},"federalState":{"key":"14","name":"Sachsen"}},{"name":"Parkstr.","postalCode":"09618","locality":"Großhartmannsdorf","municipality":{"key":"14522200","name":"Großhartmannsdorf","type":"Kreisangehörige_Gemeinde"},"district":{"key":"14522","name":"Mittelsachsen","type":"Landkreis"},"federalState":{"key":"14","name":"Sachsen"}},{"name":"Pfaffenweg","postalCode":"07586","locality":"Hartmannsdorf","municipality":{"key":"16076026","name":"Hartmannsdorf","type":"Kreisangehörige_Gemeinde"},"district":{"key":"16076","name":"Greiz","type":"Landkreis"},"federalState":{"key":"16","name":"Thüringen"}},{"name":"Pörsdorfer Weg","postalCode":"07586","locality":"Hartmannsdorf","municipality":{"key":"16076026","name":"Hartmannsdorf","type":"Kreisangehörige_Gemeinde"},"district":{"key":"16076","name":"Greiz","type":"Landkreis"},"federalState":{"key":"16","name":"Thüringen"}},{"name":"Poststeig","postalCode":"01762","locality":"Hartmannsdorf-Reichenau","municipality":{"key":"14628150","name":"Hartmannsdorf-Reichenau","type":"Kreisangehörige_Gemeinde"},"district":{"key":"14628","name":"Sächsische Schweiz-Osterzgebirge","type":"Landkreis"},"federalState":{"key":"14","name":"Sachsen"}},{"name":"Poststr.","postalCode":"09232","locality":"Hartmannsdorf","municipality":{"key":"14522260","name":"Hartmannsdorf","type":"Kreisangehörige_Gemeinde"},"district":{"key":"14522","name":"Mittelsachsen","type":"Landkreis"},"federalState":{"key":"14","name":"Sachsen"}},{"name":"Querstr.","postalCode":"08107","locality":"Hartmannsdorf bei Kirchberg","municipality":{"key":"14524100","name":"Hartmannsdorf b. Kirchberg","type":"Kreisangehörige_Gemeinde"},"district":{"key":"14524","name":"Zwickau","type":"Landkreis"},"federalState":{"key":"14","name":"Sachsen"}},{"name":"Querstr.","postalCode":"09232","locality":"Hartmannsdorf","municipality":{"key":"14522260","name":"Hartmannsdorf","type":"Kreisangehörige_Gemeinde"},"district":{"key":"14522","name":"Mittelsachsen","type":"Landkreis"},"federalState":{"key":"14","name":"Sachsen"}},{"name":"Raudengrund","postalCode":"07613","locality":"Hartmannsdorf","municipality":{"key":"16074038","name":"Hartmannsdorf","type":"Kreisangehörige_Gemeinde"},"district":{"key":"16074","name":"Saale-Holzland-Kreis","type":"Landkreis"},"federalState":{"key":"16","name":"Thüringen"}},{"name":"Reitsteig","postalCode":"01762","locality":"Hartmannsdorf-Reichenau","municipality":{"key":"14628150","name":"Hartmannsdorf-Reichenau","type":"Kreisangehörige_Gemeinde"},"district":{"key":"14628","name":"Sächsische Schweiz-Osterzgebirge","type":"Landkreis"},"federalState":{"key":"14","name":"Sachsen"}},{"name":"Ringstr.","postalCode":"09618","locality":"Großhartmannsdorf","municipality":{"key":"14522200","name":"Großhartmannsdorf","type":"Kreisangehörige_Gemeinde"},"district":{"key":"14522","name":"Mittelsachsen","type":"Landkreis"},"federalState":{"key":"14","name":"Sachsen"}},{"name":"Ringweg","postalCode":"08107","locality":"Hartmannsdorf bei Kirchberg","municipality":{"key":"14524100","name":"Hartmannsdorf b. Kirchberg","type":"Kreisangehörige_Gemeinde"},"district":{"key":"14524","name":"Zwickau","type":"Landkreis"},"federalState":{"key":"14","name":"Sachsen"}},{"name":"Röthenbacher Str.","postalCode":"01762","locality":"Hartmannsdorf-Reichenau","municipality":{"key":"14628150","name":"Hartmannsdorf-Reichenau","type":"Kreisangehörige_Gemeinde"},"district":{"key":"14628","name":"Sächsische Schweiz-Osterzgebirge","type":"Landkreis"},"federalState":{"key":"14","name":"Sachsen"}},{"name":"Rothenkirchener Str.","postalCode":"08107","locality":"Hartmannsdorf bei Kirchberg","municipality":{"key":"14524100","name":"Hartmannsdorf b. Kirchberg","type":"Kreisangehörige_Gemeinde"},"district":{"key":"14524","name":"Zwickau","type":"Landkreis"},"federalState":{"key":"14","name":"Sachsen"}},{"name":"Salzleckenweg","postalCode":"01762","locality":"Hartmannsdorf-Reichenau","municipality":{"key":"14628150","name":"Hartmannsdorf-Reichenau","type":"Kreisangehörige_Gemeinde"},"district":{"key":"14628","name":"Sächsische Schweiz-Osterzgebirge","type":"Landkreis"},"federalState":{"key":"14","name":"Sachsen"}},{"name":"Salzstr.","postalCode":"08107","locality":"Hartmannsdorf bei Kirchberg","municipality":{"key":"14524100","name":"Hartmannsdorf b. Kirchberg","type":"Kreisangehörige_Gemeinde"},"district":{"key":"14524","name":"Zwickau","type":"Landkreis"},"federalState":{"key":"14","name":"Sachsen"}},{"name":"Saupersdorfer Str.","postalCode":"08107","locality":"Hartmannsdorf bei Kirchberg","municipality":{"key":"14524100","name":"Hartmannsdorf b. Kirchberg","type":"Kreisangehörige_Gemeinde"},"district":{"key":"14524","name":"Zwickau","type":"Landkreis"},"federalState":{"key":"14","name":"Sachsen"}},{"name":"Schönaicher Str.","postalCode":"09232","locality":"Hartmannsdorf","municipality":{"key":"14522260","name":"Hartmannsdorf","type":"Kreisangehörige_Gemeinde"},"district":{"key":"14522","name":"Mittelsachsen","type":"Landkreis"},"federalState":{"key":"14","name":"Sachsen"}},{"name":"Schulsiedlung","postalCode":"09618","locality":"Großhartmannsdorf","municipality":{"key":"14522200","name":"Großhartmannsdorf","type":"Kreisangehörige_Gemeinde"},"district":{"key":"14522","name":"Mittelsachsen","type":"Landkreis"},"federalState":{"key":"14","name":"Sachsen"}},{"name":"Schulstr.","postalCode":"09232","locality":"Hartmannsdorf","municipality":{"key":"14522260","name":"Hartmannsdorf","type":"Kreisangehörige_Gemeinde"},"district":{"key":"14522","name":"Mittelsachsen","type":"Landkreis"},"federalState":{"key":"14","name":"Sachsen"}},{"name":"Schulstr.","postalCode":"09618","locality":"Großhartmannsdorf","municipality":{"key":"14522200","name":"Großhartmannsdorf","type":"Kreisangehörige_Gemeinde"},"district":{"key":"14522","name":"Mittelsachsen","type":"Landkreis"},"federalState":{"key":"14","name":"Sachsen"}},{"name":"Schulweg","postalCode":"08107","locality":"Hartmannsdorf bei Kirchberg","municipality":{"key":"14524100","name":"Hartmannsdorf b. Kirchberg","type":"Kreisangehörige_Gemeinde"},"district":{"key":"14524","name":"Zwickau","type":"Landkreis"},"federalState":{"key":"14","name":"Sachsen"}},{"name":"Schurichtweg","postalCode":"08107","locality":"Hartmannsdorf bei Kirchberg","municipality":{"key":"14524100","name":"Hartmannsdorf b. Kirchberg","type":"Kreisangehörige_Gemeinde"},"district":{"key":"14524","name":"Zwickau","type":"Landkreis"},"federalState":{"key":"14","name":"Sachsen"}},{"name":"Schwalbener Flügel","postalCode":"08107","locality":"Hartmannsdorf bei Kirchberg","municipality":{"key":"14524100","name":"Hartmannsdorf b. Kirchberg","type":"Kreisangehörige_Gemeinde"},"district":{"key":"14524","name":"Zwickau","type":"Landkreis"},"federalState":{"key":"14","name":"Sachsen"}},{"name":"Schwerdt-Weg","postalCode":"01762","locality":"Hartmannsdorf-Reichenau","municipality":{"key":"14628150","name":"Hartmannsdorf-Reichenau","type":"Kreisangehörige_Gemeinde"},"district":{"key":"14628","name":"Sächsische Schweiz-Osterzgebirge","type":"Landkreis"},"federalState":{"key":"14","name":"Sachsen"}},{"name":"Schwertweg","postalCode":"01762","locality":"Hartmannsdorf-Reichenau","municipality":{"key":"14628150","name":"Hartmannsdorf-Reichenau","type":"Kreisangehörige_Gemeinde"},"district":{"key":"14628","name":"Sächsische Schweiz-Osterzgebirge","type":"Landkreis"},"federalState":{"key":"14","name":"Sachsen"}},{"name":"Siebengüterweg","postalCode":"01762","locality":"Hartmannsdorf-Reichenau","municipality":{"key":"14628150","name":"Hartmannsdorf-Reichenau","type":"Kreisangehörige_Gemeinde"},"district":{"key":"14628","name":"Sächsische Schweiz-Osterzgebirge","type":"Landkreis"},"federalState":{"key":"14","name":"Sachsen"}},{"name":"Siedlungsweg","postalCode":"09232","locality":"Hartmannsdorf","municipality":{"key":"14522260","name":"Hartmannsdorf","type":"Kreisangehörige_Gemeinde"},"district":{"key":"14522","name":"Mittelsachsen","type":"Landkreis"},"federalState":{"key":"14","name":"Sachsen"}},{"name":"Sonnenbergweg","postalCode":"08107","locality":"Hartmannsdorf bei Kirchberg","municipality":{"key":"14524100","name":"Hartmannsdorf b. Kirchberg","type":"Kreisangehörige_Gemeinde"},"district":{"key":"14524","name":"Zwickau","type":"Landkreis"},"federalState":{"key":"14","name":"Sachsen"}},{"name":"Sonnenweg","postalCode":"09232","locality":"Hartmannsdorf","municipality":{"key":"14522260","name":"Hartmannsdorf","type":"Kreisangehörige_Gemeinde"},"district":{"key":"14522","name":"Mittelsachsen","type":"Landkreis"},"federalState":{"key":"14","name":"Sachsen"}},{"name":"Steinbruchweg","postalCode":"09618","locality":"Großhartmannsdorf","municipality":{"key":"14522200","name":"Großhartmannsdorf","type":"Kreisangehörige_Gemeinde"},"district":{"key":"14522","name":"Mittelsachsen","type":"Landkreis"},"federalState":{"key":"14","name":"Sachsen"}},{"name":"Turnstr.","postalCode":"09232","locality":"Hartmannsdorf","municipality":{"key":"14522260","name":"Hartmannsdorf","type":"Kreisangehörige_Gemeinde"},"district":{"key":"14522","name":"Mittelsachsen","type":"Landkreis"},"federalState":{"key":"14","name":"Sachsen"}},{"name":"Untere Dorfstr.","postalCode":"01762","locality":"Hartmannsdorf-Reichenau","municipality":{"key":"14628150","name":"Hartmannsdorf-Reichenau","type":"Kreisangehörige_Gemeinde"},"district":{"key":"14628","name":"Sächsische Schweiz-Osterzgebirge","type":"Landkreis"},"federalState":{"key":"14","name":"Sachsen"}},{"name":"Untere Hauptstr.","postalCode":"09232","locality":"Hartmannsdorf","municipality":{"key":"14522260","name":"Hartmannsdorf","type":"Kreisangehörige_Gemeinde"},"district":{"key":"14522","name":"Mittelsachsen","type":"Landkreis"},"federalState":{"key":"14","name":"Sachsen"}},{"name":"Unterer Hang","postalCode":"08107","locality":"Hartmannsdorf bei Kirchberg","municipality":{"key":"14524100","name":"Hartmannsdorf b. Kirchberg","type":"Kreisangehörige_Gemeinde"},"district":{"key":"14524","name":"Zwickau","type":"Landkreis"},"federalState":{"key":"14","name":"Sachsen"}},{"name":"Untere Ufergasse","postalCode":"09232","locality":"Hartmannsdorf","municipality":{"key":"14522260","name":"Hartmannsdorf","type":"Kreisangehörige_Gemeinde"},"district":{"key":"14522","name":"Mittelsachsen","type":"Landkreis"},"federalState":{"key":"14","name":"Sachsen"}},{"name":"Vater-Jahn-Str.","postalCode":"09232","locality":"Hartmannsdorf","municipality":{"key":"14522260","name":"Hartmannsdorf","type":"Kreisangehörige_Gemeinde"},"district":{"key":"14522","name":"Mittelsachsen","type":"Landkreis"},"federalState":{"key":"14","name":"Sachsen"}},{"name":"Vordere Leite","postalCode":"07586","locality":"Hartmannsdorf","municipality":{"key":"16076026","name":"Hartmannsdorf","type":"Kreisangehörige_Gemeinde"},"district":{"key":"16076","name":"Greiz","type":"Landkreis"},"federalState":{"key":"16","name":"Thüringen"}},{"name":"Wasserschloss Hartmannsdorf","postalCode":"07613","locality":"Hartmannsdorf","municipality":{"key":"16074038","name":"Hartmannsdorf","type":"Kreisangehörige_Gemeinde"},"district":{"key":"16074","name":"Saale-Holzland-Kreis","type":"Landkreis"},"federalState":{"key":"16","name":"Thüringen"}},{"name":"Weg der Freundschaft","postalCode":"07613","locality":"Hartmannsdorf","municipality":{"key":"16074038","name":"Hartmannsdorf","type":"Kreisangehörige_Gemeinde"},"district":{"key":"16074","name":"Saale-Holzland-Kreis","type":"Landkreis"},"federalState":{"key":"16","name":"Thüringen"}},{"name":"Weißeritztalstr.","postalCode":"01762","locality":"Hartmannsdorf-Reichenau","municipality":{"key":"14628150","name":"Hartmannsdorf-Reichenau","type":"Kreisangehörige_Gemeinde"},"district":{"key":"14628","name":"Sächsische Schweiz-Osterzgebirge","type":"Landkreis"},"federalState":{"key":"14","name":"Sachsen"}},{"name":"Weststr.","postalCode":"09232","locality":"Hartmannsdorf","municipality":{"key":"14522260","name":"Hartmannsdorf","type":"Kreisangehörige_Gemeinde"},"district":{"key":"14522","name":"Mittelsachsen","type":"Landkreis"},"federalState":{"key":"14","name":"Sachsen"}},{"name":"Wiesenburger Str.","postalCode":"08107","locality":"Hartmannsdorf bei Kirchberg","municipality":{"key":"14524100","name":"Hartmannsdorf b. Kirchberg","type":"Kreisangehörige_Gemeinde"},"district":{"key":"14524","name":"Zwickau","type":"Landkreis"},"federalState":{"key":"14","name":"Sachsen"}},{"name":"Wiesenweg","postalCode":"09618","locality":"Großhartmannsdorf","municipality":{"key":"14522200","name":"Großhartmannsdorf","type":"Kreisangehörige_Gemeinde"},"district":{"key":"14522","name":"Mittelsachsen","type":"Landkreis"},"federalState":{"key":"14","name":"Sachsen"}},{"name":"Wittgensdorfer Höhe","postalCode":"09228","locality":"Hartmannsdorf","municipality":{"key":"14522260","name":"Hartmannsdorf","type":"Kreisangehörige_Gemeinde"},"district":{"key":"14522","name":"Mittelsachsen","type":"Landkreis"},"federalState":{"key":"14","name":"Sachsen"}},{"name":"Zehntel","postalCode":"09618","locality":"Großhartmannsdorf","municipality":{"key":"14522200","name":"Großhartmannsdorf","type":"Kreisangehörige_Gemeinde"},"district":{"key":"14522","name":"Mittelsachsen","type":"Landkreis"},"federalState":{"key":"14","name":"Sachsen"}},{"name":"Zethauer Str.","postalCode":"09618","locality":"Großhartmannsdorf","municipality":{"key":"14522200","name":"Großhartmannsdorf","type":"Kreisangehörige_Gemeinde"},"district":{"key":"14522","name":"Mittelsachsen","type":"Landkreis"},"federalState":{"key":"14","name":"Sachsen"}},{"name":"Ziegelstr.","postalCode":"09232","locality":"Hartmannsdorf","municipality":{"key":"14522260","name":"Hartmannsdorf","type":"Kreisangehörige_Gemeinde"},"district":{"key":"14522","name":"Mittelsachsen","type":"Landkreis"},"federalState":{"key":"14","name":"Sachsen"}},{"name":"Zwischengasse","postalCode":"07613","locality":"Hartmannsdorf","municipality":{"key":"16074038","name":"Hartmannsdorf","type":"Kreisangehörige_Gemeinde"},"district":{"key":"16074","name":"Saale-Holzland-Kreis","type":"Landkreis"},"federalState":{"key":"16","name":"Thüringen"}},{"name":"Äußere Zeulenrodaer Str.","postalCode":"07973","locality":"Greiz","municipality":{"key":"16076022","name":"Greiz, Stadt","type":"Stadt"},"district":{"key":"16076","name":"Greiz","type":"Landkreis"},"federalState":{"key":"16","name":"Thüringen"}},]