[{"name":"Achalmstr.","postalCode":"72144","locality":"Dußlingen","municipality":{"key":"08416011","name":"Dußlingen","type":"Kreisangehörige_Gemeinde"},"district":{"key":"08416","name":"Tübingen","type":"Landkreis"},"federalState":{"key":"08","name":"Baden-Württemberg"}},{"name":"Ahornweg","postalCode":"72144","locality":"Dußlingen","municipality":{"key":"08416011","name":"Dußlingen","type":"Kreisangehörige_Gemeinde"},"district":{"key":"08416","name":"Tübingen","type":"Landkreis"},"federalState":{"key":"08","name":"Baden-Württemberg"}},{"name":"Akazienweg","postalCode":"72144","locality":"Dußlingen","municipality":{"key":"08416011","name":"Dußlingen","type":"Kreisangehörige_Gemeinde"},"district":{"key":"08416","name":"Tübingen","type":"Landkreis"},"federalState":{"key":"08","name":"Baden-Württemberg"}},{"name":"Albstr.","postalCode":"72144","locality":"Dußlingen","municipality":{"key":"08416011","name":"Dußlingen","type":"Kreisangehörige_Gemeinde"},"district":{"key":"08416","name":"Tübingen","type":"Landkreis"},"federalState":{"key":"08","name":"Baden-Württemberg"}},{"name":"Am Heidelberg","postalCode":"72144","locality":"Dußlingen","municipality":{"key":"08416011","name":"Dußlingen","type":"Kreisangehörige_Gemeinde"},"district":{"key":"08416","name":"Tübingen","type":"Landkreis"},"federalState":{"key":"08","name":"Baden-Württemberg"}},{"name":"Amselweg","postalCode":"72144","locality":"Dußlingen","municipality":{"key":"08416011","name":"Dußlingen","type":"Kreisangehörige_Gemeinde"},"district":{"key":"08416","name":"Tübingen","type":"Landkreis"},"federalState":{"key":"08","name":"Baden-Württemberg"}},{"name":"Am Wasserbau","postalCode":"72144","locality":"Dußlingen","municipality":{"key":"08416011","name":"Dußlingen","type":"Kreisangehörige_Gemeinde"},"district":{"key":"08416","name":"Tübingen","type":"Landkreis"},"federalState":{"key":"08","name":"Baden-Württemberg"}},{"name":"Am Weinbruck","postalCode":"72144","locality":"Dußlingen","municipality":{"key":"08416011","name":"Dußlingen","type":"Kreisangehörige_Gemeinde"},"district":{"key":"08416","name":"Tübingen","type":"Landkreis"},"federalState":{"key":"08","name":"Baden-Württemberg"}},{"name":"An der Steinlach","postalCode":"72144","locality":"Dußlingen","municipality":{"key":"08416011","name":"Dußlingen","type":"Kreisangehörige_Gemeinde"},"district":{"key":"08416","name":"Tübingen","type":"Landkreis"},"federalState":{"key":"08","name":"Baden-Württemberg"}},{"name":"Aspenhof","postalCode":"72144","locality":"Dußlingen","municipality":{"key":"08416011","name":"Dußlingen","type":"Kreisangehörige_Gemeinde"},"district":{"key":"08416","name":"Tübingen","type":"Landkreis"},"federalState":{"key":"08","name":"Baden-Württemberg"}},{"name":"Austr.","postalCode":"72144","locality":"Dußlingen","municipality":{"key":"08416011","name":"Dußlingen","type":"Kreisangehörige_Gemeinde"},"district":{"key":"08416","name":"Tübingen","type":"Landkreis"},"federalState":{"key":"08","name":"Baden-Württemberg"}},{"name":"Bahnhofstr.","postalCode":"72144","locality":"Dußlingen","municipality":{"key":"08416011","name":"Dußlingen","type":"Kreisangehörige_Gemeinde"},"district":{"key":"08416","name":"Tübingen","type":"Landkreis"},"federalState":{"key":"08","name":"Baden-Württemberg"}},{"name":"Balthas-Dieter-Weg","postalCode":"72144","locality":"Dußlingen","municipality":{"key":"08416011","name":"Dußlingen","type":"Kreisangehörige_Gemeinde"},"district":{"key":"08416","name":"Tübingen","type":"Landkreis"},"federalState":{"key":"08","name":"Baden-Württemberg"}},{"name":"Beim Jägerhaus","postalCode":"72144","locality":"Dußlingen","municipality":{"key":"08416011","name":"Dußlingen","type":"Kreisangehörige_Gemeinde"},"district":{"key":"08416","name":"Tübingen","type":"Landkreis"},"federalState":{"key":"08","name":"Baden-Württemberg"}},{"name":"Beim Törle","postalCode":"72144","locality":"Dußlingen","municipality":{"key":"08416011","name":"Dußlingen","type":"Kreisangehörige_Gemeinde"},"district":{"key":"08416","name":"Tübingen","type":"Landkreis"},"federalState":{"key":"08","name":"Baden-Württemberg"}},{"name":"Berggäßle","postalCode":"72144","locality":"Dußlingen","municipality":{"key":"08416011","name":"Dußlingen","type":"Kreisangehörige_Gemeinde"},"district":{"key":"08416","name":"Tübingen","type":"Landkreis"},"federalState":{"key":"08","name":"Baden-Württemberg"}},{"name":"Bergweg","postalCode":"72144","locality":"Dußlingen","municipality":{"key":"08416011","name":"Dußlingen","type":"Kreisangehörige_Gemeinde"},"district":{"key":"08416","name":"Tübingen","type":"Landkreis"},"federalState":{"key":"08","name":"Baden-Württemberg"}},{"name":"Birkenstr.","postalCode":"72144","locality":"Dußlingen","municipality":{"key":"08416011","name":"Dußlingen","type":"Kreisangehörige_Gemeinde"},"district":{"key":"08416","name":"Tübingen","type":"Landkreis"},"federalState":{"key":"08","name":"Baden-Württemberg"}},{"name":"Blumenstr.","postalCode":"72144","locality":"Dußlingen","municipality":{"key":"08416011","name":"Dußlingen","type":"Kreisangehörige_Gemeinde"},"district":{"key":"08416","name":"Tübingen","type":"Landkreis"},"federalState":{"key":"08","name":"Baden-Württemberg"}},{"name":"Breitenäcker","postalCode":"72144","locality":"Dußlingen","municipality":{"key":"08416011","name":"Dußlingen","type":"Kreisangehörige_Gemeinde"},"district":{"key":"08416","name":"Tübingen","type":"Landkreis"},"federalState":{"key":"08","name":"Baden-Württemberg"}},{"name":"Brühlhag","postalCode":"72144","locality":"Dußlingen","municipality":{"key":"08416011","name":"Dußlingen","type":"Kreisangehörige_Gemeinde"},"district":{"key":"08416","name":"Tübingen","type":"Landkreis"},"federalState":{"key":"08","name":"Baden-Württemberg"}},{"name":"Brunnenwiesen","postalCode":"72144","locality":"Dußlingen","municipality":{"key":"08416011","name":"Dußlingen","type":"Kreisangehörige_Gemeinde"},"district":{"key":"08416","name":"Tübingen","type":"Landkreis"},"federalState":{"key":"08","name":"Baden-Württemberg"}},{"name":"Buchenstr.","postalCode":"72144","locality":"Dußlingen","municipality":{"key":"08416011","name":"Dußlingen","type":"Kreisangehörige_Gemeinde"},"district":{"key":"08416","name":"Tübingen","type":"Landkreis"},"federalState":{"key":"08","name":"Baden-Württemberg"}},{"name":"Buchsbaumweg","postalCode":"72144","locality":"Dußlingen","municipality":{"key":"08416011","name":"Dußlingen","type":"Kreisangehörige_Gemeinde"},"district":{"key":"08416","name":"Tübingen","type":"Landkreis"},"federalState":{"key":"08","name":"Baden-Württemberg"}},{"name":"Bundachstr.","postalCode":"72144","locality":"Dußlingen","municipality":{"key":"08416011","name":"Dußlingen","type":"Kreisangehörige_Gemeinde"},"district":{"key":"08416","name":"Tübingen","type":"Landkreis"},"federalState":{"key":"08","name":"Baden-Württemberg"}},{"name":"Bürgergasse","postalCode":"72144","locality":"Dußlingen","municipality":{"key":"08416011","name":"Dußlingen","type":"Kreisangehörige_Gemeinde"},"district":{"key":"08416","name":"Tübingen","type":"Landkreis"},"federalState":{"key":"08","name":"Baden-Württemberg"}},{"name":"Bürgerpark","postalCode":"72144","locality":"Dußlingen","municipality":{"key":"08416011","name":"Dußlingen","type":"Kreisangehörige_Gemeinde"},"district":{"key":"08416","name":"Tübingen","type":"Landkreis"},"federalState":{"key":"08","name":"Baden-Württemberg"}},{"name":"Burggartenweg","postalCode":"72144","locality":"Dußlingen","municipality":{"key":"08416011","name":"Dußlingen","type":"Kreisangehörige_Gemeinde"},"district":{"key":"08416","name":"Tübingen","type":"Landkreis"},"federalState":{"key":"08","name":"Baden-Württemberg"}},{"name":"Burgstr.","postalCode":"72144","locality":"Dußlingen","municipality":{"key":"08416011","name":"Dußlingen","type":"Kreisangehörige_Gemeinde"},"district":{"key":"08416","name":"Tübingen","type":"Landkreis"},"federalState":{"key":"08","name":"Baden-Württemberg"}},{"name":"Calwerstr.","postalCode":"72070","locality":"Tübingen","municipality":{"key":"08416041","name":"Tübingen, Universitätsstadt","type":"Große_Kreisstadt"},"district":{"key":"08416","name":"Tübingen","type":"Landkreis"},"federalState":{"key":"08","name":"Baden-Württemberg"}},{"name":"Calwerstr.","postalCode":"72076","locality":"Tübingen","municipality":{"key":"08416041","name":"Tübingen, Universitätsstadt","type":"Große_Kreisstadt"},"district":{"key":"08416","name":"Tübingen","type":"Landkreis"},"federalState":{"key":"08","name":"Baden-Württemberg"}},{"name":"Carlo-Steeb-Str.","postalCode":"72074","locality":"Tübingen","municipality":{"key":"08416041","name":"Tübingen, Universitätsstadt","type":"Große_Kreisstadt"},"district":{"key":"08416","name":"Tübingen","type":"Landkreis"},"federalState":{"key":"08","name":"Baden-Württemberg"}},{"name":"Cezanneweg","postalCode":"72072","locality":"Tübingen","municipality":{"key":"08416041","name":"Tübingen, Universitätsstadt","type":"Große_Kreisstadt"},"district":{"key":"08416","name":"Tübingen","type":"Landkreis"},"federalState":{"key":"08","name":"Baden-Württemberg"}},{"name":"Charlottenstr.","postalCode":"72070","locality":"Tübingen","municipality":{"key":"08416041","name":"Tübingen, Universitätsstadt","type":"Große_Kreisstadt"},"district":{"key":"08416","name":"Tübingen","type":"Landkreis"},"federalState":{"key":"08","name":"Baden-Württemberg"}},{"name":"Christian-Laupp-Str.","postalCode":"72072","locality":"Tübingen","municipality":{"key":"08416041","name":"Tübingen, Universitätsstadt","type":"Große_Kreisstadt"},"district":{"key":"08416","name":"Tübingen","type":"Landkreis"},"federalState":{"key":"08","name":"Baden-Württemberg"}},{"name":"Christophstr.","postalCode":"72072","locality":"Tübingen","municipality":{"key":"08416041","name":"Tübingen, Universitätsstadt","type":"Große_Kreisstadt"},"district":{"key":"08416","name":"Tübingen","type":"Landkreis"},"federalState":{"key":"08","name":"Baden-Württemberg"}},{"name":"Clara-Zetkin-Str.","postalCode":"72074","locality":"Tübingen","municipality":{"key":"08416041","name":"Tübingen, Universitätsstadt","type":"Große_Kreisstadt"},"district":{"key":"08416","name":"Tübingen","type":"Landkreis"},"federalState":{"key":"08","name":"Baden-Württemberg"}},{"name":"Clinicumsgasse","postalCode":"72070","locality":"Tübingen","municipality":{"key":"08416041","name":"Tübingen, Universitätsstadt","type":"Große_Kreisstadt"},"district":{"key":"08416","name":"Tübingen","type":"Landkreis"},"federalState":{"key":"08","name":"Baden-Württemberg"}},{"name":"Closenweg","postalCode":"72072","locality":"Tübingen","municipality":{"key":"08416041","name":"Tübingen, Universitätsstadt","type":"Große_Kreisstadt"},"district":{"key":"08416","name":"Tübingen","type":"Landkreis"},"federalState":{"key":"08","name":"Baden-Württemberg"}},{"name":"Closen Weg","postalCode":"72072","locality":"Tübingen","municipality":{"key":"08416041","name":"Tübingen, Universitätsstadt","type":"Große_Kreisstadt"},"district":{"key":"08416","name":"Tübingen","type":"Landkreis"},"federalState":{"key":"08","name":"Baden-Württemberg"}},{"name":"Clubhaus-Garten","postalCode":"72074","locality":"Tübingen","municipality":{"key":"08416041","name":"Tübingen, Universitätsstadt","type":"Große_Kreisstadt"},"district":{"key":"08416","name":"Tübingen","type":"Landkreis"},"federalState":{"key":"08","name":"Baden-Württemberg"}},{"name":"Collegiumsgasse","postalCode":"72070","locality":"Tübingen","municipality":{"key":"08416041","name":"Tübingen, Universitätsstadt","type":"Große_Kreisstadt"},"district":{"key":"08416","name":"Tübingen","type":"Landkreis"},"federalState":{"key":"08","name":"Baden-Württemberg"}},{"name":"Corrensstr.","postalCode":"72076","locality":"Tübingen","municipality":{"key":"08416041","name":"Tübingen, Universitätsstadt","type":"Große_Kreisstadt"},"district":{"key":"08416","name":"Tübingen","type":"Landkreis"},"federalState":{"key":"08","name":"Baden-Württemberg"}},{"name":"Cottaweg","postalCode":"72070","locality":"Tübingen","municipality":{"key":"08416041","name":"Tübingen, Universitätsstadt","type":"Große_Kreisstadt"},"district":{"key":"08416","name":"Tübingen","type":"Landkreis"},"federalState":{"key":"08","name":"Baden-Württemberg"}},{"name":"Cranachweg","postalCode":"72076","locality":"Tübingen","municipality":{"key":"08416041","name":"Tübingen, Universitätsstadt","type":"Große_Kreisstadt"},"district":{"key":"08416","name":"Tübingen","type":"Landkreis"},"federalState":{"key":"08","name":"Baden-Württemberg"}},{"name":"Dorfstr.","postalCode":"72144","locality":"Dußlingen","municipality":{"key":"08416011","name":"Dußlingen","type":"Kreisangehörige_Gemeinde"},"district":{"key":"08416","name":"Tübingen","type":"Landkreis"},"federalState":{"key":"08","name":"Baden-Württemberg"}},{"name":"Drosselweg","postalCode":"72144","locality":"Dußlingen","municipality":{"key":"08416011","name":"Dußlingen","type":"Kreisangehörige_Gemeinde"},"district":{"key":"08416","name":"Tübingen","type":"Landkreis"},"federalState":{"key":"08","name":"Baden-Württemberg"}},{"name":"Eichachstr.","postalCode":"72144","locality":"Dußlingen","municipality":{"key":"08416011","name":"Dußlingen","type":"Kreisangehörige_Gemeinde"},"district":{"key":"08416","name":"Tübingen","type":"Landkreis"},"federalState":{"key":"08","name":"Baden-Württemberg"}},{"name":"Erlenstr.","postalCode":"72144","locality":"Dußlingen","municipality":{"key":"08416011","name":"Dußlingen","type":"Kreisangehörige_Gemeinde"},"district":{"key":"08416","name":"Tübingen","type":"Landkreis"},"federalState":{"key":"08","name":"Baden-Württemberg"}},{"name":"Erwin-Herzog-Weg","postalCode":"72144","locality":"Dußlingen","municipality":{"key":"08416011","name":"Dußlingen","type":"Kreisangehörige_Gemeinde"},"district":{"key":"08416","name":"Tübingen","type":"Landkreis"},"federalState":{"key":"08","name":"Baden-Württemberg"}},{"name":"Eschenweg","postalCode":"72144","locality":"Dußlingen","municipality":{"key":"08416011","name":"Dußlingen","type":"Kreisangehörige_Gemeinde"},"district":{"key":"08416","name":"Tübingen","type":"Landkreis"},"federalState":{"key":"08","name":"Baden-Württemberg"}},{"name":"Farrenbergweg","postalCode":"72144","locality":"Dußlingen","municipality":{"key":"08416011","name":"Dußlingen","type":"Kreisangehörige_Gemeinde"},"district":{"key":"08416","name":"Tübingen","type":"Landkreis"},"federalState":{"key":"08","name":"Baden-Württemberg"}},{"name":"Fichtenweg","postalCode":"72144","locality":"Dußlingen","municipality":{"key":"08416011","name":"Dußlingen","type":"Kreisangehörige_Gemeinde"},"district":{"key":"08416","name":"Tübingen","type":"Landkreis"},"federalState":{"key":"08","name":"Baden-Württemberg"}},{"name":"Filsenbergstr.","postalCode":"72144","locality":"Dußlingen","municipality":{"key":"08416011","name":"Dußlingen","type":"Kreisangehörige_Gemeinde"},"district":{"key":"08416","name":"Tübingen","type":"Landkreis"},"federalState":{"key":"08","name":"Baden-Württemberg"}},{"name":"Finkenweg","postalCode":"72144","locality":"Dußlingen","municipality":{"key":"08416011","name":"Dußlingen","type":"Kreisangehörige_Gemeinde"},"district":{"key":"08416","name":"Tübingen","type":"Landkreis"},"federalState":{"key":"08","name":"Baden-Württemberg"}},{"name":"Forchenweg","postalCode":"72144","locality":"Dußlingen","municipality":{"key":"08416011","name":"Dußlingen","type":"Kreisangehörige_Gemeinde"},"district":{"key":"08416","name":"Tübingen","type":"Landkreis"},"federalState":{"key":"08","name":"Baden-Württemberg"}},{"name":"Gartenstr.","postalCode":"72144","locality":"Dußlingen","municipality":{"key":"08416011","name":"Dußlingen","type":"Kreisangehörige_Gemeinde"},"district":{"key":"08416","name":"Tübingen","type":"Landkreis"},"federalState":{"key":"08","name":"Baden-Württemberg"}},{"name":"Geierweg","postalCode":"72144","locality":"Dußlingen","municipality":{"key":"08416011","name":"Dußlingen","type":"Kreisangehörige_Gemeinde"},"district":{"key":"08416","name":"Tübingen","type":"Landkreis"},"federalState":{"key":"08","name":"Baden-Württemberg"}},{"name":"Goethestr.","postalCode":"72144","locality":"Dußlingen","municipality":{"key":"08416011","name":"Dußlingen","type":"Kreisangehörige_Gemeinde"},"district":{"key":"08416","name":"Tübingen","type":"Landkreis"},"federalState":{"key":"08","name":"Baden-Württemberg"}},{"name":"Haldenhof","postalCode":"72144","locality":"Dußlingen","municipality":{"key":"08416011","name":"Dußlingen","type":"Kreisangehörige_Gemeinde"},"district":{"key":"08416","name":"Tübingen","type":"Landkreis"},"federalState":{"key":"08","name":"Baden-Württemberg"}},{"name":"Haldenweg","postalCode":"72144","locality":"Dußlingen","municipality":{"key":"08416011","name":"Dußlingen","type":"Kreisangehörige_Gemeinde"},"district":{"key":"08416","name":"Tübingen","type":"Landkreis"},"federalState":{"key":"08","name":"Baden-Württemberg"}},{"name":"Hallstattstr.","postalCode":"72144","locality":"Dußlingen","municipality":{"key":"08416011","name":"Dußlingen","type":"Kreisangehörige_Gemeinde"},"district":{"key":"08416","name":"Tübingen","type":"Landkreis"},"federalState":{"key":"08","name":"Baden-Württemberg"}},{"name":"Hauffstr.","postalCode":"72144","locality":"Dußlingen","municipality":{"key":"08416011","name":"Dußlingen","type":"Kreisangehörige_Gemeinde"},"district":{"key":"08416","name":"Tübingen","type":"Landkreis"},"federalState":{"key":"08","name":"Baden-Württemberg"}},{"name":"Hechinger Str.","postalCode":"72144","locality":"Dußlingen","municipality":{"key":"08416011","name":"Dußlingen","type":"Kreisangehörige_Gemeinde"},"district":{"key":"08416","name":"Tübingen","type":"Landkreis"},"federalState":{"key":"08","name":"Baden-Württemberg"}},{"name":"Heideweg","postalCode":"72144","locality":"Dußlingen","municipality":{"key":"08416011","name":"Dußlingen","type":"Kreisangehörige_Gemeinde"},"district":{"key":"08416","name":"Tübingen","type":"Landkreis"},"federalState":{"key":"08","name":"Baden-Württemberg"}},{"name":"Hindenburgplatz","postalCode":"72144","locality":"Dußlingen","municipality":{"key":"08416011","name":"Dußlingen","type":"Kreisangehörige_Gemeinde"},"district":{"key":"08416","name":"Tübingen","type":"Landkreis"},"federalState":{"key":"08","name":"Baden-Württemberg"}},{"name":"Hintere Austr.","postalCode":"72144","locality":"Dußlingen","municipality":{"key":"08416011","name":"Dußlingen","type":"Kreisangehörige_Gemeinde"},"district":{"key":"08416","name":"Tübingen","type":"Landkreis"},"federalState":{"key":"08","name":"Baden-Württemberg"}},{"name":"Hofstatt","postalCode":"72144","locality":"Dußlingen","municipality":{"key":"08416011","name":"Dußlingen","type":"Kreisangehörige_Gemeinde"},"district":{"key":"08416","name":"Tübingen","type":"Landkreis"},"federalState":{"key":"08","name":"Baden-Württemberg"}},{"name":"Hohe Lehr","postalCode":"72144","locality":"Dußlingen","municipality":{"key":"08416011","name":"Dußlingen","type":"Kreisangehörige_Gemeinde"},"district":{"key":"08416","name":"Tübingen","type":"Landkreis"},"federalState":{"key":"08","name":"Baden-Württemberg"}},{"name":"Hohenzollernstr.","postalCode":"72144","locality":"Dußlingen","municipality":{"key":"08416011","name":"Dußlingen","type":"Kreisangehörige_Gemeinde"},"district":{"key":"08416","name":"Tübingen","type":"Landkreis"},"federalState":{"key":"08","name":"Baden-Württemberg"}},{"name":"Hölderlinweg","postalCode":"72144","locality":"Dußlingen","municipality":{"key":"08416011","name":"Dußlingen","type":"Kreisangehörige_Gemeinde"},"district":{"key":"08416","name":"Tübingen","type":"Landkreis"},"federalState":{"key":"08","name":"Baden-Württemberg"}},{"name":"Im Brühl","postalCode":"72144","locality":"Dußlingen","municipality":{"key":"08416011","name":"Dußlingen","type":"Kreisangehörige_Gemeinde"},"district":{"key":"08416","name":"Tübingen","type":"Landkreis"},"federalState":{"key":"08","name":"Baden-Württemberg"}},{"name":"Im Gäßle","postalCode":"72144","locality":"Dußlingen","municipality":{"key":"08416011","name":"Dußlingen","type":"Kreisangehörige_Gemeinde"},"district":{"key":"08416","name":"Tübingen","type":"Landkreis"},"federalState":{"key":"08","name":"Baden-Württemberg"}},{"name":"Im Kreben","postalCode":"72144","locality":"Dußlingen","municipality":{"key":"08416011","name":"Dußlingen","type":"Kreisangehörige_Gemeinde"},"district":{"key":"08416","name":"Tübingen","type":"Landkreis"},"federalState":{"key":"08","name":"Baden-Württemberg"}},{"name":"Im Steinig","postalCode":"72144","locality":"Dußlingen","municipality":{"key":"08416011","name":"Dußlingen","type":"Kreisangehörige_Gemeinde"},"district":{"key":"08416","name":"Tübingen","type":"Landkreis"},"federalState":{"key":"08","name":"Baden-Württemberg"}},{"name":"Jahnstr.","postalCode":"72144","locality":"Dußlingen","municipality":{"key":"08416011","name":"Dußlingen","type":"Kreisangehörige_Gemeinde"},"district":{"key":"08416","name":"Tübingen","type":"Landkreis"},"federalState":{"key":"08","name":"Baden-Württemberg"}},{"name":"Kanalstr.","postalCode":"72144","locality":"Dußlingen","municipality":{"key":"08416011","name":"Dußlingen","type":"Kreisangehörige_Gemeinde"},"district":{"key":"08416","name":"Tübingen","type":"Landkreis"},"federalState":{"key":"08","name":"Baden-Württemberg"}},{"name":"Kappelstr.","postalCode":"72144","locality":"Dußlingen","municipality":{"key":"08416011","name":"Dußlingen","type":"Kreisangehörige_Gemeinde"},"district":{"key":"08416","name":"Tübingen","type":"Landkreis"},"federalState":{"key":"08","name":"Baden-Württemberg"}},{"name":"Kastanienweg","postalCode":"72144","locality":"Dußlingen","municipality":{"key":"08416011","name":"Dußlingen","type":"Kreisangehörige_Gemeinde"},"district":{"key":"08416","name":"Tübingen","type":"Landkreis"},"federalState":{"key":"08","name":"Baden-Württemberg"}},{"name":"Kirchstr.","postalCode":"72144","locality":"Dußlingen","municipality":{"key":"08416011","name":"Dußlingen","type":"Kreisangehörige_Gemeinde"},"district":{"key":"08416","name":"Tübingen","type":"Landkreis"},"federalState":{"key":"08","name":"Baden-Württemberg"}},{"name":"Kraußengasse","postalCode":"72144","locality":"Dußlingen","municipality":{"key":"08416011","name":"Dußlingen","type":"Kreisangehörige_Gemeinde"},"district":{"key":"08416","name":"Tübingen","type":"Landkreis"},"federalState":{"key":"08","name":"Baden-Württemberg"}},{"name":"Kreßbacher Str.","postalCode":"72144","locality":"Dußlingen","municipality":{"key":"08416011","name":"Dußlingen","type":"Kreisangehörige_Gemeinde"},"district":{"key":"08416","name":"Tübingen","type":"Landkreis"},"federalState":{"key":"08","name":"Baden-Württemberg"}},{"name":"Kurze Str.","postalCode":"72144","locality":"Dußlingen","municipality":{"key":"08416011","name":"Dußlingen","type":"Kreisangehörige_Gemeinde"},"district":{"key":"08416","name":"Tübingen","type":"Landkreis"},"federalState":{"key":"08","name":"Baden-Württemberg"}},{"name":"Lachenweg","postalCode":"72144","locality":"Dußlingen","municipality":{"key":"08416011","name":"Dußlingen","type":"Kreisangehörige_Gemeinde"},"district":{"key":"08416","name":"Tübingen","type":"Landkreis"},"federalState":{"key":"08","name":"Baden-Württemberg"}},{"name":"Landhausstr.","postalCode":"72144","locality":"Dußlingen","municipality":{"key":"08416011","name":"Dußlingen","type":"Kreisangehörige_Gemeinde"},"district":{"key":"08416","name":"Tübingen","type":"Landkreis"},"federalState":{"key":"08","name":"Baden-Württemberg"}},{"name":"Langer Wasen","postalCode":"72144","locality":"Dußlingen","municipality":{"key":"08416011","name":"Dußlingen","type":"Kreisangehörige_Gemeinde"},"district":{"key":"08416","name":"Tübingen","type":"Landkreis"},"federalState":{"key":"08","name":"Baden-Württemberg"}},{"name":"Lärchenweg","postalCode":"72144","locality":"Dußlingen","municipality":{"key":"08416011","name":"Dußlingen","type":"Kreisangehörige_Gemeinde"},"district":{"key":"08416","name":"Tübingen","type":"Landkreis"},"federalState":{"key":"08","name":"Baden-Württemberg"}},{"name":"Lehlepark","postalCode":"72144","locality":"Dußlingen","municipality":{"key":"08416011","name":"Dußlingen","type":"Kreisangehörige_Gemeinde"},"district":{"key":"08416","name":"Tübingen","type":"Landkreis"},"federalState":{"key":"08","name":"Baden-Württemberg"}},{"name":"Lehlestr.","postalCode":"72144","locality":"Dußlingen","municipality":{"key":"08416011","name":"Dußlingen","type":"Kreisangehörige_Gemeinde"},"district":{"key":"08416","name":"Tübingen","type":"Landkreis"},"federalState":{"key":"08","name":"Baden-Württemberg"}},{"name":"Lehrgasse","postalCode":"72144","locality":"Dußlingen","municipality":{"key":"08416011","name":"Dußlingen","type":"Kreisangehörige_Gemeinde"},"district":{"key":"08416","name":"Tübingen","type":"Landkreis"},"federalState":{"key":"08","name":"Baden-Württemberg"}},{"name":"Lichtensteinstr.","postalCode":"72144","locality":"Dußlingen","municipality":{"key":"08416011","name":"Dußlingen","type":"Kreisangehörige_Gemeinde"},"district":{"key":"08416","name":"Tübingen","type":"Landkreis"},"federalState":{"key":"08","name":"Baden-Württemberg"}},{"name":"Lindengasse","postalCode":"72144","locality":"Dußlingen","municipality":{"key":"08416011","name":"Dußlingen","type":"Kreisangehörige_Gemeinde"},"district":{"key":"08416","name":"Tübingen","type":"Landkreis"},"federalState":{"key":"08","name":"Baden-Württemberg"}},{"name":"Maiengasse","postalCode":"72144","locality":"Dußlingen","municipality":{"key":"08416011","name":"Dußlingen","type":"Kreisangehörige_Gemeinde"},"district":{"key":"08416","name":"Tübingen","type":"Landkreis"},"federalState":{"key":"08","name":"Baden-Württemberg"}},{"name":"Maltschachstr.","postalCode":"72144","locality":"Dußlingen","municipality":{"key":"08416011","name":"Dußlingen","type":"Kreisangehörige_Gemeinde"},"district":{"key":"08416","name":"Tübingen","type":"Landkreis"},"federalState":{"key":"08","name":"Baden-Württemberg"}},{"name":"Marktweg","postalCode":"72144","locality":"Dußlingen","municipality":{"key":"08416011","name":"Dußlingen","type":"Kreisangehörige_Gemeinde"},"district":{"key":"08416","name":"Tübingen","type":"Landkreis"},"federalState":{"key":"08","name":"Baden-Württemberg"}},{"name":"Martin-Vollmer-Weg","postalCode":"72144","locality":"Dußlingen","municipality":{"key":"08416011","name":"Dußlingen","type":"Kreisangehörige_Gemeinde"},"district":{"key":"08416","name":"Tübingen","type":"Landkreis"},"federalState":{"key":"08","name":"Baden-Württemberg"}},{"name":"Mittelstr.","postalCode":"72144","locality":"Dußlingen","municipality":{"key":"08416011","name":"Dußlingen","type":"Kreisangehörige_Gemeinde"},"district":{"key":"08416","name":"Tübingen","type":"Landkreis"},"federalState":{"key":"08","name":"Baden-Württemberg"}},{"name":"Mörikestr.","postalCode":"72144","locality":"Dußlingen","municipality":{"key":"08416011","name":"Dußlingen","type":"Kreisangehörige_Gemeinde"},"district":{"key":"08416","name":"Tübingen","type":"Landkreis"},"federalState":{"key":"08","name":"Baden-Württemberg"}},{"name":"Mühlackerstr.","postalCode":"72144","locality":"Dußlingen","municipality":{"key":"08416011","name":"Dußlingen","type":"Kreisangehörige_Gemeinde"},"district":{"key":"08416","name":"Tübingen","type":"Landkreis"},"federalState":{"key":"08","name":"Baden-Württemberg"}},{"name":"Mühlgasse","postalCode":"72144","locality":"Dußlingen","municipality":{"key":"08416011","name":"Dußlingen","type":"Kreisangehörige_Gemeinde"},"district":{"key":"08416","name":"Tübingen","type":"Landkreis"},"federalState":{"key":"08","name":"Baden-Württemberg"}},{"name":"Nehrener Str.","postalCode":"72144","locality":"Dußlingen","municipality":{"key":"08416011","name":"Dußlingen","type":"Kreisangehörige_Gemeinde"},"district":{"key":"08416","name":"Tübingen","type":"Landkreis"},"federalState":{"key":"08","name":"Baden-Württemberg"}},{"name":"Nelkenstr.","postalCode":"72144","locality":"Dußlingen","municipality":{"key":"08416011","name":"Dußlingen","type":"Kreisangehörige_Gemeinde"},"district":{"key":"08416","name":"Tübingen","type":"Landkreis"},"federalState":{"key":"08","name":"Baden-Württemberg"}},{"name":"Niederhofenstr.","postalCode":"72144","locality":"Dußlingen","municipality":{"key":"08416011","name":"Dußlingen","type":"Kreisangehörige_Gemeinde"},"district":{"key":"08416","name":"Tübingen","type":"Landkreis"},"federalState":{"key":"08","name":"Baden-Württemberg"}},{"name":"Ob dem Himmelreich","postalCode":"72074","locality":"Tübingen","municipality":{"key":"08416041","name":"Tübingen, Universitätsstadt","type":"Große_Kreisstadt"},"district":{"key":"08416","name":"Tübingen","type":"Landkreis"},"federalState":{"key":"08","name":"Baden-Württemberg"}},{"name":"Ob dem Viehweidle","postalCode":"72076","locality":"Tübingen","municipality":{"key":"08416041","name":"Tübingen, Universitätsstadt","type":"Große_Kreisstadt"},"district":{"key":"08416","name":"Tübingen","type":"Landkreis"},"federalState":{"key":"08","name":"Baden-Württemberg"}},{"name":"Ob der Ammer","postalCode":"72070","locality":"Tübingen","municipality":{"key":"08416041","name":"Tübingen, Universitätsstadt","type":"Große_Kreisstadt"},"district":{"key":"08416","name":"Tübingen","type":"Landkreis"},"federalState":{"key":"08","name":"Baden-Württemberg"}},{"name":"Ob der Grafenhalde","postalCode":"72076","locality":"Tübingen","municipality":{"key":"08416041","name":"Tübingen, Universitätsstadt","type":"Große_Kreisstadt"},"district":{"key":"08416","name":"Tübingen","type":"Landkreis"},"federalState":{"key":"08","name":"Baden-Württemberg"}},{"name":"Obere Gasse","postalCode":"72070","locality":"Tübingen","municipality":{"key":"08416041","name":"Tübingen, Universitätsstadt","type":"Große_Kreisstadt"},"district":{"key":"08416","name":"Tübingen","type":"Landkreis"},"federalState":{"key":"08","name":"Baden-Württemberg"}},{"name":"Obere Haldenstr.","postalCode":"72074","locality":"Tübingen","municipality":{"key":"08416041","name":"Tübingen, Universitätsstadt","type":"Große_Kreisstadt"},"district":{"key":"08416","name":"Tübingen","type":"Landkreis"},"federalState":{"key":"08","name":"Baden-Württemberg"}},{"name":"Obere Heulandsteige","postalCode":"72076","locality":"Tübingen","municipality":{"key":"08416041","name":"Tübingen, Universitätsstadt","type":"Große_Kreisstadt"},"district":{"key":"08416","name":"Tübingen","type":"Landkreis"},"federalState":{"key":"08","name":"Baden-Württemberg"}},{"name":"Oberer Fichtenwaldweg","postalCode":"72070","locality":"Tübingen","municipality":{"key":"08416041","name":"Tübingen, Universitätsstadt","type":"Große_Kreisstadt"},"district":{"key":"08416","name":"Tübingen","type":"Landkreis"},"federalState":{"key":"08","name":"Baden-Württemberg"}},{"name":"Oberer Holzackerweg","postalCode":"72070","locality":"Tübingen","municipality":{"key":"08416041","name":"Tübingen, Universitätsstadt","type":"Große_Kreisstadt"},"district":{"key":"08416","name":"Tübingen","type":"Landkreis"},"federalState":{"key":"08","name":"Baden-Württemberg"}},{"name":"Oberer Mauernweg","postalCode":"72070","locality":"Tübingen","municipality":{"key":"08416041","name":"Tübingen, Universitätsstadt","type":"Große_Kreisstadt"},"district":{"key":"08416","name":"Tübingen","type":"Landkreis"},"federalState":{"key":"08","name":"Baden-Württemberg"}},{"name":"Oberer Ramshaldeweg","postalCode":"72072","locality":"Tübingen","municipality":{"key":"08416041","name":"Tübingen, Universitätsstadt","type":"Große_Kreisstadt"},"district":{"key":"08416","name":"Tübingen","type":"Landkreis"},"federalState":{"key":"08","name":"Baden-Württemberg"}},{"name":"Oberer Roter-Rain-Weg","postalCode":"72076","locality":"Tübingen","municipality":{"key":"08416041","name":"Tübingen, Universitätsstadt","type":"Große_Kreisstadt"},"district":{"key":"08416","name":"Tübingen","type":"Landkreis"},"federalState":{"key":"08","name":"Baden-Württemberg"}},{"name":"Oberer Sandklingenweg","postalCode":"72070","locality":"Tübingen","municipality":{"key":"08416041","name":"Tübingen, Universitätsstadt","type":"Große_Kreisstadt"},"district":{"key":"08416","name":"Tübingen","type":"Landkreis"},"federalState":{"key":"08","name":"Baden-Württemberg"}},{"name":"Oberer Schachbaumweg","postalCode":"72076","locality":"Tübingen","municipality":{"key":"08416041","name":"Tübingen, Universitätsstadt","type":"Große_Kreisstadt"},"district":{"key":"08416","name":"Tübingen","type":"Landkreis"},"federalState":{"key":"08","name":"Baden-Württemberg"}},{"name":"Oberer Talweg","postalCode":"72070","locality":"Tübingen","municipality":{"key":"08416041","name":"Tübingen, Universitätsstadt","type":"Große_Kreisstadt"},"district":{"key":"08416","name":"Tübingen","type":"Landkreis"},"federalState":{"key":"08","name":"Baden-Württemberg"}},{"name":"Oberer Weg","postalCode":"72070","locality":"Tübingen","municipality":{"key":"08416041","name":"Tübingen, Universitätsstadt","type":"Große_Kreisstadt"},"district":{"key":"08416","name":"Tübingen","type":"Landkreis"},"federalState":{"key":"08","name":"Baden-Württemberg"}},{"name":"Oberer Wiesenweg","postalCode":"72072","locality":"Tübingen","municipality":{"key":"08416041","name":"Tübingen, Universitätsstadt","type":"Große_Kreisstadt"},"district":{"key":"08416","name":"Tübingen","type":"Landkreis"},"federalState":{"key":"08","name":"Baden-Württemberg"}},{"name":"Obere Schillerstr.","postalCode":"72076","locality":"Tübingen","municipality":{"key":"08416041","name":"Tübingen, Universitätsstadt","type":"Große_Kreisstadt"},"district":{"key":"08416","name":"Tübingen","type":"Landkreis"},"federalState":{"key":"08","name":"Baden-Württemberg"}},{"name":"Obergärtenweg","postalCode":"72070","locality":"Tübingen","municipality":{"key":"08416041","name":"Tübingen, Universitätsstadt","type":"Große_Kreisstadt"},"district":{"key":"08416","name":"Tübingen","type":"Landkreis"},"federalState":{"key":"08","name":"Baden-Württemberg"}},{"name":"Obstschützenhäusleweg","postalCode":"72072","locality":"Tübingen","municipality":{"key":"08416041","name":"Tübingen, Universitätsstadt","type":"Große_Kreisstadt"},"district":{"key":"08416","name":"Tübingen","type":"Landkreis"},"federalState":{"key":"08","name":"Baden-Württemberg"}},{"name":"Olgahainweg","postalCode":"72074","locality":"Tübingen","municipality":{"key":"08416041","name":"Tübingen, Universitätsstadt","type":"Große_Kreisstadt"},"district":{"key":"08416","name":"Tübingen","type":"Landkreis"},"federalState":{"key":"08","name":"Baden-Württemberg"}},{"name":"Olgastr.","postalCode":"72074","locality":"Tübingen","municipality":{"key":"08416041","name":"Tübingen, Universitätsstadt","type":"Große_Kreisstadt"},"district":{"key":"08416","name":"Tübingen","type":"Landkreis"},"federalState":{"key":"08","name":"Baden-Württemberg"}},{"name":"Osianderstr.","postalCode":"72076","locality":"Tübingen","municipality":{"key":"08416041","name":"Tübingen, Universitätsstadt","type":"Große_Kreisstadt"},"district":{"key":"08416","name":"Tübingen","type":"Landkreis"},"federalState":{"key":"08","name":"Baden-Württemberg"}},{"name":"Ostendstr.","postalCode":"72074","locality":"Tübingen","municipality":{"key":"08416041","name":"Tübingen, Universitätsstadt","type":"Große_Kreisstadt"},"district":{"key":"08416","name":"Tübingen","type":"Landkreis"},"federalState":{"key":"08","name":"Baden-Württemberg"}},{"name":"Otfried-Müller-Str.","postalCode":"72076","locality":"Tübingen","municipality":{"key":"08416041","name":"Tübingen, Universitätsstadt","type":"Große_Kreisstadt"},"district":{"key":"08416","name":"Tübingen","type":"Landkreis"},"federalState":{"key":"08","name":"Baden-Württemberg"}},{"name":"Otterfurt","postalCode":"72072","locality":"Tübingen","municipality":{"key":"08416041","name":"Tübingen, Universitätsstadt","type":"Große_Kreisstadt"},"district":{"key":"08416","name":"Tübingen","type":"Landkreis"},"federalState":{"key":"08","name":"Baden-Württemberg"}},{"name":"Otto-Erbe-Weg","postalCode":"72070","locality":"Tübingen","municipality":{"key":"08416041","name":"Tübingen, Universitätsstadt","type":"Große_Kreisstadt"},"district":{"key":"08416","name":"Tübingen","type":"Landkreis"},"federalState":{"key":"08","name":"Baden-Württemberg"}},{"name":"Panoramastr.","postalCode":"72144","locality":"Dußlingen","municipality":{"key":"08416011","name":"Dußlingen","type":"Kreisangehörige_Gemeinde"},"district":{"key":"08416","name":"Tübingen","type":"Landkreis"},"federalState":{"key":"08","name":"Baden-Württemberg"}},{"name":"Pappelweg","postalCode":"72144","locality":"Dußlingen","municipality":{"key":"08416011","name":"Dußlingen","type":"Kreisangehörige_Gemeinde"},"district":{"key":"08416","name":"Tübingen","type":"Landkreis"},"federalState":{"key":"08","name":"Baden-Württemberg"}},{"name":"Platanenweg","postalCode":"72144","locality":"Dußlingen","municipality":{"key":"08416011","name":"Dußlingen","type":"Kreisangehörige_Gemeinde"},"district":{"key":"08416","name":"Tübingen","type":"Landkreis"},"federalState":{"key":"08","name":"Baden-Württemberg"}},{"name":"Pulvermühle","postalCode":"72144","locality":"Dußlingen","municipality":{"key":"08416011","name":"Dußlingen","type":"Kreisangehörige_Gemeinde"},"district":{"key":"08416","name":"Tübingen","type":"Landkreis"},"federalState":{"key":"08","name":"Baden-Württemberg"}},{"name":"Quellgasse","postalCode":"72070","locality":"Tübingen","municipality":{"key":"08416041","name":"Tübingen, Universitätsstadt","type":"Große_Kreisstadt"},"district":{"key":"08416","name":"Tübingen","type":"Landkreis"},"federalState":{"key":"08","name":"Baden-Württemberg"}},{"name":"Quenstedtstr.","postalCode":"72076","locality":"Tübingen","municipality":{"key":"08416041","name":"Tübingen, Universitätsstadt","type":"Große_Kreisstadt"},"district":{"key":"08416","name":"Tübingen","type":"Landkreis"},"federalState":{"key":"08","name":"Baden-Württemberg"}},{"name":"Querstr.","postalCode":"72074","locality":"Tübingen","municipality":{"key":"08416041","name":"Tübingen, Universitätsstadt","type":"Große_Kreisstadt"},"district":{"key":"08416","name":"Tübingen","type":"Landkreis"},"federalState":{"key":"08","name":"Baden-Württemberg"}},{"name":"Rammertblick","postalCode":"72144","locality":"Dußlingen","municipality":{"key":"08416011","name":"Dußlingen","type":"Kreisangehörige_Gemeinde"},"district":{"key":"08416","name":"Tübingen","type":"Landkreis"},"federalState":{"key":"08","name":"Baden-Württemberg"}},{"name":"Ramshaldweg","postalCode":"72144","locality":"Dußlingen","municipality":{"key":"08416011","name":"Dußlingen","type":"Kreisangehörige_Gemeinde"},"district":{"key":"08416","name":"Tübingen","type":"Landkreis"},"federalState":{"key":"08","name":"Baden-Württemberg"}},{"name":"Rathausplatz","postalCode":"72144","locality":"Dußlingen","municipality":{"key":"08416011","name":"Dußlingen","type":"Kreisangehörige_Gemeinde"},"district":{"key":"08416","name":"Tübingen","type":"Landkreis"},"federalState":{"key":"08","name":"Baden-Württemberg"}},{"name":"Robert-Wörner-Str.","postalCode":"72144","locality":"Dußlingen","municipality":{"key":"08416011","name":"Dußlingen","type":"Kreisangehörige_Gemeinde"},"district":{"key":"08416","name":"Tübingen","type":"Landkreis"},"federalState":{"key":"08","name":"Baden-Württemberg"}},{"name":"Rosenstr.","postalCode":"72144","locality":"Dußlingen","municipality":{"key":"08416011","name":"Dußlingen","type":"Kreisangehörige_Gemeinde"},"district":{"key":"08416","name":"Tübingen","type":"Landkreis"},"federalState":{"key":"08","name":"Baden-Württemberg"}},{"name":"Roßbergstr.","postalCode":"72144","locality":"Dußlingen","municipality":{"key":"08416011","name":"Dußlingen","type":"Kreisangehörige_Gemeinde"},"district":{"key":"08416","name":"Tübingen","type":"Landkreis"},"federalState":{"key":"08","name":"Baden-Württemberg"}},{"name":"Rote Halde","postalCode":"72144","locality":"Dußlingen","municipality":{"key":"08416011","name":"Dußlingen","type":"Kreisangehörige_Gemeinde"},"district":{"key":"08416","name":"Tübingen","type":"Landkreis"},"federalState":{"key":"08","name":"Baden-Württemberg"}},{"name":"Rottenburger Str.","postalCode":"72144","locality":"Dußlingen","municipality":{"key":"08416011","name":"Dußlingen","type":"Kreisangehörige_Gemeinde"},"district":{"key":"08416","name":"Tübingen","type":"Landkreis"},"federalState":{"key":"08","name":"Baden-Württemberg"}},{"name":"Sammetgässle","postalCode":"72144","locality":"Dußlingen","municipality":{"key":"08416011","name":"Dußlingen","type":"Kreisangehörige_Gemeinde"},"district":{"key":"08416","name":"Tübingen","type":"Landkreis"},"federalState":{"key":"08","name":"Baden-Württemberg"}},{"name":"Schillerstr.","postalCode":"72144","locality":"Dußlingen","municipality":{"key":"08416011","name":"Dußlingen","type":"Kreisangehörige_Gemeinde"},"district":{"key":"08416","name":"Tübingen","type":"Landkreis"},"federalState":{"key":"08","name":"Baden-Württemberg"}},{"name":"Schloßhof","postalCode":"72144","locality":"Dußlingen","municipality":{"key":"08416011","name":"Dußlingen","type":"Kreisangehörige_Gemeinde"},"district":{"key":"08416","name":"Tübingen","type":"Landkreis"},"federalState":{"key":"08","name":"Baden-Württemberg"}},{"name":"Schloßstr.","postalCode":"72144","locality":"Dußlingen","municipality":{"key":"08416011","name":"Dußlingen","type":"Kreisangehörige_Gemeinde"},"district":{"key":"08416","name":"Tübingen","type":"Landkreis"},"federalState":{"key":"08","name":"Baden-Württemberg"}},{"name":"Schönbergstr.","postalCode":"72144","locality":"Dußlingen","municipality":{"key":"08416011","name":"Dußlingen","type":"Kreisangehörige_Gemeinde"},"district":{"key":"08416","name":"Tübingen","type":"Landkreis"},"federalState":{"key":"08","name":"Baden-Württemberg"}},{"name":"Schönblickstr.","postalCode":"72144","locality":"Dußlingen","municipality":{"key":"08416011","name":"Dußlingen","type":"Kreisangehörige_Gemeinde"},"district":{"key":"08416","name":"Tübingen","type":"Landkreis"},"federalState":{"key":"08","name":"Baden-Württemberg"}},{"name":"Seestr.","postalCode":"72144","locality":"Dußlingen","municipality":{"key":"08416011","name":"Dußlingen","type":"Kreisangehörige_Gemeinde"},"district":{"key":"08416","name":"Tübingen","type":"Landkreis"},"federalState":{"key":"08","name":"Baden-Württemberg"}},{"name":"Silcherstr.","postalCode":"72144","locality":"Dußlingen","municipality":{"key":"08416011","name":"Dußlingen","type":"Kreisangehörige_Gemeinde"},"district":{"key":"08416","name":"Tübingen","type":"Landkreis"},"federalState":{"key":"08","name":"Baden-Württemberg"}},{"name":"Speckstr.","postalCode":"72144","locality":"Dußlingen","municipality":{"key":"08416011","name":"Dußlingen","type":"Kreisangehörige_Gemeinde"},"district":{"key":"08416","name":"Tübingen","type":"Landkreis"},"federalState":{"key":"08","name":"Baden-Württemberg"}},{"name":"Spitzenbühl","postalCode":"72144","locality":"Dußlingen","municipality":{"key":"08416011","name":"Dußlingen","type":"Kreisangehörige_Gemeinde"},"district":{"key":"08416","name":"Tübingen","type":"Landkreis"},"federalState":{"key":"08","name":"Baden-Württemberg"}},{"name":"Stadelgasse","postalCode":"72144","locality":"Dußlingen","municipality":{"key":"08416011","name":"Dußlingen","type":"Kreisangehörige_Gemeinde"},"district":{"key":"08416","name":"Tübingen","type":"Landkreis"},"federalState":{"key":"08","name":"Baden-Württemberg"}},{"name":"Staffelweg","postalCode":"72144","locality":"Dußlingen","municipality":{"key":"08416011","name":"Dußlingen","type":"Kreisangehörige_Gemeinde"},"district":{"key":"08416","name":"Tübingen","type":"Landkreis"},"federalState":{"key":"08","name":"Baden-Württemberg"}},{"name":"Starenweg","postalCode":"72144","locality":"Dußlingen","municipality":{"key":"08416011","name":"Dußlingen","type":"Kreisangehörige_Gemeinde"},"district":{"key":"08416","name":"Tübingen","type":"Landkreis"},"federalState":{"key":"08","name":"Baden-Württemberg"}},{"name":"Stäudachweg","postalCode":"72144","locality":"Dußlingen","municipality":{"key":"08416011","name":"Dußlingen","type":"Kreisangehörige_Gemeinde"},"district":{"key":"08416","name":"Tübingen","type":"Landkreis"},"federalState":{"key":"08","name":"Baden-Württemberg"}},{"name":"Stäudachweg plus","postalCode":"72144","locality":"Dußlingen","municipality":{"key":"08416011","name":"Dußlingen","type":"Kreisangehörige_Gemeinde"},"district":{"key":"08416","name":"Tübingen","type":"Landkreis"},"federalState":{"key":"08","name":"Baden-Württemberg"}},{"name":"Steiniggäßle","postalCode":"72144","locality":"Dußlingen","municipality":{"key":"08416011","name":"Dußlingen","type":"Kreisangehörige_Gemeinde"},"district":{"key":"08416","name":"Tübingen","type":"Landkreis"},"federalState":{"key":"08","name":"Baden-Württemberg"}},{"name":"Steinlachburg","postalCode":"72144","locality":"Dußlingen","municipality":{"key":"08416011","name":"Dußlingen","type":"Kreisangehörige_Gemeinde"},"district":{"key":"08416","name":"Tübingen","type":"Landkreis"},"federalState":{"key":"08","name":"Baden-Württemberg"}},{"name":"Steinlachweg","postalCode":"72144","locality":"Dußlingen","municipality":{"key":"08416011","name":"Dußlingen","type":"Kreisangehörige_Gemeinde"},"district":{"key":"08416","name":"Tübingen","type":"Landkreis"},"federalState":{"key":"08","name":"Baden-Württemberg"}},{"name":"Suppengasse","postalCode":"72144","locality":"Dußlingen","municipality":{"key":"08416011","name":"Dußlingen","type":"Kreisangehörige_Gemeinde"},"district":{"key":"08416","name":"Tübingen","type":"Landkreis"},"federalState":{"key":"08","name":"Baden-Württemberg"}},{"name":"Talweg","postalCode":"72144","locality":"Dußlingen","municipality":{"key":"08416011","name":"Dußlingen","type":"Kreisangehörige_Gemeinde"},"district":{"key":"08416","name":"Tübingen","type":"Landkreis"},"federalState":{"key":"08","name":"Baden-Württemberg"}},{"name":"Tübinger Str.","postalCode":"72144","locality":"Dußlingen","municipality":{"key":"08416011","name":"Dußlingen","type":"Kreisangehörige_Gemeinde"},"district":{"key":"08416","name":"Tübingen","type":"Landkreis"},"federalState":{"key":"08","name":"Baden-Württemberg"}},{"name":"Uferstr.","postalCode":"72144","locality":"Dußlingen","municipality":{"key":"08416011","name":"Dußlingen","type":"Kreisangehörige_Gemeinde"},"district":{"key":"08416","name":"Tübingen","type":"Landkreis"},"federalState":{"key":"08","name":"Baden-Württemberg"}},{"name":"Uffhofenstr.","postalCode":"72144","locality":"Dußlingen","municipality":{"key":"08416011","name":"Dußlingen","type":"Kreisangehörige_Gemeinde"},"district":{"key":"08416","name":"Tübingen","type":"Landkreis"},"federalState":{"key":"08","name":"Baden-Württemberg"}},{"name":"Uhlandstr.","postalCode":"72144","locality":"Dußlingen","municipality":{"key":"08416011","name":"Dußlingen","type":"Kreisangehörige_Gemeinde"},"district":{"key":"08416","name":"Tübingen","type":"Landkreis"},"federalState":{"key":"08","name":"Baden-Württemberg"}},{"name":"Unter den Weinbergen","postalCode":"72144","locality":"Dußlingen","municipality":{"key":"08416011","name":"Dußlingen","type":"Kreisangehörige_Gemeinde"},"district":{"key":"08416","name":"Tübingen","type":"Landkreis"},"federalState":{"key":"08","name":"Baden-Württemberg"}},{"name":"Via Mezzocorona","postalCode":"72144","locality":"Dußlingen","municipality":{"key":"08416011","name":"Dußlingen","type":"Kreisangehörige_Gemeinde"},"district":{"key":"08416","name":"Tübingen","type":"Landkreis"},"federalState":{"key":"08","name":"Baden-Württemberg"}},{"name":"Vogelsangstr.","postalCode":"72144","locality":"Dußlingen","municipality":{"key":"08416011","name":"Dußlingen","type":"Kreisangehörige_Gemeinde"},"district":{"key":"08416","name":"Tübingen","type":"Landkreis"},"federalState":{"key":"08","name":"Baden-Württemberg"}},{"name":"Wägnergäßle","postalCode":"72144","locality":"Dußlingen","municipality":{"key":"08416011","name":"Dußlingen","type":"Kreisangehörige_Gemeinde"},"district":{"key":"08416","name":"Tübingen","type":"Landkreis"},"federalState":{"key":"08","name":"Baden-Württemberg"}},{"name":"Wehrstr.","postalCode":"72144","locality":"Dußlingen","municipality":{"key":"08416011","name":"Dußlingen","type":"Kreisangehörige_Gemeinde"},"district":{"key":"08416","name":"Tübingen","type":"Landkreis"},"federalState":{"key":"08","name":"Baden-Württemberg"}},{"name":"Weidenweg","postalCode":"72144","locality":"Dußlingen","municipality":{"key":"08416011","name":"Dußlingen","type":"Kreisangehörige_Gemeinde"},"district":{"key":"08416","name":"Tübingen","type":"Landkreis"},"federalState":{"key":"08","name":"Baden-Württemberg"}},{"name":"Weingartenrain","postalCode":"72144","locality":"Dußlingen","municipality":{"key":"08416011","name":"Dußlingen","type":"Kreisangehörige_Gemeinde"},"district":{"key":"08416","name":"Tübingen","type":"Landkreis"},"federalState":{"key":"08","name":"Baden-Württemberg"}},{"name":"Wielandweg","postalCode":"72144","locality":"Dußlingen","municipality":{"key":"08416011","name":"Dußlingen","type":"Kreisangehörige_Gemeinde"},"district":{"key":"08416","name":"Tübingen","type":"Landkreis"},"federalState":{"key":"08","name":"Baden-Württemberg"}},{"name":"Wiesenweg","postalCode":"72144","locality":"Dußlingen","municipality":{"key":"08416011","name":"Dußlingen","type":"Kreisangehörige_Gemeinde"},"district":{"key":"08416","name":"Tübingen","type":"Landkreis"},"federalState":{"key":"08","name":"Baden-Württemberg"}},{"name":"Wilhelm-Herter-Str.","postalCode":"72144","locality":"Dußlingen","municipality":{"key":"08416011","name":"Dußlingen","type":"Kreisangehörige_Gemeinde"},"district":{"key":"08416","name":"Tübingen","type":"Landkreis"},"federalState":{"key":"08","name":"Baden-Württemberg"}},{"name":"Wischergasse","postalCode":"72144","locality":"Dußlingen","municipality":{"key":"08416011","name":"Dußlingen","type":"Kreisangehörige_Gemeinde"},"district":{"key":"08416","name":"Tübingen","type":"Landkreis"},"federalState":{"key":"08","name":"Baden-Württemberg"}},{"name":"Zeppelinstr.","postalCode":"72144","locality":"Dußlingen","municipality":{"key":"08416011","name":"Dußlingen","type":"Kreisangehörige_Gemeinde"},"district":{"key":"08416","name":"Tübingen","type":"Landkreis"},"federalState":{"key":"08","name":"Baden-Württemberg"}},{"name":"Zollernblick","postalCode":"72144","locality":"Dußlingen","municipality":{"key":"08416011","name":"Dußlingen","type":"Kreisangehörige_Gemeinde"},"district":{"key":"08416","name":"Tübingen","type":"Landkreis"},"federalState":{"key":"08","name":"Baden-Württemberg"}},{"name":"Zum Aspental","postalCode":"72144","locality":"Dußlingen","municipality":{"key":"08416011","name":"Dußlingen","type":"Kreisangehörige_Gemeinde"},"district":{"key":"08416","name":"Tübingen","type":"Landkreis"},"federalState":{"key":"08","name":"Baden-Württemberg"}},{"name":"Öhler","postalCode":"72076","locality":"Tübingen","municipality":{"key":"08416041","name":"Tübingen, Universitätsstadt","type":"Große_Kreisstadt"},"district":{"key":"08416","name":"Tübingen","type":"Landkreis"},"federalState":{"key":"08","name":"Baden-Württemberg"}},{"name":"Öhlerweg","postalCode":"72076","locality":"Tübingen","municipality":{"key":"08416041","name":"Tübingen, Universitätsstadt","type":"Große_Kreisstadt"},"district":{"key":"08416","name":"Tübingen","type":"Landkreis"},"federalState":{"key":"08","name":"Baden-Württemberg"}},{"name":"Ökologische Abteilung","postalCode":"72076","locality":"Tübingen","municipality":{"key":"08416041","name":"Tübingen, Universitätsstadt","type":"Große_Kreisstadt"},"district":{"key":"08416","name":"Tübingen","type":"Landkreis"},"federalState":{"key":"08","name":"Baden-Württemberg"}},{"name":"Ölmühlenweg","postalCode":"72072","locality":"Tübingen","municipality":{"key":"08416041","name":"Tübingen, Universitätsstadt","type":"Große_Kreisstadt"},"district":{"key":"08416","name":"Tübingen","type":"Landkreis"},"federalState":{"key":"08","name":"Baden-Württemberg"}},{"name":"Österbergstr.","postalCode":"72074","locality":"Tübingen","municipality":{"key":"08416041","name":"Tübingen, Universitätsstadt","type":"Große_Kreisstadt"},"district":{"key":"08416","name":"Tübingen","type":"Landkreis"},"federalState":{"key":"08","name":"Baden-Württemberg"}},]