[{"name":"Ahornweg","postalCode":"16928","locality":"Pritzwalk","municipality":{"key":"12070316","name":"Pritzwalk, Stadt","type":"Stadt"},"district":{"key":"12070","name":"Prignitz","type":"Landkreis"},"federalState":{"key":"12","name":"Brandenburg"}},{"name":"Alt Wittstocker Weg","postalCode":"16928","locality":"Pritzwalk","municipality":{"key":"12070316","name":"Pritzwalk, Stadt","type":"Stadt"},"district":{"key":"12070","name":"Prignitz","type":"Landkreis"},"federalState":{"key":"12","name":"Brandenburg"}},{"name":"Am Bahnhof","postalCode":"16928","locality":"Pritzwalk","municipality":{"key":"12070316","name":"Pritzwalk, Stadt","type":"Stadt"},"district":{"key":"12070","name":"Prignitz","type":"Landkreis"},"federalState":{"key":"12","name":"Brandenburg"}},{"name":"Am Bahnhof Bölzke","postalCode":"16928","locality":"Pritzwalk","municipality":{"key":"12070316","name":"Pritzwalk, Stadt","type":"Stadt"},"district":{"key":"12070","name":"Prignitz","type":"Landkreis"},"federalState":{"key":"12","name":"Brandenburg"}},{"name":"Am Berg","postalCode":"16928","locality":"Pritzwalk","municipality":{"key":"12070316","name":"Pritzwalk, Stadt","type":"Stadt"},"district":{"key":"12070","name":"Prignitz","type":"Landkreis"},"federalState":{"key":"12","name":"Brandenburg"}},{"name":"Am Findling","postalCode":"16928","locality":"Pritzwalk","municipality":{"key":"12070316","name":"Pritzwalk, Stadt","type":"Stadt"},"district":{"key":"12070","name":"Prignitz","type":"Landkreis"},"federalState":{"key":"12","name":"Brandenburg"}},{"name":"Am Heerweg","postalCode":"16928","locality":"Pritzwalk","municipality":{"key":"12070316","name":"Pritzwalk, Stadt","type":"Stadt"},"district":{"key":"12070","name":"Prignitz","type":"Landkreis"},"federalState":{"key":"12","name":"Brandenburg"}},{"name":"Am Hünengrab","postalCode":"16928","locality":"Pritzwalk","municipality":{"key":"12070316","name":"Pritzwalk, Stadt","type":"Stadt"},"district":{"key":"12070","name":"Prignitz","type":"Landkreis"},"federalState":{"key":"12","name":"Brandenburg"}},{"name":"Am Ring","postalCode":"16928","locality":"Pritzwalk","municipality":{"key":"12070316","name":"Pritzwalk, Stadt","type":"Stadt"},"district":{"key":"12070","name":"Prignitz","type":"Landkreis"},"federalState":{"key":"12","name":"Brandenburg"}},{"name":"Amselweg","postalCode":"16928","locality":"Pritzwalk","municipality":{"key":"12070316","name":"Pritzwalk, Stadt","type":"Stadt"},"district":{"key":"12070","name":"Prignitz","type":"Landkreis"},"federalState":{"key":"12","name":"Brandenburg"}},{"name":"Amtmannsweg","postalCode":"16928","locality":"Pritzwalk","municipality":{"key":"12070316","name":"Pritzwalk, Stadt","type":"Stadt"},"district":{"key":"12070","name":"Prignitz","type":"Landkreis"},"federalState":{"key":"12","name":"Brandenburg"}},{"name":"Am Wasserturm","postalCode":"16928","locality":"Pritzwalk","municipality":{"key":"12070316","name":"Pritzwalk, Stadt","type":"Stadt"},"district":{"key":"12070","name":"Prignitz","type":"Landkreis"},"federalState":{"key":"12","name":"Brandenburg"}},{"name":"Am Wilmersdorfer Weg","postalCode":"16928","locality":"Pritzwalk","municipality":{"key":"12070316","name":"Pritzwalk, Stadt","type":"Stadt"},"district":{"key":"12070","name":"Prignitz","type":"Landkreis"},"federalState":{"key":"12","name":"Brandenburg"}},{"name":"An der B 103","postalCode":"16928","locality":"Pritzwalk","municipality":{"key":"12070316","name":"Pritzwalk, Stadt","type":"Stadt"},"district":{"key":"12070","name":"Prignitz","type":"Landkreis"},"federalState":{"key":"12","name":"Brandenburg"}},{"name":"An der Promenade","postalCode":"16928","locality":"Pritzwalk","municipality":{"key":"12070316","name":"Pritzwalk, Stadt","type":"Stadt"},"district":{"key":"12070","name":"Prignitz","type":"Landkreis"},"federalState":{"key":"12","name":"Brandenburg"}},{"name":"An der Wegemühle","postalCode":"16928","locality":"Pritzwalk","municipality":{"key":"12070316","name":"Pritzwalk, Stadt","type":"Stadt"},"district":{"key":"12070","name":"Prignitz","type":"Landkreis"},"federalState":{"key":"12","name":"Brandenburg"}},{"name":"Aufbaustr.","postalCode":"16928","locality":"Pritzwalk","municipality":{"key":"12070316","name":"Pritzwalk, Stadt","type":"Stadt"},"district":{"key":"12070","name":"Prignitz","type":"Landkreis"},"federalState":{"key":"12","name":"Brandenburg"}},{"name":"August-Bartels-Weg","postalCode":"16928","locality":"Pritzwalk","municipality":{"key":"12070316","name":"Pritzwalk, Stadt","type":"Stadt"},"district":{"key":"12070","name":"Prignitz","type":"Landkreis"},"federalState":{"key":"12","name":"Brandenburg"}},{"name":"Ausbau","postalCode":"16928","locality":"Pritzwalk","municipality":{"key":"12070316","name":"Pritzwalk, Stadt","type":"Stadt"},"district":{"key":"12070","name":"Prignitz","type":"Landkreis"},"federalState":{"key":"12","name":"Brandenburg"}},{"name":"Ausbau Süd","postalCode":"16928","locality":"Pritzwalk","municipality":{"key":"12070316","name":"Pritzwalk, Stadt","type":"Stadt"},"district":{"key":"12070","name":"Prignitz","type":"Landkreis"},"federalState":{"key":"12","name":"Brandenburg"}},{"name":"Bahnhofstr.","postalCode":"16928","locality":"Pritzwalk","municipality":{"key":"12070316","name":"Pritzwalk, Stadt","type":"Stadt"},"district":{"key":"12070","name":"Prignitz","type":"Landkreis"},"federalState":{"key":"12","name":"Brandenburg"}},{"name":"Bahnhofsweg Beveringen","postalCode":"16928","locality":"Pritzwalk","municipality":{"key":"12070316","name":"Pritzwalk, Stadt","type":"Stadt"},"district":{"key":"12070","name":"Prignitz","type":"Landkreis"},"federalState":{"key":"12","name":"Brandenburg"}},{"name":"Bahnhofsweg Falkenhagen","postalCode":"16928","locality":"Pritzwalk","municipality":{"key":"12070316","name":"Pritzwalk, Stadt","type":"Stadt"},"district":{"key":"12070","name":"Prignitz","type":"Landkreis"},"federalState":{"key":"12","name":"Brandenburg"}},{"name":"Beethovenstr.","postalCode":"16928","locality":"Pritzwalk","municipality":{"key":"12070316","name":"Pritzwalk, Stadt","type":"Stadt"},"district":{"key":"12070","name":"Prignitz","type":"Landkreis"},"federalState":{"key":"12","name":"Brandenburg"}},{"name":"Bergstr.","postalCode":"16928","locality":"Pritzwalk","municipality":{"key":"12070316","name":"Pritzwalk, Stadt","type":"Stadt"},"district":{"key":"12070","name":"Prignitz","type":"Landkreis"},"federalState":{"key":"12","name":"Brandenburg"}},{"name":"Bergweg","postalCode":"16928","locality":"Pritzwalk","municipality":{"key":"12070316","name":"Pritzwalk, Stadt","type":"Stadt"},"district":{"key":"12070","name":"Prignitz","type":"Landkreis"},"federalState":{"key":"12","name":"Brandenburg"}},{"name":"Bertha-von-Suttner-Weg","postalCode":"16928","locality":"Pritzwalk","municipality":{"key":"12070316","name":"Pritzwalk, Stadt","type":"Stadt"},"district":{"key":"12070","name":"Prignitz","type":"Landkreis"},"federalState":{"key":"12","name":"Brandenburg"}},{"name":"Biesterholz","postalCode":"16928","locality":"Pritzwalk","municipality":{"key":"12070316","name":"Pritzwalk, Stadt","type":"Stadt"},"district":{"key":"12070","name":"Prignitz","type":"Landkreis"},"federalState":{"key":"12","name":"Brandenburg"}},{"name":"Birkenfelde","postalCode":"16928","locality":"Pritzwalk","municipality":{"key":"12070316","name":"Pritzwalk, Stadt","type":"Stadt"},"district":{"key":"12070","name":"Prignitz","type":"Landkreis"},"federalState":{"key":"12","name":"Brandenburg"}},{"name":"Birkenweg","postalCode":"16928","locality":"Pritzwalk","municipality":{"key":"12070316","name":"Pritzwalk, Stadt","type":"Stadt"},"district":{"key":"12070","name":"Prignitz","type":"Landkreis"},"federalState":{"key":"12","name":"Brandenburg"}},{"name":"Birkenweg Buchholz","postalCode":"16928","locality":"Pritzwalk","municipality":{"key":"12070316","name":"Pritzwalk, Stadt","type":"Stadt"},"district":{"key":"12070","name":"Prignitz","type":"Landkreis"},"federalState":{"key":"12","name":"Brandenburg"}},{"name":"Birkenweg Falkenhagen","postalCode":"16928","locality":"Pritzwalk","municipality":{"key":"12070316","name":"Pritzwalk, Stadt","type":"Stadt"},"district":{"key":"12070","name":"Prignitz","type":"Landkreis"},"federalState":{"key":"12","name":"Brandenburg"}},{"name":"Boddiner Weg Bölzke","postalCode":"16928","locality":"Pritzwalk","municipality":{"key":"12070316","name":"Pritzwalk, Stadt","type":"Stadt"},"district":{"key":"12070","name":"Prignitz","type":"Landkreis"},"federalState":{"key":"12","name":"Brandenburg"}},{"name":"Bölzker Str.","postalCode":"16928","locality":"Pritzwalk","municipality":{"key":"12070316","name":"Pritzwalk, Stadt","type":"Stadt"},"district":{"key":"12070","name":"Prignitz","type":"Landkreis"},"federalState":{"key":"12","name":"Brandenburg"}},{"name":"Bölzker Str. Bölzke","postalCode":"16928","locality":"Pritzwalk","municipality":{"key":"12070316","name":"Pritzwalk, Stadt","type":"Stadt"},"district":{"key":"12070","name":"Prignitz","type":"Landkreis"},"federalState":{"key":"12","name":"Brandenburg"}},{"name":"Bölzker Str. Kemnitz","postalCode":"16928","locality":"Pritzwalk","municipality":{"key":"12070316","name":"Pritzwalk, Stadt","type":"Stadt"},"district":{"key":"12070","name":"Prignitz","type":"Landkreis"},"federalState":{"key":"12","name":"Brandenburg"}},{"name":"Bremer Ring","postalCode":"16928","locality":"Pritzwalk","municipality":{"key":"12070316","name":"Pritzwalk, Stadt","type":"Stadt"},"district":{"key":"12070","name":"Prignitz","type":"Landkreis"},"federalState":{"key":"12","name":"Brandenburg"}},{"name":"Buchenweg","postalCode":"16928","locality":"Pritzwalk","municipality":{"key":"12070316","name":"Pritzwalk, Stadt","type":"Stadt"},"district":{"key":"12070","name":"Prignitz","type":"Landkreis"},"federalState":{"key":"12","name":"Brandenburg"}},{"name":"Buchholzer Weg","postalCode":"16928","locality":"Pritzwalk","municipality":{"key":"12070316","name":"Pritzwalk, Stadt","type":"Stadt"},"district":{"key":"12070","name":"Prignitz","type":"Landkreis"},"federalState":{"key":"12","name":"Brandenburg"}},{"name":"Bullenstr.","postalCode":"16928","locality":"Pritzwalk","municipality":{"key":"12070316","name":"Pritzwalk, Stadt","type":"Stadt"},"district":{"key":"12070","name":"Prignitz","type":"Landkreis"},"federalState":{"key":"12","name":"Brandenburg"}},{"name":"Burgstr.","postalCode":"16928","locality":"Pritzwalk","municipality":{"key":"12070316","name":"Pritzwalk, Stadt","type":"Stadt"},"district":{"key":"12070","name":"Prignitz","type":"Landkreis"},"federalState":{"key":"12","name":"Brandenburg"}},{"name":"Burgwall","postalCode":"16928","locality":"Pritzwalk","municipality":{"key":"12070316","name":"Pritzwalk, Stadt","type":"Stadt"},"district":{"key":"12070","name":"Prignitz","type":"Landkreis"},"federalState":{"key":"12","name":"Brandenburg"}},{"name":"Chausseestr.","postalCode":"16928","locality":"Groß Pankow (Prignitz)","municipality":{"key":"12070125","name":"Groß Pankow (Prignitz)","type":"Kreisangehörige_Gemeinde"},"district":{"key":"12070","name":"Prignitz","type":"Landkreis"},"federalState":{"key":"12","name":"Brandenburg"}},{"name":"Der Knick","postalCode":"16928","locality":"Pritzwalk","municipality":{"key":"12070316","name":"Pritzwalk, Stadt","type":"Stadt"},"district":{"key":"12070","name":"Prignitz","type":"Landkreis"},"federalState":{"key":"12","name":"Brandenburg"}},{"name":"Doerfelstr.","postalCode":"16928","locality":"Pritzwalk","municipality":{"key":"12070316","name":"Pritzwalk, Stadt","type":"Stadt"},"district":{"key":"12070","name":"Prignitz","type":"Landkreis"},"federalState":{"key":"12","name":"Brandenburg"}},{"name":"Dorfmitte","postalCode":"16928","locality":"Pritzwalk","municipality":{"key":"12070316","name":"Pritzwalk, Stadt","type":"Stadt"},"district":{"key":"12070","name":"Prignitz","type":"Landkreis"},"federalState":{"key":"12","name":"Brandenburg"}},{"name":"Dorfstr. Alt Krüssow","postalCode":"16928","locality":"Pritzwalk","municipality":{"key":"12070316","name":"Pritzwalk, Stadt","type":"Stadt"},"district":{"key":"12070","name":"Prignitz","type":"Landkreis"},"federalState":{"key":"12","name":"Brandenburg"}},{"name":"Dorfstr. Beveringen","postalCode":"16928","locality":"Pritzwalk","municipality":{"key":"12070316","name":"Pritzwalk, Stadt","type":"Stadt"},"district":{"key":"12070","name":"Prignitz","type":"Landkreis"},"federalState":{"key":"12","name":"Brandenburg"}},{"name":"Dorfstr. Giesensdorf","postalCode":"16928","locality":"Pritzwalk","municipality":{"key":"12070316","name":"Pritzwalk, Stadt","type":"Stadt"},"district":{"key":"12070","name":"Prignitz","type":"Landkreis"},"federalState":{"key":"12","name":"Brandenburg"}},{"name":"Dorfstr. Kemnitz","postalCode":"16928","locality":"Pritzwalk","municipality":{"key":"12070316","name":"Pritzwalk, Stadt","type":"Stadt"},"district":{"key":"12070","name":"Prignitz","type":"Landkreis"},"federalState":{"key":"12","name":"Brandenburg"}},{"name":"Dorfstr. Sadenbeck","postalCode":"16928","locality":"Pritzwalk","municipality":{"key":"12070316","name":"Pritzwalk, Stadt","type":"Stadt"},"district":{"key":"12070","name":"Prignitz","type":"Landkreis"},"federalState":{"key":"12","name":"Brandenburg"}},{"name":"Dorfstr. Sarnow","postalCode":"16928","locality":"Pritzwalk","municipality":{"key":"12070316","name":"Pritzwalk, Stadt","type":"Stadt"},"district":{"key":"12070","name":"Prignitz","type":"Landkreis"},"federalState":{"key":"12","name":"Brandenburg"}},{"name":"Dorfstr. Schönhagen","postalCode":"16928","locality":"Pritzwalk","municipality":{"key":"12070316","name":"Pritzwalk, Stadt","type":"Stadt"},"district":{"key":"12070","name":"Prignitz","type":"Landkreis"},"federalState":{"key":"12","name":"Brandenburg"}},{"name":"Dorfstr. Seefeld","postalCode":"16928","locality":"Pritzwalk","municipality":{"key":"12070316","name":"Pritzwalk, Stadt","type":"Stadt"},"district":{"key":"12070","name":"Prignitz","type":"Landkreis"},"federalState":{"key":"12","name":"Brandenburg"}},{"name":"Dorfstr. Steffenshagen","postalCode":"16928","locality":"Pritzwalk","municipality":{"key":"12070316","name":"Pritzwalk, Stadt","type":"Stadt"},"district":{"key":"12070","name":"Prignitz","type":"Landkreis"},"federalState":{"key":"12","name":"Brandenburg"}},{"name":"Dorfstr. Wilmersdorf","postalCode":"16928","locality":"Pritzwalk","municipality":{"key":"12070316","name":"Pritzwalk, Stadt","type":"Stadt"},"district":{"key":"12070","name":"Prignitz","type":"Landkreis"},"federalState":{"key":"12","name":"Brandenburg"}},{"name":"Drosselweg","postalCode":"16928","locality":"Pritzwalk","municipality":{"key":"12070316","name":"Pritzwalk, Stadt","type":"Stadt"},"district":{"key":"12070","name":"Prignitz","type":"Landkreis"},"federalState":{"key":"12","name":"Brandenburg"}},{"name":"Ebereschenweg","postalCode":"16928","locality":"Pritzwalk","municipality":{"key":"12070316","name":"Pritzwalk, Stadt","type":"Stadt"},"district":{"key":"12070","name":"Prignitz","type":"Landkreis"},"federalState":{"key":"12","name":"Brandenburg"}},{"name":"Eggersdorfer Damm","postalCode":"16928","locality":"Pritzwalk","municipality":{"key":"12070316","name":"Pritzwalk, Stadt","type":"Stadt"},"district":{"key":"12070","name":"Prignitz","type":"Landkreis"},"federalState":{"key":"12","name":"Brandenburg"}},{"name":"Eichenweg","postalCode":"16928","locality":"Pritzwalk","municipality":{"key":"12070316","name":"Pritzwalk, Stadt","type":"Stadt"},"district":{"key":"12070","name":"Prignitz","type":"Landkreis"},"federalState":{"key":"12","name":"Brandenburg"}},{"name":"Elsässer Str.","postalCode":"16928","locality":"Pritzwalk","municipality":{"key":"12070316","name":"Pritzwalk, Stadt","type":"Stadt"},"district":{"key":"12070","name":"Prignitz","type":"Landkreis"},"federalState":{"key":"12","name":"Brandenburg"}},{"name":"Elsterweg","postalCode":"16928","locality":"Pritzwalk","municipality":{"key":"12070316","name":"Pritzwalk, Stadt","type":"Stadt"},"district":{"key":"12070","name":"Prignitz","type":"Landkreis"},"federalState":{"key":"12","name":"Brandenburg"}},{"name":"Erich-Mühsam-Weg","postalCode":"16928","locality":"Pritzwalk","municipality":{"key":"12070316","name":"Pritzwalk, Stadt","type":"Stadt"},"district":{"key":"12070","name":"Prignitz","type":"Landkreis"},"federalState":{"key":"12","name":"Brandenburg"}},{"name":"Erlenweg","postalCode":"16928","locality":"Pritzwalk","municipality":{"key":"12070316","name":"Pritzwalk, Stadt","type":"Stadt"},"district":{"key":"12070","name":"Prignitz","type":"Landkreis"},"federalState":{"key":"12","name":"Brandenburg"}},{"name":"Falkenhagener Damm","postalCode":"16928","locality":"Pritzwalk","municipality":{"key":"12070316","name":"Pritzwalk, Stadt","type":"Stadt"},"district":{"key":"12070","name":"Prignitz","type":"Landkreis"},"federalState":{"key":"12","name":"Brandenburg"}},{"name":"Falkenhagener Str.","postalCode":"16928","locality":"Pritzwalk","municipality":{"key":"12070316","name":"Pritzwalk, Stadt","type":"Stadt"},"district":{"key":"12070","name":"Prignitz","type":"Landkreis"},"federalState":{"key":"12","name":"Brandenburg"}},{"name":"Fasanenweg","postalCode":"16928","locality":"Pritzwalk","municipality":{"key":"12070316","name":"Pritzwalk, Stadt","type":"Stadt"},"district":{"key":"12070","name":"Prignitz","type":"Landkreis"},"federalState":{"key":"12","name":"Brandenburg"}},{"name":"Feldmark","postalCode":"16928","locality":"Pritzwalk","municipality":{"key":"12070316","name":"Pritzwalk, Stadt","type":"Stadt"},"district":{"key":"12070","name":"Prignitz","type":"Landkreis"},"federalState":{"key":"12","name":"Brandenburg"}},{"name":"Felsenhagener Weg","postalCode":"16928","locality":"Pritzwalk","municipality":{"key":"12070316","name":"Pritzwalk, Stadt","type":"Stadt"},"district":{"key":"12070","name":"Prignitz","type":"Landkreis"},"federalState":{"key":"12","name":"Brandenburg"}},{"name":"Finkenweg","postalCode":"16928","locality":"Pritzwalk","municipality":{"key":"12070316","name":"Pritzwalk, Stadt","type":"Stadt"},"district":{"key":"12070","name":"Prignitz","type":"Landkreis"},"federalState":{"key":"12","name":"Brandenburg"}},{"name":"Franz-Liszt-Str.","postalCode":"16928","locality":"Pritzwalk","municipality":{"key":"12070316","name":"Pritzwalk, Stadt","type":"Stadt"},"district":{"key":"12070","name":"Prignitz","type":"Landkreis"},"federalState":{"key":"12","name":"Brandenburg"}},{"name":"Freyensteiner Chaussee","postalCode":"16928","locality":"Pritzwalk","municipality":{"key":"12070316","name":"Pritzwalk, Stadt","type":"Stadt"},"district":{"key":"12070","name":"Prignitz","type":"Landkreis"},"federalState":{"key":"12","name":"Brandenburg"}},{"name":"Freyensteiner Chaussee Beveringen","postalCode":"16928","locality":"Pritzwalk","municipality":{"key":"12070316","name":"Pritzwalk, Stadt","type":"Stadt"},"district":{"key":"12070","name":"Prignitz","type":"Landkreis"},"federalState":{"key":"12","name":"Brandenburg"}},{"name":"Fritz-Reuter-Str.","postalCode":"16928","locality":"Pritzwalk","municipality":{"key":"12070316","name":"Pritzwalk, Stadt","type":"Stadt"},"district":{"key":"12070","name":"Prignitz","type":"Landkreis"},"federalState":{"key":"12","name":"Brandenburg"}},{"name":"Fürststücke","postalCode":"16928","locality":"Pritzwalk","municipality":{"key":"12070316","name":"Pritzwalk, Stadt","type":"Stadt"},"district":{"key":"12070","name":"Prignitz","type":"Landkreis"},"federalState":{"key":"12","name":"Brandenburg"}},{"name":"Gartenstr.","postalCode":"16928","locality":"Pritzwalk","municipality":{"key":"12070316","name":"Pritzwalk, Stadt","type":"Stadt"},"district":{"key":"12070","name":"Prignitz","type":"Landkreis"},"federalState":{"key":"12","name":"Brandenburg"}},{"name":"Giesensdorfer Weg","postalCode":"16928","locality":"Pritzwalk","municipality":{"key":"12070316","name":"Pritzwalk, Stadt","type":"Stadt"},"district":{"key":"12070","name":"Prignitz","type":"Landkreis"},"federalState":{"key":"12","name":"Brandenburg"}},{"name":"Goetheweg","postalCode":"16928","locality":"Pritzwalk","municipality":{"key":"12070316","name":"Pritzwalk, Stadt","type":"Stadt"},"district":{"key":"12070","name":"Prignitz","type":"Landkreis"},"federalState":{"key":"12","name":"Brandenburg"}},{"name":"Groß Woltersdorfer Damm","postalCode":"16928","locality":"Pritzwalk","municipality":{"key":"12070316","name":"Pritzwalk, Stadt","type":"Stadt"},"district":{"key":"12070","name":"Prignitz","type":"Landkreis"},"federalState":{"key":"12","name":"Brandenburg"}},{"name":"Groß Woltersdorfer Weg","postalCode":"16928","locality":"Pritzwalk","municipality":{"key":"12070316","name":"Pritzwalk, Stadt","type":"Stadt"},"district":{"key":"12070","name":"Prignitz","type":"Landkreis"},"federalState":{"key":"12","name":"Brandenburg"}},{"name":"Grünstr.","postalCode":"16928","locality":"Pritzwalk","municipality":{"key":"12070316","name":"Pritzwalk, Stadt","type":"Stadt"},"district":{"key":"12070","name":"Prignitz","type":"Landkreis"},"federalState":{"key":"12","name":"Brandenburg"}},{"name":"Hagenstr.","postalCode":"16928","locality":"Pritzwalk","municipality":{"key":"12070316","name":"Pritzwalk, Stadt","type":"Stadt"},"district":{"key":"12070","name":"Prignitz","type":"Landkreis"},"federalState":{"key":"12","name":"Brandenburg"}},{"name":"Hainholzweg","postalCode":"16928","locality":"Pritzwalk","municipality":{"key":"12070316","name":"Pritzwalk, Stadt","type":"Stadt"},"district":{"key":"12070","name":"Prignitz","type":"Landkreis"},"federalState":{"key":"12","name":"Brandenburg"}},{"name":"Hansedamm","postalCode":"16928","locality":"Pritzwalk","municipality":{"key":"12070316","name":"Pritzwalk, Stadt","type":"Stadt"},"district":{"key":"12070","name":"Prignitz","type":"Landkreis"},"federalState":{"key":"12","name":"Brandenburg"}},{"name":"Hauptmannsweg","postalCode":"16928","locality":"Pritzwalk","municipality":{"key":"12070316","name":"Pritzwalk, Stadt","type":"Stadt"},"district":{"key":"12070","name":"Prignitz","type":"Landkreis"},"federalState":{"key":"12","name":"Brandenburg"}},{"name":"Hauptstr.","postalCode":"16928","locality":"Pritzwalk","municipality":{"key":"12070316","name":"Pritzwalk, Stadt","type":"Stadt"},"district":{"key":"12070","name":"Prignitz","type":"Landkreis"},"federalState":{"key":"12","name":"Brandenburg"}},{"name":"Hauptstr. Buchholz","postalCode":"16928","locality":"Pritzwalk","municipality":{"key":"12070316","name":"Pritzwalk, Stadt","type":"Stadt"},"district":{"key":"12070","name":"Prignitz","type":"Landkreis"},"federalState":{"key":"12","name":"Brandenburg"}},{"name":"Hauptstr. Falkenhagen","postalCode":"16928","locality":"Pritzwalk","municipality":{"key":"12070316","name":"Pritzwalk, Stadt","type":"Stadt"},"district":{"key":"12070","name":"Prignitz","type":"Landkreis"},"federalState":{"key":"12","name":"Brandenburg"}},{"name":"Hauptstr. Wilmersdorf","postalCode":"16928","locality":"Pritzwalk","municipality":{"key":"12070316","name":"Pritzwalk, Stadt","type":"Stadt"},"district":{"key":"12070","name":"Prignitz","type":"Landkreis"},"federalState":{"key":"12","name":"Brandenburg"}},{"name":"Havelberger Chaussee","postalCode":"16928","locality":"Pritzwalk","municipality":{"key":"12070316","name":"Pritzwalk, Stadt","type":"Stadt"},"district":{"key":"12070","name":"Prignitz","type":"Landkreis"},"federalState":{"key":"12","name":"Brandenburg"}},{"name":"Havelberger Str.","postalCode":"16928","locality":"Pritzwalk","municipality":{"key":"12070316","name":"Pritzwalk, Stadt","type":"Stadt"},"district":{"key":"12070","name":"Prignitz","type":"Landkreis"},"federalState":{"key":"12","name":"Brandenburg"}},{"name":"Havelberger Str. Mesendorf","postalCode":"16928","locality":"Pritzwalk","municipality":{"key":"12070316","name":"Pritzwalk, Stadt","type":"Stadt"},"district":{"key":"12070","name":"Prignitz","type":"Landkreis"},"federalState":{"key":"12","name":"Brandenburg"}},{"name":"Heidbergweg","postalCode":"16928","locality":"Pritzwalk","municipality":{"key":"12070316","name":"Pritzwalk, Stadt","type":"Stadt"},"district":{"key":"12070","name":"Prignitz","type":"Landkreis"},"federalState":{"key":"12","name":"Brandenburg"}},{"name":"Heidelberger Weg","postalCode":"16928","locality":"Pritzwalk","municipality":{"key":"12070316","name":"Pritzwalk, Stadt","type":"Stadt"},"district":{"key":"12070","name":"Prignitz","type":"Landkreis"},"federalState":{"key":"12","name":"Brandenburg"}},{"name":"Heinrich-Gätke-Str.","postalCode":"16928","locality":"Pritzwalk","municipality":{"key":"12070316","name":"Pritzwalk, Stadt","type":"Stadt"},"district":{"key":"12070","name":"Prignitz","type":"Landkreis"},"federalState":{"key":"12","name":"Brandenburg"}},{"name":"Heinrich-Heine-Weg","postalCode":"16928","locality":"Pritzwalk","municipality":{"key":"12070316","name":"Pritzwalk, Stadt","type":"Stadt"},"district":{"key":"12070","name":"Prignitz","type":"Landkreis"},"federalState":{"key":"12","name":"Brandenburg"}},{"name":"Hermann-Graebke-Str.","postalCode":"16928","locality":"Pritzwalk","municipality":{"key":"12070316","name":"Pritzwalk, Stadt","type":"Stadt"},"district":{"key":"12070","name":"Prignitz","type":"Landkreis"},"federalState":{"key":"12","name":"Brandenburg"}},{"name":"Hermann-Holz-Str.","postalCode":"16928","locality":"Pritzwalk","municipality":{"key":"12070316","name":"Pritzwalk, Stadt","type":"Stadt"},"district":{"key":"12070","name":"Prignitz","type":"Landkreis"},"federalState":{"key":"12","name":"Brandenburg"}},{"name":"Hermann-Lutz-Str.","postalCode":"16928","locality":"Pritzwalk","municipality":{"key":"12070316","name":"Pritzwalk, Stadt","type":"Stadt"},"district":{"key":"12070","name":"Prignitz","type":"Landkreis"},"federalState":{"key":"12","name":"Brandenburg"}},{"name":"Hoepperbuschweg","postalCode":"16928","locality":"Pritzwalk","municipality":{"key":"12070316","name":"Pritzwalk, Stadt","type":"Stadt"},"district":{"key":"12070","name":"Prignitz","type":"Landkreis"},"federalState":{"key":"12","name":"Brandenburg"}},{"name":"Holzhof","postalCode":"16928","locality":"Pritzwalk","municipality":{"key":"12070316","name":"Pritzwalk, Stadt","type":"Stadt"},"district":{"key":"12070","name":"Prignitz","type":"Landkreis"},"federalState":{"key":"12","name":"Brandenburg"}},{"name":"Im Dörp","postalCode":"16928","locality":"Groß Pankow (Prignitz)","municipality":{"key":"12070125","name":"Groß Pankow (Prignitz)","type":"Kreisangehörige_Gemeinde"},"district":{"key":"12070","name":"Prignitz","type":"Landkreis"},"federalState":{"key":"12","name":"Brandenburg"}},{"name":"Jahnstr.","postalCode":"16928","locality":"Pritzwalk","municipality":{"key":"12070316","name":"Pritzwalk, Stadt","type":"Stadt"},"district":{"key":"12070","name":"Prignitz","type":"Landkreis"},"federalState":{"key":"12","name":"Brandenburg"}},{"name":"Johann-Sebastian-Bach-Str.","postalCode":"16928","locality":"Pritzwalk","municipality":{"key":"12070316","name":"Pritzwalk, Stadt","type":"Stadt"},"district":{"key":"12070","name":"Prignitz","type":"Landkreis"},"federalState":{"key":"12","name":"Brandenburg"}},{"name":"Kammermark","postalCode":"16928","locality":"Pritzwalk","municipality":{"key":"12070316","name":"Pritzwalk, Stadt","type":"Stadt"},"district":{"key":"12070","name":"Prignitz","type":"Landkreis"},"federalState":{"key":"12","name":"Brandenburg"}},{"name":"Kastanienweg","postalCode":"16928","locality":"Pritzwalk","municipality":{"key":"12070316","name":"Pritzwalk, Stadt","type":"Stadt"},"district":{"key":"12070","name":"Prignitz","type":"Landkreis"},"federalState":{"key":"12","name":"Brandenburg"}},{"name":"Kathfelder Mühle","postalCode":"16928","locality":"Pritzwalk","municipality":{"key":"12070316","name":"Pritzwalk, Stadt","type":"Stadt"},"district":{"key":"12070","name":"Prignitz","type":"Landkreis"},"federalState":{"key":"12","name":"Brandenburg"}},{"name":"Kiebitzberg","postalCode":"16928","locality":"Pritzwalk","municipality":{"key":"12070316","name":"Pritzwalk, Stadt","type":"Stadt"},"district":{"key":"12070","name":"Prignitz","type":"Landkreis"},"federalState":{"key":"12","name":"Brandenburg"}},{"name":"Kiebitzweg","postalCode":"16928","locality":"Pritzwalk","municipality":{"key":"12070316","name":"Pritzwalk, Stadt","type":"Stadt"},"district":{"key":"12070","name":"Prignitz","type":"Landkreis"},"federalState":{"key":"12","name":"Brandenburg"}},{"name":"Kiefernweg","postalCode":"16928","locality":"Pritzwalk","municipality":{"key":"12070316","name":"Pritzwalk, Stadt","type":"Stadt"},"district":{"key":"12070","name":"Prignitz","type":"Landkreis"},"federalState":{"key":"12","name":"Brandenburg"}},{"name":"Kietz","postalCode":"16928","locality":"Pritzwalk","municipality":{"key":"12070316","name":"Pritzwalk, Stadt","type":"Stadt"},"district":{"key":"12070","name":"Prignitz","type":"Landkreis"},"federalState":{"key":"12","name":"Brandenburg"}},{"name":"Kirchgasse","postalCode":"16928","locality":"Pritzwalk","municipality":{"key":"12070316","name":"Pritzwalk, Stadt","type":"Stadt"},"district":{"key":"12070","name":"Prignitz","type":"Landkreis"},"federalState":{"key":"12","name":"Brandenburg"}},{"name":"Kirchstr.","postalCode":"16928","locality":"Pritzwalk","municipality":{"key":"12070316","name":"Pritzwalk, Stadt","type":"Stadt"},"district":{"key":"12070","name":"Prignitz","type":"Landkreis"},"federalState":{"key":"12","name":"Brandenburg"}},{"name":"Klein Woltersdorfer Damm","postalCode":"16928","locality":"Pritzwalk","municipality":{"key":"12070316","name":"Pritzwalk, Stadt","type":"Stadt"},"district":{"key":"12070","name":"Prignitz","type":"Landkreis"},"federalState":{"key":"12","name":"Brandenburg"}},{"name":"Klein Woltersdorfer Weg","postalCode":"16928","locality":"Pritzwalk","municipality":{"key":"12070316","name":"Pritzwalk, Stadt","type":"Stadt"},"district":{"key":"12070","name":"Prignitz","type":"Landkreis"},"federalState":{"key":"12","name":"Brandenburg"}},{"name":"Kniep","postalCode":"16928","locality":"Pritzwalk","municipality":{"key":"12070316","name":"Pritzwalk, Stadt","type":"Stadt"},"district":{"key":"12070","name":"Prignitz","type":"Landkreis"},"federalState":{"key":"12","name":"Brandenburg"}},{"name":"Könkendorfer Str.","postalCode":"16928","locality":"Pritzwalk","municipality":{"key":"12070316","name":"Pritzwalk, Stadt","type":"Stadt"},"district":{"key":"12070","name":"Prignitz","type":"Landkreis"},"federalState":{"key":"12","name":"Brandenburg"}},{"name":"Könkendorfer Weg","postalCode":"16928","locality":"Pritzwalk","municipality":{"key":"12070316","name":"Pritzwalk, Stadt","type":"Stadt"},"district":{"key":"12070","name":"Prignitz","type":"Landkreis"},"federalState":{"key":"12","name":"Brandenburg"}},{"name":"Kreuzweg","postalCode":"16928","locality":"Pritzwalk","municipality":{"key":"12070316","name":"Pritzwalk, Stadt","type":"Stadt"},"district":{"key":"12070","name":"Prignitz","type":"Landkreis"},"federalState":{"key":"12","name":"Brandenburg"}},{"name":"Kuckuckstr.","postalCode":"16928","locality":"Pritzwalk","municipality":{"key":"12070316","name":"Pritzwalk, Stadt","type":"Stadt"},"district":{"key":"12070","name":"Prignitz","type":"Landkreis"},"federalState":{"key":"12","name":"Brandenburg"}},{"name":"Kyritzer Chaussee","postalCode":"16928","locality":"Pritzwalk","municipality":{"key":"12070316","name":"Pritzwalk, Stadt","type":"Stadt"},"district":{"key":"12070","name":"Prignitz","type":"Landkreis"},"federalState":{"key":"12","name":"Brandenburg"}},{"name":"Kyritzer Str.","postalCode":"16928","locality":"Pritzwalk","municipality":{"key":"12070316","name":"Pritzwalk, Stadt","type":"Stadt"},"district":{"key":"12070","name":"Prignitz","type":"Landkreis"},"federalState":{"key":"12","name":"Brandenburg"}},{"name":"Lerchenweg","postalCode":"16928","locality":"Pritzwalk","municipality":{"key":"12070316","name":"Pritzwalk, Stadt","type":"Stadt"},"district":{"key":"12070","name":"Prignitz","type":"Landkreis"},"federalState":{"key":"12","name":"Brandenburg"}},{"name":"Lessingweg","postalCode":"16928","locality":"Pritzwalk","municipality":{"key":"12070316","name":"Pritzwalk, Stadt","type":"Stadt"},"district":{"key":"12070","name":"Prignitz","type":"Landkreis"},"federalState":{"key":"12","name":"Brandenburg"}},{"name":"Lindengang","postalCode":"16928","locality":"Pritzwalk","municipality":{"key":"12070316","name":"Pritzwalk, Stadt","type":"Stadt"},"district":{"key":"12070","name":"Prignitz","type":"Landkreis"},"federalState":{"key":"12","name":"Brandenburg"}},{"name":"Lindenstr.","postalCode":"16928","locality":"Pritzwalk","municipality":{"key":"12070316","name":"Pritzwalk, Stadt","type":"Stadt"},"district":{"key":"12070","name":"Prignitz","type":"Landkreis"},"federalState":{"key":"12","name":"Brandenburg"}},{"name":"Lindenweg","postalCode":"16928","locality":"Pritzwalk","municipality":{"key":"12070316","name":"Pritzwalk, Stadt","type":"Stadt"},"district":{"key":"12070","name":"Prignitz","type":"Landkreis"},"federalState":{"key":"12","name":"Brandenburg"}},{"name":"Lindenweg Falkenhagen","postalCode":"16928","locality":"Pritzwalk","municipality":{"key":"12070316","name":"Pritzwalk, Stadt","type":"Stadt"},"district":{"key":"12070","name":"Prignitz","type":"Landkreis"},"federalState":{"key":"12","name":"Brandenburg"}},{"name":"Lothringer Str.","postalCode":"16928","locality":"Pritzwalk","municipality":{"key":"12070316","name":"Pritzwalk, Stadt","type":"Stadt"},"district":{"key":"12070","name":"Prignitz","type":"Landkreis"},"federalState":{"key":"12","name":"Brandenburg"}},{"name":"Lübecker Str.","postalCode":"16928","locality":"Pritzwalk","municipality":{"key":"12070316","name":"Pritzwalk, Stadt","type":"Stadt"},"district":{"key":"12070","name":"Prignitz","type":"Landkreis"},"federalState":{"key":"12","name":"Brandenburg"}},{"name":"Magazinplatz","postalCode":"16928","locality":"Pritzwalk","municipality":{"key":"12070316","name":"Pritzwalk, Stadt","type":"Stadt"},"district":{"key":"12070","name":"Prignitz","type":"Landkreis"},"federalState":{"key":"12","name":"Brandenburg"}},{"name":"Marktgasse","postalCode":"16928","locality":"Pritzwalk","municipality":{"key":"12070316","name":"Pritzwalk, Stadt","type":"Stadt"},"district":{"key":"12070","name":"Prignitz","type":"Landkreis"},"federalState":{"key":"12","name":"Brandenburg"}},{"name":"Marktstr.","postalCode":"16928","locality":"Pritzwalk","municipality":{"key":"12070316","name":"Pritzwalk, Stadt","type":"Stadt"},"district":{"key":"12070","name":"Prignitz","type":"Landkreis"},"federalState":{"key":"12","name":"Brandenburg"}},{"name":"Maxim-Gorki-Weg","postalCode":"16928","locality":"Pritzwalk","municipality":{"key":"12070316","name":"Pritzwalk, Stadt","type":"Stadt"},"district":{"key":"12070","name":"Prignitz","type":"Landkreis"},"federalState":{"key":"12","name":"Brandenburg"}},{"name":"Meisenweg","postalCode":"16928","locality":"Pritzwalk","municipality":{"key":"12070316","name":"Pritzwalk, Stadt","type":"Stadt"},"district":{"key":"12070","name":"Prignitz","type":"Landkreis"},"federalState":{"key":"12","name":"Brandenburg"}},{"name":"Metzer Str.","postalCode":"16928","locality":"Pritzwalk","municipality":{"key":"12070316","name":"Pritzwalk, Stadt","type":"Stadt"},"district":{"key":"12070","name":"Prignitz","type":"Landkreis"},"federalState":{"key":"12","name":"Brandenburg"}},{"name":"Meyenburger Str.","postalCode":"16928","locality":"Pritzwalk","municipality":{"key":"12070316","name":"Pritzwalk, Stadt","type":"Stadt"},"district":{"key":"12070","name":"Prignitz","type":"Landkreis"},"federalState":{"key":"12","name":"Brandenburg"}},{"name":"Meyenburger Str. Falkenhagen","postalCode":"16928","locality":"Pritzwalk","municipality":{"key":"12070316","name":"Pritzwalk, Stadt","type":"Stadt"},"district":{"key":"12070","name":"Prignitz","type":"Landkreis"},"federalState":{"key":"12","name":"Brandenburg"}},{"name":"Meyenburger Tor","postalCode":"16928","locality":"Pritzwalk","municipality":{"key":"12070316","name":"Pritzwalk, Stadt","type":"Stadt"},"district":{"key":"12070","name":"Prignitz","type":"Landkreis"},"federalState":{"key":"12","name":"Brandenburg"}},{"name":"Mittelmühle","postalCode":"16928","locality":"Pritzwalk","municipality":{"key":"12070316","name":"Pritzwalk, Stadt","type":"Stadt"},"district":{"key":"12070","name":"Prignitz","type":"Landkreis"},"federalState":{"key":"12","name":"Brandenburg"}},{"name":"Mittelstr.","postalCode":"16928","locality":"Pritzwalk","municipality":{"key":"12070316","name":"Pritzwalk, Stadt","type":"Stadt"},"district":{"key":"12070","name":"Prignitz","type":"Landkreis"},"federalState":{"key":"12","name":"Brandenburg"}},{"name":"Mozartweg","postalCode":"16928","locality":"Pritzwalk","municipality":{"key":"12070316","name":"Pritzwalk, Stadt","type":"Stadt"},"district":{"key":"12070","name":"Prignitz","type":"Landkreis"},"federalState":{"key":"12","name":"Brandenburg"}},{"name":"Mühlengasse","postalCode":"16928","locality":"Pritzwalk","municipality":{"key":"12070316","name":"Pritzwalk, Stadt","type":"Stadt"},"district":{"key":"12070","name":"Prignitz","type":"Landkreis"},"federalState":{"key":"12","name":"Brandenburg"}},{"name":"Mühlenweg Buchholz","postalCode":"16928","locality":"Pritzwalk","municipality":{"key":"12070316","name":"Pritzwalk, Stadt","type":"Stadt"},"district":{"key":"12070","name":"Prignitz","type":"Landkreis"},"federalState":{"key":"12","name":"Brandenburg"}},{"name":"Mühlenweg Schönhagen","postalCode":"16928","locality":"Pritzwalk","municipality":{"key":"12070316","name":"Pritzwalk, Stadt","type":"Stadt"},"district":{"key":"12070","name":"Prignitz","type":"Landkreis"},"federalState":{"key":"12","name":"Brandenburg"}},{"name":"Neuhausen","postalCode":"16928","locality":"Pritzwalk","municipality":{"key":"12070316","name":"Pritzwalk, Stadt","type":"Stadt"},"district":{"key":"12070","name":"Prignitz","type":"Landkreis"},"federalState":{"key":"12","name":"Brandenburg"}},{"name":"Neuhof","postalCode":"16928","locality":"Pritzwalk","municipality":{"key":"12070316","name":"Pritzwalk, Stadt","type":"Stadt"},"district":{"key":"12070","name":"Prignitz","type":"Landkreis"},"federalState":{"key":"12","name":"Brandenburg"}},{"name":"Neu Kemnitz","postalCode":"16928","locality":"Pritzwalk","municipality":{"key":"12070316","name":"Pritzwalk, Stadt","type":"Stadt"},"district":{"key":"12070","name":"Prignitz","type":"Landkreis"},"federalState":{"key":"12","name":"Brandenburg"}},{"name":"Neu Krüssower Str.","postalCode":"16928","locality":"Pritzwalk","municipality":{"key":"12070316","name":"Pritzwalk, Stadt","type":"Stadt"},"district":{"key":"12070","name":"Prignitz","type":"Landkreis"},"federalState":{"key":"12","name":"Brandenburg"}},{"name":"Neu Krüssower Weg","postalCode":"16928","locality":"Pritzwalk","municipality":{"key":"12070316","name":"Pritzwalk, Stadt","type":"Stadt"},"district":{"key":"12070","name":"Prignitz","type":"Landkreis"},"federalState":{"key":"12","name":"Brandenburg"}},{"name":"Nordstr.","postalCode":"16928","locality":"Pritzwalk","municipality":{"key":"12070316","name":"Pritzwalk, Stadt","type":"Stadt"},"district":{"key":"12070","name":"Prignitz","type":"Landkreis"},"federalState":{"key":"12","name":"Brandenburg"}},{"name":"Obere Dorfstr.","postalCode":"16928","locality":"Pritzwalk","municipality":{"key":"12070316","name":"Pritzwalk, Stadt","type":"Stadt"},"district":{"key":"12070","name":"Prignitz","type":"Landkreis"},"federalState":{"key":"12","name":"Brandenburg"}},{"name":"Pappelweg","postalCode":"16928","locality":"Pritzwalk","municipality":{"key":"12070316","name":"Pritzwalk, Stadt","type":"Stadt"},"district":{"key":"12070","name":"Prignitz","type":"Landkreis"},"federalState":{"key":"12","name":"Brandenburg"}},{"name":"Pappelweg Falkenhagen","postalCode":"16928","locality":"Pritzwalk","municipality":{"key":"12070316","name":"Pritzwalk, Stadt","type":"Stadt"},"district":{"key":"12070","name":"Prignitz","type":"Landkreis"},"federalState":{"key":"12","name":"Brandenburg"}},{"name":"Parkstr.","postalCode":"16928","locality":"Pritzwalk","municipality":{"key":"12070316","name":"Pritzwalk, Stadt","type":"Stadt"},"district":{"key":"12070","name":"Prignitz","type":"Landkreis"},"federalState":{"key":"12","name":"Brandenburg"}},{"name":"Perleberger Chaussee","postalCode":"16928","locality":"Pritzwalk","municipality":{"key":"12070316","name":"Pritzwalk, Stadt","type":"Stadt"},"district":{"key":"12070","name":"Prignitz","type":"Landkreis"},"federalState":{"key":"12","name":"Brandenburg"}},{"name":"Perleberger Str.","postalCode":"16928","locality":"Pritzwalk","municipality":{"key":"12070316","name":"Pritzwalk, Stadt","type":"Stadt"},"district":{"key":"12070","name":"Prignitz","type":"Landkreis"},"federalState":{"key":"12","name":"Brandenburg"}},{"name":"Perleberger Tor","postalCode":"16928","locality":"Pritzwalk","municipality":{"key":"12070316","name":"Pritzwalk, Stadt","type":"Stadt"},"district":{"key":"12070","name":"Prignitz","type":"Landkreis"},"federalState":{"key":"12","name":"Brandenburg"}},{"name":"Petersilienweg","postalCode":"16928","locality":"Pritzwalk","municipality":{"key":"12070316","name":"Pritzwalk, Stadt","type":"Stadt"},"district":{"key":"12070","name":"Prignitz","type":"Landkreis"},"federalState":{"key":"12","name":"Brandenburg"}},{"name":"Platz des Friedens","postalCode":"16928","locality":"Pritzwalk","municipality":{"key":"12070316","name":"Pritzwalk, Stadt","type":"Stadt"},"district":{"key":"12070","name":"Prignitz","type":"Landkreis"},"federalState":{"key":"12","name":"Brandenburg"}},{"name":"Postplatz","postalCode":"16928","locality":"Pritzwalk","municipality":{"key":"12070316","name":"Pritzwalk, Stadt","type":"Stadt"},"district":{"key":"12070","name":"Prignitz","type":"Landkreis"},"federalState":{"key":"12","name":"Brandenburg"}},{"name":"Poststr.","postalCode":"16928","locality":"Pritzwalk","municipality":{"key":"12070316","name":"Pritzwalk, Stadt","type":"Stadt"},"district":{"key":"12070","name":"Prignitz","type":"Landkreis"},"federalState":{"key":"12","name":"Brandenburg"}},{"name":"Preddöhler Weg","postalCode":"16928","locality":"Pritzwalk","municipality":{"key":"12070316","name":"Pritzwalk, Stadt","type":"Stadt"},"district":{"key":"12070","name":"Prignitz","type":"Landkreis"},"federalState":{"key":"12","name":"Brandenburg"}},{"name":"Pritzwalker Str.","postalCode":"16928","locality":"Pritzwalk","municipality":{"key":"12070316","name":"Pritzwalk, Stadt","type":"Stadt"},"district":{"key":"12070","name":"Prignitz","type":"Landkreis"},"federalState":{"key":"12","name":"Brandenburg"}},{"name":"Pritzwalker Str. Falkenhagen","postalCode":"16928","locality":"Pritzwalk","municipality":{"key":"12070316","name":"Pritzwalk, Stadt","type":"Stadt"},"district":{"key":"12070","name":"Prignitz","type":"Landkreis"},"federalState":{"key":"12","name":"Brandenburg"}},{"name":"Pritzwalker Str. Giesensdorf","postalCode":"16928","locality":"Pritzwalk","municipality":{"key":"12070316","name":"Pritzwalk, Stadt","type":"Stadt"},"district":{"key":"12070","name":"Prignitz","type":"Landkreis"},"federalState":{"key":"12","name":"Brandenburg"}},{"name":"Putlitzer Str.","postalCode":"16928","locality":"Pritzwalk","municipality":{"key":"12070316","name":"Pritzwalk, Stadt","type":"Stadt"},"district":{"key":"12070","name":"Prignitz","type":"Landkreis"},"federalState":{"key":"12","name":"Brandenburg"}},{"name":"Rapshagener Str.","postalCode":"16928","locality":"Pritzwalk","municipality":{"key":"12070316","name":"Pritzwalk, Stadt","type":"Stadt"},"district":{"key":"12070","name":"Prignitz","type":"Landkreis"},"federalState":{"key":"12","name":"Brandenburg"}},{"name":"Rapshagener Weg Falkenhagen","postalCode":"16928","locality":"Pritzwalk","municipality":{"key":"12070316","name":"Pritzwalk, Stadt","type":"Stadt"},"district":{"key":"12070","name":"Prignitz","type":"Landkreis"},"federalState":{"key":"12","name":"Brandenburg"}},{"name":"Rathenaustr.","postalCode":"16928","locality":"Pritzwalk","municipality":{"key":"12070316","name":"Pritzwalk, Stadt","type":"Stadt"},"district":{"key":"12070","name":"Prignitz","type":"Landkreis"},"federalState":{"key":"12","name":"Brandenburg"}},{"name":"Rolf-Hövelmann-Str.","postalCode":"16928","locality":"Pritzwalk","municipality":{"key":"12070316","name":"Pritzwalk, Stadt","type":"Stadt"},"district":{"key":"12070","name":"Prignitz","type":"Landkreis"},"federalState":{"key":"12","name":"Brandenburg"}},{"name":"Roßstr.","postalCode":"16928","locality":"Pritzwalk","municipality":{"key":"12070316","name":"Pritzwalk, Stadt","type":"Stadt"},"district":{"key":"12070","name":"Prignitz","type":"Landkreis"},"federalState":{"key":"12","name":"Brandenburg"}},{"name":"Rostocker Str.","postalCode":"16928","locality":"Pritzwalk","municipality":{"key":"12070316","name":"Pritzwalk, Stadt","type":"Stadt"},"district":{"key":"12070","name":"Prignitz","type":"Landkreis"},"federalState":{"key":"12","name":"Brandenburg"}},{"name":"Saarstr.","postalCode":"16928","locality":"Pritzwalk","municipality":{"key":"12070316","name":"Pritzwalk, Stadt","type":"Stadt"},"district":{"key":"12070","name":"Prignitz","type":"Landkreis"},"federalState":{"key":"12","name":"Brandenburg"}},{"name":"Sadenbecker Str.","postalCode":"16928","locality":"Pritzwalk","municipality":{"key":"12070316","name":"Pritzwalk, Stadt","type":"Stadt"},"district":{"key":"12070","name":"Prignitz","type":"Landkreis"},"federalState":{"key":"12","name":"Brandenburg"}},{"name":"Salbachweg","postalCode":"16928","locality":"Pritzwalk","municipality":{"key":"12070316","name":"Pritzwalk, Stadt","type":"Stadt"},"district":{"key":"12070","name":"Prignitz","type":"Landkreis"},"federalState":{"key":"12","name":"Brandenburg"}},{"name":"Sarnower Weg","postalCode":"16928","locality":"Pritzwalk","municipality":{"key":"12070316","name":"Pritzwalk, Stadt","type":"Stadt"},"district":{"key":"12070","name":"Prignitz","type":"Landkreis"},"federalState":{"key":"12","name":"Brandenburg"}},{"name":"Schillerstr.","postalCode":"16928","locality":"Pritzwalk","municipality":{"key":"12070316","name":"Pritzwalk, Stadt","type":"Stadt"},"district":{"key":"12070","name":"Prignitz","type":"Landkreis"},"federalState":{"key":"12","name":"Brandenburg"}},{"name":"Schlachthausstr.","postalCode":"16928","locality":"Pritzwalk","municipality":{"key":"12070316","name":"Pritzwalk, Stadt","type":"Stadt"},"district":{"key":"12070","name":"Prignitz","type":"Landkreis"},"federalState":{"key":"12","name":"Brandenburg"}},{"name":"Schönhagener Mühle","postalCode":"16928","locality":"Pritzwalk","municipality":{"key":"12070316","name":"Pritzwalk, Stadt","type":"Stadt"},"district":{"key":"12070","name":"Prignitz","type":"Landkreis"},"federalState":{"key":"12","name":"Brandenburg"}},{"name":"Schönhagener Str.","postalCode":"16928","locality":"Pritzwalk","municipality":{"key":"12070316","name":"Pritzwalk, Stadt","type":"Stadt"},"district":{"key":"12070","name":"Prignitz","type":"Landkreis"},"federalState":{"key":"12","name":"Brandenburg"}},{"name":"Schützenstr.","postalCode":"16928","locality":"Pritzwalk","municipality":{"key":"12070316","name":"Pritzwalk, Stadt","type":"Stadt"},"district":{"key":"12070","name":"Prignitz","type":"Landkreis"},"federalState":{"key":"12","name":"Brandenburg"}},{"name":"Schwalbenweg","postalCode":"16928","locality":"Pritzwalk","municipality":{"key":"12070316","name":"Pritzwalk, Stadt","type":"Stadt"},"district":{"key":"12070","name":"Prignitz","type":"Landkreis"},"federalState":{"key":"12","name":"Brandenburg"}},{"name":"Schwanenweg","postalCode":"16928","locality":"Pritzwalk","municipality":{"key":"12070316","name":"Pritzwalk, Stadt","type":"Stadt"},"district":{"key":"12070","name":"Prignitz","type":"Landkreis"},"federalState":{"key":"12","name":"Brandenburg"}},{"name":"Spatzenweg","postalCode":"16928","locality":"Pritzwalk","municipality":{"key":"12070316","name":"Pritzwalk, Stadt","type":"Stadt"},"district":{"key":"12070","name":"Prignitz","type":"Landkreis"},"federalState":{"key":"12","name":"Brandenburg"}},{"name":"Straßburger Str.","postalCode":"16928","locality":"Pritzwalk","municipality":{"key":"12070316","name":"Pritzwalk, Stadt","type":"Stadt"},"district":{"key":"12070","name":"Prignitz","type":"Landkreis"},"federalState":{"key":"12","name":"Brandenburg"}},{"name":"Str. des Friedens","postalCode":"16928","locality":"Pritzwalk","municipality":{"key":"12070316","name":"Pritzwalk, Stadt","type":"Stadt"},"district":{"key":"12070","name":"Prignitz","type":"Landkreis"},"federalState":{"key":"12","name":"Brandenburg"}},{"name":"Streckenthiner Dorfstr.","postalCode":"16928","locality":"Pritzwalk","municipality":{"key":"12070316","name":"Pritzwalk, Stadt","type":"Stadt"},"district":{"key":"12070","name":"Prignitz","type":"Landkreis"},"federalState":{"key":"12","name":"Brandenburg"}},{"name":"Stresemannstr.","postalCode":"16928","locality":"Pritzwalk","municipality":{"key":"12070316","name":"Pritzwalk, Stadt","type":"Stadt"},"district":{"key":"12070","name":"Prignitz","type":"Landkreis"},"federalState":{"key":"12","name":"Brandenburg"}},{"name":"Tannenkoppelweg","postalCode":"16928","locality":"Pritzwalk","municipality":{"key":"12070316","name":"Pritzwalk, Stadt","type":"Stadt"},"district":{"key":"12070","name":"Prignitz","type":"Landkreis"},"federalState":{"key":"12","name":"Brandenburg"}},{"name":"Taubenweg","postalCode":"16928","locality":"Pritzwalk","municipality":{"key":"12070316","name":"Pritzwalk, Stadt","type":"Stadt"},"district":{"key":"12070","name":"Prignitz","type":"Landkreis"},"federalState":{"key":"12","name":"Brandenburg"}},{"name":"Tuchmachergasse","postalCode":"16928","locality":"Pritzwalk","municipality":{"key":"12070316","name":"Pritzwalk, Stadt","type":"Stadt"},"district":{"key":"12070","name":"Prignitz","type":"Landkreis"},"federalState":{"key":"12","name":"Brandenburg"}},{"name":"Unter den Linden","postalCode":"16928","locality":"Groß Pankow (Prignitz)","municipality":{"key":"12070125","name":"Groß Pankow (Prignitz)","type":"Kreisangehörige_Gemeinde"},"district":{"key":"12070","name":"Prignitz","type":"Landkreis"},"federalState":{"key":"12","name":"Brandenburg"}},{"name":"Vahrnower Str.","postalCode":"16928","locality":"Groß Pankow (Prignitz)","municipality":{"key":"12070125","name":"Groß Pankow (Prignitz)","type":"Kreisangehörige_Gemeinde"},"district":{"key":"12070","name":"Prignitz","type":"Landkreis"},"federalState":{"key":"12","name":"Brandenburg"}},{"name":"Vettin","postalCode":"16928","locality":"Groß Pankow (Prignitz)","municipality":{"key":"12070125","name":"Groß Pankow (Prignitz)","type":"Kreisangehörige_Gemeinde"},"district":{"key":"12070","name":"Prignitz","type":"Landkreis"},"federalState":{"key":"12","name":"Brandenburg"}},{"name":"Vettiner Str.","postalCode":"16928","locality":"Groß Pankow (Prignitz)","municipality":{"key":"12070125","name":"Groß Pankow (Prignitz)","type":"Kreisangehörige_Gemeinde"},"district":{"key":"12070","name":"Prignitz","type":"Landkreis"},"federalState":{"key":"12","name":"Brandenburg"}},{"name":"Wallstr.","postalCode":"16928","locality":"Pritzwalk","municipality":{"key":"12070316","name":"Pritzwalk, Stadt","type":"Stadt"},"district":{"key":"12070","name":"Prignitz","type":"Landkreis"},"federalState":{"key":"12","name":"Brandenburg"}},{"name":"Weg zum Sportplatz","postalCode":"16928","locality":"Pritzwalk","municipality":{"key":"12070316","name":"Pritzwalk, Stadt","type":"Stadt"},"district":{"key":"12070","name":"Prignitz","type":"Landkreis"},"federalState":{"key":"12","name":"Brandenburg"}},{"name":"Wiesenweg Falkenhagen","postalCode":"16928","locality":"Pritzwalk","municipality":{"key":"12070316","name":"Pritzwalk, Stadt","type":"Stadt"},"district":{"key":"12070","name":"Prignitz","type":"Landkreis"},"federalState":{"key":"12","name":"Brandenburg"}},{"name":"Wiesenweg Wilmersdorf","postalCode":"16928","locality":"Pritzwalk","municipality":{"key":"12070316","name":"Pritzwalk, Stadt","type":"Stadt"},"district":{"key":"12070","name":"Prignitz","type":"Landkreis"},"federalState":{"key":"12","name":"Brandenburg"}},{"name":"Wirtschaftsweg Giesensdorf","postalCode":"16928","locality":"Pritzwalk","municipality":{"key":"12070316","name":"Pritzwalk, Stadt","type":"Stadt"},"district":{"key":"12070","name":"Prignitz","type":"Landkreis"},"federalState":{"key":"12","name":"Brandenburg"}},{"name":"Wirtschaftsweg Schönhagen","postalCode":"16928","locality":"Pritzwalk","municipality":{"key":"12070316","name":"Pritzwalk, Stadt","type":"Stadt"},"district":{"key":"12070","name":"Prignitz","type":"Landkreis"},"federalState":{"key":"12","name":"Brandenburg"}},{"name":"Wirtschaftsweg Steffenshagen","postalCode":"16928","locality":"Pritzwalk","municipality":{"key":"12070316","name":"Pritzwalk, Stadt","type":"Stadt"},"district":{"key":"12070","name":"Prignitz","type":"Landkreis"},"federalState":{"key":"12","name":"Brandenburg"}},{"name":"Wittstocker Chaussee","postalCode":"16928","locality":"Pritzwalk","municipality":{"key":"12070316","name":"Pritzwalk, Stadt","type":"Stadt"},"district":{"key":"12070","name":"Prignitz","type":"Landkreis"},"federalState":{"key":"12","name":"Brandenburg"}},{"name":"Wittstocker Chaussee Kemnitz","postalCode":"16928","locality":"Pritzwalk","municipality":{"key":"12070316","name":"Pritzwalk, Stadt","type":"Stadt"},"district":{"key":"12070","name":"Prignitz","type":"Landkreis"},"federalState":{"key":"12","name":"Brandenburg"}},{"name":"Zum Holzhof","postalCode":"16928","locality":"Pritzwalk","municipality":{"key":"12070316","name":"Pritzwalk, Stadt","type":"Stadt"},"district":{"key":"12070","name":"Prignitz","type":"Landkreis"},"federalState":{"key":"12","name":"Brandenburg"}},{"name":"Zum Stadion","postalCode":"16928","locality":"Pritzwalk","municipality":{"key":"12070316","name":"Pritzwalk, Stadt","type":"Stadt"},"district":{"key":"12070","name":"Prignitz","type":"Landkreis"},"federalState":{"key":"12","name":"Brandenburg"}},{"name":"Zur Hainholzmühle","postalCode":"16928","locality":"Pritzwalk","municipality":{"key":"12070316","name":"Pritzwalk, Stadt","type":"Stadt"},"district":{"key":"12070","name":"Prignitz","type":"Landkreis"},"federalState":{"key":"12","name":"Brandenburg"}},]