[{"name":"Aggensteinweg","postalCode":"87749","locality":"Hawangen","municipality":{"key":"09778149","name":"Hawangen","type":"Kreisangehörige_Gemeinde"},"district":{"key":"09778","name":"Unterallgäu","type":"Landkreis"},"federalState":{"key":"09","name":"Bayern"}},{"name":"Ahornweg","postalCode":"87749","locality":"Hawangen","municipality":{"key":"09778149","name":"Hawangen","type":"Kreisangehörige_Gemeinde"},"district":{"key":"09778","name":"Unterallgäu","type":"Landkreis"},"federalState":{"key":"09","name":"Bayern"}},{"name":"Allgäuer Str.","postalCode":"87749","locality":"Hawangen","municipality":{"key":"09778149","name":"Hawangen","type":"Kreisangehörige_Gemeinde"},"district":{"key":"09778","name":"Unterallgäu","type":"Landkreis"},"federalState":{"key":"09","name":"Bayern"}},{"name":"Alter Stadtweg","postalCode":"87749","locality":"Hawangen","municipality":{"key":"09778149","name":"Hawangen","type":"Kreisangehörige_Gemeinde"},"district":{"key":"09778","name":"Unterallgäu","type":"Landkreis"},"federalState":{"key":"09","name":"Bayern"}},{"name":"Am Alten Sportplatz","postalCode":"87749","locality":"Hawangen","municipality":{"key":"09778149","name":"Hawangen","type":"Kreisangehörige_Gemeinde"},"district":{"key":"09778","name":"Unterallgäu","type":"Landkreis"},"federalState":{"key":"09","name":"Bayern"}},{"name":"Birkenweg","postalCode":"87749","locality":"Hawangen","municipality":{"key":"09778149","name":"Hawangen","type":"Kreisangehörige_Gemeinde"},"district":{"key":"09778","name":"Unterallgäu","type":"Landkreis"},"federalState":{"key":"09","name":"Bayern"}},{"name":"Edelweißweg","postalCode":"87749","locality":"Hawangen","municipality":{"key":"09778149","name":"Hawangen","type":"Kreisangehörige_Gemeinde"},"district":{"key":"09778","name":"Unterallgäu","type":"Landkreis"},"federalState":{"key":"09","name":"Bayern"}},{"name":"Eichenweg","postalCode":"87749","locality":"Hawangen","municipality":{"key":"09778149","name":"Hawangen","type":"Kreisangehörige_Gemeinde"},"district":{"key":"09778","name":"Unterallgäu","type":"Landkreis"},"federalState":{"key":"09","name":"Bayern"}},{"name":"Enzianweg","postalCode":"87749","locality":"Hawangen","municipality":{"key":"09778149","name":"Hawangen","type":"Kreisangehörige_Gemeinde"},"district":{"key":"09778","name":"Unterallgäu","type":"Landkreis"},"federalState":{"key":"09","name":"Bayern"}},{"name":"Friedhofsweg","postalCode":"87749","locality":"Hawangen","municipality":{"key":"09778149","name":"Hawangen","type":"Kreisangehörige_Gemeinde"},"district":{"key":"09778","name":"Unterallgäu","type":"Landkreis"},"federalState":{"key":"09","name":"Bayern"}},{"name":"Froschgasse","postalCode":"87749","locality":"Hawangen","municipality":{"key":"09778149","name":"Hawangen","type":"Kreisangehörige_Gemeinde"},"district":{"key":"09778","name":"Unterallgäu","type":"Landkreis"},"federalState":{"key":"09","name":"Bayern"}},{"name":"Gottlieb-Daimler-Str.","postalCode":"87749","locality":"Hawangen","municipality":{"key":"09778149","name":"Hawangen","type":"Kreisangehörige_Gemeinde"},"district":{"key":"09778","name":"Unterallgäu","type":"Landkreis"},"federalState":{"key":"09","name":"Bayern"}},{"name":"Grüntenweg","postalCode":"87749","locality":"Hawangen","municipality":{"key":"09778149","name":"Hawangen","type":"Kreisangehörige_Gemeinde"},"district":{"key":"09778","name":"Unterallgäu","type":"Landkreis"},"federalState":{"key":"09","name":"Bayern"}},{"name":"Im Moos","postalCode":"87749","locality":"Hawangen","municipality":{"key":"09778149","name":"Hawangen","type":"Kreisangehörige_Gemeinde"},"district":{"key":"09778","name":"Unterallgäu","type":"Landkreis"},"federalState":{"key":"09","name":"Bayern"}},{"name":"Kemptener Str.","postalCode":"87749","locality":"Hawangen","municipality":{"key":"09778149","name":"Hawangen","type":"Kreisangehörige_Gemeinde"},"district":{"key":"09778","name":"Unterallgäu","type":"Landkreis"},"federalState":{"key":"09","name":"Bayern"}},{"name":"Kirchplatz","postalCode":"87749","locality":"Hawangen","municipality":{"key":"09778149","name":"Hawangen","type":"Kreisangehörige_Gemeinde"},"district":{"key":"09778","name":"Unterallgäu","type":"Landkreis"},"federalState":{"key":"09","name":"Bayern"}},{"name":"Klosterwaldstr.","postalCode":"87749","locality":"Hawangen","municipality":{"key":"09778149","name":"Hawangen","type":"Kreisangehörige_Gemeinde"},"district":{"key":"09778","name":"Unterallgäu","type":"Landkreis"},"federalState":{"key":"09","name":"Bayern"}},{"name":"Krautgartenweg","postalCode":"87749","locality":"Hawangen","municipality":{"key":"09778149","name":"Hawangen","type":"Kreisangehörige_Gemeinde"},"district":{"key":"09778","name":"Unterallgäu","type":"Landkreis"},"federalState":{"key":"09","name":"Bayern"}},{"name":"Krokusweg","postalCode":"87749","locality":"Hawangen","municipality":{"key":"09778149","name":"Hawangen","type":"Kreisangehörige_Gemeinde"},"district":{"key":"09778","name":"Unterallgäu","type":"Landkreis"},"federalState":{"key":"09","name":"Bayern"}},{"name":"Lindenweg","postalCode":"87749","locality":"Hawangen","municipality":{"key":"09778149","name":"Hawangen","type":"Kreisangehörige_Gemeinde"},"district":{"key":"09778","name":"Unterallgäu","type":"Landkreis"},"federalState":{"key":"09","name":"Bayern"}},{"name":"Memminger Str.","postalCode":"87749","locality":"Hawangen","municipality":{"key":"09778149","name":"Hawangen","type":"Kreisangehörige_Gemeinde"},"district":{"key":"09778","name":"Unterallgäu","type":"Landkreis"},"federalState":{"key":"09","name":"Bayern"}},{"name":"Milchwerkstr.","postalCode":"87749","locality":"Hawangen","municipality":{"key":"09778149","name":"Hawangen","type":"Kreisangehörige_Gemeinde"},"district":{"key":"09778","name":"Unterallgäu","type":"Landkreis"},"federalState":{"key":"09","name":"Bayern"}},{"name":"Mühlenweg","postalCode":"87749","locality":"Hawangen","municipality":{"key":"09778149","name":"Hawangen","type":"Kreisangehörige_Gemeinde"},"district":{"key":"09778","name":"Unterallgäu","type":"Landkreis"},"federalState":{"key":"09","name":"Bayern"}},{"name":"Nelkenweg","postalCode":"87749","locality":"Hawangen","municipality":{"key":"09778149","name":"Hawangen","type":"Kreisangehörige_Gemeinde"},"district":{"key":"09778","name":"Unterallgäu","type":"Landkreis"},"federalState":{"key":"09","name":"Bayern"}},{"name":"Oberer Weiherweg","postalCode":"87749","locality":"Hawangen","municipality":{"key":"09778149","name":"Hawangen","type":"Kreisangehörige_Gemeinde"},"district":{"key":"09778","name":"Unterallgäu","type":"Landkreis"},"federalState":{"key":"09","name":"Bayern"}},{"name":"Ottobeurer Str.","postalCode":"87749","locality":"Hawangen","municipality":{"key":"09778149","name":"Hawangen","type":"Kreisangehörige_Gemeinde"},"district":{"key":"09778","name":"Unterallgäu","type":"Landkreis"},"federalState":{"key":"09","name":"Bayern"}},{"name":"Riebgartenweg","postalCode":"87749","locality":"Hawangen","municipality":{"key":"09778149","name":"Hawangen","type":"Kreisangehörige_Gemeinde"},"district":{"key":"09778","name":"Unterallgäu","type":"Landkreis"},"federalState":{"key":"09","name":"Bayern"}},{"name":"Ringstr.","postalCode":"87749","locality":"Hawangen","municipality":{"key":"09778149","name":"Hawangen","type":"Kreisangehörige_Gemeinde"},"district":{"key":"09778","name":"Unterallgäu","type":"Landkreis"},"federalState":{"key":"09","name":"Bayern"}},{"name":"Rosengasse","postalCode":"87749","locality":"Hawangen","municipality":{"key":"09778149","name":"Hawangen","type":"Kreisangehörige_Gemeinde"},"district":{"key":"09778","name":"Unterallgäu","type":"Landkreis"},"federalState":{"key":"09","name":"Bayern"}},{"name":"Rudolf-Diesel-Str.","postalCode":"87749","locality":"Hawangen","municipality":{"key":"09778149","name":"Hawangen","type":"Kreisangehörige_Gemeinde"},"district":{"key":"09778","name":"Unterallgäu","type":"Landkreis"},"federalState":{"key":"09","name":"Bayern"}},{"name":"Schulweg","postalCode":"87749","locality":"Hawangen","municipality":{"key":"09778149","name":"Hawangen","type":"Kreisangehörige_Gemeinde"},"district":{"key":"09778","name":"Unterallgäu","type":"Landkreis"},"federalState":{"key":"09","name":"Bayern"}},{"name":"Tulpenweg","postalCode":"87749","locality":"Hawangen","municipality":{"key":"09778149","name":"Hawangen","type":"Kreisangehörige_Gemeinde"},"district":{"key":"09778","name":"Unterallgäu","type":"Landkreis"},"federalState":{"key":"09","name":"Bayern"}},{"name":"Ungerhauser Str.","postalCode":"87749","locality":"Hawangen","municipality":{"key":"09778149","name":"Hawangen","type":"Kreisangehörige_Gemeinde"},"district":{"key":"09778","name":"Unterallgäu","type":"Landkreis"},"federalState":{"key":"09","name":"Bayern"}},{"name":"Unterer Weiherweg","postalCode":"87749","locality":"Hawangen","municipality":{"key":"09778149","name":"Hawangen","type":"Kreisangehörige_Gemeinde"},"district":{"key":"09778","name":"Unterallgäu","type":"Landkreis"},"federalState":{"key":"09","name":"Bayern"}},{"name":"Veilchenweg","postalCode":"87749","locality":"Hawangen","municipality":{"key":"09778149","name":"Hawangen","type":"Kreisangehörige_Gemeinde"},"district":{"key":"09778","name":"Unterallgäu","type":"Landkreis"},"federalState":{"key":"09","name":"Bayern"}},{"name":"Westkopfumfahrung","postalCode":"87749","locality":"Hawangen","municipality":{"key":"09778149","name":"Hawangen","type":"Kreisangehörige_Gemeinde"},"district":{"key":"09778","name":"Unterallgäu","type":"Landkreis"},"federalState":{"key":"09","name":"Bayern"}},{"name":"Ziegeleiweg","postalCode":"87749","locality":"Hawangen","municipality":{"key":"09778149","name":"Hawangen","type":"Kreisangehörige_Gemeinde"},"district":{"key":"09778","name":"Unterallgäu","type":"Landkreis"},"federalState":{"key":"09","name":"Bayern"}},]