[{"key":"10137358","name":"Contrada al Lago","postalCode":"6933","locality":"Muzzano","commune":{"key":"5205","name":"Muzzano","shortName":"Muzzano"},"district":{"key":"2105","name":"Distretto di Lugano"},"canton":{"key":"21","code":"TI","name":"Ticino"},"status":"Real"},{"key":"10137359","name":"Contrada Antica","postalCode":"6933","locality":"Muzzano","commune":{"key":"5205","name":"Muzzano","shortName":"Muzzano"},"district":{"key":"2105","name":"Distretto di Lugano"},"canton":{"key":"21","code":"TI","name":"Ticino"},"status":"Real"},{"key":"10137361","name":"Piazza delle Scuole","postalCode":"6933","locality":"Muzzano","commune":{"key":"5205","name":"Muzzano","shortName":"Muzzano"},"district":{"key":"2105","name":"Distretto di Lugano"},"canton":{"key":"21","code":"TI","name":"Ticino"},"status":"Real"},{"key":"10137362","name":"Piazza Sant'Andrea","postalCode":"6933","locality":"Muzzano","commune":{"key":"5205","name":"Muzzano","shortName":"Muzzano"},"district":{"key":"2105","name":"Distretto di Lugano"},"canton":{"key":"21","code":"TI","name":"Ticino"},"status":"Real"},{"key":"10137363","name":"Piazzetta Alta","postalCode":"6933","locality":"Muzzano","commune":{"key":"5205","name":"Muzzano","shortName":"Muzzano"},"district":{"key":"2105","name":"Distretto di Lugano"},"canton":{"key":"21","code":"TI","name":"Ticino"},"status":"Real"},{"key":"10137364","name":"Piazzetta Roncorino","postalCode":"6933","locality":"Muzzano","commune":{"key":"5205","name":"Muzzano","shortName":"Muzzano"},"district":{"key":"2105","name":"Distretto di Lugano"},"canton":{"key":"21","code":"TI","name":"Ticino"},"status":"Real"},{"key":"10137365","name":"Via ai Molini","postalCode":"6933","locality":"Muzzano","commune":{"key":"5205","name":"Muzzano","shortName":"Muzzano"},"district":{"key":"2105","name":"Distretto di Lugano"},"canton":{"key":"21","code":"TI","name":"Ticino"},"status":"Real"},{"key":"10137367","name":"Via ai Ronchetti","postalCode":"6933","locality":"Muzzano","commune":{"key":"5205","name":"Muzzano","shortName":"Muzzano"},"district":{"key":"2105","name":"Distretto di Lugano"},"canton":{"key":"21","code":"TI","name":"Ticino"},"status":"Real"},{"key":"10137370","name":"Via alla Foce","postalCode":"6933","locality":"Muzzano","commune":{"key":"5205","name":"Muzzano","shortName":"Muzzano"},"district":{"key":"2105","name":"Distretto di Lugano"},"canton":{"key":"21","code":"TI","name":"Ticino"},"status":"Real"},{"key":"10137371","name":"Via alla Fontana","postalCode":"6933","locality":"Muzzano","commune":{"key":"5205","name":"Muzzano","shortName":"Muzzano"},"district":{"key":"2105","name":"Distretto di Lugano"},"canton":{"key":"21","code":"TI","name":"Ticino"},"status":"Real"},{"key":"10137372","name":"Via alla Piana","postalCode":"6933","locality":"Muzzano","commune":{"key":"5205","name":"Muzzano","shortName":"Muzzano"},"district":{"key":"2105","name":"Distretto di Lugano"},"canton":{"key":"21","code":"TI","name":"Ticino"},"status":"Real"},{"key":"10138438","name":"Via alla Selva","postalCode":"6933","locality":"Muzzano","commune":{"key":"5205","name":"Muzzano","shortName":"Muzzano"},"district":{"key":"2105","name":"Distretto di Lugano"},"canton":{"key":"21","code":"TI","name":"Ticino"},"status":"Real"},{"key":"10137368","name":"Via al Ronco","postalCode":"6933","locality":"Muzzano","commune":{"key":"5205","name":"Muzzano","shortName":"Muzzano"},"district":{"key":"2105","name":"Distretto di Lugano"},"canton":{"key":"21","code":"TI","name":"Ticino"},"status":"Real"},{"key":"10137369","name":"Via al Teglio","postalCode":"6933","locality":"Muzzano","commune":{"key":"5205","name":"Muzzano","shortName":"Muzzano"},"district":{"key":"2105","name":"Distretto di Lugano"},"canton":{"key":"21","code":"TI","name":"Ticino"},"status":"Real"},{"key":"10138439","name":"Via Brusada","postalCode":"6933","locality":"Muzzano","commune":{"key":"5205","name":"Muzzano","shortName":"Muzzano"},"district":{"key":"2105","name":"Distretto di Lugano"},"canton":{"key":"21","code":"TI","name":"Ticino"},"status":"Real"},{"key":"10138440","name":"Via Campagna","postalCode":"6933","locality":"Muzzano","commune":{"key":"5205","name":"Muzzano","shortName":"Muzzano"},"district":{"key":"2105","name":"Distretto di Lugano"},"canton":{"key":"21","code":"TI","name":"Ticino"},"status":"Real"},{"key":"10138441","name":"Via Casarico","postalCode":"6933","locality":"Muzzano","commune":{"key":"5205","name":"Muzzano","shortName":"Muzzano"},"district":{"key":"2105","name":"Distretto di Lugano"},"canton":{"key":"21","code":"TI","name":"Ticino"},"status":"Real"},{"key":"10138442","name":"Via Celso Bottani","postalCode":"6933","locality":"Muzzano","commune":{"key":"5205","name":"Muzzano","shortName":"Muzzano"},"district":{"key":"2105","name":"Distretto di Lugano"},"canton":{"key":"21","code":"TI","name":"Ticino"},"status":"Real"},{"key":"10138443","name":"Via Ciusaretta","postalCode":"6933","locality":"Muzzano","commune":{"key":"5205","name":"Muzzano","shortName":"Muzzano"},"district":{"key":"2105","name":"Distretto di Lugano"},"canton":{"key":"21","code":"TI","name":"Ticino"},"status":"Real"},{"key":"10138444","name":"Via Codentro","postalCode":"6933","locality":"Muzzano","commune":{"key":"5205","name":"Muzzano","shortName":"Muzzano"},"district":{"key":"2105","name":"Distretto di Lugano"},"canton":{"key":"21","code":"TI","name":"Ticino"},"status":"Real"},{"key":"10138445","name":"Via Corale","postalCode":"6933","locality":"Muzzano","commune":{"key":"5205","name":"Muzzano","shortName":"Muzzano"},"district":{"key":"2105","name":"Distretto di Lugano"},"canton":{"key":"21","code":"TI","name":"Ticino"},"status":"Real"},{"key":"10138446","name":"Via Crossiggia","postalCode":"6933","locality":"Muzzano","commune":{"key":"5205","name":"Muzzano","shortName":"Muzzano"},"district":{"key":"2105","name":"Distretto di Lugano"},"canton":{"key":"21","code":"TI","name":"Ticino"},"status":"Real"},{"key":"10138447","name":"Via dei Portici","postalCode":"6933","locality":"Muzzano","commune":{"key":"5205","name":"Muzzano","shortName":"Muzzano"},"district":{"key":"2105","name":"Distretto di Lugano"},"canton":{"key":"21","code":"TI","name":"Ticino"},"status":"Real"},{"key":"10138448","name":"Via delle Coste","postalCode":"6933","locality":"Muzzano","commune":{"key":"5205","name":"Muzzano","shortName":"Muzzano"},"district":{"key":"2105","name":"Distretto di Lugano"},"canton":{"key":"21","code":"TI","name":"Ticino"},"status":"Real"},{"key":"10138449","name":"Via Industria","postalCode":"6933","locality":"Muzzano","commune":{"key":"5205","name":"Muzzano","shortName":"Muzzano"},"district":{"key":"2105","name":"Distretto di Lugano"},"canton":{"key":"21","code":"TI","name":"Ticino"},"status":"Real"},{"key":"10138450","name":"Via Mondino","postalCode":"6933","locality":"Muzzano","commune":{"key":"5205","name":"Muzzano","shortName":"Muzzano"},"district":{"key":"2105","name":"Distretto di Lugano"},"canton":{"key":"21","code":"TI","name":"Ticino"},"status":"Real"},{"key":"10138451","name":"Via Nava","postalCode":"6933","locality":"Muzzano","commune":{"key":"5205","name":"Muzzano","shortName":"Muzzano"},"district":{"key":"2105","name":"Distretto di Lugano"},"canton":{"key":"21","code":"TI","name":"Ticino"},"status":"Real"},{"key":"10138452","name":"Via Orbisana","postalCode":"6933","locality":"Muzzano","commune":{"key":"5205","name":"Muzzano","shortName":"Muzzano"},"district":{"key":"2105","name":"Distretto di Lugano"},"canton":{"key":"21","code":"TI","name":"Ticino"},"status":"Real"},{"key":"10138453","name":"Via Piodella","postalCode":"6933","locality":"Muzzano","commune":{"key":"5205","name":"Muzzano","shortName":"Muzzano"},"district":{"key":"2105","name":"Distretto di Lugano"},"canton":{"key":"21","code":"TI","name":"Ticino"},"status":"Real"},{"key":"10138454","name":"Via Preda","postalCode":"6933","locality":"Muzzano","commune":{"key":"5205","name":"Muzzano","shortName":"Muzzano"},"district":{"key":"2105","name":"Distretto di Lugano"},"canton":{"key":"21","code":"TI","name":"Ticino"},"status":"Real"},{"key":"10138455","name":"Via Pree","postalCode":"6933","locality":"Muzzano","commune":{"key":"5205","name":"Muzzano","shortName":"Muzzano"},"district":{"key":"2105","name":"Distretto di Lugano"},"canton":{"key":"21","code":"TI","name":"Ticino"},"status":"Real"},{"key":"10138456","name":"Via Roncorino","postalCode":"6933","locality":"Muzzano","commune":{"key":"5205","name":"Muzzano","shortName":"Muzzano"},"district":{"key":"2105","name":"Distretto di Lugano"},"canton":{"key":"21","code":"TI","name":"Ticino"},"status":"Real"},{"key":"10138457","name":"Via Rovencano","postalCode":"6933","locality":"Muzzano","commune":{"key":"5205","name":"Muzzano","shortName":"Muzzano"},"district":{"key":"2105","name":"Distretto di Lugano"},"canton":{"key":"21","code":"TI","name":"Ticino"},"status":"Real"},{"key":"10138458","name":"Via Scaletta","postalCode":"6933","locality":"Muzzano","commune":{"key":"5205","name":"Muzzano","shortName":"Muzzano"},"district":{"key":"2105","name":"Distretto di Lugano"},"canton":{"key":"21","code":"TI","name":"Ticino"},"status":"Real"},{"key":"10138459","name":"Via Vedeggio","postalCode":"6933","locality":"Muzzano","commune":{"key":"5205","name":"Muzzano","shortName":"Muzzano"},"district":{"key":"2105","name":"Distretto di Lugano"},"canton":{"key":"21","code":"TI","name":"Ticino"},"status":"Real"},{"key":"10138460","name":"Via Verzino","postalCode":"6933","locality":"Muzzano","commune":{"key":"5205","name":"Muzzano","shortName":"Muzzano"},"district":{"key":"2105","name":"Distretto di Lugano"},"canton":{"key":"21","code":"TI","name":"Ticino"},"status":"Real"},{"key":"10138461","name":"Via Vignora","postalCode":"6933","locality":"Muzzano","commune":{"key":"5205","name":"Muzzano","shortName":"Muzzano"},"district":{"key":"2105","name":"Distretto di Lugano"},"canton":{"key":"21","code":"TI","name":"Ticino"},"status":"Real"},]