[{"name":"Akazienweg","postalCode":"63776","locality":"Mömbris","municipality":{"key":"09671143","name":"Mömbris, M","type":"Markt"},"district":{"key":"09671","name":"Aschaffenburg","type":"Landkreis"},"federalState":{"key":"09","name":"Bayern"}},{"name":"Alzenauer Str.","postalCode":"63776","locality":"Mömbris","municipality":{"key":"09671143","name":"Mömbris, M","type":"Markt"},"district":{"key":"09671","name":"Aschaffenburg","type":"Landkreis"},"federalState":{"key":"09","name":"Bayern"}},{"name":"Am Bauersberg","postalCode":"63776","locality":"Mömbris","municipality":{"key":"09671143","name":"Mömbris, M","type":"Markt"},"district":{"key":"09671","name":"Aschaffenburg","type":"Landkreis"},"federalState":{"key":"09","name":"Bayern"}},{"name":"Am Fellchen","postalCode":"63776","locality":"Mömbris","municipality":{"key":"09671143","name":"Mömbris, M","type":"Markt"},"district":{"key":"09671","name":"Aschaffenburg","type":"Landkreis"},"federalState":{"key":"09","name":"Bayern"}},{"name":"Am Grund","postalCode":"63776","locality":"Mömbris","municipality":{"key":"09671143","name":"Mömbris, M","type":"Markt"},"district":{"key":"09671","name":"Aschaffenburg","type":"Landkreis"},"federalState":{"key":"09","name":"Bayern"}},{"name":"Am Hang","postalCode":"63776","locality":"Mömbris","municipality":{"key":"09671143","name":"Mömbris, M","type":"Markt"},"district":{"key":"09671","name":"Aschaffenburg","type":"Landkreis"},"federalState":{"key":"09","name":"Bayern"}},{"name":"Am Heidberg","postalCode":"63776","locality":"Mömbris","municipality":{"key":"09671143","name":"Mömbris, M","type":"Markt"},"district":{"key":"09671","name":"Aschaffenburg","type":"Landkreis"},"federalState":{"key":"09","name":"Bayern"}},{"name":"Am Heiligenwald","postalCode":"63776","locality":"Mömbris","municipality":{"key":"09671143","name":"Mömbris, M","type":"Markt"},"district":{"key":"09671","name":"Aschaffenburg","type":"Landkreis"},"federalState":{"key":"09","name":"Bayern"}},{"name":"Am Herrnberg","postalCode":"63776","locality":"Mömbris","municipality":{"key":"09671143","name":"Mömbris, M","type":"Markt"},"district":{"key":"09671","name":"Aschaffenburg","type":"Landkreis"},"federalState":{"key":"09","name":"Bayern"}},{"name":"Am Hohen Busch","postalCode":"63776","locality":"Mömbris","municipality":{"key":"09671143","name":"Mömbris, M","type":"Markt"},"district":{"key":"09671","name":"Aschaffenburg","type":"Landkreis"},"federalState":{"key":"09","name":"Bayern"}},{"name":"Am Kalkofen","postalCode":"63776","locality":"Mömbris","municipality":{"key":"09671143","name":"Mömbris, M","type":"Markt"},"district":{"key":"09671","name":"Aschaffenburg","type":"Landkreis"},"federalState":{"key":"09","name":"Bayern"}},{"name":"Am Kirchacker","postalCode":"63776","locality":"Mömbris","municipality":{"key":"09671143","name":"Mömbris, M","type":"Markt"},"district":{"key":"09671","name":"Aschaffenburg","type":"Landkreis"},"federalState":{"key":"09","name":"Bayern"}},{"name":"Am Kirchberg","postalCode":"63776","locality":"Mömbris","municipality":{"key":"09671143","name":"Mömbris, M","type":"Markt"},"district":{"key":"09671","name":"Aschaffenburg","type":"Landkreis"},"federalState":{"key":"09","name":"Bayern"}},{"name":"Am Kreuz","postalCode":"63776","locality":"Mömbris","municipality":{"key":"09671143","name":"Mömbris, M","type":"Markt"},"district":{"key":"09671","name":"Aschaffenburg","type":"Landkreis"},"federalState":{"key":"09","name":"Bayern"}},{"name":"Am Kreuzberg","postalCode":"63776","locality":"Mömbris","municipality":{"key":"09671143","name":"Mömbris, M","type":"Markt"},"district":{"key":"09671","name":"Aschaffenburg","type":"Landkreis"},"federalState":{"key":"09","name":"Bayern"}},{"name":"Am Markt","postalCode":"63776","locality":"Mömbris","municipality":{"key":"09671143","name":"Mömbris, M","type":"Markt"},"district":{"key":"09671","name":"Aschaffenburg","type":"Landkreis"},"federalState":{"key":"09","name":"Bayern"}},{"name":"Am Mühlberg","postalCode":"63776","locality":"Mömbris","municipality":{"key":"09671143","name":"Mömbris, M","type":"Markt"},"district":{"key":"09671","name":"Aschaffenburg","type":"Landkreis"},"federalState":{"key":"09","name":"Bayern"}},{"name":"Am Sandberg","postalCode":"63776","locality":"Mömbris","municipality":{"key":"09671143","name":"Mömbris, M","type":"Markt"},"district":{"key":"09671","name":"Aschaffenburg","type":"Landkreis"},"federalState":{"key":"09","name":"Bayern"}},{"name":"Am Schustersfeld","postalCode":"63776","locality":"Mömbris","municipality":{"key":"09671143","name":"Mömbris, M","type":"Markt"},"district":{"key":"09671","name":"Aschaffenburg","type":"Landkreis"},"federalState":{"key":"09","name":"Bayern"}},{"name":"Amselweg","postalCode":"63776","locality":"Mömbris","municipality":{"key":"09671143","name":"Mömbris, M","type":"Markt"},"district":{"key":"09671","name":"Aschaffenburg","type":"Landkreis"},"federalState":{"key":"09","name":"Bayern"}},{"name":"Am Steigleiter","postalCode":"63776","locality":"Mömbris","municipality":{"key":"09671143","name":"Mömbris, M","type":"Markt"},"district":{"key":"09671","name":"Aschaffenburg","type":"Landkreis"},"federalState":{"key":"09","name":"Bayern"}},{"name":"Am Steinacker","postalCode":"63776","locality":"Mömbris","municipality":{"key":"09671143","name":"Mömbris, M","type":"Markt"},"district":{"key":"09671","name":"Aschaffenburg","type":"Landkreis"},"federalState":{"key":"09","name":"Bayern"}},{"name":"Am Steinbach","postalCode":"63776","locality":"Mömbris","municipality":{"key":"09671143","name":"Mömbris, M","type":"Markt"},"district":{"key":"09671","name":"Aschaffenburg","type":"Landkreis"},"federalState":{"key":"09","name":"Bayern"}},{"name":"Am Steinchen","postalCode":"63776","locality":"Mömbris","municipality":{"key":"09671143","name":"Mömbris, M","type":"Markt"},"district":{"key":"09671","name":"Aschaffenburg","type":"Landkreis"},"federalState":{"key":"09","name":"Bayern"}},{"name":"Am Tannenberg","postalCode":"63776","locality":"Mömbris","municipality":{"key":"09671143","name":"Mömbris, M","type":"Markt"},"district":{"key":"09671","name":"Aschaffenburg","type":"Landkreis"},"federalState":{"key":"09","name":"Bayern"}},{"name":"Am Wäldchen","postalCode":"63776","locality":"Mömbris","municipality":{"key":"09671143","name":"Mömbris, M","type":"Markt"},"district":{"key":"09671","name":"Aschaffenburg","type":"Landkreis"},"federalState":{"key":"09","name":"Bayern"}},{"name":"Am Wasen","postalCode":"63776","locality":"Mömbris","municipality":{"key":"09671143","name":"Mömbris, M","type":"Markt"},"district":{"key":"09671","name":"Aschaffenburg","type":"Landkreis"},"federalState":{"key":"09","name":"Bayern"}},{"name":"Am Welsenfeld","postalCode":"63776","locality":"Mömbris","municipality":{"key":"09671143","name":"Mömbris, M","type":"Markt"},"district":{"key":"09671","name":"Aschaffenburg","type":"Landkreis"},"federalState":{"key":"09","name":"Bayern"}},{"name":"An der Heeg","postalCode":"63776","locality":"Mömbris","municipality":{"key":"09671143","name":"Mömbris, M","type":"Markt"},"district":{"key":"09671","name":"Aschaffenburg","type":"Landkreis"},"federalState":{"key":"09","name":"Bayern"}},{"name":"Angelsberg","postalCode":"63776","locality":"Mömbris","municipality":{"key":"09671143","name":"Mömbris, M","type":"Markt"},"district":{"key":"09671","name":"Aschaffenburg","type":"Landkreis"},"federalState":{"key":"09","name":"Bayern"}},{"name":"Auf der Höhe","postalCode":"63776","locality":"Mömbris","municipality":{"key":"09671143","name":"Mömbris, M","type":"Markt"},"district":{"key":"09671","name":"Aschaffenburg","type":"Landkreis"},"federalState":{"key":"09","name":"Bayern"}},{"name":"Auf der Selle","postalCode":"63776","locality":"Mömbris","municipality":{"key":"09671143","name":"Mömbris, M","type":"Markt"},"district":{"key":"09671","name":"Aschaffenburg","type":"Landkreis"},"federalState":{"key":"09","name":"Bayern"}},{"name":"Augustinusstr.","postalCode":"63776","locality":"Mömbris","municipality":{"key":"09671143","name":"Mömbris, M","type":"Markt"},"district":{"key":"09671","name":"Aschaffenburg","type":"Landkreis"},"federalState":{"key":"09","name":"Bayern"}},{"name":"Aulbachstr.","postalCode":"63776","locality":"Mömbris","municipality":{"key":"09671143","name":"Mömbris, M","type":"Markt"},"district":{"key":"09671","name":"Aschaffenburg","type":"Landkreis"},"federalState":{"key":"09","name":"Bayern"}},{"name":"Bahnhofstr.","postalCode":"63776","locality":"Mömbris","municipality":{"key":"09671143","name":"Mömbris, M","type":"Markt"},"district":{"key":"09671","name":"Aschaffenburg","type":"Landkreis"},"federalState":{"key":"09","name":"Bayern"}},{"name":"Bauersberger Hohle","postalCode":"63776","locality":"Mömbris","municipality":{"key":"09671143","name":"Mömbris, M","type":"Markt"},"district":{"key":"09671","name":"Aschaffenburg","type":"Landkreis"},"federalState":{"key":"09","name":"Bayern"}},{"name":"Baumackerweg","postalCode":"63776","locality":"Mömbris","municipality":{"key":"09671143","name":"Mömbris, M","type":"Markt"},"district":{"key":"09671","name":"Aschaffenburg","type":"Landkreis"},"federalState":{"key":"09","name":"Bayern"}},{"name":"Bayernstr.","postalCode":"63776","locality":"Mömbris","municipality":{"key":"09671143","name":"Mömbris, M","type":"Markt"},"district":{"key":"09671","name":"Aschaffenburg","type":"Landkreis"},"federalState":{"key":"09","name":"Bayern"}},{"name":"Beinegrund","postalCode":"63776","locality":"Mömbris","municipality":{"key":"09671143","name":"Mömbris, M","type":"Markt"},"district":{"key":"09671","name":"Aschaffenburg","type":"Landkreis"},"federalState":{"key":"09","name":"Bayern"}},{"name":"Bergweg","postalCode":"63776","locality":"Mömbris","municipality":{"key":"09671143","name":"Mömbris, M","type":"Markt"},"district":{"key":"09671","name":"Aschaffenburg","type":"Landkreis"},"federalState":{"key":"09","name":"Bayern"}},{"name":"Birkenhain","postalCode":"63776","locality":"Mömbris","municipality":{"key":"09671143","name":"Mömbris, M","type":"Markt"},"district":{"key":"09671","name":"Aschaffenburg","type":"Landkreis"},"federalState":{"key":"09","name":"Bayern"}},{"name":"Böhmerlandstr.","postalCode":"63776","locality":"Mömbris","municipality":{"key":"09671143","name":"Mömbris, M","type":"Markt"},"district":{"key":"09671","name":"Aschaffenburg","type":"Landkreis"},"federalState":{"key":"09","name":"Bayern"}},{"name":"Borngasse","postalCode":"63776","locality":"Mömbris","municipality":{"key":"09671143","name":"Mömbris, M","type":"Markt"},"district":{"key":"09671","name":"Aschaffenburg","type":"Landkreis"},"federalState":{"key":"09","name":"Bayern"}},{"name":"Bräunweg","postalCode":"63776","locality":"Mömbris","municipality":{"key":"09671143","name":"Mömbris, M","type":"Markt"},"district":{"key":"09671","name":"Aschaffenburg","type":"Landkreis"},"federalState":{"key":"09","name":"Bayern"}},{"name":"Breslauer Str.","postalCode":"63776","locality":"Mömbris","municipality":{"key":"09671143","name":"Mömbris, M","type":"Markt"},"district":{"key":"09671","name":"Aschaffenburg","type":"Landkreis"},"federalState":{"key":"09","name":"Bayern"}},{"name":"Brücker Weg","postalCode":"63776","locality":"Mömbris","municipality":{"key":"09671143","name":"Mömbris, M","type":"Markt"},"district":{"key":"09671","name":"Aschaffenburg","type":"Landkreis"},"federalState":{"key":"09","name":"Bayern"}},{"name":"Brunnenweg","postalCode":"63776","locality":"Mömbris","municipality":{"key":"09671143","name":"Mömbris, M","type":"Markt"},"district":{"key":"09671","name":"Aschaffenburg","type":"Landkreis"},"federalState":{"key":"09","name":"Bayern"}},{"name":"Buchenhain","postalCode":"63776","locality":"Mömbris","municipality":{"key":"09671143","name":"Mömbris, M","type":"Markt"},"district":{"key":"09671","name":"Aschaffenburg","type":"Landkreis"},"federalState":{"key":"09","name":"Bayern"}},{"name":"Campus","postalCode":"63743","locality":"Aschaffenburg","municipality":{"key":"09661000","name":"Aschaffenburg","type":"Kreisfreie_Stadt"},"district":{"key":"09661","name":"Aschaffenburg","type":"Kreisfreie_Stadt"},"federalState":{"key":"09","name":"Bayern"}},{"name":"Carl-Joseph-Will-Str.","postalCode":"63743","locality":"Aschaffenburg","municipality":{"key":"09661000","name":"Aschaffenburg","type":"Kreisfreie_Stadt"},"district":{"key":"09661","name":"Aschaffenburg","type":"Kreisfreie_Stadt"},"federalState":{"key":"09","name":"Bayern"}},{"name":"Charlottenweg","postalCode":"63743","locality":"Aschaffenburg","municipality":{"key":"09661000","name":"Aschaffenburg","type":"Kreisfreie_Stadt"},"district":{"key":"09661","name":"Aschaffenburg","type":"Kreisfreie_Stadt"},"federalState":{"key":"09","name":"Bayern"}},{"name":"Christian-Schad-Str.","postalCode":"63743","locality":"Aschaffenburg","municipality":{"key":"09661000","name":"Aschaffenburg","type":"Kreisfreie_Stadt"},"district":{"key":"09661","name":"Aschaffenburg","type":"Kreisfreie_Stadt"},"federalState":{"key":"09","name":"Bayern"}},{"name":"City-Tunnel","postalCode":"63739","locality":"Aschaffenburg","municipality":{"key":"09661000","name":"Aschaffenburg","type":"Kreisfreie_Stadt"},"district":{"key":"09661","name":"Aschaffenburg","type":"Kreisfreie_Stadt"},"federalState":{"key":"09","name":"Bayern"}},{"name":"Clemensstr.","postalCode":"63743","locality":"Aschaffenburg","municipality":{"key":"09661000","name":"Aschaffenburg","type":"Kreisfreie_Stadt"},"district":{"key":"09661","name":"Aschaffenburg","type":"Kreisfreie_Stadt"},"federalState":{"key":"09","name":"Bayern"}},{"name":"Cornelienstr.","postalCode":"63739","locality":"Aschaffenburg","municipality":{"key":"09661000","name":"Aschaffenburg","type":"Kreisfreie_Stadt"},"district":{"key":"09661","name":"Aschaffenburg","type":"Kreisfreie_Stadt"},"federalState":{"key":"09","name":"Bayern"}},{"name":"Cranachstr.","postalCode":"63739","locality":"Aschaffenburg","municipality":{"key":"09661000","name":"Aschaffenburg","type":"Kreisfreie_Stadt"},"district":{"key":"09661","name":"Aschaffenburg","type":"Kreisfreie_Stadt"},"federalState":{"key":"09","name":"Bayern"}},{"name":"Cunibertstr.","postalCode":"63739","locality":"Aschaffenburg","municipality":{"key":"09661000","name":"Aschaffenburg","type":"Kreisfreie_Stadt"},"district":{"key":"09661","name":"Aschaffenburg","type":"Kreisfreie_Stadt"},"federalState":{"key":"09","name":"Bayern"}},{"name":"Dammweg","postalCode":"63776","locality":"Mömbris","municipality":{"key":"09671143","name":"Mömbris, M","type":"Markt"},"district":{"key":"09671","name":"Aschaffenburg","type":"Landkreis"},"federalState":{"key":"09","name":"Bayern"}},{"name":"Danziger Str.","postalCode":"63776","locality":"Mömbris","municipality":{"key":"09671143","name":"Mömbris, M","type":"Markt"},"district":{"key":"09671","name":"Aschaffenburg","type":"Landkreis"},"federalState":{"key":"09","name":"Bayern"}},{"name":"Daunertweg","postalCode":"63776","locality":"Mömbris","municipality":{"key":"09671143","name":"Mömbris, M","type":"Markt"},"district":{"key":"09671","name":"Aschaffenburg","type":"Landkreis"},"federalState":{"key":"09","name":"Bayern"}},{"name":"Daxberger Str.","postalCode":"63776","locality":"Mömbris","municipality":{"key":"09671143","name":"Mömbris, M","type":"Markt"},"district":{"key":"09671","name":"Aschaffenburg","type":"Landkreis"},"federalState":{"key":"09","name":"Bayern"}},{"name":"Dellersweg","postalCode":"63776","locality":"Mömbris","municipality":{"key":"09671143","name":"Mömbris, M","type":"Markt"},"district":{"key":"09671","name":"Aschaffenburg","type":"Landkreis"},"federalState":{"key":"09","name":"Bayern"}},{"name":"Dörnsteinbacher Str.","postalCode":"63776","locality":"Mömbris","municipality":{"key":"09671143","name":"Mömbris, M","type":"Markt"},"district":{"key":"09671","name":"Aschaffenburg","type":"Landkreis"},"federalState":{"key":"09","name":"Bayern"}},{"name":"Dürrwiesenweg","postalCode":"63776","locality":"Mömbris","municipality":{"key":"09671143","name":"Mömbris, M","type":"Markt"},"district":{"key":"09671","name":"Aschaffenburg","type":"Landkreis"},"federalState":{"key":"09","name":"Bayern"}},{"name":"Eichengrundweg","postalCode":"63776","locality":"Mömbris","municipality":{"key":"09671143","name":"Mömbris, M","type":"Markt"},"district":{"key":"09671","name":"Aschaffenburg","type":"Landkreis"},"federalState":{"key":"09","name":"Bayern"}},{"name":"Eichenhain","postalCode":"63776","locality":"Mömbris","municipality":{"key":"09671143","name":"Mömbris, M","type":"Markt"},"district":{"key":"09671","name":"Aschaffenburg","type":"Landkreis"},"federalState":{"key":"09","name":"Bayern"}},{"name":"Eichwaldstr.","postalCode":"63776","locality":"Mömbris","municipality":{"key":"09671143","name":"Mömbris, M","type":"Markt"},"district":{"key":"09671","name":"Aschaffenburg","type":"Landkreis"},"federalState":{"key":"09","name":"Bayern"}},{"name":"Erlenweg","postalCode":"63776","locality":"Mömbris","municipality":{"key":"09671143","name":"Mömbris, M","type":"Markt"},"district":{"key":"09671","name":"Aschaffenburg","type":"Landkreis"},"federalState":{"key":"09","name":"Bayern"}},{"name":"Fabrikstr.","postalCode":"63776","locality":"Mömbris","municipality":{"key":"09671143","name":"Mömbris, M","type":"Markt"},"district":{"key":"09671","name":"Aschaffenburg","type":"Landkreis"},"federalState":{"key":"09","name":"Bayern"}},{"name":"Finkenweg","postalCode":"63776","locality":"Mömbris","municipality":{"key":"09671143","name":"Mömbris, M","type":"Markt"},"district":{"key":"09671","name":"Aschaffenburg","type":"Landkreis"},"federalState":{"key":"09","name":"Bayern"}},{"name":"Flederichsmühle","postalCode":"63776","locality":"Mömbris","municipality":{"key":"09671143","name":"Mömbris, M","type":"Markt"},"district":{"key":"09671","name":"Aschaffenburg","type":"Landkreis"},"federalState":{"key":"09","name":"Bayern"}},{"name":"Folzbachstr.","postalCode":"63776","locality":"Mömbris","municipality":{"key":"09671143","name":"Mömbris, M","type":"Markt"},"district":{"key":"09671","name":"Aschaffenburg","type":"Landkreis"},"federalState":{"key":"09","name":"Bayern"}},{"name":"Forstgraben","postalCode":"63776","locality":"Mömbris","municipality":{"key":"09671143","name":"Mömbris, M","type":"Markt"},"district":{"key":"09671","name":"Aschaffenburg","type":"Landkreis"},"federalState":{"key":"09","name":"Bayern"}},{"name":"Frankenstr.","postalCode":"63776","locality":"Mömbris","municipality":{"key":"09671143","name":"Mömbris, M","type":"Markt"},"district":{"key":"09671","name":"Aschaffenburg","type":"Landkreis"},"federalState":{"key":"09","name":"Bayern"}},{"name":"Frauenwiesenweg","postalCode":"63776","locality":"Mömbris","municipality":{"key":"09671143","name":"Mömbris, M","type":"Markt"},"district":{"key":"09671","name":"Aschaffenburg","type":"Landkreis"},"federalState":{"key":"09","name":"Bayern"}},{"name":"Friedenstr.","postalCode":"63776","locality":"Mömbris","municipality":{"key":"09671143","name":"Mömbris, M","type":"Markt"},"district":{"key":"09671","name":"Aschaffenburg","type":"Landkreis"},"federalState":{"key":"09","name":"Bayern"}},{"name":"Friedhofstr.","postalCode":"63776","locality":"Mömbris","municipality":{"key":"09671143","name":"Mömbris, M","type":"Markt"},"district":{"key":"09671","name":"Aschaffenburg","type":"Landkreis"},"federalState":{"key":"09","name":"Bayern"}},{"name":"Friedrichstr.","postalCode":"63776","locality":"Mömbris","municipality":{"key":"09671143","name":"Mömbris, M","type":"Markt"},"district":{"key":"09671","name":"Aschaffenburg","type":"Landkreis"},"federalState":{"key":"09","name":"Bayern"}},{"name":"Fronhofen","postalCode":"63776","locality":"Mömbris","municipality":{"key":"09671143","name":"Mömbris, M","type":"Markt"},"district":{"key":"09671","name":"Aschaffenburg","type":"Landkreis"},"federalState":{"key":"09","name":"Bayern"}},{"name":"Frühlingsstr.","postalCode":"63776","locality":"Mömbris","municipality":{"key":"09671143","name":"Mömbris, M","type":"Markt"},"district":{"key":"09671","name":"Aschaffenburg","type":"Landkreis"},"federalState":{"key":"09","name":"Bayern"}},{"name":"Fußweg Wendehammer zur Schule","postalCode":"63776","locality":"Mömbris","municipality":{"key":"09671143","name":"Mömbris, M","type":"Markt"},"district":{"key":"09671","name":"Aschaffenburg","type":"Landkreis"},"federalState":{"key":"09","name":"Bayern"}},{"name":"Gartenstr.","postalCode":"63776","locality":"Mömbris","municipality":{"key":"09671143","name":"Mömbris, M","type":"Markt"},"district":{"key":"09671","name":"Aschaffenburg","type":"Landkreis"},"federalState":{"key":"09","name":"Bayern"}},{"name":"Geiersrainweg","postalCode":"63776","locality":"Mömbris","municipality":{"key":"09671143","name":"Mömbris, M","type":"Markt"},"district":{"key":"09671","name":"Aschaffenburg","type":"Landkreis"},"federalState":{"key":"09","name":"Bayern"}},{"name":"Geisenhöfer Str.","postalCode":"63776","locality":"Mömbris","municipality":{"key":"09671143","name":"Mömbris, M","type":"Markt"},"district":{"key":"09671","name":"Aschaffenburg","type":"Landkreis"},"federalState":{"key":"09","name":"Bayern"}},{"name":"Glasbergstr.","postalCode":"63776","locality":"Mömbris","municipality":{"key":"09671143","name":"Mömbris, M","type":"Markt"},"district":{"key":"09671","name":"Aschaffenburg","type":"Landkreis"},"federalState":{"key":"09","name":"Bayern"}},{"name":"Glockfeldstr.","postalCode":"63776","locality":"Mömbris","municipality":{"key":"09671143","name":"Mömbris, M","type":"Markt"},"district":{"key":"09671","name":"Aschaffenburg","type":"Landkreis"},"federalState":{"key":"09","name":"Bayern"}},{"name":"Große Wiese","postalCode":"63776","locality":"Mömbris","municipality":{"key":"09671143","name":"Mömbris, M","type":"Markt"},"district":{"key":"09671","name":"Aschaffenburg","type":"Landkreis"},"federalState":{"key":"09","name":"Bayern"}},{"name":"Grottenweg","postalCode":"63776","locality":"Mömbris","municipality":{"key":"09671143","name":"Mömbris, M","type":"Markt"},"district":{"key":"09671","name":"Aschaffenburg","type":"Landkreis"},"federalState":{"key":"09","name":"Bayern"}},{"name":"Gunzenbacher Weg","postalCode":"63776","locality":"Mömbris","municipality":{"key":"09671143","name":"Mömbris, M","type":"Markt"},"district":{"key":"09671","name":"Aschaffenburg","type":"Landkreis"},"federalState":{"key":"09","name":"Bayern"}},{"name":"Haagstr.","postalCode":"63776","locality":"Mömbris","municipality":{"key":"09671143","name":"Mömbris, M","type":"Markt"},"district":{"key":"09671","name":"Aschaffenburg","type":"Landkreis"},"federalState":{"key":"09","name":"Bayern"}},{"name":"Handwerkerring","postalCode":"63776","locality":"Mömbris","municipality":{"key":"09671143","name":"Mömbris, M","type":"Markt"},"district":{"key":"09671","name":"Aschaffenburg","type":"Landkreis"},"federalState":{"key":"09","name":"Bayern"}},{"name":"Hanfwiesenstr.","postalCode":"63776","locality":"Mömbris","municipality":{"key":"09671143","name":"Mömbris, M","type":"Markt"},"district":{"key":"09671","name":"Aschaffenburg","type":"Landkreis"},"federalState":{"key":"09","name":"Bayern"}},{"name":"Hans-Karl-Str.","postalCode":"63776","locality":"Mömbris","municipality":{"key":"09671143","name":"Mömbris, M","type":"Markt"},"district":{"key":"09671","name":"Aschaffenburg","type":"Landkreis"},"federalState":{"key":"09","name":"Bayern"}},{"name":"Hauensteinstr.","postalCode":"63776","locality":"Mömbris","municipality":{"key":"09671143","name":"Mömbris, M","type":"Markt"},"district":{"key":"09671","name":"Aschaffenburg","type":"Landkreis"},"federalState":{"key":"09","name":"Bayern"}},{"name":"Hauhof","postalCode":"63776","locality":"Mömbris","municipality":{"key":"09671143","name":"Mömbris, M","type":"Markt"},"district":{"key":"09671","name":"Aschaffenburg","type":"Landkreis"},"federalState":{"key":"09","name":"Bayern"}},{"name":"Hauhofer Str.","postalCode":"63776","locality":"Mömbris","municipality":{"key":"09671143","name":"Mömbris, M","type":"Markt"},"district":{"key":"09671","name":"Aschaffenburg","type":"Landkreis"},"federalState":{"key":"09","name":"Bayern"}},{"name":"Hauptstr.","postalCode":"63776","locality":"Mömbris","municipality":{"key":"09671143","name":"Mömbris, M","type":"Markt"},"district":{"key":"09671","name":"Aschaffenburg","type":"Landkreis"},"federalState":{"key":"09","name":"Bayern"}},{"name":"Heckenweg","postalCode":"63776","locality":"Mömbris","municipality":{"key":"09671143","name":"Mömbris, M","type":"Markt"},"district":{"key":"09671","name":"Aschaffenburg","type":"Landkreis"},"federalState":{"key":"09","name":"Bayern"}},{"name":"Heidestr.","postalCode":"63776","locality":"Mömbris","municipality":{"key":"09671143","name":"Mömbris, M","type":"Markt"},"district":{"key":"09671","name":"Aschaffenburg","type":"Landkreis"},"federalState":{"key":"09","name":"Bayern"}},{"name":"Heilig-Geist-Weg","postalCode":"63776","locality":"Mömbris","municipality":{"key":"09671143","name":"Mömbris, M","type":"Markt"},"district":{"key":"09671","name":"Aschaffenburg","type":"Landkreis"},"federalState":{"key":"09","name":"Bayern"}},{"name":"Heimbach","postalCode":"63776","locality":"Mömbris","municipality":{"key":"09671143","name":"Mömbris, M","type":"Markt"},"district":{"key":"09671","name":"Aschaffenburg","type":"Landkreis"},"federalState":{"key":"09","name":"Bayern"}},{"name":"Heimbacher Mühle","postalCode":"63776","locality":"Mömbris","municipality":{"key":"09671143","name":"Mömbris, M","type":"Markt"},"district":{"key":"09671","name":"Aschaffenburg","type":"Landkreis"},"federalState":{"key":"09","name":"Bayern"}},{"name":"Hemsbach","postalCode":"63776","locality":"Mömbris","municipality":{"key":"09671143","name":"Mömbris, M","type":"Markt"},"district":{"key":"09671","name":"Aschaffenburg","type":"Landkreis"},"federalState":{"key":"09","name":"Bayern"}},{"name":"Hemsbacher Str.","postalCode":"63776","locality":"Mömbris","municipality":{"key":"09671143","name":"Mömbris, M","type":"Markt"},"district":{"key":"09671","name":"Aschaffenburg","type":"Landkreis"},"federalState":{"key":"09","name":"Bayern"}},{"name":"Hirschgraben","postalCode":"63776","locality":"Mömbris","municipality":{"key":"09671143","name":"Mömbris, M","type":"Markt"},"district":{"key":"09671","name":"Aschaffenburg","type":"Landkreis"},"federalState":{"key":"09","name":"Bayern"}},{"name":"Hofackerstr.","postalCode":"63776","locality":"Mömbris","municipality":{"key":"09671143","name":"Mömbris, M","type":"Markt"},"district":{"key":"09671","name":"Aschaffenburg","type":"Landkreis"},"federalState":{"key":"09","name":"Bayern"}},{"name":"Hohe Mark","postalCode":"63776","locality":"Mömbris","municipality":{"key":"09671143","name":"Mömbris, M","type":"Markt"},"district":{"key":"09671","name":"Aschaffenburg","type":"Landkreis"},"federalState":{"key":"09","name":"Bayern"}},{"name":"Hohlweg","postalCode":"63776","locality":"Mömbris","municipality":{"key":"09671143","name":"Mömbris, M","type":"Markt"},"district":{"key":"09671","name":"Aschaffenburg","type":"Landkreis"},"federalState":{"key":"09","name":"Bayern"}},{"name":"Hörsteiner Str.","postalCode":"63776","locality":"Mömbris","municipality":{"key":"09671143","name":"Mömbris, M","type":"Markt"},"district":{"key":"09671","name":"Aschaffenburg","type":"Landkreis"},"federalState":{"key":"09","name":"Bayern"}},{"name":"Hüttenberger Str.","postalCode":"63776","locality":"Mömbris","municipality":{"key":"09671143","name":"Mömbris, M","type":"Markt"},"district":{"key":"09671","name":"Aschaffenburg","type":"Landkreis"},"federalState":{"key":"09","name":"Bayern"}},{"name":"Im Breitfeld","postalCode":"63776","locality":"Mömbris","municipality":{"key":"09671143","name":"Mömbris, M","type":"Markt"},"district":{"key":"09671","name":"Aschaffenburg","type":"Landkreis"},"federalState":{"key":"09","name":"Bayern"}},{"name":"Im Gründchen","postalCode":"63776","locality":"Mömbris","municipality":{"key":"09671143","name":"Mömbris, M","type":"Markt"},"district":{"key":"09671","name":"Aschaffenburg","type":"Landkreis"},"federalState":{"key":"09","name":"Bayern"}},{"name":"Im Hofacker","postalCode":"63776","locality":"Mömbris","municipality":{"key":"09671143","name":"Mömbris, M","type":"Markt"},"district":{"key":"09671","name":"Aschaffenburg","type":"Landkreis"},"federalState":{"key":"09","name":"Bayern"}},{"name":"Im Hutzelgrund","postalCode":"63776","locality":"Mömbris","municipality":{"key":"09671143","name":"Mömbris, M","type":"Markt"},"district":{"key":"09671","name":"Aschaffenburg","type":"Landkreis"},"federalState":{"key":"09","name":"Bayern"}},{"name":"Im Naßacker","postalCode":"63776","locality":"Mömbris","municipality":{"key":"09671143","name":"Mömbris, M","type":"Markt"},"district":{"key":"09671","name":"Aschaffenburg","type":"Landkreis"},"federalState":{"key":"09","name":"Bayern"}},{"name":"Im Wingert","postalCode":"63776","locality":"Mömbris","municipality":{"key":"09671143","name":"Mömbris, M","type":"Markt"},"district":{"key":"09671","name":"Aschaffenburg","type":"Landkreis"},"federalState":{"key":"09","name":"Bayern"}},{"name":"In den Breiten Wiesen","postalCode":"63776","locality":"Mömbris","municipality":{"key":"09671143","name":"Mömbris, M","type":"Markt"},"district":{"key":"09671","name":"Aschaffenburg","type":"Landkreis"},"federalState":{"key":"09","name":"Bayern"}},{"name":"Jahnstr.","postalCode":"63776","locality":"Mömbris","municipality":{"key":"09671143","name":"Mömbris, M","type":"Markt"},"district":{"key":"09671","name":"Aschaffenburg","type":"Landkreis"},"federalState":{"key":"09","name":"Bayern"}},{"name":"Jakobusweg","postalCode":"63776","locality":"Mömbris","municipality":{"key":"09671143","name":"Mömbris, M","type":"Markt"},"district":{"key":"09671","name":"Aschaffenburg","type":"Landkreis"},"federalState":{"key":"09","name":"Bayern"}},{"name":"Johannesberger Str.","postalCode":"63776","locality":"Mömbris","municipality":{"key":"09671143","name":"Mömbris, M","type":"Markt"},"district":{"key":"09671","name":"Aschaffenburg","type":"Landkreis"},"federalState":{"key":"09","name":"Bayern"}},{"name":"Johann-Fath-Str.","postalCode":"63776","locality":"Mömbris","municipality":{"key":"09671143","name":"Mömbris, M","type":"Markt"},"district":{"key":"09671","name":"Aschaffenburg","type":"Landkreis"},"federalState":{"key":"09","name":"Bayern"}},{"name":"Kahlgrundstr.","postalCode":"63776","locality":"Mömbris","municipality":{"key":"09671143","name":"Mömbris, M","type":"Markt"},"district":{"key":"09671","name":"Aschaffenburg","type":"Landkreis"},"federalState":{"key":"09","name":"Bayern"}},{"name":"Kahlmühlweg","postalCode":"63776","locality":"Mömbris","municipality":{"key":"09671143","name":"Mömbris, M","type":"Markt"},"district":{"key":"09671","name":"Aschaffenburg","type":"Landkreis"},"federalState":{"key":"09","name":"Bayern"}},{"name":"Kaiserstr.","postalCode":"63776","locality":"Mömbris","municipality":{"key":"09671143","name":"Mömbris, M","type":"Markt"},"district":{"key":"09671","name":"Aschaffenburg","type":"Landkreis"},"federalState":{"key":"09","name":"Bayern"}},{"name":"Kaltenberg","postalCode":"63776","locality":"Mömbris","municipality":{"key":"09671143","name":"Mömbris, M","type":"Markt"},"district":{"key":"09671","name":"Aschaffenburg","type":"Landkreis"},"federalState":{"key":"09","name":"Bayern"}},{"name":"Kapellenweg","postalCode":"63776","locality":"Mömbris","municipality":{"key":"09671143","name":"Mömbris, M","type":"Markt"},"district":{"key":"09671","name":"Aschaffenburg","type":"Landkreis"},"federalState":{"key":"09","name":"Bayern"}},{"name":"Karlesberg","postalCode":"63776","locality":"Mömbris","municipality":{"key":"09671143","name":"Mömbris, M","type":"Markt"},"district":{"key":"09671","name":"Aschaffenburg","type":"Landkreis"},"federalState":{"key":"09","name":"Bayern"}},{"name":"Kettelerstr.","postalCode":"63776","locality":"Mömbris","municipality":{"key":"09671143","name":"Mömbris, M","type":"Markt"},"district":{"key":"09671","name":"Aschaffenburg","type":"Landkreis"},"federalState":{"key":"09","name":"Bayern"}},{"name":"Kiesgraben","postalCode":"63776","locality":"Mömbris","municipality":{"key":"09671143","name":"Mömbris, M","type":"Markt"},"district":{"key":"09671","name":"Aschaffenburg","type":"Landkreis"},"federalState":{"key":"09","name":"Bayern"}},{"name":"Kilianstr.","postalCode":"63776","locality":"Mömbris","municipality":{"key":"09671143","name":"Mömbris, M","type":"Markt"},"district":{"key":"09671","name":"Aschaffenburg","type":"Landkreis"},"federalState":{"key":"09","name":"Bayern"}},{"name":"Kirchstr.","postalCode":"63776","locality":"Mömbris","municipality":{"key":"09671143","name":"Mömbris, M","type":"Markt"},"district":{"key":"09671","name":"Aschaffenburg","type":"Landkreis"},"federalState":{"key":"09","name":"Bayern"}},{"name":"Kirchwieschen","postalCode":"63776","locality":"Mömbris","municipality":{"key":"09671143","name":"Mömbris, M","type":"Markt"},"district":{"key":"09671","name":"Aschaffenburg","type":"Landkreis"},"federalState":{"key":"09","name":"Bayern"}},{"name":"Kleewiesenstr.","postalCode":"63776","locality":"Mömbris","municipality":{"key":"09671143","name":"Mömbris, M","type":"Markt"},"district":{"key":"09671","name":"Aschaffenburg","type":"Landkreis"},"federalState":{"key":"09","name":"Bayern"}},{"name":"Kleinhemsbach","postalCode":"63776","locality":"Mömbris","municipality":{"key":"09671143","name":"Mömbris, M","type":"Markt"},"district":{"key":"09671","name":"Aschaffenburg","type":"Landkreis"},"federalState":{"key":"09","name":"Bayern"}},{"name":"Klingerstr.","postalCode":"63776","locality":"Mömbris","municipality":{"key":"09671143","name":"Mömbris, M","type":"Markt"},"district":{"key":"09671","name":"Aschaffenburg","type":"Landkreis"},"federalState":{"key":"09","name":"Bayern"}},{"name":"Klosterweg","postalCode":"63776","locality":"Mömbris","municipality":{"key":"09671143","name":"Mömbris, M","type":"Markt"},"district":{"key":"09671","name":"Aschaffenburg","type":"Landkreis"},"federalState":{"key":"09","name":"Bayern"}},{"name":"Kohlbergweg","postalCode":"63776","locality":"Mömbris","municipality":{"key":"09671143","name":"Mömbris, M","type":"Markt"},"district":{"key":"09671","name":"Aschaffenburg","type":"Landkreis"},"federalState":{"key":"09","name":"Bayern"}},{"name":"Kolpingstr.","postalCode":"63776","locality":"Mömbris","municipality":{"key":"09671143","name":"Mömbris, M","type":"Markt"},"district":{"key":"09671","name":"Aschaffenburg","type":"Landkreis"},"federalState":{"key":"09","name":"Bayern"}},{"name":"Königsberger Str.","postalCode":"63776","locality":"Mömbris","municipality":{"key":"09671143","name":"Mömbris, M","type":"Markt"},"district":{"key":"09671","name":"Aschaffenburg","type":"Landkreis"},"federalState":{"key":"09","name":"Bayern"}},{"name":"Königshofener Str.","postalCode":"63776","locality":"Mömbris","municipality":{"key":"09671143","name":"Mömbris, M","type":"Markt"},"district":{"key":"09671","name":"Aschaffenburg","type":"Landkreis"},"federalState":{"key":"09","name":"Bayern"}},{"name":"Kreuzgasse","postalCode":"63776","locality":"Mömbris","municipality":{"key":"09671143","name":"Mömbris, M","type":"Markt"},"district":{"key":"09671","name":"Aschaffenburg","type":"Landkreis"},"federalState":{"key":"09","name":"Bayern"}},{"name":"Krohbergweg","postalCode":"63776","locality":"Mömbris","municipality":{"key":"09671143","name":"Mömbris, M","type":"Markt"},"district":{"key":"09671","name":"Aschaffenburg","type":"Landkreis"},"federalState":{"key":"09","name":"Bayern"}},{"name":"Krombacher Str.","postalCode":"63776","locality":"Mömbris","municipality":{"key":"09671143","name":"Mömbris, M","type":"Markt"},"district":{"key":"09671","name":"Aschaffenburg","type":"Landkreis"},"federalState":{"key":"09","name":"Bayern"}},{"name":"Leipziger Str.","postalCode":"63776","locality":"Mömbris","municipality":{"key":"09671143","name":"Mömbris, M","type":"Markt"},"district":{"key":"09671","name":"Aschaffenburg","type":"Landkreis"},"federalState":{"key":"09","name":"Bayern"}},{"name":"Lilienstr.","postalCode":"63776","locality":"Mömbris","municipality":{"key":"09671143","name":"Mömbris, M","type":"Markt"},"district":{"key":"09671","name":"Aschaffenburg","type":"Landkreis"},"federalState":{"key":"09","name":"Bayern"}},{"name":"Lindenweg","postalCode":"63776","locality":"Mömbris","municipality":{"key":"09671143","name":"Mömbris, M","type":"Markt"},"district":{"key":"09671","name":"Aschaffenburg","type":"Landkreis"},"federalState":{"key":"09","name":"Bayern"}},{"name":"Marienstr.","postalCode":"63776","locality":"Mömbris","municipality":{"key":"09671143","name":"Mömbris, M","type":"Markt"},"district":{"key":"09671","name":"Aschaffenburg","type":"Landkreis"},"federalState":{"key":"09","name":"Bayern"}},{"name":"Marktplatz","postalCode":"63776","locality":"Mömbris","municipality":{"key":"09671143","name":"Mömbris, M","type":"Markt"},"district":{"key":"09671","name":"Aschaffenburg","type":"Landkreis"},"federalState":{"key":"09","name":"Bayern"}},{"name":"Märzwiesenweg","postalCode":"63776","locality":"Mömbris","municipality":{"key":"09671143","name":"Mömbris, M","type":"Markt"},"district":{"key":"09671","name":"Aschaffenburg","type":"Landkreis"},"federalState":{"key":"09","name":"Bayern"}},{"name":"Mittelwaldstr.","postalCode":"63776","locality":"Mömbris","municipality":{"key":"09671143","name":"Mömbris, M","type":"Markt"},"district":{"key":"09671","name":"Aschaffenburg","type":"Landkreis"},"federalState":{"key":"09","name":"Bayern"}},{"name":"Mühlgasse","postalCode":"63776","locality":"Mömbris","municipality":{"key":"09671143","name":"Mömbris, M","type":"Markt"},"district":{"key":"09671","name":"Aschaffenburg","type":"Landkreis"},"federalState":{"key":"09","name":"Bayern"}},{"name":"Mühlweg","postalCode":"63776","locality":"Mömbris","municipality":{"key":"09671143","name":"Mömbris, M","type":"Markt"},"district":{"key":"09671","name":"Aschaffenburg","type":"Landkreis"},"federalState":{"key":"09","name":"Bayern"}},{"name":"Niedersteinbacher Str.","postalCode":"63776","locality":"Mömbris","municipality":{"key":"09671143","name":"Mömbris, M","type":"Markt"},"district":{"key":"09671","name":"Aschaffenburg","type":"Landkreis"},"federalState":{"key":"09","name":"Bayern"}},{"name":"Ober der Linde","postalCode":"63776","locality":"Mömbris","municipality":{"key":"09671143","name":"Mömbris, M","type":"Markt"},"district":{"key":"09671","name":"Aschaffenburg","type":"Landkreis"},"federalState":{"key":"09","name":"Bayern"}},{"name":"Obere Kirchgasse","postalCode":"63776","locality":"Mömbris","municipality":{"key":"09671143","name":"Mömbris, M","type":"Markt"},"district":{"key":"09671","name":"Aschaffenburg","type":"Landkreis"},"federalState":{"key":"09","name":"Bayern"}},{"name":"Pfarrer-Franz-Str.","postalCode":"63776","locality":"Mömbris","municipality":{"key":"09671143","name":"Mömbris, M","type":"Markt"},"district":{"key":"09671","name":"Aschaffenburg","type":"Landkreis"},"federalState":{"key":"09","name":"Bayern"}},{"name":"Pfarrer-Johannes-Schmutzer-Str.","postalCode":"63776","locality":"Mömbris","municipality":{"key":"09671143","name":"Mömbris, M","type":"Markt"},"district":{"key":"09671","name":"Aschaffenburg","type":"Landkreis"},"federalState":{"key":"09","name":"Bayern"}},{"name":"Pfarrer-Wörner-Str.","postalCode":"63776","locality":"Mömbris","municipality":{"key":"09671143","name":"Mömbris, M","type":"Markt"},"district":{"key":"09671","name":"Aschaffenburg","type":"Landkreis"},"federalState":{"key":"09","name":"Bayern"}},{"name":"Pfarrgraben","postalCode":"63776","locality":"Mömbris","municipality":{"key":"09671143","name":"Mömbris, M","type":"Markt"},"district":{"key":"09671","name":"Aschaffenburg","type":"Landkreis"},"federalState":{"key":"09","name":"Bayern"}},{"name":"Pfarrwiesenweg","postalCode":"63776","locality":"Mömbris","municipality":{"key":"09671143","name":"Mömbris, M","type":"Markt"},"district":{"key":"09671","name":"Aschaffenburg","type":"Landkreis"},"federalState":{"key":"09","name":"Bayern"}},{"name":"Quittenweg","postalCode":"63741","locality":"Aschaffenburg","municipality":{"key":"09661000","name":"Aschaffenburg","type":"Kreisfreie_Stadt"},"district":{"key":"09661","name":"Aschaffenburg","type":"Kreisfreie_Stadt"},"federalState":{"key":"09","name":"Bayern"}},{"name":"Rappach","postalCode":"63776","locality":"Mömbris","municipality":{"key":"09671143","name":"Mömbris, M","type":"Markt"},"district":{"key":"09671","name":"Aschaffenburg","type":"Landkreis"},"federalState":{"key":"09","name":"Bayern"}},{"name":"Rappacher Weg","postalCode":"63776","locality":"Mömbris","municipality":{"key":"09671143","name":"Mömbris, M","type":"Markt"},"district":{"key":"09671","name":"Aschaffenburg","type":"Landkreis"},"federalState":{"key":"09","name":"Bayern"}},{"name":"Rauhwiesenweg","postalCode":"63776","locality":"Mömbris","municipality":{"key":"09671143","name":"Mömbris, M","type":"Markt"},"district":{"key":"09671","name":"Aschaffenburg","type":"Landkreis"},"federalState":{"key":"09","name":"Bayern"}},{"name":"Rentnerweg","postalCode":"63776","locality":"Mömbris","municipality":{"key":"09671143","name":"Mömbris, M","type":"Markt"},"district":{"key":"09671","name":"Aschaffenburg","type":"Landkreis"},"federalState":{"key":"09","name":"Bayern"}},{"name":"Ring","postalCode":"63776","locality":"Mömbris","municipality":{"key":"09671143","name":"Mömbris, M","type":"Markt"},"district":{"key":"09671","name":"Aschaffenburg","type":"Landkreis"},"federalState":{"key":"09","name":"Bayern"}},{"name":"Rosenhain","postalCode":"63776","locality":"Mömbris","municipality":{"key":"09671143","name":"Mömbris, M","type":"Markt"},"district":{"key":"09671","name":"Aschaffenburg","type":"Landkreis"},"federalState":{"key":"09","name":"Bayern"}},{"name":"Rote Hohle","postalCode":"63776","locality":"Mömbris","municipality":{"key":"09671143","name":"Mömbris, M","type":"Markt"},"district":{"key":"09671","name":"Aschaffenburg","type":"Landkreis"},"federalState":{"key":"09","name":"Bayern"}},{"name":"Rothenbergstr.","postalCode":"63776","locality":"Mömbris","municipality":{"key":"09671143","name":"Mömbris, M","type":"Markt"},"district":{"key":"09671","name":"Aschaffenburg","type":"Landkreis"},"federalState":{"key":"09","name":"Bayern"}},{"name":"Rothengrund","postalCode":"63776","locality":"Mömbris","municipality":{"key":"09671143","name":"Mömbris, M","type":"Markt"},"district":{"key":"09671","name":"Aschaffenburg","type":"Landkreis"},"federalState":{"key":"09","name":"Bayern"}},{"name":"Sachsenhäuser Str.","postalCode":"63776","locality":"Mömbris","municipality":{"key":"09671143","name":"Mömbris, M","type":"Markt"},"district":{"key":"09671","name":"Aschaffenburg","type":"Landkreis"},"federalState":{"key":"09","name":"Bayern"}},{"name":"Sandwiesenstr.","postalCode":"63776","locality":"Mömbris","municipality":{"key":"09671143","name":"Mömbris, M","type":"Markt"},"district":{"key":"09671","name":"Aschaffenburg","type":"Landkreis"},"federalState":{"key":"09","name":"Bayern"}},{"name":"Sankt-Bruno-Siedlung","postalCode":"63776","locality":"Mömbris","municipality":{"key":"09671143","name":"Mömbris, M","type":"Markt"},"district":{"key":"09671","name":"Aschaffenburg","type":"Landkreis"},"federalState":{"key":"09","name":"Bayern"}},{"name":"Schießmauer","postalCode":"63776","locality":"Mömbris","municipality":{"key":"09671143","name":"Mömbris, M","type":"Markt"},"district":{"key":"09671","name":"Aschaffenburg","type":"Landkreis"},"federalState":{"key":"09","name":"Bayern"}},{"name":"Schimborner Str.","postalCode":"63776","locality":"Mömbris","municipality":{"key":"09671143","name":"Mömbris, M","type":"Markt"},"district":{"key":"09671","name":"Aschaffenburg","type":"Landkreis"},"federalState":{"key":"09","name":"Bayern"}},{"name":"Schlehbuschweg","postalCode":"63776","locality":"Mömbris","municipality":{"key":"09671143","name":"Mömbris, M","type":"Markt"},"district":{"key":"09671","name":"Aschaffenburg","type":"Landkreis"},"federalState":{"key":"09","name":"Bayern"}},{"name":"Schlossergasse","postalCode":"63776","locality":"Mömbris","municipality":{"key":"09671143","name":"Mömbris, M","type":"Markt"},"district":{"key":"09671","name":"Aschaffenburg","type":"Landkreis"},"federalState":{"key":"09","name":"Bayern"}},{"name":"Schmidlehen","postalCode":"63776","locality":"Mömbris","municipality":{"key":"09671143","name":"Mömbris, M","type":"Markt"},"district":{"key":"09671","name":"Aschaffenburg","type":"Landkreis"},"federalState":{"key":"09","name":"Bayern"}},{"name":"Schmiedsgasse","postalCode":"63776","locality":"Mömbris","municipality":{"key":"09671143","name":"Mömbris, M","type":"Markt"},"district":{"key":"09671","name":"Aschaffenburg","type":"Landkreis"},"federalState":{"key":"09","name":"Bayern"}},{"name":"Schönbornstr.","postalCode":"63776","locality":"Mömbris","municipality":{"key":"09671143","name":"Mömbris, M","type":"Markt"},"district":{"key":"09671","name":"Aschaffenburg","type":"Landkreis"},"federalState":{"key":"09","name":"Bayern"}},{"name":"Schulstr.","postalCode":"63776","locality":"Mömbris","municipality":{"key":"09671143","name":"Mömbris, M","type":"Markt"},"district":{"key":"09671","name":"Aschaffenburg","type":"Landkreis"},"federalState":{"key":"09","name":"Bayern"}},{"name":"Schutzweg","postalCode":"63776","locality":"Mömbris","municipality":{"key":"09671143","name":"Mömbris, M","type":"Markt"},"district":{"key":"09671","name":"Aschaffenburg","type":"Landkreis"},"federalState":{"key":"09","name":"Bayern"}},{"name":"Sonnenstr.","postalCode":"63776","locality":"Mömbris","municipality":{"key":"09671143","name":"Mömbris, M","type":"Markt"},"district":{"key":"09671","name":"Aschaffenburg","type":"Landkreis"},"federalState":{"key":"09","name":"Bayern"}},{"name":"Spessartstr.","postalCode":"63776","locality":"Mömbris","municipality":{"key":"09671143","name":"Mömbris, M","type":"Markt"},"district":{"key":"09671","name":"Aschaffenburg","type":"Landkreis"},"federalState":{"key":"09","name":"Bayern"}},{"name":"St2305","postalCode":"63776","locality":"Mömbris","municipality":{"key":"09671143","name":"Mömbris, M","type":"Markt"},"district":{"key":"09671","name":"Aschaffenburg","type":"Landkreis"},"federalState":{"key":"09","name":"Bayern"}},{"name":"Steingasse","postalCode":"63776","locality":"Mömbris","municipality":{"key":"09671143","name":"Mömbris, M","type":"Markt"},"district":{"key":"09671","name":"Aschaffenburg","type":"Landkreis"},"federalState":{"key":"09","name":"Bayern"}},{"name":"Steinhohle","postalCode":"63776","locality":"Mömbris","municipality":{"key":"09671143","name":"Mömbris, M","type":"Markt"},"district":{"key":"09671","name":"Aschaffenburg","type":"Landkreis"},"federalState":{"key":"09","name":"Bayern"}},{"name":"St.-Georg-Str.","postalCode":"63776","locality":"Mömbris","municipality":{"key":"09671143","name":"Mömbris, M","type":"Markt"},"district":{"key":"09671","name":"Aschaffenburg","type":"Landkreis"},"federalState":{"key":"09","name":"Bayern"}},{"name":"St.-Michael-Str.","postalCode":"63776","locality":"Mömbris","municipality":{"key":"09671143","name":"Mömbris, M","type":"Markt"},"district":{"key":"09671","name":"Aschaffenburg","type":"Landkreis"},"federalState":{"key":"09","name":"Bayern"}},{"name":"Strötzbacher Weg","postalCode":"63776","locality":"Mömbris","municipality":{"key":"09671143","name":"Mömbris, M","type":"Markt"},"district":{"key":"09671","name":"Aschaffenburg","type":"Landkreis"},"federalState":{"key":"09","name":"Bayern"}},{"name":"Tannenweg","postalCode":"63741","locality":"Aschaffenburg","municipality":{"key":"09661000","name":"Aschaffenburg","type":"Kreisfreie_Stadt"},"district":{"key":"09661","name":"Aschaffenburg","type":"Kreisfreie_Stadt"},"federalState":{"key":"09","name":"Bayern"}},{"name":"Tannstr.","postalCode":"63739","locality":"Aschaffenburg","municipality":{"key":"09661000","name":"Aschaffenburg","type":"Kreisfreie_Stadt"},"district":{"key":"09661","name":"Aschaffenburg","type":"Kreisfreie_Stadt"},"federalState":{"key":"09","name":"Bayern"}},{"name":"Tauberstr.","postalCode":"63741","locality":"Aschaffenburg","municipality":{"key":"09661000","name":"Aschaffenburg","type":"Kreisfreie_Stadt"},"district":{"key":"09661","name":"Aschaffenburg","type":"Kreisfreie_Stadt"},"federalState":{"key":"09","name":"Bayern"}},{"name":"Taunusstr.","postalCode":"63743","locality":"Aschaffenburg","municipality":{"key":"09661000","name":"Aschaffenburg","type":"Kreisfreie_Stadt"},"district":{"key":"09661","name":"Aschaffenburg","type":"Kreisfreie_Stadt"},"federalState":{"key":"09","name":"Bayern"}},{"name":"Telemannweg","postalCode":"63743","locality":"Aschaffenburg","municipality":{"key":"09661000","name":"Aschaffenburg","type":"Kreisfreie_Stadt"},"district":{"key":"09661","name":"Aschaffenburg","type":"Kreisfreie_Stadt"},"federalState":{"key":"09","name":"Bayern"}},{"name":"Theatergasse","postalCode":"63739","locality":"Aschaffenburg","municipality":{"key":"09661000","name":"Aschaffenburg","type":"Kreisfreie_Stadt"},"district":{"key":"09661","name":"Aschaffenburg","type":"Kreisfreie_Stadt"},"federalState":{"key":"09","name":"Bayern"}},{"name":"Theodor-Heuss-Str.","postalCode":"63741","locality":"Aschaffenburg","municipality":{"key":"09661000","name":"Aschaffenburg","type":"Kreisfreie_Stadt"},"district":{"key":"09661","name":"Aschaffenburg","type":"Kreisfreie_Stadt"},"federalState":{"key":"09","name":"Bayern"}},{"name":"Theresienstr.","postalCode":"63741","locality":"Aschaffenburg","municipality":{"key":"09661000","name":"Aschaffenburg","type":"Kreisfreie_Stadt"},"district":{"key":"09661","name":"Aschaffenburg","type":"Kreisfreie_Stadt"},"federalState":{"key":"09","name":"Bayern"}},{"name":"Thüringer Str.","postalCode":"63739","locality":"Aschaffenburg","municipality":{"key":"09661000","name":"Aschaffenburg","type":"Kreisfreie_Stadt"},"district":{"key":"09661","name":"Aschaffenburg","type":"Kreisfreie_Stadt"},"federalState":{"key":"09","name":"Bayern"}},{"name":"Tiroler Str.","postalCode":"63739","locality":"Aschaffenburg","municipality":{"key":"09661000","name":"Aschaffenburg","type":"Kreisfreie_Stadt"},"district":{"key":"09661","name":"Aschaffenburg","type":"Kreisfreie_Stadt"},"federalState":{"key":"09","name":"Bayern"}},{"name":"Tränkgasse","postalCode":"63741","locality":"Aschaffenburg","municipality":{"key":"09661000","name":"Aschaffenburg","type":"Kreisfreie_Stadt"},"district":{"key":"09661","name":"Aschaffenburg","type":"Kreisfreie_Stadt"},"federalState":{"key":"09","name":"Bayern"}},{"name":"Treibgasse","postalCode":"63739","locality":"Aschaffenburg","municipality":{"key":"09661000","name":"Aschaffenburg","type":"Kreisfreie_Stadt"},"district":{"key":"09661","name":"Aschaffenburg","type":"Kreisfreie_Stadt"},"federalState":{"key":"09","name":"Bayern"}},{"name":"Triebshohle","postalCode":"63743","locality":"Aschaffenburg","municipality":{"key":"09661000","name":"Aschaffenburg","type":"Kreisfreie_Stadt"},"district":{"key":"09661","name":"Aschaffenburg","type":"Kreisfreie_Stadt"},"federalState":{"key":"09","name":"Bayern"}},{"name":"Trockenbrodtstr.","postalCode":"63739","locality":"Aschaffenburg","municipality":{"key":"09661000","name":"Aschaffenburg","type":"Kreisfreie_Stadt"},"district":{"key":"09661","name":"Aschaffenburg","type":"Kreisfreie_Stadt"},"federalState":{"key":"09","name":"Bayern"}},{"name":"Tschoepestr.","postalCode":"63743","locality":"Aschaffenburg","municipality":{"key":"09661000","name":"Aschaffenburg","type":"Kreisfreie_Stadt"},"district":{"key":"09661","name":"Aschaffenburg","type":"Kreisfreie_Stadt"},"federalState":{"key":"09","name":"Bayern"}},{"name":"Tuchbleiche","postalCode":"63743","locality":"Aschaffenburg","municipality":{"key":"09661000","name":"Aschaffenburg","type":"Kreisfreie_Stadt"},"district":{"key":"09661","name":"Aschaffenburg","type":"Kreisfreie_Stadt"},"federalState":{"key":"09","name":"Bayern"}},{"name":"Tulpenstr.","postalCode":"63743","locality":"Aschaffenburg","municipality":{"key":"09661000","name":"Aschaffenburg","type":"Kreisfreie_Stadt"},"district":{"key":"09661","name":"Aschaffenburg","type":"Kreisfreie_Stadt"},"federalState":{"key":"09","name":"Bayern"}},{"name":"Untere Ebenung","postalCode":"63776","locality":"Mömbris","municipality":{"key":"09671143","name":"Mömbris, M","type":"Markt"},"district":{"key":"09671","name":"Aschaffenburg","type":"Landkreis"},"federalState":{"key":"09","name":"Bayern"}},{"name":"Untere Kirchgasse","postalCode":"63776","locality":"Mömbris","municipality":{"key":"09671143","name":"Mömbris, M","type":"Markt"},"district":{"key":"09671","name":"Aschaffenburg","type":"Landkreis"},"federalState":{"key":"09","name":"Bayern"}},{"name":"Unterer Rappacher Weg","postalCode":"63776","locality":"Mömbris","municipality":{"key":"09671143","name":"Mömbris, M","type":"Markt"},"district":{"key":"09671","name":"Aschaffenburg","type":"Landkreis"},"federalState":{"key":"09","name":"Bayern"}},{"name":"Vikarstr.","postalCode":"63776","locality":"Mömbris","municipality":{"key":"09671143","name":"Mömbris, M","type":"Markt"},"district":{"key":"09671","name":"Aschaffenburg","type":"Landkreis"},"federalState":{"key":"09","name":"Bayern"}},{"name":"Vogteiweg","postalCode":"63776","locality":"Mömbris","municipality":{"key":"09671143","name":"Mömbris, M","type":"Markt"},"district":{"key":"09671","name":"Aschaffenburg","type":"Landkreis"},"federalState":{"key":"09","name":"Bayern"}},{"name":"Vorbeckstr.","postalCode":"63776","locality":"Mömbris","municipality":{"key":"09671143","name":"Mömbris, M","type":"Markt"},"district":{"key":"09671","name":"Aschaffenburg","type":"Landkreis"},"federalState":{"key":"09","name":"Bayern"}},{"name":"Waldweg","postalCode":"63776","locality":"Mömbris","municipality":{"key":"09671143","name":"Mömbris, M","type":"Markt"},"district":{"key":"09671","name":"Aschaffenburg","type":"Landkreis"},"federalState":{"key":"09","name":"Bayern"}},{"name":"Wallonenstr.","postalCode":"63776","locality":"Mömbris","municipality":{"key":"09671143","name":"Mömbris, M","type":"Markt"},"district":{"key":"09671","name":"Aschaffenburg","type":"Landkreis"},"federalState":{"key":"09","name":"Bayern"}},{"name":"Wendelinusstr.","postalCode":"63776","locality":"Mömbris","municipality":{"key":"09671143","name":"Mömbris, M","type":"Markt"},"district":{"key":"09671","name":"Aschaffenburg","type":"Landkreis"},"federalState":{"key":"09","name":"Bayern"}},{"name":"Wiesenweg","postalCode":"63776","locality":"Mömbris","municipality":{"key":"09671143","name":"Mömbris, M","type":"Markt"},"district":{"key":"09671","name":"Aschaffenburg","type":"Landkreis"},"federalState":{"key":"09","name":"Bayern"}},{"name":"Wohnstädter Weg","postalCode":"63776","locality":"Mömbris","municipality":{"key":"09671143","name":"Mömbris, M","type":"Markt"},"district":{"key":"09671","name":"Aschaffenburg","type":"Landkreis"},"federalState":{"key":"09","name":"Bayern"}},{"name":"Womburgstr.","postalCode":"63776","locality":"Mömbris","municipality":{"key":"09671143","name":"Mömbris, M","type":"Markt"},"district":{"key":"09671","name":"Aschaffenburg","type":"Landkreis"},"federalState":{"key":"09","name":"Bayern"}},{"name":"Yorckstr.","postalCode":"63739","locality":"Aschaffenburg","municipality":{"key":"09661000","name":"Aschaffenburg","type":"Kreisfreie_Stadt"},"district":{"key":"09661","name":"Aschaffenburg","type":"Kreisfreie_Stadt"},"federalState":{"key":"09","name":"Bayern"}},{"name":"Zeilweg","postalCode":"63776","locality":"Mömbris","municipality":{"key":"09671143","name":"Mömbris, M","type":"Markt"},"district":{"key":"09671","name":"Aschaffenburg","type":"Landkreis"},"federalState":{"key":"09","name":"Bayern"}},{"name":"Zum Buchborn","postalCode":"63776","locality":"Mömbris","municipality":{"key":"09671143","name":"Mömbris, M","type":"Markt"},"district":{"key":"09671","name":"Aschaffenburg","type":"Landkreis"},"federalState":{"key":"09","name":"Bayern"}},{"name":"Zur Aue","postalCode":"63776","locality":"Mömbris","municipality":{"key":"09671143","name":"Mömbris, M","type":"Markt"},"district":{"key":"09671","name":"Aschaffenburg","type":"Landkreis"},"federalState":{"key":"09","name":"Bayern"}},{"name":"Zur Eiche","postalCode":"63776","locality":"Mömbris","municipality":{"key":"09671143","name":"Mömbris, M","type":"Markt"},"district":{"key":"09671","name":"Aschaffenburg","type":"Landkreis"},"federalState":{"key":"09","name":"Bayern"}},{"name":"Zur Feldwiese","postalCode":"63776","locality":"Mömbris","municipality":{"key":"09671143","name":"Mömbris, M","type":"Markt"},"district":{"key":"09671","name":"Aschaffenburg","type":"Landkreis"},"federalState":{"key":"09","name":"Bayern"}},{"name":"Zur Heckenrose","postalCode":"63776","locality":"Mömbris","municipality":{"key":"09671143","name":"Mömbris, M","type":"Markt"},"district":{"key":"09671","name":"Aschaffenburg","type":"Landkreis"},"federalState":{"key":"09","name":"Bayern"}},{"name":"Zur Heiligenwiese","postalCode":"63776","locality":"Mömbris","municipality":{"key":"09671143","name":"Mömbris, M","type":"Markt"},"district":{"key":"09671","name":"Aschaffenburg","type":"Landkreis"},"federalState":{"key":"09","name":"Bayern"}},{"name":"Zur Jägerwiese","postalCode":"63776","locality":"Mömbris","municipality":{"key":"09671143","name":"Mömbris, M","type":"Markt"},"district":{"key":"09671","name":"Aschaffenburg","type":"Landkreis"},"federalState":{"key":"09","name":"Bayern"}},{"name":"Zur Silberweide","postalCode":"63776","locality":"Mömbris","municipality":{"key":"09671143","name":"Mömbris, M","type":"Markt"},"district":{"key":"09671","name":"Aschaffenburg","type":"Landkreis"},"federalState":{"key":"09","name":"Bayern"}},{"name":"Ölmühlweg","postalCode":"63743","locality":"Aschaffenburg","municipality":{"key":"09661000","name":"Aschaffenburg","type":"Kreisfreie_Stadt"},"district":{"key":"09661","name":"Aschaffenburg","type":"Kreisfreie_Stadt"},"federalState":{"key":"09","name":"Bayern"}},{"name":"Österreicher Str.","postalCode":"63739","locality":"Aschaffenburg","municipality":{"key":"09661000","name":"Aschaffenburg","type":"Kreisfreie_Stadt"},"district":{"key":"09661","name":"Aschaffenburg","type":"Kreisfreie_Stadt"},"federalState":{"key":"09","name":"Bayern"}},]