[{"key":"10237251","name":"Argny","postalCode":"1929","locality":"Trient","commune":{"key":"6142","name":"Trient","shortName":"Trient"},"district":{"key":"2307","name":"District de Martigny"},"canton":{"key":"23","code":"VS","name":"Valais / Wallis"},"status":"Real"},{"key":"10237255","name":"Barmarosse","postalCode":"1929","locality":"Trient","commune":{"key":"6142","name":"Trient","shortName":"Trient"},"district":{"key":"2307","name":"District de Martigny"},"canton":{"key":"23","code":"VS","name":"Valais / Wallis"},"status":"Real"},{"key":"10185729","name":"Berte","postalCode":"1929","locality":"Trient","commune":{"key":"6142","name":"Trient","shortName":"Trient"},"district":{"key":"2307","name":"District de Martigny"},"canton":{"key":"23","code":"VS","name":"Valais / Wallis"},"status":"Real"},{"key":"10046345","name":"Betty","postalCode":"1929","locality":"Trient","commune":{"key":"6142","name":"Trient","shortName":"Trient"},"district":{"key":"2307","name":"District de Martigny"},"canton":{"key":"23","code":"VS","name":"Valais / Wallis"},"status":"Real"},{"key":"10068330","name":"Bierle","postalCode":"1929","locality":"Trient","commune":{"key":"6142","name":"Trient","shortName":"Trient"},"district":{"key":"2307","name":"District de Martigny"},"canton":{"key":"23","code":"VS","name":"Valais / Wallis"},"status":"Real"},{"key":"10075701","name":"Bourgatey","postalCode":"1929","locality":"Trient","commune":{"key":"6142","name":"Trient","shortName":"Trient"},"district":{"key":"2307","name":"District de Martigny"},"canton":{"key":"23","code":"VS","name":"Valais / Wallis"},"status":"Real"},{"key":"10237259","name":"Bourlo","postalCode":"1929","locality":"Trient","commune":{"key":"6142","name":"Trient","shortName":"Trient"},"district":{"key":"2307","name":"District de Martigny"},"canton":{"key":"23","code":"VS","name":"Valais / Wallis"},"status":"Real"},{"key":"10237263","name":"Catogne","postalCode":"1929","locality":"Trient","commune":{"key":"6142","name":"Trient","shortName":"Trient"},"district":{"key":"2307","name":"District de Martigny"},"canton":{"key":"23","code":"VS","name":"Valais / Wallis"},"status":"Real"},{"key":"10237267","name":"Charbonnières","postalCode":"1929","locality":"Trient","commune":{"key":"6142","name":"Trient","shortName":"Trient"},"district":{"key":"2307","name":"District de Martigny"},"canton":{"key":"23","code":"VS","name":"Valais / Wallis"},"status":"Real"},{"key":"10068331","name":"Coillonnoz","postalCode":"1929","locality":"Trient","commune":{"key":"6142","name":"Trient","shortName":"Trient"},"district":{"key":"2307","name":"District de Martigny"},"canton":{"key":"23","code":"VS","name":"Valais / Wallis"},"status":"Real"},{"key":"10237271","name":"Combes","postalCode":"1929","locality":"Trient","commune":{"key":"6142","name":"Trient","shortName":"Trient"},"district":{"key":"2307","name":"District de Martigny"},"canton":{"key":"23","code":"VS","name":"Valais / Wallis"},"status":"Real"},{"key":"10111994","name":"Cretton d'en Bas","postalCode":"1929","locality":"Trient","commune":{"key":"6142","name":"Trient","shortName":"Trient"},"district":{"key":"2307","name":"District de Martigny"},"canton":{"key":"23","code":"VS","name":"Valais / Wallis"},"status":"Real"},{"key":"10100019","name":"Cretton d'en Haut","postalCode":"1929","locality":"Trient","commune":{"key":"6142","name":"Trient","shortName":"Trient"},"district":{"key":"2307","name":"District de Martigny"},"canton":{"key":"23","code":"VS","name":"Valais / Wallis"},"status":"Real"},{"key":"10237275","name":"Esserts","postalCode":"1929","locality":"Trient","commune":{"key":"6142","name":"Trient","shortName":"Trient"},"district":{"key":"2307","name":"District de Martigny"},"canton":{"key":"23","code":"VS","name":"Valais / Wallis"},"status":"Real"},{"key":"10237279","name":"Eudéi","postalCode":"1929","locality":"Trient","commune":{"key":"6142","name":"Trient","shortName":"Trient"},"district":{"key":"2307","name":"District de Martigny"},"canton":{"key":"23","code":"VS","name":"Valais / Wallis"},"status":"Real"},{"key":"10237283","name":"Ferrière","postalCode":"1929","locality":"Trient","commune":{"key":"6142","name":"Trient","shortName":"Trient"},"district":{"key":"2307","name":"District de Martigny"},"canton":{"key":"23","code":"VS","name":"Valais / Wallis"},"status":"Real"},{"key":"10237287","name":"Forclaz","postalCode":"1929","locality":"Trient","commune":{"key":"6142","name":"Trient","shortName":"Trient"},"district":{"key":"2307","name":"District de Martigny"},"canton":{"key":"23","code":"VS","name":"Valais / Wallis"},"status":"Real"},{"key":"10237291","name":"Friteley","postalCode":"1929","locality":"Trient","commune":{"key":"6142","name":"Trient","shortName":"Trient"},"district":{"key":"2307","name":"District de Martigny"},"canton":{"key":"23","code":"VS","name":"Valais / Wallis"},"status":"Real"},{"key":"10237295","name":"Gilliod","postalCode":"1929","locality":"Trient","commune":{"key":"6142","name":"Trient","shortName":"Trient"},"district":{"key":"2307","name":"District de Martigny"},"canton":{"key":"23","code":"VS","name":"Valais / Wallis"},"status":"Real"},{"key":"10142144","name":"Glacier du Trient","postalCode":"1929","locality":"Trient","commune":{"key":"6142","name":"Trient","shortName":"Trient"},"district":{"key":"2307","name":"District de Martigny"},"canton":{"key":"23","code":"VS","name":"Valais / Wallis"},"status":"Real"},{"key":"10236279","name":"Grand-Jeur","postalCode":"1929","locality":"Trient","commune":{"key":"6142","name":"Trient","shortName":"Trient"},"district":{"key":"2307","name":"District de Martigny"},"canton":{"key":"23","code":"VS","name":"Valais / Wallis"},"status":"Real"},{"key":"10236283","name":"Grands Dessous","postalCode":"1929","locality":"Trient","commune":{"key":"6142","name":"Trient","shortName":"Trient"},"district":{"key":"2307","name":"District de Martigny"},"canton":{"key":"23","code":"VS","name":"Valais / Wallis"},"status":"Real"},{"key":"10236287","name":"Grands Dessus","postalCode":"1929","locality":"Trient","commune":{"key":"6142","name":"Trient","shortName":"Trient"},"district":{"key":"2307","name":"District de Martigny"},"canton":{"key":"23","code":"VS","name":"Valais / Wallis"},"status":"Real"},{"key":"10075702","name":"Grange Neuve","postalCode":"1929","locality":"Trient","commune":{"key":"6142","name":"Trient","shortName":"Trient"},"district":{"key":"2307","name":"District de Martigny"},"canton":{"key":"23","code":"VS","name":"Valais / Wallis"},"status":"Real"},{"key":"10236291","name":"Grangettes","postalCode":"1929","locality":"Trient","commune":{"key":"6142","name":"Trient","shortName":"Trient"},"district":{"key":"2307","name":"District de Martigny"},"canton":{"key":"23","code":"VS","name":"Valais / Wallis"},"status":"Real"},{"key":"10236296","name":"Gremé","postalCode":"1929","locality":"Trient","commune":{"key":"6142","name":"Trient","shortName":"Trient"},"district":{"key":"2307","name":"District de Martigny"},"canton":{"key":"23","code":"VS","name":"Valais / Wallis"},"status":"Real"},{"key":"10237319","name":"Griba","postalCode":"1929","locality":"Trient","commune":{"key":"6142","name":"Trient","shortName":"Trient"},"district":{"key":"2307","name":"District de Martigny"},"canton":{"key":"23","code":"VS","name":"Valais / Wallis"},"status":"Real"},{"key":"10237323","name":"Herbagères","postalCode":"1929","locality":"Trient","commune":{"key":"6142","name":"Trient","shortName":"Trient"},"district":{"key":"2307","name":"District de Martigny"},"canton":{"key":"23","code":"VS","name":"Valais / Wallis"},"status":"Real"},{"key":"10237327","name":"Larzes","postalCode":"1929","locality":"Trient","commune":{"key":"6142","name":"Trient","shortName":"Trient"},"district":{"key":"2307","name":"District de Martigny"},"canton":{"key":"23","code":"VS","name":"Valais / Wallis"},"status":"Real"},{"key":"10236325","name":"Ly","postalCode":"1929","locality":"Trient","commune":{"key":"6142","name":"Trient","shortName":"Trient"},"district":{"key":"2307","name":"District de Martigny"},"canton":{"key":"23","code":"VS","name":"Valais / Wallis"},"status":"Real"},{"key":"10236329","name":"Mène","postalCode":"1929","locality":"Trient","commune":{"key":"6142","name":"Trient","shortName":"Trient"},"district":{"key":"2307","name":"District de Martigny"},"canton":{"key":"23","code":"VS","name":"Valais / Wallis"},"status":"Real"},{"key":"10236324","name":"Moulin","postalCode":"1929","locality":"Trient","commune":{"key":"6142","name":"Trient","shortName":"Trient"},"district":{"key":"2307","name":"District de Martigny"},"canton":{"key":"23","code":"VS","name":"Valais / Wallis"},"status":"Real"},{"key":"10236328","name":"Petoudes","postalCode":"1929","locality":"Trient","commune":{"key":"6142","name":"Trient","shortName":"Trient"},"district":{"key":"2307","name":"District de Martigny"},"canton":{"key":"23","code":"VS","name":"Valais / Wallis"},"status":"Real"},{"key":"10236332","name":"Peuty","postalCode":"1929","locality":"Trient","commune":{"key":"6142","name":"Trient","shortName":"Trient"},"district":{"key":"2307","name":"District de Martigny"},"canton":{"key":"23","code":"VS","name":"Valais / Wallis"},"status":"Real"},{"key":"10046350","name":"Pierre-André","postalCode":"1929","locality":"Trient","commune":{"key":"6142","name":"Trient","shortName":"Trient"},"district":{"key":"2307","name":"District de Martigny"},"canton":{"key":"23","code":"VS","name":"Valais / Wallis"},"status":"Real"},{"key":"10236336","name":"Plan","postalCode":"1929","locality":"Trient","commune":{"key":"6142","name":"Trient","shortName":"Trient"},"district":{"key":"2307","name":"District de Martigny"},"canton":{"key":"23","code":"VS","name":"Valais / Wallis"},"status":"Real"},{"key":"10236340","name":"Planajeur","postalCode":"1929","locality":"Trient","commune":{"key":"6142","name":"Trient","shortName":"Trient"},"district":{"key":"2307","name":"District de Martigny"},"canton":{"key":"23","code":"VS","name":"Valais / Wallis"},"status":"Real"},{"key":"10236344","name":"Planet","postalCode":"1929","locality":"Trient","commune":{"key":"6142","name":"Trient","shortName":"Trient"},"district":{"key":"2307","name":"District de Martigny"},"canton":{"key":"23","code":"VS","name":"Valais / Wallis"},"status":"Real"},{"key":"10150231","name":"Planpro","postalCode":"1929","locality":"Trient","commune":{"key":"6142","name":"Trient","shortName":"Trient"},"district":{"key":"2307","name":"District de Martigny"},"canton":{"key":"23","code":"VS","name":"Valais / Wallis"},"status":"Real"},{"key":"10236348","name":"Praillon","postalCode":"1929","locality":"Trient","commune":{"key":"6142","name":"Trient","shortName":"Trient"},"district":{"key":"2307","name":"District de Martigny"},"canton":{"key":"23","code":"VS","name":"Valais / Wallis"},"status":"Real"},{"key":"10236352","name":"Pré de la Rue","postalCode":"1929","locality":"Trient","commune":{"key":"6142","name":"Trient","shortName":"Trient"},"district":{"key":"2307","name":"District de Martigny"},"canton":{"key":"23","code":"VS","name":"Valais / Wallis"},"status":"Real"},{"key":"10236357","name":"Preises","postalCode":"1929","locality":"Trient","commune":{"key":"6142","name":"Trient","shortName":"Trient"},"district":{"key":"2307","name":"District de Martigny"},"canton":{"key":"23","code":"VS","name":"Valais / Wallis"},"status":"Real"},{"key":"10236361","name":"Pro Rion","postalCode":"1929","locality":"Trient","commune":{"key":"6142","name":"Trient","shortName":"Trient"},"district":{"key":"2307","name":"District de Martigny"},"canton":{"key":"23","code":"VS","name":"Valais / Wallis"},"status":"Real"},{"key":"10236365","name":"Revers-Crenne","postalCode":"1929","locality":"Trient","commune":{"key":"6142","name":"Trient","shortName":"Trient"},"district":{"key":"2307","name":"District de Martigny"},"canton":{"key":"23","code":"VS","name":"Valais / Wallis"},"status":"Real"},{"key":"10237384","name":"Rte de la Forclaz","postalCode":"1929","locality":"Trient","commune":{"key":"6142","name":"Trient","shortName":"Trient"},"district":{"key":"2307","name":"District de Martigny"},"canton":{"key":"23","code":"VS","name":"Valais / Wallis"},"status":"Real"},{"key":"10237388","name":"Rte d'Emosson","postalCode":"1929","locality":"Trient","commune":{"key":"6142","name":"Trient","shortName":"Trient"},"district":{"key":"2307","name":"District de Martigny"},"canton":{"key":"23","code":"VS","name":"Valais / Wallis"},"status":"Real"},{"key":"10046351","name":"Taque","postalCode":"1929","locality":"Trient","commune":{"key":"6142","name":"Trient","shortName":"Trient"},"district":{"key":"2307","name":"District de Martigny"},"canton":{"key":"23","code":"VS","name":"Valais / Wallis"},"status":"Real"},{"key":"10237392","name":"Tête Noire","postalCode":"1929","locality":"Trient","commune":{"key":"6142","name":"Trient","shortName":"Trient"},"district":{"key":"2307","name":"District de Martigny"},"canton":{"key":"23","code":"VS","name":"Valais / Wallis"},"status":"Real"},{"key":"10237396","name":"Tissot","postalCode":"1929","locality":"Trient","commune":{"key":"6142","name":"Trient","shortName":"Trient"},"district":{"key":"2307","name":"District de Martigny"},"canton":{"key":"23","code":"VS","name":"Valais / Wallis"},"status":"Real"},{"key":"10236389","name":"Tornays","postalCode":"1929","locality":"Trient","commune":{"key":"6142","name":"Trient","shortName":"Trient"},"district":{"key":"2307","name":"District de Martigny"},"canton":{"key":"23","code":"VS","name":"Valais / Wallis"},"status":"Real"},{"key":"10236393","name":"Troulèro","postalCode":"1929","locality":"Trient","commune":{"key":"6142","name":"Trient","shortName":"Trient"},"district":{"key":"2307","name":"District de Martigny"},"canton":{"key":"23","code":"VS","name":"Valais / Wallis"},"status":"Real"},{"key":"10236397","name":"Tseppes","postalCode":"1929","locality":"Trient","commune":{"key":"6142","name":"Trient","shortName":"Trient"},"district":{"key":"2307","name":"District de Martigny"},"canton":{"key":"23","code":"VS","name":"Valais / Wallis"},"status":"Real"},{"key":"10100021","name":"Vers les Ponts","postalCode":"1929","locality":"Trient","commune":{"key":"6142","name":"Trient","shortName":"Trient"},"district":{"key":"2307","name":"District de Martigny"},"canton":{"key":"23","code":"VS","name":"Valais / Wallis"},"status":"Real"},]