[{"name":"Adolph-Kolping-Platz","postalCode":"56288","locality":"Kastellaun","municipality":{"key":"07140064","name":"Kastellaun, Stadt","type":"Stadt"},"district":{"key":"07140","name":"Rhein-Hunsrück-Kreis","type":"Landkreis"},"federalState":{"key":"07","name":"Rheinland-Pfalz"}},{"name":"Ahornweg","postalCode":"56288","locality":"Kastellaun","municipality":{"key":"07140064","name":"Kastellaun, Stadt","type":"Stadt"},"district":{"key":"07140","name":"Rhein-Hunsrück-Kreis","type":"Landkreis"},"federalState":{"key":"07","name":"Rheinland-Pfalz"}},{"name":"Akazienweg","postalCode":"56288","locality":"Kastellaun","municipality":{"key":"07140064","name":"Kastellaun, Stadt","type":"Stadt"},"district":{"key":"07140","name":"Rhein-Hunsrück-Kreis","type":"Landkreis"},"federalState":{"key":"07","name":"Rheinland-Pfalz"}},{"name":"Albert-Bauer-Str.","postalCode":"56288","locality":"Kastellaun","municipality":{"key":"07140064","name":"Kastellaun, Stadt","type":"Stadt"},"district":{"key":"07140","name":"Rhein-Hunsrück-Kreis","type":"Landkreis"},"federalState":{"key":"07","name":"Rheinland-Pfalz"}},{"name":"Albert-Schweitzer-Str.","postalCode":"56288","locality":"Kastellaun","municipality":{"key":"07140064","name":"Kastellaun, Stadt","type":"Stadt"},"district":{"key":"07140","name":"Rhein-Hunsrück-Kreis","type":"Landkreis"},"federalState":{"key":"07","name":"Rheinland-Pfalz"}},{"name":"Allee","postalCode":"56288","locality":"Kastellaun","municipality":{"key":"07140064","name":"Kastellaun, Stadt","type":"Stadt"},"district":{"key":"07140","name":"Rhein-Hunsrück-Kreis","type":"Landkreis"},"federalState":{"key":"07","name":"Rheinland-Pfalz"}},{"name":"Am Herrentisch","postalCode":"56288","locality":"Kastellaun","municipality":{"key":"07140064","name":"Kastellaun, Stadt","type":"Stadt"},"district":{"key":"07140","name":"Rhein-Hunsrück-Kreis","type":"Landkreis"},"federalState":{"key":"07","name":"Rheinland-Pfalz"}},{"name":"Am Hintertor","postalCode":"56288","locality":"Kastellaun","municipality":{"key":"07140064","name":"Kastellaun, Stadt","type":"Stadt"},"district":{"key":"07140","name":"Rhein-Hunsrück-Kreis","type":"Landkreis"},"federalState":{"key":"07","name":"Rheinland-Pfalz"}},{"name":"Am Ring","postalCode":"56288","locality":"Kastellaun","municipality":{"key":"07140064","name":"Kastellaun, Stadt","type":"Stadt"},"district":{"key":"07140","name":"Rhein-Hunsrück-Kreis","type":"Landkreis"},"federalState":{"key":"07","name":"Rheinland-Pfalz"}},{"name":"Am Schwarzen Weiher","postalCode":"56288","locality":"Kastellaun","municipality":{"key":"07140064","name":"Kastellaun, Stadt","type":"Stadt"},"district":{"key":"07140","name":"Rhein-Hunsrück-Kreis","type":"Landkreis"},"federalState":{"key":"07","name":"Rheinland-Pfalz"}},{"name":"Am Stadtgraben","postalCode":"56288","locality":"Kastellaun","municipality":{"key":"07140064","name":"Kastellaun, Stadt","type":"Stadt"},"district":{"key":"07140","name":"Rhein-Hunsrück-Kreis","type":"Landkreis"},"federalState":{"key":"07","name":"Rheinland-Pfalz"}},{"name":"An der Molkerei","postalCode":"56288","locality":"Kastellaun","municipality":{"key":"07140064","name":"Kastellaun, Stadt","type":"Stadt"},"district":{"key":"07140","name":"Rhein-Hunsrück-Kreis","type":"Landkreis"},"federalState":{"key":"07","name":"Rheinland-Pfalz"}},{"name":"Auf Dornbruch","postalCode":"56288","locality":"Kastellaun","municipality":{"key":"07140064","name":"Kastellaun, Stadt","type":"Stadt"},"district":{"key":"07140","name":"Rhein-Hunsrück-Kreis","type":"Landkreis"},"federalState":{"key":"07","name":"Rheinland-Pfalz"}},{"name":"Bahnhofstr.","postalCode":"56288","locality":"Kastellaun","municipality":{"key":"07140064","name":"Kastellaun, Stadt","type":"Stadt"},"district":{"key":"07140","name":"Rhein-Hunsrück-Kreis","type":"Landkreis"},"federalState":{"key":"07","name":"Rheinland-Pfalz"}},{"name":"Beethovenstr.","postalCode":"56288","locality":"Kastellaun","municipality":{"key":"07140064","name":"Kastellaun, Stadt","type":"Stadt"},"district":{"key":"07140","name":"Rhein-Hunsrück-Kreis","type":"Landkreis"},"federalState":{"key":"07","name":"Rheinland-Pfalz"}},{"name":"Benzstr.","postalCode":"56288","locality":"Kastellaun","municipality":{"key":"07140064","name":"Kastellaun, Stadt","type":"Stadt"},"district":{"key":"07140","name":"Rhein-Hunsrück-Kreis","type":"Landkreis"},"federalState":{"key":"07","name":"Rheinland-Pfalz"}},{"name":"Birkenweg","postalCode":"56288","locality":"Kastellaun","municipality":{"key":"07140064","name":"Kastellaun, Stadt","type":"Stadt"},"district":{"key":"07140","name":"Rhein-Hunsrück-Kreis","type":"Landkreis"},"federalState":{"key":"07","name":"Rheinland-Pfalz"}},{"name":"Bopparder Str.","postalCode":"56288","locality":"Kastellaun","municipality":{"key":"07140064","name":"Kastellaun, Stadt","type":"Stadt"},"district":{"key":"07140","name":"Rhein-Hunsrück-Kreis","type":"Landkreis"},"federalState":{"key":"07","name":"Rheinland-Pfalz"}},{"name":"Bruchschneise","postalCode":"56288","locality":"Kastellaun","municipality":{"key":"07140064","name":"Kastellaun, Stadt","type":"Stadt"},"district":{"key":"07140","name":"Rhein-Hunsrück-Kreis","type":"Landkreis"},"federalState":{"key":"07","name":"Rheinland-Pfalz"}},{"name":"Buchenweg","postalCode":"56288","locality":"Kastellaun","municipality":{"key":"07140064","name":"Kastellaun, Stadt","type":"Stadt"},"district":{"key":"07140","name":"Rhein-Hunsrück-Kreis","type":"Landkreis"},"federalState":{"key":"07","name":"Rheinland-Pfalz"}},{"name":"Bucher Str.","postalCode":"56288","locality":"Kastellaun","municipality":{"key":"07140064","name":"Kastellaun, Stadt","type":"Stadt"},"district":{"key":"07140","name":"Rhein-Hunsrück-Kreis","type":"Landkreis"},"federalState":{"key":"07","name":"Rheinland-Pfalz"}},{"name":"Burgblick","postalCode":"56288","locality":"Kastellaun","municipality":{"key":"07140064","name":"Kastellaun, Stadt","type":"Stadt"},"district":{"key":"07140","name":"Rhein-Hunsrück-Kreis","type":"Landkreis"},"federalState":{"key":"07","name":"Rheinland-Pfalz"}},{"name":"Carl-Zuckmayer-Str.","postalCode":"56288","locality":"Kastellaun","municipality":{"key":"07140064","name":"Kastellaun, Stadt","type":"Stadt"},"district":{"key":"07140","name":"Rhein-Hunsrück-Kreis","type":"Landkreis"},"federalState":{"key":"07","name":"Rheinland-Pfalz"}},{"name":"Daniel-Meisner-Str.","postalCode":"56288","locality":"Kastellaun","municipality":{"key":"07140064","name":"Kastellaun, Stadt","type":"Stadt"},"district":{"key":"07140","name":"Rhein-Hunsrück-Kreis","type":"Landkreis"},"federalState":{"key":"07","name":"Rheinland-Pfalz"}},{"name":"Danziger Str.","postalCode":"56288","locality":"Kastellaun","municipality":{"key":"07140064","name":"Kastellaun, Stadt","type":"Stadt"},"district":{"key":"07140","name":"Rhein-Hunsrück-Kreis","type":"Landkreis"},"federalState":{"key":"07","name":"Rheinland-Pfalz"}},{"name":"Eberhard-Kieser-Str.","postalCode":"56288","locality":"Kastellaun","municipality":{"key":"07140064","name":"Kastellaun, Stadt","type":"Stadt"},"district":{"key":"07140","name":"Rhein-Hunsrück-Kreis","type":"Landkreis"},"federalState":{"key":"07","name":"Rheinland-Pfalz"}},{"name":"Eduard-Bäumer-Str.","postalCode":"56288","locality":"Kastellaun","municipality":{"key":"07140064","name":"Kastellaun, Stadt","type":"Stadt"},"district":{"key":"07140","name":"Rhein-Hunsrück-Kreis","type":"Landkreis"},"federalState":{"key":"07","name":"Rheinland-Pfalz"}},{"name":"Eichendorffstr.","postalCode":"56288","locality":"Kastellaun","municipality":{"key":"07140064","name":"Kastellaun, Stadt","type":"Stadt"},"district":{"key":"07140","name":"Rhein-Hunsrück-Kreis","type":"Landkreis"},"federalState":{"key":"07","name":"Rheinland-Pfalz"}},{"name":"Eichenweg","postalCode":"56288","locality":"Kastellaun","municipality":{"key":"07140064","name":"Kastellaun, Stadt","type":"Stadt"},"district":{"key":"07140","name":"Rhein-Hunsrück-Kreis","type":"Landkreis"},"federalState":{"key":"07","name":"Rheinland-Pfalz"}},{"name":"Eifelstr.","postalCode":"56288","locality":"Kastellaun","municipality":{"key":"07140064","name":"Kastellaun, Stadt","type":"Stadt"},"district":{"key":"07140","name":"Rhein-Hunsrück-Kreis","type":"Landkreis"},"federalState":{"key":"07","name":"Rheinland-Pfalz"}},{"name":"Erlenweg","postalCode":"56288","locality":"Kastellaun","municipality":{"key":"07140064","name":"Kastellaun, Stadt","type":"Stadt"},"district":{"key":"07140","name":"Rhein-Hunsrück-Kreis","type":"Landkreis"},"federalState":{"key":"07","name":"Rheinland-Pfalz"}},{"name":"Fichtenweg","postalCode":"56288","locality":"Kastellaun","municipality":{"key":"07140064","name":"Kastellaun, Stadt","type":"Stadt"},"district":{"key":"07140","name":"Rhein-Hunsrück-Kreis","type":"Landkreis"},"federalState":{"key":"07","name":"Rheinland-Pfalz"}},{"name":"Forsthausstr.","postalCode":"56288","locality":"Kastellaun","municipality":{"key":"07140064","name":"Kastellaun, Stadt","type":"Stadt"},"district":{"key":"07140","name":"Rhein-Hunsrück-Kreis","type":"Landkreis"},"federalState":{"key":"07","name":"Rheinland-Pfalz"}},{"name":"Friedrich-Back-Str.","postalCode":"56288","locality":"Kastellaun","municipality":{"key":"07140064","name":"Kastellaun, Stadt","type":"Stadt"},"district":{"key":"07140","name":"Rhein-Hunsrück-Kreis","type":"Landkreis"},"federalState":{"key":"07","name":"Rheinland-Pfalz"}},{"name":"Georg-Friedrich-Händel-Str.","postalCode":"56288","locality":"Kastellaun","municipality":{"key":"07140064","name":"Kastellaun, Stadt","type":"Stadt"},"district":{"key":"07140","name":"Rhein-Hunsrück-Kreis","type":"Landkreis"},"federalState":{"key":"07","name":"Rheinland-Pfalz"}},{"name":"Goethestr.","postalCode":"56288","locality":"Kastellaun","municipality":{"key":"07140064","name":"Kastellaun, Stadt","type":"Stadt"},"district":{"key":"07140","name":"Rhein-Hunsrück-Kreis","type":"Landkreis"},"federalState":{"key":"07","name":"Rheinland-Pfalz"}},{"name":"Graf-Moltke-Str.","postalCode":"56288","locality":"Kastellaun","municipality":{"key":"07140064","name":"Kastellaun, Stadt","type":"Stadt"},"district":{"key":"07140","name":"Rhein-Hunsrück-Kreis","type":"Landkreis"},"federalState":{"key":"07","name":"Rheinland-Pfalz"}},{"name":"Graf-Simon-Str.","postalCode":"56288","locality":"Kastellaun","municipality":{"key":"07140064","name":"Kastellaun, Stadt","type":"Stadt"},"district":{"key":"07140","name":"Rhein-Hunsrück-Kreis","type":"Landkreis"},"federalState":{"key":"07","name":"Rheinland-Pfalz"}},{"name":"Hasental","postalCode":"56288","locality":"Kastellaun","municipality":{"key":"07140064","name":"Kastellaun, Stadt","type":"Stadt"},"district":{"key":"07140","name":"Rhein-Hunsrück-Kreis","type":"Landkreis"},"federalState":{"key":"07","name":"Rheinland-Pfalz"}},{"name":"Hasselbacher Str.","postalCode":"56288","locality":"Kastellaun","municipality":{"key":"07140064","name":"Kastellaun, Stadt","type":"Stadt"},"district":{"key":"07140","name":"Rhein-Hunsrück-Kreis","type":"Landkreis"},"federalState":{"key":"07","name":"Rheinland-Pfalz"}},{"name":"Heinrich-Zimmer-Str.","postalCode":"56288","locality":"Kastellaun","municipality":{"key":"07140064","name":"Kastellaun, Stadt","type":"Stadt"},"district":{"key":"07140","name":"Rhein-Hunsrück-Kreis","type":"Landkreis"},"federalState":{"key":"07","name":"Rheinland-Pfalz"}},{"name":"Herderstr.","postalCode":"56288","locality":"Kastellaun","municipality":{"key":"07140064","name":"Kastellaun, Stadt","type":"Stadt"},"district":{"key":"07140","name":"Rhein-Hunsrück-Kreis","type":"Landkreis"},"federalState":{"key":"07","name":"Rheinland-Pfalz"}},{"name":"Hunsrückhöhenstr.","postalCode":"56288","locality":"Kastellaun","municipality":{"key":"07140064","name":"Kastellaun, Stadt","type":"Stadt"},"district":{"key":"07140","name":"Rhein-Hunsrück-Kreis","type":"Landkreis"},"federalState":{"key":"07","name":"Rheinland-Pfalz"}},{"name":"In der Beinde","postalCode":"56288","locality":"Kastellaun","municipality":{"key":"07140064","name":"Kastellaun, Stadt","type":"Stadt"},"district":{"key":"07140","name":"Rhein-Hunsrück-Kreis","type":"Landkreis"},"federalState":{"key":"07","name":"Rheinland-Pfalz"}},{"name":"Industriestr.","postalCode":"56288","locality":"Kastellaun","municipality":{"key":"07140064","name":"Kastellaun, Stadt","type":"Stadt"},"district":{"key":"07140","name":"Rhein-Hunsrück-Kreis","type":"Landkreis"},"federalState":{"key":"07","name":"Rheinland-Pfalz"}},{"name":"Jakob-Kneip-Str.","postalCode":"56288","locality":"Kastellaun","municipality":{"key":"07140064","name":"Kastellaun, Stadt","type":"Stadt"},"district":{"key":"07140","name":"Rhein-Hunsrück-Kreis","type":"Landkreis"},"federalState":{"key":"07","name":"Rheinland-Pfalz"}},{"name":"Johann-Sebastian-Bach-Str.","postalCode":"56288","locality":"Kastellaun","municipality":{"key":"07140064","name":"Kastellaun, Stadt","type":"Stadt"},"district":{"key":"07140","name":"Rhein-Hunsrück-Kreis","type":"Landkreis"},"federalState":{"key":"07","name":"Rheinland-Pfalz"}},{"name":"Johann-Wickert-Str.","postalCode":"56288","locality":"Kastellaun","municipality":{"key":"07140064","name":"Kastellaun, Stadt","type":"Stadt"},"district":{"key":"07140","name":"Rhein-Hunsrück-Kreis","type":"Landkreis"},"federalState":{"key":"07","name":"Rheinland-Pfalz"}},{"name":"Josef-Görres-Str.","postalCode":"56288","locality":"Kastellaun","municipality":{"key":"07140064","name":"Kastellaun, Stadt","type":"Stadt"},"district":{"key":"07140","name":"Rhein-Hunsrück-Kreis","type":"Landkreis"},"federalState":{"key":"07","name":"Rheinland-Pfalz"}},{"name":"Joseph-Haydn-Str.","postalCode":"56288","locality":"Kastellaun","municipality":{"key":"07140064","name":"Kastellaun, Stadt","type":"Stadt"},"district":{"key":"07140","name":"Rhein-Hunsrück-Kreis","type":"Landkreis"},"federalState":{"key":"07","name":"Rheinland-Pfalz"}},{"name":"Kastanienweg","postalCode":"56288","locality":"Kastellaun","municipality":{"key":"07140064","name":"Kastellaun, Stadt","type":"Stadt"},"district":{"key":"07140","name":"Rhein-Hunsrück-Kreis","type":"Landkreis"},"federalState":{"key":"07","name":"Rheinland-Pfalz"}},{"name":"Kiefernweg","postalCode":"56288","locality":"Kastellaun","municipality":{"key":"07140064","name":"Kastellaun, Stadt","type":"Stadt"},"district":{"key":"07140","name":"Rhein-Hunsrück-Kreis","type":"Landkreis"},"federalState":{"key":"07","name":"Rheinland-Pfalz"}},{"name":"Kirchstr.","postalCode":"56288","locality":"Kastellaun","municipality":{"key":"07140064","name":"Kastellaun, Stadt","type":"Stadt"},"district":{"key":"07140","name":"Rhein-Hunsrück-Kreis","type":"Landkreis"},"federalState":{"key":"07","name":"Rheinland-Pfalz"}},{"name":"Königsberger Str.","postalCode":"56288","locality":"Kastellaun","municipality":{"key":"07140064","name":"Kastellaun, Stadt","type":"Stadt"},"district":{"key":"07140","name":"Rhein-Hunsrück-Kreis","type":"Landkreis"},"federalState":{"key":"07","name":"Rheinland-Pfalz"}},{"name":"Laubacher Str.","postalCode":"56288","locality":"Kastellaun","municipality":{"key":"07140064","name":"Kastellaun, Stadt","type":"Stadt"},"district":{"key":"07140","name":"Rhein-Hunsrück-Kreis","type":"Landkreis"},"federalState":{"key":"07","name":"Rheinland-Pfalz"}},{"name":"Lessingstr.","postalCode":"56288","locality":"Kastellaun","municipality":{"key":"07140064","name":"Kastellaun, Stadt","type":"Stadt"},"district":{"key":"07140","name":"Rhein-Hunsrück-Kreis","type":"Landkreis"},"federalState":{"key":"07","name":"Rheinland-Pfalz"}},{"name":"Lindenweg","postalCode":"56288","locality":"Kastellaun","municipality":{"key":"07140064","name":"Kastellaun, Stadt","type":"Stadt"},"district":{"key":"07140","name":"Rhein-Hunsrück-Kreis","type":"Landkreis"},"federalState":{"key":"07","name":"Rheinland-Pfalz"}},{"name":"Lortzingstr.","postalCode":"56288","locality":"Kastellaun","municipality":{"key":"07140064","name":"Kastellaun, Stadt","type":"Stadt"},"district":{"key":"07140","name":"Rhein-Hunsrück-Kreis","type":"Landkreis"},"federalState":{"key":"07","name":"Rheinland-Pfalz"}},{"name":"Marktplatz","postalCode":"56288","locality":"Kastellaun","municipality":{"key":"07140064","name":"Kastellaun, Stadt","type":"Stadt"},"district":{"key":"07140","name":"Rhein-Hunsrück-Kreis","type":"Landkreis"},"federalState":{"key":"07","name":"Rheinland-Pfalz"}},{"name":"Marktstr.","postalCode":"56288","locality":"Kastellaun","municipality":{"key":"07140064","name":"Kastellaun, Stadt","type":"Stadt"},"district":{"key":"07140","name":"Rhein-Hunsrück-Kreis","type":"Landkreis"},"federalState":{"key":"07","name":"Rheinland-Pfalz"}},{"name":"Matthäus-Merian-Str.","postalCode":"56288","locality":"Kastellaun","municipality":{"key":"07140064","name":"Kastellaun, Stadt","type":"Stadt"},"district":{"key":"07140","name":"Rhein-Hunsrück-Kreis","type":"Landkreis"},"federalState":{"key":"07","name":"Rheinland-Pfalz"}},{"name":"Mönchstr.","postalCode":"56288","locality":"Kastellaun","municipality":{"key":"07140064","name":"Kastellaun, Stadt","type":"Stadt"},"district":{"key":"07140","name":"Rhein-Hunsrück-Kreis","type":"Landkreis"},"federalState":{"key":"07","name":"Rheinland-Pfalz"}},{"name":"Moselstr.","postalCode":"56288","locality":"Kastellaun","municipality":{"key":"07140064","name":"Kastellaun, Stadt","type":"Stadt"},"district":{"key":"07140","name":"Rhein-Hunsrück-Kreis","type":"Landkreis"},"federalState":{"key":"07","name":"Rheinland-Pfalz"}},{"name":"Mozartstr.","postalCode":"56288","locality":"Kastellaun","municipality":{"key":"07140064","name":"Kastellaun, Stadt","type":"Stadt"},"district":{"key":"07140","name":"Rhein-Hunsrück-Kreis","type":"Landkreis"},"federalState":{"key":"07","name":"Rheinland-Pfalz"}},{"name":"Mühlenweg","postalCode":"56288","locality":"Kastellaun","municipality":{"key":"07140064","name":"Kastellaun, Stadt","type":"Stadt"},"district":{"key":"07140","name":"Rhein-Hunsrück-Kreis","type":"Landkreis"},"federalState":{"key":"07","name":"Rheinland-Pfalz"}},{"name":"Neuwieser Weg","postalCode":"56288","locality":"Kastellaun","municipality":{"key":"07140064","name":"Kastellaun, Stadt","type":"Stadt"},"district":{"key":"07140","name":"Rhein-Hunsrück-Kreis","type":"Landkreis"},"federalState":{"key":"07","name":"Rheinland-Pfalz"}},{"name":"Otto-Leonhard-Str.","postalCode":"56288","locality":"Kastellaun","municipality":{"key":"07140064","name":"Kastellaun, Stadt","type":"Stadt"},"district":{"key":"07140","name":"Rhein-Hunsrück-Kreis","type":"Landkreis"},"federalState":{"key":"07","name":"Rheinland-Pfalz"}},{"name":"Palmsgarten","postalCode":"56288","locality":"Kastellaun","municipality":{"key":"07140064","name":"Kastellaun, Stadt","type":"Stadt"},"district":{"key":"07140","name":"Rhein-Hunsrück-Kreis","type":"Landkreis"},"federalState":{"key":"07","name":"Rheinland-Pfalz"}},{"name":"Perlengasse","postalCode":"56288","locality":"Kastellaun","municipality":{"key":"07140064","name":"Kastellaun, Stadt","type":"Stadt"},"district":{"key":"07140","name":"Rhein-Hunsrück-Kreis","type":"Landkreis"},"federalState":{"key":"07","name":"Rheinland-Pfalz"}},{"name":"Pestalozzistr.","postalCode":"56288","locality":"Kastellaun","municipality":{"key":"07140064","name":"Kastellaun, Stadt","type":"Stadt"},"district":{"key":"07140","name":"Rhein-Hunsrück-Kreis","type":"Landkreis"},"federalState":{"key":"07","name":"Rheinland-Pfalz"}},{"name":"Raiffeisenstr.","postalCode":"56288","locality":"Kastellaun","municipality":{"key":"07140064","name":"Kastellaun, Stadt","type":"Stadt"},"district":{"key":"07140","name":"Rhein-Hunsrück-Kreis","type":"Landkreis"},"federalState":{"key":"07","name":"Rheinland-Pfalz"}},{"name":"Richard-Wagner-Str.","postalCode":"56288","locality":"Kastellaun","municipality":{"key":"07140064","name":"Kastellaun, Stadt","type":"Stadt"},"district":{"key":"07140","name":"Rhein-Hunsrück-Kreis","type":"Landkreis"},"federalState":{"key":"07","name":"Rheinland-Pfalz"}},{"name":"Rother Weg","postalCode":"56288","locality":"Kastellaun","municipality":{"key":"07140064","name":"Kastellaun, Stadt","type":"Stadt"},"district":{"key":"07140","name":"Rhein-Hunsrück-Kreis","type":"Landkreis"},"federalState":{"key":"07","name":"Rheinland-Pfalz"}},{"name":"Rottmannstr.","postalCode":"56288","locality":"Kastellaun","municipality":{"key":"07140064","name":"Kastellaun, Stadt","type":"Stadt"},"district":{"key":"07140","name":"Rhein-Hunsrück-Kreis","type":"Landkreis"},"federalState":{"key":"07","name":"Rheinland-Pfalz"}},{"name":"Schillerstr.","postalCode":"56288","locality":"Kastellaun","municipality":{"key":"07140064","name":"Kastellaun, Stadt","type":"Stadt"},"district":{"key":"07140","name":"Rhein-Hunsrück-Kreis","type":"Landkreis"},"federalState":{"key":"07","name":"Rheinland-Pfalz"}},{"name":"Schloßstr.","postalCode":"56288","locality":"Kastellaun","municipality":{"key":"07140064","name":"Kastellaun, Stadt","type":"Stadt"},"district":{"key":"07140","name":"Rhein-Hunsrück-Kreis","type":"Landkreis"},"federalState":{"key":"07","name":"Rheinland-Pfalz"}},{"name":"Schubertstr.","postalCode":"56288","locality":"Kastellaun","municipality":{"key":"07140064","name":"Kastellaun, Stadt","type":"Stadt"},"district":{"key":"07140","name":"Rhein-Hunsrück-Kreis","type":"Landkreis"},"federalState":{"key":"07","name":"Rheinland-Pfalz"}},{"name":"Sebastian-Furck-Str.","postalCode":"56288","locality":"Kastellaun","municipality":{"key":"07140064","name":"Kastellaun, Stadt","type":"Stadt"},"district":{"key":"07140","name":"Rhein-Hunsrück-Kreis","type":"Landkreis"},"federalState":{"key":"07","name":"Rheinland-Pfalz"}},{"name":"Spesenrother Weg","postalCode":"56288","locality":"Kastellaun","municipality":{"key":"07140064","name":"Kastellaun, Stadt","type":"Stadt"},"district":{"key":"07140","name":"Rhein-Hunsrück-Kreis","type":"Landkreis"},"federalState":{"key":"07","name":"Rheinland-Pfalz"}},{"name":"Sponheimer Ring","postalCode":"56288","locality":"Kastellaun","municipality":{"key":"07140064","name":"Kastellaun, Stadt","type":"Stadt"},"district":{"key":"07140","name":"Rhein-Hunsrück-Kreis","type":"Landkreis"},"federalState":{"key":"07","name":"Rheinland-Pfalz"}},{"name":"Stefan-Andres-Str.","postalCode":"56288","locality":"Kastellaun","municipality":{"key":"07140064","name":"Kastellaun, Stadt","type":"Stadt"},"district":{"key":"07140","name":"Rhein-Hunsrück-Kreis","type":"Landkreis"},"federalState":{"key":"07","name":"Rheinland-Pfalz"}},{"name":"Stettiner Str.","postalCode":"56288","locality":"Kastellaun","municipality":{"key":"07140064","name":"Kastellaun, Stadt","type":"Stadt"},"district":{"key":"07140","name":"Rhein-Hunsrück-Kreis","type":"Landkreis"},"federalState":{"key":"07","name":"Rheinland-Pfalz"}},{"name":"Sudetenstr.","postalCode":"56288","locality":"Kastellaun","municipality":{"key":"07140064","name":"Kastellaun, Stadt","type":"Stadt"},"district":{"key":"07140","name":"Rhein-Hunsrück-Kreis","type":"Landkreis"},"federalState":{"key":"07","name":"Rheinland-Pfalz"}},{"name":"Südstr.","postalCode":"56288","locality":"Kastellaun","municipality":{"key":"07140064","name":"Kastellaun, Stadt","type":"Stadt"},"district":{"key":"07140","name":"Rhein-Hunsrück-Kreis","type":"Landkreis"},"federalState":{"key":"07","name":"Rheinland-Pfalz"}},{"name":"Tannenweg","postalCode":"56288","locality":"Kastellaun","municipality":{"key":"07140064","name":"Kastellaun, Stadt","type":"Stadt"},"district":{"key":"07140","name":"Rhein-Hunsrück-Kreis","type":"Landkreis"},"federalState":{"key":"07","name":"Rheinland-Pfalz"}},{"name":"Theodor-Heuss-Str.","postalCode":"56288","locality":"Kastellaun","municipality":{"key":"07140064","name":"Kastellaun, Stadt","type":"Stadt"},"district":{"key":"07140","name":"Rhein-Hunsrück-Kreis","type":"Landkreis"},"federalState":{"key":"07","name":"Rheinland-Pfalz"}},{"name":"Turnvater Jahn Str.","postalCode":"56288","locality":"Kastellaun","municipality":{"key":"07140064","name":"Kastellaun, Stadt","type":"Stadt"},"district":{"key":"07140","name":"Rhein-Hunsrück-Kreis","type":"Landkreis"},"federalState":{"key":"07","name":"Rheinland-Pfalz"}},{"name":"Ulmenweg","postalCode":"56288","locality":"Kastellaun","municipality":{"key":"07140064","name":"Kastellaun, Stadt","type":"Stadt"},"district":{"key":"07140","name":"Rhein-Hunsrück-Kreis","type":"Landkreis"},"federalState":{"key":"07","name":"Rheinland-Pfalz"}},{"name":"Zeller Str.","postalCode":"56288","locality":"Kastellaun","municipality":{"key":"07140064","name":"Kastellaun, Stadt","type":"Stadt"},"district":{"key":"07140","name":"Rhein-Hunsrück-Kreis","type":"Landkreis"},"federalState":{"key":"07","name":"Rheinland-Pfalz"}},{"name":"Zum Rehberg","postalCode":"56288","locality":"Kastellaun","municipality":{"key":"07140064","name":"Kastellaun, Stadt","type":"Stadt"},"district":{"key":"07140","name":"Rhein-Hunsrück-Kreis","type":"Landkreis"},"federalState":{"key":"07","name":"Rheinland-Pfalz"}},]