[{"name":"Alte Gasse","postalCode":"77797","locality":"Ohlsbach","municipality":{"key":"08317097","name":"Ohlsbach","type":"Kreisangehörige_Gemeinde"},"district":{"key":"08317","name":"Ortenaukreis","type":"Landkreis"},"federalState":{"key":"08","name":"Baden-Württemberg"}},{"name":"Alter Sportplatz","postalCode":"77797","locality":"Ohlsbach","municipality":{"key":"08317097","name":"Ohlsbach","type":"Kreisangehörige_Gemeinde"},"district":{"key":"08317","name":"Ortenaukreis","type":"Landkreis"},"federalState":{"key":"08","name":"Baden-Württemberg"}},{"name":"Am Waldrand","postalCode":"77797","locality":"Ohlsbach","municipality":{"key":"08317097","name":"Ohlsbach","type":"Kreisangehörige_Gemeinde"},"district":{"key":"08317","name":"Ortenaukreis","type":"Landkreis"},"federalState":{"key":"08","name":"Baden-Württemberg"}},{"name":"Am Weinberg","postalCode":"77797","locality":"Ohlsbach","municipality":{"key":"08317097","name":"Ohlsbach","type":"Kreisangehörige_Gemeinde"},"district":{"key":"08317","name":"Ortenaukreis","type":"Landkreis"},"federalState":{"key":"08","name":"Baden-Württemberg"}},{"name":"Auf dem Grün","postalCode":"77797","locality":"Ohlsbach","municipality":{"key":"08317097","name":"Ohlsbach","type":"Kreisangehörige_Gemeinde"},"district":{"key":"08317","name":"Ortenaukreis","type":"Landkreis"},"federalState":{"key":"08","name":"Baden-Württemberg"}},{"name":"Auf der Oberen Au","postalCode":"77797","locality":"Ohlsbach","municipality":{"key":"08317097","name":"Ohlsbach","type":"Kreisangehörige_Gemeinde"},"district":{"key":"08317","name":"Ortenaukreis","type":"Landkreis"},"federalState":{"key":"08","name":"Baden-Württemberg"}},{"name":"Auf der Scherersmatt","postalCode":"77797","locality":"Ohlsbach","municipality":{"key":"08317097","name":"Ohlsbach","type":"Kreisangehörige_Gemeinde"},"district":{"key":"08317","name":"Ortenaukreis","type":"Landkreis"},"federalState":{"key":"08","name":"Baden-Württemberg"}},{"name":"Blumenstr.","postalCode":"77797","locality":"Ohlsbach","municipality":{"key":"08317097","name":"Ohlsbach","type":"Kreisangehörige_Gemeinde"},"district":{"key":"08317","name":"Ortenaukreis","type":"Landkreis"},"federalState":{"key":"08","name":"Baden-Württemberg"}},{"name":"Brandeckstr.","postalCode":"77797","locality":"Ohlsbach","municipality":{"key":"08317097","name":"Ohlsbach","type":"Kreisangehörige_Gemeinde"},"district":{"key":"08317","name":"Ortenaukreis","type":"Landkreis"},"federalState":{"key":"08","name":"Baden-Württemberg"}},{"name":"Büchen","postalCode":"77797","locality":"Ohlsbach","municipality":{"key":"08317097","name":"Ohlsbach","type":"Kreisangehörige_Gemeinde"},"district":{"key":"08317","name":"Ortenaukreis","type":"Landkreis"},"federalState":{"key":"08","name":"Baden-Württemberg"}},{"name":"Bühlweg","postalCode":"77797","locality":"Ohlsbach","municipality":{"key":"08317097","name":"Ohlsbach","type":"Kreisangehörige_Gemeinde"},"district":{"key":"08317","name":"Ortenaukreis","type":"Landkreis"},"federalState":{"key":"08","name":"Baden-Württemberg"}},{"name":"Carl-Benz-Str.","postalCode":"77797","locality":"Ohlsbach","municipality":{"key":"08317097","name":"Ohlsbach","type":"Kreisangehörige_Gemeinde"},"district":{"key":"08317","name":"Ortenaukreis","type":"Landkreis"},"federalState":{"key":"08","name":"Baden-Württemberg"}},{"name":"Dorfstr.","postalCode":"77797","locality":"Ohlsbach","municipality":{"key":"08317097","name":"Ohlsbach","type":"Kreisangehörige_Gemeinde"},"district":{"key":"08317","name":"Ortenaukreis","type":"Landkreis"},"federalState":{"key":"08","name":"Baden-Württemberg"}},{"name":"Ebersweierer Str.","postalCode":"77797","locality":"Ohlsbach","municipality":{"key":"08317097","name":"Ohlsbach","type":"Kreisangehörige_Gemeinde"},"district":{"key":"08317","name":"Ortenaukreis","type":"Landkreis"},"federalState":{"key":"08","name":"Baden-Württemberg"}},{"name":"Engelgäßle","postalCode":"77797","locality":"Ohlsbach","municipality":{"key":"08317097","name":"Ohlsbach","type":"Kreisangehörige_Gemeinde"},"district":{"key":"08317","name":"Ortenaukreis","type":"Landkreis"},"federalState":{"key":"08","name":"Baden-Württemberg"}},{"name":"Feldgarten","postalCode":"77797","locality":"Ohlsbach","municipality":{"key":"08317097","name":"Ohlsbach","type":"Kreisangehörige_Gemeinde"},"district":{"key":"08317","name":"Ortenaukreis","type":"Landkreis"},"federalState":{"key":"08","name":"Baden-Württemberg"}},{"name":"Friedhofstr.","postalCode":"77797","locality":"Ohlsbach","municipality":{"key":"08317097","name":"Ohlsbach","type":"Kreisangehörige_Gemeinde"},"district":{"key":"08317","name":"Ortenaukreis","type":"Landkreis"},"federalState":{"key":"08","name":"Baden-Württemberg"}},{"name":"Grimmelshausenstr.","postalCode":"77797","locality":"Ohlsbach","municipality":{"key":"08317097","name":"Ohlsbach","type":"Kreisangehörige_Gemeinde"},"district":{"key":"08317","name":"Ortenaukreis","type":"Landkreis"},"federalState":{"key":"08","name":"Baden-Württemberg"}},{"name":"Hauptstr.","postalCode":"77797","locality":"Ohlsbach","municipality":{"key":"08317097","name":"Ohlsbach","type":"Kreisangehörige_Gemeinde"},"district":{"key":"08317","name":"Ortenaukreis","type":"Landkreis"},"federalState":{"key":"08","name":"Baden-Württemberg"}},{"name":"Heimgasse","postalCode":"77797","locality":"Ohlsbach","municipality":{"key":"08317097","name":"Ohlsbach","type":"Kreisangehörige_Gemeinde"},"district":{"key":"08317","name":"Ortenaukreis","type":"Landkreis"},"federalState":{"key":"08","name":"Baden-Württemberg"}},{"name":"Hennenlochweg","postalCode":"77797","locality":"Ohlsbach","municipality":{"key":"08317097","name":"Ohlsbach","type":"Kreisangehörige_Gemeinde"},"district":{"key":"08317","name":"Ortenaukreis","type":"Landkreis"},"federalState":{"key":"08","name":"Baden-Württemberg"}},{"name":"Hinterohlsbach","postalCode":"77797","locality":"Ohlsbach","municipality":{"key":"08317097","name":"Ohlsbach","type":"Kreisangehörige_Gemeinde"},"district":{"key":"08317","name":"Ortenaukreis","type":"Landkreis"},"federalState":{"key":"08","name":"Baden-Württemberg"}},{"name":"Hubergasse","postalCode":"77797","locality":"Ohlsbach","municipality":{"key":"08317097","name":"Ohlsbach","type":"Kreisangehörige_Gemeinde"},"district":{"key":"08317","name":"Ortenaukreis","type":"Landkreis"},"federalState":{"key":"08","name":"Baden-Württemberg"}},{"name":"Hubersgasse","postalCode":"77797","locality":"Ohlsbach","municipality":{"key":"08317097","name":"Ohlsbach","type":"Kreisangehörige_Gemeinde"},"district":{"key":"08317","name":"Ortenaukreis","type":"Landkreis"},"federalState":{"key":"08","name":"Baden-Württemberg"}},{"name":"Im Hubfeld","postalCode":"77797","locality":"Ohlsbach","municipality":{"key":"08317097","name":"Ohlsbach","type":"Kreisangehörige_Gemeinde"},"district":{"key":"08317","name":"Ortenaukreis","type":"Landkreis"},"federalState":{"key":"08","name":"Baden-Württemberg"}},{"name":"Im Oberfeld","postalCode":"77797","locality":"Ohlsbach","municipality":{"key":"08317097","name":"Ohlsbach","type":"Kreisangehörige_Gemeinde"},"district":{"key":"08317","name":"Ortenaukreis","type":"Landkreis"},"federalState":{"key":"08","name":"Baden-Württemberg"}},{"name":"In der Liese","postalCode":"77797","locality":"Ohlsbach","municipality":{"key":"08317097","name":"Ohlsbach","type":"Kreisangehörige_Gemeinde"},"district":{"key":"08317","name":"Ortenaukreis","type":"Landkreis"},"federalState":{"key":"08","name":"Baden-Württemberg"}},{"name":"In der Liesi","postalCode":"77797","locality":"Ohlsbach","municipality":{"key":"08317097","name":"Ohlsbach","type":"Kreisangehörige_Gemeinde"},"district":{"key":"08317","name":"Ortenaukreis","type":"Landkreis"},"federalState":{"key":"08","name":"Baden-Württemberg"}},{"name":"Johann-Peter-Hebel-Str.","postalCode":"77797","locality":"Ohlsbach","municipality":{"key":"08317097","name":"Ohlsbach","type":"Kreisangehörige_Gemeinde"},"district":{"key":"08317","name":"Ortenaukreis","type":"Landkreis"},"federalState":{"key":"08","name":"Baden-Württemberg"}},{"name":"Kammweg","postalCode":"77797","locality":"Ohlsbach","municipality":{"key":"08317097","name":"Ohlsbach","type":"Kreisangehörige_Gemeinde"},"district":{"key":"08317","name":"Ortenaukreis","type":"Landkreis"},"federalState":{"key":"08","name":"Baden-Württemberg"}},{"name":"Käppele","postalCode":"77797","locality":"Ohlsbach","municipality":{"key":"08317097","name":"Ohlsbach","type":"Kreisangehörige_Gemeinde"},"district":{"key":"08317","name":"Ortenaukreis","type":"Landkreis"},"federalState":{"key":"08","name":"Baden-Württemberg"}},{"name":"Kinzigdamm","postalCode":"77797","locality":"Ohlsbach","municipality":{"key":"08317097","name":"Ohlsbach","type":"Kreisangehörige_Gemeinde"},"district":{"key":"08317","name":"Ortenaukreis","type":"Landkreis"},"federalState":{"key":"08","name":"Baden-Württemberg"}},{"name":"Kinzigtalstr.","postalCode":"77797","locality":"Ohlsbach","municipality":{"key":"08317097","name":"Ohlsbach","type":"Kreisangehörige_Gemeinde"},"district":{"key":"08317","name":"Ortenaukreis","type":"Landkreis"},"federalState":{"key":"08","name":"Baden-Württemberg"}},{"name":"Kirschblütenpark","postalCode":"77797","locality":"Ohlsbach","municipality":{"key":"08317097","name":"Ohlsbach","type":"Kreisangehörige_Gemeinde"},"district":{"key":"08317","name":"Ortenaukreis","type":"Landkreis"},"federalState":{"key":"08","name":"Baden-Württemberg"}},{"name":"Maierbühnd","postalCode":"77797","locality":"Ohlsbach","municipality":{"key":"08317097","name":"Ohlsbach","type":"Kreisangehörige_Gemeinde"},"district":{"key":"08317","name":"Ortenaukreis","type":"Landkreis"},"federalState":{"key":"08","name":"Baden-Württemberg"}},{"name":"Meisengrund","postalCode":"77797","locality":"Ohlsbach","municipality":{"key":"08317097","name":"Ohlsbach","type":"Kreisangehörige_Gemeinde"},"district":{"key":"08317","name":"Ortenaukreis","type":"Landkreis"},"federalState":{"key":"08","name":"Baden-Württemberg"}},{"name":"Mühleckle","postalCode":"77797","locality":"Ohlsbach","municipality":{"key":"08317097","name":"Ohlsbach","type":"Kreisangehörige_Gemeinde"},"district":{"key":"08317","name":"Ortenaukreis","type":"Landkreis"},"federalState":{"key":"08","name":"Baden-Württemberg"}},{"name":"Philosophenpfad","postalCode":"77797","locality":"Ohlsbach","municipality":{"key":"08317097","name":"Ohlsbach","type":"Kreisangehörige_Gemeinde"},"district":{"key":"08317","name":"Ortenaukreis","type":"Landkreis"},"federalState":{"key":"08","name":"Baden-Württemberg"}},{"name":"Pionierweg","postalCode":"77797","locality":"Ohlsbach","municipality":{"key":"08317097","name":"Ohlsbach","type":"Kreisangehörige_Gemeinde"},"district":{"key":"08317","name":"Ortenaukreis","type":"Landkreis"},"federalState":{"key":"08","name":"Baden-Württemberg"}},{"name":"Plattenweg","postalCode":"77797","locality":"Ohlsbach","municipality":{"key":"08317097","name":"Ohlsbach","type":"Kreisangehörige_Gemeinde"},"district":{"key":"08317","name":"Ortenaukreis","type":"Landkreis"},"federalState":{"key":"08","name":"Baden-Württemberg"}},{"name":"Quellwasserpark","postalCode":"77797","locality":"Ohlsbach","municipality":{"key":"08317097","name":"Ohlsbach","type":"Kreisangehörige_Gemeinde"},"district":{"key":"08317","name":"Ortenaukreis","type":"Landkreis"},"federalState":{"key":"08","name":"Baden-Württemberg"}},{"name":"Riesenwaldstr.","postalCode":"77797","locality":"Ohlsbach","municipality":{"key":"08317097","name":"Ohlsbach","type":"Kreisangehörige_Gemeinde"},"district":{"key":"08317","name":"Ortenaukreis","type":"Landkreis"},"federalState":{"key":"08","name":"Baden-Württemberg"}},{"name":"Schlauchberg","postalCode":"77797","locality":"Ohlsbach","municipality":{"key":"08317097","name":"Ohlsbach","type":"Kreisangehörige_Gemeinde"},"district":{"key":"08317","name":"Ortenaukreis","type":"Landkreis"},"federalState":{"key":"08","name":"Baden-Württemberg"}},{"name":"Schlauchstr.","postalCode":"77797","locality":"Ohlsbach","municipality":{"key":"08317097","name":"Ohlsbach","type":"Kreisangehörige_Gemeinde"},"district":{"key":"08317","name":"Ortenaukreis","type":"Landkreis"},"federalState":{"key":"08","name":"Baden-Württemberg"}},{"name":"Schulstr.","postalCode":"77797","locality":"Ohlsbach","municipality":{"key":"08317097","name":"Ohlsbach","type":"Kreisangehörige_Gemeinde"},"district":{"key":"08317","name":"Ortenaukreis","type":"Landkreis"},"federalState":{"key":"08","name":"Baden-Württemberg"}},{"name":"Schwarzwaldstr.","postalCode":"77797","locality":"Ohlsbach","municipality":{"key":"08317097","name":"Ohlsbach","type":"Kreisangehörige_Gemeinde"},"district":{"key":"08317","name":"Ortenaukreis","type":"Landkreis"},"federalState":{"key":"08","name":"Baden-Württemberg"}},{"name":"Seeweg","postalCode":"77797","locality":"Ohlsbach","municipality":{"key":"08317097","name":"Ohlsbach","type":"Kreisangehörige_Gemeinde"},"district":{"key":"08317","name":"Ortenaukreis","type":"Landkreis"},"federalState":{"key":"08","name":"Baden-Württemberg"}},{"name":"Sonnenhalde","postalCode":"77797","locality":"Ohlsbach","municipality":{"key":"08317097","name":"Ohlsbach","type":"Kreisangehörige_Gemeinde"},"district":{"key":"08317","name":"Ortenaukreis","type":"Landkreis"},"federalState":{"key":"08","name":"Baden-Württemberg"}},{"name":"Vogesenstr.","postalCode":"77797","locality":"Ohlsbach","municipality":{"key":"08317097","name":"Ohlsbach","type":"Kreisangehörige_Gemeinde"},"district":{"key":"08317","name":"Ortenaukreis","type":"Landkreis"},"federalState":{"key":"08","name":"Baden-Württemberg"}},{"name":"Vordere Lehen","postalCode":"77797","locality":"Ohlsbach","municipality":{"key":"08317097","name":"Ohlsbach","type":"Kreisangehörige_Gemeinde"},"district":{"key":"08317","name":"Ortenaukreis","type":"Landkreis"},"federalState":{"key":"08","name":"Baden-Württemberg"}},{"name":"Weißenbach","postalCode":"77797","locality":"Ohlsbach","municipality":{"key":"08317097","name":"Ohlsbach","type":"Kreisangehörige_Gemeinde"},"district":{"key":"08317","name":"Ortenaukreis","type":"Landkreis"},"federalState":{"key":"08","name":"Baden-Württemberg"}},{"name":"Wilhelm-Wußler-Str.","postalCode":"77797","locality":"Ohlsbach","municipality":{"key":"08317097","name":"Ohlsbach","type":"Kreisangehörige_Gemeinde"},"district":{"key":"08317","name":"Ortenaukreis","type":"Landkreis"},"federalState":{"key":"08","name":"Baden-Württemberg"}},]