[{"name":"Adolf-Kolping-Str.","postalCode":"31174","locality":"Schellerten","municipality":{"key":"03254029","name":"Schellerten","type":"Kreisangehörige_Gemeinde"},"district":{"key":"03254","name":"Hildesheim","type":"Landkreis"},"federalState":{"key":"03","name":"Niedersachsen"}},{"name":"Ahstedter Str.","postalCode":"31174","locality":"Schellerten","municipality":{"key":"03254029","name":"Schellerten","type":"Kreisangehörige_Gemeinde"},"district":{"key":"03254","name":"Hildesheim","type":"Landkreis"},"federalState":{"key":"03","name":"Niedersachsen"}},{"name":"Alfred-Delp-Str.","postalCode":"31174","locality":"Schellerten","municipality":{"key":"03254029","name":"Schellerten","type":"Kreisangehörige_Gemeinde"},"district":{"key":"03254","name":"Hildesheim","type":"Landkreis"},"federalState":{"key":"03","name":"Niedersachsen"}},{"name":"Alte Salzstr.","postalCode":"31174","locality":"Schellerten","municipality":{"key":"03254029","name":"Schellerten","type":"Kreisangehörige_Gemeinde"},"district":{"key":"03254","name":"Hildesheim","type":"Landkreis"},"federalState":{"key":"03","name":"Niedersachsen"}},{"name":"Altes Feld","postalCode":"31174","locality":"Schellerten","municipality":{"key":"03254029","name":"Schellerten","type":"Kreisangehörige_Gemeinde"},"district":{"key":"03254","name":"Hildesheim","type":"Landkreis"},"federalState":{"key":"03","name":"Niedersachsen"}},{"name":"Alte Str.","postalCode":"31174","locality":"Schellerten","municipality":{"key":"03254029","name":"Schellerten","type":"Kreisangehörige_Gemeinde"},"district":{"key":"03254","name":"Hildesheim","type":"Landkreis"},"federalState":{"key":"03","name":"Niedersachsen"}},{"name":"Am Angerteich","postalCode":"31174","locality":"Schellerten","municipality":{"key":"03254029","name":"Schellerten","type":"Kreisangehörige_Gemeinde"},"district":{"key":"03254","name":"Hildesheim","type":"Landkreis"},"federalState":{"key":"03","name":"Niedersachsen"}},{"name":"Am Bahnhof","postalCode":"31174","locality":"Schellerten","municipality":{"key":"03254029","name":"Schellerten","type":"Kreisangehörige_Gemeinde"},"district":{"key":"03254","name":"Hildesheim","type":"Landkreis"},"federalState":{"key":"03","name":"Niedersachsen"}},{"name":"Am Bankkamp","postalCode":"31174","locality":"Schellerten","municipality":{"key":"03254029","name":"Schellerten","type":"Kreisangehörige_Gemeinde"},"district":{"key":"03254","name":"Hildesheim","type":"Landkreis"},"federalState":{"key":"03","name":"Niedersachsen"}},{"name":"Am Brink","postalCode":"31174","locality":"Schellerten","municipality":{"key":"03254029","name":"Schellerten","type":"Kreisangehörige_Gemeinde"},"district":{"key":"03254","name":"Hildesheim","type":"Landkreis"},"federalState":{"key":"03","name":"Niedersachsen"}},{"name":"Am Bruchgraben","postalCode":"31174","locality":"Schellerten","municipality":{"key":"03254029","name":"Schellerten","type":"Kreisangehörige_Gemeinde"},"district":{"key":"03254","name":"Hildesheim","type":"Landkreis"},"federalState":{"key":"03","name":"Niedersachsen"}},{"name":"Am Erbsenbrunnen","postalCode":"31174","locality":"Schellerten","municipality":{"key":"03254029","name":"Schellerten","type":"Kreisangehörige_Gemeinde"},"district":{"key":"03254","name":"Hildesheim","type":"Landkreis"},"federalState":{"key":"03","name":"Niedersachsen"}},{"name":"Am Forsthaus","postalCode":"31174","locality":"Schellerten","municipality":{"key":"03254029","name":"Schellerten","type":"Kreisangehörige_Gemeinde"},"district":{"key":"03254","name":"Hildesheim","type":"Landkreis"},"federalState":{"key":"03","name":"Niedersachsen"}},{"name":"Am Freibad","postalCode":"31174","locality":"Schellerten","municipality":{"key":"03254029","name":"Schellerten","type":"Kreisangehörige_Gemeinde"},"district":{"key":"03254","name":"Hildesheim","type":"Landkreis"},"federalState":{"key":"03","name":"Niedersachsen"}},{"name":"Am Gute","postalCode":"31174","locality":"Schellerten","municipality":{"key":"03254029","name":"Schellerten","type":"Kreisangehörige_Gemeinde"},"district":{"key":"03254","name":"Hildesheim","type":"Landkreis"},"federalState":{"key":"03","name":"Niedersachsen"}},{"name":"Am Hagen","postalCode":"31174","locality":"Schellerten","municipality":{"key":"03254029","name":"Schellerten","type":"Kreisangehörige_Gemeinde"},"district":{"key":"03254","name":"Hildesheim","type":"Landkreis"},"federalState":{"key":"03","name":"Niedersachsen"}},{"name":"Am Heller","postalCode":"31174","locality":"Schellerten","municipality":{"key":"03254029","name":"Schellerten","type":"Kreisangehörige_Gemeinde"},"district":{"key":"03254","name":"Hildesheim","type":"Landkreis"},"federalState":{"key":"03","name":"Niedersachsen"}},{"name":"Am Holzacker","postalCode":"31174","locality":"Schellerten","municipality":{"key":"03254029","name":"Schellerten","type":"Kreisangehörige_Gemeinde"},"district":{"key":"03254","name":"Hildesheim","type":"Landkreis"},"federalState":{"key":"03","name":"Niedersachsen"}},{"name":"Am Kannenstiege","postalCode":"31174","locality":"Schellerten","municipality":{"key":"03254029","name":"Schellerten","type":"Kreisangehörige_Gemeinde"},"district":{"key":"03254","name":"Hildesheim","type":"Landkreis"},"federalState":{"key":"03","name":"Niedersachsen"}},{"name":"Am langen Teich","postalCode":"31174","locality":"Schellerten","municipality":{"key":"03254029","name":"Schellerten","type":"Kreisangehörige_Gemeinde"},"district":{"key":"03254","name":"Hildesheim","type":"Landkreis"},"federalState":{"key":"03","name":"Niedersachsen"}},{"name":"Am Pass","postalCode":"31174","locality":"Schellerten","municipality":{"key":"03254029","name":"Schellerten","type":"Kreisangehörige_Gemeinde"},"district":{"key":"03254","name":"Hildesheim","type":"Landkreis"},"federalState":{"key":"03","name":"Niedersachsen"}},{"name":"Am Rittergut","postalCode":"31174","locality":"Schellerten","municipality":{"key":"03254029","name":"Schellerten","type":"Kreisangehörige_Gemeinde"},"district":{"key":"03254","name":"Hildesheim","type":"Landkreis"},"federalState":{"key":"03","name":"Niedersachsen"}},{"name":"Am Silbersbeek","postalCode":"31174","locality":"Schellerten","municipality":{"key":"03254029","name":"Schellerten","type":"Kreisangehörige_Gemeinde"},"district":{"key":"03254","name":"Hildesheim","type":"Landkreis"},"federalState":{"key":"03","name":"Niedersachsen"}},{"name":"Am Steinkamp","postalCode":"31174","locality":"Schellerten","municipality":{"key":"03254029","name":"Schellerten","type":"Kreisangehörige_Gemeinde"},"district":{"key":"03254","name":"Hildesheim","type":"Landkreis"},"federalState":{"key":"03","name":"Niedersachsen"}},{"name":"Am Unsinnbach","postalCode":"31174","locality":"Schellerten","municipality":{"key":"03254029","name":"Schellerten","type":"Kreisangehörige_Gemeinde"},"district":{"key":"03254","name":"Hildesheim","type":"Landkreis"},"federalState":{"key":"03","name":"Niedersachsen"}},{"name":"Am Zollhaus","postalCode":"31174","locality":"Schellerten","municipality":{"key":"03254029","name":"Schellerten","type":"Kreisangehörige_Gemeinde"},"district":{"key":"03254","name":"Hildesheim","type":"Landkreis"},"federalState":{"key":"03","name":"Niedersachsen"}},{"name":"An den Flachsrotten","postalCode":"31174","locality":"Schellerten","municipality":{"key":"03254029","name":"Schellerten","type":"Kreisangehörige_Gemeinde"},"district":{"key":"03254","name":"Hildesheim","type":"Landkreis"},"federalState":{"key":"03","name":"Niedersachsen"}},{"name":"An der B 1","postalCode":"31174","locality":"Schellerten","municipality":{"key":"03254029","name":"Schellerten","type":"Kreisangehörige_Gemeinde"},"district":{"key":"03254","name":"Hildesheim","type":"Landkreis"},"federalState":{"key":"03","name":"Niedersachsen"}},{"name":"An der Kirche","postalCode":"31174","locality":"Schellerten","municipality":{"key":"03254029","name":"Schellerten","type":"Kreisangehörige_Gemeinde"},"district":{"key":"03254","name":"Hildesheim","type":"Landkreis"},"federalState":{"key":"03","name":"Niedersachsen"}},{"name":"An der Marienkirche","postalCode":"31174","locality":"Schellerten","municipality":{"key":"03254029","name":"Schellerten","type":"Kreisangehörige_Gemeinde"},"district":{"key":"03254","name":"Hildesheim","type":"Landkreis"},"federalState":{"key":"03","name":"Niedersachsen"}},{"name":"An der Ohe","postalCode":"31174","locality":"Schellerten","municipality":{"key":"03254029","name":"Schellerten","type":"Kreisangehörige_Gemeinde"},"district":{"key":"03254","name":"Hildesheim","type":"Landkreis"},"federalState":{"key":"03","name":"Niedersachsen"}},{"name":"An der Schelle","postalCode":"31174","locality":"Schellerten","municipality":{"key":"03254029","name":"Schellerten","type":"Kreisangehörige_Gemeinde"},"district":{"key":"03254","name":"Hildesheim","type":"Landkreis"},"federalState":{"key":"03","name":"Niedersachsen"}},{"name":"An der Worth","postalCode":"31174","locality":"Schellerten","municipality":{"key":"03254029","name":"Schellerten","type":"Kreisangehörige_Gemeinde"},"district":{"key":"03254","name":"Hildesheim","type":"Landkreis"},"federalState":{"key":"03","name":"Niedersachsen"}},{"name":"Auf dem Thie","postalCode":"31174","locality":"Schellerten","municipality":{"key":"03254029","name":"Schellerten","type":"Kreisangehörige_Gemeinde"},"district":{"key":"03254","name":"Hildesheim","type":"Landkreis"},"federalState":{"key":"03","name":"Niedersachsen"}},{"name":"Auf der Höhe","postalCode":"31174","locality":"Schellerten","municipality":{"key":"03254029","name":"Schellerten","type":"Kreisangehörige_Gemeinde"},"district":{"key":"03254","name":"Hildesheim","type":"Landkreis"},"federalState":{"key":"03","name":"Niedersachsen"}},{"name":"Auf der Marsch","postalCode":"31174","locality":"Schellerten","municipality":{"key":"03254029","name":"Schellerten","type":"Kreisangehörige_Gemeinde"},"district":{"key":"03254","name":"Hildesheim","type":"Landkreis"},"federalState":{"key":"03","name":"Niedersachsen"}},{"name":"Auf der Schanze","postalCode":"31174","locality":"Schellerten","municipality":{"key":"03254029","name":"Schellerten","type":"Kreisangehörige_Gemeinde"},"district":{"key":"03254","name":"Hildesheim","type":"Landkreis"},"federalState":{"key":"03","name":"Niedersachsen"}},{"name":"Auf der Wiese","postalCode":"31174","locality":"Schellerten","municipality":{"key":"03254029","name":"Schellerten","type":"Kreisangehörige_Gemeinde"},"district":{"key":"03254","name":"Hildesheim","type":"Landkreis"},"federalState":{"key":"03","name":"Niedersachsen"}},{"name":"August-Henze-Str.","postalCode":"31174","locality":"Schellerten","municipality":{"key":"03254029","name":"Schellerten","type":"Kreisangehörige_Gemeinde"},"district":{"key":"03254","name":"Hildesheim","type":"Landkreis"},"federalState":{"key":"03","name":"Niedersachsen"}},{"name":"Bachstr.","postalCode":"31174","locality":"Schellerten","municipality":{"key":"03254029","name":"Schellerten","type":"Kreisangehörige_Gemeinde"},"district":{"key":"03254","name":"Hildesheim","type":"Landkreis"},"federalState":{"key":"03","name":"Niedersachsen"}},{"name":"Bäckerstr.","postalCode":"31174","locality":"Schellerten","municipality":{"key":"03254029","name":"Schellerten","type":"Kreisangehörige_Gemeinde"},"district":{"key":"03254","name":"Hildesheim","type":"Landkreis"},"federalState":{"key":"03","name":"Niedersachsen"}},{"name":"Backhausstr.","postalCode":"31174","locality":"Schellerten","municipality":{"key":"03254029","name":"Schellerten","type":"Kreisangehörige_Gemeinde"},"district":{"key":"03254","name":"Hildesheim","type":"Landkreis"},"federalState":{"key":"03","name":"Niedersachsen"}},{"name":"Baulering","postalCode":"31174","locality":"Schellerten","municipality":{"key":"03254029","name":"Schellerten","type":"Kreisangehörige_Gemeinde"},"district":{"key":"03254","name":"Hildesheim","type":"Landkreis"},"federalState":{"key":"03","name":"Niedersachsen"}},{"name":"Baumschulenweg","postalCode":"31174","locality":"Schellerten","municipality":{"key":"03254029","name":"Schellerten","type":"Kreisangehörige_Gemeinde"},"district":{"key":"03254","name":"Hildesheim","type":"Landkreis"},"federalState":{"key":"03","name":"Niedersachsen"}},{"name":"Bergamannsweg","postalCode":"31174","locality":"Schellerten","municipality":{"key":"03254029","name":"Schellerten","type":"Kreisangehörige_Gemeinde"},"district":{"key":"03254","name":"Hildesheim","type":"Landkreis"},"federalState":{"key":"03","name":"Niedersachsen"}},{"name":"Bergstr.","postalCode":"31174","locality":"Schellerten","municipality":{"key":"03254029","name":"Schellerten","type":"Kreisangehörige_Gemeinde"},"district":{"key":"03254","name":"Hildesheim","type":"Landkreis"},"federalState":{"key":"03","name":"Niedersachsen"}},{"name":"Berliner Str.","postalCode":"31174","locality":"Schellerten","municipality":{"key":"03254029","name":"Schellerten","type":"Kreisangehörige_Gemeinde"},"district":{"key":"03254","name":"Hildesheim","type":"Landkreis"},"federalState":{"key":"03","name":"Niedersachsen"}},{"name":"Bernwardstr.","postalCode":"31174","locality":"Schellerten","municipality":{"key":"03254029","name":"Schellerten","type":"Kreisangehörige_Gemeinde"},"district":{"key":"03254","name":"Hildesheim","type":"Landkreis"},"federalState":{"key":"03","name":"Niedersachsen"}},{"name":"Bettmarer Str.","postalCode":"31174","locality":"Schellerten","municipality":{"key":"03254029","name":"Schellerten","type":"Kreisangehörige_Gemeinde"},"district":{"key":"03254","name":"Hildesheim","type":"Landkreis"},"federalState":{"key":"03","name":"Niedersachsen"}},{"name":"Bierberger Str.","postalCode":"31174","locality":"Schellerten","municipality":{"key":"03254029","name":"Schellerten","type":"Kreisangehörige_Gemeinde"},"district":{"key":"03254","name":"Hildesheim","type":"Landkreis"},"federalState":{"key":"03","name":"Niedersachsen"}},{"name":"Birkenstr.","postalCode":"31174","locality":"Schellerten","municipality":{"key":"03254029","name":"Schellerten","type":"Kreisangehörige_Gemeinde"},"district":{"key":"03254","name":"Hildesheim","type":"Landkreis"},"federalState":{"key":"03","name":"Niedersachsen"}},{"name":"Bischof-Gerhard-Str.","postalCode":"31174","locality":"Schellerten","municipality":{"key":"03254029","name":"Schellerten","type":"Kreisangehörige_Gemeinde"},"district":{"key":"03254","name":"Hildesheim","type":"Landkreis"},"federalState":{"key":"03","name":"Niedersachsen"}},{"name":"Bleekweg","postalCode":"31174","locality":"Schellerten","municipality":{"key":"03254029","name":"Schellerten","type":"Kreisangehörige_Gemeinde"},"district":{"key":"03254","name":"Hildesheim","type":"Landkreis"},"federalState":{"key":"03","name":"Niedersachsen"}},{"name":"Blumenweg","postalCode":"31174","locality":"Schellerten","municipality":{"key":"03254029","name":"Schellerten","type":"Kreisangehörige_Gemeinde"},"district":{"key":"03254","name":"Hildesheim","type":"Landkreis"},"federalState":{"key":"03","name":"Niedersachsen"}},{"name":"Braunschweiger Str.","postalCode":"31174","locality":"Schellerten","municipality":{"key":"03254029","name":"Schellerten","type":"Kreisangehörige_Gemeinde"},"district":{"key":"03254","name":"Hildesheim","type":"Landkreis"},"federalState":{"key":"03","name":"Niedersachsen"}},{"name":"Breite Str.","postalCode":"31174","locality":"Schellerten","municipality":{"key":"03254029","name":"Schellerten","type":"Kreisangehörige_Gemeinde"},"district":{"key":"03254","name":"Hildesheim","type":"Landkreis"},"federalState":{"key":"03","name":"Niedersachsen"}},{"name":"Breslauer Str.","postalCode":"31174","locality":"Schellerten","municipality":{"key":"03254029","name":"Schellerten","type":"Kreisangehörige_Gemeinde"},"district":{"key":"03254","name":"Hildesheim","type":"Landkreis"},"federalState":{"key":"03","name":"Niedersachsen"}},{"name":"Brunnenweg","postalCode":"31174","locality":"Schellerten","municipality":{"key":"03254029","name":"Schellerten","type":"Kreisangehörige_Gemeinde"},"district":{"key":"03254","name":"Hildesheim","type":"Landkreis"},"federalState":{"key":"03","name":"Niedersachsen"}},{"name":"Brunsstr.","postalCode":"31174","locality":"Schellerten","municipality":{"key":"03254029","name":"Schellerten","type":"Kreisangehörige_Gemeinde"},"district":{"key":"03254","name":"Hildesheim","type":"Landkreis"},"federalState":{"key":"03","name":"Niedersachsen"}},{"name":"Bühnenweg","postalCode":"31174","locality":"Schellerten","municipality":{"key":"03254029","name":"Schellerten","type":"Kreisangehörige_Gemeinde"},"district":{"key":"03254","name":"Hildesheim","type":"Landkreis"},"federalState":{"key":"03","name":"Niedersachsen"}},{"name":"Burg","postalCode":"31174","locality":"Schellerten","municipality":{"key":"03254029","name":"Schellerten","type":"Kreisangehörige_Gemeinde"},"district":{"key":"03254","name":"Hildesheim","type":"Landkreis"},"federalState":{"key":"03","name":"Niedersachsen"}},{"name":"Bürgermeister-Maxen-Str.","postalCode":"31174","locality":"Schellerten","municipality":{"key":"03254029","name":"Schellerten","type":"Kreisangehörige_Gemeinde"},"district":{"key":"03254","name":"Hildesheim","type":"Landkreis"},"federalState":{"key":"03","name":"Niedersachsen"}},{"name":"Bürgerstr.","postalCode":"31174","locality":"Schellerten","municipality":{"key":"03254029","name":"Schellerten","type":"Kreisangehörige_Gemeinde"},"district":{"key":"03254","name":"Hildesheim","type":"Landkreis"},"federalState":{"key":"03","name":"Niedersachsen"}},{"name":"Cosmas-Damian-Str.","postalCode":"31174","locality":"Schellerten","municipality":{"key":"03254029","name":"Schellerten","type":"Kreisangehörige_Gemeinde"},"district":{"key":"03254","name":"Hildesheim","type":"Landkreis"},"federalState":{"key":"03","name":"Niedersachsen"}},{"name":"Dammweg","postalCode":"31174","locality":"Schellerten","municipality":{"key":"03254029","name":"Schellerten","type":"Kreisangehörige_Gemeinde"},"district":{"key":"03254","name":"Hildesheim","type":"Landkreis"},"federalState":{"key":"03","name":"Niedersachsen"}},{"name":"Danziger Str.","postalCode":"31174","locality":"Schellerten","municipality":{"key":"03254029","name":"Schellerten","type":"Kreisangehörige_Gemeinde"},"district":{"key":"03254","name":"Hildesheim","type":"Landkreis"},"federalState":{"key":"03","name":"Niedersachsen"}},{"name":"Dingelber Str.","postalCode":"31174","locality":"Schellerten","municipality":{"key":"03254029","name":"Schellerten","type":"Kreisangehörige_Gemeinde"},"district":{"key":"03254","name":"Hildesheim","type":"Landkreis"},"federalState":{"key":"03","name":"Niedersachsen"}},{"name":"Dinklarer Str.","postalCode":"31174","locality":"Schellerten","municipality":{"key":"03254029","name":"Schellerten","type":"Kreisangehörige_Gemeinde"},"district":{"key":"03254","name":"Hildesheim","type":"Landkreis"},"federalState":{"key":"03","name":"Niedersachsen"}},{"name":"Dorfstr.","postalCode":"31174","locality":"Schellerten","municipality":{"key":"03254029","name":"Schellerten","type":"Kreisangehörige_Gemeinde"},"district":{"key":"03254","name":"Hildesheim","type":"Landkreis"},"federalState":{"key":"03","name":"Niedersachsen"}},{"name":"Dr.-Jasper-Str.","postalCode":"31174","locality":"Schellerten","municipality":{"key":"03254029","name":"Schellerten","type":"Kreisangehörige_Gemeinde"},"district":{"key":"03254","name":"Hildesheim","type":"Landkreis"},"federalState":{"key":"03","name":"Niedersachsen"}},{"name":"Drosselweg","postalCode":"31174","locality":"Schellerten","municipality":{"key":"03254029","name":"Schellerten","type":"Kreisangehörige_Gemeinde"},"district":{"key":"03254","name":"Hildesheim","type":"Landkreis"},"federalState":{"key":"03","name":"Niedersachsen"}},{"name":"Eichenstr.","postalCode":"31174","locality":"Schellerten","municipality":{"key":"03254029","name":"Schellerten","type":"Kreisangehörige_Gemeinde"},"district":{"key":"03254","name":"Hildesheim","type":"Landkreis"},"federalState":{"key":"03","name":"Niedersachsen"}},{"name":"Enge Str.","postalCode":"31174","locality":"Schellerten","municipality":{"key":"03254029","name":"Schellerten","type":"Kreisangehörige_Gemeinde"},"district":{"key":"03254","name":"Hildesheim","type":"Landkreis"},"federalState":{"key":"03","name":"Niedersachsen"}},{"name":"Erlenhof","postalCode":"31174","locality":"Schellerten","municipality":{"key":"03254029","name":"Schellerten","type":"Kreisangehörige_Gemeinde"},"district":{"key":"03254","name":"Hildesheim","type":"Landkreis"},"federalState":{"key":"03","name":"Niedersachsen"}},{"name":"Eulenstr.","postalCode":"31174","locality":"Schellerten","municipality":{"key":"03254029","name":"Schellerten","type":"Kreisangehörige_Gemeinde"},"district":{"key":"03254","name":"Hildesheim","type":"Landkreis"},"federalState":{"key":"03","name":"Niedersachsen"}},{"name":"Farmser Str.","postalCode":"31174","locality":"Schellerten","municipality":{"key":"03254029","name":"Schellerten","type":"Kreisangehörige_Gemeinde"},"district":{"key":"03254","name":"Hildesheim","type":"Landkreis"},"federalState":{"key":"03","name":"Niedersachsen"}},{"name":"Fasanenfeld","postalCode":"31174","locality":"Schellerten","municipality":{"key":"03254029","name":"Schellerten","type":"Kreisangehörige_Gemeinde"},"district":{"key":"03254","name":"Hildesheim","type":"Landkreis"},"federalState":{"key":"03","name":"Niedersachsen"}},{"name":"Fasanenstr.","postalCode":"31174","locality":"Schellerten","municipality":{"key":"03254029","name":"Schellerten","type":"Kreisangehörige_Gemeinde"},"district":{"key":"03254","name":"Hildesheim","type":"Landkreis"},"federalState":{"key":"03","name":"Niedersachsen"}},{"name":"Feldberger Str.","postalCode":"31174","locality":"Schellerten","municipality":{"key":"03254029","name":"Schellerten","type":"Kreisangehörige_Gemeinde"},"district":{"key":"03254","name":"Hildesheim","type":"Landkreis"},"federalState":{"key":"03","name":"Niedersachsen"}},{"name":"Feldkamp","postalCode":"31174","locality":"Schellerten","municipality":{"key":"03254029","name":"Schellerten","type":"Kreisangehörige_Gemeinde"},"district":{"key":"03254","name":"Hildesheim","type":"Landkreis"},"federalState":{"key":"03","name":"Niedersachsen"}},{"name":"Ferkelstieg","postalCode":"31174","locality":"Schellerten","municipality":{"key":"03254029","name":"Schellerten","type":"Kreisangehörige_Gemeinde"},"district":{"key":"03254","name":"Hildesheim","type":"Landkreis"},"federalState":{"key":"03","name":"Niedersachsen"}},{"name":"Finkengasse","postalCode":"31174","locality":"Schellerten","municipality":{"key":"03254029","name":"Schellerten","type":"Kreisangehörige_Gemeinde"},"district":{"key":"03254","name":"Hildesheim","type":"Landkreis"},"federalState":{"key":"03","name":"Niedersachsen"}},{"name":"Florianweg","postalCode":"31174","locality":"Schellerten","municipality":{"key":"03254029","name":"Schellerten","type":"Kreisangehörige_Gemeinde"},"district":{"key":"03254","name":"Hildesheim","type":"Landkreis"},"federalState":{"key":"03","name":"Niedersachsen"}},{"name":"Försterweg","postalCode":"31174","locality":"Schellerten","municipality":{"key":"03254029","name":"Schellerten","type":"Kreisangehörige_Gemeinde"},"district":{"key":"03254","name":"Hildesheim","type":"Landkreis"},"federalState":{"key":"03","name":"Niedersachsen"}},{"name":"Forsthaus","postalCode":"31174","locality":"Schellerten","municipality":{"key":"03254029","name":"Schellerten","type":"Kreisangehörige_Gemeinde"},"district":{"key":"03254","name":"Hildesheim","type":"Landkreis"},"federalState":{"key":"03","name":"Niedersachsen"}},{"name":"Freiheit","postalCode":"31174","locality":"Schellerten","municipality":{"key":"03254029","name":"Schellerten","type":"Kreisangehörige_Gemeinde"},"district":{"key":"03254","name":"Hildesheim","type":"Landkreis"},"federalState":{"key":"03","name":"Niedersachsen"}},{"name":"Frh.-v.-Wobersnow-Str.","postalCode":"31174","locality":"Schellerten","municipality":{"key":"03254029","name":"Schellerten","type":"Kreisangehörige_Gemeinde"},"district":{"key":"03254","name":"Hildesheim","type":"Landkreis"},"federalState":{"key":"03","name":"Niedersachsen"}},{"name":"Friedrich-Becker-Str.","postalCode":"31174","locality":"Schellerten","municipality":{"key":"03254029","name":"Schellerten","type":"Kreisangehörige_Gemeinde"},"district":{"key":"03254","name":"Hildesheim","type":"Landkreis"},"federalState":{"key":"03","name":"Niedersachsen"}},{"name":"Gabelstr.","postalCode":"31174","locality":"Schellerten","municipality":{"key":"03254029","name":"Schellerten","type":"Kreisangehörige_Gemeinde"},"district":{"key":"03254","name":"Hildesheim","type":"Landkreis"},"federalState":{"key":"03","name":"Niedersachsen"}},{"name":"Garbolzumer Str.","postalCode":"31174","locality":"Schellerten","municipality":{"key":"03254029","name":"Schellerten","type":"Kreisangehörige_Gemeinde"},"district":{"key":"03254","name":"Hildesheim","type":"Landkreis"},"federalState":{"key":"03","name":"Niedersachsen"}},{"name":"Garmisser Str.","postalCode":"31174","locality":"Schellerten","municipality":{"key":"03254029","name":"Schellerten","type":"Kreisangehörige_Gemeinde"},"district":{"key":"03254","name":"Hildesheim","type":"Landkreis"},"federalState":{"key":"03","name":"Niedersachsen"}},{"name":"Gartenstr.","postalCode":"31174","locality":"Schellerten","municipality":{"key":"03254029","name":"Schellerten","type":"Kreisangehörige_Gemeinde"},"district":{"key":"03254","name":"Hildesheim","type":"Landkreis"},"federalState":{"key":"03","name":"Niedersachsen"}},{"name":"Geeren","postalCode":"31174","locality":"Schellerten","municipality":{"key":"03254029","name":"Schellerten","type":"Kreisangehörige_Gemeinde"},"district":{"key":"03254","name":"Hildesheim","type":"Landkreis"},"federalState":{"key":"03","name":"Niedersachsen"}},{"name":"Goslarsche Landstr.","postalCode":"31174","locality":"Schellerten","municipality":{"key":"03254029","name":"Schellerten","type":"Kreisangehörige_Gemeinde"},"district":{"key":"03254","name":"Hildesheim","type":"Landkreis"},"federalState":{"key":"03","name":"Niedersachsen"}},{"name":"Grenzweg","postalCode":"31174","locality":"Schellerten","municipality":{"key":"03254029","name":"Schellerten","type":"Kreisangehörige_Gemeinde"},"district":{"key":"03254","name":"Hildesheim","type":"Landkreis"},"federalState":{"key":"03","name":"Niedersachsen"}},{"name":"Große Seite","postalCode":"31174","locality":"Schellerten","municipality":{"key":"03254029","name":"Schellerten","type":"Kreisangehörige_Gemeinde"},"district":{"key":"03254","name":"Hildesheim","type":"Landkreis"},"federalState":{"key":"03","name":"Niedersachsen"}},{"name":"Hagenweg","postalCode":"31174","locality":"Schellerten","municipality":{"key":"03254029","name":"Schellerten","type":"Kreisangehörige_Gemeinde"},"district":{"key":"03254","name":"Hildesheim","type":"Landkreis"},"federalState":{"key":"03","name":"Niedersachsen"}},{"name":"Halberstädter Poststr.","postalCode":"31174","locality":"Schellerten","municipality":{"key":"03254029","name":"Schellerten","type":"Kreisangehörige_Gemeinde"},"district":{"key":"03254","name":"Hildesheim","type":"Landkreis"},"federalState":{"key":"03","name":"Niedersachsen"}},{"name":"Harmskamp","postalCode":"31174","locality":"Schellerten","municipality":{"key":"03254029","name":"Schellerten","type":"Kreisangehörige_Gemeinde"},"district":{"key":"03254","name":"Hildesheim","type":"Landkreis"},"federalState":{"key":"03","name":"Niedersachsen"}},{"name":"Hartmannshof","postalCode":"31174","locality":"Schellerten","municipality":{"key":"03254029","name":"Schellerten","type":"Kreisangehörige_Gemeinde"},"district":{"key":"03254","name":"Hildesheim","type":"Landkreis"},"federalState":{"key":"03","name":"Niedersachsen"}},{"name":"Hauptstr.","postalCode":"31174","locality":"Schellerten","municipality":{"key":"03254029","name":"Schellerten","type":"Kreisangehörige_Gemeinde"},"district":{"key":"03254","name":"Hildesheim","type":"Landkreis"},"federalState":{"key":"03","name":"Niedersachsen"}},{"name":"Heerstr.","postalCode":"31174","locality":"Schellerten","municipality":{"key":"03254029","name":"Schellerten","type":"Kreisangehörige_Gemeinde"},"district":{"key":"03254","name":"Hildesheim","type":"Landkreis"},"federalState":{"key":"03","name":"Niedersachsen"}},{"name":"Heersumer Str.","postalCode":"31174","locality":"Schellerten","municipality":{"key":"03254029","name":"Schellerten","type":"Kreisangehörige_Gemeinde"},"district":{"key":"03254","name":"Hildesheim","type":"Landkreis"},"federalState":{"key":"03","name":"Niedersachsen"}},{"name":"Heideweg","postalCode":"31174","locality":"Schellerten","municipality":{"key":"03254029","name":"Schellerten","type":"Kreisangehörige_Gemeinde"},"district":{"key":"03254","name":"Hildesheim","type":"Landkreis"},"federalState":{"key":"03","name":"Niedersachsen"}},{"name":"Heidfeld","postalCode":"31174","locality":"Schellerten","municipality":{"key":"03254029","name":"Schellerten","type":"Kreisangehörige_Gemeinde"},"district":{"key":"03254","name":"Hildesheim","type":"Landkreis"},"federalState":{"key":"03","name":"Niedersachsen"}},{"name":"Hermann-Ohlms-Str.","postalCode":"31174","locality":"Schellerten","municipality":{"key":"03254029","name":"Schellerten","type":"Kreisangehörige_Gemeinde"},"district":{"key":"03254","name":"Hildesheim","type":"Landkreis"},"federalState":{"key":"03","name":"Niedersachsen"}},{"name":"Hettbergstr.","postalCode":"31174","locality":"Schellerten","municipality":{"key":"03254029","name":"Schellerten","type":"Kreisangehörige_Gemeinde"},"district":{"key":"03254","name":"Hildesheim","type":"Landkreis"},"federalState":{"key":"03","name":"Niedersachsen"}},{"name":"Hildesheimer Str.","postalCode":"31174","locality":"Schellerten","municipality":{"key":"03254029","name":"Schellerten","type":"Kreisangehörige_Gemeinde"},"district":{"key":"03254","name":"Hildesheim","type":"Landkreis"},"federalState":{"key":"03","name":"Niedersachsen"}},{"name":"Hinter den Höfen","postalCode":"31174","locality":"Schellerten","municipality":{"key":"03254029","name":"Schellerten","type":"Kreisangehörige_Gemeinde"},"district":{"key":"03254","name":"Hildesheim","type":"Landkreis"},"federalState":{"key":"03","name":"Niedersachsen"}},{"name":"Hinterm Dorfe","postalCode":"31174","locality":"Schellerten","municipality":{"key":"03254029","name":"Schellerten","type":"Kreisangehörige_Gemeinde"},"district":{"key":"03254","name":"Hildesheim","type":"Landkreis"},"federalState":{"key":"03","name":"Niedersachsen"}},{"name":"Hirtenweg","postalCode":"31174","locality":"Schellerten","municipality":{"key":"03254029","name":"Schellerten","type":"Kreisangehörige_Gemeinde"},"district":{"key":"03254","name":"Hildesheim","type":"Landkreis"},"federalState":{"key":"03","name":"Niedersachsen"}},{"name":"Hoheneggelser Str.","postalCode":"31174","locality":"Schellerten","municipality":{"key":"03254029","name":"Schellerten","type":"Kreisangehörige_Gemeinde"},"district":{"key":"03254","name":"Hildesheim","type":"Landkreis"},"federalState":{"key":"03","name":"Niedersachsen"}},{"name":"Hoher Weg","postalCode":"31174","locality":"Schellerten","municipality":{"key":"03254029","name":"Schellerten","type":"Kreisangehörige_Gemeinde"},"district":{"key":"03254","name":"Hildesheim","type":"Landkreis"},"federalState":{"key":"03","name":"Niedersachsen"}},{"name":"Holztrifft","postalCode":"31174","locality":"Schellerten","municipality":{"key":"03254029","name":"Schellerten","type":"Kreisangehörige_Gemeinde"},"district":{"key":"03254","name":"Hildesheim","type":"Landkreis"},"federalState":{"key":"03","name":"Niedersachsen"}},{"name":"Hopsfeld","postalCode":"31174","locality":"Schellerten","municipality":{"key":"03254029","name":"Schellerten","type":"Kreisangehörige_Gemeinde"},"district":{"key":"03254","name":"Hildesheim","type":"Landkreis"},"federalState":{"key":"03","name":"Niedersachsen"}},{"name":"Ilsenfeld","postalCode":"31174","locality":"Schellerten","municipality":{"key":"03254029","name":"Schellerten","type":"Kreisangehörige_Gemeinde"},"district":{"key":"03254","name":"Hildesheim","type":"Landkreis"},"federalState":{"key":"03","name":"Niedersachsen"}},{"name":"Ilsenkamp","postalCode":"31174","locality":"Schellerten","municipality":{"key":"03254029","name":"Schellerten","type":"Kreisangehörige_Gemeinde"},"district":{"key":"03254","name":"Hildesheim","type":"Landkreis"},"federalState":{"key":"03","name":"Niedersachsen"}},{"name":"Im Grashof","postalCode":"31174","locality":"Schellerten","municipality":{"key":"03254029","name":"Schellerten","type":"Kreisangehörige_Gemeinde"},"district":{"key":"03254","name":"Hildesheim","type":"Landkreis"},"federalState":{"key":"03","name":"Niedersachsen"}},{"name":"Im Kamp","postalCode":"31174","locality":"Schellerten","municipality":{"key":"03254029","name":"Schellerten","type":"Kreisangehörige_Gemeinde"},"district":{"key":"03254","name":"Hildesheim","type":"Landkreis"},"federalState":{"key":"03","name":"Niedersachsen"}},{"name":"Imkerstr.","postalCode":"31174","locality":"Schellerten","municipality":{"key":"03254029","name":"Schellerten","type":"Kreisangehörige_Gemeinde"},"district":{"key":"03254","name":"Hildesheim","type":"Landkreis"},"federalState":{"key":"03","name":"Niedersachsen"}},{"name":"Im Krümpel","postalCode":"31174","locality":"Schellerten","municipality":{"key":"03254029","name":"Schellerten","type":"Kreisangehörige_Gemeinde"},"district":{"key":"03254","name":"Hildesheim","type":"Landkreis"},"federalState":{"key":"03","name":"Niedersachsen"}},{"name":"Im Mühlenfeld","postalCode":"31174","locality":"Schellerten","municipality":{"key":"03254029","name":"Schellerten","type":"Kreisangehörige_Gemeinde"},"district":{"key":"03254","name":"Hildesheim","type":"Landkreis"},"federalState":{"key":"03","name":"Niedersachsen"}},{"name":"Im Schwarzen Felde","postalCode":"31174","locality":"Schellerten","municipality":{"key":"03254029","name":"Schellerten","type":"Kreisangehörige_Gemeinde"},"district":{"key":"03254","name":"Hildesheim","type":"Landkreis"},"federalState":{"key":"03","name":"Niedersachsen"}},{"name":"Im Sieke","postalCode":"31174","locality":"Schellerten","municipality":{"key":"03254029","name":"Schellerten","type":"Kreisangehörige_Gemeinde"},"district":{"key":"03254","name":"Hildesheim","type":"Landkreis"},"federalState":{"key":"03","name":"Niedersachsen"}},{"name":"Im Winkel","postalCode":"31174","locality":"Schellerten","municipality":{"key":"03254029","name":"Schellerten","type":"Kreisangehörige_Gemeinde"},"district":{"key":"03254","name":"Hildesheim","type":"Landkreis"},"federalState":{"key":"03","name":"Niedersachsen"}},{"name":"In den Schmiedegärten","postalCode":"31174","locality":"Schellerten","municipality":{"key":"03254029","name":"Schellerten","type":"Kreisangehörige_Gemeinde"},"district":{"key":"03254","name":"Hildesheim","type":"Landkreis"},"federalState":{"key":"03","name":"Niedersachsen"}},{"name":"In den Wispeln","postalCode":"31174","locality":"Schellerten","municipality":{"key":"03254029","name":"Schellerten","type":"Kreisangehörige_Gemeinde"},"district":{"key":"03254","name":"Hildesheim","type":"Landkreis"},"federalState":{"key":"03","name":"Niedersachsen"}},{"name":"Junkerstr.","postalCode":"31174","locality":"Schellerten","municipality":{"key":"03254029","name":"Schellerten","type":"Kreisangehörige_Gemeinde"},"district":{"key":"03254","name":"Hildesheim","type":"Landkreis"},"federalState":{"key":"03","name":"Niedersachsen"}},{"name":"Kastanienstr.","postalCode":"31174","locality":"Schellerten","municipality":{"key":"03254029","name":"Schellerten","type":"Kreisangehörige_Gemeinde"},"district":{"key":"03254","name":"Hildesheim","type":"Landkreis"},"federalState":{"key":"03","name":"Niedersachsen"}},{"name":"Katharinenstr.","postalCode":"31174","locality":"Schellerten","municipality":{"key":"03254029","name":"Schellerten","type":"Kreisangehörige_Gemeinde"},"district":{"key":"03254","name":"Hildesheim","type":"Landkreis"},"federalState":{"key":"03","name":"Niedersachsen"}},{"name":"Katzhagen","postalCode":"31174","locality":"Schellerten","municipality":{"key":"03254029","name":"Schellerten","type":"Kreisangehörige_Gemeinde"},"district":{"key":"03254","name":"Hildesheim","type":"Landkreis"},"federalState":{"key":"03","name":"Niedersachsen"}},{"name":"Kirschenweg","postalCode":"31174","locality":"Schellerten","municipality":{"key":"03254029","name":"Schellerten","type":"Kreisangehörige_Gemeinde"},"district":{"key":"03254","name":"Hildesheim","type":"Landkreis"},"federalState":{"key":"03","name":"Niedersachsen"}},{"name":"Klappe","postalCode":"31174","locality":"Schellerten","municipality":{"key":"03254029","name":"Schellerten","type":"Kreisangehörige_Gemeinde"},"district":{"key":"03254","name":"Hildesheim","type":"Landkreis"},"federalState":{"key":"03","name":"Niedersachsen"}},{"name":"Kläranlage","postalCode":"31174","locality":"Schellerten","municipality":{"key":"03254029","name":"Schellerten","type":"Kreisangehörige_Gemeinde"},"district":{"key":"03254","name":"Hildesheim","type":"Landkreis"},"federalState":{"key":"03","name":"Niedersachsen"}},{"name":"Kleine Halbe","postalCode":"31174","locality":"Schellerten","municipality":{"key":"03254029","name":"Schellerten","type":"Kreisangehörige_Gemeinde"},"district":{"key":"03254","name":"Hildesheim","type":"Landkreis"},"federalState":{"key":"03","name":"Niedersachsen"}},{"name":"Kleine Seite","postalCode":"31174","locality":"Schellerten","municipality":{"key":"03254029","name":"Schellerten","type":"Kreisangehörige_Gemeinde"},"district":{"key":"03254","name":"Hildesheim","type":"Landkreis"},"federalState":{"key":"03","name":"Niedersachsen"}},{"name":"Klosterstr.","postalCode":"31174","locality":"Schellerten","municipality":{"key":"03254029","name":"Schellerten","type":"Kreisangehörige_Gemeinde"},"district":{"key":"03254","name":"Hildesheim","type":"Landkreis"},"federalState":{"key":"03","name":"Niedersachsen"}},{"name":"Königsberger Ring","postalCode":"31174","locality":"Schellerten","municipality":{"key":"03254029","name":"Schellerten","type":"Kreisangehörige_Gemeinde"},"district":{"key":"03254","name":"Hildesheim","type":"Landkreis"},"federalState":{"key":"03","name":"Niedersachsen"}},{"name":"Konrad-Adenauer-Str.","postalCode":"31174","locality":"Schellerten","municipality":{"key":"03254029","name":"Schellerten","type":"Kreisangehörige_Gemeinde"},"district":{"key":"03254","name":"Hildesheim","type":"Landkreis"},"federalState":{"key":"03","name":"Niedersachsen"}},{"name":"Köthnerweg","postalCode":"31174","locality":"Schellerten","municipality":{"key":"03254029","name":"Schellerten","type":"Kreisangehörige_Gemeinde"},"district":{"key":"03254","name":"Hildesheim","type":"Landkreis"},"federalState":{"key":"03","name":"Niedersachsen"}},{"name":"Kronenberg","postalCode":"31174","locality":"Schellerten","municipality":{"key":"03254029","name":"Schellerten","type":"Kreisangehörige_Gemeinde"},"district":{"key":"03254","name":"Hildesheim","type":"Landkreis"},"federalState":{"key":"03","name":"Niedersachsen"}},{"name":"Kruegarten","postalCode":"31174","locality":"Schellerten","municipality":{"key":"03254029","name":"Schellerten","type":"Kreisangehörige_Gemeinde"},"district":{"key":"03254","name":"Hildesheim","type":"Landkreis"},"federalState":{"key":"03","name":"Niedersachsen"}},{"name":"Krugkamp","postalCode":"31174","locality":"Schellerten","municipality":{"key":"03254029","name":"Schellerten","type":"Kreisangehörige_Gemeinde"},"district":{"key":"03254","name":"Hildesheim","type":"Landkreis"},"federalState":{"key":"03","name":"Niedersachsen"}},{"name":"Krümmling","postalCode":"31174","locality":"Schellerten","municipality":{"key":"03254029","name":"Schellerten","type":"Kreisangehörige_Gemeinde"},"district":{"key":"03254","name":"Hildesheim","type":"Landkreis"},"federalState":{"key":"03","name":"Niedersachsen"}},{"name":"Kurze Str.","postalCode":"31174","locality":"Schellerten","municipality":{"key":"03254029","name":"Schellerten","type":"Kreisangehörige_Gemeinde"},"district":{"key":"03254","name":"Hildesheim","type":"Landkreis"},"federalState":{"key":"03","name":"Niedersachsen"}},{"name":"Laaseweg","postalCode":"31174","locality":"Schellerten","municipality":{"key":"03254029","name":"Schellerten","type":"Kreisangehörige_Gemeinde"},"district":{"key":"03254","name":"Hildesheim","type":"Landkreis"},"federalState":{"key":"03","name":"Niedersachsen"}},{"name":"Lange Str.","postalCode":"31174","locality":"Schellerten","municipality":{"key":"03254029","name":"Schellerten","type":"Kreisangehörige_Gemeinde"},"district":{"key":"03254","name":"Hildesheim","type":"Landkreis"},"federalState":{"key":"03","name":"Niedersachsen"}},{"name":"Lappenberg","postalCode":"31174","locality":"Schellerten","municipality":{"key":"03254029","name":"Schellerten","type":"Kreisangehörige_Gemeinde"},"district":{"key":"03254","name":"Hildesheim","type":"Landkreis"},"federalState":{"key":"03","name":"Niedersachsen"}},{"name":"Lehmweg","postalCode":"31174","locality":"Schellerten","municipality":{"key":"03254029","name":"Schellerten","type":"Kreisangehörige_Gemeinde"},"district":{"key":"03254","name":"Hildesheim","type":"Landkreis"},"federalState":{"key":"03","name":"Niedersachsen"}},{"name":"Leipziger Str.","postalCode":"31174","locality":"Schellerten","municipality":{"key":"03254029","name":"Schellerten","type":"Kreisangehörige_Gemeinde"},"district":{"key":"03254","name":"Hildesheim","type":"Landkreis"},"federalState":{"key":"03","name":"Niedersachsen"}},{"name":"Lerchenstieg","postalCode":"31174","locality":"Schellerten","municipality":{"key":"03254029","name":"Schellerten","type":"Kreisangehörige_Gemeinde"},"district":{"key":"03254","name":"Hildesheim","type":"Landkreis"},"federalState":{"key":"03","name":"Niedersachsen"}},{"name":"Lindenweg","postalCode":"31174","locality":"Schellerten","municipality":{"key":"03254029","name":"Schellerten","type":"Kreisangehörige_Gemeinde"},"district":{"key":"03254","name":"Hildesheim","type":"Landkreis"},"federalState":{"key":"03","name":"Niedersachsen"}},{"name":"Machtsumer Weg","postalCode":"31174","locality":"Schellerten","municipality":{"key":"03254029","name":"Schellerten","type":"Kreisangehörige_Gemeinde"},"district":{"key":"03254","name":"Hildesheim","type":"Landkreis"},"federalState":{"key":"03","name":"Niedersachsen"}},{"name":"Marsenstr.","postalCode":"31174","locality":"Schellerten","municipality":{"key":"03254029","name":"Schellerten","type":"Kreisangehörige_Gemeinde"},"district":{"key":"03254","name":"Hildesheim","type":"Landkreis"},"federalState":{"key":"03","name":"Niedersachsen"}},{"name":"Meisenbrink","postalCode":"31174","locality":"Schellerten","municipality":{"key":"03254029","name":"Schellerten","type":"Kreisangehörige_Gemeinde"},"district":{"key":"03254","name":"Hildesheim","type":"Landkreis"},"federalState":{"key":"03","name":"Niedersachsen"}},{"name":"Mittelstr.","postalCode":"31174","locality":"Schellerten","municipality":{"key":"03254029","name":"Schellerten","type":"Kreisangehörige_Gemeinde"},"district":{"key":"03254","name":"Hildesheim","type":"Landkreis"},"federalState":{"key":"03","name":"Niedersachsen"}},{"name":"Morgenstern","postalCode":"31174","locality":"Schellerten","municipality":{"key":"03254029","name":"Schellerten","type":"Kreisangehörige_Gemeinde"},"district":{"key":"03254","name":"Hildesheim","type":"Landkreis"},"federalState":{"key":"03","name":"Niedersachsen"}},{"name":"Mühlenstr.","postalCode":"31174","locality":"Schellerten","municipality":{"key":"03254029","name":"Schellerten","type":"Kreisangehörige_Gemeinde"},"district":{"key":"03254","name":"Hildesheim","type":"Landkreis"},"federalState":{"key":"03","name":"Niedersachsen"}},{"name":"Neisser Weg","postalCode":"31174","locality":"Schellerten","municipality":{"key":"03254029","name":"Schellerten","type":"Kreisangehörige_Gemeinde"},"district":{"key":"03254","name":"Hildesheim","type":"Landkreis"},"federalState":{"key":"03","name":"Niedersachsen"}},{"name":"Nettlinger Str.","postalCode":"31174","locality":"Schellerten","municipality":{"key":"03254029","name":"Schellerten","type":"Kreisangehörige_Gemeinde"},"district":{"key":"03254","name":"Hildesheim","type":"Landkreis"},"federalState":{"key":"03","name":"Niedersachsen"}},{"name":"Neue Str.","postalCode":"31174","locality":"Schellerten","municipality":{"key":"03254029","name":"Schellerten","type":"Kreisangehörige_Gemeinde"},"district":{"key":"03254","name":"Hildesheim","type":"Landkreis"},"federalState":{"key":"03","name":"Niedersachsen"}},{"name":"Neu Oedelumer Str.","postalCode":"31174","locality":"Schellerten","municipality":{"key":"03254029","name":"Schellerten","type":"Kreisangehörige_Gemeinde"},"district":{"key":"03254","name":"Hildesheim","type":"Landkreis"},"federalState":{"key":"03","name":"Niedersachsen"}},{"name":"Nikolausweg","postalCode":"31174","locality":"Schellerten","municipality":{"key":"03254029","name":"Schellerten","type":"Kreisangehörige_Gemeinde"},"district":{"key":"03254","name":"Hildesheim","type":"Landkreis"},"federalState":{"key":"03","name":"Niedersachsen"}},{"name":"Oedelumer Str.","postalCode":"31174","locality":"Schellerten","municipality":{"key":"03254029","name":"Schellerten","type":"Kreisangehörige_Gemeinde"},"district":{"key":"03254","name":"Hildesheim","type":"Landkreis"},"federalState":{"key":"03","name":"Niedersachsen"}},{"name":"Osterstr.","postalCode":"31174","locality":"Schellerten","municipality":{"key":"03254029","name":"Schellerten","type":"Kreisangehörige_Gemeinde"},"district":{"key":"03254","name":"Hildesheim","type":"Landkreis"},"federalState":{"key":"03","name":"Niedersachsen"}},{"name":"Ostlandstr.","postalCode":"31174","locality":"Schellerten","municipality":{"key":"03254029","name":"Schellerten","type":"Kreisangehörige_Gemeinde"},"district":{"key":"03254","name":"Hildesheim","type":"Landkreis"},"federalState":{"key":"03","name":"Niedersachsen"}},{"name":"Ottberger Str.","postalCode":"31174","locality":"Schellerten","municipality":{"key":"03254029","name":"Schellerten","type":"Kreisangehörige_Gemeinde"},"district":{"key":"03254","name":"Hildesheim","type":"Landkreis"},"federalState":{"key":"03","name":"Niedersachsen"}},{"name":"Papenkamp","postalCode":"31174","locality":"Schellerten","municipality":{"key":"03254029","name":"Schellerten","type":"Kreisangehörige_Gemeinde"},"district":{"key":"03254","name":"Hildesheim","type":"Landkreis"},"federalState":{"key":"03","name":"Niedersachsen"}},{"name":"Pastorenbrink","postalCode":"31174","locality":"Schellerten","municipality":{"key":"03254029","name":"Schellerten","type":"Kreisangehörige_Gemeinde"},"district":{"key":"03254","name":"Hildesheim","type":"Landkreis"},"federalState":{"key":"03","name":"Niedersachsen"}},{"name":"Peiner Weg","postalCode":"31174","locality":"Schellerten","municipality":{"key":"03254029","name":"Schellerten","type":"Kreisangehörige_Gemeinde"},"district":{"key":"03254","name":"Hildesheim","type":"Landkreis"},"federalState":{"key":"03","name":"Niedersachsen"}},{"name":"Pfarrer-Hottenrott-Str.","postalCode":"31174","locality":"Schellerten","municipality":{"key":"03254029","name":"Schellerten","type":"Kreisangehörige_Gemeinde"},"district":{"key":"03254","name":"Hildesheim","type":"Landkreis"},"federalState":{"key":"03","name":"Niedersachsen"}},{"name":"Pfingstanger","postalCode":"31174","locality":"Schellerten","municipality":{"key":"03254029","name":"Schellerten","type":"Kreisangehörige_Gemeinde"},"district":{"key":"03254","name":"Hildesheim","type":"Landkreis"},"federalState":{"key":"03","name":"Niedersachsen"}},{"name":"Poststr.","postalCode":"31174","locality":"Schellerten","municipality":{"key":"03254029","name":"Schellerten","type":"Kreisangehörige_Gemeinde"},"district":{"key":"03254","name":"Hildesheim","type":"Landkreis"},"federalState":{"key":"03","name":"Niedersachsen"}},{"name":"Pritzwinkel","postalCode":"31174","locality":"Schellerten","municipality":{"key":"03254029","name":"Schellerten","type":"Kreisangehörige_Gemeinde"},"district":{"key":"03254","name":"Hildesheim","type":"Landkreis"},"federalState":{"key":"03","name":"Niedersachsen"}},{"name":"Quandlah","postalCode":"31141","locality":"Hildesheim","municipality":{"key":"03254021","name":"Hildesheim, Stadt","type":"Stadt"},"district":{"key":"03254","name":"Hildesheim","type":"Landkreis"},"federalState":{"key":"03","name":"Niedersachsen"}},{"name":"Quedlinburger Str.","postalCode":"31141","locality":"Hildesheim","municipality":{"key":"03254021","name":"Hildesheim, Stadt","type":"Stadt"},"district":{"key":"03254","name":"Hildesheim","type":"Landkreis"},"federalState":{"key":"03","name":"Niedersachsen"}},{"name":"Quelle","postalCode":"31135","locality":"Hildesheim","municipality":{"key":"03254021","name":"Hildesheim, Stadt","type":"Stadt"},"district":{"key":"03254","name":"Hildesheim","type":"Landkreis"},"federalState":{"key":"03","name":"Niedersachsen"}},{"name":"Rathausstr.","postalCode":"31174","locality":"Schellerten","municipality":{"key":"03254029","name":"Schellerten","type":"Kreisangehörige_Gemeinde"},"district":{"key":"03254","name":"Hildesheim","type":"Landkreis"},"federalState":{"key":"03","name":"Niedersachsen"}},{"name":"Ringstr.","postalCode":"31174","locality":"Schellerten","municipality":{"key":"03254029","name":"Schellerten","type":"Kreisangehörige_Gemeinde"},"district":{"key":"03254","name":"Hildesheim","type":"Landkreis"},"federalState":{"key":"03","name":"Niedersachsen"}},{"name":"Ritterstr.","postalCode":"31174","locality":"Schellerten","municipality":{"key":"03254029","name":"Schellerten","type":"Kreisangehörige_Gemeinde"},"district":{"key":"03254","name":"Hildesheim","type":"Landkreis"},"federalState":{"key":"03","name":"Niedersachsen"}},{"name":"Rosenweg","postalCode":"31174","locality":"Schellerten","municipality":{"key":"03254029","name":"Schellerten","type":"Kreisangehörige_Gemeinde"},"district":{"key":"03254","name":"Hildesheim","type":"Landkreis"},"federalState":{"key":"03","name":"Niedersachsen"}},{"name":"Rottenweg","postalCode":"31174","locality":"Schellerten","municipality":{"key":"03254029","name":"Schellerten","type":"Kreisangehörige_Gemeinde"},"district":{"key":"03254","name":"Hildesheim","type":"Landkreis"},"federalState":{"key":"03","name":"Niedersachsen"}},{"name":"Sackstr.","postalCode":"31174","locality":"Schellerten","municipality":{"key":"03254029","name":"Schellerten","type":"Kreisangehörige_Gemeinde"},"district":{"key":"03254","name":"Hildesheim","type":"Landkreis"},"federalState":{"key":"03","name":"Niedersachsen"}},{"name":"Sandkuhle","postalCode":"31174","locality":"Schellerten","municipality":{"key":"03254029","name":"Schellerten","type":"Kreisangehörige_Gemeinde"},"district":{"key":"03254","name":"Hildesheim","type":"Landkreis"},"federalState":{"key":"03","name":"Niedersachsen"}},{"name":"Sandweg","postalCode":"31174","locality":"Schellerten","municipality":{"key":"03254029","name":"Schellerten","type":"Kreisangehörige_Gemeinde"},"district":{"key":"03254","name":"Hildesheim","type":"Landkreis"},"federalState":{"key":"03","name":"Niedersachsen"}},{"name":"Schäferstr.","postalCode":"31174","locality":"Schellerten","municipality":{"key":"03254029","name":"Schellerten","type":"Kreisangehörige_Gemeinde"},"district":{"key":"03254","name":"Hildesheim","type":"Landkreis"},"federalState":{"key":"03","name":"Niedersachsen"}},{"name":"Schaperhof","postalCode":"31174","locality":"Schellerten","municipality":{"key":"03254029","name":"Schellerten","type":"Kreisangehörige_Gemeinde"},"district":{"key":"03254","name":"Hildesheim","type":"Landkreis"},"federalState":{"key":"03","name":"Niedersachsen"}},{"name":"Schellerter Str.","postalCode":"31174","locality":"Schellerten","municipality":{"key":"03254029","name":"Schellerten","type":"Kreisangehörige_Gemeinde"},"district":{"key":"03254","name":"Hildesheim","type":"Landkreis"},"federalState":{"key":"03","name":"Niedersachsen"}},{"name":"Schlesierstr.","postalCode":"31174","locality":"Schellerten","municipality":{"key":"03254029","name":"Schellerten","type":"Kreisangehörige_Gemeinde"},"district":{"key":"03254","name":"Hildesheim","type":"Landkreis"},"federalState":{"key":"03","name":"Niedersachsen"}},{"name":"Schlickerstr.","postalCode":"31174","locality":"Schellerten","municipality":{"key":"03254029","name":"Schellerten","type":"Kreisangehörige_Gemeinde"},"district":{"key":"03254","name":"Hildesheim","type":"Landkreis"},"federalState":{"key":"03","name":"Niedersachsen"}},{"name":"Schmiedestr.","postalCode":"31174","locality":"Schellerten","municipality":{"key":"03254029","name":"Schellerten","type":"Kreisangehörige_Gemeinde"},"district":{"key":"03254","name":"Hildesheim","type":"Landkreis"},"federalState":{"key":"03","name":"Niedersachsen"}},{"name":"Schulstr.","postalCode":"31174","locality":"Schellerten","municipality":{"key":"03254029","name":"Schellerten","type":"Kreisangehörige_Gemeinde"},"district":{"key":"03254","name":"Hildesheim","type":"Landkreis"},"federalState":{"key":"03","name":"Niedersachsen"}},{"name":"Schwarzer Weg","postalCode":"31174","locality":"Schellerten","municipality":{"key":"03254029","name":"Schellerten","type":"Kreisangehörige_Gemeinde"},"district":{"key":"03254","name":"Hildesheim","type":"Landkreis"},"federalState":{"key":"03","name":"Niedersachsen"}},{"name":"Siedlungsweg","postalCode":"31174","locality":"Schellerten","municipality":{"key":"03254029","name":"Schellerten","type":"Kreisangehörige_Gemeinde"},"district":{"key":"03254","name":"Hildesheim","type":"Landkreis"},"federalState":{"key":"03","name":"Niedersachsen"}},{"name":"Soßmarer Str.","postalCode":"31174","locality":"Schellerten","municipality":{"key":"03254029","name":"Schellerten","type":"Kreisangehörige_Gemeinde"},"district":{"key":"03254","name":"Hildesheim","type":"Landkreis"},"federalState":{"key":"03","name":"Niedersachsen"}},{"name":"Stadtweg","postalCode":"31174","locality":"Schellerten","municipality":{"key":"03254029","name":"Schellerten","type":"Kreisangehörige_Gemeinde"},"district":{"key":"03254","name":"Hildesheim","type":"Landkreis"},"federalState":{"key":"03","name":"Niedersachsen"}},{"name":"Starenkamp","postalCode":"31174","locality":"Schellerten","municipality":{"key":"03254029","name":"Schellerten","type":"Kreisangehörige_Gemeinde"},"district":{"key":"03254","name":"Hildesheim","type":"Landkreis"},"federalState":{"key":"03","name":"Niedersachsen"}},{"name":"Steinkamp","postalCode":"31174","locality":"Schellerten","municipality":{"key":"03254029","name":"Schellerten","type":"Kreisangehörige_Gemeinde"},"district":{"key":"03254","name":"Hildesheim","type":"Landkreis"},"federalState":{"key":"03","name":"Niedersachsen"}},{"name":"Stellwanne","postalCode":"31174","locality":"Schellerten","municipality":{"key":"03254029","name":"Schellerten","type":"Kreisangehörige_Gemeinde"},"district":{"key":"03254","name":"Hildesheim","type":"Landkreis"},"federalState":{"key":"03","name":"Niedersachsen"}},{"name":"Stephanusweg","postalCode":"31174","locality":"Schellerten","municipality":{"key":"03254029","name":"Schellerten","type":"Kreisangehörige_Gemeinde"},"district":{"key":"03254","name":"Hildesheim","type":"Landkreis"},"federalState":{"key":"03","name":"Niedersachsen"}},{"name":"Strickerburg","postalCode":"31174","locality":"Schellerten","municipality":{"key":"03254029","name":"Schellerten","type":"Kreisangehörige_Gemeinde"},"district":{"key":"03254","name":"Hildesheim","type":"Landkreis"},"federalState":{"key":"03","name":"Niedersachsen"}},{"name":"Südstr.","postalCode":"31174","locality":"Schellerten","municipality":{"key":"03254029","name":"Schellerten","type":"Kreisangehörige_Gemeinde"},"district":{"key":"03254","name":"Hildesheim","type":"Landkreis"},"federalState":{"key":"03","name":"Niedersachsen"}},{"name":"Tannenweg","postalCode":"31174","locality":"Schellerten","municipality":{"key":"03254029","name":"Schellerten","type":"Kreisangehörige_Gemeinde"},"district":{"key":"03254","name":"Hildesheim","type":"Landkreis"},"federalState":{"key":"03","name":"Niedersachsen"}},{"name":"Teichstr.","postalCode":"31174","locality":"Schellerten","municipality":{"key":"03254029","name":"Schellerten","type":"Kreisangehörige_Gemeinde"},"district":{"key":"03254","name":"Hildesheim","type":"Landkreis"},"federalState":{"key":"03","name":"Niedersachsen"}},{"name":"Thiestr.","postalCode":"31174","locality":"Schellerten","municipality":{"key":"03254029","name":"Schellerten","type":"Kreisangehörige_Gemeinde"},"district":{"key":"03254","name":"Hildesheim","type":"Landkreis"},"federalState":{"key":"03","name":"Niedersachsen"}},{"name":"Turmstr.","postalCode":"31174","locality":"Schellerten","municipality":{"key":"03254029","name":"Schellerten","type":"Kreisangehörige_Gemeinde"},"district":{"key":"03254","name":"Hildesheim","type":"Landkreis"},"federalState":{"key":"03","name":"Niedersachsen"}},{"name":"Tweftje","postalCode":"31174","locality":"Schellerten","municipality":{"key":"03254029","name":"Schellerten","type":"Kreisangehörige_Gemeinde"},"district":{"key":"03254","name":"Hildesheim","type":"Landkreis"},"federalState":{"key":"03","name":"Niedersachsen"}},{"name":"Unter dem Berge","postalCode":"31174","locality":"Schellerten","municipality":{"key":"03254029","name":"Schellerten","type":"Kreisangehörige_Gemeinde"},"district":{"key":"03254","name":"Hildesheim","type":"Landkreis"},"federalState":{"key":"03","name":"Niedersachsen"}},{"name":"Untere Str.","postalCode":"31174","locality":"Schellerten","municipality":{"key":"03254029","name":"Schellerten","type":"Kreisangehörige_Gemeinde"},"district":{"key":"03254","name":"Hildesheim","type":"Landkreis"},"federalState":{"key":"03","name":"Niedersachsen"}},{"name":"Von-Cramm-Str.","postalCode":"31174","locality":"Schellerten","municipality":{"key":"03254029","name":"Schellerten","type":"Kreisangehörige_Gemeinde"},"district":{"key":"03254","name":"Hildesheim","type":"Landkreis"},"federalState":{"key":"03","name":"Niedersachsen"}},{"name":"Waldenburger Str.","postalCode":"31174","locality":"Schellerten","municipality":{"key":"03254029","name":"Schellerten","type":"Kreisangehörige_Gemeinde"},"district":{"key":"03254","name":"Hildesheim","type":"Landkreis"},"federalState":{"key":"03","name":"Niedersachsen"}},{"name":"Waldstr.","postalCode":"31174","locality":"Schellerten","municipality":{"key":"03254029","name":"Schellerten","type":"Kreisangehörige_Gemeinde"},"district":{"key":"03254","name":"Hildesheim","type":"Landkreis"},"federalState":{"key":"03","name":"Niedersachsen"}},{"name":"Wallstr.","postalCode":"31174","locality":"Schellerten","municipality":{"key":"03254029","name":"Schellerten","type":"Kreisangehörige_Gemeinde"},"district":{"key":"03254","name":"Hildesheim","type":"Landkreis"},"federalState":{"key":"03","name":"Niedersachsen"}},{"name":"Weizenstieg","postalCode":"31174","locality":"Schellerten","municipality":{"key":"03254029","name":"Schellerten","type":"Kreisangehörige_Gemeinde"},"district":{"key":"03254","name":"Hildesheim","type":"Landkreis"},"federalState":{"key":"03","name":"Niedersachsen"}},{"name":"Wendhäuser Weg","postalCode":"31174","locality":"Schellerten","municipality":{"key":"03254029","name":"Schellerten","type":"Kreisangehörige_Gemeinde"},"district":{"key":"03254","name":"Hildesheim","type":"Landkreis"},"federalState":{"key":"03","name":"Niedersachsen"}},{"name":"Wenser Bergstr.","postalCode":"31174","locality":"Schellerten","municipality":{"key":"03254029","name":"Schellerten","type":"Kreisangehörige_Gemeinde"},"district":{"key":"03254","name":"Hildesheim","type":"Landkreis"},"federalState":{"key":"03","name":"Niedersachsen"}},{"name":"Wiesenkamp","postalCode":"31174","locality":"Schellerten","municipality":{"key":"03254029","name":"Schellerten","type":"Kreisangehörige_Gemeinde"},"district":{"key":"03254","name":"Hildesheim","type":"Landkreis"},"federalState":{"key":"03","name":"Niedersachsen"}},{"name":"Wilhelm-Kaune-Weg","postalCode":"31174","locality":"Schellerten","municipality":{"key":"03254029","name":"Schellerten","type":"Kreisangehörige_Gemeinde"},"district":{"key":"03254","name":"Hildesheim","type":"Landkreis"},"federalState":{"key":"03","name":"Niedersachsen"}},{"name":"Windmühlenweg","postalCode":"31174","locality":"Schellerten","municipality":{"key":"03254029","name":"Schellerten","type":"Kreisangehörige_Gemeinde"},"district":{"key":"03254","name":"Hildesheim","type":"Landkreis"},"federalState":{"key":"03","name":"Niedersachsen"}},{"name":"Wöhler Str.","postalCode":"31174","locality":"Schellerten","municipality":{"key":"03254029","name":"Schellerten","type":"Kreisangehörige_Gemeinde"},"district":{"key":"03254","name":"Hildesheim","type":"Landkreis"},"federalState":{"key":"03","name":"Niedersachsen"}},{"name":"Yorckstr.","postalCode":"31141","locality":"Hildesheim","municipality":{"key":"03254021","name":"Hildesheim, Stadt","type":"Stadt"},"district":{"key":"03254","name":"Hildesheim","type":"Landkreis"},"federalState":{"key":"03","name":"Niedersachsen"}},{"name":"Zankenburg","postalCode":"31174","locality":"Schellerten","municipality":{"key":"03254029","name":"Schellerten","type":"Kreisangehörige_Gemeinde"},"district":{"key":"03254","name":"Hildesheim","type":"Landkreis"},"federalState":{"key":"03","name":"Niedersachsen"}},{"name":"Ziegeleiweg","postalCode":"31174","locality":"Schellerten","municipality":{"key":"03254029","name":"Schellerten","type":"Kreisangehörige_Gemeinde"},"district":{"key":"03254","name":"Hildesheim","type":"Landkreis"},"federalState":{"key":"03","name":"Niedersachsen"}},{"name":"Zuckerfabrik","postalCode":"31174","locality":"Schellerten","municipality":{"key":"03254029","name":"Schellerten","type":"Kreisangehörige_Gemeinde"},"district":{"key":"03254","name":"Hildesheim","type":"Landkreis"},"federalState":{"key":"03","name":"Niedersachsen"}},{"name":"Zu den Meierhöfen","postalCode":"31174","locality":"Schellerten","municipality":{"key":"03254029","name":"Schellerten","type":"Kreisangehörige_Gemeinde"},"district":{"key":"03254","name":"Hildesheim","type":"Landkreis"},"federalState":{"key":"03","name":"Niedersachsen"}},{"name":"Zum Anger","postalCode":"31174","locality":"Schellerten","municipality":{"key":"03254029","name":"Schellerten","type":"Kreisangehörige_Gemeinde"},"district":{"key":"03254","name":"Hildesheim","type":"Landkreis"},"federalState":{"key":"03","name":"Niedersachsen"}},{"name":"Zum Bruche","postalCode":"31174","locality":"Schellerten","municipality":{"key":"03254029","name":"Schellerten","type":"Kreisangehörige_Gemeinde"},"district":{"key":"03254","name":"Hildesheim","type":"Landkreis"},"federalState":{"key":"03","name":"Niedersachsen"}},{"name":"Zum Kemmer Berg","postalCode":"31174","locality":"Schellerten","municipality":{"key":"03254029","name":"Schellerten","type":"Kreisangehörige_Gemeinde"},"district":{"key":"03254","name":"Hildesheim","type":"Landkreis"},"federalState":{"key":"03","name":"Niedersachsen"}},{"name":"Zum Kohlpott","postalCode":"31174","locality":"Schellerten","municipality":{"key":"03254029","name":"Schellerten","type":"Kreisangehörige_Gemeinde"},"district":{"key":"03254","name":"Hildesheim","type":"Landkreis"},"federalState":{"key":"03","name":"Niedersachsen"}},{"name":"Zum Langenackersfeld","postalCode":"31174","locality":"Schellerten","municipality":{"key":"03254029","name":"Schellerten","type":"Kreisangehörige_Gemeinde"},"district":{"key":"03254","name":"Hildesheim","type":"Landkreis"},"federalState":{"key":"03","name":"Niedersachsen"}},{"name":"Über der Wasserfurche","postalCode":"31174","locality":"Schellerten","municipality":{"key":"03254029","name":"Schellerten","type":"Kreisangehörige_Gemeinde"},"district":{"key":"03254","name":"Hildesheim","type":"Landkreis"},"federalState":{"key":"03","name":"Niedersachsen"}},]