[{"name":"20","postalCode":"82438","locality":"Eschenlohe","municipality":{"key":"09180114","name":"Eschenlohe","type":"Kreisangehörige_Gemeinde"},"district":{"key":"09180","name":"Garmisch-Partenkirchen","type":"Landkreis"},"federalState":{"key":"09","name":"Bayern"}},{"name":"475","postalCode":"82438","locality":"Eschenlohe","municipality":{"key":"09180114","name":"Eschenlohe","type":"Kreisangehörige_Gemeinde"},"district":{"key":"09180","name":"Garmisch-Partenkirchen","type":"Landkreis"},"federalState":{"key":"09","name":"Bayern"}},{"name":"Am Straßacker","postalCode":"82438","locality":"Eschenlohe","municipality":{"key":"09180114","name":"Eschenlohe","type":"Kreisangehörige_Gemeinde"},"district":{"key":"09180","name":"Garmisch-Partenkirchen","type":"Landkreis"},"federalState":{"key":"09","name":"Bayern"}},{"name":"Angerstr.","postalCode":"82438","locality":"Eschenlohe","municipality":{"key":"09180114","name":"Eschenlohe","type":"Kreisangehörige_Gemeinde"},"district":{"key":"09180","name":"Garmisch-Partenkirchen","type":"Landkreis"},"federalState":{"key":"09","name":"Bayern"}},{"name":"Archtalstr.","postalCode":"82438","locality":"Eschenlohe","municipality":{"key":"09180114","name":"Eschenlohe","type":"Kreisangehörige_Gemeinde"},"district":{"key":"09180","name":"Garmisch-Partenkirchen","type":"Landkreis"},"federalState":{"key":"09","name":"Bayern"}},{"name":"Asamklammstr.","postalCode":"82438","locality":"Eschenlohe","municipality":{"key":"09180114","name":"Eschenlohe","type":"Kreisangehörige_Gemeinde"},"district":{"key":"09180","name":"Garmisch-Partenkirchen","type":"Landkreis"},"federalState":{"key":"09","name":"Bayern"}},{"name":"Bahnhofstr.","postalCode":"82438","locality":"Eschenlohe","municipality":{"key":"09180114","name":"Eschenlohe","type":"Kreisangehörige_Gemeinde"},"district":{"key":"09180","name":"Garmisch-Partenkirchen","type":"Landkreis"},"federalState":{"key":"09","name":"Bayern"}},{"name":"Birkenstr.","postalCode":"82438","locality":"Eschenlohe","municipality":{"key":"09180114","name":"Eschenlohe","type":"Kreisangehörige_Gemeinde"},"district":{"key":"09180","name":"Garmisch-Partenkirchen","type":"Landkreis"},"federalState":{"key":"09","name":"Bayern"}},{"name":"Chamonixstr.","postalCode":"82467","locality":"Garmisch-Partenkirchen","municipality":{"key":"09180117","name":"Garmisch-Partenkirchen, M","type":"Markt"},"district":{"key":"09180","name":"Garmisch-Partenkirchen","type":"Landkreis"},"federalState":{"key":"09","name":"Bayern"}},{"name":"Dorfplatz","postalCode":"82438","locality":"Eschenlohe","municipality":{"key":"09180114","name":"Eschenlohe","type":"Kreisangehörige_Gemeinde"},"district":{"key":"09180","name":"Garmisch-Partenkirchen","type":"Landkreis"},"federalState":{"key":"09","name":"Bayern"}},{"name":"Düftweg","postalCode":"82438","locality":"Eschenlohe","municipality":{"key":"09180114","name":"Eschenlohe","type":"Kreisangehörige_Gemeinde"},"district":{"key":"09180","name":"Garmisch-Partenkirchen","type":"Landkreis"},"federalState":{"key":"09","name":"Bayern"}},{"name":"Eschenstr.","postalCode":"82438","locality":"Eschenlohe","municipality":{"key":"09180114","name":"Eschenlohe","type":"Kreisangehörige_Gemeinde"},"district":{"key":"09180","name":"Garmisch-Partenkirchen","type":"Landkreis"},"federalState":{"key":"09","name":"Bayern"}},{"name":"Ethentalstr.","postalCode":"82438","locality":"Eschenlohe","municipality":{"key":"09180114","name":"Eschenlohe","type":"Kreisangehörige_Gemeinde"},"district":{"key":"09180","name":"Garmisch-Partenkirchen","type":"Landkreis"},"federalState":{"key":"09","name":"Bayern"}},{"name":"Falkensteinstr.","postalCode":"82467","locality":"Garmisch-Partenkirchen","municipality":{"key":"09180117","name":"Garmisch-Partenkirchen, M","type":"Markt"},"district":{"key":"09180","name":"Garmisch-Partenkirchen","type":"Landkreis"},"federalState":{"key":"09","name":"Bayern"}},{"name":"Falkenstr.","postalCode":"82467","locality":"Garmisch-Partenkirchen","municipality":{"key":"09180117","name":"Garmisch-Partenkirchen, M","type":"Markt"},"district":{"key":"09180","name":"Garmisch-Partenkirchen","type":"Landkreis"},"federalState":{"key":"09","name":"Bayern"}},{"name":"Farchanter Str.","postalCode":"82467","locality":"Garmisch-Partenkirchen","municipality":{"key":"09180117","name":"Garmisch-Partenkirchen, M","type":"Markt"},"district":{"key":"09180","name":"Garmisch-Partenkirchen","type":"Landkreis"},"federalState":{"key":"09","name":"Bayern"}},{"name":"Faukenstr.","postalCode":"82467","locality":"Garmisch-Partenkirchen","municipality":{"key":"09180117","name":"Garmisch-Partenkirchen, M","type":"Markt"},"district":{"key":"09180","name":"Garmisch-Partenkirchen","type":"Landkreis"},"federalState":{"key":"09","name":"Bayern"}},{"name":"Feldernkopfstr.","postalCode":"82467","locality":"Garmisch-Partenkirchen","municipality":{"key":"09180117","name":"Garmisch-Partenkirchen, M","type":"Markt"},"district":{"key":"09180","name":"Garmisch-Partenkirchen","type":"Landkreis"},"federalState":{"key":"09","name":"Bayern"}},{"name":"Feldstr.","postalCode":"82467","locality":"Garmisch-Partenkirchen","municipality":{"key":"09180117","name":"Garmisch-Partenkirchen, M","type":"Markt"},"district":{"key":"09180","name":"Garmisch-Partenkirchen","type":"Landkreis"},"federalState":{"key":"09","name":"Bayern"}},{"name":"Ferdinand-Barth-Str.","postalCode":"82467","locality":"Garmisch-Partenkirchen","municipality":{"key":"09180117","name":"Garmisch-Partenkirchen, M","type":"Markt"},"district":{"key":"09180","name":"Garmisch-Partenkirchen","type":"Landkreis"},"federalState":{"key":"09","name":"Bayern"}},{"name":"Fichtackerstr.","postalCode":"82467","locality":"Garmisch-Partenkirchen","municipality":{"key":"09180117","name":"Garmisch-Partenkirchen, M","type":"Markt"},"district":{"key":"09180","name":"Garmisch-Partenkirchen","type":"Landkreis"},"federalState":{"key":"09","name":"Bayern"}},{"name":"Finkenstr.","postalCode":"82467","locality":"Garmisch-Partenkirchen","municipality":{"key":"09180117","name":"Garmisch-Partenkirchen, M","type":"Markt"},"district":{"key":"09180","name":"Garmisch-Partenkirchen","type":"Landkreis"},"federalState":{"key":"09","name":"Bayern"}},{"name":"Flurstr.","postalCode":"82467","locality":"Garmisch-Partenkirchen","municipality":{"key":"09180117","name":"Garmisch-Partenkirchen, M","type":"Markt"},"district":{"key":"09180","name":"Garmisch-Partenkirchen","type":"Landkreis"},"federalState":{"key":"09","name":"Bayern"}},{"name":"Föhrenweg","postalCode":"82467","locality":"Garmisch-Partenkirchen","municipality":{"key":"09180117","name":"Garmisch-Partenkirchen, M","type":"Markt"},"district":{"key":"09180","name":"Garmisch-Partenkirchen","type":"Landkreis"},"federalState":{"key":"09","name":"Bayern"}},{"name":"Forstamtweg","postalCode":"82467","locality":"Garmisch-Partenkirchen","municipality":{"key":"09180117","name":"Garmisch-Partenkirchen, M","type":"Markt"},"district":{"key":"09180","name":"Garmisch-Partenkirchen","type":"Landkreis"},"federalState":{"key":"09","name":"Bayern"}},{"name":"Forsterweg","postalCode":"82467","locality":"Garmisch-Partenkirchen","municipality":{"key":"09180117","name":"Garmisch-Partenkirchen, M","type":"Markt"},"district":{"key":"09180","name":"Garmisch-Partenkirchen","type":"Landkreis"},"federalState":{"key":"09","name":"Bayern"}},{"name":"Frauenalpweg","postalCode":"82467","locality":"Garmisch-Partenkirchen","municipality":{"key":"09180117","name":"Garmisch-Partenkirchen, M","type":"Markt"},"district":{"key":"09180","name":"Garmisch-Partenkirchen","type":"Landkreis"},"federalState":{"key":"09","name":"Bayern"}},{"name":"Frickenweg","postalCode":"82467","locality":"Garmisch-Partenkirchen","municipality":{"key":"09180117","name":"Garmisch-Partenkirchen, M","type":"Markt"},"district":{"key":"09180","name":"Garmisch-Partenkirchen","type":"Landkreis"},"federalState":{"key":"09","name":"Bayern"}},{"name":"Friedhofstr.","postalCode":"82467","locality":"Garmisch-Partenkirchen","municipality":{"key":"09180117","name":"Garmisch-Partenkirchen, M","type":"Markt"},"district":{"key":"09180","name":"Garmisch-Partenkirchen","type":"Landkreis"},"federalState":{"key":"09","name":"Bayern"}},{"name":"Frillenseestr.","postalCode":"82467","locality":"Garmisch-Partenkirchen","municipality":{"key":"09180117","name":"Garmisch-Partenkirchen, M","type":"Markt"},"district":{"key":"09180","name":"Garmisch-Partenkirchen","type":"Landkreis"},"federalState":{"key":"09","name":"Bayern"}},{"name":"Fritz-Müller-Str.","postalCode":"82467","locality":"Garmisch-Partenkirchen","municipality":{"key":"09180117","name":"Garmisch-Partenkirchen, M","type":"Markt"},"district":{"key":"09180","name":"Garmisch-Partenkirchen","type":"Landkreis"},"federalState":{"key":"09","name":"Bayern"}},{"name":"Frühlingstr.","postalCode":"82467","locality":"Garmisch-Partenkirchen","municipality":{"key":"09180117","name":"Garmisch-Partenkirchen, M","type":"Markt"},"district":{"key":"09180","name":"Garmisch-Partenkirchen","type":"Landkreis"},"federalState":{"key":"09","name":"Bayern"}},{"name":"Fürstenstr.","postalCode":"82467","locality":"Garmisch-Partenkirchen","municipality":{"key":"09180117","name":"Garmisch-Partenkirchen, M","type":"Markt"},"district":{"key":"09180","name":"Garmisch-Partenkirchen","type":"Landkreis"},"federalState":{"key":"09","name":"Bayern"}},{"name":"Garmischer Str.","postalCode":"82438","locality":"Eschenlohe","municipality":{"key":"09180114","name":"Eschenlohe","type":"Kreisangehörige_Gemeinde"},"district":{"key":"09180","name":"Garmisch-Partenkirchen","type":"Landkreis"},"federalState":{"key":"09","name":"Bayern"}},{"name":"Große Rieder","postalCode":"82438","locality":"Eschenlohe","municipality":{"key":"09180114","name":"Eschenlohe","type":"Kreisangehörige_Gemeinde"},"district":{"key":"09180","name":"Garmisch-Partenkirchen","type":"Landkreis"},"federalState":{"key":"09","name":"Bayern"}},{"name":"Haidestr.","postalCode":"82438","locality":"Eschenlohe","municipality":{"key":"09180114","name":"Eschenlohe","type":"Kreisangehörige_Gemeinde"},"district":{"key":"09180","name":"Garmisch-Partenkirchen","type":"Landkreis"},"federalState":{"key":"09","name":"Bayern"}},{"name":"Heubergstr.","postalCode":"82438","locality":"Eschenlohe","municipality":{"key":"09180114","name":"Eschenlohe","type":"Kreisangehörige_Gemeinde"},"district":{"key":"09180","name":"Garmisch-Partenkirchen","type":"Landkreis"},"federalState":{"key":"09","name":"Bayern"}},{"name":"Hirschbergstr.","postalCode":"82438","locality":"Eschenlohe","municipality":{"key":"09180114","name":"Eschenlohe","type":"Kreisangehörige_Gemeinde"},"district":{"key":"09180","name":"Garmisch-Partenkirchen","type":"Landkreis"},"federalState":{"key":"09","name":"Bayern"}},{"name":"Höllensteinstr.","postalCode":"82438","locality":"Eschenlohe","municipality":{"key":"09180114","name":"Eschenlohe","type":"Kreisangehörige_Gemeinde"},"district":{"key":"09180","name":"Garmisch-Partenkirchen","type":"Landkreis"},"federalState":{"key":"09","name":"Bayern"}},{"name":"Im Wengerfeld","postalCode":"82438","locality":"Eschenlohe","municipality":{"key":"09180114","name":"Eschenlohe","type":"Kreisangehörige_Gemeinde"},"district":{"key":"09180","name":"Garmisch-Partenkirchen","type":"Landkreis"},"federalState":{"key":"09","name":"Bayern"}},{"name":"In der Enz","postalCode":"82438","locality":"Eschenlohe","municipality":{"key":"09180114","name":"Eschenlohe","type":"Kreisangehörige_Gemeinde"},"district":{"key":"09180","name":"Garmisch-Partenkirchen","type":"Landkreis"},"federalState":{"key":"09","name":"Bayern"}},{"name":"Jahnstr.","postalCode":"82467","locality":"Garmisch-Partenkirchen","municipality":{"key":"09180117","name":"Garmisch-Partenkirchen, M","type":"Markt"},"district":{"key":"09180","name":"Garmisch-Partenkirchen","type":"Landkreis"},"federalState":{"key":"09","name":"Bayern"}},{"name":"Jochstr.","postalCode":"82467","locality":"Garmisch-Partenkirchen","municipality":{"key":"09180117","name":"Garmisch-Partenkirchen, M","type":"Markt"},"district":{"key":"09180","name":"Garmisch-Partenkirchen","type":"Landkreis"},"federalState":{"key":"09","name":"Bayern"}},{"name":"Juchtweg","postalCode":"82467","locality":"Garmisch-Partenkirchen","municipality":{"key":"09180117","name":"Garmisch-Partenkirchen, M","type":"Markt"},"district":{"key":"09180","name":"Garmisch-Partenkirchen","type":"Landkreis"},"federalState":{"key":"09","name":"Bayern"}},{"name":"Jungfernweg","postalCode":"82467","locality":"Garmisch-Partenkirchen","municipality":{"key":"09180117","name":"Garmisch-Partenkirchen, M","type":"Markt"},"district":{"key":"09180","name":"Garmisch-Partenkirchen","type":"Landkreis"},"federalState":{"key":"09","name":"Bayern"}},{"name":"Kistenkopfstr.","postalCode":"82438","locality":"Eschenlohe","municipality":{"key":"09180114","name":"Eschenlohe","type":"Kreisangehörige_Gemeinde"},"district":{"key":"09180","name":"Garmisch-Partenkirchen","type":"Landkreis"},"federalState":{"key":"09","name":"Bayern"}},{"name":"Kleine Rieder","postalCode":"82438","locality":"Eschenlohe","municipality":{"key":"09180114","name":"Eschenlohe","type":"Kreisangehörige_Gemeinde"},"district":{"key":"09180","name":"Garmisch-Partenkirchen","type":"Landkreis"},"federalState":{"key":"09","name":"Bayern"}},{"name":"Kluppenstr.","postalCode":"82438","locality":"Eschenlohe","municipality":{"key":"09180114","name":"Eschenlohe","type":"Kreisangehörige_Gemeinde"},"district":{"key":"09180","name":"Garmisch-Partenkirchen","type":"Landkreis"},"federalState":{"key":"09","name":"Bayern"}},{"name":"Krottenkopfstr.","postalCode":"82438","locality":"Eschenlohe","municipality":{"key":"09180114","name":"Eschenlohe","type":"Kreisangehörige_Gemeinde"},"district":{"key":"09180","name":"Garmisch-Partenkirchen","type":"Landkreis"},"federalState":{"key":"09","name":"Bayern"}},{"name":"Lindenstr.","postalCode":"82438","locality":"Eschenlohe","municipality":{"key":"09180114","name":"Eschenlohe","type":"Kreisangehörige_Gemeinde"},"district":{"key":"09180","name":"Garmisch-Partenkirchen","type":"Landkreis"},"federalState":{"key":"09","name":"Bayern"}},{"name":"Loisachblickrundweg","postalCode":"82438","locality":"Eschenlohe","municipality":{"key":"09180114","name":"Eschenlohe","type":"Kreisangehörige_Gemeinde"},"district":{"key":"09180","name":"Garmisch-Partenkirchen","type":"Landkreis"},"federalState":{"key":"09","name":"Bayern"}},{"name":"Loisachbrücke","postalCode":"82438","locality":"Eschenlohe","municipality":{"key":"09180114","name":"Eschenlohe","type":"Kreisangehörige_Gemeinde"},"district":{"key":"09180","name":"Garmisch-Partenkirchen","type":"Landkreis"},"federalState":{"key":"09","name":"Bayern"}},{"name":"Loisachstr.","postalCode":"82438","locality":"Eschenlohe","municipality":{"key":"09180114","name":"Eschenlohe","type":"Kreisangehörige_Gemeinde"},"district":{"key":"09180","name":"Garmisch-Partenkirchen","type":"Landkreis"},"federalState":{"key":"09","name":"Bayern"}},{"name":"Maximiliansweg","postalCode":"82438","locality":"Eschenlohe","municipality":{"key":"09180114","name":"Eschenlohe","type":"Kreisangehörige_Gemeinde"},"district":{"key":"09180","name":"Garmisch-Partenkirchen","type":"Landkreis"},"federalState":{"key":"09","name":"Bayern"}},{"name":"Michael-Fischer-Str.","postalCode":"82438","locality":"Eschenlohe","municipality":{"key":"09180114","name":"Eschenlohe","type":"Kreisangehörige_Gemeinde"},"district":{"key":"09180","name":"Garmisch-Partenkirchen","type":"Landkreis"},"federalState":{"key":"09","name":"Bayern"}},{"name":"Mineckstr.","postalCode":"82438","locality":"Eschenlohe","municipality":{"key":"09180114","name":"Eschenlohe","type":"Kreisangehörige_Gemeinde"},"district":{"key":"09180","name":"Garmisch-Partenkirchen","type":"Landkreis"},"federalState":{"key":"09","name":"Bayern"}},{"name":"Mühlstr.","postalCode":"82438","locality":"Eschenlohe","municipality":{"key":"09180114","name":"Eschenlohe","type":"Kreisangehörige_Gemeinde"},"district":{"key":"09180","name":"Garmisch-Partenkirchen","type":"Landkreis"},"federalState":{"key":"09","name":"Bayern"}},{"name":"Murnauer Str.","postalCode":"82438","locality":"Eschenlohe","municipality":{"key":"09180114","name":"Eschenlohe","type":"Kreisangehörige_Gemeinde"},"district":{"key":"09180","name":"Garmisch-Partenkirchen","type":"Landkreis"},"federalState":{"key":"09","name":"Bayern"}},{"name":"Natur-Erlebnis-Pfad","postalCode":"82438","locality":"Eschenlohe","municipality":{"key":"09180114","name":"Eschenlohe","type":"Kreisangehörige_Gemeinde"},"district":{"key":"09180","name":"Garmisch-Partenkirchen","type":"Landkreis"},"federalState":{"key":"09","name":"Bayern"}},{"name":"Olympiastr.","postalCode":"82438","locality":"Eschenlohe","municipality":{"key":"09180114","name":"Eschenlohe","type":"Kreisangehörige_Gemeinde"},"district":{"key":"09180","name":"Garmisch-Partenkirchen","type":"Landkreis"},"federalState":{"key":"09","name":"Bayern"}},{"name":"Pustertalstr.","postalCode":"82438","locality":"Eschenlohe","municipality":{"key":"09180114","name":"Eschenlohe","type":"Kreisangehörige_Gemeinde"},"district":{"key":"09180","name":"Garmisch-Partenkirchen","type":"Landkreis"},"federalState":{"key":"09","name":"Bayern"}},{"name":"Rautstr.","postalCode":"82438","locality":"Eschenlohe","municipality":{"key":"09180114","name":"Eschenlohe","type":"Kreisangehörige_Gemeinde"},"district":{"key":"09180","name":"Garmisch-Partenkirchen","type":"Landkreis"},"federalState":{"key":"09","name":"Bayern"}},{"name":"Römerstr.","postalCode":"82438","locality":"Eschenlohe","municipality":{"key":"09180114","name":"Eschenlohe","type":"Kreisangehörige_Gemeinde"},"district":{"key":"09180","name":"Garmisch-Partenkirchen","type":"Landkreis"},"federalState":{"key":"09","name":"Bayern"}},{"name":"Schellenbergstr.","postalCode":"82438","locality":"Eschenlohe","municipality":{"key":"09180114","name":"Eschenlohe","type":"Kreisangehörige_Gemeinde"},"district":{"key":"09180","name":"Garmisch-Partenkirchen","type":"Landkreis"},"federalState":{"key":"09","name":"Bayern"}},{"name":"Siemensstr.","postalCode":"82438","locality":"Eschenlohe","municipality":{"key":"09180114","name":"Eschenlohe","type":"Kreisangehörige_Gemeinde"},"district":{"key":"09180","name":"Garmisch-Partenkirchen","type":"Landkreis"},"federalState":{"key":"09","name":"Bayern"}},{"name":"Talackerstr.","postalCode":"82467","locality":"Garmisch-Partenkirchen","municipality":{"key":"09180117","name":"Garmisch-Partenkirchen, M","type":"Markt"},"district":{"key":"09180","name":"Garmisch-Partenkirchen","type":"Landkreis"},"federalState":{"key":"09","name":"Bayern"}},{"name":"Tegernauweg","postalCode":"82467","locality":"Garmisch-Partenkirchen","municipality":{"key":"09180117","name":"Garmisch-Partenkirchen, M","type":"Markt"},"district":{"key":"09180","name":"Garmisch-Partenkirchen","type":"Landkreis"},"federalState":{"key":"09","name":"Bayern"}},{"name":"Thomas-Knorr-Str.","postalCode":"82467","locality":"Garmisch-Partenkirchen","municipality":{"key":"09180117","name":"Garmisch-Partenkirchen, M","type":"Markt"},"district":{"key":"09180","name":"Garmisch-Partenkirchen","type":"Landkreis"},"federalState":{"key":"09","name":"Bayern"}},{"name":"Törlenstr.","postalCode":"82467","locality":"Garmisch-Partenkirchen","municipality":{"key":"09180117","name":"Garmisch-Partenkirchen, M","type":"Markt"},"district":{"key":"09180","name":"Garmisch-Partenkirchen","type":"Landkreis"},"federalState":{"key":"09","name":"Bayern"}},{"name":"Triftstr.","postalCode":"82467","locality":"Garmisch-Partenkirchen","municipality":{"key":"09180117","name":"Garmisch-Partenkirchen, M","type":"Markt"},"district":{"key":"09180","name":"Garmisch-Partenkirchen","type":"Landkreis"},"federalState":{"key":"09","name":"Bayern"}},{"name":"Turmackerstr.","postalCode":"82467","locality":"Garmisch-Partenkirchen","municipality":{"key":"09180117","name":"Garmisch-Partenkirchen, M","type":"Markt"},"district":{"key":"09180","name":"Garmisch-Partenkirchen","type":"Landkreis"},"federalState":{"key":"09","name":"Bayern"}},{"name":"Urlainestr.","postalCode":"82438","locality":"Eschenlohe","municipality":{"key":"09180114","name":"Eschenlohe","type":"Kreisangehörige_Gemeinde"},"district":{"key":"09180","name":"Garmisch-Partenkirchen","type":"Landkreis"},"federalState":{"key":"09","name":"Bayern"}},{"name":"Von-Brug-Str.","postalCode":"82467","locality":"Garmisch-Partenkirchen","municipality":{"key":"09180117","name":"Garmisch-Partenkirchen, M","type":"Markt"},"district":{"key":"09180","name":"Garmisch-Partenkirchen","type":"Landkreis"},"federalState":{"key":"09","name":"Bayern"}},{"name":"Von-Defregger-Str.","postalCode":"82467","locality":"Garmisch-Partenkirchen","municipality":{"key":"09180117","name":"Garmisch-Partenkirchen, M","type":"Markt"},"district":{"key":"09180","name":"Garmisch-Partenkirchen","type":"Landkreis"},"federalState":{"key":"09","name":"Bayern"}},{"name":"Von-Kobell-Str.","postalCode":"82467","locality":"Garmisch-Partenkirchen","municipality":{"key":"09180117","name":"Garmisch-Partenkirchen, M","type":"Markt"},"district":{"key":"09180","name":"Garmisch-Partenkirchen","type":"Landkreis"},"federalState":{"key":"09","name":"Bayern"}},{"name":"Von-Müller-Str.","postalCode":"82467","locality":"Garmisch-Partenkirchen","municipality":{"key":"09180117","name":"Garmisch-Partenkirchen, M","type":"Markt"},"district":{"key":"09180","name":"Garmisch-Partenkirchen","type":"Landkreis"},"federalState":{"key":"09","name":"Bayern"}},{"name":"Walchenseer-Steig","postalCode":"82438","locality":"Eschenlohe","municipality":{"key":"09180114","name":"Eschenlohe","type":"Kreisangehörige_Gemeinde"},"district":{"key":"09180","name":"Garmisch-Partenkirchen","type":"Landkreis"},"federalState":{"key":"09","name":"Bayern"}},{"name":"Walchenseestr.","postalCode":"82438","locality":"Eschenlohe","municipality":{"key":"09180114","name":"Eschenlohe","type":"Kreisangehörige_Gemeinde"},"district":{"key":"09180","name":"Garmisch-Partenkirchen","type":"Landkreis"},"federalState":{"key":"09","name":"Bayern"}},{"name":"Wengen","postalCode":"82438","locality":"Eschenlohe","municipality":{"key":"09180114","name":"Eschenlohe","type":"Kreisangehörige_Gemeinde"},"district":{"key":"09180","name":"Garmisch-Partenkirchen","type":"Landkreis"},"federalState":{"key":"09","name":"Bayern"}},{"name":"Wildseestr.","postalCode":"82438","locality":"Eschenlohe","municipality":{"key":"09180114","name":"Eschenlohe","type":"Kreisangehörige_Gemeinde"},"district":{"key":"09180","name":"Garmisch-Partenkirchen","type":"Landkreis"},"federalState":{"key":"09","name":"Bayern"}},{"name":"Zugspitzstr.","postalCode":"82438","locality":"Eschenlohe","municipality":{"key":"09180114","name":"Eschenlohe","type":"Kreisangehörige_Gemeinde"},"district":{"key":"09180","name":"Garmisch-Partenkirchen","type":"Landkreis"},"federalState":{"key":"09","name":"Bayern"}},{"name":"Zwölferkopfstr.","postalCode":"82438","locality":"Eschenlohe","municipality":{"key":"09180114","name":"Eschenlohe","type":"Kreisangehörige_Gemeinde"},"district":{"key":"09180","name":"Garmisch-Partenkirchen","type":"Landkreis"},"federalState":{"key":"09","name":"Bayern"}},{"name":"Äußere Maximilianstr.","postalCode":"82467","locality":"Garmisch-Partenkirchen","municipality":{"key":"09180117","name":"Garmisch-Partenkirchen, M","type":"Markt"},"district":{"key":"09180","name":"Garmisch-Partenkirchen","type":"Landkreis"},"federalState":{"key":"09","name":"Bayern"}},{"name":"Öfele","postalCode":"82467","locality":"Garmisch-Partenkirchen","municipality":{"key":"09180117","name":"Garmisch-Partenkirchen, M","type":"Markt"},"district":{"key":"09180","name":"Garmisch-Partenkirchen","type":"Landkreis"},"federalState":{"key":"09","name":"Bayern"}},]