[{"name":"Am Seewinkel","postalCode":"54584","locality":"Feusdorf","municipality":{"key":"07233023","name":"Feusdorf","type":"Kreisangehörige_Gemeinde"},"district":{"key":"07233","name":"Vulkaneifel","type":"Landkreis"},"federalState":{"key":"07","name":"Rheinland-Pfalz"}},{"name":"Am Sinnenbüsch","postalCode":"54584","locality":"Feusdorf","municipality":{"key":"07233023","name":"Feusdorf","type":"Kreisangehörige_Gemeinde"},"district":{"key":"07233","name":"Vulkaneifel","type":"Landkreis"},"federalState":{"key":"07","name":"Rheinland-Pfalz"}},{"name":"Auf dem Faller","postalCode":"54584","locality":"Feusdorf","municipality":{"key":"07233023","name":"Feusdorf","type":"Kreisangehörige_Gemeinde"},"district":{"key":"07233","name":"Vulkaneifel","type":"Landkreis"},"federalState":{"key":"07","name":"Rheinland-Pfalz"}},{"name":"Auf den Aachen","postalCode":"54584","locality":"Feusdorf","municipality":{"key":"07233023","name":"Feusdorf","type":"Kreisangehörige_Gemeinde"},"district":{"key":"07233","name":"Vulkaneifel","type":"Landkreis"},"federalState":{"key":"07","name":"Rheinland-Pfalz"}},{"name":"Auf der Hääg","postalCode":"54584","locality":"Feusdorf","municipality":{"key":"07233023","name":"Feusdorf","type":"Kreisangehörige_Gemeinde"},"district":{"key":"07233","name":"Vulkaneifel","type":"Landkreis"},"federalState":{"key":"07","name":"Rheinland-Pfalz"}},{"name":"Auf Rütt","postalCode":"54584","locality":"Feusdorf","municipality":{"key":"07233023","name":"Feusdorf","type":"Kreisangehörige_Gemeinde"},"district":{"key":"07233","name":"Vulkaneifel","type":"Landkreis"},"federalState":{"key":"07","name":"Rheinland-Pfalz"}},{"name":"Birgeler Str.","postalCode":"54584","locality":"Feusdorf","municipality":{"key":"07233023","name":"Feusdorf","type":"Kreisangehörige_Gemeinde"},"district":{"key":"07233","name":"Vulkaneifel","type":"Landkreis"},"federalState":{"key":"07","name":"Rheinland-Pfalz"}},{"name":"Escher Str.","postalCode":"54584","locality":"Feusdorf","municipality":{"key":"07233023","name":"Feusdorf","type":"Kreisangehörige_Gemeinde"},"district":{"key":"07233","name":"Vulkaneifel","type":"Landkreis"},"federalState":{"key":"07","name":"Rheinland-Pfalz"}},{"name":"Flurweg","postalCode":"54584","locality":"Feusdorf","municipality":{"key":"07233023","name":"Feusdorf","type":"Kreisangehörige_Gemeinde"},"district":{"key":"07233","name":"Vulkaneifel","type":"Landkreis"},"federalState":{"key":"07","name":"Rheinland-Pfalz"}},{"name":"Hauptstr.","postalCode":"54584","locality":"Feusdorf","municipality":{"key":"07233023","name":"Feusdorf","type":"Kreisangehörige_Gemeinde"},"district":{"key":"07233","name":"Vulkaneifel","type":"Landkreis"},"federalState":{"key":"07","name":"Rheinland-Pfalz"}},{"name":"Kirchstr.","postalCode":"54584","locality":"Feusdorf","municipality":{"key":"07233023","name":"Feusdorf","type":"Kreisangehörige_Gemeinde"},"district":{"key":"07233","name":"Vulkaneifel","type":"Landkreis"},"federalState":{"key":"07","name":"Rheinland-Pfalz"}},{"name":"Neustr.","postalCode":"54584","locality":"Feusdorf","municipality":{"key":"07233023","name":"Feusdorf","type":"Kreisangehörige_Gemeinde"},"district":{"key":"07233","name":"Vulkaneifel","type":"Landkreis"},"federalState":{"key":"07","name":"Rheinland-Pfalz"}},{"name":"Poststr.","postalCode":"54584","locality":"Feusdorf","municipality":{"key":"07233023","name":"Feusdorf","type":"Kreisangehörige_Gemeinde"},"district":{"key":"07233","name":"Vulkaneifel","type":"Landkreis"},"federalState":{"key":"07","name":"Rheinland-Pfalz"}},{"name":"Sonnenweg","postalCode":"54584","locality":"Feusdorf","municipality":{"key":"07233023","name":"Feusdorf","type":"Kreisangehörige_Gemeinde"},"district":{"key":"07233","name":"Vulkaneifel","type":"Landkreis"},"federalState":{"key":"07","name":"Rheinland-Pfalz"}},{"name":"Tannenweg","postalCode":"54584","locality":"Feusdorf","municipality":{"key":"07233023","name":"Feusdorf","type":"Kreisangehörige_Gemeinde"},"district":{"key":"07233","name":"Vulkaneifel","type":"Landkreis"},"federalState":{"key":"07","name":"Rheinland-Pfalz"}},{"name":"Waldfrieden","postalCode":"54584","locality":"Feusdorf","municipality":{"key":"07233023","name":"Feusdorf","type":"Kreisangehörige_Gemeinde"},"district":{"key":"07233","name":"Vulkaneifel","type":"Landkreis"},"federalState":{"key":"07","name":"Rheinland-Pfalz"}},{"name":"Wiesbaumer Str.","postalCode":"54584","locality":"Feusdorf","municipality":{"key":"07233023","name":"Feusdorf","type":"Kreisangehörige_Gemeinde"},"district":{"key":"07233","name":"Vulkaneifel","type":"Landkreis"},"federalState":{"key":"07","name":"Rheinland-Pfalz"}},]