[{"name":"An der Kreutzwiese","postalCode":"56332","locality":"Niederfell","municipality":{"key":"07137217","name":"Niederfell","type":"Kreisangehörige_Gemeinde"},"district":{"key":"07137","name":"Mayen-Koblenz","type":"Landkreis"},"federalState":{"key":"07","name":"Rheinland-Pfalz"}},{"name":"Arkenwälderhof","postalCode":"56332","locality":"Niederfell","municipality":{"key":"07137217","name":"Niederfell","type":"Kreisangehörige_Gemeinde"},"district":{"key":"07137","name":"Mayen-Koblenz","type":"Landkreis"},"federalState":{"key":"07","name":"Rheinland-Pfalz"}},{"name":"Aspeler Bachtal","postalCode":"56332","locality":"Niederfell","municipality":{"key":"07137217","name":"Niederfell","type":"Kreisangehörige_Gemeinde"},"district":{"key":"07137","name":"Mayen-Koblenz","type":"Landkreis"},"federalState":{"key":"07","name":"Rheinland-Pfalz"}},{"name":"Bergstr.","postalCode":"56332","locality":"Niederfell","municipality":{"key":"07137217","name":"Niederfell","type":"Kreisangehörige_Gemeinde"},"district":{"key":"07137","name":"Mayen-Koblenz","type":"Landkreis"},"federalState":{"key":"07","name":"Rheinland-Pfalz"}},{"name":"Engelstr.","postalCode":"56332","locality":"Niederfell","municipality":{"key":"07137217","name":"Niederfell","type":"Kreisangehörige_Gemeinde"},"district":{"key":"07137","name":"Mayen-Koblenz","type":"Landkreis"},"federalState":{"key":"07","name":"Rheinland-Pfalz"}},{"name":"Försterhof","postalCode":"56332","locality":"Niederfell","municipality":{"key":"07137217","name":"Niederfell","type":"Kreisangehörige_Gemeinde"},"district":{"key":"07137","name":"Mayen-Koblenz","type":"Landkreis"},"federalState":{"key":"07","name":"Rheinland-Pfalz"}},{"name":"Im Laime","postalCode":"56332","locality":"Niederfell","municipality":{"key":"07137217","name":"Niederfell","type":"Kreisangehörige_Gemeinde"},"district":{"key":"07137","name":"Mayen-Koblenz","type":"Landkreis"},"federalState":{"key":"07","name":"Rheinland-Pfalz"}},{"name":"Im Münichsberg","postalCode":"56332","locality":"Niederfell","municipality":{"key":"07137217","name":"Niederfell","type":"Kreisangehörige_Gemeinde"},"district":{"key":"07137","name":"Mayen-Koblenz","type":"Landkreis"},"federalState":{"key":"07","name":"Rheinland-Pfalz"}},{"name":"In den Heilgärten","postalCode":"56332","locality":"Niederfell","municipality":{"key":"07137217","name":"Niederfell","type":"Kreisangehörige_Gemeinde"},"district":{"key":"07137","name":"Mayen-Koblenz","type":"Landkreis"},"federalState":{"key":"07","name":"Rheinland-Pfalz"}},{"name":"In den Wingertsgärten","postalCode":"56332","locality":"Niederfell","municipality":{"key":"07137217","name":"Niederfell","type":"Kreisangehörige_Gemeinde"},"district":{"key":"07137","name":"Mayen-Koblenz","type":"Landkreis"},"federalState":{"key":"07","name":"Rheinland-Pfalz"}},{"name":"Kammertstr.","postalCode":"56332","locality":"Niederfell","municipality":{"key":"07137217","name":"Niederfell","type":"Kreisangehörige_Gemeinde"},"district":{"key":"07137","name":"Mayen-Koblenz","type":"Landkreis"},"federalState":{"key":"07","name":"Rheinland-Pfalz"}},{"name":"Kehrstr.","postalCode":"56332","locality":"Niederfell","municipality":{"key":"07137217","name":"Niederfell","type":"Kreisangehörige_Gemeinde"},"district":{"key":"07137","name":"Mayen-Koblenz","type":"Landkreis"},"federalState":{"key":"07","name":"Rheinland-Pfalz"}},{"name":"Kirchstr.","postalCode":"56332","locality":"Niederfell","municipality":{"key":"07137217","name":"Niederfell","type":"Kreisangehörige_Gemeinde"},"district":{"key":"07137","name":"Mayen-Koblenz","type":"Landkreis"},"federalState":{"key":"07","name":"Rheinland-Pfalz"}},{"name":"Kührerstr.","postalCode":"56332","locality":"Niederfell","municipality":{"key":"07137217","name":"Niederfell","type":"Kreisangehörige_Gemeinde"},"district":{"key":"07137","name":"Mayen-Koblenz","type":"Landkreis"},"federalState":{"key":"07","name":"Rheinland-Pfalz"}},{"name":"Lennigstr.","postalCode":"56332","locality":"Niederfell","municipality":{"key":"07137217","name":"Niederfell","type":"Kreisangehörige_Gemeinde"},"district":{"key":"07137","name":"Mayen-Koblenz","type":"Landkreis"},"federalState":{"key":"07","name":"Rheinland-Pfalz"}},{"name":"Markstr.","postalCode":"56332","locality":"Niederfell","municipality":{"key":"07137217","name":"Niederfell","type":"Kreisangehörige_Gemeinde"},"district":{"key":"07137","name":"Mayen-Koblenz","type":"Landkreis"},"federalState":{"key":"07","name":"Rheinland-Pfalz"}},{"name":"Moselstr.","postalCode":"56332","locality":"Niederfell","municipality":{"key":"07137217","name":"Niederfell","type":"Kreisangehörige_Gemeinde"},"district":{"key":"07137","name":"Mayen-Koblenz","type":"Landkreis"},"federalState":{"key":"07","name":"Rheinland-Pfalz"}},{"name":"Schulstr.","postalCode":"56332","locality":"Niederfell","municipality":{"key":"07137217","name":"Niederfell","type":"Kreisangehörige_Gemeinde"},"district":{"key":"07137","name":"Mayen-Koblenz","type":"Landkreis"},"federalState":{"key":"07","name":"Rheinland-Pfalz"}},{"name":"Unterstr.","postalCode":"56332","locality":"Niederfell","municipality":{"key":"07137217","name":"Niederfell","type":"Kreisangehörige_Gemeinde"},"district":{"key":"07137","name":"Mayen-Koblenz","type":"Landkreis"},"federalState":{"key":"07","name":"Rheinland-Pfalz"}},]