[{"key":"10061297","name":"Au","postalCode":"2556","locality":"Scheuren","commune":{"key":"747","name":"Scheuren","shortName":"Scheuren"},"district":{"key":"242","name":"Verwaltungskreis Biel/Bienne"},"canton":{"key":"2","code":"BE","name":"Bern / Berne"},"status":"Real"},{"key":"10059404","name":"Blumenweg","postalCode":"2556","locality":"Scheuren","commune":{"key":"747","name":"Scheuren","shortName":"Scheuren"},"district":{"key":"242","name":"Verwaltungskreis Biel/Bienne"},"canton":{"key":"2","code":"BE","name":"Bern / Berne"},"status":"Real"},{"key":"10012018","name":"Bodenacherweg","postalCode":"2556","locality":"Scheuren","commune":{"key":"747","name":"Scheuren","shortName":"Scheuren"},"district":{"key":"242","name":"Verwaltungskreis Biel/Bienne"},"canton":{"key":"2","code":"BE","name":"Bern / Berne"},"status":"Real"},{"key":"10050865","name":"Dotzigenstrasse","postalCode":"2556","locality":"Scheuren","commune":{"key":"747","name":"Scheuren","shortName":"Scheuren"},"district":{"key":"242","name":"Verwaltungskreis Biel/Bienne"},"canton":{"key":"2","code":"BE","name":"Bern / Berne"},"status":"Real"},{"key":"10012019","name":"Fenchern","postalCode":"2556","locality":"Scheuren","commune":{"key":"747","name":"Scheuren","shortName":"Scheuren"},"district":{"key":"242","name":"Verwaltungskreis Biel/Bienne"},"canton":{"key":"2","code":"BE","name":"Bern / Berne"},"status":"Real"},{"key":"10147766","name":"Gartenweg","postalCode":"2556","locality":"Scheuren","commune":{"key":"747","name":"Scheuren","shortName":"Scheuren"},"district":{"key":"242","name":"Verwaltungskreis Biel/Bienne"},"canton":{"key":"2","code":"BE","name":"Bern / Berne"},"status":"Real"},{"key":"10086393","name":"Grünenbrach","postalCode":"2556","locality":"Scheuren","commune":{"key":"747","name":"Scheuren","shortName":"Scheuren"},"district":{"key":"242","name":"Verwaltungskreis Biel/Bienne"},"canton":{"key":"2","code":"BE","name":"Bern / Berne"},"status":"Real"},{"key":"10012020","name":"Grünweg","postalCode":"2556","locality":"Scheuren","commune":{"key":"747","name":"Scheuren","shortName":"Scheuren"},"district":{"key":"242","name":"Verwaltungskreis Biel/Bienne"},"canton":{"key":"2","code":"BE","name":"Bern / Berne"},"status":"Real"},{"key":"10059405","name":"Hauptstrasse","postalCode":"2556","locality":"Scheuren","commune":{"key":"747","name":"Scheuren","shortName":"Scheuren"},"district":{"key":"242","name":"Verwaltungskreis Biel/Bienne"},"canton":{"key":"2","code":"BE","name":"Bern / Berne"},"status":"Real"},{"key":"10012021","name":"Hubelweg","postalCode":"2556","locality":"Scheuren","commune":{"key":"747","name":"Scheuren","shortName":"Scheuren"},"district":{"key":"242","name":"Verwaltungskreis Biel/Bienne"},"canton":{"key":"2","code":"BE","name":"Bern / Berne"},"status":"Real"},{"key":"10186476","name":"Juraweg","postalCode":"2556","locality":"Scheuren","commune":{"key":"747","name":"Scheuren","shortName":"Scheuren"},"district":{"key":"242","name":"Verwaltungskreis Biel/Bienne"},"canton":{"key":"2","code":"BE","name":"Bern / Berne"},"status":"Real"},{"key":"10086394","name":"Kanalstrasse","postalCode":"2556","locality":"Scheuren","commune":{"key":"747","name":"Scheuren","shortName":"Scheuren"},"district":{"key":"242","name":"Verwaltungskreis Biel/Bienne"},"canton":{"key":"2","code":"BE","name":"Bern / Berne"},"status":"Real"},{"key":"10240864","name":"Langackerweg","postalCode":"2556","locality":"Scheuren","commune":{"key":"747","name":"Scheuren","shortName":"Scheuren"},"district":{"key":"242","name":"Verwaltungskreis Biel/Bienne"},"canton":{"key":"2","code":"BE","name":"Bern / Berne"},"status":"Real"},{"key":"10012022","name":"Mattenweg","postalCode":"2556","locality":"Scheuren","commune":{"key":"747","name":"Scheuren","shortName":"Scheuren"},"district":{"key":"242","name":"Verwaltungskreis Biel/Bienne"},"canton":{"key":"2","code":"BE","name":"Bern / Berne"},"status":"Real"},{"key":"10050866","name":"Meienriedweg","postalCode":"2556","locality":"Scheuren","commune":{"key":"747","name":"Scheuren","shortName":"Scheuren"},"district":{"key":"242","name":"Verwaltungskreis Biel/Bienne"},"canton":{"key":"2","code":"BE","name":"Bern / Berne"},"status":"Real"},{"key":"10112507","name":"Meisenweg","postalCode":"2556","locality":"Scheuren","commune":{"key":"747","name":"Scheuren","shortName":"Scheuren"},"district":{"key":"242","name":"Verwaltungskreis Biel/Bienne"},"canton":{"key":"2","code":"BE","name":"Bern / Berne"},"status":"Real"},{"key":"10104755","name":"Obere Allmet","postalCode":"2556","locality":"Scheuren","commune":{"key":"747","name":"Scheuren","shortName":"Scheuren"},"district":{"key":"242","name":"Verwaltungskreis Biel/Bienne"},"canton":{"key":"2","code":"BE","name":"Bern / Berne"},"status":"Real"},{"key":"10219377","name":"Tennisweg","postalCode":"2556","locality":"Scheuren","commune":{"key":"747","name":"Scheuren","shortName":"Scheuren"},"district":{"key":"242","name":"Verwaltungskreis Biel/Bienne"},"canton":{"key":"2","code":"BE","name":"Bern / Berne"},"status":"Real"},]