[{"name":"Brassenweg","postalCode":"24897","locality":"Ulsnis","municipality":{"key":"01059094","name":"Ulsnis","type":"Kreisangehörige_Gemeinde"},"district":{"key":"01059","name":"Schleswig-Flensburg","type":"Kreis"},"federalState":{"key":"01","name":"Schleswig-Holstein"}},{"name":"Dallacker","postalCode":"24897","locality":"Ulsnis","municipality":{"key":"01059094","name":"Ulsnis","type":"Kreisangehörige_Gemeinde"},"district":{"key":"01059","name":"Schleswig-Flensburg","type":"Kreis"},"federalState":{"key":"01","name":"Schleswig-Holstein"}},{"name":"Düttnis","postalCode":"24897","locality":"Ulsnis","municipality":{"key":"01059094","name":"Ulsnis","type":"Kreisangehörige_Gemeinde"},"district":{"key":"01059","name":"Schleswig-Flensburg","type":"Kreis"},"federalState":{"key":"01","name":"Schleswig-Holstein"}},{"name":"Fischerstr.","postalCode":"24897","locality":"Ulsnis","municipality":{"key":"01059094","name":"Ulsnis","type":"Kreisangehörige_Gemeinde"},"district":{"key":"01059","name":"Schleswig-Flensburg","type":"Kreis"},"federalState":{"key":"01","name":"Schleswig-Holstein"}},{"name":"Gunneby","postalCode":"24897","locality":"Ulsnis","municipality":{"key":"01059094","name":"Ulsnis","type":"Kreisangehörige_Gemeinde"},"district":{"key":"01059","name":"Schleswig-Flensburg","type":"Kreis"},"federalState":{"key":"01","name":"Schleswig-Holstein"}},{"name":"Hagab","postalCode":"24897","locality":"Ulsnis","municipality":{"key":"01059094","name":"Ulsnis","type":"Kreisangehörige_Gemeinde"},"district":{"key":"01059","name":"Schleswig-Flensburg","type":"Kreis"},"federalState":{"key":"01","name":"Schleswig-Holstein"}},{"name":"Hesselmühle","postalCode":"24897","locality":"Ulsnis","municipality":{"key":"01059094","name":"Ulsnis","type":"Kreisangehörige_Gemeinde"},"district":{"key":"01059","name":"Schleswig-Flensburg","type":"Kreis"},"federalState":{"key":"01","name":"Schleswig-Holstein"}},{"name":"Hestoft","postalCode":"24897","locality":"Ulsnis","municipality":{"key":"01059094","name":"Ulsnis","type":"Kreisangehörige_Gemeinde"},"district":{"key":"01059","name":"Schleswig-Flensburg","type":"Kreis"},"federalState":{"key":"01","name":"Schleswig-Holstein"}},{"name":"Hestoft-Nord","postalCode":"24897","locality":"Ulsnis","municipality":{"key":"01059094","name":"Ulsnis","type":"Kreisangehörige_Gemeinde"},"district":{"key":"01059","name":"Schleswig-Flensburg","type":"Kreis"},"federalState":{"key":"01","name":"Schleswig-Holstein"}},{"name":"Kius","postalCode":"24897","locality":"Ulsnis","municipality":{"key":"01059094","name":"Ulsnis","type":"Kreisangehörige_Gemeinde"},"district":{"key":"01059","name":"Schleswig-Flensburg","type":"Kreis"},"federalState":{"key":"01","name":"Schleswig-Holstein"}},{"name":"Knopper Weg","postalCode":"24897","locality":"Ulsnis","municipality":{"key":"01059094","name":"Ulsnis","type":"Kreisangehörige_Gemeinde"},"district":{"key":"01059","name":"Schleswig-Flensburg","type":"Kreis"},"federalState":{"key":"01","name":"Schleswig-Holstein"}},{"name":"Nordschau","postalCode":"24897","locality":"Ulsnis","municipality":{"key":"01059094","name":"Ulsnis","type":"Kreisangehörige_Gemeinde"},"district":{"key":"01059","name":"Schleswig-Flensburg","type":"Kreis"},"federalState":{"key":"01","name":"Schleswig-Holstein"}},{"name":"Raiffeisenstr.","postalCode":"24897","locality":"Ulsnis","municipality":{"key":"01059094","name":"Ulsnis","type":"Kreisangehörige_Gemeinde"},"district":{"key":"01059","name":"Schleswig-Flensburg","type":"Kreis"},"federalState":{"key":"01","name":"Schleswig-Holstein"}},{"name":"Schleidörferstr.","postalCode":"24897","locality":"Ulsnis","municipality":{"key":"01059094","name":"Ulsnis","type":"Kreisangehörige_Gemeinde"},"district":{"key":"01059","name":"Schleswig-Flensburg","type":"Kreis"},"federalState":{"key":"01","name":"Schleswig-Holstein"}},{"name":"Schleidörfer Str.","postalCode":"24897","locality":"Ulsnis","municipality":{"key":"01059094","name":"Ulsnis","type":"Kreisangehörige_Gemeinde"},"district":{"key":"01059","name":"Schleswig-Flensburg","type":"Kreis"},"federalState":{"key":"01","name":"Schleswig-Holstein"}},{"name":"Stauertwedt","postalCode":"24897","locality":"Ulsnis","municipality":{"key":"01059094","name":"Ulsnis","type":"Kreisangehörige_Gemeinde"},"district":{"key":"01059","name":"Schleswig-Flensburg","type":"Kreis"},"federalState":{"key":"01","name":"Schleswig-Holstein"}},{"name":"Strandweg","postalCode":"24897","locality":"Ulsnis","municipality":{"key":"01059094","name":"Ulsnis","type":"Kreisangehörige_Gemeinde"},"district":{"key":"01059","name":"Schleswig-Flensburg","type":"Kreis"},"federalState":{"key":"01","name":"Schleswig-Holstein"}},{"name":"Süderfeld","postalCode":"24897","locality":"Ulsnis","municipality":{"key":"01059094","name":"Ulsnis","type":"Kreisangehörige_Gemeinde"},"district":{"key":"01059","name":"Schleswig-Flensburg","type":"Kreis"},"federalState":{"key":"01","name":"Schleswig-Holstein"}},{"name":"Süderholzstr.","postalCode":"24897","locality":"Ulsnis","municipality":{"key":"01059094","name":"Ulsnis","type":"Kreisangehörige_Gemeinde"},"district":{"key":"01059","name":"Schleswig-Flensburg","type":"Kreis"},"federalState":{"key":"01","name":"Schleswig-Holstein"}},{"name":"Süderlandstr.","postalCode":"24897","locality":"Ulsnis","municipality":{"key":"01059094","name":"Ulsnis","type":"Kreisangehörige_Gemeinde"},"district":{"key":"01059","name":"Schleswig-Flensburg","type":"Kreis"},"federalState":{"key":"01","name":"Schleswig-Holstein"}},{"name":"Ukeleiweg","postalCode":"24897","locality":"Ulsnis","municipality":{"key":"01059094","name":"Ulsnis","type":"Kreisangehörige_Gemeinde"},"district":{"key":"01059","name":"Schleswig-Flensburg","type":"Kreis"},"federalState":{"key":"01","name":"Schleswig-Holstein"}},{"name":"Ulsnisfeld","postalCode":"24897","locality":"Ulsnis","municipality":{"key":"01059094","name":"Ulsnis","type":"Kreisangehörige_Gemeinde"},"district":{"key":"01059","name":"Schleswig-Flensburg","type":"Kreis"},"federalState":{"key":"01","name":"Schleswig-Holstein"}},{"name":"Ulsnishöh","postalCode":"24897","locality":"Ulsnis","municipality":{"key":"01059094","name":"Ulsnis","type":"Kreisangehörige_Gemeinde"},"district":{"key":"01059","name":"Schleswig-Flensburg","type":"Kreis"},"federalState":{"key":"01","name":"Schleswig-Holstein"}},{"name":"Ulsnis-Kirchenholz","postalCode":"24897","locality":"Ulsnis","municipality":{"key":"01059094","name":"Ulsnis","type":"Kreisangehörige_Gemeinde"},"district":{"key":"01059","name":"Schleswig-Flensburg","type":"Kreis"},"federalState":{"key":"01","name":"Schleswig-Holstein"}},{"name":"Ulsnisstrand","postalCode":"24897","locality":"Ulsnis","municipality":{"key":"01059094","name":"Ulsnis","type":"Kreisangehörige_Gemeinde"},"district":{"key":"01059","name":"Schleswig-Flensburg","type":"Kreis"},"federalState":{"key":"01","name":"Schleswig-Holstein"}},{"name":"Zum Pastorat","postalCode":"24897","locality":"Ulsnis","municipality":{"key":"01059094","name":"Ulsnis","type":"Kreisangehörige_Gemeinde"},"district":{"key":"01059","name":"Schleswig-Flensburg","type":"Kreis"},"federalState":{"key":"01","name":"Schleswig-Holstein"}},]