[{"name":"Akazienweg","postalCode":"15377","locality":"Waldsieversdorf","municipality":{"key":"12064484","name":"Waldsieversdorf","type":"Kreisangehörige_Gemeinde"},"district":{"key":"12064","name":"Märkisch-Oderland","type":"Landkreis"},"federalState":{"key":"12","name":"Brandenburg"}},{"name":"Am Buchhorst","postalCode":"15377","locality":"Waldsieversdorf","municipality":{"key":"12064484","name":"Waldsieversdorf","type":"Kreisangehörige_Gemeinde"},"district":{"key":"12064","name":"Märkisch-Oderland","type":"Landkreis"},"federalState":{"key":"12","name":"Brandenburg"}},{"name":"Am Krummen Pfuhl","postalCode":"15377","locality":"Waldsieversdorf","municipality":{"key":"12064484","name":"Waldsieversdorf","type":"Kreisangehörige_Gemeinde"},"district":{"key":"12064","name":"Märkisch-Oderland","type":"Landkreis"},"federalState":{"key":"12","name":"Brandenburg"}},{"name":"Am Mühlenfließ","postalCode":"15377","locality":"Waldsieversdorf","municipality":{"key":"12064484","name":"Waldsieversdorf","type":"Kreisangehörige_Gemeinde"},"district":{"key":"12064","name":"Märkisch-Oderland","type":"Landkreis"},"federalState":{"key":"12","name":"Brandenburg"}},{"name":"Am Vogelsang","postalCode":"15377","locality":"Waldsieversdorf","municipality":{"key":"12064484","name":"Waldsieversdorf","type":"Kreisangehörige_Gemeinde"},"district":{"key":"12064","name":"Märkisch-Oderland","type":"Landkreis"},"federalState":{"key":"12","name":"Brandenburg"}},{"name":"An der Himmelsleiter","postalCode":"15377","locality":"Waldsieversdorf","municipality":{"key":"12064484","name":"Waldsieversdorf","type":"Kreisangehörige_Gemeinde"},"district":{"key":"12064","name":"Märkisch-Oderland","type":"Landkreis"},"federalState":{"key":"12","name":"Brandenburg"}},{"name":"An der Kleinbahn","postalCode":"15377","locality":"Waldsieversdorf","municipality":{"key":"12064484","name":"Waldsieversdorf","type":"Kreisangehörige_Gemeinde"},"district":{"key":"12064","name":"Märkisch-Oderland","type":"Landkreis"},"federalState":{"key":"12","name":"Brandenburg"}},{"name":"Bergstr.","postalCode":"15377","locality":"Waldsieversdorf","municipality":{"key":"12064484","name":"Waldsieversdorf","type":"Kreisangehörige_Gemeinde"},"district":{"key":"12064","name":"Märkisch-Oderland","type":"Landkreis"},"federalState":{"key":"12","name":"Brandenburg"}},{"name":"Breite Str.","postalCode":"15377","locality":"Waldsieversdorf","municipality":{"key":"12064484","name":"Waldsieversdorf","type":"Kreisangehörige_Gemeinde"},"district":{"key":"12064","name":"Märkisch-Oderland","type":"Landkreis"},"federalState":{"key":"12","name":"Brandenburg"}},{"name":"Buckower Weg","postalCode":"15377","locality":"Waldsieversdorf","municipality":{"key":"12064484","name":"Waldsieversdorf","type":"Kreisangehörige_Gemeinde"},"district":{"key":"12064","name":"Märkisch-Oderland","type":"Landkreis"},"federalState":{"key":"12","name":"Brandenburg"}},{"name":"Dahmsdorfer Str.","postalCode":"15377","locality":"Waldsieversdorf","municipality":{"key":"12064484","name":"Waldsieversdorf","type":"Kreisangehörige_Gemeinde"},"district":{"key":"12064","name":"Märkisch-Oderland","type":"Landkreis"},"federalState":{"key":"12","name":"Brandenburg"}},{"name":"Eberswalder Chaussee","postalCode":"15377","locality":"Waldsieversdorf","municipality":{"key":"12064484","name":"Waldsieversdorf","type":"Kreisangehörige_Gemeinde"},"district":{"key":"12064","name":"Märkisch-Oderland","type":"Landkreis"},"federalState":{"key":"12","name":"Brandenburg"}},{"name":"Erich-Ritter-Weg","postalCode":"15377","locality":"Waldsieversdorf","municipality":{"key":"12064484","name":"Waldsieversdorf","type":"Kreisangehörige_Gemeinde"},"district":{"key":"12064","name":"Märkisch-Oderland","type":"Landkreis"},"federalState":{"key":"12","name":"Brandenburg"}},{"name":"Friedensstr.","postalCode":"15377","locality":"Waldsieversdorf","municipality":{"key":"12064484","name":"Waldsieversdorf","type":"Kreisangehörige_Gemeinde"},"district":{"key":"12064","name":"Märkisch-Oderland","type":"Landkreis"},"federalState":{"key":"12","name":"Brandenburg"}},{"name":"Geschwister-Scholl-Str.","postalCode":"15377","locality":"Waldsieversdorf","municipality":{"key":"12064484","name":"Waldsieversdorf","type":"Kreisangehörige_Gemeinde"},"district":{"key":"12064","name":"Märkisch-Oderland","type":"Landkreis"},"federalState":{"key":"12","name":"Brandenburg"}},{"name":"Hasensprung","postalCode":"15377","locality":"Waldsieversdorf","municipality":{"key":"12064484","name":"Waldsieversdorf","type":"Kreisangehörige_Gemeinde"},"district":{"key":"12064","name":"Märkisch-Oderland","type":"Landkreis"},"federalState":{"key":"12","name":"Brandenburg"}},{"name":"Kiefernweg","postalCode":"15377","locality":"Waldsieversdorf","municipality":{"key":"12064484","name":"Waldsieversdorf","type":"Kreisangehörige_Gemeinde"},"district":{"key":"12064","name":"Märkisch-Oderland","type":"Landkreis"},"federalState":{"key":"12","name":"Brandenburg"}},{"name":"Kindermanndenkmal","postalCode":"15377","locality":"Waldsieversdorf","municipality":{"key":"12064484","name":"Waldsieversdorf","type":"Kreisangehörige_Gemeinde"},"district":{"key":"12064","name":"Märkisch-Oderland","type":"Landkreis"},"federalState":{"key":"12","name":"Brandenburg"}},{"name":"Kindermannstr.","postalCode":"15377","locality":"Waldsieversdorf","municipality":{"key":"12064484","name":"Waldsieversdorf","type":"Kreisangehörige_Gemeinde"},"district":{"key":"12064","name":"Märkisch-Oderland","type":"Landkreis"},"federalState":{"key":"12","name":"Brandenburg"}},{"name":"Kriegerdenkmal","postalCode":"15377","locality":"Waldsieversdorf","municipality":{"key":"12064484","name":"Waldsieversdorf","type":"Kreisangehörige_Gemeinde"},"district":{"key":"12064","name":"Märkisch-Oderland","type":"Landkreis"},"federalState":{"key":"12","name":"Brandenburg"}},{"name":"Lindenplatz","postalCode":"15377","locality":"Waldsieversdorf","municipality":{"key":"12064484","name":"Waldsieversdorf","type":"Kreisangehörige_Gemeinde"},"district":{"key":"12064","name":"Märkisch-Oderland","type":"Landkreis"},"federalState":{"key":"12","name":"Brandenburg"}},{"name":"Margaretenstr.","postalCode":"15377","locality":"Waldsieversdorf","municipality":{"key":"12064484","name":"Waldsieversdorf","type":"Kreisangehörige_Gemeinde"},"district":{"key":"12064","name":"Märkisch-Oderland","type":"Landkreis"},"federalState":{"key":"12","name":"Brandenburg"}},{"name":"Mittelstr.","postalCode":"15377","locality":"Waldsieversdorf","municipality":{"key":"12064484","name":"Waldsieversdorf","type":"Kreisangehörige_Gemeinde"},"district":{"key":"12064","name":"Märkisch-Oderland","type":"Landkreis"},"federalState":{"key":"12","name":"Brandenburg"}},{"name":"Sauerkirschenallee","postalCode":"15377","locality":"Waldsieversdorf","municipality":{"key":"12064484","name":"Waldsieversdorf","type":"Kreisangehörige_Gemeinde"},"district":{"key":"12064","name":"Märkisch-Oderland","type":"Landkreis"},"federalState":{"key":"12","name":"Brandenburg"}},{"name":"Schwarzer Weg","postalCode":"15377","locality":"Waldsieversdorf","municipality":{"key":"12064484","name":"Waldsieversdorf","type":"Kreisangehörige_Gemeinde"},"district":{"key":"12064","name":"Märkisch-Oderland","type":"Landkreis"},"federalState":{"key":"12","name":"Brandenburg"}},{"name":"Seestr.","postalCode":"15377","locality":"Waldsieversdorf","municipality":{"key":"12064484","name":"Waldsieversdorf","type":"Kreisangehörige_Gemeinde"},"district":{"key":"12064","name":"Märkisch-Oderland","type":"Landkreis"},"federalState":{"key":"12","name":"Brandenburg"}},{"name":"Str. zum Roten Luch","postalCode":"15377","locality":"Waldsieversdorf","municipality":{"key":"12064484","name":"Waldsieversdorf","type":"Kreisangehörige_Gemeinde"},"district":{"key":"12064","name":"Märkisch-Oderland","type":"Landkreis"},"federalState":{"key":"12","name":"Brandenburg"}},{"name":"Süßkirschenallee","postalCode":"15377","locality":"Waldsieversdorf","municipality":{"key":"12064484","name":"Waldsieversdorf","type":"Kreisangehörige_Gemeinde"},"district":{"key":"12064","name":"Märkisch-Oderland","type":"Landkreis"},"federalState":{"key":"12","name":"Brandenburg"}},{"name":"Waldstr.","postalCode":"15377","locality":"Waldsieversdorf","municipality":{"key":"12064484","name":"Waldsieversdorf","type":"Kreisangehörige_Gemeinde"},"district":{"key":"12064","name":"Märkisch-Oderland","type":"Landkreis"},"federalState":{"key":"12","name":"Brandenburg"}},{"name":"Weg zum Alten Sportplatz","postalCode":"15377","locality":"Waldsieversdorf","municipality":{"key":"12064484","name":"Waldsieversdorf","type":"Kreisangehörige_Gemeinde"},"district":{"key":"12064","name":"Märkisch-Oderland","type":"Landkreis"},"federalState":{"key":"12","name":"Brandenburg"}},{"name":"Wilhelm-Pieck-Str.","postalCode":"15377","locality":"Waldsieversdorf","municipality":{"key":"12064484","name":"Waldsieversdorf","type":"Kreisangehörige_Gemeinde"},"district":{"key":"12064","name":"Märkisch-Oderland","type":"Landkreis"},"federalState":{"key":"12","name":"Brandenburg"}},{"name":"Zum Krummen Pfuhl","postalCode":"15377","locality":"Waldsieversdorf","municipality":{"key":"12064484","name":"Waldsieversdorf","type":"Kreisangehörige_Gemeinde"},"district":{"key":"12064","name":"Märkisch-Oderland","type":"Landkreis"},"federalState":{"key":"12","name":"Brandenburg"}},]