[{"name":"2","postalCode":"37318","locality":"Dietzenrode/Vatterode","municipality":{"key":"16061024","name":"Dietzenrode/Vatterode","type":"Kreisangehörige_Gemeinde"},"district":{"key":"16061","name":"Eichsfeld","type":"Landkreis"},"federalState":{"key":"16","name":"Thüringen"}},{"name":"Am Mühlgraben","postalCode":"37318","locality":"Dietzenrode/Vatterode","municipality":{"key":"16061024","name":"Dietzenrode/Vatterode","type":"Kreisangehörige_Gemeinde"},"district":{"key":"16061","name":"Eichsfeld","type":"Landkreis"},"federalState":{"key":"16","name":"Thüringen"}},{"name":"An der Walse","postalCode":"37318","locality":"Dietzenrode/Vatterode","municipality":{"key":"16061024","name":"Dietzenrode/Vatterode","type":"Kreisangehörige_Gemeinde"},"district":{"key":"16061","name":"Eichsfeld","type":"Landkreis"},"federalState":{"key":"16","name":"Thüringen"}},{"name":"Bahnhofstr.","postalCode":"99976","locality":"Südeichsfeld","municipality":{"key":"16064074","name":"Südeichsfeld","type":"Kreisangehörige_Gemeinde"},"district":{"key":"16064","name":"Unstrut-Hainich-Kreis","type":"Landkreis"},"federalState":{"key":"16","name":"Thüringen"}},{"name":"Bahnhofstr.","postalCode":"99988","locality":"Südeichsfeld","municipality":{"key":"16064074","name":"Südeichsfeld","type":"Kreisangehörige_Gemeinde"},"district":{"key":"16064","name":"Unstrut-Hainich-Kreis","type":"Landkreis"},"federalState":{"key":"16","name":"Thüringen"}},{"name":"Bahnhofsweg","postalCode":"99988","locality":"Südeichsfeld","municipality":{"key":"16064074","name":"Südeichsfeld","type":"Kreisangehörige_Gemeinde"},"district":{"key":"16064","name":"Unstrut-Hainich-Kreis","type":"Landkreis"},"federalState":{"key":"16","name":"Thüringen"}},{"name":"Bei der Kirche","postalCode":"99988","locality":"Südeichsfeld","municipality":{"key":"16064074","name":"Südeichsfeld","type":"Kreisangehörige_Gemeinde"},"district":{"key":"16064","name":"Unstrut-Hainich-Kreis","type":"Landkreis"},"federalState":{"key":"16","name":"Thüringen"}},{"name":"Bergstr.","postalCode":"99976","locality":"Südeichsfeld","municipality":{"key":"16064074","name":"Südeichsfeld","type":"Kreisangehörige_Gemeinde"},"district":{"key":"16064","name":"Unstrut-Hainich-Kreis","type":"Landkreis"},"federalState":{"key":"16","name":"Thüringen"}},{"name":"Bergstr.","postalCode":"99988","locality":"Südeichsfeld","municipality":{"key":"16064074","name":"Südeichsfeld","type":"Kreisangehörige_Gemeinde"},"district":{"key":"16064","name":"Unstrut-Hainich-Kreis","type":"Landkreis"},"federalState":{"key":"16","name":"Thüringen"}},{"name":"Birkenstr.","postalCode":"99988","locality":"Südeichsfeld","municipality":{"key":"16064074","name":"Südeichsfeld","type":"Kreisangehörige_Gemeinde"},"district":{"key":"16064","name":"Unstrut-Hainich-Kreis","type":"Landkreis"},"federalState":{"key":"16","name":"Thüringen"}},{"name":"Bischofstein","postalCode":"99976","locality":"Südeichsfeld","municipality":{"key":"16064074","name":"Südeichsfeld","type":"Kreisangehörige_Gemeinde"},"district":{"key":"16064","name":"Unstrut-Hainich-Kreis","type":"Landkreis"},"federalState":{"key":"16","name":"Thüringen"}},{"name":"Blankental","postalCode":"99976","locality":"Südeichsfeld","municipality":{"key":"16064074","name":"Südeichsfeld","type":"Kreisangehörige_Gemeinde"},"district":{"key":"16064","name":"Unstrut-Hainich-Kreis","type":"Landkreis"},"federalState":{"key":"16","name":"Thüringen"}},{"name":"Bornberg","postalCode":"99988","locality":"Südeichsfeld","municipality":{"key":"16064074","name":"Südeichsfeld","type":"Kreisangehörige_Gemeinde"},"district":{"key":"16064","name":"Unstrut-Hainich-Kreis","type":"Landkreis"},"federalState":{"key":"16","name":"Thüringen"}},{"name":"Braugasse","postalCode":"99988","locality":"Südeichsfeld","municipality":{"key":"16064074","name":"Südeichsfeld","type":"Kreisangehörige_Gemeinde"},"district":{"key":"16064","name":"Unstrut-Hainich-Kreis","type":"Landkreis"},"federalState":{"key":"16","name":"Thüringen"}},{"name":"Brückenstr.","postalCode":"99988","locality":"Südeichsfeld","municipality":{"key":"16064074","name":"Südeichsfeld","type":"Kreisangehörige_Gemeinde"},"district":{"key":"16064","name":"Unstrut-Hainich-Kreis","type":"Landkreis"},"federalState":{"key":"16","name":"Thüringen"}},{"name":"Brüderstr.","postalCode":"99988","locality":"Südeichsfeld","municipality":{"key":"16064074","name":"Südeichsfeld","type":"Kreisangehörige_Gemeinde"},"district":{"key":"16064","name":"Unstrut-Hainich-Kreis","type":"Landkreis"},"federalState":{"key":"16","name":"Thüringen"}},{"name":"Brunkelstr.","postalCode":"99988","locality":"Südeichsfeld","municipality":{"key":"16064074","name":"Südeichsfeld","type":"Kreisangehörige_Gemeinde"},"district":{"key":"16064","name":"Unstrut-Hainich-Kreis","type":"Landkreis"},"federalState":{"key":"16","name":"Thüringen"}},{"name":"Buchenweg","postalCode":"99988","locality":"Südeichsfeld","municipality":{"key":"16064074","name":"Südeichsfeld","type":"Kreisangehörige_Gemeinde"},"district":{"key":"16064","name":"Unstrut-Hainich-Kreis","type":"Landkreis"},"federalState":{"key":"16","name":"Thüringen"}},{"name":"Burgstr.","postalCode":"99976","locality":"Südeichsfeld","municipality":{"key":"16064074","name":"Südeichsfeld","type":"Kreisangehörige_Gemeinde"},"district":{"key":"16064","name":"Unstrut-Hainich-Kreis","type":"Landkreis"},"federalState":{"key":"16","name":"Thüringen"}},{"name":"Dorfstr.","postalCode":"37318","locality":"Dietzenrode/Vatterode","municipality":{"key":"16061024","name":"Dietzenrode/Vatterode","type":"Kreisangehörige_Gemeinde"},"district":{"key":"16061","name":"Eichsfeld","type":"Landkreis"},"federalState":{"key":"16","name":"Thüringen"}},{"name":"Effelder Weg","postalCode":"99976","locality":"Südeichsfeld","municipality":{"key":"16064074","name":"Südeichsfeld","type":"Kreisangehörige_Gemeinde"},"district":{"key":"16064","name":"Unstrut-Hainich-Kreis","type":"Landkreis"},"federalState":{"key":"16","name":"Thüringen"}},{"name":"Eichsfelder Str.","postalCode":"99988","locality":"Südeichsfeld","municipality":{"key":"16064074","name":"Südeichsfeld","type":"Kreisangehörige_Gemeinde"},"district":{"key":"16064","name":"Unstrut-Hainich-Kreis","type":"Landkreis"},"federalState":{"key":"16","name":"Thüringen"}},{"name":"Eichtal","postalCode":"99988","locality":"Südeichsfeld","municipality":{"key":"16064074","name":"Südeichsfeld","type":"Kreisangehörige_Gemeinde"},"district":{"key":"16064","name":"Unstrut-Hainich-Kreis","type":"Landkreis"},"federalState":{"key":"16","name":"Thüringen"}},{"name":"Eisenacher Str.","postalCode":"99988","locality":"Südeichsfeld","municipality":{"key":"16064074","name":"Südeichsfeld","type":"Kreisangehörige_Gemeinde"},"district":{"key":"16064","name":"Unstrut-Hainich-Kreis","type":"Landkreis"},"federalState":{"key":"16","name":"Thüringen"}},{"name":"Feldgasse","postalCode":"99976","locality":"Südeichsfeld","municipality":{"key":"16064074","name":"Südeichsfeld","type":"Kreisangehörige_Gemeinde"},"district":{"key":"16064","name":"Unstrut-Hainich-Kreis","type":"Landkreis"},"federalState":{"key":"16","name":"Thüringen"}},{"name":"Feldstr.","postalCode":"99988","locality":"Südeichsfeld","municipality":{"key":"16064074","name":"Südeichsfeld","type":"Kreisangehörige_Gemeinde"},"district":{"key":"16064","name":"Unstrut-Hainich-Kreis","type":"Landkreis"},"federalState":{"key":"16","name":"Thüringen"}},{"name":"Feldweg","postalCode":"99988","locality":"Südeichsfeld","municipality":{"key":"16064074","name":"Südeichsfeld","type":"Kreisangehörige_Gemeinde"},"district":{"key":"16064","name":"Unstrut-Hainich-Kreis","type":"Landkreis"},"federalState":{"key":"16","name":"Thüringen"}},{"name":"Festplatz","postalCode":"99976","locality":"Südeichsfeld","municipality":{"key":"16064074","name":"Südeichsfeld","type":"Kreisangehörige_Gemeinde"},"district":{"key":"16064","name":"Unstrut-Hainich-Kreis","type":"Landkreis"},"federalState":{"key":"16","name":"Thüringen"}},{"name":"Fichtenstr.","postalCode":"99988","locality":"Südeichsfeld","municipality":{"key":"16064074","name":"Südeichsfeld","type":"Kreisangehörige_Gemeinde"},"district":{"key":"16064","name":"Unstrut-Hainich-Kreis","type":"Landkreis"},"federalState":{"key":"16","name":"Thüringen"}},{"name":"Forsthaus","postalCode":"99976","locality":"Südeichsfeld","municipality":{"key":"16064074","name":"Südeichsfeld","type":"Kreisangehörige_Gemeinde"},"district":{"key":"16064","name":"Unstrut-Hainich-Kreis","type":"Landkreis"},"federalState":{"key":"16","name":"Thüringen"}},{"name":"Forsthaus Bischofstein","postalCode":"99976","locality":"Südeichsfeld","municipality":{"key":"16064074","name":"Südeichsfeld","type":"Kreisangehörige_Gemeinde"},"district":{"key":"16064","name":"Unstrut-Hainich-Kreis","type":"Landkreis"},"federalState":{"key":"16","name":"Thüringen"}},{"name":"Franzstr.","postalCode":"99988","locality":"Südeichsfeld","municipality":{"key":"16064074","name":"Südeichsfeld","type":"Kreisangehörige_Gemeinde"},"district":{"key":"16064","name":"Unstrut-Hainich-Kreis","type":"Landkreis"},"federalState":{"key":"16","name":"Thüringen"}},{"name":"Friedensstr.","postalCode":"99976","locality":"Südeichsfeld","municipality":{"key":"16064074","name":"Südeichsfeld","type":"Kreisangehörige_Gemeinde"},"district":{"key":"16064","name":"Unstrut-Hainich-Kreis","type":"Landkreis"},"federalState":{"key":"16","name":"Thüringen"}},{"name":"Friedensstr.","postalCode":"99988","locality":"Südeichsfeld","municipality":{"key":"16064074","name":"Südeichsfeld","type":"Kreisangehörige_Gemeinde"},"district":{"key":"16064","name":"Unstrut-Hainich-Kreis","type":"Landkreis"},"federalState":{"key":"16","name":"Thüringen"}},{"name":"Friedhofstr.","postalCode":"99988","locality":"Südeichsfeld","municipality":{"key":"16064074","name":"Südeichsfeld","type":"Kreisangehörige_Gemeinde"},"district":{"key":"16064","name":"Unstrut-Hainich-Kreis","type":"Landkreis"},"federalState":{"key":"16","name":"Thüringen"}},{"name":"Friedrichstr.","postalCode":"99988","locality":"Südeichsfeld","municipality":{"key":"16064074","name":"Südeichsfeld","type":"Kreisangehörige_Gemeinde"},"district":{"key":"16064","name":"Unstrut-Hainich-Kreis","type":"Landkreis"},"federalState":{"key":"16","name":"Thüringen"}},{"name":"Fußgasse","postalCode":"99988","locality":"Südeichsfeld","municipality":{"key":"16064074","name":"Südeichsfeld","type":"Kreisangehörige_Gemeinde"},"district":{"key":"16064","name":"Unstrut-Hainich-Kreis","type":"Landkreis"},"federalState":{"key":"16","name":"Thüringen"}},{"name":"Gaibergweg","postalCode":"99976","locality":"Südeichsfeld","municipality":{"key":"16064074","name":"Südeichsfeld","type":"Kreisangehörige_Gemeinde"},"district":{"key":"16064","name":"Unstrut-Hainich-Kreis","type":"Landkreis"},"federalState":{"key":"16","name":"Thüringen"}},{"name":"Gartenstr.","postalCode":"99976","locality":"Südeichsfeld","municipality":{"key":"16064074","name":"Südeichsfeld","type":"Kreisangehörige_Gemeinde"},"district":{"key":"16064","name":"Unstrut-Hainich-Kreis","type":"Landkreis"},"federalState":{"key":"16","name":"Thüringen"}},{"name":"Gartenstr.","postalCode":"99988","locality":"Südeichsfeld","municipality":{"key":"16064074","name":"Südeichsfeld","type":"Kreisangehörige_Gemeinde"},"district":{"key":"16064","name":"Unstrut-Hainich-Kreis","type":"Landkreis"},"federalState":{"key":"16","name":"Thüringen"}},{"name":"Gäßchen","postalCode":"99988","locality":"Südeichsfeld","municipality":{"key":"16064074","name":"Südeichsfeld","type":"Kreisangehörige_Gemeinde"},"district":{"key":"16064","name":"Unstrut-Hainich-Kreis","type":"Landkreis"},"federalState":{"key":"16","name":"Thüringen"}},{"name":"Goethestr.","postalCode":"99988","locality":"Südeichsfeld","municipality":{"key":"16064074","name":"Südeichsfeld","type":"Kreisangehörige_Gemeinde"},"district":{"key":"16064","name":"Unstrut-Hainich-Kreis","type":"Landkreis"},"federalState":{"key":"16","name":"Thüringen"}},{"name":"Goldgasse","postalCode":"99976","locality":"Südeichsfeld","municipality":{"key":"16064074","name":"Südeichsfeld","type":"Kreisangehörige_Gemeinde"},"district":{"key":"16064","name":"Unstrut-Hainich-Kreis","type":"Landkreis"},"federalState":{"key":"16","name":"Thüringen"}},{"name":"Grenzstr.","postalCode":"99988","locality":"Südeichsfeld","municipality":{"key":"16064074","name":"Südeichsfeld","type":"Kreisangehörige_Gemeinde"},"district":{"key":"16064","name":"Unstrut-Hainich-Kreis","type":"Landkreis"},"federalState":{"key":"16","name":"Thüringen"}},{"name":"Grünstr.","postalCode":"99988","locality":"Südeichsfeld","municipality":{"key":"16064074","name":"Südeichsfeld","type":"Kreisangehörige_Gemeinde"},"district":{"key":"16064","name":"Unstrut-Hainich-Kreis","type":"Landkreis"},"federalState":{"key":"16","name":"Thüringen"}},{"name":"Hagengasse","postalCode":"99988","locality":"Südeichsfeld","municipality":{"key":"16064074","name":"Südeichsfeld","type":"Kreisangehörige_Gemeinde"},"district":{"key":"16064","name":"Unstrut-Hainich-Kreis","type":"Landkreis"},"federalState":{"key":"16","name":"Thüringen"}},{"name":"Hauptstr.","postalCode":"99976","locality":"Südeichsfeld","municipality":{"key":"16064074","name":"Südeichsfeld","type":"Kreisangehörige_Gemeinde"},"district":{"key":"16064","name":"Unstrut-Hainich-Kreis","type":"Landkreis"},"federalState":{"key":"16","name":"Thüringen"}},{"name":"Hauptstr.","postalCode":"99988","locality":"Südeichsfeld","municipality":{"key":"16064074","name":"Südeichsfeld","type":"Kreisangehörige_Gemeinde"},"district":{"key":"16064","name":"Unstrut-Hainich-Kreis","type":"Landkreis"},"federalState":{"key":"16","name":"Thüringen"}},{"name":"Heinemannstr.","postalCode":"99988","locality":"Südeichsfeld","municipality":{"key":"16064074","name":"Südeichsfeld","type":"Kreisangehörige_Gemeinde"},"district":{"key":"16064","name":"Unstrut-Hainich-Kreis","type":"Landkreis"},"federalState":{"key":"16","name":"Thüringen"}},{"name":"Heinrich-Heine-Str.","postalCode":"99988","locality":"Südeichsfeld","municipality":{"key":"16064074","name":"Südeichsfeld","type":"Kreisangehörige_Gemeinde"},"district":{"key":"16064","name":"Unstrut-Hainich-Kreis","type":"Landkreis"},"federalState":{"key":"16","name":"Thüringen"}},{"name":"Hermann-Löns-Str.","postalCode":"99988","locality":"Südeichsfeld","municipality":{"key":"16064074","name":"Südeichsfeld","type":"Kreisangehörige_Gemeinde"},"district":{"key":"16064","name":"Unstrut-Hainich-Kreis","type":"Landkreis"},"federalState":{"key":"16","name":"Thüringen"}},{"name":"Herrengasse","postalCode":"99976","locality":"Südeichsfeld","municipality":{"key":"16064074","name":"Südeichsfeld","type":"Kreisangehörige_Gemeinde"},"district":{"key":"16064","name":"Unstrut-Hainich-Kreis","type":"Landkreis"},"federalState":{"key":"16","name":"Thüringen"}},{"name":"Herrenstr.","postalCode":"99988","locality":"Südeichsfeld","municipality":{"key":"16064074","name":"Südeichsfeld","type":"Kreisangehörige_Gemeinde"},"district":{"key":"16064","name":"Unstrut-Hainich-Kreis","type":"Landkreis"},"federalState":{"key":"16","name":"Thüringen"}},{"name":"Herzrain","postalCode":"99988","locality":"Südeichsfeld","municipality":{"key":"16064074","name":"Südeichsfeld","type":"Kreisangehörige_Gemeinde"},"district":{"key":"16064","name":"Unstrut-Hainich-Kreis","type":"Landkreis"},"federalState":{"key":"16","name":"Thüringen"}},{"name":"Hinter den Höfen","postalCode":"99988","locality":"Südeichsfeld","municipality":{"key":"16064074","name":"Südeichsfeld","type":"Kreisangehörige_Gemeinde"},"district":{"key":"16064","name":"Unstrut-Hainich-Kreis","type":"Landkreis"},"federalState":{"key":"16","name":"Thüringen"}},{"name":"Hintergasse","postalCode":"99988","locality":"Südeichsfeld","municipality":{"key":"16064074","name":"Südeichsfeld","type":"Kreisangehörige_Gemeinde"},"district":{"key":"16064","name":"Unstrut-Hainich-Kreis","type":"Landkreis"},"federalState":{"key":"16","name":"Thüringen"}},{"name":"Hinterm Schloß","postalCode":"99988","locality":"Südeichsfeld","municipality":{"key":"16064074","name":"Südeichsfeld","type":"Kreisangehörige_Gemeinde"},"district":{"key":"16064","name":"Unstrut-Hainich-Kreis","type":"Landkreis"},"federalState":{"key":"16","name":"Thüringen"}},{"name":"Hohlweg","postalCode":"99988","locality":"Südeichsfeld","municipality":{"key":"16064074","name":"Südeichsfeld","type":"Kreisangehörige_Gemeinde"},"district":{"key":"16064","name":"Unstrut-Hainich-Kreis","type":"Landkreis"},"federalState":{"key":"16","name":"Thüringen"}},{"name":"Im Grunde","postalCode":"99988","locality":"Südeichsfeld","municipality":{"key":"16064074","name":"Südeichsfeld","type":"Kreisangehörige_Gemeinde"},"district":{"key":"16064","name":"Unstrut-Hainich-Kreis","type":"Landkreis"},"federalState":{"key":"16","name":"Thüringen"}},{"name":"Im Gut","postalCode":"99988","locality":"Südeichsfeld","municipality":{"key":"16064074","name":"Südeichsfeld","type":"Kreisangehörige_Gemeinde"},"district":{"key":"16064","name":"Unstrut-Hainich-Kreis","type":"Landkreis"},"federalState":{"key":"16","name":"Thüringen"}},{"name":"Im Kessel","postalCode":"99988","locality":"Südeichsfeld","municipality":{"key":"16064074","name":"Südeichsfeld","type":"Kreisangehörige_Gemeinde"},"district":{"key":"16064","name":"Unstrut-Hainich-Kreis","type":"Landkreis"},"federalState":{"key":"16","name":"Thüringen"}},{"name":"Im Neuen Hof","postalCode":"99988","locality":"Südeichsfeld","municipality":{"key":"16064074","name":"Südeichsfeld","type":"Kreisangehörige_Gemeinde"},"district":{"key":"16064","name":"Unstrut-Hainich-Kreis","type":"Landkreis"},"federalState":{"key":"16","name":"Thüringen"}},{"name":"Jägerstr.","postalCode":"99988","locality":"Südeichsfeld","municipality":{"key":"16064074","name":"Südeichsfeld","type":"Kreisangehörige_Gemeinde"},"district":{"key":"16064","name":"Unstrut-Hainich-Kreis","type":"Landkreis"},"federalState":{"key":"16","name":"Thüringen"}},{"name":"Johannesstr.","postalCode":"99988","locality":"Südeichsfeld","municipality":{"key":"16064074","name":"Südeichsfeld","type":"Kreisangehörige_Gemeinde"},"district":{"key":"16064","name":"Unstrut-Hainich-Kreis","type":"Landkreis"},"federalState":{"key":"16","name":"Thüringen"}},{"name":"Kreisstr.","postalCode":"37318","locality":"Dietzenrode/Vatterode","municipality":{"key":"16061024","name":"Dietzenrode/Vatterode","type":"Kreisangehörige_Gemeinde"},"district":{"key":"16061","name":"Eichsfeld","type":"Landkreis"},"federalState":{"key":"16","name":"Thüringen"}},{"name":"Landstr.","postalCode":"99988","locality":"Südeichsfeld","municipality":{"key":"16064074","name":"Südeichsfeld","type":"Kreisangehörige_Gemeinde"},"district":{"key":"16064","name":"Unstrut-Hainich-Kreis","type":"Landkreis"},"federalState":{"key":"16","name":"Thüringen"}},{"name":"Lengenfelder Weg","postalCode":"99976","locality":"Südeichsfeld","municipality":{"key":"16064074","name":"Südeichsfeld","type":"Kreisangehörige_Gemeinde"},"district":{"key":"16064","name":"Unstrut-Hainich-Kreis","type":"Landkreis"},"federalState":{"key":"16","name":"Thüringen"}},{"name":"Lessingstr.","postalCode":"99988","locality":"Südeichsfeld","municipality":{"key":"16064074","name":"Südeichsfeld","type":"Kreisangehörige_Gemeinde"},"district":{"key":"16064","name":"Unstrut-Hainich-Kreis","type":"Landkreis"},"federalState":{"key":"16","name":"Thüringen"}},{"name":"Lindenstr.","postalCode":"99988","locality":"Südeichsfeld","municipality":{"key":"16064074","name":"Südeichsfeld","type":"Kreisangehörige_Gemeinde"},"district":{"key":"16064","name":"Unstrut-Hainich-Kreis","type":"Landkreis"},"federalState":{"key":"16","name":"Thüringen"}},{"name":"Lindenufer","postalCode":"99976","locality":"Südeichsfeld","municipality":{"key":"16064074","name":"Südeichsfeld","type":"Kreisangehörige_Gemeinde"},"district":{"key":"16064","name":"Unstrut-Hainich-Kreis","type":"Landkreis"},"federalState":{"key":"16","name":"Thüringen"}},{"name":"Mainzerstr.","postalCode":"99988","locality":"Südeichsfeld","municipality":{"key":"16064074","name":"Südeichsfeld","type":"Kreisangehörige_Gemeinde"},"district":{"key":"16064","name":"Unstrut-Hainich-Kreis","type":"Landkreis"},"federalState":{"key":"16","name":"Thüringen"}},{"name":"Marienstr.","postalCode":"99988","locality":"Südeichsfeld","municipality":{"key":"16064074","name":"Südeichsfeld","type":"Kreisangehörige_Gemeinde"},"district":{"key":"16064","name":"Unstrut-Hainich-Kreis","type":"Landkreis"},"federalState":{"key":"16","name":"Thüringen"}},{"name":"Martinsgasse","postalCode":"99976","locality":"Südeichsfeld","municipality":{"key":"16064074","name":"Südeichsfeld","type":"Kreisangehörige_Gemeinde"},"district":{"key":"16064","name":"Unstrut-Hainich-Kreis","type":"Landkreis"},"federalState":{"key":"16","name":"Thüringen"}},{"name":"Mühlengrund","postalCode":"99988","locality":"Südeichsfeld","municipality":{"key":"16064074","name":"Südeichsfeld","type":"Kreisangehörige_Gemeinde"},"district":{"key":"16064","name":"Unstrut-Hainich-Kreis","type":"Landkreis"},"federalState":{"key":"16","name":"Thüringen"}},{"name":"Mühlweg","postalCode":"99976","locality":"Südeichsfeld","municipality":{"key":"16064074","name":"Südeichsfeld","type":"Kreisangehörige_Gemeinde"},"district":{"key":"16064","name":"Unstrut-Hainich-Kreis","type":"Landkreis"},"federalState":{"key":"16","name":"Thüringen"}},{"name":"Neuenkirchener Str.","postalCode":"99988","locality":"Südeichsfeld","municipality":{"key":"16064074","name":"Südeichsfeld","type":"Kreisangehörige_Gemeinde"},"district":{"key":"16064","name":"Unstrut-Hainich-Kreis","type":"Landkreis"},"federalState":{"key":"16","name":"Thüringen"}},{"name":"Neue Str.","postalCode":"99976","locality":"Südeichsfeld","municipality":{"key":"16064074","name":"Südeichsfeld","type":"Kreisangehörige_Gemeinde"},"district":{"key":"16064","name":"Unstrut-Hainich-Kreis","type":"Landkreis"},"federalState":{"key":"16","name":"Thüringen"}},{"name":"Neue Str.","postalCode":"99988","locality":"Südeichsfeld","municipality":{"key":"16064074","name":"Südeichsfeld","type":"Kreisangehörige_Gemeinde"},"district":{"key":"16064","name":"Unstrut-Hainich-Kreis","type":"Landkreis"},"federalState":{"key":"16","name":"Thüringen"}},{"name":"Obergasse","postalCode":"99988","locality":"Südeichsfeld","municipality":{"key":"16064074","name":"Südeichsfeld","type":"Kreisangehörige_Gemeinde"},"district":{"key":"16064","name":"Unstrut-Hainich-Kreis","type":"Landkreis"},"federalState":{"key":"16","name":"Thüringen"}},{"name":"Oberstr.","postalCode":"99988","locality":"Südeichsfeld","municipality":{"key":"16064074","name":"Südeichsfeld","type":"Kreisangehörige_Gemeinde"},"district":{"key":"16064","name":"Unstrut-Hainich-Kreis","type":"Landkreis"},"federalState":{"key":"16","name":"Thüringen"}},{"name":"Pfarrweg","postalCode":"37318","locality":"Dietzenrode/Vatterode","municipality":{"key":"16061024","name":"Dietzenrode/Vatterode","type":"Kreisangehörige_Gemeinde"},"district":{"key":"16061","name":"Eichsfeld","type":"Landkreis"},"federalState":{"key":"16","name":"Thüringen"}},{"name":"Rasen","postalCode":"99976","locality":"Südeichsfeld","municipality":{"key":"16064074","name":"Südeichsfeld","type":"Kreisangehörige_Gemeinde"},"district":{"key":"16064","name":"Unstrut-Hainich-Kreis","type":"Landkreis"},"federalState":{"key":"16","name":"Thüringen"}},{"name":"Riedstr.","postalCode":"99988","locality":"Südeichsfeld","municipality":{"key":"16064074","name":"Südeichsfeld","type":"Kreisangehörige_Gemeinde"},"district":{"key":"16064","name":"Unstrut-Hainich-Kreis","type":"Landkreis"},"federalState":{"key":"16","name":"Thüringen"}},{"name":"Rosengarten","postalCode":"99988","locality":"Südeichsfeld","municipality":{"key":"16064074","name":"Südeichsfeld","type":"Kreisangehörige_Gemeinde"},"district":{"key":"16064","name":"Unstrut-Hainich-Kreis","type":"Landkreis"},"federalState":{"key":"16","name":"Thüringen"}},{"name":"Rosenstr.","postalCode":"99988","locality":"Südeichsfeld","municipality":{"key":"16064074","name":"Südeichsfeld","type":"Kreisangehörige_Gemeinde"},"district":{"key":"16064","name":"Unstrut-Hainich-Kreis","type":"Landkreis"},"federalState":{"key":"16","name":"Thüringen"}},{"name":"Sälzerweg","postalCode":"99988","locality":"Südeichsfeld","municipality":{"key":"16064074","name":"Südeichsfeld","type":"Kreisangehörige_Gemeinde"},"district":{"key":"16064","name":"Unstrut-Hainich-Kreis","type":"Landkreis"},"federalState":{"key":"16","name":"Thüringen"}},{"name":"Schafhof","postalCode":"99976","locality":"Südeichsfeld","municipality":{"key":"16064074","name":"Südeichsfeld","type":"Kreisangehörige_Gemeinde"},"district":{"key":"16064","name":"Unstrut-Hainich-Kreis","type":"Landkreis"},"federalState":{"key":"16","name":"Thüringen"}},{"name":"Schanzenweg","postalCode":"99988","locality":"Südeichsfeld","municipality":{"key":"16064074","name":"Südeichsfeld","type":"Kreisangehörige_Gemeinde"},"district":{"key":"16064","name":"Unstrut-Hainich-Kreis","type":"Landkreis"},"federalState":{"key":"16","name":"Thüringen"}},{"name":"Scharfloher Str.","postalCode":"99988","locality":"Südeichsfeld","municipality":{"key":"16064074","name":"Südeichsfeld","type":"Kreisangehörige_Gemeinde"},"district":{"key":"16064","name":"Unstrut-Hainich-Kreis","type":"Landkreis"},"federalState":{"key":"16","name":"Thüringen"}},{"name":"Schierschwender Str.","postalCode":"99988","locality":"Südeichsfeld","municipality":{"key":"16064074","name":"Südeichsfeld","type":"Kreisangehörige_Gemeinde"},"district":{"key":"16064","name":"Unstrut-Hainich-Kreis","type":"Landkreis"},"federalState":{"key":"16","name":"Thüringen"}},{"name":"Schillerstr.","postalCode":"99988","locality":"Südeichsfeld","municipality":{"key":"16064074","name":"Südeichsfeld","type":"Kreisangehörige_Gemeinde"},"district":{"key":"16064","name":"Unstrut-Hainich-Kreis","type":"Landkreis"},"federalState":{"key":"16","name":"Thüringen"}},{"name":"Schloßhofstr.","postalCode":"99988","locality":"Südeichsfeld","municipality":{"key":"16064074","name":"Südeichsfeld","type":"Kreisangehörige_Gemeinde"},"district":{"key":"16064","name":"Unstrut-Hainich-Kreis","type":"Landkreis"},"federalState":{"key":"16","name":"Thüringen"}},{"name":"Schloßstr.","postalCode":"99988","locality":"Südeichsfeld","municipality":{"key":"16064074","name":"Südeichsfeld","type":"Kreisangehörige_Gemeinde"},"district":{"key":"16064","name":"Unstrut-Hainich-Kreis","type":"Landkreis"},"federalState":{"key":"16","name":"Thüringen"}},{"name":"Schloßweg","postalCode":"99976","locality":"Südeichsfeld","municipality":{"key":"16064074","name":"Südeichsfeld","type":"Kreisangehörige_Gemeinde"},"district":{"key":"16064","name":"Unstrut-Hainich-Kreis","type":"Landkreis"},"federalState":{"key":"16","name":"Thüringen"}},{"name":"Schulstr.","postalCode":"99976","locality":"Südeichsfeld","municipality":{"key":"16064074","name":"Südeichsfeld","type":"Kreisangehörige_Gemeinde"},"district":{"key":"16064","name":"Unstrut-Hainich-Kreis","type":"Landkreis"},"federalState":{"key":"16","name":"Thüringen"}},{"name":"Sengelsberg","postalCode":"99988","locality":"Südeichsfeld","municipality":{"key":"16064074","name":"Südeichsfeld","type":"Kreisangehörige_Gemeinde"},"district":{"key":"16064","name":"Unstrut-Hainich-Kreis","type":"Landkreis"},"federalState":{"key":"16","name":"Thüringen"}},{"name":"Siedlung","postalCode":"99988","locality":"Südeichsfeld","municipality":{"key":"16064074","name":"Südeichsfeld","type":"Kreisangehörige_Gemeinde"},"district":{"key":"16064","name":"Unstrut-Hainich-Kreis","type":"Landkreis"},"federalState":{"key":"16","name":"Thüringen"}},{"name":"Steintor","postalCode":"99988","locality":"Südeichsfeld","municipality":{"key":"16064074","name":"Südeichsfeld","type":"Kreisangehörige_Gemeinde"},"district":{"key":"16064","name":"Unstrut-Hainich-Kreis","type":"Landkreis"},"federalState":{"key":"16","name":"Thüringen"}},{"name":"Strauchstr.","postalCode":"99988","locality":"Südeichsfeld","municipality":{"key":"16064074","name":"Südeichsfeld","type":"Kreisangehörige_Gemeinde"},"district":{"key":"16064","name":"Unstrut-Hainich-Kreis","type":"Landkreis"},"federalState":{"key":"16","name":"Thüringen"}},{"name":"Thonstr.","postalCode":"99988","locality":"Südeichsfeld","municipality":{"key":"16064074","name":"Südeichsfeld","type":"Kreisangehörige_Gemeinde"},"district":{"key":"16064","name":"Unstrut-Hainich-Kreis","type":"Landkreis"},"federalState":{"key":"16","name":"Thüringen"}},{"name":"Tränkefeld","postalCode":"99988","locality":"Südeichsfeld","municipality":{"key":"16064074","name":"Südeichsfeld","type":"Kreisangehörige_Gemeinde"},"district":{"key":"16064","name":"Unstrut-Hainich-Kreis","type":"Landkreis"},"federalState":{"key":"16","name":"Thüringen"}},{"name":"Trecksbrücke","postalCode":"99976","locality":"Südeichsfeld","municipality":{"key":"16064074","name":"Südeichsfeld","type":"Kreisangehörige_Gemeinde"},"district":{"key":"16064","name":"Unstrut-Hainich-Kreis","type":"Landkreis"},"federalState":{"key":"16","name":"Thüringen"}},{"name":"Treffurter Str.","postalCode":"99988","locality":"Südeichsfeld","municipality":{"key":"16064074","name":"Südeichsfeld","type":"Kreisangehörige_Gemeinde"},"district":{"key":"16064","name":"Unstrut-Hainich-Kreis","type":"Landkreis"},"federalState":{"key":"16","name":"Thüringen"}},{"name":"Unter dem Hanstein","postalCode":"99976","locality":"Südeichsfeld","municipality":{"key":"16064074","name":"Südeichsfeld","type":"Kreisangehörige_Gemeinde"},"district":{"key":"16064","name":"Unstrut-Hainich-Kreis","type":"Landkreis"},"federalState":{"key":"16","name":"Thüringen"}},{"name":"Unterm Kirchberg","postalCode":"99976","locality":"Südeichsfeld","municipality":{"key":"16064074","name":"Südeichsfeld","type":"Kreisangehörige_Gemeinde"},"district":{"key":"16064","name":"Unstrut-Hainich-Kreis","type":"Landkreis"},"federalState":{"key":"16","name":"Thüringen"}},{"name":"Unterm Lichten","postalCode":"99988","locality":"Südeichsfeld","municipality":{"key":"16064074","name":"Südeichsfeld","type":"Kreisangehörige_Gemeinde"},"district":{"key":"16064","name":"Unstrut-Hainich-Kreis","type":"Landkreis"},"federalState":{"key":"16","name":"Thüringen"}},{"name":"Unterm Mühlberg","postalCode":"99988","locality":"Südeichsfeld","municipality":{"key":"16064074","name":"Südeichsfeld","type":"Kreisangehörige_Gemeinde"},"district":{"key":"16064","name":"Unstrut-Hainich-Kreis","type":"Landkreis"},"federalState":{"key":"16","name":"Thüringen"}},{"name":"Untermühle","postalCode":"99976","locality":"Südeichsfeld","municipality":{"key":"16064074","name":"Südeichsfeld","type":"Kreisangehörige_Gemeinde"},"district":{"key":"16064","name":"Unstrut-Hainich-Kreis","type":"Landkreis"},"federalState":{"key":"16","name":"Thüringen"}},{"name":"Vor dem Kreuztal","postalCode":"99988","locality":"Südeichsfeld","municipality":{"key":"16064074","name":"Südeichsfeld","type":"Kreisangehörige_Gemeinde"},"district":{"key":"16064","name":"Unstrut-Hainich-Kreis","type":"Landkreis"},"federalState":{"key":"16","name":"Thüringen"}},{"name":"Weg","postalCode":"99976","locality":"Südeichsfeld","municipality":{"key":"16064074","name":"Südeichsfeld","type":"Kreisangehörige_Gemeinde"},"district":{"key":"16064","name":"Unstrut-Hainich-Kreis","type":"Landkreis"},"federalState":{"key":"16","name":"Thüringen"}},{"name":"Weinbergstr.","postalCode":"99988","locality":"Südeichsfeld","municipality":{"key":"16064074","name":"Südeichsfeld","type":"Kreisangehörige_Gemeinde"},"district":{"key":"16064","name":"Unstrut-Hainich-Kreis","type":"Landkreis"},"federalState":{"key":"16","name":"Thüringen"}},{"name":"Wendehäuser Str.","postalCode":"99988","locality":"Südeichsfeld","municipality":{"key":"16064074","name":"Südeichsfeld","type":"Kreisangehörige_Gemeinde"},"district":{"key":"16064","name":"Unstrut-Hainich-Kreis","type":"Landkreis"},"federalState":{"key":"16","name":"Thüringen"}},{"name":"Wiesengrund","postalCode":"99988","locality":"Südeichsfeld","municipality":{"key":"16064074","name":"Südeichsfeld","type":"Kreisangehörige_Gemeinde"},"district":{"key":"16064","name":"Unstrut-Hainich-Kreis","type":"Landkreis"},"federalState":{"key":"16","name":"Thüringen"}},{"name":"Wiesenweg","postalCode":"99988","locality":"Südeichsfeld","municipality":{"key":"16064074","name":"Südeichsfeld","type":"Kreisangehörige_Gemeinde"},"district":{"key":"16064","name":"Unstrut-Hainich-Kreis","type":"Landkreis"},"federalState":{"key":"16","name":"Thüringen"}},{"name":"Wilhelmstr.","postalCode":"99988","locality":"Südeichsfeld","municipality":{"key":"16064074","name":"Südeichsfeld","type":"Kreisangehörige_Gemeinde"},"district":{"key":"16064","name":"Unstrut-Hainich-Kreis","type":"Landkreis"},"federalState":{"key":"16","name":"Thüringen"}},{"name":"Ziehborn","postalCode":"99976","locality":"Südeichsfeld","municipality":{"key":"16064074","name":"Südeichsfeld","type":"Kreisangehörige_Gemeinde"},"district":{"key":"16064","name":"Unstrut-Hainich-Kreis","type":"Landkreis"},"federalState":{"key":"16","name":"Thüringen"}},{"name":"Zittelstr.","postalCode":"99988","locality":"Südeichsfeld","municipality":{"key":"16064074","name":"Südeichsfeld","type":"Kreisangehörige_Gemeinde"},"district":{"key":"16064","name":"Unstrut-Hainich-Kreis","type":"Landkreis"},"federalState":{"key":"16","name":"Thüringen"}},{"name":"Zollgasse","postalCode":"99988","locality":"Südeichsfeld","municipality":{"key":"16064074","name":"Südeichsfeld","type":"Kreisangehörige_Gemeinde"},"district":{"key":"16064","name":"Unstrut-Hainich-Kreis","type":"Landkreis"},"federalState":{"key":"16","name":"Thüringen"}},{"name":"Zum Steinacker","postalCode":"99988","locality":"Südeichsfeld","municipality":{"key":"16064074","name":"Südeichsfeld","type":"Kreisangehörige_Gemeinde"},"district":{"key":"16064","name":"Unstrut-Hainich-Kreis","type":"Landkreis"},"federalState":{"key":"16","name":"Thüringen"}},{"name":"Zum Vogelsang","postalCode":"99988","locality":"Südeichsfeld","municipality":{"key":"16064074","name":"Südeichsfeld","type":"Kreisangehörige_Gemeinde"},"district":{"key":"16064","name":"Unstrut-Hainich-Kreis","type":"Landkreis"},"federalState":{"key":"16","name":"Thüringen"}},{"name":"Zur Salztrift","postalCode":"99988","locality":"Südeichsfeld","municipality":{"key":"16064074","name":"Südeichsfeld","type":"Kreisangehörige_Gemeinde"},"district":{"key":"16064","name":"Unstrut-Hainich-Kreis","type":"Landkreis"},"federalState":{"key":"16","name":"Thüringen"}},]