[{"name":"Ahornring","postalCode":"18190","locality":"Sanitz","municipality":{"key":"13072091","name":"Sanitz","type":"Kreisangehörige_Gemeinde"},"district":{"key":"13072","name":"Landkreis Rostock","type":"Landkreis"},"federalState":{"key":"13","name":"Mecklenburg-Vorpommern"}},{"name":"Am Bahnhof","postalCode":"18190","locality":"Sanitz","municipality":{"key":"13072091","name":"Sanitz","type":"Kreisangehörige_Gemeinde"},"district":{"key":"13072","name":"Landkreis Rostock","type":"Landkreis"},"federalState":{"key":"13","name":"Mecklenburg-Vorpommern"}},{"name":"Am Damm","postalCode":"18190","locality":"Sanitz","municipality":{"key":"13072091","name":"Sanitz","type":"Kreisangehörige_Gemeinde"},"district":{"key":"13072","name":"Landkreis Rostock","type":"Landkreis"},"federalState":{"key":"13","name":"Mecklenburg-Vorpommern"}},{"name":"Ameisenweg","postalCode":"18190","locality":"Sanitz","municipality":{"key":"13072091","name":"Sanitz","type":"Kreisangehörige_Gemeinde"},"district":{"key":"13072","name":"Landkreis Rostock","type":"Landkreis"},"federalState":{"key":"13","name":"Mecklenburg-Vorpommern"}},{"name":"Am Erlenhain","postalCode":"18190","locality":"Sanitz","municipality":{"key":"13072091","name":"Sanitz","type":"Kreisangehörige_Gemeinde"},"district":{"key":"13072","name":"Landkreis Rostock","type":"Landkreis"},"federalState":{"key":"13","name":"Mecklenburg-Vorpommern"}},{"name":"Am Gutshaus","postalCode":"18190","locality":"Sanitz","municipality":{"key":"13072091","name":"Sanitz","type":"Kreisangehörige_Gemeinde"},"district":{"key":"13072","name":"Landkreis Rostock","type":"Landkreis"},"federalState":{"key":"13","name":"Mecklenburg-Vorpommern"}},{"name":"Am Hofsee","postalCode":"18190","locality":"Sanitz","municipality":{"key":"13072091","name":"Sanitz","type":"Kreisangehörige_Gemeinde"},"district":{"key":"13072","name":"Landkreis Rostock","type":"Landkreis"},"federalState":{"key":"13","name":"Mecklenburg-Vorpommern"}},{"name":"Am Katswall","postalCode":"18190","locality":"Sanitz","municipality":{"key":"13072091","name":"Sanitz","type":"Kreisangehörige_Gemeinde"},"district":{"key":"13072","name":"Landkreis Rostock","type":"Landkreis"},"federalState":{"key":"13","name":"Mecklenburg-Vorpommern"}},{"name":"Am Kiebitzmoor","postalCode":"18190","locality":"Sanitz","municipality":{"key":"13072091","name":"Sanitz","type":"Kreisangehörige_Gemeinde"},"district":{"key":"13072","name":"Landkreis Rostock","type":"Landkreis"},"federalState":{"key":"13","name":"Mecklenburg-Vorpommern"}},{"name":"Am Moor","postalCode":"18190","locality":"Sanitz","municipality":{"key":"13072091","name":"Sanitz","type":"Kreisangehörige_Gemeinde"},"district":{"key":"13072","name":"Landkreis Rostock","type":"Landkreis"},"federalState":{"key":"13","name":"Mecklenburg-Vorpommern"}},{"name":"Am Moorweg","postalCode":"18190","locality":"Sanitz","municipality":{"key":"13072091","name":"Sanitz","type":"Kreisangehörige_Gemeinde"},"district":{"key":"13072","name":"Landkreis Rostock","type":"Landkreis"},"federalState":{"key":"13","name":"Mecklenburg-Vorpommern"}},{"name":"Am Sportplatz","postalCode":"18190","locality":"Sanitz","municipality":{"key":"13072091","name":"Sanitz","type":"Kreisangehörige_Gemeinde"},"district":{"key":"13072","name":"Landkreis Rostock","type":"Landkreis"},"federalState":{"key":"13","name":"Mecklenburg-Vorpommern"}},{"name":"Am Teufelsmoor","postalCode":"18190","locality":"Sanitz","municipality":{"key":"13072091","name":"Sanitz","type":"Kreisangehörige_Gemeinde"},"district":{"key":"13072","name":"Landkreis Rostock","type":"Landkreis"},"federalState":{"key":"13","name":"Mecklenburg-Vorpommern"}},{"name":"Am Wald","postalCode":"18190","locality":"Sanitz","municipality":{"key":"13072091","name":"Sanitz","type":"Kreisangehörige_Gemeinde"},"district":{"key":"13072","name":"Landkreis Rostock","type":"Landkreis"},"federalState":{"key":"13","name":"Mecklenburg-Vorpommern"}},{"name":"Am Wiesengrund","postalCode":"18190","locality":"Sanitz","municipality":{"key":"13072091","name":"Sanitz","type":"Kreisangehörige_Gemeinde"},"district":{"key":"13072","name":"Landkreis Rostock","type":"Landkreis"},"federalState":{"key":"13","name":"Mecklenburg-Vorpommern"}},{"name":"An de Füerwehr","postalCode":"18190","locality":"Sanitz","municipality":{"key":"13072091","name":"Sanitz","type":"Kreisangehörige_Gemeinde"},"district":{"key":"13072","name":"Landkreis Rostock","type":"Landkreis"},"federalState":{"key":"13","name":"Mecklenburg-Vorpommern"}},{"name":"An der alten Gärtnerei","postalCode":"18190","locality":"Sanitz","municipality":{"key":"13072091","name":"Sanitz","type":"Kreisangehörige_Gemeinde"},"district":{"key":"13072","name":"Landkreis Rostock","type":"Landkreis"},"federalState":{"key":"13","name":"Mecklenburg-Vorpommern"}},{"name":"An der Hasenkuhle","postalCode":"18190","locality":"Sanitz","municipality":{"key":"13072091","name":"Sanitz","type":"Kreisangehörige_Gemeinde"},"district":{"key":"13072","name":"Landkreis Rostock","type":"Landkreis"},"federalState":{"key":"13","name":"Mecklenburg-Vorpommern"}},{"name":"An der Kugeleiche","postalCode":"18190","locality":"Sanitz","municipality":{"key":"13072091","name":"Sanitz","type":"Kreisangehörige_Gemeinde"},"district":{"key":"13072","name":"Landkreis Rostock","type":"Landkreis"},"federalState":{"key":"13","name":"Mecklenburg-Vorpommern"}},{"name":"An der Schule","postalCode":"18190","locality":"Sanitz","municipality":{"key":"13072091","name":"Sanitz","type":"Kreisangehörige_Gemeinde"},"district":{"key":"13072","name":"Landkreis Rostock","type":"Landkreis"},"federalState":{"key":"13","name":"Mecklenburg-Vorpommern"}},{"name":"An de Seen","postalCode":"18190","locality":"Sanitz","municipality":{"key":"13072091","name":"Sanitz","type":"Kreisangehörige_Gemeinde"},"district":{"key":"13072","name":"Landkreis Rostock","type":"Landkreis"},"federalState":{"key":"13","name":"Mecklenburg-Vorpommern"}},{"name":"Bahnhofstr.","postalCode":"18190","locality":"Sanitz","municipality":{"key":"13072091","name":"Sanitz","type":"Kreisangehörige_Gemeinde"},"district":{"key":"13072","name":"Landkreis Rostock","type":"Landkreis"},"federalState":{"key":"13","name":"Mecklenburg-Vorpommern"}},{"name":"Behrendhof","postalCode":"18190","locality":"Sanitz","municipality":{"key":"13072091","name":"Sanitz","type":"Kreisangehörige_Gemeinde"},"district":{"key":"13072","name":"Landkreis Rostock","type":"Landkreis"},"federalState":{"key":"13","name":"Mecklenburg-Vorpommern"}},{"name":"Buchenweg","postalCode":"18190","locality":"Sanitz","municipality":{"key":"13072091","name":"Sanitz","type":"Kreisangehörige_Gemeinde"},"district":{"key":"13072","name":"Landkreis Rostock","type":"Landkreis"},"federalState":{"key":"13","name":"Mecklenburg-Vorpommern"}},{"name":"Dr.-Ernst-Alban-Str.","postalCode":"18190","locality":"Sanitz","municipality":{"key":"13072091","name":"Sanitz","type":"Kreisangehörige_Gemeinde"},"district":{"key":"13072","name":"Landkreis Rostock","type":"Landkreis"},"federalState":{"key":"13","name":"Mecklenburg-Vorpommern"}},{"name":"Eichenweg","postalCode":"18190","locality":"Sanitz","municipality":{"key":"13072091","name":"Sanitz","type":"Kreisangehörige_Gemeinde"},"district":{"key":"13072","name":"Landkreis Rostock","type":"Landkreis"},"federalState":{"key":"13","name":"Mecklenburg-Vorpommern"}},{"name":"Ernst-Schneller-Str.","postalCode":"18190","locality":"Sanitz","municipality":{"key":"13072091","name":"Sanitz","type":"Kreisangehörige_Gemeinde"},"district":{"key":"13072","name":"Landkreis Rostock","type":"Landkreis"},"federalState":{"key":"13","name":"Mecklenburg-Vorpommern"}},{"name":"Feldstr.","postalCode":"18190","locality":"Sanitz","municipality":{"key":"13072091","name":"Sanitz","type":"Kreisangehörige_Gemeinde"},"district":{"key":"13072","name":"Landkreis Rostock","type":"Landkreis"},"federalState":{"key":"13","name":"Mecklenburg-Vorpommern"}},{"name":"Förster Köllner Schneise","postalCode":"18190","locality":"Sanitz","municipality":{"key":"13072091","name":"Sanitz","type":"Kreisangehörige_Gemeinde"},"district":{"key":"13072","name":"Landkreis Rostock","type":"Landkreis"},"federalState":{"key":"13","name":"Mecklenburg-Vorpommern"}},{"name":"Friedensstr.","postalCode":"18190","locality":"Sanitz","municipality":{"key":"13072091","name":"Sanitz","type":"Kreisangehörige_Gemeinde"},"district":{"key":"13072","name":"Landkreis Rostock","type":"Landkreis"},"federalState":{"key":"13","name":"Mecklenburg-Vorpommern"}},{"name":"Friedhofsweg","postalCode":"18190","locality":"Sanitz","municipality":{"key":"13072091","name":"Sanitz","type":"Kreisangehörige_Gemeinde"},"district":{"key":"13072","name":"Landkreis Rostock","type":"Landkreis"},"federalState":{"key":"13","name":"Mecklenburg-Vorpommern"}},{"name":"Friedrich-von-Flotow-Ring","postalCode":"18190","locality":"Sanitz","municipality":{"key":"13072091","name":"Sanitz","type":"Kreisangehörige_Gemeinde"},"district":{"key":"13072","name":"Landkreis Rostock","type":"Landkreis"},"federalState":{"key":"13","name":"Mecklenburg-Vorpommern"}},{"name":"Fritz-Reuter-Str.","postalCode":"18190","locality":"Sanitz","municipality":{"key":"13072091","name":"Sanitz","type":"Kreisangehörige_Gemeinde"},"district":{"key":"13072","name":"Landkreis Rostock","type":"Landkreis"},"federalState":{"key":"13","name":"Mecklenburg-Vorpommern"}},{"name":"Gartenstr.","postalCode":"18190","locality":"Sanitz","municipality":{"key":"13072091","name":"Sanitz","type":"Kreisangehörige_Gemeinde"},"district":{"key":"13072","name":"Landkreis Rostock","type":"Landkreis"},"federalState":{"key":"13","name":"Mecklenburg-Vorpommern"}},{"name":"Großer Stein","postalCode":"18190","locality":"Sanitz","municipality":{"key":"13072091","name":"Sanitz","type":"Kreisangehörige_Gemeinde"},"district":{"key":"13072","name":"Landkreis Rostock","type":"Landkreis"},"federalState":{"key":"13","name":"Mecklenburg-Vorpommern"}},{"name":"Groß Lüsewitzer Weg","postalCode":"18190","locality":"Sanitz","municipality":{"key":"13072091","name":"Sanitz","type":"Kreisangehörige_Gemeinde"},"district":{"key":"13072","name":"Landkreis Rostock","type":"Landkreis"},"federalState":{"key":"13","name":"Mecklenburg-Vorpommern"}},{"name":"Hanningsaal","postalCode":"18190","locality":"Sanitz","municipality":{"key":"13072091","name":"Sanitz","type":"Kreisangehörige_Gemeinde"},"district":{"key":"13072","name":"Landkreis Rostock","type":"Landkreis"},"federalState":{"key":"13","name":"Mecklenburg-Vorpommern"}},{"name":"Hasenweg","postalCode":"18190","locality":"Sanitz","municipality":{"key":"13072091","name":"Sanitz","type":"Kreisangehörige_Gemeinde"},"district":{"key":"13072","name":"Landkreis Rostock","type":"Landkreis"},"federalState":{"key":"13","name":"Mecklenburg-Vorpommern"}},{"name":"Hexeweg","postalCode":"18190","locality":"Sanitz","municipality":{"key":"13072091","name":"Sanitz","type":"Kreisangehörige_Gemeinde"},"district":{"key":"13072","name":"Landkreis Rostock","type":"Landkreis"},"federalState":{"key":"13","name":"Mecklenburg-Vorpommern"}},{"name":"Hof Sanitz","postalCode":"18190","locality":"Sanitz","municipality":{"key":"13072091","name":"Sanitz","type":"Kreisangehörige_Gemeinde"},"district":{"key":"13072","name":"Landkreis Rostock","type":"Landkreis"},"federalState":{"key":"13","name":"Mecklenburg-Vorpommern"}},{"name":"Hohen Gubkow","postalCode":"18190","locality":"Sanitz","municipality":{"key":"13072091","name":"Sanitz","type":"Kreisangehörige_Gemeinde"},"district":{"key":"13072","name":"Landkreis Rostock","type":"Landkreis"},"federalState":{"key":"13","name":"Mecklenburg-Vorpommern"}},{"name":"John-Brinckman-Str.","postalCode":"18190","locality":"Sanitz","municipality":{"key":"13072091","name":"Sanitz","type":"Kreisangehörige_Gemeinde"},"district":{"key":"13072","name":"Landkreis Rostock","type":"Landkreis"},"federalState":{"key":"13","name":"Mecklenburg-Vorpommern"}},{"name":"Kirchsteig","postalCode":"18190","locality":"Sanitz","municipality":{"key":"13072091","name":"Sanitz","type":"Kreisangehörige_Gemeinde"},"district":{"key":"13072","name":"Landkreis Rostock","type":"Landkreis"},"federalState":{"key":"13","name":"Mecklenburg-Vorpommern"}},{"name":"Klein Wehnendorf","postalCode":"18190","locality":"Sanitz","municipality":{"key":"13072091","name":"Sanitz","type":"Kreisangehörige_Gemeinde"},"district":{"key":"13072","name":"Landkreis Rostock","type":"Landkreis"},"federalState":{"key":"13","name":"Mecklenburg-Vorpommern"}},{"name":"Köhlerring","postalCode":"18190","locality":"Sanitz","municipality":{"key":"13072091","name":"Sanitz","type":"Kreisangehörige_Gemeinde"},"district":{"key":"13072","name":"Landkreis Rostock","type":"Landkreis"},"federalState":{"key":"13","name":"Mecklenburg-Vorpommern"}},{"name":"Kranichmoor","postalCode":"18190","locality":"Sanitz","municipality":{"key":"13072091","name":"Sanitz","type":"Kreisangehörige_Gemeinde"},"district":{"key":"13072","name":"Landkreis Rostock","type":"Landkreis"},"federalState":{"key":"13","name":"Mecklenburg-Vorpommern"}},{"name":"Kriegholzring","postalCode":"18190","locality":"Sanitz","municipality":{"key":"13072091","name":"Sanitz","type":"Kreisangehörige_Gemeinde"},"district":{"key":"13072","name":"Landkreis Rostock","type":"Landkreis"},"federalState":{"key":"13","name":"Mecklenburg-Vorpommern"}},{"name":"Lange Schneise","postalCode":"18190","locality":"Sanitz","municipality":{"key":"13072091","name":"Sanitz","type":"Kreisangehörige_Gemeinde"},"district":{"key":"13072","name":"Landkreis Rostock","type":"Landkreis"},"federalState":{"key":"13","name":"Mecklenburg-Vorpommern"}},{"name":"Lindenstr.","postalCode":"18190","locality":"Sanitz","municipality":{"key":"13072091","name":"Sanitz","type":"Kreisangehörige_Gemeinde"},"district":{"key":"13072","name":"Landkreis Rostock","type":"Landkreis"},"federalState":{"key":"13","name":"Mecklenburg-Vorpommern"}},{"name":"Lüsewitzer Krug","postalCode":"18190","locality":"Sanitz","municipality":{"key":"13072091","name":"Sanitz","type":"Kreisangehörige_Gemeinde"},"district":{"key":"13072","name":"Landkreis Rostock","type":"Landkreis"},"federalState":{"key":"13","name":"Mecklenburg-Vorpommern"}},{"name":"Milchstr.","postalCode":"18190","locality":"Sanitz","municipality":{"key":"13072091","name":"Sanitz","type":"Kreisangehörige_Gemeinde"},"district":{"key":"13072","name":"Landkreis Rostock","type":"Landkreis"},"federalState":{"key":"13","name":"Mecklenburg-Vorpommern"}},{"name":"Min Hüsung","postalCode":"18190","locality":"Sanitz","municipality":{"key":"13072091","name":"Sanitz","type":"Kreisangehörige_Gemeinde"},"district":{"key":"13072","name":"Landkreis Rostock","type":"Landkreis"},"federalState":{"key":"13","name":"Mecklenburg-Vorpommern"}},{"name":"Müllers Wiese","postalCode":"18190","locality":"Sanitz","municipality":{"key":"13072091","name":"Sanitz","type":"Kreisangehörige_Gemeinde"},"district":{"key":"13072","name":"Landkreis Rostock","type":"Landkreis"},"federalState":{"key":"13","name":"Mecklenburg-Vorpommern"}},{"name":"Neue Reihe","postalCode":"18190","locality":"Sanitz","municipality":{"key":"13072091","name":"Sanitz","type":"Kreisangehörige_Gemeinde"},"district":{"key":"13072","name":"Landkreis Rostock","type":"Landkreis"},"federalState":{"key":"13","name":"Mecklenburg-Vorpommern"}},{"name":"Niekrenzer Damm","postalCode":"18190","locality":"Sanitz","municipality":{"key":"13072091","name":"Sanitz","type":"Kreisangehörige_Gemeinde"},"district":{"key":"13072","name":"Landkreis Rostock","type":"Landkreis"},"federalState":{"key":"13","name":"Mecklenburg-Vorpommern"}},{"name":"Niekrenzer Dorfstr.","postalCode":"18190","locality":"Sanitz","municipality":{"key":"13072091","name":"Sanitz","type":"Kreisangehörige_Gemeinde"},"district":{"key":"13072","name":"Landkreis Rostock","type":"Landkreis"},"federalState":{"key":"13","name":"Mecklenburg-Vorpommern"}},{"name":"Niekrenzer Str.","postalCode":"18190","locality":"Sanitz","municipality":{"key":"13072091","name":"Sanitz","type":"Kreisangehörige_Gemeinde"},"district":{"key":"13072","name":"Landkreis Rostock","type":"Landkreis"},"federalState":{"key":"13","name":"Mecklenburg-Vorpommern"}},{"name":"Oberhof","postalCode":"18190","locality":"Sanitz","municipality":{"key":"13072091","name":"Sanitz","type":"Kreisangehörige_Gemeinde"},"district":{"key":"13072","name":"Landkreis Rostock","type":"Landkreis"},"federalState":{"key":"13","name":"Mecklenburg-Vorpommern"}},{"name":"Obstblütenweg","postalCode":"18190","locality":"Sanitz","municipality":{"key":"13072091","name":"Sanitz","type":"Kreisangehörige_Gemeinde"},"district":{"key":"13072","name":"Landkreis Rostock","type":"Landkreis"},"federalState":{"key":"13","name":"Mecklenburg-Vorpommern"}},{"name":"Parkweg","postalCode":"18190","locality":"Sanitz","municipality":{"key":"13072091","name":"Sanitz","type":"Kreisangehörige_Gemeinde"},"district":{"key":"13072","name":"Landkreis Rostock","type":"Landkreis"},"federalState":{"key":"13","name":"Mecklenburg-Vorpommern"}},{"name":"Plantagenring","postalCode":"18190","locality":"Sanitz","municipality":{"key":"13072091","name":"Sanitz","type":"Kreisangehörige_Gemeinde"},"district":{"key":"13072","name":"Landkreis Rostock","type":"Landkreis"},"federalState":{"key":"13","name":"Mecklenburg-Vorpommern"}},{"name":"Ribnitzer Str.","postalCode":"18190","locality":"Sanitz","municipality":{"key":"13072091","name":"Sanitz","type":"Kreisangehörige_Gemeinde"},"district":{"key":"13072","name":"Landkreis Rostock","type":"Landkreis"},"federalState":{"key":"13","name":"Mecklenburg-Vorpommern"}},{"name":"Rostocker Chaussee","postalCode":"18190","locality":"Sanitz","municipality":{"key":"13072091","name":"Sanitz","type":"Kreisangehörige_Gemeinde"},"district":{"key":"13072","name":"Landkreis Rostock","type":"Landkreis"},"federalState":{"key":"13","name":"Mecklenburg-Vorpommern"}},{"name":"Rostocker Str.","postalCode":"18190","locality":"Sanitz","municipality":{"key":"13072091","name":"Sanitz","type":"Kreisangehörige_Gemeinde"},"district":{"key":"13072","name":"Landkreis Rostock","type":"Landkreis"},"federalState":{"key":"13","name":"Mecklenburg-Vorpommern"}},{"name":"Rudolf-Schick-Platz","postalCode":"18190","locality":"Sanitz","municipality":{"key":"13072091","name":"Sanitz","type":"Kreisangehörige_Gemeinde"},"district":{"key":"13072","name":"Landkreis Rostock","type":"Landkreis"},"federalState":{"key":"13","name":"Mecklenburg-Vorpommern"}},{"name":"Sanitz Ausbau","postalCode":"18190","locality":"Sanitz","municipality":{"key":"13072091","name":"Sanitz","type":"Kreisangehörige_Gemeinde"},"district":{"key":"13072","name":"Landkreis Rostock","type":"Landkreis"},"federalState":{"key":"13","name":"Mecklenburg-Vorpommern"}},{"name":"Sanitzer Str.","postalCode":"18190","locality":"Sanitz","municipality":{"key":"13072091","name":"Sanitz","type":"Kreisangehörige_Gemeinde"},"district":{"key":"13072","name":"Landkreis Rostock","type":"Landkreis"},"federalState":{"key":"13","name":"Mecklenburg-Vorpommern"}},{"name":"Schleichweg","postalCode":"18190","locality":"Sanitz","municipality":{"key":"13072091","name":"Sanitz","type":"Kreisangehörige_Gemeinde"},"district":{"key":"13072","name":"Landkreis Rostock","type":"Landkreis"},"federalState":{"key":"13","name":"Mecklenburg-Vorpommern"}},{"name":"Schnepfenweg","postalCode":"18190","locality":"Sanitz","municipality":{"key":"13072091","name":"Sanitz","type":"Kreisangehörige_Gemeinde"},"district":{"key":"13072","name":"Landkreis Rostock","type":"Landkreis"},"federalState":{"key":"13","name":"Mecklenburg-Vorpommern"}},{"name":"Schwarzer Graben","postalCode":"18190","locality":"Sanitz","municipality":{"key":"13072091","name":"Sanitz","type":"Kreisangehörige_Gemeinde"},"district":{"key":"13072","name":"Landkreis Rostock","type":"Landkreis"},"federalState":{"key":"13","name":"Mecklenburg-Vorpommern"}},{"name":"Schwarzer Weg","postalCode":"18190","locality":"Sanitz","municipality":{"key":"13072091","name":"Sanitz","type":"Kreisangehörige_Gemeinde"},"district":{"key":"13072","name":"Landkreis Rostock","type":"Landkreis"},"federalState":{"key":"13","name":"Mecklenburg-Vorpommern"}},{"name":"Stolperweg","postalCode":"18190","locality":"Sanitz","municipality":{"key":"13072091","name":"Sanitz","type":"Kreisangehörige_Gemeinde"},"district":{"key":"13072","name":"Landkreis Rostock","type":"Landkreis"},"federalState":{"key":"13","name":"Mecklenburg-Vorpommern"}},{"name":"Stormstorfer Str.","postalCode":"18190","locality":"Sanitz","municipality":{"key":"13072091","name":"Sanitz","type":"Kreisangehörige_Gemeinde"},"district":{"key":"13072","name":"Landkreis Rostock","type":"Landkreis"},"federalState":{"key":"13","name":"Mecklenburg-Vorpommern"}},{"name":"Sülzer Str.","postalCode":"18190","locality":"Sanitz","municipality":{"key":"13072091","name":"Sanitz","type":"Kreisangehörige_Gemeinde"},"district":{"key":"13072","name":"Landkreis Rostock","type":"Landkreis"},"federalState":{"key":"13","name":"Mecklenburg-Vorpommern"}},{"name":"Swemmuur","postalCode":"18190","locality":"Sanitz","municipality":{"key":"13072091","name":"Sanitz","type":"Kreisangehörige_Gemeinde"},"district":{"key":"13072","name":"Landkreis Rostock","type":"Landkreis"},"federalState":{"key":"13","name":"Mecklenburg-Vorpommern"}},{"name":"Teschendorfer Str.","postalCode":"18190","locality":"Sanitz","municipality":{"key":"13072091","name":"Sanitz","type":"Kreisangehörige_Gemeinde"},"district":{"key":"13072","name":"Landkreis Rostock","type":"Landkreis"},"federalState":{"key":"13","name":"Mecklenburg-Vorpommern"}},{"name":"Tessiner Str.","postalCode":"18190","locality":"Sanitz","municipality":{"key":"13072091","name":"Sanitz","type":"Kreisangehörige_Gemeinde"},"district":{"key":"13072","name":"Landkreis Rostock","type":"Landkreis"},"federalState":{"key":"13","name":"Mecklenburg-Vorpommern"}},{"name":"Teutendorf","postalCode":"18190","locality":"Sanitz","municipality":{"key":"13072091","name":"Sanitz","type":"Kreisangehörige_Gemeinde"},"district":{"key":"13072","name":"Landkreis Rostock","type":"Landkreis"},"federalState":{"key":"13","name":"Mecklenburg-Vorpommern"}},{"name":"Waldweg","postalCode":"18190","locality":"Sanitz","municipality":{"key":"13072091","name":"Sanitz","type":"Kreisangehörige_Gemeinde"},"district":{"key":"13072","name":"Landkreis Rostock","type":"Landkreis"},"federalState":{"key":"13","name":"Mecklenburg-Vorpommern"}},{"name":"Walnussring","postalCode":"18190","locality":"Sanitz","municipality":{"key":"13072091","name":"Sanitz","type":"Kreisangehörige_Gemeinde"},"district":{"key":"13072","name":"Landkreis Rostock","type":"Landkreis"},"federalState":{"key":"13","name":"Mecklenburg-Vorpommern"}},{"name":"Weidenweg","postalCode":"18190","locality":"Sanitz","municipality":{"key":"13072091","name":"Sanitz","type":"Kreisangehörige_Gemeinde"},"district":{"key":"13072","name":"Landkreis Rostock","type":"Landkreis"},"federalState":{"key":"13","name":"Mecklenburg-Vorpommern"}},{"name":"Wendfeld","postalCode":"18190","locality":"Sanitz","municipality":{"key":"13072091","name":"Sanitz","type":"Kreisangehörige_Gemeinde"},"district":{"key":"13072","name":"Landkreis Rostock","type":"Landkreis"},"federalState":{"key":"13","name":"Mecklenburg-Vorpommern"}},{"name":"Wiesenblick","postalCode":"18190","locality":"Sanitz","municipality":{"key":"13072091","name":"Sanitz","type":"Kreisangehörige_Gemeinde"},"district":{"key":"13072","name":"Landkreis Rostock","type":"Landkreis"},"federalState":{"key":"13","name":"Mecklenburg-Vorpommern"}},{"name":"Wiesensteg","postalCode":"18190","locality":"Sanitz","municipality":{"key":"13072091","name":"Sanitz","type":"Kreisangehörige_Gemeinde"},"district":{"key":"13072","name":"Landkreis Rostock","type":"Landkreis"},"federalState":{"key":"13","name":"Mecklenburg-Vorpommern"}},{"name":"Zum Brunnenhof","postalCode":"18190","locality":"Sanitz","municipality":{"key":"13072091","name":"Sanitz","type":"Kreisangehörige_Gemeinde"},"district":{"key":"13072","name":"Landkreis Rostock","type":"Landkreis"},"federalState":{"key":"13","name":"Mecklenburg-Vorpommern"}},{"name":"Zum Buchenkopf","postalCode":"18190","locality":"Sanitz","municipality":{"key":"13072091","name":"Sanitz","type":"Kreisangehörige_Gemeinde"},"district":{"key":"13072","name":"Landkreis Rostock","type":"Landkreis"},"federalState":{"key":"13","name":"Mecklenburg-Vorpommern"}},{"name":"Zum Fuchsbau","postalCode":"18190","locality":"Sanitz","municipality":{"key":"13072091","name":"Sanitz","type":"Kreisangehörige_Gemeinde"},"district":{"key":"13072","name":"Landkreis Rostock","type":"Landkreis"},"federalState":{"key":"13","name":"Mecklenburg-Vorpommern"}},]