[{"name":"Adlerweg","postalCode":"88489","locality":"Wain","municipality":{"key":"08426125","name":"Wain","type":"Kreisangehörige_Gemeinde"},"district":{"key":"08426","name":"Biberach","type":"Landkreis"},"federalState":{"key":"08","name":"Baden-Württemberg"}},{"name":"Ahornweg","postalCode":"88489","locality":"Wain","municipality":{"key":"08426125","name":"Wain","type":"Kreisangehörige_Gemeinde"},"district":{"key":"08426","name":"Biberach","type":"Landkreis"},"federalState":{"key":"08","name":"Baden-Württemberg"}},{"name":"Am Rosenbächle","postalCode":"88489","locality":"Wain","municipality":{"key":"08426125","name":"Wain","type":"Kreisangehörige_Gemeinde"},"district":{"key":"08426","name":"Biberach","type":"Landkreis"},"federalState":{"key":"08","name":"Baden-Württemberg"}},{"name":"Am Schmittefeld","postalCode":"88489","locality":"Wain","municipality":{"key":"08426125","name":"Wain","type":"Kreisangehörige_Gemeinde"},"district":{"key":"08426","name":"Biberach","type":"Landkreis"},"federalState":{"key":"08","name":"Baden-Württemberg"}},{"name":"Amselweg","postalCode":"88489","locality":"Wain","municipality":{"key":"08426125","name":"Wain","type":"Kreisangehörige_Gemeinde"},"district":{"key":"08426","name":"Biberach","type":"Landkreis"},"federalState":{"key":"08","name":"Baden-Württemberg"}},{"name":"Auf der Bausch","postalCode":"88489","locality":"Wain","municipality":{"key":"08426125","name":"Wain","type":"Kreisangehörige_Gemeinde"},"district":{"key":"08426","name":"Biberach","type":"Landkreis"},"federalState":{"key":"08","name":"Baden-Württemberg"}},{"name":"Birkenweg","postalCode":"88489","locality":"Wain","municipality":{"key":"08426125","name":"Wain","type":"Kreisangehörige_Gemeinde"},"district":{"key":"08426","name":"Biberach","type":"Landkreis"},"federalState":{"key":"08","name":"Baden-Württemberg"}},{"name":"Buchenweg","postalCode":"88489","locality":"Wain","municipality":{"key":"08426125","name":"Wain","type":"Kreisangehörige_Gemeinde"},"district":{"key":"08426","name":"Biberach","type":"Landkreis"},"federalState":{"key":"08","name":"Baden-Württemberg"}},{"name":"Christian-Koehler-Weg","postalCode":"88400","locality":"Biberach an der Riß","municipality":{"key":"08426021","name":"Biberach an der Riß, Stadt","type":"Große_Kreisstadt"},"district":{"key":"08426","name":"Biberach","type":"Landkreis"},"federalState":{"key":"08","name":"Baden-Württemberg"}},{"name":"Christian-Xeller-Weg","postalCode":"88400","locality":"Biberach an der Riß","municipality":{"key":"08426021","name":"Biberach an der Riß, Stadt","type":"Große_Kreisstadt"},"district":{"key":"08426","name":"Biberach","type":"Landkreis"},"federalState":{"key":"08","name":"Baden-Württemberg"}},{"name":"Clara-Schumann-Str.","postalCode":"88400","locality":"Biberach an der Riß","municipality":{"key":"08426021","name":"Biberach an der Riß, Stadt","type":"Große_Kreisstadt"},"district":{"key":"08426","name":"Biberach","type":"Landkreis"},"federalState":{"key":"08","name":"Baden-Württemberg"}},{"name":"Consulentengasse","postalCode":"88400","locality":"Biberach an der Riß","municipality":{"key":"08426021","name":"Biberach an der Riß, Stadt","type":"Große_Kreisstadt"},"district":{"key":"08426","name":"Biberach","type":"Landkreis"},"federalState":{"key":"08","name":"Baden-Württemberg"}},{"name":"Drosselweg","postalCode":"88489","locality":"Wain","municipality":{"key":"08426125","name":"Wain","type":"Kreisangehörige_Gemeinde"},"district":{"key":"08426","name":"Biberach","type":"Landkreis"},"federalState":{"key":"08","name":"Baden-Württemberg"}},{"name":"Erlenweg","postalCode":"88489","locality":"Wain","municipality":{"key":"08426125","name":"Wain","type":"Kreisangehörige_Gemeinde"},"district":{"key":"08426","name":"Biberach","type":"Landkreis"},"federalState":{"key":"08","name":"Baden-Württemberg"}},{"name":"Finkenweg","postalCode":"88489","locality":"Wain","municipality":{"key":"08426125","name":"Wain","type":"Kreisangehörige_Gemeinde"},"district":{"key":"08426","name":"Biberach","type":"Landkreis"},"federalState":{"key":"08","name":"Baden-Württemberg"}},{"name":"Friedhofstr.","postalCode":"88489","locality":"Wain","municipality":{"key":"08426125","name":"Wain","type":"Kreisangehörige_Gemeinde"},"district":{"key":"08426","name":"Biberach","type":"Landkreis"},"federalState":{"key":"08","name":"Baden-Württemberg"}},{"name":"Gartenstr.","postalCode":"88489","locality":"Wain","municipality":{"key":"08426125","name":"Wain","type":"Kreisangehörige_Gemeinde"},"district":{"key":"08426","name":"Biberach","type":"Landkreis"},"federalState":{"key":"08","name":"Baden-Württemberg"}},{"name":"Hasenberg","postalCode":"88489","locality":"Wain","municipality":{"key":"08426125","name":"Wain","type":"Kreisangehörige_Gemeinde"},"district":{"key":"08426","name":"Biberach","type":"Landkreis"},"federalState":{"key":"08","name":"Baden-Württemberg"}},{"name":"Hirschberg","postalCode":"88489","locality":"Wain","municipality":{"key":"08426125","name":"Wain","type":"Kreisangehörige_Gemeinde"},"district":{"key":"08426","name":"Biberach","type":"Landkreis"},"federalState":{"key":"08","name":"Baden-Württemberg"}},{"name":"Hopfenweg","postalCode":"88489","locality":"Wain","municipality":{"key":"08426125","name":"Wain","type":"Kreisangehörige_Gemeinde"},"district":{"key":"08426","name":"Biberach","type":"Landkreis"},"federalState":{"key":"08","name":"Baden-Württemberg"}},{"name":"Hörenhauser Str.","postalCode":"88489","locality":"Wain","municipality":{"key":"08426125","name":"Wain","type":"Kreisangehörige_Gemeinde"},"district":{"key":"08426","name":"Biberach","type":"Landkreis"},"federalState":{"key":"08","name":"Baden-Württemberg"}},{"name":"Im Brühl","postalCode":"88489","locality":"Wain","municipality":{"key":"08426125","name":"Wain","type":"Kreisangehörige_Gemeinde"},"district":{"key":"08426","name":"Biberach","type":"Landkreis"},"federalState":{"key":"08","name":"Baden-Württemberg"}},{"name":"Im Rohrmahd","postalCode":"88489","locality":"Wain","municipality":{"key":"08426125","name":"Wain","type":"Kreisangehörige_Gemeinde"},"district":{"key":"08426","name":"Biberach","type":"Landkreis"},"federalState":{"key":"08","name":"Baden-Württemberg"}},{"name":"Im Wiesengrund","postalCode":"88489","locality":"Wain","municipality":{"key":"08426125","name":"Wain","type":"Kreisangehörige_Gemeinde"},"district":{"key":"08426","name":"Biberach","type":"Landkreis"},"federalState":{"key":"08","name":"Baden-Württemberg"}},{"name":"In Auttagershofen","postalCode":"88489","locality":"Wain","municipality":{"key":"08426125","name":"Wain","type":"Kreisangehörige_Gemeinde"},"district":{"key":"08426","name":"Biberach","type":"Landkreis"},"federalState":{"key":"08","name":"Baden-Württemberg"}},{"name":"Industriestr.","postalCode":"88489","locality":"Wain","municipality":{"key":"08426125","name":"Wain","type":"Kreisangehörige_Gemeinde"},"district":{"key":"08426","name":"Biberach","type":"Landkreis"},"federalState":{"key":"08","name":"Baden-Württemberg"}},{"name":"Jägerpfad","postalCode":"77781","locality":"Biberach","municipality":{"key":"08317011","name":"Biberach","type":"Kreisangehörige_Gemeinde"},"district":{"key":"08317","name":"Ortenaukreis","type":"Landkreis"},"federalState":{"key":"08","name":"Baden-Württemberg"}},{"name":"Jahnstr.","postalCode":"88400","locality":"Biberach an der Riß","municipality":{"key":"08426021","name":"Biberach an der Riß, Stadt","type":"Große_Kreisstadt"},"district":{"key":"08426","name":"Biberach","type":"Landkreis"},"federalState":{"key":"08","name":"Baden-Württemberg"}},{"name":"Jakob-Bräckle-Str.","postalCode":"88400","locality":"Biberach an der Riß","municipality":{"key":"08426021","name":"Biberach an der Riß, Stadt","type":"Große_Kreisstadt"},"district":{"key":"08426","name":"Biberach","type":"Landkreis"},"federalState":{"key":"08","name":"Baden-Württemberg"}},{"name":"Jakob-Emele-Weg","postalCode":"88400","locality":"Biberach an der Riß","municipality":{"key":"08426021","name":"Biberach an der Riß, Stadt","type":"Große_Kreisstadt"},"district":{"key":"08426","name":"Biberach","type":"Landkreis"},"federalState":{"key":"08","name":"Baden-Württemberg"}},{"name":"Jarekstr.","postalCode":"88400","locality":"Biberach an der Riß","municipality":{"key":"08426021","name":"Biberach an der Riß, Stadt","type":"Große_Kreisstadt"},"district":{"key":"08426","name":"Biberach","type":"Landkreis"},"federalState":{"key":"08","name":"Baden-Württemberg"}},{"name":"Jerseyweg","postalCode":"88400","locality":"Biberach an der Riß","municipality":{"key":"08426021","name":"Biberach an der Riß, Stadt","type":"Große_Kreisstadt"},"district":{"key":"08426","name":"Biberach","type":"Landkreis"},"federalState":{"key":"08","name":"Baden-Württemberg"}},{"name":"Johann-Sebastian-Bach-Str.","postalCode":"88400","locality":"Biberach an der Riß","municipality":{"key":"08426021","name":"Biberach an der Riß, Stadt","type":"Große_Kreisstadt"},"district":{"key":"08426","name":"Biberach","type":"Landkreis"},"federalState":{"key":"08","name":"Baden-Württemberg"}},{"name":"Jordanbergweg","postalCode":"88400","locality":"Biberach an der Riß","municipality":{"key":"08426021","name":"Biberach an der Riß, Stadt","type":"Große_Kreisstadt"},"district":{"key":"08426","name":"Biberach","type":"Landkreis"},"federalState":{"key":"08","name":"Baden-Württemberg"}},{"name":"Jordanei","postalCode":"88400","locality":"Biberach an der Riß","municipality":{"key":"08426021","name":"Biberach an der Riß, Stadt","type":"Große_Kreisstadt"},"district":{"key":"08426","name":"Biberach","type":"Landkreis"},"federalState":{"key":"08","name":"Baden-Württemberg"}},{"name":"Josef-Angele-Str.","postalCode":"88400","locality":"Biberach an der Riß","municipality":{"key":"08426021","name":"Biberach an der Riß, Stadt","type":"Große_Kreisstadt"},"district":{"key":"08426","name":"Biberach","type":"Landkreis"},"federalState":{"key":"08","name":"Baden-Württemberg"}},{"name":"Josef-Bühler-Weg","postalCode":"77781","locality":"Biberach","municipality":{"key":"08317011","name":"Biberach","type":"Kreisangehörige_Gemeinde"},"district":{"key":"08317","name":"Ortenaukreis","type":"Landkreis"},"federalState":{"key":"08","name":"Baden-Württemberg"}},{"name":"Josef-Probst-Weg","postalCode":"88400","locality":"Biberach an der Riß","municipality":{"key":"08426021","name":"Biberach an der Riß, Stadt","type":"Große_Kreisstadt"},"district":{"key":"08426","name":"Biberach","type":"Landkreis"},"federalState":{"key":"08","name":"Baden-Württemberg"}},{"name":"Josef-Schenk-Weg","postalCode":"88400","locality":"Biberach an der Riß","municipality":{"key":"08426021","name":"Biberach an der Riß, Stadt","type":"Große_Kreisstadt"},"district":{"key":"08426","name":"Biberach","type":"Landkreis"},"federalState":{"key":"08","name":"Baden-Württemberg"}},{"name":"Jungholzweg","postalCode":"88400","locality":"Biberach an der Riß","municipality":{"key":"08426021","name":"Biberach an der Riß, Stadt","type":"Große_Kreisstadt"},"district":{"key":"08426","name":"Biberach","type":"Landkreis"},"federalState":{"key":"08","name":"Baden-Württemberg"}},{"name":"Juraweg","postalCode":"88400","locality":"Biberach an der Riß","municipality":{"key":"08426021","name":"Biberach an der Riß, Stadt","type":"Große_Kreisstadt"},"district":{"key":"08426","name":"Biberach","type":"Landkreis"},"federalState":{"key":"08","name":"Baden-Württemberg"}},{"name":"Justinus-Heinrich-Knecht-Str.","postalCode":"88400","locality":"Biberach an der Riß","municipality":{"key":"08426021","name":"Biberach an der Riß, Stadt","type":"Große_Kreisstadt"},"district":{"key":"08426","name":"Biberach","type":"Landkreis"},"federalState":{"key":"08","name":"Baden-Württemberg"}},{"name":"Kärntner Str.","postalCode":"88489","locality":"Wain","municipality":{"key":"08426125","name":"Wain","type":"Kreisangehörige_Gemeinde"},"district":{"key":"08426","name":"Biberach","type":"Landkreis"},"federalState":{"key":"08","name":"Baden-Württemberg"}},{"name":"Kirchstr.","postalCode":"88489","locality":"Wain","municipality":{"key":"08426125","name":"Wain","type":"Kreisangehörige_Gemeinde"},"district":{"key":"08426","name":"Biberach","type":"Landkreis"},"federalState":{"key":"08","name":"Baden-Württemberg"}},{"name":"Lamparterweg","postalCode":"88400","locality":"Biberach an der Riß","municipality":{"key":"08426021","name":"Biberach an der Riß, Stadt","type":"Große_Kreisstadt"},"district":{"key":"08426","name":"Biberach","type":"Landkreis"},"federalState":{"key":"08","name":"Baden-Württemberg"}},{"name":"Lange Wiesen","postalCode":"88400","locality":"Biberach an der Riß","municipality":{"key":"08426021","name":"Biberach an der Riß, Stadt","type":"Große_Kreisstadt"},"district":{"key":"08426","name":"Biberach","type":"Landkreis"},"federalState":{"key":"08","name":"Baden-Württemberg"}},{"name":"Lärchenstr.","postalCode":"77781","locality":"Biberach","municipality":{"key":"08317011","name":"Biberach","type":"Kreisangehörige_Gemeinde"},"district":{"key":"08317","name":"Ortenaukreis","type":"Landkreis"},"federalState":{"key":"08","name":"Baden-Württemberg"}},{"name":"Laubenweg","postalCode":"77781","locality":"Biberach","municipality":{"key":"08317011","name":"Biberach","type":"Kreisangehörige_Gemeinde"},"district":{"key":"08317","name":"Ortenaukreis","type":"Landkreis"},"federalState":{"key":"08","name":"Baden-Württemberg"}},{"name":"Laupertshauser Str.","postalCode":"88400","locality":"Biberach an der Riß","municipality":{"key":"08426021","name":"Biberach an der Riß, Stadt","type":"Große_Kreisstadt"},"district":{"key":"08426","name":"Biberach","type":"Landkreis"},"federalState":{"key":"08","name":"Baden-Württemberg"}},{"name":"Laurenbühlstr.","postalCode":"88441","locality":"Mittelbiberach","municipality":{"key":"08426074","name":"Mittelbiberach","type":"Kreisangehörige_Gemeinde"},"district":{"key":"08426","name":"Biberach","type":"Landkreis"},"federalState":{"key":"08","name":"Baden-Württemberg"}},{"name":"Laurenbühlweg","postalCode":"88400","locality":"Biberach an der Riß","municipality":{"key":"08426021","name":"Biberach an der Riß, Stadt","type":"Große_Kreisstadt"},"district":{"key":"08426","name":"Biberach","type":"Landkreis"},"federalState":{"key":"08","name":"Baden-Württemberg"}},{"name":"Legerweg","postalCode":"77781","locality":"Biberach","municipality":{"key":"08317011","name":"Biberach","type":"Kreisangehörige_Gemeinde"},"district":{"key":"08317","name":"Ortenaukreis","type":"Landkreis"},"federalState":{"key":"08","name":"Baden-Württemberg"}},{"name":"Leimelerstr.","postalCode":"88400","locality":"Biberach an der Riß","municipality":{"key":"08426021","name":"Biberach an der Riß, Stadt","type":"Große_Kreisstadt"},"district":{"key":"08426","name":"Biberach","type":"Landkreis"},"federalState":{"key":"08","name":"Baden-Württemberg"}},{"name":"Leimenäcker","postalCode":"77781","locality":"Biberach","municipality":{"key":"08317011","name":"Biberach","type":"Kreisangehörige_Gemeinde"},"district":{"key":"08317","name":"Ortenaukreis","type":"Landkreis"},"federalState":{"key":"08","name":"Baden-Württemberg"}},{"name":"Leipzigstr.","postalCode":"88400","locality":"Biberach an der Riß","municipality":{"key":"08426021","name":"Biberach an der Riß, Stadt","type":"Große_Kreisstadt"},"district":{"key":"08426","name":"Biberach","type":"Landkreis"},"federalState":{"key":"08","name":"Baden-Württemberg"}},{"name":"Lerchenweg","postalCode":"88400","locality":"Biberach an der Riß","municipality":{"key":"08426021","name":"Biberach an der Riß, Stadt","type":"Große_Kreisstadt"},"district":{"key":"08426","name":"Biberach","type":"Landkreis"},"federalState":{"key":"08","name":"Baden-Württemberg"}},{"name":"Lilienstr.","postalCode":"88441","locality":"Mittelbiberach","municipality":{"key":"08426074","name":"Mittelbiberach","type":"Kreisangehörige_Gemeinde"},"district":{"key":"08426","name":"Biberach","type":"Landkreis"},"federalState":{"key":"08","name":"Baden-Württemberg"}},{"name":"Lindele","postalCode":"88400","locality":"Biberach an der Riß","municipality":{"key":"08426021","name":"Biberach an der Riß, Stadt","type":"Große_Kreisstadt"},"district":{"key":"08426","name":"Biberach","type":"Landkreis"},"federalState":{"key":"08","name":"Baden-Württemberg"}},{"name":"Lindelestr.","postalCode":"88400","locality":"Biberach an der Riß","municipality":{"key":"08426021","name":"Biberach an der Riß, Stadt","type":"Große_Kreisstadt"},"district":{"key":"08426","name":"Biberach","type":"Landkreis"},"federalState":{"key":"08","name":"Baden-Württemberg"}},{"name":"Lindenstr.","postalCode":"77781","locality":"Biberach","municipality":{"key":"08317011","name":"Biberach","type":"Kreisangehörige_Gemeinde"},"district":{"key":"08317","name":"Ortenaukreis","type":"Landkreis"},"federalState":{"key":"08","name":"Baden-Württemberg"}},{"name":"Lindenstr.","postalCode":"88441","locality":"Mittelbiberach","municipality":{"key":"08426074","name":"Mittelbiberach","type":"Kreisangehörige_Gemeinde"},"district":{"key":"08426","name":"Biberach","type":"Landkreis"},"federalState":{"key":"08","name":"Baden-Württemberg"}},{"name":"Löcherstr.","postalCode":"88400","locality":"Biberach an der Riß","municipality":{"key":"08426021","name":"Biberach an der Riß, Stadt","type":"Große_Kreisstadt"},"district":{"key":"08426","name":"Biberach","type":"Landkreis"},"federalState":{"key":"08","name":"Baden-Württemberg"}},{"name":"Lukas-Seidler-Weg","postalCode":"88400","locality":"Biberach an der Riß","municipality":{"key":"08426021","name":"Biberach an der Riß, Stadt","type":"Große_Kreisstadt"},"district":{"key":"08426","name":"Biberach","type":"Landkreis"},"federalState":{"key":"08","name":"Baden-Württemberg"}},{"name":"Lupinstr.","postalCode":"88400","locality":"Biberach an der Riß","municipality":{"key":"08426021","name":"Biberach an der Riß, Stadt","type":"Große_Kreisstadt"},"district":{"key":"08426","name":"Biberach","type":"Landkreis"},"federalState":{"key":"08","name":"Baden-Württemberg"}},{"name":"Meisenweg","postalCode":"88489","locality":"Wain","municipality":{"key":"08426125","name":"Wain","type":"Kreisangehörige_Gemeinde"},"district":{"key":"08426","name":"Biberach","type":"Landkreis"},"federalState":{"key":"08","name":"Baden-Württemberg"}},{"name":"Mühlgäßle","postalCode":"88489","locality":"Wain","municipality":{"key":"08426125","name":"Wain","type":"Kreisangehörige_Gemeinde"},"district":{"key":"08426","name":"Biberach","type":"Landkreis"},"federalState":{"key":"08","name":"Baden-Württemberg"}},{"name":"Neherstr.","postalCode":"88400","locality":"Biberach an der Riß","municipality":{"key":"08426021","name":"Biberach an der Riß, Stadt","type":"Große_Kreisstadt"},"district":{"key":"08426","name":"Biberach","type":"Landkreis"},"federalState":{"key":"08","name":"Baden-Württemberg"}},{"name":"Nelkenweg","postalCode":"88441","locality":"Mittelbiberach","municipality":{"key":"08426074","name":"Mittelbiberach","type":"Kreisangehörige_Gemeinde"},"district":{"key":"08426","name":"Biberach","type":"Landkreis"},"federalState":{"key":"08","name":"Baden-Württemberg"}},{"name":"Neue Gasse","postalCode":"88400","locality":"Biberach an der Riß","municipality":{"key":"08426021","name":"Biberach an der Riß, Stadt","type":"Große_Kreisstadt"},"district":{"key":"08426","name":"Biberach","type":"Landkreis"},"federalState":{"key":"08","name":"Baden-Württemberg"}},{"name":"Neue Heimat","postalCode":"88400","locality":"Biberach an der Riß","municipality":{"key":"08426021","name":"Biberach an der Riß, Stadt","type":"Große_Kreisstadt"},"district":{"key":"08426","name":"Biberach","type":"Landkreis"},"federalState":{"key":"08","name":"Baden-Württemberg"}},{"name":"Neusatzweg","postalCode":"88400","locality":"Biberach an der Riß","municipality":{"key":"08426021","name":"Biberach an der Riß, Stadt","type":"Große_Kreisstadt"},"district":{"key":"08426","name":"Biberach","type":"Landkreis"},"federalState":{"key":"08","name":"Baden-Württemberg"}},{"name":"Nickeleshalde","postalCode":"88400","locality":"Biberach an der Riß","municipality":{"key":"08426021","name":"Biberach an der Riß, Stadt","type":"Große_Kreisstadt"},"district":{"key":"08426","name":"Biberach","type":"Landkreis"},"federalState":{"key":"08","name":"Baden-Württemberg"}},{"name":"Obere Bausch","postalCode":"88489","locality":"Wain","municipality":{"key":"08426125","name":"Wain","type":"Kreisangehörige_Gemeinde"},"district":{"key":"08426","name":"Biberach","type":"Landkreis"},"federalState":{"key":"08","name":"Baden-Württemberg"}},{"name":"Obere Dorfstr.","postalCode":"88489","locality":"Wain","municipality":{"key":"08426125","name":"Wain","type":"Kreisangehörige_Gemeinde"},"district":{"key":"08426","name":"Biberach","type":"Landkreis"},"federalState":{"key":"08","name":"Baden-Württemberg"}},{"name":"Paulinenweg","postalCode":"88489","locality":"Wain","municipality":{"key":"08426125","name":"Wain","type":"Kreisangehörige_Gemeinde"},"district":{"key":"08426","name":"Biberach","type":"Landkreis"},"federalState":{"key":"08","name":"Baden-Württemberg"}},{"name":"Pfarrer-Dürr-Weg","postalCode":"88489","locality":"Wain","municipality":{"key":"08426125","name":"Wain","type":"Kreisangehörige_Gemeinde"},"district":{"key":"08426","name":"Biberach","type":"Landkreis"},"federalState":{"key":"08","name":"Baden-Württemberg"}},{"name":"Poststr.","postalCode":"88489","locality":"Wain","municipality":{"key":"08426125","name":"Wain","type":"Kreisangehörige_Gemeinde"},"district":{"key":"08426","name":"Biberach","type":"Landkreis"},"federalState":{"key":"08","name":"Baden-Württemberg"}},{"name":"Rosenstr.","postalCode":"88489","locality":"Wain","municipality":{"key":"08426125","name":"Wain","type":"Kreisangehörige_Gemeinde"},"district":{"key":"08426","name":"Biberach","type":"Landkreis"},"federalState":{"key":"08","name":"Baden-Württemberg"}},{"name":"Schulstr.","postalCode":"88489","locality":"Wain","municipality":{"key":"08426125","name":"Wain","type":"Kreisangehörige_Gemeinde"},"district":{"key":"08426","name":"Biberach","type":"Landkreis"},"federalState":{"key":"08","name":"Baden-Württemberg"}},{"name":"Sonnensteige","postalCode":"88489","locality":"Wain","municipality":{"key":"08426125","name":"Wain","type":"Kreisangehörige_Gemeinde"},"district":{"key":"08426","name":"Biberach","type":"Landkreis"},"federalState":{"key":"08","name":"Baden-Württemberg"}},{"name":"Steinweg","postalCode":"88489","locality":"Wain","municipality":{"key":"08426125","name":"Wain","type":"Kreisangehörige_Gemeinde"},"district":{"key":"08426","name":"Biberach","type":"Landkreis"},"federalState":{"key":"08","name":"Baden-Württemberg"}},{"name":"Storchenweg","postalCode":"88489","locality":"Wain","municipality":{"key":"08426125","name":"Wain","type":"Kreisangehörige_Gemeinde"},"district":{"key":"08426","name":"Biberach","type":"Landkreis"},"federalState":{"key":"08","name":"Baden-Württemberg"}},{"name":"Talblick","postalCode":"88400","locality":"Biberach an der Riß","municipality":{"key":"08426021","name":"Biberach an der Riß, Stadt","type":"Große_Kreisstadt"},"district":{"key":"08426","name":"Biberach","type":"Landkreis"},"federalState":{"key":"08","name":"Baden-Württemberg"}},{"name":"Talfeldstr.","postalCode":"88400","locality":"Biberach an der Riß","municipality":{"key":"08426021","name":"Biberach an der Riß, Stadt","type":"Große_Kreisstadt"},"district":{"key":"08426","name":"Biberach","type":"Landkreis"},"federalState":{"key":"08","name":"Baden-Württemberg"}},{"name":"Tannenstr.","postalCode":"88400","locality":"Biberach an der Riß","municipality":{"key":"08426021","name":"Biberach an der Riß, Stadt","type":"Große_Kreisstadt"},"district":{"key":"08426","name":"Biberach","type":"Landkreis"},"federalState":{"key":"08","name":"Baden-Württemberg"}},{"name":"Tannenweg","postalCode":"77781","locality":"Biberach","municipality":{"key":"08317011","name":"Biberach","type":"Kreisangehörige_Gemeinde"},"district":{"key":"08317","name":"Ortenaukreis","type":"Landkreis"},"federalState":{"key":"08","name":"Baden-Württemberg"}},{"name":"Teichweg","postalCode":"88400","locality":"Biberach an der Riß","municipality":{"key":"08426021","name":"Biberach an der Riß, Stadt","type":"Große_Kreisstadt"},"district":{"key":"08426","name":"Biberach","type":"Landkreis"},"federalState":{"key":"08","name":"Baden-Württemberg"}},{"name":"Telawiallee","postalCode":"88400","locality":"Biberach an der Riß","municipality":{"key":"08426021","name":"Biberach an der Riß, Stadt","type":"Große_Kreisstadt"},"district":{"key":"08426","name":"Biberach","type":"Landkreis"},"federalState":{"key":"08","name":"Baden-Württemberg"}},{"name":"Teuchelhaldenstr.","postalCode":"88400","locality":"Biberach an der Riß","municipality":{"key":"08426021","name":"Biberach an der Riß, Stadt","type":"Große_Kreisstadt"},"district":{"key":"08426","name":"Biberach","type":"Landkreis"},"federalState":{"key":"08","name":"Baden-Württemberg"}},{"name":"Theaterstr.","postalCode":"88400","locality":"Biberach an der Riß","municipality":{"key":"08426021","name":"Biberach an der Riß, Stadt","type":"Große_Kreisstadt"},"district":{"key":"08426","name":"Biberach","type":"Landkreis"},"federalState":{"key":"08","name":"Baden-Württemberg"}},{"name":"Theodor-Castor-Weg","postalCode":"88400","locality":"Biberach an der Riß","municipality":{"key":"08426021","name":"Biberach an der Riß, Stadt","type":"Große_Kreisstadt"},"district":{"key":"08426","name":"Biberach","type":"Landkreis"},"federalState":{"key":"08","name":"Baden-Württemberg"}},{"name":"Theodor-Heuss-Str.","postalCode":"88400","locality":"Biberach an der Riß","municipality":{"key":"08426021","name":"Biberach an der Riß, Stadt","type":"Große_Kreisstadt"},"district":{"key":"08426","name":"Biberach","type":"Landkreis"},"federalState":{"key":"08","name":"Baden-Württemberg"}},{"name":"Thüringenstr.","postalCode":"88400","locality":"Biberach an der Riß","municipality":{"key":"08426021","name":"Biberach an der Riß, Stadt","type":"Große_Kreisstadt"},"district":{"key":"08426","name":"Biberach","type":"Landkreis"},"federalState":{"key":"08","name":"Baden-Württemberg"}},{"name":"Tobelweg","postalCode":"88400","locality":"Biberach an der Riß","municipality":{"key":"08426021","name":"Biberach an der Riß, Stadt","type":"Große_Kreisstadt"},"district":{"key":"08426","name":"Biberach","type":"Landkreis"},"federalState":{"key":"08","name":"Baden-Württemberg"}},{"name":"Trattengasse","postalCode":"88400","locality":"Biberach an der Riß","municipality":{"key":"08426021","name":"Biberach an der Riß, Stadt","type":"Große_Kreisstadt"},"district":{"key":"08426","name":"Biberach","type":"Landkreis"},"federalState":{"key":"08","name":"Baden-Württemberg"}},{"name":"Treutweg","postalCode":"88400","locality":"Biberach an der Riß","municipality":{"key":"08426021","name":"Biberach an der Riß, Stadt","type":"Große_Kreisstadt"},"district":{"key":"08426","name":"Biberach","type":"Landkreis"},"federalState":{"key":"08","name":"Baden-Württemberg"}},{"name":"Tulpenstr.","postalCode":"88441","locality":"Mittelbiberach","municipality":{"key":"08426074","name":"Mittelbiberach","type":"Kreisangehörige_Gemeinde"},"district":{"key":"08426","name":"Biberach","type":"Landkreis"},"federalState":{"key":"08","name":"Baden-Württemberg"}},{"name":"Tulpenweg","postalCode":"88400","locality":"Biberach an der Riß","municipality":{"key":"08426021","name":"Biberach an der Riß, Stadt","type":"Große_Kreisstadt"},"district":{"key":"08426","name":"Biberach","type":"Landkreis"},"federalState":{"key":"08","name":"Baden-Württemberg"}},{"name":"Tunnelweg","postalCode":"88400","locality":"Biberach an der Riß","municipality":{"key":"08426021","name":"Biberach an der Riß, Stadt","type":"Große_Kreisstadt"},"district":{"key":"08426","name":"Biberach","type":"Landkreis"},"federalState":{"key":"08","name":"Baden-Württemberg"}},{"name":"Uferstr.","postalCode":"88400","locality":"Biberach an der Riß","municipality":{"key":"08426021","name":"Biberach an der Riß, Stadt","type":"Große_Kreisstadt"},"district":{"key":"08426","name":"Biberach","type":"Landkreis"},"federalState":{"key":"08","name":"Baden-Württemberg"}},{"name":"Uhlandstr.","postalCode":"88400","locality":"Biberach an der Riß","municipality":{"key":"08426021","name":"Biberach an der Riß, Stadt","type":"Große_Kreisstadt"},"district":{"key":"08426","name":"Biberach","type":"Landkreis"},"federalState":{"key":"08","name":"Baden-Württemberg"}},{"name":"Uhlandstr.","postalCode":"88441","locality":"Mittelbiberach","municipality":{"key":"08426074","name":"Mittelbiberach","type":"Kreisangehörige_Gemeinde"},"district":{"key":"08426","name":"Biberach","type":"Landkreis"},"federalState":{"key":"08","name":"Baden-Württemberg"}},{"name":"Ulmenweg","postalCode":"88400","locality":"Biberach an der Riß","municipality":{"key":"08426021","name":"Biberach an der Riß, Stadt","type":"Große_Kreisstadt"},"district":{"key":"08426","name":"Biberach","type":"Landkreis"},"federalState":{"key":"08","name":"Baden-Württemberg"}},{"name":"Ulmenweg","postalCode":"88441","locality":"Mittelbiberach","municipality":{"key":"08426074","name":"Mittelbiberach","type":"Kreisangehörige_Gemeinde"},"district":{"key":"08426","name":"Biberach","type":"Landkreis"},"federalState":{"key":"08","name":"Baden-Württemberg"}},{"name":"Ulmer Str.","postalCode":"88400","locality":"Biberach an der Riß","municipality":{"key":"08426021","name":"Biberach an der Riß, Stadt","type":"Große_Kreisstadt"},"district":{"key":"08426","name":"Biberach","type":"Landkreis"},"federalState":{"key":"08","name":"Baden-Württemberg"}},{"name":"Ulmer-Tor-Str.","postalCode":"88400","locality":"Biberach an der Riß","municipality":{"key":"08426021","name":"Biberach an der Riß, Stadt","type":"Große_Kreisstadt"},"district":{"key":"08426","name":"Biberach","type":"Landkreis"},"federalState":{"key":"08","name":"Baden-Württemberg"}},{"name":"Ulrich-von-Hutten-Weg","postalCode":"88400","locality":"Biberach an der Riß","municipality":{"key":"08426021","name":"Biberach an der Riß, Stadt","type":"Große_Kreisstadt"},"district":{"key":"08426","name":"Biberach","type":"Landkreis"},"federalState":{"key":"08","name":"Baden-Württemberg"}},{"name":"Ulrika-Nisch-Str.","postalCode":"88441","locality":"Mittelbiberach","municipality":{"key":"08426074","name":"Mittelbiberach","type":"Kreisangehörige_Gemeinde"},"district":{"key":"08426","name":"Biberach","type":"Landkreis"},"federalState":{"key":"08","name":"Baden-Württemberg"}},{"name":"Ummendorfer Str.","postalCode":"88400","locality":"Biberach an der Riß","municipality":{"key":"08426021","name":"Biberach an der Riß, Stadt","type":"Große_Kreisstadt"},"district":{"key":"08426","name":"Biberach","type":"Landkreis"},"federalState":{"key":"08","name":"Baden-Württemberg"}},{"name":"Untere Mühlenstr.","postalCode":"88400","locality":"Biberach an der Riß","municipality":{"key":"08426021","name":"Biberach an der Riß, Stadt","type":"Große_Kreisstadt"},"district":{"key":"08426","name":"Biberach","type":"Landkreis"},"federalState":{"key":"08","name":"Baden-Württemberg"}},{"name":"Unterer Bühl","postalCode":"88400","locality":"Biberach an der Riß","municipality":{"key":"08426021","name":"Biberach an der Riß, Stadt","type":"Große_Kreisstadt"},"district":{"key":"08426","name":"Biberach","type":"Landkreis"},"federalState":{"key":"08","name":"Baden-Württemberg"}},{"name":"Untere Schügelestr.","postalCode":"88441","locality":"Mittelbiberach","municipality":{"key":"08426074","name":"Mittelbiberach","type":"Kreisangehörige_Gemeinde"},"district":{"key":"08426","name":"Biberach","type":"Landkreis"},"federalState":{"key":"08","name":"Baden-Württemberg"}},{"name":"Unterreute","postalCode":"88441","locality":"Mittelbiberach","municipality":{"key":"08426074","name":"Mittelbiberach","type":"Kreisangehörige_Gemeinde"},"district":{"key":"08426","name":"Biberach","type":"Landkreis"},"federalState":{"key":"08","name":"Baden-Württemberg"}},{"name":"Untertal","postalCode":"77781","locality":"Biberach","municipality":{"key":"08317011","name":"Biberach","type":"Kreisangehörige_Gemeinde"},"district":{"key":"08317","name":"Ortenaukreis","type":"Landkreis"},"federalState":{"key":"08","name":"Baden-Württemberg"}},{"name":"Valenceallee","postalCode":"88400","locality":"Biberach an der Riß","municipality":{"key":"08426021","name":"Biberach an der Riß, Stadt","type":"Große_Kreisstadt"},"district":{"key":"08426","name":"Biberach","type":"Landkreis"},"federalState":{"key":"08","name":"Baden-Württemberg"}},{"name":"Viehmarktplatz","postalCode":"88400","locality":"Biberach an der Riß","municipality":{"key":"08426021","name":"Biberach an der Riß, Stadt","type":"Große_Kreisstadt"},"district":{"key":"08426","name":"Biberach","type":"Landkreis"},"federalState":{"key":"08","name":"Baden-Württemberg"}},{"name":"Viehmarktstr.","postalCode":"88400","locality":"Biberach an der Riß","municipality":{"key":"08426021","name":"Biberach an der Riß, Stadt","type":"Große_Kreisstadt"},"district":{"key":"08426","name":"Biberach","type":"Landkreis"},"federalState":{"key":"08","name":"Baden-Württemberg"}},{"name":"Vogesenstr.","postalCode":"77781","locality":"Biberach","municipality":{"key":"08317011","name":"Biberach","type":"Kreisangehörige_Gemeinde"},"district":{"key":"08317","name":"Ortenaukreis","type":"Landkreis"},"federalState":{"key":"08","name":"Baden-Württemberg"}},{"name":"Vogteistr.","postalCode":"88441","locality":"Mittelbiberach","municipality":{"key":"08426074","name":"Mittelbiberach","type":"Kreisangehörige_Gemeinde"},"district":{"key":"08426","name":"Biberach","type":"Landkreis"},"federalState":{"key":"08","name":"Baden-Württemberg"}},{"name":"Vollmerstr.","postalCode":"88400","locality":"Biberach an der Riß","municipality":{"key":"08426021","name":"Biberach an der Riß, Stadt","type":"Große_Kreisstadt"},"district":{"key":"08426","name":"Biberach","type":"Landkreis"},"federalState":{"key":"08","name":"Baden-Württemberg"}},{"name":"Volmarweg","postalCode":"88400","locality":"Biberach an der Riß","municipality":{"key":"08426021","name":"Biberach an der Riß, Stadt","type":"Große_Kreisstadt"},"district":{"key":"08426","name":"Biberach","type":"Landkreis"},"federalState":{"key":"08","name":"Baden-Württemberg"}},{"name":"Vonierweg","postalCode":"88400","locality":"Biberach an der Riß","municipality":{"key":"08426021","name":"Biberach an der Riß, Stadt","type":"Große_Kreisstadt"},"district":{"key":"08426","name":"Biberach","type":"Landkreis"},"federalState":{"key":"08","name":"Baden-Württemberg"}},{"name":"Vorarlberger Str.","postalCode":"88400","locality":"Biberach an der Riß","municipality":{"key":"08426021","name":"Biberach an der Riß, Stadt","type":"Große_Kreisstadt"},"district":{"key":"08426","name":"Biberach","type":"Landkreis"},"federalState":{"key":"08","name":"Baden-Württemberg"}},{"name":"Vordere Au","postalCode":"88400","locality":"Biberach an der Riß","municipality":{"key":"08426021","name":"Biberach an der Riß, Stadt","type":"Große_Kreisstadt"},"district":{"key":"08426","name":"Biberach","type":"Landkreis"},"federalState":{"key":"08","name":"Baden-Württemberg"}},{"name":"Weiherstr.","postalCode":"88489","locality":"Wain","municipality":{"key":"08426125","name":"Wain","type":"Kreisangehörige_Gemeinde"},"district":{"key":"08426","name":"Biberach","type":"Landkreis"},"federalState":{"key":"08","name":"Baden-Württemberg"}},{"name":"Zeisigweg","postalCode":"88489","locality":"Wain","municipality":{"key":"08426125","name":"Wain","type":"Kreisangehörige_Gemeinde"},"district":{"key":"08426","name":"Biberach","type":"Landkreis"},"federalState":{"key":"08","name":"Baden-Württemberg"}},{"name":"Zieglerstr.","postalCode":"88489","locality":"Wain","municipality":{"key":"08426125","name":"Wain","type":"Kreisangehörige_Gemeinde"},"district":{"key":"08426","name":"Biberach","type":"Landkreis"},"federalState":{"key":"08","name":"Baden-Württemberg"}},{"name":"Öschweg","postalCode":"88441","locality":"Mittelbiberach","municipality":{"key":"08426074","name":"Mittelbiberach","type":"Kreisangehörige_Gemeinde"},"district":{"key":"08426","name":"Biberach","type":"Landkreis"},"federalState":{"key":"08","name":"Baden-Württemberg"}},]