[{"key":"10141324","name":"Chemin à l'Oie","postalCode":"1445","locality":"Vuiteboeuf","commune":{"key":"5766","name":"Vuiteboeuf","shortName":"Vuiteboeuf"},"district":{"key":"2224","name":"District du Jura-Nord vaudois"},"canton":{"key":"22","code":"VD","name":"Vaud"},"status":"Real"},{"key":"10141325","name":"Chemin de la Gare","postalCode":"1445","locality":"Vuiteboeuf","commune":{"key":"5766","name":"Vuiteboeuf","shortName":"Vuiteboeuf"},"district":{"key":"2224","name":"District du Jura-Nord vaudois"},"canton":{"key":"22","code":"VD","name":"Vaud"},"status":"Real"},{"key":"10010089","name":"Chemin de la Grande Salle","postalCode":"1445","locality":"Vuiteboeuf","commune":{"key":"5766","name":"Vuiteboeuf","shortName":"Vuiteboeuf"},"district":{"key":"2224","name":"District du Jura-Nord vaudois"},"canton":{"key":"22","code":"VD","name":"Vaud"},"status":"Real"},{"key":"10099230","name":"Chemin des Oches","postalCode":"1445","locality":"Vuiteboeuf","commune":{"key":"5766","name":"Vuiteboeuf","shortName":"Vuiteboeuf"},"district":{"key":"2224","name":"District du Jura-Nord vaudois"},"canton":{"key":"22","code":"VD","name":"Vaud"},"status":"Real"},{"key":"10099229","name":"Chemin du Bochet","postalCode":"1445","locality":"Vuiteboeuf","commune":{"key":"5766","name":"Vuiteboeuf","shortName":"Vuiteboeuf"},"district":{"key":"2224","name":"District du Jura-Nord vaudois"},"canton":{"key":"22","code":"VD","name":"Vaud"},"status":"Real"},{"key":"10040663","name":"Chemin du Pied de la Côte","postalCode":"1445","locality":"Vuiteboeuf","commune":{"key":"5766","name":"Vuiteboeuf","shortName":"Vuiteboeuf"},"district":{"key":"2224","name":"District du Jura-Nord vaudois"},"canton":{"key":"22","code":"VD","name":"Vaud"},"status":"Real"},{"key":"10145438","name":"Grand'Rue de Peney","postalCode":"1445","locality":"Vuiteboeuf","commune":{"key":"5766","name":"Vuiteboeuf","shortName":"Vuiteboeuf"},"district":{"key":"2224","name":"District du Jura-Nord vaudois"},"canton":{"key":"22","code":"VD","name":"Vaud"},"status":"Real"},{"key":"10182527","name":"Grange-la-Côte","postalCode":"1445","locality":"Vuiteboeuf","commune":{"key":"5766","name":"Vuiteboeuf","shortName":"Vuiteboeuf"},"district":{"key":"2224","name":"District du Jura-Nord vaudois"},"canton":{"key":"22","code":"VD","name":"Vaud"},"status":"Real"},{"key":"10121707","name":"Peney","postalCode":"1445","locality":"Vuiteboeuf","commune":{"key":"5766","name":"Vuiteboeuf","shortName":"Vuiteboeuf"},"district":{"key":"2224","name":"District du Jura-Nord vaudois"},"canton":{"key":"22","code":"VD","name":"Vaud"},"status":"Real"},{"key":"10184624","name":"Piauliauses","postalCode":"1445","locality":"Vuiteboeuf","commune":{"key":"5766","name":"Vuiteboeuf","shortName":"Vuiteboeuf"},"district":{"key":"2224","name":"District du Jura-Nord vaudois"},"canton":{"key":"22","code":"VD","name":"Vaud"},"status":"Real"},{"key":"10145440","name":"Quartier du Motty","postalCode":"1445","locality":"Vuiteboeuf","commune":{"key":"5766","name":"Vuiteboeuf","shortName":"Vuiteboeuf"},"district":{"key":"2224","name":"District du Jura-Nord vaudois"},"canton":{"key":"22","code":"VD","name":"Vaud"},"status":"Real"},{"key":"10180746","name":"Route de Baulmes","postalCode":"1445","locality":"Vuiteboeuf","commune":{"key":"5766","name":"Vuiteboeuf","shortName":"Vuiteboeuf"},"district":{"key":"2224","name":"District du Jura-Nord vaudois"},"canton":{"key":"22","code":"VD","name":"Vaud"},"status":"Real"},{"key":"10037090","name":"Route de Sainte-Croix","postalCode":"1445","locality":"Vuiteboeuf","commune":{"key":"5766","name":"Vuiteboeuf","shortName":"Vuiteboeuf"},"district":{"key":"2224","name":"District du Jura-Nord vaudois"},"canton":{"key":"22","code":"VD","name":"Vaud"},"status":"Real"},{"key":"10145439","name":"Route des Champs","postalCode":"1445","locality":"Vuiteboeuf","commune":{"key":"5766","name":"Vuiteboeuf","shortName":"Vuiteboeuf"},"district":{"key":"2224","name":"District du Jura-Nord vaudois"},"canton":{"key":"22","code":"VD","name":"Vaud"},"status":"Real"},{"key":"10073566","name":"Route de Vugelles","postalCode":"1445","locality":"Vuiteboeuf","commune":{"key":"5766","name":"Vuiteboeuf","shortName":"Vuiteboeuf"},"district":{"key":"2224","name":"District du Jura-Nord vaudois"},"canton":{"key":"22","code":"VD","name":"Vaud"},"status":"Real"},{"key":"10145442","name":"Route d'Yverdon","postalCode":"1445","locality":"Vuiteboeuf","commune":{"key":"5766","name":"Vuiteboeuf","shortName":"Vuiteboeuf"},"district":{"key":"2224","name":"District du Jura-Nord vaudois"},"canton":{"key":"22","code":"VD","name":"Vaud"},"status":"Real"},{"key":"10145443","name":"Rue des Scies","postalCode":"1445","locality":"Vuiteboeuf","commune":{"key":"5766","name":"Vuiteboeuf","shortName":"Vuiteboeuf"},"district":{"key":"2224","name":"District du Jura-Nord vaudois"},"canton":{"key":"22","code":"VD","name":"Vaud"},"status":"Real"},{"key":"10073565","name":"Rue du Culaz","postalCode":"1445","locality":"Vuiteboeuf","commune":{"key":"5766","name":"Vuiteboeuf","shortName":"Vuiteboeuf"},"district":{"key":"2224","name":"District du Jura-Nord vaudois"},"canton":{"key":"22","code":"VD","name":"Vaud"},"status":"Real"},{"key":"10040671","name":"Rue du Lugrin","postalCode":"1445","locality":"Vuiteboeuf","commune":{"key":"5766","name":"Vuiteboeuf","shortName":"Vuiteboeuf"},"district":{"key":"2224","name":"District du Jura-Nord vaudois"},"canton":{"key":"22","code":"VD","name":"Vaud"},"status":"Real"},{"key":"10040673","name":"Rue du Moulin Dessus","postalCode":"1445","locality":"Vuiteboeuf","commune":{"key":"5766","name":"Vuiteboeuf","shortName":"Vuiteboeuf"},"district":{"key":"2224","name":"District du Jura-Nord vaudois"},"canton":{"key":"22","code":"VD","name":"Vaud"},"status":"Real"},{"key":"10145444","name":"Ruelle de la Laiterie","postalCode":"1445","locality":"Vuiteboeuf","commune":{"key":"5766","name":"Vuiteboeuf","shortName":"Vuiteboeuf"},"district":{"key":"2224","name":"District du Jura-Nord vaudois"},"canton":{"key":"22","code":"VD","name":"Vaud"},"status":"Real"},]