[{"name":"Am Alten Kamp","postalCode":"49832","locality":"Messingen","municipality":{"key":"03454036","name":"Messingen","type":"Kreisangehörige_Gemeinde"},"district":{"key":"03454","name":"Emsland","type":"Landkreis"},"federalState":{"key":"03","name":"Niedersachsen"}},{"name":"Am Herzesch","postalCode":"49832","locality":"Messingen","municipality":{"key":"03454036","name":"Messingen","type":"Kreisangehörige_Gemeinde"},"district":{"key":"03454","name":"Emsland","type":"Landkreis"},"federalState":{"key":"03","name":"Niedersachsen"}},{"name":"Am Kötteringer Esch","postalCode":"49832","locality":"Messingen","municipality":{"key":"03454036","name":"Messingen","type":"Kreisangehörige_Gemeinde"},"district":{"key":"03454","name":"Emsland","type":"Landkreis"},"federalState":{"key":"03","name":"Niedersachsen"}},{"name":"Am Lehmbrink","postalCode":"49832","locality":"Messingen","municipality":{"key":"03454036","name":"Messingen","type":"Kreisangehörige_Gemeinde"},"district":{"key":"03454","name":"Emsland","type":"Landkreis"},"federalState":{"key":"03","name":"Niedersachsen"}},{"name":"Am Messinger Esch","postalCode":"49832","locality":"Messingen","municipality":{"key":"03454036","name":"Messingen","type":"Kreisangehörige_Gemeinde"},"district":{"key":"03454","name":"Emsland","type":"Landkreis"},"federalState":{"key":"03","name":"Niedersachsen"}},{"name":"Am Mühlenkamp","postalCode":"49832","locality":"Messingen","municipality":{"key":"03454036","name":"Messingen","type":"Kreisangehörige_Gemeinde"},"district":{"key":"03454","name":"Emsland","type":"Landkreis"},"federalState":{"key":"03","name":"Niedersachsen"}},{"name":"An den Schultenhöfen","postalCode":"49832","locality":"Messingen","municipality":{"key":"03454036","name":"Messingen","type":"Kreisangehörige_Gemeinde"},"district":{"key":"03454","name":"Emsland","type":"Landkreis"},"federalState":{"key":"03","name":"Niedersachsen"}},{"name":"Antoniusstr.","postalCode":"49832","locality":"Messingen","municipality":{"key":"03454036","name":"Messingen","type":"Kreisangehörige_Gemeinde"},"district":{"key":"03454","name":"Emsland","type":"Landkreis"},"federalState":{"key":"03","name":"Niedersachsen"}},{"name":"Auf dem Flaage","postalCode":"49832","locality":"Messingen","municipality":{"key":"03454036","name":"Messingen","type":"Kreisangehörige_Gemeinde"},"district":{"key":"03454","name":"Emsland","type":"Landkreis"},"federalState":{"key":"03","name":"Niedersachsen"}},{"name":"Auf der Haar","postalCode":"49832","locality":"Messingen","municipality":{"key":"03454036","name":"Messingen","type":"Kreisangehörige_Gemeinde"},"district":{"key":"03454","name":"Emsland","type":"Landkreis"},"federalState":{"key":"03","name":"Niedersachsen"}},{"name":"Auf der Horst","postalCode":"49832","locality":"Messingen","municipality":{"key":"03454036","name":"Messingen","type":"Kreisangehörige_Gemeinde"},"district":{"key":"03454","name":"Emsland","type":"Landkreis"},"federalState":{"key":"03","name":"Niedersachsen"}},{"name":"Beestener Str.","postalCode":"49832","locality":"Messingen","municipality":{"key":"03454036","name":"Messingen","type":"Kreisangehörige_Gemeinde"},"district":{"key":"03454","name":"Emsland","type":"Landkreis"},"federalState":{"key":"03","name":"Niedersachsen"}},{"name":"Bokeloher Kirchweg","postalCode":"49832","locality":"Messingen","municipality":{"key":"03454036","name":"Messingen","type":"Kreisangehörige_Gemeinde"},"district":{"key":"03454","name":"Emsland","type":"Landkreis"},"federalState":{"key":"03","name":"Niedersachsen"}},{"name":"Brookhoffweg","postalCode":"49832","locality":"Messingen","municipality":{"key":"03454036","name":"Messingen","type":"Kreisangehörige_Gemeinde"},"district":{"key":"03454","name":"Emsland","type":"Landkreis"},"federalState":{"key":"03","name":"Niedersachsen"}},{"name":"Brümseler Damm","postalCode":"49832","locality":"Messingen","municipality":{"key":"03454036","name":"Messingen","type":"Kreisangehörige_Gemeinde"},"district":{"key":"03454","name":"Emsland","type":"Landkreis"},"federalState":{"key":"03","name":"Niedersachsen"}},{"name":"Brümseler Str.","postalCode":"49832","locality":"Messingen","municipality":{"key":"03454036","name":"Messingen","type":"Kreisangehörige_Gemeinde"},"district":{"key":"03454","name":"Emsland","type":"Landkreis"},"federalState":{"key":"03","name":"Niedersachsen"}},{"name":"Dallhofstr.","postalCode":"49832","locality":"Messingen","municipality":{"key":"03454036","name":"Messingen","type":"Kreisangehörige_Gemeinde"},"district":{"key":"03454","name":"Emsland","type":"Landkreis"},"federalState":{"key":"03","name":"Niedersachsen"}},{"name":"Frerener Str.","postalCode":"49832","locality":"Messingen","municipality":{"key":"03454036","name":"Messingen","type":"Kreisangehörige_Gemeinde"},"district":{"key":"03454","name":"Emsland","type":"Landkreis"},"federalState":{"key":"03","name":"Niedersachsen"}},{"name":"Gartenstr.","postalCode":"49832","locality":"Messingen","municipality":{"key":"03454036","name":"Messingen","type":"Kreisangehörige_Gemeinde"},"district":{"key":"03454","name":"Emsland","type":"Landkreis"},"federalState":{"key":"03","name":"Niedersachsen"}},{"name":"Grenzweg","postalCode":"49832","locality":"Messingen","municipality":{"key":"03454036","name":"Messingen","type":"Kreisangehörige_Gemeinde"},"district":{"key":"03454","name":"Emsland","type":"Landkreis"},"federalState":{"key":"03","name":"Niedersachsen"}},{"name":"Hellweg","postalCode":"49832","locality":"Messingen","municipality":{"key":"03454036","name":"Messingen","type":"Kreisangehörige_Gemeinde"},"district":{"key":"03454","name":"Emsland","type":"Landkreis"},"federalState":{"key":"03","name":"Niedersachsen"}},{"name":"Herzeschweg","postalCode":"49832","locality":"Messingen","municipality":{"key":"03454036","name":"Messingen","type":"Kreisangehörige_Gemeinde"},"district":{"key":"03454","name":"Emsland","type":"Landkreis"},"federalState":{"key":"03","name":"Niedersachsen"}},{"name":"Heugrabenstr.","postalCode":"49832","locality":"Messingen","municipality":{"key":"03454036","name":"Messingen","type":"Kreisangehörige_Gemeinde"},"district":{"key":"03454","name":"Emsland","type":"Landkreis"},"federalState":{"key":"03","name":"Niedersachsen"}},{"name":"Hoher Weg","postalCode":"49832","locality":"Messingen","municipality":{"key":"03454036","name":"Messingen","type":"Kreisangehörige_Gemeinde"},"district":{"key":"03454","name":"Emsland","type":"Landkreis"},"federalState":{"key":"03","name":"Niedersachsen"}},{"name":"Kolpingstr.","postalCode":"49832","locality":"Messingen","municipality":{"key":"03454036","name":"Messingen","type":"Kreisangehörige_Gemeinde"},"district":{"key":"03454","name":"Emsland","type":"Landkreis"},"federalState":{"key":"03","name":"Niedersachsen"}},{"name":"Kötteringer Str.","postalCode":"49832","locality":"Messingen","municipality":{"key":"03454036","name":"Messingen","type":"Kreisangehörige_Gemeinde"},"district":{"key":"03454","name":"Emsland","type":"Landkreis"},"federalState":{"key":"03","name":"Niedersachsen"}},{"name":"Lingener Str.","postalCode":"49832","locality":"Messingen","municipality":{"key":"03454036","name":"Messingen","type":"Kreisangehörige_Gemeinde"},"district":{"key":"03454","name":"Emsland","type":"Landkreis"},"federalState":{"key":"03","name":"Niedersachsen"}},{"name":"Mühlenweg","postalCode":"49832","locality":"Messingen","municipality":{"key":"03454036","name":"Messingen","type":"Kreisangehörige_Gemeinde"},"district":{"key":"03454","name":"Emsland","type":"Landkreis"},"federalState":{"key":"03","name":"Niedersachsen"}},{"name":"Mundersumer Weg","postalCode":"49832","locality":"Messingen","municipality":{"key":"03454036","name":"Messingen","type":"Kreisangehörige_Gemeinde"},"district":{"key":"03454","name":"Emsland","type":"Landkreis"},"federalState":{"key":"03","name":"Niedersachsen"}},{"name":"Pfarrer-Baute-Str.","postalCode":"49832","locality":"Messingen","municipality":{"key":"03454036","name":"Messingen","type":"Kreisangehörige_Gemeinde"},"district":{"key":"03454","name":"Emsland","type":"Landkreis"},"federalState":{"key":"03","name":"Niedersachsen"}},{"name":"Schulstr.","postalCode":"49832","locality":"Messingen","municipality":{"key":"03454036","name":"Messingen","type":"Kreisangehörige_Gemeinde"},"district":{"key":"03454","name":"Emsland","type":"Landkreis"},"federalState":{"key":"03","name":"Niedersachsen"}},{"name":"Schwarzer Graben","postalCode":"49832","locality":"Messingen","municipality":{"key":"03454036","name":"Messingen","type":"Kreisangehörige_Gemeinde"},"district":{"key":"03454","name":"Emsland","type":"Landkreis"},"federalState":{"key":"03","name":"Niedersachsen"}},{"name":"St. Georg Str.","postalCode":"49832","locality":"Messingen","municipality":{"key":"03454036","name":"Messingen","type":"Kreisangehörige_Gemeinde"},"district":{"key":"03454","name":"Emsland","type":"Landkreis"},"federalState":{"key":"03","name":"Niedersachsen"}},{"name":"Surdelweg","postalCode":"49832","locality":"Messingen","municipality":{"key":"03454036","name":"Messingen","type":"Kreisangehörige_Gemeinde"},"district":{"key":"03454","name":"Emsland","type":"Landkreis"},"federalState":{"key":"03","name":"Niedersachsen"}},{"name":"Thuiner Str.","postalCode":"49832","locality":"Messingen","municipality":{"key":"03454036","name":"Messingen","type":"Kreisangehörige_Gemeinde"},"district":{"key":"03454","name":"Emsland","type":"Landkreis"},"federalState":{"key":"03","name":"Niedersachsen"}},]