[{"name":"Agricolastr.","postalCode":"01471","locality":"Radeburg","municipality":{"key":"14627220","name":"Radeburg, Stadt","type":"Stadt"},"district":{"key":"14627","name":"Meißen","type":"Landkreis"},"federalState":{"key":"14","name":"Sachsen"}},{"name":"Ahornweg","postalCode":"01471","locality":"Radeburg","municipality":{"key":"14627220","name":"Radeburg, Stadt","type":"Stadt"},"district":{"key":"14627","name":"Meißen","type":"Landkreis"},"federalState":{"key":"14","name":"Sachsen"}},{"name":"Alte Furth","postalCode":"01471","locality":"Radeburg","municipality":{"key":"14627220","name":"Radeburg, Stadt","type":"Stadt"},"district":{"key":"14627","name":"Meißen","type":"Landkreis"},"federalState":{"key":"14","name":"Sachsen"}},{"name":"Alte Glasstr.","postalCode":"01471","locality":"Radeburg","municipality":{"key":"14627220","name":"Radeburg, Stadt","type":"Stadt"},"district":{"key":"14627","name":"Meißen","type":"Landkreis"},"federalState":{"key":"14","name":"Sachsen"}},{"name":"Alte Poststr.","postalCode":"01471","locality":"Radeburg","municipality":{"key":"14627220","name":"Radeburg, Stadt","type":"Stadt"},"district":{"key":"14627","name":"Meißen","type":"Landkreis"},"federalState":{"key":"14","name":"Sachsen"}},{"name":"Am Aalberg","postalCode":"01471","locality":"Radeburg","municipality":{"key":"14627220","name":"Radeburg, Stadt","type":"Stadt"},"district":{"key":"14627","name":"Meißen","type":"Landkreis"},"federalState":{"key":"14","name":"Sachsen"}},{"name":"Am Bach","postalCode":"01471","locality":"Radeburg","municipality":{"key":"14627220","name":"Radeburg, Stadt","type":"Stadt"},"district":{"key":"14627","name":"Meißen","type":"Landkreis"},"federalState":{"key":"14","name":"Sachsen"}},{"name":"Am Berg","postalCode":"01471","locality":"Radeburg","municipality":{"key":"14627220","name":"Radeburg, Stadt","type":"Stadt"},"district":{"key":"14627","name":"Meißen","type":"Landkreis"},"federalState":{"key":"14","name":"Sachsen"}},{"name":"Am Busbahnhof","postalCode":"01471","locality":"Radeburg","municipality":{"key":"14627220","name":"Radeburg, Stadt","type":"Stadt"},"district":{"key":"14627","name":"Meißen","type":"Landkreis"},"federalState":{"key":"14","name":"Sachsen"}},{"name":"Am Feldanger","postalCode":"01471","locality":"Radeburg","municipality":{"key":"14627220","name":"Radeburg, Stadt","type":"Stadt"},"district":{"key":"14627","name":"Meißen","type":"Landkreis"},"federalState":{"key":"14","name":"Sachsen"}},{"name":"Am Heroldstein","postalCode":"01471","locality":"Radeburg","municipality":{"key":"14627220","name":"Radeburg, Stadt","type":"Stadt"},"district":{"key":"14627","name":"Meißen","type":"Landkreis"},"federalState":{"key":"14","name":"Sachsen"}},{"name":"Am Hofwall","postalCode":"01471","locality":"Radeburg","municipality":{"key":"14627220","name":"Radeburg, Stadt","type":"Stadt"},"district":{"key":"14627","name":"Meißen","type":"Landkreis"},"federalState":{"key":"14","name":"Sachsen"}},{"name":"Am Hohberg","postalCode":"01471","locality":"Radeburg","municipality":{"key":"14627220","name":"Radeburg, Stadt","type":"Stadt"},"district":{"key":"14627","name":"Meißen","type":"Landkreis"},"federalState":{"key":"14","name":"Sachsen"}},{"name":"Am Meißner Berg","postalCode":"01471","locality":"Radeburg","municipality":{"key":"14627220","name":"Radeburg, Stadt","type":"Stadt"},"district":{"key":"14627","name":"Meißen","type":"Landkreis"},"federalState":{"key":"14","name":"Sachsen"}},{"name":"Am Pechfluß","postalCode":"01471","locality":"Radeburg","municipality":{"key":"14627220","name":"Radeburg, Stadt","type":"Stadt"},"district":{"key":"14627","name":"Meißen","type":"Landkreis"},"federalState":{"key":"14","name":"Sachsen"}},{"name":"Am Rödergraben","postalCode":"01471","locality":"Radeburg","municipality":{"key":"14627220","name":"Radeburg, Stadt","type":"Stadt"},"district":{"key":"14627","name":"Meißen","type":"Landkreis"},"federalState":{"key":"14","name":"Sachsen"}},{"name":"Am Schloß","postalCode":"01471","locality":"Radeburg","municipality":{"key":"14627220","name":"Radeburg, Stadt","type":"Stadt"},"district":{"key":"14627","name":"Meißen","type":"Landkreis"},"federalState":{"key":"14","name":"Sachsen"}},{"name":"Am Schloßpark","postalCode":"01471","locality":"Radeburg","municipality":{"key":"14627220","name":"Radeburg, Stadt","type":"Stadt"},"district":{"key":"14627","name":"Meißen","type":"Landkreis"},"federalState":{"key":"14","name":"Sachsen"}},{"name":"Amselweg","postalCode":"01471","locality":"Radeburg","municipality":{"key":"14627220","name":"Radeburg, Stadt","type":"Stadt"},"district":{"key":"14627","name":"Meißen","type":"Landkreis"},"federalState":{"key":"14","name":"Sachsen"}},{"name":"Am Sinter","postalCode":"01471","locality":"Radeburg","municipality":{"key":"14627220","name":"Radeburg, Stadt","type":"Stadt"},"district":{"key":"14627","name":"Meißen","type":"Landkreis"},"federalState":{"key":"14","name":"Sachsen"}},{"name":"Am Wald","postalCode":"01471","locality":"Radeburg","municipality":{"key":"14627220","name":"Radeburg, Stadt","type":"Stadt"},"district":{"key":"14627","name":"Meißen","type":"Landkreis"},"federalState":{"key":"14","name":"Sachsen"}},{"name":"Am Weinberg","postalCode":"01471","locality":"Radeburg","municipality":{"key":"14627220","name":"Radeburg, Stadt","type":"Stadt"},"district":{"key":"14627","name":"Meißen","type":"Landkreis"},"federalState":{"key":"14","name":"Sachsen"}},{"name":"Am Zeidelteich","postalCode":"01471","locality":"Radeburg","municipality":{"key":"14627220","name":"Radeburg, Stadt","type":"Stadt"},"district":{"key":"14627","name":"Meißen","type":"Landkreis"},"federalState":{"key":"14","name":"Sachsen"}},{"name":"Anbaustr.","postalCode":"01471","locality":"Radeburg","municipality":{"key":"14627220","name":"Radeburg, Stadt","type":"Stadt"},"district":{"key":"14627","name":"Meißen","type":"Landkreis"},"federalState":{"key":"14","name":"Sachsen"}},{"name":"An der Autobahn","postalCode":"01471","locality":"Radeburg","municipality":{"key":"14627220","name":"Radeburg, Stadt","type":"Stadt"},"district":{"key":"14627","name":"Meißen","type":"Landkreis"},"federalState":{"key":"14","name":"Sachsen"}},{"name":"An der Hohle","postalCode":"01471","locality":"Radeburg","municipality":{"key":"14627220","name":"Radeburg, Stadt","type":"Stadt"},"district":{"key":"14627","name":"Meißen","type":"Landkreis"},"federalState":{"key":"14","name":"Sachsen"}},{"name":"An der Kirche","postalCode":"01471","locality":"Radeburg","municipality":{"key":"14627220","name":"Radeburg, Stadt","type":"Stadt"},"district":{"key":"14627","name":"Meißen","type":"Landkreis"},"federalState":{"key":"14","name":"Sachsen"}},{"name":"An der Promnitz","postalCode":"01471","locality":"Radeburg","municipality":{"key":"14627220","name":"Radeburg, Stadt","type":"Stadt"},"district":{"key":"14627","name":"Meißen","type":"Landkreis"},"federalState":{"key":"14","name":"Sachsen"}},{"name":"An der Röder","postalCode":"01471","locality":"Radeburg","municipality":{"key":"14627220","name":"Radeburg, Stadt","type":"Stadt"},"district":{"key":"14627","name":"Meißen","type":"Landkreis"},"federalState":{"key":"14","name":"Sachsen"}},{"name":"An der Wiese","postalCode":"01471","locality":"Radeburg","municipality":{"key":"14627220","name":"Radeburg, Stadt","type":"Stadt"},"district":{"key":"14627","name":"Meißen","type":"Landkreis"},"federalState":{"key":"14","name":"Sachsen"}},{"name":"Argenbühler Str.","postalCode":"01471","locality":"Radeburg","municipality":{"key":"14627220","name":"Radeburg, Stadt","type":"Stadt"},"district":{"key":"14627","name":"Meißen","type":"Landkreis"},"federalState":{"key":"14","name":"Sachsen"}},{"name":"Asternweg","postalCode":"01471","locality":"Radeburg","municipality":{"key":"14627220","name":"Radeburg, Stadt","type":"Stadt"},"district":{"key":"14627","name":"Meißen","type":"Landkreis"},"federalState":{"key":"14","name":"Sachsen"}},{"name":"August-Bebel-Str.","postalCode":"01471","locality":"Radeburg","municipality":{"key":"14627220","name":"Radeburg, Stadt","type":"Stadt"},"district":{"key":"14627","name":"Meißen","type":"Landkreis"},"federalState":{"key":"14","name":"Sachsen"}},{"name":"Bahnhofstr.","postalCode":"01471","locality":"Radeburg","municipality":{"key":"14627220","name":"Radeburg, Stadt","type":"Stadt"},"district":{"key":"14627","name":"Meißen","type":"Landkreis"},"federalState":{"key":"14","name":"Sachsen"}},{"name":"Bärnsdorfer Hauptstr.","postalCode":"01471","locality":"Radeburg","municipality":{"key":"14627220","name":"Radeburg, Stadt","type":"Stadt"},"district":{"key":"14627","name":"Meißen","type":"Landkreis"},"federalState":{"key":"14","name":"Sachsen"}},{"name":"Bärnsdorfer Str.","postalCode":"01471","locality":"Radeburg","municipality":{"key":"14627220","name":"Radeburg, Stadt","type":"Stadt"},"district":{"key":"14627","name":"Meißen","type":"Landkreis"},"federalState":{"key":"14","name":"Sachsen"}},{"name":"Berbisdorfer Hauptstr.","postalCode":"01471","locality":"Radeburg","municipality":{"key":"14627220","name":"Radeburg, Stadt","type":"Stadt"},"district":{"key":"14627","name":"Meißen","type":"Landkreis"},"federalState":{"key":"14","name":"Sachsen"}},{"name":"Berbisdorfer Str.","postalCode":"01471","locality":"Radeburg","municipality":{"key":"14627220","name":"Radeburg, Stadt","type":"Stadt"},"district":{"key":"14627","name":"Meißen","type":"Landkreis"},"federalState":{"key":"14","name":"Sachsen"}},{"name":"Bergstr.","postalCode":"01471","locality":"Radeburg","municipality":{"key":"14627220","name":"Radeburg, Stadt","type":"Stadt"},"district":{"key":"14627","name":"Meißen","type":"Landkreis"},"federalState":{"key":"14","name":"Sachsen"}},{"name":"Birkenweg","postalCode":"01471","locality":"Radeburg","municipality":{"key":"14627220","name":"Radeburg, Stadt","type":"Stadt"},"district":{"key":"14627","name":"Meißen","type":"Landkreis"},"federalState":{"key":"14","name":"Sachsen"}},{"name":"Bodener Str.","postalCode":"01471","locality":"Radeburg","municipality":{"key":"14627220","name":"Radeburg, Stadt","type":"Stadt"},"district":{"key":"14627","name":"Meißen","type":"Landkreis"},"federalState":{"key":"14","name":"Sachsen"}},{"name":"Brockhausstr.","postalCode":"01471","locality":"Radeburg","municipality":{"key":"14627220","name":"Radeburg, Stadt","type":"Stadt"},"district":{"key":"14627","name":"Meißen","type":"Landkreis"},"federalState":{"key":"14","name":"Sachsen"}},{"name":"Buchenweg","postalCode":"01471","locality":"Radeburg","municipality":{"key":"14627220","name":"Radeburg, Stadt","type":"Stadt"},"district":{"key":"14627","name":"Meißen","type":"Landkreis"},"federalState":{"key":"14","name":"Sachsen"}},{"name":"Carolahain","postalCode":"01471","locality":"Radeburg","municipality":{"key":"14627220","name":"Radeburg, Stadt","type":"Stadt"},"district":{"key":"14627","name":"Meißen","type":"Landkreis"},"federalState":{"key":"14","name":"Sachsen"}},{"name":"Carolinenstr.","postalCode":"01471","locality":"Radeburg","municipality":{"key":"14627220","name":"Radeburg, Stadt","type":"Stadt"},"district":{"key":"14627","name":"Meißen","type":"Landkreis"},"federalState":{"key":"14","name":"Sachsen"}},{"name":"Cunnertswalder Str.","postalCode":"01471","locality":"Radeburg","municipality":{"key":"14627220","name":"Radeburg, Stadt","type":"Stadt"},"district":{"key":"14627","name":"Meißen","type":"Landkreis"},"federalState":{"key":"14","name":"Sachsen"}},{"name":"Dahlienweg","postalCode":"01471","locality":"Radeburg","municipality":{"key":"14627220","name":"Radeburg, Stadt","type":"Stadt"},"district":{"key":"14627","name":"Meißen","type":"Landkreis"},"federalState":{"key":"14","name":"Sachsen"}},{"name":"Dammweg","postalCode":"01471","locality":"Radeburg","municipality":{"key":"14627220","name":"Radeburg, Stadt","type":"Stadt"},"district":{"key":"14627","name":"Meißen","type":"Landkreis"},"federalState":{"key":"14","name":"Sachsen"}},{"name":"Dieselstr.","postalCode":"01471","locality":"Radeburg","municipality":{"key":"14627220","name":"Radeburg, Stadt","type":"Stadt"},"district":{"key":"14627","name":"Meißen","type":"Landkreis"},"federalState":{"key":"14","name":"Sachsen"}},{"name":"Dorfanger","postalCode":"01471","locality":"Radeburg","municipality":{"key":"14627220","name":"Radeburg, Stadt","type":"Stadt"},"district":{"key":"14627","name":"Meißen","type":"Landkreis"},"federalState":{"key":"14","name":"Sachsen"}},{"name":"Dorfstr.","postalCode":"01471","locality":"Radeburg","municipality":{"key":"14627220","name":"Radeburg, Stadt","type":"Stadt"},"district":{"key":"14627","name":"Meißen","type":"Landkreis"},"federalState":{"key":"14","name":"Sachsen"}},{"name":"Dresdner Str.","postalCode":"01471","locality":"Radeburg","municipality":{"key":"14627220","name":"Radeburg, Stadt","type":"Stadt"},"district":{"key":"14627","name":"Meißen","type":"Landkreis"},"federalState":{"key":"14","name":"Sachsen"}},{"name":"Drosselweg","postalCode":"01471","locality":"Radeburg","municipality":{"key":"14627220","name":"Radeburg, Stadt","type":"Stadt"},"district":{"key":"14627","name":"Meißen","type":"Landkreis"},"federalState":{"key":"14","name":"Sachsen"}},{"name":"Edenkobener Str.","postalCode":"01471","locality":"Radeburg","municipality":{"key":"14627220","name":"Radeburg, Stadt","type":"Stadt"},"district":{"key":"14627","name":"Meißen","type":"Landkreis"},"federalState":{"key":"14","name":"Sachsen"}},{"name":"Eichenstr.","postalCode":"01471","locality":"Radeburg","municipality":{"key":"14627220","name":"Radeburg, Stadt","type":"Stadt"},"district":{"key":"14627","name":"Meißen","type":"Landkreis"},"federalState":{"key":"14","name":"Sachsen"}},{"name":"Einsteinstr.","postalCode":"01471","locality":"Radeburg","municipality":{"key":"14627220","name":"Radeburg, Stadt","type":"Stadt"},"district":{"key":"14627","name":"Meißen","type":"Landkreis"},"federalState":{"key":"14","name":"Sachsen"}},{"name":"Färbergäßchen","postalCode":"01471","locality":"Radeburg","municipality":{"key":"14627220","name":"Radeburg, Stadt","type":"Stadt"},"district":{"key":"14627","name":"Meißen","type":"Landkreis"},"federalState":{"key":"14","name":"Sachsen"}},{"name":"Finkenweg","postalCode":"01471","locality":"Radeburg","municipality":{"key":"14627220","name":"Radeburg, Stadt","type":"Stadt"},"district":{"key":"14627","name":"Meißen","type":"Landkreis"},"federalState":{"key":"14","name":"Sachsen"}},{"name":"Flügel B","postalCode":"01471","locality":"Radeburg","municipality":{"key":"14627220","name":"Radeburg, Stadt","type":"Stadt"},"district":{"key":"14627","name":"Meißen","type":"Landkreis"},"federalState":{"key":"14","name":"Sachsen"}},{"name":"Frauenteichweg","postalCode":"01471","locality":"Radeburg","municipality":{"key":"14627220","name":"Radeburg, Stadt","type":"Stadt"},"district":{"key":"14627","name":"Meißen","type":"Landkreis"},"federalState":{"key":"14","name":"Sachsen"}},{"name":"Freiheitsstr.","postalCode":"01471","locality":"Radeburg","municipality":{"key":"14627220","name":"Radeburg, Stadt","type":"Stadt"},"district":{"key":"14627","name":"Meißen","type":"Landkreis"},"federalState":{"key":"14","name":"Sachsen"}},{"name":"Frydlanter Str.","postalCode":"01471","locality":"Radeburg","municipality":{"key":"14627220","name":"Radeburg, Stadt","type":"Stadt"},"district":{"key":"14627","name":"Meißen","type":"Landkreis"},"federalState":{"key":"14","name":"Sachsen"}},{"name":"F-Weg","postalCode":"01471","locality":"Radeburg","municipality":{"key":"14627220","name":"Radeburg, Stadt","type":"Stadt"},"district":{"key":"14627","name":"Meißen","type":"Landkreis"},"federalState":{"key":"14","name":"Sachsen"}},{"name":"Gartenstr.","postalCode":"01471","locality":"Radeburg","municipality":{"key":"14627220","name":"Radeburg, Stadt","type":"Stadt"},"district":{"key":"14627","name":"Meißen","type":"Landkreis"},"federalState":{"key":"14","name":"Sachsen"}},{"name":"Gewerbestr.","postalCode":"01471","locality":"Radeburg","municipality":{"key":"14627220","name":"Radeburg, Stadt","type":"Stadt"},"district":{"key":"14627","name":"Meißen","type":"Landkreis"},"federalState":{"key":"14","name":"Sachsen"}},{"name":"Glasstr.","postalCode":"01471","locality":"Radeburg","municipality":{"key":"14627220","name":"Radeburg, Stadt","type":"Stadt"},"district":{"key":"14627","name":"Meißen","type":"Landkreis"},"federalState":{"key":"14","name":"Sachsen"}},{"name":"Gottfried-Schenker-Str.","postalCode":"01471","locality":"Radeburg","municipality":{"key":"14627220","name":"Radeburg, Stadt","type":"Stadt"},"district":{"key":"14627","name":"Meißen","type":"Landkreis"},"federalState":{"key":"14","name":"Sachsen"}},{"name":"Grenzweg","postalCode":"01471","locality":"Radeburg","municipality":{"key":"14627220","name":"Radeburg, Stadt","type":"Stadt"},"district":{"key":"14627","name":"Meißen","type":"Landkreis"},"federalState":{"key":"14","name":"Sachsen"}},{"name":"Großdittmannsdorfer Str.","postalCode":"01471","locality":"Radeburg","municipality":{"key":"14627220","name":"Radeburg, Stadt","type":"Stadt"},"district":{"key":"14627","name":"Meißen","type":"Landkreis"},"federalState":{"key":"14","name":"Sachsen"}},{"name":"Großenhainer Platz","postalCode":"01471","locality":"Radeburg","municipality":{"key":"14627220","name":"Radeburg, Stadt","type":"Stadt"},"district":{"key":"14627","name":"Meißen","type":"Landkreis"},"federalState":{"key":"14","name":"Sachsen"}},{"name":"Großenhainer Str.","postalCode":"01471","locality":"Radeburg","municipality":{"key":"14627220","name":"Radeburg, Stadt","type":"Stadt"},"district":{"key":"14627","name":"Meißen","type":"Landkreis"},"federalState":{"key":"14","name":"Sachsen"}},{"name":"Guerickestr.","postalCode":"01471","locality":"Radeburg","municipality":{"key":"14627220","name":"Radeburg, Stadt","type":"Stadt"},"district":{"key":"14627","name":"Meißen","type":"Landkreis"},"federalState":{"key":"14","name":"Sachsen"}},{"name":"Gutenbergstr.","postalCode":"01471","locality":"Radeburg","municipality":{"key":"14627220","name":"Radeburg, Stadt","type":"Stadt"},"district":{"key":"14627","name":"Meißen","type":"Landkreis"},"federalState":{"key":"14","name":"Sachsen"}},{"name":"Haintorweg","postalCode":"01471","locality":"Radeburg","municipality":{"key":"14627220","name":"Radeburg, Stadt","type":"Stadt"},"district":{"key":"14627","name":"Meißen","type":"Landkreis"},"federalState":{"key":"14","name":"Sachsen"}},{"name":"Hauptstr.","postalCode":"01471","locality":"Radeburg","municipality":{"key":"14627220","name":"Radeburg, Stadt","type":"Stadt"},"district":{"key":"14627","name":"Meißen","type":"Landkreis"},"federalState":{"key":"14","name":"Sachsen"}},{"name":"Heidestr.","postalCode":"01471","locality":"Radeburg","municipality":{"key":"14627220","name":"Radeburg, Stadt","type":"Stadt"},"district":{"key":"14627","name":"Meißen","type":"Landkreis"},"federalState":{"key":"14","name":"Sachsen"}},{"name":"Heinrich-Heine-Str.","postalCode":"01471","locality":"Radeburg","municipality":{"key":"14627220","name":"Radeburg, Stadt","type":"Stadt"},"district":{"key":"14627","name":"Meißen","type":"Landkreis"},"federalState":{"key":"14","name":"Sachsen"}},{"name":"Heinrich-Zille-Hain","postalCode":"01471","locality":"Radeburg","municipality":{"key":"14627220","name":"Radeburg, Stadt","type":"Stadt"},"district":{"key":"14627","name":"Meißen","type":"Landkreis"},"federalState":{"key":"14","name":"Sachsen"}},{"name":"Heinrich-Zille-Str.","postalCode":"01471","locality":"Radeburg","municipality":{"key":"14627220","name":"Radeburg, Stadt","type":"Stadt"},"district":{"key":"14627","name":"Meißen","type":"Landkreis"},"federalState":{"key":"14","name":"Sachsen"}},{"name":"Holzweg","postalCode":"01471","locality":"Radeburg","municipality":{"key":"14627220","name":"Radeburg, Stadt","type":"Stadt"},"district":{"key":"14627","name":"Meißen","type":"Landkreis"},"federalState":{"key":"14","name":"Sachsen"}},{"name":"Hospitalstr.","postalCode":"01471","locality":"Radeburg","municipality":{"key":"14627220","name":"Radeburg, Stadt","type":"Stadt"},"district":{"key":"14627","name":"Meißen","type":"Landkreis"},"federalState":{"key":"14","name":"Sachsen"}},{"name":"Hufenweg","postalCode":"01471","locality":"Radeburg","municipality":{"key":"14627220","name":"Radeburg, Stadt","type":"Stadt"},"district":{"key":"14627","name":"Meißen","type":"Landkreis"},"federalState":{"key":"14","name":"Sachsen"}},{"name":"Im Winkel","postalCode":"01471","locality":"Radeburg","municipality":{"key":"14627220","name":"Radeburg, Stadt","type":"Stadt"},"district":{"key":"14627","name":"Meißen","type":"Landkreis"},"federalState":{"key":"14","name":"Sachsen"}},{"name":"Jagdweg","postalCode":"01471","locality":"Radeburg","municipality":{"key":"14627220","name":"Radeburg, Stadt","type":"Stadt"},"district":{"key":"14627","name":"Meißen","type":"Landkreis"},"federalState":{"key":"14","name":"Sachsen"}},{"name":"Kalkreuther Str.","postalCode":"01471","locality":"Radeburg","municipality":{"key":"14627220","name":"Radeburg, Stadt","type":"Stadt"},"district":{"key":"14627","name":"Meißen","type":"Landkreis"},"federalState":{"key":"14","name":"Sachsen"}},{"name":"Kiebitzweg","postalCode":"01471","locality":"Radeburg","municipality":{"key":"14627220","name":"Radeburg, Stadt","type":"Stadt"},"district":{"key":"14627","name":"Meißen","type":"Landkreis"},"federalState":{"key":"14","name":"Sachsen"}},{"name":"Kirchplatz","postalCode":"01471","locality":"Radeburg","municipality":{"key":"14627220","name":"Radeburg, Stadt","type":"Stadt"},"district":{"key":"14627","name":"Meißen","type":"Landkreis"},"federalState":{"key":"14","name":"Sachsen"}},{"name":"Kleiberweg","postalCode":"01471","locality":"Radeburg","municipality":{"key":"14627220","name":"Radeburg, Stadt","type":"Stadt"},"district":{"key":"14627","name":"Meißen","type":"Landkreis"},"federalState":{"key":"14","name":"Sachsen"}},{"name":"Klostergasse","postalCode":"01471","locality":"Radeburg","municipality":{"key":"14627220","name":"Radeburg, Stadt","type":"Stadt"},"district":{"key":"14627","name":"Meißen","type":"Landkreis"},"federalState":{"key":"14","name":"Sachsen"}},{"name":"Klotzschesweg","postalCode":"01471","locality":"Radeburg","municipality":{"key":"14627220","name":"Radeburg, Stadt","type":"Stadt"},"district":{"key":"14627","name":"Meißen","type":"Landkreis"},"federalState":{"key":"14","name":"Sachsen"}},{"name":"Königsbrücker Str.","postalCode":"01471","locality":"Radeburg","municipality":{"key":"14627220","name":"Radeburg, Stadt","type":"Stadt"},"district":{"key":"14627","name":"Meißen","type":"Landkreis"},"federalState":{"key":"14","name":"Sachsen"}},{"name":"Königsbrück Str.","postalCode":"01471","locality":"Radeburg","municipality":{"key":"14627220","name":"Radeburg, Stadt","type":"Stadt"},"district":{"key":"14627","name":"Meißen","type":"Landkreis"},"federalState":{"key":"14","name":"Sachsen"}},{"name":"Kopernikusstr.","postalCode":"01471","locality":"Radeburg","municipality":{"key":"14627220","name":"Radeburg, Stadt","type":"Stadt"},"district":{"key":"14627","name":"Meißen","type":"Landkreis"},"federalState":{"key":"14","name":"Sachsen"}},{"name":"Kurzer Weg","postalCode":"01471","locality":"Radeburg","municipality":{"key":"14627220","name":"Radeburg, Stadt","type":"Stadt"},"district":{"key":"14627","name":"Meißen","type":"Landkreis"},"federalState":{"key":"14","name":"Sachsen"}},{"name":"Lindeberg","postalCode":"01471","locality":"Radeburg","municipality":{"key":"14627220","name":"Radeburg, Stadt","type":"Stadt"},"district":{"key":"14627","name":"Meißen","type":"Landkreis"},"federalState":{"key":"14","name":"Sachsen"}},{"name":"Lindenallee","postalCode":"01471","locality":"Radeburg","municipality":{"key":"14627220","name":"Radeburg, Stadt","type":"Stadt"},"district":{"key":"14627","name":"Meißen","type":"Landkreis"},"federalState":{"key":"14","name":"Sachsen"}},{"name":"Lindenweg","postalCode":"01471","locality":"Radeburg","municipality":{"key":"14627220","name":"Radeburg, Stadt","type":"Stadt"},"district":{"key":"14627","name":"Meißen","type":"Landkreis"},"federalState":{"key":"14","name":"Sachsen"}},{"name":"Liststr.","postalCode":"01471","locality":"Radeburg","municipality":{"key":"14627220","name":"Radeburg, Stadt","type":"Stadt"},"district":{"key":"14627","name":"Meißen","type":"Landkreis"},"federalState":{"key":"14","name":"Sachsen"}},{"name":"Markt","postalCode":"01471","locality":"Radeburg","municipality":{"key":"14627220","name":"Radeburg, Stadt","type":"Stadt"},"district":{"key":"14627","name":"Meißen","type":"Landkreis"},"federalState":{"key":"14","name":"Sachsen"}},{"name":"Marktstr.","postalCode":"01471","locality":"Radeburg","municipality":{"key":"14627220","name":"Radeburg, Stadt","type":"Stadt"},"district":{"key":"14627","name":"Meißen","type":"Landkreis"},"federalState":{"key":"14","name":"Sachsen"}},{"name":"Marsdorfer Str.","postalCode":"01471","locality":"Radeburg","municipality":{"key":"14627220","name":"Radeburg, Stadt","type":"Stadt"},"district":{"key":"14627","name":"Meißen","type":"Landkreis"},"federalState":{"key":"14","name":"Sachsen"}},{"name":"Medinger Str.","postalCode":"01471","locality":"Radeburg","municipality":{"key":"14627220","name":"Radeburg, Stadt","type":"Stadt"},"district":{"key":"14627","name":"Meißen","type":"Landkreis"},"federalState":{"key":"14","name":"Sachsen"}},{"name":"Meißner Berg","postalCode":"01471","locality":"Radeburg","municipality":{"key":"14627220","name":"Radeburg, Stadt","type":"Stadt"},"district":{"key":"14627","name":"Meißen","type":"Landkreis"},"federalState":{"key":"14","name":"Sachsen"}},{"name":"Meißner Str.","postalCode":"01471","locality":"Radeburg","municipality":{"key":"14627220","name":"Radeburg, Stadt","type":"Stadt"},"district":{"key":"14627","name":"Meißen","type":"Landkreis"},"federalState":{"key":"14","name":"Sachsen"}},{"name":"Moritzburger Str.","postalCode":"01471","locality":"Radeburg","municipality":{"key":"14627220","name":"Radeburg, Stadt","type":"Stadt"},"district":{"key":"14627","name":"Meißen","type":"Landkreis"},"federalState":{"key":"14","name":"Sachsen"}},{"name":"Moritz-Richter-Str.","postalCode":"01471","locality":"Radeburg","municipality":{"key":"14627220","name":"Radeburg, Stadt","type":"Stadt"},"district":{"key":"14627","name":"Meißen","type":"Landkreis"},"federalState":{"key":"14","name":"Sachsen"}},{"name":"Mühlgasse","postalCode":"01471","locality":"Radeburg","municipality":{"key":"14627220","name":"Radeburg, Stadt","type":"Stadt"},"district":{"key":"14627","name":"Meißen","type":"Landkreis"},"federalState":{"key":"14","name":"Sachsen"}},{"name":"Mühlweg","postalCode":"01471","locality":"Radeburg","municipality":{"key":"14627220","name":"Radeburg, Stadt","type":"Stadt"},"district":{"key":"14627","name":"Meißen","type":"Landkreis"},"federalState":{"key":"14","name":"Sachsen"}},{"name":"Naunhofer Str.","postalCode":"01471","locality":"Radeburg","municipality":{"key":"14627220","name":"Radeburg, Stadt","type":"Stadt"},"district":{"key":"14627","name":"Meißen","type":"Landkreis"},"federalState":{"key":"14","name":"Sachsen"}},{"name":"Oberdorf","postalCode":"01471","locality":"Radeburg","municipality":{"key":"14627220","name":"Radeburg, Stadt","type":"Stadt"},"district":{"key":"14627","name":"Meißen","type":"Landkreis"},"federalState":{"key":"14","name":"Sachsen"}},{"name":"Ottostr.","postalCode":"01471","locality":"Radeburg","municipality":{"key":"14627220","name":"Radeburg, Stadt","type":"Stadt"},"district":{"key":"14627","name":"Meißen","type":"Landkreis"},"federalState":{"key":"14","name":"Sachsen"}},{"name":"Pappelstr.","postalCode":"01471","locality":"Radeburg","municipality":{"key":"14627220","name":"Radeburg, Stadt","type":"Stadt"},"district":{"key":"14627","name":"Meißen","type":"Landkreis"},"federalState":{"key":"14","name":"Sachsen"}},{"name":"Paul-Hoyer-Str.","postalCode":"01471","locality":"Radeburg","municipality":{"key":"14627220","name":"Radeburg, Stadt","type":"Stadt"},"district":{"key":"14627","name":"Meißen","type":"Landkreis"},"federalState":{"key":"14","name":"Sachsen"}},{"name":"Pechweg","postalCode":"01471","locality":"Radeburg","municipality":{"key":"14627220","name":"Radeburg, Stadt","type":"Stadt"},"district":{"key":"14627","name":"Meißen","type":"Landkreis"},"federalState":{"key":"14","name":"Sachsen"}},{"name":"Pfälzer Allee","postalCode":"01471","locality":"Radeburg","municipality":{"key":"14627220","name":"Radeburg, Stadt","type":"Stadt"},"district":{"key":"14627","name":"Meißen","type":"Landkreis"},"federalState":{"key":"14","name":"Sachsen"}},{"name":"Pfarrbuschstr.","postalCode":"01471","locality":"Radeburg","municipality":{"key":"14627220","name":"Radeburg, Stadt","type":"Stadt"},"district":{"key":"14627","name":"Meißen","type":"Landkreis"},"federalState":{"key":"14","name":"Sachsen"}},{"name":"Planckstr.","postalCode":"01471","locality":"Radeburg","municipality":{"key":"14627220","name":"Radeburg, Stadt","type":"Stadt"},"district":{"key":"14627","name":"Meißen","type":"Landkreis"},"federalState":{"key":"14","name":"Sachsen"}},{"name":"Portikusgasse","postalCode":"01471","locality":"Radeburg","municipality":{"key":"14627220","name":"Radeburg, Stadt","type":"Stadt"},"district":{"key":"14627","name":"Meißen","type":"Landkreis"},"federalState":{"key":"14","name":"Sachsen"}},{"name":"Promenadengäßchen","postalCode":"01471","locality":"Radeburg","municipality":{"key":"14627220","name":"Radeburg, Stadt","type":"Stadt"},"district":{"key":"14627","name":"Meißen","type":"Landkreis"},"federalState":{"key":"14","name":"Sachsen"}},{"name":"Promnitzweg","postalCode":"01471","locality":"Radeburg","municipality":{"key":"14627220","name":"Radeburg, Stadt","type":"Stadt"},"district":{"key":"14627","name":"Meißen","type":"Landkreis"},"federalState":{"key":"14","name":"Sachsen"}},{"name":"Querweg","postalCode":"01471","locality":"Radeburg","municipality":{"key":"14627220","name":"Radeburg, Stadt","type":"Stadt"},"district":{"key":"14627","name":"Meißen","type":"Landkreis"},"federalState":{"key":"14","name":"Sachsen"}},{"name":"Radeberger Str.","postalCode":"01471","locality":"Radeburg","municipality":{"key":"14627220","name":"Radeburg, Stadt","type":"Stadt"},"district":{"key":"14627","name":"Meißen","type":"Landkreis"},"federalState":{"key":"14","name":"Sachsen"}},{"name":"Radeburger Str.","postalCode":"01471","locality":"Radeburg","municipality":{"key":"14627220","name":"Radeburg, Stadt","type":"Stadt"},"district":{"key":"14627","name":"Meißen","type":"Landkreis"},"federalState":{"key":"14","name":"Sachsen"}},{"name":"Riesstr.","postalCode":"01471","locality":"Radeburg","municipality":{"key":"14627220","name":"Radeburg, Stadt","type":"Stadt"},"district":{"key":"14627","name":"Meißen","type":"Landkreis"},"federalState":{"key":"14","name":"Sachsen"}},{"name":"Röderaue","postalCode":"01471","locality":"Radeburg","municipality":{"key":"14627220","name":"Radeburg, Stadt","type":"Stadt"},"district":{"key":"14627","name":"Meißen","type":"Landkreis"},"federalState":{"key":"14","name":"Sachsen"}},{"name":"Rödergasse","postalCode":"01471","locality":"Radeburg","municipality":{"key":"14627220","name":"Radeburg, Stadt","type":"Stadt"},"district":{"key":"14627","name":"Meißen","type":"Landkreis"},"federalState":{"key":"14","name":"Sachsen"}},{"name":"Röderstr.","postalCode":"01471","locality":"Radeburg","municipality":{"key":"14627220","name":"Radeburg, Stadt","type":"Stadt"},"district":{"key":"14627","name":"Meißen","type":"Landkreis"},"federalState":{"key":"14","name":"Sachsen"}},{"name":"Rödertalweg","postalCode":"01471","locality":"Radeburg","municipality":{"key":"14627220","name":"Radeburg, Stadt","type":"Stadt"},"district":{"key":"14627","name":"Meißen","type":"Landkreis"},"federalState":{"key":"14","name":"Sachsen"}},{"name":"Rosenweg","postalCode":"01471","locality":"Radeburg","municipality":{"key":"14627220","name":"Radeburg, Stadt","type":"Stadt"},"district":{"key":"14627","name":"Meißen","type":"Landkreis"},"federalState":{"key":"14","name":"Sachsen"}},{"name":"Sachsenallee","postalCode":"01471","locality":"Radeburg","municipality":{"key":"14627220","name":"Radeburg, Stadt","type":"Stadt"},"district":{"key":"14627","name":"Meißen","type":"Landkreis"},"federalState":{"key":"14","name":"Sachsen"}},{"name":"Schmiedegasse","postalCode":"01471","locality":"Radeburg","municipality":{"key":"14627220","name":"Radeburg, Stadt","type":"Stadt"},"district":{"key":"14627","name":"Meißen","type":"Landkreis"},"federalState":{"key":"14","name":"Sachsen"}},{"name":"Schmiedestr.","postalCode":"01471","locality":"Radeburg","municipality":{"key":"14627220","name":"Radeburg, Stadt","type":"Stadt"},"district":{"key":"14627","name":"Meißen","type":"Landkreis"},"federalState":{"key":"14","name":"Sachsen"}},{"name":"Schneise 6","postalCode":"01471","locality":"Radeburg","municipality":{"key":"14627220","name":"Radeburg, Stadt","type":"Stadt"},"district":{"key":"14627","name":"Meißen","type":"Landkreis"},"federalState":{"key":"14","name":"Sachsen"}},{"name":"Schulstr.","postalCode":"01471","locality":"Radeburg","municipality":{"key":"14627220","name":"Radeburg, Stadt","type":"Stadt"},"district":{"key":"14627","name":"Meißen","type":"Landkreis"},"federalState":{"key":"14","name":"Sachsen"}},{"name":"Seilergasse","postalCode":"01471","locality":"Radeburg","municipality":{"key":"14627220","name":"Radeburg, Stadt","type":"Stadt"},"district":{"key":"14627","name":"Meißen","type":"Landkreis"},"federalState":{"key":"14","name":"Sachsen"}},{"name":"Siedlung","postalCode":"01471","locality":"Radeburg","municipality":{"key":"14627220","name":"Radeburg, Stadt","type":"Stadt"},"district":{"key":"14627","name":"Meißen","type":"Landkreis"},"federalState":{"key":"14","name":"Sachsen"}},{"name":"Siedlungsstr.","postalCode":"01471","locality":"Radeburg","municipality":{"key":"14627220","name":"Radeburg, Stadt","type":"Stadt"},"district":{"key":"14627","name":"Meißen","type":"Landkreis"},"federalState":{"key":"14","name":"Sachsen"}},{"name":"Silostr.","postalCode":"01471","locality":"Radeburg","municipality":{"key":"14627220","name":"Radeburg, Stadt","type":"Stadt"},"district":{"key":"14627","name":"Meißen","type":"Landkreis"},"federalState":{"key":"14","name":"Sachsen"}},{"name":"Südstr.","postalCode":"01471","locality":"Radeburg","municipality":{"key":"14627220","name":"Radeburg, Stadt","type":"Stadt"},"district":{"key":"14627","name":"Meißen","type":"Landkreis"},"federalState":{"key":"14","name":"Sachsen"}},{"name":"Talstr.","postalCode":"01662","locality":"Meißen","municipality":{"key":"14627140","name":"Meißen, Stadt","type":"Stadt"},"district":{"key":"14627","name":"Meißen","type":"Landkreis"},"federalState":{"key":"14","name":"Sachsen"}},{"name":"Teichertring","postalCode":"01662","locality":"Meißen","municipality":{"key":"14627140","name":"Meißen, Stadt","type":"Stadt"},"district":{"key":"14627","name":"Meißen","type":"Landkreis"},"federalState":{"key":"14","name":"Sachsen"}},{"name":"Teichstr.","postalCode":"01662","locality":"Meißen","municipality":{"key":"14627140","name":"Meißen, Stadt","type":"Stadt"},"district":{"key":"14627","name":"Meißen","type":"Landkreis"},"federalState":{"key":"14","name":"Sachsen"}},{"name":"Theaterpassage","postalCode":"01662","locality":"Meißen","municipality":{"key":"14627140","name":"Meißen, Stadt","type":"Stadt"},"district":{"key":"14627","name":"Meißen","type":"Landkreis"},"federalState":{"key":"14","name":"Sachsen"}},{"name":"Theaterplatz","postalCode":"01662","locality":"Meißen","municipality":{"key":"14627140","name":"Meißen, Stadt","type":"Stadt"},"district":{"key":"14627","name":"Meißen","type":"Landkreis"},"federalState":{"key":"14","name":"Sachsen"}},{"name":"Thomas-Müntzer-Str.","postalCode":"01662","locality":"Meißen","municipality":{"key":"14627140","name":"Meißen, Stadt","type":"Stadt"},"district":{"key":"14627","name":"Meißen","type":"Landkreis"},"federalState":{"key":"14","name":"Sachsen"}},{"name":"Tiergartenstr.","postalCode":"77974","locality":"Meißenheim","municipality":{"key":"08317075","name":"Meißenheim","type":"Kreisangehörige_Gemeinde"},"district":{"key":"08317","name":"Ortenaukreis","type":"Landkreis"},"federalState":{"key":"08","name":"Baden-Württemberg"}},{"name":"Tonberg","postalCode":"01662","locality":"Meißen","municipality":{"key":"14627140","name":"Meißen, Stadt","type":"Stadt"},"district":{"key":"14627","name":"Meißen","type":"Landkreis"},"federalState":{"key":"14","name":"Sachsen"}},{"name":"Triftweg","postalCode":"01662","locality":"Meißen","municipality":{"key":"14627140","name":"Meißen, Stadt","type":"Stadt"},"district":{"key":"14627","name":"Meißen","type":"Landkreis"},"federalState":{"key":"14","name":"Sachsen"}},{"name":"Trinitatiskirchweg","postalCode":"01662","locality":"Meißen","municipality":{"key":"14627140","name":"Meißen, Stadt","type":"Stadt"},"district":{"key":"14627","name":"Meißen","type":"Landkreis"},"federalState":{"key":"14","name":"Sachsen"}},{"name":"Tzschuckestr.","postalCode":"01662","locality":"Meißen","municipality":{"key":"14627140","name":"Meißen, Stadt","type":"Stadt"},"district":{"key":"14627","name":"Meißen","type":"Landkreis"},"federalState":{"key":"14","name":"Sachsen"}},{"name":"Unterdorf","postalCode":"01471","locality":"Radeburg","municipality":{"key":"14627220","name":"Radeburg, Stadt","type":"Stadt"},"district":{"key":"14627","name":"Meißen","type":"Landkreis"},"federalState":{"key":"14","name":"Sachsen"}},{"name":"Vorbrücker Str.","postalCode":"01662","locality":"Meißen","municipality":{"key":"14627140","name":"Meißen, Stadt","type":"Stadt"},"district":{"key":"14627","name":"Meißen","type":"Landkreis"},"federalState":{"key":"14","name":"Sachsen"}},{"name":"Waldstr.","postalCode":"01471","locality":"Radeburg","municipality":{"key":"14627220","name":"Radeburg, Stadt","type":"Stadt"},"district":{"key":"14627","name":"Meißen","type":"Landkreis"},"federalState":{"key":"14","name":"Sachsen"}},{"name":"Waldteichstr.","postalCode":"01471","locality":"Radeburg","municipality":{"key":"14627220","name":"Radeburg, Stadt","type":"Stadt"},"district":{"key":"14627","name":"Meißen","type":"Landkreis"},"federalState":{"key":"14","name":"Sachsen"}},{"name":"Waldweg","postalCode":"01471","locality":"Radeburg","municipality":{"key":"14627220","name":"Radeburg, Stadt","type":"Stadt"},"district":{"key":"14627","name":"Meißen","type":"Landkreis"},"federalState":{"key":"14","name":"Sachsen"}},{"name":"Weinbergstr.","postalCode":"01471","locality":"Radeburg","municipality":{"key":"14627220","name":"Radeburg, Stadt","type":"Stadt"},"district":{"key":"14627","name":"Meißen","type":"Landkreis"},"federalState":{"key":"14","name":"Sachsen"}},{"name":"Weinböhlaer Str.","postalCode":"01471","locality":"Radeburg","municipality":{"key":"14627220","name":"Radeburg, Stadt","type":"Stadt"},"district":{"key":"14627","name":"Meißen","type":"Landkreis"},"federalState":{"key":"14","name":"Sachsen"}},{"name":"Wiesenweg","postalCode":"01471","locality":"Radeburg","municipality":{"key":"14627220","name":"Radeburg, Stadt","type":"Stadt"},"district":{"key":"14627","name":"Meißen","type":"Landkreis"},"federalState":{"key":"14","name":"Sachsen"}},{"name":"Winckelmannstr.","postalCode":"01471","locality":"Radeburg","municipality":{"key":"14627220","name":"Radeburg, Stadt","type":"Stadt"},"district":{"key":"14627","name":"Meißen","type":"Landkreis"},"federalState":{"key":"14","name":"Sachsen"}},{"name":"Würschnitzer Str.","postalCode":"01471","locality":"Radeburg","municipality":{"key":"14627220","name":"Radeburg, Stadt","type":"Stadt"},"district":{"key":"14627","name":"Meißen","type":"Landkreis"},"federalState":{"key":"14","name":"Sachsen"}},{"name":"Zum Eishaus","postalCode":"01471","locality":"Radeburg","municipality":{"key":"14627220","name":"Radeburg, Stadt","type":"Stadt"},"district":{"key":"14627","name":"Meißen","type":"Landkreis"},"federalState":{"key":"14","name":"Sachsen"}},{"name":"Zum Großteich","postalCode":"01471","locality":"Radeburg","municipality":{"key":"14627220","name":"Radeburg, Stadt","type":"Stadt"},"district":{"key":"14627","name":"Meißen","type":"Landkreis"},"federalState":{"key":"14","name":"Sachsen"}},{"name":"Zum Spitzberg","postalCode":"01471","locality":"Radeburg","municipality":{"key":"14627220","name":"Radeburg, Stadt","type":"Stadt"},"district":{"key":"14627","name":"Meißen","type":"Landkreis"},"federalState":{"key":"14","name":"Sachsen"}},{"name":"Zum Teichhaus","postalCode":"01471","locality":"Radeburg","municipality":{"key":"14627220","name":"Radeburg, Stadt","type":"Stadt"},"district":{"key":"14627","name":"Meißen","type":"Landkreis"},"federalState":{"key":"14","name":"Sachsen"}},{"name":"Zum Wertfeld","postalCode":"01471","locality":"Radeburg","municipality":{"key":"14627220","name":"Radeburg, Stadt","type":"Stadt"},"district":{"key":"14627","name":"Meißen","type":"Landkreis"},"federalState":{"key":"14","name":"Sachsen"}},{"name":"Zur Bahn","postalCode":"01471","locality":"Radeburg","municipality":{"key":"14627220","name":"Radeburg, Stadt","type":"Stadt"},"district":{"key":"14627","name":"Meißen","type":"Landkreis"},"federalState":{"key":"14","name":"Sachsen"}},{"name":"Zur Kleinbahn","postalCode":"01471","locality":"Radeburg","municipality":{"key":"14627220","name":"Radeburg, Stadt","type":"Stadt"},"district":{"key":"14627","name":"Meißen","type":"Landkreis"},"federalState":{"key":"14","name":"Sachsen"}},{"name":"Zur Wasserburg","postalCode":"01471","locality":"Radeburg","municipality":{"key":"14627220","name":"Radeburg, Stadt","type":"Stadt"},"district":{"key":"14627","name":"Meißen","type":"Landkreis"},"federalState":{"key":"14","name":"Sachsen"}},{"name":"Älterstr.","postalCode":"77974","locality":"Meißenheim","municipality":{"key":"08317075","name":"Meißenheim","type":"Kreisangehörige_Gemeinde"},"district":{"key":"08317","name":"Ortenaukreis","type":"Landkreis"},"federalState":{"key":"08","name":"Baden-Württemberg"}},]