[{"key":"10035698","name":"Chemin de la Crosette","postalCode":"1026","locality":"Denges","commune":{"key":"5632","name":"Denges","shortName":"Denges"},"district":{"key":"2227","name":"District de Morges"},"canton":{"key":"22","code":"VD","name":"Vaud"},"status":"Real"},{"key":"10096732","name":"Chemin de la Pierrâre","postalCode":"1026","locality":"Denges","commune":{"key":"5632","name":"Denges","shortName":"Denges"},"district":{"key":"2227","name":"District de Morges"},"canton":{"key":"22","code":"VD","name":"Vaud"},"status":"Real"},{"key":"10188663","name":"Chemin de l'Eglise","postalCode":"1026","locality":"Denges","commune":{"key":"5632","name":"Denges","shortName":"Denges"},"district":{"key":"2227","name":"District de Morges"},"canton":{"key":"22","code":"VD","name":"Vaud"},"status":"Real"},{"key":"10048115","name":"Chemin des Bassettes","postalCode":"1026","locality":"Denges","commune":{"key":"5632","name":"Denges","shortName":"Denges"},"district":{"key":"2227","name":"District de Morges"},"canton":{"key":"22","code":"VD","name":"Vaud"},"status":"Real"},{"key":"10137871","name":"Chemin des Cèdres","postalCode":"1026","locality":"Denges","commune":{"key":"5632","name":"Denges","shortName":"Denges"},"district":{"key":"2227","name":"District de Morges"},"canton":{"key":"22","code":"VD","name":"Vaud"},"status":"Real"},{"key":"10118748","name":"Chemin des Châtaigniers","postalCode":"1026","locality":"Denges","commune":{"key":"5632","name":"Denges","shortName":"Denges"},"district":{"key":"2227","name":"District de Morges"},"canton":{"key":"22","code":"VD","name":"Vaud"},"status":"Real"},{"key":"10155278","name":"Chemin des Erables","postalCode":"1026","locality":"Denges","commune":{"key":"5632","name":"Denges","shortName":"Denges"},"district":{"key":"2227","name":"District de Morges"},"canton":{"key":"22","code":"VD","name":"Vaud"},"status":"Real"},{"key":"10153265","name":"Chemin des Mélèzes","postalCode":"1026","locality":"Denges","commune":{"key":"5632","name":"Denges","shortName":"Denges"},"district":{"key":"2227","name":"District de Morges"},"canton":{"key":"22","code":"VD","name":"Vaud"},"status":"Real"},{"key":"10035699","name":"Chemin des Vergers","postalCode":"1026","locality":"Denges","commune":{"key":"5632","name":"Denges","shortName":"Denges"},"district":{"key":"2227","name":"District de Morges"},"canton":{"key":"22","code":"VD","name":"Vaud"},"status":"Real"},{"key":"10154005","name":"Chemin des Vignettes","postalCode":"1026","locality":"Denges","commune":{"key":"5632","name":"Denges","shortName":"Denges"},"district":{"key":"2227","name":"District de Morges"},"canton":{"key":"22","code":"VD","name":"Vaud"},"status":"Real"},{"key":"10096731","name":"Chemin du Chaney","postalCode":"1026","locality":"Denges","commune":{"key":"5632","name":"Denges","shortName":"Denges"},"district":{"key":"2227","name":"District de Morges"},"canton":{"key":"22","code":"VD","name":"Vaud"},"status":"Real"},{"key":"10035700","name":"Chemin du Monteiron","postalCode":"1026","locality":"Denges","commune":{"key":"5632","name":"Denges","shortName":"Denges"},"district":{"key":"2227","name":"District de Morges"},"canton":{"key":"22","code":"VD","name":"Vaud"},"status":"Real"},{"key":"10059603","name":"Les Abbesses","postalCode":"1026","locality":"Denges","commune":{"key":"5632","name":"Denges","shortName":"Denges"},"district":{"key":"2227","name":"District de Morges"},"canton":{"key":"22","code":"VD","name":"Vaud"},"status":"Real"},{"key":"10107155","name":"Le Vieux Bourg","postalCode":"1026","locality":"Denges","commune":{"key":"5632","name":"Denges","shortName":"Denges"},"district":{"key":"2227","name":"District de Morges"},"canton":{"key":"22","code":"VD","name":"Vaud"},"status":"Real"},{"key":"10108029","name":"Place de l'Ancien Collège","postalCode":"1026","locality":"Denges","commune":{"key":"5632","name":"Denges","shortName":"Denges"},"district":{"key":"2227","name":"District de Morges"},"canton":{"key":"22","code":"VD","name":"Vaud"},"status":"Real"},{"key":"10104982","name":"Place du Tilleul","postalCode":"1026","locality":"Denges","commune":{"key":"5632","name":"Denges","shortName":"Denges"},"district":{"key":"2227","name":"District de Morges"},"canton":{"key":"22","code":"VD","name":"Vaud"},"status":"Real"},{"key":"10153263","name":"Route de Genève","postalCode":"1026","locality":"Denges","commune":{"key":"5632","name":"Denges","shortName":"Denges"},"district":{"key":"2227","name":"District de Morges"},"canton":{"key":"22","code":"VD","name":"Vaud"},"status":"Real"},{"key":"10176871","name":"Route de la Gare","postalCode":"1026","locality":"Denges","commune":{"key":"5632","name":"Denges","shortName":"Denges"},"district":{"key":"2227","name":"District de Morges"},"canton":{"key":"22","code":"VD","name":"Vaud"},"status":"Real"},{"key":"10035701","name":"Route de la Pale","postalCode":"1026","locality":"Denges","commune":{"key":"5632","name":"Denges","shortName":"Denges"},"district":{"key":"2227","name":"District de Morges"},"canton":{"key":"22","code":"VD","name":"Vaud"},"status":"Real"},{"key":"10068926","name":"Route de la Plaine","postalCode":"1026","locality":"Denges","commune":{"key":"5632","name":"Denges","shortName":"Denges"},"district":{"key":"2227","name":"District de Morges"},"canton":{"key":"22","code":"VD","name":"Vaud"},"status":"Real"},{"key":"10096733","name":"Route de Lonay","postalCode":"1026","locality":"Denges","commune":{"key":"5632","name":"Denges","shortName":"Denges"},"district":{"key":"2227","name":"District de Morges"},"canton":{"key":"22","code":"VD","name":"Vaud"},"status":"Real"},{"key":"10107369","name":"Route de Préverenges","postalCode":"1026","locality":"Denges","commune":{"key":"5632","name":"Denges","shortName":"Denges"},"district":{"key":"2227","name":"District de Morges"},"canton":{"key":"22","code":"VD","name":"Vaud"},"status":"Real"},{"key":"10048116","name":"Route du Lac","postalCode":"1026","locality":"Denges","commune":{"key":"5632","name":"Denges","shortName":"Denges"},"district":{"key":"2227","name":"District de Morges"},"canton":{"key":"22","code":"VD","name":"Vaud"},"status":"Real"},{"key":"10137870","name":"Ruelle des Cèdres","postalCode":"1026","locality":"Denges","commune":{"key":"5632","name":"Denges","shortName":"Denges"},"district":{"key":"2227","name":"District de Morges"},"canton":{"key":"22","code":"VD","name":"Vaud"},"status":"Real"},{"key":"10007288","name":"Ruelle des Châtaigniers","postalCode":"1026","locality":"Denges","commune":{"key":"5632","name":"Denges","shortName":"Denges"},"district":{"key":"2227","name":"District de Morges"},"canton":{"key":"22","code":"VD","name":"Vaud"},"status":"Real"},{"key":"10160636","name":"Ruelle des Erables","postalCode":"1026","locality":"Denges","commune":{"key":"5632","name":"Denges","shortName":"Denges"},"district":{"key":"2227","name":"District de Morges"},"canton":{"key":"22","code":"VD","name":"Vaud"},"status":"Real"},{"key":"10160635","name":"Ruelle des Mélèzes","postalCode":"1026","locality":"Denges","commune":{"key":"5632","name":"Denges","shortName":"Denges"},"district":{"key":"2227","name":"District de Morges"},"canton":{"key":"22","code":"VD","name":"Vaud"},"status":"Real"},{"key":"10096734","name":"Sentier de Renges","postalCode":"1026","locality":"Denges","commune":{"key":"5632","name":"Denges","shortName":"Denges"},"district":{"key":"2227","name":"District de Morges"},"canton":{"key":"22","code":"VD","name":"Vaud"},"status":"Real"},{"key":"10096735","name":"Sur les Moulins","postalCode":"1026","locality":"Denges","commune":{"key":"5632","name":"Denges","shortName":"Denges"},"district":{"key":"2227","name":"District de Morges"},"canton":{"key":"22","code":"VD","name":"Vaud"},"status":"Real"},{"key":"10107131","name":"Sur Villard","postalCode":"1026","locality":"Denges","commune":{"key":"5632","name":"Denges","shortName":"Denges"},"district":{"key":"2227","name":"District de Morges"},"canton":{"key":"22","code":"VD","name":"Vaud"},"status":"Real"},]