[{"name":"16-Büchles-Weg","postalCode":"71735","locality":"Eberdingen","municipality":{"key":"08118012","name":"Eberdingen","type":"Kreisangehörige_Gemeinde"},"district":{"key":"08118","name":"Ludwigsburg","type":"Landkreis"},"federalState":{"key":"08","name":"Baden-Württemberg"}},{"name":"1. Waldweg","postalCode":"75038","locality":"Oberderdingen","municipality":{"key":"08215059","name":"Oberderdingen","type":"Kreisangehörige_Gemeinde"},"district":{"key":"08215","name":"Karlsruhe","type":"Landkreis"},"federalState":{"key":"08","name":"Baden-Württemberg"}},{"name":"2. Waldweg","postalCode":"75038","locality":"Oberderdingen","municipality":{"key":"08215059","name":"Oberderdingen","type":"Kreisangehörige_Gemeinde"},"district":{"key":"08215","name":"Karlsruhe","type":"Landkreis"},"federalState":{"key":"08","name":"Baden-Württemberg"}},{"name":"3. Waldweg","postalCode":"75038","locality":"Oberderdingen","municipality":{"key":"08215059","name":"Oberderdingen","type":"Kreisangehörige_Gemeinde"},"district":{"key":"08215","name":"Karlsruhe","type":"Landkreis"},"federalState":{"key":"08","name":"Baden-Württemberg"}},{"name":"Adalbert-Stifter-Ring","postalCode":"84405","locality":"Dorfen","municipality":{"key":"09177115","name":"Dorfen, St","type":"Stadt"},"district":{"key":"09177","name":"Erding","type":"Landkreis"},"federalState":{"key":"09","name":"Bayern"}},{"name":"Adenauerring","postalCode":"84405","locality":"Dorfen","municipality":{"key":"09177115","name":"Dorfen, St","type":"Stadt"},"district":{"key":"09177","name":"Erding","type":"Landkreis"},"federalState":{"key":"09","name":"Bayern"}},{"name":"Albrechtgasse","postalCode":"84405","locality":"Dorfen","municipality":{"key":"09177115","name":"Dorfen, St","type":"Stadt"},"district":{"key":"09177","name":"Erding","type":"Landkreis"},"federalState":{"key":"09","name":"Bayern"}},{"name":"Algasing","postalCode":"84405","locality":"Dorfen","municipality":{"key":"09177115","name":"Dorfen, St","type":"Stadt"},"district":{"key":"09177","name":"Erding","type":"Landkreis"},"federalState":{"key":"09","name":"Bayern"}},{"name":"Algasinger Weg","postalCode":"84405","locality":"Dorfen","municipality":{"key":"09177115","name":"Dorfen, St","type":"Stadt"},"district":{"key":"09177","name":"Erding","type":"Landkreis"},"federalState":{"key":"09","name":"Bayern"}},{"name":"Alpspitzstr.","postalCode":"84405","locality":"Dorfen","municipality":{"key":"09177115","name":"Dorfen, St","type":"Stadt"},"district":{"key":"09177","name":"Erding","type":"Landkreis"},"federalState":{"key":"09","name":"Bayern"}},{"name":"Alte Isen","postalCode":"84405","locality":"Dorfen","municipality":{"key":"09177115","name":"Dorfen, St","type":"Stadt"},"district":{"key":"09177","name":"Erding","type":"Landkreis"},"federalState":{"key":"09","name":"Bayern"}},{"name":"Altes Krankenhaus","postalCode":"84405","locality":"Dorfen","municipality":{"key":"09177115","name":"Dorfen, St","type":"Stadt"},"district":{"key":"09177","name":"Erding","type":"Landkreis"},"federalState":{"key":"09","name":"Bayern"}},{"name":"Am Hochbehälter","postalCode":"84405","locality":"Dorfen","municipality":{"key":"09177115","name":"Dorfen, St","type":"Stadt"},"district":{"key":"09177","name":"Erding","type":"Landkreis"},"federalState":{"key":"09","name":"Bayern"}},{"name":"Am Isenbogen","postalCode":"84405","locality":"Dorfen","municipality":{"key":"09177115","name":"Dorfen, St","type":"Stadt"},"district":{"key":"09177","name":"Erding","type":"Landkreis"},"federalState":{"key":"09","name":"Bayern"}},{"name":"Am Marienstift","postalCode":"84405","locality":"Dorfen","municipality":{"key":"09177115","name":"Dorfen, St","type":"Stadt"},"district":{"key":"09177","name":"Erding","type":"Landkreis"},"federalState":{"key":"09","name":"Bayern"}},{"name":"Am Mitterfeld","postalCode":"84405","locality":"Dorfen","municipality":{"key":"09177115","name":"Dorfen, St","type":"Stadt"},"district":{"key":"09177","name":"Erding","type":"Landkreis"},"federalState":{"key":"09","name":"Bayern"}},{"name":"Am Oberfeld","postalCode":"84405","locality":"Dorfen","municipality":{"key":"09177115","name":"Dorfen, St","type":"Stadt"},"district":{"key":"09177","name":"Erding","type":"Landkreis"},"federalState":{"key":"09","name":"Bayern"}},{"name":"Am Radweg","postalCode":"84405","locality":"Dorfen","municipality":{"key":"09177115","name":"Dorfen, St","type":"Stadt"},"district":{"key":"09177","name":"Erding","type":"Landkreis"},"federalState":{"key":"09","name":"Bayern"}},{"name":"Am Sandberg","postalCode":"84405","locality":"Dorfen","municipality":{"key":"09177115","name":"Dorfen, St","type":"Stadt"},"district":{"key":"09177","name":"Erding","type":"Landkreis"},"federalState":{"key":"09","name":"Bayern"}},{"name":"Am Seebach","postalCode":"84405","locality":"Dorfen","municipality":{"key":"09177115","name":"Dorfen, St","type":"Stadt"},"district":{"key":"09177","name":"Erding","type":"Landkreis"},"federalState":{"key":"09","name":"Bayern"}},{"name":"Am Volksfestplatz","postalCode":"84405","locality":"Dorfen","municipality":{"key":"09177115","name":"Dorfen, St","type":"Stadt"},"district":{"key":"09177","name":"Erding","type":"Landkreis"},"federalState":{"key":"09","name":"Bayern"}},{"name":"Am Wehr","postalCode":"84405","locality":"Dorfen","municipality":{"key":"09177115","name":"Dorfen, St","type":"Stadt"},"district":{"key":"09177","name":"Erding","type":"Landkreis"},"federalState":{"key":"09","name":"Bayern"}},{"name":"An der Allee","postalCode":"84405","locality":"Dorfen","municipality":{"key":"09177115","name":"Dorfen, St","type":"Stadt"},"district":{"key":"09177","name":"Erding","type":"Landkreis"},"federalState":{"key":"09","name":"Bayern"}},{"name":"An der Leiten","postalCode":"84405","locality":"Dorfen","municipality":{"key":"09177115","name":"Dorfen, St","type":"Stadt"},"district":{"key":"09177","name":"Erding","type":"Landkreis"},"federalState":{"key":"09","name":"Bayern"}},{"name":"Angerweg","postalCode":"84405","locality":"Dorfen","municipality":{"key":"09177115","name":"Dorfen, St","type":"Stadt"},"district":{"key":"09177","name":"Erding","type":"Landkreis"},"federalState":{"key":"09","name":"Bayern"}},{"name":"Anton-Wandinger-Str.","postalCode":"84405","locality":"Dorfen","municipality":{"key":"09177115","name":"Dorfen, St","type":"Stadt"},"district":{"key":"09177","name":"Erding","type":"Landkreis"},"federalState":{"key":"09","name":"Bayern"}},{"name":"Apothekergasse","postalCode":"84405","locality":"Dorfen","municipality":{"key":"09177115","name":"Dorfen, St","type":"Stadt"},"district":{"key":"09177","name":"Erding","type":"Landkreis"},"federalState":{"key":"09","name":"Bayern"}},{"name":"Arteserstr.","postalCode":"84405","locality":"Dorfen","municipality":{"key":"09177115","name":"Dorfen, St","type":"Stadt"},"district":{"key":"09177","name":"Erding","type":"Landkreis"},"federalState":{"key":"09","name":"Bayern"}},{"name":"Asterngasse","postalCode":"84405","locality":"Dorfen","municipality":{"key":"09177115","name":"Dorfen, St","type":"Stadt"},"district":{"key":"09177","name":"Erding","type":"Landkreis"},"federalState":{"key":"09","name":"Bayern"}},{"name":"Bäckergasse","postalCode":"84405","locality":"Dorfen","municipality":{"key":"09177115","name":"Dorfen, St","type":"Stadt"},"district":{"key":"09177","name":"Erding","type":"Landkreis"},"federalState":{"key":"09","name":"Bayern"}},{"name":"Bergstr.","postalCode":"84405","locality":"Dorfen","municipality":{"key":"09177115","name":"Dorfen, St","type":"Stadt"},"district":{"key":"09177","name":"Erding","type":"Landkreis"},"federalState":{"key":"09","name":"Bayern"}},{"name":"Bernöder Weg","postalCode":"84405","locality":"Dorfen","municipality":{"key":"09177115","name":"Dorfen, St","type":"Stadt"},"district":{"key":"09177","name":"Erding","type":"Landkreis"},"federalState":{"key":"09","name":"Bayern"}},{"name":"Birkenallee","postalCode":"84405","locality":"Dorfen","municipality":{"key":"09177115","name":"Dorfen, St","type":"Stadt"},"district":{"key":"09177","name":"Erding","type":"Landkreis"},"federalState":{"key":"09","name":"Bayern"}},{"name":"Brandstattgasse","postalCode":"84405","locality":"Dorfen","municipality":{"key":"09177115","name":"Dorfen, St","type":"Stadt"},"district":{"key":"09177","name":"Erding","type":"Landkreis"},"federalState":{"key":"09","name":"Bayern"}},{"name":"Breslauer Weg","postalCode":"84405","locality":"Dorfen","municipality":{"key":"09177115","name":"Dorfen, St","type":"Stadt"},"district":{"key":"09177","name":"Erding","type":"Landkreis"},"federalState":{"key":"09","name":"Bayern"}},{"name":"Brünnsteinstr.","postalCode":"84405","locality":"Dorfen","municipality":{"key":"09177115","name":"Dorfen, St","type":"Stadt"},"district":{"key":"09177","name":"Erding","type":"Landkreis"},"federalState":{"key":"09","name":"Bayern"}},{"name":"Buchbacher Str.","postalCode":"84405","locality":"Dorfen","municipality":{"key":"09177115","name":"Dorfen, St","type":"Stadt"},"district":{"key":"09177","name":"Erding","type":"Landkreis"},"federalState":{"key":"09","name":"Bayern"}},{"name":"Camp Reinsehlen","postalCode":"29640","locality":"Schneverdingen","municipality":{"key":"03358019","name":"Schneverdingen, Stadt","type":"Stadt"},"district":{"key":"03358","name":"Heidekreis","type":"Landkreis"},"federalState":{"key":"03","name":"Niedersachsen"}},{"name":"Cantlerstr.","postalCode":"85435","locality":"Erding","municipality":{"key":"09177117","name":"Erding, GKSt","type":"Große_Kreisstadt"},"district":{"key":"09177","name":"Erding","type":"Landkreis"},"federalState":{"key":"09","name":"Bayern"}},{"name":"Carl-Neff-Str.","postalCode":"75038","locality":"Oberderdingen","municipality":{"key":"08215059","name":"Oberderdingen","type":"Kreisangehörige_Gemeinde"},"district":{"key":"08215","name":"Karlsruhe","type":"Landkreis"},"federalState":{"key":"08","name":"Baden-Württemberg"}},{"name":"Carl-Orff-Weg","postalCode":"70771","locality":"Leinfelden-Echterdingen","municipality":{"key":"08116078","name":"Leinfelden-Echterdingen, Stadt","type":"Große_Kreisstadt"},"district":{"key":"08116","name":"Esslingen","type":"Landkreis"},"federalState":{"key":"08","name":"Baden-Württemberg"}},{"name":"Carl-Spitzweg-Str.","postalCode":"70771","locality":"Leinfelden-Echterdingen","municipality":{"key":"08116078","name":"Leinfelden-Echterdingen, Stadt","type":"Große_Kreisstadt"},"district":{"key":"08116","name":"Esslingen","type":"Landkreis"},"federalState":{"key":"08","name":"Baden-Württemberg"}},{"name":"Charlottenweg","postalCode":"70771","locality":"Leinfelden-Echterdingen","municipality":{"key":"08116078","name":"Leinfelden-Echterdingen, Stadt","type":"Große_Kreisstadt"},"district":{"key":"08116","name":"Esslingen","type":"Landkreis"},"federalState":{"key":"08","name":"Baden-Württemberg"}},{"name":"Chisonestr.","postalCode":"75038","locality":"Oberderdingen","municipality":{"key":"08215059","name":"Oberderdingen","type":"Kreisangehörige_Gemeinde"},"district":{"key":"08215","name":"Karlsruhe","type":"Landkreis"},"federalState":{"key":"08","name":"Baden-Württemberg"}},{"name":"Christian-Jorhan-Str.","postalCode":"85445","locality":"Oberding","municipality":{"key":"09177133","name":"Oberding","type":"Kreisangehörige_Gemeinde"},"district":{"key":"09177","name":"Erding","type":"Landkreis"},"federalState":{"key":"09","name":"Bayern"}},{"name":"Christofstr.","postalCode":"71701","locality":"Schwieberdingen","municipality":{"key":"08118067","name":"Schwieberdingen","type":"Kreisangehörige_Gemeinde"},"district":{"key":"08118","name":"Ludwigsburg","type":"Landkreis"},"federalState":{"key":"08","name":"Baden-Württemberg"}},{"name":"Christofstr.","postalCode":"72127","locality":"Kusterdingen","municipality":{"key":"08416023","name":"Kusterdingen","type":"Kreisangehörige_Gemeinde"},"district":{"key":"08416","name":"Tübingen","type":"Landkreis"},"federalState":{"key":"08","name":"Baden-Württemberg"}},{"name":"Christophstr.","postalCode":"70771","locality":"Leinfelden-Echterdingen","municipality":{"key":"08116078","name":"Leinfelden-Echterdingen, Stadt","type":"Große_Kreisstadt"},"district":{"key":"08116","name":"Esslingen","type":"Landkreis"},"federalState":{"key":"08","name":"Baden-Württemberg"}},{"name":"Clara-Schumann-Str.","postalCode":"71701","locality":"Schwieberdingen","municipality":{"key":"08118067","name":"Schwieberdingen","type":"Kreisangehörige_Gemeinde"},"district":{"key":"08118","name":"Ludwigsburg","type":"Landkreis"},"federalState":{"key":"08","name":"Baden-Württemberg"}},{"name":"Claudiusstr.","postalCode":"70771","locality":"Leinfelden-Echterdingen","municipality":{"key":"08116078","name":"Leinfelden-Echterdingen, Stadt","type":"Große_Kreisstadt"},"district":{"key":"08116","name":"Esslingen","type":"Landkreis"},"federalState":{"key":"08","name":"Baden-Württemberg"}},{"name":"Claudiusstr.","postalCode":"71735","locality":"Eberdingen","municipality":{"key":"08118012","name":"Eberdingen","type":"Kreisangehörige_Gemeinde"},"district":{"key":"08118","name":"Ludwigsburg","type":"Landkreis"},"federalState":{"key":"08","name":"Baden-Württemberg"}},{"name":"Combastr.","postalCode":"75038","locality":"Oberderdingen","municipality":{"key":"08215059","name":"Oberderdingen","type":"Kreisangehörige_Gemeinde"},"district":{"key":"08215","name":"Karlsruhe","type":"Landkreis"},"federalState":{"key":"08","name":"Baden-Württemberg"}},{"name":"Cookstr.","postalCode":"70771","locality":"Leinfelden-Echterdingen","municipality":{"key":"08116078","name":"Leinfelden-Echterdingen, Stadt","type":"Große_Kreisstadt"},"district":{"key":"08116","name":"Esslingen","type":"Landkreis"},"federalState":{"key":"08","name":"Baden-Württemberg"}},{"name":"Dahliengasse","postalCode":"84405","locality":"Dorfen","municipality":{"key":"09177115","name":"Dorfen, St","type":"Stadt"},"district":{"key":"09177","name":"Erding","type":"Landkreis"},"federalState":{"key":"09","name":"Bayern"}},{"name":"Dammerlberg","postalCode":"84405","locality":"Dorfen","municipality":{"key":"09177115","name":"Dorfen, St","type":"Stadt"},"district":{"key":"09177","name":"Erding","type":"Landkreis"},"federalState":{"key":"09","name":"Bayern"}},{"name":"Eibach","postalCode":"84405","locality":"Dorfen","municipality":{"key":"09177115","name":"Dorfen, St","type":"Stadt"},"district":{"key":"09177","name":"Erding","type":"Landkreis"},"federalState":{"key":"09","name":"Bayern"}},{"name":"Eichenweg","postalCode":"84405","locality":"Dorfen","municipality":{"key":"09177115","name":"Dorfen, St","type":"Stadt"},"district":{"key":"09177","name":"Erding","type":"Landkreis"},"federalState":{"key":"09","name":"Bayern"}},{"name":"Erdinger Str.","postalCode":"84405","locality":"Dorfen","municipality":{"key":"09177115","name":"Dorfen, St","type":"Stadt"},"district":{"key":"09177","name":"Erding","type":"Landkreis"},"federalState":{"key":"09","name":"Bayern"}},{"name":"Etzkapelle","postalCode":"84405","locality":"Dorfen","municipality":{"key":"09177115","name":"Dorfen, St","type":"Stadt"},"district":{"key":"09177","name":"Erding","type":"Landkreis"},"federalState":{"key":"09","name":"Bayern"}},{"name":"Fasanenweg","postalCode":"84405","locality":"Dorfen","municipality":{"key":"09177115","name":"Dorfen, St","type":"Stadt"},"district":{"key":"09177","name":"Erding","type":"Landkreis"},"federalState":{"key":"09","name":"Bayern"}},{"name":"Feldstr.","postalCode":"84405","locality":"Dorfen","municipality":{"key":"09177115","name":"Dorfen, St","type":"Stadt"},"district":{"key":"09177","name":"Erding","type":"Landkreis"},"federalState":{"key":"09","name":"Bayern"}},{"name":"Flutkanal","postalCode":"84405","locality":"Dorfen","municipality":{"key":"09177115","name":"Dorfen, St","type":"Stadt"},"district":{"key":"09177","name":"Erding","type":"Landkreis"},"federalState":{"key":"09","name":"Bayern"}},{"name":"Franz-Anneser-Str.","postalCode":"84405","locality":"Dorfen","municipality":{"key":"09177115","name":"Dorfen, St","type":"Stadt"},"district":{"key":"09177","name":"Erding","type":"Landkreis"},"federalState":{"key":"09","name":"Bayern"}},{"name":"Friedrich-Schiller-Weg","postalCode":"84405","locality":"Dorfen","municipality":{"key":"09177115","name":"Dorfen, St","type":"Stadt"},"district":{"key":"09177","name":"Erding","type":"Landkreis"},"federalState":{"key":"09","name":"Bayern"}},{"name":"Gartenstr.","postalCode":"84405","locality":"Dorfen","municipality":{"key":"09177115","name":"Dorfen, St","type":"Stadt"},"district":{"key":"09177","name":"Erding","type":"Landkreis"},"federalState":{"key":"09","name":"Bayern"}},{"name":"Georg-Gugler-Weg","postalCode":"84405","locality":"Dorfen","municipality":{"key":"09177115","name":"Dorfen, St","type":"Stadt"},"district":{"key":"09177","name":"Erding","type":"Landkreis"},"federalState":{"key":"09","name":"Bayern"}},{"name":"Georg-von-Dillis-Siedlung","postalCode":"84405","locality":"Dorfen","municipality":{"key":"09177115","name":"Dorfen, St","type":"Stadt"},"district":{"key":"09177","name":"Erding","type":"Landkreis"},"federalState":{"key":"09","name":"Bayern"}},{"name":"Gewerbering","postalCode":"84405","locality":"Dorfen","municipality":{"key":"09177115","name":"Dorfen, St","type":"Stadt"},"district":{"key":"09177","name":"Erding","type":"Landkreis"},"federalState":{"key":"09","name":"Bayern"}},{"name":"Grünbacher Str.","postalCode":"84405","locality":"Dorfen","municipality":{"key":"09177115","name":"Dorfen, St","type":"Stadt"},"district":{"key":"09177","name":"Erding","type":"Landkreis"},"federalState":{"key":"09","name":"Bayern"}},{"name":"Haager Str.","postalCode":"84405","locality":"Dorfen","municipality":{"key":"09177115","name":"Dorfen, St","type":"Stadt"},"district":{"key":"09177","name":"Erding","type":"Landkreis"},"federalState":{"key":"09","name":"Bayern"}},{"name":"Hampersdorf","postalCode":"84405","locality":"Dorfen","municipality":{"key":"09177115","name":"Dorfen, St","type":"Stadt"},"district":{"key":"09177","name":"Erding","type":"Landkreis"},"federalState":{"key":"09","name":"Bayern"}},{"name":"Hampersdorfer Weg","postalCode":"84405","locality":"Dorfen","municipality":{"key":"09177115","name":"Dorfen, St","type":"Stadt"},"district":{"key":"09177","name":"Erding","type":"Landkreis"},"federalState":{"key":"09","name":"Bayern"}},{"name":"Hans-Schöberl-Weg","postalCode":"84405","locality":"Dorfen","municipality":{"key":"09177115","name":"Dorfen, St","type":"Stadt"},"district":{"key":"09177","name":"Erding","type":"Landkreis"},"federalState":{"key":"09","name":"Bayern"}},{"name":"Hauptstr.","postalCode":"84405","locality":"Dorfen","municipality":{"key":"09177115","name":"Dorfen, St","type":"Stadt"},"district":{"key":"09177","name":"Erding","type":"Landkreis"},"federalState":{"key":"09","name":"Bayern"}},{"name":"Haydnweg","postalCode":"84405","locality":"Dorfen","municipality":{"key":"09177115","name":"Dorfen, St","type":"Stadt"},"district":{"key":"09177","name":"Erding","type":"Landkreis"},"federalState":{"key":"09","name":"Bayern"}},{"name":"Heimstätte","postalCode":"84405","locality":"Dorfen","municipality":{"key":"09177115","name":"Dorfen, St","type":"Stadt"},"district":{"key":"09177","name":"Erding","type":"Landkreis"},"federalState":{"key":"09","name":"Bayern"}},{"name":"Hermann-Hesse-Weg","postalCode":"84405","locality":"Dorfen","municipality":{"key":"09177115","name":"Dorfen, St","type":"Stadt"},"district":{"key":"09177","name":"Erding","type":"Landkreis"},"federalState":{"key":"09","name":"Bayern"}},{"name":"Hermann-Winter-Weg","postalCode":"84405","locality":"Dorfen","municipality":{"key":"09177115","name":"Dorfen, St","type":"Stadt"},"district":{"key":"09177","name":"Erding","type":"Landkreis"},"federalState":{"key":"09","name":"Bayern"}},{"name":"Herzoggraben","postalCode":"84405","locality":"Dorfen","municipality":{"key":"09177115","name":"Dorfen, St","type":"Stadt"},"district":{"key":"09177","name":"Erding","type":"Landkreis"},"federalState":{"key":"09","name":"Bayern"}},{"name":"Heubrücke","postalCode":"84405","locality":"Dorfen","municipality":{"key":"09177115","name":"Dorfen, St","type":"Stadt"},"district":{"key":"09177","name":"Erding","type":"Landkreis"},"federalState":{"key":"09","name":"Bayern"}},{"name":"Hochgernstr.","postalCode":"84405","locality":"Dorfen","municipality":{"key":"09177115","name":"Dorfen, St","type":"Stadt"},"district":{"key":"09177","name":"Erding","type":"Landkreis"},"federalState":{"key":"09","name":"Bayern"}},{"name":"Hochkalterstr.","postalCode":"84405","locality":"Dorfen","municipality":{"key":"09177115","name":"Dorfen, St","type":"Stadt"},"district":{"key":"09177","name":"Erding","type":"Landkreis"},"federalState":{"key":"09","name":"Bayern"}},{"name":"Hochstr.","postalCode":"84405","locality":"Dorfen","municipality":{"key":"09177115","name":"Dorfen, St","type":"Stadt"},"district":{"key":"09177","name":"Erding","type":"Landkreis"},"federalState":{"key":"09","name":"Bayern"}},{"name":"Höhenweg","postalCode":"84405","locality":"Dorfen","municipality":{"key":"09177115","name":"Dorfen, St","type":"Stadt"},"district":{"key":"09177","name":"Erding","type":"Landkreis"},"federalState":{"key":"09","name":"Bayern"}},{"name":"Isener Str.","postalCode":"84405","locality":"Dorfen","municipality":{"key":"09177115","name":"Dorfen, St","type":"Stadt"},"district":{"key":"09177","name":"Erding","type":"Landkreis"},"federalState":{"key":"09","name":"Bayern"}},{"name":"Jahnstr.","postalCode":"84405","locality":"Dorfen","municipality":{"key":"09177115","name":"Dorfen, St","type":"Stadt"},"district":{"key":"09177","name":"Erding","type":"Landkreis"},"federalState":{"key":"09","name":"Bayern"}},{"name":"Jennerstr.","postalCode":"84405","locality":"Dorfen","municipality":{"key":"09177115","name":"Dorfen, St","type":"Stadt"},"district":{"key":"09177","name":"Erding","type":"Landkreis"},"federalState":{"key":"09","name":"Bayern"}},{"name":"Joachim-Ringelnatz-Weg","postalCode":"84405","locality":"Dorfen","municipality":{"key":"09177115","name":"Dorfen, St","type":"Stadt"},"district":{"key":"09177","name":"Erding","type":"Landkreis"},"federalState":{"key":"09","name":"Bayern"}},{"name":"Johann-Anton-Pader-Weg","postalCode":"84405","locality":"Dorfen","municipality":{"key":"09177115","name":"Dorfen, St","type":"Stadt"},"district":{"key":"09177","name":"Erding","type":"Landkreis"},"federalState":{"key":"09","name":"Bayern"}},{"name":"Johannisplatz","postalCode":"84405","locality":"Dorfen","municipality":{"key":"09177115","name":"Dorfen, St","type":"Stadt"},"district":{"key":"09177","name":"Erding","type":"Landkreis"},"federalState":{"key":"09","name":"Bayern"}},{"name":"Josef-Martin-Bauer-Str.","postalCode":"84405","locality":"Dorfen","municipality":{"key":"09177115","name":"Dorfen, St","type":"Stadt"},"district":{"key":"09177","name":"Erding","type":"Landkreis"},"federalState":{"key":"09","name":"Bayern"}},{"name":"Justus-von-Liebig-Str.","postalCode":"84405","locality":"Dorfen","municipality":{"key":"09177115","name":"Dorfen, St","type":"Stadt"},"district":{"key":"09177","name":"Erding","type":"Landkreis"},"federalState":{"key":"09","name":"Bayern"}},{"name":"Kaminkehrergasse","postalCode":"84405","locality":"Dorfen","municipality":{"key":"09177115","name":"Dorfen, St","type":"Stadt"},"district":{"key":"09177","name":"Erding","type":"Landkreis"},"federalState":{"key":"09","name":"Bayern"}},{"name":"Karl-Huber-Weg","postalCode":"84405","locality":"Dorfen","municipality":{"key":"09177115","name":"Dorfen, St","type":"Stadt"},"district":{"key":"09177","name":"Erding","type":"Landkreis"},"federalState":{"key":"09","name":"Bayern"}},{"name":"Karl-Wastl-Str.","postalCode":"84405","locality":"Dorfen","municipality":{"key":"09177115","name":"Dorfen, St","type":"Stadt"},"district":{"key":"09177","name":"Erding","type":"Landkreis"},"federalState":{"key":"09","name":"Bayern"}},{"name":"Karwendelweg","postalCode":"84405","locality":"Dorfen","municipality":{"key":"09177115","name":"Dorfen, St","type":"Stadt"},"district":{"key":"09177","name":"Erding","type":"Landkreis"},"federalState":{"key":"09","name":"Bayern"}},{"name":"Katharina-Hampersdorfer-Str.","postalCode":"84405","locality":"Dorfen","municipality":{"key":"09177115","name":"Dorfen, St","type":"Stadt"},"district":{"key":"09177","name":"Erding","type":"Landkreis"},"federalState":{"key":"09","name":"Bayern"}},{"name":"Kirchanger","postalCode":"84405","locality":"Dorfen","municipality":{"key":"09177115","name":"Dorfen, St","type":"Stadt"},"district":{"key":"09177","name":"Erding","type":"Landkreis"},"federalState":{"key":"09","name":"Bayern"}},{"name":"Kirchtorplatz","postalCode":"84405","locality":"Dorfen","municipality":{"key":"09177115","name":"Dorfen, St","type":"Stadt"},"district":{"key":"09177","name":"Erding","type":"Landkreis"},"federalState":{"key":"09","name":"Bayern"}},{"name":"Kirchweg","postalCode":"84405","locality":"Dorfen","municipality":{"key":"09177115","name":"Dorfen, St","type":"Stadt"},"district":{"key":"09177","name":"Erding","type":"Landkreis"},"federalState":{"key":"09","name":"Bayern"}},{"name":"Kommerzienrat-Meindl-Str.","postalCode":"84405","locality":"Dorfen","municipality":{"key":"09177115","name":"Dorfen, St","type":"Stadt"},"district":{"key":"09177","name":"Erding","type":"Landkreis"},"federalState":{"key":"09","name":"Bayern"}},{"name":"Korbinian-Aigner-Weg","postalCode":"84405","locality":"Dorfen","municipality":{"key":"09177115","name":"Dorfen, St","type":"Stadt"},"district":{"key":"09177","name":"Erding","type":"Landkreis"},"federalState":{"key":"09","name":"Bayern"}},{"name":"Kugelfang","postalCode":"84405","locality":"Dorfen","municipality":{"key":"09177115","name":"Dorfen, St","type":"Stadt"},"district":{"key":"09177","name":"Erding","type":"Landkreis"},"federalState":{"key":"09","name":"Bayern"}},{"name":"Landersdorf","postalCode":"84405","locality":"Dorfen","municipality":{"key":"09177115","name":"Dorfen, St","type":"Stadt"},"district":{"key":"09177","name":"Erding","type":"Landkreis"},"federalState":{"key":"09","name":"Bayern"}},{"name":"Lehrer-Jaud-Weg","postalCode":"84405","locality":"Dorfen","municipality":{"key":"09177115","name":"Dorfen, St","type":"Stadt"},"district":{"key":"09177","name":"Erding","type":"Landkreis"},"federalState":{"key":"09","name":"Bayern"}},{"name":"Lehrer-Michel-Str.","postalCode":"84405","locality":"Dorfen","municipality":{"key":"09177115","name":"Dorfen, St","type":"Stadt"},"district":{"key":"09177","name":"Erding","type":"Landkreis"},"federalState":{"key":"09","name":"Bayern"}},{"name":"Lehrer-Zöpf-Str.","postalCode":"84405","locality":"Dorfen","municipality":{"key":"09177115","name":"Dorfen, St","type":"Stadt"},"district":{"key":"09177","name":"Erding","type":"Landkreis"},"federalState":{"key":"09","name":"Bayern"}},{"name":"Lena-Christ-Weg","postalCode":"84405","locality":"Dorfen","municipality":{"key":"09177115","name":"Dorfen, St","type":"Stadt"},"district":{"key":"09177","name":"Erding","type":"Landkreis"},"federalState":{"key":"09","name":"Bayern"}},{"name":"Lerchenhuber Weg","postalCode":"84405","locality":"Dorfen","municipality":{"key":"09177115","name":"Dorfen, St","type":"Stadt"},"district":{"key":"09177","name":"Erding","type":"Landkreis"},"federalState":{"key":"09","name":"Bayern"}},{"name":"Liliengasse","postalCode":"84405","locality":"Dorfen","municipality":{"key":"09177115","name":"Dorfen, St","type":"Stadt"},"district":{"key":"09177","name":"Erding","type":"Landkreis"},"federalState":{"key":"09","name":"Bayern"}},{"name":"Ludwig-Anzengruber-Str.","postalCode":"84405","locality":"Dorfen","municipality":{"key":"09177115","name":"Dorfen, St","type":"Stadt"},"district":{"key":"09177","name":"Erding","type":"Landkreis"},"federalState":{"key":"09","name":"Bayern"}},{"name":"Ludwig-Ganghofer-Str.","postalCode":"84405","locality":"Dorfen","municipality":{"key":"09177115","name":"Dorfen, St","type":"Stadt"},"district":{"key":"09177","name":"Erding","type":"Landkreis"},"federalState":{"key":"09","name":"Bayern"}},{"name":"Ludwig-Mertl-Str.","postalCode":"84405","locality":"Dorfen","municipality":{"key":"09177115","name":"Dorfen, St","type":"Stadt"},"district":{"key":"09177","name":"Erding","type":"Landkreis"},"federalState":{"key":"09","name":"Bayern"}},{"name":"Ludwig-Thoma-Str.","postalCode":"84405","locality":"Dorfen","municipality":{"key":"09177115","name":"Dorfen, St","type":"Stadt"},"district":{"key":"09177","name":"Erding","type":"Landkreis"},"federalState":{"key":"09","name":"Bayern"}},{"name":"Ludwig-Uhland-Str.","postalCode":"84405","locality":"Dorfen","municipality":{"key":"09177115","name":"Dorfen, St","type":"Stadt"},"district":{"key":"09177","name":"Erding","type":"Landkreis"},"federalState":{"key":"09","name":"Bayern"}},{"name":"Matthias-Fackler-Weg","postalCode":"84405","locality":"Dorfen","municipality":{"key":"09177115","name":"Dorfen, St","type":"Stadt"},"district":{"key":"09177","name":"Erding","type":"Landkreis"},"federalState":{"key":"09","name":"Bayern"}},{"name":"Max-Hertwig-Weg","postalCode":"84405","locality":"Dorfen","municipality":{"key":"09177115","name":"Dorfen, St","type":"Stadt"},"district":{"key":"09177","name":"Erding","type":"Landkreis"},"federalState":{"key":"09","name":"Bayern"}},{"name":"Moosener Str.","postalCode":"84405","locality":"Dorfen","municipality":{"key":"09177115","name":"Dorfen, St","type":"Stadt"},"district":{"key":"09177","name":"Erding","type":"Landkreis"},"federalState":{"key":"09","name":"Bayern"}},{"name":"Moosstr.","postalCode":"84405","locality":"Dorfen","municipality":{"key":"09177115","name":"Dorfen, St","type":"Stadt"},"district":{"key":"09177","name":"Erding","type":"Landkreis"},"federalState":{"key":"09","name":"Bayern"}},{"name":"Mozartring","postalCode":"84405","locality":"Dorfen","municipality":{"key":"09177115","name":"Dorfen, St","type":"Stadt"},"district":{"key":"09177","name":"Erding","type":"Landkreis"},"federalState":{"key":"09","name":"Bayern"}},{"name":"Mühlangerstr.","postalCode":"84405","locality":"Dorfen","municipality":{"key":"09177115","name":"Dorfen, St","type":"Stadt"},"district":{"key":"09177","name":"Erding","type":"Landkreis"},"federalState":{"key":"09","name":"Bayern"}},{"name":"Nährenwaldweg","postalCode":"70771","locality":"Leinfelden-Echterdingen","municipality":{"key":"08116078","name":"Leinfelden-Echterdingen, Stadt","type":"Große_Kreisstadt"},"district":{"key":"08116","name":"Esslingen","type":"Landkreis"},"federalState":{"key":"08","name":"Baden-Württemberg"}},{"name":"Narzissenstr.","postalCode":"70771","locality":"Leinfelden-Echterdingen","municipality":{"key":"08116078","name":"Leinfelden-Echterdingen, Stadt","type":"Große_Kreisstadt"},"district":{"key":"08116","name":"Esslingen","type":"Landkreis"},"federalState":{"key":"08","name":"Baden-Württemberg"}},{"name":"Nasses Alleele","postalCode":"70771","locality":"Leinfelden-Echterdingen","municipality":{"key":"08116078","name":"Leinfelden-Echterdingen, Stadt","type":"Große_Kreisstadt"},"district":{"key":"08116","name":"Esslingen","type":"Landkreis"},"federalState":{"key":"08","name":"Baden-Württemberg"}},{"name":"Naumannstr.","postalCode":"70771","locality":"Leinfelden-Echterdingen","municipality":{"key":"08116078","name":"Leinfelden-Echterdingen, Stadt","type":"Große_Kreisstadt"},"district":{"key":"08116","name":"Esslingen","type":"Landkreis"},"federalState":{"key":"08","name":"Baden-Württemberg"}},{"name":"Neckar-Alb-Str.","postalCode":"72127","locality":"Kusterdingen","municipality":{"key":"08416023","name":"Kusterdingen","type":"Kreisangehörige_Gemeinde"},"district":{"key":"08416","name":"Tübingen","type":"Landkreis"},"federalState":{"key":"08","name":"Baden-Württemberg"}},{"name":"Nelkenstr.","postalCode":"70771","locality":"Leinfelden-Echterdingen","municipality":{"key":"08116078","name":"Leinfelden-Echterdingen, Stadt","type":"Große_Kreisstadt"},"district":{"key":"08116","name":"Esslingen","type":"Landkreis"},"federalState":{"key":"08","name":"Baden-Württemberg"}},{"name":"Nelkenstr.","postalCode":"72127","locality":"Kusterdingen","municipality":{"key":"08416023","name":"Kusterdingen","type":"Kreisangehörige_Gemeinde"},"district":{"key":"08416","name":"Tübingen","type":"Landkreis"},"federalState":{"key":"08","name":"Baden-Württemberg"}},{"name":"Nelkenstr.","postalCode":"72131","locality":"Ofterdingen","municipality":{"key":"08416031","name":"Ofterdingen","type":"Kreisangehörige_Gemeinde"},"district":{"key":"08416","name":"Tübingen","type":"Landkreis"},"federalState":{"key":"08","name":"Baden-Württemberg"}},{"name":"Nelkenweg","postalCode":"79364","locality":"Malterdingen","municipality":{"key":"08316024","name":"Malterdingen","type":"Kreisangehörige_Gemeinde"},"district":{"key":"08316","name":"Emmendingen","type":"Landkreis"},"federalState":{"key":"08","name":"Baden-Württemberg"}},{"name":"Nenkershölzleweg","postalCode":"70771","locality":"Leinfelden-Echterdingen","municipality":{"key":"08116078","name":"Leinfelden-Echterdingen, Stadt","type":"Große_Kreisstadt"},"district":{"key":"08116","name":"Esslingen","type":"Landkreis"},"federalState":{"key":"08","name":"Baden-Württemberg"}},{"name":"Nerzweg","postalCode":"70771","locality":"Leinfelden-Echterdingen","municipality":{"key":"08116078","name":"Leinfelden-Echterdingen, Stadt","type":"Große_Kreisstadt"},"district":{"key":"08116","name":"Esslingen","type":"Landkreis"},"federalState":{"key":"08","name":"Baden-Württemberg"}},{"name":"Neue Str.","postalCode":"29640","locality":"Schneverdingen","municipality":{"key":"03358019","name":"Schneverdingen, Stadt","type":"Stadt"},"district":{"key":"03358","name":"Heidekreis","type":"Landkreis"},"federalState":{"key":"03","name":"Niedersachsen"}},{"name":"Neuffenstr.","postalCode":"70771","locality":"Leinfelden-Echterdingen","municipality":{"key":"08116078","name":"Leinfelden-Echterdingen, Stadt","type":"Große_Kreisstadt"},"district":{"key":"08116","name":"Esslingen","type":"Landkreis"},"federalState":{"key":"08","name":"Baden-Württemberg"}},{"name":"Neuffenstr.","postalCode":"72127","locality":"Kusterdingen","municipality":{"key":"08416023","name":"Kusterdingen","type":"Kreisangehörige_Gemeinde"},"district":{"key":"08416","name":"Tübingen","type":"Landkreis"},"federalState":{"key":"08","name":"Baden-Württemberg"}},{"name":"Neuffenstr.","postalCode":"72131","locality":"Ofterdingen","municipality":{"key":"08416031","name":"Ofterdingen","type":"Kreisangehörige_Gemeinde"},"district":{"key":"08416","name":"Tübingen","type":"Landkreis"},"federalState":{"key":"08","name":"Baden-Württemberg"}},{"name":"Neunkircherweg","postalCode":"79291","locality":"Merdingen","municipality":{"key":"08315072","name":"Merdingen","type":"Kreisangehörige_Gemeinde"},"district":{"key":"08315","name":"Breisgau-Hochschwarzwald","type":"Landkreis"},"federalState":{"key":"08","name":"Baden-Württemberg"}},{"name":"Nikolaus-Döllel-Str.","postalCode":"85435","locality":"Erding","municipality":{"key":"09177117","name":"Erding, GKSt","type":"Große_Kreisstadt"},"district":{"key":"09177","name":"Erding","type":"Landkreis"},"federalState":{"key":"09","name":"Bayern"}},{"name":"Nikolaus-Otto-Str.","postalCode":"70771","locality":"Leinfelden-Echterdingen","municipality":{"key":"08116078","name":"Leinfelden-Echterdingen, Stadt","type":"Große_Kreisstadt"},"district":{"key":"08116","name":"Esslingen","type":"Landkreis"},"federalState":{"key":"08","name":"Baden-Württemberg"}},{"name":"Nippenburger Str.","postalCode":"71701","locality":"Schwieberdingen","municipality":{"key":"08118067","name":"Schwieberdingen","type":"Kreisangehörige_Gemeinde"},"district":{"key":"08118","name":"Ludwigsburg","type":"Landkreis"},"federalState":{"key":"08","name":"Baden-Württemberg"}},{"name":"Nonnenweg","postalCode":"72131","locality":"Ofterdingen","municipality":{"key":"08416031","name":"Ofterdingen","type":"Kreisangehörige_Gemeinde"},"district":{"key":"08416","name":"Tübingen","type":"Landkreis"},"federalState":{"key":"08","name":"Baden-Württemberg"}},{"name":"Nordstr.","postalCode":"29640","locality":"Schneverdingen","municipality":{"key":"03358019","name":"Schneverdingen, Stadt","type":"Stadt"},"district":{"key":"03358","name":"Heidekreis","type":"Landkreis"},"federalState":{"key":"03","name":"Niedersachsen"}},{"name":"Nord-Süd-Str.","postalCode":"70771","locality":"Leinfelden-Echterdingen","municipality":{"key":"08116078","name":"Leinfelden-Echterdingen, Stadt","type":"Große_Kreisstadt"},"district":{"key":"08116","name":"Esslingen","type":"Landkreis"},"federalState":{"key":"08","name":"Baden-Württemberg"}},{"name":"Notburgaweg","postalCode":"85445","locality":"Oberding","municipality":{"key":"09177133","name":"Oberding","type":"Kreisangehörige_Gemeinde"},"district":{"key":"09177","name":"Erding","type":"Landkreis"},"federalState":{"key":"09","name":"Bayern"}},{"name":"Novalisweg","postalCode":"71735","locality":"Eberdingen","municipality":{"key":"08118012","name":"Eberdingen","type":"Kreisangehörige_Gemeinde"},"district":{"key":"08118","name":"Ludwigsburg","type":"Landkreis"},"federalState":{"key":"08","name":"Baden-Württemberg"}},{"name":"Novalisweg","postalCode":"72131","locality":"Ofterdingen","municipality":{"key":"08416031","name":"Ofterdingen","type":"Kreisangehörige_Gemeinde"},"district":{"key":"08416","name":"Tübingen","type":"Landkreis"},"federalState":{"key":"08","name":"Baden-Württemberg"}},{"name":"Nusbaumer Str.","postalCode":"54675","locality":"Hommerdingen","municipality":{"key":"07232054","name":"Hommerdingen","type":"Kreisangehörige_Gemeinde"},"district":{"key":"07232","name":"Eifelkreis Bitburg-Prüm","type":"Landkreis"},"federalState":{"key":"07","name":"Rheinland-Pfalz"}},{"name":"Nußbaumstr.","postalCode":"85435","locality":"Erding","municipality":{"key":"09177117","name":"Erding, GKSt","type":"Große_Kreisstadt"},"district":{"key":"09177","name":"Erding","type":"Landkreis"},"federalState":{"key":"09","name":"Bayern"}},{"name":"Nussbaumweg","postalCode":"29640","locality":"Schneverdingen","municipality":{"key":"03358019","name":"Schneverdingen, Stadt","type":"Stadt"},"district":{"key":"03358","name":"Heidekreis","type":"Landkreis"},"federalState":{"key":"03","name":"Niedersachsen"}},{"name":"Nußbaumweg","postalCode":"71735","locality":"Eberdingen","municipality":{"key":"08118012","name":"Eberdingen","type":"Kreisangehörige_Gemeinde"},"district":{"key":"08118","name":"Ludwigsburg","type":"Landkreis"},"federalState":{"key":"08","name":"Baden-Württemberg"}},{"name":"Nussdorfer Str.","postalCode":"71735","locality":"Eberdingen","municipality":{"key":"08118012","name":"Eberdingen","type":"Kreisangehörige_Gemeinde"},"district":{"key":"08118","name":"Ludwigsburg","type":"Landkreis"},"federalState":{"key":"08","name":"Baden-Württemberg"}},{"name":"Oberdorfener Str.","postalCode":"84405","locality":"Dorfen","municipality":{"key":"09177115","name":"Dorfen, St","type":"Stadt"},"district":{"key":"09177","name":"Erding","type":"Landkreis"},"federalState":{"key":"09","name":"Bayern"}},{"name":"Oberhausmehring","postalCode":"84405","locality":"Dorfen","municipality":{"key":"09177115","name":"Dorfen, St","type":"Stadt"},"district":{"key":"09177","name":"Erding","type":"Landkreis"},"federalState":{"key":"09","name":"Bayern"}},{"name":"Parkstr.","postalCode":"84405","locality":"Dorfen","municipality":{"key":"09177115","name":"Dorfen, St","type":"Stadt"},"district":{"key":"09177","name":"Erding","type":"Landkreis"},"federalState":{"key":"09","name":"Bayern"}},{"name":"Paul-Huber-Str.","postalCode":"84405","locality":"Dorfen","municipality":{"key":"09177115","name":"Dorfen, St","type":"Stadt"},"district":{"key":"09177","name":"Erding","type":"Landkreis"},"federalState":{"key":"09","name":"Bayern"}},{"name":"Paul-Keller-Str.","postalCode":"84405","locality":"Dorfen","municipality":{"key":"09177115","name":"Dorfen, St","type":"Stadt"},"district":{"key":"09177","name":"Erding","type":"Landkreis"},"federalState":{"key":"09","name":"Bayern"}},{"name":"Pfarrer-Eigner-Weg","postalCode":"84405","locality":"Dorfen","municipality":{"key":"09177115","name":"Dorfen, St","type":"Stadt"},"district":{"key":"09177","name":"Erding","type":"Landkreis"},"federalState":{"key":"09","name":"Bayern"}},{"name":"Pfarrer-Fischer-Str.","postalCode":"84405","locality":"Dorfen","municipality":{"key":"09177115","name":"Dorfen, St","type":"Stadt"},"district":{"key":"09177","name":"Erding","type":"Landkreis"},"federalState":{"key":"09","name":"Bayern"}},{"name":"Pfarrer-Gammel-Str.","postalCode":"84405","locality":"Dorfen","municipality":{"key":"09177115","name":"Dorfen, St","type":"Stadt"},"district":{"key":"09177","name":"Erding","type":"Landkreis"},"federalState":{"key":"09","name":"Bayern"}},{"name":"Pfarrer-Kainzmaier-Ring","postalCode":"84405","locality":"Dorfen","municipality":{"key":"09177115","name":"Dorfen, St","type":"Stadt"},"district":{"key":"09177","name":"Erding","type":"Landkreis"},"federalState":{"key":"09","name":"Bayern"}},{"name":"Quellenstr.","postalCode":"71735","locality":"Eberdingen","municipality":{"key":"08118012","name":"Eberdingen","type":"Kreisangehörige_Gemeinde"},"district":{"key":"08118","name":"Ludwigsburg","type":"Landkreis"},"federalState":{"key":"08","name":"Baden-Württemberg"}},{"name":"Querweg","postalCode":"29640","locality":"Schneverdingen","municipality":{"key":"03358019","name":"Schneverdingen, Stadt","type":"Stadt"},"district":{"key":"03358","name":"Heidekreis","type":"Landkreis"},"federalState":{"key":"03","name":"Niedersachsen"}},{"name":"Raiffeisenstr.","postalCode":"84405","locality":"Dorfen","municipality":{"key":"09177115","name":"Dorfen, St","type":"Stadt"},"district":{"key":"09177","name":"Erding","type":"Landkreis"},"federalState":{"key":"09","name":"Bayern"}},{"name":"Rathausplatz","postalCode":"84405","locality":"Dorfen","municipality":{"key":"09177115","name":"Dorfen, St","type":"Stadt"},"district":{"key":"09177","name":"Erding","type":"Landkreis"},"federalState":{"key":"09","name":"Bayern"}},{"name":"Richard-Wagner-Ring","postalCode":"84405","locality":"Dorfen","municipality":{"key":"09177115","name":"Dorfen, St","type":"Stadt"},"district":{"key":"09177","name":"Erding","type":"Landkreis"},"federalState":{"key":"09","name":"Bayern"}},{"name":"Rinninger Weg","postalCode":"84405","locality":"Dorfen","municipality":{"key":"09177115","name":"Dorfen, St","type":"Stadt"},"district":{"key":"09177","name":"Erding","type":"Landkreis"},"federalState":{"key":"09","name":"Bayern"}},{"name":"Rosenaustr.","postalCode":"84405","locality":"Dorfen","municipality":{"key":"09177115","name":"Dorfen, St","type":"Stadt"},"district":{"key":"09177","name":"Erding","type":"Landkreis"},"federalState":{"key":"09","name":"Bayern"}},{"name":"Ruprechtsberg","postalCode":"84405","locality":"Dorfen","municipality":{"key":"09177115","name":"Dorfen, St","type":"Stadt"},"district":{"key":"09177","name":"Erding","type":"Landkreis"},"federalState":{"key":"09","name":"Bayern"}},{"name":"Schäfflergasse","postalCode":"84405","locality":"Dorfen","municipality":{"key":"09177115","name":"Dorfen, St","type":"Stadt"},"district":{"key":"09177","name":"Erding","type":"Landkreis"},"federalState":{"key":"09","name":"Bayern"}},{"name":"Schreinergasse","postalCode":"84405","locality":"Dorfen","municipality":{"key":"09177115","name":"Dorfen, St","type":"Stadt"},"district":{"key":"09177","name":"Erding","type":"Landkreis"},"federalState":{"key":"09","name":"Bayern"}},{"name":"Schulweg","postalCode":"84405","locality":"Dorfen","municipality":{"key":"09177115","name":"Dorfen, St","type":"Stadt"},"district":{"key":"09177","name":"Erding","type":"Landkreis"},"federalState":{"key":"09","name":"Bayern"}},{"name":"Schwindkirchen","postalCode":"84405","locality":"Dorfen","municipality":{"key":"09177115","name":"Dorfen, St","type":"Stadt"},"district":{"key":"09177","name":"Erding","type":"Landkreis"},"federalState":{"key":"09","name":"Bayern"}},{"name":"Seebacher Feld","postalCode":"84405","locality":"Dorfen","municipality":{"key":"09177115","name":"Dorfen, St","type":"Stadt"},"district":{"key":"09177","name":"Erding","type":"Landkreis"},"federalState":{"key":"09","name":"Bayern"}},{"name":"Siemensstr.","postalCode":"84405","locality":"Dorfen","municipality":{"key":"09177115","name":"Dorfen, St","type":"Stadt"},"district":{"key":"09177","name":"Erding","type":"Landkreis"},"federalState":{"key":"09","name":"Bayern"}},{"name":"Skulpturenweg","postalCode":"84405","locality":"Dorfen","municipality":{"key":"09177115","name":"Dorfen, St","type":"Stadt"},"district":{"key":"09177","name":"Erding","type":"Landkreis"},"federalState":{"key":"09","name":"Bayern"}},{"name":"Sophie-Scholl-Str.","postalCode":"84405","locality":"Dorfen","municipality":{"key":"09177115","name":"Dorfen, St","type":"Stadt"},"district":{"key":"09177","name":"Erding","type":"Landkreis"},"federalState":{"key":"09","name":"Bayern"}},{"name":"Stiftlring","postalCode":"84405","locality":"Dorfen","municipality":{"key":"09177115","name":"Dorfen, St","type":"Stadt"},"district":{"key":"09177","name":"Erding","type":"Landkreis"},"federalState":{"key":"09","name":"Bayern"}},{"name":"St. Sebastian","postalCode":"84405","locality":"Dorfen","municipality":{"key":"09177115","name":"Dorfen, St","type":"Stadt"},"district":{"key":"09177","name":"Erding","type":"Landkreis"},"federalState":{"key":"09","name":"Bayern"}},{"name":"Tappberger Feld","postalCode":"84405","locality":"Dorfen","municipality":{"key":"09177115","name":"Dorfen, St","type":"Stadt"},"district":{"key":"09177","name":"Erding","type":"Landkreis"},"federalState":{"key":"09","name":"Bayern"}},{"name":"Terofalstr.","postalCode":"84405","locality":"Dorfen","municipality":{"key":"09177115","name":"Dorfen, St","type":"Stadt"},"district":{"key":"09177","name":"Erding","type":"Landkreis"},"federalState":{"key":"09","name":"Bayern"}},{"name":"Tulpengasse","postalCode":"84405","locality":"Dorfen","municipality":{"key":"09177115","name":"Dorfen, St","type":"Stadt"},"district":{"key":"09177","name":"Erding","type":"Landkreis"},"federalState":{"key":"09","name":"Bayern"}},{"name":"Unterer Markt","postalCode":"84405","locality":"Dorfen","municipality":{"key":"09177115","name":"Dorfen, St","type":"Stadt"},"district":{"key":"09177","name":"Erding","type":"Landkreis"},"federalState":{"key":"09","name":"Bayern"}},{"name":"Van-Beethoven-Weg","postalCode":"84405","locality":"Dorfen","municipality":{"key":"09177115","name":"Dorfen, St","type":"Stadt"},"district":{"key":"09177","name":"Erding","type":"Landkreis"},"federalState":{"key":"09","name":"Bayern"}},{"name":"Veilchengasse","postalCode":"84405","locality":"Dorfen","municipality":{"key":"09177115","name":"Dorfen, St","type":"Stadt"},"district":{"key":"09177","name":"Erding","type":"Landkreis"},"federalState":{"key":"09","name":"Bayern"}},{"name":"Vogelgarten","postalCode":"84405","locality":"Dorfen","municipality":{"key":"09177115","name":"Dorfen, St","type":"Stadt"},"district":{"key":"09177","name":"Erding","type":"Landkreis"},"federalState":{"key":"09","name":"Bayern"}},{"name":"Von-Eichendorff-Ring","postalCode":"84405","locality":"Dorfen","municipality":{"key":"09177115","name":"Dorfen, St","type":"Stadt"},"district":{"key":"09177","name":"Erding","type":"Landkreis"},"federalState":{"key":"09","name":"Bayern"}},{"name":"Wagengasse","postalCode":"84405","locality":"Dorfen","municipality":{"key":"09177115","name":"Dorfen, St","type":"Stadt"},"district":{"key":"09177","name":"Erding","type":"Landkreis"},"federalState":{"key":"09","name":"Bayern"}},{"name":"Wallbergstr.","postalCode":"84405","locality":"Dorfen","municipality":{"key":"09177115","name":"Dorfen, St","type":"Stadt"},"district":{"key":"09177","name":"Erding","type":"Landkreis"},"federalState":{"key":"09","name":"Bayern"}},{"name":"Wasentegernbach","postalCode":"84405","locality":"Dorfen","municipality":{"key":"09177115","name":"Dorfen, St","type":"Stadt"},"district":{"key":"09177","name":"Erding","type":"Landkreis"},"federalState":{"key":"09","name":"Bayern"}},{"name":"Wasentegernbacher Str.","postalCode":"84405","locality":"Dorfen","municipality":{"key":"09177115","name":"Dorfen, St","type":"Stadt"},"district":{"key":"09177","name":"Erding","type":"Landkreis"},"federalState":{"key":"09","name":"Bayern"}},{"name":"Watzmannstr.","postalCode":"84405","locality":"Dorfen","municipality":{"key":"09177115","name":"Dorfen, St","type":"Stadt"},"district":{"key":"09177","name":"Erding","type":"Landkreis"},"federalState":{"key":"09","name":"Bayern"}},{"name":"Waxensteinstr.","postalCode":"84405","locality":"Dorfen","municipality":{"key":"09177115","name":"Dorfen, St","type":"Stadt"},"district":{"key":"09177","name":"Erding","type":"Landkreis"},"federalState":{"key":"09","name":"Bayern"}},{"name":"Wiesenweg","postalCode":"84405","locality":"Dorfen","municipality":{"key":"09177115","name":"Dorfen, St","type":"Stadt"},"district":{"key":"09177","name":"Erding","type":"Landkreis"},"federalState":{"key":"09","name":"Bayern"}},{"name":"Zeilhofener Str.","postalCode":"84405","locality":"Dorfen","municipality":{"key":"09177115","name":"Dorfen, St","type":"Stadt"},"district":{"key":"09177","name":"Erding","type":"Landkreis"},"federalState":{"key":"09","name":"Bayern"}},{"name":"Zieglhaus","postalCode":"84405","locality":"Dorfen","municipality":{"key":"09177115","name":"Dorfen, St","type":"Stadt"},"district":{"key":"09177","name":"Erding","type":"Landkreis"},"federalState":{"key":"09","name":"Bayern"}},{"name":"Zinniengasse","postalCode":"84405","locality":"Dorfen","municipality":{"key":"09177115","name":"Dorfen, St","type":"Stadt"},"district":{"key":"09177","name":"Erding","type":"Landkreis"},"federalState":{"key":"09","name":"Bayern"}},{"name":"Zöpfstr.","postalCode":"84405","locality":"Dorfen","municipality":{"key":"09177115","name":"Dorfen, St","type":"Stadt"},"district":{"key":"09177","name":"Erding","type":"Landkreis"},"federalState":{"key":"09","name":"Bayern"}},{"name":"Zugspitzstr.","postalCode":"84405","locality":"Dorfen","municipality":{"key":"09177115","name":"Dorfen, St","type":"Stadt"},"district":{"key":"09177","name":"Erding","type":"Landkreis"},"federalState":{"key":"09","name":"Bayern"}},{"name":"Äußere Erdinger Str.","postalCode":"84405","locality":"Dorfen","municipality":{"key":"09177115","name":"Dorfen, St","type":"Stadt"},"district":{"key":"09177","name":"Erding","type":"Landkreis"},"federalState":{"key":"09","name":"Bayern"}},{"name":"Ökonomierat-Bachmayer-Str.","postalCode":"84405","locality":"Dorfen","municipality":{"key":"09177115","name":"Dorfen, St","type":"Stadt"},"district":{"key":"09177","name":"Erding","type":"Landkreis"},"federalState":{"key":"09","name":"Bayern"}},]