[{"name":"Altdorfstr.","postalCode":"63571","locality":"Gelnhausen","municipality":{"key":"06435010","name":"Gelnhausen, Barbarossastadt, Kreisstadt","type":"Stadt"},"district":{"key":"06435","name":"Main-Kinzig-Kreis","type":"Landkreis"},"federalState":{"key":"06","name":"Hessen"}},{"name":"Alte Gasse","postalCode":"63571","locality":"Gelnhausen","municipality":{"key":"06435010","name":"Gelnhausen, Barbarossastadt, Kreisstadt","type":"Stadt"},"district":{"key":"06435","name":"Main-Kinzig-Kreis","type":"Landkreis"},"federalState":{"key":"06","name":"Hessen"}},{"name":"Alte Königsberger Str.","postalCode":"63571","locality":"Gelnhausen","municipality":{"key":"06435010","name":"Gelnhausen, Barbarossastadt, Kreisstadt","type":"Stadt"},"district":{"key":"06435","name":"Main-Kinzig-Kreis","type":"Landkreis"},"federalState":{"key":"06","name":"Hessen"}},{"name":"Alte Leipziger Str.","postalCode":"63571","locality":"Gelnhausen","municipality":{"key":"06435010","name":"Gelnhausen, Barbarossastadt, Kreisstadt","type":"Stadt"},"district":{"key":"06435","name":"Main-Kinzig-Kreis","type":"Landkreis"},"federalState":{"key":"06","name":"Hessen"}},{"name":"Altenhaßlauer Str.","postalCode":"63571","locality":"Gelnhausen","municipality":{"key":"06435010","name":"Gelnhausen, Barbarossastadt, Kreisstadt","type":"Stadt"},"district":{"key":"06435","name":"Main-Kinzig-Kreis","type":"Landkreis"},"federalState":{"key":"06","name":"Hessen"}},{"name":"Altenhaßlauer Weg","postalCode":"63571","locality":"Gelnhausen","municipality":{"key":"06435010","name":"Gelnhausen, Barbarossastadt, Kreisstadt","type":"Stadt"},"district":{"key":"06435","name":"Main-Kinzig-Kreis","type":"Landkreis"},"federalState":{"key":"06","name":"Hessen"}},{"name":"Alter Fuhrweg","postalCode":"63571","locality":"Gelnhausen","municipality":{"key":"06435010","name":"Gelnhausen, Barbarossastadt, Kreisstadt","type":"Stadt"},"district":{"key":"06435","name":"Main-Kinzig-Kreis","type":"Landkreis"},"federalState":{"key":"06","name":"Hessen"}},{"name":"Alter Graben","postalCode":"63571","locality":"Gelnhausen","municipality":{"key":"06435010","name":"Gelnhausen, Barbarossastadt, Kreisstadt","type":"Stadt"},"district":{"key":"06435","name":"Main-Kinzig-Kreis","type":"Landkreis"},"federalState":{"key":"06","name":"Hessen"}},{"name":"Alter Kleinbahnweg","postalCode":"63571","locality":"Gelnhausen","municipality":{"key":"06435010","name":"Gelnhausen, Barbarossastadt, Kreisstadt","type":"Stadt"},"district":{"key":"06435","name":"Main-Kinzig-Kreis","type":"Landkreis"},"federalState":{"key":"06","name":"Hessen"}},{"name":"Alte Schmidtgasse","postalCode":"63571","locality":"Gelnhausen","municipality":{"key":"06435010","name":"Gelnhausen, Barbarossastadt, Kreisstadt","type":"Stadt"},"district":{"key":"06435","name":"Main-Kinzig-Kreis","type":"Landkreis"},"federalState":{"key":"06","name":"Hessen"}},{"name":"Am alten Weiher","postalCode":"63571","locality":"Gelnhausen","municipality":{"key":"06435010","name":"Gelnhausen, Barbarossastadt, Kreisstadt","type":"Stadt"},"district":{"key":"06435","name":"Main-Kinzig-Kreis","type":"Landkreis"},"federalState":{"key":"06","name":"Hessen"}},{"name":"Am Bahnhof","postalCode":"63571","locality":"Gelnhausen","municipality":{"key":"06435010","name":"Gelnhausen, Barbarossastadt, Kreisstadt","type":"Stadt"},"district":{"key":"06435","name":"Main-Kinzig-Kreis","type":"Landkreis"},"federalState":{"key":"06","name":"Hessen"}},{"name":"Am Berg","postalCode":"63571","locality":"Gelnhausen","municipality":{"key":"06435010","name":"Gelnhausen, Barbarossastadt, Kreisstadt","type":"Stadt"},"district":{"key":"06435","name":"Main-Kinzig-Kreis","type":"Landkreis"},"federalState":{"key":"06","name":"Hessen"}},{"name":"Am Bildstock","postalCode":"63571","locality":"Gelnhausen","municipality":{"key":"06435010","name":"Gelnhausen, Barbarossastadt, Kreisstadt","type":"Stadt"},"district":{"key":"06435","name":"Main-Kinzig-Kreis","type":"Landkreis"},"federalState":{"key":"06","name":"Hessen"}},{"name":"Am Bocksborn","postalCode":"63571","locality":"Gelnhausen","municipality":{"key":"06435010","name":"Gelnhausen, Barbarossastadt, Kreisstadt","type":"Stadt"},"district":{"key":"06435","name":"Main-Kinzig-Kreis","type":"Landkreis"},"federalState":{"key":"06","name":"Hessen"}},{"name":"Am Bruchweg","postalCode":"63571","locality":"Gelnhausen","municipality":{"key":"06435010","name":"Gelnhausen, Barbarossastadt, Kreisstadt","type":"Stadt"},"district":{"key":"06435","name":"Main-Kinzig-Kreis","type":"Landkreis"},"federalState":{"key":"06","name":"Hessen"}},{"name":"Am Dornacker","postalCode":"63571","locality":"Gelnhausen","municipality":{"key":"06435010","name":"Gelnhausen, Barbarossastadt, Kreisstadt","type":"Stadt"},"district":{"key":"06435","name":"Main-Kinzig-Kreis","type":"Landkreis"},"federalState":{"key":"06","name":"Hessen"}},{"name":"Am Erlenbruch","postalCode":"63571","locality":"Gelnhausen","municipality":{"key":"06435010","name":"Gelnhausen, Barbarossastadt, Kreisstadt","type":"Stadt"},"district":{"key":"06435","name":"Main-Kinzig-Kreis","type":"Landkreis"},"federalState":{"key":"06","name":"Hessen"}},{"name":"Am Escher","postalCode":"63571","locality":"Gelnhausen","municipality":{"key":"06435010","name":"Gelnhausen, Barbarossastadt, Kreisstadt","type":"Stadt"},"district":{"key":"06435","name":"Main-Kinzig-Kreis","type":"Landkreis"},"federalState":{"key":"06","name":"Hessen"}},{"name":"Am Faßholzwerk","postalCode":"63571","locality":"Gelnhausen","municipality":{"key":"06435010","name":"Gelnhausen, Barbarossastadt, Kreisstadt","type":"Stadt"},"district":{"key":"06435","name":"Main-Kinzig-Kreis","type":"Landkreis"},"federalState":{"key":"06","name":"Hessen"}},{"name":"Am Felsenkeller","postalCode":"63571","locality":"Gelnhausen","municipality":{"key":"06435010","name":"Gelnhausen, Barbarossastadt, Kreisstadt","type":"Stadt"},"district":{"key":"06435","name":"Main-Kinzig-Kreis","type":"Landkreis"},"federalState":{"key":"06","name":"Hessen"}},{"name":"Am Fratzenstein","postalCode":"63571","locality":"Gelnhausen","municipality":{"key":"06435010","name":"Gelnhausen, Barbarossastadt, Kreisstadt","type":"Stadt"},"district":{"key":"06435","name":"Main-Kinzig-Kreis","type":"Landkreis"},"federalState":{"key":"06","name":"Hessen"}},{"name":"Am Friedhof","postalCode":"63571","locality":"Gelnhausen","municipality":{"key":"06435010","name":"Gelnhausen, Barbarossastadt, Kreisstadt","type":"Stadt"},"district":{"key":"06435","name":"Main-Kinzig-Kreis","type":"Landkreis"},"federalState":{"key":"06","name":"Hessen"}},{"name":"Am Geiersberg","postalCode":"63571","locality":"Gelnhausen","municipality":{"key":"06435010","name":"Gelnhausen, Barbarossastadt, Kreisstadt","type":"Stadt"},"district":{"key":"06435","name":"Main-Kinzig-Kreis","type":"Landkreis"},"federalState":{"key":"06","name":"Hessen"}},{"name":"Am Grauen Berg","postalCode":"63571","locality":"Gelnhausen","municipality":{"key":"06435010","name":"Gelnhausen, Barbarossastadt, Kreisstadt","type":"Stadt"},"district":{"key":"06435","name":"Main-Kinzig-Kreis","type":"Landkreis"},"federalState":{"key":"06","name":"Hessen"}},{"name":"Am Haidenkopf","postalCode":"63571","locality":"Gelnhausen","municipality":{"key":"06435010","name":"Gelnhausen, Barbarossastadt, Kreisstadt","type":"Stadt"},"district":{"key":"06435","name":"Main-Kinzig-Kreis","type":"Landkreis"},"federalState":{"key":"06","name":"Hessen"}},{"name":"Am Hallenbad","postalCode":"63571","locality":"Gelnhausen","municipality":{"key":"06435010","name":"Gelnhausen, Barbarossastadt, Kreisstadt","type":"Stadt"},"district":{"key":"06435","name":"Main-Kinzig-Kreis","type":"Landkreis"},"federalState":{"key":"06","name":"Hessen"}},{"name":"Am Hang","postalCode":"63571","locality":"Gelnhausen","municipality":{"key":"06435010","name":"Gelnhausen, Barbarossastadt, Kreisstadt","type":"Stadt"},"district":{"key":"06435","name":"Main-Kinzig-Kreis","type":"Landkreis"},"federalState":{"key":"06","name":"Hessen"}},{"name":"Am Hangeshaus","postalCode":"63571","locality":"Gelnhausen","municipality":{"key":"06435010","name":"Gelnhausen, Barbarossastadt, Kreisstadt","type":"Stadt"},"district":{"key":"06435","name":"Main-Kinzig-Kreis","type":"Landkreis"},"federalState":{"key":"06","name":"Hessen"}},{"name":"Am Heiligenkopf","postalCode":"63571","locality":"Gelnhausen","municipality":{"key":"06435010","name":"Gelnhausen, Barbarossastadt, Kreisstadt","type":"Stadt"},"district":{"key":"06435","name":"Main-Kinzig-Kreis","type":"Landkreis"},"federalState":{"key":"06","name":"Hessen"}},{"name":"Am Heiligen Krappen","postalCode":"63571","locality":"Gelnhausen","municipality":{"key":"06435010","name":"Gelnhausen, Barbarossastadt, Kreisstadt","type":"Stadt"},"district":{"key":"06435","name":"Main-Kinzig-Kreis","type":"Landkreis"},"federalState":{"key":"06","name":"Hessen"}},{"name":"Am Heiligenstock","postalCode":"63571","locality":"Gelnhausen","municipality":{"key":"06435010","name":"Gelnhausen, Barbarossastadt, Kreisstadt","type":"Stadt"},"district":{"key":"06435","name":"Main-Kinzig-Kreis","type":"Landkreis"},"federalState":{"key":"06","name":"Hessen"}},{"name":"Am Herzborn","postalCode":"63571","locality":"Gelnhausen","municipality":{"key":"06435010","name":"Gelnhausen, Barbarossastadt, Kreisstadt","type":"Stadt"},"district":{"key":"06435","name":"Main-Kinzig-Kreis","type":"Landkreis"},"federalState":{"key":"06","name":"Hessen"}},{"name":"Am Hofriethsgarten","postalCode":"63571","locality":"Gelnhausen","municipality":{"key":"06435010","name":"Gelnhausen, Barbarossastadt, Kreisstadt","type":"Stadt"},"district":{"key":"06435","name":"Main-Kinzig-Kreis","type":"Landkreis"},"federalState":{"key":"06","name":"Hessen"}},{"name":"Am Holzborn","postalCode":"63571","locality":"Gelnhausen","municipality":{"key":"06435010","name":"Gelnhausen, Barbarossastadt, Kreisstadt","type":"Stadt"},"district":{"key":"06435","name":"Main-Kinzig-Kreis","type":"Landkreis"},"federalState":{"key":"06","name":"Hessen"}},{"name":"Am Kandelrain","postalCode":"63571","locality":"Gelnhausen","municipality":{"key":"06435010","name":"Gelnhausen, Barbarossastadt, Kreisstadt","type":"Stadt"},"district":{"key":"06435","name":"Main-Kinzig-Kreis","type":"Landkreis"},"federalState":{"key":"06","name":"Hessen"}},{"name":"Am Küppel","postalCode":"63571","locality":"Gelnhausen","municipality":{"key":"06435010","name":"Gelnhausen, Barbarossastadt, Kreisstadt","type":"Stadt"},"district":{"key":"06435","name":"Main-Kinzig-Kreis","type":"Landkreis"},"federalState":{"key":"06","name":"Hessen"}},{"name":"Am Langen Steg","postalCode":"63571","locality":"Gelnhausen","municipality":{"key":"06435010","name":"Gelnhausen, Barbarossastadt, Kreisstadt","type":"Stadt"},"district":{"key":"06435","name":"Main-Kinzig-Kreis","type":"Landkreis"},"federalState":{"key":"06","name":"Hessen"}},{"name":"Am Leeren Rain","postalCode":"63571","locality":"Gelnhausen","municipality":{"key":"06435010","name":"Gelnhausen, Barbarossastadt, Kreisstadt","type":"Stadt"},"district":{"key":"06435","name":"Main-Kinzig-Kreis","type":"Landkreis"},"federalState":{"key":"06","name":"Hessen"}},{"name":"Am Lindenbrunnen","postalCode":"63571","locality":"Gelnhausen","municipality":{"key":"06435010","name":"Gelnhausen, Barbarossastadt, Kreisstadt","type":"Stadt"},"district":{"key":"06435","name":"Main-Kinzig-Kreis","type":"Landkreis"},"federalState":{"key":"06","name":"Hessen"}},{"name":"Am Mühlzaun","postalCode":"63571","locality":"Gelnhausen","municipality":{"key":"06435010","name":"Gelnhausen, Barbarossastadt, Kreisstadt","type":"Stadt"},"district":{"key":"06435","name":"Main-Kinzig-Kreis","type":"Landkreis"},"federalState":{"key":"06","name":"Hessen"}},{"name":"Am Pfarrgarten","postalCode":"63571","locality":"Gelnhausen","municipality":{"key":"06435010","name":"Gelnhausen, Barbarossastadt, Kreisstadt","type":"Stadt"},"district":{"key":"06435","name":"Main-Kinzig-Kreis","type":"Landkreis"},"federalState":{"key":"06","name":"Hessen"}},{"name":"Am Platz","postalCode":"63571","locality":"Gelnhausen","municipality":{"key":"06435010","name":"Gelnhausen, Barbarossastadt, Kreisstadt","type":"Stadt"},"district":{"key":"06435","name":"Main-Kinzig-Kreis","type":"Landkreis"},"federalState":{"key":"06","name":"Hessen"}},{"name":"Am Rain","postalCode":"63571","locality":"Gelnhausen","municipality":{"key":"06435010","name":"Gelnhausen, Barbarossastadt, Kreisstadt","type":"Stadt"},"district":{"key":"06435","name":"Main-Kinzig-Kreis","type":"Landkreis"},"federalState":{"key":"06","name":"Hessen"}},{"name":"Am Rausch","postalCode":"63571","locality":"Gelnhausen","municipality":{"key":"06435010","name":"Gelnhausen, Barbarossastadt, Kreisstadt","type":"Stadt"},"district":{"key":"06435","name":"Main-Kinzig-Kreis","type":"Landkreis"},"federalState":{"key":"06","name":"Hessen"}},{"name":"Am Rehberg","postalCode":"63571","locality":"Gelnhausen","municipality":{"key":"06435010","name":"Gelnhausen, Barbarossastadt, Kreisstadt","type":"Stadt"},"district":{"key":"06435","name":"Main-Kinzig-Kreis","type":"Landkreis"},"federalState":{"key":"06","name":"Hessen"}},{"name":"Am Ringwolf","postalCode":"63571","locality":"Gelnhausen","municipality":{"key":"06435010","name":"Gelnhausen, Barbarossastadt, Kreisstadt","type":"Stadt"},"district":{"key":"06435","name":"Main-Kinzig-Kreis","type":"Landkreis"},"federalState":{"key":"06","name":"Hessen"}},{"name":"Am Röther Häuschen","postalCode":"63571","locality":"Gelnhausen","municipality":{"key":"06435010","name":"Gelnhausen, Barbarossastadt, Kreisstadt","type":"Stadt"},"district":{"key":"06435","name":"Main-Kinzig-Kreis","type":"Landkreis"},"federalState":{"key":"06","name":"Hessen"}},{"name":"Am Rottgarten","postalCode":"63571","locality":"Gelnhausen","municipality":{"key":"06435010","name":"Gelnhausen, Barbarossastadt, Kreisstadt","type":"Stadt"},"district":{"key":"06435","name":"Main-Kinzig-Kreis","type":"Landkreis"},"federalState":{"key":"06","name":"Hessen"}},{"name":"Am Rückersberg","postalCode":"63571","locality":"Gelnhausen","municipality":{"key":"06435010","name":"Gelnhausen, Barbarossastadt, Kreisstadt","type":"Stadt"},"district":{"key":"06435","name":"Main-Kinzig-Kreis","type":"Landkreis"},"federalState":{"key":"06","name":"Hessen"}},{"name":"Bachstr.","postalCode":"63571","locality":"Gelnhausen","municipality":{"key":"06435010","name":"Gelnhausen, Barbarossastadt, Kreisstadt","type":"Stadt"},"district":{"key":"06435","name":"Main-Kinzig-Kreis","type":"Landkreis"},"federalState":{"key":"06","name":"Hessen"}},{"name":"Bahnhofstr.","postalCode":"63571","locality":"Gelnhausen","municipality":{"key":"06435010","name":"Gelnhausen, Barbarossastadt, Kreisstadt","type":"Stadt"},"district":{"key":"06435","name":"Main-Kinzig-Kreis","type":"Landkreis"},"federalState":{"key":"06","name":"Hessen"}},{"name":"Bahnstr.","postalCode":"63571","locality":"Gelnhausen","municipality":{"key":"06435010","name":"Gelnhausen, Barbarossastadt, Kreisstadt","type":"Stadt"},"district":{"key":"06435","name":"Main-Kinzig-Kreis","type":"Landkreis"},"federalState":{"key":"06","name":"Hessen"}},{"name":"Barbarossastr.","postalCode":"63571","locality":"Gelnhausen","municipality":{"key":"06435010","name":"Gelnhausen, Barbarossastadt, Kreisstadt","type":"Stadt"},"district":{"key":"06435","name":"Main-Kinzig-Kreis","type":"Landkreis"},"federalState":{"key":"06","name":"Hessen"}},{"name":"Beethovenstr.","postalCode":"63571","locality":"Gelnhausen","municipality":{"key":"06435010","name":"Gelnhausen, Barbarossastadt, Kreisstadt","type":"Stadt"},"district":{"key":"06435","name":"Main-Kinzig-Kreis","type":"Landkreis"},"federalState":{"key":"06","name":"Hessen"}},{"name":"Bergstr.","postalCode":"63571","locality":"Gelnhausen","municipality":{"key":"06435010","name":"Gelnhausen, Barbarossastadt, Kreisstadt","type":"Stadt"},"district":{"key":"06435","name":"Main-Kinzig-Kreis","type":"Landkreis"},"federalState":{"key":"06","name":"Hessen"}},{"name":"Berliner Str.","postalCode":"63571","locality":"Gelnhausen","municipality":{"key":"06435010","name":"Gelnhausen, Barbarossastadt, Kreisstadt","type":"Stadt"},"district":{"key":"06435","name":"Main-Kinzig-Kreis","type":"Landkreis"},"federalState":{"key":"06","name":"Hessen"}},{"name":"Bienenweg","postalCode":"63571","locality":"Gelnhausen","municipality":{"key":"06435010","name":"Gelnhausen, Barbarossastadt, Kreisstadt","type":"Stadt"},"district":{"key":"06435","name":"Main-Kinzig-Kreis","type":"Landkreis"},"federalState":{"key":"06","name":"Hessen"}},{"name":"Birkenweg","postalCode":"63571","locality":"Gelnhausen","municipality":{"key":"06435010","name":"Gelnhausen, Barbarossastadt, Kreisstadt","type":"Stadt"},"district":{"key":"06435","name":"Main-Kinzig-Kreis","type":"Landkreis"},"federalState":{"key":"06","name":"Hessen"}},{"name":"Birsteiner Str.","postalCode":"63571","locality":"Gelnhausen","municipality":{"key":"06435010","name":"Gelnhausen, Barbarossastadt, Kreisstadt","type":"Stadt"},"district":{"key":"06435","name":"Main-Kinzig-Kreis","type":"Landkreis"},"federalState":{"key":"06","name":"Hessen"}},{"name":"Bleichstr.","postalCode":"63571","locality":"Gelnhausen","municipality":{"key":"06435010","name":"Gelnhausen, Barbarossastadt, Kreisstadt","type":"Stadt"},"district":{"key":"06435","name":"Main-Kinzig-Kreis","type":"Landkreis"},"federalState":{"key":"06","name":"Hessen"}},{"name":"Blumenweg","postalCode":"63571","locality":"Gelnhausen","municipality":{"key":"06435010","name":"Gelnhausen, Barbarossastadt, Kreisstadt","type":"Stadt"},"district":{"key":"06435","name":"Main-Kinzig-Kreis","type":"Landkreis"},"federalState":{"key":"06","name":"Hessen"}},{"name":"Blümgesgrundstr.","postalCode":"63571","locality":"Gelnhausen","municipality":{"key":"06435010","name":"Gelnhausen, Barbarossastadt, Kreisstadt","type":"Stadt"},"district":{"key":"06435","name":"Main-Kinzig-Kreis","type":"Landkreis"},"federalState":{"key":"06","name":"Hessen"}},{"name":"Bodenbenderstr.","postalCode":"63571","locality":"Gelnhausen","municipality":{"key":"06435010","name":"Gelnhausen, Barbarossastadt, Kreisstadt","type":"Stadt"},"district":{"key":"06435","name":"Main-Kinzig-Kreis","type":"Landkreis"},"federalState":{"key":"06","name":"Hessen"}},{"name":"Bollenweg","postalCode":"63571","locality":"Gelnhausen","municipality":{"key":"06435010","name":"Gelnhausen, Barbarossastadt, Kreisstadt","type":"Stadt"},"district":{"key":"06435","name":"Main-Kinzig-Kreis","type":"Landkreis"},"federalState":{"key":"06","name":"Hessen"}},{"name":"Borngäßchen","postalCode":"63571","locality":"Gelnhausen","municipality":{"key":"06435010","name":"Gelnhausen, Barbarossastadt, Kreisstadt","type":"Stadt"},"district":{"key":"06435","name":"Main-Kinzig-Kreis","type":"Landkreis"},"federalState":{"key":"06","name":"Hessen"}},{"name":"Botanischer Garten","postalCode":"63571","locality":"Gelnhausen","municipality":{"key":"06435010","name":"Gelnhausen, Barbarossastadt, Kreisstadt","type":"Stadt"},"district":{"key":"06435","name":"Main-Kinzig-Kreis","type":"Landkreis"},"federalState":{"key":"06","name":"Hessen"}},{"name":"Braugasse","postalCode":"63571","locality":"Gelnhausen","municipality":{"key":"06435010","name":"Gelnhausen, Barbarossastadt, Kreisstadt","type":"Stadt"},"district":{"key":"06435","name":"Main-Kinzig-Kreis","type":"Landkreis"},"federalState":{"key":"06","name":"Hessen"}},{"name":"Brentanostr.","postalCode":"63571","locality":"Gelnhausen","municipality":{"key":"06435010","name":"Gelnhausen, Barbarossastadt, Kreisstadt","type":"Stadt"},"district":{"key":"06435","name":"Main-Kinzig-Kreis","type":"Landkreis"},"federalState":{"key":"06","name":"Hessen"}},{"name":"Breslauer Str.","postalCode":"63571","locality":"Gelnhausen","municipality":{"key":"06435010","name":"Gelnhausen, Barbarossastadt, Kreisstadt","type":"Stadt"},"district":{"key":"06435","name":"Main-Kinzig-Kreis","type":"Landkreis"},"federalState":{"key":"06","name":"Hessen"}},{"name":"Breslauer Weg","postalCode":"63571","locality":"Gelnhausen","municipality":{"key":"06435010","name":"Gelnhausen, Barbarossastadt, Kreisstadt","type":"Stadt"},"district":{"key":"06435","name":"Main-Kinzig-Kreis","type":"Landkreis"},"federalState":{"key":"06","name":"Hessen"}},{"name":"Brüder Fischinger Str.","postalCode":"63571","locality":"Gelnhausen","municipality":{"key":"06435010","name":"Gelnhausen, Barbarossastadt, Kreisstadt","type":"Stadt"},"district":{"key":"06435","name":"Main-Kinzig-Kreis","type":"Landkreis"},"federalState":{"key":"06","name":"Hessen"}},{"name":"Brüder-Grimm-Weg","postalCode":"63571","locality":"Gelnhausen","municipality":{"key":"06435010","name":"Gelnhausen, Barbarossastadt, Kreisstadt","type":"Stadt"},"district":{"key":"06435","name":"Main-Kinzig-Kreis","type":"Landkreis"},"federalState":{"key":"06","name":"Hessen"}},{"name":"Brühlstr.","postalCode":"63571","locality":"Gelnhausen","municipality":{"key":"06435010","name":"Gelnhausen, Barbarossastadt, Kreisstadt","type":"Stadt"},"district":{"key":"06435","name":"Main-Kinzig-Kreis","type":"Landkreis"},"federalState":{"key":"06","name":"Hessen"}},{"name":"Brunnenblick","postalCode":"63571","locality":"Gelnhausen","municipality":{"key":"06435010","name":"Gelnhausen, Barbarossastadt, Kreisstadt","type":"Stadt"},"district":{"key":"06435","name":"Main-Kinzig-Kreis","type":"Landkreis"},"federalState":{"key":"06","name":"Hessen"}},{"name":"Brunnenstr.","postalCode":"63571","locality":"Gelnhausen","municipality":{"key":"06435010","name":"Gelnhausen, Barbarossastadt, Kreisstadt","type":"Stadt"},"district":{"key":"06435","name":"Main-Kinzig-Kreis","type":"Landkreis"},"federalState":{"key":"06","name":"Hessen"}},{"name":"Bruno-Haldy-Str.","postalCode":"63571","locality":"Gelnhausen","municipality":{"key":"06435010","name":"Gelnhausen, Barbarossastadt, Kreisstadt","type":"Stadt"},"district":{"key":"06435","name":"Main-Kinzig-Kreis","type":"Landkreis"},"federalState":{"key":"06","name":"Hessen"}},{"name":"Buchenweg","postalCode":"63571","locality":"Gelnhausen","municipality":{"key":"06435010","name":"Gelnhausen, Barbarossastadt, Kreisstadt","type":"Stadt"},"district":{"key":"06435","name":"Main-Kinzig-Kreis","type":"Landkreis"},"federalState":{"key":"06","name":"Hessen"}},{"name":"Burgstr.","postalCode":"63571","locality":"Gelnhausen","municipality":{"key":"06435010","name":"Gelnhausen, Barbarossastadt, Kreisstadt","type":"Stadt"},"district":{"key":"06435","name":"Main-Kinzig-Kreis","type":"Landkreis"},"federalState":{"key":"06","name":"Hessen"}},{"name":"Carl-Becker-Str.","postalCode":"63571","locality":"Gelnhausen","municipality":{"key":"06435010","name":"Gelnhausen, Barbarossastadt, Kreisstadt","type":"Stadt"},"district":{"key":"06435","name":"Main-Kinzig-Kreis","type":"Landkreis"},"federalState":{"key":"06","name":"Hessen"}},{"name":"Cassebeerstr.","postalCode":"63571","locality":"Gelnhausen","municipality":{"key":"06435010","name":"Gelnhausen, Barbarossastadt, Kreisstadt","type":"Stadt"},"district":{"key":"06435","name":"Main-Kinzig-Kreis","type":"Landkreis"},"federalState":{"key":"06","name":"Hessen"}},{"name":"Clamecystr.","postalCode":"63571","locality":"Gelnhausen","municipality":{"key":"06435010","name":"Gelnhausen, Barbarossastadt, Kreisstadt","type":"Stadt"},"district":{"key":"06435","name":"Main-Kinzig-Kreis","type":"Landkreis"},"federalState":{"key":"06","name":"Hessen"}},{"name":"Conradusweg","postalCode":"63571","locality":"Gelnhausen","municipality":{"key":"06435010","name":"Gelnhausen, Barbarossastadt, Kreisstadt","type":"Stadt"},"district":{"key":"06435","name":"Main-Kinzig-Kreis","type":"Landkreis"},"federalState":{"key":"06","name":"Hessen"}},{"name":"Dammstr.","postalCode":"63571","locality":"Gelnhausen","municipality":{"key":"06435010","name":"Gelnhausen, Barbarossastadt, Kreisstadt","type":"Stadt"},"district":{"key":"06435","name":"Main-Kinzig-Kreis","type":"Landkreis"},"federalState":{"key":"06","name":"Hessen"}},{"name":"Deutschordenstr.","postalCode":"63571","locality":"Gelnhausen","municipality":{"key":"06435010","name":"Gelnhausen, Barbarossastadt, Kreisstadt","type":"Stadt"},"district":{"key":"06435","name":"Main-Kinzig-Kreis","type":"Landkreis"},"federalState":{"key":"06","name":"Hessen"}},{"name":"Donaustr.","postalCode":"63571","locality":"Gelnhausen","municipality":{"key":"06435010","name":"Gelnhausen, Barbarossastadt, Kreisstadt","type":"Stadt"},"district":{"key":"06435","name":"Main-Kinzig-Kreis","type":"Landkreis"},"federalState":{"key":"06","name":"Hessen"}},{"name":"Dorfstr.","postalCode":"63571","locality":"Gelnhausen","municipality":{"key":"06435010","name":"Gelnhausen, Barbarossastadt, Kreisstadt","type":"Stadt"},"district":{"key":"06435","name":"Main-Kinzig-Kreis","type":"Landkreis"},"federalState":{"key":"06","name":"Hessen"}},{"name":"Dr.-Faust-Str.","postalCode":"63571","locality":"Gelnhausen","municipality":{"key":"06435010","name":"Gelnhausen, Barbarossastadt, Kreisstadt","type":"Stadt"},"district":{"key":"06435","name":"Main-Kinzig-Kreis","type":"Landkreis"},"federalState":{"key":"06","name":"Hessen"}},{"name":"Dr.-Heinrich-Mohn-Str.","postalCode":"63571","locality":"Gelnhausen","municipality":{"key":"06435010","name":"Gelnhausen, Barbarossastadt, Kreisstadt","type":"Stadt"},"district":{"key":"06435","name":"Main-Kinzig-Kreis","type":"Landkreis"},"federalState":{"key":"06","name":"Hessen"}},{"name":"Drosselweg","postalCode":"63571","locality":"Gelnhausen","municipality":{"key":"06435010","name":"Gelnhausen, Barbarossastadt, Kreisstadt","type":"Stadt"},"district":{"key":"06435","name":"Main-Kinzig-Kreis","type":"Landkreis"},"federalState":{"key":"06","name":"Hessen"}},{"name":"Dr.-Sondheimer-Str.","postalCode":"63571","locality":"Gelnhausen","municipality":{"key":"06435010","name":"Gelnhausen, Barbarossastadt, Kreisstadt","type":"Stadt"},"district":{"key":"06435","name":"Main-Kinzig-Kreis","type":"Landkreis"},"federalState":{"key":"06","name":"Hessen"}},{"name":"Dr.-Wilke-Str.","postalCode":"63571","locality":"Gelnhausen","municipality":{"key":"06435010","name":"Gelnhausen, Barbarossastadt, Kreisstadt","type":"Stadt"},"district":{"key":"06435","name":"Main-Kinzig-Kreis","type":"Landkreis"},"federalState":{"key":"06","name":"Hessen"}},{"name":"Dürichweg","postalCode":"63571","locality":"Gelnhausen","municipality":{"key":"06435010","name":"Gelnhausen, Barbarossastadt, Kreisstadt","type":"Stadt"},"district":{"key":"06435","name":"Main-Kinzig-Kreis","type":"Landkreis"},"federalState":{"key":"06","name":"Hessen"}},{"name":"Eifelweg","postalCode":"63571","locality":"Gelnhausen","municipality":{"key":"06435010","name":"Gelnhausen, Barbarossastadt, Kreisstadt","type":"Stadt"},"district":{"key":"06435","name":"Main-Kinzig-Kreis","type":"Landkreis"},"federalState":{"key":"06","name":"Hessen"}},{"name":"Eisenbahnstr.","postalCode":"63571","locality":"Gelnhausen","municipality":{"key":"06435010","name":"Gelnhausen, Barbarossastadt, Kreisstadt","type":"Stadt"},"district":{"key":"06435","name":"Main-Kinzig-Kreis","type":"Landkreis"},"federalState":{"key":"06","name":"Hessen"}},{"name":"Erbsegasse","postalCode":"63571","locality":"Gelnhausen","municipality":{"key":"06435010","name":"Gelnhausen, Barbarossastadt, Kreisstadt","type":"Stadt"},"district":{"key":"06435","name":"Main-Kinzig-Kreis","type":"Landkreis"},"federalState":{"key":"06","name":"Hessen"}},{"name":"Eselpfad","postalCode":"63571","locality":"Gelnhausen","municipality":{"key":"06435010","name":"Gelnhausen, Barbarossastadt, Kreisstadt","type":"Stadt"},"district":{"key":"06435","name":"Main-Kinzig-Kreis","type":"Landkreis"},"federalState":{"key":"06","name":"Hessen"}},{"name":"Europastr.","postalCode":"63571","locality":"Gelnhausen","municipality":{"key":"06435010","name":"Gelnhausen, Barbarossastadt, Kreisstadt","type":"Stadt"},"district":{"key":"06435","name":"Main-Kinzig-Kreis","type":"Landkreis"},"federalState":{"key":"06","name":"Hessen"}},{"name":"Falkengasse","postalCode":"63571","locality":"Gelnhausen","municipality":{"key":"06435010","name":"Gelnhausen, Barbarossastadt, Kreisstadt","type":"Stadt"},"district":{"key":"06435","name":"Main-Kinzig-Kreis","type":"Landkreis"},"federalState":{"key":"06","name":"Hessen"}},{"name":"Feldstr.","postalCode":"63571","locality":"Gelnhausen","municipality":{"key":"06435010","name":"Gelnhausen, Barbarossastadt, Kreisstadt","type":"Stadt"},"district":{"key":"06435","name":"Main-Kinzig-Kreis","type":"Landkreis"},"federalState":{"key":"06","name":"Hessen"}},{"name":"Finkenweg","postalCode":"63571","locality":"Gelnhausen","municipality":{"key":"06435010","name":"Gelnhausen, Barbarossastadt, Kreisstadt","type":"Stadt"},"district":{"key":"06435","name":"Main-Kinzig-Kreis","type":"Landkreis"},"federalState":{"key":"06","name":"Hessen"}},{"name":"Fischerweg","postalCode":"63571","locality":"Gelnhausen","municipality":{"key":"06435010","name":"Gelnhausen, Barbarossastadt, Kreisstadt","type":"Stadt"},"district":{"key":"06435","name":"Main-Kinzig-Kreis","type":"Landkreis"},"federalState":{"key":"06","name":"Hessen"}},{"name":"Forsthausstr.","postalCode":"63571","locality":"Gelnhausen","municipality":{"key":"06435010","name":"Gelnhausen, Barbarossastadt, Kreisstadt","type":"Stadt"},"district":{"key":"06435","name":"Main-Kinzig-Kreis","type":"Landkreis"},"federalState":{"key":"06","name":"Hessen"}},{"name":"Frankfurter Str.","postalCode":"63571","locality":"Gelnhausen","municipality":{"key":"06435010","name":"Gelnhausen, Barbarossastadt, Kreisstadt","type":"Stadt"},"district":{"key":"06435","name":"Main-Kinzig-Kreis","type":"Landkreis"},"federalState":{"key":"06","name":"Hessen"}},{"name":"Franklinstr.","postalCode":"63571","locality":"Gelnhausen","municipality":{"key":"06435010","name":"Gelnhausen, Barbarossastadt, Kreisstadt","type":"Stadt"},"district":{"key":"06435","name":"Main-Kinzig-Kreis","type":"Landkreis"},"federalState":{"key":"06","name":"Hessen"}},{"name":"Franziskanerweg","postalCode":"63571","locality":"Gelnhausen","municipality":{"key":"06435010","name":"Gelnhausen, Barbarossastadt, Kreisstadt","type":"Stadt"},"district":{"key":"06435","name":"Main-Kinzig-Kreis","type":"Landkreis"},"federalState":{"key":"06","name":"Hessen"}},{"name":"Franz-Schubert-Weg","postalCode":"63571","locality":"Gelnhausen","municipality":{"key":"06435010","name":"Gelnhausen, Barbarossastadt, Kreisstadt","type":"Stadt"},"district":{"key":"06435","name":"Main-Kinzig-Kreis","type":"Landkreis"},"federalState":{"key":"06","name":"Hessen"}},{"name":"Freigerichter Str.","postalCode":"63571","locality":"Gelnhausen","municipality":{"key":"06435010","name":"Gelnhausen, Barbarossastadt, Kreisstadt","type":"Stadt"},"district":{"key":"06435","name":"Main-Kinzig-Kreis","type":"Landkreis"},"federalState":{"key":"06","name":"Hessen"}},{"name":"Friedhofsweg","postalCode":"63571","locality":"Gelnhausen","municipality":{"key":"06435010","name":"Gelnhausen, Barbarossastadt, Kreisstadt","type":"Stadt"},"district":{"key":"06435","name":"Main-Kinzig-Kreis","type":"Landkreis"},"federalState":{"key":"06","name":"Hessen"}},{"name":"Friedrich-Poppe-sen.-Str.","postalCode":"63571","locality":"Gelnhausen","municipality":{"key":"06435010","name":"Gelnhausen, Barbarossastadt, Kreisstadt","type":"Stadt"},"district":{"key":"06435","name":"Main-Kinzig-Kreis","type":"Landkreis"},"federalState":{"key":"06","name":"Hessen"}},{"name":"Fuldaweg","postalCode":"63571","locality":"Gelnhausen","municipality":{"key":"06435010","name":"Gelnhausen, Barbarossastadt, Kreisstadt","type":"Stadt"},"district":{"key":"06435","name":"Main-Kinzig-Kreis","type":"Landkreis"},"federalState":{"key":"06","name":"Hessen"}},{"name":"Fünfkirchner Str.","postalCode":"63571","locality":"Gelnhausen","municipality":{"key":"06435010","name":"Gelnhausen, Barbarossastadt, Kreisstadt","type":"Stadt"},"district":{"key":"06435","name":"Main-Kinzig-Kreis","type":"Landkreis"},"federalState":{"key":"06","name":"Hessen"}},{"name":"Fürstenhofstr.","postalCode":"63571","locality":"Gelnhausen","municipality":{"key":"06435010","name":"Gelnhausen, Barbarossastadt, Kreisstadt","type":"Stadt"},"district":{"key":"06435","name":"Main-Kinzig-Kreis","type":"Landkreis"},"federalState":{"key":"06","name":"Hessen"}},{"name":"Gartenstr.","postalCode":"63571","locality":"Gelnhausen","municipality":{"key":"06435010","name":"Gelnhausen, Barbarossastadt, Kreisstadt","type":"Stadt"},"district":{"key":"06435","name":"Main-Kinzig-Kreis","type":"Landkreis"},"federalState":{"key":"06","name":"Hessen"}},{"name":"Gelnhäuser Str.","postalCode":"63571","locality":"Gelnhausen","municipality":{"key":"06435010","name":"Gelnhausen, Barbarossastadt, Kreisstadt","type":"Stadt"},"district":{"key":"06435","name":"Main-Kinzig-Kreis","type":"Landkreis"},"federalState":{"key":"06","name":"Hessen"}},{"name":"General-Colin-Powell-Str.","postalCode":"63571","locality":"Gelnhausen","municipality":{"key":"06435010","name":"Gelnhausen, Barbarossastadt, Kreisstadt","type":"Stadt"},"district":{"key":"06435","name":"Main-Kinzig-Kreis","type":"Landkreis"},"federalState":{"key":"06","name":"Hessen"}},{"name":"Glenn-Miller-Weg","postalCode":"63571","locality":"Gelnhausen","municipality":{"key":"06435010","name":"Gelnhausen, Barbarossastadt, Kreisstadt","type":"Stadt"},"district":{"key":"06435","name":"Main-Kinzig-Kreis","type":"Landkreis"},"federalState":{"key":"06","name":"Hessen"}},{"name":"Godobertusweg","postalCode":"63571","locality":"Gelnhausen","municipality":{"key":"06435010","name":"Gelnhausen, Barbarossastadt, Kreisstadt","type":"Stadt"},"district":{"key":"06435","name":"Main-Kinzig-Kreis","type":"Landkreis"},"federalState":{"key":"06","name":"Hessen"}},{"name":"Goethestr.","postalCode":"63571","locality":"Gelnhausen","municipality":{"key":"06435010","name":"Gelnhausen, Barbarossastadt, Kreisstadt","type":"Stadt"},"district":{"key":"06435","name":"Main-Kinzig-Kreis","type":"Landkreis"},"federalState":{"key":"06","name":"Hessen"}},{"name":"Goldhohlstr.","postalCode":"63571","locality":"Gelnhausen","municipality":{"key":"06435010","name":"Gelnhausen, Barbarossastadt, Kreisstadt","type":"Stadt"},"district":{"key":"06435","name":"Main-Kinzig-Kreis","type":"Landkreis"},"federalState":{"key":"06","name":"Hessen"}},{"name":"Graf-Gustav-Weg","postalCode":"63571","locality":"Gelnhausen","municipality":{"key":"06435010","name":"Gelnhausen, Barbarossastadt, Kreisstadt","type":"Stadt"},"district":{"key":"06435","name":"Main-Kinzig-Kreis","type":"Landkreis"},"federalState":{"key":"06","name":"Hessen"}},{"name":"Gräfin-Thekla-Weg","postalCode":"63571","locality":"Gelnhausen","municipality":{"key":"06435010","name":"Gelnhausen, Barbarossastadt, Kreisstadt","type":"Stadt"},"district":{"key":"06435","name":"Main-Kinzig-Kreis","type":"Landkreis"},"federalState":{"key":"06","name":"Hessen"}},{"name":"Graslitzer Str.","postalCode":"63571","locality":"Gelnhausen","municipality":{"key":"06435010","name":"Gelnhausen, Barbarossastadt, Kreisstadt","type":"Stadt"},"district":{"key":"06435","name":"Main-Kinzig-Kreis","type":"Landkreis"},"federalState":{"key":"06","name":"Hessen"}},{"name":"Grenzweg","postalCode":"63571","locality":"Gelnhausen","municipality":{"key":"06435010","name":"Gelnhausen, Barbarossastadt, Kreisstadt","type":"Stadt"},"district":{"key":"06435","name":"Main-Kinzig-Kreis","type":"Landkreis"},"federalState":{"key":"06","name":"Hessen"}},{"name":"Grimmelshausenstr.","postalCode":"63571","locality":"Gelnhausen","municipality":{"key":"06435010","name":"Gelnhausen, Barbarossastadt, Kreisstadt","type":"Stadt"},"district":{"key":"06435","name":"Main-Kinzig-Kreis","type":"Landkreis"},"federalState":{"key":"06","name":"Hessen"}},{"name":"Grüner Weg","postalCode":"63571","locality":"Gelnhausen","municipality":{"key":"06435010","name":"Gelnhausen, Barbarossastadt, Kreisstadt","type":"Stadt"},"district":{"key":"06435","name":"Main-Kinzig-Kreis","type":"Landkreis"},"federalState":{"key":"06","name":"Hessen"}},{"name":"Gustavstr.","postalCode":"63571","locality":"Gelnhausen","municipality":{"key":"06435010","name":"Gelnhausen, Barbarossastadt, Kreisstadt","type":"Stadt"},"district":{"key":"06435","name":"Main-Kinzig-Kreis","type":"Landkreis"},"federalState":{"key":"06","name":"Hessen"}},{"name":"Gutenbergstr.","postalCode":"63571","locality":"Gelnhausen","municipality":{"key":"06435010","name":"Gelnhausen, Barbarossastadt, Kreisstadt","type":"Stadt"},"district":{"key":"06435","name":"Main-Kinzig-Kreis","type":"Landkreis"},"federalState":{"key":"06","name":"Hessen"}},{"name":"Habernickelweg","postalCode":"63571","locality":"Gelnhausen","municipality":{"key":"06435010","name":"Gelnhausen, Barbarossastadt, Kreisstadt","type":"Stadt"},"district":{"key":"06435","name":"Main-Kinzig-Kreis","type":"Landkreis"},"federalState":{"key":"06","name":"Hessen"}},{"name":"Habernickel Weg","postalCode":"63571","locality":"Gelnhausen","municipality":{"key":"06435010","name":"Gelnhausen, Barbarossastadt, Kreisstadt","type":"Stadt"},"district":{"key":"06435","name":"Main-Kinzig-Kreis","type":"Landkreis"},"federalState":{"key":"06","name":"Hessen"}},{"name":"Hailerer Str.","postalCode":"63571","locality":"Gelnhausen","municipality":{"key":"06435010","name":"Gelnhausen, Barbarossastadt, Kreisstadt","type":"Stadt"},"district":{"key":"06435","name":"Main-Kinzig-Kreis","type":"Landkreis"},"federalState":{"key":"06","name":"Hessen"}},{"name":"Hailerer Tal","postalCode":"63571","locality":"Gelnhausen","municipality":{"key":"06435010","name":"Gelnhausen, Barbarossastadt, Kreisstadt","type":"Stadt"},"district":{"key":"06435","name":"Main-Kinzig-Kreis","type":"Landkreis"},"federalState":{"key":"06","name":"Hessen"}},{"name":"Hainaer Weg","postalCode":"63571","locality":"Gelnhausen","municipality":{"key":"06435010","name":"Gelnhausen, Barbarossastadt, Kreisstadt","type":"Stadt"},"district":{"key":"06435","name":"Main-Kinzig-Kreis","type":"Landkreis"},"federalState":{"key":"06","name":"Hessen"}},{"name":"Hanauer Landstr.","postalCode":"63571","locality":"Gelnhausen","municipality":{"key":"06435010","name":"Gelnhausen, Barbarossastadt, Kreisstadt","type":"Stadt"},"district":{"key":"06435","name":"Main-Kinzig-Kreis","type":"Landkreis"},"federalState":{"key":"06","name":"Hessen"}},{"name":"Haselweg","postalCode":"63571","locality":"Gelnhausen","municipality":{"key":"06435010","name":"Gelnhausen, Barbarossastadt, Kreisstadt","type":"Stadt"},"district":{"key":"06435","name":"Main-Kinzig-Kreis","type":"Landkreis"},"federalState":{"key":"06","name":"Hessen"}},{"name":"Hasenpfad","postalCode":"63571","locality":"Gelnhausen","municipality":{"key":"06435010","name":"Gelnhausen, Barbarossastadt, Kreisstadt","type":"Stadt"},"district":{"key":"06435","name":"Main-Kinzig-Kreis","type":"Landkreis"},"federalState":{"key":"06","name":"Hessen"}},{"name":"Hauptstr.","postalCode":"63571","locality":"Gelnhausen","municipality":{"key":"06435010","name":"Gelnhausen, Barbarossastadt, Kreisstadt","type":"Stadt"},"district":{"key":"06435","name":"Main-Kinzig-Kreis","type":"Landkreis"},"federalState":{"key":"06","name":"Hessen"}},{"name":"Heegstr.","postalCode":"63571","locality":"Gelnhausen","municipality":{"key":"06435010","name":"Gelnhausen, Barbarossastadt, Kreisstadt","type":"Stadt"},"district":{"key":"06435","name":"Main-Kinzig-Kreis","type":"Landkreis"},"federalState":{"key":"06","name":"Hessen"}},{"name":"Heimatfriedering","postalCode":"63571","locality":"Gelnhausen","municipality":{"key":"06435010","name":"Gelnhausen, Barbarossastadt, Kreisstadt","type":"Stadt"},"district":{"key":"06435","name":"Main-Kinzig-Kreis","type":"Landkreis"},"federalState":{"key":"06","name":"Hessen"}},{"name":"Heimatstr.","postalCode":"63571","locality":"Gelnhausen","municipality":{"key":"06435010","name":"Gelnhausen, Barbarossastadt, Kreisstadt","type":"Stadt"},"district":{"key":"06435","name":"Main-Kinzig-Kreis","type":"Landkreis"},"federalState":{"key":"06","name":"Hessen"}},{"name":"Heinrich-Mahla-Str.","postalCode":"63571","locality":"Gelnhausen","municipality":{"key":"06435010","name":"Gelnhausen, Barbarossastadt, Kreisstadt","type":"Stadt"},"district":{"key":"06435","name":"Main-Kinzig-Kreis","type":"Landkreis"},"federalState":{"key":"06","name":"Hessen"}},{"name":"Heinrich-Vingerhut-Weg","postalCode":"63571","locality":"Gelnhausen","municipality":{"key":"06435010","name":"Gelnhausen, Barbarossastadt, Kreisstadt","type":"Stadt"},"district":{"key":"06435","name":"Main-Kinzig-Kreis","type":"Landkreis"},"federalState":{"key":"06","name":"Hessen"}},{"name":"Herlengasse","postalCode":"63571","locality":"Gelnhausen","municipality":{"key":"06435010","name":"Gelnhausen, Barbarossastadt, Kreisstadt","type":"Stadt"},"district":{"key":"06435","name":"Main-Kinzig-Kreis","type":"Landkreis"},"federalState":{"key":"06","name":"Hessen"}},{"name":"Herzbachweg","postalCode":"63571","locality":"Gelnhausen","municipality":{"key":"06435010","name":"Gelnhausen, Barbarossastadt, Kreisstadt","type":"Stadt"},"district":{"key":"06435","name":"Main-Kinzig-Kreis","type":"Landkreis"},"federalState":{"key":"06","name":"Hessen"}},{"name":"Herzbergstr.","postalCode":"63571","locality":"Gelnhausen","municipality":{"key":"06435010","name":"Gelnhausen, Barbarossastadt, Kreisstadt","type":"Stadt"},"district":{"key":"06435","name":"Main-Kinzig-Kreis","type":"Landkreis"},"federalState":{"key":"06","name":"Hessen"}},{"name":"Heylstr.","postalCode":"63571","locality":"Gelnhausen","municipality":{"key":"06435010","name":"Gelnhausen, Barbarossastadt, Kreisstadt","type":"Stadt"},"district":{"key":"06435","name":"Main-Kinzig-Kreis","type":"Landkreis"},"federalState":{"key":"06","name":"Hessen"}},{"name":"Himmelauer Mühle","postalCode":"63571","locality":"Gelnhausen","municipality":{"key":"06435010","name":"Gelnhausen, Barbarossastadt, Kreisstadt","type":"Stadt"},"district":{"key":"06435","name":"Main-Kinzig-Kreis","type":"Landkreis"},"federalState":{"key":"06","name":"Hessen"}},{"name":"Himmelauer Str.","postalCode":"63571","locality":"Gelnhausen","municipality":{"key":"06435010","name":"Gelnhausen, Barbarossastadt, Kreisstadt","type":"Stadt"},"district":{"key":"06435","name":"Main-Kinzig-Kreis","type":"Landkreis"},"federalState":{"key":"06","name":"Hessen"}},{"name":"Hinter der Warth","postalCode":"63571","locality":"Gelnhausen","municipality":{"key":"06435010","name":"Gelnhausen, Barbarossastadt, Kreisstadt","type":"Stadt"},"district":{"key":"06435","name":"Main-Kinzig-Kreis","type":"Landkreis"},"federalState":{"key":"06","name":"Hessen"}},{"name":"Hintergasse","postalCode":"63571","locality":"Gelnhausen","municipality":{"key":"06435010","name":"Gelnhausen, Barbarossastadt, Kreisstadt","type":"Stadt"},"district":{"key":"06435","name":"Main-Kinzig-Kreis","type":"Landkreis"},"federalState":{"key":"06","name":"Hessen"}},{"name":"Hochstr.","postalCode":"63571","locality":"Gelnhausen","municipality":{"key":"06435010","name":"Gelnhausen, Barbarossastadt, Kreisstadt","type":"Stadt"},"district":{"key":"06435","name":"Main-Kinzig-Kreis","type":"Landkreis"},"federalState":{"key":"06","name":"Hessen"}},{"name":"Höhenstr.","postalCode":"63571","locality":"Gelnhausen","municipality":{"key":"06435010","name":"Gelnhausen, Barbarossastadt, Kreisstadt","type":"Stadt"},"district":{"key":"06435","name":"Main-Kinzig-Kreis","type":"Landkreis"},"federalState":{"key":"06","name":"Hessen"}},{"name":"Höhenweg","postalCode":"63571","locality":"Gelnhausen","municipality":{"key":"06435010","name":"Gelnhausen, Barbarossastadt, Kreisstadt","type":"Stadt"},"district":{"key":"06435","name":"Main-Kinzig-Kreis","type":"Landkreis"},"federalState":{"key":"06","name":"Hessen"}},{"name":"Hohlweg","postalCode":"63571","locality":"Gelnhausen","municipality":{"key":"06435010","name":"Gelnhausen, Barbarossastadt, Kreisstadt","type":"Stadt"},"district":{"key":"06435","name":"Main-Kinzig-Kreis","type":"Landkreis"},"federalState":{"key":"06","name":"Hessen"}},{"name":"Holzgasse","postalCode":"63571","locality":"Gelnhausen","municipality":{"key":"06435010","name":"Gelnhausen, Barbarossastadt, Kreisstadt","type":"Stadt"},"district":{"key":"06435","name":"Main-Kinzig-Kreis","type":"Landkreis"},"federalState":{"key":"06","name":"Hessen"}},{"name":"Igelsgrund","postalCode":"63571","locality":"Gelnhausen","municipality":{"key":"06435010","name":"Gelnhausen, Barbarossastadt, Kreisstadt","type":"Stadt"},"district":{"key":"06435","name":"Main-Kinzig-Kreis","type":"Landkreis"},"federalState":{"key":"06","name":"Hessen"}},{"name":"Im Bogen","postalCode":"63571","locality":"Gelnhausen","municipality":{"key":"06435010","name":"Gelnhausen, Barbarossastadt, Kreisstadt","type":"Stadt"},"district":{"key":"06435","name":"Main-Kinzig-Kreis","type":"Landkreis"},"federalState":{"key":"06","name":"Hessen"}},{"name":"Im Börner","postalCode":"63571","locality":"Gelnhausen","municipality":{"key":"06435010","name":"Gelnhausen, Barbarossastadt, Kreisstadt","type":"Stadt"},"district":{"key":"06435","name":"Main-Kinzig-Kreis","type":"Landkreis"},"federalState":{"key":"06","name":"Hessen"}},{"name":"Im Bruchgrund","postalCode":"63571","locality":"Gelnhausen","municipality":{"key":"06435010","name":"Gelnhausen, Barbarossastadt, Kreisstadt","type":"Stadt"},"district":{"key":"06435","name":"Main-Kinzig-Kreis","type":"Landkreis"},"federalState":{"key":"06","name":"Hessen"}},{"name":"Im Goldberg","postalCode":"63571","locality":"Gelnhausen","municipality":{"key":"06435010","name":"Gelnhausen, Barbarossastadt, Kreisstadt","type":"Stadt"},"district":{"key":"06435","name":"Main-Kinzig-Kreis","type":"Landkreis"},"federalState":{"key":"06","name":"Hessen"}},{"name":"Im Hasengarten","postalCode":"63571","locality":"Gelnhausen","municipality":{"key":"06435010","name":"Gelnhausen, Barbarossastadt, Kreisstadt","type":"Stadt"},"district":{"key":"06435","name":"Main-Kinzig-Kreis","type":"Landkreis"},"federalState":{"key":"06","name":"Hessen"}},{"name":"Im Höfchen","postalCode":"63571","locality":"Gelnhausen","municipality":{"key":"06435010","name":"Gelnhausen, Barbarossastadt, Kreisstadt","type":"Stadt"},"district":{"key":"06435","name":"Main-Kinzig-Kreis","type":"Landkreis"},"federalState":{"key":"06","name":"Hessen"}},{"name":"Im Höhlchen","postalCode":"63571","locality":"Gelnhausen","municipality":{"key":"06435010","name":"Gelnhausen, Barbarossastadt, Kreisstadt","type":"Stadt"},"district":{"key":"06435","name":"Main-Kinzig-Kreis","type":"Landkreis"},"federalState":{"key":"06","name":"Hessen"}},{"name":"Im Kringelgraben","postalCode":"63571","locality":"Gelnhausen","municipality":{"key":"06435010","name":"Gelnhausen, Barbarossastadt, Kreisstadt","type":"Stadt"},"district":{"key":"06435","name":"Main-Kinzig-Kreis","type":"Landkreis"},"federalState":{"key":"06","name":"Hessen"}},{"name":"Im Krötenbad","postalCode":"63571","locality":"Gelnhausen","municipality":{"key":"06435010","name":"Gelnhausen, Barbarossastadt, Kreisstadt","type":"Stadt"},"district":{"key":"06435","name":"Main-Kinzig-Kreis","type":"Landkreis"},"federalState":{"key":"06","name":"Hessen"}},{"name":"Im Mannsgraben","postalCode":"63571","locality":"Gelnhausen","municipality":{"key":"06435010","name":"Gelnhausen, Barbarossastadt, Kreisstadt","type":"Stadt"},"district":{"key":"06435","name":"Main-Kinzig-Kreis","type":"Landkreis"},"federalState":{"key":"06","name":"Hessen"}},{"name":"Immersbachweg","postalCode":"63571","locality":"Gelnhausen","municipality":{"key":"06435010","name":"Gelnhausen, Barbarossastadt, Kreisstadt","type":"Stadt"},"district":{"key":"06435","name":"Main-Kinzig-Kreis","type":"Landkreis"},"federalState":{"key":"06","name":"Hessen"}},{"name":"Im Neuen Berg","postalCode":"63571","locality":"Gelnhausen","municipality":{"key":"06435010","name":"Gelnhausen, Barbarossastadt, Kreisstadt","type":"Stadt"},"district":{"key":"06435","name":"Main-Kinzig-Kreis","type":"Landkreis"},"federalState":{"key":"06","name":"Hessen"}},{"name":"Im Reumer","postalCode":"63571","locality":"Gelnhausen","municipality":{"key":"06435010","name":"Gelnhausen, Barbarossastadt, Kreisstadt","type":"Stadt"},"district":{"key":"06435","name":"Main-Kinzig-Kreis","type":"Landkreis"},"federalState":{"key":"06","name":"Hessen"}},{"name":"Im Setzling","postalCode":"63571","locality":"Gelnhausen","municipality":{"key":"06435010","name":"Gelnhausen, Barbarossastadt, Kreisstadt","type":"Stadt"},"district":{"key":"06435","name":"Main-Kinzig-Kreis","type":"Landkreis"},"federalState":{"key":"06","name":"Hessen"}},{"name":"Im Steinigen Graben","postalCode":"63571","locality":"Gelnhausen","municipality":{"key":"06435010","name":"Gelnhausen, Barbarossastadt, Kreisstadt","type":"Stadt"},"district":{"key":"06435","name":"Main-Kinzig-Kreis","type":"Landkreis"},"federalState":{"key":"06","name":"Hessen"}},{"name":"Im Veilgärtchen","postalCode":"63571","locality":"Gelnhausen","municipality":{"key":"06435010","name":"Gelnhausen, Barbarossastadt, Kreisstadt","type":"Stadt"},"district":{"key":"06435","name":"Main-Kinzig-Kreis","type":"Landkreis"},"federalState":{"key":"06","name":"Hessen"}},{"name":"Im Weiherfeld","postalCode":"63571","locality":"Gelnhausen","municipality":{"key":"06435010","name":"Gelnhausen, Barbarossastadt, Kreisstadt","type":"Stadt"},"district":{"key":"06435","name":"Main-Kinzig-Kreis","type":"Landkreis"},"federalState":{"key":"06","name":"Hessen"}},{"name":"Im Winkel","postalCode":"63571","locality":"Gelnhausen","municipality":{"key":"06435010","name":"Gelnhausen, Barbarossastadt, Kreisstadt","type":"Stadt"},"district":{"key":"06435","name":"Main-Kinzig-Kreis","type":"Landkreis"},"federalState":{"key":"06","name":"Hessen"}},{"name":"Im Ziegelhaus","postalCode":"63571","locality":"Gelnhausen","municipality":{"key":"06435010","name":"Gelnhausen, Barbarossastadt, Kreisstadt","type":"Stadt"},"district":{"key":"06435","name":"Main-Kinzig-Kreis","type":"Landkreis"},"federalState":{"key":"06","name":"Hessen"}},{"name":"In den Kappeswiesen","postalCode":"63571","locality":"Gelnhausen","municipality":{"key":"06435010","name":"Gelnhausen, Barbarossastadt, Kreisstadt","type":"Stadt"},"district":{"key":"06435","name":"Main-Kinzig-Kreis","type":"Landkreis"},"federalState":{"key":"06","name":"Hessen"}},{"name":"In den Rauschen","postalCode":"63571","locality":"Gelnhausen","municipality":{"key":"06435010","name":"Gelnhausen, Barbarossastadt, Kreisstadt","type":"Stadt"},"district":{"key":"06435","name":"Main-Kinzig-Kreis","type":"Landkreis"},"federalState":{"key":"06","name":"Hessen"}},{"name":"In der Aue","postalCode":"63571","locality":"Gelnhausen","municipality":{"key":"06435010","name":"Gelnhausen, Barbarossastadt, Kreisstadt","type":"Stadt"},"district":{"key":"06435","name":"Main-Kinzig-Kreis","type":"Landkreis"},"federalState":{"key":"06","name":"Hessen"}},{"name":"In der Brug","postalCode":"63571","locality":"Gelnhausen","municipality":{"key":"06435010","name":"Gelnhausen, Barbarossastadt, Kreisstadt","type":"Stadt"},"district":{"key":"06435","name":"Main-Kinzig-Kreis","type":"Landkreis"},"federalState":{"key":"06","name":"Hessen"}},{"name":"In der Hammelsruh","postalCode":"63571","locality":"Gelnhausen","municipality":{"key":"06435010","name":"Gelnhausen, Barbarossastadt, Kreisstadt","type":"Stadt"},"district":{"key":"06435","name":"Main-Kinzig-Kreis","type":"Landkreis"},"federalState":{"key":"06","name":"Hessen"}},{"name":"In der Mühlbach","postalCode":"63571","locality":"Gelnhausen","municipality":{"key":"06435010","name":"Gelnhausen, Barbarossastadt, Kreisstadt","type":"Stadt"},"district":{"key":"06435","name":"Main-Kinzig-Kreis","type":"Landkreis"},"federalState":{"key":"06","name":"Hessen"}},{"name":"In der Planke","postalCode":"63571","locality":"Gelnhausen","municipality":{"key":"06435010","name":"Gelnhausen, Barbarossastadt, Kreisstadt","type":"Stadt"},"district":{"key":"06435","name":"Main-Kinzig-Kreis","type":"Landkreis"},"federalState":{"key":"06","name":"Hessen"}},{"name":"Jahnstr.","postalCode":"63571","locality":"Gelnhausen","municipality":{"key":"06435010","name":"Gelnhausen, Barbarossastadt, Kreisstadt","type":"Stadt"},"district":{"key":"06435","name":"Main-Kinzig-Kreis","type":"Landkreis"},"federalState":{"key":"06","name":"Hessen"}},{"name":"Johanniterstr.","postalCode":"63571","locality":"Gelnhausen","municipality":{"key":"06435010","name":"Gelnhausen, Barbarossastadt, Kreisstadt","type":"Stadt"},"district":{"key":"06435","name":"Main-Kinzig-Kreis","type":"Landkreis"},"federalState":{"key":"06","name":"Hessen"}},{"name":"John-Lennon-Ring","postalCode":"63571","locality":"Gelnhausen","municipality":{"key":"06435010","name":"Gelnhausen, Barbarossastadt, Kreisstadt","type":"Stadt"},"district":{"key":"06435","name":"Main-Kinzig-Kreis","type":"Landkreis"},"federalState":{"key":"06","name":"Hessen"}},{"name":"Joseph-Haydn-Weg","postalCode":"63571","locality":"Gelnhausen","municipality":{"key":"06435010","name":"Gelnhausen, Barbarossastadt, Kreisstadt","type":"Stadt"},"district":{"key":"06435","name":"Main-Kinzig-Kreis","type":"Landkreis"},"federalState":{"key":"06","name":"Hessen"}},{"name":"Jossaweg","postalCode":"63571","locality":"Gelnhausen","municipality":{"key":"06435010","name":"Gelnhausen, Barbarossastadt, Kreisstadt","type":"Stadt"},"district":{"key":"06435","name":"Main-Kinzig-Kreis","type":"Landkreis"},"federalState":{"key":"06","name":"Hessen"}},{"name":"Junkenhofstr.","postalCode":"63571","locality":"Gelnhausen","municipality":{"key":"06435010","name":"Gelnhausen, Barbarossastadt, Kreisstadt","type":"Stadt"},"district":{"key":"06435","name":"Main-Kinzig-Kreis","type":"Landkreis"},"federalState":{"key":"06","name":"Hessen"}},{"name":"Kapellenweg","postalCode":"63571","locality":"Gelnhausen","municipality":{"key":"06435010","name":"Gelnhausen, Barbarossastadt, Kreisstadt","type":"Stadt"},"district":{"key":"06435","name":"Main-Kinzig-Kreis","type":"Landkreis"},"federalState":{"key":"06","name":"Hessen"}},{"name":"Karlsbader Str.","postalCode":"63571","locality":"Gelnhausen","municipality":{"key":"06435010","name":"Gelnhausen, Barbarossastadt, Kreisstadt","type":"Stadt"},"district":{"key":"06435","name":"Main-Kinzig-Kreis","type":"Landkreis"},"federalState":{"key":"06","name":"Hessen"}},{"name":"Karlstr.","postalCode":"63571","locality":"Gelnhausen","municipality":{"key":"06435010","name":"Gelnhausen, Barbarossastadt, Kreisstadt","type":"Stadt"},"district":{"key":"06435","name":"Main-Kinzig-Kreis","type":"Landkreis"},"federalState":{"key":"06","name":"Hessen"}},{"name":"Kasseler Str.","postalCode":"63571","locality":"Gelnhausen","municipality":{"key":"06435010","name":"Gelnhausen, Barbarossastadt, Kreisstadt","type":"Stadt"},"district":{"key":"06435","name":"Main-Kinzig-Kreis","type":"Landkreis"},"federalState":{"key":"06","name":"Hessen"}},{"name":"Kastanienweg","postalCode":"63571","locality":"Gelnhausen","municipality":{"key":"06435010","name":"Gelnhausen, Barbarossastadt, Kreisstadt","type":"Stadt"},"district":{"key":"06435","name":"Main-Kinzig-Kreis","type":"Landkreis"},"federalState":{"key":"06","name":"Hessen"}},{"name":"Keltenweg","postalCode":"63571","locality":"Gelnhausen","municipality":{"key":"06435010","name":"Gelnhausen, Barbarossastadt, Kreisstadt","type":"Stadt"},"district":{"key":"06435","name":"Main-Kinzig-Kreis","type":"Landkreis"},"federalState":{"key":"06","name":"Hessen"}},{"name":"Ketteler Str.","postalCode":"63571","locality":"Gelnhausen","municipality":{"key":"06435010","name":"Gelnhausen, Barbarossastadt, Kreisstadt","type":"Stadt"},"district":{"key":"06435","name":"Main-Kinzig-Kreis","type":"Landkreis"},"federalState":{"key":"06","name":"Hessen"}},{"name":"Kinzigstr.","postalCode":"63571","locality":"Gelnhausen","municipality":{"key":"06435010","name":"Gelnhausen, Barbarossastadt, Kreisstadt","type":"Stadt"},"district":{"key":"06435","name":"Main-Kinzig-Kreis","type":"Landkreis"},"federalState":{"key":"06","name":"Hessen"}},{"name":"Kinzigtalblick","postalCode":"63571","locality":"Gelnhausen","municipality":{"key":"06435010","name":"Gelnhausen, Barbarossastadt, Kreisstadt","type":"Stadt"},"district":{"key":"06435","name":"Main-Kinzig-Kreis","type":"Landkreis"},"federalState":{"key":"06","name":"Hessen"}},{"name":"Kirchgasse","postalCode":"63571","locality":"Gelnhausen","municipality":{"key":"06435010","name":"Gelnhausen, Barbarossastadt, Kreisstadt","type":"Stadt"},"district":{"key":"06435","name":"Main-Kinzig-Kreis","type":"Landkreis"},"federalState":{"key":"06","name":"Hessen"}},{"name":"Kirschgartenweg","postalCode":"63571","locality":"Gelnhausen","municipality":{"key":"06435010","name":"Gelnhausen, Barbarossastadt, Kreisstadt","type":"Stadt"},"district":{"key":"06435","name":"Main-Kinzig-Kreis","type":"Landkreis"},"federalState":{"key":"06","name":"Hessen"}},{"name":"Kleinbahnstr.","postalCode":"63571","locality":"Gelnhausen","municipality":{"key":"06435010","name":"Gelnhausen, Barbarossastadt, Kreisstadt","type":"Stadt"},"district":{"key":"06435","name":"Main-Kinzig-Kreis","type":"Landkreis"},"federalState":{"key":"06","name":"Hessen"}},{"name":"Kleine Schmidtgasse","postalCode":"63571","locality":"Gelnhausen","municipality":{"key":"06435010","name":"Gelnhausen, Barbarossastadt, Kreisstadt","type":"Stadt"},"district":{"key":"06435","name":"Main-Kinzig-Kreis","type":"Landkreis"},"federalState":{"key":"06","name":"Hessen"}},{"name":"Klosterstr.","postalCode":"63571","locality":"Gelnhausen","municipality":{"key":"06435010","name":"Gelnhausen, Barbarossastadt, Kreisstadt","type":"Stadt"},"district":{"key":"06435","name":"Main-Kinzig-Kreis","type":"Landkreis"},"federalState":{"key":"06","name":"Hessen"}},{"name":"Königsberger Str.","postalCode":"63571","locality":"Gelnhausen","municipality":{"key":"06435010","name":"Gelnhausen, Barbarossastadt, Kreisstadt","type":"Stadt"},"district":{"key":"06435","name":"Main-Kinzig-Kreis","type":"Landkreis"},"federalState":{"key":"06","name":"Hessen"}},{"name":"Konrad-Schneider-Weg","postalCode":"63571","locality":"Gelnhausen","municipality":{"key":"06435010","name":"Gelnhausen, Barbarossastadt, Kreisstadt","type":"Stadt"},"district":{"key":"06435","name":"Main-Kinzig-Kreis","type":"Landkreis"},"federalState":{"key":"06","name":"Hessen"}},{"name":"Krämergasse","postalCode":"63571","locality":"Gelnhausen","municipality":{"key":"06435010","name":"Gelnhausen, Barbarossastadt, Kreisstadt","type":"Stadt"},"district":{"key":"06435","name":"Main-Kinzig-Kreis","type":"Landkreis"},"federalState":{"key":"06","name":"Hessen"}},{"name":"Kremp'sche Spitze","postalCode":"63571","locality":"Gelnhausen","municipality":{"key":"06435010","name":"Gelnhausen, Barbarossastadt, Kreisstadt","type":"Stadt"},"district":{"key":"06435","name":"Main-Kinzig-Kreis","type":"Landkreis"},"federalState":{"key":"06","name":"Hessen"}},{"name":"Kuhgasse","postalCode":"63571","locality":"Gelnhausen","municipality":{"key":"06435010","name":"Gelnhausen, Barbarossastadt, Kreisstadt","type":"Stadt"},"district":{"key":"06435","name":"Main-Kinzig-Kreis","type":"Landkreis"},"federalState":{"key":"06","name":"Hessen"}},{"name":"Kurzer Weg","postalCode":"63571","locality":"Gelnhausen","municipality":{"key":"06435010","name":"Gelnhausen, Barbarossastadt, Kreisstadt","type":"Stadt"},"district":{"key":"06435","name":"Main-Kinzig-Kreis","type":"Landkreis"},"federalState":{"key":"06","name":"Hessen"}},{"name":"Ladestr.","postalCode":"63571","locality":"Gelnhausen","municipality":{"key":"06435010","name":"Gelnhausen, Barbarossastadt, Kreisstadt","type":"Stadt"},"district":{"key":"06435","name":"Main-Kinzig-Kreis","type":"Landkreis"},"federalState":{"key":"06","name":"Hessen"}},{"name":"Lagerhausstr.","postalCode":"63571","locality":"Gelnhausen","municipality":{"key":"06435010","name":"Gelnhausen, Barbarossastadt, Kreisstadt","type":"Stadt"},"district":{"key":"06435","name":"Main-Kinzig-Kreis","type":"Landkreis"},"federalState":{"key":"06","name":"Hessen"}},{"name":"Lambertusgasse","postalCode":"63571","locality":"Gelnhausen","municipality":{"key":"06435010","name":"Gelnhausen, Barbarossastadt, Kreisstadt","type":"Stadt"},"district":{"key":"06435","name":"Main-Kinzig-Kreis","type":"Landkreis"},"federalState":{"key":"06","name":"Hessen"}},{"name":"Langgasse","postalCode":"63571","locality":"Gelnhausen","municipality":{"key":"06435010","name":"Gelnhausen, Barbarossastadt, Kreisstadt","type":"Stadt"},"district":{"key":"06435","name":"Main-Kinzig-Kreis","type":"Landkreis"},"federalState":{"key":"06","name":"Hessen"}},{"name":"Lärchenweg","postalCode":"63571","locality":"Gelnhausen","municipality":{"key":"06435010","name":"Gelnhausen, Barbarossastadt, Kreisstadt","type":"Stadt"},"district":{"key":"06435","name":"Main-Kinzig-Kreis","type":"Landkreis"},"federalState":{"key":"06","name":"Hessen"}},{"name":"Leipziger Allee","postalCode":"63571","locality":"Gelnhausen","municipality":{"key":"06435010","name":"Gelnhausen, Barbarossastadt, Kreisstadt","type":"Stadt"},"district":{"key":"06435","name":"Main-Kinzig-Kreis","type":"Landkreis"},"federalState":{"key":"06","name":"Hessen"}},{"name":"Leipziger Str.","postalCode":"63571","locality":"Gelnhausen","municipality":{"key":"06435010","name":"Gelnhausen, Barbarossastadt, Kreisstadt","type":"Stadt"},"district":{"key":"06435","name":"Main-Kinzig-Kreis","type":"Landkreis"},"federalState":{"key":"06","name":"Hessen"}},{"name":"Liebloser Str.","postalCode":"63571","locality":"Gelnhausen","municipality":{"key":"06435010","name":"Gelnhausen, Barbarossastadt, Kreisstadt","type":"Stadt"},"district":{"key":"06435","name":"Main-Kinzig-Kreis","type":"Landkreis"},"federalState":{"key":"06","name":"Hessen"}},{"name":"Ligusterweg","postalCode":"63571","locality":"Gelnhausen","municipality":{"key":"06435010","name":"Gelnhausen, Barbarossastadt, Kreisstadt","type":"Stadt"},"district":{"key":"06435","name":"Main-Kinzig-Kreis","type":"Landkreis"},"federalState":{"key":"06","name":"Hessen"}},{"name":"Lindenstr.","postalCode":"63571","locality":"Gelnhausen","municipality":{"key":"06435010","name":"Gelnhausen, Barbarossastadt, Kreisstadt","type":"Stadt"},"district":{"key":"06435","name":"Main-Kinzig-Kreis","type":"Landkreis"},"federalState":{"key":"06","name":"Hessen"}},{"name":"Löhergasse","postalCode":"63571","locality":"Gelnhausen","municipality":{"key":"06435010","name":"Gelnhausen, Barbarossastadt, Kreisstadt","type":"Stadt"},"district":{"key":"06435","name":"Main-Kinzig-Kreis","type":"Landkreis"},"federalState":{"key":"06","name":"Hessen"}},{"name":"Lohmühlenweg","postalCode":"63571","locality":"Gelnhausen","municipality":{"key":"06435010","name":"Gelnhausen, Barbarossastadt, Kreisstadt","type":"Stadt"},"district":{"key":"06435","name":"Main-Kinzig-Kreis","type":"Landkreis"},"federalState":{"key":"06","name":"Hessen"}},{"name":"Lützelhäuser Weg","postalCode":"63571","locality":"Gelnhausen","municipality":{"key":"06435010","name":"Gelnhausen, Barbarossastadt, Kreisstadt","type":"Stadt"},"district":{"key":"06435","name":"Main-Kinzig-Kreis","type":"Landkreis"},"federalState":{"key":"06","name":"Hessen"}},{"name":"Mainstr.","postalCode":"63571","locality":"Gelnhausen","municipality":{"key":"06435010","name":"Gelnhausen, Barbarossastadt, Kreisstadt","type":"Stadt"},"district":{"key":"06435","name":"Main-Kinzig-Kreis","type":"Landkreis"},"federalState":{"key":"06","name":"Hessen"}},{"name":"Marlinger Weg","postalCode":"63571","locality":"Gelnhausen","municipality":{"key":"06435010","name":"Gelnhausen, Barbarossastadt, Kreisstadt","type":"Stadt"},"district":{"key":"06435","name":"Main-Kinzig-Kreis","type":"Landkreis"},"federalState":{"key":"06","name":"Hessen"}},{"name":"Massenbachstr.","postalCode":"63571","locality":"Gelnhausen","municipality":{"key":"06435010","name":"Gelnhausen, Barbarossastadt, Kreisstadt","type":"Stadt"},"district":{"key":"06435","name":"Main-Kinzig-Kreis","type":"Landkreis"},"federalState":{"key":"06","name":"Hessen"}},{"name":"Merianweg","postalCode":"63571","locality":"Gelnhausen","municipality":{"key":"06435010","name":"Gelnhausen, Barbarossastadt, Kreisstadt","type":"Stadt"},"district":{"key":"06435","name":"Main-Kinzig-Kreis","type":"Landkreis"},"federalState":{"key":"06","name":"Hessen"}},{"name":"Miroldesstr.","postalCode":"63571","locality":"Gelnhausen","municipality":{"key":"06435010","name":"Gelnhausen, Barbarossastadt, Kreisstadt","type":"Stadt"},"district":{"key":"06435","name":"Main-Kinzig-Kreis","type":"Landkreis"},"federalState":{"key":"06","name":"Hessen"}},{"name":"Mittelgasse","postalCode":"63571","locality":"Gelnhausen","municipality":{"key":"06435010","name":"Gelnhausen, Barbarossastadt, Kreisstadt","type":"Stadt"},"district":{"key":"06435","name":"Main-Kinzig-Kreis","type":"Landkreis"},"federalState":{"key":"06","name":"Hessen"}},{"name":"Mittelstr.","postalCode":"63571","locality":"Gelnhausen","municipality":{"key":"06435010","name":"Gelnhausen, Barbarossastadt, Kreisstadt","type":"Stadt"},"district":{"key":"06435","name":"Main-Kinzig-Kreis","type":"Landkreis"},"federalState":{"key":"06","name":"Hessen"}},{"name":"Mittlauer Weg","postalCode":"63571","locality":"Gelnhausen","municipality":{"key":"06435010","name":"Gelnhausen, Barbarossastadt, Kreisstadt","type":"Stadt"},"district":{"key":"06435","name":"Main-Kinzig-Kreis","type":"Landkreis"},"federalState":{"key":"06","name":"Hessen"}},{"name":"Mittlere Röde","postalCode":"63571","locality":"Gelnhausen","municipality":{"key":"06435010","name":"Gelnhausen, Barbarossastadt, Kreisstadt","type":"Stadt"},"district":{"key":"06435","name":"Main-Kinzig-Kreis","type":"Landkreis"},"federalState":{"key":"06","name":"Hessen"}},{"name":"Mozartstr.","postalCode":"63571","locality":"Gelnhausen","municipality":{"key":"06435010","name":"Gelnhausen, Barbarossastadt, Kreisstadt","type":"Stadt"},"district":{"key":"06435","name":"Main-Kinzig-Kreis","type":"Landkreis"},"federalState":{"key":"06","name":"Hessen"}},{"name":"Mühlbachskopfweg","postalCode":"63571","locality":"Gelnhausen","municipality":{"key":"06435010","name":"Gelnhausen, Barbarossastadt, Kreisstadt","type":"Stadt"},"district":{"key":"06435","name":"Main-Kinzig-Kreis","type":"Landkreis"},"federalState":{"key":"06","name":"Hessen"}},{"name":"Mühlbachs Kopfweg","postalCode":"63571","locality":"Gelnhausen","municipality":{"key":"06435010","name":"Gelnhausen, Barbarossastadt, Kreisstadt","type":"Stadt"},"district":{"key":"06435","name":"Main-Kinzig-Kreis","type":"Landkreis"},"federalState":{"key":"06","name":"Hessen"}},{"name":"Mühlbachweg","postalCode":"63571","locality":"Gelnhausen","municipality":{"key":"06435010","name":"Gelnhausen, Barbarossastadt, Kreisstadt","type":"Stadt"},"district":{"key":"06435","name":"Main-Kinzig-Kreis","type":"Landkreis"},"federalState":{"key":"06","name":"Hessen"}},{"name":"Mühlenstr.","postalCode":"63571","locality":"Gelnhausen","municipality":{"key":"06435010","name":"Gelnhausen, Barbarossastadt, Kreisstadt","type":"Stadt"},"district":{"key":"06435","name":"Main-Kinzig-Kreis","type":"Landkreis"},"federalState":{"key":"06","name":"Hessen"}},{"name":"Mühlrainstr.","postalCode":"63571","locality":"Gelnhausen","municipality":{"key":"06435010","name":"Gelnhausen, Barbarossastadt, Kreisstadt","type":"Stadt"},"district":{"key":"06435","name":"Main-Kinzig-Kreis","type":"Landkreis"},"federalState":{"key":"06","name":"Hessen"}},{"name":"Neuer Weg","postalCode":"63571","locality":"Gelnhausen","municipality":{"key":"06435010","name":"Gelnhausen, Barbarossastadt, Kreisstadt","type":"Stadt"},"district":{"key":"06435","name":"Main-Kinzig-Kreis","type":"Landkreis"},"federalState":{"key":"06","name":"Hessen"}},{"name":"Neue Siedlung","postalCode":"63571","locality":"Gelnhausen","municipality":{"key":"06435010","name":"Gelnhausen, Barbarossastadt, Kreisstadt","type":"Stadt"},"district":{"key":"06435","name":"Main-Kinzig-Kreis","type":"Landkreis"},"federalState":{"key":"06","name":"Hessen"}},{"name":"Neue Str.","postalCode":"63571","locality":"Gelnhausen","municipality":{"key":"06435010","name":"Gelnhausen, Barbarossastadt, Kreisstadt","type":"Stadt"},"district":{"key":"06435","name":"Main-Kinzig-Kreis","type":"Landkreis"},"federalState":{"key":"06","name":"Hessen"}},{"name":"Neue Weinbergstr.","postalCode":"63571","locality":"Gelnhausen","municipality":{"key":"06435010","name":"Gelnhausen, Barbarossastadt, Kreisstadt","type":"Stadt"},"district":{"key":"06435","name":"Main-Kinzig-Kreis","type":"Landkreis"},"federalState":{"key":"06","name":"Hessen"}},{"name":"Niddaweg","postalCode":"63571","locality":"Gelnhausen","municipality":{"key":"06435010","name":"Gelnhausen, Barbarossastadt, Kreisstadt","type":"Stadt"},"district":{"key":"06435","name":"Main-Kinzig-Kreis","type":"Landkreis"},"federalState":{"key":"06","name":"Hessen"}},{"name":"Nordstr.","postalCode":"63571","locality":"Gelnhausen","municipality":{"key":"06435010","name":"Gelnhausen, Barbarossastadt, Kreisstadt","type":"Stadt"},"district":{"key":"06435","name":"Main-Kinzig-Kreis","type":"Landkreis"},"federalState":{"key":"06","name":"Hessen"}},{"name":"Oberdorfstr.","postalCode":"63571","locality":"Gelnhausen","municipality":{"key":"06435010","name":"Gelnhausen, Barbarossastadt, Kreisstadt","type":"Stadt"},"district":{"key":"06435","name":"Main-Kinzig-Kreis","type":"Landkreis"},"federalState":{"key":"06","name":"Hessen"}},{"name":"Obere Haitzer Gasse","postalCode":"63571","locality":"Gelnhausen","municipality":{"key":"06435010","name":"Gelnhausen, Barbarossastadt, Kreisstadt","type":"Stadt"},"district":{"key":"06435","name":"Main-Kinzig-Kreis","type":"Landkreis"},"federalState":{"key":"06","name":"Hessen"}},{"name":"Obermarkt","postalCode":"63571","locality":"Gelnhausen","municipality":{"key":"06435010","name":"Gelnhausen, Barbarossastadt, Kreisstadt","type":"Stadt"},"district":{"key":"06435","name":"Main-Kinzig-Kreis","type":"Landkreis"},"federalState":{"key":"06","name":"Hessen"}},{"name":"Oberstr.","postalCode":"63571","locality":"Gelnhausen","municipality":{"key":"06435010","name":"Gelnhausen, Barbarossastadt, Kreisstadt","type":"Stadt"},"district":{"key":"06435","name":"Main-Kinzig-Kreis","type":"Landkreis"},"federalState":{"key":"06","name":"Hessen"}},{"name":"Odenwaldstr.","postalCode":"63571","locality":"Gelnhausen","municipality":{"key":"06435010","name":"Gelnhausen, Barbarossastadt, Kreisstadt","type":"Stadt"},"district":{"key":"06435","name":"Main-Kinzig-Kreis","type":"Landkreis"},"federalState":{"key":"06","name":"Hessen"}},{"name":"Ohmgasse","postalCode":"63571","locality":"Gelnhausen","municipality":{"key":"06435010","name":"Gelnhausen, Barbarossastadt, Kreisstadt","type":"Stadt"},"district":{"key":"06435","name":"Main-Kinzig-Kreis","type":"Landkreis"},"federalState":{"key":"06","name":"Hessen"}},{"name":"Palaisstr.","postalCode":"63571","locality":"Gelnhausen","municipality":{"key":"06435010","name":"Gelnhausen, Barbarossastadt, Kreisstadt","type":"Stadt"},"district":{"key":"06435","name":"Main-Kinzig-Kreis","type":"Landkreis"},"federalState":{"key":"06","name":"Hessen"}},{"name":"Panoramaweg","postalCode":"63571","locality":"Gelnhausen","municipality":{"key":"06435010","name":"Gelnhausen, Barbarossastadt, Kreisstadt","type":"Stadt"},"district":{"key":"06435","name":"Main-Kinzig-Kreis","type":"Landkreis"},"federalState":{"key":"06","name":"Hessen"}},{"name":"Pappelweg","postalCode":"63571","locality":"Gelnhausen","municipality":{"key":"06435010","name":"Gelnhausen, Barbarossastadt, Kreisstadt","type":"Stadt"},"district":{"key":"06435","name":"Main-Kinzig-Kreis","type":"Landkreis"},"federalState":{"key":"06","name":"Hessen"}},{"name":"Parkstr.","postalCode":"63571","locality":"Gelnhausen","municipality":{"key":"06435010","name":"Gelnhausen, Barbarossastadt, Kreisstadt","type":"Stadt"},"district":{"key":"06435","name":"Main-Kinzig-Kreis","type":"Landkreis"},"federalState":{"key":"06","name":"Hessen"}},{"name":"Paulstr.","postalCode":"63571","locality":"Gelnhausen","municipality":{"key":"06435010","name":"Gelnhausen, Barbarossastadt, Kreisstadt","type":"Stadt"},"district":{"key":"06435","name":"Main-Kinzig-Kreis","type":"Landkreis"},"federalState":{"key":"06","name":"Hessen"}},{"name":"Petersiliengasse","postalCode":"63571","locality":"Gelnhausen","municipality":{"key":"06435010","name":"Gelnhausen, Barbarossastadt, Kreisstadt","type":"Stadt"},"district":{"key":"06435","name":"Main-Kinzig-Kreis","type":"Landkreis"},"federalState":{"key":"06","name":"Hessen"}},{"name":"Philipp-Reis-Str.","postalCode":"63571","locality":"Gelnhausen","municipality":{"key":"06435010","name":"Gelnhausen, Barbarossastadt, Kreisstadt","type":"Stadt"},"district":{"key":"06435","name":"Main-Kinzig-Kreis","type":"Landkreis"},"federalState":{"key":"06","name":"Hessen"}},{"name":"Plankenweg","postalCode":"63571","locality":"Gelnhausen","municipality":{"key":"06435010","name":"Gelnhausen, Barbarossastadt, Kreisstadt","type":"Stadt"},"district":{"key":"06435","name":"Main-Kinzig-Kreis","type":"Landkreis"},"federalState":{"key":"06","name":"Hessen"}},{"name":"Plattenweg","postalCode":"63571","locality":"Gelnhausen","municipality":{"key":"06435010","name":"Gelnhausen, Barbarossastadt, Kreisstadt","type":"Stadt"},"district":{"key":"06435","name":"Main-Kinzig-Kreis","type":"Landkreis"},"federalState":{"key":"06","name":"Hessen"}},{"name":"Poststr.","postalCode":"63571","locality":"Gelnhausen","municipality":{"key":"06435010","name":"Gelnhausen, Barbarossastadt, Kreisstadt","type":"Stadt"},"district":{"key":"06435","name":"Main-Kinzig-Kreis","type":"Landkreis"},"federalState":{"key":"06","name":"Hessen"}},{"name":"Quellenstr.","postalCode":"63571","locality":"Gelnhausen","municipality":{"key":"06435010","name":"Gelnhausen, Barbarossastadt, Kreisstadt","type":"Stadt"},"district":{"key":"06435","name":"Main-Kinzig-Kreis","type":"Landkreis"},"federalState":{"key":"06","name":"Hessen"}},{"name":"Rasensteg","postalCode":"63571","locality":"Gelnhausen","municipality":{"key":"06435010","name":"Gelnhausen, Barbarossastadt, Kreisstadt","type":"Stadt"},"district":{"key":"06435","name":"Main-Kinzig-Kreis","type":"Landkreis"},"federalState":{"key":"06","name":"Hessen"}},{"name":"Rathausstr.","postalCode":"63571","locality":"Gelnhausen","municipality":{"key":"06435010","name":"Gelnhausen, Barbarossastadt, Kreisstadt","type":"Stadt"},"district":{"key":"06435","name":"Main-Kinzig-Kreis","type":"Landkreis"},"federalState":{"key":"06","name":"Hessen"}},{"name":"Reinhardstr.","postalCode":"63571","locality":"Gelnhausen","municipality":{"key":"06435010","name":"Gelnhausen, Barbarossastadt, Kreisstadt","type":"Stadt"},"district":{"key":"06435","name":"Main-Kinzig-Kreis","type":"Landkreis"},"federalState":{"key":"06","name":"Hessen"}},{"name":"Rentkammerweg","postalCode":"63571","locality":"Gelnhausen","municipality":{"key":"06435010","name":"Gelnhausen, Barbarossastadt, Kreisstadt","type":"Stadt"},"district":{"key":"06435","name":"Main-Kinzig-Kreis","type":"Landkreis"},"federalState":{"key":"06","name":"Hessen"}},{"name":"Rentweg","postalCode":"63571","locality":"Gelnhausen","municipality":{"key":"06435010","name":"Gelnhausen, Barbarossastadt, Kreisstadt","type":"Stadt"},"district":{"key":"06435","name":"Main-Kinzig-Kreis","type":"Landkreis"},"federalState":{"key":"06","name":"Hessen"}},{"name":"Reuterhohlstr.","postalCode":"63571","locality":"Gelnhausen","municipality":{"key":"06435010","name":"Gelnhausen, Barbarossastadt, Kreisstadt","type":"Stadt"},"district":{"key":"06435","name":"Main-Kinzig-Kreis","type":"Landkreis"},"federalState":{"key":"06","name":"Hessen"}},{"name":"Rhönstr.","postalCode":"63571","locality":"Gelnhausen","municipality":{"key":"06435010","name":"Gelnhausen, Barbarossastadt, Kreisstadt","type":"Stadt"},"district":{"key":"06435","name":"Main-Kinzig-Kreis","type":"Landkreis"},"federalState":{"key":"06","name":"Hessen"}},{"name":"Richard-Wagner-Str.","postalCode":"63571","locality":"Gelnhausen","municipality":{"key":"06435010","name":"Gelnhausen, Barbarossastadt, Kreisstadt","type":"Stadt"},"district":{"key":"06435","name":"Main-Kinzig-Kreis","type":"Landkreis"},"federalState":{"key":"06","name":"Hessen"}},{"name":"Ringstr.","postalCode":"63571","locality":"Gelnhausen","municipality":{"key":"06435010","name":"Gelnhausen, Barbarossastadt, Kreisstadt","type":"Stadt"},"district":{"key":"06435","name":"Main-Kinzig-Kreis","type":"Landkreis"},"federalState":{"key":"06","name":"Hessen"}},{"name":"Ringweg","postalCode":"63571","locality":"Gelnhausen","municipality":{"key":"06435010","name":"Gelnhausen, Barbarossastadt, Kreisstadt","type":"Stadt"},"district":{"key":"06435","name":"Main-Kinzig-Kreis","type":"Landkreis"},"federalState":{"key":"06","name":"Hessen"}},{"name":"Rosengärtchen","postalCode":"63571","locality":"Gelnhausen","municipality":{"key":"06435010","name":"Gelnhausen, Barbarossastadt, Kreisstadt","type":"Stadt"},"district":{"key":"06435","name":"Main-Kinzig-Kreis","type":"Landkreis"},"federalState":{"key":"06","name":"Hessen"}},{"name":"Röther Gasse","postalCode":"63571","locality":"Gelnhausen","municipality":{"key":"06435010","name":"Gelnhausen, Barbarossastadt, Kreisstadt","type":"Stadt"},"district":{"key":"06435","name":"Main-Kinzig-Kreis","type":"Landkreis"},"federalState":{"key":"06","name":"Hessen"}},{"name":"Röther Wingertstr.","postalCode":"63571","locality":"Gelnhausen","municipality":{"key":"06435010","name":"Gelnhausen, Barbarossastadt, Kreisstadt","type":"Stadt"},"district":{"key":"06435","name":"Main-Kinzig-Kreis","type":"Landkreis"},"federalState":{"key":"06","name":"Hessen"}},{"name":"Rudolf-Diesel-Str.","postalCode":"63571","locality":"Gelnhausen","municipality":{"key":"06435010","name":"Gelnhausen, Barbarossastadt, Kreisstadt","type":"Stadt"},"district":{"key":"06435","name":"Main-Kinzig-Kreis","type":"Landkreis"},"federalState":{"key":"06","name":"Hessen"}},{"name":"Rußlandweg","postalCode":"63571","locality":"Gelnhausen","municipality":{"key":"06435010","name":"Gelnhausen, Barbarossastadt, Kreisstadt","type":"Stadt"},"district":{"key":"06435","name":"Main-Kinzig-Kreis","type":"Landkreis"},"federalState":{"key":"06","name":"Hessen"}},{"name":"Sandweg","postalCode":"63571","locality":"Gelnhausen","municipality":{"key":"06435010","name":"Gelnhausen, Barbarossastadt, Kreisstadt","type":"Stadt"},"district":{"key":"06435","name":"Main-Kinzig-Kreis","type":"Landkreis"},"federalState":{"key":"06","name":"Hessen"}},{"name":"Schießhausstr.","postalCode":"63571","locality":"Gelnhausen","municipality":{"key":"06435010","name":"Gelnhausen, Barbarossastadt, Kreisstadt","type":"Stadt"},"district":{"key":"06435","name":"Main-Kinzig-Kreis","type":"Landkreis"},"federalState":{"key":"06","name":"Hessen"}},{"name":"Schifftorstr.","postalCode":"63571","locality":"Gelnhausen","municipality":{"key":"06435010","name":"Gelnhausen, Barbarossastadt, Kreisstadt","type":"Stadt"},"district":{"key":"06435","name":"Main-Kinzig-Kreis","type":"Landkreis"},"federalState":{"key":"06","name":"Hessen"}},{"name":"Schillerstr.","postalCode":"63571","locality":"Gelnhausen","municipality":{"key":"06435010","name":"Gelnhausen, Barbarossastadt, Kreisstadt","type":"Stadt"},"district":{"key":"06435","name":"Main-Kinzig-Kreis","type":"Landkreis"},"federalState":{"key":"06","name":"Hessen"}},{"name":"Schlosspark","postalCode":"63571","locality":"Gelnhausen","municipality":{"key":"06435010","name":"Gelnhausen, Barbarossastadt, Kreisstadt","type":"Stadt"},"district":{"key":"06435","name":"Main-Kinzig-Kreis","type":"Landkreis"},"federalState":{"key":"06","name":"Hessen"}},{"name":"Schmidtgasse","postalCode":"63571","locality":"Gelnhausen","municipality":{"key":"06435010","name":"Gelnhausen, Barbarossastadt, Kreisstadt","type":"Stadt"},"district":{"key":"06435","name":"Main-Kinzig-Kreis","type":"Landkreis"},"federalState":{"key":"06","name":"Hessen"}},{"name":"Schönauer Weg","postalCode":"63571","locality":"Gelnhausen","municipality":{"key":"06435010","name":"Gelnhausen, Barbarossastadt, Kreisstadt","type":"Stadt"},"district":{"key":"06435","name":"Main-Kinzig-Kreis","type":"Landkreis"},"federalState":{"key":"06","name":"Hessen"}},{"name":"Schöne Aussicht","postalCode":"63571","locality":"Gelnhausen","municipality":{"key":"06435010","name":"Gelnhausen, Barbarossastadt, Kreisstadt","type":"Stadt"},"district":{"key":"06435","name":"Main-Kinzig-Kreis","type":"Landkreis"},"federalState":{"key":"06","name":"Hessen"}},{"name":"Schulhausstr.","postalCode":"63571","locality":"Gelnhausen","municipality":{"key":"06435010","name":"Gelnhausen, Barbarossastadt, Kreisstadt","type":"Stadt"},"district":{"key":"06435","name":"Main-Kinzig-Kreis","type":"Landkreis"},"federalState":{"key":"06","name":"Hessen"}},{"name":"Schulstr.","postalCode":"63571","locality":"Gelnhausen","municipality":{"key":"06435010","name":"Gelnhausen, Barbarossastadt, Kreisstadt","type":"Stadt"},"district":{"key":"06435","name":"Main-Kinzig-Kreis","type":"Landkreis"},"federalState":{"key":"06","name":"Hessen"}},{"name":"Schützenbornstr.","postalCode":"63571","locality":"Gelnhausen","municipality":{"key":"06435010","name":"Gelnhausen, Barbarossastadt, Kreisstadt","type":"Stadt"},"district":{"key":"06435","name":"Main-Kinzig-Kreis","type":"Landkreis"},"federalState":{"key":"06","name":"Hessen"}},{"name":"Schützengraben","postalCode":"63571","locality":"Gelnhausen","municipality":{"key":"06435010","name":"Gelnhausen, Barbarossastadt, Kreisstadt","type":"Stadt"},"district":{"key":"06435","name":"Main-Kinzig-Kreis","type":"Landkreis"},"federalState":{"key":"06","name":"Hessen"}},{"name":"Schwalbenweg","postalCode":"63571","locality":"Gelnhausen","municipality":{"key":"06435010","name":"Gelnhausen, Barbarossastadt, Kreisstadt","type":"Stadt"},"district":{"key":"06435","name":"Main-Kinzig-Kreis","type":"Landkreis"},"federalState":{"key":"06","name":"Hessen"}},{"name":"Schwarzwaldweg","postalCode":"63571","locality":"Gelnhausen","municipality":{"key":"06435010","name":"Gelnhausen, Barbarossastadt, Kreisstadt","type":"Stadt"},"district":{"key":"06435","name":"Main-Kinzig-Kreis","type":"Landkreis"},"federalState":{"key":"06","name":"Hessen"}},{"name":"Seestr.","postalCode":"63571","locality":"Gelnhausen","municipality":{"key":"06435010","name":"Gelnhausen, Barbarossastadt, Kreisstadt","type":"Stadt"},"district":{"key":"06435","name":"Main-Kinzig-Kreis","type":"Landkreis"},"federalState":{"key":"06","name":"Hessen"}},{"name":"Siedlung","postalCode":"63571","locality":"Gelnhausen","municipality":{"key":"06435010","name":"Gelnhausen, Barbarossastadt, Kreisstadt","type":"Stadt"},"district":{"key":"06435","name":"Main-Kinzig-Kreis","type":"Landkreis"},"federalState":{"key":"06","name":"Hessen"}},{"name":"Sonnenweg","postalCode":"63571","locality":"Gelnhausen","municipality":{"key":"06435010","name":"Gelnhausen, Barbarossastadt, Kreisstadt","type":"Stadt"},"district":{"key":"06435","name":"Main-Kinzig-Kreis","type":"Landkreis"},"federalState":{"key":"06","name":"Hessen"}},{"name":"Spessartblick","postalCode":"63571","locality":"Gelnhausen","municipality":{"key":"06435010","name":"Gelnhausen, Barbarossastadt, Kreisstadt","type":"Stadt"},"district":{"key":"06435","name":"Main-Kinzig-Kreis","type":"Landkreis"},"federalState":{"key":"06","name":"Hessen"}},{"name":"Spessartstr.","postalCode":"63571","locality":"Gelnhausen","municipality":{"key":"06435010","name":"Gelnhausen, Barbarossastadt, Kreisstadt","type":"Stadt"},"district":{"key":"06435","name":"Main-Kinzig-Kreis","type":"Landkreis"},"federalState":{"key":"06","name":"Hessen"}},{"name":"Stadtgarten","postalCode":"63571","locality":"Gelnhausen","municipality":{"key":"06435010","name":"Gelnhausen, Barbarossastadt, Kreisstadt","type":"Stadt"},"district":{"key":"06435","name":"Main-Kinzig-Kreis","type":"Landkreis"},"federalState":{"key":"06","name":"Hessen"}},{"name":"Stadtschreiberei","postalCode":"63571","locality":"Gelnhausen","municipality":{"key":"06435010","name":"Gelnhausen, Barbarossastadt, Kreisstadt","type":"Stadt"},"district":{"key":"06435","name":"Main-Kinzig-Kreis","type":"Landkreis"},"federalState":{"key":"06","name":"Hessen"}},{"name":"Steinerner Weg","postalCode":"63571","locality":"Gelnhausen","municipality":{"key":"06435010","name":"Gelnhausen, Barbarossastadt, Kreisstadt","type":"Stadt"},"district":{"key":"06435","name":"Main-Kinzig-Kreis","type":"Landkreis"},"federalState":{"key":"06","name":"Hessen"}},{"name":"Steiniger Weg","postalCode":"63571","locality":"Gelnhausen","municipality":{"key":"06435010","name":"Gelnhausen, Barbarossastadt, Kreisstadt","type":"Stadt"},"district":{"key":"06435","name":"Main-Kinzig-Kreis","type":"Landkreis"},"federalState":{"key":"06","name":"Hessen"}},{"name":"Steinweg","postalCode":"63571","locality":"Gelnhausen","municipality":{"key":"06435010","name":"Gelnhausen, Barbarossastadt, Kreisstadt","type":"Stadt"},"district":{"key":"06435","name":"Main-Kinzig-Kreis","type":"Landkreis"},"federalState":{"key":"06","name":"Hessen"}},{"name":"Stephanusberg","postalCode":"63571","locality":"Gelnhausen","municipality":{"key":"06435010","name":"Gelnhausen, Barbarossastadt, Kreisstadt","type":"Stadt"},"district":{"key":"06435","name":"Main-Kinzig-Kreis","type":"Landkreis"},"federalState":{"key":"06","name":"Hessen"}},{"name":"Stettiner Str.","postalCode":"63571","locality":"Gelnhausen","municipality":{"key":"06435010","name":"Gelnhausen, Barbarossastadt, Kreisstadt","type":"Stadt"},"district":{"key":"06435","name":"Main-Kinzig-Kreis","type":"Landkreis"},"federalState":{"key":"06","name":"Hessen"}},{"name":"Str. der Jugend","postalCode":"63571","locality":"Gelnhausen","municipality":{"key":"06435010","name":"Gelnhausen, Barbarossastadt, Kreisstadt","type":"Stadt"},"district":{"key":"06435","name":"Main-Kinzig-Kreis","type":"Landkreis"},"federalState":{"key":"06","name":"Hessen"}},{"name":"Struppstr.","postalCode":"63571","locality":"Gelnhausen","municipality":{"key":"06435010","name":"Gelnhausen, Barbarossastadt, Kreisstadt","type":"Stadt"},"district":{"key":"06435","name":"Main-Kinzig-Kreis","type":"Landkreis"},"federalState":{"key":"06","name":"Hessen"}},{"name":"Sudetenstr.","postalCode":"63571","locality":"Gelnhausen","municipality":{"key":"06435010","name":"Gelnhausen, Barbarossastadt, Kreisstadt","type":"Stadt"},"district":{"key":"06435","name":"Main-Kinzig-Kreis","type":"Landkreis"},"federalState":{"key":"06","name":"Hessen"}},{"name":"Sudetenweg","postalCode":"63571","locality":"Gelnhausen","municipality":{"key":"06435010","name":"Gelnhausen, Barbarossastadt, Kreisstadt","type":"Stadt"},"district":{"key":"06435","name":"Main-Kinzig-Kreis","type":"Landkreis"},"federalState":{"key":"06","name":"Hessen"}},{"name":"Talblick","postalCode":"63571","locality":"Gelnhausen","municipality":{"key":"06435010","name":"Gelnhausen, Barbarossastadt, Kreisstadt","type":"Stadt"},"district":{"key":"06435","name":"Main-Kinzig-Kreis","type":"Landkreis"},"federalState":{"key":"06","name":"Hessen"}},{"name":"Tannenbornweg","postalCode":"63571","locality":"Gelnhausen","municipality":{"key":"06435010","name":"Gelnhausen, Barbarossastadt, Kreisstadt","type":"Stadt"},"district":{"key":"06435","name":"Main-Kinzig-Kreis","type":"Landkreis"},"federalState":{"key":"06","name":"Hessen"}},{"name":"Tannenweg","postalCode":"63571","locality":"Gelnhausen","municipality":{"key":"06435010","name":"Gelnhausen, Barbarossastadt, Kreisstadt","type":"Stadt"},"district":{"key":"06435","name":"Main-Kinzig-Kreis","type":"Landkreis"},"federalState":{"key":"06","name":"Hessen"}},{"name":"Tantalstr.","postalCode":"63571","locality":"Gelnhausen","municipality":{"key":"06435010","name":"Gelnhausen, Barbarossastadt, Kreisstadt","type":"Stadt"},"district":{"key":"06435","name":"Main-Kinzig-Kreis","type":"Landkreis"},"federalState":{"key":"06","name":"Hessen"}},{"name":"Taunusstr.","postalCode":"63571","locality":"Gelnhausen","municipality":{"key":"06435010","name":"Gelnhausen, Barbarossastadt, Kreisstadt","type":"Stadt"},"district":{"key":"06435","name":"Main-Kinzig-Kreis","type":"Landkreis"},"federalState":{"key":"06","name":"Hessen"}},{"name":"Tempelstr.","postalCode":"63571","locality":"Gelnhausen","municipality":{"key":"06435010","name":"Gelnhausen, Barbarossastadt, Kreisstadt","type":"Stadt"},"district":{"key":"06435","name":"Main-Kinzig-Kreis","type":"Landkreis"},"federalState":{"key":"06","name":"Hessen"}},{"name":"Tolnauer Str.","postalCode":"63571","locality":"Gelnhausen","municipality":{"key":"06435010","name":"Gelnhausen, Barbarossastadt, Kreisstadt","type":"Stadt"},"district":{"key":"06435","name":"Main-Kinzig-Kreis","type":"Landkreis"},"federalState":{"key":"06","name":"Hessen"}},{"name":"Töpfergasse","postalCode":"63571","locality":"Gelnhausen","municipality":{"key":"06435010","name":"Gelnhausen, Barbarossastadt, Kreisstadt","type":"Stadt"},"district":{"key":"06435","name":"Main-Kinzig-Kreis","type":"Landkreis"},"federalState":{"key":"06","name":"Hessen"}},{"name":"Tränkstube","postalCode":"63571","locality":"Gelnhausen","municipality":{"key":"06435010","name":"Gelnhausen, Barbarossastadt, Kreisstadt","type":"Stadt"},"district":{"key":"06435","name":"Main-Kinzig-Kreis","type":"Landkreis"},"federalState":{"key":"06","name":"Hessen"}},{"name":"Uferweg","postalCode":"63571","locality":"Gelnhausen","municipality":{"key":"06435010","name":"Gelnhausen, Barbarossastadt, Kreisstadt","type":"Stadt"},"district":{"key":"06435","name":"Main-Kinzig-Kreis","type":"Landkreis"},"federalState":{"key":"06","name":"Hessen"}},{"name":"Ulmenstr.","postalCode":"63571","locality":"Gelnhausen","municipality":{"key":"06435010","name":"Gelnhausen, Barbarossastadt, Kreisstadt","type":"Stadt"},"district":{"key":"06435","name":"Main-Kinzig-Kreis","type":"Landkreis"},"federalState":{"key":"06","name":"Hessen"}},{"name":"Unterdorf","postalCode":"63571","locality":"Gelnhausen","municipality":{"key":"06435010","name":"Gelnhausen, Barbarossastadt, Kreisstadt","type":"Stadt"},"district":{"key":"06435","name":"Main-Kinzig-Kreis","type":"Landkreis"},"federalState":{"key":"06","name":"Hessen"}},{"name":"Unterdorfstr.","postalCode":"63571","locality":"Gelnhausen","municipality":{"key":"06435010","name":"Gelnhausen, Barbarossastadt, Kreisstadt","type":"Stadt"},"district":{"key":"06435","name":"Main-Kinzig-Kreis","type":"Landkreis"},"federalState":{"key":"06","name":"Hessen"}},{"name":"Untere Haitzer Gasse","postalCode":"63571","locality":"Gelnhausen","municipality":{"key":"06435010","name":"Gelnhausen, Barbarossastadt, Kreisstadt","type":"Stadt"},"district":{"key":"06435","name":"Main-Kinzig-Kreis","type":"Landkreis"},"federalState":{"key":"06","name":"Hessen"}},{"name":"Untere Jahnstr.","postalCode":"63571","locality":"Gelnhausen","municipality":{"key":"06435010","name":"Gelnhausen, Barbarossastadt, Kreisstadt","type":"Stadt"},"district":{"key":"06435","name":"Main-Kinzig-Kreis","type":"Landkreis"},"federalState":{"key":"06","name":"Hessen"}},{"name":"Untere Röde","postalCode":"63571","locality":"Gelnhausen","municipality":{"key":"06435010","name":"Gelnhausen, Barbarossastadt, Kreisstadt","type":"Stadt"},"district":{"key":"06435","name":"Main-Kinzig-Kreis","type":"Landkreis"},"federalState":{"key":"06","name":"Hessen"}},{"name":"Untere Schönau","postalCode":"63571","locality":"Gelnhausen","municipality":{"key":"06435010","name":"Gelnhausen, Barbarossastadt, Kreisstadt","type":"Stadt"},"district":{"key":"06435","name":"Main-Kinzig-Kreis","type":"Landkreis"},"federalState":{"key":"06","name":"Hessen"}},{"name":"Untermarkt","postalCode":"63571","locality":"Gelnhausen","municipality":{"key":"06435010","name":"Gelnhausen, Barbarossastadt, Kreisstadt","type":"Stadt"},"district":{"key":"06435","name":"Main-Kinzig-Kreis","type":"Landkreis"},"federalState":{"key":"06","name":"Hessen"}},{"name":"Unterstr.","postalCode":"63571","locality":"Gelnhausen","municipality":{"key":"06435010","name":"Gelnhausen, Barbarossastadt, Kreisstadt","type":"Stadt"},"district":{"key":"06435","name":"Main-Kinzig-Kreis","type":"Landkreis"},"federalState":{"key":"06","name":"Hessen"}},{"name":"Vogelsbergstr.","postalCode":"63571","locality":"Gelnhausen","municipality":{"key":"06435010","name":"Gelnhausen, Barbarossastadt, Kreisstadt","type":"Stadt"},"district":{"key":"06435","name":"Main-Kinzig-Kreis","type":"Landkreis"},"federalState":{"key":"06","name":"Hessen"}},{"name":"Voitweg","postalCode":"63571","locality":"Gelnhausen","municipality":{"key":"06435010","name":"Gelnhausen, Barbarossastadt, Kreisstadt","type":"Stadt"},"district":{"key":"06435","name":"Main-Kinzig-Kreis","type":"Landkreis"},"federalState":{"key":"06","name":"Hessen"}},{"name":"Vor dem Bangert","postalCode":"63571","locality":"Gelnhausen","municipality":{"key":"06435010","name":"Gelnhausen, Barbarossastadt, Kreisstadt","type":"Stadt"},"district":{"key":"06435","name":"Main-Kinzig-Kreis","type":"Landkreis"},"federalState":{"key":"06","name":"Hessen"}},{"name":"Vor dem Schifftor","postalCode":"63571","locality":"Gelnhausen","municipality":{"key":"06435010","name":"Gelnhausen, Barbarossastadt, Kreisstadt","type":"Stadt"},"district":{"key":"06435","name":"Main-Kinzig-Kreis","type":"Landkreis"},"federalState":{"key":"06","name":"Hessen"}},{"name":"Vor der Kaserne","postalCode":"63571","locality":"Gelnhausen","municipality":{"key":"06435010","name":"Gelnhausen, Barbarossastadt, Kreisstadt","type":"Stadt"},"district":{"key":"06435","name":"Main-Kinzig-Kreis","type":"Landkreis"},"federalState":{"key":"06","name":"Hessen"}},{"name":"Vorm Röhrig","postalCode":"63571","locality":"Gelnhausen","municipality":{"key":"06435010","name":"Gelnhausen, Barbarossastadt, Kreisstadt","type":"Stadt"},"district":{"key":"06435","name":"Main-Kinzig-Kreis","type":"Landkreis"},"federalState":{"key":"06","name":"Hessen"}},{"name":"Waldblick","postalCode":"63571","locality":"Gelnhausen","municipality":{"key":"06435010","name":"Gelnhausen, Barbarossastadt, Kreisstadt","type":"Stadt"},"district":{"key":"06435","name":"Main-Kinzig-Kreis","type":"Landkreis"},"federalState":{"key":"06","name":"Hessen"}},{"name":"Waldstr.","postalCode":"63571","locality":"Gelnhausen","municipality":{"key":"06435010","name":"Gelnhausen, Barbarossastadt, Kreisstadt","type":"Stadt"},"district":{"key":"06435","name":"Main-Kinzig-Kreis","type":"Landkreis"},"federalState":{"key":"06","name":"Hessen"}},{"name":"Waldweg","postalCode":"63571","locality":"Gelnhausen","municipality":{"key":"06435010","name":"Gelnhausen, Barbarossastadt, Kreisstadt","type":"Stadt"},"district":{"key":"06435","name":"Main-Kinzig-Kreis","type":"Landkreis"},"federalState":{"key":"06","name":"Hessen"}},{"name":"Wartweg","postalCode":"63571","locality":"Gelnhausen","municipality":{"key":"06435010","name":"Gelnhausen, Barbarossastadt, Kreisstadt","type":"Stadt"},"district":{"key":"06435","name":"Main-Kinzig-Kreis","type":"Landkreis"},"federalState":{"key":"06","name":"Hessen"}},{"name":"Waschbachweg","postalCode":"63571","locality":"Gelnhausen","municipality":{"key":"06435010","name":"Gelnhausen, Barbarossastadt, Kreisstadt","type":"Stadt"},"district":{"key":"06435","name":"Main-Kinzig-Kreis","type":"Landkreis"},"federalState":{"key":"06","name":"Hessen"}},{"name":"Wegscheide","postalCode":"63571","locality":"Gelnhausen","municipality":{"key":"06435010","name":"Gelnhausen, Barbarossastadt, Kreisstadt","type":"Stadt"},"district":{"key":"06435","name":"Main-Kinzig-Kreis","type":"Landkreis"},"federalState":{"key":"06","name":"Hessen"}},{"name":"Weinbergstr.","postalCode":"63571","locality":"Gelnhausen","municipality":{"key":"06435010","name":"Gelnhausen, Barbarossastadt, Kreisstadt","type":"Stadt"},"district":{"key":"06435","name":"Main-Kinzig-Kreis","type":"Landkreis"},"federalState":{"key":"06","name":"Hessen"}},{"name":"Weißkirchenweg","postalCode":"63571","locality":"Gelnhausen","municipality":{"key":"06435010","name":"Gelnhausen, Barbarossastadt, Kreisstadt","type":"Stadt"},"district":{"key":"06435","name":"Main-Kinzig-Kreis","type":"Landkreis"},"federalState":{"key":"06","name":"Hessen"}},{"name":"Wendelinusstr.","postalCode":"63571","locality":"Gelnhausen","municipality":{"key":"06435010","name":"Gelnhausen, Barbarossastadt, Kreisstadt","type":"Stadt"},"district":{"key":"06435","name":"Main-Kinzig-Kreis","type":"Landkreis"},"federalState":{"key":"06","name":"Hessen"}},{"name":"Wiesenbornstr.","postalCode":"63571","locality":"Gelnhausen","municipality":{"key":"06435010","name":"Gelnhausen, Barbarossastadt, Kreisstadt","type":"Stadt"},"district":{"key":"06435","name":"Main-Kinzig-Kreis","type":"Landkreis"},"federalState":{"key":"06","name":"Hessen"}},{"name":"Wilhelm-Scharf-Str.","postalCode":"63571","locality":"Gelnhausen","municipality":{"key":"06435010","name":"Gelnhausen, Barbarossastadt, Kreisstadt","type":"Stadt"},"district":{"key":"06435","name":"Main-Kinzig-Kreis","type":"Landkreis"},"federalState":{"key":"06","name":"Hessen"}},{"name":"Wilhelm-Schöffer-Str.","postalCode":"63571","locality":"Gelnhausen","municipality":{"key":"06435010","name":"Gelnhausen, Barbarossastadt, Kreisstadt","type":"Stadt"},"district":{"key":"06435","name":"Main-Kinzig-Kreis","type":"Landkreis"},"federalState":{"key":"06","name":"Hessen"}},{"name":"William-Elliot-Platz","postalCode":"63571","locality":"Gelnhausen","municipality":{"key":"06435010","name":"Gelnhausen, Barbarossastadt, Kreisstadt","type":"Stadt"},"district":{"key":"06435","name":"Main-Kinzig-Kreis","type":"Landkreis"},"federalState":{"key":"06","name":"Hessen"}},{"name":"Willi-Jamann-Str.","postalCode":"63571","locality":"Gelnhausen","municipality":{"key":"06435010","name":"Gelnhausen, Barbarossastadt, Kreisstadt","type":"Stadt"},"district":{"key":"06435","name":"Main-Kinzig-Kreis","type":"Landkreis"},"federalState":{"key":"06","name":"Hessen"}},{"name":"Wingertstr.","postalCode":"63571","locality":"Gelnhausen","municipality":{"key":"06435010","name":"Gelnhausen, Barbarossastadt, Kreisstadt","type":"Stadt"},"district":{"key":"06435","name":"Main-Kinzig-Kreis","type":"Landkreis"},"federalState":{"key":"06","name":"Hessen"}},{"name":"Winkelgasse","postalCode":"63571","locality":"Gelnhausen","municipality":{"key":"06435010","name":"Gelnhausen, Barbarossastadt, Kreisstadt","type":"Stadt"},"district":{"key":"06435","name":"Main-Kinzig-Kreis","type":"Landkreis"},"federalState":{"key":"06","name":"Hessen"}},{"name":"Wirtheimer Weg","postalCode":"63571","locality":"Gelnhausen","municipality":{"key":"06435010","name":"Gelnhausen, Barbarossastadt, Kreisstadt","type":"Stadt"},"district":{"key":"06435","name":"Main-Kinzig-Kreis","type":"Landkreis"},"federalState":{"key":"06","name":"Hessen"}},{"name":"Wittgenborner Weg","postalCode":"63571","locality":"Gelnhausen","municipality":{"key":"06435010","name":"Gelnhausen, Barbarossastadt, Kreisstadt","type":"Stadt"},"district":{"key":"06435","name":"Main-Kinzig-Kreis","type":"Landkreis"},"federalState":{"key":"06","name":"Hessen"}},{"name":"Würgebachsweg","postalCode":"63571","locality":"Gelnhausen","municipality":{"key":"06435010","name":"Gelnhausen, Barbarossastadt, Kreisstadt","type":"Stadt"},"district":{"key":"06435","name":"Main-Kinzig-Kreis","type":"Landkreis"},"federalState":{"key":"06","name":"Hessen"}},{"name":"Wurzelweg","postalCode":"63571","locality":"Gelnhausen","municipality":{"key":"06435010","name":"Gelnhausen, Barbarossastadt, Kreisstadt","type":"Stadt"},"district":{"key":"06435","name":"Main-Kinzig-Kreis","type":"Landkreis"},"federalState":{"key":"06","name":"Hessen"}},{"name":"Ysenburger Str.","postalCode":"63571","locality":"Gelnhausen","municipality":{"key":"06435010","name":"Gelnhausen, Barbarossastadt, Kreisstadt","type":"Stadt"},"district":{"key":"06435","name":"Main-Kinzig-Kreis","type":"Landkreis"},"federalState":{"key":"06","name":"Hessen"}},{"name":"Zeisigweg","postalCode":"63571","locality":"Gelnhausen","municipality":{"key":"06435010","name":"Gelnhausen, Barbarossastadt, Kreisstadt","type":"Stadt"},"district":{"key":"06435","name":"Main-Kinzig-Kreis","type":"Landkreis"},"federalState":{"key":"06","name":"Hessen"}},{"name":"Ziegelei","postalCode":"63571","locality":"Gelnhausen","municipality":{"key":"06435010","name":"Gelnhausen, Barbarossastadt, Kreisstadt","type":"Stadt"},"district":{"key":"06435","name":"Main-Kinzig-Kreis","type":"Landkreis"},"federalState":{"key":"06","name":"Hessen"}},{"name":"Zingelstr.","postalCode":"63571","locality":"Gelnhausen","municipality":{"key":"06435010","name":"Gelnhausen, Barbarossastadt, Kreisstadt","type":"Stadt"},"district":{"key":"06435","name":"Main-Kinzig-Kreis","type":"Landkreis"},"federalState":{"key":"06","name":"Hessen"}},{"name":"Zolloch","postalCode":"63571","locality":"Gelnhausen","municipality":{"key":"06435010","name":"Gelnhausen, Barbarossastadt, Kreisstadt","type":"Stadt"},"district":{"key":"06435","name":"Main-Kinzig-Kreis","type":"Landkreis"},"federalState":{"key":"06","name":"Hessen"}},{"name":"Zum Sportplatz","postalCode":"63571","locality":"Gelnhausen","municipality":{"key":"06435010","name":"Gelnhausen, Barbarossastadt, Kreisstadt","type":"Stadt"},"district":{"key":"06435","name":"Main-Kinzig-Kreis","type":"Landkreis"},"federalState":{"key":"06","name":"Hessen"}},{"name":"Zum Taubengarten","postalCode":"63571","locality":"Gelnhausen","municipality":{"key":"06435010","name":"Gelnhausen, Barbarossastadt, Kreisstadt","type":"Stadt"},"district":{"key":"06435","name":"Main-Kinzig-Kreis","type":"Landkreis"},"federalState":{"key":"06","name":"Hessen"}},{"name":"Zum Wartturm","postalCode":"63571","locality":"Gelnhausen","municipality":{"key":"06435010","name":"Gelnhausen, Barbarossastadt, Kreisstadt","type":"Stadt"},"district":{"key":"06435","name":"Main-Kinzig-Kreis","type":"Landkreis"},"federalState":{"key":"06","name":"Hessen"}},{"name":"Zum Weißen Rain","postalCode":"63571","locality":"Gelnhausen","municipality":{"key":"06435010","name":"Gelnhausen, Barbarossastadt, Kreisstadt","type":"Stadt"},"district":{"key":"06435","name":"Main-Kinzig-Kreis","type":"Landkreis"},"federalState":{"key":"06","name":"Hessen"}},{"name":"Zum Wiesengrund","postalCode":"63571","locality":"Gelnhausen","municipality":{"key":"06435010","name":"Gelnhausen, Barbarossastadt, Kreisstadt","type":"Stadt"},"district":{"key":"06435","name":"Main-Kinzig-Kreis","type":"Landkreis"},"federalState":{"key":"06","name":"Hessen"}},]