[{"name":"Benstaben","postalCode":"23858","locality":"Barnitz","municipality":{"key":"01062008","name":"Barnitz","type":"Kreisangehörige_Gemeinde"},"district":{"key":"01062","name":"Stormarn","type":"Kreis"},"federalState":{"key":"01","name":"Schleswig-Holstein"}},{"name":"Dieckkamp","postalCode":"23858","locality":"Barnitz","municipality":{"key":"01062008","name":"Barnitz","type":"Kreisangehörige_Gemeinde"},"district":{"key":"01062","name":"Stormarn","type":"Kreis"},"federalState":{"key":"01","name":"Schleswig-Holstein"}},{"name":"Fußweg Klein Barnitz","postalCode":"23858","locality":"Barnitz","municipality":{"key":"01062008","name":"Barnitz","type":"Kreisangehörige_Gemeinde"},"district":{"key":"01062","name":"Stormarn","type":"Kreis"},"federalState":{"key":"01","name":"Schleswig-Holstein"}},{"name":"Glänzenberg","postalCode":"23858","locality":"Barnitz","municipality":{"key":"01062008","name":"Barnitz","type":"Kreisangehörige_Gemeinde"},"district":{"key":"01062","name":"Stormarn","type":"Kreis"},"federalState":{"key":"01","name":"Schleswig-Holstein"}},{"name":"Klein Barnitz","postalCode":"23858","locality":"Barnitz","municipality":{"key":"01062008","name":"Barnitz","type":"Kreisangehörige_Gemeinde"},"district":{"key":"01062","name":"Stormarn","type":"Kreis"},"federalState":{"key":"01","name":"Schleswig-Holstein"}},{"name":"Klein Barnitzer Str.","postalCode":"23858","locality":"Barnitz","municipality":{"key":"01062008","name":"Barnitz","type":"Kreisangehörige_Gemeinde"},"district":{"key":"01062","name":"Stormarn","type":"Kreis"},"federalState":{"key":"01","name":"Schleswig-Holstein"}},{"name":"Kohlgartenwiedt","postalCode":"23858","locality":"Barnitz","municipality":{"key":"01062008","name":"Barnitz","type":"Kreisangehörige_Gemeinde"},"district":{"key":"01062","name":"Stormarn","type":"Kreis"},"federalState":{"key":"01","name":"Schleswig-Holstein"}},{"name":"Lokfeld","postalCode":"23858","locality":"Barnitz","municipality":{"key":"01062008","name":"Barnitz","type":"Kreisangehörige_Gemeinde"},"district":{"key":"01062","name":"Stormarn","type":"Kreis"},"federalState":{"key":"01","name":"Schleswig-Holstein"}},{"name":"Lokfelder Heckkaten","postalCode":"23858","locality":"Barnitz","municipality":{"key":"01062008","name":"Barnitz","type":"Kreisangehörige_Gemeinde"},"district":{"key":"01062","name":"Stormarn","type":"Kreis"},"federalState":{"key":"01","name":"Schleswig-Holstein"}},{"name":"Schlitzer Weg","postalCode":"23858","locality":"Barnitz","municipality":{"key":"01062008","name":"Barnitz","type":"Kreisangehörige_Gemeinde"},"district":{"key":"01062","name":"Stormarn","type":"Kreis"},"federalState":{"key":"01","name":"Schleswig-Holstein"}},{"name":"Trenthorster Str.","postalCode":"23858","locality":"Barnitz","municipality":{"key":"01062008","name":"Barnitz","type":"Kreisangehörige_Gemeinde"},"district":{"key":"01062","name":"Stormarn","type":"Kreis"},"federalState":{"key":"01","name":"Schleswig-Holstein"}},{"name":"Westerauer Str.","postalCode":"23858","locality":"Barnitz","municipality":{"key":"01062008","name":"Barnitz","type":"Kreisangehörige_Gemeinde"},"district":{"key":"01062","name":"Stormarn","type":"Kreis"},"federalState":{"key":"01","name":"Schleswig-Holstein"}},]