[{"name":"Agricolaplatz","postalCode":"04626","locality":"Göllnitz","municipality":{"key":"16077009","name":"Göllnitz","type":"Kreisangehörige_Gemeinde"},"district":{"key":"16077","name":"Altenburger Land","type":"Landkreis"},"federalState":{"key":"16","name":"Thüringen"}},{"name":"Ahornstr.","postalCode":"04626","locality":"Göllnitz","municipality":{"key":"16077009","name":"Göllnitz","type":"Kreisangehörige_Gemeinde"},"district":{"key":"16077","name":"Altenburger Land","type":"Landkreis"},"federalState":{"key":"16","name":"Thüringen"}},{"name":"Am Anger","postalCode":"04626","locality":"Göllnitz","municipality":{"key":"16077009","name":"Göllnitz","type":"Kreisangehörige_Gemeinde"},"district":{"key":"16077","name":"Altenburger Land","type":"Landkreis"},"federalState":{"key":"16","name":"Thüringen"}},{"name":"Am Berg","postalCode":"04626","locality":"Göllnitz","municipality":{"key":"16077009","name":"Göllnitz","type":"Kreisangehörige_Gemeinde"},"district":{"key":"16077","name":"Altenburger Land","type":"Landkreis"},"federalState":{"key":"16","name":"Thüringen"}},{"name":"Am Paradies","postalCode":"04626","locality":"Göllnitz","municipality":{"key":"16077009","name":"Göllnitz","type":"Kreisangehörige_Gemeinde"},"district":{"key":"16077","name":"Altenburger Land","type":"Landkreis"},"federalState":{"key":"16","name":"Thüringen"}},{"name":"Am Park","postalCode":"04626","locality":"Göllnitz","municipality":{"key":"16077009","name":"Göllnitz","type":"Kreisangehörige_Gemeinde"},"district":{"key":"16077","name":"Altenburger Land","type":"Landkreis"},"federalState":{"key":"16","name":"Thüringen"}},{"name":"An der Eisenberger Str.","postalCode":"04626","locality":"Göllnitz","municipality":{"key":"16077009","name":"Göllnitz","type":"Kreisangehörige_Gemeinde"},"district":{"key":"16077","name":"Altenburger Land","type":"Landkreis"},"federalState":{"key":"16","name":"Thüringen"}},{"name":"Eisenberger Str.","postalCode":"04626","locality":"Göllnitz","municipality":{"key":"16077009","name":"Göllnitz","type":"Kreisangehörige_Gemeinde"},"district":{"key":"16077","name":"Altenburger Land","type":"Landkreis"},"federalState":{"key":"16","name":"Thüringen"}},{"name":"Gartenstr.","postalCode":"04626","locality":"Göllnitz","municipality":{"key":"16077009","name":"Göllnitz","type":"Kreisangehörige_Gemeinde"},"district":{"key":"16077","name":"Altenburger Land","type":"Landkreis"},"federalState":{"key":"16","name":"Thüringen"}},{"name":"Hauptstr.","postalCode":"04626","locality":"Göllnitz","municipality":{"key":"16077009","name":"Göllnitz","type":"Kreisangehörige_Gemeinde"},"district":{"key":"16077","name":"Altenburger Land","type":"Landkreis"},"federalState":{"key":"16","name":"Thüringen"}},{"name":"Im Rittergut","postalCode":"04626","locality":"Göllnitz","municipality":{"key":"16077009","name":"Göllnitz","type":"Kreisangehörige_Gemeinde"},"district":{"key":"16077","name":"Altenburger Land","type":"Landkreis"},"federalState":{"key":"16","name":"Thüringen"}},{"name":"Jordantal","postalCode":"04626","locality":"Göllnitz","municipality":{"key":"16077009","name":"Göllnitz","type":"Kreisangehörige_Gemeinde"},"district":{"key":"16077","name":"Altenburger Land","type":"Landkreis"},"federalState":{"key":"16","name":"Thüringen"}},{"name":"Lindenstr.","postalCode":"04626","locality":"Göllnitz","municipality":{"key":"16077009","name":"Göllnitz","type":"Kreisangehörige_Gemeinde"},"district":{"key":"16077","name":"Altenburger Land","type":"Landkreis"},"federalState":{"key":"16","name":"Thüringen"}},{"name":"Mittelstr.","postalCode":"04626","locality":"Göllnitz","municipality":{"key":"16077009","name":"Göllnitz","type":"Kreisangehörige_Gemeinde"},"district":{"key":"16077","name":"Altenburger Land","type":"Landkreis"},"federalState":{"key":"16","name":"Thüringen"}},{"name":"Obere Str.","postalCode":"04626","locality":"Göllnitz","municipality":{"key":"16077009","name":"Göllnitz","type":"Kreisangehörige_Gemeinde"},"district":{"key":"16077","name":"Altenburger Land","type":"Landkreis"},"federalState":{"key":"16","name":"Thüringen"}},{"name":"Ringstr.","postalCode":"04626","locality":"Göllnitz","municipality":{"key":"16077009","name":"Göllnitz","type":"Kreisangehörige_Gemeinde"},"district":{"key":"16077","name":"Altenburger Land","type":"Landkreis"},"federalState":{"key":"16","name":"Thüringen"}},{"name":"Schmöllner Str.","postalCode":"04626","locality":"Göllnitz","municipality":{"key":"16077009","name":"Göllnitz","type":"Kreisangehörige_Gemeinde"},"district":{"key":"16077","name":"Altenburger Land","type":"Landkreis"},"federalState":{"key":"16","name":"Thüringen"}},{"name":"Schulweg","postalCode":"04626","locality":"Göllnitz","municipality":{"key":"16077009","name":"Göllnitz","type":"Kreisangehörige_Gemeinde"},"district":{"key":"16077","name":"Altenburger Land","type":"Landkreis"},"federalState":{"key":"16","name":"Thüringen"}},{"name":"Teichstr.","postalCode":"04626","locality":"Göllnitz","municipality":{"key":"16077009","name":"Göllnitz","type":"Kreisangehörige_Gemeinde"},"district":{"key":"16077","name":"Altenburger Land","type":"Landkreis"},"federalState":{"key":"16","name":"Thüringen"}},{"name":"Wiesengrund","postalCode":"04626","locality":"Göllnitz","municipality":{"key":"16077009","name":"Göllnitz","type":"Kreisangehörige_Gemeinde"},"district":{"key":"16077","name":"Altenburger Land","type":"Landkreis"},"federalState":{"key":"16","name":"Thüringen"}},{"name":"Zum Teich","postalCode":"04626","locality":"Göllnitz","municipality":{"key":"16077009","name":"Göllnitz","type":"Kreisangehörige_Gemeinde"},"district":{"key":"16077","name":"Altenburger Land","type":"Landkreis"},"federalState":{"key":"16","name":"Thüringen"}},]