[{"name":"Am Grunichsberg","postalCode":"04936","locality":"Lebusa","municipality":{"key":"12062289","name":"Lebusa","type":"Kreisangehörige_Gemeinde"},"district":{"key":"12062","name":"Elbe-Elster","type":"Landkreis"},"federalState":{"key":"12","name":"Brandenburg"}},{"name":"Amselweg","postalCode":"04936","locality":"Lebusa","municipality":{"key":"12062289","name":"Lebusa","type":"Kreisangehörige_Gemeinde"},"district":{"key":"12062","name":"Elbe-Elster","type":"Landkreis"},"federalState":{"key":"12","name":"Brandenburg"}},{"name":"Am Sportplatz","postalCode":"04936","locality":"Lebusa","municipality":{"key":"12062289","name":"Lebusa","type":"Kreisangehörige_Gemeinde"},"district":{"key":"12062","name":"Elbe-Elster","type":"Landkreis"},"federalState":{"key":"12","name":"Brandenburg"}},{"name":"Birkenweg","postalCode":"04936","locality":"Lebusa","municipality":{"key":"12062289","name":"Lebusa","type":"Kreisangehörige_Gemeinde"},"district":{"key":"12062","name":"Elbe-Elster","type":"Landkreis"},"federalState":{"key":"12","name":"Brandenburg"}},{"name":"Dahmer Str.","postalCode":"04936","locality":"Lebusa","municipality":{"key":"12062289","name":"Lebusa","type":"Kreisangehörige_Gemeinde"},"district":{"key":"12062","name":"Elbe-Elster","type":"Landkreis"},"federalState":{"key":"12","name":"Brandenburg"}},{"name":"Dorfstr.","postalCode":"04936","locality":"Lebusa","municipality":{"key":"12062289","name":"Lebusa","type":"Kreisangehörige_Gemeinde"},"district":{"key":"12062","name":"Elbe-Elster","type":"Landkreis"},"federalState":{"key":"12","name":"Brandenburg"}},{"name":"Gartenweg","postalCode":"04936","locality":"Lebusa","municipality":{"key":"12062289","name":"Lebusa","type":"Kreisangehörige_Gemeinde"},"district":{"key":"12062","name":"Elbe-Elster","type":"Landkreis"},"federalState":{"key":"12","name":"Brandenburg"}},{"name":"Herzberger Str.","postalCode":"04936","locality":"Lebusa","municipality":{"key":"12062289","name":"Lebusa","type":"Kreisangehörige_Gemeinde"},"district":{"key":"12062","name":"Elbe-Elster","type":"Landkreis"},"federalState":{"key":"12","name":"Brandenburg"}},{"name":"Kiefernweg","postalCode":"04936","locality":"Lebusa","municipality":{"key":"12062289","name":"Lebusa","type":"Kreisangehörige_Gemeinde"},"district":{"key":"12062","name":"Elbe-Elster","type":"Landkreis"},"federalState":{"key":"12","name":"Brandenburg"}},{"name":"Klein Ende","postalCode":"04936","locality":"Lebusa","municipality":{"key":"12062289","name":"Lebusa","type":"Kreisangehörige_Gemeinde"},"district":{"key":"12062","name":"Elbe-Elster","type":"Landkreis"},"federalState":{"key":"12","name":"Brandenburg"}},{"name":"Knippelsdorfer Weg","postalCode":"04936","locality":"Lebusa","municipality":{"key":"12062289","name":"Lebusa","type":"Kreisangehörige_Gemeinde"},"district":{"key":"12062","name":"Elbe-Elster","type":"Landkreis"},"federalState":{"key":"12","name":"Brandenburg"}},{"name":"Körba","postalCode":"04936","locality":"Lebusa","municipality":{"key":"12062289","name":"Lebusa","type":"Kreisangehörige_Gemeinde"},"district":{"key":"12062","name":"Elbe-Elster","type":"Landkreis"},"federalState":{"key":"12","name":"Brandenburg"}},{"name":"Körbaer Str.","postalCode":"04936","locality":"Lebusa","municipality":{"key":"12062289","name":"Lebusa","type":"Kreisangehörige_Gemeinde"},"district":{"key":"12062","name":"Elbe-Elster","type":"Landkreis"},"federalState":{"key":"12","name":"Brandenburg"}},{"name":"Lärcheneck","postalCode":"04936","locality":"Lebusa","municipality":{"key":"12062289","name":"Lebusa","type":"Kreisangehörige_Gemeinde"},"district":{"key":"12062","name":"Elbe-Elster","type":"Landkreis"},"federalState":{"key":"12","name":"Brandenburg"}},{"name":"Lebusaer Str.","postalCode":"04936","locality":"Lebusa","municipality":{"key":"12062289","name":"Lebusa","type":"Kreisangehörige_Gemeinde"},"district":{"key":"12062","name":"Elbe-Elster","type":"Landkreis"},"federalState":{"key":"12","name":"Brandenburg"}},{"name":"Lindenstr.","postalCode":"04936","locality":"Lebusa","municipality":{"key":"12062289","name":"Lebusa","type":"Kreisangehörige_Gemeinde"},"district":{"key":"12062","name":"Elbe-Elster","type":"Landkreis"},"federalState":{"key":"12","name":"Brandenburg"}},{"name":"Lochmühle","postalCode":"04936","locality":"Lebusa","municipality":{"key":"12062289","name":"Lebusa","type":"Kreisangehörige_Gemeinde"},"district":{"key":"12062","name":"Elbe-Elster","type":"Landkreis"},"federalState":{"key":"12","name":"Brandenburg"}},{"name":"Schliebener Weg","postalCode":"04936","locality":"Lebusa","municipality":{"key":"12062289","name":"Lebusa","type":"Kreisangehörige_Gemeinde"},"district":{"key":"12062","name":"Elbe-Elster","type":"Landkreis"},"federalState":{"key":"12","name":"Brandenburg"}},{"name":"Schulstr.","postalCode":"04936","locality":"Lebusa","municipality":{"key":"12062289","name":"Lebusa","type":"Kreisangehörige_Gemeinde"},"district":{"key":"12062","name":"Elbe-Elster","type":"Landkreis"},"federalState":{"key":"12","name":"Brandenburg"}},{"name":"Siedlung Knippelsdorfer Weg","postalCode":"04936","locality":"Lebusa","municipality":{"key":"12062289","name":"Lebusa","type":"Kreisangehörige_Gemeinde"},"district":{"key":"12062","name":"Elbe-Elster","type":"Landkreis"},"federalState":{"key":"12","name":"Brandenburg"}},{"name":"Striesa","postalCode":"04936","locality":"Lebusa","municipality":{"key":"12062289","name":"Lebusa","type":"Kreisangehörige_Gemeinde"},"district":{"key":"12062","name":"Elbe-Elster","type":"Landkreis"},"federalState":{"key":"12","name":"Brandenburg"}},{"name":"Vorwerk","postalCode":"04936","locality":"Lebusa","municipality":{"key":"12062289","name":"Lebusa","type":"Kreisangehörige_Gemeinde"},"district":{"key":"12062","name":"Elbe-Elster","type":"Landkreis"},"federalState":{"key":"12","name":"Brandenburg"}},{"name":"Waldstr.","postalCode":"04936","locality":"Lebusa","municipality":{"key":"12062289","name":"Lebusa","type":"Kreisangehörige_Gemeinde"},"district":{"key":"12062","name":"Elbe-Elster","type":"Landkreis"},"federalState":{"key":"12","name":"Brandenburg"}},{"name":"Weinbergweg","postalCode":"04936","locality":"Lebusa","municipality":{"key":"12062289","name":"Lebusa","type":"Kreisangehörige_Gemeinde"},"district":{"key":"12062","name":"Elbe-Elster","type":"Landkreis"},"federalState":{"key":"12","name":"Brandenburg"}},{"name":"Weizlandweg","postalCode":"04936","locality":"Lebusa","municipality":{"key":"12062289","name":"Lebusa","type":"Kreisangehörige_Gemeinde"},"district":{"key":"12062","name":"Elbe-Elster","type":"Landkreis"},"federalState":{"key":"12","name":"Brandenburg"}},{"name":"Wolfsschlucht","postalCode":"04936","locality":"Lebusa","municipality":{"key":"12062289","name":"Lebusa","type":"Kreisangehörige_Gemeinde"},"district":{"key":"12062","name":"Elbe-Elster","type":"Landkreis"},"federalState":{"key":"12","name":"Brandenburg"}},{"name":"Ziegeleiweg","postalCode":"04936","locality":"Lebusa","municipality":{"key":"12062289","name":"Lebusa","type":"Kreisangehörige_Gemeinde"},"district":{"key":"12062","name":"Elbe-Elster","type":"Landkreis"},"federalState":{"key":"12","name":"Brandenburg"}},{"name":"Zum Buchengrund","postalCode":"04936","locality":"Lebusa","municipality":{"key":"12062289","name":"Lebusa","type":"Kreisangehörige_Gemeinde"},"district":{"key":"12062","name":"Elbe-Elster","type":"Landkreis"},"federalState":{"key":"12","name":"Brandenburg"}},{"name":"Zum Hundezagel","postalCode":"04936","locality":"Lebusa","municipality":{"key":"12062289","name":"Lebusa","type":"Kreisangehörige_Gemeinde"},"district":{"key":"12062","name":"Elbe-Elster","type":"Landkreis"},"federalState":{"key":"12","name":"Brandenburg"}},{"name":"Zur Blaue","postalCode":"04936","locality":"Lebusa","municipality":{"key":"12062289","name":"Lebusa","type":"Kreisangehörige_Gemeinde"},"district":{"key":"12062","name":"Elbe-Elster","type":"Landkreis"},"federalState":{"key":"12","name":"Brandenburg"}},]