[{"name":"Alte Berliner Str.","postalCode":"15345","locality":"Prötzel","municipality":{"key":"12064393","name":"Prötzel","type":"Kreisangehörige_Gemeinde"},"district":{"key":"12064","name":"Märkisch-Oderland","type":"Landkreis"},"federalState":{"key":"12","name":"Brandenburg"}},{"name":"Am Anger","postalCode":"15345","locality":"Prötzel","municipality":{"key":"12064393","name":"Prötzel","type":"Kreisangehörige_Gemeinde"},"district":{"key":"12064","name":"Märkisch-Oderland","type":"Landkreis"},"federalState":{"key":"12","name":"Brandenburg"}},{"name":"Am Bahnhof","postalCode":"15345","locality":"Prötzel","municipality":{"key":"12064393","name":"Prötzel","type":"Kreisangehörige_Gemeinde"},"district":{"key":"12064","name":"Märkisch-Oderland","type":"Landkreis"},"federalState":{"key":"12","name":"Brandenburg"}},{"name":"Am Grünen Weg","postalCode":"15345","locality":"Prötzel","municipality":{"key":"12064393","name":"Prötzel","type":"Kreisangehörige_Gemeinde"},"district":{"key":"12064","name":"Märkisch-Oderland","type":"Landkreis"},"federalState":{"key":"12","name":"Brandenburg"}},{"name":"Am Mühlenberg","postalCode":"15345","locality":"Prötzel","municipality":{"key":"12064393","name":"Prötzel","type":"Kreisangehörige_Gemeinde"},"district":{"key":"12064","name":"Märkisch-Oderland","type":"Landkreis"},"federalState":{"key":"12","name":"Brandenburg"}},{"name":"Am Storchennest","postalCode":"15345","locality":"Prötzel","municipality":{"key":"12064393","name":"Prötzel","type":"Kreisangehörige_Gemeinde"},"district":{"key":"12064","name":"Märkisch-Oderland","type":"Landkreis"},"federalState":{"key":"12","name":"Brandenburg"}},{"name":"Am Wald","postalCode":"15345","locality":"Prötzel","municipality":{"key":"12064393","name":"Prötzel","type":"Kreisangehörige_Gemeinde"},"district":{"key":"12064","name":"Märkisch-Oderland","type":"Landkreis"},"federalState":{"key":"12","name":"Brandenburg"}},{"name":"An der Weißen Brücke","postalCode":"15345","locality":"Prötzel","municipality":{"key":"12064393","name":"Prötzel","type":"Kreisangehörige_Gemeinde"},"district":{"key":"12064","name":"Märkisch-Oderland","type":"Landkreis"},"federalState":{"key":"12","name":"Brandenburg"}},{"name":"Biesow","postalCode":"15345","locality":"Prötzel","municipality":{"key":"12064393","name":"Prötzel","type":"Kreisangehörige_Gemeinde"},"district":{"key":"12064","name":"Märkisch-Oderland","type":"Landkreis"},"federalState":{"key":"12","name":"Brandenburg"}},{"name":"Dorfstr.","postalCode":"15345","locality":"Prötzel","municipality":{"key":"12064393","name":"Prötzel","type":"Kreisangehörige_Gemeinde"},"district":{"key":"12064","name":"Märkisch-Oderland","type":"Landkreis"},"federalState":{"key":"12","name":"Brandenburg"}},{"name":"Eberswalder Chaussee","postalCode":"15345","locality":"Prötzel","municipality":{"key":"12064393","name":"Prötzel","type":"Kreisangehörige_Gemeinde"},"district":{"key":"12064","name":"Märkisch-Oderland","type":"Landkreis"},"federalState":{"key":"12","name":"Brandenburg"}},{"name":"Frankenfelder Weg","postalCode":"15345","locality":"Prötzel","municipality":{"key":"12064393","name":"Prötzel","type":"Kreisangehörige_Gemeinde"},"district":{"key":"12064","name":"Märkisch-Oderland","type":"Landkreis"},"federalState":{"key":"12","name":"Brandenburg"}},{"name":"Hauptstr.","postalCode":"15345","locality":"Prötzel","municipality":{"key":"12064393","name":"Prötzel","type":"Kreisangehörige_Gemeinde"},"district":{"key":"12064","name":"Märkisch-Oderland","type":"Landkreis"},"federalState":{"key":"12","name":"Brandenburg"}},{"name":"Herzhorner Weg","postalCode":"15345","locality":"Prötzel","municipality":{"key":"12064393","name":"Prötzel","type":"Kreisangehörige_Gemeinde"},"district":{"key":"12064","name":"Märkisch-Oderland","type":"Landkreis"},"federalState":{"key":"12","name":"Brandenburg"}},{"name":"Ihlower Weg","postalCode":"15345","locality":"Prötzel","municipality":{"key":"12064393","name":"Prötzel","type":"Kreisangehörige_Gemeinde"},"district":{"key":"12064","name":"Märkisch-Oderland","type":"Landkreis"},"federalState":{"key":"12","name":"Brandenburg"}},{"name":"Kähnsdorfer Weg","postalCode":"15345","locality":"Prötzel","municipality":{"key":"12064393","name":"Prötzel","type":"Kreisangehörige_Gemeinde"},"district":{"key":"12064","name":"Märkisch-Oderland","type":"Landkreis"},"federalState":{"key":"12","name":"Brandenburg"}},{"name":"Kastanienweg","postalCode":"15345","locality":"Prötzel","municipality":{"key":"12064393","name":"Prötzel","type":"Kreisangehörige_Gemeinde"},"district":{"key":"12064","name":"Märkisch-Oderland","type":"Landkreis"},"federalState":{"key":"12","name":"Brandenburg"}},{"name":"Kiefernweg","postalCode":"15345","locality":"Prötzel","municipality":{"key":"12064393","name":"Prötzel","type":"Kreisangehörige_Gemeinde"},"district":{"key":"12064","name":"Märkisch-Oderland","type":"Landkreis"},"federalState":{"key":"12","name":"Brandenburg"}},{"name":"Mögliner Weg","postalCode":"15345","locality":"Prötzel","municipality":{"key":"12064393","name":"Prötzel","type":"Kreisangehörige_Gemeinde"},"district":{"key":"12064","name":"Märkisch-Oderland","type":"Landkreis"},"federalState":{"key":"12","name":"Brandenburg"}},{"name":"Müncheberger Str.","postalCode":"15345","locality":"Prötzel","municipality":{"key":"12064393","name":"Prötzel","type":"Kreisangehörige_Gemeinde"},"district":{"key":"12064","name":"Märkisch-Oderland","type":"Landkreis"},"federalState":{"key":"12","name":"Brandenburg"}},{"name":"Prädikower Str.","postalCode":"15345","locality":"Prötzel","municipality":{"key":"12064393","name":"Prötzel","type":"Kreisangehörige_Gemeinde"},"district":{"key":"12064","name":"Märkisch-Oderland","type":"Landkreis"},"federalState":{"key":"12","name":"Brandenburg"}},{"name":"Prötzeler Chaussee","postalCode":"15345","locality":"Prötzel","municipality":{"key":"12064393","name":"Prötzel","type":"Kreisangehörige_Gemeinde"},"district":{"key":"12064","name":"Märkisch-Oderland","type":"Landkreis"},"federalState":{"key":"12","name":"Brandenburg"}},{"name":"Prötzeler Str.","postalCode":"15345","locality":"Prötzel","municipality":{"key":"12064393","name":"Prötzel","type":"Kreisangehörige_Gemeinde"},"district":{"key":"12064","name":"Märkisch-Oderland","type":"Landkreis"},"federalState":{"key":"12","name":"Brandenburg"}},{"name":"Schulweg","postalCode":"15345","locality":"Prötzel","municipality":{"key":"12064393","name":"Prötzel","type":"Kreisangehörige_Gemeinde"},"district":{"key":"12064","name":"Märkisch-Oderland","type":"Landkreis"},"federalState":{"key":"12","name":"Brandenburg"}},{"name":"Seestr.","postalCode":"15345","locality":"Prötzel","municipality":{"key":"12064393","name":"Prötzel","type":"Kreisangehörige_Gemeinde"},"district":{"key":"12064","name":"Märkisch-Oderland","type":"Landkreis"},"federalState":{"key":"12","name":"Brandenburg"}},{"name":"Seeweg","postalCode":"15345","locality":"Prötzel","municipality":{"key":"12064393","name":"Prötzel","type":"Kreisangehörige_Gemeinde"},"district":{"key":"12064","name":"Märkisch-Oderland","type":"Landkreis"},"federalState":{"key":"12","name":"Brandenburg"}},{"name":"Siedlerstr.","postalCode":"15345","locality":"Prötzel","municipality":{"key":"12064393","name":"Prötzel","type":"Kreisangehörige_Gemeinde"},"district":{"key":"12064","name":"Märkisch-Oderland","type":"Landkreis"},"federalState":{"key":"12","name":"Brandenburg"}},{"name":"Siedlungsweg","postalCode":"15345","locality":"Prötzel","municipality":{"key":"12064393","name":"Prötzel","type":"Kreisangehörige_Gemeinde"},"district":{"key":"12064","name":"Märkisch-Oderland","type":"Landkreis"},"federalState":{"key":"12","name":"Brandenburg"}},{"name":"Stadtstelle","postalCode":"15345","locality":"Prötzel","municipality":{"key":"12064393","name":"Prötzel","type":"Kreisangehörige_Gemeinde"},"district":{"key":"12064","name":"Märkisch-Oderland","type":"Landkreis"},"federalState":{"key":"12","name":"Brandenburg"}},{"name":"Sternebecker Dorfstr.","postalCode":"15345","locality":"Prötzel","municipality":{"key":"12064393","name":"Prötzel","type":"Kreisangehörige_Gemeinde"},"district":{"key":"12064","name":"Märkisch-Oderland","type":"Landkreis"},"federalState":{"key":"12","name":"Brandenburg"}},{"name":"Sternebecker Str.","postalCode":"15345","locality":"Prötzel","municipality":{"key":"12064393","name":"Prötzel","type":"Kreisangehörige_Gemeinde"},"district":{"key":"12064","name":"Märkisch-Oderland","type":"Landkreis"},"federalState":{"key":"12","name":"Brandenburg"}},{"name":"Strausberger Str.","postalCode":"15345","locality":"Prötzel","municipality":{"key":"12064393","name":"Prötzel","type":"Kreisangehörige_Gemeinde"},"district":{"key":"12064","name":"Märkisch-Oderland","type":"Landkreis"},"federalState":{"key":"12","name":"Brandenburg"}},{"name":"Wriezener Str.","postalCode":"15345","locality":"Prötzel","municipality":{"key":"12064393","name":"Prötzel","type":"Kreisangehörige_Gemeinde"},"district":{"key":"12064","name":"Märkisch-Oderland","type":"Landkreis"},"federalState":{"key":"12","name":"Brandenburg"}},{"name":"Zum Gutshof","postalCode":"15345","locality":"Prötzel","municipality":{"key":"12064393","name":"Prötzel","type":"Kreisangehörige_Gemeinde"},"district":{"key":"12064","name":"Märkisch-Oderland","type":"Landkreis"},"federalState":{"key":"12","name":"Brandenburg"}},{"name":"Zur Alten Ziegelei","postalCode":"15345","locality":"Prötzel","municipality":{"key":"12064393","name":"Prötzel","type":"Kreisangehörige_Gemeinde"},"district":{"key":"12064","name":"Märkisch-Oderland","type":"Landkreis"},"federalState":{"key":"12","name":"Brandenburg"}},]