[{"key":"10081411","name":"Allmeindlistrasse","postalCode":"8864","locality":"Reichenburg","commune":{"key":"1345","name":"Reichenburg","shortName":"Reichenburg"},"district":{"key":"505","name":"Bezirk March"},"canton":{"key":"5","code":"SZ","name":"Schwyz"},"status":"Real"},{"key":"10246793","name":"Auhof","postalCode":"8864","locality":"Reichenburg","commune":{"key":"1345","name":"Reichenburg","shortName":"Reichenburg"},"district":{"key":"505","name":"Bezirk March"},"canton":{"key":"5","code":"SZ","name":"Schwyz"},"status":"Planned"},{"key":"10177166","name":"Bahnhofstrasse","postalCode":"8864","locality":"Reichenburg","commune":{"key":"1345","name":"Reichenburg","shortName":"Reichenburg"},"district":{"key":"505","name":"Bezirk March"},"canton":{"key":"5","code":"SZ","name":"Schwyz"},"status":"Real"},{"key":"10055606","name":"Benknerstrasse","postalCode":"8864","locality":"Reichenburg","commune":{"key":"1345","name":"Reichenburg","shortName":"Reichenburg"},"district":{"key":"505","name":"Bezirk March"},"canton":{"key":"5","code":"SZ","name":"Schwyz"},"status":"Real"},{"key":"10129097","name":"Birkenweg","postalCode":"8864","locality":"Reichenburg","commune":{"key":"1345","name":"Reichenburg","shortName":"Reichenburg"},"district":{"key":"505","name":"Bezirk March"},"canton":{"key":"5","code":"SZ","name":"Schwyz"},"status":"Real"},{"key":"10019428","name":"Blankenweg","postalCode":"8864","locality":"Reichenburg","commune":{"key":"1345","name":"Reichenburg","shortName":"Reichenburg"},"district":{"key":"505","name":"Bezirk March"},"canton":{"key":"5","code":"SZ","name":"Schwyz"},"status":"Real"},{"key":"10154986","name":"Burgweg","postalCode":"8864","locality":"Reichenburg","commune":{"key":"1345","name":"Reichenburg","shortName":"Reichenburg"},"district":{"key":"505","name":"Bezirk March"},"canton":{"key":"5","code":"SZ","name":"Schwyz"},"status":"Real"},{"key":"10066213","name":"Burst","postalCode":"8864","locality":"Reichenburg","commune":{"key":"1345","name":"Reichenburg","shortName":"Reichenburg"},"district":{"key":"505","name":"Bezirk March"},"canton":{"key":"5","code":"SZ","name":"Schwyz"},"status":"Real"},{"key":"10019429","name":"Burstwiesenstrasse","postalCode":"8864","locality":"Reichenburg","commune":{"key":"1345","name":"Reichenburg","shortName":"Reichenburg"},"district":{"key":"505","name":"Bezirk March"},"canton":{"key":"5","code":"SZ","name":"Schwyz"},"status":"Real"},{"key":"10187445","name":"Chlösterlistrasse","postalCode":"8864","locality":"Reichenburg","commune":{"key":"1345","name":"Reichenburg","shortName":"Reichenburg"},"district":{"key":"505","name":"Bezirk March"},"canton":{"key":"5","code":"SZ","name":"Schwyz"},"status":"Real"},{"key":"10144102","name":"Dünnetenstrasse","postalCode":"8864","locality":"Reichenburg","commune":{"key":"1345","name":"Reichenburg","shortName":"Reichenburg"},"district":{"key":"505","name":"Bezirk March"},"canton":{"key":"5","code":"SZ","name":"Schwyz"},"status":"Real"},{"key":"10074735","name":"Ebnetweg","postalCode":"8864","locality":"Reichenburg","commune":{"key":"1345","name":"Reichenburg","shortName":"Reichenburg"},"district":{"key":"505","name":"Bezirk March"},"canton":{"key":"5","code":"SZ","name":"Schwyz"},"status":"Real"},{"key":"10066214","name":"Eichweg","postalCode":"8864","locality":"Reichenburg","commune":{"key":"1345","name":"Reichenburg","shortName":"Reichenburg"},"district":{"key":"505","name":"Bezirk March"},"canton":{"key":"5","code":"SZ","name":"Schwyz"},"status":"Real"},{"key":"10019430","name":"Eilweg","postalCode":"8864","locality":"Reichenburg","commune":{"key":"1345","name":"Reichenburg","shortName":"Reichenburg"},"district":{"key":"505","name":"Bezirk March"},"canton":{"key":"5","code":"SZ","name":"Schwyz"},"status":"Real"},{"key":"10015452","name":"Erlenweg","postalCode":"8864","locality":"Reichenburg","commune":{"key":"1345","name":"Reichenburg","shortName":"Reichenburg"},"district":{"key":"505","name":"Bezirk March"},"canton":{"key":"5","code":"SZ","name":"Schwyz"},"status":"Real"},{"key":"10019431","name":"Frohsinnwiesli","postalCode":"8864","locality":"Reichenburg","commune":{"key":"1345","name":"Reichenburg","shortName":"Reichenburg"},"district":{"key":"505","name":"Bezirk March"},"canton":{"key":"5","code":"SZ","name":"Schwyz"},"status":"Real"},{"key":"10019432","name":"Füchslen","postalCode":"8864","locality":"Reichenburg","commune":{"key":"1345","name":"Reichenburg","shortName":"Reichenburg"},"district":{"key":"505","name":"Bezirk March"},"canton":{"key":"5","code":"SZ","name":"Schwyz"},"status":"Real"},{"key":"10055607","name":"Gartenweg","postalCode":"8864","locality":"Reichenburg","commune":{"key":"1345","name":"Reichenburg","shortName":"Reichenburg"},"district":{"key":"505","name":"Bezirk March"},"canton":{"key":"5","code":"SZ","name":"Schwyz"},"status":"Real"},{"key":"10152616","name":"Gewerbestrasse","postalCode":"8864","locality":"Reichenburg","commune":{"key":"1345","name":"Reichenburg","shortName":"Reichenburg"},"district":{"key":"505","name":"Bezirk March"},"canton":{"key":"5","code":"SZ","name":"Schwyz"},"status":"Real"},{"key":"10223248","name":"Giessenstrasse","postalCode":"8864","locality":"Reichenburg","commune":{"key":"1345","name":"Reichenburg","shortName":"Reichenburg"},"district":{"key":"505","name":"Bezirk March"},"canton":{"key":"5","code":"SZ","name":"Schwyz"},"status":"Real"},{"key":"10074736","name":"Glänternstrasse","postalCode":"8864","locality":"Reichenburg","commune":{"key":"1345","name":"Reichenburg","shortName":"Reichenburg"},"district":{"key":"505","name":"Bezirk March"},"canton":{"key":"5","code":"SZ","name":"Schwyz"},"status":"Real"},{"key":"10110516","name":"Grubenweg","postalCode":"8864","locality":"Reichenburg","commune":{"key":"1345","name":"Reichenburg","shortName":"Reichenburg"},"district":{"key":"505","name":"Bezirk March"},"canton":{"key":"5","code":"SZ","name":"Schwyz"},"status":"Real"},{"key":"10066215","name":"Hirschlenstrasse","postalCode":"8864","locality":"Reichenburg","commune":{"key":"1345","name":"Reichenburg","shortName":"Reichenburg"},"district":{"key":"505","name":"Bezirk March"},"canton":{"key":"5","code":"SZ","name":"Schwyz"},"status":"Real"},{"key":"10177167","name":"Hirzliweg","postalCode":"8864","locality":"Reichenburg","commune":{"key":"1345","name":"Reichenburg","shortName":"Reichenburg"},"district":{"key":"505","name":"Bezirk March"},"canton":{"key":"5","code":"SZ","name":"Schwyz"},"status":"Real"},{"key":"10074737","name":"Höflistrasse","postalCode":"8864","locality":"Reichenburg","commune":{"key":"1345","name":"Reichenburg","shortName":"Reichenburg"},"district":{"key":"505","name":"Bezirk March"},"canton":{"key":"5","code":"SZ","name":"Schwyz"},"status":"Real"},{"key":"10019433","name":"Hofstrasse","postalCode":"8864","locality":"Reichenburg","commune":{"key":"1345","name":"Reichenburg","shortName":"Reichenburg"},"district":{"key":"505","name":"Bezirk March"},"canton":{"key":"5","code":"SZ","name":"Schwyz"},"status":"Real"},{"key":"10125463","name":"Im Büeli","postalCode":"8864","locality":"Reichenburg","commune":{"key":"1345","name":"Reichenburg","shortName":"Reichenburg"},"district":{"key":"505","name":"Bezirk March"},"canton":{"key":"5","code":"SZ","name":"Schwyz"},"status":"Real"},{"key":"10136790","name":"Im Schürli","postalCode":"8864","locality":"Reichenburg","commune":{"key":"1345","name":"Reichenburg","shortName":"Reichenburg"},"district":{"key":"505","name":"Bezirk March"},"canton":{"key":"5","code":"SZ","name":"Schwyz"},"status":"Real"},{"key":"10017662","name":"Industriestrasse","postalCode":"8864","locality":"Reichenburg","commune":{"key":"1345","name":"Reichenburg","shortName":"Reichenburg"},"district":{"key":"505","name":"Bezirk March"},"canton":{"key":"5","code":"SZ","name":"Schwyz"},"status":"Real"},{"key":"10017663","name":"Kalchbühlstrasse","postalCode":"8864","locality":"Reichenburg","commune":{"key":"1345","name":"Reichenburg","shortName":"Reichenburg"},"district":{"key":"505","name":"Bezirk March"},"canton":{"key":"5","code":"SZ","name":"Schwyz"},"status":"Real"},{"key":"10066216","name":"Kantonsstrasse","postalCode":"8864","locality":"Reichenburg","commune":{"key":"1345","name":"Reichenburg","shortName":"Reichenburg"},"district":{"key":"505","name":"Bezirk March"},"canton":{"key":"5","code":"SZ","name":"Schwyz"},"status":"Real"},{"key":"10074738","name":"Kanzleiweg","postalCode":"8864","locality":"Reichenburg","commune":{"key":"1345","name":"Reichenburg","shortName":"Reichenburg"},"district":{"key":"505","name":"Bezirk March"},"canton":{"key":"5","code":"SZ","name":"Schwyz"},"status":"Real"},{"key":"10017664","name":"Kirchweg","postalCode":"8864","locality":"Reichenburg","commune":{"key":"1345","name":"Reichenburg","shortName":"Reichenburg"},"district":{"key":"505","name":"Bezirk March"},"canton":{"key":"5","code":"SZ","name":"Schwyz"},"status":"Real"},{"key":"10164549","name":"Kistler Alp","postalCode":"8864","locality":"Reichenburg","commune":{"key":"1345","name":"Reichenburg","shortName":"Reichenburg"},"district":{"key":"505","name":"Bezirk March"},"canton":{"key":"5","code":"SZ","name":"Schwyz"},"status":"Real"},{"key":"10017665","name":"Kistlerstrasse","postalCode":"8864","locality":"Reichenburg","commune":{"key":"1345","name":"Reichenburg","shortName":"Reichenburg"},"district":{"key":"505","name":"Bezirk March"},"canton":{"key":"5","code":"SZ","name":"Schwyz"},"status":"Real"},{"key":"10178249","name":"Kronenwis","postalCode":"8864","locality":"Reichenburg","commune":{"key":"1345","name":"Reichenburg","shortName":"Reichenburg"},"district":{"key":"505","name":"Bezirk March"},"canton":{"key":"5","code":"SZ","name":"Schwyz"},"status":"Real"},{"key":"10115689","name":"Lachenweg","postalCode":"8864","locality":"Reichenburg","commune":{"key":"1345","name":"Reichenburg","shortName":"Reichenburg"},"district":{"key":"505","name":"Bezirk March"},"canton":{"key":"5","code":"SZ","name":"Schwyz"},"status":"Real"},{"key":"10074739","name":"Landhofstrasse","postalCode":"8864","locality":"Reichenburg","commune":{"key":"1345","name":"Reichenburg","shortName":"Reichenburg"},"district":{"key":"505","name":"Bezirk March"},"canton":{"key":"5","code":"SZ","name":"Schwyz"},"status":"Real"},{"key":"10223253","name":"Langholzriedstrasse","postalCode":"8864","locality":"Reichenburg","commune":{"key":"1345","name":"Reichenburg","shortName":"Reichenburg"},"district":{"key":"505","name":"Bezirk March"},"canton":{"key":"5","code":"SZ","name":"Schwyz"},"status":"Real"},{"key":"10170252","name":"Laui","postalCode":"8864","locality":"Reichenburg","commune":{"key":"1345","name":"Reichenburg","shortName":"Reichenburg"},"district":{"key":"505","name":"Bezirk March"},"canton":{"key":"5","code":"SZ","name":"Schwyz"},"status":"Real"},{"key":"10017666","name":"Leumenweg","postalCode":"8864","locality":"Reichenburg","commune":{"key":"1345","name":"Reichenburg","shortName":"Reichenburg"},"district":{"key":"505","name":"Bezirk March"},"canton":{"key":"5","code":"SZ","name":"Schwyz"},"status":"Real"},{"key":"10117440","name":"Lochmühle","postalCode":"8864","locality":"Reichenburg","commune":{"key":"1345","name":"Reichenburg","shortName":"Reichenburg"},"district":{"key":"505","name":"Bezirk March"},"canton":{"key":"5","code":"SZ","name":"Schwyz"},"status":"Real"},{"key":"10017667","name":"Merikenstrasse","postalCode":"8864","locality":"Reichenburg","commune":{"key":"1345","name":"Reichenburg","shortName":"Reichenburg"},"district":{"key":"505","name":"Bezirk March"},"canton":{"key":"5","code":"SZ","name":"Schwyz"},"status":"Real"},{"key":"10104833","name":"Mittelbergstrasse","postalCode":"8864","locality":"Reichenburg","commune":{"key":"1345","name":"Reichenburg","shortName":"Reichenburg"},"district":{"key":"505","name":"Bezirk March"},"canton":{"key":"5","code":"SZ","name":"Schwyz"},"status":"Real"},{"key":"10125465","name":"Mooswiesstrasse","postalCode":"8864","locality":"Reichenburg","commune":{"key":"1345","name":"Reichenburg","shortName":"Reichenburg"},"district":{"key":"505","name":"Bezirk March"},"canton":{"key":"5","code":"SZ","name":"Schwyz"},"status":"Real"},{"key":"10074740","name":"Mühlestrasse","postalCode":"8864","locality":"Reichenburg","commune":{"key":"1345","name":"Reichenburg","shortName":"Reichenburg"},"district":{"key":"505","name":"Bezirk March"},"canton":{"key":"5","code":"SZ","name":"Schwyz"},"status":"Real"},{"key":"10017668","name":"Mühleweg","postalCode":"8864","locality":"Reichenburg","commune":{"key":"1345","name":"Reichenburg","shortName":"Reichenburg"},"district":{"key":"505","name":"Bezirk March"},"canton":{"key":"5","code":"SZ","name":"Schwyz"},"status":"Real"},{"key":"10017669","name":"Mühlewiesstrasse","postalCode":"8864","locality":"Reichenburg","commune":{"key":"1345","name":"Reichenburg","shortName":"Reichenburg"},"district":{"key":"505","name":"Bezirk March"},"canton":{"key":"5","code":"SZ","name":"Schwyz"},"status":"Real"},{"key":"10017670","name":"Mürtschenweg","postalCode":"8864","locality":"Reichenburg","commune":{"key":"1345","name":"Reichenburg","shortName":"Reichenburg"},"district":{"key":"505","name":"Bezirk March"},"canton":{"key":"5","code":"SZ","name":"Schwyz"},"status":"Real"},{"key":"10131246","name":"Neulandstrasse","postalCode":"8864","locality":"Reichenburg","commune":{"key":"1345","name":"Reichenburg","shortName":"Reichenburg"},"district":{"key":"505","name":"Bezirk March"},"canton":{"key":"5","code":"SZ","name":"Schwyz"},"status":"Real"},{"key":"10165674","name":"Nöchen Alp","postalCode":"8864","locality":"Reichenburg","commune":{"key":"1345","name":"Reichenburg","shortName":"Reichenburg"},"district":{"key":"505","name":"Bezirk March"},"canton":{"key":"5","code":"SZ","name":"Schwyz"},"status":"Real"},{"key":"10190815","name":"Nöchenweg","postalCode":"8864","locality":"Reichenburg","commune":{"key":"1345","name":"Reichenburg","shortName":"Reichenburg"},"district":{"key":"505","name":"Bezirk March"},"canton":{"key":"5","code":"SZ","name":"Schwyz"},"status":"Real"},{"key":"10110517","name":"Oberallmeindstrasse","postalCode":"8864","locality":"Reichenburg","commune":{"key":"1345","name":"Reichenburg","shortName":"Reichenburg"},"district":{"key":"505","name":"Bezirk March"},"canton":{"key":"5","code":"SZ","name":"Schwyz"},"status":"Real"},{"key":"10142114","name":"Obere Allmeind","postalCode":"8864","locality":"Reichenburg","commune":{"key":"1345","name":"Reichenburg","shortName":"Reichenburg"},"district":{"key":"505","name":"Bezirk March"},"canton":{"key":"5","code":"SZ","name":"Schwyz"},"status":"Real"},{"key":"10178250","name":"Obergrubenhof","postalCode":"8864","locality":"Reichenburg","commune":{"key":"1345","name":"Reichenburg","shortName":"Reichenburg"},"district":{"key":"505","name":"Bezirk March"},"canton":{"key":"5","code":"SZ","name":"Schwyz"},"status":"Real"},{"key":"10074741","name":"Obertafletenstrasse","postalCode":"8864","locality":"Reichenburg","commune":{"key":"1345","name":"Reichenburg","shortName":"Reichenburg"},"district":{"key":"505","name":"Bezirk March"},"canton":{"key":"5","code":"SZ","name":"Schwyz"},"status":"Real"},{"key":"10223255","name":"Rädlibodenstrasse","postalCode":"8864","locality":"Reichenburg","commune":{"key":"1345","name":"Reichenburg","shortName":"Reichenburg"},"district":{"key":"505","name":"Bezirk March"},"canton":{"key":"5","code":"SZ","name":"Schwyz"},"status":"Real"},{"key":"10017671","name":"Rohrwiesstrasse","postalCode":"8864","locality":"Reichenburg","commune":{"key":"1345","name":"Reichenburg","shortName":"Reichenburg"},"district":{"key":"505","name":"Bezirk March"},"canton":{"key":"5","code":"SZ","name":"Schwyz"},"status":"Real"},{"key":"10066217","name":"Rütibachstrasse","postalCode":"8864","locality":"Reichenburg","commune":{"key":"1345","name":"Reichenburg","shortName":"Reichenburg"},"district":{"key":"505","name":"Bezirk March"},"canton":{"key":"5","code":"SZ","name":"Schwyz"},"status":"Real"},{"key":"10223259","name":"Schäflibachstrasse","postalCode":"8864","locality":"Reichenburg","commune":{"key":"1345","name":"Reichenburg","shortName":"Reichenburg"},"district":{"key":"505","name":"Bezirk March"},"canton":{"key":"5","code":"SZ","name":"Schwyz"},"status":"Real"},{"key":"10017672","name":"Schandelnstrasse","postalCode":"8864","locality":"Reichenburg","commune":{"key":"1345","name":"Reichenburg","shortName":"Reichenburg"},"district":{"key":"505","name":"Bezirk March"},"canton":{"key":"5","code":"SZ","name":"Schwyz"},"status":"Real"},{"key":"10149349","name":"Schmidhofstrasse","postalCode":"8864","locality":"Reichenburg","commune":{"key":"1345","name":"Reichenburg","shortName":"Reichenburg"},"district":{"key":"505","name":"Bezirk March"},"canton":{"key":"5","code":"SZ","name":"Schwyz"},"status":"Real"},{"key":"10074742","name":"Schnellernstrasse","postalCode":"8864","locality":"Reichenburg","commune":{"key":"1345","name":"Reichenburg","shortName":"Reichenburg"},"district":{"key":"505","name":"Bezirk March"},"canton":{"key":"5","code":"SZ","name":"Schwyz"},"status":"Real"},{"key":"10017674","name":"Schürwiesweg","postalCode":"8864","locality":"Reichenburg","commune":{"key":"1345","name":"Reichenburg","shortName":"Reichenburg"},"district":{"key":"505","name":"Bezirk March"},"canton":{"key":"5","code":"SZ","name":"Schwyz"},"status":"Real"},{"key":"10165675","name":"Schwanten","postalCode":"8864","locality":"Reichenburg","commune":{"key":"1345","name":"Reichenburg","shortName":"Reichenburg"},"district":{"key":"505","name":"Bezirk March"},"canton":{"key":"5","code":"SZ","name":"Schwyz"},"status":"Real"},{"key":"10017673","name":"Schwantenweg","postalCode":"8864","locality":"Reichenburg","commune":{"key":"1345","name":"Reichenburg","shortName":"Reichenburg"},"district":{"key":"505","name":"Bezirk March"},"canton":{"key":"5","code":"SZ","name":"Schwyz"},"status":"Real"},{"key":"10017675","name":"Sonnmatt","postalCode":"8864","locality":"Reichenburg","commune":{"key":"1345","name":"Reichenburg","shortName":"Reichenburg"},"district":{"key":"505","name":"Bezirk March"},"canton":{"key":"5","code":"SZ","name":"Schwyz"},"status":"Real"},{"key":"10066218","name":"Speerstrasse","postalCode":"8864","locality":"Reichenburg","commune":{"key":"1345","name":"Reichenburg","shortName":"Reichenburg"},"district":{"key":"505","name":"Bezirk March"},"canton":{"key":"5","code":"SZ","name":"Schwyz"},"status":"Real"},{"key":"10017676","name":"Spielhofstrasse","postalCode":"8864","locality":"Reichenburg","commune":{"key":"1345","name":"Reichenburg","shortName":"Reichenburg"},"district":{"key":"505","name":"Bezirk March"},"canton":{"key":"5","code":"SZ","name":"Schwyz"},"status":"Real"},{"key":"10074743","name":"Steinenbruggstrasse","postalCode":"8864","locality":"Reichenburg","commune":{"key":"1345","name":"Reichenburg","shortName":"Reichenburg"},"district":{"key":"505","name":"Bezirk March"},"canton":{"key":"5","code":"SZ","name":"Schwyz"},"status":"Real"},{"key":"10178251","name":"Stutzstrasse","postalCode":"8864","locality":"Reichenburg","commune":{"key":"1345","name":"Reichenburg","shortName":"Reichenburg"},"district":{"key":"505","name":"Bezirk March"},"canton":{"key":"5","code":"SZ","name":"Schwyz"},"status":"Real"},{"key":"10017677","name":"Süsswinkelstrasse","postalCode":"8864","locality":"Reichenburg","commune":{"key":"1345","name":"Reichenburg","shortName":"Reichenburg"},"district":{"key":"505","name":"Bezirk March"},"canton":{"key":"5","code":"SZ","name":"Schwyz"},"status":"Real"},{"key":"10176749","name":"Untere Burgwies","postalCode":"8864","locality":"Reichenburg","commune":{"key":"1345","name":"Reichenburg","shortName":"Reichenburg"},"district":{"key":"505","name":"Bezirk March"},"canton":{"key":"5","code":"SZ","name":"Schwyz"},"status":"Real"},{"key":"10223265","name":"Unterriedstrasse","postalCode":"8864","locality":"Reichenburg","commune":{"key":"1345","name":"Reichenburg","shortName":"Reichenburg"},"district":{"key":"505","name":"Bezirk March"},"canton":{"key":"5","code":"SZ","name":"Schwyz"},"status":"Real"},{"key":"10066219","name":"Untertafletenstrasse","postalCode":"8864","locality":"Reichenburg","commune":{"key":"1345","name":"Reichenburg","shortName":"Reichenburg"},"district":{"key":"505","name":"Bezirk March"},"canton":{"key":"5","code":"SZ","name":"Schwyz"},"status":"Real"},{"key":"10074744","name":"Ussbergstrasse","postalCode":"8864","locality":"Reichenburg","commune":{"key":"1345","name":"Reichenburg","shortName":"Reichenburg"},"district":{"key":"505","name":"Bezirk March"},"canton":{"key":"5","code":"SZ","name":"Schwyz"},"status":"Real"},{"key":"10115774","name":"Vogtswisstrasse","postalCode":"8864","locality":"Reichenburg","commune":{"key":"1345","name":"Reichenburg","shortName":"Reichenburg"},"district":{"key":"505","name":"Bezirk March"},"canton":{"key":"5","code":"SZ","name":"Schwyz"},"status":"Real"},{"key":"10112687","name":"Zur Käserei","postalCode":"8864","locality":"Reichenburg","commune":{"key":"1345","name":"Reichenburg","shortName":"Reichenburg"},"district":{"key":"505","name":"Bezirk March"},"canton":{"key":"5","code":"SZ","name":"Schwyz"},"status":"Real"},]