[{"name":"Am Brünnchen","postalCode":"54317","locality":"Korlingen","municipality":{"key":"07235070","name":"Korlingen","type":"Kreisangehörige_Gemeinde"},"district":{"key":"07235","name":"Trier-Saarburg","type":"Landkreis"},"federalState":{"key":"07","name":"Rheinland-Pfalz"}},{"name":"Auf dem Hohlweg","postalCode":"54317","locality":"Korlingen","municipality":{"key":"07235070","name":"Korlingen","type":"Kreisangehörige_Gemeinde"},"district":{"key":"07235","name":"Trier-Saarburg","type":"Landkreis"},"federalState":{"key":"07","name":"Rheinland-Pfalz"}},{"name":"Auf der Träf","postalCode":"54317","locality":"Korlingen","municipality":{"key":"07235070","name":"Korlingen","type":"Kreisangehörige_Gemeinde"},"district":{"key":"07235","name":"Trier-Saarburg","type":"Landkreis"},"federalState":{"key":"07","name":"Rheinland-Pfalz"}},{"name":"Bergstr.","postalCode":"54317","locality":"Korlingen","municipality":{"key":"07235070","name":"Korlingen","type":"Kreisangehörige_Gemeinde"},"district":{"key":"07235","name":"Trier-Saarburg","type":"Landkreis"},"federalState":{"key":"07","name":"Rheinland-Pfalz"}},{"name":"Breitenweg","postalCode":"54317","locality":"Korlingen","municipality":{"key":"07235070","name":"Korlingen","type":"Kreisangehörige_Gemeinde"},"district":{"key":"07235","name":"Trier-Saarburg","type":"Landkreis"},"federalState":{"key":"07","name":"Rheinland-Pfalz"}},{"name":"Im Karlof","postalCode":"54317","locality":"Korlingen","municipality":{"key":"07235070","name":"Korlingen","type":"Kreisangehörige_Gemeinde"},"district":{"key":"07235","name":"Trier-Saarburg","type":"Landkreis"},"federalState":{"key":"07","name":"Rheinland-Pfalz"}},{"name":"Im Mühlengrund","postalCode":"54317","locality":"Korlingen","municipality":{"key":"07235070","name":"Korlingen","type":"Kreisangehörige_Gemeinde"},"district":{"key":"07235","name":"Trier-Saarburg","type":"Landkreis"},"federalState":{"key":"07","name":"Rheinland-Pfalz"}},{"name":"Im Süßenbungert","postalCode":"54317","locality":"Korlingen","municipality":{"key":"07235070","name":"Korlingen","type":"Kreisangehörige_Gemeinde"},"district":{"key":"07235","name":"Trier-Saarburg","type":"Landkreis"},"federalState":{"key":"07","name":"Rheinland-Pfalz"}},{"name":"Johannesstr.","postalCode":"54317","locality":"Korlingen","municipality":{"key":"07235070","name":"Korlingen","type":"Kreisangehörige_Gemeinde"},"district":{"key":"07235","name":"Trier-Saarburg","type":"Landkreis"},"federalState":{"key":"07","name":"Rheinland-Pfalz"}},{"name":"Kapellenstr.","postalCode":"54317","locality":"Korlingen","municipality":{"key":"07235070","name":"Korlingen","type":"Kreisangehörige_Gemeinde"},"district":{"key":"07235","name":"Trier-Saarburg","type":"Landkreis"},"federalState":{"key":"07","name":"Rheinland-Pfalz"}},{"name":"Korlinger Mühle","postalCode":"54317","locality":"Korlingen","municipality":{"key":"07235070","name":"Korlingen","type":"Kreisangehörige_Gemeinde"},"district":{"key":"07235","name":"Trier-Saarburg","type":"Landkreis"},"federalState":{"key":"07","name":"Rheinland-Pfalz"}},{"name":"Marienstr.","postalCode":"54317","locality":"Korlingen","municipality":{"key":"07235070","name":"Korlingen","type":"Kreisangehörige_Gemeinde"},"district":{"key":"07235","name":"Trier-Saarburg","type":"Landkreis"},"federalState":{"key":"07","name":"Rheinland-Pfalz"}},{"name":"Mühlenstr.","postalCode":"54317","locality":"Korlingen","municipality":{"key":"07235070","name":"Korlingen","type":"Kreisangehörige_Gemeinde"},"district":{"key":"07235","name":"Trier-Saarburg","type":"Landkreis"},"federalState":{"key":"07","name":"Rheinland-Pfalz"}},{"name":"Neustr.","postalCode":"54317","locality":"Korlingen","municipality":{"key":"07235070","name":"Korlingen","type":"Kreisangehörige_Gemeinde"},"district":{"key":"07235","name":"Trier-Saarburg","type":"Landkreis"},"federalState":{"key":"07","name":"Rheinland-Pfalz"}},{"name":"Romikastr.","postalCode":"54317","locality":"Korlingen","municipality":{"key":"07235070","name":"Korlingen","type":"Kreisangehörige_Gemeinde"},"district":{"key":"07235","name":"Trier-Saarburg","type":"Landkreis"},"federalState":{"key":"07","name":"Rheinland-Pfalz"}},{"name":"Ruwertalstr.","postalCode":"54317","locality":"Korlingen","municipality":{"key":"07235070","name":"Korlingen","type":"Kreisangehörige_Gemeinde"},"district":{"key":"07235","name":"Trier-Saarburg","type":"Landkreis"},"federalState":{"key":"07","name":"Rheinland-Pfalz"}},{"name":"Tarforster Str.","postalCode":"54317","locality":"Korlingen","municipality":{"key":"07235070","name":"Korlingen","type":"Kreisangehörige_Gemeinde"},"district":{"key":"07235","name":"Trier-Saarburg","type":"Landkreis"},"federalState":{"key":"07","name":"Rheinland-Pfalz"}},{"name":"Trierer Str.","postalCode":"54317","locality":"Korlingen","municipality":{"key":"07235070","name":"Korlingen","type":"Kreisangehörige_Gemeinde"},"district":{"key":"07235","name":"Trier-Saarburg","type":"Landkreis"},"federalState":{"key":"07","name":"Rheinland-Pfalz"}},{"name":"Valentinstr.","postalCode":"54317","locality":"Korlingen","municipality":{"key":"07235070","name":"Korlingen","type":"Kreisangehörige_Gemeinde"},"district":{"key":"07235","name":"Trier-Saarburg","type":"Landkreis"},"federalState":{"key":"07","name":"Rheinland-Pfalz"}},{"name":"Waldracher Str.","postalCode":"54317","locality":"Korlingen","municipality":{"key":"07235070","name":"Korlingen","type":"Kreisangehörige_Gemeinde"},"district":{"key":"07235","name":"Trier-Saarburg","type":"Landkreis"},"federalState":{"key":"07","name":"Rheinland-Pfalz"}},{"name":"Weinbergstr.","postalCode":"54317","locality":"Korlingen","municipality":{"key":"07235070","name":"Korlingen","type":"Kreisangehörige_Gemeinde"},"district":{"key":"07235","name":"Trier-Saarburg","type":"Landkreis"},"federalState":{"key":"07","name":"Rheinland-Pfalz"}},{"name":"Zum Steinbruch","postalCode":"54317","locality":"Korlingen","municipality":{"key":"07235070","name":"Korlingen","type":"Kreisangehörige_Gemeinde"},"district":{"key":"07235","name":"Trier-Saarburg","type":"Landkreis"},"federalState":{"key":"07","name":"Rheinland-Pfalz"}},{"name":"Zur Laykaul","postalCode":"54317","locality":"Korlingen","municipality":{"key":"07235070","name":"Korlingen","type":"Kreisangehörige_Gemeinde"},"district":{"key":"07235","name":"Trier-Saarburg","type":"Landkreis"},"federalState":{"key":"07","name":"Rheinland-Pfalz"}},]