[{"name":"Aacher Str.","postalCode":"72293","locality":"Glatten","municipality":{"key":"08237030","name":"Glatten","type":"Kreisangehörige_Gemeinde"},"district":{"key":"08237","name":"Freudenstadt","type":"Landkreis"},"federalState":{"key":"08","name":"Baden-Württemberg"}},{"name":"Abkürzung Zaunkönig","postalCode":"72293","locality":"Glatten","municipality":{"key":"08237030","name":"Glatten","type":"Kreisangehörige_Gemeinde"},"district":{"key":"08237","name":"Freudenstadt","type":"Landkreis"},"federalState":{"key":"08","name":"Baden-Württemberg"}},{"name":"Allmandstr.","postalCode":"72293","locality":"Glatten","municipality":{"key":"08237030","name":"Glatten","type":"Kreisangehörige_Gemeinde"},"district":{"key":"08237","name":"Freudenstadt","type":"Landkreis"},"federalState":{"key":"08","name":"Baden-Württemberg"}},{"name":"Alt Egart","postalCode":"72293","locality":"Glatten","municipality":{"key":"08237030","name":"Glatten","type":"Kreisangehörige_Gemeinde"},"district":{"key":"08237","name":"Freudenstadt","type":"Landkreis"},"federalState":{"key":"08","name":"Baden-Württemberg"}},{"name":"Alter Mühleweg","postalCode":"72293","locality":"Glatten","municipality":{"key":"08237030","name":"Glatten","type":"Kreisangehörige_Gemeinde"},"district":{"key":"08237","name":"Freudenstadt","type":"Landkreis"},"federalState":{"key":"08","name":"Baden-Württemberg"}},{"name":"Alte Schopflocher Steige","postalCode":"72293","locality":"Glatten","municipality":{"key":"08237030","name":"Glatten","type":"Kreisangehörige_Gemeinde"},"district":{"key":"08237","name":"Freudenstadt","type":"Landkreis"},"federalState":{"key":"08","name":"Baden-Württemberg"}},{"name":"Am Stich","postalCode":"72293","locality":"Glatten","municipality":{"key":"08237030","name":"Glatten","type":"Kreisangehörige_Gemeinde"},"district":{"key":"08237","name":"Freudenstadt","type":"Landkreis"},"federalState":{"key":"08","name":"Baden-Württemberg"}},{"name":"Bachstr.","postalCode":"72293","locality":"Glatten","municipality":{"key":"08237030","name":"Glatten","type":"Kreisangehörige_Gemeinde"},"district":{"key":"08237","name":"Freudenstadt","type":"Landkreis"},"federalState":{"key":"08","name":"Baden-Württemberg"}},{"name":"Bellenstein","postalCode":"72293","locality":"Glatten","municipality":{"key":"08237030","name":"Glatten","type":"Kreisangehörige_Gemeinde"},"district":{"key":"08237","name":"Freudenstadt","type":"Landkreis"},"federalState":{"key":"08","name":"Baden-Württemberg"}},{"name":"Bergstr.","postalCode":"72293","locality":"Glatten","municipality":{"key":"08237030","name":"Glatten","type":"Kreisangehörige_Gemeinde"},"district":{"key":"08237","name":"Freudenstadt","type":"Landkreis"},"federalState":{"key":"08","name":"Baden-Württemberg"}},{"name":"Birkenrain","postalCode":"72293","locality":"Glatten","municipality":{"key":"08237030","name":"Glatten","type":"Kreisangehörige_Gemeinde"},"district":{"key":"08237","name":"Freudenstadt","type":"Landkreis"},"federalState":{"key":"08","name":"Baden-Württemberg"}},{"name":"Birkenstr.","postalCode":"72293","locality":"Glatten","municipality":{"key":"08237030","name":"Glatten","type":"Kreisangehörige_Gemeinde"},"district":{"key":"08237","name":"Freudenstadt","type":"Landkreis"},"federalState":{"key":"08","name":"Baden-Württemberg"}},{"name":"Böffinger Str.","postalCode":"72293","locality":"Glatten","municipality":{"key":"08237030","name":"Glatten","type":"Kreisangehörige_Gemeinde"},"district":{"key":"08237","name":"Freudenstadt","type":"Landkreis"},"federalState":{"key":"08","name":"Baden-Württemberg"}},{"name":"Buchenweg","postalCode":"72293","locality":"Glatten","municipality":{"key":"08237030","name":"Glatten","type":"Kreisangehörige_Gemeinde"},"district":{"key":"08237","name":"Freudenstadt","type":"Landkreis"},"federalState":{"key":"08","name":"Baden-Württemberg"}},{"name":"Bühlstr.","postalCode":"72293","locality":"Glatten","municipality":{"key":"08237030","name":"Glatten","type":"Kreisangehörige_Gemeinde"},"district":{"key":"08237","name":"Freudenstadt","type":"Landkreis"},"federalState":{"key":"08","name":"Baden-Württemberg"}},{"name":"Carl-Beer-Str.","postalCode":"72250","locality":"Freudenstadt","municipality":{"key":"08237028","name":"Freudenstadt, Stadt","type":"Große_Kreisstadt"},"district":{"key":"08237","name":"Freudenstadt","type":"Landkreis"},"federalState":{"key":"08","name":"Baden-Württemberg"}},{"name":"Carl-Benz-Str.","postalCode":"72250","locality":"Freudenstadt","municipality":{"key":"08237028","name":"Freudenstadt, Stadt","type":"Große_Kreisstadt"},"district":{"key":"08237","name":"Freudenstadt","type":"Landkreis"},"federalState":{"key":"08","name":"Baden-Württemberg"}},{"name":"Carl-Zeiss-Str.","postalCode":"72250","locality":"Freudenstadt","municipality":{"key":"08237028","name":"Freudenstadt, Stadt","type":"Große_Kreisstadt"},"district":{"key":"08237","name":"Freudenstadt","type":"Landkreis"},"federalState":{"key":"08","name":"Baden-Württemberg"}},{"name":"Christophstaler Steige","postalCode":"72250","locality":"Freudenstadt","municipality":{"key":"08237028","name":"Freudenstadt, Stadt","type":"Große_Kreisstadt"},"district":{"key":"08237","name":"Freudenstadt","type":"Landkreis"},"federalState":{"key":"08","name":"Baden-Württemberg"}},{"name":"Christophstr.","postalCode":"72250","locality":"Freudenstadt","municipality":{"key":"08237028","name":"Freudenstadt, Stadt","type":"Große_Kreisstadt"},"district":{"key":"08237","name":"Freudenstadt","type":"Landkreis"},"federalState":{"key":"08","name":"Baden-Württemberg"}},{"name":"Clara-Schumann-Weg","postalCode":"72250","locality":"Freudenstadt","municipality":{"key":"08237028","name":"Freudenstadt, Stadt","type":"Große_Kreisstadt"},"district":{"key":"08237","name":"Freudenstadt","type":"Landkreis"},"federalState":{"key":"08","name":"Baden-Württemberg"}},{"name":"Dietersweiler Str.","postalCode":"72293","locality":"Glatten","municipality":{"key":"08237030","name":"Glatten","type":"Kreisangehörige_Gemeinde"},"district":{"key":"08237","name":"Freudenstadt","type":"Landkreis"},"federalState":{"key":"08","name":"Baden-Württemberg"}},{"name":"Döllestr.","postalCode":"72293","locality":"Glatten","municipality":{"key":"08237030","name":"Glatten","type":"Kreisangehörige_Gemeinde"},"district":{"key":"08237","name":"Freudenstadt","type":"Landkreis"},"federalState":{"key":"08","name":"Baden-Württemberg"}},{"name":"Dornstetter Str.","postalCode":"72293","locality":"Glatten","municipality":{"key":"08237030","name":"Glatten","type":"Kreisangehörige_Gemeinde"},"district":{"key":"08237","name":"Freudenstadt","type":"Landkreis"},"federalState":{"key":"08","name":"Baden-Württemberg"}},{"name":"Eschäckerweg","postalCode":"72293","locality":"Glatten","municipality":{"key":"08237030","name":"Glatten","type":"Kreisangehörige_Gemeinde"},"district":{"key":"08237","name":"Freudenstadt","type":"Landkreis"},"federalState":{"key":"08","name":"Baden-Württemberg"}},{"name":"Eschenweg","postalCode":"72293","locality":"Glatten","municipality":{"key":"08237030","name":"Glatten","type":"Kreisangehörige_Gemeinde"},"district":{"key":"08237","name":"Freudenstadt","type":"Landkreis"},"federalState":{"key":"08","name":"Baden-Württemberg"}},{"name":"Frühlingsstr.","postalCode":"72293","locality":"Glatten","municipality":{"key":"08237030","name":"Glatten","type":"Kreisangehörige_Gemeinde"},"district":{"key":"08237","name":"Freudenstadt","type":"Landkreis"},"federalState":{"key":"08","name":"Baden-Württemberg"}},{"name":"Gartenstr.","postalCode":"72293","locality":"Glatten","municipality":{"key":"08237030","name":"Glatten","type":"Kreisangehörige_Gemeinde"},"district":{"key":"08237","name":"Freudenstadt","type":"Landkreis"},"federalState":{"key":"08","name":"Baden-Württemberg"}},{"name":"Glattalstr.","postalCode":"72293","locality":"Glatten","municipality":{"key":"08237030","name":"Glatten","type":"Kreisangehörige_Gemeinde"},"district":{"key":"08237","name":"Freudenstadt","type":"Landkreis"},"federalState":{"key":"08","name":"Baden-Württemberg"}},{"name":"Glattener Str.","postalCode":"72293","locality":"Glatten","municipality":{"key":"08237030","name":"Glatten","type":"Kreisangehörige_Gemeinde"},"district":{"key":"08237","name":"Freudenstadt","type":"Landkreis"},"federalState":{"key":"08","name":"Baden-Württemberg"}},{"name":"Häfnerstr.","postalCode":"72293","locality":"Glatten","municipality":{"key":"08237030","name":"Glatten","type":"Kreisangehörige_Gemeinde"},"district":{"key":"08237","name":"Freudenstadt","type":"Landkreis"},"federalState":{"key":"08","name":"Baden-Württemberg"}},{"name":"Hallwiesenweg","postalCode":"72293","locality":"Glatten","municipality":{"key":"08237030","name":"Glatten","type":"Kreisangehörige_Gemeinde"},"district":{"key":"08237","name":"Freudenstadt","type":"Landkreis"},"federalState":{"key":"08","name":"Baden-Württemberg"}},{"name":"Harteckweg","postalCode":"72293","locality":"Glatten","municipality":{"key":"08237030","name":"Glatten","type":"Kreisangehörige_Gemeinde"},"district":{"key":"08237","name":"Freudenstadt","type":"Landkreis"},"federalState":{"key":"08","name":"Baden-Württemberg"}},{"name":"Hinter der Kirche","postalCode":"72293","locality":"Glatten","municipality":{"key":"08237030","name":"Glatten","type":"Kreisangehörige_Gemeinde"},"district":{"key":"08237","name":"Freudenstadt","type":"Landkreis"},"federalState":{"key":"08","name":"Baden-Württemberg"}},{"name":"Hofackerstr.","postalCode":"72293","locality":"Glatten","municipality":{"key":"08237030","name":"Glatten","type":"Kreisangehörige_Gemeinde"},"district":{"key":"08237","name":"Freudenstadt","type":"Landkreis"},"federalState":{"key":"08","name":"Baden-Württemberg"}},{"name":"Hofstr.","postalCode":"72293","locality":"Glatten","municipality":{"key":"08237030","name":"Glatten","type":"Kreisangehörige_Gemeinde"},"district":{"key":"08237","name":"Freudenstadt","type":"Landkreis"},"federalState":{"key":"08","name":"Baden-Württemberg"}},{"name":"Hölderlinstr.","postalCode":"72293","locality":"Glatten","municipality":{"key":"08237030","name":"Glatten","type":"Kreisangehörige_Gemeinde"},"district":{"key":"08237","name":"Freudenstadt","type":"Landkreis"},"federalState":{"key":"08","name":"Baden-Württemberg"}},{"name":"Hutwiesenweg","postalCode":"72293","locality":"Glatten","municipality":{"key":"08237030","name":"Glatten","type":"Kreisangehörige_Gemeinde"},"district":{"key":"08237","name":"Freudenstadt","type":"Landkreis"},"federalState":{"key":"08","name":"Baden-Württemberg"}},{"name":"Im Beckenacker","postalCode":"72293","locality":"Glatten","municipality":{"key":"08237030","name":"Glatten","type":"Kreisangehörige_Gemeinde"},"district":{"key":"08237","name":"Freudenstadt","type":"Landkreis"},"federalState":{"key":"08","name":"Baden-Württemberg"}},{"name":"Im Gries","postalCode":"72293","locality":"Glatten","municipality":{"key":"08237030","name":"Glatten","type":"Kreisangehörige_Gemeinde"},"district":{"key":"08237","name":"Freudenstadt","type":"Landkreis"},"federalState":{"key":"08","name":"Baden-Württemberg"}},{"name":"In der Luge","postalCode":"72293","locality":"Glatten","municipality":{"key":"08237030","name":"Glatten","type":"Kreisangehörige_Gemeinde"},"district":{"key":"08237","name":"Freudenstadt","type":"Landkreis"},"federalState":{"key":"08","name":"Baden-Württemberg"}},{"name":"Johannes-Schmalz-Str.","postalCode":"72293","locality":"Glatten","municipality":{"key":"08237030","name":"Glatten","type":"Kreisangehörige_Gemeinde"},"district":{"key":"08237","name":"Freudenstadt","type":"Landkreis"},"federalState":{"key":"08","name":"Baden-Württemberg"}},{"name":"Kirchstr.","postalCode":"72293","locality":"Glatten","municipality":{"key":"08237030","name":"Glatten","type":"Kreisangehörige_Gemeinde"},"district":{"key":"08237","name":"Freudenstadt","type":"Landkreis"},"federalState":{"key":"08","name":"Baden-Württemberg"}},{"name":"Küferweg","postalCode":"72293","locality":"Glatten","municipality":{"key":"08237030","name":"Glatten","type":"Kreisangehörige_Gemeinde"},"district":{"key":"08237","name":"Freudenstadt","type":"Landkreis"},"federalState":{"key":"08","name":"Baden-Württemberg"}},{"name":"Laibergasse","postalCode":"72293","locality":"Glatten","municipality":{"key":"08237030","name":"Glatten","type":"Kreisangehörige_Gemeinde"},"district":{"key":"08237","name":"Freudenstadt","type":"Landkreis"},"federalState":{"key":"08","name":"Baden-Württemberg"}},{"name":"Lange Gass","postalCode":"72293","locality":"Glatten","municipality":{"key":"08237030","name":"Glatten","type":"Kreisangehörige_Gemeinde"},"district":{"key":"08237","name":"Freudenstadt","type":"Landkreis"},"federalState":{"key":"08","name":"Baden-Württemberg"}},{"name":"Lindenweg","postalCode":"72293","locality":"Glatten","municipality":{"key":"08237030","name":"Glatten","type":"Kreisangehörige_Gemeinde"},"district":{"key":"08237","name":"Freudenstadt","type":"Landkreis"},"federalState":{"key":"08","name":"Baden-Württemberg"}},{"name":"Lombacher Str.","postalCode":"72293","locality":"Glatten","municipality":{"key":"08237030","name":"Glatten","type":"Kreisangehörige_Gemeinde"},"district":{"key":"08237","name":"Freudenstadt","type":"Landkreis"},"federalState":{"key":"08","name":"Baden-Württemberg"}},{"name":"Mühlgasse","postalCode":"72293","locality":"Glatten","municipality":{"key":"08237030","name":"Glatten","type":"Kreisangehörige_Gemeinde"},"district":{"key":"08237","name":"Freudenstadt","type":"Landkreis"},"federalState":{"key":"08","name":"Baden-Württemberg"}},{"name":"Neunecker Str.","postalCode":"72293","locality":"Glatten","municipality":{"key":"08237030","name":"Glatten","type":"Kreisangehörige_Gemeinde"},"district":{"key":"08237","name":"Freudenstadt","type":"Landkreis"},"federalState":{"key":"08","name":"Baden-Württemberg"}},{"name":"Niederhofer Str.","postalCode":"72293","locality":"Glatten","municipality":{"key":"08237030","name":"Glatten","type":"Kreisangehörige_Gemeinde"},"district":{"key":"08237","name":"Freudenstadt","type":"Landkreis"},"federalState":{"key":"08","name":"Baden-Württemberg"}},{"name":"Oberiflinger Str.","postalCode":"72293","locality":"Glatten","municipality":{"key":"08237030","name":"Glatten","type":"Kreisangehörige_Gemeinde"},"district":{"key":"08237","name":"Freudenstadt","type":"Landkreis"},"federalState":{"key":"08","name":"Baden-Württemberg"}},{"name":"Palmbergweg","postalCode":"72293","locality":"Glatten","municipality":{"key":"08237030","name":"Glatten","type":"Kreisangehörige_Gemeinde"},"district":{"key":"08237","name":"Freudenstadt","type":"Landkreis"},"federalState":{"key":"08","name":"Baden-Württemberg"}},{"name":"Quellenweg","postalCode":"72250","locality":"Freudenstadt","municipality":{"key":"08237028","name":"Freudenstadt, Stadt","type":"Große_Kreisstadt"},"district":{"key":"08237","name":"Freudenstadt","type":"Landkreis"},"federalState":{"key":"08","name":"Baden-Württemberg"}},{"name":"Raiffeisenweg","postalCode":"72293","locality":"Glatten","municipality":{"key":"08237030","name":"Glatten","type":"Kreisangehörige_Gemeinde"},"district":{"key":"08237","name":"Freudenstadt","type":"Landkreis"},"federalState":{"key":"08","name":"Baden-Württemberg"}},{"name":"Riedstr.","postalCode":"72293","locality":"Glatten","municipality":{"key":"08237030","name":"Glatten","type":"Kreisangehörige_Gemeinde"},"district":{"key":"08237","name":"Freudenstadt","type":"Landkreis"},"federalState":{"key":"08","name":"Baden-Württemberg"}},{"name":"Rinkwasen","postalCode":"72293","locality":"Glatten","municipality":{"key":"08237030","name":"Glatten","type":"Kreisangehörige_Gemeinde"},"district":{"key":"08237","name":"Freudenstadt","type":"Landkreis"},"federalState":{"key":"08","name":"Baden-Württemberg"}},{"name":"Rosenstr.","postalCode":"72293","locality":"Glatten","municipality":{"key":"08237030","name":"Glatten","type":"Kreisangehörige_Gemeinde"},"district":{"key":"08237","name":"Freudenstadt","type":"Landkreis"},"federalState":{"key":"08","name":"Baden-Württemberg"}},{"name":"Rudolf-L'Orange-Str.","postalCode":"72293","locality":"Glatten","municipality":{"key":"08237030","name":"Glatten","type":"Kreisangehörige_Gemeinde"},"district":{"key":"08237","name":"Freudenstadt","type":"Landkreis"},"federalState":{"key":"08","name":"Baden-Württemberg"}},{"name":"Schappachstr.","postalCode":"72293","locality":"Glatten","municipality":{"key":"08237030","name":"Glatten","type":"Kreisangehörige_Gemeinde"},"district":{"key":"08237","name":"Freudenstadt","type":"Landkreis"},"federalState":{"key":"08","name":"Baden-Württemberg"}},{"name":"Schillerstr.","postalCode":"72293","locality":"Glatten","municipality":{"key":"08237030","name":"Glatten","type":"Kreisangehörige_Gemeinde"},"district":{"key":"08237","name":"Freudenstadt","type":"Landkreis"},"federalState":{"key":"08","name":"Baden-Württemberg"}},{"name":"Schlackhaldenweg","postalCode":"72293","locality":"Glatten","municipality":{"key":"08237030","name":"Glatten","type":"Kreisangehörige_Gemeinde"},"district":{"key":"08237","name":"Freudenstadt","type":"Landkreis"},"federalState":{"key":"08","name":"Baden-Württemberg"}},{"name":"Schlappbachweg","postalCode":"72293","locality":"Glatten","municipality":{"key":"08237030","name":"Glatten","type":"Kreisangehörige_Gemeinde"},"district":{"key":"08237","name":"Freudenstadt","type":"Landkreis"},"federalState":{"key":"08","name":"Baden-Württemberg"}},{"name":"Schloßberg","postalCode":"72293","locality":"Glatten","municipality":{"key":"08237030","name":"Glatten","type":"Kreisangehörige_Gemeinde"},"district":{"key":"08237","name":"Freudenstadt","type":"Landkreis"},"federalState":{"key":"08","name":"Baden-Württemberg"}},{"name":"Schloßgraben","postalCode":"72293","locality":"Glatten","municipality":{"key":"08237030","name":"Glatten","type":"Kreisangehörige_Gemeinde"},"district":{"key":"08237","name":"Freudenstadt","type":"Landkreis"},"federalState":{"key":"08","name":"Baden-Württemberg"}},{"name":"Schöferlestr.","postalCode":"72293","locality":"Glatten","municipality":{"key":"08237030","name":"Glatten","type":"Kreisangehörige_Gemeinde"},"district":{"key":"08237","name":"Freudenstadt","type":"Landkreis"},"federalState":{"key":"08","name":"Baden-Württemberg"}},{"name":"Schopflocher Str.","postalCode":"72293","locality":"Glatten","municipality":{"key":"08237030","name":"Glatten","type":"Kreisangehörige_Gemeinde"},"district":{"key":"08237","name":"Freudenstadt","type":"Landkreis"},"federalState":{"key":"08","name":"Baden-Württemberg"}},{"name":"Schulstr.","postalCode":"72293","locality":"Glatten","municipality":{"key":"08237030","name":"Glatten","type":"Kreisangehörige_Gemeinde"},"district":{"key":"08237","name":"Freudenstadt","type":"Landkreis"},"federalState":{"key":"08","name":"Baden-Württemberg"}},{"name":"Sonnenhalde","postalCode":"72293","locality":"Glatten","municipality":{"key":"08237030","name":"Glatten","type":"Kreisangehörige_Gemeinde"},"district":{"key":"08237","name":"Freudenstadt","type":"Landkreis"},"federalState":{"key":"08","name":"Baden-Württemberg"}},{"name":"Steigwiesen","postalCode":"72293","locality":"Glatten","municipality":{"key":"08237030","name":"Glatten","type":"Kreisangehörige_Gemeinde"},"district":{"key":"08237","name":"Freudenstadt","type":"Landkreis"},"federalState":{"key":"08","name":"Baden-Württemberg"}},{"name":"Steinbuckelweg","postalCode":"72293","locality":"Glatten","municipality":{"key":"08237030","name":"Glatten","type":"Kreisangehörige_Gemeinde"},"district":{"key":"08237","name":"Freudenstadt","type":"Landkreis"},"federalState":{"key":"08","name":"Baden-Württemberg"}},{"name":"Sulzer Str.","postalCode":"72293","locality":"Glatten","municipality":{"key":"08237030","name":"Glatten","type":"Kreisangehörige_Gemeinde"},"district":{"key":"08237","name":"Freudenstadt","type":"Landkreis"},"federalState":{"key":"08","name":"Baden-Württemberg"}},{"name":"Talstr.","postalCode":"72293","locality":"Glatten","municipality":{"key":"08237030","name":"Glatten","type":"Kreisangehörige_Gemeinde"},"district":{"key":"08237","name":"Freudenstadt","type":"Landkreis"},"federalState":{"key":"08","name":"Baden-Württemberg"}},{"name":"Tannenweg","postalCode":"72293","locality":"Glatten","municipality":{"key":"08237030","name":"Glatten","type":"Kreisangehörige_Gemeinde"},"district":{"key":"08237","name":"Freudenstadt","type":"Landkreis"},"federalState":{"key":"08","name":"Baden-Württemberg"}},{"name":"Uhlandstr.","postalCode":"72293","locality":"Glatten","municipality":{"key":"08237030","name":"Glatten","type":"Kreisangehörige_Gemeinde"},"district":{"key":"08237","name":"Freudenstadt","type":"Landkreis"},"federalState":{"key":"08","name":"Baden-Württemberg"}},{"name":"Untere Ösch","postalCode":"72293","locality":"Glatten","municipality":{"key":"08237030","name":"Glatten","type":"Kreisangehörige_Gemeinde"},"district":{"key":"08237","name":"Freudenstadt","type":"Landkreis"},"federalState":{"key":"08","name":"Baden-Württemberg"}},{"name":"Unteriflinger Str.","postalCode":"72293","locality":"Glatten","municipality":{"key":"08237030","name":"Glatten","type":"Kreisangehörige_Gemeinde"},"district":{"key":"08237","name":"Freudenstadt","type":"Landkreis"},"federalState":{"key":"08","name":"Baden-Württemberg"}},{"name":"Vischerweg","postalCode":"72250","locality":"Freudenstadt","municipality":{"key":"08237028","name":"Freudenstadt, Stadt","type":"Große_Kreisstadt"},"district":{"key":"08237","name":"Freudenstadt","type":"Landkreis"},"federalState":{"key":"08","name":"Baden-Württemberg"}},{"name":"Vogelsangweg","postalCode":"72250","locality":"Freudenstadt","municipality":{"key":"08237028","name":"Freudenstadt, Stadt","type":"Große_Kreisstadt"},"district":{"key":"08237","name":"Freudenstadt","type":"Landkreis"},"federalState":{"key":"08","name":"Baden-Württemberg"}},{"name":"Vöhringer Str.","postalCode":"72250","locality":"Freudenstadt","municipality":{"key":"08237028","name":"Freudenstadt, Stadt","type":"Große_Kreisstadt"},"district":{"key":"08237","name":"Freudenstadt","type":"Landkreis"},"federalState":{"key":"08","name":"Baden-Württemberg"}},{"name":"Wachholdergasse","postalCode":"72293","locality":"Glatten","municipality":{"key":"08237030","name":"Glatten","type":"Kreisangehörige_Gemeinde"},"district":{"key":"08237","name":"Freudenstadt","type":"Landkreis"},"federalState":{"key":"08","name":"Baden-Württemberg"}},{"name":"Waldstr.","postalCode":"72293","locality":"Glatten","municipality":{"key":"08237030","name":"Glatten","type":"Kreisangehörige_Gemeinde"},"district":{"key":"08237","name":"Freudenstadt","type":"Landkreis"},"federalState":{"key":"08","name":"Baden-Württemberg"}},{"name":"Wasenweg","postalCode":"72293","locality":"Glatten","municipality":{"key":"08237030","name":"Glatten","type":"Kreisangehörige_Gemeinde"},"district":{"key":"08237","name":"Freudenstadt","type":"Landkreis"},"federalState":{"key":"08","name":"Baden-Württemberg"}},{"name":"Wehrgasse","postalCode":"72293","locality":"Glatten","municipality":{"key":"08237030","name":"Glatten","type":"Kreisangehörige_Gemeinde"},"district":{"key":"08237","name":"Freudenstadt","type":"Landkreis"},"federalState":{"key":"08","name":"Baden-Württemberg"}},{"name":"Wiesengrund","postalCode":"72293","locality":"Glatten","municipality":{"key":"08237030","name":"Glatten","type":"Kreisangehörige_Gemeinde"},"district":{"key":"08237","name":"Freudenstadt","type":"Landkreis"},"federalState":{"key":"08","name":"Baden-Württemberg"}},{"name":"Wittendorfer Str.","postalCode":"72293","locality":"Glatten","municipality":{"key":"08237030","name":"Glatten","type":"Kreisangehörige_Gemeinde"},"district":{"key":"08237","name":"Freudenstadt","type":"Landkreis"},"federalState":{"key":"08","name":"Baden-Württemberg"}},{"name":"Zainestr.","postalCode":"72293","locality":"Glatten","municipality":{"key":"08237030","name":"Glatten","type":"Kreisangehörige_Gemeinde"},"district":{"key":"08237","name":"Freudenstadt","type":"Landkreis"},"federalState":{"key":"08","name":"Baden-Württemberg"}},{"name":"Ziegelackerweg","postalCode":"72293","locality":"Glatten","municipality":{"key":"08237030","name":"Glatten","type":"Kreisangehörige_Gemeinde"},"district":{"key":"08237","name":"Freudenstadt","type":"Landkreis"},"federalState":{"key":"08","name":"Baden-Württemberg"}},{"name":"Zum Friedhof","postalCode":"72293","locality":"Glatten","municipality":{"key":"08237030","name":"Glatten","type":"Kreisangehörige_Gemeinde"},"district":{"key":"08237","name":"Freudenstadt","type":"Landkreis"},"federalState":{"key":"08","name":"Baden-Württemberg"}},{"name":"Äußere Riviera","postalCode":"72250","locality":"Freudenstadt","municipality":{"key":"08237028","name":"Freudenstadt, Stadt","type":"Große_Kreisstadt"},"district":{"key":"08237","name":"Freudenstadt","type":"Landkreis"},"federalState":{"key":"08","name":"Baden-Württemberg"}},{"name":"Österbach","postalCode":"72250","locality":"Freudenstadt","municipality":{"key":"08237028","name":"Freudenstadt, Stadt","type":"Große_Kreisstadt"},"district":{"key":"08237","name":"Freudenstadt","type":"Landkreis"},"federalState":{"key":"08","name":"Baden-Württemberg"}},]