[{"name":"Ahornweg","postalCode":"71139","locality":"Ehningen","municipality":{"key":"08115013","name":"Ehningen","type":"Kreisangehörige_Gemeinde"},"district":{"key":"08115","name":"Böblingen","type":"Landkreis"},"federalState":{"key":"08","name":"Baden-Württemberg"}},{"name":"Aidlinger Str.","postalCode":"71139","locality":"Ehningen","municipality":{"key":"08115013","name":"Ehningen","type":"Kreisangehörige_Gemeinde"},"district":{"key":"08115","name":"Böblingen","type":"Landkreis"},"federalState":{"key":"08","name":"Baden-Württemberg"}},{"name":"Alemannenweg","postalCode":"71139","locality":"Ehningen","municipality":{"key":"08115013","name":"Ehningen","type":"Kreisangehörige_Gemeinde"},"district":{"key":"08115","name":"Böblingen","type":"Landkreis"},"federalState":{"key":"08","name":"Baden-Württemberg"}},{"name":"Allensteiner Str.","postalCode":"71139","locality":"Ehningen","municipality":{"key":"08115013","name":"Ehningen","type":"Kreisangehörige_Gemeinde"},"district":{"key":"08115","name":"Böblingen","type":"Landkreis"},"federalState":{"key":"08","name":"Baden-Württemberg"}},{"name":"Allmandstr.","postalCode":"71139","locality":"Ehningen","municipality":{"key":"08115013","name":"Ehningen","type":"Kreisangehörige_Gemeinde"},"district":{"key":"08115","name":"Böblingen","type":"Landkreis"},"federalState":{"key":"08","name":"Baden-Württemberg"}},{"name":"Altdorfer Weg","postalCode":"71139","locality":"Ehningen","municipality":{"key":"08115013","name":"Ehningen","type":"Kreisangehörige_Gemeinde"},"district":{"key":"08115","name":"Böblingen","type":"Landkreis"},"federalState":{"key":"08","name":"Baden-Württemberg"}},{"name":"Althäuleweg","postalCode":"71139","locality":"Ehningen","municipality":{"key":"08115013","name":"Ehningen","type":"Kreisangehörige_Gemeinde"},"district":{"key":"08115","name":"Böblingen","type":"Landkreis"},"federalState":{"key":"08","name":"Baden-Württemberg"}},{"name":"Am Bahndamm","postalCode":"71139","locality":"Ehningen","municipality":{"key":"08115013","name":"Ehningen","type":"Kreisangehörige_Gemeinde"},"district":{"key":"08115","name":"Böblingen","type":"Landkreis"},"federalState":{"key":"08","name":"Baden-Württemberg"}},{"name":"Ammerweg","postalCode":"71139","locality":"Ehningen","municipality":{"key":"08115013","name":"Ehningen","type":"Kreisangehörige_Gemeinde"},"district":{"key":"08115","name":"Böblingen","type":"Landkreis"},"federalState":{"key":"08","name":"Baden-Württemberg"}},{"name":"Amselweg","postalCode":"71139","locality":"Ehningen","municipality":{"key":"08115013","name":"Ehningen","type":"Kreisangehörige_Gemeinde"},"district":{"key":"08115","name":"Böblingen","type":"Landkreis"},"federalState":{"key":"08","name":"Baden-Württemberg"}},{"name":"Bahnhofstr.","postalCode":"71139","locality":"Ehningen","municipality":{"key":"08115013","name":"Ehningen","type":"Kreisangehörige_Gemeinde"},"district":{"key":"08115","name":"Böblingen","type":"Landkreis"},"federalState":{"key":"08","name":"Baden-Württemberg"}},{"name":"Banater Weg","postalCode":"71139","locality":"Ehningen","municipality":{"key":"08115013","name":"Ehningen","type":"Kreisangehörige_Gemeinde"},"district":{"key":"08115","name":"Böblingen","type":"Landkreis"},"federalState":{"key":"08","name":"Baden-Württemberg"}},{"name":"Beethovenstr.","postalCode":"71139","locality":"Ehningen","municipality":{"key":"08115013","name":"Ehningen","type":"Kreisangehörige_Gemeinde"},"district":{"key":"08115","name":"Böblingen","type":"Landkreis"},"federalState":{"key":"08","name":"Baden-Württemberg"}},{"name":"Belchenweg","postalCode":"71139","locality":"Ehningen","municipality":{"key":"08115013","name":"Ehningen","type":"Kreisangehörige_Gemeinde"},"district":{"key":"08115","name":"Böblingen","type":"Landkreis"},"federalState":{"key":"08","name":"Baden-Württemberg"}},{"name":"Bismarckstr.","postalCode":"71139","locality":"Ehningen","municipality":{"key":"08115013","name":"Ehningen","type":"Kreisangehörige_Gemeinde"},"district":{"key":"08115","name":"Böblingen","type":"Landkreis"},"federalState":{"key":"08","name":"Baden-Württemberg"}},{"name":"Blockhütteweg","postalCode":"71139","locality":"Ehningen","municipality":{"key":"08115013","name":"Ehningen","type":"Kreisangehörige_Gemeinde"},"district":{"key":"08115","name":"Böblingen","type":"Landkreis"},"federalState":{"key":"08","name":"Baden-Württemberg"}},{"name":"Blumenstr.","postalCode":"71139","locality":"Ehningen","municipality":{"key":"08115013","name":"Ehningen","type":"Kreisangehörige_Gemeinde"},"district":{"key":"08115","name":"Böblingen","type":"Landkreis"},"federalState":{"key":"08","name":"Baden-Württemberg"}},{"name":"Böblinger Str.","postalCode":"71139","locality":"Ehningen","municipality":{"key":"08115013","name":"Ehningen","type":"Kreisangehörige_Gemeinde"},"district":{"key":"08115","name":"Böblingen","type":"Landkreis"},"federalState":{"key":"08","name":"Baden-Württemberg"}},{"name":"Brechgasse","postalCode":"71139","locality":"Ehningen","municipality":{"key":"08115013","name":"Ehningen","type":"Kreisangehörige_Gemeinde"},"district":{"key":"08115","name":"Böblingen","type":"Landkreis"},"federalState":{"key":"08","name":"Baden-Württemberg"}},{"name":"Breslauer Str.","postalCode":"71139","locality":"Ehningen","municipality":{"key":"08115013","name":"Ehningen","type":"Kreisangehörige_Gemeinde"},"district":{"key":"08115","name":"Böblingen","type":"Landkreis"},"federalState":{"key":"08","name":"Baden-Württemberg"}},{"name":"Brigachweg","postalCode":"71139","locality":"Ehningen","municipality":{"key":"08115013","name":"Ehningen","type":"Kreisangehörige_Gemeinde"},"district":{"key":"08115","name":"Böblingen","type":"Landkreis"},"federalState":{"key":"08","name":"Baden-Württemberg"}},{"name":"Brunnenstr.","postalCode":"71139","locality":"Ehningen","municipality":{"key":"08115013","name":"Ehningen","type":"Kreisangehörige_Gemeinde"},"district":{"key":"08115","name":"Böblingen","type":"Landkreis"},"federalState":{"key":"08","name":"Baden-Württemberg"}},{"name":"Buchenweg","postalCode":"71139","locality":"Ehningen","municipality":{"key":"08115013","name":"Ehningen","type":"Kreisangehörige_Gemeinde"},"district":{"key":"08115","name":"Böblingen","type":"Landkreis"},"federalState":{"key":"08","name":"Baden-Württemberg"}},{"name":"Bühlallee","postalCode":"71139","locality":"Ehningen","municipality":{"key":"08115013","name":"Ehningen","type":"Kreisangehörige_Gemeinde"},"district":{"key":"08115","name":"Böblingen","type":"Landkreis"},"federalState":{"key":"08","name":"Baden-Württemberg"}},{"name":"Burgstr.","postalCode":"71139","locality":"Ehningen","municipality":{"key":"08115013","name":"Ehningen","type":"Kreisangehörige_Gemeinde"},"district":{"key":"08115","name":"Böblingen","type":"Landkreis"},"federalState":{"key":"08","name":"Baden-Württemberg"}},{"name":"Burgunderweg","postalCode":"71139","locality":"Ehningen","municipality":{"key":"08115013","name":"Ehningen","type":"Kreisangehörige_Gemeinde"},"district":{"key":"08115","name":"Böblingen","type":"Landkreis"},"federalState":{"key":"08","name":"Baden-Württemberg"}},{"name":"Burgwiesenstr.","postalCode":"71139","locality":"Ehningen","municipality":{"key":"08115013","name":"Ehningen","type":"Kreisangehörige_Gemeinde"},"district":{"key":"08115","name":"Böblingen","type":"Landkreis"},"federalState":{"key":"08","name":"Baden-Württemberg"}},{"name":"Calmbacher Str.","postalCode":"71034","locality":"Böblingen","municipality":{"key":"08115003","name":"Böblingen, Stadt","type":"Große_Kreisstadt"},"district":{"key":"08115","name":"Böblingen","type":"Landkreis"},"federalState":{"key":"08","name":"Baden-Württemberg"}},{"name":"Calwer Str.","postalCode":"71034","locality":"Böblingen","municipality":{"key":"08115003","name":"Böblingen, Stadt","type":"Große_Kreisstadt"},"district":{"key":"08115","name":"Böblingen","type":"Landkreis"},"federalState":{"key":"08","name":"Baden-Württemberg"}},{"name":"Cassino Drive","postalCode":"71032","locality":"Böblingen","municipality":{"key":"08115003","name":"Böblingen, Stadt","type":"Große_Kreisstadt"},"district":{"key":"08115","name":"Böblingen","type":"Landkreis"},"federalState":{"key":"08","name":"Baden-Württemberg"}},{"name":"Charles-Lindbergh-Platz","postalCode":"71034","locality":"Böblingen","municipality":{"key":"08115003","name":"Böblingen, Stadt","type":"Große_Kreisstadt"},"district":{"key":"08115","name":"Böblingen","type":"Landkreis"},"federalState":{"key":"08","name":"Baden-Württemberg"}},{"name":"Charles-Lindbergh-Str.","postalCode":"71034","locality":"Böblingen","municipality":{"key":"08115003","name":"Böblingen, Stadt","type":"Große_Kreisstadt"},"district":{"key":"08115","name":"Böblingen","type":"Landkreis"},"federalState":{"key":"08","name":"Baden-Württemberg"}},{"name":"Charlottenstr.","postalCode":"71032","locality":"Böblingen","municipality":{"key":"08115003","name":"Böblingen, Stadt","type":"Große_Kreisstadt"},"district":{"key":"08115","name":"Böblingen","type":"Landkreis"},"federalState":{"key":"08","name":"Baden-Württemberg"}},{"name":"Dagersheimer Str.","postalCode":"71139","locality":"Ehningen","municipality":{"key":"08115013","name":"Ehningen","type":"Kreisangehörige_Gemeinde"},"district":{"key":"08115","name":"Böblingen","type":"Landkreis"},"federalState":{"key":"08","name":"Baden-Württemberg"}},{"name":"Danziger Str.","postalCode":"71139","locality":"Ehningen","municipality":{"key":"08115013","name":"Ehningen","type":"Kreisangehörige_Gemeinde"},"district":{"key":"08115","name":"Böblingen","type":"Landkreis"},"federalState":{"key":"08","name":"Baden-Württemberg"}},{"name":"Döffinger Pfad","postalCode":"71139","locality":"Ehningen","municipality":{"key":"08115013","name":"Ehningen","type":"Kreisangehörige_Gemeinde"},"district":{"key":"08115","name":"Böblingen","type":"Landkreis"},"federalState":{"key":"08","name":"Baden-Württemberg"}},{"name":"Donaustr.","postalCode":"71139","locality":"Ehningen","municipality":{"key":"08115013","name":"Ehningen","type":"Kreisangehörige_Gemeinde"},"district":{"key":"08115","name":"Böblingen","type":"Landkreis"},"federalState":{"key":"08","name":"Baden-Württemberg"}},{"name":"Eichendorffstr.","postalCode":"71139","locality":"Ehningen","municipality":{"key":"08115013","name":"Ehningen","type":"Kreisangehörige_Gemeinde"},"district":{"key":"08115","name":"Böblingen","type":"Landkreis"},"federalState":{"key":"08","name":"Baden-Württemberg"}},{"name":"Eichenweg","postalCode":"71139","locality":"Ehningen","municipality":{"key":"08115013","name":"Ehningen","type":"Kreisangehörige_Gemeinde"},"district":{"key":"08115","name":"Böblingen","type":"Landkreis"},"federalState":{"key":"08","name":"Baden-Württemberg"}},{"name":"Eingemachtes Wäldle","postalCode":"71139","locality":"Ehningen","municipality":{"key":"08115013","name":"Ehningen","type":"Kreisangehörige_Gemeinde"},"district":{"key":"08115","name":"Böblingen","type":"Landkreis"},"federalState":{"key":"08","name":"Baden-Württemberg"}},{"name":"Enzweg","postalCode":"71139","locality":"Ehningen","municipality":{"key":"08115013","name":"Ehningen","type":"Kreisangehörige_Gemeinde"},"district":{"key":"08115","name":"Böblingen","type":"Landkreis"},"federalState":{"key":"08","name":"Baden-Württemberg"}},{"name":"Eschbach","postalCode":"71139","locality":"Ehningen","municipality":{"key":"08115013","name":"Ehningen","type":"Kreisangehörige_Gemeinde"},"district":{"key":"08115","name":"Böblingen","type":"Landkreis"},"federalState":{"key":"08","name":"Baden-Württemberg"}},{"name":"Eschbachweg","postalCode":"71139","locality":"Ehningen","municipality":{"key":"08115013","name":"Ehningen","type":"Kreisangehörige_Gemeinde"},"district":{"key":"08115","name":"Böblingen","type":"Landkreis"},"federalState":{"key":"08","name":"Baden-Württemberg"}},{"name":"Fasanenweg","postalCode":"71139","locality":"Ehningen","municipality":{"key":"08115013","name":"Ehningen","type":"Kreisangehörige_Gemeinde"},"district":{"key":"08115","name":"Böblingen","type":"Landkreis"},"federalState":{"key":"08","name":"Baden-Württemberg"}},{"name":"Feldbergweg","postalCode":"71139","locality":"Ehningen","municipality":{"key":"08115013","name":"Ehningen","type":"Kreisangehörige_Gemeinde"},"district":{"key":"08115","name":"Böblingen","type":"Landkreis"},"federalState":{"key":"08","name":"Baden-Württemberg"}},{"name":"Finkenweg","postalCode":"71139","locality":"Ehningen","municipality":{"key":"08115013","name":"Ehningen","type":"Kreisangehörige_Gemeinde"},"district":{"key":"08115","name":"Böblingen","type":"Landkreis"},"federalState":{"key":"08","name":"Baden-Württemberg"}},{"name":"Fliederweg","postalCode":"71139","locality":"Ehningen","municipality":{"key":"08115013","name":"Ehningen","type":"Kreisangehörige_Gemeinde"},"district":{"key":"08115","name":"Böblingen","type":"Landkreis"},"federalState":{"key":"08","name":"Baden-Württemberg"}},{"name":"Frankenweg","postalCode":"71139","locality":"Ehningen","municipality":{"key":"08115013","name":"Ehningen","type":"Kreisangehörige_Gemeinde"},"district":{"key":"08115","name":"Böblingen","type":"Landkreis"},"federalState":{"key":"08","name":"Baden-Württemberg"}},{"name":"Friedrich-List-Str.","postalCode":"71139","locality":"Ehningen","municipality":{"key":"08115013","name":"Ehningen","type":"Kreisangehörige_Gemeinde"},"district":{"key":"08115","name":"Böblingen","type":"Landkreis"},"federalState":{"key":"08","name":"Baden-Württemberg"}},{"name":"Fritz-Theurer-Weg","postalCode":"71139","locality":"Ehningen","municipality":{"key":"08115013","name":"Ehningen","type":"Kreisangehörige_Gemeinde"},"district":{"key":"08115","name":"Böblingen","type":"Landkreis"},"federalState":{"key":"08","name":"Baden-Württemberg"}},{"name":"Fröbelweg","postalCode":"71139","locality":"Ehningen","municipality":{"key":"08115013","name":"Ehningen","type":"Kreisangehörige_Gemeinde"},"district":{"key":"08115","name":"Böblingen","type":"Landkreis"},"federalState":{"key":"08","name":"Baden-Württemberg"}},{"name":"Gartenstr.","postalCode":"71139","locality":"Ehningen","municipality":{"key":"08115013","name":"Ehningen","type":"Kreisangehörige_Gemeinde"},"district":{"key":"08115","name":"Böblingen","type":"Landkreis"},"federalState":{"key":"08","name":"Baden-Württemberg"}},{"name":"Gärtringer Weg","postalCode":"71139","locality":"Ehningen","municipality":{"key":"08115013","name":"Ehningen","type":"Kreisangehörige_Gemeinde"},"district":{"key":"08115","name":"Böblingen","type":"Landkreis"},"federalState":{"key":"08","name":"Baden-Württemberg"}},{"name":"Gäublickstr.","postalCode":"71139","locality":"Ehningen","municipality":{"key":"08115013","name":"Ehningen","type":"Kreisangehörige_Gemeinde"},"district":{"key":"08115","name":"Böblingen","type":"Landkreis"},"federalState":{"key":"08","name":"Baden-Württemberg"}},{"name":"Ginsterweg","postalCode":"71139","locality":"Ehningen","municipality":{"key":"08115013","name":"Ehningen","type":"Kreisangehörige_Gemeinde"},"district":{"key":"08115","name":"Böblingen","type":"Landkreis"},"federalState":{"key":"08","name":"Baden-Württemberg"}},{"name":"Glemsweg","postalCode":"71139","locality":"Ehningen","municipality":{"key":"08115013","name":"Ehningen","type":"Kreisangehörige_Gemeinde"},"district":{"key":"08115","name":"Böblingen","type":"Landkreis"},"federalState":{"key":"08","name":"Baden-Württemberg"}},{"name":"Goethestr.","postalCode":"71139","locality":"Ehningen","municipality":{"key":"08115013","name":"Ehningen","type":"Kreisangehörige_Gemeinde"},"district":{"key":"08115","name":"Böblingen","type":"Landkreis"},"federalState":{"key":"08","name":"Baden-Württemberg"}},{"name":"Goldersbachweg","postalCode":"71139","locality":"Ehningen","municipality":{"key":"08115013","name":"Ehningen","type":"Kreisangehörige_Gemeinde"},"district":{"key":"08115","name":"Böblingen","type":"Landkreis"},"federalState":{"key":"08","name":"Baden-Württemberg"}},{"name":"Goldregenweg","postalCode":"71139","locality":"Ehningen","municipality":{"key":"08115013","name":"Ehningen","type":"Kreisangehörige_Gemeinde"},"district":{"key":"08115","name":"Böblingen","type":"Landkreis"},"federalState":{"key":"08","name":"Baden-Württemberg"}},{"name":"Grenzweg","postalCode":"71139","locality":"Ehningen","municipality":{"key":"08115013","name":"Ehningen","type":"Kreisangehörige_Gemeinde"},"district":{"key":"08115","name":"Böblingen","type":"Landkreis"},"federalState":{"key":"08","name":"Baden-Württemberg"}},{"name":"Grubstockweg","postalCode":"71139","locality":"Ehningen","municipality":{"key":"08115013","name":"Ehningen","type":"Kreisangehörige_Gemeinde"},"district":{"key":"08115","name":"Böblingen","type":"Landkreis"},"federalState":{"key":"08","name":"Baden-Württemberg"}},{"name":"Haldenweg","postalCode":"71139","locality":"Ehningen","municipality":{"key":"08115013","name":"Ehningen","type":"Kreisangehörige_Gemeinde"},"district":{"key":"08115","name":"Böblingen","type":"Landkreis"},"federalState":{"key":"08","name":"Baden-Württemberg"}},{"name":"Haselweg","postalCode":"71139","locality":"Ehningen","municipality":{"key":"08115013","name":"Ehningen","type":"Kreisangehörige_Gemeinde"},"district":{"key":"08115","name":"Böblingen","type":"Landkreis"},"federalState":{"key":"08","name":"Baden-Württemberg"}},{"name":"Hauffstr.","postalCode":"71139","locality":"Ehningen","municipality":{"key":"08115013","name":"Ehningen","type":"Kreisangehörige_Gemeinde"},"district":{"key":"08115","name":"Böblingen","type":"Landkreis"},"federalState":{"key":"08","name":"Baden-Württemberg"}},{"name":"Herdweg","postalCode":"71139","locality":"Ehningen","municipality":{"key":"08115013","name":"Ehningen","type":"Kreisangehörige_Gemeinde"},"district":{"key":"08115","name":"Böblingen","type":"Landkreis"},"federalState":{"key":"08","name":"Baden-Württemberg"}},{"name":"Herrenberger Str.","postalCode":"71139","locality":"Ehningen","municipality":{"key":"08115013","name":"Ehningen","type":"Kreisangehörige_Gemeinde"},"district":{"key":"08115","name":"Böblingen","type":"Landkreis"},"federalState":{"key":"08","name":"Baden-Württemberg"}},{"name":"Hildrizhauser Str.","postalCode":"71139","locality":"Ehningen","municipality":{"key":"08115013","name":"Ehningen","type":"Kreisangehörige_Gemeinde"},"district":{"key":"08115","name":"Böblingen","type":"Landkreis"},"federalState":{"key":"08","name":"Baden-Württemberg"}},{"name":"Hoher Garten","postalCode":"71139","locality":"Ehningen","municipality":{"key":"08115013","name":"Ehningen","type":"Kreisangehörige_Gemeinde"},"district":{"key":"08115","name":"Böblingen","type":"Landkreis"},"federalState":{"key":"08","name":"Baden-Württemberg"}},{"name":"Hölderlinstr.","postalCode":"71139","locality":"Ehningen","municipality":{"key":"08115013","name":"Ehningen","type":"Kreisangehörige_Gemeinde"},"district":{"key":"08115","name":"Böblingen","type":"Landkreis"},"federalState":{"key":"08","name":"Baden-Württemberg"}},{"name":"Holunderweg","postalCode":"71139","locality":"Ehningen","municipality":{"key":"08115013","name":"Ehningen","type":"Kreisangehörige_Gemeinde"},"district":{"key":"08115","name":"Böblingen","type":"Landkreis"},"federalState":{"key":"08","name":"Baden-Württemberg"}},{"name":"IBM-Allee","postalCode":"71139","locality":"Ehningen","municipality":{"key":"08115013","name":"Ehningen","type":"Kreisangehörige_Gemeinde"},"district":{"key":"08115","name":"Böblingen","type":"Landkreis"},"federalState":{"key":"08","name":"Baden-Württemberg"}},{"name":"Illerweg","postalCode":"71139","locality":"Ehningen","municipality":{"key":"08115013","name":"Ehningen","type":"Kreisangehörige_Gemeinde"},"district":{"key":"08115","name":"Böblingen","type":"Landkreis"},"federalState":{"key":"08","name":"Baden-Württemberg"}},{"name":"Im Kummethölzer","postalCode":"71139","locality":"Ehningen","municipality":{"key":"08115013","name":"Ehningen","type":"Kreisangehörige_Gemeinde"},"district":{"key":"08115","name":"Böblingen","type":"Landkreis"},"federalState":{"key":"08","name":"Baden-Württemberg"}},{"name":"Im Letten","postalCode":"71139","locality":"Ehningen","municipality":{"key":"08115013","name":"Ehningen","type":"Kreisangehörige_Gemeinde"},"district":{"key":"08115","name":"Böblingen","type":"Landkreis"},"federalState":{"key":"08","name":"Baden-Württemberg"}},{"name":"Im Mahden","postalCode":"71139","locality":"Ehningen","municipality":{"key":"08115013","name":"Ehningen","type":"Kreisangehörige_Gemeinde"},"district":{"key":"08115","name":"Böblingen","type":"Landkreis"},"federalState":{"key":"08","name":"Baden-Württemberg"}},{"name":"Im Tal","postalCode":"71139","locality":"Ehningen","municipality":{"key":"08115013","name":"Ehningen","type":"Kreisangehörige_Gemeinde"},"district":{"key":"08115","name":"Böblingen","type":"Landkreis"},"federalState":{"key":"08","name":"Baden-Württemberg"}},{"name":"Jagstweg","postalCode":"71139","locality":"Ehningen","municipality":{"key":"08115013","name":"Ehningen","type":"Kreisangehörige_Gemeinde"},"district":{"key":"08115","name":"Böblingen","type":"Landkreis"},"federalState":{"key":"08","name":"Baden-Württemberg"}},{"name":"Jasminweg","postalCode":"71139","locality":"Ehningen","municipality":{"key":"08115013","name":"Ehningen","type":"Kreisangehörige_Gemeinde"},"district":{"key":"08115","name":"Böblingen","type":"Landkreis"},"federalState":{"key":"08","name":"Baden-Württemberg"}},{"name":"Kapellenstr.","postalCode":"71139","locality":"Ehningen","municipality":{"key":"08115013","name":"Ehningen","type":"Kreisangehörige_Gemeinde"},"district":{"key":"08115","name":"Böblingen","type":"Landkreis"},"federalState":{"key":"08","name":"Baden-Württemberg"}},{"name":"Karlsbader Str.","postalCode":"71139","locality":"Ehningen","municipality":{"key":"08115013","name":"Ehningen","type":"Kreisangehörige_Gemeinde"},"district":{"key":"08115","name":"Böblingen","type":"Landkreis"},"federalState":{"key":"08","name":"Baden-Württemberg"}},{"name":"Keltenweg","postalCode":"71139","locality":"Ehningen","municipality":{"key":"08115013","name":"Ehningen","type":"Kreisangehörige_Gemeinde"},"district":{"key":"08115","name":"Böblingen","type":"Landkreis"},"federalState":{"key":"08","name":"Baden-Württemberg"}},{"name":"Kerbelweg","postalCode":"71139","locality":"Ehningen","municipality":{"key":"08115013","name":"Ehningen","type":"Kreisangehörige_Gemeinde"},"district":{"key":"08115","name":"Böblingen","type":"Landkreis"},"federalState":{"key":"08","name":"Baden-Württemberg"}},{"name":"Kinzigweg","postalCode":"71139","locality":"Ehningen","municipality":{"key":"08115013","name":"Ehningen","type":"Kreisangehörige_Gemeinde"},"district":{"key":"08115","name":"Böblingen","type":"Landkreis"},"federalState":{"key":"08","name":"Baden-Württemberg"}},{"name":"Kleeweg","postalCode":"71139","locality":"Ehningen","municipality":{"key":"08115013","name":"Ehningen","type":"Kreisangehörige_Gemeinde"},"district":{"key":"08115","name":"Böblingen","type":"Landkreis"},"federalState":{"key":"08","name":"Baden-Württemberg"}},{"name":"Kniebisweg","postalCode":"71139","locality":"Ehningen","municipality":{"key":"08115013","name":"Ehningen","type":"Kreisangehörige_Gemeinde"},"district":{"key":"08115","name":"Böblingen","type":"Landkreis"},"federalState":{"key":"08","name":"Baden-Württemberg"}},{"name":"Kocherweg","postalCode":"71139","locality":"Ehningen","municipality":{"key":"08115013","name":"Ehningen","type":"Kreisangehörige_Gemeinde"},"district":{"key":"08115","name":"Böblingen","type":"Landkreis"},"federalState":{"key":"08","name":"Baden-Württemberg"}},{"name":"Königsberger Str.","postalCode":"71139","locality":"Ehningen","municipality":{"key":"08115013","name":"Ehningen","type":"Kreisangehörige_Gemeinde"},"district":{"key":"08115","name":"Böblingen","type":"Landkreis"},"federalState":{"key":"08","name":"Baden-Württemberg"}},{"name":"Königstr.","postalCode":"71139","locality":"Ehningen","municipality":{"key":"08115013","name":"Ehningen","type":"Kreisangehörige_Gemeinde"},"district":{"key":"08115","name":"Böblingen","type":"Landkreis"},"federalState":{"key":"08","name":"Baden-Württemberg"}},{"name":"Krickerhauer Str.","postalCode":"71139","locality":"Ehningen","municipality":{"key":"08115013","name":"Ehningen","type":"Kreisangehörige_Gemeinde"},"district":{"key":"08115","name":"Böblingen","type":"Landkreis"},"federalState":{"key":"08","name":"Baden-Württemberg"}},{"name":"Kuhtränkeweg","postalCode":"71139","locality":"Ehningen","municipality":{"key":"08115013","name":"Ehningen","type":"Kreisangehörige_Gemeinde"},"district":{"key":"08115","name":"Böblingen","type":"Landkreis"},"federalState":{"key":"08","name":"Baden-Württemberg"}},{"name":"Kurze Str.","postalCode":"71139","locality":"Ehningen","municipality":{"key":"08115013","name":"Ehningen","type":"Kreisangehörige_Gemeinde"},"district":{"key":"08115","name":"Böblingen","type":"Landkreis"},"federalState":{"key":"08","name":"Baden-Württemberg"}},{"name":"Lange Str.","postalCode":"71139","locality":"Ehningen","municipality":{"key":"08115013","name":"Ehningen","type":"Kreisangehörige_Gemeinde"},"district":{"key":"08115","name":"Böblingen","type":"Landkreis"},"federalState":{"key":"08","name":"Baden-Württemberg"}},{"name":"Lauterweg","postalCode":"71139","locality":"Ehningen","municipality":{"key":"08115013","name":"Ehningen","type":"Kreisangehörige_Gemeinde"},"district":{"key":"08115","name":"Böblingen","type":"Landkreis"},"federalState":{"key":"08","name":"Baden-Württemberg"}},{"name":"Lavendelweg","postalCode":"71139","locality":"Ehningen","municipality":{"key":"08115013","name":"Ehningen","type":"Kreisangehörige_Gemeinde"},"district":{"key":"08115","name":"Böblingen","type":"Landkreis"},"federalState":{"key":"08","name":"Baden-Württemberg"}},{"name":"Leimentalstr.","postalCode":"71139","locality":"Ehningen","municipality":{"key":"08115013","name":"Ehningen","type":"Kreisangehörige_Gemeinde"},"district":{"key":"08115","name":"Böblingen","type":"Landkreis"},"federalState":{"key":"08","name":"Baden-Württemberg"}},{"name":"Lenauweg","postalCode":"71139","locality":"Ehningen","municipality":{"key":"08115013","name":"Ehningen","type":"Kreisangehörige_Gemeinde"},"district":{"key":"08115","name":"Böblingen","type":"Landkreis"},"federalState":{"key":"08","name":"Baden-Württemberg"}},{"name":"Lerchenweg","postalCode":"71139","locality":"Ehningen","municipality":{"key":"08115013","name":"Ehningen","type":"Kreisangehörige_Gemeinde"},"district":{"key":"08115","name":"Böblingen","type":"Landkreis"},"federalState":{"key":"08","name":"Baden-Württemberg"}},{"name":"Ligusterweg","postalCode":"71139","locality":"Ehningen","municipality":{"key":"08115013","name":"Ehningen","type":"Kreisangehörige_Gemeinde"},"district":{"key":"08115","name":"Böblingen","type":"Landkreis"},"federalState":{"key":"08","name":"Baden-Württemberg"}},{"name":"Lindenstr.","postalCode":"71139","locality":"Ehningen","municipality":{"key":"08115013","name":"Ehningen","type":"Kreisangehörige_Gemeinde"},"district":{"key":"08115","name":"Böblingen","type":"Landkreis"},"federalState":{"key":"08","name":"Baden-Württemberg"}},{"name":"Lorbeerweg","postalCode":"71139","locality":"Ehningen","municipality":{"key":"08115013","name":"Ehningen","type":"Kreisangehörige_Gemeinde"},"district":{"key":"08115","name":"Böblingen","type":"Landkreis"},"federalState":{"key":"08","name":"Baden-Württemberg"}},{"name":"Mainweg","postalCode":"71139","locality":"Ehningen","municipality":{"key":"08115013","name":"Ehningen","type":"Kreisangehörige_Gemeinde"},"district":{"key":"08115","name":"Böblingen","type":"Landkreis"},"federalState":{"key":"08","name":"Baden-Württemberg"}},{"name":"Malvenweg","postalCode":"71139","locality":"Ehningen","municipality":{"key":"08115013","name":"Ehningen","type":"Kreisangehörige_Gemeinde"},"district":{"key":"08115","name":"Böblingen","type":"Landkreis"},"federalState":{"key":"08","name":"Baden-Württemberg"}},{"name":"Marktplatz","postalCode":"71139","locality":"Ehningen","municipality":{"key":"08115013","name":"Ehningen","type":"Kreisangehörige_Gemeinde"},"district":{"key":"08115","name":"Böblingen","type":"Landkreis"},"federalState":{"key":"08","name":"Baden-Württemberg"}},{"name":"Mauren","postalCode":"71139","locality":"Ehningen","municipality":{"key":"08115013","name":"Ehningen","type":"Kreisangehörige_Gemeinde"},"district":{"key":"08115","name":"Böblingen","type":"Landkreis"},"federalState":{"key":"08","name":"Baden-Württemberg"}},{"name":"Maurener Str.","postalCode":"71139","locality":"Ehningen","municipality":{"key":"08115013","name":"Ehningen","type":"Kreisangehörige_Gemeinde"},"district":{"key":"08115","name":"Böblingen","type":"Landkreis"},"federalState":{"key":"08","name":"Baden-Württemberg"}},{"name":"Maurener Tal","postalCode":"71139","locality":"Ehningen","municipality":{"key":"08115013","name":"Ehningen","type":"Kreisangehörige_Gemeinde"},"district":{"key":"08115","name":"Böblingen","type":"Landkreis"},"federalState":{"key":"08","name":"Baden-Württemberg"}},{"name":"Moltkestr.","postalCode":"71139","locality":"Ehningen","municipality":{"key":"08115013","name":"Ehningen","type":"Kreisangehörige_Gemeinde"},"district":{"key":"08115","name":"Böblingen","type":"Landkreis"},"federalState":{"key":"08","name":"Baden-Württemberg"}},{"name":"Mörikestr.","postalCode":"71139","locality":"Ehningen","municipality":{"key":"08115013","name":"Ehningen","type":"Kreisangehörige_Gemeinde"},"district":{"key":"08115","name":"Böblingen","type":"Landkreis"},"federalState":{"key":"08","name":"Baden-Württemberg"}},{"name":"Mozartstr.","postalCode":"71139","locality":"Ehningen","municipality":{"key":"08115013","name":"Ehningen","type":"Kreisangehörige_Gemeinde"},"district":{"key":"08115","name":"Böblingen","type":"Landkreis"},"federalState":{"key":"08","name":"Baden-Württemberg"}},{"name":"Murgweg","postalCode":"71139","locality":"Ehningen","municipality":{"key":"08115013","name":"Ehningen","type":"Kreisangehörige_Gemeinde"},"district":{"key":"08115","name":"Böblingen","type":"Landkreis"},"federalState":{"key":"08","name":"Baden-Württemberg"}},{"name":"Nagoldweg","postalCode":"71139","locality":"Ehningen","municipality":{"key":"08115013","name":"Ehningen","type":"Kreisangehörige_Gemeinde"},"district":{"key":"08115","name":"Böblingen","type":"Landkreis"},"federalState":{"key":"08","name":"Baden-Württemberg"}},{"name":"Neckarweg","postalCode":"71139","locality":"Ehningen","municipality":{"key":"08115013","name":"Ehningen","type":"Kreisangehörige_Gemeinde"},"district":{"key":"08115","name":"Böblingen","type":"Landkreis"},"federalState":{"key":"08","name":"Baden-Württemberg"}},{"name":"Niederholzwiesenweg","postalCode":"71139","locality":"Ehningen","municipality":{"key":"08115013","name":"Ehningen","type":"Kreisangehörige_Gemeinde"},"district":{"key":"08115","name":"Böblingen","type":"Landkreis"},"federalState":{"key":"08","name":"Baden-Württemberg"}},{"name":"Nordwestliche Randstr.","postalCode":"71139","locality":"Ehningen","municipality":{"key":"08115013","name":"Ehningen","type":"Kreisangehörige_Gemeinde"},"district":{"key":"08115","name":"Böblingen","type":"Landkreis"},"federalState":{"key":"08","name":"Baden-Württemberg"}},{"name":"Obere Allee","postalCode":"71032","locality":"Böblingen","municipality":{"key":"08115003","name":"Böblingen, Stadt","type":"Große_Kreisstadt"},"district":{"key":"08115","name":"Böblingen","type":"Landkreis"},"federalState":{"key":"08","name":"Baden-Württemberg"}},{"name":"Obere Lange Schläge","postalCode":"71032","locality":"Böblingen","municipality":{"key":"08115003","name":"Böblingen, Stadt","type":"Große_Kreisstadt"},"district":{"key":"08115","name":"Böblingen","type":"Landkreis"},"federalState":{"key":"08","name":"Baden-Württemberg"}},{"name":"Oberkircher Str.","postalCode":"71034","locality":"Böblingen","municipality":{"key":"08115003","name":"Böblingen, Stadt","type":"Große_Kreisstadt"},"district":{"key":"08115","name":"Böblingen","type":"Landkreis"},"federalState":{"key":"08","name":"Baden-Württemberg"}},{"name":"Ochsenhausträßle","postalCode":"71034","locality":"Böblingen","municipality":{"key":"08115003","name":"Böblingen, Stadt","type":"Große_Kreisstadt"},"district":{"key":"08115","name":"Böblingen","type":"Landkreis"},"federalState":{"key":"08","name":"Baden-Württemberg"}},{"name":"Ochsentrogweg","postalCode":"71034","locality":"Böblingen","municipality":{"key":"08115003","name":"Böblingen, Stadt","type":"Große_Kreisstadt"},"district":{"key":"08115","name":"Böblingen","type":"Landkreis"},"federalState":{"key":"08","name":"Baden-Württemberg"}},{"name":"Odenwaldweg","postalCode":"71032","locality":"Böblingen","municipality":{"key":"08115003","name":"Böblingen, Stadt","type":"Große_Kreisstadt"},"district":{"key":"08115","name":"Böblingen","type":"Landkreis"},"federalState":{"key":"08","name":"Baden-Württemberg"}},{"name":"Offenburger Str.","postalCode":"71034","locality":"Böblingen","municipality":{"key":"08115003","name":"Böblingen, Stadt","type":"Große_Kreisstadt"},"district":{"key":"08115","name":"Böblingen","type":"Landkreis"},"federalState":{"key":"08","name":"Baden-Württemberg"}},{"name":"Olgastr.","postalCode":"71034","locality":"Böblingen","municipality":{"key":"08115003","name":"Böblingen, Stadt","type":"Große_Kreisstadt"},"district":{"key":"08115","name":"Böblingen","type":"Landkreis"},"federalState":{"key":"08","name":"Baden-Württemberg"}},{"name":"Orchideenstr.","postalCode":"71034","locality":"Böblingen","municipality":{"key":"08115003","name":"Böblingen, Stadt","type":"Große_Kreisstadt"},"district":{"key":"08115","name":"Böblingen","type":"Landkreis"},"federalState":{"key":"08","name":"Baden-Württemberg"}},{"name":"Osloer Str.","postalCode":"71034","locality":"Böblingen","municipality":{"key":"08115003","name":"Böblingen, Stadt","type":"Große_Kreisstadt"},"district":{"key":"08115","name":"Böblingen","type":"Landkreis"},"federalState":{"key":"08","name":"Baden-Württemberg"}},{"name":"Ostelsheimer Str.","postalCode":"71034","locality":"Böblingen","municipality":{"key":"08115003","name":"Böblingen, Stadt","type":"Große_Kreisstadt"},"district":{"key":"08115","name":"Böblingen","type":"Landkreis"},"federalState":{"key":"08","name":"Baden-Württemberg"}},{"name":"Pressburger Str.","postalCode":"71139","locality":"Ehningen","municipality":{"key":"08115013","name":"Ehningen","type":"Kreisangehörige_Gemeinde"},"district":{"key":"08115","name":"Böblingen","type":"Landkreis"},"federalState":{"key":"08","name":"Baden-Württemberg"}},{"name":"Querstr.","postalCode":"71032","locality":"Böblingen","municipality":{"key":"08115003","name":"Böblingen, Stadt","type":"Große_Kreisstadt"},"district":{"key":"08115","name":"Böblingen","type":"Landkreis"},"federalState":{"key":"08","name":"Baden-Württemberg"}},{"name":"Remsweg","postalCode":"71139","locality":"Ehningen","municipality":{"key":"08115013","name":"Ehningen","type":"Kreisangehörige_Gemeinde"},"district":{"key":"08115","name":"Böblingen","type":"Landkreis"},"federalState":{"key":"08","name":"Baden-Württemberg"}},{"name":"Rheinstr.","postalCode":"71139","locality":"Ehningen","municipality":{"key":"08115013","name":"Ehningen","type":"Kreisangehörige_Gemeinde"},"district":{"key":"08115","name":"Böblingen","type":"Landkreis"},"federalState":{"key":"08","name":"Baden-Württemberg"}},{"name":"Römerweg","postalCode":"71139","locality":"Ehningen","municipality":{"key":"08115013","name":"Ehningen","type":"Kreisangehörige_Gemeinde"},"district":{"key":"08115","name":"Böblingen","type":"Landkreis"},"federalState":{"key":"08","name":"Baden-Württemberg"}},{"name":"Rosenstr.","postalCode":"71139","locality":"Ehningen","municipality":{"key":"08115013","name":"Ehningen","type":"Kreisangehörige_Gemeinde"},"district":{"key":"08115","name":"Böblingen","type":"Landkreis"},"federalState":{"key":"08","name":"Baden-Württemberg"}},{"name":"Rosmarinweg","postalCode":"71139","locality":"Ehningen","municipality":{"key":"08115013","name":"Ehningen","type":"Kreisangehörige_Gemeinde"},"district":{"key":"08115","name":"Böblingen","type":"Landkreis"},"federalState":{"key":"08","name":"Baden-Württemberg"}},{"name":"Salbeiweg","postalCode":"71139","locality":"Ehningen","municipality":{"key":"08115013","name":"Ehningen","type":"Kreisangehörige_Gemeinde"},"district":{"key":"08115","name":"Böblingen","type":"Landkreis"},"federalState":{"key":"08","name":"Baden-Württemberg"}},{"name":"Sanddornweg","postalCode":"71139","locality":"Ehningen","municipality":{"key":"08115013","name":"Ehningen","type":"Kreisangehörige_Gemeinde"},"district":{"key":"08115","name":"Böblingen","type":"Landkreis"},"federalState":{"key":"08","name":"Baden-Württemberg"}},{"name":"Schafberg","postalCode":"71139","locality":"Ehningen","municipality":{"key":"08115013","name":"Ehningen","type":"Kreisangehörige_Gemeinde"},"district":{"key":"08115","name":"Böblingen","type":"Landkreis"},"federalState":{"key":"08","name":"Baden-Württemberg"}},{"name":"Schillerstr.","postalCode":"71139","locality":"Ehningen","municipality":{"key":"08115013","name":"Ehningen","type":"Kreisangehörige_Gemeinde"},"district":{"key":"08115","name":"Böblingen","type":"Landkreis"},"federalState":{"key":"08","name":"Baden-Württemberg"}},{"name":"Schlehenweg","postalCode":"71139","locality":"Ehningen","municipality":{"key":"08115013","name":"Ehningen","type":"Kreisangehörige_Gemeinde"},"district":{"key":"08115","name":"Böblingen","type":"Landkreis"},"federalState":{"key":"08","name":"Baden-Württemberg"}},{"name":"Schlossstr.","postalCode":"71139","locality":"Ehningen","municipality":{"key":"08115013","name":"Ehningen","type":"Kreisangehörige_Gemeinde"},"district":{"key":"08115","name":"Böblingen","type":"Landkreis"},"federalState":{"key":"08","name":"Baden-Württemberg"}},{"name":"Schmale Gasse","postalCode":"71139","locality":"Ehningen","municipality":{"key":"08115013","name":"Ehningen","type":"Kreisangehörige_Gemeinde"},"district":{"key":"08115","name":"Böblingen","type":"Landkreis"},"federalState":{"key":"08","name":"Baden-Württemberg"}},{"name":"Schneeballweg","postalCode":"71139","locality":"Ehningen","municipality":{"key":"08115013","name":"Ehningen","type":"Kreisangehörige_Gemeinde"},"district":{"key":"08115","name":"Böblingen","type":"Landkreis"},"federalState":{"key":"08","name":"Baden-Württemberg"}},{"name":"Schönbuchstr.","postalCode":"71139","locality":"Ehningen","municipality":{"key":"08115013","name":"Ehningen","type":"Kreisangehörige_Gemeinde"},"district":{"key":"08115","name":"Böblingen","type":"Landkreis"},"federalState":{"key":"08","name":"Baden-Württemberg"}},{"name":"Schulstr.","postalCode":"71139","locality":"Ehningen","municipality":{"key":"08115013","name":"Ehningen","type":"Kreisangehörige_Gemeinde"},"district":{"key":"08115","name":"Böblingen","type":"Landkreis"},"federalState":{"key":"08","name":"Baden-Württemberg"}},{"name":"Schützenmahdenstr.","postalCode":"71139","locality":"Ehningen","municipality":{"key":"08115013","name":"Ehningen","type":"Kreisangehörige_Gemeinde"},"district":{"key":"08115","name":"Böblingen","type":"Landkreis"},"federalState":{"key":"08","name":"Baden-Württemberg"}},{"name":"Schwalbenweg","postalCode":"71139","locality":"Ehningen","municipality":{"key":"08115013","name":"Ehningen","type":"Kreisangehörige_Gemeinde"},"district":{"key":"08115","name":"Böblingen","type":"Landkreis"},"federalState":{"key":"08","name":"Baden-Württemberg"}},{"name":"Schwarzwaldstr.","postalCode":"71139","locality":"Ehningen","municipality":{"key":"08115013","name":"Ehningen","type":"Kreisangehörige_Gemeinde"},"district":{"key":"08115","name":"Böblingen","type":"Landkreis"},"federalState":{"key":"08","name":"Baden-Württemberg"}},{"name":"Schwippeweg","postalCode":"71139","locality":"Ehningen","municipality":{"key":"08115013","name":"Ehningen","type":"Kreisangehörige_Gemeinde"},"district":{"key":"08115","name":"Böblingen","type":"Landkreis"},"federalState":{"key":"08","name":"Baden-Württemberg"}},{"name":"Seeallee","postalCode":"71139","locality":"Ehningen","municipality":{"key":"08115013","name":"Ehningen","type":"Kreisangehörige_Gemeinde"},"district":{"key":"08115","name":"Böblingen","type":"Landkreis"},"federalState":{"key":"08","name":"Baden-Württemberg"}},{"name":"Siegfriedstr.","postalCode":"71139","locality":"Ehningen","municipality":{"key":"08115013","name":"Ehningen","type":"Kreisangehörige_Gemeinde"},"district":{"key":"08115","name":"Böblingen","type":"Landkreis"},"federalState":{"key":"08","name":"Baden-Württemberg"}},{"name":"Silcherstr.","postalCode":"71139","locality":"Ehningen","municipality":{"key":"08115013","name":"Ehningen","type":"Kreisangehörige_Gemeinde"},"district":{"key":"08115","name":"Böblingen","type":"Landkreis"},"federalState":{"key":"08","name":"Baden-Württemberg"}},{"name":"Sindelfingerallee","postalCode":"71139","locality":"Ehningen","municipality":{"key":"08115013","name":"Ehningen","type":"Kreisangehörige_Gemeinde"},"district":{"key":"08115","name":"Böblingen","type":"Landkreis"},"federalState":{"key":"08","name":"Baden-Württemberg"}},{"name":"Starenweg","postalCode":"71139","locality":"Ehningen","municipality":{"key":"08115013","name":"Ehningen","type":"Kreisangehörige_Gemeinde"},"district":{"key":"08115","name":"Böblingen","type":"Landkreis"},"federalState":{"key":"08","name":"Baden-Württemberg"}},{"name":"Steinachweg","postalCode":"71139","locality":"Ehningen","municipality":{"key":"08115013","name":"Ehningen","type":"Kreisangehörige_Gemeinde"},"district":{"key":"08115","name":"Böblingen","type":"Landkreis"},"federalState":{"key":"08","name":"Baden-Württemberg"}},{"name":"Steinstr.","postalCode":"71139","locality":"Ehningen","municipality":{"key":"08115013","name":"Ehningen","type":"Kreisangehörige_Gemeinde"},"district":{"key":"08115","name":"Böblingen","type":"Landkreis"},"federalState":{"key":"08","name":"Baden-Württemberg"}},{"name":"Steinwerkstr.","postalCode":"71139","locality":"Ehningen","municipality":{"key":"08115013","name":"Ehningen","type":"Kreisangehörige_Gemeinde"},"district":{"key":"08115","name":"Böblingen","type":"Landkreis"},"federalState":{"key":"08","name":"Baden-Württemberg"}},{"name":"Stettiner Str.","postalCode":"71139","locality":"Ehningen","municipality":{"key":"08115013","name":"Ehningen","type":"Kreisangehörige_Gemeinde"},"district":{"key":"08115","name":"Böblingen","type":"Landkreis"},"federalState":{"key":"08","name":"Baden-Württemberg"}},{"name":"Sudetenweg","postalCode":"71139","locality":"Ehningen","municipality":{"key":"08115013","name":"Ehningen","type":"Kreisangehörige_Gemeinde"},"district":{"key":"08115","name":"Böblingen","type":"Landkreis"},"federalState":{"key":"08","name":"Baden-Württemberg"}},{"name":"Talstr.","postalCode":"71139","locality":"Ehningen","municipality":{"key":"08115013","name":"Ehningen","type":"Kreisangehörige_Gemeinde"},"district":{"key":"08115","name":"Böblingen","type":"Landkreis"},"federalState":{"key":"08","name":"Baden-Württemberg"}},{"name":"Tauberweg","postalCode":"71139","locality":"Ehningen","municipality":{"key":"08115013","name":"Ehningen","type":"Kreisangehörige_Gemeinde"},"district":{"key":"08115","name":"Böblingen","type":"Landkreis"},"federalState":{"key":"08","name":"Baden-Württemberg"}},{"name":"Thymianweg","postalCode":"71139","locality":"Ehningen","municipality":{"key":"08115013","name":"Ehningen","type":"Kreisangehörige_Gemeinde"},"district":{"key":"08115","name":"Böblingen","type":"Landkreis"},"federalState":{"key":"08","name":"Baden-Württemberg"}},{"name":"Troppauer Str.","postalCode":"71139","locality":"Ehningen","municipality":{"key":"08115013","name":"Ehningen","type":"Kreisangehörige_Gemeinde"},"district":{"key":"08115","name":"Böblingen","type":"Landkreis"},"federalState":{"key":"08","name":"Baden-Württemberg"}},{"name":"Uhlandstr.","postalCode":"71139","locality":"Ehningen","municipality":{"key":"08115013","name":"Ehningen","type":"Kreisangehörige_Gemeinde"},"district":{"key":"08115","name":"Böblingen","type":"Landkreis"},"federalState":{"key":"08","name":"Baden-Württemberg"}},{"name":"Vogelbeerweg","postalCode":"71139","locality":"Ehningen","municipality":{"key":"08115013","name":"Ehningen","type":"Kreisangehörige_Gemeinde"},"district":{"key":"08115","name":"Böblingen","type":"Landkreis"},"federalState":{"key":"08","name":"Baden-Württemberg"}},{"name":"Waagstr.","postalCode":"71139","locality":"Ehningen","municipality":{"key":"08115013","name":"Ehningen","type":"Kreisangehörige_Gemeinde"},"district":{"key":"08115","name":"Böblingen","type":"Landkreis"},"federalState":{"key":"08","name":"Baden-Württemberg"}},{"name":"Wacholderweg","postalCode":"71139","locality":"Ehningen","municipality":{"key":"08115013","name":"Ehningen","type":"Kreisangehörige_Gemeinde"},"district":{"key":"08115","name":"Böblingen","type":"Landkreis"},"federalState":{"key":"08","name":"Baden-Württemberg"}},{"name":"Waldstr.","postalCode":"71139","locality":"Ehningen","municipality":{"key":"08115013","name":"Ehningen","type":"Kreisangehörige_Gemeinde"},"district":{"key":"08115","name":"Böblingen","type":"Landkreis"},"federalState":{"key":"08","name":"Baden-Württemberg"}},{"name":"Weinbergweg","postalCode":"71139","locality":"Ehningen","municipality":{"key":"08115013","name":"Ehningen","type":"Kreisangehörige_Gemeinde"},"district":{"key":"08115","name":"Böblingen","type":"Landkreis"},"federalState":{"key":"08","name":"Baden-Württemberg"}},{"name":"Weißdornweg","postalCode":"71139","locality":"Ehningen","municipality":{"key":"08115013","name":"Ehningen","type":"Kreisangehörige_Gemeinde"},"district":{"key":"08115","name":"Böblingen","type":"Landkreis"},"federalState":{"key":"08","name":"Baden-Württemberg"}},{"name":"Wengertsbergallee","postalCode":"71139","locality":"Ehningen","municipality":{"key":"08115013","name":"Ehningen","type":"Kreisangehörige_Gemeinde"},"district":{"key":"08115","name":"Böblingen","type":"Landkreis"},"federalState":{"key":"08","name":"Baden-Württemberg"}},{"name":"Wilhelmstr.","postalCode":"71139","locality":"Ehningen","municipality":{"key":"08115013","name":"Ehningen","type":"Kreisangehörige_Gemeinde"},"district":{"key":"08115","name":"Böblingen","type":"Landkreis"},"federalState":{"key":"08","name":"Baden-Württemberg"}},{"name":"Würmstr.","postalCode":"71139","locality":"Ehningen","municipality":{"key":"08115013","name":"Ehningen","type":"Kreisangehörige_Gemeinde"},"district":{"key":"08115","name":"Böblingen","type":"Landkreis"},"federalState":{"key":"08","name":"Baden-Württemberg"}},{"name":"Wutachweg","postalCode":"71139","locality":"Ehningen","municipality":{"key":"08115013","name":"Ehningen","type":"Kreisangehörige_Gemeinde"},"district":{"key":"08115","name":"Böblingen","type":"Landkreis"},"federalState":{"key":"08","name":"Baden-Württemberg"}},{"name":"Zeisigweg","postalCode":"71139","locality":"Ehningen","municipality":{"key":"08115013","name":"Ehningen","type":"Kreisangehörige_Gemeinde"},"district":{"key":"08115","name":"Böblingen","type":"Landkreis"},"federalState":{"key":"08","name":"Baden-Württemberg"}},{"name":"Ziegelweg","postalCode":"71139","locality":"Ehningen","municipality":{"key":"08115013","name":"Ehningen","type":"Kreisangehörige_Gemeinde"},"district":{"key":"08115","name":"Böblingen","type":"Landkreis"},"federalState":{"key":"08","name":"Baden-Württemberg"}},{"name":"Zufahrt Waldfriedhof","postalCode":"71139","locality":"Ehningen","municipality":{"key":"08115013","name":"Ehningen","type":"Kreisangehörige_Gemeinde"},"district":{"key":"08115","name":"Böblingen","type":"Landkreis"},"federalState":{"key":"08","name":"Baden-Württemberg"}},{"name":"Öhmdweg","postalCode":"71034","locality":"Böblingen","municipality":{"key":"08115003","name":"Böblingen, Stadt","type":"Große_Kreisstadt"},"district":{"key":"08115","name":"Böblingen","type":"Landkreis"},"federalState":{"key":"08","name":"Baden-Württemberg"}},]