[{"name":"Ahornstr.","postalCode":"49849","locality":"Wilsum","municipality":{"key":"03456026","name":"Wilsum","type":"Kreisangehörige_Gemeinde"},"district":{"key":"03456","name":"Grafschaft Bentheim","type":"Landkreis"},"federalState":{"key":"03","name":"Niedersachsen"}},{"name":"Am Fertenbach","postalCode":"49849","locality":"Wilsum","municipality":{"key":"03456026","name":"Wilsum","type":"Kreisangehörige_Gemeinde"},"district":{"key":"03456","name":"Grafschaft Bentheim","type":"Landkreis"},"federalState":{"key":"03","name":"Niedersachsen"}},{"name":"Am Friedhof","postalCode":"49849","locality":"Wilsum","municipality":{"key":"03456026","name":"Wilsum","type":"Kreisangehörige_Gemeinde"},"district":{"key":"03456","name":"Grafschaft Bentheim","type":"Landkreis"},"federalState":{"key":"03","name":"Niedersachsen"}},{"name":"Am Friesenbach","postalCode":"49849","locality":"Wilsum","municipality":{"key":"03456026","name":"Wilsum","type":"Kreisangehörige_Gemeinde"},"district":{"key":"03456","name":"Grafschaft Bentheim","type":"Landkreis"},"federalState":{"key":"03","name":"Niedersachsen"}},{"name":"Am Geelkamp","postalCode":"49849","locality":"Wilsum","municipality":{"key":"03456026","name":"Wilsum","type":"Kreisangehörige_Gemeinde"},"district":{"key":"03456","name":"Grafschaft Bentheim","type":"Landkreis"},"federalState":{"key":"03","name":"Niedersachsen"}},{"name":"Am Goldberg","postalCode":"49849","locality":"Wilsum","municipality":{"key":"03456026","name":"Wilsum","type":"Kreisangehörige_Gemeinde"},"district":{"key":"03456","name":"Grafschaft Bentheim","type":"Landkreis"},"federalState":{"key":"03","name":"Niedersachsen"}},{"name":"Am Hopfenbach","postalCode":"49849","locality":"Wilsum","municipality":{"key":"03456026","name":"Wilsum","type":"Kreisangehörige_Gemeinde"},"district":{"key":"03456","name":"Grafschaft Bentheim","type":"Landkreis"},"federalState":{"key":"03","name":"Niedersachsen"}},{"name":"Am Mühlenteich","postalCode":"49849","locality":"Wilsum","municipality":{"key":"03456026","name":"Wilsum","type":"Kreisangehörige_Gemeinde"},"district":{"key":"03456","name":"Grafschaft Bentheim","type":"Landkreis"},"federalState":{"key":"03","name":"Niedersachsen"}},{"name":"Am Sportplatz","postalCode":"49849","locality":"Wilsum","municipality":{"key":"03456026","name":"Wilsum","type":"Kreisangehörige_Gemeinde"},"district":{"key":"03456","name":"Grafschaft Bentheim","type":"Landkreis"},"federalState":{"key":"03","name":"Niedersachsen"}},{"name":"Auf dem Zuschlag","postalCode":"49849","locality":"Wilsum","municipality":{"key":"03456026","name":"Wilsum","type":"Kreisangehörige_Gemeinde"},"district":{"key":"03456","name":"Grafschaft Bentheim","type":"Landkreis"},"federalState":{"key":"03","name":"Niedersachsen"}},{"name":"Bergstr.","postalCode":"49849","locality":"Wilsum","municipality":{"key":"03456026","name":"Wilsum","type":"Kreisangehörige_Gemeinde"},"district":{"key":"03456","name":"Grafschaft Bentheim","type":"Landkreis"},"federalState":{"key":"03","name":"Niedersachsen"}},{"name":"Brookstr.","postalCode":"49849","locality":"Wilsum","municipality":{"key":"03456026","name":"Wilsum","type":"Kreisangehörige_Gemeinde"},"district":{"key":"03456","name":"Grafschaft Bentheim","type":"Landkreis"},"federalState":{"key":"03","name":"Niedersachsen"}},{"name":"Buchenweg","postalCode":"49849","locality":"Wilsum","municipality":{"key":"03456026","name":"Wilsum","type":"Kreisangehörige_Gemeinde"},"district":{"key":"03456","name":"Grafschaft Bentheim","type":"Landkreis"},"federalState":{"key":"03","name":"Niedersachsen"}},{"name":"Butenhuse","postalCode":"49849","locality":"Wilsum","municipality":{"key":"03456026","name":"Wilsum","type":"Kreisangehörige_Gemeinde"},"district":{"key":"03456","name":"Grafschaft Bentheim","type":"Landkreis"},"federalState":{"key":"03","name":"Niedersachsen"}},{"name":"Dorfstr.","postalCode":"49849","locality":"Wilsum","municipality":{"key":"03456026","name":"Wilsum","type":"Kreisangehörige_Gemeinde"},"district":{"key":"03456","name":"Grafschaft Bentheim","type":"Landkreis"},"federalState":{"key":"03","name":"Niedersachsen"}},{"name":"Echtelerstr.","postalCode":"49849","locality":"Wilsum","municipality":{"key":"03456026","name":"Wilsum","type":"Kreisangehörige_Gemeinde"},"district":{"key":"03456","name":"Grafschaft Bentheim","type":"Landkreis"},"federalState":{"key":"03","name":"Niedersachsen"}},{"name":"Eichenallee","postalCode":"49849","locality":"Wilsum","municipality":{"key":"03456026","name":"Wilsum","type":"Kreisangehörige_Gemeinde"},"district":{"key":"03456","name":"Grafschaft Bentheim","type":"Landkreis"},"federalState":{"key":"03","name":"Niedersachsen"}},{"name":"Elshook","postalCode":"49849","locality":"Wilsum","municipality":{"key":"03456026","name":"Wilsum","type":"Kreisangehörige_Gemeinde"},"district":{"key":"03456","name":"Grafschaft Bentheim","type":"Landkreis"},"federalState":{"key":"03","name":"Niedersachsen"}},{"name":"Emlichheimer Str.","postalCode":"49849","locality":"Wilsum","municipality":{"key":"03456026","name":"Wilsum","type":"Kreisangehörige_Gemeinde"},"district":{"key":"03456","name":"Grafschaft Bentheim","type":"Landkreis"},"federalState":{"key":"03","name":"Niedersachsen"}},{"name":"Fischediek","postalCode":"49849","locality":"Wilsum","municipality":{"key":"03456026","name":"Wilsum","type":"Kreisangehörige_Gemeinde"},"district":{"key":"03456","name":"Grafschaft Bentheim","type":"Landkreis"},"federalState":{"key":"03","name":"Niedersachsen"}},{"name":"Gagelstrauchweg","postalCode":"49849","locality":"Wilsum","municipality":{"key":"03456026","name":"Wilsum","type":"Kreisangehörige_Gemeinde"},"district":{"key":"03456","name":"Grafschaft Bentheim","type":"Landkreis"},"federalState":{"key":"03","name":"Niedersachsen"}},{"name":"Gerstenkamp","postalCode":"49849","locality":"Wilsum","municipality":{"key":"03456026","name":"Wilsum","type":"Kreisangehörige_Gemeinde"},"district":{"key":"03456","name":"Grafschaft Bentheim","type":"Landkreis"},"federalState":{"key":"03","name":"Niedersachsen"}},{"name":"Gewerbestr.","postalCode":"49849","locality":"Wilsum","municipality":{"key":"03456026","name":"Wilsum","type":"Kreisangehörige_Gemeinde"},"district":{"key":"03456","name":"Grafschaft Bentheim","type":"Landkreis"},"federalState":{"key":"03","name":"Niedersachsen"}},{"name":"Gölenkamper Str.","postalCode":"49849","locality":"Wilsum","municipality":{"key":"03456026","name":"Wilsum","type":"Kreisangehörige_Gemeinde"},"district":{"key":"03456","name":"Grafschaft Bentheim","type":"Landkreis"},"federalState":{"key":"03","name":"Niedersachsen"}},{"name":"Haferkamp","postalCode":"49849","locality":"Wilsum","municipality":{"key":"03456026","name":"Wilsum","type":"Kreisangehörige_Gemeinde"},"district":{"key":"03456","name":"Grafschaft Bentheim","type":"Landkreis"},"federalState":{"key":"03","name":"Niedersachsen"}},{"name":"Hauptstr.","postalCode":"49849","locality":"Wilsum","municipality":{"key":"03456026","name":"Wilsum","type":"Kreisangehörige_Gemeinde"},"district":{"key":"03456","name":"Grafschaft Bentheim","type":"Landkreis"},"federalState":{"key":"03","name":"Niedersachsen"}},{"name":"Hooge Weg","postalCode":"49849","locality":"Wilsum","municipality":{"key":"03456026","name":"Wilsum","type":"Kreisangehörige_Gemeinde"},"district":{"key":"03456","name":"Grafschaft Bentheim","type":"Landkreis"},"federalState":{"key":"03","name":"Niedersachsen"}},{"name":"Hoogsteder Str.","postalCode":"49849","locality":"Wilsum","municipality":{"key":"03456026","name":"Wilsum","type":"Kreisangehörige_Gemeinde"},"district":{"key":"03456","name":"Grafschaft Bentheim","type":"Landkreis"},"federalState":{"key":"03","name":"Niedersachsen"}},{"name":"Im Glup","postalCode":"49849","locality":"Wilsum","municipality":{"key":"03456026","name":"Wilsum","type":"Kreisangehörige_Gemeinde"},"district":{"key":"03456","name":"Grafschaft Bentheim","type":"Landkreis"},"federalState":{"key":"03","name":"Niedersachsen"}},{"name":"Im Westesch","postalCode":"49849","locality":"Wilsum","municipality":{"key":"03456026","name":"Wilsum","type":"Kreisangehörige_Gemeinde"},"district":{"key":"03456","name":"Grafschaft Bentheim","type":"Landkreis"},"federalState":{"key":"03","name":"Niedersachsen"}},{"name":"In der Stadt","postalCode":"49849","locality":"Wilsum","municipality":{"key":"03456026","name":"Wilsum","type":"Kreisangehörige_Gemeinde"},"district":{"key":"03456","name":"Grafschaft Bentheim","type":"Landkreis"},"federalState":{"key":"03","name":"Niedersachsen"}},{"name":"Industriestr.","postalCode":"49849","locality":"Wilsum","municipality":{"key":"03456026","name":"Wilsum","type":"Kreisangehörige_Gemeinde"},"district":{"key":"03456","name":"Grafschaft Bentheim","type":"Landkreis"},"federalState":{"key":"03","name":"Niedersachsen"}},{"name":"Itterbecker Str.","postalCode":"49849","locality":"Wilsum","municipality":{"key":"03456026","name":"Wilsum","type":"Kreisangehörige_Gemeinde"},"district":{"key":"03456","name":"Grafschaft Bentheim","type":"Landkreis"},"federalState":{"key":"03","name":"Niedersachsen"}},{"name":"Kleihook","postalCode":"49849","locality":"Wilsum","municipality":{"key":"03456026","name":"Wilsum","type":"Kreisangehörige_Gemeinde"},"district":{"key":"03456","name":"Grafschaft Bentheim","type":"Landkreis"},"federalState":{"key":"03","name":"Niedersachsen"}},{"name":"Mittelesch","postalCode":"49849","locality":"Wilsum","municipality":{"key":"03456026","name":"Wilsum","type":"Kreisangehörige_Gemeinde"},"district":{"key":"03456","name":"Grafschaft Bentheim","type":"Landkreis"},"federalState":{"key":"03","name":"Niedersachsen"}},{"name":"Molkereistr.","postalCode":"49849","locality":"Wilsum","municipality":{"key":"03456026","name":"Wilsum","type":"Kreisangehörige_Gemeinde"},"district":{"key":"03456","name":"Grafschaft Bentheim","type":"Landkreis"},"federalState":{"key":"03","name":"Niedersachsen"}},{"name":"Mühlenweg","postalCode":"49849","locality":"Wilsum","municipality":{"key":"03456026","name":"Wilsum","type":"Kreisangehörige_Gemeinde"},"district":{"key":"03456","name":"Grafschaft Bentheim","type":"Landkreis"},"federalState":{"key":"03","name":"Niedersachsen"}},{"name":"Osterend","postalCode":"49849","locality":"Wilsum","municipality":{"key":"03456026","name":"Wilsum","type":"Kreisangehörige_Gemeinde"},"district":{"key":"03456","name":"Grafschaft Bentheim","type":"Landkreis"},"federalState":{"key":"03","name":"Niedersachsen"}},{"name":"Ostermoor","postalCode":"49849","locality":"Wilsum","municipality":{"key":"03456026","name":"Wilsum","type":"Kreisangehörige_Gemeinde"},"district":{"key":"03456","name":"Grafschaft Bentheim","type":"Landkreis"},"federalState":{"key":"03","name":"Niedersachsen"}},{"name":"Pappelstr.","postalCode":"49849","locality":"Wilsum","municipality":{"key":"03456026","name":"Wilsum","type":"Kreisangehörige_Gemeinde"},"district":{"key":"03456","name":"Grafschaft Bentheim","type":"Landkreis"},"federalState":{"key":"03","name":"Niedersachsen"}},{"name":"Pickmäijersweg","postalCode":"49849","locality":"Wilsum","municipality":{"key":"03456026","name":"Wilsum","type":"Kreisangehörige_Gemeinde"},"district":{"key":"03456","name":"Grafschaft Bentheim","type":"Landkreis"},"federalState":{"key":"03","name":"Niedersachsen"}},{"name":"Ratzeler Str.","postalCode":"49849","locality":"Wilsum","municipality":{"key":"03456026","name":"Wilsum","type":"Kreisangehörige_Gemeinde"},"district":{"key":"03456","name":"Grafschaft Bentheim","type":"Landkreis"},"federalState":{"key":"03","name":"Niedersachsen"}},{"name":"Ridderskamp","postalCode":"49849","locality":"Wilsum","municipality":{"key":"03456026","name":"Wilsum","type":"Kreisangehörige_Gemeinde"},"district":{"key":"03456","name":"Grafschaft Bentheim","type":"Landkreis"},"federalState":{"key":"03","name":"Niedersachsen"}},{"name":"Roggenkamp","postalCode":"49849","locality":"Wilsum","municipality":{"key":"03456026","name":"Wilsum","type":"Kreisangehörige_Gemeinde"},"district":{"key":"03456","name":"Grafschaft Bentheim","type":"Landkreis"},"federalState":{"key":"03","name":"Niedersachsen"}},{"name":"Rotdornstr.","postalCode":"49849","locality":"Wilsum","municipality":{"key":"03456026","name":"Wilsum","type":"Kreisangehörige_Gemeinde"},"district":{"key":"03456","name":"Grafschaft Bentheim","type":"Landkreis"},"federalState":{"key":"03","name":"Niedersachsen"}},{"name":"Rotthook","postalCode":"49849","locality":"Wilsum","municipality":{"key":"03456026","name":"Wilsum","type":"Kreisangehörige_Gemeinde"},"district":{"key":"03456","name":"Grafschaft Bentheim","type":"Landkreis"},"federalState":{"key":"03","name":"Niedersachsen"}},{"name":"Suke","postalCode":"49849","locality":"Wilsum","municipality":{"key":"03456026","name":"Wilsum","type":"Kreisangehörige_Gemeinde"},"district":{"key":"03456","name":"Grafschaft Bentheim","type":"Landkreis"},"federalState":{"key":"03","name":"Niedersachsen"}},{"name":"Tangenberg","postalCode":"49849","locality":"Wilsum","municipality":{"key":"03456026","name":"Wilsum","type":"Kreisangehörige_Gemeinde"},"district":{"key":"03456","name":"Grafschaft Bentheim","type":"Landkreis"},"federalState":{"key":"03","name":"Niedersachsen"}},{"name":"Uelsener Str.","postalCode":"49849","locality":"Wilsum","municipality":{"key":"03456026","name":"Wilsum","type":"Kreisangehörige_Gemeinde"},"district":{"key":"03456","name":"Grafschaft Bentheim","type":"Landkreis"},"federalState":{"key":"03","name":"Niedersachsen"}},{"name":"Ulmenstr.","postalCode":"49849","locality":"Wilsum","municipality":{"key":"03456026","name":"Wilsum","type":"Kreisangehörige_Gemeinde"},"district":{"key":"03456","name":"Grafschaft Bentheim","type":"Landkreis"},"federalState":{"key":"03","name":"Niedersachsen"}},{"name":"Up't Hooge","postalCode":"49849","locality":"Wilsum","municipality":{"key":"03456026","name":"Wilsum","type":"Kreisangehörige_Gemeinde"},"district":{"key":"03456","name":"Grafschaft Bentheim","type":"Landkreis"},"federalState":{"key":"03","name":"Niedersachsen"}},{"name":"Verbindungsstr.","postalCode":"49849","locality":"Wilsum","municipality":{"key":"03456026","name":"Wilsum","type":"Kreisangehörige_Gemeinde"},"district":{"key":"03456","name":"Grafschaft Bentheim","type":"Landkreis"},"federalState":{"key":"03","name":"Niedersachsen"}},{"name":"Verbindungsweg","postalCode":"49849","locality":"Wilsum","municipality":{"key":"03456026","name":"Wilsum","type":"Kreisangehörige_Gemeinde"},"district":{"key":"03456","name":"Grafschaft Bentheim","type":"Landkreis"},"federalState":{"key":"03","name":"Niedersachsen"}},{"name":"Verlängerung Brookstr.","postalCode":"49849","locality":"Wilsum","municipality":{"key":"03456026","name":"Wilsum","type":"Kreisangehörige_Gemeinde"},"district":{"key":"03456","name":"Grafschaft Bentheim","type":"Landkreis"},"federalState":{"key":"03","name":"Niedersachsen"}},{"name":"Verlängerung Gagelstrauchweg","postalCode":"49849","locality":"Wilsum","municipality":{"key":"03456026","name":"Wilsum","type":"Kreisangehörige_Gemeinde"},"district":{"key":"03456","name":"Grafschaft Bentheim","type":"Landkreis"},"federalState":{"key":"03","name":"Niedersachsen"}},{"name":"Waldweg","postalCode":"49849","locality":"Wilsum","municipality":{"key":"03456026","name":"Wilsum","type":"Kreisangehörige_Gemeinde"},"district":{"key":"03456","name":"Grafschaft Bentheim","type":"Landkreis"},"federalState":{"key":"03","name":"Niedersachsen"}},{"name":"Weizenkamp","postalCode":"49849","locality":"Wilsum","municipality":{"key":"03456026","name":"Wilsum","type":"Kreisangehörige_Gemeinde"},"district":{"key":"03456","name":"Grafschaft Bentheim","type":"Landkreis"},"federalState":{"key":"03","name":"Niedersachsen"}},{"name":"Westervenn","postalCode":"49849","locality":"Wilsum","municipality":{"key":"03456026","name":"Wilsum","type":"Kreisangehörige_Gemeinde"},"district":{"key":"03456","name":"Grafschaft Bentheim","type":"Landkreis"},"federalState":{"key":"03","name":"Niedersachsen"}},{"name":"Wilsumer Wanderweg","postalCode":"49849","locality":"Wilsum","municipality":{"key":"03456026","name":"Wilsum","type":"Kreisangehörige_Gemeinde"},"district":{"key":"03456","name":"Grafschaft Bentheim","type":"Landkreis"},"federalState":{"key":"03","name":"Niedersachsen"}},{"name":"Winnebrook","postalCode":"49849","locality":"Wilsum","municipality":{"key":"03456026","name":"Wilsum","type":"Kreisangehörige_Gemeinde"},"district":{"key":"03456","name":"Grafschaft Bentheim","type":"Landkreis"},"federalState":{"key":"03","name":"Niedersachsen"}},{"name":"Wirtschaftsweg","postalCode":"49849","locality":"Wilsum","municipality":{"key":"03456026","name":"Wilsum","type":"Kreisangehörige_Gemeinde"},"district":{"key":"03456","name":"Grafschaft Bentheim","type":"Landkreis"},"federalState":{"key":"03","name":"Niedersachsen"}},{"name":"Zufahrt WAZ","postalCode":"49849","locality":"Wilsum","municipality":{"key":"03456026","name":"Wilsum","type":"Kreisangehörige_Gemeinde"},"district":{"key":"03456","name":"Grafschaft Bentheim","type":"Landkreis"},"federalState":{"key":"03","name":"Niedersachsen"}},{"name":"Zum Feriengebiet","postalCode":"49849","locality":"Wilsum","municipality":{"key":"03456026","name":"Wilsum","type":"Kreisangehörige_Gemeinde"},"district":{"key":"03456","name":"Grafschaft Bentheim","type":"Landkreis"},"federalState":{"key":"03","name":"Niedersachsen"}},{"name":"Zur Ferte","postalCode":"49849","locality":"Wilsum","municipality":{"key":"03456026","name":"Wilsum","type":"Kreisangehörige_Gemeinde"},"district":{"key":"03456","name":"Grafschaft Bentheim","type":"Landkreis"},"federalState":{"key":"03","name":"Niedersachsen"}},]