[{"name":"Alte Dorfstr.","postalCode":"38312","locality":"Dorstadt","municipality":{"key":"03158010","name":"Dorstadt","type":"Kreisangehörige_Gemeinde"},"district":{"key":"03158","name":"Wolfenbüttel","type":"Landkreis"},"federalState":{"key":"03","name":"Niedersachsen"}},{"name":"Alter Holzweg","postalCode":"38312","locality":"Dorstadt","municipality":{"key":"03158010","name":"Dorstadt","type":"Kreisangehörige_Gemeinde"},"district":{"key":"03158","name":"Wolfenbüttel","type":"Landkreis"},"federalState":{"key":"03","name":"Niedersachsen"}},{"name":"Am Bruch","postalCode":"38312","locality":"Dorstadt","municipality":{"key":"03158010","name":"Dorstadt","type":"Kreisangehörige_Gemeinde"},"district":{"key":"03158","name":"Wolfenbüttel","type":"Landkreis"},"federalState":{"key":"03","name":"Niedersachsen"}},{"name":"Am Förstergarten","postalCode":"38312","locality":"Dorstadt","municipality":{"key":"03158010","name":"Dorstadt","type":"Kreisangehörige_Gemeinde"},"district":{"key":"03158","name":"Wolfenbüttel","type":"Landkreis"},"federalState":{"key":"03","name":"Niedersachsen"}},{"name":"Am Sportplatz","postalCode":"38312","locality":"Dorstadt","municipality":{"key":"03158010","name":"Dorstadt","type":"Kreisangehörige_Gemeinde"},"district":{"key":"03158","name":"Wolfenbüttel","type":"Landkreis"},"federalState":{"key":"03","name":"Niedersachsen"}},{"name":"Bäckergasse","postalCode":"38300","locality":"Wolfenbüttel","municipality":{"key":"03158037","name":"Wolfenbüttel, Stadt","type":"Stadt"},"district":{"key":"03158","name":"Wolfenbüttel","type":"Landkreis"},"federalState":{"key":"03","name":"Niedersachsen"}},{"name":"Bäckerstr.","postalCode":"38304","locality":"Wolfenbüttel","municipality":{"key":"03158037","name":"Wolfenbüttel, Stadt","type":"Stadt"},"district":{"key":"03158","name":"Wolfenbüttel","type":"Landkreis"},"federalState":{"key":"03","name":"Niedersachsen"}},{"name":"Bahnhof","postalCode":"38300","locality":"Wolfenbüttel","municipality":{"key":"03158037","name":"Wolfenbüttel, Stadt","type":"Stadt"},"district":{"key":"03158","name":"Wolfenbüttel","type":"Landkreis"},"federalState":{"key":"03","name":"Niedersachsen"}},{"name":"Bahnhofstr.","postalCode":"38300","locality":"Wolfenbüttel","municipality":{"key":"03158037","name":"Wolfenbüttel, Stadt","type":"Stadt"},"district":{"key":"03158","name":"Wolfenbüttel","type":"Landkreis"},"federalState":{"key":"03","name":"Niedersachsen"}},{"name":"Bauermeisterwinkel","postalCode":"38302","locality":"Wolfenbüttel","municipality":{"key":"03158037","name":"Wolfenbüttel, Stadt","type":"Stadt"},"district":{"key":"03158","name":"Wolfenbüttel","type":"Landkreis"},"federalState":{"key":"03","name":"Niedersachsen"}},{"name":"Beethovenstr.","postalCode":"38302","locality":"Wolfenbüttel","municipality":{"key":"03158037","name":"Wolfenbüttel, Stadt","type":"Stadt"},"district":{"key":"03158","name":"Wolfenbüttel","type":"Landkreis"},"federalState":{"key":"03","name":"Niedersachsen"}},{"name":"Behringstr.","postalCode":"38302","locality":"Wolfenbüttel","municipality":{"key":"03158037","name":"Wolfenbüttel, Stadt","type":"Stadt"},"district":{"key":"03158","name":"Wolfenbüttel","type":"Landkreis"},"federalState":{"key":"03","name":"Niedersachsen"}},{"name":"Berberitzenweg","postalCode":"38302","locality":"Wolfenbüttel","municipality":{"key":"03158037","name":"Wolfenbüttel, Stadt","type":"Stadt"},"district":{"key":"03158","name":"Wolfenbüttel","type":"Landkreis"},"federalState":{"key":"03","name":"Niedersachsen"}},{"name":"Bergenrothweg","postalCode":"38304","locality":"Wolfenbüttel","municipality":{"key":"03158037","name":"Wolfenbüttel, Stadt","type":"Stadt"},"district":{"key":"03158","name":"Wolfenbüttel","type":"Landkreis"},"federalState":{"key":"03","name":"Niedersachsen"}},{"name":"Berliner Str.","postalCode":"38300","locality":"Wolfenbüttel","municipality":{"key":"03158037","name":"Wolfenbüttel, Stadt","type":"Stadt"},"district":{"key":"03158","name":"Wolfenbüttel","type":"Landkreis"},"federalState":{"key":"03","name":"Niedersachsen"}},{"name":"Bernardusring","postalCode":"38304","locality":"Wolfenbüttel","municipality":{"key":"03158037","name":"Wolfenbüttel, Stadt","type":"Stadt"},"district":{"key":"03158","name":"Wolfenbüttel","type":"Landkreis"},"federalState":{"key":"03","name":"Niedersachsen"}},{"name":"Billrothstr.","postalCode":"38302","locality":"Wolfenbüttel","municipality":{"key":"03158037","name":"Wolfenbüttel, Stadt","type":"Stadt"},"district":{"key":"03158","name":"Wolfenbüttel","type":"Landkreis"},"federalState":{"key":"03","name":"Niedersachsen"}},{"name":"Birkenweg","postalCode":"38302","locality":"Wolfenbüttel","municipality":{"key":"03158037","name":"Wolfenbüttel, Stadt","type":"Stadt"},"district":{"key":"03158","name":"Wolfenbüttel","type":"Landkreis"},"federalState":{"key":"03","name":"Niedersachsen"}},{"name":"Blankenburger Str.","postalCode":"38302","locality":"Wolfenbüttel","municipality":{"key":"03158037","name":"Wolfenbüttel, Stadt","type":"Stadt"},"district":{"key":"03158","name":"Wolfenbüttel","type":"Landkreis"},"federalState":{"key":"03","name":"Niedersachsen"}},{"name":"Blücherstr.","postalCode":"38304","locality":"Wolfenbüttel","municipality":{"key":"03158037","name":"Wolfenbüttel, Stadt","type":"Stadt"},"district":{"key":"03158","name":"Wolfenbüttel","type":"Landkreis"},"federalState":{"key":"03","name":"Niedersachsen"}},{"name":"Blumenallee","postalCode":"38300","locality":"Wolfenbüttel","municipality":{"key":"03158037","name":"Wolfenbüttel, Stadt","type":"Stadt"},"district":{"key":"03158","name":"Wolfenbüttel","type":"Landkreis"},"federalState":{"key":"03","name":"Niedersachsen"}},{"name":"Blumenstr.","postalCode":"38302","locality":"Wolfenbüttel","municipality":{"key":"03158037","name":"Wolfenbüttel, Stadt","type":"Stadt"},"district":{"key":"03158","name":"Wolfenbüttel","type":"Landkreis"},"federalState":{"key":"03","name":"Niedersachsen"}},{"name":"Blütenweg","postalCode":"38302","locality":"Wolfenbüttel","municipality":{"key":"03158037","name":"Wolfenbüttel, Stadt","type":"Stadt"},"district":{"key":"03158","name":"Wolfenbüttel","type":"Landkreis"},"federalState":{"key":"03","name":"Niedersachsen"}},{"name":"Bodelschwinghstr.","postalCode":"38300","locality":"Wolfenbüttel","municipality":{"key":"03158037","name":"Wolfenbüttel, Stadt","type":"Stadt"},"district":{"key":"03158","name":"Wolfenbüttel","type":"Landkreis"},"federalState":{"key":"03","name":"Niedersachsen"}},{"name":"Bokemeyerstr.","postalCode":"38304","locality":"Wolfenbüttel","municipality":{"key":"03158037","name":"Wolfenbüttel, Stadt","type":"Stadt"},"district":{"key":"03158","name":"Wolfenbüttel","type":"Landkreis"},"federalState":{"key":"03","name":"Niedersachsen"}},{"name":"Böttcherweg","postalCode":"38300","locality":"Wolfenbüttel","municipality":{"key":"03158037","name":"Wolfenbüttel, Stadt","type":"Stadt"},"district":{"key":"03158","name":"Wolfenbüttel","type":"Landkreis"},"federalState":{"key":"03","name":"Niedersachsen"}},{"name":"Brauergildenstr.","postalCode":"38300","locality":"Wolfenbüttel","municipality":{"key":"03158037","name":"Wolfenbüttel, Stadt","type":"Stadt"},"district":{"key":"03158","name":"Wolfenbüttel","type":"Landkreis"},"federalState":{"key":"03","name":"Niedersachsen"}},{"name":"Braunschweiger Str.","postalCode":"38302","locality":"Wolfenbüttel","municipality":{"key":"03158037","name":"Wolfenbüttel, Stadt","type":"Stadt"},"district":{"key":"03158","name":"Wolfenbüttel","type":"Landkreis"},"federalState":{"key":"03","name":"Niedersachsen"}},{"name":"Breite Herzogstr.","postalCode":"38300","locality":"Wolfenbüttel","municipality":{"key":"03158037","name":"Wolfenbüttel, Stadt","type":"Stadt"},"district":{"key":"03158","name":"Wolfenbüttel","type":"Landkreis"},"federalState":{"key":"03","name":"Niedersachsen"}},{"name":"Breiter Weg","postalCode":"38304","locality":"Wolfenbüttel","municipality":{"key":"03158037","name":"Wolfenbüttel, Stadt","type":"Stadt"},"district":{"key":"03158","name":"Wolfenbüttel","type":"Landkreis"},"federalState":{"key":"03","name":"Niedersachsen"}},{"name":"Breslauer Str.","postalCode":"38302","locality":"Wolfenbüttel","municipality":{"key":"03158037","name":"Wolfenbüttel, Stadt","type":"Stadt"},"district":{"key":"03158","name":"Wolfenbüttel","type":"Landkreis"},"federalState":{"key":"03","name":"Niedersachsen"}},{"name":"Briouze Platz","postalCode":"38302","locality":"Wolfenbüttel","municipality":{"key":"03158037","name":"Wolfenbüttel, Stadt","type":"Stadt"},"district":{"key":"03158","name":"Wolfenbüttel","type":"Landkreis"},"federalState":{"key":"03","name":"Niedersachsen"}},{"name":"Brockenblick","postalCode":"38302","locality":"Wolfenbüttel","municipality":{"key":"03158037","name":"Wolfenbüttel, Stadt","type":"Stadt"},"district":{"key":"03158","name":"Wolfenbüttel","type":"Landkreis"},"federalState":{"key":"03","name":"Niedersachsen"}},{"name":"Brücke, Bridge","postalCode":"38300","locality":"Wolfenbüttel","municipality":{"key":"03158037","name":"Wolfenbüttel, Stadt","type":"Stadt"},"district":{"key":"03158","name":"Wolfenbüttel","type":"Landkreis"},"federalState":{"key":"03","name":"Niedersachsen"}},{"name":"Buchenweg","postalCode":"38302","locality":"Wolfenbüttel","municipality":{"key":"03158037","name":"Wolfenbüttel, Stadt","type":"Stadt"},"district":{"key":"03158","name":"Wolfenbüttel","type":"Landkreis"},"federalState":{"key":"03","name":"Niedersachsen"}},{"name":"Bungenstedter Turm","postalCode":"38304","locality":"Wolfenbüttel","municipality":{"key":"03158037","name":"Wolfenbüttel, Stadt","type":"Stadt"},"district":{"key":"03158","name":"Wolfenbüttel","type":"Landkreis"},"federalState":{"key":"03","name":"Niedersachsen"}},{"name":"Bunsenweg","postalCode":"38300","locality":"Wolfenbüttel","municipality":{"key":"03158037","name":"Wolfenbüttel, Stadt","type":"Stadt"},"district":{"key":"03158","name":"Wolfenbüttel","type":"Landkreis"},"federalState":{"key":"03","name":"Niedersachsen"}},{"name":"Bunzlauer Str.","postalCode":"38302","locality":"Wolfenbüttel","municipality":{"key":"03158037","name":"Wolfenbüttel, Stadt","type":"Stadt"},"district":{"key":"03158","name":"Wolfenbüttel","type":"Landkreis"},"federalState":{"key":"03","name":"Niedersachsen"}},{"name":"Campestr.","postalCode":"38302","locality":"Wolfenbüttel","municipality":{"key":"03158037","name":"Wolfenbüttel, Stadt","type":"Stadt"},"district":{"key":"03158","name":"Wolfenbüttel","type":"Landkreis"},"federalState":{"key":"03","name":"Niedersachsen"}},{"name":"Cort-Mente-Str.","postalCode":"38304","locality":"Wolfenbüttel","municipality":{"key":"03158037","name":"Wolfenbüttel, Stadt","type":"Stadt"},"district":{"key":"03158","name":"Wolfenbüttel","type":"Landkreis"},"federalState":{"key":"03","name":"Niedersachsen"}},{"name":"Crammer Str.","postalCode":"38304","locality":"Wolfenbüttel","municipality":{"key":"03158037","name":"Wolfenbüttel, Stadt","type":"Stadt"},"district":{"key":"03158","name":"Wolfenbüttel","type":"Landkreis"},"federalState":{"key":"03","name":"Niedersachsen"}},{"name":"Cranachstr.","postalCode":"38300","locality":"Wolfenbüttel","municipality":{"key":"03158037","name":"Wolfenbüttel, Stadt","type":"Stadt"},"district":{"key":"03158","name":"Wolfenbüttel","type":"Landkreis"},"federalState":{"key":"03","name":"Niedersachsen"}},{"name":"Dahlienweg","postalCode":"38302","locality":"Wolfenbüttel","municipality":{"key":"03158037","name":"Wolfenbüttel, Stadt","type":"Stadt"},"district":{"key":"03158","name":"Wolfenbüttel","type":"Landkreis"},"federalState":{"key":"03","name":"Niedersachsen"}},{"name":"Danziger Str.","postalCode":"38302","locality":"Wolfenbüttel","municipality":{"key":"03158037","name":"Wolfenbüttel, Stadt","type":"Stadt"},"district":{"key":"03158","name":"Wolfenbüttel","type":"Landkreis"},"federalState":{"key":"03","name":"Niedersachsen"}},{"name":"Der Anger","postalCode":"38302","locality":"Wolfenbüttel","municipality":{"key":"03158037","name":"Wolfenbüttel, Stadt","type":"Stadt"},"district":{"key":"03158","name":"Wolfenbüttel","type":"Landkreis"},"federalState":{"key":"03","name":"Niedersachsen"}},{"name":"Dietrich-Bonhoeffer-Str.","postalCode":"38300","locality":"Wolfenbüttel","municipality":{"key":"03158037","name":"Wolfenbüttel, Stadt","type":"Stadt"},"district":{"key":"03158","name":"Wolfenbüttel","type":"Landkreis"},"federalState":{"key":"03","name":"Niedersachsen"}},{"name":"Distelweg","postalCode":"38300","locality":"Wolfenbüttel","municipality":{"key":"03158037","name":"Wolfenbüttel, Stadt","type":"Stadt"},"district":{"key":"03158","name":"Wolfenbüttel","type":"Landkreis"},"federalState":{"key":"03","name":"Niedersachsen"}},{"name":"Doktor-August-Wolfstieg-Str.","postalCode":"38304","locality":"Wolfenbüttel","municipality":{"key":"03158037","name":"Wolfenbüttel, Stadt","type":"Stadt"},"district":{"key":"03158","name":"Wolfenbüttel","type":"Landkreis"},"federalState":{"key":"03","name":"Niedersachsen"}},{"name":"Doktorkamp","postalCode":"38302","locality":"Wolfenbüttel","municipality":{"key":"03158037","name":"Wolfenbüttel, Stadt","type":"Stadt"},"district":{"key":"03158","name":"Wolfenbüttel","type":"Landkreis"},"federalState":{"key":"03","name":"Niedersachsen"}},{"name":"Donnerbergstr.","postalCode":"38300","locality":"Wolfenbüttel","municipality":{"key":"03158037","name":"Wolfenbüttel, Stadt","type":"Stadt"},"district":{"key":"03158","name":"Wolfenbüttel","type":"Landkreis"},"federalState":{"key":"03","name":"Niedersachsen"}},{"name":"Dorfplatz","postalCode":"38304","locality":"Wolfenbüttel","municipality":{"key":"03158037","name":"Wolfenbüttel, Stadt","type":"Stadt"},"district":{"key":"03158","name":"Wolfenbüttel","type":"Landkreis"},"federalState":{"key":"03","name":"Niedersachsen"}},{"name":"Dorfstr.","postalCode":"38300","locality":"Wolfenbüttel","municipality":{"key":"03158037","name":"Wolfenbüttel, Stadt","type":"Stadt"},"district":{"key":"03158","name":"Wolfenbüttel","type":"Landkreis"},"federalState":{"key":"03","name":"Niedersachsen"}},{"name":"Drehstr.","postalCode":"38304","locality":"Wolfenbüttel","municipality":{"key":"03158037","name":"Wolfenbüttel, Stadt","type":"Stadt"},"district":{"key":"03158","name":"Wolfenbüttel","type":"Landkreis"},"federalState":{"key":"03","name":"Niedersachsen"}},{"name":"Drei-Linden-Weg","postalCode":"38300","locality":"Wolfenbüttel","municipality":{"key":"03158037","name":"Wolfenbüttel, Stadt","type":"Stadt"},"district":{"key":"03158","name":"Wolfenbüttel","type":"Landkreis"},"federalState":{"key":"03","name":"Niedersachsen"}},{"name":"Dr.-Heinrich-Jasper-Str.","postalCode":"38304","locality":"Wolfenbüttel","municipality":{"key":"03158037","name":"Wolfenbüttel, Stadt","type":"Stadt"},"district":{"key":"03158","name":"Wolfenbüttel","type":"Landkreis"},"federalState":{"key":"03","name":"Niedersachsen"}},{"name":"Dr.-Kirchheimer-Str.","postalCode":"38304","locality":"Wolfenbüttel","municipality":{"key":"03158037","name":"Wolfenbüttel, Stadt","type":"Stadt"},"district":{"key":"03158","name":"Wolfenbüttel","type":"Landkreis"},"federalState":{"key":"03","name":"Niedersachsen"}},{"name":"Drosselgasse","postalCode":"38300","locality":"Wolfenbüttel","municipality":{"key":"03158037","name":"Wolfenbüttel, Stadt","type":"Stadt"},"district":{"key":"03158","name":"Wolfenbüttel","type":"Landkreis"},"federalState":{"key":"03","name":"Niedersachsen"}},{"name":"Dürerstr.","postalCode":"38300","locality":"Wolfenbüttel","municipality":{"key":"03158037","name":"Wolfenbüttel, Stadt","type":"Stadt"},"district":{"key":"03158","name":"Wolfenbüttel","type":"Landkreis"},"federalState":{"key":"03","name":"Niedersachsen"}},{"name":"Echternstr.","postalCode":"38300","locality":"Wolfenbüttel","municipality":{"key":"03158037","name":"Wolfenbüttel, Stadt","type":"Stadt"},"district":{"key":"03158","name":"Wolfenbüttel","type":"Landkreis"},"federalState":{"key":"03","name":"Niedersachsen"}},{"name":"Eibenweg","postalCode":"38302","locality":"Wolfenbüttel","municipality":{"key":"03158037","name":"Wolfenbüttel, Stadt","type":"Stadt"},"district":{"key":"03158","name":"Wolfenbüttel","type":"Landkreis"},"federalState":{"key":"03","name":"Niedersachsen"}},{"name":"Eichendorffstr.","postalCode":"38304","locality":"Wolfenbüttel","municipality":{"key":"03158037","name":"Wolfenbüttel, Stadt","type":"Stadt"},"district":{"key":"03158","name":"Wolfenbüttel","type":"Landkreis"},"federalState":{"key":"03","name":"Niedersachsen"}},{"name":"Eichenweg","postalCode":"38302","locality":"Wolfenbüttel","municipality":{"key":"03158037","name":"Wolfenbüttel, Stadt","type":"Stadt"},"district":{"key":"03158","name":"Wolfenbüttel","type":"Landkreis"},"federalState":{"key":"03","name":"Niedersachsen"}},{"name":"Eisenhutweg","postalCode":"38300","locality":"Wolfenbüttel","municipality":{"key":"03158037","name":"Wolfenbüttel, Stadt","type":"Stadt"},"district":{"key":"03158","name":"Wolfenbüttel","type":"Landkreis"},"federalState":{"key":"03","name":"Niedersachsen"}},{"name":"Elbinger Str.","postalCode":"38302","locality":"Wolfenbüttel","municipality":{"key":"03158037","name":"Wolfenbüttel, Stadt","type":"Stadt"},"district":{"key":"03158","name":"Wolfenbüttel","type":"Landkreis"},"federalState":{"key":"03","name":"Niedersachsen"}},{"name":"Elmblick","postalCode":"38302","locality":"Wolfenbüttel","municipality":{"key":"03158037","name":"Wolfenbüttel, Stadt","type":"Stadt"},"district":{"key":"03158","name":"Wolfenbüttel","type":"Landkreis"},"federalState":{"key":"03","name":"Niedersachsen"}},{"name":"Elmweg","postalCode":"38302","locality":"Wolfenbüttel","municipality":{"key":"03158037","name":"Wolfenbüttel, Stadt","type":"Stadt"},"district":{"key":"03158","name":"Wolfenbüttel","type":"Landkreis"},"federalState":{"key":"03","name":"Niedersachsen"}},{"name":"Elsässer Str.","postalCode":"38300","locality":"Wolfenbüttel","municipality":{"key":"03158037","name":"Wolfenbüttel, Stadt","type":"Stadt"},"district":{"key":"03158","name":"Wolfenbüttel","type":"Landkreis"},"federalState":{"key":"03","name":"Niedersachsen"}},{"name":"Elsbeerweg","postalCode":"38302","locality":"Wolfenbüttel","municipality":{"key":"03158037","name":"Wolfenbüttel, Stadt","type":"Stadt"},"district":{"key":"03158","name":"Wolfenbüttel","type":"Landkreis"},"federalState":{"key":"03","name":"Niedersachsen"}},{"name":"Elsterweg","postalCode":"38302","locality":"Wolfenbüttel","municipality":{"key":"03158037","name":"Wolfenbüttel, Stadt","type":"Stadt"},"district":{"key":"03158","name":"Wolfenbüttel","type":"Landkreis"},"federalState":{"key":"03","name":"Niedersachsen"}},{"name":"Enge Str.","postalCode":"38300","locality":"Wolfenbüttel","municipality":{"key":"03158037","name":"Wolfenbüttel, Stadt","type":"Stadt"},"district":{"key":"03158","name":"Wolfenbüttel","type":"Landkreis"},"federalState":{"key":"03","name":"Niedersachsen"}},{"name":"Erhart-Kästner-Str.","postalCode":"38304","locality":"Wolfenbüttel","municipality":{"key":"03158037","name":"Wolfenbüttel, Stadt","type":"Stadt"},"district":{"key":"03158","name":"Wolfenbüttel","type":"Landkreis"},"federalState":{"key":"03","name":"Niedersachsen"}},{"name":"Erlenweg","postalCode":"38302","locality":"Wolfenbüttel","municipality":{"key":"03158037","name":"Wolfenbüttel, Stadt","type":"Stadt"},"district":{"key":"03158","name":"Wolfenbüttel","type":"Landkreis"},"federalState":{"key":"03","name":"Niedersachsen"}},{"name":"Ernst-Hasenjäger-Str.","postalCode":"38304","locality":"Wolfenbüttel","municipality":{"key":"03158037","name":"Wolfenbüttel, Stadt","type":"Stadt"},"district":{"key":"03158","name":"Wolfenbüttel","type":"Landkreis"},"federalState":{"key":"03","name":"Niedersachsen"}},{"name":"Ernst-Moritz-Arndt-Str.","postalCode":"38304","locality":"Wolfenbüttel","municipality":{"key":"03158037","name":"Wolfenbüttel, Stadt","type":"Stadt"},"district":{"key":"03158","name":"Wolfenbüttel","type":"Landkreis"},"federalState":{"key":"03","name":"Niedersachsen"}},{"name":"Eschenweg","postalCode":"38302","locality":"Wolfenbüttel","municipality":{"key":"03158037","name":"Wolfenbüttel, Stadt","type":"Stadt"},"district":{"key":"03158","name":"Wolfenbüttel","type":"Landkreis"},"federalState":{"key":"03","name":"Niedersachsen"}},{"name":"Eulenstr.","postalCode":"38304","locality":"Wolfenbüttel","municipality":{"key":"03158037","name":"Wolfenbüttel, Stadt","type":"Stadt"},"district":{"key":"03158","name":"Wolfenbüttel","type":"Landkreis"},"federalState":{"key":"03","name":"Niedersachsen"}},{"name":"Fallsteinweg","postalCode":"38302","locality":"Wolfenbüttel","municipality":{"key":"03158037","name":"Wolfenbüttel, Stadt","type":"Stadt"},"district":{"key":"03158","name":"Wolfenbüttel","type":"Landkreis"},"federalState":{"key":"03","name":"Niedersachsen"}},{"name":"Feldstr.","postalCode":"38302","locality":"Wolfenbüttel","municipality":{"key":"03158037","name":"Wolfenbüttel, Stadt","type":"Stadt"},"district":{"key":"03158","name":"Wolfenbüttel","type":"Landkreis"},"federalState":{"key":"03","name":"Niedersachsen"}},{"name":"Ferdinandstr.","postalCode":"38300","locality":"Wolfenbüttel","municipality":{"key":"03158037","name":"Wolfenbüttel, Stadt","type":"Stadt"},"district":{"key":"03158","name":"Wolfenbüttel","type":"Landkreis"},"federalState":{"key":"03","name":"Niedersachsen"}},{"name":"Feuerbachstr.","postalCode":"38300","locality":"Wolfenbüttel","municipality":{"key":"03158037","name":"Wolfenbüttel, Stadt","type":"Stadt"},"district":{"key":"03158","name":"Wolfenbüttel","type":"Landkreis"},"federalState":{"key":"03","name":"Niedersachsen"}},{"name":"Fichtendamm","postalCode":"38302","locality":"Wolfenbüttel","municipality":{"key":"03158037","name":"Wolfenbüttel, Stadt","type":"Stadt"},"district":{"key":"03158","name":"Wolfenbüttel","type":"Landkreis"},"federalState":{"key":"03","name":"Niedersachsen"}},{"name":"Finkenpfad","postalCode":"38300","locality":"Wolfenbüttel","municipality":{"key":"03158037","name":"Wolfenbüttel, Stadt","type":"Stadt"},"district":{"key":"03158","name":"Wolfenbüttel","type":"Landkreis"},"federalState":{"key":"03","name":"Niedersachsen"}},{"name":"Fischerstr.","postalCode":"38300","locality":"Wolfenbüttel","municipality":{"key":"03158037","name":"Wolfenbüttel, Stadt","type":"Stadt"},"district":{"key":"03158","name":"Wolfenbüttel","type":"Landkreis"},"federalState":{"key":"03","name":"Niedersachsen"}},{"name":"Fliederkehre","postalCode":"38302","locality":"Wolfenbüttel","municipality":{"key":"03158037","name":"Wolfenbüttel, Stadt","type":"Stadt"},"district":{"key":"03158","name":"Wolfenbüttel","type":"Landkreis"},"federalState":{"key":"03","name":"Niedersachsen"}},{"name":"Fliederweg","postalCode":"38302","locality":"Wolfenbüttel","municipality":{"key":"03158037","name":"Wolfenbüttel, Stadt","type":"Stadt"},"district":{"key":"03158","name":"Wolfenbüttel","type":"Landkreis"},"federalState":{"key":"03","name":"Niedersachsen"}},{"name":"Flotostr.","postalCode":"38302","locality":"Wolfenbüttel","municipality":{"key":"03158037","name":"Wolfenbüttel, Stadt","type":"Stadt"},"district":{"key":"03158","name":"Wolfenbüttel","type":"Landkreis"},"federalState":{"key":"03","name":"Niedersachsen"}},{"name":"Fontaneweg","postalCode":"38304","locality":"Wolfenbüttel","municipality":{"key":"03158037","name":"Wolfenbüttel, Stadt","type":"Stadt"},"district":{"key":"03158","name":"Wolfenbüttel","type":"Landkreis"},"federalState":{"key":"03","name":"Niedersachsen"}},{"name":"Försterkamp","postalCode":"38302","locality":"Wolfenbüttel","municipality":{"key":"03158037","name":"Wolfenbüttel, Stadt","type":"Stadt"},"district":{"key":"03158","name":"Wolfenbüttel","type":"Landkreis"},"federalState":{"key":"03","name":"Niedersachsen"}},{"name":"Forstweg","postalCode":"38302","locality":"Wolfenbüttel","municipality":{"key":"03158037","name":"Wolfenbüttel, Stadt","type":"Stadt"},"district":{"key":"03158","name":"Wolfenbüttel","type":"Landkreis"},"federalState":{"key":"03","name":"Niedersachsen"}},{"name":"Frankfurter Str.","postalCode":"38304","locality":"Wolfenbüttel","municipality":{"key":"03158037","name":"Wolfenbüttel, Stadt","type":"Stadt"},"district":{"key":"03158","name":"Wolfenbüttel","type":"Landkreis"},"federalState":{"key":"03","name":"Niedersachsen"}},{"name":"Freundschaftsbuchenweg","postalCode":"38304","locality":"Wolfenbüttel","municipality":{"key":"03158037","name":"Wolfenbüttel, Stadt","type":"Stadt"},"district":{"key":"03158","name":"Wolfenbüttel","type":"Landkreis"},"federalState":{"key":"03","name":"Niedersachsen"}},{"name":"Friedenauer Weg","postalCode":"38300","locality":"Wolfenbüttel","municipality":{"key":"03158037","name":"Wolfenbüttel, Stadt","type":"Stadt"},"district":{"key":"03158","name":"Wolfenbüttel","type":"Landkreis"},"federalState":{"key":"03","name":"Niedersachsen"}},{"name":"Friedrich-Ebert-Str.","postalCode":"38302","locality":"Wolfenbüttel","municipality":{"key":"03158037","name":"Wolfenbüttel, Stadt","type":"Stadt"},"district":{"key":"03158","name":"Wolfenbüttel","type":"Landkreis"},"federalState":{"key":"03","name":"Niedersachsen"}},{"name":"Friedrich-Ebert-Str.","postalCode":"38304","locality":"Wolfenbüttel","municipality":{"key":"03158037","name":"Wolfenbüttel, Stadt","type":"Stadt"},"district":{"key":"03158","name":"Wolfenbüttel","type":"Landkreis"},"federalState":{"key":"03","name":"Niedersachsen"}},{"name":"Friedrich-Ludwig-Jahn-Platz","postalCode":"38300","locality":"Wolfenbüttel","municipality":{"key":"03158037","name":"Wolfenbüttel, Stadt","type":"Stadt"},"district":{"key":"03158","name":"Wolfenbüttel","type":"Landkreis"},"federalState":{"key":"03","name":"Niedersachsen"}},{"name":"Friedrich-Schäfer-Str.","postalCode":"38304","locality":"Wolfenbüttel","municipality":{"key":"03158037","name":"Wolfenbüttel, Stadt","type":"Stadt"},"district":{"key":"03158","name":"Wolfenbüttel","type":"Landkreis"},"federalState":{"key":"03","name":"Niedersachsen"}},{"name":"Friedrich-Wilhelm-Str.","postalCode":"38302","locality":"Wolfenbüttel","municipality":{"key":"03158037","name":"Wolfenbüttel, Stadt","type":"Stadt"},"district":{"key":"03158","name":"Wolfenbüttel","type":"Landkreis"},"federalState":{"key":"03","name":"Niedersachsen"}},{"name":"Friehenstr.","postalCode":"38304","locality":"Wolfenbüttel","municipality":{"key":"03158037","name":"Wolfenbüttel, Stadt","type":"Stadt"},"district":{"key":"03158","name":"Wolfenbüttel","type":"Landkreis"},"federalState":{"key":"03","name":"Niedersachsen"}},{"name":"Fritz-Fischer-Str.","postalCode":"38304","locality":"Wolfenbüttel","municipality":{"key":"03158037","name":"Wolfenbüttel, Stadt","type":"Stadt"},"district":{"key":"03158","name":"Wolfenbüttel","type":"Landkreis"},"federalState":{"key":"03","name":"Niedersachsen"}},{"name":"Fritz-Reuter-Weg","postalCode":"38304","locality":"Wolfenbüttel","municipality":{"key":"03158037","name":"Wolfenbüttel, Stadt","type":"Stadt"},"district":{"key":"03158","name":"Wolfenbüttel","type":"Landkreis"},"federalState":{"key":"03","name":"Niedersachsen"}},{"name":"Fröbelstr.","postalCode":"38300","locality":"Wolfenbüttel","municipality":{"key":"03158037","name":"Wolfenbüttel, Stadt","type":"Stadt"},"district":{"key":"03158","name":"Wolfenbüttel","type":"Landkreis"},"federalState":{"key":"03","name":"Niedersachsen"}},{"name":"Fümmelser Str.","postalCode":"38304","locality":"Wolfenbüttel","municipality":{"key":"03158037","name":"Wolfenbüttel, Stadt","type":"Stadt"},"district":{"key":"03158","name":"Wolfenbüttel","type":"Landkreis"},"federalState":{"key":"03","name":"Niedersachsen"}},{"name":"Gabelsbergerstr.","postalCode":"38304","locality":"Wolfenbüttel","municipality":{"key":"03158037","name":"Wolfenbüttel, Stadt","type":"Stadt"},"district":{"key":"03158","name":"Wolfenbüttel","type":"Landkreis"},"federalState":{"key":"03","name":"Niedersachsen"}},{"name":"Gartenweg","postalCode":"38304","locality":"Wolfenbüttel","municipality":{"key":"03158037","name":"Wolfenbüttel, Stadt","type":"Stadt"},"district":{"key":"03158","name":"Wolfenbüttel","type":"Landkreis"},"federalState":{"key":"03","name":"Niedersachsen"}},{"name":"Gärtnerwinkel","postalCode":"38302","locality":"Wolfenbüttel","municipality":{"key":"03158037","name":"Wolfenbüttel, Stadt","type":"Stadt"},"district":{"key":"03158","name":"Wolfenbüttel","type":"Landkreis"},"federalState":{"key":"03","name":"Niedersachsen"}},{"name":"Gaußstr.","postalCode":"38300","locality":"Wolfenbüttel","municipality":{"key":"03158037","name":"Wolfenbüttel, Stadt","type":"Stadt"},"district":{"key":"03158","name":"Wolfenbüttel","type":"Landkreis"},"federalState":{"key":"03","name":"Niedersachsen"}},{"name":"Gebrüder-Welger-Str.","postalCode":"38304","locality":"Wolfenbüttel","municipality":{"key":"03158037","name":"Wolfenbüttel, Stadt","type":"Stadt"},"district":{"key":"03158","name":"Wolfenbüttel","type":"Landkreis"},"federalState":{"key":"03","name":"Niedersachsen"}},{"name":"Gefängnispark","postalCode":"38300","locality":"Wolfenbüttel","municipality":{"key":"03158037","name":"Wolfenbüttel, Stadt","type":"Stadt"},"district":{"key":"03158","name":"Wolfenbüttel","type":"Landkreis"},"federalState":{"key":"03","name":"Niedersachsen"}},{"name":"Geibelstr.","postalCode":"38304","locality":"Wolfenbüttel","municipality":{"key":"03158037","name":"Wolfenbüttel, Stadt","type":"Stadt"},"district":{"key":"03158","name":"Wolfenbüttel","type":"Landkreis"},"federalState":{"key":"03","name":"Niedersachsen"}},{"name":"Geitelplatz","postalCode":"38302","locality":"Wolfenbüttel","municipality":{"key":"03158037","name":"Wolfenbüttel, Stadt","type":"Stadt"},"district":{"key":"03158","name":"Wolfenbüttel","type":"Landkreis"},"federalState":{"key":"03","name":"Niedersachsen"}},{"name":"Gemeindeweg","postalCode":"38304","locality":"Wolfenbüttel","municipality":{"key":"03158037","name":"Wolfenbüttel, Stadt","type":"Stadt"},"district":{"key":"03158","name":"Wolfenbüttel","type":"Landkreis"},"federalState":{"key":"03","name":"Niedersachsen"}},{"name":"Gerhart-Hauptmann-Str.","postalCode":"38304","locality":"Wolfenbüttel","municipality":{"key":"03158037","name":"Wolfenbüttel, Stadt","type":"Stadt"},"district":{"key":"03158","name":"Wolfenbüttel","type":"Landkreis"},"federalState":{"key":"03","name":"Niedersachsen"}},{"name":"Ginsterweg","postalCode":"38300","locality":"Wolfenbüttel","municipality":{"key":"03158037","name":"Wolfenbüttel, Stadt","type":"Stadt"},"district":{"key":"03158","name":"Wolfenbüttel","type":"Landkreis"},"federalState":{"key":"03","name":"Niedersachsen"}},{"name":"Glatzer Weg","postalCode":"38302","locality":"Wolfenbüttel","municipality":{"key":"03158037","name":"Wolfenbüttel, Stadt","type":"Stadt"},"district":{"key":"03158","name":"Wolfenbüttel","type":"Landkreis"},"federalState":{"key":"03","name":"Niedersachsen"}},{"name":"Glockengasse","postalCode":"38304","locality":"Wolfenbüttel","municipality":{"key":"03158037","name":"Wolfenbüttel, Stadt","type":"Stadt"},"district":{"key":"03158","name":"Wolfenbüttel","type":"Landkreis"},"federalState":{"key":"03","name":"Niedersachsen"}},{"name":"Glogauer Weg","postalCode":"38302","locality":"Wolfenbüttel","municipality":{"key":"03158037","name":"Wolfenbüttel, Stadt","type":"Stadt"},"district":{"key":"03158","name":"Wolfenbüttel","type":"Landkreis"},"federalState":{"key":"03","name":"Niedersachsen"}},{"name":"Goethestr.","postalCode":"38304","locality":"Wolfenbüttel","municipality":{"key":"03158037","name":"Wolfenbüttel, Stadt","type":"Stadt"},"district":{"key":"03158","name":"Wolfenbüttel","type":"Landkreis"},"federalState":{"key":"03","name":"Niedersachsen"}},{"name":"Görlitzer Str.","postalCode":"38302","locality":"Wolfenbüttel","municipality":{"key":"03158037","name":"Wolfenbüttel, Stadt","type":"Stadt"},"district":{"key":"03158","name":"Wolfenbüttel","type":"Landkreis"},"federalState":{"key":"03","name":"Niedersachsen"}},{"name":"Goslarsche Str.","postalCode":"38304","locality":"Wolfenbüttel","municipality":{"key":"03158037","name":"Wolfenbüttel, Stadt","type":"Stadt"},"district":{"key":"03158","name":"Wolfenbüttel","type":"Landkreis"},"federalState":{"key":"03","name":"Niedersachsen"}},{"name":"Grauhofstr.","postalCode":"38304","locality":"Wolfenbüttel","municipality":{"key":"03158037","name":"Wolfenbüttel, Stadt","type":"Stadt"},"district":{"key":"03158","name":"Wolfenbüttel","type":"Landkreis"},"federalState":{"key":"03","name":"Niedersachsen"}},{"name":"Grimmstr.","postalCode":"38300","locality":"Wolfenbüttel","municipality":{"key":"03158037","name":"Wolfenbüttel, Stadt","type":"Stadt"},"district":{"key":"03158","name":"Wolfenbüttel","type":"Landkreis"},"federalState":{"key":"03","name":"Niedersachsen"}},{"name":"Große Breite","postalCode":"38302","locality":"Wolfenbüttel","municipality":{"key":"03158037","name":"Wolfenbüttel, Stadt","type":"Stadt"},"district":{"key":"03158","name":"Wolfenbüttel","type":"Landkreis"},"federalState":{"key":"03","name":"Niedersachsen"}},{"name":"Große Kirchstr.","postalCode":"38300","locality":"Wolfenbüttel","municipality":{"key":"03158037","name":"Wolfenbüttel, Stadt","type":"Stadt"},"district":{"key":"03158","name":"Wolfenbüttel","type":"Landkreis"},"federalState":{"key":"03","name":"Niedersachsen"}},{"name":"Groß Stöckheimer Weg","postalCode":"38304","locality":"Wolfenbüttel","municipality":{"key":"03158037","name":"Wolfenbüttel, Stadt","type":"Stadt"},"district":{"key":"03158","name":"Wolfenbüttel","type":"Landkreis"},"federalState":{"key":"03","name":"Niedersachsen"}},{"name":"Grundstr.","postalCode":"38304","locality":"Wolfenbüttel","municipality":{"key":"03158037","name":"Wolfenbüttel, Stadt","type":"Stadt"},"district":{"key":"03158","name":"Wolfenbüttel","type":"Landkreis"},"federalState":{"key":"03","name":"Niedersachsen"}},{"name":"Grüner Platz","postalCode":"38302","locality":"Wolfenbüttel","municipality":{"key":"03158037","name":"Wolfenbüttel, Stadt","type":"Stadt"},"district":{"key":"03158","name":"Wolfenbüttel","type":"Landkreis"},"federalState":{"key":"03","name":"Niedersachsen"}},{"name":"Grünewaldstr.","postalCode":"38300","locality":"Wolfenbüttel","municipality":{"key":"03158037","name":"Wolfenbüttel, Stadt","type":"Stadt"},"district":{"key":"03158","name":"Wolfenbüttel","type":"Landkreis"},"federalState":{"key":"03","name":"Niedersachsen"}},{"name":"Grüngürtel","postalCode":"38304","locality":"Wolfenbüttel","municipality":{"key":"03158037","name":"Wolfenbüttel, Stadt","type":"Stadt"},"district":{"key":"03158","name":"Wolfenbüttel","type":"Landkreis"},"federalState":{"key":"03","name":"Niedersachsen"}},{"name":"Grünlandweg","postalCode":"38302","locality":"Wolfenbüttel","municipality":{"key":"03158037","name":"Wolfenbüttel, Stadt","type":"Stadt"},"district":{"key":"03158","name":"Wolfenbüttel","type":"Landkreis"},"federalState":{"key":"03","name":"Niedersachsen"}},{"name":"Grüssauer Str.","postalCode":"38302","locality":"Wolfenbüttel","municipality":{"key":"03158037","name":"Wolfenbüttel, Stadt","type":"Stadt"},"district":{"key":"03158","name":"Wolfenbüttel","type":"Landkreis"},"federalState":{"key":"03","name":"Niedersachsen"}},{"name":"Gymnasialgasse","postalCode":"38300","locality":"Wolfenbüttel","municipality":{"key":"03158037","name":"Wolfenbüttel, Stadt","type":"Stadt"},"district":{"key":"03158","name":"Wolfenbüttel","type":"Landkreis"},"federalState":{"key":"03","name":"Niedersachsen"}},{"name":"Harzstr.","postalCode":"38312","locality":"Dorstadt","municipality":{"key":"03158010","name":"Dorstadt","type":"Kreisangehörige_Gemeinde"},"district":{"key":"03158","name":"Wolfenbüttel","type":"Landkreis"},"federalState":{"key":"03","name":"Niedersachsen"}},{"name":"Hinter dem Kloster","postalCode":"38312","locality":"Dorstadt","municipality":{"key":"03158010","name":"Dorstadt","type":"Kreisangehörige_Gemeinde"},"district":{"key":"03158","name":"Wolfenbüttel","type":"Landkreis"},"federalState":{"key":"03","name":"Niedersachsen"}},{"name":"Ibergweg","postalCode":"38302","locality":"Wolfenbüttel","municipality":{"key":"03158037","name":"Wolfenbüttel, Stadt","type":"Stadt"},"district":{"key":"03158","name":"Wolfenbüttel","type":"Landkreis"},"federalState":{"key":"03","name":"Niedersachsen"}},{"name":"Ilsenburger Str.","postalCode":"38302","locality":"Wolfenbüttel","municipality":{"key":"03158037","name":"Wolfenbüttel, Stadt","type":"Stadt"},"district":{"key":"03158","name":"Wolfenbüttel","type":"Landkreis"},"federalState":{"key":"03","name":"Niedersachsen"}},{"name":"Im Blumengarten","postalCode":"38304","locality":"Wolfenbüttel","municipality":{"key":"03158037","name":"Wolfenbüttel, Stadt","type":"Stadt"},"district":{"key":"03158","name":"Wolfenbüttel","type":"Landkreis"},"federalState":{"key":"03","name":"Niedersachsen"}},{"name":"Im Bruchmorgen","postalCode":"38304","locality":"Wolfenbüttel","municipality":{"key":"03158037","name":"Wolfenbüttel, Stadt","type":"Stadt"},"district":{"key":"03158","name":"Wolfenbüttel","type":"Landkreis"},"federalState":{"key":"03","name":"Niedersachsen"}},{"name":"Im Burgkamp","postalCode":"38304","locality":"Wolfenbüttel","municipality":{"key":"03158037","name":"Wolfenbüttel, Stadt","type":"Stadt"},"district":{"key":"03158","name":"Wolfenbüttel","type":"Landkreis"},"federalState":{"key":"03","name":"Niedersachsen"}},{"name":"Im Giebel","postalCode":"38302","locality":"Wolfenbüttel","municipality":{"key":"03158037","name":"Wolfenbüttel, Stadt","type":"Stadt"},"district":{"key":"03158","name":"Wolfenbüttel","type":"Landkreis"},"federalState":{"key":"03","name":"Niedersachsen"}},{"name":"Im Grabeland","postalCode":"38300","locality":"Wolfenbüttel","municipality":{"key":"03158037","name":"Wolfenbüttel, Stadt","type":"Stadt"},"district":{"key":"03158","name":"Wolfenbüttel","type":"Landkreis"},"federalState":{"key":"03","name":"Niedersachsen"}},{"name":"Im Großen Teiche","postalCode":"38304","locality":"Wolfenbüttel","municipality":{"key":"03158037","name":"Wolfenbüttel, Stadt","type":"Stadt"},"district":{"key":"03158","name":"Wolfenbüttel","type":"Landkreis"},"federalState":{"key":"03","name":"Niedersachsen"}},{"name":"Im Honigtal","postalCode":"38304","locality":"Wolfenbüttel","municipality":{"key":"03158037","name":"Wolfenbüttel, Stadt","type":"Stadt"},"district":{"key":"03158","name":"Wolfenbüttel","type":"Landkreis"},"federalState":{"key":"03","name":"Niedersachsen"}},{"name":"Im Kalten Tale","postalCode":"38304","locality":"Wolfenbüttel","municipality":{"key":"03158037","name":"Wolfenbüttel, Stadt","type":"Stadt"},"district":{"key":"03158","name":"Wolfenbüttel","type":"Landkreis"},"federalState":{"key":"03","name":"Niedersachsen"}},{"name":"Im Kamp","postalCode":"38300","locality":"Wolfenbüttel","municipality":{"key":"03158037","name":"Wolfenbüttel, Stadt","type":"Stadt"},"district":{"key":"03158","name":"Wolfenbüttel","type":"Landkreis"},"federalState":{"key":"03","name":"Niedersachsen"}},{"name":"Im Kirchfeld","postalCode":"38304","locality":"Wolfenbüttel","municipality":{"key":"03158037","name":"Wolfenbüttel, Stadt","type":"Stadt"},"district":{"key":"03158","name":"Wolfenbüttel","type":"Landkreis"},"federalState":{"key":"03","name":"Niedersachsen"}},{"name":"Im Kleekamp","postalCode":"38304","locality":"Wolfenbüttel","municipality":{"key":"03158037","name":"Wolfenbüttel, Stadt","type":"Stadt"},"district":{"key":"03158","name":"Wolfenbüttel","type":"Landkreis"},"federalState":{"key":"03","name":"Niedersachsen"}},{"name":"Im Kleinen Feld","postalCode":"38304","locality":"Wolfenbüttel","municipality":{"key":"03158037","name":"Wolfenbüttel, Stadt","type":"Stadt"},"district":{"key":"03158","name":"Wolfenbüttel","type":"Landkreis"},"federalState":{"key":"03","name":"Niedersachsen"}},{"name":"Im kleinen Horn","postalCode":"38304","locality":"Wolfenbüttel","municipality":{"key":"03158037","name":"Wolfenbüttel, Stadt","type":"Stadt"},"district":{"key":"03158","name":"Wolfenbüttel","type":"Landkreis"},"federalState":{"key":"03","name":"Niedersachsen"}},{"name":"Im Kohlgarten","postalCode":"38302","locality":"Wolfenbüttel","municipality":{"key":"03158037","name":"Wolfenbüttel, Stadt","type":"Stadt"},"district":{"key":"03158","name":"Wolfenbüttel","type":"Landkreis"},"federalState":{"key":"03","name":"Niedersachsen"}},{"name":"Im Lehmkamp","postalCode":"38302","locality":"Wolfenbüttel","municipality":{"key":"03158037","name":"Wolfenbüttel, Stadt","type":"Stadt"},"district":{"key":"03158","name":"Wolfenbüttel","type":"Landkreis"},"federalState":{"key":"03","name":"Niedersachsen"}},{"name":"Im Lindenfeld","postalCode":"38300","locality":"Wolfenbüttel","municipality":{"key":"03158037","name":"Wolfenbüttel, Stadt","type":"Stadt"},"district":{"key":"03158","name":"Wolfenbüttel","type":"Landkreis"},"federalState":{"key":"03","name":"Niedersachsen"}},{"name":"Im Lössfeld","postalCode":"38302","locality":"Wolfenbüttel","municipality":{"key":"03158037","name":"Wolfenbüttel, Stadt","type":"Stadt"},"district":{"key":"03158","name":"Wolfenbüttel","type":"Landkreis"},"federalState":{"key":"03","name":"Niedersachsen"}},{"name":"Im Meer","postalCode":"38302","locality":"Wolfenbüttel","municipality":{"key":"03158037","name":"Wolfenbüttel, Stadt","type":"Stadt"},"district":{"key":"03158","name":"Wolfenbüttel","type":"Landkreis"},"federalState":{"key":"03","name":"Niedersachsen"}},{"name":"Immenhof","postalCode":"38304","locality":"Wolfenbüttel","municipality":{"key":"03158037","name":"Wolfenbüttel, Stadt","type":"Stadt"},"district":{"key":"03158","name":"Wolfenbüttel","type":"Landkreis"},"federalState":{"key":"03","name":"Niedersachsen"}},{"name":"Im Mühlengrund","postalCode":"38304","locality":"Wolfenbüttel","municipality":{"key":"03158037","name":"Wolfenbüttel, Stadt","type":"Stadt"},"district":{"key":"03158","name":"Wolfenbüttel","type":"Landkreis"},"federalState":{"key":"03","name":"Niedersachsen"}},{"name":"Im Pfarrkamp","postalCode":"38300","locality":"Wolfenbüttel","municipality":{"key":"03158037","name":"Wolfenbüttel, Stadt","type":"Stadt"},"district":{"key":"03158","name":"Wolfenbüttel","type":"Landkreis"},"federalState":{"key":"03","name":"Niedersachsen"}},{"name":"Im Roggenkamp","postalCode":"38304","locality":"Wolfenbüttel","municipality":{"key":"03158037","name":"Wolfenbüttel, Stadt","type":"Stadt"},"district":{"key":"03158","name":"Wolfenbüttel","type":"Landkreis"},"federalState":{"key":"03","name":"Niedersachsen"}},{"name":"Im Rosenwinkel","postalCode":"38300","locality":"Wolfenbüttel","municipality":{"key":"03158037","name":"Wolfenbüttel, Stadt","type":"Stadt"},"district":{"key":"03158","name":"Wolfenbüttel","type":"Landkreis"},"federalState":{"key":"03","name":"Niedersachsen"}},{"name":"Im Rübenkamp","postalCode":"38304","locality":"Wolfenbüttel","municipality":{"key":"03158037","name":"Wolfenbüttel, Stadt","type":"Stadt"},"district":{"key":"03158","name":"Wolfenbüttel","type":"Landkreis"},"federalState":{"key":"03","name":"Niedersachsen"}},{"name":"Im Sikfeld","postalCode":"38304","locality":"Wolfenbüttel","municipality":{"key":"03158037","name":"Wolfenbüttel, Stadt","type":"Stadt"},"district":{"key":"03158","name":"Wolfenbüttel","type":"Landkreis"},"federalState":{"key":"03","name":"Niedersachsen"}},{"name":"Im Sommerfeld","postalCode":"38304","locality":"Wolfenbüttel","municipality":{"key":"03158037","name":"Wolfenbüttel, Stadt","type":"Stadt"},"district":{"key":"03158","name":"Wolfenbüttel","type":"Landkreis"},"federalState":{"key":"03","name":"Niedersachsen"}},{"name":"Im Stadtfeld","postalCode":"38304","locality":"Wolfenbüttel","municipality":{"key":"03158037","name":"Wolfenbüttel, Stadt","type":"Stadt"},"district":{"key":"03158","name":"Wolfenbüttel","type":"Landkreis"},"federalState":{"key":"03","name":"Niedersachsen"}},{"name":"Im Turmfeld","postalCode":"38304","locality":"Wolfenbüttel","municipality":{"key":"03158037","name":"Wolfenbüttel, Stadt","type":"Stadt"},"district":{"key":"03158","name":"Wolfenbüttel","type":"Landkreis"},"federalState":{"key":"03","name":"Niedersachsen"}},{"name":"Im Vogelsang","postalCode":"38304","locality":"Wolfenbüttel","municipality":{"key":"03158037","name":"Wolfenbüttel, Stadt","type":"Stadt"},"district":{"key":"03158","name":"Wolfenbüttel","type":"Landkreis"},"federalState":{"key":"03","name":"Niedersachsen"}},{"name":"Im Weberkamp","postalCode":"38304","locality":"Wolfenbüttel","municipality":{"key":"03158037","name":"Wolfenbüttel, Stadt","type":"Stadt"},"district":{"key":"03158","name":"Wolfenbüttel","type":"Landkreis"},"federalState":{"key":"03","name":"Niedersachsen"}},{"name":"Im Weidenkamp","postalCode":"38304","locality":"Wolfenbüttel","municipality":{"key":"03158037","name":"Wolfenbüttel, Stadt","type":"Stadt"},"district":{"key":"03158","name":"Wolfenbüttel","type":"Landkreis"},"federalState":{"key":"03","name":"Niedersachsen"}},{"name":"Im Weingarten","postalCode":"38300","locality":"Wolfenbüttel","municipality":{"key":"03158037","name":"Wolfenbüttel, Stadt","type":"Stadt"},"district":{"key":"03158","name":"Wolfenbüttel","type":"Landkreis"},"federalState":{"key":"03","name":"Niedersachsen"}},{"name":"Im Winterfeld","postalCode":"38304","locality":"Wolfenbüttel","municipality":{"key":"03158037","name":"Wolfenbüttel, Stadt","type":"Stadt"},"district":{"key":"03158","name":"Wolfenbüttel","type":"Landkreis"},"federalState":{"key":"03","name":"Niedersachsen"}},{"name":"In den Äckern","postalCode":"38300","locality":"Wolfenbüttel","municipality":{"key":"03158037","name":"Wolfenbüttel, Stadt","type":"Stadt"},"district":{"key":"03158","name":"Wolfenbüttel","type":"Landkreis"},"federalState":{"key":"03","name":"Niedersachsen"}},{"name":"In den Lindendöhren","postalCode":"38300","locality":"Wolfenbüttel","municipality":{"key":"03158037","name":"Wolfenbüttel, Stadt","type":"Stadt"},"district":{"key":"03158","name":"Wolfenbüttel","type":"Landkreis"},"federalState":{"key":"03","name":"Niedersachsen"}},{"name":"In den Schönen Morgen","postalCode":"38300","locality":"Wolfenbüttel","municipality":{"key":"03158037","name":"Wolfenbüttel, Stadt","type":"Stadt"},"district":{"key":"03158","name":"Wolfenbüttel","type":"Landkreis"},"federalState":{"key":"03","name":"Niedersachsen"}},{"name":"In der Steinkuhle","postalCode":"38304","locality":"Wolfenbüttel","municipality":{"key":"03158037","name":"Wolfenbüttel, Stadt","type":"Stadt"},"district":{"key":"03158","name":"Wolfenbüttel","type":"Landkreis"},"federalState":{"key":"03","name":"Niedersachsen"}},{"name":"Jägermeisterstr.","postalCode":"38302","locality":"Wolfenbüttel","municipality":{"key":"03158037","name":"Wolfenbüttel, Stadt","type":"Stadt"},"district":{"key":"03158","name":"Wolfenbüttel","type":"Landkreis"},"federalState":{"key":"03","name":"Niedersachsen"}},{"name":"Jägerstr.","postalCode":"38304","locality":"Wolfenbüttel","municipality":{"key":"03158037","name":"Wolfenbüttel, Stadt","type":"Stadt"},"district":{"key":"03158","name":"Wolfenbüttel","type":"Landkreis"},"federalState":{"key":"03","name":"Niedersachsen"}},{"name":"Jahnstr.","postalCode":"38302","locality":"Wolfenbüttel","municipality":{"key":"03158037","name":"Wolfenbüttel, Stadt","type":"Stadt"},"district":{"key":"03158","name":"Wolfenbüttel","type":"Landkreis"},"federalState":{"key":"03","name":"Niedersachsen"}},{"name":"Jasminweg","postalCode":"38300","locality":"Wolfenbüttel","municipality":{"key":"03158037","name":"Wolfenbüttel, Stadt","type":"Stadt"},"district":{"key":"03158","name":"Wolfenbüttel","type":"Landkreis"},"federalState":{"key":"03","name":"Niedersachsen"}},{"name":"Jochen-Klepper-Str.","postalCode":"38300","locality":"Wolfenbüttel","municipality":{"key":"03158037","name":"Wolfenbüttel, Stadt","type":"Stadt"},"district":{"key":"03158","name":"Wolfenbüttel","type":"Landkreis"},"federalState":{"key":"03","name":"Niedersachsen"}},{"name":"Johannisstr.","postalCode":"38304","locality":"Wolfenbüttel","municipality":{"key":"03158037","name":"Wolfenbüttel, Stadt","type":"Stadt"},"district":{"key":"03158","name":"Wolfenbüttel","type":"Landkreis"},"federalState":{"key":"03","name":"Niedersachsen"}},{"name":"Josef-Müller-Str.","postalCode":"38300","locality":"Wolfenbüttel","municipality":{"key":"03158037","name":"Wolfenbüttel, Stadt","type":"Stadt"},"district":{"key":"03158","name":"Wolfenbüttel","type":"Landkreis"},"federalState":{"key":"03","name":"Niedersachsen"}},{"name":"Juliusmarkt","postalCode":"38300","locality":"Wolfenbüttel","municipality":{"key":"03158037","name":"Wolfenbüttel, Stadt","type":"Stadt"},"district":{"key":"03158","name":"Wolfenbüttel","type":"Landkreis"},"federalState":{"key":"03","name":"Niedersachsen"}},{"name":"Juliusstr.","postalCode":"38300","locality":"Wolfenbüttel","municipality":{"key":"03158037","name":"Wolfenbüttel, Stadt","type":"Stadt"},"district":{"key":"03158","name":"Wolfenbüttel","type":"Landkreis"},"federalState":{"key":"03","name":"Niedersachsen"}},{"name":"Juliusstr.","postalCode":"38302","locality":"Wolfenbüttel","municipality":{"key":"03158037","name":"Wolfenbüttel, Stadt","type":"Stadt"},"district":{"key":"03158","name":"Wolfenbüttel","type":"Landkreis"},"federalState":{"key":"03","name":"Niedersachsen"}},{"name":"Juliusweg","postalCode":"38304","locality":"Wolfenbüttel","municipality":{"key":"03158037","name":"Wolfenbüttel, Stadt","type":"Stadt"},"district":{"key":"03158","name":"Wolfenbüttel","type":"Landkreis"},"federalState":{"key":"03","name":"Niedersachsen"}},{"name":"Jungfernstieg","postalCode":"38302","locality":"Wolfenbüttel","municipality":{"key":"03158037","name":"Wolfenbüttel, Stadt","type":"Stadt"},"district":{"key":"03158","name":"Wolfenbüttel","type":"Landkreis"},"federalState":{"key":"03","name":"Niedersachsen"}},{"name":"Justus-von-Liebig-Str.","postalCode":"38302","locality":"Wolfenbüttel","municipality":{"key":"03158037","name":"Wolfenbüttel, Stadt","type":"Stadt"},"district":{"key":"03158","name":"Wolfenbüttel","type":"Landkreis"},"federalState":{"key":"03","name":"Niedersachsen"}},{"name":"Kalkweg","postalCode":"38302","locality":"Wolfenbüttel","municipality":{"key":"03158037","name":"Wolfenbüttel, Stadt","type":"Stadt"},"district":{"key":"03158","name":"Wolfenbüttel","type":"Landkreis"},"federalState":{"key":"03","name":"Niedersachsen"}},{"name":"Kampweg","postalCode":"38304","locality":"Wolfenbüttel","municipality":{"key":"03158037","name":"Wolfenbüttel, Stadt","type":"Stadt"},"district":{"key":"03158","name":"Wolfenbüttel","type":"Landkreis"},"federalState":{"key":"03","name":"Niedersachsen"}},{"name":"Kannengießerstr.","postalCode":"38300","locality":"Wolfenbüttel","municipality":{"key":"03158037","name":"Wolfenbüttel, Stadt","type":"Stadt"},"district":{"key":"03158","name":"Wolfenbüttel","type":"Landkreis"},"federalState":{"key":"03","name":"Niedersachsen"}},{"name":"Kantstr.","postalCode":"38300","locality":"Wolfenbüttel","municipality":{"key":"03158037","name":"Wolfenbüttel, Stadt","type":"Stadt"},"district":{"key":"03158","name":"Wolfenbüttel","type":"Landkreis"},"federalState":{"key":"03","name":"Niedersachsen"}},{"name":"Kanzleistr.","postalCode":"38300","locality":"Wolfenbüttel","municipality":{"key":"03158037","name":"Wolfenbüttel, Stadt","type":"Stadt"},"district":{"key":"03158","name":"Wolfenbüttel","type":"Landkreis"},"federalState":{"key":"03","name":"Niedersachsen"}},{"name":"Karlstr.","postalCode":"38300","locality":"Wolfenbüttel","municipality":{"key":"03158037","name":"Wolfenbüttel, Stadt","type":"Stadt"},"district":{"key":"03158","name":"Wolfenbüttel","type":"Landkreis"},"federalState":{"key":"03","name":"Niedersachsen"}},{"name":"Karl-von-Hörsten-Str.","postalCode":"38304","locality":"Wolfenbüttel","municipality":{"key":"03158037","name":"Wolfenbüttel, Stadt","type":"Stadt"},"district":{"key":"03158","name":"Wolfenbüttel","type":"Landkreis"},"federalState":{"key":"03","name":"Niedersachsen"}},{"name":"Käseritze","postalCode":"38304","locality":"Wolfenbüttel","municipality":{"key":"03158037","name":"Wolfenbüttel, Stadt","type":"Stadt"},"district":{"key":"03158","name":"Wolfenbüttel","type":"Landkreis"},"federalState":{"key":"03","name":"Niedersachsen"}},{"name":"Käthe-Kollwitz-Platz","postalCode":"38300","locality":"Wolfenbüttel","municipality":{"key":"03158037","name":"Wolfenbüttel, Stadt","type":"Stadt"},"district":{"key":"03158","name":"Wolfenbüttel","type":"Landkreis"},"federalState":{"key":"03","name":"Niedersachsen"}},{"name":"Keplerstr.","postalCode":"38300","locality":"Wolfenbüttel","municipality":{"key":"03158037","name":"Wolfenbüttel, Stadt","type":"Stadt"},"district":{"key":"03158","name":"Wolfenbüttel","type":"Landkreis"},"federalState":{"key":"03","name":"Niedersachsen"}},{"name":"Kerschensteinerweg","postalCode":"38304","locality":"Wolfenbüttel","municipality":{"key":"03158037","name":"Wolfenbüttel, Stadt","type":"Stadt"},"district":{"key":"03158","name":"Wolfenbüttel","type":"Landkreis"},"federalState":{"key":"03","name":"Niedersachsen"}},{"name":"Kiefernweg","postalCode":"38302","locality":"Wolfenbüttel","municipality":{"key":"03158037","name":"Wolfenbüttel, Stadt","type":"Stadt"},"district":{"key":"03158","name":"Wolfenbüttel","type":"Landkreis"},"federalState":{"key":"03","name":"Niedersachsen"}},{"name":"Kirchgasse","postalCode":"38304","locality":"Wolfenbüttel","municipality":{"key":"03158037","name":"Wolfenbüttel, Stadt","type":"Stadt"},"district":{"key":"03158","name":"Wolfenbüttel","type":"Landkreis"},"federalState":{"key":"03","name":"Niedersachsen"}},{"name":"Kirchring","postalCode":"38300","locality":"Wolfenbüttel","municipality":{"key":"03158037","name":"Wolfenbüttel, Stadt","type":"Stadt"},"district":{"key":"03158","name":"Wolfenbüttel","type":"Landkreis"},"federalState":{"key":"03","name":"Niedersachsen"}},{"name":"Klatschmohnweg","postalCode":"38300","locality":"Wolfenbüttel","municipality":{"key":"03158037","name":"Wolfenbüttel, Stadt","type":"Stadt"},"district":{"key":"03158","name":"Wolfenbüttel","type":"Landkreis"},"federalState":{"key":"03","name":"Niedersachsen"}},{"name":"Klaus-Groth-Weg","postalCode":"38304","locality":"Wolfenbüttel","municipality":{"key":"03158037","name":"Wolfenbüttel, Stadt","type":"Stadt"},"district":{"key":"03158","name":"Wolfenbüttel","type":"Landkreis"},"federalState":{"key":"03","name":"Niedersachsen"}},{"name":"Kleine Breite","postalCode":"38302","locality":"Wolfenbüttel","municipality":{"key":"03158037","name":"Wolfenbüttel, Stadt","type":"Stadt"},"district":{"key":"03158","name":"Wolfenbüttel","type":"Landkreis"},"federalState":{"key":"03","name":"Niedersachsen"}},{"name":"Kleine Kirchstr.","postalCode":"38300","locality":"Wolfenbüttel","municipality":{"key":"03158037","name":"Wolfenbüttel, Stadt","type":"Stadt"},"district":{"key":"03158","name":"Wolfenbüttel","type":"Landkreis"},"federalState":{"key":"03","name":"Niedersachsen"}},{"name":"Kleiner Zimmerhof","postalCode":"38300","locality":"Wolfenbüttel","municipality":{"key":"03158037","name":"Wolfenbüttel, Stadt","type":"Stadt"},"district":{"key":"03158","name":"Wolfenbüttel","type":"Landkreis"},"federalState":{"key":"03","name":"Niedersachsen"}},{"name":"Kleingartenweg","postalCode":"38300","locality":"Wolfenbüttel","municipality":{"key":"03158037","name":"Wolfenbüttel, Stadt","type":"Stadt"},"district":{"key":"03158","name":"Wolfenbüttel","type":"Landkreis"},"federalState":{"key":"03","name":"Niedersachsen"}},{"name":"Klosterstr.","postalCode":"38300","locality":"Wolfenbüttel","municipality":{"key":"03158037","name":"Wolfenbüttel, Stadt","type":"Stadt"},"district":{"key":"03158","name":"Wolfenbüttel","type":"Landkreis"},"federalState":{"key":"03","name":"Niedersachsen"}},{"name":"Kolonie","postalCode":"38304","locality":"Wolfenbüttel","municipality":{"key":"03158037","name":"Wolfenbüttel, Stadt","type":"Stadt"},"district":{"key":"03158","name":"Wolfenbüttel","type":"Landkreis"},"federalState":{"key":"03","name":"Niedersachsen"}},{"name":"Kolpingstr.","postalCode":"38302","locality":"Wolfenbüttel","municipality":{"key":"03158037","name":"Wolfenbüttel, Stadt","type":"Stadt"},"district":{"key":"03158","name":"Wolfenbüttel","type":"Landkreis"},"federalState":{"key":"03","name":"Niedersachsen"}},{"name":"Königsberger Str.","postalCode":"38302","locality":"Wolfenbüttel","municipality":{"key":"03158037","name":"Wolfenbüttel, Stadt","type":"Stadt"},"district":{"key":"03158","name":"Wolfenbüttel","type":"Landkreis"},"federalState":{"key":"03","name":"Niedersachsen"}},{"name":"Konrad-Beste-Weg","postalCode":"38304","locality":"Wolfenbüttel","municipality":{"key":"03158037","name":"Wolfenbüttel, Stadt","type":"Stadt"},"district":{"key":"03158","name":"Wolfenbüttel","type":"Landkreis"},"federalState":{"key":"03","name":"Niedersachsen"}},{"name":"Kopernikusstr.","postalCode":"38300","locality":"Wolfenbüttel","municipality":{"key":"03158037","name":"Wolfenbüttel, Stadt","type":"Stadt"},"district":{"key":"03158","name":"Wolfenbüttel","type":"Landkreis"},"federalState":{"key":"03","name":"Niedersachsen"}},{"name":"Kornblumenweg","postalCode":"38300","locality":"Wolfenbüttel","municipality":{"key":"03158037","name":"Wolfenbüttel, Stadt","type":"Stadt"},"district":{"key":"03158","name":"Wolfenbüttel","type":"Landkreis"},"federalState":{"key":"03","name":"Niedersachsen"}},{"name":"Kornweg","postalCode":"38304","locality":"Wolfenbüttel","municipality":{"key":"03158037","name":"Wolfenbüttel, Stadt","type":"Stadt"},"district":{"key":"03158","name":"Wolfenbüttel","type":"Landkreis"},"federalState":{"key":"03","name":"Niedersachsen"}},{"name":"Kreisstr.","postalCode":"38304","locality":"Wolfenbüttel","municipality":{"key":"03158037","name":"Wolfenbüttel, Stadt","type":"Stadt"},"district":{"key":"03158","name":"Wolfenbüttel","type":"Landkreis"},"federalState":{"key":"03","name":"Niedersachsen"}},{"name":"Kreuzstr.","postalCode":"38300","locality":"Wolfenbüttel","municipality":{"key":"03158037","name":"Wolfenbüttel, Stadt","type":"Stadt"},"district":{"key":"03158","name":"Wolfenbüttel","type":"Landkreis"},"federalState":{"key":"03","name":"Niedersachsen"}},{"name":"Krumme Str.","postalCode":"38300","locality":"Wolfenbüttel","municipality":{"key":"03158037","name":"Wolfenbüttel, Stadt","type":"Stadt"},"district":{"key":"03158","name":"Wolfenbüttel","type":"Landkreis"},"federalState":{"key":"03","name":"Niedersachsen"}},{"name":"Kurzer Weg","postalCode":"38304","locality":"Wolfenbüttel","municipality":{"key":"03158037","name":"Wolfenbüttel, Stadt","type":"Stadt"},"district":{"key":"03158","name":"Wolfenbüttel","type":"Landkreis"},"federalState":{"key":"03","name":"Niedersachsen"}},{"name":"Landeshuter Platz","postalCode":"38300","locality":"Wolfenbüttel","municipality":{"key":"03158037","name":"Wolfenbüttel, Stadt","type":"Stadt"},"district":{"key":"03158","name":"Wolfenbüttel","type":"Landkreis"},"federalState":{"key":"03","name":"Niedersachsen"}},{"name":"Lange Str.","postalCode":"38300","locality":"Wolfenbüttel","municipality":{"key":"03158037","name":"Wolfenbüttel, Stadt","type":"Stadt"},"district":{"key":"03158","name":"Wolfenbüttel","type":"Landkreis"},"federalState":{"key":"03","name":"Niedersachsen"}},{"name":"Lange Str.","postalCode":"38304","locality":"Wolfenbüttel","municipality":{"key":"03158037","name":"Wolfenbüttel, Stadt","type":"Stadt"},"district":{"key":"03158","name":"Wolfenbüttel","type":"Landkreis"},"federalState":{"key":"03","name":"Niedersachsen"}},{"name":"Langhansweg","postalCode":"38302","locality":"Wolfenbüttel","municipality":{"key":"03158037","name":"Wolfenbüttel, Stadt","type":"Stadt"},"district":{"key":"03158","name":"Wolfenbüttel","type":"Landkreis"},"federalState":{"key":"03","name":"Niedersachsen"}},{"name":"Lärchenweg","postalCode":"38302","locality":"Wolfenbüttel","municipality":{"key":"03158037","name":"Wolfenbüttel, Stadt","type":"Stadt"},"district":{"key":"03158","name":"Wolfenbüttel","type":"Landkreis"},"federalState":{"key":"03","name":"Niedersachsen"}},{"name":"Lauenstr.","postalCode":"38304","locality":"Wolfenbüttel","municipality":{"key":"03158037","name":"Wolfenbüttel, Stadt","type":"Stadt"},"district":{"key":"03158","name":"Wolfenbüttel","type":"Landkreis"},"federalState":{"key":"03","name":"Niedersachsen"}},{"name":"Leibnizstr.","postalCode":"38300","locality":"Wolfenbüttel","municipality":{"key":"03158037","name":"Wolfenbüttel, Stadt","type":"Stadt"},"district":{"key":"03158","name":"Wolfenbüttel","type":"Landkreis"},"federalState":{"key":"03","name":"Niedersachsen"}},{"name":"Leiferder Weg","postalCode":"38304","locality":"Wolfenbüttel","municipality":{"key":"03158037","name":"Wolfenbüttel, Stadt","type":"Stadt"},"district":{"key":"03158","name":"Wolfenbüttel","type":"Landkreis"},"federalState":{"key":"03","name":"Niedersachsen"}},{"name":"Leinder Str.","postalCode":"38304","locality":"Wolfenbüttel","municipality":{"key":"03158037","name":"Wolfenbüttel, Stadt","type":"Stadt"},"district":{"key":"03158","name":"Wolfenbüttel","type":"Landkreis"},"federalState":{"key":"03","name":"Niedersachsen"}},{"name":"Leipziger Allee","postalCode":"38300","locality":"Wolfenbüttel","municipality":{"key":"03158037","name":"Wolfenbüttel, Stadt","type":"Stadt"},"district":{"key":"03158","name":"Wolfenbüttel","type":"Landkreis"},"federalState":{"key":"03","name":"Niedersachsen"}},{"name":"Leipziger Str.","postalCode":"38300","locality":"Wolfenbüttel","municipality":{"key":"03158037","name":"Wolfenbüttel, Stadt","type":"Stadt"},"district":{"key":"03158","name":"Wolfenbüttel","type":"Landkreis"},"federalState":{"key":"03","name":"Niedersachsen"}},{"name":"Leipziger Str.","postalCode":"38302","locality":"Wolfenbüttel","municipality":{"key":"03158037","name":"Wolfenbüttel, Stadt","type":"Stadt"},"district":{"key":"03158","name":"Wolfenbüttel","type":"Landkreis"},"federalState":{"key":"03","name":"Niedersachsen"}},{"name":"Lenauweg","postalCode":"38304","locality":"Wolfenbüttel","municipality":{"key":"03158037","name":"Wolfenbüttel, Stadt","type":"Stadt"},"district":{"key":"03158","name":"Wolfenbüttel","type":"Landkreis"},"federalState":{"key":"03","name":"Niedersachsen"}},{"name":"Leopoldstr.","postalCode":"38302","locality":"Wolfenbüttel","municipality":{"key":"03158037","name":"Wolfenbüttel, Stadt","type":"Stadt"},"district":{"key":"03158","name":"Wolfenbüttel","type":"Landkreis"},"federalState":{"key":"03","name":"Niedersachsen"}},{"name":"Lessingplatz","postalCode":"38304","locality":"Wolfenbüttel","municipality":{"key":"03158037","name":"Wolfenbüttel, Stadt","type":"Stadt"},"district":{"key":"03158","name":"Wolfenbüttel","type":"Landkreis"},"federalState":{"key":"03","name":"Niedersachsen"}},{"name":"Lessingstr.","postalCode":"38300","locality":"Wolfenbüttel","municipality":{"key":"03158037","name":"Wolfenbüttel, Stadt","type":"Stadt"},"district":{"key":"03158","name":"Wolfenbüttel","type":"Landkreis"},"federalState":{"key":"03","name":"Niedersachsen"}},{"name":"Lessingstr.","postalCode":"38304","locality":"Wolfenbüttel","municipality":{"key":"03158037","name":"Wolfenbüttel, Stadt","type":"Stadt"},"district":{"key":"03158","name":"Wolfenbüttel","type":"Landkreis"},"federalState":{"key":"03","name":"Niedersachsen"}},{"name":"Liebauer Str.","postalCode":"38302","locality":"Wolfenbüttel","municipality":{"key":"03158037","name":"Wolfenbüttel, Stadt","type":"Stadt"},"district":{"key":"03158","name":"Wolfenbüttel","type":"Landkreis"},"federalState":{"key":"03","name":"Niedersachsen"}},{"name":"Liegnitzer Str.","postalCode":"38302","locality":"Wolfenbüttel","municipality":{"key":"03158037","name":"Wolfenbüttel, Stadt","type":"Stadt"},"district":{"key":"03158","name":"Wolfenbüttel","type":"Landkreis"},"federalState":{"key":"03","name":"Niedersachsen"}},{"name":"Ligusterweg","postalCode":"38300","locality":"Wolfenbüttel","municipality":{"key":"03158037","name":"Wolfenbüttel, Stadt","type":"Stadt"},"district":{"key":"03158","name":"Wolfenbüttel","type":"Landkreis"},"federalState":{"key":"03","name":"Niedersachsen"}},{"name":"Lilienweg","postalCode":"38302","locality":"Wolfenbüttel","municipality":{"key":"03158037","name":"Wolfenbüttel, Stadt","type":"Stadt"},"district":{"key":"03158","name":"Wolfenbüttel","type":"Landkreis"},"federalState":{"key":"03","name":"Niedersachsen"}},{"name":"Lindenblick","postalCode":"38300","locality":"Wolfenbüttel","municipality":{"key":"03158037","name":"Wolfenbüttel, Stadt","type":"Stadt"},"district":{"key":"03158","name":"Wolfenbüttel","type":"Landkreis"},"federalState":{"key":"03","name":"Niedersachsen"}},{"name":"Lindener Str.","postalCode":"38300","locality":"Wolfenbüttel","municipality":{"key":"03158037","name":"Wolfenbüttel, Stadt","type":"Stadt"},"district":{"key":"03158","name":"Wolfenbüttel","type":"Landkreis"},"federalState":{"key":"03","name":"Niedersachsen"}},{"name":"Lindenstr.","postalCode":"38302","locality":"Wolfenbüttel","municipality":{"key":"03158037","name":"Wolfenbüttel, Stadt","type":"Stadt"},"district":{"key":"03158","name":"Wolfenbüttel","type":"Landkreis"},"federalState":{"key":"03","name":"Niedersachsen"}},{"name":"Lindenweg","postalCode":"38302","locality":"Wolfenbüttel","municipality":{"key":"03158037","name":"Wolfenbüttel, Stadt","type":"Stadt"},"district":{"key":"03158","name":"Wolfenbüttel","type":"Landkreis"},"federalState":{"key":"03","name":"Niedersachsen"}},{"name":"Lohenstr.","postalCode":"38300","locality":"Wolfenbüttel","municipality":{"key":"03158037","name":"Wolfenbüttel, Stadt","type":"Stadt"},"district":{"key":"03158","name":"Wolfenbüttel","type":"Landkreis"},"federalState":{"key":"03","name":"Niedersachsen"}},{"name":"Löwenzahnweg","postalCode":"38300","locality":"Wolfenbüttel","municipality":{"key":"03158037","name":"Wolfenbüttel, Stadt","type":"Stadt"},"district":{"key":"03158","name":"Wolfenbüttel","type":"Landkreis"},"federalState":{"key":"03","name":"Niedersachsen"}},{"name":"Ludwig-Richter-Str.","postalCode":"38300","locality":"Wolfenbüttel","municipality":{"key":"03158037","name":"Wolfenbüttel, Stadt","type":"Stadt"},"district":{"key":"03158","name":"Wolfenbüttel","type":"Landkreis"},"federalState":{"key":"03","name":"Niedersachsen"}},{"name":"Luisenweg","postalCode":"38302","locality":"Wolfenbüttel","municipality":{"key":"03158037","name":"Wolfenbüttel, Stadt","type":"Stadt"},"district":{"key":"03158","name":"Wolfenbüttel","type":"Landkreis"},"federalState":{"key":"03","name":"Niedersachsen"}},{"name":"Lupinenweg","postalCode":"38300","locality":"Wolfenbüttel","municipality":{"key":"03158037","name":"Wolfenbüttel, Stadt","type":"Stadt"},"district":{"key":"03158","name":"Wolfenbüttel","type":"Landkreis"},"federalState":{"key":"03","name":"Niedersachsen"}},{"name":"Lustgarten","postalCode":"38300","locality":"Wolfenbüttel","municipality":{"key":"03158037","name":"Wolfenbüttel, Stadt","type":"Stadt"},"district":{"key":"03158","name":"Wolfenbüttel","type":"Landkreis"},"federalState":{"key":"03","name":"Niedersachsen"}},{"name":"Lustgartensiedlung","postalCode":"38302","locality":"Wolfenbüttel","municipality":{"key":"03158037","name":"Wolfenbüttel, Stadt","type":"Stadt"},"district":{"key":"03158","name":"Wolfenbüttel","type":"Landkreis"},"federalState":{"key":"03","name":"Niedersachsen"}},{"name":"Mancinusweg","postalCode":"38304","locality":"Wolfenbüttel","municipality":{"key":"03158037","name":"Wolfenbüttel, Stadt","type":"Stadt"},"district":{"key":"03158","name":"Wolfenbüttel","type":"Landkreis"},"federalState":{"key":"03","name":"Niedersachsen"}},{"name":"Marienburgweg","postalCode":"38302","locality":"Wolfenbüttel","municipality":{"key":"03158037","name":"Wolfenbüttel, Stadt","type":"Stadt"},"district":{"key":"03158","name":"Wolfenbüttel","type":"Landkreis"},"federalState":{"key":"03","name":"Niedersachsen"}},{"name":"Marktstr.","postalCode":"38300","locality":"Wolfenbüttel","municipality":{"key":"03158037","name":"Wolfenbüttel, Stadt","type":"Stadt"},"district":{"key":"03158","name":"Wolfenbüttel","type":"Landkreis"},"federalState":{"key":"03","name":"Niedersachsen"}},{"name":"Martin-Luther-Str.","postalCode":"38300","locality":"Wolfenbüttel","municipality":{"key":"03158037","name":"Wolfenbüttel, Stadt","type":"Stadt"},"district":{"key":"03158","name":"Wolfenbüttel","type":"Landkreis"},"federalState":{"key":"03","name":"Niedersachsen"}},{"name":"Mascheroder Str.","postalCode":"38302","locality":"Wolfenbüttel","municipality":{"key":"03158037","name":"Wolfenbüttel, Stadt","type":"Stadt"},"district":{"key":"03158","name":"Wolfenbüttel","type":"Landkreis"},"federalState":{"key":"03","name":"Niedersachsen"}},{"name":"Masurenweg","postalCode":"38302","locality":"Wolfenbüttel","municipality":{"key":"03158037","name":"Wolfenbüttel, Stadt","type":"Stadt"},"district":{"key":"03158","name":"Wolfenbüttel","type":"Landkreis"},"federalState":{"key":"03","name":"Niedersachsen"}},{"name":"Maurenstr.","postalCode":"38300","locality":"Wolfenbüttel","municipality":{"key":"03158037","name":"Wolfenbüttel, Stadt","type":"Stadt"},"district":{"key":"03158","name":"Wolfenbüttel","type":"Landkreis"},"federalState":{"key":"03","name":"Niedersachsen"}},{"name":"Max-Planck-Str.","postalCode":"38300","locality":"Wolfenbüttel","municipality":{"key":"03158037","name":"Wolfenbüttel, Stadt","type":"Stadt"},"district":{"key":"03158","name":"Wolfenbüttel","type":"Landkreis"},"federalState":{"key":"03","name":"Niedersachsen"}},{"name":"Meisengasse","postalCode":"38300","locality":"Wolfenbüttel","municipality":{"key":"03158037","name":"Wolfenbüttel, Stadt","type":"Stadt"},"district":{"key":"03158","name":"Wolfenbüttel","type":"Landkreis"},"federalState":{"key":"03","name":"Niedersachsen"}},{"name":"Melanchthonstr.","postalCode":"38300","locality":"Wolfenbüttel","municipality":{"key":"03158037","name":"Wolfenbüttel, Stadt","type":"Stadt"},"district":{"key":"03158","name":"Wolfenbüttel","type":"Landkreis"},"federalState":{"key":"03","name":"Niedersachsen"}},{"name":"Melkeweg","postalCode":"38304","locality":"Wolfenbüttel","municipality":{"key":"03158037","name":"Wolfenbüttel, Stadt","type":"Stadt"},"district":{"key":"03158","name":"Wolfenbüttel","type":"Landkreis"},"federalState":{"key":"03","name":"Niedersachsen"}},{"name":"Michael-Praetorius-Platz","postalCode":"38300","locality":"Wolfenbüttel","municipality":{"key":"03158037","name":"Wolfenbüttel, Stadt","type":"Stadt"},"district":{"key":"03158","name":"Wolfenbüttel","type":"Landkreis"},"federalState":{"key":"03","name":"Niedersachsen"}},{"name":"Mittelweg","postalCode":"38302","locality":"Wolfenbüttel","municipality":{"key":"03158037","name":"Wolfenbüttel, Stadt","type":"Stadt"},"district":{"key":"03158","name":"Wolfenbüttel","type":"Landkreis"},"federalState":{"key":"03","name":"Niedersachsen"}},{"name":"Monplaisir","postalCode":"38304","locality":"Wolfenbüttel","municipality":{"key":"03158037","name":"Wolfenbüttel, Stadt","type":"Stadt"},"district":{"key":"03158","name":"Wolfenbüttel","type":"Landkreis"},"federalState":{"key":"03","name":"Niedersachsen"}},{"name":"Moorwinkel","postalCode":"38302","locality":"Wolfenbüttel","municipality":{"key":"03158037","name":"Wolfenbüttel, Stadt","type":"Stadt"},"district":{"key":"03158","name":"Wolfenbüttel","type":"Landkreis"},"federalState":{"key":"03","name":"Niedersachsen"}},{"name":"Mörikeplatz","postalCode":"38304","locality":"Wolfenbüttel","municipality":{"key":"03158037","name":"Wolfenbüttel, Stadt","type":"Stadt"},"district":{"key":"03158","name":"Wolfenbüttel","type":"Landkreis"},"federalState":{"key":"03","name":"Niedersachsen"}},{"name":"Mozartstr.","postalCode":"38304","locality":"Wolfenbüttel","municipality":{"key":"03158037","name":"Wolfenbüttel, Stadt","type":"Stadt"},"district":{"key":"03158","name":"Wolfenbüttel","type":"Landkreis"},"federalState":{"key":"03","name":"Niedersachsen"}},{"name":"Mühle","postalCode":"38302","locality":"Wolfenbüttel","municipality":{"key":"03158037","name":"Wolfenbüttel, Stadt","type":"Stadt"},"district":{"key":"03158","name":"Wolfenbüttel","type":"Landkreis"},"federalState":{"key":"03","name":"Niedersachsen"}},{"name":"Mülleringshof","postalCode":"38304","locality":"Wolfenbüttel","municipality":{"key":"03158037","name":"Wolfenbüttel, Stadt","type":"Stadt"},"district":{"key":"03158","name":"Wolfenbüttel","type":"Landkreis"},"federalState":{"key":"03","name":"Niedersachsen"}},{"name":"Nansenweg","postalCode":"38300","locality":"Wolfenbüttel","municipality":{"key":"03158037","name":"Wolfenbüttel, Stadt","type":"Stadt"},"district":{"key":"03158","name":"Wolfenbüttel","type":"Landkreis"},"federalState":{"key":"03","name":"Niedersachsen"}},{"name":"Neindorfer Str.","postalCode":"38300","locality":"Wolfenbüttel","municipality":{"key":"03158037","name":"Wolfenbüttel, Stadt","type":"Stadt"},"district":{"key":"03158","name":"Wolfenbüttel","type":"Landkreis"},"federalState":{"key":"03","name":"Niedersachsen"}},{"name":"Nelkenweg","postalCode":"38302","locality":"Wolfenbüttel","municipality":{"key":"03158037","name":"Wolfenbüttel, Stadt","type":"Stadt"},"district":{"key":"03158","name":"Wolfenbüttel","type":"Landkreis"},"federalState":{"key":"03","name":"Niedersachsen"}},{"name":"Neuer Holzweg","postalCode":"38304","locality":"Wolfenbüttel","municipality":{"key":"03158037","name":"Wolfenbüttel, Stadt","type":"Stadt"},"district":{"key":"03158","name":"Wolfenbüttel","type":"Landkreis"},"federalState":{"key":"03","name":"Niedersachsen"}},{"name":"Neuer Weg","postalCode":"38302","locality":"Wolfenbüttel","municipality":{"key":"03158037","name":"Wolfenbüttel, Stadt","type":"Stadt"},"district":{"key":"03158","name":"Wolfenbüttel","type":"Landkreis"},"federalState":{"key":"03","name":"Niedersachsen"}},{"name":"Neue Str.","postalCode":"38300","locality":"Wolfenbüttel","municipality":{"key":"03158037","name":"Wolfenbüttel, Stadt","type":"Stadt"},"district":{"key":"03158","name":"Wolfenbüttel","type":"Landkreis"},"federalState":{"key":"03","name":"Niedersachsen"}},{"name":"Neuköllner Weg","postalCode":"38300","locality":"Wolfenbüttel","municipality":{"key":"03158037","name":"Wolfenbüttel, Stadt","type":"Stadt"},"district":{"key":"03158","name":"Wolfenbüttel","type":"Landkreis"},"federalState":{"key":"03","name":"Niedersachsen"}},{"name":"Nordring","postalCode":"38304","locality":"Wolfenbüttel","municipality":{"key":"03158037","name":"Wolfenbüttel, Stadt","type":"Stadt"},"district":{"key":"03158","name":"Wolfenbüttel","type":"Landkreis"},"federalState":{"key":"03","name":"Niedersachsen"}},{"name":"Oderblick","postalCode":"38312","locality":"Dorstadt","municipality":{"key":"03158010","name":"Dorstadt","type":"Kreisangehörige_Gemeinde"},"district":{"key":"03158","name":"Wolfenbüttel","type":"Landkreis"},"federalState":{"key":"03","name":"Niedersachsen"}},{"name":"Pappelweg","postalCode":"38302","locality":"Wolfenbüttel","municipality":{"key":"03158037","name":"Wolfenbüttel, Stadt","type":"Stadt"},"district":{"key":"03158","name":"Wolfenbüttel","type":"Landkreis"},"federalState":{"key":"03","name":"Niedersachsen"}},{"name":"Paracelsusstr.","postalCode":"38302","locality":"Wolfenbüttel","municipality":{"key":"03158037","name":"Wolfenbüttel, Stadt","type":"Stadt"},"district":{"key":"03158","name":"Wolfenbüttel","type":"Landkreis"},"federalState":{"key":"03","name":"Niedersachsen"}},{"name":"Parkweg","postalCode":"38304","locality":"Wolfenbüttel","municipality":{"key":"03158037","name":"Wolfenbüttel, Stadt","type":"Stadt"},"district":{"key":"03158","name":"Wolfenbüttel","type":"Landkreis"},"federalState":{"key":"03","name":"Niedersachsen"}},{"name":"Paul-Eyferth-Str.","postalCode":"38304","locality":"Wolfenbüttel","municipality":{"key":"03158037","name":"Wolfenbüttel, Stadt","type":"Stadt"},"district":{"key":"03158","name":"Wolfenbüttel","type":"Landkreis"},"federalState":{"key":"03","name":"Niedersachsen"}},{"name":"Paul-Francke-Str.","postalCode":"38302","locality":"Wolfenbüttel","municipality":{"key":"03158037","name":"Wolfenbüttel, Stadt","type":"Stadt"},"district":{"key":"03158","name":"Wolfenbüttel","type":"Landkreis"},"federalState":{"key":"03","name":"Niedersachsen"}},{"name":"Pestalozzistr.","postalCode":"38300","locality":"Wolfenbüttel","municipality":{"key":"03158037","name":"Wolfenbüttel, Stadt","type":"Stadt"},"district":{"key":"03158","name":"Wolfenbüttel","type":"Landkreis"},"federalState":{"key":"03","name":"Niedersachsen"}},{"name":"Philosophenweg","postalCode":"38300","locality":"Wolfenbüttel","municipality":{"key":"03158037","name":"Wolfenbüttel, Stadt","type":"Stadt"},"district":{"key":"03158","name":"Wolfenbüttel","type":"Landkreis"},"federalState":{"key":"03","name":"Niedersachsen"}},{"name":"Platanenstr.","postalCode":"38302","locality":"Wolfenbüttel","municipality":{"key":"03158037","name":"Wolfenbüttel, Stadt","type":"Stadt"},"district":{"key":"03158","name":"Wolfenbüttel","type":"Landkreis"},"federalState":{"key":"03","name":"Niedersachsen"}},{"name":"Pommersche Str.","postalCode":"38304","locality":"Wolfenbüttel","municipality":{"key":"03158037","name":"Wolfenbüttel, Stadt","type":"Stadt"},"district":{"key":"03158","name":"Wolfenbüttel","type":"Landkreis"},"federalState":{"key":"03","name":"Niedersachsen"}},{"name":"Posteichenweg","postalCode":"38304","locality":"Wolfenbüttel","municipality":{"key":"03158037","name":"Wolfenbüttel, Stadt","type":"Stadt"},"district":{"key":"03158","name":"Wolfenbüttel","type":"Landkreis"},"federalState":{"key":"03","name":"Niedersachsen"}},{"name":"Professor-Plücker-Str.","postalCode":"38302","locality":"Wolfenbüttel","municipality":{"key":"03158037","name":"Wolfenbüttel, Stadt","type":"Stadt"},"district":{"key":"03158","name":"Wolfenbüttel","type":"Landkreis"},"federalState":{"key":"03","name":"Niedersachsen"}},{"name":"Prof.-Paul-Raabe-Platz","postalCode":"38304","locality":"Wolfenbüttel","municipality":{"key":"03158037","name":"Wolfenbüttel, Stadt","type":"Stadt"},"district":{"key":"03158","name":"Wolfenbüttel","type":"Landkreis"},"federalState":{"key":"03","name":"Niedersachsen"}},{"name":"Quellenweg","postalCode":"38302","locality":"Wolfenbüttel","municipality":{"key":"03158037","name":"Wolfenbüttel, Stadt","type":"Stadt"},"district":{"key":"03158","name":"Wolfenbüttel","type":"Landkreis"},"federalState":{"key":"03","name":"Niedersachsen"}},{"name":"Rathauspassage","postalCode":"38300","locality":"Wolfenbüttel","municipality":{"key":"03158037","name":"Wolfenbüttel, Stadt","type":"Stadt"},"district":{"key":"03158","name":"Wolfenbüttel","type":"Landkreis"},"federalState":{"key":"03","name":"Niedersachsen"}},{"name":"Ratsstr.","postalCode":"38304","locality":"Wolfenbüttel","municipality":{"key":"03158037","name":"Wolfenbüttel, Stadt","type":"Stadt"},"district":{"key":"03158","name":"Wolfenbüttel","type":"Landkreis"},"federalState":{"key":"03","name":"Niedersachsen"}},{"name":"Räubergasse","postalCode":"38302","locality":"Wolfenbüttel","municipality":{"key":"03158037","name":"Wolfenbüttel, Stadt","type":"Stadt"},"district":{"key":"03158","name":"Wolfenbüttel","type":"Landkreis"},"federalState":{"key":"03","name":"Niedersachsen"}},{"name":"Ravensberger Str.","postalCode":"38304","locality":"Wolfenbüttel","municipality":{"key":"03158037","name":"Wolfenbüttel, Stadt","type":"Stadt"},"district":{"key":"03158","name":"Wolfenbüttel","type":"Landkreis"},"federalState":{"key":"03","name":"Niedersachsen"}},{"name":"Reichenberger Str.","postalCode":"38302","locality":"Wolfenbüttel","municipality":{"key":"03158037","name":"Wolfenbüttel, Stadt","type":"Stadt"},"district":{"key":"03158","name":"Wolfenbüttel","type":"Landkreis"},"federalState":{"key":"03","name":"Niedersachsen"}},{"name":"Reichsstr.","postalCode":"38300","locality":"Wolfenbüttel","municipality":{"key":"03158037","name":"Wolfenbüttel, Stadt","type":"Stadt"},"district":{"key":"03158","name":"Wolfenbüttel","type":"Landkreis"},"federalState":{"key":"03","name":"Niedersachsen"}},{"name":"Reiterstieg","postalCode":"38304","locality":"Wolfenbüttel","municipality":{"key":"03158037","name":"Wolfenbüttel, Stadt","type":"Stadt"},"district":{"key":"03158","name":"Wolfenbüttel","type":"Landkreis"},"federalState":{"key":"03","name":"Niedersachsen"}},{"name":"Reitlingweg","postalCode":"38302","locality":"Wolfenbüttel","municipality":{"key":"03158037","name":"Wolfenbüttel, Stadt","type":"Stadt"},"district":{"key":"03158","name":"Wolfenbüttel","type":"Landkreis"},"federalState":{"key":"03","name":"Niedersachsen"}},{"name":"Rembrandtstr.","postalCode":"38300","locality":"Wolfenbüttel","municipality":{"key":"03158037","name":"Wolfenbüttel, Stadt","type":"Stadt"},"district":{"key":"03158","name":"Wolfenbüttel","type":"Landkreis"},"federalState":{"key":"03","name":"Niedersachsen"}},{"name":"Richard-Wagner-Weg","postalCode":"38302","locality":"Wolfenbüttel","municipality":{"key":"03158037","name":"Wolfenbüttel, Stadt","type":"Stadt"},"district":{"key":"03158","name":"Wolfenbüttel","type":"Landkreis"},"federalState":{"key":"03","name":"Niedersachsen"}},{"name":"Riesengebirgsweg","postalCode":"38302","locality":"Wolfenbüttel","municipality":{"key":"03158037","name":"Wolfenbüttel, Stadt","type":"Stadt"},"district":{"key":"03158","name":"Wolfenbüttel","type":"Landkreis"},"federalState":{"key":"03","name":"Niedersachsen"}},{"name":"Rilkeweg","postalCode":"38304","locality":"Wolfenbüttel","municipality":{"key":"03158037","name":"Wolfenbüttel, Stadt","type":"Stadt"},"district":{"key":"03158","name":"Wolfenbüttel","type":"Landkreis"},"federalState":{"key":"03","name":"Niedersachsen"}},{"name":"Ringelweg","postalCode":"38304","locality":"Wolfenbüttel","municipality":{"key":"03158037","name":"Wolfenbüttel, Stadt","type":"Stadt"},"district":{"key":"03158","name":"Wolfenbüttel","type":"Landkreis"},"federalState":{"key":"03","name":"Niedersachsen"}},{"name":"Ringstr.","postalCode":"38304","locality":"Wolfenbüttel","municipality":{"key":"03158037","name":"Wolfenbüttel, Stadt","type":"Stadt"},"district":{"key":"03158","name":"Wolfenbüttel","type":"Landkreis"},"federalState":{"key":"03","name":"Niedersachsen"}},{"name":"Ritterhof","postalCode":"38304","locality":"Wolfenbüttel","municipality":{"key":"03158037","name":"Wolfenbüttel, Stadt","type":"Stadt"},"district":{"key":"03158","name":"Wolfenbüttel","type":"Landkreis"},"federalState":{"key":"03","name":"Niedersachsen"}},{"name":"Robert-Everlien-Platz","postalCode":"38300","locality":"Wolfenbüttel","municipality":{"key":"03158037","name":"Wolfenbüttel, Stadt","type":"Stadt"},"district":{"key":"03158","name":"Wolfenbüttel","type":"Landkreis"},"federalState":{"key":"03","name":"Niedersachsen"}},{"name":"Robert-Koch-Str.","postalCode":"38302","locality":"Wolfenbüttel","municipality":{"key":"03158037","name":"Wolfenbüttel, Stadt","type":"Stadt"},"district":{"key":"03158","name":"Wolfenbüttel","type":"Landkreis"},"federalState":{"key":"03","name":"Niedersachsen"}},{"name":"Röntgenweg","postalCode":"38302","locality":"Wolfenbüttel","municipality":{"key":"03158037","name":"Wolfenbüttel, Stadt","type":"Stadt"},"district":{"key":"03158","name":"Wolfenbüttel","type":"Landkreis"},"federalState":{"key":"03","name":"Niedersachsen"}},{"name":"Roseggerweg","postalCode":"38304","locality":"Wolfenbüttel","municipality":{"key":"03158037","name":"Wolfenbüttel, Stadt","type":"Stadt"},"district":{"key":"03158","name":"Wolfenbüttel","type":"Landkreis"},"federalState":{"key":"03","name":"Niedersachsen"}},{"name":"Rosenmüllerstr.","postalCode":"38304","locality":"Wolfenbüttel","municipality":{"key":"03158037","name":"Wolfenbüttel, Stadt","type":"Stadt"},"district":{"key":"03158","name":"Wolfenbüttel","type":"Landkreis"},"federalState":{"key":"03","name":"Niedersachsen"}},{"name":"Rosenwall","postalCode":"38300","locality":"Wolfenbüttel","municipality":{"key":"03158037","name":"Wolfenbüttel, Stadt","type":"Stadt"},"district":{"key":"03158","name":"Wolfenbüttel","type":"Landkreis"},"federalState":{"key":"03","name":"Niedersachsen"}},{"name":"Rosenweg","postalCode":"38300","locality":"Wolfenbüttel","municipality":{"key":"03158037","name":"Wolfenbüttel, Stadt","type":"Stadt"},"district":{"key":"03158","name":"Wolfenbüttel","type":"Landkreis"},"federalState":{"key":"03","name":"Niedersachsen"}},{"name":"Rossittenweg","postalCode":"38302","locality":"Wolfenbüttel","municipality":{"key":"03158037","name":"Wolfenbüttel, Stadt","type":"Stadt"},"district":{"key":"03158","name":"Wolfenbüttel","type":"Landkreis"},"federalState":{"key":"03","name":"Niedersachsen"}},{"name":"Rotdornweg","postalCode":"38302","locality":"Wolfenbüttel","municipality":{"key":"03158037","name":"Wolfenbüttel, Stadt","type":"Stadt"},"district":{"key":"03158","name":"Wolfenbüttel","type":"Landkreis"},"federalState":{"key":"03","name":"Niedersachsen"}},{"name":"Rotheweg","postalCode":"38302","locality":"Wolfenbüttel","municipality":{"key":"03158037","name":"Wolfenbüttel, Stadt","type":"Stadt"},"district":{"key":"03158","name":"Wolfenbüttel","type":"Landkreis"},"federalState":{"key":"03","name":"Niedersachsen"}},{"name":"Rubensstr.","postalCode":"38300","locality":"Wolfenbüttel","municipality":{"key":"03158037","name":"Wolfenbüttel, Stadt","type":"Stadt"},"district":{"key":"03158","name":"Wolfenbüttel","type":"Landkreis"},"federalState":{"key":"03","name":"Niedersachsen"}},{"name":"Schulstr.","postalCode":"38312","locality":"Dorstadt","municipality":{"key":"03158010","name":"Dorstadt","type":"Kreisangehörige_Gemeinde"},"district":{"key":"03158","name":"Wolfenbüttel","type":"Landkreis"},"federalState":{"key":"03","name":"Niedersachsen"}},{"name":"Siedlerweg","postalCode":"38312","locality":"Dorstadt","municipality":{"key":"03158010","name":"Dorstadt","type":"Kreisangehörige_Gemeinde"},"district":{"key":"03158","name":"Wolfenbüttel","type":"Landkreis"},"federalState":{"key":"03","name":"Niedersachsen"}},{"name":"Tannenweg","postalCode":"38302","locality":"Wolfenbüttel","municipality":{"key":"03158037","name":"Wolfenbüttel, Stadt","type":"Stadt"},"district":{"key":"03158","name":"Wolfenbüttel","type":"Landkreis"},"federalState":{"key":"03","name":"Niedersachsen"}},{"name":"Tannhof","postalCode":"38304","locality":"Wolfenbüttel","municipality":{"key":"03158037","name":"Wolfenbüttel, Stadt","type":"Stadt"},"district":{"key":"03158","name":"Wolfenbüttel","type":"Landkreis"},"federalState":{"key":"03","name":"Niedersachsen"}},{"name":"Tegeler Weg","postalCode":"38300","locality":"Wolfenbüttel","municipality":{"key":"03158037","name":"Wolfenbüttel, Stadt","type":"Stadt"},"district":{"key":"03158","name":"Wolfenbüttel","type":"Landkreis"},"federalState":{"key":"03","name":"Niedersachsen"}},{"name":"Teichgarten","postalCode":"38300","locality":"Wolfenbüttel","municipality":{"key":"03158037","name":"Wolfenbüttel, Stadt","type":"Stadt"},"district":{"key":"03158","name":"Wolfenbüttel","type":"Landkreis"},"federalState":{"key":"03","name":"Niedersachsen"}},{"name":"Teichweg","postalCode":"38304","locality":"Wolfenbüttel","municipality":{"key":"03158037","name":"Wolfenbüttel, Stadt","type":"Stadt"},"district":{"key":"03158","name":"Wolfenbüttel","type":"Landkreis"},"federalState":{"key":"03","name":"Niedersachsen"}},{"name":"Telemannstr.","postalCode":"38304","locality":"Wolfenbüttel","municipality":{"key":"03158037","name":"Wolfenbüttel, Stadt","type":"Stadt"},"district":{"key":"03158","name":"Wolfenbüttel","type":"Landkreis"},"federalState":{"key":"03","name":"Niedersachsen"}},{"name":"Tempelhofer Weg","postalCode":"38300","locality":"Wolfenbüttel","municipality":{"key":"03158037","name":"Wolfenbüttel, Stadt","type":"Stadt"},"district":{"key":"03158","name":"Wolfenbüttel","type":"Landkreis"},"federalState":{"key":"03","name":"Niedersachsen"}},{"name":"Theaterplatz","postalCode":"38300","locality":"Wolfenbüttel","municipality":{"key":"03158037","name":"Wolfenbüttel, Stadt","type":"Stadt"},"district":{"key":"03158","name":"Wolfenbüttel","type":"Landkreis"},"federalState":{"key":"03","name":"Niedersachsen"}},{"name":"Theodor-Körner-Str.","postalCode":"38304","locality":"Wolfenbüttel","municipality":{"key":"03158037","name":"Wolfenbüttel, Stadt","type":"Stadt"},"district":{"key":"03158","name":"Wolfenbüttel","type":"Landkreis"},"federalState":{"key":"03","name":"Niedersachsen"}},{"name":"Theodor-Reiche-Str.","postalCode":"38304","locality":"Wolfenbüttel","municipality":{"key":"03158037","name":"Wolfenbüttel, Stadt","type":"Stadt"},"district":{"key":"03158","name":"Wolfenbüttel","type":"Landkreis"},"federalState":{"key":"03","name":"Niedersachsen"}},{"name":"Thieder Str.","postalCode":"38304","locality":"Wolfenbüttel","municipality":{"key":"03158037","name":"Wolfenbüttel, Stadt","type":"Stadt"},"district":{"key":"03158","name":"Wolfenbüttel","type":"Landkreis"},"federalState":{"key":"03","name":"Niedersachsen"}},{"name":"Thieder Weg","postalCode":"38304","locality":"Wolfenbüttel","municipality":{"key":"03158037","name":"Wolfenbüttel, Stadt","type":"Stadt"},"district":{"key":"03158","name":"Wolfenbüttel","type":"Landkreis"},"federalState":{"key":"03","name":"Niedersachsen"}},{"name":"Thomaeweg","postalCode":"38304","locality":"Wolfenbüttel","municipality":{"key":"03158037","name":"Wolfenbüttel, Stadt","type":"Stadt"},"district":{"key":"03158","name":"Wolfenbüttel","type":"Landkreis"},"federalState":{"key":"03","name":"Niedersachsen"}},{"name":"Tiefe Str.","postalCode":"38302","locality":"Wolfenbüttel","municipality":{"key":"03158037","name":"Wolfenbüttel, Stadt","type":"Stadt"},"district":{"key":"03158","name":"Wolfenbüttel","type":"Landkreis"},"federalState":{"key":"03","name":"Niedersachsen"}},{"name":"Töpferberg","postalCode":"38302","locality":"Wolfenbüttel","municipality":{"key":"03158037","name":"Wolfenbüttel, Stadt","type":"Stadt"},"district":{"key":"03158","name":"Wolfenbüttel","type":"Landkreis"},"federalState":{"key":"03","name":"Niedersachsen"}},{"name":"Töpferstr.","postalCode":"38304","locality":"Wolfenbüttel","municipality":{"key":"03158037","name":"Wolfenbüttel, Stadt","type":"Stadt"},"district":{"key":"03158","name":"Wolfenbüttel","type":"Landkreis"},"federalState":{"key":"03","name":"Niedersachsen"}},{"name":"Treptower Weg","postalCode":"38300","locality":"Wolfenbüttel","municipality":{"key":"03158037","name":"Wolfenbüttel, Stadt","type":"Stadt"},"district":{"key":"03158","name":"Wolfenbüttel","type":"Landkreis"},"federalState":{"key":"03","name":"Niedersachsen"}},{"name":"Triftstr.","postalCode":"38304","locality":"Wolfenbüttel","municipality":{"key":"03158037","name":"Wolfenbüttel, Stadt","type":"Stadt"},"district":{"key":"03158","name":"Wolfenbüttel","type":"Landkreis"},"federalState":{"key":"03","name":"Niedersachsen"}},{"name":"Triftweg","postalCode":"38302","locality":"Wolfenbüttel","municipality":{"key":"03158037","name":"Wolfenbüttel, Stadt","type":"Stadt"},"district":{"key":"03158","name":"Wolfenbüttel","type":"Landkreis"},"federalState":{"key":"03","name":"Niedersachsen"}},{"name":"Troggberg","postalCode":"38302","locality":"Wolfenbüttel","municipality":{"key":"03158037","name":"Wolfenbüttel, Stadt","type":"Stadt"},"district":{"key":"03158","name":"Wolfenbüttel","type":"Landkreis"},"federalState":{"key":"03","name":"Niedersachsen"}},{"name":"Tulpenweg","postalCode":"38302","locality":"Wolfenbüttel","municipality":{"key":"03158037","name":"Wolfenbüttel, Stadt","type":"Stadt"},"district":{"key":"03158","name":"Wolfenbüttel","type":"Landkreis"},"federalState":{"key":"03","name":"Niedersachsen"}},{"name":"Turnierplatz","postalCode":"38300","locality":"Wolfenbüttel","municipality":{"key":"03158037","name":"Wolfenbüttel, Stadt","type":"Stadt"},"district":{"key":"03158","name":"Wolfenbüttel","type":"Landkreis"},"federalState":{"key":"03","name":"Niedersachsen"}},{"name":"Twete","postalCode":"38300","locality":"Wolfenbüttel","municipality":{"key":"03158037","name":"Wolfenbüttel, Stadt","type":"Stadt"},"district":{"key":"03158","name":"Wolfenbüttel","type":"Landkreis"},"federalState":{"key":"03","name":"Niedersachsen"}},{"name":"Uhlandstr.","postalCode":"38304","locality":"Wolfenbüttel","municipality":{"key":"03158037","name":"Wolfenbüttel, Stadt","type":"Stadt"},"district":{"key":"03158","name":"Wolfenbüttel","type":"Landkreis"},"federalState":{"key":"03","name":"Niedersachsen"}},{"name":"Ulmenweg","postalCode":"38302","locality":"Wolfenbüttel","municipality":{"key":"03158037","name":"Wolfenbüttel, Stadt","type":"Stadt"},"district":{"key":"03158","name":"Wolfenbüttel","type":"Landkreis"},"federalState":{"key":"03","name":"Niedersachsen"}},{"name":"Ungerstr.","postalCode":"38302","locality":"Wolfenbüttel","municipality":{"key":"03158037","name":"Wolfenbüttel, Stadt","type":"Stadt"},"district":{"key":"03158","name":"Wolfenbüttel","type":"Landkreis"},"federalState":{"key":"03","name":"Niedersachsen"}},{"name":"Unter den Kastanien","postalCode":"38300","locality":"Wolfenbüttel","municipality":{"key":"03158037","name":"Wolfenbüttel, Stadt","type":"Stadt"},"district":{"key":"03158","name":"Wolfenbüttel","type":"Landkreis"},"federalState":{"key":"03","name":"Niedersachsen"}},{"name":"Unter der Eiche","postalCode":"38304","locality":"Wolfenbüttel","municipality":{"key":"03158037","name":"Wolfenbüttel, Stadt","type":"Stadt"},"district":{"key":"03158","name":"Wolfenbüttel","type":"Landkreis"},"federalState":{"key":"03","name":"Niedersachsen"}},{"name":"Untere Dorfstr.","postalCode":"38304","locality":"Wolfenbüttel","municipality":{"key":"03158037","name":"Wolfenbüttel, Stadt","type":"Stadt"},"district":{"key":"03158","name":"Wolfenbüttel","type":"Landkreis"},"federalState":{"key":"03","name":"Niedersachsen"}},{"name":"Virchowweg","postalCode":"38302","locality":"Wolfenbüttel","municipality":{"key":"03158037","name":"Wolfenbüttel, Stadt","type":"Stadt"},"district":{"key":"03158","name":"Wolfenbüttel","type":"Landkreis"},"federalState":{"key":"03","name":"Niedersachsen"}},{"name":"Vogesweg","postalCode":"38304","locality":"Wolfenbüttel","municipality":{"key":"03158037","name":"Wolfenbüttel, Stadt","type":"Stadt"},"district":{"key":"03158","name":"Wolfenbüttel","type":"Landkreis"},"federalState":{"key":"03","name":"Niedersachsen"}},{"name":"Vor dem Gotteslager","postalCode":"38300","locality":"Wolfenbüttel","municipality":{"key":"03158037","name":"Wolfenbüttel, Stadt","type":"Stadt"},"district":{"key":"03158","name":"Wolfenbüttel","type":"Landkreis"},"federalState":{"key":"03","name":"Niedersachsen"}},{"name":"Vor dem Rottland","postalCode":"38302","locality":"Wolfenbüttel","municipality":{"key":"03158037","name":"Wolfenbüttel, Stadt","type":"Stadt"},"district":{"key":"03158","name":"Wolfenbüttel","type":"Landkreis"},"federalState":{"key":"03","name":"Niedersachsen"}},{"name":"Vor dem Schlosse","postalCode":"38302","locality":"Wolfenbüttel","municipality":{"key":"03158037","name":"Wolfenbüttel, Stadt","type":"Stadt"},"district":{"key":"03158","name":"Wolfenbüttel","type":"Landkreis"},"federalState":{"key":"03","name":"Niedersachsen"}},{"name":"Vor dem Stadtberge","postalCode":"38300","locality":"Wolfenbüttel","municipality":{"key":"03158037","name":"Wolfenbüttel, Stadt","type":"Stadt"},"district":{"key":"03158","name":"Wolfenbüttel","type":"Landkreis"},"federalState":{"key":"03","name":"Niedersachsen"}},{"name":"Vor den Drohnen","postalCode":"38302","locality":"Wolfenbüttel","municipality":{"key":"03158037","name":"Wolfenbüttel, Stadt","type":"Stadt"},"district":{"key":"03158","name":"Wolfenbüttel","type":"Landkreis"},"federalState":{"key":"03","name":"Niedersachsen"}},{"name":"Vor den Gärten","postalCode":"38302","locality":"Wolfenbüttel","municipality":{"key":"03158037","name":"Wolfenbüttel, Stadt","type":"Stadt"},"district":{"key":"03158","name":"Wolfenbüttel","type":"Landkreis"},"federalState":{"key":"03","name":"Niedersachsen"}},{"name":"Vor den Rotten","postalCode":"38304","locality":"Wolfenbüttel","municipality":{"key":"03158037","name":"Wolfenbüttel, Stadt","type":"Stadt"},"district":{"key":"03158","name":"Wolfenbüttel","type":"Landkreis"},"federalState":{"key":"03","name":"Niedersachsen"}},{"name":"Vor den Wiesen","postalCode":"38300","locality":"Wolfenbüttel","municipality":{"key":"03158037","name":"Wolfenbüttel, Stadt","type":"Stadt"},"district":{"key":"03158","name":"Wolfenbüttel","type":"Landkreis"},"federalState":{"key":"03","name":"Niedersachsen"}},{"name":"Waldblick","postalCode":"38312","locality":"Dorstadt","municipality":{"key":"03158010","name":"Dorstadt","type":"Kreisangehörige_Gemeinde"},"district":{"key":"03158","name":"Wolfenbüttel","type":"Landkreis"},"federalState":{"key":"03","name":"Niedersachsen"}},{"name":"Zeughausstr.","postalCode":"38300","locality":"Wolfenbüttel","municipality":{"key":"03158037","name":"Wolfenbüttel, Stadt","type":"Stadt"},"district":{"key":"03158","name":"Wolfenbüttel","type":"Landkreis"},"federalState":{"key":"03","name":"Niedersachsen"}},{"name":"Zickerickstr.","postalCode":"38304","locality":"Wolfenbüttel","municipality":{"key":"03158037","name":"Wolfenbüttel, Stadt","type":"Stadt"},"district":{"key":"03158","name":"Wolfenbüttel","type":"Landkreis"},"federalState":{"key":"03","name":"Niedersachsen"}},{"name":"Ziegelei","postalCode":"38304","locality":"Wolfenbüttel","municipality":{"key":"03158037","name":"Wolfenbüttel, Stadt","type":"Stadt"},"district":{"key":"03158","name":"Wolfenbüttel","type":"Landkreis"},"federalState":{"key":"03","name":"Niedersachsen"}},{"name":"Ziegenberg","postalCode":"38304","locality":"Wolfenbüttel","municipality":{"key":"03158037","name":"Wolfenbüttel, Stadt","type":"Stadt"},"district":{"key":"03158","name":"Wolfenbüttel","type":"Landkreis"},"federalState":{"key":"03","name":"Niedersachsen"}},{"name":"Ziegenmarkt","postalCode":"38300","locality":"Wolfenbüttel","municipality":{"key":"03158037","name":"Wolfenbüttel, Stadt","type":"Stadt"},"district":{"key":"03158","name":"Wolfenbüttel","type":"Landkreis"},"federalState":{"key":"03","name":"Niedersachsen"}},{"name":"Zum Gärtnerland","postalCode":"38302","locality":"Wolfenbüttel","municipality":{"key":"03158037","name":"Wolfenbüttel, Stadt","type":"Stadt"},"district":{"key":"03158","name":"Wolfenbüttel","type":"Landkreis"},"federalState":{"key":"03","name":"Niedersachsen"}},{"name":"Zum Okerstrand","postalCode":"38304","locality":"Wolfenbüttel","municipality":{"key":"03158037","name":"Wolfenbüttel, Stadt","type":"Stadt"},"district":{"key":"03158","name":"Wolfenbüttel","type":"Landkreis"},"federalState":{"key":"03","name":"Niedersachsen"}},{"name":"Zum Sandberg","postalCode":"38302","locality":"Wolfenbüttel","municipality":{"key":"03158037","name":"Wolfenbüttel, Stadt","type":"Stadt"},"district":{"key":"03158","name":"Wolfenbüttel","type":"Landkreis"},"federalState":{"key":"03","name":"Niedersachsen"}},{"name":"Zum Weißen Weg","postalCode":"38304","locality":"Wolfenbüttel","municipality":{"key":"03158037","name":"Wolfenbüttel, Stadt","type":"Stadt"},"district":{"key":"03158","name":"Wolfenbüttel","type":"Landkreis"},"federalState":{"key":"03","name":"Niedersachsen"}},{"name":"Zur Altenau","postalCode":"38300","locality":"Wolfenbüttel","municipality":{"key":"03158037","name":"Wolfenbüttel, Stadt","type":"Stadt"},"district":{"key":"03158","name":"Wolfenbüttel","type":"Landkreis"},"federalState":{"key":"03","name":"Niedersachsen"}},{"name":"Zur Oker","postalCode":"38300","locality":"Wolfenbüttel","municipality":{"key":"03158037","name":"Wolfenbüttel, Stadt","type":"Stadt"},"district":{"key":"03158","name":"Wolfenbüttel","type":"Landkreis"},"federalState":{"key":"03","name":"Niedersachsen"}},{"name":"Zur Schanze","postalCode":"38300","locality":"Wolfenbüttel","municipality":{"key":"03158037","name":"Wolfenbüttel, Stadt","type":"Stadt"},"district":{"key":"03158","name":"Wolfenbüttel","type":"Landkreis"},"federalState":{"key":"03","name":"Niedersachsen"}},{"name":"Zur Sudwiese","postalCode":"38300","locality":"Wolfenbüttel","municipality":{"key":"03158037","name":"Wolfenbüttel, Stadt","type":"Stadt"},"district":{"key":"03158","name":"Wolfenbüttel","type":"Landkreis"},"federalState":{"key":"03","name":"Niedersachsen"}},{"name":"Zur Windmühle","postalCode":"38304","locality":"Wolfenbüttel","municipality":{"key":"03158037","name":"Wolfenbüttel, Stadt","type":"Stadt"},"district":{"key":"03158","name":"Wolfenbüttel","type":"Landkreis"},"federalState":{"key":"03","name":"Niedersachsen"}},{"name":"Öselblick","postalCode":"38300","locality":"Wolfenbüttel","municipality":{"key":"03158037","name":"Wolfenbüttel, Stadt","type":"Stadt"},"district":{"key":"03158","name":"Wolfenbüttel","type":"Landkreis"},"federalState":{"key":"03","name":"Niedersachsen"}},{"name":"Öselweg","postalCode":"38302","locality":"Wolfenbüttel","municipality":{"key":"03158037","name":"Wolfenbüttel, Stadt","type":"Stadt"},"district":{"key":"03158","name":"Wolfenbüttel","type":"Landkreis"},"federalState":{"key":"03","name":"Niedersachsen"}},{"name":"Über dem Dorfe","postalCode":"38304","locality":"Wolfenbüttel","municipality":{"key":"03158037","name":"Wolfenbüttel, Stadt","type":"Stadt"},"district":{"key":"03158","name":"Wolfenbüttel","type":"Landkreis"},"federalState":{"key":"03","name":"Niedersachsen"}},{"name":"Über der Wiese","postalCode":"38304","locality":"Wolfenbüttel","municipality":{"key":"03158037","name":"Wolfenbüttel, Stadt","type":"Stadt"},"district":{"key":"03158","name":"Wolfenbüttel","type":"Landkreis"},"federalState":{"key":"03","name":"Niedersachsen"}},]