[{"name":"400m Laufbahn","postalCode":"52353","locality":"Düren","municipality":{"key":"05358008","name":"Düren, Stadt","type":"Stadt"},"district":{"key":"05358","name":"Düren","type":"Kreis"},"federalState":{"key":"05","name":"Nordrhein-Westfalen"}},{"name":"Adam-Lehnen-Str.","postalCode":"52379","locality":"Langerwehe","municipality":{"key":"05358032","name":"Langerwehe","type":"Kreisangehörige_Gemeinde"},"district":{"key":"05358","name":"Düren","type":"Kreis"},"federalState":{"key":"05","name":"Nordrhein-Westfalen"}},{"name":"Allee","postalCode":"52379","locality":"Langerwehe","municipality":{"key":"05358032","name":"Langerwehe","type":"Kreisangehörige_Gemeinde"},"district":{"key":"05358","name":"Düren","type":"Kreis"},"federalState":{"key":"05","name":"Nordrhein-Westfalen"}},{"name":"Altdorfer Weg","postalCode":"52379","locality":"Langerwehe","municipality":{"key":"05358032","name":"Langerwehe","type":"Kreisangehörige_Gemeinde"},"district":{"key":"05358","name":"Düren","type":"Kreis"},"federalState":{"key":"05","name":"Nordrhein-Westfalen"}},{"name":"Alte Kirchstr.","postalCode":"52379","locality":"Langerwehe","municipality":{"key":"05358032","name":"Langerwehe","type":"Kreisangehörige_Gemeinde"},"district":{"key":"05358","name":"Düren","type":"Kreis"},"federalState":{"key":"05","name":"Nordrhein-Westfalen"}},{"name":"Am Bahndamm","postalCode":"52379","locality":"Langerwehe","municipality":{"key":"05358032","name":"Langerwehe","type":"Kreisangehörige_Gemeinde"},"district":{"key":"05358","name":"Düren","type":"Kreis"},"federalState":{"key":"05","name":"Nordrhein-Westfalen"}},{"name":"Am Brandweiher","postalCode":"52379","locality":"Langerwehe","municipality":{"key":"05358032","name":"Langerwehe","type":"Kreisangehörige_Gemeinde"},"district":{"key":"05358","name":"Düren","type":"Kreis"},"federalState":{"key":"05","name":"Nordrhein-Westfalen"}},{"name":"Am Daens","postalCode":"52379","locality":"Langerwehe","municipality":{"key":"05358032","name":"Langerwehe","type":"Kreisangehörige_Gemeinde"},"district":{"key":"05358","name":"Düren","type":"Kreis"},"federalState":{"key":"05","name":"Nordrhein-Westfalen"}},{"name":"Am Fasanenhang","postalCode":"52379","locality":"Langerwehe","municipality":{"key":"05358032","name":"Langerwehe","type":"Kreisangehörige_Gemeinde"},"district":{"key":"05358","name":"Düren","type":"Kreis"},"federalState":{"key":"05","name":"Nordrhein-Westfalen"}},{"name":"Am Hinterbusch","postalCode":"52379","locality":"Langerwehe","municipality":{"key":"05358032","name":"Langerwehe","type":"Kreisangehörige_Gemeinde"},"district":{"key":"05358","name":"Düren","type":"Kreis"},"federalState":{"key":"05","name":"Nordrhein-Westfalen"}},{"name":"Am Hofacker","postalCode":"52379","locality":"Langerwehe","municipality":{"key":"05358032","name":"Langerwehe","type":"Kreisangehörige_Gemeinde"},"district":{"key":"05358","name":"Düren","type":"Kreis"},"federalState":{"key":"05","name":"Nordrhein-Westfalen"}},{"name":"Am Königsbusch","postalCode":"52379","locality":"Langerwehe","municipality":{"key":"05358032","name":"Langerwehe","type":"Kreisangehörige_Gemeinde"},"district":{"key":"05358","name":"Düren","type":"Kreis"},"federalState":{"key":"05","name":"Nordrhein-Westfalen"}},{"name":"Am Luschend","postalCode":"52379","locality":"Langerwehe","municipality":{"key":"05358032","name":"Langerwehe","type":"Kreisangehörige_Gemeinde"},"district":{"key":"05358","name":"Düren","type":"Kreis"},"federalState":{"key":"05","name":"Nordrhein-Westfalen"}},{"name":"Am Mühlenfeld","postalCode":"52379","locality":"Langerwehe","municipality":{"key":"05358032","name":"Langerwehe","type":"Kreisangehörige_Gemeinde"},"district":{"key":"05358","name":"Düren","type":"Kreis"},"federalState":{"key":"05","name":"Nordrhein-Westfalen"}},{"name":"Am Neuhaus","postalCode":"52379","locality":"Langerwehe","municipality":{"key":"05358032","name":"Langerwehe","type":"Kreisangehörige_Gemeinde"},"district":{"key":"05358","name":"Düren","type":"Kreis"},"federalState":{"key":"05","name":"Nordrhein-Westfalen"}},{"name":"Am Niederbusch","postalCode":"52379","locality":"Langerwehe","municipality":{"key":"05358032","name":"Langerwehe","type":"Kreisangehörige_Gemeinde"},"district":{"key":"05358","name":"Düren","type":"Kreis"},"federalState":{"key":"05","name":"Nordrhein-Westfalen"}},{"name":"Am Pfuhl","postalCode":"52379","locality":"Langerwehe","municipality":{"key":"05358032","name":"Langerwehe","type":"Kreisangehörige_Gemeinde"},"district":{"key":"05358","name":"Düren","type":"Kreis"},"federalState":{"key":"05","name":"Nordrhein-Westfalen"}},{"name":"Am Rotbach","postalCode":"52379","locality":"Langerwehe","municipality":{"key":"05358032","name":"Langerwehe","type":"Kreisangehörige_Gemeinde"},"district":{"key":"05358","name":"Düren","type":"Kreis"},"federalState":{"key":"05","name":"Nordrhein-Westfalen"}},{"name":"Am Sandberg","postalCode":"52379","locality":"Langerwehe","municipality":{"key":"05358032","name":"Langerwehe","type":"Kreisangehörige_Gemeinde"},"district":{"key":"05358","name":"Düren","type":"Kreis"},"federalState":{"key":"05","name":"Nordrhein-Westfalen"}},{"name":"Amselweg","postalCode":"52379","locality":"Langerwehe","municipality":{"key":"05358032","name":"Langerwehe","type":"Kreisangehörige_Gemeinde"},"district":{"key":"05358","name":"Düren","type":"Kreis"},"federalState":{"key":"05","name":"Nordrhein-Westfalen"}},{"name":"Am Stadion","postalCode":"52379","locality":"Langerwehe","municipality":{"key":"05358032","name":"Langerwehe","type":"Kreisangehörige_Gemeinde"},"district":{"key":"05358","name":"Düren","type":"Kreis"},"federalState":{"key":"05","name":"Nordrhein-Westfalen"}},{"name":"Am Steinchen","postalCode":"52379","locality":"Langerwehe","municipality":{"key":"05358032","name":"Langerwehe","type":"Kreisangehörige_Gemeinde"},"district":{"key":"05358","name":"Düren","type":"Kreis"},"federalState":{"key":"05","name":"Nordrhein-Westfalen"}},{"name":"Am Töpferbrunnen","postalCode":"52379","locality":"Langerwehe","municipality":{"key":"05358032","name":"Langerwehe","type":"Kreisangehörige_Gemeinde"},"district":{"key":"05358","name":"Düren","type":"Kreis"},"federalState":{"key":"05","name":"Nordrhein-Westfalen"}},{"name":"Am vorderen Steinchen","postalCode":"52379","locality":"Langerwehe","municipality":{"key":"05358032","name":"Langerwehe","type":"Kreisangehörige_Gemeinde"},"district":{"key":"05358","name":"Düren","type":"Kreis"},"federalState":{"key":"05","name":"Nordrhein-Westfalen"}},{"name":"Am Wehebach","postalCode":"52379","locality":"Langerwehe","municipality":{"key":"05358032","name":"Langerwehe","type":"Kreisangehörige_Gemeinde"},"district":{"key":"05358","name":"Düren","type":"Kreis"},"federalState":{"key":"05","name":"Nordrhein-Westfalen"}},{"name":"Am Weiherhof","postalCode":"52379","locality":"Langerwehe","municipality":{"key":"05358032","name":"Langerwehe","type":"Kreisangehörige_Gemeinde"},"district":{"key":"05358","name":"Düren","type":"Kreis"},"federalState":{"key":"05","name":"Nordrhein-Westfalen"}},{"name":"An den Obstwiesen","postalCode":"52379","locality":"Langerwehe","municipality":{"key":"05358032","name":"Langerwehe","type":"Kreisangehörige_Gemeinde"},"district":{"key":"05358","name":"Düren","type":"Kreis"},"federalState":{"key":"05","name":"Nordrhein-Westfalen"}},{"name":"An der Dostel","postalCode":"52379","locality":"Langerwehe","municipality":{"key":"05358032","name":"Langerwehe","type":"Kreisangehörige_Gemeinde"},"district":{"key":"05358","name":"Düren","type":"Kreis"},"federalState":{"key":"05","name":"Nordrhein-Westfalen"}},{"name":"An der Erk","postalCode":"52379","locality":"Langerwehe","municipality":{"key":"05358032","name":"Langerwehe","type":"Kreisangehörige_Gemeinde"},"district":{"key":"05358","name":"Düren","type":"Kreis"},"federalState":{"key":"05","name":"Nordrhein-Westfalen"}},{"name":"An der Esch","postalCode":"52379","locality":"Langerwehe","municipality":{"key":"05358032","name":"Langerwehe","type":"Kreisangehörige_Gemeinde"},"district":{"key":"05358","name":"Düren","type":"Kreis"},"federalState":{"key":"05","name":"Nordrhein-Westfalen"}},{"name":"An der Kante","postalCode":"52379","locality":"Langerwehe","municipality":{"key":"05358032","name":"Langerwehe","type":"Kreisangehörige_Gemeinde"},"district":{"key":"05358","name":"Düren","type":"Kreis"},"federalState":{"key":"05","name":"Nordrhein-Westfalen"}},{"name":"An der Lochmühle","postalCode":"52379","locality":"Langerwehe","municipality":{"key":"05358032","name":"Langerwehe","type":"Kreisangehörige_Gemeinde"},"district":{"key":"05358","name":"Düren","type":"Kreis"},"federalState":{"key":"05","name":"Nordrhein-Westfalen"}},{"name":"An der Sandgrube","postalCode":"52379","locality":"Langerwehe","municipality":{"key":"05358032","name":"Langerwehe","type":"Kreisangehörige_Gemeinde"},"district":{"key":"05358","name":"Düren","type":"Kreis"},"federalState":{"key":"05","name":"Nordrhein-Westfalen"}},{"name":"Antoniusstr.","postalCode":"52379","locality":"Langerwehe","municipality":{"key":"05358032","name":"Langerwehe","type":"Kreisangehörige_Gemeinde"},"district":{"key":"05358","name":"Düren","type":"Kreis"},"federalState":{"key":"05","name":"Nordrhein-Westfalen"}},{"name":"Apolloniastr.","postalCode":"52379","locality":"Langerwehe","municipality":{"key":"05358032","name":"Langerwehe","type":"Kreisangehörige_Gemeinde"},"district":{"key":"05358","name":"Düren","type":"Kreis"},"federalState":{"key":"05","name":"Nordrhein-Westfalen"}},{"name":"Arnold-Homberg-Str.","postalCode":"52379","locality":"Langerwehe","municipality":{"key":"05358032","name":"Langerwehe","type":"Kreisangehörige_Gemeinde"},"district":{"key":"05358","name":"Düren","type":"Kreis"},"federalState":{"key":"05","name":"Nordrhein-Westfalen"}},{"name":"Auf dem Berg","postalCode":"52379","locality":"Langerwehe","municipality":{"key":"05358032","name":"Langerwehe","type":"Kreisangehörige_Gemeinde"},"district":{"key":"05358","name":"Düren","type":"Kreis"},"federalState":{"key":"05","name":"Nordrhein-Westfalen"}},{"name":"Auf dem Feldchen","postalCode":"52379","locality":"Langerwehe","municipality":{"key":"05358032","name":"Langerwehe","type":"Kreisangehörige_Gemeinde"},"district":{"key":"05358","name":"Düren","type":"Kreis"},"federalState":{"key":"05","name":"Nordrhein-Westfalen"}},{"name":"Auf dem Hahnen","postalCode":"52379","locality":"Langerwehe","municipality":{"key":"05358032","name":"Langerwehe","type":"Kreisangehörige_Gemeinde"},"district":{"key":"05358","name":"Düren","type":"Kreis"},"federalState":{"key":"05","name":"Nordrhein-Westfalen"}},{"name":"Auf dem Hiebchen","postalCode":"52379","locality":"Langerwehe","municipality":{"key":"05358032","name":"Langerwehe","type":"Kreisangehörige_Gemeinde"},"district":{"key":"05358","name":"Düren","type":"Kreis"},"federalState":{"key":"05","name":"Nordrhein-Westfalen"}},{"name":"Auf dem Kamp","postalCode":"52379","locality":"Langerwehe","municipality":{"key":"05358032","name":"Langerwehe","type":"Kreisangehörige_Gemeinde"},"district":{"key":"05358","name":"Düren","type":"Kreis"},"federalState":{"key":"05","name":"Nordrhein-Westfalen"}},{"name":"Auf den Kämpen","postalCode":"52379","locality":"Langerwehe","municipality":{"key":"05358032","name":"Langerwehe","type":"Kreisangehörige_Gemeinde"},"district":{"key":"05358","name":"Düren","type":"Kreis"},"federalState":{"key":"05","name":"Nordrhein-Westfalen"}},{"name":"Auf der Heide","postalCode":"52379","locality":"Langerwehe","municipality":{"key":"05358032","name":"Langerwehe","type":"Kreisangehörige_Gemeinde"},"district":{"key":"05358","name":"Düren","type":"Kreis"},"federalState":{"key":"05","name":"Nordrhein-Westfalen"}},{"name":"Auf'm Kutsch","postalCode":"52379","locality":"Langerwehe","municipality":{"key":"05358032","name":"Langerwehe","type":"Kreisangehörige_Gemeinde"},"district":{"key":"05358","name":"Düren","type":"Kreis"},"federalState":{"key":"05","name":"Nordrhein-Westfalen"}},{"name":"Bachstr.","postalCode":"52379","locality":"Langerwehe","municipality":{"key":"05358032","name":"Langerwehe","type":"Kreisangehörige_Gemeinde"},"district":{"key":"05358","name":"Düren","type":"Kreis"},"federalState":{"key":"05","name":"Nordrhein-Westfalen"}},{"name":"Bahnhofsplatz","postalCode":"52379","locality":"Langerwehe","municipality":{"key":"05358032","name":"Langerwehe","type":"Kreisangehörige_Gemeinde"},"district":{"key":"05358","name":"Düren","type":"Kreis"},"federalState":{"key":"05","name":"Nordrhein-Westfalen"}},{"name":"Bahnhofstr.","postalCode":"52379","locality":"Langerwehe","municipality":{"key":"05358032","name":"Langerwehe","type":"Kreisangehörige_Gemeinde"},"district":{"key":"05358","name":"Düren","type":"Kreis"},"federalState":{"key":"05","name":"Nordrhein-Westfalen"}},{"name":"Barbarastr.","postalCode":"52379","locality":"Langerwehe","municipality":{"key":"05358032","name":"Langerwehe","type":"Kreisangehörige_Gemeinde"},"district":{"key":"05358","name":"Düren","type":"Kreis"},"federalState":{"key":"05","name":"Nordrhein-Westfalen"}},{"name":"Berensgasse","postalCode":"52379","locality":"Langerwehe","municipality":{"key":"05358032","name":"Langerwehe","type":"Kreisangehörige_Gemeinde"},"district":{"key":"05358","name":"Düren","type":"Kreis"},"federalState":{"key":"05","name":"Nordrhein-Westfalen"}},{"name":"Bergstr.","postalCode":"52379","locality":"Langerwehe","municipality":{"key":"05358032","name":"Langerwehe","type":"Kreisangehörige_Gemeinde"},"district":{"key":"05358","name":"Düren","type":"Kreis"},"federalState":{"key":"05","name":"Nordrhein-Westfalen"}},{"name":"Bernadettestr.","postalCode":"52379","locality":"Langerwehe","municipality":{"key":"05358032","name":"Langerwehe","type":"Kreisangehörige_Gemeinde"},"district":{"key":"05358","name":"Düren","type":"Kreis"},"federalState":{"key":"05","name":"Nordrhein-Westfalen"}},{"name":"Blumenstr.","postalCode":"52379","locality":"Langerwehe","municipality":{"key":"05358032","name":"Langerwehe","type":"Kreisangehörige_Gemeinde"},"district":{"key":"05358","name":"Düren","type":"Kreis"},"federalState":{"key":"05","name":"Nordrhein-Westfalen"}},{"name":"Bongard","postalCode":"52379","locality":"Langerwehe","municipality":{"key":"05358032","name":"Langerwehe","type":"Kreisangehörige_Gemeinde"},"district":{"key":"05358","name":"Düren","type":"Kreis"},"federalState":{"key":"05","name":"Nordrhein-Westfalen"}},{"name":"Bonsdorfer Str.","postalCode":"52379","locality":"Langerwehe","municipality":{"key":"05358032","name":"Langerwehe","type":"Kreisangehörige_Gemeinde"},"district":{"key":"05358","name":"Düren","type":"Kreis"},"federalState":{"key":"05","name":"Nordrhein-Westfalen"}},{"name":"Brückenstr.","postalCode":"52379","locality":"Langerwehe","municipality":{"key":"05358032","name":"Langerwehe","type":"Kreisangehörige_Gemeinde"},"district":{"key":"05358","name":"Düren","type":"Kreis"},"federalState":{"key":"05","name":"Nordrhein-Westfalen"}},{"name":"Bundesstr.","postalCode":"52379","locality":"Langerwehe","municipality":{"key":"05358032","name":"Langerwehe","type":"Kreisangehörige_Gemeinde"},"district":{"key":"05358","name":"Düren","type":"Kreis"},"federalState":{"key":"05","name":"Nordrhein-Westfalen"}},{"name":"Bürgermeister-Schoeller-Str.","postalCode":"52379","locality":"Langerwehe","municipality":{"key":"05358032","name":"Langerwehe","type":"Kreisangehörige_Gemeinde"},"district":{"key":"05358","name":"Düren","type":"Kreis"},"federalState":{"key":"05","name":"Nordrhein-Westfalen"}},{"name":"Burg Frenz","postalCode":"52379","locality":"Langerwehe","municipality":{"key":"05358032","name":"Langerwehe","type":"Kreisangehörige_Gemeinde"},"district":{"key":"05358","name":"Düren","type":"Kreis"},"federalState":{"key":"05","name":"Nordrhein-Westfalen"}},{"name":"Burgstr.","postalCode":"52379","locality":"Langerwehe","municipality":{"key":"05358032","name":"Langerwehe","type":"Kreisangehörige_Gemeinde"},"district":{"key":"05358","name":"Düren","type":"Kreis"},"federalState":{"key":"05","name":"Nordrhein-Westfalen"}},{"name":"Christa-Schmitt-Str.","postalCode":"52379","locality":"Langerwehe","municipality":{"key":"05358032","name":"Langerwehe","type":"Kreisangehörige_Gemeinde"},"district":{"key":"05358","name":"Düren","type":"Kreis"},"federalState":{"key":"05","name":"Nordrhein-Westfalen"}},{"name":"Dechant-Kallen-Str.","postalCode":"52379","locality":"Langerwehe","municipality":{"key":"05358032","name":"Langerwehe","type":"Kreisangehörige_Gemeinde"},"district":{"key":"05358","name":"Düren","type":"Kreis"},"federalState":{"key":"05","name":"Nordrhein-Westfalen"}},{"name":"Der Fußhof","postalCode":"52379","locality":"Langerwehe","municipality":{"key":"05358032","name":"Langerwehe","type":"Kreisangehörige_Gemeinde"},"district":{"key":"05358","name":"Düren","type":"Kreis"},"federalState":{"key":"05","name":"Nordrhein-Westfalen"}},{"name":"Derichsweilerstr.","postalCode":"52379","locality":"Langerwehe","municipality":{"key":"05358032","name":"Langerwehe","type":"Kreisangehörige_Gemeinde"},"district":{"key":"05358","name":"Düren","type":"Kreis"},"federalState":{"key":"05","name":"Nordrhein-Westfalen"}},{"name":"D'horner Str.","postalCode":"52379","locality":"Langerwehe","municipality":{"key":"05358032","name":"Langerwehe","type":"Kreisangehörige_Gemeinde"},"district":{"key":"05358","name":"Düren","type":"Kreis"},"federalState":{"key":"05","name":"Nordrhein-Westfalen"}},{"name":"Dieter-Reinartz-Str.","postalCode":"52379","locality":"Langerwehe","municipality":{"key":"05358032","name":"Langerwehe","type":"Kreisangehörige_Gemeinde"},"district":{"key":"05358","name":"Düren","type":"Kreis"},"federalState":{"key":"05","name":"Nordrhein-Westfalen"}},{"name":"Döllersfeldchen","postalCode":"52379","locality":"Langerwehe","municipality":{"key":"05358032","name":"Langerwehe","type":"Kreisangehörige_Gemeinde"},"district":{"key":"05358","name":"Düren","type":"Kreis"},"federalState":{"key":"05","name":"Nordrhein-Westfalen"}},{"name":"Dr.-Burchard-Sielmann-Str.","postalCode":"52379","locality":"Langerwehe","municipality":{"key":"05358032","name":"Langerwehe","type":"Kreisangehörige_Gemeinde"},"district":{"key":"05358","name":"Düren","type":"Kreis"},"federalState":{"key":"05","name":"Nordrhein-Westfalen"}},{"name":"Driesch","postalCode":"52379","locality":"Langerwehe","municipality":{"key":"05358032","name":"Langerwehe","type":"Kreisangehörige_Gemeinde"},"district":{"key":"05358","name":"Düren","type":"Kreis"},"federalState":{"key":"05","name":"Nordrhein-Westfalen"}},{"name":"Drosselweg","postalCode":"52379","locality":"Langerwehe","municipality":{"key":"05358032","name":"Langerwehe","type":"Kreisangehörige_Gemeinde"},"district":{"key":"05358","name":"Düren","type":"Kreis"},"federalState":{"key":"05","name":"Nordrhein-Westfalen"}},{"name":"Dürener Str.","postalCode":"52379","locality":"Langerwehe","municipality":{"key":"05358032","name":"Langerwehe","type":"Kreisangehörige_Gemeinde"},"district":{"key":"05358","name":"Düren","type":"Kreis"},"federalState":{"key":"05","name":"Nordrhein-Westfalen"}},{"name":"Dürener Weg","postalCode":"52379","locality":"Langerwehe","municipality":{"key":"05358032","name":"Langerwehe","type":"Kreisangehörige_Gemeinde"},"district":{"key":"05358","name":"Düren","type":"Kreis"},"federalState":{"key":"05","name":"Nordrhein-Westfalen"}},{"name":"Echtzer Str.","postalCode":"52379","locality":"Langerwehe","municipality":{"key":"05358032","name":"Langerwehe","type":"Kreisangehörige_Gemeinde"},"district":{"key":"05358","name":"Düren","type":"Kreis"},"federalState":{"key":"05","name":"Nordrhein-Westfalen"}},{"name":"Eduard-Kaczmarek-Weg","postalCode":"52379","locality":"Langerwehe","municipality":{"key":"05358032","name":"Langerwehe","type":"Kreisangehörige_Gemeinde"},"district":{"key":"05358","name":"Düren","type":"Kreis"},"federalState":{"key":"05","name":"Nordrhein-Westfalen"}},{"name":"Eichenweg","postalCode":"52379","locality":"Langerwehe","municipality":{"key":"05358032","name":"Langerwehe","type":"Kreisangehörige_Gemeinde"},"district":{"key":"05358","name":"Düren","type":"Kreis"},"federalState":{"key":"05","name":"Nordrhein-Westfalen"}},{"name":"Eifelstr.","postalCode":"52379","locality":"Langerwehe","municipality":{"key":"05358032","name":"Langerwehe","type":"Kreisangehörige_Gemeinde"},"district":{"key":"05358","name":"Düren","type":"Kreis"},"federalState":{"key":"05","name":"Nordrhein-Westfalen"}},{"name":"Erbsweg","postalCode":"52379","locality":"Langerwehe","municipality":{"key":"05358032","name":"Langerwehe","type":"Kreisangehörige_Gemeinde"},"district":{"key":"05358","name":"Düren","type":"Kreis"},"federalState":{"key":"05","name":"Nordrhein-Westfalen"}},{"name":"Falkenweg","postalCode":"52379","locality":"Langerwehe","municipality":{"key":"05358032","name":"Langerwehe","type":"Kreisangehörige_Gemeinde"},"district":{"key":"05358","name":"Düren","type":"Kreis"},"federalState":{"key":"05","name":"Nordrhein-Westfalen"}},{"name":"Felix-Schleicher-Str.","postalCode":"52379","locality":"Langerwehe","municipality":{"key":"05358032","name":"Langerwehe","type":"Kreisangehörige_Gemeinde"},"district":{"key":"05358","name":"Düren","type":"Kreis"},"federalState":{"key":"05","name":"Nordrhein-Westfalen"}},{"name":"Finkenweg","postalCode":"52379","locality":"Langerwehe","municipality":{"key":"05358032","name":"Langerwehe","type":"Kreisangehörige_Gemeinde"},"district":{"key":"05358","name":"Düren","type":"Kreis"},"federalState":{"key":"05","name":"Nordrhein-Westfalen"}},{"name":"Florastr.","postalCode":"52379","locality":"Langerwehe","municipality":{"key":"05358032","name":"Langerwehe","type":"Kreisangehörige_Gemeinde"},"district":{"key":"05358","name":"Düren","type":"Kreis"},"federalState":{"key":"05","name":"Nordrhein-Westfalen"}},{"name":"Forsthaus Bovenberg","postalCode":"52379","locality":"Langerwehe","municipality":{"key":"05358032","name":"Langerwehe","type":"Kreisangehörige_Gemeinde"},"district":{"key":"05358","name":"Düren","type":"Kreis"},"federalState":{"key":"05","name":"Nordrhein-Westfalen"}},{"name":"Forsthaus Jüngersdorf","postalCode":"52379","locality":"Langerwehe","municipality":{"key":"05358032","name":"Langerwehe","type":"Kreisangehörige_Gemeinde"},"district":{"key":"05358","name":"Düren","type":"Kreis"},"federalState":{"key":"05","name":"Nordrhein-Westfalen"}},{"name":"Forsthaus Wenau","postalCode":"52379","locality":"Langerwehe","municipality":{"key":"05358032","name":"Langerwehe","type":"Kreisangehörige_Gemeinde"},"district":{"key":"05358","name":"Düren","type":"Kreis"},"federalState":{"key":"05","name":"Nordrhein-Westfalen"}},{"name":"Franz-Engels-Str.","postalCode":"52379","locality":"Langerwehe","municipality":{"key":"05358032","name":"Langerwehe","type":"Kreisangehörige_Gemeinde"},"district":{"key":"05358","name":"Düren","type":"Kreis"},"federalState":{"key":"05","name":"Nordrhein-Westfalen"}},{"name":"Franz-Schain-Str.","postalCode":"52379","locality":"Langerwehe","municipality":{"key":"05358032","name":"Langerwehe","type":"Kreisangehörige_Gemeinde"},"district":{"key":"05358","name":"Düren","type":"Kreis"},"federalState":{"key":"05","name":"Nordrhein-Westfalen"}},{"name":"Frenzer Weg","postalCode":"52379","locality":"Langerwehe","municipality":{"key":"05358032","name":"Langerwehe","type":"Kreisangehörige_Gemeinde"},"district":{"key":"05358","name":"Düren","type":"Kreis"},"federalState":{"key":"05","name":"Nordrhein-Westfalen"}},{"name":"Friedhofstr.","postalCode":"52379","locality":"Langerwehe","municipality":{"key":"05358032","name":"Langerwehe","type":"Kreisangehörige_Gemeinde"},"district":{"key":"05358","name":"Düren","type":"Kreis"},"federalState":{"key":"05","name":"Nordrhein-Westfalen"}},{"name":"Gartenstr.","postalCode":"52379","locality":"Langerwehe","municipality":{"key":"05358032","name":"Langerwehe","type":"Kreisangehörige_Gemeinde"},"district":{"key":"05358","name":"Düren","type":"Kreis"},"federalState":{"key":"05","name":"Nordrhein-Westfalen"}},{"name":"Grabenstr.","postalCode":"52379","locality":"Langerwehe","municipality":{"key":"05358032","name":"Langerwehe","type":"Kreisangehörige_Gemeinde"},"district":{"key":"05358","name":"Düren","type":"Kreis"},"federalState":{"key":"05","name":"Nordrhein-Westfalen"}},{"name":"Gracht","postalCode":"52379","locality":"Langerwehe","municipality":{"key":"05358032","name":"Langerwehe","type":"Kreisangehörige_Gemeinde"},"district":{"key":"05358","name":"Düren","type":"Kreis"},"federalState":{"key":"05","name":"Nordrhein-Westfalen"}},{"name":"Grüner Weg","postalCode":"52379","locality":"Langerwehe","municipality":{"key":"05358032","name":"Langerwehe","type":"Kreisangehörige_Gemeinde"},"district":{"key":"05358","name":"Düren","type":"Kreis"},"federalState":{"key":"05","name":"Nordrhein-Westfalen"}},{"name":"Grüntalstr.","postalCode":"52379","locality":"Langerwehe","municipality":{"key":"05358032","name":"Langerwehe","type":"Kreisangehörige_Gemeinde"},"district":{"key":"05358","name":"Düren","type":"Kreis"},"federalState":{"key":"05","name":"Nordrhein-Westfalen"}},{"name":"Gut Atzenau","postalCode":"52379","locality":"Langerwehe","municipality":{"key":"05358032","name":"Langerwehe","type":"Kreisangehörige_Gemeinde"},"district":{"key":"05358","name":"Düren","type":"Kreis"},"federalState":{"key":"05","name":"Nordrhein-Westfalen"}},{"name":"Gut Schönthal","postalCode":"52379","locality":"Langerwehe","municipality":{"key":"05358032","name":"Langerwehe","type":"Kreisangehörige_Gemeinde"},"district":{"key":"05358","name":"Düren","type":"Kreis"},"federalState":{"key":"05","name":"Nordrhein-Westfalen"}},{"name":"Gysemans-Weg","postalCode":"52379","locality":"Langerwehe","municipality":{"key":"05358032","name":"Langerwehe","type":"Kreisangehörige_Gemeinde"},"district":{"key":"05358","name":"Düren","type":"Kreis"},"federalState":{"key":"05","name":"Nordrhein-Westfalen"}},{"name":"Hahnweg","postalCode":"52379","locality":"Langerwehe","municipality":{"key":"05358032","name":"Langerwehe","type":"Kreisangehörige_Gemeinde"},"district":{"key":"05358","name":"Düren","type":"Kreis"},"federalState":{"key":"05","name":"Nordrhein-Westfalen"}},{"name":"Hamicher Höfchen","postalCode":"52379","locality":"Langerwehe","municipality":{"key":"05358032","name":"Langerwehe","type":"Kreisangehörige_Gemeinde"},"district":{"key":"05358","name":"Düren","type":"Kreis"},"federalState":{"key":"05","name":"Nordrhein-Westfalen"}},{"name":"Hamicher Str.","postalCode":"52379","locality":"Langerwehe","municipality":{"key":"05358032","name":"Langerwehe","type":"Kreisangehörige_Gemeinde"},"district":{"key":"05358","name":"Düren","type":"Kreis"},"federalState":{"key":"05","name":"Nordrhein-Westfalen"}},{"name":"Hans-Böckler-Str.","postalCode":"52379","locality":"Langerwehe","municipality":{"key":"05358032","name":"Langerwehe","type":"Kreisangehörige_Gemeinde"},"district":{"key":"05358","name":"Düren","type":"Kreis"},"federalState":{"key":"05","name":"Nordrhein-Westfalen"}},{"name":"Hauptgestell","postalCode":"52379","locality":"Langerwehe","municipality":{"key":"05358032","name":"Langerwehe","type":"Kreisangehörige_Gemeinde"},"district":{"key":"05358","name":"Düren","type":"Kreis"},"federalState":{"key":"05","name":"Nordrhein-Westfalen"}},{"name":"Hauptstr.","postalCode":"52379","locality":"Langerwehe","municipality":{"key":"05358032","name":"Langerwehe","type":"Kreisangehörige_Gemeinde"},"district":{"key":"05358","name":"Düren","type":"Kreis"},"federalState":{"key":"05","name":"Nordrhein-Westfalen"}},{"name":"Hausbuschgasse","postalCode":"52379","locality":"Langerwehe","municipality":{"key":"05358032","name":"Langerwehe","type":"Kreisangehörige_Gemeinde"},"district":{"key":"05358","name":"Düren","type":"Kreis"},"federalState":{"key":"05","name":"Nordrhein-Westfalen"}},{"name":"Haus Merberich","postalCode":"52379","locality":"Langerwehe","municipality":{"key":"05358032","name":"Langerwehe","type":"Kreisangehörige_Gemeinde"},"district":{"key":"05358","name":"Düren","type":"Kreis"},"federalState":{"key":"05","name":"Nordrhein-Westfalen"}},{"name":"Hauweg","postalCode":"52379","locality":"Langerwehe","municipality":{"key":"05358032","name":"Langerwehe","type":"Kreisangehörige_Gemeinde"},"district":{"key":"05358","name":"Düren","type":"Kreis"},"federalState":{"key":"05","name":"Nordrhein-Westfalen"}},{"name":"Heinz-Emonds-Str.","postalCode":"52379","locality":"Langerwehe","municipality":{"key":"05358032","name":"Langerwehe","type":"Kreisangehörige_Gemeinde"},"district":{"key":"05358","name":"Düren","type":"Kreis"},"federalState":{"key":"05","name":"Nordrhein-Westfalen"}},{"name":"Heisterner Str.","postalCode":"52379","locality":"Langerwehe","municipality":{"key":"05358032","name":"Langerwehe","type":"Kreisangehörige_Gemeinde"},"district":{"key":"05358","name":"Düren","type":"Kreis"},"federalState":{"key":"05","name":"Nordrhein-Westfalen"}},{"name":"Herrengarten","postalCode":"52379","locality":"Langerwehe","municipality":{"key":"05358032","name":"Langerwehe","type":"Kreisangehörige_Gemeinde"},"district":{"key":"05358","name":"Düren","type":"Kreis"},"federalState":{"key":"05","name":"Nordrhein-Westfalen"}},{"name":"Hirkenweg","postalCode":"52379","locality":"Langerwehe","municipality":{"key":"05358032","name":"Langerwehe","type":"Kreisangehörige_Gemeinde"},"district":{"key":"05358","name":"Düren","type":"Kreis"},"federalState":{"key":"05","name":"Nordrhein-Westfalen"}},{"name":"Holzstr.","postalCode":"52379","locality":"Langerwehe","municipality":{"key":"05358032","name":"Langerwehe","type":"Kreisangehörige_Gemeinde"},"district":{"key":"05358","name":"Düren","type":"Kreis"},"federalState":{"key":"05","name":"Nordrhein-Westfalen"}},{"name":"Hospitalstr.","postalCode":"52379","locality":"Langerwehe","municipality":{"key":"05358032","name":"Langerwehe","type":"Kreisangehörige_Gemeinde"},"district":{"key":"05358","name":"Düren","type":"Kreis"},"federalState":{"key":"05","name":"Nordrhein-Westfalen"}},{"name":"Hülsenbergstr.","postalCode":"52379","locality":"Langerwehe","municipality":{"key":"05358032","name":"Langerwehe","type":"Kreisangehörige_Gemeinde"},"district":{"key":"05358","name":"Düren","type":"Kreis"},"federalState":{"key":"05","name":"Nordrhein-Westfalen"}},{"name":"Hüttenstr.","postalCode":"52379","locality":"Langerwehe","municipality":{"key":"05358032","name":"Langerwehe","type":"Kreisangehörige_Gemeinde"},"district":{"key":"05358","name":"Düren","type":"Kreis"},"federalState":{"key":"05","name":"Nordrhein-Westfalen"}},{"name":"Im Baumgarten","postalCode":"52379","locality":"Langerwehe","municipality":{"key":"05358032","name":"Langerwehe","type":"Kreisangehörige_Gemeinde"},"district":{"key":"05358","name":"Düren","type":"Kreis"},"federalState":{"key":"05","name":"Nordrhein-Westfalen"}},{"name":"Im Birkengrund","postalCode":"52379","locality":"Langerwehe","municipality":{"key":"05358032","name":"Langerwehe","type":"Kreisangehörige_Gemeinde"},"district":{"key":"05358","name":"Düren","type":"Kreis"},"federalState":{"key":"05","name":"Nordrhein-Westfalen"}},{"name":"Im Meisenbusch","postalCode":"52379","locality":"Langerwehe","municipality":{"key":"05358032","name":"Langerwehe","type":"Kreisangehörige_Gemeinde"},"district":{"key":"05358","name":"Düren","type":"Kreis"},"federalState":{"key":"05","name":"Nordrhein-Westfalen"}},{"name":"In den Benden","postalCode":"52379","locality":"Langerwehe","municipality":{"key":"05358032","name":"Langerwehe","type":"Kreisangehörige_Gemeinde"},"district":{"key":"05358","name":"Düren","type":"Kreis"},"federalState":{"key":"05","name":"Nordrhein-Westfalen"}},{"name":"Indener Weg","postalCode":"52379","locality":"Langerwehe","municipality":{"key":"05358032","name":"Langerwehe","type":"Kreisangehörige_Gemeinde"},"district":{"key":"05358","name":"Düren","type":"Kreis"},"federalState":{"key":"05","name":"Nordrhein-Westfalen"}},{"name":"In der Au","postalCode":"52379","locality":"Langerwehe","municipality":{"key":"05358032","name":"Langerwehe","type":"Kreisangehörige_Gemeinde"},"district":{"key":"05358","name":"Düren","type":"Kreis"},"federalState":{"key":"05","name":"Nordrhein-Westfalen"}},{"name":"In der Klaus","postalCode":"52379","locality":"Langerwehe","municipality":{"key":"05358032","name":"Langerwehe","type":"Kreisangehörige_Gemeinde"},"district":{"key":"05358","name":"Düren","type":"Kreis"},"federalState":{"key":"05","name":"Nordrhein-Westfalen"}},{"name":"In der Peitsch","postalCode":"52379","locality":"Langerwehe","municipality":{"key":"05358032","name":"Langerwehe","type":"Kreisangehörige_Gemeinde"},"district":{"key":"05358","name":"Düren","type":"Kreis"},"federalState":{"key":"05","name":"Nordrhein-Westfalen"}},{"name":"Jakob-Schmitz-Str.","postalCode":"52379","locality":"Langerwehe","municipality":{"key":"05358032","name":"Langerwehe","type":"Kreisangehörige_Gemeinde"},"district":{"key":"05358","name":"Düren","type":"Kreis"},"federalState":{"key":"05","name":"Nordrhein-Westfalen"}},{"name":"Jakobstr.","postalCode":"52379","locality":"Langerwehe","municipality":{"key":"05358032","name":"Langerwehe","type":"Kreisangehörige_Gemeinde"},"district":{"key":"05358","name":"Düren","type":"Kreis"},"federalState":{"key":"05","name":"Nordrhein-Westfalen"}},{"name":"Johannes-Haack-Str.","postalCode":"52379","locality":"Langerwehe","municipality":{"key":"05358032","name":"Langerwehe","type":"Kreisangehörige_Gemeinde"},"district":{"key":"05358","name":"Düren","type":"Kreis"},"federalState":{"key":"05","name":"Nordrhein-Westfalen"}},{"name":"Johannes-Hellwig-Str.","postalCode":"52379","locality":"Langerwehe","municipality":{"key":"05358032","name":"Langerwehe","type":"Kreisangehörige_Gemeinde"},"district":{"key":"05358","name":"Düren","type":"Kreis"},"federalState":{"key":"05","name":"Nordrhein-Westfalen"}},{"name":"Josef-Heinrichs-Str.","postalCode":"52379","locality":"Langerwehe","municipality":{"key":"05358032","name":"Langerwehe","type":"Kreisangehörige_Gemeinde"},"district":{"key":"05358","name":"Düren","type":"Kreis"},"federalState":{"key":"05","name":"Nordrhein-Westfalen"}},{"name":"Josef-Schwarz-Str.","postalCode":"52379","locality":"Langerwehe","municipality":{"key":"05358032","name":"Langerwehe","type":"Kreisangehörige_Gemeinde"},"district":{"key":"05358","name":"Düren","type":"Kreis"},"federalState":{"key":"05","name":"Nordrhein-Westfalen"}},{"name":"Jüngersdorfer Str.","postalCode":"52379","locality":"Langerwehe","municipality":{"key":"05358032","name":"Langerwehe","type":"Kreisangehörige_Gemeinde"},"district":{"key":"05358","name":"Düren","type":"Kreis"},"federalState":{"key":"05","name":"Nordrhein-Westfalen"}},{"name":"Kapellenstr.","postalCode":"52379","locality":"Langerwehe","municipality":{"key":"05358032","name":"Langerwehe","type":"Kreisangehörige_Gemeinde"},"district":{"key":"05358","name":"Düren","type":"Kreis"},"federalState":{"key":"05","name":"Nordrhein-Westfalen"}},{"name":"Karl-Arnold-Str.","postalCode":"52379","locality":"Langerwehe","municipality":{"key":"05358032","name":"Langerwehe","type":"Kreisangehörige_Gemeinde"},"district":{"key":"05358","name":"Düren","type":"Kreis"},"federalState":{"key":"05","name":"Nordrhein-Westfalen"}},{"name":"Karlsweg","postalCode":"52379","locality":"Langerwehe","municipality":{"key":"05358032","name":"Langerwehe","type":"Kreisangehörige_Gemeinde"},"district":{"key":"05358","name":"Düren","type":"Kreis"},"federalState":{"key":"05","name":"Nordrhein-Westfalen"}},{"name":"Klosterstr.","postalCode":"52379","locality":"Langerwehe","municipality":{"key":"05358032","name":"Langerwehe","type":"Kreisangehörige_Gemeinde"},"district":{"key":"05358","name":"Düren","type":"Kreis"},"federalState":{"key":"05","name":"Nordrhein-Westfalen"}},{"name":"Knotstr.","postalCode":"52379","locality":"Langerwehe","municipality":{"key":"05358032","name":"Langerwehe","type":"Kreisangehörige_Gemeinde"},"district":{"key":"05358","name":"Düren","type":"Kreis"},"federalState":{"key":"05","name":"Nordrhein-Westfalen"}},{"name":"Kreuzfelder Str.","postalCode":"52379","locality":"Langerwehe","municipality":{"key":"05358032","name":"Langerwehe","type":"Kreisangehörige_Gemeinde"},"district":{"key":"05358","name":"Düren","type":"Kreis"},"federalState":{"key":"05","name":"Nordrhein-Westfalen"}},{"name":"Kreuzherrenstr.","postalCode":"52379","locality":"Langerwehe","municipality":{"key":"05358032","name":"Langerwehe","type":"Kreisangehörige_Gemeinde"},"district":{"key":"05358","name":"Düren","type":"Kreis"},"federalState":{"key":"05","name":"Nordrhein-Westfalen"}},{"name":"Kreuzstr.","postalCode":"52379","locality":"Langerwehe","municipality":{"key":"05358032","name":"Langerwehe","type":"Kreisangehörige_Gemeinde"},"district":{"key":"05358","name":"Düren","type":"Kreis"},"federalState":{"key":"05","name":"Nordrhein-Westfalen"}},{"name":"Kupfergasse","postalCode":"52379","locality":"Langerwehe","municipality":{"key":"05358032","name":"Langerwehe","type":"Kreisangehörige_Gemeinde"},"district":{"key":"05358","name":"Düren","type":"Kreis"},"federalState":{"key":"05","name":"Nordrhein-Westfalen"}},{"name":"Lange Bahn","postalCode":"52379","locality":"Langerwehe","municipality":{"key":"05358032","name":"Langerwehe","type":"Kreisangehörige_Gemeinde"},"district":{"key":"05358","name":"Düren","type":"Kreis"},"federalState":{"key":"05","name":"Nordrhein-Westfalen"}},{"name":"Langerwehe Bahnhof (Bus)","postalCode":"52379","locality":"Langerwehe","municipality":{"key":"05358032","name":"Langerwehe","type":"Kreisangehörige_Gemeinde"},"district":{"key":"05358","name":"Düren","type":"Kreis"},"federalState":{"key":"05","name":"Nordrhein-Westfalen"}},{"name":"Langerweher Str.","postalCode":"52379","locality":"Langerwehe","municipality":{"key":"05358032","name":"Langerwehe","type":"Kreisangehörige_Gemeinde"},"district":{"key":"05358","name":"Düren","type":"Kreis"},"federalState":{"key":"05","name":"Nordrhein-Westfalen"}},{"name":"Laufenburger Steingracht","postalCode":"52379","locality":"Langerwehe","municipality":{"key":"05358032","name":"Langerwehe","type":"Kreisangehörige_Gemeinde"},"district":{"key":"05358","name":"Düren","type":"Kreis"},"federalState":{"key":"05","name":"Nordrhein-Westfalen"}},{"name":"Laufenburgstr.","postalCode":"52379","locality":"Langerwehe","municipality":{"key":"05358032","name":"Langerwehe","type":"Kreisangehörige_Gemeinde"},"district":{"key":"05358","name":"Düren","type":"Kreis"},"federalState":{"key":"05","name":"Nordrhein-Westfalen"}},{"name":"Lennestr.","postalCode":"52379","locality":"Langerwehe","municipality":{"key":"05358032","name":"Langerwehe","type":"Kreisangehörige_Gemeinde"},"district":{"key":"05358","name":"Düren","type":"Kreis"},"federalState":{"key":"05","name":"Nordrhein-Westfalen"}},{"name":"Leo-Höxter-Str.","postalCode":"52379","locality":"Langerwehe","municipality":{"key":"05358032","name":"Langerwehe","type":"Kreisangehörige_Gemeinde"},"district":{"key":"05358","name":"Düren","type":"Kreis"},"federalState":{"key":"05","name":"Nordrhein-Westfalen"}},{"name":"Lerchenweg","postalCode":"52379","locality":"Langerwehe","municipality":{"key":"05358032","name":"Langerwehe","type":"Kreisangehörige_Gemeinde"},"district":{"key":"05358","name":"Düren","type":"Kreis"},"federalState":{"key":"05","name":"Nordrhein-Westfalen"}},{"name":"Lindenhof","postalCode":"52379","locality":"Langerwehe","municipality":{"key":"05358032","name":"Langerwehe","type":"Kreisangehörige_Gemeinde"},"district":{"key":"05358","name":"Düren","type":"Kreis"},"federalState":{"key":"05","name":"Nordrhein-Westfalen"}},{"name":"Luchemer Str.","postalCode":"52379","locality":"Langerwehe","municipality":{"key":"05358032","name":"Langerwehe","type":"Kreisangehörige_Gemeinde"},"district":{"key":"05358","name":"Düren","type":"Kreis"},"federalState":{"key":"05","name":"Nordrhein-Westfalen"}},{"name":"Maarweg","postalCode":"52379","locality":"Langerwehe","municipality":{"key":"05358032","name":"Langerwehe","type":"Kreisangehörige_Gemeinde"},"district":{"key":"05358","name":"Düren","type":"Kreis"},"federalState":{"key":"05","name":"Nordrhein-Westfalen"}},{"name":"Mannsweg","postalCode":"52379","locality":"Langerwehe","municipality":{"key":"05358032","name":"Langerwehe","type":"Kreisangehörige_Gemeinde"},"district":{"key":"05358","name":"Düren","type":"Kreis"},"federalState":{"key":"05","name":"Nordrhein-Westfalen"}},{"name":"Margaretenstr.","postalCode":"52379","locality":"Langerwehe","municipality":{"key":"05358032","name":"Langerwehe","type":"Kreisangehörige_Gemeinde"},"district":{"key":"05358","name":"Düren","type":"Kreis"},"federalState":{"key":"05","name":"Nordrhein-Westfalen"}},{"name":"Mariahof","postalCode":"52379","locality":"Langerwehe","municipality":{"key":"05358032","name":"Langerwehe","type":"Kreisangehörige_Gemeinde"},"district":{"key":"05358","name":"Düren","type":"Kreis"},"federalState":{"key":"05","name":"Nordrhein-Westfalen"}},{"name":"Marienstr.","postalCode":"52379","locality":"Langerwehe","municipality":{"key":"05358032","name":"Langerwehe","type":"Kreisangehörige_Gemeinde"},"district":{"key":"05358","name":"Düren","type":"Kreis"},"federalState":{"key":"05","name":"Nordrhein-Westfalen"}},{"name":"Marienweg","postalCode":"52379","locality":"Langerwehe","municipality":{"key":"05358032","name":"Langerwehe","type":"Kreisangehörige_Gemeinde"},"district":{"key":"05358","name":"Düren","type":"Kreis"},"federalState":{"key":"05","name":"Nordrhein-Westfalen"}},{"name":"Martinstr.","postalCode":"52379","locality":"Langerwehe","municipality":{"key":"05358032","name":"Langerwehe","type":"Kreisangehörige_Gemeinde"},"district":{"key":"05358","name":"Düren","type":"Kreis"},"federalState":{"key":"05","name":"Nordrhein-Westfalen"}},{"name":"Martinusstr.","postalCode":"52379","locality":"Langerwehe","municipality":{"key":"05358032","name":"Langerwehe","type":"Kreisangehörige_Gemeinde"},"district":{"key":"05358","name":"Düren","type":"Kreis"},"federalState":{"key":"05","name":"Nordrhein-Westfalen"}},{"name":"Meierskamp","postalCode":"52379","locality":"Langerwehe","municipality":{"key":"05358032","name":"Langerwehe","type":"Kreisangehörige_Gemeinde"},"district":{"key":"05358","name":"Düren","type":"Kreis"},"federalState":{"key":"05","name":"Nordrhein-Westfalen"}},{"name":"Merbericher Weg","postalCode":"52379","locality":"Langerwehe","municipality":{"key":"05358032","name":"Langerwehe","type":"Kreisangehörige_Gemeinde"},"district":{"key":"05358","name":"Düren","type":"Kreis"},"federalState":{"key":"05","name":"Nordrhein-Westfalen"}},{"name":"Meroder Str.","postalCode":"52379","locality":"Langerwehe","municipality":{"key":"05358032","name":"Langerwehe","type":"Kreisangehörige_Gemeinde"},"district":{"key":"05358","name":"Düren","type":"Kreis"},"federalState":{"key":"05","name":"Nordrhein-Westfalen"}},{"name":"Mettlermühle","postalCode":"52379","locality":"Langerwehe","municipality":{"key":"05358032","name":"Langerwehe","type":"Kreisangehörige_Gemeinde"},"district":{"key":"05358","name":"Düren","type":"Kreis"},"federalState":{"key":"05","name":"Nordrhein-Westfalen"}},{"name":"Mittelstr.","postalCode":"52379","locality":"Langerwehe","municipality":{"key":"05358032","name":"Langerwehe","type":"Kreisangehörige_Gemeinde"},"district":{"key":"05358","name":"Düren","type":"Kreis"},"federalState":{"key":"05","name":"Nordrhein-Westfalen"}},{"name":"Mühlenweg","postalCode":"52379","locality":"Langerwehe","municipality":{"key":"05358032","name":"Langerwehe","type":"Kreisangehörige_Gemeinde"},"district":{"key":"05358","name":"Düren","type":"Kreis"},"federalState":{"key":"05","name":"Nordrhein-Westfalen"}},{"name":"Münsterstr.","postalCode":"52379","locality":"Langerwehe","municipality":{"key":"05358032","name":"Langerwehe","type":"Kreisangehörige_Gemeinde"},"district":{"key":"05358","name":"Düren","type":"Kreis"},"federalState":{"key":"05","name":"Nordrhein-Westfalen"}},{"name":"Neuer Weg","postalCode":"52379","locality":"Langerwehe","municipality":{"key":"05358032","name":"Langerwehe","type":"Kreisangehörige_Gemeinde"},"district":{"key":"05358","name":"Düren","type":"Kreis"},"federalState":{"key":"05","name":"Nordrhein-Westfalen"}},{"name":"Neustr.","postalCode":"52379","locality":"Langerwehe","municipality":{"key":"05358032","name":"Langerwehe","type":"Kreisangehörige_Gemeinde"},"district":{"key":"05358","name":"Düren","type":"Kreis"},"federalState":{"key":"05","name":"Nordrhein-Westfalen"}},{"name":"Nikolausberg","postalCode":"52379","locality":"Langerwehe","municipality":{"key":"05358032","name":"Langerwehe","type":"Kreisangehörige_Gemeinde"},"district":{"key":"05358","name":"Düren","type":"Kreis"},"federalState":{"key":"05","name":"Nordrhein-Westfalen"}},{"name":"Nothberger Weg","postalCode":"52379","locality":"Langerwehe","municipality":{"key":"05358032","name":"Langerwehe","type":"Kreisangehörige_Gemeinde"},"district":{"key":"05358","name":"Düren","type":"Kreis"},"federalState":{"key":"05","name":"Nordrhein-Westfalen"}},{"name":"Oligsdriesch","postalCode":"52379","locality":"Langerwehe","municipality":{"key":"05358032","name":"Langerwehe","type":"Kreisangehörige_Gemeinde"},"district":{"key":"05358","name":"Düren","type":"Kreis"},"federalState":{"key":"05","name":"Nordrhein-Westfalen"}},{"name":"Paradiesstr.","postalCode":"52379","locality":"Langerwehe","municipality":{"key":"05358032","name":"Langerwehe","type":"Kreisangehörige_Gemeinde"},"district":{"key":"05358","name":"Düren","type":"Kreis"},"federalState":{"key":"05","name":"Nordrhein-Westfalen"}},{"name":"Pastoratsweg","postalCode":"52379","locality":"Langerwehe","municipality":{"key":"05358032","name":"Langerwehe","type":"Kreisangehörige_Gemeinde"},"district":{"key":"05358","name":"Düren","type":"Kreis"},"federalState":{"key":"05","name":"Nordrhein-Westfalen"}},{"name":"Petershof","postalCode":"52379","locality":"Langerwehe","municipality":{"key":"05358032","name":"Langerwehe","type":"Kreisangehörige_Gemeinde"},"district":{"key":"05358","name":"Düren","type":"Kreis"},"federalState":{"key":"05","name":"Nordrhein-Westfalen"}},{"name":"Pfadsweg","postalCode":"52379","locality":"Langerwehe","municipality":{"key":"05358032","name":"Langerwehe","type":"Kreisangehörige_Gemeinde"},"district":{"key":"05358","name":"Düren","type":"Kreis"},"federalState":{"key":"05","name":"Nordrhein-Westfalen"}},{"name":"Pfarrer-Ossemann-Str.","postalCode":"52379","locality":"Langerwehe","municipality":{"key":"05358032","name":"Langerwehe","type":"Kreisangehörige_Gemeinde"},"district":{"key":"05358","name":"Düren","type":"Kreis"},"federalState":{"key":"05","name":"Nordrhein-Westfalen"}},{"name":"Pierer Str.","postalCode":"52379","locality":"Langerwehe","municipality":{"key":"05358032","name":"Langerwehe","type":"Kreisangehörige_Gemeinde"},"district":{"key":"05358","name":"Düren","type":"Kreis"},"federalState":{"key":"05","name":"Nordrhein-Westfalen"}},{"name":"Pochmühle","postalCode":"52379","locality":"Langerwehe","municipality":{"key":"05358032","name":"Langerwehe","type":"Kreisangehörige_Gemeinde"},"district":{"key":"05358","name":"Düren","type":"Kreis"},"federalState":{"key":"05","name":"Nordrhein-Westfalen"}},{"name":"Pochmühlenweg","postalCode":"52379","locality":"Langerwehe","municipality":{"key":"05358032","name":"Langerwehe","type":"Kreisangehörige_Gemeinde"},"district":{"key":"05358","name":"Düren","type":"Kreis"},"federalState":{"key":"05","name":"Nordrhein-Westfalen"}},{"name":"Pommenicher Str.","postalCode":"52379","locality":"Langerwehe","municipality":{"key":"05358032","name":"Langerwehe","type":"Kreisangehörige_Gemeinde"},"district":{"key":"05358","name":"Düren","type":"Kreis"},"federalState":{"key":"05","name":"Nordrhein-Westfalen"}},{"name":"Poststr.","postalCode":"52379","locality":"Langerwehe","municipality":{"key":"05358032","name":"Langerwehe","type":"Kreisangehörige_Gemeinde"},"district":{"key":"05358","name":"Düren","type":"Kreis"},"federalState":{"key":"05","name":"Nordrhein-Westfalen"}},{"name":"Prälat-Dr.-Selung-Str.","postalCode":"52379","locality":"Langerwehe","municipality":{"key":"05358032","name":"Langerwehe","type":"Kreisangehörige_Gemeinde"},"district":{"key":"05358","name":"Düren","type":"Kreis"},"federalState":{"key":"05","name":"Nordrhein-Westfalen"}},{"name":"Prof.-von-Capitaine-Str.","postalCode":"52379","locality":"Langerwehe","municipality":{"key":"05358032","name":"Langerwehe","type":"Kreisangehörige_Gemeinde"},"district":{"key":"05358","name":"Düren","type":"Kreis"},"federalState":{"key":"05","name":"Nordrhein-Westfalen"}},{"name":"Pützgasse","postalCode":"52379","locality":"Langerwehe","municipality":{"key":"05358032","name":"Langerwehe","type":"Kreisangehörige_Gemeinde"},"district":{"key":"05358","name":"Düren","type":"Kreis"},"federalState":{"key":"05","name":"Nordrhein-Westfalen"}},{"name":"Pützhecke","postalCode":"52379","locality":"Langerwehe","municipality":{"key":"05358032","name":"Langerwehe","type":"Kreisangehörige_Gemeinde"},"district":{"key":"05358","name":"Düren","type":"Kreis"},"federalState":{"key":"05","name":"Nordrhein-Westfalen"}},{"name":"Quirinusstr.","postalCode":"52353","locality":"Düren","municipality":{"key":"05358008","name":"Düren, Stadt","type":"Stadt"},"district":{"key":"05358","name":"Düren","type":"Kreis"},"federalState":{"key":"05","name":"Nordrhein-Westfalen"}},{"name":"Rektor-Niederau-Str.","postalCode":"52379","locality":"Langerwehe","municipality":{"key":"05358032","name":"Langerwehe","type":"Kreisangehörige_Gemeinde"},"district":{"key":"05358","name":"Düren","type":"Kreis"},"federalState":{"key":"05","name":"Nordrhein-Westfalen"}},{"name":"Ringstr.","postalCode":"52379","locality":"Langerwehe","municipality":{"key":"05358032","name":"Langerwehe","type":"Kreisangehörige_Gemeinde"},"district":{"key":"05358","name":"Düren","type":"Kreis"},"federalState":{"key":"05","name":"Nordrhein-Westfalen"}},{"name":"Römerweg","postalCode":"52379","locality":"Langerwehe","municipality":{"key":"05358032","name":"Langerwehe","type":"Kreisangehörige_Gemeinde"},"district":{"key":"05358","name":"Düren","type":"Kreis"},"federalState":{"key":"05","name":"Nordrhein-Westfalen"}},{"name":"Rymelsberg","postalCode":"52379","locality":"Langerwehe","municipality":{"key":"05358032","name":"Langerwehe","type":"Kreisangehörige_Gemeinde"},"district":{"key":"05358","name":"Düren","type":"Kreis"},"federalState":{"key":"05","name":"Nordrhein-Westfalen"}},{"name":"Schafenberg","postalCode":"52379","locality":"Langerwehe","municipality":{"key":"05358032","name":"Langerwehe","type":"Kreisangehörige_Gemeinde"},"district":{"key":"05358","name":"Düren","type":"Kreis"},"federalState":{"key":"05","name":"Nordrhein-Westfalen"}},{"name":"Scheeresgasse","postalCode":"52379","locality":"Langerwehe","municipality":{"key":"05358032","name":"Langerwehe","type":"Kreisangehörige_Gemeinde"},"district":{"key":"05358","name":"Düren","type":"Kreis"},"federalState":{"key":"05","name":"Nordrhein-Westfalen"}},{"name":"Schevenhüttener Str.","postalCode":"52379","locality":"Langerwehe","municipality":{"key":"05358032","name":"Langerwehe","type":"Kreisangehörige_Gemeinde"},"district":{"key":"05358","name":"Düren","type":"Kreis"},"federalState":{"key":"05","name":"Nordrhein-Westfalen"}},{"name":"Schießberggraben","postalCode":"52379","locality":"Langerwehe","municipality":{"key":"05358032","name":"Langerwehe","type":"Kreisangehörige_Gemeinde"},"district":{"key":"05358","name":"Düren","type":"Kreis"},"federalState":{"key":"05","name":"Nordrhein-Westfalen"}},{"name":"Schlosspark","postalCode":"52379","locality":"Langerwehe","municipality":{"key":"05358032","name":"Langerwehe","type":"Kreisangehörige_Gemeinde"},"district":{"key":"05358","name":"Düren","type":"Kreis"},"federalState":{"key":"05","name":"Nordrhein-Westfalen"}},{"name":"Schloßstr.","postalCode":"52379","locality":"Langerwehe","municipality":{"key":"05358032","name":"Langerwehe","type":"Kreisangehörige_Gemeinde"},"district":{"key":"05358","name":"Düren","type":"Kreis"},"federalState":{"key":"05","name":"Nordrhein-Westfalen"}},{"name":"Schmiedestr.","postalCode":"52379","locality":"Langerwehe","municipality":{"key":"05358032","name":"Langerwehe","type":"Kreisangehörige_Gemeinde"},"district":{"key":"05358","name":"Düren","type":"Kreis"},"federalState":{"key":"05","name":"Nordrhein-Westfalen"}},{"name":"Schönthal","postalCode":"52379","locality":"Langerwehe","municipality":{"key":"05358032","name":"Langerwehe","type":"Kreisangehörige_Gemeinde"},"district":{"key":"05358","name":"Düren","type":"Kreis"},"federalState":{"key":"05","name":"Nordrhein-Westfalen"}},{"name":"Schönthaler Str.","postalCode":"52379","locality":"Langerwehe","municipality":{"key":"05358032","name":"Langerwehe","type":"Kreisangehörige_Gemeinde"},"district":{"key":"05358","name":"Düren","type":"Kreis"},"federalState":{"key":"05","name":"Nordrhein-Westfalen"}},{"name":"Schulstr.","postalCode":"52379","locality":"Langerwehe","municipality":{"key":"05358032","name":"Langerwehe","type":"Kreisangehörige_Gemeinde"},"district":{"key":"05358","name":"Düren","type":"Kreis"},"federalState":{"key":"05","name":"Nordrhein-Westfalen"}},{"name":"Schützenstr.","postalCode":"52379","locality":"Langerwehe","municipality":{"key":"05358032","name":"Langerwehe","type":"Kreisangehörige_Gemeinde"},"district":{"key":"05358","name":"Düren","type":"Kreis"},"federalState":{"key":"05","name":"Nordrhein-Westfalen"}},{"name":"Seelebach","postalCode":"52379","locality":"Langerwehe","municipality":{"key":"05358032","name":"Langerwehe","type":"Kreisangehörige_Gemeinde"},"district":{"key":"05358","name":"Düren","type":"Kreis"},"federalState":{"key":"05","name":"Nordrhein-Westfalen"}},{"name":"Steinweg","postalCode":"52379","locality":"Langerwehe","municipality":{"key":"05358032","name":"Langerwehe","type":"Kreisangehörige_Gemeinde"},"district":{"key":"05358","name":"Düren","type":"Kreis"},"federalState":{"key":"05","name":"Nordrhein-Westfalen"}},{"name":"Stütgerhof","postalCode":"52379","locality":"Langerwehe","municipality":{"key":"05358032","name":"Langerwehe","type":"Kreisangehörige_Gemeinde"},"district":{"key":"05358","name":"Düren","type":"Kreis"},"federalState":{"key":"05","name":"Nordrhein-Westfalen"}},{"name":"Südstr.","postalCode":"52379","locality":"Langerwehe","municipality":{"key":"05358032","name":"Langerwehe","type":"Kreisangehörige_Gemeinde"},"district":{"key":"05358","name":"Düren","type":"Kreis"},"federalState":{"key":"05","name":"Nordrhein-Westfalen"}},{"name":"Talblick","postalCode":"52379","locality":"Langerwehe","municipality":{"key":"05358032","name":"Langerwehe","type":"Kreisangehörige_Gemeinde"},"district":{"key":"05358","name":"Düren","type":"Kreis"},"federalState":{"key":"05","name":"Nordrhein-Westfalen"}},{"name":"Ulhaus","postalCode":"52379","locality":"Langerwehe","municipality":{"key":"05358032","name":"Langerwehe","type":"Kreisangehörige_Gemeinde"},"district":{"key":"05358","name":"Düren","type":"Kreis"},"federalState":{"key":"05","name":"Nordrhein-Westfalen"}},{"name":"Ulhausgasse","postalCode":"52379","locality":"Langerwehe","municipality":{"key":"05358032","name":"Langerwehe","type":"Kreisangehörige_Gemeinde"},"district":{"key":"05358","name":"Düren","type":"Kreis"},"federalState":{"key":"05","name":"Nordrhein-Westfalen"}},{"name":"Verbindungsschneise","postalCode":"52379","locality":"Langerwehe","municipality":{"key":"05358032","name":"Langerwehe","type":"Kreisangehörige_Gemeinde"},"district":{"key":"05358","name":"Düren","type":"Kreis"},"federalState":{"key":"05","name":"Nordrhein-Westfalen"}},{"name":"Verdrögte Hau","postalCode":"52379","locality":"Langerwehe","municipality":{"key":"05358032","name":"Langerwehe","type":"Kreisangehörige_Gemeinde"},"district":{"key":"05358","name":"Düren","type":"Kreis"},"federalState":{"key":"05","name":"Nordrhein-Westfalen"}},{"name":"Vilvenicher Str.","postalCode":"52379","locality":"Langerwehe","municipality":{"key":"05358032","name":"Langerwehe","type":"Kreisangehörige_Gemeinde"},"district":{"key":"05358","name":"Düren","type":"Kreis"},"federalState":{"key":"05","name":"Nordrhein-Westfalen"}},{"name":"Waldstr.","postalCode":"52379","locality":"Langerwehe","municipality":{"key":"05358032","name":"Langerwehe","type":"Kreisangehörige_Gemeinde"},"district":{"key":"05358","name":"Düren","type":"Kreis"},"federalState":{"key":"05","name":"Nordrhein-Westfalen"}},{"name":"Wasserfeld","postalCode":"52379","locality":"Langerwehe","municipality":{"key":"05358032","name":"Langerwehe","type":"Kreisangehörige_Gemeinde"},"district":{"key":"05358","name":"Düren","type":"Kreis"},"federalState":{"key":"05","name":"Nordrhein-Westfalen"}},{"name":"Weberstr.","postalCode":"52379","locality":"Langerwehe","municipality":{"key":"05358032","name":"Langerwehe","type":"Kreisangehörige_Gemeinde"},"district":{"key":"05358","name":"Düren","type":"Kreis"},"federalState":{"key":"05","name":"Nordrhein-Westfalen"}},{"name":"Weisweilerstr.","postalCode":"52379","locality":"Langerwehe","municipality":{"key":"05358032","name":"Langerwehe","type":"Kreisangehörige_Gemeinde"},"district":{"key":"05358","name":"Düren","type":"Kreis"},"federalState":{"key":"05","name":"Nordrhein-Westfalen"}},{"name":"Wenau","postalCode":"52379","locality":"Langerwehe","municipality":{"key":"05358032","name":"Langerwehe","type":"Kreisangehörige_Gemeinde"},"district":{"key":"05358","name":"Düren","type":"Kreis"},"federalState":{"key":"05","name":"Nordrhein-Westfalen"}},{"name":"Wenauer Höfchen","postalCode":"52379","locality":"Langerwehe","municipality":{"key":"05358032","name":"Langerwehe","type":"Kreisangehörige_Gemeinde"},"district":{"key":"05358","name":"Düren","type":"Kreis"},"federalState":{"key":"05","name":"Nordrhein-Westfalen"}},{"name":"Wenauer Str.","postalCode":"52379","locality":"Langerwehe","municipality":{"key":"05358032","name":"Langerwehe","type":"Kreisangehörige_Gemeinde"},"district":{"key":"05358","name":"Düren","type":"Kreis"},"federalState":{"key":"05","name":"Nordrhein-Westfalen"}},{"name":"Westerloer Allee","postalCode":"52379","locality":"Langerwehe","municipality":{"key":"05358032","name":"Langerwehe","type":"Kreisangehörige_Gemeinde"},"district":{"key":"05358","name":"Düren","type":"Kreis"},"federalState":{"key":"05","name":"Nordrhein-Westfalen"}},{"name":"Wiesenstr.","postalCode":"52379","locality":"Langerwehe","municipality":{"key":"05358032","name":"Langerwehe","type":"Kreisangehörige_Gemeinde"},"district":{"key":"05358","name":"Düren","type":"Kreis"},"federalState":{"key":"05","name":"Nordrhein-Westfalen"}},{"name":"Wilhelmshof","postalCode":"52379","locality":"Langerwehe","municipality":{"key":"05358032","name":"Langerwehe","type":"Kreisangehörige_Gemeinde"},"district":{"key":"05358","name":"Düren","type":"Kreis"},"federalState":{"key":"05","name":"Nordrhein-Westfalen"}},{"name":"Yorckstr.","postalCode":"52351","locality":"Düren","municipality":{"key":"05358008","name":"Düren, Stadt","type":"Stadt"},"district":{"key":"05358","name":"Düren","type":"Kreis"},"federalState":{"key":"05","name":"Nordrhein-Westfalen"}},{"name":"Zehnthofweg","postalCode":"52379","locality":"Langerwehe","municipality":{"key":"05358032","name":"Langerwehe","type":"Kreisangehörige_Gemeinde"},"district":{"key":"05358","name":"Düren","type":"Kreis"},"federalState":{"key":"05","name":"Nordrhein-Westfalen"}},{"name":"Zum Goldesacker","postalCode":"52379","locality":"Langerwehe","municipality":{"key":"05358032","name":"Langerwehe","type":"Kreisangehörige_Gemeinde"},"district":{"key":"05358","name":"Düren","type":"Kreis"},"federalState":{"key":"05","name":"Nordrhein-Westfalen"}},{"name":"Zum Hahndorn","postalCode":"52379","locality":"Langerwehe","municipality":{"key":"05358032","name":"Langerwehe","type":"Kreisangehörige_Gemeinde"},"district":{"key":"05358","name":"Düren","type":"Kreis"},"federalState":{"key":"05","name":"Nordrhein-Westfalen"}},{"name":"Zum Knabbert","postalCode":"52379","locality":"Langerwehe","municipality":{"key":"05358032","name":"Langerwehe","type":"Kreisangehörige_Gemeinde"},"district":{"key":"05358","name":"Düren","type":"Kreis"},"federalState":{"key":"05","name":"Nordrhein-Westfalen"}},{"name":"Zum Laufenburgblick","postalCode":"52379","locality":"Langerwehe","municipality":{"key":"05358032","name":"Langerwehe","type":"Kreisangehörige_Gemeinde"},"district":{"key":"05358","name":"Düren","type":"Kreis"},"federalState":{"key":"05","name":"Nordrhein-Westfalen"}},{"name":"Zum Tannenwald","postalCode":"52379","locality":"Langerwehe","municipality":{"key":"05358032","name":"Langerwehe","type":"Kreisangehörige_Gemeinde"},"district":{"key":"05358","name":"Düren","type":"Kreis"},"federalState":{"key":"05","name":"Nordrhein-Westfalen"}},{"name":"Zur Kalkbahn","postalCode":"52379","locality":"Langerwehe","municipality":{"key":"05358032","name":"Langerwehe","type":"Kreisangehörige_Gemeinde"},"district":{"key":"05358","name":"Düren","type":"Kreis"},"federalState":{"key":"05","name":"Nordrhein-Westfalen"}},{"name":"Zur Löv","postalCode":"52379","locality":"Langerwehe","municipality":{"key":"05358032","name":"Langerwehe","type":"Kreisangehörige_Gemeinde"},"district":{"key":"05358","name":"Düren","type":"Kreis"},"federalState":{"key":"05","name":"Nordrhein-Westfalen"}},{"name":"Ölmühle","postalCode":"52379","locality":"Langerwehe","municipality":{"key":"05358032","name":"Langerwehe","type":"Kreisangehörige_Gemeinde"},"district":{"key":"05358","name":"Düren","type":"Kreis"},"federalState":{"key":"05","name":"Nordrhein-Westfalen"}},]