[{"name":"Bienengarten","postalCode":"56295","locality":"Kerben","municipality":{"key":"07137048","name":"Kerben","type":"Kreisangehörige_Gemeinde"},"district":{"key":"07137","name":"Mayen-Koblenz","type":"Landkreis"},"federalState":{"key":"07","name":"Rheinland-Pfalz"}},{"name":"Dammweg","postalCode":"56295","locality":"Kerben","municipality":{"key":"07137048","name":"Kerben","type":"Kreisangehörige_Gemeinde"},"district":{"key":"07137","name":"Mayen-Koblenz","type":"Landkreis"},"federalState":{"key":"07","name":"Rheinland-Pfalz"}},{"name":"Hauptstr.","postalCode":"56295","locality":"Kerben","municipality":{"key":"07137048","name":"Kerben","type":"Kreisangehörige_Gemeinde"},"district":{"key":"07137","name":"Mayen-Koblenz","type":"Landkreis"},"federalState":{"key":"07","name":"Rheinland-Pfalz"}},{"name":"Im Acker","postalCode":"56295","locality":"Kerben","municipality":{"key":"07137048","name":"Kerben","type":"Kreisangehörige_Gemeinde"},"district":{"key":"07137","name":"Mayen-Koblenz","type":"Landkreis"},"federalState":{"key":"07","name":"Rheinland-Pfalz"}},{"name":"Im Bienengarten","postalCode":"56295","locality":"Kerben","municipality":{"key":"07137048","name":"Kerben","type":"Kreisangehörige_Gemeinde"},"district":{"key":"07137","name":"Mayen-Koblenz","type":"Landkreis"},"federalState":{"key":"07","name":"Rheinland-Pfalz"}},{"name":"Im Schirbedein","postalCode":"56295","locality":"Kerben","municipality":{"key":"07137048","name":"Kerben","type":"Kreisangehörige_Gemeinde"},"district":{"key":"07137","name":"Mayen-Koblenz","type":"Landkreis"},"federalState":{"key":"07","name":"Rheinland-Pfalz"}},{"name":"In der Langmark","postalCode":"56295","locality":"Kerben","municipality":{"key":"07137048","name":"Kerben","type":"Kreisangehörige_Gemeinde"},"district":{"key":"07137","name":"Mayen-Koblenz","type":"Landkreis"},"federalState":{"key":"07","name":"Rheinland-Pfalz"}},{"name":"Kaaner Weg","postalCode":"56295","locality":"Kerben","municipality":{"key":"07137048","name":"Kerben","type":"Kreisangehörige_Gemeinde"},"district":{"key":"07137","name":"Mayen-Koblenz","type":"Landkreis"},"federalState":{"key":"07","name":"Rheinland-Pfalz"}},{"name":"Minkelfeld","postalCode":"56295","locality":"Kerben","municipality":{"key":"07137048","name":"Kerben","type":"Kreisangehörige_Gemeinde"},"district":{"key":"07137","name":"Mayen-Koblenz","type":"Landkreis"},"federalState":{"key":"07","name":"Rheinland-Pfalz"}},{"name":"ohne Namen","postalCode":"56295","locality":"Kerben","municipality":{"key":"07137048","name":"Kerben","type":"Kreisangehörige_Gemeinde"},"district":{"key":"07137","name":"Mayen-Koblenz","type":"Landkreis"},"federalState":{"key":"07","name":"Rheinland-Pfalz"}},{"name":"Rüberer Str.","postalCode":"56295","locality":"Kerben","municipality":{"key":"07137048","name":"Kerben","type":"Kreisangehörige_Gemeinde"},"district":{"key":"07137","name":"Mayen-Koblenz","type":"Landkreis"},"federalState":{"key":"07","name":"Rheinland-Pfalz"}},]