[{"name":"Am Alten Kanal","postalCode":"16269","locality":"Bliesdorf","municipality":{"key":"12064061","name":"Bliesdorf","type":"Kreisangehörige_Gemeinde"},"district":{"key":"12064","name":"Märkisch-Oderland","type":"Landkreis"},"federalState":{"key":"12","name":"Brandenburg"}},{"name":"Am Anger","postalCode":"16269","locality":"Bliesdorf","municipality":{"key":"12064061","name":"Bliesdorf","type":"Kreisangehörige_Gemeinde"},"district":{"key":"12064","name":"Märkisch-Oderland","type":"Landkreis"},"federalState":{"key":"12","name":"Brandenburg"}},{"name":"Am Gewerbepark","postalCode":"16269","locality":"Bliesdorf","municipality":{"key":"12064061","name":"Bliesdorf","type":"Kreisangehörige_Gemeinde"},"district":{"key":"12064","name":"Märkisch-Oderland","type":"Landkreis"},"federalState":{"key":"12","name":"Brandenburg"}},{"name":"Bergstr.","postalCode":"16269","locality":"Bliesdorf","municipality":{"key":"12064061","name":"Bliesdorf","type":"Kreisangehörige_Gemeinde"},"district":{"key":"12064","name":"Märkisch-Oderland","type":"Landkreis"},"federalState":{"key":"12","name":"Brandenburg"}},{"name":"Bliesdorfer Str.","postalCode":"16269","locality":"Bliesdorf","municipality":{"key":"12064061","name":"Bliesdorf","type":"Kreisangehörige_Gemeinde"},"district":{"key":"12064","name":"Märkisch-Oderland","type":"Landkreis"},"federalState":{"key":"12","name":"Brandenburg"}},{"name":"Dorfstr.","postalCode":"16269","locality":"Bliesdorf","municipality":{"key":"12064061","name":"Bliesdorf","type":"Kreisangehörige_Gemeinde"},"district":{"key":"12064","name":"Märkisch-Oderland","type":"Landkreis"},"federalState":{"key":"12","name":"Brandenburg"}},{"name":"Dornbuschstr.","postalCode":"16269","locality":"Bliesdorf","municipality":{"key":"12064061","name":"Bliesdorf","type":"Kreisangehörige_Gemeinde"},"district":{"key":"12064","name":"Märkisch-Oderland","type":"Landkreis"},"federalState":{"key":"12","name":"Brandenburg"}},{"name":"Feldweg","postalCode":"16269","locality":"Bliesdorf","municipality":{"key":"12064061","name":"Bliesdorf","type":"Kreisangehörige_Gemeinde"},"district":{"key":"12064","name":"Märkisch-Oderland","type":"Landkreis"},"federalState":{"key":"12","name":"Brandenburg"}},{"name":"Fliederweg","postalCode":"16269","locality":"Bliesdorf","municipality":{"key":"12064061","name":"Bliesdorf","type":"Kreisangehörige_Gemeinde"},"district":{"key":"12064","name":"Märkisch-Oderland","type":"Landkreis"},"federalState":{"key":"12","name":"Brandenburg"}},{"name":"Frankfurter Chaussee","postalCode":"16269","locality":"Bliesdorf","municipality":{"key":"12064061","name":"Bliesdorf","type":"Kreisangehörige_Gemeinde"},"district":{"key":"12064","name":"Märkisch-Oderland","type":"Landkreis"},"federalState":{"key":"12","name":"Brandenburg"}},{"name":"Hauptstr.","postalCode":"16269","locality":"Bliesdorf","municipality":{"key":"12064061","name":"Bliesdorf","type":"Kreisangehörige_Gemeinde"},"district":{"key":"12064","name":"Märkisch-Oderland","type":"Landkreis"},"federalState":{"key":"12","name":"Brandenburg"}},{"name":"Herrnhof","postalCode":"16269","locality":"Bliesdorf","municipality":{"key":"12064061","name":"Bliesdorf","type":"Kreisangehörige_Gemeinde"},"district":{"key":"12064","name":"Märkisch-Oderland","type":"Landkreis"},"federalState":{"key":"12","name":"Brandenburg"}},{"name":"Kastanienweg","postalCode":"16269","locality":"Bliesdorf","municipality":{"key":"12064061","name":"Bliesdorf","type":"Kreisangehörige_Gemeinde"},"district":{"key":"12064","name":"Märkisch-Oderland","type":"Landkreis"},"federalState":{"key":"12","name":"Brandenburg"}},{"name":"Katharinenhof","postalCode":"16269","locality":"Bliesdorf","municipality":{"key":"12064061","name":"Bliesdorf","type":"Kreisangehörige_Gemeinde"},"district":{"key":"12064","name":"Märkisch-Oderland","type":"Landkreis"},"federalState":{"key":"12","name":"Brandenburg"}},{"name":"Kunersdorfer Weg","postalCode":"16269","locality":"Bliesdorf","municipality":{"key":"12064061","name":"Bliesdorf","type":"Kreisangehörige_Gemeinde"},"district":{"key":"12064","name":"Märkisch-Oderland","type":"Landkreis"},"federalState":{"key":"12","name":"Brandenburg"}},{"name":"Lindenstr.","postalCode":"16269","locality":"Bliesdorf","municipality":{"key":"12064061","name":"Bliesdorf","type":"Kreisangehörige_Gemeinde"},"district":{"key":"12064","name":"Märkisch-Oderland","type":"Landkreis"},"federalState":{"key":"12","name":"Brandenburg"}},{"name":"Neudorf","postalCode":"16269","locality":"Bliesdorf","municipality":{"key":"12064061","name":"Bliesdorf","type":"Kreisangehörige_Gemeinde"},"district":{"key":"12064","name":"Märkisch-Oderland","type":"Landkreis"},"federalState":{"key":"12","name":"Brandenburg"}},{"name":"Ostermannweg","postalCode":"16269","locality":"Bliesdorf","municipality":{"key":"12064061","name":"Bliesdorf","type":"Kreisangehörige_Gemeinde"},"district":{"key":"12064","name":"Märkisch-Oderland","type":"Landkreis"},"federalState":{"key":"12","name":"Brandenburg"}},{"name":"Pappelweg","postalCode":"16269","locality":"Bliesdorf","municipality":{"key":"12064061","name":"Bliesdorf","type":"Kreisangehörige_Gemeinde"},"district":{"key":"12064","name":"Märkisch-Oderland","type":"Landkreis"},"federalState":{"key":"12","name":"Brandenburg"}},{"name":"Rotdornstr.","postalCode":"16269","locality":"Bliesdorf","municipality":{"key":"12064061","name":"Bliesdorf","type":"Kreisangehörige_Gemeinde"},"district":{"key":"12064","name":"Märkisch-Oderland","type":"Landkreis"},"federalState":{"key":"12","name":"Brandenburg"}},{"name":"Schlosspark","postalCode":"16269","locality":"Bliesdorf","municipality":{"key":"12064061","name":"Bliesdorf","type":"Kreisangehörige_Gemeinde"},"district":{"key":"12064","name":"Märkisch-Oderland","type":"Landkreis"},"federalState":{"key":"12","name":"Brandenburg"}},{"name":"Sophienhof","postalCode":"16269","locality":"Bliesdorf","municipality":{"key":"12064061","name":"Bliesdorf","type":"Kreisangehörige_Gemeinde"},"district":{"key":"12064","name":"Märkisch-Oderland","type":"Landkreis"},"federalState":{"key":"12","name":"Brandenburg"}},{"name":"Waldweg","postalCode":"16269","locality":"Bliesdorf","municipality":{"key":"12064061","name":"Bliesdorf","type":"Kreisangehörige_Gemeinde"},"district":{"key":"12064","name":"Märkisch-Oderland","type":"Landkreis"},"federalState":{"key":"12","name":"Brandenburg"}},{"name":"Weidenweg","postalCode":"16269","locality":"Bliesdorf","municipality":{"key":"12064061","name":"Bliesdorf","type":"Kreisangehörige_Gemeinde"},"district":{"key":"12064","name":"Märkisch-Oderland","type":"Landkreis"},"federalState":{"key":"12","name":"Brandenburg"}},]