[{"name":"Albansgasse","postalCode":"55294","locality":"Bodenheim","municipality":{"key":"07339006","name":"Bodenheim","type":"Kreisangehörige_Gemeinde"},"district":{"key":"07339","name":"Mainz-Bingen","type":"Landkreis"},"federalState":{"key":"07","name":"Rheinland-Pfalz"}},{"name":"Am Anger","postalCode":"55294","locality":"Bodenheim","municipality":{"key":"07339006","name":"Bodenheim","type":"Kreisangehörige_Gemeinde"},"district":{"key":"07339","name":"Mainz-Bingen","type":"Landkreis"},"federalState":{"key":"07","name":"Rheinland-Pfalz"}},{"name":"Am Guckenberg","postalCode":"55294","locality":"Bodenheim","municipality":{"key":"07339006","name":"Bodenheim","type":"Kreisangehörige_Gemeinde"},"district":{"key":"07339","name":"Mainz-Bingen","type":"Landkreis"},"federalState":{"key":"07","name":"Rheinland-Pfalz"}},{"name":"Am Kapellengraben","postalCode":"55294","locality":"Bodenheim","municipality":{"key":"07339006","name":"Bodenheim","type":"Kreisangehörige_Gemeinde"},"district":{"key":"07339","name":"Mainz-Bingen","type":"Landkreis"},"federalState":{"key":"07","name":"Rheinland-Pfalz"}},{"name":"Am Kuemmerling","postalCode":"55294","locality":"Bodenheim","municipality":{"key":"07339006","name":"Bodenheim","type":"Kreisangehörige_Gemeinde"},"district":{"key":"07339","name":"Mainz-Bingen","type":"Landkreis"},"federalState":{"key":"07","name":"Rheinland-Pfalz"}},{"name":"Am Reichsritterstift","postalCode":"55294","locality":"Bodenheim","municipality":{"key":"07339006","name":"Bodenheim","type":"Kreisangehörige_Gemeinde"},"district":{"key":"07339","name":"Mainz-Bingen","type":"Landkreis"},"federalState":{"key":"07","name":"Rheinland-Pfalz"}},{"name":"Am Schönborner Hof","postalCode":"55294","locality":"Bodenheim","municipality":{"key":"07339006","name":"Bodenheim","type":"Kreisangehörige_Gemeinde"},"district":{"key":"07339","name":"Mainz-Bingen","type":"Landkreis"},"federalState":{"key":"07","name":"Rheinland-Pfalz"}},{"name":"Am Sportfeld","postalCode":"55294","locality":"Bodenheim","municipality":{"key":"07339006","name":"Bodenheim","type":"Kreisangehörige_Gemeinde"},"district":{"key":"07339","name":"Mainz-Bingen","type":"Landkreis"},"federalState":{"key":"07","name":"Rheinland-Pfalz"}},{"name":"An den Weiden","postalCode":"55294","locality":"Bodenheim","municipality":{"key":"07339006","name":"Bodenheim","type":"Kreisangehörige_Gemeinde"},"district":{"key":"07339","name":"Mainz-Bingen","type":"Landkreis"},"federalState":{"key":"07","name":"Rheinland-Pfalz"}},{"name":"An der Reithalle","postalCode":"55294","locality":"Bodenheim","municipality":{"key":"07339006","name":"Bodenheim","type":"Kreisangehörige_Gemeinde"},"district":{"key":"07339","name":"Mainz-Bingen","type":"Landkreis"},"federalState":{"key":"07","name":"Rheinland-Pfalz"}},{"name":"Auf der Bayn","postalCode":"55294","locality":"Bodenheim","municipality":{"key":"07339006","name":"Bodenheim","type":"Kreisangehörige_Gemeinde"},"district":{"key":"07339","name":"Mainz-Bingen","type":"Landkreis"},"federalState":{"key":"07","name":"Rheinland-Pfalz"}},{"name":"Auf der Harle","postalCode":"55294","locality":"Bodenheim","municipality":{"key":"07339006","name":"Bodenheim","type":"Kreisangehörige_Gemeinde"},"district":{"key":"07339","name":"Mainz-Bingen","type":"Landkreis"},"federalState":{"key":"07","name":"Rheinland-Pfalz"}},{"name":"Bahnhofsplatz","postalCode":"55294","locality":"Bodenheim","municipality":{"key":"07339006","name":"Bodenheim","type":"Kreisangehörige_Gemeinde"},"district":{"key":"07339","name":"Mainz-Bingen","type":"Landkreis"},"federalState":{"key":"07","name":"Rheinland-Pfalz"}},{"name":"Bahnhofstr.","postalCode":"55294","locality":"Bodenheim","municipality":{"key":"07339006","name":"Bodenheim","type":"Kreisangehörige_Gemeinde"},"district":{"key":"07339","name":"Mainz-Bingen","type":"Landkreis"},"federalState":{"key":"07","name":"Rheinland-Pfalz"}},{"name":"Baynstr.","postalCode":"55294","locality":"Bodenheim","municipality":{"key":"07339006","name":"Bodenheim","type":"Kreisangehörige_Gemeinde"},"district":{"key":"07339","name":"Mainz-Bingen","type":"Landkreis"},"federalState":{"key":"07","name":"Rheinland-Pfalz"}},{"name":"Beethovenstr.","postalCode":"55294","locality":"Bodenheim","municipality":{"key":"07339006","name":"Bodenheim","type":"Kreisangehörige_Gemeinde"},"district":{"key":"07339","name":"Mainz-Bingen","type":"Landkreis"},"federalState":{"key":"07","name":"Rheinland-Pfalz"}},{"name":"Berliner Str.","postalCode":"55294","locality":"Bodenheim","municipality":{"key":"07339006","name":"Bodenheim","type":"Kreisangehörige_Gemeinde"},"district":{"key":"07339","name":"Mainz-Bingen","type":"Landkreis"},"federalState":{"key":"07","name":"Rheinland-Pfalz"}},{"name":"Brandenburgweg","postalCode":"55294","locality":"Bodenheim","municipality":{"key":"07339006","name":"Bodenheim","type":"Kreisangehörige_Gemeinde"},"district":{"key":"07339","name":"Mainz-Bingen","type":"Landkreis"},"federalState":{"key":"07","name":"Rheinland-Pfalz"}},{"name":"Burgweg","postalCode":"55294","locality":"Bodenheim","municipality":{"key":"07339006","name":"Bodenheim","type":"Kreisangehörige_Gemeinde"},"district":{"key":"07339","name":"Mainz-Bingen","type":"Landkreis"},"federalState":{"key":"07","name":"Rheinland-Pfalz"}},{"name":"Danziger Weg","postalCode":"55294","locality":"Bodenheim","municipality":{"key":"07339006","name":"Bodenheim","type":"Kreisangehörige_Gemeinde"},"district":{"key":"07339","name":"Mainz-Bingen","type":"Landkreis"},"federalState":{"key":"07","name":"Rheinland-Pfalz"}},{"name":"Dollespark","postalCode":"55294","locality":"Bodenheim","municipality":{"key":"07339006","name":"Bodenheim","type":"Kreisangehörige_Gemeinde"},"district":{"key":"07339","name":"Mainz-Bingen","type":"Landkreis"},"federalState":{"key":"07","name":"Rheinland-Pfalz"}},{"name":"Ebersheimer Weg","postalCode":"55294","locality":"Bodenheim","municipality":{"key":"07339006","name":"Bodenheim","type":"Kreisangehörige_Gemeinde"},"district":{"key":"07339","name":"Mainz-Bingen","type":"Landkreis"},"federalState":{"key":"07","name":"Rheinland-Pfalz"}},{"name":"Eduard-von-Heuß-Str.","postalCode":"55294","locality":"Bodenheim","municipality":{"key":"07339006","name":"Bodenheim","type":"Kreisangehörige_Gemeinde"},"district":{"key":"07339","name":"Mainz-Bingen","type":"Landkreis"},"federalState":{"key":"07","name":"Rheinland-Pfalz"}},{"name":"Eichweg","postalCode":"55294","locality":"Bodenheim","municipality":{"key":"07339006","name":"Bodenheim","type":"Kreisangehörige_Gemeinde"},"district":{"key":"07339","name":"Mainz-Bingen","type":"Landkreis"},"federalState":{"key":"07","name":"Rheinland-Pfalz"}},{"name":"Enggasse","postalCode":"55294","locality":"Bodenheim","municipality":{"key":"07339006","name":"Bodenheim","type":"Kreisangehörige_Gemeinde"},"district":{"key":"07339","name":"Mainz-Bingen","type":"Landkreis"},"federalState":{"key":"07","name":"Rheinland-Pfalz"}},{"name":"Ernst-Ludwig-Str.","postalCode":"55294","locality":"Bodenheim","municipality":{"key":"07339006","name":"Bodenheim","type":"Kreisangehörige_Gemeinde"},"district":{"key":"07339","name":"Mainz-Bingen","type":"Landkreis"},"federalState":{"key":"07","name":"Rheinland-Pfalz"}},{"name":"Fichtenweg","postalCode":"55294","locality":"Bodenheim","municipality":{"key":"07339006","name":"Bodenheim","type":"Kreisangehörige_Gemeinde"},"district":{"key":"07339","name":"Mainz-Bingen","type":"Landkreis"},"federalState":{"key":"07","name":"Rheinland-Pfalz"}},{"name":"Fliederweg","postalCode":"55294","locality":"Bodenheim","municipality":{"key":"07339006","name":"Bodenheim","type":"Kreisangehörige_Gemeinde"},"district":{"key":"07339","name":"Mainz-Bingen","type":"Landkreis"},"federalState":{"key":"07","name":"Rheinland-Pfalz"}},{"name":"Frankfurter Str.","postalCode":"55294","locality":"Bodenheim","municipality":{"key":"07339006","name":"Bodenheim","type":"Kreisangehörige_Gemeinde"},"district":{"key":"07339","name":"Mainz-Bingen","type":"Landkreis"},"federalState":{"key":"07","name":"Rheinland-Pfalz"}},{"name":"Gartenstr.","postalCode":"55294","locality":"Bodenheim","municipality":{"key":"07339006","name":"Bodenheim","type":"Kreisangehörige_Gemeinde"},"district":{"key":"07339","name":"Mainz-Bingen","type":"Landkreis"},"federalState":{"key":"07","name":"Rheinland-Pfalz"}},{"name":"Gaugäßchen","postalCode":"55294","locality":"Bodenheim","municipality":{"key":"07339006","name":"Bodenheim","type":"Kreisangehörige_Gemeinde"},"district":{"key":"07339","name":"Mainz-Bingen","type":"Landkreis"},"federalState":{"key":"07","name":"Rheinland-Pfalz"}},{"name":"Gaustr.","postalCode":"55294","locality":"Bodenheim","municipality":{"key":"07339006","name":"Bodenheim","type":"Kreisangehörige_Gemeinde"},"district":{"key":"07339","name":"Mainz-Bingen","type":"Landkreis"},"federalState":{"key":"07","name":"Rheinland-Pfalz"}},{"name":"Goethestr.","postalCode":"55294","locality":"Bodenheim","municipality":{"key":"07339006","name":"Bodenheim","type":"Kreisangehörige_Gemeinde"},"district":{"key":"07339","name":"Mainz-Bingen","type":"Landkreis"},"federalState":{"key":"07","name":"Rheinland-Pfalz"}},{"name":"Grabengasse (\"Sambagässje\")","postalCode":"55294","locality":"Bodenheim","municipality":{"key":"07339006","name":"Bodenheim","type":"Kreisangehörige_Gemeinde"},"district":{"key":"07339","name":"Mainz-Bingen","type":"Landkreis"},"federalState":{"key":"07","name":"Rheinland-Pfalz"}},{"name":"Grillplatz am St. Alban","postalCode":"55294","locality":"Bodenheim","municipality":{"key":"07339006","name":"Bodenheim","type":"Kreisangehörige_Gemeinde"},"district":{"key":"07339","name":"Mainz-Bingen","type":"Landkreis"},"federalState":{"key":"07","name":"Rheinland-Pfalz"}},{"name":"Gutenbergstr.","postalCode":"55294","locality":"Bodenheim","municipality":{"key":"07339006","name":"Bodenheim","type":"Kreisangehörige_Gemeinde"},"district":{"key":"07339","name":"Mainz-Bingen","type":"Landkreis"},"federalState":{"key":"07","name":"Rheinland-Pfalz"}},{"name":"Hellmerichstr.","postalCode":"55294","locality":"Bodenheim","municipality":{"key":"07339006","name":"Bodenheim","type":"Kreisangehörige_Gemeinde"},"district":{"key":"07339","name":"Mainz-Bingen","type":"Landkreis"},"federalState":{"key":"07","name":"Rheinland-Pfalz"}},{"name":"Hermann-Weber-Str.","postalCode":"55294","locality":"Bodenheim","municipality":{"key":"07339006","name":"Bodenheim","type":"Kreisangehörige_Gemeinde"},"district":{"key":"07339","name":"Mainz-Bingen","type":"Landkreis"},"federalState":{"key":"07","name":"Rheinland-Pfalz"}},{"name":"Hilgestr.","postalCode":"55294","locality":"Bodenheim","municipality":{"key":"07339006","name":"Bodenheim","type":"Kreisangehörige_Gemeinde"},"district":{"key":"07339","name":"Mainz-Bingen","type":"Landkreis"},"federalState":{"key":"07","name":"Rheinland-Pfalz"}},{"name":"Im Langreh","postalCode":"55294","locality":"Bodenheim","municipality":{"key":"07339006","name":"Bodenheim","type":"Kreisangehörige_Gemeinde"},"district":{"key":"07339","name":"Mainz-Bingen","type":"Landkreis"},"federalState":{"key":"07","name":"Rheinland-Pfalz"}},{"name":"Im Mittelweg","postalCode":"55294","locality":"Bodenheim","municipality":{"key":"07339006","name":"Bodenheim","type":"Kreisangehörige_Gemeinde"},"district":{"key":"07339","name":"Mainz-Bingen","type":"Landkreis"},"federalState":{"key":"07","name":"Rheinland-Pfalz"}},{"name":"Im Mörsch","postalCode":"55294","locality":"Bodenheim","municipality":{"key":"07339006","name":"Bodenheim","type":"Kreisangehörige_Gemeinde"},"district":{"key":"07339","name":"Mainz-Bingen","type":"Landkreis"},"federalState":{"key":"07","name":"Rheinland-Pfalz"}},{"name":"Im Walter","postalCode":"55294","locality":"Bodenheim","municipality":{"key":"07339006","name":"Bodenheim","type":"Kreisangehörige_Gemeinde"},"district":{"key":"07339","name":"Mainz-Bingen","type":"Landkreis"},"federalState":{"key":"07","name":"Rheinland-Pfalz"}},{"name":"Im Westrum","postalCode":"55294","locality":"Bodenheim","municipality":{"key":"07339006","name":"Bodenheim","type":"Kreisangehörige_Gemeinde"},"district":{"key":"07339","name":"Mainz-Bingen","type":"Landkreis"},"federalState":{"key":"07","name":"Rheinland-Pfalz"}},{"name":"In der Hüttstädt","postalCode":"55294","locality":"Bodenheim","municipality":{"key":"07339006","name":"Bodenheim","type":"Kreisangehörige_Gemeinde"},"district":{"key":"07339","name":"Mainz-Bingen","type":"Landkreis"},"federalState":{"key":"07","name":"Rheinland-Pfalz"}},{"name":"Jahnstr.","postalCode":"55294","locality":"Bodenheim","municipality":{"key":"07339006","name":"Bodenheim","type":"Kreisangehörige_Gemeinde"},"district":{"key":"07339","name":"Mainz-Bingen","type":"Landkreis"},"federalState":{"key":"07","name":"Rheinland-Pfalz"}},{"name":"Kanalgasse","postalCode":"55294","locality":"Bodenheim","municipality":{"key":"07339006","name":"Bodenheim","type":"Kreisangehörige_Gemeinde"},"district":{"key":"07339","name":"Mainz-Bingen","type":"Landkreis"},"federalState":{"key":"07","name":"Rheinland-Pfalz"}},{"name":"Kapellenstr.","postalCode":"55294","locality":"Bodenheim","municipality":{"key":"07339006","name":"Bodenheim","type":"Kreisangehörige_Gemeinde"},"district":{"key":"07339","name":"Mainz-Bingen","type":"Landkreis"},"federalState":{"key":"07","name":"Rheinland-Pfalz"}},{"name":"Karl-Winhart-Str.","postalCode":"55294","locality":"Bodenheim","municipality":{"key":"07339006","name":"Bodenheim","type":"Kreisangehörige_Gemeinde"},"district":{"key":"07339","name":"Mainz-Bingen","type":"Landkreis"},"federalState":{"key":"07","name":"Rheinland-Pfalz"}},{"name":"Kirchbergstr.","postalCode":"55294","locality":"Bodenheim","municipality":{"key":"07339006","name":"Bodenheim","type":"Kreisangehörige_Gemeinde"},"district":{"key":"07339","name":"Mainz-Bingen","type":"Landkreis"},"federalState":{"key":"07","name":"Rheinland-Pfalz"}},{"name":"Kirchsteig","postalCode":"55294","locality":"Bodenheim","municipality":{"key":"07339006","name":"Bodenheim","type":"Kreisangehörige_Gemeinde"},"district":{"key":"07339","name":"Mainz-Bingen","type":"Landkreis"},"federalState":{"key":"07","name":"Rheinland-Pfalz"}},{"name":"Klara-Mayer-Str.","postalCode":"55294","locality":"Bodenheim","municipality":{"key":"07339006","name":"Bodenheim","type":"Kreisangehörige_Gemeinde"},"district":{"key":"07339","name":"Mainz-Bingen","type":"Landkreis"},"federalState":{"key":"07","name":"Rheinland-Pfalz"}},{"name":"Kleine Bahnhofstr.","postalCode":"55294","locality":"Bodenheim","municipality":{"key":"07339006","name":"Bodenheim","type":"Kreisangehörige_Gemeinde"},"district":{"key":"07339","name":"Mainz-Bingen","type":"Landkreis"},"federalState":{"key":"07","name":"Rheinland-Pfalz"}},{"name":"Kleine Enggasse","postalCode":"55294","locality":"Bodenheim","municipality":{"key":"07339006","name":"Bodenheim","type":"Kreisangehörige_Gemeinde"},"district":{"key":"07339","name":"Mainz-Bingen","type":"Landkreis"},"federalState":{"key":"07","name":"Rheinland-Pfalz"}},{"name":"Langgasse","postalCode":"55294","locality":"Bodenheim","municipality":{"key":"07339006","name":"Bodenheim","type":"Kreisangehörige_Gemeinde"},"district":{"key":"07339","name":"Mainz-Bingen","type":"Landkreis"},"federalState":{"key":"07","name":"Rheinland-Pfalz"}},{"name":"Langwiese","postalCode":"55294","locality":"Bodenheim","municipality":{"key":"07339006","name":"Bodenheim","type":"Kreisangehörige_Gemeinde"},"district":{"key":"07339","name":"Mainz-Bingen","type":"Landkreis"},"federalState":{"key":"07","name":"Rheinland-Pfalz"}},{"name":"Laubenheimer Str.","postalCode":"55294","locality":"Bodenheim","municipality":{"key":"07339006","name":"Bodenheim","type":"Kreisangehörige_Gemeinde"},"district":{"key":"07339","name":"Mainz-Bingen","type":"Landkreis"},"federalState":{"key":"07","name":"Rheinland-Pfalz"}},{"name":"Leidheckenweg","postalCode":"55294","locality":"Bodenheim","municipality":{"key":"07339006","name":"Bodenheim","type":"Kreisangehörige_Gemeinde"},"district":{"key":"07339","name":"Mainz-Bingen","type":"Landkreis"},"federalState":{"key":"07","name":"Rheinland-Pfalz"}},{"name":"Leitgraben","postalCode":"55294","locality":"Bodenheim","municipality":{"key":"07339006","name":"Bodenheim","type":"Kreisangehörige_Gemeinde"},"district":{"key":"07339","name":"Mainz-Bingen","type":"Landkreis"},"federalState":{"key":"07","name":"Rheinland-Pfalz"}},{"name":"Liebrecht'scher Garten","postalCode":"55294","locality":"Bodenheim","municipality":{"key":"07339006","name":"Bodenheim","type":"Kreisangehörige_Gemeinde"},"district":{"key":"07339","name":"Mainz-Bingen","type":"Landkreis"},"federalState":{"key":"07","name":"Rheinland-Pfalz"}},{"name":"Lindenallee","postalCode":"55294","locality":"Bodenheim","municipality":{"key":"07339006","name":"Bodenheim","type":"Kreisangehörige_Gemeinde"},"district":{"key":"07339","name":"Mainz-Bingen","type":"Landkreis"},"federalState":{"key":"07","name":"Rheinland-Pfalz"}},{"name":"Lörzweiler Weg","postalCode":"55294","locality":"Bodenheim","municipality":{"key":"07339006","name":"Bodenheim","type":"Kreisangehörige_Gemeinde"},"district":{"key":"07339","name":"Mainz-Bingen","type":"Landkreis"},"federalState":{"key":"07","name":"Rheinland-Pfalz"}},{"name":"Mainzer-Pfort-Str.","postalCode":"55294","locality":"Bodenheim","municipality":{"key":"07339006","name":"Bodenheim","type":"Kreisangehörige_Gemeinde"},"district":{"key":"07339","name":"Mainz-Bingen","type":"Landkreis"},"federalState":{"key":"07","name":"Rheinland-Pfalz"}},{"name":"Mainzer Str.","postalCode":"55294","locality":"Bodenheim","municipality":{"key":"07339006","name":"Bodenheim","type":"Kreisangehörige_Gemeinde"},"district":{"key":"07339","name":"Mainz-Bingen","type":"Landkreis"},"federalState":{"key":"07","name":"Rheinland-Pfalz"}},{"name":"Maria-Oberndorf-Str.","postalCode":"55294","locality":"Bodenheim","municipality":{"key":"07339006","name":"Bodenheim","type":"Kreisangehörige_Gemeinde"},"district":{"key":"07339","name":"Mainz-Bingen","type":"Landkreis"},"federalState":{"key":"07","name":"Rheinland-Pfalz"}},{"name":"Martinstr.","postalCode":"55294","locality":"Bodenheim","municipality":{"key":"07339006","name":"Bodenheim","type":"Kreisangehörige_Gemeinde"},"district":{"key":"07339","name":"Mainz-Bingen","type":"Landkreis"},"federalState":{"key":"07","name":"Rheinland-Pfalz"}},{"name":"Mecklenburgweg","postalCode":"55294","locality":"Bodenheim","municipality":{"key":"07339006","name":"Bodenheim","type":"Kreisangehörige_Gemeinde"},"district":{"key":"07339","name":"Mainz-Bingen","type":"Landkreis"},"federalState":{"key":"07","name":"Rheinland-Pfalz"}},{"name":"Mozartstr.","postalCode":"55294","locality":"Bodenheim","municipality":{"key":"07339006","name":"Bodenheim","type":"Kreisangehörige_Gemeinde"},"district":{"key":"07339","name":"Mainz-Bingen","type":"Landkreis"},"federalState":{"key":"07","name":"Rheinland-Pfalz"}},{"name":"Mühlstr.","postalCode":"55294","locality":"Bodenheim","municipality":{"key":"07339006","name":"Bodenheim","type":"Kreisangehörige_Gemeinde"},"district":{"key":"07339","name":"Mainz-Bingen","type":"Landkreis"},"federalState":{"key":"07","name":"Rheinland-Pfalz"}},{"name":"Neckarstr.","postalCode":"55294","locality":"Bodenheim","municipality":{"key":"07339006","name":"Bodenheim","type":"Kreisangehörige_Gemeinde"},"district":{"key":"07339","name":"Mainz-Bingen","type":"Landkreis"},"federalState":{"key":"07","name":"Rheinland-Pfalz"}},{"name":"Neuberger Weg","postalCode":"55294","locality":"Bodenheim","municipality":{"key":"07339006","name":"Bodenheim","type":"Kreisangehörige_Gemeinde"},"district":{"key":"07339","name":"Mainz-Bingen","type":"Landkreis"},"federalState":{"key":"07","name":"Rheinland-Pfalz"}},{"name":"Neugäßchen","postalCode":"55294","locality":"Bodenheim","municipality":{"key":"07339006","name":"Bodenheim","type":"Kreisangehörige_Gemeinde"},"district":{"key":"07339","name":"Mainz-Bingen","type":"Landkreis"},"federalState":{"key":"07","name":"Rheinland-Pfalz"}},{"name":"Neugasse","postalCode":"55294","locality":"Bodenheim","municipality":{"key":"07339006","name":"Bodenheim","type":"Kreisangehörige_Gemeinde"},"district":{"key":"07339","name":"Mainz-Bingen","type":"Landkreis"},"federalState":{"key":"07","name":"Rheinland-Pfalz"}},{"name":"Obergäßchen","postalCode":"55294","locality":"Bodenheim","municipality":{"key":"07339006","name":"Bodenheim","type":"Kreisangehörige_Gemeinde"},"district":{"key":"07339","name":"Mainz-Bingen","type":"Landkreis"},"federalState":{"key":"07","name":"Rheinland-Pfalz"}},{"name":"Obergasse","postalCode":"55294","locality":"Bodenheim","municipality":{"key":"07339006","name":"Bodenheim","type":"Kreisangehörige_Gemeinde"},"district":{"key":"07339","name":"Mainz-Bingen","type":"Landkreis"},"federalState":{"key":"07","name":"Rheinland-Pfalz"}},{"name":"Ortsrandstr.","postalCode":"55294","locality":"Bodenheim","municipality":{"key":"07339006","name":"Bodenheim","type":"Kreisangehörige_Gemeinde"},"district":{"key":"07339","name":"Mainz-Bingen","type":"Landkreis"},"federalState":{"key":"07","name":"Rheinland-Pfalz"}},{"name":"Ostpreußenstr.","postalCode":"55294","locality":"Bodenheim","municipality":{"key":"07339006","name":"Bodenheim","type":"Kreisangehörige_Gemeinde"},"district":{"key":"07339","name":"Mainz-Bingen","type":"Landkreis"},"federalState":{"key":"07","name":"Rheinland-Pfalz"}},{"name":"Pfarrstr.","postalCode":"55294","locality":"Bodenheim","municipality":{"key":"07339006","name":"Bodenheim","type":"Kreisangehörige_Gemeinde"},"district":{"key":"07339","name":"Mainz-Bingen","type":"Landkreis"},"federalState":{"key":"07","name":"Rheinland-Pfalz"}},{"name":"Plattenhohl","postalCode":"55294","locality":"Bodenheim","municipality":{"key":"07339006","name":"Bodenheim","type":"Kreisangehörige_Gemeinde"},"district":{"key":"07339","name":"Mainz-Bingen","type":"Landkreis"},"federalState":{"key":"07","name":"Rheinland-Pfalz"}},{"name":"Pommernweg","postalCode":"55294","locality":"Bodenheim","municipality":{"key":"07339006","name":"Bodenheim","type":"Kreisangehörige_Gemeinde"},"district":{"key":"07339","name":"Mainz-Bingen","type":"Landkreis"},"federalState":{"key":"07","name":"Rheinland-Pfalz"}},{"name":"Potsdamer Str.","postalCode":"55294","locality":"Bodenheim","municipality":{"key":"07339006","name":"Bodenheim","type":"Kreisangehörige_Gemeinde"},"district":{"key":"07339","name":"Mainz-Bingen","type":"Landkreis"},"federalState":{"key":"07","name":"Rheinland-Pfalz"}},{"name":"Raiffeisenstr.","postalCode":"55294","locality":"Bodenheim","municipality":{"key":"07339006","name":"Bodenheim","type":"Kreisangehörige_Gemeinde"},"district":{"key":"07339","name":"Mainz-Bingen","type":"Landkreis"},"federalState":{"key":"07","name":"Rheinland-Pfalz"}},{"name":"Rantulfstr.","postalCode":"55294","locality":"Bodenheim","municipality":{"key":"07339006","name":"Bodenheim","type":"Kreisangehörige_Gemeinde"},"district":{"key":"07339","name":"Mainz-Bingen","type":"Landkreis"},"federalState":{"key":"07","name":"Rheinland-Pfalz"}},{"name":"Rathausstr.","postalCode":"55294","locality":"Bodenheim","municipality":{"key":"07339006","name":"Bodenheim","type":"Kreisangehörige_Gemeinde"},"district":{"key":"07339","name":"Mainz-Bingen","type":"Landkreis"},"federalState":{"key":"07","name":"Rheinland-Pfalz"}},{"name":"Rheinallee","postalCode":"55294","locality":"Bodenheim","municipality":{"key":"07339006","name":"Bodenheim","type":"Kreisangehörige_Gemeinde"},"district":{"key":"07339","name":"Mainz-Bingen","type":"Landkreis"},"federalState":{"key":"07","name":"Rheinland-Pfalz"}},{"name":"Rheinstr.","postalCode":"55294","locality":"Bodenheim","municipality":{"key":"07339006","name":"Bodenheim","type":"Kreisangehörige_Gemeinde"},"district":{"key":"07339","name":"Mainz-Bingen","type":"Landkreis"},"federalState":{"key":"07","name":"Rheinland-Pfalz"}},{"name":"Richard-Wagner-Str.","postalCode":"55294","locality":"Bodenheim","municipality":{"key":"07339006","name":"Bodenheim","type":"Kreisangehörige_Gemeinde"},"district":{"key":"07339","name":"Mainz-Bingen","type":"Landkreis"},"federalState":{"key":"07","name":"Rheinland-Pfalz"}},{"name":"Rolf-Balsam-Str.","postalCode":"55294","locality":"Bodenheim","municipality":{"key":"07339006","name":"Bodenheim","type":"Kreisangehörige_Gemeinde"},"district":{"key":"07339","name":"Mainz-Bingen","type":"Landkreis"},"federalState":{"key":"07","name":"Rheinland-Pfalz"}},{"name":"Rosenweg","postalCode":"55294","locality":"Bodenheim","municipality":{"key":"07339006","name":"Bodenheim","type":"Kreisangehörige_Gemeinde"},"district":{"key":"07339","name":"Mainz-Bingen","type":"Landkreis"},"federalState":{"key":"07","name":"Rheinland-Pfalz"}},{"name":"Rosetta-Vogt-Str.","postalCode":"55294","locality":"Bodenheim","municipality":{"key":"07339006","name":"Bodenheim","type":"Kreisangehörige_Gemeinde"},"district":{"key":"07339","name":"Mainz-Bingen","type":"Landkreis"},"federalState":{"key":"07","name":"Rheinland-Pfalz"}},{"name":"Rüsselsheimer Str.","postalCode":"55294","locality":"Bodenheim","municipality":{"key":"07339006","name":"Bodenheim","type":"Kreisangehörige_Gemeinde"},"district":{"key":"07339","name":"Mainz-Bingen","type":"Landkreis"},"federalState":{"key":"07","name":"Rheinland-Pfalz"}},{"name":"Sachsenstr.","postalCode":"55294","locality":"Bodenheim","municipality":{"key":"07339006","name":"Bodenheim","type":"Kreisangehörige_Gemeinde"},"district":{"key":"07339","name":"Mainz-Bingen","type":"Landkreis"},"federalState":{"key":"07","name":"Rheinland-Pfalz"}},{"name":"Sandweg","postalCode":"55294","locality":"Bodenheim","municipality":{"key":"07339006","name":"Bodenheim","type":"Kreisangehörige_Gemeinde"},"district":{"key":"07339","name":"Mainz-Bingen","type":"Landkreis"},"federalState":{"key":"07","name":"Rheinland-Pfalz"}},{"name":"Schillerstr.","postalCode":"55294","locality":"Bodenheim","municipality":{"key":"07339006","name":"Bodenheim","type":"Kreisangehörige_Gemeinde"},"district":{"key":"07339","name":"Mainz-Bingen","type":"Landkreis"},"federalState":{"key":"07","name":"Rheinland-Pfalz"}},{"name":"Schlesische Str.","postalCode":"55294","locality":"Bodenheim","municipality":{"key":"07339006","name":"Bodenheim","type":"Kreisangehörige_Gemeinde"},"district":{"key":"07339","name":"Mainz-Bingen","type":"Landkreis"},"federalState":{"key":"07","name":"Rheinland-Pfalz"}},{"name":"Schönbornplatz","postalCode":"55294","locality":"Bodenheim","municipality":{"key":"07339006","name":"Bodenheim","type":"Kreisangehörige_Gemeinde"},"district":{"key":"07339","name":"Mainz-Bingen","type":"Landkreis"},"federalState":{"key":"07","name":"Rheinland-Pfalz"}},{"name":"Schreiberweg","postalCode":"55294","locality":"Bodenheim","municipality":{"key":"07339006","name":"Bodenheim","type":"Kreisangehörige_Gemeinde"},"district":{"key":"07339","name":"Mainz-Bingen","type":"Landkreis"},"federalState":{"key":"07","name":"Rheinland-Pfalz"}},{"name":"Schubertstr.","postalCode":"55294","locality":"Bodenheim","municipality":{"key":"07339006","name":"Bodenheim","type":"Kreisangehörige_Gemeinde"},"district":{"key":"07339","name":"Mainz-Bingen","type":"Landkreis"},"federalState":{"key":"07","name":"Rheinland-Pfalz"}},{"name":"Schulgäßchen","postalCode":"55294","locality":"Bodenheim","municipality":{"key":"07339006","name":"Bodenheim","type":"Kreisangehörige_Gemeinde"},"district":{"key":"07339","name":"Mainz-Bingen","type":"Landkreis"},"federalState":{"key":"07","name":"Rheinland-Pfalz"}},{"name":"Schwester-Ariela-Str.","postalCode":"55294","locality":"Bodenheim","municipality":{"key":"07339006","name":"Bodenheim","type":"Kreisangehörige_Gemeinde"},"district":{"key":"07339","name":"Mainz-Bingen","type":"Landkreis"},"federalState":{"key":"07","name":"Rheinland-Pfalz"}},{"name":"Schwester-Goswina-Str.","postalCode":"55294","locality":"Bodenheim","municipality":{"key":"07339006","name":"Bodenheim","type":"Kreisangehörige_Gemeinde"},"district":{"key":"07339","name":"Mainz-Bingen","type":"Landkreis"},"federalState":{"key":"07","name":"Rheinland-Pfalz"}},{"name":"Setzerweg","postalCode":"55294","locality":"Bodenheim","municipality":{"key":"07339006","name":"Bodenheim","type":"Kreisangehörige_Gemeinde"},"district":{"key":"07339","name":"Mainz-Bingen","type":"Landkreis"},"federalState":{"key":"07","name":"Rheinland-Pfalz"}},{"name":"Seurreallee","postalCode":"55294","locality":"Bodenheim","municipality":{"key":"07339006","name":"Bodenheim","type":"Kreisangehörige_Gemeinde"},"district":{"key":"07339","name":"Mainz-Bingen","type":"Landkreis"},"federalState":{"key":"07","name":"Rheinland-Pfalz"}},{"name":"Spatzenmühle","postalCode":"55294","locality":"Bodenheim","municipality":{"key":"07339006","name":"Bodenheim","type":"Kreisangehörige_Gemeinde"},"district":{"key":"07339","name":"Mainz-Bingen","type":"Landkreis"},"federalState":{"key":"07","name":"Rheinland-Pfalz"}},{"name":"Steinstr.","postalCode":"55294","locality":"Bodenheim","municipality":{"key":"07339006","name":"Bodenheim","type":"Kreisangehörige_Gemeinde"},"district":{"key":"07339","name":"Mainz-Bingen","type":"Landkreis"},"federalState":{"key":"07","name":"Rheinland-Pfalz"}},{"name":"Tannenweg","postalCode":"55294","locality":"Bodenheim","municipality":{"key":"07339006","name":"Bodenheim","type":"Kreisangehörige_Gemeinde"},"district":{"key":"07339","name":"Mainz-Bingen","type":"Landkreis"},"federalState":{"key":"07","name":"Rheinland-Pfalz"}},{"name":"Thüringer Str.","postalCode":"55294","locality":"Bodenheim","municipality":{"key":"07339006","name":"Bodenheim","type":"Kreisangehörige_Gemeinde"},"district":{"key":"07339","name":"Mainz-Bingen","type":"Landkreis"},"federalState":{"key":"07","name":"Rheinland-Pfalz"}},{"name":"Untergäßchen","postalCode":"55294","locality":"Bodenheim","municipality":{"key":"07339006","name":"Bodenheim","type":"Kreisangehörige_Gemeinde"},"district":{"key":"07339","name":"Mainz-Bingen","type":"Landkreis"},"federalState":{"key":"07","name":"Rheinland-Pfalz"}},{"name":"Verbindungsweg","postalCode":"55294","locality":"Bodenheim","municipality":{"key":"07339006","name":"Bodenheim","type":"Kreisangehörige_Gemeinde"},"district":{"key":"07339","name":"Mainz-Bingen","type":"Landkreis"},"federalState":{"key":"07","name":"Rheinland-Pfalz"}},{"name":"Walterpfad","postalCode":"55294","locality":"Bodenheim","municipality":{"key":"07339006","name":"Bodenheim","type":"Kreisangehörige_Gemeinde"},"district":{"key":"07339","name":"Mainz-Bingen","type":"Landkreis"},"federalState":{"key":"07","name":"Rheinland-Pfalz"}},{"name":"Weinbergstr.","postalCode":"55294","locality":"Bodenheim","municipality":{"key":"07339006","name":"Bodenheim","type":"Kreisangehörige_Gemeinde"},"district":{"key":"07339","name":"Mainz-Bingen","type":"Landkreis"},"federalState":{"key":"07","name":"Rheinland-Pfalz"}},{"name":"Wormser Str.","postalCode":"55294","locality":"Bodenheim","municipality":{"key":"07339006","name":"Bodenheim","type":"Kreisangehörige_Gemeinde"},"district":{"key":"07339","name":"Mainz-Bingen","type":"Landkreis"},"federalState":{"key":"07","name":"Rheinland-Pfalz"}},{"name":"Zwerchgasse","postalCode":"55294","locality":"Bodenheim","municipality":{"key":"07339006","name":"Bodenheim","type":"Kreisangehörige_Gemeinde"},"district":{"key":"07339","name":"Mainz-Bingen","type":"Landkreis"},"federalState":{"key":"07","name":"Rheinland-Pfalz"}},{"name":"Ölmühlstr.","postalCode":"55294","locality":"Bodenheim","municipality":{"key":"07339006","name":"Bodenheim","type":"Kreisangehörige_Gemeinde"},"district":{"key":"07339","name":"Mainz-Bingen","type":"Landkreis"},"federalState":{"key":"07","name":"Rheinland-Pfalz"}},]