[{"name":"Am großen Busch","postalCode":"66504","locality":"Bottenbach","municipality":{"key":"07340205","name":"Bottenbach","type":"Kreisangehörige_Gemeinde"},"district":{"key":"07340","name":"Südwestpfalz","type":"Landkreis"},"federalState":{"key":"07","name":"Rheinland-Pfalz"}},{"name":"Am Schulland","postalCode":"66504","locality":"Bottenbach","municipality":{"key":"07340205","name":"Bottenbach","type":"Kreisangehörige_Gemeinde"},"district":{"key":"07340","name":"Südwestpfalz","type":"Landkreis"},"federalState":{"key":"07","name":"Rheinland-Pfalz"}},{"name":"Am Sportplatz","postalCode":"66504","locality":"Bottenbach","municipality":{"key":"07340205","name":"Bottenbach","type":"Kreisangehörige_Gemeinde"},"district":{"key":"07340","name":"Südwestpfalz","type":"Landkreis"},"federalState":{"key":"07","name":"Rheinland-Pfalz"}},{"name":"Am Windhof","postalCode":"66504","locality":"Bottenbach","municipality":{"key":"07340205","name":"Bottenbach","type":"Kreisangehörige_Gemeinde"},"district":{"key":"07340","name":"Südwestpfalz","type":"Landkreis"},"federalState":{"key":"07","name":"Rheinland-Pfalz"}},{"name":"An den Eichen","postalCode":"66504","locality":"Bottenbach","municipality":{"key":"07340205","name":"Bottenbach","type":"Kreisangehörige_Gemeinde"},"district":{"key":"07340","name":"Südwestpfalz","type":"Landkreis"},"federalState":{"key":"07","name":"Rheinland-Pfalz"}},{"name":"Bergstr.","postalCode":"66504","locality":"Bottenbach","municipality":{"key":"07340205","name":"Bottenbach","type":"Kreisangehörige_Gemeinde"},"district":{"key":"07340","name":"Südwestpfalz","type":"Landkreis"},"federalState":{"key":"07","name":"Rheinland-Pfalz"}},{"name":"Bogenstr.","postalCode":"66504","locality":"Bottenbach","municipality":{"key":"07340205","name":"Bottenbach","type":"Kreisangehörige_Gemeinde"},"district":{"key":"07340","name":"Südwestpfalz","type":"Landkreis"},"federalState":{"key":"07","name":"Rheinland-Pfalz"}},{"name":"Christiansgasse","postalCode":"66504","locality":"Bottenbach","municipality":{"key":"07340205","name":"Bottenbach","type":"Kreisangehörige_Gemeinde"},"district":{"key":"07340","name":"Südwestpfalz","type":"Landkreis"},"federalState":{"key":"07","name":"Rheinland-Pfalz"}},{"name":"Fliegenbuscher Weg","postalCode":"66504","locality":"Bottenbach","municipality":{"key":"07340205","name":"Bottenbach","type":"Kreisangehörige_Gemeinde"},"district":{"key":"07340","name":"Südwestpfalz","type":"Landkreis"},"federalState":{"key":"07","name":"Rheinland-Pfalz"}},{"name":"Friedhofstr.","postalCode":"66504","locality":"Bottenbach","municipality":{"key":"07340205","name":"Bottenbach","type":"Kreisangehörige_Gemeinde"},"district":{"key":"07340","name":"Südwestpfalz","type":"Landkreis"},"federalState":{"key":"07","name":"Rheinland-Pfalz"}},{"name":"Hanauer Str.","postalCode":"66504","locality":"Bottenbach","municipality":{"key":"07340205","name":"Bottenbach","type":"Kreisangehörige_Gemeinde"},"district":{"key":"07340","name":"Südwestpfalz","type":"Landkreis"},"federalState":{"key":"07","name":"Rheinland-Pfalz"}},{"name":"Harzbrunner Str.","postalCode":"66504","locality":"Bottenbach","municipality":{"key":"07340205","name":"Bottenbach","type":"Kreisangehörige_Gemeinde"},"district":{"key":"07340","name":"Südwestpfalz","type":"Landkreis"},"federalState":{"key":"07","name":"Rheinland-Pfalz"}},{"name":"Im Bösch","postalCode":"66504","locality":"Bottenbach","municipality":{"key":"07340205","name":"Bottenbach","type":"Kreisangehörige_Gemeinde"},"district":{"key":"07340","name":"Südwestpfalz","type":"Landkreis"},"federalState":{"key":"07","name":"Rheinland-Pfalz"}},{"name":"Jakobstr.","postalCode":"66504","locality":"Bottenbach","municipality":{"key":"07340205","name":"Bottenbach","type":"Kreisangehörige_Gemeinde"},"district":{"key":"07340","name":"Südwestpfalz","type":"Landkreis"},"federalState":{"key":"07","name":"Rheinland-Pfalz"}},{"name":"Kirchstr.","postalCode":"66504","locality":"Bottenbach","municipality":{"key":"07340205","name":"Bottenbach","type":"Kreisangehörige_Gemeinde"},"district":{"key":"07340","name":"Südwestpfalz","type":"Landkreis"},"federalState":{"key":"07","name":"Rheinland-Pfalz"}},{"name":"Mittelgasse","postalCode":"66504","locality":"Bottenbach","municipality":{"key":"07340205","name":"Bottenbach","type":"Kreisangehörige_Gemeinde"},"district":{"key":"07340","name":"Südwestpfalz","type":"Landkreis"},"federalState":{"key":"07","name":"Rheinland-Pfalz"}},{"name":"Pirmasenser Str.","postalCode":"66504","locality":"Bottenbach","municipality":{"key":"07340205","name":"Bottenbach","type":"Kreisangehörige_Gemeinde"},"district":{"key":"07340","name":"Südwestpfalz","type":"Landkreis"},"federalState":{"key":"07","name":"Rheinland-Pfalz"}},{"name":"Schulstr.","postalCode":"66504","locality":"Bottenbach","municipality":{"key":"07340205","name":"Bottenbach","type":"Kreisangehörige_Gemeinde"},"district":{"key":"07340","name":"Südwestpfalz","type":"Landkreis"},"federalState":{"key":"07","name":"Rheinland-Pfalz"}},{"name":"Steinhauser Str.","postalCode":"66504","locality":"Bottenbach","municipality":{"key":"07340205","name":"Bottenbach","type":"Kreisangehörige_Gemeinde"},"district":{"key":"07340","name":"Südwestpfalz","type":"Landkreis"},"federalState":{"key":"07","name":"Rheinland-Pfalz"}},{"name":"Turnstr.","postalCode":"66504","locality":"Bottenbach","municipality":{"key":"07340205","name":"Bottenbach","type":"Kreisangehörige_Gemeinde"},"district":{"key":"07340","name":"Südwestpfalz","type":"Landkreis"},"federalState":{"key":"07","name":"Rheinland-Pfalz"}},{"name":"Vinninger Str.","postalCode":"66504","locality":"Bottenbach","municipality":{"key":"07340205","name":"Bottenbach","type":"Kreisangehörige_Gemeinde"},"district":{"key":"07340","name":"Südwestpfalz","type":"Landkreis"},"federalState":{"key":"07","name":"Rheinland-Pfalz"}},{"name":"Waldstr.","postalCode":"66504","locality":"Bottenbach","municipality":{"key":"07340205","name":"Bottenbach","type":"Kreisangehörige_Gemeinde"},"district":{"key":"07340","name":"Südwestpfalz","type":"Landkreis"},"federalState":{"key":"07","name":"Rheinland-Pfalz"}},]