[{"name":"Ahornstr.","postalCode":"86850","locality":"Fischach","municipality":{"key":"09772141","name":"Fischach, M","type":"Markt"},"district":{"key":"09772","name":"Augsburg","type":"Landkreis"},"federalState":{"key":"09","name":"Bayern"}},{"name":"Alfred-Renelt-Weg","postalCode":"86850","locality":"Fischach","municipality":{"key":"09772141","name":"Fischach, M","type":"Markt"},"district":{"key":"09772","name":"Augsburg","type":"Landkreis"},"federalState":{"key":"09","name":"Bayern"}},{"name":"Am Ährenfeld","postalCode":"86850","locality":"Fischach","municipality":{"key":"09772141","name":"Fischach, M","type":"Markt"},"district":{"key":"09772","name":"Augsburg","type":"Landkreis"},"federalState":{"key":"09","name":"Bayern"}},{"name":"Am Fichtenring","postalCode":"86850","locality":"Fischach","municipality":{"key":"09772141","name":"Fischach, M","type":"Markt"},"district":{"key":"09772","name":"Augsburg","type":"Landkreis"},"federalState":{"key":"09","name":"Bayern"}},{"name":"Am Judenhof","postalCode":"86850","locality":"Fischach","municipality":{"key":"09772141","name":"Fischach, M","type":"Markt"},"district":{"key":"09772","name":"Augsburg","type":"Landkreis"},"federalState":{"key":"09","name":"Bayern"}},{"name":"Am jüdischen Friedhof","postalCode":"86850","locality":"Fischach","municipality":{"key":"09772141","name":"Fischach, M","type":"Markt"},"district":{"key":"09772","name":"Augsburg","type":"Landkreis"},"federalState":{"key":"09","name":"Bayern"}},{"name":"Am Jüdischen Friedhof","postalCode":"86850","locality":"Fischach","municipality":{"key":"09772141","name":"Fischach, M","type":"Markt"},"district":{"key":"09772","name":"Augsburg","type":"Landkreis"},"federalState":{"key":"09","name":"Bayern"}},{"name":"Am Kornfeld","postalCode":"86850","locality":"Fischach","municipality":{"key":"09772141","name":"Fischach, M","type":"Markt"},"district":{"key":"09772","name":"Augsburg","type":"Landkreis"},"federalState":{"key":"09","name":"Bayern"}},{"name":"Am Lohfeld","postalCode":"86850","locality":"Fischach","municipality":{"key":"09772141","name":"Fischach, M","type":"Markt"},"district":{"key":"09772","name":"Augsburg","type":"Landkreis"},"federalState":{"key":"09","name":"Bayern"}},{"name":"Am Maierwiesle","postalCode":"86850","locality":"Fischach","municipality":{"key":"09772141","name":"Fischach, M","type":"Markt"},"district":{"key":"09772","name":"Augsburg","type":"Landkreis"},"federalState":{"key":"09","name":"Bayern"}},{"name":"Am Mehlanger","postalCode":"86850","locality":"Fischach","municipality":{"key":"09772141","name":"Fischach, M","type":"Markt"},"district":{"key":"09772","name":"Augsburg","type":"Landkreis"},"federalState":{"key":"09","name":"Bayern"}},{"name":"Amselweg","postalCode":"86850","locality":"Fischach","municipality":{"key":"09772141","name":"Fischach, M","type":"Markt"},"district":{"key":"09772","name":"Augsburg","type":"Landkreis"},"federalState":{"key":"09","name":"Bayern"}},{"name":"Am Sonnenbichl","postalCode":"86850","locality":"Fischach","municipality":{"key":"09772141","name":"Fischach, M","type":"Markt"},"district":{"key":"09772","name":"Augsburg","type":"Landkreis"},"federalState":{"key":"09","name":"Bayern"}},{"name":"Am Steingrüble","postalCode":"86850","locality":"Fischach","municipality":{"key":"09772141","name":"Fischach, M","type":"Markt"},"district":{"key":"09772","name":"Augsburg","type":"Landkreis"},"federalState":{"key":"09","name":"Bayern"}},{"name":"Am Ziegelmahd","postalCode":"86850","locality":"Fischach","municipality":{"key":"09772141","name":"Fischach, M","type":"Markt"},"district":{"key":"09772","name":"Augsburg","type":"Landkreis"},"federalState":{"key":"09","name":"Bayern"}},{"name":"An der Sägemühle","postalCode":"86850","locality":"Fischach","municipality":{"key":"09772141","name":"Fischach, M","type":"Markt"},"district":{"key":"09772","name":"Augsburg","type":"Landkreis"},"federalState":{"key":"09","name":"Bayern"}},{"name":"An der Schlau","postalCode":"86850","locality":"Fischach","municipality":{"key":"09772141","name":"Fischach, M","type":"Markt"},"district":{"key":"09772","name":"Augsburg","type":"Landkreis"},"federalState":{"key":"09","name":"Bayern"}},{"name":"Anwandstr.","postalCode":"86850","locality":"Fischach","municipality":{"key":"09772141","name":"Fischach, M","type":"Markt"},"district":{"key":"09772","name":"Augsburg","type":"Landkreis"},"federalState":{"key":"09","name":"Bayern"}},{"name":"Arnoldstr.","postalCode":"86850","locality":"Fischach","municipality":{"key":"09772141","name":"Fischach, M","type":"Markt"},"district":{"key":"09772","name":"Augsburg","type":"Landkreis"},"federalState":{"key":"09","name":"Bayern"}},{"name":"Augsburger Str.","postalCode":"86850","locality":"Fischach","municipality":{"key":"09772141","name":"Fischach, M","type":"Markt"},"district":{"key":"09772","name":"Augsburg","type":"Landkreis"},"federalState":{"key":"09","name":"Bayern"}},{"name":"Austr.","postalCode":"86850","locality":"Fischach","municipality":{"key":"09772141","name":"Fischach, M","type":"Markt"},"district":{"key":"09772","name":"Augsburg","type":"Landkreis"},"federalState":{"key":"09","name":"Bayern"}},{"name":"Bachgasse","postalCode":"86850","locality":"Fischach","municipality":{"key":"09772141","name":"Fischach, M","type":"Markt"},"district":{"key":"09772","name":"Augsburg","type":"Landkreis"},"federalState":{"key":"09","name":"Bayern"}},{"name":"Bahnhofstr.","postalCode":"86850","locality":"Fischach","municipality":{"key":"09772141","name":"Fischach, M","type":"Markt"},"district":{"key":"09772","name":"Augsburg","type":"Landkreis"},"federalState":{"key":"09","name":"Bayern"}},{"name":"Bauernstr.","postalCode":"86850","locality":"Fischach","municipality":{"key":"09772141","name":"Fischach, M","type":"Markt"},"district":{"key":"09772","name":"Augsburg","type":"Landkreis"},"federalState":{"key":"09","name":"Bayern"}},{"name":"Bei St. Leonhard","postalCode":"86850","locality":"Fischach","municipality":{"key":"09772141","name":"Fischach, M","type":"Markt"},"district":{"key":"09772","name":"Augsburg","type":"Landkreis"},"federalState":{"key":"09","name":"Bayern"}},{"name":"Bergäcker","postalCode":"86850","locality":"Fischach","municipality":{"key":"09772141","name":"Fischach, M","type":"Markt"},"district":{"key":"09772","name":"Augsburg","type":"Landkreis"},"federalState":{"key":"09","name":"Bayern"}},{"name":"Bergstr.","postalCode":"86850","locality":"Fischach","municipality":{"key":"09772141","name":"Fischach, M","type":"Markt"},"district":{"key":"09772","name":"Augsburg","type":"Landkreis"},"federalState":{"key":"09","name":"Bayern"}},{"name":"Birkenallee","postalCode":"86850","locality":"Fischach","municipality":{"key":"09772141","name":"Fischach, M","type":"Markt"},"district":{"key":"09772","name":"Augsburg","type":"Landkreis"},"federalState":{"key":"09","name":"Bayern"}},{"name":"Birkenweg","postalCode":"86850","locality":"Fischach","municipality":{"key":"09772141","name":"Fischach, M","type":"Markt"},"district":{"key":"09772","name":"Augsburg","type":"Landkreis"},"federalState":{"key":"09","name":"Bayern"}},{"name":"Blumenstr.","postalCode":"86850","locality":"Fischach","municipality":{"key":"09772141","name":"Fischach, M","type":"Markt"},"district":{"key":"09772","name":"Augsburg","type":"Landkreis"},"federalState":{"key":"09","name":"Bayern"}},{"name":"Brandstr.","postalCode":"86850","locality":"Fischach","municipality":{"key":"09772141","name":"Fischach, M","type":"Markt"},"district":{"key":"09772","name":"Augsburg","type":"Landkreis"},"federalState":{"key":"09","name":"Bayern"}},{"name":"Buchenweg","postalCode":"86850","locality":"Fischach","municipality":{"key":"09772141","name":"Fischach, M","type":"Markt"},"district":{"key":"09772","name":"Augsburg","type":"Landkreis"},"federalState":{"key":"09","name":"Bayern"}},{"name":"Bürgermeister-Bader-Weg","postalCode":"86850","locality":"Fischach","municipality":{"key":"09772141","name":"Fischach, M","type":"Markt"},"district":{"key":"09772","name":"Augsburg","type":"Landkreis"},"federalState":{"key":"09","name":"Bayern"}},{"name":"Bürgermeister-Haisch-Str.","postalCode":"86850","locality":"Fischach","municipality":{"key":"09772141","name":"Fischach, M","type":"Markt"},"district":{"key":"09772","name":"Augsburg","type":"Landkreis"},"federalState":{"key":"09","name":"Bayern"}},{"name":"Buschelbergstr.","postalCode":"86850","locality":"Fischach","municipality":{"key":"09772141","name":"Fischach, M","type":"Markt"},"district":{"key":"09772","name":"Augsburg","type":"Landkreis"},"federalState":{"key":"09","name":"Bayern"}},{"name":"Calmbergstr.","postalCode":"86159","locality":"Augsburg","municipality":{"key":"09761000","name":"Augsburg","type":"Kreisfreie_Stadt"},"district":{"key":"09761","name":"Augsburg","type":"Kreisfreie_Stadt"},"federalState":{"key":"09","name":"Bayern"}},{"name":"Canisiusstr.","postalCode":"86159","locality":"Augsburg","municipality":{"key":"09761000","name":"Augsburg","type":"Kreisfreie_Stadt"},"district":{"key":"09761","name":"Augsburg","type":"Kreisfreie_Stadt"},"federalState":{"key":"09","name":"Bayern"}},{"name":"Caritasweg","postalCode":"86153","locality":"Augsburg","municipality":{"key":"09761000","name":"Augsburg","type":"Kreisfreie_Stadt"},"district":{"key":"09761","name":"Augsburg","type":"Kreisfreie_Stadt"},"federalState":{"key":"09","name":"Bayern"}},{"name":"Carl-Hüber-Str.","postalCode":"86179","locality":"Augsburg","municipality":{"key":"09761000","name":"Augsburg","type":"Kreisfreie_Stadt"},"district":{"key":"09761","name":"Augsburg","type":"Kreisfreie_Stadt"},"federalState":{"key":"09","name":"Bayern"}},{"name":"Carl-Loewe-Str.","postalCode":"86157","locality":"Augsburg","municipality":{"key":"09761000","name":"Augsburg","type":"Kreisfreie_Stadt"},"district":{"key":"09761","name":"Augsburg","type":"Kreisfreie_Stadt"},"federalState":{"key":"09","name":"Bayern"}},{"name":"Carl-Maria-von-Weber-Str.","postalCode":"86157","locality":"Augsburg","municipality":{"key":"09761000","name":"Augsburg","type":"Kreisfreie_Stadt"},"district":{"key":"09761","name":"Augsburg","type":"Kreisfreie_Stadt"},"federalState":{"key":"09","name":"Bayern"}},{"name":"Carl-Natterer-Str.","postalCode":"86169","locality":"Augsburg","municipality":{"key":"09761000","name":"Augsburg","type":"Kreisfreie_Stadt"},"district":{"key":"09761","name":"Augsburg","type":"Kreisfreie_Stadt"},"federalState":{"key":"09","name":"Bayern"}},{"name":"Carl-Schurz-Str.","postalCode":"86156","locality":"Augsburg","municipality":{"key":"09761000","name":"Augsburg","type":"Kreisfreie_Stadt"},"district":{"key":"09761","name":"Augsburg","type":"Kreisfreie_Stadt"},"federalState":{"key":"09","name":"Bayern"}},{"name":"Carl-Zeiss-Str.","postalCode":"86199","locality":"Augsburg","municipality":{"key":"09761000","name":"Augsburg","type":"Kreisfreie_Stadt"},"district":{"key":"09761","name":"Augsburg","type":"Kreisfreie_Stadt"},"federalState":{"key":"09","name":"Bayern"}},{"name":"Carron-du-Val-Str.","postalCode":"86161","locality":"Augsburg","municipality":{"key":"09761000","name":"Augsburg","type":"Kreisfreie_Stadt"},"district":{"key":"09761","name":"Augsburg","type":"Kreisfreie_Stadt"},"federalState":{"key":"09","name":"Bayern"}},{"name":"Chemnitzer Str.","postalCode":"86157","locality":"Augsburg","municipality":{"key":"09761000","name":"Augsburg","type":"Kreisfreie_Stadt"},"district":{"key":"09761","name":"Augsburg","type":"Kreisfreie_Stadt"},"federalState":{"key":"09","name":"Bayern"}},{"name":"Chippenham-Ring","postalCode":"86316","locality":"Augsburg","municipality":{"key":"09761000","name":"Augsburg","type":"Kreisfreie_Stadt"},"district":{"key":"09761","name":"Augsburg","type":"Kreisfreie_Stadt"},"federalState":{"key":"09","name":"Bayern"}},{"name":"Christian Dierig Park","postalCode":"86157","locality":"Augsburg","municipality":{"key":"09761000","name":"Augsburg","type":"Kreisfreie_Stadt"},"district":{"key":"09761","name":"Augsburg","type":"Kreisfreie_Stadt"},"federalState":{"key":"09","name":"Bayern"}},{"name":"Christian-Dierig-Str.","postalCode":"86157","locality":"Augsburg","municipality":{"key":"09761000","name":"Augsburg","type":"Kreisfreie_Stadt"},"district":{"key":"09761","name":"Augsburg","type":"Kreisfreie_Stadt"},"federalState":{"key":"09","name":"Bayern"}},{"name":"Christleseeweg","postalCode":"86163","locality":"Augsburg","municipality":{"key":"09761000","name":"Augsburg","type":"Kreisfreie_Stadt"},"district":{"key":"09761","name":"Augsburg","type":"Kreisfreie_Stadt"},"federalState":{"key":"09","name":"Bayern"}},{"name":"Christoph-von-Schmid-Str.","postalCode":"86159","locality":"Augsburg","municipality":{"key":"09761000","name":"Augsburg","type":"Kreisfreie_Stadt"},"district":{"key":"09761","name":"Augsburg","type":"Kreisfreie_Stadt"},"federalState":{"key":"09","name":"Bayern"}},{"name":"Clara-Hätzler-Str.","postalCode":"86161","locality":"Augsburg","municipality":{"key":"09761000","name":"Augsburg","type":"Kreisfreie_Stadt"},"district":{"key":"09761","name":"Augsburg","type":"Kreisfreie_Stadt"},"federalState":{"key":"09","name":"Bayern"}},{"name":"Clara-Tott-Str.","postalCode":"86156","locality":"Augsburg","municipality":{"key":"09761000","name":"Augsburg","type":"Kreisfreie_Stadt"},"district":{"key":"09761","name":"Augsburg","type":"Kreisfreie_Stadt"},"federalState":{"key":"09","name":"Bayern"}},{"name":"Clematisweg","postalCode":"86169","locality":"Augsburg","municipality":{"key":"09761000","name":"Augsburg","type":"Kreisfreie_Stadt"},"district":{"key":"09761","name":"Augsburg","type":"Kreisfreie_Stadt"},"federalState":{"key":"09","name":"Bayern"}},{"name":"Clementine-Heymann-Str.","postalCode":"86169","locality":"Augsburg","municipality":{"key":"09761000","name":"Augsburg","type":"Kreisfreie_Stadt"},"district":{"key":"09761","name":"Augsburg","type":"Kreisfreie_Stadt"},"federalState":{"key":"09","name":"Bayern"}},{"name":"Columbusstr.","postalCode":"86156","locality":"Augsburg","municipality":{"key":"09761000","name":"Augsburg","type":"Kreisfreie_Stadt"},"district":{"key":"09761","name":"Augsburg","type":"Kreisfreie_Stadt"},"federalState":{"key":"09","name":"Bayern"}},{"name":"Cranachstr.","postalCode":"86169","locality":"Augsburg","municipality":{"key":"09761000","name":"Augsburg","type":"Kreisfreie_Stadt"},"district":{"key":"09761","name":"Augsburg","type":"Kreisfreie_Stadt"},"federalState":{"key":"09","name":"Bayern"}},{"name":"Curt-Frenzel-Str.","postalCode":"86167","locality":"Augsburg","municipality":{"key":"09761000","name":"Augsburg","type":"Kreisfreie_Stadt"},"district":{"key":"09761","name":"Augsburg","type":"Kreisfreie_Stadt"},"federalState":{"key":"09","name":"Bayern"}},{"name":"Curtiusstr.","postalCode":"86165","locality":"Augsburg","municipality":{"key":"09761000","name":"Augsburg","type":"Kreisfreie_Stadt"},"district":{"key":"09761","name":"Augsburg","type":"Kreisfreie_Stadt"},"federalState":{"key":"09","name":"Bayern"}},{"name":"Dorfstr.","postalCode":"86850","locality":"Fischach","municipality":{"key":"09772141","name":"Fischach, M","type":"Markt"},"district":{"key":"09772","name":"Augsburg","type":"Landkreis"},"federalState":{"key":"09","name":"Bayern"}},{"name":"Drosselweg","postalCode":"86850","locality":"Fischach","municipality":{"key":"09772141","name":"Fischach, M","type":"Markt"},"district":{"key":"09772","name":"Augsburg","type":"Landkreis"},"federalState":{"key":"09","name":"Bayern"}},{"name":"Eichenweg","postalCode":"86850","locality":"Fischach","municipality":{"key":"09772141","name":"Fischach, M","type":"Markt"},"district":{"key":"09772","name":"Augsburg","type":"Landkreis"},"federalState":{"key":"09","name":"Bayern"}},{"name":"Elmischwang","postalCode":"86850","locality":"Fischach","municipality":{"key":"09772141","name":"Fischach, M","type":"Markt"},"district":{"key":"09772","name":"Augsburg","type":"Landkreis"},"federalState":{"key":"09","name":"Bayern"}},{"name":"Erkstr.","postalCode":"86850","locality":"Fischach","municipality":{"key":"09772141","name":"Fischach, M","type":"Markt"},"district":{"key":"09772","name":"Augsburg","type":"Landkreis"},"federalState":{"key":"09","name":"Bayern"}},{"name":"Erlenstr.","postalCode":"86850","locality":"Fischach","municipality":{"key":"09772141","name":"Fischach, M","type":"Markt"},"district":{"key":"09772","name":"Augsburg","type":"Landkreis"},"federalState":{"key":"09","name":"Bayern"}},{"name":"Festplatz","postalCode":"86850","locality":"Fischach","municipality":{"key":"09772141","name":"Fischach, M","type":"Markt"},"district":{"key":"09772","name":"Augsburg","type":"Landkreis"},"federalState":{"key":"09","name":"Bayern"}},{"name":"Finkenweg","postalCode":"86850","locality":"Fischach","municipality":{"key":"09772141","name":"Fischach, M","type":"Markt"},"district":{"key":"09772","name":"Augsburg","type":"Landkreis"},"federalState":{"key":"09","name":"Bayern"}},{"name":"Flurstr.","postalCode":"86850","locality":"Fischach","municipality":{"key":"09772141","name":"Fischach, M","type":"Markt"},"district":{"key":"09772","name":"Augsburg","type":"Landkreis"},"federalState":{"key":"09","name":"Bayern"}},{"name":"Forsthausstr.","postalCode":"86850","locality":"Fischach","municipality":{"key":"09772141","name":"Fischach, M","type":"Markt"},"district":{"key":"09772","name":"Augsburg","type":"Landkreis"},"federalState":{"key":"09","name":"Bayern"}},{"name":"Freiherr-von-Aufseß-Str.","postalCode":"86850","locality":"Fischach","municipality":{"key":"09772141","name":"Fischach, M","type":"Markt"},"district":{"key":"09772","name":"Augsburg","type":"Landkreis"},"federalState":{"key":"09","name":"Bayern"}},{"name":"Gartenstr.","postalCode":"86850","locality":"Fischach","municipality":{"key":"09772141","name":"Fischach, M","type":"Markt"},"district":{"key":"09772","name":"Augsburg","type":"Landkreis"},"federalState":{"key":"09","name":"Bayern"}},{"name":"Gärtnerstr.","postalCode":"86850","locality":"Fischach","municipality":{"key":"09772141","name":"Fischach, M","type":"Markt"},"district":{"key":"09772","name":"Augsburg","type":"Landkreis"},"federalState":{"key":"09","name":"Bayern"}},{"name":"Gottlieb-Daimler-Str.","postalCode":"86850","locality":"Fischach","municipality":{"key":"09772141","name":"Fischach, M","type":"Markt"},"district":{"key":"09772","name":"Augsburg","type":"Landkreis"},"federalState":{"key":"09","name":"Bayern"}},{"name":"Grotteweg","postalCode":"86850","locality":"Fischach","municipality":{"key":"09772141","name":"Fischach, M","type":"Markt"},"district":{"key":"09772","name":"Augsburg","type":"Landkreis"},"federalState":{"key":"09","name":"Bayern"}},{"name":"Grüntenstr.","postalCode":"86850","locality":"Fischach","municipality":{"key":"09772141","name":"Fischach, M","type":"Markt"},"district":{"key":"09772","name":"Augsburg","type":"Landkreis"},"federalState":{"key":"09","name":"Bayern"}},{"name":"Haldenweg","postalCode":"86850","locality":"Fischach","municipality":{"key":"09772141","name":"Fischach, M","type":"Markt"},"district":{"key":"09772","name":"Augsburg","type":"Landkreis"},"federalState":{"key":"09","name":"Bayern"}},{"name":"Hattenbergweg","postalCode":"86850","locality":"Fischach","municipality":{"key":"09772141","name":"Fischach, M","type":"Markt"},"district":{"key":"09772","name":"Augsburg","type":"Landkreis"},"federalState":{"key":"09","name":"Bayern"}},{"name":"Hauptstr.","postalCode":"86850","locality":"Fischach","municipality":{"key":"09772141","name":"Fischach, M","type":"Markt"},"district":{"key":"09772","name":"Augsburg","type":"Landkreis"},"federalState":{"key":"09","name":"Bayern"}},{"name":"Heckenweg","postalCode":"86850","locality":"Fischach","municipality":{"key":"09772141","name":"Fischach, M","type":"Markt"},"district":{"key":"09772","name":"Augsburg","type":"Landkreis"},"federalState":{"key":"09","name":"Bayern"}},{"name":"Hinter dem Hochfeld","postalCode":"86850","locality":"Fischach","municipality":{"key":"09772141","name":"Fischach, M","type":"Markt"},"district":{"key":"09772","name":"Augsburg","type":"Landkreis"},"federalState":{"key":"09","name":"Bayern"}},{"name":"Hinter den Gärten","postalCode":"86850","locality":"Fischach","municipality":{"key":"09772141","name":"Fischach, M","type":"Markt"},"district":{"key":"09772","name":"Augsburg","type":"Landkreis"},"federalState":{"key":"09","name":"Bayern"}},{"name":"Hirtenstr.","postalCode":"86850","locality":"Fischach","municipality":{"key":"09772141","name":"Fischach, M","type":"Markt"},"district":{"key":"09772","name":"Augsburg","type":"Landkreis"},"federalState":{"key":"09","name":"Bayern"}},{"name":"Hochfeldstr.","postalCode":"86850","locality":"Fischach","municipality":{"key":"09772141","name":"Fischach, M","type":"Markt"},"district":{"key":"09772","name":"Augsburg","type":"Landkreis"},"federalState":{"key":"09","name":"Bayern"}},{"name":"Höflesweg","postalCode":"86850","locality":"Fischach","municipality":{"key":"09772141","name":"Fischach, M","type":"Markt"},"district":{"key":"09772","name":"Augsburg","type":"Landkreis"},"federalState":{"key":"09","name":"Bayern"}},{"name":"Hölzleweg","postalCode":"86850","locality":"Fischach","municipality":{"key":"09772141","name":"Fischach, M","type":"Markt"},"district":{"key":"09772","name":"Augsburg","type":"Landkreis"},"federalState":{"key":"09","name":"Bayern"}},{"name":"Industriestr.","postalCode":"86850","locality":"Fischach","municipality":{"key":"09772141","name":"Fischach, M","type":"Markt"},"district":{"key":"09772","name":"Augsburg","type":"Landkreis"},"federalState":{"key":"09","name":"Bayern"}},{"name":"Josef-Danner-Str.","postalCode":"86850","locality":"Fischach","municipality":{"key":"09772141","name":"Fischach, M","type":"Markt"},"district":{"key":"09772","name":"Augsburg","type":"Landkreis"},"federalState":{"key":"09","name":"Bayern"}},{"name":"Kapellenstr.","postalCode":"86850","locality":"Fischach","municipality":{"key":"09772141","name":"Fischach, M","type":"Markt"},"district":{"key":"09772","name":"Augsburg","type":"Landkreis"},"federalState":{"key":"09","name":"Bayern"}},{"name":"Karwendelstr.","postalCode":"86850","locality":"Fischach","municipality":{"key":"09772141","name":"Fischach, M","type":"Markt"},"district":{"key":"09772","name":"Augsburg","type":"Landkreis"},"federalState":{"key":"09","name":"Bayern"}},{"name":"Kirchbauerngasse","postalCode":"86850","locality":"Fischach","municipality":{"key":"09772141","name":"Fischach, M","type":"Markt"},"district":{"key":"09772","name":"Augsburg","type":"Landkreis"},"federalState":{"key":"09","name":"Bayern"}},{"name":"Kirchberg","postalCode":"86850","locality":"Fischach","municipality":{"key":"09772141","name":"Fischach, M","type":"Markt"},"district":{"key":"09772","name":"Augsburg","type":"Landkreis"},"federalState":{"key":"09","name":"Bayern"}},{"name":"Kirchgasse","postalCode":"86850","locality":"Fischach","municipality":{"key":"09772141","name":"Fischach, M","type":"Markt"},"district":{"key":"09772","name":"Augsburg","type":"Landkreis"},"federalState":{"key":"09","name":"Bayern"}},{"name":"Kohlbergstr.","postalCode":"86850","locality":"Fischach","municipality":{"key":"09772141","name":"Fischach, M","type":"Markt"},"district":{"key":"09772","name":"Augsburg","type":"Landkreis"},"federalState":{"key":"09","name":"Bayern"}},{"name":"Kohlstattstr.","postalCode":"86850","locality":"Fischach","municipality":{"key":"09772141","name":"Fischach, M","type":"Markt"},"district":{"key":"09772","name":"Augsburg","type":"Landkreis"},"federalState":{"key":"09","name":"Bayern"}},{"name":"Kölberberg","postalCode":"86850","locality":"Fischach","municipality":{"key":"09772141","name":"Fischach, M","type":"Markt"},"district":{"key":"09772","name":"Augsburg","type":"Landkreis"},"federalState":{"key":"09","name":"Bayern"}},{"name":"Kranzfelderhof","postalCode":"86850","locality":"Fischach","municipality":{"key":"09772141","name":"Fischach, M","type":"Markt"},"district":{"key":"09772","name":"Augsburg","type":"Landkreis"},"federalState":{"key":"09","name":"Bayern"}},{"name":"Lehnersberg","postalCode":"86850","locality":"Fischach","municipality":{"key":"09772141","name":"Fischach, M","type":"Markt"},"district":{"key":"09772","name":"Augsburg","type":"Landkreis"},"federalState":{"key":"09","name":"Bayern"}},{"name":"Lindenhof","postalCode":"86850","locality":"Fischach","municipality":{"key":"09772141","name":"Fischach, M","type":"Markt"},"district":{"key":"09772","name":"Augsburg","type":"Landkreis"},"federalState":{"key":"09","name":"Bayern"}},{"name":"Lindenstr.","postalCode":"86850","locality":"Fischach","municipality":{"key":"09772141","name":"Fischach, M","type":"Markt"},"district":{"key":"09772","name":"Augsburg","type":"Landkreis"},"federalState":{"key":"09","name":"Bayern"}},{"name":"Lohweg","postalCode":"86850","locality":"Fischach","municipality":{"key":"09772141","name":"Fischach, M","type":"Markt"},"district":{"key":"09772","name":"Augsburg","type":"Landkreis"},"federalState":{"key":"09","name":"Bayern"}},{"name":"Maierwiesle","postalCode":"86850","locality":"Fischach","municipality":{"key":"09772141","name":"Fischach, M","type":"Markt"},"district":{"key":"09772","name":"Augsburg","type":"Landkreis"},"federalState":{"key":"09","name":"Bayern"}},{"name":"Marktplatz","postalCode":"86850","locality":"Fischach","municipality":{"key":"09772141","name":"Fischach, M","type":"Markt"},"district":{"key":"09772","name":"Augsburg","type":"Landkreis"},"federalState":{"key":"09","name":"Bayern"}},{"name":"Mehrgenerationenplatz","postalCode":"86850","locality":"Fischach","municipality":{"key":"09772141","name":"Fischach, M","type":"Markt"},"district":{"key":"09772","name":"Augsburg","type":"Landkreis"},"federalState":{"key":"09","name":"Bayern"}},{"name":"Meieregertstr.","postalCode":"86850","locality":"Fischach","municipality":{"key":"09772141","name":"Fischach, M","type":"Markt"},"district":{"key":"09772","name":"Augsburg","type":"Landkreis"},"federalState":{"key":"09","name":"Bayern"}},{"name":"Meisenweg","postalCode":"86850","locality":"Fischach","municipality":{"key":"09772141","name":"Fischach, M","type":"Markt"},"district":{"key":"09772","name":"Augsburg","type":"Landkreis"},"federalState":{"key":"09","name":"Bayern"}},{"name":"Michael-Piller-Str.","postalCode":"86850","locality":"Fischach","municipality":{"key":"09772141","name":"Fischach, M","type":"Markt"},"district":{"key":"09772","name":"Augsburg","type":"Landkreis"},"federalState":{"key":"09","name":"Bayern"}},{"name":"Mickhauser Str.","postalCode":"86850","locality":"Fischach","municipality":{"key":"09772141","name":"Fischach, M","type":"Markt"},"district":{"key":"09772","name":"Augsburg","type":"Landkreis"},"federalState":{"key":"09","name":"Bayern"}},{"name":"Mösleweg","postalCode":"86850","locality":"Fischach","municipality":{"key":"09772141","name":"Fischach, M","type":"Markt"},"district":{"key":"09772","name":"Augsburg","type":"Landkreis"},"federalState":{"key":"09","name":"Bayern"}},{"name":"Mozartstr.","postalCode":"86850","locality":"Fischach","municipality":{"key":"09772141","name":"Fischach, M","type":"Markt"},"district":{"key":"09772","name":"Augsburg","type":"Landkreis"},"federalState":{"key":"09","name":"Bayern"}},{"name":"Mühlmähder","postalCode":"86850","locality":"Fischach","municipality":{"key":"09772141","name":"Fischach, M","type":"Markt"},"district":{"key":"09772","name":"Augsburg","type":"Landkreis"},"federalState":{"key":"09","name":"Bayern"}},{"name":"Mühlstr.","postalCode":"86850","locality":"Fischach","municipality":{"key":"09772141","name":"Fischach, M","type":"Markt"},"district":{"key":"09772","name":"Augsburg","type":"Landkreis"},"federalState":{"key":"09","name":"Bayern"}},{"name":"Nebelhornstr.","postalCode":"86850","locality":"Fischach","municipality":{"key":"09772141","name":"Fischach, M","type":"Markt"},"district":{"key":"09772","name":"Augsburg","type":"Landkreis"},"federalState":{"key":"09","name":"Bayern"}},{"name":"Neufnachstr.","postalCode":"86850","locality":"Fischach","municipality":{"key":"09772141","name":"Fischach, M","type":"Markt"},"district":{"key":"09772","name":"Augsburg","type":"Landkreis"},"federalState":{"key":"09","name":"Bayern"}},{"name":"Ortsstr.","postalCode":"86850","locality":"Fischach","municipality":{"key":"09772141","name":"Fischach, M","type":"Markt"},"district":{"key":"09772","name":"Augsburg","type":"Landkreis"},"federalState":{"key":"09","name":"Bayern"}},{"name":"Pankratiusstr.","postalCode":"86850","locality":"Fischach","municipality":{"key":"09772141","name":"Fischach, M","type":"Markt"},"district":{"key":"09772","name":"Augsburg","type":"Landkreis"},"federalState":{"key":"09","name":"Bayern"}},{"name":"Plattenweg","postalCode":"86850","locality":"Fischach","municipality":{"key":"09772141","name":"Fischach, M","type":"Markt"},"district":{"key":"09772","name":"Augsburg","type":"Landkreis"},"federalState":{"key":"09","name":"Bayern"}},{"name":"Poststr.","postalCode":"86850","locality":"Fischach","municipality":{"key":"09772141","name":"Fischach, M","type":"Markt"},"district":{"key":"09772","name":"Augsburg","type":"Landkreis"},"federalState":{"key":"09","name":"Bayern"}},{"name":"Quellenstr.","postalCode":"86165","locality":"Augsburg","municipality":{"key":"09761000","name":"Augsburg","type":"Kreisfreie_Stadt"},"district":{"key":"09761","name":"Augsburg","type":"Kreisfreie_Stadt"},"federalState":{"key":"09","name":"Bayern"}},{"name":"Quittenweg","postalCode":"86169","locality":"Augsburg","municipality":{"key":"09761000","name":"Augsburg","type":"Kreisfreie_Stadt"},"district":{"key":"09761","name":"Augsburg","type":"Kreisfreie_Stadt"},"federalState":{"key":"09","name":"Bayern"}},{"name":"Rieder Str.","postalCode":"86850","locality":"Fischach","municipality":{"key":"09772141","name":"Fischach, M","type":"Markt"},"district":{"key":"09772","name":"Augsburg","type":"Landkreis"},"federalState":{"key":"09","name":"Bayern"}},{"name":"Robert-Bosch-Str.","postalCode":"86850","locality":"Fischach","municipality":{"key":"09772141","name":"Fischach, M","type":"Markt"},"district":{"key":"09772","name":"Augsburg","type":"Landkreis"},"federalState":{"key":"09","name":"Bayern"}},{"name":"Rot-Kreuz-Str.","postalCode":"86850","locality":"Fischach","municipality":{"key":"09772141","name":"Fischach, M","type":"Markt"},"district":{"key":"09772","name":"Augsburg","type":"Landkreis"},"federalState":{"key":"09","name":"Bayern"}},{"name":"Rudolf-Diesel-Str.","postalCode":"86850","locality":"Fischach","municipality":{"key":"09772141","name":"Fischach, M","type":"Markt"},"district":{"key":"09772","name":"Augsburg","type":"Landkreis"},"federalState":{"key":"09","name":"Bayern"}},{"name":"Scheppacher Str.","postalCode":"86850","locality":"Fischach","municipality":{"key":"09772141","name":"Fischach, M","type":"Markt"},"district":{"key":"09772","name":"Augsburg","type":"Landkreis"},"federalState":{"key":"09","name":"Bayern"}},{"name":"Schläulestr.","postalCode":"86850","locality":"Fischach","municipality":{"key":"09772141","name":"Fischach, M","type":"Markt"},"district":{"key":"09772","name":"Augsburg","type":"Landkreis"},"federalState":{"key":"09","name":"Bayern"}},{"name":"Schloßbergstr.","postalCode":"86850","locality":"Fischach","municipality":{"key":"09772141","name":"Fischach, M","type":"Markt"},"district":{"key":"09772","name":"Augsburg","type":"Landkreis"},"federalState":{"key":"09","name":"Bayern"}},{"name":"Schlößleweg","postalCode":"86850","locality":"Fischach","municipality":{"key":"09772141","name":"Fischach, M","type":"Markt"},"district":{"key":"09772","name":"Augsburg","type":"Landkreis"},"federalState":{"key":"09","name":"Bayern"}},{"name":"Schmiedberg","postalCode":"86850","locality":"Fischach","municipality":{"key":"09772141","name":"Fischach, M","type":"Markt"},"district":{"key":"09772","name":"Augsburg","type":"Landkreis"},"federalState":{"key":"09","name":"Bayern"}},{"name":"Schmiedweg","postalCode":"86850","locality":"Fischach","municipality":{"key":"09772141","name":"Fischach, M","type":"Markt"},"district":{"key":"09772","name":"Augsburg","type":"Landkreis"},"federalState":{"key":"09","name":"Bayern"}},{"name":"Schmutterweg","postalCode":"86850","locality":"Fischach","municipality":{"key":"09772141","name":"Fischach, M","type":"Markt"},"district":{"key":"09772","name":"Augsburg","type":"Landkreis"},"federalState":{"key":"09","name":"Bayern"}},{"name":"Siedlerberg","postalCode":"86850","locality":"Fischach","municipality":{"key":"09772141","name":"Fischach, M","type":"Markt"},"district":{"key":"09772","name":"Augsburg","type":"Landkreis"},"federalState":{"key":"09","name":"Bayern"}},{"name":"Starenweg","postalCode":"86850","locality":"Fischach","municipality":{"key":"09772141","name":"Fischach, M","type":"Markt"},"district":{"key":"09772","name":"Augsburg","type":"Landkreis"},"federalState":{"key":"09","name":"Bayern"}},{"name":"Staudenstr.","postalCode":"86850","locality":"Fischach","municipality":{"key":"09772141","name":"Fischach, M","type":"Markt"},"district":{"key":"09772","name":"Augsburg","type":"Landkreis"},"federalState":{"key":"09","name":"Bayern"}},{"name":"Steigerweg","postalCode":"86850","locality":"Fischach","municipality":{"key":"09772141","name":"Fischach, M","type":"Markt"},"district":{"key":"09772","name":"Augsburg","type":"Landkreis"},"federalState":{"key":"09","name":"Bayern"}},{"name":"Storchenweg","postalCode":"86850","locality":"Fischach","municipality":{"key":"09772141","name":"Fischach, M","type":"Markt"},"district":{"key":"09772","name":"Augsburg","type":"Landkreis"},"federalState":{"key":"09","name":"Bayern"}},{"name":"Strassacker","postalCode":"86850","locality":"Fischach","municipality":{"key":"09772141","name":"Fischach, M","type":"Markt"},"district":{"key":"09772","name":"Augsburg","type":"Landkreis"},"federalState":{"key":"09","name":"Bayern"}},{"name":"St.-Veit-Str.","postalCode":"86850","locality":"Fischach","municipality":{"key":"09772141","name":"Fischach, M","type":"Markt"},"district":{"key":"09772","name":"Augsburg","type":"Landkreis"},"federalState":{"key":"09","name":"Bayern"}},{"name":"Tannenstr.","postalCode":"86850","locality":"Fischach","municipality":{"key":"09772141","name":"Fischach, M","type":"Markt"},"district":{"key":"09772","name":"Augsburg","type":"Landkreis"},"federalState":{"key":"09","name":"Bayern"}},{"name":"Triebgasse","postalCode":"86850","locality":"Fischach","municipality":{"key":"09772141","name":"Fischach, M","type":"Markt"},"district":{"key":"09772","name":"Augsburg","type":"Landkreis"},"federalState":{"key":"09","name":"Bayern"}},{"name":"Ulmenweg","postalCode":"86850","locality":"Fischach","municipality":{"key":"09772141","name":"Fischach, M","type":"Markt"},"district":{"key":"09772","name":"Augsburg","type":"Landkreis"},"federalState":{"key":"09","name":"Bayern"}},{"name":"Ulrichstr.","postalCode":"86850","locality":"Fischach","municipality":{"key":"09772141","name":"Fischach, M","type":"Markt"},"district":{"key":"09772","name":"Augsburg","type":"Landkreis"},"federalState":{"key":"09","name":"Bayern"}},{"name":"Vögelestr.","postalCode":"86850","locality":"Fischach","municipality":{"key":"09772141","name":"Fischach, M","type":"Markt"},"district":{"key":"09772","name":"Augsburg","type":"Landkreis"},"federalState":{"key":"09","name":"Bayern"}},{"name":"Waldstr.","postalCode":"86850","locality":"Fischach","municipality":{"key":"09772141","name":"Fischach, M","type":"Markt"},"district":{"key":"09772","name":"Augsburg","type":"Landkreis"},"federalState":{"key":"09","name":"Bayern"}},{"name":"Webergasse","postalCode":"86850","locality":"Fischach","municipality":{"key":"09772141","name":"Fischach, M","type":"Markt"},"district":{"key":"09772","name":"Augsburg","type":"Landkreis"},"federalState":{"key":"09","name":"Bayern"}},{"name":"Weiheräcker","postalCode":"86850","locality":"Fischach","municipality":{"key":"09772141","name":"Fischach, M","type":"Markt"},"district":{"key":"09772","name":"Augsburg","type":"Landkreis"},"federalState":{"key":"09","name":"Bayern"}},{"name":"Weiherstr.","postalCode":"86850","locality":"Fischach","municipality":{"key":"09772141","name":"Fischach, M","type":"Markt"},"district":{"key":"09772","name":"Augsburg","type":"Landkreis"},"federalState":{"key":"09","name":"Bayern"}},{"name":"Werner-von-Siemens-Str.","postalCode":"86850","locality":"Fischach","municipality":{"key":"09772141","name":"Fischach, M","type":"Markt"},"district":{"key":"09772","name":"Augsburg","type":"Landkreis"},"federalState":{"key":"09","name":"Bayern"}},{"name":"Wieselweg","postalCode":"86850","locality":"Fischach","municipality":{"key":"09772141","name":"Fischach, M","type":"Markt"},"district":{"key":"09772","name":"Augsburg","type":"Landkreis"},"federalState":{"key":"09","name":"Bayern"}},{"name":"Wiesenstr.","postalCode":"86850","locality":"Fischach","municipality":{"key":"09772141","name":"Fischach, M","type":"Markt"},"district":{"key":"09772","name":"Augsburg","type":"Landkreis"},"federalState":{"key":"09","name":"Bayern"}},{"name":"Wiesleweg","postalCode":"86850","locality":"Fischach","municipality":{"key":"09772141","name":"Fischach, M","type":"Markt"},"district":{"key":"09772","name":"Augsburg","type":"Landkreis"},"federalState":{"key":"09","name":"Bayern"}},{"name":"Wilhelm-Wörle-Str.","postalCode":"86850","locality":"Fischach","municipality":{"key":"09772141","name":"Fischach, M","type":"Markt"},"district":{"key":"09772","name":"Augsburg","type":"Landkreis"},"federalState":{"key":"09","name":"Bayern"}},{"name":"Willmannstr.","postalCode":"86850","locality":"Fischach","municipality":{"key":"09772141","name":"Fischach, M","type":"Markt"},"district":{"key":"09772","name":"Augsburg","type":"Landkreis"},"federalState":{"key":"09","name":"Bayern"}},{"name":"Yorckstr.","postalCode":"86165","locality":"Augsburg","municipality":{"key":"09761000","name":"Augsburg","type":"Kreisfreie_Stadt"},"district":{"key":"09761","name":"Augsburg","type":"Kreisfreie_Stadt"},"federalState":{"key":"09","name":"Bayern"}},{"name":"Zollerstr.","postalCode":"86850","locality":"Fischach","municipality":{"key":"09772141","name":"Fischach, M","type":"Markt"},"district":{"key":"09772","name":"Augsburg","type":"Landkreis"},"federalState":{"key":"09","name":"Bayern"}},{"name":"Zugspitzstr.","postalCode":"86850","locality":"Fischach","municipality":{"key":"09772141","name":"Fischach, M","type":"Markt"},"district":{"key":"09772","name":"Augsburg","type":"Landkreis"},"federalState":{"key":"09","name":"Bayern"}},{"name":"Ährenstr.","postalCode":"86179","locality":"Augsburg","municipality":{"key":"09761000","name":"Augsburg","type":"Kreisfreie_Stadt"},"district":{"key":"09761","name":"Augsburg","type":"Kreisfreie_Stadt"},"federalState":{"key":"09","name":"Bayern"}},{"name":"Äußerer Gang","postalCode":"86150","locality":"Augsburg","municipality":{"key":"09761000","name":"Augsburg","type":"Kreisfreie_Stadt"},"district":{"key":"09761","name":"Augsburg","type":"Kreisfreie_Stadt"},"federalState":{"key":"09","name":"Bayern"}},{"name":"Äußeres Pfaffengäßchen","postalCode":"86152","locality":"Augsburg","municipality":{"key":"09761000","name":"Augsburg","type":"Kreisfreie_Stadt"},"district":{"key":"09761","name":"Augsburg","type":"Kreisfreie_Stadt"},"federalState":{"key":"09","name":"Bayern"}},{"name":"Äußere Uferstr.","postalCode":"86154","locality":"Augsburg","municipality":{"key":"09761000","name":"Augsburg","type":"Kreisfreie_Stadt"},"district":{"key":"09761","name":"Augsburg","type":"Kreisfreie_Stadt"},"federalState":{"key":"09","name":"Bayern"}},{"name":"Öglinstr.","postalCode":"86153","locality":"Augsburg","municipality":{"key":"09761000","name":"Augsburg","type":"Kreisfreie_Stadt"},"district":{"key":"09761","name":"Augsburg","type":"Kreisfreie_Stadt"},"federalState":{"key":"09","name":"Bayern"}},{"name":"Ölbachstr.","postalCode":"86179","locality":"Augsburg","municipality":{"key":"09761000","name":"Augsburg","type":"Kreisfreie_Stadt"},"district":{"key":"09761","name":"Augsburg","type":"Kreisfreie_Stadt"},"federalState":{"key":"09","name":"Bayern"}},]