[{"name":"Am Teichgarten","postalCode":"17217","locality":"Kuckssee","municipality":{"key":"13071173","name":"Kuckssee","type":"Kreisangehörige_Gemeinde"},"district":{"key":"13071","name":"Mecklenburgische Seenplatte","type":"Landkreis"},"federalState":{"key":"13","name":"Mecklenburg-Vorpommern"}},{"name":"An der Alten Schmiede","postalCode":"17217","locality":"Kuckssee","municipality":{"key":"13071173","name":"Kuckssee","type":"Kreisangehörige_Gemeinde"},"district":{"key":"13071","name":"Mecklenburgische Seenplatte","type":"Landkreis"},"federalState":{"key":"13","name":"Mecklenburg-Vorpommern"}},{"name":"Gutspark Puchow","postalCode":"17217","locality":"Kuckssee","municipality":{"key":"13071173","name":"Kuckssee","type":"Kreisangehörige_Gemeinde"},"district":{"key":"13071","name":"Mecklenburgische Seenplatte","type":"Landkreis"},"federalState":{"key":"13","name":"Mecklenburg-Vorpommern"}},{"name":"Mittelweg","postalCode":"17217","locality":"Kuckssee","municipality":{"key":"13071173","name":"Kuckssee","type":"Kreisangehörige_Gemeinde"},"district":{"key":"13071","name":"Mecklenburgische Seenplatte","type":"Landkreis"},"federalState":{"key":"13","name":"Mecklenburg-Vorpommern"}},{"name":"Parkstr.","postalCode":"17217","locality":"Kuckssee","municipality":{"key":"13071173","name":"Kuckssee","type":"Kreisangehörige_Gemeinde"},"district":{"key":"13071","name":"Mecklenburgische Seenplatte","type":"Landkreis"},"federalState":{"key":"13","name":"Mecklenburg-Vorpommern"}},{"name":"Rabenallee","postalCode":"17217","locality":"Kuckssee","municipality":{"key":"13071173","name":"Kuckssee","type":"Kreisangehörige_Gemeinde"},"district":{"key":"13071","name":"Mecklenburgische Seenplatte","type":"Landkreis"},"federalState":{"key":"13","name":"Mecklenburg-Vorpommern"}},{"name":"Rahnenfelde","postalCode":"17217","locality":"Kuckssee","municipality":{"key":"13071173","name":"Kuckssee","type":"Kreisangehörige_Gemeinde"},"district":{"key":"13071","name":"Mecklenburgische Seenplatte","type":"Landkreis"},"federalState":{"key":"13","name":"Mecklenburg-Vorpommern"}},{"name":"Storchenweg","postalCode":"17217","locality":"Kuckssee","municipality":{"key":"13071173","name":"Kuckssee","type":"Kreisangehörige_Gemeinde"},"district":{"key":"13071","name":"Mecklenburgische Seenplatte","type":"Landkreis"},"federalState":{"key":"13","name":"Mecklenburg-Vorpommern"}},{"name":"Unter den Linden","postalCode":"17217","locality":"Kuckssee","municipality":{"key":"13071173","name":"Kuckssee","type":"Kreisangehörige_Gemeinde"},"district":{"key":"13071","name":"Mecklenburgische Seenplatte","type":"Landkreis"},"federalState":{"key":"13","name":"Mecklenburg-Vorpommern"}},{"name":"Weg nach Afrika","postalCode":"17217","locality":"Kuckssee","municipality":{"key":"13071173","name":"Kuckssee","type":"Kreisangehörige_Gemeinde"},"district":{"key":"13071","name":"Mecklenburgische Seenplatte","type":"Landkreis"},"federalState":{"key":"13","name":"Mecklenburg-Vorpommern"}},{"name":"Zum Salzsee","postalCode":"17217","locality":"Kuckssee","municipality":{"key":"13071173","name":"Kuckssee","type":"Kreisangehörige_Gemeinde"},"district":{"key":"13071","name":"Mecklenburgische Seenplatte","type":"Landkreis"},"federalState":{"key":"13","name":"Mecklenburg-Vorpommern"}},]