[{"name":"Adolf-Kolping-Str.","postalCode":"91438","locality":"Bad Windsheim","municipality":{"key":"09575112","name":"Bad Windsheim, St","type":"Stadt"},"district":{"key":"09575","name":"Neustadt a.d.Aisch-Bad Windsheim","type":"Landkreis"},"federalState":{"key":"09","name":"Bayern"}},{"name":"Aischgartenweg","postalCode":"91438","locality":"Bad Windsheim","municipality":{"key":"09575112","name":"Bad Windsheim, St","type":"Stadt"},"district":{"key":"09575","name":"Neustadt a.d.Aisch-Bad Windsheim","type":"Landkreis"},"federalState":{"key":"09","name":"Bayern"}},{"name":"Albrecht-Dürer-Platz","postalCode":"91438","locality":"Bad Windsheim","municipality":{"key":"09575112","name":"Bad Windsheim, St","type":"Stadt"},"district":{"key":"09575","name":"Neustadt a.d.Aisch-Bad Windsheim","type":"Landkreis"},"federalState":{"key":"09","name":"Bayern"}},{"name":"Alleestr.","postalCode":"91438","locality":"Bad Windsheim","municipality":{"key":"09575112","name":"Bad Windsheim, St","type":"Stadt"},"district":{"key":"09575","name":"Neustadt a.d.Aisch-Bad Windsheim","type":"Landkreis"},"federalState":{"key":"09","name":"Bayern"}},{"name":"Alte Brunnengasse","postalCode":"91438","locality":"Bad Windsheim","municipality":{"key":"09575112","name":"Bad Windsheim, St","type":"Stadt"},"district":{"key":"09575","name":"Neustadt a.d.Aisch-Bad Windsheim","type":"Landkreis"},"federalState":{"key":"09","name":"Bayern"}},{"name":"Am Bittmorgen","postalCode":"91438","locality":"Bad Windsheim","municipality":{"key":"09575112","name":"Bad Windsheim, St","type":"Stadt"},"district":{"key":"09575","name":"Neustadt a.d.Aisch-Bad Windsheim","type":"Landkreis"},"federalState":{"key":"09","name":"Bayern"}},{"name":"Am Bleichwasen","postalCode":"91438","locality":"Bad Windsheim","municipality":{"key":"09575112","name":"Bad Windsheim, St","type":"Stadt"},"district":{"key":"09575","name":"Neustadt a.d.Aisch-Bad Windsheim","type":"Landkreis"},"federalState":{"key":"09","name":"Bayern"}},{"name":"Am Dachsberg","postalCode":"91438","locality":"Bad Windsheim","municipality":{"key":"09575112","name":"Bad Windsheim, St","type":"Stadt"},"district":{"key":"09575","name":"Neustadt a.d.Aisch-Bad Windsheim","type":"Landkreis"},"federalState":{"key":"09","name":"Bayern"}},{"name":"Am Dicken Turm","postalCode":"91438","locality":"Bad Windsheim","municipality":{"key":"09575112","name":"Bad Windsheim, St","type":"Stadt"},"district":{"key":"09575","name":"Neustadt a.d.Aisch-Bad Windsheim","type":"Landkreis"},"federalState":{"key":"09","name":"Bayern"}},{"name":"Am Gänswasen","postalCode":"91438","locality":"Bad Windsheim","municipality":{"key":"09575112","name":"Bad Windsheim, St","type":"Stadt"},"district":{"key":"09575","name":"Neustadt a.d.Aisch-Bad Windsheim","type":"Landkreis"},"federalState":{"key":"09","name":"Bayern"}},{"name":"Am Gelben Brunnen","postalCode":"91438","locality":"Bad Windsheim","municipality":{"key":"09575112","name":"Bad Windsheim, St","type":"Stadt"},"district":{"key":"09575","name":"Neustadt a.d.Aisch-Bad Windsheim","type":"Landkreis"},"federalState":{"key":"09","name":"Bayern"}},{"name":"Am Gipshügel","postalCode":"91438","locality":"Bad Windsheim","municipality":{"key":"09575112","name":"Bad Windsheim, St","type":"Stadt"},"district":{"key":"09575","name":"Neustadt a.d.Aisch-Bad Windsheim","type":"Landkreis"},"federalState":{"key":"09","name":"Bayern"}},{"name":"Am Kohlenberg","postalCode":"91438","locality":"Bad Windsheim","municipality":{"key":"09575112","name":"Bad Windsheim, St","type":"Stadt"},"district":{"key":"09575","name":"Neustadt a.d.Aisch-Bad Windsheim","type":"Landkreis"},"federalState":{"key":"09","name":"Bayern"}},{"name":"Am Krautfeld","postalCode":"91438","locality":"Bad Windsheim","municipality":{"key":"09575112","name":"Bad Windsheim, St","type":"Stadt"},"district":{"key":"09575","name":"Neustadt a.d.Aisch-Bad Windsheim","type":"Landkreis"},"federalState":{"key":"09","name":"Bayern"}},{"name":"Am Lindlein","postalCode":"91438","locality":"Bad Windsheim","municipality":{"key":"09575112","name":"Bad Windsheim, St","type":"Stadt"},"district":{"key":"09575","name":"Neustadt a.d.Aisch-Bad Windsheim","type":"Landkreis"},"federalState":{"key":"09","name":"Bayern"}},{"name":"Am Mühlfeld","postalCode":"91438","locality":"Bad Windsheim","municipality":{"key":"09575112","name":"Bad Windsheim, St","type":"Stadt"},"district":{"key":"09575","name":"Neustadt a.d.Aisch-Bad Windsheim","type":"Landkreis"},"federalState":{"key":"09","name":"Bayern"}},{"name":"Am Rehhof","postalCode":"91438","locality":"Bad Windsheim","municipality":{"key":"09575112","name":"Bad Windsheim, St","type":"Stadt"},"district":{"key":"09575","name":"Neustadt a.d.Aisch-Bad Windsheim","type":"Landkreis"},"federalState":{"key":"09","name":"Bayern"}},{"name":"Am Sandbrunnen","postalCode":"91438","locality":"Bad Windsheim","municipality":{"key":"09575112","name":"Bad Windsheim, St","type":"Stadt"},"district":{"key":"09575","name":"Neustadt a.d.Aisch-Bad Windsheim","type":"Landkreis"},"federalState":{"key":"09","name":"Bayern"}},{"name":"Am Schießwasen","postalCode":"91438","locality":"Bad Windsheim","municipality":{"key":"09575112","name":"Bad Windsheim, St","type":"Stadt"},"district":{"key":"09575","name":"Neustadt a.d.Aisch-Bad Windsheim","type":"Landkreis"},"federalState":{"key":"09","name":"Bayern"}},{"name":"Am Schleifweg","postalCode":"91438","locality":"Bad Windsheim","municipality":{"key":"09575112","name":"Bad Windsheim, St","type":"Stadt"},"district":{"key":"09575","name":"Neustadt a.d.Aisch-Bad Windsheim","type":"Landkreis"},"federalState":{"key":"09","name":"Bayern"}},{"name":"Am Stauchbrunnen","postalCode":"91438","locality":"Bad Windsheim","municipality":{"key":"09575112","name":"Bad Windsheim, St","type":"Stadt"},"district":{"key":"09575","name":"Neustadt a.d.Aisch-Bad Windsheim","type":"Landkreis"},"federalState":{"key":"09","name":"Bayern"}},{"name":"Am Steinernen Kreuz","postalCode":"91438","locality":"Bad Windsheim","municipality":{"key":"09575112","name":"Bad Windsheim, St","type":"Stadt"},"district":{"key":"09575","name":"Neustadt a.d.Aisch-Bad Windsheim","type":"Landkreis"},"federalState":{"key":"09","name":"Bayern"}},{"name":"Am Weinturm","postalCode":"91438","locality":"Bad Windsheim","municipality":{"key":"09575112","name":"Bad Windsheim, St","type":"Stadt"},"district":{"key":"09575","name":"Neustadt a.d.Aisch-Bad Windsheim","type":"Landkreis"},"federalState":{"key":"09","name":"Bayern"}},{"name":"Am Weinwasen","postalCode":"91438","locality":"Bad Windsheim","municipality":{"key":"09575112","name":"Bad Windsheim, St","type":"Stadt"},"district":{"key":"09575","name":"Neustadt a.d.Aisch-Bad Windsheim","type":"Landkreis"},"federalState":{"key":"09","name":"Bayern"}},{"name":"Am Zauberkraut","postalCode":"91438","locality":"Bad Windsheim","municipality":{"key":"09575112","name":"Bad Windsheim, St","type":"Stadt"},"district":{"key":"09575","name":"Neustadt a.d.Aisch-Bad Windsheim","type":"Landkreis"},"federalState":{"key":"09","name":"Bayern"}},{"name":"An der Alten Weed","postalCode":"91438","locality":"Bad Windsheim","municipality":{"key":"09575112","name":"Bad Windsheim, St","type":"Stadt"},"district":{"key":"09575","name":"Neustadt a.d.Aisch-Bad Windsheim","type":"Landkreis"},"federalState":{"key":"09","name":"Bayern"}},{"name":"An der Heuwaag","postalCode":"91438","locality":"Bad Windsheim","municipality":{"key":"09575112","name":"Bad Windsheim, St","type":"Stadt"},"district":{"key":"09575","name":"Neustadt a.d.Aisch-Bad Windsheim","type":"Landkreis"},"federalState":{"key":"09","name":"Bayern"}},{"name":"An der Neuen Weed","postalCode":"91438","locality":"Bad Windsheim","municipality":{"key":"09575112","name":"Bad Windsheim, St","type":"Stadt"},"district":{"key":"09575","name":"Neustadt a.d.Aisch-Bad Windsheim","type":"Landkreis"},"federalState":{"key":"09","name":"Bayern"}},{"name":"An der Point","postalCode":"91438","locality":"Bad Windsheim","municipality":{"key":"09575112","name":"Bad Windsheim, St","type":"Stadt"},"district":{"key":"09575","name":"Neustadt a.d.Aisch-Bad Windsheim","type":"Landkreis"},"federalState":{"key":"09","name":"Bayern"}},{"name":"An der Ruhbank","postalCode":"91438","locality":"Bad Windsheim","municipality":{"key":"09575112","name":"Bad Windsheim, St","type":"Stadt"},"district":{"key":"09575","name":"Neustadt a.d.Aisch-Bad Windsheim","type":"Landkreis"},"federalState":{"key":"09","name":"Bayern"}},{"name":"An der Teichlilie","postalCode":"91438","locality":"Bad Windsheim","municipality":{"key":"09575112","name":"Bad Windsheim, St","type":"Stadt"},"district":{"key":"09575","name":"Neustadt a.d.Aisch-Bad Windsheim","type":"Landkreis"},"federalState":{"key":"09","name":"Bayern"}},{"name":"An der Winterleite","postalCode":"91438","locality":"Bad Windsheim","municipality":{"key":"09575112","name":"Bad Windsheim, St","type":"Stadt"},"district":{"key":"09575","name":"Neustadt a.d.Aisch-Bad Windsheim","type":"Landkreis"},"federalState":{"key":"09","name":"Bayern"}},{"name":"Andreas-Herrneisen-Str.","postalCode":"91438","locality":"Bad Windsheim","municipality":{"key":"09575112","name":"Bad Windsheim, St","type":"Stadt"},"district":{"key":"09575","name":"Neustadt a.d.Aisch-Bad Windsheim","type":"Landkreis"},"federalState":{"key":"09","name":"Bayern"}},{"name":"Augustinumstr.","postalCode":"91438","locality":"Bad Windsheim","municipality":{"key":"09575112","name":"Bad Windsheim, St","type":"Stadt"},"district":{"key":"09575","name":"Neustadt a.d.Aisch-Bad Windsheim","type":"Landkreis"},"federalState":{"key":"09","name":"Bayern"}},{"name":"Bad Windsheimer Str.","postalCode":"91438","locality":"Bad Windsheim","municipality":{"key":"09575112","name":"Bad Windsheim, St","type":"Stadt"},"district":{"key":"09575","name":"Neustadt a.d.Aisch-Bad Windsheim","type":"Landkreis"},"federalState":{"key":"09","name":"Bayern"}},{"name":"Bahnhofsplatz","postalCode":"91438","locality":"Bad Windsheim","municipality":{"key":"09575112","name":"Bad Windsheim, St","type":"Stadt"},"district":{"key":"09575","name":"Neustadt a.d.Aisch-Bad Windsheim","type":"Landkreis"},"federalState":{"key":"09","name":"Bayern"}},{"name":"Baltenstr.","postalCode":"91438","locality":"Bad Windsheim","municipality":{"key":"09575112","name":"Bad Windsheim, St","type":"Stadt"},"district":{"key":"09575","name":"Neustadt a.d.Aisch-Bad Windsheim","type":"Landkreis"},"federalState":{"key":"09","name":"Bayern"}},{"name":"Balthasar-Neumann-Str.","postalCode":"91438","locality":"Bad Windsheim","municipality":{"key":"09575112","name":"Bad Windsheim, St","type":"Stadt"},"district":{"key":"09575","name":"Neustadt a.d.Aisch-Bad Windsheim","type":"Landkreis"},"federalState":{"key":"09","name":"Bayern"}},{"name":"Bauhofwall","postalCode":"91438","locality":"Bad Windsheim","municipality":{"key":"09575112","name":"Bad Windsheim, St","type":"Stadt"},"district":{"key":"09575","name":"Neustadt a.d.Aisch-Bad Windsheim","type":"Landkreis"},"federalState":{"key":"09","name":"Bayern"}},{"name":"Beethovenstr.","postalCode":"91438","locality":"Bad Windsheim","municipality":{"key":"09575112","name":"Bad Windsheim, St","type":"Stadt"},"district":{"key":"09575","name":"Neustadt a.d.Aisch-Bad Windsheim","type":"Landkreis"},"federalState":{"key":"09","name":"Bayern"}},{"name":"Berliner Str.","postalCode":"91438","locality":"Bad Windsheim","municipality":{"key":"09575112","name":"Bad Windsheim, St","type":"Stadt"},"district":{"key":"09575","name":"Neustadt a.d.Aisch-Bad Windsheim","type":"Landkreis"},"federalState":{"key":"09","name":"Bayern"}},{"name":"Bernhard-Bickert-Weg","postalCode":"91438","locality":"Bad Windsheim","municipality":{"key":"09575112","name":"Bad Windsheim, St","type":"Stadt"},"district":{"key":"09575","name":"Neustadt a.d.Aisch-Bad Windsheim","type":"Landkreis"},"federalState":{"key":"09","name":"Bayern"}},{"name":"Birkenallee","postalCode":"91438","locality":"Bad Windsheim","municipality":{"key":"09575112","name":"Bad Windsheim, St","type":"Stadt"},"district":{"key":"09575","name":"Neustadt a.d.Aisch-Bad Windsheim","type":"Landkreis"},"federalState":{"key":"09","name":"Bayern"}},{"name":"Birkenweg","postalCode":"91438","locality":"Bad Windsheim","municipality":{"key":"09575112","name":"Bad Windsheim, St","type":"Stadt"},"district":{"key":"09575","name":"Neustadt a.d.Aisch-Bad Windsheim","type":"Landkreis"},"federalState":{"key":"09","name":"Bayern"}},{"name":"Birkleinsgasse","postalCode":"91438","locality":"Bad Windsheim","municipality":{"key":"09575112","name":"Bad Windsheim, St","type":"Stadt"},"district":{"key":"09575","name":"Neustadt a.d.Aisch-Bad Windsheim","type":"Landkreis"},"federalState":{"key":"09","name":"Bayern"}},{"name":"Blumenstr.","postalCode":"91438","locality":"Bad Windsheim","municipality":{"key":"09575112","name":"Bad Windsheim, St","type":"Stadt"},"district":{"key":"09575","name":"Neustadt a.d.Aisch-Bad Windsheim","type":"Landkreis"},"federalState":{"key":"09","name":"Bayern"}},{"name":"Bodelschwinghweg","postalCode":"91438","locality":"Bad Windsheim","municipality":{"key":"09575112","name":"Bad Windsheim, St","type":"Stadt"},"district":{"key":"09575","name":"Neustadt a.d.Aisch-Bad Windsheim","type":"Landkreis"},"federalState":{"key":"09","name":"Bayern"}},{"name":"Bodenfeldstr.","postalCode":"91438","locality":"Bad Windsheim","municipality":{"key":"09575112","name":"Bad Windsheim, St","type":"Stadt"},"district":{"key":"09575","name":"Neustadt a.d.Aisch-Bad Windsheim","type":"Landkreis"},"federalState":{"key":"09","name":"Bayern"}},{"name":"Boelckestr.","postalCode":"91438","locality":"Bad Windsheim","municipality":{"key":"09575112","name":"Bad Windsheim, St","type":"Stadt"},"district":{"key":"09575","name":"Neustadt a.d.Aisch-Bad Windsheim","type":"Landkreis"},"federalState":{"key":"09","name":"Bayern"}},{"name":"Brahmsweg","postalCode":"91438","locality":"Bad Windsheim","municipality":{"key":"09575112","name":"Bad Windsheim, St","type":"Stadt"},"district":{"key":"09575","name":"Neustadt a.d.Aisch-Bad Windsheim","type":"Landkreis"},"federalState":{"key":"09","name":"Bayern"}},{"name":"Brenckgasse","postalCode":"91438","locality":"Bad Windsheim","municipality":{"key":"09575112","name":"Bad Windsheim, St","type":"Stadt"},"district":{"key":"09575","name":"Neustadt a.d.Aisch-Bad Windsheim","type":"Landkreis"},"federalState":{"key":"09","name":"Bayern"}},{"name":"Breslauer Ring","postalCode":"91438","locality":"Bad Windsheim","municipality":{"key":"09575112","name":"Bad Windsheim, St","type":"Stadt"},"district":{"key":"09575","name":"Neustadt a.d.Aisch-Bad Windsheim","type":"Landkreis"},"federalState":{"key":"09","name":"Bayern"}},{"name":"Buchenweg","postalCode":"91438","locality":"Bad Windsheim","municipality":{"key":"09575112","name":"Bad Windsheim, St","type":"Stadt"},"district":{"key":"09575","name":"Neustadt a.d.Aisch-Bad Windsheim","type":"Landkreis"},"federalState":{"key":"09","name":"Bayern"}},{"name":"Buchheimer Str.","postalCode":"91438","locality":"Bad Windsheim","municipality":{"key":"09575112","name":"Bad Windsheim, St","type":"Stadt"},"district":{"key":"09575","name":"Neustadt a.d.Aisch-Bad Windsheim","type":"Landkreis"},"federalState":{"key":"09","name":"Bayern"}},{"name":"Burgbernheimer Str.","postalCode":"91438","locality":"Bad Windsheim","municipality":{"key":"09575112","name":"Bad Windsheim, St","type":"Stadt"},"district":{"key":"09575","name":"Neustadt a.d.Aisch-Bad Windsheim","type":"Landkreis"},"federalState":{"key":"09","name":"Bayern"}},{"name":"Burggasse","postalCode":"91438","locality":"Bad Windsheim","municipality":{"key":"09575112","name":"Bad Windsheim, St","type":"Stadt"},"district":{"key":"09575","name":"Neustadt a.d.Aisch-Bad Windsheim","type":"Landkreis"},"federalState":{"key":"09","name":"Bayern"}},{"name":"Danziger Ring","postalCode":"91438","locality":"Bad Windsheim","municipality":{"key":"09575112","name":"Bad Windsheim, St","type":"Stadt"},"district":{"key":"09575","name":"Neustadt a.d.Aisch-Bad Windsheim","type":"Landkreis"},"federalState":{"key":"09","name":"Bayern"}},{"name":"Deubel-Senger-Weg","postalCode":"91438","locality":"Bad Windsheim","municipality":{"key":"09575112","name":"Bad Windsheim, St","type":"Stadt"},"district":{"key":"09575","name":"Neustadt a.d.Aisch-Bad Windsheim","type":"Landkreis"},"federalState":{"key":"09","name":"Bayern"}},{"name":"Doktor-Martin-Luther-Platz","postalCode":"91438","locality":"Bad Windsheim","municipality":{"key":"09575112","name":"Bad Windsheim, St","type":"Stadt"},"district":{"key":"09575","name":"Neustadt a.d.Aisch-Bad Windsheim","type":"Landkreis"},"federalState":{"key":"09","name":"Bayern"}},{"name":"Dresdener Str.","postalCode":"91438","locality":"Bad Windsheim","municipality":{"key":"09575112","name":"Bad Windsheim, St","type":"Stadt"},"district":{"key":"09575","name":"Neustadt a.d.Aisch-Bad Windsheim","type":"Landkreis"},"federalState":{"key":"09","name":"Bayern"}},{"name":"Eichenweg","postalCode":"91438","locality":"Bad Windsheim","municipality":{"key":"09575112","name":"Bad Windsheim, St","type":"Stadt"},"district":{"key":"09575","name":"Neustadt a.d.Aisch-Bad Windsheim","type":"Landkreis"},"federalState":{"key":"09","name":"Bayern"}},{"name":"Eisenbahnstr.","postalCode":"91438","locality":"Bad Windsheim","municipality":{"key":"09575112","name":"Bad Windsheim, St","type":"Stadt"},"district":{"key":"09575","name":"Neustadt a.d.Aisch-Bad Windsheim","type":"Landkreis"},"federalState":{"key":"09","name":"Bayern"}},{"name":"Eisengasse","postalCode":"91438","locality":"Bad Windsheim","municipality":{"key":"09575112","name":"Bad Windsheim, St","type":"Stadt"},"district":{"key":"09575","name":"Neustadt a.d.Aisch-Bad Windsheim","type":"Landkreis"},"federalState":{"key":"09","name":"Bayern"}},{"name":"Eisweiherweg","postalCode":"91438","locality":"Bad Windsheim","municipality":{"key":"09575112","name":"Bad Windsheim, St","type":"Stadt"},"district":{"key":"09575","name":"Neustadt a.d.Aisch-Bad Windsheim","type":"Landkreis"},"federalState":{"key":"09","name":"Bayern"}},{"name":"Engerergasse","postalCode":"91438","locality":"Bad Windsheim","municipality":{"key":"09575112","name":"Bad Windsheim, St","type":"Stadt"},"district":{"key":"09575","name":"Neustadt a.d.Aisch-Bad Windsheim","type":"Landkreis"},"federalState":{"key":"09","name":"Bayern"}},{"name":"Erbsengasse","postalCode":"91438","locality":"Bad Windsheim","municipality":{"key":"09575112","name":"Bad Windsheim, St","type":"Stadt"},"district":{"key":"09575","name":"Neustadt a.d.Aisch-Bad Windsheim","type":"Landkreis"},"federalState":{"key":"09","name":"Bayern"}},{"name":"Erfurter Str.","postalCode":"91438","locality":"Bad Windsheim","municipality":{"key":"09575112","name":"Bad Windsheim, St","type":"Stadt"},"district":{"key":"09575","name":"Neustadt a.d.Aisch-Bad Windsheim","type":"Landkreis"},"federalState":{"key":"09","name":"Bayern"}},{"name":"Ergersheimer Str.","postalCode":"91438","locality":"Bad Windsheim","municipality":{"key":"09575112","name":"Bad Windsheim, St","type":"Stadt"},"district":{"key":"09575","name":"Neustadt a.d.Aisch-Bad Windsheim","type":"Landkreis"},"federalState":{"key":"09","name":"Bayern"}},{"name":"Erkenbrechtallee","postalCode":"91438","locality":"Bad Windsheim","municipality":{"key":"09575112","name":"Bad Windsheim, St","type":"Stadt"},"district":{"key":"09575","name":"Neustadt a.d.Aisch-Bad Windsheim","type":"Landkreis"},"federalState":{"key":"09","name":"Bayern"}},{"name":"Eschenweg","postalCode":"91438","locality":"Bad Windsheim","municipality":{"key":"09575112","name":"Bad Windsheim, St","type":"Stadt"},"district":{"key":"09575","name":"Neustadt a.d.Aisch-Bad Windsheim","type":"Landkreis"},"federalState":{"key":"09","name":"Bayern"}},{"name":"Fliednerweg","postalCode":"91438","locality":"Bad Windsheim","municipality":{"key":"09575112","name":"Bad Windsheim, St","type":"Stadt"},"district":{"key":"09575","name":"Neustadt a.d.Aisch-Bad Windsheim","type":"Landkreis"},"federalState":{"key":"09","name":"Bayern"}},{"name":"Friedensweg","postalCode":"91438","locality":"Bad Windsheim","municipality":{"key":"09575112","name":"Bad Windsheim, St","type":"Stadt"},"district":{"key":"09575","name":"Neustadt a.d.Aisch-Bad Windsheim","type":"Landkreis"},"federalState":{"key":"09","name":"Bayern"}},{"name":"Fuchsengasse","postalCode":"91438","locality":"Bad Windsheim","municipality":{"key":"09575112","name":"Bad Windsheim, St","type":"Stadt"},"district":{"key":"09575","name":"Neustadt a.d.Aisch-Bad Windsheim","type":"Landkreis"},"federalState":{"key":"09","name":"Bayern"}},{"name":"Galgenbuckweg","postalCode":"91438","locality":"Bad Windsheim","municipality":{"key":"09575112","name":"Bad Windsheim, St","type":"Stadt"},"district":{"key":"09575","name":"Neustadt a.d.Aisch-Bad Windsheim","type":"Landkreis"},"federalState":{"key":"09","name":"Bayern"}},{"name":"Gänsgasse","postalCode":"91438","locality":"Bad Windsheim","municipality":{"key":"09575112","name":"Bad Windsheim, St","type":"Stadt"},"district":{"key":"09575","name":"Neustadt a.d.Aisch-Bad Windsheim","type":"Landkreis"},"federalState":{"key":"09","name":"Bayern"}},{"name":"Gipserweg","postalCode":"91438","locality":"Bad Windsheim","municipality":{"key":"09575112","name":"Bad Windsheim, St","type":"Stadt"},"district":{"key":"09575","name":"Neustadt a.d.Aisch-Bad Windsheim","type":"Landkreis"},"federalState":{"key":"09","name":"Bayern"}},{"name":"Gleißende Marter","postalCode":"91438","locality":"Bad Windsheim","municipality":{"key":"09575112","name":"Bad Windsheim, St","type":"Stadt"},"district":{"key":"09575","name":"Neustadt a.d.Aisch-Bad Windsheim","type":"Landkreis"},"federalState":{"key":"09","name":"Bayern"}},{"name":"Grabengasse","postalCode":"91438","locality":"Bad Windsheim","municipality":{"key":"09575112","name":"Bad Windsheim, St","type":"Stadt"},"district":{"key":"09575","name":"Neustadt a.d.Aisch-Bad Windsheim","type":"Landkreis"},"federalState":{"key":"09","name":"Bayern"}},{"name":"Hafenmarkt","postalCode":"91438","locality":"Bad Windsheim","municipality":{"key":"09575112","name":"Bad Windsheim, St","type":"Stadt"},"district":{"key":"09575","name":"Neustadt a.d.Aisch-Bad Windsheim","type":"Landkreis"},"federalState":{"key":"09","name":"Bayern"}},{"name":"Hagelsteingasse","postalCode":"91438","locality":"Bad Windsheim","municipality":{"key":"09575112","name":"Bad Windsheim, St","type":"Stadt"},"district":{"key":"09575","name":"Neustadt a.d.Aisch-Bad Windsheim","type":"Landkreis"},"federalState":{"key":"09","name":"Bayern"}},{"name":"Hainsergasse","postalCode":"91438","locality":"Bad Windsheim","municipality":{"key":"09575112","name":"Bad Windsheim, St","type":"Stadt"},"district":{"key":"09575","name":"Neustadt a.d.Aisch-Bad Windsheim","type":"Landkreis"},"federalState":{"key":"09","name":"Bayern"}},{"name":"Hainserwall","postalCode":"91438","locality":"Bad Windsheim","municipality":{"key":"09575112","name":"Bad Windsheim, St","type":"Stadt"},"district":{"key":"09575","name":"Neustadt a.d.Aisch-Bad Windsheim","type":"Landkreis"},"federalState":{"key":"09","name":"Bayern"}},{"name":"Hallesche Str.","postalCode":"91438","locality":"Bad Windsheim","municipality":{"key":"09575112","name":"Bad Windsheim, St","type":"Stadt"},"district":{"key":"09575","name":"Neustadt a.d.Aisch-Bad Windsheim","type":"Landkreis"},"federalState":{"key":"09","name":"Bayern"}},{"name":"Hans-Holbein-Str.","postalCode":"91438","locality":"Bad Windsheim","municipality":{"key":"09575112","name":"Bad Windsheim, St","type":"Stadt"},"district":{"key":"09575","name":"Neustadt a.d.Aisch-Bad Windsheim","type":"Landkreis"},"federalState":{"key":"09","name":"Bayern"}},{"name":"Hans-Memling-Str.","postalCode":"91438","locality":"Bad Windsheim","municipality":{"key":"09575112","name":"Bad Windsheim, St","type":"Stadt"},"district":{"key":"09575","name":"Neustadt a.d.Aisch-Bad Windsheim","type":"Landkreis"},"federalState":{"key":"09","name":"Bayern"}},{"name":"Hans-Schäufelein-Str.","postalCode":"91438","locality":"Bad Windsheim","municipality":{"key":"09575112","name":"Bad Windsheim, St","type":"Stadt"},"district":{"key":"09575","name":"Neustadt a.d.Aisch-Bad Windsheim","type":"Landkreis"},"federalState":{"key":"09","name":"Bayern"}},{"name":"Hans-Schmotzer-Allee","postalCode":"91438","locality":"Bad Windsheim","municipality":{"key":"09575112","name":"Bad Windsheim, St","type":"Stadt"},"district":{"key":"09575","name":"Neustadt a.d.Aisch-Bad Windsheim","type":"Landkreis"},"federalState":{"key":"09","name":"Bayern"}},{"name":"Hans-Schmotzer-Str.","postalCode":"91438","locality":"Bad Windsheim","municipality":{"key":"09575112","name":"Bad Windsheim, St","type":"Stadt"},"district":{"key":"09575","name":"Neustadt a.d.Aisch-Bad Windsheim","type":"Landkreis"},"federalState":{"key":"09","name":"Bayern"}},{"name":"Hans-von-Kulmbach-Str.","postalCode":"91438","locality":"Bad Windsheim","municipality":{"key":"09575112","name":"Bad Windsheim, St","type":"Stadt"},"district":{"key":"09575","name":"Neustadt a.d.Aisch-Bad Windsheim","type":"Landkreis"},"federalState":{"key":"09","name":"Bayern"}},{"name":"Hauptmann-Köhl-Str.","postalCode":"91438","locality":"Bad Windsheim","municipality":{"key":"09575112","name":"Bad Windsheim, St","type":"Stadt"},"district":{"key":"09575","name":"Neustadt a.d.Aisch-Bad Windsheim","type":"Landkreis"},"federalState":{"key":"09","name":"Bayern"}},{"name":"Hauptstr.","postalCode":"91438","locality":"Bad Windsheim","municipality":{"key":"09575112","name":"Bad Windsheim, St","type":"Stadt"},"district":{"key":"09575","name":"Neustadt a.d.Aisch-Bad Windsheim","type":"Landkreis"},"federalState":{"key":"09","name":"Bayern"}},{"name":"Haydnweg","postalCode":"91438","locality":"Bad Windsheim","municipality":{"key":"09575112","name":"Bad Windsheim, St","type":"Stadt"},"district":{"key":"09575","name":"Neustadt a.d.Aisch-Bad Windsheim","type":"Landkreis"},"federalState":{"key":"09","name":"Bayern"}},{"name":"Heimgartenweg","postalCode":"91438","locality":"Bad Windsheim","municipality":{"key":"09575112","name":"Bad Windsheim, St","type":"Stadt"},"district":{"key":"09575","name":"Neustadt a.d.Aisch-Bad Windsheim","type":"Landkreis"},"federalState":{"key":"09","name":"Bayern"}},{"name":"Herrngasse","postalCode":"91438","locality":"Bad Windsheim","municipality":{"key":"09575112","name":"Bad Windsheim, St","type":"Stadt"},"district":{"key":"09575","name":"Neustadt a.d.Aisch-Bad Windsheim","type":"Landkreis"},"federalState":{"key":"09","name":"Bayern"}},{"name":"Hilpertweg","postalCode":"91438","locality":"Bad Windsheim","municipality":{"key":"09575112","name":"Bad Windsheim, St","type":"Stadt"},"district":{"key":"09575","name":"Neustadt a.d.Aisch-Bad Windsheim","type":"Landkreis"},"federalState":{"key":"09","name":"Bayern"}},{"name":"Hintere Eisengasse","postalCode":"91438","locality":"Bad Windsheim","municipality":{"key":"09575112","name":"Bad Windsheim, St","type":"Stadt"},"district":{"key":"09575","name":"Neustadt a.d.Aisch-Bad Windsheim","type":"Landkreis"},"federalState":{"key":"09","name":"Bayern"}},{"name":"Hintere Gasse","postalCode":"91438","locality":"Bad Windsheim","municipality":{"key":"09575112","name":"Bad Windsheim, St","type":"Stadt"},"district":{"key":"09575","name":"Neustadt a.d.Aisch-Bad Windsheim","type":"Landkreis"},"federalState":{"key":"09","name":"Bayern"}},{"name":"Hirschengasse","postalCode":"91438","locality":"Bad Windsheim","municipality":{"key":"09575112","name":"Bad Windsheim, St","type":"Stadt"},"district":{"key":"09575","name":"Neustadt a.d.Aisch-Bad Windsheim","type":"Landkreis"},"federalState":{"key":"09","name":"Bayern"}},{"name":"Hofmannstr.","postalCode":"91438","locality":"Bad Windsheim","municipality":{"key":"09575112","name":"Bad Windsheim, St","type":"Stadt"},"district":{"key":"09575","name":"Neustadt a.d.Aisch-Bad Windsheim","type":"Landkreis"},"federalState":{"key":"09","name":"Bayern"}},{"name":"Holzmarkt","postalCode":"91438","locality":"Bad Windsheim","municipality":{"key":"09575112","name":"Bad Windsheim, St","type":"Stadt"},"district":{"key":"09575","name":"Neustadt a.d.Aisch-Bad Windsheim","type":"Landkreis"},"federalState":{"key":"09","name":"Bayern"}},{"name":"Humprechtsau","postalCode":"91438","locality":"Bad Windsheim","municipality":{"key":"09575112","name":"Bad Windsheim, St","type":"Stadt"},"district":{"key":"09575","name":"Neustadt a.d.Aisch-Bad Windsheim","type":"Landkreis"},"federalState":{"key":"09","name":"Bayern"}},{"name":"Husarengasse","postalCode":"91438","locality":"Bad Windsheim","municipality":{"key":"09575112","name":"Bad Windsheim, St","type":"Stadt"},"district":{"key":"09575","name":"Neustadt a.d.Aisch-Bad Windsheim","type":"Landkreis"},"federalState":{"key":"09","name":"Bayern"}},{"name":"Illesheimer Str.","postalCode":"91438","locality":"Bad Windsheim","municipality":{"key":"09575112","name":"Bad Windsheim, St","type":"Stadt"},"district":{"key":"09575","name":"Neustadt a.d.Aisch-Bad Windsheim","type":"Landkreis"},"federalState":{"key":"09","name":"Bayern"}},{"name":"Im Grünen Winkel","postalCode":"91438","locality":"Bad Windsheim","municipality":{"key":"09575112","name":"Bad Windsheim, St","type":"Stadt"},"district":{"key":"09575","name":"Neustadt a.d.Aisch-Bad Windsheim","type":"Landkreis"},"federalState":{"key":"09","name":"Bayern"}},{"name":"Im Häspelein","postalCode":"91438","locality":"Bad Windsheim","municipality":{"key":"09575112","name":"Bad Windsheim, St","type":"Stadt"},"district":{"key":"09575","name":"Neustadt a.d.Aisch-Bad Windsheim","type":"Landkreis"},"federalState":{"key":"09","name":"Bayern"}},{"name":"Im Johanniterwasen","postalCode":"91438","locality":"Bad Windsheim","municipality":{"key":"09575112","name":"Bad Windsheim, St","type":"Stadt"},"district":{"key":"09575","name":"Neustadt a.d.Aisch-Bad Windsheim","type":"Landkreis"},"federalState":{"key":"09","name":"Bayern"}},{"name":"Immelmannstr.","postalCode":"91438","locality":"Bad Windsheim","municipality":{"key":"09575112","name":"Bad Windsheim, St","type":"Stadt"},"district":{"key":"09575","name":"Neustadt a.d.Aisch-Bad Windsheim","type":"Landkreis"},"federalState":{"key":"09","name":"Bayern"}},{"name":"Im Rotfeld","postalCode":"91438","locality":"Bad Windsheim","municipality":{"key":"09575112","name":"Bad Windsheim, St","type":"Stadt"},"district":{"key":"09575","name":"Neustadt a.d.Aisch-Bad Windsheim","type":"Landkreis"},"federalState":{"key":"09","name":"Bayern"}},{"name":"In der Brunnenleite","postalCode":"91438","locality":"Bad Windsheim","municipality":{"key":"09575112","name":"Bad Windsheim, St","type":"Stadt"},"district":{"key":"09575","name":"Neustadt a.d.Aisch-Bad Windsheim","type":"Landkreis"},"federalState":{"key":"09","name":"Bayern"}},{"name":"Jaeckelgasse","postalCode":"91438","locality":"Bad Windsheim","municipality":{"key":"09575112","name":"Bad Windsheim, St","type":"Stadt"},"district":{"key":"09575","name":"Neustadt a.d.Aisch-Bad Windsheim","type":"Landkreis"},"federalState":{"key":"09","name":"Bayern"}},{"name":"Jahnstr.","postalCode":"91438","locality":"Bad Windsheim","municipality":{"key":"09575112","name":"Bad Windsheim, St","type":"Stadt"},"district":{"key":"09575","name":"Neustadt a.d.Aisch-Bad Windsheim","type":"Landkreis"},"federalState":{"key":"09","name":"Bayern"}},{"name":"Jakob-Mühlholzer-Str.","postalCode":"91438","locality":"Bad Windsheim","municipality":{"key":"09575112","name":"Bad Windsheim, St","type":"Stadt"},"district":{"key":"09575","name":"Neustadt a.d.Aisch-Bad Windsheim","type":"Landkreis"},"federalState":{"key":"09","name":"Bayern"}},{"name":"Johann-Adam-Delsenbach-Str.","postalCode":"91438","locality":"Bad Windsheim","municipality":{"key":"09575112","name":"Bad Windsheim, St","type":"Stadt"},"district":{"key":"09575","name":"Neustadt a.d.Aisch-Bad Windsheim","type":"Landkreis"},"federalState":{"key":"09","name":"Bayern"}},{"name":"Johannisgasse","postalCode":"91438","locality":"Bad Windsheim","municipality":{"key":"09575112","name":"Bad Windsheim, St","type":"Stadt"},"district":{"key":"09575","name":"Neustadt a.d.Aisch-Bad Windsheim","type":"Landkreis"},"federalState":{"key":"09","name":"Bayern"}},{"name":"Johanniterstr.","postalCode":"91438","locality":"Bad Windsheim","municipality":{"key":"09575112","name":"Bad Windsheim, St","type":"Stadt"},"district":{"key":"09575","name":"Neustadt a.d.Aisch-Bad Windsheim","type":"Landkreis"},"federalState":{"key":"09","name":"Bayern"}},{"name":"Johann-Michael-Krauss-Weg","postalCode":"91438","locality":"Bad Windsheim","municipality":{"key":"09575112","name":"Bad Windsheim, St","type":"Stadt"},"district":{"key":"09575","name":"Neustadt a.d.Aisch-Bad Windsheim","type":"Landkreis"},"federalState":{"key":"09","name":"Bayern"}},{"name":"Johann-Popp-Str.","postalCode":"91438","locality":"Bad Windsheim","municipality":{"key":"09575112","name":"Bad Windsheim, St","type":"Stadt"},"district":{"key":"09575","name":"Neustadt a.d.Aisch-Bad Windsheim","type":"Landkreis"},"federalState":{"key":"09","name":"Bayern"}},{"name":"Joseph-Otto-Kolb-Str.","postalCode":"91438","locality":"Bad Windsheim","municipality":{"key":"09575112","name":"Bad Windsheim, St","type":"Stadt"},"district":{"key":"09575","name":"Neustadt a.d.Aisch-Bad Windsheim","type":"Landkreis"},"federalState":{"key":"09","name":"Bayern"}},{"name":"Judenhöflein","postalCode":"91438","locality":"Bad Windsheim","municipality":{"key":"09575112","name":"Bad Windsheim, St","type":"Stadt"},"district":{"key":"09575","name":"Neustadt a.d.Aisch-Bad Windsheim","type":"Landkreis"},"federalState":{"key":"09","name":"Bayern"}},{"name":"Judenschulgässchen","postalCode":"91438","locality":"Bad Windsheim","municipality":{"key":"09575112","name":"Bad Windsheim, St","type":"Stadt"},"district":{"key":"09575","name":"Neustadt a.d.Aisch-Bad Windsheim","type":"Landkreis"},"federalState":{"key":"09","name":"Bayern"}},{"name":"Karl-Schirmer-Allee","postalCode":"91438","locality":"Bad Windsheim","municipality":{"key":"09575112","name":"Bad Windsheim, St","type":"Stadt"},"district":{"key":"09575","name":"Neustadt a.d.Aisch-Bad Windsheim","type":"Landkreis"},"federalState":{"key":"09","name":"Bayern"}},{"name":"Kastanienweg","postalCode":"91438","locality":"Bad Windsheim","municipality":{"key":"09575112","name":"Bad Windsheim, St","type":"Stadt"},"district":{"key":"09575","name":"Neustadt a.d.Aisch-Bad Windsheim","type":"Landkreis"},"federalState":{"key":"09","name":"Bayern"}},{"name":"Kegetstr.","postalCode":"91438","locality":"Bad Windsheim","municipality":{"key":"09575112","name":"Bad Windsheim, St","type":"Stadt"},"district":{"key":"09575","name":"Neustadt a.d.Aisch-Bad Windsheim","type":"Landkreis"},"federalState":{"key":"09","name":"Bayern"}},{"name":"Kehrenbergstr.","postalCode":"91438","locality":"Bad Windsheim","municipality":{"key":"09575112","name":"Bad Windsheim, St","type":"Stadt"},"district":{"key":"09575","name":"Neustadt a.d.Aisch-Bad Windsheim","type":"Landkreis"},"federalState":{"key":"09","name":"Bayern"}},{"name":"Kiliansbuckweg","postalCode":"91438","locality":"Bad Windsheim","municipality":{"key":"09575112","name":"Bad Windsheim, St","type":"Stadt"},"district":{"key":"09575","name":"Neustadt a.d.Aisch-Bad Windsheim","type":"Landkreis"},"federalState":{"key":"09","name":"Bayern"}},{"name":"Kirchgäßchen","postalCode":"91438","locality":"Bad Windsheim","municipality":{"key":"09575112","name":"Bad Windsheim, St","type":"Stadt"},"district":{"key":"09575","name":"Neustadt a.d.Aisch-Bad Windsheim","type":"Landkreis"},"federalState":{"key":"09","name":"Bayern"}},{"name":"Kirchgasse","postalCode":"91438","locality":"Bad Windsheim","municipality":{"key":"09575112","name":"Bad Windsheim, St","type":"Stadt"},"district":{"key":"09575","name":"Neustadt a.d.Aisch-Bad Windsheim","type":"Landkreis"},"federalState":{"key":"09","name":"Bayern"}},{"name":"Klosterplatz","postalCode":"91438","locality":"Bad Windsheim","municipality":{"key":"09575112","name":"Bad Windsheim, St","type":"Stadt"},"district":{"key":"09575","name":"Neustadt a.d.Aisch-Bad Windsheim","type":"Landkreis"},"federalState":{"key":"09","name":"Bayern"}},{"name":"Knörrgasse","postalCode":"91438","locality":"Bad Windsheim","municipality":{"key":"09575112","name":"Bad Windsheim, St","type":"Stadt"},"district":{"key":"09575","name":"Neustadt a.d.Aisch-Bad Windsheim","type":"Landkreis"},"federalState":{"key":"09","name":"Bayern"}},{"name":"Königsbergallee","postalCode":"91438","locality":"Bad Windsheim","municipality":{"key":"09575112","name":"Bad Windsheim, St","type":"Stadt"},"district":{"key":"09575","name":"Neustadt a.d.Aisch-Bad Windsheim","type":"Landkreis"},"federalState":{"key":"09","name":"Bayern"}},{"name":"Konrad-Förster-Gasse","postalCode":"91438","locality":"Bad Windsheim","municipality":{"key":"09575112","name":"Bad Windsheim, St","type":"Stadt"},"district":{"key":"09575","name":"Neustadt a.d.Aisch-Bad Windsheim","type":"Landkreis"},"federalState":{"key":"09","name":"Bayern"}},{"name":"Kornmarkt","postalCode":"91438","locality":"Bad Windsheim","municipality":{"key":"09575112","name":"Bad Windsheim, St","type":"Stadt"},"district":{"key":"09575","name":"Neustadt a.d.Aisch-Bad Windsheim","type":"Landkreis"},"federalState":{"key":"09","name":"Bayern"}},{"name":"Krämergasse","postalCode":"91438","locality":"Bad Windsheim","municipality":{"key":"09575112","name":"Bad Windsheim, St","type":"Stadt"},"district":{"key":"09575","name":"Neustadt a.d.Aisch-Bad Windsheim","type":"Landkreis"},"federalState":{"key":"09","name":"Bayern"}},{"name":"Külsheimer Str.","postalCode":"91438","locality":"Bad Windsheim","municipality":{"key":"09575112","name":"Bad Windsheim, St","type":"Stadt"},"district":{"key":"09575","name":"Neustadt a.d.Aisch-Bad Windsheim","type":"Landkreis"},"federalState":{"key":"09","name":"Bayern"}},{"name":"Külsheimer Weg","postalCode":"91438","locality":"Bad Windsheim","municipality":{"key":"09575112","name":"Bad Windsheim, St","type":"Stadt"},"district":{"key":"09575","name":"Neustadt a.d.Aisch-Bad Windsheim","type":"Landkreis"},"federalState":{"key":"09","name":"Bayern"}},{"name":"Kumpfgasse","postalCode":"91438","locality":"Bad Windsheim","municipality":{"key":"09575112","name":"Bad Windsheim, St","type":"Stadt"},"district":{"key":"09575","name":"Neustadt a.d.Aisch-Bad Windsheim","type":"Landkreis"},"federalState":{"key":"09","name":"Bayern"}},{"name":"Kurpark","postalCode":"91438","locality":"Bad Windsheim","municipality":{"key":"09575112","name":"Bad Windsheim, St","type":"Stadt"},"district":{"key":"09575","name":"Neustadt a.d.Aisch-Bad Windsheim","type":"Landkreis"},"federalState":{"key":"09","name":"Bayern"}},{"name":"Laubachweg","postalCode":"91438","locality":"Bad Windsheim","municipality":{"key":"09575112","name":"Bad Windsheim, St","type":"Stadt"},"district":{"key":"09575","name":"Neustadt a.d.Aisch-Bad Windsheim","type":"Landkreis"},"federalState":{"key":"09","name":"Bayern"}},{"name":"Leipziger Str.","postalCode":"91438","locality":"Bad Windsheim","municipality":{"key":"09575112","name":"Bad Windsheim, St","type":"Stadt"},"district":{"key":"09575","name":"Neustadt a.d.Aisch-Bad Windsheim","type":"Landkreis"},"federalState":{"key":"09","name":"Bayern"}},{"name":"Liegnitzer Str.","postalCode":"91438","locality":"Bad Windsheim","municipality":{"key":"09575112","name":"Bad Windsheim, St","type":"Stadt"},"district":{"key":"09575","name":"Neustadt a.d.Aisch-Bad Windsheim","type":"Landkreis"},"federalState":{"key":"09","name":"Bayern"}},{"name":"Lindenallee","postalCode":"91438","locality":"Bad Windsheim","municipality":{"key":"09575112","name":"Bad Windsheim, St","type":"Stadt"},"district":{"key":"09575","name":"Neustadt a.d.Aisch-Bad Windsheim","type":"Landkreis"},"federalState":{"key":"09","name":"Bayern"}},{"name":"Lindenweg","postalCode":"91438","locality":"Bad Windsheim","municipality":{"key":"09575112","name":"Bad Windsheim, St","type":"Stadt"},"district":{"key":"09575","name":"Neustadt a.d.Aisch-Bad Windsheim","type":"Landkreis"},"federalState":{"key":"09","name":"Bayern"}},{"name":"Lisztweg","postalCode":"91438","locality":"Bad Windsheim","municipality":{"key":"09575112","name":"Bad Windsheim, St","type":"Stadt"},"district":{"key":"09575","name":"Neustadt a.d.Aisch-Bad Windsheim","type":"Landkreis"},"federalState":{"key":"09","name":"Bayern"}},{"name":"Lucas-Cranach-Str.","postalCode":"91438","locality":"Bad Windsheim","municipality":{"key":"09575112","name":"Bad Windsheim, St","type":"Stadt"},"district":{"key":"09575","name":"Neustadt a.d.Aisch-Bad Windsheim","type":"Landkreis"},"federalState":{"key":"09","name":"Bayern"}},{"name":"Magdeburger Str.","postalCode":"91438","locality":"Bad Windsheim","municipality":{"key":"09575112","name":"Bad Windsheim, St","type":"Stadt"},"district":{"key":"09575","name":"Neustadt a.d.Aisch-Bad Windsheim","type":"Landkreis"},"federalState":{"key":"09","name":"Bayern"}},{"name":"Markgrafenplatz","postalCode":"91438","locality":"Bad Windsheim","municipality":{"key":"09575112","name":"Bad Windsheim, St","type":"Stadt"},"district":{"key":"09575","name":"Neustadt a.d.Aisch-Bad Windsheim","type":"Landkreis"},"federalState":{"key":"09","name":"Bayern"}},{"name":"Markgrafenstr.","postalCode":"91438","locality":"Bad Windsheim","municipality":{"key":"09575112","name":"Bad Windsheim, St","type":"Stadt"},"district":{"key":"09575","name":"Neustadt a.d.Aisch-Bad Windsheim","type":"Landkreis"},"federalState":{"key":"09","name":"Bayern"}},{"name":"Marktbergeler Str.","postalCode":"91438","locality":"Bad Windsheim","municipality":{"key":"09575112","name":"Bad Windsheim, St","type":"Stadt"},"district":{"key":"09575","name":"Neustadt a.d.Aisch-Bad Windsheim","type":"Landkreis"},"federalState":{"key":"09","name":"Bayern"}},{"name":"Matthäus-Merian-Str.","postalCode":"91438","locality":"Bad Windsheim","municipality":{"key":"09575112","name":"Bad Windsheim, St","type":"Stadt"},"district":{"key":"09575","name":"Neustadt a.d.Aisch-Bad Windsheim","type":"Landkreis"},"federalState":{"key":"09","name":"Bayern"}},{"name":"Max-Reger-Weg","postalCode":"91438","locality":"Bad Windsheim","municipality":{"key":"09575112","name":"Bad Windsheim, St","type":"Stadt"},"district":{"key":"09575","name":"Neustadt a.d.Aisch-Bad Windsheim","type":"Landkreis"},"federalState":{"key":"09","name":"Bayern"}},{"name":"Metzgergasse","postalCode":"91438","locality":"Bad Windsheim","municipality":{"key":"09575112","name":"Bad Windsheim, St","type":"Stadt"},"district":{"key":"09575","name":"Neustadt a.d.Aisch-Bad Windsheim","type":"Landkreis"},"federalState":{"key":"09","name":"Bayern"}},{"name":"Michael-Wolgemut-Str.","postalCode":"91438","locality":"Bad Windsheim","municipality":{"key":"09575112","name":"Bad Windsheim, St","type":"Stadt"},"district":{"key":"09575","name":"Neustadt a.d.Aisch-Bad Windsheim","type":"Landkreis"},"federalState":{"key":"09","name":"Bayern"}},{"name":"Mittelgasse","postalCode":"91438","locality":"Bad Windsheim","municipality":{"key":"09575112","name":"Bad Windsheim, St","type":"Stadt"},"district":{"key":"09575","name":"Neustadt a.d.Aisch-Bad Windsheim","type":"Landkreis"},"federalState":{"key":"09","name":"Bayern"}},{"name":"Mittelmühlweg","postalCode":"91438","locality":"Bad Windsheim","municipality":{"key":"09575112","name":"Bad Windsheim, St","type":"Stadt"},"district":{"key":"09575","name":"Neustadt a.d.Aisch-Bad Windsheim","type":"Landkreis"},"federalState":{"key":"09","name":"Bayern"}},{"name":"Mozartweg","postalCode":"91438","locality":"Bad Windsheim","municipality":{"key":"09575112","name":"Bad Windsheim, St","type":"Stadt"},"district":{"key":"09575","name":"Neustadt a.d.Aisch-Bad Windsheim","type":"Landkreis"},"federalState":{"key":"09","name":"Bayern"}},{"name":"Mühlgasse","postalCode":"91438","locality":"Bad Windsheim","municipality":{"key":"09575112","name":"Bad Windsheim, St","type":"Stadt"},"district":{"key":"09575","name":"Neustadt a.d.Aisch-Bad Windsheim","type":"Landkreis"},"federalState":{"key":"09","name":"Bayern"}},{"name":"Mühlholzergasse","postalCode":"91438","locality":"Bad Windsheim","municipality":{"key":"09575112","name":"Bad Windsheim, St","type":"Stadt"},"district":{"key":"09575","name":"Neustadt a.d.Aisch-Bad Windsheim","type":"Landkreis"},"federalState":{"key":"09","name":"Bayern"}},{"name":"Mühlweg","postalCode":"91438","locality":"Bad Windsheim","municipality":{"key":"09575112","name":"Bad Windsheim, St","type":"Stadt"},"district":{"key":"09575","name":"Neustadt a.d.Aisch-Bad Windsheim","type":"Landkreis"},"federalState":{"key":"09","name":"Bayern"}},{"name":"Nehrgasse","postalCode":"91438","locality":"Bad Windsheim","municipality":{"key":"09575112","name":"Bad Windsheim, St","type":"Stadt"},"district":{"key":"09575","name":"Neustadt a.d.Aisch-Bad Windsheim","type":"Landkreis"},"federalState":{"key":"09","name":"Bayern"}},{"name":"Nelkenweg","postalCode":"91438","locality":"Bad Windsheim","municipality":{"key":"09575112","name":"Bad Windsheim, St","type":"Stadt"},"district":{"key":"09575","name":"Neustadt a.d.Aisch-Bad Windsheim","type":"Landkreis"},"federalState":{"key":"09","name":"Bayern"}},{"name":"Neumühlenweg","postalCode":"91438","locality":"Bad Windsheim","municipality":{"key":"09575112","name":"Bad Windsheim, St","type":"Stadt"},"district":{"key":"09575","name":"Neustadt a.d.Aisch-Bad Windsheim","type":"Landkreis"},"federalState":{"key":"09","name":"Bayern"}},{"name":"Neungäßchen","postalCode":"91438","locality":"Bad Windsheim","municipality":{"key":"09575112","name":"Bad Windsheim, St","type":"Stadt"},"district":{"key":"09575","name":"Neustadt a.d.Aisch-Bad Windsheim","type":"Landkreis"},"federalState":{"key":"09","name":"Bayern"}},{"name":"Nicolaus-Scheller-Str.","postalCode":"91438","locality":"Bad Windsheim","municipality":{"key":"09575112","name":"Bad Windsheim, St","type":"Stadt"},"district":{"key":"09575","name":"Neustadt a.d.Aisch-Bad Windsheim","type":"Landkreis"},"federalState":{"key":"09","name":"Bayern"}},{"name":"Nordring","postalCode":"91438","locality":"Bad Windsheim","municipality":{"key":"09575112","name":"Bad Windsheim, St","type":"Stadt"},"district":{"key":"09575","name":"Neustadt a.d.Aisch-Bad Windsheim","type":"Landkreis"},"federalState":{"key":"09","name":"Bayern"}},{"name":"Nürnberger Str.","postalCode":"91438","locality":"Bad Windsheim","municipality":{"key":"09575112","name":"Bad Windsheim, St","type":"Stadt"},"district":{"key":"09575","name":"Neustadt a.d.Aisch-Bad Windsheim","type":"Landkreis"},"federalState":{"key":"09","name":"Bayern"}},{"name":"Obere Feuergasse","postalCode":"91438","locality":"Bad Windsheim","municipality":{"key":"09575112","name":"Bad Windsheim, St","type":"Stadt"},"district":{"key":"09575","name":"Neustadt a.d.Aisch-Bad Windsheim","type":"Landkreis"},"federalState":{"key":"09","name":"Bayern"}},{"name":"Obere Tiefstr.","postalCode":"91438","locality":"Bad Windsheim","municipality":{"key":"09575112","name":"Bad Windsheim, St","type":"Stadt"},"district":{"key":"09575","name":"Neustadt a.d.Aisch-Bad Windsheim","type":"Landkreis"},"federalState":{"key":"09","name":"Bayern"}},{"name":"Oberntiefer Str.","postalCode":"91438","locality":"Bad Windsheim","municipality":{"key":"09575112","name":"Bad Windsheim, St","type":"Stadt"},"district":{"key":"09575","name":"Neustadt a.d.Aisch-Bad Windsheim","type":"Landkreis"},"federalState":{"key":"09","name":"Bayern"}},{"name":"Oppelner Str.","postalCode":"91438","locality":"Bad Windsheim","municipality":{"key":"09575112","name":"Bad Windsheim, St","type":"Stadt"},"district":{"key":"09575","name":"Neustadt a.d.Aisch-Bad Windsheim","type":"Landkreis"},"federalState":{"key":"09","name":"Bayern"}},{"name":"Osingstr.","postalCode":"91438","locality":"Bad Windsheim","municipality":{"key":"09575112","name":"Bad Windsheim, St","type":"Stadt"},"district":{"key":"09575","name":"Neustadt a.d.Aisch-Bad Windsheim","type":"Landkreis"},"federalState":{"key":"09","name":"Bayern"}},{"name":"Ostpreußenstr.","postalCode":"91438","locality":"Bad Windsheim","municipality":{"key":"09575112","name":"Bad Windsheim, St","type":"Stadt"},"district":{"key":"09575","name":"Neustadt a.d.Aisch-Bad Windsheim","type":"Landkreis"},"federalState":{"key":"09","name":"Bayern"}},{"name":"Ostring","postalCode":"91438","locality":"Bad Windsheim","municipality":{"key":"09575112","name":"Bad Windsheim, St","type":"Stadt"},"district":{"key":"09575","name":"Neustadt a.d.Aisch-Bad Windsheim","type":"Landkreis"},"federalState":{"key":"09","name":"Bayern"}},{"name":"Otmar-Schaller-Allee","postalCode":"91438","locality":"Bad Windsheim","municipality":{"key":"09575112","name":"Bad Windsheim, St","type":"Stadt"},"district":{"key":"09575","name":"Neustadt a.d.Aisch-Bad Windsheim","type":"Landkreis"},"federalState":{"key":"09","name":"Bayern"}},{"name":"Ottenhofener Str.","postalCode":"91438","locality":"Bad Windsheim","municipality":{"key":"09575112","name":"Bad Windsheim, St","type":"Stadt"},"district":{"key":"09575","name":"Neustadt a.d.Aisch-Bad Windsheim","type":"Landkreis"},"federalState":{"key":"09","name":"Bayern"}},{"name":"Parkstr.","postalCode":"91438","locality":"Bad Windsheim","municipality":{"key":"09575112","name":"Bad Windsheim, St","type":"Stadt"},"district":{"key":"09575","name":"Neustadt a.d.Aisch-Bad Windsheim","type":"Landkreis"},"federalState":{"key":"09","name":"Bayern"}},{"name":"Parkweg","postalCode":"91438","locality":"Bad Windsheim","municipality":{"key":"09575112","name":"Bad Windsheim, St","type":"Stadt"},"district":{"key":"09575","name":"Neustadt a.d.Aisch-Bad Windsheim","type":"Landkreis"},"federalState":{"key":"09","name":"Bayern"}},{"name":"Pastoriusstr.","postalCode":"91438","locality":"Bad Windsheim","municipality":{"key":"09575112","name":"Bad Windsheim, St","type":"Stadt"},"district":{"key":"09575","name":"Neustadt a.d.Aisch-Bad Windsheim","type":"Landkreis"},"federalState":{"key":"09","name":"Bayern"}},{"name":"Paul-Gerhardt-Weg","postalCode":"91438","locality":"Bad Windsheim","municipality":{"key":"09575112","name":"Bad Windsheim, St","type":"Stadt"},"district":{"key":"09575","name":"Neustadt a.d.Aisch-Bad Windsheim","type":"Landkreis"},"federalState":{"key":"09","name":"Bayern"}},{"name":"Pfarrgasse","postalCode":"91438","locality":"Bad Windsheim","municipality":{"key":"09575112","name":"Bad Windsheim, St","type":"Stadt"},"district":{"key":"09575","name":"Neustadt a.d.Aisch-Bad Windsheim","type":"Landkreis"},"federalState":{"key":"09","name":"Bayern"}},{"name":"Pommernstr.","postalCode":"91438","locality":"Bad Windsheim","municipality":{"key":"09575112","name":"Bad Windsheim, St","type":"Stadt"},"district":{"key":"09575","name":"Neustadt a.d.Aisch-Bad Windsheim","type":"Landkreis"},"federalState":{"key":"09","name":"Bayern"}},{"name":"Potsdamer Str.","postalCode":"91438","locality":"Bad Windsheim","municipality":{"key":"09575112","name":"Bad Windsheim, St","type":"Stadt"},"district":{"key":"09575","name":"Neustadt a.d.Aisch-Bad Windsheim","type":"Landkreis"},"federalState":{"key":"09","name":"Bayern"}},{"name":"Raiffeisenstr.","postalCode":"91438","locality":"Bad Windsheim","municipality":{"key":"09575112","name":"Bad Windsheim, St","type":"Stadt"},"district":{"key":"09575","name":"Neustadt a.d.Aisch-Bad Windsheim","type":"Landkreis"},"federalState":{"key":"09","name":"Bayern"}},{"name":"Rehhof","postalCode":"91438","locality":"Bad Windsheim","municipality":{"key":"09575112","name":"Bad Windsheim, St","type":"Stadt"},"district":{"key":"09575","name":"Neustadt a.d.Aisch-Bad Windsheim","type":"Landkreis"},"federalState":{"key":"09","name":"Bayern"}},{"name":"Richthofenplatz","postalCode":"91438","locality":"Bad Windsheim","municipality":{"key":"09575112","name":"Bad Windsheim, St","type":"Stadt"},"district":{"key":"09575","name":"Neustadt a.d.Aisch-Bad Windsheim","type":"Landkreis"},"federalState":{"key":"09","name":"Bayern"}},{"name":"Richthofenstr.","postalCode":"91438","locality":"Bad Windsheim","municipality":{"key":"09575112","name":"Bad Windsheim, St","type":"Stadt"},"district":{"key":"09575","name":"Neustadt a.d.Aisch-Bad Windsheim","type":"Landkreis"},"federalState":{"key":"09","name":"Bayern"}},{"name":"Riemenschneidergasse","postalCode":"91438","locality":"Bad Windsheim","municipality":{"key":"09575112","name":"Bad Windsheim, St","type":"Stadt"},"district":{"key":"09575","name":"Neustadt a.d.Aisch-Bad Windsheim","type":"Landkreis"},"federalState":{"key":"09","name":"Bayern"}},{"name":"Rosenbergstr.","postalCode":"91438","locality":"Bad Windsheim","municipality":{"key":"09575112","name":"Bad Windsheim, St","type":"Stadt"},"district":{"key":"09575","name":"Neustadt a.d.Aisch-Bad Windsheim","type":"Landkreis"},"federalState":{"key":"09","name":"Bayern"}},{"name":"Rosenweg","postalCode":"91438","locality":"Bad Windsheim","municipality":{"key":"09575112","name":"Bad Windsheim, St","type":"Stadt"},"district":{"key":"09575","name":"Neustadt a.d.Aisch-Bad Windsheim","type":"Landkreis"},"federalState":{"key":"09","name":"Bayern"}},{"name":"Rothenburger Str.","postalCode":"91438","locality":"Bad Windsheim","municipality":{"key":"09575112","name":"Bad Windsheim, St","type":"Stadt"},"district":{"key":"09575","name":"Neustadt a.d.Aisch-Bad Windsheim","type":"Landkreis"},"federalState":{"key":"09","name":"Bayern"}},{"name":"Rüdigerplatz","postalCode":"91438","locality":"Bad Windsheim","municipality":{"key":"09575112","name":"Bad Windsheim, St","type":"Stadt"},"district":{"key":"09575","name":"Neustadt a.d.Aisch-Bad Windsheim","type":"Landkreis"},"federalState":{"key":"09","name":"Bayern"}},{"name":"Sandhüttengasse","postalCode":"91438","locality":"Bad Windsheim","municipality":{"key":"09575112","name":"Bad Windsheim, St","type":"Stadt"},"district":{"key":"09575","name":"Neustadt a.d.Aisch-Bad Windsheim","type":"Landkreis"},"federalState":{"key":"09","name":"Bayern"}},{"name":"Saubergasse","postalCode":"91438","locality":"Bad Windsheim","municipality":{"key":"09575112","name":"Bad Windsheim, St","type":"Stadt"},"district":{"key":"09575","name":"Neustadt a.d.Aisch-Bad Windsheim","type":"Landkreis"},"federalState":{"key":"09","name":"Bayern"}},{"name":"Sauberplatz","postalCode":"91438","locality":"Bad Windsheim","municipality":{"key":"09575112","name":"Bad Windsheim, St","type":"Stadt"},"district":{"key":"09575","name":"Neustadt a.d.Aisch-Bad Windsheim","type":"Landkreis"},"federalState":{"key":"09","name":"Bayern"}},{"name":"Schäfergasse","postalCode":"91438","locality":"Bad Windsheim","municipality":{"key":"09575112","name":"Bad Windsheim, St","type":"Stadt"},"district":{"key":"09575","name":"Neustadt a.d.Aisch-Bad Windsheim","type":"Landkreis"},"federalState":{"key":"09","name":"Bayern"}},{"name":"Schafgasse","postalCode":"91438","locality":"Bad Windsheim","municipality":{"key":"09575112","name":"Bad Windsheim, St","type":"Stadt"},"district":{"key":"09575","name":"Neustadt a.d.Aisch-Bad Windsheim","type":"Landkreis"},"federalState":{"key":"09","name":"Bayern"}},{"name":"Schellenfeld","postalCode":"91438","locality":"Bad Windsheim","municipality":{"key":"09575112","name":"Bad Windsheim, St","type":"Stadt"},"district":{"key":"09575","name":"Neustadt a.d.Aisch-Bad Windsheim","type":"Landkreis"},"federalState":{"key":"09","name":"Bayern"}},{"name":"Schimmelgasse","postalCode":"91438","locality":"Bad Windsheim","municipality":{"key":"09575112","name":"Bad Windsheim, St","type":"Stadt"},"district":{"key":"09575","name":"Neustadt a.d.Aisch-Bad Windsheim","type":"Landkreis"},"federalState":{"key":"09","name":"Bayern"}},{"name":"Schirmergasse","postalCode":"91438","locality":"Bad Windsheim","municipality":{"key":"09575112","name":"Bad Windsheim, St","type":"Stadt"},"district":{"key":"09575","name":"Neustadt a.d.Aisch-Bad Windsheim","type":"Landkreis"},"federalState":{"key":"09","name":"Bayern"}},{"name":"Schlesier Str.","postalCode":"91438","locality":"Bad Windsheim","municipality":{"key":"09575112","name":"Bad Windsheim, St","type":"Stadt"},"district":{"key":"09575","name":"Neustadt a.d.Aisch-Bad Windsheim","type":"Landkreis"},"federalState":{"key":"09","name":"Bayern"}},{"name":"Schloßbergallee","postalCode":"91438","locality":"Bad Windsheim","municipality":{"key":"09575112","name":"Bad Windsheim, St","type":"Stadt"},"district":{"key":"09575","name":"Neustadt a.d.Aisch-Bad Windsheim","type":"Landkreis"},"federalState":{"key":"09","name":"Bayern"}},{"name":"Schloßgasse","postalCode":"91438","locality":"Bad Windsheim","municipality":{"key":"09575112","name":"Bad Windsheim, St","type":"Stadt"},"district":{"key":"09575","name":"Neustadt a.d.Aisch-Bad Windsheim","type":"Landkreis"},"federalState":{"key":"09","name":"Bayern"}},{"name":"Schloßstr.","postalCode":"91438","locality":"Bad Windsheim","municipality":{"key":"09575112","name":"Bad Windsheim, St","type":"Stadt"},"district":{"key":"09575","name":"Neustadt a.d.Aisch-Bad Windsheim","type":"Landkreis"},"federalState":{"key":"09","name":"Bayern"}},{"name":"Schreckstr.","postalCode":"91438","locality":"Bad Windsheim","municipality":{"key":"09575112","name":"Bad Windsheim, St","type":"Stadt"},"district":{"key":"09575","name":"Neustadt a.d.Aisch-Bad Windsheim","type":"Landkreis"},"federalState":{"key":"09","name":"Bayern"}},{"name":"Schubertweg","postalCode":"91438","locality":"Bad Windsheim","municipality":{"key":"09575112","name":"Bad Windsheim, St","type":"Stadt"},"district":{"key":"09575","name":"Neustadt a.d.Aisch-Bad Windsheim","type":"Landkreis"},"federalState":{"key":"09","name":"Bayern"}},{"name":"Schulstr.","postalCode":"91438","locality":"Bad Windsheim","municipality":{"key":"09575112","name":"Bad Windsheim, St","type":"Stadt"},"district":{"key":"09575","name":"Neustadt a.d.Aisch-Bad Windsheim","type":"Landkreis"},"federalState":{"key":"09","name":"Bayern"}},{"name":"Schumberggasse","postalCode":"91438","locality":"Bad Windsheim","municipality":{"key":"09575112","name":"Bad Windsheim, St","type":"Stadt"},"district":{"key":"09575","name":"Neustadt a.d.Aisch-Bad Windsheim","type":"Landkreis"},"federalState":{"key":"09","name":"Bayern"}},{"name":"Schüsselmarkt","postalCode":"91438","locality":"Bad Windsheim","municipality":{"key":"09575112","name":"Bad Windsheim, St","type":"Stadt"},"district":{"key":"09575","name":"Neustadt a.d.Aisch-Bad Windsheim","type":"Landkreis"},"federalState":{"key":"09","name":"Bayern"}},{"name":"Schützenstr.","postalCode":"91438","locality":"Bad Windsheim","municipality":{"key":"09575112","name":"Bad Windsheim, St","type":"Stadt"},"district":{"key":"09575","name":"Neustadt a.d.Aisch-Bad Windsheim","type":"Landkreis"},"federalState":{"key":"09","name":"Bayern"}},{"name":"Schwalbengasse","postalCode":"91438","locality":"Bad Windsheim","municipality":{"key":"09575112","name":"Bad Windsheim, St","type":"Stadt"},"district":{"key":"09575","name":"Neustadt a.d.Aisch-Bad Windsheim","type":"Landkreis"},"federalState":{"key":"09","name":"Bayern"}},{"name":"Schwarzallee","postalCode":"91438","locality":"Bad Windsheim","municipality":{"key":"09575112","name":"Bad Windsheim, St","type":"Stadt"},"district":{"key":"09575","name":"Neustadt a.d.Aisch-Bad Windsheim","type":"Landkreis"},"federalState":{"key":"09","name":"Bayern"}},{"name":"Schwarzenberger Str.","postalCode":"91438","locality":"Bad Windsheim","municipality":{"key":"09575112","name":"Bad Windsheim, St","type":"Stadt"},"district":{"key":"09575","name":"Neustadt a.d.Aisch-Bad Windsheim","type":"Landkreis"},"federalState":{"key":"09","name":"Bayern"}},{"name":"Schwebheimer Str.","postalCode":"91438","locality":"Bad Windsheim","municipality":{"key":"09575112","name":"Bad Windsheim, St","type":"Stadt"},"district":{"key":"09575","name":"Neustadt a.d.Aisch-Bad Windsheim","type":"Landkreis"},"federalState":{"key":"09","name":"Bayern"}},{"name":"Schwedenwall","postalCode":"91438","locality":"Bad Windsheim","municipality":{"key":"09575112","name":"Bad Windsheim, St","type":"Stadt"},"district":{"key":"09575","name":"Neustadt a.d.Aisch-Bad Windsheim","type":"Landkreis"},"federalState":{"key":"09","name":"Bayern"}},{"name":"Schweriner Str.","postalCode":"91438","locality":"Bad Windsheim","municipality":{"key":"09575112","name":"Bad Windsheim, St","type":"Stadt"},"district":{"key":"09575","name":"Neustadt a.d.Aisch-Bad Windsheim","type":"Landkreis"},"federalState":{"key":"09","name":"Bayern"}},{"name":"Sebastian-Münster-Str.","postalCode":"91438","locality":"Bad Windsheim","municipality":{"key":"09575112","name":"Bad Windsheim, St","type":"Stadt"},"district":{"key":"09575","name":"Neustadt a.d.Aisch-Bad Windsheim","type":"Landkreis"},"federalState":{"key":"09","name":"Bayern"}},{"name":"Seebergstr.","postalCode":"91438","locality":"Bad Windsheim","municipality":{"key":"09575112","name":"Bad Windsheim, St","type":"Stadt"},"district":{"key":"09575","name":"Neustadt a.d.Aisch-Bad Windsheim","type":"Landkreis"},"federalState":{"key":"09","name":"Bayern"}},{"name":"Seegasse","postalCode":"91438","locality":"Bad Windsheim","municipality":{"key":"09575112","name":"Bad Windsheim, St","type":"Stadt"},"district":{"key":"09575","name":"Neustadt a.d.Aisch-Bad Windsheim","type":"Landkreis"},"federalState":{"key":"09","name":"Bayern"}},{"name":"Seemühlstr.","postalCode":"91438","locality":"Bad Windsheim","municipality":{"key":"09575112","name":"Bad Windsheim, St","type":"Stadt"},"district":{"key":"09575","name":"Neustadt a.d.Aisch-Bad Windsheim","type":"Landkreis"},"federalState":{"key":"09","name":"Bayern"}},{"name":"Seenheimer Str.","postalCode":"91438","locality":"Bad Windsheim","municipality":{"key":"09575112","name":"Bad Windsheim, St","type":"Stadt"},"district":{"key":"09575","name":"Neustadt a.d.Aisch-Bad Windsheim","type":"Landkreis"},"federalState":{"key":"09","name":"Bayern"}},{"name":"Seybothgasse","postalCode":"91438","locality":"Bad Windsheim","municipality":{"key":"09575112","name":"Bad Windsheim, St","type":"Stadt"},"district":{"key":"09575","name":"Neustadt a.d.Aisch-Bad Windsheim","type":"Landkreis"},"federalState":{"key":"09","name":"Bayern"}},{"name":"Siebenbürger Str.","postalCode":"91438","locality":"Bad Windsheim","municipality":{"key":"09575112","name":"Bad Windsheim, St","type":"Stadt"},"district":{"key":"09575","name":"Neustadt a.d.Aisch-Bad Windsheim","type":"Landkreis"},"federalState":{"key":"09","name":"Bayern"}},{"name":"Siedlungsstr.","postalCode":"91438","locality":"Bad Windsheim","municipality":{"key":"09575112","name":"Bad Windsheim, St","type":"Stadt"},"district":{"key":"09575","name":"Neustadt a.d.Aisch-Bad Windsheim","type":"Landkreis"},"federalState":{"key":"09","name":"Bayern"}},{"name":"Sonnenbergplatz","postalCode":"91438","locality":"Bad Windsheim","municipality":{"key":"09575112","name":"Bad Windsheim, St","type":"Stadt"},"district":{"key":"09575","name":"Neustadt a.d.Aisch-Bad Windsheim","type":"Landkreis"},"federalState":{"key":"09","name":"Bayern"}},{"name":"Sontheimer Str.","postalCode":"91438","locality":"Bad Windsheim","municipality":{"key":"09575112","name":"Bad Windsheim, St","type":"Stadt"},"district":{"key":"09575","name":"Neustadt a.d.Aisch-Bad Windsheim","type":"Landkreis"},"federalState":{"key":"09","name":"Bayern"}},{"name":"Spielbergstr.","postalCode":"91438","locality":"Bad Windsheim","municipality":{"key":"09575112","name":"Bad Windsheim, St","type":"Stadt"},"district":{"key":"09575","name":"Neustadt a.d.Aisch-Bad Windsheim","type":"Landkreis"},"federalState":{"key":"09","name":"Bayern"}},{"name":"Spitalgasse","postalCode":"91438","locality":"Bad Windsheim","municipality":{"key":"09575112","name":"Bad Windsheim, St","type":"Stadt"},"district":{"key":"09575","name":"Neustadt a.d.Aisch-Bad Windsheim","type":"Landkreis"},"federalState":{"key":"09","name":"Bayern"}},{"name":"Spitalwall","postalCode":"91438","locality":"Bad Windsheim","municipality":{"key":"09575112","name":"Bad Windsheim, St","type":"Stadt"},"district":{"key":"09575","name":"Neustadt a.d.Aisch-Bad Windsheim","type":"Landkreis"},"federalState":{"key":"09","name":"Bayern"}},{"name":"Sporthallenweg","postalCode":"91438","locality":"Bad Windsheim","municipality":{"key":"09575112","name":"Bad Windsheim, St","type":"Stadt"},"district":{"key":"09575","name":"Neustadt a.d.Aisch-Bad Windsheim","type":"Landkreis"},"federalState":{"key":"09","name":"Bayern"}},{"name":"Ständleinsweg","postalCode":"91438","locality":"Bad Windsheim","municipality":{"key":"09575112","name":"Bad Windsheim, St","type":"Stadt"},"district":{"key":"09575","name":"Neustadt a.d.Aisch-Bad Windsheim","type":"Landkreis"},"federalState":{"key":"09","name":"Bayern"}},{"name":"Stauchbrunnenweg","postalCode":"91438","locality":"Bad Windsheim","municipality":{"key":"09575112","name":"Bad Windsheim, St","type":"Stadt"},"district":{"key":"09575","name":"Neustadt a.d.Aisch-Bad Windsheim","type":"Landkreis"},"federalState":{"key":"09","name":"Bayern"}},{"name":"Steinacher Str.","postalCode":"91438","locality":"Bad Windsheim","municipality":{"key":"09575112","name":"Bad Windsheim, St","type":"Stadt"},"district":{"key":"09575","name":"Neustadt a.d.Aisch-Bad Windsheim","type":"Landkreis"},"federalState":{"key":"09","name":"Bayern"}},{"name":"Steinbruchweg","postalCode":"91438","locality":"Bad Windsheim","municipality":{"key":"09575112","name":"Bad Windsheim, St","type":"Stadt"},"district":{"key":"09575","name":"Neustadt a.d.Aisch-Bad Windsheim","type":"Landkreis"},"federalState":{"key":"09","name":"Bayern"}},{"name":"Steingasse","postalCode":"91438","locality":"Bad Windsheim","municipality":{"key":"09575112","name":"Bad Windsheim, St","type":"Stadt"},"district":{"key":"09575","name":"Neustadt a.d.Aisch-Bad Windsheim","type":"Landkreis"},"federalState":{"key":"09","name":"Bayern"}},{"name":"Stellergasse","postalCode":"91438","locality":"Bad Windsheim","municipality":{"key":"09575112","name":"Bad Windsheim, St","type":"Stadt"},"district":{"key":"09575","name":"Neustadt a.d.Aisch-Bad Windsheim","type":"Landkreis"},"federalState":{"key":"09","name":"Bayern"}},{"name":"Stettiner Str.","postalCode":"91438","locality":"Bad Windsheim","municipality":{"key":"09575112","name":"Bad Windsheim, St","type":"Stadt"},"district":{"key":"09575","name":"Neustadt a.d.Aisch-Bad Windsheim","type":"Landkreis"},"federalState":{"key":"09","name":"Bayern"}},{"name":"Strauchbrunnen","postalCode":"91438","locality":"Bad Windsheim","municipality":{"key":"09575112","name":"Bad Windsheim, St","type":"Stadt"},"district":{"key":"09575","name":"Neustadt a.d.Aisch-Bad Windsheim","type":"Landkreis"},"federalState":{"key":"09","name":"Bayern"}},{"name":"Strauchbrunnenweg","postalCode":"91438","locality":"Bad Windsheim","municipality":{"key":"09575112","name":"Bad Windsheim, St","type":"Stadt"},"district":{"key":"09575","name":"Neustadt a.d.Aisch-Bad Windsheim","type":"Landkreis"},"federalState":{"key":"09","name":"Bayern"}},{"name":"Sudetenstr.","postalCode":"91438","locality":"Bad Windsheim","municipality":{"key":"09575112","name":"Bad Windsheim, St","type":"Stadt"},"district":{"key":"09575","name":"Neustadt a.d.Aisch-Bad Windsheim","type":"Landkreis"},"federalState":{"key":"09","name":"Bayern"}},{"name":"Südring","postalCode":"91438","locality":"Bad Windsheim","municipality":{"key":"09575112","name":"Bad Windsheim, St","type":"Stadt"},"district":{"key":"09575","name":"Neustadt a.d.Aisch-Bad Windsheim","type":"Landkreis"},"federalState":{"key":"09","name":"Bayern"}},{"name":"Südtiroler Str.","postalCode":"91438","locality":"Bad Windsheim","municipality":{"key":"09575112","name":"Bad Windsheim, St","type":"Stadt"},"district":{"key":"09575","name":"Neustadt a.d.Aisch-Bad Windsheim","type":"Landkreis"},"federalState":{"key":"09","name":"Bayern"}},{"name":"Torweg","postalCode":"91438","locality":"Bad Windsheim","municipality":{"key":"09575112","name":"Bad Windsheim, St","type":"Stadt"},"district":{"key":"09575","name":"Neustadt a.d.Aisch-Bad Windsheim","type":"Landkreis"},"federalState":{"key":"09","name":"Bayern"}},{"name":"Tulpenweg","postalCode":"91438","locality":"Bad Windsheim","municipality":{"key":"09575112","name":"Bad Windsheim, St","type":"Stadt"},"district":{"key":"09575","name":"Neustadt a.d.Aisch-Bad Windsheim","type":"Landkreis"},"federalState":{"key":"09","name":"Bayern"}},{"name":"Udetstr.","postalCode":"91438","locality":"Bad Windsheim","municipality":{"key":"09575112","name":"Bad Windsheim, St","type":"Stadt"},"district":{"key":"09575","name":"Neustadt a.d.Aisch-Bad Windsheim","type":"Landkreis"},"federalState":{"key":"09","name":"Bayern"}},{"name":"Uffenheimer Str.","postalCode":"91438","locality":"Bad Windsheim","municipality":{"key":"09575112","name":"Bad Windsheim, St","type":"Stadt"},"district":{"key":"09575","name":"Neustadt a.d.Aisch-Bad Windsheim","type":"Landkreis"},"federalState":{"key":"09","name":"Bayern"}},{"name":"Ulmenweg","postalCode":"91438","locality":"Bad Windsheim","municipality":{"key":"09575112","name":"Bad Windsheim, St","type":"Stadt"},"district":{"key":"09575","name":"Neustadt a.d.Aisch-Bad Windsheim","type":"Landkreis"},"federalState":{"key":"09","name":"Bayern"}},{"name":"Untere Feuergasse","postalCode":"91438","locality":"Bad Windsheim","municipality":{"key":"09575112","name":"Bad Windsheim, St","type":"Stadt"},"district":{"key":"09575","name":"Neustadt a.d.Aisch-Bad Windsheim","type":"Landkreis"},"federalState":{"key":"09","name":"Bayern"}},{"name":"Unterntiefer Weg","postalCode":"91438","locality":"Bad Windsheim","municipality":{"key":"09575112","name":"Bad Windsheim, St","type":"Stadt"},"district":{"key":"09575","name":"Neustadt a.d.Aisch-Bad Windsheim","type":"Landkreis"},"federalState":{"key":"09","name":"Bayern"}},{"name":"Urfersheimer Str.","postalCode":"91438","locality":"Bad Windsheim","municipality":{"key":"09575112","name":"Bad Windsheim, St","type":"Stadt"},"district":{"key":"09575","name":"Neustadt a.d.Aisch-Bad Windsheim","type":"Landkreis"},"federalState":{"key":"09","name":"Bayern"}},{"name":"Wagnergasse","postalCode":"91438","locality":"Bad Windsheim","municipality":{"key":"09575112","name":"Bad Windsheim, St","type":"Stadt"},"district":{"key":"09575","name":"Neustadt a.d.Aisch-Bad Windsheim","type":"Landkreis"},"federalState":{"key":"09","name":"Bayern"}},{"name":"Waldstr.","postalCode":"91438","locality":"Bad Windsheim","municipality":{"key":"09575112","name":"Bad Windsheim, St","type":"Stadt"},"district":{"key":"09575","name":"Neustadt a.d.Aisch-Bad Windsheim","type":"Landkreis"},"federalState":{"key":"09","name":"Bayern"}},{"name":"Walkmühle","postalCode":"91438","locality":"Bad Windsheim","municipality":{"key":"09575112","name":"Bad Windsheim, St","type":"Stadt"},"district":{"key":"09575","name":"Neustadt a.d.Aisch-Bad Windsheim","type":"Landkreis"},"federalState":{"key":"09","name":"Bayern"}},{"name":"Walkmühlweg","postalCode":"91438","locality":"Bad Windsheim","municipality":{"key":"09575112","name":"Bad Windsheim, St","type":"Stadt"},"district":{"key":"09575","name":"Neustadt a.d.Aisch-Bad Windsheim","type":"Landkreis"},"federalState":{"key":"09","name":"Bayern"}},{"name":"Wallwiesenstr.","postalCode":"91438","locality":"Bad Windsheim","municipality":{"key":"09575112","name":"Bad Windsheim, St","type":"Stadt"},"district":{"key":"09575","name":"Neustadt a.d.Aisch-Bad Windsheim","type":"Landkreis"},"federalState":{"key":"09","name":"Bayern"}},{"name":"Wassergasse","postalCode":"91438","locality":"Bad Windsheim","municipality":{"key":"09575112","name":"Bad Windsheim, St","type":"Stadt"},"district":{"key":"09575","name":"Neustadt a.d.Aisch-Bad Windsheim","type":"Landkreis"},"federalState":{"key":"09","name":"Bayern"}},{"name":"Weinbergstr.","postalCode":"91438","locality":"Bad Windsheim","municipality":{"key":"09575112","name":"Bad Windsheim, St","type":"Stadt"},"district":{"key":"09575","name":"Neustadt a.d.Aisch-Bad Windsheim","type":"Landkreis"},"federalState":{"key":"09","name":"Bayern"}},{"name":"Weinmarkt","postalCode":"91438","locality":"Bad Windsheim","municipality":{"key":"09575112","name":"Bad Windsheim, St","type":"Stadt"},"district":{"key":"09575","name":"Neustadt a.d.Aisch-Bad Windsheim","type":"Landkreis"},"federalState":{"key":"09","name":"Bayern"}},{"name":"Weinturmallee","postalCode":"91438","locality":"Bad Windsheim","municipality":{"key":"09575112","name":"Bad Windsheim, St","type":"Stadt"},"district":{"key":"09575","name":"Neustadt a.d.Aisch-Bad Windsheim","type":"Landkreis"},"federalState":{"key":"09","name":"Bayern"}},{"name":"Weinturmstr.","postalCode":"91438","locality":"Bad Windsheim","municipality":{"key":"09575112","name":"Bad Windsheim, St","type":"Stadt"},"district":{"key":"09575","name":"Neustadt a.d.Aisch-Bad Windsheim","type":"Landkreis"},"federalState":{"key":"09","name":"Bayern"}},{"name":"Weinturmweg","postalCode":"91438","locality":"Bad Windsheim","municipality":{"key":"09575112","name":"Bad Windsheim, St","type":"Stadt"},"district":{"key":"09575","name":"Neustadt a.d.Aisch-Bad Windsheim","type":"Landkreis"},"federalState":{"key":"09","name":"Bayern"}},{"name":"Westheimer Str.","postalCode":"91438","locality":"Bad Windsheim","municipality":{"key":"09575112","name":"Bad Windsheim, St","type":"Stadt"},"district":{"key":"09575","name":"Neustadt a.d.Aisch-Bad Windsheim","type":"Landkreis"},"federalState":{"key":"09","name":"Bayern"}},{"name":"Westpreußenstr.","postalCode":"91438","locality":"Bad Windsheim","municipality":{"key":"09575112","name":"Bad Windsheim, St","type":"Stadt"},"district":{"key":"09575","name":"Neustadt a.d.Aisch-Bad Windsheim","type":"Landkreis"},"federalState":{"key":"09","name":"Bayern"}},{"name":"Westring","postalCode":"91438","locality":"Bad Windsheim","municipality":{"key":"09575112","name":"Bad Windsheim, St","type":"Stadt"},"district":{"key":"09575","name":"Neustadt a.d.Aisch-Bad Windsheim","type":"Landkreis"},"federalState":{"key":"09","name":"Bayern"}},{"name":"Weyhknechtstr.","postalCode":"91438","locality":"Bad Windsheim","municipality":{"key":"09575112","name":"Bad Windsheim, St","type":"Stadt"},"district":{"key":"09575","name":"Neustadt a.d.Aisch-Bad Windsheim","type":"Landkreis"},"federalState":{"key":"09","name":"Bayern"}},{"name":"Wichernweg","postalCode":"91438","locality":"Bad Windsheim","municipality":{"key":"09575112","name":"Bad Windsheim, St","type":"Stadt"},"district":{"key":"09575","name":"Neustadt a.d.Aisch-Bad Windsheim","type":"Landkreis"},"federalState":{"key":"09","name":"Bayern"}},{"name":"Wiebelsheim","postalCode":"91438","locality":"Bad Windsheim","municipality":{"key":"09575112","name":"Bad Windsheim, St","type":"Stadt"},"district":{"key":"09575","name":"Neustadt a.d.Aisch-Bad Windsheim","type":"Landkreis"},"federalState":{"key":"09","name":"Bayern"}},{"name":"Wiebelsheimer Str.","postalCode":"91438","locality":"Bad Windsheim","municipality":{"key":"09575112","name":"Bad Windsheim, St","type":"Stadt"},"district":{"key":"09575","name":"Neustadt a.d.Aisch-Bad Windsheim","type":"Landkreis"},"federalState":{"key":"09","name":"Bayern"}},{"name":"Wiesenweg","postalCode":"91438","locality":"Bad Windsheim","municipality":{"key":"09575112","name":"Bad Windsheim, St","type":"Stadt"},"district":{"key":"09575","name":"Neustadt a.d.Aisch-Bad Windsheim","type":"Landkreis"},"federalState":{"key":"09","name":"Bayern"}},{"name":"Wilhelm-Löhe-Str.","postalCode":"91438","locality":"Bad Windsheim","municipality":{"key":"09575112","name":"Bad Windsheim, St","type":"Stadt"},"district":{"key":"09575","name":"Neustadt a.d.Aisch-Bad Windsheim","type":"Landkreis"},"federalState":{"key":"09","name":"Bayern"}},{"name":"Wittenberger Str.","postalCode":"91438","locality":"Bad Windsheim","municipality":{"key":"09575112","name":"Bad Windsheim, St","type":"Stadt"},"district":{"key":"09575","name":"Neustadt a.d.Aisch-Bad Windsheim","type":"Landkreis"},"federalState":{"key":"09","name":"Bayern"}},{"name":"Wolfsschlucht","postalCode":"91438","locality":"Bad Windsheim","municipality":{"key":"09575112","name":"Bad Windsheim, St","type":"Stadt"},"district":{"key":"09575","name":"Neustadt a.d.Aisch-Bad Windsheim","type":"Landkreis"},"federalState":{"key":"09","name":"Bayern"}},{"name":"Zehntgasse","postalCode":"91438","locality":"Bad Windsheim","municipality":{"key":"09575112","name":"Bad Windsheim, St","type":"Stadt"},"district":{"key":"09575","name":"Neustadt a.d.Aisch-Bad Windsheim","type":"Landkreis"},"federalState":{"key":"09","name":"Bayern"}},{"name":"Zeughausstr.","postalCode":"91438","locality":"Bad Windsheim","municipality":{"key":"09575112","name":"Bad Windsheim, St","type":"Stadt"},"district":{"key":"09575","name":"Neustadt a.d.Aisch-Bad Windsheim","type":"Landkreis"},"federalState":{"key":"09","name":"Bayern"}},{"name":"Ziegelhüttenweg","postalCode":"91438","locality":"Bad Windsheim","municipality":{"key":"09575112","name":"Bad Windsheim, St","type":"Stadt"},"district":{"key":"09575","name":"Neustadt a.d.Aisch-Bad Windsheim","type":"Landkreis"},"federalState":{"key":"09","name":"Bayern"}},{"name":"Zum Adonisröschen","postalCode":"91438","locality":"Bad Windsheim","municipality":{"key":"09575112","name":"Bad Windsheim, St","type":"Stadt"},"district":{"key":"09575","name":"Neustadt a.d.Aisch-Bad Windsheim","type":"Landkreis"},"federalState":{"key":"09","name":"Bayern"}},{"name":"Zum Wildmeisterhaus","postalCode":"91438","locality":"Bad Windsheim","municipality":{"key":"09575112","name":"Bad Windsheim, St","type":"Stadt"},"district":{"key":"09575","name":"Neustadt a.d.Aisch-Bad Windsheim","type":"Landkreis"},"federalState":{"key":"09","name":"Bayern"}},{"name":"Zur Solequelle","postalCode":"91438","locality":"Bad Windsheim","municipality":{"key":"09575112","name":"Bad Windsheim, St","type":"Stadt"},"district":{"key":"09575","name":"Neustadt a.d.Aisch-Bad Windsheim","type":"Landkreis"},"federalState":{"key":"09","name":"Bayern"}},{"name":"Über'm Kugelfang","postalCode":"91438","locality":"Bad Windsheim","municipality":{"key":"09575112","name":"Bad Windsheim, St","type":"Stadt"},"district":{"key":"09575","name":"Neustadt a.d.Aisch-Bad Windsheim","type":"Landkreis"},"federalState":{"key":"09","name":"Bayern"}},]