[{"name":"Gartenstr.","postalCode":"56814","locality":"Wirfus","municipality":{"key":"07135090","name":"Wirfus","type":"Kreisangehörige_Gemeinde"},"district":{"key":"07135","name":"Cochem-Zell","type":"Landkreis"},"federalState":{"key":"07","name":"Rheinland-Pfalz"}},{"name":"Hauptstr.","postalCode":"56814","locality":"Wirfus","municipality":{"key":"07135090","name":"Wirfus","type":"Kreisangehörige_Gemeinde"},"district":{"key":"07135","name":"Cochem-Zell","type":"Landkreis"},"federalState":{"key":"07","name":"Rheinland-Pfalz"}},{"name":"Hohlstr.","postalCode":"56814","locality":"Wirfus","municipality":{"key":"07135090","name":"Wirfus","type":"Kreisangehörige_Gemeinde"},"district":{"key":"07135","name":"Cochem-Zell","type":"Landkreis"},"federalState":{"key":"07","name":"Rheinland-Pfalz"}},{"name":"Illericher Str.","postalCode":"56814","locality":"Wirfus","municipality":{"key":"07135090","name":"Wirfus","type":"Kreisangehörige_Gemeinde"},"district":{"key":"07135","name":"Cochem-Zell","type":"Landkreis"},"federalState":{"key":"07","name":"Rheinland-Pfalz"}},{"name":"Johannes-Junglas-Str.","postalCode":"56814","locality":"Wirfus","municipality":{"key":"07135090","name":"Wirfus","type":"Kreisangehörige_Gemeinde"},"district":{"key":"07135","name":"Cochem-Zell","type":"Landkreis"},"federalState":{"key":"07","name":"Rheinland-Pfalz"}},{"name":"Kirchstr.","postalCode":"56814","locality":"Wirfus","municipality":{"key":"07135090","name":"Wirfus","type":"Kreisangehörige_Gemeinde"},"district":{"key":"07135","name":"Cochem-Zell","type":"Landkreis"},"federalState":{"key":"07","name":"Rheinland-Pfalz"}},{"name":"Rosentaler Weg","postalCode":"56814","locality":"Wirfus","municipality":{"key":"07135090","name":"Wirfus","type":"Kreisangehörige_Gemeinde"},"district":{"key":"07135","name":"Cochem-Zell","type":"Landkreis"},"federalState":{"key":"07","name":"Rheinland-Pfalz"}},{"name":"Zwerstück","postalCode":"56814","locality":"Wirfus","municipality":{"key":"07135090","name":"Wirfus","type":"Kreisangehörige_Gemeinde"},"district":{"key":"07135","name":"Cochem-Zell","type":"Landkreis"},"federalState":{"key":"07","name":"Rheinland-Pfalz"}},]