[{"name":"Am Hochbrunnen","postalCode":"89431","locality":"Bächingen a.d.Brenz","municipality":{"key":"09773113","name":"Bächingen a.d.Brenz","type":"Kreisangehörige_Gemeinde"},"district":{"key":"09773","name":"Dillingen a.d.Donau","type":"Landkreis"},"federalState":{"key":"09","name":"Bayern"}},{"name":"Amselweg","postalCode":"89431","locality":"Bächingen a.d.Brenz","municipality":{"key":"09773113","name":"Bächingen a.d.Brenz","type":"Kreisangehörige_Gemeinde"},"district":{"key":"09773","name":"Dillingen a.d.Donau","type":"Landkreis"},"federalState":{"key":"09","name":"Bayern"}},{"name":"Am Weiher","postalCode":"89431","locality":"Bächingen a.d.Brenz","municipality":{"key":"09773113","name":"Bächingen a.d.Brenz","type":"Kreisangehörige_Gemeinde"},"district":{"key":"09773","name":"Dillingen a.d.Donau","type":"Landkreis"},"federalState":{"key":"09","name":"Bayern"}},{"name":"Bächinger Str.","postalCode":"89431","locality":"Bächingen a.d.Brenz","municipality":{"key":"09773113","name":"Bächingen a.d.Brenz","type":"Kreisangehörige_Gemeinde"},"district":{"key":"09773","name":"Dillingen a.d.Donau","type":"Landkreis"},"federalState":{"key":"09","name":"Bayern"}},{"name":"Bahnhofstr.","postalCode":"89431","locality":"Bächingen a.d.Brenz","municipality":{"key":"09773113","name":"Bächingen a.d.Brenz","type":"Kreisangehörige_Gemeinde"},"district":{"key":"09773","name":"Dillingen a.d.Donau","type":"Landkreis"},"federalState":{"key":"09","name":"Bayern"}},{"name":"Blumenweg","postalCode":"89431","locality":"Bächingen a.d.Brenz","municipality":{"key":"09773113","name":"Bächingen a.d.Brenz","type":"Kreisangehörige_Gemeinde"},"district":{"key":"09773","name":"Dillingen a.d.Donau","type":"Landkreis"},"federalState":{"key":"09","name":"Bayern"}},{"name":"Brenzackerweg","postalCode":"89431","locality":"Bächingen a.d.Brenz","municipality":{"key":"09773113","name":"Bächingen a.d.Brenz","type":"Kreisangehörige_Gemeinde"},"district":{"key":"09773","name":"Dillingen a.d.Donau","type":"Landkreis"},"federalState":{"key":"09","name":"Bayern"}},{"name":"Brenzstr.","postalCode":"89431","locality":"Bächingen a.d.Brenz","municipality":{"key":"09773113","name":"Bächingen a.d.Brenz","type":"Kreisangehörige_Gemeinde"},"district":{"key":"09773","name":"Dillingen a.d.Donau","type":"Landkreis"},"federalState":{"key":"09","name":"Bayern"}},{"name":"Buchenlandstr.","postalCode":"89431","locality":"Bächingen a.d.Brenz","municipality":{"key":"09773113","name":"Bächingen a.d.Brenz","type":"Kreisangehörige_Gemeinde"},"district":{"key":"09773","name":"Dillingen a.d.Donau","type":"Landkreis"},"federalState":{"key":"09","name":"Bayern"}},{"name":"Canisiusstr.","postalCode":"89407","locality":"Dillingen a.d.Donau","municipality":{"key":"09773125","name":"Dillingen a.d.Donau, GKSt","type":"Große_Kreisstadt"},"district":{"key":"09773","name":"Dillingen a.d.Donau","type":"Landkreis"},"federalState":{"key":"09","name":"Bayern"}},{"name":"Carl-Benz-Str.","postalCode":"89407","locality":"Dillingen a.d.Donau","municipality":{"key":"09773125","name":"Dillingen a.d.Donau, GKSt","type":"Große_Kreisstadt"},"district":{"key":"09773","name":"Dillingen a.d.Donau","type":"Landkreis"},"federalState":{"key":"09","name":"Bayern"}},{"name":"Christastr.","postalCode":"89407","locality":"Dillingen a.d.Donau","municipality":{"key":"09773125","name":"Dillingen a.d.Donau, GKSt","type":"Große_Kreisstadt"},"district":{"key":"09773","name":"Dillingen a.d.Donau","type":"Landkreis"},"federalState":{"key":"09","name":"Bayern"}},{"name":"Christgartenstr.","postalCode":"89407","locality":"Dillingen a.d.Donau","municipality":{"key":"09773125","name":"Dillingen a.d.Donau, GKSt","type":"Große_Kreisstadt"},"district":{"key":"09773","name":"Dillingen a.d.Donau","type":"Landkreis"},"federalState":{"key":"09","name":"Bayern"}},{"name":"Christoph-von-Schmid-Str.","postalCode":"89407","locality":"Dillingen a.d.Donau","municipality":{"key":"09773125","name":"Dillingen a.d.Donau, GKSt","type":"Große_Kreisstadt"},"district":{"key":"09773","name":"Dillingen a.d.Donau","type":"Landkreis"},"federalState":{"key":"09","name":"Bayern"}},{"name":"Drosselweg","postalCode":"89431","locality":"Bächingen a.d.Brenz","municipality":{"key":"09773113","name":"Bächingen a.d.Brenz","type":"Kreisangehörige_Gemeinde"},"district":{"key":"09773","name":"Dillingen a.d.Donau","type":"Landkreis"},"federalState":{"key":"09","name":"Bayern"}},{"name":"Eidechsenweg","postalCode":"89431","locality":"Bächingen a.d.Brenz","municipality":{"key":"09773113","name":"Bächingen a.d.Brenz","type":"Kreisangehörige_Gemeinde"},"district":{"key":"09773","name":"Dillingen a.d.Donau","type":"Landkreis"},"federalState":{"key":"09","name":"Bayern"}},{"name":"Einhößstr.","postalCode":"89431","locality":"Bächingen a.d.Brenz","municipality":{"key":"09773113","name":"Bächingen a.d.Brenz","type":"Kreisangehörige_Gemeinde"},"district":{"key":"09773","name":"Dillingen a.d.Donau","type":"Landkreis"},"federalState":{"key":"09","name":"Bayern"}},{"name":"Finkenweg","postalCode":"89431","locality":"Bächingen a.d.Brenz","municipality":{"key":"09773113","name":"Bächingen a.d.Brenz","type":"Kreisangehörige_Gemeinde"},"district":{"key":"09773","name":"Dillingen a.d.Donau","type":"Landkreis"},"federalState":{"key":"09","name":"Bayern"}},{"name":"Freiherr-von-Süßkind-Str.","postalCode":"89431","locality":"Bächingen a.d.Brenz","municipality":{"key":"09773113","name":"Bächingen a.d.Brenz","type":"Kreisangehörige_Gemeinde"},"district":{"key":"09773","name":"Dillingen a.d.Donau","type":"Landkreis"},"federalState":{"key":"09","name":"Bayern"}},{"name":"Frühlingsweg","postalCode":"89431","locality":"Bächingen a.d.Brenz","municipality":{"key":"09773113","name":"Bächingen a.d.Brenz","type":"Kreisangehörige_Gemeinde"},"district":{"key":"09773","name":"Dillingen a.d.Donau","type":"Landkreis"},"federalState":{"key":"09","name":"Bayern"}},{"name":"Gartenstr.","postalCode":"89431","locality":"Bächingen a.d.Brenz","municipality":{"key":"09773113","name":"Bächingen a.d.Brenz","type":"Kreisangehörige_Gemeinde"},"district":{"key":"09773","name":"Dillingen a.d.Donau","type":"Landkreis"},"federalState":{"key":"09","name":"Bayern"}},{"name":"Gewerbestr.","postalCode":"89431","locality":"Bächingen a.d.Brenz","municipality":{"key":"09773113","name":"Bächingen a.d.Brenz","type":"Kreisangehörige_Gemeinde"},"district":{"key":"09773","name":"Dillingen a.d.Donau","type":"Landkreis"},"federalState":{"key":"09","name":"Bayern"}},{"name":"Grenzweg","postalCode":"89431","locality":"Bächingen a.d.Brenz","municipality":{"key":"09773113","name":"Bächingen a.d.Brenz","type":"Kreisangehörige_Gemeinde"},"district":{"key":"09773","name":"Dillingen a.d.Donau","type":"Landkreis"},"federalState":{"key":"09","name":"Bayern"}},{"name":"Gundelfinger Str.","postalCode":"89431","locality":"Bächingen a.d.Brenz","municipality":{"key":"09773113","name":"Bächingen a.d.Brenz","type":"Kreisangehörige_Gemeinde"},"district":{"key":"09773","name":"Dillingen a.d.Donau","type":"Landkreis"},"federalState":{"key":"09","name":"Bayern"}},{"name":"Günzburger Str.","postalCode":"89431","locality":"Bächingen a.d.Brenz","municipality":{"key":"09773113","name":"Bächingen a.d.Brenz","type":"Kreisangehörige_Gemeinde"},"district":{"key":"09773","name":"Dillingen a.d.Donau","type":"Landkreis"},"federalState":{"key":"09","name":"Bayern"}},{"name":"Hauptstr.","postalCode":"89431","locality":"Bächingen a.d.Brenz","municipality":{"key":"09773113","name":"Bächingen a.d.Brenz","type":"Kreisangehörige_Gemeinde"},"district":{"key":"09773","name":"Dillingen a.d.Donau","type":"Landkreis"},"federalState":{"key":"09","name":"Bayern"}},{"name":"Ignaz-Deniffel-Weg","postalCode":"89407","locality":"Dillingen a.d.Donau","municipality":{"key":"09773125","name":"Dillingen a.d.Donau, GKSt","type":"Große_Kreisstadt"},"district":{"key":"09773","name":"Dillingen a.d.Donau","type":"Landkreis"},"federalState":{"key":"09","name":"Bayern"}},{"name":"Ignaz-Sandter-Weg","postalCode":"89407","locality":"Dillingen a.d.Donau","municipality":{"key":"09773125","name":"Dillingen a.d.Donau, GKSt","type":"Große_Kreisstadt"},"district":{"key":"09773","name":"Dillingen a.d.Donau","type":"Landkreis"},"federalState":{"key":"09","name":"Bayern"}},{"name":"Im Wickenpoint","postalCode":"89407","locality":"Dillingen a.d.Donau","municipality":{"key":"09773125","name":"Dillingen a.d.Donau, GKSt","type":"Große_Kreisstadt"},"district":{"key":"09773","name":"Dillingen a.d.Donau","type":"Landkreis"},"federalState":{"key":"09","name":"Bayern"}},{"name":"Industriestr.","postalCode":"89407","locality":"Dillingen a.d.Donau","municipality":{"key":"09773125","name":"Dillingen a.d.Donau, GKSt","type":"Große_Kreisstadt"},"district":{"key":"09773","name":"Dillingen a.d.Donau","type":"Landkreis"},"federalState":{"key":"09","name":"Bayern"}},{"name":"Jägerstr.","postalCode":"89407","locality":"Dillingen a.d.Donau","municipality":{"key":"09773125","name":"Dillingen a.d.Donau, GKSt","type":"Große_Kreisstadt"},"district":{"key":"09773","name":"Dillingen a.d.Donau","type":"Landkreis"},"federalState":{"key":"09","name":"Bayern"}},{"name":"Jahnstr.","postalCode":"89407","locality":"Dillingen a.d.Donau","municipality":{"key":"09773125","name":"Dillingen a.d.Donau, GKSt","type":"Große_Kreisstadt"},"district":{"key":"09773","name":"Dillingen a.d.Donau","type":"Landkreis"},"federalState":{"key":"09","name":"Bayern"}},{"name":"Jakobstal","postalCode":"89407","locality":"Dillingen a.d.Donau","municipality":{"key":"09773125","name":"Dillingen a.d.Donau, GKSt","type":"Große_Kreisstadt"},"district":{"key":"09773","name":"Dillingen a.d.Donau","type":"Landkreis"},"federalState":{"key":"09","name":"Bayern"}},{"name":"Johannes-Scheifele-Str.","postalCode":"89407","locality":"Dillingen a.d.Donau","municipality":{"key":"09773125","name":"Dillingen a.d.Donau, GKSt","type":"Große_Kreisstadt"},"district":{"key":"09773","name":"Dillingen a.d.Donau","type":"Landkreis"},"federalState":{"key":"09","name":"Bayern"}},{"name":"Johannes-Scheiffele-Str.","postalCode":"89407","locality":"Dillingen a.d.Donau","municipality":{"key":"09773125","name":"Dillingen a.d.Donau, GKSt","type":"Große_Kreisstadt"},"district":{"key":"09773","name":"Dillingen a.d.Donau","type":"Landkreis"},"federalState":{"key":"09","name":"Bayern"}},{"name":"Johann-Hitzler-Weg","postalCode":"89407","locality":"Dillingen a.d.Donau","municipality":{"key":"09773125","name":"Dillingen a.d.Donau, GKSt","type":"Große_Kreisstadt"},"district":{"key":"09773","name":"Dillingen a.d.Donau","type":"Landkreis"},"federalState":{"key":"09","name":"Bayern"}},{"name":"Johann-Michael-Fischer-Str.","postalCode":"89407","locality":"Dillingen a.d.Donau","municipality":{"key":"09773125","name":"Dillingen a.d.Donau, GKSt","type":"Große_Kreisstadt"},"district":{"key":"09773","name":"Dillingen a.d.Donau","type":"Landkreis"},"federalState":{"key":"09","name":"Bayern"}},{"name":"Johann-Michael-Sailer-Str.","postalCode":"89407","locality":"Dillingen a.d.Donau","municipality":{"key":"09773125","name":"Dillingen a.d.Donau, GKSt","type":"Große_Kreisstadt"},"district":{"key":"09773","name":"Dillingen a.d.Donau","type":"Landkreis"},"federalState":{"key":"09","name":"Bayern"}},{"name":"Josef-Bauer-Weg","postalCode":"89407","locality":"Dillingen a.d.Donau","municipality":{"key":"09773125","name":"Dillingen a.d.Donau, GKSt","type":"Große_Kreisstadt"},"district":{"key":"09773","name":"Dillingen a.d.Donau","type":"Landkreis"},"federalState":{"key":"09","name":"Bayern"}},{"name":"Josef-Feistle-Str.","postalCode":"89407","locality":"Dillingen a.d.Donau","municipality":{"key":"09773125","name":"Dillingen a.d.Donau, GKSt","type":"Große_Kreisstadt"},"district":{"key":"09773","name":"Dillingen a.d.Donau","type":"Landkreis"},"federalState":{"key":"09","name":"Bayern"}},{"name":"Josef-Litzel-Ring","postalCode":"89407","locality":"Dillingen a.d.Donau","municipality":{"key":"09773125","name":"Dillingen a.d.Donau, GKSt","type":"Große_Kreisstadt"},"district":{"key":"09773","name":"Dillingen a.d.Donau","type":"Landkreis"},"federalState":{"key":"09","name":"Bayern"}},{"name":"Josef-Rabini-Weg","postalCode":"89407","locality":"Dillingen a.d.Donau","municipality":{"key":"09773125","name":"Dillingen a.d.Donau, GKSt","type":"Große_Kreisstadt"},"district":{"key":"09773","name":"Dillingen a.d.Donau","type":"Landkreis"},"federalState":{"key":"09","name":"Bayern"}},{"name":"Joseph-Heitzmann-Str.","postalCode":"89407","locality":"Dillingen a.d.Donau","municipality":{"key":"09773125","name":"Dillingen a.d.Donau, GKSt","type":"Große_Kreisstadt"},"district":{"key":"09773","name":"Dillingen a.d.Donau","type":"Landkreis"},"federalState":{"key":"09","name":"Bayern"}},{"name":"Joseph-Keller-Weg","postalCode":"89407","locality":"Dillingen a.d.Donau","municipality":{"key":"09773125","name":"Dillingen a.d.Donau, GKSt","type":"Große_Kreisstadt"},"district":{"key":"09773","name":"Dillingen a.d.Donau","type":"Landkreis"},"federalState":{"key":"09","name":"Bayern"}},{"name":"Juraweg","postalCode":"89407","locality":"Dillingen a.d.Donau","municipality":{"key":"09773125","name":"Dillingen a.d.Donau, GKSt","type":"Große_Kreisstadt"},"district":{"key":"09773","name":"Dillingen a.d.Donau","type":"Landkreis"},"federalState":{"key":"09","name":"Bayern"}},{"name":"Justus-von-Liebig-Str.","postalCode":"89407","locality":"Dillingen a.d.Donau","municipality":{"key":"09773125","name":"Dillingen a.d.Donau, GKSt","type":"Große_Kreisstadt"},"district":{"key":"09773","name":"Dillingen a.d.Donau","type":"Landkreis"},"federalState":{"key":"09","name":"Bayern"}},{"name":"Katharinendorfstr.","postalCode":"89431","locality":"Bächingen a.d.Brenz","municipality":{"key":"09773113","name":"Bächingen a.d.Brenz","type":"Kreisangehörige_Gemeinde"},"district":{"key":"09773","name":"Dillingen a.d.Donau","type":"Landkreis"},"federalState":{"key":"09","name":"Bayern"}},{"name":"Kirchgasse","postalCode":"89431","locality":"Bächingen a.d.Brenz","municipality":{"key":"09773113","name":"Bächingen a.d.Brenz","type":"Kreisangehörige_Gemeinde"},"district":{"key":"09773","name":"Dillingen a.d.Donau","type":"Landkreis"},"federalState":{"key":"09","name":"Bayern"}},{"name":"Lehmgrube","postalCode":"89431","locality":"Bächingen a.d.Brenz","municipality":{"key":"09773113","name":"Bächingen a.d.Brenz","type":"Kreisangehörige_Gemeinde"},"district":{"key":"09773","name":"Dillingen a.d.Donau","type":"Landkreis"},"federalState":{"key":"09","name":"Bayern"}},{"name":"Lerchenweg","postalCode":"89431","locality":"Bächingen a.d.Brenz","municipality":{"key":"09773113","name":"Bächingen a.d.Brenz","type":"Kreisangehörige_Gemeinde"},"district":{"key":"09773","name":"Dillingen a.d.Donau","type":"Landkreis"},"federalState":{"key":"09","name":"Bayern"}},{"name":"Lindenstr.","postalCode":"89431","locality":"Bächingen a.d.Brenz","municipality":{"key":"09773113","name":"Bächingen a.d.Brenz","type":"Kreisangehörige_Gemeinde"},"district":{"key":"09773","name":"Dillingen a.d.Donau","type":"Landkreis"},"federalState":{"key":"09","name":"Bayern"}},{"name":"Medlinger Str.","postalCode":"89431","locality":"Bächingen a.d.Brenz","municipality":{"key":"09773113","name":"Bächingen a.d.Brenz","type":"Kreisangehörige_Gemeinde"},"district":{"key":"09773","name":"Dillingen a.d.Donau","type":"Landkreis"},"federalState":{"key":"09","name":"Bayern"}},{"name":"Mittelweg","postalCode":"89431","locality":"Bächingen a.d.Brenz","municipality":{"key":"09773113","name":"Bächingen a.d.Brenz","type":"Kreisangehörige_Gemeinde"},"district":{"key":"09773","name":"Dillingen a.d.Donau","type":"Landkreis"},"federalState":{"key":"09","name":"Bayern"}},{"name":"Neue Gasse","postalCode":"89431","locality":"Bächingen a.d.Brenz","municipality":{"key":"09773113","name":"Bächingen a.d.Brenz","type":"Kreisangehörige_Gemeinde"},"district":{"key":"09773","name":"Dillingen a.d.Donau","type":"Landkreis"},"federalState":{"key":"09","name":"Bayern"}},{"name":"Oberfeldweg","postalCode":"89431","locality":"Bächingen a.d.Brenz","municipality":{"key":"09773113","name":"Bächingen a.d.Brenz","type":"Kreisangehörige_Gemeinde"},"district":{"key":"09773","name":"Dillingen a.d.Donau","type":"Landkreis"},"federalState":{"key":"09","name":"Bayern"}},{"name":"Papiermühlenweg","postalCode":"89407","locality":"Dillingen a.d.Donau","municipality":{"key":"09773125","name":"Dillingen a.d.Donau, GKSt","type":"Große_Kreisstadt"},"district":{"key":"09773","name":"Dillingen a.d.Donau","type":"Landkreis"},"federalState":{"key":"09","name":"Bayern"}},{"name":"Pappelweg","postalCode":"89407","locality":"Dillingen a.d.Donau","municipality":{"key":"09773125","name":"Dillingen a.d.Donau, GKSt","type":"Große_Kreisstadt"},"district":{"key":"09773","name":"Dillingen a.d.Donau","type":"Landkreis"},"federalState":{"key":"09","name":"Bayern"}},{"name":"Paradiesweg","postalCode":"89407","locality":"Dillingen a.d.Donau","municipality":{"key":"09773125","name":"Dillingen a.d.Donau, GKSt","type":"Große_Kreisstadt"},"district":{"key":"09773","name":"Dillingen a.d.Donau","type":"Landkreis"},"federalState":{"key":"09","name":"Bayern"}},{"name":"Parkstr.","postalCode":"89407","locality":"Dillingen a.d.Donau","municipality":{"key":"09773125","name":"Dillingen a.d.Donau, GKSt","type":"Große_Kreisstadt"},"district":{"key":"09773","name":"Dillingen a.d.Donau","type":"Landkreis"},"federalState":{"key":"09","name":"Bayern"}},{"name":"Parkweg","postalCode":"89407","locality":"Dillingen a.d.Donau","municipality":{"key":"09773125","name":"Dillingen a.d.Donau, GKSt","type":"Große_Kreisstadt"},"district":{"key":"09773","name":"Dillingen a.d.Donau","type":"Landkreis"},"federalState":{"key":"09","name":"Bayern"}},{"name":"Pater-Alfred-Delp-Weg","postalCode":"89407","locality":"Dillingen a.d.Donau","municipality":{"key":"09773125","name":"Dillingen a.d.Donau, GKSt","type":"Große_Kreisstadt"},"district":{"key":"09773","name":"Dillingen a.d.Donau","type":"Landkreis"},"federalState":{"key":"09","name":"Bayern"}},{"name":"Patriz-Zimmer-Weg","postalCode":"89407","locality":"Dillingen a.d.Donau","municipality":{"key":"09773125","name":"Dillingen a.d.Donau, GKSt","type":"Große_Kreisstadt"},"district":{"key":"09773","name":"Dillingen a.d.Donau","type":"Landkreis"},"federalState":{"key":"09","name":"Bayern"}},{"name":"Paul-Zenetti-Str.","postalCode":"89407","locality":"Dillingen a.d.Donau","municipality":{"key":"09773125","name":"Dillingen a.d.Donau, GKSt","type":"Große_Kreisstadt"},"district":{"key":"09773","name":"Dillingen a.d.Donau","type":"Landkreis"},"federalState":{"key":"09","name":"Bayern"}},{"name":"Peter-Dörfler-Weg","postalCode":"89407","locality":"Dillingen a.d.Donau","municipality":{"key":"09773125","name":"Dillingen a.d.Donau, GKSt","type":"Große_Kreisstadt"},"district":{"key":"09773","name":"Dillingen a.d.Donau","type":"Landkreis"},"federalState":{"key":"09","name":"Bayern"}},{"name":"Peter-Eggenmüller-Weg","postalCode":"89407","locality":"Dillingen a.d.Donau","municipality":{"key":"09773125","name":"Dillingen a.d.Donau, GKSt","type":"Große_Kreisstadt"},"district":{"key":"09773","name":"Dillingen a.d.Donau","type":"Landkreis"},"federalState":{"key":"09","name":"Bayern"}},{"name":"Pfalz-Neuburg-Str.","postalCode":"89407","locality":"Dillingen a.d.Donau","municipality":{"key":"09773125","name":"Dillingen a.d.Donau, GKSt","type":"Große_Kreisstadt"},"district":{"key":"09773","name":"Dillingen a.d.Donau","type":"Landkreis"},"federalState":{"key":"09","name":"Bayern"}},{"name":"Pfarrer-Schaeble-Weg","postalCode":"89407","locality":"Dillingen a.d.Donau","municipality":{"key":"09773125","name":"Dillingen a.d.Donau, GKSt","type":"Große_Kreisstadt"},"district":{"key":"09773","name":"Dillingen a.d.Donau","type":"Landkreis"},"federalState":{"key":"09","name":"Bayern"}},{"name":"Pfauenstr.","postalCode":"89407","locality":"Dillingen a.d.Donau","municipality":{"key":"09773125","name":"Dillingen a.d.Donau, GKSt","type":"Große_Kreisstadt"},"district":{"key":"09773","name":"Dillingen a.d.Donau","type":"Landkreis"},"federalState":{"key":"09","name":"Bayern"}},{"name":"Philipp-Schelein-Weg","postalCode":"89407","locality":"Dillingen a.d.Donau","municipality":{"key":"09773125","name":"Dillingen a.d.Donau, GKSt","type":"Große_Kreisstadt"},"district":{"key":"09773","name":"Dillingen a.d.Donau","type":"Landkreis"},"federalState":{"key":"09","name":"Bayern"}},{"name":"Pointstr.","postalCode":"89407","locality":"Dillingen a.d.Donau","municipality":{"key":"09773125","name":"Dillingen a.d.Donau, GKSt","type":"Große_Kreisstadt"},"district":{"key":"09773","name":"Dillingen a.d.Donau","type":"Landkreis"},"federalState":{"key":"09","name":"Bayern"}},{"name":"Prälat-Hummel-Str.","postalCode":"89407","locality":"Dillingen a.d.Donau","municipality":{"key":"09773125","name":"Dillingen a.d.Donau, GKSt","type":"Große_Kreisstadt"},"district":{"key":"09773","name":"Dillingen a.d.Donau","type":"Landkreis"},"federalState":{"key":"09","name":"Bayern"}},{"name":"Priehlweg","postalCode":"89407","locality":"Dillingen a.d.Donau","municipality":{"key":"09773125","name":"Dillingen a.d.Donau, GKSt","type":"Große_Kreisstadt"},"district":{"key":"09773","name":"Dillingen a.d.Donau","type":"Landkreis"},"federalState":{"key":"09","name":"Bayern"}},{"name":"Professor-Habermann-Weg","postalCode":"89407","locality":"Dillingen a.d.Donau","municipality":{"key":"09773125","name":"Dillingen a.d.Donau, GKSt","type":"Große_Kreisstadt"},"district":{"key":"09773","name":"Dillingen a.d.Donau","type":"Landkreis"},"federalState":{"key":"09","name":"Bayern"}},{"name":"Ringstr.","postalCode":"89431","locality":"Bächingen a.d.Brenz","municipality":{"key":"09773113","name":"Bächingen a.d.Brenz","type":"Kreisangehörige_Gemeinde"},"district":{"key":"09773","name":"Dillingen a.d.Donau","type":"Landkreis"},"federalState":{"key":"09","name":"Bayern"}},{"name":"Rosenweg","postalCode":"89431","locality":"Bächingen a.d.Brenz","municipality":{"key":"09773113","name":"Bächingen a.d.Brenz","type":"Kreisangehörige_Gemeinde"},"district":{"key":"09773","name":"Dillingen a.d.Donau","type":"Landkreis"},"federalState":{"key":"09","name":"Bayern"}},{"name":"Schelmenheckweg","postalCode":"89431","locality":"Bächingen a.d.Brenz","municipality":{"key":"09773113","name":"Bächingen a.d.Brenz","type":"Kreisangehörige_Gemeinde"},"district":{"key":"09773","name":"Dillingen a.d.Donau","type":"Landkreis"},"federalState":{"key":"09","name":"Bayern"}},{"name":"Schloßstr.","postalCode":"89431","locality":"Bächingen a.d.Brenz","municipality":{"key":"09773113","name":"Bächingen a.d.Brenz","type":"Kreisangehörige_Gemeinde"},"district":{"key":"09773","name":"Dillingen a.d.Donau","type":"Landkreis"},"federalState":{"key":"09","name":"Bayern"}},{"name":"Schulweg","postalCode":"89431","locality":"Bächingen a.d.Brenz","municipality":{"key":"09773113","name":"Bächingen a.d.Brenz","type":"Kreisangehörige_Gemeinde"},"district":{"key":"09773","name":"Dillingen a.d.Donau","type":"Landkreis"},"federalState":{"key":"09","name":"Bayern"}},{"name":"Schwalbenweg","postalCode":"89431","locality":"Bächingen a.d.Brenz","municipality":{"key":"09773113","name":"Bächingen a.d.Brenz","type":"Kreisangehörige_Gemeinde"},"district":{"key":"09773","name":"Dillingen a.d.Donau","type":"Landkreis"},"federalState":{"key":"09","name":"Bayern"}},{"name":"Seehofstr.","postalCode":"89431","locality":"Bächingen a.d.Brenz","municipality":{"key":"09773113","name":"Bächingen a.d.Brenz","type":"Kreisangehörige_Gemeinde"},"district":{"key":"09773","name":"Dillingen a.d.Donau","type":"Landkreis"},"federalState":{"key":"09","name":"Bayern"}},{"name":"Seelachring","postalCode":"89431","locality":"Bächingen a.d.Brenz","municipality":{"key":"09773113","name":"Bächingen a.d.Brenz","type":"Kreisangehörige_Gemeinde"},"district":{"key":"09773","name":"Dillingen a.d.Donau","type":"Landkreis"},"federalState":{"key":"09","name":"Bayern"}},{"name":"Sontheimer Str.","postalCode":"89431","locality":"Bächingen a.d.Brenz","municipality":{"key":"09773113","name":"Bächingen a.d.Brenz","type":"Kreisangehörige_Gemeinde"},"district":{"key":"09773","name":"Dillingen a.d.Donau","type":"Landkreis"},"federalState":{"key":"09","name":"Bayern"}},{"name":"Sportplatzweg","postalCode":"89431","locality":"Bächingen a.d.Brenz","municipality":{"key":"09773113","name":"Bächingen a.d.Brenz","type":"Kreisangehörige_Gemeinde"},"district":{"key":"09773","name":"Dillingen a.d.Donau","type":"Landkreis"},"federalState":{"key":"09","name":"Bayern"}},{"name":"Starenweg","postalCode":"89431","locality":"Bächingen a.d.Brenz","municipality":{"key":"09773113","name":"Bächingen a.d.Brenz","type":"Kreisangehörige_Gemeinde"},"district":{"key":"09773","name":"Dillingen a.d.Donau","type":"Landkreis"},"federalState":{"key":"09","name":"Bayern"}},{"name":"Staudenweg","postalCode":"89431","locality":"Bächingen a.d.Brenz","municipality":{"key":"09773113","name":"Bächingen a.d.Brenz","type":"Kreisangehörige_Gemeinde"},"district":{"key":"09773","name":"Dillingen a.d.Donau","type":"Landkreis"},"federalState":{"key":"09","name":"Bayern"}},{"name":"Storchenweg","postalCode":"89431","locality":"Bächingen a.d.Brenz","municipality":{"key":"09773113","name":"Bächingen a.d.Brenz","type":"Kreisangehörige_Gemeinde"},"district":{"key":"09773","name":"Dillingen a.d.Donau","type":"Landkreis"},"federalState":{"key":"09","name":"Bayern"}},{"name":"Tulpenweg","postalCode":"89431","locality":"Bächingen a.d.Brenz","municipality":{"key":"09773113","name":"Bächingen a.d.Brenz","type":"Kreisangehörige_Gemeinde"},"district":{"key":"09773","name":"Dillingen a.d.Donau","type":"Landkreis"},"federalState":{"key":"09","name":"Bayern"}},{"name":"Uferweg","postalCode":"89407","locality":"Dillingen a.d.Donau","municipality":{"key":"09773125","name":"Dillingen a.d.Donau, GKSt","type":"Große_Kreisstadt"},"district":{"key":"09773","name":"Dillingen a.d.Donau","type":"Landkreis"},"federalState":{"key":"09","name":"Bayern"}},{"name":"Uhlandstr.","postalCode":"89407","locality":"Dillingen a.d.Donau","municipality":{"key":"09773125","name":"Dillingen a.d.Donau, GKSt","type":"Große_Kreisstadt"},"district":{"key":"09773","name":"Dillingen a.d.Donau","type":"Landkreis"},"federalState":{"key":"09","name":"Bayern"}},{"name":"Ulmenweg","postalCode":"89407","locality":"Dillingen a.d.Donau","municipality":{"key":"09773125","name":"Dillingen a.d.Donau, GKSt","type":"Große_Kreisstadt"},"district":{"key":"09773","name":"Dillingen a.d.Donau","type":"Landkreis"},"federalState":{"key":"09","name":"Bayern"}},{"name":"Ulrichshart","postalCode":"89407","locality":"Dillingen a.d.Donau","municipality":{"key":"09773125","name":"Dillingen a.d.Donau, GKSt","type":"Große_Kreisstadt"},"district":{"key":"09773","name":"Dillingen a.d.Donau","type":"Landkreis"},"federalState":{"key":"09","name":"Bayern"}},{"name":"Ulrichstr.","postalCode":"89407","locality":"Dillingen a.d.Donau","municipality":{"key":"09773125","name":"Dillingen a.d.Donau, GKSt","type":"Große_Kreisstadt"},"district":{"key":"09773","name":"Dillingen a.d.Donau","type":"Landkreis"},"federalState":{"key":"09","name":"Bayern"}},{"name":"Unterachstr.","postalCode":"89407","locality":"Dillingen a.d.Donau","municipality":{"key":"09773125","name":"Dillingen a.d.Donau, GKSt","type":"Große_Kreisstadt"},"district":{"key":"09773","name":"Dillingen a.d.Donau","type":"Landkreis"},"federalState":{"key":"09","name":"Bayern"}},{"name":"Untere Hauptstr.","postalCode":"89407","locality":"Dillingen a.d.Donau","municipality":{"key":"09773125","name":"Dillingen a.d.Donau, GKSt","type":"Große_Kreisstadt"},"district":{"key":"09773","name":"Dillingen a.d.Donau","type":"Landkreis"},"federalState":{"key":"09","name":"Bayern"}},{"name":"Unterfeld","postalCode":"89407","locality":"Dillingen a.d.Donau","municipality":{"key":"09773125","name":"Dillingen a.d.Donau, GKSt","type":"Große_Kreisstadt"},"district":{"key":"09773","name":"Dillingen a.d.Donau","type":"Landkreis"},"federalState":{"key":"09","name":"Bayern"}},{"name":"Vogteistr.","postalCode":"89407","locality":"Dillingen a.d.Donau","municipality":{"key":"09773125","name":"Dillingen a.d.Donau, GKSt","type":"Große_Kreisstadt"},"district":{"key":"09773","name":"Dillingen a.d.Donau","type":"Landkreis"},"federalState":{"key":"09","name":"Bayern"}},{"name":"Vorstadtstr.","postalCode":"89407","locality":"Dillingen a.d.Donau","municipality":{"key":"09773125","name":"Dillingen a.d.Donau, GKSt","type":"Große_Kreisstadt"},"district":{"key":"09773","name":"Dillingen a.d.Donau","type":"Landkreis"},"federalState":{"key":"09","name":"Bayern"}},{"name":"Weiherweg","postalCode":"89431","locality":"Bächingen a.d.Brenz","municipality":{"key":"09773113","name":"Bächingen a.d.Brenz","type":"Kreisangehörige_Gemeinde"},"district":{"key":"09773","name":"Dillingen a.d.Donau","type":"Landkreis"},"federalState":{"key":"09","name":"Bayern"}},{"name":"Westendstr.","postalCode":"89431","locality":"Bächingen a.d.Brenz","municipality":{"key":"09773113","name":"Bächingen a.d.Brenz","type":"Kreisangehörige_Gemeinde"},"district":{"key":"09773","name":"Dillingen a.d.Donau","type":"Landkreis"},"federalState":{"key":"09","name":"Bayern"}},{"name":"Wörthgasse","postalCode":"89431","locality":"Bächingen a.d.Brenz","municipality":{"key":"09773113","name":"Bächingen a.d.Brenz","type":"Kreisangehörige_Gemeinde"},"district":{"key":"09773","name":"Dillingen a.d.Donau","type":"Landkreis"},"federalState":{"key":"09","name":"Bayern"}},{"name":"Ziegelstr.","postalCode":"89407","locality":"Dillingen a.d.Donau","municipality":{"key":"09773125","name":"Dillingen a.d.Donau, GKSt","type":"Große_Kreisstadt"},"district":{"key":"09773","name":"Dillingen a.d.Donau","type":"Landkreis"},"federalState":{"key":"09","name":"Bayern"}},{"name":"Zollstr.","postalCode":"89407","locality":"Dillingen a.d.Donau","municipality":{"key":"09773125","name":"Dillingen a.d.Donau, GKSt","type":"Große_Kreisstadt"},"district":{"key":"09773","name":"Dillingen a.d.Donau","type":"Landkreis"},"federalState":{"key":"09","name":"Bayern"}},{"name":"Zuger Weg","postalCode":"89407","locality":"Dillingen a.d.Donau","municipality":{"key":"09773125","name":"Dillingen a.d.Donau, GKSt","type":"Große_Kreisstadt"},"district":{"key":"09773","name":"Dillingen a.d.Donau","type":"Landkreis"},"federalState":{"key":"09","name":"Bayern"}},{"name":"Zum Kreuzacker","postalCode":"89407","locality":"Dillingen a.d.Donau","municipality":{"key":"09773125","name":"Dillingen a.d.Donau, GKSt","type":"Große_Kreisstadt"},"district":{"key":"09773","name":"Dillingen a.d.Donau","type":"Landkreis"},"federalState":{"key":"09","name":"Bayern"}},{"name":"Zunhammerweg","postalCode":"89407","locality":"Dillingen a.d.Donau","municipality":{"key":"09773125","name":"Dillingen a.d.Donau, GKSt","type":"Große_Kreisstadt"},"district":{"key":"09773","name":"Dillingen a.d.Donau","type":"Landkreis"},"federalState":{"key":"09","name":"Bayern"}},{"name":"Zwergbachstr.","postalCode":"89407","locality":"Dillingen a.d.Donau","municipality":{"key":"09773125","name":"Dillingen a.d.Donau, GKSt","type":"Große_Kreisstadt"},"district":{"key":"09773","name":"Dillingen a.d.Donau","type":"Landkreis"},"federalState":{"key":"09","name":"Bayern"}},{"name":"Zwergstr.","postalCode":"89407","locality":"Dillingen a.d.Donau","municipality":{"key":"09773125","name":"Dillingen a.d.Donau, GKSt","type":"Große_Kreisstadt"},"district":{"key":"09773","name":"Dillingen a.d.Donau","type":"Landkreis"},"federalState":{"key":"09","name":"Bayern"}},{"name":"Ölberggasse","postalCode":"89407","locality":"Dillingen a.d.Donau","municipality":{"key":"09773125","name":"Dillingen a.d.Donau, GKSt","type":"Große_Kreisstadt"},"district":{"key":"09773","name":"Dillingen a.d.Donau","type":"Landkreis"},"federalState":{"key":"09","name":"Bayern"}},{"name":"Überaschungsweg (Sackgasse)","postalCode":"89407","locality":"Dillingen a.d.Donau","municipality":{"key":"09773125","name":"Dillingen a.d.Donau, GKSt","type":"Große_Kreisstadt"},"district":{"key":"09773","name":"Dillingen a.d.Donau","type":"Landkreis"},"federalState":{"key":"09","name":"Bayern"}},]