[{"name":"Adlerstr.","postalCode":"88289","locality":"Waldburg","municipality":{"key":"08436079","name":"Waldburg","type":"Kreisangehörige_Gemeinde"},"district":{"key":"08436","name":"Ravensburg","type":"Landkreis"},"federalState":{"key":"08","name":"Baden-Württemberg"}},{"name":"Ahornweg","postalCode":"88289","locality":"Waldburg","municipality":{"key":"08436079","name":"Waldburg","type":"Kreisangehörige_Gemeinde"},"district":{"key":"08436","name":"Ravensburg","type":"Landkreis"},"federalState":{"key":"08","name":"Baden-Württemberg"}},{"name":"Alpenweg","postalCode":"88289","locality":"Waldburg","municipality":{"key":"08436079","name":"Waldburg","type":"Kreisangehörige_Gemeinde"},"district":{"key":"08436","name":"Ravensburg","type":"Landkreis"},"federalState":{"key":"08","name":"Baden-Württemberg"}},{"name":"Am Kohlenberg","postalCode":"88289","locality":"Waldburg","municipality":{"key":"08436079","name":"Waldburg","type":"Kreisangehörige_Gemeinde"},"district":{"key":"08436","name":"Ravensburg","type":"Landkreis"},"federalState":{"key":"08","name":"Baden-Württemberg"}},{"name":"Am Langholz","postalCode":"88289","locality":"Waldburg","municipality":{"key":"08436079","name":"Waldburg","type":"Kreisangehörige_Gemeinde"},"district":{"key":"08436","name":"Ravensburg","type":"Landkreis"},"federalState":{"key":"08","name":"Baden-Württemberg"}},{"name":"Am Mittelberg","postalCode":"88289","locality":"Waldburg","municipality":{"key":"08436079","name":"Waldburg","type":"Kreisangehörige_Gemeinde"},"district":{"key":"08436","name":"Ravensburg","type":"Landkreis"},"federalState":{"key":"08","name":"Baden-Württemberg"}},{"name":"Am Schloßberg","postalCode":"88289","locality":"Waldburg","municipality":{"key":"08436079","name":"Waldburg","type":"Kreisangehörige_Gemeinde"},"district":{"key":"08436","name":"Ravensburg","type":"Landkreis"},"federalState":{"key":"08","name":"Baden-Württemberg"}},{"name":"Amtzeller Str.","postalCode":"88289","locality":"Waldburg","municipality":{"key":"08436079","name":"Waldburg","type":"Kreisangehörige_Gemeinde"},"district":{"key":"08436","name":"Ravensburg","type":"Landkreis"},"federalState":{"key":"08","name":"Baden-Württemberg"}},{"name":"Am Wallgraben","postalCode":"88289","locality":"Waldburg","municipality":{"key":"08436079","name":"Waldburg","type":"Kreisangehörige_Gemeinde"},"district":{"key":"08436","name":"Ravensburg","type":"Landkreis"},"federalState":{"key":"08","name":"Baden-Württemberg"}},{"name":"Bannrieder Str.","postalCode":"88289","locality":"Waldburg","municipality":{"key":"08436079","name":"Waldburg","type":"Kreisangehörige_Gemeinde"},"district":{"key":"08436","name":"Ravensburg","type":"Landkreis"},"federalState":{"key":"08","name":"Baden-Württemberg"}},{"name":"Bauernjörgstr.","postalCode":"88289","locality":"Waldburg","municipality":{"key":"08436079","name":"Waldburg","type":"Kreisangehörige_Gemeinde"},"district":{"key":"08436","name":"Ravensburg","type":"Landkreis"},"federalState":{"key":"08","name":"Baden-Württemberg"}},{"name":"Birkenweg","postalCode":"88289","locality":"Waldburg","municipality":{"key":"08436079","name":"Waldburg","type":"Kreisangehörige_Gemeinde"},"district":{"key":"08436","name":"Ravensburg","type":"Landkreis"},"federalState":{"key":"08","name":"Baden-Württemberg"}},{"name":"Bodnegger Str.","postalCode":"88289","locality":"Waldburg","municipality":{"key":"08436079","name":"Waldburg","type":"Kreisangehörige_Gemeinde"},"district":{"key":"08436","name":"Ravensburg","type":"Landkreis"},"federalState":{"key":"08","name":"Baden-Württemberg"}},{"name":"Brachäcker","postalCode":"88289","locality":"Waldburg","municipality":{"key":"08436079","name":"Waldburg","type":"Kreisangehörige_Gemeinde"},"district":{"key":"08436","name":"Ravensburg","type":"Landkreis"},"federalState":{"key":"08","name":"Baden-Württemberg"}},{"name":"Breitenbergstr.","postalCode":"88289","locality":"Waldburg","municipality":{"key":"08436079","name":"Waldburg","type":"Kreisangehörige_Gemeinde"},"district":{"key":"08436","name":"Ravensburg","type":"Landkreis"},"federalState":{"key":"08","name":"Baden-Württemberg"}},{"name":"Buchenweg","postalCode":"88289","locality":"Waldburg","municipality":{"key":"08436079","name":"Waldburg","type":"Kreisangehörige_Gemeinde"},"district":{"key":"08436","name":"Ravensburg","type":"Landkreis"},"federalState":{"key":"08","name":"Baden-Württemberg"}},{"name":"Burgweg","postalCode":"88289","locality":"Waldburg","municipality":{"key":"08436079","name":"Waldburg","type":"Kreisangehörige_Gemeinde"},"district":{"key":"08436","name":"Ravensburg","type":"Landkreis"},"federalState":{"key":"08","name":"Baden-Württemberg"}},{"name":"Bussardweg","postalCode":"88289","locality":"Waldburg","municipality":{"key":"08436079","name":"Waldburg","type":"Kreisangehörige_Gemeinde"},"district":{"key":"08436","name":"Ravensburg","type":"Landkreis"},"federalState":{"key":"08","name":"Baden-Württemberg"}},{"name":"Carl-Stauder-Str.","postalCode":"88214","locality":"Ravensburg","municipality":{"key":"08436064","name":"Ravensburg, Stadt","type":"Große_Kreisstadt"},"district":{"key":"08436","name":"Ravensburg","type":"Landkreis"},"federalState":{"key":"08","name":"Baden-Württemberg"}},{"name":"Charlottenstr.","postalCode":"88212","locality":"Ravensburg","municipality":{"key":"08436064","name":"Ravensburg, Stadt","type":"Große_Kreisstadt"},"district":{"key":"08436","name":"Ravensburg","type":"Landkreis"},"federalState":{"key":"08","name":"Baden-Württemberg"}},{"name":"Churfirstenstr.","postalCode":"88213","locality":"Ravensburg","municipality":{"key":"08436064","name":"Ravensburg, Stadt","type":"Große_Kreisstadt"},"district":{"key":"08436","name":"Ravensburg","type":"Landkreis"},"federalState":{"key":"08","name":"Baden-Württemberg"}},{"name":"Coswiger Platz","postalCode":"88212","locality":"Ravensburg","municipality":{"key":"08436064","name":"Ravensburg, Stadt","type":"Große_Kreisstadt"},"district":{"key":"08436","name":"Ravensburg","type":"Landkreis"},"federalState":{"key":"08","name":"Baden-Württemberg"}},{"name":"Damaschkeweg","postalCode":"88213","locality":"Ravensburg","municipality":{"key":"08436064","name":"Ravensburg, Stadt","type":"Große_Kreisstadt"},"district":{"key":"08436","name":"Ravensburg","type":"Landkreis"},"federalState":{"key":"08","name":"Baden-Württemberg"}},{"name":"David-Mieser-Str.","postalCode":"88213","locality":"Ravensburg","municipality":{"key":"08436064","name":"Ravensburg, Stadt","type":"Große_Kreisstadt"},"district":{"key":"08436","name":"Ravensburg","type":"Landkreis"},"federalState":{"key":"08","name":"Baden-Württemberg"}},{"name":"Deisenfangstr.","postalCode":"88212","locality":"Ravensburg","municipality":{"key":"08436064","name":"Ravensburg, Stadt","type":"Große_Kreisstadt"},"district":{"key":"08436","name":"Ravensburg","type":"Landkreis"},"federalState":{"key":"08","name":"Baden-Württemberg"}},{"name":"Donauschwabenstr.","postalCode":"88214","locality":"Ravensburg","municipality":{"key":"08436064","name":"Ravensburg, Stadt","type":"Große_Kreisstadt"},"district":{"key":"08436","name":"Ravensburg","type":"Landkreis"},"federalState":{"key":"08","name":"Baden-Württemberg"}},{"name":"Dorfbrunnenstr.","postalCode":"88214","locality":"Ravensburg","municipality":{"key":"08436064","name":"Ravensburg, Stadt","type":"Große_Kreisstadt"},"district":{"key":"08436","name":"Ravensburg","type":"Landkreis"},"federalState":{"key":"08","name":"Baden-Württemberg"}},{"name":"Dorfplatz","postalCode":"88213","locality":"Ravensburg","municipality":{"key":"08436064","name":"Ravensburg, Stadt","type":"Große_Kreisstadt"},"district":{"key":"08436","name":"Ravensburg","type":"Landkreis"},"federalState":{"key":"08","name":"Baden-Württemberg"}},{"name":"Dorfstr.","postalCode":"88214","locality":"Ravensburg","municipality":{"key":"08436064","name":"Ravensburg, Stadt","type":"Große_Kreisstadt"},"district":{"key":"08436","name":"Ravensburg","type":"Landkreis"},"federalState":{"key":"08","name":"Baden-Württemberg"}},{"name":"Dreiländerring","postalCode":"88212","locality":"Ravensburg","municipality":{"key":"08436064","name":"Ravensburg, Stadt","type":"Große_Kreisstadt"},"district":{"key":"08436","name":"Ravensburg","type":"Landkreis"},"federalState":{"key":"08","name":"Baden-Württemberg"}},{"name":"Dürerweg","postalCode":"88212","locality":"Ravensburg","municipality":{"key":"08436064","name":"Ravensburg, Stadt","type":"Große_Kreisstadt"},"district":{"key":"08436","name":"Ravensburg","type":"Landkreis"},"federalState":{"key":"08","name":"Baden-Württemberg"}},{"name":"Eichenweg","postalCode":"88289","locality":"Waldburg","municipality":{"key":"08436079","name":"Waldburg","type":"Kreisangehörige_Gemeinde"},"district":{"key":"08436","name":"Ravensburg","type":"Landkreis"},"federalState":{"key":"08","name":"Baden-Württemberg"}},{"name":"Eulenweg","postalCode":"88289","locality":"Waldburg","municipality":{"key":"08436079","name":"Waldburg","type":"Kreisangehörige_Gemeinde"},"district":{"key":"08436","name":"Ravensburg","type":"Landkreis"},"federalState":{"key":"08","name":"Baden-Württemberg"}},{"name":"Falkenweg","postalCode":"88289","locality":"Waldburg","municipality":{"key":"08436079","name":"Waldburg","type":"Kreisangehörige_Gemeinde"},"district":{"key":"08436","name":"Ravensburg","type":"Landkreis"},"federalState":{"key":"08","name":"Baden-Württemberg"}},{"name":"Fasanenweg","postalCode":"88289","locality":"Waldburg","municipality":{"key":"08436079","name":"Waldburg","type":"Kreisangehörige_Gemeinde"},"district":{"key":"08436","name":"Ravensburg","type":"Landkreis"},"federalState":{"key":"08","name":"Baden-Württemberg"}},{"name":"Forstenhausen","postalCode":"88289","locality":"Waldburg","municipality":{"key":"08436079","name":"Waldburg","type":"Kreisangehörige_Gemeinde"},"district":{"key":"08436","name":"Ravensburg","type":"Landkreis"},"federalState":{"key":"08","name":"Baden-Württemberg"}},{"name":"Gehrenäcker","postalCode":"88289","locality":"Waldburg","municipality":{"key":"08436079","name":"Waldburg","type":"Kreisangehörige_Gemeinde"},"district":{"key":"08436","name":"Ravensburg","type":"Landkreis"},"federalState":{"key":"08","name":"Baden-Württemberg"}},{"name":"Grüntenstr.","postalCode":"88289","locality":"Waldburg","municipality":{"key":"08436079","name":"Waldburg","type":"Kreisangehörige_Gemeinde"},"district":{"key":"08436","name":"Ravensburg","type":"Landkreis"},"federalState":{"key":"08","name":"Baden-Württemberg"}},{"name":"Habichtweg","postalCode":"88289","locality":"Waldburg","municipality":{"key":"08436079","name":"Waldburg","type":"Kreisangehörige_Gemeinde"},"district":{"key":"08436","name":"Ravensburg","type":"Landkreis"},"federalState":{"key":"08","name":"Baden-Württemberg"}},{"name":"Habnitweg","postalCode":"88289","locality":"Waldburg","municipality":{"key":"08436079","name":"Waldburg","type":"Kreisangehörige_Gemeinde"},"district":{"key":"08436","name":"Ravensburg","type":"Landkreis"},"federalState":{"key":"08","name":"Baden-Württemberg"}},{"name":"Hauptstr.","postalCode":"88289","locality":"Waldburg","municipality":{"key":"08436079","name":"Waldburg","type":"Kreisangehörige_Gemeinde"},"district":{"key":"08436","name":"Ravensburg","type":"Landkreis"},"federalState":{"key":"08","name":"Baden-Württemberg"}},{"name":"Hochgratstr.","postalCode":"88289","locality":"Waldburg","municipality":{"key":"08436079","name":"Waldburg","type":"Kreisangehörige_Gemeinde"},"district":{"key":"08436","name":"Ravensburg","type":"Landkreis"},"federalState":{"key":"08","name":"Baden-Württemberg"}},{"name":"Hoher-Ifen-Weg","postalCode":"88289","locality":"Waldburg","municipality":{"key":"08436079","name":"Waldburg","type":"Kreisangehörige_Gemeinde"},"district":{"key":"08436","name":"Ravensburg","type":"Landkreis"},"federalState":{"key":"08","name":"Baden-Württemberg"}},{"name":"Imbergweg","postalCode":"88289","locality":"Waldburg","municipality":{"key":"08436079","name":"Waldburg","type":"Kreisangehörige_Gemeinde"},"district":{"key":"08436","name":"Ravensburg","type":"Landkreis"},"federalState":{"key":"08","name":"Baden-Württemberg"}},{"name":"Im Ösch","postalCode":"88289","locality":"Waldburg","municipality":{"key":"08436079","name":"Waldburg","type":"Kreisangehörige_Gemeinde"},"district":{"key":"08436","name":"Ravensburg","type":"Landkreis"},"federalState":{"key":"08","name":"Baden-Württemberg"}},{"name":"Jägerhaus","postalCode":"88213","locality":"Ravensburg","municipality":{"key":"08436064","name":"Ravensburg, Stadt","type":"Große_Kreisstadt"},"district":{"key":"08436","name":"Ravensburg","type":"Landkreis"},"federalState":{"key":"08","name":"Baden-Württemberg"}},{"name":"Jägerstr.","postalCode":"88214","locality":"Ravensburg","municipality":{"key":"08436064","name":"Ravensburg, Stadt","type":"Große_Kreisstadt"},"district":{"key":"08436","name":"Ravensburg","type":"Landkreis"},"federalState":{"key":"08","name":"Baden-Württemberg"}},{"name":"Jahnstr.","postalCode":"88214","locality":"Ravensburg","municipality":{"key":"08436064","name":"Ravensburg, Stadt","type":"Große_Kreisstadt"},"district":{"key":"08436","name":"Ravensburg","type":"Landkreis"},"federalState":{"key":"08","name":"Baden-Württemberg"}},{"name":"Jakob-Ruß-Weg","postalCode":"88214","locality":"Ravensburg","municipality":{"key":"08436064","name":"Ravensburg, Stadt","type":"Große_Kreisstadt"},"district":{"key":"08436","name":"Ravensburg","type":"Landkreis"},"federalState":{"key":"08","name":"Baden-Württemberg"}},{"name":"Johann-Morell-Weg","postalCode":"88214","locality":"Ravensburg","municipality":{"key":"08436064","name":"Ravensburg, Stadt","type":"Große_Kreisstadt"},"district":{"key":"08436","name":"Ravensburg","type":"Landkreis"},"federalState":{"key":"08","name":"Baden-Württemberg"}},{"name":"Jörg-Syrlin-Weg","postalCode":"88213","locality":"Ravensburg","municipality":{"key":"08436064","name":"Ravensburg, Stadt","type":"Große_Kreisstadt"},"district":{"key":"08436","name":"Ravensburg","type":"Landkreis"},"federalState":{"key":"08","name":"Baden-Württemberg"}},{"name":"Josef-Graf-Weg","postalCode":"88213","locality":"Ravensburg","municipality":{"key":"08436064","name":"Ravensburg, Stadt","type":"Große_Kreisstadt"},"district":{"key":"08436","name":"Ravensburg","type":"Landkreis"},"federalState":{"key":"08","name":"Baden-Württemberg"}},{"name":"Josefine-Scheuerle-Weg","postalCode":"88213","locality":"Ravensburg","municipality":{"key":"08436064","name":"Ravensburg, Stadt","type":"Große_Kreisstadt"},"district":{"key":"08436","name":"Ravensburg","type":"Landkreis"},"federalState":{"key":"08","name":"Baden-Württemberg"}},{"name":"Josef-Strobel-Str.","postalCode":"88213","locality":"Ravensburg","municipality":{"key":"08436064","name":"Ravensburg, Stadt","type":"Große_Kreisstadt"},"district":{"key":"08436","name":"Ravensburg","type":"Landkreis"},"federalState":{"key":"08","name":"Baden-Württemberg"}},{"name":"Kanisfluhweg","postalCode":"88289","locality":"Waldburg","municipality":{"key":"08436079","name":"Waldburg","type":"Kreisangehörige_Gemeinde"},"district":{"key":"08436","name":"Ravensburg","type":"Landkreis"},"federalState":{"key":"08","name":"Baden-Württemberg"}},{"name":"Kastanienweg","postalCode":"88289","locality":"Waldburg","municipality":{"key":"08436079","name":"Waldburg","type":"Kreisangehörige_Gemeinde"},"district":{"key":"08436","name":"Ravensburg","type":"Landkreis"},"federalState":{"key":"08","name":"Baden-Württemberg"}},{"name":"Kesenweilerstr.","postalCode":"88289","locality":"Waldburg","municipality":{"key":"08436079","name":"Waldburg","type":"Kreisangehörige_Gemeinde"},"district":{"key":"08436","name":"Ravensburg","type":"Landkreis"},"federalState":{"key":"08","name":"Baden-Württemberg"}},{"name":"Kirchsteige","postalCode":"88289","locality":"Waldburg","municipality":{"key":"08436079","name":"Waldburg","type":"Kreisangehörige_Gemeinde"},"district":{"key":"08436","name":"Ravensburg","type":"Landkreis"},"federalState":{"key":"08","name":"Baden-Württemberg"}},{"name":"Kohlhaus","postalCode":"88289","locality":"Waldburg","municipality":{"key":"08436079","name":"Waldburg","type":"Kreisangehörige_Gemeinde"},"district":{"key":"08436","name":"Ravensburg","type":"Landkreis"},"federalState":{"key":"08","name":"Baden-Württemberg"}},{"name":"Kronenberger Str.","postalCode":"88289","locality":"Waldburg","municipality":{"key":"08436079","name":"Waldburg","type":"Kreisangehörige_Gemeinde"},"district":{"key":"08436","name":"Ravensburg","type":"Landkreis"},"federalState":{"key":"08","name":"Baden-Württemberg"}},{"name":"Lerchenweg","postalCode":"88289","locality":"Waldburg","municipality":{"key":"08436079","name":"Waldburg","type":"Kreisangehörige_Gemeinde"},"district":{"key":"08436","name":"Ravensburg","type":"Landkreis"},"federalState":{"key":"08","name":"Baden-Württemberg"}},{"name":"Lindenweg","postalCode":"88289","locality":"Waldburg","municipality":{"key":"08436079","name":"Waldburg","type":"Kreisangehörige_Gemeinde"},"district":{"key":"08436","name":"Ravensburg","type":"Landkreis"},"federalState":{"key":"08","name":"Baden-Württemberg"}},{"name":"Magnusweg","postalCode":"88289","locality":"Waldburg","municipality":{"key":"08436079","name":"Waldburg","type":"Kreisangehörige_Gemeinde"},"district":{"key":"08436","name":"Ravensburg","type":"Landkreis"},"federalState":{"key":"08","name":"Baden-Württemberg"}},{"name":"Milanweg","postalCode":"88289","locality":"Waldburg","municipality":{"key":"08436079","name":"Waldburg","type":"Kreisangehörige_Gemeinde"},"district":{"key":"08436","name":"Ravensburg","type":"Landkreis"},"federalState":{"key":"08","name":"Baden-Württemberg"}},{"name":"Nebelhornweg","postalCode":"88212","locality":"Ravensburg","municipality":{"key":"08436064","name":"Ravensburg, Stadt","type":"Große_Kreisstadt"},"district":{"key":"08436","name":"Ravensburg","type":"Landkreis"},"federalState":{"key":"08","name":"Baden-Württemberg"}},{"name":"Neideggweg","postalCode":"88214","locality":"Ravensburg","municipality":{"key":"08436064","name":"Ravensburg, Stadt","type":"Große_Kreisstadt"},"district":{"key":"08436","name":"Ravensburg","type":"Landkreis"},"federalState":{"key":"08","name":"Baden-Württemberg"}},{"name":"Nepomukweg","postalCode":"88214","locality":"Ravensburg","municipality":{"key":"08436064","name":"Ravensburg, Stadt","type":"Große_Kreisstadt"},"district":{"key":"08436","name":"Ravensburg","type":"Landkreis"},"federalState":{"key":"08","name":"Baden-Württemberg"}},{"name":"Neuberg","postalCode":"88214","locality":"Ravensburg","municipality":{"key":"08436064","name":"Ravensburg, Stadt","type":"Große_Kreisstadt"},"district":{"key":"08436","name":"Ravensburg","type":"Landkreis"},"federalState":{"key":"08","name":"Baden-Württemberg"}},{"name":"Neubergweg","postalCode":"88214","locality":"Ravensburg","municipality":{"key":"08436064","name":"Ravensburg, Stadt","type":"Große_Kreisstadt"},"district":{"key":"08436","name":"Ravensburg","type":"Landkreis"},"federalState":{"key":"08","name":"Baden-Württemberg"}},{"name":"Neuhaldenstr.","postalCode":"88214","locality":"Ravensburg","municipality":{"key":"08436064","name":"Ravensburg, Stadt","type":"Große_Kreisstadt"},"district":{"key":"08436","name":"Ravensburg","type":"Landkreis"},"federalState":{"key":"08","name":"Baden-Württemberg"}},{"name":"Neuwiesenstr.","postalCode":"88214","locality":"Ravensburg","municipality":{"key":"08436064","name":"Ravensburg, Stadt","type":"Große_Kreisstadt"},"district":{"key":"08436","name":"Ravensburg","type":"Landkreis"},"federalState":{"key":"08","name":"Baden-Württemberg"}},{"name":"Nikolausstr.","postalCode":"88212","locality":"Ravensburg","municipality":{"key":"08436064","name":"Ravensburg, Stadt","type":"Große_Kreisstadt"},"district":{"key":"08436","name":"Ravensburg","type":"Landkreis"},"federalState":{"key":"08","name":"Baden-Württemberg"}},{"name":"Oberamteigasse","postalCode":"88214","locality":"Ravensburg","municipality":{"key":"08436064","name":"Ravensburg, Stadt","type":"Große_Kreisstadt"},"district":{"key":"08436","name":"Ravensburg","type":"Landkreis"},"federalState":{"key":"08","name":"Baden-Württemberg"}},{"name":"Obere Breite Str.","postalCode":"88212","locality":"Ravensburg","municipality":{"key":"08436064","name":"Ravensburg, Stadt","type":"Große_Kreisstadt"},"district":{"key":"08436","name":"Ravensburg","type":"Landkreis"},"federalState":{"key":"08","name":"Baden-Württemberg"}},{"name":"Obere Burachstr.","postalCode":"88212","locality":"Ravensburg","municipality":{"key":"08436064","name":"Ravensburg, Stadt","type":"Große_Kreisstadt"},"district":{"key":"08436","name":"Ravensburg","type":"Landkreis"},"federalState":{"key":"08","name":"Baden-Württemberg"}},{"name":"Obere Kehlstr.","postalCode":"88214","locality":"Ravensburg","municipality":{"key":"08436064","name":"Ravensburg, Stadt","type":"Große_Kreisstadt"},"district":{"key":"08436","name":"Ravensburg","type":"Landkreis"},"federalState":{"key":"08","name":"Baden-Württemberg"}},{"name":"Oberer Haldenweg","postalCode":"88212","locality":"Ravensburg","municipality":{"key":"08436064","name":"Ravensburg, Stadt","type":"Große_Kreisstadt"},"district":{"key":"08436","name":"Ravensburg","type":"Landkreis"},"federalState":{"key":"08","name":"Baden-Württemberg"}},{"name":"Oberer Illen","postalCode":"88212","locality":"Ravensburg","municipality":{"key":"08436064","name":"Ravensburg, Stadt","type":"Große_Kreisstadt"},"district":{"key":"08436","name":"Ravensburg","type":"Landkreis"},"federalState":{"key":"08","name":"Baden-Württemberg"}},{"name":"Obereschacher Str.","postalCode":"88214","locality":"Ravensburg","municipality":{"key":"08436064","name":"Ravensburg, Stadt","type":"Große_Kreisstadt"},"district":{"key":"08436","name":"Ravensburg","type":"Landkreis"},"federalState":{"key":"08","name":"Baden-Württemberg"}},{"name":"Oberhofener Weg","postalCode":"88214","locality":"Ravensburg","municipality":{"key":"08436064","name":"Ravensburg, Stadt","type":"Große_Kreisstadt"},"district":{"key":"08436","name":"Ravensburg","type":"Landkreis"},"federalState":{"key":"08","name":"Baden-Württemberg"}},{"name":"Oberweiler","postalCode":"88213","locality":"Ravensburg","municipality":{"key":"08436064","name":"Ravensburg, Stadt","type":"Große_Kreisstadt"},"district":{"key":"08436","name":"Ravensburg","type":"Landkreis"},"federalState":{"key":"08","name":"Baden-Württemberg"}},{"name":"Oberzeller Str.","postalCode":"88213","locality":"Ravensburg","municipality":{"key":"08436064","name":"Ravensburg, Stadt","type":"Große_Kreisstadt"},"district":{"key":"08436","name":"Ravensburg","type":"Landkreis"},"federalState":{"key":"08","name":"Baden-Württemberg"}},{"name":"O.E.W.-Str.","postalCode":"88212","locality":"Ravensburg","municipality":{"key":"08436064","name":"Ravensburg, Stadt","type":"Große_Kreisstadt"},"district":{"key":"08436","name":"Ravensburg","type":"Landkreis"},"federalState":{"key":"08","name":"Baden-Württemberg"}},{"name":"Okatreute","postalCode":"88213","locality":"Ravensburg","municipality":{"key":"08436064","name":"Ravensburg, Stadt","type":"Große_Kreisstadt"},"district":{"key":"08436","name":"Ravensburg","type":"Landkreis"},"federalState":{"key":"08","name":"Baden-Württemberg"}},{"name":"Olgastr.","postalCode":"88214","locality":"Ravensburg","municipality":{"key":"08436064","name":"Ravensburg, Stadt","type":"Große_Kreisstadt"},"district":{"key":"08436","name":"Ravensburg","type":"Landkreis"},"federalState":{"key":"08","name":"Baden-Württemberg"}},{"name":"Opfenwangweg","postalCode":"88213","locality":"Ravensburg","municipality":{"key":"08436064","name":"Ravensburg, Stadt","type":"Große_Kreisstadt"},"district":{"key":"08436","name":"Ravensburg","type":"Landkreis"},"federalState":{"key":"08","name":"Baden-Württemberg"}},{"name":"Oppeltshofer Weg","postalCode":"88212","locality":"Ravensburg","municipality":{"key":"08436064","name":"Ravensburg, Stadt","type":"Große_Kreisstadt"},"district":{"key":"08436","name":"Ravensburg","type":"Landkreis"},"federalState":{"key":"08","name":"Baden-Württemberg"}},{"name":"Osianderweg","postalCode":"88213","locality":"Ravensburg","municipality":{"key":"08436064","name":"Ravensburg, Stadt","type":"Große_Kreisstadt"},"district":{"key":"08436","name":"Ravensburg","type":"Landkreis"},"federalState":{"key":"08","name":"Baden-Württemberg"}},{"name":"Ostlandweg","postalCode":"88214","locality":"Ravensburg","municipality":{"key":"08436064","name":"Ravensburg, Stadt","type":"Große_Kreisstadt"},"district":{"key":"08436","name":"Ravensburg","type":"Landkreis"},"federalState":{"key":"08","name":"Baden-Württemberg"}},{"name":"Otto-Timme-Str.","postalCode":"88214","locality":"Ravensburg","municipality":{"key":"08436064","name":"Ravensburg, Stadt","type":"Große_Kreisstadt"},"district":{"key":"08436","name":"Ravensburg","type":"Landkreis"},"federalState":{"key":"08","name":"Baden-Württemberg"}},{"name":"Paul-Mayer-Str.","postalCode":"88289","locality":"Waldburg","municipality":{"key":"08436079","name":"Waldburg","type":"Kreisangehörige_Gemeinde"},"district":{"key":"08436","name":"Ravensburg","type":"Landkreis"},"federalState":{"key":"08","name":"Baden-Württemberg"}},{"name":"Pfänderweg","postalCode":"88289","locality":"Waldburg","municipality":{"key":"08436079","name":"Waldburg","type":"Kreisangehörige_Gemeinde"},"district":{"key":"08436","name":"Ravensburg","type":"Landkreis"},"federalState":{"key":"08","name":"Baden-Württemberg"}},{"name":"Rebhuhnweg","postalCode":"88289","locality":"Waldburg","municipality":{"key":"08436079","name":"Waldburg","type":"Kreisangehörige_Gemeinde"},"district":{"key":"08436","name":"Ravensburg","type":"Landkreis"},"federalState":{"key":"08","name":"Baden-Württemberg"}},{"name":"Reinhold-Abele-Str.","postalCode":"88289","locality":"Waldburg","municipality":{"key":"08436079","name":"Waldburg","type":"Kreisangehörige_Gemeinde"},"district":{"key":"08436","name":"Ravensburg","type":"Landkreis"},"federalState":{"key":"08","name":"Baden-Württemberg"}},{"name":"Säntisweg","postalCode":"88289","locality":"Waldburg","municipality":{"key":"08436079","name":"Waldburg","type":"Kreisangehörige_Gemeinde"},"district":{"key":"08436","name":"Ravensburg","type":"Landkreis"},"federalState":{"key":"08","name":"Baden-Württemberg"}},{"name":"Schlierer Str.","postalCode":"88289","locality":"Waldburg","municipality":{"key":"08436079","name":"Waldburg","type":"Kreisangehörige_Gemeinde"},"district":{"key":"08436","name":"Ravensburg","type":"Landkreis"},"federalState":{"key":"08","name":"Baden-Württemberg"}},{"name":"Schmitteäcker","postalCode":"88289","locality":"Waldburg","municipality":{"key":"08436079","name":"Waldburg","type":"Kreisangehörige_Gemeinde"},"district":{"key":"08436","name":"Ravensburg","type":"Landkreis"},"federalState":{"key":"08","name":"Baden-Württemberg"}},{"name":"Schwedengasse","postalCode":"88289","locality":"Waldburg","municipality":{"key":"08436079","name":"Waldburg","type":"Kreisangehörige_Gemeinde"},"district":{"key":"08436","name":"Ravensburg","type":"Landkreis"},"federalState":{"key":"08","name":"Baden-Württemberg"}},{"name":"Sperberweg","postalCode":"88289","locality":"Waldburg","municipality":{"key":"08436079","name":"Waldburg","type":"Kreisangehörige_Gemeinde"},"district":{"key":"08436","name":"Ravensburg","type":"Landkreis"},"federalState":{"key":"08","name":"Baden-Württemberg"}},{"name":"Truchsessenweg","postalCode":"88289","locality":"Waldburg","municipality":{"key":"08436079","name":"Waldburg","type":"Kreisangehörige_Gemeinde"},"district":{"key":"08436","name":"Ravensburg","type":"Landkreis"},"federalState":{"key":"08","name":"Baden-Württemberg"}},{"name":"Ulmenweg","postalCode":"88289","locality":"Waldburg","municipality":{"key":"08436079","name":"Waldburg","type":"Kreisangehörige_Gemeinde"},"district":{"key":"08436","name":"Ravensburg","type":"Landkreis"},"federalState":{"key":"08","name":"Baden-Württemberg"}},{"name":"Veitsburgstr.","postalCode":"88212","locality":"Ravensburg","municipality":{"key":"08436064","name":"Ravensburg, Stadt","type":"Große_Kreisstadt"},"district":{"key":"08436","name":"Ravensburg","type":"Landkreis"},"federalState":{"key":"08","name":"Baden-Württemberg"}},{"name":"Veit-Stoß-Weg","postalCode":"88212","locality":"Ravensburg","municipality":{"key":"08436064","name":"Ravensburg, Stadt","type":"Große_Kreisstadt"},"district":{"key":"08436","name":"Ravensburg","type":"Landkreis"},"federalState":{"key":"08","name":"Baden-Württemberg"}},{"name":"Vorarlberger Str.","postalCode":"88212","locality":"Ravensburg","municipality":{"key":"08436064","name":"Ravensburg, Stadt","type":"Große_Kreisstadt"},"district":{"key":"08436","name":"Ravensburg","type":"Landkreis"},"federalState":{"key":"08","name":"Baden-Württemberg"}},{"name":"Vordere Kirchgasse","postalCode":"88213","locality":"Ravensburg","municipality":{"key":"08436064","name":"Ravensburg, Stadt","type":"Große_Kreisstadt"},"district":{"key":"08436","name":"Ravensburg","type":"Landkreis"},"federalState":{"key":"08","name":"Baden-Württemberg"}},{"name":"Welfenstr.","postalCode":"88289","locality":"Waldburg","municipality":{"key":"08436079","name":"Waldburg","type":"Kreisangehörige_Gemeinde"},"district":{"key":"08436","name":"Ravensburg","type":"Landkreis"},"federalState":{"key":"08","name":"Baden-Württemberg"}},{"name":"Zabergäu","postalCode":"88214","locality":"Ravensburg","municipality":{"key":"08436064","name":"Ravensburg, Stadt","type":"Große_Kreisstadt"},"district":{"key":"08436","name":"Ravensburg","type":"Landkreis"},"federalState":{"key":"08","name":"Baden-Württemberg"}},{"name":"Zeppelinstr.","postalCode":"88212","locality":"Ravensburg","municipality":{"key":"08436064","name":"Ravensburg, Stadt","type":"Große_Kreisstadt"},"district":{"key":"08436","name":"Ravensburg","type":"Landkreis"},"federalState":{"key":"08","name":"Baden-Württemberg"}},{"name":"Zeughausstr.","postalCode":"88212","locality":"Ravensburg","municipality":{"key":"08436064","name":"Ravensburg, Stadt","type":"Große_Kreisstadt"},"district":{"key":"08436","name":"Ravensburg","type":"Landkreis"},"federalState":{"key":"08","name":"Baden-Württemberg"}},{"name":"Ziegelstr.","postalCode":"88214","locality":"Ravensburg","municipality":{"key":"08436064","name":"Ravensburg, Stadt","type":"Große_Kreisstadt"},"district":{"key":"08436","name":"Ravensburg","type":"Landkreis"},"federalState":{"key":"08","name":"Baden-Württemberg"}},{"name":"Ziegelweg","postalCode":"88213","locality":"Ravensburg","municipality":{"key":"08436064","name":"Ravensburg, Stadt","type":"Große_Kreisstadt"},"district":{"key":"08436","name":"Ravensburg","type":"Landkreis"},"federalState":{"key":"08","name":"Baden-Württemberg"}},{"name":"Zogenfeldstr.","postalCode":"88214","locality":"Ravensburg","municipality":{"key":"08436064","name":"Ravensburg, Stadt","type":"Große_Kreisstadt"},"district":{"key":"08436","name":"Ravensburg","type":"Landkreis"},"federalState":{"key":"08","name":"Baden-Württemberg"}},{"name":"Zuppingerstr.","postalCode":"88213","locality":"Ravensburg","municipality":{"key":"08436064","name":"Ravensburg, Stadt","type":"Große_Kreisstadt"},"district":{"key":"08436","name":"Ravensburg","type":"Landkreis"},"federalState":{"key":"08","name":"Baden-Württemberg"}},{"name":"Zwergerstr.","postalCode":"88214","locality":"Ravensburg","municipality":{"key":"08436064","name":"Ravensburg, Stadt","type":"Große_Kreisstadt"},"district":{"key":"08436","name":"Ravensburg","type":"Landkreis"},"federalState":{"key":"08","name":"Baden-Württemberg"}},{"name":"Ährenweg","postalCode":"88214","locality":"Ravensburg","municipality":{"key":"08436064","name":"Ravensburg, Stadt","type":"Große_Kreisstadt"},"district":{"key":"08436","name":"Ravensburg","type":"Landkreis"},"federalState":{"key":"08","name":"Baden-Württemberg"}},{"name":"Ölschwangweg","postalCode":"88212","locality":"Ravensburg","municipality":{"key":"08436064","name":"Ravensburg, Stadt","type":"Große_Kreisstadt"},"district":{"key":"08436","name":"Ravensburg","type":"Landkreis"},"federalState":{"key":"08","name":"Baden-Württemberg"}},]