[{"name":"Adorfer Str.","postalCode":"09235","locality":"Burkhardtsdorf","municipality":{"key":"14521120","name":"Burkhardtsdorf","type":"Kreisangehörige_Gemeinde"},"district":{"key":"14521","name":"Erzgebirgskreis","type":"Landkreis"},"federalState":{"key":"14","name":"Sachsen"}},{"name":"Adorfer Weg","postalCode":"09235","locality":"Burkhardtsdorf","municipality":{"key":"14521120","name":"Burkhardtsdorf","type":"Kreisangehörige_Gemeinde"},"district":{"key":"14521","name":"Erzgebirgskreis","type":"Landkreis"},"federalState":{"key":"14","name":"Sachsen"}},{"name":"Ahnerweg","postalCode":"09235","locality":"Burkhardtsdorf","municipality":{"key":"14521120","name":"Burkhardtsdorf","type":"Kreisangehörige_Gemeinde"},"district":{"key":"14521","name":"Erzgebirgskreis","type":"Landkreis"},"federalState":{"key":"14","name":"Sachsen"}},{"name":"Ahornweg","postalCode":"09235","locality":"Burkhardtsdorf","municipality":{"key":"14521120","name":"Burkhardtsdorf","type":"Kreisangehörige_Gemeinde"},"district":{"key":"14521","name":"Erzgebirgskreis","type":"Landkreis"},"federalState":{"key":"14","name":"Sachsen"}},{"name":"Albert-Viertel-Weg","postalCode":"09235","locality":"Burkhardtsdorf","municipality":{"key":"14521120","name":"Burkhardtsdorf","type":"Kreisangehörige_Gemeinde"},"district":{"key":"14521","name":"Erzgebirgskreis","type":"Landkreis"},"federalState":{"key":"14","name":"Sachsen"}},{"name":"Alte Dorfstr.","postalCode":"09235","locality":"Burkhardtsdorf","municipality":{"key":"14521120","name":"Burkhardtsdorf","type":"Kreisangehörige_Gemeinde"},"district":{"key":"14521","name":"Erzgebirgskreis","type":"Landkreis"},"federalState":{"key":"14","name":"Sachsen"}},{"name":"Alte Gasse","postalCode":"09235","locality":"Burkhardtsdorf","municipality":{"key":"14521120","name":"Burkhardtsdorf","type":"Kreisangehörige_Gemeinde"},"district":{"key":"14521","name":"Erzgebirgskreis","type":"Landkreis"},"federalState":{"key":"14","name":"Sachsen"}},{"name":"Alte Poststr.","postalCode":"09235","locality":"Burkhardtsdorf","municipality":{"key":"14521120","name":"Burkhardtsdorf","type":"Kreisangehörige_Gemeinde"},"district":{"key":"14521","name":"Erzgebirgskreis","type":"Landkreis"},"federalState":{"key":"14","name":"Sachsen"}},{"name":"Alte Thalheimer Str.","postalCode":"09235","locality":"Burkhardtsdorf","municipality":{"key":"14521120","name":"Burkhardtsdorf","type":"Kreisangehörige_Gemeinde"},"district":{"key":"14521","name":"Erzgebirgskreis","type":"Landkreis"},"federalState":{"key":"14","name":"Sachsen"}},{"name":"Am Auenberg","postalCode":"09235","locality":"Burkhardtsdorf","municipality":{"key":"14521120","name":"Burkhardtsdorf","type":"Kreisangehörige_Gemeinde"},"district":{"key":"14521","name":"Erzgebirgskreis","type":"Landkreis"},"federalState":{"key":"14","name":"Sachsen"}},{"name":"Am Bahnhof","postalCode":"09235","locality":"Burkhardtsdorf","municipality":{"key":"14521120","name":"Burkhardtsdorf","type":"Kreisangehörige_Gemeinde"},"district":{"key":"14521","name":"Erzgebirgskreis","type":"Landkreis"},"federalState":{"key":"14","name":"Sachsen"}},{"name":"Am Birkenhain","postalCode":"09235","locality":"Burkhardtsdorf","municipality":{"key":"14521120","name":"Burkhardtsdorf","type":"Kreisangehörige_Gemeinde"},"district":{"key":"14521","name":"Erzgebirgskreis","type":"Landkreis"},"federalState":{"key":"14","name":"Sachsen"}},{"name":"Am Feldrain","postalCode":"09235","locality":"Burkhardtsdorf","municipality":{"key":"14521120","name":"Burkhardtsdorf","type":"Kreisangehörige_Gemeinde"},"district":{"key":"14521","name":"Erzgebirgskreis","type":"Landkreis"},"federalState":{"key":"14","name":"Sachsen"}},{"name":"Am Geiersberg","postalCode":"09235","locality":"Burkhardtsdorf","municipality":{"key":"14521120","name":"Burkhardtsdorf","type":"Kreisangehörige_Gemeinde"},"district":{"key":"14521","name":"Erzgebirgskreis","type":"Landkreis"},"federalState":{"key":"14","name":"Sachsen"}},{"name":"Am Hang","postalCode":"09235","locality":"Burkhardtsdorf","municipality":{"key":"14521120","name":"Burkhardtsdorf","type":"Kreisangehörige_Gemeinde"},"district":{"key":"14521","name":"Erzgebirgskreis","type":"Landkreis"},"federalState":{"key":"14","name":"Sachsen"}},{"name":"Am Lehn","postalCode":"09235","locality":"Burkhardtsdorf","municipality":{"key":"14521120","name":"Burkhardtsdorf","type":"Kreisangehörige_Gemeinde"},"district":{"key":"14521","name":"Erzgebirgskreis","type":"Landkreis"},"federalState":{"key":"14","name":"Sachsen"}},{"name":"Am Markt","postalCode":"09235","locality":"Burkhardtsdorf","municipality":{"key":"14521120","name":"Burkhardtsdorf","type":"Kreisangehörige_Gemeinde"},"district":{"key":"14521","name":"Erzgebirgskreis","type":"Landkreis"},"federalState":{"key":"14","name":"Sachsen"}},{"name":"Am Mühlberg","postalCode":"09235","locality":"Burkhardtsdorf","municipality":{"key":"14521120","name":"Burkhardtsdorf","type":"Kreisangehörige_Gemeinde"},"district":{"key":"14521","name":"Erzgebirgskreis","type":"Landkreis"},"federalState":{"key":"14","name":"Sachsen"}},{"name":"Am Niclasberg","postalCode":"09235","locality":"Burkhardtsdorf","municipality":{"key":"14521120","name":"Burkhardtsdorf","type":"Kreisangehörige_Gemeinde"},"district":{"key":"14521","name":"Erzgebirgskreis","type":"Landkreis"},"federalState":{"key":"14","name":"Sachsen"}},{"name":"Amselring","postalCode":"09235","locality":"Burkhardtsdorf","municipality":{"key":"14521120","name":"Burkhardtsdorf","type":"Kreisangehörige_Gemeinde"},"district":{"key":"14521","name":"Erzgebirgskreis","type":"Landkreis"},"federalState":{"key":"14","name":"Sachsen"}},{"name":"Am Skihang","postalCode":"09235","locality":"Burkhardtsdorf","municipality":{"key":"14521120","name":"Burkhardtsdorf","type":"Kreisangehörige_Gemeinde"},"district":{"key":"14521","name":"Erzgebirgskreis","type":"Landkreis"},"federalState":{"key":"14","name":"Sachsen"}},{"name":"Am Sportplatz","postalCode":"09235","locality":"Burkhardtsdorf","municipality":{"key":"14521120","name":"Burkhardtsdorf","type":"Kreisangehörige_Gemeinde"},"district":{"key":"14521","name":"Erzgebirgskreis","type":"Landkreis"},"federalState":{"key":"14","name":"Sachsen"}},{"name":"An den Hofwiesen","postalCode":"09235","locality":"Burkhardtsdorf","municipality":{"key":"14521120","name":"Burkhardtsdorf","type":"Kreisangehörige_Gemeinde"},"district":{"key":"14521","name":"Erzgebirgskreis","type":"Landkreis"},"federalState":{"key":"14","name":"Sachsen"}},{"name":"An der Alten Poststr.","postalCode":"09235","locality":"Burkhardtsdorf","municipality":{"key":"14521120","name":"Burkhardtsdorf","type":"Kreisangehörige_Gemeinde"},"district":{"key":"14521","name":"Erzgebirgskreis","type":"Landkreis"},"federalState":{"key":"14","name":"Sachsen"}},{"name":"Annaberger Str.","postalCode":"09235","locality":"Burkhardtsdorf","municipality":{"key":"14521120","name":"Burkhardtsdorf","type":"Kreisangehörige_Gemeinde"},"district":{"key":"14521","name":"Erzgebirgskreis","type":"Landkreis"},"federalState":{"key":"14","name":"Sachsen"}},{"name":"Anton-Günther-Str.","postalCode":"09235","locality":"Burkhardtsdorf","municipality":{"key":"14521120","name":"Burkhardtsdorf","type":"Kreisangehörige_Gemeinde"},"district":{"key":"14521","name":"Erzgebirgskreis","type":"Landkreis"},"federalState":{"key":"14","name":"Sachsen"}},{"name":"Auental","postalCode":"09235","locality":"Burkhardtsdorf","municipality":{"key":"14521120","name":"Burkhardtsdorf","type":"Kreisangehörige_Gemeinde"},"district":{"key":"14521","name":"Erzgebirgskreis","type":"Landkreis"},"federalState":{"key":"14","name":"Sachsen"}},{"name":"August-Bebel-Str.","postalCode":"09235","locality":"Burkhardtsdorf","municipality":{"key":"14521120","name":"Burkhardtsdorf","type":"Kreisangehörige_Gemeinde"},"district":{"key":"14521","name":"Erzgebirgskreis","type":"Landkreis"},"federalState":{"key":"14","name":"Sachsen"}},{"name":"Bahnhofstr.","postalCode":"09235","locality":"Burkhardtsdorf","municipality":{"key":"14521120","name":"Burkhardtsdorf","type":"Kreisangehörige_Gemeinde"},"district":{"key":"14521","name":"Erzgebirgskreis","type":"Landkreis"},"federalState":{"key":"14","name":"Sachsen"}},{"name":"Becherstr.","postalCode":"09235","locality":"Burkhardtsdorf","municipality":{"key":"14521120","name":"Burkhardtsdorf","type":"Kreisangehörige_Gemeinde"},"district":{"key":"14521","name":"Erzgebirgskreis","type":"Landkreis"},"federalState":{"key":"14","name":"Sachsen"}},{"name":"Berbisdorfer Str.","postalCode":"09235","locality":"Burkhardtsdorf","municipality":{"key":"14521120","name":"Burkhardtsdorf","type":"Kreisangehörige_Gemeinde"},"district":{"key":"14521","name":"Erzgebirgskreis","type":"Landkreis"},"federalState":{"key":"14","name":"Sachsen"}},{"name":"Bergstr.","postalCode":"09235","locality":"Burkhardtsdorf","municipality":{"key":"14521120","name":"Burkhardtsdorf","type":"Kreisangehörige_Gemeinde"},"district":{"key":"14521","name":"Erzgebirgskreis","type":"Landkreis"},"federalState":{"key":"14","name":"Sachsen"}},{"name":"Burkhardtsdorfer Str.","postalCode":"09235","locality":"Burkhardtsdorf","municipality":{"key":"14521120","name":"Burkhardtsdorf","type":"Kreisangehörige_Gemeinde"},"district":{"key":"14521","name":"Erzgebirgskreis","type":"Landkreis"},"federalState":{"key":"14","name":"Sachsen"}},{"name":"Canzlerstr.","postalCode":"09235","locality":"Burkhardtsdorf","municipality":{"key":"14521120","name":"Burkhardtsdorf","type":"Kreisangehörige_Gemeinde"},"district":{"key":"14521","name":"Erzgebirgskreis","type":"Landkreis"},"federalState":{"key":"14","name":"Sachsen"}},{"name":"Chemnitzer Str.","postalCode":"09235","locality":"Burkhardtsdorf","municipality":{"key":"14521120","name":"Burkhardtsdorf","type":"Kreisangehörige_Gemeinde"},"district":{"key":"14521","name":"Erzgebirgskreis","type":"Landkreis"},"federalState":{"key":"14","name":"Sachsen"}},{"name":"Dachsberg","postalCode":"09235","locality":"Burkhardtsdorf","municipality":{"key":"14521120","name":"Burkhardtsdorf","type":"Kreisangehörige_Gemeinde"},"district":{"key":"14521","name":"Erzgebirgskreis","type":"Landkreis"},"federalState":{"key":"14","name":"Sachsen"}},{"name":"Damaschkestr.","postalCode":"09235","locality":"Burkhardtsdorf","municipality":{"key":"14521120","name":"Burkhardtsdorf","type":"Kreisangehörige_Gemeinde"},"district":{"key":"14521","name":"Erzgebirgskreis","type":"Landkreis"},"federalState":{"key":"14","name":"Sachsen"}},{"name":"Dittersdorf-Eibenberger Weg","postalCode":"09235","locality":"Burkhardtsdorf","municipality":{"key":"14521120","name":"Burkhardtsdorf","type":"Kreisangehörige_Gemeinde"},"district":{"key":"14521","name":"Erzgebirgskreis","type":"Landkreis"},"federalState":{"key":"14","name":"Sachsen"}},{"name":"Dittersdorfer Weg","postalCode":"09235","locality":"Burkhardtsdorf","municipality":{"key":"14521120","name":"Burkhardtsdorf","type":"Kreisangehörige_Gemeinde"},"district":{"key":"14521","name":"Erzgebirgskreis","type":"Landkreis"},"federalState":{"key":"14","name":"Sachsen"}},{"name":"Dorfweg","postalCode":"09235","locality":"Burkhardtsdorf","municipality":{"key":"14521120","name":"Burkhardtsdorf","type":"Kreisangehörige_Gemeinde"},"district":{"key":"14521","name":"Erzgebirgskreis","type":"Landkreis"},"federalState":{"key":"14","name":"Sachsen"}},{"name":"Eibenberger Str.","postalCode":"09235","locality":"Burkhardtsdorf","municipality":{"key":"14521120","name":"Burkhardtsdorf","type":"Kreisangehörige_Gemeinde"},"district":{"key":"14521","name":"Erzgebirgskreis","type":"Landkreis"},"federalState":{"key":"14","name":"Sachsen"}},{"name":"Eigene Scholle","postalCode":"09235","locality":"Burkhardtsdorf","municipality":{"key":"14521120","name":"Burkhardtsdorf","type":"Kreisangehörige_Gemeinde"},"district":{"key":"14521","name":"Erzgebirgskreis","type":"Landkreis"},"federalState":{"key":"14","name":"Sachsen"}},{"name":"Einsiedler Str.","postalCode":"09235","locality":"Burkhardtsdorf","municipality":{"key":"14521120","name":"Burkhardtsdorf","type":"Kreisangehörige_Gemeinde"},"district":{"key":"14521","name":"Erzgebirgskreis","type":"Landkreis"},"federalState":{"key":"14","name":"Sachsen"}},{"name":"Eisenstr.","postalCode":"09235","locality":"Burkhardtsdorf","municipality":{"key":"14521120","name":"Burkhardtsdorf","type":"Kreisangehörige_Gemeinde"},"district":{"key":"14521","name":"Erzgebirgskreis","type":"Landkreis"},"federalState":{"key":"14","name":"Sachsen"}},{"name":"Eisenweg","postalCode":"09235","locality":"Burkhardtsdorf","municipality":{"key":"14521120","name":"Burkhardtsdorf","type":"Kreisangehörige_Gemeinde"},"district":{"key":"14521","name":"Erzgebirgskreis","type":"Landkreis"},"federalState":{"key":"14","name":"Sachsen"}},{"name":"Ernst-Thälmann-Str.","postalCode":"09235","locality":"Burkhardtsdorf","municipality":{"key":"14521120","name":"Burkhardtsdorf","type":"Kreisangehörige_Gemeinde"},"district":{"key":"14521","name":"Erzgebirgskreis","type":"Landkreis"},"federalState":{"key":"14","name":"Sachsen"}},{"name":"Finkenweg","postalCode":"09235","locality":"Burkhardtsdorf","municipality":{"key":"14521120","name":"Burkhardtsdorf","type":"Kreisangehörige_Gemeinde"},"district":{"key":"14521","name":"Erzgebirgskreis","type":"Landkreis"},"federalState":{"key":"14","name":"Sachsen"}},{"name":"Friedhofpark","postalCode":"09235","locality":"Burkhardtsdorf","municipality":{"key":"14521120","name":"Burkhardtsdorf","type":"Kreisangehörige_Gemeinde"},"district":{"key":"14521","name":"Erzgebirgskreis","type":"Landkreis"},"federalState":{"key":"14","name":"Sachsen"}},{"name":"Gartenstr.","postalCode":"09235","locality":"Burkhardtsdorf","municipality":{"key":"14521120","name":"Burkhardtsdorf","type":"Kreisangehörige_Gemeinde"},"district":{"key":"14521","name":"Erzgebirgskreis","type":"Landkreis"},"federalState":{"key":"14","name":"Sachsen"}},{"name":"Gartenweg","postalCode":"09235","locality":"Burkhardtsdorf","municipality":{"key":"14521120","name":"Burkhardtsdorf","type":"Kreisangehörige_Gemeinde"},"district":{"key":"14521","name":"Erzgebirgskreis","type":"Landkreis"},"federalState":{"key":"14","name":"Sachsen"}},{"name":"Gelenauer Str.","postalCode":"09235","locality":"Burkhardtsdorf","municipality":{"key":"14521120","name":"Burkhardtsdorf","type":"Kreisangehörige_Gemeinde"},"district":{"key":"14521","name":"Erzgebirgskreis","type":"Landkreis"},"federalState":{"key":"14","name":"Sachsen"}},{"name":"Goethestr.","postalCode":"09235","locality":"Burkhardtsdorf","municipality":{"key":"14521120","name":"Burkhardtsdorf","type":"Kreisangehörige_Gemeinde"},"district":{"key":"14521","name":"Erzgebirgskreis","type":"Landkreis"},"federalState":{"key":"14","name":"Sachsen"}},{"name":"Gräfinsteig","postalCode":"09235","locality":"Burkhardtsdorf","municipality":{"key":"14521120","name":"Burkhardtsdorf","type":"Kreisangehörige_Gemeinde"},"district":{"key":"14521","name":"Erzgebirgskreis","type":"Landkreis"},"federalState":{"key":"14","name":"Sachsen"}},{"name":"Grüner Weg","postalCode":"09235","locality":"Burkhardtsdorf","municipality":{"key":"14521120","name":"Burkhardtsdorf","type":"Kreisangehörige_Gemeinde"},"district":{"key":"14521","name":"Erzgebirgskreis","type":"Landkreis"},"federalState":{"key":"14","name":"Sachsen"}},{"name":"Hauptstr.","postalCode":"09235","locality":"Burkhardtsdorf","municipality":{"key":"14521120","name":"Burkhardtsdorf","type":"Kreisangehörige_Gemeinde"},"district":{"key":"14521","name":"Erzgebirgskreis","type":"Landkreis"},"federalState":{"key":"14","name":"Sachsen"}},{"name":"Himmelsleiter","postalCode":"09235","locality":"Burkhardtsdorf","municipality":{"key":"14521120","name":"Burkhardtsdorf","type":"Kreisangehörige_Gemeinde"},"district":{"key":"14521","name":"Erzgebirgskreis","type":"Landkreis"},"federalState":{"key":"14","name":"Sachsen"}},{"name":"Hofweg","postalCode":"09235","locality":"Burkhardtsdorf","municipality":{"key":"14521120","name":"Burkhardtsdorf","type":"Kreisangehörige_Gemeinde"},"district":{"key":"14521","name":"Erzgebirgskreis","type":"Landkreis"},"federalState":{"key":"14","name":"Sachsen"}},{"name":"Hoher Weg","postalCode":"09235","locality":"Burkhardtsdorf","municipality":{"key":"14521120","name":"Burkhardtsdorf","type":"Kreisangehörige_Gemeinde"},"district":{"key":"14521","name":"Erzgebirgskreis","type":"Landkreis"},"federalState":{"key":"14","name":"Sachsen"}},{"name":"Huhle","postalCode":"09235","locality":"Burkhardtsdorf","municipality":{"key":"14521120","name":"Burkhardtsdorf","type":"Kreisangehörige_Gemeinde"},"district":{"key":"14521","name":"Erzgebirgskreis","type":"Landkreis"},"federalState":{"key":"14","name":"Sachsen"}},{"name":"Jahnsdorfer Str.","postalCode":"09235","locality":"Burkhardtsdorf","municipality":{"key":"14521120","name":"Burkhardtsdorf","type":"Kreisangehörige_Gemeinde"},"district":{"key":"14521","name":"Erzgebirgskreis","type":"Landkreis"},"federalState":{"key":"14","name":"Sachsen"}},{"name":"Kapstr.","postalCode":"09235","locality":"Burkhardtsdorf","municipality":{"key":"14521120","name":"Burkhardtsdorf","type":"Kreisangehörige_Gemeinde"},"district":{"key":"14521","name":"Erzgebirgskreis","type":"Landkreis"},"federalState":{"key":"14","name":"Sachsen"}},{"name":"Karl-Marx-Str.","postalCode":"09235","locality":"Burkhardtsdorf","municipality":{"key":"14521120","name":"Burkhardtsdorf","type":"Kreisangehörige_Gemeinde"},"district":{"key":"14521","name":"Erzgebirgskreis","type":"Landkreis"},"federalState":{"key":"14","name":"Sachsen"}},{"name":"Kemtauer Str.","postalCode":"09235","locality":"Burkhardtsdorf","municipality":{"key":"14521120","name":"Burkhardtsdorf","type":"Kreisangehörige_Gemeinde"},"district":{"key":"14521","name":"Erzgebirgskreis","type":"Landkreis"},"federalState":{"key":"14","name":"Sachsen"}},{"name":"Kinobrücke","postalCode":"09235","locality":"Burkhardtsdorf","municipality":{"key":"14521120","name":"Burkhardtsdorf","type":"Kreisangehörige_Gemeinde"},"district":{"key":"14521","name":"Erzgebirgskreis","type":"Landkreis"},"federalState":{"key":"14","name":"Sachsen"}},{"name":"Kirchsteig","postalCode":"09235","locality":"Burkhardtsdorf","municipality":{"key":"14521120","name":"Burkhardtsdorf","type":"Kreisangehörige_Gemeinde"},"district":{"key":"14521","name":"Erzgebirgskreis","type":"Landkreis"},"federalState":{"key":"14","name":"Sachsen"}},{"name":"Klaffenbacher Str.","postalCode":"09235","locality":"Burkhardtsdorf","municipality":{"key":"14521120","name":"Burkhardtsdorf","type":"Kreisangehörige_Gemeinde"},"district":{"key":"14521","name":"Erzgebirgskreis","type":"Landkreis"},"federalState":{"key":"14","name":"Sachsen"}},{"name":"Klosterhang","postalCode":"09235","locality":"Burkhardtsdorf","municipality":{"key":"14521120","name":"Burkhardtsdorf","type":"Kreisangehörige_Gemeinde"},"district":{"key":"14521","name":"Erzgebirgskreis","type":"Landkreis"},"federalState":{"key":"14","name":"Sachsen"}},{"name":"Kurze Str.","postalCode":"09235","locality":"Burkhardtsdorf","municipality":{"key":"14521120","name":"Burkhardtsdorf","type":"Kreisangehörige_Gemeinde"},"district":{"key":"14521","name":"Erzgebirgskreis","type":"Landkreis"},"federalState":{"key":"14","name":"Sachsen"}},{"name":"Lärchenweg","postalCode":"09235","locality":"Burkhardtsdorf","municipality":{"key":"14521120","name":"Burkhardtsdorf","type":"Kreisangehörige_Gemeinde"},"district":{"key":"14521","name":"Erzgebirgskreis","type":"Landkreis"},"federalState":{"key":"14","name":"Sachsen"}},{"name":"Lerchensteig","postalCode":"09235","locality":"Burkhardtsdorf","municipality":{"key":"14521120","name":"Burkhardtsdorf","type":"Kreisangehörige_Gemeinde"},"district":{"key":"14521","name":"Erzgebirgskreis","type":"Landkreis"},"federalState":{"key":"14","name":"Sachsen"}},{"name":"Lessingstr.","postalCode":"09235","locality":"Burkhardtsdorf","municipality":{"key":"14521120","name":"Burkhardtsdorf","type":"Kreisangehörige_Gemeinde"},"district":{"key":"14521","name":"Erzgebirgskreis","type":"Landkreis"},"federalState":{"key":"14","name":"Sachsen"}},{"name":"Lindenweg","postalCode":"09235","locality":"Burkhardtsdorf","municipality":{"key":"14521120","name":"Burkhardtsdorf","type":"Kreisangehörige_Gemeinde"},"district":{"key":"14521","name":"Erzgebirgskreis","type":"Landkreis"},"federalState":{"key":"14","name":"Sachsen"}},{"name":"Meinersdorfer Str.","postalCode":"09235","locality":"Burkhardtsdorf","municipality":{"key":"14521120","name":"Burkhardtsdorf","type":"Kreisangehörige_Gemeinde"},"district":{"key":"14521","name":"Erzgebirgskreis","type":"Landkreis"},"federalState":{"key":"14","name":"Sachsen"}},{"name":"Meisenweg","postalCode":"09235","locality":"Burkhardtsdorf","municipality":{"key":"14521120","name":"Burkhardtsdorf","type":"Kreisangehörige_Gemeinde"},"district":{"key":"14521","name":"Erzgebirgskreis","type":"Landkreis"},"federalState":{"key":"14","name":"Sachsen"}},{"name":"Mühlenweg","postalCode":"09235","locality":"Burkhardtsdorf","municipality":{"key":"14521120","name":"Burkhardtsdorf","type":"Kreisangehörige_Gemeinde"},"district":{"key":"14521","name":"Erzgebirgskreis","type":"Landkreis"},"federalState":{"key":"14","name":"Sachsen"}},{"name":"Mühlweg","postalCode":"09235","locality":"Burkhardtsdorf","municipality":{"key":"14521120","name":"Burkhardtsdorf","type":"Kreisangehörige_Gemeinde"},"district":{"key":"14521","name":"Erzgebirgskreis","type":"Landkreis"},"federalState":{"key":"14","name":"Sachsen"}},{"name":"Neue Gasse","postalCode":"09235","locality":"Burkhardtsdorf","municipality":{"key":"14521120","name":"Burkhardtsdorf","type":"Kreisangehörige_Gemeinde"},"district":{"key":"14521","name":"Erzgebirgskreis","type":"Landkreis"},"federalState":{"key":"14","name":"Sachsen"}},{"name":"Neue Str.","postalCode":"09235","locality":"Burkhardtsdorf","municipality":{"key":"14521120","name":"Burkhardtsdorf","type":"Kreisangehörige_Gemeinde"},"district":{"key":"14521","name":"Erzgebirgskreis","type":"Landkreis"},"federalState":{"key":"14","name":"Sachsen"}},{"name":"Obere Hauptstr.","postalCode":"09235","locality":"Burkhardtsdorf","municipality":{"key":"14521120","name":"Burkhardtsdorf","type":"Kreisangehörige_Gemeinde"},"district":{"key":"14521","name":"Erzgebirgskreis","type":"Landkreis"},"federalState":{"key":"14","name":"Sachsen"}},{"name":"Otto-Schüngel-Str.","postalCode":"09235","locality":"Burkhardtsdorf","municipality":{"key":"14521120","name":"Burkhardtsdorf","type":"Kreisangehörige_Gemeinde"},"district":{"key":"14521","name":"Erzgebirgskreis","type":"Landkreis"},"federalState":{"key":"14","name":"Sachsen"}},{"name":"Park am Bahnhof","postalCode":"09235","locality":"Burkhardtsdorf","municipality":{"key":"14521120","name":"Burkhardtsdorf","type":"Kreisangehörige_Gemeinde"},"district":{"key":"14521","name":"Erzgebirgskreis","type":"Landkreis"},"federalState":{"key":"14","name":"Sachsen"}},{"name":"Park am Rathaus","postalCode":"09235","locality":"Burkhardtsdorf","municipality":{"key":"14521120","name":"Burkhardtsdorf","type":"Kreisangehörige_Gemeinde"},"district":{"key":"14521","name":"Erzgebirgskreis","type":"Landkreis"},"federalState":{"key":"14","name":"Sachsen"}},{"name":"Pestalozziweg","postalCode":"09235","locality":"Burkhardtsdorf","municipality":{"key":"14521120","name":"Burkhardtsdorf","type":"Kreisangehörige_Gemeinde"},"district":{"key":"14521","name":"Erzgebirgskreis","type":"Landkreis"},"federalState":{"key":"14","name":"Sachsen"}},{"name":"Pfarrweg","postalCode":"09235","locality":"Burkhardtsdorf","municipality":{"key":"14521120","name":"Burkhardtsdorf","type":"Kreisangehörige_Gemeinde"},"district":{"key":"14521","name":"Erzgebirgskreis","type":"Landkreis"},"federalState":{"key":"14","name":"Sachsen"}},{"name":"Platz der Jugend","postalCode":"09235","locality":"Burkhardtsdorf","municipality":{"key":"14521120","name":"Burkhardtsdorf","type":"Kreisangehörige_Gemeinde"},"district":{"key":"14521","name":"Erzgebirgskreis","type":"Landkreis"},"federalState":{"key":"14","name":"Sachsen"}},{"name":"Randsiedlung","postalCode":"09235","locality":"Burkhardtsdorf","municipality":{"key":"14521120","name":"Burkhardtsdorf","type":"Kreisangehörige_Gemeinde"},"district":{"key":"14521","name":"Erzgebirgskreis","type":"Landkreis"},"federalState":{"key":"14","name":"Sachsen"}},{"name":"Rathausplatz","postalCode":"09235","locality":"Burkhardtsdorf","municipality":{"key":"14521120","name":"Burkhardtsdorf","type":"Kreisangehörige_Gemeinde"},"district":{"key":"14521","name":"Erzgebirgskreis","type":"Landkreis"},"federalState":{"key":"14","name":"Sachsen"}},{"name":"Rollweg","postalCode":"09235","locality":"Burkhardtsdorf","municipality":{"key":"14521120","name":"Burkhardtsdorf","type":"Kreisangehörige_Gemeinde"},"district":{"key":"14521","name":"Erzgebirgskreis","type":"Landkreis"},"federalState":{"key":"14","name":"Sachsen"}},{"name":"Schillerplatz","postalCode":"09235","locality":"Burkhardtsdorf","municipality":{"key":"14521120","name":"Burkhardtsdorf","type":"Kreisangehörige_Gemeinde"},"district":{"key":"14521","name":"Erzgebirgskreis","type":"Landkreis"},"federalState":{"key":"14","name":"Sachsen"}},{"name":"Schulstr.","postalCode":"09235","locality":"Burkhardtsdorf","municipality":{"key":"14521120","name":"Burkhardtsdorf","type":"Kreisangehörige_Gemeinde"},"district":{"key":"14521","name":"Erzgebirgskreis","type":"Landkreis"},"federalState":{"key":"14","name":"Sachsen"}},{"name":"Seilerweg","postalCode":"09235","locality":"Burkhardtsdorf","municipality":{"key":"14521120","name":"Burkhardtsdorf","type":"Kreisangehörige_Gemeinde"},"district":{"key":"14521","name":"Erzgebirgskreis","type":"Landkreis"},"federalState":{"key":"14","name":"Sachsen"}},{"name":"Sommerleite","postalCode":"09235","locality":"Burkhardtsdorf","municipality":{"key":"14521120","name":"Burkhardtsdorf","type":"Kreisangehörige_Gemeinde"},"district":{"key":"14521","name":"Erzgebirgskreis","type":"Landkreis"},"federalState":{"key":"14","name":"Sachsen"}},{"name":"Sonnenstr.","postalCode":"09235","locality":"Burkhardtsdorf","municipality":{"key":"14521120","name":"Burkhardtsdorf","type":"Kreisangehörige_Gemeinde"},"district":{"key":"14521","name":"Erzgebirgskreis","type":"Landkreis"},"federalState":{"key":"14","name":"Sachsen"}},{"name":"Str. des Friedens","postalCode":"09235","locality":"Burkhardtsdorf","municipality":{"key":"14521120","name":"Burkhardtsdorf","type":"Kreisangehörige_Gemeinde"},"district":{"key":"14521","name":"Erzgebirgskreis","type":"Landkreis"},"federalState":{"key":"14","name":"Sachsen"}},{"name":"Südweg","postalCode":"09235","locality":"Burkhardtsdorf","municipality":{"key":"14521120","name":"Burkhardtsdorf","type":"Kreisangehörige_Gemeinde"},"district":{"key":"14521","name":"Erzgebirgskreis","type":"Landkreis"},"federalState":{"key":"14","name":"Sachsen"}},{"name":"Talstr.","postalCode":"09235","locality":"Burkhardtsdorf","municipality":{"key":"14521120","name":"Burkhardtsdorf","type":"Kreisangehörige_Gemeinde"},"district":{"key":"14521","name":"Erzgebirgskreis","type":"Landkreis"},"federalState":{"key":"14","name":"Sachsen"}},{"name":"Teichweg","postalCode":"09235","locality":"Burkhardtsdorf","municipality":{"key":"14521120","name":"Burkhardtsdorf","type":"Kreisangehörige_Gemeinde"},"district":{"key":"14521","name":"Erzgebirgskreis","type":"Landkreis"},"federalState":{"key":"14","name":"Sachsen"}},{"name":"Topfmarkt","postalCode":"09235","locality":"Burkhardtsdorf","municipality":{"key":"14521120","name":"Burkhardtsdorf","type":"Kreisangehörige_Gemeinde"},"district":{"key":"14521","name":"Erzgebirgskreis","type":"Landkreis"},"federalState":{"key":"14","name":"Sachsen"}},{"name":"Turnstr.","postalCode":"09235","locality":"Burkhardtsdorf","municipality":{"key":"14521120","name":"Burkhardtsdorf","type":"Kreisangehörige_Gemeinde"},"district":{"key":"14521","name":"Erzgebirgskreis","type":"Landkreis"},"federalState":{"key":"14","name":"Sachsen"}},{"name":"Uferstr.","postalCode":"09235","locality":"Burkhardtsdorf","municipality":{"key":"14521120","name":"Burkhardtsdorf","type":"Kreisangehörige_Gemeinde"},"district":{"key":"14521","name":"Erzgebirgskreis","type":"Landkreis"},"federalState":{"key":"14","name":"Sachsen"}},{"name":"Untere Hauptstr.","postalCode":"09235","locality":"Burkhardtsdorf","municipality":{"key":"14521120","name":"Burkhardtsdorf","type":"Kreisangehörige_Gemeinde"},"district":{"key":"14521","name":"Erzgebirgskreis","type":"Landkreis"},"federalState":{"key":"14","name":"Sachsen"}},{"name":"Waldstr.","postalCode":"09235","locality":"Burkhardtsdorf","municipality":{"key":"14521120","name":"Burkhardtsdorf","type":"Kreisangehörige_Gemeinde"},"district":{"key":"14521","name":"Erzgebirgskreis","type":"Landkreis"},"federalState":{"key":"14","name":"Sachsen"}},{"name":"Waldweg","postalCode":"09235","locality":"Burkhardtsdorf","municipality":{"key":"14521120","name":"Burkhardtsdorf","type":"Kreisangehörige_Gemeinde"},"district":{"key":"14521","name":"Erzgebirgskreis","type":"Landkreis"},"federalState":{"key":"14","name":"Sachsen"}},{"name":"Weißbacher Str.","postalCode":"09235","locality":"Burkhardtsdorf","municipality":{"key":"14521120","name":"Burkhardtsdorf","type":"Kreisangehörige_Gemeinde"},"district":{"key":"14521","name":"Erzgebirgskreis","type":"Landkreis"},"federalState":{"key":"14","name":"Sachsen"}},{"name":"Wiesengrund","postalCode":"09235","locality":"Burkhardtsdorf","municipality":{"key":"14521120","name":"Burkhardtsdorf","type":"Kreisangehörige_Gemeinde"},"district":{"key":"14521","name":"Erzgebirgskreis","type":"Landkreis"},"federalState":{"key":"14","name":"Sachsen"}},{"name":"Wiesenweg","postalCode":"09235","locality":"Burkhardtsdorf","municipality":{"key":"14521120","name":"Burkhardtsdorf","type":"Kreisangehörige_Gemeinde"},"district":{"key":"14521","name":"Erzgebirgskreis","type":"Landkreis"},"federalState":{"key":"14","name":"Sachsen"}},{"name":"Winkel","postalCode":"09235","locality":"Burkhardtsdorf","municipality":{"key":"14521120","name":"Burkhardtsdorf","type":"Kreisangehörige_Gemeinde"},"district":{"key":"14521","name":"Erzgebirgskreis","type":"Landkreis"},"federalState":{"key":"14","name":"Sachsen"}},{"name":"Wüsteweg","postalCode":"09235","locality":"Burkhardtsdorf","municipality":{"key":"14521120","name":"Burkhardtsdorf","type":"Kreisangehörige_Gemeinde"},"district":{"key":"14521","name":"Erzgebirgskreis","type":"Landkreis"},"federalState":{"key":"14","name":"Sachsen"}},{"name":"Zeile","postalCode":"09235","locality":"Burkhardtsdorf","municipality":{"key":"14521120","name":"Burkhardtsdorf","type":"Kreisangehörige_Gemeinde"},"district":{"key":"14521","name":"Erzgebirgskreis","type":"Landkreis"},"federalState":{"key":"14","name":"Sachsen"}},{"name":"Zeisigwinkel","postalCode":"09235","locality":"Burkhardtsdorf","municipality":{"key":"14521120","name":"Burkhardtsdorf","type":"Kreisangehörige_Gemeinde"},"district":{"key":"14521","name":"Erzgebirgskreis","type":"Landkreis"},"federalState":{"key":"14","name":"Sachsen"}},{"name":"Zöpfelsteig","postalCode":"09235","locality":"Burkhardtsdorf","municipality":{"key":"14521120","name":"Burkhardtsdorf","type":"Kreisangehörige_Gemeinde"},"district":{"key":"14521","name":"Erzgebirgskreis","type":"Landkreis"},"federalState":{"key":"14","name":"Sachsen"}},{"name":"Zwönitztalstr.","postalCode":"09235","locality":"Burkhardtsdorf","municipality":{"key":"14521120","name":"Burkhardtsdorf","type":"Kreisangehörige_Gemeinde"},"district":{"key":"14521","name":"Erzgebirgskreis","type":"Landkreis"},"federalState":{"key":"14","name":"Sachsen"}},{"name":"Zwönitztalweg","postalCode":"09235","locality":"Burkhardtsdorf","municipality":{"key":"14521120","name":"Burkhardtsdorf","type":"Kreisangehörige_Gemeinde"},"district":{"key":"14521","name":"Erzgebirgskreis","type":"Landkreis"},"federalState":{"key":"14","name":"Sachsen"}},]