[{"key":"10105161","name":"Chemin de Bassy","postalCode":"1247","locality":"Anières","commune":{"key":"6602","name":"Anières","shortName":"Anières"},"district":{"key":"2500","name":"Canton de Genève"},"canton":{"key":"25","code":"GE","name":"Genève"},"status":"Real"},{"key":"10048824","name":"Chemin de Bézaley","postalCode":"1247","locality":"Anières","commune":{"key":"6602","name":"Anières","shortName":"Anières"},"district":{"key":"2500","name":"Canton de Genève"},"canton":{"key":"25","code":"GE","name":"Genève"},"status":"Real"},{"key":"10222090","name":"Chemin de Boret","postalCode":"1247","locality":"Anières","commune":{"key":"6602","name":"Anières","shortName":"Anières"},"district":{"key":"2500","name":"Canton de Genève"},"canton":{"key":"25","code":"GE","name":"Genève"},"status":"Real"},{"key":"10222097","name":"Chemin de Cadonne","postalCode":"1247","locality":"Anières","commune":{"key":"6602","name":"Anières","shortName":"Anières"},"district":{"key":"2500","name":"Canton de Genève"},"canton":{"key":"25","code":"GE","name":"Genève"},"status":"Real"},{"key":"10095710","name":"Chemin de Coponnex","postalCode":"1247","locality":"Anières","commune":{"key":"6602","name":"Anières","shortName":"Anières"},"district":{"key":"2500","name":"Canton de Genève"},"canton":{"key":"25","code":"GE","name":"Genève"},"status":"Real"},{"key":"10048825","name":"Chemin de Cortenaz","postalCode":"1247","locality":"Anières","commune":{"key":"6602","name":"Anières","shortName":"Anières"},"district":{"key":"2500","name":"Canton de Genève"},"canton":{"key":"25","code":"GE","name":"Genève"},"status":"Real"},{"key":"10048826","name":"Chemin de Fleur-d'Eau","postalCode":"1247","locality":"Anières","commune":{"key":"6602","name":"Anières","shortName":"Anières"},"district":{"key":"2500","name":"Canton de Genève"},"canton":{"key":"25","code":"GE","name":"Genève"},"status":"Real"},{"key":"10083998","name":"Chemin de la Bassière","postalCode":"1247","locality":"Anières","commune":{"key":"6602","name":"Anières","shortName":"Anières"},"district":{"key":"2500","name":"Canton de Genève"},"canton":{"key":"25","code":"GE","name":"Genève"},"status":"Real"},{"key":"10199099","name":"Chemin de La-Carignan","postalCode":"1247","locality":"Anières","commune":{"key":"6602","name":"Anières","shortName":"Anières"},"district":{"key":"2500","name":"Canton de Genève"},"canton":{"key":"25","code":"GE","name":"Genève"},"status":"Real"},{"key":"10095711","name":"Chemin de la Gravière","postalCode":"1247","locality":"Anières","commune":{"key":"6602","name":"Anières","shortName":"Anières"},"district":{"key":"2500","name":"Canton de Genève"},"canton":{"key":"25","code":"GE","name":"Genève"},"status":"Real"},{"key":"10048827","name":"Chemin de la Marguerite","postalCode":"1247","locality":"Anières","commune":{"key":"6602","name":"Anières","shortName":"Anières"},"district":{"key":"2500","name":"Canton de Genève"},"canton":{"key":"25","code":"GE","name":"Genève"},"status":"Real"},{"key":"10048828","name":"Chemin des Ambys","postalCode":"1247","locality":"Anières","commune":{"key":"6602","name":"Anières","shortName":"Anières"},"district":{"key":"2500","name":"Canton de Genève"},"canton":{"key":"25","code":"GE","name":"Genève"},"status":"Real"},{"key":"10222101","name":"Chemin des Assets","postalCode":"1247","locality":"Anières","commune":{"key":"6602","name":"Anières","shortName":"Anières"},"district":{"key":"2500","name":"Canton de Genève"},"canton":{"key":"25","code":"GE","name":"Genève"},"status":"Real"},{"key":"10095712","name":"Chemin des Avallons","postalCode":"1247","locality":"Anières","commune":{"key":"6602","name":"Anières","shortName":"Anières"},"district":{"key":"2500","name":"Canton de Genève"},"canton":{"key":"25","code":"GE","name":"Genève"},"status":"Real"},{"key":"10222104","name":"Chemin des Bouchats","postalCode":"1247","locality":"Anières","commune":{"key":"6602","name":"Anières","shortName":"Anières"},"district":{"key":"2500","name":"Canton de Genève"},"canton":{"key":"25","code":"GE","name":"Genève"},"status":"Real"},{"key":"10222108","name":"Chemin des Bracots","postalCode":"1247","locality":"Anières","commune":{"key":"6602","name":"Anières","shortName":"Anières"},"district":{"key":"2500","name":"Canton de Genève"},"canton":{"key":"25","code":"GE","name":"Genève"},"status":"Real"},{"key":"10048829","name":"Chemin des Champs-Lingot","postalCode":"1247","locality":"Anières","commune":{"key":"6602","name":"Anières","shortName":"Anières"},"district":{"key":"2500","name":"Canton de Genève"},"canton":{"key":"25","code":"GE","name":"Genève"},"status":"Real"},{"key":"10222113","name":"Chemin des Champs-Nabez","postalCode":"1247","locality":"Anières","commune":{"key":"6602","name":"Anières","shortName":"Anières"},"district":{"key":"2500","name":"Canton de Genève"},"canton":{"key":"25","code":"GE","name":"Genève"},"status":"Real"},{"key":"10048830","name":"Chemin des Chavannes","postalCode":"1247","locality":"Anières","commune":{"key":"6602","name":"Anières","shortName":"Anières"},"district":{"key":"2500","name":"Canton de Genève"},"canton":{"key":"25","code":"GE","name":"Genève"},"status":"Real"},{"key":"10083999","name":"Chemin des Clapotis","postalCode":"1247","locality":"Anières","commune":{"key":"6602","name":"Anières","shortName":"Anières"},"district":{"key":"2500","name":"Canton de Genève"},"canton":{"key":"25","code":"GE","name":"Genève"},"status":"Real"},{"key":"10095713","name":"Chemin des Courbes","postalCode":"1247","locality":"Anières","commune":{"key":"6602","name":"Anières","shortName":"Anières"},"district":{"key":"2500","name":"Canton de Genève"},"canton":{"key":"25","code":"GE","name":"Genève"},"status":"Real"},{"key":"10222117","name":"Chemin des Echards","postalCode":"1247","locality":"Anières","commune":{"key":"6602","name":"Anières","shortName":"Anières"},"district":{"key":"2500","name":"Canton de Genève"},"canton":{"key":"25","code":"GE","name":"Genève"},"status":"Real"},{"key":"10222121","name":"Chemin des Féclets","postalCode":"1247","locality":"Anières","commune":{"key":"6602","name":"Anières","shortName":"Anières"},"district":{"key":"2500","name":"Canton de Genève"},"canton":{"key":"25","code":"GE","name":"Genève"},"status":"Real"},{"key":"10048831","name":"Chemin des Hauts-Monts","postalCode":"1247","locality":"Anières","commune":{"key":"6602","name":"Anières","shortName":"Anières"},"district":{"key":"2500","name":"Canton de Genève"},"canton":{"key":"25","code":"GE","name":"Genève"},"status":"Real"},{"key":"10179373","name":"Chemin des Hutins","postalCode":"1247","locality":"Anières","commune":{"key":"6602","name":"Anières","shortName":"Anières"},"district":{"key":"2500","name":"Canton de Genève"},"canton":{"key":"25","code":"GE","name":"Genève"},"status":"Real"},{"key":"10095714","name":"Chemin des Lieux","postalCode":"1247","locality":"Anières","commune":{"key":"6602","name":"Anières","shortName":"Anières"},"district":{"key":"2500","name":"Canton de Genève"},"canton":{"key":"25","code":"GE","name":"Genève"},"status":"Real"},{"key":"10222129","name":"Chemin des Marais-de-Sanvouigle","postalCode":"1247","locality":"Anières","commune":{"key":"6602","name":"Anières","shortName":"Anières"},"district":{"key":"2500","name":"Canton de Genève"},"canton":{"key":"25","code":"GE","name":"Genève"},"status":"Real"},{"key":"10222131","name":"Chemin des Sarrasins","postalCode":"1247","locality":"Anières","commune":{"key":"6602","name":"Anières","shortName":"Anières"},"district":{"key":"2500","name":"Canton de Genève"},"canton":{"key":"25","code":"GE","name":"Genève"},"status":"Real"},{"key":"10048832","name":"Chemin du Cimetière","postalCode":"1247","locality":"Anières","commune":{"key":"6602","name":"Anières","shortName":"Anières"},"district":{"key":"2500","name":"Canton de Genève"},"canton":{"key":"25","code":"GE","name":"Genève"},"status":"Real"},{"key":"10103082","name":"Chemin du Courson","postalCode":"1247","locality":"Anières","commune":{"key":"6602","name":"Anières","shortName":"Anières"},"district":{"key":"2500","name":"Canton de Genève"},"canton":{"key":"25","code":"GE","name":"Genève"},"status":"Real"},{"key":"10084000","name":"Chemin du Débarcadère","postalCode":"1247","locality":"Anières","commune":{"key":"6602","name":"Anières","shortName":"Anières"},"district":{"key":"2500","name":"Canton de Genève"},"canton":{"key":"25","code":"GE","name":"Genève"},"status":"Real"},{"key":"10095715","name":"Chemin du Nant-d'Aisy","postalCode":"1247","locality":"Anières","commune":{"key":"6602","name":"Anières","shortName":"Anières"},"district":{"key":"2500","name":"Canton de Genève"},"canton":{"key":"25","code":"GE","name":"Genève"},"status":"Real"},{"key":"10048833","name":"Chemin du Pont-de-Crévy","postalCode":"1247","locality":"Anières","commune":{"key":"6602","name":"Anières","shortName":"Anières"},"district":{"key":"2500","name":"Canton de Genève"},"canton":{"key":"25","code":"GE","name":"Genève"},"status":"Real"},{"key":"10048834","name":"Chemin du Pont-des-Golettes","postalCode":"1247","locality":"Anières","commune":{"key":"6602","name":"Anières","shortName":"Anières"},"district":{"key":"2500","name":"Canton de Genève"},"canton":{"key":"25","code":"GE","name":"Genève"},"status":"Real"},{"key":"10163376","name":"Chemin François-ROSSIAUD","postalCode":"1247","locality":"Anières","commune":{"key":"6602","name":"Anières","shortName":"Anières"},"district":{"key":"2500","name":"Canton de Genève"},"canton":{"key":"25","code":"GE","name":"Genève"},"status":"Real"},{"key":"10095716","name":"Route de Chevrens","postalCode":"1247","locality":"Anières","commune":{"key":"6602","name":"Anières","shortName":"Anières"},"district":{"key":"2500","name":"Canton de Genève"},"canton":{"key":"25","code":"GE","name":"Genève"},"status":"Real"},{"key":"10105162","name":"Route de Foncenex","postalCode":"1247","locality":"Anières","commune":{"key":"6602","name":"Anières","shortName":"Anières"},"district":{"key":"2500","name":"Canton de Genève"},"canton":{"key":"25","code":"GE","name":"Genève"},"status":"Real"},{"key":"10048837","name":"Route de la Côte-d'Or","postalCode":"1247","locality":"Anières","commune":{"key":"6602","name":"Anières","shortName":"Anières"},"district":{"key":"2500","name":"Canton de Genève"},"canton":{"key":"25","code":"GE","name":"Genève"},"status":"Real"},{"key":"10095717","name":"Route de l'Hospice","postalCode":"1247","locality":"Anières","commune":{"key":"6602","name":"Anières","shortName":"Anières"},"district":{"key":"2500","name":"Canton de Genève"},"canton":{"key":"25","code":"GE","name":"Genève"},"status":"Real"},{"key":"10048836","name":"Route de Sous-Chevrens","postalCode":"1247","locality":"Anières","commune":{"key":"6602","name":"Anières","shortName":"Anières"},"district":{"key":"2500","name":"Canton de Genève"},"canton":{"key":"25","code":"GE","name":"Genève"},"status":"Real"},{"key":"10176180","name":"Route de Thonon","postalCode":"1247","locality":"Anières","commune":{"key":"6602","name":"Anières","shortName":"Anières"},"district":{"key":"2500","name":"Canton de Genève"},"canton":{"key":"25","code":"GE","name":"Genève"},"status":"Real"},{"key":"10048839","name":"Route de Veigy","postalCode":"1247","locality":"Anières","commune":{"key":"6602","name":"Anières","shortName":"Anières"},"district":{"key":"2500","name":"Canton de Genève"},"canton":{"key":"25","code":"GE","name":"Genève"},"status":"Real"},{"key":"10048835","name":"Route d'Hermance","postalCode":"1247","locality":"Anières","commune":{"key":"6602","name":"Anières","shortName":"Anières"},"district":{"key":"2500","name":"Canton de Genève"},"canton":{"key":"25","code":"GE","name":"Genève"},"status":"Real"},{"key":"10183152","name":"Rue Centrale","postalCode":"1247","locality":"Anières","commune":{"key":"6602","name":"Anières","shortName":"Anières"},"district":{"key":"2500","name":"Canton de Genève"},"canton":{"key":"25","code":"GE","name":"Genève"},"status":"Real"},{"key":"10048838","name":"Rue de l'Ancien-Lavoir","postalCode":"1247","locality":"Anières","commune":{"key":"6602","name":"Anières","shortName":"Anières"},"district":{"key":"2500","name":"Canton de Genève"},"canton":{"key":"25","code":"GE","name":"Genève"},"status":"Real"},{"key":"10095718","name":"Rue de l'Aspergière","postalCode":"1247","locality":"Anières","commune":{"key":"6602","name":"Anières","shortName":"Anières"},"district":{"key":"2500","name":"Canton de Genève"},"canton":{"key":"25","code":"GE","name":"Genève"},"status":"Real"},]