[{"name":"Allemühler Str.","postalCode":"69436","locality":"Schönbrunn","municipality":{"key":"08226081","name":"Schönbrunn","type":"Kreisangehörige_Gemeinde"},"district":{"key":"08226","name":"Rhein-Neckar-Kreis","type":"Landkreis"},"federalState":{"key":"08","name":"Baden-Württemberg"}},{"name":"Alte Dorfstr.","postalCode":"96185","locality":"Schönbrunn i.Steigerwald","municipality":{"key":"09471186","name":"Schönbrunn i.Steigerwald","type":"Kreisangehörige_Gemeinde"},"district":{"key":"09471","name":"Bamberg","type":"Landkreis"},"federalState":{"key":"09","name":"Bayern"}},{"name":"Alte Hirschhorner Steige","postalCode":"69436","locality":"Schönbrunn","municipality":{"key":"08226081","name":"Schönbrunn","type":"Kreisangehörige_Gemeinde"},"district":{"key":"08226","name":"Rhein-Neckar-Kreis","type":"Landkreis"},"federalState":{"key":"08","name":"Baden-Württemberg"}},{"name":"Alte Hirschhorner Str.","postalCode":"69436","locality":"Schönbrunn","municipality":{"key":"08226081","name":"Schönbrunn","type":"Kreisangehörige_Gemeinde"},"district":{"key":"08226","name":"Rhein-Neckar-Kreis","type":"Landkreis"},"federalState":{"key":"08","name":"Baden-Württemberg"}},{"name":"Alter Bergweg","postalCode":"69436","locality":"Schönbrunn","municipality":{"key":"08226081","name":"Schönbrunn","type":"Kreisangehörige_Gemeinde"},"district":{"key":"08226","name":"Rhein-Neckar-Kreis","type":"Landkreis"},"federalState":{"key":"08","name":"Baden-Württemberg"}},{"name":"Alter Gartenweg","postalCode":"69436","locality":"Schönbrunn","municipality":{"key":"08226081","name":"Schönbrunn","type":"Kreisangehörige_Gemeinde"},"district":{"key":"08226","name":"Rhein-Neckar-Kreis","type":"Landkreis"},"federalState":{"key":"08","name":"Baden-Württemberg"}},{"name":"Altersberggasse","postalCode":"69436","locality":"Schönbrunn","municipality":{"key":"08226081","name":"Schönbrunn","type":"Kreisangehörige_Gemeinde"},"district":{"key":"08226","name":"Rhein-Neckar-Kreis","type":"Landkreis"},"federalState":{"key":"08","name":"Baden-Württemberg"}},{"name":"Alter Schönbrunner Weg","postalCode":"69436","locality":"Schönbrunn","municipality":{"key":"08226081","name":"Schönbrunn","type":"Kreisangehörige_Gemeinde"},"district":{"key":"08226","name":"Rhein-Neckar-Kreis","type":"Landkreis"},"federalState":{"key":"08","name":"Baden-Württemberg"}},{"name":"Alte Schönbrunner Str.","postalCode":"69436","locality":"Schönbrunn","municipality":{"key":"08226081","name":"Schönbrunn","type":"Kreisangehörige_Gemeinde"},"district":{"key":"08226","name":"Rhein-Neckar-Kreis","type":"Landkreis"},"federalState":{"key":"08","name":"Baden-Württemberg"}},{"name":"Alte Schulstr.","postalCode":"69436","locality":"Schönbrunn","municipality":{"key":"08226081","name":"Schönbrunn","type":"Kreisangehörige_Gemeinde"},"district":{"key":"08226","name":"Rhein-Neckar-Kreis","type":"Landkreis"},"federalState":{"key":"08","name":"Baden-Württemberg"}},{"name":"Am Felsenkeller","postalCode":"96185","locality":"Schönbrunn i.Steigerwald","municipality":{"key":"09471186","name":"Schönbrunn i.Steigerwald","type":"Kreisangehörige_Gemeinde"},"district":{"key":"09471","name":"Bamberg","type":"Landkreis"},"federalState":{"key":"09","name":"Bayern"}},{"name":"Am Kanzbuckel","postalCode":"69436","locality":"Schönbrunn","municipality":{"key":"08226081","name":"Schönbrunn","type":"Kreisangehörige_Gemeinde"},"district":{"key":"08226","name":"Rhein-Neckar-Kreis","type":"Landkreis"},"federalState":{"key":"08","name":"Baden-Württemberg"}},{"name":"Am Loor","postalCode":"96185","locality":"Schönbrunn i.Steigerwald","municipality":{"key":"09471186","name":"Schönbrunn i.Steigerwald","type":"Kreisangehörige_Gemeinde"},"district":{"key":"09471","name":"Bamberg","type":"Landkreis"},"federalState":{"key":"09","name":"Bayern"}},{"name":"Ampferbacher Str.","postalCode":"96185","locality":"Schönbrunn i.Steigerwald","municipality":{"key":"09471186","name":"Schönbrunn i.Steigerwald","type":"Kreisangehörige_Gemeinde"},"district":{"key":"09471","name":"Bamberg","type":"Landkreis"},"federalState":{"key":"09","name":"Bayern"}},{"name":"Amselweg","postalCode":"96185","locality":"Schönbrunn i.Steigerwald","municipality":{"key":"09471186","name":"Schönbrunn i.Steigerwald","type":"Kreisangehörige_Gemeinde"},"district":{"key":"09471","name":"Bamberg","type":"Landkreis"},"federalState":{"key":"09","name":"Bayern"}},{"name":"Am Spielberg","postalCode":"96185","locality":"Schönbrunn i.Steigerwald","municipality":{"key":"09471186","name":"Schönbrunn i.Steigerwald","type":"Kreisangehörige_Gemeinde"},"district":{"key":"09471","name":"Bamberg","type":"Landkreis"},"federalState":{"key":"09","name":"Bayern"}},{"name":"Am Sportplatz","postalCode":"96185","locality":"Schönbrunn i.Steigerwald","municipality":{"key":"09471186","name":"Schönbrunn i.Steigerwald","type":"Kreisangehörige_Gemeinde"},"district":{"key":"09471","name":"Bamberg","type":"Landkreis"},"federalState":{"key":"09","name":"Bayern"}},{"name":"Am Wiesenrain","postalCode":"69436","locality":"Schönbrunn","municipality":{"key":"08226081","name":"Schönbrunn","type":"Kreisangehörige_Gemeinde"},"district":{"key":"08226","name":"Rhein-Neckar-Kreis","type":"Landkreis"},"federalState":{"key":"08","name":"Baden-Württemberg"}},{"name":"Angerweg","postalCode":"96185","locality":"Schönbrunn i.Steigerwald","municipality":{"key":"09471186","name":"Schönbrunn i.Steigerwald","type":"Kreisangehörige_Gemeinde"},"district":{"key":"09471","name":"Bamberg","type":"Landkreis"},"federalState":{"key":"09","name":"Bayern"}},{"name":"Aueweg","postalCode":"69436","locality":"Schönbrunn","municipality":{"key":"08226081","name":"Schönbrunn","type":"Kreisangehörige_Gemeinde"},"district":{"key":"08226","name":"Rhein-Neckar-Kreis","type":"Landkreis"},"federalState":{"key":"08","name":"Baden-Württemberg"}},{"name":"Ausweichstelle","postalCode":"94151","locality":"Schönbrunner Wald","municipality":{"key":"09272461","name":"Schönbrunner Wald","type":"Gemeindefreies_Gebiet_Unbewohnt"},"district":{"key":"09272","name":"Freyung-Grafenau","type":"Landkreis"},"federalState":{"key":"09","name":"Bayern"}},{"name":"Bäckerweg","postalCode":"69436","locality":"Schönbrunn","municipality":{"key":"08226081","name":"Schönbrunn","type":"Kreisangehörige_Gemeinde"},"district":{"key":"08226","name":"Rhein-Neckar-Kreis","type":"Landkreis"},"federalState":{"key":"08","name":"Baden-Württemberg"}},{"name":"Bangelsrundweg","postalCode":"69436","locality":"Schönbrunn","municipality":{"key":"08226081","name":"Schönbrunn","type":"Kreisangehörige_Gemeinde"},"district":{"key":"08226","name":"Rhein-Neckar-Kreis","type":"Landkreis"},"federalState":{"key":"08","name":"Baden-Württemberg"}},{"name":"Bangelsweg","postalCode":"69436","locality":"Schönbrunn","municipality":{"key":"08226081","name":"Schönbrunn","type":"Kreisangehörige_Gemeinde"},"district":{"key":"08226","name":"Rhein-Neckar-Kreis","type":"Landkreis"},"federalState":{"key":"08","name":"Baden-Württemberg"}},{"name":"Bannwaldskopfweg","postalCode":"69436","locality":"Schönbrunn","municipality":{"key":"08226081","name":"Schönbrunn","type":"Kreisangehörige_Gemeinde"},"district":{"key":"08226","name":"Rhein-Neckar-Kreis","type":"Landkreis"},"federalState":{"key":"08","name":"Baden-Württemberg"}},{"name":"Baumgartenstr.","postalCode":"69436","locality":"Schönbrunn","municipality":{"key":"08226081","name":"Schönbrunn","type":"Kreisangehörige_Gemeinde"},"district":{"key":"08226","name":"Rhein-Neckar-Kreis","type":"Landkreis"},"federalState":{"key":"08","name":"Baden-Württemberg"}},{"name":"Bergstr.","postalCode":"69436","locality":"Schönbrunn","municipality":{"key":"08226081","name":"Schönbrunn","type":"Kreisangehörige_Gemeinde"},"district":{"key":"08226","name":"Rhein-Neckar-Kreis","type":"Landkreis"},"federalState":{"key":"08","name":"Baden-Württemberg"}},{"name":"Bienenstr.","postalCode":"69436","locality":"Schönbrunn","municipality":{"key":"08226081","name":"Schönbrunn","type":"Kreisangehörige_Gemeinde"},"district":{"key":"08226","name":"Rhein-Neckar-Kreis","type":"Landkreis"},"federalState":{"key":"08","name":"Baden-Württemberg"}},{"name":"Bildschlagweg","postalCode":"69436","locality":"Schönbrunn","municipality":{"key":"08226081","name":"Schönbrunn","type":"Kreisangehörige_Gemeinde"},"district":{"key":"08226","name":"Rhein-Neckar-Kreis","type":"Landkreis"},"federalState":{"key":"08","name":"Baden-Württemberg"}},{"name":"Birkenrotweg","postalCode":"69436","locality":"Schönbrunn","municipality":{"key":"08226081","name":"Schönbrunn","type":"Kreisangehörige_Gemeinde"},"district":{"key":"08226","name":"Rhein-Neckar-Kreis","type":"Landkreis"},"federalState":{"key":"08","name":"Baden-Württemberg"}},{"name":"Birkenweg","postalCode":"69436","locality":"Schönbrunn","municipality":{"key":"08226081","name":"Schönbrunn","type":"Kreisangehörige_Gemeinde"},"district":{"key":"08226","name":"Rhein-Neckar-Kreis","type":"Landkreis"},"federalState":{"key":"08","name":"Baden-Württemberg"}},{"name":"Blauer Hut","postalCode":"69436","locality":"Schönbrunn","municipality":{"key":"08226081","name":"Schönbrunn","type":"Kreisangehörige_Gemeinde"},"district":{"key":"08226","name":"Rhein-Neckar-Kreis","type":"Landkreis"},"federalState":{"key":"08","name":"Baden-Württemberg"}},{"name":"Blumenstr.","postalCode":"69436","locality":"Schönbrunn","municipality":{"key":"08226081","name":"Schönbrunn","type":"Kreisangehörige_Gemeinde"},"district":{"key":"08226","name":"Rhein-Neckar-Kreis","type":"Landkreis"},"federalState":{"key":"08","name":"Baden-Württemberg"}},{"name":"Branddeichweg","postalCode":"69436","locality":"Schönbrunn","municipality":{"key":"08226081","name":"Schönbrunn","type":"Kreisangehörige_Gemeinde"},"district":{"key":"08226","name":"Rhein-Neckar-Kreis","type":"Landkreis"},"federalState":{"key":"08","name":"Baden-Württemberg"}},{"name":"Brunndoblweg","postalCode":"94151","locality":"Schönbrunner Wald","municipality":{"key":"09272461","name":"Schönbrunner Wald","type":"Gemeindefreies_Gebiet_Unbewohnt"},"district":{"key":"09272","name":"Freyung-Grafenau","type":"Landkreis"},"federalState":{"key":"09","name":"Bayern"}},{"name":"Brunnendeich","postalCode":"69436","locality":"Schönbrunn","municipality":{"key":"08226081","name":"Schönbrunn","type":"Kreisangehörige_Gemeinde"},"district":{"key":"08226","name":"Rhein-Neckar-Kreis","type":"Landkreis"},"federalState":{"key":"08","name":"Baden-Württemberg"}},{"name":"Brunnenstr.","postalCode":"96185","locality":"Schönbrunn i.Steigerwald","municipality":{"key":"09471186","name":"Schönbrunn i.Steigerwald","type":"Kreisangehörige_Gemeinde"},"district":{"key":"09471","name":"Bamberg","type":"Landkreis"},"federalState":{"key":"09","name":"Bayern"}},{"name":"Burgstr.","postalCode":"69436","locality":"Schönbrunn","municipality":{"key":"08226081","name":"Schönbrunn","type":"Kreisangehörige_Gemeinde"},"district":{"key":"08226","name":"Rhein-Neckar-Kreis","type":"Landkreis"},"federalState":{"key":"08","name":"Baden-Württemberg"}},{"name":"Dammweg","postalCode":"96185","locality":"Schönbrunn i.Steigerwald","municipality":{"key":"09471186","name":"Schönbrunn i.Steigerwald","type":"Kreisangehörige_Gemeinde"},"district":{"key":"09471","name":"Bamberg","type":"Landkreis"},"federalState":{"key":"09","name":"Bayern"}},{"name":"Dorfwiesen","postalCode":"96185","locality":"Schönbrunn i.Steigerwald","municipality":{"key":"09471186","name":"Schönbrunn i.Steigerwald","type":"Kreisangehörige_Gemeinde"},"district":{"key":"09471","name":"Bamberg","type":"Landkreis"},"federalState":{"key":"09","name":"Bayern"}},{"name":"Dorfwiesenstr.","postalCode":"69436","locality":"Schönbrunn","municipality":{"key":"08226081","name":"Schönbrunn","type":"Kreisangehörige_Gemeinde"},"district":{"key":"08226","name":"Rhein-Neckar-Kreis","type":"Landkreis"},"federalState":{"key":"08","name":"Baden-Württemberg"}},{"name":"Dreikönigsloipe 20 km","postalCode":"94151","locality":"Schönbrunner Wald","municipality":{"key":"09272461","name":"Schönbrunner Wald","type":"Gemeindefreies_Gebiet_Unbewohnt"},"district":{"key":"09272","name":"Freyung-Grafenau","type":"Landkreis"},"federalState":{"key":"09","name":"Bayern"}},{"name":"Drosselweg","postalCode":"69436","locality":"Schönbrunn","municipality":{"key":"08226081","name":"Schönbrunn","type":"Kreisangehörige_Gemeinde"},"district":{"key":"08226","name":"Rhein-Neckar-Kreis","type":"Landkreis"},"federalState":{"key":"08","name":"Baden-Württemberg"}},{"name":"Dürrer Buckel","postalCode":"69436","locality":"Schönbrunn","municipality":{"key":"08226081","name":"Schönbrunn","type":"Kreisangehörige_Gemeinde"},"district":{"key":"08226","name":"Rhein-Neckar-Kreis","type":"Landkreis"},"federalState":{"key":"08","name":"Baden-Württemberg"}},{"name":"Eberbacher Str.","postalCode":"69436","locality":"Schönbrunn","municipality":{"key":"08226081","name":"Schönbrunn","type":"Kreisangehörige_Gemeinde"},"district":{"key":"08226","name":"Rhein-Neckar-Kreis","type":"Landkreis"},"federalState":{"key":"08","name":"Baden-Württemberg"}},{"name":"Eichbrunnenweg","postalCode":"69436","locality":"Schönbrunn","municipality":{"key":"08226081","name":"Schönbrunn","type":"Kreisangehörige_Gemeinde"},"district":{"key":"08226","name":"Rhein-Neckar-Kreis","type":"Landkreis"},"federalState":{"key":"08","name":"Baden-Württemberg"}},{"name":"Erlenweg","postalCode":"69436","locality":"Schönbrunn","municipality":{"key":"08226081","name":"Schönbrunn","type":"Kreisangehörige_Gemeinde"},"district":{"key":"08226","name":"Rhein-Neckar-Kreis","type":"Landkreis"},"federalState":{"key":"08","name":"Baden-Württemberg"}},{"name":"Erlenweg","postalCode":"96185","locality":"Schönbrunn i.Steigerwald","municipality":{"key":"09471186","name":"Schönbrunn i.Steigerwald","type":"Kreisangehörige_Gemeinde"},"district":{"key":"09471","name":"Bamberg","type":"Landkreis"},"federalState":{"key":"09","name":"Bayern"}},{"name":"Finkenweg","postalCode":"69436","locality":"Schönbrunn","municipality":{"key":"08226081","name":"Schönbrunn","type":"Kreisangehörige_Gemeinde"},"district":{"key":"08226","name":"Rhein-Neckar-Kreis","type":"Landkreis"},"federalState":{"key":"08","name":"Baden-Württemberg"}},{"name":"Finkenweg","postalCode":"96185","locality":"Schönbrunn i.Steigerwald","municipality":{"key":"09471186","name":"Schönbrunn i.Steigerwald","type":"Kreisangehörige_Gemeinde"},"district":{"key":"09471","name":"Bamberg","type":"Landkreis"},"federalState":{"key":"09","name":"Bayern"}},{"name":"Finsterauer Lusensteig","postalCode":"94151","locality":"Schönbrunner Wald","municipality":{"key":"09272461","name":"Schönbrunner Wald","type":"Gemeindefreies_Gebiet_Unbewohnt"},"district":{"key":"09272","name":"Freyung-Grafenau","type":"Landkreis"},"federalState":{"key":"09","name":"Bayern"}},{"name":"Finsterbachweg","postalCode":"69436","locality":"Schönbrunn","municipality":{"key":"08226081","name":"Schönbrunn","type":"Kreisangehörige_Gemeinde"},"district":{"key":"08226","name":"Rhein-Neckar-Kreis","type":"Landkreis"},"federalState":{"key":"08","name":"Baden-Württemberg"}},{"name":"Flurweg","postalCode":"96185","locality":"Schönbrunn i.Steigerwald","municipality":{"key":"09471186","name":"Schönbrunn i.Steigerwald","type":"Kreisangehörige_Gemeinde"},"district":{"key":"09471","name":"Bamberg","type":"Landkreis"},"federalState":{"key":"09","name":"Bayern"}},{"name":"Flutgraben","postalCode":"96185","locality":"Schönbrunn i.Steigerwald","municipality":{"key":"09471186","name":"Schönbrunn i.Steigerwald","type":"Kreisangehörige_Gemeinde"},"district":{"key":"09471","name":"Bamberg","type":"Landkreis"},"federalState":{"key":"09","name":"Bayern"}},{"name":"Frenshofer Hauptstr.","postalCode":"96185","locality":"Schönbrunn i.Steigerwald","municipality":{"key":"09471186","name":"Schönbrunn i.Steigerwald","type":"Kreisangehörige_Gemeinde"},"district":{"key":"09471","name":"Bamberg","type":"Landkreis"},"federalState":{"key":"09","name":"Bayern"}},{"name":"Gartenstr.","postalCode":"69436","locality":"Schönbrunn","municipality":{"key":"08226081","name":"Schönbrunn","type":"Kreisangehörige_Gemeinde"},"district":{"key":"08226","name":"Rhein-Neckar-Kreis","type":"Landkreis"},"federalState":{"key":"08","name":"Baden-Württemberg"}},{"name":"Gartenweg","postalCode":"69436","locality":"Schönbrunn","municipality":{"key":"08226081","name":"Schönbrunn","type":"Kreisangehörige_Gemeinde"},"district":{"key":"08226","name":"Rhein-Neckar-Kreis","type":"Landkreis"},"federalState":{"key":"08","name":"Baden-Württemberg"}},{"name":"Gässel","postalCode":"69436","locality":"Schönbrunn","municipality":{"key":"08226081","name":"Schönbrunn","type":"Kreisangehörige_Gemeinde"},"district":{"key":"08226","name":"Rhein-Neckar-Kreis","type":"Landkreis"},"federalState":{"key":"08","name":"Baden-Württemberg"}},{"name":"Gässelweg","postalCode":"69436","locality":"Schönbrunn","municipality":{"key":"08226081","name":"Schönbrunn","type":"Kreisangehörige_Gemeinde"},"district":{"key":"08226","name":"Rhein-Neckar-Kreis","type":"Landkreis"},"federalState":{"key":"08","name":"Baden-Württemberg"}},{"name":"Glabiplatz","postalCode":"96185","locality":"Schönbrunn i.Steigerwald","municipality":{"key":"09471186","name":"Schönbrunn i.Steigerwald","type":"Kreisangehörige_Gemeinde"},"district":{"key":"09471","name":"Bamberg","type":"Landkreis"},"federalState":{"key":"09","name":"Bayern"}},{"name":"Goldspitze","postalCode":"96185","locality":"Schönbrunn i.Steigerwald","municipality":{"key":"09471186","name":"Schönbrunn i.Steigerwald","type":"Kreisangehörige_Gemeinde"},"district":{"key":"09471","name":"Bamberg","type":"Landkreis"},"federalState":{"key":"09","name":"Bayern"}},{"name":"Grafensteig","postalCode":"94151","locality":"Schönbrunner Wald","municipality":{"key":"09272461","name":"Schönbrunner Wald","type":"Gemeindefreies_Gebiet_Unbewohnt"},"district":{"key":"09272","name":"Freyung-Grafenau","type":"Landkreis"},"federalState":{"key":"09","name":"Bayern"}},{"name":"Gruber Hauptstr.","postalCode":"96185","locality":"Schönbrunn i.Steigerwald","municipality":{"key":"09471186","name":"Schönbrunn i.Steigerwald","type":"Kreisangehörige_Gemeinde"},"district":{"key":"09471","name":"Bamberg","type":"Landkreis"},"federalState":{"key":"09","name":"Bayern"}},{"name":"Gruber Str.","postalCode":"96185","locality":"Schönbrunn i.Steigerwald","municipality":{"key":"09471186","name":"Schönbrunn i.Steigerwald","type":"Kreisangehörige_Gemeinde"},"district":{"key":"09471","name":"Bamberg","type":"Landkreis"},"federalState":{"key":"09","name":"Bayern"}},{"name":"Gründelsweg","postalCode":"69436","locality":"Schönbrunn","municipality":{"key":"08226081","name":"Schönbrunn","type":"Kreisangehörige_Gemeinde"},"district":{"key":"08226","name":"Rhein-Neckar-Kreis","type":"Landkreis"},"federalState":{"key":"08","name":"Baden-Württemberg"}},{"name":"Grundweg","postalCode":"69436","locality":"Schönbrunn","municipality":{"key":"08226081","name":"Schönbrunn","type":"Kreisangehörige_Gemeinde"},"district":{"key":"08226","name":"Rhein-Neckar-Kreis","type":"Landkreis"},"federalState":{"key":"08","name":"Baden-Württemberg"}},{"name":"Gürtelweg","postalCode":"69436","locality":"Schönbrunn","municipality":{"key":"08226081","name":"Schönbrunn","type":"Kreisangehörige_Gemeinde"},"district":{"key":"08226","name":"Rhein-Neckar-Kreis","type":"Landkreis"},"federalState":{"key":"08","name":"Baden-Württemberg"}},{"name":"Haager Str.","postalCode":"69436","locality":"Schönbrunn","municipality":{"key":"08226081","name":"Schönbrunn","type":"Kreisangehörige_Gemeinde"},"district":{"key":"08226","name":"Rhein-Neckar-Kreis","type":"Landkreis"},"federalState":{"key":"08","name":"Baden-Württemberg"}},{"name":"Haberwaldweg","postalCode":"69436","locality":"Schönbrunn","municipality":{"key":"08226081","name":"Schönbrunn","type":"Kreisangehörige_Gemeinde"},"district":{"key":"08226","name":"Rhein-Neckar-Kreis","type":"Landkreis"},"federalState":{"key":"08","name":"Baden-Württemberg"}},{"name":"Hainbuchenstr.","postalCode":"69436","locality":"Schönbrunn","municipality":{"key":"08226081","name":"Schönbrunn","type":"Kreisangehörige_Gemeinde"},"district":{"key":"08226","name":"Rhein-Neckar-Kreis","type":"Landkreis"},"federalState":{"key":"08","name":"Baden-Württemberg"}},{"name":"Halbersdorfer Hauptstr.","postalCode":"96185","locality":"Schönbrunn i.Steigerwald","municipality":{"key":"09471186","name":"Schönbrunn i.Steigerwald","type":"Kreisangehörige_Gemeinde"},"district":{"key":"09471","name":"Bamberg","type":"Landkreis"},"federalState":{"key":"09","name":"Bayern"}},{"name":"Hallmannswiesenweg","postalCode":"69436","locality":"Schönbrunn","municipality":{"key":"08226081","name":"Schönbrunn","type":"Kreisangehörige_Gemeinde"},"district":{"key":"08226","name":"Rhein-Neckar-Kreis","type":"Landkreis"},"federalState":{"key":"08","name":"Baden-Württemberg"}},{"name":"Hangweg","postalCode":"69436","locality":"Schönbrunn","municipality":{"key":"08226081","name":"Schönbrunn","type":"Kreisangehörige_Gemeinde"},"district":{"key":"08226","name":"Rhein-Neckar-Kreis","type":"Landkreis"},"federalState":{"key":"08","name":"Baden-Württemberg"}},{"name":"Hardweg","postalCode":"69436","locality":"Schönbrunn","municipality":{"key":"08226081","name":"Schönbrunn","type":"Kreisangehörige_Gemeinde"},"district":{"key":"08226","name":"Rhein-Neckar-Kreis","type":"Landkreis"},"federalState":{"key":"08","name":"Baden-Württemberg"}},{"name":"Hauptstr.","postalCode":"69436","locality":"Schönbrunn","municipality":{"key":"08226081","name":"Schönbrunn","type":"Kreisangehörige_Gemeinde"},"district":{"key":"08226","name":"Rhein-Neckar-Kreis","type":"Landkreis"},"federalState":{"key":"08","name":"Baden-Württemberg"}},{"name":"Häusserstr.","postalCode":"69436","locality":"Schönbrunn","municipality":{"key":"08226081","name":"Schönbrunn","type":"Kreisangehörige_Gemeinde"},"district":{"key":"08226","name":"Rhein-Neckar-Kreis","type":"Landkreis"},"federalState":{"key":"08","name":"Baden-Württemberg"}},{"name":"Heidebuckelweg","postalCode":"69436","locality":"Schönbrunn","municipality":{"key":"08226081","name":"Schönbrunn","type":"Kreisangehörige_Gemeinde"},"district":{"key":"08226","name":"Rhein-Neckar-Kreis","type":"Landkreis"},"federalState":{"key":"08","name":"Baden-Württemberg"}},{"name":"Heidelberger Str.","postalCode":"69436","locality":"Schönbrunn","municipality":{"key":"08226081","name":"Schönbrunn","type":"Kreisangehörige_Gemeinde"},"district":{"key":"08226","name":"Rhein-Neckar-Kreis","type":"Landkreis"},"federalState":{"key":"08","name":"Baden-Württemberg"}},{"name":"Heidenbuckelweg","postalCode":"69436","locality":"Schönbrunn","municipality":{"key":"08226081","name":"Schönbrunn","type":"Kreisangehörige_Gemeinde"},"district":{"key":"08226","name":"Rhein-Neckar-Kreis","type":"Landkreis"},"federalState":{"key":"08","name":"Baden-Württemberg"}},{"name":"Heinzengartenstr.","postalCode":"69436","locality":"Schönbrunn","municipality":{"key":"08226081","name":"Schönbrunn","type":"Kreisangehörige_Gemeinde"},"district":{"key":"08226","name":"Rhein-Neckar-Kreis","type":"Landkreis"},"federalState":{"key":"08","name":"Baden-Württemberg"}},{"name":"Heiserackerweg","postalCode":"69436","locality":"Schönbrunn","municipality":{"key":"08226081","name":"Schönbrunn","type":"Kreisangehörige_Gemeinde"},"district":{"key":"08226","name":"Rhein-Neckar-Kreis","type":"Landkreis"},"federalState":{"key":"08","name":"Baden-Württemberg"}},{"name":"Heiserbergweg","postalCode":"69436","locality":"Schönbrunn","municipality":{"key":"08226081","name":"Schönbrunn","type":"Kreisangehörige_Gemeinde"},"district":{"key":"08226","name":"Rhein-Neckar-Kreis","type":"Landkreis"},"federalState":{"key":"08","name":"Baden-Württemberg"}},{"name":"Hellesweg","postalCode":"69436","locality":"Schönbrunn","municipality":{"key":"08226081","name":"Schönbrunn","type":"Kreisangehörige_Gemeinde"},"district":{"key":"08226","name":"Rhein-Neckar-Kreis","type":"Landkreis"},"federalState":{"key":"08","name":"Baden-Württemberg"}},{"name":"Herdestr.","postalCode":"69436","locality":"Schönbrunn","municipality":{"key":"08226081","name":"Schönbrunn","type":"Kreisangehörige_Gemeinde"},"district":{"key":"08226","name":"Rhein-Neckar-Kreis","type":"Landkreis"},"federalState":{"key":"08","name":"Baden-Württemberg"}},{"name":"Herdweg","postalCode":"69436","locality":"Schönbrunn","municipality":{"key":"08226081","name":"Schönbrunn","type":"Kreisangehörige_Gemeinde"},"district":{"key":"08226","name":"Rhein-Neckar-Kreis","type":"Landkreis"},"federalState":{"key":"08","name":"Baden-Württemberg"}},{"name":"Herrmann-Münz-Kreisel","postalCode":"69436","locality":"Schönbrunn","municipality":{"key":"08226081","name":"Schönbrunn","type":"Kreisangehörige_Gemeinde"},"district":{"key":"08226","name":"Rhein-Neckar-Kreis","type":"Landkreis"},"federalState":{"key":"08","name":"Baden-Württemberg"}},{"name":"Herzackerstr.","postalCode":"69436","locality":"Schönbrunn","municipality":{"key":"08226081","name":"Schönbrunn","type":"Kreisangehörige_Gemeinde"},"district":{"key":"08226","name":"Rhein-Neckar-Kreis","type":"Landkreis"},"federalState":{"key":"08","name":"Baden-Württemberg"}},{"name":"Herzstr.","postalCode":"69436","locality":"Schönbrunn","municipality":{"key":"08226081","name":"Schönbrunn","type":"Kreisangehörige_Gemeinde"},"district":{"key":"08226","name":"Rhein-Neckar-Kreis","type":"Landkreis"},"federalState":{"key":"08","name":"Baden-Württemberg"}},{"name":"Hirschhorner Str.","postalCode":"69436","locality":"Schönbrunn","municipality":{"key":"08226081","name":"Schönbrunn","type":"Kreisangehörige_Gemeinde"},"district":{"key":"08226","name":"Rhein-Neckar-Kreis","type":"Landkreis"},"federalState":{"key":"08","name":"Baden-Württemberg"}},{"name":"Hirschhorner Sträßel","postalCode":"69436","locality":"Schönbrunn","municipality":{"key":"08226081","name":"Schönbrunn","type":"Kreisangehörige_Gemeinde"},"district":{"key":"08226","name":"Rhein-Neckar-Kreis","type":"Landkreis"},"federalState":{"key":"08","name":"Baden-Württemberg"}},{"name":"Hirschkopfbrücke","postalCode":"94151","locality":"Schönbrunner Wald","municipality":{"key":"09272461","name":"Schönbrunner Wald","type":"Gemeindefreies_Gebiet_Unbewohnt"},"district":{"key":"09272","name":"Freyung-Grafenau","type":"Landkreis"},"federalState":{"key":"09","name":"Bayern"}},{"name":"Hirschkopfstr.","postalCode":"94151","locality":"Schönbrunner Wald","municipality":{"key":"09272461","name":"Schönbrunner Wald","type":"Gemeindefreies_Gebiet_Unbewohnt"},"district":{"key":"09272","name":"Freyung-Grafenau","type":"Landkreis"},"federalState":{"key":"09","name":"Bayern"}},{"name":"Hirtengasse","postalCode":"96185","locality":"Schönbrunn i.Steigerwald","municipality":{"key":"09471186","name":"Schönbrunn i.Steigerwald","type":"Kreisangehörige_Gemeinde"},"district":{"key":"09471","name":"Bamberg","type":"Landkreis"},"federalState":{"key":"09","name":"Bayern"}},{"name":"Hochwaldsteig","postalCode":"94151","locality":"Schönbrunner Wald","municipality":{"key":"09272461","name":"Schönbrunner Wald","type":"Gemeindefreies_Gebiet_Unbewohnt"},"district":{"key":"09272","name":"Freyung-Grafenau","type":"Landkreis"},"federalState":{"key":"09","name":"Bayern"}},{"name":"Höhenstr.","postalCode":"69436","locality":"Schönbrunn","municipality":{"key":"08226081","name":"Schönbrunn","type":"Kreisangehörige_Gemeinde"},"district":{"key":"08226","name":"Rhein-Neckar-Kreis","type":"Landkreis"},"federalState":{"key":"08","name":"Baden-Württemberg"}},{"name":"Höhenweg","postalCode":"69436","locality":"Schönbrunn","municipality":{"key":"08226081","name":"Schönbrunn","type":"Kreisangehörige_Gemeinde"},"district":{"key":"08226","name":"Rhein-Neckar-Kreis","type":"Landkreis"},"federalState":{"key":"08","name":"Baden-Württemberg"}},{"name":"Im Älmel","postalCode":"69436","locality":"Schönbrunn","municipality":{"key":"08226081","name":"Schönbrunn","type":"Kreisangehörige_Gemeinde"},"district":{"key":"08226","name":"Rhein-Neckar-Kreis","type":"Landkreis"},"federalState":{"key":"08","name":"Baden-Württemberg"}},{"name":"Im Birkenacker","postalCode":"69436","locality":"Schönbrunn","municipality":{"key":"08226081","name":"Schönbrunn","type":"Kreisangehörige_Gemeinde"},"district":{"key":"08226","name":"Rhein-Neckar-Kreis","type":"Landkreis"},"federalState":{"key":"08","name":"Baden-Württemberg"}},{"name":"Im Kehracker","postalCode":"69436","locality":"Schönbrunn","municipality":{"key":"08226081","name":"Schönbrunn","type":"Kreisangehörige_Gemeinde"},"district":{"key":"08226","name":"Rhein-Neckar-Kreis","type":"Landkreis"},"federalState":{"key":"08","name":"Baden-Württemberg"}},{"name":"Irrwaldweg","postalCode":"69436","locality":"Schönbrunn","municipality":{"key":"08226081","name":"Schönbrunn","type":"Kreisangehörige_Gemeinde"},"district":{"key":"08226","name":"Rhein-Neckar-Kreis","type":"Landkreis"},"federalState":{"key":"08","name":"Baden-Württemberg"}},{"name":"K4105","postalCode":"69436","locality":"Schönbrunn","municipality":{"key":"08226081","name":"Schönbrunn","type":"Kreisangehörige_Gemeinde"},"district":{"key":"08226","name":"Rhein-Neckar-Kreis","type":"Landkreis"},"federalState":{"key":"08","name":"Baden-Württemberg"}},{"name":"Kalte Klinge Weg","postalCode":"69436","locality":"Schönbrunn","municipality":{"key":"08226081","name":"Schönbrunn","type":"Kreisangehörige_Gemeinde"},"district":{"key":"08226","name":"Rhein-Neckar-Kreis","type":"Landkreis"},"federalState":{"key":"08","name":"Baden-Württemberg"}},{"name":"Kapellenberg","postalCode":"96185","locality":"Schönbrunn i.Steigerwald","municipality":{"key":"09471186","name":"Schönbrunn i.Steigerwald","type":"Kreisangehörige_Gemeinde"},"district":{"key":"09471","name":"Bamberg","type":"Landkreis"},"federalState":{"key":"09","name":"Bayern"}},{"name":"Kapellenleite","postalCode":"96185","locality":"Schönbrunn i.Steigerwald","municipality":{"key":"09471186","name":"Schönbrunn i.Steigerwald","type":"Kreisangehörige_Gemeinde"},"district":{"key":"09471","name":"Bamberg","type":"Landkreis"},"federalState":{"key":"09","name":"Bayern"}},{"name":"Kapellenplatz","postalCode":"96185","locality":"Schönbrunn i.Steigerwald","municipality":{"key":"09471186","name":"Schönbrunn i.Steigerwald","type":"Kreisangehörige_Gemeinde"},"district":{"key":"09471","name":"Bamberg","type":"Landkreis"},"federalState":{"key":"09","name":"Bayern"}},{"name":"Kapellenweg","postalCode":"69436","locality":"Schönbrunn","municipality":{"key":"08226081","name":"Schönbrunn","type":"Kreisangehörige_Gemeinde"},"district":{"key":"08226","name":"Rhein-Neckar-Kreis","type":"Landkreis"},"federalState":{"key":"08","name":"Baden-Württemberg"}},{"name":"Kellerstr.","postalCode":"96185","locality":"Schönbrunn i.Steigerwald","municipality":{"key":"09471186","name":"Schönbrunn i.Steigerwald","type":"Kreisangehörige_Gemeinde"},"district":{"key":"09471","name":"Bamberg","type":"Landkreis"},"federalState":{"key":"09","name":"Bayern"}},{"name":"Kesselmühlstr.","postalCode":"69436","locality":"Schönbrunn","municipality":{"key":"08226081","name":"Schönbrunn","type":"Kreisangehörige_Gemeinde"},"district":{"key":"08226","name":"Rhein-Neckar-Kreis","type":"Landkreis"},"federalState":{"key":"08","name":"Baden-Württemberg"}},{"name":"Kiesbrückl","postalCode":"94151","locality":"Schönbrunner Wald","municipality":{"key":"09272461","name":"Schönbrunner Wald","type":"Gemeindefreies_Gebiet_Unbewohnt"},"district":{"key":"09272","name":"Freyung-Grafenau","type":"Landkreis"},"federalState":{"key":"09","name":"Bayern"}},{"name":"Kirchberg","postalCode":"96185","locality":"Schönbrunn i.Steigerwald","municipality":{"key":"09471186","name":"Schönbrunn i.Steigerwald","type":"Kreisangehörige_Gemeinde"},"district":{"key":"09471","name":"Bamberg","type":"Landkreis"},"federalState":{"key":"09","name":"Bayern"}},{"name":"Kirchenweg","postalCode":"69436","locality":"Schönbrunn","municipality":{"key":"08226081","name":"Schönbrunn","type":"Kreisangehörige_Gemeinde"},"district":{"key":"08226","name":"Rhein-Neckar-Kreis","type":"Landkreis"},"federalState":{"key":"08","name":"Baden-Württemberg"}},{"name":"Kirchenweg","postalCode":"96185","locality":"Schönbrunn i.Steigerwald","municipality":{"key":"09471186","name":"Schönbrunn i.Steigerwald","type":"Kreisangehörige_Gemeinde"},"district":{"key":"09471","name":"Bamberg","type":"Landkreis"},"federalState":{"key":"09","name":"Bayern"}},{"name":"Kirchstr.","postalCode":"69436","locality":"Schönbrunn","municipality":{"key":"08226081","name":"Schönbrunn","type":"Kreisangehörige_Gemeinde"},"district":{"key":"08226","name":"Rhein-Neckar-Kreis","type":"Landkreis"},"federalState":{"key":"08","name":"Baden-Württemberg"}},{"name":"Kirchweg","postalCode":"69436","locality":"Schönbrunn","municipality":{"key":"08226081","name":"Schönbrunn","type":"Kreisangehörige_Gemeinde"},"district":{"key":"08226","name":"Rhein-Neckar-Kreis","type":"Landkreis"},"federalState":{"key":"08","name":"Baden-Württemberg"}},{"name":"Kleiner Steinweg","postalCode":"69436","locality":"Schönbrunn","municipality":{"key":"08226081","name":"Schönbrunn","type":"Kreisangehörige_Gemeinde"},"district":{"key":"08226","name":"Rhein-Neckar-Kreis","type":"Landkreis"},"federalState":{"key":"08","name":"Baden-Württemberg"}},{"name":"Klingenweg","postalCode":"69436","locality":"Schönbrunn","municipality":{"key":"08226081","name":"Schönbrunn","type":"Kreisangehörige_Gemeinde"},"district":{"key":"08226","name":"Rhein-Neckar-Kreis","type":"Landkreis"},"federalState":{"key":"08","name":"Baden-Württemberg"}},{"name":"Kraussenbrücke Weg","postalCode":"69436","locality":"Schönbrunn","municipality":{"key":"08226081","name":"Schönbrunn","type":"Kreisangehörige_Gemeinde"},"district":{"key":"08226","name":"Rhein-Neckar-Kreis","type":"Landkreis"},"federalState":{"key":"08","name":"Baden-Württemberg"}},{"name":"Krautelsbrunnenweg","postalCode":"69436","locality":"Schönbrunn","municipality":{"key":"08226081","name":"Schönbrunn","type":"Kreisangehörige_Gemeinde"},"district":{"key":"08226","name":"Rhein-Neckar-Kreis","type":"Landkreis"},"federalState":{"key":"08","name":"Baden-Württemberg"}},{"name":"Kurzgewann","postalCode":"69436","locality":"Schönbrunn","municipality":{"key":"08226081","name":"Schönbrunn","type":"Kreisangehörige_Gemeinde"},"district":{"key":"08226","name":"Rhein-Neckar-Kreis","type":"Landkreis"},"federalState":{"key":"08","name":"Baden-Württemberg"}},{"name":"Lange Gasse","postalCode":"69436","locality":"Schönbrunn","municipality":{"key":"08226081","name":"Schönbrunn","type":"Kreisangehörige_Gemeinde"},"district":{"key":"08226","name":"Rhein-Neckar-Kreis","type":"Landkreis"},"federalState":{"key":"08","name":"Baden-Württemberg"}},{"name":"Leitenweg","postalCode":"96185","locality":"Schönbrunn i.Steigerwald","municipality":{"key":"09471186","name":"Schönbrunn i.Steigerwald","type":"Kreisangehörige_Gemeinde"},"district":{"key":"09471","name":"Bamberg","type":"Landkreis"},"federalState":{"key":"09","name":"Bayern"}},{"name":"Lindenstr.","postalCode":"69436","locality":"Schönbrunn","municipality":{"key":"08226081","name":"Schönbrunn","type":"Kreisangehörige_Gemeinde"},"district":{"key":"08226","name":"Rhein-Neckar-Kreis","type":"Landkreis"},"federalState":{"key":"08","name":"Baden-Württemberg"}},{"name":"Lisberger Weg","postalCode":"96185","locality":"Schönbrunn i.Steigerwald","municipality":{"key":"09471186","name":"Schönbrunn i.Steigerwald","type":"Kreisangehörige_Gemeinde"},"district":{"key":"09471","name":"Bamberg","type":"Landkreis"},"federalState":{"key":"09","name":"Bayern"}},{"name":"Lörnweg","postalCode":"96185","locality":"Schönbrunn i.Steigerwald","municipality":{"key":"09471186","name":"Schönbrunn i.Steigerwald","type":"Kreisangehörige_Gemeinde"},"district":{"key":"09471","name":"Bamberg","type":"Landkreis"},"federalState":{"key":"09","name":"Bayern"}},{"name":"Mannbachweg","postalCode":"69436","locality":"Schönbrunn","municipality":{"key":"08226081","name":"Schönbrunn","type":"Kreisangehörige_Gemeinde"},"district":{"key":"08226","name":"Rhein-Neckar-Kreis","type":"Landkreis"},"federalState":{"key":"08","name":"Baden-Württemberg"}},{"name":"Manöverweg","postalCode":"69436","locality":"Schönbrunn","municipality":{"key":"08226081","name":"Schönbrunn","type":"Kreisangehörige_Gemeinde"},"district":{"key":"08226","name":"Rhein-Neckar-Kreis","type":"Landkreis"},"federalState":{"key":"08","name":"Baden-Württemberg"}},{"name":"Meisenweg","postalCode":"96185","locality":"Schönbrunn i.Steigerwald","municipality":{"key":"09471186","name":"Schönbrunn i.Steigerwald","type":"Kreisangehörige_Gemeinde"},"district":{"key":"09471","name":"Bamberg","type":"Landkreis"},"federalState":{"key":"09","name":"Bayern"}},{"name":"Michelbacher Str.","postalCode":"69436","locality":"Schönbrunn","municipality":{"key":"08226081","name":"Schönbrunn","type":"Kreisangehörige_Gemeinde"},"district":{"key":"08226","name":"Rhein-Neckar-Kreis","type":"Landkreis"},"federalState":{"key":"08","name":"Baden-Württemberg"}},{"name":"Mittlerer Lohbuckelweg","postalCode":"69436","locality":"Schönbrunn","municipality":{"key":"08226081","name":"Schönbrunn","type":"Kreisangehörige_Gemeinde"},"district":{"key":"08226","name":"Rhein-Neckar-Kreis","type":"Landkreis"},"federalState":{"key":"08","name":"Baden-Württemberg"}},{"name":"Mittlerer Weichselbergweg","postalCode":"69436","locality":"Schönbrunn","municipality":{"key":"08226081","name":"Schönbrunn","type":"Kreisangehörige_Gemeinde"},"district":{"key":"08226","name":"Rhein-Neckar-Kreis","type":"Landkreis"},"federalState":{"key":"08","name":"Baden-Württemberg"}},{"name":"Moosbrunner Str.","postalCode":"69436","locality":"Schönbrunn","municipality":{"key":"08226081","name":"Schönbrunn","type":"Kreisangehörige_Gemeinde"},"district":{"key":"08226","name":"Rhein-Neckar-Kreis","type":"Landkreis"},"federalState":{"key":"08","name":"Baden-Württemberg"}},{"name":"Moosklingenweg","postalCode":"69436","locality":"Schönbrunn","municipality":{"key":"08226081","name":"Schönbrunn","type":"Kreisangehörige_Gemeinde"},"district":{"key":"08226","name":"Rhein-Neckar-Kreis","type":"Landkreis"},"federalState":{"key":"08","name":"Baden-Württemberg"}},{"name":"Mühlstr.","postalCode":"96185","locality":"Schönbrunn i.Steigerwald","municipality":{"key":"09471186","name":"Schönbrunn i.Steigerwald","type":"Kreisangehörige_Gemeinde"},"district":{"key":"09471","name":"Bamberg","type":"Landkreis"},"federalState":{"key":"09","name":"Bayern"}},{"name":"Mühlweg","postalCode":"69436","locality":"Schönbrunn","municipality":{"key":"08226081","name":"Schönbrunn","type":"Kreisangehörige_Gemeinde"},"district":{"key":"08226","name":"Rhein-Neckar-Kreis","type":"Landkreis"},"federalState":{"key":"08","name":"Baden-Württemberg"}},{"name":"Neckarhäuserweg","postalCode":"69436","locality":"Schönbrunn","municipality":{"key":"08226081","name":"Schönbrunn","type":"Kreisangehörige_Gemeinde"},"district":{"key":"08226","name":"Rhein-Neckar-Kreis","type":"Landkreis"},"federalState":{"key":"08","name":"Baden-Württemberg"}},{"name":"Neuer Gassenweg","postalCode":"69436","locality":"Schönbrunn","municipality":{"key":"08226081","name":"Schönbrunn","type":"Kreisangehörige_Gemeinde"},"district":{"key":"08226","name":"Rhein-Neckar-Kreis","type":"Landkreis"},"federalState":{"key":"08","name":"Baden-Württemberg"}},{"name":"Neuer Weg","postalCode":"69436","locality":"Schönbrunn","municipality":{"key":"08226081","name":"Schönbrunn","type":"Kreisangehörige_Gemeinde"},"district":{"key":"08226","name":"Rhein-Neckar-Kreis","type":"Landkreis"},"federalState":{"key":"08","name":"Baden-Württemberg"}},{"name":"Neunkircher Str.","postalCode":"69436","locality":"Schönbrunn","municipality":{"key":"08226081","name":"Schönbrunn","type":"Kreisangehörige_Gemeinde"},"district":{"key":"08226","name":"Rhein-Neckar-Kreis","type":"Landkreis"},"federalState":{"key":"08","name":"Baden-Württemberg"}},{"name":"Niederndorfer Hauptstr.","postalCode":"96185","locality":"Schönbrunn i.Steigerwald","municipality":{"key":"09471186","name":"Schönbrunn i.Steigerwald","type":"Kreisangehörige_Gemeinde"},"district":{"key":"09471","name":"Bamberg","type":"Landkreis"},"federalState":{"key":"09","name":"Bayern"}},{"name":"Obere Bachgasse","postalCode":"96185","locality":"Schönbrunn i.Steigerwald","municipality":{"key":"09471186","name":"Schönbrunn i.Steigerwald","type":"Kreisangehörige_Gemeinde"},"district":{"key":"09471","name":"Bamberg","type":"Landkreis"},"federalState":{"key":"09","name":"Bayern"}},{"name":"Oberer Gürtelweg","postalCode":"69436","locality":"Schönbrunn","municipality":{"key":"08226081","name":"Schönbrunn","type":"Kreisangehörige_Gemeinde"},"district":{"key":"08226","name":"Rhein-Neckar-Kreis","type":"Landkreis"},"federalState":{"key":"08","name":"Baden-Württemberg"}},{"name":"Oberer Irrwaldweg","postalCode":"69436","locality":"Schönbrunn","municipality":{"key":"08226081","name":"Schönbrunn","type":"Kreisangehörige_Gemeinde"},"district":{"key":"08226","name":"Rhein-Neckar-Kreis","type":"Landkreis"},"federalState":{"key":"08","name":"Baden-Württemberg"}},{"name":"Oberer Kolbenweg","postalCode":"69436","locality":"Schönbrunn","municipality":{"key":"08226081","name":"Schönbrunn","type":"Kreisangehörige_Gemeinde"},"district":{"key":"08226","name":"Rhein-Neckar-Kreis","type":"Landkreis"},"federalState":{"key":"08","name":"Baden-Württemberg"}},{"name":"Oberer Krautelsbergweg","postalCode":"69436","locality":"Schönbrunn","municipality":{"key":"08226081","name":"Schönbrunn","type":"Kreisangehörige_Gemeinde"},"district":{"key":"08226","name":"Rhein-Neckar-Kreis","type":"Landkreis"},"federalState":{"key":"08","name":"Baden-Württemberg"}},{"name":"Oberer Seitelsdeichweg","postalCode":"69436","locality":"Schönbrunn","municipality":{"key":"08226081","name":"Schönbrunn","type":"Kreisangehörige_Gemeinde"},"district":{"key":"08226","name":"Rhein-Neckar-Kreis","type":"Landkreis"},"federalState":{"key":"08","name":"Baden-Württemberg"}},{"name":"Oberer Talweg","postalCode":"69436","locality":"Schönbrunn","municipality":{"key":"08226081","name":"Schönbrunn","type":"Kreisangehörige_Gemeinde"},"district":{"key":"08226","name":"Rhein-Neckar-Kreis","type":"Landkreis"},"federalState":{"key":"08","name":"Baden-Württemberg"}},{"name":"Oberer Weichselbergweg","postalCode":"69436","locality":"Schönbrunn","municipality":{"key":"08226081","name":"Schönbrunn","type":"Kreisangehörige_Gemeinde"},"district":{"key":"08226","name":"Rhein-Neckar-Kreis","type":"Landkreis"},"federalState":{"key":"08","name":"Baden-Württemberg"}},{"name":"Obere Schloßleite","postalCode":"96185","locality":"Schönbrunn i.Steigerwald","municipality":{"key":"09471186","name":"Schönbrunn i.Steigerwald","type":"Kreisangehörige_Gemeinde"},"district":{"key":"09471","name":"Bamberg","type":"Landkreis"},"federalState":{"key":"09","name":"Bayern"}},{"name":"Oberneuses","postalCode":"96185","locality":"Schönbrunn i.Steigerwald","municipality":{"key":"09471186","name":"Schönbrunn i.Steigerwald","type":"Kreisangehörige_Gemeinde"},"district":{"key":"09471","name":"Bamberg","type":"Landkreis"},"federalState":{"key":"09","name":"Bayern"}},{"name":"Oberschönbrunner Weg","postalCode":"69436","locality":"Schönbrunn","municipality":{"key":"08226081","name":"Schönbrunn","type":"Kreisangehörige_Gemeinde"},"district":{"key":"08226","name":"Rhein-Neckar-Kreis","type":"Landkreis"},"federalState":{"key":"08","name":"Baden-Württemberg"}},{"name":"Oberschwarzacher Pfad","postalCode":"69436","locality":"Schönbrunn","municipality":{"key":"08226081","name":"Schönbrunn","type":"Kreisangehörige_Gemeinde"},"district":{"key":"08226","name":"Rhein-Neckar-Kreis","type":"Landkreis"},"federalState":{"key":"08","name":"Baden-Württemberg"}},{"name":"Panoramastr.","postalCode":"69436","locality":"Schönbrunn","municipality":{"key":"08226081","name":"Schönbrunn","type":"Kreisangehörige_Gemeinde"},"district":{"key":"08226","name":"Rhein-Neckar-Kreis","type":"Landkreis"},"federalState":{"key":"08","name":"Baden-Württemberg"}},{"name":"Pfarrer-Krapp-Str.","postalCode":"96185","locality":"Schönbrunn i.Steigerwald","municipality":{"key":"09471186","name":"Schönbrunn i.Steigerwald","type":"Kreisangehörige_Gemeinde"},"district":{"key":"09471","name":"Bamberg","type":"Landkreis"},"federalState":{"key":"09","name":"Bayern"}},{"name":"Pflaster","postalCode":"69436","locality":"Schönbrunn","municipality":{"key":"08226081","name":"Schönbrunn","type":"Kreisangehörige_Gemeinde"},"district":{"key":"08226","name":"Rhein-Neckar-Kreis","type":"Landkreis"},"federalState":{"key":"08","name":"Baden-Württemberg"}},{"name":"Pleutersbacher Str.","postalCode":"69436","locality":"Schönbrunn","municipality":{"key":"08226081","name":"Schönbrunn","type":"Kreisangehörige_Gemeinde"},"district":{"key":"08226","name":"Rhein-Neckar-Kreis","type":"Landkreis"},"federalState":{"key":"08","name":"Baden-Württemberg"}},{"name":"Rathausstr.","postalCode":"69436","locality":"Schönbrunn","municipality":{"key":"08226081","name":"Schönbrunn","type":"Kreisangehörige_Gemeinde"},"district":{"key":"08226","name":"Rhein-Neckar-Kreis","type":"Landkreis"},"federalState":{"key":"08","name":"Baden-Württemberg"}},{"name":"Reitweg","postalCode":"69436","locality":"Schönbrunn","municipality":{"key":"08226081","name":"Schönbrunn","type":"Kreisangehörige_Gemeinde"},"district":{"key":"08226","name":"Rhein-Neckar-Kreis","type":"Landkreis"},"federalState":{"key":"08","name":"Baden-Württemberg"}},{"name":"Reschbachstr.","postalCode":"94151","locality":"Schönbrunner Wald","municipality":{"key":"09272461","name":"Schönbrunner Wald","type":"Gemeindefreies_Gebiet_Unbewohnt"},"district":{"key":"09272","name":"Freyung-Grafenau","type":"Landkreis"},"federalState":{"key":"09","name":"Bayern"}},{"name":"Riedleite","postalCode":"96185","locality":"Schönbrunn i.Steigerwald","municipality":{"key":"09471186","name":"Schönbrunn i.Steigerwald","type":"Kreisangehörige_Gemeinde"},"district":{"key":"09471","name":"Bamberg","type":"Landkreis"},"federalState":{"key":"09","name":"Bayern"}},{"name":"Ringweg","postalCode":"69436","locality":"Schönbrunn","municipality":{"key":"08226081","name":"Schönbrunn","type":"Kreisangehörige_Gemeinde"},"district":{"key":"08226","name":"Rhein-Neckar-Kreis","type":"Landkreis"},"federalState":{"key":"08","name":"Baden-Württemberg"}},{"name":"Rinnengässel","postalCode":"69436","locality":"Schönbrunn","municipality":{"key":"08226081","name":"Schönbrunn","type":"Kreisangehörige_Gemeinde"},"district":{"key":"08226","name":"Rhein-Neckar-Kreis","type":"Landkreis"},"federalState":{"key":"08","name":"Baden-Württemberg"}},{"name":"Röderwaldweg","postalCode":"69436","locality":"Schönbrunn","municipality":{"key":"08226081","name":"Schönbrunn","type":"Kreisangehörige_Gemeinde"},"district":{"key":"08226","name":"Rhein-Neckar-Kreis","type":"Landkreis"},"federalState":{"key":"08","name":"Baden-Württemberg"}},{"name":"Rothweg","postalCode":"69436","locality":"Schönbrunn","municipality":{"key":"08226081","name":"Schönbrunn","type":"Kreisangehörige_Gemeinde"},"district":{"key":"08226","name":"Rhein-Neckar-Kreis","type":"Landkreis"},"federalState":{"key":"08","name":"Baden-Württemberg"}},{"name":"Rotweg","postalCode":"69436","locality":"Schönbrunn","municipality":{"key":"08226081","name":"Schönbrunn","type":"Kreisangehörige_Gemeinde"},"district":{"key":"08226","name":"Rhein-Neckar-Kreis","type":"Landkreis"},"federalState":{"key":"08","name":"Baden-Württemberg"}},{"name":"Sagwasserstr.","postalCode":"94151","locality":"Schönbrunner Wald","municipality":{"key":"09272461","name":"Schönbrunner Wald","type":"Gemeindefreies_Gebiet_Unbewohnt"},"district":{"key":"09272","name":"Freyung-Grafenau","type":"Landkreis"},"federalState":{"key":"09","name":"Bayern"}},{"name":"Schäferweg","postalCode":"69436","locality":"Schönbrunn","municipality":{"key":"08226081","name":"Schönbrunn","type":"Kreisangehörige_Gemeinde"},"district":{"key":"08226","name":"Rhein-Neckar-Kreis","type":"Landkreis"},"federalState":{"key":"08","name":"Baden-Württemberg"}},{"name":"Scheffelstr.","postalCode":"69436","locality":"Schönbrunn","municipality":{"key":"08226081","name":"Schönbrunn","type":"Kreisangehörige_Gemeinde"},"district":{"key":"08226","name":"Rhein-Neckar-Kreis","type":"Landkreis"},"federalState":{"key":"08","name":"Baden-Württemberg"}},{"name":"Schindbergstr.","postalCode":"96185","locality":"Schönbrunn i.Steigerwald","municipality":{"key":"09471186","name":"Schönbrunn i.Steigerwald","type":"Kreisangehörige_Gemeinde"},"district":{"key":"09471","name":"Bamberg","type":"Landkreis"},"federalState":{"key":"09","name":"Bayern"}},{"name":"Schleifmühlweg","postalCode":"69436","locality":"Schönbrunn","municipality":{"key":"08226081","name":"Schönbrunn","type":"Kreisangehörige_Gemeinde"},"district":{"key":"08226","name":"Rhein-Neckar-Kreis","type":"Landkreis"},"federalState":{"key":"08","name":"Baden-Württemberg"}},{"name":"Schloßhöhe","postalCode":"96185","locality":"Schönbrunn i.Steigerwald","municipality":{"key":"09471186","name":"Schönbrunn i.Steigerwald","type":"Kreisangehörige_Gemeinde"},"district":{"key":"09471","name":"Bamberg","type":"Landkreis"},"federalState":{"key":"09","name":"Bayern"}},{"name":"Schloßleite","postalCode":"96185","locality":"Schönbrunn i.Steigerwald","municipality":{"key":"09471186","name":"Schönbrunn i.Steigerwald","type":"Kreisangehörige_Gemeinde"},"district":{"key":"09471","name":"Bamberg","type":"Landkreis"},"federalState":{"key":"09","name":"Bayern"}},{"name":"Schloßweg","postalCode":"96185","locality":"Schönbrunn i.Steigerwald","municipality":{"key":"09471186","name":"Schönbrunn i.Steigerwald","type":"Kreisangehörige_Gemeinde"},"district":{"key":"09471","name":"Bamberg","type":"Landkreis"},"federalState":{"key":"09","name":"Bayern"}},{"name":"Schönblickstr.","postalCode":"69436","locality":"Schönbrunn","municipality":{"key":"08226081","name":"Schönbrunn","type":"Kreisangehörige_Gemeinde"},"district":{"key":"08226","name":"Rhein-Neckar-Kreis","type":"Landkreis"},"federalState":{"key":"08","name":"Baden-Württemberg"}},{"name":"Schönbrunner Str.","postalCode":"69436","locality":"Schönbrunn","municipality":{"key":"08226081","name":"Schönbrunn","type":"Kreisangehörige_Gemeinde"},"district":{"key":"08226","name":"Rhein-Neckar-Kreis","type":"Landkreis"},"federalState":{"key":"08","name":"Baden-Württemberg"}},{"name":"Schöne Aussicht","postalCode":"69436","locality":"Schönbrunn","municipality":{"key":"08226081","name":"Schönbrunn","type":"Kreisangehörige_Gemeinde"},"district":{"key":"08226","name":"Rhein-Neckar-Kreis","type":"Landkreis"},"federalState":{"key":"08","name":"Baden-Württemberg"}},{"name":"Schulacker","postalCode":"69436","locality":"Schönbrunn","municipality":{"key":"08226081","name":"Schönbrunn","type":"Kreisangehörige_Gemeinde"},"district":{"key":"08226","name":"Rhein-Neckar-Kreis","type":"Landkreis"},"federalState":{"key":"08","name":"Baden-Württemberg"}},{"name":"Schulstr.","postalCode":"69436","locality":"Schönbrunn","municipality":{"key":"08226081","name":"Schönbrunn","type":"Kreisangehörige_Gemeinde"},"district":{"key":"08226","name":"Rhein-Neckar-Kreis","type":"Landkreis"},"federalState":{"key":"08","name":"Baden-Württemberg"}},{"name":"Schützenstr.","postalCode":"96185","locality":"Schönbrunn i.Steigerwald","municipality":{"key":"09471186","name":"Schönbrunn i.Steigerwald","type":"Kreisangehörige_Gemeinde"},"district":{"key":"09471","name":"Bamberg","type":"Landkreis"},"federalState":{"key":"09","name":"Bayern"}},{"name":"Schwalbenweg","postalCode":"69436","locality":"Schönbrunn","municipality":{"key":"08226081","name":"Schönbrunn","type":"Kreisangehörige_Gemeinde"},"district":{"key":"08226","name":"Rhein-Neckar-Kreis","type":"Landkreis"},"federalState":{"key":"08","name":"Baden-Württemberg"}},{"name":"Schwanacker","postalCode":"69436","locality":"Schönbrunn","municipality":{"key":"08226081","name":"Schönbrunn","type":"Kreisangehörige_Gemeinde"},"district":{"key":"08226","name":"Rhein-Neckar-Kreis","type":"Landkreis"},"federalState":{"key":"08","name":"Baden-Württemberg"}},{"name":"Schwanenweg","postalCode":"69436","locality":"Schönbrunn","municipality":{"key":"08226081","name":"Schönbrunn","type":"Kreisangehörige_Gemeinde"},"district":{"key":"08226","name":"Rhein-Neckar-Kreis","type":"Landkreis"},"federalState":{"key":"08","name":"Baden-Württemberg"}},{"name":"Schwanheimer Str.","postalCode":"69436","locality":"Schönbrunn","municipality":{"key":"08226081","name":"Schönbrunn","type":"Kreisangehörige_Gemeinde"},"district":{"key":"08226","name":"Rhein-Neckar-Kreis","type":"Landkreis"},"federalState":{"key":"08","name":"Baden-Württemberg"}},{"name":"Seeleite","postalCode":"96185","locality":"Schönbrunn i.Steigerwald","municipality":{"key":"09471186","name":"Schönbrunn i.Steigerwald","type":"Kreisangehörige_Gemeinde"},"district":{"key":"09471","name":"Bamberg","type":"Landkreis"},"federalState":{"key":"09","name":"Bayern"}},{"name":"Seitelsgrundweg","postalCode":"69436","locality":"Schönbrunn","municipality":{"key":"08226081","name":"Schönbrunn","type":"Kreisangehörige_Gemeinde"},"district":{"key":"08226","name":"Rhein-Neckar-Kreis","type":"Landkreis"},"federalState":{"key":"08","name":"Baden-Württemberg"}},{"name":"Siedlungsstr.","postalCode":"96185","locality":"Schönbrunn i.Steigerwald","municipality":{"key":"09471186","name":"Schönbrunn i.Steigerwald","type":"Kreisangehörige_Gemeinde"},"district":{"key":"09471","name":"Bamberg","type":"Landkreis"},"federalState":{"key":"09","name":"Bayern"}},{"name":"Sonnenhalde","postalCode":"69436","locality":"Schönbrunn","municipality":{"key":"08226081","name":"Schönbrunn","type":"Kreisangehörige_Gemeinde"},"district":{"key":"08226","name":"Rhein-Neckar-Kreis","type":"Landkreis"},"federalState":{"key":"08","name":"Baden-Württemberg"}},{"name":"Sonnenweg","postalCode":"96185","locality":"Schönbrunn i.Steigerwald","municipality":{"key":"09471186","name":"Schönbrunn i.Steigerwald","type":"Kreisangehörige_Gemeinde"},"district":{"key":"09471","name":"Bamberg","type":"Landkreis"},"federalState":{"key":"09","name":"Bayern"}},{"name":"St.-Anna-Kapellen-Str.","postalCode":"96185","locality":"Schönbrunn i.Steigerwald","municipality":{"key":"09471186","name":"Schönbrunn i.Steigerwald","type":"Kreisangehörige_Gemeinde"},"district":{"key":"09471","name":"Bamberg","type":"Landkreis"},"federalState":{"key":"09","name":"Bayern"}},{"name":"Steige","postalCode":"69436","locality":"Schönbrunn","municipality":{"key":"08226081","name":"Schönbrunn","type":"Kreisangehörige_Gemeinde"},"district":{"key":"08226","name":"Rhein-Neckar-Kreis","type":"Landkreis"},"federalState":{"key":"08","name":"Baden-Württemberg"}},{"name":"Steinbruchstr.","postalCode":"69436","locality":"Schönbrunn","municipality":{"key":"08226081","name":"Schönbrunn","type":"Kreisangehörige_Gemeinde"},"district":{"key":"08226","name":"Rhein-Neckar-Kreis","type":"Landkreis"},"federalState":{"key":"08","name":"Baden-Württemberg"}},{"name":"Steinbruchweg","postalCode":"69436","locality":"Schönbrunn","municipality":{"key":"08226081","name":"Schönbrunn","type":"Kreisangehörige_Gemeinde"},"district":{"key":"08226","name":"Rhein-Neckar-Kreis","type":"Landkreis"},"federalState":{"key":"08","name":"Baden-Württemberg"}},{"name":"Steingasse","postalCode":"69436","locality":"Schönbrunn","municipality":{"key":"08226081","name":"Schönbrunn","type":"Kreisangehörige_Gemeinde"},"district":{"key":"08226","name":"Rhein-Neckar-Kreis","type":"Landkreis"},"federalState":{"key":"08","name":"Baden-Württemberg"}},{"name":"Steinsdorfer Hauptstr.","postalCode":"96185","locality":"Schönbrunn i.Steigerwald","municipality":{"key":"09471186","name":"Schönbrunn i.Steigerwald","type":"Kreisangehörige_Gemeinde"},"district":{"key":"09471","name":"Bamberg","type":"Landkreis"},"federalState":{"key":"09","name":"Bayern"}},{"name":"Steinsdorfer Str.","postalCode":"96185","locality":"Schönbrunn i.Steigerwald","municipality":{"key":"09471186","name":"Schönbrunn i.Steigerwald","type":"Kreisangehörige_Gemeinde"},"district":{"key":"09471","name":"Bamberg","type":"Landkreis"},"federalState":{"key":"09","name":"Bayern"}},{"name":"Stickelsklingenweg","postalCode":"69436","locality":"Schönbrunn","municipality":{"key":"08226081","name":"Schönbrunn","type":"Kreisangehörige_Gemeinde"},"district":{"key":"08226","name":"Rhein-Neckar-Kreis","type":"Landkreis"},"federalState":{"key":"08","name":"Baden-Württemberg"}},{"name":"Talstr.","postalCode":"69436","locality":"Schönbrunn","municipality":{"key":"08226081","name":"Schönbrunn","type":"Kreisangehörige_Gemeinde"},"district":{"key":"08226","name":"Rhein-Neckar-Kreis","type":"Landkreis"},"federalState":{"key":"08","name":"Baden-Württemberg"}},{"name":"Tannenweg","postalCode":"69436","locality":"Schönbrunn","municipality":{"key":"08226081","name":"Schönbrunn","type":"Kreisangehörige_Gemeinde"},"district":{"key":"08226","name":"Rhein-Neckar-Kreis","type":"Landkreis"},"federalState":{"key":"08","name":"Baden-Württemberg"}},{"name":"Taubenweg","postalCode":"69436","locality":"Schönbrunn","municipality":{"key":"08226081","name":"Schönbrunn","type":"Kreisangehörige_Gemeinde"},"district":{"key":"08226","name":"Rhein-Neckar-Kreis","type":"Landkreis"},"federalState":{"key":"08","name":"Baden-Württemberg"}},{"name":"Teichstr.","postalCode":"96185","locality":"Schönbrunn i.Steigerwald","municipality":{"key":"09471186","name":"Schönbrunn i.Steigerwald","type":"Kreisangehörige_Gemeinde"},"district":{"key":"09471","name":"Bamberg","type":"Landkreis"},"federalState":{"key":"09","name":"Bayern"}},{"name":"Todtenbronnenweg","postalCode":"69436","locality":"Schönbrunn","municipality":{"key":"08226081","name":"Schönbrunn","type":"Kreisangehörige_Gemeinde"},"district":{"key":"08226","name":"Rhein-Neckar-Kreis","type":"Landkreis"},"federalState":{"key":"08","name":"Baden-Württemberg"}},{"name":"Trab","postalCode":"96185","locality":"Schönbrunn i.Steigerwald","municipality":{"key":"09471186","name":"Schönbrunn i.Steigerwald","type":"Kreisangehörige_Gemeinde"},"district":{"key":"09471","name":"Bamberg","type":"Landkreis"},"federalState":{"key":"09","name":"Bayern"}},{"name":"Triebäcker","postalCode":"96185","locality":"Schönbrunn i.Steigerwald","municipality":{"key":"09471186","name":"Schönbrunn i.Steigerwald","type":"Kreisangehörige_Gemeinde"},"district":{"key":"09471","name":"Bamberg","type":"Landkreis"},"federalState":{"key":"09","name":"Bayern"}},{"name":"Tummelplatzstr.","postalCode":"94151","locality":"Schönbrunner Wald","municipality":{"key":"09272461","name":"Schönbrunner Wald","type":"Gemeindefreies_Gebiet_Unbewohnt"},"district":{"key":"09272","name":"Freyung-Grafenau","type":"Landkreis"},"federalState":{"key":"09","name":"Bayern"}},{"name":"Türkenfeldstr.","postalCode":"96185","locality":"Schönbrunn i.Steigerwald","municipality":{"key":"09471186","name":"Schönbrunn i.Steigerwald","type":"Kreisangehörige_Gemeinde"},"district":{"key":"09471","name":"Bamberg","type":"Landkreis"},"federalState":{"key":"09","name":"Bayern"}},{"name":"Ulmenweg","postalCode":"69436","locality":"Schönbrunn","municipality":{"key":"08226081","name":"Schönbrunn","type":"Kreisangehörige_Gemeinde"},"district":{"key":"08226","name":"Rhein-Neckar-Kreis","type":"Landkreis"},"federalState":{"key":"08","name":"Baden-Württemberg"}},{"name":"Unterer Kolbenweg","postalCode":"69436","locality":"Schönbrunn","municipality":{"key":"08226081","name":"Schönbrunn","type":"Kreisangehörige_Gemeinde"},"district":{"key":"08226","name":"Rhein-Neckar-Kreis","type":"Landkreis"},"federalState":{"key":"08","name":"Baden-Württemberg"}},{"name":"Unterer Krautelsbergweg","postalCode":"69436","locality":"Schönbrunn","municipality":{"key":"08226081","name":"Schönbrunn","type":"Kreisangehörige_Gemeinde"},"district":{"key":"08226","name":"Rhein-Neckar-Kreis","type":"Landkreis"},"federalState":{"key":"08","name":"Baden-Württemberg"}},{"name":"Unterer Lohbuckelweg","postalCode":"69436","locality":"Schönbrunn","municipality":{"key":"08226081","name":"Schönbrunn","type":"Kreisangehörige_Gemeinde"},"district":{"key":"08226","name":"Rhein-Neckar-Kreis","type":"Landkreis"},"federalState":{"key":"08","name":"Baden-Württemberg"}},{"name":"Unterer Seitelsteichweg","postalCode":"69436","locality":"Schönbrunn","municipality":{"key":"08226081","name":"Schönbrunn","type":"Kreisangehörige_Gemeinde"},"district":{"key":"08226","name":"Rhein-Neckar-Kreis","type":"Landkreis"},"federalState":{"key":"08","name":"Baden-Württemberg"}},{"name":"Unterer Weichselbergweg","postalCode":"69436","locality":"Schönbrunn","municipality":{"key":"08226081","name":"Schönbrunn","type":"Kreisangehörige_Gemeinde"},"district":{"key":"08226","name":"Rhein-Neckar-Kreis","type":"Landkreis"},"federalState":{"key":"08","name":"Baden-Württemberg"}},{"name":"Untere Schloßleite","postalCode":"96185","locality":"Schönbrunn i.Steigerwald","municipality":{"key":"09471186","name":"Schönbrunn i.Steigerwald","type":"Kreisangehörige_Gemeinde"},"district":{"key":"09471","name":"Bamberg","type":"Landkreis"},"federalState":{"key":"09","name":"Bayern"}},{"name":"verfallen","postalCode":"94151","locality":"Schönbrunner Wald","municipality":{"key":"09272461","name":"Schönbrunner Wald","type":"Gemeindefreies_Gebiet_Unbewohnt"},"district":{"key":"09272","name":"Freyung-Grafenau","type":"Landkreis"},"federalState":{"key":"09","name":"Bayern"}},{"name":"Waldstr.","postalCode":"69436","locality":"Schönbrunn","municipality":{"key":"08226081","name":"Schönbrunn","type":"Kreisangehörige_Gemeinde"},"district":{"key":"08226","name":"Rhein-Neckar-Kreis","type":"Landkreis"},"federalState":{"key":"08","name":"Baden-Württemberg"}},{"name":"Waldstr.","postalCode":"96185","locality":"Schönbrunn i.Steigerwald","municipality":{"key":"09471186","name":"Schönbrunn i.Steigerwald","type":"Kreisangehörige_Gemeinde"},"district":{"key":"09471","name":"Bamberg","type":"Landkreis"},"federalState":{"key":"09","name":"Bayern"}},{"name":"Weidenweg","postalCode":"69436","locality":"Schönbrunn","municipality":{"key":"08226081","name":"Schönbrunn","type":"Kreisangehörige_Gemeinde"},"district":{"key":"08226","name":"Rhein-Neckar-Kreis","type":"Landkreis"},"federalState":{"key":"08","name":"Baden-Württemberg"}},{"name":"Wiesensteinigweg","postalCode":"69436","locality":"Schönbrunn","municipality":{"key":"08226081","name":"Schönbrunn","type":"Kreisangehörige_Gemeinde"},"district":{"key":"08226","name":"Rhein-Neckar-Kreis","type":"Landkreis"},"federalState":{"key":"08","name":"Baden-Württemberg"}},{"name":"Wiesenstr.","postalCode":"69436","locality":"Schönbrunn","municipality":{"key":"08226081","name":"Schönbrunn","type":"Kreisangehörige_Gemeinde"},"district":{"key":"08226","name":"Rhein-Neckar-Kreis","type":"Landkreis"},"federalState":{"key":"08","name":"Baden-Württemberg"}},{"name":"Wiesental","postalCode":"69436","locality":"Schönbrunn","municipality":{"key":"08226081","name":"Schönbrunn","type":"Kreisangehörige_Gemeinde"},"district":{"key":"08226","name":"Rhein-Neckar-Kreis","type":"Landkreis"},"federalState":{"key":"08","name":"Baden-Württemberg"}},{"name":"Wiesenweg","postalCode":"96185","locality":"Schönbrunn i.Steigerwald","municipality":{"key":"09471186","name":"Schönbrunn i.Steigerwald","type":"Kreisangehörige_Gemeinde"},"district":{"key":"09471","name":"Bamberg","type":"Landkreis"},"federalState":{"key":"09","name":"Bayern"}},{"name":"Wintergatter Riedlhäng","postalCode":"94151","locality":"Schönbrunner Wald","municipality":{"key":"09272461","name":"Schönbrunner Wald","type":"Gemeindefreies_Gebiet_Unbewohnt"},"district":{"key":"09272","name":"Freyung-Grafenau","type":"Landkreis"},"federalState":{"key":"09","name":"Bayern"}},{"name":"Winterleite","postalCode":"96185","locality":"Schönbrunn i.Steigerwald","municipality":{"key":"09471186","name":"Schönbrunn i.Steigerwald","type":"Kreisangehörige_Gemeinde"},"district":{"key":"09471","name":"Bamberg","type":"Landkreis"},"federalState":{"key":"09","name":"Bayern"}},{"name":"Zettmannsdorfer Hauptstr.","postalCode":"96185","locality":"Schönbrunn i.Steigerwald","municipality":{"key":"09471186","name":"Schönbrunn i.Steigerwald","type":"Kreisangehörige_Gemeinde"},"district":{"key":"09471","name":"Bamberg","type":"Landkreis"},"federalState":{"key":"09","name":"Bayern"}},{"name":"Zettmannsdorfer Str.","postalCode":"96185","locality":"Schönbrunn i.Steigerwald","municipality":{"key":"09471186","name":"Schönbrunn i.Steigerwald","type":"Kreisangehörige_Gemeinde"},"district":{"key":"09471","name":"Bamberg","type":"Landkreis"},"federalState":{"key":"09","name":"Bayern"}},{"name":"Zollerwaldringstr.","postalCode":"69436","locality":"Schönbrunn","municipality":{"key":"08226081","name":"Schönbrunn","type":"Kreisangehörige_Gemeinde"},"district":{"key":"08226","name":"Rhein-Neckar-Kreis","type":"Landkreis"},"federalState":{"key":"08","name":"Baden-Württemberg"}},{"name":"Zollerwaldstr.","postalCode":"69436","locality":"Schönbrunn","municipality":{"key":"08226081","name":"Schönbrunn","type":"Kreisangehörige_Gemeinde"},"district":{"key":"08226","name":"Rhein-Neckar-Kreis","type":"Landkreis"},"federalState":{"key":"08","name":"Baden-Württemberg"}},]