[{"name":"Am Dreiblatt","postalCode":"19230","locality":"Kuhstorf","municipality":{"key":"13076079","name":"Kuhstorf","type":"Kreisangehörige_Gemeinde"},"district":{"key":"13076","name":"Ludwigslust-Parchim","type":"Landkreis"},"federalState":{"key":"13","name":"Mecklenburg-Vorpommern"}},{"name":"An den Eichen","postalCode":"19230","locality":"Kuhstorf","municipality":{"key":"13076079","name":"Kuhstorf","type":"Kreisangehörige_Gemeinde"},"district":{"key":"13076","name":"Ludwigslust-Parchim","type":"Landkreis"},"federalState":{"key":"13","name":"Mecklenburg-Vorpommern"}},{"name":"Bauernende","postalCode":"19230","locality":"Kuhstorf","municipality":{"key":"13076079","name":"Kuhstorf","type":"Kreisangehörige_Gemeinde"},"district":{"key":"13076","name":"Ludwigslust-Parchim","type":"Landkreis"},"federalState":{"key":"13","name":"Mecklenburg-Vorpommern"}},{"name":"Bleiche","postalCode":"19230","locality":"Kuhstorf","municipality":{"key":"13076079","name":"Kuhstorf","type":"Kreisangehörige_Gemeinde"},"district":{"key":"13076","name":"Ludwigslust-Parchim","type":"Landkreis"},"federalState":{"key":"13","name":"Mecklenburg-Vorpommern"}},{"name":"Eichhof","postalCode":"19230","locality":"Kuhstorf","municipality":{"key":"13076079","name":"Kuhstorf","type":"Kreisangehörige_Gemeinde"},"district":{"key":"13076","name":"Ludwigslust-Parchim","type":"Landkreis"},"federalState":{"key":"13","name":"Mecklenburg-Vorpommern"}},{"name":"Kiencker Weg","postalCode":"19230","locality":"Kuhstorf","municipality":{"key":"13076079","name":"Kuhstorf","type":"Kreisangehörige_Gemeinde"},"district":{"key":"13076","name":"Ludwigslust-Parchim","type":"Landkreis"},"federalState":{"key":"13","name":"Mecklenburg-Vorpommern"}},{"name":"Kliewatzmaur","postalCode":"19230","locality":"Kuhstorf","municipality":{"key":"13076079","name":"Kuhstorf","type":"Kreisangehörige_Gemeinde"},"district":{"key":"13076","name":"Ludwigslust-Parchim","type":"Landkreis"},"federalState":{"key":"13","name":"Mecklenburg-Vorpommern"}},{"name":"Mecklenburger Ende","postalCode":"19230","locality":"Kuhstorf","municipality":{"key":"13076079","name":"Kuhstorf","type":"Kreisangehörige_Gemeinde"},"district":{"key":"13076","name":"Ludwigslust-Parchim","type":"Landkreis"},"federalState":{"key":"13","name":"Mecklenburg-Vorpommern"}},{"name":"Pegelsberg","postalCode":"19230","locality":"Kuhstorf","municipality":{"key":"13076079","name":"Kuhstorf","type":"Kreisangehörige_Gemeinde"},"district":{"key":"13076","name":"Ludwigslust-Parchim","type":"Landkreis"},"federalState":{"key":"13","name":"Mecklenburg-Vorpommern"}},{"name":"Redefiner Weg","postalCode":"19230","locality":"Kuhstorf","municipality":{"key":"13076079","name":"Kuhstorf","type":"Kreisangehörige_Gemeinde"},"district":{"key":"13076","name":"Ludwigslust-Parchim","type":"Landkreis"},"federalState":{"key":"13","name":"Mecklenburg-Vorpommern"}},{"name":"Schulstr.","postalCode":"19230","locality":"Kuhstorf","municipality":{"key":"13076079","name":"Kuhstorf","type":"Kreisangehörige_Gemeinde"},"district":{"key":"13076","name":"Ludwigslust-Parchim","type":"Landkreis"},"federalState":{"key":"13","name":"Mecklenburg-Vorpommern"}},{"name":"Wiesengrund","postalCode":"19230","locality":"Kuhstorf","municipality":{"key":"13076079","name":"Kuhstorf","type":"Kreisangehörige_Gemeinde"},"district":{"key":"13076","name":"Ludwigslust-Parchim","type":"Landkreis"},"federalState":{"key":"13","name":"Mecklenburg-Vorpommern"}},{"name":"Zum Stutenbaum","postalCode":"19230","locality":"Kuhstorf","municipality":{"key":"13076079","name":"Kuhstorf","type":"Kreisangehörige_Gemeinde"},"district":{"key":"13076","name":"Ludwigslust-Parchim","type":"Landkreis"},"federalState":{"key":"13","name":"Mecklenburg-Vorpommern"}},{"name":"Zur Höft","postalCode":"19230","locality":"Kuhstorf","municipality":{"key":"13076079","name":"Kuhstorf","type":"Kreisangehörige_Gemeinde"},"district":{"key":"13076","name":"Ludwigslust-Parchim","type":"Landkreis"},"federalState":{"key":"13","name":"Mecklenburg-Vorpommern"}},{"name":"Zur Hufe","postalCode":"19230","locality":"Kuhstorf","municipality":{"key":"13076079","name":"Kuhstorf","type":"Kreisangehörige_Gemeinde"},"district":{"key":"13076","name":"Ludwigslust-Parchim","type":"Landkreis"},"federalState":{"key":"13","name":"Mecklenburg-Vorpommern"}},]