[{"name":"Ahornstr.","postalCode":"64579","locality":"Gernsheim","municipality":{"key":"06433004","name":"Gernsheim, Schöfferstadt","type":"Stadt"},"district":{"key":"06433","name":"Groß-Gerau","type":"Landkreis"},"federalState":{"key":"06","name":"Hessen"}},{"name":"Albrecht-Dürer-Weg","postalCode":"64579","locality":"Gernsheim","municipality":{"key":"06433004","name":"Gernsheim, Schöfferstadt","type":"Stadt"},"district":{"key":"06433","name":"Groß-Gerau","type":"Landkreis"},"federalState":{"key":"06","name":"Hessen"}},{"name":"Alfred-Delp-Str.","postalCode":"64579","locality":"Gernsheim","municipality":{"key":"06433004","name":"Gernsheim, Schöfferstadt","type":"Stadt"},"district":{"key":"06433","name":"Groß-Gerau","type":"Landkreis"},"federalState":{"key":"06","name":"Hessen"}},{"name":"Alsbacher Str.","postalCode":"64579","locality":"Gernsheim","municipality":{"key":"06433004","name":"Gernsheim, Schöfferstadt","type":"Stadt"},"district":{"key":"06433","name":"Groß-Gerau","type":"Landkreis"},"federalState":{"key":"06","name":"Hessen"}},{"name":"Alte Landstr.","postalCode":"64579","locality":"Gernsheim","municipality":{"key":"06433004","name":"Gernsheim, Schöfferstadt","type":"Stadt"},"district":{"key":"06433","name":"Groß-Gerau","type":"Landkreis"},"federalState":{"key":"06","name":"Hessen"}},{"name":"Alte Römerstr.","postalCode":"64579","locality":"Gernsheim","municipality":{"key":"06433004","name":"Gernsheim, Schöfferstadt","type":"Stadt"},"district":{"key":"06433","name":"Groß-Gerau","type":"Landkreis"},"federalState":{"key":"06","name":"Hessen"}},{"name":"Am Bildstock","postalCode":"64579","locality":"Gernsheim","municipality":{"key":"06433004","name":"Gernsheim, Schöfferstadt","type":"Stadt"},"district":{"key":"06433","name":"Groß-Gerau","type":"Landkreis"},"federalState":{"key":"06","name":"Hessen"}},{"name":"Am Friedhof","postalCode":"64579","locality":"Gernsheim","municipality":{"key":"06433004","name":"Gernsheim, Schöfferstadt","type":"Stadt"},"district":{"key":"06433","name":"Groß-Gerau","type":"Landkreis"},"federalState":{"key":"06","name":"Hessen"}},{"name":"Amselweg","postalCode":"64579","locality":"Gernsheim","municipality":{"key":"06433004","name":"Gernsheim, Schöfferstadt","type":"Stadt"},"district":{"key":"06433","name":"Groß-Gerau","type":"Landkreis"},"federalState":{"key":"06","name":"Hessen"}},{"name":"Am Stachelacker","postalCode":"64579","locality":"Gernsheim","municipality":{"key":"06433004","name":"Gernsheim, Schöfferstadt","type":"Stadt"},"district":{"key":"06433","name":"Groß-Gerau","type":"Landkreis"},"federalState":{"key":"06","name":"Hessen"}},{"name":"Am Steinernen Brückchen","postalCode":"64579","locality":"Gernsheim","municipality":{"key":"06433004","name":"Gernsheim, Schöfferstadt","type":"Stadt"},"district":{"key":"06433","name":"Groß-Gerau","type":"Landkreis"},"federalState":{"key":"06","name":"Hessen"}},{"name":"Am Waldeck","postalCode":"64579","locality":"Gernsheim","municipality":{"key":"06433004","name":"Gernsheim, Schöfferstadt","type":"Stadt"},"district":{"key":"06433","name":"Groß-Gerau","type":"Landkreis"},"federalState":{"key":"06","name":"Hessen"}},{"name":"An der Heckenmühle","postalCode":"64579","locality":"Gernsheim","municipality":{"key":"06433004","name":"Gernsheim, Schöfferstadt","type":"Stadt"},"district":{"key":"06433","name":"Groß-Gerau","type":"Landkreis"},"federalState":{"key":"06","name":"Hessen"}},{"name":"Andreas-Brentano-Str.","postalCode":"64579","locality":"Gernsheim","municipality":{"key":"06433004","name":"Gernsheim, Schöfferstadt","type":"Stadt"},"district":{"key":"06433","name":"Groß-Gerau","type":"Landkreis"},"federalState":{"key":"06","name":"Hessen"}},{"name":"Andreas-Diettmann-Str.","postalCode":"64579","locality":"Gernsheim","municipality":{"key":"06433004","name":"Gernsheim, Schöfferstadt","type":"Stadt"},"district":{"key":"06433","name":"Groß-Gerau","type":"Landkreis"},"federalState":{"key":"06","name":"Hessen"}},{"name":"Andreas-Malsy-Str.","postalCode":"64579","locality":"Gernsheim","municipality":{"key":"06433004","name":"Gernsheim, Schöfferstadt","type":"Stadt"},"district":{"key":"06433","name":"Groß-Gerau","type":"Landkreis"},"federalState":{"key":"06","name":"Hessen"}},{"name":"Auerbacher Str.","postalCode":"64579","locality":"Gernsheim","municipality":{"key":"06433004","name":"Gernsheim, Schöfferstadt","type":"Stadt"},"district":{"key":"06433","name":"Groß-Gerau","type":"Landkreis"},"federalState":{"key":"06","name":"Hessen"}},{"name":"Auf der Hammeraue","postalCode":"64579","locality":"Gernsheim","municipality":{"key":"06433004","name":"Gernsheim, Schöfferstadt","type":"Stadt"},"district":{"key":"06433","name":"Groß-Gerau","type":"Landkreis"},"federalState":{"key":"06","name":"Hessen"}},{"name":"Außerhalb Allmendfeld","postalCode":"64579","locality":"Gernsheim","municipality":{"key":"06433004","name":"Gernsheim, Schöfferstadt","type":"Stadt"},"district":{"key":"06433","name":"Groß-Gerau","type":"Landkreis"},"federalState":{"key":"06","name":"Hessen"}},{"name":"Bachschneise","postalCode":"64579","locality":"Gernsheim","municipality":{"key":"06433004","name":"Gernsheim, Schöfferstadt","type":"Stadt"},"district":{"key":"06433","name":"Groß-Gerau","type":"Landkreis"},"federalState":{"key":"06","name":"Hessen"}},{"name":"Bahnhofstr.","postalCode":"64579","locality":"Gernsheim","municipality":{"key":"06433004","name":"Gernsheim, Schöfferstadt","type":"Stadt"},"district":{"key":"06433","name":"Groß-Gerau","type":"Landkreis"},"federalState":{"key":"06","name":"Hessen"}},{"name":"Becker Schneise","postalCode":"64579","locality":"Gernsheim","municipality":{"key":"06433004","name":"Gernsheim, Schöfferstadt","type":"Stadt"},"district":{"key":"06433","name":"Groß-Gerau","type":"Landkreis"},"federalState":{"key":"06","name":"Hessen"}},{"name":"Bensheimer Str.","postalCode":"64579","locality":"Gernsheim","municipality":{"key":"06433004","name":"Gernsheim, Schöfferstadt","type":"Stadt"},"district":{"key":"06433","name":"Groß-Gerau","type":"Landkreis"},"federalState":{"key":"06","name":"Hessen"}},{"name":"Berleweg","postalCode":"64579","locality":"Gernsheim","municipality":{"key":"06433004","name":"Gernsheim, Schöfferstadt","type":"Stadt"},"district":{"key":"06433","name":"Groß-Gerau","type":"Landkreis"},"federalState":{"key":"06","name":"Hessen"}},{"name":"Berliner Str.","postalCode":"64579","locality":"Gernsheim","municipality":{"key":"06433004","name":"Gernsheim, Schöfferstadt","type":"Stadt"},"district":{"key":"06433","name":"Groß-Gerau","type":"Landkreis"},"federalState":{"key":"06","name":"Hessen"}},{"name":"Bibliser Str.","postalCode":"64579","locality":"Gernsheim","municipality":{"key":"06433004","name":"Gernsheim, Schöfferstadt","type":"Stadt"},"district":{"key":"06433","name":"Groß-Gerau","type":"Landkreis"},"federalState":{"key":"06","name":"Hessen"}},{"name":"Biebesheimer Str.","postalCode":"64579","locality":"Gernsheim","municipality":{"key":"06433004","name":"Gernsheim, Schöfferstadt","type":"Stadt"},"district":{"key":"06433","name":"Groß-Gerau","type":"Landkreis"},"federalState":{"key":"06","name":"Hessen"}},{"name":"Birkenstr.","postalCode":"64579","locality":"Gernsheim","municipality":{"key":"06433004","name":"Gernsheim, Schöfferstadt","type":"Stadt"},"district":{"key":"06433","name":"Groß-Gerau","type":"Landkreis"},"federalState":{"key":"06","name":"Hessen"}},{"name":"Bleichstr.","postalCode":"64579","locality":"Gernsheim","municipality":{"key":"06433004","name":"Gernsheim, Schöfferstadt","type":"Stadt"},"district":{"key":"06433","name":"Groß-Gerau","type":"Landkreis"},"federalState":{"key":"06","name":"Hessen"}},{"name":"Bogenstr.","postalCode":"64579","locality":"Gernsheim","municipality":{"key":"06433004","name":"Gernsheim, Schöfferstadt","type":"Stadt"},"district":{"key":"06433","name":"Groß-Gerau","type":"Landkreis"},"federalState":{"key":"06","name":"Hessen"}},{"name":"Breslauer Str.","postalCode":"64579","locality":"Gernsheim","municipality":{"key":"06433004","name":"Gernsheim, Schöfferstadt","type":"Stadt"},"district":{"key":"06433","name":"Groß-Gerau","type":"Landkreis"},"federalState":{"key":"06","name":"Hessen"}},{"name":"Breubergstr.","postalCode":"64579","locality":"Gernsheim","municipality":{"key":"06433004","name":"Gernsheim, Schöfferstadt","type":"Stadt"},"district":{"key":"06433","name":"Groß-Gerau","type":"Landkreis"},"federalState":{"key":"06","name":"Hessen"}},{"name":"Brunhildstr.","postalCode":"64579","locality":"Gernsheim","municipality":{"key":"06433004","name":"Gernsheim, Schöfferstadt","type":"Stadt"},"district":{"key":"06433","name":"Groß-Gerau","type":"Landkreis"},"federalState":{"key":"06","name":"Hessen"}},{"name":"Buchenweg","postalCode":"64579","locality":"Gernsheim","municipality":{"key":"06433004","name":"Gernsheim, Schöfferstadt","type":"Stadt"},"district":{"key":"06433","name":"Groß-Gerau","type":"Landkreis"},"federalState":{"key":"06","name":"Hessen"}},{"name":"Burgunderstr.","postalCode":"64579","locality":"Gernsheim","municipality":{"key":"06433004","name":"Gernsheim, Schöfferstadt","type":"Stadt"},"district":{"key":"06433","name":"Groß-Gerau","type":"Landkreis"},"federalState":{"key":"06","name":"Hessen"}},{"name":"Bürstädter Str.","postalCode":"64579","locality":"Gernsheim","municipality":{"key":"06433004","name":"Gernsheim, Schöfferstadt","type":"Stadt"},"district":{"key":"06433","name":"Groß-Gerau","type":"Landkreis"},"federalState":{"key":"06","name":"Hessen"}},{"name":"Büttelwiesschneise","postalCode":"64579","locality":"Gernsheim","municipality":{"key":"06433004","name":"Gernsheim, Schöfferstadt","type":"Stadt"},"district":{"key":"06433","name":"Groß-Gerau","type":"Landkreis"},"federalState":{"key":"06","name":"Hessen"}},{"name":"Claus-Kroencke-Str.","postalCode":"64579","locality":"Gernsheim","municipality":{"key":"06433004","name":"Gernsheim, Schöfferstadt","type":"Stadt"},"district":{"key":"06433","name":"Groß-Gerau","type":"Landkreis"},"federalState":{"key":"06","name":"Hessen"}},{"name":"Dammstr.","postalCode":"64579","locality":"Gernsheim","municipality":{"key":"06433004","name":"Gernsheim, Schöfferstadt","type":"Stadt"},"district":{"key":"06433","name":"Groß-Gerau","type":"Landkreis"},"federalState":{"key":"06","name":"Hessen"}},{"name":"Danziger Str.","postalCode":"64579","locality":"Gernsheim","municipality":{"key":"06433004","name":"Gernsheim, Schöfferstadt","type":"Stadt"},"district":{"key":"06433","name":"Groß-Gerau","type":"Landkreis"},"federalState":{"key":"06","name":"Hessen"}},{"name":"Darmstädter Str.","postalCode":"64579","locality":"Gernsheim","municipality":{"key":"06433004","name":"Gernsheim, Schöfferstadt","type":"Stadt"},"district":{"key":"06433","name":"Groß-Gerau","type":"Landkreis"},"federalState":{"key":"06","name":"Hessen"}},{"name":"Deich","postalCode":"64579","locality":"Gernsheim","municipality":{"key":"06433004","name":"Gernsheim, Schöfferstadt","type":"Stadt"},"district":{"key":"06433","name":"Groß-Gerau","type":"Landkreis"},"federalState":{"key":"06","name":"Hessen"}},{"name":"Diemelstr.","postalCode":"64579","locality":"Gernsheim","municipality":{"key":"06433004","name":"Gernsheim, Schöfferstadt","type":"Stadt"},"district":{"key":"06433","name":"Groß-Gerau","type":"Landkreis"},"federalState":{"key":"06","name":"Hessen"}},{"name":"Dietrichstr.","postalCode":"64579","locality":"Gernsheim","municipality":{"key":"06433004","name":"Gernsheim, Schöfferstadt","type":"Stadt"},"district":{"key":"06433","name":"Groß-Gerau","type":"Landkreis"},"federalState":{"key":"06","name":"Hessen"}},{"name":"Dornschneise","postalCode":"64579","locality":"Gernsheim","municipality":{"key":"06433004","name":"Gernsheim, Schöfferstadt","type":"Stadt"},"district":{"key":"06433","name":"Groß-Gerau","type":"Landkreis"},"federalState":{"key":"06","name":"Hessen"}},{"name":"Dr.-Elisabeth-Selbert-Str.","postalCode":"64579","locality":"Gernsheim","municipality":{"key":"06433004","name":"Gernsheim, Schöfferstadt","type":"Stadt"},"district":{"key":"06433","name":"Groß-Gerau","type":"Landkreis"},"federalState":{"key":"06","name":"Hessen"}},{"name":"Dresdener Str.","postalCode":"64579","locality":"Gernsheim","municipality":{"key":"06433004","name":"Gernsheim, Schöfferstadt","type":"Stadt"},"district":{"key":"06433","name":"Groß-Gerau","type":"Landkreis"},"federalState":{"key":"06","name":"Hessen"}},{"name":"Dr.-Heinrich-Winter-Str.","postalCode":"64579","locality":"Gernsheim","municipality":{"key":"06433004","name":"Gernsheim, Schöfferstadt","type":"Stadt"},"district":{"key":"06433","name":"Groß-Gerau","type":"Landkreis"},"federalState":{"key":"06","name":"Hessen"}},{"name":"Dr.-Helene-Weber-Str.","postalCode":"64579","locality":"Gernsheim","municipality":{"key":"06433004","name":"Gernsheim, Schöfferstadt","type":"Stadt"},"district":{"key":"06433","name":"Groß-Gerau","type":"Landkreis"},"federalState":{"key":"06","name":"Hessen"}},{"name":"Dr.-Johannes-Ledroit-Str.","postalCode":"64579","locality":"Gernsheim","municipality":{"key":"06433004","name":"Gernsheim, Schöfferstadt","type":"Stadt"},"district":{"key":"06433","name":"Groß-Gerau","type":"Landkreis"},"federalState":{"key":"06","name":"Hessen"}},{"name":"Ederstr.","postalCode":"64579","locality":"Gernsheim","municipality":{"key":"06433004","name":"Gernsheim, Schöfferstadt","type":"Stadt"},"district":{"key":"06433","name":"Groß-Gerau","type":"Landkreis"},"federalState":{"key":"06","name":"Hessen"}},{"name":"Eichendorffstr.","postalCode":"64579","locality":"Gernsheim","municipality":{"key":"06433004","name":"Gernsheim, Schöfferstadt","type":"Stadt"},"district":{"key":"06433","name":"Groß-Gerau","type":"Landkreis"},"federalState":{"key":"06","name":"Hessen"}},{"name":"Einsiedlerstr.","postalCode":"64579","locality":"Gernsheim","municipality":{"key":"06433004","name":"Gernsheim, Schöfferstadt","type":"Stadt"},"district":{"key":"06433","name":"Groß-Gerau","type":"Landkreis"},"federalState":{"key":"06","name":"Hessen"}},{"name":"Einsiedlerweg","postalCode":"64579","locality":"Gernsheim","municipality":{"key":"06433004","name":"Gernsheim, Schöfferstadt","type":"Stadt"},"district":{"key":"06433","name":"Groß-Gerau","type":"Landkreis"},"federalState":{"key":"06","name":"Hessen"}},{"name":"Eisenacher Str.","postalCode":"64579","locality":"Gernsheim","municipality":{"key":"06433004","name":"Gernsheim, Schöfferstadt","type":"Stadt"},"district":{"key":"06433","name":"Groß-Gerau","type":"Landkreis"},"federalState":{"key":"06","name":"Hessen"}},{"name":"Elisabethenstr.","postalCode":"64579","locality":"Gernsheim","municipality":{"key":"06433004","name":"Gernsheim, Schöfferstadt","type":"Stadt"},"district":{"key":"06433","name":"Groß-Gerau","type":"Landkreis"},"federalState":{"key":"06","name":"Hessen"}},{"name":"Erfurter Str.","postalCode":"64579","locality":"Gernsheim","municipality":{"key":"06433004","name":"Gernsheim, Schöfferstadt","type":"Stadt"},"district":{"key":"06433","name":"Groß-Gerau","type":"Landkreis"},"federalState":{"key":"06","name":"Hessen"}},{"name":"Erlenweg","postalCode":"64579","locality":"Gernsheim","municipality":{"key":"06433004","name":"Gernsheim, Schöfferstadt","type":"Stadt"},"district":{"key":"06433","name":"Groß-Gerau","type":"Landkreis"},"federalState":{"key":"06","name":"Hessen"}},{"name":"Europa-Garten","postalCode":"64579","locality":"Gernsheim","municipality":{"key":"06433004","name":"Gernsheim, Schöfferstadt","type":"Stadt"},"district":{"key":"06433","name":"Groß-Gerau","type":"Landkreis"},"federalState":{"key":"06","name":"Hessen"}},{"name":"Feldstr.","postalCode":"64579","locality":"Gernsheim","municipality":{"key":"06433004","name":"Gernsheim, Schöfferstadt","type":"Stadt"},"district":{"key":"06433","name":"Groß-Gerau","type":"Landkreis"},"federalState":{"key":"06","name":"Hessen"}},{"name":"Felsbergstr.","postalCode":"64579","locality":"Gernsheim","municipality":{"key":"06433004","name":"Gernsheim, Schöfferstadt","type":"Stadt"},"district":{"key":"06433","name":"Groß-Gerau","type":"Landkreis"},"federalState":{"key":"06","name":"Hessen"}},{"name":"Finkenweg","postalCode":"64579","locality":"Gernsheim","municipality":{"key":"06433004","name":"Gernsheim, Schöfferstadt","type":"Stadt"},"district":{"key":"06433","name":"Groß-Gerau","type":"Landkreis"},"federalState":{"key":"06","name":"Hessen"}},{"name":"Fischerstr.","postalCode":"64579","locality":"Gernsheim","municipality":{"key":"06433004","name":"Gernsheim, Schöfferstadt","type":"Stadt"},"district":{"key":"06433","name":"Groß-Gerau","type":"Landkreis"},"federalState":{"key":"06","name":"Hessen"}},{"name":"Forstmeisterschneise","postalCode":"64579","locality":"Gernsheim","municipality":{"key":"06433004","name":"Gernsheim, Schöfferstadt","type":"Stadt"},"district":{"key":"06433","name":"Groß-Gerau","type":"Landkreis"},"federalState":{"key":"06","name":"Hessen"}},{"name":"Frankenfelder Weg","postalCode":"64579","locality":"Gernsheim","municipality":{"key":"06433004","name":"Gernsheim, Schöfferstadt","type":"Stadt"},"district":{"key":"06433","name":"Groß-Gerau","type":"Landkreis"},"federalState":{"key":"06","name":"Hessen"}},{"name":"Frankensteiner Str.","postalCode":"64579","locality":"Gernsheim","municipality":{"key":"06433004","name":"Gernsheim, Schöfferstadt","type":"Stadt"},"district":{"key":"06433","name":"Groß-Gerau","type":"Landkreis"},"federalState":{"key":"06","name":"Hessen"}},{"name":"Frankenweg","postalCode":"64579","locality":"Gernsheim","municipality":{"key":"06433004","name":"Gernsheim, Schöfferstadt","type":"Stadt"},"district":{"key":"06433","name":"Groß-Gerau","type":"Landkreis"},"federalState":{"key":"06","name":"Hessen"}},{"name":"Franz-Joseph-Nuß-Str.","postalCode":"64579","locality":"Gernsheim","municipality":{"key":"06433004","name":"Gernsheim, Schöfferstadt","type":"Stadt"},"district":{"key":"06433","name":"Groß-Gerau","type":"Landkreis"},"federalState":{"key":"06","name":"Hessen"}},{"name":"Freiherr-vom-Stein-Str.","postalCode":"64579","locality":"Gernsheim","municipality":{"key":"06433004","name":"Gernsheim, Schöfferstadt","type":"Stadt"},"district":{"key":"06433","name":"Groß-Gerau","type":"Landkreis"},"federalState":{"key":"06","name":"Hessen"}},{"name":"Friederike-Nadig-Str.","postalCode":"64579","locality":"Gernsheim","municipality":{"key":"06433004","name":"Gernsheim, Schöfferstadt","type":"Stadt"},"district":{"key":"06433","name":"Groß-Gerau","type":"Landkreis"},"federalState":{"key":"06","name":"Hessen"}},{"name":"Friedrich-Ebert-Str.","postalCode":"64579","locality":"Gernsheim","municipality":{"key":"06433004","name":"Gernsheim, Schöfferstadt","type":"Stadt"},"district":{"key":"06433","name":"Groß-Gerau","type":"Landkreis"},"federalState":{"key":"06","name":"Hessen"}},{"name":"Friedrich-Lehne-Str.","postalCode":"64579","locality":"Gernsheim","municipality":{"key":"06433004","name":"Gernsheim, Schöfferstadt","type":"Stadt"},"district":{"key":"06433","name":"Groß-Gerau","type":"Landkreis"},"federalState":{"key":"06","name":"Hessen"}},{"name":"Friedrich-Mößinger-Str.","postalCode":"64579","locality":"Gernsheim","municipality":{"key":"06433004","name":"Gernsheim, Schöfferstadt","type":"Stadt"},"district":{"key":"06433","name":"Groß-Gerau","type":"Landkreis"},"federalState":{"key":"06","name":"Hessen"}},{"name":"Fuldastr.","postalCode":"64579","locality":"Gernsheim","municipality":{"key":"06433004","name":"Gernsheim, Schöfferstadt","type":"Stadt"},"district":{"key":"06433","name":"Groß-Gerau","type":"Landkreis"},"federalState":{"key":"06","name":"Hessen"}},{"name":"Gartenstr.","postalCode":"64579","locality":"Gernsheim","municipality":{"key":"06433004","name":"Gernsheim, Schöfferstadt","type":"Stadt"},"district":{"key":"06433","name":"Groß-Gerau","type":"Landkreis"},"federalState":{"key":"06","name":"Hessen"}},{"name":"Georgenstr.","postalCode":"64579","locality":"Gernsheim","municipality":{"key":"06433004","name":"Gernsheim, Schöfferstadt","type":"Stadt"},"district":{"key":"06433","name":"Groß-Gerau","type":"Landkreis"},"federalState":{"key":"06","name":"Hessen"}},{"name":"Gernotstr.","postalCode":"64579","locality":"Gernsheim","municipality":{"key":"06433004","name":"Gernsheim, Schöfferstadt","type":"Stadt"},"district":{"key":"06433","name":"Groß-Gerau","type":"Landkreis"},"federalState":{"key":"06","name":"Hessen"}},{"name":"Gernsheimer Str.","postalCode":"64579","locality":"Gernsheim","municipality":{"key":"06433004","name":"Gernsheim, Schöfferstadt","type":"Stadt"},"district":{"key":"06433","name":"Groß-Gerau","type":"Landkreis"},"federalState":{"key":"06","name":"Hessen"}},{"name":"Geschwister-Scholl-Str.","postalCode":"64579","locality":"Gernsheim","municipality":{"key":"06433004","name":"Gernsheim, Schöfferstadt","type":"Stadt"},"district":{"key":"06433","name":"Groß-Gerau","type":"Landkreis"},"federalState":{"key":"06","name":"Hessen"}},{"name":"Giselherstr.","postalCode":"64579","locality":"Gernsheim","municipality":{"key":"06433004","name":"Gernsheim, Schöfferstadt","type":"Stadt"},"district":{"key":"06433","name":"Groß-Gerau","type":"Landkreis"},"federalState":{"key":"06","name":"Hessen"}},{"name":"Glasergasse","postalCode":"64579","locality":"Gernsheim","municipality":{"key":"06433004","name":"Gernsheim, Schöfferstadt","type":"Stadt"},"district":{"key":"06433","name":"Groß-Gerau","type":"Landkreis"},"federalState":{"key":"06","name":"Hessen"}},{"name":"Goethestr.","postalCode":"64579","locality":"Gernsheim","municipality":{"key":"06433004","name":"Gernsheim, Schöfferstadt","type":"Stadt"},"district":{"key":"06433","name":"Groß-Gerau","type":"Landkreis"},"federalState":{"key":"06","name":"Hessen"}},{"name":"Golfparkallee","postalCode":"64579","locality":"Gernsheim","municipality":{"key":"06433004","name":"Gernsheim, Schöfferstadt","type":"Stadt"},"district":{"key":"06433","name":"Groß-Gerau","type":"Landkreis"},"federalState":{"key":"06","name":"Hessen"}},{"name":"Groß-Rohrheimer-Str.","postalCode":"64579","locality":"Gernsheim","municipality":{"key":"06433004","name":"Gernsheim, Schöfferstadt","type":"Stadt"},"district":{"key":"06433","name":"Groß-Gerau","type":"Landkreis"},"federalState":{"key":"06","name":"Hessen"}},{"name":"Guntherstr.","postalCode":"64579","locality":"Gernsheim","municipality":{"key":"06433004","name":"Gernsheim, Schöfferstadt","type":"Stadt"},"district":{"key":"06433","name":"Groß-Gerau","type":"Landkreis"},"federalState":{"key":"06","name":"Hessen"}},{"name":"Gutenbergstr.","postalCode":"64579","locality":"Gernsheim","municipality":{"key":"06433004","name":"Gernsheim, Schöfferstadt","type":"Stadt"},"district":{"key":"06433","name":"Groß-Gerau","type":"Landkreis"},"federalState":{"key":"06","name":"Hessen"}},{"name":"Hafenstr.","postalCode":"64579","locality":"Gernsheim","municipality":{"key":"06433004","name":"Gernsheim, Schöfferstadt","type":"Stadt"},"district":{"key":"06433","name":"Groß-Gerau","type":"Landkreis"},"federalState":{"key":"06","name":"Hessen"}},{"name":"Hagenstr.","postalCode":"64579","locality":"Gernsheim","municipality":{"key":"06433004","name":"Gernsheim, Schöfferstadt","type":"Stadt"},"district":{"key":"06433","name":"Groß-Gerau","type":"Landkreis"},"federalState":{"key":"06","name":"Hessen"}},{"name":"Hahner Str.","postalCode":"64579","locality":"Gernsheim","municipality":{"key":"06433004","name":"Gernsheim, Schöfferstadt","type":"Stadt"},"district":{"key":"06433","name":"Groß-Gerau","type":"Landkreis"},"federalState":{"key":"06","name":"Hessen"}},{"name":"Hans-Holbein-Weg","postalCode":"64579","locality":"Gernsheim","municipality":{"key":"06433004","name":"Gernsheim, Schöfferstadt","type":"Stadt"},"district":{"key":"06433","name":"Groß-Gerau","type":"Landkreis"},"federalState":{"key":"06","name":"Hessen"}},{"name":"Hasengasse","postalCode":"64579","locality":"Gernsheim","municipality":{"key":"06433004","name":"Gernsheim, Schöfferstadt","type":"Stadt"},"district":{"key":"06433","name":"Groß-Gerau","type":"Landkreis"},"federalState":{"key":"06","name":"Hessen"}},{"name":"Hauptstr.","postalCode":"64579","locality":"Gernsheim","municipality":{"key":"06433004","name":"Gernsheim, Schöfferstadt","type":"Stadt"},"district":{"key":"06433","name":"Groß-Gerau","type":"Landkreis"},"federalState":{"key":"06","name":"Hessen"}},{"name":"Heckenseelachschneise","postalCode":"64579","locality":"Gernsheim","municipality":{"key":"06433004","name":"Gernsheim, Schöfferstadt","type":"Stadt"},"district":{"key":"06433","name":"Groß-Gerau","type":"Landkreis"},"federalState":{"key":"06","name":"Hessen"}},{"name":"Heidelberger Str.","postalCode":"64579","locality":"Gernsheim","municipality":{"key":"06433004","name":"Gernsheim, Schöfferstadt","type":"Stadt"},"district":{"key":"06433","name":"Groß-Gerau","type":"Landkreis"},"federalState":{"key":"06","name":"Hessen"}},{"name":"Heiligenstr.","postalCode":"64579","locality":"Gernsheim","municipality":{"key":"06433004","name":"Gernsheim, Schöfferstadt","type":"Stadt"},"district":{"key":"06433","name":"Groß-Gerau","type":"Landkreis"},"federalState":{"key":"06","name":"Hessen"}},{"name":"Helene-Lange-Str.","postalCode":"64579","locality":"Gernsheim","municipality":{"key":"06433004","name":"Gernsheim, Schöfferstadt","type":"Stadt"},"district":{"key":"06433","name":"Groß-Gerau","type":"Landkreis"},"federalState":{"key":"06","name":"Hessen"}},{"name":"Helene-Wessel-Str.","postalCode":"64579","locality":"Gernsheim","municipality":{"key":"06433004","name":"Gernsheim, Schöfferstadt","type":"Stadt"},"district":{"key":"06433","name":"Groß-Gerau","type":"Landkreis"},"federalState":{"key":"06","name":"Hessen"}},{"name":"Hellergasse","postalCode":"64579","locality":"Gernsheim","municipality":{"key":"06433004","name":"Gernsheim, Schöfferstadt","type":"Stadt"},"district":{"key":"06433","name":"Groß-Gerau","type":"Landkreis"},"federalState":{"key":"06","name":"Hessen"}},{"name":"Hildebrandstr.","postalCode":"64579","locality":"Gernsheim","municipality":{"key":"06433004","name":"Gernsheim, Schöfferstadt","type":"Stadt"},"district":{"key":"06433","name":"Groß-Gerau","type":"Landkreis"},"federalState":{"key":"06","name":"Hessen"}},{"name":"Hinrich-Wichern-Str.","postalCode":"64579","locality":"Gernsheim","municipality":{"key":"06433004","name":"Gernsheim, Schöfferstadt","type":"Stadt"},"district":{"key":"06433","name":"Groß-Gerau","type":"Landkreis"},"federalState":{"key":"06","name":"Hessen"}},{"name":"Hintere Str.","postalCode":"64579","locality":"Gernsheim","municipality":{"key":"06433004","name":"Gernsheim, Schöfferstadt","type":"Stadt"},"district":{"key":"06433","name":"Groß-Gerau","type":"Landkreis"},"federalState":{"key":"06","name":"Hessen"}},{"name":"Hof Gräbenbruch","postalCode":"64579","locality":"Gernsheim","municipality":{"key":"06433004","name":"Gernsheim, Schöfferstadt","type":"Stadt"},"district":{"key":"06433","name":"Groß-Gerau","type":"Landkreis"},"federalState":{"key":"06","name":"Hessen"}},{"name":"Hunsrückweg","postalCode":"64579","locality":"Gernsheim","municipality":{"key":"06433004","name":"Gernsheim, Schöfferstadt","type":"Stadt"},"district":{"key":"06433","name":"Groß-Gerau","type":"Landkreis"},"federalState":{"key":"06","name":"Hessen"}},{"name":"Im Hainsbusch","postalCode":"64579","locality":"Gernsheim","municipality":{"key":"06433004","name":"Gernsheim, Schöfferstadt","type":"Stadt"},"district":{"key":"06433","name":"Groß-Gerau","type":"Landkreis"},"federalState":{"key":"06","name":"Hessen"}},{"name":"Im Mühlfeld","postalCode":"64579","locality":"Gernsheim","municipality":{"key":"06433004","name":"Gernsheim, Schöfferstadt","type":"Stadt"},"district":{"key":"06433","name":"Groß-Gerau","type":"Landkreis"},"federalState":{"key":"06","name":"Hessen"}},{"name":"Im Rosengarten","postalCode":"64579","locality":"Gernsheim","municipality":{"key":"06433004","name":"Gernsheim, Schöfferstadt","type":"Stadt"},"district":{"key":"06433","name":"Groß-Gerau","type":"Landkreis"},"federalState":{"key":"06","name":"Hessen"}},{"name":"Im Taunuseck","postalCode":"64579","locality":"Gernsheim","municipality":{"key":"06433004","name":"Gernsheim, Schöfferstadt","type":"Stadt"},"district":{"key":"06433","name":"Groß-Gerau","type":"Landkreis"},"federalState":{"key":"06","name":"Hessen"}},{"name":"Jägerstr.","postalCode":"64579","locality":"Gernsheim","municipality":{"key":"06433004","name":"Gernsheim, Schöfferstadt","type":"Stadt"},"district":{"key":"06433","name":"Groß-Gerau","type":"Landkreis"},"federalState":{"key":"06","name":"Hessen"}},{"name":"Jahnweg","postalCode":"64579","locality":"Gernsheim","municipality":{"key":"06433004","name":"Gernsheim, Schöfferstadt","type":"Stadt"},"district":{"key":"06433","name":"Groß-Gerau","type":"Landkreis"},"federalState":{"key":"06","name":"Hessen"}},{"name":"Jean-Pierre-Davot-Str.","postalCode":"64579","locality":"Gernsheim","municipality":{"key":"06433004","name":"Gernsheim, Schöfferstadt","type":"Stadt"},"district":{"key":"06433","name":"Groß-Gerau","type":"Landkreis"},"federalState":{"key":"06","name":"Hessen"}},{"name":"Jenaer Str.","postalCode":"64579","locality":"Gernsheim","municipality":{"key":"06433004","name":"Gernsheim, Schöfferstadt","type":"Stadt"},"district":{"key":"06433","name":"Groß-Gerau","type":"Landkreis"},"federalState":{"key":"06","name":"Hessen"}},{"name":"Johannes-Bückler-Str.","postalCode":"64579","locality":"Gernsheim","municipality":{"key":"06433004","name":"Gernsheim, Schöfferstadt","type":"Stadt"},"district":{"key":"06433","name":"Groß-Gerau","type":"Landkreis"},"federalState":{"key":"06","name":"Hessen"}},{"name":"Johannishofweg","postalCode":"64579","locality":"Gernsheim","municipality":{"key":"06433004","name":"Gernsheim, Schöfferstadt","type":"Stadt"},"district":{"key":"06433","name":"Groß-Gerau","type":"Landkreis"},"federalState":{"key":"06","name":"Hessen"}},{"name":"Johannisweg","postalCode":"64579","locality":"Gernsheim","municipality":{"key":"06433004","name":"Gernsheim, Schöfferstadt","type":"Stadt"},"district":{"key":"06433","name":"Groß-Gerau","type":"Landkreis"},"federalState":{"key":"06","name":"Hessen"}},{"name":"Joseph-Schmitt-Str.","postalCode":"64579","locality":"Gernsheim","municipality":{"key":"06433004","name":"Gernsheim, Schöfferstadt","type":"Stadt"},"district":{"key":"06433","name":"Groß-Gerau","type":"Landkreis"},"federalState":{"key":"06","name":"Hessen"}},{"name":"Kapellenweg","postalCode":"64579","locality":"Gernsheim","municipality":{"key":"06433004","name":"Gernsheim, Schöfferstadt","type":"Stadt"},"district":{"key":"06433","name":"Groß-Gerau","type":"Landkreis"},"federalState":{"key":"06","name":"Hessen"}},{"name":"Karlsbader Str.","postalCode":"64579","locality":"Gernsheim","municipality":{"key":"06433004","name":"Gernsheim, Schöfferstadt","type":"Stadt"},"district":{"key":"06433","name":"Groß-Gerau","type":"Landkreis"},"federalState":{"key":"06","name":"Hessen"}},{"name":"Karl-Schneidler-Str.","postalCode":"64579","locality":"Gernsheim","municipality":{"key":"06433004","name":"Gernsheim, Schöfferstadt","type":"Stadt"},"district":{"key":"06433","name":"Groß-Gerau","type":"Landkreis"},"federalState":{"key":"06","name":"Hessen"}},{"name":"Karlstr.","postalCode":"64579","locality":"Gernsheim","municipality":{"key":"06433004","name":"Gernsheim, Schöfferstadt","type":"Stadt"},"district":{"key":"06433","name":"Groß-Gerau","type":"Landkreis"},"federalState":{"key":"06","name":"Hessen"}},{"name":"Kettelerstr.","postalCode":"64579","locality":"Gernsheim","municipality":{"key":"06433004","name":"Gernsheim, Schöfferstadt","type":"Stadt"},"district":{"key":"06433","name":"Groß-Gerau","type":"Landkreis"},"federalState":{"key":"06","name":"Hessen"}},{"name":"Kiefernweg","postalCode":"64579","locality":"Gernsheim","municipality":{"key":"06433004","name":"Gernsheim, Schöfferstadt","type":"Stadt"},"district":{"key":"06433","name":"Groß-Gerau","type":"Landkreis"},"federalState":{"key":"06","name":"Hessen"}},{"name":"Kiesstr.","postalCode":"64579","locality":"Gernsheim","municipality":{"key":"06433004","name":"Gernsheim, Schöfferstadt","type":"Stadt"},"district":{"key":"06433","name":"Groß-Gerau","type":"Landkreis"},"federalState":{"key":"06","name":"Hessen"}},{"name":"Kinzigstr.","postalCode":"64579","locality":"Gernsheim","municipality":{"key":"06433004","name":"Gernsheim, Schöfferstadt","type":"Stadt"},"district":{"key":"06433","name":"Groß-Gerau","type":"Landkreis"},"federalState":{"key":"06","name":"Hessen"}},{"name":"Kirchstr.","postalCode":"64579","locality":"Gernsheim","municipality":{"key":"06433004","name":"Gernsheim, Schöfferstadt","type":"Stadt"},"district":{"key":"06433","name":"Groß-Gerau","type":"Landkreis"},"federalState":{"key":"06","name":"Hessen"}},{"name":"Kleine Schneise","postalCode":"64579","locality":"Gernsheim","municipality":{"key":"06433004","name":"Gernsheim, Schöfferstadt","type":"Stadt"},"district":{"key":"06433","name":"Groß-Gerau","type":"Landkreis"},"federalState":{"key":"06","name":"Hessen"}},{"name":"Kohlhofschneise","postalCode":"64579","locality":"Gernsheim","municipality":{"key":"06433004","name":"Gernsheim, Schöfferstadt","type":"Stadt"},"district":{"key":"06433","name":"Groß-Gerau","type":"Landkreis"},"federalState":{"key":"06","name":"Hessen"}},{"name":"Kolpingweg","postalCode":"64579","locality":"Gernsheim","municipality":{"key":"06433004","name":"Gernsheim, Schöfferstadt","type":"Stadt"},"district":{"key":"06433","name":"Groß-Gerau","type":"Landkreis"},"federalState":{"key":"06","name":"Hessen"}},{"name":"König-Ludwig-Str.","postalCode":"64579","locality":"Gernsheim","municipality":{"key":"06433004","name":"Gernsheim, Schöfferstadt","type":"Stadt"},"district":{"key":"06433","name":"Groß-Gerau","type":"Landkreis"},"federalState":{"key":"06","name":"Hessen"}},{"name":"Königsberger Str.","postalCode":"64579","locality":"Gernsheim","municipality":{"key":"06433004","name":"Gernsheim, Schöfferstadt","type":"Stadt"},"district":{"key":"06433","name":"Groß-Gerau","type":"Landkreis"},"federalState":{"key":"06","name":"Hessen"}},{"name":"Konrad-Adenauer-Ring","postalCode":"64579","locality":"Gernsheim","municipality":{"key":"06433004","name":"Gernsheim, Schöfferstadt","type":"Stadt"},"district":{"key":"06433","name":"Groß-Gerau","type":"Landkreis"},"federalState":{"key":"06","name":"Hessen"}},{"name":"Kriemhildstr.","postalCode":"64579","locality":"Gernsheim","municipality":{"key":"06433004","name":"Gernsheim, Schöfferstadt","type":"Stadt"},"district":{"key":"06433","name":"Groß-Gerau","type":"Landkreis"},"federalState":{"key":"06","name":"Hessen"}},{"name":"Kuhweideckschneise","postalCode":"64579","locality":"Gernsheim","municipality":{"key":"06433004","name":"Gernsheim, Schöfferstadt","type":"Stadt"},"district":{"key":"06433","name":"Groß-Gerau","type":"Landkreis"},"federalState":{"key":"06","name":"Hessen"}},{"name":"Kuhweidschneise","postalCode":"64579","locality":"Gernsheim","municipality":{"key":"06433004","name":"Gernsheim, Schöfferstadt","type":"Stadt"},"district":{"key":"06433","name":"Groß-Gerau","type":"Landkreis"},"federalState":{"key":"06","name":"Hessen"}},{"name":"Lagerhausstr.","postalCode":"64579","locality":"Gernsheim","municipality":{"key":"06433004","name":"Gernsheim, Schöfferstadt","type":"Stadt"},"district":{"key":"06433","name":"Groß-Gerau","type":"Landkreis"},"federalState":{"key":"06","name":"Hessen"}},{"name":"Lahnstr.","postalCode":"64579","locality":"Gernsheim","municipality":{"key":"06433004","name":"Gernsheim, Schöfferstadt","type":"Stadt"},"district":{"key":"06433","name":"Groß-Gerau","type":"Landkreis"},"federalState":{"key":"06","name":"Hessen"}},{"name":"Lampertheimer Str.","postalCode":"64579","locality":"Gernsheim","municipality":{"key":"06433004","name":"Gernsheim, Schöfferstadt","type":"Stadt"},"district":{"key":"06433","name":"Groß-Gerau","type":"Landkreis"},"federalState":{"key":"06","name":"Hessen"}},{"name":"Lange Schneise","postalCode":"64579","locality":"Gernsheim","municipality":{"key":"06433004","name":"Gernsheim, Schöfferstadt","type":"Stadt"},"district":{"key":"06433","name":"Groß-Gerau","type":"Landkreis"},"federalState":{"key":"06","name":"Hessen"}},{"name":"Leipziger Str.","postalCode":"64579","locality":"Gernsheim","municipality":{"key":"06433004","name":"Gernsheim, Schöfferstadt","type":"Stadt"},"district":{"key":"06433","name":"Groß-Gerau","type":"Landkreis"},"federalState":{"key":"06","name":"Hessen"}},{"name":"Liebigstr.","postalCode":"64579","locality":"Gernsheim","municipality":{"key":"06433004","name":"Gernsheim, Schöfferstadt","type":"Stadt"},"district":{"key":"06433","name":"Groß-Gerau","type":"Landkreis"},"federalState":{"key":"06","name":"Hessen"}},{"name":"Lindenstr.","postalCode":"64579","locality":"Gernsheim","municipality":{"key":"06433004","name":"Gernsheim, Schöfferstadt","type":"Stadt"},"district":{"key":"06433","name":"Groß-Gerau","type":"Landkreis"},"federalState":{"key":"06","name":"Hessen"}},{"name":"Linnigschneise","postalCode":"64579","locality":"Gernsheim","municipality":{"key":"06433004","name":"Gernsheim, Schöfferstadt","type":"Stadt"},"district":{"key":"06433","name":"Groß-Gerau","type":"Landkreis"},"federalState":{"key":"06","name":"Hessen"}},{"name":"Lippschneise","postalCode":"64579","locality":"Gernsheim","municipality":{"key":"06433004","name":"Gernsheim, Schöfferstadt","type":"Stadt"},"district":{"key":"06433","name":"Groß-Gerau","type":"Landkreis"},"federalState":{"key":"06","name":"Hessen"}},{"name":"Löcherschneise","postalCode":"64579","locality":"Gernsheim","municipality":{"key":"06433004","name":"Gernsheim, Schöfferstadt","type":"Stadt"},"district":{"key":"06433","name":"Groß-Gerau","type":"Landkreis"},"federalState":{"key":"06","name":"Hessen"}},{"name":"Lorscher Str.","postalCode":"64579","locality":"Gernsheim","municipality":{"key":"06433004","name":"Gernsheim, Schöfferstadt","type":"Stadt"},"district":{"key":"06433","name":"Groß-Gerau","type":"Landkreis"},"federalState":{"key":"06","name":"Hessen"}},{"name":"Lucas-Cranach-Weg","postalCode":"64579","locality":"Gernsheim","municipality":{"key":"06433004","name":"Gernsheim, Schöfferstadt","type":"Stadt"},"district":{"key":"06433","name":"Groß-Gerau","type":"Landkreis"},"federalState":{"key":"06","name":"Hessen"}},{"name":"Magdalenenstr.","postalCode":"64579","locality":"Gernsheim","municipality":{"key":"06433004","name":"Gernsheim, Schöfferstadt","type":"Stadt"},"district":{"key":"06433","name":"Groß-Gerau","type":"Landkreis"},"federalState":{"key":"06","name":"Hessen"}},{"name":"Magdeburger Str.","postalCode":"64579","locality":"Gernsheim","municipality":{"key":"06433004","name":"Gernsheim, Schöfferstadt","type":"Stadt"},"district":{"key":"06433","name":"Groß-Gerau","type":"Landkreis"},"federalState":{"key":"06","name":"Hessen"}},{"name":"Mainstr.","postalCode":"64579","locality":"Gernsheim","municipality":{"key":"06433004","name":"Gernsheim, Schöfferstadt","type":"Stadt"},"district":{"key":"06433","name":"Groß-Gerau","type":"Landkreis"},"federalState":{"key":"06","name":"Hessen"}},{"name":"Mainzer Str.","postalCode":"64579","locality":"Gernsheim","municipality":{"key":"06433004","name":"Gernsheim, Schöfferstadt","type":"Stadt"},"district":{"key":"06433","name":"Groß-Gerau","type":"Landkreis"},"federalState":{"key":"06","name":"Hessen"}},{"name":"Mai Schneise","postalCode":"64579","locality":"Gernsheim","municipality":{"key":"06433004","name":"Gernsheim, Schöfferstadt","type":"Stadt"},"district":{"key":"06433","name":"Groß-Gerau","type":"Landkreis"},"federalState":{"key":"06","name":"Hessen"}},{"name":"Mannheimer Str.","postalCode":"64579","locality":"Gernsheim","municipality":{"key":"06433004","name":"Gernsheim, Schöfferstadt","type":"Stadt"},"district":{"key":"06433","name":"Groß-Gerau","type":"Landkreis"},"federalState":{"key":"06","name":"Hessen"}},{"name":"Marienbader Str.","postalCode":"64579","locality":"Gernsheim","municipality":{"key":"06433004","name":"Gernsheim, Schöfferstadt","type":"Stadt"},"district":{"key":"06433","name":"Groß-Gerau","type":"Landkreis"},"federalState":{"key":"06","name":"Hessen"}},{"name":"Marienstr.","postalCode":"64579","locality":"Gernsheim","municipality":{"key":"06433004","name":"Gernsheim, Schöfferstadt","type":"Stadt"},"district":{"key":"06433","name":"Groß-Gerau","type":"Landkreis"},"federalState":{"key":"06","name":"Hessen"}},{"name":"Martin-Luther-Str.","postalCode":"64579","locality":"Gernsheim","municipality":{"key":"06433004","name":"Gernsheim, Schöfferstadt","type":"Stadt"},"district":{"key":"06433","name":"Groß-Gerau","type":"Landkreis"},"federalState":{"key":"06","name":"Hessen"}},{"name":"Matthias-Grünewald-Weg","postalCode":"64579","locality":"Gernsheim","municipality":{"key":"06433004","name":"Gernsheim, Schöfferstadt","type":"Stadt"},"district":{"key":"06433","name":"Groß-Gerau","type":"Landkreis"},"federalState":{"key":"06","name":"Hessen"}},{"name":"Melibokusweg","postalCode":"64579","locality":"Gernsheim","municipality":{"key":"06433004","name":"Gernsheim, Schöfferstadt","type":"Stadt"},"district":{"key":"06433","name":"Groß-Gerau","type":"Landkreis"},"federalState":{"key":"06","name":"Hessen"}},{"name":"Modaustr.","postalCode":"64579","locality":"Gernsheim","municipality":{"key":"06433004","name":"Gernsheim, Schöfferstadt","type":"Stadt"},"district":{"key":"06433","name":"Groß-Gerau","type":"Landkreis"},"federalState":{"key":"06","name":"Hessen"}},{"name":"Mörikestr.","postalCode":"64579","locality":"Gernsheim","municipality":{"key":"06433004","name":"Gernsheim, Schöfferstadt","type":"Stadt"},"district":{"key":"06433","name":"Groß-Gerau","type":"Landkreis"},"federalState":{"key":"06","name":"Hessen"}},{"name":"Mozartstr.","postalCode":"64579","locality":"Gernsheim","municipality":{"key":"06433004","name":"Gernsheim, Schöfferstadt","type":"Stadt"},"district":{"key":"06433","name":"Groß-Gerau","type":"Landkreis"},"federalState":{"key":"06","name":"Hessen"}},{"name":"Mühlstr.","postalCode":"64579","locality":"Gernsheim","municipality":{"key":"06433004","name":"Gernsheim, Schöfferstadt","type":"Stadt"},"district":{"key":"06433","name":"Groß-Gerau","type":"Landkreis"},"federalState":{"key":"06","name":"Hessen"}},{"name":"Neckarstr.","postalCode":"64579","locality":"Gernsheim","municipality":{"key":"06433004","name":"Gernsheim, Schöfferstadt","type":"Stadt"},"district":{"key":"06433","name":"Groß-Gerau","type":"Landkreis"},"federalState":{"key":"06","name":"Hessen"}},{"name":"Neuwingert","postalCode":"64579","locality":"Gernsheim","municipality":{"key":"06433004","name":"Gernsheim, Schöfferstadt","type":"Stadt"},"district":{"key":"06433","name":"Groß-Gerau","type":"Landkreis"},"federalState":{"key":"06","name":"Hessen"}},{"name":"Nibelungenstr.","postalCode":"64579","locality":"Gernsheim","municipality":{"key":"06433004","name":"Gernsheim, Schöfferstadt","type":"Stadt"},"district":{"key":"06433","name":"Groß-Gerau","type":"Landkreis"},"federalState":{"key":"06","name":"Hessen"}},{"name":"Niddastr.","postalCode":"64579","locality":"Gernsheim","municipality":{"key":"06433004","name":"Gernsheim, Schöfferstadt","type":"Stadt"},"district":{"key":"06433","name":"Groß-Gerau","type":"Landkreis"},"federalState":{"key":"06","name":"Hessen"}},{"name":"Oberfeldstr.","postalCode":"64579","locality":"Gernsheim","municipality":{"key":"06433004","name":"Gernsheim, Schöfferstadt","type":"Stadt"},"district":{"key":"06433","name":"Groß-Gerau","type":"Landkreis"},"federalState":{"key":"06","name":"Hessen"}},{"name":"Odenwaldweg","postalCode":"64579","locality":"Gernsheim","municipality":{"key":"06433004","name":"Gernsheim, Schöfferstadt","type":"Stadt"},"district":{"key":"06433","name":"Groß-Gerau","type":"Landkreis"},"federalState":{"key":"06","name":"Hessen"}},{"name":"Orgängschneise","postalCode":"64579","locality":"Gernsheim","municipality":{"key":"06433004","name":"Gernsheim, Schöfferstadt","type":"Stadt"},"district":{"key":"06433","name":"Groß-Gerau","type":"Landkreis"},"federalState":{"key":"06","name":"Hessen"}},{"name":"Otzbergstr.","postalCode":"64579","locality":"Gernsheim","municipality":{"key":"06433004","name":"Gernsheim, Schöfferstadt","type":"Stadt"},"district":{"key":"06433","name":"Groß-Gerau","type":"Landkreis"},"federalState":{"key":"06","name":"Hessen"}},{"name":"Pater-Dionys-Str.","postalCode":"64579","locality":"Gernsheim","municipality":{"key":"06433004","name":"Gernsheim, Schöfferstadt","type":"Stadt"},"district":{"key":"06433","name":"Groß-Gerau","type":"Landkreis"},"federalState":{"key":"06","name":"Hessen"}},{"name":"Pestalozziweg","postalCode":"64579","locality":"Gernsheim","municipality":{"key":"06433004","name":"Gernsheim, Schöfferstadt","type":"Stadt"},"district":{"key":"06433","name":"Groß-Gerau","type":"Landkreis"},"federalState":{"key":"06","name":"Hessen"}},{"name":"Pfälzer Str.","postalCode":"64579","locality":"Gernsheim","municipality":{"key":"06433004","name":"Gernsheim, Schöfferstadt","type":"Stadt"},"district":{"key":"06433","name":"Groß-Gerau","type":"Landkreis"},"federalState":{"key":"06","name":"Hessen"}},{"name":"Pfarrer-Dahl-Str.","postalCode":"64579","locality":"Gernsheim","municipality":{"key":"06433004","name":"Gernsheim, Schöfferstadt","type":"Stadt"},"district":{"key":"06433","name":"Groß-Gerau","type":"Landkreis"},"federalState":{"key":"06","name":"Hessen"}},{"name":"Pfungstädter Str.","postalCode":"64579","locality":"Gernsheim","municipality":{"key":"06433004","name":"Gernsheim, Schöfferstadt","type":"Stadt"},"district":{"key":"06433","name":"Groß-Gerau","type":"Landkreis"},"federalState":{"key":"06","name":"Hessen"}},{"name":"Potsdamer Str.","postalCode":"64579","locality":"Gernsheim","municipality":{"key":"06433004","name":"Gernsheim, Schöfferstadt","type":"Stadt"},"district":{"key":"06433","name":"Groß-Gerau","type":"Landkreis"},"federalState":{"key":"06","name":"Hessen"}},{"name":"Promenade de Bar-sur-Aube","postalCode":"64579","locality":"Gernsheim","municipality":{"key":"06433004","name":"Gernsheim, Schöfferstadt","type":"Stadt"},"district":{"key":"06433","name":"Groß-Gerau","type":"Landkreis"},"federalState":{"key":"06","name":"Hessen"}},{"name":"Raiffeisenstr.","postalCode":"64579","locality":"Gernsheim","municipality":{"key":"06433004","name":"Gernsheim, Schöfferstadt","type":"Stadt"},"district":{"key":"06433","name":"Groß-Gerau","type":"Landkreis"},"federalState":{"key":"06","name":"Hessen"}},{"name":"Rathausstr.","postalCode":"64579","locality":"Gernsheim","municipality":{"key":"06433004","name":"Gernsheim, Schöfferstadt","type":"Stadt"},"district":{"key":"06433","name":"Groß-Gerau","type":"Landkreis"},"federalState":{"key":"06","name":"Hessen"}},{"name":"Reichenberger Str.","postalCode":"64579","locality":"Gernsheim","municipality":{"key":"06433004","name":"Gernsheim, Schöfferstadt","type":"Stadt"},"district":{"key":"06433","name":"Groß-Gerau","type":"Landkreis"},"federalState":{"key":"06","name":"Hessen"}},{"name":"Rektor-Schmitt-Str.","postalCode":"64579","locality":"Gernsheim","municipality":{"key":"06433004","name":"Gernsheim, Schöfferstadt","type":"Stadt"},"district":{"key":"06433","name":"Groß-Gerau","type":"Landkreis"},"federalState":{"key":"06","name":"Hessen"}},{"name":"Rembrandtweg","postalCode":"64579","locality":"Gernsheim","municipality":{"key":"06433004","name":"Gernsheim, Schöfferstadt","type":"Stadt"},"district":{"key":"06433","name":"Groß-Gerau","type":"Landkreis"},"federalState":{"key":"06","name":"Hessen"}},{"name":"Rennweg","postalCode":"64579","locality":"Gernsheim","municipality":{"key":"06433004","name":"Gernsheim, Schöfferstadt","type":"Stadt"},"district":{"key":"06433","name":"Groß-Gerau","type":"Landkreis"},"federalState":{"key":"06","name":"Hessen"}},{"name":"Rheinauenweg","postalCode":"64579","locality":"Gernsheim","municipality":{"key":"06433004","name":"Gernsheim, Schöfferstadt","type":"Stadt"},"district":{"key":"06433","name":"Groß-Gerau","type":"Landkreis"},"federalState":{"key":"06","name":"Hessen"}},{"name":"Rheinpark","postalCode":"64579","locality":"Gernsheim","municipality":{"key":"06433004","name":"Gernsheim, Schöfferstadt","type":"Stadt"},"district":{"key":"06433","name":"Groß-Gerau","type":"Landkreis"},"federalState":{"key":"06","name":"Hessen"}},{"name":"Rheinstr.","postalCode":"64579","locality":"Gernsheim","municipality":{"key":"06433004","name":"Gernsheim, Schöfferstadt","type":"Stadt"},"district":{"key":"06433","name":"Groß-Gerau","type":"Landkreis"},"federalState":{"key":"06","name":"Hessen"}},{"name":"Rhönstr.","postalCode":"64579","locality":"Gernsheim","municipality":{"key":"06433004","name":"Gernsheim, Schöfferstadt","type":"Stadt"},"district":{"key":"06433","name":"Groß-Gerau","type":"Landkreis"},"federalState":{"key":"06","name":"Hessen"}},{"name":"Riedstr.","postalCode":"64579","locality":"Gernsheim","municipality":{"key":"06433004","name":"Gernsheim, Schöfferstadt","type":"Stadt"},"district":{"key":"06433","name":"Groß-Gerau","type":"Landkreis"},"federalState":{"key":"06","name":"Hessen"}},{"name":"Ringstr.","postalCode":"64579","locality":"Gernsheim","municipality":{"key":"06433004","name":"Gernsheim, Schöfferstadt","type":"Stadt"},"district":{"key":"06433","name":"Groß-Gerau","type":"Landkreis"},"federalState":{"key":"06","name":"Hessen"}},{"name":"Robert-Koch-Str.","postalCode":"64579","locality":"Gernsheim","municipality":{"key":"06433004","name":"Gernsheim, Schöfferstadt","type":"Stadt"},"district":{"key":"06433","name":"Groß-Gerau","type":"Landkreis"},"federalState":{"key":"06","name":"Hessen"}},{"name":"Rödenfeld-Schneise","postalCode":"64579","locality":"Gernsheim","municipality":{"key":"06433004","name":"Gernsheim, Schöfferstadt","type":"Stadt"},"district":{"key":"06433","name":"Groß-Gerau","type":"Landkreis"},"federalState":{"key":"06","name":"Hessen"}},{"name":"Rohrlachschneise","postalCode":"64579","locality":"Gernsheim","municipality":{"key":"06433004","name":"Gernsheim, Schöfferstadt","type":"Stadt"},"district":{"key":"06433","name":"Groß-Gerau","type":"Landkreis"},"federalState":{"key":"06","name":"Hessen"}},{"name":"Rolf-Schulten-Str.","postalCode":"64579","locality":"Gernsheim","municipality":{"key":"06433004","name":"Gernsheim, Schöfferstadt","type":"Stadt"},"district":{"key":"06433","name":"Groß-Gerau","type":"Landkreis"},"federalState":{"key":"06","name":"Hessen"}},{"name":"Römerstr.","postalCode":"64579","locality":"Gernsheim","municipality":{"key":"06433004","name":"Gernsheim, Schöfferstadt","type":"Stadt"},"district":{"key":"06433","name":"Groß-Gerau","type":"Landkreis"},"federalState":{"key":"06","name":"Hessen"}},{"name":"Rostocker Str.","postalCode":"64579","locality":"Gernsheim","municipality":{"key":"06433004","name":"Gernsheim, Schöfferstadt","type":"Stadt"},"district":{"key":"06433","name":"Groß-Gerau","type":"Landkreis"},"federalState":{"key":"06","name":"Hessen"}},{"name":"Rubensweg","postalCode":"64579","locality":"Gernsheim","municipality":{"key":"06433004","name":"Gernsheim, Schöfferstadt","type":"Stadt"},"district":{"key":"06433","name":"Groß-Gerau","type":"Landkreis"},"federalState":{"key":"06","name":"Hessen"}},{"name":"Sandstr.","postalCode":"64579","locality":"Gernsheim","municipality":{"key":"06433004","name":"Gernsheim, Schöfferstadt","type":"Stadt"},"district":{"key":"06433","name":"Groß-Gerau","type":"Landkreis"},"federalState":{"key":"06","name":"Hessen"}},{"name":"Schafstr.","postalCode":"64579","locality":"Gernsheim","municipality":{"key":"06433004","name":"Gernsheim, Schöfferstadt","type":"Stadt"},"district":{"key":"06433","name":"Groß-Gerau","type":"Landkreis"},"federalState":{"key":"06","name":"Hessen"}},{"name":"Schillerstr.","postalCode":"64579","locality":"Gernsheim","municipality":{"key":"06433004","name":"Gernsheim, Schöfferstadt","type":"Stadt"},"district":{"key":"06433","name":"Groß-Gerau","type":"Landkreis"},"federalState":{"key":"06","name":"Hessen"}},{"name":"Schmiedgasse","postalCode":"64579","locality":"Gernsheim","municipality":{"key":"06433004","name":"Gernsheim, Schöfferstadt","type":"Stadt"},"district":{"key":"06433","name":"Groß-Gerau","type":"Landkreis"},"federalState":{"key":"06","name":"Hessen"}},{"name":"Schöfferstr.","postalCode":"64579","locality":"Gernsheim","municipality":{"key":"06433004","name":"Gernsheim, Schöfferstadt","type":"Stadt"},"district":{"key":"06433","name":"Groß-Gerau","type":"Landkreis"},"federalState":{"key":"06","name":"Hessen"}},{"name":"Schongauer Weg","postalCode":"64579","locality":"Gernsheim","municipality":{"key":"06433004","name":"Gernsheim, Schöfferstadt","type":"Stadt"},"district":{"key":"06433","name":"Groß-Gerau","type":"Landkreis"},"federalState":{"key":"06","name":"Hessen"}},{"name":"Schulstr.","postalCode":"64579","locality":"Gernsheim","municipality":{"key":"06433004","name":"Gernsheim, Schöfferstadt","type":"Stadt"},"district":{"key":"06433","name":"Groß-Gerau","type":"Landkreis"},"federalState":{"key":"06","name":"Hessen"}},{"name":"Schustergasse","postalCode":"64579","locality":"Gernsheim","municipality":{"key":"06433004","name":"Gernsheim, Schöfferstadt","type":"Stadt"},"district":{"key":"06433","name":"Groß-Gerau","type":"Landkreis"},"federalState":{"key":"06","name":"Hessen"}},{"name":"Schweinsgrubschneise","postalCode":"64579","locality":"Gernsheim","municipality":{"key":"06433004","name":"Gernsheim, Schöfferstadt","type":"Stadt"},"district":{"key":"06433","name":"Groß-Gerau","type":"Landkreis"},"federalState":{"key":"06","name":"Hessen"}},{"name":"Schweriner Str.","postalCode":"64579","locality":"Gernsheim","municipality":{"key":"06433004","name":"Gernsheim, Schöfferstadt","type":"Stadt"},"district":{"key":"06433","name":"Groß-Gerau","type":"Landkreis"},"federalState":{"key":"06","name":"Hessen"}},{"name":"Seilergasse","postalCode":"64579","locality":"Gernsheim","municipality":{"key":"06433004","name":"Gernsheim, Schöfferstadt","type":"Stadt"},"district":{"key":"06433","name":"Groß-Gerau","type":"Landkreis"},"federalState":{"key":"06","name":"Hessen"}},{"name":"Siedlungsstr.","postalCode":"64579","locality":"Gernsheim","municipality":{"key":"06433004","name":"Gernsheim, Schöfferstadt","type":"Stadt"},"district":{"key":"06433","name":"Groß-Gerau","type":"Landkreis"},"federalState":{"key":"06","name":"Hessen"}},{"name":"Siegfriedstr.","postalCode":"64579","locality":"Gernsheim","municipality":{"key":"06433004","name":"Gernsheim, Schöfferstadt","type":"Stadt"},"district":{"key":"06433","name":"Groß-Gerau","type":"Landkreis"},"federalState":{"key":"06","name":"Hessen"}},{"name":"Spessartstr.","postalCode":"64579","locality":"Gernsheim","municipality":{"key":"06433004","name":"Gernsheim, Schöfferstadt","type":"Stadt"},"district":{"key":"06433","name":"Groß-Gerau","type":"Landkreis"},"federalState":{"key":"06","name":"Hessen"}},{"name":"Spundlachschneise","postalCode":"64579","locality":"Gernsheim","municipality":{"key":"06433004","name":"Gernsheim, Schöfferstadt","type":"Stadt"},"district":{"key":"06433","name":"Groß-Gerau","type":"Landkreis"},"federalState":{"key":"06","name":"Hessen"}},{"name":"Stadthausplatz","postalCode":"64579","locality":"Gernsheim","municipality":{"key":"06433004","name":"Gernsheim, Schöfferstadt","type":"Stadt"},"district":{"key":"06433","name":"Groß-Gerau","type":"Landkreis"},"federalState":{"key":"06","name":"Hessen"}},{"name":"Stadthausstr.","postalCode":"64579","locality":"Gernsheim","municipality":{"key":"06433004","name":"Gernsheim, Schöfferstadt","type":"Stadt"},"district":{"key":"06433","name":"Groß-Gerau","type":"Landkreis"},"federalState":{"key":"06","name":"Hessen"}},{"name":"Starkenburger Str.","postalCode":"64579","locality":"Gernsheim","municipality":{"key":"06433004","name":"Gernsheim, Schöfferstadt","type":"Stadt"},"district":{"key":"06433","name":"Groß-Gerau","type":"Landkreis"},"federalState":{"key":"06","name":"Hessen"}},{"name":"Stettiner Str.","postalCode":"64579","locality":"Gernsheim","municipality":{"key":"06433004","name":"Gernsheim, Schöfferstadt","type":"Stadt"},"district":{"key":"06433","name":"Groß-Gerau","type":"Landkreis"},"federalState":{"key":"06","name":"Hessen"}},{"name":"Stockweg-Schneise","postalCode":"64579","locality":"Gernsheim","municipality":{"key":"06433004","name":"Gernsheim, Schöfferstadt","type":"Stadt"},"district":{"key":"06433","name":"Groß-Gerau","type":"Landkreis"},"federalState":{"key":"06","name":"Hessen"}},{"name":"Storchschneise","postalCode":"64579","locality":"Gernsheim","municipality":{"key":"06433004","name":"Gernsheim, Schöfferstadt","type":"Stadt"},"district":{"key":"06433","name":"Groß-Gerau","type":"Landkreis"},"federalState":{"key":"06","name":"Hessen"}},{"name":"Sudetenstr.","postalCode":"64579","locality":"Gernsheim","municipality":{"key":"06433004","name":"Gernsheim, Schöfferstadt","type":"Stadt"},"district":{"key":"06433","name":"Groß-Gerau","type":"Landkreis"},"federalState":{"key":"06","name":"Hessen"}},{"name":"Tannenhof","postalCode":"64579","locality":"Gernsheim","municipality":{"key":"06433004","name":"Gernsheim, Schöfferstadt","type":"Stadt"},"district":{"key":"06433","name":"Groß-Gerau","type":"Landkreis"},"federalState":{"key":"06","name":"Hessen"}},{"name":"Tannenschneise","postalCode":"64579","locality":"Gernsheim","municipality":{"key":"06433004","name":"Gernsheim, Schöfferstadt","type":"Stadt"},"district":{"key":"06433","name":"Groß-Gerau","type":"Landkreis"},"federalState":{"key":"06","name":"Hessen"}},{"name":"Tannenstr.","postalCode":"64579","locality":"Gernsheim","municipality":{"key":"06433004","name":"Gernsheim, Schöfferstadt","type":"Stadt"},"district":{"key":"06433","name":"Groß-Gerau","type":"Landkreis"},"federalState":{"key":"06","name":"Hessen"}},{"name":"Taunusstr.","postalCode":"64579","locality":"Gernsheim","municipality":{"key":"06433004","name":"Gernsheim, Schöfferstadt","type":"Stadt"},"district":{"key":"06433","name":"Groß-Gerau","type":"Landkreis"},"federalState":{"key":"06","name":"Hessen"}},{"name":"Theodor-Fliedner-Str.","postalCode":"64579","locality":"Gernsheim","municipality":{"key":"06433004","name":"Gernsheim, Schöfferstadt","type":"Stadt"},"district":{"key":"06433","name":"Groß-Gerau","type":"Landkreis"},"federalState":{"key":"06","name":"Hessen"}},{"name":"Theodor-Heuss-Str.","postalCode":"64579","locality":"Gernsheim","municipality":{"key":"06433004","name":"Gernsheim, Schöfferstadt","type":"Stadt"},"district":{"key":"06433","name":"Groß-Gerau","type":"Landkreis"},"federalState":{"key":"06","name":"Hessen"}},{"name":"Theresenstr.","postalCode":"64579","locality":"Gernsheim","municipality":{"key":"06433004","name":"Gernsheim, Schöfferstadt","type":"Stadt"},"district":{"key":"06433","name":"Groß-Gerau","type":"Landkreis"},"federalState":{"key":"06","name":"Hessen"}},{"name":"Trommstr.","postalCode":"64579","locality":"Gernsheim","municipality":{"key":"06433004","name":"Gernsheim, Schöfferstadt","type":"Stadt"},"district":{"key":"06433","name":"Groß-Gerau","type":"Landkreis"},"federalState":{"key":"06","name":"Hessen"}},{"name":"Troppauer Str.","postalCode":"64579","locality":"Gernsheim","municipality":{"key":"06433004","name":"Gernsheim, Schöfferstadt","type":"Stadt"},"district":{"key":"06433","name":"Groß-Gerau","type":"Landkreis"},"federalState":{"key":"06","name":"Hessen"}},{"name":"Uhlandstr.","postalCode":"64579","locality":"Gernsheim","municipality":{"key":"06433004","name":"Gernsheim, Schöfferstadt","type":"Stadt"},"district":{"key":"06433","name":"Groß-Gerau","type":"Landkreis"},"federalState":{"key":"06","name":"Hessen"}},{"name":"Ulmenstr.","postalCode":"64579","locality":"Gernsheim","municipality":{"key":"06433004","name":"Gernsheim, Schöfferstadt","type":"Stadt"},"district":{"key":"06433","name":"Groß-Gerau","type":"Landkreis"},"federalState":{"key":"06","name":"Hessen"}},{"name":"Valentin-Thomann-Str.","postalCode":"64579","locality":"Gernsheim","municipality":{"key":"06433004","name":"Gernsheim, Schöfferstadt","type":"Stadt"},"district":{"key":"06433","name":"Groß-Gerau","type":"Landkreis"},"federalState":{"key":"06","name":"Hessen"}},{"name":"van der Hopp-Schneise","postalCode":"64579","locality":"Gernsheim","municipality":{"key":"06433004","name":"Gernsheim, Schöfferstadt","type":"Stadt"},"district":{"key":"06433","name":"Groß-Gerau","type":"Landkreis"},"federalState":{"key":"06","name":"Hessen"}},{"name":"Venuleth-Schneise","postalCode":"64579","locality":"Gernsheim","municipality":{"key":"06433004","name":"Gernsheim, Schöfferstadt","type":"Stadt"},"district":{"key":"06433","name":"Groß-Gerau","type":"Landkreis"},"federalState":{"key":"06","name":"Hessen"}},{"name":"Verkehrsübungsgarten","postalCode":"64579","locality":"Gernsheim","municipality":{"key":"06433004","name":"Gernsheim, Schöfferstadt","type":"Stadt"},"district":{"key":"06433","name":"Groß-Gerau","type":"Landkreis"},"federalState":{"key":"06","name":"Hessen"}},{"name":"Vogelsbergstr.","postalCode":"64579","locality":"Gernsheim","municipality":{"key":"06433004","name":"Gernsheim, Schöfferstadt","type":"Stadt"},"district":{"key":"06433","name":"Groß-Gerau","type":"Landkreis"},"federalState":{"key":"06","name":"Hessen"}},{"name":"Wachtelschneise","postalCode":"64579","locality":"Gernsheim","municipality":{"key":"06433004","name":"Gernsheim, Schöfferstadt","type":"Stadt"},"district":{"key":"06433","name":"Groß-Gerau","type":"Landkreis"},"federalState":{"key":"06","name":"Hessen"}},{"name":"Waldstr.","postalCode":"64579","locality":"Gernsheim","municipality":{"key":"06433004","name":"Gernsheim, Schöfferstadt","type":"Stadt"},"district":{"key":"06433","name":"Groß-Gerau","type":"Landkreis"},"federalState":{"key":"06","name":"Hessen"}},{"name":"Wallstr.","postalCode":"64579","locality":"Gernsheim","municipality":{"key":"06433004","name":"Gernsheim, Schöfferstadt","type":"Stadt"},"district":{"key":"06433","name":"Groß-Gerau","type":"Landkreis"},"federalState":{"key":"06","name":"Hessen"}},{"name":"Wasserscheide","postalCode":"64579","locality":"Gernsheim","municipality":{"key":"06433004","name":"Gernsheim, Schöfferstadt","type":"Stadt"},"district":{"key":"06433","name":"Groß-Gerau","type":"Landkreis"},"federalState":{"key":"06","name":"Hessen"}},{"name":"Weiherschneise","postalCode":"64579","locality":"Gernsheim","municipality":{"key":"06433004","name":"Gernsheim, Schöfferstadt","type":"Stadt"},"district":{"key":"06433","name":"Groß-Gerau","type":"Landkreis"},"federalState":{"key":"06","name":"Hessen"}},{"name":"Weimarer Str.","postalCode":"64579","locality":"Gernsheim","municipality":{"key":"06433004","name":"Gernsheim, Schöfferstadt","type":"Stadt"},"district":{"key":"06433","name":"Groß-Gerau","type":"Landkreis"},"federalState":{"key":"06","name":"Hessen"}},{"name":"Werrastr.","postalCode":"64579","locality":"Gernsheim","municipality":{"key":"06433004","name":"Gernsheim, Schöfferstadt","type":"Stadt"},"district":{"key":"06433","name":"Groß-Gerau","type":"Landkreis"},"federalState":{"key":"06","name":"Hessen"}},{"name":"Westerwaldstr.","postalCode":"64579","locality":"Gernsheim","municipality":{"key":"06433004","name":"Gernsheim, Schöfferstadt","type":"Stadt"},"district":{"key":"06433","name":"Groß-Gerau","type":"Landkreis"},"federalState":{"key":"06","name":"Hessen"}},{"name":"Wiesenweg","postalCode":"64579","locality":"Gernsheim","municipality":{"key":"06433004","name":"Gernsheim, Schöfferstadt","type":"Stadt"},"district":{"key":"06433","name":"Groß-Gerau","type":"Landkreis"},"federalState":{"key":"06","name":"Hessen"}},{"name":"Wilhelm-Leuschner-Str.","postalCode":"64579","locality":"Gernsheim","municipality":{"key":"06433004","name":"Gernsheim, Schöfferstadt","type":"Stadt"},"district":{"key":"06433","name":"Groß-Gerau","type":"Landkreis"},"federalState":{"key":"06","name":"Hessen"}},{"name":"Willy-Brandt-Allee","postalCode":"64579","locality":"Gernsheim","municipality":{"key":"06433004","name":"Gernsheim, Schöfferstadt","type":"Stadt"},"district":{"key":"06433","name":"Groß-Gerau","type":"Landkreis"},"federalState":{"key":"06","name":"Hessen"}},{"name":"Wingertsweg","postalCode":"64579","locality":"Gernsheim","municipality":{"key":"06433004","name":"Gernsheim, Schöfferstadt","type":"Stadt"},"district":{"key":"06433","name":"Groß-Gerau","type":"Landkreis"},"federalState":{"key":"06","name":"Hessen"}},{"name":"Wormser Str.","postalCode":"64579","locality":"Gernsheim","municipality":{"key":"06433004","name":"Gernsheim, Schöfferstadt","type":"Stadt"},"district":{"key":"06433","name":"Groß-Gerau","type":"Landkreis"},"federalState":{"key":"06","name":"Hessen"}},{"name":"Wüstengasse","postalCode":"64579","locality":"Gernsheim","municipality":{"key":"06433004","name":"Gernsheim, Schöfferstadt","type":"Stadt"},"district":{"key":"06433","name":"Groß-Gerau","type":"Landkreis"},"federalState":{"key":"06","name":"Hessen"}},{"name":"Zanggasse","postalCode":"64579","locality":"Gernsheim","municipality":{"key":"06433004","name":"Gernsheim, Schöfferstadt","type":"Stadt"},"district":{"key":"06433","name":"Groß-Gerau","type":"Landkreis"},"federalState":{"key":"06","name":"Hessen"}},{"name":"Zwingenberger Str.","postalCode":"64579","locality":"Gernsheim","municipality":{"key":"06433004","name":"Gernsheim, Schöfferstadt","type":"Stadt"},"district":{"key":"06433","name":"Groß-Gerau","type":"Landkreis"},"federalState":{"key":"06","name":"Hessen"}},]