[{"name":"Adam-Schenk-Str.","postalCode":"34286","locality":"Spangenberg","municipality":{"key":"06634024","name":"Spangenberg, Liebenbachstadt","type":"Stadt"},"district":{"key":"06634","name":"Schwalm-Eder-Kreis","type":"Landkreis"},"federalState":{"key":"06","name":"Hessen"}},{"name":"Ahle Weg","postalCode":"34286","locality":"Spangenberg","municipality":{"key":"06634024","name":"Spangenberg, Liebenbachstadt","type":"Stadt"},"district":{"key":"06634","name":"Schwalm-Eder-Kreis","type":"Landkreis"},"federalState":{"key":"06","name":"Hessen"}},{"name":"Alheimer Str.","postalCode":"34286","locality":"Spangenberg","municipality":{"key":"06634024","name":"Spangenberg, Liebenbachstadt","type":"Stadt"},"district":{"key":"06634","name":"Schwalm-Eder-Kreis","type":"Landkreis"},"federalState":{"key":"06","name":"Hessen"}},{"name":"Alte Str.","postalCode":"34286","locality":"Spangenberg","municipality":{"key":"06634024","name":"Spangenberg, Liebenbachstadt","type":"Stadt"},"district":{"key":"06634","name":"Schwalm-Eder-Kreis","type":"Landkreis"},"federalState":{"key":"06","name":"Hessen"}},{"name":"Am Alten Graben","postalCode":"34286","locality":"Spangenberg","municipality":{"key":"06634024","name":"Spangenberg, Liebenbachstadt","type":"Stadt"},"district":{"key":"06634","name":"Schwalm-Eder-Kreis","type":"Landkreis"},"federalState":{"key":"06","name":"Hessen"}},{"name":"Am Berg","postalCode":"34286","locality":"Spangenberg","municipality":{"key":"06634024","name":"Spangenberg, Liebenbachstadt","type":"Stadt"},"district":{"key":"06634","name":"Schwalm-Eder-Kreis","type":"Landkreis"},"federalState":{"key":"06","name":"Hessen"}},{"name":"Am Bromsberg","postalCode":"34286","locality":"Spangenberg","municipality":{"key":"06634024","name":"Spangenberg, Liebenbachstadt","type":"Stadt"},"district":{"key":"06634","name":"Schwalm-Eder-Kreis","type":"Landkreis"},"federalState":{"key":"06","name":"Hessen"}},{"name":"Am Erlenborn","postalCode":"34286","locality":"Spangenberg","municipality":{"key":"06634024","name":"Spangenberg, Liebenbachstadt","type":"Stadt"},"district":{"key":"06634","name":"Schwalm-Eder-Kreis","type":"Landkreis"},"federalState":{"key":"06","name":"Hessen"}},{"name":"Am Finkelsrain","postalCode":"34286","locality":"Spangenberg","municipality":{"key":"06634024","name":"Spangenberg, Liebenbachstadt","type":"Stadt"},"district":{"key":"06634","name":"Schwalm-Eder-Kreis","type":"Landkreis"},"federalState":{"key":"06","name":"Hessen"}},{"name":"Am Friedhof","postalCode":"34286","locality":"Spangenberg","municipality":{"key":"06634024","name":"Spangenberg, Liebenbachstadt","type":"Stadt"},"district":{"key":"06634","name":"Schwalm-Eder-Kreis","type":"Landkreis"},"federalState":{"key":"06","name":"Hessen"}},{"name":"Am Galgenberg","postalCode":"34286","locality":"Spangenberg","municipality":{"key":"06634024","name":"Spangenberg, Liebenbachstadt","type":"Stadt"},"district":{"key":"06634","name":"Schwalm-Eder-Kreis","type":"Landkreis"},"federalState":{"key":"06","name":"Hessen"}},{"name":"Am Hang","postalCode":"34286","locality":"Spangenberg","municipality":{"key":"06634024","name":"Spangenberg, Liebenbachstadt","type":"Stadt"},"district":{"key":"06634","name":"Schwalm-Eder-Kreis","type":"Landkreis"},"federalState":{"key":"06","name":"Hessen"}},{"name":"Am Herrenland","postalCode":"34286","locality":"Spangenberg","municipality":{"key":"06634024","name":"Spangenberg, Liebenbachstadt","type":"Stadt"},"district":{"key":"06634","name":"Schwalm-Eder-Kreis","type":"Landkreis"},"federalState":{"key":"06","name":"Hessen"}},{"name":"Am Hilgen Hof","postalCode":"34286","locality":"Spangenberg","municipality":{"key":"06634024","name":"Spangenberg, Liebenbachstadt","type":"Stadt"},"district":{"key":"06634","name":"Schwalm-Eder-Kreis","type":"Landkreis"},"federalState":{"key":"06","name":"Hessen"}},{"name":"Am Kirchberg","postalCode":"34286","locality":"Spangenberg","municipality":{"key":"06634024","name":"Spangenberg, Liebenbachstadt","type":"Stadt"},"district":{"key":"06634","name":"Schwalm-Eder-Kreis","type":"Landkreis"},"federalState":{"key":"06","name":"Hessen"}},{"name":"Am Liebenbach","postalCode":"34286","locality":"Spangenberg","municipality":{"key":"06634024","name":"Spangenberg, Liebenbachstadt","type":"Stadt"},"district":{"key":"06634","name":"Schwalm-Eder-Kreis","type":"Landkreis"},"federalState":{"key":"06","name":"Hessen"}},{"name":"Am Lindeberg","postalCode":"34286","locality":"Spangenberg","municipality":{"key":"06634024","name":"Spangenberg, Liebenbachstadt","type":"Stadt"},"district":{"key":"06634","name":"Schwalm-Eder-Kreis","type":"Landkreis"},"federalState":{"key":"06","name":"Hessen"}},{"name":"Am Mühlberg","postalCode":"34286","locality":"Spangenberg","municipality":{"key":"06634024","name":"Spangenberg, Liebenbachstadt","type":"Stadt"},"district":{"key":"06634","name":"Schwalm-Eder-Kreis","type":"Landkreis"},"federalState":{"key":"06","name":"Hessen"}},{"name":"Am Pfaffenbach","postalCode":"34286","locality":"Spangenberg","municipality":{"key":"06634024","name":"Spangenberg, Liebenbachstadt","type":"Stadt"},"district":{"key":"06634","name":"Schwalm-Eder-Kreis","type":"Landkreis"},"federalState":{"key":"06","name":"Hessen"}},{"name":"Am Schartenberg","postalCode":"34286","locality":"Spangenberg","municipality":{"key":"06634024","name":"Spangenberg, Liebenbachstadt","type":"Stadt"},"district":{"key":"06634","name":"Schwalm-Eder-Kreis","type":"Landkreis"},"federalState":{"key":"06","name":"Hessen"}},{"name":"Am Schloßberg","postalCode":"34286","locality":"Spangenberg","municipality":{"key":"06634024","name":"Spangenberg, Liebenbachstadt","type":"Stadt"},"district":{"key":"06634","name":"Schwalm-Eder-Kreis","type":"Landkreis"},"federalState":{"key":"06","name":"Hessen"}},{"name":"Amselweg","postalCode":"34286","locality":"Spangenberg","municipality":{"key":"06634024","name":"Spangenberg, Liebenbachstadt","type":"Stadt"},"district":{"key":"06634","name":"Schwalm-Eder-Kreis","type":"Landkreis"},"federalState":{"key":"06","name":"Hessen"}},{"name":"Am Sonnenhang","postalCode":"34286","locality":"Spangenberg","municipality":{"key":"06634024","name":"Spangenberg, Liebenbachstadt","type":"Stadt"},"district":{"key":"06634","name":"Schwalm-Eder-Kreis","type":"Landkreis"},"federalState":{"key":"06","name":"Hessen"}},{"name":"Am Steinberg","postalCode":"34286","locality":"Spangenberg","municipality":{"key":"06634024","name":"Spangenberg, Liebenbachstadt","type":"Stadt"},"district":{"key":"06634","name":"Schwalm-Eder-Kreis","type":"Landkreis"},"federalState":{"key":"06","name":"Hessen"}},{"name":"Am Steinbruch","postalCode":"34286","locality":"Spangenberg","municipality":{"key":"06634024","name":"Spangenberg, Liebenbachstadt","type":"Stadt"},"district":{"key":"06634","name":"Schwalm-Eder-Kreis","type":"Landkreis"},"federalState":{"key":"06","name":"Hessen"}},{"name":"Am Steinkopf","postalCode":"34286","locality":"Spangenberg","municipality":{"key":"06634024","name":"Spangenberg, Liebenbachstadt","type":"Stadt"},"district":{"key":"06634","name":"Schwalm-Eder-Kreis","type":"Landkreis"},"federalState":{"key":"06","name":"Hessen"}},{"name":"Am Wall","postalCode":"34286","locality":"Spangenberg","municipality":{"key":"06634024","name":"Spangenberg, Liebenbachstadt","type":"Stadt"},"district":{"key":"06634","name":"Schwalm-Eder-Kreis","type":"Landkreis"},"federalState":{"key":"06","name":"Hessen"}},{"name":"Am Wäscheborn","postalCode":"34286","locality":"Spangenberg","municipality":{"key":"06634024","name":"Spangenberg, Liebenbachstadt","type":"Stadt"},"district":{"key":"06634","name":"Schwalm-Eder-Kreis","type":"Landkreis"},"federalState":{"key":"06","name":"Hessen"}},{"name":"Am Wehr","postalCode":"34286","locality":"Spangenberg","municipality":{"key":"06634024","name":"Spangenberg, Liebenbachstadt","type":"Stadt"},"district":{"key":"06634","name":"Schwalm-Eder-Kreis","type":"Landkreis"},"federalState":{"key":"06","name":"Hessen"}},{"name":"Am Ziegenberg","postalCode":"34286","locality":"Spangenberg","municipality":{"key":"06634024","name":"Spangenberg, Liebenbachstadt","type":"Stadt"},"district":{"key":"06634","name":"Schwalm-Eder-Kreis","type":"Landkreis"},"federalState":{"key":"06","name":"Hessen"}},{"name":"Am Ziegenrück","postalCode":"34286","locality":"Spangenberg","municipality":{"key":"06634024","name":"Spangenberg, Liebenbachstadt","type":"Stadt"},"district":{"key":"06634","name":"Schwalm-Eder-Kreis","type":"Landkreis"},"federalState":{"key":"06","name":"Hessen"}},{"name":"An der Körsche","postalCode":"34286","locality":"Spangenberg","municipality":{"key":"06634024","name":"Spangenberg, Liebenbachstadt","type":"Stadt"},"district":{"key":"06634","name":"Schwalm-Eder-Kreis","type":"Landkreis"},"federalState":{"key":"06","name":"Hessen"}},{"name":"An der Lande","postalCode":"34286","locality":"Spangenberg","municipality":{"key":"06634024","name":"Spangenberg, Liebenbachstadt","type":"Stadt"},"district":{"key":"06634","name":"Schwalm-Eder-Kreis","type":"Landkreis"},"federalState":{"key":"06","name":"Hessen"}},{"name":"An der Vocke","postalCode":"34286","locality":"Spangenberg","municipality":{"key":"06634024","name":"Spangenberg, Liebenbachstadt","type":"Stadt"},"district":{"key":"06634","name":"Schwalm-Eder-Kreis","type":"Landkreis"},"federalState":{"key":"06","name":"Hessen"}},{"name":"Aueblick","postalCode":"34286","locality":"Spangenberg","municipality":{"key":"06634024","name":"Spangenberg, Liebenbachstadt","type":"Stadt"},"district":{"key":"06634","name":"Schwalm-Eder-Kreis","type":"Landkreis"},"federalState":{"key":"06","name":"Hessen"}},{"name":"Aueweg","postalCode":"34286","locality":"Spangenberg","municipality":{"key":"06634024","name":"Spangenberg, Liebenbachstadt","type":"Stadt"},"district":{"key":"06634","name":"Schwalm-Eder-Kreis","type":"Landkreis"},"federalState":{"key":"06","name":"Hessen"}},{"name":"Auf dem Lohe","postalCode":"34286","locality":"Spangenberg","municipality":{"key":"06634024","name":"Spangenberg, Liebenbachstadt","type":"Stadt"},"district":{"key":"06634","name":"Schwalm-Eder-Kreis","type":"Landkreis"},"federalState":{"key":"06","name":"Hessen"}},{"name":"Auf dem Scharfen","postalCode":"34286","locality":"Spangenberg","municipality":{"key":"06634024","name":"Spangenberg, Liebenbachstadt","type":"Stadt"},"district":{"key":"06634","name":"Schwalm-Eder-Kreis","type":"Landkreis"},"federalState":{"key":"06","name":"Hessen"}},{"name":"Auf dem Stein","postalCode":"34286","locality":"Spangenberg","municipality":{"key":"06634024","name":"Spangenberg, Liebenbachstadt","type":"Stadt"},"district":{"key":"06634","name":"Schwalm-Eder-Kreis","type":"Landkreis"},"federalState":{"key":"06","name":"Hessen"}},{"name":"Auf der Lehmkaute","postalCode":"34286","locality":"Spangenberg","municipality":{"key":"06634024","name":"Spangenberg, Liebenbachstadt","type":"Stadt"},"district":{"key":"06634","name":"Schwalm-Eder-Kreis","type":"Landkreis"},"federalState":{"key":"06","name":"Hessen"}},{"name":"Auf der Röthe","postalCode":"34286","locality":"Spangenberg","municipality":{"key":"06634024","name":"Spangenberg, Liebenbachstadt","type":"Stadt"},"district":{"key":"06634","name":"Schwalm-Eder-Kreis","type":"Landkreis"},"federalState":{"key":"06","name":"Hessen"}},{"name":"Bachweg","postalCode":"34286","locality":"Spangenberg","municipality":{"key":"06634024","name":"Spangenberg, Liebenbachstadt","type":"Stadt"},"district":{"key":"06634","name":"Schwalm-Eder-Kreis","type":"Landkreis"},"federalState":{"key":"06","name":"Hessen"}},{"name":"Bädergasse","postalCode":"34286","locality":"Spangenberg","municipality":{"key":"06634024","name":"Spangenberg, Liebenbachstadt","type":"Stadt"},"district":{"key":"06634","name":"Schwalm-Eder-Kreis","type":"Landkreis"},"federalState":{"key":"06","name":"Hessen"}},{"name":"Bahnhofstr.","postalCode":"34286","locality":"Spangenberg","municipality":{"key":"06634024","name":"Spangenberg, Liebenbachstadt","type":"Stadt"},"district":{"key":"06634","name":"Schwalm-Eder-Kreis","type":"Landkreis"},"federalState":{"key":"06","name":"Hessen"}},{"name":"Begnungsstätte Zum Himmelsfels","postalCode":"34286","locality":"Spangenberg","municipality":{"key":"06634024","name":"Spangenberg, Liebenbachstadt","type":"Stadt"},"district":{"key":"06634","name":"Schwalm-Eder-Kreis","type":"Landkreis"},"federalState":{"key":"06","name":"Hessen"}},{"name":"Bergheimer Str.","postalCode":"34286","locality":"Spangenberg","municipality":{"key":"06634024","name":"Spangenberg, Liebenbachstadt","type":"Stadt"},"district":{"key":"06634","name":"Schwalm-Eder-Kreis","type":"Landkreis"},"federalState":{"key":"06","name":"Hessen"}},{"name":"Bergstr.","postalCode":"34286","locality":"Spangenberg","municipality":{"key":"06634024","name":"Spangenberg, Liebenbachstadt","type":"Stadt"},"district":{"key":"06634","name":"Schwalm-Eder-Kreis","type":"Landkreis"},"federalState":{"key":"06","name":"Hessen"}},{"name":"Berliner Str.","postalCode":"34286","locality":"Spangenberg","municipality":{"key":"06634024","name":"Spangenberg, Liebenbachstadt","type":"Stadt"},"district":{"key":"06634","name":"Schwalm-Eder-Kreis","type":"Landkreis"},"federalState":{"key":"06","name":"Hessen"}},{"name":"Birkenstr.","postalCode":"34286","locality":"Spangenberg","municipality":{"key":"06634024","name":"Spangenberg, Liebenbachstadt","type":"Stadt"},"district":{"key":"06634","name":"Schwalm-Eder-Kreis","type":"Landkreis"},"federalState":{"key":"06","name":"Hessen"}},{"name":"Birnbach","postalCode":"34286","locality":"Spangenberg","municipality":{"key":"06634024","name":"Spangenberg, Liebenbachstadt","type":"Stadt"},"district":{"key":"06634","name":"Schwalm-Eder-Kreis","type":"Landkreis"},"federalState":{"key":"06","name":"Hessen"}},{"name":"Bischofferöder Str.","postalCode":"34286","locality":"Spangenberg","municipality":{"key":"06634024","name":"Spangenberg, Liebenbachstadt","type":"Stadt"},"district":{"key":"06634","name":"Schwalm-Eder-Kreis","type":"Landkreis"},"federalState":{"key":"06","name":"Hessen"}},{"name":"Blaubach","postalCode":"34286","locality":"Spangenberg","municipality":{"key":"06634024","name":"Spangenberg, Liebenbachstadt","type":"Stadt"},"district":{"key":"06634","name":"Schwalm-Eder-Kreis","type":"Landkreis"},"federalState":{"key":"06","name":"Hessen"}},{"name":"Bornacker","postalCode":"34286","locality":"Spangenberg","municipality":{"key":"06634024","name":"Spangenberg, Liebenbachstadt","type":"Stadt"},"district":{"key":"06634","name":"Schwalm-Eder-Kreis","type":"Landkreis"},"federalState":{"key":"06","name":"Hessen"}},{"name":"Brauhausplatz","postalCode":"34286","locality":"Spangenberg","municipality":{"key":"06634024","name":"Spangenberg, Liebenbachstadt","type":"Stadt"},"district":{"key":"06634","name":"Schwalm-Eder-Kreis","type":"Landkreis"},"federalState":{"key":"06","name":"Hessen"}},{"name":"Breslauer Str.","postalCode":"34286","locality":"Spangenberg","municipality":{"key":"06634024","name":"Spangenberg, Liebenbachstadt","type":"Stadt"},"district":{"key":"06634","name":"Schwalm-Eder-Kreis","type":"Landkreis"},"federalState":{"key":"06","name":"Hessen"}},{"name":"Brückenstr.","postalCode":"34286","locality":"Spangenberg","municipality":{"key":"06634024","name":"Spangenberg, Liebenbachstadt","type":"Stadt"},"district":{"key":"06634","name":"Schwalm-Eder-Kreis","type":"Landkreis"},"federalState":{"key":"06","name":"Hessen"}},{"name":"Brunnenstr.","postalCode":"34286","locality":"Spangenberg","municipality":{"key":"06634024","name":"Spangenberg, Liebenbachstadt","type":"Stadt"},"district":{"key":"06634","name":"Schwalm-Eder-Kreis","type":"Landkreis"},"federalState":{"key":"06","name":"Hessen"}},{"name":"Buchenstr.","postalCode":"34286","locality":"Spangenberg","municipality":{"key":"06634024","name":"Spangenberg, Liebenbachstadt","type":"Stadt"},"district":{"key":"06634","name":"Schwalm-Eder-Kreis","type":"Landkreis"},"federalState":{"key":"06","name":"Hessen"}},{"name":"Budenwäldchen, Wildbahn X3, ARS NATURA","postalCode":"34286","locality":"Spangenberg","municipality":{"key":"06634024","name":"Spangenberg, Liebenbachstadt","type":"Stadt"},"district":{"key":"06634","name":"Schwalm-Eder-Kreis","type":"Landkreis"},"federalState":{"key":"06","name":"Hessen"}},{"name":"Burgsitz","postalCode":"34286","locality":"Spangenberg","municipality":{"key":"06634024","name":"Spangenberg, Liebenbachstadt","type":"Stadt"},"district":{"key":"06634","name":"Schwalm-Eder-Kreis","type":"Landkreis"},"federalState":{"key":"06","name":"Hessen"}},{"name":"Burgstr.","postalCode":"34286","locality":"Spangenberg","municipality":{"key":"06634024","name":"Spangenberg, Liebenbachstadt","type":"Stadt"},"district":{"key":"06634","name":"Schwalm-Eder-Kreis","type":"Landkreis"},"federalState":{"key":"06","name":"Hessen"}},{"name":"Dinkelberger Str.","postalCode":"34286","locality":"Spangenberg","municipality":{"key":"06634024","name":"Spangenberg, Liebenbachstadt","type":"Stadt"},"district":{"key":"06634","name":"Schwalm-Eder-Kreis","type":"Landkreis"},"federalState":{"key":"06","name":"Hessen"}},{"name":"Dorfplatz","postalCode":"34286","locality":"Spangenberg","municipality":{"key":"06634024","name":"Spangenberg, Liebenbachstadt","type":"Stadt"},"district":{"key":"06634","name":"Schwalm-Eder-Kreis","type":"Landkreis"},"federalState":{"key":"06","name":"Hessen"}},{"name":"Dorfstr.","postalCode":"34286","locality":"Spangenberg","municipality":{"key":"06634024","name":"Spangenberg, Liebenbachstadt","type":"Stadt"},"district":{"key":"06634","name":"Schwalm-Eder-Kreis","type":"Landkreis"},"federalState":{"key":"06","name":"Hessen"}},{"name":"Dörnbach","postalCode":"34286","locality":"Spangenberg","municipality":{"key":"06634024","name":"Spangenberg, Liebenbachstadt","type":"Stadt"},"district":{"key":"06634","name":"Schwalm-Eder-Kreis","type":"Landkreis"},"federalState":{"key":"06","name":"Hessen"}},{"name":"Eisbergweg","postalCode":"34286","locality":"Spangenberg","municipality":{"key":"06634024","name":"Spangenberg, Liebenbachstadt","type":"Stadt"},"district":{"key":"06634","name":"Schwalm-Eder-Kreis","type":"Landkreis"},"federalState":{"key":"06","name":"Hessen"}},{"name":"Ellenbachstr.","postalCode":"34286","locality":"Spangenberg","municipality":{"key":"06634024","name":"Spangenberg, Liebenbachstadt","type":"Stadt"},"district":{"key":"06634","name":"Schwalm-Eder-Kreis","type":"Landkreis"},"federalState":{"key":"06","name":"Hessen"}},{"name":"Erbengrundstr.","postalCode":"34286","locality":"Spangenberg","municipality":{"key":"06634024","name":"Spangenberg, Liebenbachstadt","type":"Stadt"},"district":{"key":"06634","name":"Schwalm-Eder-Kreis","type":"Landkreis"},"federalState":{"key":"06","name":"Hessen"}},{"name":"Espich","postalCode":"34286","locality":"Spangenberg","municipality":{"key":"06634024","name":"Spangenberg, Liebenbachstadt","type":"Stadt"},"district":{"key":"06634","name":"Schwalm-Eder-Kreis","type":"Landkreis"},"federalState":{"key":"06","name":"Hessen"}},{"name":"Eubacher Str.","postalCode":"34286","locality":"Spangenberg","municipality":{"key":"06634024","name":"Spangenberg, Liebenbachstadt","type":"Stadt"},"district":{"key":"06634","name":"Schwalm-Eder-Kreis","type":"Landkreis"},"federalState":{"key":"06","name":"Hessen"}},{"name":"Fasanenweg","postalCode":"34286","locality":"Spangenberg","municipality":{"key":"06634024","name":"Spangenberg, Liebenbachstadt","type":"Stadt"},"district":{"key":"06634","name":"Schwalm-Eder-Kreis","type":"Landkreis"},"federalState":{"key":"06","name":"Hessen"}},{"name":"Fichtenweg","postalCode":"34286","locality":"Spangenberg","municipality":{"key":"06634024","name":"Spangenberg, Liebenbachstadt","type":"Stadt"},"district":{"key":"06634","name":"Schwalm-Eder-Kreis","type":"Landkreis"},"federalState":{"key":"06","name":"Hessen"}},{"name":"Finkenweg","postalCode":"34286","locality":"Spangenberg","municipality":{"key":"06634024","name":"Spangenberg, Liebenbachstadt","type":"Stadt"},"district":{"key":"06634","name":"Schwalm-Eder-Kreis","type":"Landkreis"},"federalState":{"key":"06","name":"Hessen"}},{"name":"Fischbachstr.","postalCode":"34286","locality":"Spangenberg","municipality":{"key":"06634024","name":"Spangenberg, Liebenbachstadt","type":"Stadt"},"district":{"key":"06634","name":"Schwalm-Eder-Kreis","type":"Landkreis"},"federalState":{"key":"06","name":"Hessen"}},{"name":"Fliederweg","postalCode":"34286","locality":"Spangenberg","municipality":{"key":"06634024","name":"Spangenberg, Liebenbachstadt","type":"Stadt"},"district":{"key":"06634","name":"Schwalm-Eder-Kreis","type":"Landkreis"},"federalState":{"key":"06","name":"Hessen"}},{"name":"Forsthausstr.","postalCode":"34286","locality":"Spangenberg","municipality":{"key":"06634024","name":"Spangenberg, Liebenbachstadt","type":"Stadt"},"district":{"key":"06634","name":"Schwalm-Eder-Kreis","type":"Landkreis"},"federalState":{"key":"06","name":"Hessen"}},{"name":"Franzosenstr.","postalCode":"34286","locality":"Spangenberg","municipality":{"key":"06634024","name":"Spangenberg, Liebenbachstadt","type":"Stadt"},"district":{"key":"06634","name":"Schwalm-Eder-Kreis","type":"Landkreis"},"federalState":{"key":"06","name":"Hessen"}},{"name":"Frühmessergasse","postalCode":"34286","locality":"Spangenberg","municipality":{"key":"06634024","name":"Spangenberg, Liebenbachstadt","type":"Stadt"},"district":{"key":"06634","name":"Schwalm-Eder-Kreis","type":"Landkreis"},"federalState":{"key":"06","name":"Hessen"}},{"name":"Fußweg nach dem Bahnhof","postalCode":"34286","locality":"Spangenberg","municipality":{"key":"06634024","name":"Spangenberg, Liebenbachstadt","type":"Stadt"},"district":{"key":"06634","name":"Schwalm-Eder-Kreis","type":"Landkreis"},"federalState":{"key":"06","name":"Hessen"}},{"name":"Gemeindeberg","postalCode":"34286","locality":"Spangenberg","municipality":{"key":"06634024","name":"Spangenberg, Liebenbachstadt","type":"Stadt"},"district":{"key":"06634","name":"Schwalm-Eder-Kreis","type":"Landkreis"},"federalState":{"key":"06","name":"Hessen"}},{"name":"Glasebachweg","postalCode":"34286","locality":"Spangenberg","municipality":{"key":"06634024","name":"Spangenberg, Liebenbachstadt","type":"Stadt"},"district":{"key":"06634","name":"Schwalm-Eder-Kreis","type":"Landkreis"},"federalState":{"key":"06","name":"Hessen"}},{"name":"Goldbachstr.","postalCode":"34286","locality":"Spangenberg","municipality":{"key":"06634024","name":"Spangenberg, Liebenbachstadt","type":"Stadt"},"district":{"key":"06634","name":"Schwalm-Eder-Kreis","type":"Landkreis"},"federalState":{"key":"06","name":"Hessen"}},{"name":"Goldbachwiesen","postalCode":"34286","locality":"Spangenberg","municipality":{"key":"06634024","name":"Spangenberg, Liebenbachstadt","type":"Stadt"},"district":{"key":"06634","name":"Schwalm-Eder-Kreis","type":"Landkreis"},"federalState":{"key":"06","name":"Hessen"}},{"name":"Grundweg","postalCode":"34286","locality":"Spangenberg","municipality":{"key":"06634024","name":"Spangenberg, Liebenbachstadt","type":"Stadt"},"district":{"key":"06634","name":"Schwalm-Eder-Kreis","type":"Landkreis"},"federalState":{"key":"06","name":"Hessen"}},{"name":"Grüne Str.","postalCode":"34286","locality":"Spangenberg","municipality":{"key":"06634024","name":"Spangenberg, Liebenbachstadt","type":"Stadt"},"district":{"key":"06634","name":"Schwalm-Eder-Kreis","type":"Landkreis"},"federalState":{"key":"06","name":"Hessen"}},{"name":"Gudeweg","postalCode":"34286","locality":"Spangenberg","municipality":{"key":"06634024","name":"Spangenberg, Liebenbachstadt","type":"Stadt"},"district":{"key":"06634","name":"Schwalm-Eder-Kreis","type":"Landkreis"},"federalState":{"key":"06","name":"Hessen"}},{"name":"Haarth","postalCode":"34286","locality":"Spangenberg","municipality":{"key":"06634024","name":"Spangenberg, Liebenbachstadt","type":"Stadt"},"district":{"key":"06634","name":"Schwalm-Eder-Kreis","type":"Landkreis"},"federalState":{"key":"06","name":"Hessen"}},{"name":"Haingasse","postalCode":"34286","locality":"Spangenberg","municipality":{"key":"06634024","name":"Spangenberg, Liebenbachstadt","type":"Stadt"},"district":{"key":"06634","name":"Schwalm-Eder-Kreis","type":"Landkreis"},"federalState":{"key":"06","name":"Hessen"}},{"name":"Hauptstr.","postalCode":"34286","locality":"Spangenberg","municipality":{"key":"06634024","name":"Spangenberg, Liebenbachstadt","type":"Stadt"},"district":{"key":"06634","name":"Schwalm-Eder-Kreis","type":"Landkreis"},"federalState":{"key":"06","name":"Hessen"}},{"name":"Heckenrain","postalCode":"34286","locality":"Spangenberg","municipality":{"key":"06634024","name":"Spangenberg, Liebenbachstadt","type":"Stadt"},"district":{"key":"06634","name":"Schwalm-Eder-Kreis","type":"Landkreis"},"federalState":{"key":"06","name":"Hessen"}},{"name":"Heideweg","postalCode":"34286","locality":"Spangenberg","municipality":{"key":"06634024","name":"Spangenberg, Liebenbachstadt","type":"Stadt"},"district":{"key":"06634","name":"Schwalm-Eder-Kreis","type":"Landkreis"},"federalState":{"key":"06","name":"Hessen"}},{"name":"Heil","postalCode":"34286","locality":"Spangenberg","municipality":{"key":"06634024","name":"Spangenberg, Liebenbachstadt","type":"Stadt"},"district":{"key":"06634","name":"Schwalm-Eder-Kreis","type":"Landkreis"},"federalState":{"key":"06","name":"Hessen"}},{"name":"Heiliges Kreuz","postalCode":"34286","locality":"Spangenberg","municipality":{"key":"06634024","name":"Spangenberg, Liebenbachstadt","type":"Stadt"},"district":{"key":"06634","name":"Schwalm-Eder-Kreis","type":"Landkreis"},"federalState":{"key":"06","name":"Hessen"}},{"name":"Heinrich-Bender-Str.","postalCode":"34286","locality":"Spangenberg","municipality":{"key":"06634024","name":"Spangenberg, Liebenbachstadt","type":"Stadt"},"district":{"key":"06634","name":"Schwalm-Eder-Kreis","type":"Landkreis"},"federalState":{"key":"06","name":"Hessen"}},{"name":"Heinrich-Stein-Str.","postalCode":"34286","locality":"Spangenberg","municipality":{"key":"06634024","name":"Spangenberg, Liebenbachstadt","type":"Stadt"},"district":{"key":"06634","name":"Schwalm-Eder-Kreis","type":"Landkreis"},"federalState":{"key":"06","name":"Hessen"}},{"name":"Heisterstr.","postalCode":"34286","locality":"Spangenberg","municipality":{"key":"06634024","name":"Spangenberg, Liebenbachstadt","type":"Stadt"},"district":{"key":"06634","name":"Schwalm-Eder-Kreis","type":"Landkreis"},"federalState":{"key":"06","name":"Hessen"}},{"name":"Hellerbachstr.","postalCode":"34286","locality":"Spangenberg","municipality":{"key":"06634024","name":"Spangenberg, Liebenbachstadt","type":"Stadt"},"district":{"key":"06634","name":"Schwalm-Eder-Kreis","type":"Landkreis"},"federalState":{"key":"06","name":"Hessen"}},{"name":"Hinter den Höfen","postalCode":"34286","locality":"Spangenberg","municipality":{"key":"06634024","name":"Spangenberg, Liebenbachstadt","type":"Stadt"},"district":{"key":"06634","name":"Schwalm-Eder-Kreis","type":"Landkreis"},"federalState":{"key":"06","name":"Hessen"}},{"name":"Hinter der Mauer","postalCode":"34286","locality":"Spangenberg","municipality":{"key":"06634024","name":"Spangenberg, Liebenbachstadt","type":"Stadt"},"district":{"key":"06634","name":"Schwalm-Eder-Kreis","type":"Landkreis"},"federalState":{"key":"06","name":"Hessen"}},{"name":"Höhenweg","postalCode":"34286","locality":"Spangenberg","municipality":{"key":"06634024","name":"Spangenberg, Liebenbachstadt","type":"Stadt"},"district":{"key":"06634","name":"Schwalm-Eder-Kreis","type":"Landkreis"},"federalState":{"key":"06","name":"Hessen"}},{"name":"Höhle","postalCode":"34286","locality":"Spangenberg","municipality":{"key":"06634024","name":"Spangenberg, Liebenbachstadt","type":"Stadt"},"district":{"key":"06634","name":"Schwalm-Eder-Kreis","type":"Landkreis"},"federalState":{"key":"06","name":"Hessen"}},{"name":"Höllgrabenstr.","postalCode":"34286","locality":"Spangenberg","municipality":{"key":"06634024","name":"Spangenberg, Liebenbachstadt","type":"Stadt"},"district":{"key":"06634","name":"Schwalm-Eder-Kreis","type":"Landkreis"},"federalState":{"key":"06","name":"Hessen"}},{"name":"Iberg","postalCode":"34286","locality":"Spangenberg","municipality":{"key":"06634024","name":"Spangenberg, Liebenbachstadt","type":"Stadt"},"district":{"key":"06634","name":"Schwalm-Eder-Kreis","type":"Landkreis"},"federalState":{"key":"06","name":"Hessen"}},{"name":"Im Gründchen","postalCode":"34286","locality":"Spangenberg","municipality":{"key":"06634024","name":"Spangenberg, Liebenbachstadt","type":"Stadt"},"district":{"key":"06634","name":"Schwalm-Eder-Kreis","type":"Landkreis"},"federalState":{"key":"06","name":"Hessen"}},{"name":"Im Kesselgraben","postalCode":"34286","locality":"Spangenberg","municipality":{"key":"06634024","name":"Spangenberg, Liebenbachstadt","type":"Stadt"},"district":{"key":"06634","name":"Schwalm-Eder-Kreis","type":"Landkreis"},"federalState":{"key":"06","name":"Hessen"}},{"name":"Im Labbach","postalCode":"34286","locality":"Spangenberg","municipality":{"key":"06634024","name":"Spangenberg, Liebenbachstadt","type":"Stadt"},"district":{"key":"06634","name":"Schwalm-Eder-Kreis","type":"Landkreis"},"federalState":{"key":"06","name":"Hessen"}},{"name":"Im Tal","postalCode":"34286","locality":"Spangenberg","municipality":{"key":"06634024","name":"Spangenberg, Liebenbachstadt","type":"Stadt"},"district":{"key":"06634","name":"Schwalm-Eder-Kreis","type":"Landkreis"},"federalState":{"key":"06","name":"Hessen"}},{"name":"Im Teichfeld","postalCode":"34286","locality":"Spangenberg","municipality":{"key":"06634024","name":"Spangenberg, Liebenbachstadt","type":"Stadt"},"district":{"key":"06634","name":"Schwalm-Eder-Kreis","type":"Landkreis"},"federalState":{"key":"06","name":"Hessen"}},{"name":"In der Ecke","postalCode":"34286","locality":"Spangenberg","municipality":{"key":"06634024","name":"Spangenberg, Liebenbachstadt","type":"Stadt"},"district":{"key":"06634","name":"Schwalm-Eder-Kreis","type":"Landkreis"},"federalState":{"key":"06","name":"Hessen"}},{"name":"In der Gasse","postalCode":"34286","locality":"Spangenberg","municipality":{"key":"06634024","name":"Spangenberg, Liebenbachstadt","type":"Stadt"},"district":{"key":"06634","name":"Schwalm-Eder-Kreis","type":"Landkreis"},"federalState":{"key":"06","name":"Hessen"}},{"name":"In der Schloßdelle","postalCode":"34286","locality":"Spangenberg","municipality":{"key":"06634024","name":"Spangenberg, Liebenbachstadt","type":"Stadt"},"district":{"key":"06634","name":"Schwalm-Eder-Kreis","type":"Landkreis"},"federalState":{"key":"06","name":"Hessen"}},{"name":"Jägerstr.","postalCode":"34286","locality":"Spangenberg","municipality":{"key":"06634024","name":"Spangenberg, Liebenbachstadt","type":"Stadt"},"district":{"key":"06634","name":"Schwalm-Eder-Kreis","type":"Landkreis"},"federalState":{"key":"06","name":"Hessen"}},{"name":"Jägerweg","postalCode":"34286","locality":"Spangenberg","municipality":{"key":"06634024","name":"Spangenberg, Liebenbachstadt","type":"Stadt"},"district":{"key":"06634","name":"Schwalm-Eder-Kreis","type":"Landkreis"},"federalState":{"key":"06","name":"Hessen"}},{"name":"Jahnstr.","postalCode":"34286","locality":"Spangenberg","municipality":{"key":"06634024","name":"Spangenberg, Liebenbachstadt","type":"Stadt"},"district":{"key":"06634","name":"Schwalm-Eder-Kreis","type":"Landkreis"},"federalState":{"key":"06","name":"Hessen"}},{"name":"Kaltenbacher Str.","postalCode":"34286","locality":"Spangenberg","municipality":{"key":"06634024","name":"Spangenberg, Liebenbachstadt","type":"Stadt"},"district":{"key":"06634","name":"Schwalm-Eder-Kreis","type":"Landkreis"},"federalState":{"key":"06","name":"Hessen"}},{"name":"Kapellenmüllerweg","postalCode":"34286","locality":"Spangenberg","municipality":{"key":"06634024","name":"Spangenberg, Liebenbachstadt","type":"Stadt"},"district":{"key":"06634","name":"Schwalm-Eder-Kreis","type":"Landkreis"},"federalState":{"key":"06","name":"Hessen"}},{"name":"Karl-Engelhardt-Str.","postalCode":"34286","locality":"Spangenberg","municipality":{"key":"06634024","name":"Spangenberg, Liebenbachstadt","type":"Stadt"},"district":{"key":"06634","name":"Schwalm-Eder-Kreis","type":"Landkreis"},"federalState":{"key":"06","name":"Hessen"}},{"name":"Kirchgäßchen","postalCode":"34286","locality":"Spangenberg","municipality":{"key":"06634024","name":"Spangenberg, Liebenbachstadt","type":"Stadt"},"district":{"key":"06634","name":"Schwalm-Eder-Kreis","type":"Landkreis"},"federalState":{"key":"06","name":"Hessen"}},{"name":"Kirchhofer Str.","postalCode":"34286","locality":"Spangenberg","municipality":{"key":"06634024","name":"Spangenberg, Liebenbachstadt","type":"Stadt"},"district":{"key":"06634","name":"Schwalm-Eder-Kreis","type":"Landkreis"},"federalState":{"key":"06","name":"Hessen"}},{"name":"Kirchplatz","postalCode":"34286","locality":"Spangenberg","municipality":{"key":"06634024","name":"Spangenberg, Liebenbachstadt","type":"Stadt"},"district":{"key":"06634","name":"Schwalm-Eder-Kreis","type":"Landkreis"},"federalState":{"key":"06","name":"Hessen"}},{"name":"Kirchwiesenbogen","postalCode":"34286","locality":"Spangenberg","municipality":{"key":"06634024","name":"Spangenberg, Liebenbachstadt","type":"Stadt"},"district":{"key":"06634","name":"Schwalm-Eder-Kreis","type":"Landkreis"},"federalState":{"key":"06","name":"Hessen"}},{"name":"Kirschweg","postalCode":"34286","locality":"Spangenberg","municipality":{"key":"06634024","name":"Spangenberg, Liebenbachstadt","type":"Stadt"},"district":{"key":"06634","name":"Schwalm-Eder-Kreis","type":"Landkreis"},"federalState":{"key":"06","name":"Hessen"}},{"name":"Klaushofsweg","postalCode":"34286","locality":"Spangenberg","municipality":{"key":"06634024","name":"Spangenberg, Liebenbachstadt","type":"Stadt"},"district":{"key":"06634","name":"Schwalm-Eder-Kreis","type":"Landkreis"},"federalState":{"key":"06","name":"Hessen"}},{"name":"Klosterstr.","postalCode":"34286","locality":"Spangenberg","municipality":{"key":"06634024","name":"Spangenberg, Liebenbachstadt","type":"Stadt"},"district":{"key":"06634","name":"Schwalm-Eder-Kreis","type":"Landkreis"},"federalState":{"key":"06","name":"Hessen"}},{"name":"Knobelsweg","postalCode":"34286","locality":"Spangenberg","municipality":{"key":"06634024","name":"Spangenberg, Liebenbachstadt","type":"Stadt"},"district":{"key":"06634","name":"Schwalm-Eder-Kreis","type":"Landkreis"},"federalState":{"key":"06","name":"Hessen"}},{"name":"Kosberg","postalCode":"34286","locality":"Spangenberg","municipality":{"key":"06634024","name":"Spangenberg, Liebenbachstadt","type":"Stadt"},"district":{"key":"06634","name":"Schwalm-Eder-Kreis","type":"Landkreis"},"federalState":{"key":"06","name":"Hessen"}},{"name":"Kümmelgasse","postalCode":"34286","locality":"Spangenberg","municipality":{"key":"06634024","name":"Spangenberg, Liebenbachstadt","type":"Stadt"},"district":{"key":"06634","name":"Schwalm-Eder-Kreis","type":"Landkreis"},"federalState":{"key":"06","name":"Hessen"}},{"name":"Küsterweg","postalCode":"34286","locality":"Spangenberg","municipality":{"key":"06634024","name":"Spangenberg, Liebenbachstadt","type":"Stadt"},"district":{"key":"06634","name":"Schwalm-Eder-Kreis","type":"Landkreis"},"federalState":{"key":"06","name":"Hessen"}},{"name":"Landefelder Weg","postalCode":"34286","locality":"Spangenberg","municipality":{"key":"06634024","name":"Spangenberg, Liebenbachstadt","type":"Stadt"},"district":{"key":"06634","name":"Schwalm-Eder-Kreis","type":"Landkreis"},"federalState":{"key":"06","name":"Hessen"}},{"name":"Landestr.","postalCode":"34286","locality":"Spangenberg","municipality":{"key":"06634024","name":"Spangenberg, Liebenbachstadt","type":"Stadt"},"district":{"key":"06634","name":"Schwalm-Eder-Kreis","type":"Landkreis"},"federalState":{"key":"06","name":"Hessen"}},{"name":"Landgraf-Philipp-Park","postalCode":"34286","locality":"Spangenberg","municipality":{"key":"06634024","name":"Spangenberg, Liebenbachstadt","type":"Stadt"},"district":{"key":"06634","name":"Schwalm-Eder-Kreis","type":"Landkreis"},"federalState":{"key":"06","name":"Hessen"}},{"name":"Lange Gasse","postalCode":"34286","locality":"Spangenberg","municipality":{"key":"06634024","name":"Spangenberg, Liebenbachstadt","type":"Stadt"},"district":{"key":"06634","name":"Schwalm-Eder-Kreis","type":"Landkreis"},"federalState":{"key":"06","name":"Hessen"}},{"name":"Lehmgrube","postalCode":"34286","locality":"Spangenberg","municipality":{"key":"06634024","name":"Spangenberg, Liebenbachstadt","type":"Stadt"},"district":{"key":"06634","name":"Schwalm-Eder-Kreis","type":"Landkreis"},"federalState":{"key":"06","name":"Hessen"}},{"name":"Lerchenweg","postalCode":"34286","locality":"Spangenberg","municipality":{"key":"06634024","name":"Spangenberg, Liebenbachstadt","type":"Stadt"},"district":{"key":"06634","name":"Schwalm-Eder-Kreis","type":"Landkreis"},"federalState":{"key":"06","name":"Hessen"}},{"name":"Liebenbachstr.","postalCode":"34286","locality":"Spangenberg","municipality":{"key":"06634024","name":"Spangenberg, Liebenbachstadt","type":"Stadt"},"district":{"key":"06634","name":"Schwalm-Eder-Kreis","type":"Landkreis"},"federalState":{"key":"06","name":"Hessen"}},{"name":"Lilienweg","postalCode":"34286","locality":"Spangenberg","municipality":{"key":"06634024","name":"Spangenberg, Liebenbachstadt","type":"Stadt"},"district":{"key":"06634","name":"Schwalm-Eder-Kreis","type":"Landkreis"},"federalState":{"key":"06","name":"Hessen"}},{"name":"Lindenstr.","postalCode":"34286","locality":"Spangenberg","municipality":{"key":"06634024","name":"Spangenberg, Liebenbachstadt","type":"Stadt"},"district":{"key":"06634","name":"Schwalm-Eder-Kreis","type":"Landkreis"},"federalState":{"key":"06","name":"Hessen"}},{"name":"Lochhofsweg","postalCode":"34286","locality":"Spangenberg","municipality":{"key":"06634024","name":"Spangenberg, Liebenbachstadt","type":"Stadt"},"district":{"key":"06634","name":"Schwalm-Eder-Kreis","type":"Landkreis"},"federalState":{"key":"06","name":"Hessen"}},{"name":"Lochmühle","postalCode":"34286","locality":"Spangenberg","municipality":{"key":"06634024","name":"Spangenberg, Liebenbachstadt","type":"Stadt"},"district":{"key":"06634","name":"Schwalm-Eder-Kreis","type":"Landkreis"},"federalState":{"key":"06","name":"Hessen"}},{"name":"Louis-Salzmann-Str.","postalCode":"34286","locality":"Spangenberg","municipality":{"key":"06634024","name":"Spangenberg, Liebenbachstadt","type":"Stadt"},"district":{"key":"06634","name":"Schwalm-Eder-Kreis","type":"Landkreis"},"federalState":{"key":"06","name":"Hessen"}},{"name":"Lückgarte","postalCode":"34286","locality":"Spangenberg","municipality":{"key":"06634024","name":"Spangenberg, Liebenbachstadt","type":"Stadt"},"district":{"key":"06634","name":"Schwalm-Eder-Kreis","type":"Landkreis"},"federalState":{"key":"06","name":"Hessen"}},{"name":"Malsbergstr.","postalCode":"34286","locality":"Spangenberg","municipality":{"key":"06634024","name":"Spangenberg, Liebenbachstadt","type":"Stadt"},"district":{"key":"06634","name":"Schwalm-Eder-Kreis","type":"Landkreis"},"federalState":{"key":"06","name":"Hessen"}},{"name":"Marktplatz","postalCode":"34286","locality":"Spangenberg","municipality":{"key":"06634024","name":"Spangenberg, Liebenbachstadt","type":"Stadt"},"district":{"key":"06634","name":"Schwalm-Eder-Kreis","type":"Landkreis"},"federalState":{"key":"06","name":"Hessen"}},{"name":"Märzgasse","postalCode":"34286","locality":"Spangenberg","municipality":{"key":"06634024","name":"Spangenberg, Liebenbachstadt","type":"Stadt"},"district":{"key":"06634","name":"Schwalm-Eder-Kreis","type":"Landkreis"},"federalState":{"key":"06","name":"Hessen"}},{"name":"Melsunger Str.","postalCode":"34286","locality":"Spangenberg","municipality":{"key":"06634024","name":"Spangenberg, Liebenbachstadt","type":"Stadt"},"district":{"key":"06634","name":"Schwalm-Eder-Kreis","type":"Landkreis"},"federalState":{"key":"06","name":"Hessen"}},{"name":"Metzebacher Str.","postalCode":"34286","locality":"Spangenberg","municipality":{"key":"06634024","name":"Spangenberg, Liebenbachstadt","type":"Stadt"},"district":{"key":"06634","name":"Schwalm-Eder-Kreis","type":"Landkreis"},"federalState":{"key":"06","name":"Hessen"}},{"name":"Mittelgasse","postalCode":"34286","locality":"Spangenberg","municipality":{"key":"06634024","name":"Spangenberg, Liebenbachstadt","type":"Stadt"},"district":{"key":"06634","name":"Schwalm-Eder-Kreis","type":"Landkreis"},"federalState":{"key":"06","name":"Hessen"}},{"name":"Morscher Weg","postalCode":"34286","locality":"Spangenberg","municipality":{"key":"06634024","name":"Spangenberg, Liebenbachstadt","type":"Stadt"},"district":{"key":"06634","name":"Schwalm-Eder-Kreis","type":"Landkreis"},"federalState":{"key":"06","name":"Hessen"}},{"name":"Mühlenstr.","postalCode":"34286","locality":"Spangenberg","municipality":{"key":"06634024","name":"Spangenberg, Liebenbachstadt","type":"Stadt"},"district":{"key":"06634","name":"Schwalm-Eder-Kreis","type":"Landkreis"},"federalState":{"key":"06","name":"Hessen"}},{"name":"Müllersweg","postalCode":"34286","locality":"Spangenberg","municipality":{"key":"06634024","name":"Spangenberg, Liebenbachstadt","type":"Stadt"},"district":{"key":"06634","name":"Schwalm-Eder-Kreis","type":"Landkreis"},"federalState":{"key":"06","name":"Hessen"}},{"name":"Nausiser Str.","postalCode":"34286","locality":"Spangenberg","municipality":{"key":"06634024","name":"Spangenberg, Liebenbachstadt","type":"Stadt"},"district":{"key":"06634","name":"Schwalm-Eder-Kreis","type":"Landkreis"},"federalState":{"key":"06","name":"Hessen"}},{"name":"Nelkenweg","postalCode":"34286","locality":"Spangenberg","municipality":{"key":"06634024","name":"Spangenberg, Liebenbachstadt","type":"Stadt"},"district":{"key":"06634","name":"Schwalm-Eder-Kreis","type":"Landkreis"},"federalState":{"key":"06","name":"Hessen"}},{"name":"Neuendorfer Str.","postalCode":"34286","locality":"Spangenberg","municipality":{"key":"06634024","name":"Spangenberg, Liebenbachstadt","type":"Stadt"},"district":{"key":"06634","name":"Schwalm-Eder-Kreis","type":"Landkreis"},"federalState":{"key":"06","name":"Hessen"}},{"name":"Neuer Weg","postalCode":"34286","locality":"Spangenberg","municipality":{"key":"06634024","name":"Spangenberg, Liebenbachstadt","type":"Stadt"},"district":{"key":"06634","name":"Schwalm-Eder-Kreis","type":"Landkreis"},"federalState":{"key":"06","name":"Hessen"}},{"name":"Neue Str.","postalCode":"34286","locality":"Spangenberg","municipality":{"key":"06634024","name":"Spangenberg, Liebenbachstadt","type":"Stadt"},"district":{"key":"06634","name":"Schwalm-Eder-Kreis","type":"Landkreis"},"federalState":{"key":"06","name":"Hessen"}},{"name":"Neustadt","postalCode":"34286","locality":"Spangenberg","municipality":{"key":"06634024","name":"Spangenberg, Liebenbachstadt","type":"Stadt"},"district":{"key":"06634","name":"Schwalm-Eder-Kreis","type":"Landkreis"},"federalState":{"key":"06","name":"Hessen"}},{"name":"Nußgasse","postalCode":"34286","locality":"Spangenberg","municipality":{"key":"06634024","name":"Spangenberg, Liebenbachstadt","type":"Stadt"},"district":{"key":"06634","name":"Schwalm-Eder-Kreis","type":"Landkreis"},"federalState":{"key":"06","name":"Hessen"}},{"name":"Oberdorf","postalCode":"34286","locality":"Spangenberg","municipality":{"key":"06634024","name":"Spangenberg, Liebenbachstadt","type":"Stadt"},"district":{"key":"06634","name":"Schwalm-Eder-Kreis","type":"Landkreis"},"federalState":{"key":"06","name":"Hessen"}},{"name":"Oberer Schleifrain","postalCode":"34286","locality":"Spangenberg","municipality":{"key":"06634024","name":"Spangenberg, Liebenbachstadt","type":"Stadt"},"district":{"key":"06634","name":"Schwalm-Eder-Kreis","type":"Landkreis"},"federalState":{"key":"06","name":"Hessen"}},{"name":"Obergasse","postalCode":"34286","locality":"Spangenberg","municipality":{"key":"06634024","name":"Spangenberg, Liebenbachstadt","type":"Stadt"},"district":{"key":"06634","name":"Schwalm-Eder-Kreis","type":"Landkreis"},"federalState":{"key":"06","name":"Hessen"}},{"name":"Oberguder Str.","postalCode":"34286","locality":"Spangenberg","municipality":{"key":"06634024","name":"Spangenberg, Liebenbachstadt","type":"Stadt"},"district":{"key":"06634","name":"Schwalm-Eder-Kreis","type":"Landkreis"},"federalState":{"key":"06","name":"Hessen"}},{"name":"Oberhain","postalCode":"34286","locality":"Spangenberg","municipality":{"key":"06634024","name":"Spangenberg, Liebenbachstadt","type":"Stadt"},"district":{"key":"06634","name":"Schwalm-Eder-Kreis","type":"Landkreis"},"federalState":{"key":"06","name":"Hessen"}},{"name":"Pfarrstr.","postalCode":"34286","locality":"Spangenberg","municipality":{"key":"06634024","name":"Spangenberg, Liebenbachstadt","type":"Stadt"},"district":{"key":"06634","name":"Schwalm-Eder-Kreis","type":"Landkreis"},"federalState":{"key":"06","name":"Hessen"}},{"name":"Pfieffer Str.","postalCode":"34286","locality":"Spangenberg","municipality":{"key":"06634024","name":"Spangenberg, Liebenbachstadt","type":"Stadt"},"district":{"key":"06634","name":"Schwalm-Eder-Kreis","type":"Landkreis"},"federalState":{"key":"06","name":"Hessen"}},{"name":"Platzgasse","postalCode":"34286","locality":"Spangenberg","municipality":{"key":"06634024","name":"Spangenberg, Liebenbachstadt","type":"Stadt"},"district":{"key":"06634","name":"Schwalm-Eder-Kreis","type":"Landkreis"},"federalState":{"key":"06","name":"Hessen"}},{"name":"Poststr.","postalCode":"34286","locality":"Spangenberg","municipality":{"key":"06634024","name":"Spangenberg, Liebenbachstadt","type":"Stadt"},"district":{"key":"06634","name":"Schwalm-Eder-Kreis","type":"Landkreis"},"federalState":{"key":"06","name":"Hessen"}},{"name":"Rathausstr.","postalCode":"34286","locality":"Spangenberg","municipality":{"key":"06634024","name":"Spangenberg, Liebenbachstadt","type":"Stadt"},"district":{"key":"06634","name":"Schwalm-Eder-Kreis","type":"Landkreis"},"federalState":{"key":"06","name":"Hessen"}},{"name":"Rollbach","postalCode":"34286","locality":"Spangenberg","municipality":{"key":"06634024","name":"Spangenberg, Liebenbachstadt","type":"Stadt"},"district":{"key":"06634","name":"Schwalm-Eder-Kreis","type":"Landkreis"},"federalState":{"key":"06","name":"Hessen"}},{"name":"Rose","postalCode":"34286","locality":"Spangenberg","municipality":{"key":"06634024","name":"Spangenberg, Liebenbachstadt","type":"Stadt"},"district":{"key":"06634","name":"Schwalm-Eder-Kreis","type":"Landkreis"},"federalState":{"key":"06","name":"Hessen"}},{"name":"Rotenburger Weg","postalCode":"34286","locality":"Spangenberg","municipality":{"key":"06634024","name":"Spangenberg, Liebenbachstadt","type":"Stadt"},"district":{"key":"06634","name":"Schwalm-Eder-Kreis","type":"Landkreis"},"federalState":{"key":"06","name":"Hessen"}},{"name":"Roter Weg","postalCode":"34286","locality":"Spangenberg","municipality":{"key":"06634024","name":"Spangenberg, Liebenbachstadt","type":"Stadt"},"district":{"key":"06634","name":"Schwalm-Eder-Kreis","type":"Landkreis"},"federalState":{"key":"06","name":"Hessen"}},{"name":"Röthestr.","postalCode":"34286","locality":"Spangenberg","municipality":{"key":"06634024","name":"Spangenberg, Liebenbachstadt","type":"Stadt"},"district":{"key":"06634","name":"Schwalm-Eder-Kreis","type":"Landkreis"},"federalState":{"key":"06","name":"Hessen"}},{"name":"Rottheil","postalCode":"34286","locality":"Spangenberg","municipality":{"key":"06634024","name":"Spangenberg, Liebenbachstadt","type":"Stadt"},"district":{"key":"06634","name":"Schwalm-Eder-Kreis","type":"Landkreis"},"federalState":{"key":"06","name":"Hessen"}},{"name":"S4A","postalCode":"34286","locality":"Spangenberg","municipality":{"key":"06634024","name":"Spangenberg, Liebenbachstadt","type":"Stadt"},"district":{"key":"06634","name":"Schwalm-Eder-Kreis","type":"Landkreis"},"federalState":{"key":"06","name":"Hessen"}},{"name":"Sandgrabenstr.","postalCode":"34286","locality":"Spangenberg","municipality":{"key":"06634024","name":"Spangenberg, Liebenbachstadt","type":"Stadt"},"district":{"key":"06634","name":"Schwalm-Eder-Kreis","type":"Landkreis"},"federalState":{"key":"06","name":"Hessen"}},{"name":"Sandstr.","postalCode":"34286","locality":"Spangenberg","municipality":{"key":"06634024","name":"Spangenberg, Liebenbachstadt","type":"Stadt"},"district":{"key":"06634","name":"Schwalm-Eder-Kreis","type":"Landkreis"},"federalState":{"key":"06","name":"Hessen"}},{"name":"Sankt Jacob","postalCode":"34286","locality":"Spangenberg","municipality":{"key":"06634024","name":"Spangenberg, Liebenbachstadt","type":"Stadt"},"district":{"key":"06634","name":"Schwalm-Eder-Kreis","type":"Landkreis"},"federalState":{"key":"06","name":"Hessen"}},{"name":"Schafgasse","postalCode":"34286","locality":"Spangenberg","municipality":{"key":"06634024","name":"Spangenberg, Liebenbachstadt","type":"Stadt"},"district":{"key":"06634","name":"Schwalm-Eder-Kreis","type":"Landkreis"},"federalState":{"key":"06","name":"Hessen"}},{"name":"Scheideweg","postalCode":"34286","locality":"Spangenberg","municipality":{"key":"06634024","name":"Spangenberg, Liebenbachstadt","type":"Stadt"},"district":{"key":"06634","name":"Schwalm-Eder-Kreis","type":"Landkreis"},"federalState":{"key":"06","name":"Hessen"}},{"name":"Schleifrainstr.","postalCode":"34286","locality":"Spangenberg","municipality":{"key":"06634024","name":"Spangenberg, Liebenbachstadt","type":"Stadt"},"district":{"key":"06634","name":"Schwalm-Eder-Kreis","type":"Landkreis"},"federalState":{"key":"06","name":"Hessen"}},{"name":"Schnellröder Str.","postalCode":"34286","locality":"Spangenberg","municipality":{"key":"06634024","name":"Spangenberg, Liebenbachstadt","type":"Stadt"},"district":{"key":"06634","name":"Schwalm-Eder-Kreis","type":"Landkreis"},"federalState":{"key":"06","name":"Hessen"}},{"name":"Schöffhöfen","postalCode":"34286","locality":"Spangenberg","municipality":{"key":"06634024","name":"Spangenberg, Liebenbachstadt","type":"Stadt"},"district":{"key":"06634","name":"Schwalm-Eder-Kreis","type":"Landkreis"},"federalState":{"key":"06","name":"Hessen"}},{"name":"Schöpbach","postalCode":"34286","locality":"Spangenberg","municipality":{"key":"06634024","name":"Spangenberg, Liebenbachstadt","type":"Stadt"},"district":{"key":"06634","name":"Schwalm-Eder-Kreis","type":"Landkreis"},"federalState":{"key":"06","name":"Hessen"}},{"name":"Schrebergärten","postalCode":"34286","locality":"Spangenberg","municipality":{"key":"06634024","name":"Spangenberg, Liebenbachstadt","type":"Stadt"},"district":{"key":"06634","name":"Schwalm-Eder-Kreis","type":"Landkreis"},"federalState":{"key":"06","name":"Hessen"}},{"name":"Schulstr.","postalCode":"34286","locality":"Spangenberg","municipality":{"key":"06634024","name":"Spangenberg, Liebenbachstadt","type":"Stadt"},"district":{"key":"06634","name":"Schwalm-Eder-Kreis","type":"Landkreis"},"federalState":{"key":"06","name":"Hessen"}},{"name":"Seefeldstr.","postalCode":"34286","locality":"Spangenberg","municipality":{"key":"06634024","name":"Spangenberg, Liebenbachstadt","type":"Stadt"},"district":{"key":"06634","name":"Schwalm-Eder-Kreis","type":"Landkreis"},"federalState":{"key":"06","name":"Hessen"}},{"name":"Spangenberger Str.","postalCode":"34286","locality":"Spangenberg","municipality":{"key":"06634024","name":"Spangenberg, Liebenbachstadt","type":"Stadt"},"district":{"key":"06634","name":"Schwalm-Eder-Kreis","type":"Landkreis"},"federalState":{"key":"06","name":"Hessen"}},{"name":"Sportplatzstr.","postalCode":"34286","locality":"Spangenberg","municipality":{"key":"06634024","name":"Spangenberg, Liebenbachstadt","type":"Stadt"},"district":{"key":"06634","name":"Schwalm-Eder-Kreis","type":"Landkreis"},"federalState":{"key":"06","name":"Hessen"}},{"name":"Städterain","postalCode":"34286","locality":"Spangenberg","municipality":{"key":"06634024","name":"Spangenberg, Liebenbachstadt","type":"Stadt"},"district":{"key":"06634","name":"Schwalm-Eder-Kreis","type":"Landkreis"},"federalState":{"key":"06","name":"Hessen"}},{"name":"Steinweg","postalCode":"34286","locality":"Spangenberg","municipality":{"key":"06634024","name":"Spangenberg, Liebenbachstadt","type":"Stadt"},"district":{"key":"06634","name":"Schwalm-Eder-Kreis","type":"Landkreis"},"federalState":{"key":"06","name":"Hessen"}},{"name":"Stölzinger Str.","postalCode":"34286","locality":"Spangenberg","municipality":{"key":"06634024","name":"Spangenberg, Liebenbachstadt","type":"Stadt"},"district":{"key":"06634","name":"Schwalm-Eder-Kreis","type":"Landkreis"},"federalState":{"key":"06","name":"Hessen"}},{"name":"Struthweg","postalCode":"34286","locality":"Spangenberg","municipality":{"key":"06634024","name":"Spangenberg, Liebenbachstadt","type":"Stadt"},"district":{"key":"06634","name":"Schwalm-Eder-Kreis","type":"Landkreis"},"federalState":{"key":"06","name":"Hessen"}},{"name":"Tannenweg","postalCode":"34286","locality":"Spangenberg","municipality":{"key":"06634024","name":"Spangenberg, Liebenbachstadt","type":"Stadt"},"district":{"key":"06634","name":"Schwalm-Eder-Kreis","type":"Landkreis"},"federalState":{"key":"06","name":"Hessen"}},{"name":"Teichberg","postalCode":"34286","locality":"Spangenberg","municipality":{"key":"06634024","name":"Spangenberg, Liebenbachstadt","type":"Stadt"},"district":{"key":"06634","name":"Schwalm-Eder-Kreis","type":"Landkreis"},"federalState":{"key":"06","name":"Hessen"}},{"name":"Torhof","postalCode":"34286","locality":"Spangenberg","municipality":{"key":"06634024","name":"Spangenberg, Liebenbachstadt","type":"Stadt"},"district":{"key":"06634","name":"Schwalm-Eder-Kreis","type":"Landkreis"},"federalState":{"key":"06","name":"Hessen"}},{"name":"Tränkeweg","postalCode":"34286","locality":"Spangenberg","municipality":{"key":"06634024","name":"Spangenberg, Liebenbachstadt","type":"Stadt"},"district":{"key":"06634","name":"Schwalm-Eder-Kreis","type":"Landkreis"},"federalState":{"key":"06","name":"Hessen"}},{"name":"Trift","postalCode":"34286","locality":"Spangenberg","municipality":{"key":"06634024","name":"Spangenberg, Liebenbachstadt","type":"Stadt"},"district":{"key":"06634","name":"Schwalm-Eder-Kreis","type":"Landkreis"},"federalState":{"key":"06","name":"Hessen"}},{"name":"Tulpenweg","postalCode":"34286","locality":"Spangenberg","municipality":{"key":"06634024","name":"Spangenberg, Liebenbachstadt","type":"Stadt"},"district":{"key":"06634","name":"Schwalm-Eder-Kreis","type":"Landkreis"},"federalState":{"key":"06","name":"Hessen"}},{"name":"Unter dem Heil","postalCode":"34286","locality":"Spangenberg","municipality":{"key":"06634024","name":"Spangenberg, Liebenbachstadt","type":"Stadt"},"district":{"key":"06634","name":"Schwalm-Eder-Kreis","type":"Landkreis"},"federalState":{"key":"06","name":"Hessen"}},{"name":"Unterer Rollbach","postalCode":"34286","locality":"Spangenberg","municipality":{"key":"06634024","name":"Spangenberg, Liebenbachstadt","type":"Stadt"},"district":{"key":"06634","name":"Schwalm-Eder-Kreis","type":"Landkreis"},"federalState":{"key":"06","name":"Hessen"}},{"name":"Untergasse","postalCode":"34286","locality":"Spangenberg","municipality":{"key":"06634024","name":"Spangenberg, Liebenbachstadt","type":"Stadt"},"district":{"key":"06634","name":"Schwalm-Eder-Kreis","type":"Landkreis"},"federalState":{"key":"06","name":"Hessen"}},{"name":"Unterhain","postalCode":"34286","locality":"Spangenberg","municipality":{"key":"06634024","name":"Spangenberg, Liebenbachstadt","type":"Stadt"},"district":{"key":"06634","name":"Schwalm-Eder-Kreis","type":"Landkreis"},"federalState":{"key":"06","name":"Hessen"}},{"name":"Verladestr.","postalCode":"34286","locality":"Spangenberg","municipality":{"key":"06634024","name":"Spangenberg, Liebenbachstadt","type":"Stadt"},"district":{"key":"06634","name":"Schwalm-Eder-Kreis","type":"Landkreis"},"federalState":{"key":"06","name":"Hessen"}},{"name":"Vockenbergsweg","postalCode":"34286","locality":"Spangenberg","municipality":{"key":"06634024","name":"Spangenberg, Liebenbachstadt","type":"Stadt"},"district":{"key":"06634","name":"Schwalm-Eder-Kreis","type":"Landkreis"},"federalState":{"key":"06","name":"Hessen"}},{"name":"Von-Müldner-Str.","postalCode":"34286","locality":"Spangenberg","municipality":{"key":"06634024","name":"Spangenberg, Liebenbachstadt","type":"Stadt"},"district":{"key":"06634","name":"Schwalm-Eder-Kreis","type":"Landkreis"},"federalState":{"key":"06","name":"Hessen"}},{"name":"Waldkappler Str.","postalCode":"34286","locality":"Spangenberg","municipality":{"key":"06634024","name":"Spangenberg, Liebenbachstadt","type":"Stadt"},"district":{"key":"06634","name":"Schwalm-Eder-Kreis","type":"Landkreis"},"federalState":{"key":"06","name":"Hessen"}},{"name":"Waldstr.","postalCode":"34286","locality":"Spangenberg","municipality":{"key":"06634024","name":"Spangenberg, Liebenbachstadt","type":"Stadt"},"district":{"key":"06634","name":"Schwalm-Eder-Kreis","type":"Landkreis"},"federalState":{"key":"06","name":"Hessen"}},{"name":"Weidelbacher Str.","postalCode":"34286","locality":"Spangenberg","municipality":{"key":"06634024","name":"Spangenberg, Liebenbachstadt","type":"Stadt"},"district":{"key":"06634","name":"Schwalm-Eder-Kreis","type":"Landkreis"},"federalState":{"key":"06","name":"Hessen"}},{"name":"Weingartenstr.","postalCode":"34286","locality":"Spangenberg","municipality":{"key":"06634024","name":"Spangenberg, Liebenbachstadt","type":"Stadt"},"district":{"key":"06634","name":"Schwalm-Eder-Kreis","type":"Landkreis"},"federalState":{"key":"06","name":"Hessen"}},{"name":"Weißenburgstr.","postalCode":"34286","locality":"Spangenberg","municipality":{"key":"06634024","name":"Spangenberg, Liebenbachstadt","type":"Stadt"},"district":{"key":"06634","name":"Schwalm-Eder-Kreis","type":"Landkreis"},"federalState":{"key":"06","name":"Hessen"}},{"name":"Wendeweg","postalCode":"34286","locality":"Spangenberg","municipality":{"key":"06634024","name":"Spangenberg, Liebenbachstadt","type":"Stadt"},"district":{"key":"06634","name":"Schwalm-Eder-Kreis","type":"Landkreis"},"federalState":{"key":"06","name":"Hessen"}},{"name":"Wickersröder Str.","postalCode":"34286","locality":"Spangenberg","municipality":{"key":"06634024","name":"Spangenberg, Liebenbachstadt","type":"Stadt"},"district":{"key":"06634","name":"Schwalm-Eder-Kreis","type":"Landkreis"},"federalState":{"key":"06","name":"Hessen"}},{"name":"Wiesenweg","postalCode":"34286","locality":"Spangenberg","municipality":{"key":"06634024","name":"Spangenberg, Liebenbachstadt","type":"Stadt"},"district":{"key":"06634","name":"Schwalm-Eder-Kreis","type":"Landkreis"},"federalState":{"key":"06","name":"Hessen"}},{"name":"Wildbahn X3, ARS NATURA","postalCode":"34286","locality":"Spangenberg","municipality":{"key":"06634024","name":"Spangenberg, Liebenbachstadt","type":"Stadt"},"district":{"key":"06634","name":"Schwalm-Eder-Kreis","type":"Landkreis"},"federalState":{"key":"06","name":"Hessen"}},{"name":"X3, Ars Natura","postalCode":"34286","locality":"Spangenberg","municipality":{"key":"06634024","name":"Spangenberg, Liebenbachstadt","type":"Stadt"},"district":{"key":"06634","name":"Schwalm-Eder-Kreis","type":"Landkreis"},"federalState":{"key":"06","name":"Hessen"}},{"name":"Zum Alten Bahnhof","postalCode":"34286","locality":"Spangenberg","municipality":{"key":"06634024","name":"Spangenberg, Liebenbachstadt","type":"Stadt"},"district":{"key":"06634","name":"Schwalm-Eder-Kreis","type":"Landkreis"},"federalState":{"key":"06","name":"Hessen"}},{"name":"Zum alten Haltepunkt","postalCode":"34286","locality":"Spangenberg","municipality":{"key":"06634024","name":"Spangenberg, Liebenbachstadt","type":"Stadt"},"district":{"key":"06634","name":"Schwalm-Eder-Kreis","type":"Landkreis"},"federalState":{"key":"06","name":"Hessen"}},{"name":"Zum Eiberg","postalCode":"34286","locality":"Spangenberg","municipality":{"key":"06634024","name":"Spangenberg, Liebenbachstadt","type":"Stadt"},"district":{"key":"06634","name":"Schwalm-Eder-Kreis","type":"Landkreis"},"federalState":{"key":"06","name":"Hessen"}},{"name":"Zum Eichholz","postalCode":"34286","locality":"Spangenberg","municipality":{"key":"06634024","name":"Spangenberg, Liebenbachstadt","type":"Stadt"},"district":{"key":"06634","name":"Schwalm-Eder-Kreis","type":"Landkreis"},"federalState":{"key":"06","name":"Hessen"}},{"name":"Zum Eisberg","postalCode":"34286","locality":"Spangenberg","municipality":{"key":"06634024","name":"Spangenberg, Liebenbachstadt","type":"Stadt"},"district":{"key":"06634","name":"Schwalm-Eder-Kreis","type":"Landkreis"},"federalState":{"key":"06","name":"Hessen"}},{"name":"Zum Giersgrund","postalCode":"34286","locality":"Spangenberg","municipality":{"key":"06634024","name":"Spangenberg, Liebenbachstadt","type":"Stadt"},"district":{"key":"06634","name":"Schwalm-Eder-Kreis","type":"Landkreis"},"federalState":{"key":"06","name":"Hessen"}},{"name":"Zum Großen Stein","postalCode":"34286","locality":"Spangenberg","municipality":{"key":"06634024","name":"Spangenberg, Liebenbachstadt","type":"Stadt"},"district":{"key":"06634","name":"Schwalm-Eder-Kreis","type":"Landkreis"},"federalState":{"key":"06","name":"Hessen"}},{"name":"Zum Hasenkopf","postalCode":"34286","locality":"Spangenberg","municipality":{"key":"06634024","name":"Spangenberg, Liebenbachstadt","type":"Stadt"},"district":{"key":"06634","name":"Schwalm-Eder-Kreis","type":"Landkreis"},"federalState":{"key":"06","name":"Hessen"}},{"name":"Zum Himmelsfels","postalCode":"34286","locality":"Spangenberg","municipality":{"key":"06634024","name":"Spangenberg, Liebenbachstadt","type":"Stadt"},"district":{"key":"06634","name":"Schwalm-Eder-Kreis","type":"Landkreis"},"federalState":{"key":"06","name":"Hessen"}},{"name":"Zum Jägerborn","postalCode":"34286","locality":"Spangenberg","municipality":{"key":"06634024","name":"Spangenberg, Liebenbachstadt","type":"Stadt"},"district":{"key":"06634","name":"Schwalm-Eder-Kreis","type":"Landkreis"},"federalState":{"key":"06","name":"Hessen"}},{"name":"Zum Laudenberg","postalCode":"34286","locality":"Spangenberg","municipality":{"key":"06634024","name":"Spangenberg, Liebenbachstadt","type":"Stadt"},"district":{"key":"06634","name":"Schwalm-Eder-Kreis","type":"Landkreis"},"federalState":{"key":"06","name":"Hessen"}},{"name":"Zum Pfieffer Berg","postalCode":"34286","locality":"Spangenberg","municipality":{"key":"06634024","name":"Spangenberg, Liebenbachstadt","type":"Stadt"},"district":{"key":"06634","name":"Schwalm-Eder-Kreis","type":"Landkreis"},"federalState":{"key":"06","name":"Hessen"}},{"name":"Zum Rosenberg","postalCode":"34286","locality":"Spangenberg","municipality":{"key":"06634024","name":"Spangenberg, Liebenbachstadt","type":"Stadt"},"district":{"key":"06634","name":"Schwalm-Eder-Kreis","type":"Landkreis"},"federalState":{"key":"06","name":"Hessen"}},{"name":"Zum Schöneberg","postalCode":"34286","locality":"Spangenberg","municipality":{"key":"06634024","name":"Spangenberg, Liebenbachstadt","type":"Stadt"},"district":{"key":"06634","name":"Schwalm-Eder-Kreis","type":"Landkreis"},"federalState":{"key":"06","name":"Hessen"}},{"name":"Zum Schönfeld","postalCode":"34286","locality":"Spangenberg","municipality":{"key":"06634024","name":"Spangenberg, Liebenbachstadt","type":"Stadt"},"district":{"key":"06634","name":"Schwalm-Eder-Kreis","type":"Landkreis"},"federalState":{"key":"06","name":"Hessen"}},{"name":"Zum Steinbach","postalCode":"34286","locality":"Spangenberg","municipality":{"key":"06634024","name":"Spangenberg, Liebenbachstadt","type":"Stadt"},"district":{"key":"06634","name":"Schwalm-Eder-Kreis","type":"Landkreis"},"federalState":{"key":"06","name":"Hessen"}},{"name":"Zur Birkenhecke","postalCode":"34286","locality":"Spangenberg","municipality":{"key":"06634024","name":"Spangenberg, Liebenbachstadt","type":"Stadt"},"district":{"key":"06634","name":"Schwalm-Eder-Kreis","type":"Landkreis"},"federalState":{"key":"06","name":"Hessen"}},{"name":"Zur Eselsdelle","postalCode":"34286","locality":"Spangenberg","municipality":{"key":"06634024","name":"Spangenberg, Liebenbachstadt","type":"Stadt"},"district":{"key":"06634","name":"Schwalm-Eder-Kreis","type":"Landkreis"},"federalState":{"key":"06","name":"Hessen"}},{"name":"Zur Hainbuche","postalCode":"34286","locality":"Spangenberg","municipality":{"key":"06634024","name":"Spangenberg, Liebenbachstadt","type":"Stadt"},"district":{"key":"06634","name":"Schwalm-Eder-Kreis","type":"Landkreis"},"federalState":{"key":"06","name":"Hessen"}},{"name":"Zur Muschel","postalCode":"34286","locality":"Spangenberg","municipality":{"key":"06634024","name":"Spangenberg, Liebenbachstadt","type":"Stadt"},"district":{"key":"06634","name":"Schwalm-Eder-Kreis","type":"Landkreis"},"federalState":{"key":"06","name":"Hessen"}},{"name":"Zur Scherwiese","postalCode":"34286","locality":"Spangenberg","municipality":{"key":"06634024","name":"Spangenberg, Liebenbachstadt","type":"Stadt"},"district":{"key":"06634","name":"Schwalm-Eder-Kreis","type":"Landkreis"},"federalState":{"key":"06","name":"Hessen"}},{"name":"Zur Schönen Aussicht","postalCode":"34286","locality":"Spangenberg","municipality":{"key":"06634024","name":"Spangenberg, Liebenbachstadt","type":"Stadt"},"district":{"key":"06634","name":"Schwalm-Eder-Kreis","type":"Landkreis"},"federalState":{"key":"06","name":"Hessen"}},{"name":"Zur Schrecke","postalCode":"34286","locality":"Spangenberg","municipality":{"key":"06634024","name":"Spangenberg, Liebenbachstadt","type":"Stadt"},"district":{"key":"06634","name":"Schwalm-Eder-Kreis","type":"Landkreis"},"federalState":{"key":"06","name":"Hessen"}},{"name":"Zur Schwane","postalCode":"34286","locality":"Spangenberg","municipality":{"key":"06634024","name":"Spangenberg, Liebenbachstadt","type":"Stadt"},"district":{"key":"06634","name":"Schwalm-Eder-Kreis","type":"Landkreis"},"federalState":{"key":"06","name":"Hessen"}},{"name":"Zur Tanne","postalCode":"34286","locality":"Spangenberg","municipality":{"key":"06634024","name":"Spangenberg, Liebenbachstadt","type":"Stadt"},"district":{"key":"06634","name":"Schwalm-Eder-Kreis","type":"Landkreis"},"federalState":{"key":"06","name":"Hessen"}},]