[{"name":"Am Feldrain","postalCode":"18198","locality":"Stäbelow","municipality":{"key":"13072098","name":"Stäbelow","type":"Kreisangehörige_Gemeinde"},"district":{"key":"13072","name":"Landkreis Rostock","type":"Landkreis"},"federalState":{"key":"13","name":"Mecklenburg-Vorpommern"}},{"name":"An der Streuobstwiese","postalCode":"18198","locality":"Stäbelow","municipality":{"key":"13072098","name":"Stäbelow","type":"Kreisangehörige_Gemeinde"},"district":{"key":"13072","name":"Landkreis Rostock","type":"Landkreis"},"federalState":{"key":"13","name":"Mecklenburg-Vorpommern"}},{"name":"Dorfstr.","postalCode":"18198","locality":"Stäbelow","municipality":{"key":"13072098","name":"Stäbelow","type":"Kreisangehörige_Gemeinde"},"district":{"key":"13072","name":"Landkreis Rostock","type":"Landkreis"},"federalState":{"key":"13","name":"Mecklenburg-Vorpommern"}},{"name":"Ebereschenweg","postalCode":"18198","locality":"Stäbelow","municipality":{"key":"13072098","name":"Stäbelow","type":"Kreisangehörige_Gemeinde"},"district":{"key":"13072","name":"Landkreis Rostock","type":"Landkreis"},"federalState":{"key":"13","name":"Mecklenburg-Vorpommern"}},{"name":"Erlenweg","postalCode":"18198","locality":"Stäbelow","municipality":{"key":"13072098","name":"Stäbelow","type":"Kreisangehörige_Gemeinde"},"district":{"key":"13072","name":"Landkreis Rostock","type":"Landkreis"},"federalState":{"key":"13","name":"Mecklenburg-Vorpommern"}},{"name":"Fahrenholzer Weg","postalCode":"18198","locality":"Stäbelow","municipality":{"key":"13072098","name":"Stäbelow","type":"Kreisangehörige_Gemeinde"},"district":{"key":"13072","name":"Landkreis Rostock","type":"Landkreis"},"federalState":{"key":"13","name":"Mecklenburg-Vorpommern"}},{"name":"Feldweg","postalCode":"18198","locality":"Stäbelow","municipality":{"key":"13072098","name":"Stäbelow","type":"Kreisangehörige_Gemeinde"},"district":{"key":"13072","name":"Landkreis Rostock","type":"Landkreis"},"federalState":{"key":"13","name":"Mecklenburg-Vorpommern"}},{"name":"Forstwiese","postalCode":"18198","locality":"Stäbelow","municipality":{"key":"13072098","name":"Stäbelow","type":"Kreisangehörige_Gemeinde"},"district":{"key":"13072","name":"Landkreis Rostock","type":"Landkreis"},"federalState":{"key":"13","name":"Mecklenburg-Vorpommern"}},{"name":"Hagebuttenring","postalCode":"18198","locality":"Stäbelow","municipality":{"key":"13072098","name":"Stäbelow","type":"Kreisangehörige_Gemeinde"},"district":{"key":"13072","name":"Landkreis Rostock","type":"Landkreis"},"federalState":{"key":"13","name":"Mecklenburg-Vorpommern"}},{"name":"Holunderweg","postalCode":"18198","locality":"Stäbelow","municipality":{"key":"13072098","name":"Stäbelow","type":"Kreisangehörige_Gemeinde"},"district":{"key":"13072","name":"Landkreis Rostock","type":"Landkreis"},"federalState":{"key":"13","name":"Mecklenburg-Vorpommern"}},{"name":"Kastanienstr.","postalCode":"18198","locality":"Stäbelow","municipality":{"key":"13072098","name":"Stäbelow","type":"Kreisangehörige_Gemeinde"},"district":{"key":"13072","name":"Landkreis Rostock","type":"Landkreis"},"federalState":{"key":"13","name":"Mecklenburg-Vorpommern"}},{"name":"Kindergartenweg","postalCode":"18198","locality":"Stäbelow","municipality":{"key":"13072098","name":"Stäbelow","type":"Kreisangehörige_Gemeinde"},"district":{"key":"13072","name":"Landkreis Rostock","type":"Landkreis"},"federalState":{"key":"13","name":"Mecklenburg-Vorpommern"}},{"name":"Konower Weg","postalCode":"18198","locality":"Stäbelow","municipality":{"key":"13072098","name":"Stäbelow","type":"Kreisangehörige_Gemeinde"},"district":{"key":"13072","name":"Landkreis Rostock","type":"Landkreis"},"federalState":{"key":"13","name":"Mecklenburg-Vorpommern"}},{"name":"Kritzmower Weg","postalCode":"18198","locality":"Stäbelow","municipality":{"key":"13072098","name":"Stäbelow","type":"Kreisangehörige_Gemeinde"},"district":{"key":"13072","name":"Landkreis Rostock","type":"Landkreis"},"federalState":{"key":"13","name":"Mecklenburg-Vorpommern"}},{"name":"Lang Berg","postalCode":"18198","locality":"Stäbelow","municipality":{"key":"13072098","name":"Stäbelow","type":"Kreisangehörige_Gemeinde"},"district":{"key":"13072","name":"Landkreis Rostock","type":"Landkreis"},"federalState":{"key":"13","name":"Mecklenburg-Vorpommern"}},{"name":"Lindenweg","postalCode":"18198","locality":"Stäbelow","municipality":{"key":"13072098","name":"Stäbelow","type":"Kreisangehörige_Gemeinde"},"district":{"key":"13072","name":"Landkreis Rostock","type":"Landkreis"},"federalState":{"key":"13","name":"Mecklenburg-Vorpommern"}},{"name":"Lütt Eck","postalCode":"18198","locality":"Stäbelow","municipality":{"key":"13072098","name":"Stäbelow","type":"Kreisangehörige_Gemeinde"},"district":{"key":"13072","name":"Landkreis Rostock","type":"Landkreis"},"federalState":{"key":"13","name":"Mecklenburg-Vorpommern"}},{"name":"Mühlenweg","postalCode":"18198","locality":"Stäbelow","municipality":{"key":"13072098","name":"Stäbelow","type":"Kreisangehörige_Gemeinde"},"district":{"key":"13072","name":"Landkreis Rostock","type":"Landkreis"},"federalState":{"key":"13","name":"Mecklenburg-Vorpommern"}},{"name":"Parkentiner Weg","postalCode":"18198","locality":"Stäbelow","municipality":{"key":"13072098","name":"Stäbelow","type":"Kreisangehörige_Gemeinde"},"district":{"key":"13072","name":"Landkreis Rostock","type":"Landkreis"},"federalState":{"key":"13","name":"Mecklenburg-Vorpommern"}},{"name":"Plattenweg","postalCode":"18198","locality":"Stäbelow","municipality":{"key":"13072098","name":"Stäbelow","type":"Kreisangehörige_Gemeinde"},"district":{"key":"13072","name":"Landkreis Rostock","type":"Landkreis"},"federalState":{"key":"13","name":"Mecklenburg-Vorpommern"}},{"name":"Rosenholzweg","postalCode":"18198","locality":"Stäbelow","municipality":{"key":"13072098","name":"Stäbelow","type":"Kreisangehörige_Gemeinde"},"district":{"key":"13072","name":"Landkreis Rostock","type":"Landkreis"},"federalState":{"key":"13","name":"Mecklenburg-Vorpommern"}},{"name":"Satower Str.","postalCode":"18198","locality":"Stäbelow","municipality":{"key":"13072098","name":"Stäbelow","type":"Kreisangehörige_Gemeinde"},"district":{"key":"13072","name":"Landkreis Rostock","type":"Landkreis"},"federalState":{"key":"13","name":"Mecklenburg-Vorpommern"}},{"name":"Schlehdornweg","postalCode":"18198","locality":"Stäbelow","municipality":{"key":"13072098","name":"Stäbelow","type":"Kreisangehörige_Gemeinde"},"district":{"key":"13072","name":"Landkreis Rostock","type":"Landkreis"},"federalState":{"key":"13","name":"Mecklenburg-Vorpommern"}},{"name":"Schulweg","postalCode":"18198","locality":"Stäbelow","municipality":{"key":"13072098","name":"Stäbelow","type":"Kreisangehörige_Gemeinde"},"district":{"key":"13072","name":"Landkreis Rostock","type":"Landkreis"},"federalState":{"key":"13","name":"Mecklenburg-Vorpommern"}},{"name":"Teichweg","postalCode":"18198","locality":"Stäbelow","municipality":{"key":"13072098","name":"Stäbelow","type":"Kreisangehörige_Gemeinde"},"district":{"key":"13072","name":"Landkreis Rostock","type":"Landkreis"},"federalState":{"key":"13","name":"Mecklenburg-Vorpommern"}},{"name":"Vogelkirschenweg","postalCode":"18198","locality":"Stäbelow","municipality":{"key":"13072098","name":"Stäbelow","type":"Kreisangehörige_Gemeinde"},"district":{"key":"13072","name":"Landkreis Rostock","type":"Landkreis"},"federalState":{"key":"13","name":"Mecklenburg-Vorpommern"}},{"name":"Waldblick","postalCode":"18198","locality":"Stäbelow","municipality":{"key":"13072098","name":"Stäbelow","type":"Kreisangehörige_Gemeinde"},"district":{"key":"13072","name":"Landkreis Rostock","type":"Landkreis"},"federalState":{"key":"13","name":"Mecklenburg-Vorpommern"}},{"name":"Zum Forsthof","postalCode":"18198","locality":"Stäbelow","municipality":{"key":"13072098","name":"Stäbelow","type":"Kreisangehörige_Gemeinde"},"district":{"key":"13072","name":"Landkreis Rostock","type":"Landkreis"},"federalState":{"key":"13","name":"Mecklenburg-Vorpommern"}},{"name":"Zur Häusler-Reihe","postalCode":"18198","locality":"Stäbelow","municipality":{"key":"13072098","name":"Stäbelow","type":"Kreisangehörige_Gemeinde"},"district":{"key":"13072","name":"Landkreis Rostock","type":"Landkreis"},"federalState":{"key":"13","name":"Mecklenburg-Vorpommern"}},{"name":"Zur Reihe","postalCode":"18198","locality":"Stäbelow","municipality":{"key":"13072098","name":"Stäbelow","type":"Kreisangehörige_Gemeinde"},"district":{"key":"13072","name":"Landkreis Rostock","type":"Landkreis"},"federalState":{"key":"13","name":"Mecklenburg-Vorpommern"}},]