[{"name":"Ahornstr.","postalCode":"21706","locality":"Drochtersen","municipality":{"key":"03359013","name":"Drochtersen","type":"Kreisangehörige_Gemeinde"},"district":{"key":"03359","name":"Stade","type":"Landkreis"},"federalState":{"key":"03","name":"Niedersachsen"}},{"name":"Alter Hof","postalCode":"21706","locality":"Drochtersen","municipality":{"key":"03359013","name":"Drochtersen","type":"Kreisangehörige_Gemeinde"},"district":{"key":"03359","name":"Stade","type":"Landkreis"},"federalState":{"key":"03","name":"Niedersachsen"}},{"name":"Alter Kirchenweg","postalCode":"21706","locality":"Drochtersen","municipality":{"key":"03359013","name":"Drochtersen","type":"Kreisangehörige_Gemeinde"},"district":{"key":"03359","name":"Stade","type":"Landkreis"},"federalState":{"key":"03","name":"Niedersachsen"}},{"name":"Alter Sportplatz","postalCode":"21706","locality":"Drochtersen","municipality":{"key":"03359013","name":"Drochtersen","type":"Kreisangehörige_Gemeinde"},"district":{"key":"03359","name":"Stade","type":"Landkreis"},"federalState":{"key":"03","name":"Niedersachsen"}},{"name":"Alter Weg","postalCode":"21706","locality":"Drochtersen","municipality":{"key":"03359013","name":"Drochtersen","type":"Kreisangehörige_Gemeinde"},"district":{"key":"03359","name":"Stade","type":"Landkreis"},"federalState":{"key":"03","name":"Niedersachsen"}},{"name":"Alte Schulstr.","postalCode":"21706","locality":"Drochtersen","municipality":{"key":"03359013","name":"Drochtersen","type":"Kreisangehörige_Gemeinde"},"district":{"key":"03359","name":"Stade","type":"Landkreis"},"federalState":{"key":"03","name":"Niedersachsen"}},{"name":"Alte Str.","postalCode":"21706","locality":"Drochtersen","municipality":{"key":"03359013","name":"Drochtersen","type":"Kreisangehörige_Gemeinde"},"district":{"key":"03359","name":"Stade","type":"Landkreis"},"federalState":{"key":"03","name":"Niedersachsen"}},{"name":"Am Asseler Fleet","postalCode":"21706","locality":"Drochtersen","municipality":{"key":"03359013","name":"Drochtersen","type":"Kreisangehörige_Gemeinde"},"district":{"key":"03359","name":"Stade","type":"Landkreis"},"federalState":{"key":"03","name":"Niedersachsen"}},{"name":"Am Brackufer","postalCode":"21706","locality":"Drochtersen","municipality":{"key":"03359013","name":"Drochtersen","type":"Kreisangehörige_Gemeinde"},"district":{"key":"03359","name":"Stade","type":"Landkreis"},"federalState":{"key":"03","name":"Niedersachsen"}},{"name":"Am Elbdeich","postalCode":"21706","locality":"Drochtersen","municipality":{"key":"03359013","name":"Drochtersen","type":"Kreisangehörige_Gemeinde"},"district":{"key":"03359","name":"Stade","type":"Landkreis"},"federalState":{"key":"03","name":"Niedersachsen"}},{"name":"Am Hochsteige","postalCode":"21706","locality":"Drochtersen","municipality":{"key":"03359013","name":"Drochtersen","type":"Kreisangehörige_Gemeinde"},"district":{"key":"03359","name":"Stade","type":"Landkreis"},"federalState":{"key":"03","name":"Niedersachsen"}},{"name":"Am Sportplatz","postalCode":"21706","locality":"Drochtersen","municipality":{"key":"03359013","name":"Drochtersen","type":"Kreisangehörige_Gemeinde"},"district":{"key":"03359","name":"Stade","type":"Landkreis"},"federalState":{"key":"03","name":"Niedersachsen"}},{"name":"An der Deichlücke","postalCode":"21706","locality":"Drochtersen","municipality":{"key":"03359013","name":"Drochtersen","type":"Kreisangehörige_Gemeinde"},"district":{"key":"03359","name":"Stade","type":"Landkreis"},"federalState":{"key":"03","name":"Niedersachsen"}},{"name":"Apfelstieg","postalCode":"21706","locality":"Drochtersen","municipality":{"key":"03359013","name":"Drochtersen","type":"Kreisangehörige_Gemeinde"},"district":{"key":"03359","name":"Stade","type":"Landkreis"},"federalState":{"key":"03","name":"Niedersachsen"}},{"name":"Aschhorn","postalCode":"21706","locality":"Drochtersen","municipality":{"key":"03359013","name":"Drochtersen","type":"Kreisangehörige_Gemeinde"},"district":{"key":"03359","name":"Stade","type":"Landkreis"},"federalState":{"key":"03","name":"Niedersachsen"}},{"name":"Aschhorner Str.","postalCode":"21706","locality":"Drochtersen","municipality":{"key":"03359013","name":"Drochtersen","type":"Kreisangehörige_Gemeinde"},"district":{"key":"03359","name":"Stade","type":"Landkreis"},"federalState":{"key":"03","name":"Niedersachsen"}},{"name":"Asseler Außendeich","postalCode":"21706","locality":"Drochtersen","municipality":{"key":"03359013","name":"Drochtersen","type":"Kreisangehörige_Gemeinde"},"district":{"key":"03359","name":"Stade","type":"Landkreis"},"federalState":{"key":"03","name":"Niedersachsen"}},{"name":"Asseler Deichstr.","postalCode":"21706","locality":"Drochtersen","municipality":{"key":"03359013","name":"Drochtersen","type":"Kreisangehörige_Gemeinde"},"district":{"key":"03359","name":"Stade","type":"Landkreis"},"federalState":{"key":"03","name":"Niedersachsen"}},{"name":"Asseler Feldstr.","postalCode":"21706","locality":"Drochtersen","municipality":{"key":"03359013","name":"Drochtersen","type":"Kreisangehörige_Gemeinde"},"district":{"key":"03359","name":"Stade","type":"Landkreis"},"federalState":{"key":"03","name":"Niedersachsen"}},{"name":"Asseler Hafenstr.","postalCode":"21706","locality":"Drochtersen","municipality":{"key":"03359013","name":"Drochtersen","type":"Kreisangehörige_Gemeinde"},"district":{"key":"03359","name":"Stade","type":"Landkreis"},"federalState":{"key":"03","name":"Niedersachsen"}},{"name":"Asselermoor","postalCode":"21706","locality":"Drochtersen","municipality":{"key":"03359013","name":"Drochtersen","type":"Kreisangehörige_Gemeinde"},"district":{"key":"03359","name":"Stade","type":"Landkreis"},"federalState":{"key":"03","name":"Niedersachsen"}},{"name":"Asselersand","postalCode":"21706","locality":"Drochtersen","municipality":{"key":"03359013","name":"Drochtersen","type":"Kreisangehörige_Gemeinde"},"district":{"key":"03359","name":"Stade","type":"Landkreis"},"federalState":{"key":"03","name":"Niedersachsen"}},{"name":"Asseler Str.","postalCode":"21706","locality":"Drochtersen","municipality":{"key":"03359013","name":"Drochtersen","type":"Kreisangehörige_Gemeinde"},"district":{"key":"03359","name":"Stade","type":"Landkreis"},"federalState":{"key":"03","name":"Niedersachsen"}},{"name":"Barnkruger Hafenstr.","postalCode":"21706","locality":"Drochtersen","municipality":{"key":"03359013","name":"Drochtersen","type":"Kreisangehörige_Gemeinde"},"district":{"key":"03359","name":"Stade","type":"Landkreis"},"federalState":{"key":"03","name":"Niedersachsen"}},{"name":"Barnkruger Str.","postalCode":"21706","locality":"Drochtersen","municipality":{"key":"03359013","name":"Drochtersen","type":"Kreisangehörige_Gemeinde"},"district":{"key":"03359","name":"Stade","type":"Landkreis"},"federalState":{"key":"03","name":"Niedersachsen"}},{"name":"Bauernreihe","postalCode":"21706","locality":"Drochtersen","municipality":{"key":"03359013","name":"Drochtersen","type":"Kreisangehörige_Gemeinde"},"district":{"key":"03359","name":"Stade","type":"Landkreis"},"federalState":{"key":"03","name":"Niedersachsen"}},{"name":"Bernhardtstr.","postalCode":"21706","locality":"Drochtersen","municipality":{"key":"03359013","name":"Drochtersen","type":"Kreisangehörige_Gemeinde"},"district":{"key":"03359","name":"Stade","type":"Landkreis"},"federalState":{"key":"03","name":"Niedersachsen"}},{"name":"Blumenstr.","postalCode":"21706","locality":"Drochtersen","municipality":{"key":"03359013","name":"Drochtersen","type":"Kreisangehörige_Gemeinde"},"district":{"key":"03359","name":"Stade","type":"Landkreis"},"federalState":{"key":"03","name":"Niedersachsen"}},{"name":"Blütenweg","postalCode":"21706","locality":"Drochtersen","municipality":{"key":"03359013","name":"Drochtersen","type":"Kreisangehörige_Gemeinde"},"district":{"key":"03359","name":"Stade","type":"Landkreis"},"federalState":{"key":"03","name":"Niedersachsen"}},{"name":"Brennerstr.","postalCode":"21706","locality":"Drochtersen","municipality":{"key":"03359013","name":"Drochtersen","type":"Kreisangehörige_Gemeinde"},"district":{"key":"03359","name":"Stade","type":"Landkreis"},"federalState":{"key":"03","name":"Niedersachsen"}},{"name":"Brückenschlag","postalCode":"21706","locality":"Drochtersen","municipality":{"key":"03359013","name":"Drochtersen","type":"Kreisangehörige_Gemeinde"},"district":{"key":"03359","name":"Stade","type":"Landkreis"},"federalState":{"key":"03","name":"Niedersachsen"}},{"name":"Brückenweg","postalCode":"21706","locality":"Drochtersen","municipality":{"key":"03359013","name":"Drochtersen","type":"Kreisangehörige_Gemeinde"},"district":{"key":"03359","name":"Stade","type":"Landkreis"},"federalState":{"key":"03","name":"Niedersachsen"}},{"name":"Buschhörne","postalCode":"21706","locality":"Drochtersen","municipality":{"key":"03359013","name":"Drochtersen","type":"Kreisangehörige_Gemeinde"},"district":{"key":"03359","name":"Stade","type":"Landkreis"},"federalState":{"key":"03","name":"Niedersachsen"}},{"name":"Camper Str.","postalCode":"21680","locality":"Stade","municipality":{"key":"03359038","name":"Stade, Hansestadt","type":"Stadt"},"district":{"key":"03359","name":"Stade","type":"Landkreis"},"federalState":{"key":"03","name":"Niedersachsen"}},{"name":"Carl-Benz-Str.","postalCode":"21684","locality":"Stade","municipality":{"key":"03359038","name":"Stade, Hansestadt","type":"Stadt"},"district":{"key":"03359","name":"Stade","type":"Landkreis"},"federalState":{"key":"03","name":"Niedersachsen"}},{"name":"Carl-Diercke-Park","postalCode":"21682","locality":"Stade","municipality":{"key":"03359038","name":"Stade, Hansestadt","type":"Stadt"},"district":{"key":"03359","name":"Stade","type":"Landkreis"},"federalState":{"key":"03","name":"Niedersachsen"}},{"name":"Carl-Goerdeler-Weg","postalCode":"21684","locality":"Stade","municipality":{"key":"03359038","name":"Stade, Hansestadt","type":"Stadt"},"district":{"key":"03359","name":"Stade","type":"Landkreis"},"federalState":{"key":"03","name":"Niedersachsen"}},{"name":"Carl-von-Ossietzky-Weg","postalCode":"21684","locality":"Stade","municipality":{"key":"03359038","name":"Stade, Hansestadt","type":"Stadt"},"district":{"key":"03359","name":"Stade","type":"Landkreis"},"federalState":{"key":"03","name":"Niedersachsen"}},{"name":"Casmannstr.","postalCode":"21680","locality":"Stade","municipality":{"key":"03359038","name":"Stade, Hansestadt","type":"Stadt"},"district":{"key":"03359","name":"Stade","type":"Landkreis"},"federalState":{"key":"03","name":"Niedersachsen"}},{"name":"Celler Str.","postalCode":"21680","locality":"Stade","municipality":{"key":"03359038","name":"Stade, Hansestadt","type":"Stadt"},"district":{"key":"03359","name":"Stade","type":"Landkreis"},"federalState":{"key":"03","name":"Niedersachsen"}},{"name":"Chaukenstr.","postalCode":"21680","locality":"Stade","municipality":{"key":"03359038","name":"Stade, Hansestadt","type":"Stadt"},"district":{"key":"03359","name":"Stade","type":"Landkreis"},"federalState":{"key":"03","name":"Niedersachsen"}},{"name":"Cheruskerweg","postalCode":"21680","locality":"Stade","municipality":{"key":"03359038","name":"Stade, Hansestadt","type":"Stadt"},"district":{"key":"03359","name":"Stade","type":"Landkreis"},"federalState":{"key":"03","name":"Niedersachsen"}},{"name":"Christian-Reichert-Str.","postalCode":"55271","locality":"Stadecken-Elsheim","municipality":{"key":"07339057","name":"Stadecken-Elsheim","type":"Kreisangehörige_Gemeinde"},"district":{"key":"07339","name":"Mainz-Bingen","type":"Landkreis"},"federalState":{"key":"07","name":"Rheinland-Pfalz"}},{"name":"Christophorusweg","postalCode":"21683","locality":"Stade","municipality":{"key":"03359038","name":"Stade, Hansestadt","type":"Stadt"},"district":{"key":"03359","name":"Stade","type":"Landkreis"},"federalState":{"key":"03","name":"Niedersachsen"}},{"name":"Clara-Schumannstr.","postalCode":"55271","locality":"Stadecken-Elsheim","municipality":{"key":"07339057","name":"Stadecken-Elsheim","type":"Kreisangehörige_Gemeinde"},"district":{"key":"07339","name":"Mainz-Bingen","type":"Landkreis"},"federalState":{"key":"07","name":"Rheinland-Pfalz"}},{"name":"Claus-von-Stauffenberg-Weg","postalCode":"21684","locality":"Stade","municipality":{"key":"03359038","name":"Stade, Hansestadt","type":"Stadt"},"district":{"key":"03359","name":"Stade","type":"Landkreis"},"federalState":{"key":"03","name":"Niedersachsen"}},{"name":"Cosmae-Kirchhof","postalCode":"21682","locality":"Stade","municipality":{"key":"03359038","name":"Stade, Hansestadt","type":"Stadt"},"district":{"key":"03359","name":"Stade","type":"Landkreis"},"federalState":{"key":"03","name":"Niedersachsen"}},{"name":"Cranzer Str.","postalCode":"21680","locality":"Stade","municipality":{"key":"03359038","name":"Stade, Hansestadt","type":"Stadt"},"district":{"key":"03359","name":"Stade","type":"Landkreis"},"federalState":{"key":"03","name":"Niedersachsen"}},{"name":"Deichreihe","postalCode":"21706","locality":"Drochtersen","municipality":{"key":"03359013","name":"Drochtersen","type":"Kreisangehörige_Gemeinde"},"district":{"key":"03359","name":"Stade","type":"Landkreis"},"federalState":{"key":"03","name":"Niedersachsen"}},{"name":"Deichstr.","postalCode":"21706","locality":"Drochtersen","municipality":{"key":"03359013","name":"Drochtersen","type":"Kreisangehörige_Gemeinde"},"district":{"key":"03359","name":"Stade","type":"Landkreis"},"federalState":{"key":"03","name":"Niedersachsen"}},{"name":"Deichwinkel","postalCode":"21706","locality":"Drochtersen","municipality":{"key":"03359013","name":"Drochtersen","type":"Kreisangehörige_Gemeinde"},"district":{"key":"03359","name":"Stade","type":"Landkreis"},"federalState":{"key":"03","name":"Niedersachsen"}},{"name":"Deneckenstr.","postalCode":"21706","locality":"Drochtersen","municipality":{"key":"03359013","name":"Drochtersen","type":"Kreisangehörige_Gemeinde"},"district":{"key":"03359","name":"Stade","type":"Landkreis"},"federalState":{"key":"03","name":"Niedersachsen"}},{"name":"Dornbuscher Hafenstr.","postalCode":"21706","locality":"Drochtersen","municipality":{"key":"03359013","name":"Drochtersen","type":"Kreisangehörige_Gemeinde"},"district":{"key":"03359","name":"Stade","type":"Landkreis"},"federalState":{"key":"03","name":"Niedersachsen"}},{"name":"Dornbuschermoor","postalCode":"21706","locality":"Drochtersen","municipality":{"key":"03359013","name":"Drochtersen","type":"Kreisangehörige_Gemeinde"},"district":{"key":"03359","name":"Stade","type":"Landkreis"},"federalState":{"key":"03","name":"Niedersachsen"}},{"name":"Dornbuscher Str.","postalCode":"21706","locality":"Drochtersen","municipality":{"key":"03359013","name":"Drochtersen","type":"Kreisangehörige_Gemeinde"},"district":{"key":"03359","name":"Stade","type":"Landkreis"},"federalState":{"key":"03","name":"Niedersachsen"}},{"name":"Draakenstieg","postalCode":"21706","locality":"Drochtersen","municipality":{"key":"03359013","name":"Drochtersen","type":"Kreisangehörige_Gemeinde"},"district":{"key":"03359","name":"Stade","type":"Landkreis"},"federalState":{"key":"03","name":"Niedersachsen"}},{"name":"Drochtersermoor","postalCode":"21706","locality":"Drochtersen","municipality":{"key":"03359013","name":"Drochtersen","type":"Kreisangehörige_Gemeinde"},"district":{"key":"03359","name":"Stade","type":"Landkreis"},"federalState":{"key":"03","name":"Niedersachsen"}},{"name":"Drochterser Str.","postalCode":"21706","locality":"Drochtersen","municipality":{"key":"03359013","name":"Drochtersen","type":"Kreisangehörige_Gemeinde"},"district":{"key":"03359","name":"Stade","type":"Landkreis"},"federalState":{"key":"03","name":"Niedersachsen"}},{"name":"Drosselstieg","postalCode":"21706","locality":"Drochtersen","municipality":{"key":"03359013","name":"Drochtersen","type":"Kreisangehörige_Gemeinde"},"district":{"key":"03359","name":"Stade","type":"Landkreis"},"federalState":{"key":"03","name":"Niedersachsen"}},{"name":"Eichenweg","postalCode":"21706","locality":"Drochtersen","municipality":{"key":"03359013","name":"Drochtersen","type":"Kreisangehörige_Gemeinde"},"district":{"key":"03359","name":"Stade","type":"Landkreis"},"federalState":{"key":"03","name":"Niedersachsen"}},{"name":"Elbinsel Krautsand","postalCode":"21706","locality":"Drochtersen","municipality":{"key":"03359013","name":"Drochtersen","type":"Kreisangehörige_Gemeinde"},"district":{"key":"03359","name":"Stade","type":"Landkreis"},"federalState":{"key":"03","name":"Niedersachsen"}},{"name":"Elbstr.","postalCode":"21706","locality":"Drochtersen","municipality":{"key":"03359013","name":"Drochtersen","type":"Kreisangehörige_Gemeinde"},"district":{"key":"03359","name":"Stade","type":"Landkreis"},"federalState":{"key":"03","name":"Niedersachsen"}},{"name":"Erlenstr.","postalCode":"21706","locality":"Drochtersen","municipality":{"key":"03359013","name":"Drochtersen","type":"Kreisangehörige_Gemeinde"},"district":{"key":"03359","name":"Stade","type":"Landkreis"},"federalState":{"key":"03","name":"Niedersachsen"}},{"name":"Fasanenweg","postalCode":"21706","locality":"Drochtersen","municipality":{"key":"03359013","name":"Drochtersen","type":"Kreisangehörige_Gemeinde"},"district":{"key":"03359","name":"Stade","type":"Landkreis"},"federalState":{"key":"03","name":"Niedersachsen"}},{"name":"Fleetstr.","postalCode":"21706","locality":"Drochtersen","municipality":{"key":"03359013","name":"Drochtersen","type":"Kreisangehörige_Gemeinde"},"district":{"key":"03359","name":"Stade","type":"Landkreis"},"federalState":{"key":"03","name":"Niedersachsen"}},{"name":"Fohlenstr.","postalCode":"21706","locality":"Drochtersen","municipality":{"key":"03359013","name":"Drochtersen","type":"Kreisangehörige_Gemeinde"},"district":{"key":"03359","name":"Stade","type":"Landkreis"},"federalState":{"key":"03","name":"Niedersachsen"}},{"name":"Fuchsgang","postalCode":"21706","locality":"Drochtersen","municipality":{"key":"03359013","name":"Drochtersen","type":"Kreisangehörige_Gemeinde"},"district":{"key":"03359","name":"Stade","type":"Landkreis"},"federalState":{"key":"03","name":"Niedersachsen"}},{"name":"Fünfhausen","postalCode":"21706","locality":"Drochtersen","municipality":{"key":"03359013","name":"Drochtersen","type":"Kreisangehörige_Gemeinde"},"district":{"key":"03359","name":"Stade","type":"Landkreis"},"federalState":{"key":"03","name":"Niedersachsen"}},{"name":"Gartenstr.","postalCode":"21706","locality":"Drochtersen","municipality":{"key":"03359013","name":"Drochtersen","type":"Kreisangehörige_Gemeinde"},"district":{"key":"03359","name":"Stade","type":"Landkreis"},"federalState":{"key":"03","name":"Niedersachsen"}},{"name":"Gauensieker Feldstr.","postalCode":"21706","locality":"Drochtersen","municipality":{"key":"03359013","name":"Drochtersen","type":"Kreisangehörige_Gemeinde"},"district":{"key":"03359","name":"Stade","type":"Landkreis"},"federalState":{"key":"03","name":"Niedersachsen"}},{"name":"Gauensieker Hafenstr.","postalCode":"21706","locality":"Drochtersen","municipality":{"key":"03359013","name":"Drochtersen","type":"Kreisangehörige_Gemeinde"},"district":{"key":"03359","name":"Stade","type":"Landkreis"},"federalState":{"key":"03","name":"Niedersachsen"}},{"name":"Gauensiekersand","postalCode":"21706","locality":"Drochtersen","municipality":{"key":"03359013","name":"Drochtersen","type":"Kreisangehörige_Gemeinde"},"district":{"key":"03359","name":"Stade","type":"Landkreis"},"federalState":{"key":"03","name":"Niedersachsen"}},{"name":"Gauensieker Schleusenfleth","postalCode":"21706","locality":"Drochtersen","municipality":{"key":"03359013","name":"Drochtersen","type":"Kreisangehörige_Gemeinde"},"district":{"key":"03359","name":"Stade","type":"Landkreis"},"federalState":{"key":"03","name":"Niedersachsen"}},{"name":"Gauensieker Str.","postalCode":"21706","locality":"Drochtersen","municipality":{"key":"03359013","name":"Drochtersen","type":"Kreisangehörige_Gemeinde"},"district":{"key":"03359","name":"Stade","type":"Landkreis"},"federalState":{"key":"03","name":"Niedersachsen"}},{"name":"Gehrden","postalCode":"21706","locality":"Drochtersen","municipality":{"key":"03359013","name":"Drochtersen","type":"Kreisangehörige_Gemeinde"},"district":{"key":"03359","name":"Stade","type":"Landkreis"},"federalState":{"key":"03","name":"Niedersachsen"}},{"name":"Glindweg","postalCode":"21706","locality":"Drochtersen","municipality":{"key":"03359013","name":"Drochtersen","type":"Kreisangehörige_Gemeinde"},"district":{"key":"03359","name":"Stade","type":"Landkreis"},"federalState":{"key":"03","name":"Niedersachsen"}},{"name":"Gorch-Fock-Str.","postalCode":"21706","locality":"Drochtersen","municipality":{"key":"03359013","name":"Drochtersen","type":"Kreisangehörige_Gemeinde"},"district":{"key":"03359","name":"Stade","type":"Landkreis"},"federalState":{"key":"03","name":"Niedersachsen"}},{"name":"Grefenstr.","postalCode":"21706","locality":"Drochtersen","municipality":{"key":"03359013","name":"Drochtersen","type":"Kreisangehörige_Gemeinde"},"district":{"key":"03359","name":"Stade","type":"Landkreis"},"federalState":{"key":"03","name":"Niedersachsen"}},{"name":"Großenwördener Str.","postalCode":"21706","locality":"Drochtersen","municipality":{"key":"03359013","name":"Drochtersen","type":"Kreisangehörige_Gemeinde"},"district":{"key":"03359","name":"Stade","type":"Landkreis"},"federalState":{"key":"03","name":"Niedersachsen"}},{"name":"Grüne Str.","postalCode":"21706","locality":"Drochtersen","municipality":{"key":"03359013","name":"Drochtersen","type":"Kreisangehörige_Gemeinde"},"district":{"key":"03359","name":"Stade","type":"Landkreis"},"federalState":{"key":"03","name":"Niedersachsen"}},{"name":"Hauke-Haien-Ring","postalCode":"21706","locality":"Drochtersen","municipality":{"key":"03359013","name":"Drochtersen","type":"Kreisangehörige_Gemeinde"},"district":{"key":"03359","name":"Stade","type":"Landkreis"},"federalState":{"key":"03","name":"Niedersachsen"}},{"name":"Heimstr.","postalCode":"21706","locality":"Drochtersen","municipality":{"key":"03359013","name":"Drochtersen","type":"Kreisangehörige_Gemeinde"},"district":{"key":"03359","name":"Stade","type":"Landkreis"},"federalState":{"key":"03","name":"Niedersachsen"}},{"name":"Heinrichsweg","postalCode":"21706","locality":"Drochtersen","municipality":{"key":"03359013","name":"Drochtersen","type":"Kreisangehörige_Gemeinde"},"district":{"key":"03359","name":"Stade","type":"Landkreis"},"federalState":{"key":"03","name":"Niedersachsen"}},{"name":"Hohe Str.","postalCode":"21706","locality":"Drochtersen","municipality":{"key":"03359013","name":"Drochtersen","type":"Kreisangehörige_Gemeinde"},"district":{"key":"03359","name":"Stade","type":"Landkreis"},"federalState":{"key":"03","name":"Niedersachsen"}},{"name":"Hörne","postalCode":"21706","locality":"Drochtersen","municipality":{"key":"03359013","name":"Drochtersen","type":"Kreisangehörige_Gemeinde"},"district":{"key":"03359","name":"Stade","type":"Landkreis"},"federalState":{"key":"03","name":"Niedersachsen"}},{"name":"Hüller Str.","postalCode":"21706","locality":"Drochtersen","municipality":{"key":"03359013","name":"Drochtersen","type":"Kreisangehörige_Gemeinde"},"district":{"key":"03359","name":"Stade","type":"Landkreis"},"federalState":{"key":"03","name":"Niedersachsen"}},{"name":"Hüttenweg","postalCode":"21706","locality":"Drochtersen","municipality":{"key":"03359013","name":"Drochtersen","type":"Kreisangehörige_Gemeinde"},"district":{"key":"03359","name":"Stade","type":"Landkreis"},"federalState":{"key":"03","name":"Niedersachsen"}},{"name":"Im Neuwerk","postalCode":"21706","locality":"Drochtersen","municipality":{"key":"03359013","name":"Drochtersen","type":"Kreisangehörige_Gemeinde"},"district":{"key":"03359","name":"Stade","type":"Landkreis"},"federalState":{"key":"03","name":"Niedersachsen"}},{"name":"Im Obstgarten","postalCode":"21706","locality":"Drochtersen","municipality":{"key":"03359013","name":"Drochtersen","type":"Kreisangehörige_Gemeinde"},"district":{"key":"03359","name":"Stade","type":"Landkreis"},"federalState":{"key":"03","name":"Niedersachsen"}},{"name":"Im Ring","postalCode":"21706","locality":"Drochtersen","municipality":{"key":"03359013","name":"Drochtersen","type":"Kreisangehörige_Gemeinde"},"district":{"key":"03359","name":"Stade","type":"Landkreis"},"federalState":{"key":"03","name":"Niedersachsen"}},{"name":"Im Rönnefeld","postalCode":"21706","locality":"Drochtersen","municipality":{"key":"03359013","name":"Drochtersen","type":"Kreisangehörige_Gemeinde"},"district":{"key":"03359","name":"Stade","type":"Landkreis"},"federalState":{"key":"03","name":"Niedersachsen"}},{"name":"Im Wiesengrunde","postalCode":"21706","locality":"Drochtersen","municipality":{"key":"03359013","name":"Drochtersen","type":"Kreisangehörige_Gemeinde"},"district":{"key":"03359","name":"Stade","type":"Landkreis"},"federalState":{"key":"03","name":"Niedersachsen"}},{"name":"Im Winkel","postalCode":"21706","locality":"Drochtersen","municipality":{"key":"03359013","name":"Drochtersen","type":"Kreisangehörige_Gemeinde"},"district":{"key":"03359","name":"Stade","type":"Landkreis"},"federalState":{"key":"03","name":"Niedersachsen"}},{"name":"Irenenstr.","postalCode":"21706","locality":"Drochtersen","municipality":{"key":"03359013","name":"Drochtersen","type":"Kreisangehörige_Gemeinde"},"district":{"key":"03359","name":"Stade","type":"Landkreis"},"federalState":{"key":"03","name":"Niedersachsen"}},{"name":"Jahnstr.","postalCode":"21706","locality":"Drochtersen","municipality":{"key":"03359013","name":"Drochtersen","type":"Kreisangehörige_Gemeinde"},"district":{"key":"03359","name":"Stade","type":"Landkreis"},"federalState":{"key":"03","name":"Niedersachsen"}},{"name":"Johann-Grodtmann-Str.","postalCode":"21706","locality":"Drochtersen","municipality":{"key":"03359013","name":"Drochtersen","type":"Kreisangehörige_Gemeinde"},"district":{"key":"03359","name":"Stade","type":"Landkreis"},"federalState":{"key":"03","name":"Niedersachsen"}},{"name":"Kampweg","postalCode":"21706","locality":"Drochtersen","municipality":{"key":"03359013","name":"Drochtersen","type":"Kreisangehörige_Gemeinde"},"district":{"key":"03359","name":"Stade","type":"Landkreis"},"federalState":{"key":"03","name":"Niedersachsen"}},{"name":"Kiebitzweg","postalCode":"21706","locality":"Drochtersen","municipality":{"key":"03359013","name":"Drochtersen","type":"Kreisangehörige_Gemeinde"},"district":{"key":"03359","name":"Stade","type":"Landkreis"},"federalState":{"key":"03","name":"Niedersachsen"}},{"name":"Kirchenstr.","postalCode":"21706","locality":"Drochtersen","municipality":{"key":"03359013","name":"Drochtersen","type":"Kreisangehörige_Gemeinde"},"district":{"key":"03359","name":"Stade","type":"Landkreis"},"federalState":{"key":"03","name":"Niedersachsen"}},{"name":"Kirchhofstr.","postalCode":"21706","locality":"Drochtersen","municipality":{"key":"03359013","name":"Drochtersen","type":"Kreisangehörige_Gemeinde"},"district":{"key":"03359","name":"Stade","type":"Landkreis"},"federalState":{"key":"03","name":"Niedersachsen"}},{"name":"Kleine Rönne","postalCode":"21706","locality":"Drochtersen","municipality":{"key":"03359013","name":"Drochtersen","type":"Kreisangehörige_Gemeinde"},"district":{"key":"03359","name":"Stade","type":"Landkreis"},"federalState":{"key":"03","name":"Niedersachsen"}},{"name":"Krautsander Hafenstr.","postalCode":"21706","locality":"Drochtersen","municipality":{"key":"03359013","name":"Drochtersen","type":"Kreisangehörige_Gemeinde"},"district":{"key":"03359","name":"Stade","type":"Landkreis"},"federalState":{"key":"03","name":"Niedersachsen"}},{"name":"Krautsander Str.","postalCode":"21706","locality":"Drochtersen","municipality":{"key":"03359013","name":"Drochtersen","type":"Kreisangehörige_Gemeinde"},"district":{"key":"03359","name":"Stade","type":"Landkreis"},"federalState":{"key":"03","name":"Niedersachsen"}},{"name":"Krummenwege","postalCode":"21706","locality":"Drochtersen","municipality":{"key":"03359013","name":"Drochtersen","type":"Kreisangehörige_Gemeinde"},"district":{"key":"03359","name":"Stade","type":"Landkreis"},"federalState":{"key":"03","name":"Niedersachsen"}},{"name":"Kuhlenreihe","postalCode":"21706","locality":"Drochtersen","municipality":{"key":"03359013","name":"Drochtersen","type":"Kreisangehörige_Gemeinde"},"district":{"key":"03359","name":"Stade","type":"Landkreis"},"federalState":{"key":"03","name":"Niedersachsen"}},{"name":"Kuhlenstr.","postalCode":"21706","locality":"Drochtersen","municipality":{"key":"03359013","name":"Drochtersen","type":"Kreisangehörige_Gemeinde"},"district":{"key":"03359","name":"Stade","type":"Landkreis"},"federalState":{"key":"03","name":"Niedersachsen"}},{"name":"Kurzer Weg","postalCode":"21706","locality":"Drochtersen","municipality":{"key":"03359013","name":"Drochtersen","type":"Kreisangehörige_Gemeinde"},"district":{"key":"03359","name":"Stade","type":"Landkreis"},"federalState":{"key":"03","name":"Niedersachsen"}},{"name":"Landernweg","postalCode":"21706","locality":"Drochtersen","municipality":{"key":"03359013","name":"Drochtersen","type":"Kreisangehörige_Gemeinde"},"district":{"key":"03359","name":"Stade","type":"Landkreis"},"federalState":{"key":"03","name":"Niedersachsen"}},{"name":"Lerchenweg","postalCode":"21706","locality":"Drochtersen","municipality":{"key":"03359013","name":"Drochtersen","type":"Kreisangehörige_Gemeinde"},"district":{"key":"03359","name":"Stade","type":"Landkreis"},"federalState":{"key":"03","name":"Niedersachsen"}},{"name":"Leuchtturmweg","postalCode":"21706","locality":"Drochtersen","municipality":{"key":"03359013","name":"Drochtersen","type":"Kreisangehörige_Gemeinde"},"district":{"key":"03359","name":"Stade","type":"Landkreis"},"federalState":{"key":"03","name":"Niedersachsen"}},{"name":"Lilienstr.","postalCode":"21706","locality":"Drochtersen","municipality":{"key":"03359013","name":"Drochtersen","type":"Kreisangehörige_Gemeinde"},"district":{"key":"03359","name":"Stade","type":"Landkreis"},"federalState":{"key":"03","name":"Niedersachsen"}},{"name":"Lindenstr.","postalCode":"21706","locality":"Drochtersen","municipality":{"key":"03359013","name":"Drochtersen","type":"Kreisangehörige_Gemeinde"},"district":{"key":"03359","name":"Stade","type":"Landkreis"},"federalState":{"key":"03","name":"Niedersachsen"}},{"name":"Luisenstr.","postalCode":"21706","locality":"Drochtersen","municipality":{"key":"03359013","name":"Drochtersen","type":"Kreisangehörige_Gemeinde"},"district":{"key":"03359","name":"Stade","type":"Landkreis"},"federalState":{"key":"03","name":"Niedersachsen"}},{"name":"Meisterstr.","postalCode":"21706","locality":"Drochtersen","municipality":{"key":"03359013","name":"Drochtersen","type":"Kreisangehörige_Gemeinde"},"district":{"key":"03359","name":"Stade","type":"Landkreis"},"federalState":{"key":"03","name":"Niedersachsen"}},{"name":"Mittelweg","postalCode":"21706","locality":"Drochtersen","municipality":{"key":"03359013","name":"Drochtersen","type":"Kreisangehörige_Gemeinde"},"district":{"key":"03359","name":"Stade","type":"Landkreis"},"federalState":{"key":"03","name":"Niedersachsen"}},{"name":"Möhlenstieg","postalCode":"21706","locality":"Drochtersen","municipality":{"key":"03359013","name":"Drochtersen","type":"Kreisangehörige_Gemeinde"},"district":{"key":"03359","name":"Stade","type":"Landkreis"},"federalState":{"key":"03","name":"Niedersachsen"}},{"name":"Möwenstieg","postalCode":"21706","locality":"Drochtersen","municipality":{"key":"03359013","name":"Drochtersen","type":"Kreisangehörige_Gemeinde"},"district":{"key":"03359","name":"Stade","type":"Landkreis"},"federalState":{"key":"03","name":"Niedersachsen"}},{"name":"Mühlenhafener Str.","postalCode":"21706","locality":"Drochtersen","municipality":{"key":"03359013","name":"Drochtersen","type":"Kreisangehörige_Gemeinde"},"district":{"key":"03359","name":"Stade","type":"Landkreis"},"federalState":{"key":"03","name":"Niedersachsen"}},{"name":"Mühlensteig","postalCode":"21706","locality":"Drochtersen","municipality":{"key":"03359013","name":"Drochtersen","type":"Kreisangehörige_Gemeinde"},"district":{"key":"03359","name":"Stade","type":"Landkreis"},"federalState":{"key":"03","name":"Niedersachsen"}},{"name":"Mühlenweg","postalCode":"21706","locality":"Drochtersen","municipality":{"key":"03359013","name":"Drochtersen","type":"Kreisangehörige_Gemeinde"},"district":{"key":"03359","name":"Stade","type":"Landkreis"},"federalState":{"key":"03","name":"Niedersachsen"}},{"name":"Mühlenweide","postalCode":"21706","locality":"Drochtersen","municipality":{"key":"03359013","name":"Drochtersen","type":"Kreisangehörige_Gemeinde"},"district":{"key":"03359","name":"Stade","type":"Landkreis"},"federalState":{"key":"03","name":"Niedersachsen"}},{"name":"Nagelsweg","postalCode":"21706","locality":"Drochtersen","municipality":{"key":"03359013","name":"Drochtersen","type":"Kreisangehörige_Gemeinde"},"district":{"key":"03359","name":"Stade","type":"Landkreis"},"federalState":{"key":"03","name":"Niedersachsen"}},{"name":"Neuer Weg","postalCode":"21706","locality":"Drochtersen","municipality":{"key":"03359013","name":"Drochtersen","type":"Kreisangehörige_Gemeinde"},"district":{"key":"03359","name":"Stade","type":"Landkreis"},"federalState":{"key":"03","name":"Niedersachsen"}},{"name":"Neustadt","postalCode":"21706","locality":"Drochtersen","municipality":{"key":"03359013","name":"Drochtersen","type":"Kreisangehörige_Gemeinde"},"district":{"key":"03359","name":"Stade","type":"Landkreis"},"federalState":{"key":"03","name":"Niedersachsen"}},{"name":"Nindorfer Deichfeld","postalCode":"21706","locality":"Drochtersen","municipality":{"key":"03359013","name":"Drochtersen","type":"Kreisangehörige_Gemeinde"},"district":{"key":"03359","name":"Stade","type":"Landkreis"},"federalState":{"key":"03","name":"Niedersachsen"}},{"name":"Nindorfer Str.","postalCode":"21706","locality":"Drochtersen","municipality":{"key":"03359013","name":"Drochtersen","type":"Kreisangehörige_Gemeinde"},"district":{"key":"03359","name":"Stade","type":"Landkreis"},"federalState":{"key":"03","name":"Niedersachsen"}},{"name":"Oberhüll","postalCode":"21706","locality":"Drochtersen","municipality":{"key":"03359013","name":"Drochtersen","type":"Kreisangehörige_Gemeinde"},"district":{"key":"03359","name":"Stade","type":"Landkreis"},"federalState":{"key":"03","name":"Niedersachsen"}},{"name":"Obstweg","postalCode":"21706","locality":"Drochtersen","municipality":{"key":"03359013","name":"Drochtersen","type":"Kreisangehörige_Gemeinde"},"district":{"key":"03359","name":"Stade","type":"Landkreis"},"federalState":{"key":"03","name":"Niedersachsen"}},{"name":"Oltmannstr.","postalCode":"21706","locality":"Drochtersen","municipality":{"key":"03359013","name":"Drochtersen","type":"Kreisangehörige_Gemeinde"},"district":{"key":"03359","name":"Stade","type":"Landkreis"},"federalState":{"key":"03","name":"Niedersachsen"}},{"name":"Pappelstr.","postalCode":"21706","locality":"Drochtersen","municipality":{"key":"03359013","name":"Drochtersen","type":"Kreisangehörige_Gemeinde"},"district":{"key":"03359","name":"Stade","type":"Landkreis"},"federalState":{"key":"03","name":"Niedersachsen"}},{"name":"Peerkoppel","postalCode":"21706","locality":"Drochtersen","municipality":{"key":"03359013","name":"Drochtersen","type":"Kreisangehörige_Gemeinde"},"district":{"key":"03359","name":"Stade","type":"Landkreis"},"federalState":{"key":"03","name":"Niedersachsen"}},{"name":"Plüschenworth","postalCode":"21706","locality":"Drochtersen","municipality":{"key":"03359013","name":"Drochtersen","type":"Kreisangehörige_Gemeinde"},"district":{"key":"03359","name":"Stade","type":"Landkreis"},"federalState":{"key":"03","name":"Niedersachsen"}},{"name":"Postkutschenweg","postalCode":"21706","locality":"Drochtersen","municipality":{"key":"03359013","name":"Drochtersen","type":"Kreisangehörige_Gemeinde"},"district":{"key":"03359","name":"Stade","type":"Landkreis"},"federalState":{"key":"03","name":"Niedersachsen"}},{"name":"Pratjeweg","postalCode":"21706","locality":"Drochtersen","municipality":{"key":"03359013","name":"Drochtersen","type":"Kreisangehörige_Gemeinde"},"district":{"key":"03359","name":"Stade","type":"Landkreis"},"federalState":{"key":"03","name":"Niedersachsen"}},{"name":"Querweg","postalCode":"21682","locality":"Stade","municipality":{"key":"03359038","name":"Stade, Hansestadt","type":"Stadt"},"district":{"key":"03359","name":"Stade","type":"Landkreis"},"federalState":{"key":"03","name":"Niedersachsen"}},{"name":"Ringstr.","postalCode":"21706","locality":"Drochtersen","municipality":{"key":"03359013","name":"Drochtersen","type":"Kreisangehörige_Gemeinde"},"district":{"key":"03359","name":"Stade","type":"Landkreis"},"federalState":{"key":"03","name":"Niedersachsen"}},{"name":"Ritscher Deichstr.","postalCode":"21706","locality":"Drochtersen","municipality":{"key":"03359013","name":"Drochtersen","type":"Kreisangehörige_Gemeinde"},"district":{"key":"03359","name":"Stade","type":"Landkreis"},"federalState":{"key":"03","name":"Niedersachsen"}},{"name":"Ritscher Hafenstr.","postalCode":"21706","locality":"Drochtersen","municipality":{"key":"03359013","name":"Drochtersen","type":"Kreisangehörige_Gemeinde"},"district":{"key":"03359","name":"Stade","type":"Landkreis"},"federalState":{"key":"03","name":"Niedersachsen"}},{"name":"Ritschermoor","postalCode":"21706","locality":"Drochtersen","municipality":{"key":"03359013","name":"Drochtersen","type":"Kreisangehörige_Gemeinde"},"district":{"key":"03359","name":"Stade","type":"Landkreis"},"federalState":{"key":"03","name":"Niedersachsen"}},{"name":"Ritschermoor Str.","postalCode":"21706","locality":"Drochtersen","municipality":{"key":"03359013","name":"Drochtersen","type":"Kreisangehörige_Gemeinde"},"district":{"key":"03359","name":"Stade","type":"Landkreis"},"federalState":{"key":"03","name":"Niedersachsen"}},{"name":"Ritscher Str.","postalCode":"21706","locality":"Drochtersen","municipality":{"key":"03359013","name":"Drochtersen","type":"Kreisangehörige_Gemeinde"},"district":{"key":"03359","name":"Stade","type":"Landkreis"},"federalState":{"key":"03","name":"Niedersachsen"}},{"name":"Ritscher Weg","postalCode":"21706","locality":"Drochtersen","municipality":{"key":"03359013","name":"Drochtersen","type":"Kreisangehörige_Gemeinde"},"district":{"key":"03359","name":"Stade","type":"Landkreis"},"federalState":{"key":"03","name":"Niedersachsen"}},{"name":"Rosenstr.","postalCode":"21706","locality":"Drochtersen","municipality":{"key":"03359013","name":"Drochtersen","type":"Kreisangehörige_Gemeinde"},"district":{"key":"03359","name":"Stade","type":"Landkreis"},"federalState":{"key":"03","name":"Niedersachsen"}},{"name":"Rudolf-Kinau-Str.","postalCode":"21706","locality":"Drochtersen","municipality":{"key":"03359013","name":"Drochtersen","type":"Kreisangehörige_Gemeinde"},"district":{"key":"03359","name":"Stade","type":"Landkreis"},"federalState":{"key":"03","name":"Niedersachsen"}},{"name":"Schäferstieg","postalCode":"21706","locality":"Drochtersen","municipality":{"key":"03359013","name":"Drochtersen","type":"Kreisangehörige_Gemeinde"},"district":{"key":"03359","name":"Stade","type":"Landkreis"},"federalState":{"key":"03","name":"Niedersachsen"}},{"name":"Schanzenstr.","postalCode":"21706","locality":"Drochtersen","municipality":{"key":"03359013","name":"Drochtersen","type":"Kreisangehörige_Gemeinde"},"district":{"key":"03359","name":"Stade","type":"Landkreis"},"federalState":{"key":"03","name":"Niedersachsen"}},{"name":"Scheidung","postalCode":"21706","locality":"Drochtersen","municipality":{"key":"03359013","name":"Drochtersen","type":"Kreisangehörige_Gemeinde"},"district":{"key":"03359","name":"Stade","type":"Landkreis"},"federalState":{"key":"03","name":"Niedersachsen"}},{"name":"Schifferstr.","postalCode":"21706","locality":"Drochtersen","municipality":{"key":"03359013","name":"Drochtersen","type":"Kreisangehörige_Gemeinde"},"district":{"key":"03359","name":"Stade","type":"Landkreis"},"federalState":{"key":"03","name":"Niedersachsen"}},{"name":"Schilfweg","postalCode":"21706","locality":"Drochtersen","municipality":{"key":"03359013","name":"Drochtersen","type":"Kreisangehörige_Gemeinde"},"district":{"key":"03359","name":"Stade","type":"Landkreis"},"federalState":{"key":"03","name":"Niedersachsen"}},{"name":"Schmiedestr.","postalCode":"21706","locality":"Drochtersen","municipality":{"key":"03359013","name":"Drochtersen","type":"Kreisangehörige_Gemeinde"},"district":{"key":"03359","name":"Stade","type":"Landkreis"},"federalState":{"key":"03","name":"Niedersachsen"}},{"name":"Schoolpadd","postalCode":"21706","locality":"Drochtersen","municipality":{"key":"03359013","name":"Drochtersen","type":"Kreisangehörige_Gemeinde"},"district":{"key":"03359","name":"Stade","type":"Landkreis"},"federalState":{"key":"03","name":"Niedersachsen"}},{"name":"Schulsteig","postalCode":"21706","locality":"Drochtersen","municipality":{"key":"03359013","name":"Drochtersen","type":"Kreisangehörige_Gemeinde"},"district":{"key":"03359","name":"Stade","type":"Landkreis"},"federalState":{"key":"03","name":"Niedersachsen"}},{"name":"Schulstr.","postalCode":"21706","locality":"Drochtersen","municipality":{"key":"03359013","name":"Drochtersen","type":"Kreisangehörige_Gemeinde"},"district":{"key":"03359","name":"Stade","type":"Landkreis"},"federalState":{"key":"03","name":"Niedersachsen"}},{"name":"Schwagerstr.","postalCode":"21706","locality":"Drochtersen","municipality":{"key":"03359013","name":"Drochtersen","type":"Kreisangehörige_Gemeinde"},"district":{"key":"03359","name":"Stade","type":"Landkreis"},"federalState":{"key":"03","name":"Niedersachsen"}},{"name":"Seedeich","postalCode":"21706","locality":"Drochtersen","municipality":{"key":"03359013","name":"Drochtersen","type":"Kreisangehörige_Gemeinde"},"district":{"key":"03359","name":"Stade","type":"Landkreis"},"federalState":{"key":"03","name":"Niedersachsen"}},{"name":"Sietwender Fleth","postalCode":"21706","locality":"Drochtersen","municipality":{"key":"03359013","name":"Drochtersen","type":"Kreisangehörige_Gemeinde"},"district":{"key":"03359","name":"Stade","type":"Landkreis"},"federalState":{"key":"03","name":"Niedersachsen"}},{"name":"Sietwender Str.","postalCode":"21706","locality":"Drochtersen","municipality":{"key":"03359013","name":"Drochtersen","type":"Kreisangehörige_Gemeinde"},"district":{"key":"03359","name":"Stade","type":"Landkreis"},"federalState":{"key":"03","name":"Niedersachsen"}},{"name":"Storchenstieg","postalCode":"21706","locality":"Drochtersen","municipality":{"key":"03359013","name":"Drochtersen","type":"Kreisangehörige_Gemeinde"},"district":{"key":"03359","name":"Stade","type":"Landkreis"},"federalState":{"key":"03","name":"Niedersachsen"}},{"name":"Strandweg","postalCode":"21706","locality":"Drochtersen","municipality":{"key":"03359013","name":"Drochtersen","type":"Kreisangehörige_Gemeinde"},"district":{"key":"03359","name":"Stade","type":"Landkreis"},"federalState":{"key":"03","name":"Niedersachsen"}},{"name":"Süderstr.","postalCode":"21706","locality":"Drochtersen","municipality":{"key":"03359013","name":"Drochtersen","type":"Kreisangehörige_Gemeinde"},"district":{"key":"03359","name":"Stade","type":"Landkreis"},"federalState":{"key":"03","name":"Niedersachsen"}},{"name":"Theisbrüggermoor","postalCode":"21706","locality":"Drochtersen","municipality":{"key":"03359013","name":"Drochtersen","type":"Kreisangehörige_Gemeinde"},"district":{"key":"03359","name":"Stade","type":"Landkreis"},"federalState":{"key":"03","name":"Niedersachsen"}},{"name":"Theisbrügger Str.","postalCode":"21706","locality":"Drochtersen","municipality":{"key":"03359013","name":"Drochtersen","type":"Kreisangehörige_Gemeinde"},"district":{"key":"03359","name":"Stade","type":"Landkreis"},"federalState":{"key":"03","name":"Niedersachsen"}},{"name":"Theodor-Storm-Str.","postalCode":"21706","locality":"Drochtersen","municipality":{"key":"03359013","name":"Drochtersen","type":"Kreisangehörige_Gemeinde"},"district":{"key":"03359","name":"Stade","type":"Landkreis"},"federalState":{"key":"03","name":"Niedersachsen"}},{"name":"Triftweg","postalCode":"21706","locality":"Drochtersen","municipality":{"key":"03359013","name":"Drochtersen","type":"Kreisangehörige_Gemeinde"},"district":{"key":"03359","name":"Stade","type":"Landkreis"},"federalState":{"key":"03","name":"Niedersachsen"}},{"name":"Tulpenweg","postalCode":"21706","locality":"Drochtersen","municipality":{"key":"03359013","name":"Drochtersen","type":"Kreisangehörige_Gemeinde"},"district":{"key":"03359","name":"Stade","type":"Landkreis"},"federalState":{"key":"03","name":"Niedersachsen"}},{"name":"Ulmenstr.","postalCode":"21706","locality":"Drochtersen","municipality":{"key":"03359013","name":"Drochtersen","type":"Kreisangehörige_Gemeinde"},"district":{"key":"03359","name":"Stade","type":"Landkreis"},"federalState":{"key":"03","name":"Niedersachsen"}},{"name":"Von-Brummer-Str.","postalCode":"21706","locality":"Drochtersen","municipality":{"key":"03359013","name":"Drochtersen","type":"Kreisangehörige_Gemeinde"},"district":{"key":"03359","name":"Stade","type":"Landkreis"},"federalState":{"key":"03","name":"Niedersachsen"}},{"name":"Wahlenstr.","postalCode":"21706","locality":"Drochtersen","municipality":{"key":"03359013","name":"Drochtersen","type":"Kreisangehörige_Gemeinde"},"district":{"key":"03359","name":"Stade","type":"Landkreis"},"federalState":{"key":"03","name":"Niedersachsen"}},{"name":"Wegefährels","postalCode":"21706","locality":"Drochtersen","municipality":{"key":"03359013","name":"Drochtersen","type":"Kreisangehörige_Gemeinde"},"district":{"key":"03359","name":"Stade","type":"Landkreis"},"federalState":{"key":"03","name":"Niedersachsen"}},{"name":"Weidenstr.","postalCode":"21706","locality":"Drochtersen","municipality":{"key":"03359013","name":"Drochtersen","type":"Kreisangehörige_Gemeinde"},"district":{"key":"03359","name":"Stade","type":"Landkreis"},"federalState":{"key":"03","name":"Niedersachsen"}},{"name":"Werftstr.","postalCode":"21706","locality":"Drochtersen","municipality":{"key":"03359013","name":"Drochtersen","type":"Kreisangehörige_Gemeinde"},"district":{"key":"03359","name":"Stade","type":"Landkreis"},"federalState":{"key":"03","name":"Niedersachsen"}},{"name":"Wether Str.","postalCode":"21706","locality":"Drochtersen","municipality":{"key":"03359013","name":"Drochtersen","type":"Kreisangehörige_Gemeinde"},"district":{"key":"03359","name":"Stade","type":"Landkreis"},"federalState":{"key":"03","name":"Niedersachsen"}},{"name":"Wetternstr.","postalCode":"21706","locality":"Drochtersen","municipality":{"key":"03359013","name":"Drochtersen","type":"Kreisangehörige_Gemeinde"},"district":{"key":"03359","name":"Stade","type":"Landkreis"},"federalState":{"key":"03","name":"Niedersachsen"}},{"name":"Wiesenstr.","postalCode":"21706","locality":"Drochtersen","municipality":{"key":"03359013","name":"Drochtersen","type":"Kreisangehörige_Gemeinde"},"district":{"key":"03359","name":"Stade","type":"Landkreis"},"federalState":{"key":"03","name":"Niedersachsen"}},{"name":"Wischhafenersandstr.","postalCode":"21706","locality":"Drochtersen","municipality":{"key":"03359013","name":"Drochtersen","type":"Kreisangehörige_Gemeinde"},"district":{"key":"03359","name":"Stade","type":"Landkreis"},"federalState":{"key":"03","name":"Niedersachsen"}},{"name":"Ystadweg","postalCode":"21682","locality":"Stade","municipality":{"key":"03359038","name":"Stade, Hansestadt","type":"Stadt"},"district":{"key":"03359","name":"Stade","type":"Landkreis"},"federalState":{"key":"03","name":"Niedersachsen"}},{"name":"Zehntacker","postalCode":"21706","locality":"Drochtersen","municipality":{"key":"03359013","name":"Drochtersen","type":"Kreisangehörige_Gemeinde"},"district":{"key":"03359","name":"Stade","type":"Landkreis"},"federalState":{"key":"03","name":"Niedersachsen"}},{"name":"Zentrumstr.","postalCode":"21706","locality":"Drochtersen","municipality":{"key":"03359013","name":"Drochtersen","type":"Kreisangehörige_Gemeinde"},"district":{"key":"03359","name":"Stade","type":"Landkreis"},"federalState":{"key":"03","name":"Niedersachsen"}},{"name":"Ziegelstr.","postalCode":"21706","locality":"Drochtersen","municipality":{"key":"03359013","name":"Drochtersen","type":"Kreisangehörige_Gemeinde"},"district":{"key":"03359","name":"Stade","type":"Landkreis"},"federalState":{"key":"03","name":"Niedersachsen"}},{"name":"Zur Elbaussicht","postalCode":"21706","locality":"Drochtersen","municipality":{"key":"03359013","name":"Drochtersen","type":"Kreisangehörige_Gemeinde"},"district":{"key":"03359","name":"Stade","type":"Landkreis"},"federalState":{"key":"03","name":"Niedersachsen"}},{"name":"Zur Wettern","postalCode":"21706","locality":"Drochtersen","municipality":{"key":"03359013","name":"Drochtersen","type":"Kreisangehörige_Gemeinde"},"district":{"key":"03359","name":"Stade","type":"Landkreis"},"federalState":{"key":"03","name":"Niedersachsen"}},{"name":"Über den Burgwiesen","postalCode":"21682","locality":"Stade","municipality":{"key":"03359038","name":"Stade, Hansestadt","type":"Stadt"},"district":{"key":"03359","name":"Stade","type":"Landkreis"},"federalState":{"key":"03","name":"Niedersachsen"}},]