[{"name":"Aizenreute","postalCode":"88175","locality":"Scheidegg","municipality":{"key":"09776125","name":"Scheidegg, M","type":"Markt"},"district":{"key":"09776","name":"Lindau (Bodensee)","type":"Landkreis"},"federalState":{"key":"09","name":"Bayern"}},{"name":"Alemannenweg","postalCode":"88175","locality":"Scheidegg","municipality":{"key":"09776125","name":"Scheidegg, M","type":"Markt"},"district":{"key":"09776","name":"Lindau (Bodensee)","type":"Landkreis"},"federalState":{"key":"09","name":"Bayern"}},{"name":"Allmannsried","postalCode":"88175","locality":"Scheidegg","municipality":{"key":"09776125","name":"Scheidegg, M","type":"Markt"},"district":{"key":"09776","name":"Lindau (Bodensee)","type":"Landkreis"},"federalState":{"key":"09","name":"Bayern"}},{"name":"Alte Salzstr.","postalCode":"88175","locality":"Scheidegg","municipality":{"key":"09776125","name":"Scheidegg, M","type":"Markt"},"district":{"key":"09776","name":"Lindau (Bodensee)","type":"Landkreis"},"federalState":{"key":"09","name":"Bayern"}},{"name":"Alt-Lindenau","postalCode":"88175","locality":"Scheidegg","municipality":{"key":"09776125","name":"Scheidegg, M","type":"Markt"},"district":{"key":"09776","name":"Lindau (Bodensee)","type":"Landkreis"},"federalState":{"key":"09","name":"Bayern"}},{"name":"Am Blasenberg","postalCode":"88175","locality":"Scheidegg","municipality":{"key":"09776125","name":"Scheidegg, M","type":"Markt"},"district":{"key":"09776","name":"Lindau (Bodensee)","type":"Landkreis"},"federalState":{"key":"09","name":"Bayern"}},{"name":"Am Brunnenbühl","postalCode":"88175","locality":"Scheidegg","municipality":{"key":"09776125","name":"Scheidegg, M","type":"Markt"},"district":{"key":"09776","name":"Lindau (Bodensee)","type":"Landkreis"},"federalState":{"key":"09","name":"Bayern"}},{"name":"Am Durchlaß","postalCode":"88175","locality":"Scheidegg","municipality":{"key":"09776125","name":"Scheidegg, M","type":"Markt"},"district":{"key":"09776","name":"Lindau (Bodensee)","type":"Landkreis"},"federalState":{"key":"09","name":"Bayern"}},{"name":"Am Hammerbach","postalCode":"88175","locality":"Scheidegg","municipality":{"key":"09776125","name":"Scheidegg, M","type":"Markt"},"district":{"key":"09776","name":"Lindau (Bodensee)","type":"Landkreis"},"federalState":{"key":"09","name":"Bayern"}},{"name":"Am Kurpark","postalCode":"88175","locality":"Scheidegg","municipality":{"key":"09776125","name":"Scheidegg, M","type":"Markt"},"district":{"key":"09776","name":"Lindau (Bodensee)","type":"Landkreis"},"federalState":{"key":"09","name":"Bayern"}},{"name":"Am Sonnenhang","postalCode":"88175","locality":"Scheidegg","municipality":{"key":"09776125","name":"Scheidegg, M","type":"Markt"},"district":{"key":"09776","name":"Lindau (Bodensee)","type":"Landkreis"},"federalState":{"key":"09","name":"Bayern"}},{"name":"Am Sportplatz","postalCode":"88175","locality":"Scheidegg","municipality":{"key":"09776125","name":"Scheidegg, M","type":"Markt"},"district":{"key":"09776","name":"Lindau (Bodensee)","type":"Landkreis"},"federalState":{"key":"09","name":"Bayern"}},{"name":"Auf der Kutte","postalCode":"88175","locality":"Scheidegg","municipality":{"key":"09776125","name":"Scheidegg, M","type":"Markt"},"district":{"key":"09776","name":"Lindau (Bodensee)","type":"Landkreis"},"federalState":{"key":"09","name":"Bayern"}},{"name":"Auf der Schnurre","postalCode":"88175","locality":"Scheidegg","municipality":{"key":"09776125","name":"Scheidegg, M","type":"Markt"},"district":{"key":"09776","name":"Lindau (Bodensee)","type":"Landkreis"},"federalState":{"key":"09","name":"Bayern"}},{"name":"Bahnhofstr.","postalCode":"88175","locality":"Scheidegg","municipality":{"key":"09776125","name":"Scheidegg, M","type":"Markt"},"district":{"key":"09776","name":"Lindau (Bodensee)","type":"Landkreis"},"federalState":{"key":"09","name":"Bayern"}},{"name":"Barfußpfad","postalCode":"88175","locality":"Scheidegg","municipality":{"key":"09776125","name":"Scheidegg, M","type":"Markt"},"district":{"key":"09776","name":"Lindau (Bodensee)","type":"Landkreis"},"federalState":{"key":"09","name":"Bayern"}},{"name":"Baumwipfelpfad","postalCode":"88175","locality":"Scheidegg","municipality":{"key":"09776125","name":"Scheidegg, M","type":"Markt"},"district":{"key":"09776","name":"Lindau (Bodensee)","type":"Landkreis"},"federalState":{"key":"09","name":"Bayern"}},{"name":"Bergstr.","postalCode":"88175","locality":"Scheidegg","municipality":{"key":"09776125","name":"Scheidegg, M","type":"Markt"},"district":{"key":"09776","name":"Lindau (Bodensee)","type":"Landkreis"},"federalState":{"key":"09","name":"Bayern"}},{"name":"Bergwaldweg","postalCode":"88175","locality":"Scheidegg","municipality":{"key":"09776125","name":"Scheidegg, M","type":"Markt"},"district":{"key":"09776","name":"Lindau (Bodensee)","type":"Landkreis"},"federalState":{"key":"09","name":"Bayern"}},{"name":"Bieslings","postalCode":"88175","locality":"Scheidegg","municipality":{"key":"09776125","name":"Scheidegg, M","type":"Markt"},"district":{"key":"09776","name":"Lindau (Bodensee)","type":"Landkreis"},"federalState":{"key":"09","name":"Bayern"}},{"name":"Birkenweg","postalCode":"88175","locality":"Scheidegg","municipality":{"key":"09776125","name":"Scheidegg, M","type":"Markt"},"district":{"key":"09776","name":"Lindau (Bodensee)","type":"Landkreis"},"federalState":{"key":"09","name":"Bayern"}},{"name":"Blasenbergstr.","postalCode":"88175","locality":"Scheidegg","municipality":{"key":"09776125","name":"Scheidegg, M","type":"Markt"},"district":{"key":"09776","name":"Lindau (Bodensee)","type":"Landkreis"},"federalState":{"key":"09","name":"Bayern"}},{"name":"Blümele","postalCode":"88175","locality":"Scheidegg","municipality":{"key":"09776125","name":"Scheidegg, M","type":"Markt"},"district":{"key":"09776","name":"Lindau (Bodensee)","type":"Landkreis"},"federalState":{"key":"09","name":"Bayern"}},{"name":"Blumenweg","postalCode":"88175","locality":"Scheidegg","municipality":{"key":"09776125","name":"Scheidegg, M","type":"Markt"},"district":{"key":"09776","name":"Lindau (Bodensee)","type":"Landkreis"},"federalState":{"key":"09","name":"Bayern"}},{"name":"Böserscheidegg","postalCode":"88175","locality":"Scheidegg","municipality":{"key":"09776125","name":"Scheidegg, M","type":"Markt"},"district":{"key":"09776","name":"Lindau (Bodensee)","type":"Landkreis"},"federalState":{"key":"09","name":"Bayern"}},{"name":"Bräuhausstr.","postalCode":"88175","locality":"Scheidegg","municipality":{"key":"09776125","name":"Scheidegg, M","type":"Markt"},"district":{"key":"09776","name":"Lindau (Bodensee)","type":"Landkreis"},"federalState":{"key":"09","name":"Bayern"}},{"name":"Buchenbühl","postalCode":"88175","locality":"Scheidegg","municipality":{"key":"09776125","name":"Scheidegg, M","type":"Markt"},"district":{"key":"09776","name":"Lindau (Bodensee)","type":"Landkreis"},"federalState":{"key":"09","name":"Bayern"}},{"name":"Buflingsried","postalCode":"88175","locality":"Scheidegg","municipality":{"key":"09776125","name":"Scheidegg, M","type":"Markt"},"district":{"key":"09776","name":"Lindau (Bodensee)","type":"Landkreis"},"federalState":{"key":"09","name":"Bayern"}},{"name":"Diepen","postalCode":"88175","locality":"Scheidegg","municipality":{"key":"09776125","name":"Scheidegg, M","type":"Markt"},"district":{"key":"09776","name":"Lindau (Bodensee)","type":"Landkreis"},"federalState":{"key":"09","name":"Bayern"}},{"name":"Emille-Röhl-Weg","postalCode":"88175","locality":"Scheidegg","municipality":{"key":"09776125","name":"Scheidegg, M","type":"Markt"},"district":{"key":"09776","name":"Lindau (Bodensee)","type":"Landkreis"},"federalState":{"key":"09","name":"Bayern"}},{"name":"Falkenweg","postalCode":"88175","locality":"Scheidegg","municipality":{"key":"09776125","name":"Scheidegg, M","type":"Markt"},"district":{"key":"09776","name":"Lindau (Bodensee)","type":"Landkreis"},"federalState":{"key":"09","name":"Bayern"}},{"name":"Färbergasse","postalCode":"88175","locality":"Scheidegg","municipality":{"key":"09776125","name":"Scheidegg, M","type":"Markt"},"district":{"key":"09776","name":"Lindau (Bodensee)","type":"Landkreis"},"federalState":{"key":"09","name":"Bayern"}},{"name":"Forst","postalCode":"88175","locality":"Scheidegg","municipality":{"key":"09776125","name":"Scheidegg, M","type":"Markt"},"district":{"key":"09776","name":"Lindau (Bodensee)","type":"Landkreis"},"federalState":{"key":"09","name":"Bayern"}},{"name":"Forstenhäuser","postalCode":"88175","locality":"Scheidegg","municipality":{"key":"09776125","name":"Scheidegg, M","type":"Markt"},"district":{"key":"09776","name":"Lindau (Bodensee)","type":"Landkreis"},"federalState":{"key":"09","name":"Bayern"}},{"name":"Friedrichshöhe","postalCode":"88175","locality":"Scheidegg","municipality":{"key":"09776125","name":"Scheidegg, M","type":"Markt"},"district":{"key":"09776","name":"Lindau (Bodensee)","type":"Landkreis"},"federalState":{"key":"09","name":"Bayern"}},{"name":"Gartenstr.","postalCode":"88175","locality":"Scheidegg","municipality":{"key":"09776125","name":"Scheidegg, M","type":"Markt"},"district":{"key":"09776","name":"Lindau (Bodensee)","type":"Landkreis"},"federalState":{"key":"09","name":"Bayern"}},{"name":"Grüntenweg","postalCode":"88175","locality":"Scheidegg","municipality":{"key":"09776125","name":"Scheidegg, M","type":"Markt"},"district":{"key":"09776","name":"Lindau (Bodensee)","type":"Landkreis"},"federalState":{"key":"09","name":"Bayern"}},{"name":"Halde","postalCode":"88175","locality":"Scheidegg","municipality":{"key":"09776125","name":"Scheidegg, M","type":"Markt"},"district":{"key":"09776","name":"Lindau (Bodensee)","type":"Landkreis"},"federalState":{"key":"09","name":"Bayern"}},{"name":"Hammerbühlstr.","postalCode":"88175","locality":"Scheidegg","municipality":{"key":"09776125","name":"Scheidegg, M","type":"Markt"},"district":{"key":"09776","name":"Lindau (Bodensee)","type":"Landkreis"},"federalState":{"key":"09","name":"Bayern"}},{"name":"Haslacher Str.","postalCode":"88175","locality":"Scheidegg","municipality":{"key":"09776125","name":"Scheidegg, M","type":"Markt"},"district":{"key":"09776","name":"Lindau (Bodensee)","type":"Landkreis"},"federalState":{"key":"09","name":"Bayern"}},{"name":"Haus","postalCode":"88175","locality":"Scheidegg","municipality":{"key":"09776125","name":"Scheidegg, M","type":"Markt"},"district":{"key":"09776","name":"Lindau (Bodensee)","type":"Landkreis"},"federalState":{"key":"09","name":"Bayern"}},{"name":"Häuslings","postalCode":"88175","locality":"Scheidegg","municipality":{"key":"09776125","name":"Scheidegg, M","type":"Markt"},"district":{"key":"09776","name":"Lindau (Bodensee)","type":"Landkreis"},"federalState":{"key":"09","name":"Bayern"}},{"name":"Hirschbergweg","postalCode":"88175","locality":"Scheidegg","municipality":{"key":"09776125","name":"Scheidegg, M","type":"Markt"},"district":{"key":"09776","name":"Lindau (Bodensee)","type":"Landkreis"},"federalState":{"key":"09","name":"Bayern"}},{"name":"Hitzenbühl","postalCode":"88175","locality":"Scheidegg","municipality":{"key":"09776125","name":"Scheidegg, M","type":"Markt"},"district":{"key":"09776","name":"Lindau (Bodensee)","type":"Landkreis"},"federalState":{"key":"09","name":"Bayern"}},{"name":"Hochbergstr.","postalCode":"88175","locality":"Scheidegg","municipality":{"key":"09776125","name":"Scheidegg, M","type":"Markt"},"district":{"key":"09776","name":"Lindau (Bodensee)","type":"Landkreis"},"federalState":{"key":"09","name":"Bayern"}},{"name":"Hochgratstr.","postalCode":"88175","locality":"Scheidegg","municipality":{"key":"09776125","name":"Scheidegg, M","type":"Markt"},"district":{"key":"09776","name":"Lindau (Bodensee)","type":"Landkreis"},"federalState":{"key":"09","name":"Bayern"}},{"name":"Höhenweg-Kreuzberg","postalCode":"88175","locality":"Scheidegg","municipality":{"key":"09776125","name":"Scheidegg, M","type":"Markt"},"district":{"key":"09776","name":"Lindau (Bodensee)","type":"Landkreis"},"federalState":{"key":"09","name":"Bayern"}},{"name":"Hummelweg","postalCode":"88175","locality":"Scheidegg","municipality":{"key":"09776125","name":"Scheidegg, M","type":"Markt"},"district":{"key":"09776","name":"Lindau (Bodensee)","type":"Landkreis"},"federalState":{"key":"09","name":"Bayern"}},{"name":"Im Ahornbühl","postalCode":"88175","locality":"Scheidegg","municipality":{"key":"09776125","name":"Scheidegg, M","type":"Markt"},"district":{"key":"09776","name":"Lindau (Bodensee)","type":"Landkreis"},"federalState":{"key":"09","name":"Bayern"}},{"name":"Käsegasse","postalCode":"88175","locality":"Scheidegg","municipality":{"key":"09776125","name":"Scheidegg, M","type":"Markt"},"district":{"key":"09776","name":"Lindau (Bodensee)","type":"Landkreis"},"federalState":{"key":"09","name":"Bayern"}},{"name":"Kirchenanger","postalCode":"88175","locality":"Scheidegg","municipality":{"key":"09776125","name":"Scheidegg, M","type":"Markt"},"district":{"key":"09776","name":"Lindau (Bodensee)","type":"Landkreis"},"federalState":{"key":"09","name":"Bayern"}},{"name":"Kirchstr.","postalCode":"88175","locality":"Scheidegg","municipality":{"key":"09776125","name":"Scheidegg, M","type":"Markt"},"district":{"key":"09776","name":"Lindau (Bodensee)","type":"Landkreis"},"federalState":{"key":"09","name":"Bayern"}},{"name":"Kohlplatzweg","postalCode":"88175","locality":"Scheidegg","municipality":{"key":"09776125","name":"Scheidegg, M","type":"Markt"},"district":{"key":"09776","name":"Lindau (Bodensee)","type":"Landkreis"},"federalState":{"key":"09","name":"Bayern"}},{"name":"Kreuzbergweg","postalCode":"88175","locality":"Scheidegg","municipality":{"key":"09776125","name":"Scheidegg, M","type":"Markt"},"district":{"key":"09776","name":"Lindau (Bodensee)","type":"Landkreis"},"federalState":{"key":"09","name":"Bayern"}},{"name":"Kurstr.","postalCode":"88175","locality":"Scheidegg","municipality":{"key":"09776125","name":"Scheidegg, M","type":"Markt"},"district":{"key":"09776","name":"Lindau (Bodensee)","type":"Landkreis"},"federalState":{"key":"09","name":"Bayern"}},{"name":"Leintobelweg","postalCode":"88175","locality":"Scheidegg","municipality":{"key":"09776125","name":"Scheidegg, M","type":"Markt"},"district":{"key":"09776","name":"Lindau (Bodensee)","type":"Landkreis"},"federalState":{"key":"09","name":"Bayern"}},{"name":"Lindenweg","postalCode":"88175","locality":"Scheidegg","municipality":{"key":"09776125","name":"Scheidegg, M","type":"Markt"},"district":{"key":"09776","name":"Lindau (Bodensee)","type":"Landkreis"},"federalState":{"key":"09","name":"Bayern"}},{"name":"Mittlere Spielershalde","postalCode":"88175","locality":"Scheidegg","municipality":{"key":"09776125","name":"Scheidegg, M","type":"Markt"},"district":{"key":"09776","name":"Lindau (Bodensee)","type":"Landkreis"},"federalState":{"key":"09","name":"Bayern"}},{"name":"Moosweg","postalCode":"88175","locality":"Scheidegg","municipality":{"key":"09776125","name":"Scheidegg, M","type":"Markt"},"district":{"key":"09776","name":"Lindau (Bodensee)","type":"Landkreis"},"federalState":{"key":"09","name":"Bayern"}},{"name":"Neuhaus","postalCode":"88175","locality":"Scheidegg","municipality":{"key":"09776125","name":"Scheidegg, M","type":"Markt"},"district":{"key":"09776","name":"Lindau (Bodensee)","type":"Landkreis"},"federalState":{"key":"09","name":"Bayern"}},{"name":"Obere Spielershalde","postalCode":"88175","locality":"Scheidegg","municipality":{"key":"09776125","name":"Scheidegg, M","type":"Markt"},"district":{"key":"09776","name":"Lindau (Bodensee)","type":"Landkreis"},"federalState":{"key":"09","name":"Bayern"}},{"name":"Oberschwenden","postalCode":"88175","locality":"Scheidegg","municipality":{"key":"09776125","name":"Scheidegg, M","type":"Markt"},"district":{"key":"09776","name":"Lindau (Bodensee)","type":"Landkreis"},"federalState":{"key":"09","name":"Bayern"}},{"name":"Oberstein","postalCode":"88175","locality":"Scheidegg","municipality":{"key":"09776125","name":"Scheidegg, M","type":"Markt"},"district":{"key":"09776","name":"Lindau (Bodensee)","type":"Landkreis"},"federalState":{"key":"09","name":"Bayern"}},{"name":"Ostkinberg","postalCode":"88175","locality":"Scheidegg","municipality":{"key":"09776125","name":"Scheidegg, M","type":"Markt"},"district":{"key":"09776","name":"Lindau (Bodensee)","type":"Landkreis"},"federalState":{"key":"09","name":"Bayern"}},{"name":"Pfänderweg","postalCode":"88175","locality":"Scheidegg","municipality":{"key":"09776125","name":"Scheidegg, M","type":"Markt"},"district":{"key":"09776","name":"Lindau (Bodensee)","type":"Landkreis"},"federalState":{"key":"09","name":"Bayern"}},{"name":"Pfarrer-Kneipp-Park","postalCode":"88175","locality":"Scheidegg","municipality":{"key":"09776125","name":"Scheidegg, M","type":"Markt"},"district":{"key":"09776","name":"Lindau (Bodensee)","type":"Landkreis"},"federalState":{"key":"09","name":"Bayern"}},{"name":"Pfarrer-Kneipp-Weg","postalCode":"88175","locality":"Scheidegg","municipality":{"key":"09776125","name":"Scheidegg, M","type":"Markt"},"district":{"key":"09776","name":"Lindau (Bodensee)","type":"Landkreis"},"federalState":{"key":"09","name":"Bayern"}},{"name":"Pfarrweg","postalCode":"88175","locality":"Scheidegg","municipality":{"key":"09776125","name":"Scheidegg, M","type":"Markt"},"district":{"key":"09776","name":"Lindau (Bodensee)","type":"Landkreis"},"federalState":{"key":"09","name":"Bayern"}},{"name":"Prinzregent-Luitpold-Str.","postalCode":"88175","locality":"Scheidegg","municipality":{"key":"09776125","name":"Scheidegg, M","type":"Markt"},"district":{"key":"09776","name":"Lindau (Bodensee)","type":"Landkreis"},"federalState":{"key":"09","name":"Bayern"}},{"name":"Rappenfluh","postalCode":"88175","locality":"Scheidegg","municipality":{"key":"09776125","name":"Scheidegg, M","type":"Markt"},"district":{"key":"09776","name":"Lindau (Bodensee)","type":"Landkreis"},"federalState":{"key":"09","name":"Bayern"}},{"name":"Rathausplatz","postalCode":"88175","locality":"Scheidegg","municipality":{"key":"09776125","name":"Scheidegg, M","type":"Markt"},"district":{"key":"09776","name":"Lindau (Bodensee)","type":"Landkreis"},"federalState":{"key":"09","name":"Bayern"}},{"name":"Rickenbach","postalCode":"88175","locality":"Scheidegg","municipality":{"key":"09776125","name":"Scheidegg, M","type":"Markt"},"district":{"key":"09776","name":"Lindau (Bodensee)","type":"Landkreis"},"federalState":{"key":"09","name":"Bayern"}},{"name":"Sankt-Gallus-Weg","postalCode":"88175","locality":"Scheidegg","municipality":{"key":"09776125","name":"Scheidegg, M","type":"Markt"},"district":{"key":"09776","name":"Lindau (Bodensee)","type":"Landkreis"},"federalState":{"key":"09","name":"Bayern"}},{"name":"Scheffau","postalCode":"88175","locality":"Scheidegg","municipality":{"key":"09776125","name":"Scheidegg, M","type":"Markt"},"district":{"key":"09776","name":"Lindau (Bodensee)","type":"Landkreis"},"federalState":{"key":"09","name":"Bayern"}},{"name":"Schlosserweg","postalCode":"88175","locality":"Scheidegg","municipality":{"key":"09776125","name":"Scheidegg, M","type":"Markt"},"district":{"key":"09776","name":"Lindau (Bodensee)","type":"Landkreis"},"federalState":{"key":"09","name":"Bayern"}},{"name":"Siedlung Heimatland","postalCode":"88175","locality":"Scheidegg","municipality":{"key":"09776125","name":"Scheidegg, M","type":"Markt"},"district":{"key":"09776","name":"Lindau (Bodensee)","type":"Landkreis"},"federalState":{"key":"09","name":"Bayern"}},{"name":"Silberdistel Naturlehrpfad","postalCode":"88175","locality":"Scheidegg","municipality":{"key":"09776125","name":"Scheidegg, M","type":"Markt"},"district":{"key":"09776","name":"Lindau (Bodensee)","type":"Landkreis"},"federalState":{"key":"09","name":"Bayern"}},{"name":"Sonnenstr.","postalCode":"88175","locality":"Scheidegg","municipality":{"key":"09776125","name":"Scheidegg, M","type":"Markt"},"district":{"key":"09776","name":"Lindau (Bodensee)","type":"Landkreis"},"federalState":{"key":"09","name":"Bayern"}},{"name":"Untere Spielershalde","postalCode":"88175","locality":"Scheidegg","municipality":{"key":"09776125","name":"Scheidegg, M","type":"Markt"},"district":{"key":"09776","name":"Lindau (Bodensee)","type":"Landkreis"},"federalState":{"key":"09","name":"Bayern"}},{"name":"Unterschwenden","postalCode":"88175","locality":"Scheidegg","municipality":{"key":"09776125","name":"Scheidegg, M","type":"Markt"},"district":{"key":"09776","name":"Lindau (Bodensee)","type":"Landkreis"},"federalState":{"key":"09","name":"Bayern"}},{"name":"Waldsee Rundweg","postalCode":"88175","locality":"Scheidegg","municipality":{"key":"09776125","name":"Scheidegg, M","type":"Markt"},"district":{"key":"09776","name":"Lindau (Bodensee)","type":"Landkreis"},"federalState":{"key":"09","name":"Bayern"}},{"name":"Waldweg","postalCode":"88175","locality":"Scheidegg","municipality":{"key":"09776125","name":"Scheidegg, M","type":"Markt"},"district":{"key":"09776","name":"Lindau (Bodensee)","type":"Landkreis"},"federalState":{"key":"09","name":"Bayern"}},{"name":"Widdumweg","postalCode":"88175","locality":"Scheidegg","municipality":{"key":"09776125","name":"Scheidegg, M","type":"Markt"},"district":{"key":"09776","name":"Lindau (Bodensee)","type":"Landkreis"},"federalState":{"key":"09","name":"Bayern"}},{"name":"Wiesenrain","postalCode":"88175","locality":"Scheidegg","municipality":{"key":"09776125","name":"Scheidegg, M","type":"Markt"},"district":{"key":"09776","name":"Lindau (Bodensee)","type":"Landkreis"},"federalState":{"key":"09","name":"Bayern"}},{"name":"Zollstr.","postalCode":"88175","locality":"Scheidegg","municipality":{"key":"09776125","name":"Scheidegg, M","type":"Markt"},"district":{"key":"09776","name":"Lindau (Bodensee)","type":"Landkreis"},"federalState":{"key":"09","name":"Bayern"}},]