[{"key":"10185364","name":"Abri","postalCode":"5112","locality":"Thalheim AG","commune":{"key":"4117","name":"Thalheim (AG)","shortName":"Thalheim (AG)"},"district":{"key":"1904","name":"Bezirk Brugg"},"canton":{"key":"19","code":"AG","name":"Aargau"},"status":"Real"},{"key":"10050608","name":"Am Bach","postalCode":"5112","locality":"Thalheim AG","commune":{"key":"4117","name":"Thalheim (AG)","shortName":"Thalheim (AG)"},"district":{"key":"1904","name":"Bezirk Brugg"},"canton":{"key":"19","code":"AG","name":"Aargau"},"status":"Real"},{"key":"10101803","name":"Bachweg","postalCode":"5112","locality":"Thalheim AG","commune":{"key":"4117","name":"Thalheim (AG)","shortName":"Thalheim (AG)"},"district":{"key":"1904","name":"Bezirk Brugg"},"canton":{"key":"19","code":"AG","name":"Aargau"},"status":"Real"},{"key":"10034544","name":"Bäckereiweg","postalCode":"5112","locality":"Thalheim AG","commune":{"key":"4117","name":"Thalheim (AG)","shortName":"Thalheim (AG)"},"district":{"key":"1904","name":"Bezirk Brugg"},"canton":{"key":"19","code":"AG","name":"Aargau"},"status":"Real"},{"key":"10193698","name":"Bärenmatte","postalCode":"5112","locality":"Thalheim AG","commune":{"key":"4117","name":"Thalheim (AG)","shortName":"Thalheim (AG)"},"district":{"key":"1904","name":"Bezirk Brugg"},"canton":{"key":"19","code":"AG","name":"Aargau"},"status":"Real"},{"key":"10034543","name":"Berg","postalCode":"5112","locality":"Thalheim AG","commune":{"key":"4117","name":"Thalheim (AG)","shortName":"Thalheim (AG)"},"district":{"key":"1904","name":"Bezirk Brugg"},"canton":{"key":"19","code":"AG","name":"Aargau"},"status":"Real"},{"key":"10069644","name":"Breite","postalCode":"5112","locality":"Thalheim AG","commune":{"key":"4117","name":"Thalheim (AG)","shortName":"Thalheim (AG)"},"district":{"key":"1904","name":"Bezirk Brugg"},"canton":{"key":"19","code":"AG","name":"Aargau"},"status":"Real"},{"key":"10050609","name":"Bruggmatt","postalCode":"5112","locality":"Thalheim AG","commune":{"key":"4117","name":"Thalheim (AG)","shortName":"Thalheim (AG)"},"district":{"key":"1904","name":"Bezirk Brugg"},"canton":{"key":"19","code":"AG","name":"Aargau"},"status":"Real"},{"key":"10112869","name":"Brunnmatt","postalCode":"5112","locality":"Thalheim AG","commune":{"key":"4117","name":"Thalheim (AG)","shortName":"Thalheim (AG)"},"district":{"key":"1904","name":"Bezirk Brugg"},"canton":{"key":"19","code":"AG","name":"Aargau"},"status":"Real"},{"key":"10188330","name":"Egghof","postalCode":"5112","locality":"Thalheim AG","commune":{"key":"4117","name":"Thalheim (AG)","shortName":"Thalheim (AG)"},"district":{"key":"1904","name":"Bezirk Brugg"},"canton":{"key":"19","code":"AG","name":"Aargau"},"status":"Real"},{"key":"10124760","name":"Eich","postalCode":"5112","locality":"Thalheim AG","commune":{"key":"4117","name":"Thalheim (AG)","shortName":"Thalheim (AG)"},"district":{"key":"1904","name":"Bezirk Brugg"},"canton":{"key":"19","code":"AG","name":"Aargau"},"status":"Real"},{"key":"10050610","name":"Elmhard","postalCode":"5112","locality":"Thalheim AG","commune":{"key":"4117","name":"Thalheim (AG)","shortName":"Thalheim (AG)"},"district":{"key":"1904","name":"Bezirk Brugg"},"canton":{"key":"19","code":"AG","name":"Aargau"},"status":"Real"},{"key":"10034545","name":"Gässli","postalCode":"5112","locality":"Thalheim AG","commune":{"key":"4117","name":"Thalheim (AG)","shortName":"Thalheim (AG)"},"district":{"key":"1904","name":"Bezirk Brugg"},"canton":{"key":"19","code":"AG","name":"Aargau"},"status":"Real"},{"key":"10101804","name":"Gländ","postalCode":"5112","locality":"Thalheim AG","commune":{"key":"4117","name":"Thalheim (AG)","shortName":"Thalheim (AG)"},"district":{"key":"1904","name":"Bezirk Brugg"},"canton":{"key":"19","code":"AG","name":"Aargau"},"status":"Real"},{"key":"10123546","name":"Häuptli","postalCode":"5112","locality":"Thalheim AG","commune":{"key":"4117","name":"Thalheim (AG)","shortName":"Thalheim (AG)"},"district":{"key":"1904","name":"Bezirk Brugg"},"canton":{"key":"19","code":"AG","name":"Aargau"},"status":"Real"},{"key":"10105034","name":"Hauptstrasse","postalCode":"5112","locality":"Thalheim AG","commune":{"key":"4117","name":"Thalheim (AG)","shortName":"Thalheim (AG)"},"district":{"key":"1904","name":"Bezirk Brugg"},"canton":{"key":"19","code":"AG","name":"Aargau"},"status":"Real"},{"key":"10185365","name":"Hegi","postalCode":"5112","locality":"Thalheim AG","commune":{"key":"4117","name":"Thalheim (AG)","shortName":"Thalheim (AG)"},"district":{"key":"1904","name":"Bezirk Brugg"},"canton":{"key":"19","code":"AG","name":"Aargau"},"status":"Real"},{"key":"10034546","name":"Hofmatt","postalCode":"5112","locality":"Thalheim AG","commune":{"key":"4117","name":"Thalheim (AG)","shortName":"Thalheim (AG)"},"district":{"key":"1904","name":"Bezirk Brugg"},"canton":{"key":"19","code":"AG","name":"Aargau"},"status":"Real"},{"key":"10069645","name":"Hüslimatt","postalCode":"5112","locality":"Thalheim AG","commune":{"key":"4117","name":"Thalheim (AG)","shortName":"Thalheim (AG)"},"district":{"key":"1904","name":"Bezirk Brugg"},"canton":{"key":"19","code":"AG","name":"Aargau"},"status":"Real"},{"key":"10034547","name":"Kilholz","postalCode":"5112","locality":"Thalheim AG","commune":{"key":"4117","name":"Thalheim (AG)","shortName":"Thalheim (AG)"},"district":{"key":"1904","name":"Bezirk Brugg"},"canton":{"key":"19","code":"AG","name":"Aargau"},"status":"Real"},{"key":"10034548","name":"Kirchgasse","postalCode":"5112","locality":"Thalheim AG","commune":{"key":"4117","name":"Thalheim (AG)","shortName":"Thalheim (AG)"},"district":{"key":"1904","name":"Bezirk Brugg"},"canton":{"key":"19","code":"AG","name":"Aargau"},"status":"Real"},{"key":"10034549","name":"Langmatt","postalCode":"5112","locality":"Thalheim AG","commune":{"key":"4117","name":"Thalheim (AG)","shortName":"Thalheim (AG)"},"district":{"key":"1904","name":"Bezirk Brugg"},"canton":{"key":"19","code":"AG","name":"Aargau"},"status":"Real"},{"key":"10097905","name":"Letten","postalCode":"5112","locality":"Thalheim AG","commune":{"key":"4117","name":"Thalheim (AG)","shortName":"Thalheim (AG)"},"district":{"key":"1904","name":"Bezirk Brugg"},"canton":{"key":"19","code":"AG","name":"Aargau"},"status":"Real"},{"key":"10122309","name":"Lindenweg","postalCode":"5112","locality":"Thalheim AG","commune":{"key":"4117","name":"Thalheim (AG)","shortName":"Thalheim (AG)"},"district":{"key":"1904","name":"Bezirk Brugg"},"canton":{"key":"19","code":"AG","name":"Aargau"},"status":"Real"},{"key":"10069646","name":"Lochhübel","postalCode":"5112","locality":"Thalheim AG","commune":{"key":"4117","name":"Thalheim (AG)","shortName":"Thalheim (AG)"},"district":{"key":"1904","name":"Bezirk Brugg"},"canton":{"key":"19","code":"AG","name":"Aargau"},"status":"Real"},{"key":"10138220","name":"Lohweg","postalCode":"5112","locality":"Thalheim AG","commune":{"key":"4117","name":"Thalheim (AG)","shortName":"Thalheim (AG)"},"district":{"key":"1904","name":"Bezirk Brugg"},"canton":{"key":"19","code":"AG","name":"Aargau"},"status":"Real"},{"key":"10180132","name":"Milchbrunnen","postalCode":"5112","locality":"Thalheim AG","commune":{"key":"4117","name":"Thalheim (AG)","shortName":"Thalheim (AG)"},"district":{"key":"1904","name":"Bezirk Brugg"},"canton":{"key":"19","code":"AG","name":"Aargau"},"status":"Real"},{"key":"10034550","name":"Mühle","postalCode":"5112","locality":"Thalheim AG","commune":{"key":"4117","name":"Thalheim (AG)","shortName":"Thalheim (AG)"},"district":{"key":"1904","name":"Bezirk Brugg"},"canton":{"key":"19","code":"AG","name":"Aargau"},"status":"Real"},{"key":"10112870","name":"Neumatt","postalCode":"5112","locality":"Thalheim AG","commune":{"key":"4117","name":"Thalheim (AG)","shortName":"Thalheim (AG)"},"district":{"key":"1904","name":"Bezirk Brugg"},"canton":{"key":"19","code":"AG","name":"Aargau"},"status":"Real"},{"key":"10171694","name":"Neumattstrasse","postalCode":"5112","locality":"Thalheim AG","commune":{"key":"4117","name":"Thalheim (AG)","shortName":"Thalheim (AG)"},"district":{"key":"1904","name":"Bezirk Brugg"},"canton":{"key":"19","code":"AG","name":"Aargau"},"status":"Real"},{"key":"10122176","name":"Niederzelg","postalCode":"5112","locality":"Thalheim AG","commune":{"key":"4117","name":"Thalheim (AG)","shortName":"Thalheim (AG)"},"district":{"key":"1904","name":"Bezirk Brugg"},"canton":{"key":"19","code":"AG","name":"Aargau"},"status":"Real"},{"key":"10101805","name":"Oberdorf","postalCode":"5112","locality":"Thalheim AG","commune":{"key":"4117","name":"Thalheim (AG)","shortName":"Thalheim (AG)"},"district":{"key":"1904","name":"Bezirk Brugg"},"canton":{"key":"19","code":"AG","name":"Aargau"},"status":"Real"},{"key":"10050611","name":"Obere Wingerten","postalCode":"5112","locality":"Thalheim AG","commune":{"key":"4117","name":"Thalheim (AG)","shortName":"Thalheim (AG)"},"district":{"key":"1904","name":"Bezirk Brugg"},"canton":{"key":"19","code":"AG","name":"Aargau"},"status":"Real"},{"key":"10239748","name":"Ortsverbindung","postalCode":"5112","locality":"Thalheim AG","commune":{"key":"4117","name":"Thalheim (AG)","shortName":"Thalheim (AG)"},"district":{"key":"1904","name":"Bezirk Brugg"},"canton":{"key":"19","code":"AG","name":"Aargau"},"status":"Real"},{"key":"10034551","name":"Polenstrasse","postalCode":"5112","locality":"Thalheim AG","commune":{"key":"4117","name":"Thalheim (AG)","shortName":"Thalheim (AG)"},"district":{"key":"1904","name":"Bezirk Brugg"},"canton":{"key":"19","code":"AG","name":"Aargau"},"status":"Real"},{"key":"10190020","name":"Postweg","postalCode":"5112","locality":"Thalheim AG","commune":{"key":"4117","name":"Thalheim (AG)","shortName":"Thalheim (AG)"},"district":{"key":"1904","name":"Bezirk Brugg"},"canton":{"key":"19","code":"AG","name":"Aargau"},"status":"Real"},{"key":"10069647","name":"Riedmatt","postalCode":"5112","locality":"Thalheim AG","commune":{"key":"4117","name":"Thalheim (AG)","shortName":"Thalheim (AG)"},"district":{"key":"1904","name":"Bezirk Brugg"},"canton":{"key":"19","code":"AG","name":"Aargau"},"status":"Real"},{"key":"10101806","name":"Rinderstall","postalCode":"5112","locality":"Thalheim AG","commune":{"key":"4117","name":"Thalheim (AG)","shortName":"Thalheim (AG)"},"district":{"key":"1904","name":"Bezirk Brugg"},"canton":{"key":"19","code":"AG","name":"Aargau"},"status":"Real"},{"key":"10185366","name":"Rischeln","postalCode":"5112","locality":"Thalheim AG","commune":{"key":"4117","name":"Thalheim (AG)","shortName":"Thalheim (AG)"},"district":{"key":"1904","name":"Bezirk Brugg"},"canton":{"key":"19","code":"AG","name":"Aargau"},"status":"Real"},{"key":"10034552","name":"Rosenrain","postalCode":"5112","locality":"Thalheim AG","commune":{"key":"4117","name":"Thalheim (AG)","shortName":"Thalheim (AG)"},"district":{"key":"1904","name":"Bezirk Brugg"},"canton":{"key":"19","code":"AG","name":"Aargau"},"status":"Real"},{"key":"10069648","name":"Schenkenberg","postalCode":"5112","locality":"Thalheim AG","commune":{"key":"4117","name":"Thalheim (AG)","shortName":"Thalheim (AG)"},"district":{"key":"1904","name":"Bezirk Brugg"},"canton":{"key":"19","code":"AG","name":"Aargau"},"status":"Real"},{"key":"10034826","name":"Schlatt","postalCode":"5112","locality":"Thalheim AG","commune":{"key":"4117","name":"Thalheim (AG)","shortName":"Thalheim (AG)"},"district":{"key":"1904","name":"Bezirk Brugg"},"canton":{"key":"19","code":"AG","name":"Aargau"},"status":"Real"},{"key":"10185190","name":"Staffelegghof","postalCode":"5112","locality":"Thalheim AG","commune":{"key":"4117","name":"Thalheim (AG)","shortName":"Thalheim (AG)"},"district":{"key":"1904","name":"Bezirk Brugg"},"canton":{"key":"19","code":"AG","name":"Aargau"},"status":"Real"},{"key":"10239753","name":"Staffeleggstrasse","postalCode":"5112","locality":"Thalheim AG","commune":{"key":"4117","name":"Thalheim (AG)","shortName":"Thalheim (AG)"},"district":{"key":"1904","name":"Bezirk Brugg"},"canton":{"key":"19","code":"AG","name":"Aargau"},"status":"Real"},{"key":"10034827","name":"Stalten","postalCode":"5112","locality":"Thalheim AG","commune":{"key":"4117","name":"Thalheim (AG)","shortName":"Thalheim (AG)"},"district":{"key":"1904","name":"Bezirk Brugg"},"canton":{"key":"19","code":"AG","name":"Aargau"},"status":"Real"},{"key":"10101807","name":"Styg","postalCode":"5112","locality":"Thalheim AG","commune":{"key":"4117","name":"Thalheim (AG)","shortName":"Thalheim (AG)"},"district":{"key":"1904","name":"Bezirk Brugg"},"canton":{"key":"19","code":"AG","name":"Aargau"},"status":"Real"},{"key":"10069649","name":"Tannliweg","postalCode":"5112","locality":"Thalheim AG","commune":{"key":"4117","name":"Thalheim (AG)","shortName":"Thalheim (AG)"},"district":{"key":"1904","name":"Bezirk Brugg"},"canton":{"key":"19","code":"AG","name":"Aargau"},"status":"Real"},{"key":"10034828","name":"Wingerten","postalCode":"5112","locality":"Thalheim AG","commune":{"key":"4117","name":"Thalheim (AG)","shortName":"Thalheim (AG)"},"district":{"key":"1904","name":"Bezirk Brugg"},"canton":{"key":"19","code":"AG","name":"Aargau"},"status":"Real"},{"key":"10060124","name":"Winkel","postalCode":"5112","locality":"Thalheim AG","commune":{"key":"4117","name":"Thalheim (AG)","shortName":"Thalheim (AG)"},"district":{"key":"1904","name":"Bezirk Brugg"},"canton":{"key":"19","code":"AG","name":"Aargau"},"status":"Real"},{"key":"10185367","name":"Zwischenflüe","postalCode":"5112","locality":"Thalheim AG","commune":{"key":"4117","name":"Thalheim (AG)","shortName":"Thalheim (AG)"},"district":{"key":"1904","name":"Bezirk Brugg"},"canton":{"key":"19","code":"AG","name":"Aargau"},"status":"Real"},]