[{"key":"10053266","name":"Achenbergstrasse","postalCode":"5322","locality":"Koblenz","commune":{"key":"4310","name":"Koblenz","shortName":"Koblenz"},"district":{"key":"1911","name":"Bezirk Zurzach"},"canton":{"key":"19","code":"AG","name":"Aargau"},"status":"Real"},{"key":"10116173","name":"Bahnhofstrasse","postalCode":"5322","locality":"Koblenz","commune":{"key":"4310","name":"Koblenz","shortName":"Koblenz"},"district":{"key":"1911","name":"Bezirk Zurzach"},"canton":{"key":"19","code":"AG","name":"Aargau"},"status":"Real"},{"key":"10190257","name":"Buckhalde","postalCode":"5322","locality":"Koblenz","commune":{"key":"4310","name":"Koblenz","shortName":"Koblenz"},"district":{"key":"1911","name":"Bezirk Zurzach"},"canton":{"key":"19","code":"AG","name":"Aargau"},"status":"Real"},{"key":"10036540","name":"Buckstrasse","postalCode":"5322","locality":"Koblenz","commune":{"key":"4310","name":"Koblenz","shortName":"Koblenz"},"district":{"key":"1911","name":"Bezirk Zurzach"},"canton":{"key":"19","code":"AG","name":"Aargau"},"status":"Real"},{"key":"10036541","name":"Bündtlistrasse","postalCode":"5322","locality":"Koblenz","commune":{"key":"4310","name":"Koblenz","shortName":"Koblenz"},"district":{"key":"1911","name":"Bezirk Zurzach"},"canton":{"key":"19","code":"AG","name":"Aargau"},"status":"Real"},{"key":"10053267","name":"Dorfgasse","postalCode":"5322","locality":"Koblenz","commune":{"key":"4310","name":"Koblenz","shortName":"Koblenz"},"district":{"key":"1911","name":"Bezirk Zurzach"},"canton":{"key":"19","code":"AG","name":"Aargau"},"status":"Real"},{"key":"10094812","name":"Eichhaldenstrasse","postalCode":"5322","locality":"Koblenz","commune":{"key":"4310","name":"Koblenz","shortName":"Koblenz"},"district":{"key":"1911","name":"Bezirk Zurzach"},"canton":{"key":"19","code":"AG","name":"Aargau"},"status":"Real"},{"key":"10239806","name":"Fritelweg","postalCode":"5322","locality":"Koblenz","commune":{"key":"4310","name":"Koblenz","shortName":"Koblenz"},"district":{"key":"1911","name":"Bezirk Zurzach"},"canton":{"key":"19","code":"AG","name":"Aargau"},"status":"Real"},{"key":"10072848","name":"Gartenstrasse","postalCode":"5322","locality":"Koblenz","commune":{"key":"4310","name":"Koblenz","shortName":"Koblenz"},"district":{"key":"1911","name":"Bezirk Zurzach"},"canton":{"key":"19","code":"AG","name":"Aargau"},"status":"Real"},{"key":"10053268","name":"Giessenstrasse","postalCode":"5322","locality":"Koblenz","commune":{"key":"4310","name":"Koblenz","shortName":"Koblenz"},"district":{"key":"1911","name":"Bezirk Zurzach"},"canton":{"key":"19","code":"AG","name":"Aargau"},"status":"Real"},{"key":"10036542","name":"Grabhalde","postalCode":"5322","locality":"Koblenz","commune":{"key":"4310","name":"Koblenz","shortName":"Koblenz"},"district":{"key":"1911","name":"Bezirk Zurzach"},"canton":{"key":"19","code":"AG","name":"Aargau"},"status":"Real"},{"key":"10122714","name":"Gütschhalde","postalCode":"5322","locality":"Koblenz","commune":{"key":"4310","name":"Koblenz","shortName":"Koblenz"},"district":{"key":"1911","name":"Bezirk Zurzach"},"canton":{"key":"19","code":"AG","name":"Aargau"},"status":"Real"},{"key":"10036543","name":"Hinterdorfstrasse","postalCode":"5322","locality":"Koblenz","commune":{"key":"4310","name":"Koblenz","shortName":"Koblenz"},"district":{"key":"1911","name":"Bezirk Zurzach"},"canton":{"key":"19","code":"AG","name":"Aargau"},"status":"Real"},{"key":"10094813","name":"Hinterofenstrasse","postalCode":"5322","locality":"Koblenz","commune":{"key":"4310","name":"Koblenz","shortName":"Koblenz"},"district":{"key":"1911","name":"Bezirk Zurzach"},"canton":{"key":"19","code":"AG","name":"Aargau"},"status":"Real"},{"key":"10072849","name":"Horeb","postalCode":"5322","locality":"Koblenz","commune":{"key":"4310","name":"Koblenz","shortName":"Koblenz"},"district":{"key":"1911","name":"Bezirk Zurzach"},"canton":{"key":"19","code":"AG","name":"Aargau"},"status":"Real"},{"key":"10239767","name":"Horebstrasse","postalCode":"5322","locality":"Koblenz","commune":{"key":"4310","name":"Koblenz","shortName":"Koblenz"},"district":{"key":"1911","name":"Bezirk Zurzach"},"canton":{"key":"19","code":"AG","name":"Aargau"},"status":"Real"},{"key":"10183790","name":"Im Ziehl","postalCode":"5322","locality":"Koblenz","commune":{"key":"4310","name":"Koblenz","shortName":"Koblenz"},"district":{"key":"1911","name":"Bezirk Zurzach"},"canton":{"key":"19","code":"AG","name":"Aargau"},"status":"Real"},{"key":"10190258","name":"Kleinhölzli","postalCode":"5322","locality":"Koblenz","commune":{"key":"4310","name":"Koblenz","shortName":"Koblenz"},"district":{"key":"1911","name":"Bezirk Zurzach"},"canton":{"key":"19","code":"AG","name":"Aargau"},"status":"Real"},{"key":"10036523","name":"Koblenzerstrasse","postalCode":"5322","locality":"Koblenz","commune":{"key":"4310","name":"Koblenz","shortName":"Koblenz"},"district":{"key":"1911","name":"Bezirk Zurzach"},"canton":{"key":"19","code":"AG","name":"Aargau"},"status":"Real"},{"key":"10053269","name":"Kornweg","postalCode":"5322","locality":"Koblenz","commune":{"key":"4310","name":"Koblenz","shortName":"Koblenz"},"district":{"key":"1911","name":"Bezirk Zurzach"},"canton":{"key":"19","code":"AG","name":"Aargau"},"status":"Real"},{"key":"10036544","name":"Krüzmattstrasse","postalCode":"5322","locality":"Koblenz","commune":{"key":"4310","name":"Koblenz","shortName":"Koblenz"},"district":{"key":"1911","name":"Bezirk Zurzach"},"canton":{"key":"19","code":"AG","name":"Aargau"},"status":"Real"},{"key":"10107072","name":"Kuhhalde","postalCode":"5322","locality":"Koblenz","commune":{"key":"4310","name":"Koblenz","shortName":"Koblenz"},"district":{"key":"1911","name":"Bezirk Zurzach"},"canton":{"key":"19","code":"AG","name":"Aargau"},"status":"Real"},{"key":"10072850","name":"Landstrasse","postalCode":"5322","locality":"Koblenz","commune":{"key":"4310","name":"Koblenz","shortName":"Koblenz"},"district":{"key":"1911","name":"Bezirk Zurzach"},"canton":{"key":"19","code":"AG","name":"Aargau"},"status":"Real"},{"key":"10107599","name":"Langfohrenstrasse","postalCode":"5322","locality":"Koblenz","commune":{"key":"4310","name":"Koblenz","shortName":"Koblenz"},"district":{"key":"1911","name":"Bezirk Zurzach"},"canton":{"key":"19","code":"AG","name":"Aargau"},"status":"Real"},{"key":"10036545","name":"Lenggstrasse","postalCode":"5322","locality":"Koblenz","commune":{"key":"4310","name":"Koblenz","shortName":"Koblenz"},"district":{"key":"1911","name":"Bezirk Zurzach"},"canton":{"key":"19","code":"AG","name":"Aargau"},"status":"Real"},{"key":"10094814","name":"Rebhalde","postalCode":"5322","locality":"Koblenz","commune":{"key":"4310","name":"Koblenz","shortName":"Koblenz"},"district":{"key":"1911","name":"Bezirk Zurzach"},"canton":{"key":"19","code":"AG","name":"Aargau"},"status":"Real"},{"key":"10211923","name":"Rebmätteliweg","postalCode":"5322","locality":"Koblenz","commune":{"key":"4310","name":"Koblenz","shortName":"Koblenz"},"district":{"key":"1911","name":"Bezirk Zurzach"},"canton":{"key":"19","code":"AG","name":"Aargau"},"status":"Real"},{"key":"10239811","name":"Rheintalstrasse","postalCode":"5322","locality":"Koblenz","commune":{"key":"4310","name":"Koblenz","shortName":"Koblenz"},"district":{"key":"1911","name":"Bezirk Zurzach"},"canton":{"key":"19","code":"AG","name":"Aargau"},"status":"Real"},{"key":"10036546","name":"Rhygasse","postalCode":"5322","locality":"Koblenz","commune":{"key":"4310","name":"Koblenz","shortName":"Koblenz"},"district":{"key":"1911","name":"Bezirk Zurzach"},"canton":{"key":"19","code":"AG","name":"Aargau"},"status":"Real"},{"key":"10072851","name":"Rütenenstrasse","postalCode":"5322","locality":"Koblenz","commune":{"key":"4310","name":"Koblenz","shortName":"Koblenz"},"district":{"key":"1911","name":"Bezirk Zurzach"},"canton":{"key":"19","code":"AG","name":"Aargau"},"status":"Real"},{"key":"10053270","name":"Rütenenweg","postalCode":"5322","locality":"Koblenz","commune":{"key":"4310","name":"Koblenz","shortName":"Koblenz"},"district":{"key":"1911","name":"Bezirk Zurzach"},"canton":{"key":"19","code":"AG","name":"Aargau"},"status":"Real"},{"key":"10239815","name":"Schlossweg","postalCode":"5322","locality":"Koblenz","commune":{"key":"4310","name":"Koblenz","shortName":"Koblenz"},"district":{"key":"1911","name":"Bezirk Zurzach"},"canton":{"key":"19","code":"AG","name":"Aargau"},"status":"Real"},{"key":"10036547","name":"Schulstrasse","postalCode":"5322","locality":"Koblenz","commune":{"key":"4310","name":"Koblenz","shortName":"Koblenz"},"district":{"key":"1911","name":"Bezirk Zurzach"},"canton":{"key":"19","code":"AG","name":"Aargau"},"status":"Real"},{"key":"10094815","name":"Siedlungsstrasse","postalCode":"5322","locality":"Koblenz","commune":{"key":"4310","name":"Koblenz","shortName":"Koblenz"},"district":{"key":"1911","name":"Bezirk Zurzach"},"canton":{"key":"19","code":"AG","name":"Aargau"},"status":"Real"},{"key":"10036548","name":"Sonnenbühl","postalCode":"5322","locality":"Koblenz","commune":{"key":"4310","name":"Koblenz","shortName":"Koblenz"},"district":{"key":"1911","name":"Bezirk Zurzach"},"canton":{"key":"19","code":"AG","name":"Aargau"},"status":"Real"},{"key":"10189754","name":"Sonnenheimstrasse","postalCode":"5322","locality":"Koblenz","commune":{"key":"4310","name":"Koblenz","shortName":"Koblenz"},"district":{"key":"1911","name":"Bezirk Zurzach"},"canton":{"key":"19","code":"AG","name":"Aargau"},"status":"Real"},{"key":"10036549","name":"Sonnhalde","postalCode":"5322","locality":"Koblenz","commune":{"key":"4310","name":"Koblenz","shortName":"Koblenz"},"district":{"key":"1911","name":"Bezirk Zurzach"},"canton":{"key":"19","code":"AG","name":"Aargau"},"status":"Real"},{"key":"10190259","name":"Sunnehofstrasse","postalCode":"5322","locality":"Koblenz","commune":{"key":"4310","name":"Koblenz","shortName":"Koblenz"},"district":{"key":"1911","name":"Bezirk Zurzach"},"canton":{"key":"19","code":"AG","name":"Aargau"},"status":"Real"},{"key":"10072852","name":"Tüftelstrasse","postalCode":"5322","locality":"Koblenz","commune":{"key":"4310","name":"Koblenz","shortName":"Koblenz"},"district":{"key":"1911","name":"Bezirk Zurzach"},"canton":{"key":"19","code":"AG","name":"Aargau"},"status":"Real"},{"key":"10098198","name":"Unterfeldstrasse","postalCode":"5322","locality":"Koblenz","commune":{"key":"4310","name":"Koblenz","shortName":"Koblenz"},"district":{"key":"1911","name":"Bezirk Zurzach"},"canton":{"key":"19","code":"AG","name":"Aargau"},"status":"Real"},{"key":"10094816","name":"Wiesenstrasse","postalCode":"5322","locality":"Koblenz","commune":{"key":"4310","name":"Koblenz","shortName":"Koblenz"},"district":{"key":"1911","name":"Bezirk Zurzach"},"canton":{"key":"19","code":"AG","name":"Aargau"},"status":"Real"},{"key":"10053271","name":"Wingertstrasse","postalCode":"5322","locality":"Koblenz","commune":{"key":"4310","name":"Koblenz","shortName":"Koblenz"},"district":{"key":"1911","name":"Bezirk Zurzach"},"canton":{"key":"19","code":"AG","name":"Aargau"},"status":"Real"},{"key":"10036550","name":"Zollplatz","postalCode":"5322","locality":"Koblenz","commune":{"key":"4310","name":"Koblenz","shortName":"Koblenz"},"district":{"key":"1911","name":"Bezirk Zurzach"},"canton":{"key":"19","code":"AG","name":"Aargau"},"status":"Real"},]