[{"name":"Alter Weg","postalCode":"56745","locality":"Hausten","municipality":{"key":"07137034","name":"Hausten","type":"Kreisangehörige_Gemeinde"},"district":{"key":"07137","name":"Mayen-Koblenz","type":"Landkreis"},"federalState":{"key":"07","name":"Rheinland-Pfalz"}},{"name":"Bergstr.","postalCode":"56745","locality":"Hausten","municipality":{"key":"07137034","name":"Hausten","type":"Kreisangehörige_Gemeinde"},"district":{"key":"07137","name":"Mayen-Koblenz","type":"Landkreis"},"federalState":{"key":"07","name":"Rheinland-Pfalz"}},{"name":"Büchel","postalCode":"56745","locality":"Hausten","municipality":{"key":"07137034","name":"Hausten","type":"Kreisangehörige_Gemeinde"},"district":{"key":"07137","name":"Mayen-Koblenz","type":"Landkreis"},"federalState":{"key":"07","name":"Rheinland-Pfalz"}},{"name":"Burgweg","postalCode":"56745","locality":"Hausten","municipality":{"key":"07137034","name":"Hausten","type":"Kreisangehörige_Gemeinde"},"district":{"key":"07137","name":"Mayen-Koblenz","type":"Landkreis"},"federalState":{"key":"07","name":"Rheinland-Pfalz"}},{"name":"Eichertsweg","postalCode":"56745","locality":"Hausten","municipality":{"key":"07137034","name":"Hausten","type":"Kreisangehörige_Gemeinde"},"district":{"key":"07137","name":"Mayen-Koblenz","type":"Landkreis"},"federalState":{"key":"07","name":"Rheinland-Pfalz"}},{"name":"Gartenstr.","postalCode":"56745","locality":"Hausten","municipality":{"key":"07137034","name":"Hausten","type":"Kreisangehörige_Gemeinde"},"district":{"key":"07137","name":"Mayen-Koblenz","type":"Landkreis"},"federalState":{"key":"07","name":"Rheinland-Pfalz"}},{"name":"Hauptstr.","postalCode":"56745","locality":"Hausten","municipality":{"key":"07137034","name":"Hausten","type":"Kreisangehörige_Gemeinde"},"district":{"key":"07137","name":"Mayen-Koblenz","type":"Landkreis"},"federalState":{"key":"07","name":"Rheinland-Pfalz"}},{"name":"Im Augenberg","postalCode":"56745","locality":"Hausten","municipality":{"key":"07137034","name":"Hausten","type":"Kreisangehörige_Gemeinde"},"district":{"key":"07137","name":"Mayen-Koblenz","type":"Landkreis"},"federalState":{"key":"07","name":"Rheinland-Pfalz"}},{"name":"Im Bungert","postalCode":"56745","locality":"Hausten","municipality":{"key":"07137034","name":"Hausten","type":"Kreisangehörige_Gemeinde"},"district":{"key":"07137","name":"Mayen-Koblenz","type":"Landkreis"},"federalState":{"key":"07","name":"Rheinland-Pfalz"}},{"name":"Mayener Str.","postalCode":"56745","locality":"Hausten","municipality":{"key":"07137034","name":"Hausten","type":"Kreisangehörige_Gemeinde"},"district":{"key":"07137","name":"Mayen-Koblenz","type":"Landkreis"},"federalState":{"key":"07","name":"Rheinland-Pfalz"}},{"name":"Mühlenstr.","postalCode":"56745","locality":"Hausten","municipality":{"key":"07137034","name":"Hausten","type":"Kreisangehörige_Gemeinde"},"district":{"key":"07137","name":"Mayen-Koblenz","type":"Landkreis"},"federalState":{"key":"07","name":"Rheinland-Pfalz"}},{"name":"Netterweg","postalCode":"56745","locality":"Hausten","municipality":{"key":"07137034","name":"Hausten","type":"Kreisangehörige_Gemeinde"},"district":{"key":"07137","name":"Mayen-Koblenz","type":"Landkreis"},"federalState":{"key":"07","name":"Rheinland-Pfalz"}},{"name":"Oberdorfstr.","postalCode":"56745","locality":"Hausten","municipality":{"key":"07137034","name":"Hausten","type":"Kreisangehörige_Gemeinde"},"district":{"key":"07137","name":"Mayen-Koblenz","type":"Landkreis"},"federalState":{"key":"07","name":"Rheinland-Pfalz"}},{"name":"Unter den Zäunen","postalCode":"56745","locality":"Hausten","municipality":{"key":"07137034","name":"Hausten","type":"Kreisangehörige_Gemeinde"},"district":{"key":"07137","name":"Mayen-Koblenz","type":"Landkreis"},"federalState":{"key":"07","name":"Rheinland-Pfalz"}},{"name":"Wacholderweg","postalCode":"56745","locality":"Hausten","municipality":{"key":"07137034","name":"Hausten","type":"Kreisangehörige_Gemeinde"},"district":{"key":"07137","name":"Mayen-Koblenz","type":"Landkreis"},"federalState":{"key":"07","name":"Rheinland-Pfalz"}},{"name":"Über der Kapelle","postalCode":"56745","locality":"Hausten","municipality":{"key":"07137034","name":"Hausten","type":"Kreisangehörige_Gemeinde"},"district":{"key":"07137","name":"Mayen-Koblenz","type":"Landkreis"},"federalState":{"key":"07","name":"Rheinland-Pfalz"}},{"name":"Über der Schleifmühle","postalCode":"56745","locality":"Hausten","municipality":{"key":"07137034","name":"Hausten","type":"Kreisangehörige_Gemeinde"},"district":{"key":"07137","name":"Mayen-Koblenz","type":"Landkreis"},"federalState":{"key":"07","name":"Rheinland-Pfalz"}},]