[{"name":"Dorfstr.","postalCode":"54619","locality":"Lichtenborn","municipality":{"key":"07232260","name":"Lichtenborn","type":"Kreisangehörige_Gemeinde"},"district":{"key":"07232","name":"Eifelkreis Bitburg-Prüm","type":"Landkreis"},"federalState":{"key":"07","name":"Rheinland-Pfalz"}},{"name":"Eulenbruch","postalCode":"54619","locality":"Lichtenborn","municipality":{"key":"07232260","name":"Lichtenborn","type":"Kreisangehörige_Gemeinde"},"district":{"key":"07232","name":"Eifelkreis Bitburg-Prüm","type":"Landkreis"},"federalState":{"key":"07","name":"Rheinland-Pfalz"}},{"name":"Euscheider Str.","postalCode":"54619","locality":"Lichtenborn","municipality":{"key":"07232260","name":"Lichtenborn","type":"Kreisangehörige_Gemeinde"},"district":{"key":"07232","name":"Eifelkreis Bitburg-Prüm","type":"Landkreis"},"federalState":{"key":"07","name":"Rheinland-Pfalz"}},{"name":"Faulenpuhl","postalCode":"54619","locality":"Lichtenborn","municipality":{"key":"07232260","name":"Lichtenborn","type":"Kreisangehörige_Gemeinde"},"district":{"key":"07232","name":"Eifelkreis Bitburg-Prüm","type":"Landkreis"},"federalState":{"key":"07","name":"Rheinland-Pfalz"}},{"name":"Fuchswiese","postalCode":"54619","locality":"Lichtenborn","municipality":{"key":"07232260","name":"Lichtenborn","type":"Kreisangehörige_Gemeinde"},"district":{"key":"07232","name":"Eifelkreis Bitburg-Prüm","type":"Landkreis"},"federalState":{"key":"07","name":"Rheinland-Pfalz"}},{"name":"Hauptstr.","postalCode":"54619","locality":"Lichtenborn","municipality":{"key":"07232260","name":"Lichtenborn","type":"Kreisangehörige_Gemeinde"},"district":{"key":"07232","name":"Eifelkreis Bitburg-Prüm","type":"Landkreis"},"federalState":{"key":"07","name":"Rheinland-Pfalz"}},{"name":"Im Bungert","postalCode":"54619","locality":"Lichtenborn","municipality":{"key":"07232260","name":"Lichtenborn","type":"Kreisangehörige_Gemeinde"},"district":{"key":"07232","name":"Eifelkreis Bitburg-Prüm","type":"Landkreis"},"federalState":{"key":"07","name":"Rheinland-Pfalz"}},{"name":"In den Birken","postalCode":"54619","locality":"Lichtenborn","municipality":{"key":"07232260","name":"Lichtenborn","type":"Kreisangehörige_Gemeinde"},"district":{"key":"07232","name":"Eifelkreis Bitburg-Prüm","type":"Landkreis"},"federalState":{"key":"07","name":"Rheinland-Pfalz"}},{"name":"In den Rosen","postalCode":"54619","locality":"Lichtenborn","municipality":{"key":"07232260","name":"Lichtenborn","type":"Kreisangehörige_Gemeinde"},"district":{"key":"07232","name":"Eifelkreis Bitburg-Prüm","type":"Landkreis"},"federalState":{"key":"07","name":"Rheinland-Pfalz"}},{"name":"Kopscheid","postalCode":"54619","locality":"Lichtenborn","municipality":{"key":"07232260","name":"Lichtenborn","type":"Kreisangehörige_Gemeinde"},"district":{"key":"07232","name":"Eifelkreis Bitburg-Prüm","type":"Landkreis"},"federalState":{"key":"07","name":"Rheinland-Pfalz"}},{"name":"Kopscheider Str.","postalCode":"54619","locality":"Lichtenborn","municipality":{"key":"07232260","name":"Lichtenborn","type":"Kreisangehörige_Gemeinde"},"district":{"key":"07232","name":"Eifelkreis Bitburg-Prüm","type":"Landkreis"},"federalState":{"key":"07","name":"Rheinland-Pfalz"}},{"name":"Prümerweg","postalCode":"54619","locality":"Lichtenborn","municipality":{"key":"07232260","name":"Lichtenborn","type":"Kreisangehörige_Gemeinde"},"district":{"key":"07232","name":"Eifelkreis Bitburg-Prüm","type":"Landkreis"},"federalState":{"key":"07","name":"Rheinland-Pfalz"}},{"name":"Schulstr.","postalCode":"54619","locality":"Lichtenborn","municipality":{"key":"07232260","name":"Lichtenborn","type":"Kreisangehörige_Gemeinde"},"district":{"key":"07232","name":"Eifelkreis Bitburg-Prüm","type":"Landkreis"},"federalState":{"key":"07","name":"Rheinland-Pfalz"}},{"name":"Üttfelder Str.","postalCode":"54619","locality":"Lichtenborn","municipality":{"key":"07232260","name":"Lichtenborn","type":"Kreisangehörige_Gemeinde"},"district":{"key":"07232","name":"Eifelkreis Bitburg-Prüm","type":"Landkreis"},"federalState":{"key":"07","name":"Rheinland-Pfalz"}},]