[{"name":"Am Wehl","postalCode":"25761","locality":"Westerdeichstrich","municipality":{"key":"01051132","name":"Westerdeichstrich","type":"Kreisangehörige_Gemeinde"},"district":{"key":"01051","name":"Dithmarschen","type":"Kreis"},"federalState":{"key":"01","name":"Schleswig-Holstein"}},{"name":"Blinkfuer","postalCode":"25761","locality":"Westerdeichstrich","municipality":{"key":"01051132","name":"Westerdeichstrich","type":"Kreisangehörige_Gemeinde"},"district":{"key":"01051","name":"Dithmarschen","type":"Kreis"},"federalState":{"key":"01","name":"Schleswig-Holstein"}},{"name":"Bundesstr.","postalCode":"25761","locality":"Westerdeichstrich","municipality":{"key":"01051132","name":"Westerdeichstrich","type":"Kreisangehörige_Gemeinde"},"district":{"key":"01051","name":"Dithmarschen","type":"Kreis"},"federalState":{"key":"01","name":"Schleswig-Holstein"}},{"name":"Bürgermeister-Hennings-Str.","postalCode":"25761","locality":"Westerdeichstrich","municipality":{"key":"01051132","name":"Westerdeichstrich","type":"Kreisangehörige_Gemeinde"},"district":{"key":"01051","name":"Dithmarschen","type":"Kreis"},"federalState":{"key":"01","name":"Schleswig-Holstein"}},{"name":"Butendörp","postalCode":"25761","locality":"Westerdeichstrich","municipality":{"key":"01051132","name":"Westerdeichstrich","type":"Kreisangehörige_Gemeinde"},"district":{"key":"01051","name":"Dithmarschen","type":"Kreis"},"federalState":{"key":"01","name":"Schleswig-Holstein"}},{"name":"Dorfstr.","postalCode":"25761","locality":"Westerdeichstrich","municipality":{"key":"01051132","name":"Westerdeichstrich","type":"Kreisangehörige_Gemeinde"},"district":{"key":"01051","name":"Dithmarschen","type":"Kreis"},"federalState":{"key":"01","name":"Schleswig-Holstein"}},{"name":"Eichenweg","postalCode":"25712","locality":"Burg (Dithmarschen)","municipality":{"key":"01051016","name":"Burg (Dithmarschen)","type":"Kreisangehörige_Gemeinde"},"district":{"key":"01051","name":"Dithmarschen","type":"Kreis"},"federalState":{"key":"01","name":"Schleswig-Holstein"}},{"name":"Emil-Thießen-Str.","postalCode":"25712","locality":"Burg (Dithmarschen)","municipality":{"key":"01051016","name":"Burg (Dithmarschen)","type":"Kreisangehörige_Gemeinde"},"district":{"key":"01051","name":"Dithmarschen","type":"Kreis"},"federalState":{"key":"01","name":"Schleswig-Holstein"}},{"name":"Erlengrund","postalCode":"25712","locality":"Burg (Dithmarschen)","municipality":{"key":"01051016","name":"Burg (Dithmarschen)","type":"Kreisangehörige_Gemeinde"},"district":{"key":"01051","name":"Dithmarschen","type":"Kreis"},"federalState":{"key":"01","name":"Schleswig-Holstein"}},{"name":"Erwin-Behn-Str.","postalCode":"25712","locality":"Burg (Dithmarschen)","municipality":{"key":"01051016","name":"Burg (Dithmarschen)","type":"Kreisangehörige_Gemeinde"},"district":{"key":"01051","name":"Dithmarschen","type":"Kreis"},"federalState":{"key":"01","name":"Schleswig-Holstein"}},{"name":"Finkwarder","postalCode":"25761","locality":"Westerdeichstrich","municipality":{"key":"01051132","name":"Westerdeichstrich","type":"Kreisangehörige_Gemeinde"},"district":{"key":"01051","name":"Dithmarschen","type":"Kreis"},"federalState":{"key":"01","name":"Schleswig-Holstein"}},{"name":"Friesenwinkel","postalCode":"25761","locality":"Westerdeichstrich","municipality":{"key":"01051132","name":"Westerdeichstrich","type":"Kreisangehörige_Gemeinde"},"district":{"key":"01051","name":"Dithmarschen","type":"Kreis"},"federalState":{"key":"01","name":"Schleswig-Holstein"}},{"name":"Goden Wind","postalCode":"25761","locality":"Westerdeichstrich","municipality":{"key":"01051132","name":"Westerdeichstrich","type":"Kreisangehörige_Gemeinde"},"district":{"key":"01051","name":"Dithmarschen","type":"Kreis"},"federalState":{"key":"01","name":"Schleswig-Holstein"}},{"name":"Gorch-Fock-Straat","postalCode":"25761","locality":"Westerdeichstrich","municipality":{"key":"01051132","name":"Westerdeichstrich","type":"Kreisangehörige_Gemeinde"},"district":{"key":"01051","name":"Dithmarschen","type":"Kreis"},"federalState":{"key":"01","name":"Schleswig-Holstein"}},{"name":"Heunernest","postalCode":"25761","locality":"Westerdeichstrich","municipality":{"key":"01051132","name":"Westerdeichstrich","type":"Kreisangehörige_Gemeinde"},"district":{"key":"01051","name":"Dithmarschen","type":"Kreis"},"federalState":{"key":"01","name":"Schleswig-Holstein"}},{"name":"Johannes-Kuhrt-Str.","postalCode":"25712","locality":"Burg (Dithmarschen)","municipality":{"key":"01051016","name":"Burg (Dithmarschen)","type":"Kreisangehörige_Gemeinde"},"district":{"key":"01051","name":"Dithmarschen","type":"Kreis"},"federalState":{"key":"01","name":"Schleswig-Holstein"}},{"name":"Kiek in de Sün","postalCode":"25761","locality":"Westerdeichstrich","municipality":{"key":"01051132","name":"Westerdeichstrich","type":"Kreisangehörige_Gemeinde"},"district":{"key":"01051","name":"Dithmarschen","type":"Kreis"},"federalState":{"key":"01","name":"Schleswig-Holstein"}},{"name":"Kükdörp","postalCode":"25761","locality":"Westerdeichstrich","municipality":{"key":"01051132","name":"Westerdeichstrich","type":"Kreisangehörige_Gemeinde"},"district":{"key":"01051","name":"Dithmarschen","type":"Kreis"},"federalState":{"key":"01","name":"Schleswig-Holstein"}},{"name":"Lindenstr.","postalCode":"25712","locality":"Burg (Dithmarschen)","municipality":{"key":"01051016","name":"Burg (Dithmarschen)","type":"Kreisangehörige_Gemeinde"},"district":{"key":"01051","name":"Dithmarschen","type":"Kreis"},"federalState":{"key":"01","name":"Schleswig-Holstein"}},{"name":"Müschendörp","postalCode":"25761","locality":"Westerdeichstrich","municipality":{"key":"01051132","name":"Westerdeichstrich","type":"Kreisangehörige_Gemeinde"},"district":{"key":"01051","name":"Dithmarschen","type":"Kreis"},"federalState":{"key":"01","name":"Schleswig-Holstein"}},{"name":"Nordgrovener Weg","postalCode":"25761","locality":"Westerdeichstrich","municipality":{"key":"01051132","name":"Westerdeichstrich","type":"Kreisangehörige_Gemeinde"},"district":{"key":"01051","name":"Dithmarschen","type":"Kreis"},"federalState":{"key":"01","name":"Schleswig-Holstein"}},{"name":"Op'n Diek","postalCode":"25761","locality":"Westerdeichstrich","municipality":{"key":"01051132","name":"Westerdeichstrich","type":"Kreisangehörige_Gemeinde"},"district":{"key":"01051","name":"Dithmarschen","type":"Kreis"},"federalState":{"key":"01","name":"Schleswig-Holstein"}},{"name":"Parallelstr.","postalCode":"25712","locality":"Burg (Dithmarschen)","municipality":{"key":"01051016","name":"Burg (Dithmarschen)","type":"Kreisangehörige_Gemeinde"},"district":{"key":"01051","name":"Dithmarschen","type":"Kreis"},"federalState":{"key":"01","name":"Schleswig-Holstein"}},{"name":"Peter-Göttsche-Str.","postalCode":"25712","locality":"Burg (Dithmarschen)","municipality":{"key":"01051016","name":"Burg (Dithmarschen)","type":"Kreisangehörige_Gemeinde"},"district":{"key":"01051","name":"Dithmarschen","type":"Kreis"},"federalState":{"key":"01","name":"Schleswig-Holstein"}},{"name":"Rudolf-Kinau-Straat","postalCode":"25761","locality":"Westerdeichstrich","municipality":{"key":"01051132","name":"Westerdeichstrich","type":"Kreisangehörige_Gemeinde"},"district":{"key":"01051","name":"Dithmarschen","type":"Kreis"},"federalState":{"key":"01","name":"Schleswig-Holstein"}},{"name":"Stinteck","postalCode":"25761","locality":"Westerdeichstrich","municipality":{"key":"01051132","name":"Westerdeichstrich","type":"Kreisangehörige_Gemeinde"},"district":{"key":"01051","name":"Dithmarschen","type":"Kreis"},"federalState":{"key":"01","name":"Schleswig-Holstein"}},{"name":"Tannenbergallee","postalCode":"25712","locality":"Burg (Dithmarschen)","municipality":{"key":"01051016","name":"Burg (Dithmarschen)","type":"Kreisangehörige_Gemeinde"},"district":{"key":"01051","name":"Dithmarschen","type":"Kreis"},"federalState":{"key":"01","name":"Schleswig-Holstein"}},{"name":"Theodor-Storm-Weg","postalCode":"25712","locality":"Burg (Dithmarschen)","municipality":{"key":"01051016","name":"Burg (Dithmarschen)","type":"Kreisangehörige_Gemeinde"},"district":{"key":"01051","name":"Dithmarschen","type":"Kreis"},"federalState":{"key":"01","name":"Schleswig-Holstein"}},{"name":"Voßallee","postalCode":"25712","locality":"Burg (Dithmarschen)","municipality":{"key":"01051016","name":"Burg (Dithmarschen)","type":"Kreisangehörige_Gemeinde"},"district":{"key":"01051","name":"Dithmarschen","type":"Kreis"},"federalState":{"key":"01","name":"Schleswig-Holstein"}},{"name":"Voßweg","postalCode":"25712","locality":"Burg (Dithmarschen)","municipality":{"key":"01051016","name":"Burg (Dithmarschen)","type":"Kreisangehörige_Gemeinde"},"district":{"key":"01051","name":"Dithmarschen","type":"Kreis"},"federalState":{"key":"01","name":"Schleswig-Holstein"}},{"name":"Wiesengrund","postalCode":"25712","locality":"Burg (Dithmarschen)","municipality":{"key":"01051016","name":"Burg (Dithmarschen)","type":"Kreisangehörige_Gemeinde"},"district":{"key":"01051","name":"Dithmarschen","type":"Kreis"},"federalState":{"key":"01","name":"Schleswig-Holstein"}},{"name":"Würdenkoppel","postalCode":"25712","locality":"Burg (Dithmarschen)","municipality":{"key":"01051016","name":"Burg (Dithmarschen)","type":"Kreisangehörige_Gemeinde"},"district":{"key":"01051","name":"Dithmarschen","type":"Kreis"},"federalState":{"key":"01","name":"Schleswig-Holstein"}},{"name":"Zaunkönigweg","postalCode":"25712","locality":"Burg (Dithmarschen)","municipality":{"key":"01051016","name":"Burg (Dithmarschen)","type":"Kreisangehörige_Gemeinde"},"district":{"key":"01051","name":"Dithmarschen","type":"Kreis"},"federalState":{"key":"01","name":"Schleswig-Holstein"}},]