[{"name":"Achtern Diek","postalCode":"25917","locality":"Leck","municipality":{"key":"01054076","name":"Leck","type":"Kreisangehörige_Gemeinde"},"district":{"key":"01054","name":"Nordfriesland","type":"Kreis"},"federalState":{"key":"01","name":"Schleswig-Holstein"}},{"name":"Ahornstr.","postalCode":"56593","locality":"Pleckhausen","municipality":{"key":"07132090","name":"Pleckhausen","type":"Kreisangehörige_Gemeinde"},"district":{"key":"07132","name":"Altenkirchen (Westerwald)","type":"Landkreis"},"federalState":{"key":"07","name":"Rheinland-Pfalz"}},{"name":"Allee","postalCode":"25917","locality":"Leck","municipality":{"key":"01054076","name":"Leck","type":"Kreisangehörige_Gemeinde"},"district":{"key":"01054","name":"Nordfriesland","type":"Kreis"},"federalState":{"key":"01","name":"Schleswig-Holstein"}},{"name":"Alte Dorfstr.","postalCode":"21354","locality":"Bleckede","municipality":{"key":"03355009","name":"Bleckede, Stadt","type":"Stadt"},"district":{"key":"03355","name":"Lüneburg","type":"Landkreis"},"federalState":{"key":"03","name":"Niedersachsen"}},{"name":"Alte Poststr.","postalCode":"54570","locality":"Bleckhausen","municipality":{"key":"07233008","name":"Bleckhausen","type":"Kreisangehörige_Gemeinde"},"district":{"key":"07233","name":"Vulkaneifel","type":"Landkreis"},"federalState":{"key":"07","name":"Rheinland-Pfalz"}},{"name":"Alter Dammersfeldweg","postalCode":"97772","locality":"Wildflecken","municipality":{"key":"09672163","name":"Wildflecken, M","type":"Markt"},"district":{"key":"09672","name":"Bad Kissingen","type":"Landkreis"},"federalState":{"key":"09","name":"Bayern"}},{"name":"Alter Hafen","postalCode":"25917","locality":"Leck","municipality":{"key":"01054076","name":"Leck","type":"Kreisangehörige_Gemeinde"},"district":{"key":"01054","name":"Nordfriesland","type":"Kreis"},"federalState":{"key":"01","name":"Schleswig-Holstein"}},{"name":"Alter Kirchenweg","postalCode":"25917","locality":"Leck","municipality":{"key":"01054076","name":"Leck","type":"Kreisangehörige_Gemeinde"},"district":{"key":"01054","name":"Nordfriesland","type":"Kreis"},"federalState":{"key":"01","name":"Schleswig-Holstein"}},{"name":"Alter Mühlenweg","postalCode":"25917","locality":"Leck","municipality":{"key":"01054076","name":"Leck","type":"Kreisangehörige_Gemeinde"},"district":{"key":"01054","name":"Nordfriesland","type":"Kreis"},"federalState":{"key":"01","name":"Schleswig-Holstein"}},{"name":"Alter Schulweg","postalCode":"27259","locality":"Wehrbleck","municipality":{"key":"03251045","name":"Wehrbleck","type":"Kreisangehörige_Gemeinde"},"district":{"key":"03251","name":"Diepholz","type":"Landkreis"},"federalState":{"key":"03","name":"Niedersachsen"}},{"name":"Alt Garger Str.","postalCode":"21354","locality":"Bleckede","municipality":{"key":"03355009","name":"Bleckede, Stadt","type":"Stadt"},"district":{"key":"03355","name":"Lüneburg","type":"Landkreis"},"federalState":{"key":"03","name":"Niedersachsen"}},{"name":"Altglashütter Str.","postalCode":"97772","locality":"Wildflecken","municipality":{"key":"09672163","name":"Wildflecken, M","type":"Markt"},"district":{"key":"09672","name":"Bad Kissingen","type":"Landkreis"},"federalState":{"key":"09","name":"Bayern"}},{"name":"Am alten Amtsgericht","postalCode":"21354","locality":"Bleckede","municipality":{"key":"03355009","name":"Bleckede, Stadt","type":"Stadt"},"district":{"key":"03355","name":"Lüneburg","type":"Landkreis"},"federalState":{"key":"03","name":"Niedersachsen"}},{"name":"Am Altenberg","postalCode":"97772","locality":"Wildflecken","municipality":{"key":"09672163","name":"Wildflecken, M","type":"Markt"},"district":{"key":"09672","name":"Bad Kissingen","type":"Landkreis"},"federalState":{"key":"09","name":"Bayern"}},{"name":"Am Audeich","postalCode":"25917","locality":"Leck","municipality":{"key":"01054076","name":"Leck","type":"Kreisangehörige_Gemeinde"},"district":{"key":"01054","name":"Nordfriesland","type":"Kreis"},"federalState":{"key":"01","name":"Schleswig-Holstein"}},{"name":"Am Bahndamm","postalCode":"97772","locality":"Wildflecken","municipality":{"key":"09672163","name":"Wildflecken, M","type":"Markt"},"district":{"key":"09672","name":"Bad Kissingen","type":"Landkreis"},"federalState":{"key":"09","name":"Bayern"}},{"name":"Am Berge","postalCode":"21354","locality":"Bleckede","municipality":{"key":"03355009","name":"Bleckede, Stadt","type":"Stadt"},"district":{"key":"03355","name":"Lüneburg","type":"Landkreis"},"federalState":{"key":"03","name":"Niedersachsen"}},{"name":"Am Bleckwerk","postalCode":"21354","locality":"Bleckede","municipality":{"key":"03355009","name":"Bleckede, Stadt","type":"Stadt"},"district":{"key":"03355","name":"Lüneburg","type":"Landkreis"},"federalState":{"key":"03","name":"Niedersachsen"}},{"name":"Am Buursood","postalCode":"21354","locality":"Bleckede","municipality":{"key":"03355009","name":"Bleckede, Stadt","type":"Stadt"},"district":{"key":"03355","name":"Lüneburg","type":"Landkreis"},"federalState":{"key":"03","name":"Niedersachsen"}},{"name":"Am Deich","postalCode":"21354","locality":"Bleckede","municipality":{"key":"03355009","name":"Bleckede, Stadt","type":"Stadt"},"district":{"key":"03355","name":"Lüneburg","type":"Landkreis"},"federalState":{"key":"03","name":"Niedersachsen"}},{"name":"Am Elbdeich","postalCode":"19273","locality":"Bleckede","municipality":{"key":"03355009","name":"Bleckede, Stadt","type":"Stadt"},"district":{"key":"03355","name":"Lüneburg","type":"Landkreis"},"federalState":{"key":"03","name":"Niedersachsen"}},{"name":"Am Feldrain","postalCode":"21354","locality":"Bleckede","municipality":{"key":"03355009","name":"Bleckede, Stadt","type":"Stadt"},"district":{"key":"03355","name":"Lüneburg","type":"Landkreis"},"federalState":{"key":"03","name":"Niedersachsen"}},{"name":"Am Fischteich","postalCode":"21354","locality":"Bleckede","municipality":{"key":"03355009","name":"Bleckede, Stadt","type":"Stadt"},"district":{"key":"03355","name":"Lüneburg","type":"Landkreis"},"federalState":{"key":"03","name":"Niedersachsen"}},{"name":"Am Forstgraben","postalCode":"21354","locality":"Bleckede","municipality":{"key":"03355009","name":"Bleckede, Stadt","type":"Stadt"},"district":{"key":"03355","name":"Lüneburg","type":"Landkreis"},"federalState":{"key":"03","name":"Niedersachsen"}},{"name":"Am Grünen Anger","postalCode":"21354","locality":"Bleckede","municipality":{"key":"03355009","name":"Bleckede, Stadt","type":"Stadt"},"district":{"key":"03355","name":"Lüneburg","type":"Landkreis"},"federalState":{"key":"03","name":"Niedersachsen"}},{"name":"Am Hafen","postalCode":"21354","locality":"Bleckede","municipality":{"key":"03355009","name":"Bleckede, Stadt","type":"Stadt"},"district":{"key":"03355","name":"Lüneburg","type":"Landkreis"},"federalState":{"key":"03","name":"Niedersachsen"}},{"name":"Am Haken","postalCode":"21354","locality":"Bleckede","municipality":{"key":"03355009","name":"Bleckede, Stadt","type":"Stadt"},"district":{"key":"03355","name":"Lüneburg","type":"Landkreis"},"federalState":{"key":"03","name":"Niedersachsen"}},{"name":"Am Hang","postalCode":"21354","locality":"Bleckede","municipality":{"key":"03355009","name":"Bleckede, Stadt","type":"Stadt"},"district":{"key":"03355","name":"Lüneburg","type":"Landkreis"},"federalState":{"key":"03","name":"Niedersachsen"}},{"name":"Am Hang","postalCode":"24357","locality":"Fleckeby","municipality":{"key":"01058052","name":"Fleckeby","type":"Kreisangehörige_Gemeinde"},"district":{"key":"01058","name":"Rendsburg-Eckernförde","type":"Kreis"},"federalState":{"key":"01","name":"Schleswig-Holstein"}},{"name":"Am Heerweg","postalCode":"19273","locality":"Bleckede","municipality":{"key":"03355009","name":"Bleckede, Stadt","type":"Stadt"},"district":{"key":"03355","name":"Lüneburg","type":"Landkreis"},"federalState":{"key":"03","name":"Niedersachsen"}},{"name":"Am Heidberg","postalCode":"21354","locality":"Bleckede","municipality":{"key":"03355009","name":"Bleckede, Stadt","type":"Stadt"},"district":{"key":"03355","name":"Lüneburg","type":"Landkreis"},"federalState":{"key":"03","name":"Niedersachsen"}},{"name":"Am Holm","postalCode":"24357","locality":"Fleckeby","municipality":{"key":"01058052","name":"Fleckeby","type":"Kreisangehörige_Gemeinde"},"district":{"key":"01058","name":"Rendsburg-Eckernförde","type":"Kreis"},"federalState":{"key":"01","name":"Schleswig-Holstein"}},{"name":"Am Horster Felde","postalCode":"21354","locality":"Bleckede","municipality":{"key":"03355009","name":"Bleckede, Stadt","type":"Stadt"},"district":{"key":"03355","name":"Lüneburg","type":"Landkreis"},"federalState":{"key":"03","name":"Niedersachsen"}},{"name":"Am Hühnerbruch","postalCode":"21354","locality":"Bleckede","municipality":{"key":"03355009","name":"Bleckede, Stadt","type":"Stadt"},"district":{"key":"03355","name":"Lüneburg","type":"Landkreis"},"federalState":{"key":"03","name":"Niedersachsen"}},{"name":"Am Junkernholz","postalCode":"21354","locality":"Bleckede","municipality":{"key":"03355009","name":"Bleckede, Stadt","type":"Stadt"},"district":{"key":"03355","name":"Lüneburg","type":"Landkreis"},"federalState":{"key":"03","name":"Niedersachsen"}},{"name":"Am Kamp","postalCode":"25917","locality":"Leck","municipality":{"key":"01054076","name":"Leck","type":"Kreisangehörige_Gemeinde"},"district":{"key":"01054","name":"Nordfriesland","type":"Kreis"},"federalState":{"key":"01","name":"Schleswig-Holstein"}},{"name":"Am Kaufmannskamp","postalCode":"21354","locality":"Bleckede","municipality":{"key":"03355009","name":"Bleckede, Stadt","type":"Stadt"},"district":{"key":"03355","name":"Lüneburg","type":"Landkreis"},"federalState":{"key":"03","name":"Niedersachsen"}},{"name":"Am Kirchenpfad","postalCode":"97772","locality":"Wildflecken","municipality":{"key":"09672163","name":"Wildflecken, M","type":"Markt"},"district":{"key":"09672","name":"Bad Kissingen","type":"Landkreis"},"federalState":{"key":"09","name":"Bayern"}},{"name":"Am Kronsberg","postalCode":"21354","locality":"Bleckede","municipality":{"key":"03355009","name":"Bleckede, Stadt","type":"Stadt"},"district":{"key":"03355","name":"Lüneburg","type":"Landkreis"},"federalState":{"key":"03","name":"Niedersachsen"}},{"name":"Am Küppel","postalCode":"97772","locality":"Wildflecken","municipality":{"key":"09672163","name":"Wildflecken, M","type":"Markt"},"district":{"key":"09672","name":"Bad Kissingen","type":"Landkreis"},"federalState":{"key":"09","name":"Bayern"}},{"name":"Am Laubgrund","postalCode":"21354","locality":"Bleckede","municipality":{"key":"03355009","name":"Bleckede, Stadt","type":"Stadt"},"district":{"key":"03355","name":"Lüneburg","type":"Landkreis"},"federalState":{"key":"03","name":"Niedersachsen"}},{"name":"Am Löserhag","postalCode":"97772","locality":"Wildflecken","municipality":{"key":"09672163","name":"Wildflecken, M","type":"Markt"},"district":{"key":"09672","name":"Bad Kissingen","type":"Landkreis"},"federalState":{"key":"09","name":"Bayern"}},{"name":"Am Lösershag","postalCode":"97772","locality":"Wildflecken","municipality":{"key":"09672163","name":"Wildflecken, M","type":"Markt"},"district":{"key":"09672","name":"Bad Kissingen","type":"Landkreis"},"federalState":{"key":"09","name":"Bayern"}},{"name":"Am Markt","postalCode":"21354","locality":"Bleckede","municipality":{"key":"03355009","name":"Bleckede, Stadt","type":"Stadt"},"district":{"key":"03355","name":"Lüneburg","type":"Landkreis"},"federalState":{"key":"03","name":"Niedersachsen"}},{"name":"Am Moor","postalCode":"25917","locality":"Leck","municipality":{"key":"01054076","name":"Leck","type":"Kreisangehörige_Gemeinde"},"district":{"key":"01054","name":"Nordfriesland","type":"Kreis"},"federalState":{"key":"01","name":"Schleswig-Holstein"}},{"name":"Am Osterholz","postalCode":"25917","locality":"Leck","municipality":{"key":"01054076","name":"Leck","type":"Kreisangehörige_Gemeinde"},"district":{"key":"01054","name":"Nordfriesland","type":"Kreis"},"federalState":{"key":"01","name":"Schleswig-Holstein"}},{"name":"Am Papenkamp","postalCode":"21354","locality":"Bleckede","municipality":{"key":"03355009","name":"Bleckede, Stadt","type":"Stadt"},"district":{"key":"03355","name":"Lüneburg","type":"Landkreis"},"federalState":{"key":"03","name":"Niedersachsen"}},{"name":"Am Park","postalCode":"21354","locality":"Bleckede","municipality":{"key":"03355009","name":"Bleckede, Stadt","type":"Stadt"},"district":{"key":"03355","name":"Lüneburg","type":"Landkreis"},"federalState":{"key":"03","name":"Niedersachsen"}},{"name":"Am Pfahlberg","postalCode":"21354","locality":"Bleckede","municipality":{"key":"03355009","name":"Bleckede, Stadt","type":"Stadt"},"district":{"key":"03355","name":"Lüneburg","type":"Landkreis"},"federalState":{"key":"03","name":"Niedersachsen"}},{"name":"Am Pool","postalCode":"21354","locality":"Bleckede","municipality":{"key":"03355009","name":"Bleckede, Stadt","type":"Stadt"},"district":{"key":"03355","name":"Lüneburg","type":"Landkreis"},"federalState":{"key":"03","name":"Niedersachsen"}},{"name":"Bäckerweg","postalCode":"24357","locality":"Fleckeby","municipality":{"key":"01058052","name":"Fleckeby","type":"Kreisangehörige_Gemeinde"},"district":{"key":"01058","name":"Rendsburg-Eckernförde","type":"Kreis"},"federalState":{"key":"01","name":"Schleswig-Holstein"}},{"name":"Bahnhofstr.","postalCode":"21354","locality":"Bleckede","municipality":{"key":"03355009","name":"Bleckede, Stadt","type":"Stadt"},"district":{"key":"03355","name":"Lüneburg","type":"Landkreis"},"federalState":{"key":"03","name":"Niedersachsen"}},{"name":"Bahnhofstr.","postalCode":"25917","locality":"Leck","municipality":{"key":"01054076","name":"Leck","type":"Kreisangehörige_Gemeinde"},"district":{"key":"01054","name":"Nordfriesland","type":"Kreis"},"federalState":{"key":"01","name":"Schleswig-Holstein"}},{"name":"Bahnhofstr.","postalCode":"97772","locality":"Wildflecken","municipality":{"key":"09672163","name":"Wildflecken, M","type":"Markt"},"district":{"key":"09672","name":"Bad Kissingen","type":"Landkreis"},"federalState":{"key":"09","name":"Bayern"}},{"name":"Bahnweg","postalCode":"25917","locality":"Leck","municipality":{"key":"01054076","name":"Leck","type":"Kreisangehörige_Gemeinde"},"district":{"key":"01054","name":"Nordfriesland","type":"Kreis"},"federalState":{"key":"01","name":"Schleswig-Holstein"}},{"name":"Bardorfer Weg","postalCode":"21354","locality":"Bleckede","municipality":{"key":"03355009","name":"Bleckede, Stadt","type":"Stadt"},"district":{"key":"03355","name":"Lüneburg","type":"Landkreis"},"federalState":{"key":"03","name":"Niedersachsen"}},{"name":"Barförder Str.","postalCode":"21354","locality":"Bleckede","municipality":{"key":"03355009","name":"Bleckede, Stadt","type":"Stadt"},"district":{"key":"03355","name":"Lüneburg","type":"Landkreis"},"federalState":{"key":"03","name":"Niedersachsen"}},{"name":"Barskamper Weg","postalCode":"21354","locality":"Bleckede","municipality":{"key":"03355009","name":"Bleckede, Stadt","type":"Stadt"},"district":{"key":"03355","name":"Lüneburg","type":"Landkreis"},"federalState":{"key":"03","name":"Niedersachsen"}},{"name":"Bei der Kirche","postalCode":"21354","locality":"Bleckede","municipality":{"key":"03355009","name":"Bleckede, Stadt","type":"Stadt"},"district":{"key":"03355","name":"Lüneburg","type":"Landkreis"},"federalState":{"key":"03","name":"Niedersachsen"}},{"name":"Beilsteinstr.","postalCode":"97772","locality":"Wildflecken","municipality":{"key":"09672163","name":"Wildflecken, M","type":"Markt"},"district":{"key":"09672","name":"Bad Kissingen","type":"Landkreis"},"federalState":{"key":"09","name":"Bayern"}},{"name":"Bergstr.","postalCode":"25917","locality":"Leck","municipality":{"key":"01054076","name":"Leck","type":"Kreisangehörige_Gemeinde"},"district":{"key":"01054","name":"Nordfriesland","type":"Kreis"},"federalState":{"key":"01","name":"Schleswig-Holstein"}},{"name":"Bergstr.","postalCode":"97772","locality":"Wildflecken","municipality":{"key":"09672163","name":"Wildflecken, M","type":"Markt"},"district":{"key":"09672","name":"Bad Kissingen","type":"Landkreis"},"federalState":{"key":"09","name":"Bayern"}},{"name":"Bierstr.","postalCode":"94089","locality":"Pleckensteiner Wald","municipality":{"key":"09272458","name":"Pleckensteiner Wald","type":"Gemeindefreies_Gebiet_Unbewohnt"},"district":{"key":"09272","name":"Freyung-Grafenau","type":"Landkreis"},"federalState":{"key":"09","name":"Bayern"}},{"name":"Birkenweg","postalCode":"21354","locality":"Bleckede","municipality":{"key":"03355009","name":"Bleckede, Stadt","type":"Stadt"},"district":{"key":"03355","name":"Lüneburg","type":"Landkreis"},"federalState":{"key":"03","name":"Niedersachsen"}},{"name":"Birkenweg","postalCode":"25917","locality":"Leck","municipality":{"key":"01054076","name":"Leck","type":"Kreisangehörige_Gemeinde"},"district":{"key":"01054","name":"Nordfriesland","type":"Kreis"},"federalState":{"key":"01","name":"Schleswig-Holstein"}},{"name":"Birkstr.","postalCode":"25917","locality":"Leck","municipality":{"key":"01054076","name":"Leck","type":"Kreisangehörige_Gemeinde"},"district":{"key":"01054","name":"Nordfriesland","type":"Kreis"},"federalState":{"key":"01","name":"Schleswig-Holstein"}},{"name":"Bischofsheimer Str.","postalCode":"97772","locality":"Wildflecken","municipality":{"key":"09672163","name":"Wildflecken, M","type":"Markt"},"district":{"key":"09672","name":"Bad Kissingen","type":"Landkreis"},"federalState":{"key":"09","name":"Bayern"}},{"name":"Bleckeder Landstr.","postalCode":"21354","locality":"Bleckede","municipality":{"key":"03355009","name":"Bleckede, Stadt","type":"Stadt"},"district":{"key":"03355","name":"Lüneburg","type":"Landkreis"},"federalState":{"key":"03","name":"Niedersachsen"}},{"name":"Bleckeder Moor","postalCode":"21354","locality":"Bleckede","municipality":{"key":"03355009","name":"Bleckede, Stadt","type":"Stadt"},"district":{"key":"03355","name":"Lüneburg","type":"Landkreis"},"federalState":{"key":"03","name":"Niedersachsen"}},{"name":"Bloomenkamp","postalCode":"25917","locality":"Leck","municipality":{"key":"01054076","name":"Leck","type":"Kreisangehörige_Gemeinde"},"district":{"key":"01054","name":"Nordfriesland","type":"Kreis"},"federalState":{"key":"01","name":"Schleswig-Holstein"}},{"name":"Boizenburger Str.","postalCode":"21354","locality":"Bleckede","municipality":{"key":"03355009","name":"Bleckede, Stadt","type":"Stadt"},"district":{"key":"03355","name":"Lüneburg","type":"Landkreis"},"federalState":{"key":"03","name":"Niedersachsen"}},{"name":"Bokelstr.","postalCode":"21354","locality":"Bleckede","municipality":{"key":"03355009","name":"Bleckede, Stadt","type":"Stadt"},"district":{"key":"03355","name":"Lüneburg","type":"Landkreis"},"federalState":{"key":"03","name":"Niedersachsen"}},{"name":"Bornweg","postalCode":"56593","locality":"Pleckhausen","municipality":{"key":"07132090","name":"Pleckhausen","type":"Kreisangehörige_Gemeinde"},"district":{"key":"07132","name":"Altenkirchen (Westerwald)","type":"Landkreis"},"federalState":{"key":"07","name":"Rheinland-Pfalz"}},{"name":"Bramberg","postalCode":"24357","locality":"Fleckeby","municipality":{"key":"01058052","name":"Fleckeby","type":"Kreisangehörige_Gemeinde"},"district":{"key":"01058","name":"Rendsburg-Eckernförde","type":"Kreis"},"federalState":{"key":"01","name":"Schleswig-Holstein"}},{"name":"Bramholm","postalCode":"25917","locality":"Leck","municipality":{"key":"01054076","name":"Leck","type":"Kreisangehörige_Gemeinde"},"district":{"key":"01054","name":"Nordfriesland","type":"Kreis"},"federalState":{"key":"01","name":"Schleswig-Holstein"}},{"name":"Breetzer Str.","postalCode":"21354","locality":"Bleckede","municipality":{"key":"03355009","name":"Bleckede, Stadt","type":"Stadt"},"district":{"key":"03355","name":"Lüneburg","type":"Landkreis"},"federalState":{"key":"03","name":"Niedersachsen"}},{"name":"Breite Str.","postalCode":"21354","locality":"Bleckede","municipality":{"key":"03355009","name":"Bleckede, Stadt","type":"Stadt"},"district":{"key":"03355","name":"Lüneburg","type":"Landkreis"},"federalState":{"key":"03","name":"Niedersachsen"}},{"name":"Breslauer Str.","postalCode":"97772","locality":"Wildflecken","municipality":{"key":"09672163","name":"Wildflecken, M","type":"Markt"},"district":{"key":"09672","name":"Bad Kissingen","type":"Landkreis"},"federalState":{"key":"09","name":"Bayern"}},{"name":"Brombeerberg","postalCode":"24357","locality":"Fleckeby","municipality":{"key":"01058052","name":"Fleckeby","type":"Kreisangehörige_Gemeinde"},"district":{"key":"01058","name":"Rendsburg-Eckernförde","type":"Kreis"},"federalState":{"key":"01","name":"Schleswig-Holstein"}},{"name":"Bruchdorfer Str.","postalCode":"21354","locality":"Bleckede","municipality":{"key":"03355009","name":"Bleckede, Stadt","type":"Stadt"},"district":{"key":"03355","name":"Lüneburg","type":"Landkreis"},"federalState":{"key":"03","name":"Niedersachsen"}},{"name":"Brüchkuhlenweg","postalCode":"21354","locality":"Bleckede","municipality":{"key":"03355009","name":"Bleckede, Stadt","type":"Stadt"},"district":{"key":"03355","name":"Lüneburg","type":"Landkreis"},"federalState":{"key":"03","name":"Niedersachsen"}},{"name":"Brückenauer Str.","postalCode":"97772","locality":"Wildflecken","municipality":{"key":"09672163","name":"Wildflecken, M","type":"Markt"},"district":{"key":"09672","name":"Bad Kissingen","type":"Landkreis"},"federalState":{"key":"09","name":"Bayern"}},{"name":"Brunnenstr.","postalCode":"54570","locality":"Bleckhausen","municipality":{"key":"07233008","name":"Bleckhausen","type":"Kreisangehörige_Gemeinde"},"district":{"key":"07233","name":"Vulkaneifel","type":"Landkreis"},"federalState":{"key":"07","name":"Rheinland-Pfalz"}},{"name":"Brunnenstr.","postalCode":"56593","locality":"Pleckhausen","municipality":{"key":"07132090","name":"Pleckhausen","type":"Kreisangehörige_Gemeinde"},"district":{"key":"07132","name":"Altenkirchen (Westerwald)","type":"Landkreis"},"federalState":{"key":"07","name":"Rheinland-Pfalz"}},{"name":"Brunnenstr.","postalCode":"97772","locality":"Wildflecken","municipality":{"key":"09672163","name":"Wildflecken, M","type":"Markt"},"district":{"key":"09672","name":"Bad Kissingen","type":"Landkreis"},"federalState":{"key":"09","name":"Bayern"}},{"name":"Buchhorst","postalCode":"27259","locality":"Wehrbleck","municipality":{"key":"03251045","name":"Wehrbleck","type":"Kreisangehörige_Gemeinde"},"district":{"key":"03251","name":"Diepholz","type":"Landkreis"},"federalState":{"key":"03","name":"Niedersachsen"}},{"name":"Büllsbüll","postalCode":"25917","locality":"Leck","municipality":{"key":"01054076","name":"Leck","type":"Kreisangehörige_Gemeinde"},"district":{"key":"01054","name":"Nordfriesland","type":"Kreis"},"federalState":{"key":"01","name":"Schleswig-Holstein"}},{"name":"Büllsbüller Chaussee","postalCode":"25917","locality":"Leck","municipality":{"key":"01054076","name":"Leck","type":"Kreisangehörige_Gemeinde"},"district":{"key":"01054","name":"Nordfriesland","type":"Kreis"},"federalState":{"key":"01","name":"Schleswig-Holstein"}},{"name":"Carl-Emeis-Str.","postalCode":"25917","locality":"Leck","municipality":{"key":"01054076","name":"Leck","type":"Kreisangehörige_Gemeinde"},"district":{"key":"01054","name":"Nordfriesland","type":"Kreis"},"federalState":{"key":"01","name":"Schleswig-Holstein"}},{"name":"Carl-Napp-Str.","postalCode":"21354","locality":"Bleckede","municipality":{"key":"03355009","name":"Bleckede, Stadt","type":"Stadt"},"district":{"key":"03355","name":"Lüneburg","type":"Landkreis"},"federalState":{"key":"03","name":"Niedersachsen"}},{"name":"Claudiusstr.","postalCode":"25917","locality":"Leck","municipality":{"key":"01054076","name":"Leck","type":"Kreisangehörige_Gemeinde"},"district":{"key":"01054","name":"Nordfriesland","type":"Kreis"},"federalState":{"key":"01","name":"Schleswig-Holstein"}},{"name":"Colonel-Huff-Str.","postalCode":"97772","locality":"Wildflecken","municipality":{"key":"09672163","name":"Wildflecken, M","type":"Markt"},"district":{"key":"09672","name":"Bad Kissingen","type":"Landkreis"},"federalState":{"key":"09","name":"Bayern"}},{"name":"Crispinus Weg","postalCode":"56593","locality":"Pleckhausen","municipality":{"key":"07132090","name":"Pleckhausen","type":"Kreisangehörige_Gemeinde"},"district":{"key":"07132","name":"Altenkirchen (Westerwald)","type":"Landkreis"},"federalState":{"key":"07","name":"Rheinland-Pfalz"}},{"name":"Dachsweg","postalCode":"21354","locality":"Bleckede","municipality":{"key":"03355009","name":"Bleckede, Stadt","type":"Stadt"},"district":{"key":"03355","name":"Lüneburg","type":"Landkreis"},"federalState":{"key":"03","name":"Niedersachsen"}},{"name":"Dahlenburger Str.","postalCode":"21354","locality":"Bleckede","municipality":{"key":"03355009","name":"Bleckede, Stadt","type":"Stadt"},"district":{"key":"03355","name":"Lüneburg","type":"Landkreis"},"federalState":{"key":"03","name":"Niedersachsen"}},{"name":"Dammersfeldeck","postalCode":"97772","locality":"Wildflecken","municipality":{"key":"09672163","name":"Wildflecken, M","type":"Markt"},"district":{"key":"09672","name":"Bad Kissingen","type":"Landkreis"},"federalState":{"key":"09","name":"Bayern"}},{"name":"Danziger Str.","postalCode":"25917","locality":"Leck","municipality":{"key":"01054076","name":"Leck","type":"Kreisangehörige_Gemeinde"},"district":{"key":"01054","name":"Nordfriesland","type":"Kreis"},"federalState":{"key":"01","name":"Schleswig-Holstein"}},{"name":"Danziger Str.","postalCode":"97772","locality":"Wildflecken","municipality":{"key":"09672163","name":"Wildflecken, M","type":"Markt"},"district":{"key":"09672","name":"Bad Kissingen","type":"Landkreis"},"federalState":{"key":"09","name":"Bayern"}},{"name":"Deichstr.","postalCode":"21354","locality":"Bleckede","municipality":{"key":"03355009","name":"Bleckede, Stadt","type":"Stadt"},"district":{"key":"03355","name":"Lüneburg","type":"Landkreis"},"federalState":{"key":"03","name":"Niedersachsen"}},{"name":"Deichweg","postalCode":"21354","locality":"Bleckede","municipality":{"key":"03355009","name":"Bleckede, Stadt","type":"Stadt"},"district":{"key":"03355","name":"Lüneburg","type":"Landkreis"},"federalState":{"key":"03","name":"Niedersachsen"}},{"name":"Delacroixstr.","postalCode":"21354","locality":"Bleckede","municipality":{"key":"03355009","name":"Bleckede, Stadt","type":"Stadt"},"district":{"key":"03355","name":"Lüneburg","type":"Landkreis"},"federalState":{"key":"03","name":"Niedersachsen"}},{"name":"Delliner Str.","postalCode":"21354","locality":"Bleckede","municipality":{"key":"03355009","name":"Bleckede, Stadt","type":"Stadt"},"district":{"key":"03355","name":"Lüneburg","type":"Landkreis"},"federalState":{"key":"03","name":"Niedersachsen"}},{"name":"Dieksacker","postalCode":"24357","locality":"Fleckeby","municipality":{"key":"01058052","name":"Fleckeby","type":"Kreisangehörige_Gemeinde"},"district":{"key":"01058","name":"Rendsburg-Eckernförde","type":"Kreis"},"federalState":{"key":"01","name":"Schleswig-Holstein"}},{"name":"Dingblock","postalCode":"24357","locality":"Fleckeby","municipality":{"key":"01058052","name":"Fleckeby","type":"Kreisangehörige_Gemeinde"},"district":{"key":"01058","name":"Rendsburg-Eckernförde","type":"Kreis"},"federalState":{"key":"01","name":"Schleswig-Holstein"}},{"name":"Döhrenweg","postalCode":"21354","locality":"Bleckede","municipality":{"key":"03355009","name":"Bleckede, Stadt","type":"Stadt"},"district":{"key":"03355","name":"Lüneburg","type":"Landkreis"},"federalState":{"key":"03","name":"Niedersachsen"}},{"name":"Dorfstr.","postalCode":"21354","locality":"Bleckede","municipality":{"key":"03355009","name":"Bleckede, Stadt","type":"Stadt"},"district":{"key":"03355","name":"Lüneburg","type":"Landkreis"},"federalState":{"key":"03","name":"Niedersachsen"}},{"name":"Dorfstr.","postalCode":"24357","locality":"Fleckeby","municipality":{"key":"01058052","name":"Fleckeby","type":"Kreisangehörige_Gemeinde"},"district":{"key":"01058","name":"Rendsburg-Eckernförde","type":"Kreis"},"federalState":{"key":"01","name":"Schleswig-Holstein"}},{"name":"Dorfstr.","postalCode":"25917","locality":"Leck","municipality":{"key":"01054076","name":"Leck","type":"Kreisangehörige_Gemeinde"},"district":{"key":"01054","name":"Nordfriesland","type":"Kreis"},"federalState":{"key":"01","name":"Schleswig-Holstein"}},{"name":"Dorfstr.","postalCode":"27259","locality":"Wehrbleck","municipality":{"key":"03251045","name":"Wehrbleck","type":"Kreisangehörige_Gemeinde"},"district":{"key":"03251","name":"Diepholz","type":"Landkreis"},"federalState":{"key":"03","name":"Niedersachsen"}},{"name":"Dr.Carl-Busch-Str.","postalCode":"21354","locality":"Bleckede","municipality":{"key":"03355009","name":"Bleckede, Stadt","type":"Stadt"},"district":{"key":"03355","name":"Lüneburg","type":"Landkreis"},"federalState":{"key":"03","name":"Niedersachsen"}},{"name":"Drosseleck","postalCode":"25917","locality":"Leck","municipality":{"key":"01054076","name":"Leck","type":"Kreisangehörige_Gemeinde"},"district":{"key":"01054","name":"Nordfriesland","type":"Kreis"},"federalState":{"key":"01","name":"Schleswig-Holstein"}},{"name":"Drosselgasse","postalCode":"21354","locality":"Bleckede","municipality":{"key":"03355009","name":"Bleckede, Stadt","type":"Stadt"},"district":{"key":"03355","name":"Lüneburg","type":"Landkreis"},"federalState":{"key":"03","name":"Niedersachsen"}},{"name":"Drosselweg","postalCode":"21354","locality":"Bleckede","municipality":{"key":"03355009","name":"Bleckede, Stadt","type":"Stadt"},"district":{"key":"03355","name":"Lüneburg","type":"Landkreis"},"federalState":{"key":"03","name":"Niedersachsen"}},{"name":"Dünenstr.","postalCode":"25917","locality":"Leck","municipality":{"key":"01054076","name":"Leck","type":"Kreisangehörige_Gemeinde"},"district":{"key":"01054","name":"Nordfriesland","type":"Kreis"},"federalState":{"key":"01","name":"Schleswig-Holstein"}},{"name":"Eckartsrother Str.","postalCode":"97772","locality":"Wildflecken","municipality":{"key":"09672163","name":"Wildflecken, M","type":"Markt"},"district":{"key":"09672","name":"Bad Kissingen","type":"Landkreis"},"federalState":{"key":"09","name":"Bayern"}},{"name":"Eckenstr.","postalCode":"97772","locality":"Wildflecken","municipality":{"key":"09672163","name":"Wildflecken, M","type":"Markt"},"district":{"key":"09672","name":"Bad Kissingen","type":"Landkreis"},"federalState":{"key":"09","name":"Bayern"}},{"name":"Eesackerstr.","postalCode":"25917","locality":"Leck","municipality":{"key":"01054076","name":"Leck","type":"Kreisangehörige_Gemeinde"},"district":{"key":"01054","name":"Nordfriesland","type":"Kreis"},"federalState":{"key":"01","name":"Schleswig-Holstein"}},{"name":"Eichendorffstr.","postalCode":"21354","locality":"Bleckede","municipality":{"key":"03355009","name":"Bleckede, Stadt","type":"Stadt"},"district":{"key":"03355","name":"Lüneburg","type":"Landkreis"},"federalState":{"key":"03","name":"Niedersachsen"}},{"name":"Eichengrund","postalCode":"25917","locality":"Leck","municipality":{"key":"01054076","name":"Leck","type":"Kreisangehörige_Gemeinde"},"district":{"key":"01054","name":"Nordfriesland","type":"Kreis"},"federalState":{"key":"01","name":"Schleswig-Holstein"}},{"name":"Eichenpesch","postalCode":"54570","locality":"Bleckhausen","municipality":{"key":"07233008","name":"Bleckhausen","type":"Kreisangehörige_Gemeinde"},"district":{"key":"07233","name":"Vulkaneifel","type":"Landkreis"},"federalState":{"key":"07","name":"Rheinland-Pfalz"}},{"name":"Eichenstr.","postalCode":"56593","locality":"Pleckhausen","municipality":{"key":"07132090","name":"Pleckhausen","type":"Kreisangehörige_Gemeinde"},"district":{"key":"07132","name":"Altenkirchen (Westerwald)","type":"Landkreis"},"federalState":{"key":"07","name":"Rheinland-Pfalz"}},{"name":"Eichenweg","postalCode":"21354","locality":"Bleckede","municipality":{"key":"03355009","name":"Bleckede, Stadt","type":"Stadt"},"district":{"key":"03355","name":"Lüneburg","type":"Landkreis"},"federalState":{"key":"03","name":"Niedersachsen"}},{"name":"Eichkamp","postalCode":"24357","locality":"Fleckeby","municipality":{"key":"01058052","name":"Fleckeby","type":"Kreisangehörige_Gemeinde"},"district":{"key":"01058","name":"Rendsburg-Eckernförde","type":"Kreis"},"federalState":{"key":"01","name":"Schleswig-Holstein"}},{"name":"Eiderbachstr.","postalCode":"56593","locality":"Pleckhausen","municipality":{"key":"07132090","name":"Pleckhausen","type":"Kreisangehörige_Gemeinde"},"district":{"key":"07132","name":"Altenkirchen (Westerwald)","type":"Landkreis"},"federalState":{"key":"07","name":"Rheinland-Pfalz"}},{"name":"Eierhauckweg","postalCode":"97772","locality":"Wildflecken","municipality":{"key":"09672163","name":"Wildflecken, M","type":"Markt"},"district":{"key":"09672","name":"Bad Kissingen","type":"Landkreis"},"federalState":{"key":"09","name":"Bayern"}},{"name":"Elbstr.","postalCode":"21354","locality":"Bleckede","municipality":{"key":"03355009","name":"Bleckede, Stadt","type":"Stadt"},"district":{"key":"03355","name":"Lüneburg","type":"Landkreis"},"federalState":{"key":"03","name":"Niedersachsen"}},{"name":"Elbuferstr.","postalCode":"21354","locality":"Bleckede","municipality":{"key":"03355009","name":"Bleckede, Stadt","type":"Stadt"},"district":{"key":"03355","name":"Lüneburg","type":"Landkreis"},"federalState":{"key":"03","name":"Niedersachsen"}},{"name":"Elbweg","postalCode":"21354","locality":"Bleckede","municipality":{"key":"03355009","name":"Bleckede, Stadt","type":"Stadt"},"district":{"key":"03355","name":"Lüneburg","type":"Landkreis"},"federalState":{"key":"03","name":"Niedersachsen"}},{"name":"Ellringer Str.","postalCode":"21354","locality":"Bleckede","municipality":{"key":"03355009","name":"Bleckede, Stadt","type":"Stadt"},"district":{"key":"03355","name":"Lüneburg","type":"Landkreis"},"federalState":{"key":"03","name":"Niedersachsen"}},{"name":"Erikaweg","postalCode":"25917","locality":"Leck","municipality":{"key":"01054076","name":"Leck","type":"Kreisangehörige_Gemeinde"},"district":{"key":"01054","name":"Nordfriesland","type":"Kreis"},"federalState":{"key":"01","name":"Schleswig-Holstein"}},{"name":"Erlenweg","postalCode":"25917","locality":"Leck","municipality":{"key":"01054076","name":"Leck","type":"Kreisangehörige_Gemeinde"},"district":{"key":"01054","name":"Nordfriesland","type":"Kreis"},"federalState":{"key":"01","name":"Schleswig-Holstein"}},{"name":"Erlenweg","postalCode":"97772","locality":"Wildflecken","municipality":{"key":"09672163","name":"Wildflecken, M","type":"Markt"},"district":{"key":"09672","name":"Bad Kissingen","type":"Landkreis"},"federalState":{"key":"09","name":"Bayern"}},{"name":"Ernst-August-Str.","postalCode":"21354","locality":"Bleckede","municipality":{"key":"03355009","name":"Bleckede, Stadt","type":"Stadt"},"district":{"key":"03355","name":"Lüneburg","type":"Landkreis"},"federalState":{"key":"03","name":"Niedersachsen"}},{"name":"Ewigkeitsstr.","postalCode":"94089","locality":"Pleckensteiner Wald","municipality":{"key":"09272458","name":"Pleckensteiner Wald","type":"Gemeindefreies_Gebiet_Unbewohnt"},"district":{"key":"09272","name":"Freyung-Grafenau","type":"Landkreis"},"federalState":{"key":"09","name":"Bayern"}},{"name":"Fahrensberg","postalCode":"24357","locality":"Fleckeby","municipality":{"key":"01058052","name":"Fleckeby","type":"Kreisangehörige_Gemeinde"},"district":{"key":"01058","name":"Rendsburg-Eckernförde","type":"Kreis"},"federalState":{"key":"01","name":"Schleswig-Holstein"}},{"name":"Fährweg","postalCode":"21354","locality":"Bleckede","municipality":{"key":"03355009","name":"Bleckede, Stadt","type":"Stadt"},"district":{"key":"03355","name":"Lüneburg","type":"Landkreis"},"federalState":{"key":"03","name":"Niedersachsen"}},{"name":"Fasanenweg","postalCode":"21354","locality":"Bleckede","municipality":{"key":"03355009","name":"Bleckede, Stadt","type":"Stadt"},"district":{"key":"03355","name":"Lüneburg","type":"Landkreis"},"federalState":{"key":"03","name":"Niedersachsen"}},{"name":"Fasanenweg","postalCode":"25917","locality":"Leck","municipality":{"key":"01054076","name":"Leck","type":"Kreisangehörige_Gemeinde"},"district":{"key":"01054","name":"Nordfriesland","type":"Kreis"},"federalState":{"key":"01","name":"Schleswig-Holstein"}},{"name":"Feldgärten","postalCode":"27259","locality":"Wehrbleck","municipality":{"key":"03251045","name":"Wehrbleck","type":"Kreisangehörige_Gemeinde"},"district":{"key":"03251","name":"Diepholz","type":"Landkreis"},"federalState":{"key":"03","name":"Niedersachsen"}},{"name":"Feldstr.","postalCode":"21354","locality":"Bleckede","municipality":{"key":"03355009","name":"Bleckede, Stadt","type":"Stadt"},"district":{"key":"03355","name":"Lüneburg","type":"Landkreis"},"federalState":{"key":"03","name":"Niedersachsen"}},{"name":"Fichtenweg","postalCode":"25917","locality":"Leck","municipality":{"key":"01054076","name":"Leck","type":"Kreisangehörige_Gemeinde"},"district":{"key":"01054","name":"Nordfriesland","type":"Kreis"},"federalState":{"key":"01","name":"Schleswig-Holstein"}},{"name":"Finkenhöhe","postalCode":"21354","locality":"Bleckede","municipality":{"key":"03355009","name":"Bleckede, Stadt","type":"Stadt"},"district":{"key":"03355","name":"Lüneburg","type":"Landkreis"},"federalState":{"key":"03","name":"Niedersachsen"}},{"name":"Finkenweg","postalCode":"21354","locality":"Bleckede","municipality":{"key":"03355009","name":"Bleckede, Stadt","type":"Stadt"},"district":{"key":"03355","name":"Lüneburg","type":"Landkreis"},"federalState":{"key":"03","name":"Niedersachsen"}},{"name":"Fleischhauerstr.","postalCode":"97772","locality":"Wildflecken","municipality":{"key":"09672163","name":"Wildflecken, M","type":"Markt"},"district":{"key":"09672","name":"Bad Kissingen","type":"Landkreis"},"federalState":{"key":"09","name":"Bayern"}},{"name":"Flensburger Str.","postalCode":"25917","locality":"Leck","municipality":{"key":"01054076","name":"Leck","type":"Kreisangehörige_Gemeinde"},"district":{"key":"01054","name":"Nordfriesland","type":"Kreis"},"federalState":{"key":"01","name":"Schleswig-Holstein"}},{"name":"Fliederweg","postalCode":"25917","locality":"Leck","municipality":{"key":"01054076","name":"Leck","type":"Kreisangehörige_Gemeinde"},"district":{"key":"01054","name":"Nordfriesland","type":"Kreis"},"federalState":{"key":"01","name":"Schleswig-Holstein"}},{"name":"Florian-Geyer-Str.","postalCode":"97772","locality":"Wildflecken","municipality":{"key":"09672163","name":"Wildflecken, M","type":"Markt"},"district":{"key":"09672","name":"Bad Kissingen","type":"Landkreis"},"federalState":{"key":"09","name":"Bayern"}},{"name":"Föhrer Weg","postalCode":"25917","locality":"Leck","municipality":{"key":"01054076","name":"Leck","type":"Kreisangehörige_Gemeinde"},"district":{"key":"01054","name":"Nordfriesland","type":"Kreis"},"federalState":{"key":"01","name":"Schleswig-Holstein"}},{"name":"Forststr.","postalCode":"56593","locality":"Pleckhausen","municipality":{"key":"07132090","name":"Pleckhausen","type":"Kreisangehörige_Gemeinde"},"district":{"key":"07132","name":"Altenkirchen (Westerwald)","type":"Landkreis"},"federalState":{"key":"07","name":"Rheinland-Pfalz"}},{"name":"Fosséstr.","postalCode":"21354","locality":"Bleckede","municipality":{"key":"03355009","name":"Bleckede, Stadt","type":"Stadt"},"district":{"key":"03355","name":"Lüneburg","type":"Landkreis"},"federalState":{"key":"03","name":"Niedersachsen"}},{"name":"Franzlsteig","postalCode":"94089","locality":"Pleckensteiner Wald","municipality":{"key":"09272458","name":"Pleckensteiner Wald","type":"Gemeindefreies_Gebiet_Unbewohnt"},"district":{"key":"09272","name":"Freyung-Grafenau","type":"Landkreis"},"federalState":{"key":"09","name":"Bayern"}},{"name":"Friedhofsweg","postalCode":"54570","locality":"Bleckhausen","municipality":{"key":"07233008","name":"Bleckhausen","type":"Kreisangehörige_Gemeinde"},"district":{"key":"07233","name":"Vulkaneifel","type":"Landkreis"},"federalState":{"key":"07","name":"Rheinland-Pfalz"}},{"name":"Friedrich-Kücken-Str.","postalCode":"21354","locality":"Bleckede","municipality":{"key":"03355009","name":"Bleckede, Stadt","type":"Stadt"},"district":{"key":"03355","name":"Lüneburg","type":"Landkreis"},"federalState":{"key":"03","name":"Niedersachsen"}},{"name":"Friesenweg","postalCode":"25917","locality":"Leck","municipality":{"key":"01054076","name":"Leck","type":"Kreisangehörige_Gemeinde"},"district":{"key":"01054","name":"Nordfriesland","type":"Kreis"},"federalState":{"key":"01","name":"Schleswig-Holstein"}},{"name":"Fritz-Reuter-Str.","postalCode":"21354","locality":"Bleckede","municipality":{"key":"03355009","name":"Bleckede, Stadt","type":"Stadt"},"district":{"key":"03355","name":"Lüneburg","type":"Landkreis"},"federalState":{"key":"03","name":"Niedersachsen"}},{"name":"Fritz-von-dem-Berge-Str.","postalCode":"21354","locality":"Bleckede","municipality":{"key":"03355009","name":"Bleckede, Stadt","type":"Stadt"},"district":{"key":"03355","name":"Lüneburg","type":"Landkreis"},"federalState":{"key":"03","name":"Niedersachsen"}},{"name":"Fuchsweg","postalCode":"21354","locality":"Bleckede","municipality":{"key":"03355009","name":"Bleckede, Stadt","type":"Stadt"},"district":{"key":"03355","name":"Lüneburg","type":"Landkreis"},"federalState":{"key":"03","name":"Niedersachsen"}},{"name":"Fuhrenkamp","postalCode":"21354","locality":"Bleckede","municipality":{"key":"03355009","name":"Bleckede, Stadt","type":"Stadt"},"district":{"key":"03355","name":"Lüneburg","type":"Landkreis"},"federalState":{"key":"03","name":"Niedersachsen"}},{"name":"Gallberg","postalCode":"25917","locality":"Leck","municipality":{"key":"01054076","name":"Leck","type":"Kreisangehörige_Gemeinde"},"district":{"key":"01054","name":"Nordfriesland","type":"Kreis"},"federalState":{"key":"01","name":"Schleswig-Holstein"}},{"name":"Gartenstr.","postalCode":"21354","locality":"Bleckede","municipality":{"key":"03355009","name":"Bleckede, Stadt","type":"Stadt"},"district":{"key":"03355","name":"Lüneburg","type":"Landkreis"},"federalState":{"key":"03","name":"Niedersachsen"}},{"name":"Gartenstr.","postalCode":"54570","locality":"Bleckhausen","municipality":{"key":"07233008","name":"Bleckhausen","type":"Kreisangehörige_Gemeinde"},"district":{"key":"07233","name":"Vulkaneifel","type":"Landkreis"},"federalState":{"key":"07","name":"Rheinland-Pfalz"}},{"name":"Gartenstr.","postalCode":"56593","locality":"Pleckhausen","municipality":{"key":"07132090","name":"Pleckhausen","type":"Kreisangehörige_Gemeinde"},"district":{"key":"07132","name":"Altenkirchen (Westerwald)","type":"Landkreis"},"federalState":{"key":"07","name":"Rheinland-Pfalz"}},{"name":"Gartenweg","postalCode":"97772","locality":"Wildflecken","municipality":{"key":"09672163","name":"Wildflecken, M","type":"Markt"},"district":{"key":"09672","name":"Bad Kissingen","type":"Landkreis"},"federalState":{"key":"09","name":"Bayern"}},{"name":"Geheimrat-Brandes-Str.","postalCode":"21354","locality":"Bleckede","municipality":{"key":"03355009","name":"Bleckede, Stadt","type":"Stadt"},"district":{"key":"03355","name":"Lüneburg","type":"Landkreis"},"federalState":{"key":"03","name":"Niedersachsen"}},{"name":"Georgstr.","postalCode":"21354","locality":"Bleckede","municipality":{"key":"03355009","name":"Bleckede, Stadt","type":"Stadt"},"district":{"key":"03355","name":"Lüneburg","type":"Landkreis"},"federalState":{"key":"03","name":"Niedersachsen"}},{"name":"Gerberstr.","postalCode":"21354","locality":"Bleckede","municipality":{"key":"03355009","name":"Bleckede, Stadt","type":"Stadt"},"district":{"key":"03355","name":"Lüneburg","type":"Landkreis"},"federalState":{"key":"03","name":"Niedersachsen"}},{"name":"Gernerationenpark Kemper Graben","postalCode":"25917","locality":"Leck","municipality":{"key":"01054076","name":"Leck","type":"Kreisangehörige_Gemeinde"},"district":{"key":"01054","name":"Nordfriesland","type":"Kreis"},"federalState":{"key":"01","name":"Schleswig-Holstein"}},{"name":"Godbersenweg","postalCode":"25917","locality":"Leck","municipality":{"key":"01054076","name":"Leck","type":"Kreisangehörige_Gemeinde"},"district":{"key":"01054","name":"Nordfriesland","type":"Kreis"},"federalState":{"key":"01","name":"Schleswig-Holstein"}},{"name":"Göddinger Str.","postalCode":"21354","locality":"Bleckede","municipality":{"key":"03355009","name":"Bleckede, Stadt","type":"Stadt"},"district":{"key":"03355","name":"Lüneburg","type":"Landkreis"},"federalState":{"key":"03","name":"Niedersachsen"}},{"name":"Grenzbachstr.","postalCode":"56593","locality":"Pleckhausen","municipality":{"key":"07132090","name":"Pleckhausen","type":"Kreisangehörige_Gemeinde"},"district":{"key":"07132","name":"Altenkirchen (Westerwald)","type":"Landkreis"},"federalState":{"key":"07","name":"Rheinland-Pfalz"}},{"name":"Grenzbachtal","postalCode":"56593","locality":"Pleckhausen","municipality":{"key":"07132090","name":"Pleckhausen","type":"Kreisangehörige_Gemeinde"},"district":{"key":"07132","name":"Altenkirchen (Westerwald)","type":"Landkreis"},"federalState":{"key":"07","name":"Rheinland-Pfalz"}},{"name":"Großer Marschweg","postalCode":"21354","locality":"Bleckede","municipality":{"key":"03355009","name":"Bleckede, Stadt","type":"Stadt"},"district":{"key":"03355","name":"Lüneburg","type":"Landkreis"},"federalState":{"key":"03","name":"Niedersachsen"}},{"name":"Große Str.","postalCode":"21354","locality":"Bleckede","municipality":{"key":"03355009","name":"Bleckede, Stadt","type":"Stadt"},"district":{"key":"03355","name":"Lüneburg","type":"Landkreis"},"federalState":{"key":"03","name":"Niedersachsen"}},{"name":"Grünen Deich","postalCode":"21354","locality":"Bleckede","municipality":{"key":"03355009","name":"Bleckede, Stadt","type":"Stadt"},"district":{"key":"03355","name":"Lüneburg","type":"Landkreis"},"federalState":{"key":"03","name":"Niedersachsen"}},{"name":"Grüner Weg","postalCode":"25917","locality":"Leck","municipality":{"key":"01054076","name":"Leck","type":"Kreisangehörige_Gemeinde"},"district":{"key":"01054","name":"Nordfriesland","type":"Kreis"},"federalState":{"key":"01","name":"Schleswig-Holstein"}},{"name":"Güllesheimer Weg","postalCode":"56593","locality":"Pleckhausen","municipality":{"key":"07132090","name":"Pleckhausen","type":"Kreisangehörige_Gemeinde"},"district":{"key":"07132","name":"Altenkirchen (Westerwald)","type":"Landkreis"},"federalState":{"key":"07","name":"Rheinland-Pfalz"}},{"name":"Gustav-Schwantes-Str.","postalCode":"21354","locality":"Bleckede","municipality":{"key":"03355009","name":"Bleckede, Stadt","type":"Stadt"},"district":{"key":"03355","name":"Lüneburg","type":"Landkreis"},"federalState":{"key":"03","name":"Niedersachsen"}},{"name":"Gutenbergring","postalCode":"25917","locality":"Leck","municipality":{"key":"01054076","name":"Leck","type":"Kreisangehörige_Gemeinde"},"district":{"key":"01054","name":"Nordfriesland","type":"Kreis"},"federalState":{"key":"01","name":"Schleswig-Holstein"}},{"name":"Habichtsweg","postalCode":"21354","locality":"Bleckede","municipality":{"key":"03355009","name":"Bleckede, Stadt","type":"Stadt"},"district":{"key":"03355","name":"Lüneburg","type":"Landkreis"},"federalState":{"key":"03","name":"Niedersachsen"}},{"name":"Haller Weg","postalCode":"24357","locality":"Fleckeby","municipality":{"key":"01058052","name":"Fleckeby","type":"Kreisangehörige_Gemeinde"},"district":{"key":"01058","name":"Rendsburg-Eckernförde","type":"Kreis"},"federalState":{"key":"01","name":"Schleswig-Holstein"}},{"name":"Halligweg","postalCode":"25917","locality":"Leck","municipality":{"key":"01054076","name":"Leck","type":"Kreisangehörige_Gemeinde"},"district":{"key":"01054","name":"Nordfriesland","type":"Kreis"},"federalState":{"key":"01","name":"Schleswig-Holstein"}},{"name":"Hamsterweg","postalCode":"21354","locality":"Bleckede","municipality":{"key":"03355009","name":"Bleckede, Stadt","type":"Stadt"},"district":{"key":"03355","name":"Lüneburg","type":"Landkreis"},"federalState":{"key":"03","name":"Niedersachsen"}},{"name":"Hans-Peter-Feddersen-Str.","postalCode":"25917","locality":"Leck","municipality":{"key":"01054076","name":"Leck","type":"Kreisangehörige_Gemeinde"},"district":{"key":"01054","name":"Nordfriesland","type":"Kreis"},"federalState":{"key":"01","name":"Schleswig-Holstein"}},{"name":"Harmstorfer Weg","postalCode":"21354","locality":"Bleckede","municipality":{"key":"03355009","name":"Bleckede, Stadt","type":"Stadt"},"district":{"key":"03355","name":"Lüneburg","type":"Landkreis"},"federalState":{"key":"03","name":"Niedersachsen"}},{"name":"Hartmanns Twiete","postalCode":"21354","locality":"Bleckede","municipality":{"key":"03355009","name":"Bleckede, Stadt","type":"Stadt"},"district":{"key":"03355","name":"Lüneburg","type":"Landkreis"},"federalState":{"key":"03","name":"Niedersachsen"}},{"name":"Haselberg","postalCode":"24357","locality":"Fleckeby","municipality":{"key":"01058052","name":"Fleckeby","type":"Kreisangehörige_Gemeinde"},"district":{"key":"01058","name":"Rendsburg-Eckernförde","type":"Kreis"},"federalState":{"key":"01","name":"Schleswig-Holstein"}},{"name":"Hasenheide","postalCode":"25917","locality":"Leck","municipality":{"key":"01054076","name":"Leck","type":"Kreisangehörige_Gemeinde"},"district":{"key":"01054","name":"Nordfriesland","type":"Kreis"},"federalState":{"key":"01","name":"Schleswig-Holstein"}},{"name":"Hauberg","postalCode":"21354","locality":"Bleckede","municipality":{"key":"03355009","name":"Bleckede, Stadt","type":"Stadt"},"district":{"key":"03355","name":"Lüneburg","type":"Landkreis"},"federalState":{"key":"03","name":"Niedersachsen"}},{"name":"Hauptstr.","postalCode":"21354","locality":"Bleckede","municipality":{"key":"03355009","name":"Bleckede, Stadt","type":"Stadt"},"district":{"key":"03355","name":"Lüneburg","type":"Landkreis"},"federalState":{"key":"03","name":"Niedersachsen"}},{"name":"Hauptstr.","postalCode":"24357","locality":"Fleckeby","municipality":{"key":"01058052","name":"Fleckeby","type":"Kreisangehörige_Gemeinde"},"district":{"key":"01058","name":"Rendsburg-Eckernförde","type":"Kreis"},"federalState":{"key":"01","name":"Schleswig-Holstein"}},{"name":"Hauptstr.","postalCode":"25917","locality":"Leck","municipality":{"key":"01054076","name":"Leck","type":"Kreisangehörige_Gemeinde"},"district":{"key":"01054","name":"Nordfriesland","type":"Kreis"},"federalState":{"key":"01","name":"Schleswig-Holstein"}},{"name":"Hauptstr.","postalCode":"54570","locality":"Bleckhausen","municipality":{"key":"07233008","name":"Bleckhausen","type":"Kreisangehörige_Gemeinde"},"district":{"key":"07233","name":"Vulkaneifel","type":"Landkreis"},"federalState":{"key":"07","name":"Rheinland-Pfalz"}},{"name":"Hauptstr.","postalCode":"56593","locality":"Pleckhausen","municipality":{"key":"07132090","name":"Pleckhausen","type":"Kreisangehörige_Gemeinde"},"district":{"key":"07132","name":"Altenkirchen (Westerwald)","type":"Landkreis"},"federalState":{"key":"07","name":"Rheinland-Pfalz"}},{"name":"Heideblick","postalCode":"25917","locality":"Leck","municipality":{"key":"01054076","name":"Leck","type":"Kreisangehörige_Gemeinde"},"district":{"key":"01054","name":"Nordfriesland","type":"Kreis"},"federalState":{"key":"01","name":"Schleswig-Holstein"}},{"name":"Heidering","postalCode":"25917","locality":"Leck","municipality":{"key":"01054076","name":"Leck","type":"Kreisangehörige_Gemeinde"},"district":{"key":"01054","name":"Nordfriesland","type":"Kreis"},"federalState":{"key":"01","name":"Schleswig-Holstein"}},{"name":"Heideweg","postalCode":"25917","locality":"Leck","municipality":{"key":"01054076","name":"Leck","type":"Kreisangehörige_Gemeinde"},"district":{"key":"01054","name":"Nordfriesland","type":"Kreis"},"federalState":{"key":"01","name":"Schleswig-Holstein"}},{"name":"Heidmoor","postalCode":"21354","locality":"Bleckede","municipality":{"key":"03355009","name":"Bleckede, Stadt","type":"Stadt"},"district":{"key":"03355","name":"Lüneburg","type":"Landkreis"},"federalState":{"key":"03","name":"Niedersachsen"}},{"name":"Heinrich-Banse-Str.","postalCode":"21354","locality":"Bleckede","municipality":{"key":"03355009","name":"Bleckede, Stadt","type":"Stadt"},"district":{"key":"03355","name":"Lüneburg","type":"Landkreis"},"federalState":{"key":"03","name":"Niedersachsen"}},{"name":"Heinrich-Klinge-Str.","postalCode":"21354","locality":"Bleckede","municipality":{"key":"03355009","name":"Bleckede, Stadt","type":"Stadt"},"district":{"key":"03355","name":"Lüneburg","type":"Landkreis"},"federalState":{"key":"03","name":"Niedersachsen"}},{"name":"Heinrich-Oberg-Str.","postalCode":"21354","locality":"Bleckede","municipality":{"key":"03355009","name":"Bleckede, Stadt","type":"Stadt"},"district":{"key":"03355","name":"Lüneburg","type":"Landkreis"},"federalState":{"key":"03","name":"Niedersachsen"}},{"name":"Heinrichstr.","postalCode":"25917","locality":"Leck","municipality":{"key":"01054076","name":"Leck","type":"Kreisangehörige_Gemeinde"},"district":{"key":"01054","name":"Nordfriesland","type":"Kreis"},"federalState":{"key":"01","name":"Schleswig-Holstein"}},{"name":"Heisterkamp","postalCode":"25917","locality":"Leck","municipality":{"key":"01054076","name":"Leck","type":"Kreisangehörige_Gemeinde"},"district":{"key":"01054","name":"Nordfriesland","type":"Kreis"},"federalState":{"key":"01","name":"Schleswig-Holstein"}},{"name":"Helgolandstr.","postalCode":"25917","locality":"Leck","municipality":{"key":"01054076","name":"Leck","type":"Kreisangehörige_Gemeinde"},"district":{"key":"01054","name":"Nordfriesland","type":"Kreis"},"federalState":{"key":"01","name":"Schleswig-Holstein"}},{"name":"Hermann-Collitz-Str.","postalCode":"21354","locality":"Bleckede","municipality":{"key":"03355009","name":"Bleckede, Stadt","type":"Stadt"},"district":{"key":"03355","name":"Lüneburg","type":"Landkreis"},"federalState":{"key":"03","name":"Niedersachsen"}},{"name":"Hermann-Löns-Ring","postalCode":"21354","locality":"Bleckede","municipality":{"key":"03355009","name":"Bleckede, Stadt","type":"Stadt"},"district":{"key":"03355","name":"Lüneburg","type":"Landkreis"},"federalState":{"key":"03","name":"Niedersachsen"}},{"name":"Herweg","postalCode":"24357","locality":"Fleckeby","municipality":{"key":"01058052","name":"Fleckeby","type":"Kreisangehörige_Gemeinde"},"district":{"key":"01058","name":"Rendsburg-Eckernförde","type":"Kreis"},"federalState":{"key":"01","name":"Schleswig-Holstein"}},{"name":"H. E. W. Str.","postalCode":"21354","locality":"Bleckede","municipality":{"key":"03355009","name":"Bleckede, Stadt","type":"Stadt"},"district":{"key":"03355","name":"Lüneburg","type":"Landkreis"},"federalState":{"key":"03","name":"Niedersachsen"}},{"name":"Hinter den Höfen","postalCode":"21354","locality":"Bleckede","municipality":{"key":"03355009","name":"Bleckede, Stadt","type":"Stadt"},"district":{"key":"03355","name":"Lüneburg","type":"Landkreis"},"federalState":{"key":"03","name":"Niedersachsen"}},{"name":"Hintergarten","postalCode":"21354","locality":"Bleckede","municipality":{"key":"03355009","name":"Bleckede, Stadt","type":"Stadt"},"district":{"key":"03355","name":"Lüneburg","type":"Landkreis"},"federalState":{"key":"03","name":"Niedersachsen"}},{"name":"Hirschholm","postalCode":"24357","locality":"Fleckeby","municipality":{"key":"01058052","name":"Fleckeby","type":"Kreisangehörige_Gemeinde"},"district":{"key":"01058","name":"Rendsburg-Eckernförde","type":"Kreis"},"federalState":{"key":"01","name":"Schleswig-Holstein"}},{"name":"Hittberger Str.","postalCode":"21354","locality":"Bleckede","municipality":{"key":"03355009","name":"Bleckede, Stadt","type":"Stadt"},"district":{"key":"03355","name":"Lüneburg","type":"Landkreis"},"federalState":{"key":"03","name":"Niedersachsen"}},{"name":"Hochkamp","postalCode":"24357","locality":"Fleckeby","municipality":{"key":"01058052","name":"Fleckeby","type":"Kreisangehörige_Gemeinde"},"district":{"key":"01058","name":"Rendsburg-Eckernförde","type":"Kreis"},"federalState":{"key":"01","name":"Schleswig-Holstein"}},{"name":"Hochstr.","postalCode":"94089","locality":"Pleckensteiner Wald","municipality":{"key":"09272458","name":"Pleckensteiner Wald","type":"Gemeindefreies_Gebiet_Unbewohnt"},"district":{"key":"09272","name":"Freyung-Grafenau","type":"Landkreis"},"federalState":{"key":"09","name":"Bayern"}},{"name":"Hofdamm","postalCode":"21354","locality":"Bleckede","municipality":{"key":"03355009","name":"Bleckede, Stadt","type":"Stadt"},"district":{"key":"03355","name":"Lüneburg","type":"Landkreis"},"federalState":{"key":"03","name":"Niedersachsen"}},{"name":"Hohe Luft","postalCode":"21354","locality":"Bleckede","municipality":{"key":"03355009","name":"Bleckede, Stadt","type":"Stadt"},"district":{"key":"03355","name":"Lüneburg","type":"Landkreis"},"federalState":{"key":"03","name":"Niedersachsen"}},{"name":"Holunderring","postalCode":"25917","locality":"Leck","municipality":{"key":"01054076","name":"Leck","type":"Kreisangehörige_Gemeinde"},"district":{"key":"01054","name":"Nordfriesland","type":"Kreis"},"federalState":{"key":"01","name":"Schleswig-Holstein"}},{"name":"Horndorfer Weg","postalCode":"21354","locality":"Bleckede","municipality":{"key":"03355009","name":"Bleckede, Stadt","type":"Stadt"},"district":{"key":"03355","name":"Lüneburg","type":"Landkreis"},"federalState":{"key":"03","name":"Niedersachsen"}},{"name":"Hummelring","postalCode":"25917","locality":"Leck","municipality":{"key":"01054076","name":"Leck","type":"Kreisangehörige_Gemeinde"},"district":{"key":"01054","name":"Nordfriesland","type":"Kreis"},"federalState":{"key":"01","name":"Schleswig-Holstein"}},{"name":"Hyholmer Weg","postalCode":"25917","locality":"Leck","municipality":{"key":"01054076","name":"Leck","type":"Kreisangehörige_Gemeinde"},"district":{"key":"01054","name":"Nordfriesland","type":"Kreis"},"federalState":{"key":"01","name":"Schleswig-Holstein"}},{"name":"Hykamp","postalCode":"24357","locality":"Fleckeby","municipality":{"key":"01058052","name":"Fleckeby","type":"Kreisangehörige_Gemeinde"},"district":{"key":"01058","name":"Rendsburg-Eckernförde","type":"Kreis"},"federalState":{"key":"01","name":"Schleswig-Holstein"}},{"name":"Hyklint","postalCode":"24357","locality":"Fleckeby","municipality":{"key":"01058052","name":"Fleckeby","type":"Kreisangehörige_Gemeinde"},"district":{"key":"01058","name":"Rendsburg-Eckernförde","type":"Kreis"},"federalState":{"key":"01","name":"Schleswig-Holstein"}},{"name":"Ilenpool","postalCode":"21354","locality":"Bleckede","municipality":{"key":"03355009","name":"Bleckede, Stadt","type":"Stadt"},"district":{"key":"03355","name":"Lüneburg","type":"Landkreis"},"federalState":{"key":"03","name":"Niedersachsen"}},{"name":"Im Altenberg","postalCode":"54570","locality":"Bleckhausen","municipality":{"key":"07233008","name":"Bleckhausen","type":"Kreisangehörige_Gemeinde"},"district":{"key":"07233","name":"Vulkaneifel","type":"Landkreis"},"federalState":{"key":"07","name":"Rheinland-Pfalz"}},{"name":"Im Baumgarten","postalCode":"56593","locality":"Pleckhausen","municipality":{"key":"07132090","name":"Pleckhausen","type":"Kreisangehörige_Gemeinde"},"district":{"key":"07132","name":"Altenkirchen (Westerwald)","type":"Landkreis"},"federalState":{"key":"07","name":"Rheinland-Pfalz"}},{"name":"Im Branduhl","postalCode":"21354","locality":"Bleckede","municipality":{"key":"03355009","name":"Bleckede, Stadt","type":"Stadt"},"district":{"key":"03355","name":"Lüneburg","type":"Landkreis"},"federalState":{"key":"03","name":"Niedersachsen"}},{"name":"Im Brennbusch","postalCode":"21354","locality":"Bleckede","municipality":{"key":"03355009","name":"Bleckede, Stadt","type":"Stadt"},"district":{"key":"03355","name":"Lüneburg","type":"Landkreis"},"federalState":{"key":"03","name":"Niedersachsen"}},{"name":"Im Ewertstal","postalCode":"54570","locality":"Bleckhausen","municipality":{"key":"07233008","name":"Bleckhausen","type":"Kreisangehörige_Gemeinde"},"district":{"key":"07233","name":"Vulkaneifel","type":"Landkreis"},"federalState":{"key":"07","name":"Rheinland-Pfalz"}},{"name":"Im Felde","postalCode":"27259","locality":"Wehrbleck","municipality":{"key":"03251045","name":"Wehrbleck","type":"Kreisangehörige_Gemeinde"},"district":{"key":"03251","name":"Diepholz","type":"Landkreis"},"federalState":{"key":"03","name":"Niedersachsen"}},{"name":"Im Garten","postalCode":"21354","locality":"Bleckede","municipality":{"key":"03355009","name":"Bleckede, Stadt","type":"Stadt"},"district":{"key":"03355","name":"Lüneburg","type":"Landkreis"},"federalState":{"key":"03","name":"Niedersachsen"}},{"name":"Im Grund","postalCode":"24357","locality":"Fleckeby","municipality":{"key":"01058052","name":"Fleckeby","type":"Kreisangehörige_Gemeinde"},"district":{"key":"01058","name":"Rendsburg-Eckernförde","type":"Kreis"},"federalState":{"key":"01","name":"Schleswig-Holstein"}},{"name":"Im Hasen","postalCode":"54570","locality":"Bleckhausen","municipality":{"key":"07233008","name":"Bleckhausen","type":"Kreisangehörige_Gemeinde"},"district":{"key":"07233","name":"Vulkaneifel","type":"Landkreis"},"federalState":{"key":"07","name":"Rheinland-Pfalz"}},{"name":"Im Hofe","postalCode":"27259","locality":"Wehrbleck","municipality":{"key":"03251045","name":"Wehrbleck","type":"Kreisangehörige_Gemeinde"},"district":{"key":"03251","name":"Diepholz","type":"Landkreis"},"federalState":{"key":"03","name":"Niedersachsen"}},{"name":"Im Klevergarten","postalCode":"21354","locality":"Bleckede","municipality":{"key":"03355009","name":"Bleckede, Stadt","type":"Stadt"},"district":{"key":"03355","name":"Lüneburg","type":"Landkreis"},"federalState":{"key":"03","name":"Niedersachsen"}},{"name":"Im Lütten Dörp","postalCode":"21354","locality":"Bleckede","municipality":{"key":"03355009","name":"Bleckede, Stadt","type":"Stadt"},"district":{"key":"03355","name":"Lüneburg","type":"Landkreis"},"federalState":{"key":"03","name":"Niedersachsen"}},{"name":"Immenweg","postalCode":"25917","locality":"Leck","municipality":{"key":"01054076","name":"Leck","type":"Kreisangehörige_Gemeinde"},"district":{"key":"01054","name":"Nordfriesland","type":"Kreis"},"federalState":{"key":"01","name":"Schleswig-Holstein"}},{"name":"Im Neuen Lande","postalCode":"27259","locality":"Wehrbleck","municipality":{"key":"03251045","name":"Wehrbleck","type":"Kreisangehörige_Gemeinde"},"district":{"key":"03251","name":"Diepholz","type":"Landkreis"},"federalState":{"key":"03","name":"Niedersachsen"}},{"name":"Im Rosengarten","postalCode":"56593","locality":"Pleckhausen","municipality":{"key":"07132090","name":"Pleckhausen","type":"Kreisangehörige_Gemeinde"},"district":{"key":"07132","name":"Altenkirchen (Westerwald)","type":"Landkreis"},"federalState":{"key":"07","name":"Rheinland-Pfalz"}},{"name":"Im Sandgarten","postalCode":"21354","locality":"Bleckede","municipality":{"key":"03355009","name":"Bleckede, Stadt","type":"Stadt"},"district":{"key":"03355","name":"Lüneburg","type":"Landkreis"},"federalState":{"key":"03","name":"Niedersachsen"}},{"name":"Im Sinntal","postalCode":"97772","locality":"Wildflecken","municipality":{"key":"09672163","name":"Wildflecken, M","type":"Markt"},"district":{"key":"09672","name":"Bad Kissingen","type":"Landkreis"},"federalState":{"key":"09","name":"Bayern"}},{"name":"Im Wiesbeck","postalCode":"21354","locality":"Bleckede","municipality":{"key":"03355009","name":"Bleckede, Stadt","type":"Stadt"},"district":{"key":"03355","name":"Lüneburg","type":"Landkreis"},"federalState":{"key":"03","name":"Niedersachsen"}},{"name":"Im Winkel","postalCode":"27259","locality":"Wehrbleck","municipality":{"key":"03251045","name":"Wehrbleck","type":"Kreisangehörige_Gemeinde"},"district":{"key":"03251","name":"Diepholz","type":"Landkreis"},"federalState":{"key":"03","name":"Niedersachsen"}},{"name":"In den Tannen","postalCode":"21354","locality":"Bleckede","municipality":{"key":"03355009","name":"Bleckede, Stadt","type":"Stadt"},"district":{"key":"03355","name":"Lüneburg","type":"Landkreis"},"federalState":{"key":"03","name":"Niedersachsen"}},{"name":"In der Dorfwies","postalCode":"54570","locality":"Bleckhausen","municipality":{"key":"07233008","name":"Bleckhausen","type":"Kreisangehörige_Gemeinde"},"district":{"key":"07233","name":"Vulkaneifel","type":"Landkreis"},"federalState":{"key":"07","name":"Rheinland-Pfalz"}},{"name":"In der Stockwiese","postalCode":"56593","locality":"Pleckhausen","municipality":{"key":"07132090","name":"Pleckhausen","type":"Kreisangehörige_Gemeinde"},"district":{"key":"07132","name":"Altenkirchen (Westerwald)","type":"Landkreis"},"federalState":{"key":"07","name":"Rheinland-Pfalz"}},{"name":"In der Twiete","postalCode":"21354","locality":"Bleckede","municipality":{"key":"03355009","name":"Bleckede, Stadt","type":"Stadt"},"district":{"key":"03355","name":"Lüneburg","type":"Landkreis"},"federalState":{"key":"03","name":"Niedersachsen"}},{"name":"Industriestr.","postalCode":"21354","locality":"Bleckede","municipality":{"key":"03355009","name":"Bleckede, Stadt","type":"Stadt"},"district":{"key":"03355","name":"Lüneburg","type":"Landkreis"},"federalState":{"key":"03","name":"Niedersachsen"}},{"name":"In't Brook","postalCode":"25917","locality":"Leck","municipality":{"key":"01054076","name":"Leck","type":"Kreisangehörige_Gemeinde"},"district":{"key":"01054","name":"Nordfriesland","type":"Kreis"},"federalState":{"key":"01","name":"Schleswig-Holstein"}},{"name":"Jacob-Johannsen-Weg","postalCode":"25917","locality":"Leck","municipality":{"key":"01054076","name":"Leck","type":"Kreisangehörige_Gemeinde"},"district":{"key":"01054","name":"Nordfriesland","type":"Kreis"},"federalState":{"key":"01","name":"Schleswig-Holstein"}},{"name":"Jahnstr.","postalCode":"97772","locality":"Wildflecken","municipality":{"key":"09672163","name":"Wildflecken, M","type":"Markt"},"district":{"key":"09672","name":"Bad Kissingen","type":"Landkreis"},"federalState":{"key":"09","name":"Bayern"}},{"name":"Jensenstr.","postalCode":"21354","locality":"Bleckede","municipality":{"key":"03355009","name":"Bleckede, Stadt","type":"Stadt"},"district":{"key":"03355","name":"Lüneburg","type":"Landkreis"},"federalState":{"key":"03","name":"Niedersachsen"}},{"name":"Kaiserhain","postalCode":"25917","locality":"Leck","municipality":{"key":"01054076","name":"Leck","type":"Kreisangehörige_Gemeinde"},"district":{"key":"01054","name":"Nordfriesland","type":"Kreis"},"federalState":{"key":"01","name":"Schleswig-Holstein"}},{"name":"Kantorgärten","postalCode":"21354","locality":"Bleckede","municipality":{"key":"03355009","name":"Bleckede, Stadt","type":"Stadt"},"district":{"key":"03355","name":"Lüneburg","type":"Landkreis"},"federalState":{"key":"03","name":"Niedersachsen"}},{"name":"Kapellenweg","postalCode":"97772","locality":"Wildflecken","municipality":{"key":"09672163","name":"Wildflecken, M","type":"Markt"},"district":{"key":"09672","name":"Bad Kissingen","type":"Landkreis"},"federalState":{"key":"09","name":"Bayern"}},{"name":"Karrharder Str.","postalCode":"25917","locality":"Leck","municipality":{"key":"01054076","name":"Leck","type":"Kreisangehörige_Gemeinde"},"district":{"key":"01054","name":"Nordfriesland","type":"Kreis"},"federalState":{"key":"01","name":"Schleswig-Holstein"}},{"name":"Kastanienweg","postalCode":"21354","locality":"Bleckede","municipality":{"key":"03355009","name":"Bleckede, Stadt","type":"Stadt"},"district":{"key":"03355","name":"Lüneburg","type":"Landkreis"},"federalState":{"key":"03","name":"Niedersachsen"}},{"name":"Kateminer Str.","postalCode":"21354","locality":"Bleckede","municipality":{"key":"03355009","name":"Bleckede, Stadt","type":"Stadt"},"district":{"key":"03355","name":"Lüneburg","type":"Landkreis"},"federalState":{"key":"03","name":"Niedersachsen"}},{"name":"Kattentwiete","postalCode":"21354","locality":"Bleckede","municipality":{"key":"03355009","name":"Bleckede, Stadt","type":"Stadt"},"district":{"key":"03355","name":"Lüneburg","type":"Landkreis"},"federalState":{"key":"03","name":"Niedersachsen"}},{"name":"Kempergraben","postalCode":"25917","locality":"Leck","municipality":{"key":"01054076","name":"Leck","type":"Kreisangehörige_Gemeinde"},"district":{"key":"01054","name":"Nordfriesland","type":"Kreis"},"federalState":{"key":"01","name":"Schleswig-Holstein"}},{"name":"Ketelsburger Weg","postalCode":"25917","locality":"Leck","municipality":{"key":"01054076","name":"Leck","type":"Kreisangehörige_Gemeinde"},"district":{"key":"01054","name":"Nordfriesland","type":"Kreis"},"federalState":{"key":"01","name":"Schleswig-Holstein"}},{"name":"Kiebitzweg","postalCode":"25917","locality":"Leck","municipality":{"key":"01054076","name":"Leck","type":"Kreisangehörige_Gemeinde"},"district":{"key":"01054","name":"Nordfriesland","type":"Kreis"},"federalState":{"key":"01","name":"Schleswig-Holstein"}},{"name":"Kiefernweg","postalCode":"21354","locality":"Bleckede","municipality":{"key":"03355009","name":"Bleckede, Stadt","type":"Stadt"},"district":{"key":"03355","name":"Lüneburg","type":"Landkreis"},"federalState":{"key":"03","name":"Niedersachsen"}},{"name":"Kiefernweg","postalCode":"25917","locality":"Leck","municipality":{"key":"01054076","name":"Leck","type":"Kreisangehörige_Gemeinde"},"district":{"key":"01054","name":"Nordfriesland","type":"Kreis"},"federalState":{"key":"01","name":"Schleswig-Holstein"}},{"name":"Kiesweg","postalCode":"21354","locality":"Bleckede","municipality":{"key":"03355009","name":"Bleckede, Stadt","type":"Stadt"},"district":{"key":"03355","name":"Lüneburg","type":"Landkreis"},"federalState":{"key":"03","name":"Niedersachsen"}},{"name":"Kirchhofstr.","postalCode":"25917","locality":"Leck","municipality":{"key":"01054076","name":"Leck","type":"Kreisangehörige_Gemeinde"},"district":{"key":"01054","name":"Nordfriesland","type":"Kreis"},"federalState":{"key":"01","name":"Schleswig-Holstein"}},{"name":"Kirchweg","postalCode":"21354","locality":"Bleckede","municipality":{"key":"03355009","name":"Bleckede, Stadt","type":"Stadt"},"district":{"key":"03355","name":"Lüneburg","type":"Landkreis"},"federalState":{"key":"03","name":"Niedersachsen"}},{"name":"Klaus-Groth-Str.","postalCode":"25917","locality":"Leck","municipality":{"key":"01054076","name":"Leck","type":"Kreisangehörige_Gemeinde"},"district":{"key":"01054","name":"Nordfriesland","type":"Kreis"},"federalState":{"key":"01","name":"Schleswig-Holstein"}},{"name":"Kleinburg","postalCode":"21354","locality":"Bleckede","municipality":{"key":"03355009","name":"Bleckede, Stadt","type":"Stadt"},"district":{"key":"03355","name":"Lüneburg","type":"Landkreis"},"federalState":{"key":"03","name":"Niedersachsen"}},{"name":"Kleiner Park Leck","postalCode":"25917","locality":"Leck","municipality":{"key":"01054076","name":"Leck","type":"Kreisangehörige_Gemeinde"},"district":{"key":"01054","name":"Nordfriesland","type":"Kreis"},"federalState":{"key":"01","name":"Schleswig-Holstein"}},{"name":"Kleine Str.","postalCode":"21354","locality":"Bleckede","municipality":{"key":"03355009","name":"Bleckede, Stadt","type":"Stadt"},"district":{"key":"03355","name":"Lüneburg","type":"Landkreis"},"federalState":{"key":"03","name":"Niedersachsen"}},{"name":"Kleine Str.","postalCode":"27259","locality":"Wehrbleck","municipality":{"key":"03251045","name":"Wehrbleck","type":"Kreisangehörige_Gemeinde"},"district":{"key":"03251","name":"Diepholz","type":"Landkreis"},"federalState":{"key":"03","name":"Niedersachsen"}},{"name":"Klippenberg","postalCode":"24357","locality":"Fleckeby","municipality":{"key":"01058052","name":"Fleckeby","type":"Kreisangehörige_Gemeinde"},"district":{"key":"01058","name":"Rendsburg-Eckernförde","type":"Kreis"},"federalState":{"key":"01","name":"Schleswig-Holstein"}},{"name":"Klixbüller Chaussee","postalCode":"25917","locality":"Leck","municipality":{"key":"01054076","name":"Leck","type":"Kreisangehörige_Gemeinde"},"district":{"key":"01054","name":"Nordfriesland","type":"Kreis"},"federalState":{"key":"01","name":"Schleswig-Holstein"}},{"name":"Kokkedahl","postalCode":"25917","locality":"Leck","municipality":{"key":"01054076","name":"Leck","type":"Kreisangehörige_Gemeinde"},"district":{"key":"01054","name":"Nordfriesland","type":"Kreis"},"federalState":{"key":"01","name":"Schleswig-Holstein"}},{"name":"Kokkedahler Weg","postalCode":"25917","locality":"Leck","municipality":{"key":"01054076","name":"Leck","type":"Kreisangehörige_Gemeinde"},"district":{"key":"01054","name":"Nordfriesland","type":"Kreis"},"federalState":{"key":"01","name":"Schleswig-Holstein"}},{"name":"Konauer Str.","postalCode":"21354","locality":"Bleckede","municipality":{"key":"03355009","name":"Bleckede, Stadt","type":"Stadt"},"district":{"key":"03355","name":"Lüneburg","type":"Landkreis"},"federalState":{"key":"03","name":"Niedersachsen"}},{"name":"Königsberger Str.","postalCode":"25917","locality":"Leck","municipality":{"key":"01054076","name":"Leck","type":"Kreisangehörige_Gemeinde"},"district":{"key":"01054","name":"Nordfriesland","type":"Kreis"},"federalState":{"key":"01","name":"Schleswig-Holstein"}},{"name":"Königsberger Str.","postalCode":"97772","locality":"Wildflecken","municipality":{"key":"09672163","name":"Wildflecken, M","type":"Markt"},"district":{"key":"09672","name":"Bad Kissingen","type":"Landkreis"},"federalState":{"key":"09","name":"Bayern"}},{"name":"Koselfeld","postalCode":"24357","locality":"Fleckeby","municipality":{"key":"01058052","name":"Fleckeby","type":"Kreisangehörige_Gemeinde"},"district":{"key":"01058","name":"Rendsburg-Eckernförde","type":"Kreis"},"federalState":{"key":"01","name":"Schleswig-Holstein"}},{"name":"Köstorfer Berg","postalCode":"21354","locality":"Bleckede","municipality":{"key":"03355009","name":"Bleckede, Stadt","type":"Stadt"},"district":{"key":"03355","name":"Lüneburg","type":"Landkreis"},"federalState":{"key":"03","name":"Niedersachsen"}},{"name":"Köstorfer Str.","postalCode":"21354","locality":"Bleckede","municipality":{"key":"03355009","name":"Bleckede, Stadt","type":"Stadt"},"district":{"key":"03355","name":"Lüneburg","type":"Landkreis"},"federalState":{"key":"03","name":"Niedersachsen"}},{"name":"Kreisstr.","postalCode":"24357","locality":"Fleckeby","municipality":{"key":"01058052","name":"Fleckeby","type":"Kreisangehörige_Gemeinde"},"district":{"key":"01058","name":"Rendsburg-Eckernförde","type":"Kreis"},"federalState":{"key":"01","name":"Schleswig-Holstein"}},{"name":"Kreuzbergstr.","postalCode":"97772","locality":"Wildflecken","municipality":{"key":"09672163","name":"Wildflecken, M","type":"Markt"},"district":{"key":"09672","name":"Bad Kissingen","type":"Landkreis"},"federalState":{"key":"09","name":"Bayern"}},{"name":"Kreuzhardsweg","postalCode":"56593","locality":"Pleckhausen","municipality":{"key":"07132090","name":"Pleckhausen","type":"Kreisangehörige_Gemeinde"},"district":{"key":"07132","name":"Altenkirchen (Westerwald)","type":"Landkreis"},"federalState":{"key":"07","name":"Rheinland-Pfalz"}},{"name":"Krogkoppel","postalCode":"24357","locality":"Fleckeby","municipality":{"key":"01058052","name":"Fleckeby","type":"Kreisangehörige_Gemeinde"},"district":{"key":"01058","name":"Rendsburg-Eckernförde","type":"Kreis"},"federalState":{"key":"01","name":"Schleswig-Holstein"}},{"name":"Kurt-Löwenstein-Str.","postalCode":"21354","locality":"Bleckede","municipality":{"key":"03355009","name":"Bleckede, Stadt","type":"Stadt"},"district":{"key":"03355","name":"Lüneburg","type":"Landkreis"},"federalState":{"key":"03","name":"Niedersachsen"}},{"name":"Kurze Str.","postalCode":"25917","locality":"Leck","municipality":{"key":"01054076","name":"Leck","type":"Kreisangehörige_Gemeinde"},"district":{"key":"01054","name":"Nordfriesland","type":"Kreis"},"federalState":{"key":"01","name":"Schleswig-Holstein"}},{"name":"Ladestr.","postalCode":"25917","locality":"Leck","municipality":{"key":"01054076","name":"Leck","type":"Kreisangehörige_Gemeinde"},"district":{"key":"01054","name":"Nordfriesland","type":"Kreis"},"federalState":{"key":"01","name":"Schleswig-Holstein"}},{"name":"Landstr.","postalCode":"19273","locality":"Bleckede","municipality":{"key":"03355009","name":"Bleckede, Stadt","type":"Stadt"},"district":{"key":"03355","name":"Lüneburg","type":"Landkreis"},"federalState":{"key":"03","name":"Niedersachsen"}},{"name":"Landstr.","postalCode":"21354","locality":"Bleckede","municipality":{"key":"03355009","name":"Bleckede, Stadt","type":"Stadt"},"district":{"key":"03355","name":"Lüneburg","type":"Landkreis"},"federalState":{"key":"03","name":"Niedersachsen"}},{"name":"Langacker","postalCode":"25917","locality":"Leck","municipality":{"key":"01054076","name":"Leck","type":"Kreisangehörige_Gemeinde"},"district":{"key":"01054","name":"Nordfriesland","type":"Kreis"},"federalState":{"key":"01","name":"Schleswig-Holstein"}},{"name":"Langer Weg","postalCode":"21354","locality":"Bleckede","municipality":{"key":"03355009","name":"Bleckede, Stadt","type":"Stadt"},"district":{"key":"03355","name":"Lüneburg","type":"Landkreis"},"federalState":{"key":"03","name":"Niedersachsen"}},{"name":"Langkoppelweg","postalCode":"21354","locality":"Bleckede","municipality":{"key":"03355009","name":"Bleckede, Stadt","type":"Stadt"},"district":{"key":"03355","name":"Lüneburg","type":"Landkreis"},"federalState":{"key":"03","name":"Niedersachsen"}},{"name":"Lärchenweg","postalCode":"25917","locality":"Leck","municipality":{"key":"01054076","name":"Leck","type":"Kreisangehörige_Gemeinde"},"district":{"key":"01054","name":"Nordfriesland","type":"Kreis"},"federalState":{"key":"01","name":"Schleswig-Holstein"}},{"name":"Lauenburger Str.","postalCode":"21354","locality":"Bleckede","municipality":{"key":"03355009","name":"Bleckede, Stadt","type":"Stadt"},"district":{"key":"03355","name":"Lüneburg","type":"Landkreis"},"federalState":{"key":"03","name":"Niedersachsen"}},{"name":"Leckeng","postalCode":"25917","locality":"Leck","municipality":{"key":"01054076","name":"Leck","type":"Kreisangehörige_Gemeinde"},"district":{"key":"01054","name":"Nordfriesland","type":"Kreis"},"federalState":{"key":"01","name":"Schleswig-Holstein"}},{"name":"Lecker Chaussee","postalCode":"25917","locality":"Leck","municipality":{"key":"01054076","name":"Leck","type":"Kreisangehörige_Gemeinde"},"district":{"key":"01054","name":"Nordfriesland","type":"Kreis"},"federalState":{"key":"01","name":"Schleswig-Holstein"}},{"name":"Leckfeld-Nord","postalCode":"25917","locality":"Leck","municipality":{"key":"01054076","name":"Leck","type":"Kreisangehörige_Gemeinde"},"district":{"key":"01054","name":"Nordfriesland","type":"Kreis"},"federalState":{"key":"01","name":"Schleswig-Holstein"}},{"name":"Leckhuus","postalCode":"25917","locality":"Leck","municipality":{"key":"01054076","name":"Leck","type":"Kreisangehörige_Gemeinde"},"district":{"key":"01054","name":"Nordfriesland","type":"Kreis"},"federalState":{"key":"01","name":"Schleswig-Holstein"}},{"name":"Lehmberg","postalCode":"24357","locality":"Fleckeby","municipality":{"key":"01058052","name":"Fleckeby","type":"Kreisangehörige_Gemeinde"},"district":{"key":"01058","name":"Rendsburg-Eckernförde","type":"Kreis"},"federalState":{"key":"01","name":"Schleswig-Holstein"}},{"name":"Lercheneck","postalCode":"21354","locality":"Bleckede","municipality":{"key":"03355009","name":"Bleckede, Stadt","type":"Stadt"},"district":{"key":"03355","name":"Lüneburg","type":"Landkreis"},"federalState":{"key":"03","name":"Niedersachsen"}},{"name":"Lerwall","postalCode":"25917","locality":"Leck","municipality":{"key":"01054076","name":"Leck","type":"Kreisangehörige_Gemeinde"},"district":{"key":"01054","name":"Nordfriesland","type":"Kreis"},"federalState":{"key":"01","name":"Schleswig-Holstein"}},{"name":"Libellenweg","postalCode":"25917","locality":"Leck","municipality":{"key":"01054076","name":"Leck","type":"Kreisangehörige_Gemeinde"},"district":{"key":"01054","name":"Nordfriesland","type":"Kreis"},"federalState":{"key":"01","name":"Schleswig-Holstein"}},{"name":"Lindenweg","postalCode":"25917","locality":"Leck","municipality":{"key":"01054076","name":"Leck","type":"Kreisangehörige_Gemeinde"},"district":{"key":"01054","name":"Nordfriesland","type":"Kreis"},"federalState":{"key":"01","name":"Schleswig-Holstein"}},{"name":"Louisenlunder Weg","postalCode":"24357","locality":"Fleckeby","municipality":{"key":"01058052","name":"Fleckeby","type":"Kreisangehörige_Gemeinde"},"district":{"key":"01058","name":"Rendsburg-Eckernförde","type":"Kreis"},"federalState":{"key":"01","name":"Schleswig-Holstein"}},{"name":"Ludwig-Feddersen-Weg","postalCode":"25917","locality":"Leck","municipality":{"key":"01054076","name":"Leck","type":"Kreisangehörige_Gemeinde"},"district":{"key":"01054","name":"Nordfriesland","type":"Kreis"},"federalState":{"key":"01","name":"Schleswig-Holstein"}},{"name":"Ludwig-Pink-Weg","postalCode":"21354","locality":"Bleckede","municipality":{"key":"03355009","name":"Bleckede, Stadt","type":"Stadt"},"district":{"key":"03355","name":"Lüneburg","type":"Landkreis"},"federalState":{"key":"03","name":"Niedersachsen"}},{"name":"Lüneburger Str.","postalCode":"21354","locality":"Bleckede","municipality":{"key":"03355009","name":"Bleckede, Stadt","type":"Stadt"},"district":{"key":"03355","name":"Lüneburg","type":"Landkreis"},"federalState":{"key":"03","name":"Niedersachsen"}},{"name":"Marienhölzungsweg","postalCode":"25917","locality":"Leck","municipality":{"key":"01054076","name":"Leck","type":"Kreisangehörige_Gemeinde"},"district":{"key":"01054","name":"Nordfriesland","type":"Kreis"},"federalState":{"key":"01","name":"Schleswig-Holstein"}},{"name":"Markt","postalCode":"25917","locality":"Leck","municipality":{"key":"01054076","name":"Leck","type":"Kreisangehörige_Gemeinde"},"district":{"key":"01054","name":"Nordfriesland","type":"Kreis"},"federalState":{"key":"01","name":"Schleswig-Holstein"}},{"name":"Marktstr.","postalCode":"25917","locality":"Leck","municipality":{"key":"01054076","name":"Leck","type":"Kreisangehörige_Gemeinde"},"district":{"key":"01054","name":"Nordfriesland","type":"Kreis"},"federalState":{"key":"01","name":"Schleswig-Holstein"}},{"name":"Marschdeich","postalCode":"21354","locality":"Bleckede","municipality":{"key":"03355009","name":"Bleckede, Stadt","type":"Stadt"},"district":{"key":"03355","name":"Lüneburg","type":"Landkreis"},"federalState":{"key":"03","name":"Niedersachsen"}},{"name":"Marschweg","postalCode":"21354","locality":"Bleckede","municipality":{"key":"03355009","name":"Bleckede, Stadt","type":"Stadt"},"district":{"key":"03355","name":"Lüneburg","type":"Landkreis"},"federalState":{"key":"03","name":"Niedersachsen"}},{"name":"Meisenweg","postalCode":"25917","locality":"Leck","municipality":{"key":"01054076","name":"Leck","type":"Kreisangehörige_Gemeinde"},"district":{"key":"01054","name":"Nordfriesland","type":"Kreis"},"federalState":{"key":"01","name":"Schleswig-Holstein"}},{"name":"Mengenweg","postalCode":"56593","locality":"Pleckhausen","municipality":{"key":"07132090","name":"Pleckhausen","type":"Kreisangehörige_Gemeinde"},"district":{"key":"07132","name":"Altenkirchen (Westerwald)","type":"Landkreis"},"federalState":{"key":"07","name":"Rheinland-Pfalz"}},{"name":"Mittelweg","postalCode":"25917","locality":"Leck","municipality":{"key":"01054076","name":"Leck","type":"Kreisangehörige_Gemeinde"},"district":{"key":"01054","name":"Nordfriesland","type":"Kreis"},"federalState":{"key":"01","name":"Schleswig-Holstein"}},{"name":"Möhlhorster Weg","postalCode":"24357","locality":"Fleckeby","municipality":{"key":"01058052","name":"Fleckeby","type":"Kreisangehörige_Gemeinde"},"district":{"key":"01058","name":"Rendsburg-Eckernförde","type":"Kreis"},"federalState":{"key":"01","name":"Schleswig-Holstein"}},{"name":"Moorkoppel","postalCode":"21354","locality":"Bleckede","municipality":{"key":"03355009","name":"Bleckede, Stadt","type":"Stadt"},"district":{"key":"03355","name":"Lüneburg","type":"Landkreis"},"federalState":{"key":"03","name":"Niedersachsen"}},{"name":"Moorweide","postalCode":"21354","locality":"Bleckede","municipality":{"key":"03355009","name":"Bleckede, Stadt","type":"Stadt"},"district":{"key":"03355","name":"Lüneburg","type":"Landkreis"},"federalState":{"key":"03","name":"Niedersachsen"}},{"name":"Moorwinkel","postalCode":"25917","locality":"Leck","municipality":{"key":"01054076","name":"Leck","type":"Kreisangehörige_Gemeinde"},"district":{"key":"01054","name":"Nordfriesland","type":"Kreis"},"federalState":{"key":"01","name":"Schleswig-Holstein"}},{"name":"Mühlenberg","postalCode":"25917","locality":"Leck","municipality":{"key":"01054076","name":"Leck","type":"Kreisangehörige_Gemeinde"},"district":{"key":"01054","name":"Nordfriesland","type":"Kreis"},"federalState":{"key":"01","name":"Schleswig-Holstein"}},{"name":"Mühlenfenne","postalCode":"25917","locality":"Leck","municipality":{"key":"01054076","name":"Leck","type":"Kreisangehörige_Gemeinde"},"district":{"key":"01054","name":"Nordfriesland","type":"Kreis"},"federalState":{"key":"01","name":"Schleswig-Holstein"}},{"name":"Mühlenweg","postalCode":"24357","locality":"Fleckeby","municipality":{"key":"01058052","name":"Fleckeby","type":"Kreisangehörige_Gemeinde"},"district":{"key":"01058","name":"Rendsburg-Eckernförde","type":"Kreis"},"federalState":{"key":"01","name":"Schleswig-Holstein"}},{"name":"Mühlenweg","postalCode":"56593","locality":"Pleckhausen","municipality":{"key":"07132090","name":"Pleckhausen","type":"Kreisangehörige_Gemeinde"},"district":{"key":"07132","name":"Altenkirchen (Westerwald)","type":"Landkreis"},"federalState":{"key":"07","name":"Rheinland-Pfalz"}},{"name":"Munkfenne","postalCode":"25917","locality":"Leck","municipality":{"key":"01054076","name":"Leck","type":"Kreisangehörige_Gemeinde"},"district":{"key":"01054","name":"Nordfriesland","type":"Kreis"},"federalState":{"key":"01","name":"Schleswig-Holstein"}},{"name":"Nachtigallenweg","postalCode":"21354","locality":"Bleckede","municipality":{"key":"03355009","name":"Bleckede, Stadt","type":"Stadt"},"district":{"key":"03355","name":"Lüneburg","type":"Landkreis"},"federalState":{"key":"03","name":"Niedersachsen"}},{"name":"Neetzer Kirchweg","postalCode":"21354","locality":"Bleckede","municipality":{"key":"03355009","name":"Bleckede, Stadt","type":"Stadt"},"district":{"key":"03355","name":"Lüneburg","type":"Landkreis"},"federalState":{"key":"03","name":"Niedersachsen"}},{"name":"Netzfeld","postalCode":"21354","locality":"Bleckede","municipality":{"key":"03355009","name":"Bleckede, Stadt","type":"Stadt"},"district":{"key":"03355","name":"Lüneburg","type":"Landkreis"},"federalState":{"key":"03","name":"Niedersachsen"}},{"name":"Neu Bleckeder Str.","postalCode":"19273","locality":"Bleckede","municipality":{"key":"03355009","name":"Bleckede, Stadt","type":"Stadt"},"district":{"key":"03355","name":"Lüneburg","type":"Landkreis"},"federalState":{"key":"03","name":"Niedersachsen"}},{"name":"Neu Brackede","postalCode":"21354","locality":"Bleckede","municipality":{"key":"03355009","name":"Bleckede, Stadt","type":"Stadt"},"district":{"key":"03355","name":"Lüneburg","type":"Landkreis"},"federalState":{"key":"03","name":"Niedersachsen"}},{"name":"Neue Breetzer Str.","postalCode":"21354","locality":"Bleckede","municipality":{"key":"03355009","name":"Bleckede, Stadt","type":"Stadt"},"district":{"key":"03355","name":"Lüneburg","type":"Landkreis"},"federalState":{"key":"03","name":"Niedersachsen"}},{"name":"Neuglashüttener Str.","postalCode":"97772","locality":"Wildflecken","municipality":{"key":"09672163","name":"Wildflecken, M","type":"Markt"},"district":{"key":"09672","name":"Bad Kissingen","type":"Landkreis"},"federalState":{"key":"09","name":"Bayern"}},{"name":"Neuhauser Str.","postalCode":"21354","locality":"Bleckede","municipality":{"key":"03355009","name":"Bleckede, Stadt","type":"Stadt"},"district":{"key":"03355","name":"Lüneburg","type":"Landkreis"},"federalState":{"key":"03","name":"Niedersachsen"}},{"name":"Niedamweg","postalCode":"25917","locality":"Leck","municipality":{"key":"01054076","name":"Leck","type":"Kreisangehörige_Gemeinde"},"district":{"key":"01054","name":"Nordfriesland","type":"Kreis"},"federalState":{"key":"01","name":"Schleswig-Holstein"}},{"name":"Nindorfer Moorweg","postalCode":"21354","locality":"Bleckede","municipality":{"key":"03355009","name":"Bleckede, Stadt","type":"Stadt"},"district":{"key":"03355","name":"Lüneburg","type":"Landkreis"},"federalState":{"key":"03","name":"Niedersachsen"}},{"name":"Norderbergstr.","postalCode":"25917","locality":"Leck","municipality":{"key":"01054076","name":"Leck","type":"Kreisangehörige_Gemeinde"},"district":{"key":"01054","name":"Nordfriesland","type":"Kreis"},"federalState":{"key":"01","name":"Schleswig-Holstein"}},{"name":"Obdamer Str.","postalCode":"56593","locality":"Pleckhausen","municipality":{"key":"07132090","name":"Pleckhausen","type":"Kreisangehörige_Gemeinde"},"district":{"key":"07132","name":"Altenkirchen (Westerwald)","type":"Landkreis"},"federalState":{"key":"07","name":"Rheinland-Pfalz"}},{"name":"Oberer Bernardenzug","postalCode":"94089","locality":"Pleckensteiner Wald","municipality":{"key":"09272458","name":"Pleckensteiner Wald","type":"Gemeindefreies_Gebiet_Unbewohnt"},"district":{"key":"09272","name":"Freyung-Grafenau","type":"Landkreis"},"federalState":{"key":"09","name":"Bayern"}},{"name":"Ochsenweg","postalCode":"25917","locality":"Leck","municipality":{"key":"01054076","name":"Leck","type":"Kreisangehörige_Gemeinde"},"district":{"key":"01054","name":"Nordfriesland","type":"Kreis"},"federalState":{"key":"01","name":"Schleswig-Holstein"}},{"name":"Ochsenzug","postalCode":"94089","locality":"Pleckensteiner Wald","municipality":{"key":"09272458","name":"Pleckensteiner Wald","type":"Gemeindefreies_Gebiet_Unbewohnt"},"district":{"key":"09272","name":"Freyung-Grafenau","type":"Landkreis"},"federalState":{"key":"09","name":"Bayern"}},{"name":"Oelhof","postalCode":"21354","locality":"Bleckede","municipality":{"key":"03355009","name":"Bleckede, Stadt","type":"Stadt"},"district":{"key":"03355","name":"Lüneburg","type":"Landkreis"},"federalState":{"key":"03","name":"Niedersachsen"}},{"name":"Osterkoppel","postalCode":"25917","locality":"Leck","municipality":{"key":"01054076","name":"Leck","type":"Kreisangehörige_Gemeinde"},"district":{"key":"01054","name":"Nordfriesland","type":"Kreis"},"federalState":{"key":"01","name":"Schleswig-Holstein"}},{"name":"Osterstr.","postalCode":"25917","locality":"Leck","municipality":{"key":"01054076","name":"Leck","type":"Kreisangehörige_Gemeinde"},"district":{"key":"01054","name":"Nordfriesland","type":"Kreis"},"federalState":{"key":"01","name":"Schleswig-Holstein"}},{"name":"Ottostr.","postalCode":"25917","locality":"Leck","municipality":{"key":"01054076","name":"Leck","type":"Kreisangehörige_Gemeinde"},"district":{"key":"01054","name":"Nordfriesland","type":"Kreis"},"federalState":{"key":"01","name":"Schleswig-Holstein"}},{"name":"Peter-Ox-Str.","postalCode":"25917","locality":"Leck","municipality":{"key":"01054076","name":"Leck","type":"Kreisangehörige_Gemeinde"},"district":{"key":"01054","name":"Nordfriesland","type":"Kreis"},"federalState":{"key":"01","name":"Schleswig-Holstein"}},{"name":"Petersburger Weg","postalCode":"25917","locality":"Leck","municipality":{"key":"01054076","name":"Leck","type":"Kreisangehörige_Gemeinde"},"district":{"key":"01054","name":"Nordfriesland","type":"Kreis"},"federalState":{"key":"01","name":"Schleswig-Holstein"}},{"name":"Pferdefenne","postalCode":"25917","locality":"Leck","municipality":{"key":"01054076","name":"Leck","type":"Kreisangehörige_Gemeinde"},"district":{"key":"01054","name":"Nordfriesland","type":"Kreis"},"federalState":{"key":"01","name":"Schleswig-Holstein"}},{"name":"Pferdekoppel","postalCode":"21354","locality":"Bleckede","municipality":{"key":"03355009","name":"Bleckede, Stadt","type":"Stadt"},"district":{"key":"03355","name":"Lüneburg","type":"Landkreis"},"federalState":{"key":"03","name":"Niedersachsen"}},{"name":"Pommernstr.","postalCode":"97772","locality":"Wildflecken","municipality":{"key":"09672163","name":"Wildflecken, M","type":"Markt"},"district":{"key":"09672","name":"Bad Kissingen","type":"Landkreis"},"federalState":{"key":"09","name":"Bayern"}},{"name":"Pommernweg","postalCode":"25917","locality":"Leck","municipality":{"key":"01054076","name":"Leck","type":"Kreisangehörige_Gemeinde"},"district":{"key":"01054","name":"Nordfriesland","type":"Kreis"},"federalState":{"key":"01","name":"Schleswig-Holstein"}},{"name":"Propst-Nissen-Weg","postalCode":"25917","locality":"Leck","municipality":{"key":"01054076","name":"Leck","type":"Kreisangehörige_Gemeinde"},"district":{"key":"01054","name":"Nordfriesland","type":"Kreis"},"federalState":{"key":"01","name":"Schleswig-Holstein"}},{"name":"Rabensteinstr.","postalCode":"97772","locality":"Wildflecken","municipality":{"key":"09672163","name":"Wildflecken, M","type":"Markt"},"district":{"key":"09672","name":"Bad Kissingen","type":"Landkreis"},"federalState":{"key":"09","name":"Bayern"}},{"name":"Reihenpesch","postalCode":"54570","locality":"Bleckhausen","municipality":{"key":"07233008","name":"Bleckhausen","type":"Kreisangehörige_Gemeinde"},"district":{"key":"07233","name":"Vulkaneifel","type":"Landkreis"},"federalState":{"key":"07","name":"Rheinland-Pfalz"}},{"name":"Reiherstieg","postalCode":"21354","locality":"Bleckede","municipality":{"key":"03355009","name":"Bleckede, Stadt","type":"Stadt"},"district":{"key":"03355","name":"Lüneburg","type":"Landkreis"},"federalState":{"key":"03","name":"Niedersachsen"}},{"name":"Reußendorfer Str.","postalCode":"97772","locality":"Wildflecken","municipality":{"key":"09672163","name":"Wildflecken, M","type":"Markt"},"district":{"key":"09672","name":"Bad Kissingen","type":"Landkreis"},"federalState":{"key":"09","name":"Bayern"}},{"name":"Rhönstr.","postalCode":"97772","locality":"Wildflecken","municipality":{"key":"09672163","name":"Wildflecken, M","type":"Markt"},"district":{"key":"09672","name":"Bad Kissingen","type":"Landkreis"},"federalState":{"key":"09","name":"Bayern"}},{"name":"Robert-Koch-Str.","postalCode":"21354","locality":"Bleckede","municipality":{"key":"03355009","name":"Bleckede, Stadt","type":"Stadt"},"district":{"key":"03355","name":"Lüneburg","type":"Landkreis"},"federalState":{"key":"03","name":"Niedersachsen"}},{"name":"Roggenkamp","postalCode":"21354","locality":"Bleckede","municipality":{"key":"03355009","name":"Bleckede, Stadt","type":"Stadt"},"district":{"key":"03355","name":"Lüneburg","type":"Landkreis"},"federalState":{"key":"03","name":"Niedersachsen"}},{"name":"Rosenweg","postalCode":"21354","locality":"Bleckede","municipality":{"key":"03355009","name":"Bleckede, Stadt","type":"Stadt"},"district":{"key":"03355","name":"Lüneburg","type":"Landkreis"},"federalState":{"key":"03","name":"Niedersachsen"}},{"name":"Rotdornweg","postalCode":"25917","locality":"Leck","municipality":{"key":"01054076","name":"Leck","type":"Kreisangehörige_Gemeinde"},"district":{"key":"01054","name":"Nordfriesland","type":"Kreis"},"federalState":{"key":"01","name":"Schleswig-Holstein"}},{"name":"Rötenweg","postalCode":"21354","locality":"Bleckede","municipality":{"key":"03355009","name":"Bleckede, Stadt","type":"Stadt"},"district":{"key":"03355","name":"Lüneburg","type":"Landkreis"},"federalState":{"key":"03","name":"Niedersachsen"}},{"name":"Rothenrainer Str.","postalCode":"97772","locality":"Wildflecken","municipality":{"key":"09672163","name":"Wildflecken, M","type":"Markt"},"district":{"key":"09672","name":"Bad Kissingen","type":"Landkreis"},"federalState":{"key":"09","name":"Bayern"}},{"name":"Rückbergstr.","postalCode":"97772","locality":"Wildflecken","municipality":{"key":"09672163","name":"Wildflecken, M","type":"Markt"},"district":{"key":"09672","name":"Bad Kissingen","type":"Landkreis"},"federalState":{"key":"09","name":"Bayern"}},{"name":"Rudolf-Diesel-Str.","postalCode":"25917","locality":"Leck","municipality":{"key":"01054076","name":"Leck","type":"Kreisangehörige_Gemeinde"},"district":{"key":"01054","name":"Nordfriesland","type":"Kreis"},"federalState":{"key":"01","name":"Schleswig-Holstein"}},{"name":"Ruhwinkel","postalCode":"25917","locality":"Leck","municipality":{"key":"01054076","name":"Leck","type":"Kreisangehörige_Gemeinde"},"district":{"key":"01054","name":"Nordfriesland","type":"Kreis"},"federalState":{"key":"01","name":"Schleswig-Holstein"}},{"name":"Ründel","postalCode":"25917","locality":"Leck","municipality":{"key":"01054076","name":"Leck","type":"Kreisangehörige_Gemeinde"},"district":{"key":"01054","name":"Nordfriesland","type":"Kreis"},"federalState":{"key":"01","name":"Schleswig-Holstein"}},{"name":"Rungeweg","postalCode":"25917","locality":"Leck","municipality":{"key":"01054076","name":"Leck","type":"Kreisangehörige_Gemeinde"},"district":{"key":"01054","name":"Nordfriesland","type":"Kreis"},"federalState":{"key":"01","name":"Schleswig-Holstein"}},{"name":"Rungholtweg","postalCode":"25917","locality":"Leck","municipality":{"key":"01054076","name":"Leck","type":"Kreisangehörige_Gemeinde"},"district":{"key":"01054","name":"Nordfriesland","type":"Kreis"},"federalState":{"key":"01","name":"Schleswig-Holstein"}},{"name":"Sanddeich","postalCode":"21354","locality":"Bleckede","municipality":{"key":"03355009","name":"Bleckede, Stadt","type":"Stadt"},"district":{"key":"03355","name":"Lüneburg","type":"Landkreis"},"federalState":{"key":"03","name":"Niedersachsen"}},{"name":"Sandfeld","postalCode":"21354","locality":"Bleckede","municipality":{"key":"03355009","name":"Bleckede, Stadt","type":"Stadt"},"district":{"key":"03355","name":"Lüneburg","type":"Landkreis"},"federalState":{"key":"03","name":"Niedersachsen"}},{"name":"Sandweg","postalCode":"25917","locality":"Leck","municipality":{"key":"01054076","name":"Leck","type":"Kreisangehörige_Gemeinde"},"district":{"key":"01054","name":"Nordfriesland","type":"Kreis"},"federalState":{"key":"01","name":"Schleswig-Holstein"}},{"name":"Sannemannweg","postalCode":"21354","locality":"Bleckede","municipality":{"key":"03355009","name":"Bleckede, Stadt","type":"Stadt"},"district":{"key":"03355","name":"Lüneburg","type":"Landkreis"},"federalState":{"key":"03","name":"Niedersachsen"}},{"name":"Satower Weg","postalCode":"24357","locality":"Fleckeby","municipality":{"key":"01058052","name":"Fleckeby","type":"Kreisangehörige_Gemeinde"},"district":{"key":"01058","name":"Rendsburg-Eckernförde","type":"Kreis"},"federalState":{"key":"01","name":"Schleswig-Holstein"}},{"name":"Schafmarkt","postalCode":"25917","locality":"Leck","municipality":{"key":"01054076","name":"Leck","type":"Kreisangehörige_Gemeinde"},"district":{"key":"01054","name":"Nordfriesland","type":"Kreis"},"federalState":{"key":"01","name":"Schleswig-Holstein"}},{"name":"Schaftrift","postalCode":"27259","locality":"Wehrbleck","municipality":{"key":"03251045","name":"Wehrbleck","type":"Kreisangehörige_Gemeinde"},"district":{"key":"03251","name":"Diepholz","type":"Landkreis"},"federalState":{"key":"03","name":"Niedersachsen"}},{"name":"Schallholm","postalCode":"25917","locality":"Leck","municipality":{"key":"01054076","name":"Leck","type":"Kreisangehörige_Gemeinde"},"district":{"key":"01054","name":"Nordfriesland","type":"Kreis"},"federalState":{"key":"01","name":"Schleswig-Holstein"}},{"name":"Schiedenitzweg","postalCode":"21354","locality":"Bleckede","municipality":{"key":"03355009","name":"Bleckede, Stadt","type":"Stadt"},"district":{"key":"03355","name":"Lüneburg","type":"Landkreis"},"federalState":{"key":"03","name":"Niedersachsen"}},{"name":"Schipperstieg","postalCode":"21354","locality":"Bleckede","municipality":{"key":"03355009","name":"Bleckede, Stadt","type":"Stadt"},"district":{"key":"03355","name":"Lüneburg","type":"Landkreis"},"federalState":{"key":"03","name":"Niedersachsen"}},{"name":"Schlesierstr.","postalCode":"97772","locality":"Wildflecken","municipality":{"key":"09672163","name":"Wildflecken, M","type":"Markt"},"district":{"key":"09672","name":"Bad Kissingen","type":"Landkreis"},"federalState":{"key":"09","name":"Bayern"}},{"name":"Schloßstr.","postalCode":"21354","locality":"Bleckede","municipality":{"key":"03355009","name":"Bleckede, Stadt","type":"Stadt"},"district":{"key":"03355","name":"Lüneburg","type":"Landkreis"},"federalState":{"key":"03","name":"Niedersachsen"}},{"name":"Schmiederedder","postalCode":"24357","locality":"Fleckeby","municipality":{"key":"01058052","name":"Fleckeby","type":"Kreisangehörige_Gemeinde"},"district":{"key":"01058","name":"Rendsburg-Eckernförde","type":"Kreis"},"federalState":{"key":"01","name":"Schleswig-Holstein"}},{"name":"Schmörholmer Weg","postalCode":"25917","locality":"Leck","municipality":{"key":"01054076","name":"Leck","type":"Kreisangehörige_Gemeinde"},"district":{"key":"01054","name":"Nordfriesland","type":"Kreis"},"federalState":{"key":"01","name":"Schleswig-Holstein"}},{"name":"Schröders Garten","postalCode":"21354","locality":"Bleckede","municipality":{"key":"03355009","name":"Bleckede, Stadt","type":"Stadt"},"district":{"key":"03355","name":"Lüneburg","type":"Landkreis"},"federalState":{"key":"03","name":"Niedersachsen"}},{"name":"Schulsteig","postalCode":"21354","locality":"Bleckede","municipality":{"key":"03355009","name":"Bleckede, Stadt","type":"Stadt"},"district":{"key":"03355","name":"Lüneburg","type":"Landkreis"},"federalState":{"key":"03","name":"Niedersachsen"}},{"name":"Schulstr.","postalCode":"97772","locality":"Wildflecken","municipality":{"key":"09672163","name":"Wildflecken, M","type":"Markt"},"district":{"key":"09672","name":"Bad Kissingen","type":"Landkreis"},"federalState":{"key":"09","name":"Bayern"}},{"name":"Schulweg","postalCode":"21354","locality":"Bleckede","municipality":{"key":"03355009","name":"Bleckede, Stadt","type":"Stadt"},"district":{"key":"03355","name":"Lüneburg","type":"Landkreis"},"federalState":{"key":"03","name":"Niedersachsen"}},{"name":"Schustergang","postalCode":"24357","locality":"Fleckeby","municipality":{"key":"01058052","name":"Fleckeby","type":"Kreisangehörige_Gemeinde"},"district":{"key":"01058","name":"Rendsburg-Eckernförde","type":"Kreis"},"federalState":{"key":"01","name":"Schleswig-Holstein"}},{"name":"Silberhofweg","postalCode":"97772","locality":"Wildflecken","municipality":{"key":"09672163","name":"Wildflecken, M","type":"Markt"},"district":{"key":"09672","name":"Bad Kissingen","type":"Landkreis"},"federalState":{"key":"09","name":"Bayern"}},{"name":"Sinneck","postalCode":"97772","locality":"Wildflecken","municipality":{"key":"09672163","name":"Wildflecken, M","type":"Markt"},"district":{"key":"09672","name":"Bad Kissingen","type":"Landkreis"},"federalState":{"key":"09","name":"Bayern"}},{"name":"Sofeld","postalCode":"24357","locality":"Fleckeby","municipality":{"key":"01058052","name":"Fleckeby","type":"Kreisangehörige_Gemeinde"},"district":{"key":"01058","name":"Rendsburg-Eckernförde","type":"Kreis"},"federalState":{"key":"01","name":"Schleswig-Holstein"}},{"name":"Sonnenstr.","postalCode":"56593","locality":"Pleckhausen","municipality":{"key":"07132090","name":"Pleckhausen","type":"Kreisangehörige_Gemeinde"},"district":{"key":"07132","name":"Altenkirchen (Westerwald)","type":"Landkreis"},"federalState":{"key":"07","name":"Rheinland-Pfalz"}},{"name":"Sonnenstr.","postalCode":"97772","locality":"Wildflecken","municipality":{"key":"09672163","name":"Wildflecken, M","type":"Markt"},"district":{"key":"09672","name":"Bad Kissingen","type":"Landkreis"},"federalState":{"key":"09","name":"Bayern"}},{"name":"Sonnenweg","postalCode":"21354","locality":"Bleckede","municipality":{"key":"03355009","name":"Bleckede, Stadt","type":"Stadt"},"district":{"key":"03355","name":"Lüneburg","type":"Landkreis"},"federalState":{"key":"03","name":"Niedersachsen"}},{"name":"Stadtdeich","postalCode":"21354","locality":"Bleckede","municipality":{"key":"03355009","name":"Bleckede, Stadt","type":"Stadt"},"district":{"key":"03355","name":"Lüneburg","type":"Landkreis"},"federalState":{"key":"03","name":"Niedersachsen"}},{"name":"Stapeler Weg","postalCode":"21354","locality":"Bleckede","municipality":{"key":"03355009","name":"Bleckede, Stadt","type":"Stadt"},"district":{"key":"03355","name":"Lüneburg","type":"Landkreis"},"federalState":{"key":"03","name":"Niedersachsen"}},{"name":"Stiepelser Str.","postalCode":"21354","locality":"Bleckede","municipality":{"key":"03355009","name":"Bleckede, Stadt","type":"Stadt"},"district":{"key":"03355","name":"Lüneburg","type":"Landkreis"},"federalState":{"key":"03","name":"Niedersachsen"}},{"name":"Strange","postalCode":"27259","locality":"Wehrbleck","municipality":{"key":"03251045","name":"Wehrbleck","type":"Kreisangehörige_Gemeinde"},"district":{"key":"03251","name":"Diepholz","type":"Landkreis"},"federalState":{"key":"03","name":"Niedersachsen"}},{"name":"Stranger Str.","postalCode":"27259","locality":"Wehrbleck","municipality":{"key":"03251045","name":"Wehrbleck","type":"Kreisangehörige_Gemeinde"},"district":{"key":"03251","name":"Diepholz","type":"Landkreis"},"federalState":{"key":"03","name":"Niedersachsen"}},{"name":"Strauchgarten","postalCode":"21354","locality":"Bleckede","municipality":{"key":"03355009","name":"Bleckede, Stadt","type":"Stadt"},"district":{"key":"03355","name":"Lüneburg","type":"Landkreis"},"federalState":{"key":"03","name":"Niedersachsen"}},{"name":"Sückauer Str.","postalCode":"21354","locality":"Bleckede","municipality":{"key":"03355009","name":"Bleckede, Stadt","type":"Stadt"},"district":{"key":"03355","name":"Lüneburg","type":"Landkreis"},"federalState":{"key":"03","name":"Niedersachsen"}},{"name":"Süderende","postalCode":"25917","locality":"Leck","municipality":{"key":"01054076","name":"Leck","type":"Kreisangehörige_Gemeinde"},"district":{"key":"01054","name":"Nordfriesland","type":"Kreis"},"federalState":{"key":"01","name":"Schleswig-Holstein"}},{"name":"Süderstr.","postalCode":"25917","locality":"Leck","municipality":{"key":"01054076","name":"Leck","type":"Kreisangehörige_Gemeinde"},"district":{"key":"01054","name":"Nordfriesland","type":"Kreis"},"federalState":{"key":"01","name":"Schleswig-Holstein"}},{"name":"Südring","postalCode":"24357","locality":"Fleckeby","municipality":{"key":"01058052","name":"Fleckeby","type":"Kreisangehörige_Gemeinde"},"district":{"key":"01058","name":"Rendsburg-Eckernförde","type":"Kreis"},"federalState":{"key":"01","name":"Schleswig-Holstein"}},{"name":"Südring","postalCode":"97772","locality":"Wildflecken","municipality":{"key":"09672163","name":"Wildflecken, M","type":"Markt"},"district":{"key":"09672","name":"Bad Kissingen","type":"Landkreis"},"federalState":{"key":"09","name":"Bayern"}},{"name":"Sulinger Str.","postalCode":"27259","locality":"Wehrbleck","municipality":{"key":"03251045","name":"Wehrbleck","type":"Kreisangehörige_Gemeinde"},"district":{"key":"03251","name":"Diepholz","type":"Landkreis"},"federalState":{"key":"03","name":"Niedersachsen"}},{"name":"Sumter Weg","postalCode":"21354","locality":"Bleckede","municipality":{"key":"03355009","name":"Bleckede, Stadt","type":"Stadt"},"district":{"key":"03355","name":"Lüneburg","type":"Landkreis"},"federalState":{"key":"03","name":"Niedersachsen"}},{"name":"Sylter Weg","postalCode":"25917","locality":"Leck","municipality":{"key":"01054076","name":"Leck","type":"Kreisangehörige_Gemeinde"},"district":{"key":"01054","name":"Nordfriesland","type":"Kreis"},"federalState":{"key":"01","name":"Schleswig-Holstein"}},{"name":"Talstr.","postalCode":"56593","locality":"Pleckhausen","municipality":{"key":"07132090","name":"Pleckhausen","type":"Kreisangehörige_Gemeinde"},"district":{"key":"07132","name":"Altenkirchen (Westerwald)","type":"Landkreis"},"federalState":{"key":"07","name":"Rheinland-Pfalz"}},{"name":"Tannenweg","postalCode":"25917","locality":"Leck","municipality":{"key":"01054076","name":"Leck","type":"Kreisangehörige_Gemeinde"},"district":{"key":"01054","name":"Nordfriesland","type":"Kreis"},"federalState":{"key":"01","name":"Schleswig-Holstein"}},{"name":"Tannenweg","postalCode":"56593","locality":"Pleckhausen","municipality":{"key":"07132090","name":"Pleckhausen","type":"Kreisangehörige_Gemeinde"},"district":{"key":"07132","name":"Altenkirchen (Westerwald)","type":"Landkreis"},"federalState":{"key":"07","name":"Rheinland-Pfalz"}},{"name":"Tegelplacken","postalCode":"27259","locality":"Wehrbleck","municipality":{"key":"03251045","name":"Wehrbleck","type":"Kreisangehörige_Gemeinde"},"district":{"key":"03251","name":"Diepholz","type":"Landkreis"},"federalState":{"key":"03","name":"Niedersachsen"}},{"name":"Teichkoppel","postalCode":"24357","locality":"Fleckeby","municipality":{"key":"01058052","name":"Fleckeby","type":"Kreisangehörige_Gemeinde"},"district":{"key":"01058","name":"Rendsburg-Eckernförde","type":"Kreis"},"federalState":{"key":"01","name":"Schleswig-Holstein"}},{"name":"Teichweg","postalCode":"21354","locality":"Bleckede","municipality":{"key":"03355009","name":"Bleckede, Stadt","type":"Stadt"},"district":{"key":"03355","name":"Lüneburg","type":"Landkreis"},"federalState":{"key":"03","name":"Niedersachsen"}},{"name":"Teldauer Str.","postalCode":"21354","locality":"Bleckede","municipality":{"key":"03355009","name":"Bleckede, Stadt","type":"Stadt"},"district":{"key":"03355","name":"Lüneburg","type":"Landkreis"},"federalState":{"key":"03","name":"Niedersachsen"}},{"name":"Theodor-Storm-Str.","postalCode":"21354","locality":"Bleckede","municipality":{"key":"03355009","name":"Bleckede, Stadt","type":"Stadt"},"district":{"key":"03355","name":"Lüneburg","type":"Landkreis"},"federalState":{"key":"03","name":"Niedersachsen"}},{"name":"Theodor-Storm-Str.","postalCode":"25917","locality":"Leck","municipality":{"key":"01054076","name":"Leck","type":"Kreisangehörige_Gemeinde"},"district":{"key":"01054","name":"Nordfriesland","type":"Kreis"},"federalState":{"key":"01","name":"Schleswig-Holstein"}},{"name":"Thomasburger Str.","postalCode":"21354","locality":"Bleckede","municipality":{"key":"03355009","name":"Bleckede, Stadt","type":"Stadt"},"district":{"key":"03355","name":"Lüneburg","type":"Landkreis"},"federalState":{"key":"03","name":"Niedersachsen"}},{"name":"Thüringer Str.","postalCode":"97772","locality":"Wildflecken","municipality":{"key":"09672163","name":"Wildflecken, M","type":"Markt"},"district":{"key":"09672","name":"Bad Kissingen","type":"Landkreis"},"federalState":{"key":"09","name":"Bayern"}},{"name":"Thüringer Weg","postalCode":"97772","locality":"Wildflecken","municipality":{"key":"09672163","name":"Wildflecken, M","type":"Markt"},"district":{"key":"09672","name":"Bad Kissingen","type":"Landkreis"},"federalState":{"key":"09","name":"Bayern"}},{"name":"Toftstr.","postalCode":"25917","locality":"Leck","municipality":{"key":"01054076","name":"Leck","type":"Kreisangehörige_Gemeinde"},"district":{"key":"01054","name":"Nordfriesland","type":"Kreis"},"federalState":{"key":"01","name":"Schleswig-Holstein"}},{"name":"Tondernweg","postalCode":"25917","locality":"Leck","municipality":{"key":"01054076","name":"Leck","type":"Kreisangehörige_Gemeinde"},"district":{"key":"01054","name":"Nordfriesland","type":"Kreis"},"federalState":{"key":"01","name":"Schleswig-Holstein"}},{"name":"Töpferdamm","postalCode":"21354","locality":"Bleckede","municipality":{"key":"03355009","name":"Bleckede, Stadt","type":"Stadt"},"district":{"key":"03355","name":"Lüneburg","type":"Landkreis"},"federalState":{"key":"03","name":"Niedersachsen"}},{"name":"Tostergloper Str.","postalCode":"21354","locality":"Bleckede","municipality":{"key":"03355009","name":"Bleckede, Stadt","type":"Stadt"},"district":{"key":"03355","name":"Lüneburg","type":"Landkreis"},"federalState":{"key":"03","name":"Niedersachsen"}},{"name":"Treiweg","postalCode":"97772","locality":"Wildflecken","municipality":{"key":"09672163","name":"Wildflecken, M","type":"Markt"},"district":{"key":"09672","name":"Bad Kissingen","type":"Landkreis"},"federalState":{"key":"09","name":"Bayern"}},{"name":"Trombachweg","postalCode":"54570","locality":"Bleckhausen","municipality":{"key":"07233008","name":"Bleckhausen","type":"Kreisangehörige_Gemeinde"},"district":{"key":"07233","name":"Vulkaneifel","type":"Landkreis"},"federalState":{"key":"07","name":"Rheinland-Pfalz"}},{"name":"Tweng","postalCode":"25917","locality":"Leck","municipality":{"key":"01054076","name":"Leck","type":"Kreisangehörige_Gemeinde"},"district":{"key":"01054","name":"Nordfriesland","type":"Kreis"},"federalState":{"key":"01","name":"Schleswig-Holstein"}},{"name":"Uhlenbuschstr.","postalCode":"21354","locality":"Bleckede","municipality":{"key":"03355009","name":"Bleckede, Stadt","type":"Stadt"},"district":{"key":"03355","name":"Lüneburg","type":"Landkreis"},"federalState":{"key":"03","name":"Niedersachsen"}},{"name":"Ulmenweg","postalCode":"25917","locality":"Leck","municipality":{"key":"01054076","name":"Leck","type":"Kreisangehörige_Gemeinde"},"district":{"key":"01054","name":"Nordfriesland","type":"Kreis"},"federalState":{"key":"01","name":"Schleswig-Holstein"}},{"name":"Unterer Bernardenzug","postalCode":"94089","locality":"Pleckensteiner Wald","municipality":{"key":"09272458","name":"Pleckensteiner Wald","type":"Gemeindefreies_Gebiet_Unbewohnt"},"district":{"key":"09272","name":"Freyung-Grafenau","type":"Landkreis"},"federalState":{"key":"09","name":"Bayern"}},{"name":"Vogelbeerweg","postalCode":"21354","locality":"Bleckede","municipality":{"key":"03355009","name":"Bleckede, Stadt","type":"Stadt"},"district":{"key":"03355","name":"Lüneburg","type":"Landkreis"},"federalState":{"key":"03","name":"Niedersachsen"}},{"name":"Von-der-Schulenburg-Str.","postalCode":"21354","locality":"Bleckede","municipality":{"key":"03355009","name":"Bleckede, Stadt","type":"Stadt"},"district":{"key":"03355","name":"Lüneburg","type":"Landkreis"},"federalState":{"key":"03","name":"Niedersachsen"}},{"name":"Von-Estorffs-Deich","postalCode":"21354","locality":"Bleckede","municipality":{"key":"03355009","name":"Bleckede, Stadt","type":"Stadt"},"district":{"key":"03355","name":"Lüneburg","type":"Landkreis"},"federalState":{"key":"03","name":"Niedersachsen"}},{"name":"Von Estorffs Weg","postalCode":"21354","locality":"Bleckede","municipality":{"key":"03355009","name":"Bleckede, Stadt","type":"Stadt"},"district":{"key":"03355","name":"Lüneburg","type":"Landkreis"},"federalState":{"key":"03","name":"Niedersachsen"}},{"name":"Vor den Höfen","postalCode":"21354","locality":"Bleckede","municipality":{"key":"03355009","name":"Bleckede, Stadt","type":"Stadt"},"district":{"key":"03355","name":"Lüneburg","type":"Landkreis"},"federalState":{"key":"03","name":"Niedersachsen"}},{"name":"Vorrade","postalCode":"24357","locality":"Fleckeby","municipality":{"key":"01058052","name":"Fleckeby","type":"Kreisangehörige_Gemeinde"},"district":{"key":"01058","name":"Rendsburg-Eckernförde","type":"Kreis"},"federalState":{"key":"01","name":"Schleswig-Holstein"}},{"name":"Waldstr.","postalCode":"25917","locality":"Leck","municipality":{"key":"01054076","name":"Leck","type":"Kreisangehörige_Gemeinde"},"district":{"key":"01054","name":"Nordfriesland","type":"Kreis"},"federalState":{"key":"01","name":"Schleswig-Holstein"}},{"name":"Waldtwiete","postalCode":"21354","locality":"Bleckede","municipality":{"key":"03355009","name":"Bleckede, Stadt","type":"Stadt"},"district":{"key":"03355","name":"Lüneburg","type":"Landkreis"},"federalState":{"key":"03","name":"Niedersachsen"}},{"name":"Waldweg","postalCode":"56593","locality":"Pleckhausen","municipality":{"key":"07132090","name":"Pleckhausen","type":"Kreisangehörige_Gemeinde"},"district":{"key":"07132","name":"Altenkirchen (Westerwald)","type":"Landkreis"},"federalState":{"key":"07","name":"Rheinland-Pfalz"}},{"name":"Waldweg","postalCode":"97772","locality":"Wildflecken","municipality":{"key":"09672163","name":"Wildflecken, M","type":"Markt"},"district":{"key":"09672","name":"Bad Kissingen","type":"Landkreis"},"federalState":{"key":"09","name":"Bayern"}},{"name":"Walmsburger Str.","postalCode":"21354","locality":"Bleckede","municipality":{"key":"03355009","name":"Bleckede, Stadt","type":"Stadt"},"district":{"key":"03355","name":"Lüneburg","type":"Landkreis"},"federalState":{"key":"03","name":"Niedersachsen"}},{"name":"Wanger Weg","postalCode":"25917","locality":"Leck","municipality":{"key":"01054076","name":"Leck","type":"Kreisangehörige_Gemeinde"},"district":{"key":"01054","name":"Nordfriesland","type":"Kreis"},"federalState":{"key":"01","name":"Schleswig-Holstein"}},{"name":"Wehrblecker Heide","postalCode":"49453","locality":"Wehrbleck","municipality":{"key":"03251045","name":"Wehrbleck","type":"Kreisangehörige_Gemeinde"},"district":{"key":"03251","name":"Diepholz","type":"Landkreis"},"federalState":{"key":"03","name":"Niedersachsen"}},{"name":"Weidenbogen","postalCode":"25917","locality":"Leck","municipality":{"key":"01054076","name":"Leck","type":"Kreisangehörige_Gemeinde"},"district":{"key":"01054","name":"Nordfriesland","type":"Kreis"},"federalState":{"key":"01","name":"Schleswig-Holstein"}},{"name":"Weiherstr.","postalCode":"56593","locality":"Pleckhausen","municipality":{"key":"07132090","name":"Pleckhausen","type":"Kreisangehörige_Gemeinde"},"district":{"key":"07132","name":"Altenkirchen (Westerwald)","type":"Landkreis"},"federalState":{"key":"07","name":"Rheinland-Pfalz"}},{"name":"Wendischthuner Str.","postalCode":"21354","locality":"Bleckede","municipality":{"key":"03355009","name":"Bleckede, Stadt","type":"Stadt"},"district":{"key":"03355","name":"Lüneburg","type":"Landkreis"},"federalState":{"key":"03","name":"Niedersachsen"}},{"name":"Werberger Weg","postalCode":"97772","locality":"Wildflecken","municipality":{"key":"09672163","name":"Wildflecken, M","type":"Markt"},"district":{"key":"09672","name":"Bad Kissingen","type":"Landkreis"},"federalState":{"key":"09","name":"Bayern"}},{"name":"Westerende","postalCode":"25917","locality":"Leck","municipality":{"key":"01054076","name":"Leck","type":"Kreisangehörige_Gemeinde"},"district":{"key":"01054","name":"Nordfriesland","type":"Kreis"},"federalState":{"key":"01","name":"Schleswig-Holstein"}},{"name":"Wieselweg","postalCode":"21354","locality":"Bleckede","municipality":{"key":"03355009","name":"Bleckede, Stadt","type":"Stadt"},"district":{"key":"03355","name":"Lüneburg","type":"Landkreis"},"federalState":{"key":"03","name":"Niedersachsen"}},{"name":"Wiesengrund","postalCode":"25917","locality":"Leck","municipality":{"key":"01054076","name":"Leck","type":"Kreisangehörige_Gemeinde"},"district":{"key":"01054","name":"Nordfriesland","type":"Kreis"},"federalState":{"key":"01","name":"Schleswig-Holstein"}},{"name":"Wiesenklee","postalCode":"25917","locality":"Leck","municipality":{"key":"01054076","name":"Leck","type":"Kreisangehörige_Gemeinde"},"district":{"key":"01054","name":"Nordfriesland","type":"Kreis"},"federalState":{"key":"01","name":"Schleswig-Holstein"}},{"name":"Wiesenweg","postalCode":"21354","locality":"Bleckede","municipality":{"key":"03355009","name":"Bleckede, Stadt","type":"Stadt"},"district":{"key":"03355","name":"Lüneburg","type":"Landkreis"},"federalState":{"key":"03","name":"Niedersachsen"}},{"name":"Wiesenweg","postalCode":"56593","locality":"Pleckhausen","municipality":{"key":"07132090","name":"Pleckhausen","type":"Kreisangehörige_Gemeinde"},"district":{"key":"07132","name":"Altenkirchen (Westerwald)","type":"Landkreis"},"federalState":{"key":"07","name":"Rheinland-Pfalz"}},{"name":"Wikingerstr.","postalCode":"25917","locality":"Leck","municipality":{"key":"01054076","name":"Leck","type":"Kreisangehörige_Gemeinde"},"district":{"key":"01054","name":"Nordfriesland","type":"Kreis"},"federalState":{"key":"01","name":"Schleswig-Holstein"}},{"name":"Wolfstr.","postalCode":"25917","locality":"Leck","municipality":{"key":"01054076","name":"Leck","type":"Kreisangehörige_Gemeinde"},"district":{"key":"01054","name":"Nordfriesland","type":"Kreis"},"federalState":{"key":"01","name":"Schleswig-Holstein"}},{"name":"Ziegeleiweg","postalCode":"21354","locality":"Bleckede","municipality":{"key":"03355009","name":"Bleckede, Stadt","type":"Stadt"},"district":{"key":"03355","name":"Lüneburg","type":"Landkreis"},"federalState":{"key":"03","name":"Niedersachsen"}},{"name":"Zolldamm","postalCode":"21354","locality":"Bleckede","municipality":{"key":"03355009","name":"Bleckede, Stadt","type":"Stadt"},"district":{"key":"03355","name":"Lüneburg","type":"Landkreis"},"federalState":{"key":"03","name":"Niedersachsen"}},{"name":"Zollstr.","postalCode":"21354","locality":"Bleckede","municipality":{"key":"03355009","name":"Bleckede, Stadt","type":"Stadt"},"district":{"key":"03355","name":"Lüneburg","type":"Landkreis"},"federalState":{"key":"03","name":"Niedersachsen"}},{"name":"Zu den Weiden","postalCode":"21354","locality":"Bleckede","municipality":{"key":"03355009","name":"Bleckede, Stadt","type":"Stadt"},"district":{"key":"03355","name":"Lüneburg","type":"Landkreis"},"federalState":{"key":"03","name":"Niedersachsen"}},{"name":"Zum Birkenhof","postalCode":"56593","locality":"Pleckhausen","municipality":{"key":"07132090","name":"Pleckhausen","type":"Kreisangehörige_Gemeinde"},"district":{"key":"07132","name":"Altenkirchen (Westerwald)","type":"Landkreis"},"federalState":{"key":"07","name":"Rheinland-Pfalz"}},{"name":"Zum Delloh","postalCode":"27259","locality":"Wehrbleck","municipality":{"key":"03251045","name":"Wehrbleck","type":"Kreisangehörige_Gemeinde"},"district":{"key":"03251","name":"Diepholz","type":"Landkreis"},"federalState":{"key":"03","name":"Niedersachsen"}},{"name":"Zum Forst","postalCode":"25917","locality":"Leck","municipality":{"key":"01054076","name":"Leck","type":"Kreisangehörige_Gemeinde"},"district":{"key":"01054","name":"Nordfriesland","type":"Kreis"},"federalState":{"key":"01","name":"Schleswig-Holstein"}},{"name":"Zum Keising","postalCode":"56593","locality":"Pleckhausen","municipality":{"key":"07132090","name":"Pleckhausen","type":"Kreisangehörige_Gemeinde"},"district":{"key":"07132","name":"Altenkirchen (Westerwald)","type":"Landkreis"},"federalState":{"key":"07","name":"Rheinland-Pfalz"}},{"name":"Zum Kirchplatz","postalCode":"21354","locality":"Bleckede","municipality":{"key":"03355009","name":"Bleckede, Stadt","type":"Stadt"},"district":{"key":"03355","name":"Lüneburg","type":"Landkreis"},"federalState":{"key":"03","name":"Niedersachsen"}},{"name":"Zum Rosengarten","postalCode":"97772","locality":"Wildflecken","municipality":{"key":"09672163","name":"Wildflecken, M","type":"Markt"},"district":{"key":"09672","name":"Bad Kissingen","type":"Landkreis"},"federalState":{"key":"09","name":"Bayern"}},{"name":"Zum Seifen","postalCode":"56593","locality":"Pleckhausen","municipality":{"key":"07132090","name":"Pleckhausen","type":"Kreisangehörige_Gemeinde"},"district":{"key":"07132","name":"Altenkirchen (Westerwald)","type":"Landkreis"},"federalState":{"key":"07","name":"Rheinland-Pfalz"}},{"name":"Zum Sportplatz","postalCode":"27259","locality":"Wehrbleck","municipality":{"key":"03251045","name":"Wehrbleck","type":"Kreisangehörige_Gemeinde"},"district":{"key":"03251","name":"Diepholz","type":"Landkreis"},"federalState":{"key":"03","name":"Niedersachsen"}},{"name":"Zum Strotkamp","postalCode":"27259","locality":"Wehrbleck","municipality":{"key":"03251045","name":"Wehrbleck","type":"Kreisangehörige_Gemeinde"},"district":{"key":"03251","name":"Diepholz","type":"Landkreis"},"federalState":{"key":"03","name":"Niedersachsen"}},{"name":"Zum Telegrafenberg","postalCode":"21354","locality":"Bleckede","municipality":{"key":"03355009","name":"Bleckede, Stadt","type":"Stadt"},"district":{"key":"03355","name":"Lüneburg","type":"Landkreis"},"federalState":{"key":"03","name":"Niedersachsen"}},{"name":"Zur Bahn","postalCode":"27259","locality":"Wehrbleck","municipality":{"key":"03251045","name":"Wehrbleck","type":"Kreisangehörige_Gemeinde"},"district":{"key":"03251","name":"Diepholz","type":"Landkreis"},"federalState":{"key":"03","name":"Niedersachsen"}},{"name":"Zur Habekost","postalCode":"21354","locality":"Bleckede","municipality":{"key":"03355009","name":"Bleckede, Stadt","type":"Stadt"},"district":{"key":"03355","name":"Lüneburg","type":"Landkreis"},"federalState":{"key":"03","name":"Niedersachsen"}},{"name":"Zur Vitico","postalCode":"21354","locality":"Bleckede","municipality":{"key":"03355009","name":"Bleckede, Stadt","type":"Stadt"},"district":{"key":"03355","name":"Lüneburg","type":"Landkreis"},"federalState":{"key":"03","name":"Niedersachsen"}},]