[{"name":"Am Finkenschlag","postalCode":"76891","locality":"Bruchweiler-Bärenbach","municipality":{"key":"07340501","name":"Bruchweiler-Bärenbach","type":"Kreisangehörige_Gemeinde"},"district":{"key":"07340","name":"Südwestpfalz","type":"Landkreis"},"federalState":{"key":"07","name":"Rheinland-Pfalz"}},{"name":"Am Jüngstberg","postalCode":"76891","locality":"Bruchweiler-Bärenbach","municipality":{"key":"07340501","name":"Bruchweiler-Bärenbach","type":"Kreisangehörige_Gemeinde"},"district":{"key":"07340","name":"Südwestpfalz","type":"Landkreis"},"federalState":{"key":"07","name":"Rheinland-Pfalz"}},{"name":"Am Röderberg","postalCode":"76891","locality":"Bruchweiler-Bärenbach","municipality":{"key":"07340501","name":"Bruchweiler-Bärenbach","type":"Kreisangehörige_Gemeinde"},"district":{"key":"07340","name":"Südwestpfalz","type":"Landkreis"},"federalState":{"key":"07","name":"Rheinland-Pfalz"}},{"name":"Amselstr.","postalCode":"76891","locality":"Bruchweiler-Bärenbach","municipality":{"key":"07340501","name":"Bruchweiler-Bärenbach","type":"Kreisangehörige_Gemeinde"},"district":{"key":"07340","name":"Südwestpfalz","type":"Landkreis"},"federalState":{"key":"07","name":"Rheinland-Pfalz"}},{"name":"Bergstr.","postalCode":"76891","locality":"Bruchweiler-Bärenbach","municipality":{"key":"07340501","name":"Bruchweiler-Bärenbach","type":"Kreisangehörige_Gemeinde"},"district":{"key":"07340","name":"Südwestpfalz","type":"Landkreis"},"federalState":{"key":"07","name":"Rheinland-Pfalz"}},{"name":"Birkenweg","postalCode":"76891","locality":"Bruchweiler-Bärenbach","municipality":{"key":"07340501","name":"Bruchweiler-Bärenbach","type":"Kreisangehörige_Gemeinde"},"district":{"key":"07340","name":"Südwestpfalz","type":"Landkreis"},"federalState":{"key":"07","name":"Rheinland-Pfalz"}},{"name":"Dorfstr.","postalCode":"76891","locality":"Bruchweiler-Bärenbach","municipality":{"key":"07340501","name":"Bruchweiler-Bärenbach","type":"Kreisangehörige_Gemeinde"},"district":{"key":"07340","name":"Südwestpfalz","type":"Landkreis"},"federalState":{"key":"07","name":"Rheinland-Pfalz"}},{"name":"Fabrikstr.","postalCode":"76891","locality":"Bruchweiler-Bärenbach","municipality":{"key":"07340501","name":"Bruchweiler-Bärenbach","type":"Kreisangehörige_Gemeinde"},"district":{"key":"07340","name":"Südwestpfalz","type":"Landkreis"},"federalState":{"key":"07","name":"Rheinland-Pfalz"}},{"name":"Freizeitpark Spießwiesen","postalCode":"76891","locality":"Bruchweiler-Bärenbach","municipality":{"key":"07340501","name":"Bruchweiler-Bärenbach","type":"Kreisangehörige_Gemeinde"},"district":{"key":"07340","name":"Südwestpfalz","type":"Landkreis"},"federalState":{"key":"07","name":"Rheinland-Pfalz"}},{"name":"Gartenstr.","postalCode":"76891","locality":"Bruchweiler-Bärenbach","municipality":{"key":"07340501","name":"Bruchweiler-Bärenbach","type":"Kreisangehörige_Gemeinde"},"district":{"key":"07340","name":"Südwestpfalz","type":"Landkreis"},"federalState":{"key":"07","name":"Rheinland-Pfalz"}},{"name":"Goethestr.","postalCode":"76891","locality":"Bruchweiler-Bärenbach","municipality":{"key":"07340501","name":"Bruchweiler-Bärenbach","type":"Kreisangehörige_Gemeinde"},"district":{"key":"07340","name":"Südwestpfalz","type":"Landkreis"},"federalState":{"key":"07","name":"Rheinland-Pfalz"}},{"name":"Hauptstr.","postalCode":"76891","locality":"Bruchweiler-Bärenbach","municipality":{"key":"07340501","name":"Bruchweiler-Bärenbach","type":"Kreisangehörige_Gemeinde"},"district":{"key":"07340","name":"Südwestpfalz","type":"Landkreis"},"federalState":{"key":"07","name":"Rheinland-Pfalz"}},{"name":"Hohlweg","postalCode":"76891","locality":"Bruchweiler-Bärenbach","municipality":{"key":"07340501","name":"Bruchweiler-Bärenbach","type":"Kreisangehörige_Gemeinde"},"district":{"key":"07340","name":"Südwestpfalz","type":"Landkreis"},"federalState":{"key":"07","name":"Rheinland-Pfalz"}},{"name":"Im Grün","postalCode":"76891","locality":"Bruchweiler-Bärenbach","municipality":{"key":"07340501","name":"Bruchweiler-Bärenbach","type":"Kreisangehörige_Gemeinde"},"district":{"key":"07340","name":"Südwestpfalz","type":"Landkreis"},"federalState":{"key":"07","name":"Rheinland-Pfalz"}},{"name":"Im Wahrzeichen","postalCode":"76891","locality":"Bruchweiler-Bärenbach","municipality":{"key":"07340501","name":"Bruchweiler-Bärenbach","type":"Kreisangehörige_Gemeinde"},"district":{"key":"07340","name":"Südwestpfalz","type":"Landkreis"},"federalState":{"key":"07","name":"Rheinland-Pfalz"}},{"name":"Lauterstr.","postalCode":"76891","locality":"Bruchweiler-Bärenbach","municipality":{"key":"07340501","name":"Bruchweiler-Bärenbach","type":"Kreisangehörige_Gemeinde"},"district":{"key":"07340","name":"Südwestpfalz","type":"Landkreis"},"federalState":{"key":"07","name":"Rheinland-Pfalz"}},{"name":"Marienstr.","postalCode":"76891","locality":"Bruchweiler-Bärenbach","municipality":{"key":"07340501","name":"Bruchweiler-Bärenbach","type":"Kreisangehörige_Gemeinde"},"district":{"key":"07340","name":"Südwestpfalz","type":"Landkreis"},"federalState":{"key":"07","name":"Rheinland-Pfalz"}},{"name":"Otto-Muck-Str.","postalCode":"76891","locality":"Bruchweiler-Bärenbach","municipality":{"key":"07340501","name":"Bruchweiler-Bärenbach","type":"Kreisangehörige_Gemeinde"},"district":{"key":"07340","name":"Südwestpfalz","type":"Landkreis"},"federalState":{"key":"07","name":"Rheinland-Pfalz"}},{"name":"Raiffeisenstr.","postalCode":"76891","locality":"Bruchweiler-Bärenbach","municipality":{"key":"07340501","name":"Bruchweiler-Bärenbach","type":"Kreisangehörige_Gemeinde"},"district":{"key":"07340","name":"Südwestpfalz","type":"Landkreis"},"federalState":{"key":"07","name":"Rheinland-Pfalz"}},{"name":"Reinighofstr.","postalCode":"76891","locality":"Bruchweiler-Bärenbach","municipality":{"key":"07340501","name":"Bruchweiler-Bärenbach","type":"Kreisangehörige_Gemeinde"},"district":{"key":"07340","name":"Südwestpfalz","type":"Landkreis"},"federalState":{"key":"07","name":"Rheinland-Pfalz"}},{"name":"Reinigshofstr.","postalCode":"76891","locality":"Bruchweiler-Bärenbach","municipality":{"key":"07340501","name":"Bruchweiler-Bärenbach","type":"Kreisangehörige_Gemeinde"},"district":{"key":"07340","name":"Südwestpfalz","type":"Landkreis"},"federalState":{"key":"07","name":"Rheinland-Pfalz"}},{"name":"Ringstr.","postalCode":"76891","locality":"Bruchweiler-Bärenbach","municipality":{"key":"07340501","name":"Bruchweiler-Bärenbach","type":"Kreisangehörige_Gemeinde"},"district":{"key":"07340","name":"Südwestpfalz","type":"Landkreis"},"federalState":{"key":"07","name":"Rheinland-Pfalz"}},{"name":"Schillerstr.","postalCode":"76891","locality":"Bruchweiler-Bärenbach","municipality":{"key":"07340501","name":"Bruchweiler-Bärenbach","type":"Kreisangehörige_Gemeinde"},"district":{"key":"07340","name":"Südwestpfalz","type":"Landkreis"},"federalState":{"key":"07","name":"Rheinland-Pfalz"}},{"name":"Schuhfelsstr.","postalCode":"76891","locality":"Bruchweiler-Bärenbach","municipality":{"key":"07340501","name":"Bruchweiler-Bärenbach","type":"Kreisangehörige_Gemeinde"},"district":{"key":"07340","name":"Südwestpfalz","type":"Landkreis"},"federalState":{"key":"07","name":"Rheinland-Pfalz"}},{"name":"Sonnenstr.","postalCode":"76891","locality":"Bruchweiler-Bärenbach","municipality":{"key":"07340501","name":"Bruchweiler-Bärenbach","type":"Kreisangehörige_Gemeinde"},"district":{"key":"07340","name":"Südwestpfalz","type":"Landkreis"},"federalState":{"key":"07","name":"Rheinland-Pfalz"}},{"name":"Talstr.","postalCode":"76891","locality":"Bruchweiler-Bärenbach","municipality":{"key":"07340501","name":"Bruchweiler-Bärenbach","type":"Kreisangehörige_Gemeinde"},"district":{"key":"07340","name":"Südwestpfalz","type":"Landkreis"},"federalState":{"key":"07","name":"Rheinland-Pfalz"}},{"name":"Waldstr.","postalCode":"76891","locality":"Bruchweiler-Bärenbach","municipality":{"key":"07340501","name":"Bruchweiler-Bärenbach","type":"Kreisangehörige_Gemeinde"},"district":{"key":"07340","name":"Südwestpfalz","type":"Landkreis"},"federalState":{"key":"07","name":"Rheinland-Pfalz"}},{"name":"Wasgaustr.","postalCode":"76891","locality":"Bruchweiler-Bärenbach","municipality":{"key":"07340501","name":"Bruchweiler-Bärenbach","type":"Kreisangehörige_Gemeinde"},"district":{"key":"07340","name":"Südwestpfalz","type":"Landkreis"},"federalState":{"key":"07","name":"Rheinland-Pfalz"}},{"name":"Wiesenstr.","postalCode":"76891","locality":"Bruchweiler-Bärenbach","municipality":{"key":"07340501","name":"Bruchweiler-Bärenbach","type":"Kreisangehörige_Gemeinde"},"district":{"key":"07340","name":"Südwestpfalz","type":"Landkreis"},"federalState":{"key":"07","name":"Rheinland-Pfalz"}},{"name":"Woogstr.","postalCode":"76891","locality":"Bruchweiler-Bärenbach","municipality":{"key":"07340501","name":"Bruchweiler-Bärenbach","type":"Kreisangehörige_Gemeinde"},"district":{"key":"07340","name":"Südwestpfalz","type":"Landkreis"},"federalState":{"key":"07","name":"Rheinland-Pfalz"}},]