[{"name":"Alte Schulstr.","postalCode":"91634","locality":"Wilburgstetten","municipality":{"key":"09571224","name":"Wilburgstetten","type":"Kreisangehörige_Gemeinde"},"district":{"key":"09571","name":"Ansbach","type":"Landkreis"},"federalState":{"key":"09","name":"Bayern"}},{"name":"Am Bahndamm","postalCode":"91634","locality":"Wilburgstetten","municipality":{"key":"09571224","name":"Wilburgstetten","type":"Kreisangehörige_Gemeinde"},"district":{"key":"09571","name":"Ansbach","type":"Landkreis"},"federalState":{"key":"09","name":"Bayern"}},{"name":"Am Brünnerle","postalCode":"91634","locality":"Wilburgstetten","municipality":{"key":"09571224","name":"Wilburgstetten","type":"Kreisangehörige_Gemeinde"},"district":{"key":"09571","name":"Ansbach","type":"Landkreis"},"federalState":{"key":"09","name":"Bayern"}},{"name":"Am Lindenbuck","postalCode":"91634","locality":"Wilburgstetten","municipality":{"key":"09571224","name":"Wilburgstetten","type":"Kreisangehörige_Gemeinde"},"district":{"key":"09571","name":"Ansbach","type":"Landkreis"},"federalState":{"key":"09","name":"Bayern"}},{"name":"Am Rankenäcker","postalCode":"91634","locality":"Wilburgstetten","municipality":{"key":"09571224","name":"Wilburgstetten","type":"Kreisangehörige_Gemeinde"},"district":{"key":"09571","name":"Ansbach","type":"Landkreis"},"federalState":{"key":"09","name":"Bayern"}},{"name":"Bahnhofstr.","postalCode":"91634","locality":"Wilburgstetten","municipality":{"key":"09571224","name":"Wilburgstetten","type":"Kreisangehörige_Gemeinde"},"district":{"key":"09571","name":"Ansbach","type":"Landkreis"},"federalState":{"key":"09","name":"Bayern"}},{"name":"Bergweg","postalCode":"91634","locality":"Wilburgstetten","municipality":{"key":"09571224","name":"Wilburgstetten","type":"Kreisangehörige_Gemeinde"},"district":{"key":"09571","name":"Ansbach","type":"Landkreis"},"federalState":{"key":"09","name":"Bayern"}},{"name":"Blumenstr.","postalCode":"91634","locality":"Wilburgstetten","municipality":{"key":"09571224","name":"Wilburgstetten","type":"Kreisangehörige_Gemeinde"},"district":{"key":"09571","name":"Ansbach","type":"Landkreis"},"federalState":{"key":"09","name":"Bayern"}},{"name":"Brandweg","postalCode":"91634","locality":"Wilburgstetten","municipality":{"key":"09571224","name":"Wilburgstetten","type":"Kreisangehörige_Gemeinde"},"district":{"key":"09571","name":"Ansbach","type":"Landkreis"},"federalState":{"key":"09","name":"Bayern"}},{"name":"Burgringstr.","postalCode":"91634","locality":"Wilburgstetten","municipality":{"key":"09571224","name":"Wilburgstetten","type":"Kreisangehörige_Gemeinde"},"district":{"key":"09571","name":"Ansbach","type":"Landkreis"},"federalState":{"key":"09","name":"Bayern"}},{"name":"Burgstallweg","postalCode":"91634","locality":"Wilburgstetten","municipality":{"key":"09571224","name":"Wilburgstetten","type":"Kreisangehörige_Gemeinde"},"district":{"key":"09571","name":"Ansbach","type":"Landkreis"},"federalState":{"key":"09","name":"Bayern"}},{"name":"Charlottenhöhe","postalCode":"91522","locality":"Ansbach","municipality":{"key":"09561000","name":"Ansbach","type":"Kreisfreie_Stadt"},"district":{"key":"09561","name":"Ansbach","type":"Kreisfreie_Stadt"},"federalState":{"key":"09","name":"Bayern"}},{"name":"Charlottenstr.","postalCode":"91522","locality":"Ansbach","municipality":{"key":"09561000","name":"Ansbach","type":"Kreisfreie_Stadt"},"district":{"key":"09561","name":"Ansbach","type":"Kreisfreie_Stadt"},"federalState":{"key":"09","name":"Bayern"}},{"name":"Christian-Sturm-Str.","postalCode":"91522","locality":"Ansbach","municipality":{"key":"09561000","name":"Ansbach","type":"Kreisfreie_Stadt"},"district":{"key":"09561","name":"Ansbach","type":"Kreisfreie_Stadt"},"federalState":{"key":"09","name":"Bayern"}},{"name":"Claffheim","postalCode":"91522","locality":"Ansbach","municipality":{"key":"09561000","name":"Ansbach","type":"Kreisfreie_Stadt"},"district":{"key":"09561","name":"Ansbach","type":"Kreisfreie_Stadt"},"federalState":{"key":"09","name":"Bayern"}},{"name":"Crailsheimstr.","postalCode":"91522","locality":"Ansbach","municipality":{"key":"09561000","name":"Ansbach","type":"Kreisfreie_Stadt"},"district":{"key":"09561","name":"Ansbach","type":"Kreisfreie_Stadt"},"federalState":{"key":"09","name":"Bayern"}},{"name":"Cronegkstr.","postalCode":"91522","locality":"Ansbach","municipality":{"key":"09561000","name":"Ansbach","type":"Kreisfreie_Stadt"},"district":{"key":"09561","name":"Ansbach","type":"Kreisfreie_Stadt"},"federalState":{"key":"09","name":"Bayern"}},{"name":"Dinkelsbühler Str.","postalCode":"91634","locality":"Wilburgstetten","municipality":{"key":"09571224","name":"Wilburgstetten","type":"Kreisangehörige_Gemeinde"},"district":{"key":"09571","name":"Ansbach","type":"Landkreis"},"federalState":{"key":"09","name":"Bayern"}},{"name":"Egerlandstr.","postalCode":"91522","locality":"Ansbach","municipality":{"key":"09561000","name":"Ansbach","type":"Kreisfreie_Stadt"},"district":{"key":"09561","name":"Ansbach","type":"Kreisfreie_Stadt"},"federalState":{"key":"09","name":"Bayern"}},{"name":"Egloffswinder Str.","postalCode":"91522","locality":"Ansbach","municipality":{"key":"09561000","name":"Ansbach","type":"Kreisfreie_Stadt"},"district":{"key":"09561","name":"Ansbach","type":"Kreisfreie_Stadt"},"federalState":{"key":"09","name":"Bayern"}},{"name":"Eichenbachstr.","postalCode":"91522","locality":"Ansbach","municipality":{"key":"09561000","name":"Ansbach","type":"Kreisfreie_Stadt"},"district":{"key":"09561","name":"Ansbach","type":"Kreisfreie_Stadt"},"federalState":{"key":"09","name":"Bayern"}},{"name":"Eichendorffstr.","postalCode":"91522","locality":"Ansbach","municipality":{"key":"09561000","name":"Ansbach","type":"Kreisfreie_Stadt"},"district":{"key":"09561","name":"Ansbach","type":"Kreisfreie_Stadt"},"federalState":{"key":"09","name":"Bayern"}},{"name":"Eichenstr.","postalCode":"91522","locality":"Ansbach","municipality":{"key":"09561000","name":"Ansbach","type":"Kreisfreie_Stadt"},"district":{"key":"09561","name":"Ansbach","type":"Kreisfreie_Stadt"},"federalState":{"key":"09","name":"Bayern"}},{"name":"Eichenstr.","postalCode":"91623","locality":"Sachsen bei Ansbach","municipality":{"key":"09571196","name":"Sachsen b.Ansbach","type":"Kreisangehörige_Gemeinde"},"district":{"key":"09571","name":"Ansbach","type":"Landkreis"},"federalState":{"key":"09","name":"Bayern"}},{"name":"Eichgarten","postalCode":"56235","locality":"Ransbach-Baumbach","municipality":{"key":"07143062","name":"Ransbach-Baumbach, Stadt","type":"Stadt"},"district":{"key":"07143","name":"Westerwaldkreis","type":"Landkreis"},"federalState":{"key":"07","name":"Rheinland-Pfalz"}},{"name":"Eifelstr.","postalCode":"56235","locality":"Ransbach-Baumbach","municipality":{"key":"07143062","name":"Ransbach-Baumbach, Stadt","type":"Stadt"},"district":{"key":"07143","name":"Westerwaldkreis","type":"Landkreis"},"federalState":{"key":"07","name":"Rheinland-Pfalz"}},{"name":"Elpersdorfer Schneise","postalCode":"91522","locality":"Ansbach","municipality":{"key":"09561000","name":"Ansbach","type":"Kreisfreie_Stadt"},"district":{"key":"09561","name":"Ansbach","type":"Kreisfreie_Stadt"},"federalState":{"key":"09","name":"Bayern"}},{"name":"Elspergerstr.","postalCode":"91522","locality":"Ansbach","municipality":{"key":"09561000","name":"Ansbach","type":"Kreisfreie_Stadt"},"district":{"key":"09561","name":"Ansbach","type":"Kreisfreie_Stadt"},"federalState":{"key":"09","name":"Bayern"}},{"name":"Eltwinstr.","postalCode":"91522","locality":"Ansbach","municipality":{"key":"09561000","name":"Ansbach","type":"Kreisfreie_Stadt"},"district":{"key":"09561","name":"Ansbach","type":"Kreisfreie_Stadt"},"federalState":{"key":"09","name":"Bayern"}},{"name":"Endresstr.","postalCode":"91522","locality":"Ansbach","municipality":{"key":"09561000","name":"Ansbach","type":"Kreisfreie_Stadt"},"district":{"key":"09561","name":"Ansbach","type":"Kreisfreie_Stadt"},"federalState":{"key":"09","name":"Bayern"}},{"name":"Erlbachweg","postalCode":"91623","locality":"Sachsen bei Ansbach","municipality":{"key":"09571196","name":"Sachsen b.Ansbach","type":"Kreisangehörige_Gemeinde"},"district":{"key":"09571","name":"Ansbach","type":"Landkreis"},"federalState":{"key":"09","name":"Bayern"}},{"name":"Erlenhofstr.","postalCode":"56235","locality":"Ransbach-Baumbach","municipality":{"key":"07143062","name":"Ransbach-Baumbach, Stadt","type":"Stadt"},"district":{"key":"07143","name":"Westerwaldkreis","type":"Landkreis"},"federalState":{"key":"07","name":"Rheinland-Pfalz"}},{"name":"Ernst-Körner-Ring","postalCode":"91522","locality":"Ansbach","municipality":{"key":"09561000","name":"Ansbach","type":"Kreisfreie_Stadt"},"district":{"key":"09561","name":"Ansbach","type":"Kreisfreie_Stadt"},"federalState":{"key":"09","name":"Bayern"}},{"name":"Eschenstr.","postalCode":"91522","locality":"Ansbach","municipality":{"key":"09561000","name":"Ansbach","type":"Kreisfreie_Stadt"},"district":{"key":"09561","name":"Ansbach","type":"Kreisfreie_Stadt"},"federalState":{"key":"09","name":"Bayern"}},{"name":"Eschenweg","postalCode":"91623","locality":"Sachsen bei Ansbach","municipality":{"key":"09571196","name":"Sachsen b.Ansbach","type":"Kreisangehörige_Gemeinde"},"district":{"key":"09571","name":"Ansbach","type":"Landkreis"},"federalState":{"key":"09","name":"Bayern"}},{"name":"Escherichstr.","postalCode":"91522","locality":"Ansbach","municipality":{"key":"09561000","name":"Ansbach","type":"Kreisfreie_Stadt"},"district":{"key":"09561","name":"Ansbach","type":"Kreisfreie_Stadt"},"federalState":{"key":"09","name":"Bayern"}},{"name":"Eulenweg","postalCode":"91522","locality":"Ansbach","municipality":{"key":"09561000","name":"Ansbach","type":"Kreisfreie_Stadt"},"district":{"key":"09561","name":"Ansbach","type":"Kreisfreie_Stadt"},"federalState":{"key":"09","name":"Bayern"}},{"name":"Eulerstr.","postalCode":"56235","locality":"Ransbach-Baumbach","municipality":{"key":"07143062","name":"Ransbach-Baumbach, Stadt","type":"Stadt"},"district":{"key":"07143","name":"Westerwaldkreis","type":"Landkreis"},"federalState":{"key":"07","name":"Rheinland-Pfalz"}},{"name":"Eyber Str.","postalCode":"91522","locality":"Ansbach","municipality":{"key":"09561000","name":"Ansbach","type":"Kreisfreie_Stadt"},"district":{"key":"09561","name":"Ansbach","type":"Kreisfreie_Stadt"},"federalState":{"key":"09","name":"Bayern"}},{"name":"Flurstr.","postalCode":"91634","locality":"Wilburgstetten","municipality":{"key":"09571224","name":"Wilburgstetten","type":"Kreisangehörige_Gemeinde"},"district":{"key":"09571","name":"Ansbach","type":"Landkreis"},"federalState":{"key":"09","name":"Bayern"}},{"name":"Frankenstr.","postalCode":"91634","locality":"Wilburgstetten","municipality":{"key":"09571224","name":"Wilburgstetten","type":"Kreisangehörige_Gemeinde"},"district":{"key":"09571","name":"Ansbach","type":"Landkreis"},"federalState":{"key":"09","name":"Bayern"}},{"name":"Gartenstr.","postalCode":"91634","locality":"Wilburgstetten","municipality":{"key":"09571224","name":"Wilburgstetten","type":"Kreisangehörige_Gemeinde"},"district":{"key":"09571","name":"Ansbach","type":"Landkreis"},"federalState":{"key":"09","name":"Bayern"}},{"name":"Haagäckerstr.","postalCode":"91634","locality":"Wilburgstetten","municipality":{"key":"09571224","name":"Wilburgstetten","type":"Kreisangehörige_Gemeinde"},"district":{"key":"09571","name":"Ansbach","type":"Landkreis"},"federalState":{"key":"09","name":"Bayern"}},{"name":"Haselstr.","postalCode":"91634","locality":"Wilburgstetten","municipality":{"key":"09571224","name":"Wilburgstetten","type":"Kreisangehörige_Gemeinde"},"district":{"key":"09571","name":"Ansbach","type":"Landkreis"},"federalState":{"key":"09","name":"Bayern"}},{"name":"Hauptstr.","postalCode":"91634","locality":"Wilburgstetten","municipality":{"key":"09571224","name":"Wilburgstetten","type":"Kreisangehörige_Gemeinde"},"district":{"key":"09571","name":"Ansbach","type":"Landkreis"},"federalState":{"key":"09","name":"Bayern"}},{"name":"Heckenstr.","postalCode":"91634","locality":"Wilburgstetten","municipality":{"key":"09571224","name":"Wilburgstetten","type":"Kreisangehörige_Gemeinde"},"district":{"key":"09571","name":"Ansbach","type":"Landkreis"},"federalState":{"key":"09","name":"Bayern"}},{"name":"Hesselbergstr.","postalCode":"91634","locality":"Wilburgstetten","municipality":{"key":"09571224","name":"Wilburgstetten","type":"Kreisangehörige_Gemeinde"},"district":{"key":"09571","name":"Ansbach","type":"Landkreis"},"federalState":{"key":"09","name":"Bayern"}},{"name":"Hetschenlache","postalCode":"91634","locality":"Wilburgstetten","municipality":{"key":"09571224","name":"Wilburgstetten","type":"Kreisangehörige_Gemeinde"},"district":{"key":"09571","name":"Ansbach","type":"Landkreis"},"federalState":{"key":"09","name":"Bayern"}},{"name":"Hirtenweg","postalCode":"91634","locality":"Wilburgstetten","municipality":{"key":"09571224","name":"Wilburgstetten","type":"Kreisangehörige_Gemeinde"},"district":{"key":"09571","name":"Ansbach","type":"Landkreis"},"federalState":{"key":"09","name":"Bayern"}},{"name":"Hohlweg","postalCode":"91634","locality":"Wilburgstetten","municipality":{"key":"09571224","name":"Wilburgstetten","type":"Kreisangehörige_Gemeinde"},"district":{"key":"09571","name":"Ansbach","type":"Landkreis"},"federalState":{"key":"09","name":"Bayern"}},{"name":"Im Kirchlesranken","postalCode":"91634","locality":"Wilburgstetten","municipality":{"key":"09571224","name":"Wilburgstetten","type":"Kreisangehörige_Gemeinde"},"district":{"key":"09571","name":"Ansbach","type":"Landkreis"},"federalState":{"key":"09","name":"Bayern"}},{"name":"Industriestr.","postalCode":"91634","locality":"Wilburgstetten","municipality":{"key":"09571224","name":"Wilburgstetten","type":"Kreisangehörige_Gemeinde"},"district":{"key":"09571","name":"Ansbach","type":"Landkreis"},"federalState":{"key":"09","name":"Bayern"}},{"name":"Jägerndorfer Str.","postalCode":"91522","locality":"Ansbach","municipality":{"key":"09561000","name":"Ansbach","type":"Kreisfreie_Stadt"},"district":{"key":"09561","name":"Ansbach","type":"Kreisfreie_Stadt"},"federalState":{"key":"09","name":"Bayern"}},{"name":"Jägerpfad","postalCode":"56235","locality":"Ransbach-Baumbach","municipality":{"key":"07143062","name":"Ransbach-Baumbach, Stadt","type":"Stadt"},"district":{"key":"07143","name":"Westerwaldkreis","type":"Landkreis"},"federalState":{"key":"07","name":"Rheinland-Pfalz"}},{"name":"Jahnstr.","postalCode":"56235","locality":"Ransbach-Baumbach","municipality":{"key":"07143062","name":"Ransbach-Baumbach, Stadt","type":"Stadt"},"district":{"key":"07143","name":"Westerwaldkreis","type":"Landkreis"},"federalState":{"key":"07","name":"Rheinland-Pfalz"}},{"name":"Jahnstr.","postalCode":"91522","locality":"Ansbach","municipality":{"key":"09561000","name":"Ansbach","type":"Kreisfreie_Stadt"},"district":{"key":"09561","name":"Ansbach","type":"Kreisfreie_Stadt"},"federalState":{"key":"09","name":"Bayern"}},{"name":"Johannisweg","postalCode":"91522","locality":"Ansbach","municipality":{"key":"09561000","name":"Ansbach","type":"Kreisfreie_Stadt"},"district":{"key":"09561","name":"Ansbach","type":"Kreisfreie_Stadt"},"federalState":{"key":"09","name":"Bayern"}},{"name":"Johann-Matthie-Str.","postalCode":"56235","locality":"Ransbach-Baumbach","municipality":{"key":"07143062","name":"Ransbach-Baumbach, Stadt","type":"Stadt"},"district":{"key":"07143","name":"Westerwaldkreis","type":"Landkreis"},"federalState":{"key":"07","name":"Rheinland-Pfalz"}},{"name":"Johann-Sebastian-Bach-Platz","postalCode":"91522","locality":"Ansbach","municipality":{"key":"09561000","name":"Ansbach","type":"Kreisfreie_Stadt"},"district":{"key":"09561","name":"Ansbach","type":"Kreisfreie_Stadt"},"federalState":{"key":"09","name":"Bayern"}},{"name":"Jüdtstr.","postalCode":"91522","locality":"Ansbach","municipality":{"key":"09561000","name":"Ansbach","type":"Kreisfreie_Stadt"},"district":{"key":"09561","name":"Ansbach","type":"Kreisfreie_Stadt"},"federalState":{"key":"09","name":"Bayern"}},{"name":"Julius-Meyer-Str.","postalCode":"91522","locality":"Ansbach","municipality":{"key":"09561000","name":"Ansbach","type":"Kreisfreie_Stadt"},"district":{"key":"09561","name":"Ansbach","type":"Kreisfreie_Stadt"},"federalState":{"key":"09","name":"Bayern"}},{"name":"Junckerweg","postalCode":"91522","locality":"Ansbach","municipality":{"key":"09561000","name":"Ansbach","type":"Kreisfreie_Stadt"},"district":{"key":"09561","name":"Ansbach","type":"Kreisfreie_Stadt"},"federalState":{"key":"09","name":"Bayern"}},{"name":"Junkernstr.","postalCode":"56235","locality":"Ransbach-Baumbach","municipality":{"key":"07143062","name":"Ransbach-Baumbach, Stadt","type":"Stadt"},"district":{"key":"07143","name":"Westerwaldkreis","type":"Landkreis"},"federalState":{"key":"07","name":"Rheinland-Pfalz"}},{"name":"Karl-Ruf-Str.","postalCode":"91634","locality":"Wilburgstetten","municipality":{"key":"09571224","name":"Wilburgstetten","type":"Kreisangehörige_Gemeinde"},"district":{"key":"09571","name":"Ansbach","type":"Landkreis"},"federalState":{"key":"09","name":"Bayern"}},{"name":"Kirchenweg","postalCode":"91634","locality":"Wilburgstetten","municipality":{"key":"09571224","name":"Wilburgstetten","type":"Kreisangehörige_Gemeinde"},"district":{"key":"09571","name":"Ansbach","type":"Landkreis"},"federalState":{"key":"09","name":"Bayern"}},{"name":"Kreuzweg","postalCode":"91634","locality":"Wilburgstetten","municipality":{"key":"09571224","name":"Wilburgstetten","type":"Kreisangehörige_Gemeinde"},"district":{"key":"09571","name":"Ansbach","type":"Landkreis"},"federalState":{"key":"09","name":"Bayern"}},{"name":"Krummäckerstr.","postalCode":"91634","locality":"Wilburgstetten","municipality":{"key":"09571224","name":"Wilburgstetten","type":"Kreisangehörige_Gemeinde"},"district":{"key":"09571","name":"Ansbach","type":"Landkreis"},"federalState":{"key":"09","name":"Bayern"}},{"name":"Limburger Str.","postalCode":"91634","locality":"Wilburgstetten","municipality":{"key":"09571224","name":"Wilburgstetten","type":"Kreisangehörige_Gemeinde"},"district":{"key":"09571","name":"Ansbach","type":"Landkreis"},"federalState":{"key":"09","name":"Bayern"}},{"name":"Limesstr.","postalCode":"91634","locality":"Wilburgstetten","municipality":{"key":"09571224","name":"Wilburgstetten","type":"Kreisangehörige_Gemeinde"},"district":{"key":"09571","name":"Ansbach","type":"Landkreis"},"federalState":{"key":"09","name":"Bayern"}},{"name":"Lindenstr.","postalCode":"91634","locality":"Wilburgstetten","municipality":{"key":"09571224","name":"Wilburgstetten","type":"Kreisangehörige_Gemeinde"},"district":{"key":"09571","name":"Ansbach","type":"Landkreis"},"federalState":{"key":"09","name":"Bayern"}},{"name":"Mönchsrother Str.","postalCode":"91634","locality":"Wilburgstetten","municipality":{"key":"09571224","name":"Wilburgstetten","type":"Kreisangehörige_Gemeinde"},"district":{"key":"09571","name":"Ansbach","type":"Landkreis"},"federalState":{"key":"09","name":"Bayern"}},{"name":"Mühlstr.","postalCode":"91634","locality":"Wilburgstetten","municipality":{"key":"09571224","name":"Wilburgstetten","type":"Kreisangehörige_Gemeinde"},"district":{"key":"09571","name":"Ansbach","type":"Landkreis"},"federalState":{"key":"09","name":"Bayern"}},{"name":"Nördlinger Str.","postalCode":"91634","locality":"Wilburgstetten","municipality":{"key":"09571224","name":"Wilburgstetten","type":"Kreisangehörige_Gemeinde"},"district":{"key":"09571","name":"Ansbach","type":"Landkreis"},"federalState":{"key":"09","name":"Bayern"}},{"name":"Obere Mühlleite","postalCode":"91522","locality":"Ansbach","municipality":{"key":"09561000","name":"Ansbach","type":"Kreisfreie_Stadt"},"district":{"key":"09561","name":"Ansbach","type":"Kreisfreie_Stadt"},"federalState":{"key":"09","name":"Bayern"}},{"name":"Oberer Weinberg","postalCode":"91522","locality":"Ansbach","municipality":{"key":"09561000","name":"Ansbach","type":"Kreisfreie_Stadt"},"district":{"key":"09561","name":"Ansbach","type":"Kreisfreie_Stadt"},"federalState":{"key":"09","name":"Bayern"}},{"name":"Oberhäuserstr.","postalCode":"91522","locality":"Ansbach","municipality":{"key":"09561000","name":"Ansbach","type":"Kreisfreie_Stadt"},"district":{"key":"09561","name":"Ansbach","type":"Kreisfreie_Stadt"},"federalState":{"key":"09","name":"Bayern"}},{"name":"Oertelweg","postalCode":"91522","locality":"Ansbach","municipality":{"key":"09561000","name":"Ansbach","type":"Kreisfreie_Stadt"},"district":{"key":"09561","name":"Ansbach","type":"Kreisfreie_Stadt"},"federalState":{"key":"09","name":"Bayern"}},{"name":"Orangeriesteg","postalCode":"91522","locality":"Ansbach","municipality":{"key":"09561000","name":"Ansbach","type":"Kreisfreie_Stadt"},"district":{"key":"09561","name":"Ansbach","type":"Kreisfreie_Stadt"},"federalState":{"key":"09","name":"Bayern"}},{"name":"Osterfeldstr.","postalCode":"56235","locality":"Ransbach-Baumbach","municipality":{"key":"07143062","name":"Ransbach-Baumbach, Stadt","type":"Stadt"},"district":{"key":"07143","name":"Westerwaldkreis","type":"Landkreis"},"federalState":{"key":"07","name":"Rheinland-Pfalz"}},{"name":"Oststr.","postalCode":"56235","locality":"Ransbach-Baumbach","municipality":{"key":"07143062","name":"Ransbach-Baumbach, Stadt","type":"Stadt"},"district":{"key":"07143","name":"Westerwaldkreis","type":"Landkreis"},"federalState":{"key":"07","name":"Rheinland-Pfalz"}},{"name":"Othmayrstr.","postalCode":"91522","locality":"Ansbach","municipality":{"key":"09561000","name":"Ansbach","type":"Kreisfreie_Stadt"},"district":{"key":"09561","name":"Ansbach","type":"Kreisfreie_Stadt"},"federalState":{"key":"09","name":"Bayern"}},{"name":"Otto-Lilienthal-Weg","postalCode":"91522","locality":"Ansbach","municipality":{"key":"09561000","name":"Ansbach","type":"Kreisfreie_Stadt"},"district":{"key":"09561","name":"Ansbach","type":"Kreisfreie_Stadt"},"federalState":{"key":"09","name":"Bayern"}},{"name":"Parkstr.","postalCode":"56235","locality":"Ransbach-Baumbach","municipality":{"key":"07143062","name":"Ransbach-Baumbach, Stadt","type":"Stadt"},"district":{"key":"07143","name":"Westerwaldkreis","type":"Landkreis"},"federalState":{"key":"07","name":"Rheinland-Pfalz"}},{"name":"Pestalozzistr.","postalCode":"91522","locality":"Ansbach","municipality":{"key":"09561000","name":"Ansbach","type":"Kreisfreie_Stadt"},"district":{"key":"09561","name":"Ansbach","type":"Kreisfreie_Stadt"},"federalState":{"key":"09","name":"Bayern"}},{"name":"Pettenkoferstr.","postalCode":"91522","locality":"Ansbach","municipality":{"key":"09561000","name":"Ansbach","type":"Kreisfreie_Stadt"},"district":{"key":"09561","name":"Ansbach","type":"Kreisfreie_Stadt"},"federalState":{"key":"09","name":"Bayern"}},{"name":"Pfaffenbuck","postalCode":"91522","locality":"Ansbach","municipality":{"key":"09561000","name":"Ansbach","type":"Kreisfreie_Stadt"},"district":{"key":"09561","name":"Ansbach","type":"Kreisfreie_Stadt"},"federalState":{"key":"09","name":"Bayern"}},{"name":"Pfaffengreuth","postalCode":"91522","locality":"Ansbach","municipality":{"key":"09561000","name":"Ansbach","type":"Kreisfreie_Stadt"},"district":{"key":"09561","name":"Ansbach","type":"Kreisfreie_Stadt"},"federalState":{"key":"09","name":"Bayern"}},{"name":"Pfaffengreuther Berg","postalCode":"91522","locality":"Ansbach","municipality":{"key":"09561000","name":"Ansbach","type":"Kreisfreie_Stadt"},"district":{"key":"09561","name":"Ansbach","type":"Kreisfreie_Stadt"},"federalState":{"key":"09","name":"Bayern"}},{"name":"Pfarrer-Born-Str.","postalCode":"56235","locality":"Ransbach-Baumbach","municipality":{"key":"07143062","name":"Ransbach-Baumbach, Stadt","type":"Stadt"},"district":{"key":"07143","name":"Westerwaldkreis","type":"Landkreis"},"federalState":{"key":"07","name":"Rheinland-Pfalz"}},{"name":"Pfarrer-Hans-Str.","postalCode":"56235","locality":"Ransbach-Baumbach","municipality":{"key":"07143062","name":"Ransbach-Baumbach, Stadt","type":"Stadt"},"district":{"key":"07143","name":"Westerwaldkreis","type":"Landkreis"},"federalState":{"key":"07","name":"Rheinland-Pfalz"}},{"name":"Pfarrer-Nonn-Str.","postalCode":"56235","locality":"Ransbach-Baumbach","municipality":{"key":"07143062","name":"Ransbach-Baumbach, Stadt","type":"Stadt"},"district":{"key":"07143","name":"Westerwaldkreis","type":"Landkreis"},"federalState":{"key":"07","name":"Rheinland-Pfalz"}},{"name":"Pfarrstr.","postalCode":"91522","locality":"Ansbach","municipality":{"key":"09561000","name":"Ansbach","type":"Kreisfreie_Stadt"},"district":{"key":"09561","name":"Ansbach","type":"Kreisfreie_Stadt"},"federalState":{"key":"09","name":"Bayern"}},{"name":"Pfisterstr.","postalCode":"91522","locality":"Ansbach","municipality":{"key":"09561000","name":"Ansbach","type":"Kreisfreie_Stadt"},"district":{"key":"09561","name":"Ansbach","type":"Kreisfreie_Stadt"},"federalState":{"key":"09","name":"Bayern"}},{"name":"Philipp-Zorn-Str.","postalCode":"91522","locality":"Ansbach","municipality":{"key":"09561000","name":"Ansbach","type":"Kreisfreie_Stadt"},"district":{"key":"09561","name":"Ansbach","type":"Kreisfreie_Stadt"},"federalState":{"key":"09","name":"Bayern"}},{"name":"Platenstr.","postalCode":"91522","locality":"Ansbach","municipality":{"key":"09561000","name":"Ansbach","type":"Kreisfreie_Stadt"},"district":{"key":"09561","name":"Ansbach","type":"Kreisfreie_Stadt"},"federalState":{"key":"09","name":"Bayern"}},{"name":"Pleurtuit-Str.","postalCode":"56235","locality":"Ransbach-Baumbach","municipality":{"key":"07143062","name":"Ransbach-Baumbach, Stadt","type":"Stadt"},"district":{"key":"07143","name":"Westerwaldkreis","type":"Landkreis"},"federalState":{"key":"07","name":"Rheinland-Pfalz"}},{"name":"Pommernstr.","postalCode":"91522","locality":"Ansbach","municipality":{"key":"09561000","name":"Ansbach","type":"Kreisfreie_Stadt"},"district":{"key":"09561","name":"Ansbach","type":"Kreisfreie_Stadt"},"federalState":{"key":"09","name":"Bayern"}},{"name":"Poststr.","postalCode":"56235","locality":"Ransbach-Baumbach","municipality":{"key":"07143062","name":"Ransbach-Baumbach, Stadt","type":"Stadt"},"district":{"key":"07143","name":"Westerwaldkreis","type":"Landkreis"},"federalState":{"key":"07","name":"Rheinland-Pfalz"}},{"name":"Potsdamer Str.","postalCode":"56235","locality":"Ransbach-Baumbach","municipality":{"key":"07143062","name":"Ransbach-Baumbach, Stadt","type":"Stadt"},"district":{"key":"07143","name":"Westerwaldkreis","type":"Landkreis"},"federalState":{"key":"07","name":"Rheinland-Pfalz"}},{"name":"Promenade","postalCode":"91522","locality":"Ansbach","municipality":{"key":"09561000","name":"Ansbach","type":"Kreisfreie_Stadt"},"district":{"key":"09561","name":"Ansbach","type":"Kreisfreie_Stadt"},"federalState":{"key":"09","name":"Bayern"}},{"name":"Quaststr.","postalCode":"91522","locality":"Ansbach","municipality":{"key":"09561000","name":"Ansbach","type":"Kreisfreie_Stadt"},"district":{"key":"09561","name":"Ansbach","type":"Kreisfreie_Stadt"},"federalState":{"key":"09","name":"Bayern"}},{"name":"Raiffeisenstr.","postalCode":"91634","locality":"Wilburgstetten","municipality":{"key":"09571224","name":"Wilburgstetten","type":"Kreisangehörige_Gemeinde"},"district":{"key":"09571","name":"Ansbach","type":"Landkreis"},"federalState":{"key":"09","name":"Bayern"}},{"name":"Ringstr.","postalCode":"91634","locality":"Wilburgstetten","municipality":{"key":"09571224","name":"Wilburgstetten","type":"Kreisangehörige_Gemeinde"},"district":{"key":"09571","name":"Ansbach","type":"Landkreis"},"federalState":{"key":"09","name":"Bayern"}},{"name":"Römerstr.","postalCode":"91634","locality":"Wilburgstetten","municipality":{"key":"09571224","name":"Wilburgstetten","type":"Kreisangehörige_Gemeinde"},"district":{"key":"09571","name":"Ansbach","type":"Landkreis"},"federalState":{"key":"09","name":"Bayern"}},{"name":"Rosenbergweg","postalCode":"91634","locality":"Wilburgstetten","municipality":{"key":"09571224","name":"Wilburgstetten","type":"Kreisangehörige_Gemeinde"},"district":{"key":"09571","name":"Ansbach","type":"Landkreis"},"federalState":{"key":"09","name":"Bayern"}},{"name":"Rosenstr.","postalCode":"91634","locality":"Wilburgstetten","municipality":{"key":"09571224","name":"Wilburgstetten","type":"Kreisangehörige_Gemeinde"},"district":{"key":"09571","name":"Ansbach","type":"Landkreis"},"federalState":{"key":"09","name":"Bayern"}},{"name":"Rothachstr.","postalCode":"91634","locality":"Wilburgstetten","municipality":{"key":"09571224","name":"Wilburgstetten","type":"Kreisangehörige_Gemeinde"},"district":{"key":"09571","name":"Ansbach","type":"Landkreis"},"federalState":{"key":"09","name":"Bayern"}},{"name":"Sandstr.","postalCode":"91634","locality":"Wilburgstetten","municipality":{"key":"09571224","name":"Wilburgstetten","type":"Kreisangehörige_Gemeinde"},"district":{"key":"09571","name":"Ansbach","type":"Landkreis"},"federalState":{"key":"09","name":"Bayern"}},{"name":"Tiefäckerstr.","postalCode":"91634","locality":"Wilburgstetten","municipality":{"key":"09571224","name":"Wilburgstetten","type":"Kreisangehörige_Gemeinde"},"district":{"key":"09571","name":"Ansbach","type":"Landkreis"},"federalState":{"key":"09","name":"Bayern"}},{"name":"Tiroler Str.","postalCode":"91634","locality":"Wilburgstetten","municipality":{"key":"09571224","name":"Wilburgstetten","type":"Kreisangehörige_Gemeinde"},"district":{"key":"09571","name":"Ansbach","type":"Landkreis"},"federalState":{"key":"09","name":"Bayern"}},{"name":"Uhlandstr.","postalCode":"91522","locality":"Ansbach","municipality":{"key":"09561000","name":"Ansbach","type":"Kreisfreie_Stadt"},"district":{"key":"09561","name":"Ansbach","type":"Kreisfreie_Stadt"},"federalState":{"key":"09","name":"Bayern"}},{"name":"Ulanenweg","postalCode":"91522","locality":"Ansbach","municipality":{"key":"09561000","name":"Ansbach","type":"Kreisfreie_Stadt"},"district":{"key":"09561","name":"Ansbach","type":"Kreisfreie_Stadt"},"federalState":{"key":"09","name":"Bayern"}},{"name":"Ulmenstr.","postalCode":"91623","locality":"Sachsen bei Ansbach","municipality":{"key":"09571196","name":"Sachsen b.Ansbach","type":"Kreisangehörige_Gemeinde"},"district":{"key":"09571","name":"Ansbach","type":"Landkreis"},"federalState":{"key":"09","name":"Bayern"}},{"name":"Ulmenweg","postalCode":"56235","locality":"Ransbach-Baumbach","municipality":{"key":"07143062","name":"Ransbach-Baumbach, Stadt","type":"Stadt"},"district":{"key":"07143","name":"Westerwaldkreis","type":"Landkreis"},"federalState":{"key":"07","name":"Rheinland-Pfalz"}},{"name":"Ulmenweg","postalCode":"91522","locality":"Ansbach","municipality":{"key":"09561000","name":"Ansbach","type":"Kreisfreie_Stadt"},"district":{"key":"09561","name":"Ansbach","type":"Kreisfreie_Stadt"},"federalState":{"key":"09","name":"Bayern"}},{"name":"Untere Mühlleite","postalCode":"91522","locality":"Ansbach","municipality":{"key":"09561000","name":"Ansbach","type":"Kreisfreie_Stadt"},"district":{"key":"09561","name":"Ansbach","type":"Kreisfreie_Stadt"},"federalState":{"key":"09","name":"Bayern"}},{"name":"Unterer Weinberg","postalCode":"91522","locality":"Ansbach","municipality":{"key":"09561000","name":"Ansbach","type":"Kreisfreie_Stadt"},"district":{"key":"09561","name":"Ansbach","type":"Kreisfreie_Stadt"},"federalState":{"key":"09","name":"Bayern"}},{"name":"Urlasstr.","postalCode":"91522","locality":"Ansbach","municipality":{"key":"09561000","name":"Ansbach","type":"Kreisfreie_Stadt"},"district":{"key":"09561","name":"Ansbach","type":"Kreisfreie_Stadt"},"federalState":{"key":"09","name":"Bayern"}},{"name":"Urlesstr.","postalCode":"91623","locality":"Sachsen bei Ansbach","municipality":{"key":"09571196","name":"Sachsen b.Ansbach","type":"Kreisangehörige_Gemeinde"},"district":{"key":"09571","name":"Ansbach","type":"Landkreis"},"federalState":{"key":"09","name":"Bayern"}},{"name":"Villersbronn","postalCode":"91634","locality":"Wilburgstetten","municipality":{"key":"09571224","name":"Wilburgstetten","type":"Kreisangehörige_Gemeinde"},"district":{"key":"09571","name":"Ansbach","type":"Landkreis"},"federalState":{"key":"09","name":"Bayern"}},{"name":"Villersbronner Str.","postalCode":"91634","locality":"Wilburgstetten","municipality":{"key":"09571224","name":"Wilburgstetten","type":"Kreisangehörige_Gemeinde"},"district":{"key":"09571","name":"Ansbach","type":"Landkreis"},"federalState":{"key":"09","name":"Bayern"}},{"name":"Waldweg","postalCode":"91634","locality":"Wilburgstetten","municipality":{"key":"09571224","name":"Wilburgstetten","type":"Kreisangehörige_Gemeinde"},"district":{"key":"09571","name":"Ansbach","type":"Landkreis"},"federalState":{"key":"09","name":"Bayern"}},{"name":"Weiherstr.","postalCode":"91634","locality":"Wilburgstetten","municipality":{"key":"09571224","name":"Wilburgstetten","type":"Kreisangehörige_Gemeinde"},"district":{"key":"09571","name":"Ansbach","type":"Landkreis"},"federalState":{"key":"09","name":"Bayern"}},{"name":"Weiltinger Str.","postalCode":"91634","locality":"Wilburgstetten","municipality":{"key":"09571224","name":"Wilburgstetten","type":"Kreisangehörige_Gemeinde"},"district":{"key":"09571","name":"Ansbach","type":"Landkreis"},"federalState":{"key":"09","name":"Bayern"}},{"name":"Welchenholzer Str.","postalCode":"91634","locality":"Wilburgstetten","municipality":{"key":"09571224","name":"Wilburgstetten","type":"Kreisangehörige_Gemeinde"},"district":{"key":"09571","name":"Ansbach","type":"Landkreis"},"federalState":{"key":"09","name":"Bayern"}},{"name":"Wiesenstr.","postalCode":"91634","locality":"Wilburgstetten","municipality":{"key":"09571224","name":"Wilburgstetten","type":"Kreisangehörige_Gemeinde"},"district":{"key":"09571","name":"Ansbach","type":"Landkreis"},"federalState":{"key":"09","name":"Bayern"}},{"name":"Ziegelhütte","postalCode":"91522","locality":"Ansbach","municipality":{"key":"09561000","name":"Ansbach","type":"Kreisfreie_Stadt"},"district":{"key":"09561","name":"Ansbach","type":"Kreisfreie_Stadt"},"federalState":{"key":"09","name":"Bayern"}},{"name":"Ziegelhüttenweg","postalCode":"91522","locality":"Ansbach","municipality":{"key":"09561000","name":"Ansbach","type":"Kreisfreie_Stadt"},"district":{"key":"09561","name":"Ansbach","type":"Kreisfreie_Stadt"},"federalState":{"key":"09","name":"Bayern"}},{"name":"Zochastr.","postalCode":"91522","locality":"Ansbach","municipality":{"key":"09561000","name":"Ansbach","type":"Kreisfreie_Stadt"},"district":{"key":"09561","name":"Ansbach","type":"Kreisfreie_Stadt"},"federalState":{"key":"09","name":"Bayern"}},{"name":"Zogelweg","postalCode":"91522","locality":"Ansbach","municipality":{"key":"09561000","name":"Ansbach","type":"Kreisfreie_Stadt"},"district":{"key":"09561","name":"Ansbach","type":"Kreisfreie_Stadt"},"federalState":{"key":"09","name":"Bayern"}},{"name":"Zumach-Gärtchen","postalCode":"91522","locality":"Ansbach","municipality":{"key":"09561000","name":"Ansbach","type":"Kreisfreie_Stadt"},"district":{"key":"09561","name":"Ansbach","type":"Kreisfreie_Stadt"},"federalState":{"key":"09","name":"Bayern"}},{"name":"Zum Geißplatz","postalCode":"91522","locality":"Ansbach","municipality":{"key":"09561000","name":"Ansbach","type":"Kreisfreie_Stadt"},"district":{"key":"09561","name":"Ansbach","type":"Kreisfreie_Stadt"},"federalState":{"key":"09","name":"Bayern"}},{"name":"Zum Kirmesplatz","postalCode":"56235","locality":"Ransbach-Baumbach","municipality":{"key":"07143062","name":"Ransbach-Baumbach, Stadt","type":"Stadt"},"district":{"key":"07143","name":"Westerwaldkreis","type":"Landkreis"},"federalState":{"key":"07","name":"Rheinland-Pfalz"}},{"name":"Zum Schafwasen","postalCode":"91522","locality":"Ansbach","municipality":{"key":"09561000","name":"Ansbach","type":"Kreisfreie_Stadt"},"district":{"key":"09561","name":"Ansbach","type":"Kreisfreie_Stadt"},"federalState":{"key":"09","name":"Bayern"}},{"name":"Zum Silberwald","postalCode":"91522","locality":"Ansbach","municipality":{"key":"09561000","name":"Ansbach","type":"Kreisfreie_Stadt"},"district":{"key":"09561","name":"Ansbach","type":"Kreisfreie_Stadt"},"federalState":{"key":"09","name":"Bayern"}},{"name":"Zum Steinernen Gaul","postalCode":"91522","locality":"Ansbach","municipality":{"key":"09561000","name":"Ansbach","type":"Kreisfreie_Stadt"},"district":{"key":"09561","name":"Ansbach","type":"Kreisfreie_Stadt"},"federalState":{"key":"09","name":"Bayern"}},{"name":"Zum Texas","postalCode":"56235","locality":"Ransbach-Baumbach","municipality":{"key":"07143062","name":"Ransbach-Baumbach, Stadt","type":"Stadt"},"district":{"key":"07143","name":"Westerwaldkreis","type":"Landkreis"},"federalState":{"key":"07","name":"Rheinland-Pfalz"}},{"name":"Zur alten Villa","postalCode":"56235","locality":"Ransbach-Baumbach","municipality":{"key":"07143062","name":"Ransbach-Baumbach, Stadt","type":"Stadt"},"district":{"key":"07143","name":"Westerwaldkreis","type":"Landkreis"},"federalState":{"key":"07","name":"Rheinland-Pfalz"}},{"name":"Zur Bahnschau","postalCode":"91522","locality":"Ansbach","municipality":{"key":"09561000","name":"Ansbach","type":"Kreisfreie_Stadt"},"district":{"key":"09561","name":"Ansbach","type":"Kreisfreie_Stadt"},"federalState":{"key":"09","name":"Bayern"}},{"name":"Zur Schanz","postalCode":"91522","locality":"Ansbach","municipality":{"key":"09561000","name":"Ansbach","type":"Kreisfreie_Stadt"},"district":{"key":"09561","name":"Ansbach","type":"Kreisfreie_Stadt"},"federalState":{"key":"09","name":"Bayern"}},{"name":"Zur Schockenmühle","postalCode":"91522","locality":"Ansbach","municipality":{"key":"09561000","name":"Ansbach","type":"Kreisfreie_Stadt"},"district":{"key":"09561","name":"Ansbach","type":"Kreisfreie_Stadt"},"federalState":{"key":"09","name":"Bayern"}},{"name":"Zur Schwedenschanz","postalCode":"91522","locality":"Ansbach","municipality":{"key":"09561000","name":"Ansbach","type":"Kreisfreie_Stadt"},"district":{"key":"09561","name":"Ansbach","type":"Kreisfreie_Stadt"},"federalState":{"key":"09","name":"Bayern"}},{"name":"Zur Silbermühle","postalCode":"91522","locality":"Ansbach","municipality":{"key":"09561000","name":"Ansbach","type":"Kreisfreie_Stadt"},"district":{"key":"09561","name":"Ansbach","type":"Kreisfreie_Stadt"},"federalState":{"key":"09","name":"Bayern"}},{"name":"Zur Tongrube","postalCode":"56235","locality":"Ransbach-Baumbach","municipality":{"key":"07143062","name":"Ransbach-Baumbach, Stadt","type":"Stadt"},"district":{"key":"07143","name":"Westerwaldkreis","type":"Landkreis"},"federalState":{"key":"07","name":"Rheinland-Pfalz"}},{"name":"Zwergstr.","postalCode":"56235","locality":"Ransbach-Baumbach","municipality":{"key":"07143062","name":"Ransbach-Baumbach, Stadt","type":"Stadt"},"district":{"key":"07143","name":"Westerwaldkreis","type":"Landkreis"},"federalState":{"key":"07","name":"Rheinland-Pfalz"}},]