[{"name":"Alte Gasse","postalCode":"98634","locality":"Erbenhausen","municipality":{"key":"16066019","name":"Erbenhausen","type":"Kreisangehörige_Gemeinde"},"district":{"key":"16066","name":"Schmalkalden-Meiningen","type":"Landkreis"},"federalState":{"key":"16","name":"Thüringen"}},{"name":"Am Fixberg","postalCode":"98634","locality":"Erbenhausen","municipality":{"key":"16066019","name":"Erbenhausen","type":"Kreisangehörige_Gemeinde"},"district":{"key":"16066","name":"Schmalkalden-Meiningen","type":"Landkreis"},"federalState":{"key":"16","name":"Thüringen"}},{"name":"Am Oberg","postalCode":"98634","locality":"Erbenhausen","municipality":{"key":"16066019","name":"Erbenhausen","type":"Kreisangehörige_Gemeinde"},"district":{"key":"16066","name":"Schmalkalden-Meiningen","type":"Landkreis"},"federalState":{"key":"16","name":"Thüringen"}},{"name":"Am Tiergarten","postalCode":"98634","locality":"Erbenhausen","municipality":{"key":"16066019","name":"Erbenhausen","type":"Kreisangehörige_Gemeinde"},"district":{"key":"16066","name":"Schmalkalden-Meiningen","type":"Landkreis"},"federalState":{"key":"16","name":"Thüringen"}},{"name":"Auf dem Elm","postalCode":"98634","locality":"Erbenhausen","municipality":{"key":"16066019","name":"Erbenhausen","type":"Kreisangehörige_Gemeinde"},"district":{"key":"16066","name":"Schmalkalden-Meiningen","type":"Landkreis"},"federalState":{"key":"16","name":"Thüringen"}},{"name":"Auf den Krautsatteln","postalCode":"98634","locality":"Erbenhausen","municipality":{"key":"16066019","name":"Erbenhausen","type":"Kreisangehörige_Gemeinde"},"district":{"key":"16066","name":"Schmalkalden-Meiningen","type":"Landkreis"},"federalState":{"key":"16","name":"Thüringen"}},{"name":"Biergarten Eisenacher Haus","postalCode":"98634","locality":"Erbenhausen","municipality":{"key":"16066019","name":"Erbenhausen","type":"Kreisangehörige_Gemeinde"},"district":{"key":"16066","name":"Schmalkalden-Meiningen","type":"Landkreis"},"federalState":{"key":"16","name":"Thüringen"}},{"name":"Burgweg","postalCode":"98634","locality":"Erbenhausen","municipality":{"key":"16066019","name":"Erbenhausen","type":"Kreisangehörige_Gemeinde"},"district":{"key":"16066","name":"Schmalkalden-Meiningen","type":"Landkreis"},"federalState":{"key":"16","name":"Thüringen"}},{"name":"Dorfstr.","postalCode":"98634","locality":"Erbenhausen","municipality":{"key":"16066019","name":"Erbenhausen","type":"Kreisangehörige_Gemeinde"},"district":{"key":"16066","name":"Schmalkalden-Meiningen","type":"Landkreis"},"federalState":{"key":"16","name":"Thüringen"}},{"name":"Eisenacher Haus","postalCode":"98634","locality":"Erbenhausen","municipality":{"key":"16066019","name":"Erbenhausen","type":"Kreisangehörige_Gemeinde"},"district":{"key":"16066","name":"Schmalkalden-Meiningen","type":"Landkreis"},"federalState":{"key":"16","name":"Thüringen"}},{"name":"Fischergasse","postalCode":"98634","locality":"Erbenhausen","municipality":{"key":"16066019","name":"Erbenhausen","type":"Kreisangehörige_Gemeinde"},"district":{"key":"16066","name":"Schmalkalden-Meiningen","type":"Landkreis"},"federalState":{"key":"16","name":"Thüringen"}},{"name":"Frankenheimer Str.","postalCode":"98634","locality":"Erbenhausen","municipality":{"key":"16066019","name":"Erbenhausen","type":"Kreisangehörige_Gemeinde"},"district":{"key":"16066","name":"Schmalkalden-Meiningen","type":"Landkreis"},"federalState":{"key":"16","name":"Thüringen"}},{"name":"Hauptstr.","postalCode":"98634","locality":"Erbenhausen","municipality":{"key":"16066019","name":"Erbenhausen","type":"Kreisangehörige_Gemeinde"},"district":{"key":"16066","name":"Schmalkalden-Meiningen","type":"Landkreis"},"federalState":{"key":"16","name":"Thüringen"}},{"name":"Hintergasse","postalCode":"98634","locality":"Erbenhausen","municipality":{"key":"16066019","name":"Erbenhausen","type":"Kreisangehörige_Gemeinde"},"district":{"key":"16066","name":"Schmalkalden-Meiningen","type":"Landkreis"},"federalState":{"key":"16","name":"Thüringen"}},{"name":"Kaltensundheimer Str.","postalCode":"98634","locality":"Erbenhausen","municipality":{"key":"16066019","name":"Erbenhausen","type":"Kreisangehörige_Gemeinde"},"district":{"key":"16066","name":"Schmalkalden-Meiningen","type":"Landkreis"},"federalState":{"key":"16","name":"Thüringen"}},{"name":"Kolonnenweg","postalCode":"98634","locality":"Erbenhausen","municipality":{"key":"16066019","name":"Erbenhausen","type":"Kreisangehörige_Gemeinde"},"district":{"key":"16066","name":"Schmalkalden-Meiningen","type":"Landkreis"},"federalState":{"key":"16","name":"Thüringen"}},{"name":"Kutschenweg","postalCode":"98634","locality":"Erbenhausen","municipality":{"key":"16066019","name":"Erbenhausen","type":"Kreisangehörige_Gemeinde"},"district":{"key":"16066","name":"Schmalkalden-Meiningen","type":"Landkreis"},"federalState":{"key":"16","name":"Thüringen"}},{"name":"Lindenstr.","postalCode":"98634","locality":"Erbenhausen","municipality":{"key":"16066019","name":"Erbenhausen","type":"Kreisangehörige_Gemeinde"},"district":{"key":"16066","name":"Schmalkalden-Meiningen","type":"Landkreis"},"federalState":{"key":"16","name":"Thüringen"}},{"name":"Melperser Str.","postalCode":"98634","locality":"Erbenhausen","municipality":{"key":"16066019","name":"Erbenhausen","type":"Kreisangehörige_Gemeinde"},"district":{"key":"16066","name":"Schmalkalden-Meiningen","type":"Landkreis"},"federalState":{"key":"16","name":"Thüringen"}},{"name":"Mittelgasse","postalCode":"98634","locality":"Erbenhausen","municipality":{"key":"16066019","name":"Erbenhausen","type":"Kreisangehörige_Gemeinde"},"district":{"key":"16066","name":"Schmalkalden-Meiningen","type":"Landkreis"},"federalState":{"key":"16","name":"Thüringen"}},{"name":"Mittlere Gasse","postalCode":"98634","locality":"Erbenhausen","municipality":{"key":"16066019","name":"Erbenhausen","type":"Kreisangehörige_Gemeinde"},"district":{"key":"16066","name":"Schmalkalden-Meiningen","type":"Landkreis"},"federalState":{"key":"16","name":"Thüringen"}},{"name":"Mühlenweg","postalCode":"98634","locality":"Erbenhausen","municipality":{"key":"16066019","name":"Erbenhausen","type":"Kreisangehörige_Gemeinde"},"district":{"key":"16066","name":"Schmalkalden-Meiningen","type":"Landkreis"},"federalState":{"key":"16","name":"Thüringen"}},{"name":"Mühlgasse","postalCode":"98634","locality":"Erbenhausen","municipality":{"key":"16066019","name":"Erbenhausen","type":"Kreisangehörige_Gemeinde"},"district":{"key":"16066","name":"Schmalkalden-Meiningen","type":"Landkreis"},"federalState":{"key":"16","name":"Thüringen"}},{"name":"Obere Gasse","postalCode":"98634","locality":"Erbenhausen","municipality":{"key":"16066019","name":"Erbenhausen","type":"Kreisangehörige_Gemeinde"},"district":{"key":"16066","name":"Schmalkalden-Meiningen","type":"Landkreis"},"federalState":{"key":"16","name":"Thüringen"}},{"name":"Obergasse","postalCode":"98634","locality":"Erbenhausen","municipality":{"key":"16066019","name":"Erbenhausen","type":"Kreisangehörige_Gemeinde"},"district":{"key":"16066","name":"Schmalkalden-Meiningen","type":"Landkreis"},"federalState":{"key":"16","name":"Thüringen"}},{"name":"Querstr.","postalCode":"98634","locality":"Erbenhausen","municipality":{"key":"16066019","name":"Erbenhausen","type":"Kreisangehörige_Gemeinde"},"district":{"key":"16066","name":"Schmalkalden-Meiningen","type":"Landkreis"},"federalState":{"key":"16","name":"Thüringen"}},{"name":"Reichenhäuser Str.","postalCode":"98634","locality":"Erbenhausen","municipality":{"key":"16066019","name":"Erbenhausen","type":"Kreisangehörige_Gemeinde"},"district":{"key":"16066","name":"Schmalkalden-Meiningen","type":"Landkreis"},"federalState":{"key":"16","name":"Thüringen"}},{"name":"Ruppenmühle","postalCode":"98634","locality":"Erbenhausen","municipality":{"key":"16066019","name":"Erbenhausen","type":"Kreisangehörige_Gemeinde"},"district":{"key":"16066","name":"Schmalkalden-Meiningen","type":"Landkreis"},"federalState":{"key":"16","name":"Thüringen"}},{"name":"Schafhäuser Str.","postalCode":"98634","locality":"Erbenhausen","municipality":{"key":"16066019","name":"Erbenhausen","type":"Kreisangehörige_Gemeinde"},"district":{"key":"16066","name":"Schmalkalden-Meiningen","type":"Landkreis"},"federalState":{"key":"16","name":"Thüringen"}},{"name":"Scheunengasse","postalCode":"98634","locality":"Erbenhausen","municipality":{"key":"16066019","name":"Erbenhausen","type":"Kreisangehörige_Gemeinde"},"district":{"key":"16066","name":"Schmalkalden-Meiningen","type":"Landkreis"},"federalState":{"key":"16","name":"Thüringen"}},{"name":"Schulstr.","postalCode":"98634","locality":"Erbenhausen","municipality":{"key":"16066019","name":"Erbenhausen","type":"Kreisangehörige_Gemeinde"},"district":{"key":"16066","name":"Schmalkalden-Meiningen","type":"Landkreis"},"federalState":{"key":"16","name":"Thüringen"}},{"name":"Untere Gasse","postalCode":"98634","locality":"Erbenhausen","municipality":{"key":"16066019","name":"Erbenhausen","type":"Kreisangehörige_Gemeinde"},"district":{"key":"16066","name":"Schmalkalden-Meiningen","type":"Landkreis"},"federalState":{"key":"16","name":"Thüringen"}},{"name":"Wiegegasse","postalCode":"98634","locality":"Erbenhausen","municipality":{"key":"16066019","name":"Erbenhausen","type":"Kreisangehörige_Gemeinde"},"district":{"key":"16066","name":"Schmalkalden-Meiningen","type":"Landkreis"},"federalState":{"key":"16","name":"Thüringen"}},]