[{"name":"Aiplspitzweg","postalCode":"83629","locality":"Weyarn","municipality":{"key":"09182137","name":"Weyarn","type":"Kreisangehörige_Gemeinde"},"district":{"key":"09182","name":"Miesbach","type":"Landkreis"},"federalState":{"key":"09","name":"Bayern"}},{"name":"Altenburger Str.","postalCode":"83629","locality":"Weyarn","municipality":{"key":"09182137","name":"Weyarn","type":"Kreisangehörige_Gemeinde"},"district":{"key":"09182","name":"Miesbach","type":"Landkreis"},"federalState":{"key":"09","name":"Bayern"}},{"name":"Am Anger","postalCode":"83629","locality":"Weyarn","municipality":{"key":"09182137","name":"Weyarn","type":"Kreisangehörige_Gemeinde"},"district":{"key":"09182","name":"Miesbach","type":"Landkreis"},"federalState":{"key":"09","name":"Bayern"}},{"name":"Am Aussichtsberg","postalCode":"83629","locality":"Weyarn","municipality":{"key":"09182137","name":"Weyarn","type":"Kreisangehörige_Gemeinde"},"district":{"key":"09182","name":"Miesbach","type":"Landkreis"},"federalState":{"key":"09","name":"Bayern"}},{"name":"Am Buchholz","postalCode":"83629","locality":"Weyarn","municipality":{"key":"09182137","name":"Weyarn","type":"Kreisangehörige_Gemeinde"},"district":{"key":"09182","name":"Miesbach","type":"Landkreis"},"federalState":{"key":"09","name":"Bayern"}},{"name":"Am Hirschberg","postalCode":"83629","locality":"Weyarn","municipality":{"key":"09182137","name":"Weyarn","type":"Kreisangehörige_Gemeinde"},"district":{"key":"09182","name":"Miesbach","type":"Landkreis"},"federalState":{"key":"09","name":"Bayern"}},{"name":"Am Kögelberg","postalCode":"83629","locality":"Weyarn","municipality":{"key":"09182137","name":"Weyarn","type":"Kreisangehörige_Gemeinde"},"district":{"key":"09182","name":"Miesbach","type":"Landkreis"},"federalState":{"key":"09","name":"Bayern"}},{"name":"Am Kugelanger","postalCode":"83629","locality":"Weyarn","municipality":{"key":"09182137","name":"Weyarn","type":"Kreisangehörige_Gemeinde"},"district":{"key":"09182","name":"Miesbach","type":"Landkreis"},"federalState":{"key":"09","name":"Bayern"}},{"name":"Am Lindl","postalCode":"83629","locality":"Weyarn","municipality":{"key":"09182137","name":"Weyarn","type":"Kreisangehörige_Gemeinde"},"district":{"key":"09182","name":"Miesbach","type":"Landkreis"},"federalState":{"key":"09","name":"Bayern"}},{"name":"Am Mühlbach","postalCode":"83629","locality":"Weyarn","municipality":{"key":"09182137","name":"Weyarn","type":"Kreisangehörige_Gemeinde"},"district":{"key":"09182","name":"Miesbach","type":"Landkreis"},"federalState":{"key":"09","name":"Bayern"}},{"name":"Am Schmiedberg","postalCode":"83629","locality":"Weyarn","municipality":{"key":"09182137","name":"Weyarn","type":"Kreisangehörige_Gemeinde"},"district":{"key":"09182","name":"Miesbach","type":"Landkreis"},"federalState":{"key":"09","name":"Bayern"}},{"name":"Am Waldeck","postalCode":"83629","locality":"Weyarn","municipality":{"key":"09182137","name":"Weyarn","type":"Kreisangehörige_Gemeinde"},"district":{"key":"09182","name":"Miesbach","type":"Landkreis"},"federalState":{"key":"09","name":"Bayern"}},{"name":"Am Weiglfeld","postalCode":"83629","locality":"Weyarn","municipality":{"key":"09182137","name":"Weyarn","type":"Kreisangehörige_Gemeinde"},"district":{"key":"09182","name":"Miesbach","type":"Landkreis"},"federalState":{"key":"09","name":"Bayern"}},{"name":"Anderlmühle","postalCode":"83626","locality":"Weyarn","municipality":{"key":"09182137","name":"Weyarn","type":"Kreisangehörige_Gemeinde"},"district":{"key":"09182","name":"Miesbach","type":"Landkreis"},"federalState":{"key":"09","name":"Bayern"}},{"name":"Arnhofen","postalCode":"83629","locality":"Weyarn","municipality":{"key":"09182137","name":"Weyarn","type":"Kreisangehörige_Gemeinde"},"district":{"key":"09182","name":"Miesbach","type":"Landkreis"},"federalState":{"key":"09","name":"Bayern"}},{"name":"Arnhofer Weg","postalCode":"83629","locality":"Weyarn","municipality":{"key":"09182137","name":"Weyarn","type":"Kreisangehörige_Gemeinde"},"district":{"key":"09182","name":"Miesbach","type":"Landkreis"},"federalState":{"key":"09","name":"Bayern"}},{"name":"Auerweg","postalCode":"83629","locality":"Weyarn","municipality":{"key":"09182137","name":"Weyarn","type":"Kreisangehörige_Gemeinde"},"district":{"key":"09182","name":"Miesbach","type":"Landkreis"},"federalState":{"key":"09","name":"Bayern"}},{"name":"Bach","postalCode":"83629","locality":"Weyarn","municipality":{"key":"09182137","name":"Weyarn","type":"Kreisangehörige_Gemeinde"},"district":{"key":"09182","name":"Miesbach","type":"Landkreis"},"federalState":{"key":"09","name":"Bayern"}},{"name":"Bergweg","postalCode":"83629","locality":"Weyarn","municipality":{"key":"09182137","name":"Weyarn","type":"Kreisangehörige_Gemeinde"},"district":{"key":"09182","name":"Miesbach","type":"Landkreis"},"federalState":{"key":"09","name":"Bayern"}},{"name":"Birkenweg","postalCode":"83629","locality":"Weyarn","municipality":{"key":"09182137","name":"Weyarn","type":"Kreisangehörige_Gemeinde"},"district":{"key":"09182","name":"Miesbach","type":"Landkreis"},"federalState":{"key":"09","name":"Bayern"}},{"name":"Blombergweg","postalCode":"83629","locality":"Weyarn","municipality":{"key":"09182137","name":"Weyarn","type":"Kreisangehörige_Gemeinde"},"district":{"key":"09182","name":"Miesbach","type":"Landkreis"},"federalState":{"key":"09","name":"Bayern"}},{"name":"Brecherspitzweg","postalCode":"83629","locality":"Weyarn","municipality":{"key":"09182137","name":"Weyarn","type":"Kreisangehörige_Gemeinde"},"district":{"key":"09182","name":"Miesbach","type":"Landkreis"},"federalState":{"key":"09","name":"Bayern"}},{"name":"Brucker Str.","postalCode":"83629","locality":"Weyarn","municipality":{"key":"09182137","name":"Weyarn","type":"Kreisangehörige_Gemeinde"},"district":{"key":"09182","name":"Miesbach","type":"Landkreis"},"federalState":{"key":"09","name":"Bayern"}},{"name":"Bürgermeister-Panzer-Str.","postalCode":"83629","locality":"Weyarn","municipality":{"key":"09182137","name":"Weyarn","type":"Kreisangehörige_Gemeinde"},"district":{"key":"09182","name":"Miesbach","type":"Landkreis"},"federalState":{"key":"09","name":"Bayern"}},{"name":"Carl-Feichtner-Ring","postalCode":"83714","locality":"Miesbach","municipality":{"key":"09182125","name":"Miesbach, St","type":"Stadt"},"district":{"key":"09182","name":"Miesbach","type":"Landkreis"},"federalState":{"key":"09","name":"Bayern"}},{"name":"Carl-Fohr-Str.","postalCode":"83714","locality":"Miesbach","municipality":{"key":"09182125","name":"Miesbach, St","type":"Stadt"},"district":{"key":"09182","name":"Miesbach","type":"Landkreis"},"federalState":{"key":"09","name":"Bayern"}},{"name":"Christian-Schad-Bogen","postalCode":"83714","locality":"Miesbach","municipality":{"key":"09182125","name":"Miesbach, St","type":"Stadt"},"district":{"key":"09182","name":"Miesbach","type":"Landkreis"},"federalState":{"key":"09","name":"Bayern"}},{"name":"Distelweg","postalCode":"83629","locality":"Weyarn","municipality":{"key":"09182137","name":"Weyarn","type":"Kreisangehörige_Gemeinde"},"district":{"key":"09182","name":"Miesbach","type":"Landkreis"},"federalState":{"key":"09","name":"Bayern"}},{"name":"Dorfstr.","postalCode":"83629","locality":"Weyarn","municipality":{"key":"09182137","name":"Weyarn","type":"Kreisangehörige_Gemeinde"},"district":{"key":"09182","name":"Miesbach","type":"Landkreis"},"federalState":{"key":"09","name":"Bayern"}},{"name":"Edelweißweg","postalCode":"83629","locality":"Weyarn","municipality":{"key":"09182137","name":"Weyarn","type":"Kreisangehörige_Gemeinde"},"district":{"key":"09182","name":"Miesbach","type":"Landkreis"},"federalState":{"key":"09","name":"Bayern"}},{"name":"Ehgart","postalCode":"83629","locality":"Weyarn","municipality":{"key":"09182137","name":"Weyarn","type":"Kreisangehörige_Gemeinde"},"district":{"key":"09182","name":"Miesbach","type":"Landkreis"},"federalState":{"key":"09","name":"Bayern"}},{"name":"Enzianweg","postalCode":"83629","locality":"Weyarn","municipality":{"key":"09182137","name":"Weyarn","type":"Kreisangehörige_Gemeinde"},"district":{"key":"09182","name":"Miesbach","type":"Landkreis"},"federalState":{"key":"09","name":"Bayern"}},{"name":"Erlacher Weg","postalCode":"83629","locality":"Weyarn","municipality":{"key":"09182137","name":"Weyarn","type":"Kreisangehörige_Gemeinde"},"district":{"key":"09182","name":"Miesbach","type":"Landkreis"},"federalState":{"key":"09","name":"Bayern"}},{"name":"Esterndorfer Str.","postalCode":"83629","locality":"Weyarn","municipality":{"key":"09182137","name":"Weyarn","type":"Kreisangehörige_Gemeinde"},"district":{"key":"09182","name":"Miesbach","type":"Landkreis"},"federalState":{"key":"09","name":"Bayern"}},{"name":"Farnbachtal","postalCode":"83629","locality":"Weyarn","municipality":{"key":"09182137","name":"Weyarn","type":"Kreisangehörige_Gemeinde"},"district":{"key":"09182","name":"Miesbach","type":"Landkreis"},"federalState":{"key":"09","name":"Bayern"}},{"name":"Fastlweg","postalCode":"83629","locality":"Weyarn","municipality":{"key":"09182137","name":"Weyarn","type":"Kreisangehörige_Gemeinde"},"district":{"key":"09182","name":"Miesbach","type":"Landkreis"},"federalState":{"key":"09","name":"Bayern"}},{"name":"Feldweg","postalCode":"83629","locality":"Weyarn","municipality":{"key":"09182137","name":"Weyarn","type":"Kreisangehörige_Gemeinde"},"district":{"key":"09182","name":"Miesbach","type":"Landkreis"},"federalState":{"key":"09","name":"Bayern"}},{"name":"Fentbacher Str.","postalCode":"83629","locality":"Weyarn","municipality":{"key":"09182137","name":"Weyarn","type":"Kreisangehörige_Gemeinde"},"district":{"key":"09182","name":"Miesbach","type":"Landkreis"},"federalState":{"key":"09","name":"Bayern"}},{"name":"Fischerweg","postalCode":"83629","locality":"Weyarn","municipality":{"key":"09182137","name":"Weyarn","type":"Kreisangehörige_Gemeinde"},"district":{"key":"09182","name":"Miesbach","type":"Landkreis"},"federalState":{"key":"09","name":"Bayern"}},{"name":"Gansbergstr.","postalCode":"83629","locality":"Weyarn","municipality":{"key":"09182137","name":"Weyarn","type":"Kreisangehörige_Gemeinde"},"district":{"key":"09182","name":"Miesbach","type":"Landkreis"},"federalState":{"key":"09","name":"Bayern"}},{"name":"Gnadenleite","postalCode":"83629","locality":"Weyarn","municipality":{"key":"09182137","name":"Weyarn","type":"Kreisangehörige_Gemeinde"},"district":{"key":"09182","name":"Miesbach","type":"Landkreis"},"federalState":{"key":"09","name":"Bayern"}},{"name":"Gotzinger Str.","postalCode":"83629","locality":"Weyarn","municipality":{"key":"09182137","name":"Weyarn","type":"Kreisangehörige_Gemeinde"},"district":{"key":"09182","name":"Miesbach","type":"Landkreis"},"federalState":{"key":"09","name":"Bayern"}},{"name":"Grabenstoffl","postalCode":"83626","locality":"Weyarn","municipality":{"key":"09182137","name":"Weyarn","type":"Kreisangehörige_Gemeinde"},"district":{"key":"09182","name":"Miesbach","type":"Landkreis"},"federalState":{"key":"09","name":"Bayern"}},{"name":"Gruber Str.","postalCode":"83629","locality":"Weyarn","municipality":{"key":"09182137","name":"Weyarn","type":"Kreisangehörige_Gemeinde"},"district":{"key":"09182","name":"Miesbach","type":"Landkreis"},"federalState":{"key":"09","name":"Bayern"}},{"name":"Hauptstr.","postalCode":"83629","locality":"Weyarn","municipality":{"key":"09182137","name":"Weyarn","type":"Kreisangehörige_Gemeinde"},"district":{"key":"09182","name":"Miesbach","type":"Landkreis"},"federalState":{"key":"09","name":"Bayern"}},{"name":"Haus","postalCode":"83629","locality":"Weyarn","municipality":{"key":"09182137","name":"Weyarn","type":"Kreisangehörige_Gemeinde"},"district":{"key":"09182","name":"Miesbach","type":"Landkreis"},"federalState":{"key":"09","name":"Bayern"}},{"name":"Hochlandweg","postalCode":"83629","locality":"Weyarn","municipality":{"key":"09182137","name":"Weyarn","type":"Kreisangehörige_Gemeinde"},"district":{"key":"09182","name":"Miesbach","type":"Landkreis"},"federalState":{"key":"09","name":"Bayern"}},{"name":"Holzkirchener Str.","postalCode":"83629","locality":"Weyarn","municipality":{"key":"09182137","name":"Weyarn","type":"Kreisangehörige_Gemeinde"},"district":{"key":"09182","name":"Miesbach","type":"Landkreis"},"federalState":{"key":"09","name":"Bayern"}},{"name":"Holzollinger Str.","postalCode":"83629","locality":"Weyarn","municipality":{"key":"09182137","name":"Weyarn","type":"Kreisangehörige_Gemeinde"},"district":{"key":"09182","name":"Miesbach","type":"Landkreis"},"federalState":{"key":"09","name":"Bayern"}},{"name":"Hüttenbrücke","postalCode":"83629","locality":"Weyarn","municipality":{"key":"09182137","name":"Weyarn","type":"Kreisangehörige_Gemeinde"},"district":{"key":"09182","name":"Miesbach","type":"Landkreis"},"federalState":{"key":"09","name":"Bayern"}},{"name":"Ignaz-Günther-Str.","postalCode":"83629","locality":"Weyarn","municipality":{"key":"09182137","name":"Weyarn","type":"Kreisangehörige_Gemeinde"},"district":{"key":"09182","name":"Miesbach","type":"Landkreis"},"federalState":{"key":"09","name":"Bayern"}},{"name":"Imbergbrücke","postalCode":"83629","locality":"Weyarn","municipality":{"key":"09182137","name":"Weyarn","type":"Kreisangehörige_Gemeinde"},"district":{"key":"09182","name":"Miesbach","type":"Landkreis"},"federalState":{"key":"09","name":"Bayern"}},{"name":"Johann-Baptist-Zimmermann-Str.","postalCode":"83629","locality":"Weyarn","municipality":{"key":"09182137","name":"Weyarn","type":"Kreisangehörige_Gemeinde"},"district":{"key":"09182","name":"Miesbach","type":"Landkreis"},"federalState":{"key":"09","name":"Bayern"}},{"name":"Kapellenweg","postalCode":"83629","locality":"Weyarn","municipality":{"key":"09182137","name":"Weyarn","type":"Kreisangehörige_Gemeinde"},"district":{"key":"09182","name":"Miesbach","type":"Landkreis"},"federalState":{"key":"09","name":"Bayern"}},{"name":"Keltenschanze","postalCode":"83629","locality":"Weyarn","municipality":{"key":"09182137","name":"Weyarn","type":"Kreisangehörige_Gemeinde"},"district":{"key":"09182","name":"Miesbach","type":"Landkreis"},"federalState":{"key":"09","name":"Bayern"}},{"name":"Kilian","postalCode":"83629","locality":"Weyarn","municipality":{"key":"09182137","name":"Weyarn","type":"Kreisangehörige_Gemeinde"},"district":{"key":"09182","name":"Miesbach","type":"Landkreis"},"federalState":{"key":"09","name":"Bayern"}},{"name":"Kirchbergweg","postalCode":"83629","locality":"Weyarn","municipality":{"key":"09182137","name":"Weyarn","type":"Kreisangehörige_Gemeinde"},"district":{"key":"09182","name":"Miesbach","type":"Landkreis"},"federalState":{"key":"09","name":"Bayern"}},{"name":"Kirchenweg","postalCode":"83629","locality":"Weyarn","municipality":{"key":"09182137","name":"Weyarn","type":"Kreisangehörige_Gemeinde"},"district":{"key":"09182","name":"Miesbach","type":"Landkreis"},"federalState":{"key":"09","name":"Bayern"}},{"name":"Klosteranger","postalCode":"83629","locality":"Weyarn","municipality":{"key":"09182137","name":"Weyarn","type":"Kreisangehörige_Gemeinde"},"district":{"key":"09182","name":"Miesbach","type":"Landkreis"},"federalState":{"key":"09","name":"Bayern"}},{"name":"Klosterweg","postalCode":"83629","locality":"Weyarn","municipality":{"key":"09182137","name":"Weyarn","type":"Kreisangehörige_Gemeinde"},"district":{"key":"09182","name":"Miesbach","type":"Landkreis"},"federalState":{"key":"09","name":"Bayern"}},{"name":"Kramerweg","postalCode":"83629","locality":"Weyarn","municipality":{"key":"09182137","name":"Weyarn","type":"Kreisangehörige_Gemeinde"},"district":{"key":"09182","name":"Miesbach","type":"Landkreis"},"federalState":{"key":"09","name":"Bayern"}},{"name":"Lindenweg","postalCode":"83629","locality":"Weyarn","municipality":{"key":"09182137","name":"Weyarn","type":"Kreisangehörige_Gemeinde"},"district":{"key":"09182","name":"Miesbach","type":"Landkreis"},"federalState":{"key":"09","name":"Bayern"}},{"name":"Mangfallweg","postalCode":"83629","locality":"Weyarn","municipality":{"key":"09182137","name":"Weyarn","type":"Kreisangehörige_Gemeinde"},"district":{"key":"09182","name":"Miesbach","type":"Landkreis"},"federalState":{"key":"09","name":"Bayern"}},{"name":"Meßnerweg","postalCode":"83629","locality":"Weyarn","municipality":{"key":"09182137","name":"Weyarn","type":"Kreisangehörige_Gemeinde"},"district":{"key":"09182","name":"Miesbach","type":"Landkreis"},"federalState":{"key":"09","name":"Bayern"}},{"name":"Miesbacher Str.","postalCode":"83629","locality":"Weyarn","municipality":{"key":"09182137","name":"Weyarn","type":"Kreisangehörige_Gemeinde"},"district":{"key":"09182","name":"Miesbach","type":"Landkreis"},"federalState":{"key":"09","name":"Bayern"}},{"name":"Mittenkirchner Str.","postalCode":"83629","locality":"Weyarn","municipality":{"key":"09182137","name":"Weyarn","type":"Kreisangehörige_Gemeinde"},"district":{"key":"09182","name":"Miesbach","type":"Landkreis"},"federalState":{"key":"09","name":"Bayern"}},{"name":"Münchener Str.","postalCode":"83629","locality":"Weyarn","municipality":{"key":"09182137","name":"Weyarn","type":"Kreisangehörige_Gemeinde"},"district":{"key":"09182","name":"Miesbach","type":"Landkreis"},"federalState":{"key":"09","name":"Bayern"}},{"name":"Naringer Str.","postalCode":"83629","locality":"Weyarn","municipality":{"key":"09182137","name":"Weyarn","type":"Kreisangehörige_Gemeinde"},"district":{"key":"09182","name":"Miesbach","type":"Landkreis"},"federalState":{"key":"09","name":"Bayern"}},{"name":"Neukirchner Str.","postalCode":"83629","locality":"Weyarn","municipality":{"key":"09182137","name":"Weyarn","type":"Kreisangehörige_Gemeinde"},"district":{"key":"09182","name":"Miesbach","type":"Landkreis"},"federalState":{"key":"09","name":"Bayern"}},{"name":"Obermüllerweg","postalCode":"83629","locality":"Weyarn","municipality":{"key":"09182137","name":"Weyarn","type":"Kreisangehörige_Gemeinde"},"district":{"key":"09182","name":"Miesbach","type":"Landkreis"},"federalState":{"key":"09","name":"Bayern"}},{"name":"Osterseestr.","postalCode":"83629","locality":"Weyarn","municipality":{"key":"09182137","name":"Weyarn","type":"Kreisangehörige_Gemeinde"},"district":{"key":"09182","name":"Miesbach","type":"Landkreis"},"federalState":{"key":"09","name":"Bayern"}},{"name":"Pienzenauer Str.","postalCode":"83629","locality":"Weyarn","municipality":{"key":"09182137","name":"Weyarn","type":"Kreisangehörige_Gemeinde"},"district":{"key":"09182","name":"Miesbach","type":"Landkreis"},"federalState":{"key":"09","name":"Bayern"}},{"name":"Raiffeisenstr.","postalCode":"83629","locality":"Weyarn","municipality":{"key":"09182137","name":"Weyarn","type":"Kreisangehörige_Gemeinde"},"district":{"key":"09182","name":"Miesbach","type":"Landkreis"},"federalState":{"key":"09","name":"Bayern"}},{"name":"Rotwandweg","postalCode":"83629","locality":"Weyarn","municipality":{"key":"09182137","name":"Weyarn","type":"Kreisangehörige_Gemeinde"},"district":{"key":"09182","name":"Miesbach","type":"Landkreis"},"federalState":{"key":"09","name":"Bayern"}},{"name":"Rudolf-Groeschel-Weg","postalCode":"83629","locality":"Weyarn","municipality":{"key":"09182137","name":"Weyarn","type":"Kreisangehörige_Gemeinde"},"district":{"key":"09182","name":"Miesbach","type":"Landkreis"},"federalState":{"key":"09","name":"Bayern"}},{"name":"Rupert-Sigl-Str.","postalCode":"83629","locality":"Weyarn","municipality":{"key":"09182137","name":"Weyarn","type":"Kreisangehörige_Gemeinde"},"district":{"key":"09182","name":"Miesbach","type":"Landkreis"},"federalState":{"key":"09","name":"Bayern"}},{"name":"Schlierseer Str.","postalCode":"83629","locality":"Weyarn","municipality":{"key":"09182137","name":"Weyarn","type":"Kreisangehörige_Gemeinde"},"district":{"key":"09182","name":"Miesbach","type":"Landkreis"},"federalState":{"key":"09","name":"Bayern"}},{"name":"Schloßstr.","postalCode":"83629","locality":"Weyarn","municipality":{"key":"09182137","name":"Weyarn","type":"Kreisangehörige_Gemeinde"},"district":{"key":"09182","name":"Miesbach","type":"Landkreis"},"federalState":{"key":"09","name":"Bayern"}},{"name":"Schmiedstr.","postalCode":"83629","locality":"Weyarn","municipality":{"key":"09182137","name":"Weyarn","type":"Kreisangehörige_Gemeinde"},"district":{"key":"09182","name":"Miesbach","type":"Landkreis"},"federalState":{"key":"09","name":"Bayern"}},{"name":"Schulweg","postalCode":"83629","locality":"Weyarn","municipality":{"key":"09182137","name":"Weyarn","type":"Kreisangehörige_Gemeinde"},"district":{"key":"09182","name":"Miesbach","type":"Landkreis"},"federalState":{"key":"09","name":"Bayern"}},{"name":"Schwindsbachweg","postalCode":"83629","locality":"Weyarn","municipality":{"key":"09182137","name":"Weyarn","type":"Kreisangehörige_Gemeinde"},"district":{"key":"09182","name":"Miesbach","type":"Landkreis"},"federalState":{"key":"09","name":"Bayern"}},{"name":"Seehamer Str.","postalCode":"83629","locality":"Weyarn","municipality":{"key":"09182137","name":"Weyarn","type":"Kreisangehörige_Gemeinde"},"district":{"key":"09182","name":"Miesbach","type":"Landkreis"},"federalState":{"key":"09","name":"Bayern"}},{"name":"Seestr.","postalCode":"83629","locality":"Weyarn","municipality":{"key":"09182137","name":"Weyarn","type":"Kreisangehörige_Gemeinde"},"district":{"key":"09182","name":"Miesbach","type":"Landkreis"},"federalState":{"key":"09","name":"Bayern"}},{"name":"Seiding","postalCode":"83629","locality":"Weyarn","municipality":{"key":"09182137","name":"Weyarn","type":"Kreisangehörige_Gemeinde"},"district":{"key":"09182","name":"Miesbach","type":"Landkreis"},"federalState":{"key":"09","name":"Bayern"}},{"name":"Seidinger Str.","postalCode":"83629","locality":"Weyarn","municipality":{"key":"09182137","name":"Weyarn","type":"Kreisangehörige_Gemeinde"},"district":{"key":"09182","name":"Miesbach","type":"Landkreis"},"federalState":{"key":"09","name":"Bayern"}},{"name":"Stadlweg","postalCode":"83629","locality":"Weyarn","municipality":{"key":"09182137","name":"Weyarn","type":"Kreisangehörige_Gemeinde"},"district":{"key":"09182","name":"Miesbach","type":"Landkreis"},"federalState":{"key":"09","name":"Bayern"}},{"name":"Stürzlhamer Str.","postalCode":"83629","locality":"Weyarn","municipality":{"key":"09182137","name":"Weyarn","type":"Kreisangehörige_Gemeinde"},"district":{"key":"09182","name":"Miesbach","type":"Landkreis"},"federalState":{"key":"09","name":"Bayern"}},{"name":"Talblick","postalCode":"83629","locality":"Weyarn","municipality":{"key":"09182137","name":"Weyarn","type":"Kreisangehörige_Gemeinde"},"district":{"key":"09182","name":"Miesbach","type":"Landkreis"},"federalState":{"key":"09","name":"Bayern"}},{"name":"Tannenweg","postalCode":"83629","locality":"Weyarn","municipality":{"key":"09182137","name":"Weyarn","type":"Kreisangehörige_Gemeinde"},"district":{"key":"09182","name":"Miesbach","type":"Landkreis"},"federalState":{"key":"09","name":"Bayern"}},{"name":"Von-Barth-Weg","postalCode":"83629","locality":"Weyarn","municipality":{"key":"09182137","name":"Weyarn","type":"Kreisangehörige_Gemeinde"},"district":{"key":"09182","name":"Miesbach","type":"Landkreis"},"federalState":{"key":"09","name":"Bayern"}},{"name":"Waldeckweg","postalCode":"83629","locality":"Weyarn","municipality":{"key":"09182137","name":"Weyarn","type":"Kreisangehörige_Gemeinde"},"district":{"key":"09182","name":"Miesbach","type":"Landkreis"},"federalState":{"key":"09","name":"Bayern"}},{"name":"Waldweg","postalCode":"83629","locality":"Weyarn","municipality":{"key":"09182137","name":"Weyarn","type":"Kreisangehörige_Gemeinde"},"district":{"key":"09182","name":"Miesbach","type":"Landkreis"},"federalState":{"key":"09","name":"Bayern"}},{"name":"Wallbergweg","postalCode":"83629","locality":"Weyarn","municipality":{"key":"09182137","name":"Weyarn","type":"Kreisangehörige_Gemeinde"},"district":{"key":"09182","name":"Miesbach","type":"Landkreis"},"federalState":{"key":"09","name":"Bayern"}},{"name":"Walzenbrücke","postalCode":"83629","locality":"Weyarn","municipality":{"key":"09182137","name":"Weyarn","type":"Kreisangehörige_Gemeinde"},"district":{"key":"09182","name":"Miesbach","type":"Landkreis"},"federalState":{"key":"09","name":"Bayern"}},{"name":"Wattersdorfer Str.","postalCode":"83629","locality":"Weyarn","municipality":{"key":"09182137","name":"Weyarn","type":"Kreisangehörige_Gemeinde"},"district":{"key":"09182","name":"Miesbach","type":"Landkreis"},"federalState":{"key":"09","name":"Bayern"}},{"name":"Wendelsteinweg","postalCode":"83629","locality":"Weyarn","municipality":{"key":"09182137","name":"Weyarn","type":"Kreisangehörige_Gemeinde"},"district":{"key":"09182","name":"Miesbach","type":"Landkreis"},"federalState":{"key":"09","name":"Bayern"}},{"name":"Westerhamer Str.","postalCode":"83629","locality":"Weyarn","municipality":{"key":"09182137","name":"Weyarn","type":"Kreisangehörige_Gemeinde"},"district":{"key":"09182","name":"Miesbach","type":"Landkreis"},"federalState":{"key":"09","name":"Bayern"}},{"name":"Westinerbrücke","postalCode":"83629","locality":"Weyarn","municipality":{"key":"09182137","name":"Weyarn","type":"Kreisangehörige_Gemeinde"},"district":{"key":"09182","name":"Miesbach","type":"Landkreis"},"federalState":{"key":"09","name":"Bayern"}},{"name":"Weyarner Str.","postalCode":"83629","locality":"Weyarn","municipality":{"key":"09182137","name":"Weyarn","type":"Kreisangehörige_Gemeinde"},"district":{"key":"09182","name":"Miesbach","type":"Landkreis"},"federalState":{"key":"09","name":"Bayern"}},{"name":"Wiesengrund","postalCode":"83629","locality":"Weyarn","municipality":{"key":"09182137","name":"Weyarn","type":"Kreisangehörige_Gemeinde"},"district":{"key":"09182","name":"Miesbach","type":"Landkreis"},"federalState":{"key":"09","name":"Bayern"}},{"name":"Wirtweg","postalCode":"83629","locality":"Weyarn","municipality":{"key":"09182137","name":"Weyarn","type":"Kreisangehörige_Gemeinde"},"district":{"key":"09182","name":"Miesbach","type":"Landkreis"},"federalState":{"key":"09","name":"Bayern"}},{"name":"Zwergerweg","postalCode":"83714","locality":"Miesbach","municipality":{"key":"09182125","name":"Miesbach, St","type":"Stadt"},"district":{"key":"09182","name":"Miesbach","type":"Landkreis"},"federalState":{"key":"09","name":"Bayern"}},{"name":"Äußere Münchner Str.","postalCode":"83714","locality":"Miesbach","municipality":{"key":"09182125","name":"Miesbach, St","type":"Stadt"},"district":{"key":"09182","name":"Miesbach","type":"Landkreis"},"federalState":{"key":"09","name":"Bayern"}},]