[{"name":"Adolf-Kolping-Str.","postalCode":"77704","locality":"Oberkirch","municipality":{"key":"08317089","name":"Oberkirch, Stadt","type":"Große_Kreisstadt"},"district":{"key":"08317","name":"Ortenaukreis","type":"Landkreis"},"federalState":{"key":"08","name":"Baden-Württemberg"}},{"name":"Albersbacher Str.","postalCode":"77704","locality":"Oberkirch","municipality":{"key":"08317089","name":"Oberkirch, Stadt","type":"Große_Kreisstadt"},"district":{"key":"08317","name":"Ortenaukreis","type":"Landkreis"},"federalState":{"key":"08","name":"Baden-Württemberg"}},{"name":"Albert-Schweitzer-Str.","postalCode":"77704","locality":"Oberkirch","municipality":{"key":"08317089","name":"Oberkirch, Stadt","type":"Große_Kreisstadt"},"district":{"key":"08317","name":"Ortenaukreis","type":"Landkreis"},"federalState":{"key":"08","name":"Baden-Württemberg"}},{"name":"Albertstr.","postalCode":"77704","locality":"Oberkirch","municipality":{"key":"08317089","name":"Oberkirch, Stadt","type":"Große_Kreisstadt"},"district":{"key":"08317","name":"Ortenaukreis","type":"Landkreis"},"federalState":{"key":"08","name":"Baden-Württemberg"}},{"name":"Allmendwaldweg","postalCode":"77704","locality":"Oberkirch","municipality":{"key":"08317089","name":"Oberkirch, Stadt","type":"Große_Kreisstadt"},"district":{"key":"08317","name":"Ortenaukreis","type":"Landkreis"},"federalState":{"key":"08","name":"Baden-Württemberg"}},{"name":"Alm","postalCode":"77704","locality":"Oberkirch","municipality":{"key":"08317089","name":"Oberkirch, Stadt","type":"Große_Kreisstadt"},"district":{"key":"08317","name":"Ortenaukreis","type":"Landkreis"},"federalState":{"key":"08","name":"Baden-Württemberg"}},{"name":"Almstr.","postalCode":"77704","locality":"Oberkirch","municipality":{"key":"08317089","name":"Oberkirch, Stadt","type":"Große_Kreisstadt"},"district":{"key":"08317","name":"Ortenaukreis","type":"Landkreis"},"federalState":{"key":"08","name":"Baden-Württemberg"}},{"name":"Am Altensteg","postalCode":"77704","locality":"Oberkirch","municipality":{"key":"08317089","name":"Oberkirch, Stadt","type":"Große_Kreisstadt"},"district":{"key":"08317","name":"Ortenaukreis","type":"Landkreis"},"federalState":{"key":"08","name":"Baden-Württemberg"}},{"name":"Am Dorfbach","postalCode":"77704","locality":"Oberkirch","municipality":{"key":"08317089","name":"Oberkirch, Stadt","type":"Große_Kreisstadt"},"district":{"key":"08317","name":"Ortenaukreis","type":"Landkreis"},"federalState":{"key":"08","name":"Baden-Württemberg"}},{"name":"Am Eckenberg","postalCode":"77704","locality":"Oberkirch","municipality":{"key":"08317089","name":"Oberkirch, Stadt","type":"Große_Kreisstadt"},"district":{"key":"08317","name":"Ortenaukreis","type":"Landkreis"},"federalState":{"key":"08","name":"Baden-Württemberg"}},{"name":"Am Eisweiher","postalCode":"77704","locality":"Oberkirch","municipality":{"key":"08317089","name":"Oberkirch, Stadt","type":"Große_Kreisstadt"},"district":{"key":"08317","name":"Ortenaukreis","type":"Landkreis"},"federalState":{"key":"08","name":"Baden-Württemberg"}},{"name":"Am Erbbach","postalCode":"77704","locality":"Oberkirch","municipality":{"key":"08317089","name":"Oberkirch, Stadt","type":"Große_Kreisstadt"},"district":{"key":"08317","name":"Ortenaukreis","type":"Landkreis"},"federalState":{"key":"08","name":"Baden-Württemberg"}},{"name":"Am Eulenstein","postalCode":"77704","locality":"Oberkirch","municipality":{"key":"08317089","name":"Oberkirch, Stadt","type":"Große_Kreisstadt"},"district":{"key":"08317","name":"Ortenaukreis","type":"Landkreis"},"federalState":{"key":"08","name":"Baden-Württemberg"}},{"name":"Am Griesenrain","postalCode":"77704","locality":"Oberkirch","municipality":{"key":"08317089","name":"Oberkirch, Stadt","type":"Große_Kreisstadt"},"district":{"key":"08317","name":"Ortenaukreis","type":"Landkreis"},"federalState":{"key":"08","name":"Baden-Württemberg"}},{"name":"Am Hardtwald","postalCode":"77704","locality":"Oberkirch","municipality":{"key":"08317089","name":"Oberkirch, Stadt","type":"Große_Kreisstadt"},"district":{"key":"08317","name":"Ortenaukreis","type":"Landkreis"},"federalState":{"key":"08","name":"Baden-Württemberg"}},{"name":"Am Hausberg","postalCode":"77704","locality":"Oberkirch","municipality":{"key":"08317089","name":"Oberkirch, Stadt","type":"Große_Kreisstadt"},"district":{"key":"08317","name":"Ortenaukreis","type":"Landkreis"},"federalState":{"key":"08","name":"Baden-Württemberg"}},{"name":"Am Marktplatz","postalCode":"77704","locality":"Oberkirch","municipality":{"key":"08317089","name":"Oberkirch, Stadt","type":"Große_Kreisstadt"},"district":{"key":"08317","name":"Ortenaukreis","type":"Landkreis"},"federalState":{"key":"08","name":"Baden-Württemberg"}},{"name":"Am Mühlbach","postalCode":"77704","locality":"Oberkirch","municipality":{"key":"08317089","name":"Oberkirch, Stadt","type":"Große_Kreisstadt"},"district":{"key":"08317","name":"Ortenaukreis","type":"Landkreis"},"federalState":{"key":"08","name":"Baden-Württemberg"}},{"name":"Am Rebhag","postalCode":"77704","locality":"Oberkirch","municipality":{"key":"08317089","name":"Oberkirch, Stadt","type":"Große_Kreisstadt"},"district":{"key":"08317","name":"Ortenaukreis","type":"Landkreis"},"federalState":{"key":"08","name":"Baden-Württemberg"}},{"name":"Am Rebhof","postalCode":"77704","locality":"Oberkirch","municipality":{"key":"08317089","name":"Oberkirch, Stadt","type":"Große_Kreisstadt"},"district":{"key":"08317","name":"Ortenaukreis","type":"Landkreis"},"federalState":{"key":"08","name":"Baden-Württemberg"}},{"name":"Am Reichenbächle","postalCode":"77704","locality":"Oberkirch","municipality":{"key":"08317089","name":"Oberkirch, Stadt","type":"Große_Kreisstadt"},"district":{"key":"08317","name":"Ortenaukreis","type":"Landkreis"},"federalState":{"key":"08","name":"Baden-Württemberg"}},{"name":"Am Sperrain","postalCode":"77704","locality":"Oberkirch","municipality":{"key":"08317089","name":"Oberkirch, Stadt","type":"Große_Kreisstadt"},"district":{"key":"08317","name":"Ortenaukreis","type":"Landkreis"},"federalState":{"key":"08","name":"Baden-Württemberg"}},{"name":"Am Sportplatz","postalCode":"77704","locality":"Oberkirch","municipality":{"key":"08317089","name":"Oberkirch, Stadt","type":"Große_Kreisstadt"},"district":{"key":"08317","name":"Ortenaukreis","type":"Landkreis"},"federalState":{"key":"08","name":"Baden-Württemberg"}},{"name":"Am Spritzenmättle","postalCode":"77704","locality":"Oberkirch","municipality":{"key":"08317089","name":"Oberkirch, Stadt","type":"Große_Kreisstadt"},"district":{"key":"08317","name":"Ortenaukreis","type":"Landkreis"},"federalState":{"key":"08","name":"Baden-Württemberg"}},{"name":"Am Stangenbach","postalCode":"77704","locality":"Oberkirch","municipality":{"key":"08317089","name":"Oberkirch, Stadt","type":"Große_Kreisstadt"},"district":{"key":"08317","name":"Ortenaukreis","type":"Landkreis"},"federalState":{"key":"08","name":"Baden-Württemberg"}},{"name":"Am Tanzberg","postalCode":"77704","locality":"Oberkirch","municipality":{"key":"08317089","name":"Oberkirch, Stadt","type":"Große_Kreisstadt"},"district":{"key":"08317","name":"Ortenaukreis","type":"Landkreis"},"federalState":{"key":"08","name":"Baden-Württemberg"}},{"name":"Am Wäldele","postalCode":"77704","locality":"Oberkirch","municipality":{"key":"08317089","name":"Oberkirch, Stadt","type":"Große_Kreisstadt"},"district":{"key":"08317","name":"Ortenaukreis","type":"Landkreis"},"federalState":{"key":"08","name":"Baden-Württemberg"}},{"name":"Am Wiesenbach","postalCode":"77704","locality":"Oberkirch","municipality":{"key":"08317089","name":"Oberkirch, Stadt","type":"Große_Kreisstadt"},"district":{"key":"08317","name":"Ortenaukreis","type":"Landkreis"},"federalState":{"key":"08","name":"Baden-Württemberg"}},{"name":"An den Mühlen","postalCode":"77704","locality":"Oberkirch","municipality":{"key":"08317089","name":"Oberkirch, Stadt","type":"Große_Kreisstadt"},"district":{"key":"08317","name":"Ortenaukreis","type":"Landkreis"},"federalState":{"key":"08","name":"Baden-Württemberg"}},{"name":"An der Bleiche","postalCode":"77704","locality":"Oberkirch","municipality":{"key":"08317089","name":"Oberkirch, Stadt","type":"Große_Kreisstadt"},"district":{"key":"08317","name":"Ortenaukreis","type":"Landkreis"},"federalState":{"key":"08","name":"Baden-Württemberg"}},{"name":"An der Rench","postalCode":"77704","locality":"Oberkirch","municipality":{"key":"08317089","name":"Oberkirch, Stadt","type":"Große_Kreisstadt"},"district":{"key":"08317","name":"Ortenaukreis","type":"Landkreis"},"federalState":{"key":"08","name":"Baden-Württemberg"}},{"name":"Anton-Vogt-Str.","postalCode":"77704","locality":"Oberkirch","municipality":{"key":"08317089","name":"Oberkirch, Stadt","type":"Große_Kreisstadt"},"district":{"key":"08317","name":"Ortenaukreis","type":"Landkreis"},"federalState":{"key":"08","name":"Baden-Württemberg"}},{"name":"Apothekergasse","postalCode":"77704","locality":"Oberkirch","municipality":{"key":"08317089","name":"Oberkirch, Stadt","type":"Große_Kreisstadt"},"district":{"key":"08317","name":"Ortenaukreis","type":"Landkreis"},"federalState":{"key":"08","name":"Baden-Württemberg"}},{"name":"Appenweierer Str.","postalCode":"77704","locality":"Oberkirch","municipality":{"key":"08317089","name":"Oberkirch, Stadt","type":"Große_Kreisstadt"},"district":{"key":"08317","name":"Ortenaukreis","type":"Landkreis"},"federalState":{"key":"08","name":"Baden-Württemberg"}},{"name":"Auerbachweg","postalCode":"77704","locality":"Oberkirch","municipality":{"key":"08317089","name":"Oberkirch, Stadt","type":"Große_Kreisstadt"},"district":{"key":"08317","name":"Ortenaukreis","type":"Landkreis"},"federalState":{"key":"08","name":"Baden-Württemberg"}},{"name":"August-Ganther-Str.","postalCode":"77704","locality":"Oberkirch","municipality":{"key":"08317089","name":"Oberkirch, Stadt","type":"Große_Kreisstadt"},"district":{"key":"08317","name":"Ortenaukreis","type":"Landkreis"},"federalState":{"key":"08","name":"Baden-Württemberg"}},{"name":"August-Köhler-Str.","postalCode":"77704","locality":"Oberkirch","municipality":{"key":"08317089","name":"Oberkirch, Stadt","type":"Große_Kreisstadt"},"district":{"key":"08317","name":"Ortenaukreis","type":"Landkreis"},"federalState":{"key":"08","name":"Baden-Württemberg"}},{"name":"Bachanlage","postalCode":"77704","locality":"Oberkirch","municipality":{"key":"08317089","name":"Oberkirch, Stadt","type":"Große_Kreisstadt"},"district":{"key":"08317","name":"Ortenaukreis","type":"Landkreis"},"federalState":{"key":"08","name":"Baden-Württemberg"}},{"name":"Bachstr.","postalCode":"77704","locality":"Oberkirch","municipality":{"key":"08317089","name":"Oberkirch, Stadt","type":"Große_Kreisstadt"},"district":{"key":"08317","name":"Ortenaukreis","type":"Landkreis"},"federalState":{"key":"08","name":"Baden-Württemberg"}},{"name":"Badener Str.","postalCode":"77704","locality":"Oberkirch","municipality":{"key":"08317089","name":"Oberkirch, Stadt","type":"Große_Kreisstadt"},"district":{"key":"08317","name":"Ortenaukreis","type":"Landkreis"},"federalState":{"key":"08","name":"Baden-Württemberg"}},{"name":"Bahnhofstr.","postalCode":"77704","locality":"Oberkirch","municipality":{"key":"08317089","name":"Oberkirch, Stadt","type":"Große_Kreisstadt"},"district":{"key":"08317","name":"Ortenaukreis","type":"Landkreis"},"federalState":{"key":"08","name":"Baden-Württemberg"}},{"name":"Bahnstr.","postalCode":"77704","locality":"Oberkirch","municipality":{"key":"08317089","name":"Oberkirch, Stadt","type":"Große_Kreisstadt"},"district":{"key":"08317","name":"Ortenaukreis","type":"Landkreis"},"federalState":{"key":"08","name":"Baden-Württemberg"}},{"name":"Bärengasse","postalCode":"77704","locality":"Oberkirch","municipality":{"key":"08317089","name":"Oberkirch, Stadt","type":"Große_Kreisstadt"},"district":{"key":"08317","name":"Ortenaukreis","type":"Landkreis"},"federalState":{"key":"08","name":"Baden-Württemberg"}},{"name":"Beethovenstr.","postalCode":"77704","locality":"Oberkirch","municipality":{"key":"08317089","name":"Oberkirch, Stadt","type":"Große_Kreisstadt"},"district":{"key":"08317","name":"Ortenaukreis","type":"Landkreis"},"federalState":{"key":"08","name":"Baden-Württemberg"}},{"name":"Bellensteinerstr.","postalCode":"77704","locality":"Oberkirch","municipality":{"key":"08317089","name":"Oberkirch, Stadt","type":"Große_Kreisstadt"},"district":{"key":"08317","name":"Ortenaukreis","type":"Landkreis"},"federalState":{"key":"08","name":"Baden-Württemberg"}},{"name":"Bellensteinstr.","postalCode":"77704","locality":"Oberkirch","municipality":{"key":"08317089","name":"Oberkirch, Stadt","type":"Große_Kreisstadt"},"district":{"key":"08317","name":"Ortenaukreis","type":"Landkreis"},"federalState":{"key":"08","name":"Baden-Württemberg"}},{"name":"Bergstr.","postalCode":"77704","locality":"Oberkirch","municipality":{"key":"08317089","name":"Oberkirch, Stadt","type":"Große_Kreisstadt"},"district":{"key":"08317","name":"Ortenaukreis","type":"Landkreis"},"federalState":{"key":"08","name":"Baden-Württemberg"}},{"name":"Binzigstr.","postalCode":"77704","locality":"Oberkirch","municipality":{"key":"08317089","name":"Oberkirch, Stadt","type":"Große_Kreisstadt"},"district":{"key":"08317","name":"Ortenaukreis","type":"Landkreis"},"federalState":{"key":"08","name":"Baden-Württemberg"}},{"name":"Bismarckstr.","postalCode":"77704","locality":"Oberkirch","municipality":{"key":"08317089","name":"Oberkirch, Stadt","type":"Große_Kreisstadt"},"district":{"key":"08317","name":"Ortenaukreis","type":"Landkreis"},"federalState":{"key":"08","name":"Baden-Württemberg"}},{"name":"Blumenstr.","postalCode":"77704","locality":"Oberkirch","municipality":{"key":"08317089","name":"Oberkirch, Stadt","type":"Große_Kreisstadt"},"district":{"key":"08317","name":"Ortenaukreis","type":"Landkreis"},"federalState":{"key":"08","name":"Baden-Württemberg"}},{"name":"Blütenstr.","postalCode":"77704","locality":"Oberkirch","municipality":{"key":"08317089","name":"Oberkirch, Stadt","type":"Große_Kreisstadt"},"district":{"key":"08317","name":"Ortenaukreis","type":"Landkreis"},"federalState":{"key":"08","name":"Baden-Württemberg"}},{"name":"Bodenhald","postalCode":"77704","locality":"Oberkirch","municipality":{"key":"08317089","name":"Oberkirch, Stadt","type":"Große_Kreisstadt"},"district":{"key":"08317","name":"Ortenaukreis","type":"Landkreis"},"federalState":{"key":"08","name":"Baden-Württemberg"}},{"name":"Boschring","postalCode":"77704","locality":"Oberkirch","municipality":{"key":"08317089","name":"Oberkirch, Stadt","type":"Große_Kreisstadt"},"district":{"key":"08317","name":"Ortenaukreis","type":"Landkreis"},"federalState":{"key":"08","name":"Baden-Württemberg"}},{"name":"Brestenberg","postalCode":"77704","locality":"Oberkirch","municipality":{"key":"08317089","name":"Oberkirch, Stadt","type":"Große_Kreisstadt"},"district":{"key":"08317","name":"Ortenaukreis","type":"Landkreis"},"federalState":{"key":"08","name":"Baden-Württemberg"}},{"name":"Briandstr.","postalCode":"77704","locality":"Oberkirch","municipality":{"key":"08317089","name":"Oberkirch, Stadt","type":"Große_Kreisstadt"},"district":{"key":"08317","name":"Ortenaukreis","type":"Landkreis"},"federalState":{"key":"08","name":"Baden-Württemberg"}},{"name":"Brucknerstr.","postalCode":"77704","locality":"Oberkirch","municipality":{"key":"08317089","name":"Oberkirch, Stadt","type":"Große_Kreisstadt"},"district":{"key":"08317","name":"Ortenaukreis","type":"Landkreis"},"federalState":{"key":"08","name":"Baden-Württemberg"}},{"name":"Brügelmatt","postalCode":"77704","locality":"Oberkirch","municipality":{"key":"08317089","name":"Oberkirch, Stadt","type":"Große_Kreisstadt"},"district":{"key":"08317","name":"Ortenaukreis","type":"Landkreis"},"federalState":{"key":"08","name":"Baden-Württemberg"}},{"name":"Brügelweg","postalCode":"77704","locality":"Oberkirch","municipality":{"key":"08317089","name":"Oberkirch, Stadt","type":"Große_Kreisstadt"},"district":{"key":"08317","name":"Ortenaukreis","type":"Landkreis"},"federalState":{"key":"08","name":"Baden-Württemberg"}},{"name":"Brunnenbühndstr.","postalCode":"77704","locality":"Oberkirch","municipality":{"key":"08317089","name":"Oberkirch, Stadt","type":"Große_Kreisstadt"},"district":{"key":"08317","name":"Ortenaukreis","type":"Landkreis"},"federalState":{"key":"08","name":"Baden-Württemberg"}},{"name":"Bühlstr.","postalCode":"77704","locality":"Oberkirch","municipality":{"key":"08317089","name":"Oberkirch, Stadt","type":"Große_Kreisstadt"},"district":{"key":"08317","name":"Ortenaukreis","type":"Landkreis"},"federalState":{"key":"08","name":"Baden-Württemberg"}},{"name":"Bündengaß","postalCode":"77704","locality":"Oberkirch","municipality":{"key":"08317089","name":"Oberkirch, Stadt","type":"Große_Kreisstadt"},"district":{"key":"08317","name":"Ortenaukreis","type":"Landkreis"},"federalState":{"key":"08","name":"Baden-Württemberg"}},{"name":"Burefeldstr.","postalCode":"77704","locality":"Oberkirch","municipality":{"key":"08317089","name":"Oberkirch, Stadt","type":"Große_Kreisstadt"},"district":{"key":"08317","name":"Ortenaukreis","type":"Landkreis"},"federalState":{"key":"08","name":"Baden-Württemberg"}},{"name":"Burgstr.","postalCode":"77704","locality":"Oberkirch","municipality":{"key":"08317089","name":"Oberkirch, Stadt","type":"Große_Kreisstadt"},"district":{"key":"08317","name":"Ortenaukreis","type":"Landkreis"},"federalState":{"key":"08","name":"Baden-Württemberg"}},{"name":"Butschbacher Str.","postalCode":"77704","locality":"Oberkirch","municipality":{"key":"08317089","name":"Oberkirch, Stadt","type":"Große_Kreisstadt"},"district":{"key":"08317","name":"Ortenaukreis","type":"Landkreis"},"federalState":{"key":"08","name":"Baden-Württemberg"}},{"name":"Charles-de-Gaulle-Str.","postalCode":"77704","locality":"Oberkirch","municipality":{"key":"08317089","name":"Oberkirch, Stadt","type":"Große_Kreisstadt"},"district":{"key":"08317","name":"Ortenaukreis","type":"Landkreis"},"federalState":{"key":"08","name":"Baden-Württemberg"}},{"name":"Diebersbach","postalCode":"77704","locality":"Oberkirch","municipality":{"key":"08317089","name":"Oberkirch, Stadt","type":"Große_Kreisstadt"},"district":{"key":"08317","name":"Ortenaukreis","type":"Landkreis"},"federalState":{"key":"08","name":"Baden-Württemberg"}},{"name":"Dietrich-Bonhoeffer-Str.","postalCode":"77704","locality":"Oberkirch","municipality":{"key":"08317089","name":"Oberkirch, Stadt","type":"Große_Kreisstadt"},"district":{"key":"08317","name":"Ortenaukreis","type":"Landkreis"},"federalState":{"key":"08","name":"Baden-Württemberg"}},{"name":"Dorfhaldeweg","postalCode":"77704","locality":"Oberkirch","municipality":{"key":"08317089","name":"Oberkirch, Stadt","type":"Große_Kreisstadt"},"district":{"key":"08317","name":"Ortenaukreis","type":"Landkreis"},"federalState":{"key":"08","name":"Baden-Württemberg"}},{"name":"Dörfle","postalCode":"77704","locality":"Oberkirch","municipality":{"key":"08317089","name":"Oberkirch, Stadt","type":"Große_Kreisstadt"},"district":{"key":"08317","name":"Ortenaukreis","type":"Landkreis"},"federalState":{"key":"08","name":"Baden-Württemberg"}},{"name":"Eckle","postalCode":"77704","locality":"Oberkirch","municipality":{"key":"08317089","name":"Oberkirch, Stadt","type":"Große_Kreisstadt"},"district":{"key":"08317","name":"Ortenaukreis","type":"Landkreis"},"federalState":{"key":"08","name":"Baden-Württemberg"}},{"name":"Edith-Stein-Str.","postalCode":"77704","locality":"Oberkirch","municipality":{"key":"08317089","name":"Oberkirch, Stadt","type":"Große_Kreisstadt"},"district":{"key":"08317","name":"Ortenaukreis","type":"Landkreis"},"federalState":{"key":"08","name":"Baden-Württemberg"}},{"name":"Egenolfstr.","postalCode":"77704","locality":"Oberkirch","municipality":{"key":"08317089","name":"Oberkirch, Stadt","type":"Große_Kreisstadt"},"district":{"key":"08317","name":"Ortenaukreis","type":"Landkreis"},"federalState":{"key":"08","name":"Baden-Württemberg"}},{"name":"Eisenbahnstr.","postalCode":"77704","locality":"Oberkirch","municipality":{"key":"08317089","name":"Oberkirch, Stadt","type":"Große_Kreisstadt"},"district":{"key":"08317","name":"Ortenaukreis","type":"Landkreis"},"federalState":{"key":"08","name":"Baden-Württemberg"}},{"name":"Emil-Walter-Str.","postalCode":"77704","locality":"Oberkirch","municipality":{"key":"08317089","name":"Oberkirch, Stadt","type":"Große_Kreisstadt"},"district":{"key":"08317","name":"Ortenaukreis","type":"Landkreis"},"federalState":{"key":"08","name":"Baden-Württemberg"}},{"name":"Erbstr.","postalCode":"77704","locality":"Oberkirch","municipality":{"key":"08317089","name":"Oberkirch, Stadt","type":"Große_Kreisstadt"},"district":{"key":"08317","name":"Ortenaukreis","type":"Landkreis"},"federalState":{"key":"08","name":"Baden-Württemberg"}},{"name":"Erlacher Str.","postalCode":"77704","locality":"Oberkirch","municipality":{"key":"08317089","name":"Oberkirch, Stadt","type":"Große_Kreisstadt"},"district":{"key":"08317","name":"Ortenaukreis","type":"Landkreis"},"federalState":{"key":"08","name":"Baden-Württemberg"}},{"name":"Eselsattelweg","postalCode":"77704","locality":"Oberkirch","municipality":{"key":"08317089","name":"Oberkirch, Stadt","type":"Große_Kreisstadt"},"district":{"key":"08317","name":"Ortenaukreis","type":"Landkreis"},"federalState":{"key":"08","name":"Baden-Württemberg"}},{"name":"Esperantostr.","postalCode":"77704","locality":"Oberkirch","municipality":{"key":"08317089","name":"Oberkirch, Stadt","type":"Große_Kreisstadt"},"district":{"key":"08317","name":"Ortenaukreis","type":"Landkreis"},"federalState":{"key":"08","name":"Baden-Württemberg"}},{"name":"Ewiger Weg","postalCode":"77704","locality":"Oberkirch","municipality":{"key":"08317089","name":"Oberkirch, Stadt","type":"Große_Kreisstadt"},"district":{"key":"08317","name":"Ortenaukreis","type":"Landkreis"},"federalState":{"key":"08","name":"Baden-Württemberg"}},{"name":"Fernacher Höhe","postalCode":"77704","locality":"Oberkirch","municipality":{"key":"08317089","name":"Oberkirch, Stadt","type":"Große_Kreisstadt"},"district":{"key":"08317","name":"Ortenaukreis","type":"Landkreis"},"federalState":{"key":"08","name":"Baden-Württemberg"}},{"name":"Finkenweg","postalCode":"77704","locality":"Oberkirch","municipality":{"key":"08317089","name":"Oberkirch, Stadt","type":"Große_Kreisstadt"},"district":{"key":"08317","name":"Ortenaukreis","type":"Landkreis"},"federalState":{"key":"08","name":"Baden-Württemberg"}},{"name":"Franz-Schubert-Str.","postalCode":"77704","locality":"Oberkirch","municipality":{"key":"08317089","name":"Oberkirch, Stadt","type":"Große_Kreisstadt"},"district":{"key":"08317","name":"Ortenaukreis","type":"Landkreis"},"federalState":{"key":"08","name":"Baden-Württemberg"}},{"name":"Freiwald","postalCode":"77704","locality":"Oberkirch","municipality":{"key":"08317089","name":"Oberkirch, Stadt","type":"Große_Kreisstadt"},"district":{"key":"08317","name":"Ortenaukreis","type":"Landkreis"},"federalState":{"key":"08","name":"Baden-Württemberg"}},{"name":"Friedenstr.","postalCode":"77704","locality":"Oberkirch","municipality":{"key":"08317089","name":"Oberkirch, Stadt","type":"Große_Kreisstadt"},"district":{"key":"08317","name":"Ortenaukreis","type":"Landkreis"},"federalState":{"key":"08","name":"Baden-Württemberg"}},{"name":"Friedhofstr.","postalCode":"77704","locality":"Oberkirch","municipality":{"key":"08317089","name":"Oberkirch, Stadt","type":"Große_Kreisstadt"},"district":{"key":"08317","name":"Ortenaukreis","type":"Landkreis"},"federalState":{"key":"08","name":"Baden-Württemberg"}},{"name":"Friedhofsweg","postalCode":"77704","locality":"Oberkirch","municipality":{"key":"08317089","name":"Oberkirch, Stadt","type":"Große_Kreisstadt"},"district":{"key":"08317","name":"Ortenaukreis","type":"Landkreis"},"federalState":{"key":"08","name":"Baden-Württemberg"}},{"name":"Friedrich-Ebert-Str.","postalCode":"77704","locality":"Oberkirch","municipality":{"key":"08317089","name":"Oberkirch, Stadt","type":"Große_Kreisstadt"},"district":{"key":"08317","name":"Ortenaukreis","type":"Landkreis"},"federalState":{"key":"08","name":"Baden-Württemberg"}},{"name":"Fritz-Tröndle-Str.","postalCode":"77704","locality":"Oberkirch","municipality":{"key":"08317089","name":"Oberkirch, Stadt","type":"Große_Kreisstadt"},"district":{"key":"08317","name":"Ortenaukreis","type":"Landkreis"},"federalState":{"key":"08","name":"Baden-Württemberg"}},{"name":"Fröbelweg","postalCode":"77704","locality":"Oberkirch","municipality":{"key":"08317089","name":"Oberkirch, Stadt","type":"Große_Kreisstadt"},"district":{"key":"08317","name":"Ortenaukreis","type":"Landkreis"},"federalState":{"key":"08","name":"Baden-Württemberg"}},{"name":"Fuchsmattstr.","postalCode":"77704","locality":"Oberkirch","municipality":{"key":"08317089","name":"Oberkirch, Stadt","type":"Große_Kreisstadt"},"district":{"key":"08317","name":"Ortenaukreis","type":"Landkreis"},"federalState":{"key":"08","name":"Baden-Württemberg"}},{"name":"Gaisbach","postalCode":"77704","locality":"Oberkirch","municipality":{"key":"08317089","name":"Oberkirch, Stadt","type":"Große_Kreisstadt"},"district":{"key":"08317","name":"Ortenaukreis","type":"Landkreis"},"federalState":{"key":"08","name":"Baden-Württemberg"}},{"name":"Gaisbacher Str.","postalCode":"77704","locality":"Oberkirch","municipality":{"key":"08317089","name":"Oberkirch, Stadt","type":"Große_Kreisstadt"},"district":{"key":"08317","name":"Ortenaukreis","type":"Landkreis"},"federalState":{"key":"08","name":"Baden-Württemberg"}},{"name":"Gartenweg","postalCode":"77704","locality":"Oberkirch","municipality":{"key":"08317089","name":"Oberkirch, Stadt","type":"Große_Kreisstadt"},"district":{"key":"08317","name":"Ortenaukreis","type":"Landkreis"},"federalState":{"key":"08","name":"Baden-Württemberg"}},{"name":"Georg-Sturm-Str.","postalCode":"77704","locality":"Oberkirch","municipality":{"key":"08317089","name":"Oberkirch, Stadt","type":"Große_Kreisstadt"},"district":{"key":"08317","name":"Ortenaukreis","type":"Landkreis"},"federalState":{"key":"08","name":"Baden-Württemberg"}},{"name":"Gerbergasse","postalCode":"77704","locality":"Oberkirch","municipality":{"key":"08317089","name":"Oberkirch, Stadt","type":"Große_Kreisstadt"},"district":{"key":"08317","name":"Ortenaukreis","type":"Landkreis"},"federalState":{"key":"08","name":"Baden-Württemberg"}},{"name":"Geschwister-Scholl-Str.","postalCode":"77704","locality":"Oberkirch","municipality":{"key":"08317089","name":"Oberkirch, Stadt","type":"Große_Kreisstadt"},"district":{"key":"08317","name":"Ortenaukreis","type":"Landkreis"},"federalState":{"key":"08","name":"Baden-Württemberg"}},{"name":"Gewerbestr.","postalCode":"77704","locality":"Oberkirch","municipality":{"key":"08317089","name":"Oberkirch, Stadt","type":"Große_Kreisstadt"},"district":{"key":"08317","name":"Ortenaukreis","type":"Landkreis"},"federalState":{"key":"08","name":"Baden-Württemberg"}},{"name":"Grimmelshausenstr.","postalCode":"77704","locality":"Oberkirch","municipality":{"key":"08317089","name":"Oberkirch, Stadt","type":"Große_Kreisstadt"},"district":{"key":"08317","name":"Ortenaukreis","type":"Landkreis"},"federalState":{"key":"08","name":"Baden-Württemberg"}},{"name":"Grimmersberg","postalCode":"77704","locality":"Oberkirch","municipality":{"key":"08317089","name":"Oberkirch, Stadt","type":"Große_Kreisstadt"},"district":{"key":"08317","name":"Ortenaukreis","type":"Landkreis"},"federalState":{"key":"08","name":"Baden-Württemberg"}},{"name":"Grüner-Baum-Weg","postalCode":"77704","locality":"Oberkirch","municipality":{"key":"08317089","name":"Oberkirch, Stadt","type":"Große_Kreisstadt"},"district":{"key":"08317","name":"Ortenaukreis","type":"Landkreis"},"federalState":{"key":"08","name":"Baden-Württemberg"}},{"name":"Hammermatt","postalCode":"77704","locality":"Oberkirch","municipality":{"key":"08317089","name":"Oberkirch, Stadt","type":"Große_Kreisstadt"},"district":{"key":"08317","name":"Ortenaukreis","type":"Landkreis"},"federalState":{"key":"08","name":"Baden-Württemberg"}},{"name":"Hansjakobstr.","postalCode":"77704","locality":"Oberkirch","municipality":{"key":"08317089","name":"Oberkirch, Stadt","type":"Große_Kreisstadt"},"district":{"key":"08317","name":"Ortenaukreis","type":"Landkreis"},"federalState":{"key":"08","name":"Baden-Württemberg"}},{"name":"Hans-Kölble-Str.","postalCode":"77704","locality":"Oberkirch","municipality":{"key":"08317089","name":"Oberkirch, Stadt","type":"Große_Kreisstadt"},"district":{"key":"08317","name":"Ortenaukreis","type":"Landkreis"},"federalState":{"key":"08","name":"Baden-Württemberg"}},{"name":"Haslacher Str.","postalCode":"77704","locality":"Oberkirch","municipality":{"key":"08317089","name":"Oberkirch, Stadt","type":"Große_Kreisstadt"},"district":{"key":"08317","name":"Ortenaukreis","type":"Landkreis"},"federalState":{"key":"08","name":"Baden-Württemberg"}},{"name":"Hauptstr.","postalCode":"77704","locality":"Oberkirch","municipality":{"key":"08317089","name":"Oberkirch, Stadt","type":"Große_Kreisstadt"},"district":{"key":"08317","name":"Ortenaukreis","type":"Landkreis"},"federalState":{"key":"08","name":"Baden-Württemberg"}},{"name":"Hebelweg","postalCode":"77704","locality":"Oberkirch","municipality":{"key":"08317089","name":"Oberkirch, Stadt","type":"Große_Kreisstadt"},"district":{"key":"08317","name":"Ortenaukreis","type":"Landkreis"},"federalState":{"key":"08","name":"Baden-Württemberg"}},{"name":"Heimkehrerstr.","postalCode":"77704","locality":"Oberkirch","municipality":{"key":"08317089","name":"Oberkirch, Stadt","type":"Große_Kreisstadt"},"district":{"key":"08317","name":"Ortenaukreis","type":"Landkreis"},"federalState":{"key":"08","name":"Baden-Württemberg"}},{"name":"Herztal","postalCode":"77704","locality":"Oberkirch","municipality":{"key":"08317089","name":"Oberkirch, Stadt","type":"Große_Kreisstadt"},"district":{"key":"08317","name":"Ortenaukreis","type":"Landkreis"},"federalState":{"key":"08","name":"Baden-Württemberg"}},{"name":"Herztalstr.","postalCode":"77704","locality":"Oberkirch","municipality":{"key":"08317089","name":"Oberkirch, Stadt","type":"Große_Kreisstadt"},"district":{"key":"08317","name":"Ortenaukreis","type":"Landkreis"},"federalState":{"key":"08","name":"Baden-Württemberg"}},{"name":"Hesselbach","postalCode":"77704","locality":"Oberkirch","municipality":{"key":"08317089","name":"Oberkirch, Stadt","type":"Große_Kreisstadt"},"district":{"key":"08317","name":"Ortenaukreis","type":"Landkreis"},"federalState":{"key":"08","name":"Baden-Württemberg"}},{"name":"Hesselbacher Allmend","postalCode":"77704","locality":"Oberkirch","municipality":{"key":"08317089","name":"Oberkirch, Stadt","type":"Große_Kreisstadt"},"district":{"key":"08317","name":"Ortenaukreis","type":"Landkreis"},"federalState":{"key":"08","name":"Baden-Württemberg"}},{"name":"Hesselbacher Str.","postalCode":"77704","locality":"Oberkirch","municipality":{"key":"08317089","name":"Oberkirch, Stadt","type":"Große_Kreisstadt"},"district":{"key":"08317","name":"Ortenaukreis","type":"Landkreis"},"federalState":{"key":"08","name":"Baden-Württemberg"}},{"name":"Hilsensteige","postalCode":"77704","locality":"Oberkirch","municipality":{"key":"08317089","name":"Oberkirch, Stadt","type":"Große_Kreisstadt"},"district":{"key":"08317","name":"Ortenaukreis","type":"Landkreis"},"federalState":{"key":"08","name":"Baden-Württemberg"}},{"name":"Hilsenstr.","postalCode":"77704","locality":"Oberkirch","municipality":{"key":"08317089","name":"Oberkirch, Stadt","type":"Große_Kreisstadt"},"district":{"key":"08317","name":"Ortenaukreis","type":"Landkreis"},"federalState":{"key":"08","name":"Baden-Württemberg"}},{"name":"Hindenburgstr.","postalCode":"77704","locality":"Oberkirch","municipality":{"key":"08317089","name":"Oberkirch, Stadt","type":"Große_Kreisstadt"},"district":{"key":"08317","name":"Ortenaukreis","type":"Landkreis"},"federalState":{"key":"08","name":"Baden-Württemberg"}},{"name":"Hohlbäumle","postalCode":"77704","locality":"Oberkirch","municipality":{"key":"08317089","name":"Oberkirch, Stadt","type":"Große_Kreisstadt"},"district":{"key":"08317","name":"Ortenaukreis","type":"Landkreis"},"federalState":{"key":"08","name":"Baden-Württemberg"}},{"name":"Hölderlinstr.","postalCode":"77704","locality":"Oberkirch","municipality":{"key":"08317089","name":"Oberkirch, Stadt","type":"Große_Kreisstadt"},"district":{"key":"08317","name":"Ortenaukreis","type":"Landkreis"},"federalState":{"key":"08","name":"Baden-Württemberg"}},{"name":"Holdersbündt","postalCode":"77704","locality":"Oberkirch","municipality":{"key":"08317089","name":"Oberkirch, Stadt","type":"Große_Kreisstadt"},"district":{"key":"08317","name":"Ortenaukreis","type":"Landkreis"},"federalState":{"key":"08","name":"Baden-Württemberg"}},{"name":"Höllstr.","postalCode":"77704","locality":"Oberkirch","municipality":{"key":"08317089","name":"Oberkirch, Stadt","type":"Große_Kreisstadt"},"district":{"key":"08317","name":"Ortenaukreis","type":"Landkreis"},"federalState":{"key":"08","name":"Baden-Württemberg"}},{"name":"Holzgasse","postalCode":"77704","locality":"Oberkirch","municipality":{"key":"08317089","name":"Oberkirch, Stadt","type":"Große_Kreisstadt"},"district":{"key":"08317","name":"Ortenaukreis","type":"Landkreis"},"federalState":{"key":"08","name":"Baden-Württemberg"}},{"name":"Hornisgrindestr.","postalCode":"77704","locality":"Oberkirch","municipality":{"key":"08317089","name":"Oberkirch, Stadt","type":"Große_Kreisstadt"},"district":{"key":"08317","name":"Ortenaukreis","type":"Landkreis"},"federalState":{"key":"08","name":"Baden-Württemberg"}},{"name":"Hornköpfleweg","postalCode":"77704","locality":"Oberkirch","municipality":{"key":"08317089","name":"Oberkirch, Stadt","type":"Große_Kreisstadt"},"district":{"key":"08317","name":"Ortenaukreis","type":"Landkreis"},"federalState":{"key":"08","name":"Baden-Württemberg"}},{"name":"Hubeneck","postalCode":"77704","locality":"Oberkirch","municipality":{"key":"08317089","name":"Oberkirch, Stadt","type":"Große_Kreisstadt"},"district":{"key":"08317","name":"Ortenaukreis","type":"Landkreis"},"federalState":{"key":"08","name":"Baden-Württemberg"}},{"name":"Hufeisenweg","postalCode":"77704","locality":"Oberkirch","municipality":{"key":"08317089","name":"Oberkirch, Stadt","type":"Große_Kreisstadt"},"district":{"key":"08317","name":"Ortenaukreis","type":"Landkreis"},"federalState":{"key":"08","name":"Baden-Württemberg"}},{"name":"Hundrieweg","postalCode":"77704","locality":"Oberkirch","municipality":{"key":"08317089","name":"Oberkirch, Stadt","type":"Große_Kreisstadt"},"district":{"key":"08317","name":"Ortenaukreis","type":"Landkreis"},"federalState":{"key":"08","name":"Baden-Württemberg"}},{"name":"Hungerbergweg","postalCode":"77704","locality":"Oberkirch","municipality":{"key":"08317089","name":"Oberkirch, Stadt","type":"Große_Kreisstadt"},"district":{"key":"08317","name":"Ortenaukreis","type":"Landkreis"},"federalState":{"key":"08","name":"Baden-Württemberg"}},{"name":"Im Biegert","postalCode":"77704","locality":"Oberkirch","municipality":{"key":"08317089","name":"Oberkirch, Stadt","type":"Große_Kreisstadt"},"district":{"key":"08317","name":"Ortenaukreis","type":"Landkreis"},"federalState":{"key":"08","name":"Baden-Württemberg"}},{"name":"Im Bosch","postalCode":"77704","locality":"Oberkirch","municipality":{"key":"08317089","name":"Oberkirch, Stadt","type":"Große_Kreisstadt"},"district":{"key":"08317","name":"Ortenaukreis","type":"Landkreis"},"federalState":{"key":"08","name":"Baden-Württemberg"}},{"name":"Im Erblehen","postalCode":"77704","locality":"Oberkirch","municipality":{"key":"08317089","name":"Oberkirch, Stadt","type":"Große_Kreisstadt"},"district":{"key":"08317","name":"Ortenaukreis","type":"Landkreis"},"federalState":{"key":"08","name":"Baden-Württemberg"}},{"name":"Im Neubruch","postalCode":"77704","locality":"Oberkirch","municipality":{"key":"08317089","name":"Oberkirch, Stadt","type":"Große_Kreisstadt"},"district":{"key":"08317","name":"Ortenaukreis","type":"Landkreis"},"federalState":{"key":"08","name":"Baden-Württemberg"}},{"name":"Im Rosenhag","postalCode":"77704","locality":"Oberkirch","municipality":{"key":"08317089","name":"Oberkirch, Stadt","type":"Große_Kreisstadt"},"district":{"key":"08317","name":"Ortenaukreis","type":"Landkreis"},"federalState":{"key":"08","name":"Baden-Württemberg"}},{"name":"Im Schwarzgrund","postalCode":"77704","locality":"Oberkirch","municipality":{"key":"08317089","name":"Oberkirch, Stadt","type":"Große_Kreisstadt"},"district":{"key":"08317","name":"Ortenaukreis","type":"Landkreis"},"federalState":{"key":"08","name":"Baden-Württemberg"}},{"name":"In der Au","postalCode":"77704","locality":"Oberkirch","municipality":{"key":"08317089","name":"Oberkirch, Stadt","type":"Große_Kreisstadt"},"district":{"key":"08317","name":"Ortenaukreis","type":"Landkreis"},"federalState":{"key":"08","name":"Baden-Württemberg"}},{"name":"In der Blumenau","postalCode":"77704","locality":"Oberkirch","municipality":{"key":"08317089","name":"Oberkirch, Stadt","type":"Große_Kreisstadt"},"district":{"key":"08317","name":"Ortenaukreis","type":"Landkreis"},"federalState":{"key":"08","name":"Baden-Württemberg"}},{"name":"In der Höll","postalCode":"77704","locality":"Oberkirch","municipality":{"key":"08317089","name":"Oberkirch, Stadt","type":"Große_Kreisstadt"},"district":{"key":"08317","name":"Ortenaukreis","type":"Landkreis"},"federalState":{"key":"08","name":"Baden-Württemberg"}},{"name":"In der Marienau","postalCode":"77704","locality":"Oberkirch","municipality":{"key":"08317089","name":"Oberkirch, Stadt","type":"Große_Kreisstadt"},"district":{"key":"08317","name":"Ortenaukreis","type":"Landkreis"},"federalState":{"key":"08","name":"Baden-Württemberg"}},{"name":"Industriestr.","postalCode":"77704","locality":"Oberkirch","municipality":{"key":"08317089","name":"Oberkirch, Stadt","type":"Große_Kreisstadt"},"district":{"key":"08317","name":"Ortenaukreis","type":"Landkreis"},"federalState":{"key":"08","name":"Baden-Württemberg"}},{"name":"Inselbadweg","postalCode":"77704","locality":"Oberkirch","municipality":{"key":"08317089","name":"Oberkirch, Stadt","type":"Große_Kreisstadt"},"district":{"key":"08317","name":"Ortenaukreis","type":"Landkreis"},"federalState":{"key":"08","name":"Baden-Württemberg"}},{"name":"Jörgenweg","postalCode":"77704","locality":"Oberkirch","municipality":{"key":"08317089","name":"Oberkirch, Stadt","type":"Große_Kreisstadt"},"district":{"key":"08317","name":"Ortenaukreis","type":"Landkreis"},"federalState":{"key":"08","name":"Baden-Württemberg"}},{"name":"Jörg-v.-Schauenburg-Str.","postalCode":"77704","locality":"Oberkirch","municipality":{"key":"08317089","name":"Oberkirch, Stadt","type":"Große_Kreisstadt"},"district":{"key":"08317","name":"Ortenaukreis","type":"Landkreis"},"federalState":{"key":"08","name":"Baden-Württemberg"}},{"name":"Josef-Christ-Str.","postalCode":"77704","locality":"Oberkirch","municipality":{"key":"08317089","name":"Oberkirch, Stadt","type":"Große_Kreisstadt"},"district":{"key":"08317","name":"Ortenaukreis","type":"Landkreis"},"federalState":{"key":"08","name":"Baden-Württemberg"}},{"name":"Josef-Geldreich-Str.","postalCode":"77704","locality":"Oberkirch","municipality":{"key":"08317089","name":"Oberkirch, Stadt","type":"Große_Kreisstadt"},"district":{"key":"08317","name":"Ortenaukreis","type":"Landkreis"},"federalState":{"key":"08","name":"Baden-Württemberg"}},{"name":"Josefsgasse","postalCode":"77704","locality":"Oberkirch","municipality":{"key":"08317089","name":"Oberkirch, Stadt","type":"Große_Kreisstadt"},"district":{"key":"08317","name":"Ortenaukreis","type":"Landkreis"},"federalState":{"key":"08","name":"Baden-Württemberg"}},{"name":"Kapuzinergasse","postalCode":"77704","locality":"Oberkirch","municipality":{"key":"08317089","name":"Oberkirch, Stadt","type":"Große_Kreisstadt"},"district":{"key":"08317","name":"Ortenaukreis","type":"Landkreis"},"federalState":{"key":"08","name":"Baden-Württemberg"}},{"name":"Kastelberg","postalCode":"77704","locality":"Oberkirch","municipality":{"key":"08317089","name":"Oberkirch, Stadt","type":"Große_Kreisstadt"},"district":{"key":"08317","name":"Ortenaukreis","type":"Landkreis"},"federalState":{"key":"08","name":"Baden-Württemberg"}},{"name":"Kernenhofstr.","postalCode":"77704","locality":"Oberkirch","municipality":{"key":"08317089","name":"Oberkirch, Stadt","type":"Große_Kreisstadt"},"district":{"key":"08317","name":"Ortenaukreis","type":"Landkreis"},"federalState":{"key":"08","name":"Baden-Württemberg"}},{"name":"Kirchhofweg","postalCode":"77704","locality":"Oberkirch","municipality":{"key":"08317089","name":"Oberkirch, Stadt","type":"Große_Kreisstadt"},"district":{"key":"08317","name":"Ortenaukreis","type":"Landkreis"},"federalState":{"key":"08","name":"Baden-Württemberg"}},{"name":"Kirchplatz","postalCode":"77704","locality":"Oberkirch","municipality":{"key":"08317089","name":"Oberkirch, Stadt","type":"Große_Kreisstadt"},"district":{"key":"08317","name":"Ortenaukreis","type":"Landkreis"},"federalState":{"key":"08","name":"Baden-Württemberg"}},{"name":"Kirchstr.","postalCode":"77704","locality":"Oberkirch","municipality":{"key":"08317089","name":"Oberkirch, Stadt","type":"Große_Kreisstadt"},"district":{"key":"08317","name":"Ortenaukreis","type":"Landkreis"},"federalState":{"key":"08","name":"Baden-Württemberg"}},{"name":"Kirchweg","postalCode":"77704","locality":"Oberkirch","municipality":{"key":"08317089","name":"Oberkirch, Stadt","type":"Große_Kreisstadt"},"district":{"key":"08317","name":"Ortenaukreis","type":"Landkreis"},"federalState":{"key":"08","name":"Baden-Württemberg"}},{"name":"Klingelbergweg","postalCode":"77704","locality":"Oberkirch","municipality":{"key":"08317089","name":"Oberkirch, Stadt","type":"Große_Kreisstadt"},"district":{"key":"08317","name":"Ortenaukreis","type":"Landkreis"},"federalState":{"key":"08","name":"Baden-Württemberg"}},{"name":"Kniebisstr.","postalCode":"77704","locality":"Oberkirch","municipality":{"key":"08317089","name":"Oberkirch, Stadt","type":"Große_Kreisstadt"},"district":{"key":"08317","name":"Ortenaukreis","type":"Landkreis"},"federalState":{"key":"08","name":"Baden-Württemberg"}},{"name":"Köhler-Siedlung","postalCode":"77704","locality":"Oberkirch","municipality":{"key":"08317089","name":"Oberkirch, Stadt","type":"Große_Kreisstadt"},"district":{"key":"08317","name":"Ortenaukreis","type":"Landkreis"},"federalState":{"key":"08","name":"Baden-Württemberg"}},{"name":"Königsgasse","postalCode":"77704","locality":"Oberkirch","municipality":{"key":"08317089","name":"Oberkirch, Stadt","type":"Große_Kreisstadt"},"district":{"key":"08317","name":"Ortenaukreis","type":"Landkreis"},"federalState":{"key":"08","name":"Baden-Württemberg"}},{"name":"Konrad-Adenauer-Str.","postalCode":"77704","locality":"Oberkirch","municipality":{"key":"08317089","name":"Oberkirch, Stadt","type":"Große_Kreisstadt"},"district":{"key":"08317","name":"Ortenaukreis","type":"Landkreis"},"federalState":{"key":"08","name":"Baden-Württemberg"}},{"name":"Korberg","postalCode":"77704","locality":"Oberkirch","municipality":{"key":"08317089","name":"Oberkirch, Stadt","type":"Große_Kreisstadt"},"district":{"key":"08317","name":"Ortenaukreis","type":"Landkreis"},"federalState":{"key":"08","name":"Baden-Württemberg"}},{"name":"Korberger Matt","postalCode":"77704","locality":"Oberkirch","municipality":{"key":"08317089","name":"Oberkirch, Stadt","type":"Große_Kreisstadt"},"district":{"key":"08317","name":"Ortenaukreis","type":"Landkreis"},"federalState":{"key":"08","name":"Baden-Württemberg"}},{"name":"Kranzweg","postalCode":"77704","locality":"Oberkirch","municipality":{"key":"08317089","name":"Oberkirch, Stadt","type":"Große_Kreisstadt"},"district":{"key":"08317","name":"Ortenaukreis","type":"Landkreis"},"federalState":{"key":"08","name":"Baden-Württemberg"}},{"name":"Krautschollenweg","postalCode":"77704","locality":"Oberkirch","municipality":{"key":"08317089","name":"Oberkirch, Stadt","type":"Große_Kreisstadt"},"district":{"key":"08317","name":"Ortenaukreis","type":"Landkreis"},"federalState":{"key":"08","name":"Baden-Württemberg"}},{"name":"Krongutstr.","postalCode":"77704","locality":"Oberkirch","municipality":{"key":"08317089","name":"Oberkirch, Stadt","type":"Große_Kreisstadt"},"district":{"key":"08317","name":"Ortenaukreis","type":"Landkreis"},"federalState":{"key":"08","name":"Baden-Württemberg"}},{"name":"Landstr.","postalCode":"77704","locality":"Oberkirch","municipality":{"key":"08317089","name":"Oberkirch, Stadt","type":"Große_Kreisstadt"},"district":{"key":"08317","name":"Ortenaukreis","type":"Landkreis"},"federalState":{"key":"08","name":"Baden-Württemberg"}},{"name":"Langbühndweg","postalCode":"77704","locality":"Oberkirch","municipality":{"key":"08317089","name":"Oberkirch, Stadt","type":"Große_Kreisstadt"},"district":{"key":"08317","name":"Ortenaukreis","type":"Landkreis"},"federalState":{"key":"08","name":"Baden-Württemberg"}},{"name":"Lange Tauen","postalCode":"77704","locality":"Oberkirch","municipality":{"key":"08317089","name":"Oberkirch, Stadt","type":"Große_Kreisstadt"},"district":{"key":"08317","name":"Ortenaukreis","type":"Landkreis"},"federalState":{"key":"08","name":"Baden-Württemberg"}},{"name":"Langgässle","postalCode":"77704","locality":"Oberkirch","municipality":{"key":"08317089","name":"Oberkirch, Stadt","type":"Große_Kreisstadt"},"district":{"key":"08317","name":"Ortenaukreis","type":"Landkreis"},"federalState":{"key":"08","name":"Baden-Württemberg"}},{"name":"Lautenbacher Str.","postalCode":"77704","locality":"Oberkirch","municipality":{"key":"08317089","name":"Oberkirch, Stadt","type":"Große_Kreisstadt"},"district":{"key":"08317","name":"Ortenaukreis","type":"Landkreis"},"federalState":{"key":"08","name":"Baden-Württemberg"}},{"name":"Lindengasse","postalCode":"77704","locality":"Oberkirch","municipality":{"key":"08317089","name":"Oberkirch, Stadt","type":"Große_Kreisstadt"},"district":{"key":"08317","name":"Ortenaukreis","type":"Landkreis"},"federalState":{"key":"08","name":"Baden-Württemberg"}},{"name":"Lindenplatz","postalCode":"77704","locality":"Oberkirch","municipality":{"key":"08317089","name":"Oberkirch, Stadt","type":"Große_Kreisstadt"},"district":{"key":"08317","name":"Ortenaukreis","type":"Landkreis"},"federalState":{"key":"08","name":"Baden-Württemberg"}},{"name":"Lindenstr.","postalCode":"77704","locality":"Oberkirch","municipality":{"key":"08317089","name":"Oberkirch, Stadt","type":"Große_Kreisstadt"},"district":{"key":"08317","name":"Ortenaukreis","type":"Landkreis"},"federalState":{"key":"08","name":"Baden-Württemberg"}},{"name":"Lohmühlweg","postalCode":"77704","locality":"Oberkirch","municipality":{"key":"08317089","name":"Oberkirch, Stadt","type":"Große_Kreisstadt"},"district":{"key":"08317","name":"Ortenaukreis","type":"Landkreis"},"federalState":{"key":"08","name":"Baden-Württemberg"}},{"name":"Lohstr.","postalCode":"77704","locality":"Oberkirch","municipality":{"key":"08317089","name":"Oberkirch, Stadt","type":"Große_Kreisstadt"},"district":{"key":"08317","name":"Ortenaukreis","type":"Landkreis"},"federalState":{"key":"08","name":"Baden-Württemberg"}},{"name":"Löwengasse","postalCode":"77704","locality":"Oberkirch","municipality":{"key":"08317089","name":"Oberkirch, Stadt","type":"Große_Kreisstadt"},"district":{"key":"08317","name":"Ortenaukreis","type":"Landkreis"},"federalState":{"key":"08","name":"Baden-Württemberg"}},{"name":"Ludwig-Albert-Str.","postalCode":"77704","locality":"Oberkirch","municipality":{"key":"08317089","name":"Oberkirch, Stadt","type":"Große_Kreisstadt"},"district":{"key":"08317","name":"Ortenaukreis","type":"Landkreis"},"federalState":{"key":"08","name":"Baden-Württemberg"}},{"name":"Ludwigstr.","postalCode":"77704","locality":"Oberkirch","municipality":{"key":"08317089","name":"Oberkirch, Stadt","type":"Große_Kreisstadt"},"district":{"key":"08317","name":"Ortenaukreis","type":"Landkreis"},"federalState":{"key":"08","name":"Baden-Württemberg"}},{"name":"Luise-Stoll-Str.","postalCode":"77704","locality":"Oberkirch","municipality":{"key":"08317089","name":"Oberkirch, Stadt","type":"Große_Kreisstadt"},"district":{"key":"08317","name":"Ortenaukreis","type":"Landkreis"},"federalState":{"key":"08","name":"Baden-Württemberg"}},{"name":"Lußweg","postalCode":"77704","locality":"Oberkirch","municipality":{"key":"08317089","name":"Oberkirch, Stadt","type":"Große_Kreisstadt"},"district":{"key":"08317","name":"Ortenaukreis","type":"Landkreis"},"federalState":{"key":"08","name":"Baden-Württemberg"}},{"name":"Maienbachweg","postalCode":"77704","locality":"Oberkirch","municipality":{"key":"08317089","name":"Oberkirch, Stadt","type":"Große_Kreisstadt"},"district":{"key":"08317","name":"Ortenaukreis","type":"Landkreis"},"federalState":{"key":"08","name":"Baden-Württemberg"}},{"name":"Maienstr.","postalCode":"77704","locality":"Oberkirch","municipality":{"key":"08317089","name":"Oberkirch, Stadt","type":"Große_Kreisstadt"},"district":{"key":"08317","name":"Ortenaukreis","type":"Landkreis"},"federalState":{"key":"08","name":"Baden-Württemberg"}},{"name":"Maiwaldsiedlung","postalCode":"77855","locality":"Oberkirch","municipality":{"key":"08317089","name":"Oberkirch, Stadt","type":"Große_Kreisstadt"},"district":{"key":"08317","name":"Ortenaukreis","type":"Landkreis"},"federalState":{"key":"08","name":"Baden-Württemberg"}},{"name":"Maiwaldstr.","postalCode":"77855","locality":"Oberkirch","municipality":{"key":"08317089","name":"Oberkirch, Stadt","type":"Große_Kreisstadt"},"district":{"key":"08317","name":"Ortenaukreis","type":"Landkreis"},"federalState":{"key":"08","name":"Baden-Württemberg"}},{"name":"Malergasse","postalCode":"77704","locality":"Oberkirch","municipality":{"key":"08317089","name":"Oberkirch, Stadt","type":"Große_Kreisstadt"},"district":{"key":"08317","name":"Ortenaukreis","type":"Landkreis"},"federalState":{"key":"08","name":"Baden-Württemberg"}},{"name":"Martin-Luther-Str.","postalCode":"77704","locality":"Oberkirch","municipality":{"key":"08317089","name":"Oberkirch, Stadt","type":"Große_Kreisstadt"},"district":{"key":"08317","name":"Ortenaukreis","type":"Landkreis"},"federalState":{"key":"08","name":"Baden-Württemberg"}},{"name":"Mattenweg","postalCode":"77704","locality":"Oberkirch","municipality":{"key":"08317089","name":"Oberkirch, Stadt","type":"Große_Kreisstadt"},"district":{"key":"08317","name":"Ortenaukreis","type":"Landkreis"},"federalState":{"key":"08","name":"Baden-Württemberg"}},{"name":"Matthias-Erzberger-Brücke","postalCode":"77704","locality":"Oberkirch","municipality":{"key":"08317089","name":"Oberkirch, Stadt","type":"Große_Kreisstadt"},"district":{"key":"08317","name":"Ortenaukreis","type":"Landkreis"},"federalState":{"key":"08","name":"Baden-Württemberg"}},{"name":"Max-Ruh-Str.","postalCode":"77704","locality":"Oberkirch","municipality":{"key":"08317089","name":"Oberkirch, Stadt","type":"Große_Kreisstadt"},"district":{"key":"08317","name":"Ortenaukreis","type":"Landkreis"},"federalState":{"key":"08","name":"Baden-Württemberg"}},{"name":"Meisenbühl","postalCode":"77704","locality":"Oberkirch","municipality":{"key":"08317089","name":"Oberkirch, Stadt","type":"Große_Kreisstadt"},"district":{"key":"08317","name":"Ortenaukreis","type":"Landkreis"},"federalState":{"key":"08","name":"Baden-Württemberg"}},{"name":"Metzgerstr.","postalCode":"77704","locality":"Oberkirch","municipality":{"key":"08317089","name":"Oberkirch, Stadt","type":"Große_Kreisstadt"},"district":{"key":"08317","name":"Ortenaukreis","type":"Landkreis"},"federalState":{"key":"08","name":"Baden-Württemberg"}},{"name":"Mönchsmatten","postalCode":"77704","locality":"Oberkirch","municipality":{"key":"08317089","name":"Oberkirch, Stadt","type":"Große_Kreisstadt"},"district":{"key":"08317","name":"Ortenaukreis","type":"Landkreis"},"federalState":{"key":"08","name":"Baden-Württemberg"}},{"name":"Moosturmweg","postalCode":"77704","locality":"Oberkirch","municipality":{"key":"08317089","name":"Oberkirch, Stadt","type":"Große_Kreisstadt"},"district":{"key":"08317","name":"Ortenaukreis","type":"Landkreis"},"federalState":{"key":"08","name":"Baden-Württemberg"}},{"name":"Mörikeweg","postalCode":"77704","locality":"Oberkirch","municipality":{"key":"08317089","name":"Oberkirch, Stadt","type":"Große_Kreisstadt"},"district":{"key":"08317","name":"Ortenaukreis","type":"Landkreis"},"federalState":{"key":"08","name":"Baden-Württemberg"}},{"name":"Moscheroschweg","postalCode":"77704","locality":"Oberkirch","municipality":{"key":"08317089","name":"Oberkirch, Stadt","type":"Große_Kreisstadt"},"district":{"key":"08317","name":"Ortenaukreis","type":"Landkreis"},"federalState":{"key":"08","name":"Baden-Württemberg"}},{"name":"Mozartstr.","postalCode":"77704","locality":"Oberkirch","municipality":{"key":"08317089","name":"Oberkirch, Stadt","type":"Große_Kreisstadt"},"district":{"key":"08317","name":"Ortenaukreis","type":"Landkreis"},"federalState":{"key":"08","name":"Baden-Württemberg"}},{"name":"Mühlgasse","postalCode":"77704","locality":"Oberkirch","municipality":{"key":"08317089","name":"Oberkirch, Stadt","type":"Große_Kreisstadt"},"district":{"key":"08317","name":"Ortenaukreis","type":"Landkreis"},"federalState":{"key":"08","name":"Baden-Württemberg"}},{"name":"Muhrgassbühnd","postalCode":"77704","locality":"Oberkirch","municipality":{"key":"08317089","name":"Oberkirch, Stadt","type":"Große_Kreisstadt"},"district":{"key":"08317","name":"Ortenaukreis","type":"Landkreis"},"federalState":{"key":"08","name":"Baden-Württemberg"}},{"name":"Müllener Schleuse","postalCode":"77704","locality":"Oberkirch","municipality":{"key":"08317089","name":"Oberkirch, Stadt","type":"Große_Kreisstadt"},"district":{"key":"08317","name":"Ortenaukreis","type":"Landkreis"},"federalState":{"key":"08","name":"Baden-Württemberg"}},{"name":"Müllener Str.","postalCode":"77704","locality":"Oberkirch","municipality":{"key":"08317089","name":"Oberkirch, Stadt","type":"Große_Kreisstadt"},"district":{"key":"08317","name":"Ortenaukreis","type":"Landkreis"},"federalState":{"key":"08","name":"Baden-Württemberg"}},{"name":"Nachtweid","postalCode":"77704","locality":"Oberkirch","municipality":{"key":"08317089","name":"Oberkirch, Stadt","type":"Große_Kreisstadt"},"district":{"key":"08317","name":"Ortenaukreis","type":"Landkreis"},"federalState":{"key":"08","name":"Baden-Württemberg"}},{"name":"Nesselrieder Str.","postalCode":"77704","locality":"Oberkirch","municipality":{"key":"08317089","name":"Oberkirch, Stadt","type":"Große_Kreisstadt"},"district":{"key":"08317","name":"Ortenaukreis","type":"Landkreis"},"federalState":{"key":"08","name":"Baden-Württemberg"}},{"name":"Neuberg","postalCode":"77704","locality":"Oberkirch","municipality":{"key":"08317089","name":"Oberkirch, Stadt","type":"Große_Kreisstadt"},"district":{"key":"08317","name":"Ortenaukreis","type":"Landkreis"},"federalState":{"key":"08","name":"Baden-Württemberg"}},{"name":"Neumatt","postalCode":"77704","locality":"Oberkirch","municipality":{"key":"08317089","name":"Oberkirch, Stadt","type":"Große_Kreisstadt"},"district":{"key":"08317","name":"Ortenaukreis","type":"Landkreis"},"federalState":{"key":"08","name":"Baden-Württemberg"}},{"name":"Niederlehen","postalCode":"77704","locality":"Oberkirch","municipality":{"key":"08317089","name":"Oberkirch, Stadt","type":"Große_Kreisstadt"},"district":{"key":"08317","name":"Ortenaukreis","type":"Landkreis"},"federalState":{"key":"08","name":"Baden-Württemberg"}},{"name":"Nordring","postalCode":"77704","locality":"Oberkirch","municipality":{"key":"08317089","name":"Oberkirch, Stadt","type":"Große_Kreisstadt"},"district":{"key":"08317","name":"Ortenaukreis","type":"Landkreis"},"federalState":{"key":"08","name":"Baden-Württemberg"}},{"name":"Nußbacher Str.","postalCode":"77704","locality":"Oberkirch","municipality":{"key":"08317089","name":"Oberkirch, Stadt","type":"Große_Kreisstadt"},"district":{"key":"08317","name":"Ortenaukreis","type":"Landkreis"},"federalState":{"key":"08","name":"Baden-Württemberg"}},{"name":"Oberdorfstr.","postalCode":"77704","locality":"Oberkirch","municipality":{"key":"08317089","name":"Oberkirch, Stadt","type":"Große_Kreisstadt"},"district":{"key":"08317","name":"Ortenaukreis","type":"Landkreis"},"federalState":{"key":"08","name":"Baden-Württemberg"}},{"name":"Obere Alm","postalCode":"77704","locality":"Oberkirch","municipality":{"key":"08317089","name":"Oberkirch, Stadt","type":"Große_Kreisstadt"},"district":{"key":"08317","name":"Ortenaukreis","type":"Landkreis"},"federalState":{"key":"08","name":"Baden-Württemberg"}},{"name":"Obere Grendelstr.","postalCode":"77704","locality":"Oberkirch","municipality":{"key":"08317089","name":"Oberkirch, Stadt","type":"Große_Kreisstadt"},"district":{"key":"08317","name":"Ortenaukreis","type":"Landkreis"},"federalState":{"key":"08","name":"Baden-Württemberg"}},{"name":"Obere Hilsengasse","postalCode":"77704","locality":"Oberkirch","municipality":{"key":"08317089","name":"Oberkirch, Stadt","type":"Große_Kreisstadt"},"district":{"key":"08317","name":"Ortenaukreis","type":"Landkreis"},"federalState":{"key":"08","name":"Baden-Württemberg"}},{"name":"Obere Höhe","postalCode":"77704","locality":"Oberkirch","municipality":{"key":"08317089","name":"Oberkirch, Stadt","type":"Große_Kreisstadt"},"district":{"key":"08317","name":"Ortenaukreis","type":"Landkreis"},"federalState":{"key":"08","name":"Baden-Württemberg"}},{"name":"Oberer Buchwaldweg","postalCode":"77876","locality":"Oberkirch","municipality":{"key":"08317089","name":"Oberkirch, Stadt","type":"Große_Kreisstadt"},"district":{"key":"08317","name":"Ortenaukreis","type":"Landkreis"},"federalState":{"key":"08","name":"Baden-Württemberg"}},{"name":"Offenburger Weg","postalCode":"77704","locality":"Oberkirch","municipality":{"key":"08317089","name":"Oberkirch, Stadt","type":"Große_Kreisstadt"},"district":{"key":"08317","name":"Ortenaukreis","type":"Landkreis"},"federalState":{"key":"08","name":"Baden-Württemberg"}},{"name":"Ortenaustr.","postalCode":"77704","locality":"Oberkirch","municipality":{"key":"08317089","name":"Oberkirch, Stadt","type":"Große_Kreisstadt"},"district":{"key":"08317","name":"Ortenaukreis","type":"Landkreis"},"federalState":{"key":"08","name":"Baden-Württemberg"}},{"name":"Ortsstr.","postalCode":"77704","locality":"Oberkirch","municipality":{"key":"08317089","name":"Oberkirch, Stadt","type":"Große_Kreisstadt"},"district":{"key":"08317","name":"Ortenaukreis","type":"Landkreis"},"federalState":{"key":"08","name":"Baden-Württemberg"}},{"name":"Otto-Flake-Str.","postalCode":"77704","locality":"Oberkirch","municipality":{"key":"08317089","name":"Oberkirch, Stadt","type":"Große_Kreisstadt"},"district":{"key":"08317","name":"Ortenaukreis","type":"Landkreis"},"federalState":{"key":"08","name":"Baden-Württemberg"}},{"name":"Otto-Mangold-Str.","postalCode":"77704","locality":"Oberkirch","municipality":{"key":"08317089","name":"Oberkirch, Stadt","type":"Große_Kreisstadt"},"district":{"key":"08317","name":"Ortenaukreis","type":"Landkreis"},"federalState":{"key":"08","name":"Baden-Württemberg"}},{"name":"Paradiesweg","postalCode":"77704","locality":"Oberkirch","municipality":{"key":"08317089","name":"Oberkirch, Stadt","type":"Große_Kreisstadt"},"district":{"key":"08317","name":"Ortenaukreis","type":"Landkreis"},"federalState":{"key":"08","name":"Baden-Württemberg"}},{"name":"Pflugstr.","postalCode":"77704","locality":"Oberkirch","municipality":{"key":"08317089","name":"Oberkirch, Stadt","type":"Große_Kreisstadt"},"district":{"key":"08317","name":"Ortenaukreis","type":"Landkreis"},"federalState":{"key":"08","name":"Baden-Württemberg"}},{"name":"Probstbuehndstr.","postalCode":"77704","locality":"Oberkirch","municipality":{"key":"08317089","name":"Oberkirch, Stadt","type":"Große_Kreisstadt"},"district":{"key":"08317","name":"Ortenaukreis","type":"Landkreis"},"federalState":{"key":"08","name":"Baden-Württemberg"}},{"name":"Probstbühndstr.","postalCode":"77704","locality":"Oberkirch","municipality":{"key":"08317089","name":"Oberkirch, Stadt","type":"Große_Kreisstadt"},"district":{"key":"08317","name":"Ortenaukreis","type":"Landkreis"},"federalState":{"key":"08","name":"Baden-Württemberg"}},{"name":"Querstr.","postalCode":"77704","locality":"Oberkirch","municipality":{"key":"08317089","name":"Oberkirch, Stadt","type":"Große_Kreisstadt"},"district":{"key":"08317","name":"Ortenaukreis","type":"Landkreis"},"federalState":{"key":"08","name":"Baden-Württemberg"}},{"name":"Raiffeisenstr.","postalCode":"77704","locality":"Oberkirch","municipality":{"key":"08317089","name":"Oberkirch, Stadt","type":"Große_Kreisstadt"},"district":{"key":"08317","name":"Ortenaukreis","type":"Landkreis"},"federalState":{"key":"08","name":"Baden-Württemberg"}},{"name":"Rainstr.","postalCode":"77704","locality":"Oberkirch","municipality":{"key":"08317089","name":"Oberkirch, Stadt","type":"Große_Kreisstadt"},"district":{"key":"08317","name":"Ortenaukreis","type":"Landkreis"},"federalState":{"key":"08","name":"Baden-Württemberg"}},{"name":"Rebbergweg","postalCode":"77704","locality":"Oberkirch","municipality":{"key":"08317089","name":"Oberkirch, Stadt","type":"Große_Kreisstadt"},"district":{"key":"08317","name":"Ortenaukreis","type":"Landkreis"},"federalState":{"key":"08","name":"Baden-Württemberg"}},{"name":"Reinhold-Schneider-Weg","postalCode":"77704","locality":"Oberkirch","municipality":{"key":"08317089","name":"Oberkirch, Stadt","type":"Große_Kreisstadt"},"district":{"key":"08317","name":"Ortenaukreis","type":"Landkreis"},"federalState":{"key":"08","name":"Baden-Württemberg"}},{"name":"Renchallee","postalCode":"77704","locality":"Oberkirch","municipality":{"key":"08317089","name":"Oberkirch, Stadt","type":"Große_Kreisstadt"},"district":{"key":"08317","name":"Ortenaukreis","type":"Landkreis"},"federalState":{"key":"08","name":"Baden-Württemberg"}},{"name":"Renchdamm","postalCode":"77704","locality":"Oberkirch","municipality":{"key":"08317089","name":"Oberkirch, Stadt","type":"Große_Kreisstadt"},"district":{"key":"08317","name":"Ortenaukreis","type":"Landkreis"},"federalState":{"key":"08","name":"Baden-Württemberg"}},{"name":"Renchener Str.","postalCode":"77704","locality":"Oberkirch","municipality":{"key":"08317089","name":"Oberkirch, Stadt","type":"Große_Kreisstadt"},"district":{"key":"08317","name":"Ortenaukreis","type":"Landkreis"},"federalState":{"key":"08","name":"Baden-Württemberg"}},{"name":"Renchstr.","postalCode":"77704","locality":"Oberkirch","municipality":{"key":"08317089","name":"Oberkirch, Stadt","type":"Große_Kreisstadt"},"district":{"key":"08317","name":"Ortenaukreis","type":"Landkreis"},"federalState":{"key":"08","name":"Baden-Württemberg"}},{"name":"Renchtalpassage","postalCode":"77704","locality":"Oberkirch","municipality":{"key":"08317089","name":"Oberkirch, Stadt","type":"Große_Kreisstadt"},"district":{"key":"08317","name":"Ortenaukreis","type":"Landkreis"},"federalState":{"key":"08","name":"Baden-Württemberg"}},{"name":"Renchtalstr.","postalCode":"77704","locality":"Oberkirch","municipality":{"key":"08317089","name":"Oberkirch, Stadt","type":"Große_Kreisstadt"},"district":{"key":"08317","name":"Ortenaukreis","type":"Landkreis"},"federalState":{"key":"08","name":"Baden-Württemberg"}},{"name":"Rheinstr.","postalCode":"77704","locality":"Oberkirch","municipality":{"key":"08317089","name":"Oberkirch, Stadt","type":"Große_Kreisstadt"},"district":{"key":"08317","name":"Ortenaukreis","type":"Landkreis"},"federalState":{"key":"08","name":"Baden-Württemberg"}},{"name":"Richard-Wagner-Str.","postalCode":"77704","locality":"Oberkirch","municipality":{"key":"08317089","name":"Oberkirch, Stadt","type":"Große_Kreisstadt"},"district":{"key":"08317","name":"Ortenaukreis","type":"Landkreis"},"federalState":{"key":"08","name":"Baden-Württemberg"}},{"name":"Ringelbacher Str.","postalCode":"77704","locality":"Oberkirch","municipality":{"key":"08317089","name":"Oberkirch, Stadt","type":"Große_Kreisstadt"},"district":{"key":"08317","name":"Ortenaukreis","type":"Landkreis"},"federalState":{"key":"08","name":"Baden-Württemberg"}},{"name":"Ringstr.","postalCode":"77704","locality":"Oberkirch","municipality":{"key":"08317089","name":"Oberkirch, Stadt","type":"Große_Kreisstadt"},"district":{"key":"08317","name":"Ortenaukreis","type":"Landkreis"},"federalState":{"key":"08","name":"Baden-Württemberg"}},{"name":"Robert-Schuman-Str.","postalCode":"77704","locality":"Oberkirch","municipality":{"key":"08317089","name":"Oberkirch, Stadt","type":"Große_Kreisstadt"},"district":{"key":"08317","name":"Ortenaukreis","type":"Landkreis"},"federalState":{"key":"08","name":"Baden-Württemberg"}},{"name":"Rödermattstr.","postalCode":"77704","locality":"Oberkirch","municipality":{"key":"08317089","name":"Oberkirch, Stadt","type":"Große_Kreisstadt"},"district":{"key":"08317","name":"Ortenaukreis","type":"Landkreis"},"federalState":{"key":"08","name":"Baden-Württemberg"}},{"name":"Rohrbach","postalCode":"77704","locality":"Oberkirch","municipality":{"key":"08317089","name":"Oberkirch, Stadt","type":"Große_Kreisstadt"},"district":{"key":"08317","name":"Ortenaukreis","type":"Landkreis"},"federalState":{"key":"08","name":"Baden-Württemberg"}},{"name":"Sankt Josefstr.","postalCode":"77704","locality":"Oberkirch","municipality":{"key":"08317089","name":"Oberkirch, Stadt","type":"Große_Kreisstadt"},"district":{"key":"08317","name":"Ortenaukreis","type":"Landkreis"},"federalState":{"key":"08","name":"Baden-Württemberg"}},{"name":"Sausteg","postalCode":"77704","locality":"Oberkirch","municipality":{"key":"08317089","name":"Oberkirch, Stadt","type":"Große_Kreisstadt"},"district":{"key":"08317","name":"Ortenaukreis","type":"Landkreis"},"federalState":{"key":"08","name":"Baden-Württemberg"}},{"name":"Schauenburgstr.","postalCode":"77704","locality":"Oberkirch","municipality":{"key":"08317089","name":"Oberkirch, Stadt","type":"Große_Kreisstadt"},"district":{"key":"08317","name":"Ortenaukreis","type":"Landkreis"},"federalState":{"key":"08","name":"Baden-Württemberg"}},{"name":"Scheffelstr.","postalCode":"77704","locality":"Oberkirch","municipality":{"key":"08317089","name":"Oberkirch, Stadt","type":"Große_Kreisstadt"},"district":{"key":"08317","name":"Ortenaukreis","type":"Landkreis"},"federalState":{"key":"08","name":"Baden-Württemberg"}},{"name":"Schelzbergstr.","postalCode":"77704","locality":"Oberkirch","municipality":{"key":"08317089","name":"Oberkirch, Stadt","type":"Große_Kreisstadt"},"district":{"key":"08317","name":"Ortenaukreis","type":"Landkreis"},"federalState":{"key":"08","name":"Baden-Württemberg"}},{"name":"Scheuermatt","postalCode":"77704","locality":"Oberkirch","municipality":{"key":"08317089","name":"Oberkirch, Stadt","type":"Große_Kreisstadt"},"district":{"key":"08317","name":"Ortenaukreis","type":"Landkreis"},"federalState":{"key":"08","name":"Baden-Württemberg"}},{"name":"Schlatten","postalCode":"77704","locality":"Oberkirch","municipality":{"key":"08317089","name":"Oberkirch, Stadt","type":"Große_Kreisstadt"},"district":{"key":"08317","name":"Ortenaukreis","type":"Landkreis"},"federalState":{"key":"08","name":"Baden-Württemberg"}},{"name":"Schlossergasse","postalCode":"77704","locality":"Oberkirch","municipality":{"key":"08317089","name":"Oberkirch, Stadt","type":"Große_Kreisstadt"},"district":{"key":"08317","name":"Ortenaukreis","type":"Landkreis"},"federalState":{"key":"08","name":"Baden-Württemberg"}},{"name":"Schloßweg","postalCode":"77704","locality":"Oberkirch","municipality":{"key":"08317089","name":"Oberkirch, Stadt","type":"Große_Kreisstadt"},"district":{"key":"08317","name":"Ortenaukreis","type":"Landkreis"},"federalState":{"key":"08","name":"Baden-Württemberg"}},{"name":"Schlüsselbrücke","postalCode":"77704","locality":"Oberkirch","municipality":{"key":"08317089","name":"Oberkirch, Stadt","type":"Große_Kreisstadt"},"district":{"key":"08317","name":"Ortenaukreis","type":"Landkreis"},"federalState":{"key":"08","name":"Baden-Württemberg"}},{"name":"Schneckenweg","postalCode":"77704","locality":"Oberkirch","municipality":{"key":"08317089","name":"Oberkirch, Stadt","type":"Große_Kreisstadt"},"district":{"key":"08317","name":"Ortenaukreis","type":"Landkreis"},"federalState":{"key":"08","name":"Baden-Württemberg"}},{"name":"Schulstr.","postalCode":"77704","locality":"Oberkirch","municipality":{"key":"08317089","name":"Oberkirch, Stadt","type":"Große_Kreisstadt"},"district":{"key":"08317","name":"Ortenaukreis","type":"Landkreis"},"federalState":{"key":"08","name":"Baden-Württemberg"}},{"name":"Schwalbensteinweg","postalCode":"77704","locality":"Oberkirch","municipality":{"key":"08317089","name":"Oberkirch, Stadt","type":"Große_Kreisstadt"},"district":{"key":"08317","name":"Ortenaukreis","type":"Landkreis"},"federalState":{"key":"08","name":"Baden-Württemberg"}},{"name":"Schwarzackergasse","postalCode":"77704","locality":"Oberkirch","municipality":{"key":"08317089","name":"Oberkirch, Stadt","type":"Große_Kreisstadt"},"district":{"key":"08317","name":"Ortenaukreis","type":"Landkreis"},"federalState":{"key":"08","name":"Baden-Württemberg"}},{"name":"Schwarzwaldstr.","postalCode":"77704","locality":"Oberkirch","municipality":{"key":"08317089","name":"Oberkirch, Stadt","type":"Große_Kreisstadt"},"district":{"key":"08317","name":"Ortenaukreis","type":"Landkreis"},"federalState":{"key":"08","name":"Baden-Württemberg"}},{"name":"Schwender Str.","postalCode":"77704","locality":"Oberkirch","municipality":{"key":"08317089","name":"Oberkirch, Stadt","type":"Große_Kreisstadt"},"district":{"key":"08317","name":"Ortenaukreis","type":"Landkreis"},"federalState":{"key":"08","name":"Baden-Württemberg"}},{"name":"Schwendner Str.","postalCode":"77704","locality":"Oberkirch","municipality":{"key":"08317089","name":"Oberkirch, Stadt","type":"Große_Kreisstadt"},"district":{"key":"08317","name":"Ortenaukreis","type":"Landkreis"},"federalState":{"key":"08","name":"Baden-Württemberg"}},{"name":"Schwendner Weg","postalCode":"77704","locality":"Oberkirch","municipality":{"key":"08317089","name":"Oberkirch, Stadt","type":"Große_Kreisstadt"},"district":{"key":"08317","name":"Ortenaukreis","type":"Landkreis"},"federalState":{"key":"08","name":"Baden-Württemberg"}},{"name":"Silcherstr.","postalCode":"77704","locality":"Oberkirch","municipality":{"key":"08317089","name":"Oberkirch, Stadt","type":"Große_Kreisstadt"},"district":{"key":"08317","name":"Ortenaukreis","type":"Landkreis"},"federalState":{"key":"08","name":"Baden-Württemberg"}},{"name":"Simplicissimusstr.","postalCode":"77704","locality":"Oberkirch","municipality":{"key":"08317089","name":"Oberkirch, Stadt","type":"Große_Kreisstadt"},"district":{"key":"08317","name":"Ortenaukreis","type":"Landkreis"},"federalState":{"key":"08","name":"Baden-Württemberg"}},{"name":"Sonnhalde","postalCode":"77704","locality":"Oberkirch","municipality":{"key":"08317089","name":"Oberkirch, Stadt","type":"Große_Kreisstadt"},"district":{"key":"08317","name":"Ortenaukreis","type":"Landkreis"},"federalState":{"key":"08","name":"Baden-Württemberg"}},{"name":"Spitzbünd","postalCode":"77704","locality":"Oberkirch","municipality":{"key":"08317089","name":"Oberkirch, Stadt","type":"Große_Kreisstadt"},"district":{"key":"08317","name":"Ortenaukreis","type":"Landkreis"},"federalState":{"key":"08","name":"Baden-Württemberg"}},{"name":"Sportplatzstr.","postalCode":"77704","locality":"Oberkirch","municipality":{"key":"08317089","name":"Oberkirch, Stadt","type":"Große_Kreisstadt"},"district":{"key":"08317","name":"Ortenaukreis","type":"Landkreis"},"federalState":{"key":"08","name":"Baden-Württemberg"}},{"name":"Springstr.","postalCode":"77704","locality":"Oberkirch","municipality":{"key":"08317089","name":"Oberkirch, Stadt","type":"Große_Kreisstadt"},"district":{"key":"08317","name":"Ortenaukreis","type":"Landkreis"},"federalState":{"key":"08","name":"Baden-Württemberg"}},{"name":"Stadelhofer Str.","postalCode":"77704","locality":"Oberkirch","municipality":{"key":"08317089","name":"Oberkirch, Stadt","type":"Große_Kreisstadt"},"district":{"key":"08317","name":"Ortenaukreis","type":"Landkreis"},"federalState":{"key":"08","name":"Baden-Württemberg"}},{"name":"Stadelhöfer Weg","postalCode":"77704","locality":"Oberkirch","municipality":{"key":"08317089","name":"Oberkirch, Stadt","type":"Große_Kreisstadt"},"district":{"key":"08317","name":"Ortenaukreis","type":"Landkreis"},"federalState":{"key":"08","name":"Baden-Württemberg"}},{"name":"Stadtgarten","postalCode":"77704","locality":"Oberkirch","municipality":{"key":"08317089","name":"Oberkirch, Stadt","type":"Große_Kreisstadt"},"district":{"key":"08317","name":"Ortenaukreis","type":"Landkreis"},"federalState":{"key":"08","name":"Baden-Württemberg"}},{"name":"Stadtgartenstr.","postalCode":"77704","locality":"Oberkirch","municipality":{"key":"08317089","name":"Oberkirch, Stadt","type":"Große_Kreisstadt"},"district":{"key":"08317","name":"Ortenaukreis","type":"Landkreis"},"federalState":{"key":"08","name":"Baden-Württemberg"}},{"name":"Stadtmattstr.","postalCode":"77704","locality":"Oberkirch","municipality":{"key":"08317089","name":"Oberkirch, Stadt","type":"Große_Kreisstadt"},"district":{"key":"08317","name":"Ortenaukreis","type":"Landkreis"},"federalState":{"key":"08","name":"Baden-Württemberg"}},{"name":"Steingasse","postalCode":"77704","locality":"Oberkirch","municipality":{"key":"08317089","name":"Oberkirch, Stadt","type":"Große_Kreisstadt"},"district":{"key":"08317","name":"Ortenaukreis","type":"Landkreis"},"federalState":{"key":"08","name":"Baden-Württemberg"}},{"name":"Steinhof","postalCode":"77704","locality":"Oberkirch","municipality":{"key":"08317089","name":"Oberkirch, Stadt","type":"Große_Kreisstadt"},"district":{"key":"08317","name":"Ortenaukreis","type":"Landkreis"},"federalState":{"key":"08","name":"Baden-Württemberg"}},{"name":"Steinstr.","postalCode":"77704","locality":"Oberkirch","municipality":{"key":"08317089","name":"Oberkirch, Stadt","type":"Große_Kreisstadt"},"district":{"key":"08317","name":"Ortenaukreis","type":"Landkreis"},"federalState":{"key":"08","name":"Baden-Württemberg"}},{"name":"Steinweg","postalCode":"77704","locality":"Oberkirch","municipality":{"key":"08317089","name":"Oberkirch, Stadt","type":"Große_Kreisstadt"},"district":{"key":"08317","name":"Ortenaukreis","type":"Landkreis"},"federalState":{"key":"08","name":"Baden-Württemberg"}},{"name":"Sternenbühnd","postalCode":"77704","locality":"Oberkirch","municipality":{"key":"08317089","name":"Oberkirch, Stadt","type":"Große_Kreisstadt"},"district":{"key":"08317","name":"Ortenaukreis","type":"Landkreis"},"federalState":{"key":"08","name":"Baden-Württemberg"}},{"name":"St. Gabrielweg","postalCode":"77704","locality":"Oberkirch","municipality":{"key":"08317089","name":"Oberkirch, Stadt","type":"Große_Kreisstadt"},"district":{"key":"08317","name":"Ortenaukreis","type":"Landkreis"},"federalState":{"key":"08","name":"Baden-Württemberg"}},{"name":"St. Josefstr.","postalCode":"77704","locality":"Oberkirch","municipality":{"key":"08317089","name":"Oberkirch, Stadt","type":"Große_Kreisstadt"},"district":{"key":"08317","name":"Ortenaukreis","type":"Landkreis"},"federalState":{"key":"08","name":"Baden-Württemberg"}},{"name":"Storchenweg","postalCode":"77704","locality":"Oberkirch","municipality":{"key":"08317089","name":"Oberkirch, Stadt","type":"Große_Kreisstadt"},"district":{"key":"08317","name":"Ortenaukreis","type":"Landkreis"},"federalState":{"key":"08","name":"Baden-Württemberg"}},{"name":"Strandbadweg","postalCode":"77704","locality":"Oberkirch","municipality":{"key":"08317089","name":"Oberkirch, Stadt","type":"Große_Kreisstadt"},"district":{"key":"08317","name":"Ortenaukreis","type":"Landkreis"},"federalState":{"key":"08","name":"Baden-Württemberg"}},{"name":"Straßburger Str.","postalCode":"77704","locality":"Oberkirch","municipality":{"key":"08317089","name":"Oberkirch, Stadt","type":"Große_Kreisstadt"},"district":{"key":"08317","name":"Ortenaukreis","type":"Landkreis"},"federalState":{"key":"08","name":"Baden-Württemberg"}},{"name":"Stresemannstr.","postalCode":"77704","locality":"Oberkirch","municipality":{"key":"08317089","name":"Oberkirch, Stadt","type":"Große_Kreisstadt"},"district":{"key":"08317","name":"Ortenaukreis","type":"Landkreis"},"federalState":{"key":"08","name":"Baden-Württemberg"}},{"name":"St. Urbanstr.","postalCode":"77704","locality":"Oberkirch","municipality":{"key":"08317089","name":"Oberkirch, Stadt","type":"Große_Kreisstadt"},"district":{"key":"08317","name":"Ortenaukreis","type":"Landkreis"},"federalState":{"key":"08","name":"Baden-Württemberg"}},{"name":"St. Wendelin Brücke","postalCode":"77704","locality":"Oberkirch","municipality":{"key":"08317089","name":"Oberkirch, Stadt","type":"Große_Kreisstadt"},"district":{"key":"08317","name":"Ortenaukreis","type":"Landkreis"},"federalState":{"key":"08","name":"Baden-Württemberg"}},{"name":"St.-Wendel-Str.","postalCode":"77704","locality":"Oberkirch","municipality":{"key":"08317089","name":"Oberkirch, Stadt","type":"Große_Kreisstadt"},"district":{"key":"08317","name":"Ortenaukreis","type":"Landkreis"},"federalState":{"key":"08","name":"Baden-Württemberg"}},{"name":"Südring","postalCode":"77704","locality":"Oberkirch","municipality":{"key":"08317089","name":"Oberkirch, Stadt","type":"Große_Kreisstadt"},"district":{"key":"08317","name":"Ortenaukreis","type":"Landkreis"},"federalState":{"key":"08","name":"Baden-Württemberg"}},{"name":"Talmatt","postalCode":"77704","locality":"Oberkirch","municipality":{"key":"08317089","name":"Oberkirch, Stadt","type":"Große_Kreisstadt"},"district":{"key":"08317","name":"Ortenaukreis","type":"Landkreis"},"federalState":{"key":"08","name":"Baden-Württemberg"}},{"name":"Talstr.","postalCode":"77704","locality":"Oberkirch","municipality":{"key":"08317089","name":"Oberkirch, Stadt","type":"Große_Kreisstadt"},"district":{"key":"08317","name":"Ortenaukreis","type":"Landkreis"},"federalState":{"key":"08","name":"Baden-Württemberg"}},{"name":"Tannenstr.","postalCode":"77704","locality":"Oberkirch","municipality":{"key":"08317089","name":"Oberkirch, Stadt","type":"Große_Kreisstadt"},"district":{"key":"08317","name":"Ortenaukreis","type":"Landkreis"},"federalState":{"key":"08","name":"Baden-Württemberg"}},{"name":"Thomaslohgasse","postalCode":"77704","locality":"Oberkirch","municipality":{"key":"08317089","name":"Oberkirch, Stadt","type":"Große_Kreisstadt"},"district":{"key":"08317","name":"Ortenaukreis","type":"Landkreis"},"federalState":{"key":"08","name":"Baden-Württemberg"}},{"name":"Tiergärtner Weg","postalCode":"77704","locality":"Oberkirch","municipality":{"key":"08317089","name":"Oberkirch, Stadt","type":"Große_Kreisstadt"},"district":{"key":"08317","name":"Ortenaukreis","type":"Landkreis"},"federalState":{"key":"08","name":"Baden-Württemberg"}},{"name":"Trottbergstr.","postalCode":"77704","locality":"Oberkirch","municipality":{"key":"08317089","name":"Oberkirch, Stadt","type":"Große_Kreisstadt"},"district":{"key":"08317","name":"Ortenaukreis","type":"Landkreis"},"federalState":{"key":"08","name":"Baden-Württemberg"}},{"name":"Türkengasse","postalCode":"77704","locality":"Oberkirch","municipality":{"key":"08317089","name":"Oberkirch, Stadt","type":"Große_Kreisstadt"},"district":{"key":"08317","name":"Ortenaukreis","type":"Landkreis"},"federalState":{"key":"08","name":"Baden-Württemberg"}},{"name":"Uhlandweg","postalCode":"77704","locality":"Oberkirch","municipality":{"key":"08317089","name":"Oberkirch, Stadt","type":"Große_Kreisstadt"},"district":{"key":"08317","name":"Ortenaukreis","type":"Landkreis"},"federalState":{"key":"08","name":"Baden-Württemberg"}},{"name":"Ullenburgstr.","postalCode":"77704","locality":"Oberkirch","municipality":{"key":"08317089","name":"Oberkirch, Stadt","type":"Große_Kreisstadt"},"district":{"key":"08317","name":"Ortenaukreis","type":"Landkreis"},"federalState":{"key":"08","name":"Baden-Württemberg"}},{"name":"Ulmer Str.","postalCode":"77704","locality":"Oberkirch","municipality":{"key":"08317089","name":"Oberkirch, Stadt","type":"Große_Kreisstadt"},"district":{"key":"08317","name":"Ortenaukreis","type":"Landkreis"},"federalState":{"key":"08","name":"Baden-Württemberg"}},{"name":"Untere Fuchsmatt","postalCode":"77704","locality":"Oberkirch","municipality":{"key":"08317089","name":"Oberkirch, Stadt","type":"Große_Kreisstadt"},"district":{"key":"08317","name":"Ortenaukreis","type":"Landkreis"},"federalState":{"key":"08","name":"Baden-Württemberg"}},{"name":"Untere Grendelstr.","postalCode":"77704","locality":"Oberkirch","municipality":{"key":"08317089","name":"Oberkirch, Stadt","type":"Große_Kreisstadt"},"district":{"key":"08317","name":"Ortenaukreis","type":"Landkreis"},"federalState":{"key":"08","name":"Baden-Württemberg"}},{"name":"Untere Hilsengasse","postalCode":"77704","locality":"Oberkirch","municipality":{"key":"08317089","name":"Oberkirch, Stadt","type":"Große_Kreisstadt"},"district":{"key":"08317","name":"Ortenaukreis","type":"Landkreis"},"federalState":{"key":"08","name":"Baden-Württemberg"}},{"name":"Untere Maien","postalCode":"77704","locality":"Oberkirch","municipality":{"key":"08317089","name":"Oberkirch, Stadt","type":"Große_Kreisstadt"},"district":{"key":"08317","name":"Ortenaukreis","type":"Landkreis"},"federalState":{"key":"08","name":"Baden-Württemberg"}},{"name":"Unterer Buchwaldweg","postalCode":"77876","locality":"Oberkirch","municipality":{"key":"08317089","name":"Oberkirch, Stadt","type":"Große_Kreisstadt"},"district":{"key":"08317","name":"Ortenaukreis","type":"Landkreis"},"federalState":{"key":"08","name":"Baden-Württemberg"}},{"name":"Unterer Luß","postalCode":"77704","locality":"Oberkirch","municipality":{"key":"08317089","name":"Oberkirch, Stadt","type":"Große_Kreisstadt"},"district":{"key":"08317","name":"Ortenaukreis","type":"Landkreis"},"federalState":{"key":"08","name":"Baden-Württemberg"}},{"name":"Vogesenblick","postalCode":"77704","locality":"Oberkirch","municipality":{"key":"08317089","name":"Oberkirch, Stadt","type":"Große_Kreisstadt"},"district":{"key":"08317","name":"Ortenaukreis","type":"Landkreis"},"federalState":{"key":"08","name":"Baden-Württemberg"}},{"name":"Von-Eichendorff-Weg","postalCode":"77704","locality":"Oberkirch","municipality":{"key":"08317089","name":"Oberkirch, Stadt","type":"Große_Kreisstadt"},"district":{"key":"08317","name":"Ortenaukreis","type":"Landkreis"},"federalState":{"key":"08","name":"Baden-Württemberg"}},{"name":"Vorderlohweg","postalCode":"77704","locality":"Oberkirch","municipality":{"key":"08317089","name":"Oberkirch, Stadt","type":"Große_Kreisstadt"},"district":{"key":"08317","name":"Ortenaukreis","type":"Landkreis"},"federalState":{"key":"08","name":"Baden-Württemberg"}},{"name":"Wäldele","postalCode":"77704","locality":"Oberkirch","municipality":{"key":"08317089","name":"Oberkirch, Stadt","type":"Große_Kreisstadt"},"district":{"key":"08317","name":"Ortenaukreis","type":"Landkreis"},"federalState":{"key":"08","name":"Baden-Württemberg"}},{"name":"Wäldenstr.","postalCode":"77704","locality":"Oberkirch","municipality":{"key":"08317089","name":"Oberkirch, Stadt","type":"Große_Kreisstadt"},"district":{"key":"08317","name":"Ortenaukreis","type":"Landkreis"},"federalState":{"key":"08","name":"Baden-Württemberg"}},{"name":"Waldspielplatz","postalCode":"77704","locality":"Oberkirch","municipality":{"key":"08317089","name":"Oberkirch, Stadt","type":"Große_Kreisstadt"},"district":{"key":"08317","name":"Ortenaukreis","type":"Landkreis"},"federalState":{"key":"08","name":"Baden-Württemberg"}},{"name":"Waldstr.","postalCode":"77704","locality":"Oberkirch","municipality":{"key":"08317089","name":"Oberkirch, Stadt","type":"Große_Kreisstadt"},"district":{"key":"08317","name":"Ortenaukreis","type":"Landkreis"},"federalState":{"key":"08","name":"Baden-Württemberg"}},{"name":"Waldweg","postalCode":"77704","locality":"Oberkirch","municipality":{"key":"08317089","name":"Oberkirch, Stadt","type":"Große_Kreisstadt"},"district":{"key":"08317","name":"Ortenaukreis","type":"Landkreis"},"federalState":{"key":"08","name":"Baden-Württemberg"}},{"name":"Wassergasse","postalCode":"77704","locality":"Oberkirch","municipality":{"key":"08317089","name":"Oberkirch, Stadt","type":"Große_Kreisstadt"},"district":{"key":"08317","name":"Ortenaukreis","type":"Landkreis"},"federalState":{"key":"08","name":"Baden-Württemberg"}},{"name":"Weierweg","postalCode":"77704","locality":"Oberkirch","municipality":{"key":"08317089","name":"Oberkirch, Stadt","type":"Große_Kreisstadt"},"district":{"key":"08317","name":"Ortenaukreis","type":"Landkreis"},"federalState":{"key":"08","name":"Baden-Württemberg"}},{"name":"Weiherbünd","postalCode":"77704","locality":"Oberkirch","municipality":{"key":"08317089","name":"Oberkirch, Stadt","type":"Große_Kreisstadt"},"district":{"key":"08317","name":"Ortenaukreis","type":"Landkreis"},"federalState":{"key":"08","name":"Baden-Württemberg"}},{"name":"Weinbergstr.","postalCode":"77704","locality":"Oberkirch","municipality":{"key":"08317089","name":"Oberkirch, Stadt","type":"Große_Kreisstadt"},"district":{"key":"08317","name":"Ortenaukreis","type":"Landkreis"},"federalState":{"key":"08","name":"Baden-Württemberg"}},{"name":"Weingärtnerstr.","postalCode":"77704","locality":"Oberkirch","municipality":{"key":"08317089","name":"Oberkirch, Stadt","type":"Große_Kreisstadt"},"district":{"key":"08317","name":"Ortenaukreis","type":"Landkreis"},"federalState":{"key":"08","name":"Baden-Württemberg"}},{"name":"Weinstr.","postalCode":"77704","locality":"Oberkirch","municipality":{"key":"08317089","name":"Oberkirch, Stadt","type":"Große_Kreisstadt"},"district":{"key":"08317","name":"Ortenaukreis","type":"Landkreis"},"federalState":{"key":"08","name":"Baden-Württemberg"}},{"name":"Weintalstr.","postalCode":"77704","locality":"Oberkirch","municipality":{"key":"08317089","name":"Oberkirch, Stadt","type":"Große_Kreisstadt"},"district":{"key":"08317","name":"Ortenaukreis","type":"Landkreis"},"federalState":{"key":"08","name":"Baden-Württemberg"}},{"name":"Werkstr.","postalCode":"77704","locality":"Oberkirch","municipality":{"key":"08317089","name":"Oberkirch, Stadt","type":"Große_Kreisstadt"},"district":{"key":"08317","name":"Ortenaukreis","type":"Landkreis"},"federalState":{"key":"08","name":"Baden-Württemberg"}},{"name":"Wiesenstr.","postalCode":"77704","locality":"Oberkirch","municipality":{"key":"08317089","name":"Oberkirch, Stadt","type":"Große_Kreisstadt"},"district":{"key":"08317","name":"Ortenaukreis","type":"Landkreis"},"federalState":{"key":"08","name":"Baden-Württemberg"}},{"name":"Wilhelm-Emanuel-von-Ketteler-Str.","postalCode":"77704","locality":"Oberkirch","municipality":{"key":"08317089","name":"Oberkirch, Stadt","type":"Große_Kreisstadt"},"district":{"key":"08317","name":"Ortenaukreis","type":"Landkreis"},"federalState":{"key":"08","name":"Baden-Württemberg"}},{"name":"Winterbacher Weg","postalCode":"77704","locality":"Oberkirch","municipality":{"key":"08317089","name":"Oberkirch, Stadt","type":"Große_Kreisstadt"},"district":{"key":"08317","name":"Ortenaukreis","type":"Landkreis"},"federalState":{"key":"08","name":"Baden-Württemberg"}},{"name":"Wolfhag","postalCode":"77704","locality":"Oberkirch","municipality":{"key":"08317089","name":"Oberkirch, Stadt","type":"Große_Kreisstadt"},"district":{"key":"08317","name":"Ortenaukreis","type":"Landkreis"},"federalState":{"key":"08","name":"Baden-Württemberg"}},{"name":"Zellistr.","postalCode":"77704","locality":"Oberkirch","municipality":{"key":"08317089","name":"Oberkirch, Stadt","type":"Große_Kreisstadt"},"district":{"key":"08317","name":"Ortenaukreis","type":"Landkreis"},"federalState":{"key":"08","name":"Baden-Württemberg"}},{"name":"Ziegeleistr.","postalCode":"77704","locality":"Oberkirch","municipality":{"key":"08317089","name":"Oberkirch, Stadt","type":"Große_Kreisstadt"},"district":{"key":"08317","name":"Ortenaukreis","type":"Landkreis"},"federalState":{"key":"08","name":"Baden-Württemberg"}},{"name":"Ziehltenbühndweg","postalCode":"77704","locality":"Oberkirch","municipality":{"key":"08317089","name":"Oberkirch, Stadt","type":"Große_Kreisstadt"},"district":{"key":"08317","name":"Ortenaukreis","type":"Landkreis"},"federalState":{"key":"08","name":"Baden-Württemberg"}},{"name":"Zum Schwarzhof","postalCode":"77704","locality":"Oberkirch","municipality":{"key":"08317089","name":"Oberkirch, Stadt","type":"Große_Kreisstadt"},"district":{"key":"08317","name":"Ortenaukreis","type":"Landkreis"},"federalState":{"key":"08","name":"Baden-Württemberg"}},{"name":"Zusenhofener Str.","postalCode":"77704","locality":"Oberkirch","municipality":{"key":"08317089","name":"Oberkirch, Stadt","type":"Große_Kreisstadt"},"district":{"key":"08317","name":"Ortenaukreis","type":"Landkreis"},"federalState":{"key":"08","name":"Baden-Württemberg"}},]