[{"name":"Adolf-Diesterweg-Str.","postalCode":"58540","locality":"Meinerzhagen","municipality":{"key":"05962036","name":"Meinerzhagen, Stadt","type":"Stadt"},"district":{"key":"05962","name":"Märkischer Kreis","type":"Kreis"},"federalState":{"key":"05","name":"Nordrhein-Westfalen"}},{"name":"Ahornstr.","postalCode":"58540","locality":"Meinerzhagen","municipality":{"key":"05962036","name":"Meinerzhagen, Stadt","type":"Stadt"},"district":{"key":"05962","name":"Märkischer Kreis","type":"Kreis"},"federalState":{"key":"05","name":"Nordrhein-Westfalen"}},{"name":"Akazienweg","postalCode":"58540","locality":"Meinerzhagen","municipality":{"key":"05962036","name":"Meinerzhagen, Stadt","type":"Stadt"},"district":{"key":"05962","name":"Märkischer Kreis","type":"Kreis"},"federalState":{"key":"05","name":"Nordrhein-Westfalen"}},{"name":"Alter Kirchweg","postalCode":"58540","locality":"Meinerzhagen","municipality":{"key":"05962036","name":"Meinerzhagen, Stadt","type":"Stadt"},"district":{"key":"05962","name":"Märkischer Kreis","type":"Kreis"},"federalState":{"key":"05","name":"Nordrhein-Westfalen"}},{"name":"Alter Weg","postalCode":"58540","locality":"Meinerzhagen","municipality":{"key":"05962036","name":"Meinerzhagen, Stadt","type":"Stadt"},"district":{"key":"05962","name":"Märkischer Kreis","type":"Kreis"},"federalState":{"key":"05","name":"Nordrhein-Westfalen"}},{"name":"Am Bücking","postalCode":"58540","locality":"Meinerzhagen","municipality":{"key":"05962036","name":"Meinerzhagen, Stadt","type":"Stadt"},"district":{"key":"05962","name":"Märkischer Kreis","type":"Kreis"},"federalState":{"key":"05","name":"Nordrhein-Westfalen"}},{"name":"Am Fliederbusch","postalCode":"58540","locality":"Meinerzhagen","municipality":{"key":"05962036","name":"Meinerzhagen, Stadt","type":"Stadt"},"district":{"key":"05962","name":"Märkischer Kreis","type":"Kreis"},"federalState":{"key":"05","name":"Nordrhein-Westfalen"}},{"name":"Am Heerhof","postalCode":"58540","locality":"Meinerzhagen","municipality":{"key":"05962036","name":"Meinerzhagen, Stadt","type":"Stadt"},"district":{"key":"05962","name":"Märkischer Kreis","type":"Kreis"},"federalState":{"key":"05","name":"Nordrhein-Westfalen"}},{"name":"Am Lingelchen","postalCode":"58540","locality":"Meinerzhagen","municipality":{"key":"05962036","name":"Meinerzhagen, Stadt","type":"Stadt"},"district":{"key":"05962","name":"Märkischer Kreis","type":"Kreis"},"federalState":{"key":"05","name":"Nordrhein-Westfalen"}},{"name":"Am Piwitt","postalCode":"58540","locality":"Meinerzhagen","municipality":{"key":"05962036","name":"Meinerzhagen, Stadt","type":"Stadt"},"district":{"key":"05962","name":"Märkischer Kreis","type":"Kreis"},"federalState":{"key":"05","name":"Nordrhein-Westfalen"}},{"name":"Am Rottland","postalCode":"58540","locality":"Meinerzhagen","municipality":{"key":"05962036","name":"Meinerzhagen, Stadt","type":"Stadt"},"district":{"key":"05962","name":"Märkischer Kreis","type":"Kreis"},"federalState":{"key":"05","name":"Nordrhein-Westfalen"}},{"name":"Am Schützenplatz","postalCode":"58540","locality":"Meinerzhagen","municipality":{"key":"05962036","name":"Meinerzhagen, Stadt","type":"Stadt"},"district":{"key":"05962","name":"Märkischer Kreis","type":"Kreis"},"federalState":{"key":"05","name":"Nordrhein-Westfalen"}},{"name":"Amselweg","postalCode":"58540","locality":"Meinerzhagen","municipality":{"key":"05962036","name":"Meinerzhagen, Stadt","type":"Stadt"},"district":{"key":"05962","name":"Märkischer Kreis","type":"Kreis"},"federalState":{"key":"05","name":"Nordrhein-Westfalen"}},{"name":"Am Sonnenhang","postalCode":"58540","locality":"Meinerzhagen","municipality":{"key":"05962036","name":"Meinerzhagen, Stadt","type":"Stadt"},"district":{"key":"05962","name":"Märkischer Kreis","type":"Kreis"},"federalState":{"key":"05","name":"Nordrhein-Westfalen"}},{"name":"Am Stadion","postalCode":"58540","locality":"Meinerzhagen","municipality":{"key":"05962036","name":"Meinerzhagen, Stadt","type":"Stadt"},"district":{"key":"05962","name":"Märkischer Kreis","type":"Kreis"},"federalState":{"key":"05","name":"Nordrhein-Westfalen"}},{"name":"An den Kämpen","postalCode":"58540","locality":"Meinerzhagen","municipality":{"key":"05962036","name":"Meinerzhagen, Stadt","type":"Stadt"},"district":{"key":"05962","name":"Märkischer Kreis","type":"Kreis"},"federalState":{"key":"05","name":"Nordrhein-Westfalen"}},{"name":"An der Kirche","postalCode":"58540","locality":"Meinerzhagen","municipality":{"key":"05962036","name":"Meinerzhagen, Stadt","type":"Stadt"},"district":{"key":"05962","name":"Märkischer Kreis","type":"Kreis"},"federalState":{"key":"05","name":"Nordrhein-Westfalen"}},{"name":"An der Linde","postalCode":"58540","locality":"Meinerzhagen","municipality":{"key":"05962036","name":"Meinerzhagen, Stadt","type":"Stadt"},"district":{"key":"05962","name":"Märkischer Kreis","type":"Kreis"},"federalState":{"key":"05","name":"Nordrhein-Westfalen"}},{"name":"An der Schwenke","postalCode":"58540","locality":"Meinerzhagen","municipality":{"key":"05962036","name":"Meinerzhagen, Stadt","type":"Stadt"},"district":{"key":"05962","name":"Märkischer Kreis","type":"Kreis"},"federalState":{"key":"05","name":"Nordrhein-Westfalen"}},{"name":"An der Volme","postalCode":"58540","locality":"Meinerzhagen","municipality":{"key":"05962036","name":"Meinerzhagen, Stadt","type":"Stadt"},"district":{"key":"05962","name":"Märkischer Kreis","type":"Kreis"},"federalState":{"key":"05","name":"Nordrhein-Westfalen"}},{"name":"Auerhahnbergweg","postalCode":"58540","locality":"Meinerzhagen","municipality":{"key":"05962036","name":"Meinerzhagen, Stadt","type":"Stadt"},"district":{"key":"05962","name":"Märkischer Kreis","type":"Kreis"},"federalState":{"key":"05","name":"Nordrhein-Westfalen"}},{"name":"Auf dem Bamberg","postalCode":"58540","locality":"Meinerzhagen","municipality":{"key":"05962036","name":"Meinerzhagen, Stadt","type":"Stadt"},"district":{"key":"05962","name":"Märkischer Kreis","type":"Kreis"},"federalState":{"key":"05","name":"Nordrhein-Westfalen"}},{"name":"Auf dem Felde","postalCode":"58540","locality":"Meinerzhagen","municipality":{"key":"05962036","name":"Meinerzhagen, Stadt","type":"Stadt"},"district":{"key":"05962","name":"Märkischer Kreis","type":"Kreis"},"federalState":{"key":"05","name":"Nordrhein-Westfalen"}},{"name":"Auf den Breien","postalCode":"58540","locality":"Meinerzhagen","municipality":{"key":"05962036","name":"Meinerzhagen, Stadt","type":"Stadt"},"district":{"key":"05962","name":"Märkischer Kreis","type":"Kreis"},"federalState":{"key":"05","name":"Nordrhein-Westfalen"}},{"name":"Auf der Freiheit","postalCode":"58540","locality":"Meinerzhagen","municipality":{"key":"05962036","name":"Meinerzhagen, Stadt","type":"Stadt"},"district":{"key":"05962","name":"Märkischer Kreis","type":"Kreis"},"federalState":{"key":"05","name":"Nordrhein-Westfalen"}},{"name":"Auf der Hardt","postalCode":"58540","locality":"Meinerzhagen","municipality":{"key":"05962036","name":"Meinerzhagen, Stadt","type":"Stadt"},"district":{"key":"05962","name":"Märkischer Kreis","type":"Kreis"},"federalState":{"key":"05","name":"Nordrhein-Westfalen"}},{"name":"Auf der Heide","postalCode":"58540","locality":"Meinerzhagen","municipality":{"key":"05962036","name":"Meinerzhagen, Stadt","type":"Stadt"},"district":{"key":"05962","name":"Märkischer Kreis","type":"Kreis"},"federalState":{"key":"05","name":"Nordrhein-Westfalen"}},{"name":"Auf der Koppel","postalCode":"58540","locality":"Meinerzhagen","municipality":{"key":"05962036","name":"Meinerzhagen, Stadt","type":"Stadt"},"district":{"key":"05962","name":"Märkischer Kreis","type":"Kreis"},"federalState":{"key":"05","name":"Nordrhein-Westfalen"}},{"name":"Auf der Leye","postalCode":"58540","locality":"Meinerzhagen","municipality":{"key":"05962036","name":"Meinerzhagen, Stadt","type":"Stadt"},"district":{"key":"05962","name":"Märkischer Kreis","type":"Kreis"},"federalState":{"key":"05","name":"Nordrhein-Westfalen"}},{"name":"Baberg","postalCode":"58540","locality":"Meinerzhagen","municipality":{"key":"05962036","name":"Meinerzhagen, Stadt","type":"Stadt"},"district":{"key":"05962","name":"Märkischer Kreis","type":"Kreis"},"federalState":{"key":"05","name":"Nordrhein-Westfalen"}},{"name":"Badinghagen","postalCode":"58540","locality":"Meinerzhagen","municipality":{"key":"05962036","name":"Meinerzhagen, Stadt","type":"Stadt"},"district":{"key":"05962","name":"Märkischer Kreis","type":"Kreis"},"federalState":{"key":"05","name":"Nordrhein-Westfalen"}},{"name":"Bahnhofstr.","postalCode":"58540","locality":"Meinerzhagen","municipality":{"key":"05962036","name":"Meinerzhagen, Stadt","type":"Stadt"},"district":{"key":"05962","name":"Märkischer Kreis","type":"Kreis"},"federalState":{"key":"05","name":"Nordrhein-Westfalen"}},{"name":"Bärlappweg","postalCode":"58540","locality":"Meinerzhagen","municipality":{"key":"05962036","name":"Meinerzhagen, Stadt","type":"Stadt"},"district":{"key":"05962","name":"Märkischer Kreis","type":"Kreis"},"federalState":{"key":"05","name":"Nordrhein-Westfalen"}},{"name":"Beckerhof","postalCode":"58540","locality":"Meinerzhagen","municipality":{"key":"05962036","name":"Meinerzhagen, Stadt","type":"Stadt"},"district":{"key":"05962","name":"Märkischer Kreis","type":"Kreis"},"federalState":{"key":"05","name":"Nordrhein-Westfalen"}},{"name":"Beethovenstr.","postalCode":"58540","locality":"Meinerzhagen","municipality":{"key":"05962036","name":"Meinerzhagen, Stadt","type":"Stadt"},"district":{"key":"05962","name":"Märkischer Kreis","type":"Kreis"},"federalState":{"key":"05","name":"Nordrhein-Westfalen"}},{"name":"Berg","postalCode":"58540","locality":"Meinerzhagen","municipality":{"key":"05962036","name":"Meinerzhagen, Stadt","type":"Stadt"},"district":{"key":"05962","name":"Märkischer Kreis","type":"Kreis"},"federalState":{"key":"05","name":"Nordrhein-Westfalen"}},{"name":"Bergstr.","postalCode":"58540","locality":"Meinerzhagen","municipality":{"key":"05962036","name":"Meinerzhagen, Stadt","type":"Stadt"},"district":{"key":"05962","name":"Märkischer Kreis","type":"Kreis"},"federalState":{"key":"05","name":"Nordrhein-Westfalen"}},{"name":"Berlinghausen","postalCode":"58540","locality":"Meinerzhagen","municipality":{"key":"05962036","name":"Meinerzhagen, Stadt","type":"Stadt"},"district":{"key":"05962","name":"Märkischer Kreis","type":"Kreis"},"federalState":{"key":"05","name":"Nordrhein-Westfalen"}},{"name":"Beurhausstr.","postalCode":"58540","locality":"Meinerzhagen","municipality":{"key":"05962036","name":"Meinerzhagen, Stadt","type":"Stadt"},"district":{"key":"05962","name":"Märkischer Kreis","type":"Kreis"},"federalState":{"key":"05","name":"Nordrhein-Westfalen"}},{"name":"Beutringhausen","postalCode":"58540","locality":"Meinerzhagen","municipality":{"key":"05962036","name":"Meinerzhagen, Stadt","type":"Stadt"},"district":{"key":"05962","name":"Märkischer Kreis","type":"Kreis"},"federalState":{"key":"05","name":"Nordrhein-Westfalen"}},{"name":"Birkenweg","postalCode":"58540","locality":"Meinerzhagen","municipality":{"key":"05962036","name":"Meinerzhagen, Stadt","type":"Stadt"},"district":{"key":"05962","name":"Märkischer Kreis","type":"Kreis"},"federalState":{"key":"05","name":"Nordrhein-Westfalen"}},{"name":"Birkeshöhstr.","postalCode":"58540","locality":"Meinerzhagen","municipality":{"key":"05962036","name":"Meinerzhagen, Stadt","type":"Stadt"},"district":{"key":"05962","name":"Märkischer Kreis","type":"Kreis"},"federalState":{"key":"05","name":"Nordrhein-Westfalen"}},{"name":"Blomberg","postalCode":"58540","locality":"Meinerzhagen","municipality":{"key":"05962036","name":"Meinerzhagen, Stadt","type":"Stadt"},"district":{"key":"05962","name":"Märkischer Kreis","type":"Kreis"},"federalState":{"key":"05","name":"Nordrhein-Westfalen"}},{"name":"Bodelschwinghstr.","postalCode":"58540","locality":"Meinerzhagen","municipality":{"key":"05962036","name":"Meinerzhagen, Stadt","type":"Stadt"},"district":{"key":"05962","name":"Märkischer Kreis","type":"Kreis"},"federalState":{"key":"05","name":"Nordrhein-Westfalen"}},{"name":"Bomme","postalCode":"58540","locality":"Meinerzhagen","municipality":{"key":"05962036","name":"Meinerzhagen, Stadt","type":"Stadt"},"district":{"key":"05962","name":"Märkischer Kreis","type":"Kreis"},"federalState":{"key":"05","name":"Nordrhein-Westfalen"}},{"name":"Börlinghausen","postalCode":"58540","locality":"Meinerzhagen","municipality":{"key":"05962036","name":"Meinerzhagen, Stadt","type":"Stadt"},"district":{"key":"05962","name":"Märkischer Kreis","type":"Kreis"},"federalState":{"key":"05","name":"Nordrhein-Westfalen"}},{"name":"Borneck","postalCode":"58540","locality":"Meinerzhagen","municipality":{"key":"05962036","name":"Meinerzhagen, Stadt","type":"Stadt"},"district":{"key":"05962","name":"Märkischer Kreis","type":"Kreis"},"federalState":{"key":"05","name":"Nordrhein-Westfalen"}},{"name":"Brahmsstr.","postalCode":"58540","locality":"Meinerzhagen","municipality":{"key":"05962036","name":"Meinerzhagen, Stadt","type":"Stadt"},"district":{"key":"05962","name":"Märkischer Kreis","type":"Kreis"},"federalState":{"key":"05","name":"Nordrhein-Westfalen"}},{"name":"Brantenberg","postalCode":"58540","locality":"Meinerzhagen","municipality":{"key":"05962036","name":"Meinerzhagen, Stadt","type":"Stadt"},"district":{"key":"05962","name":"Märkischer Kreis","type":"Kreis"},"federalState":{"key":"05","name":"Nordrhein-Westfalen"}},{"name":"Breddershaus","postalCode":"58540","locality":"Meinerzhagen","municipality":{"key":"05962036","name":"Meinerzhagen, Stadt","type":"Stadt"},"district":{"key":"05962","name":"Märkischer Kreis","type":"Kreis"},"federalState":{"key":"05","name":"Nordrhein-Westfalen"}},{"name":"Breslauer Str.","postalCode":"58540","locality":"Meinerzhagen","municipality":{"key":"05962036","name":"Meinerzhagen, Stadt","type":"Stadt"},"district":{"key":"05962","name":"Märkischer Kreis","type":"Kreis"},"federalState":{"key":"05","name":"Nordrhein-Westfalen"}},{"name":"Buchenweg","postalCode":"58540","locality":"Meinerzhagen","municipality":{"key":"05962036","name":"Meinerzhagen, Stadt","type":"Stadt"},"district":{"key":"05962","name":"Märkischer Kreis","type":"Kreis"},"federalState":{"key":"05","name":"Nordrhein-Westfalen"}},{"name":"Buschhausen","postalCode":"58540","locality":"Meinerzhagen","municipality":{"key":"05962036","name":"Meinerzhagen, Stadt","type":"Stadt"},"district":{"key":"05962","name":"Märkischer Kreis","type":"Kreis"},"federalState":{"key":"05","name":"Nordrhein-Westfalen"}},{"name":"Buschhöh","postalCode":"58540","locality":"Meinerzhagen","municipality":{"key":"05962036","name":"Meinerzhagen, Stadt","type":"Stadt"},"district":{"key":"05962","name":"Märkischer Kreis","type":"Kreis"},"federalState":{"key":"05","name":"Nordrhein-Westfalen"}},{"name":"Bussardweg","postalCode":"58540","locality":"Meinerzhagen","municipality":{"key":"05962036","name":"Meinerzhagen, Stadt","type":"Stadt"},"district":{"key":"05962","name":"Märkischer Kreis","type":"Kreis"},"federalState":{"key":"05","name":"Nordrhein-Westfalen"}},{"name":"Christoph-Friedrich-Baehrens-Str.","postalCode":"58540","locality":"Meinerzhagen","municipality":{"key":"05962036","name":"Meinerzhagen, Stadt","type":"Stadt"},"district":{"key":"05962","name":"Märkischer Kreis","type":"Kreis"},"federalState":{"key":"05","name":"Nordrhein-Westfalen"}},{"name":"Danziger Str.","postalCode":"58540","locality":"Meinerzhagen","municipality":{"key":"05962036","name":"Meinerzhagen, Stadt","type":"Stadt"},"district":{"key":"05962","name":"Märkischer Kreis","type":"Kreis"},"federalState":{"key":"05","name":"Nordrhein-Westfalen"}},{"name":"Darmche","postalCode":"58540","locality":"Meinerzhagen","municipality":{"key":"05962036","name":"Meinerzhagen, Stadt","type":"Stadt"},"district":{"key":"05962","name":"Märkischer Kreis","type":"Kreis"},"federalState":{"key":"05","name":"Nordrhein-Westfalen"}},{"name":"Denkmalsplatz","postalCode":"58540","locality":"Meinerzhagen","municipality":{"key":"05962036","name":"Meinerzhagen, Stadt","type":"Stadt"},"district":{"key":"05962","name":"Märkischer Kreis","type":"Kreis"},"federalState":{"key":"05","name":"Nordrhein-Westfalen"}},{"name":"Derschlager Str.","postalCode":"58540","locality":"Meinerzhagen","municipality":{"key":"05962036","name":"Meinerzhagen, Stadt","type":"Stadt"},"district":{"key":"05962","name":"Märkischer Kreis","type":"Kreis"},"federalState":{"key":"05","name":"Nordrhein-Westfalen"}},{"name":"Dianaweg","postalCode":"58540","locality":"Meinerzhagen","municipality":{"key":"05962036","name":"Meinerzhagen, Stadt","type":"Stadt"},"district":{"key":"05962","name":"Märkischer Kreis","type":"Kreis"},"federalState":{"key":"05","name":"Nordrhein-Westfalen"}},{"name":"Dränkerkampstr.","postalCode":"58540","locality":"Meinerzhagen","municipality":{"key":"05962036","name":"Meinerzhagen, Stadt","type":"Stadt"},"district":{"key":"05962","name":"Märkischer Kreis","type":"Kreis"},"federalState":{"key":"05","name":"Nordrhein-Westfalen"}},{"name":"Drosselweg","postalCode":"58540","locality":"Meinerzhagen","municipality":{"key":"05962036","name":"Meinerzhagen, Stadt","type":"Stadt"},"district":{"key":"05962","name":"Märkischer Kreis","type":"Kreis"},"federalState":{"key":"05","name":"Nordrhein-Westfalen"}},{"name":"Dürrenkamp","postalCode":"58540","locality":"Meinerzhagen","municipality":{"key":"05962036","name":"Meinerzhagen, Stadt","type":"Stadt"},"district":{"key":"05962","name":"Märkischer Kreis","type":"Kreis"},"federalState":{"key":"05","name":"Nordrhein-Westfalen"}},{"name":"Ebbekammloipe","postalCode":"58540","locality":"Meinerzhagen","municipality":{"key":"05962036","name":"Meinerzhagen, Stadt","type":"Stadt"},"district":{"key":"05962","name":"Märkischer Kreis","type":"Kreis"},"federalState":{"key":"05","name":"Nordrhein-Westfalen"}},{"name":"Ebberg","postalCode":"58540","locality":"Meinerzhagen","municipality":{"key":"05962036","name":"Meinerzhagen, Stadt","type":"Stadt"},"district":{"key":"05962","name":"Märkischer Kreis","type":"Kreis"},"federalState":{"key":"05","name":"Nordrhein-Westfalen"}},{"name":"Ebbergweg","postalCode":"58540","locality":"Meinerzhagen","municipality":{"key":"05962036","name":"Meinerzhagen, Stadt","type":"Stadt"},"district":{"key":"05962","name":"Märkischer Kreis","type":"Kreis"},"federalState":{"key":"05","name":"Nordrhein-Westfalen"}},{"name":"Ebbestr.","postalCode":"58540","locality":"Meinerzhagen","municipality":{"key":"05962036","name":"Meinerzhagen, Stadt","type":"Stadt"},"district":{"key":"05962","name":"Märkischer Kreis","type":"Kreis"},"federalState":{"key":"05","name":"Nordrhein-Westfalen"}},{"name":"Echternhagen","postalCode":"58540","locality":"Meinerzhagen","municipality":{"key":"05962036","name":"Meinerzhagen, Stadt","type":"Stadt"},"district":{"key":"05962","name":"Märkischer Kreis","type":"Kreis"},"federalState":{"key":"05","name":"Nordrhein-Westfalen"}},{"name":"Eckertsmühle","postalCode":"58540","locality":"Meinerzhagen","municipality":{"key":"05962036","name":"Meinerzhagen, Stadt","type":"Stadt"},"district":{"key":"05962","name":"Märkischer Kreis","type":"Kreis"},"federalState":{"key":"05","name":"Nordrhein-Westfalen"}},{"name":"Eduard-Fittig-Str.","postalCode":"58540","locality":"Meinerzhagen","municipality":{"key":"05962036","name":"Meinerzhagen, Stadt","type":"Stadt"},"district":{"key":"05962","name":"Märkischer Kreis","type":"Kreis"},"federalState":{"key":"05","name":"Nordrhein-Westfalen"}},{"name":"ehem. Landesschule","postalCode":"58540","locality":"Meinerzhagen","municipality":{"key":"05962036","name":"Meinerzhagen, Stadt","type":"Stadt"},"district":{"key":"05962","name":"Märkischer Kreis","type":"Kreis"},"federalState":{"key":"05","name":"Nordrhein-Westfalen"}},{"name":"Eichenweg","postalCode":"58540","locality":"Meinerzhagen","municipality":{"key":"05962036","name":"Meinerzhagen, Stadt","type":"Stadt"},"district":{"key":"05962","name":"Märkischer Kreis","type":"Kreis"},"federalState":{"key":"05","name":"Nordrhein-Westfalen"}},{"name":"Eichholz","postalCode":"58540","locality":"Meinerzhagen","municipality":{"key":"05962036","name":"Meinerzhagen, Stadt","type":"Stadt"},"district":{"key":"05962","name":"Märkischer Kreis","type":"Kreis"},"federalState":{"key":"05","name":"Nordrhein-Westfalen"}},{"name":"Eichholzstr.","postalCode":"58540","locality":"Meinerzhagen","municipality":{"key":"05962036","name":"Meinerzhagen, Stadt","type":"Stadt"},"district":{"key":"05962","name":"Märkischer Kreis","type":"Kreis"},"federalState":{"key":"05","name":"Nordrhein-Westfalen"}},{"name":"Eisenweg","postalCode":"58540","locality":"Meinerzhagen","municipality":{"key":"05962036","name":"Meinerzhagen, Stadt","type":"Stadt"},"district":{"key":"05962","name":"Märkischer Kreis","type":"Kreis"},"federalState":{"key":"05","name":"Nordrhein-Westfalen"}},{"name":"Elberscheidtstr.","postalCode":"58540","locality":"Meinerzhagen","municipality":{"key":"05962036","name":"Meinerzhagen, Stadt","type":"Stadt"},"district":{"key":"05962","name":"Märkischer Kreis","type":"Kreis"},"federalState":{"key":"05","name":"Nordrhein-Westfalen"}},{"name":"Erlenweg","postalCode":"58540","locality":"Meinerzhagen","municipality":{"key":"05962036","name":"Meinerzhagen, Stadt","type":"Stadt"},"district":{"key":"05962","name":"Märkischer Kreis","type":"Kreis"},"federalState":{"key":"05","name":"Nordrhein-Westfalen"}},{"name":"Eseloh","postalCode":"58540","locality":"Meinerzhagen","municipality":{"key":"05962036","name":"Meinerzhagen, Stadt","type":"Stadt"},"district":{"key":"05962","name":"Märkischer Kreis","type":"Kreis"},"federalState":{"key":"05","name":"Nordrhein-Westfalen"}},{"name":"Eseloher Weg","postalCode":"58540","locality":"Meinerzhagen","municipality":{"key":"05962036","name":"Meinerzhagen, Stadt","type":"Stadt"},"district":{"key":"05962","name":"Märkischer Kreis","type":"Kreis"},"federalState":{"key":"05","name":"Nordrhein-Westfalen"}},{"name":"Falkenweg","postalCode":"58540","locality":"Meinerzhagen","municipality":{"key":"05962036","name":"Meinerzhagen, Stadt","type":"Stadt"},"district":{"key":"05962","name":"Märkischer Kreis","type":"Kreis"},"federalState":{"key":"05","name":"Nordrhein-Westfalen"}},{"name":"Feldstr.","postalCode":"58540","locality":"Meinerzhagen","municipality":{"key":"05962036","name":"Meinerzhagen, Stadt","type":"Stadt"},"district":{"key":"05962","name":"Märkischer Kreis","type":"Kreis"},"federalState":{"key":"05","name":"Nordrhein-Westfalen"}},{"name":"Fichtenhang","postalCode":"58540","locality":"Meinerzhagen","municipality":{"key":"05962036","name":"Meinerzhagen, Stadt","type":"Stadt"},"district":{"key":"05962","name":"Märkischer Kreis","type":"Kreis"},"federalState":{"key":"05","name":"Nordrhein-Westfalen"}},{"name":"Finkenweg","postalCode":"58540","locality":"Meinerzhagen","municipality":{"key":"05962036","name":"Meinerzhagen, Stadt","type":"Stadt"},"district":{"key":"05962","name":"Märkischer Kreis","type":"Kreis"},"federalState":{"key":"05","name":"Nordrhein-Westfalen"}},{"name":"Florianweg","postalCode":"58540","locality":"Meinerzhagen","municipality":{"key":"05962036","name":"Meinerzhagen, Stadt","type":"Stadt"},"district":{"key":"05962","name":"Märkischer Kreis","type":"Kreis"},"federalState":{"key":"05","name":"Nordrhein-Westfalen"}},{"name":"Freisemicke","postalCode":"58540","locality":"Meinerzhagen","municipality":{"key":"05962036","name":"Meinerzhagen, Stadt","type":"Stadt"},"district":{"key":"05962","name":"Märkischer Kreis","type":"Kreis"},"federalState":{"key":"05","name":"Nordrhein-Westfalen"}},{"name":"Fritz-Paulmann-Weg","postalCode":"58540","locality":"Meinerzhagen","municipality":{"key":"05962036","name":"Meinerzhagen, Stadt","type":"Stadt"},"district":{"key":"05962","name":"Märkischer Kreis","type":"Kreis"},"federalState":{"key":"05","name":"Nordrhein-Westfalen"}},{"name":"Fröbelstr.","postalCode":"58540","locality":"Meinerzhagen","municipality":{"key":"05962036","name":"Meinerzhagen, Stadt","type":"Stadt"},"district":{"key":"05962","name":"Märkischer Kreis","type":"Kreis"},"federalState":{"key":"05","name":"Nordrhein-Westfalen"}},{"name":"Fumberg","postalCode":"58540","locality":"Meinerzhagen","municipality":{"key":"05962036","name":"Meinerzhagen, Stadt","type":"Stadt"},"district":{"key":"05962","name":"Märkischer Kreis","type":"Kreis"},"federalState":{"key":"05","name":"Nordrhein-Westfalen"}},{"name":"Gartenstr.","postalCode":"58540","locality":"Meinerzhagen","municipality":{"key":"05962036","name":"Meinerzhagen, Stadt","type":"Stadt"},"district":{"key":"05962","name":"Märkischer Kreis","type":"Kreis"},"federalState":{"key":"05","name":"Nordrhein-Westfalen"}},{"name":"Genkel","postalCode":"58540","locality":"Meinerzhagen","municipality":{"key":"05962036","name":"Meinerzhagen, Stadt","type":"Stadt"},"district":{"key":"05962","name":"Märkischer Kreis","type":"Kreis"},"federalState":{"key":"05","name":"Nordrhein-Westfalen"}},{"name":"Genkeler Str.","postalCode":"58540","locality":"Meinerzhagen","municipality":{"key":"05962036","name":"Meinerzhagen, Stadt","type":"Stadt"},"district":{"key":"05962","name":"Märkischer Kreis","type":"Kreis"},"federalState":{"key":"05","name":"Nordrhein-Westfalen"}},{"name":"Gerichtstr.","postalCode":"58540","locality":"Meinerzhagen","municipality":{"key":"05962036","name":"Meinerzhagen, Stadt","type":"Stadt"},"district":{"key":"05962","name":"Märkischer Kreis","type":"Kreis"},"federalState":{"key":"05","name":"Nordrhein-Westfalen"}},{"name":"Gerringhausen","postalCode":"58540","locality":"Meinerzhagen","municipality":{"key":"05962036","name":"Meinerzhagen, Stadt","type":"Stadt"},"district":{"key":"05962","name":"Märkischer Kreis","type":"Kreis"},"federalState":{"key":"05","name":"Nordrhein-Westfalen"}},{"name":"Giedeweg","postalCode":"58540","locality":"Meinerzhagen","municipality":{"key":"05962036","name":"Meinerzhagen, Stadt","type":"Stadt"},"district":{"key":"05962","name":"Märkischer Kreis","type":"Kreis"},"federalState":{"key":"05","name":"Nordrhein-Westfalen"}},{"name":"Ginsterweg","postalCode":"58540","locality":"Meinerzhagen","municipality":{"key":"05962036","name":"Meinerzhagen, Stadt","type":"Stadt"},"district":{"key":"05962","name":"Märkischer Kreis","type":"Kreis"},"federalState":{"key":"05","name":"Nordrhein-Westfalen"}},{"name":"Goethestr.","postalCode":"58540","locality":"Meinerzhagen","municipality":{"key":"05962036","name":"Meinerzhagen, Stadt","type":"Stadt"},"district":{"key":"05962","name":"Märkischer Kreis","type":"Kreis"},"federalState":{"key":"05","name":"Nordrhein-Westfalen"}},{"name":"Gräfingsholz","postalCode":"58540","locality":"Meinerzhagen","municipality":{"key":"05962036","name":"Meinerzhagen, Stadt","type":"Stadt"},"district":{"key":"05962","name":"Märkischer Kreis","type":"Kreis"},"federalState":{"key":"05","name":"Nordrhein-Westfalen"}},{"name":"Grotewiese","postalCode":"58540","locality":"Meinerzhagen","municipality":{"key":"05962036","name":"Meinerzhagen, Stadt","type":"Stadt"},"district":{"key":"05962","name":"Märkischer Kreis","type":"Kreis"},"federalState":{"key":"05","name":"Nordrhein-Westfalen"}},{"name":"Grotmicke","postalCode":"58540","locality":"Meinerzhagen","municipality":{"key":"05962036","name":"Meinerzhagen, Stadt","type":"Stadt"},"district":{"key":"05962","name":"Märkischer Kreis","type":"Kreis"},"federalState":{"key":"05","name":"Nordrhein-Westfalen"}},{"name":"Grünenbecke","postalCode":"58540","locality":"Meinerzhagen","municipality":{"key":"05962036","name":"Meinerzhagen, Stadt","type":"Stadt"},"district":{"key":"05962","name":"Märkischer Kreis","type":"Kreis"},"federalState":{"key":"05","name":"Nordrhein-Westfalen"}},{"name":"Grünenbecker Weg","postalCode":"58540","locality":"Meinerzhagen","municipality":{"key":"05962036","name":"Meinerzhagen, Stadt","type":"Stadt"},"district":{"key":"05962","name":"Märkischer Kreis","type":"Kreis"},"federalState":{"key":"05","name":"Nordrhein-Westfalen"}},{"name":"Grünenthal","postalCode":"58540","locality":"Meinerzhagen","municipality":{"key":"05962036","name":"Meinerzhagen, Stadt","type":"Stadt"},"district":{"key":"05962","name":"Märkischer Kreis","type":"Kreis"},"federalState":{"key":"05","name":"Nordrhein-Westfalen"}},{"name":"Grünewald","postalCode":"58540","locality":"Meinerzhagen","municipality":{"key":"05962036","name":"Meinerzhagen, Stadt","type":"Stadt"},"district":{"key":"05962","name":"Märkischer Kreis","type":"Kreis"},"federalState":{"key":"05","name":"Nordrhein-Westfalen"}},{"name":"Güntenbecke","postalCode":"58540","locality":"Meinerzhagen","municipality":{"key":"05962036","name":"Meinerzhagen, Stadt","type":"Stadt"},"district":{"key":"05962","name":"Märkischer Kreis","type":"Kreis"},"federalState":{"key":"05","name":"Nordrhein-Westfalen"}},{"name":"Haaner Str.","postalCode":"58540","locality":"Meinerzhagen","municipality":{"key":"05962036","name":"Meinerzhagen, Stadt","type":"Stadt"},"district":{"key":"05962","name":"Märkischer Kreis","type":"Kreis"},"federalState":{"key":"05","name":"Nordrhein-Westfalen"}},{"name":"Haarbrinkstr.","postalCode":"58540","locality":"Meinerzhagen","municipality":{"key":"05962036","name":"Meinerzhagen, Stadt","type":"Stadt"},"district":{"key":"05962","name":"Märkischer Kreis","type":"Kreis"},"federalState":{"key":"05","name":"Nordrhein-Westfalen"}},{"name":"Habichtweg","postalCode":"58540","locality":"Meinerzhagen","municipality":{"key":"05962036","name":"Meinerzhagen, Stadt","type":"Stadt"},"district":{"key":"05962","name":"Märkischer Kreis","type":"Kreis"},"federalState":{"key":"05","name":"Nordrhein-Westfalen"}},{"name":"Hahnenbecke","postalCode":"58540","locality":"Meinerzhagen","municipality":{"key":"05962036","name":"Meinerzhagen, Stadt","type":"Stadt"},"district":{"key":"05962","name":"Märkischer Kreis","type":"Kreis"},"federalState":{"key":"05","name":"Nordrhein-Westfalen"}},{"name":"Hammerweg","postalCode":"58540","locality":"Meinerzhagen","municipality":{"key":"05962036","name":"Meinerzhagen, Stadt","type":"Stadt"},"district":{"key":"05962","name":"Märkischer Kreis","type":"Kreis"},"federalState":{"key":"05","name":"Nordrhein-Westfalen"}},{"name":"Hardenberg","postalCode":"58540","locality":"Meinerzhagen","municipality":{"key":"05962036","name":"Meinerzhagen, Stadt","type":"Stadt"},"district":{"key":"05962","name":"Märkischer Kreis","type":"Kreis"},"federalState":{"key":"05","name":"Nordrhein-Westfalen"}},{"name":"Hardenbergstr.","postalCode":"58540","locality":"Meinerzhagen","municipality":{"key":"05962036","name":"Meinerzhagen, Stadt","type":"Stadt"},"district":{"key":"05962","name":"Märkischer Kreis","type":"Kreis"},"federalState":{"key":"05","name":"Nordrhein-Westfalen"}},{"name":"Hardtweg","postalCode":"58540","locality":"Meinerzhagen","municipality":{"key":"05962036","name":"Meinerzhagen, Stadt","type":"Stadt"},"district":{"key":"05962","name":"Märkischer Kreis","type":"Kreis"},"federalState":{"key":"05","name":"Nordrhein-Westfalen"}},{"name":"Hasendenn","postalCode":"58540","locality":"Meinerzhagen","municipality":{"key":"05962036","name":"Meinerzhagen, Stadt","type":"Stadt"},"district":{"key":"05962","name":"Märkischer Kreis","type":"Kreis"},"federalState":{"key":"05","name":"Nordrhein-Westfalen"}},{"name":"Haumche","postalCode":"58540","locality":"Meinerzhagen","municipality":{"key":"05962036","name":"Meinerzhagen, Stadt","type":"Stadt"},"district":{"key":"05962","name":"Märkischer Kreis","type":"Kreis"},"federalState":{"key":"05","name":"Nordrhein-Westfalen"}},{"name":"Haumchermühle","postalCode":"58540","locality":"Meinerzhagen","municipality":{"key":"05962036","name":"Meinerzhagen, Stadt","type":"Stadt"},"district":{"key":"05962","name":"Märkischer Kreis","type":"Kreis"},"federalState":{"key":"05","name":"Nordrhein-Westfalen"}},{"name":"Hauptstr.","postalCode":"58540","locality":"Meinerzhagen","municipality":{"key":"05962036","name":"Meinerzhagen, Stadt","type":"Stadt"},"district":{"key":"05962","name":"Märkischer Kreis","type":"Kreis"},"federalState":{"key":"05","name":"Nordrhein-Westfalen"}},{"name":"Häusgermühle","postalCode":"58540","locality":"Meinerzhagen","municipality":{"key":"05962036","name":"Meinerzhagen, Stadt","type":"Stadt"},"district":{"key":"05962","name":"Märkischer Kreis","type":"Kreis"},"federalState":{"key":"05","name":"Nordrhein-Westfalen"}},{"name":"Haustadt","postalCode":"58540","locality":"Meinerzhagen","municipality":{"key":"05962036","name":"Meinerzhagen, Stadt","type":"Stadt"},"district":{"key":"05962","name":"Märkischer Kreis","type":"Kreis"},"federalState":{"key":"05","name":"Nordrhein-Westfalen"}},{"name":"Haydnstr.","postalCode":"58540","locality":"Meinerzhagen","municipality":{"key":"05962036","name":"Meinerzhagen, Stadt","type":"Stadt"},"district":{"key":"05962","name":"Märkischer Kreis","type":"Kreis"},"federalState":{"key":"05","name":"Nordrhein-Westfalen"}},{"name":"Heerstr.","postalCode":"58540","locality":"Meinerzhagen","municipality":{"key":"05962036","name":"Meinerzhagen, Stadt","type":"Stadt"},"district":{"key":"05962","name":"Märkischer Kreis","type":"Kreis"},"federalState":{"key":"05","name":"Nordrhein-Westfalen"}},{"name":"Hegelweg","postalCode":"58540","locality":"Meinerzhagen","municipality":{"key":"05962036","name":"Meinerzhagen, Stadt","type":"Stadt"},"district":{"key":"05962","name":"Märkischer Kreis","type":"Kreis"},"federalState":{"key":"05","name":"Nordrhein-Westfalen"}},{"name":"Heidehang","postalCode":"58540","locality":"Meinerzhagen","municipality":{"key":"05962036","name":"Meinerzhagen, Stadt","type":"Stadt"},"district":{"key":"05962","name":"Märkischer Kreis","type":"Kreis"},"federalState":{"key":"05","name":"Nordrhein-Westfalen"}},{"name":"Heidewinkel","postalCode":"58540","locality":"Meinerzhagen","municipality":{"key":"05962036","name":"Meinerzhagen, Stadt","type":"Stadt"},"district":{"key":"05962","name":"Märkischer Kreis","type":"Kreis"},"federalState":{"key":"05","name":"Nordrhein-Westfalen"}},{"name":"Heiligenberg","postalCode":"58540","locality":"Meinerzhagen","municipality":{"key":"05962036","name":"Meinerzhagen, Stadt","type":"Stadt"},"district":{"key":"05962","name":"Märkischer Kreis","type":"Kreis"},"federalState":{"key":"05","name":"Nordrhein-Westfalen"}},{"name":"Heinestr.","postalCode":"58540","locality":"Meinerzhagen","municipality":{"key":"05962036","name":"Meinerzhagen, Stadt","type":"Stadt"},"district":{"key":"05962","name":"Märkischer Kreis","type":"Kreis"},"federalState":{"key":"05","name":"Nordrhein-Westfalen"}},{"name":"Herringhausen","postalCode":"58540","locality":"Meinerzhagen","municipality":{"key":"05962036","name":"Meinerzhagen, Stadt","type":"Stadt"},"district":{"key":"05962","name":"Märkischer Kreis","type":"Kreis"},"federalState":{"key":"05","name":"Nordrhein-Westfalen"}},{"name":"Hesselbecke","postalCode":"58540","locality":"Meinerzhagen","municipality":{"key":"05962036","name":"Meinerzhagen, Stadt","type":"Stadt"},"district":{"key":"05962","name":"Märkischer Kreis","type":"Kreis"},"federalState":{"key":"05","name":"Nordrhein-Westfalen"}},{"name":"Himbergstr.","postalCode":"58540","locality":"Meinerzhagen","municipality":{"key":"05962036","name":"Meinerzhagen, Stadt","type":"Stadt"},"district":{"key":"05962","name":"Märkischer Kreis","type":"Kreis"},"federalState":{"key":"05","name":"Nordrhein-Westfalen"}},{"name":"Himecker Weg","postalCode":"58540","locality":"Meinerzhagen","municipality":{"key":"05962036","name":"Meinerzhagen, Stadt","type":"Stadt"},"district":{"key":"05962","name":"Märkischer Kreis","type":"Kreis"},"federalState":{"key":"05","name":"Nordrhein-Westfalen"}},{"name":"Hinter der Höh","postalCode":"58540","locality":"Meinerzhagen","municipality":{"key":"05962036","name":"Meinerzhagen, Stadt","type":"Stadt"},"district":{"key":"05962","name":"Märkischer Kreis","type":"Kreis"},"federalState":{"key":"05","name":"Nordrhein-Westfalen"}},{"name":"Hochstr.","postalCode":"58540","locality":"Meinerzhagen","municipality":{"key":"05962036","name":"Meinerzhagen, Stadt","type":"Stadt"},"district":{"key":"05962","name":"Märkischer Kreis","type":"Kreis"},"federalState":{"key":"05","name":"Nordrhein-Westfalen"}},{"name":"Höh","postalCode":"58540","locality":"Meinerzhagen","municipality":{"key":"05962036","name":"Meinerzhagen, Stadt","type":"Stadt"},"district":{"key":"05962","name":"Märkischer Kreis","type":"Kreis"},"federalState":{"key":"05","name":"Nordrhein-Westfalen"}},{"name":"Hohbüschen","postalCode":"58540","locality":"Meinerzhagen","municipality":{"key":"05962036","name":"Meinerzhagen, Stadt","type":"Stadt"},"district":{"key":"05962","name":"Märkischer Kreis","type":"Kreis"},"federalState":{"key":"05","name":"Nordrhein-Westfalen"}},{"name":"Hohbüschener Weg","postalCode":"58540","locality":"Meinerzhagen","municipality":{"key":"05962036","name":"Meinerzhagen, Stadt","type":"Stadt"},"district":{"key":"05962","name":"Märkischer Kreis","type":"Kreis"},"federalState":{"key":"05","name":"Nordrhein-Westfalen"}},{"name":"Hohenhengstenberg","postalCode":"58540","locality":"Meinerzhagen","municipality":{"key":"05962036","name":"Meinerzhagen, Stadt","type":"Stadt"},"district":{"key":"05962","name":"Märkischer Kreis","type":"Kreis"},"federalState":{"key":"05","name":"Nordrhein-Westfalen"}},{"name":"Höhenstr.","postalCode":"58540","locality":"Meinerzhagen","municipality":{"key":"05962036","name":"Meinerzhagen, Stadt","type":"Stadt"},"district":{"key":"05962","name":"Märkischer Kreis","type":"Kreis"},"federalState":{"key":"05","name":"Nordrhein-Westfalen"}},{"name":"Hohlinden","postalCode":"58540","locality":"Meinerzhagen","municipality":{"key":"05962036","name":"Meinerzhagen, Stadt","type":"Stadt"},"district":{"key":"05962","name":"Märkischer Kreis","type":"Kreis"},"federalState":{"key":"05","name":"Nordrhein-Westfalen"}},{"name":"Hohschlader Weg","postalCode":"58540","locality":"Meinerzhagen","municipality":{"key":"05962036","name":"Meinerzhagen, Stadt","type":"Stadt"},"district":{"key":"05962","name":"Märkischer Kreis","type":"Kreis"},"federalState":{"key":"05","name":"Nordrhein-Westfalen"}},{"name":"Holbecke","postalCode":"58540","locality":"Meinerzhagen","municipality":{"key":"05962036","name":"Meinerzhagen, Stadt","type":"Stadt"},"district":{"key":"05962","name":"Märkischer Kreis","type":"Kreis"},"federalState":{"key":"05","name":"Nordrhein-Westfalen"}},{"name":"Höltchen","postalCode":"58540","locality":"Meinerzhagen","municipality":{"key":"05962036","name":"Meinerzhagen, Stadt","type":"Stadt"},"district":{"key":"05962","name":"Märkischer Kreis","type":"Kreis"},"federalState":{"key":"05","name":"Nordrhein-Westfalen"}},{"name":"Holunderweg","postalCode":"58540","locality":"Meinerzhagen","municipality":{"key":"05962036","name":"Meinerzhagen, Stadt","type":"Stadt"},"district":{"key":"05962","name":"Märkischer Kreis","type":"Kreis"},"federalState":{"key":"05","name":"Nordrhein-Westfalen"}},{"name":"Hösinghausen","postalCode":"58540","locality":"Meinerzhagen","municipality":{"key":"05962036","name":"Meinerzhagen, Stadt","type":"Stadt"},"district":{"key":"05962","name":"Märkischer Kreis","type":"Kreis"},"federalState":{"key":"05","name":"Nordrhein-Westfalen"}},{"name":"Hubertusweg","postalCode":"58540","locality":"Meinerzhagen","municipality":{"key":"05962036","name":"Meinerzhagen, Stadt","type":"Stadt"},"district":{"key":"05962","name":"Märkischer Kreis","type":"Kreis"},"federalState":{"key":"05","name":"Nordrhein-Westfalen"}},{"name":"Hülseberg","postalCode":"58540","locality":"Meinerzhagen","municipality":{"key":"05962036","name":"Meinerzhagen, Stadt","type":"Stadt"},"district":{"key":"05962","name":"Märkischer Kreis","type":"Kreis"},"federalState":{"key":"05","name":"Nordrhein-Westfalen"}},{"name":"Ihne","postalCode":"58540","locality":"Meinerzhagen","municipality":{"key":"05962036","name":"Meinerzhagen, Stadt","type":"Stadt"},"district":{"key":"05962","name":"Märkischer Kreis","type":"Kreis"},"federalState":{"key":"05","name":"Nordrhein-Westfalen"}},{"name":"Ihnestr.","postalCode":"58540","locality":"Meinerzhagen","municipality":{"key":"05962036","name":"Meinerzhagen, Stadt","type":"Stadt"},"district":{"key":"05962","name":"Märkischer Kreis","type":"Kreis"},"federalState":{"key":"05","name":"Nordrhein-Westfalen"}},{"name":"Ijsselmuidener Str.","postalCode":"58540","locality":"Meinerzhagen","municipality":{"key":"05962036","name":"Meinerzhagen, Stadt","type":"Stadt"},"district":{"key":"05962","name":"Märkischer Kreis","type":"Kreis"},"federalState":{"key":"05","name":"Nordrhein-Westfalen"}},{"name":"Im Alten Dorf","postalCode":"58540","locality":"Meinerzhagen","municipality":{"key":"05962036","name":"Meinerzhagen, Stadt","type":"Stadt"},"district":{"key":"05962","name":"Märkischer Kreis","type":"Kreis"},"federalState":{"key":"05","name":"Nordrhein-Westfalen"}},{"name":"Im Brannten","postalCode":"58540","locality":"Meinerzhagen","municipality":{"key":"05962036","name":"Meinerzhagen, Stadt","type":"Stadt"},"district":{"key":"05962","name":"Märkischer Kreis","type":"Kreis"},"federalState":{"key":"05","name":"Nordrhein-Westfalen"}},{"name":"Im Hasenkamp","postalCode":"58540","locality":"Meinerzhagen","municipality":{"key":"05962036","name":"Meinerzhagen, Stadt","type":"Stadt"},"district":{"key":"05962","name":"Märkischer Kreis","type":"Kreis"},"federalState":{"key":"05","name":"Nordrhein-Westfalen"}},{"name":"Imhausen","postalCode":"58540","locality":"Meinerzhagen","municipality":{"key":"05962036","name":"Meinerzhagen, Stadt","type":"Stadt"},"district":{"key":"05962","name":"Märkischer Kreis","type":"Kreis"},"federalState":{"key":"05","name":"Nordrhein-Westfalen"}},{"name":"Im Kötgen","postalCode":"58540","locality":"Meinerzhagen","municipality":{"key":"05962036","name":"Meinerzhagen, Stadt","type":"Stadt"},"district":{"key":"05962","name":"Märkischer Kreis","type":"Kreis"},"federalState":{"key":"05","name":"Nordrhein-Westfalen"}},{"name":"Im Kumpenhahn","postalCode":"58540","locality":"Meinerzhagen","municipality":{"key":"05962036","name":"Meinerzhagen, Stadt","type":"Stadt"},"district":{"key":"05962","name":"Märkischer Kreis","type":"Kreis"},"federalState":{"key":"05","name":"Nordrhein-Westfalen"}},{"name":"Immecker Str.","postalCode":"58540","locality":"Meinerzhagen","municipality":{"key":"05962036","name":"Meinerzhagen, Stadt","type":"Stadt"},"district":{"key":"05962","name":"Märkischer Kreis","type":"Kreis"},"federalState":{"key":"05","name":"Nordrhein-Westfalen"}},{"name":"Im Wiesengrund","postalCode":"58540","locality":"Meinerzhagen","municipality":{"key":"05962036","name":"Meinerzhagen, Stadt","type":"Stadt"},"district":{"key":"05962","name":"Märkischer Kreis","type":"Kreis"},"federalState":{"key":"05","name":"Nordrhein-Westfalen"}},{"name":"In den Bäumen","postalCode":"58540","locality":"Meinerzhagen","municipality":{"key":"05962036","name":"Meinerzhagen, Stadt","type":"Stadt"},"district":{"key":"05962","name":"Märkischer Kreis","type":"Kreis"},"federalState":{"key":"05","name":"Nordrhein-Westfalen"}},{"name":"In den Buchen","postalCode":"58540","locality":"Meinerzhagen","municipality":{"key":"05962036","name":"Meinerzhagen, Stadt","type":"Stadt"},"district":{"key":"05962","name":"Märkischer Kreis","type":"Kreis"},"federalState":{"key":"05","name":"Nordrhein-Westfalen"}},{"name":"In der Bunne","postalCode":"58540","locality":"Meinerzhagen","municipality":{"key":"05962036","name":"Meinerzhagen, Stadt","type":"Stadt"},"district":{"key":"05962","name":"Märkischer Kreis","type":"Kreis"},"federalState":{"key":"05","name":"Nordrhein-Westfalen"}},{"name":"Ingemerterhammer","postalCode":"58540","locality":"Meinerzhagen","municipality":{"key":"05962036","name":"Meinerzhagen, Stadt","type":"Stadt"},"district":{"key":"05962","name":"Märkischer Kreis","type":"Kreis"},"federalState":{"key":"05","name":"Nordrhein-Westfalen"}},{"name":"Inselweg","postalCode":"58540","locality":"Meinerzhagen","municipality":{"key":"05962036","name":"Meinerzhagen, Stadt","type":"Stadt"},"district":{"key":"05962","name":"Märkischer Kreis","type":"Kreis"},"federalState":{"key":"05","name":"Nordrhein-Westfalen"}},{"name":"Jagdhuettenweg","postalCode":"58540","locality":"Meinerzhagen","municipality":{"key":"05962036","name":"Meinerzhagen, Stadt","type":"Stadt"},"district":{"key":"05962","name":"Märkischer Kreis","type":"Kreis"},"federalState":{"key":"05","name":"Nordrhein-Westfalen"}},{"name":"Jägerstr.","postalCode":"58540","locality":"Meinerzhagen","municipality":{"key":"05962036","name":"Meinerzhagen, Stadt","type":"Stadt"},"district":{"key":"05962","name":"Märkischer Kreis","type":"Kreis"},"federalState":{"key":"05","name":"Nordrhein-Westfalen"}},{"name":"Jomendorfer Weg","postalCode":"58540","locality":"Meinerzhagen","municipality":{"key":"05962036","name":"Meinerzhagen, Stadt","type":"Stadt"},"district":{"key":"05962","name":"Märkischer Kreis","type":"Kreis"},"federalState":{"key":"05","name":"Nordrhein-Westfalen"}},{"name":"Kampstr.","postalCode":"58540","locality":"Meinerzhagen","municipality":{"key":"05962036","name":"Meinerzhagen, Stadt","type":"Stadt"},"district":{"key":"05962","name":"Märkischer Kreis","type":"Kreis"},"federalState":{"key":"05","name":"Nordrhein-Westfalen"}},{"name":"Kapellenweg","postalCode":"58540","locality":"Meinerzhagen","municipality":{"key":"05962036","name":"Meinerzhagen, Stadt","type":"Stadt"},"district":{"key":"05962","name":"Märkischer Kreis","type":"Kreis"},"federalState":{"key":"05","name":"Nordrhein-Westfalen"}},{"name":"Karl-Heinrich-Wülfrath-Str.","postalCode":"58540","locality":"Meinerzhagen","municipality":{"key":"05962036","name":"Meinerzhagen, Stadt","type":"Stadt"},"district":{"key":"05962","name":"Märkischer Kreis","type":"Kreis"},"federalState":{"key":"05","name":"Nordrhein-Westfalen"}},{"name":"Karlsbader Weg","postalCode":"58540","locality":"Meinerzhagen","municipality":{"key":"05962036","name":"Meinerzhagen, Stadt","type":"Stadt"},"district":{"key":"05962","name":"Märkischer Kreis","type":"Kreis"},"federalState":{"key":"05","name":"Nordrhein-Westfalen"}},{"name":"Kastanienweg","postalCode":"58540","locality":"Meinerzhagen","municipality":{"key":"05962036","name":"Meinerzhagen, Stadt","type":"Stadt"},"district":{"key":"05962","name":"Märkischer Kreis","type":"Kreis"},"federalState":{"key":"05","name":"Nordrhein-Westfalen"}},{"name":"Kirchplatz","postalCode":"58540","locality":"Meinerzhagen","municipality":{"key":"05962036","name":"Meinerzhagen, Stadt","type":"Stadt"},"district":{"key":"05962","name":"Märkischer Kreis","type":"Kreis"},"federalState":{"key":"05","name":"Nordrhein-Westfalen"}},{"name":"Kirchstr.","postalCode":"58540","locality":"Meinerzhagen","municipality":{"key":"05962036","name":"Meinerzhagen, Stadt","type":"Stadt"},"district":{"key":"05962","name":"Märkischer Kreis","type":"Kreis"},"federalState":{"key":"05","name":"Nordrhein-Westfalen"}},{"name":"Kirmesplatz","postalCode":"58540","locality":"Meinerzhagen","municipality":{"key":"05962036","name":"Meinerzhagen, Stadt","type":"Stadt"},"district":{"key":"05962","name":"Märkischer Kreis","type":"Kreis"},"federalState":{"key":"05","name":"Nordrhein-Westfalen"}},{"name":"Kittmicke","postalCode":"58540","locality":"Meinerzhagen","municipality":{"key":"05962036","name":"Meinerzhagen, Stadt","type":"Stadt"},"district":{"key":"05962","name":"Märkischer Kreis","type":"Kreis"},"federalState":{"key":"05","name":"Nordrhein-Westfalen"}},{"name":"Kleiststr.","postalCode":"58540","locality":"Meinerzhagen","municipality":{"key":"05962036","name":"Meinerzhagen, Stadt","type":"Stadt"},"district":{"key":"05962","name":"Märkischer Kreis","type":"Kreis"},"federalState":{"key":"05","name":"Nordrhein-Westfalen"}},{"name":"Kohlbergstr.","postalCode":"58540","locality":"Meinerzhagen","municipality":{"key":"05962036","name":"Meinerzhagen, Stadt","type":"Stadt"},"district":{"key":"05962","name":"Märkischer Kreis","type":"Kreis"},"federalState":{"key":"05","name":"Nordrhein-Westfalen"}},{"name":"Königsberger Str.","postalCode":"58540","locality":"Meinerzhagen","municipality":{"key":"05962036","name":"Meinerzhagen, Stadt","type":"Stadt"},"district":{"key":"05962","name":"Märkischer Kreis","type":"Kreis"},"federalState":{"key":"05","name":"Nordrhein-Westfalen"}},{"name":"Königsfarnweg","postalCode":"58540","locality":"Meinerzhagen","municipality":{"key":"05962036","name":"Meinerzhagen, Stadt","type":"Stadt"},"district":{"key":"05962","name":"Märkischer Kreis","type":"Kreis"},"federalState":{"key":"05","name":"Nordrhein-Westfalen"}},{"name":"Korbecke","postalCode":"58540","locality":"Meinerzhagen","municipality":{"key":"05962036","name":"Meinerzhagen, Stadt","type":"Stadt"},"district":{"key":"05962","name":"Märkischer Kreis","type":"Kreis"},"federalState":{"key":"05","name":"Nordrhein-Westfalen"}},{"name":"Korbecker Weg","postalCode":"58540","locality":"Meinerzhagen","municipality":{"key":"05962036","name":"Meinerzhagen, Stadt","type":"Stadt"},"district":{"key":"05962","name":"Märkischer Kreis","type":"Kreis"},"federalState":{"key":"05","name":"Nordrhein-Westfalen"}},{"name":"Krabben","postalCode":"58540","locality":"Meinerzhagen","municipality":{"key":"05962036","name":"Meinerzhagen, Stadt","type":"Stadt"},"district":{"key":"05962","name":"Märkischer Kreis","type":"Kreis"},"federalState":{"key":"05","name":"Nordrhein-Westfalen"}},{"name":"Kropplenberg","postalCode":"58540","locality":"Meinerzhagen","municipality":{"key":"05962036","name":"Meinerzhagen, Stadt","type":"Stadt"},"district":{"key":"05962","name":"Märkischer Kreis","type":"Kreis"},"federalState":{"key":"05","name":"Nordrhein-Westfalen"}},{"name":"Krugmann-Kreisel","postalCode":"58540","locality":"Meinerzhagen","municipality":{"key":"05962036","name":"Meinerzhagen, Stadt","type":"Stadt"},"district":{"key":"05962","name":"Märkischer Kreis","type":"Kreis"},"federalState":{"key":"05","name":"Nordrhein-Westfalen"}},{"name":"Krummenerl","postalCode":"58540","locality":"Meinerzhagen","municipality":{"key":"05962036","name":"Meinerzhagen, Stadt","type":"Stadt"},"district":{"key":"05962","name":"Märkischer Kreis","type":"Kreis"},"federalState":{"key":"05","name":"Nordrhein-Westfalen"}},{"name":"Krummicker Weg","postalCode":"58540","locality":"Meinerzhagen","municipality":{"key":"05962036","name":"Meinerzhagen, Stadt","type":"Stadt"},"district":{"key":"05962","name":"Märkischer Kreis","type":"Kreis"},"federalState":{"key":"05","name":"Nordrhein-Westfalen"}},{"name":"L539","postalCode":"58540","locality":"Meinerzhagen","municipality":{"key":"05962036","name":"Meinerzhagen, Stadt","type":"Stadt"},"district":{"key":"05962","name":"Märkischer Kreis","type":"Kreis"},"federalState":{"key":"05","name":"Nordrhein-Westfalen"}},{"name":"Langenberg","postalCode":"58540","locality":"Meinerzhagen","municipality":{"key":"05962036","name":"Meinerzhagen, Stadt","type":"Stadt"},"district":{"key":"05962","name":"Märkischer Kreis","type":"Kreis"},"federalState":{"key":"05","name":"Nordrhein-Westfalen"}},{"name":"Lengelscheider Wirtschaftsweg","postalCode":"58540","locality":"Meinerzhagen","municipality":{"key":"05962036","name":"Meinerzhagen, Stadt","type":"Stadt"},"district":{"key":"05962","name":"Märkischer Kreis","type":"Kreis"},"federalState":{"key":"05","name":"Nordrhein-Westfalen"}},{"name":"Lesmicke","postalCode":"58540","locality":"Meinerzhagen","municipality":{"key":"05962036","name":"Meinerzhagen, Stadt","type":"Stadt"},"district":{"key":"05962","name":"Märkischer Kreis","type":"Kreis"},"federalState":{"key":"05","name":"Nordrhein-Westfalen"}},{"name":"Lessingstr.","postalCode":"58540","locality":"Meinerzhagen","municipality":{"key":"05962036","name":"Meinerzhagen, Stadt","type":"Stadt"},"district":{"key":"05962","name":"Märkischer Kreis","type":"Kreis"},"federalState":{"key":"05","name":"Nordrhein-Westfalen"}},{"name":"Leyenweg","postalCode":"58540","locality":"Meinerzhagen","municipality":{"key":"05962036","name":"Meinerzhagen, Stadt","type":"Stadt"},"district":{"key":"05962","name":"Märkischer Kreis","type":"Kreis"},"federalState":{"key":"05","name":"Nordrhein-Westfalen"}},{"name":"Lindenstr.","postalCode":"58540","locality":"Meinerzhagen","municipality":{"key":"05962036","name":"Meinerzhagen, Stadt","type":"Stadt"},"district":{"key":"05962","name":"Märkischer Kreis","type":"Kreis"},"federalState":{"key":"05","name":"Nordrhein-Westfalen"}},{"name":"Listerhammer","postalCode":"58540","locality":"Meinerzhagen","municipality":{"key":"05962036","name":"Meinerzhagen, Stadt","type":"Stadt"},"district":{"key":"05962","name":"Märkischer Kreis","type":"Kreis"},"federalState":{"key":"05","name":"Nordrhein-Westfalen"}},{"name":"Listerhof","postalCode":"58540","locality":"Meinerzhagen","municipality":{"key":"05962036","name":"Meinerzhagen, Stadt","type":"Stadt"},"district":{"key":"05962","name":"Märkischer Kreis","type":"Kreis"},"federalState":{"key":"05","name":"Nordrhein-Westfalen"}},{"name":"Listermühle","postalCode":"58540","locality":"Meinerzhagen","municipality":{"key":"05962036","name":"Meinerzhagen, Stadt","type":"Stadt"},"district":{"key":"05962","name":"Märkischer Kreis","type":"Kreis"},"federalState":{"key":"05","name":"Nordrhein-Westfalen"}},{"name":"Listerstr.","postalCode":"58540","locality":"Meinerzhagen","municipality":{"key":"05962036","name":"Meinerzhagen, Stadt","type":"Stadt"},"district":{"key":"05962","name":"Märkischer Kreis","type":"Kreis"},"federalState":{"key":"05","name":"Nordrhein-Westfalen"}},{"name":"Löher Weg","postalCode":"58540","locality":"Meinerzhagen","municipality":{"key":"05962036","name":"Meinerzhagen, Stadt","type":"Stadt"},"district":{"key":"05962","name":"Märkischer Kreis","type":"Kreis"},"federalState":{"key":"05","name":"Nordrhein-Westfalen"}},{"name":"Lohhagen","postalCode":"58540","locality":"Meinerzhagen","municipality":{"key":"05962036","name":"Meinerzhagen, Stadt","type":"Stadt"},"district":{"key":"05962","name":"Märkischer Kreis","type":"Kreis"},"federalState":{"key":"05","name":"Nordrhein-Westfalen"}},{"name":"Lortzingstr.","postalCode":"58540","locality":"Meinerzhagen","municipality":{"key":"05962036","name":"Meinerzhagen, Stadt","type":"Stadt"},"district":{"key":"05962","name":"Märkischer Kreis","type":"Kreis"},"federalState":{"key":"05","name":"Nordrhein-Westfalen"}},{"name":"Marienheider Str.","postalCode":"58540","locality":"Meinerzhagen","municipality":{"key":"05962036","name":"Meinerzhagen, Stadt","type":"Stadt"},"district":{"key":"05962","name":"Märkischer Kreis","type":"Kreis"},"federalState":{"key":"05","name":"Nordrhein-Westfalen"}},{"name":"Meinerzhagener_Weg","postalCode":"58540","locality":"Meinerzhagen","municipality":{"key":"05962036","name":"Meinerzhagen, Stadt","type":"Stadt"},"district":{"key":"05962","name":"Märkischer Kreis","type":"Kreis"},"federalState":{"key":"05","name":"Nordrhein-Westfalen"}},{"name":"Meisenweg","postalCode":"58540","locality":"Meinerzhagen","municipality":{"key":"05962036","name":"Meinerzhagen, Stadt","type":"Stadt"},"district":{"key":"05962","name":"Märkischer Kreis","type":"Kreis"},"federalState":{"key":"05","name":"Nordrhein-Westfalen"}},{"name":"Melmcheweg","postalCode":"58540","locality":"Meinerzhagen","municipality":{"key":"05962036","name":"Meinerzhagen, Stadt","type":"Stadt"},"district":{"key":"05962","name":"Märkischer Kreis","type":"Kreis"},"federalState":{"key":"05","name":"Nordrhein-Westfalen"}},{"name":"Milanweg","postalCode":"58540","locality":"Meinerzhagen","municipality":{"key":"05962036","name":"Meinerzhagen, Stadt","type":"Stadt"},"district":{"key":"05962","name":"Märkischer Kreis","type":"Kreis"},"federalState":{"key":"05","name":"Nordrhein-Westfalen"}},{"name":"Mittelhagen","postalCode":"58540","locality":"Meinerzhagen","municipality":{"key":"05962036","name":"Meinerzhagen, Stadt","type":"Stadt"},"district":{"key":"05962","name":"Märkischer Kreis","type":"Kreis"},"federalState":{"key":"05","name":"Nordrhein-Westfalen"}},{"name":"Mittellandstr.","postalCode":"58540","locality":"Meinerzhagen","municipality":{"key":"05962036","name":"Meinerzhagen, Stadt","type":"Stadt"},"district":{"key":"05962","name":"Märkischer Kreis","type":"Kreis"},"federalState":{"key":"05","name":"Nordrhein-Westfalen"}},{"name":"Mittelworbscheid","postalCode":"58540","locality":"Meinerzhagen","municipality":{"key":"05962036","name":"Meinerzhagen, Stadt","type":"Stadt"},"district":{"key":"05962","name":"Märkischer Kreis","type":"Kreis"},"federalState":{"key":"05","name":"Nordrhein-Westfalen"}},{"name":"Mönchspfad (Heidenstr.)","postalCode":"58540","locality":"Meinerzhagen","municipality":{"key":"05962036","name":"Meinerzhagen, Stadt","type":"Stadt"},"district":{"key":"05962","name":"Märkischer Kreis","type":"Kreis"},"federalState":{"key":"05","name":"Nordrhein-Westfalen"}},{"name":"Mörikeweg","postalCode":"58540","locality":"Meinerzhagen","municipality":{"key":"05962036","name":"Meinerzhagen, Stadt","type":"Stadt"},"district":{"key":"05962","name":"Märkischer Kreis","type":"Kreis"},"federalState":{"key":"05","name":"Nordrhein-Westfalen"}},{"name":"Mozartstr.","postalCode":"58540","locality":"Meinerzhagen","municipality":{"key":"05962036","name":"Meinerzhagen, Stadt","type":"Stadt"},"district":{"key":"05962","name":"Märkischer Kreis","type":"Kreis"},"federalState":{"key":"05","name":"Nordrhein-Westfalen"}},{"name":"Mühlenbergstr.","postalCode":"58540","locality":"Meinerzhagen","municipality":{"key":"05962036","name":"Meinerzhagen, Stadt","type":"Stadt"},"district":{"key":"05962","name":"Märkischer Kreis","type":"Kreis"},"federalState":{"key":"05","name":"Nordrhein-Westfalen"}},{"name":"Mühlhofe","postalCode":"58540","locality":"Meinerzhagen","municipality":{"key":"05962036","name":"Meinerzhagen, Stadt","type":"Stadt"},"district":{"key":"05962","name":"Märkischer Kreis","type":"Kreis"},"federalState":{"key":"05","name":"Nordrhein-Westfalen"}},{"name":"Nelkenweg","postalCode":"58540","locality":"Meinerzhagen","municipality":{"key":"05962036","name":"Meinerzhagen, Stadt","type":"Stadt"},"district":{"key":"05962","name":"Märkischer Kreis","type":"Kreis"},"federalState":{"key":"05","name":"Nordrhein-Westfalen"}},{"name":"Neuebrücke","postalCode":"58540","locality":"Meinerzhagen","municipality":{"key":"05962036","name":"Meinerzhagen, Stadt","type":"Stadt"},"district":{"key":"05962","name":"Märkischer Kreis","type":"Kreis"},"federalState":{"key":"05","name":"Nordrhein-Westfalen"}},{"name":"Neuemühle","postalCode":"58540","locality":"Meinerzhagen","municipality":{"key":"05962036","name":"Meinerzhagen, Stadt","type":"Stadt"},"district":{"key":"05962","name":"Märkischer Kreis","type":"Kreis"},"federalState":{"key":"05","name":"Nordrhein-Westfalen"}},{"name":"Neuer Weg","postalCode":"58540","locality":"Meinerzhagen","municipality":{"key":"05962036","name":"Meinerzhagen, Stadt","type":"Stadt"},"district":{"key":"05962","name":"Märkischer Kreis","type":"Kreis"},"federalState":{"key":"05","name":"Nordrhein-Westfalen"}},{"name":"Niederhengstenberg","postalCode":"58540","locality":"Meinerzhagen","municipality":{"key":"05962036","name":"Meinerzhagen, Stadt","type":"Stadt"},"district":{"key":"05962","name":"Märkischer Kreis","type":"Kreis"},"federalState":{"key":"05","name":"Nordrhein-Westfalen"}},{"name":"Nietzscheweg","postalCode":"58540","locality":"Meinerzhagen","municipality":{"key":"05962036","name":"Meinerzhagen, Stadt","type":"Stadt"},"district":{"key":"05962","name":"Märkischer Kreis","type":"Kreis"},"federalState":{"key":"05","name":"Nordrhein-Westfalen"}},{"name":"Nocken","postalCode":"58540","locality":"Meinerzhagen","municipality":{"key":"05962036","name":"Meinerzhagen, Stadt","type":"Stadt"},"district":{"key":"05962","name":"Märkischer Kreis","type":"Kreis"},"federalState":{"key":"05","name":"Nordrhein-Westfalen"}},{"name":"Nordhellen","postalCode":"58540","locality":"Meinerzhagen","municipality":{"key":"05962036","name":"Meinerzhagen, Stadt","type":"Stadt"},"district":{"key":"05962","name":"Märkischer Kreis","type":"Kreis"},"federalState":{"key":"05","name":"Nordrhein-Westfalen"}},{"name":"Nordumgehung","postalCode":"58540","locality":"Meinerzhagen","municipality":{"key":"05962036","name":"Meinerzhagen, Stadt","type":"Stadt"},"district":{"key":"05962","name":"Märkischer Kreis","type":"Kreis"},"federalState":{"key":"05","name":"Nordrhein-Westfalen"}},{"name":"Nußbaumweg","postalCode":"58540","locality":"Meinerzhagen","municipality":{"key":"05962036","name":"Meinerzhagen, Stadt","type":"Stadt"},"district":{"key":"05962","name":"Märkischer Kreis","type":"Kreis"},"federalState":{"key":"05","name":"Nordrhein-Westfalen"}},{"name":"Obere Volmestr.","postalCode":"58540","locality":"Meinerzhagen","municipality":{"key":"05962036","name":"Meinerzhagen, Stadt","type":"Stadt"},"district":{"key":"05962","name":"Märkischer Kreis","type":"Kreis"},"federalState":{"key":"05","name":"Nordrhein-Westfalen"}},{"name":"Oberkorbecke","postalCode":"58540","locality":"Meinerzhagen","municipality":{"key":"05962036","name":"Meinerzhagen, Stadt","type":"Stadt"},"district":{"key":"05962","name":"Märkischer Kreis","type":"Kreis"},"federalState":{"key":"05","name":"Nordrhein-Westfalen"}},{"name":"Oberworbscheid","postalCode":"58540","locality":"Meinerzhagen","municipality":{"key":"05962036","name":"Meinerzhagen, Stadt","type":"Stadt"},"district":{"key":"05962","name":"Märkischer Kreis","type":"Kreis"},"federalState":{"key":"05","name":"Nordrhein-Westfalen"}},{"name":"Ohl","postalCode":"58540","locality":"Meinerzhagen","municipality":{"key":"05962036","name":"Meinerzhagen, Stadt","type":"Stadt"},"district":{"key":"05962","name":"Märkischer Kreis","type":"Kreis"},"federalState":{"key":"05","name":"Nordrhein-Westfalen"}},{"name":"Oststr.","postalCode":"58540","locality":"Meinerzhagen","municipality":{"key":"05962036","name":"Meinerzhagen, Stadt","type":"Stadt"},"district":{"key":"05962","name":"Märkischer Kreis","type":"Kreis"},"federalState":{"key":"05","name":"Nordrhein-Westfalen"}},{"name":"Otto-Fuchs-Str.","postalCode":"58540","locality":"Meinerzhagen","municipality":{"key":"05962036","name":"Meinerzhagen, Stadt","type":"Stadt"},"district":{"key":"05962","name":"Märkischer Kreis","type":"Kreis"},"federalState":{"key":"05","name":"Nordrhein-Westfalen"}},{"name":"Pestalozzistr.","postalCode":"58540","locality":"Meinerzhagen","municipality":{"key":"05962036","name":"Meinerzhagen, Stadt","type":"Stadt"},"district":{"key":"05962","name":"Märkischer Kreis","type":"Kreis"},"federalState":{"key":"05","name":"Nordrhein-Westfalen"}},{"name":"Philosophenweg","postalCode":"58540","locality":"Meinerzhagen","municipality":{"key":"05962036","name":"Meinerzhagen, Stadt","type":"Stadt"},"district":{"key":"05962","name":"Märkischer Kreis","type":"Kreis"},"federalState":{"key":"05","name":"Nordrhein-Westfalen"}},{"name":"Piepenströtken","postalCode":"58540","locality":"Meinerzhagen","municipality":{"key":"05962036","name":"Meinerzhagen, Stadt","type":"Stadt"},"district":{"key":"05962","name":"Märkischer Kreis","type":"Kreis"},"federalState":{"key":"05","name":"Nordrhein-Westfalen"}},{"name":"Prumbomweg","postalCode":"58540","locality":"Meinerzhagen","municipality":{"key":"05962036","name":"Meinerzhagen, Stadt","type":"Stadt"},"district":{"key":"05962","name":"Märkischer Kreis","type":"Kreis"},"federalState":{"key":"05","name":"Nordrhein-Westfalen"}},{"name":"Pütthof","postalCode":"58540","locality":"Meinerzhagen","municipality":{"key":"05962036","name":"Meinerzhagen, Stadt","type":"Stadt"},"district":{"key":"05962","name":"Märkischer Kreis","type":"Kreis"},"federalState":{"key":"05","name":"Nordrhein-Westfalen"}},{"name":"Redlendorf","postalCode":"58540","locality":"Meinerzhagen","municipality":{"key":"05962036","name":"Meinerzhagen, Stadt","type":"Stadt"},"district":{"key":"05962","name":"Märkischer Kreis","type":"Kreis"},"federalState":{"key":"05","name":"Nordrhein-Westfalen"}},{"name":"Rehberg","postalCode":"58540","locality":"Meinerzhagen","municipality":{"key":"05962036","name":"Meinerzhagen, Stadt","type":"Stadt"},"district":{"key":"05962","name":"Märkischer Kreis","type":"Kreis"},"federalState":{"key":"05","name":"Nordrhein-Westfalen"}},{"name":"Reichenberger Weg","postalCode":"58540","locality":"Meinerzhagen","municipality":{"key":"05962036","name":"Meinerzhagen, Stadt","type":"Stadt"},"district":{"key":"05962","name":"Märkischer Kreis","type":"Kreis"},"federalState":{"key":"05","name":"Nordrhein-Westfalen"}},{"name":"Rengerfohr","postalCode":"58540","locality":"Meinerzhagen","municipality":{"key":"05962036","name":"Meinerzhagen, Stadt","type":"Stadt"},"district":{"key":"05962","name":"Märkischer Kreis","type":"Kreis"},"federalState":{"key":"05","name":"Nordrhein-Westfalen"}},{"name":"Rinkscheid","postalCode":"58540","locality":"Meinerzhagen","municipality":{"key":"05962036","name":"Meinerzhagen, Stadt","type":"Stadt"},"district":{"key":"05962","name":"Märkischer Kreis","type":"Kreis"},"federalState":{"key":"05","name":"Nordrhein-Westfalen"}},{"name":"Rinkscheider Schützenweg","postalCode":"58540","locality":"Meinerzhagen","municipality":{"key":"05962036","name":"Meinerzhagen, Stadt","type":"Stadt"},"district":{"key":"05962","name":"Märkischer Kreis","type":"Kreis"},"federalState":{"key":"05","name":"Nordrhein-Westfalen"}},{"name":"Robchestr.","postalCode":"58540","locality":"Meinerzhagen","municipality":{"key":"05962036","name":"Meinerzhagen, Stadt","type":"Stadt"},"district":{"key":"05962","name":"Märkischer Kreis","type":"Kreis"},"federalState":{"key":"05","name":"Nordrhein-Westfalen"}},{"name":"Rollsiepen","postalCode":"58540","locality":"Meinerzhagen","municipality":{"key":"05962036","name":"Meinerzhagen, Stadt","type":"Stadt"},"district":{"key":"05962","name":"Märkischer Kreis","type":"Kreis"},"federalState":{"key":"05","name":"Nordrhein-Westfalen"}},{"name":"Rosenburg","postalCode":"58540","locality":"Meinerzhagen","municipality":{"key":"05962036","name":"Meinerzhagen, Stadt","type":"Stadt"},"district":{"key":"05962","name":"Märkischer Kreis","type":"Kreis"},"federalState":{"key":"05","name":"Nordrhein-Westfalen"}},{"name":"Rosenweg","postalCode":"58540","locality":"Meinerzhagen","municipality":{"key":"05962036","name":"Meinerzhagen, Stadt","type":"Stadt"},"district":{"key":"05962","name":"Märkischer Kreis","type":"Kreis"},"federalState":{"key":"05","name":"Nordrhein-Westfalen"}},{"name":"Rügener Weg","postalCode":"58540","locality":"Meinerzhagen","municipality":{"key":"05962036","name":"Meinerzhagen, Stadt","type":"Stadt"},"district":{"key":"05962","name":"Märkischer Kreis","type":"Kreis"},"federalState":{"key":"05","name":"Nordrhein-Westfalen"}},{"name":"Schaffeld","postalCode":"58540","locality":"Meinerzhagen","municipality":{"key":"05962036","name":"Meinerzhagen, Stadt","type":"Stadt"},"district":{"key":"05962","name":"Märkischer Kreis","type":"Kreis"},"federalState":{"key":"05","name":"Nordrhein-Westfalen"}},{"name":"Scherl","postalCode":"58540","locality":"Meinerzhagen","municipality":{"key":"05962036","name":"Meinerzhagen, Stadt","type":"Stadt"},"district":{"key":"05962","name":"Märkischer Kreis","type":"Kreis"},"federalState":{"key":"05","name":"Nordrhein-Westfalen"}},{"name":"Schillerstr.","postalCode":"58540","locality":"Meinerzhagen","municipality":{"key":"05962036","name":"Meinerzhagen, Stadt","type":"Stadt"},"district":{"key":"05962","name":"Märkischer Kreis","type":"Kreis"},"federalState":{"key":"05","name":"Nordrhein-Westfalen"}},{"name":"Schlehdornweg","postalCode":"58540","locality":"Meinerzhagen","municipality":{"key":"05962036","name":"Meinerzhagen, Stadt","type":"Stadt"},"district":{"key":"05962","name":"Märkischer Kreis","type":"Kreis"},"federalState":{"key":"05","name":"Nordrhein-Westfalen"}},{"name":"Schleifkotten","postalCode":"58540","locality":"Meinerzhagen","municipality":{"key":"05962036","name":"Meinerzhagen, Stadt","type":"Stadt"},"district":{"key":"05962","name":"Märkischer Kreis","type":"Kreis"},"federalState":{"key":"05","name":"Nordrhein-Westfalen"}},{"name":"Schlenke","postalCode":"58540","locality":"Meinerzhagen","municipality":{"key":"05962036","name":"Meinerzhagen, Stadt","type":"Stadt"},"district":{"key":"05962","name":"Märkischer Kreis","type":"Kreis"},"federalState":{"key":"05","name":"Nordrhein-Westfalen"}},{"name":"Schlenker Str.","postalCode":"58540","locality":"Meinerzhagen","municipality":{"key":"05962036","name":"Meinerzhagen, Stadt","type":"Stadt"},"district":{"key":"05962","name":"Märkischer Kreis","type":"Kreis"},"federalState":{"key":"05","name":"Nordrhein-Westfalen"}},{"name":"Schlund","postalCode":"58540","locality":"Meinerzhagen","municipality":{"key":"05962036","name":"Meinerzhagen, Stadt","type":"Stadt"},"district":{"key":"05962","name":"Märkischer Kreis","type":"Kreis"},"federalState":{"key":"05","name":"Nordrhein-Westfalen"}},{"name":"Schöppenkampstr.","postalCode":"58540","locality":"Meinerzhagen","municipality":{"key":"05962036","name":"Meinerzhagen, Stadt","type":"Stadt"},"district":{"key":"05962","name":"Märkischer Kreis","type":"Kreis"},"federalState":{"key":"05","name":"Nordrhein-Westfalen"}},{"name":"Schubertstr.","postalCode":"58540","locality":"Meinerzhagen","municipality":{"key":"05962036","name":"Meinerzhagen, Stadt","type":"Stadt"},"district":{"key":"05962","name":"Märkischer Kreis","type":"Kreis"},"federalState":{"key":"05","name":"Nordrhein-Westfalen"}},{"name":"Schulstr.","postalCode":"58540","locality":"Meinerzhagen","municipality":{"key":"05962036","name":"Meinerzhagen, Stadt","type":"Stadt"},"district":{"key":"05962","name":"Märkischer Kreis","type":"Kreis"},"federalState":{"key":"05","name":"Nordrhein-Westfalen"}},{"name":"Schürfelde","postalCode":"58540","locality":"Meinerzhagen","municipality":{"key":"05962036","name":"Meinerzhagen, Stadt","type":"Stadt"},"district":{"key":"05962","name":"Märkischer Kreis","type":"Kreis"},"federalState":{"key":"05","name":"Nordrhein-Westfalen"}},{"name":"Schützenkreisel","postalCode":"58540","locality":"Meinerzhagen","municipality":{"key":"05962036","name":"Meinerzhagen, Stadt","type":"Stadt"},"district":{"key":"05962","name":"Märkischer Kreis","type":"Kreis"},"federalState":{"key":"05","name":"Nordrhein-Westfalen"}},{"name":"Schützenstr.","postalCode":"58540","locality":"Meinerzhagen","municipality":{"key":"05962036","name":"Meinerzhagen, Stadt","type":"Stadt"},"district":{"key":"05962","name":"Märkischer Kreis","type":"Kreis"},"federalState":{"key":"05","name":"Nordrhein-Westfalen"}},{"name":"Schwalbenweg","postalCode":"58540","locality":"Meinerzhagen","municipality":{"key":"05962036","name":"Meinerzhagen, Stadt","type":"Stadt"},"district":{"key":"05962","name":"Märkischer Kreis","type":"Kreis"},"federalState":{"key":"05","name":"Nordrhein-Westfalen"}},{"name":"Schwarzenberg","postalCode":"58540","locality":"Meinerzhagen","municipality":{"key":"05962036","name":"Meinerzhagen, Stadt","type":"Stadt"},"district":{"key":"05962","name":"Märkischer Kreis","type":"Kreis"},"federalState":{"key":"05","name":"Nordrhein-Westfalen"}},{"name":"Sebastopol","postalCode":"58540","locality":"Meinerzhagen","municipality":{"key":"05962036","name":"Meinerzhagen, Stadt","type":"Stadt"},"district":{"key":"05962","name":"Märkischer Kreis","type":"Kreis"},"federalState":{"key":"05","name":"Nordrhein-Westfalen"}},{"name":"Seeuferstr.","postalCode":"58540","locality":"Meinerzhagen","municipality":{"key":"05962036","name":"Meinerzhagen, Stadt","type":"Stadt"},"district":{"key":"05962","name":"Märkischer Kreis","type":"Kreis"},"federalState":{"key":"05","name":"Nordrhein-Westfalen"}},{"name":"Sellenrade","postalCode":"58540","locality":"Meinerzhagen","municipality":{"key":"05962036","name":"Meinerzhagen, Stadt","type":"Stadt"},"district":{"key":"05962","name":"Märkischer Kreis","type":"Kreis"},"federalState":{"key":"05","name":"Nordrhein-Westfalen"}},{"name":"Sichtertal Weg","postalCode":"58540","locality":"Meinerzhagen","municipality":{"key":"05962036","name":"Meinerzhagen, Stadt","type":"Stadt"},"district":{"key":"05962","name":"Märkischer Kreis","type":"Kreis"},"federalState":{"key":"05","name":"Nordrhein-Westfalen"}},{"name":"Siepen","postalCode":"58540","locality":"Meinerzhagen","municipality":{"key":"05962036","name":"Meinerzhagen, Stadt","type":"Stadt"},"district":{"key":"05962","name":"Märkischer Kreis","type":"Kreis"},"federalState":{"key":"05","name":"Nordrhein-Westfalen"}},{"name":"Siepener Weg","postalCode":"58540","locality":"Meinerzhagen","municipality":{"key":"05962036","name":"Meinerzhagen, Stadt","type":"Stadt"},"district":{"key":"05962","name":"Märkischer Kreis","type":"Kreis"},"federalState":{"key":"05","name":"Nordrhein-Westfalen"}},{"name":"Silberkuhlenweg","postalCode":"58540","locality":"Meinerzhagen","municipality":{"key":"05962036","name":"Meinerzhagen, Stadt","type":"Stadt"},"district":{"key":"05962","name":"Märkischer Kreis","type":"Kreis"},"federalState":{"key":"05","name":"Nordrhein-Westfalen"}},{"name":"Sinderhauf","postalCode":"58540","locality":"Meinerzhagen","municipality":{"key":"05962036","name":"Meinerzhagen, Stadt","type":"Stadt"},"district":{"key":"05962","name":"Märkischer Kreis","type":"Kreis"},"federalState":{"key":"05","name":"Nordrhein-Westfalen"}},{"name":"Singerbrink","postalCode":"58540","locality":"Meinerzhagen","municipality":{"key":"05962036","name":"Meinerzhagen, Stadt","type":"Stadt"},"district":{"key":"05962","name":"Märkischer Kreis","type":"Kreis"},"federalState":{"key":"05","name":"Nordrhein-Westfalen"}},{"name":"Spädinghausen","postalCode":"58540","locality":"Meinerzhagen","municipality":{"key":"05962036","name":"Meinerzhagen, Stadt","type":"Stadt"},"district":{"key":"05962","name":"Märkischer Kreis","type":"Kreis"},"federalState":{"key":"05","name":"Nordrhein-Westfalen"}},{"name":"Sperberweg","postalCode":"58540","locality":"Meinerzhagen","municipality":{"key":"05962036","name":"Meinerzhagen, Stadt","type":"Stadt"},"district":{"key":"05962","name":"Märkischer Kreis","type":"Kreis"},"federalState":{"key":"05","name":"Nordrhein-Westfalen"}},{"name":"Spitzenbergstr.","postalCode":"58540","locality":"Meinerzhagen","municipality":{"key":"05962036","name":"Meinerzhagen, Stadt","type":"Stadt"},"district":{"key":"05962","name":"Märkischer Kreis","type":"Kreis"},"federalState":{"key":"05","name":"Nordrhein-Westfalen"}},{"name":"Starenweg","postalCode":"58540","locality":"Meinerzhagen","municipality":{"key":"05962036","name":"Meinerzhagen, Stadt","type":"Stadt"},"district":{"key":"05962","name":"Märkischer Kreis","type":"Kreis"},"federalState":{"key":"05","name":"Nordrhein-Westfalen"}},{"name":"St.-Cyr-Allee","postalCode":"58540","locality":"Meinerzhagen","municipality":{"key":"05962036","name":"Meinerzhagen, Stadt","type":"Stadt"},"district":{"key":"05962","name":"Märkischer Kreis","type":"Kreis"},"federalState":{"key":"05","name":"Nordrhein-Westfalen"}},{"name":"Steinsgüntenbecke","postalCode":"58540","locality":"Meinerzhagen","municipality":{"key":"05962036","name":"Meinerzhagen, Stadt","type":"Stadt"},"district":{"key":"05962","name":"Märkischer Kreis","type":"Kreis"},"federalState":{"key":"05","name":"Nordrhein-Westfalen"}},{"name":"Stettiner Str.","postalCode":"58540","locality":"Meinerzhagen","municipality":{"key":"05962036","name":"Meinerzhagen, Stadt","type":"Stadt"},"district":{"key":"05962","name":"Märkischer Kreis","type":"Kreis"},"federalState":{"key":"05","name":"Nordrhein-Westfalen"}},{"name":"Stoltenberg","postalCode":"58540","locality":"Meinerzhagen","municipality":{"key":"05962036","name":"Meinerzhagen, Stadt","type":"Stadt"},"district":{"key":"05962","name":"Märkischer Kreis","type":"Kreis"},"federalState":{"key":"05","name":"Nordrhein-Westfalen"}},{"name":"Stürkergasse","postalCode":"58540","locality":"Meinerzhagen","municipality":{"key":"05962036","name":"Meinerzhagen, Stadt","type":"Stadt"},"district":{"key":"05962","name":"Märkischer Kreis","type":"Kreis"},"federalState":{"key":"05","name":"Nordrhein-Westfalen"}},{"name":"Südhangweg","postalCode":"58540","locality":"Meinerzhagen","municipality":{"key":"05962036","name":"Meinerzhagen, Stadt","type":"Stadt"},"district":{"key":"05962","name":"Märkischer Kreis","type":"Kreis"},"federalState":{"key":"05","name":"Nordrhein-Westfalen"}},{"name":"Südstr.","postalCode":"58540","locality":"Meinerzhagen","municipality":{"key":"05962036","name":"Meinerzhagen, Stadt","type":"Stadt"},"district":{"key":"05962","name":"Märkischer Kreis","type":"Kreis"},"federalState":{"key":"05","name":"Nordrhein-Westfalen"}},{"name":"Sulenbecker Grund","postalCode":"58540","locality":"Meinerzhagen","municipality":{"key":"05962036","name":"Meinerzhagen, Stadt","type":"Stadt"},"district":{"key":"05962","name":"Märkischer Kreis","type":"Kreis"},"federalState":{"key":"05","name":"Nordrhein-Westfalen"}},{"name":"Sulenbecker Weg","postalCode":"58540","locality":"Meinerzhagen","municipality":{"key":"05962036","name":"Meinerzhagen, Stadt","type":"Stadt"},"district":{"key":"05962","name":"Märkischer Kreis","type":"Kreis"},"federalState":{"key":"05","name":"Nordrhein-Westfalen"}},{"name":"Sundfeld","postalCode":"58540","locality":"Meinerzhagen","municipality":{"key":"05962036","name":"Meinerzhagen, Stadt","type":"Stadt"},"district":{"key":"05962","name":"Märkischer Kreis","type":"Kreis"},"federalState":{"key":"05","name":"Nordrhein-Westfalen"}},{"name":"Talstr.","postalCode":"58540","locality":"Meinerzhagen","municipality":{"key":"05962036","name":"Meinerzhagen, Stadt","type":"Stadt"},"district":{"key":"05962","name":"Märkischer Kreis","type":"Kreis"},"federalState":{"key":"05","name":"Nordrhein-Westfalen"}},{"name":"Tannenburgstr.","postalCode":"58540","locality":"Meinerzhagen","municipality":{"key":"05962036","name":"Meinerzhagen, Stadt","type":"Stadt"},"district":{"key":"05962","name":"Märkischer Kreis","type":"Kreis"},"federalState":{"key":"05","name":"Nordrhein-Westfalen"}},{"name":"Taubenweg","postalCode":"58540","locality":"Meinerzhagen","municipality":{"key":"05962036","name":"Meinerzhagen, Stadt","type":"Stadt"},"district":{"key":"05962","name":"Märkischer Kreis","type":"Kreis"},"federalState":{"key":"05","name":"Nordrhein-Westfalen"}},{"name":"Teichstr.","postalCode":"58540","locality":"Meinerzhagen","municipality":{"key":"05962036","name":"Meinerzhagen, Stadt","type":"Stadt"},"district":{"key":"05962","name":"Märkischer Kreis","type":"Kreis"},"federalState":{"key":"05","name":"Nordrhein-Westfalen"}},{"name":"Tulpenweg","postalCode":"58540","locality":"Meinerzhagen","municipality":{"key":"05962036","name":"Meinerzhagen, Stadt","type":"Stadt"},"district":{"key":"05962","name":"Märkischer Kreis","type":"Kreis"},"federalState":{"key":"05","name":"Nordrhein-Westfalen"}},{"name":"Tunnelstr.","postalCode":"58540","locality":"Meinerzhagen","municipality":{"key":"05962036","name":"Meinerzhagen, Stadt","type":"Stadt"},"district":{"key":"05962","name":"Märkischer Kreis","type":"Kreis"},"federalState":{"key":"05","name":"Nordrhein-Westfalen"}},{"name":"Ulmenweg","postalCode":"58540","locality":"Meinerzhagen","municipality":{"key":"05962036","name":"Meinerzhagen, Stadt","type":"Stadt"},"district":{"key":"05962","name":"Märkischer Kreis","type":"Kreis"},"federalState":{"key":"05","name":"Nordrhein-Westfalen"}},{"name":"Unterm Bamberg","postalCode":"58540","locality":"Meinerzhagen","municipality":{"key":"05962036","name":"Meinerzhagen, Stadt","type":"Stadt"},"district":{"key":"05962","name":"Märkischer Kreis","type":"Kreis"},"federalState":{"key":"05","name":"Nordrhein-Westfalen"}},{"name":"Unterm Berge","postalCode":"58540","locality":"Meinerzhagen","municipality":{"key":"05962036","name":"Meinerzhagen, Stadt","type":"Stadt"},"district":{"key":"05962","name":"Märkischer Kreis","type":"Kreis"},"federalState":{"key":"05","name":"Nordrhein-Westfalen"}},{"name":"Unterm Busche","postalCode":"58540","locality":"Meinerzhagen","municipality":{"key":"05962036","name":"Meinerzhagen, Stadt","type":"Stadt"},"district":{"key":"05962","name":"Märkischer Kreis","type":"Kreis"},"federalState":{"key":"05","name":"Nordrhein-Westfalen"}},{"name":"Unterm Friedhof","postalCode":"58540","locality":"Meinerzhagen","municipality":{"key":"05962036","name":"Meinerzhagen, Stadt","type":"Stadt"},"district":{"key":"05962","name":"Märkischer Kreis","type":"Kreis"},"federalState":{"key":"05","name":"Nordrhein-Westfalen"}},{"name":"Unterm Hestenberg","postalCode":"58540","locality":"Meinerzhagen","municipality":{"key":"05962036","name":"Meinerzhagen, Stadt","type":"Stadt"},"district":{"key":"05962","name":"Märkischer Kreis","type":"Kreis"},"federalState":{"key":"05","name":"Nordrhein-Westfalen"}},{"name":"Unterm Weinbusch","postalCode":"58540","locality":"Meinerzhagen","municipality":{"key":"05962036","name":"Meinerzhagen, Stadt","type":"Stadt"},"district":{"key":"05962","name":"Märkischer Kreis","type":"Kreis"},"federalState":{"key":"05","name":"Nordrhein-Westfalen"}},{"name":"Unterworbscheid","postalCode":"58540","locality":"Meinerzhagen","municipality":{"key":"05962036","name":"Meinerzhagen, Stadt","type":"Stadt"},"district":{"key":"05962","name":"Märkischer Kreis","type":"Kreis"},"federalState":{"key":"05","name":"Nordrhein-Westfalen"}},{"name":"Valbert-Bahnhof","postalCode":"58540","locality":"Meinerzhagen","municipality":{"key":"05962036","name":"Meinerzhagen, Stadt","type":"Stadt"},"district":{"key":"05962","name":"Märkischer Kreis","type":"Kreis"},"federalState":{"key":"05","name":"Nordrhein-Westfalen"}},{"name":"Volkspark","postalCode":"58540","locality":"Meinerzhagen","municipality":{"key":"05962036","name":"Meinerzhagen, Stadt","type":"Stadt"},"district":{"key":"05962","name":"Märkischer Kreis","type":"Kreis"},"federalState":{"key":"05","name":"Nordrhein-Westfalen"}},{"name":"Volmestr.","postalCode":"58540","locality":"Meinerzhagen","municipality":{"key":"05962036","name":"Meinerzhagen, Stadt","type":"Stadt"},"district":{"key":"05962","name":"Märkischer Kreis","type":"Kreis"},"federalState":{"key":"05","name":"Nordrhein-Westfalen"}},{"name":"Vor der Gathe","postalCode":"58540","locality":"Meinerzhagen","municipality":{"key":"05962036","name":"Meinerzhagen, Stadt","type":"Stadt"},"district":{"key":"05962","name":"Märkischer Kreis","type":"Kreis"},"federalState":{"key":"05","name":"Nordrhein-Westfalen"}},{"name":"Vorderhagen","postalCode":"58540","locality":"Meinerzhagen","municipality":{"key":"05962036","name":"Meinerzhagen, Stadt","type":"Stadt"},"district":{"key":"05962","name":"Märkischer Kreis","type":"Kreis"},"federalState":{"key":"05","name":"Nordrhein-Westfalen"}},{"name":"Voßsiepen","postalCode":"58540","locality":"Meinerzhagen","municipality":{"key":"05962036","name":"Meinerzhagen, Stadt","type":"Stadt"},"district":{"key":"05962","name":"Märkischer Kreis","type":"Kreis"},"federalState":{"key":"05","name":"Nordrhein-Westfalen"}},{"name":"Wahrweg","postalCode":"58540","locality":"Meinerzhagen","municipality":{"key":"05962036","name":"Meinerzhagen, Stadt","type":"Stadt"},"district":{"key":"05962","name":"Märkischer Kreis","type":"Kreis"},"federalState":{"key":"05","name":"Nordrhein-Westfalen"}},{"name":"Waldstr.","postalCode":"58540","locality":"Meinerzhagen","municipality":{"key":"05962036","name":"Meinerzhagen, Stadt","type":"Stadt"},"district":{"key":"05962","name":"Märkischer Kreis","type":"Kreis"},"federalState":{"key":"05","name":"Nordrhein-Westfalen"}},{"name":"Wehe","postalCode":"58540","locality":"Meinerzhagen","municipality":{"key":"05962036","name":"Meinerzhagen, Stadt","type":"Stadt"},"district":{"key":"05962","name":"Märkischer Kreis","type":"Kreis"},"federalState":{"key":"05","name":"Nordrhein-Westfalen"}},{"name":"Weidenstr.","postalCode":"58540","locality":"Meinerzhagen","municipality":{"key":"05962036","name":"Meinerzhagen, Stadt","type":"Stadt"},"district":{"key":"05962","name":"Märkischer Kreis","type":"Kreis"},"federalState":{"key":"05","name":"Nordrhein-Westfalen"}},{"name":"Weißenpferd","postalCode":"58540","locality":"Meinerzhagen","municipality":{"key":"05962036","name":"Meinerzhagen, Stadt","type":"Stadt"},"district":{"key":"05962","name":"Märkischer Kreis","type":"Kreis"},"federalState":{"key":"05","name":"Nordrhein-Westfalen"}},{"name":"Werkshagen","postalCode":"58540","locality":"Meinerzhagen","municipality":{"key":"05962036","name":"Meinerzhagen, Stadt","type":"Stadt"},"district":{"key":"05962","name":"Märkischer Kreis","type":"Kreis"},"federalState":{"key":"05","name":"Nordrhein-Westfalen"}},{"name":"Werkshagener Str.","postalCode":"58540","locality":"Meinerzhagen","municipality":{"key":"05962036","name":"Meinerzhagen, Stadt","type":"Stadt"},"district":{"key":"05962","name":"Märkischer Kreis","type":"Kreis"},"federalState":{"key":"05","name":"Nordrhein-Westfalen"}},{"name":"Westebbe","postalCode":"58540","locality":"Meinerzhagen","municipality":{"key":"05962036","name":"Meinerzhagen, Stadt","type":"Stadt"},"district":{"key":"05962","name":"Märkischer Kreis","type":"Kreis"},"federalState":{"key":"05","name":"Nordrhein-Westfalen"}},{"name":"Weststr.","postalCode":"58540","locality":"Meinerzhagen","municipality":{"key":"05962036","name":"Meinerzhagen, Stadt","type":"Stadt"},"district":{"key":"05962","name":"Märkischer Kreis","type":"Kreis"},"federalState":{"key":"05","name":"Nordrhein-Westfalen"}},{"name":"Wiebche","postalCode":"58540","locality":"Meinerzhagen","municipality":{"key":"05962036","name":"Meinerzhagen, Stadt","type":"Stadt"},"district":{"key":"05962","name":"Märkischer Kreis","type":"Kreis"},"federalState":{"key":"05","name":"Nordrhein-Westfalen"}},{"name":"Wieden","postalCode":"58540","locality":"Meinerzhagen","municipality":{"key":"05962036","name":"Meinerzhagen, Stadt","type":"Stadt"},"district":{"key":"05962","name":"Märkischer Kreis","type":"Kreis"},"federalState":{"key":"05","name":"Nordrhein-Westfalen"}},{"name":"Wiedenhoff","postalCode":"58540","locality":"Meinerzhagen","municipality":{"key":"05962036","name":"Meinerzhagen, Stadt","type":"Stadt"},"district":{"key":"05962","name":"Märkischer Kreis","type":"Kreis"},"federalState":{"key":"05","name":"Nordrhein-Westfalen"}},{"name":"Wiesenstr.","postalCode":"58540","locality":"Meinerzhagen","municipality":{"key":"05962036","name":"Meinerzhagen, Stadt","type":"Stadt"},"district":{"key":"05962","name":"Märkischer Kreis","type":"Kreis"},"federalState":{"key":"05","name":"Nordrhein-Westfalen"}},{"name":"Wilddiebsweg","postalCode":"58540","locality":"Meinerzhagen","municipality":{"key":"05962036","name":"Meinerzhagen, Stadt","type":"Stadt"},"district":{"key":"05962","name":"Märkischer Kreis","type":"Kreis"},"federalState":{"key":"05","name":"Nordrhein-Westfalen"}},{"name":"Wilkenberg","postalCode":"58540","locality":"Meinerzhagen","municipality":{"key":"05962036","name":"Meinerzhagen, Stadt","type":"Stadt"},"district":{"key":"05962","name":"Märkischer Kreis","type":"Kreis"},"federalState":{"key":"05","name":"Nordrhein-Westfalen"}},{"name":"Willertshagen","postalCode":"58540","locality":"Meinerzhagen","municipality":{"key":"05962036","name":"Meinerzhagen, Stadt","type":"Stadt"},"district":{"key":"05962","name":"Märkischer Kreis","type":"Kreis"},"federalState":{"key":"05","name":"Nordrhein-Westfalen"}},{"name":"Willertshagener Str.","postalCode":"58540","locality":"Meinerzhagen","municipality":{"key":"05962036","name":"Meinerzhagen, Stadt","type":"Stadt"},"district":{"key":"05962","name":"Märkischer Kreis","type":"Kreis"},"federalState":{"key":"05","name":"Nordrhein-Westfalen"}},{"name":"Willertshagener Weg","postalCode":"58540","locality":"Meinerzhagen","municipality":{"key":"05962036","name":"Meinerzhagen, Stadt","type":"Stadt"},"district":{"key":"05962","name":"Märkischer Kreis","type":"Kreis"},"federalState":{"key":"05","name":"Nordrhein-Westfalen"}},{"name":"Windebrucher Str.","postalCode":"58540","locality":"Meinerzhagen","municipality":{"key":"05962036","name":"Meinerzhagen, Stadt","type":"Stadt"},"district":{"key":"05962","name":"Märkischer Kreis","type":"Kreis"},"federalState":{"key":"05","name":"Nordrhein-Westfalen"}},{"name":"Wormgermühle","postalCode":"58540","locality":"Meinerzhagen","municipality":{"key":"05962036","name":"Meinerzhagen, Stadt","type":"Stadt"},"district":{"key":"05962","name":"Märkischer Kreis","type":"Kreis"},"federalState":{"key":"05","name":"Nordrhein-Westfalen"}},{"name":"Zeisigweg","postalCode":"58540","locality":"Meinerzhagen","municipality":{"key":"05962036","name":"Meinerzhagen, Stadt","type":"Stadt"},"district":{"key":"05962","name":"Märkischer Kreis","type":"Kreis"},"federalState":{"key":"05","name":"Nordrhein-Westfalen"}},{"name":"Zum alten Teich","postalCode":"58540","locality":"Meinerzhagen","municipality":{"key":"05962036","name":"Meinerzhagen, Stadt","type":"Stadt"},"district":{"key":"05962","name":"Märkischer Kreis","type":"Kreis"},"federalState":{"key":"05","name":"Nordrhein-Westfalen"}},{"name":"Zum Dutzenstein","postalCode":"58540","locality":"Meinerzhagen","municipality":{"key":"05962036","name":"Meinerzhagen, Stadt","type":"Stadt"},"district":{"key":"05962","name":"Märkischer Kreis","type":"Kreis"},"federalState":{"key":"05","name":"Nordrhein-Westfalen"}},{"name":"Zum Eickenhahn","postalCode":"58540","locality":"Meinerzhagen","municipality":{"key":"05962036","name":"Meinerzhagen, Stadt","type":"Stadt"},"district":{"key":"05962","name":"Märkischer Kreis","type":"Kreis"},"federalState":{"key":"05","name":"Nordrhein-Westfalen"}},{"name":"Zum Koppenkopf","postalCode":"58540","locality":"Meinerzhagen","municipality":{"key":"05962036","name":"Meinerzhagen, Stadt","type":"Stadt"},"district":{"key":"05962","name":"Märkischer Kreis","type":"Kreis"},"federalState":{"key":"05","name":"Nordrhein-Westfalen"}},{"name":"Zum Leier Hölzchen","postalCode":"58540","locality":"Meinerzhagen","municipality":{"key":"05962036","name":"Meinerzhagen, Stadt","type":"Stadt"},"district":{"key":"05962","name":"Märkischer Kreis","type":"Kreis"},"federalState":{"key":"05","name":"Nordrhein-Westfalen"}},{"name":"Zum Rothenstein","postalCode":"58540","locality":"Meinerzhagen","municipality":{"key":"05962036","name":"Meinerzhagen, Stadt","type":"Stadt"},"district":{"key":"05962","name":"Märkischer Kreis","type":"Kreis"},"federalState":{"key":"05","name":"Nordrhein-Westfalen"}},{"name":"Zum Schnüffel","postalCode":"58540","locality":"Meinerzhagen","municipality":{"key":"05962036","name":"Meinerzhagen, Stadt","type":"Stadt"},"district":{"key":"05962","name":"Märkischer Kreis","type":"Kreis"},"federalState":{"key":"05","name":"Nordrhein-Westfalen"}},{"name":"Zur Birkeshöh","postalCode":"58540","locality":"Meinerzhagen","municipality":{"key":"05962036","name":"Meinerzhagen, Stadt","type":"Stadt"},"district":{"key":"05962","name":"Märkischer Kreis","type":"Kreis"},"federalState":{"key":"05","name":"Nordrhein-Westfalen"}},{"name":"Zur Bunne","postalCode":"58540","locality":"Meinerzhagen","municipality":{"key":"05962036","name":"Meinerzhagen, Stadt","type":"Stadt"},"district":{"key":"05962","name":"Märkischer Kreis","type":"Kreis"},"federalState":{"key":"05","name":"Nordrhein-Westfalen"}},{"name":"Österfeld","postalCode":"58540","locality":"Meinerzhagen","municipality":{"key":"05962036","name":"Meinerzhagen, Stadt","type":"Stadt"},"district":{"key":"05962","name":"Märkischer Kreis","type":"Kreis"},"federalState":{"key":"05","name":"Nordrhein-Westfalen"}},{"name":"Überm Hofe","postalCode":"58540","locality":"Meinerzhagen","municipality":{"key":"05962036","name":"Meinerzhagen, Stadt","type":"Stadt"},"district":{"key":"05962","name":"Märkischer Kreis","type":"Kreis"},"federalState":{"key":"05","name":"Nordrhein-Westfalen"}},{"name":"Überm See","postalCode":"58540","locality":"Meinerzhagen","municipality":{"key":"05962036","name":"Meinerzhagen, Stadt","type":"Stadt"},"district":{"key":"05962","name":"Märkischer Kreis","type":"Kreis"},"federalState":{"key":"05","name":"Nordrhein-Westfalen"}},]