[{"key":"10252094","name":"Bois de Bouley","postalCode":"1785","locality":"Cressier FR","commune":{"key":"2257","name":"Cressier (FR)","shortName":"Cressier (FR)"},"district":{"key":"1005","name":"Bezirk See / District du Lac"},"canton":{"key":"10","code":"FR","name":"Fribourg / Freiburg"},"status":"Real"},{"key":"10191560","name":"Chemin de Bouley","postalCode":"1785","locality":"Cressier FR","commune":{"key":"2257","name":"Cressier (FR)","shortName":"Cressier (FR)"},"district":{"key":"1005","name":"Bezirk See / District du Lac"},"canton":{"key":"10","code":"FR","name":"Fribourg / Freiburg"},"status":"Real"},{"key":"10023511","name":"Chemin de Fontaley","postalCode":"1785","locality":"Cressier FR","commune":{"key":"2257","name":"Cressier (FR)","shortName":"Cressier (FR)"},"district":{"key":"1005","name":"Bezirk See / District du Lac"},"canton":{"key":"10","code":"FR","name":"Fribourg / Freiburg"},"status":"Real"},{"key":"10244111","name":"Chemin des Trois-Chênes","postalCode":"1785","locality":"Cressier FR","commune":{"key":"2257","name":"Cressier (FR)","shortName":"Cressier (FR)"},"district":{"key":"1005","name":"Bezirk See / District du Lac"},"canton":{"key":"10","code":"FR","name":"Fribourg / Freiburg"},"status":"Real"},{"key":"10252098","name":"Groetschlemy","postalCode":"1785","locality":"Cressier FR","commune":{"key":"2257","name":"Cressier (FR)","shortName":"Cressier (FR)"},"district":{"key":"1005","name":"Bezirk See / District du Lac"},"canton":{"key":"10","code":"FR","name":"Fribourg / Freiburg"},"status":"Real"},{"key":"10086285","name":"Impasse de la Halta","postalCode":"1785","locality":"Cressier FR","commune":{"key":"2257","name":"Cressier (FR)","shortName":"Cressier (FR)"},"district":{"key":"1005","name":"Bezirk See / District du Lac"},"canton":{"key":"10","code":"FR","name":"Fribourg / Freiburg"},"status":"Real"},{"key":"10023512","name":"Impasse du Jordil à Dillon","postalCode":"1785","locality":"Cressier FR","commune":{"key":"2257","name":"Cressier (FR)","shortName":"Cressier (FR)"},"district":{"key":"1005","name":"Bezirk See / District du Lac"},"canton":{"key":"10","code":"FR","name":"Fribourg / Freiburg"},"status":"Real"},{"key":"10105472","name":"La Gare","postalCode":"1785","locality":"Cressier FR","commune":{"key":"2257","name":"Cressier (FR)","shortName":"Cressier (FR)"},"district":{"key":"1005","name":"Bezirk See / District du Lac"},"canton":{"key":"10","code":"FR","name":"Fribourg / Freiburg"},"status":"Real"},{"key":"10252102","name":"Mauvais Prés","postalCode":"1785","locality":"Cressier FR","commune":{"key":"2257","name":"Cressier (FR)","shortName":"Cressier (FR)"},"district":{"key":"1005","name":"Bezirk See / District du Lac"},"canton":{"key":"10","code":"FR","name":"Fribourg / Freiburg"},"status":"Real"},{"key":"10104699","name":"Place de l'Eglise","postalCode":"1785","locality":"Cressier FR","commune":{"key":"2257","name":"Cressier (FR)","shortName":"Cressier (FR)"},"district":{"key":"1005","name":"Bezirk See / District du Lac"},"canton":{"key":"10","code":"FR","name":"Fribourg / Freiburg"},"status":"Real"},{"key":"10252107","name":"Prés des Planches","postalCode":"1785","locality":"Cressier FR","commune":{"key":"2257","name":"Cressier (FR)","shortName":"Cressier (FR)"},"district":{"key":"1005","name":"Bezirk See / District du Lac"},"canton":{"key":"10","code":"FR","name":"Fribourg / Freiburg"},"status":"Real"},{"key":"10072695","name":"Route de Cormondes","postalCode":"1785","locality":"Cressier FR","commune":{"key":"2257","name":"Cressier (FR)","shortName":"Cressier (FR)"},"district":{"key":"1005","name":"Bezirk See / District du Lac"},"canton":{"key":"10","code":"FR","name":"Fribourg / Freiburg"},"status":"Real"},{"key":"10252111","name":"Route de la Chapelle","postalCode":"1785","locality":"Cressier FR","commune":{"key":"2257","name":"Cressier (FR)","shortName":"Cressier (FR)"},"district":{"key":"1005","name":"Bezirk See / District du Lac"},"canton":{"key":"10","code":"FR","name":"Fribourg / Freiburg"},"status":"Real"},{"key":"10086287","name":"Route de la Gare","postalCode":"1785","locality":"Cressier FR","commune":{"key":"2257","name":"Cressier (FR)","shortName":"Cressier (FR)"},"district":{"key":"1005","name":"Bezirk See / District du Lac"},"canton":{"key":"10","code":"FR","name":"Fribourg / Freiburg"},"status":"Real"},{"key":"10023516","name":"Route de la Pâla","postalCode":"1785","locality":"Cressier FR","commune":{"key":"2257","name":"Cressier (FR)","shortName":"Cressier (FR)"},"district":{"key":"1005","name":"Bezirk See / District du Lac"},"canton":{"key":"10","code":"FR","name":"Fribourg / Freiburg"},"status":"Real"},{"key":"10072696","name":"Route de la Poya","postalCode":"1785","locality":"Cressier FR","commune":{"key":"2257","name":"Cressier (FR)","shortName":"Cressier (FR)"},"district":{"key":"1005","name":"Bezirk See / District du Lac"},"canton":{"key":"10","code":"FR","name":"Fribourg / Freiburg"},"status":"Real"},{"key":"10023515","name":"Route de l'Ecole","postalCode":"1785","locality":"Cressier FR","commune":{"key":"2257","name":"Cressier (FR)","shortName":"Cressier (FR)"},"district":{"key":"1005","name":"Bezirk See / District du Lac"},"canton":{"key":"10","code":"FR","name":"Fribourg / Freiburg"},"status":"Real"},{"key":"10023513","name":"Route d'Erbina","postalCode":"1785","locality":"Cressier FR","commune":{"key":"2257","name":"Cressier (FR)","shortName":"Cressier (FR)"},"district":{"key":"1005","name":"Bezirk See / District du Lac"},"canton":{"key":"10","code":"FR","name":"Fribourg / Freiburg"},"status":"Real"},{"key":"10023514","name":"Route de Salvagny","postalCode":"1785","locality":"Cressier FR","commune":{"key":"2257","name":"Cressier (FR)","shortName":"Cressier (FR)"},"district":{"key":"1005","name":"Bezirk See / District du Lac"},"canton":{"key":"10","code":"FR","name":"Fribourg / Freiburg"},"status":"Real"},{"key":"10152754","name":"Route des Chenevières","postalCode":"1785","locality":"Cressier FR","commune":{"key":"2257","name":"Cressier (FR)","shortName":"Cressier (FR)"},"district":{"key":"1005","name":"Bezirk See / District du Lac"},"canton":{"key":"10","code":"FR","name":"Fribourg / Freiburg"},"status":"Real"},{"key":"10181085","name":"Route des Roches","postalCode":"1785","locality":"Cressier FR","commune":{"key":"2257","name":"Cressier (FR)","shortName":"Cressier (FR)"},"district":{"key":"1005","name":"Bezirk See / District du Lac"},"canton":{"key":"10","code":"FR","name":"Fribourg / Freiburg"},"status":"Real"},{"key":"10107898","name":"Route de Villars-les-Moines","postalCode":"1785","locality":"Cressier FR","commune":{"key":"2257","name":"Cressier (FR)","shortName":"Cressier (FR)"},"district":{"key":"1005","name":"Bezirk See / District du Lac"},"canton":{"key":"10","code":"FR","name":"Fribourg / Freiburg"},"status":"Real"},{"key":"10023517","name":"Route du Moos","postalCode":"1785","locality":"Cressier FR","commune":{"key":"2257","name":"Cressier (FR)","shortName":"Cressier (FR)"},"district":{"key":"1005","name":"Bezirk See / District du Lac"},"canton":{"key":"10","code":"FR","name":"Fribourg / Freiburg"},"status":"Real"},{"key":"10086286","name":"Route du Pra-Rond","postalCode":"1785","locality":"Cressier FR","commune":{"key":"2257","name":"Cressier (FR)","shortName":"Cressier (FR)"},"district":{"key":"1005","name":"Bezirk See / District du Lac"},"canton":{"key":"10","code":"FR","name":"Fribourg / Freiburg"},"status":"Real"},{"key":"10090448","name":"Route du Pratzet","postalCode":"1785","locality":"Cressier FR","commune":{"key":"2257","name":"Cressier (FR)","shortName":"Cressier (FR)"},"district":{"key":"1005","name":"Bezirk See / District du Lac"},"canton":{"key":"10","code":"FR","name":"Fribourg / Freiburg"},"status":"Real"},{"key":"10077442","name":"Route Gonzague de Reynold","postalCode":"1785","locality":"Cressier FR","commune":{"key":"2257","name":"Cressier (FR)","shortName":"Cressier (FR)"},"district":{"key":"1005","name":"Bezirk See / District du Lac"},"canton":{"key":"10","code":"FR","name":"Fribourg / Freiburg"},"status":"Real"},{"key":"10252114","name":"Sur les Clos","postalCode":"1785","locality":"Cressier FR","commune":{"key":"2257","name":"Cressier (FR)","shortName":"Cressier (FR)"},"district":{"key":"1005","name":"Bezirk See / District du Lac"},"canton":{"key":"10","code":"FR","name":"Fribourg / Freiburg"},"status":"Real"},]