[{"name":"Adenauerstr.","postalCode":"73765","locality":"Neuhausen auf den Fildern","municipality":{"key":"08116047","name":"Neuhausen auf den Fildern","type":"Kreisangehörige_Gemeinde"},"district":{"key":"08116","name":"Esslingen","type":"Landkreis"},"federalState":{"key":"08","name":"Baden-Württemberg"}},{"name":"Albstr.","postalCode":"73765","locality":"Neuhausen auf den Fildern","municipality":{"key":"08116047","name":"Neuhausen auf den Fildern","type":"Kreisangehörige_Gemeinde"},"district":{"key":"08116","name":"Esslingen","type":"Landkreis"},"federalState":{"key":"08","name":"Baden-Württemberg"}},{"name":"Alemannenstr.","postalCode":"73765","locality":"Neuhausen auf den Fildern","municipality":{"key":"08116047","name":"Neuhausen auf den Fildern","type":"Kreisangehörige_Gemeinde"},"district":{"key":"08116","name":"Esslingen","type":"Landkreis"},"federalState":{"key":"08","name":"Baden-Württemberg"}},{"name":"Alfons-Frick-Weg","postalCode":"73765","locality":"Neuhausen auf den Fildern","municipality":{"key":"08116047","name":"Neuhausen auf den Fildern","type":"Kreisangehörige_Gemeinde"},"district":{"key":"08116","name":"Esslingen","type":"Landkreis"},"federalState":{"key":"08","name":"Baden-Württemberg"}},{"name":"Alfred-Delp-Weg","postalCode":"73765","locality":"Neuhausen auf den Fildern","municipality":{"key":"08116047","name":"Neuhausen auf den Fildern","type":"Kreisangehörige_Gemeinde"},"district":{"key":"08116","name":"Esslingen","type":"Landkreis"},"federalState":{"key":"08","name":"Baden-Württemberg"}},{"name":"Am Hasenwald","postalCode":"73765","locality":"Neuhausen auf den Fildern","municipality":{"key":"08116047","name":"Neuhausen auf den Fildern","type":"Kreisangehörige_Gemeinde"},"district":{"key":"08116","name":"Esslingen","type":"Landkreis"},"federalState":{"key":"08","name":"Baden-Württemberg"}},{"name":"Am Horber Wald","postalCode":"73765","locality":"Neuhausen auf den Fildern","municipality":{"key":"08116047","name":"Neuhausen auf den Fildern","type":"Kreisangehörige_Gemeinde"},"district":{"key":"08116","name":"Esslingen","type":"Landkreis"},"federalState":{"key":"08","name":"Baden-Württemberg"}},{"name":"Amselweg","postalCode":"73765","locality":"Neuhausen auf den Fildern","municipality":{"key":"08116047","name":"Neuhausen auf den Fildern","type":"Kreisangehörige_Gemeinde"},"district":{"key":"08116","name":"Esslingen","type":"Landkreis"},"federalState":{"key":"08","name":"Baden-Württemberg"}},{"name":"Asternweg","postalCode":"73765","locality":"Neuhausen auf den Fildern","municipality":{"key":"08116047","name":"Neuhausen auf den Fildern","type":"Kreisangehörige_Gemeinde"},"district":{"key":"08116","name":"Esslingen","type":"Landkreis"},"federalState":{"key":"08","name":"Baden-Württemberg"}},{"name":"Bäderstr.","postalCode":"73765","locality":"Neuhausen auf den Fildern","municipality":{"key":"08116047","name":"Neuhausen auf den Fildern","type":"Kreisangehörige_Gemeinde"},"district":{"key":"08116","name":"Esslingen","type":"Landkreis"},"federalState":{"key":"08","name":"Baden-Württemberg"}},{"name":"Bahnhofstr.","postalCode":"73765","locality":"Neuhausen auf den Fildern","municipality":{"key":"08116047","name":"Neuhausen auf den Fildern","type":"Kreisangehörige_Gemeinde"},"district":{"key":"08116","name":"Esslingen","type":"Landkreis"},"federalState":{"key":"08","name":"Baden-Württemberg"}},{"name":"Beethovenstr.","postalCode":"73765","locality":"Neuhausen auf den Fildern","municipality":{"key":"08116047","name":"Neuhausen auf den Fildern","type":"Kreisangehörige_Gemeinde"},"district":{"key":"08116","name":"Esslingen","type":"Landkreis"},"federalState":{"key":"08","name":"Baden-Württemberg"}},{"name":"Benzachweg","postalCode":"73765","locality":"Neuhausen auf den Fildern","municipality":{"key":"08116047","name":"Neuhausen auf den Fildern","type":"Kreisangehörige_Gemeinde"},"district":{"key":"08116","name":"Esslingen","type":"Landkreis"},"federalState":{"key":"08","name":"Baden-Württemberg"}},{"name":"Bernhäuser Str.","postalCode":"73765","locality":"Neuhausen auf den Fildern","municipality":{"key":"08116047","name":"Neuhausen auf den Fildern","type":"Kreisangehörige_Gemeinde"},"district":{"key":"08116","name":"Esslingen","type":"Landkreis"},"federalState":{"key":"08","name":"Baden-Württemberg"}},{"name":"Birkenweg","postalCode":"73765","locality":"Neuhausen auf den Fildern","municipality":{"key":"08116047","name":"Neuhausen auf den Fildern","type":"Kreisangehörige_Gemeinde"},"district":{"key":"08116","name":"Esslingen","type":"Landkreis"},"federalState":{"key":"08","name":"Baden-Württemberg"}},{"name":"Bismarckstr.","postalCode":"73765","locality":"Neuhausen auf den Fildern","municipality":{"key":"08116047","name":"Neuhausen auf den Fildern","type":"Kreisangehörige_Gemeinde"},"district":{"key":"08116","name":"Esslingen","type":"Landkreis"},"federalState":{"key":"08","name":"Baden-Württemberg"}},{"name":"Blumenstr.","postalCode":"73765","locality":"Neuhausen auf den Fildern","municipality":{"key":"08116047","name":"Neuhausen auf den Fildern","type":"Kreisangehörige_Gemeinde"},"district":{"key":"08116","name":"Esslingen","type":"Landkreis"},"federalState":{"key":"08","name":"Baden-Württemberg"}},{"name":"Brahmsweg","postalCode":"73765","locality":"Neuhausen auf den Fildern","municipality":{"key":"08116047","name":"Neuhausen auf den Fildern","type":"Kreisangehörige_Gemeinde"},"district":{"key":"08116","name":"Esslingen","type":"Landkreis"},"federalState":{"key":"08","name":"Baden-Württemberg"}},{"name":"Brühlstr.","postalCode":"73765","locality":"Neuhausen auf den Fildern","municipality":{"key":"08116047","name":"Neuhausen auf den Fildern","type":"Kreisangehörige_Gemeinde"},"district":{"key":"08116","name":"Esslingen","type":"Landkreis"},"federalState":{"key":"08","name":"Baden-Württemberg"}},{"name":"Brunnenstr.","postalCode":"73765","locality":"Neuhausen auf den Fildern","municipality":{"key":"08116047","name":"Neuhausen auf den Fildern","type":"Kreisangehörige_Gemeinde"},"district":{"key":"08116","name":"Esslingen","type":"Landkreis"},"federalState":{"key":"08","name":"Baden-Württemberg"}},{"name":"Burgstr.","postalCode":"73765","locality":"Neuhausen auf den Fildern","municipality":{"key":"08116047","name":"Neuhausen auf den Fildern","type":"Kreisangehörige_Gemeinde"},"district":{"key":"08116","name":"Esslingen","type":"Landkreis"},"federalState":{"key":"08","name":"Baden-Württemberg"}},{"name":"Camererweg","postalCode":"73732","locality":"Esslingen am Neckar","municipality":{"key":"08116019","name":"Esslingen am Neckar, Stadt","type":"Große_Kreisstadt"},"district":{"key":"08116","name":"Esslingen","type":"Landkreis"},"federalState":{"key":"08","name":"Baden-Württemberg"}},{"name":"Cannstatter Str.","postalCode":"73733","locality":"Esslingen am Neckar","municipality":{"key":"08116019","name":"Esslingen am Neckar, Stadt","type":"Große_Kreisstadt"},"district":{"key":"08116","name":"Esslingen","type":"Landkreis"},"federalState":{"key":"08","name":"Baden-Württemberg"}},{"name":"Champagnestr.","postalCode":"73734","locality":"Esslingen am Neckar","municipality":{"key":"08116019","name":"Esslingen am Neckar, Stadt","type":"Große_Kreisstadt"},"district":{"key":"08116","name":"Esslingen","type":"Landkreis"},"federalState":{"key":"08","name":"Baden-Württemberg"}},{"name":"Charlottenplatz","postalCode":"73728","locality":"Esslingen am Neckar","municipality":{"key":"08116019","name":"Esslingen am Neckar, Stadt","type":"Große_Kreisstadt"},"district":{"key":"08116","name":"Esslingen","type":"Landkreis"},"federalState":{"key":"08","name":"Baden-Württemberg"}},{"name":"Christian-Fink-Str.","postalCode":"73732","locality":"Esslingen am Neckar","municipality":{"key":"08116019","name":"Esslingen am Neckar, Stadt","type":"Große_Kreisstadt"},"district":{"key":"08116","name":"Esslingen","type":"Landkreis"},"federalState":{"key":"08","name":"Baden-Württemberg"}},{"name":"Christian-Knayer-Str.","postalCode":"73734","locality":"Esslingen am Neckar","municipality":{"key":"08116019","name":"Esslingen am Neckar, Stadt","type":"Große_Kreisstadt"},"district":{"key":"08116","name":"Esslingen","type":"Landkreis"},"federalState":{"key":"08","name":"Baden-Württemberg"}},{"name":"Christophstr.","postalCode":"73734","locality":"Esslingen am Neckar","municipality":{"key":"08116019","name":"Esslingen am Neckar, Stadt","type":"Große_Kreisstadt"},"district":{"key":"08116","name":"Esslingen","type":"Landkreis"},"federalState":{"key":"08","name":"Baden-Württemberg"}},{"name":"Dahlienweg","postalCode":"73765","locality":"Neuhausen auf den Fildern","municipality":{"key":"08116047","name":"Neuhausen auf den Fildern","type":"Kreisangehörige_Gemeinde"},"district":{"key":"08116","name":"Esslingen","type":"Landkreis"},"federalState":{"key":"08","name":"Baden-Württemberg"}},{"name":"Denkendorfer Str.","postalCode":"73765","locality":"Neuhausen auf den Fildern","municipality":{"key":"08116047","name":"Neuhausen auf den Fildern","type":"Kreisangehörige_Gemeinde"},"district":{"key":"08116","name":"Esslingen","type":"Landkreis"},"federalState":{"key":"08","name":"Baden-Württemberg"}},{"name":"Dietrich-Bonhoeffer-Str.","postalCode":"73765","locality":"Neuhausen auf den Fildern","municipality":{"key":"08116047","name":"Neuhausen auf den Fildern","type":"Kreisangehörige_Gemeinde"},"district":{"key":"08116","name":"Esslingen","type":"Landkreis"},"federalState":{"key":"08","name":"Baden-Württemberg"}},{"name":"Drosselweg","postalCode":"73765","locality":"Neuhausen auf den Fildern","municipality":{"key":"08116047","name":"Neuhausen auf den Fildern","type":"Kreisangehörige_Gemeinde"},"district":{"key":"08116","name":"Esslingen","type":"Landkreis"},"federalState":{"key":"08","name":"Baden-Württemberg"}},{"name":"Eberhardstr.","postalCode":"73765","locality":"Neuhausen auf den Fildern","municipality":{"key":"08116047","name":"Neuhausen auf den Fildern","type":"Kreisangehörige_Gemeinde"},"district":{"key":"08116","name":"Esslingen","type":"Landkreis"},"federalState":{"key":"08","name":"Baden-Württemberg"}},{"name":"Eichendorffweg","postalCode":"73765","locality":"Neuhausen auf den Fildern","municipality":{"key":"08116047","name":"Neuhausen auf den Fildern","type":"Kreisangehörige_Gemeinde"},"district":{"key":"08116","name":"Esslingen","type":"Landkreis"},"federalState":{"key":"08","name":"Baden-Württemberg"}},{"name":"Elsbeerweg","postalCode":"73765","locality":"Neuhausen auf den Fildern","municipality":{"key":"08116047","name":"Neuhausen auf den Fildern","type":"Kreisangehörige_Gemeinde"},"district":{"key":"08116","name":"Esslingen","type":"Landkreis"},"federalState":{"key":"08","name":"Baden-Württemberg"}},{"name":"Entenstr.","postalCode":"73765","locality":"Neuhausen auf den Fildern","municipality":{"key":"08116047","name":"Neuhausen auf den Fildern","type":"Kreisangehörige_Gemeinde"},"district":{"key":"08116","name":"Esslingen","type":"Landkreis"},"federalState":{"key":"08","name":"Baden-Württemberg"}},{"name":"Erlachweg","postalCode":"73765","locality":"Neuhausen auf den Fildern","municipality":{"key":"08116047","name":"Neuhausen auf den Fildern","type":"Kreisangehörige_Gemeinde"},"district":{"key":"08116","name":"Esslingen","type":"Landkreis"},"federalState":{"key":"08","name":"Baden-Württemberg"}},{"name":"Erlenweg","postalCode":"73765","locality":"Neuhausen auf den Fildern","municipality":{"key":"08116047","name":"Neuhausen auf den Fildern","type":"Kreisangehörige_Gemeinde"},"district":{"key":"08116","name":"Esslingen","type":"Landkreis"},"federalState":{"key":"08","name":"Baden-Württemberg"}},{"name":"Eschenweg","postalCode":"73765","locality":"Neuhausen auf den Fildern","municipality":{"key":"08116047","name":"Neuhausen auf den Fildern","type":"Kreisangehörige_Gemeinde"},"district":{"key":"08116","name":"Esslingen","type":"Landkreis"},"federalState":{"key":"08","name":"Baden-Württemberg"}},{"name":"Esslinger Str.","postalCode":"73765","locality":"Neuhausen auf den Fildern","municipality":{"key":"08116047","name":"Neuhausen auf den Fildern","type":"Kreisangehörige_Gemeinde"},"district":{"key":"08116","name":"Esslingen","type":"Landkreis"},"federalState":{"key":"08","name":"Baden-Württemberg"}},{"name":"Filderhöhe","postalCode":"73765","locality":"Neuhausen auf den Fildern","municipality":{"key":"08116047","name":"Neuhausen auf den Fildern","type":"Kreisangehörige_Gemeinde"},"district":{"key":"08116","name":"Esslingen","type":"Landkreis"},"federalState":{"key":"08","name":"Baden-Württemberg"}},{"name":"Filderstr.","postalCode":"73765","locality":"Neuhausen auf den Fildern","municipality":{"key":"08116047","name":"Neuhausen auf den Fildern","type":"Kreisangehörige_Gemeinde"},"district":{"key":"08116","name":"Esslingen","type":"Landkreis"},"federalState":{"key":"08","name":"Baden-Württemberg"}},{"name":"Finkenweg","postalCode":"73765","locality":"Neuhausen auf den Fildern","municipality":{"key":"08116047","name":"Neuhausen auf den Fildern","type":"Kreisangehörige_Gemeinde"},"district":{"key":"08116","name":"Esslingen","type":"Landkreis"},"federalState":{"key":"08","name":"Baden-Württemberg"}},{"name":"Fleinsbachstr.","postalCode":"73765","locality":"Neuhausen auf den Fildern","municipality":{"key":"08116047","name":"Neuhausen auf den Fildern","type":"Kreisangehörige_Gemeinde"},"district":{"key":"08116","name":"Esslingen","type":"Landkreis"},"federalState":{"key":"08","name":"Baden-Württemberg"}},{"name":"Fliederweg","postalCode":"73765","locality":"Neuhausen auf den Fildern","municipality":{"key":"08116047","name":"Neuhausen auf den Fildern","type":"Kreisangehörige_Gemeinde"},"district":{"key":"08116","name":"Esslingen","type":"Landkreis"},"federalState":{"key":"08","name":"Baden-Württemberg"}},{"name":"Frankenstr.","postalCode":"73765","locality":"Neuhausen auf den Fildern","municipality":{"key":"08116047","name":"Neuhausen auf den Fildern","type":"Kreisangehörige_Gemeinde"},"district":{"key":"08116","name":"Esslingen","type":"Landkreis"},"federalState":{"key":"08","name":"Baden-Württemberg"}},{"name":"Friedhofstr.","postalCode":"73765","locality":"Neuhausen auf den Fildern","municipality":{"key":"08116047","name":"Neuhausen auf den Fildern","type":"Kreisangehörige_Gemeinde"},"district":{"key":"08116","name":"Esslingen","type":"Landkreis"},"federalState":{"key":"08","name":"Baden-Württemberg"}},{"name":"Friedrichstr.","postalCode":"73765","locality":"Neuhausen auf den Fildern","municipality":{"key":"08116047","name":"Neuhausen auf den Fildern","type":"Kreisangehörige_Gemeinde"},"district":{"key":"08116","name":"Esslingen","type":"Landkreis"},"federalState":{"key":"08","name":"Baden-Württemberg"}},{"name":"Fronackerstr.","postalCode":"73765","locality":"Neuhausen auf den Fildern","municipality":{"key":"08116047","name":"Neuhausen auf den Fildern","type":"Kreisangehörige_Gemeinde"},"district":{"key":"08116","name":"Esslingen","type":"Landkreis"},"federalState":{"key":"08","name":"Baden-Württemberg"}},{"name":"Fuchslöcherstr.","postalCode":"73765","locality":"Neuhausen auf den Fildern","municipality":{"key":"08116047","name":"Neuhausen auf den Fildern","type":"Kreisangehörige_Gemeinde"},"district":{"key":"08116","name":"Esslingen","type":"Landkreis"},"federalState":{"key":"08","name":"Baden-Württemberg"}},{"name":"Gartenstr.","postalCode":"73765","locality":"Neuhausen auf den Fildern","municipality":{"key":"08116047","name":"Neuhausen auf den Fildern","type":"Kreisangehörige_Gemeinde"},"district":{"key":"08116","name":"Esslingen","type":"Landkreis"},"federalState":{"key":"08","name":"Baden-Württemberg"}},{"name":"Gottlieb-Daimler-Str.","postalCode":"73765","locality":"Neuhausen auf den Fildern","municipality":{"key":"08116047","name":"Neuhausen auf den Fildern","type":"Kreisangehörige_Gemeinde"},"district":{"key":"08116","name":"Esslingen","type":"Landkreis"},"federalState":{"key":"08","name":"Baden-Württemberg"}},{"name":"Grabenwiesenweg","postalCode":"73765","locality":"Neuhausen auf den Fildern","municipality":{"key":"08116047","name":"Neuhausen auf den Fildern","type":"Kreisangehörige_Gemeinde"},"district":{"key":"08116","name":"Esslingen","type":"Landkreis"},"federalState":{"key":"08","name":"Baden-Württemberg"}},{"name":"Haldenweg","postalCode":"73765","locality":"Neuhausen auf den Fildern","municipality":{"key":"08116047","name":"Neuhausen auf den Fildern","type":"Kreisangehörige_Gemeinde"},"district":{"key":"08116","name":"Esslingen","type":"Landkreis"},"federalState":{"key":"08","name":"Baden-Württemberg"}},{"name":"Harthäuser Str.","postalCode":"73765","locality":"Neuhausen auf den Fildern","municipality":{"key":"08116047","name":"Neuhausen auf den Fildern","type":"Kreisangehörige_Gemeinde"},"district":{"key":"08116","name":"Esslingen","type":"Landkreis"},"federalState":{"key":"08","name":"Baden-Württemberg"}},{"name":"Hauffstr.","postalCode":"73765","locality":"Neuhausen auf den Fildern","municipality":{"key":"08116047","name":"Neuhausen auf den Fildern","type":"Kreisangehörige_Gemeinde"},"district":{"key":"08116","name":"Esslingen","type":"Landkreis"},"federalState":{"key":"08","name":"Baden-Württemberg"}},{"name":"Haydnstr.","postalCode":"73765","locality":"Neuhausen auf den Fildern","municipality":{"key":"08116047","name":"Neuhausen auf den Fildern","type":"Kreisangehörige_Gemeinde"},"district":{"key":"08116","name":"Esslingen","type":"Landkreis"},"federalState":{"key":"08","name":"Baden-Württemberg"}},{"name":"Heckenweg","postalCode":"73765","locality":"Neuhausen auf den Fildern","municipality":{"key":"08116047","name":"Neuhausen auf den Fildern","type":"Kreisangehörige_Gemeinde"},"district":{"key":"08116","name":"Esslingen","type":"Landkreis"},"federalState":{"key":"08","name":"Baden-Württemberg"}},{"name":"Hegaustr.","postalCode":"73765","locality":"Neuhausen auf den Fildern","municipality":{"key":"08116047","name":"Neuhausen auf den Fildern","type":"Kreisangehörige_Gemeinde"},"district":{"key":"08116","name":"Esslingen","type":"Landkreis"},"federalState":{"key":"08","name":"Baden-Württemberg"}},{"name":"Hirtenweg","postalCode":"73765","locality":"Neuhausen auf den Fildern","municipality":{"key":"08116047","name":"Neuhausen auf den Fildern","type":"Kreisangehörige_Gemeinde"},"district":{"key":"08116","name":"Esslingen","type":"Landkreis"},"federalState":{"key":"08","name":"Baden-Württemberg"}},{"name":"Hochaustr.","postalCode":"73765","locality":"Neuhausen auf den Fildern","municipality":{"key":"08116047","name":"Neuhausen auf den Fildern","type":"Kreisangehörige_Gemeinde"},"district":{"key":"08116","name":"Esslingen","type":"Landkreis"},"federalState":{"key":"08","name":"Baden-Württemberg"}},{"name":"Hohenstaufenstr.","postalCode":"73765","locality":"Neuhausen auf den Fildern","municipality":{"key":"08116047","name":"Neuhausen auf den Fildern","type":"Kreisangehörige_Gemeinde"},"district":{"key":"08116","name":"Esslingen","type":"Landkreis"},"federalState":{"key":"08","name":"Baden-Württemberg"}},{"name":"Hölderlinstr.","postalCode":"73765","locality":"Neuhausen auf den Fildern","municipality":{"key":"08116047","name":"Neuhausen auf den Fildern","type":"Kreisangehörige_Gemeinde"},"district":{"key":"08116","name":"Esslingen","type":"Landkreis"},"federalState":{"key":"08","name":"Baden-Württemberg"}},{"name":"Im Holder","postalCode":"73765","locality":"Neuhausen auf den Fildern","municipality":{"key":"08116047","name":"Neuhausen auf den Fildern","type":"Kreisangehörige_Gemeinde"},"district":{"key":"08116","name":"Esslingen","type":"Landkreis"},"federalState":{"key":"08","name":"Baden-Württemberg"}},{"name":"Im Hopfengarten","postalCode":"73765","locality":"Neuhausen auf den Fildern","municipality":{"key":"08116047","name":"Neuhausen auf den Fildern","type":"Kreisangehörige_Gemeinde"},"district":{"key":"08116","name":"Esslingen","type":"Landkreis"},"federalState":{"key":"08","name":"Baden-Württemberg"}},{"name":"Im Kalkofen","postalCode":"73765","locality":"Neuhausen auf den Fildern","municipality":{"key":"08116047","name":"Neuhausen auf den Fildern","type":"Kreisangehörige_Gemeinde"},"district":{"key":"08116","name":"Esslingen","type":"Landkreis"},"federalState":{"key":"08","name":"Baden-Württemberg"}},{"name":"Im Zeiger","postalCode":"73765","locality":"Neuhausen auf den Fildern","municipality":{"key":"08116047","name":"Neuhausen auf den Fildern","type":"Kreisangehörige_Gemeinde"},"district":{"key":"08116","name":"Esslingen","type":"Landkreis"},"federalState":{"key":"08","name":"Baden-Württemberg"}},{"name":"In den Akademiegärten","postalCode":"73765","locality":"Neuhausen auf den Fildern","municipality":{"key":"08116047","name":"Neuhausen auf den Fildern","type":"Kreisangehörige_Gemeinde"},"district":{"key":"08116","name":"Esslingen","type":"Landkreis"},"federalState":{"key":"08","name":"Baden-Württemberg"}},{"name":"Jurastr.","postalCode":"73765","locality":"Neuhausen auf den Fildern","municipality":{"key":"08116047","name":"Neuhausen auf den Fildern","type":"Kreisangehörige_Gemeinde"},"district":{"key":"08116","name":"Esslingen","type":"Landkreis"},"federalState":{"key":"08","name":"Baden-Württemberg"}},{"name":"Kapellenweg","postalCode":"73765","locality":"Neuhausen auf den Fildern","municipality":{"key":"08116047","name":"Neuhausen auf den Fildern","type":"Kreisangehörige_Gemeinde"},"district":{"key":"08116","name":"Esslingen","type":"Landkreis"},"federalState":{"key":"08","name":"Baden-Württemberg"}},{"name":"Karlstr.","postalCode":"73765","locality":"Neuhausen auf den Fildern","municipality":{"key":"08116047","name":"Neuhausen auf den Fildern","type":"Kreisangehörige_Gemeinde"},"district":{"key":"08116","name":"Esslingen","type":"Landkreis"},"federalState":{"key":"08","name":"Baden-Württemberg"}},{"name":"Keltenstr.","postalCode":"73765","locality":"Neuhausen auf den Fildern","municipality":{"key":"08116047","name":"Neuhausen auf den Fildern","type":"Kreisangehörige_Gemeinde"},"district":{"key":"08116","name":"Esslingen","type":"Landkreis"},"federalState":{"key":"08","name":"Baden-Württemberg"}},{"name":"Kesslerstr.","postalCode":"73765","locality":"Neuhausen auf den Fildern","municipality":{"key":"08116047","name":"Neuhausen auf den Fildern","type":"Kreisangehörige_Gemeinde"},"district":{"key":"08116","name":"Esslingen","type":"Landkreis"},"federalState":{"key":"08","name":"Baden-Württemberg"}},{"name":"Kirchheimer Weg","postalCode":"73765","locality":"Neuhausen auf den Fildern","municipality":{"key":"08116047","name":"Neuhausen auf den Fildern","type":"Kreisangehörige_Gemeinde"},"district":{"key":"08116","name":"Esslingen","type":"Landkreis"},"federalState":{"key":"08","name":"Baden-Württemberg"}},{"name":"Kirchstr.","postalCode":"73765","locality":"Neuhausen auf den Fildern","municipality":{"key":"08116047","name":"Neuhausen auf den Fildern","type":"Kreisangehörige_Gemeinde"},"district":{"key":"08116","name":"Esslingen","type":"Landkreis"},"federalState":{"key":"08","name":"Baden-Württemberg"}},{"name":"Klingenäcker","postalCode":"73765","locality":"Neuhausen auf den Fildern","municipality":{"key":"08116047","name":"Neuhausen auf den Fildern","type":"Kreisangehörige_Gemeinde"},"district":{"key":"08116","name":"Esslingen","type":"Landkreis"},"federalState":{"key":"08","name":"Baden-Württemberg"}},{"name":"Klosterstr.","postalCode":"73765","locality":"Neuhausen auf den Fildern","municipality":{"key":"08116047","name":"Neuhausen auf den Fildern","type":"Kreisangehörige_Gemeinde"},"district":{"key":"08116","name":"Esslingen","type":"Landkreis"},"federalState":{"key":"08","name":"Baden-Württemberg"}},{"name":"Körnerweg","postalCode":"73765","locality":"Neuhausen auf den Fildern","municipality":{"key":"08116047","name":"Neuhausen auf den Fildern","type":"Kreisangehörige_Gemeinde"},"district":{"key":"08116","name":"Esslingen","type":"Landkreis"},"federalState":{"key":"08","name":"Baden-Württemberg"}},{"name":"Kraichgaustr.","postalCode":"73765","locality":"Neuhausen auf den Fildern","municipality":{"key":"08116047","name":"Neuhausen auf den Fildern","type":"Kreisangehörige_Gemeinde"},"district":{"key":"08116","name":"Esslingen","type":"Landkreis"},"federalState":{"key":"08","name":"Baden-Württemberg"}},{"name":"Lenaustr.","postalCode":"73765","locality":"Neuhausen auf den Fildern","municipality":{"key":"08116047","name":"Neuhausen auf den Fildern","type":"Kreisangehörige_Gemeinde"},"district":{"key":"08116","name":"Esslingen","type":"Landkreis"},"federalState":{"key":"08","name":"Baden-Württemberg"}},{"name":"Lettenstr.","postalCode":"73765","locality":"Neuhausen auf den Fildern","municipality":{"key":"08116047","name":"Neuhausen auf den Fildern","type":"Kreisangehörige_Gemeinde"},"district":{"key":"08116","name":"Esslingen","type":"Landkreis"},"federalState":{"key":"08","name":"Baden-Württemberg"}},{"name":"Lindenstr.","postalCode":"73765","locality":"Neuhausen auf den Fildern","municipality":{"key":"08116047","name":"Neuhausen auf den Fildern","type":"Kreisangehörige_Gemeinde"},"district":{"key":"08116","name":"Esslingen","type":"Landkreis"},"federalState":{"key":"08","name":"Baden-Württemberg"}},{"name":"Ludwigstr.","postalCode":"73765","locality":"Neuhausen auf den Fildern","municipality":{"key":"08116047","name":"Neuhausen auf den Fildern","type":"Kreisangehörige_Gemeinde"},"district":{"key":"08116","name":"Esslingen","type":"Landkreis"},"federalState":{"key":"08","name":"Baden-Württemberg"}},{"name":"Mähdlenweg","postalCode":"73765","locality":"Neuhausen auf den Fildern","municipality":{"key":"08116047","name":"Neuhausen auf den Fildern","type":"Kreisangehörige_Gemeinde"},"district":{"key":"08116","name":"Esslingen","type":"Landkreis"},"federalState":{"key":"08","name":"Baden-Württemberg"}},{"name":"Marktstr.","postalCode":"73765","locality":"Neuhausen auf den Fildern","municipality":{"key":"08116047","name":"Neuhausen auf den Fildern","type":"Kreisangehörige_Gemeinde"},"district":{"key":"08116","name":"Esslingen","type":"Landkreis"},"federalState":{"key":"08","name":"Baden-Württemberg"}},{"name":"Martha-Arnold-Str.","postalCode":"73765","locality":"Neuhausen auf den Fildern","municipality":{"key":"08116047","name":"Neuhausen auf den Fildern","type":"Kreisangehörige_Gemeinde"},"district":{"key":"08116","name":"Esslingen","type":"Landkreis"},"federalState":{"key":"08","name":"Baden-Württemberg"}},{"name":"Max-Eyth-Str.","postalCode":"73765","locality":"Neuhausen auf den Fildern","municipality":{"key":"08116047","name":"Neuhausen auf den Fildern","type":"Kreisangehörige_Gemeinde"},"district":{"key":"08116","name":"Esslingen","type":"Landkreis"},"federalState":{"key":"08","name":"Baden-Württemberg"}},{"name":"Max-Planck-Weg","postalCode":"73765","locality":"Neuhausen auf den Fildern","municipality":{"key":"08116047","name":"Neuhausen auf den Fildern","type":"Kreisangehörige_Gemeinde"},"district":{"key":"08116","name":"Esslingen","type":"Landkreis"},"federalState":{"key":"08","name":"Baden-Württemberg"}},{"name":"Moltkestr.","postalCode":"73765","locality":"Neuhausen auf den Fildern","municipality":{"key":"08116047","name":"Neuhausen auf den Fildern","type":"Kreisangehörige_Gemeinde"},"district":{"key":"08116","name":"Esslingen","type":"Landkreis"},"federalState":{"key":"08","name":"Baden-Württemberg"}},{"name":"Mörikestr.","postalCode":"73765","locality":"Neuhausen auf den Fildern","municipality":{"key":"08116047","name":"Neuhausen auf den Fildern","type":"Kreisangehörige_Gemeinde"},"district":{"key":"08116","name":"Esslingen","type":"Landkreis"},"federalState":{"key":"08","name":"Baden-Württemberg"}},{"name":"Mozartstr.","postalCode":"73765","locality":"Neuhausen auf den Fildern","municipality":{"key":"08116047","name":"Neuhausen auf den Fildern","type":"Kreisangehörige_Gemeinde"},"district":{"key":"08116","name":"Esslingen","type":"Landkreis"},"federalState":{"key":"08","name":"Baden-Württemberg"}},{"name":"Mühlenstr.","postalCode":"73765","locality":"Neuhausen auf den Fildern","municipality":{"key":"08116047","name":"Neuhausen auf den Fildern","type":"Kreisangehörige_Gemeinde"},"district":{"key":"08116","name":"Esslingen","type":"Landkreis"},"federalState":{"key":"08","name":"Baden-Württemberg"}},{"name":"Nelkenweg","postalCode":"73765","locality":"Neuhausen auf den Fildern","municipality":{"key":"08116047","name":"Neuhausen auf den Fildern","type":"Kreisangehörige_Gemeinde"},"district":{"key":"08116","name":"Esslingen","type":"Landkreis"},"federalState":{"key":"08","name":"Baden-Württemberg"}},{"name":"Neuffenstr.","postalCode":"73765","locality":"Neuhausen auf den Fildern","municipality":{"key":"08116047","name":"Neuhausen auf den Fildern","type":"Kreisangehörige_Gemeinde"},"district":{"key":"08116","name":"Esslingen","type":"Landkreis"},"federalState":{"key":"08","name":"Baden-Württemberg"}},{"name":"Novizenweg","postalCode":"73765","locality":"Neuhausen auf den Fildern","municipality":{"key":"08116047","name":"Neuhausen auf den Fildern","type":"Kreisangehörige_Gemeinde"},"district":{"key":"08116","name":"Esslingen","type":"Landkreis"},"federalState":{"key":"08","name":"Baden-Württemberg"}},{"name":"Obere Bachstr.","postalCode":"73765","locality":"Neuhausen auf den Fildern","municipality":{"key":"08116047","name":"Neuhausen auf den Fildern","type":"Kreisangehörige_Gemeinde"},"district":{"key":"08116","name":"Esslingen","type":"Landkreis"},"federalState":{"key":"08","name":"Baden-Württemberg"}},{"name":"Oberer Winterhaldeweg","postalCode":"73765","locality":"Neuhausen auf den Fildern","municipality":{"key":"08116047","name":"Neuhausen auf den Fildern","type":"Kreisangehörige_Gemeinde"},"district":{"key":"08116","name":"Esslingen","type":"Landkreis"},"federalState":{"key":"08","name":"Baden-Württemberg"}},{"name":"Ochsengarten","postalCode":"73765","locality":"Neuhausen auf den Fildern","municipality":{"key":"08116047","name":"Neuhausen auf den Fildern","type":"Kreisangehörige_Gemeinde"},"district":{"key":"08116","name":"Esslingen","type":"Landkreis"},"federalState":{"key":"08","name":"Baden-Württemberg"}},{"name":"Panoramastr.","postalCode":"73765","locality":"Neuhausen auf den Fildern","municipality":{"key":"08116047","name":"Neuhausen auf den Fildern","type":"Kreisangehörige_Gemeinde"},"district":{"key":"08116","name":"Esslingen","type":"Landkreis"},"federalState":{"key":"08","name":"Baden-Württemberg"}},{"name":"Pappelweg","postalCode":"73765","locality":"Neuhausen auf den Fildern","municipality":{"key":"08116047","name":"Neuhausen auf den Fildern","type":"Kreisangehörige_Gemeinde"},"district":{"key":"08116","name":"Esslingen","type":"Landkreis"},"federalState":{"key":"08","name":"Baden-Württemberg"}},{"name":"Péronnas-Platz","postalCode":"73765","locality":"Neuhausen auf den Fildern","municipality":{"key":"08116047","name":"Neuhausen auf den Fildern","type":"Kreisangehörige_Gemeinde"},"district":{"key":"08116","name":"Esslingen","type":"Landkreis"},"federalState":{"key":"08","name":"Baden-Württemberg"}},{"name":"Plieninger Str.","postalCode":"73765","locality":"Neuhausen auf den Fildern","municipality":{"key":"08116047","name":"Neuhausen auf den Fildern","type":"Kreisangehörige_Gemeinde"},"district":{"key":"08116","name":"Esslingen","type":"Landkreis"},"federalState":{"key":"08","name":"Baden-Württemberg"}},{"name":"Quittenweg","postalCode":"73733","locality":"Esslingen am Neckar","municipality":{"key":"08116019","name":"Esslingen am Neckar, Stadt","type":"Große_Kreisstadt"},"district":{"key":"08116","name":"Esslingen","type":"Landkreis"},"federalState":{"key":"08","name":"Baden-Württemberg"}},{"name":"Räderäckerweg","postalCode":"73765","locality":"Neuhausen auf den Fildern","municipality":{"key":"08116047","name":"Neuhausen auf den Fildern","type":"Kreisangehörige_Gemeinde"},"district":{"key":"08116","name":"Esslingen","type":"Landkreis"},"federalState":{"key":"08","name":"Baden-Württemberg"}},{"name":"Riedbronnenweg","postalCode":"73765","locality":"Neuhausen auf den Fildern","municipality":{"key":"08116047","name":"Neuhausen auf den Fildern","type":"Kreisangehörige_Gemeinde"},"district":{"key":"08116","name":"Esslingen","type":"Landkreis"},"federalState":{"key":"08","name":"Baden-Württemberg"}},{"name":"Robert-Bosch-Str.","postalCode":"73765","locality":"Neuhausen auf den Fildern","municipality":{"key":"08116047","name":"Neuhausen auf den Fildern","type":"Kreisangehörige_Gemeinde"},"district":{"key":"08116","name":"Esslingen","type":"Landkreis"},"federalState":{"key":"08","name":"Baden-Württemberg"}},{"name":"Rohrbachweg","postalCode":"73765","locality":"Neuhausen auf den Fildern","municipality":{"key":"08116047","name":"Neuhausen auf den Fildern","type":"Kreisangehörige_Gemeinde"},"district":{"key":"08116","name":"Esslingen","type":"Landkreis"},"federalState":{"key":"08","name":"Baden-Württemberg"}},{"name":"Römerstr.","postalCode":"73765","locality":"Neuhausen auf den Fildern","municipality":{"key":"08116047","name":"Neuhausen auf den Fildern","type":"Kreisangehörige_Gemeinde"},"district":{"key":"08116","name":"Esslingen","type":"Landkreis"},"federalState":{"key":"08","name":"Baden-Württemberg"}},{"name":"Rosenweg","postalCode":"73765","locality":"Neuhausen auf den Fildern","municipality":{"key":"08116047","name":"Neuhausen auf den Fildern","type":"Kreisangehörige_Gemeinde"},"district":{"key":"08116","name":"Esslingen","type":"Landkreis"},"federalState":{"key":"08","name":"Baden-Württemberg"}},{"name":"Rudolf-Diesel-Str.","postalCode":"73765","locality":"Neuhausen auf den Fildern","municipality":{"key":"08116047","name":"Neuhausen auf den Fildern","type":"Kreisangehörige_Gemeinde"},"district":{"key":"08116","name":"Esslingen","type":"Landkreis"},"federalState":{"key":"08","name":"Baden-Württemberg"}},{"name":"Rupert-Mayer-Str.","postalCode":"73765","locality":"Neuhausen auf den Fildern","municipality":{"key":"08116047","name":"Neuhausen auf den Fildern","type":"Kreisangehörige_Gemeinde"},"district":{"key":"08116","name":"Esslingen","type":"Landkreis"},"federalState":{"key":"08","name":"Baden-Württemberg"}},{"name":"Sauhagsträßle","postalCode":"73765","locality":"Neuhausen auf den Fildern","municipality":{"key":"08116047","name":"Neuhausen auf den Fildern","type":"Kreisangehörige_Gemeinde"},"district":{"key":"08116","name":"Esslingen","type":"Landkreis"},"federalState":{"key":"08","name":"Baden-Württemberg"}},{"name":"Scharnhäuser Str.","postalCode":"73765","locality":"Neuhausen auf den Fildern","municipality":{"key":"08116047","name":"Neuhausen auf den Fildern","type":"Kreisangehörige_Gemeinde"},"district":{"key":"08116","name":"Esslingen","type":"Landkreis"},"federalState":{"key":"08","name":"Baden-Württemberg"}},{"name":"Scharnholzweg","postalCode":"73765","locality":"Neuhausen auf den Fildern","municipality":{"key":"08116047","name":"Neuhausen auf den Fildern","type":"Kreisangehörige_Gemeinde"},"district":{"key":"08116","name":"Esslingen","type":"Landkreis"},"federalState":{"key":"08","name":"Baden-Württemberg"}},{"name":"Schillerstr.","postalCode":"73765","locality":"Neuhausen auf den Fildern","municipality":{"key":"08116047","name":"Neuhausen auf den Fildern","type":"Kreisangehörige_Gemeinde"},"district":{"key":"08116","name":"Esslingen","type":"Landkreis"},"federalState":{"key":"08","name":"Baden-Württemberg"}},{"name":"Schlehenweg","postalCode":"73765","locality":"Neuhausen auf den Fildern","municipality":{"key":"08116047","name":"Neuhausen auf den Fildern","type":"Kreisangehörige_Gemeinde"},"district":{"key":"08116","name":"Esslingen","type":"Landkreis"},"federalState":{"key":"08","name":"Baden-Württemberg"}},{"name":"Schlosserstr.","postalCode":"73765","locality":"Neuhausen auf den Fildern","municipality":{"key":"08116047","name":"Neuhausen auf den Fildern","type":"Kreisangehörige_Gemeinde"},"district":{"key":"08116","name":"Esslingen","type":"Landkreis"},"federalState":{"key":"08","name":"Baden-Württemberg"}},{"name":"Schlossplatz","postalCode":"73765","locality":"Neuhausen auf den Fildern","municipality":{"key":"08116047","name":"Neuhausen auf den Fildern","type":"Kreisangehörige_Gemeinde"},"district":{"key":"08116","name":"Esslingen","type":"Landkreis"},"federalState":{"key":"08","name":"Baden-Württemberg"}},{"name":"Schloßplatz","postalCode":"73765","locality":"Neuhausen auf den Fildern","municipality":{"key":"08116047","name":"Neuhausen auf den Fildern","type":"Kreisangehörige_Gemeinde"},"district":{"key":"08116","name":"Esslingen","type":"Landkreis"},"federalState":{"key":"08","name":"Baden-Württemberg"}},{"name":"Schlossstr.","postalCode":"73765","locality":"Neuhausen auf den Fildern","municipality":{"key":"08116047","name":"Neuhausen auf den Fildern","type":"Kreisangehörige_Gemeinde"},"district":{"key":"08116","name":"Esslingen","type":"Landkreis"},"federalState":{"key":"08","name":"Baden-Württemberg"}},{"name":"Schöllhauweg","postalCode":"73765","locality":"Neuhausen auf den Fildern","municipality":{"key":"08116047","name":"Neuhausen auf den Fildern","type":"Kreisangehörige_Gemeinde"},"district":{"key":"08116","name":"Esslingen","type":"Landkreis"},"federalState":{"key":"08","name":"Baden-Württemberg"}},{"name":"Schönbuchstr.","postalCode":"73765","locality":"Neuhausen auf den Fildern","municipality":{"key":"08116047","name":"Neuhausen auf den Fildern","type":"Kreisangehörige_Gemeinde"},"district":{"key":"08116","name":"Esslingen","type":"Landkreis"},"federalState":{"key":"08","name":"Baden-Württemberg"}},{"name":"Schurwaldstr.","postalCode":"73765","locality":"Neuhausen auf den Fildern","municipality":{"key":"08116047","name":"Neuhausen auf den Fildern","type":"Kreisangehörige_Gemeinde"},"district":{"key":"08116","name":"Esslingen","type":"Landkreis"},"federalState":{"key":"08","name":"Baden-Württemberg"}},{"name":"Schwester-Coronata-Weg","postalCode":"73765","locality":"Neuhausen auf den Fildern","municipality":{"key":"08116047","name":"Neuhausen auf den Fildern","type":"Kreisangehörige_Gemeinde"},"district":{"key":"08116","name":"Esslingen","type":"Landkreis"},"federalState":{"key":"08","name":"Baden-Württemberg"}},{"name":"Seestr.","postalCode":"73765","locality":"Neuhausen auf den Fildern","municipality":{"key":"08116047","name":"Neuhausen auf den Fildern","type":"Kreisangehörige_Gemeinde"},"district":{"key":"08116","name":"Esslingen","type":"Landkreis"},"federalState":{"key":"08","name":"Baden-Württemberg"}},{"name":"Silcherstr.","postalCode":"73765","locality":"Neuhausen auf den Fildern","municipality":{"key":"08116047","name":"Neuhausen auf den Fildern","type":"Kreisangehörige_Gemeinde"},"district":{"key":"08116","name":"Esslingen","type":"Landkreis"},"federalState":{"key":"08","name":"Baden-Württemberg"}},{"name":"Strohgäustr.","postalCode":"73765","locality":"Neuhausen auf den Fildern","municipality":{"key":"08116047","name":"Neuhausen auf den Fildern","type":"Kreisangehörige_Gemeinde"},"district":{"key":"08116","name":"Esslingen","type":"Landkreis"},"federalState":{"key":"08","name":"Baden-Württemberg"}},{"name":"Sulzbachtalweg","postalCode":"73765","locality":"Neuhausen auf den Fildern","municipality":{"key":"08116047","name":"Neuhausen auf den Fildern","type":"Kreisangehörige_Gemeinde"},"district":{"key":"08116","name":"Esslingen","type":"Landkreis"},"federalState":{"key":"08","name":"Baden-Württemberg"}},{"name":"Taläckerstr.","postalCode":"73765","locality":"Neuhausen auf den Fildern","municipality":{"key":"08116047","name":"Neuhausen auf den Fildern","type":"Kreisangehörige_Gemeinde"},"district":{"key":"08116","name":"Esslingen","type":"Landkreis"},"federalState":{"key":"08","name":"Baden-Württemberg"}},{"name":"Talhof","postalCode":"73765","locality":"Neuhausen auf den Fildern","municipality":{"key":"08116047","name":"Neuhausen auf den Fildern","type":"Kreisangehörige_Gemeinde"},"district":{"key":"08116","name":"Esslingen","type":"Landkreis"},"federalState":{"key":"08","name":"Baden-Württemberg"}},{"name":"Teckstr.","postalCode":"73765","locality":"Neuhausen auf den Fildern","municipality":{"key":"08116047","name":"Neuhausen auf den Fildern","type":"Kreisangehörige_Gemeinde"},"district":{"key":"08116","name":"Esslingen","type":"Landkreis"},"federalState":{"key":"08","name":"Baden-Württemberg"}},{"name":"Theodor-Gugel-Str.","postalCode":"73765","locality":"Neuhausen auf den Fildern","municipality":{"key":"08116047","name":"Neuhausen auf den Fildern","type":"Kreisangehörige_Gemeinde"},"district":{"key":"08116","name":"Esslingen","type":"Landkreis"},"federalState":{"key":"08","name":"Baden-Württemberg"}},{"name":"Uhlandstr.","postalCode":"73765","locality":"Neuhausen auf den Fildern","municipality":{"key":"08116047","name":"Neuhausen auf den Fildern","type":"Kreisangehörige_Gemeinde"},"district":{"key":"08116","name":"Esslingen","type":"Landkreis"},"federalState":{"key":"08","name":"Baden-Württemberg"}},{"name":"Ulmenweg","postalCode":"73765","locality":"Neuhausen auf den Fildern","municipality":{"key":"08116047","name":"Neuhausen auf den Fildern","type":"Kreisangehörige_Gemeinde"},"district":{"key":"08116","name":"Esslingen","type":"Landkreis"},"federalState":{"key":"08","name":"Baden-Württemberg"}},{"name":"Untere Bachstr.","postalCode":"73765","locality":"Neuhausen auf den Fildern","municipality":{"key":"08116047","name":"Neuhausen auf den Fildern","type":"Kreisangehörige_Gemeinde"},"district":{"key":"08116","name":"Esslingen","type":"Landkreis"},"federalState":{"key":"08","name":"Baden-Württemberg"}},{"name":"Unterer Winterhaldenweg","postalCode":"73765","locality":"Neuhausen auf den Fildern","municipality":{"key":"08116047","name":"Neuhausen auf den Fildern","type":"Kreisangehörige_Gemeinde"},"district":{"key":"08116","name":"Esslingen","type":"Landkreis"},"federalState":{"key":"08","name":"Baden-Württemberg"}},{"name":"Veilchenweg","postalCode":"73730","locality":"Esslingen am Neckar","municipality":{"key":"08116019","name":"Esslingen am Neckar, Stadt","type":"Große_Kreisstadt"},"district":{"key":"08116","name":"Esslingen","type":"Landkreis"},"federalState":{"key":"08","name":"Baden-Württemberg"}},{"name":"Viehgasse","postalCode":"73733","locality":"Esslingen am Neckar","municipality":{"key":"08116019","name":"Esslingen am Neckar, Stadt","type":"Große_Kreisstadt"},"district":{"key":"08116","name":"Esslingen","type":"Landkreis"},"federalState":{"key":"08","name":"Baden-Württemberg"}},{"name":"Vogelsangbrücke","postalCode":"73728","locality":"Esslingen am Neckar","municipality":{"key":"08116019","name":"Esslingen am Neckar, Stadt","type":"Große_Kreisstadt"},"district":{"key":"08116","name":"Esslingen","type":"Landkreis"},"federalState":{"key":"08","name":"Baden-Württemberg"}},{"name":"Vogelsangbrücke","postalCode":"73734","locality":"Esslingen am Neckar","municipality":{"key":"08116019","name":"Esslingen am Neckar, Stadt","type":"Große_Kreisstadt"},"district":{"key":"08116","name":"Esslingen","type":"Landkreis"},"federalState":{"key":"08","name":"Baden-Württemberg"}},{"name":"Vogelsangstr.","postalCode":"73728","locality":"Esslingen am Neckar","municipality":{"key":"08116019","name":"Esslingen am Neckar, Stadt","type":"Große_Kreisstadt"},"district":{"key":"08116","name":"Esslingen","type":"Landkreis"},"federalState":{"key":"08","name":"Baden-Württemberg"}},{"name":"Volker-Boehringer-Weg","postalCode":"73732","locality":"Esslingen am Neckar","municipality":{"key":"08116019","name":"Esslingen am Neckar, Stadt","type":"Große_Kreisstadt"},"district":{"key":"08116","name":"Esslingen","type":"Landkreis"},"federalState":{"key":"08","name":"Baden-Württemberg"}},{"name":"Waagenbachstr.","postalCode":"73765","locality":"Neuhausen auf den Fildern","municipality":{"key":"08116047","name":"Neuhausen auf den Fildern","type":"Kreisangehörige_Gemeinde"},"district":{"key":"08116","name":"Esslingen","type":"Landkreis"},"federalState":{"key":"08","name":"Baden-Württemberg"}},{"name":"Wagnerstr.","postalCode":"73765","locality":"Neuhausen auf den Fildern","municipality":{"key":"08116047","name":"Neuhausen auf den Fildern","type":"Kreisangehörige_Gemeinde"},"district":{"key":"08116","name":"Esslingen","type":"Landkreis"},"federalState":{"key":"08","name":"Baden-Württemberg"}},{"name":"Weidenweg","postalCode":"73765","locality":"Neuhausen auf den Fildern","municipality":{"key":"08116047","name":"Neuhausen auf den Fildern","type":"Kreisangehörige_Gemeinde"},"district":{"key":"08116","name":"Esslingen","type":"Landkreis"},"federalState":{"key":"08","name":"Baden-Württemberg"}},{"name":"Weilgartenstr.","postalCode":"73765","locality":"Neuhausen auf den Fildern","municipality":{"key":"08116047","name":"Neuhausen auf den Fildern","type":"Kreisangehörige_Gemeinde"},"district":{"key":"08116","name":"Esslingen","type":"Landkreis"},"federalState":{"key":"08","name":"Baden-Württemberg"}},{"name":"Werner-Siemens-Str.","postalCode":"73765","locality":"Neuhausen auf den Fildern","municipality":{"key":"08116047","name":"Neuhausen auf den Fildern","type":"Kreisangehörige_Gemeinde"},"district":{"key":"08116","name":"Esslingen","type":"Landkreis"},"federalState":{"key":"08","name":"Baden-Württemberg"}},{"name":"Wilhelm-Maybach-Str.","postalCode":"73765","locality":"Neuhausen auf den Fildern","municipality":{"key":"08116047","name":"Neuhausen auf den Fildern","type":"Kreisangehörige_Gemeinde"},"district":{"key":"08116","name":"Esslingen","type":"Landkreis"},"federalState":{"key":"08","name":"Baden-Württemberg"}},{"name":"Wilhelmstr.","postalCode":"73765","locality":"Neuhausen auf den Fildern","municipality":{"key":"08116047","name":"Neuhausen auf den Fildern","type":"Kreisangehörige_Gemeinde"},"district":{"key":"08116","name":"Esslingen","type":"Landkreis"},"federalState":{"key":"08","name":"Baden-Württemberg"}},{"name":"Wolfschluger Weg","postalCode":"73765","locality":"Neuhausen auf den Fildern","municipality":{"key":"08116047","name":"Neuhausen auf den Fildern","type":"Kreisangehörige_Gemeinde"},"district":{"key":"08116","name":"Esslingen","type":"Landkreis"},"federalState":{"key":"08","name":"Baden-Württemberg"}},{"name":"Zabergäustr.","postalCode":"73765","locality":"Neuhausen auf den Fildern","municipality":{"key":"08116047","name":"Neuhausen auf den Fildern","type":"Kreisangehörige_Gemeinde"},"district":{"key":"08116","name":"Esslingen","type":"Landkreis"},"federalState":{"key":"08","name":"Baden-Württemberg"}},{"name":"Zeppelinweg","postalCode":"73765","locality":"Neuhausen auf den Fildern","municipality":{"key":"08116047","name":"Neuhausen auf den Fildern","type":"Kreisangehörige_Gemeinde"},"district":{"key":"08116","name":"Esslingen","type":"Landkreis"},"federalState":{"key":"08","name":"Baden-Württemberg"}},{"name":"Ziegelei","postalCode":"73765","locality":"Neuhausen auf den Fildern","municipality":{"key":"08116047","name":"Neuhausen auf den Fildern","type":"Kreisangehörige_Gemeinde"},"district":{"key":"08116","name":"Esslingen","type":"Landkreis"},"federalState":{"key":"08","name":"Baden-Württemberg"}},]