[{"name":"Am Sonnenhang","postalCode":"54636","locality":"Wißmannsdorf","municipality":{"key":"07232501","name":"Wißmannsdorf","type":"Kreisangehörige_Gemeinde"},"district":{"key":"07232","name":"Eifelkreis Bitburg-Prüm","type":"Landkreis"},"federalState":{"key":"07","name":"Rheinland-Pfalz"}},{"name":"Anton-Cordie-Platz","postalCode":"54636","locality":"Wißmannsdorf","municipality":{"key":"07232501","name":"Wißmannsdorf","type":"Kreisangehörige_Gemeinde"},"district":{"key":"07232","name":"Eifelkreis Bitburg-Prüm","type":"Landkreis"},"federalState":{"key":"07","name":"Rheinland-Pfalz"}},{"name":"Auf der Held","postalCode":"54636","locality":"Wißmannsdorf","municipality":{"key":"07232501","name":"Wißmannsdorf","type":"Kreisangehörige_Gemeinde"},"district":{"key":"07232","name":"Eifelkreis Bitburg-Prüm","type":"Landkreis"},"federalState":{"key":"07","name":"Rheinland-Pfalz"}},{"name":"Bergstr.","postalCode":"54636","locality":"Wißmannsdorf","municipality":{"key":"07232501","name":"Wißmannsdorf","type":"Kreisangehörige_Gemeinde"},"district":{"key":"07232","name":"Eifelkreis Bitburg-Prüm","type":"Landkreis"},"federalState":{"key":"07","name":"Rheinland-Pfalz"}},{"name":"Bitburger Str.","postalCode":"54636","locality":"Wißmannsdorf","municipality":{"key":"07232501","name":"Wißmannsdorf","type":"Kreisangehörige_Gemeinde"},"district":{"key":"07232","name":"Eifelkreis Bitburg-Prüm","type":"Landkreis"},"federalState":{"key":"07","name":"Rheinland-Pfalz"}},{"name":"Brückenstr.","postalCode":"54636","locality":"Wißmannsdorf","municipality":{"key":"07232501","name":"Wißmannsdorf","type":"Kreisangehörige_Gemeinde"},"district":{"key":"07232","name":"Eifelkreis Bitburg-Prüm","type":"Landkreis"},"federalState":{"key":"07","name":"Rheinland-Pfalz"}},{"name":"Gartenstr.","postalCode":"54636","locality":"Wißmannsdorf","municipality":{"key":"07232501","name":"Wißmannsdorf","type":"Kreisangehörige_Gemeinde"},"district":{"key":"07232","name":"Eifelkreis Bitburg-Prüm","type":"Landkreis"},"federalState":{"key":"07","name":"Rheinland-Pfalz"}},{"name":"Hauptstr.","postalCode":"54636","locality":"Wißmannsdorf","municipality":{"key":"07232501","name":"Wißmannsdorf","type":"Kreisangehörige_Gemeinde"},"district":{"key":"07232","name":"Eifelkreis Bitburg-Prüm","type":"Landkreis"},"federalState":{"key":"07","name":"Rheinland-Pfalz"}},{"name":"Hermesdorfer Str.","postalCode":"54636","locality":"Wißmannsdorf","municipality":{"key":"07232501","name":"Wißmannsdorf","type":"Kreisangehörige_Gemeinde"},"district":{"key":"07232","name":"Eifelkreis Bitburg-Prüm","type":"Landkreis"},"federalState":{"key":"07","name":"Rheinland-Pfalz"}},{"name":"Im Wäldchen","postalCode":"54636","locality":"Wißmannsdorf","municipality":{"key":"07232501","name":"Wißmannsdorf","type":"Kreisangehörige_Gemeinde"},"district":{"key":"07232","name":"Eifelkreis Bitburg-Prüm","type":"Landkreis"},"federalState":{"key":"07","name":"Rheinland-Pfalz"}},{"name":"Im Wingert","postalCode":"54636","locality":"Wißmannsdorf","municipality":{"key":"07232501","name":"Wißmannsdorf","type":"Kreisangehörige_Gemeinde"},"district":{"key":"07232","name":"Eifelkreis Bitburg-Prüm","type":"Landkreis"},"federalState":{"key":"07","name":"Rheinland-Pfalz"}},{"name":"In der Höh","postalCode":"54636","locality":"Wißmannsdorf","municipality":{"key":"07232501","name":"Wißmannsdorf","type":"Kreisangehörige_Gemeinde"},"district":{"key":"07232","name":"Eifelkreis Bitburg-Prüm","type":"Landkreis"},"federalState":{"key":"07","name":"Rheinland-Pfalz"}},{"name":"Koosbüscher Str.","postalCode":"54636","locality":"Wißmannsdorf","municipality":{"key":"07232501","name":"Wißmannsdorf","type":"Kreisangehörige_Gemeinde"},"district":{"key":"07232","name":"Eifelkreis Bitburg-Prüm","type":"Landkreis"},"federalState":{"key":"07","name":"Rheinland-Pfalz"}},{"name":"Lindenstr.","postalCode":"54636","locality":"Wißmannsdorf","municipality":{"key":"07232501","name":"Wißmannsdorf","type":"Kreisangehörige_Gemeinde"},"district":{"key":"07232","name":"Eifelkreis Bitburg-Prüm","type":"Landkreis"},"federalState":{"key":"07","name":"Rheinland-Pfalz"}},{"name":"Petersberg","postalCode":"54636","locality":"Wißmannsdorf","municipality":{"key":"07232501","name":"Wißmannsdorf","type":"Kreisangehörige_Gemeinde"},"district":{"key":"07232","name":"Eifelkreis Bitburg-Prüm","type":"Landkreis"},"federalState":{"key":"07","name":"Rheinland-Pfalz"}},{"name":"Prümstr.","postalCode":"54636","locality":"Wißmannsdorf","municipality":{"key":"07232501","name":"Wißmannsdorf","type":"Kreisangehörige_Gemeinde"},"district":{"key":"07232","name":"Eifelkreis Bitburg-Prüm","type":"Landkreis"},"federalState":{"key":"07","name":"Rheinland-Pfalz"}},{"name":"Schulstr.","postalCode":"54636","locality":"Wißmannsdorf","municipality":{"key":"07232501","name":"Wißmannsdorf","type":"Kreisangehörige_Gemeinde"},"district":{"key":"07232","name":"Eifelkreis Bitburg-Prüm","type":"Landkreis"},"federalState":{"key":"07","name":"Rheinland-Pfalz"}},{"name":"Sportplatzstr.","postalCode":"54636","locality":"Wißmannsdorf","municipality":{"key":"07232501","name":"Wißmannsdorf","type":"Kreisangehörige_Gemeinde"},"district":{"key":"07232","name":"Eifelkreis Bitburg-Prüm","type":"Landkreis"},"federalState":{"key":"07","name":"Rheinland-Pfalz"}},{"name":"Talstr.","postalCode":"54636","locality":"Wißmannsdorf","municipality":{"key":"07232501","name":"Wißmannsdorf","type":"Kreisangehörige_Gemeinde"},"district":{"key":"07232","name":"Eifelkreis Bitburg-Prüm","type":"Landkreis"},"federalState":{"key":"07","name":"Rheinland-Pfalz"}},{"name":"Unter den Birken","postalCode":"54636","locality":"Wißmannsdorf","municipality":{"key":"07232501","name":"Wißmannsdorf","type":"Kreisangehörige_Gemeinde"},"district":{"key":"07232","name":"Eifelkreis Bitburg-Prüm","type":"Landkreis"},"federalState":{"key":"07","name":"Rheinland-Pfalz"}},{"name":"Waldstr.","postalCode":"54636","locality":"Wißmannsdorf","municipality":{"key":"07232501","name":"Wißmannsdorf","type":"Kreisangehörige_Gemeinde"},"district":{"key":"07232","name":"Eifelkreis Bitburg-Prüm","type":"Landkreis"},"federalState":{"key":"07","name":"Rheinland-Pfalz"}},{"name":"Zum See","postalCode":"54636","locality":"Wißmannsdorf","municipality":{"key":"07232501","name":"Wißmannsdorf","type":"Kreisangehörige_Gemeinde"},"district":{"key":"07232","name":"Eifelkreis Bitburg-Prüm","type":"Landkreis"},"federalState":{"key":"07","name":"Rheinland-Pfalz"}},{"name":"Zum Sportplatz","postalCode":"54636","locality":"Wißmannsdorf","municipality":{"key":"07232501","name":"Wißmannsdorf","type":"Kreisangehörige_Gemeinde"},"district":{"key":"07232","name":"Eifelkreis Bitburg-Prüm","type":"Landkreis"},"federalState":{"key":"07","name":"Rheinland-Pfalz"}},{"name":"Zum Stausee","postalCode":"54636","locality":"Wißmannsdorf","municipality":{"key":"07232501","name":"Wißmannsdorf","type":"Kreisangehörige_Gemeinde"},"district":{"key":"07232","name":"Eifelkreis Bitburg-Prüm","type":"Landkreis"},"federalState":{"key":"07","name":"Rheinland-Pfalz"}},{"name":"Zum Tiefenbach","postalCode":"54636","locality":"Wißmannsdorf","municipality":{"key":"07232501","name":"Wißmannsdorf","type":"Kreisangehörige_Gemeinde"},"district":{"key":"07232","name":"Eifelkreis Bitburg-Prüm","type":"Landkreis"},"federalState":{"key":"07","name":"Rheinland-Pfalz"}},{"name":"Zum Wiesengrund","postalCode":"54636","locality":"Wißmannsdorf","municipality":{"key":"07232501","name":"Wißmannsdorf","type":"Kreisangehörige_Gemeinde"},"district":{"key":"07232","name":"Eifelkreis Bitburg-Prüm","type":"Landkreis"},"federalState":{"key":"07","name":"Rheinland-Pfalz"}},]