[{"key":"10252914","name":"A la Fin","postalCode":"1762","locality":"Givisiez","commune":{"key":"2197","name":"Givisiez","shortName":"Givisiez"},"district":{"key":"1004","name":"District de la Sarine"},"canton":{"key":"10","code":"FR","name":"Fribourg / Freiburg"},"status":"Real"},{"key":"10144798","name":"Allée Le Corbusier","postalCode":"1762","locality":"Givisiez","commune":{"key":"2197","name":"Givisiez","shortName":"Givisiez"},"district":{"key":"1004","name":"District de la Sarine"},"canton":{"key":"10","code":"FR","name":"Fribourg / Freiburg"},"status":"Real"},{"key":"10152227","name":"Allée Paul-Cantonneau","postalCode":"1762","locality":"Givisiez","commune":{"key":"2197","name":"Givisiez","shortName":"Givisiez"},"district":{"key":"1004","name":"District de la Sarine"},"canton":{"key":"10","code":"FR","name":"Fribourg / Freiburg"},"status":"Real"},{"key":"10072627","name":"Beauséjour","postalCode":"1762","locality":"Givisiez","commune":{"key":"2197","name":"Givisiez","shortName":"Givisiez"},"district":{"key":"1004","name":"District de la Sarine"},"canton":{"key":"10","code":"FR","name":"Fribourg / Freiburg"},"status":"Real"},{"key":"10088251","name":"Chemin de Bellevue","postalCode":"1762","locality":"Givisiez","commune":{"key":"2197","name":"Givisiez","shortName":"Givisiez"},"district":{"key":"1004","name":"District de la Sarine"},"canton":{"key":"10","code":"FR","name":"Fribourg / Freiburg"},"status":"Real"},{"key":"10176905","name":"Chemin de Chandolan","postalCode":"1762","locality":"Givisiez","commune":{"key":"2197","name":"Givisiez","shortName":"Givisiez"},"district":{"key":"1004","name":"District de la Sarine"},"canton":{"key":"10","code":"FR","name":"Fribourg / Freiburg"},"status":"Real"},{"key":"10072628","name":"Chemin de Corberayes","postalCode":"1762","locality":"Givisiez","commune":{"key":"2197","name":"Givisiez","shortName":"Givisiez"},"district":{"key":"1004","name":"District de la Sarine"},"canton":{"key":"10","code":"FR","name":"Fribourg / Freiburg"},"status":"Real"},{"key":"10187378","name":"Chemin de la Colombière","postalCode":"1762","locality":"Givisiez","commune":{"key":"2197","name":"Givisiez","shortName":"Givisiez"},"district":{"key":"1004","name":"District de la Sarine"},"canton":{"key":"10","code":"FR","name":"Fribourg / Freiburg"},"status":"Real"},{"key":"10252679","name":"Chemin de la Poudrière","postalCode":"1762","locality":"Givisiez","commune":{"key":"2197","name":"Givisiez","shortName":"Givisiez"},"district":{"key":"1004","name":"District de la Sarine"},"canton":{"key":"10","code":"FR","name":"Fribourg / Freiburg"},"status":"Real"},{"key":"10076331","name":"Chemin de l'Orée de la Faye","postalCode":"1762","locality":"Givisiez","commune":{"key":"2197","name":"Givisiez","shortName":"Givisiez"},"district":{"key":"1004","name":"District de la Sarine"},"canton":{"key":"10","code":"FR","name":"Fribourg / Freiburg"},"status":"Real"},{"key":"10023207","name":"Chemin de Nazareth","postalCode":"1762","locality":"Givisiez","commune":{"key":"2197","name":"Givisiez","shortName":"Givisiez"},"district":{"key":"1004","name":"District de la Sarine"},"canton":{"key":"10","code":"FR","name":"Fribourg / Freiburg"},"status":"Real"},{"key":"10023208","name":"Chemin des Chevreuils","postalCode":"1762","locality":"Givisiez","commune":{"key":"2197","name":"Givisiez","shortName":"Givisiez"},"district":{"key":"1004","name":"District de la Sarine"},"canton":{"key":"10","code":"FR","name":"Fribourg / Freiburg"},"status":"Real"},{"key":"10088252","name":"Chemin de Toutvent","postalCode":"1762","locality":"Givisiez","commune":{"key":"2197","name":"Givisiez","shortName":"Givisiez"},"district":{"key":"1004","name":"District de la Sarine"},"canton":{"key":"10","code":"FR","name":"Fribourg / Freiburg"},"status":"Real"},{"key":"10252709","name":"Chemin du Gaz","postalCode":"1762","locality":"Givisiez","commune":{"key":"2197","name":"Givisiez","shortName":"Givisiez"},"district":{"key":"1004","name":"District de la Sarine"},"canton":{"key":"10","code":"FR","name":"Fribourg / Freiburg"},"status":"Real"},{"key":"10252754","name":"Chemin du Giratoire","postalCode":"1762","locality":"Givisiez","commune":{"key":"2197","name":"Givisiez","shortName":"Givisiez"},"district":{"key":"1004","name":"District de la Sarine"},"canton":{"key":"10","code":"FR","name":"Fribourg / Freiburg"},"status":"Real"},{"key":"10252780","name":"Chemin du Recoulet","postalCode":"1762","locality":"Givisiez","commune":{"key":"2197","name":"Givisiez","shortName":"Givisiez"},"district":{"key":"1004","name":"District de la Sarine"},"canton":{"key":"10","code":"FR","name":"Fribourg / Freiburg"},"status":"Real"},{"key":"10088253","name":"Chemin du Tiguelet","postalCode":"1762","locality":"Givisiez","commune":{"key":"2197","name":"Givisiez","shortName":"Givisiez"},"district":{"key":"1004","name":"District de la Sarine"},"canton":{"key":"10","code":"FR","name":"Fribourg / Freiburg"},"status":"Real"},{"key":"10023206","name":"Chemin Saint-Laurent","postalCode":"1762","locality":"Givisiez","commune":{"key":"2197","name":"Givisiez","shortName":"Givisiez"},"district":{"key":"1004","name":"District de la Sarine"},"canton":{"key":"10","code":"FR","name":"Fribourg / Freiburg"},"status":"Real"},{"key":"10122436","name":"Fin de la Croix","postalCode":"1762","locality":"Givisiez","commune":{"key":"2197","name":"Givisiez","shortName":"Givisiez"},"district":{"key":"1004","name":"District de la Sarine"},"canton":{"key":"10","code":"FR","name":"Fribourg / Freiburg"},"status":"Real"},{"key":"10072629","name":"Impasse de Beauséjour","postalCode":"1762","locality":"Givisiez","commune":{"key":"2197","name":"Givisiez","shortName":"Givisiez"},"district":{"key":"1004","name":"District de la Sarine"},"canton":{"key":"10","code":"FR","name":"Fribourg / Freiburg"},"status":"Real"},{"key":"10023209","name":"Impasse de la Colline","postalCode":"1762","locality":"Givisiez","commune":{"key":"2197","name":"Givisiez","shortName":"Givisiez"},"district":{"key":"1004","name":"District de la Sarine"},"canton":{"key":"10","code":"FR","name":"Fribourg / Freiburg"},"status":"Real"},{"key":"10023210","name":"Impasse des Hiboux","postalCode":"1762","locality":"Givisiez","commune":{"key":"2197","name":"Givisiez","shortName":"Givisiez"},"district":{"key":"1004","name":"District de la Sarine"},"canton":{"key":"10","code":"FR","name":"Fribourg / Freiburg"},"status":"Real"},{"key":"10088254","name":"Impasse des Lilas","postalCode":"1762","locality":"Givisiez","commune":{"key":"2197","name":"Givisiez","shortName":"Givisiez"},"district":{"key":"1004","name":"District de la Sarine"},"canton":{"key":"10","code":"FR","name":"Fribourg / Freiburg"},"status":"Real"},{"key":"10023211","name":"Impasse du Champ de l'Orme","postalCode":"1762","locality":"Givisiez","commune":{"key":"2197","name":"Givisiez","shortName":"Givisiez"},"district":{"key":"1004","name":"District de la Sarine"},"canton":{"key":"10","code":"FR","name":"Fribourg / Freiburg"},"status":"Real"},{"key":"10145342","name":"Impasse du Long-Champ","postalCode":"1762","locality":"Givisiez","commune":{"key":"2197","name":"Givisiez","shortName":"Givisiez"},"district":{"key":"1004","name":"District de la Sarine"},"canton":{"key":"10","code":"FR","name":"Fribourg / Freiburg"},"status":"Real"},{"key":"10252799","name":"Le Tiguelet","postalCode":"1762","locality":"Givisiez","commune":{"key":"2197","name":"Givisiez","shortName":"Givisiez"},"district":{"key":"1004","name":"District de la Sarine"},"canton":{"key":"10","code":"FR","name":"Fribourg / Freiburg"},"status":"Real"},{"key":"10023212","name":"Place d'Affry","postalCode":"1762","locality":"Givisiez","commune":{"key":"2197","name":"Givisiez","shortName":"Givisiez"},"district":{"key":"1004","name":"District de la Sarine"},"canton":{"key":"10","code":"FR","name":"Fribourg / Freiburg"},"status":"Real"},{"key":"10193183","name":"Place de-Boccard","postalCode":"1762","locality":"Givisiez","commune":{"key":"2197","name":"Givisiez","shortName":"Givisiez"},"district":{"key":"1004","name":"District de la Sarine"},"canton":{"key":"10","code":"FR","name":"Fribourg / Freiburg"},"status":"Real"},{"key":"10208604","name":"Place des Osses","postalCode":"1762","locality":"Givisiez","commune":{"key":"2197","name":"Givisiez","shortName":"Givisiez"},"district":{"key":"1004","name":"District de la Sarine"},"canton":{"key":"10","code":"FR","name":"Fribourg / Freiburg"},"status":"Real"},{"key":"10023213","name":"Route André-Piller","postalCode":"1762","locality":"Givisiez","commune":{"key":"2197","name":"Givisiez","shortName":"Givisiez"},"district":{"key":"1004","name":"District de la Sarine"},"canton":{"key":"10","code":"FR","name":"Fribourg / Freiburg"},"status":"Real"},{"key":"10023214","name":"Route d'Alcantara","postalCode":"1762","locality":"Givisiez","commune":{"key":"2197","name":"Givisiez","shortName":"Givisiez"},"district":{"key":"1004","name":"District de la Sarine"},"canton":{"key":"10","code":"FR","name":"Fribourg / Freiburg"},"status":"Real"},{"key":"10023215","name":"Route de Belfaux","postalCode":"1762","locality":"Givisiez","commune":{"key":"2197","name":"Givisiez","shortName":"Givisiez"},"district":{"key":"1004","name":"District de la Sarine"},"canton":{"key":"10","code":"FR","name":"Fribourg / Freiburg"},"status":"Real"},{"key":"10055693","name":"Route de Jubindus","postalCode":"1762","locality":"Givisiez","commune":{"key":"2197","name":"Givisiez","shortName":"Givisiez"},"district":{"key":"1004","name":"District de la Sarine"},"canton":{"key":"10","code":"FR","name":"Fribourg / Freiburg"},"status":"Real"},{"key":"10072630","name":"Route de la Chassotte","postalCode":"1762","locality":"Givisiez","commune":{"key":"2197","name":"Givisiez","shortName":"Givisiez"},"district":{"key":"1004","name":"District de la Sarine"},"canton":{"key":"10","code":"FR","name":"Fribourg / Freiburg"},"status":"Real"},{"key":"10052113","name":"Route de la Faye","postalCode":"1762","locality":"Givisiez","commune":{"key":"2197","name":"Givisiez","shortName":"Givisiez"},"district":{"key":"1004","name":"District de la Sarine"},"canton":{"key":"10","code":"FR","name":"Fribourg / Freiburg"},"status":"Real"},{"key":"10175300","name":"Route de la Verna","postalCode":"1762","locality":"Givisiez","commune":{"key":"2197","name":"Givisiez","shortName":"Givisiez"},"district":{"key":"1004","name":"District de la Sarine"},"canton":{"key":"10","code":"FR","name":"Fribourg / Freiburg"},"status":"Real"},{"key":"10023216","name":"Route de l'Epinay","postalCode":"1762","locality":"Givisiez","commune":{"key":"2197","name":"Givisiez","shortName":"Givisiez"},"district":{"key":"1004","name":"District de la Sarine"},"canton":{"key":"10","code":"FR","name":"Fribourg / Freiburg"},"status":"Real"},{"key":"10162639","name":"Route des Fluides","postalCode":"1762","locality":"Givisiez","commune":{"key":"2197","name":"Givisiez","shortName":"Givisiez"},"district":{"key":"1004","name":"District de la Sarine"},"canton":{"key":"10","code":"FR","name":"Fribourg / Freiburg"},"status":"Real"},{"key":"10158590","name":"Route des Loisirs","postalCode":"1762","locality":"Givisiez","commune":{"key":"2197","name":"Givisiez","shortName":"Givisiez"},"district":{"key":"1004","name":"District de la Sarine"},"canton":{"key":"10","code":"FR","name":"Fribourg / Freiburg"},"status":"Real"},{"key":"10088256","name":"Route des Taconnets","postalCode":"1762","locality":"Givisiez","commune":{"key":"2197","name":"Givisiez","shortName":"Givisiez"},"district":{"key":"1004","name":"District de la Sarine"},"canton":{"key":"10","code":"FR","name":"Fribourg / Freiburg"},"status":"Real"},{"key":"10176987","name":"Route du Bleuet","postalCode":"1762","locality":"Givisiez","commune":{"key":"2197","name":"Givisiez","shortName":"Givisiez"},"district":{"key":"1004","name":"District de la Sarine"},"canton":{"key":"10","code":"FR","name":"Fribourg / Freiburg"},"status":"Real"},{"key":"10023217","name":"Route du Château-d'Affry","postalCode":"1762","locality":"Givisiez","commune":{"key":"2197","name":"Givisiez","shortName":"Givisiez"},"district":{"key":"1004","name":"District de la Sarine"},"canton":{"key":"10","code":"FR","name":"Fribourg / Freiburg"},"status":"Real"},{"key":"10107878","name":"Route du Crochet","postalCode":"1762","locality":"Givisiez","commune":{"key":"2197","name":"Givisiez","shortName":"Givisiez"},"district":{"key":"1004","name":"District de la Sarine"},"canton":{"key":"10","code":"FR","name":"Fribourg / Freiburg"},"status":"Real"},{"key":"10098166","name":"Route du Fer","postalCode":"1762","locality":"Givisiez","commune":{"key":"2197","name":"Givisiez","shortName":"Givisiez"},"district":{"key":"1004","name":"District de la Sarine"},"canton":{"key":"10","code":"FR","name":"Fribourg / Freiburg"},"status":"Real"},{"key":"10088257","name":"Route du Mont-Carmel","postalCode":"1762","locality":"Givisiez","commune":{"key":"2197","name":"Givisiez","shortName":"Givisiez"},"district":{"key":"1004","name":"District de la Sarine"},"canton":{"key":"10","code":"FR","name":"Fribourg / Freiburg"},"status":"Real"},{"key":"10181496","name":"Route du Tir Fédéral","postalCode":"1762","locality":"Givisiez","commune":{"key":"2197","name":"Givisiez","shortName":"Givisiez"},"district":{"key":"1004","name":"District de la Sarine"},"canton":{"key":"10","code":"FR","name":"Fribourg / Freiburg"},"status":"Real"},{"key":"10206283","name":"Route du Vieux-Canal","postalCode":"1762","locality":"Givisiez","commune":{"key":"2197","name":"Givisiez","shortName":"Givisiez"},"district":{"key":"1004","name":"District de la Sarine"},"canton":{"key":"10","code":"FR","name":"Fribourg / Freiburg"},"status":"Real"},{"key":"10104618","name":"Route Henri-Stephan","postalCode":"1762","locality":"Givisiez","commune":{"key":"2197","name":"Givisiez","shortName":"Givisiez"},"district":{"key":"1004","name":"District de la Sarine"},"canton":{"key":"10","code":"FR","name":"Fribourg / Freiburg"},"status":"Real"},{"key":"10252815","name":"Route Jean-Tinguely","postalCode":"1762","locality":"Givisiez","commune":{"key":"2197","name":"Givisiez","shortName":"Givisiez"},"district":{"key":"1004","name":"District de la Sarine"},"canton":{"key":"10","code":"FR","name":"Fribourg / Freiburg"},"status":"Real"},{"key":"10088255","name":"Route Jo-Siffert","postalCode":"1762","locality":"Givisiez","commune":{"key":"2197","name":"Givisiez","shortName":"Givisiez"},"district":{"key":"1004","name":"District de la Sarine"},"canton":{"key":"10","code":"FR","name":"Fribourg / Freiburg"},"status":"Real"},{"key":"10023219","name":"Rue des Alouettes","postalCode":"1762","locality":"Givisiez","commune":{"key":"2197","name":"Givisiez","shortName":"Givisiez"},"district":{"key":"1004","name":"District de la Sarine"},"canton":{"key":"10","code":"FR","name":"Fribourg / Freiburg"},"status":"Real"},{"key":"10113729","name":"Rue des Femmes Savantes","postalCode":"1762","locality":"Givisiez","commune":{"key":"2197","name":"Givisiez","shortName":"Givisiez"},"district":{"key":"1004","name":"District de la Sarine"},"canton":{"key":"10","code":"FR","name":"Fribourg / Freiburg"},"status":"Real"},{"key":"10052115","name":"Rue des Grives","postalCode":"1762","locality":"Givisiez","commune":{"key":"2197","name":"Givisiez","shortName":"Givisiez"},"district":{"key":"1004","name":"District de la Sarine"},"canton":{"key":"10","code":"FR","name":"Fribourg / Freiburg"},"status":"Real"},{"key":"10023218","name":"Rue Jean-Prouvé","postalCode":"1762","locality":"Givisiez","commune":{"key":"2197","name":"Givisiez","shortName":"Givisiez"},"district":{"key":"1004","name":"District de la Sarine"},"canton":{"key":"10","code":"FR","name":"Fribourg / Freiburg"},"status":"Real"},{"key":"10052114","name":"Rue Pierre-Yerly","postalCode":"1762","locality":"Givisiez","commune":{"key":"2197","name":"Givisiez","shortName":"Givisiez"},"district":{"key":"1004","name":"District de la Sarine"},"canton":{"key":"10","code":"FR","name":"Fribourg / Freiburg"},"status":"Real"},{"key":"10187379","name":"Rue Robert-Stalder","postalCode":"1762","locality":"Givisiez","commune":{"key":"2197","name":"Givisiez","shortName":"Givisiez"},"district":{"key":"1004","name":"District de la Sarine"},"canton":{"key":"10","code":"FR","name":"Fribourg / Freiburg"},"status":"Real"},{"key":"10252818","name":"Sentier des Vaudois","postalCode":"1762","locality":"Givisiez","commune":{"key":"2197","name":"Givisiez","shortName":"Givisiez"},"district":{"key":"1004","name":"District de la Sarine"},"canton":{"key":"10","code":"FR","name":"Fribourg / Freiburg"},"status":"Real"},]