[{"key":"10135723","name":"Scalinata Sassello","postalCode":"6814","locality":"Cadempino","commune":{"key":"5189","name":"Lamone","shortName":"Lamone"},"district":{"key":"2105","name":"Distretto di Lugano"},"canton":{"key":"21","code":"TI","name":"Ticino"},"status":"Real"},{"key":"10135724","name":"Via Acquedotto","postalCode":"6814","locality":"Cadempino","commune":{"key":"5189","name":"Lamone","shortName":"Lamone"},"district":{"key":"2105","name":"Distretto di Lugano"},"canton":{"key":"21","code":"TI","name":"Ticino"},"status":"Real"},{"key":"10135728","name":"Via alle Scuole","postalCode":"6814","locality":"Cadempino","commune":{"key":"5189","name":"Lamone","shortName":"Lamone"},"district":{"key":"2105","name":"Distretto di Lugano"},"canton":{"key":"21","code":"TI","name":"Ticino"},"status":"Real"},{"key":"10135725","name":"Via al Loco","postalCode":"6814","locality":"Cadempino","commune":{"key":"5189","name":"Lamone","shortName":"Lamone"},"district":{"key":"2105","name":"Distretto di Lugano"},"canton":{"key":"21","code":"TI","name":"Ticino"},"status":"Real"},{"key":"10135726","name":"Via al Mattero","postalCode":"6814","locality":"Cadempino","commune":{"key":"5189","name":"Lamone","shortName":"Lamone"},"district":{"key":"2105","name":"Distretto di Lugano"},"canton":{"key":"21","code":"TI","name":"Ticino"},"status":"Real"},{"key":"10246365","name":"Via al Mulino","postalCode":"6814","locality":"Cadempino","commune":{"key":"5189","name":"Lamone","shortName":"Lamone"},"district":{"key":"2105","name":"Distretto di Lugano"},"canton":{"key":"21","code":"TI","name":"Ticino"},"status":"Real"},{"key":"10135727","name":"Via al Mulino","postalCode":"6814","locality":"Cadempino","commune":{"key":"5189","name":"Lamone","shortName":"Lamone"},"district":{"key":"2105","name":"Distretto di Lugano"},"canton":{"key":"21","code":"TI","name":"Ticino"},"status":"Real"},{"key":"10135729","name":"Via Cadempina","postalCode":"6814","locality":"Cadempino","commune":{"key":"5189","name":"Lamone","shortName":"Lamone"},"district":{"key":"2105","name":"Distretto di Lugano"},"canton":{"key":"21","code":"TI","name":"Ticino"},"status":"Real"},{"key":"10135730","name":"Via Caneggio","postalCode":"6814","locality":"Cadempino","commune":{"key":"5189","name":"Lamone","shortName":"Lamone"},"district":{"key":"2105","name":"Distretto di Lugano"},"canton":{"key":"21","code":"TI","name":"Ticino"},"status":"Real"},{"key":"10135731","name":"Via Cantonale","postalCode":"6814","locality":"Cadempino","commune":{"key":"5189","name":"Lamone","shortName":"Lamone"},"district":{"key":"2105","name":"Distretto di Lugano"},"canton":{"key":"21","code":"TI","name":"Ticino"},"status":"Real"},{"key":"10139060","name":"Via Carsiné","postalCode":"6814","locality":"Cadempino","commune":{"key":"5189","name":"Lamone","shortName":"Lamone"},"district":{"key":"2105","name":"Distretto di Lugano"},"canton":{"key":"21","code":"TI","name":"Ticino"},"status":"Real"},{"key":"10135732","name":"Via Cevo","postalCode":"6814","locality":"Cadempino","commune":{"key":"5189","name":"Lamone","shortName":"Lamone"},"district":{"key":"2105","name":"Distretto di Lugano"},"canton":{"key":"21","code":"TI","name":"Ticino"},"status":"Real"},{"key":"10135733","name":"Via Chioso","postalCode":"6814","locality":"Cadempino","commune":{"key":"5189","name":"Lamone","shortName":"Lamone"},"district":{"key":"2105","name":"Distretto di Lugano"},"canton":{"key":"21","code":"TI","name":"Ticino"},"status":"Real"},{"key":"10135734","name":"Via Industria","postalCode":"6814","locality":"Cadempino","commune":{"key":"5189","name":"Lamone","shortName":"Lamone"},"district":{"key":"2105","name":"Distretto di Lugano"},"canton":{"key":"21","code":"TI","name":"Ticino"},"status":"Real"},{"key":"10135735","name":"Via Ponteggia","postalCode":"6814","locality":"Cadempino","commune":{"key":"5189","name":"Lamone","shortName":"Lamone"},"district":{"key":"2105","name":"Distretto di Lugano"},"canton":{"key":"21","code":"TI","name":"Ticino"},"status":"Real"},{"key":"10135736","name":"Via Quiete","postalCode":"6814","locality":"Cadempino","commune":{"key":"5189","name":"Lamone","shortName":"Lamone"},"district":{"key":"2105","name":"Distretto di Lugano"},"canton":{"key":"21","code":"TI","name":"Ticino"},"status":"Real"},{"key":"10136001","name":"Via Ronchetto","postalCode":"6814","locality":"Cadempino","commune":{"key":"5189","name":"Lamone","shortName":"Lamone"},"district":{"key":"2105","name":"Distretto di Lugano"},"canton":{"key":"21","code":"TI","name":"Ticino"},"status":"Real"},{"key":"10136002","name":"Via San Gervasio","postalCode":"6814","locality":"Cadempino","commune":{"key":"5189","name":"Lamone","shortName":"Lamone"},"district":{"key":"2105","name":"Distretto di Lugano"},"canton":{"key":"21","code":"TI","name":"Ticino"},"status":"Real"},{"key":"10136003","name":"Via Selva","postalCode":"6814","locality":"Cadempino","commune":{"key":"5189","name":"Lamone","shortName":"Lamone"},"district":{"key":"2105","name":"Distretto di Lugano"},"canton":{"key":"21","code":"TI","name":"Ticino"},"status":"Real"},{"key":"10136004","name":"Via Stazione","postalCode":"6814","locality":"Cadempino","commune":{"key":"5189","name":"Lamone","shortName":"Lamone"},"district":{"key":"2105","name":"Distretto di Lugano"},"canton":{"key":"21","code":"TI","name":"Ticino"},"status":"Real"},{"key":"10151392","name":"Via Strécia","postalCode":"6814","locality":"Cadempino","commune":{"key":"5189","name":"Lamone","shortName":"Lamone"},"district":{"key":"2105","name":"Distretto di Lugano"},"canton":{"key":"21","code":"TI","name":"Ticino"},"status":"Real"},{"key":"10136005","name":"Via Tavernaccia","postalCode":"6814","locality":"Cadempino","commune":{"key":"5189","name":"Lamone","shortName":"Lamone"},"district":{"key":"2105","name":"Distretto di Lugano"},"canton":{"key":"21","code":"TI","name":"Ticino"},"status":"Real"},{"key":"10136006","name":"Via Valeggia","postalCode":"6814","locality":"Cadempino","commune":{"key":"5189","name":"Lamone","shortName":"Lamone"},"district":{"key":"2105","name":"Distretto di Lugano"},"canton":{"key":"21","code":"TI","name":"Ticino"},"status":"Real"},{"key":"10136007","name":"Via Virano","postalCode":"6814","locality":"Cadempino","commune":{"key":"5189","name":"Lamone","shortName":"Lamone"},"district":{"key":"2105","name":"Distretto di Lugano"},"canton":{"key":"21","code":"TI","name":"Ticino"},"status":"Real"},{"key":"10136008","name":"Vicolo Privato","postalCode":"6814","locality":"Cadempino","commune":{"key":"5189","name":"Lamone","shortName":"Lamone"},"district":{"key":"2105","name":"Distretto di Lugano"},"canton":{"key":"21","code":"TI","name":"Ticino"},"status":"Real"},{"key":"10136009","name":"Vicolo Sassello","postalCode":"6814","locality":"Cadempino","commune":{"key":"5189","name":"Lamone","shortName":"Lamone"},"district":{"key":"2105","name":"Distretto di Lugano"},"canton":{"key":"21","code":"TI","name":"Ticino"},"status":"Real"},{"key":"10136010","name":"Vicolo Vecchio","postalCode":"6814","locality":"Cadempino","commune":{"key":"5189","name":"Lamone","shortName":"Lamone"},"district":{"key":"2105","name":"Distretto di Lugano"},"canton":{"key":"21","code":"TI","name":"Ticino"},"status":"Real"},]