[{"name":"Ackerrain","postalCode":"53819","locality":"Neunkirchen-Seelscheid","municipality":{"key":"05382040","name":"Neunkirchen-Seelscheid","type":"Kreisangehörige_Gemeinde"},"district":{"key":"05382","name":"Rhein-Sieg-Kreis","type":"Kreis"},"federalState":{"key":"05","name":"Nordrhein-Westfalen"}},{"name":"Ahornweg","postalCode":"53819","locality":"Neunkirchen-Seelscheid","municipality":{"key":"05382040","name":"Neunkirchen-Seelscheid","type":"Kreisangehörige_Gemeinde"},"district":{"key":"05382","name":"Rhein-Sieg-Kreis","type":"Kreis"},"federalState":{"key":"05","name":"Nordrhein-Westfalen"}},{"name":"Alte-Mucher-Str.","postalCode":"53819","locality":"Neunkirchen-Seelscheid","municipality":{"key":"05382040","name":"Neunkirchen-Seelscheid","type":"Kreisangehörige_Gemeinde"},"district":{"key":"05382","name":"Rhein-Sieg-Kreis","type":"Kreis"},"federalState":{"key":"05","name":"Nordrhein-Westfalen"}},{"name":"Alten-Büchel-Str.","postalCode":"53819","locality":"Neunkirchen-Seelscheid","municipality":{"key":"05382040","name":"Neunkirchen-Seelscheid","type":"Kreisangehörige_Gemeinde"},"district":{"key":"05382","name":"Rhein-Sieg-Kreis","type":"Kreis"},"federalState":{"key":"05","name":"Nordrhein-Westfalen"}},{"name":"Alter Weg","postalCode":"53819","locality":"Neunkirchen-Seelscheid","municipality":{"key":"05382040","name":"Neunkirchen-Seelscheid","type":"Kreisangehörige_Gemeinde"},"district":{"key":"05382","name":"Rhein-Sieg-Kreis","type":"Kreis"},"federalState":{"key":"05","name":"Nordrhein-Westfalen"}},{"name":"Am Anger","postalCode":"53819","locality":"Neunkirchen-Seelscheid","municipality":{"key":"05382040","name":"Neunkirchen-Seelscheid","type":"Kreisangehörige_Gemeinde"},"district":{"key":"05382","name":"Rhein-Sieg-Kreis","type":"Kreis"},"federalState":{"key":"05","name":"Nordrhein-Westfalen"}},{"name":"Am Bergwerk","postalCode":"53819","locality":"Neunkirchen-Seelscheid","municipality":{"key":"05382040","name":"Neunkirchen-Seelscheid","type":"Kreisangehörige_Gemeinde"},"district":{"key":"05382","name":"Rhein-Sieg-Kreis","type":"Kreis"},"federalState":{"key":"05","name":"Nordrhein-Westfalen"}},{"name":"Am Bungental","postalCode":"53819","locality":"Neunkirchen-Seelscheid","municipality":{"key":"05382040","name":"Neunkirchen-Seelscheid","type":"Kreisangehörige_Gemeinde"},"district":{"key":"05382","name":"Rhein-Sieg-Kreis","type":"Kreis"},"federalState":{"key":"05","name":"Nordrhein-Westfalen"}},{"name":"Am Dreieck","postalCode":"53819","locality":"Neunkirchen-Seelscheid","municipality":{"key":"05382040","name":"Neunkirchen-Seelscheid","type":"Kreisangehörige_Gemeinde"},"district":{"key":"05382","name":"Rhein-Sieg-Kreis","type":"Kreis"},"federalState":{"key":"05","name":"Nordrhein-Westfalen"}},{"name":"Am Ehrenmal","postalCode":"53819","locality":"Neunkirchen-Seelscheid","municipality":{"key":"05382040","name":"Neunkirchen-Seelscheid","type":"Kreisangehörige_Gemeinde"},"district":{"key":"05382","name":"Rhein-Sieg-Kreis","type":"Kreis"},"federalState":{"key":"05","name":"Nordrhein-Westfalen"}},{"name":"Am Eulenwald","postalCode":"53819","locality":"Neunkirchen-Seelscheid","municipality":{"key":"05382040","name":"Neunkirchen-Seelscheid","type":"Kreisangehörige_Gemeinde"},"district":{"key":"05382","name":"Rhein-Sieg-Kreis","type":"Kreis"},"federalState":{"key":"05","name":"Nordrhein-Westfalen"}},{"name":"Am Fischweiher","postalCode":"53819","locality":"Neunkirchen-Seelscheid","municipality":{"key":"05382040","name":"Neunkirchen-Seelscheid","type":"Kreisangehörige_Gemeinde"},"district":{"key":"05382","name":"Rhein-Sieg-Kreis","type":"Kreis"},"federalState":{"key":"05","name":"Nordrhein-Westfalen"}},{"name":"Am Flutgraben","postalCode":"53819","locality":"Neunkirchen-Seelscheid","municipality":{"key":"05382040","name":"Neunkirchen-Seelscheid","type":"Kreisangehörige_Gemeinde"},"district":{"key":"05382","name":"Rhein-Sieg-Kreis","type":"Kreis"},"federalState":{"key":"05","name":"Nordrhein-Westfalen"}},{"name":"Am Gansberg","postalCode":"53819","locality":"Neunkirchen-Seelscheid","municipality":{"key":"05382040","name":"Neunkirchen-Seelscheid","type":"Kreisangehörige_Gemeinde"},"district":{"key":"05382","name":"Rhein-Sieg-Kreis","type":"Kreis"},"federalState":{"key":"05","name":"Nordrhein-Westfalen"}},{"name":"Am Grasgarten","postalCode":"53819","locality":"Neunkirchen-Seelscheid","municipality":{"key":"05382040","name":"Neunkirchen-Seelscheid","type":"Kreisangehörige_Gemeinde"},"district":{"key":"05382","name":"Rhein-Sieg-Kreis","type":"Kreis"},"federalState":{"key":"05","name":"Nordrhein-Westfalen"}},{"name":"Am Hang","postalCode":"53819","locality":"Neunkirchen-Seelscheid","municipality":{"key":"05382040","name":"Neunkirchen-Seelscheid","type":"Kreisangehörige_Gemeinde"},"district":{"key":"05382","name":"Rhein-Sieg-Kreis","type":"Kreis"},"federalState":{"key":"05","name":"Nordrhein-Westfalen"}},{"name":"Am Hausberg","postalCode":"53819","locality":"Neunkirchen-Seelscheid","municipality":{"key":"05382040","name":"Neunkirchen-Seelscheid","type":"Kreisangehörige_Gemeinde"},"district":{"key":"05382","name":"Rhein-Sieg-Kreis","type":"Kreis"},"federalState":{"key":"05","name":"Nordrhein-Westfalen"}},{"name":"Am Heiligenstock","postalCode":"53819","locality":"Neunkirchen-Seelscheid","municipality":{"key":"05382040","name":"Neunkirchen-Seelscheid","type":"Kreisangehörige_Gemeinde"},"district":{"key":"05382","name":"Rhein-Sieg-Kreis","type":"Kreis"},"federalState":{"key":"05","name":"Nordrhein-Westfalen"}},{"name":"Am Hofacker","postalCode":"53819","locality":"Neunkirchen-Seelscheid","municipality":{"key":"05382040","name":"Neunkirchen-Seelscheid","type":"Kreisangehörige_Gemeinde"},"district":{"key":"05382","name":"Rhein-Sieg-Kreis","type":"Kreis"},"federalState":{"key":"05","name":"Nordrhein-Westfalen"}},{"name":"Am Kirschbaum","postalCode":"53819","locality":"Neunkirchen-Seelscheid","municipality":{"key":"05382040","name":"Neunkirchen-Seelscheid","type":"Kreisangehörige_Gemeinde"},"district":{"key":"05382","name":"Rhein-Sieg-Kreis","type":"Kreis"},"federalState":{"key":"05","name":"Nordrhein-Westfalen"}},{"name":"Am Küppershof","postalCode":"53819","locality":"Neunkirchen-Seelscheid","municipality":{"key":"05382040","name":"Neunkirchen-Seelscheid","type":"Kreisangehörige_Gemeinde"},"district":{"key":"05382","name":"Rhein-Sieg-Kreis","type":"Kreis"},"federalState":{"key":"05","name":"Nordrhein-Westfalen"}},{"name":"Am Leiengarten","postalCode":"53819","locality":"Neunkirchen-Seelscheid","municipality":{"key":"05382040","name":"Neunkirchen-Seelscheid","type":"Kreisangehörige_Gemeinde"},"district":{"key":"05382","name":"Rhein-Sieg-Kreis","type":"Kreis"},"federalState":{"key":"05","name":"Nordrhein-Westfalen"}},{"name":"Am Lübich","postalCode":"53819","locality":"Neunkirchen-Seelscheid","municipality":{"key":"05382040","name":"Neunkirchen-Seelscheid","type":"Kreisangehörige_Gemeinde"},"district":{"key":"05382","name":"Rhein-Sieg-Kreis","type":"Kreis"},"federalState":{"key":"05","name":"Nordrhein-Westfalen"}},{"name":"Am Rosengarten","postalCode":"53819","locality":"Neunkirchen-Seelscheid","municipality":{"key":"05382040","name":"Neunkirchen-Seelscheid","type":"Kreisangehörige_Gemeinde"},"district":{"key":"05382","name":"Rhein-Sieg-Kreis","type":"Kreis"},"federalState":{"key":"05","name":"Nordrhein-Westfalen"}},{"name":"Am Sonnenhang","postalCode":"53819","locality":"Neunkirchen-Seelscheid","municipality":{"key":"05382040","name":"Neunkirchen-Seelscheid","type":"Kreisangehörige_Gemeinde"},"district":{"key":"05382","name":"Rhein-Sieg-Kreis","type":"Kreis"},"federalState":{"key":"05","name":"Nordrhein-Westfalen"}},{"name":"Am Sportplatz","postalCode":"53819","locality":"Neunkirchen-Seelscheid","municipality":{"key":"05382040","name":"Neunkirchen-Seelscheid","type":"Kreisangehörige_Gemeinde"},"district":{"key":"05382","name":"Rhein-Sieg-Kreis","type":"Kreis"},"federalState":{"key":"05","name":"Nordrhein-Westfalen"}},{"name":"Am Vogelberg","postalCode":"53819","locality":"Neunkirchen-Seelscheid","municipality":{"key":"05382040","name":"Neunkirchen-Seelscheid","type":"Kreisangehörige_Gemeinde"},"district":{"key":"05382","name":"Rhein-Sieg-Kreis","type":"Kreis"},"federalState":{"key":"05","name":"Nordrhein-Westfalen"}},{"name":"Am Waldrand","postalCode":"53819","locality":"Neunkirchen-Seelscheid","municipality":{"key":"05382040","name":"Neunkirchen-Seelscheid","type":"Kreisangehörige_Gemeinde"},"district":{"key":"05382","name":"Rhein-Sieg-Kreis","type":"Kreis"},"federalState":{"key":"05","name":"Nordrhein-Westfalen"}},{"name":"Am Weiher","postalCode":"53819","locality":"Neunkirchen-Seelscheid","municipality":{"key":"05382040","name":"Neunkirchen-Seelscheid","type":"Kreisangehörige_Gemeinde"},"district":{"key":"05382","name":"Rhein-Sieg-Kreis","type":"Kreis"},"federalState":{"key":"05","name":"Nordrhein-Westfalen"}},{"name":"Am Wiedenhof","postalCode":"53819","locality":"Neunkirchen-Seelscheid","municipality":{"key":"05382040","name":"Neunkirchen-Seelscheid","type":"Kreisangehörige_Gemeinde"},"district":{"key":"05382","name":"Rhein-Sieg-Kreis","type":"Kreis"},"federalState":{"key":"05","name":"Nordrhein-Westfalen"}},{"name":"An der Krautbitze","postalCode":"53819","locality":"Neunkirchen-Seelscheid","municipality":{"key":"05382040","name":"Neunkirchen-Seelscheid","type":"Kreisangehörige_Gemeinde"},"district":{"key":"05382","name":"Rhein-Sieg-Kreis","type":"Kreis"},"federalState":{"key":"05","name":"Nordrhein-Westfalen"}},{"name":"Andersenweg","postalCode":"53819","locality":"Neunkirchen-Seelscheid","municipality":{"key":"05382040","name":"Neunkirchen-Seelscheid","type":"Kreisangehörige_Gemeinde"},"district":{"key":"05382","name":"Rhein-Sieg-Kreis","type":"Kreis"},"federalState":{"key":"05","name":"Nordrhein-Westfalen"}},{"name":"Annastr.","postalCode":"53819","locality":"Neunkirchen-Seelscheid","municipality":{"key":"05382040","name":"Neunkirchen-Seelscheid","type":"Kreisangehörige_Gemeinde"},"district":{"key":"05382","name":"Rhein-Sieg-Kreis","type":"Kreis"},"federalState":{"key":"05","name":"Nordrhein-Westfalen"}},{"name":"Arndtstr.","postalCode":"53819","locality":"Neunkirchen-Seelscheid","municipality":{"key":"05382040","name":"Neunkirchen-Seelscheid","type":"Kreisangehörige_Gemeinde"},"district":{"key":"05382","name":"Rhein-Sieg-Kreis","type":"Kreis"},"federalState":{"key":"05","name":"Nordrhein-Westfalen"}},{"name":"Aschenbrödelweg","postalCode":"53819","locality":"Neunkirchen-Seelscheid","municipality":{"key":"05382040","name":"Neunkirchen-Seelscheid","type":"Kreisangehörige_Gemeinde"},"district":{"key":"05382","name":"Rhein-Sieg-Kreis","type":"Kreis"},"federalState":{"key":"05","name":"Nordrhein-Westfalen"}},{"name":"Asternweg","postalCode":"53819","locality":"Neunkirchen-Seelscheid","municipality":{"key":"05382040","name":"Neunkirchen-Seelscheid","type":"Kreisangehörige_Gemeinde"},"district":{"key":"05382","name":"Rhein-Sieg-Kreis","type":"Kreis"},"federalState":{"key":"05","name":"Nordrhein-Westfalen"}},{"name":"Auenweg","postalCode":"53819","locality":"Neunkirchen-Seelscheid","municipality":{"key":"05382040","name":"Neunkirchen-Seelscheid","type":"Kreisangehörige_Gemeinde"},"district":{"key":"05382","name":"Rhein-Sieg-Kreis","type":"Kreis"},"federalState":{"key":"05","name":"Nordrhein-Westfalen"}},{"name":"Auf dem Bruch","postalCode":"53819","locality":"Neunkirchen-Seelscheid","municipality":{"key":"05382040","name":"Neunkirchen-Seelscheid","type":"Kreisangehörige_Gemeinde"},"district":{"key":"05382","name":"Rhein-Sieg-Kreis","type":"Kreis"},"federalState":{"key":"05","name":"Nordrhein-Westfalen"}},{"name":"Auf dem Höchsten","postalCode":"53819","locality":"Neunkirchen-Seelscheid","municipality":{"key":"05382040","name":"Neunkirchen-Seelscheid","type":"Kreisangehörige_Gemeinde"},"district":{"key":"05382","name":"Rhein-Sieg-Kreis","type":"Kreis"},"federalState":{"key":"05","name":"Nordrhein-Westfalen"}},{"name":"Auf der Bitzen","postalCode":"53819","locality":"Neunkirchen-Seelscheid","municipality":{"key":"05382040","name":"Neunkirchen-Seelscheid","type":"Kreisangehörige_Gemeinde"},"district":{"key":"05382","name":"Rhein-Sieg-Kreis","type":"Kreis"},"federalState":{"key":"05","name":"Nordrhein-Westfalen"}},{"name":"Auf der Donn","postalCode":"53819","locality":"Neunkirchen-Seelscheid","municipality":{"key":"05382040","name":"Neunkirchen-Seelscheid","type":"Kreisangehörige_Gemeinde"},"district":{"key":"05382","name":"Rhein-Sieg-Kreis","type":"Kreis"},"federalState":{"key":"05","name":"Nordrhein-Westfalen"}},{"name":"Auf der Höh","postalCode":"53819","locality":"Neunkirchen-Seelscheid","municipality":{"key":"05382040","name":"Neunkirchen-Seelscheid","type":"Kreisangehörige_Gemeinde"},"district":{"key":"05382","name":"Rhein-Sieg-Kreis","type":"Kreis"},"federalState":{"key":"05","name":"Nordrhein-Westfalen"}},{"name":"Auf der Rötschen","postalCode":"53819","locality":"Neunkirchen-Seelscheid","municipality":{"key":"05382040","name":"Neunkirchen-Seelscheid","type":"Kreisangehörige_Gemeinde"},"district":{"key":"05382","name":"Rhein-Sieg-Kreis","type":"Kreis"},"federalState":{"key":"05","name":"Nordrhein-Westfalen"}},{"name":"Bachstr.","postalCode":"53819","locality":"Neunkirchen-Seelscheid","municipality":{"key":"05382040","name":"Neunkirchen-Seelscheid","type":"Kreisangehörige_Gemeinde"},"district":{"key":"05382","name":"Rhein-Sieg-Kreis","type":"Kreis"},"federalState":{"key":"05","name":"Nordrhein-Westfalen"}},{"name":"Backesfeld","postalCode":"53819","locality":"Neunkirchen-Seelscheid","municipality":{"key":"05382040","name":"Neunkirchen-Seelscheid","type":"Kreisangehörige_Gemeinde"},"district":{"key":"05382","name":"Rhein-Sieg-Kreis","type":"Kreis"},"federalState":{"key":"05","name":"Nordrhein-Westfalen"}},{"name":"Beethovenstr.","postalCode":"53819","locality":"Neunkirchen-Seelscheid","municipality":{"key":"05382040","name":"Neunkirchen-Seelscheid","type":"Kreisangehörige_Gemeinde"},"district":{"key":"05382","name":"Rhein-Sieg-Kreis","type":"Kreis"},"federalState":{"key":"05","name":"Nordrhein-Westfalen"}},{"name":"Bennenberg","postalCode":"53819","locality":"Neunkirchen-Seelscheid","municipality":{"key":"05382040","name":"Neunkirchen-Seelscheid","type":"Kreisangehörige_Gemeinde"},"district":{"key":"05382","name":"Rhein-Sieg-Kreis","type":"Kreis"},"federalState":{"key":"05","name":"Nordrhein-Westfalen"}},{"name":"Bergstr.","postalCode":"53819","locality":"Neunkirchen-Seelscheid","municipality":{"key":"05382040","name":"Neunkirchen-Seelscheid","type":"Kreisangehörige_Gemeinde"},"district":{"key":"05382","name":"Rhein-Sieg-Kreis","type":"Kreis"},"federalState":{"key":"05","name":"Nordrhein-Westfalen"}},{"name":"Bergwiese","postalCode":"53819","locality":"Neunkirchen-Seelscheid","municipality":{"key":"05382040","name":"Neunkirchen-Seelscheid","type":"Kreisangehörige_Gemeinde"},"district":{"key":"05382","name":"Rhein-Sieg-Kreis","type":"Kreis"},"federalState":{"key":"05","name":"Nordrhein-Westfalen"}},{"name":"Berliner Str.","postalCode":"53819","locality":"Neunkirchen-Seelscheid","municipality":{"key":"05382040","name":"Neunkirchen-Seelscheid","type":"Kreisangehörige_Gemeinde"},"district":{"key":"05382","name":"Rhein-Sieg-Kreis","type":"Kreis"},"federalState":{"key":"05","name":"Nordrhein-Westfalen"}},{"name":"Biberweg","postalCode":"53819","locality":"Neunkirchen-Seelscheid","municipality":{"key":"05382040","name":"Neunkirchen-Seelscheid","type":"Kreisangehörige_Gemeinde"},"district":{"key":"05382","name":"Rhein-Sieg-Kreis","type":"Kreis"},"federalState":{"key":"05","name":"Nordrhein-Westfalen"}},{"name":"Bicester Park","postalCode":"53819","locality":"Neunkirchen-Seelscheid","municipality":{"key":"05382040","name":"Neunkirchen-Seelscheid","type":"Kreisangehörige_Gemeinde"},"district":{"key":"05382","name":"Rhein-Sieg-Kreis","type":"Kreis"},"federalState":{"key":"05","name":"Nordrhein-Westfalen"}},{"name":"Birkenfelder Str.","postalCode":"53819","locality":"Neunkirchen-Seelscheid","municipality":{"key":"05382040","name":"Neunkirchen-Seelscheid","type":"Kreisangehörige_Gemeinde"},"district":{"key":"05382","name":"Rhein-Sieg-Kreis","type":"Kreis"},"federalState":{"key":"05","name":"Nordrhein-Westfalen"}},{"name":"Birkenmühler Weg","postalCode":"53819","locality":"Neunkirchen-Seelscheid","municipality":{"key":"05382040","name":"Neunkirchen-Seelscheid","type":"Kreisangehörige_Gemeinde"},"district":{"key":"05382","name":"Rhein-Sieg-Kreis","type":"Kreis"},"federalState":{"key":"05","name":"Nordrhein-Westfalen"}},{"name":"Birkenweg","postalCode":"53819","locality":"Neunkirchen-Seelscheid","municipality":{"key":"05382040","name":"Neunkirchen-Seelscheid","type":"Kreisangehörige_Gemeinde"},"district":{"key":"05382","name":"Rhein-Sieg-Kreis","type":"Kreis"},"federalState":{"key":"05","name":"Nordrhein-Westfalen"}},{"name":"Bitzer Berg","postalCode":"53819","locality":"Neunkirchen-Seelscheid","municipality":{"key":"05382040","name":"Neunkirchen-Seelscheid","type":"Kreisangehörige_Gemeinde"},"district":{"key":"05382","name":"Rhein-Sieg-Kreis","type":"Kreis"},"federalState":{"key":"05","name":"Nordrhein-Westfalen"}},{"name":"Bockenbuscher Weg","postalCode":"53819","locality":"Neunkirchen-Seelscheid","municipality":{"key":"05382040","name":"Neunkirchen-Seelscheid","type":"Kreisangehörige_Gemeinde"},"district":{"key":"05382","name":"Rhein-Sieg-Kreis","type":"Kreis"},"federalState":{"key":"05","name":"Nordrhein-Westfalen"}},{"name":"Boettgerstr.","postalCode":"53819","locality":"Neunkirchen-Seelscheid","municipality":{"key":"05382040","name":"Neunkirchen-Seelscheid","type":"Kreisangehörige_Gemeinde"},"district":{"key":"05382","name":"Rhein-Sieg-Kreis","type":"Kreis"},"federalState":{"key":"05","name":"Nordrhein-Westfalen"}},{"name":"Bogenstr.","postalCode":"53819","locality":"Neunkirchen-Seelscheid","municipality":{"key":"05382040","name":"Neunkirchen-Seelscheid","type":"Kreisangehörige_Gemeinde"},"district":{"key":"05382","name":"Rhein-Sieg-Kreis","type":"Kreis"},"federalState":{"key":"05","name":"Nordrhein-Westfalen"}},{"name":"Bonner Str.","postalCode":"53819","locality":"Neunkirchen-Seelscheid","municipality":{"key":"05382040","name":"Neunkirchen-Seelscheid","type":"Kreisangehörige_Gemeinde"},"district":{"key":"05382","name":"Rhein-Sieg-Kreis","type":"Kreis"},"federalState":{"key":"05","name":"Nordrhein-Westfalen"}},{"name":"Brackemicher Str.","postalCode":"53819","locality":"Neunkirchen-Seelscheid","municipality":{"key":"05382040","name":"Neunkirchen-Seelscheid","type":"Kreisangehörige_Gemeinde"},"district":{"key":"05382","name":"Rhein-Sieg-Kreis","type":"Kreis"},"federalState":{"key":"05","name":"Nordrhein-Westfalen"}},{"name":"Breite Str.","postalCode":"53819","locality":"Neunkirchen-Seelscheid","municipality":{"key":"05382040","name":"Neunkirchen-Seelscheid","type":"Kreisangehörige_Gemeinde"},"district":{"key":"05382","name":"Rhein-Sieg-Kreis","type":"Kreis"},"federalState":{"key":"05","name":"Nordrhein-Westfalen"}},{"name":"Breitscheider Str.","postalCode":"53819","locality":"Neunkirchen-Seelscheid","municipality":{"key":"05382040","name":"Neunkirchen-Seelscheid","type":"Kreisangehörige_Gemeinde"},"district":{"key":"05382","name":"Rhein-Sieg-Kreis","type":"Kreis"},"federalState":{"key":"05","name":"Nordrhein-Westfalen"}},{"name":"Breslauer Str.","postalCode":"53819","locality":"Neunkirchen-Seelscheid","municipality":{"key":"05382040","name":"Neunkirchen-Seelscheid","type":"Kreisangehörige_Gemeinde"},"district":{"key":"05382","name":"Rhein-Sieg-Kreis","type":"Kreis"},"federalState":{"key":"05","name":"Nordrhein-Westfalen"}},{"name":"Broichsgasse","postalCode":"53819","locality":"Neunkirchen-Seelscheid","municipality":{"key":"05382040","name":"Neunkirchen-Seelscheid","type":"Kreisangehörige_Gemeinde"},"district":{"key":"05382","name":"Rhein-Sieg-Kreis","type":"Kreis"},"federalState":{"key":"05","name":"Nordrhein-Westfalen"}},{"name":"Bröltalstr.","postalCode":"53819","locality":"Neunkirchen-Seelscheid","municipality":{"key":"05382040","name":"Neunkirchen-Seelscheid","type":"Kreisangehörige_Gemeinde"},"district":{"key":"05382","name":"Rhein-Sieg-Kreis","type":"Kreis"},"federalState":{"key":"05","name":"Nordrhein-Westfalen"}},{"name":"Brombeerweg","postalCode":"53819","locality":"Neunkirchen-Seelscheid","municipality":{"key":"05382040","name":"Neunkirchen-Seelscheid","type":"Kreisangehörige_Gemeinde"},"district":{"key":"05382","name":"Rhein-Sieg-Kreis","type":"Kreis"},"federalState":{"key":"05","name":"Nordrhein-Westfalen"}},{"name":"Bronnenwiese","postalCode":"53819","locality":"Neunkirchen-Seelscheid","municipality":{"key":"05382040","name":"Neunkirchen-Seelscheid","type":"Kreisangehörige_Gemeinde"},"district":{"key":"05382","name":"Rhein-Sieg-Kreis","type":"Kreis"},"federalState":{"key":"05","name":"Nordrhein-Westfalen"}},{"name":"Bruchhausener Str.","postalCode":"53819","locality":"Neunkirchen-Seelscheid","municipality":{"key":"05382040","name":"Neunkirchen-Seelscheid","type":"Kreisangehörige_Gemeinde"},"district":{"key":"05382","name":"Rhein-Sieg-Kreis","type":"Kreis"},"federalState":{"key":"05","name":"Nordrhein-Westfalen"}},{"name":"Brücker Wiese","postalCode":"53819","locality":"Neunkirchen-Seelscheid","municipality":{"key":"05382040","name":"Neunkirchen-Seelscheid","type":"Kreisangehörige_Gemeinde"},"district":{"key":"05382","name":"Rhein-Sieg-Kreis","type":"Kreis"},"federalState":{"key":"05","name":"Nordrhein-Westfalen"}},{"name":"Brunnenberg","postalCode":"53819","locality":"Neunkirchen-Seelscheid","municipality":{"key":"05382040","name":"Neunkirchen-Seelscheid","type":"Kreisangehörige_Gemeinde"},"district":{"key":"05382","name":"Rhein-Sieg-Kreis","type":"Kreis"},"federalState":{"key":"05","name":"Nordrhein-Westfalen"}},{"name":"Brunnenweg","postalCode":"53819","locality":"Neunkirchen-Seelscheid","municipality":{"key":"05382040","name":"Neunkirchen-Seelscheid","type":"Kreisangehörige_Gemeinde"},"district":{"key":"05382","name":"Rhein-Sieg-Kreis","type":"Kreis"},"federalState":{"key":"05","name":"Nordrhein-Westfalen"}},{"name":"Bruseberg","postalCode":"53819","locality":"Neunkirchen-Seelscheid","municipality":{"key":"05382040","name":"Neunkirchen-Seelscheid","type":"Kreisangehörige_Gemeinde"},"district":{"key":"05382","name":"Rhein-Sieg-Kreis","type":"Kreis"},"federalState":{"key":"05","name":"Nordrhein-Westfalen"}},{"name":"Buchenweg","postalCode":"53819","locality":"Neunkirchen-Seelscheid","municipality":{"key":"05382040","name":"Neunkirchen-Seelscheid","type":"Kreisangehörige_Gemeinde"},"district":{"key":"05382","name":"Rhein-Sieg-Kreis","type":"Kreis"},"federalState":{"key":"05","name":"Nordrhein-Westfalen"}},{"name":"Buchfinkenweg","postalCode":"53819","locality":"Neunkirchen-Seelscheid","municipality":{"key":"05382040","name":"Neunkirchen-Seelscheid","type":"Kreisangehörige_Gemeinde"},"district":{"key":"05382","name":"Rhein-Sieg-Kreis","type":"Kreis"},"federalState":{"key":"05","name":"Nordrhein-Westfalen"}},{"name":"Burggasse","postalCode":"53819","locality":"Neunkirchen-Seelscheid","municipality":{"key":"05382040","name":"Neunkirchen-Seelscheid","type":"Kreisangehörige_Gemeinde"},"district":{"key":"05382","name":"Rhein-Sieg-Kreis","type":"Kreis"},"federalState":{"key":"05","name":"Nordrhein-Westfalen"}},{"name":"Buscher Str.","postalCode":"53819","locality":"Neunkirchen-Seelscheid","municipality":{"key":"05382040","name":"Neunkirchen-Seelscheid","type":"Kreisangehörige_Gemeinde"},"district":{"key":"05382","name":"Rhein-Sieg-Kreis","type":"Kreis"},"federalState":{"key":"05","name":"Nordrhein-Westfalen"}},{"name":"Buschöhrchen","postalCode":"53819","locality":"Neunkirchen-Seelscheid","municipality":{"key":"05382040","name":"Neunkirchen-Seelscheid","type":"Kreisangehörige_Gemeinde"},"district":{"key":"05382","name":"Rhein-Sieg-Kreis","type":"Kreis"},"federalState":{"key":"05","name":"Nordrhein-Westfalen"}},{"name":"Bussardweg","postalCode":"53819","locality":"Neunkirchen-Seelscheid","municipality":{"key":"05382040","name":"Neunkirchen-Seelscheid","type":"Kreisangehörige_Gemeinde"},"district":{"key":"05382","name":"Rhein-Sieg-Kreis","type":"Kreis"},"federalState":{"key":"05","name":"Nordrhein-Westfalen"}},{"name":"Claudiusstr.","postalCode":"53819","locality":"Neunkirchen-Seelscheid","municipality":{"key":"05382040","name":"Neunkirchen-Seelscheid","type":"Kreisangehörige_Gemeinde"},"district":{"key":"05382","name":"Rhein-Sieg-Kreis","type":"Kreis"},"federalState":{"key":"05","name":"Nordrhein-Westfalen"}},{"name":"Dachsweg","postalCode":"53819","locality":"Neunkirchen-Seelscheid","municipality":{"key":"05382040","name":"Neunkirchen-Seelscheid","type":"Kreisangehörige_Gemeinde"},"district":{"key":"05382","name":"Rhein-Sieg-Kreis","type":"Kreis"},"federalState":{"key":"05","name":"Nordrhein-Westfalen"}},{"name":"Dahlerhofer Str.","postalCode":"53819","locality":"Neunkirchen-Seelscheid","municipality":{"key":"05382040","name":"Neunkirchen-Seelscheid","type":"Kreisangehörige_Gemeinde"},"district":{"key":"05382","name":"Rhein-Sieg-Kreis","type":"Kreis"},"federalState":{"key":"05","name":"Nordrhein-Westfalen"}},{"name":"Dahlienweg","postalCode":"53819","locality":"Neunkirchen-Seelscheid","municipality":{"key":"05382040","name":"Neunkirchen-Seelscheid","type":"Kreisangehörige_Gemeinde"},"district":{"key":"05382","name":"Rhein-Sieg-Kreis","type":"Kreis"},"federalState":{"key":"05","name":"Nordrhein-Westfalen"}},{"name":"Dellenweg","postalCode":"53819","locality":"Neunkirchen-Seelscheid","municipality":{"key":"05382040","name":"Neunkirchen-Seelscheid","type":"Kreisangehörige_Gemeinde"},"district":{"key":"05382","name":"Rhein-Sieg-Kreis","type":"Kreis"},"federalState":{"key":"05","name":"Nordrhein-Westfalen"}},{"name":"Dompfaffweg","postalCode":"53819","locality":"Neunkirchen-Seelscheid","municipality":{"key":"05382040","name":"Neunkirchen-Seelscheid","type":"Kreisangehörige_Gemeinde"},"district":{"key":"05382","name":"Rhein-Sieg-Kreis","type":"Kreis"},"federalState":{"key":"05","name":"Nordrhein-Westfalen"}},{"name":"Donatusweg","postalCode":"53819","locality":"Neunkirchen-Seelscheid","municipality":{"key":"05382040","name":"Neunkirchen-Seelscheid","type":"Kreisangehörige_Gemeinde"},"district":{"key":"05382","name":"Rhein-Sieg-Kreis","type":"Kreis"},"federalState":{"key":"05","name":"Nordrhein-Westfalen"}},{"name":"Dorfplatz","postalCode":"53819","locality":"Neunkirchen-Seelscheid","municipality":{"key":"05382040","name":"Neunkirchen-Seelscheid","type":"Kreisangehörige_Gemeinde"},"district":{"key":"05382","name":"Rhein-Sieg-Kreis","type":"Kreis"},"federalState":{"key":"05","name":"Nordrhein-Westfalen"}},{"name":"Dorfstr.","postalCode":"53819","locality":"Neunkirchen-Seelscheid","municipality":{"key":"05382040","name":"Neunkirchen-Seelscheid","type":"Kreisangehörige_Gemeinde"},"district":{"key":"05382","name":"Rhein-Sieg-Kreis","type":"Kreis"},"federalState":{"key":"05","name":"Nordrhein-Westfalen"}},{"name":"Dornbitzenweg","postalCode":"53819","locality":"Neunkirchen-Seelscheid","municipality":{"key":"05382040","name":"Neunkirchen-Seelscheid","type":"Kreisangehörige_Gemeinde"},"district":{"key":"05382","name":"Rhein-Sieg-Kreis","type":"Kreis"},"federalState":{"key":"05","name":"Nordrhein-Westfalen"}},{"name":"Dornenweg","postalCode":"53819","locality":"Neunkirchen-Seelscheid","municipality":{"key":"05382040","name":"Neunkirchen-Seelscheid","type":"Kreisangehörige_Gemeinde"},"district":{"key":"05382","name":"Rhein-Sieg-Kreis","type":"Kreis"},"federalState":{"key":"05","name":"Nordrhein-Westfalen"}},{"name":"Dornröschenweg","postalCode":"53819","locality":"Neunkirchen-Seelscheid","municipality":{"key":"05382040","name":"Neunkirchen-Seelscheid","type":"Kreisangehörige_Gemeinde"},"district":{"key":"05382","name":"Rhein-Sieg-Kreis","type":"Kreis"},"federalState":{"key":"05","name":"Nordrhein-Westfalen"}},{"name":"Drachenfelsstr.","postalCode":"53819","locality":"Neunkirchen-Seelscheid","municipality":{"key":"05382040","name":"Neunkirchen-Seelscheid","type":"Kreisangehörige_Gemeinde"},"district":{"key":"05382","name":"Rhein-Sieg-Kreis","type":"Kreis"},"federalState":{"key":"05","name":"Nordrhein-Westfalen"}},{"name":"Drei-Kronen-Str.","postalCode":"53819","locality":"Neunkirchen-Seelscheid","municipality":{"key":"05382040","name":"Neunkirchen-Seelscheid","type":"Kreisangehörige_Gemeinde"},"district":{"key":"05382","name":"Rhein-Sieg-Kreis","type":"Kreis"},"federalState":{"key":"05","name":"Nordrhein-Westfalen"}},{"name":"Dresdener Str.","postalCode":"53819","locality":"Neunkirchen-Seelscheid","municipality":{"key":"05382040","name":"Neunkirchen-Seelscheid","type":"Kreisangehörige_Gemeinde"},"district":{"key":"05382","name":"Rhein-Sieg-Kreis","type":"Kreis"},"federalState":{"key":"05","name":"Nordrhein-Westfalen"}},{"name":"Driescher Str.","postalCode":"53819","locality":"Neunkirchen-Seelscheid","municipality":{"key":"05382040","name":"Neunkirchen-Seelscheid","type":"Kreisangehörige_Gemeinde"},"district":{"key":"05382","name":"Rhein-Sieg-Kreis","type":"Kreis"},"federalState":{"key":"05","name":"Nordrhein-Westfalen"}},{"name":"Drosselbartweg","postalCode":"53819","locality":"Neunkirchen-Seelscheid","municipality":{"key":"05382040","name":"Neunkirchen-Seelscheid","type":"Kreisangehörige_Gemeinde"},"district":{"key":"05382","name":"Rhein-Sieg-Kreis","type":"Kreis"},"federalState":{"key":"05","name":"Nordrhein-Westfalen"}},{"name":"Drosselweg","postalCode":"53819","locality":"Neunkirchen-Seelscheid","municipality":{"key":"05382040","name":"Neunkirchen-Seelscheid","type":"Kreisangehörige_Gemeinde"},"district":{"key":"05382","name":"Rhein-Sieg-Kreis","type":"Kreis"},"federalState":{"key":"05","name":"Nordrhein-Westfalen"}},{"name":"Drostestr.","postalCode":"53819","locality":"Neunkirchen-Seelscheid","municipality":{"key":"05382040","name":"Neunkirchen-Seelscheid","type":"Kreisangehörige_Gemeinde"},"district":{"key":"05382","name":"Rhein-Sieg-Kreis","type":"Kreis"},"federalState":{"key":"05","name":"Nordrhein-Westfalen"}},{"name":"Dürerweg","postalCode":"53819","locality":"Neunkirchen-Seelscheid","municipality":{"key":"05382040","name":"Neunkirchen-Seelscheid","type":"Kreisangehörige_Gemeinde"},"district":{"key":"05382","name":"Rhein-Sieg-Kreis","type":"Kreis"},"federalState":{"key":"05","name":"Nordrhein-Westfalen"}},{"name":"Eckweg","postalCode":"53819","locality":"Neunkirchen-Seelscheid","municipality":{"key":"05382040","name":"Neunkirchen-Seelscheid","type":"Kreisangehörige_Gemeinde"},"district":{"key":"05382","name":"Rhein-Sieg-Kreis","type":"Kreis"},"federalState":{"key":"05","name":"Nordrhein-Westfalen"}},{"name":"Efferter Str.","postalCode":"53819","locality":"Neunkirchen-Seelscheid","municipality":{"key":"05382040","name":"Neunkirchen-Seelscheid","type":"Kreisangehörige_Gemeinde"},"district":{"key":"05382","name":"Rhein-Sieg-Kreis","type":"Kreis"},"federalState":{"key":"05","name":"Nordrhein-Westfalen"}},{"name":"Eichendorffstr.","postalCode":"53819","locality":"Neunkirchen-Seelscheid","municipality":{"key":"05382040","name":"Neunkirchen-Seelscheid","type":"Kreisangehörige_Gemeinde"},"district":{"key":"05382","name":"Rhein-Sieg-Kreis","type":"Kreis"},"federalState":{"key":"05","name":"Nordrhein-Westfalen"}},{"name":"Eicher Str.","postalCode":"53819","locality":"Neunkirchen-Seelscheid","municipality":{"key":"05382040","name":"Neunkirchen-Seelscheid","type":"Kreisangehörige_Gemeinde"},"district":{"key":"05382","name":"Rhein-Sieg-Kreis","type":"Kreis"},"federalState":{"key":"05","name":"Nordrhein-Westfalen"}},{"name":"Eischeider Str.","postalCode":"53819","locality":"Neunkirchen-Seelscheid","municipality":{"key":"05382040","name":"Neunkirchen-Seelscheid","type":"Kreisangehörige_Gemeinde"},"district":{"key":"05382","name":"Rhein-Sieg-Kreis","type":"Kreis"},"federalState":{"key":"05","name":"Nordrhein-Westfalen"}},{"name":"Eisenerzstr.","postalCode":"53819","locality":"Neunkirchen-Seelscheid","municipality":{"key":"05382040","name":"Neunkirchen-Seelscheid","type":"Kreisangehörige_Gemeinde"},"district":{"key":"05382","name":"Rhein-Sieg-Kreis","type":"Kreis"},"federalState":{"key":"05","name":"Nordrhein-Westfalen"}},{"name":"Elsschlade","postalCode":"53819","locality":"Neunkirchen-Seelscheid","municipality":{"key":"05382040","name":"Neunkirchen-Seelscheid","type":"Kreisangehörige_Gemeinde"},"district":{"key":"05382","name":"Rhein-Sieg-Kreis","type":"Kreis"},"federalState":{"key":"05","name":"Nordrhein-Westfalen"}},{"name":"Emil-Nolde-Weg","postalCode":"53819","locality":"Neunkirchen-Seelscheid","municipality":{"key":"05382040","name":"Neunkirchen-Seelscheid","type":"Kreisangehörige_Gemeinde"},"district":{"key":"05382","name":"Rhein-Sieg-Kreis","type":"Kreis"},"federalState":{"key":"05","name":"Nordrhein-Westfalen"}},{"name":"Engelsberg","postalCode":"53819","locality":"Neunkirchen-Seelscheid","municipality":{"key":"05382040","name":"Neunkirchen-Seelscheid","type":"Kreisangehörige_Gemeinde"},"district":{"key":"05382","name":"Rhein-Sieg-Kreis","type":"Kreis"},"federalState":{"key":"05","name":"Nordrhein-Westfalen"}},{"name":"Enzenberg","postalCode":"53819","locality":"Neunkirchen-Seelscheid","municipality":{"key":"05382040","name":"Neunkirchen-Seelscheid","type":"Kreisangehörige_Gemeinde"},"district":{"key":"05382","name":"Rhein-Sieg-Kreis","type":"Kreis"},"federalState":{"key":"05","name":"Nordrhein-Westfalen"}},{"name":"Erlenbitze","postalCode":"53819","locality":"Neunkirchen-Seelscheid","municipality":{"key":"05382040","name":"Neunkirchen-Seelscheid","type":"Kreisangehörige_Gemeinde"},"district":{"key":"05382","name":"Rhein-Sieg-Kreis","type":"Kreis"},"federalState":{"key":"05","name":"Nordrhein-Westfalen"}},{"name":"Erlengrund","postalCode":"53819","locality":"Neunkirchen-Seelscheid","municipality":{"key":"05382040","name":"Neunkirchen-Seelscheid","type":"Kreisangehörige_Gemeinde"},"district":{"key":"05382","name":"Rhein-Sieg-Kreis","type":"Kreis"},"federalState":{"key":"05","name":"Nordrhein-Westfalen"}},{"name":"Eulenweg","postalCode":"53819","locality":"Neunkirchen-Seelscheid","municipality":{"key":"05382040","name":"Neunkirchen-Seelscheid","type":"Kreisangehörige_Gemeinde"},"district":{"key":"05382","name":"Rhein-Sieg-Kreis","type":"Kreis"},"federalState":{"key":"05","name":"Nordrhein-Westfalen"}},{"name":"Falkenweg","postalCode":"53819","locality":"Neunkirchen-Seelscheid","municipality":{"key":"05382040","name":"Neunkirchen-Seelscheid","type":"Kreisangehörige_Gemeinde"},"district":{"key":"05382","name":"Rhein-Sieg-Kreis","type":"Kreis"},"federalState":{"key":"05","name":"Nordrhein-Westfalen"}},{"name":"Farnweg","postalCode":"53819","locality":"Neunkirchen-Seelscheid","municipality":{"key":"05382040","name":"Neunkirchen-Seelscheid","type":"Kreisangehörige_Gemeinde"},"district":{"key":"05382","name":"Rhein-Sieg-Kreis","type":"Kreis"},"federalState":{"key":"05","name":"Nordrhein-Westfalen"}},{"name":"Fasanenstr.","postalCode":"53819","locality":"Neunkirchen-Seelscheid","municipality":{"key":"05382040","name":"Neunkirchen-Seelscheid","type":"Kreisangehörige_Gemeinde"},"district":{"key":"05382","name":"Rhein-Sieg-Kreis","type":"Kreis"},"federalState":{"key":"05","name":"Nordrhein-Westfalen"}},{"name":"Feldweg","postalCode":"53819","locality":"Neunkirchen-Seelscheid","municipality":{"key":"05382040","name":"Neunkirchen-Seelscheid","type":"Kreisangehörige_Gemeinde"},"district":{"key":"05382","name":"Rhein-Sieg-Kreis","type":"Kreis"},"federalState":{"key":"05","name":"Nordrhein-Westfalen"}},{"name":"Fischerweg","postalCode":"53819","locality":"Neunkirchen-Seelscheid","municipality":{"key":"05382040","name":"Neunkirchen-Seelscheid","type":"Kreisangehörige_Gemeinde"},"district":{"key":"05382","name":"Rhein-Sieg-Kreis","type":"Kreis"},"federalState":{"key":"05","name":"Nordrhein-Westfalen"}},{"name":"Fliederhain","postalCode":"53819","locality":"Neunkirchen-Seelscheid","municipality":{"key":"05382040","name":"Neunkirchen-Seelscheid","type":"Kreisangehörige_Gemeinde"},"district":{"key":"05382","name":"Rhein-Sieg-Kreis","type":"Kreis"},"federalState":{"key":"05","name":"Nordrhein-Westfalen"}},{"name":"Forellenweg","postalCode":"53819","locality":"Neunkirchen-Seelscheid","municipality":{"key":"05382040","name":"Neunkirchen-Seelscheid","type":"Kreisangehörige_Gemeinde"},"district":{"key":"05382","name":"Rhein-Sieg-Kreis","type":"Kreis"},"federalState":{"key":"05","name":"Nordrhein-Westfalen"}},{"name":"Frankenweg","postalCode":"53819","locality":"Neunkirchen-Seelscheid","municipality":{"key":"05382040","name":"Neunkirchen-Seelscheid","type":"Kreisangehörige_Gemeinde"},"district":{"key":"05382","name":"Rhein-Sieg-Kreis","type":"Kreis"},"federalState":{"key":"05","name":"Nordrhein-Westfalen"}},{"name":"Frauenstr.","postalCode":"53819","locality":"Neunkirchen-Seelscheid","municipality":{"key":"05382040","name":"Neunkirchen-Seelscheid","type":"Kreisangehörige_Gemeinde"},"district":{"key":"05382","name":"Rhein-Sieg-Kreis","type":"Kreis"},"federalState":{"key":"05","name":"Nordrhein-Westfalen"}},{"name":"Friedhofsweg","postalCode":"53819","locality":"Neunkirchen-Seelscheid","municipality":{"key":"05382040","name":"Neunkirchen-Seelscheid","type":"Kreisangehörige_Gemeinde"},"district":{"key":"05382","name":"Rhein-Sieg-Kreis","type":"Kreis"},"federalState":{"key":"05","name":"Nordrhein-Westfalen"}},{"name":"Froschkönigweg","postalCode":"53819","locality":"Neunkirchen-Seelscheid","municipality":{"key":"05382040","name":"Neunkirchen-Seelscheid","type":"Kreisangehörige_Gemeinde"},"district":{"key":"05382","name":"Rhein-Sieg-Kreis","type":"Kreis"},"federalState":{"key":"05","name":"Nordrhein-Westfalen"}},{"name":"Fuchsweg","postalCode":"53819","locality":"Neunkirchen-Seelscheid","municipality":{"key":"05382040","name":"Neunkirchen-Seelscheid","type":"Kreisangehörige_Gemeinde"},"district":{"key":"05382","name":"Rhein-Sieg-Kreis","type":"Kreis"},"federalState":{"key":"05","name":"Nordrhein-Westfalen"}},{"name":"Gartenstr.","postalCode":"53819","locality":"Neunkirchen-Seelscheid","municipality":{"key":"05382040","name":"Neunkirchen-Seelscheid","type":"Kreisangehörige_Gemeinde"},"district":{"key":"05382","name":"Rhein-Sieg-Kreis","type":"Kreis"},"federalState":{"key":"05","name":"Nordrhein-Westfalen"}},{"name":"Geibach","postalCode":"53819","locality":"Neunkirchen-Seelscheid","municipality":{"key":"05382040","name":"Neunkirchen-Seelscheid","type":"Kreisangehörige_Gemeinde"},"district":{"key":"05382","name":"Rhein-Sieg-Kreis","type":"Kreis"},"federalState":{"key":"05","name":"Nordrhein-Westfalen"}},{"name":"Geranienweg","postalCode":"53819","locality":"Neunkirchen-Seelscheid","municipality":{"key":"05382040","name":"Neunkirchen-Seelscheid","type":"Kreisangehörige_Gemeinde"},"district":{"key":"05382","name":"Rhein-Sieg-Kreis","type":"Kreis"},"federalState":{"key":"05","name":"Nordrhein-Westfalen"}},{"name":"Gerhart-Hauptmann-Str.","postalCode":"53819","locality":"Neunkirchen-Seelscheid","municipality":{"key":"05382040","name":"Neunkirchen-Seelscheid","type":"Kreisangehörige_Gemeinde"},"district":{"key":"05382","name":"Rhein-Sieg-Kreis","type":"Kreis"},"federalState":{"key":"05","name":"Nordrhein-Westfalen"}},{"name":"Gerichtsweg","postalCode":"53819","locality":"Neunkirchen-Seelscheid","municipality":{"key":"05382040","name":"Neunkirchen-Seelscheid","type":"Kreisangehörige_Gemeinde"},"district":{"key":"05382","name":"Rhein-Sieg-Kreis","type":"Kreis"},"federalState":{"key":"05","name":"Nordrhein-Westfalen"}},{"name":"Germanenstr.","postalCode":"53819","locality":"Neunkirchen-Seelscheid","municipality":{"key":"05382040","name":"Neunkirchen-Seelscheid","type":"Kreisangehörige_Gemeinde"},"district":{"key":"05382","name":"Rhein-Sieg-Kreis","type":"Kreis"},"federalState":{"key":"05","name":"Nordrhein-Westfalen"}},{"name":"Ginsterhang","postalCode":"53819","locality":"Neunkirchen-Seelscheid","municipality":{"key":"05382040","name":"Neunkirchen-Seelscheid","type":"Kreisangehörige_Gemeinde"},"district":{"key":"05382","name":"Rhein-Sieg-Kreis","type":"Kreis"},"federalState":{"key":"05","name":"Nordrhein-Westfalen"}},{"name":"Gitzental","postalCode":"53819","locality":"Neunkirchen-Seelscheid","municipality":{"key":"05382040","name":"Neunkirchen-Seelscheid","type":"Kreisangehörige_Gemeinde"},"district":{"key":"05382","name":"Rhein-Sieg-Kreis","type":"Kreis"},"federalState":{"key":"05","name":"Nordrhein-Westfalen"}},{"name":"Goethestr.","postalCode":"53819","locality":"Neunkirchen-Seelscheid","municipality":{"key":"05382040","name":"Neunkirchen-Seelscheid","type":"Kreisangehörige_Gemeinde"},"district":{"key":"05382","name":"Rhein-Sieg-Kreis","type":"Kreis"},"federalState":{"key":"05","name":"Nordrhein-Westfalen"}},{"name":"Gotenweg","postalCode":"53819","locality":"Neunkirchen-Seelscheid","municipality":{"key":"05382040","name":"Neunkirchen-Seelscheid","type":"Kreisangehörige_Gemeinde"},"district":{"key":"05382","name":"Rhein-Sieg-Kreis","type":"Kreis"},"federalState":{"key":"05","name":"Nordrhein-Westfalen"}},{"name":"Gottfried-Keller-Str.","postalCode":"53819","locality":"Neunkirchen-Seelscheid","municipality":{"key":"05382040","name":"Neunkirchen-Seelscheid","type":"Kreisangehörige_Gemeinde"},"district":{"key":"05382","name":"Rhein-Sieg-Kreis","type":"Kreis"},"federalState":{"key":"05","name":"Nordrhein-Westfalen"}},{"name":"Göttscheider Str.","postalCode":"53819","locality":"Neunkirchen-Seelscheid","municipality":{"key":"05382040","name":"Neunkirchen-Seelscheid","type":"Kreisangehörige_Gemeinde"},"district":{"key":"05382","name":"Rhein-Sieg-Kreis","type":"Kreis"},"federalState":{"key":"05","name":"Nordrhein-Westfalen"}},{"name":"Grafenwieser Weg","postalCode":"53819","locality":"Neunkirchen-Seelscheid","municipality":{"key":"05382040","name":"Neunkirchen-Seelscheid","type":"Kreisangehörige_Gemeinde"},"district":{"key":"05382","name":"Rhein-Sieg-Kreis","type":"Kreis"},"federalState":{"key":"05","name":"Nordrhein-Westfalen"}},{"name":"Grasweg","postalCode":"53819","locality":"Neunkirchen-Seelscheid","municipality":{"key":"05382040","name":"Neunkirchen-Seelscheid","type":"Kreisangehörige_Gemeinde"},"district":{"key":"05382","name":"Rhein-Sieg-Kreis","type":"Kreis"},"federalState":{"key":"05","name":"Nordrhein-Westfalen"}},{"name":"Gretelweg","postalCode":"53819","locality":"Neunkirchen-Seelscheid","municipality":{"key":"05382040","name":"Neunkirchen-Seelscheid","type":"Kreisangehörige_Gemeinde"},"district":{"key":"05382","name":"Rhein-Sieg-Kreis","type":"Kreis"},"federalState":{"key":"05","name":"Nordrhein-Westfalen"}},{"name":"Großscheider Str.","postalCode":"53819","locality":"Neunkirchen-Seelscheid","municipality":{"key":"05382040","name":"Neunkirchen-Seelscheid","type":"Kreisangehörige_Gemeinde"},"district":{"key":"05382","name":"Rhein-Sieg-Kreis","type":"Kreis"},"federalState":{"key":"05","name":"Nordrhein-Westfalen"}},{"name":"Grüner Winkel","postalCode":"53819","locality":"Neunkirchen-Seelscheid","municipality":{"key":"05382040","name":"Neunkirchen-Seelscheid","type":"Kreisangehörige_Gemeinde"},"district":{"key":"05382","name":"Rhein-Sieg-Kreis","type":"Kreis"},"federalState":{"key":"05","name":"Nordrhein-Westfalen"}},{"name":"Gutenbergstr.","postalCode":"53819","locality":"Neunkirchen-Seelscheid","municipality":{"key":"05382040","name":"Neunkirchen-Seelscheid","type":"Kreisangehörige_Gemeinde"},"district":{"key":"05382","name":"Rhein-Sieg-Kreis","type":"Kreis"},"federalState":{"key":"05","name":"Nordrhein-Westfalen"}},{"name":"Gutmühlenweg","postalCode":"53819","locality":"Neunkirchen-Seelscheid","municipality":{"key":"05382040","name":"Neunkirchen-Seelscheid","type":"Kreisangehörige_Gemeinde"},"district":{"key":"05382","name":"Rhein-Sieg-Kreis","type":"Kreis"},"federalState":{"key":"05","name":"Nordrhein-Westfalen"}},{"name":"Haagener Weg","postalCode":"53819","locality":"Neunkirchen-Seelscheid","municipality":{"key":"05382040","name":"Neunkirchen-Seelscheid","type":"Kreisangehörige_Gemeinde"},"district":{"key":"05382","name":"Rhein-Sieg-Kreis","type":"Kreis"},"federalState":{"key":"05","name":"Nordrhein-Westfalen"}},{"name":"Habichtweg","postalCode":"53819","locality":"Neunkirchen-Seelscheid","municipality":{"key":"05382040","name":"Neunkirchen-Seelscheid","type":"Kreisangehörige_Gemeinde"},"district":{"key":"05382","name":"Rhein-Sieg-Kreis","type":"Kreis"},"federalState":{"key":"05","name":"Nordrhein-Westfalen"}},{"name":"Häger Weg","postalCode":"53819","locality":"Neunkirchen-Seelscheid","municipality":{"key":"05382040","name":"Neunkirchen-Seelscheid","type":"Kreisangehörige_Gemeinde"},"district":{"key":"05382","name":"Rhein-Sieg-Kreis","type":"Kreis"},"federalState":{"key":"05","name":"Nordrhein-Westfalen"}},{"name":"Häldengarten","postalCode":"53819","locality":"Neunkirchen-Seelscheid","municipality":{"key":"05382040","name":"Neunkirchen-Seelscheid","type":"Kreisangehörige_Gemeinde"},"district":{"key":"05382","name":"Rhein-Sieg-Kreis","type":"Kreis"},"federalState":{"key":"05","name":"Nordrhein-Westfalen"}},{"name":"Hamsterweg","postalCode":"53819","locality":"Neunkirchen-Seelscheid","municipality":{"key":"05382040","name":"Neunkirchen-Seelscheid","type":"Kreisangehörige_Gemeinde"},"district":{"key":"05382","name":"Rhein-Sieg-Kreis","type":"Kreis"},"federalState":{"key":"05","name":"Nordrhein-Westfalen"}},{"name":"Hänselweg","postalCode":"53819","locality":"Neunkirchen-Seelscheid","municipality":{"key":"05382040","name":"Neunkirchen-Seelscheid","type":"Kreisangehörige_Gemeinde"},"district":{"key":"05382","name":"Rhein-Sieg-Kreis","type":"Kreis"},"federalState":{"key":"05","name":"Nordrhein-Westfalen"}},{"name":"Haselnußweg","postalCode":"53819","locality":"Neunkirchen-Seelscheid","municipality":{"key":"05382040","name":"Neunkirchen-Seelscheid","type":"Kreisangehörige_Gemeinde"},"district":{"key":"05382","name":"Rhein-Sieg-Kreis","type":"Kreis"},"federalState":{"key":"05","name":"Nordrhein-Westfalen"}},{"name":"Hasenbacher Str.","postalCode":"53819","locality":"Neunkirchen-Seelscheid","municipality":{"key":"05382040","name":"Neunkirchen-Seelscheid","type":"Kreisangehörige_Gemeinde"},"district":{"key":"05382","name":"Rhein-Sieg-Kreis","type":"Kreis"},"federalState":{"key":"05","name":"Nordrhein-Westfalen"}},{"name":"Hasenweg","postalCode":"53819","locality":"Neunkirchen-Seelscheid","municipality":{"key":"05382040","name":"Neunkirchen-Seelscheid","type":"Kreisangehörige_Gemeinde"},"district":{"key":"05382","name":"Rhein-Sieg-Kreis","type":"Kreis"},"federalState":{"key":"05","name":"Nordrhein-Westfalen"}},{"name":"Hauptstr.","postalCode":"53819","locality":"Neunkirchen-Seelscheid","municipality":{"key":"05382040","name":"Neunkirchen-Seelscheid","type":"Kreisangehörige_Gemeinde"},"district":{"key":"05382","name":"Rhein-Sieg-Kreis","type":"Kreis"},"federalState":{"key":"05","name":"Nordrhein-Westfalen"}},{"name":"Hausener Str.","postalCode":"53819","locality":"Neunkirchen-Seelscheid","municipality":{"key":"05382040","name":"Neunkirchen-Seelscheid","type":"Kreisangehörige_Gemeinde"},"district":{"key":"05382","name":"Rhein-Sieg-Kreis","type":"Kreis"},"federalState":{"key":"05","name":"Nordrhein-Westfalen"}},{"name":"Hausermühler Str.","postalCode":"53819","locality":"Neunkirchen-Seelscheid","municipality":{"key":"05382040","name":"Neunkirchen-Seelscheid","type":"Kreisangehörige_Gemeinde"},"district":{"key":"05382","name":"Rhein-Sieg-Kreis","type":"Kreis"},"federalState":{"key":"05","name":"Nordrhein-Westfalen"}},{"name":"Hebbelstr.","postalCode":"53819","locality":"Neunkirchen-Seelscheid","municipality":{"key":"05382040","name":"Neunkirchen-Seelscheid","type":"Kreisangehörige_Gemeinde"},"district":{"key":"05382","name":"Rhein-Sieg-Kreis","type":"Kreis"},"federalState":{"key":"05","name":"Nordrhein-Westfalen"}},{"name":"Heckelssiefen","postalCode":"53819","locality":"Neunkirchen-Seelscheid","municipality":{"key":"05382040","name":"Neunkirchen-Seelscheid","type":"Kreisangehörige_Gemeinde"},"district":{"key":"05382","name":"Rhein-Sieg-Kreis","type":"Kreis"},"federalState":{"key":"05","name":"Nordrhein-Westfalen"}},{"name":"Heckenhofstr.","postalCode":"53819","locality":"Neunkirchen-Seelscheid","municipality":{"key":"05382040","name":"Neunkirchen-Seelscheid","type":"Kreisangehörige_Gemeinde"},"district":{"key":"05382","name":"Rhein-Sieg-Kreis","type":"Kreis"},"federalState":{"key":"05","name":"Nordrhein-Westfalen"}},{"name":"Heinestr.","postalCode":"53819","locality":"Neunkirchen-Seelscheid","municipality":{"key":"05382040","name":"Neunkirchen-Seelscheid","type":"Kreisangehörige_Gemeinde"},"district":{"key":"05382","name":"Rhein-Sieg-Kreis","type":"Kreis"},"federalState":{"key":"05","name":"Nordrhein-Westfalen"}},{"name":"Heisterstr.","postalCode":"53819","locality":"Neunkirchen-Seelscheid","municipality":{"key":"05382040","name":"Neunkirchen-Seelscheid","type":"Kreisangehörige_Gemeinde"},"district":{"key":"05382","name":"Rhein-Sieg-Kreis","type":"Kreis"},"federalState":{"key":"05","name":"Nordrhein-Westfalen"}},{"name":"Helenenstr.","postalCode":"53819","locality":"Neunkirchen-Seelscheid","municipality":{"key":"05382040","name":"Neunkirchen-Seelscheid","type":"Kreisangehörige_Gemeinde"},"district":{"key":"05382","name":"Rhein-Sieg-Kreis","type":"Kreis"},"federalState":{"key":"05","name":"Nordrhein-Westfalen"}},{"name":"Hennefer Str.","postalCode":"53819","locality":"Neunkirchen-Seelscheid","municipality":{"key":"05382040","name":"Neunkirchen-Seelscheid","type":"Kreisangehörige_Gemeinde"},"district":{"key":"05382","name":"Rhein-Sieg-Kreis","type":"Kreis"},"federalState":{"key":"05","name":"Nordrhein-Westfalen"}},{"name":"Herderstr.","postalCode":"53819","locality":"Neunkirchen-Seelscheid","municipality":{"key":"05382040","name":"Neunkirchen-Seelscheid","type":"Kreisangehörige_Gemeinde"},"district":{"key":"05382","name":"Rhein-Sieg-Kreis","type":"Kreis"},"federalState":{"key":"05","name":"Nordrhein-Westfalen"}},{"name":"Hermann-Löns-Str.","postalCode":"53819","locality":"Neunkirchen-Seelscheid","municipality":{"key":"05382040","name":"Neunkirchen-Seelscheid","type":"Kreisangehörige_Gemeinde"},"district":{"key":"05382","name":"Rhein-Sieg-Kreis","type":"Kreis"},"federalState":{"key":"05","name":"Nordrhein-Westfalen"}},{"name":"Hermerathermühle","postalCode":"53819","locality":"Neunkirchen-Seelscheid","municipality":{"key":"05382040","name":"Neunkirchen-Seelscheid","type":"Kreisangehörige_Gemeinde"},"district":{"key":"05382","name":"Rhein-Sieg-Kreis","type":"Kreis"},"federalState":{"key":"05","name":"Nordrhein-Westfalen"}},{"name":"Hermerather Str.","postalCode":"53819","locality":"Neunkirchen-Seelscheid","municipality":{"key":"05382040","name":"Neunkirchen-Seelscheid","type":"Kreisangehörige_Gemeinde"},"district":{"key":"05382","name":"Rhein-Sieg-Kreis","type":"Kreis"},"federalState":{"key":"05","name":"Nordrhein-Westfalen"}},{"name":"Herrenweg","postalCode":"53819","locality":"Neunkirchen-Seelscheid","municipality":{"key":"05382040","name":"Neunkirchen-Seelscheid","type":"Kreisangehörige_Gemeinde"},"district":{"key":"05382","name":"Rhein-Sieg-Kreis","type":"Kreis"},"federalState":{"key":"05","name":"Nordrhein-Westfalen"}},{"name":"Heuershof","postalCode":"53819","locality":"Neunkirchen-Seelscheid","municipality":{"key":"05382040","name":"Neunkirchen-Seelscheid","type":"Kreisangehörige_Gemeinde"},"district":{"key":"05382","name":"Rhein-Sieg-Kreis","type":"Kreis"},"federalState":{"key":"05","name":"Nordrhein-Westfalen"}},{"name":"Hochfeldstr.","postalCode":"53819","locality":"Neunkirchen-Seelscheid","municipality":{"key":"05382040","name":"Neunkirchen-Seelscheid","type":"Kreisangehörige_Gemeinde"},"district":{"key":"05382","name":"Rhein-Sieg-Kreis","type":"Kreis"},"federalState":{"key":"05","name":"Nordrhein-Westfalen"}},{"name":"Hochkreuz","postalCode":"53819","locality":"Neunkirchen-Seelscheid","municipality":{"key":"05382040","name":"Neunkirchen-Seelscheid","type":"Kreisangehörige_Gemeinde"},"district":{"key":"05382","name":"Rhein-Sieg-Kreis","type":"Kreis"},"federalState":{"key":"05","name":"Nordrhein-Westfalen"}},{"name":"Höfelsfeld","postalCode":"53819","locality":"Neunkirchen-Seelscheid","municipality":{"key":"05382040","name":"Neunkirchen-Seelscheid","type":"Kreisangehörige_Gemeinde"},"district":{"key":"05382","name":"Rhein-Sieg-Kreis","type":"Kreis"},"federalState":{"key":"05","name":"Nordrhein-Westfalen"}},{"name":"Höfferhofer Str.","postalCode":"53819","locality":"Neunkirchen-Seelscheid","municipality":{"key":"05382040","name":"Neunkirchen-Seelscheid","type":"Kreisangehörige_Gemeinde"},"district":{"key":"05382","name":"Rhein-Sieg-Kreis","type":"Kreis"},"federalState":{"key":"05","name":"Nordrhein-Westfalen"}},{"name":"Höfferscheid","postalCode":"53819","locality":"Neunkirchen-Seelscheid","municipality":{"key":"05382040","name":"Neunkirchen-Seelscheid","type":"Kreisangehörige_Gemeinde"},"district":{"key":"05382","name":"Rhein-Sieg-Kreis","type":"Kreis"},"federalState":{"key":"05","name":"Nordrhein-Westfalen"}},{"name":"Hofstr.","postalCode":"53819","locality":"Neunkirchen-Seelscheid","municipality":{"key":"05382040","name":"Neunkirchen-Seelscheid","type":"Kreisangehörige_Gemeinde"},"district":{"key":"05382","name":"Rhein-Sieg-Kreis","type":"Kreis"},"federalState":{"key":"05","name":"Nordrhein-Westfalen"}},{"name":"Hohe Fuhr","postalCode":"53819","locality":"Neunkirchen-Seelscheid","municipality":{"key":"05382040","name":"Neunkirchen-Seelscheid","type":"Kreisangehörige_Gemeinde"},"district":{"key":"05382","name":"Rhein-Sieg-Kreis","type":"Kreis"},"federalState":{"key":"05","name":"Nordrhein-Westfalen"}},{"name":"Höhenweg","postalCode":"53819","locality":"Neunkirchen-Seelscheid","municipality":{"key":"05382040","name":"Neunkirchen-Seelscheid","type":"Kreisangehörige_Gemeinde"},"district":{"key":"05382","name":"Rhein-Sieg-Kreis","type":"Kreis"},"federalState":{"key":"05","name":"Nordrhein-Westfalen"}},{"name":"Hohlweg","postalCode":"53819","locality":"Neunkirchen-Seelscheid","municipality":{"key":"05382040","name":"Neunkirchen-Seelscheid","type":"Kreisangehörige_Gemeinde"},"district":{"key":"05382","name":"Rhein-Sieg-Kreis","type":"Kreis"},"federalState":{"key":"05","name":"Nordrhein-Westfalen"}},{"name":"Hohner Str.","postalCode":"53819","locality":"Neunkirchen-Seelscheid","municipality":{"key":"05382040","name":"Neunkirchen-Seelscheid","type":"Kreisangehörige_Gemeinde"},"district":{"key":"05382","name":"Rhein-Sieg-Kreis","type":"Kreis"},"federalState":{"key":"05","name":"Nordrhein-Westfalen"}},{"name":"Hölderlinstr.","postalCode":"53819","locality":"Neunkirchen-Seelscheid","municipality":{"key":"05382040","name":"Neunkirchen-Seelscheid","type":"Kreisangehörige_Gemeinde"},"district":{"key":"05382","name":"Rhein-Sieg-Kreis","type":"Kreis"},"federalState":{"key":"05","name":"Nordrhein-Westfalen"}},{"name":"Höltenweg","postalCode":"53819","locality":"Neunkirchen-Seelscheid","municipality":{"key":"05382040","name":"Neunkirchen-Seelscheid","type":"Kreisangehörige_Gemeinde"},"district":{"key":"05382","name":"Rhein-Sieg-Kreis","type":"Kreis"},"federalState":{"key":"05","name":"Nordrhein-Westfalen"}},{"name":"Holunderweg","postalCode":"53819","locality":"Neunkirchen-Seelscheid","municipality":{"key":"05382040","name":"Neunkirchen-Seelscheid","type":"Kreisangehörige_Gemeinde"},"district":{"key":"05382","name":"Rhein-Sieg-Kreis","type":"Kreis"},"federalState":{"key":"05","name":"Nordrhein-Westfalen"}},{"name":"Holzweg","postalCode":"53819","locality":"Neunkirchen-Seelscheid","municipality":{"key":"05382040","name":"Neunkirchen-Seelscheid","type":"Kreisangehörige_Gemeinde"},"district":{"key":"05382","name":"Rhein-Sieg-Kreis","type":"Kreis"},"federalState":{"key":"05","name":"Nordrhein-Westfalen"}},{"name":"Humboldtstr.","postalCode":"53819","locality":"Neunkirchen-Seelscheid","municipality":{"key":"05382040","name":"Neunkirchen-Seelscheid","type":"Kreisangehörige_Gemeinde"},"district":{"key":"05382","name":"Rhein-Sieg-Kreis","type":"Kreis"},"federalState":{"key":"05","name":"Nordrhein-Westfalen"}},{"name":"Humperdinckstr.","postalCode":"53819","locality":"Neunkirchen-Seelscheid","municipality":{"key":"05382040","name":"Neunkirchen-Seelscheid","type":"Kreisangehörige_Gemeinde"},"district":{"key":"05382","name":"Rhein-Sieg-Kreis","type":"Kreis"},"federalState":{"key":"05","name":"Nordrhein-Westfalen"}},{"name":"Igelweg","postalCode":"53819","locality":"Neunkirchen-Seelscheid","municipality":{"key":"05382040","name":"Neunkirchen-Seelscheid","type":"Kreisangehörige_Gemeinde"},"district":{"key":"05382","name":"Rhein-Sieg-Kreis","type":"Kreis"},"federalState":{"key":"05","name":"Nordrhein-Westfalen"}},{"name":"Im Ahlefeld","postalCode":"53819","locality":"Neunkirchen-Seelscheid","municipality":{"key":"05382040","name":"Neunkirchen-Seelscheid","type":"Kreisangehörige_Gemeinde"},"district":{"key":"05382","name":"Rhein-Sieg-Kreis","type":"Kreis"},"federalState":{"key":"05","name":"Nordrhein-Westfalen"}},{"name":"Im alten Garten","postalCode":"53819","locality":"Neunkirchen-Seelscheid","municipality":{"key":"05382040","name":"Neunkirchen-Seelscheid","type":"Kreisangehörige_Gemeinde"},"district":{"key":"05382","name":"Rhein-Sieg-Kreis","type":"Kreis"},"federalState":{"key":"05","name":"Nordrhein-Westfalen"}},{"name":"Im Bergerfeld","postalCode":"53819","locality":"Neunkirchen-Seelscheid","municipality":{"key":"05382040","name":"Neunkirchen-Seelscheid","type":"Kreisangehörige_Gemeinde"},"district":{"key":"05382","name":"Rhein-Sieg-Kreis","type":"Kreis"},"federalState":{"key":"05","name":"Nordrhein-Westfalen"}},{"name":"Im Brachfeld","postalCode":"53819","locality":"Neunkirchen-Seelscheid","municipality":{"key":"05382040","name":"Neunkirchen-Seelscheid","type":"Kreisangehörige_Gemeinde"},"district":{"key":"05382","name":"Rhein-Sieg-Kreis","type":"Kreis"},"federalState":{"key":"05","name":"Nordrhein-Westfalen"}},{"name":"Im Bröltal","postalCode":"53819","locality":"Neunkirchen-Seelscheid","municipality":{"key":"05382040","name":"Neunkirchen-Seelscheid","type":"Kreisangehörige_Gemeinde"},"district":{"key":"05382","name":"Rhein-Sieg-Kreis","type":"Kreis"},"federalState":{"key":"05","name":"Nordrhein-Westfalen"}},{"name":"Im Bungert","postalCode":"53819","locality":"Neunkirchen-Seelscheid","municipality":{"key":"05382040","name":"Neunkirchen-Seelscheid","type":"Kreisangehörige_Gemeinde"},"district":{"key":"05382","name":"Rhein-Sieg-Kreis","type":"Kreis"},"federalState":{"key":"05","name":"Nordrhein-Westfalen"}},{"name":"Im Burgfeld","postalCode":"53819","locality":"Neunkirchen-Seelscheid","municipality":{"key":"05382040","name":"Neunkirchen-Seelscheid","type":"Kreisangehörige_Gemeinde"},"district":{"key":"05382","name":"Rhein-Sieg-Kreis","type":"Kreis"},"federalState":{"key":"05","name":"Nordrhein-Westfalen"}},{"name":"Im Dönengarten","postalCode":"53819","locality":"Neunkirchen-Seelscheid","municipality":{"key":"05382040","name":"Neunkirchen-Seelscheid","type":"Kreisangehörige_Gemeinde"},"district":{"key":"05382","name":"Rhein-Sieg-Kreis","type":"Kreis"},"federalState":{"key":"05","name":"Nordrhein-Westfalen"}},{"name":"Im Eichholz","postalCode":"53819","locality":"Neunkirchen-Seelscheid","municipality":{"key":"05382040","name":"Neunkirchen-Seelscheid","type":"Kreisangehörige_Gemeinde"},"district":{"key":"05382","name":"Rhein-Sieg-Kreis","type":"Kreis"},"federalState":{"key":"05","name":"Nordrhein-Westfalen"}},{"name":"Im Flögerhof","postalCode":"53819","locality":"Neunkirchen-Seelscheid","municipality":{"key":"05382040","name":"Neunkirchen-Seelscheid","type":"Kreisangehörige_Gemeinde"},"district":{"key":"05382","name":"Rhein-Sieg-Kreis","type":"Kreis"},"federalState":{"key":"05","name":"Nordrhein-Westfalen"}},{"name":"Im Grund","postalCode":"53819","locality":"Neunkirchen-Seelscheid","municipality":{"key":"05382040","name":"Neunkirchen-Seelscheid","type":"Kreisangehörige_Gemeinde"},"district":{"key":"05382","name":"Rhein-Sieg-Kreis","type":"Kreis"},"federalState":{"key":"05","name":"Nordrhein-Westfalen"}},{"name":"Im Heidbusch","postalCode":"53819","locality":"Neunkirchen-Seelscheid","municipality":{"key":"05382040","name":"Neunkirchen-Seelscheid","type":"Kreisangehörige_Gemeinde"},"district":{"key":"05382","name":"Rhein-Sieg-Kreis","type":"Kreis"},"federalState":{"key":"05","name":"Nordrhein-Westfalen"}},{"name":"Im Heiderbruch","postalCode":"53819","locality":"Neunkirchen-Seelscheid","municipality":{"key":"05382040","name":"Neunkirchen-Seelscheid","type":"Kreisangehörige_Gemeinde"},"district":{"key":"05382","name":"Rhein-Sieg-Kreis","type":"Kreis"},"federalState":{"key":"05","name":"Nordrhein-Westfalen"}},{"name":"Im Heidgen","postalCode":"53819","locality":"Neunkirchen-Seelscheid","municipality":{"key":"05382040","name":"Neunkirchen-Seelscheid","type":"Kreisangehörige_Gemeinde"},"district":{"key":"05382","name":"Rhein-Sieg-Kreis","type":"Kreis"},"federalState":{"key":"05","name":"Nordrhein-Westfalen"}},{"name":"Im Heisterfeld","postalCode":"53819","locality":"Neunkirchen-Seelscheid","municipality":{"key":"05382040","name":"Neunkirchen-Seelscheid","type":"Kreisangehörige_Gemeinde"},"district":{"key":"05382","name":"Rhein-Sieg-Kreis","type":"Kreis"},"federalState":{"key":"05","name":"Nordrhein-Westfalen"}},{"name":"Im Heuersfeld","postalCode":"53819","locality":"Neunkirchen-Seelscheid","municipality":{"key":"05382040","name":"Neunkirchen-Seelscheid","type":"Kreisangehörige_Gemeinde"},"district":{"key":"05382","name":"Rhein-Sieg-Kreis","type":"Kreis"},"federalState":{"key":"05","name":"Nordrhein-Westfalen"}},{"name":"Im Höfchen","postalCode":"53819","locality":"Neunkirchen-Seelscheid","municipality":{"key":"05382040","name":"Neunkirchen-Seelscheid","type":"Kreisangehörige_Gemeinde"},"district":{"key":"05382","name":"Rhein-Sieg-Kreis","type":"Kreis"},"federalState":{"key":"05","name":"Nordrhein-Westfalen"}},{"name":"Im Hofgarten","postalCode":"53819","locality":"Neunkirchen-Seelscheid","municipality":{"key":"05382040","name":"Neunkirchen-Seelscheid","type":"Kreisangehörige_Gemeinde"},"district":{"key":"05382","name":"Rhein-Sieg-Kreis","type":"Kreis"},"federalState":{"key":"05","name":"Nordrhein-Westfalen"}},{"name":"Im Hohnsiefen","postalCode":"53819","locality":"Neunkirchen-Seelscheid","municipality":{"key":"05382040","name":"Neunkirchen-Seelscheid","type":"Kreisangehörige_Gemeinde"},"district":{"key":"05382","name":"Rhein-Sieg-Kreis","type":"Kreis"},"federalState":{"key":"05","name":"Nordrhein-Westfalen"}},{"name":"Im Holzwinkel","postalCode":"53819","locality":"Neunkirchen-Seelscheid","municipality":{"key":"05382040","name":"Neunkirchen-Seelscheid","type":"Kreisangehörige_Gemeinde"},"district":{"key":"05382","name":"Rhein-Sieg-Kreis","type":"Kreis"},"federalState":{"key":"05","name":"Nordrhein-Westfalen"}},{"name":"Im Hülscheider Hof","postalCode":"53819","locality":"Neunkirchen-Seelscheid","municipality":{"key":"05382040","name":"Neunkirchen-Seelscheid","type":"Kreisangehörige_Gemeinde"},"district":{"key":"05382","name":"Rhein-Sieg-Kreis","type":"Kreis"},"federalState":{"key":"05","name":"Nordrhein-Westfalen"}},{"name":"Im Immenthal","postalCode":"53819","locality":"Neunkirchen-Seelscheid","municipality":{"key":"05382040","name":"Neunkirchen-Seelscheid","type":"Kreisangehörige_Gemeinde"},"district":{"key":"05382","name":"Rhein-Sieg-Kreis","type":"Kreis"},"federalState":{"key":"05","name":"Nordrhein-Westfalen"}},{"name":"Im Kahlenbach","postalCode":"53819","locality":"Neunkirchen-Seelscheid","municipality":{"key":"05382040","name":"Neunkirchen-Seelscheid","type":"Kreisangehörige_Gemeinde"},"district":{"key":"05382","name":"Rhein-Sieg-Kreis","type":"Kreis"},"federalState":{"key":"05","name":"Nordrhein-Westfalen"}},{"name":"Im Kernengarten","postalCode":"53819","locality":"Neunkirchen-Seelscheid","municipality":{"key":"05382040","name":"Neunkirchen-Seelscheid","type":"Kreisangehörige_Gemeinde"},"district":{"key":"05382","name":"Rhein-Sieg-Kreis","type":"Kreis"},"federalState":{"key":"05","name":"Nordrhein-Westfalen"}},{"name":"Imkerstr.","postalCode":"53819","locality":"Neunkirchen-Seelscheid","municipality":{"key":"05382040","name":"Neunkirchen-Seelscheid","type":"Kreisangehörige_Gemeinde"},"district":{"key":"05382","name":"Rhein-Sieg-Kreis","type":"Kreis"},"federalState":{"key":"05","name":"Nordrhein-Westfalen"}},{"name":"Im Krummauel","postalCode":"53819","locality":"Neunkirchen-Seelscheid","municipality":{"key":"05382040","name":"Neunkirchen-Seelscheid","type":"Kreisangehörige_Gemeinde"},"district":{"key":"05382","name":"Rhein-Sieg-Kreis","type":"Kreis"},"federalState":{"key":"05","name":"Nordrhein-Westfalen"}},{"name":"Im Laubwald","postalCode":"53819","locality":"Neunkirchen-Seelscheid","municipality":{"key":"05382040","name":"Neunkirchen-Seelscheid","type":"Kreisangehörige_Gemeinde"},"district":{"key":"05382","name":"Rhein-Sieg-Kreis","type":"Kreis"},"federalState":{"key":"05","name":"Nordrhein-Westfalen"}},{"name":"Im Liemerich","postalCode":"53819","locality":"Neunkirchen-Seelscheid","municipality":{"key":"05382040","name":"Neunkirchen-Seelscheid","type":"Kreisangehörige_Gemeinde"},"district":{"key":"05382","name":"Rhein-Sieg-Kreis","type":"Kreis"},"federalState":{"key":"05","name":"Nordrhein-Westfalen"}},{"name":"Im Perkes","postalCode":"53819","locality":"Neunkirchen-Seelscheid","municipality":{"key":"05382040","name":"Neunkirchen-Seelscheid","type":"Kreisangehörige_Gemeinde"},"district":{"key":"05382","name":"Rhein-Sieg-Kreis","type":"Kreis"},"federalState":{"key":"05","name":"Nordrhein-Westfalen"}},{"name":"Im Schmellensiefen","postalCode":"53819","locality":"Neunkirchen-Seelscheid","municipality":{"key":"05382040","name":"Neunkirchen-Seelscheid","type":"Kreisangehörige_Gemeinde"},"district":{"key":"05382","name":"Rhein-Sieg-Kreis","type":"Kreis"},"federalState":{"key":"05","name":"Nordrhein-Westfalen"}},{"name":"Im Stegesgarten","postalCode":"53819","locality":"Neunkirchen-Seelscheid","municipality":{"key":"05382040","name":"Neunkirchen-Seelscheid","type":"Kreisangehörige_Gemeinde"},"district":{"key":"05382","name":"Rhein-Sieg-Kreis","type":"Kreis"},"federalState":{"key":"05","name":"Nordrhein-Westfalen"}},{"name":"Im Stein","postalCode":"53819","locality":"Neunkirchen-Seelscheid","municipality":{"key":"05382040","name":"Neunkirchen-Seelscheid","type":"Kreisangehörige_Gemeinde"},"district":{"key":"05382","name":"Rhein-Sieg-Kreis","type":"Kreis"},"federalState":{"key":"05","name":"Nordrhein-Westfalen"}},{"name":"Im Thomasgarten","postalCode":"53819","locality":"Neunkirchen-Seelscheid","municipality":{"key":"05382040","name":"Neunkirchen-Seelscheid","type":"Kreisangehörige_Gemeinde"},"district":{"key":"05382","name":"Rhein-Sieg-Kreis","type":"Kreis"},"federalState":{"key":"05","name":"Nordrhein-Westfalen"}},{"name":"Im Winkel","postalCode":"53819","locality":"Neunkirchen-Seelscheid","municipality":{"key":"05382040","name":"Neunkirchen-Seelscheid","type":"Kreisangehörige_Gemeinde"},"district":{"key":"05382","name":"Rhein-Sieg-Kreis","type":"Kreis"},"federalState":{"key":"05","name":"Nordrhein-Westfalen"}},{"name":"Im Wirbelsgrund","postalCode":"53819","locality":"Neunkirchen-Seelscheid","municipality":{"key":"05382040","name":"Neunkirchen-Seelscheid","type":"Kreisangehörige_Gemeinde"},"district":{"key":"05382","name":"Rhein-Sieg-Kreis","type":"Kreis"},"federalState":{"key":"05","name":"Nordrhein-Westfalen"}},{"name":"Im Wolfsgarten","postalCode":"53819","locality":"Neunkirchen-Seelscheid","municipality":{"key":"05382040","name":"Neunkirchen-Seelscheid","type":"Kreisangehörige_Gemeinde"},"district":{"key":"05382","name":"Rhein-Sieg-Kreis","type":"Kreis"},"federalState":{"key":"05","name":"Nordrhein-Westfalen"}},{"name":"In den Gärten","postalCode":"53819","locality":"Neunkirchen-Seelscheid","municipality":{"key":"05382040","name":"Neunkirchen-Seelscheid","type":"Kreisangehörige_Gemeinde"},"district":{"key":"05382","name":"Rhein-Sieg-Kreis","type":"Kreis"},"federalState":{"key":"05","name":"Nordrhein-Westfalen"}},{"name":"In der Brache","postalCode":"53819","locality":"Neunkirchen-Seelscheid","municipality":{"key":"05382040","name":"Neunkirchen-Seelscheid","type":"Kreisangehörige_Gemeinde"},"district":{"key":"05382","name":"Rhein-Sieg-Kreis","type":"Kreis"},"federalState":{"key":"05","name":"Nordrhein-Westfalen"}},{"name":"In der Fuchshöhle","postalCode":"53819","locality":"Neunkirchen-Seelscheid","municipality":{"key":"05382040","name":"Neunkirchen-Seelscheid","type":"Kreisangehörige_Gemeinde"},"district":{"key":"05382","name":"Rhein-Sieg-Kreis","type":"Kreis"},"federalState":{"key":"05","name":"Nordrhein-Westfalen"}},{"name":"In der Men","postalCode":"53819","locality":"Neunkirchen-Seelscheid","municipality":{"key":"05382040","name":"Neunkirchen-Seelscheid","type":"Kreisangehörige_Gemeinde"},"district":{"key":"05382","name":"Rhein-Sieg-Kreis","type":"Kreis"},"federalState":{"key":"05","name":"Nordrhein-Westfalen"}},{"name":"Innenweg","postalCode":"53819","locality":"Neunkirchen-Seelscheid","municipality":{"key":"05382040","name":"Neunkirchen-Seelscheid","type":"Kreisangehörige_Gemeinde"},"district":{"key":"05382","name":"Rhein-Sieg-Kreis","type":"Kreis"},"federalState":{"key":"05","name":"Nordrhein-Westfalen"}},{"name":"Islandhof","postalCode":"53819","locality":"Neunkirchen-Seelscheid","municipality":{"key":"05382040","name":"Neunkirchen-Seelscheid","type":"Kreisangehörige_Gemeinde"},"district":{"key":"05382","name":"Rhein-Sieg-Kreis","type":"Kreis"},"federalState":{"key":"05","name":"Nordrhein-Westfalen"}},{"name":"Jabachstr.","postalCode":"53819","locality":"Neunkirchen-Seelscheid","municipality":{"key":"05382040","name":"Neunkirchen-Seelscheid","type":"Kreisangehörige_Gemeinde"},"district":{"key":"05382","name":"Rhein-Sieg-Kreis","type":"Kreis"},"federalState":{"key":"05","name":"Nordrhein-Westfalen"}},{"name":"Jägerpfad","postalCode":"53819","locality":"Neunkirchen-Seelscheid","municipality":{"key":"05382040","name":"Neunkirchen-Seelscheid","type":"Kreisangehörige_Gemeinde"},"district":{"key":"05382","name":"Rhein-Sieg-Kreis","type":"Kreis"},"federalState":{"key":"05","name":"Nordrhein-Westfalen"}},{"name":"Jasminweg","postalCode":"53819","locality":"Neunkirchen-Seelscheid","municipality":{"key":"05382040","name":"Neunkirchen-Seelscheid","type":"Kreisangehörige_Gemeinde"},"district":{"key":"05382","name":"Rhein-Sieg-Kreis","type":"Kreis"},"federalState":{"key":"05","name":"Nordrhein-Westfalen"}},{"name":"Johannesweg","postalCode":"53819","locality":"Neunkirchen-Seelscheid","municipality":{"key":"05382040","name":"Neunkirchen-Seelscheid","type":"Kreisangehörige_Gemeinde"},"district":{"key":"05382","name":"Rhein-Sieg-Kreis","type":"Kreis"},"federalState":{"key":"05","name":"Nordrhein-Westfalen"}},{"name":"Josefsweg","postalCode":"53819","locality":"Neunkirchen-Seelscheid","municipality":{"key":"05382040","name":"Neunkirchen-Seelscheid","type":"Kreisangehörige_Gemeinde"},"district":{"key":"05382","name":"Rhein-Sieg-Kreis","type":"Kreis"},"federalState":{"key":"05","name":"Nordrhein-Westfalen"}},{"name":"Julius-Bergfelder-Weg","postalCode":"53819","locality":"Neunkirchen-Seelscheid","municipality":{"key":"05382040","name":"Neunkirchen-Seelscheid","type":"Kreisangehörige_Gemeinde"},"district":{"key":"05382","name":"Rhein-Sieg-Kreis","type":"Kreis"},"federalState":{"key":"05","name":"Nordrhein-Westfalen"}},{"name":"Kantstr.","postalCode":"53819","locality":"Neunkirchen-Seelscheid","municipality":{"key":"05382040","name":"Neunkirchen-Seelscheid","type":"Kreisangehörige_Gemeinde"},"district":{"key":"05382","name":"Rhein-Sieg-Kreis","type":"Kreis"},"federalState":{"key":"05","name":"Nordrhein-Westfalen"}},{"name":"Karl-Simrock-Str.","postalCode":"53819","locality":"Neunkirchen-Seelscheid","municipality":{"key":"05382040","name":"Neunkirchen-Seelscheid","type":"Kreisangehörige_Gemeinde"},"district":{"key":"05382","name":"Rhein-Sieg-Kreis","type":"Kreis"},"federalState":{"key":"05","name":"Nordrhein-Westfalen"}},{"name":"Karolingerweg","postalCode":"53819","locality":"Neunkirchen-Seelscheid","municipality":{"key":"05382040","name":"Neunkirchen-Seelscheid","type":"Kreisangehörige_Gemeinde"},"district":{"key":"05382","name":"Rhein-Sieg-Kreis","type":"Kreis"},"federalState":{"key":"05","name":"Nordrhein-Westfalen"}},{"name":"Kauler Weg","postalCode":"53819","locality":"Neunkirchen-Seelscheid","municipality":{"key":"05382040","name":"Neunkirchen-Seelscheid","type":"Kreisangehörige_Gemeinde"},"district":{"key":"05382","name":"Rhein-Sieg-Kreis","type":"Kreis"},"federalState":{"key":"05","name":"Nordrhein-Westfalen"}},{"name":"Keltenweg","postalCode":"53819","locality":"Neunkirchen-Seelscheid","municipality":{"key":"05382040","name":"Neunkirchen-Seelscheid","type":"Kreisangehörige_Gemeinde"},"district":{"key":"05382","name":"Rhein-Sieg-Kreis","type":"Kreis"},"federalState":{"key":"05","name":"Nordrhein-Westfalen"}},{"name":"Keplerstr.","postalCode":"53819","locality":"Neunkirchen-Seelscheid","municipality":{"key":"05382040","name":"Neunkirchen-Seelscheid","type":"Kreisangehörige_Gemeinde"},"district":{"key":"05382","name":"Rhein-Sieg-Kreis","type":"Kreis"},"federalState":{"key":"05","name":"Nordrhein-Westfalen"}},{"name":"Kiefernweg","postalCode":"53819","locality":"Neunkirchen-Seelscheid","municipality":{"key":"05382040","name":"Neunkirchen-Seelscheid","type":"Kreisangehörige_Gemeinde"},"district":{"key":"05382","name":"Rhein-Sieg-Kreis","type":"Kreis"},"federalState":{"key":"05","name":"Nordrhein-Westfalen"}},{"name":"Kirchstr.","postalCode":"53819","locality":"Neunkirchen-Seelscheid","municipality":{"key":"05382040","name":"Neunkirchen-Seelscheid","type":"Kreisangehörige_Gemeinde"},"district":{"key":"05382","name":"Rhein-Sieg-Kreis","type":"Kreis"},"federalState":{"key":"05","name":"Nordrhein-Westfalen"}},{"name":"Kirchweg","postalCode":"53819","locality":"Neunkirchen-Seelscheid","municipality":{"key":"05382040","name":"Neunkirchen-Seelscheid","type":"Kreisangehörige_Gemeinde"},"district":{"key":"05382","name":"Rhein-Sieg-Kreis","type":"Kreis"},"federalState":{"key":"05","name":"Nordrhein-Westfalen"}},{"name":"Klausnerweg","postalCode":"53819","locality":"Neunkirchen-Seelscheid","municipality":{"key":"05382040","name":"Neunkirchen-Seelscheid","type":"Kreisangehörige_Gemeinde"},"district":{"key":"05382","name":"Rhein-Sieg-Kreis","type":"Kreis"},"federalState":{"key":"05","name":"Nordrhein-Westfalen"}},{"name":"Kleebitze","postalCode":"53819","locality":"Neunkirchen-Seelscheid","municipality":{"key":"05382040","name":"Neunkirchen-Seelscheid","type":"Kreisangehörige_Gemeinde"},"district":{"key":"05382","name":"Rhein-Sieg-Kreis","type":"Kreis"},"federalState":{"key":"05","name":"Nordrhein-Westfalen"}},{"name":"Kleinfeldstr.","postalCode":"53819","locality":"Neunkirchen-Seelscheid","municipality":{"key":"05382040","name":"Neunkirchen-Seelscheid","type":"Kreisangehörige_Gemeinde"},"district":{"key":"05382","name":"Rhein-Sieg-Kreis","type":"Kreis"},"federalState":{"key":"05","name":"Nordrhein-Westfalen"}},{"name":"Kleinscheider Str.","postalCode":"53819","locality":"Neunkirchen-Seelscheid","municipality":{"key":"05382040","name":"Neunkirchen-Seelscheid","type":"Kreisangehörige_Gemeinde"},"district":{"key":"05382","name":"Rhein-Sieg-Kreis","type":"Kreis"},"federalState":{"key":"05","name":"Nordrhein-Westfalen"}},{"name":"Kleiststr.","postalCode":"53819","locality":"Neunkirchen-Seelscheid","municipality":{"key":"05382040","name":"Neunkirchen-Seelscheid","type":"Kreisangehörige_Gemeinde"},"district":{"key":"05382","name":"Rhein-Sieg-Kreis","type":"Kreis"},"federalState":{"key":"05","name":"Nordrhein-Westfalen"}},{"name":"Knochenmühlenweg","postalCode":"53819","locality":"Neunkirchen-Seelscheid","municipality":{"key":"05382040","name":"Neunkirchen-Seelscheid","type":"Kreisangehörige_Gemeinde"},"district":{"key":"05382","name":"Rhein-Sieg-Kreis","type":"Kreis"},"federalState":{"key":"05","name":"Nordrhein-Westfalen"}},{"name":"Köbacher Str.","postalCode":"53819","locality":"Neunkirchen-Seelscheid","municipality":{"key":"05382040","name":"Neunkirchen-Seelscheid","type":"Kreisangehörige_Gemeinde"},"district":{"key":"05382","name":"Rhein-Sieg-Kreis","type":"Kreis"},"federalState":{"key":"05","name":"Nordrhein-Westfalen"}},{"name":"Kölner Str.","postalCode":"53819","locality":"Neunkirchen-Seelscheid","municipality":{"key":"05382040","name":"Neunkirchen-Seelscheid","type":"Kreisangehörige_Gemeinde"},"district":{"key":"05382","name":"Rhein-Sieg-Kreis","type":"Kreis"},"federalState":{"key":"05","name":"Nordrhein-Westfalen"}},{"name":"Königsberger Str.","postalCode":"53819","locality":"Neunkirchen-Seelscheid","municipality":{"key":"05382040","name":"Neunkirchen-Seelscheid","type":"Kreisangehörige_Gemeinde"},"district":{"key":"05382","name":"Rhein-Sieg-Kreis","type":"Kreis"},"federalState":{"key":"05","name":"Nordrhein-Westfalen"}},{"name":"Kotthausener Str.","postalCode":"53819","locality":"Neunkirchen-Seelscheid","municipality":{"key":"05382040","name":"Neunkirchen-Seelscheid","type":"Kreisangehörige_Gemeinde"},"district":{"key":"05382","name":"Rhein-Sieg-Kreis","type":"Kreis"},"federalState":{"key":"05","name":"Nordrhein-Westfalen"}},{"name":"Krawinkeler Str.","postalCode":"53819","locality":"Neunkirchen-Seelscheid","municipality":{"key":"05382040","name":"Neunkirchen-Seelscheid","type":"Kreisangehörige_Gemeinde"},"district":{"key":"05382","name":"Rhein-Sieg-Kreis","type":"Kreis"},"federalState":{"key":"05","name":"Nordrhein-Westfalen"}},{"name":"Kreuzweg","postalCode":"53819","locality":"Neunkirchen-Seelscheid","municipality":{"key":"05382040","name":"Neunkirchen-Seelscheid","type":"Kreisangehörige_Gemeinde"},"district":{"key":"05382","name":"Rhein-Sieg-Kreis","type":"Kreis"},"federalState":{"key":"05","name":"Nordrhein-Westfalen"}},{"name":"Krokusweg","postalCode":"53819","locality":"Neunkirchen-Seelscheid","municipality":{"key":"05382040","name":"Neunkirchen-Seelscheid","type":"Kreisangehörige_Gemeinde"},"district":{"key":"05382","name":"Rhein-Sieg-Kreis","type":"Kreis"},"federalState":{"key":"05","name":"Nordrhein-Westfalen"}},{"name":"Krummbachweg","postalCode":"53819","locality":"Neunkirchen-Seelscheid","municipality":{"key":"05382040","name":"Neunkirchen-Seelscheid","type":"Kreisangehörige_Gemeinde"},"district":{"key":"05382","name":"Rhein-Sieg-Kreis","type":"Kreis"},"federalState":{"key":"05","name":"Nordrhein-Westfalen"}},{"name":"Kuckelsberg","postalCode":"53819","locality":"Neunkirchen-Seelscheid","municipality":{"key":"05382040","name":"Neunkirchen-Seelscheid","type":"Kreisangehörige_Gemeinde"},"district":{"key":"05382","name":"Rhein-Sieg-Kreis","type":"Kreis"},"federalState":{"key":"05","name":"Nordrhein-Westfalen"}},{"name":"Kuckucksweg","postalCode":"53819","locality":"Neunkirchen-Seelscheid","municipality":{"key":"05382040","name":"Neunkirchen-Seelscheid","type":"Kreisangehörige_Gemeinde"},"district":{"key":"05382","name":"Rhein-Sieg-Kreis","type":"Kreis"},"federalState":{"key":"05","name":"Nordrhein-Westfalen"}},{"name":"Kuhlener Str.","postalCode":"53819","locality":"Neunkirchen-Seelscheid","municipality":{"key":"05382040","name":"Neunkirchen-Seelscheid","type":"Kreisangehörige_Gemeinde"},"district":{"key":"05382","name":"Rhein-Sieg-Kreis","type":"Kreis"},"federalState":{"key":"05","name":"Nordrhein-Westfalen"}},{"name":"Kupferfeld","postalCode":"53819","locality":"Neunkirchen-Seelscheid","municipality":{"key":"05382040","name":"Neunkirchen-Seelscheid","type":"Kreisangehörige_Gemeinde"},"district":{"key":"05382","name":"Rhein-Sieg-Kreis","type":"Kreis"},"federalState":{"key":"05","name":"Nordrhein-Westfalen"}},{"name":"Kurtsiefener Str.","postalCode":"53819","locality":"Neunkirchen-Seelscheid","municipality":{"key":"05382040","name":"Neunkirchen-Seelscheid","type":"Kreisangehörige_Gemeinde"},"district":{"key":"05382","name":"Rhein-Sieg-Kreis","type":"Kreis"},"federalState":{"key":"05","name":"Nordrhein-Westfalen"}},{"name":"Kurzer Weg","postalCode":"53819","locality":"Neunkirchen-Seelscheid","municipality":{"key":"05382040","name":"Neunkirchen-Seelscheid","type":"Kreisangehörige_Gemeinde"},"district":{"key":"05382","name":"Rhein-Sieg-Kreis","type":"Kreis"},"federalState":{"key":"05","name":"Nordrhein-Westfalen"}},{"name":"Landwehr","postalCode":"53819","locality":"Neunkirchen-Seelscheid","municipality":{"key":"05382040","name":"Neunkirchen-Seelscheid","type":"Kreisangehörige_Gemeinde"},"district":{"key":"05382","name":"Rhein-Sieg-Kreis","type":"Kreis"},"federalState":{"key":"05","name":"Nordrhein-Westfalen"}},{"name":"Lärchenweg","postalCode":"53819","locality":"Neunkirchen-Seelscheid","municipality":{"key":"05382040","name":"Neunkirchen-Seelscheid","type":"Kreisangehörige_Gemeinde"},"district":{"key":"05382","name":"Rhein-Sieg-Kreis","type":"Kreis"},"federalState":{"key":"05","name":"Nordrhein-Westfalen"}},{"name":"Leibnizstr.","postalCode":"53819","locality":"Neunkirchen-Seelscheid","municipality":{"key":"05382040","name":"Neunkirchen-Seelscheid","type":"Kreisangehörige_Gemeinde"},"district":{"key":"05382","name":"Rhein-Sieg-Kreis","type":"Kreis"},"federalState":{"key":"05","name":"Nordrhein-Westfalen"}},{"name":"Leienkreuz","postalCode":"53819","locality":"Neunkirchen-Seelscheid","municipality":{"key":"05382040","name":"Neunkirchen-Seelscheid","type":"Kreisangehörige_Gemeinde"},"district":{"key":"05382","name":"Rhein-Sieg-Kreis","type":"Kreis"},"federalState":{"key":"05","name":"Nordrhein-Westfalen"}},{"name":"Leipziger Str.","postalCode":"53819","locality":"Neunkirchen-Seelscheid","municipality":{"key":"05382040","name":"Neunkirchen-Seelscheid","type":"Kreisangehörige_Gemeinde"},"district":{"key":"05382","name":"Rhein-Sieg-Kreis","type":"Kreis"},"federalState":{"key":"05","name":"Nordrhein-Westfalen"}},{"name":"Leitheckenstr.","postalCode":"53819","locality":"Neunkirchen-Seelscheid","municipality":{"key":"05382040","name":"Neunkirchen-Seelscheid","type":"Kreisangehörige_Gemeinde"},"district":{"key":"05382","name":"Rhein-Sieg-Kreis","type":"Kreis"},"federalState":{"key":"05","name":"Nordrhein-Westfalen"}},{"name":"Lessingstr.","postalCode":"53819","locality":"Neunkirchen-Seelscheid","municipality":{"key":"05382040","name":"Neunkirchen-Seelscheid","type":"Kreisangehörige_Gemeinde"},"district":{"key":"05382","name":"Rhein-Sieg-Kreis","type":"Kreis"},"federalState":{"key":"05","name":"Nordrhein-Westfalen"}},{"name":"Leyenweg","postalCode":"53819","locality":"Neunkirchen-Seelscheid","municipality":{"key":"05382040","name":"Neunkirchen-Seelscheid","type":"Kreisangehörige_Gemeinde"},"district":{"key":"05382","name":"Rhein-Sieg-Kreis","type":"Kreis"},"federalState":{"key":"05","name":"Nordrhein-Westfalen"}},{"name":"Lilienweg","postalCode":"53819","locality":"Neunkirchen-Seelscheid","municipality":{"key":"05382040","name":"Neunkirchen-Seelscheid","type":"Kreisangehörige_Gemeinde"},"district":{"key":"05382","name":"Rhein-Sieg-Kreis","type":"Kreis"},"federalState":{"key":"05","name":"Nordrhein-Westfalen"}},{"name":"Lindener Str.","postalCode":"53819","locality":"Neunkirchen-Seelscheid","municipality":{"key":"05382040","name":"Neunkirchen-Seelscheid","type":"Kreisangehörige_Gemeinde"},"district":{"key":"05382","name":"Rhein-Sieg-Kreis","type":"Kreis"},"federalState":{"key":"05","name":"Nordrhein-Westfalen"}},{"name":"Luchsweg","postalCode":"53819","locality":"Neunkirchen-Seelscheid","municipality":{"key":"05382040","name":"Neunkirchen-Seelscheid","type":"Kreisangehörige_Gemeinde"},"district":{"key":"05382","name":"Rhein-Sieg-Kreis","type":"Kreis"},"federalState":{"key":"05","name":"Nordrhein-Westfalen"}},{"name":"Mahlgasse","postalCode":"53819","locality":"Neunkirchen-Seelscheid","municipality":{"key":"05382040","name":"Neunkirchen-Seelscheid","type":"Kreisangehörige_Gemeinde"},"district":{"key":"05382","name":"Rhein-Sieg-Kreis","type":"Kreis"},"federalState":{"key":"05","name":"Nordrhein-Westfalen"}},{"name":"Marderweg","postalCode":"53819","locality":"Neunkirchen-Seelscheid","municipality":{"key":"05382040","name":"Neunkirchen-Seelscheid","type":"Kreisangehörige_Gemeinde"},"district":{"key":"05382","name":"Rhein-Sieg-Kreis","type":"Kreis"},"federalState":{"key":"05","name":"Nordrhein-Westfalen"}},{"name":"Marienweg","postalCode":"53819","locality":"Neunkirchen-Seelscheid","municipality":{"key":"05382040","name":"Neunkirchen-Seelscheid","type":"Kreisangehörige_Gemeinde"},"district":{"key":"05382","name":"Rhein-Sieg-Kreis","type":"Kreis"},"federalState":{"key":"05","name":"Nordrhein-Westfalen"}},{"name":"Marktplatz","postalCode":"53819","locality":"Neunkirchen-Seelscheid","municipality":{"key":"05382040","name":"Neunkirchen-Seelscheid","type":"Kreisangehörige_Gemeinde"},"district":{"key":"05382","name":"Rhein-Sieg-Kreis","type":"Kreis"},"federalState":{"key":"05","name":"Nordrhein-Westfalen"}},{"name":"Markusweg","postalCode":"53819","locality":"Neunkirchen-Seelscheid","municipality":{"key":"05382040","name":"Neunkirchen-Seelscheid","type":"Kreisangehörige_Gemeinde"},"district":{"key":"05382","name":"Rhein-Sieg-Kreis","type":"Kreis"},"federalState":{"key":"05","name":"Nordrhein-Westfalen"}},{"name":"Märzweiher","postalCode":"53819","locality":"Neunkirchen-Seelscheid","municipality":{"key":"05382040","name":"Neunkirchen-Seelscheid","type":"Kreisangehörige_Gemeinde"},"district":{"key":"05382","name":"Rhein-Sieg-Kreis","type":"Kreis"},"federalState":{"key":"05","name":"Nordrhein-Westfalen"}},{"name":"Max-Planck-Str.","postalCode":"53819","locality":"Neunkirchen-Seelscheid","municipality":{"key":"05382040","name":"Neunkirchen-Seelscheid","type":"Kreisangehörige_Gemeinde"},"district":{"key":"05382","name":"Rhein-Sieg-Kreis","type":"Kreis"},"federalState":{"key":"05","name":"Nordrhein-Westfalen"}},{"name":"Meisenbacher Str.","postalCode":"53819","locality":"Neunkirchen-Seelscheid","municipality":{"key":"05382040","name":"Neunkirchen-Seelscheid","type":"Kreisangehörige_Gemeinde"},"district":{"key":"05382","name":"Rhein-Sieg-Kreis","type":"Kreis"},"federalState":{"key":"05","name":"Nordrhein-Westfalen"}},{"name":"Meisenweg","postalCode":"53819","locality":"Neunkirchen-Seelscheid","municipality":{"key":"05382040","name":"Neunkirchen-Seelscheid","type":"Kreisangehörige_Gemeinde"},"district":{"key":"05382","name":"Rhein-Sieg-Kreis","type":"Kreis"},"federalState":{"key":"05","name":"Nordrhein-Westfalen"}},{"name":"Meisterhofstr.","postalCode":"53819","locality":"Neunkirchen-Seelscheid","municipality":{"key":"05382040","name":"Neunkirchen-Seelscheid","type":"Kreisangehörige_Gemeinde"},"district":{"key":"05382","name":"Rhein-Sieg-Kreis","type":"Kreis"},"federalState":{"key":"05","name":"Nordrhein-Westfalen"}},{"name":"Mitteldorfer Weg","postalCode":"53819","locality":"Neunkirchen-Seelscheid","municipality":{"key":"05382040","name":"Neunkirchen-Seelscheid","type":"Kreisangehörige_Gemeinde"},"district":{"key":"05382","name":"Rhein-Sieg-Kreis","type":"Kreis"},"federalState":{"key":"05","name":"Nordrhein-Westfalen"}},{"name":"Mittelstr.","postalCode":"53819","locality":"Neunkirchen-Seelscheid","municipality":{"key":"05382040","name":"Neunkirchen-Seelscheid","type":"Kreisangehörige_Gemeinde"},"district":{"key":"05382","name":"Rhein-Sieg-Kreis","type":"Kreis"},"federalState":{"key":"05","name":"Nordrhein-Westfalen"}},{"name":"Moltkestr.","postalCode":"53819","locality":"Neunkirchen-Seelscheid","municipality":{"key":"05382040","name":"Neunkirchen-Seelscheid","type":"Kreisangehörige_Gemeinde"},"district":{"key":"05382","name":"Rhein-Sieg-Kreis","type":"Kreis"},"federalState":{"key":"05","name":"Nordrhein-Westfalen"}},{"name":"Mooskaule","postalCode":"53819","locality":"Neunkirchen-Seelscheid","municipality":{"key":"05382040","name":"Neunkirchen-Seelscheid","type":"Kreisangehörige_Gemeinde"},"district":{"key":"05382","name":"Rhein-Sieg-Kreis","type":"Kreis"},"federalState":{"key":"05","name":"Nordrhein-Westfalen"}},{"name":"Mörikestr.","postalCode":"53819","locality":"Neunkirchen-Seelscheid","municipality":{"key":"05382040","name":"Neunkirchen-Seelscheid","type":"Kreisangehörige_Gemeinde"},"district":{"key":"05382","name":"Rhein-Sieg-Kreis","type":"Kreis"},"federalState":{"key":"05","name":"Nordrhein-Westfalen"}},{"name":"Mozartstr.","postalCode":"53819","locality":"Neunkirchen-Seelscheid","municipality":{"key":"05382040","name":"Neunkirchen-Seelscheid","type":"Kreisangehörige_Gemeinde"},"district":{"key":"05382","name":"Rhein-Sieg-Kreis","type":"Kreis"},"federalState":{"key":"05","name":"Nordrhein-Westfalen"}},{"name":"Mühlenfeld","postalCode":"53819","locality":"Neunkirchen-Seelscheid","municipality":{"key":"05382040","name":"Neunkirchen-Seelscheid","type":"Kreisangehörige_Gemeinde"},"district":{"key":"05382","name":"Rhein-Sieg-Kreis","type":"Kreis"},"federalState":{"key":"05","name":"Nordrhein-Westfalen"}},{"name":"Mühlenweg","postalCode":"53819","locality":"Neunkirchen-Seelscheid","municipality":{"key":"05382040","name":"Neunkirchen-Seelscheid","type":"Kreisangehörige_Gemeinde"},"district":{"key":"05382","name":"Rhein-Sieg-Kreis","type":"Kreis"},"federalState":{"key":"05","name":"Nordrhein-Westfalen"}},{"name":"Münchener Str.","postalCode":"53819","locality":"Neunkirchen-Seelscheid","municipality":{"key":"05382040","name":"Neunkirchen-Seelscheid","type":"Kreisangehörige_Gemeinde"},"district":{"key":"05382","name":"Rhein-Sieg-Kreis","type":"Kreis"},"federalState":{"key":"05","name":"Nordrhein-Westfalen"}},{"name":"Nachtigallenweg","postalCode":"53819","locality":"Neunkirchen-Seelscheid","municipality":{"key":"05382040","name":"Neunkirchen-Seelscheid","type":"Kreisangehörige_Gemeinde"},"district":{"key":"05382","name":"Rhein-Sieg-Kreis","type":"Kreis"},"federalState":{"key":"05","name":"Nordrhein-Westfalen"}},{"name":"Nelkenweg","postalCode":"53819","locality":"Neunkirchen-Seelscheid","municipality":{"key":"05382040","name":"Neunkirchen-Seelscheid","type":"Kreisangehörige_Gemeinde"},"district":{"key":"05382","name":"Rhein-Sieg-Kreis","type":"Kreis"},"federalState":{"key":"05","name":"Nordrhein-Westfalen"}},{"name":"Neuer Graben","postalCode":"53819","locality":"Neunkirchen-Seelscheid","municipality":{"key":"05382040","name":"Neunkirchen-Seelscheid","type":"Kreisangehörige_Gemeinde"},"district":{"key":"05382","name":"Rhein-Sieg-Kreis","type":"Kreis"},"federalState":{"key":"05","name":"Nordrhein-Westfalen"}},{"name":"Neuer Weg","postalCode":"53819","locality":"Neunkirchen-Seelscheid","municipality":{"key":"05382040","name":"Neunkirchen-Seelscheid","type":"Kreisangehörige_Gemeinde"},"district":{"key":"05382","name":"Rhein-Sieg-Kreis","type":"Kreis"},"federalState":{"key":"05","name":"Nordrhein-Westfalen"}},{"name":"Niederfeldstr.","postalCode":"53819","locality":"Neunkirchen-Seelscheid","municipality":{"key":"05382040","name":"Neunkirchen-Seelscheid","type":"Kreisangehörige_Gemeinde"},"district":{"key":"05382","name":"Rhein-Sieg-Kreis","type":"Kreis"},"federalState":{"key":"05","name":"Nordrhein-Westfalen"}},{"name":"Niederhorbacher Str.","postalCode":"53819","locality":"Neunkirchen-Seelscheid","municipality":{"key":"05382040","name":"Neunkirchen-Seelscheid","type":"Kreisangehörige_Gemeinde"},"district":{"key":"05382","name":"Rhein-Sieg-Kreis","type":"Kreis"},"federalState":{"key":"05","name":"Nordrhein-Westfalen"}},{"name":"Nietzschestr.","postalCode":"53819","locality":"Neunkirchen-Seelscheid","municipality":{"key":"05382040","name":"Neunkirchen-Seelscheid","type":"Kreisangehörige_Gemeinde"},"district":{"key":"05382","name":"Rhein-Sieg-Kreis","type":"Kreis"},"federalState":{"key":"05","name":"Nordrhein-Westfalen"}},{"name":"Nömmert","postalCode":"53819","locality":"Neunkirchen-Seelscheid","municipality":{"key":"05382040","name":"Neunkirchen-Seelscheid","type":"Kreisangehörige_Gemeinde"},"district":{"key":"05382","name":"Rhein-Sieg-Kreis","type":"Kreis"},"federalState":{"key":"05","name":"Nordrhein-Westfalen"}},{"name":"Nordstr.","postalCode":"53819","locality":"Neunkirchen-Seelscheid","municipality":{"key":"05382040","name":"Neunkirchen-Seelscheid","type":"Kreisangehörige_Gemeinde"},"district":{"key":"05382","name":"Rhein-Sieg-Kreis","type":"Kreis"},"federalState":{"key":"05","name":"Nordrhein-Westfalen"}},{"name":"Nußbaumstr.","postalCode":"53819","locality":"Neunkirchen-Seelscheid","municipality":{"key":"05382040","name":"Neunkirchen-Seelscheid","type":"Kreisangehörige_Gemeinde"},"district":{"key":"05382","name":"Rhein-Sieg-Kreis","type":"Kreis"},"federalState":{"key":"05","name":"Nordrhein-Westfalen"}},{"name":"Oberdorst","postalCode":"53819","locality":"Neunkirchen-Seelscheid","municipality":{"key":"05382040","name":"Neunkirchen-Seelscheid","type":"Kreisangehörige_Gemeinde"},"district":{"key":"05382","name":"Rhein-Sieg-Kreis","type":"Kreis"},"federalState":{"key":"05","name":"Nordrhein-Westfalen"}},{"name":"Oberdorster Str.","postalCode":"53819","locality":"Neunkirchen-Seelscheid","municipality":{"key":"05382040","name":"Neunkirchen-Seelscheid","type":"Kreisangehörige_Gemeinde"},"district":{"key":"05382","name":"Rhein-Sieg-Kreis","type":"Kreis"},"federalState":{"key":"05","name":"Nordrhein-Westfalen"}},{"name":"Obere Gasse","postalCode":"53819","locality":"Neunkirchen-Seelscheid","municipality":{"key":"05382040","name":"Neunkirchen-Seelscheid","type":"Kreisangehörige_Gemeinde"},"district":{"key":"05382","name":"Rhein-Sieg-Kreis","type":"Kreis"},"federalState":{"key":"05","name":"Nordrhein-Westfalen"}},{"name":"Oberhorbacher Str.","postalCode":"53819","locality":"Neunkirchen-Seelscheid","municipality":{"key":"05382040","name":"Neunkirchen-Seelscheid","type":"Kreisangehörige_Gemeinde"},"district":{"key":"05382","name":"Rhein-Sieg-Kreis","type":"Kreis"},"federalState":{"key":"05","name":"Nordrhein-Westfalen"}},{"name":"Ohlenhohnstr.","postalCode":"53819","locality":"Neunkirchen-Seelscheid","municipality":{"key":"05382040","name":"Neunkirchen-Seelscheid","type":"Kreisangehörige_Gemeinde"},"district":{"key":"05382","name":"Rhein-Sieg-Kreis","type":"Kreis"},"federalState":{"key":"05","name":"Nordrhein-Westfalen"}},{"name":"Ohlertstr.","postalCode":"53819","locality":"Neunkirchen-Seelscheid","municipality":{"key":"05382040","name":"Neunkirchen-Seelscheid","type":"Kreisangehörige_Gemeinde"},"district":{"key":"05382","name":"Rhein-Sieg-Kreis","type":"Kreis"},"federalState":{"key":"05","name":"Nordrhein-Westfalen"}},{"name":"Ortsbitze","postalCode":"53819","locality":"Neunkirchen-Seelscheid","municipality":{"key":"05382040","name":"Neunkirchen-Seelscheid","type":"Kreisangehörige_Gemeinde"},"district":{"key":"05382","name":"Rhein-Sieg-Kreis","type":"Kreis"},"federalState":{"key":"05","name":"Nordrhein-Westfalen"}},{"name":"Ortsgarten","postalCode":"53819","locality":"Neunkirchen-Seelscheid","municipality":{"key":"05382040","name":"Neunkirchen-Seelscheid","type":"Kreisangehörige_Gemeinde"},"district":{"key":"05382","name":"Rhein-Sieg-Kreis","type":"Kreis"},"federalState":{"key":"05","name":"Nordrhein-Westfalen"}},{"name":"Overather Str.","postalCode":"53819","locality":"Neunkirchen-Seelscheid","municipality":{"key":"05382040","name":"Neunkirchen-Seelscheid","type":"Kreisangehörige_Gemeinde"},"district":{"key":"05382","name":"Rhein-Sieg-Kreis","type":"Kreis"},"federalState":{"key":"05","name":"Nordrhein-Westfalen"}},{"name":"Parkstr.","postalCode":"53819","locality":"Neunkirchen-Seelscheid","municipality":{"key":"05382040","name":"Neunkirchen-Seelscheid","type":"Kreisangehörige_Gemeinde"},"district":{"key":"05382","name":"Rhein-Sieg-Kreis","type":"Kreis"},"federalState":{"key":"05","name":"Nordrhein-Westfalen"}},{"name":"Pastor-Franz-Steden-Platz","postalCode":"53819","locality":"Neunkirchen-Seelscheid","municipality":{"key":"05382040","name":"Neunkirchen-Seelscheid","type":"Kreisangehörige_Gemeinde"},"district":{"key":"05382","name":"Rhein-Sieg-Kreis","type":"Kreis"},"federalState":{"key":"05","name":"Nordrhein-Westfalen"}},{"name":"Pestalozziweg","postalCode":"53819","locality":"Neunkirchen-Seelscheid","municipality":{"key":"05382040","name":"Neunkirchen-Seelscheid","type":"Kreisangehörige_Gemeinde"},"district":{"key":"05382","name":"Rhein-Sieg-Kreis","type":"Kreis"},"federalState":{"key":"05","name":"Nordrhein-Westfalen"}},{"name":"Petersbergstr.","postalCode":"53819","locality":"Neunkirchen-Seelscheid","municipality":{"key":"05382040","name":"Neunkirchen-Seelscheid","type":"Kreisangehörige_Gemeinde"},"district":{"key":"05382","name":"Rhein-Sieg-Kreis","type":"Kreis"},"federalState":{"key":"05","name":"Nordrhein-Westfalen"}},{"name":"Petrusweg","postalCode":"53819","locality":"Neunkirchen-Seelscheid","municipality":{"key":"05382040","name":"Neunkirchen-Seelscheid","type":"Kreisangehörige_Gemeinde"},"district":{"key":"05382","name":"Rhein-Sieg-Kreis","type":"Kreis"},"federalState":{"key":"05","name":"Nordrhein-Westfalen"}},{"name":"Pfarrer-Schaaf-Str.","postalCode":"53819","locality":"Neunkirchen-Seelscheid","municipality":{"key":"05382040","name":"Neunkirchen-Seelscheid","type":"Kreisangehörige_Gemeinde"},"district":{"key":"05382","name":"Rhein-Sieg-Kreis","type":"Kreis"},"federalState":{"key":"05","name":"Nordrhein-Westfalen"}},{"name":"Pfarrer-Stauf-Str.","postalCode":"53819","locality":"Neunkirchen-Seelscheid","municipality":{"key":"05382040","name":"Neunkirchen-Seelscheid","type":"Kreisangehörige_Gemeinde"},"district":{"key":"05382","name":"Rhein-Sieg-Kreis","type":"Kreis"},"federalState":{"key":"05","name":"Nordrhein-Westfalen"}},{"name":"Pinner Str.","postalCode":"53819","locality":"Neunkirchen-Seelscheid","municipality":{"key":"05382040","name":"Neunkirchen-Seelscheid","type":"Kreisangehörige_Gemeinde"},"district":{"key":"05382","name":"Rhein-Sieg-Kreis","type":"Kreis"},"federalState":{"key":"05","name":"Nordrhein-Westfalen"}},{"name":"Poststr.","postalCode":"53819","locality":"Neunkirchen-Seelscheid","municipality":{"key":"05382040","name":"Neunkirchen-Seelscheid","type":"Kreisangehörige_Gemeinde"},"district":{"key":"05382","name":"Rhein-Sieg-Kreis","type":"Kreis"},"federalState":{"key":"05","name":"Nordrhein-Westfalen"}},{"name":"Prälat-Lewen-Str.","postalCode":"53819","locality":"Neunkirchen-Seelscheid","municipality":{"key":"05382040","name":"Neunkirchen-Seelscheid","type":"Kreisangehörige_Gemeinde"},"district":{"key":"05382","name":"Rhein-Sieg-Kreis","type":"Kreis"},"federalState":{"key":"05","name":"Nordrhein-Westfalen"}},{"name":"Pützerhof","postalCode":"53819","locality":"Neunkirchen-Seelscheid","municipality":{"key":"05382040","name":"Neunkirchen-Seelscheid","type":"Kreisangehörige_Gemeinde"},"district":{"key":"05382","name":"Rhein-Sieg-Kreis","type":"Kreis"},"federalState":{"key":"05","name":"Nordrhein-Westfalen"}},{"name":"Quellenweg","postalCode":"53819","locality":"Neunkirchen-Seelscheid","municipality":{"key":"05382040","name":"Neunkirchen-Seelscheid","type":"Kreisangehörige_Gemeinde"},"district":{"key":"05382","name":"Rhein-Sieg-Kreis","type":"Kreis"},"federalState":{"key":"05","name":"Nordrhein-Westfalen"}},{"name":"Rabelsberg","postalCode":"53819","locality":"Neunkirchen-Seelscheid","municipality":{"key":"05382040","name":"Neunkirchen-Seelscheid","type":"Kreisangehörige_Gemeinde"},"district":{"key":"05382","name":"Rhein-Sieg-Kreis","type":"Kreis"},"federalState":{"key":"05","name":"Nordrhein-Westfalen"}},{"name":"Raiffeisenstr.","postalCode":"53819","locality":"Neunkirchen-Seelscheid","municipality":{"key":"05382040","name":"Neunkirchen-Seelscheid","type":"Kreisangehörige_Gemeinde"},"district":{"key":"05382","name":"Rhein-Sieg-Kreis","type":"Kreis"},"federalState":{"key":"05","name":"Nordrhein-Westfalen"}},{"name":"Rathausstr.","postalCode":"53819","locality":"Neunkirchen-Seelscheid","municipality":{"key":"05382040","name":"Neunkirchen-Seelscheid","type":"Kreisangehörige_Gemeinde"},"district":{"key":"05382","name":"Rhein-Sieg-Kreis","type":"Kreis"},"federalState":{"key":"05","name":"Nordrhein-Westfalen"}},{"name":"Rehfeld","postalCode":"53819","locality":"Neunkirchen-Seelscheid","municipality":{"key":"05382040","name":"Neunkirchen-Seelscheid","type":"Kreisangehörige_Gemeinde"},"district":{"key":"05382","name":"Rhein-Sieg-Kreis","type":"Kreis"},"federalState":{"key":"05","name":"Nordrhein-Westfalen"}},{"name":"Reiherweg","postalCode":"53819","locality":"Neunkirchen-Seelscheid","municipality":{"key":"05382040","name":"Neunkirchen-Seelscheid","type":"Kreisangehörige_Gemeinde"},"district":{"key":"05382","name":"Rhein-Sieg-Kreis","type":"Kreis"},"federalState":{"key":"05","name":"Nordrhein-Westfalen"}},{"name":"Remschosser Str.","postalCode":"53819","locality":"Neunkirchen-Seelscheid","municipality":{"key":"05382040","name":"Neunkirchen-Seelscheid","type":"Kreisangehörige_Gemeinde"},"district":{"key":"05382","name":"Rhein-Sieg-Kreis","type":"Kreis"},"federalState":{"key":"05","name":"Nordrhein-Westfalen"}},{"name":"Rengerter Str.","postalCode":"53819","locality":"Neunkirchen-Seelscheid","municipality":{"key":"05382040","name":"Neunkirchen-Seelscheid","type":"Kreisangehörige_Gemeinde"},"district":{"key":"05382","name":"Rhein-Sieg-Kreis","type":"Kreis"},"federalState":{"key":"05","name":"Nordrhein-Westfalen"}},{"name":"Rennenbergblick","postalCode":"53819","locality":"Neunkirchen-Seelscheid","municipality":{"key":"05382040","name":"Neunkirchen-Seelscheid","type":"Kreisangehörige_Gemeinde"},"district":{"key":"05382","name":"Rhein-Sieg-Kreis","type":"Kreis"},"federalState":{"key":"05","name":"Nordrhein-Westfalen"}},{"name":"Renzertstr.","postalCode":"53819","locality":"Neunkirchen-Seelscheid","municipality":{"key":"05382040","name":"Neunkirchen-Seelscheid","type":"Kreisangehörige_Gemeinde"},"district":{"key":"05382","name":"Rhein-Sieg-Kreis","type":"Kreis"},"federalState":{"key":"05","name":"Nordrhein-Westfalen"}},{"name":"Richard-Wagner-Str.","postalCode":"53819","locality":"Neunkirchen-Seelscheid","municipality":{"key":"05382040","name":"Neunkirchen-Seelscheid","type":"Kreisangehörige_Gemeinde"},"district":{"key":"05382","name":"Rhein-Sieg-Kreis","type":"Kreis"},"federalState":{"key":"05","name":"Nordrhein-Westfalen"}},{"name":"Riedeselweg","postalCode":"53819","locality":"Neunkirchen-Seelscheid","municipality":{"key":"05382040","name":"Neunkirchen-Seelscheid","type":"Kreisangehörige_Gemeinde"},"district":{"key":"05382","name":"Rhein-Sieg-Kreis","type":"Kreis"},"federalState":{"key":"05","name":"Nordrhein-Westfalen"}},{"name":"Rilkestr.","postalCode":"53819","locality":"Neunkirchen-Seelscheid","municipality":{"key":"05382040","name":"Neunkirchen-Seelscheid","type":"Kreisangehörige_Gemeinde"},"district":{"key":"05382","name":"Rhein-Sieg-Kreis","type":"Kreis"},"federalState":{"key":"05","name":"Nordrhein-Westfalen"}},{"name":"Ringstr.","postalCode":"53819","locality":"Neunkirchen-Seelscheid","municipality":{"key":"05382040","name":"Neunkirchen-Seelscheid","type":"Kreisangehörige_Gemeinde"},"district":{"key":"05382","name":"Rhein-Sieg-Kreis","type":"Kreis"},"federalState":{"key":"05","name":"Nordrhein-Westfalen"}},{"name":"Ritterweg","postalCode":"53819","locality":"Neunkirchen-Seelscheid","municipality":{"key":"05382040","name":"Neunkirchen-Seelscheid","type":"Kreisangehörige_Gemeinde"},"district":{"key":"05382","name":"Rhein-Sieg-Kreis","type":"Kreis"},"federalState":{"key":"05","name":"Nordrhein-Westfalen"}},{"name":"Römerstr.","postalCode":"53819","locality":"Neunkirchen-Seelscheid","municipality":{"key":"05382040","name":"Neunkirchen-Seelscheid","type":"Kreisangehörige_Gemeinde"},"district":{"key":"05382","name":"Rhein-Sieg-Kreis","type":"Kreis"},"federalState":{"key":"05","name":"Nordrhein-Westfalen"}},{"name":"Roonstr.","postalCode":"53819","locality":"Neunkirchen-Seelscheid","municipality":{"key":"05382040","name":"Neunkirchen-Seelscheid","type":"Kreisangehörige_Gemeinde"},"district":{"key":"05382","name":"Rhein-Sieg-Kreis","type":"Kreis"},"federalState":{"key":"05","name":"Nordrhein-Westfalen"}},{"name":"Rosenrotweg","postalCode":"53819","locality":"Neunkirchen-Seelscheid","municipality":{"key":"05382040","name":"Neunkirchen-Seelscheid","type":"Kreisangehörige_Gemeinde"},"district":{"key":"05382","name":"Rhein-Sieg-Kreis","type":"Kreis"},"federalState":{"key":"05","name":"Nordrhein-Westfalen"}},{"name":"Rosenweg","postalCode":"53819","locality":"Neunkirchen-Seelscheid","municipality":{"key":"05382040","name":"Neunkirchen-Seelscheid","type":"Kreisangehörige_Gemeinde"},"district":{"key":"05382","name":"Rhein-Sieg-Kreis","type":"Kreis"},"federalState":{"key":"05","name":"Nordrhein-Westfalen"}},{"name":"Rotdornweg","postalCode":"53819","locality":"Neunkirchen-Seelscheid","municipality":{"key":"05382040","name":"Neunkirchen-Seelscheid","type":"Kreisangehörige_Gemeinde"},"district":{"key":"05382","name":"Rhein-Sieg-Kreis","type":"Kreis"},"federalState":{"key":"05","name":"Nordrhein-Westfalen"}},{"name":"Rotkäppchenweg","postalCode":"53819","locality":"Neunkirchen-Seelscheid","municipality":{"key":"05382040","name":"Neunkirchen-Seelscheid","type":"Kreisangehörige_Gemeinde"},"district":{"key":"05382","name":"Rhein-Sieg-Kreis","type":"Kreis"},"federalState":{"key":"05","name":"Nordrhein-Westfalen"}},{"name":"Rübenbitze","postalCode":"53819","locality":"Neunkirchen-Seelscheid","municipality":{"key":"05382040","name":"Neunkirchen-Seelscheid","type":"Kreisangehörige_Gemeinde"},"district":{"key":"05382","name":"Rhein-Sieg-Kreis","type":"Kreis"},"federalState":{"key":"05","name":"Nordrhein-Westfalen"}},{"name":"Rübezahlweg","postalCode":"53819","locality":"Neunkirchen-Seelscheid","municipality":{"key":"05382040","name":"Neunkirchen-Seelscheid","type":"Kreisangehörige_Gemeinde"},"district":{"key":"05382","name":"Rhein-Sieg-Kreis","type":"Kreis"},"federalState":{"key":"05","name":"Nordrhein-Westfalen"}},{"name":"Rückertstr.","postalCode":"53819","locality":"Neunkirchen-Seelscheid","municipality":{"key":"05382040","name":"Neunkirchen-Seelscheid","type":"Kreisangehörige_Gemeinde"},"district":{"key":"05382","name":"Rhein-Sieg-Kreis","type":"Kreis"},"federalState":{"key":"05","name":"Nordrhein-Westfalen"}},{"name":"Rundweg","postalCode":"53819","locality":"Neunkirchen-Seelscheid","municipality":{"key":"05382040","name":"Neunkirchen-Seelscheid","type":"Kreisangehörige_Gemeinde"},"district":{"key":"05382","name":"Rhein-Sieg-Kreis","type":"Kreis"},"federalState":{"key":"05","name":"Nordrhein-Westfalen"}},{"name":"Sankt Margarethen","postalCode":"53819","locality":"Neunkirchen-Seelscheid","municipality":{"key":"05382040","name":"Neunkirchen-Seelscheid","type":"Kreisangehörige_Gemeinde"},"district":{"key":"05382","name":"Rhein-Sieg-Kreis","type":"Kreis"},"federalState":{"key":"05","name":"Nordrhein-Westfalen"}},{"name":"Schaarener Weg","postalCode":"53819","locality":"Neunkirchen-Seelscheid","municipality":{"key":"05382040","name":"Neunkirchen-Seelscheid","type":"Kreisangehörige_Gemeinde"},"district":{"key":"05382","name":"Rhein-Sieg-Kreis","type":"Kreis"},"federalState":{"key":"05","name":"Nordrhein-Westfalen"}},{"name":"Scheider Str.","postalCode":"53819","locality":"Neunkirchen-Seelscheid","municipality":{"key":"05382040","name":"Neunkirchen-Seelscheid","type":"Kreisangehörige_Gemeinde"},"district":{"key":"05382","name":"Rhein-Sieg-Kreis","type":"Kreis"},"federalState":{"key":"05","name":"Nordrhein-Westfalen"}},{"name":"Scherpemicher Str.","postalCode":"53819","locality":"Neunkirchen-Seelscheid","municipality":{"key":"05382040","name":"Neunkirchen-Seelscheid","type":"Kreisangehörige_Gemeinde"},"district":{"key":"05382","name":"Rhein-Sieg-Kreis","type":"Kreis"},"federalState":{"key":"05","name":"Nordrhein-Westfalen"}},{"name":"Schillerstr.","postalCode":"53819","locality":"Neunkirchen-Seelscheid","municipality":{"key":"05382040","name":"Neunkirchen-Seelscheid","type":"Kreisangehörige_Gemeinde"},"district":{"key":"05382","name":"Rhein-Sieg-Kreis","type":"Kreis"},"federalState":{"key":"05","name":"Nordrhein-Westfalen"}},{"name":"Schlader Weg","postalCode":"53819","locality":"Neunkirchen-Seelscheid","municipality":{"key":"05382040","name":"Neunkirchen-Seelscheid","type":"Kreisangehörige_Gemeinde"},"district":{"key":"05382","name":"Rhein-Sieg-Kreis","type":"Kreis"},"federalState":{"key":"05","name":"Nordrhein-Westfalen"}},{"name":"Schmiedestr.","postalCode":"53819","locality":"Neunkirchen-Seelscheid","municipality":{"key":"05382040","name":"Neunkirchen-Seelscheid","type":"Kreisangehörige_Gemeinde"},"district":{"key":"05382","name":"Rhein-Sieg-Kreis","type":"Kreis"},"federalState":{"key":"05","name":"Nordrhein-Westfalen"}},{"name":"Schmittengarten","postalCode":"53819","locality":"Neunkirchen-Seelscheid","municipality":{"key":"05382040","name":"Neunkirchen-Seelscheid","type":"Kreisangehörige_Gemeinde"},"district":{"key":"05382","name":"Rhein-Sieg-Kreis","type":"Kreis"},"federalState":{"key":"05","name":"Nordrhein-Westfalen"}},{"name":"Schneewittchenweg","postalCode":"53819","locality":"Neunkirchen-Seelscheid","municipality":{"key":"05382040","name":"Neunkirchen-Seelscheid","type":"Kreisangehörige_Gemeinde"},"district":{"key":"05382","name":"Rhein-Sieg-Kreis","type":"Kreis"},"federalState":{"key":"05","name":"Nordrhein-Westfalen"}},{"name":"Schommerstückstr.","postalCode":"53819","locality":"Neunkirchen-Seelscheid","municipality":{"key":"05382040","name":"Neunkirchen-Seelscheid","type":"Kreisangehörige_Gemeinde"},"district":{"key":"05382","name":"Rhein-Sieg-Kreis","type":"Kreis"},"federalState":{"key":"05","name":"Nordrhein-Westfalen"}},{"name":"Schönauer Str.","postalCode":"53819","locality":"Neunkirchen-Seelscheid","municipality":{"key":"05382040","name":"Neunkirchen-Seelscheid","type":"Kreisangehörige_Gemeinde"},"district":{"key":"05382","name":"Rhein-Sieg-Kreis","type":"Kreis"},"federalState":{"key":"05","name":"Nordrhein-Westfalen"}},{"name":"Schöneshofer Str.","postalCode":"53819","locality":"Neunkirchen-Seelscheid","municipality":{"key":"05382040","name":"Neunkirchen-Seelscheid","type":"Kreisangehörige_Gemeinde"},"district":{"key":"05382","name":"Rhein-Sieg-Kreis","type":"Kreis"},"federalState":{"key":"05","name":"Nordrhein-Westfalen"}},{"name":"Schönfelder Str.","postalCode":"53819","locality":"Neunkirchen-Seelscheid","municipality":{"key":"05382040","name":"Neunkirchen-Seelscheid","type":"Kreisangehörige_Gemeinde"},"district":{"key":"05382","name":"Rhein-Sieg-Kreis","type":"Kreis"},"federalState":{"key":"05","name":"Nordrhein-Westfalen"}},{"name":"Schopenhauerstr.","postalCode":"53819","locality":"Neunkirchen-Seelscheid","municipality":{"key":"05382040","name":"Neunkirchen-Seelscheid","type":"Kreisangehörige_Gemeinde"},"district":{"key":"05382","name":"Rhein-Sieg-Kreis","type":"Kreis"},"federalState":{"key":"05","name":"Nordrhein-Westfalen"}},{"name":"Schubertstr.","postalCode":"53819","locality":"Neunkirchen-Seelscheid","municipality":{"key":"05382040","name":"Neunkirchen-Seelscheid","type":"Kreisangehörige_Gemeinde"},"district":{"key":"05382","name":"Rhein-Sieg-Kreis","type":"Kreis"},"federalState":{"key":"05","name":"Nordrhein-Westfalen"}},{"name":"Schulstr.","postalCode":"53819","locality":"Neunkirchen-Seelscheid","municipality":{"key":"05382040","name":"Neunkirchen-Seelscheid","type":"Kreisangehörige_Gemeinde"},"district":{"key":"05382","name":"Rhein-Sieg-Kreis","type":"Kreis"},"federalState":{"key":"05","name":"Nordrhein-Westfalen"}},{"name":"Schulwald","postalCode":"53819","locality":"Neunkirchen-Seelscheid","municipality":{"key":"05382040","name":"Neunkirchen-Seelscheid","type":"Kreisangehörige_Gemeinde"},"district":{"key":"05382","name":"Rhein-Sieg-Kreis","type":"Kreis"},"federalState":{"key":"05","name":"Nordrhein-Westfalen"}},{"name":"Schwanenweg","postalCode":"53819","locality":"Neunkirchen-Seelscheid","municipality":{"key":"05382040","name":"Neunkirchen-Seelscheid","type":"Kreisangehörige_Gemeinde"},"district":{"key":"05382","name":"Rhein-Sieg-Kreis","type":"Kreis"},"federalState":{"key":"05","name":"Nordrhein-Westfalen"}},{"name":"Seelbachweg","postalCode":"53819","locality":"Neunkirchen-Seelscheid","municipality":{"key":"05382040","name":"Neunkirchen-Seelscheid","type":"Kreisangehörige_Gemeinde"},"district":{"key":"05382","name":"Rhein-Sieg-Kreis","type":"Kreis"},"federalState":{"key":"05","name":"Nordrhein-Westfalen"}},{"name":"Seelscheider Str.","postalCode":"53819","locality":"Neunkirchen-Seelscheid","municipality":{"key":"05382040","name":"Neunkirchen-Seelscheid","type":"Kreisangehörige_Gemeinde"},"district":{"key":"05382","name":"Rhein-Sieg-Kreis","type":"Kreis"},"federalState":{"key":"05","name":"Nordrhein-Westfalen"}},{"name":"Siebengebirgsweg","postalCode":"53819","locality":"Neunkirchen-Seelscheid","municipality":{"key":"05382040","name":"Neunkirchen-Seelscheid","type":"Kreisangehörige_Gemeinde"},"district":{"key":"05382","name":"Rhein-Sieg-Kreis","type":"Kreis"},"federalState":{"key":"05","name":"Nordrhein-Westfalen"}},{"name":"Siefener Str.","postalCode":"53819","locality":"Neunkirchen-Seelscheid","municipality":{"key":"05382040","name":"Neunkirchen-Seelscheid","type":"Kreisangehörige_Gemeinde"},"district":{"key":"05382","name":"Rhein-Sieg-Kreis","type":"Kreis"},"federalState":{"key":"05","name":"Nordrhein-Westfalen"}},{"name":"Siegburger Str.","postalCode":"53819","locality":"Neunkirchen-Seelscheid","municipality":{"key":"05382040","name":"Neunkirchen-Seelscheid","type":"Kreisangehörige_Gemeinde"},"district":{"key":"05382","name":"Rhein-Sieg-Kreis","type":"Kreis"},"federalState":{"key":"05","name":"Nordrhein-Westfalen"}},{"name":"Silberkopf","postalCode":"53819","locality":"Neunkirchen-Seelscheid","municipality":{"key":"05382040","name":"Neunkirchen-Seelscheid","type":"Kreisangehörige_Gemeinde"},"district":{"key":"05382","name":"Rhein-Sieg-Kreis","type":"Kreis"},"federalState":{"key":"05","name":"Nordrhein-Westfalen"}},{"name":"Sonnenblumenweg","postalCode":"53819","locality":"Neunkirchen-Seelscheid","municipality":{"key":"05382040","name":"Neunkirchen-Seelscheid","type":"Kreisangehörige_Gemeinde"},"district":{"key":"05382","name":"Rhein-Sieg-Kreis","type":"Kreis"},"federalState":{"key":"05","name":"Nordrhein-Westfalen"}},{"name":"Söntgerather Str.","postalCode":"53819","locality":"Neunkirchen-Seelscheid","municipality":{"key":"05382040","name":"Neunkirchen-Seelscheid","type":"Kreisangehörige_Gemeinde"},"district":{"key":"05382","name":"Rhein-Sieg-Kreis","type":"Kreis"},"federalState":{"key":"05","name":"Nordrhein-Westfalen"}},{"name":"Sperberweg","postalCode":"53819","locality":"Neunkirchen-Seelscheid","municipality":{"key":"05382040","name":"Neunkirchen-Seelscheid","type":"Kreisangehörige_Gemeinde"},"district":{"key":"05382","name":"Rhein-Sieg-Kreis","type":"Kreis"},"federalState":{"key":"05","name":"Nordrhein-Westfalen"}},{"name":"Starenweg","postalCode":"53819","locality":"Neunkirchen-Seelscheid","municipality":{"key":"05382040","name":"Neunkirchen-Seelscheid","type":"Kreisangehörige_Gemeinde"},"district":{"key":"05382","name":"Rhein-Sieg-Kreis","type":"Kreis"},"federalState":{"key":"05","name":"Nordrhein-Westfalen"}},{"name":"Steinberg","postalCode":"53819","locality":"Neunkirchen-Seelscheid","municipality":{"key":"05382040","name":"Neunkirchen-Seelscheid","type":"Kreisangehörige_Gemeinde"},"district":{"key":"05382","name":"Rhein-Sieg-Kreis","type":"Kreis"},"federalState":{"key":"05","name":"Nordrhein-Westfalen"}},{"name":"Steinermühle","postalCode":"53819","locality":"Neunkirchen-Seelscheid","municipality":{"key":"05382040","name":"Neunkirchen-Seelscheid","type":"Kreisangehörige_Gemeinde"},"district":{"key":"05382","name":"Rhein-Sieg-Kreis","type":"Kreis"},"federalState":{"key":"05","name":"Nordrhein-Westfalen"}},{"name":"Steiner Str.","postalCode":"53819","locality":"Neunkirchen-Seelscheid","municipality":{"key":"05382040","name":"Neunkirchen-Seelscheid","type":"Kreisangehörige_Gemeinde"},"district":{"key":"05382","name":"Rhein-Sieg-Kreis","type":"Kreis"},"federalState":{"key":"05","name":"Nordrhein-Westfalen"}},{"name":"Steinknippen","postalCode":"53819","locality":"Neunkirchen-Seelscheid","municipality":{"key":"05382040","name":"Neunkirchen-Seelscheid","type":"Kreisangehörige_Gemeinde"},"district":{"key":"05382","name":"Rhein-Sieg-Kreis","type":"Kreis"},"federalState":{"key":"05","name":"Nordrhein-Westfalen"}},{"name":"Sternstr.","postalCode":"53819","locality":"Neunkirchen-Seelscheid","municipality":{"key":"05382040","name":"Neunkirchen-Seelscheid","type":"Kreisangehörige_Gemeinde"},"district":{"key":"05382","name":"Rhein-Sieg-Kreis","type":"Kreis"},"federalState":{"key":"05","name":"Nordrhein-Westfalen"}},{"name":"Sterntalerweg","postalCode":"53819","locality":"Neunkirchen-Seelscheid","municipality":{"key":"05382040","name":"Neunkirchen-Seelscheid","type":"Kreisangehörige_Gemeinde"},"district":{"key":"05382","name":"Rhein-Sieg-Kreis","type":"Kreis"},"federalState":{"key":"05","name":"Nordrhein-Westfalen"}},{"name":"Stettiner Str.","postalCode":"53819","locality":"Neunkirchen-Seelscheid","municipality":{"key":"05382040","name":"Neunkirchen-Seelscheid","type":"Kreisangehörige_Gemeinde"},"district":{"key":"05382","name":"Rhein-Sieg-Kreis","type":"Kreis"},"federalState":{"key":"05","name":"Nordrhein-Westfalen"}},{"name":"Stockhardt","postalCode":"53819","locality":"Neunkirchen-Seelscheid","municipality":{"key":"05382040","name":"Neunkirchen-Seelscheid","type":"Kreisangehörige_Gemeinde"},"district":{"key":"05382","name":"Rhein-Sieg-Kreis","type":"Kreis"},"federalState":{"key":"05","name":"Nordrhein-Westfalen"}},{"name":"Stumpsweg","postalCode":"53819","locality":"Neunkirchen-Seelscheid","municipality":{"key":"05382040","name":"Neunkirchen-Seelscheid","type":"Kreisangehörige_Gemeinde"},"district":{"key":"05382","name":"Rhein-Sieg-Kreis","type":"Kreis"},"federalState":{"key":"05","name":"Nordrhein-Westfalen"}},{"name":"Südweg","postalCode":"53819","locality":"Neunkirchen-Seelscheid","municipality":{"key":"05382040","name":"Neunkirchen-Seelscheid","type":"Kreisangehörige_Gemeinde"},"district":{"key":"05382","name":"Rhein-Sieg-Kreis","type":"Kreis"},"federalState":{"key":"05","name":"Nordrhein-Westfalen"}},{"name":"Talblick","postalCode":"53819","locality":"Neunkirchen-Seelscheid","municipality":{"key":"05382040","name":"Neunkirchen-Seelscheid","type":"Kreisangehörige_Gemeinde"},"district":{"key":"05382","name":"Rhein-Sieg-Kreis","type":"Kreis"},"federalState":{"key":"05","name":"Nordrhein-Westfalen"}},{"name":"Talsperrenstr.","postalCode":"53819","locality":"Neunkirchen-Seelscheid","municipality":{"key":"05382040","name":"Neunkirchen-Seelscheid","type":"Kreisangehörige_Gemeinde"},"district":{"key":"05382","name":"Rhein-Sieg-Kreis","type":"Kreis"},"federalState":{"key":"05","name":"Nordrhein-Westfalen"}},{"name":"Talstr.","postalCode":"53819","locality":"Neunkirchen-Seelscheid","municipality":{"key":"05382040","name":"Neunkirchen-Seelscheid","type":"Kreisangehörige_Gemeinde"},"district":{"key":"05382","name":"Rhein-Sieg-Kreis","type":"Kreis"},"federalState":{"key":"05","name":"Nordrhein-Westfalen"}},{"name":"Tannenweg","postalCode":"53819","locality":"Neunkirchen-Seelscheid","municipality":{"key":"05382040","name":"Neunkirchen-Seelscheid","type":"Kreisangehörige_Gemeinde"},"district":{"key":"05382","name":"Rhein-Sieg-Kreis","type":"Kreis"},"federalState":{"key":"05","name":"Nordrhein-Westfalen"}},{"name":"Taubensiefen","postalCode":"53819","locality":"Neunkirchen-Seelscheid","municipality":{"key":"05382040","name":"Neunkirchen-Seelscheid","type":"Kreisangehörige_Gemeinde"},"district":{"key":"05382","name":"Rhein-Sieg-Kreis","type":"Kreis"},"federalState":{"key":"05","name":"Nordrhein-Westfalen"}},{"name":"Theodor-Körner-Str.","postalCode":"53819","locality":"Neunkirchen-Seelscheid","municipality":{"key":"05382040","name":"Neunkirchen-Seelscheid","type":"Kreisangehörige_Gemeinde"},"district":{"key":"05382","name":"Rhein-Sieg-Kreis","type":"Kreis"},"federalState":{"key":"05","name":"Nordrhein-Westfalen"}},{"name":"Thujastr.","postalCode":"53819","locality":"Neunkirchen-Seelscheid","municipality":{"key":"05382040","name":"Neunkirchen-Seelscheid","type":"Kreisangehörige_Gemeinde"},"district":{"key":"05382","name":"Rhein-Sieg-Kreis","type":"Kreis"},"federalState":{"key":"05","name":"Nordrhein-Westfalen"}},{"name":"Trittspfad","postalCode":"53819","locality":"Neunkirchen-Seelscheid","municipality":{"key":"05382040","name":"Neunkirchen-Seelscheid","type":"Kreisangehörige_Gemeinde"},"district":{"key":"05382","name":"Rhein-Sieg-Kreis","type":"Kreis"},"federalState":{"key":"05","name":"Nordrhein-Westfalen"}},{"name":"Tulpenweg","postalCode":"53819","locality":"Neunkirchen-Seelscheid","municipality":{"key":"05382040","name":"Neunkirchen-Seelscheid","type":"Kreisangehörige_Gemeinde"},"district":{"key":"05382","name":"Rhein-Sieg-Kreis","type":"Kreis"},"federalState":{"key":"05","name":"Nordrhein-Westfalen"}},{"name":"Turmstr.","postalCode":"53819","locality":"Neunkirchen-Seelscheid","municipality":{"key":"05382040","name":"Neunkirchen-Seelscheid","type":"Kreisangehörige_Gemeinde"},"district":{"key":"05382","name":"Rhein-Sieg-Kreis","type":"Kreis"},"federalState":{"key":"05","name":"Nordrhein-Westfalen"}},{"name":"Uhlandstr.","postalCode":"53819","locality":"Neunkirchen-Seelscheid","municipality":{"key":"05382040","name":"Neunkirchen-Seelscheid","type":"Kreisangehörige_Gemeinde"},"district":{"key":"05382","name":"Rhein-Sieg-Kreis","type":"Kreis"},"federalState":{"key":"05","name":"Nordrhein-Westfalen"}},{"name":"Ulmenweg","postalCode":"53819","locality":"Neunkirchen-Seelscheid","municipality":{"key":"05382040","name":"Neunkirchen-Seelscheid","type":"Kreisangehörige_Gemeinde"},"district":{"key":"05382","name":"Rhein-Sieg-Kreis","type":"Kreis"},"federalState":{"key":"05","name":"Nordrhein-Westfalen"}},{"name":"Untersberg","postalCode":"53819","locality":"Neunkirchen-Seelscheid","municipality":{"key":"05382040","name":"Neunkirchen-Seelscheid","type":"Kreisangehörige_Gemeinde"},"district":{"key":"05382","name":"Rhein-Sieg-Kreis","type":"Kreis"},"federalState":{"key":"05","name":"Nordrhein-Westfalen"}},{"name":"Unterweg","postalCode":"53819","locality":"Neunkirchen-Seelscheid","municipality":{"key":"05382040","name":"Neunkirchen-Seelscheid","type":"Kreisangehörige_Gemeinde"},"district":{"key":"05382","name":"Rhein-Sieg-Kreis","type":"Kreis"},"federalState":{"key":"05","name":"Nordrhein-Westfalen"}},{"name":"Urnenfeld","postalCode":"53819","locality":"Neunkirchen-Seelscheid","municipality":{"key":"05382040","name":"Neunkirchen-Seelscheid","type":"Kreisangehörige_Gemeinde"},"district":{"key":"05382","name":"Rhein-Sieg-Kreis","type":"Kreis"},"federalState":{"key":"05","name":"Nordrhein-Westfalen"}},{"name":"Veilchenweg","postalCode":"53819","locality":"Neunkirchen-Seelscheid","municipality":{"key":"05382040","name":"Neunkirchen-Seelscheid","type":"Kreisangehörige_Gemeinde"},"district":{"key":"05382","name":"Rhein-Sieg-Kreis","type":"Kreis"},"federalState":{"key":"05","name":"Nordrhein-Westfalen"}},{"name":"Viehgasse","postalCode":"53819","locality":"Neunkirchen-Seelscheid","municipality":{"key":"05382040","name":"Neunkirchen-Seelscheid","type":"Kreisangehörige_Gemeinde"},"district":{"key":"05382","name":"Rhein-Sieg-Kreis","type":"Kreis"},"federalState":{"key":"05","name":"Nordrhein-Westfalen"}},{"name":"Viehtrift","postalCode":"53819","locality":"Neunkirchen-Seelscheid","municipality":{"key":"05382040","name":"Neunkirchen-Seelscheid","type":"Kreisangehörige_Gemeinde"},"district":{"key":"05382","name":"Rhein-Sieg-Kreis","type":"Kreis"},"federalState":{"key":"05","name":"Nordrhein-Westfalen"}},{"name":"Vogelsangstr.","postalCode":"53819","locality":"Neunkirchen-Seelscheid","municipality":{"key":"05382040","name":"Neunkirchen-Seelscheid","type":"Kreisangehörige_Gemeinde"},"district":{"key":"05382","name":"Rhein-Sieg-Kreis","type":"Kreis"},"federalState":{"key":"05","name":"Nordrhein-Westfalen"}},{"name":"Vossbitze","postalCode":"53819","locality":"Neunkirchen-Seelscheid","municipality":{"key":"05382040","name":"Neunkirchen-Seelscheid","type":"Kreisangehörige_Gemeinde"},"district":{"key":"05382","name":"Rhein-Sieg-Kreis","type":"Kreis"},"federalState":{"key":"05","name":"Nordrhein-Westfalen"}},{"name":"Wacholderweg","postalCode":"53819","locality":"Neunkirchen-Seelscheid","municipality":{"key":"05382040","name":"Neunkirchen-Seelscheid","type":"Kreisangehörige_Gemeinde"},"district":{"key":"05382","name":"Rhein-Sieg-Kreis","type":"Kreis"},"federalState":{"key":"05","name":"Nordrhein-Westfalen"}},{"name":"Wahnbachtalstr.","postalCode":"53819","locality":"Neunkirchen-Seelscheid","municipality":{"key":"05382040","name":"Neunkirchen-Seelscheid","type":"Kreisangehörige_Gemeinde"},"district":{"key":"05382","name":"Rhein-Sieg-Kreis","type":"Kreis"},"federalState":{"key":"05","name":"Nordrhein-Westfalen"}},{"name":"Wahner Weg","postalCode":"53819","locality":"Neunkirchen-Seelscheid","municipality":{"key":"05382040","name":"Neunkirchen-Seelscheid","type":"Kreisangehörige_Gemeinde"},"district":{"key":"05382","name":"Rhein-Sieg-Kreis","type":"Kreis"},"federalState":{"key":"05","name":"Nordrhein-Westfalen"}},{"name":"Waldstr.","postalCode":"53819","locality":"Neunkirchen-Seelscheid","municipality":{"key":"05382040","name":"Neunkirchen-Seelscheid","type":"Kreisangehörige_Gemeinde"},"district":{"key":"05382","name":"Rhein-Sieg-Kreis","type":"Kreis"},"federalState":{"key":"05","name":"Nordrhein-Westfalen"}},{"name":"Waldwiese","postalCode":"53819","locality":"Neunkirchen-Seelscheid","municipality":{"key":"05382040","name":"Neunkirchen-Seelscheid","type":"Kreisangehörige_Gemeinde"},"district":{"key":"05382","name":"Rhein-Sieg-Kreis","type":"Kreis"},"federalState":{"key":"05","name":"Nordrhein-Westfalen"}},{"name":"Walnußweg","postalCode":"53819","locality":"Neunkirchen-Seelscheid","municipality":{"key":"05382040","name":"Neunkirchen-Seelscheid","type":"Kreisangehörige_Gemeinde"},"district":{"key":"05382","name":"Rhein-Sieg-Kreis","type":"Kreis"},"federalState":{"key":"05","name":"Nordrhein-Westfalen"}},{"name":"Walzenrather Str.","postalCode":"53819","locality":"Neunkirchen-Seelscheid","municipality":{"key":"05382040","name":"Neunkirchen-Seelscheid","type":"Kreisangehörige_Gemeinde"},"district":{"key":"05382","name":"Rhein-Sieg-Kreis","type":"Kreis"},"federalState":{"key":"05","name":"Nordrhein-Westfalen"}},{"name":"Weberstr.","postalCode":"53819","locality":"Neunkirchen-Seelscheid","municipality":{"key":"05382040","name":"Neunkirchen-Seelscheid","type":"Kreisangehörige_Gemeinde"},"district":{"key":"05382","name":"Rhein-Sieg-Kreis","type":"Kreis"},"federalState":{"key":"05","name":"Nordrhein-Westfalen"}},{"name":"Weesbacher Str.","postalCode":"53819","locality":"Neunkirchen-Seelscheid","municipality":{"key":"05382040","name":"Neunkirchen-Seelscheid","type":"Kreisangehörige_Gemeinde"},"district":{"key":"05382","name":"Rhein-Sieg-Kreis","type":"Kreis"},"federalState":{"key":"05","name":"Nordrhein-Westfalen"}},{"name":"Weidenbusch","postalCode":"53819","locality":"Neunkirchen-Seelscheid","municipality":{"key":"05382040","name":"Neunkirchen-Seelscheid","type":"Kreisangehörige_Gemeinde"},"district":{"key":"05382","name":"Rhein-Sieg-Kreis","type":"Kreis"},"federalState":{"key":"05","name":"Nordrhein-Westfalen"}},{"name":"Weidenstr.","postalCode":"53819","locality":"Neunkirchen-Seelscheid","municipality":{"key":"05382040","name":"Neunkirchen-Seelscheid","type":"Kreisangehörige_Gemeinde"},"district":{"key":"05382","name":"Rhein-Sieg-Kreis","type":"Kreis"},"federalState":{"key":"05","name":"Nordrhein-Westfalen"}},{"name":"Weierter Str.","postalCode":"53819","locality":"Neunkirchen-Seelscheid","municipality":{"key":"05382040","name":"Neunkirchen-Seelscheid","type":"Kreisangehörige_Gemeinde"},"district":{"key":"05382","name":"Rhein-Sieg-Kreis","type":"Kreis"},"federalState":{"key":"05","name":"Nordrhein-Westfalen"}},{"name":"Weihergasse","postalCode":"53819","locality":"Neunkirchen-Seelscheid","municipality":{"key":"05382040","name":"Neunkirchen-Seelscheid","type":"Kreisangehörige_Gemeinde"},"district":{"key":"05382","name":"Rhein-Sieg-Kreis","type":"Kreis"},"federalState":{"key":"05","name":"Nordrhein-Westfalen"}},{"name":"Weilersberg","postalCode":"53819","locality":"Neunkirchen-Seelscheid","municipality":{"key":"05382040","name":"Neunkirchen-Seelscheid","type":"Kreisangehörige_Gemeinde"},"district":{"key":"05382","name":"Rhein-Sieg-Kreis","type":"Kreis"},"federalState":{"key":"05","name":"Nordrhein-Westfalen"}},{"name":"Wendbachstr.","postalCode":"53819","locality":"Neunkirchen-Seelscheid","municipality":{"key":"05382040","name":"Neunkirchen-Seelscheid","type":"Kreisangehörige_Gemeinde"},"district":{"key":"05382","name":"Rhein-Sieg-Kreis","type":"Kreis"},"federalState":{"key":"05","name":"Nordrhein-Westfalen"}},{"name":"Wenigerbachstr.","postalCode":"53819","locality":"Neunkirchen-Seelscheid","municipality":{"key":"05382040","name":"Neunkirchen-Seelscheid","type":"Kreisangehörige_Gemeinde"},"district":{"key":"05382","name":"Rhein-Sieg-Kreis","type":"Kreis"},"federalState":{"key":"05","name":"Nordrhein-Westfalen"}},{"name":"Wennerscheider Str.","postalCode":"53819","locality":"Neunkirchen-Seelscheid","municipality":{"key":"05382040","name":"Neunkirchen-Seelscheid","type":"Kreisangehörige_Gemeinde"},"district":{"key":"05382","name":"Rhein-Sieg-Kreis","type":"Kreis"},"federalState":{"key":"05","name":"Nordrhein-Westfalen"}},{"name":"Werner-Pinhack-Weg","postalCode":"53819","locality":"Neunkirchen-Seelscheid","municipality":{"key":"05382040","name":"Neunkirchen-Seelscheid","type":"Kreisangehörige_Gemeinde"},"district":{"key":"05382","name":"Rhein-Sieg-Kreis","type":"Kreis"},"federalState":{"key":"05","name":"Nordrhein-Westfalen"}},{"name":"Wielandstr.","postalCode":"53819","locality":"Neunkirchen-Seelscheid","municipality":{"key":"05382040","name":"Neunkirchen-Seelscheid","type":"Kreisangehörige_Gemeinde"},"district":{"key":"05382","name":"Rhein-Sieg-Kreis","type":"Kreis"},"federalState":{"key":"05","name":"Nordrhein-Westfalen"}},{"name":"Wiescheider Str.","postalCode":"53819","locality":"Neunkirchen-Seelscheid","municipality":{"key":"05382040","name":"Neunkirchen-Seelscheid","type":"Kreisangehörige_Gemeinde"},"district":{"key":"05382","name":"Rhein-Sieg-Kreis","type":"Kreis"},"federalState":{"key":"05","name":"Nordrhein-Westfalen"}},{"name":"Wieselweg","postalCode":"53819","locality":"Neunkirchen-Seelscheid","municipality":{"key":"05382040","name":"Neunkirchen-Seelscheid","type":"Kreisangehörige_Gemeinde"},"district":{"key":"05382","name":"Rhein-Sieg-Kreis","type":"Kreis"},"federalState":{"key":"05","name":"Nordrhein-Westfalen"}},{"name":"Wiesengrund","postalCode":"53819","locality":"Neunkirchen-Seelscheid","municipality":{"key":"05382040","name":"Neunkirchen-Seelscheid","type":"Kreisangehörige_Gemeinde"},"district":{"key":"05382","name":"Rhein-Sieg-Kreis","type":"Kreis"},"federalState":{"key":"05","name":"Nordrhein-Westfalen"}},{"name":"Wildpfad","postalCode":"53819","locality":"Neunkirchen-Seelscheid","municipality":{"key":"05382040","name":"Neunkirchen-Seelscheid","type":"Kreisangehörige_Gemeinde"},"district":{"key":"05382","name":"Rhein-Sieg-Kreis","type":"Kreis"},"federalState":{"key":"05","name":"Nordrhein-Westfalen"}},{"name":"Wilhelmstr.","postalCode":"53819","locality":"Neunkirchen-Seelscheid","municipality":{"key":"05382040","name":"Neunkirchen-Seelscheid","type":"Kreisangehörige_Gemeinde"},"district":{"key":"05382","name":"Rhein-Sieg-Kreis","type":"Kreis"},"federalState":{"key":"05","name":"Nordrhein-Westfalen"}},{"name":"Winterberg","postalCode":"53819","locality":"Neunkirchen-Seelscheid","municipality":{"key":"05382040","name":"Neunkirchen-Seelscheid","type":"Kreisangehörige_Gemeinde"},"district":{"key":"05382","name":"Rhein-Sieg-Kreis","type":"Kreis"},"federalState":{"key":"05","name":"Nordrhein-Westfalen"}},{"name":"Wolkenburgstr.","postalCode":"53819","locality":"Neunkirchen-Seelscheid","municipality":{"key":"05382040","name":"Neunkirchen-Seelscheid","type":"Kreisangehörige_Gemeinde"},"district":{"key":"05382","name":"Rhein-Sieg-Kreis","type":"Kreis"},"federalState":{"key":"05","name":"Nordrhein-Westfalen"}},{"name":"Wollkaule","postalCode":"53819","locality":"Neunkirchen-Seelscheid","municipality":{"key":"05382040","name":"Neunkirchen-Seelscheid","type":"Kreisangehörige_Gemeinde"},"district":{"key":"05382","name":"Rhein-Sieg-Kreis","type":"Kreis"},"federalState":{"key":"05","name":"Nordrhein-Westfalen"}},{"name":"Zedernweg","postalCode":"53819","locality":"Neunkirchen-Seelscheid","municipality":{"key":"05382040","name":"Neunkirchen-Seelscheid","type":"Kreisangehörige_Gemeinde"},"district":{"key":"05382","name":"Rhein-Sieg-Kreis","type":"Kreis"},"federalState":{"key":"05","name":"Nordrhein-Westfalen"}},{"name":"Zeisigweg","postalCode":"53819","locality":"Neunkirchen-Seelscheid","municipality":{"key":"05382040","name":"Neunkirchen-Seelscheid","type":"Kreisangehörige_Gemeinde"},"district":{"key":"05382","name":"Rhein-Sieg-Kreis","type":"Kreis"},"federalState":{"key":"05","name":"Nordrhein-Westfalen"}},{"name":"Zeithstr.","postalCode":"53819","locality":"Neunkirchen-Seelscheid","municipality":{"key":"05382040","name":"Neunkirchen-Seelscheid","type":"Kreisangehörige_Gemeinde"},"district":{"key":"05382","name":"Rhein-Sieg-Kreis","type":"Kreis"},"federalState":{"key":"05","name":"Nordrhein-Westfalen"}},{"name":"Zimmermannsweg","postalCode":"53819","locality":"Neunkirchen-Seelscheid","municipality":{"key":"05382040","name":"Neunkirchen-Seelscheid","type":"Kreisangehörige_Gemeinde"},"district":{"key":"05382","name":"Rhein-Sieg-Kreis","type":"Kreis"},"federalState":{"key":"05","name":"Nordrhein-Westfalen"}},{"name":"Zu den Birken","postalCode":"53819","locality":"Neunkirchen-Seelscheid","municipality":{"key":"05382040","name":"Neunkirchen-Seelscheid","type":"Kreisangehörige_Gemeinde"},"district":{"key":"05382","name":"Rhein-Sieg-Kreis","type":"Kreis"},"federalState":{"key":"05","name":"Nordrhein-Westfalen"}},{"name":"Zum Acker","postalCode":"53819","locality":"Neunkirchen-Seelscheid","municipality":{"key":"05382040","name":"Neunkirchen-Seelscheid","type":"Kreisangehörige_Gemeinde"},"district":{"key":"05382","name":"Rhein-Sieg-Kreis","type":"Kreis"},"federalState":{"key":"05","name":"Nordrhein-Westfalen"}},{"name":"Zum Appelbach","postalCode":"53819","locality":"Neunkirchen-Seelscheid","municipality":{"key":"05382040","name":"Neunkirchen-Seelscheid","type":"Kreisangehörige_Gemeinde"},"district":{"key":"05382","name":"Rhein-Sieg-Kreis","type":"Kreis"},"federalState":{"key":"05","name":"Nordrhein-Westfalen"}},{"name":"Zum Bonnensiefen","postalCode":"53819","locality":"Neunkirchen-Seelscheid","municipality":{"key":"05382040","name":"Neunkirchen-Seelscheid","type":"Kreisangehörige_Gemeinde"},"district":{"key":"05382","name":"Rhein-Sieg-Kreis","type":"Kreis"},"federalState":{"key":"05","name":"Nordrhein-Westfalen"}},{"name":"Zum Dorfteich","postalCode":"53819","locality":"Neunkirchen-Seelscheid","municipality":{"key":"05382040","name":"Neunkirchen-Seelscheid","type":"Kreisangehörige_Gemeinde"},"district":{"key":"05382","name":"Rhein-Sieg-Kreis","type":"Kreis"},"federalState":{"key":"05","name":"Nordrhein-Westfalen"}},{"name":"Zum Holzbachtal","postalCode":"53819","locality":"Neunkirchen-Seelscheid","municipality":{"key":"05382040","name":"Neunkirchen-Seelscheid","type":"Kreisangehörige_Gemeinde"},"district":{"key":"05382","name":"Rhein-Sieg-Kreis","type":"Kreis"},"federalState":{"key":"05","name":"Nordrhein-Westfalen"}},{"name":"Zum Leienhof","postalCode":"53819","locality":"Neunkirchen-Seelscheid","municipality":{"key":"05382040","name":"Neunkirchen-Seelscheid","type":"Kreisangehörige_Gemeinde"},"district":{"key":"05382","name":"Rhein-Sieg-Kreis","type":"Kreis"},"federalState":{"key":"05","name":"Nordrhein-Westfalen"}},{"name":"Zum Naafbach","postalCode":"53819","locality":"Neunkirchen-Seelscheid","municipality":{"key":"05382040","name":"Neunkirchen-Seelscheid","type":"Kreisangehörige_Gemeinde"},"district":{"key":"05382","name":"Rhein-Sieg-Kreis","type":"Kreis"},"federalState":{"key":"05","name":"Nordrhein-Westfalen"}},{"name":"Zum Nüchel","postalCode":"53819","locality":"Neunkirchen-Seelscheid","municipality":{"key":"05382040","name":"Neunkirchen-Seelscheid","type":"Kreisangehörige_Gemeinde"},"district":{"key":"05382","name":"Rhein-Sieg-Kreis","type":"Kreis"},"federalState":{"key":"05","name":"Nordrhein-Westfalen"}},{"name":"Zum Schwärmshof","postalCode":"53819","locality":"Neunkirchen-Seelscheid","municipality":{"key":"05382040","name":"Neunkirchen-Seelscheid","type":"Kreisangehörige_Gemeinde"},"district":{"key":"05382","name":"Rhein-Sieg-Kreis","type":"Kreis"},"federalState":{"key":"05","name":"Nordrhein-Westfalen"}},{"name":"Zum Steimerich","postalCode":"53819","locality":"Neunkirchen-Seelscheid","municipality":{"key":"05382040","name":"Neunkirchen-Seelscheid","type":"Kreisangehörige_Gemeinde"},"district":{"key":"05382","name":"Rhein-Sieg-Kreis","type":"Kreis"},"federalState":{"key":"05","name":"Nordrhein-Westfalen"}},{"name":"Zum Steinenbach","postalCode":"53819","locality":"Neunkirchen-Seelscheid","municipality":{"key":"05382040","name":"Neunkirchen-Seelscheid","type":"Kreisangehörige_Gemeinde"},"district":{"key":"05382","name":"Rhein-Sieg-Kreis","type":"Kreis"},"federalState":{"key":"05","name":"Nordrhein-Westfalen"}},{"name":"Zum Thielensiefen","postalCode":"53819","locality":"Neunkirchen-Seelscheid","municipality":{"key":"05382040","name":"Neunkirchen-Seelscheid","type":"Kreisangehörige_Gemeinde"},"district":{"key":"05382","name":"Rhein-Sieg-Kreis","type":"Kreis"},"federalState":{"key":"05","name":"Nordrhein-Westfalen"}},{"name":"Zum Vorbusch","postalCode":"53819","locality":"Neunkirchen-Seelscheid","municipality":{"key":"05382040","name":"Neunkirchen-Seelscheid","type":"Kreisangehörige_Gemeinde"},"district":{"key":"05382","name":"Rhein-Sieg-Kreis","type":"Kreis"},"federalState":{"key":"05","name":"Nordrhein-Westfalen"}},{"name":"Zum Wahnbach","postalCode":"53819","locality":"Neunkirchen-Seelscheid","municipality":{"key":"05382040","name":"Neunkirchen-Seelscheid","type":"Kreisangehörige_Gemeinde"},"district":{"key":"05382","name":"Rhein-Sieg-Kreis","type":"Kreis"},"federalState":{"key":"05","name":"Nordrhein-Westfalen"}},{"name":"Zum Waldfrieden","postalCode":"53819","locality":"Neunkirchen-Seelscheid","municipality":{"key":"05382040","name":"Neunkirchen-Seelscheid","type":"Kreisangehörige_Gemeinde"},"district":{"key":"05382","name":"Rhein-Sieg-Kreis","type":"Kreis"},"federalState":{"key":"05","name":"Nordrhein-Westfalen"}},{"name":"Zum Wirbel","postalCode":"53819","locality":"Neunkirchen-Seelscheid","municipality":{"key":"05382040","name":"Neunkirchen-Seelscheid","type":"Kreisangehörige_Gemeinde"},"district":{"key":"05382","name":"Rhein-Sieg-Kreis","type":"Kreis"},"federalState":{"key":"05","name":"Nordrhein-Westfalen"}},{"name":"Zur Bröl","postalCode":"53819","locality":"Neunkirchen-Seelscheid","municipality":{"key":"05382040","name":"Neunkirchen-Seelscheid","type":"Kreisangehörige_Gemeinde"},"district":{"key":"05382","name":"Rhein-Sieg-Kreis","type":"Kreis"},"federalState":{"key":"05","name":"Nordrhein-Westfalen"}},{"name":"Zur Delle","postalCode":"53819","locality":"Neunkirchen-Seelscheid","municipality":{"key":"05382040","name":"Neunkirchen-Seelscheid","type":"Kreisangehörige_Gemeinde"},"district":{"key":"05382","name":"Rhein-Sieg-Kreis","type":"Kreis"},"federalState":{"key":"05","name":"Nordrhein-Westfalen"}},{"name":"Zur Grünen Au","postalCode":"53819","locality":"Neunkirchen-Seelscheid","municipality":{"key":"05382040","name":"Neunkirchen-Seelscheid","type":"Kreisangehörige_Gemeinde"},"district":{"key":"05382","name":"Rhein-Sieg-Kreis","type":"Kreis"},"federalState":{"key":"05","name":"Nordrhein-Westfalen"}},{"name":"Zur Hofstatt","postalCode":"53819","locality":"Neunkirchen-Seelscheid","municipality":{"key":"05382040","name":"Neunkirchen-Seelscheid","type":"Kreisangehörige_Gemeinde"},"district":{"key":"05382","name":"Rhein-Sieg-Kreis","type":"Kreis"},"federalState":{"key":"05","name":"Nordrhein-Westfalen"}},{"name":"Zur Tränke","postalCode":"53819","locality":"Neunkirchen-Seelscheid","municipality":{"key":"05382040","name":"Neunkirchen-Seelscheid","type":"Kreisangehörige_Gemeinde"},"district":{"key":"05382","name":"Rhein-Sieg-Kreis","type":"Kreis"},"federalState":{"key":"05","name":"Nordrhein-Westfalen"}},{"name":"Zur Wende","postalCode":"53819","locality":"Neunkirchen-Seelscheid","municipality":{"key":"05382040","name":"Neunkirchen-Seelscheid","type":"Kreisangehörige_Gemeinde"},"district":{"key":"05382","name":"Rhein-Sieg-Kreis","type":"Kreis"},"federalState":{"key":"05","name":"Nordrhein-Westfalen"}},{"name":"Ölbergstr.","postalCode":"53819","locality":"Neunkirchen-Seelscheid","municipality":{"key":"05382040","name":"Neunkirchen-Seelscheid","type":"Kreisangehörige_Gemeinde"},"district":{"key":"05382","name":"Rhein-Sieg-Kreis","type":"Kreis"},"federalState":{"key":"05","name":"Nordrhein-Westfalen"}},{"name":"Überdorfer Weg","postalCode":"53819","locality":"Neunkirchen-Seelscheid","municipality":{"key":"05382040","name":"Neunkirchen-Seelscheid","type":"Kreisangehörige_Gemeinde"},"district":{"key":"05382","name":"Rhein-Sieg-Kreis","type":"Kreis"},"federalState":{"key":"05","name":"Nordrhein-Westfalen"}},]