[{"name":"Alte Molkerei","postalCode":"27726","locality":"Worpswede","municipality":{"key":"03356011","name":"Worpswede","type":"Kreisangehörige_Gemeinde"},"district":{"key":"03356","name":"Osterholz","type":"Landkreis"},"federalState":{"key":"03","name":"Niedersachsen"}},{"name":"Alte Schmiede","postalCode":"27726","locality":"Worpswede","municipality":{"key":"03356011","name":"Worpswede","type":"Kreisangehörige_Gemeinde"},"district":{"key":"03356","name":"Osterholz","type":"Landkreis"},"federalState":{"key":"03","name":"Niedersachsen"}},{"name":"Am Abelhüttenberg","postalCode":"27726","locality":"Worpswede","municipality":{"key":"03356011","name":"Worpswede","type":"Kreisangehörige_Gemeinde"},"district":{"key":"03356","name":"Osterholz","type":"Landkreis"},"federalState":{"key":"03","name":"Niedersachsen"}},{"name":"Am Bahnhof","postalCode":"27726","locality":"Worpswede","municipality":{"key":"03356011","name":"Worpswede","type":"Kreisangehörige_Gemeinde"},"district":{"key":"03356","name":"Osterholz","type":"Landkreis"},"federalState":{"key":"03","name":"Niedersachsen"}},{"name":"Am Bergedorfer Schiffgraben","postalCode":"27726","locality":"Worpswede","municipality":{"key":"03356011","name":"Worpswede","type":"Kreisangehörige_Gemeinde"},"district":{"key":"03356","name":"Osterholz","type":"Landkreis"},"federalState":{"key":"03","name":"Niedersachsen"}},{"name":"Am Gewerbepark","postalCode":"27726","locality":"Worpswede","municipality":{"key":"03356011","name":"Worpswede","type":"Kreisangehörige_Gemeinde"},"district":{"key":"03356","name":"Osterholz","type":"Landkreis"},"federalState":{"key":"03","name":"Niedersachsen"}},{"name":"Am Hasenmoor","postalCode":"27726","locality":"Worpswede","municipality":{"key":"03356011","name":"Worpswede","type":"Kreisangehörige_Gemeinde"},"district":{"key":"03356","name":"Osterholz","type":"Landkreis"},"federalState":{"key":"03","name":"Niedersachsen"}},{"name":"Am Hörenberg","postalCode":"27726","locality":"Worpswede","municipality":{"key":"03356011","name":"Worpswede","type":"Kreisangehörige_Gemeinde"},"district":{"key":"03356","name":"Osterholz","type":"Landkreis"},"federalState":{"key":"03","name":"Niedersachsen"}},{"name":"Am Kniependamm","postalCode":"27726","locality":"Worpswede","municipality":{"key":"03356011","name":"Worpswede","type":"Kreisangehörige_Gemeinde"},"district":{"key":"03356","name":"Osterholz","type":"Landkreis"},"federalState":{"key":"03","name":"Niedersachsen"}},{"name":"Am Schießstand","postalCode":"27726","locality":"Worpswede","municipality":{"key":"03356011","name":"Worpswede","type":"Kreisangehörige_Gemeinde"},"district":{"key":"03356","name":"Osterholz","type":"Landkreis"},"federalState":{"key":"03","name":"Niedersachsen"}},{"name":"Am Schiffgraben","postalCode":"27726","locality":"Worpswede","municipality":{"key":"03356011","name":"Worpswede","type":"Kreisangehörige_Gemeinde"},"district":{"key":"03356","name":"Osterholz","type":"Landkreis"},"federalState":{"key":"03","name":"Niedersachsen"}},{"name":"Am Schmidtberg","postalCode":"27726","locality":"Worpswede","municipality":{"key":"03356011","name":"Worpswede","type":"Kreisangehörige_Gemeinde"},"district":{"key":"03356","name":"Osterholz","type":"Landkreis"},"federalState":{"key":"03","name":"Niedersachsen"}},{"name":"Am Schützenhof","postalCode":"27726","locality":"Worpswede","municipality":{"key":"03356011","name":"Worpswede","type":"Kreisangehörige_Gemeinde"},"district":{"key":"03356","name":"Osterholz","type":"Landkreis"},"federalState":{"key":"03","name":"Niedersachsen"}},{"name":"Am Thiergarten","postalCode":"27726","locality":"Worpswede","municipality":{"key":"03356011","name":"Worpswede","type":"Kreisangehörige_Gemeinde"},"district":{"key":"03356","name":"Osterholz","type":"Landkreis"},"federalState":{"key":"03","name":"Niedersachsen"}},{"name":"An den Gleisen","postalCode":"27726","locality":"Worpswede","municipality":{"key":"03356011","name":"Worpswede","type":"Kreisangehörige_Gemeinde"},"district":{"key":"03356","name":"Osterholz","type":"Landkreis"},"federalState":{"key":"03","name":"Niedersachsen"}},{"name":"An der Bahn","postalCode":"27726","locality":"Worpswede","municipality":{"key":"03356011","name":"Worpswede","type":"Kreisangehörige_Gemeinde"},"district":{"key":"03356","name":"Osterholz","type":"Landkreis"},"federalState":{"key":"03","name":"Niedersachsen"}},{"name":"An der Kirche","postalCode":"27726","locality":"Worpswede","municipality":{"key":"03356011","name":"Worpswede","type":"Kreisangehörige_Gemeinde"},"district":{"key":"03356","name":"Osterholz","type":"Landkreis"},"federalState":{"key":"03","name":"Niedersachsen"}},{"name":"An der Mühle","postalCode":"27726","locality":"Worpswede","municipality":{"key":"03356011","name":"Worpswede","type":"Kreisangehörige_Gemeinde"},"district":{"key":"03356","name":"Osterholz","type":"Landkreis"},"federalState":{"key":"03","name":"Niedersachsen"}},{"name":"Auf den Bergen","postalCode":"27726","locality":"Worpswede","municipality":{"key":"03356011","name":"Worpswede","type":"Kreisangehörige_Gemeinde"},"district":{"key":"03356","name":"Osterholz","type":"Landkreis"},"federalState":{"key":"03","name":"Niedersachsen"}},{"name":"Auf der Dohnhorst","postalCode":"27726","locality":"Worpswede","municipality":{"key":"03356011","name":"Worpswede","type":"Kreisangehörige_Gemeinde"},"district":{"key":"03356","name":"Osterholz","type":"Landkreis"},"federalState":{"key":"03","name":"Niedersachsen"}},{"name":"Auf der Heidwende","postalCode":"27726","locality":"Worpswede","municipality":{"key":"03356011","name":"Worpswede","type":"Kreisangehörige_Gemeinde"},"district":{"key":"03356","name":"Osterholz","type":"Landkreis"},"federalState":{"key":"03","name":"Niedersachsen"}},{"name":"Auf der Wurth","postalCode":"27726","locality":"Worpswede","municipality":{"key":"03356011","name":"Worpswede","type":"Kreisangehörige_Gemeinde"},"district":{"key":"03356","name":"Osterholz","type":"Landkreis"},"federalState":{"key":"03","name":"Niedersachsen"}},{"name":"Bahnhofstr.","postalCode":"27726","locality":"Worpswede","municipality":{"key":"03356011","name":"Worpswede","type":"Kreisangehörige_Gemeinde"},"district":{"key":"03356","name":"Osterholz","type":"Landkreis"},"federalState":{"key":"03","name":"Niedersachsen"}},{"name":"Barkenweg","postalCode":"27726","locality":"Worpswede","municipality":{"key":"03356011","name":"Worpswede","type":"Kreisangehörige_Gemeinde"},"district":{"key":"03356","name":"Osterholz","type":"Landkreis"},"federalState":{"key":"03","name":"Niedersachsen"}},{"name":"Bauernreihe","postalCode":"27726","locality":"Worpswede","municipality":{"key":"03356011","name":"Worpswede","type":"Kreisangehörige_Gemeinde"},"district":{"key":"03356","name":"Osterholz","type":"Landkreis"},"federalState":{"key":"03","name":"Niedersachsen"}},{"name":"Bergedorfer Kirchdamm","postalCode":"27726","locality":"Worpswede","municipality":{"key":"03356011","name":"Worpswede","type":"Kreisangehörige_Gemeinde"},"district":{"key":"03356","name":"Osterholz","type":"Landkreis"},"federalState":{"key":"03","name":"Niedersachsen"}},{"name":"Bergedorfer Str.","postalCode":"27726","locality":"Worpswede","municipality":{"key":"03356011","name":"Worpswede","type":"Kreisangehörige_Gemeinde"},"district":{"key":"03356","name":"Osterholz","type":"Landkreis"},"federalState":{"key":"03","name":"Niedersachsen"}},{"name":"Bergedorfer Utdamm","postalCode":"27726","locality":"Worpswede","municipality":{"key":"03356011","name":"Worpswede","type":"Kreisangehörige_Gemeinde"},"district":{"key":"03356","name":"Osterholz","type":"Landkreis"},"federalState":{"key":"03","name":"Niedersachsen"}},{"name":"Bergstr.","postalCode":"27726","locality":"Worpswede","municipality":{"key":"03356011","name":"Worpswede","type":"Kreisangehörige_Gemeinde"},"district":{"key":"03356","name":"Osterholz","type":"Landkreis"},"federalState":{"key":"03","name":"Niedersachsen"}},{"name":"Bernhard-Huys-Ring","postalCode":"27726","locality":"Worpswede","municipality":{"key":"03356011","name":"Worpswede","type":"Kreisangehörige_Gemeinde"},"district":{"key":"03356","name":"Osterholz","type":"Landkreis"},"federalState":{"key":"03","name":"Niedersachsen"}},{"name":"Bernhard-Kaufmann-Weg","postalCode":"27726","locality":"Worpswede","municipality":{"key":"03356011","name":"Worpswede","type":"Kreisangehörige_Gemeinde"},"district":{"key":"03356","name":"Osterholz","type":"Landkreis"},"federalState":{"key":"03","name":"Niedersachsen"}},{"name":"Birkenstr.","postalCode":"27726","locality":"Worpswede","municipality":{"key":"03356011","name":"Worpswede","type":"Kreisangehörige_Gemeinde"},"district":{"key":"03356","name":"Osterholz","type":"Landkreis"},"federalState":{"key":"03","name":"Niedersachsen"}},{"name":"Birkenweg","postalCode":"27726","locality":"Worpswede","municipality":{"key":"03356011","name":"Worpswede","type":"Kreisangehörige_Gemeinde"},"district":{"key":"03356","name":"Osterholz","type":"Landkreis"},"federalState":{"key":"03","name":"Niedersachsen"}},{"name":"Bremer Landstr.","postalCode":"27726","locality":"Worpswede","municipality":{"key":"03356011","name":"Worpswede","type":"Kreisangehörige_Gemeinde"},"district":{"key":"03356","name":"Osterholz","type":"Landkreis"},"federalState":{"key":"03","name":"Niedersachsen"}},{"name":"Brunnenweg","postalCode":"27726","locality":"Worpswede","municipality":{"key":"03356011","name":"Worpswede","type":"Kreisangehörige_Gemeinde"},"district":{"key":"03356","name":"Osterholz","type":"Landkreis"},"federalState":{"key":"03","name":"Niedersachsen"}},{"name":"Buchenweg","postalCode":"27726","locality":"Worpswede","municipality":{"key":"03356011","name":"Worpswede","type":"Kreisangehörige_Gemeinde"},"district":{"key":"03356","name":"Osterholz","type":"Landkreis"},"federalState":{"key":"03","name":"Niedersachsen"}},{"name":"Carl-Vinnen-Weg","postalCode":"27726","locality":"Worpswede","municipality":{"key":"03356011","name":"Worpswede","type":"Kreisangehörige_Gemeinde"},"district":{"key":"03356","name":"Osterholz","type":"Landkreis"},"federalState":{"key":"03","name":"Niedersachsen"}},{"name":"Clara-Rilke-Westhoff-Weg","postalCode":"27726","locality":"Worpswede","municipality":{"key":"03356011","name":"Worpswede","type":"Kreisangehörige_Gemeinde"},"district":{"key":"03356","name":"Osterholz","type":"Landkreis"},"federalState":{"key":"03","name":"Niedersachsen"}},{"name":"Doktor-Ruth-Büttner-Weg","postalCode":"27726","locality":"Worpswede","municipality":{"key":"03356011","name":"Worpswede","type":"Kreisangehörige_Gemeinde"},"district":{"key":"03356","name":"Osterholz","type":"Landkreis"},"federalState":{"key":"03","name":"Niedersachsen"}},{"name":"Dorfstr.","postalCode":"27726","locality":"Worpswede","municipality":{"key":"03356011","name":"Worpswede","type":"Kreisangehörige_Gemeinde"},"district":{"key":"03356","name":"Osterholz","type":"Landkreis"},"federalState":{"key":"03","name":"Niedersachsen"}},{"name":"Eichenweg","postalCode":"27726","locality":"Worpswede","municipality":{"key":"03356011","name":"Worpswede","type":"Kreisangehörige_Gemeinde"},"district":{"key":"03356","name":"Osterholz","type":"Landkreis"},"federalState":{"key":"03","name":"Niedersachsen"}},{"name":"Ernst-Licht-Weg","postalCode":"27726","locality":"Worpswede","municipality":{"key":"03356011","name":"Worpswede","type":"Kreisangehörige_Gemeinde"},"district":{"key":"03356","name":"Osterholz","type":"Landkreis"},"federalState":{"key":"03","name":"Niedersachsen"}},{"name":"Eulenhof","postalCode":"27726","locality":"Worpswede","municipality":{"key":"03356011","name":"Worpswede","type":"Kreisangehörige_Gemeinde"},"district":{"key":"03356","name":"Osterholz","type":"Landkreis"},"federalState":{"key":"03","name":"Niedersachsen"}},{"name":"Fasanenweg","postalCode":"27726","locality":"Worpswede","municipality":{"key":"03356011","name":"Worpswede","type":"Kreisangehörige_Gemeinde"},"district":{"key":"03356","name":"Osterholz","type":"Landkreis"},"federalState":{"key":"03","name":"Niedersachsen"}},{"name":"Feldstr.","postalCode":"27726","locality":"Worpswede","municipality":{"key":"03356011","name":"Worpswede","type":"Kreisangehörige_Gemeinde"},"district":{"key":"03356","name":"Osterholz","type":"Landkreis"},"federalState":{"key":"03","name":"Niedersachsen"}},{"name":"Feldweg","postalCode":"27726","locality":"Worpswede","municipality":{"key":"03356011","name":"Worpswede","type":"Kreisangehörige_Gemeinde"},"district":{"key":"03356","name":"Osterholz","type":"Landkreis"},"federalState":{"key":"03","name":"Niedersachsen"}},{"name":"Fichtenweg","postalCode":"27726","locality":"Worpswede","municipality":{"key":"03356011","name":"Worpswede","type":"Kreisangehörige_Gemeinde"},"district":{"key":"03356","name":"Osterholz","type":"Landkreis"},"federalState":{"key":"03","name":"Niedersachsen"}},{"name":"Findorffstr.","postalCode":"27726","locality":"Worpswede","municipality":{"key":"03356011","name":"Worpswede","type":"Kreisangehörige_Gemeinde"},"district":{"key":"03356","name":"Osterholz","type":"Landkreis"},"federalState":{"key":"03","name":"Niedersachsen"}},{"name":"Friedensheimer Str.","postalCode":"27726","locality":"Worpswede","municipality":{"key":"03356011","name":"Worpswede","type":"Kreisangehörige_Gemeinde"},"district":{"key":"03356","name":"Osterholz","type":"Landkreis"},"federalState":{"key":"03","name":"Niedersachsen"}},{"name":"Friedhofstr.","postalCode":"27726","locality":"Worpswede","municipality":{"key":"03356011","name":"Worpswede","type":"Kreisangehörige_Gemeinde"},"district":{"key":"03356","name":"Osterholz","type":"Landkreis"},"federalState":{"key":"03","name":"Niedersachsen"}},{"name":"Fritz-Mackensen-Weg","postalCode":"27726","locality":"Worpswede","municipality":{"key":"03356011","name":"Worpswede","type":"Kreisangehörige_Gemeinde"},"district":{"key":"03356","name":"Osterholz","type":"Landkreis"},"federalState":{"key":"03","name":"Niedersachsen"}},{"name":"Fritz-Overbeck-Weg","postalCode":"27726","locality":"Worpswede","municipality":{"key":"03356011","name":"Worpswede","type":"Kreisangehörige_Gemeinde"},"district":{"key":"03356","name":"Osterholz","type":"Landkreis"},"federalState":{"key":"03","name":"Niedersachsen"}},{"name":"Fuhrenweg","postalCode":"27726","locality":"Worpswede","municipality":{"key":"03356011","name":"Worpswede","type":"Kreisangehörige_Gemeinde"},"district":{"key":"03356","name":"Osterholz","type":"Landkreis"},"federalState":{"key":"03","name":"Niedersachsen"}},{"name":"Fünfhausen","postalCode":"27726","locality":"Worpswede","municipality":{"key":"03356011","name":"Worpswede","type":"Kreisangehörige_Gemeinde"},"district":{"key":"03356","name":"Osterholz","type":"Landkreis"},"federalState":{"key":"03","name":"Niedersachsen"}},{"name":"Gartenweg","postalCode":"27726","locality":"Worpswede","municipality":{"key":"03356011","name":"Worpswede","type":"Kreisangehörige_Gemeinde"},"district":{"key":"03356","name":"Osterholz","type":"Landkreis"},"federalState":{"key":"03","name":"Niedersachsen"}},{"name":"Georg-Tappert-Weg","postalCode":"27726","locality":"Worpswede","municipality":{"key":"03356011","name":"Worpswede","type":"Kreisangehörige_Gemeinde"},"district":{"key":"03356","name":"Osterholz","type":"Landkreis"},"federalState":{"key":"03","name":"Niedersachsen"}},{"name":"Grüner Grund","postalCode":"27726","locality":"Worpswede","municipality":{"key":"03356011","name":"Worpswede","type":"Kreisangehörige_Gemeinde"},"district":{"key":"03356","name":"Osterholz","type":"Landkreis"},"federalState":{"key":"03","name":"Niedersachsen"}},{"name":"Hammeweg","postalCode":"27726","locality":"Worpswede","municipality":{"key":"03356011","name":"Worpswede","type":"Kreisangehörige_Gemeinde"},"district":{"key":"03356","name":"Osterholz","type":"Landkreis"},"federalState":{"key":"03","name":"Niedersachsen"}},{"name":"Hans-am-Ende-Weg","postalCode":"27726","locality":"Worpswede","municipality":{"key":"03356011","name":"Worpswede","type":"Kreisangehörige_Gemeinde"},"district":{"key":"03356","name":"Osterholz","type":"Landkreis"},"federalState":{"key":"03","name":"Niedersachsen"}},{"name":"Hansaweg","postalCode":"27726","locality":"Worpswede","municipality":{"key":"03356011","name":"Worpswede","type":"Kreisangehörige_Gemeinde"},"district":{"key":"03356","name":"Osterholz","type":"Landkreis"},"federalState":{"key":"03","name":"Niedersachsen"}},{"name":"Hans-Saebens-Weg","postalCode":"27726","locality":"Worpswede","municipality":{"key":"03356011","name":"Worpswede","type":"Kreisangehörige_Gemeinde"},"district":{"key":"03356","name":"Osterholz","type":"Landkreis"},"federalState":{"key":"03","name":"Niedersachsen"}},{"name":"Hasenweg","postalCode":"27726","locality":"Worpswede","municipality":{"key":"03356011","name":"Worpswede","type":"Kreisangehörige_Gemeinde"},"district":{"key":"03356","name":"Osterholz","type":"Landkreis"},"federalState":{"key":"03","name":"Niedersachsen"}},{"name":"Heckenweg","postalCode":"27726","locality":"Worpswede","municipality":{"key":"03356011","name":"Worpswede","type":"Kreisangehörige_Gemeinde"},"district":{"key":"03356","name":"Osterholz","type":"Landkreis"},"federalState":{"key":"03","name":"Niedersachsen"}},{"name":"Heideweg","postalCode":"27726","locality":"Worpswede","municipality":{"key":"03356011","name":"Worpswede","type":"Kreisangehörige_Gemeinde"},"district":{"key":"03356","name":"Osterholz","type":"Landkreis"},"federalState":{"key":"03","name":"Niedersachsen"}},{"name":"Heinrich-Vogeler-Weg","postalCode":"27726","locality":"Worpswede","municipality":{"key":"03356011","name":"Worpswede","type":"Kreisangehörige_Gemeinde"},"district":{"key":"03356","name":"Osterholz","type":"Landkreis"},"federalState":{"key":"03","name":"Niedersachsen"}},{"name":"Hembergstr.","postalCode":"27726","locality":"Worpswede","municipality":{"key":"03356011","name":"Worpswede","type":"Kreisangehörige_Gemeinde"},"district":{"key":"03356","name":"Osterholz","type":"Landkreis"},"federalState":{"key":"03","name":"Niedersachsen"}},{"name":"Heudamm","postalCode":"27726","locality":"Worpswede","municipality":{"key":"03356011","name":"Worpswede","type":"Kreisangehörige_Gemeinde"},"district":{"key":"03356","name":"Osterholz","type":"Landkreis"},"federalState":{"key":"03","name":"Niedersachsen"}},{"name":"Heudorfer Str.","postalCode":"27726","locality":"Worpswede","municipality":{"key":"03356011","name":"Worpswede","type":"Kreisangehörige_Gemeinde"},"district":{"key":"03356","name":"Osterholz","type":"Landkreis"},"federalState":{"key":"03","name":"Niedersachsen"}},{"name":"Hinter den Eichen","postalCode":"27726","locality":"Worpswede","municipality":{"key":"03356011","name":"Worpswede","type":"Kreisangehörige_Gemeinde"},"district":{"key":"03356","name":"Osterholz","type":"Landkreis"},"federalState":{"key":"03","name":"Niedersachsen"}},{"name":"Hinter der Mühle","postalCode":"27726","locality":"Worpswede","municipality":{"key":"03356011","name":"Worpswede","type":"Kreisangehörige_Gemeinde"},"district":{"key":"03356","name":"Osterholz","type":"Landkreis"},"federalState":{"key":"03","name":"Niedersachsen"}},{"name":"Hinterm Berg","postalCode":"27726","locality":"Worpswede","municipality":{"key":"03356011","name":"Worpswede","type":"Kreisangehörige_Gemeinde"},"district":{"key":"03356","name":"Osterholz","type":"Landkreis"},"federalState":{"key":"03","name":"Niedersachsen"}},{"name":"Hörenberg","postalCode":"27726","locality":"Worpswede","municipality":{"key":"03356011","name":"Worpswede","type":"Kreisangehörige_Gemeinde"},"district":{"key":"03356","name":"Osterholz","type":"Landkreis"},"federalState":{"key":"03","name":"Niedersachsen"}},{"name":"Hüttenbuscher Str.","postalCode":"27726","locality":"Worpswede","municipality":{"key":"03356011","name":"Worpswede","type":"Kreisangehörige_Gemeinde"},"district":{"key":"03356","name":"Osterholz","type":"Landkreis"},"federalState":{"key":"03","name":"Niedersachsen"}},{"name":"Hüttenbuscher Trift","postalCode":"27726","locality":"Worpswede","municipality":{"key":"03356011","name":"Worpswede","type":"Kreisangehörige_Gemeinde"},"district":{"key":"03356","name":"Osterholz","type":"Landkreis"},"federalState":{"key":"03","name":"Niedersachsen"}},{"name":"Hüttendamm","postalCode":"27726","locality":"Worpswede","municipality":{"key":"03356011","name":"Worpswede","type":"Kreisangehörige_Gemeinde"},"district":{"key":"03356","name":"Osterholz","type":"Landkreis"},"federalState":{"key":"03","name":"Niedersachsen"}},{"name":"Hüttendorfer Str.","postalCode":"27726","locality":"Worpswede","municipality":{"key":"03356011","name":"Worpswede","type":"Kreisangehörige_Gemeinde"},"district":{"key":"03356","name":"Osterholz","type":"Landkreis"},"federalState":{"key":"03","name":"Niedersachsen"}},{"name":"Im Brande","postalCode":"27726","locality":"Worpswede","municipality":{"key":"03356011","name":"Worpswede","type":"Kreisangehörige_Gemeinde"},"district":{"key":"03356","name":"Osterholz","type":"Landkreis"},"federalState":{"key":"03","name":"Niedersachsen"}},{"name":"Im Luck","postalCode":"27726","locality":"Worpswede","municipality":{"key":"03356011","name":"Worpswede","type":"Kreisangehörige_Gemeinde"},"district":{"key":"03356","name":"Osterholz","type":"Landkreis"},"federalState":{"key":"03","name":"Niedersachsen"}},{"name":"Im Schluh","postalCode":"27726","locality":"Worpswede","municipality":{"key":"03356011","name":"Worpswede","type":"Kreisangehörige_Gemeinde"},"district":{"key":"03356","name":"Osterholz","type":"Landkreis"},"federalState":{"key":"03","name":"Niedersachsen"}},{"name":"Im Stillen Frieden","postalCode":"27726","locality":"Worpswede","municipality":{"key":"03356011","name":"Worpswede","type":"Kreisangehörige_Gemeinde"},"district":{"key":"03356","name":"Osterholz","type":"Landkreis"},"federalState":{"key":"03","name":"Niedersachsen"}},{"name":"Im Wiesengrund","postalCode":"27726","locality":"Worpswede","municipality":{"key":"03356011","name":"Worpswede","type":"Kreisangehörige_Gemeinde"},"district":{"key":"03356","name":"Osterholz","type":"Landkreis"},"federalState":{"key":"03","name":"Niedersachsen"}},{"name":"Im Wrockmoor","postalCode":"27726","locality":"Worpswede","municipality":{"key":"03356011","name":"Worpswede","type":"Kreisangehörige_Gemeinde"},"district":{"key":"03356","name":"Osterholz","type":"Landkreis"},"federalState":{"key":"03","name":"Niedersachsen"}},{"name":"In de Wischen","postalCode":"27726","locality":"Worpswede","municipality":{"key":"03356011","name":"Worpswede","type":"Kreisangehörige_Gemeinde"},"district":{"key":"03356","name":"Osterholz","type":"Landkreis"},"federalState":{"key":"03","name":"Niedersachsen"}},{"name":"Jungfernstieg","postalCode":"27726","locality":"Worpswede","municipality":{"key":"03356011","name":"Worpswede","type":"Kreisangehörige_Gemeinde"},"district":{"key":"03356","name":"Osterholz","type":"Landkreis"},"federalState":{"key":"03","name":"Niedersachsen"}},{"name":"Kantstr.","postalCode":"27726","locality":"Worpswede","municipality":{"key":"03356011","name":"Worpswede","type":"Kreisangehörige_Gemeinde"},"district":{"key":"03356","name":"Osterholz","type":"Landkreis"},"federalState":{"key":"03","name":"Niedersachsen"}},{"name":"Karl-Arste-Weg","postalCode":"27726","locality":"Worpswede","municipality":{"key":"03356011","name":"Worpswede","type":"Kreisangehörige_Gemeinde"},"district":{"key":"03356","name":"Osterholz","type":"Landkreis"},"federalState":{"key":"03","name":"Niedersachsen"}},{"name":"Kattenpad","postalCode":"27726","locality":"Worpswede","municipality":{"key":"03356011","name":"Worpswede","type":"Kreisangehörige_Gemeinde"},"district":{"key":"03356","name":"Osterholz","type":"Landkreis"},"federalState":{"key":"03","name":"Niedersachsen"}},{"name":"Keildamm","postalCode":"27726","locality":"Worpswede","municipality":{"key":"03356011","name":"Worpswede","type":"Kreisangehörige_Gemeinde"},"district":{"key":"03356","name":"Osterholz","type":"Landkreis"},"federalState":{"key":"03","name":"Niedersachsen"}},{"name":"Kirchdamm","postalCode":"27726","locality":"Worpswede","municipality":{"key":"03356011","name":"Worpswede","type":"Kreisangehörige_Gemeinde"},"district":{"key":"03356","name":"Osterholz","type":"Landkreis"},"federalState":{"key":"03","name":"Niedersachsen"}},{"name":"Kornstr.","postalCode":"27726","locality":"Worpswede","municipality":{"key":"03356011","name":"Worpswede","type":"Kreisangehörige_Gemeinde"},"district":{"key":"03356","name":"Osterholz","type":"Landkreis"},"federalState":{"key":"03","name":"Niedersachsen"}},{"name":"Lindenallee","postalCode":"27726","locality":"Worpswede","municipality":{"key":"03356011","name":"Worpswede","type":"Kreisangehörige_Gemeinde"},"district":{"key":"03356","name":"Osterholz","type":"Landkreis"},"federalState":{"key":"03","name":"Niedersachsen"}},{"name":"Lindnerstr.","postalCode":"27726","locality":"Worpswede","municipality":{"key":"03356011","name":"Worpswede","type":"Kreisangehörige_Gemeinde"},"district":{"key":"03356","name":"Osterholz","type":"Landkreis"},"federalState":{"key":"03","name":"Niedersachsen"}},{"name":"Lisel-Oppel-Weg","postalCode":"27726","locality":"Worpswede","municipality":{"key":"03356011","name":"Worpswede","type":"Kreisangehörige_Gemeinde"},"district":{"key":"03356","name":"Osterholz","type":"Landkreis"},"federalState":{"key":"03","name":"Niedersachsen"}},{"name":"Manfred-Hausmann-Weg","postalCode":"27726","locality":"Worpswede","municipality":{"key":"03356011","name":"Worpswede","type":"Kreisangehörige_Gemeinde"},"district":{"key":"03356","name":"Osterholz","type":"Landkreis"},"federalState":{"key":"03","name":"Niedersachsen"}},{"name":"Martha-Vogeler-Str.","postalCode":"27726","locality":"Worpswede","municipality":{"key":"03356011","name":"Worpswede","type":"Kreisangehörige_Gemeinde"},"district":{"key":"03356","name":"Osterholz","type":"Landkreis"},"federalState":{"key":"03","name":"Niedersachsen"}},{"name":"Martin-Goldyga-Weg","postalCode":"27726","locality":"Worpswede","municipality":{"key":"03356011","name":"Worpswede","type":"Kreisangehörige_Gemeinde"},"district":{"key":"03356","name":"Osterholz","type":"Landkreis"},"federalState":{"key":"03","name":"Niedersachsen"}},{"name":"Mevenstedter Str.","postalCode":"27726","locality":"Worpswede","municipality":{"key":"03356011","name":"Worpswede","type":"Kreisangehörige_Gemeinde"},"district":{"key":"03356","name":"Osterholz","type":"Landkreis"},"federalState":{"key":"03","name":"Niedersachsen"}},{"name":"Neu-Bergedorfer Damm","postalCode":"27726","locality":"Worpswede","municipality":{"key":"03356011","name":"Worpswede","type":"Kreisangehörige_Gemeinde"},"district":{"key":"03356","name":"Osterholz","type":"Landkreis"},"federalState":{"key":"03","name":"Niedersachsen"}},{"name":"Neu Osterweder Str.","postalCode":"27726","locality":"Worpswede","municipality":{"key":"03356011","name":"Worpswede","type":"Kreisangehörige_Gemeinde"},"district":{"key":"03356","name":"Osterholz","type":"Landkreis"},"federalState":{"key":"03","name":"Niedersachsen"}},{"name":"Neu St. Jürgener Str.","postalCode":"27726","locality":"Worpswede","municipality":{"key":"03356011","name":"Worpswede","type":"Kreisangehörige_Gemeinde"},"district":{"key":"03356","name":"Osterholz","type":"Landkreis"},"federalState":{"key":"03","name":"Niedersachsen"}},{"name":"Nordsoder Str.","postalCode":"27726","locality":"Worpswede","municipality":{"key":"03356011","name":"Worpswede","type":"Kreisangehörige_Gemeinde"},"district":{"key":"03356","name":"Osterholz","type":"Landkreis"},"federalState":{"key":"03","name":"Niedersachsen"}},{"name":"Nordweder Str.","postalCode":"27726","locality":"Worpswede","municipality":{"key":"03356011","name":"Worpswede","type":"Kreisangehörige_Gemeinde"},"district":{"key":"03356","name":"Osterholz","type":"Landkreis"},"federalState":{"key":"03","name":"Niedersachsen"}},{"name":"Ostendorfer Str.","postalCode":"27726","locality":"Worpswede","municipality":{"key":"03356011","name":"Worpswede","type":"Kreisangehörige_Gemeinde"},"district":{"key":"03356","name":"Osterholz","type":"Landkreis"},"federalState":{"key":"03","name":"Niedersachsen"}},{"name":"Ostendorfer Utdamm","postalCode":"27726","locality":"Worpswede","municipality":{"key":"03356011","name":"Worpswede","type":"Kreisangehörige_Gemeinde"},"district":{"key":"03356","name":"Osterholz","type":"Landkreis"},"federalState":{"key":"03","name":"Niedersachsen"}},{"name":"Osterholzer Str.","postalCode":"27726","locality":"Worpswede","municipality":{"key":"03356011","name":"Worpswede","type":"Kreisangehörige_Gemeinde"},"district":{"key":"03356","name":"Osterholz","type":"Landkreis"},"federalState":{"key":"03","name":"Niedersachsen"}},{"name":"Ostersoder Str.","postalCode":"27726","locality":"Worpswede","municipality":{"key":"03356011","name":"Worpswede","type":"Kreisangehörige_Gemeinde"},"district":{"key":"03356","name":"Osterholz","type":"Landkreis"},"federalState":{"key":"03","name":"Niedersachsen"}},{"name":"Osterweder Str.","postalCode":"27726","locality":"Worpswede","municipality":{"key":"03356011","name":"Worpswede","type":"Kreisangehörige_Gemeinde"},"district":{"key":"03356","name":"Osterholz","type":"Landkreis"},"federalState":{"key":"03","name":"Niedersachsen"}},{"name":"Otto-Meier-Weg","postalCode":"27726","locality":"Worpswede","municipality":{"key":"03356011","name":"Worpswede","type":"Kreisangehörige_Gemeinde"},"district":{"key":"03356","name":"Osterholz","type":"Landkreis"},"federalState":{"key":"03","name":"Niedersachsen"}},{"name":"Otto-Modersohn-Weg","postalCode":"27726","locality":"Worpswede","municipality":{"key":"03356011","name":"Worpswede","type":"Kreisangehörige_Gemeinde"},"district":{"key":"03356","name":"Osterholz","type":"Landkreis"},"federalState":{"key":"03","name":"Niedersachsen"}},{"name":"Paula-Modersohn-Becker-Weg","postalCode":"27726","locality":"Worpswede","municipality":{"key":"03356011","name":"Worpswede","type":"Kreisangehörige_Gemeinde"},"district":{"key":"03356","name":"Osterholz","type":"Landkreis"},"federalState":{"key":"03","name":"Niedersachsen"}},{"name":"Querweg","postalCode":"27726","locality":"Worpswede","municipality":{"key":"03356011","name":"Worpswede","type":"Kreisangehörige_Gemeinde"},"district":{"key":"03356","name":"Osterholz","type":"Landkreis"},"federalState":{"key":"03","name":"Niedersachsen"}},{"name":"Rabienstr.","postalCode":"27726","locality":"Worpswede","municipality":{"key":"03356011","name":"Worpswede","type":"Kreisangehörige_Gemeinde"},"district":{"key":"03356","name":"Osterholz","type":"Landkreis"},"federalState":{"key":"03","name":"Niedersachsen"}},{"name":"Richard-Oelze-Ring","postalCode":"27726","locality":"Worpswede","municipality":{"key":"03356011","name":"Worpswede","type":"Kreisangehörige_Gemeinde"},"district":{"key":"03356","name":"Osterholz","type":"Landkreis"},"federalState":{"key":"03","name":"Niedersachsen"}},{"name":"Rilkeweg","postalCode":"27726","locality":"Worpswede","municipality":{"key":"03356011","name":"Worpswede","type":"Kreisangehörige_Gemeinde"},"district":{"key":"03356","name":"Osterholz","type":"Landkreis"},"federalState":{"key":"03","name":"Niedersachsen"}},{"name":"Rosa-Abraham-Platz","postalCode":"27726","locality":"Worpswede","municipality":{"key":"03356011","name":"Worpswede","type":"Kreisangehörige_Gemeinde"},"district":{"key":"03356","name":"Osterholz","type":"Landkreis"},"federalState":{"key":"03","name":"Niedersachsen"}},{"name":"Sanddamm","postalCode":"27726","locality":"Worpswede","municipality":{"key":"03356011","name":"Worpswede","type":"Kreisangehörige_Gemeinde"},"district":{"key":"03356","name":"Osterholz","type":"Landkreis"},"federalState":{"key":"03","name":"Niedersachsen"}},{"name":"Schlußdorfer Str.","postalCode":"27726","locality":"Worpswede","municipality":{"key":"03356011","name":"Worpswede","type":"Kreisangehörige_Gemeinde"},"district":{"key":"03356","name":"Osterholz","type":"Landkreis"},"federalState":{"key":"03","name":"Niedersachsen"}},{"name":"Schomakerweg","postalCode":"27726","locality":"Worpswede","municipality":{"key":"03356011","name":"Worpswede","type":"Kreisangehörige_Gemeinde"},"district":{"key":"03356","name":"Osterholz","type":"Landkreis"},"federalState":{"key":"03","name":"Niedersachsen"}},{"name":"Schwarzer Weg","postalCode":"27726","locality":"Worpswede","municipality":{"key":"03356011","name":"Worpswede","type":"Kreisangehörige_Gemeinde"},"district":{"key":"03356","name":"Osterholz","type":"Landkreis"},"federalState":{"key":"03","name":"Niedersachsen"}},{"name":"Sophie-Bötjer-Weg","postalCode":"27726","locality":"Worpswede","municipality":{"key":"03356011","name":"Worpswede","type":"Kreisangehörige_Gemeinde"},"district":{"key":"03356","name":"Osterholz","type":"Landkreis"},"federalState":{"key":"03","name":"Niedersachsen"}},{"name":"Sophie-Scholl-Weg","postalCode":"27726","locality":"Worpswede","municipality":{"key":"03356011","name":"Worpswede","type":"Kreisangehörige_Gemeinde"},"district":{"key":"03356","name":"Osterholz","type":"Landkreis"},"federalState":{"key":"03","name":"Niedersachsen"}},{"name":"Stichweg","postalCode":"27726","locality":"Worpswede","municipality":{"key":"03356011","name":"Worpswede","type":"Kreisangehörige_Gemeinde"},"district":{"key":"03356","name":"Osterholz","type":"Landkreis"},"federalState":{"key":"03","name":"Niedersachsen"}},{"name":"Stoltes Weg","postalCode":"27726","locality":"Worpswede","municipality":{"key":"03356011","name":"Worpswede","type":"Kreisangehörige_Gemeinde"},"district":{"key":"03356","name":"Osterholz","type":"Landkreis"},"federalState":{"key":"03","name":"Niedersachsen"}},{"name":"Str.ntor","postalCode":"27726","locality":"Worpswede","municipality":{"key":"03356011","name":"Worpswede","type":"Kreisangehörige_Gemeinde"},"district":{"key":"03356","name":"Osterholz","type":"Landkreis"},"federalState":{"key":"03","name":"Niedersachsen"}},{"name":"Susenbarg","postalCode":"27726","locality":"Worpswede","municipality":{"key":"03356011","name":"Worpswede","type":"Kreisangehörige_Gemeinde"},"district":{"key":"03356","name":"Osterholz","type":"Landkreis"},"federalState":{"key":"03","name":"Niedersachsen"}},{"name":"Tannenweg","postalCode":"27726","locality":"Worpswede","municipality":{"key":"03356011","name":"Worpswede","type":"Kreisangehörige_Gemeinde"},"district":{"key":"03356","name":"Osterholz","type":"Landkreis"},"federalState":{"key":"03","name":"Niedersachsen"}},{"name":"Teufelsmoorstr.","postalCode":"27726","locality":"Worpswede","municipality":{"key":"03356011","name":"Worpswede","type":"Kreisangehörige_Gemeinde"},"district":{"key":"03356","name":"Osterholz","type":"Landkreis"},"federalState":{"key":"03","name":"Niedersachsen"}},{"name":"Tietjenstr.","postalCode":"27726","locality":"Worpswede","municipality":{"key":"03356011","name":"Worpswede","type":"Kreisangehörige_Gemeinde"},"district":{"key":"03356","name":"Osterholz","type":"Landkreis"},"federalState":{"key":"03","name":"Niedersachsen"}},{"name":"Totenweg","postalCode":"27726","locality":"Worpswede","municipality":{"key":"03356011","name":"Worpswede","type":"Kreisangehörige_Gemeinde"},"district":{"key":"03356","name":"Osterholz","type":"Landkreis"},"federalState":{"key":"03","name":"Niedersachsen"}},{"name":"Udo-Peters-Weg","postalCode":"27726","locality":"Worpswede","municipality":{"key":"03356011","name":"Worpswede","type":"Kreisangehörige_Gemeinde"},"district":{"key":"03356","name":"Osterholz","type":"Landkreis"},"federalState":{"key":"03","name":"Niedersachsen"}},{"name":"Umbeckweg","postalCode":"27726","locality":"Worpswede","municipality":{"key":"03356011","name":"Worpswede","type":"Kreisangehörige_Gemeinde"},"district":{"key":"03356","name":"Osterholz","type":"Landkreis"},"federalState":{"key":"03","name":"Niedersachsen"}},{"name":"Viehlander Str.","postalCode":"27726","locality":"Worpswede","municipality":{"key":"03356011","name":"Worpswede","type":"Kreisangehörige_Gemeinde"},"district":{"key":"03356","name":"Osterholz","type":"Landkreis"},"federalState":{"key":"03","name":"Niedersachsen"}},{"name":"Vor den Pferdeweiden","postalCode":"27726","locality":"Worpswede","municipality":{"key":"03356011","name":"Worpswede","type":"Kreisangehörige_Gemeinde"},"district":{"key":"03356","name":"Osterholz","type":"Landkreis"},"federalState":{"key":"03","name":"Niedersachsen"}},{"name":"Vor Weyerdeelen","postalCode":"27726","locality":"Worpswede","municipality":{"key":"03356011","name":"Worpswede","type":"Kreisangehörige_Gemeinde"},"district":{"key":"03356","name":"Osterholz","type":"Landkreis"},"federalState":{"key":"03","name":"Niedersachsen"}},{"name":"Waakhauser Str.","postalCode":"27726","locality":"Worpswede","municipality":{"key":"03356011","name":"Worpswede","type":"Kreisangehörige_Gemeinde"},"district":{"key":"03356","name":"Osterholz","type":"Landkreis"},"federalState":{"key":"03","name":"Niedersachsen"}},{"name":"Weidedamm","postalCode":"27726","locality":"Worpswede","municipality":{"key":"03356011","name":"Worpswede","type":"Kreisangehörige_Gemeinde"},"district":{"key":"03356","name":"Osterholz","type":"Landkreis"},"federalState":{"key":"03","name":"Niedersachsen"}},{"name":"Westerweder Str.","postalCode":"27726","locality":"Worpswede","municipality":{"key":"03356011","name":"Worpswede","type":"Kreisangehörige_Gemeinde"},"district":{"key":"03356","name":"Osterholz","type":"Landkreis"},"federalState":{"key":"03","name":"Niedersachsen"}},{"name":"Weyermoorer Str.","postalCode":"27726","locality":"Worpswede","municipality":{"key":"03356011","name":"Worpswede","type":"Kreisangehörige_Gemeinde"},"district":{"key":"03356","name":"Osterholz","type":"Landkreis"},"federalState":{"key":"03","name":"Niedersachsen"}},{"name":"Wilhelm-Scharrelmann-Weg","postalCode":"27726","locality":"Worpswede","municipality":{"key":"03356011","name":"Worpswede","type":"Kreisangehörige_Gemeinde"},"district":{"key":"03356","name":"Osterholz","type":"Landkreis"},"federalState":{"key":"03","name":"Niedersachsen"}},{"name":"Willi-Dammasch-Weg","postalCode":"27726","locality":"Worpswede","municipality":{"key":"03356011","name":"Worpswede","type":"Kreisangehörige_Gemeinde"},"district":{"key":"03356","name":"Osterholz","type":"Landkreis"},"federalState":{"key":"03","name":"Niedersachsen"}},{"name":"Willi-Ohler-Weg","postalCode":"27726","locality":"Worpswede","municipality":{"key":"03356011","name":"Worpswede","type":"Kreisangehörige_Gemeinde"},"district":{"key":"03356","name":"Osterholz","type":"Landkreis"},"federalState":{"key":"03","name":"Niedersachsen"}},{"name":"Wörpedahler Str.","postalCode":"27726","locality":"Worpswede","municipality":{"key":"03356011","name":"Worpswede","type":"Kreisangehörige_Gemeinde"},"district":{"key":"03356","name":"Osterholz","type":"Landkreis"},"federalState":{"key":"03","name":"Niedersachsen"}},{"name":"Worphauser Landstr.","postalCode":"27726","locality":"Worpswede","municipality":{"key":"03356011","name":"Worpswede","type":"Kreisangehörige_Gemeinde"},"district":{"key":"03356","name":"Osterholz","type":"Landkreis"},"federalState":{"key":"03","name":"Niedersachsen"}},{"name":"Worpheimer Str.","postalCode":"27726","locality":"Worpswede","municipality":{"key":"03356011","name":"Worpswede","type":"Kreisangehörige_Gemeinde"},"district":{"key":"03356","name":"Osterholz","type":"Landkreis"},"federalState":{"key":"03","name":"Niedersachsen"}},{"name":"Zum Rundesahl","postalCode":"27726","locality":"Worpswede","municipality":{"key":"03356011","name":"Worpswede","type":"Kreisangehörige_Gemeinde"},"district":{"key":"03356","name":"Osterholz","type":"Landkreis"},"federalState":{"key":"03","name":"Niedersachsen"}},]