[{"name":"Ahornstr.","postalCode":"47929","locality":"Grefrath","municipality":{"key":"05166008","name":"Grefrath, Sport- und Freizeitgemeinde","type":"Kreisangehörige_Gemeinde"},"district":{"key":"05166","name":"Viersen","type":"Kreis"},"federalState":{"key":"05","name":"Nordrhein-Westfalen"}},{"name":"Albert-Mertes-Str.","postalCode":"47929","locality":"Grefrath","municipality":{"key":"05166008","name":"Grefrath, Sport- und Freizeitgemeinde","type":"Kreisangehörige_Gemeinde"},"district":{"key":"05166","name":"Viersen","type":"Kreis"},"federalState":{"key":"05","name":"Nordrhein-Westfalen"}},{"name":"Albert-Mooren-Allee","postalCode":"47929","locality":"Grefrath","municipality":{"key":"05166008","name":"Grefrath, Sport- und Freizeitgemeinde","type":"Kreisangehörige_Gemeinde"},"district":{"key":"05166","name":"Viersen","type":"Kreis"},"federalState":{"key":"05","name":"Nordrhein-Westfalen"}},{"name":"Am Alten Friedhof","postalCode":"47929","locality":"Grefrath","municipality":{"key":"05166008","name":"Grefrath, Sport- und Freizeitgemeinde","type":"Kreisangehörige_Gemeinde"},"district":{"key":"05166","name":"Viersen","type":"Kreis"},"federalState":{"key":"05","name":"Nordrhein-Westfalen"}},{"name":"Am Alten Wasserwerk","postalCode":"47929","locality":"Grefrath","municipality":{"key":"05166008","name":"Grefrath, Sport- und Freizeitgemeinde","type":"Kreisangehörige_Gemeinde"},"district":{"key":"05166","name":"Viersen","type":"Kreis"},"federalState":{"key":"05","name":"Nordrhein-Westfalen"}},{"name":"Am Bist","postalCode":"47929","locality":"Grefrath","municipality":{"key":"05166008","name":"Grefrath, Sport- und Freizeitgemeinde","type":"Kreisangehörige_Gemeinde"},"district":{"key":"05166","name":"Viersen","type":"Kreis"},"federalState":{"key":"05","name":"Nordrhein-Westfalen"}},{"name":"Am Dorstenberg","postalCode":"47929","locality":"Grefrath","municipality":{"key":"05166008","name":"Grefrath, Sport- und Freizeitgemeinde","type":"Kreisangehörige_Gemeinde"},"district":{"key":"05166","name":"Viersen","type":"Kreis"},"federalState":{"key":"05","name":"Nordrhein-Westfalen"}},{"name":"Am Gröningskreuz","postalCode":"47929","locality":"Grefrath","municipality":{"key":"05166008","name":"Grefrath, Sport- und Freizeitgemeinde","type":"Kreisangehörige_Gemeinde"},"district":{"key":"05166","name":"Viersen","type":"Kreis"},"federalState":{"key":"05","name":"Nordrhein-Westfalen"}},{"name":"Am Haspel","postalCode":"47929","locality":"Grefrath","municipality":{"key":"05166008","name":"Grefrath, Sport- und Freizeitgemeinde","type":"Kreisangehörige_Gemeinde"},"district":{"key":"05166","name":"Viersen","type":"Kreis"},"federalState":{"key":"05","name":"Nordrhein-Westfalen"}},{"name":"Am Kettfaden","postalCode":"47929","locality":"Grefrath","municipality":{"key":"05166008","name":"Grefrath, Sport- und Freizeitgemeinde","type":"Kreisangehörige_Gemeinde"},"district":{"key":"05166","name":"Viersen","type":"Kreis"},"federalState":{"key":"05","name":"Nordrhein-Westfalen"}},{"name":"Am Kollerberg","postalCode":"47929","locality":"Grefrath","municipality":{"key":"05166008","name":"Grefrath, Sport- und Freizeitgemeinde","type":"Kreisangehörige_Gemeinde"},"district":{"key":"05166","name":"Viersen","type":"Kreis"},"federalState":{"key":"05","name":"Nordrhein-Westfalen"}},{"name":"Am Kreuz","postalCode":"47929","locality":"Grefrath","municipality":{"key":"05166008","name":"Grefrath, Sport- und Freizeitgemeinde","type":"Kreisangehörige_Gemeinde"},"district":{"key":"05166","name":"Viersen","type":"Kreis"},"federalState":{"key":"05","name":"Nordrhein-Westfalen"}},{"name":"Am Polfaden","postalCode":"47929","locality":"Grefrath","municipality":{"key":"05166008","name":"Grefrath, Sport- und Freizeitgemeinde","type":"Kreisangehörige_Gemeinde"},"district":{"key":"05166","name":"Viersen","type":"Kreis"},"federalState":{"key":"05","name":"Nordrhein-Westfalen"}},{"name":"Am Reinersbach","postalCode":"47929","locality":"Grefrath","municipality":{"key":"05166008","name":"Grefrath, Sport- und Freizeitgemeinde","type":"Kreisangehörige_Gemeinde"},"district":{"key":"05166","name":"Viersen","type":"Kreis"},"federalState":{"key":"05","name":"Nordrhein-Westfalen"}},{"name":"Am Riet","postalCode":"47929","locality":"Grefrath","municipality":{"key":"05166008","name":"Grefrath, Sport- und Freizeitgemeinde","type":"Kreisangehörige_Gemeinde"},"district":{"key":"05166","name":"Viersen","type":"Kreis"},"federalState":{"key":"05","name":"Nordrhein-Westfalen"}},{"name":"Am Schattenbek","postalCode":"47929","locality":"Grefrath","municipality":{"key":"05166008","name":"Grefrath, Sport- und Freizeitgemeinde","type":"Kreisangehörige_Gemeinde"},"district":{"key":"05166","name":"Viersen","type":"Kreis"},"federalState":{"key":"05","name":"Nordrhein-Westfalen"}},{"name":"Am Schwarzen Graben","postalCode":"47929","locality":"Grefrath","municipality":{"key":"05166008","name":"Grefrath, Sport- und Freizeitgemeinde","type":"Kreisangehörige_Gemeinde"},"district":{"key":"05166","name":"Viersen","type":"Kreis"},"federalState":{"key":"05","name":"Nordrhein-Westfalen"}},{"name":"Amselstr.","postalCode":"47929","locality":"Grefrath","municipality":{"key":"05166008","name":"Grefrath, Sport- und Freizeitgemeinde","type":"Kreisangehörige_Gemeinde"},"district":{"key":"05166","name":"Viersen","type":"Kreis"},"federalState":{"key":"05","name":"Nordrhein-Westfalen"}},{"name":"Am Waldrand","postalCode":"47929","locality":"Grefrath","municipality":{"key":"05166008","name":"Grefrath, Sport- und Freizeitgemeinde","type":"Kreisangehörige_Gemeinde"},"district":{"key":"05166","name":"Viersen","type":"Kreis"},"federalState":{"key":"05","name":"Nordrhein-Westfalen"}},{"name":"Am Weidenbusch","postalCode":"47929","locality":"Grefrath","municipality":{"key":"05166008","name":"Grefrath, Sport- und Freizeitgemeinde","type":"Kreisangehörige_Gemeinde"},"district":{"key":"05166","name":"Viersen","type":"Kreis"},"federalState":{"key":"05","name":"Nordrhein-Westfalen"}},{"name":"Am Wemken","postalCode":"47929","locality":"Grefrath","municipality":{"key":"05166008","name":"Grefrath, Sport- und Freizeitgemeinde","type":"Kreisangehörige_Gemeinde"},"district":{"key":"05166","name":"Viersen","type":"Kreis"},"federalState":{"key":"05","name":"Nordrhein-Westfalen"}},{"name":"An der Dorenburg","postalCode":"47929","locality":"Grefrath","municipality":{"key":"05166008","name":"Grefrath, Sport- und Freizeitgemeinde","type":"Kreisangehörige_Gemeinde"},"district":{"key":"05166","name":"Viersen","type":"Kreis"},"federalState":{"key":"05","name":"Nordrhein-Westfalen"}},{"name":"An der Evgl. Kirche","postalCode":"47929","locality":"Grefrath","municipality":{"key":"05166008","name":"Grefrath, Sport- und Freizeitgemeinde","type":"Kreisangehörige_Gemeinde"},"district":{"key":"05166","name":"Viersen","type":"Kreis"},"federalState":{"key":"05","name":"Nordrhein-Westfalen"}},{"name":"An der Floeth","postalCode":"47929","locality":"Grefrath","municipality":{"key":"05166008","name":"Grefrath, Sport- und Freizeitgemeinde","type":"Kreisangehörige_Gemeinde"},"district":{"key":"05166","name":"Viersen","type":"Kreis"},"federalState":{"key":"05","name":"Nordrhein-Westfalen"}},{"name":"An der Kleinbahn","postalCode":"47929","locality":"Grefrath","municipality":{"key":"05166008","name":"Grefrath, Sport- und Freizeitgemeinde","type":"Kreisangehörige_Gemeinde"},"district":{"key":"05166","name":"Viersen","type":"Kreis"},"federalState":{"key":"05","name":"Nordrhein-Westfalen"}},{"name":"An der Marienschule","postalCode":"47929","locality":"Grefrath","municipality":{"key":"05166008","name":"Grefrath, Sport- und Freizeitgemeinde","type":"Kreisangehörige_Gemeinde"},"district":{"key":"05166","name":"Viersen","type":"Kreis"},"federalState":{"key":"05","name":"Nordrhein-Westfalen"}},{"name":"An der Niers","postalCode":"47929","locality":"Grefrath","municipality":{"key":"05166008","name":"Grefrath, Sport- und Freizeitgemeinde","type":"Kreisangehörige_Gemeinde"},"district":{"key":"05166","name":"Viersen","type":"Kreis"},"federalState":{"key":"05","name":"Nordrhein-Westfalen"}},{"name":"An der Paas","postalCode":"47929","locality":"Grefrath","municipality":{"key":"05166008","name":"Grefrath, Sport- und Freizeitgemeinde","type":"Kreisangehörige_Gemeinde"},"district":{"key":"05166","name":"Viersen","type":"Kreis"},"federalState":{"key":"05","name":"Nordrhein-Westfalen"}},{"name":"An der Plüschweberei","postalCode":"47929","locality":"Grefrath","municipality":{"key":"05166008","name":"Grefrath, Sport- und Freizeitgemeinde","type":"Kreisangehörige_Gemeinde"},"district":{"key":"05166","name":"Viersen","type":"Kreis"},"federalState":{"key":"05","name":"Nordrhein-Westfalen"}},{"name":"An der Schanz","postalCode":"47929","locality":"Grefrath","municipality":{"key":"05166008","name":"Grefrath, Sport- und Freizeitgemeinde","type":"Kreisangehörige_Gemeinde"},"district":{"key":"05166","name":"Viersen","type":"Kreis"},"federalState":{"key":"05","name":"Nordrhein-Westfalen"}},{"name":"An Haus Bruch","postalCode":"47929","locality":"Grefrath","municipality":{"key":"05166008","name":"Grefrath, Sport- und Freizeitgemeinde","type":"Kreisangehörige_Gemeinde"},"district":{"key":"05166","name":"Viersen","type":"Kreis"},"federalState":{"key":"05","name":"Nordrhein-Westfalen"}},{"name":"Auf dem Feldchen","postalCode":"47929","locality":"Grefrath","municipality":{"key":"05166008","name":"Grefrath, Sport- und Freizeitgemeinde","type":"Kreisangehörige_Gemeinde"},"district":{"key":"05166","name":"Viersen","type":"Kreis"},"federalState":{"key":"05","name":"Nordrhein-Westfalen"}},{"name":"Auffeld","postalCode":"47929","locality":"Grefrath","municipality":{"key":"05166008","name":"Grefrath, Sport- und Freizeitgemeinde","type":"Kreisangehörige_Gemeinde"},"district":{"key":"05166","name":"Viersen","type":"Kreis"},"federalState":{"key":"05","name":"Nordrhein-Westfalen"}},{"name":"Bahnstr.","postalCode":"47929","locality":"Grefrath","municipality":{"key":"05166008","name":"Grefrath, Sport- und Freizeitgemeinde","type":"Kreisangehörige_Gemeinde"},"district":{"key":"05166","name":"Viersen","type":"Kreis"},"federalState":{"key":"05","name":"Nordrhein-Westfalen"}},{"name":"Bergerplatz","postalCode":"47929","locality":"Grefrath","municipality":{"key":"05166008","name":"Grefrath, Sport- und Freizeitgemeinde","type":"Kreisangehörige_Gemeinde"},"district":{"key":"05166","name":"Viersen","type":"Kreis"},"federalState":{"key":"05","name":"Nordrhein-Westfalen"}},{"name":"Bergweg","postalCode":"47929","locality":"Grefrath","municipality":{"key":"05166008","name":"Grefrath, Sport- und Freizeitgemeinde","type":"Kreisangehörige_Gemeinde"},"district":{"key":"05166","name":"Viersen","type":"Kreis"},"federalState":{"key":"05","name":"Nordrhein-Westfalen"}},{"name":"Birkenstr.","postalCode":"47929","locality":"Grefrath","municipality":{"key":"05166008","name":"Grefrath, Sport- und Freizeitgemeinde","type":"Kreisangehörige_Gemeinde"},"district":{"key":"05166","name":"Viersen","type":"Kreis"},"federalState":{"key":"05","name":"Nordrhein-Westfalen"}},{"name":"Bleichweg","postalCode":"47929","locality":"Grefrath","municipality":{"key":"05166008","name":"Grefrath, Sport- und Freizeitgemeinde","type":"Kreisangehörige_Gemeinde"},"district":{"key":"05166","name":"Viersen","type":"Kreis"},"federalState":{"key":"05","name":"Nordrhein-Westfalen"}},{"name":"Blumenstr.","postalCode":"47929","locality":"Grefrath","municipality":{"key":"05166008","name":"Grefrath, Sport- und Freizeitgemeinde","type":"Kreisangehörige_Gemeinde"},"district":{"key":"05166","name":"Viersen","type":"Kreis"},"federalState":{"key":"05","name":"Nordrhein-Westfalen"}},{"name":"Bousch","postalCode":"47929","locality":"Grefrath","municipality":{"key":"05166008","name":"Grefrath, Sport- und Freizeitgemeinde","type":"Kreisangehörige_Gemeinde"},"district":{"key":"05166","name":"Viersen","type":"Kreis"},"federalState":{"key":"05","name":"Nordrhein-Westfalen"}},{"name":"Brauereistr.","postalCode":"47929","locality":"Grefrath","municipality":{"key":"05166008","name":"Grefrath, Sport- und Freizeitgemeinde","type":"Kreisangehörige_Gemeinde"},"district":{"key":"05166","name":"Viersen","type":"Kreis"},"federalState":{"key":"05","name":"Nordrhein-Westfalen"}},{"name":"Brocksteg","postalCode":"47929","locality":"Grefrath","municipality":{"key":"05166008","name":"Grefrath, Sport- und Freizeitgemeinde","type":"Kreisangehörige_Gemeinde"},"district":{"key":"05166","name":"Viersen","type":"Kreis"},"federalState":{"key":"05","name":"Nordrhein-Westfalen"}},{"name":"Bruchstr.","postalCode":"47929","locality":"Grefrath","municipality":{"key":"05166008","name":"Grefrath, Sport- und Freizeitgemeinde","type":"Kreisangehörige_Gemeinde"},"district":{"key":"05166","name":"Viersen","type":"Kreis"},"federalState":{"key":"05","name":"Nordrhein-Westfalen"}},{"name":"Bruchweg","postalCode":"47929","locality":"Grefrath","municipality":{"key":"05166008","name":"Grefrath, Sport- und Freizeitgemeinde","type":"Kreisangehörige_Gemeinde"},"district":{"key":"05166","name":"Viersen","type":"Kreis"},"federalState":{"key":"05","name":"Nordrhein-Westfalen"}},{"name":"Bruckhauser Str.","postalCode":"47929","locality":"Grefrath","municipality":{"key":"05166008","name":"Grefrath, Sport- und Freizeitgemeinde","type":"Kreisangehörige_Gemeinde"},"district":{"key":"05166","name":"Viersen","type":"Kreis"},"federalState":{"key":"05","name":"Nordrhein-Westfalen"}},{"name":"Brunsgarten","postalCode":"47929","locality":"Grefrath","municipality":{"key":"05166008","name":"Grefrath, Sport- und Freizeitgemeinde","type":"Kreisangehörige_Gemeinde"},"district":{"key":"05166","name":"Viersen","type":"Kreis"},"federalState":{"key":"05","name":"Nordrhein-Westfalen"}},{"name":"Buchenweg","postalCode":"47929","locality":"Grefrath","municipality":{"key":"05166008","name":"Grefrath, Sport- und Freizeitgemeinde","type":"Kreisangehörige_Gemeinde"},"district":{"key":"05166","name":"Viersen","type":"Kreis"},"federalState":{"key":"05","name":"Nordrhein-Westfalen"}},{"name":"Buchfinkenweg","postalCode":"47929","locality":"Grefrath","municipality":{"key":"05166008","name":"Grefrath, Sport- und Freizeitgemeinde","type":"Kreisangehörige_Gemeinde"},"district":{"key":"05166","name":"Viersen","type":"Kreis"},"federalState":{"key":"05","name":"Nordrhein-Westfalen"}},{"name":"Burgbenden","postalCode":"47929","locality":"Grefrath","municipality":{"key":"05166008","name":"Grefrath, Sport- und Freizeitgemeinde","type":"Kreisangehörige_Gemeinde"},"district":{"key":"05166","name":"Viersen","type":"Kreis"},"federalState":{"key":"05","name":"Nordrhein-Westfalen"}},{"name":"Burgdyk","postalCode":"47929","locality":"Grefrath","municipality":{"key":"05166008","name":"Grefrath, Sport- und Freizeitgemeinde","type":"Kreisangehörige_Gemeinde"},"district":{"key":"05166","name":"Viersen","type":"Kreis"},"federalState":{"key":"05","name":"Nordrhein-Westfalen"}},{"name":"Burgweg","postalCode":"47929","locality":"Grefrath","municipality":{"key":"05166008","name":"Grefrath, Sport- und Freizeitgemeinde","type":"Kreisangehörige_Gemeinde"},"district":{"key":"05166","name":"Viersen","type":"Kreis"},"federalState":{"key":"05","name":"Nordrhein-Westfalen"}},{"name":"Cäcilienstr.","postalCode":"41751","locality":"Viersen","municipality":{"key":"05166032","name":"Viersen, Stadt","type":"Stadt"},"district":{"key":"05166","name":"Viersen","type":"Kreis"},"federalState":{"key":"05","name":"Nordrhein-Westfalen"}},{"name":"Cap Horn","postalCode":"41751","locality":"Viersen","municipality":{"key":"05166032","name":"Viersen, Stadt","type":"Stadt"},"district":{"key":"05166","name":"Viersen","type":"Kreis"},"federalState":{"key":"05","name":"Nordrhein-Westfalen"}},{"name":"Carl-Sonnenschein-Hof","postalCode":"41747","locality":"Viersen","municipality":{"key":"05166032","name":"Viersen, Stadt","type":"Stadt"},"district":{"key":"05166","name":"Viersen","type":"Kreis"},"federalState":{"key":"05","name":"Nordrhein-Westfalen"}},{"name":"Carl-von-Ossietzky-Str.","postalCode":"41747","locality":"Viersen","municipality":{"key":"05166032","name":"Viersen, Stadt","type":"Stadt"},"district":{"key":"05166","name":"Viersen","type":"Kreis"},"federalState":{"key":"05","name":"Nordrhein-Westfalen"}},{"name":"Casinogarten","postalCode":"41747","locality":"Viersen","municipality":{"key":"05166032","name":"Viersen, Stadt","type":"Stadt"},"district":{"key":"05166","name":"Viersen","type":"Kreis"},"federalState":{"key":"05","name":"Nordrhein-Westfalen"}},{"name":"Chemiestr.","postalCode":"41751","locality":"Viersen","municipality":{"key":"05166032","name":"Viersen, Stadt","type":"Stadt"},"district":{"key":"05166","name":"Viersen","type":"Kreis"},"federalState":{"key":"05","name":"Nordrhein-Westfalen"}},{"name":"Chemnitzer Str.","postalCode":"41751","locality":"Viersen","municipality":{"key":"05166032","name":"Viersen, Stadt","type":"Stadt"},"district":{"key":"05166","name":"Viersen","type":"Kreis"},"federalState":{"key":"05","name":"Nordrhein-Westfalen"}},{"name":"Christiane-Horn-Weg","postalCode":"41751","locality":"Viersen","municipality":{"key":"05166032","name":"Viersen, Stadt","type":"Stadt"},"district":{"key":"05166","name":"Viersen","type":"Kreis"},"federalState":{"key":"05","name":"Nordrhein-Westfalen"}},{"name":"Clörather Mühle","postalCode":"41749","locality":"Viersen","municipality":{"key":"05166032","name":"Viersen, Stadt","type":"Stadt"},"district":{"key":"05166","name":"Viersen","type":"Kreis"},"federalState":{"key":"05","name":"Nordrhein-Westfalen"}},{"name":"Clörather Str.","postalCode":"41748","locality":"Viersen","municipality":{"key":"05166032","name":"Viersen, Stadt","type":"Stadt"},"district":{"key":"05166","name":"Viersen","type":"Kreis"},"federalState":{"key":"05","name":"Nordrhein-Westfalen"}},{"name":"Clörather Weg","postalCode":"41748","locality":"Viersen","municipality":{"key":"05166032","name":"Viersen, Stadt","type":"Stadt"},"district":{"key":"05166","name":"Viersen","type":"Kreis"},"federalState":{"key":"05","name":"Nordrhein-Westfalen"}},{"name":"Corneliusstr.","postalCode":"41751","locality":"Viersen","municipality":{"key":"05166032","name":"Viersen, Stadt","type":"Stadt"},"district":{"key":"05166","name":"Viersen","type":"Kreis"},"federalState":{"key":"05","name":"Nordrhein-Westfalen"}},{"name":"Cranachstr.","postalCode":"41751","locality":"Viersen","municipality":{"key":"05166032","name":"Viersen, Stadt","type":"Stadt"},"district":{"key":"05166","name":"Viersen","type":"Kreis"},"federalState":{"key":"05","name":"Nordrhein-Westfalen"}},{"name":"Deversdonk","postalCode":"47929","locality":"Grefrath","municipality":{"key":"05166008","name":"Grefrath, Sport- und Freizeitgemeinde","type":"Kreisangehörige_Gemeinde"},"district":{"key":"05166","name":"Viersen","type":"Kreis"},"federalState":{"key":"05","name":"Nordrhein-Westfalen"}},{"name":"Diekerhof","postalCode":"47929","locality":"Grefrath","municipality":{"key":"05166008","name":"Grefrath, Sport- und Freizeitgemeinde","type":"Kreisangehörige_Gemeinde"},"district":{"key":"05166","name":"Viersen","type":"Kreis"},"federalState":{"key":"05","name":"Nordrhein-Westfalen"}},{"name":"Dietrich-Girmes-Str.","postalCode":"47929","locality":"Grefrath","municipality":{"key":"05166008","name":"Grefrath, Sport- und Freizeitgemeinde","type":"Kreisangehörige_Gemeinde"},"district":{"key":"05166","name":"Viersen","type":"Kreis"},"federalState":{"key":"05","name":"Nordrhein-Westfalen"}},{"name":"Dohmeswiese","postalCode":"47929","locality":"Grefrath","municipality":{"key":"05166008","name":"Grefrath, Sport- und Freizeitgemeinde","type":"Kreisangehörige_Gemeinde"},"district":{"key":"05166","name":"Viersen","type":"Kreis"},"federalState":{"key":"05","name":"Nordrhein-Westfalen"}},{"name":"Dorfstr.","postalCode":"47929","locality":"Grefrath","municipality":{"key":"05166008","name":"Grefrath, Sport- und Freizeitgemeinde","type":"Kreisangehörige_Gemeinde"},"district":{"key":"05166","name":"Viersen","type":"Kreis"},"federalState":{"key":"05","name":"Nordrhein-Westfalen"}},{"name":"Drosselstr.","postalCode":"47929","locality":"Grefrath","municipality":{"key":"05166008","name":"Grefrath, Sport- und Freizeitgemeinde","type":"Kreisangehörige_Gemeinde"},"district":{"key":"05166","name":"Viersen","type":"Kreis"},"federalState":{"key":"05","name":"Nordrhein-Westfalen"}},{"name":"Dunkerhofstr.","postalCode":"47929","locality":"Grefrath","municipality":{"key":"05166008","name":"Grefrath, Sport- und Freizeitgemeinde","type":"Kreisangehörige_Gemeinde"},"district":{"key":"05166","name":"Viersen","type":"Kreis"},"federalState":{"key":"05","name":"Nordrhein-Westfalen"}},{"name":"Eichenstr.","postalCode":"47929","locality":"Grefrath","municipality":{"key":"05166008","name":"Grefrath, Sport- und Freizeitgemeinde","type":"Kreisangehörige_Gemeinde"},"district":{"key":"05166","name":"Viersen","type":"Kreis"},"federalState":{"key":"05","name":"Nordrhein-Westfalen"}},{"name":"Erlenstr.","postalCode":"47929","locality":"Grefrath","municipality":{"key":"05166008","name":"Grefrath, Sport- und Freizeitgemeinde","type":"Kreisangehörige_Gemeinde"},"district":{"key":"05166","name":"Viersen","type":"Kreis"},"federalState":{"key":"05","name":"Nordrhein-Westfalen"}},{"name":"Färberstr.","postalCode":"47929","locality":"Grefrath","municipality":{"key":"05166008","name":"Grefrath, Sport- und Freizeitgemeinde","type":"Kreisangehörige_Gemeinde"},"district":{"key":"05166","name":"Viersen","type":"Kreis"},"federalState":{"key":"05","name":"Nordrhein-Westfalen"}},{"name":"Feldstr.","postalCode":"47929","locality":"Grefrath","municipality":{"key":"05166008","name":"Grefrath, Sport- und Freizeitgemeinde","type":"Kreisangehörige_Gemeinde"},"district":{"key":"05166","name":"Viersen","type":"Kreis"},"federalState":{"key":"05","name":"Nordrhein-Westfalen"}},{"name":"Fichtenstr.","postalCode":"47929","locality":"Grefrath","municipality":{"key":"05166008","name":"Grefrath, Sport- und Freizeitgemeinde","type":"Kreisangehörige_Gemeinde"},"district":{"key":"05166","name":"Viersen","type":"Kreis"},"federalState":{"key":"05","name":"Nordrhein-Westfalen"}},{"name":"Finkenstr.","postalCode":"47929","locality":"Grefrath","municipality":{"key":"05166008","name":"Grefrath, Sport- und Freizeitgemeinde","type":"Kreisangehörige_Gemeinde"},"district":{"key":"05166","name":"Viersen","type":"Kreis"},"federalState":{"key":"05","name":"Nordrhein-Westfalen"}},{"name":"Florastr.","postalCode":"47929","locality":"Grefrath","municipality":{"key":"05166008","name":"Grefrath, Sport- und Freizeitgemeinde","type":"Kreisangehörige_Gemeinde"},"district":{"key":"05166","name":"Viersen","type":"Kreis"},"federalState":{"key":"05","name":"Nordrhein-Westfalen"}},{"name":"Fréventstr.","postalCode":"47929","locality":"Grefrath","municipality":{"key":"05166008","name":"Grefrath, Sport- und Freizeitgemeinde","type":"Kreisangehörige_Gemeinde"},"district":{"key":"05166","name":"Viersen","type":"Kreis"},"federalState":{"key":"05","name":"Nordrhein-Westfalen"}},{"name":"Friedensstr.","postalCode":"47929","locality":"Grefrath","municipality":{"key":"05166008","name":"Grefrath, Sport- und Freizeitgemeinde","type":"Kreisangehörige_Gemeinde"},"district":{"key":"05166","name":"Viersen","type":"Kreis"},"federalState":{"key":"05","name":"Nordrhein-Westfalen"}},{"name":"Friedhofsweg","postalCode":"47929","locality":"Grefrath","municipality":{"key":"05166008","name":"Grefrath, Sport- und Freizeitgemeinde","type":"Kreisangehörige_Gemeinde"},"district":{"key":"05166","name":"Viersen","type":"Kreis"},"federalState":{"key":"05","name":"Nordrhein-Westfalen"}},{"name":"Funkendyk","postalCode":"47929","locality":"Grefrath","municipality":{"key":"05166008","name":"Grefrath, Sport- und Freizeitgemeinde","type":"Kreisangehörige_Gemeinde"},"district":{"key":"05166","name":"Viersen","type":"Kreis"},"federalState":{"key":"05","name":"Nordrhein-Westfalen"}},{"name":"Gartenstr.","postalCode":"47929","locality":"Grefrath","municipality":{"key":"05166008","name":"Grefrath, Sport- und Freizeitgemeinde","type":"Kreisangehörige_Gemeinde"},"district":{"key":"05166","name":"Viersen","type":"Kreis"},"federalState":{"key":"05","name":"Nordrhein-Westfalen"}},{"name":"Goldammerweg","postalCode":"47929","locality":"Grefrath","municipality":{"key":"05166008","name":"Grefrath, Sport- und Freizeitgemeinde","type":"Kreisangehörige_Gemeinde"},"district":{"key":"05166","name":"Viersen","type":"Kreis"},"federalState":{"key":"05","name":"Nordrhein-Westfalen"}},{"name":"Grasheider Str.","postalCode":"47929","locality":"Grefrath","municipality":{"key":"05166008","name":"Grefrath, Sport- und Freizeitgemeinde","type":"Kreisangehörige_Gemeinde"},"district":{"key":"05166","name":"Viersen","type":"Kreis"},"federalState":{"key":"05","name":"Nordrhein-Westfalen"}},{"name":"Grefrather Str.","postalCode":"47929","locality":"Grefrath","municipality":{"key":"05166008","name":"Grefrath, Sport- und Freizeitgemeinde","type":"Kreisangehörige_Gemeinde"},"district":{"key":"05166","name":"Viersen","type":"Kreis"},"federalState":{"key":"05","name":"Nordrhein-Westfalen"}},{"name":"Grevelourstr.","postalCode":"47929","locality":"Grefrath","municipality":{"key":"05166008","name":"Grefrath, Sport- und Freizeitgemeinde","type":"Kreisangehörige_Gemeinde"},"district":{"key":"05166","name":"Viersen","type":"Kreis"},"federalState":{"key":"05","name":"Nordrhein-Westfalen"}},{"name":"Grunewaldstr.","postalCode":"47929","locality":"Grefrath","municipality":{"key":"05166008","name":"Grefrath, Sport- und Freizeitgemeinde","type":"Kreisangehörige_Gemeinde"},"district":{"key":"05166","name":"Viersen","type":"Kreis"},"federalState":{"key":"05","name":"Nordrhein-Westfalen"}},{"name":"Gurthbusch","postalCode":"47929","locality":"Grefrath","municipality":{"key":"05166008","name":"Grefrath, Sport- und Freizeitgemeinde","type":"Kreisangehörige_Gemeinde"},"district":{"key":"05166","name":"Viersen","type":"Kreis"},"federalState":{"key":"05","name":"Nordrhein-Westfalen"}},{"name":"Hartenfelsstr.","postalCode":"47929","locality":"Grefrath","municipality":{"key":"05166008","name":"Grefrath, Sport- und Freizeitgemeinde","type":"Kreisangehörige_Gemeinde"},"district":{"key":"05166","name":"Viersen","type":"Kreis"},"federalState":{"key":"05","name":"Nordrhein-Westfalen"}},{"name":"Hauptstr.","postalCode":"47929","locality":"Grefrath","municipality":{"key":"05166008","name":"Grefrath, Sport- und Freizeitgemeinde","type":"Kreisangehörige_Gemeinde"},"district":{"key":"05166","name":"Viersen","type":"Kreis"},"federalState":{"key":"05","name":"Nordrhein-Westfalen"}},{"name":"Heide","postalCode":"47929","locality":"Grefrath","municipality":{"key":"05166008","name":"Grefrath, Sport- und Freizeitgemeinde","type":"Kreisangehörige_Gemeinde"},"district":{"key":"05166","name":"Viersen","type":"Kreis"},"federalState":{"key":"05","name":"Nordrhein-Westfalen"}},{"name":"Heideweg","postalCode":"47929","locality":"Grefrath","municipality":{"key":"05166008","name":"Grefrath, Sport- und Freizeitgemeinde","type":"Kreisangehörige_Gemeinde"},"district":{"key":"05166","name":"Viersen","type":"Kreis"},"federalState":{"key":"05","name":"Nordrhein-Westfalen"}},{"name":"Heinrichstr.","postalCode":"47929","locality":"Grefrath","municipality":{"key":"05166008","name":"Grefrath, Sport- und Freizeitgemeinde","type":"Kreisangehörige_Gemeinde"},"district":{"key":"05166","name":"Viersen","type":"Kreis"},"federalState":{"key":"05","name":"Nordrhein-Westfalen"}},{"name":"Heitzerend","postalCode":"47929","locality":"Grefrath","municipality":{"key":"05166008","name":"Grefrath, Sport- und Freizeitgemeinde","type":"Kreisangehörige_Gemeinde"},"district":{"key":"05166","name":"Viersen","type":"Kreis"},"federalState":{"key":"05","name":"Nordrhein-Westfalen"}},{"name":"Hermann-Lenßen-Str.","postalCode":"47929","locality":"Grefrath","municipality":{"key":"05166008","name":"Grefrath, Sport- und Freizeitgemeinde","type":"Kreisangehörige_Gemeinde"},"district":{"key":"05166","name":"Viersen","type":"Kreis"},"federalState":{"key":"05","name":"Nordrhein-Westfalen"}},{"name":"Hermes Benden","postalCode":"47929","locality":"Grefrath","municipality":{"key":"05166008","name":"Grefrath, Sport- und Freizeitgemeinde","type":"Kreisangehörige_Gemeinde"},"district":{"key":"05166","name":"Viersen","type":"Kreis"},"federalState":{"key":"05","name":"Nordrhein-Westfalen"}},{"name":"Heudonk","postalCode":"47929","locality":"Grefrath","municipality":{"key":"05166008","name":"Grefrath, Sport- und Freizeitgemeinde","type":"Kreisangehörige_Gemeinde"},"district":{"key":"05166","name":"Viersen","type":"Kreis"},"federalState":{"key":"05","name":"Nordrhein-Westfalen"}},{"name":"Hinsbecker Str.","postalCode":"47929","locality":"Grefrath","municipality":{"key":"05166008","name":"Grefrath, Sport- und Freizeitgemeinde","type":"Kreisangehörige_Gemeinde"},"district":{"key":"05166","name":"Viersen","type":"Kreis"},"federalState":{"key":"05","name":"Nordrhein-Westfalen"}},{"name":"Hochstr.","postalCode":"47929","locality":"Grefrath","municipality":{"key":"05166008","name":"Grefrath, Sport- und Freizeitgemeinde","type":"Kreisangehörige_Gemeinde"},"district":{"key":"05166","name":"Viersen","type":"Kreis"},"federalState":{"key":"05","name":"Nordrhein-Westfalen"}},{"name":"Hohe Str.","postalCode":"47929","locality":"Grefrath","municipality":{"key":"05166008","name":"Grefrath, Sport- und Freizeitgemeinde","type":"Kreisangehörige_Gemeinde"},"district":{"key":"05166","name":"Viersen","type":"Kreis"},"federalState":{"key":"05","name":"Nordrhein-Westfalen"}},{"name":"Holterweg","postalCode":"47929","locality":"Grefrath","municipality":{"key":"05166008","name":"Grefrath, Sport- und Freizeitgemeinde","type":"Kreisangehörige_Gemeinde"},"district":{"key":"05166","name":"Viersen","type":"Kreis"},"federalState":{"key":"05","name":"Nordrhein-Westfalen"}},{"name":"Holtfeld","postalCode":"47929","locality":"Grefrath","municipality":{"key":"05166008","name":"Grefrath, Sport- und Freizeitgemeinde","type":"Kreisangehörige_Gemeinde"},"district":{"key":"05166","name":"Viersen","type":"Kreis"},"federalState":{"key":"05","name":"Nordrhein-Westfalen"}},{"name":"Hospitalstr.","postalCode":"47929","locality":"Grefrath","municipality":{"key":"05166008","name":"Grefrath, Sport- und Freizeitgemeinde","type":"Kreisangehörige_Gemeinde"},"district":{"key":"05166","name":"Viersen","type":"Kreis"},"federalState":{"key":"05","name":"Nordrhein-Westfalen"}},{"name":"Im Grünen Winkel","postalCode":"47929","locality":"Grefrath","municipality":{"key":"05166008","name":"Grefrath, Sport- und Freizeitgemeinde","type":"Kreisangehörige_Gemeinde"},"district":{"key":"05166","name":"Viersen","type":"Kreis"},"federalState":{"key":"05","name":"Nordrhein-Westfalen"}},{"name":"Im Mayfeld","postalCode":"47929","locality":"Grefrath","municipality":{"key":"05166008","name":"Grefrath, Sport- und Freizeitgemeinde","type":"Kreisangehörige_Gemeinde"},"district":{"key":"05166","name":"Viersen","type":"Kreis"},"federalState":{"key":"05","name":"Nordrhein-Westfalen"}},{"name":"In der Floeth","postalCode":"47929","locality":"Grefrath","municipality":{"key":"05166008","name":"Grefrath, Sport- und Freizeitgemeinde","type":"Kreisangehörige_Gemeinde"},"district":{"key":"05166","name":"Viersen","type":"Kreis"},"federalState":{"key":"05","name":"Nordrhein-Westfalen"}},{"name":"In der Weide","postalCode":"47929","locality":"Grefrath","municipality":{"key":"05166008","name":"Grefrath, Sport- und Freizeitgemeinde","type":"Kreisangehörige_Gemeinde"},"district":{"key":"05166","name":"Viersen","type":"Kreis"},"federalState":{"key":"05","name":"Nordrhein-Westfalen"}},{"name":"Industriestr.","postalCode":"47929","locality":"Grefrath","municipality":{"key":"05166008","name":"Grefrath, Sport- und Freizeitgemeinde","type":"Kreisangehörige_Gemeinde"},"district":{"key":"05166","name":"Viersen","type":"Kreis"},"federalState":{"key":"05","name":"Nordrhein-Westfalen"}},{"name":"Johannes-Girmes-Str.","postalCode":"47929","locality":"Grefrath","municipality":{"key":"05166008","name":"Grefrath, Sport- und Freizeitgemeinde","type":"Kreisangehörige_Gemeinde"},"district":{"key":"05166","name":"Viersen","type":"Kreis"},"federalState":{"key":"05","name":"Nordrhein-Westfalen"}},{"name":"Johannesstr.","postalCode":"47929","locality":"Grefrath","municipality":{"key":"05166008","name":"Grefrath, Sport- und Freizeitgemeinde","type":"Kreisangehörige_Gemeinde"},"district":{"key":"05166","name":"Viersen","type":"Kreis"},"federalState":{"key":"05","name":"Nordrhein-Westfalen"}},{"name":"Johann-Fruhen-Str.","postalCode":"47929","locality":"Grefrath","municipality":{"key":"05166008","name":"Grefrath, Sport- und Freizeitgemeinde","type":"Kreisangehörige_Gemeinde"},"district":{"key":"05166","name":"Viersen","type":"Kreis"},"federalState":{"key":"05","name":"Nordrhein-Westfalen"}},{"name":"Johann-Gastes-Str.","postalCode":"47929","locality":"Grefrath","municipality":{"key":"05166008","name":"Grefrath, Sport- und Freizeitgemeinde","type":"Kreisangehörige_Gemeinde"},"district":{"key":"05166","name":"Viersen","type":"Kreis"},"federalState":{"key":"05","name":"Nordrhein-Westfalen"}},{"name":"Kallengraben","postalCode":"47929","locality":"Grefrath","municipality":{"key":"05166008","name":"Grefrath, Sport- und Freizeitgemeinde","type":"Kreisangehörige_Gemeinde"},"district":{"key":"05166","name":"Viersen","type":"Kreis"},"federalState":{"key":"05","name":"Nordrhein-Westfalen"}},{"name":"Kempener Str.","postalCode":"47929","locality":"Grefrath","municipality":{"key":"05166008","name":"Grefrath, Sport- und Freizeitgemeinde","type":"Kreisangehörige_Gemeinde"},"district":{"key":"05166","name":"Viersen","type":"Kreis"},"federalState":{"key":"05","name":"Nordrhein-Westfalen"}},{"name":"Kiefernstr.","postalCode":"47929","locality":"Grefrath","municipality":{"key":"05166008","name":"Grefrath, Sport- und Freizeitgemeinde","type":"Kreisangehörige_Gemeinde"},"district":{"key":"05166","name":"Viersen","type":"Kreis"},"federalState":{"key":"05","name":"Nordrhein-Westfalen"}},{"name":"Kirchengarten","postalCode":"47929","locality":"Grefrath","municipality":{"key":"05166008","name":"Grefrath, Sport- und Freizeitgemeinde","type":"Kreisangehörige_Gemeinde"},"district":{"key":"05166","name":"Viersen","type":"Kreis"},"federalState":{"key":"05","name":"Nordrhein-Westfalen"}},{"name":"Kirchplatz","postalCode":"47929","locality":"Grefrath","municipality":{"key":"05166008","name":"Grefrath, Sport- und Freizeitgemeinde","type":"Kreisangehörige_Gemeinde"},"district":{"key":"05166","name":"Viersen","type":"Kreis"},"federalState":{"key":"05","name":"Nordrhein-Westfalen"}},{"name":"Kirchstr.","postalCode":"47929","locality":"Grefrath","municipality":{"key":"05166008","name":"Grefrath, Sport- und Freizeitgemeinde","type":"Kreisangehörige_Gemeinde"},"district":{"key":"05166","name":"Viersen","type":"Kreis"},"federalState":{"key":"05","name":"Nordrhein-Westfalen"}},{"name":"Klemensstr.","postalCode":"47929","locality":"Grefrath","municipality":{"key":"05166008","name":"Grefrath, Sport- und Freizeitgemeinde","type":"Kreisangehörige_Gemeinde"},"district":{"key":"05166","name":"Viersen","type":"Kreis"},"federalState":{"key":"05","name":"Nordrhein-Westfalen"}},{"name":"Klostergarten","postalCode":"47929","locality":"Grefrath","municipality":{"key":"05166008","name":"Grefrath, Sport- und Freizeitgemeinde","type":"Kreisangehörige_Gemeinde"},"district":{"key":"05166","name":"Viersen","type":"Kreis"},"federalState":{"key":"05","name":"Nordrhein-Westfalen"}},{"name":"Kolpingstr.","postalCode":"47929","locality":"Grefrath","municipality":{"key":"05166008","name":"Grefrath, Sport- und Freizeitgemeinde","type":"Kreisangehörige_Gemeinde"},"district":{"key":"05166","name":"Viersen","type":"Kreis"},"federalState":{"key":"05","name":"Nordrhein-Westfalen"}},{"name":"Koulerfeld","postalCode":"47929","locality":"Grefrath","municipality":{"key":"05166008","name":"Grefrath, Sport- und Freizeitgemeinde","type":"Kreisangehörige_Gemeinde"},"district":{"key":"05166","name":"Viersen","type":"Kreis"},"federalState":{"key":"05","name":"Nordrhein-Westfalen"}},{"name":"Langendonker Weg","postalCode":"47929","locality":"Grefrath","municipality":{"key":"05166008","name":"Grefrath, Sport- und Freizeitgemeinde","type":"Kreisangehörige_Gemeinde"},"district":{"key":"05166","name":"Viersen","type":"Kreis"},"federalState":{"key":"05","name":"Nordrhein-Westfalen"}},{"name":"Lerchenstr.","postalCode":"47929","locality":"Grefrath","municipality":{"key":"05166008","name":"Grefrath, Sport- und Freizeitgemeinde","type":"Kreisangehörige_Gemeinde"},"district":{"key":"05166","name":"Viersen","type":"Kreis"},"federalState":{"key":"05","name":"Nordrhein-Westfalen"}},{"name":"Liekweg","postalCode":"47929","locality":"Grefrath","municipality":{"key":"05166008","name":"Grefrath, Sport- und Freizeitgemeinde","type":"Kreisangehörige_Gemeinde"},"district":{"key":"05166","name":"Viersen","type":"Kreis"},"federalState":{"key":"05","name":"Nordrhein-Westfalen"}},{"name":"Lindenstr.","postalCode":"47929","locality":"Grefrath","municipality":{"key":"05166008","name":"Grefrath, Sport- und Freizeitgemeinde","type":"Kreisangehörige_Gemeinde"},"district":{"key":"05166","name":"Viersen","type":"Kreis"},"federalState":{"key":"05","name":"Nordrhein-Westfalen"}},{"name":"Lobbericher Str.","postalCode":"47929","locality":"Grefrath","municipality":{"key":"05166008","name":"Grefrath, Sport- und Freizeitgemeinde","type":"Kreisangehörige_Gemeinde"},"district":{"key":"05166","name":"Viersen","type":"Kreis"},"federalState":{"key":"05","name":"Nordrhein-Westfalen"}},{"name":"Markt","postalCode":"47929","locality":"Grefrath","municipality":{"key":"05166008","name":"Grefrath, Sport- und Freizeitgemeinde","type":"Kreisangehörige_Gemeinde"},"district":{"key":"05166","name":"Viersen","type":"Kreis"},"federalState":{"key":"05","name":"Nordrhein-Westfalen"}},{"name":"Marktstr.","postalCode":"47929","locality":"Grefrath","municipality":{"key":"05166008","name":"Grefrath, Sport- und Freizeitgemeinde","type":"Kreisangehörige_Gemeinde"},"district":{"key":"05166","name":"Viersen","type":"Kreis"},"federalState":{"key":"05","name":"Nordrhein-Westfalen"}},{"name":"Meisenweg","postalCode":"47929","locality":"Grefrath","municipality":{"key":"05166008","name":"Grefrath, Sport- und Freizeitgemeinde","type":"Kreisangehörige_Gemeinde"},"district":{"key":"05166","name":"Viersen","type":"Kreis"},"federalState":{"key":"05","name":"Nordrhein-Westfalen"}},{"name":"Mertesweg","postalCode":"47929","locality":"Grefrath","municipality":{"key":"05166008","name":"Grefrath, Sport- und Freizeitgemeinde","type":"Kreisangehörige_Gemeinde"},"district":{"key":"05166","name":"Viersen","type":"Kreis"},"federalState":{"key":"05","name":"Nordrhein-Westfalen"}},{"name":"Mörtelsstr.","postalCode":"47929","locality":"Grefrath","municipality":{"key":"05166008","name":"Grefrath, Sport- und Freizeitgemeinde","type":"Kreisangehörige_Gemeinde"},"district":{"key":"05166","name":"Viersen","type":"Kreis"},"federalState":{"key":"05","name":"Nordrhein-Westfalen"}},{"name":"Mühlengasse","postalCode":"47929","locality":"Grefrath","municipality":{"key":"05166008","name":"Grefrath, Sport- und Freizeitgemeinde","type":"Kreisangehörige_Gemeinde"},"district":{"key":"05166","name":"Viersen","type":"Kreis"},"federalState":{"key":"05","name":"Nordrhein-Westfalen"}},{"name":"Mülhausener Str.","postalCode":"47929","locality":"Grefrath","municipality":{"key":"05166008","name":"Grefrath, Sport- und Freizeitgemeinde","type":"Kreisangehörige_Gemeinde"},"district":{"key":"05166","name":"Viersen","type":"Kreis"},"federalState":{"key":"05","name":"Nordrhein-Westfalen"}},{"name":"Nelkenstr.","postalCode":"47929","locality":"Grefrath","municipality":{"key":"05166008","name":"Grefrath, Sport- und Freizeitgemeinde","type":"Kreisangehörige_Gemeinde"},"district":{"key":"05166","name":"Viersen","type":"Kreis"},"federalState":{"key":"05","name":"Nordrhein-Westfalen"}},{"name":"Nettestr.","postalCode":"47929","locality":"Grefrath","municipality":{"key":"05166008","name":"Grefrath, Sport- und Freizeitgemeinde","type":"Kreisangehörige_Gemeinde"},"district":{"key":"05166","name":"Viersen","type":"Kreis"},"federalState":{"key":"05","name":"Nordrhein-Westfalen"}},{"name":"Neustr.","postalCode":"47929","locality":"Grefrath","municipality":{"key":"05166008","name":"Grefrath, Sport- und Freizeitgemeinde","type":"Kreisangehörige_Gemeinde"},"district":{"key":"05166","name":"Viersen","type":"Kreis"},"federalState":{"key":"05","name":"Nordrhein-Westfalen"}},{"name":"Niederfeld","postalCode":"47929","locality":"Grefrath","municipality":{"key":"05166008","name":"Grefrath, Sport- und Freizeitgemeinde","type":"Kreisangehörige_Gemeinde"},"district":{"key":"05166","name":"Viersen","type":"Kreis"},"federalState":{"key":"05","name":"Nordrhein-Westfalen"}},{"name":"Niederstr.","postalCode":"47929","locality":"Grefrath","municipality":{"key":"05166008","name":"Grefrath, Sport- und Freizeitgemeinde","type":"Kreisangehörige_Gemeinde"},"district":{"key":"05166","name":"Viersen","type":"Kreis"},"federalState":{"key":"05","name":"Nordrhein-Westfalen"}},{"name":"Niedertor","postalCode":"47929","locality":"Grefrath","municipality":{"key":"05166008","name":"Grefrath, Sport- und Freizeitgemeinde","type":"Kreisangehörige_Gemeinde"},"district":{"key":"05166","name":"Viersen","type":"Kreis"},"federalState":{"key":"05","name":"Nordrhein-Westfalen"}},{"name":"Niersweg","postalCode":"47929","locality":"Grefrath","municipality":{"key":"05166008","name":"Grefrath, Sport- und Freizeitgemeinde","type":"Kreisangehörige_Gemeinde"},"district":{"key":"05166","name":"Viersen","type":"Kreis"},"federalState":{"key":"05","name":"Nordrhein-Westfalen"}},{"name":"Nordstr.","postalCode":"47929","locality":"Grefrath","municipality":{"key":"05166008","name":"Grefrath, Sport- und Freizeitgemeinde","type":"Kreisangehörige_Gemeinde"},"district":{"key":"05166","name":"Viersen","type":"Kreis"},"federalState":{"key":"05","name":"Nordrhein-Westfalen"}},{"name":"Obertor","postalCode":"47929","locality":"Grefrath","municipality":{"key":"05166008","name":"Grefrath, Sport- und Freizeitgemeinde","type":"Kreisangehörige_Gemeinde"},"district":{"key":"05166","name":"Viersen","type":"Kreis"},"federalState":{"key":"05","name":"Nordrhein-Westfalen"}},{"name":"Oedter Str.","postalCode":"47929","locality":"Grefrath","municipality":{"key":"05166008","name":"Grefrath, Sport- und Freizeitgemeinde","type":"Kreisangehörige_Gemeinde"},"district":{"key":"05166","name":"Viersen","type":"Kreis"},"federalState":{"key":"05","name":"Nordrhein-Westfalen"}},{"name":"Oedter Weg","postalCode":"47929","locality":"Grefrath","municipality":{"key":"05166008","name":"Grefrath, Sport- und Freizeitgemeinde","type":"Kreisangehörige_Gemeinde"},"district":{"key":"05166","name":"Viersen","type":"Kreis"},"federalState":{"key":"05","name":"Nordrhein-Westfalen"}},{"name":"Oststr.","postalCode":"47929","locality":"Grefrath","municipality":{"key":"05166008","name":"Grefrath, Sport- und Freizeitgemeinde","type":"Kreisangehörige_Gemeinde"},"district":{"key":"05166","name":"Viersen","type":"Kreis"},"federalState":{"key":"05","name":"Nordrhein-Westfalen"}},{"name":"Ostumgehung","postalCode":"47929","locality":"Grefrath","municipality":{"key":"05166008","name":"Grefrath, Sport- und Freizeitgemeinde","type":"Kreisangehörige_Gemeinde"},"district":{"key":"05166","name":"Viersen","type":"Kreis"},"federalState":{"key":"05","name":"Nordrhein-Westfalen"}},{"name":"Pappelstr.","postalCode":"47929","locality":"Grefrath","municipality":{"key":"05166008","name":"Grefrath, Sport- und Freizeitgemeinde","type":"Kreisangehörige_Gemeinde"},"district":{"key":"05166","name":"Viersen","type":"Kreis"},"federalState":{"key":"05","name":"Nordrhein-Westfalen"}},{"name":"Pastoratshof","postalCode":"47929","locality":"Grefrath","municipality":{"key":"05166008","name":"Grefrath, Sport- und Freizeitgemeinde","type":"Kreisangehörige_Gemeinde"},"district":{"key":"05166","name":"Viersen","type":"Kreis"},"federalState":{"key":"05","name":"Nordrhein-Westfalen"}},{"name":"Postweg","postalCode":"47929","locality":"Grefrath","municipality":{"key":"05166008","name":"Grefrath, Sport- und Freizeitgemeinde","type":"Kreisangehörige_Gemeinde"},"district":{"key":"05166","name":"Viersen","type":"Kreis"},"federalState":{"key":"05","name":"Nordrhein-Westfalen"}},{"name":"Quirinusstr.","postalCode":"41749","locality":"Viersen","municipality":{"key":"05166032","name":"Viersen, Stadt","type":"Stadt"},"district":{"key":"05166","name":"Viersen","type":"Kreis"},"federalState":{"key":"05","name":"Nordrhein-Westfalen"}},{"name":"Rathausplatz","postalCode":"47929","locality":"Grefrath","municipality":{"key":"05166008","name":"Grefrath, Sport- und Freizeitgemeinde","type":"Kreisangehörige_Gemeinde"},"district":{"key":"05166","name":"Viersen","type":"Kreis"},"federalState":{"key":"05","name":"Nordrhein-Westfalen"}},{"name":"Rosenstr.","postalCode":"47929","locality":"Grefrath","municipality":{"key":"05166008","name":"Grefrath, Sport- und Freizeitgemeinde","type":"Kreisangehörige_Gemeinde"},"district":{"key":"05166","name":"Viersen","type":"Kreis"},"federalState":{"key":"05","name":"Nordrhein-Westfalen"}},{"name":"Rütersend","postalCode":"47929","locality":"Grefrath","municipality":{"key":"05166008","name":"Grefrath, Sport- und Freizeitgemeinde","type":"Kreisangehörige_Gemeinde"},"district":{"key":"05166","name":"Viersen","type":"Kreis"},"federalState":{"key":"05","name":"Nordrhein-Westfalen"}},{"name":"Samtweg","postalCode":"47929","locality":"Grefrath","municipality":{"key":"05166008","name":"Grefrath, Sport- und Freizeitgemeinde","type":"Kreisangehörige_Gemeinde"},"district":{"key":"05166","name":"Viersen","type":"Kreis"},"federalState":{"key":"05","name":"Nordrhein-Westfalen"}},{"name":"Schanzenstr.","postalCode":"47929","locality":"Grefrath","municipality":{"key":"05166008","name":"Grefrath, Sport- und Freizeitgemeinde","type":"Kreisangehörige_Gemeinde"},"district":{"key":"05166","name":"Viersen","type":"Kreis"},"federalState":{"key":"05","name":"Nordrhein-Westfalen"}},{"name":"Schaphauser Str.","postalCode":"47929","locality":"Grefrath","municipality":{"key":"05166008","name":"Grefrath, Sport- und Freizeitgemeinde","type":"Kreisangehörige_Gemeinde"},"district":{"key":"05166","name":"Viersen","type":"Kreis"},"federalState":{"key":"05","name":"Nordrhein-Westfalen"}},{"name":"Schlibeck","postalCode":"47929","locality":"Grefrath","municipality":{"key":"05166008","name":"Grefrath, Sport- und Freizeitgemeinde","type":"Kreisangehörige_Gemeinde"},"district":{"key":"05166","name":"Viersen","type":"Kreis"},"federalState":{"key":"05","name":"Nordrhein-Westfalen"}},{"name":"Schrieversgäßchen","postalCode":"47929","locality":"Grefrath","municipality":{"key":"05166008","name":"Grefrath, Sport- und Freizeitgemeinde","type":"Kreisangehörige_Gemeinde"},"district":{"key":"05166","name":"Viersen","type":"Kreis"},"federalState":{"key":"05","name":"Nordrhein-Westfalen"}},{"name":"Schroershof","postalCode":"47929","locality":"Grefrath","municipality":{"key":"05166008","name":"Grefrath, Sport- und Freizeitgemeinde","type":"Kreisangehörige_Gemeinde"},"district":{"key":"05166","name":"Viersen","type":"Kreis"},"federalState":{"key":"05","name":"Nordrhein-Westfalen"}},{"name":"Schulstr.","postalCode":"47929","locality":"Grefrath","municipality":{"key":"05166008","name":"Grefrath, Sport- und Freizeitgemeinde","type":"Kreisangehörige_Gemeinde"},"district":{"key":"05166","name":"Viersen","type":"Kreis"},"federalState":{"key":"05","name":"Nordrhein-Westfalen"}},{"name":"Schwalmstr.","postalCode":"47929","locality":"Grefrath","municipality":{"key":"05166008","name":"Grefrath, Sport- und Freizeitgemeinde","type":"Kreisangehörige_Gemeinde"},"district":{"key":"05166","name":"Viersen","type":"Kreis"},"federalState":{"key":"05","name":"Nordrhein-Westfalen"}},{"name":"Schwartzstr.","postalCode":"47929","locality":"Grefrath","municipality":{"key":"05166008","name":"Grefrath, Sport- und Freizeitgemeinde","type":"Kreisangehörige_Gemeinde"},"district":{"key":"05166","name":"Viersen","type":"Kreis"},"federalState":{"key":"05","name":"Nordrhein-Westfalen"}},{"name":"Schwarzbruch","postalCode":"47929","locality":"Grefrath","municipality":{"key":"05166008","name":"Grefrath, Sport- und Freizeitgemeinde","type":"Kreisangehörige_Gemeinde"},"district":{"key":"05166","name":"Viersen","type":"Kreis"},"federalState":{"key":"05","name":"Nordrhein-Westfalen"}},{"name":"Schwarzdrosselweg","postalCode":"47929","locality":"Grefrath","municipality":{"key":"05166008","name":"Grefrath, Sport- und Freizeitgemeinde","type":"Kreisangehörige_Gemeinde"},"district":{"key":"05166","name":"Viersen","type":"Kreis"},"federalState":{"key":"05","name":"Nordrhein-Westfalen"}},{"name":"Schwingbodenpark","postalCode":"47929","locality":"Grefrath","municipality":{"key":"05166008","name":"Grefrath, Sport- und Freizeitgemeinde","type":"Kreisangehörige_Gemeinde"},"district":{"key":"05166","name":"Viersen","type":"Kreis"},"federalState":{"key":"05","name":"Nordrhein-Westfalen"}},{"name":"Sperlingweg","postalCode":"47929","locality":"Grefrath","municipality":{"key":"05166008","name":"Grefrath, Sport- und Freizeitgemeinde","type":"Kreisangehörige_Gemeinde"},"district":{"key":"05166","name":"Viersen","type":"Kreis"},"federalState":{"key":"05","name":"Nordrhein-Westfalen"}},{"name":"Stadionstr.","postalCode":"47929","locality":"Grefrath","municipality":{"key":"05166008","name":"Grefrath, Sport- und Freizeitgemeinde","type":"Kreisangehörige_Gemeinde"},"district":{"key":"05166","name":"Viersen","type":"Kreis"},"federalState":{"key":"05","name":"Nordrhein-Westfalen"}},{"name":"Steckendorf","postalCode":"47929","locality":"Grefrath","municipality":{"key":"05166008","name":"Grefrath, Sport- und Freizeitgemeinde","type":"Kreisangehörige_Gemeinde"},"district":{"key":"05166","name":"Viersen","type":"Kreis"},"federalState":{"key":"05","name":"Nordrhein-Westfalen"}},{"name":"Stegweg","postalCode":"47929","locality":"Grefrath","municipality":{"key":"05166008","name":"Grefrath, Sport- und Freizeitgemeinde","type":"Kreisangehörige_Gemeinde"},"district":{"key":"05166","name":"Viersen","type":"Kreis"},"federalState":{"key":"05","name":"Nordrhein-Westfalen"}},{"name":"Steinfunder Str.","postalCode":"47929","locality":"Grefrath","municipality":{"key":"05166008","name":"Grefrath, Sport- und Freizeitgemeinde","type":"Kreisangehörige_Gemeinde"},"district":{"key":"05166","name":"Viersen","type":"Kreis"},"federalState":{"key":"05","name":"Nordrhein-Westfalen"}},{"name":"Steinfunder Weg","postalCode":"47929","locality":"Grefrath","municipality":{"key":"05166008","name":"Grefrath, Sport- und Freizeitgemeinde","type":"Kreisangehörige_Gemeinde"},"district":{"key":"05166","name":"Viersen","type":"Kreis"},"federalState":{"key":"05","name":"Nordrhein-Westfalen"}},{"name":"Süchtelner Str.","postalCode":"47929","locality":"Grefrath","municipality":{"key":"05166008","name":"Grefrath, Sport- und Freizeitgemeinde","type":"Kreisangehörige_Gemeinde"},"district":{"key":"05166","name":"Viersen","type":"Kreis"},"federalState":{"key":"05","name":"Nordrhein-Westfalen"}},{"name":"Südstr.","postalCode":"47929","locality":"Grefrath","municipality":{"key":"05166008","name":"Grefrath, Sport- und Freizeitgemeinde","type":"Kreisangehörige_Gemeinde"},"district":{"key":"05166","name":"Viersen","type":"Kreis"},"federalState":{"key":"05","name":"Nordrhein-Westfalen"}},{"name":"Tetendonk","postalCode":"47929","locality":"Grefrath","municipality":{"key":"05166008","name":"Grefrath, Sport- und Freizeitgemeinde","type":"Kreisangehörige_Gemeinde"},"district":{"key":"05166","name":"Viersen","type":"Kreis"},"federalState":{"key":"05","name":"Nordrhein-Westfalen"}},{"name":"Tönisvorster Str.","postalCode":"47929","locality":"Grefrath","municipality":{"key":"05166008","name":"Grefrath, Sport- und Freizeitgemeinde","type":"Kreisangehörige_Gemeinde"},"district":{"key":"05166","name":"Viersen","type":"Kreis"},"federalState":{"key":"05","name":"Nordrhein-Westfalen"}},{"name":"Tulpenweg","postalCode":"47929","locality":"Grefrath","municipality":{"key":"05166008","name":"Grefrath, Sport- und Freizeitgemeinde","type":"Kreisangehörige_Gemeinde"},"district":{"key":"05166","name":"Viersen","type":"Kreis"},"federalState":{"key":"05","name":"Nordrhein-Westfalen"}},{"name":"Umstr.","postalCode":"47929","locality":"Grefrath","municipality":{"key":"05166008","name":"Grefrath, Sport- und Freizeitgemeinde","type":"Kreisangehörige_Gemeinde"},"district":{"key":"05166","name":"Viersen","type":"Kreis"},"federalState":{"key":"05","name":"Nordrhein-Westfalen"}},{"name":"Viersener Str.","postalCode":"47929","locality":"Grefrath","municipality":{"key":"05166008","name":"Grefrath, Sport- und Freizeitgemeinde","type":"Kreisangehörige_Gemeinde"},"district":{"key":"05166","name":"Viersen","type":"Kreis"},"federalState":{"key":"05","name":"Nordrhein-Westfalen"}},{"name":"Vinkrather Str.","postalCode":"47929","locality":"Grefrath","municipality":{"key":"05166008","name":"Grefrath, Sport- und Freizeitgemeinde","type":"Kreisangehörige_Gemeinde"},"district":{"key":"05166","name":"Viersen","type":"Kreis"},"federalState":{"key":"05","name":"Nordrhein-Westfalen"}},{"name":"Vitusstr.","postalCode":"47929","locality":"Grefrath","municipality":{"key":"05166008","name":"Grefrath, Sport- und Freizeitgemeinde","type":"Kreisangehörige_Gemeinde"},"district":{"key":"05166","name":"Viersen","type":"Kreis"},"federalState":{"key":"05","name":"Nordrhein-Westfalen"}},{"name":"Vorst","postalCode":"47929","locality":"Grefrath","municipality":{"key":"05166008","name":"Grefrath, Sport- und Freizeitgemeinde","type":"Kreisangehörige_Gemeinde"},"district":{"key":"05166","name":"Viersen","type":"Kreis"},"federalState":{"key":"05","name":"Nordrhein-Westfalen"}},{"name":"Wankumer Landstr.","postalCode":"47929","locality":"Grefrath","municipality":{"key":"05166008","name":"Grefrath, Sport- und Freizeitgemeinde","type":"Kreisangehörige_Gemeinde"},"district":{"key":"05166","name":"Viersen","type":"Kreis"},"federalState":{"key":"05","name":"Nordrhein-Westfalen"}},{"name":"Wankumer Str.","postalCode":"47929","locality":"Grefrath","municipality":{"key":"05166008","name":"Grefrath, Sport- und Freizeitgemeinde","type":"Kreisangehörige_Gemeinde"},"district":{"key":"05166","name":"Viersen","type":"Kreis"},"federalState":{"key":"05","name":"Nordrhein-Westfalen"}},{"name":"Weberstr.","postalCode":"47929","locality":"Grefrath","municipality":{"key":"05166008","name":"Grefrath, Sport- und Freizeitgemeinde","type":"Kreisangehörige_Gemeinde"},"district":{"key":"05166","name":"Viersen","type":"Kreis"},"federalState":{"key":"05","name":"Nordrhein-Westfalen"}},{"name":"Weidendyk","postalCode":"47929","locality":"Grefrath","municipality":{"key":"05166008","name":"Grefrath, Sport- und Freizeitgemeinde","type":"Kreisangehörige_Gemeinde"},"district":{"key":"05166","name":"Viersen","type":"Kreis"},"federalState":{"key":"05","name":"Nordrhein-Westfalen"}},{"name":"Weststr.","postalCode":"47929","locality":"Grefrath","municipality":{"key":"05166008","name":"Grefrath, Sport- und Freizeitgemeinde","type":"Kreisangehörige_Gemeinde"},"district":{"key":"05166","name":"Viersen","type":"Kreis"},"federalState":{"key":"05","name":"Nordrhein-Westfalen"}},{"name":"Wiesenstr.","postalCode":"47929","locality":"Grefrath","municipality":{"key":"05166008","name":"Grefrath, Sport- und Freizeitgemeinde","type":"Kreisangehörige_Gemeinde"},"district":{"key":"05166","name":"Viersen","type":"Kreis"},"federalState":{"key":"05","name":"Nordrhein-Westfalen"}},{"name":"Wilhelm-Scherer-Platz","postalCode":"47929","locality":"Grefrath","municipality":{"key":"05166008","name":"Grefrath, Sport- und Freizeitgemeinde","type":"Kreisangehörige_Gemeinde"},"district":{"key":"05166","name":"Viersen","type":"Kreis"},"federalState":{"key":"05","name":"Nordrhein-Westfalen"}},{"name":"Woutersfeld","postalCode":"47929","locality":"Grefrath","municipality":{"key":"05166008","name":"Grefrath, Sport- und Freizeitgemeinde","type":"Kreisangehörige_Gemeinde"},"district":{"key":"05166","name":"Viersen","type":"Kreis"},"federalState":{"key":"05","name":"Nordrhein-Westfalen"}},{"name":"Zum Alten Sportplatz","postalCode":"47929","locality":"Grefrath","municipality":{"key":"05166008","name":"Grefrath, Sport- und Freizeitgemeinde","type":"Kreisangehörige_Gemeinde"},"district":{"key":"05166","name":"Viersen","type":"Kreis"},"federalState":{"key":"05","name":"Nordrhein-Westfalen"}},{"name":"Zum Mühlenberg","postalCode":"47929","locality":"Grefrath","municipality":{"key":"05166008","name":"Grefrath, Sport- und Freizeitgemeinde","type":"Kreisangehörige_Gemeinde"},"district":{"key":"05166","name":"Viersen","type":"Kreis"},"federalState":{"key":"05","name":"Nordrhein-Westfalen"}},{"name":"Zum Nordkanal","postalCode":"47929","locality":"Grefrath","municipality":{"key":"05166008","name":"Grefrath, Sport- und Freizeitgemeinde","type":"Kreisangehörige_Gemeinde"},"district":{"key":"05166","name":"Viersen","type":"Kreis"},"federalState":{"key":"05","name":"Nordrhein-Westfalen"}},{"name":"Äquatorweg","postalCode":"41749","locality":"Viersen","municipality":{"key":"05166032","name":"Viersen, Stadt","type":"Stadt"},"district":{"key":"05166","name":"Viersen","type":"Kreis"},"federalState":{"key":"05","name":"Nordrhein-Westfalen"}},]