[{"name":"Aitrachstr.","postalCode":"78187","locality":"Geisingen","municipality":{"key":"08327018","name":"Geisingen, Stadt","type":"Stadt"},"district":{"key":"08327","name":"Tuttlingen","type":"Landkreis"},"federalState":{"key":"08","name":"Baden-Württemberg"}},{"name":"Aitrachtalstr.","postalCode":"78187","locality":"Geisingen","municipality":{"key":"08327018","name":"Geisingen, Stadt","type":"Stadt"},"district":{"key":"08327","name":"Tuttlingen","type":"Landkreis"},"federalState":{"key":"08","name":"Baden-Württemberg"}},{"name":"Alemannenstr.","postalCode":"78187","locality":"Geisingen","municipality":{"key":"08327018","name":"Geisingen, Stadt","type":"Stadt"},"district":{"key":"08327","name":"Tuttlingen","type":"Landkreis"},"federalState":{"key":"08","name":"Baden-Württemberg"}},{"name":"Alte Gärtnerei","postalCode":"78187","locality":"Geisingen","municipality":{"key":"08327018","name":"Geisingen, Stadt","type":"Stadt"},"district":{"key":"08327","name":"Tuttlingen","type":"Landkreis"},"federalState":{"key":"08","name":"Baden-Württemberg"}},{"name":"Altenhauweg","postalCode":"78187","locality":"Geisingen","municipality":{"key":"08327018","name":"Geisingen, Stadt","type":"Stadt"},"district":{"key":"08327","name":"Tuttlingen","type":"Landkreis"},"federalState":{"key":"08","name":"Baden-Württemberg"}},{"name":"Alter Hettstadter Weg","postalCode":"97249","locality":"Eisingen","municipality":{"key":"09679126","name":"Eisingen","type":"Kreisangehörige_Gemeinde"},"district":{"key":"09679","name":"Würzburg","type":"Landkreis"},"federalState":{"key":"09","name":"Bayern"}},{"name":"Alter Postweg","postalCode":"78187","locality":"Geisingen","municipality":{"key":"08327018","name":"Geisingen, Stadt","type":"Stadt"},"district":{"key":"08327","name":"Tuttlingen","type":"Landkreis"},"federalState":{"key":"08","name":"Baden-Württemberg"}},{"name":"Alte Steiner Str.","postalCode":"75239","locality":"Eisingen","municipality":{"key":"08236011","name":"Eisingen","type":"Kreisangehörige_Gemeinde"},"district":{"key":"08236","name":"Enzkreis","type":"Landkreis"},"federalState":{"key":"08","name":"Baden-Württemberg"}},{"name":"Am Amtenstieg","postalCode":"78187","locality":"Geisingen","municipality":{"key":"08327018","name":"Geisingen, Stadt","type":"Stadt"},"district":{"key":"08327","name":"Tuttlingen","type":"Landkreis"},"federalState":{"key":"08","name":"Baden-Württemberg"}},{"name":"Am Bahnhof","postalCode":"78187","locality":"Geisingen","municipality":{"key":"08327018","name":"Geisingen, Stadt","type":"Stadt"},"district":{"key":"08327","name":"Tuttlingen","type":"Landkreis"},"federalState":{"key":"08","name":"Baden-Württemberg"}},{"name":"Am Bergle","postalCode":"78187","locality":"Geisingen","municipality":{"key":"08327018","name":"Geisingen, Stadt","type":"Stadt"},"district":{"key":"08327","name":"Tuttlingen","type":"Landkreis"},"federalState":{"key":"08","name":"Baden-Württemberg"}},{"name":"Am Espen","postalCode":"78187","locality":"Geisingen","municipality":{"key":"08327018","name":"Geisingen, Stadt","type":"Stadt"},"district":{"key":"08327","name":"Tuttlingen","type":"Landkreis"},"federalState":{"key":"08","name":"Baden-Württemberg"}},{"name":"Am Gemeindeweg","postalCode":"97249","locality":"Eisingen","municipality":{"key":"09679126","name":"Eisingen","type":"Kreisangehörige_Gemeinde"},"district":{"key":"09679","name":"Würzburg","type":"Landkreis"},"federalState":{"key":"09","name":"Bayern"}},{"name":"Am Göhren","postalCode":"78187","locality":"Geisingen","municipality":{"key":"08327018","name":"Geisingen, Stadt","type":"Stadt"},"district":{"key":"08327","name":"Tuttlingen","type":"Landkreis"},"federalState":{"key":"08","name":"Baden-Württemberg"}},{"name":"Am Hölzle","postalCode":"78187","locality":"Geisingen","municipality":{"key":"08327018","name":"Geisingen, Stadt","type":"Stadt"},"district":{"key":"08327","name":"Tuttlingen","type":"Landkreis"},"federalState":{"key":"08","name":"Baden-Württemberg"}},{"name":"Am Holzplatz","postalCode":"78187","locality":"Geisingen","municipality":{"key":"08327018","name":"Geisingen, Stadt","type":"Stadt"},"district":{"key":"08327","name":"Tuttlingen","type":"Landkreis"},"federalState":{"key":"08","name":"Baden-Württemberg"}},{"name":"Am Homberg","postalCode":"78187","locality":"Geisingen","municipality":{"key":"08327018","name":"Geisingen, Stadt","type":"Stadt"},"district":{"key":"08327","name":"Tuttlingen","type":"Landkreis"},"federalState":{"key":"08","name":"Baden-Württemberg"}},{"name":"Am Kalkofen","postalCode":"78187","locality":"Geisingen","municipality":{"key":"08327018","name":"Geisingen, Stadt","type":"Stadt"},"district":{"key":"08327","name":"Tuttlingen","type":"Landkreis"},"federalState":{"key":"08","name":"Baden-Württemberg"}},{"name":"Am Kalkofen","postalCode":"97249","locality":"Eisingen","municipality":{"key":"09679126","name":"Eisingen","type":"Kreisangehörige_Gemeinde"},"district":{"key":"09679","name":"Würzburg","type":"Landkreis"},"federalState":{"key":"09","name":"Bayern"}},{"name":"Am Molkenbrünnlein","postalCode":"97249","locality":"Eisingen","municipality":{"key":"09679126","name":"Eisingen","type":"Kreisangehörige_Gemeinde"},"district":{"key":"09679","name":"Würzburg","type":"Landkreis"},"federalState":{"key":"09","name":"Bayern"}},{"name":"Am Pulverturm","postalCode":"78187","locality":"Geisingen","municipality":{"key":"08327018","name":"Geisingen, Stadt","type":"Stadt"},"district":{"key":"08327","name":"Tuttlingen","type":"Landkreis"},"federalState":{"key":"08","name":"Baden-Württemberg"}},{"name":"Am Roten Kreuz","postalCode":"78187","locality":"Geisingen","municipality":{"key":"08327018","name":"Geisingen, Stadt","type":"Stadt"},"district":{"key":"08327","name":"Tuttlingen","type":"Landkreis"},"federalState":{"key":"08","name":"Baden-Württemberg"}},{"name":"Am Schmidtengraben","postalCode":"78187","locality":"Geisingen","municipality":{"key":"08327018","name":"Geisingen, Stadt","type":"Stadt"},"district":{"key":"08327","name":"Tuttlingen","type":"Landkreis"},"federalState":{"key":"08","name":"Baden-Württemberg"}},{"name":"Am Schmittendobel","postalCode":"78187","locality":"Geisingen","municipality":{"key":"08327018","name":"Geisingen, Stadt","type":"Stadt"},"district":{"key":"08327","name":"Tuttlingen","type":"Landkreis"},"federalState":{"key":"08","name":"Baden-Württemberg"}},{"name":"Amselstr.","postalCode":"75239","locality":"Eisingen","municipality":{"key":"08236011","name":"Eisingen","type":"Kreisangehörige_Gemeinde"},"district":{"key":"08236","name":"Enzkreis","type":"Landkreis"},"federalState":{"key":"08","name":"Baden-Württemberg"}},{"name":"Am Tierenbach","postalCode":"78187","locality":"Geisingen","municipality":{"key":"08327018","name":"Geisingen, Stadt","type":"Stadt"},"district":{"key":"08327","name":"Tuttlingen","type":"Landkreis"},"federalState":{"key":"08","name":"Baden-Württemberg"}},{"name":"An der Steig","postalCode":"78187","locality":"Geisingen","municipality":{"key":"08327018","name":"Geisingen, Stadt","type":"Stadt"},"district":{"key":"08327","name":"Tuttlingen","type":"Landkreis"},"federalState":{"key":"08","name":"Baden-Württemberg"}},{"name":"An der Zeil","postalCode":"97249","locality":"Eisingen","municipality":{"key":"09679126","name":"Eisingen","type":"Kreisangehörige_Gemeinde"},"district":{"key":"09679","name":"Würzburg","type":"Landkreis"},"federalState":{"key":"09","name":"Bayern"}},{"name":"Auf der Höhe","postalCode":"97249","locality":"Eisingen","municipality":{"key":"09679126","name":"Eisingen","type":"Kreisangehörige_Gemeinde"},"district":{"key":"09679","name":"Würzburg","type":"Landkreis"},"federalState":{"key":"09","name":"Bayern"}},{"name":"Auf der warmen Steig","postalCode":"78187","locality":"Geisingen","municipality":{"key":"08327018","name":"Geisingen, Stadt","type":"Stadt"},"district":{"key":"08327","name":"Tuttlingen","type":"Landkreis"},"federalState":{"key":"08","name":"Baden-Württemberg"}},{"name":"Auf Hochstetten","postalCode":"78187","locality":"Geisingen","municipality":{"key":"08327018","name":"Geisingen, Stadt","type":"Stadt"},"district":{"key":"08327","name":"Tuttlingen","type":"Landkreis"},"federalState":{"key":"08","name":"Baden-Württemberg"}},{"name":"Auf Wiehl","postalCode":"78187","locality":"Geisingen","municipality":{"key":"08327018","name":"Geisingen, Stadt","type":"Stadt"},"district":{"key":"08327","name":"Tuttlingen","type":"Landkreis"},"federalState":{"key":"08","name":"Baden-Württemberg"}},{"name":"Bachgasse","postalCode":"78187","locality":"Geisingen","municipality":{"key":"08327018","name":"Geisingen, Stadt","type":"Stadt"},"district":{"key":"08327","name":"Tuttlingen","type":"Landkreis"},"federalState":{"key":"08","name":"Baden-Württemberg"}},{"name":"Badisch Morgenweg","postalCode":"78187","locality":"Geisingen","municipality":{"key":"08327018","name":"Geisingen, Stadt","type":"Stadt"},"district":{"key":"08327","name":"Tuttlingen","type":"Landkreis"},"federalState":{"key":"08","name":"Baden-Württemberg"}},{"name":"Bahnhofstr.","postalCode":"78187","locality":"Geisingen","municipality":{"key":"08327018","name":"Geisingen, Stadt","type":"Stadt"},"district":{"key":"08327","name":"Tuttlingen","type":"Landkreis"},"federalState":{"key":"08","name":"Baden-Württemberg"}},{"name":"Baldinger Str.","postalCode":"78187","locality":"Geisingen","municipality":{"key":"08327018","name":"Geisingen, Stadt","type":"Stadt"},"district":{"key":"08327","name":"Tuttlingen","type":"Landkreis"},"federalState":{"key":"08","name":"Baden-Württemberg"}},{"name":"Banatstr.","postalCode":"78187","locality":"Geisingen","municipality":{"key":"08327018","name":"Geisingen, Stadt","type":"Stadt"},"district":{"key":"08327","name":"Tuttlingen","type":"Landkreis"},"federalState":{"key":"08","name":"Baden-Württemberg"}},{"name":"Bärhaldenweg","postalCode":"78187","locality":"Geisingen","municipality":{"key":"08327018","name":"Geisingen, Stadt","type":"Stadt"},"district":{"key":"08327","name":"Tuttlingen","type":"Landkreis"},"federalState":{"key":"08","name":"Baden-Württemberg"}},{"name":"Beethovenstr.","postalCode":"75239","locality":"Eisingen","municipality":{"key":"08236011","name":"Eisingen","type":"Kreisangehörige_Gemeinde"},"district":{"key":"08236","name":"Enzkreis","type":"Landkreis"},"federalState":{"key":"08","name":"Baden-Württemberg"}},{"name":"Belchenstr.","postalCode":"75239","locality":"Eisingen","municipality":{"key":"08236011","name":"Eisingen","type":"Kreisangehörige_Gemeinde"},"district":{"key":"08236","name":"Enzkreis","type":"Landkreis"},"federalState":{"key":"08","name":"Baden-Württemberg"}},{"name":"Bergleweg","postalCode":"78187","locality":"Geisingen","municipality":{"key":"08327018","name":"Geisingen, Stadt","type":"Stadt"},"district":{"key":"08327","name":"Tuttlingen","type":"Landkreis"},"federalState":{"key":"08","name":"Baden-Württemberg"}},{"name":"Bergstr.","postalCode":"75239","locality":"Eisingen","municipality":{"key":"08236011","name":"Eisingen","type":"Kreisangehörige_Gemeinde"},"district":{"key":"08236","name":"Enzkreis","type":"Landkreis"},"federalState":{"key":"08","name":"Baden-Württemberg"}},{"name":"Bergstr.","postalCode":"78187","locality":"Geisingen","municipality":{"key":"08327018","name":"Geisingen, Stadt","type":"Stadt"},"district":{"key":"08327","name":"Tuttlingen","type":"Landkreis"},"federalState":{"key":"08","name":"Baden-Württemberg"}},{"name":"Birkenweg","postalCode":"78187","locality":"Geisingen","municipality":{"key":"08327018","name":"Geisingen, Stadt","type":"Stadt"},"district":{"key":"08327","name":"Tuttlingen","type":"Landkreis"},"federalState":{"key":"08","name":"Baden-Württemberg"}},{"name":"Bitzstr.","postalCode":"78187","locality":"Geisingen","municipality":{"key":"08327018","name":"Geisingen, Stadt","type":"Stadt"},"district":{"key":"08327","name":"Tuttlingen","type":"Landkreis"},"federalState":{"key":"08","name":"Baden-Württemberg"}},{"name":"Blauenstr.","postalCode":"75239","locality":"Eisingen","municipality":{"key":"08236011","name":"Eisingen","type":"Kreisangehörige_Gemeinde"},"district":{"key":"08236","name":"Enzkreis","type":"Landkreis"},"federalState":{"key":"08","name":"Baden-Württemberg"}},{"name":"Bodenseestr.","postalCode":"78187","locality":"Geisingen","municipality":{"key":"08327018","name":"Geisingen, Stadt","type":"Stadt"},"district":{"key":"08327","name":"Tuttlingen","type":"Landkreis"},"federalState":{"key":"08","name":"Baden-Württemberg"}},{"name":"Bogengasse","postalCode":"78187","locality":"Geisingen","municipality":{"key":"08327018","name":"Geisingen, Stadt","type":"Stadt"},"district":{"key":"08327","name":"Tuttlingen","type":"Landkreis"},"federalState":{"key":"08","name":"Baden-Württemberg"}},{"name":"Bohlstr.","postalCode":"78187","locality":"Geisingen","municipality":{"key":"08327018","name":"Geisingen, Stadt","type":"Stadt"},"district":{"key":"08327","name":"Tuttlingen","type":"Landkreis"},"federalState":{"key":"08","name":"Baden-Württemberg"}},{"name":"Bohlweg","postalCode":"78187","locality":"Geisingen","municipality":{"key":"08327018","name":"Geisingen, Stadt","type":"Stadt"},"district":{"key":"08327","name":"Tuttlingen","type":"Landkreis"},"federalState":{"key":"08","name":"Baden-Württemberg"}},{"name":"Bohrainstr.","postalCode":"75239","locality":"Eisingen","municipality":{"key":"08236011","name":"Eisingen","type":"Kreisangehörige_Gemeinde"},"district":{"key":"08236","name":"Enzkreis","type":"Landkreis"},"federalState":{"key":"08","name":"Baden-Württemberg"}},{"name":"Bohrrainstr.","postalCode":"75239","locality":"Eisingen","municipality":{"key":"08236011","name":"Eisingen","type":"Kreisangehörige_Gemeinde"},"district":{"key":"08236","name":"Enzkreis","type":"Landkreis"},"federalState":{"key":"08","name":"Baden-Württemberg"}},{"name":"Brühlstr.","postalCode":"78187","locality":"Geisingen","municipality":{"key":"08327018","name":"Geisingen, Stadt","type":"Stadt"},"district":{"key":"08327","name":"Tuttlingen","type":"Landkreis"},"federalState":{"key":"08","name":"Baden-Württemberg"}},{"name":"Brunnenstr.","postalCode":"75239","locality":"Eisingen","municipality":{"key":"08236011","name":"Eisingen","type":"Kreisangehörige_Gemeinde"},"district":{"key":"08236","name":"Enzkreis","type":"Landkreis"},"federalState":{"key":"08","name":"Baden-Württemberg"}},{"name":"Brunnenstr.","postalCode":"97249","locality":"Eisingen","municipality":{"key":"09679126","name":"Eisingen","type":"Kreisangehörige_Gemeinde"},"district":{"key":"09679","name":"Würzburg","type":"Landkreis"},"federalState":{"key":"09","name":"Bayern"}},{"name":"Buchenstr.","postalCode":"97249","locality":"Eisingen","municipality":{"key":"09679126","name":"Eisingen","type":"Kreisangehörige_Gemeinde"},"district":{"key":"09679","name":"Würzburg","type":"Landkreis"},"federalState":{"key":"09","name":"Bayern"}},{"name":"Buchenweg","postalCode":"75239","locality":"Eisingen","municipality":{"key":"08236011","name":"Eisingen","type":"Kreisangehörige_Gemeinde"},"district":{"key":"08236","name":"Enzkreis","type":"Landkreis"},"federalState":{"key":"08","name":"Baden-Württemberg"}},{"name":"Buckstr.","postalCode":"78187","locality":"Geisingen","municipality":{"key":"08327018","name":"Geisingen, Stadt","type":"Stadt"},"district":{"key":"08327","name":"Tuttlingen","type":"Landkreis"},"federalState":{"key":"08","name":"Baden-Württemberg"}},{"name":"Carl-Orff-Str.","postalCode":"97076","locality":"Würzburg","municipality":{"key":"09663000","name":"Würzburg","type":"Kreisfreie_Stadt"},"district":{"key":"09663","name":"Würzburg","type":"Kreisfreie_Stadt"},"federalState":{"key":"09","name":"Bayern"}},{"name":"Christlsteige","postalCode":"97074","locality":"Würzburg","municipality":{"key":"09663000","name":"Würzburg","type":"Kreisfreie_Stadt"},"district":{"key":"09663","name":"Würzburg","type":"Kreisfreie_Stadt"},"federalState":{"key":"09","name":"Bayern"}},{"name":"Christoph-Mayer-Weg","postalCode":"97082","locality":"Würzburg","municipality":{"key":"09663000","name":"Würzburg","type":"Kreisfreie_Stadt"},"district":{"key":"09663","name":"Würzburg","type":"Kreisfreie_Stadt"},"federalState":{"key":"09","name":"Bayern"}},{"name":"Conradisteg","postalCode":"97072","locality":"Würzburg","municipality":{"key":"09663000","name":"Würzburg","type":"Kreisfreie_Stadt"},"district":{"key":"09663","name":"Würzburg","type":"Kreisfreie_Stadt"},"federalState":{"key":"09","name":"Bayern"}},{"name":"Conradistr.","postalCode":"97072","locality":"Würzburg","municipality":{"key":"09663000","name":"Würzburg","type":"Kreisfreie_Stadt"},"district":{"key":"09663","name":"Würzburg","type":"Kreisfreie_Stadt"},"federalState":{"key":"09","name":"Bayern"}},{"name":"Crevennastr.","postalCode":"97072","locality":"Würzburg","municipality":{"key":"09663000","name":"Würzburg","type":"Kreisfreie_Stadt"},"district":{"key":"09663","name":"Würzburg","type":"Kreisfreie_Stadt"},"federalState":{"key":"09","name":"Bayern"}},{"name":"Cronthalstr.","postalCode":"97074","locality":"Würzburg","municipality":{"key":"09663000","name":"Würzburg","type":"Kreisfreie_Stadt"},"district":{"key":"09663","name":"Würzburg","type":"Kreisfreie_Stadt"},"federalState":{"key":"09","name":"Bayern"}},{"name":"Dekan-Hornung-Str.","postalCode":"78187","locality":"Geisingen","municipality":{"key":"08327018","name":"Geisingen, Stadt","type":"Stadt"},"district":{"key":"08327","name":"Tuttlingen","type":"Landkreis"},"federalState":{"key":"08","name":"Baden-Württemberg"}},{"name":"Doktor-Arko-Str.","postalCode":"78187","locality":"Geisingen","municipality":{"key":"08327018","name":"Geisingen, Stadt","type":"Stadt"},"district":{"key":"08327","name":"Tuttlingen","type":"Landkreis"},"federalState":{"key":"08","name":"Baden-Württemberg"}},{"name":"Donaustr.","postalCode":"78187","locality":"Geisingen","municipality":{"key":"08327018","name":"Geisingen, Stadt","type":"Stadt"},"district":{"key":"08327","name":"Tuttlingen","type":"Landkreis"},"federalState":{"key":"08","name":"Baden-Württemberg"}},{"name":"Donautalstr.","postalCode":"78187","locality":"Geisingen","municipality":{"key":"08327018","name":"Geisingen, Stadt","type":"Stadt"},"district":{"key":"08327","name":"Tuttlingen","type":"Landkreis"},"federalState":{"key":"08","name":"Baden-Württemberg"}},{"name":"Dornbuschweg","postalCode":"97249","locality":"Eisingen","municipality":{"key":"09679126","name":"Eisingen","type":"Kreisangehörige_Gemeinde"},"district":{"key":"09679","name":"Würzburg","type":"Landkreis"},"federalState":{"key":"09","name":"Bayern"}},{"name":"Drosselstr.","postalCode":"75239","locality":"Eisingen","municipality":{"key":"08236011","name":"Eisingen","type":"Kreisangehörige_Gemeinde"},"district":{"key":"08236","name":"Enzkreis","type":"Landkreis"},"federalState":{"key":"08","name":"Baden-Württemberg"}},{"name":"Droste-Hülshoff-Str.","postalCode":"78187","locality":"Geisingen","municipality":{"key":"08327018","name":"Geisingen, Stadt","type":"Stadt"},"district":{"key":"08327","name":"Tuttlingen","type":"Landkreis"},"federalState":{"key":"08","name":"Baden-Württemberg"}},{"name":"Egerlandstr.","postalCode":"97249","locality":"Eisingen","municipality":{"key":"09679126","name":"Eisingen","type":"Kreisangehörige_Gemeinde"},"district":{"key":"09679","name":"Würzburg","type":"Landkreis"},"federalState":{"key":"09","name":"Bayern"}},{"name":"Ehrenburg Hauptweg","postalCode":"78187","locality":"Geisingen","municipality":{"key":"08327018","name":"Geisingen, Stadt","type":"Stadt"},"district":{"key":"08327","name":"Tuttlingen","type":"Landkreis"},"federalState":{"key":"08","name":"Baden-Württemberg"}},{"name":"Ehrenburg Rundweg","postalCode":"78187","locality":"Geisingen","municipality":{"key":"08327018","name":"Geisingen, Stadt","type":"Stadt"},"district":{"key":"08327","name":"Tuttlingen","type":"Landkreis"},"federalState":{"key":"08","name":"Baden-Württemberg"}},{"name":"Ehrenburgsteigweg","postalCode":"78187","locality":"Geisingen","municipality":{"key":"08327018","name":"Geisingen, Stadt","type":"Stadt"},"district":{"key":"08327","name":"Tuttlingen","type":"Landkreis"},"federalState":{"key":"08","name":"Baden-Württemberg"}},{"name":"Eichbergweg","postalCode":"78187","locality":"Geisingen","municipality":{"key":"08327018","name":"Geisingen, Stadt","type":"Stadt"},"district":{"key":"08327","name":"Tuttlingen","type":"Landkreis"},"federalState":{"key":"08","name":"Baden-Württemberg"}},{"name":"Eichendorffstr.","postalCode":"78187","locality":"Geisingen","municipality":{"key":"08327018","name":"Geisingen, Stadt","type":"Stadt"},"district":{"key":"08327","name":"Tuttlingen","type":"Landkreis"},"federalState":{"key":"08","name":"Baden-Württemberg"}},{"name":"Eichenweg","postalCode":"75239","locality":"Eisingen","municipality":{"key":"08236011","name":"Eisingen","type":"Kreisangehörige_Gemeinde"},"district":{"key":"08236","name":"Enzkreis","type":"Landkreis"},"federalState":{"key":"08","name":"Baden-Württemberg"}},{"name":"Eichhaldenstr.","postalCode":"78187","locality":"Geisingen","municipality":{"key":"08327018","name":"Geisingen, Stadt","type":"Stadt"},"district":{"key":"08327","name":"Tuttlingen","type":"Landkreis"},"federalState":{"key":"08","name":"Baden-Württemberg"}},{"name":"Eigentalweg","postalCode":"78187","locality":"Geisingen","municipality":{"key":"08327018","name":"Geisingen, Stadt","type":"Stadt"},"district":{"key":"08327","name":"Tuttlingen","type":"Landkreis"},"federalState":{"key":"08","name":"Baden-Württemberg"}},{"name":"Emmishofer-Str.","postalCode":"78187","locality":"Geisingen","municipality":{"key":"08327018","name":"Geisingen, Stadt","type":"Stadt"},"district":{"key":"08327","name":"Tuttlingen","type":"Landkreis"},"federalState":{"key":"08","name":"Baden-Württemberg"}},{"name":"Engener Str.","postalCode":"78187","locality":"Geisingen","municipality":{"key":"08327018","name":"Geisingen, Stadt","type":"Stadt"},"district":{"key":"08327","name":"Tuttlingen","type":"Landkreis"},"federalState":{"key":"08","name":"Baden-Württemberg"}},{"name":"Erbachshof","postalCode":"97249","locality":"Eisingen","municipality":{"key":"09679126","name":"Eisingen","type":"Kreisangehörige_Gemeinde"},"district":{"key":"09679","name":"Würzburg","type":"Landkreis"},"federalState":{"key":"09","name":"Bayern"}},{"name":"Erlenweg","postalCode":"75239","locality":"Eisingen","municipality":{"key":"08236011","name":"Eisingen","type":"Kreisangehörige_Gemeinde"},"district":{"key":"08236","name":"Enzkreis","type":"Landkreis"},"federalState":{"key":"08","name":"Baden-Württemberg"}},{"name":"Eschentalweg","postalCode":"78187","locality":"Geisingen","municipality":{"key":"08327018","name":"Geisingen, Stadt","type":"Stadt"},"district":{"key":"08327","name":"Tuttlingen","type":"Landkreis"},"federalState":{"key":"08","name":"Baden-Württemberg"}},{"name":"Eselmühlenweg","postalCode":"78187","locality":"Geisingen","municipality":{"key":"08327018","name":"Geisingen, Stadt","type":"Stadt"},"district":{"key":"08327","name":"Tuttlingen","type":"Landkreis"},"federalState":{"key":"08","name":"Baden-Württemberg"}},{"name":"Feldbergstr.","postalCode":"75239","locality":"Eisingen","municipality":{"key":"08236011","name":"Eisingen","type":"Kreisangehörige_Gemeinde"},"district":{"key":"08236","name":"Enzkreis","type":"Landkreis"},"federalState":{"key":"08","name":"Baden-Württemberg"}},{"name":"Felix-Wankel-Str.","postalCode":"78187","locality":"Geisingen","municipality":{"key":"08327018","name":"Geisingen, Stadt","type":"Stadt"},"district":{"key":"08327","name":"Tuttlingen","type":"Landkreis"},"federalState":{"key":"08","name":"Baden-Württemberg"}},{"name":"Fichtenweg","postalCode":"78187","locality":"Geisingen","municipality":{"key":"08327018","name":"Geisingen, Stadt","type":"Stadt"},"district":{"key":"08327","name":"Tuttlingen","type":"Landkreis"},"federalState":{"key":"08","name":"Baden-Württemberg"}},{"name":"Fichtenweg","postalCode":"97249","locality":"Eisingen","municipality":{"key":"09679126","name":"Eisingen","type":"Kreisangehörige_Gemeinde"},"district":{"key":"09679","name":"Würzburg","type":"Landkreis"},"federalState":{"key":"09","name":"Bayern"}},{"name":"Finkenstr.","postalCode":"75239","locality":"Eisingen","municipality":{"key":"08236011","name":"Eisingen","type":"Kreisangehörige_Gemeinde"},"district":{"key":"08236","name":"Enzkreis","type":"Landkreis"},"federalState":{"key":"08","name":"Baden-Württemberg"}},{"name":"Fliederweg","postalCode":"78187","locality":"Geisingen","municipality":{"key":"08327018","name":"Geisingen, Stadt","type":"Stadt"},"district":{"key":"08327","name":"Tuttlingen","type":"Landkreis"},"federalState":{"key":"08","name":"Baden-Württemberg"}},{"name":"Frankenstr.","postalCode":"97249","locality":"Eisingen","municipality":{"key":"09679126","name":"Eisingen","type":"Kreisangehörige_Gemeinde"},"district":{"key":"09679","name":"Würzburg","type":"Landkreis"},"federalState":{"key":"09","name":"Bayern"}},{"name":"Friedhofstr.","postalCode":"78187","locality":"Geisingen","municipality":{"key":"08327018","name":"Geisingen, Stadt","type":"Stadt"},"district":{"key":"08327","name":"Tuttlingen","type":"Landkreis"},"federalState":{"key":"08","name":"Baden-Württemberg"}},{"name":"Friedhofstr.","postalCode":"97249","locality":"Eisingen","municipality":{"key":"09679126","name":"Eisingen","type":"Kreisangehörige_Gemeinde"},"district":{"key":"09679","name":"Würzburg","type":"Landkreis"},"federalState":{"key":"09","name":"Bayern"}},{"name":"Frühlingstr.","postalCode":"97249","locality":"Eisingen","municipality":{"key":"09679126","name":"Eisingen","type":"Kreisangehörige_Gemeinde"},"district":{"key":"09679","name":"Würzburg","type":"Landkreis"},"federalState":{"key":"09","name":"Bayern"}},{"name":"Fünfeckerweg","postalCode":"78187","locality":"Geisingen","municipality":{"key":"08327018","name":"Geisingen, Stadt","type":"Stadt"},"district":{"key":"08327","name":"Tuttlingen","type":"Landkreis"},"federalState":{"key":"08","name":"Baden-Württemberg"}},{"name":"Gartenstr.","postalCode":"75239","locality":"Eisingen","municipality":{"key":"08236011","name":"Eisingen","type":"Kreisangehörige_Gemeinde"},"district":{"key":"08236","name":"Enzkreis","type":"Landkreis"},"federalState":{"key":"08","name":"Baden-Württemberg"}},{"name":"Gartenstr.","postalCode":"78187","locality":"Geisingen","municipality":{"key":"08327018","name":"Geisingen, Stadt","type":"Stadt"},"district":{"key":"08327","name":"Tuttlingen","type":"Landkreis"},"federalState":{"key":"08","name":"Baden-Württemberg"}},{"name":"Gartenstr.","postalCode":"97249","locality":"Eisingen","municipality":{"key":"09679126","name":"Eisingen","type":"Kreisangehörige_Gemeinde"},"district":{"key":"09679","name":"Würzburg","type":"Landkreis"},"federalState":{"key":"09","name":"Bayern"}},{"name":"Gauertstr.","postalCode":"78187","locality":"Geisingen","municipality":{"key":"08327018","name":"Geisingen, Stadt","type":"Stadt"},"district":{"key":"08327","name":"Tuttlingen","type":"Landkreis"},"federalState":{"key":"08","name":"Baden-Württemberg"}},{"name":"Gemeindewiesweg","postalCode":"78187","locality":"Geisingen","municipality":{"key":"08327018","name":"Geisingen, Stadt","type":"Stadt"},"district":{"key":"08327","name":"Tuttlingen","type":"Landkreis"},"federalState":{"key":"08","name":"Baden-Württemberg"}},{"name":"Georg-August-Christ-Str.","postalCode":"97249","locality":"Eisingen","municipality":{"key":"09679126","name":"Eisingen","type":"Kreisangehörige_Gemeinde"},"district":{"key":"09679","name":"Würzburg","type":"Landkreis"},"federalState":{"key":"09","name":"Bayern"}},{"name":"Geranienweg","postalCode":"78187","locality":"Geisingen","municipality":{"key":"08327018","name":"Geisingen, Stadt","type":"Stadt"},"district":{"key":"08327","name":"Tuttlingen","type":"Landkreis"},"federalState":{"key":"08","name":"Baden-Württemberg"}},{"name":"Gerber-Fischer-Str.","postalCode":"78187","locality":"Geisingen","municipality":{"key":"08327018","name":"Geisingen, Stadt","type":"Stadt"},"district":{"key":"08327","name":"Tuttlingen","type":"Landkreis"},"federalState":{"key":"08","name":"Baden-Württemberg"}},{"name":"Gerwigstr.","postalCode":"78187","locality":"Geisingen","municipality":{"key":"08327018","name":"Geisingen, Stadt","type":"Stadt"},"district":{"key":"08327","name":"Tuttlingen","type":"Landkreis"},"federalState":{"key":"08","name":"Baden-Württemberg"}},{"name":"Goethestr.","postalCode":"75239","locality":"Eisingen","municipality":{"key":"08236011","name":"Eisingen","type":"Kreisangehörige_Gemeinde"},"district":{"key":"08236","name":"Enzkreis","type":"Landkreis"},"federalState":{"key":"08","name":"Baden-Württemberg"}},{"name":"Goethestr.","postalCode":"78187","locality":"Geisingen","municipality":{"key":"08327018","name":"Geisingen, Stadt","type":"Stadt"},"district":{"key":"08327","name":"Tuttlingen","type":"Landkreis"},"federalState":{"key":"08","name":"Baden-Württemberg"}},{"name":"Grasweg","postalCode":"97249","locality":"Eisingen","municipality":{"key":"09679126","name":"Eisingen","type":"Kreisangehörige_Gemeinde"},"district":{"key":"09679","name":"Würzburg","type":"Landkreis"},"federalState":{"key":"09","name":"Bayern"}},{"name":"Grillplatz im Pfaffental","postalCode":"78187","locality":"Geisingen","municipality":{"key":"08327018","name":"Geisingen, Stadt","type":"Stadt"},"district":{"key":"08327","name":"Tuttlingen","type":"Landkreis"},"federalState":{"key":"08","name":"Baden-Württemberg"}},{"name":"Grünwinkel","postalCode":"78187","locality":"Geisingen","municipality":{"key":"08327018","name":"Geisingen, Stadt","type":"Stadt"},"district":{"key":"08327","name":"Tuttlingen","type":"Landkreis"},"federalState":{"key":"08","name":"Baden-Württemberg"}},{"name":"Guttenberger Str.","postalCode":"97249","locality":"Eisingen","municipality":{"key":"09679126","name":"Eisingen","type":"Kreisangehörige_Gemeinde"},"district":{"key":"09679","name":"Würzburg","type":"Landkreis"},"federalState":{"key":"09","name":"Bayern"}},{"name":"Häldenstr.","postalCode":"75239","locality":"Eisingen","municipality":{"key":"08236011","name":"Eisingen","type":"Kreisangehörige_Gemeinde"},"district":{"key":"08236","name":"Enzkreis","type":"Landkreis"},"federalState":{"key":"08","name":"Baden-Württemberg"}},{"name":"Händelstr.","postalCode":"75239","locality":"Eisingen","municipality":{"key":"08236011","name":"Eisingen","type":"Kreisangehörige_Gemeinde"},"district":{"key":"08236","name":"Enzkreis","type":"Landkreis"},"federalState":{"key":"08","name":"Baden-Württemberg"}},{"name":"Hangstr.","postalCode":"78187","locality":"Geisingen","municipality":{"key":"08327018","name":"Geisingen, Stadt","type":"Stadt"},"district":{"key":"08327","name":"Tuttlingen","type":"Landkreis"},"federalState":{"key":"08","name":"Baden-Württemberg"}},{"name":"Hans-Kramer-Str.","postalCode":"78187","locality":"Geisingen","municipality":{"key":"08327018","name":"Geisingen, Stadt","type":"Stadt"},"district":{"key":"08327","name":"Tuttlingen","type":"Landkreis"},"federalState":{"key":"08","name":"Baden-Württemberg"}},{"name":"Hans-Thoma-Str.","postalCode":"78187","locality":"Geisingen","municipality":{"key":"08327018","name":"Geisingen, Stadt","type":"Stadt"},"district":{"key":"08327","name":"Tuttlingen","type":"Landkreis"},"federalState":{"key":"08","name":"Baden-Württemberg"}},{"name":"Hauptstr.","postalCode":"78187","locality":"Geisingen","municipality":{"key":"08327018","name":"Geisingen, Stadt","type":"Stadt"},"district":{"key":"08327","name":"Tuttlingen","type":"Landkreis"},"federalState":{"key":"08","name":"Baden-Württemberg"}},{"name":"Hauptstr.","postalCode":"97249","locality":"Eisingen","municipality":{"key":"09679126","name":"Eisingen","type":"Kreisangehörige_Gemeinde"},"district":{"key":"09679","name":"Würzburg","type":"Landkreis"},"federalState":{"key":"09","name":"Bayern"}},{"name":"Hauserswiesen-Ring","postalCode":"78187","locality":"Geisingen","municipality":{"key":"08327018","name":"Geisingen, Stadt","type":"Stadt"},"district":{"key":"08327","name":"Tuttlingen","type":"Landkreis"},"federalState":{"key":"08","name":"Baden-Württemberg"}},{"name":"Hebelstr.","postalCode":"75239","locality":"Eisingen","municipality":{"key":"08236011","name":"Eisingen","type":"Kreisangehörige_Gemeinde"},"district":{"key":"08236","name":"Enzkreis","type":"Landkreis"},"federalState":{"key":"08","name":"Baden-Württemberg"}},{"name":"Hebelstr.","postalCode":"78187","locality":"Geisingen","municipality":{"key":"08327018","name":"Geisingen, Stadt","type":"Stadt"},"district":{"key":"08327","name":"Tuttlingen","type":"Landkreis"},"federalState":{"key":"08","name":"Baden-Württemberg"}},{"name":"Hegaustr.","postalCode":"78187","locality":"Geisingen","municipality":{"key":"08327018","name":"Geisingen, Stadt","type":"Stadt"},"district":{"key":"08327","name":"Tuttlingen","type":"Landkreis"},"federalState":{"key":"08","name":"Baden-Württemberg"}},{"name":"Hermann-Schäufele-Str.","postalCode":"78187","locality":"Geisingen","municipality":{"key":"08327018","name":"Geisingen, Stadt","type":"Stadt"},"district":{"key":"08327","name":"Tuttlingen","type":"Landkreis"},"federalState":{"key":"08","name":"Baden-Württemberg"}},{"name":"Herrenkäpfle-Haldenweg","postalCode":"78187","locality":"Geisingen","municipality":{"key":"08327018","name":"Geisingen, Stadt","type":"Stadt"},"district":{"key":"08327","name":"Tuttlingen","type":"Landkreis"},"federalState":{"key":"08","name":"Baden-Württemberg"}},{"name":"Herrlesgraben","postalCode":"97249","locality":"Eisingen","municipality":{"key":"09679126","name":"Eisingen","type":"Kreisangehörige_Gemeinde"},"district":{"key":"09679","name":"Würzburg","type":"Landkreis"},"federalState":{"key":"09","name":"Bayern"}},{"name":"Hinter Gärten","postalCode":"78187","locality":"Geisingen","municipality":{"key":"08327018","name":"Geisingen, Stadt","type":"Stadt"},"district":{"key":"08327","name":"Tuttlingen","type":"Landkreis"},"federalState":{"key":"08","name":"Baden-Württemberg"}},{"name":"Hinterhofen","postalCode":"78187","locality":"Geisingen","municipality":{"key":"08327018","name":"Geisingen, Stadt","type":"Stadt"},"district":{"key":"08327","name":"Tuttlingen","type":"Landkreis"},"federalState":{"key":"08","name":"Baden-Württemberg"}},{"name":"Hirschgasse","postalCode":"78187","locality":"Geisingen","municipality":{"key":"08327018","name":"Geisingen, Stadt","type":"Stadt"},"district":{"key":"08327","name":"Tuttlingen","type":"Landkreis"},"federalState":{"key":"08","name":"Baden-Württemberg"}},{"name":"Hirtenstr.","postalCode":"75239","locality":"Eisingen","municipality":{"key":"08236011","name":"Eisingen","type":"Kreisangehörige_Gemeinde"},"district":{"key":"08236","name":"Enzkreis","type":"Landkreis"},"federalState":{"key":"08","name":"Baden-Württemberg"}},{"name":"Hofäckerstr.","postalCode":"75239","locality":"Eisingen","municipality":{"key":"08236011","name":"Eisingen","type":"Kreisangehörige_Gemeinde"},"district":{"key":"08236","name":"Enzkreis","type":"Landkreis"},"federalState":{"key":"08","name":"Baden-Württemberg"}},{"name":"Höhenstr.","postalCode":"75239","locality":"Eisingen","municipality":{"key":"08236011","name":"Eisingen","type":"Kreisangehörige_Gemeinde"},"district":{"key":"08236","name":"Enzkreis","type":"Landkreis"},"federalState":{"key":"08","name":"Baden-Württemberg"}},{"name":"Höhenweg","postalCode":"97249","locality":"Eisingen","municipality":{"key":"09679126","name":"Eisingen","type":"Kreisangehörige_Gemeinde"},"district":{"key":"09679","name":"Würzburg","type":"Landkreis"},"federalState":{"key":"09","name":"Bayern"}},{"name":"Hölderlinstr.","postalCode":"75239","locality":"Eisingen","municipality":{"key":"08236011","name":"Eisingen","type":"Kreisangehörige_Gemeinde"},"district":{"key":"08236","name":"Enzkreis","type":"Landkreis"},"federalState":{"key":"08","name":"Baden-Württemberg"}},{"name":"Hühnerbühlweg","postalCode":"78187","locality":"Geisingen","municipality":{"key":"08327018","name":"Geisingen, Stadt","type":"Stadt"},"district":{"key":"08327","name":"Tuttlingen","type":"Landkreis"},"federalState":{"key":"08","name":"Baden-Württemberg"}},{"name":"Huttenstr.","postalCode":"75239","locality":"Eisingen","municipality":{"key":"08236011","name":"Eisingen","type":"Kreisangehörige_Gemeinde"},"district":{"key":"08236","name":"Enzkreis","type":"Landkreis"},"federalState":{"key":"08","name":"Baden-Württemberg"}},{"name":"Hüttenweg","postalCode":"78187","locality":"Geisingen","municipality":{"key":"08327018","name":"Geisingen, Stadt","type":"Stadt"},"district":{"key":"08327","name":"Tuttlingen","type":"Landkreis"},"federalState":{"key":"08","name":"Baden-Württemberg"}},{"name":"Im Espel","postalCode":"78187","locality":"Geisingen","municipality":{"key":"08327018","name":"Geisingen, Stadt","type":"Stadt"},"district":{"key":"08327","name":"Tuttlingen","type":"Landkreis"},"federalState":{"key":"08","name":"Baden-Württemberg"}},{"name":"Im Forchen","postalCode":"75239","locality":"Eisingen","municipality":{"key":"08236011","name":"Eisingen","type":"Kreisangehörige_Gemeinde"},"district":{"key":"08236","name":"Enzkreis","type":"Landkreis"},"federalState":{"key":"08","name":"Baden-Württemberg"}},{"name":"Im Gässle","postalCode":"78187","locality":"Geisingen","municipality":{"key":"08327018","name":"Geisingen, Stadt","type":"Stadt"},"district":{"key":"08327","name":"Tuttlingen","type":"Landkreis"},"federalState":{"key":"08","name":"Baden-Württemberg"}},{"name":"Im Krähenloch","postalCode":"78187","locality":"Geisingen","municipality":{"key":"08327018","name":"Geisingen, Stadt","type":"Stadt"},"district":{"key":"08327","name":"Tuttlingen","type":"Landkreis"},"federalState":{"key":"08","name":"Baden-Württemberg"}},{"name":"Im Krautgartenweg","postalCode":"78187","locality":"Geisingen","municipality":{"key":"08327018","name":"Geisingen, Stadt","type":"Stadt"},"district":{"key":"08327","name":"Tuttlingen","type":"Landkreis"},"federalState":{"key":"08","name":"Baden-Württemberg"}},{"name":"Immensitz","postalCode":"78187","locality":"Geisingen","municipality":{"key":"08327018","name":"Geisingen, Stadt","type":"Stadt"},"district":{"key":"08327","name":"Tuttlingen","type":"Landkreis"},"federalState":{"key":"08","name":"Baden-Württemberg"}},{"name":"Im Ried","postalCode":"78187","locality":"Geisingen","municipality":{"key":"08327018","name":"Geisingen, Stadt","type":"Stadt"},"district":{"key":"08327","name":"Tuttlingen","type":"Landkreis"},"federalState":{"key":"08","name":"Baden-Württemberg"}},{"name":"Im Winkel","postalCode":"78187","locality":"Geisingen","municipality":{"key":"08327018","name":"Geisingen, Stadt","type":"Stadt"},"district":{"key":"08327","name":"Tuttlingen","type":"Landkreis"},"federalState":{"key":"08","name":"Baden-Württemberg"}},{"name":"In der Au","postalCode":"78187","locality":"Geisingen","municipality":{"key":"08327018","name":"Geisingen, Stadt","type":"Stadt"},"district":{"key":"08327","name":"Tuttlingen","type":"Landkreis"},"federalState":{"key":"08","name":"Baden-Württemberg"}},{"name":"Industriestr.","postalCode":"97249","locality":"Eisingen","municipality":{"key":"09679126","name":"Eisingen","type":"Kreisangehörige_Gemeinde"},"district":{"key":"09679","name":"Würzburg","type":"Landkreis"},"federalState":{"key":"09","name":"Bayern"}},{"name":"Jakob-Barth-Str.","postalCode":"78187","locality":"Geisingen","municipality":{"key":"08327018","name":"Geisingen, Stadt","type":"Stadt"},"district":{"key":"08327","name":"Tuttlingen","type":"Landkreis"},"federalState":{"key":"08","name":"Baden-Württemberg"}},{"name":"Kaiserhüttenweg","postalCode":"78187","locality":"Geisingen","municipality":{"key":"08327018","name":"Geisingen, Stadt","type":"Stadt"},"district":{"key":"08327","name":"Tuttlingen","type":"Landkreis"},"federalState":{"key":"08","name":"Baden-Württemberg"}},{"name":"Kaltenbrunnenweg","postalCode":"78187","locality":"Geisingen","municipality":{"key":"08327018","name":"Geisingen, Stadt","type":"Stadt"},"district":{"key":"08327","name":"Tuttlingen","type":"Landkreis"},"federalState":{"key":"08","name":"Baden-Württemberg"}},{"name":"Kappelhofstr.","postalCode":"75239","locality":"Eisingen","municipality":{"key":"08236011","name":"Eisingen","type":"Kreisangehörige_Gemeinde"},"district":{"key":"08236","name":"Enzkreis","type":"Landkreis"},"federalState":{"key":"08","name":"Baden-Württemberg"}},{"name":"Karl-Blaser-Str.","postalCode":"78187","locality":"Geisingen","municipality":{"key":"08327018","name":"Geisingen, Stadt","type":"Stadt"},"district":{"key":"08327","name":"Tuttlingen","type":"Landkreis"},"federalState":{"key":"08","name":"Baden-Württemberg"}},{"name":"Karl-Hall-Str.","postalCode":"78187","locality":"Geisingen","municipality":{"key":"08327018","name":"Geisingen, Stadt","type":"Stadt"},"district":{"key":"08327","name":"Tuttlingen","type":"Landkreis"},"federalState":{"key":"08","name":"Baden-Württemberg"}},{"name":"Karl-Jäck-Str.","postalCode":"78187","locality":"Geisingen","municipality":{"key":"08327018","name":"Geisingen, Stadt","type":"Stadt"},"district":{"key":"08327","name":"Tuttlingen","type":"Landkreis"},"federalState":{"key":"08","name":"Baden-Württemberg"}},{"name":"Karl-Wacker-Str.","postalCode":"78187","locality":"Geisingen","municipality":{"key":"08327018","name":"Geisingen, Stadt","type":"Stadt"},"district":{"key":"08327","name":"Tuttlingen","type":"Landkreis"},"federalState":{"key":"08","name":"Baden-Württemberg"}},{"name":"Katzensteigweg","postalCode":"78187","locality":"Geisingen","municipality":{"key":"08327018","name":"Geisingen, Stadt","type":"Stadt"},"district":{"key":"08327","name":"Tuttlingen","type":"Landkreis"},"federalState":{"key":"08","name":"Baden-Württemberg"}},{"name":"Kellhofstr.","postalCode":"78187","locality":"Geisingen","municipality":{"key":"08327018","name":"Geisingen, Stadt","type":"Stadt"},"district":{"key":"08327","name":"Tuttlingen","type":"Landkreis"},"federalState":{"key":"08","name":"Baden-Württemberg"}},{"name":"Kelterstr.","postalCode":"75239","locality":"Eisingen","municipality":{"key":"08236011","name":"Eisingen","type":"Kreisangehörige_Gemeinde"},"district":{"key":"08236","name":"Enzkreis","type":"Landkreis"},"federalState":{"key":"08","name":"Baden-Württemberg"}},{"name":"Keplerstr.","postalCode":"75239","locality":"Eisingen","municipality":{"key":"08236011","name":"Eisingen","type":"Kreisangehörige_Gemeinde"},"district":{"key":"08236","name":"Enzkreis","type":"Landkreis"},"federalState":{"key":"08","name":"Baden-Württemberg"}},{"name":"Killesrainstr.","postalCode":"75239","locality":"Eisingen","municipality":{"key":"08236011","name":"Eisingen","type":"Kreisangehörige_Gemeinde"},"district":{"key":"08236","name":"Enzkreis","type":"Landkreis"},"federalState":{"key":"08","name":"Baden-Württemberg"}},{"name":"Kindergartenweg","postalCode":"78187","locality":"Geisingen","municipality":{"key":"08327018","name":"Geisingen, Stadt","type":"Stadt"},"district":{"key":"08327","name":"Tuttlingen","type":"Landkreis"},"federalState":{"key":"08","name":"Baden-Württemberg"}},{"name":"Kirchplatz","postalCode":"97249","locality":"Eisingen","municipality":{"key":"09679126","name":"Eisingen","type":"Kreisangehörige_Gemeinde"},"district":{"key":"09679","name":"Würzburg","type":"Landkreis"},"federalState":{"key":"09","name":"Bayern"}},{"name":"Kirchsteige","postalCode":"75239","locality":"Eisingen","municipality":{"key":"08236011","name":"Eisingen","type":"Kreisangehörige_Gemeinde"},"district":{"key":"08236","name":"Enzkreis","type":"Landkreis"},"federalState":{"key":"08","name":"Baden-Württemberg"}},{"name":"Kirchstr.","postalCode":"78187","locality":"Geisingen","municipality":{"key":"08327018","name":"Geisingen, Stadt","type":"Stadt"},"district":{"key":"08327","name":"Tuttlingen","type":"Landkreis"},"federalState":{"key":"08","name":"Baden-Württemberg"}},{"name":"Kirchtalstr.","postalCode":"78187","locality":"Geisingen","municipality":{"key":"08327018","name":"Geisingen, Stadt","type":"Stadt"},"district":{"key":"08327","name":"Tuttlingen","type":"Landkreis"},"federalState":{"key":"08","name":"Baden-Württemberg"}},{"name":"Kirchweg","postalCode":"78187","locality":"Geisingen","municipality":{"key":"08327018","name":"Geisingen, Stadt","type":"Stadt"},"district":{"key":"08327","name":"Tuttlingen","type":"Landkreis"},"federalState":{"key":"08","name":"Baden-Württemberg"}},{"name":"Klausenertalweg","postalCode":"78187","locality":"Geisingen","municipality":{"key":"08327018","name":"Geisingen, Stadt","type":"Stadt"},"district":{"key":"08327","name":"Tuttlingen","type":"Landkreis"},"federalState":{"key":"08","name":"Baden-Württemberg"}},{"name":"Kleine Breite","postalCode":"78187","locality":"Geisingen","municipality":{"key":"08327018","name":"Geisingen, Stadt","type":"Stadt"},"district":{"key":"08327","name":"Tuttlingen","type":"Landkreis"},"federalState":{"key":"08","name":"Baden-Württemberg"}},{"name":"KM","postalCode":"78187","locality":"Geisingen","municipality":{"key":"08327018","name":"Geisingen, Stadt","type":"Stadt"},"district":{"key":"08327","name":"Tuttlingen","type":"Landkreis"},"federalState":{"key":"08","name":"Baden-Württemberg"}},{"name":"Kniebisstr.","postalCode":"75239","locality":"Eisingen","municipality":{"key":"08236011","name":"Eisingen","type":"Kreisangehörige_Gemeinde"},"district":{"key":"08236","name":"Enzkreis","type":"Landkreis"},"federalState":{"key":"08","name":"Baden-Württemberg"}},{"name":"Kötachstr.","postalCode":"78187","locality":"Geisingen","municipality":{"key":"08327018","name":"Geisingen, Stadt","type":"Stadt"},"district":{"key":"08327","name":"Tuttlingen","type":"Landkreis"},"federalState":{"key":"08","name":"Baden-Württemberg"}},{"name":"Krankenhausstr.","postalCode":"78187","locality":"Geisingen","municipality":{"key":"08327018","name":"Geisingen, Stadt","type":"Stadt"},"district":{"key":"08327","name":"Tuttlingen","type":"Landkreis"},"federalState":{"key":"08","name":"Baden-Württemberg"}},{"name":"Kreyenloch","postalCode":"78187","locality":"Geisingen","municipality":{"key":"08327018","name":"Geisingen, Stadt","type":"Stadt"},"district":{"key":"08327","name":"Tuttlingen","type":"Landkreis"},"federalState":{"key":"08","name":"Baden-Württemberg"}},{"name":"Kuckucksweg","postalCode":"75239","locality":"Eisingen","municipality":{"key":"08236011","name":"Eisingen","type":"Kreisangehörige_Gemeinde"},"district":{"key":"08236","name":"Enzkreis","type":"Landkreis"},"federalState":{"key":"08","name":"Baden-Württemberg"}},{"name":"Länderstr.","postalCode":"75239","locality":"Eisingen","municipality":{"key":"08236011","name":"Eisingen","type":"Kreisangehörige_Gemeinde"},"district":{"key":"08236","name":"Enzkreis","type":"Landkreis"},"federalState":{"key":"08","name":"Baden-Württemberg"}},{"name":"Landwehrstr.","postalCode":"97249","locality":"Eisingen","municipality":{"key":"09679126","name":"Eisingen","type":"Kreisangehörige_Gemeinde"},"district":{"key":"09679","name":"Würzburg","type":"Landkreis"},"federalState":{"key":"09","name":"Bayern"}},{"name":"Lange Steig","postalCode":"78187","locality":"Geisingen","municipality":{"key":"08327018","name":"Geisingen, Stadt","type":"Stadt"},"district":{"key":"08327","name":"Tuttlingen","type":"Landkreis"},"federalState":{"key":"08","name":"Baden-Württemberg"}},{"name":"Längestr.","postalCode":"78187","locality":"Geisingen","municipality":{"key":"08327018","name":"Geisingen, Stadt","type":"Stadt"},"district":{"key":"08327","name":"Tuttlingen","type":"Landkreis"},"federalState":{"key":"08","name":"Baden-Württemberg"}},{"name":"Längewaldstr.","postalCode":"78187","locality":"Geisingen","municipality":{"key":"08327018","name":"Geisingen, Stadt","type":"Stadt"},"district":{"key":"08327","name":"Tuttlingen","type":"Landkreis"},"federalState":{"key":"08","name":"Baden-Württemberg"}},{"name":"Längeweg","postalCode":"78187","locality":"Geisingen","municipality":{"key":"08327018","name":"Geisingen, Stadt","type":"Stadt"},"district":{"key":"08327","name":"Tuttlingen","type":"Landkreis"},"federalState":{"key":"08","name":"Baden-Württemberg"}},{"name":"Längstelweg","postalCode":"78187","locality":"Geisingen","municipality":{"key":"08327018","name":"Geisingen, Stadt","type":"Stadt"},"district":{"key":"08327","name":"Tuttlingen","type":"Landkreis"},"federalState":{"key":"08","name":"Baden-Württemberg"}},{"name":"Leinäckerweg","postalCode":"78187","locality":"Geisingen","municipality":{"key":"08327018","name":"Geisingen, Stadt","type":"Stadt"},"district":{"key":"08327","name":"Tuttlingen","type":"Landkreis"},"federalState":{"key":"08","name":"Baden-Württemberg"}},{"name":"Leitelsteigweg","postalCode":"78187","locality":"Geisingen","municipality":{"key":"08327018","name":"Geisingen, Stadt","type":"Stadt"},"district":{"key":"08327","name":"Tuttlingen","type":"Landkreis"},"federalState":{"key":"08","name":"Baden-Württemberg"}},{"name":"Lerchenstr.","postalCode":"75239","locality":"Eisingen","municipality":{"key":"08236011","name":"Eisingen","type":"Kreisangehörige_Gemeinde"},"district":{"key":"08236","name":"Enzkreis","type":"Landkreis"},"federalState":{"key":"08","name":"Baden-Württemberg"}},{"name":"Lilienweg","postalCode":"78187","locality":"Geisingen","municipality":{"key":"08327018","name":"Geisingen, Stadt","type":"Stadt"},"district":{"key":"08327","name":"Tuttlingen","type":"Landkreis"},"federalState":{"key":"08","name":"Baden-Württemberg"}},{"name":"Löwengasse","postalCode":"78187","locality":"Geisingen","municipality":{"key":"08327018","name":"Geisingen, Stadt","type":"Stadt"},"district":{"key":"08327","name":"Tuttlingen","type":"Landkreis"},"federalState":{"key":"08","name":"Baden-Württemberg"}},{"name":"Luitfriedstr.","postalCode":"78187","locality":"Geisingen","municipality":{"key":"08327018","name":"Geisingen, Stadt","type":"Stadt"},"district":{"key":"08327","name":"Tuttlingen","type":"Landkreis"},"federalState":{"key":"08","name":"Baden-Württemberg"}},{"name":"Lutherstr.","postalCode":"75239","locality":"Eisingen","municipality":{"key":"08236011","name":"Eisingen","type":"Kreisangehörige_Gemeinde"},"district":{"key":"08236","name":"Enzkreis","type":"Landkreis"},"federalState":{"key":"08","name":"Baden-Württemberg"}},{"name":"Margeritenweg","postalCode":"78187","locality":"Geisingen","municipality":{"key":"08327018","name":"Geisingen, Stadt","type":"Stadt"},"district":{"key":"08327","name":"Tuttlingen","type":"Landkreis"},"federalState":{"key":"08","name":"Baden-Württemberg"}},{"name":"Meisenstr.","postalCode":"75239","locality":"Eisingen","municipality":{"key":"08236011","name":"Eisingen","type":"Kreisangehörige_Gemeinde"},"district":{"key":"08236","name":"Enzkreis","type":"Landkreis"},"federalState":{"key":"08","name":"Baden-Württemberg"}},{"name":"Melanchthonstr.","postalCode":"75239","locality":"Eisingen","municipality":{"key":"08236011","name":"Eisingen","type":"Kreisangehörige_Gemeinde"},"district":{"key":"08236","name":"Enzkreis","type":"Landkreis"},"federalState":{"key":"08","name":"Baden-Württemberg"}},{"name":"Merowingerstr.","postalCode":"97249","locality":"Eisingen","municipality":{"key":"09679126","name":"Eisingen","type":"Kreisangehörige_Gemeinde"},"district":{"key":"09679","name":"Würzburg","type":"Landkreis"},"federalState":{"key":"09","name":"Bayern"}},{"name":"Mittlere Waldparkstr.","postalCode":"75239","locality":"Eisingen","municipality":{"key":"08236011","name":"Eisingen","type":"Kreisangehörige_Gemeinde"},"district":{"key":"08236","name":"Enzkreis","type":"Landkreis"},"federalState":{"key":"08","name":"Baden-Württemberg"}},{"name":"Mohrengasse","postalCode":"78187","locality":"Geisingen","municipality":{"key":"08327018","name":"Geisingen, Stadt","type":"Stadt"},"district":{"key":"08327","name":"Tuttlingen","type":"Landkreis"},"federalState":{"key":"08","name":"Baden-Württemberg"}},{"name":"Molkereigasse","postalCode":"78187","locality":"Geisingen","municipality":{"key":"08327018","name":"Geisingen, Stadt","type":"Stadt"},"district":{"key":"08327","name":"Tuttlingen","type":"Landkreis"},"federalState":{"key":"08","name":"Baden-Württemberg"}},{"name":"Mörikestr.","postalCode":"75239","locality":"Eisingen","municipality":{"key":"08236011","name":"Eisingen","type":"Kreisangehörige_Gemeinde"},"district":{"key":"08236","name":"Enzkreis","type":"Landkreis"},"federalState":{"key":"08","name":"Baden-Württemberg"}},{"name":"Mozartstr.","postalCode":"75239","locality":"Eisingen","municipality":{"key":"08236011","name":"Eisingen","type":"Kreisangehörige_Gemeinde"},"district":{"key":"08236","name":"Enzkreis","type":"Landkreis"},"federalState":{"key":"08","name":"Baden-Württemberg"}},{"name":"Mühlenweg","postalCode":"78187","locality":"Geisingen","municipality":{"key":"08327018","name":"Geisingen, Stadt","type":"Stadt"},"district":{"key":"08327","name":"Tuttlingen","type":"Landkreis"},"federalState":{"key":"08","name":"Baden-Württemberg"}},{"name":"Mühltalstr.","postalCode":"78187","locality":"Geisingen","municipality":{"key":"08327018","name":"Geisingen, Stadt","type":"Stadt"},"district":{"key":"08327","name":"Tuttlingen","type":"Landkreis"},"federalState":{"key":"08","name":"Baden-Württemberg"}},{"name":"Müllersweg","postalCode":"97249","locality":"Eisingen","municipality":{"key":"09679126","name":"Eisingen","type":"Kreisangehörige_Gemeinde"},"district":{"key":"09679","name":"Würzburg","type":"Landkreis"},"federalState":{"key":"09","name":"Bayern"}},{"name":"Münstergasse","postalCode":"78187","locality":"Geisingen","municipality":{"key":"08327018","name":"Geisingen, Stadt","type":"Stadt"},"district":{"key":"08327","name":"Tuttlingen","type":"Landkreis"},"federalState":{"key":"08","name":"Baden-Württemberg"}},{"name":"Nelkenstr.","postalCode":"78187","locality":"Geisingen","municipality":{"key":"08327018","name":"Geisingen, Stadt","type":"Stadt"},"district":{"key":"08327","name":"Tuttlingen","type":"Landkreis"},"federalState":{"key":"08","name":"Baden-Württemberg"}},{"name":"Neuer Weg","postalCode":"75239","locality":"Eisingen","municipality":{"key":"08236011","name":"Eisingen","type":"Kreisangehörige_Gemeinde"},"district":{"key":"08236","name":"Enzkreis","type":"Landkreis"},"federalState":{"key":"08","name":"Baden-Württemberg"}},{"name":"Niedelweg","postalCode":"78187","locality":"Geisingen","municipality":{"key":"08327018","name":"Geisingen, Stadt","type":"Stadt"},"district":{"key":"08327","name":"Tuttlingen","type":"Landkreis"},"federalState":{"key":"08","name":"Baden-Württemberg"}},{"name":"Nikolausstr.","postalCode":"78187","locality":"Geisingen","municipality":{"key":"08327018","name":"Geisingen, Stadt","type":"Stadt"},"district":{"key":"08327","name":"Tuttlingen","type":"Landkreis"},"federalState":{"key":"08","name":"Baden-Württemberg"}},{"name":"Ob dem Hanfgarten","postalCode":"78187","locality":"Geisingen","municipality":{"key":"08327018","name":"Geisingen, Stadt","type":"Stadt"},"district":{"key":"08327","name":"Tuttlingen","type":"Landkreis"},"federalState":{"key":"08","name":"Baden-Württemberg"}},{"name":"Ob den Häusern","postalCode":"78187","locality":"Geisingen","municipality":{"key":"08327018","name":"Geisingen, Stadt","type":"Stadt"},"district":{"key":"08327","name":"Tuttlingen","type":"Landkreis"},"federalState":{"key":"08","name":"Baden-Württemberg"}},{"name":"Ob.d.Langen Stein","postalCode":"78187","locality":"Geisingen","municipality":{"key":"08327018","name":"Geisingen, Stadt","type":"Stadt"},"district":{"key":"08327","name":"Tuttlingen","type":"Landkreis"},"federalState":{"key":"08","name":"Baden-Württemberg"}},{"name":"Oberer Kohlerhauweg","postalCode":"78187","locality":"Geisingen","municipality":{"key":"08327018","name":"Geisingen, Stadt","type":"Stadt"},"district":{"key":"08327","name":"Tuttlingen","type":"Landkreis"},"federalState":{"key":"08","name":"Baden-Württemberg"}},{"name":"Oberer Saufangweg","postalCode":"78187","locality":"Geisingen","municipality":{"key":"08327018","name":"Geisingen, Stadt","type":"Stadt"},"district":{"key":"08327","name":"Tuttlingen","type":"Landkreis"},"federalState":{"key":"08","name":"Baden-Württemberg"}},{"name":"Oberer Stadtweg","postalCode":"97249","locality":"Eisingen","municipality":{"key":"09679126","name":"Eisingen","type":"Kreisangehörige_Gemeinde"},"district":{"key":"09679","name":"Würzburg","type":"Landkreis"},"federalState":{"key":"09","name":"Bayern"}},{"name":"Oberer Stöckachweg","postalCode":"97249","locality":"Eisingen","municipality":{"key":"09679126","name":"Eisingen","type":"Kreisangehörige_Gemeinde"},"district":{"key":"09679","name":"Würzburg","type":"Landkreis"},"federalState":{"key":"09","name":"Bayern"}},{"name":"Oberer Tiegel","postalCode":"97249","locality":"Eisingen","municipality":{"key":"09679126","name":"Eisingen","type":"Kreisangehörige_Gemeinde"},"district":{"key":"09679","name":"Würzburg","type":"Landkreis"},"federalState":{"key":"09","name":"Bayern"}},{"name":"Obere Waldparkstr.","postalCode":"75239","locality":"Eisingen","municipality":{"key":"08236011","name":"Eisingen","type":"Kreisangehörige_Gemeinde"},"district":{"key":"08236","name":"Enzkreis","type":"Landkreis"},"federalState":{"key":"08","name":"Baden-Württemberg"}},{"name":"Obere Weinbergstr.","postalCode":"75239","locality":"Eisingen","municipality":{"key":"08236011","name":"Eisingen","type":"Kreisangehörige_Gemeinde"},"district":{"key":"08236","name":"Enzkreis","type":"Landkreis"},"federalState":{"key":"08","name":"Baden-Württemberg"}},{"name":"Orchideenstr.","postalCode":"78187","locality":"Geisingen","municipality":{"key":"08327018","name":"Geisingen, Stadt","type":"Stadt"},"district":{"key":"08327","name":"Tuttlingen","type":"Landkreis"},"federalState":{"key":"08","name":"Baden-Württemberg"}},{"name":"Orchideenweg","postalCode":"78187","locality":"Geisingen","municipality":{"key":"08327018","name":"Geisingen, Stadt","type":"Stadt"},"district":{"key":"08327","name":"Tuttlingen","type":"Landkreis"},"federalState":{"key":"08","name":"Baden-Württemberg"}},{"name":"Otto-und-Erna-Kreuzer-Str.","postalCode":"78187","locality":"Geisingen","municipality":{"key":"08327018","name":"Geisingen, Stadt","type":"Stadt"},"district":{"key":"08327","name":"Tuttlingen","type":"Landkreis"},"federalState":{"key":"08","name":"Baden-Württemberg"}},{"name":"Pauliweg","postalCode":"78187","locality":"Geisingen","municipality":{"key":"08327018","name":"Geisingen, Stadt","type":"Stadt"},"district":{"key":"08327","name":"Tuttlingen","type":"Landkreis"},"federalState":{"key":"08","name":"Baden-Württemberg"}},{"name":"Pfaffentalstr.","postalCode":"78187","locality":"Geisingen","municipality":{"key":"08327018","name":"Geisingen, Stadt","type":"Stadt"},"district":{"key":"08327","name":"Tuttlingen","type":"Landkreis"},"federalState":{"key":"08","name":"Baden-Württemberg"}},{"name":"Pfannenrain","postalCode":"97249","locality":"Eisingen","municipality":{"key":"09679126","name":"Eisingen","type":"Kreisangehörige_Gemeinde"},"district":{"key":"09679","name":"Würzburg","type":"Landkreis"},"federalState":{"key":"09","name":"Bayern"}},{"name":"Pfarrer-Henninger-Weg","postalCode":"97249","locality":"Eisingen","municipality":{"key":"09679126","name":"Eisingen","type":"Kreisangehörige_Gemeinde"},"district":{"key":"09679","name":"Würzburg","type":"Landkreis"},"federalState":{"key":"09","name":"Bayern"}},{"name":"Pfarrer-Robert-Kümmert-Str.","postalCode":"97249","locality":"Eisingen","municipality":{"key":"09679126","name":"Eisingen","type":"Kreisangehörige_Gemeinde"},"district":{"key":"09679","name":"Würzburg","type":"Landkreis"},"federalState":{"key":"09","name":"Bayern"}},{"name":"Pfarrgarten","postalCode":"78187","locality":"Geisingen","municipality":{"key":"08327018","name":"Geisingen, Stadt","type":"Stadt"},"district":{"key":"08327","name":"Tuttlingen","type":"Landkreis"},"federalState":{"key":"08","name":"Baden-Württemberg"}},{"name":"Pforzheimer Str.","postalCode":"75239","locality":"Eisingen","municipality":{"key":"08236011","name":"Eisingen","type":"Kreisangehörige_Gemeinde"},"district":{"key":"08236","name":"Enzkreis","type":"Landkreis"},"federalState":{"key":"08","name":"Baden-Württemberg"}},{"name":"Poststr.","postalCode":"78187","locality":"Geisingen","municipality":{"key":"08327018","name":"Geisingen, Stadt","type":"Stadt"},"district":{"key":"08327","name":"Tuttlingen","type":"Landkreis"},"federalState":{"key":"08","name":"Baden-Württemberg"}},{"name":"Professor-Bader-Str.","postalCode":"78187","locality":"Geisingen","municipality":{"key":"08327018","name":"Geisingen, Stadt","type":"Stadt"},"district":{"key":"08327","name":"Tuttlingen","type":"Landkreis"},"federalState":{"key":"08","name":"Baden-Württemberg"}},{"name":"Rathausgasse","postalCode":"75239","locality":"Eisingen","municipality":{"key":"08236011","name":"Eisingen","type":"Kreisangehörige_Gemeinde"},"district":{"key":"08236","name":"Enzkreis","type":"Landkreis"},"federalState":{"key":"08","name":"Baden-Württemberg"}},{"name":"Reckenbachstr.","postalCode":"78187","locality":"Geisingen","municipality":{"key":"08327018","name":"Geisingen, Stadt","type":"Stadt"},"district":{"key":"08327","name":"Tuttlingen","type":"Landkreis"},"federalState":{"key":"08","name":"Baden-Württemberg"}},{"name":"Reuchlinstr.","postalCode":"75239","locality":"Eisingen","municipality":{"key":"08236011","name":"Eisingen","type":"Kreisangehörige_Gemeinde"},"district":{"key":"08236","name":"Enzkreis","type":"Landkreis"},"federalState":{"key":"08","name":"Baden-Württemberg"}},{"name":"Ringstr.","postalCode":"78187","locality":"Geisingen","municipality":{"key":"08327018","name":"Geisingen, Stadt","type":"Stadt"},"district":{"key":"08327","name":"Tuttlingen","type":"Landkreis"},"federalState":{"key":"08","name":"Baden-Württemberg"}},{"name":"Ringstr.","postalCode":"97249","locality":"Eisingen","municipality":{"key":"09679126","name":"Eisingen","type":"Kreisangehörige_Gemeinde"},"district":{"key":"09679","name":"Würzburg","type":"Landkreis"},"federalState":{"key":"09","name":"Bayern"}},{"name":"Robert-Knapp-Str.","postalCode":"78187","locality":"Geisingen","municipality":{"key":"08327018","name":"Geisingen, Stadt","type":"Stadt"},"district":{"key":"08327","name":"Tuttlingen","type":"Landkreis"},"federalState":{"key":"08","name":"Baden-Württemberg"}},{"name":"Roosgartenstr.","postalCode":"78187","locality":"Geisingen","municipality":{"key":"08327018","name":"Geisingen, Stadt","type":"Stadt"},"district":{"key":"08327","name":"Tuttlingen","type":"Landkreis"},"federalState":{"key":"08","name":"Baden-Württemberg"}},{"name":"Rosenweg","postalCode":"78187","locality":"Geisingen","municipality":{"key":"08327018","name":"Geisingen, Stadt","type":"Stadt"},"district":{"key":"08327","name":"Tuttlingen","type":"Landkreis"},"federalState":{"key":"08","name":"Baden-Württemberg"}},{"name":"Rosenweg","postalCode":"97249","locality":"Eisingen","municipality":{"key":"09679126","name":"Eisingen","type":"Kreisangehörige_Gemeinde"},"district":{"key":"09679","name":"Würzburg","type":"Landkreis"},"federalState":{"key":"09","name":"Bayern"}},{"name":"Roßbergweg","postalCode":"78187","locality":"Geisingen","municipality":{"key":"08327018","name":"Geisingen, Stadt","type":"Stadt"},"district":{"key":"08327","name":"Tuttlingen","type":"Landkreis"},"federalState":{"key":"08","name":"Baden-Württemberg"}},{"name":"Rosskopfweg","postalCode":"78187","locality":"Geisingen","municipality":{"key":"08327018","name":"Geisingen, Stadt","type":"Stadt"},"district":{"key":"08327","name":"Tuttlingen","type":"Landkreis"},"federalState":{"key":"08","name":"Baden-Württemberg"}},{"name":"Rotmundweg","postalCode":"78187","locality":"Geisingen","municipality":{"key":"08327018","name":"Geisingen, Stadt","type":"Stadt"},"district":{"key":"08327","name":"Tuttlingen","type":"Landkreis"},"federalState":{"key":"08","name":"Baden-Württemberg"}},{"name":"Rückenweg","postalCode":"78187","locality":"Geisingen","municipality":{"key":"08327018","name":"Geisingen, Stadt","type":"Stadt"},"district":{"key":"08327","name":"Tuttlingen","type":"Landkreis"},"federalState":{"key":"08","name":"Baden-Württemberg"}},{"name":"Sackgasse","postalCode":"97249","locality":"Eisingen","municipality":{"key":"09679126","name":"Eisingen","type":"Kreisangehörige_Gemeinde"},"district":{"key":"09679","name":"Würzburg","type":"Landkreis"},"federalState":{"key":"09","name":"Bayern"}},{"name":"Sankt-Joos-Str.","postalCode":"78187","locality":"Geisingen","municipality":{"key":"08327018","name":"Geisingen, Stadt","type":"Stadt"},"district":{"key":"08327","name":"Tuttlingen","type":"Landkreis"},"federalState":{"key":"08","name":"Baden-Württemberg"}},{"name":"Sautierstr.","postalCode":"78187","locality":"Geisingen","municipality":{"key":"08327018","name":"Geisingen, Stadt","type":"Stadt"},"district":{"key":"08327","name":"Tuttlingen","type":"Landkreis"},"federalState":{"key":"08","name":"Baden-Württemberg"}},{"name":"Schabelweg","postalCode":"78187","locality":"Geisingen","municipality":{"key":"08327018","name":"Geisingen, Stadt","type":"Stadt"},"district":{"key":"08327","name":"Tuttlingen","type":"Landkreis"},"federalState":{"key":"08","name":"Baden-Württemberg"}},{"name":"Schalmenwasenweg","postalCode":"78187","locality":"Geisingen","municipality":{"key":"08327018","name":"Geisingen, Stadt","type":"Stadt"},"district":{"key":"08327","name":"Tuttlingen","type":"Landkreis"},"federalState":{"key":"08","name":"Baden-Württemberg"}},{"name":"Schauinslandstr.","postalCode":"75239","locality":"Eisingen","municipality":{"key":"08236011","name":"Eisingen","type":"Kreisangehörige_Gemeinde"},"district":{"key":"08236","name":"Enzkreis","type":"Landkreis"},"federalState":{"key":"08","name":"Baden-Württemberg"}},{"name":"Scheibenbuckstr.","postalCode":"78187","locality":"Geisingen","municipality":{"key":"08327018","name":"Geisingen, Stadt","type":"Stadt"},"district":{"key":"08327","name":"Tuttlingen","type":"Landkreis"},"federalState":{"key":"08","name":"Baden-Württemberg"}},{"name":"Scheibenstuhlweg","postalCode":"78187","locality":"Geisingen","municipality":{"key":"08327018","name":"Geisingen, Stadt","type":"Stadt"},"district":{"key":"08327","name":"Tuttlingen","type":"Landkreis"},"federalState":{"key":"08","name":"Baden-Württemberg"}},{"name":"Schelmenwasenweg","postalCode":"78187","locality":"Geisingen","municipality":{"key":"08327018","name":"Geisingen, Stadt","type":"Stadt"},"district":{"key":"08327","name":"Tuttlingen","type":"Landkreis"},"federalState":{"key":"08","name":"Baden-Württemberg"}},{"name":"Schillerstr.","postalCode":"75239","locality":"Eisingen","municipality":{"key":"08236011","name":"Eisingen","type":"Kreisangehörige_Gemeinde"},"district":{"key":"08236","name":"Enzkreis","type":"Landkreis"},"federalState":{"key":"08","name":"Baden-Württemberg"}},{"name":"Schillerstr.","postalCode":"78187","locality":"Geisingen","municipality":{"key":"08327018","name":"Geisingen, Stadt","type":"Stadt"},"district":{"key":"08327","name":"Tuttlingen","type":"Landkreis"},"federalState":{"key":"08","name":"Baden-Württemberg"}},{"name":"Schlachthausstr.","postalCode":"78187","locality":"Geisingen","municipality":{"key":"08327018","name":"Geisingen, Stadt","type":"Stadt"},"district":{"key":"08327","name":"Tuttlingen","type":"Landkreis"},"federalState":{"key":"08","name":"Baden-Württemberg"}},{"name":"Schläpfad","postalCode":"75239","locality":"Eisingen","municipality":{"key":"08236011","name":"Eisingen","type":"Kreisangehörige_Gemeinde"},"district":{"key":"08236","name":"Enzkreis","type":"Landkreis"},"federalState":{"key":"08","name":"Baden-Württemberg"}},{"name":"Schlemmersbrühlstr.","postalCode":"78187","locality":"Geisingen","municipality":{"key":"08327018","name":"Geisingen, Stadt","type":"Stadt"},"district":{"key":"08327","name":"Tuttlingen","type":"Landkreis"},"federalState":{"key":"08","name":"Baden-Württemberg"}},{"name":"Schloßplatz","postalCode":"78187","locality":"Geisingen","municipality":{"key":"08327018","name":"Geisingen, Stadt","type":"Stadt"},"district":{"key":"08327","name":"Tuttlingen","type":"Landkreis"},"federalState":{"key":"08","name":"Baden-Württemberg"}},{"name":"Schloßstr.","postalCode":"78187","locality":"Geisingen","municipality":{"key":"08327018","name":"Geisingen, Stadt","type":"Stadt"},"district":{"key":"08327","name":"Tuttlingen","type":"Landkreis"},"federalState":{"key":"08","name":"Baden-Württemberg"}},{"name":"Schmittshauweg","postalCode":"78187","locality":"Geisingen","municipality":{"key":"08327018","name":"Geisingen, Stadt","type":"Stadt"},"district":{"key":"08327","name":"Tuttlingen","type":"Landkreis"},"federalState":{"key":"08","name":"Baden-Württemberg"}},{"name":"Schubertstr.","postalCode":"75239","locality":"Eisingen","municipality":{"key":"08236011","name":"Eisingen","type":"Kreisangehörige_Gemeinde"},"district":{"key":"08236","name":"Enzkreis","type":"Landkreis"},"federalState":{"key":"08","name":"Baden-Württemberg"}},{"name":"Schulstr.","postalCode":"78187","locality":"Geisingen","municipality":{"key":"08327018","name":"Geisingen, Stadt","type":"Stadt"},"district":{"key":"08327","name":"Tuttlingen","type":"Landkreis"},"federalState":{"key":"08","name":"Baden-Württemberg"}},{"name":"Schulstr.","postalCode":"97249","locality":"Eisingen","municipality":{"key":"09679126","name":"Eisingen","type":"Kreisangehörige_Gemeinde"},"district":{"key":"09679","name":"Würzburg","type":"Landkreis"},"federalState":{"key":"09","name":"Bayern"}},{"name":"Schwarzwaldstr.","postalCode":"75239","locality":"Eisingen","municipality":{"key":"08236011","name":"Eisingen","type":"Kreisangehörige_Gemeinde"},"district":{"key":"08236","name":"Enzkreis","type":"Landkreis"},"federalState":{"key":"08","name":"Baden-Württemberg"}},{"name":"Seltelweg","postalCode":"78187","locality":"Geisingen","municipality":{"key":"08327018","name":"Geisingen, Stadt","type":"Stadt"},"district":{"key":"08327","name":"Tuttlingen","type":"Landkreis"},"federalState":{"key":"08","name":"Baden-Württemberg"}},{"name":"Sennigstr.","postalCode":"75239","locality":"Eisingen","municipality":{"key":"08236011","name":"Eisingen","type":"Kreisangehörige_Gemeinde"},"district":{"key":"08236","name":"Enzkreis","type":"Landkreis"},"federalState":{"key":"08","name":"Baden-Württemberg"}},{"name":"Silcherstaffel","postalCode":"75239","locality":"Eisingen","municipality":{"key":"08236011","name":"Eisingen","type":"Kreisangehörige_Gemeinde"},"district":{"key":"08236","name":"Enzkreis","type":"Landkreis"},"federalState":{"key":"08","name":"Baden-Württemberg"}},{"name":"Silcherstr.","postalCode":"75239","locality":"Eisingen","municipality":{"key":"08236011","name":"Eisingen","type":"Kreisangehörige_Gemeinde"},"district":{"key":"08236","name":"Enzkreis","type":"Landkreis"},"federalState":{"key":"08","name":"Baden-Württemberg"}},{"name":"Sommerhainweg","postalCode":"75239","locality":"Eisingen","municipality":{"key":"08236011","name":"Eisingen","type":"Kreisangehörige_Gemeinde"},"district":{"key":"08236","name":"Enzkreis","type":"Landkreis"},"federalState":{"key":"08","name":"Baden-Württemberg"}},{"name":"Sonnenhalde","postalCode":"78187","locality":"Geisingen","municipality":{"key":"08327018","name":"Geisingen, Stadt","type":"Stadt"},"district":{"key":"08327","name":"Tuttlingen","type":"Landkreis"},"federalState":{"key":"08","name":"Baden-Württemberg"}},{"name":"Sonnenstr.","postalCode":"97249","locality":"Eisingen","municipality":{"key":"09679126","name":"Eisingen","type":"Kreisangehörige_Gemeinde"},"district":{"key":"09679","name":"Würzburg","type":"Landkreis"},"federalState":{"key":"09","name":"Bayern"}},{"name":"Sonnetstr.","postalCode":"75239","locality":"Eisingen","municipality":{"key":"08236011","name":"Eisingen","type":"Kreisangehörige_Gemeinde"},"district":{"key":"08236","name":"Enzkreis","type":"Landkreis"},"federalState":{"key":"08","name":"Baden-Württemberg"}},{"name":"Spessartstr.","postalCode":"97249","locality":"Eisingen","municipality":{"key":"09679126","name":"Eisingen","type":"Kreisangehörige_Gemeinde"},"district":{"key":"09679","name":"Würzburg","type":"Landkreis"},"federalState":{"key":"09","name":"Bayern"}},{"name":"Spitalweg","postalCode":"78187","locality":"Geisingen","municipality":{"key":"08327018","name":"Geisingen, Stadt","type":"Stadt"},"district":{"key":"08327","name":"Tuttlingen","type":"Landkreis"},"federalState":{"key":"08","name":"Baden-Württemberg"}},{"name":"Stadtgrabenstr.","postalCode":"78187","locality":"Geisingen","municipality":{"key":"08327018","name":"Geisingen, Stadt","type":"Stadt"},"district":{"key":"08327","name":"Tuttlingen","type":"Landkreis"},"federalState":{"key":"08","name":"Baden-Württemberg"}},{"name":"Steinerner Weg","postalCode":"97249","locality":"Eisingen","municipality":{"key":"09679126","name":"Eisingen","type":"Kreisangehörige_Gemeinde"},"district":{"key":"09679","name":"Würzburg","type":"Landkreis"},"federalState":{"key":"09","name":"Bayern"}},{"name":"Steiner Str.","postalCode":"75239","locality":"Eisingen","municipality":{"key":"08236011","name":"Eisingen","type":"Kreisangehörige_Gemeinde"},"district":{"key":"08236","name":"Enzkreis","type":"Landkreis"},"federalState":{"key":"08","name":"Baden-Württemberg"}},{"name":"St. Josefsstift","postalCode":"97249","locality":"Eisingen","municipality":{"key":"09679126","name":"Eisingen","type":"Kreisangehörige_Gemeinde"},"district":{"key":"09679","name":"Würzburg","type":"Landkreis"},"federalState":{"key":"09","name":"Bayern"}},{"name":"St. Michaelstr.","postalCode":"78187","locality":"Geisingen","municipality":{"key":"08327018","name":"Geisingen, Stadt","type":"Stadt"},"district":{"key":"08327","name":"Tuttlingen","type":"Landkreis"},"federalState":{"key":"08","name":"Baden-Württemberg"}},{"name":"Stöckachstr.","postalCode":"97249","locality":"Eisingen","municipality":{"key":"09679126","name":"Eisingen","type":"Kreisangehörige_Gemeinde"},"district":{"key":"09679","name":"Würzburg","type":"Landkreis"},"federalState":{"key":"09","name":"Bayern"}},{"name":"Strickweg","postalCode":"78187","locality":"Geisingen","municipality":{"key":"08327018","name":"Geisingen, Stadt","type":"Stadt"},"district":{"key":"08327","name":"Tuttlingen","type":"Landkreis"},"federalState":{"key":"08","name":"Baden-Württemberg"}},{"name":"Sudentenstr.","postalCode":"97249","locality":"Eisingen","municipality":{"key":"09679126","name":"Eisingen","type":"Kreisangehörige_Gemeinde"},"district":{"key":"09679","name":"Würzburg","type":"Landkreis"},"federalState":{"key":"09","name":"Bayern"}},{"name":"Sudetenstr.","postalCode":"97249","locality":"Eisingen","municipality":{"key":"09679126","name":"Eisingen","type":"Kreisangehörige_Gemeinde"},"district":{"key":"09679","name":"Würzburg","type":"Landkreis"},"federalState":{"key":"09","name":"Bayern"}},{"name":"Talstr.","postalCode":"75239","locality":"Eisingen","municipality":{"key":"08236011","name":"Eisingen","type":"Kreisangehörige_Gemeinde"},"district":{"key":"08236","name":"Enzkreis","type":"Landkreis"},"federalState":{"key":"08","name":"Baden-Württemberg"}},{"name":"Tännelhauweg","postalCode":"78187","locality":"Geisingen","municipality":{"key":"08327018","name":"Geisingen, Stadt","type":"Stadt"},"district":{"key":"08327","name":"Tuttlingen","type":"Landkreis"},"federalState":{"key":"08","name":"Baden-Württemberg"}},{"name":"Tannenweg","postalCode":"78187","locality":"Geisingen","municipality":{"key":"08327018","name":"Geisingen, Stadt","type":"Stadt"},"district":{"key":"08327","name":"Tuttlingen","type":"Landkreis"},"federalState":{"key":"08","name":"Baden-Württemberg"}},{"name":"Tannenweg","postalCode":"97249","locality":"Eisingen","municipality":{"key":"09679126","name":"Eisingen","type":"Kreisangehörige_Gemeinde"},"district":{"key":"09679","name":"Würzburg","type":"Landkreis"},"federalState":{"key":"09","name":"Bayern"}},{"name":"Tännlehauweg","postalCode":"78187","locality":"Geisingen","municipality":{"key":"08327018","name":"Geisingen, Stadt","type":"Stadt"},"district":{"key":"08327","name":"Tuttlingen","type":"Landkreis"},"federalState":{"key":"08","name":"Baden-Württemberg"}},{"name":"Tauweg","postalCode":"78187","locality":"Geisingen","municipality":{"key":"08327018","name":"Geisingen, Stadt","type":"Stadt"},"district":{"key":"08327","name":"Tuttlingen","type":"Landkreis"},"federalState":{"key":"08","name":"Baden-Württemberg"}},{"name":"Tengener Str.","postalCode":"78187","locality":"Geisingen","municipality":{"key":"08327018","name":"Geisingen, Stadt","type":"Stadt"},"district":{"key":"08327","name":"Tuttlingen","type":"Landkreis"},"federalState":{"key":"08","name":"Baden-Württemberg"}},{"name":"Teschenweg","postalCode":"78187","locality":"Geisingen","municipality":{"key":"08327018","name":"Geisingen, Stadt","type":"Stadt"},"district":{"key":"08327","name":"Tuttlingen","type":"Landkreis"},"federalState":{"key":"08","name":"Baden-Württemberg"}},{"name":"Tulpenstr.","postalCode":"78187","locality":"Geisingen","municipality":{"key":"08327018","name":"Geisingen, Stadt","type":"Stadt"},"district":{"key":"08327","name":"Tuttlingen","type":"Landkreis"},"federalState":{"key":"08","name":"Baden-Württemberg"}},{"name":"Tuttlinger Str.","postalCode":"78187","locality":"Geisingen","municipality":{"key":"08327018","name":"Geisingen, Stadt","type":"Stadt"},"district":{"key":"08327","name":"Tuttlingen","type":"Landkreis"},"federalState":{"key":"08","name":"Baden-Württemberg"}},{"name":"Uhlandstr.","postalCode":"75239","locality":"Eisingen","municipality":{"key":"08236011","name":"Eisingen","type":"Kreisangehörige_Gemeinde"},"district":{"key":"08236","name":"Enzkreis","type":"Landkreis"},"federalState":{"key":"08","name":"Baden-Württemberg"}},{"name":"unterer Bruderholzweg","postalCode":"78187","locality":"Geisingen","municipality":{"key":"08327018","name":"Geisingen, Stadt","type":"Stadt"},"district":{"key":"08327","name":"Tuttlingen","type":"Landkreis"},"federalState":{"key":"08","name":"Baden-Württemberg"}},{"name":"Unterer Saufangweg","postalCode":"78187","locality":"Geisingen","municipality":{"key":"08327018","name":"Geisingen, Stadt","type":"Stadt"},"district":{"key":"08327","name":"Tuttlingen","type":"Landkreis"},"federalState":{"key":"08","name":"Baden-Württemberg"}},{"name":"Unterer Tiegel","postalCode":"97249","locality":"Eisingen","municipality":{"key":"09679126","name":"Eisingen","type":"Kreisangehörige_Gemeinde"},"district":{"key":"09679","name":"Würzburg","type":"Landkreis"},"federalState":{"key":"09","name":"Bayern"}},{"name":"Untere Waldparkstr.","postalCode":"75239","locality":"Eisingen","municipality":{"key":"08236011","name":"Eisingen","type":"Kreisangehörige_Gemeinde"},"district":{"key":"08236","name":"Enzkreis","type":"Landkreis"},"federalState":{"key":"08","name":"Baden-Württemberg"}},{"name":"Untere Weinbergstr.","postalCode":"75239","locality":"Eisingen","municipality":{"key":"08236011","name":"Eisingen","type":"Kreisangehörige_Gemeinde"},"district":{"key":"08236","name":"Enzkreis","type":"Landkreis"},"federalState":{"key":"08","name":"Baden-Württemberg"}},{"name":"Viertelweg","postalCode":"78187","locality":"Geisingen","municipality":{"key":"08327018","name":"Geisingen, Stadt","type":"Stadt"},"district":{"key":"08327","name":"Tuttlingen","type":"Landkreis"},"federalState":{"key":"08","name":"Baden-Württemberg"}},{"name":"Vogelsangstr.","postalCode":"75239","locality":"Eisingen","municipality":{"key":"08236011","name":"Eisingen","type":"Kreisangehörige_Gemeinde"},"district":{"key":"08236","name":"Enzkreis","type":"Landkreis"},"federalState":{"key":"08","name":"Baden-Württemberg"}},{"name":"Vorderer Gauertweg","postalCode":"78187","locality":"Geisingen","municipality":{"key":"08327018","name":"Geisingen, Stadt","type":"Stadt"},"district":{"key":"08327","name":"Tuttlingen","type":"Landkreis"},"federalState":{"key":"08","name":"Baden-Württemberg"}},{"name":"Vorderer Kirchberg","postalCode":"97249","locality":"Eisingen","municipality":{"key":"09679126","name":"Eisingen","type":"Kreisangehörige_Gemeinde"},"district":{"key":"09679","name":"Würzburg","type":"Landkreis"},"federalState":{"key":"09","name":"Bayern"}},{"name":"Waagstr.","postalCode":"78187","locality":"Geisingen","municipality":{"key":"08327018","name":"Geisingen, Stadt","type":"Stadt"},"district":{"key":"08327","name":"Tuttlingen","type":"Landkreis"},"federalState":{"key":"08","name":"Baden-Württemberg"}},{"name":"Wagnerstr.","postalCode":"75239","locality":"Eisingen","municipality":{"key":"08236011","name":"Eisingen","type":"Kreisangehörige_Gemeinde"},"district":{"key":"08236","name":"Enzkreis","type":"Landkreis"},"federalState":{"key":"08","name":"Baden-Württemberg"}},{"name":"Walburgisweg","postalCode":"78187","locality":"Geisingen","municipality":{"key":"08327018","name":"Geisingen, Stadt","type":"Stadt"},"district":{"key":"08327","name":"Tuttlingen","type":"Landkreis"},"federalState":{"key":"08","name":"Baden-Württemberg"}},{"name":"Waldstr.","postalCode":"75239","locality":"Eisingen","municipality":{"key":"08236011","name":"Eisingen","type":"Kreisangehörige_Gemeinde"},"district":{"key":"08236","name":"Enzkreis","type":"Landkreis"},"federalState":{"key":"08","name":"Baden-Württemberg"}},{"name":"Waldstr.","postalCode":"78187","locality":"Geisingen","municipality":{"key":"08327018","name":"Geisingen, Stadt","type":"Stadt"},"district":{"key":"08327","name":"Tuttlingen","type":"Landkreis"},"federalState":{"key":"08","name":"Baden-Württemberg"}},{"name":"Wanderweg","postalCode":"78187","locality":"Geisingen","municipality":{"key":"08327018","name":"Geisingen, Stadt","type":"Stadt"},"district":{"key":"08327","name":"Tuttlingen","type":"Landkreis"},"federalState":{"key":"08","name":"Baden-Württemberg"}},{"name":"Weberstr.","postalCode":"75239","locality":"Eisingen","municipality":{"key":"08236011","name":"Eisingen","type":"Kreisangehörige_Gemeinde"},"district":{"key":"08236","name":"Enzkreis","type":"Landkreis"},"federalState":{"key":"08","name":"Baden-Württemberg"}},{"name":"Weilerstr.","postalCode":"78187","locality":"Geisingen","municipality":{"key":"08327018","name":"Geisingen, Stadt","type":"Stadt"},"district":{"key":"08327","name":"Tuttlingen","type":"Landkreis"},"federalState":{"key":"08","name":"Baden-Württemberg"}},{"name":"Weinbergstr.","postalCode":"97249","locality":"Eisingen","municipality":{"key":"09679126","name":"Eisingen","type":"Kreisangehörige_Gemeinde"},"district":{"key":"09679","name":"Würzburg","type":"Landkreis"},"federalState":{"key":"09","name":"Bayern"}},{"name":"Wiesengrundweg","postalCode":"97249","locality":"Eisingen","municipality":{"key":"09679126","name":"Eisingen","type":"Kreisangehörige_Gemeinde"},"district":{"key":"09679","name":"Würzburg","type":"Landkreis"},"federalState":{"key":"09","name":"Bayern"}},{"name":"Wiesenstr.","postalCode":"75239","locality":"Eisingen","municipality":{"key":"08236011","name":"Eisingen","type":"Kreisangehörige_Gemeinde"},"district":{"key":"08236","name":"Enzkreis","type":"Landkreis"},"federalState":{"key":"08","name":"Baden-Württemberg"}},{"name":"Wiesenstr.","postalCode":"78187","locality":"Geisingen","municipality":{"key":"08327018","name":"Geisingen, Stadt","type":"Stadt"},"district":{"key":"08327","name":"Tuttlingen","type":"Landkreis"},"federalState":{"key":"08","name":"Baden-Württemberg"}},{"name":"Wildtalstr.","postalCode":"78187","locality":"Geisingen","municipality":{"key":"08327018","name":"Geisingen, Stadt","type":"Stadt"},"district":{"key":"08327","name":"Tuttlingen","type":"Landkreis"},"federalState":{"key":"08","name":"Baden-Württemberg"}},{"name":"Wirtsgasse","postalCode":"97249","locality":"Eisingen","municipality":{"key":"09679126","name":"Eisingen","type":"Kreisangehörige_Gemeinde"},"district":{"key":"09679","name":"Würzburg","type":"Landkreis"},"federalState":{"key":"09","name":"Bayern"}},{"name":"Ysenburgstr.","postalCode":"97082","locality":"Würzburg","municipality":{"key":"09663000","name":"Würzburg","type":"Kreisfreie_Stadt"},"district":{"key":"09663","name":"Würzburg","type":"Kreisfreie_Stadt"},"federalState":{"key":"09","name":"Bayern"}},{"name":"Y-Spange","postalCode":"97084","locality":"Würzburg","municipality":{"key":"09663000","name":"Würzburg","type":"Kreisfreie_Stadt"},"district":{"key":"09663","name":"Würzburg","type":"Kreisfreie_Stadt"},"federalState":{"key":"09","name":"Bayern"}},{"name":"Zehntgasse","postalCode":"78187","locality":"Geisingen","municipality":{"key":"08327018","name":"Geisingen, Stadt","type":"Stadt"},"district":{"key":"08327","name":"Tuttlingen","type":"Landkreis"},"federalState":{"key":"08","name":"Baden-Württemberg"}},{"name":"Zur alten Kelter","postalCode":"75239","locality":"Eisingen","municipality":{"key":"08236011","name":"Eisingen","type":"Kreisangehörige_Gemeinde"},"district":{"key":"08236","name":"Enzkreis","type":"Landkreis"},"federalState":{"key":"08","name":"Baden-Württemberg"}},{"name":"Äußere Aumühlstr.","postalCode":"97076","locality":"Würzburg","municipality":{"key":"09663000","name":"Würzburg","type":"Kreisfreie_Stadt"},"district":{"key":"09663","name":"Würzburg","type":"Kreisfreie_Stadt"},"federalState":{"key":"09","name":"Bayern"}},{"name":"Äußerer Hublandweg","postalCode":"97074","locality":"Würzburg","municipality":{"key":"09663000","name":"Würzburg","type":"Kreisfreie_Stadt"},"district":{"key":"09663","name":"Würzburg","type":"Kreisfreie_Stadt"},"federalState":{"key":"09","name":"Bayern"}},{"name":"Äußerer Neubergweg","postalCode":"97074","locality":"Würzburg","municipality":{"key":"09663000","name":"Würzburg","type":"Kreisfreie_Stadt"},"district":{"key":"09663","name":"Würzburg","type":"Kreisfreie_Stadt"},"federalState":{"key":"09","name":"Bayern"}},{"name":"Äußerer Tränkeweg","postalCode":"97074","locality":"Würzburg","municipality":{"key":"09663000","name":"Würzburg","type":"Kreisfreie_Stadt"},"district":{"key":"09663","name":"Würzburg","type":"Kreisfreie_Stadt"},"federalState":{"key":"09","name":"Bayern"}},{"name":"Öfingerhauweg","postalCode":"78187","locality":"Geisingen","municipality":{"key":"08327018","name":"Geisingen, Stadt","type":"Stadt"},"district":{"key":"08327","name":"Tuttlingen","type":"Landkreis"},"federalState":{"key":"08","name":"Baden-Württemberg"}},]