[{"name":"Am Sonnenhang","postalCode":"54636","locality":"Dockendorf","municipality":{"key":"07232026","name":"Dockendorf","type":"Kreisangehörige_Gemeinde"},"district":{"key":"07232","name":"Eifelkreis Bitburg-Prüm","type":"Landkreis"},"federalState":{"key":"07","name":"Rheinland-Pfalz"}},{"name":"Am Sportplatz","postalCode":"54636","locality":"Dockendorf","municipality":{"key":"07232026","name":"Dockendorf","type":"Kreisangehörige_Gemeinde"},"district":{"key":"07232","name":"Eifelkreis Bitburg-Prüm","type":"Landkreis"},"federalState":{"key":"07","name":"Rheinland-Pfalz"}},{"name":"Gartenstr.","postalCode":"54636","locality":"Dockendorf","municipality":{"key":"07232026","name":"Dockendorf","type":"Kreisangehörige_Gemeinde"},"district":{"key":"07232","name":"Eifelkreis Bitburg-Prüm","type":"Landkreis"},"federalState":{"key":"07","name":"Rheinland-Pfalz"}},{"name":"Hauptstr.","postalCode":"54636","locality":"Dockendorf","municipality":{"key":"07232026","name":"Dockendorf","type":"Kreisangehörige_Gemeinde"},"district":{"key":"07232","name":"Eifelkreis Bitburg-Prüm","type":"Landkreis"},"federalState":{"key":"07","name":"Rheinland-Pfalz"}},{"name":"Im Flur","postalCode":"54636","locality":"Dockendorf","municipality":{"key":"07232026","name":"Dockendorf","type":"Kreisangehörige_Gemeinde"},"district":{"key":"07232","name":"Eifelkreis Bitburg-Prüm","type":"Landkreis"},"federalState":{"key":"07","name":"Rheinland-Pfalz"}},{"name":"Kirchstr.","postalCode":"54636","locality":"Dockendorf","municipality":{"key":"07232026","name":"Dockendorf","type":"Kreisangehörige_Gemeinde"},"district":{"key":"07232","name":"Eifelkreis Bitburg-Prüm","type":"Landkreis"},"federalState":{"key":"07","name":"Rheinland-Pfalz"}},{"name":"Peffinger Str.","postalCode":"54636","locality":"Dockendorf","municipality":{"key":"07232026","name":"Dockendorf","type":"Kreisangehörige_Gemeinde"},"district":{"key":"07232","name":"Eifelkreis Bitburg-Prüm","type":"Landkreis"},"federalState":{"key":"07","name":"Rheinland-Pfalz"}},{"name":"Talweg","postalCode":"54636","locality":"Dockendorf","municipality":{"key":"07232026","name":"Dockendorf","type":"Kreisangehörige_Gemeinde"},"district":{"key":"07232","name":"Eifelkreis Bitburg-Prüm","type":"Landkreis"},"federalState":{"key":"07","name":"Rheinland-Pfalz"}},{"name":"Weilerweg","postalCode":"54636","locality":"Dockendorf","municipality":{"key":"07232026","name":"Dockendorf","type":"Kreisangehörige_Gemeinde"},"district":{"key":"07232","name":"Eifelkreis Bitburg-Prüm","type":"Landkreis"},"federalState":{"key":"07","name":"Rheinland-Pfalz"}},{"name":"Zur Kapelle","postalCode":"54636","locality":"Dockendorf","municipality":{"key":"07232026","name":"Dockendorf","type":"Kreisangehörige_Gemeinde"},"district":{"key":"07232","name":"Eifelkreis Bitburg-Prüm","type":"Landkreis"},"federalState":{"key":"07","name":"Rheinland-Pfalz"}},{"name":"Zur Mühle","postalCode":"54636","locality":"Dockendorf","municipality":{"key":"07232026","name":"Dockendorf","type":"Kreisangehörige_Gemeinde"},"district":{"key":"07232","name":"Eifelkreis Bitburg-Prüm","type":"Landkreis"},"federalState":{"key":"07","name":"Rheinland-Pfalz"}},]