[{"name":"Am Kandlfeld","postalCode":"84389","locality":"Postmünster","municipality":{"key":"09277139","name":"Postmünster","type":"Kreisangehörige_Gemeinde"},"district":{"key":"09277","name":"Rottal-Inn","type":"Landkreis"},"federalState":{"key":"09","name":"Bayern"}},{"name":"Beckenrandstr.","postalCode":"84389","locality":"Postmünster","municipality":{"key":"09277139","name":"Postmünster","type":"Kreisangehörige_Gemeinde"},"district":{"key":"09277","name":"Rottal-Inn","type":"Landkreis"},"federalState":{"key":"09","name":"Bayern"}},{"name":"Bergring","postalCode":"84389","locality":"Postmünster","municipality":{"key":"09277139","name":"Postmünster","type":"Kreisangehörige_Gemeinde"},"district":{"key":"09277","name":"Rottal-Inn","type":"Landkreis"},"federalState":{"key":"09","name":"Bayern"}},{"name":"Blumenstr.","postalCode":"84389","locality":"Postmünster","municipality":{"key":"09277139","name":"Postmünster","type":"Kreisangehörige_Gemeinde"},"district":{"key":"09277","name":"Rottal-Inn","type":"Landkreis"},"federalState":{"key":"09","name":"Bayern"}},{"name":"Christangerstr.","postalCode":"84389","locality":"Postmünster","municipality":{"key":"09277139","name":"Postmünster","type":"Kreisangehörige_Gemeinde"},"district":{"key":"09277","name":"Rottal-Inn","type":"Landkreis"},"federalState":{"key":"09","name":"Bayern"}},{"name":"Eggenfeldener Str.","postalCode":"84389","locality":"Postmünster","municipality":{"key":"09277139","name":"Postmünster","type":"Kreisangehörige_Gemeinde"},"district":{"key":"09277","name":"Rottal-Inn","type":"Landkreis"},"federalState":{"key":"09","name":"Bayern"}},{"name":"Fasselsberg","postalCode":"84389","locality":"Postmünster","municipality":{"key":"09277139","name":"Postmünster","type":"Kreisangehörige_Gemeinde"},"district":{"key":"09277","name":"Rottal-Inn","type":"Landkreis"},"federalState":{"key":"09","name":"Bayern"}},{"name":"Gangerbauerstr.","postalCode":"84389","locality":"Postmünster","municipality":{"key":"09277139","name":"Postmünster","type":"Kreisangehörige_Gemeinde"},"district":{"key":"09277","name":"Rottal-Inn","type":"Landkreis"},"federalState":{"key":"09","name":"Bayern"}},{"name":"Hauptstr.","postalCode":"84389","locality":"Postmünster","municipality":{"key":"09277139","name":"Postmünster","type":"Kreisangehörige_Gemeinde"},"district":{"key":"09277","name":"Rottal-Inn","type":"Landkreis"},"federalState":{"key":"09","name":"Bayern"}},{"name":"Heiblhub","postalCode":"84389","locality":"Postmünster","municipality":{"key":"09277139","name":"Postmünster","type":"Kreisangehörige_Gemeinde"},"district":{"key":"09277","name":"Rottal-Inn","type":"Landkreis"},"federalState":{"key":"09","name":"Bayern"}},{"name":"Im Niedermeierfeld","postalCode":"84389","locality":"Postmünster","municipality":{"key":"09277139","name":"Postmünster","type":"Kreisangehörige_Gemeinde"},"district":{"key":"09277","name":"Rottal-Inn","type":"Landkreis"},"federalState":{"key":"09","name":"Bayern"}},{"name":"Im Vogelfeld","postalCode":"84389","locality":"Postmünster","municipality":{"key":"09277139","name":"Postmünster","type":"Kreisangehörige_Gemeinde"},"district":{"key":"09277","name":"Rottal-Inn","type":"Landkreis"},"federalState":{"key":"09","name":"Bayern"}},{"name":"Kienbach","postalCode":"84389","locality":"Postmünster","municipality":{"key":"09277139","name":"Postmünster","type":"Kreisangehörige_Gemeinde"},"district":{"key":"09277","name":"Rottal-Inn","type":"Landkreis"},"federalState":{"key":"09","name":"Bayern"}},{"name":"Klaus-Wiedemann-Str.","postalCode":"84389","locality":"Postmünster","municipality":{"key":"09277139","name":"Postmünster","type":"Kreisangehörige_Gemeinde"},"district":{"key":"09277","name":"Rottal-Inn","type":"Landkreis"},"federalState":{"key":"09","name":"Bayern"}},{"name":"Ludwig-Edmaier-Str.","postalCode":"84389","locality":"Postmünster","municipality":{"key":"09277139","name":"Postmünster","type":"Kreisangehörige_Gemeinde"},"district":{"key":"09277","name":"Rottal-Inn","type":"Landkreis"},"federalState":{"key":"09","name":"Bayern"}},{"name":"Parkstr.","postalCode":"84389","locality":"Postmünster","municipality":{"key":"09277139","name":"Postmünster","type":"Kreisangehörige_Gemeinde"},"district":{"key":"09277","name":"Rottal-Inn","type":"Landkreis"},"federalState":{"key":"09","name":"Bayern"}},{"name":"Pfarrer-Gahbauer-Weg","postalCode":"84389","locality":"Postmünster","municipality":{"key":"09277139","name":"Postmünster","type":"Kreisangehörige_Gemeinde"},"district":{"key":"09277","name":"Rottal-Inn","type":"Landkreis"},"federalState":{"key":"09","name":"Bayern"}},{"name":"Pfarrer-Wieslhuber-Str.","postalCode":"84389","locality":"Postmünster","municipality":{"key":"09277139","name":"Postmünster","type":"Kreisangehörige_Gemeinde"},"district":{"key":"09277","name":"Rottal-Inn","type":"Landkreis"},"federalState":{"key":"09","name":"Bayern"}},{"name":"Pfarrkirchener Str.","postalCode":"84389","locality":"Postmünster","municipality":{"key":"09277139","name":"Postmünster","type":"Kreisangehörige_Gemeinde"},"district":{"key":"09277","name":"Rottal-Inn","type":"Landkreis"},"federalState":{"key":"09","name":"Bayern"}},{"name":"Plinganserstr.","postalCode":"84389","locality":"Postmünster","municipality":{"key":"09277139","name":"Postmünster","type":"Kreisangehörige_Gemeinde"},"district":{"key":"09277","name":"Rottal-Inn","type":"Landkreis"},"federalState":{"key":"09","name":"Bayern"}},{"name":"Poststr.","postalCode":"84389","locality":"Postmünster","municipality":{"key":"09277139","name":"Postmünster","type":"Kreisangehörige_Gemeinde"},"district":{"key":"09277","name":"Rottal-Inn","type":"Landkreis"},"federalState":{"key":"09","name":"Bayern"}},{"name":"Rektor-Pfisterhammer-Weg","postalCode":"84389","locality":"Postmünster","municipality":{"key":"09277139","name":"Postmünster","type":"Kreisangehörige_Gemeinde"},"district":{"key":"09277","name":"Rottal-Inn","type":"Landkreis"},"federalState":{"key":"09","name":"Bayern"}},{"name":"Ringstr.","postalCode":"84389","locality":"Postmünster","municipality":{"key":"09277139","name":"Postmünster","type":"Kreisangehörige_Gemeinde"},"district":{"key":"09277","name":"Rottal-Inn","type":"Landkreis"},"federalState":{"key":"09","name":"Bayern"}},{"name":"Rottauenweg","postalCode":"84389","locality":"Postmünster","municipality":{"key":"09277139","name":"Postmünster","type":"Kreisangehörige_Gemeinde"},"district":{"key":"09277","name":"Rottal-Inn","type":"Landkreis"},"federalState":{"key":"09","name":"Bayern"}},{"name":"Rotthöhe","postalCode":"84389","locality":"Postmünster","municipality":{"key":"09277139","name":"Postmünster","type":"Kreisangehörige_Gemeinde"},"district":{"key":"09277","name":"Rottal-Inn","type":"Landkreis"},"federalState":{"key":"09","name":"Bayern"}},{"name":"Schalldorf","postalCode":"84389","locality":"Postmünster","municipality":{"key":"09277139","name":"Postmünster","type":"Kreisangehörige_Gemeinde"},"district":{"key":"09277","name":"Rottal-Inn","type":"Landkreis"},"federalState":{"key":"09","name":"Bayern"}},{"name":"Schönauer Str.","postalCode":"84389","locality":"Postmünster","municipality":{"key":"09277139","name":"Postmünster","type":"Kreisangehörige_Gemeinde"},"district":{"key":"09277","name":"Rottal-Inn","type":"Landkreis"},"federalState":{"key":"09","name":"Bayern"}},{"name":"Schulstr.","postalCode":"84389","locality":"Postmünster","municipality":{"key":"09277139","name":"Postmünster","type":"Kreisangehörige_Gemeinde"},"district":{"key":"09277","name":"Rottal-Inn","type":"Landkreis"},"federalState":{"key":"09","name":"Bayern"}},{"name":"Seeblickstr.","postalCode":"84389","locality":"Postmünster","municipality":{"key":"09277139","name":"Postmünster","type":"Kreisangehörige_Gemeinde"},"district":{"key":"09277","name":"Rottal-Inn","type":"Landkreis"},"federalState":{"key":"09","name":"Bayern"}},{"name":"Stapfen","postalCode":"84389","locality":"Postmünster","municipality":{"key":"09277139","name":"Postmünster","type":"Kreisangehörige_Gemeinde"},"district":{"key":"09277","name":"Rottal-Inn","type":"Landkreis"},"federalState":{"key":"09","name":"Bayern"}},{"name":"St.-Benedikt-Str.","postalCode":"84389","locality":"Postmünster","municipality":{"key":"09277139","name":"Postmünster","type":"Kreisangehörige_Gemeinde"},"district":{"key":"09277","name":"Rottal-Inn","type":"Landkreis"},"federalState":{"key":"09","name":"Bayern"}},{"name":"St.-Martin-Str.","postalCode":"84389","locality":"Postmünster","municipality":{"key":"09277139","name":"Postmünster","type":"Kreisangehörige_Gemeinde"},"district":{"key":"09277","name":"Rottal-Inn","type":"Landkreis"},"federalState":{"key":"09","name":"Bayern"}},{"name":"Thurnstein","postalCode":"84389","locality":"Postmünster","municipality":{"key":"09277139","name":"Postmünster","type":"Kreisangehörige_Gemeinde"},"district":{"key":"09277","name":"Rottal-Inn","type":"Landkreis"},"federalState":{"key":"09","name":"Bayern"}},{"name":"Waldhöhe","postalCode":"84389","locality":"Postmünster","municipality":{"key":"09277139","name":"Postmünster","type":"Kreisangehörige_Gemeinde"},"district":{"key":"09277","name":"Rottal-Inn","type":"Landkreis"},"federalState":{"key":"09","name":"Bayern"}},]