[{"name":"Adam-Riese-Str.","postalCode":"53842","locality":"Troisdorf","municipality":{"key":"05382068","name":"Troisdorf, Stadt","type":"Stadt"},"district":{"key":"05382","name":"Rhein-Sieg-Kreis","type":"Kreis"},"federalState":{"key":"05","name":"Nordrhein-Westfalen"}},{"name":"Adenauerstr.","postalCode":"53842","locality":"Troisdorf","municipality":{"key":"05382068","name":"Troisdorf, Stadt","type":"Stadt"},"district":{"key":"05382","name":"Rhein-Sieg-Kreis","type":"Kreis"},"federalState":{"key":"05","name":"Nordrhein-Westfalen"}},{"name":"Adolf-Friedrich-Str.","postalCode":"53840","locality":"Troisdorf","municipality":{"key":"05382068","name":"Troisdorf, Stadt","type":"Stadt"},"district":{"key":"05382","name":"Rhein-Sieg-Kreis","type":"Kreis"},"federalState":{"key":"05","name":"Nordrhein-Westfalen"}},{"name":"Aggerauenweg","postalCode":"53840","locality":"Troisdorf","municipality":{"key":"05382068","name":"Troisdorf, Stadt","type":"Stadt"},"district":{"key":"05382","name":"Rhein-Sieg-Kreis","type":"Kreis"},"federalState":{"key":"05","name":"Nordrhein-Westfalen"}},{"name":"Aggerdamm","postalCode":"53840","locality":"Troisdorf","municipality":{"key":"05382068","name":"Troisdorf, Stadt","type":"Stadt"},"district":{"key":"05382","name":"Rhein-Sieg-Kreis","type":"Kreis"},"federalState":{"key":"05","name":"Nordrhein-Westfalen"}},{"name":"Aggerstr.","postalCode":"53840","locality":"Troisdorf","municipality":{"key":"05382068","name":"Troisdorf, Stadt","type":"Stadt"},"district":{"key":"05382","name":"Rhein-Sieg-Kreis","type":"Kreis"},"federalState":{"key":"05","name":"Nordrhein-Westfalen"}},{"name":"Agger-Sülz-Weg","postalCode":"53842","locality":"Troisdorf","municipality":{"key":"05382068","name":"Troisdorf, Stadt","type":"Stadt"},"district":{"key":"05382","name":"Rhein-Sieg-Kreis","type":"Kreis"},"federalState":{"key":"05","name":"Nordrhein-Westfalen"}},{"name":"Agnesstr.","postalCode":"53842","locality":"Troisdorf","municipality":{"key":"05382068","name":"Troisdorf, Stadt","type":"Stadt"},"district":{"key":"05382","name":"Rhein-Sieg-Kreis","type":"Kreis"},"federalState":{"key":"05","name":"Nordrhein-Westfalen"}},{"name":"Ahornweg","postalCode":"53844","locality":"Troisdorf","municipality":{"key":"05382068","name":"Troisdorf, Stadt","type":"Stadt"},"district":{"key":"05382","name":"Rhein-Sieg-Kreis","type":"Kreis"},"federalState":{"key":"05","name":"Nordrhein-Westfalen"}},{"name":"Ahrstr.","postalCode":"53840","locality":"Troisdorf","municipality":{"key":"05382068","name":"Troisdorf, Stadt","type":"Stadt"},"district":{"key":"05382","name":"Rhein-Sieg-Kreis","type":"Kreis"},"federalState":{"key":"05","name":"Nordrhein-Westfalen"}},{"name":"Akazienweg","postalCode":"53844","locality":"Troisdorf","municipality":{"key":"05382068","name":"Troisdorf, Stadt","type":"Stadt"},"district":{"key":"05382","name":"Rhein-Sieg-Kreis","type":"Kreis"},"federalState":{"key":"05","name":"Nordrhein-Westfalen"}},{"name":"Albrecht-Dürer-Str.","postalCode":"53842","locality":"Troisdorf","municipality":{"key":"05382068","name":"Troisdorf, Stadt","type":"Stadt"},"district":{"key":"05382","name":"Rhein-Sieg-Kreis","type":"Kreis"},"federalState":{"key":"05","name":"Nordrhein-Westfalen"}},{"name":"Alemannenstr.","postalCode":"53844","locality":"Troisdorf","municipality":{"key":"05382068","name":"Troisdorf, Stadt","type":"Stadt"},"district":{"key":"05382","name":"Rhein-Sieg-Kreis","type":"Kreis"},"federalState":{"key":"05","name":"Nordrhein-Westfalen"}},{"name":"Alfred-Delp-Str.","postalCode":"53840","locality":"Troisdorf","municipality":{"key":"05382068","name":"Troisdorf, Stadt","type":"Stadt"},"district":{"key":"05382","name":"Rhein-Sieg-Kreis","type":"Kreis"},"federalState":{"key":"05","name":"Nordrhein-Westfalen"}},{"name":"Alfred-Meier-Str.","postalCode":"53844","locality":"Troisdorf","municipality":{"key":"05382068","name":"Troisdorf, Stadt","type":"Stadt"},"district":{"key":"05382","name":"Rhein-Sieg-Kreis","type":"Kreis"},"federalState":{"key":"05","name":"Nordrhein-Westfalen"}},{"name":"Alfred-Nobel-Str.","postalCode":"53840","locality":"Troisdorf","municipality":{"key":"05382068","name":"Troisdorf, Stadt","type":"Stadt"},"district":{"key":"05382","name":"Rhein-Sieg-Kreis","type":"Kreis"},"federalState":{"key":"05","name":"Nordrhein-Westfalen"}},{"name":"Allensteiner Str.","postalCode":"53840","locality":"Troisdorf","municipality":{"key":"05382068","name":"Troisdorf, Stadt","type":"Stadt"},"district":{"key":"05382","name":"Rhein-Sieg-Kreis","type":"Kreis"},"federalState":{"key":"05","name":"Nordrhein-Westfalen"}},{"name":"Alte Kölner Str.","postalCode":"53842","locality":"Troisdorf","municipality":{"key":"05382068","name":"Troisdorf, Stadt","type":"Stadt"},"district":{"key":"05382","name":"Rhein-Sieg-Kreis","type":"Kreis"},"federalState":{"key":"05","name":"Nordrhein-Westfalen"}},{"name":"Altenrather Str.","postalCode":"53840","locality":"Troisdorf","municipality":{"key":"05382068","name":"Troisdorf, Stadt","type":"Stadt"},"district":{"key":"05382","name":"Rhein-Sieg-Kreis","type":"Kreis"},"federalState":{"key":"05","name":"Nordrhein-Westfalen"}},{"name":"Altenrather Str.","postalCode":"53842","locality":"Troisdorf","municipality":{"key":"05382068","name":"Troisdorf, Stadt","type":"Stadt"},"district":{"key":"05382","name":"Rhein-Sieg-Kreis","type":"Kreis"},"federalState":{"key":"05","name":"Nordrhein-Westfalen"}},{"name":"Alte Str.","postalCode":"53840","locality":"Troisdorf","municipality":{"key":"05382068","name":"Troisdorf, Stadt","type":"Stadt"},"district":{"key":"05382","name":"Rhein-Sieg-Kreis","type":"Kreis"},"federalState":{"key":"05","name":"Nordrhein-Westfalen"}},{"name":"Alte Uckendorfer Str.","postalCode":"53844","locality":"Troisdorf","municipality":{"key":"05382068","name":"Troisdorf, Stadt","type":"Stadt"},"district":{"key":"05382","name":"Rhein-Sieg-Kreis","type":"Kreis"},"federalState":{"key":"05","name":"Nordrhein-Westfalen"}},{"name":"Am alten Wasser","postalCode":"53840","locality":"Troisdorf","municipality":{"key":"05382068","name":"Troisdorf, Stadt","type":"Stadt"},"district":{"key":"05382","name":"Rhein-Sieg-Kreis","type":"Kreis"},"federalState":{"key":"05","name":"Nordrhein-Westfalen"}},{"name":"Am alten Wasser","postalCode":"53842","locality":"Troisdorf","municipality":{"key":"05382068","name":"Troisdorf, Stadt","type":"Stadt"},"district":{"key":"05382","name":"Rhein-Sieg-Kreis","type":"Kreis"},"federalState":{"key":"05","name":"Nordrhein-Westfalen"}},{"name":"Am Annonisbach","postalCode":"53842","locality":"Troisdorf","municipality":{"key":"05382068","name":"Troisdorf, Stadt","type":"Stadt"},"district":{"key":"05382","name":"Rhein-Sieg-Kreis","type":"Kreis"},"federalState":{"key":"05","name":"Nordrhein-Westfalen"}},{"name":"Am Bahnhof","postalCode":"53840","locality":"Troisdorf","municipality":{"key":"05382068","name":"Troisdorf, Stadt","type":"Stadt"},"district":{"key":"05382","name":"Rhein-Sieg-Kreis","type":"Kreis"},"federalState":{"key":"05","name":"Nordrhein-Westfalen"}},{"name":"Am Bergeracker","postalCode":"53842","locality":"Troisdorf","municipality":{"key":"05382068","name":"Troisdorf, Stadt","type":"Stadt"},"district":{"key":"05382","name":"Rhein-Sieg-Kreis","type":"Kreis"},"federalState":{"key":"05","name":"Nordrhein-Westfalen"}},{"name":"Am Bergerhof","postalCode":"53840","locality":"Troisdorf","municipality":{"key":"05382068","name":"Troisdorf, Stadt","type":"Stadt"},"district":{"key":"05382","name":"Rhein-Sieg-Kreis","type":"Kreis"},"federalState":{"key":"05","name":"Nordrhein-Westfalen"}},{"name":"Ambiorixstr.","postalCode":"53840","locality":"Troisdorf","municipality":{"key":"05382068","name":"Troisdorf, Stadt","type":"Stadt"},"district":{"key":"05382","name":"Rhein-Sieg-Kreis","type":"Kreis"},"federalState":{"key":"05","name":"Nordrhein-Westfalen"}},{"name":"Am Burghof","postalCode":"53840","locality":"Troisdorf","municipality":{"key":"05382068","name":"Troisdorf, Stadt","type":"Stadt"},"district":{"key":"05382","name":"Rhein-Sieg-Kreis","type":"Kreis"},"federalState":{"key":"05","name":"Nordrhein-Westfalen"}},{"name":"Am Driesch","postalCode":"53844","locality":"Troisdorf","municipality":{"key":"05382068","name":"Troisdorf, Stadt","type":"Stadt"},"district":{"key":"05382","name":"Rhein-Sieg-Kreis","type":"Kreis"},"federalState":{"key":"05","name":"Nordrhein-Westfalen"}},{"name":"Am Fahr","postalCode":"53840","locality":"Troisdorf","municipality":{"key":"05382068","name":"Troisdorf, Stadt","type":"Stadt"},"district":{"key":"05382","name":"Rhein-Sieg-Kreis","type":"Kreis"},"federalState":{"key":"05","name":"Nordrhein-Westfalen"}},{"name":"Am Feldgarten","postalCode":"53844","locality":"Troisdorf","municipality":{"key":"05382068","name":"Troisdorf, Stadt","type":"Stadt"},"district":{"key":"05382","name":"Rhein-Sieg-Kreis","type":"Kreis"},"federalState":{"key":"05","name":"Nordrhein-Westfalen"}},{"name":"Am Feldrain","postalCode":"53844","locality":"Troisdorf","municipality":{"key":"05382068","name":"Troisdorf, Stadt","type":"Stadt"},"district":{"key":"05382","name":"Rhein-Sieg-Kreis","type":"Kreis"},"federalState":{"key":"05","name":"Nordrhein-Westfalen"}},{"name":"Am Flachtenstiegel","postalCode":"53844","locality":"Troisdorf","municipality":{"key":"05382068","name":"Troisdorf, Stadt","type":"Stadt"},"district":{"key":"05382","name":"Rhein-Sieg-Kreis","type":"Kreis"},"federalState":{"key":"05","name":"Nordrhein-Westfalen"}},{"name":"Am Friedhof","postalCode":"53842","locality":"Troisdorf","municipality":{"key":"05382068","name":"Troisdorf, Stadt","type":"Stadt"},"district":{"key":"05382","name":"Rhein-Sieg-Kreis","type":"Kreis"},"federalState":{"key":"05","name":"Nordrhein-Westfalen"}},{"name":"Am Gerstenkamp","postalCode":"53840","locality":"Troisdorf","municipality":{"key":"05382068","name":"Troisdorf, Stadt","type":"Stadt"},"district":{"key":"05382","name":"Rhein-Sieg-Kreis","type":"Kreis"},"federalState":{"key":"05","name":"Nordrhein-Westfalen"}},{"name":"Am Hang","postalCode":"53842","locality":"Troisdorf","municipality":{"key":"05382068","name":"Troisdorf, Stadt","type":"Stadt"},"district":{"key":"05382","name":"Rhein-Sieg-Kreis","type":"Kreis"},"federalState":{"key":"05","name":"Nordrhein-Westfalen"}},{"name":"Am Hirschpark","postalCode":"53840","locality":"Troisdorf","municipality":{"key":"05382068","name":"Troisdorf, Stadt","type":"Stadt"},"district":{"key":"05382","name":"Rhein-Sieg-Kreis","type":"Kreis"},"federalState":{"key":"05","name":"Nordrhein-Westfalen"}},{"name":"Am Hofweiher","postalCode":"53840","locality":"Troisdorf","municipality":{"key":"05382068","name":"Troisdorf, Stadt","type":"Stadt"},"district":{"key":"05382","name":"Rhein-Sieg-Kreis","type":"Kreis"},"federalState":{"key":"05","name":"Nordrhein-Westfalen"}},{"name":"Am Johannesufer","postalCode":"53844","locality":"Troisdorf","municipality":{"key":"05382068","name":"Troisdorf, Stadt","type":"Stadt"},"district":{"key":"05382","name":"Rhein-Sieg-Kreis","type":"Kreis"},"federalState":{"key":"05","name":"Nordrhein-Westfalen"}},{"name":"Am Kaninberg","postalCode":"53842","locality":"Troisdorf","municipality":{"key":"05382068","name":"Troisdorf, Stadt","type":"Stadt"},"district":{"key":"05382","name":"Rhein-Sieg-Kreis","type":"Kreis"},"federalState":{"key":"05","name":"Nordrhein-Westfalen"}},{"name":"Am Katzenbachwald","postalCode":"53842","locality":"Troisdorf","municipality":{"key":"05382068","name":"Troisdorf, Stadt","type":"Stadt"},"district":{"key":"05382","name":"Rhein-Sieg-Kreis","type":"Kreis"},"federalState":{"key":"05","name":"Nordrhein-Westfalen"}},{"name":"Am Kollberg","postalCode":"53842","locality":"Troisdorf","municipality":{"key":"05382068","name":"Troisdorf, Stadt","type":"Stadt"},"district":{"key":"05382","name":"Rhein-Sieg-Kreis","type":"Kreis"},"federalState":{"key":"05","name":"Nordrhein-Westfalen"}},{"name":"Am Landgraben","postalCode":"53842","locality":"Troisdorf","municipality":{"key":"05382068","name":"Troisdorf, Stadt","type":"Stadt"},"district":{"key":"05382","name":"Rhein-Sieg-Kreis","type":"Kreis"},"federalState":{"key":"05","name":"Nordrhein-Westfalen"}},{"name":"Am Lehmhof","postalCode":"53840","locality":"Troisdorf","municipality":{"key":"05382068","name":"Troisdorf, Stadt","type":"Stadt"},"district":{"key":"05382","name":"Rhein-Sieg-Kreis","type":"Kreis"},"federalState":{"key":"05","name":"Nordrhein-Westfalen"}},{"name":"Ammerweg","postalCode":"53844","locality":"Troisdorf","municipality":{"key":"05382068","name":"Troisdorf, Stadt","type":"Stadt"},"district":{"key":"05382","name":"Rhein-Sieg-Kreis","type":"Kreis"},"federalState":{"key":"05","name":"Nordrhein-Westfalen"}},{"name":"Am Mittelpfad","postalCode":"53844","locality":"Troisdorf","municipality":{"key":"05382068","name":"Troisdorf, Stadt","type":"Stadt"},"district":{"key":"05382","name":"Rhein-Sieg-Kreis","type":"Kreis"},"federalState":{"key":"05","name":"Nordrhein-Westfalen"}},{"name":"Am Mühlenbach","postalCode":"53844","locality":"Troisdorf","municipality":{"key":"05382068","name":"Troisdorf, Stadt","type":"Stadt"},"district":{"key":"05382","name":"Rhein-Sieg-Kreis","type":"Kreis"},"federalState":{"key":"05","name":"Nordrhein-Westfalen"}},{"name":"Am Mühlentor","postalCode":"53844","locality":"Troisdorf","municipality":{"key":"05382068","name":"Troisdorf, Stadt","type":"Stadt"},"district":{"key":"05382","name":"Rhein-Sieg-Kreis","type":"Kreis"},"federalState":{"key":"05","name":"Nordrhein-Westfalen"}},{"name":"Bachstr.","postalCode":"53840","locality":"Troisdorf","municipality":{"key":"05382068","name":"Troisdorf, Stadt","type":"Stadt"},"district":{"key":"05382","name":"Rhein-Sieg-Kreis","type":"Kreis"},"federalState":{"key":"05","name":"Nordrhein-Westfalen"}},{"name":"Bahnstr.","postalCode":"53842","locality":"Troisdorf","municipality":{"key":"05382068","name":"Troisdorf, Stadt","type":"Stadt"},"district":{"key":"05382","name":"Rhein-Sieg-Kreis","type":"Kreis"},"federalState":{"key":"05","name":"Nordrhein-Westfalen"}},{"name":"Baldeneyseestr.","postalCode":"53844","locality":"Troisdorf","municipality":{"key":"05382068","name":"Troisdorf, Stadt","type":"Stadt"},"district":{"key":"05382","name":"Rhein-Sieg-Kreis","type":"Kreis"},"federalState":{"key":"05","name":"Nordrhein-Westfalen"}},{"name":"Balkanroute","postalCode":"53844","locality":"Troisdorf","municipality":{"key":"05382068","name":"Troisdorf, Stadt","type":"Stadt"},"district":{"key":"05382","name":"Rhein-Sieg-Kreis","type":"Kreis"},"federalState":{"key":"05","name":"Nordrhein-Westfalen"}},{"name":"Bayernweg","postalCode":"53844","locality":"Troisdorf","municipality":{"key":"05382068","name":"Troisdorf, Stadt","type":"Stadt"},"district":{"key":"05382","name":"Rhein-Sieg-Kreis","type":"Kreis"},"federalState":{"key":"05","name":"Nordrhein-Westfalen"}},{"name":"Bebelstr.","postalCode":"53840","locality":"Troisdorf","municipality":{"key":"05382068","name":"Troisdorf, Stadt","type":"Stadt"},"district":{"key":"05382","name":"Rhein-Sieg-Kreis","type":"Kreis"},"federalState":{"key":"05","name":"Nordrhein-Westfalen"}},{"name":"Beethovenstr.","postalCode":"53844","locality":"Troisdorf","municipality":{"key":"05382068","name":"Troisdorf, Stadt","type":"Stadt"},"district":{"key":"05382","name":"Rhein-Sieg-Kreis","type":"Kreis"},"federalState":{"key":"05","name":"Nordrhein-Westfalen"}},{"name":"Begonienstr.","postalCode":"53840","locality":"Troisdorf","municipality":{"key":"05382068","name":"Troisdorf, Stadt","type":"Stadt"},"district":{"key":"05382","name":"Rhein-Sieg-Kreis","type":"Kreis"},"federalState":{"key":"05","name":"Nordrhein-Westfalen"}},{"name":"Belgische Allee","postalCode":"53842","locality":"Troisdorf","municipality":{"key":"05382068","name":"Troisdorf, Stadt","type":"Stadt"},"district":{"key":"05382","name":"Rhein-Sieg-Kreis","type":"Kreis"},"federalState":{"key":"05","name":"Nordrhein-Westfalen"}},{"name":"Bensberger Str.","postalCode":"53842","locality":"Troisdorf","municipality":{"key":"05382068","name":"Troisdorf, Stadt","type":"Stadt"},"district":{"key":"05382","name":"Rhein-Sieg-Kreis","type":"Kreis"},"federalState":{"key":"05","name":"Nordrhein-Westfalen"}},{"name":"Bergerbitze","postalCode":"53842","locality":"Troisdorf","municipality":{"key":"05382068","name":"Troisdorf, Stadt","type":"Stadt"},"district":{"key":"05382","name":"Rhein-Sieg-Kreis","type":"Kreis"},"federalState":{"key":"05","name":"Nordrhein-Westfalen"}},{"name":"Bergheimer Str.","postalCode":"53844","locality":"Troisdorf","municipality":{"key":"05382068","name":"Troisdorf, Stadt","type":"Stadt"},"district":{"key":"05382","name":"Rhein-Sieg-Kreis","type":"Kreis"},"federalState":{"key":"05","name":"Nordrhein-Westfalen"}},{"name":"Bergischer Ring","postalCode":"53844","locality":"Troisdorf","municipality":{"key":"05382068","name":"Troisdorf, Stadt","type":"Stadt"},"district":{"key":"05382","name":"Rhein-Sieg-Kreis","type":"Kreis"},"federalState":{"key":"05","name":"Nordrhein-Westfalen"}},{"name":"Bergstr.","postalCode":"53844","locality":"Troisdorf","municipality":{"key":"05382068","name":"Troisdorf, Stadt","type":"Stadt"},"district":{"key":"05382","name":"Rhein-Sieg-Kreis","type":"Kreis"},"federalState":{"key":"05","name":"Nordrhein-Westfalen"}},{"name":"Berliner Str.","postalCode":"53840","locality":"Troisdorf","municipality":{"key":"05382068","name":"Troisdorf, Stadt","type":"Stadt"},"district":{"key":"05382","name":"Rhein-Sieg-Kreis","type":"Kreis"},"federalState":{"key":"05","name":"Nordrhein-Westfalen"}},{"name":"Bertha-von-Suttner-Str.","postalCode":"53840","locality":"Troisdorf","municipality":{"key":"05382068","name":"Troisdorf, Stadt","type":"Stadt"},"district":{"key":"05382","name":"Rhein-Sieg-Kreis","type":"Kreis"},"federalState":{"key":"05","name":"Nordrhein-Westfalen"}},{"name":"Bessemerstr.","postalCode":"53840","locality":"Troisdorf","municipality":{"key":"05382068","name":"Troisdorf, Stadt","type":"Stadt"},"district":{"key":"05382","name":"Rhein-Sieg-Kreis","type":"Kreis"},"federalState":{"key":"05","name":"Nordrhein-Westfalen"}},{"name":"Beumerstr.","postalCode":"53840","locality":"Troisdorf","municipality":{"key":"05382068","name":"Troisdorf, Stadt","type":"Stadt"},"district":{"key":"05382","name":"Rhein-Sieg-Kreis","type":"Kreis"},"federalState":{"key":"05","name":"Nordrhein-Westfalen"}},{"name":"Beuthener Str.","postalCode":"53842","locality":"Troisdorf","municipality":{"key":"05382068","name":"Troisdorf, Stadt","type":"Stadt"},"district":{"key":"05382","name":"Rhein-Sieg-Kreis","type":"Kreis"},"federalState":{"key":"05","name":"Nordrhein-Westfalen"}},{"name":"Biberweg","postalCode":"53842","locality":"Troisdorf","municipality":{"key":"05382068","name":"Troisdorf, Stadt","type":"Stadt"},"district":{"key":"05382","name":"Rhein-Sieg-Kreis","type":"Kreis"},"federalState":{"key":"05","name":"Nordrhein-Westfalen"}},{"name":"Biggeseestr.","postalCode":"53844","locality":"Troisdorf","municipality":{"key":"05382068","name":"Troisdorf, Stadt","type":"Stadt"},"district":{"key":"05382","name":"Rhein-Sieg-Kreis","type":"Kreis"},"federalState":{"key":"05","name":"Nordrhein-Westfalen"}},{"name":"Birkenweg","postalCode":"53842","locality":"Troisdorf","municipality":{"key":"05382068","name":"Troisdorf, Stadt","type":"Stadt"},"district":{"key":"05382","name":"Rhein-Sieg-Kreis","type":"Kreis"},"federalState":{"key":"05","name":"Nordrhein-Westfalen"}},{"name":"Birklestr.","postalCode":"53844","locality":"Troisdorf","municipality":{"key":"05382068","name":"Troisdorf, Stadt","type":"Stadt"},"district":{"key":"05382","name":"Rhein-Sieg-Kreis","type":"Kreis"},"federalState":{"key":"05","name":"Nordrhein-Westfalen"}},{"name":"Birnengarten","postalCode":"53844","locality":"Troisdorf","municipality":{"key":"05382068","name":"Troisdorf, Stadt","type":"Stadt"},"district":{"key":"05382","name":"Rhein-Sieg-Kreis","type":"Kreis"},"federalState":{"key":"05","name":"Nordrhein-Westfalen"}},{"name":"Bismarckplatz","postalCode":"53842","locality":"Troisdorf","municipality":{"key":"05382068","name":"Troisdorf, Stadt","type":"Stadt"},"district":{"key":"05382","name":"Rhein-Sieg-Kreis","type":"Kreis"},"federalState":{"key":"05","name":"Nordrhein-Westfalen"}},{"name":"Bismarckstr.","postalCode":"53842","locality":"Troisdorf","municipality":{"key":"05382068","name":"Troisdorf, Stadt","type":"Stadt"},"district":{"key":"05382","name":"Rhein-Sieg-Kreis","type":"Kreis"},"federalState":{"key":"05","name":"Nordrhein-Westfalen"}},{"name":"Bitburger Str.","postalCode":"53842","locality":"Troisdorf","municipality":{"key":"05382068","name":"Troisdorf, Stadt","type":"Stadt"},"district":{"key":"05382","name":"Rhein-Sieg-Kreis","type":"Kreis"},"federalState":{"key":"05","name":"Nordrhein-Westfalen"}},{"name":"Blücherstr.","postalCode":"53840","locality":"Troisdorf","municipality":{"key":"05382068","name":"Troisdorf, Stadt","type":"Stadt"},"district":{"key":"05382","name":"Rhein-Sieg-Kreis","type":"Kreis"},"federalState":{"key":"05","name":"Nordrhein-Westfalen"}},{"name":"Blücherstr.","postalCode":"53842","locality":"Troisdorf","municipality":{"key":"05382068","name":"Troisdorf, Stadt","type":"Stadt"},"district":{"key":"05382","name":"Rhein-Sieg-Kreis","type":"Kreis"},"federalState":{"key":"05","name":"Nordrhein-Westfalen"}},{"name":"Blumenhof","postalCode":"53840","locality":"Troisdorf","municipality":{"key":"05382068","name":"Troisdorf, Stadt","type":"Stadt"},"district":{"key":"05382","name":"Rhein-Sieg-Kreis","type":"Kreis"},"federalState":{"key":"05","name":"Nordrhein-Westfalen"}},{"name":"Bockshohner Hofweg","postalCode":"53842","locality":"Troisdorf","municipality":{"key":"05382068","name":"Troisdorf, Stadt","type":"Stadt"},"district":{"key":"05382","name":"Rhein-Sieg-Kreis","type":"Kreis"},"federalState":{"key":"05","name":"Nordrhein-Westfalen"}},{"name":"Bodelschwinghstr.","postalCode":"53840","locality":"Troisdorf","municipality":{"key":"05382068","name":"Troisdorf, Stadt","type":"Stadt"},"district":{"key":"05382","name":"Rhein-Sieg-Kreis","type":"Kreis"},"federalState":{"key":"05","name":"Nordrhein-Westfalen"}},{"name":"Bonhoefferstr.","postalCode":"53840","locality":"Troisdorf","municipality":{"key":"05382068","name":"Troisdorf, Stadt","type":"Stadt"},"district":{"key":"05382","name":"Rhein-Sieg-Kreis","type":"Kreis"},"federalState":{"key":"05","name":"Nordrhein-Westfalen"}},{"name":"Bonner Str.","postalCode":"53842","locality":"Troisdorf","municipality":{"key":"05382068","name":"Troisdorf, Stadt","type":"Stadt"},"district":{"key":"05382","name":"Rhein-Sieg-Kreis","type":"Kreis"},"federalState":{"key":"05","name":"Nordrhein-Westfalen"}},{"name":"Borsigstr.","postalCode":"53840","locality":"Troisdorf","municipality":{"key":"05382068","name":"Troisdorf, Stadt","type":"Stadt"},"district":{"key":"05382","name":"Rhein-Sieg-Kreis","type":"Kreis"},"federalState":{"key":"05","name":"Nordrhein-Westfalen"}},{"name":"Boschstr.","postalCode":"53842","locality":"Troisdorf","municipality":{"key":"05382068","name":"Troisdorf, Stadt","type":"Stadt"},"district":{"key":"05382","name":"Rhein-Sieg-Kreis","type":"Kreis"},"federalState":{"key":"05","name":"Nordrhein-Westfalen"}},{"name":"Brahmsstr.","postalCode":"53844","locality":"Troisdorf","municipality":{"key":"05382068","name":"Troisdorf, Stadt","type":"Stadt"},"district":{"key":"05382","name":"Rhein-Sieg-Kreis","type":"Kreis"},"federalState":{"key":"05","name":"Nordrhein-Westfalen"}},{"name":"Brandstr.","postalCode":"53842","locality":"Troisdorf","municipality":{"key":"05382068","name":"Troisdorf, Stadt","type":"Stadt"},"district":{"key":"05382","name":"Rhein-Sieg-Kreis","type":"Kreis"},"federalState":{"key":"05","name":"Nordrhein-Westfalen"}},{"name":"Braschosweg","postalCode":"53844","locality":"Troisdorf","municipality":{"key":"05382068","name":"Troisdorf, Stadt","type":"Stadt"},"district":{"key":"05382","name":"Rhein-Sieg-Kreis","type":"Kreis"},"federalState":{"key":"05","name":"Nordrhein-Westfalen"}},{"name":"Breitestr.","postalCode":"53844","locality":"Troisdorf","municipality":{"key":"05382068","name":"Troisdorf, Stadt","type":"Stadt"},"district":{"key":"05382","name":"Rhein-Sieg-Kreis","type":"Kreis"},"federalState":{"key":"05","name":"Nordrhein-Westfalen"}},{"name":"Bremer Str.","postalCode":"53844","locality":"Troisdorf","municipality":{"key":"05382068","name":"Troisdorf, Stadt","type":"Stadt"},"district":{"key":"05382","name":"Rhein-Sieg-Kreis","type":"Kreis"},"federalState":{"key":"05","name":"Nordrhein-Westfalen"}},{"name":"Breslauer Str.","postalCode":"53840","locality":"Troisdorf","municipality":{"key":"05382068","name":"Troisdorf, Stadt","type":"Stadt"},"district":{"key":"05382","name":"Rhein-Sieg-Kreis","type":"Kreis"},"federalState":{"key":"05","name":"Nordrhein-Westfalen"}},{"name":"Brückenstr.","postalCode":"53842","locality":"Troisdorf","municipality":{"key":"05382068","name":"Troisdorf, Stadt","type":"Stadt"},"district":{"key":"05382","name":"Rhein-Sieg-Kreis","type":"Kreis"},"federalState":{"key":"05","name":"Nordrhein-Westfalen"}},{"name":"Brucknerstr.","postalCode":"53844","locality":"Troisdorf","municipality":{"key":"05382068","name":"Troisdorf, Stadt","type":"Stadt"},"district":{"key":"05382","name":"Rhein-Sieg-Kreis","type":"Kreis"},"federalState":{"key":"05","name":"Nordrhein-Westfalen"}},{"name":"Bruderschaftsgasse","postalCode":"53844","locality":"Troisdorf","municipality":{"key":"05382068","name":"Troisdorf, Stadt","type":"Stadt"},"district":{"key":"05382","name":"Rhein-Sieg-Kreis","type":"Kreis"},"federalState":{"key":"05","name":"Nordrhein-Westfalen"}},{"name":"Brügger Str.","postalCode":"53842","locality":"Troisdorf","municipality":{"key":"05382068","name":"Troisdorf, Stadt","type":"Stadt"},"district":{"key":"05382","name":"Rhein-Sieg-Kreis","type":"Kreis"},"federalState":{"key":"05","name":"Nordrhein-Westfalen"}},{"name":"Brunnenkellerweg","postalCode":"53840","locality":"Troisdorf","municipality":{"key":"05382068","name":"Troisdorf, Stadt","type":"Stadt"},"district":{"key":"05382","name":"Rhein-Sieg-Kreis","type":"Kreis"},"federalState":{"key":"05","name":"Nordrhein-Westfalen"}},{"name":"Brunnenstr.","postalCode":"53840","locality":"Troisdorf","municipality":{"key":"05382068","name":"Troisdorf, Stadt","type":"Stadt"},"district":{"key":"05382","name":"Rhein-Sieg-Kreis","type":"Kreis"},"federalState":{"key":"05","name":"Nordrhein-Westfalen"}},{"name":"Brüsseler Str.","postalCode":"53842","locality":"Troisdorf","municipality":{"key":"05382068","name":"Troisdorf, Stadt","type":"Stadt"},"district":{"key":"05382","name":"Rhein-Sieg-Kreis","type":"Kreis"},"federalState":{"key":"05","name":"Nordrhein-Westfalen"}},{"name":"Buchenweg","postalCode":"53844","locality":"Troisdorf","municipality":{"key":"05382068","name":"Troisdorf, Stadt","type":"Stadt"},"district":{"key":"05382","name":"Rhein-Sieg-Kreis","type":"Kreis"},"federalState":{"key":"05","name":"Nordrhein-Westfalen"}},{"name":"Camp-Spich-Str.","postalCode":"53842","locality":"Troisdorf","municipality":{"key":"05382068","name":"Troisdorf, Stadt","type":"Stadt"},"district":{"key":"05382","name":"Rhein-Sieg-Kreis","type":"Kreis"},"federalState":{"key":"05","name":"Nordrhein-Westfalen"}},{"name":"Canisiusstr.","postalCode":"53840","locality":"Troisdorf","municipality":{"key":"05382068","name":"Troisdorf, Stadt","type":"Stadt"},"district":{"key":"05382","name":"Rhein-Sieg-Kreis","type":"Kreis"},"federalState":{"key":"05","name":"Nordrhein-Westfalen"}},{"name":"Carl-Diem-Str.","postalCode":"53840","locality":"Troisdorf","municipality":{"key":"05382068","name":"Troisdorf, Stadt","type":"Stadt"},"district":{"key":"05382","name":"Rhein-Sieg-Kreis","type":"Kreis"},"federalState":{"key":"05","name":"Nordrhein-Westfalen"}},{"name":"Cecilienstr.","postalCode":"53840","locality":"Troisdorf","municipality":{"key":"05382068","name":"Troisdorf, Stadt","type":"Stadt"},"district":{"key":"05382","name":"Rhein-Sieg-Kreis","type":"Kreis"},"federalState":{"key":"05","name":"Nordrhein-Westfalen"}},{"name":"Christian-Esch-Str.","postalCode":"53844","locality":"Troisdorf","municipality":{"key":"05382068","name":"Troisdorf, Stadt","type":"Stadt"},"district":{"key":"05382","name":"Rhein-Sieg-Kreis","type":"Kreis"},"federalState":{"key":"05","name":"Nordrhein-Westfalen"}},{"name":"Clara-Immerwahr-Str.","postalCode":"53840","locality":"Troisdorf","municipality":{"key":"05382068","name":"Troisdorf, Stadt","type":"Stadt"},"district":{"key":"05382","name":"Rhein-Sieg-Kreis","type":"Kreis"},"federalState":{"key":"05","name":"Nordrhein-Westfalen"}},{"name":"Clarenstr.","postalCode":"53844","locality":"Troisdorf","municipality":{"key":"05382068","name":"Troisdorf, Stadt","type":"Stadt"},"district":{"key":"05382","name":"Rhein-Sieg-Kreis","type":"Kreis"},"federalState":{"key":"05","name":"Nordrhein-Westfalen"}},{"name":"Cranachstr.","postalCode":"53844","locality":"Troisdorf","municipality":{"key":"05382068","name":"Troisdorf, Stadt","type":"Stadt"},"district":{"key":"05382","name":"Rhein-Sieg-Kreis","type":"Kreis"},"federalState":{"key":"05","name":"Nordrhein-Westfalen"}},{"name":"Dachsweg","postalCode":"53842","locality":"Troisdorf","municipality":{"key":"05382068","name":"Troisdorf, Stadt","type":"Stadt"},"district":{"key":"05382","name":"Rhein-Sieg-Kreis","type":"Kreis"},"federalState":{"key":"05","name":"Nordrhein-Westfalen"}},{"name":"Dahlienweg","postalCode":"53840","locality":"Troisdorf","municipality":{"key":"05382068","name":"Troisdorf, Stadt","type":"Stadt"},"district":{"key":"05382","name":"Rhein-Sieg-Kreis","type":"Kreis"},"federalState":{"key":"05","name":"Nordrhein-Westfalen"}},{"name":"Daimlerstr.","postalCode":"53840","locality":"Troisdorf","municipality":{"key":"05382068","name":"Troisdorf, Stadt","type":"Stadt"},"district":{"key":"05382","name":"Rhein-Sieg-Kreis","type":"Kreis"},"federalState":{"key":"05","name":"Nordrhein-Westfalen"}},{"name":"Danziger Str.","postalCode":"53840","locality":"Troisdorf","municipality":{"key":"05382068","name":"Troisdorf, Stadt","type":"Stadt"},"district":{"key":"05382","name":"Rhein-Sieg-Kreis","type":"Kreis"},"federalState":{"key":"05","name":"Nordrhein-Westfalen"}},{"name":"Dauner Str.","postalCode":"53842","locality":"Troisdorf","municipality":{"key":"05382068","name":"Troisdorf, Stadt","type":"Stadt"},"district":{"key":"05382","name":"Rhein-Sieg-Kreis","type":"Kreis"},"federalState":{"key":"05","name":"Nordrhein-Westfalen"}},{"name":"Dechant-Hoven-Str.","postalCode":"53844","locality":"Troisdorf","municipality":{"key":"05382068","name":"Troisdorf, Stadt","type":"Stadt"},"district":{"key":"05382","name":"Rhein-Sieg-Kreis","type":"Kreis"},"federalState":{"key":"05","name":"Nordrhein-Westfalen"}},{"name":"Dechant-Wirtz-Str.","postalCode":"53844","locality":"Troisdorf","municipality":{"key":"05382068","name":"Troisdorf, Stadt","type":"Stadt"},"district":{"key":"05382","name":"Rhein-Sieg-Kreis","type":"Kreis"},"federalState":{"key":"05","name":"Nordrhein-Westfalen"}},{"name":"Die große Heerstr.","postalCode":"53844","locality":"Troisdorf","municipality":{"key":"05382068","name":"Troisdorf, Stadt","type":"Stadt"},"district":{"key":"05382","name":"Rhein-Sieg-Kreis","type":"Kreis"},"federalState":{"key":"05","name":"Nordrhein-Westfalen"}},{"name":"Dieselstr.","postalCode":"53840","locality":"Troisdorf","municipality":{"key":"05382068","name":"Troisdorf, Stadt","type":"Stadt"},"district":{"key":"05382","name":"Rhein-Sieg-Kreis","type":"Kreis"},"federalState":{"key":"05","name":"Nordrhein-Westfalen"}},{"name":"Dohlenweg","postalCode":"53842","locality":"Troisdorf","municipality":{"key":"05382068","name":"Troisdorf, Stadt","type":"Stadt"},"district":{"key":"05382","name":"Rhein-Sieg-Kreis","type":"Kreis"},"federalState":{"key":"05","name":"Nordrhein-Westfalen"}},{"name":"Donatusstr.","postalCode":"53844","locality":"Troisdorf","municipality":{"key":"05382068","name":"Troisdorf, Stadt","type":"Stadt"},"district":{"key":"05382","name":"Rhein-Sieg-Kreis","type":"Kreis"},"federalState":{"key":"05","name":"Nordrhein-Westfalen"}},{"name":"Donawitzstr.","postalCode":"53840","locality":"Troisdorf","municipality":{"key":"05382068","name":"Troisdorf, Stadt","type":"Stadt"},"district":{"key":"05382","name":"Rhein-Sieg-Kreis","type":"Kreis"},"federalState":{"key":"05","name":"Nordrhein-Westfalen"}},{"name":"Don-Bosco-Str.","postalCode":"53844","locality":"Troisdorf","municipality":{"key":"05382068","name":"Troisdorf, Stadt","type":"Stadt"},"district":{"key":"05382","name":"Rhein-Sieg-Kreis","type":"Kreis"},"federalState":{"key":"05","name":"Nordrhein-Westfalen"}},{"name":"Dorfstr.","postalCode":"53844","locality":"Troisdorf","municipality":{"key":"05382068","name":"Troisdorf, Stadt","type":"Stadt"},"district":{"key":"05382","name":"Rhein-Sieg-Kreis","type":"Kreis"},"federalState":{"key":"05","name":"Nordrhein-Westfalen"}},{"name":"Dorotheenstr.","postalCode":"53844","locality":"Troisdorf","municipality":{"key":"05382068","name":"Troisdorf, Stadt","type":"Stadt"},"district":{"key":"05382","name":"Rhein-Sieg-Kreis","type":"Kreis"},"federalState":{"key":"05","name":"Nordrhein-Westfalen"}},{"name":"Drachenfelsstr.","postalCode":"53840","locality":"Troisdorf","municipality":{"key":"05382068","name":"Troisdorf, Stadt","type":"Stadt"},"district":{"key":"05382","name":"Rhein-Sieg-Kreis","type":"Kreis"},"federalState":{"key":"05","name":"Nordrhein-Westfalen"}},{"name":"Dr.Eckener-Str.","postalCode":"53842","locality":"Troisdorf","municipality":{"key":"05382068","name":"Troisdorf, Stadt","type":"Stadt"},"district":{"key":"05382","name":"Rhein-Sieg-Kreis","type":"Kreis"},"federalState":{"key":"05","name":"Nordrhein-Westfalen"}},{"name":"Drosselweg","postalCode":"53844","locality":"Troisdorf","municipality":{"key":"05382068","name":"Troisdorf, Stadt","type":"Stadt"},"district":{"key":"05382","name":"Rhein-Sieg-Kreis","type":"Kreis"},"federalState":{"key":"05","name":"Nordrhein-Westfalen"}},{"name":"Dr. Schmitz-Str.","postalCode":"53844","locality":"Troisdorf","municipality":{"key":"05382068","name":"Troisdorf, Stadt","type":"Stadt"},"district":{"key":"05382","name":"Rhein-Sieg-Kreis","type":"Kreis"},"federalState":{"key":"05","name":"Nordrhein-Westfalen"}},{"name":"Ebereschenweg","postalCode":"53842","locality":"Troisdorf","municipality":{"key":"05382068","name":"Troisdorf, Stadt","type":"Stadt"},"district":{"key":"05382","name":"Rhein-Sieg-Kreis","type":"Kreis"},"federalState":{"key":"05","name":"Nordrhein-Westfalen"}},{"name":"Echternacher Str.","postalCode":"53842","locality":"Troisdorf","municipality":{"key":"05382068","name":"Troisdorf, Stadt","type":"Stadt"},"district":{"key":"05382","name":"Rhein-Sieg-Kreis","type":"Kreis"},"federalState":{"key":"05","name":"Nordrhein-Westfalen"}},{"name":"Edisonplatz","postalCode":"53840","locality":"Troisdorf","municipality":{"key":"05382068","name":"Troisdorf, Stadt","type":"Stadt"},"district":{"key":"05382","name":"Rhein-Sieg-Kreis","type":"Kreis"},"federalState":{"key":"05","name":"Nordrhein-Westfalen"}},{"name":"Edith-Stein-Str.","postalCode":"53844","locality":"Troisdorf","municipality":{"key":"05382068","name":"Troisdorf, Stadt","type":"Stadt"},"district":{"key":"05382","name":"Rhein-Sieg-Kreis","type":"Kreis"},"federalState":{"key":"05","name":"Nordrhein-Westfalen"}},{"name":"Eibenweg","postalCode":"53842","locality":"Troisdorf","municipality":{"key":"05382068","name":"Troisdorf, Stadt","type":"Stadt"},"district":{"key":"05382","name":"Rhein-Sieg-Kreis","type":"Kreis"},"federalState":{"key":"05","name":"Nordrhein-Westfalen"}},{"name":"Eichelchesweg","postalCode":"53844","locality":"Troisdorf","municipality":{"key":"05382068","name":"Troisdorf, Stadt","type":"Stadt"},"district":{"key":"05382","name":"Rhein-Sieg-Kreis","type":"Kreis"},"federalState":{"key":"05","name":"Nordrhein-Westfalen"}},{"name":"Eichelhäherweg","postalCode":"53842","locality":"Troisdorf","municipality":{"key":"05382068","name":"Troisdorf, Stadt","type":"Stadt"},"district":{"key":"05382","name":"Rhein-Sieg-Kreis","type":"Kreis"},"federalState":{"key":"05","name":"Nordrhein-Westfalen"}},{"name":"Eichendorffstr.","postalCode":"53844","locality":"Troisdorf","municipality":{"key":"05382068","name":"Troisdorf, Stadt","type":"Stadt"},"district":{"key":"05382","name":"Rhein-Sieg-Kreis","type":"Kreis"},"federalState":{"key":"05","name":"Nordrhein-Westfalen"}},{"name":"Eichenweg","postalCode":"53842","locality":"Troisdorf","municipality":{"key":"05382068","name":"Troisdorf, Stadt","type":"Stadt"},"district":{"key":"05382","name":"Rhein-Sieg-Kreis","type":"Kreis"},"federalState":{"key":"05","name":"Nordrhein-Westfalen"}},{"name":"Eifelstr.","postalCode":"53842","locality":"Troisdorf","municipality":{"key":"05382068","name":"Troisdorf, Stadt","type":"Stadt"},"district":{"key":"05382","name":"Rhein-Sieg-Kreis","type":"Kreis"},"federalState":{"key":"05","name":"Nordrhein-Westfalen"}},{"name":"Eintrachtstr.","postalCode":"53844","locality":"Troisdorf","municipality":{"key":"05382068","name":"Troisdorf, Stadt","type":"Stadt"},"district":{"key":"05382","name":"Rhein-Sieg-Kreis","type":"Kreis"},"federalState":{"key":"05","name":"Nordrhein-Westfalen"}},{"name":"Eisenweg","postalCode":"53842","locality":"Troisdorf","municipality":{"key":"05382068","name":"Troisdorf, Stadt","type":"Stadt"},"district":{"key":"05382","name":"Rhein-Sieg-Kreis","type":"Kreis"},"federalState":{"key":"05","name":"Nordrhein-Westfalen"}},{"name":"Elbinger Str.","postalCode":"53842","locality":"Troisdorf","municipality":{"key":"05382068","name":"Troisdorf, Stadt","type":"Stadt"},"district":{"key":"05382","name":"Rhein-Sieg-Kreis","type":"Kreis"},"federalState":{"key":"05","name":"Nordrhein-Westfalen"}},{"name":"Elisabeth-Selbert-Str.","postalCode":"53844","locality":"Troisdorf","municipality":{"key":"05382068","name":"Troisdorf, Stadt","type":"Stadt"},"district":{"key":"05382","name":"Rhein-Sieg-Kreis","type":"Kreis"},"federalState":{"key":"05","name":"Nordrhein-Westfalen"}},{"name":"Elly-Heuss-Knapp-Platz","postalCode":"53844","locality":"Troisdorf","municipality":{"key":"05382068","name":"Troisdorf, Stadt","type":"Stadt"},"district":{"key":"05382","name":"Rhein-Sieg-Kreis","type":"Kreis"},"federalState":{"key":"05","name":"Nordrhein-Westfalen"}},{"name":"Elsa-Brandström-Str.","postalCode":"53844","locality":"Troisdorf","municipality":{"key":"05382068","name":"Troisdorf, Stadt","type":"Stadt"},"district":{"key":"05382","name":"Rhein-Sieg-Kreis","type":"Kreis"},"federalState":{"key":"05","name":"Nordrhein-Westfalen"}},{"name":"Elsternweg","postalCode":"53844","locality":"Troisdorf","municipality":{"key":"05382068","name":"Troisdorf, Stadt","type":"Stadt"},"district":{"key":"05382","name":"Rhein-Sieg-Kreis","type":"Kreis"},"federalState":{"key":"05","name":"Nordrhein-Westfalen"}},{"name":"Emil-Müller-Str.","postalCode":"53840","locality":"Troisdorf","municipality":{"key":"05382068","name":"Troisdorf, Stadt","type":"Stadt"},"district":{"key":"05382","name":"Rhein-Sieg-Kreis","type":"Kreis"},"federalState":{"key":"05","name":"Nordrhein-Westfalen"}},{"name":"Eremitenstr.","postalCode":"53844","locality":"Troisdorf","municipality":{"key":"05382068","name":"Troisdorf, Stadt","type":"Stadt"},"district":{"key":"05382","name":"Rhein-Sieg-Kreis","type":"Kreis"},"federalState":{"key":"05","name":"Nordrhein-Westfalen"}},{"name":"Erich-Gärtner-Weg","postalCode":"53842","locality":"Troisdorf","municipality":{"key":"05382068","name":"Troisdorf, Stadt","type":"Stadt"},"district":{"key":"05382","name":"Rhein-Sieg-Kreis","type":"Kreis"},"federalState":{"key":"05","name":"Nordrhein-Westfalen"}},{"name":"Erlenweg","postalCode":"53842","locality":"Troisdorf","municipality":{"key":"05382068","name":"Troisdorf, Stadt","type":"Stadt"},"district":{"key":"05382","name":"Rhein-Sieg-Kreis","type":"Kreis"},"federalState":{"key":"05","name":"Nordrhein-Westfalen"}},{"name":"Erzbergerstr.","postalCode":"53842","locality":"Troisdorf","municipality":{"key":"05382068","name":"Troisdorf, Stadt","type":"Stadt"},"district":{"key":"05382","name":"Rhein-Sieg-Kreis","type":"Kreis"},"federalState":{"key":"05","name":"Nordrhein-Westfalen"}},{"name":"Eschmarer Mühle","postalCode":"53844","locality":"Troisdorf","municipality":{"key":"05382068","name":"Troisdorf, Stadt","type":"Stadt"},"district":{"key":"05382","name":"Rhein-Sieg-Kreis","type":"Kreis"},"federalState":{"key":"05","name":"Nordrhein-Westfalen"}},{"name":"Eschmarer Str.","postalCode":"53844","locality":"Troisdorf","municipality":{"key":"05382068","name":"Troisdorf, Stadt","type":"Stadt"},"district":{"key":"05382","name":"Rhein-Sieg-Kreis","type":"Kreis"},"federalState":{"key":"05","name":"Nordrhein-Westfalen"}},{"name":"Essener Str.","postalCode":"53844","locality":"Troisdorf","municipality":{"key":"05382068","name":"Troisdorf, Stadt","type":"Stadt"},"district":{"key":"05382","name":"Rhein-Sieg-Kreis","type":"Kreis"},"federalState":{"key":"05","name":"Nordrhein-Westfalen"}},{"name":"Eulenweg","postalCode":"53842","locality":"Troisdorf","municipality":{"key":"05382068","name":"Troisdorf, Stadt","type":"Stadt"},"district":{"key":"05382","name":"Rhein-Sieg-Kreis","type":"Kreis"},"federalState":{"key":"05","name":"Nordrhein-Westfalen"}},{"name":"Evrystr.","postalCode":"53844","locality":"Troisdorf","municipality":{"key":"05382068","name":"Troisdorf, Stadt","type":"Stadt"},"district":{"key":"05382","name":"Rhein-Sieg-Kreis","type":"Kreis"},"federalState":{"key":"05","name":"Nordrhein-Westfalen"}},{"name":"Falkenhofweg","postalCode":"53844","locality":"Troisdorf","municipality":{"key":"05382068","name":"Troisdorf, Stadt","type":"Stadt"},"district":{"key":"05382","name":"Rhein-Sieg-Kreis","type":"Kreis"},"federalState":{"key":"05","name":"Nordrhein-Westfalen"}},{"name":"Falkenweg","postalCode":"53844","locality":"Troisdorf","municipality":{"key":"05382068","name":"Troisdorf, Stadt","type":"Stadt"},"district":{"key":"05382","name":"Rhein-Sieg-Kreis","type":"Kreis"},"federalState":{"key":"05","name":"Nordrhein-Westfalen"}},{"name":"Farnweg","postalCode":"53842","locality":"Troisdorf","municipality":{"key":"05382068","name":"Troisdorf, Stadt","type":"Stadt"},"district":{"key":"05382","name":"Rhein-Sieg-Kreis","type":"Kreis"},"federalState":{"key":"05","name":"Nordrhein-Westfalen"}},{"name":"Fasanenweg","postalCode":"53842","locality":"Troisdorf","municipality":{"key":"05382068","name":"Troisdorf, Stadt","type":"Stadt"},"district":{"key":"05382","name":"Rhein-Sieg-Kreis","type":"Kreis"},"federalState":{"key":"05","name":"Nordrhein-Westfalen"}},{"name":"Fehmarnweg","postalCode":"53844","locality":"Troisdorf","municipality":{"key":"05382068","name":"Troisdorf, Stadt","type":"Stadt"},"district":{"key":"05382","name":"Rhein-Sieg-Kreis","type":"Kreis"},"federalState":{"key":"05","name":"Nordrhein-Westfalen"}},{"name":"Feldbahndamm","postalCode":"53842","locality":"Troisdorf","municipality":{"key":"05382068","name":"Troisdorf, Stadt","type":"Stadt"},"district":{"key":"05382","name":"Rhein-Sieg-Kreis","type":"Kreis"},"federalState":{"key":"05","name":"Nordrhein-Westfalen"}},{"name":"Festplatz Stadthalle","postalCode":"53840","locality":"Troisdorf","municipality":{"key":"05382068","name":"Troisdorf, Stadt","type":"Stadt"},"district":{"key":"05382","name":"Rhein-Sieg-Kreis","type":"Kreis"},"federalState":{"key":"05","name":"Nordrhein-Westfalen"}},{"name":"Fichtenweg","postalCode":"53842","locality":"Troisdorf","municipality":{"key":"05382068","name":"Troisdorf, Stadt","type":"Stadt"},"district":{"key":"05382","name":"Rhein-Sieg-Kreis","type":"Kreis"},"federalState":{"key":"05","name":"Nordrhein-Westfalen"}},{"name":"Finkenweg","postalCode":"53842","locality":"Troisdorf","municipality":{"key":"05382068","name":"Troisdorf, Stadt","type":"Stadt"},"district":{"key":"05382","name":"Rhein-Sieg-Kreis","type":"Kreis"},"federalState":{"key":"05","name":"Nordrhein-Westfalen"}},{"name":"Flachtenstr.","postalCode":"53844","locality":"Troisdorf","municipality":{"key":"05382068","name":"Troisdorf, Stadt","type":"Stadt"},"district":{"key":"05382","name":"Rhein-Sieg-Kreis","type":"Kreis"},"federalState":{"key":"05","name":"Nordrhein-Westfalen"}},{"name":"Flandrische Str.","postalCode":"53840","locality":"Troisdorf","municipality":{"key":"05382068","name":"Troisdorf, Stadt","type":"Stadt"},"district":{"key":"05382","name":"Rhein-Sieg-Kreis","type":"Kreis"},"federalState":{"key":"05","name":"Nordrhein-Westfalen"}},{"name":"Fliegenbergstr.","postalCode":"53840","locality":"Troisdorf","municipality":{"key":"05382068","name":"Troisdorf, Stadt","type":"Stadt"},"district":{"key":"05382","name":"Rhein-Sieg-Kreis","type":"Kreis"},"federalState":{"key":"05","name":"Nordrhein-Westfalen"}},{"name":"Fliersbachstr.","postalCode":"53842","locality":"Troisdorf","municipality":{"key":"05382068","name":"Troisdorf, Stadt","type":"Stadt"},"district":{"key":"05382","name":"Rhein-Sieg-Kreis","type":"Kreis"},"federalState":{"key":"05","name":"Nordrhein-Westfalen"}},{"name":"Flintweg","postalCode":"53842","locality":"Troisdorf","municipality":{"key":"05382068","name":"Troisdorf, Stadt","type":"Stadt"},"district":{"key":"05382","name":"Rhein-Sieg-Kreis","type":"Kreis"},"federalState":{"key":"05","name":"Nordrhein-Westfalen"}},{"name":"Floraplatz","postalCode":"53840","locality":"Troisdorf","municipality":{"key":"05382068","name":"Troisdorf, Stadt","type":"Stadt"},"district":{"key":"05382","name":"Rhein-Sieg-Kreis","type":"Kreis"},"federalState":{"key":"05","name":"Nordrhein-Westfalen"}},{"name":"Florianstr.","postalCode":"53844","locality":"Troisdorf","municipality":{"key":"05382068","name":"Troisdorf, Stadt","type":"Stadt"},"district":{"key":"05382","name":"Rhein-Sieg-Kreis","type":"Kreis"},"federalState":{"key":"05","name":"Nordrhein-Westfalen"}},{"name":"Flotowstr.","postalCode":"53844","locality":"Troisdorf","municipality":{"key":"05382068","name":"Troisdorf, Stadt","type":"Stadt"},"district":{"key":"05382","name":"Rhein-Sieg-Kreis","type":"Kreis"},"federalState":{"key":"05","name":"Nordrhein-Westfalen"}},{"name":"Flughafenstr.","postalCode":"53842","locality":"Troisdorf","municipality":{"key":"05382068","name":"Troisdorf, Stadt","type":"Stadt"},"district":{"key":"05382","name":"Rhein-Sieg-Kreis","type":"Kreis"},"federalState":{"key":"05","name":"Nordrhein-Westfalen"}},{"name":"Frankenstr.","postalCode":"53844","locality":"Troisdorf","municipality":{"key":"05382068","name":"Troisdorf, Stadt","type":"Stadt"},"district":{"key":"05382","name":"Rhein-Sieg-Kreis","type":"Kreis"},"federalState":{"key":"05","name":"Nordrhein-Westfalen"}},{"name":"Frankfurter Str.","postalCode":"53840","locality":"Troisdorf","municipality":{"key":"05382068","name":"Troisdorf, Stadt","type":"Stadt"},"district":{"key":"05382","name":"Rhein-Sieg-Kreis","type":"Kreis"},"federalState":{"key":"05","name":"Nordrhein-Westfalen"}},{"name":"Franz-Bergen-Str.","postalCode":"53842","locality":"Troisdorf","municipality":{"key":"05382068","name":"Troisdorf, Stadt","type":"Stadt"},"district":{"key":"05382","name":"Rhein-Sieg-Kreis","type":"Kreis"},"federalState":{"key":"05","name":"Nordrhein-Westfalen"}},{"name":"Franziskastr.","postalCode":"53842","locality":"Troisdorf","municipality":{"key":"05382068","name":"Troisdorf, Stadt","type":"Stadt"},"district":{"key":"05382","name":"Rhein-Sieg-Kreis","type":"Kreis"},"federalState":{"key":"05","name":"Nordrhein-Westfalen"}},{"name":"Franz-von-Assisi-Str.","postalCode":"53844","locality":"Troisdorf","municipality":{"key":"05382068","name":"Troisdorf, Stadt","type":"Stadt"},"district":{"key":"05382","name":"Rhein-Sieg-Kreis","type":"Kreis"},"federalState":{"key":"05","name":"Nordrhein-Westfalen"}},{"name":"Freiburger Weg","postalCode":"53844","locality":"Troisdorf","municipality":{"key":"05382068","name":"Troisdorf, Stadt","type":"Stadt"},"district":{"key":"05382","name":"Rhein-Sieg-Kreis","type":"Kreis"},"federalState":{"key":"05","name":"Nordrhein-Westfalen"}},{"name":"Freiheitsstr.","postalCode":"53842","locality":"Troisdorf","municipality":{"key":"05382068","name":"Troisdorf, Stadt","type":"Stadt"},"district":{"key":"05382","name":"Rhein-Sieg-Kreis","type":"Kreis"},"federalState":{"key":"05","name":"Nordrhein-Westfalen"}},{"name":"Freizeitanlage \"Haus Rott\"","postalCode":"53844","locality":"Troisdorf","municipality":{"key":"05382068","name":"Troisdorf, Stadt","type":"Stadt"},"district":{"key":"05382","name":"Rhein-Sieg-Kreis","type":"Kreis"},"federalState":{"key":"05","name":"Nordrhein-Westfalen"}},{"name":"Friedensstr.","postalCode":"53840","locality":"Troisdorf","municipality":{"key":"05382068","name":"Troisdorf, Stadt","type":"Stadt"},"district":{"key":"05382","name":"Rhein-Sieg-Kreis","type":"Kreis"},"federalState":{"key":"05","name":"Nordrhein-Westfalen"}},{"name":"Friederike-Nadig-Str.","postalCode":"53840","locality":"Troisdorf","municipality":{"key":"05382068","name":"Troisdorf, Stadt","type":"Stadt"},"district":{"key":"05382","name":"Rhein-Sieg-Kreis","type":"Kreis"},"federalState":{"key":"05","name":"Nordrhein-Westfalen"}},{"name":"Friedhofstr.","postalCode":"53844","locality":"Troisdorf","municipality":{"key":"05382068","name":"Troisdorf, Stadt","type":"Stadt"},"district":{"key":"05382","name":"Rhein-Sieg-Kreis","type":"Kreis"},"federalState":{"key":"05","name":"Nordrhein-Westfalen"}},{"name":"Friedlandstr.","postalCode":"53844","locality":"Troisdorf","municipality":{"key":"05382068","name":"Troisdorf, Stadt","type":"Stadt"},"district":{"key":"05382","name":"Rhein-Sieg-Kreis","type":"Kreis"},"federalState":{"key":"05","name":"Nordrhein-Westfalen"}},{"name":"Friedrich-Ebert-Str.","postalCode":"53840","locality":"Troisdorf","municipality":{"key":"05382068","name":"Troisdorf, Stadt","type":"Stadt"},"district":{"key":"05382","name":"Rhein-Sieg-Kreis","type":"Kreis"},"federalState":{"key":"05","name":"Nordrhein-Westfalen"}},{"name":"Friedrichstr.","postalCode":"53842","locality":"Troisdorf","municipality":{"key":"05382068","name":"Troisdorf, Stadt","type":"Stadt"},"district":{"key":"05382","name":"Rhein-Sieg-Kreis","type":"Kreis"},"federalState":{"key":"05","name":"Nordrhein-Westfalen"}},{"name":"Friesenstr.","postalCode":"53840","locality":"Troisdorf","municipality":{"key":"05382068","name":"Troisdorf, Stadt","type":"Stadt"},"district":{"key":"05382","name":"Rhein-Sieg-Kreis","type":"Kreis"},"federalState":{"key":"05","name":"Nordrhein-Westfalen"}},{"name":"Frieslandring","postalCode":"53844","locality":"Troisdorf","municipality":{"key":"05382068","name":"Troisdorf, Stadt","type":"Stadt"},"district":{"key":"05382","name":"Rhein-Sieg-Kreis","type":"Kreis"},"federalState":{"key":"05","name":"Nordrhein-Westfalen"}},{"name":"Fritz-Erler-Str.","postalCode":"53840","locality":"Troisdorf","municipality":{"key":"05382068","name":"Troisdorf, Stadt","type":"Stadt"},"district":{"key":"05382","name":"Rhein-Sieg-Kreis","type":"Kreis"},"federalState":{"key":"05","name":"Nordrhein-Westfalen"}},{"name":"Fröbelstr.","postalCode":"53842","locality":"Troisdorf","municipality":{"key":"05382068","name":"Troisdorf, Stadt","type":"Stadt"},"district":{"key":"05382","name":"Rhein-Sieg-Kreis","type":"Kreis"},"federalState":{"key":"05","name":"Nordrhein-Westfalen"}},{"name":"Fronstr.","postalCode":"53844","locality":"Troisdorf","municipality":{"key":"05382068","name":"Troisdorf, Stadt","type":"Stadt"},"district":{"key":"05382","name":"Rhein-Sieg-Kreis","type":"Kreis"},"federalState":{"key":"05","name":"Nordrhein-Westfalen"}},{"name":"Frühlingstr.","postalCode":"53844","locality":"Troisdorf","municipality":{"key":"05382068","name":"Troisdorf, Stadt","type":"Stadt"},"district":{"key":"05382","name":"Rhein-Sieg-Kreis","type":"Kreis"},"federalState":{"key":"05","name":"Nordrhein-Westfalen"}},{"name":"Furtwänglerstr.","postalCode":"53842","locality":"Troisdorf","municipality":{"key":"05382068","name":"Troisdorf, Stadt","type":"Stadt"},"district":{"key":"05382","name":"Rhein-Sieg-Kreis","type":"Kreis"},"federalState":{"key":"05","name":"Nordrhein-Westfalen"}},{"name":"Gartenstr.","postalCode":"53842","locality":"Troisdorf","municipality":{"key":"05382068","name":"Troisdorf, Stadt","type":"Stadt"},"district":{"key":"05382","name":"Rhein-Sieg-Kreis","type":"Kreis"},"federalState":{"key":"05","name":"Nordrhein-Westfalen"}},{"name":"Gebrüder-Reifenhäuser-Platz","postalCode":"53844","locality":"Troisdorf","municipality":{"key":"05382068","name":"Troisdorf, Stadt","type":"Stadt"},"district":{"key":"05382","name":"Rhein-Sieg-Kreis","type":"Kreis"},"federalState":{"key":"05","name":"Nordrhein-Westfalen"}},{"name":"Genker Str.","postalCode":"53842","locality":"Troisdorf","municipality":{"key":"05382068","name":"Troisdorf, Stadt","type":"Stadt"},"district":{"key":"05382","name":"Rhein-Sieg-Kreis","type":"Kreis"},"federalState":{"key":"05","name":"Nordrhein-Westfalen"}},{"name":"Gerhardstr.","postalCode":"53840","locality":"Troisdorf","municipality":{"key":"05382068","name":"Troisdorf, Stadt","type":"Stadt"},"district":{"key":"05382","name":"Rhein-Sieg-Kreis","type":"Kreis"},"federalState":{"key":"05","name":"Nordrhein-Westfalen"}},{"name":"Germanenstr.","postalCode":"53844","locality":"Troisdorf","municipality":{"key":"05382068","name":"Troisdorf, Stadt","type":"Stadt"},"district":{"key":"05382","name":"Rhein-Sieg-Kreis","type":"Kreis"},"federalState":{"key":"05","name":"Nordrhein-Westfalen"}},{"name":"Gersbeckstr.","postalCode":"53840","locality":"Troisdorf","municipality":{"key":"05382068","name":"Troisdorf, Stadt","type":"Stadt"},"district":{"key":"05382","name":"Rhein-Sieg-Kreis","type":"Kreis"},"federalState":{"key":"05","name":"Nordrhein-Westfalen"}},{"name":"Gertrud-Bäumer-Str.","postalCode":"53844","locality":"Troisdorf","municipality":{"key":"05382068","name":"Troisdorf, Stadt","type":"Stadt"},"district":{"key":"05382","name":"Rhein-Sieg-Kreis","type":"Kreis"},"federalState":{"key":"05","name":"Nordrhein-Westfalen"}},{"name":"Gertrudenweg","postalCode":"53842","locality":"Troisdorf","municipality":{"key":"05382068","name":"Troisdorf, Stadt","type":"Stadt"},"district":{"key":"05382","name":"Rhein-Sieg-Kreis","type":"Kreis"},"federalState":{"key":"05","name":"Nordrhein-Westfalen"}},{"name":"Geschwister-Scholl-Str.","postalCode":"53840","locality":"Troisdorf","municipality":{"key":"05382068","name":"Troisdorf, Stadt","type":"Stadt"},"district":{"key":"05382","name":"Rhein-Sieg-Kreis","type":"Kreis"},"federalState":{"key":"05","name":"Nordrhein-Westfalen"}},{"name":"Gewürzgarten","postalCode":"53844","locality":"Troisdorf","municipality":{"key":"05382068","name":"Troisdorf, Stadt","type":"Stadt"},"district":{"key":"05382","name":"Rhein-Sieg-Kreis","type":"Kreis"},"federalState":{"key":"05","name":"Nordrhein-Westfalen"}},{"name":"Gierlichsstr.","postalCode":"53840","locality":"Troisdorf","municipality":{"key":"05382068","name":"Troisdorf, Stadt","type":"Stadt"},"district":{"key":"05382","name":"Rhein-Sieg-Kreis","type":"Kreis"},"federalState":{"key":"05","name":"Nordrhein-Westfalen"}},{"name":"Gilchriststr.","postalCode":"53840","locality":"Troisdorf","municipality":{"key":"05382068","name":"Troisdorf, Stadt","type":"Stadt"},"district":{"key":"05382","name":"Rhein-Sieg-Kreis","type":"Kreis"},"federalState":{"key":"05","name":"Nordrhein-Westfalen"}},{"name":"Gilmerich","postalCode":"53844","locality":"Troisdorf","municipality":{"key":"05382068","name":"Troisdorf, Stadt","type":"Stadt"},"district":{"key":"05382","name":"Rhein-Sieg-Kreis","type":"Kreis"},"federalState":{"key":"05","name":"Nordrhein-Westfalen"}},{"name":"Ginsterweg","postalCode":"53842","locality":"Troisdorf","municipality":{"key":"05382068","name":"Troisdorf, Stadt","type":"Stadt"},"district":{"key":"05382","name":"Rhein-Sieg-Kreis","type":"Kreis"},"federalState":{"key":"05","name":"Nordrhein-Westfalen"}},{"name":"Gladiolenstr.","postalCode":"53840","locality":"Troisdorf","municipality":{"key":"05382068","name":"Troisdorf, Stadt","type":"Stadt"},"district":{"key":"05382","name":"Rhein-Sieg-Kreis","type":"Kreis"},"federalState":{"key":"05","name":"Nordrhein-Westfalen"}},{"name":"Glockenheide","postalCode":"53842","locality":"Troisdorf","municipality":{"key":"05382068","name":"Troisdorf, Stadt","type":"Stadt"},"district":{"key":"05382","name":"Rhein-Sieg-Kreis","type":"Kreis"},"federalState":{"key":"05","name":"Nordrhein-Westfalen"}},{"name":"Glockenstr.","postalCode":"53844","locality":"Troisdorf","municipality":{"key":"05382068","name":"Troisdorf, Stadt","type":"Stadt"},"district":{"key":"05382","name":"Rhein-Sieg-Kreis","type":"Kreis"},"federalState":{"key":"05","name":"Nordrhein-Westfalen"}},{"name":"Gneisenaustr.","postalCode":"53842","locality":"Troisdorf","municipality":{"key":"05382068","name":"Troisdorf, Stadt","type":"Stadt"},"district":{"key":"05382","name":"Rhein-Sieg-Kreis","type":"Kreis"},"federalState":{"key":"05","name":"Nordrhein-Westfalen"}},{"name":"Goerdelerstr.","postalCode":"53842","locality":"Troisdorf","municipality":{"key":"05382068","name":"Troisdorf, Stadt","type":"Stadt"},"district":{"key":"05382","name":"Rhein-Sieg-Kreis","type":"Kreis"},"federalState":{"key":"05","name":"Nordrhein-Westfalen"}},{"name":"Goethestr.","postalCode":"53844","locality":"Troisdorf","municipality":{"key":"05382068","name":"Troisdorf, Stadt","type":"Stadt"},"district":{"key":"05382","name":"Rhein-Sieg-Kreis","type":"Kreis"},"federalState":{"key":"05","name":"Nordrhein-Westfalen"}},{"name":"Görresplatz","postalCode":"53840","locality":"Troisdorf","municipality":{"key":"05382068","name":"Troisdorf, Stadt","type":"Stadt"},"district":{"key":"05382","name":"Rhein-Sieg-Kreis","type":"Kreis"},"federalState":{"key":"05","name":"Nordrhein-Westfalen"}},{"name":"Gotenstr.","postalCode":"53844","locality":"Troisdorf","municipality":{"key":"05382068","name":"Troisdorf, Stadt","type":"Stadt"},"district":{"key":"05382","name":"Rhein-Sieg-Kreis","type":"Kreis"},"federalState":{"key":"05","name":"Nordrhein-Westfalen"}},{"name":"Grabenstr.","postalCode":"53844","locality":"Troisdorf","municipality":{"key":"05382068","name":"Troisdorf, Stadt","type":"Stadt"},"district":{"key":"05382","name":"Rhein-Sieg-Kreis","type":"Kreis"},"federalState":{"key":"05","name":"Nordrhein-Westfalen"}},{"name":"Gräfenhardt","postalCode":"53842","locality":"Troisdorf","municipality":{"key":"05382068","name":"Troisdorf, Stadt","type":"Stadt"},"district":{"key":"05382","name":"Rhein-Sieg-Kreis","type":"Kreis"},"federalState":{"key":"05","name":"Nordrhein-Westfalen"}},{"name":"Graf-Galen-Str.","postalCode":"53844","locality":"Troisdorf","municipality":{"key":"05382068","name":"Troisdorf, Stadt","type":"Stadt"},"district":{"key":"05382","name":"Rhein-Sieg-Kreis","type":"Kreis"},"federalState":{"key":"05","name":"Nordrhein-Westfalen"}},{"name":"Gronaustr.","postalCode":"53844","locality":"Troisdorf","municipality":{"key":"05382068","name":"Troisdorf, Stadt","type":"Stadt"},"district":{"key":"05382","name":"Rhein-Sieg-Kreis","type":"Kreis"},"federalState":{"key":"05","name":"Nordrhein-Westfalen"}},{"name":"Gronewaldstr.","postalCode":"53844","locality":"Troisdorf","municipality":{"key":"05382068","name":"Troisdorf, Stadt","type":"Stadt"},"district":{"key":"05382","name":"Rhein-Sieg-Kreis","type":"Kreis"},"federalState":{"key":"05","name":"Nordrhein-Westfalen"}},{"name":"Großstr.","postalCode":"53842","locality":"Troisdorf","municipality":{"key":"05382068","name":"Troisdorf, Stadt","type":"Stadt"},"district":{"key":"05382","name":"Rhein-Sieg-Kreis","type":"Kreis"},"federalState":{"key":"05","name":"Nordrhein-Westfalen"}},{"name":"Grüner Weg","postalCode":"53842","locality":"Troisdorf","municipality":{"key":"05382068","name":"Troisdorf, Stadt","type":"Stadt"},"district":{"key":"05382","name":"Rhein-Sieg-Kreis","type":"Kreis"},"federalState":{"key":"05","name":"Nordrhein-Westfalen"}},{"name":"Güldenbergstr.","postalCode":"53840","locality":"Troisdorf","municipality":{"key":"05382068","name":"Troisdorf, Stadt","type":"Stadt"},"district":{"key":"05382","name":"Rhein-Sieg-Kreis","type":"Kreis"},"federalState":{"key":"05","name":"Nordrhein-Westfalen"}},{"name":"Haberstr.","postalCode":"53842","locality":"Troisdorf","municipality":{"key":"05382068","name":"Troisdorf, Stadt","type":"Stadt"},"district":{"key":"05382","name":"Rhein-Sieg-Kreis","type":"Kreis"},"federalState":{"key":"05","name":"Nordrhein-Westfalen"}},{"name":"Händelstr.","postalCode":"53844","locality":"Troisdorf","municipality":{"key":"05382068","name":"Troisdorf, Stadt","type":"Stadt"},"district":{"key":"05382","name":"Rhein-Sieg-Kreis","type":"Kreis"},"federalState":{"key":"05","name":"Nordrhein-Westfalen"}},{"name":"Hannoversche Str.","postalCode":"53844","locality":"Troisdorf","municipality":{"key":"05382068","name":"Troisdorf, Stadt","type":"Stadt"},"district":{"key":"05382","name":"Rhein-Sieg-Kreis","type":"Kreis"},"federalState":{"key":"05","name":"Nordrhein-Westfalen"}},{"name":"Hans-Böckler-Str.","postalCode":"53842","locality":"Troisdorf","municipality":{"key":"05382068","name":"Troisdorf, Stadt","type":"Stadt"},"district":{"key":"05382","name":"Rhein-Sieg-Kreis","type":"Kreis"},"federalState":{"key":"05","name":"Nordrhein-Westfalen"}},{"name":"Hans-Sachs-Str.","postalCode":"53842","locality":"Troisdorf","municipality":{"key":"05382068","name":"Troisdorf, Stadt","type":"Stadt"},"district":{"key":"05382","name":"Rhein-Sieg-Kreis","type":"Kreis"},"federalState":{"key":"05","name":"Nordrhein-Westfalen"}},{"name":"Hans-Völlmecke-Str.","postalCode":"53842","locality":"Troisdorf","municipality":{"key":"05382068","name":"Troisdorf, Stadt","type":"Stadt"},"district":{"key":"05382","name":"Rhein-Sieg-Kreis","type":"Kreis"},"federalState":{"key":"05","name":"Nordrhein-Westfalen"}},{"name":"Hans-Willy-Mertens-Str.","postalCode":"53842","locality":"Troisdorf","municipality":{"key":"05382068","name":"Troisdorf, Stadt","type":"Stadt"},"district":{"key":"05382","name":"Rhein-Sieg-Kreis","type":"Kreis"},"federalState":{"key":"05","name":"Nordrhein-Westfalen"}},{"name":"Haselnußweg","postalCode":"53842","locality":"Troisdorf","municipality":{"key":"05382068","name":"Troisdorf, Stadt","type":"Stadt"},"district":{"key":"05382","name":"Rhein-Sieg-Kreis","type":"Kreis"},"federalState":{"key":"05","name":"Nordrhein-Westfalen"}},{"name":"Hauptstr.","postalCode":"53842","locality":"Troisdorf","municipality":{"key":"05382068","name":"Troisdorf, Stadt","type":"Stadt"},"district":{"key":"05382","name":"Rhein-Sieg-Kreis","type":"Kreis"},"federalState":{"key":"05","name":"Nordrhein-Westfalen"}},{"name":"Haydnstr.","postalCode":"53844","locality":"Troisdorf","municipality":{"key":"05382068","name":"Troisdorf, Stadt","type":"Stadt"},"district":{"key":"05382","name":"Rhein-Sieg-Kreis","type":"Kreis"},"federalState":{"key":"05","name":"Nordrhein-Westfalen"}},{"name":"Heckenweg","postalCode":"53842","locality":"Troisdorf","municipality":{"key":"05382068","name":"Troisdorf, Stadt","type":"Stadt"},"district":{"key":"05382","name":"Rhein-Sieg-Kreis","type":"Kreis"},"federalState":{"key":"05","name":"Nordrhein-Westfalen"}},{"name":"Heerstr.","postalCode":"53840","locality":"Troisdorf","municipality":{"key":"05382068","name":"Troisdorf, Stadt","type":"Stadt"},"district":{"key":"05382","name":"Rhein-Sieg-Kreis","type":"Kreis"},"federalState":{"key":"05","name":"Nordrhein-Westfalen"}},{"name":"Heidegraben","postalCode":"53842","locality":"Troisdorf","municipality":{"key":"05382068","name":"Troisdorf, Stadt","type":"Stadt"},"district":{"key":"05382","name":"Rhein-Sieg-Kreis","type":"Kreis"},"federalState":{"key":"05","name":"Nordrhein-Westfalen"}},{"name":"Heidelbeergarten","postalCode":"53844","locality":"Troisdorf","municipality":{"key":"05382068","name":"Troisdorf, Stadt","type":"Stadt"},"district":{"key":"05382","name":"Rhein-Sieg-Kreis","type":"Kreis"},"federalState":{"key":"05","name":"Nordrhein-Westfalen"}},{"name":"Heidenaustr.","postalCode":"53842","locality":"Troisdorf","municipality":{"key":"05382068","name":"Troisdorf, Stadt","type":"Stadt"},"district":{"key":"05382","name":"Rhein-Sieg-Kreis","type":"Kreis"},"federalState":{"key":"05","name":"Nordrhein-Westfalen"}},{"name":"Heidestr.","postalCode":"53840","locality":"Troisdorf","municipality":{"key":"05382068","name":"Troisdorf, Stadt","type":"Stadt"},"district":{"key":"05382","name":"Rhein-Sieg-Kreis","type":"Kreis"},"federalState":{"key":"05","name":"Nordrhein-Westfalen"}},{"name":"Heimbachstr.","postalCode":"53840","locality":"Troisdorf","municipality":{"key":"05382068","name":"Troisdorf, Stadt","type":"Stadt"},"district":{"key":"05382","name":"Rhein-Sieg-Kreis","type":"Kreis"},"federalState":{"key":"05","name":"Nordrhein-Westfalen"}},{"name":"Heinkelstr.","postalCode":"53844","locality":"Troisdorf","municipality":{"key":"05382068","name":"Troisdorf, Stadt","type":"Stadt"},"district":{"key":"05382","name":"Rhein-Sieg-Kreis","type":"Kreis"},"federalState":{"key":"05","name":"Nordrhein-Westfalen"}},{"name":"Heinrich-Heine-Str.","postalCode":"53844","locality":"Troisdorf","municipality":{"key":"05382068","name":"Troisdorf, Stadt","type":"Stadt"},"district":{"key":"05382","name":"Rhein-Sieg-Kreis","type":"Kreis"},"federalState":{"key":"05","name":"Nordrhein-Westfalen"}},{"name":"Heinrichstr.","postalCode":"53842","locality":"Troisdorf","municipality":{"key":"05382068","name":"Troisdorf, Stadt","type":"Stadt"},"district":{"key":"05382","name":"Rhein-Sieg-Kreis","type":"Kreis"},"federalState":{"key":"05","name":"Nordrhein-Westfalen"}},{"name":"Heisenbergstr.","postalCode":"53840","locality":"Troisdorf","municipality":{"key":"05382068","name":"Troisdorf, Stadt","type":"Stadt"},"district":{"key":"05382","name":"Rhein-Sieg-Kreis","type":"Kreis"},"federalState":{"key":"05","name":"Nordrhein-Westfalen"}},{"name":"Helene-Weber-Str.","postalCode":"53844","locality":"Troisdorf","municipality":{"key":"05382068","name":"Troisdorf, Stadt","type":"Stadt"},"district":{"key":"05382","name":"Rhein-Sieg-Kreis","type":"Kreis"},"federalState":{"key":"05","name":"Nordrhein-Westfalen"}},{"name":"Helene-Wessel-Str.","postalCode":"53844","locality":"Troisdorf","municipality":{"key":"05382068","name":"Troisdorf, Stadt","type":"Stadt"},"district":{"key":"05382","name":"Rhein-Sieg-Kreis","type":"Kreis"},"federalState":{"key":"05","name":"Nordrhein-Westfalen"}},{"name":"Helmholtzstr.","postalCode":"53840","locality":"Troisdorf","municipality":{"key":"05382068","name":"Troisdorf, Stadt","type":"Stadt"},"district":{"key":"05382","name":"Rhein-Sieg-Kreis","type":"Kreis"},"federalState":{"key":"05","name":"Nordrhein-Westfalen"}},{"name":"Hermann-Ehlers-Str.","postalCode":"53840","locality":"Troisdorf","municipality":{"key":"05382068","name":"Troisdorf, Stadt","type":"Stadt"},"district":{"key":"05382","name":"Rhein-Sieg-Kreis","type":"Kreis"},"federalState":{"key":"05","name":"Nordrhein-Westfalen"}},{"name":"Hermann-Löns-Str.","postalCode":"53840","locality":"Troisdorf","municipality":{"key":"05382068","name":"Troisdorf, Stadt","type":"Stadt"},"district":{"key":"05382","name":"Rhein-Sieg-Kreis","type":"Kreis"},"federalState":{"key":"05","name":"Nordrhein-Westfalen"}},{"name":"Hertzstr.","postalCode":"53844","locality":"Troisdorf","municipality":{"key":"05382068","name":"Troisdorf, Stadt","type":"Stadt"},"district":{"key":"05382","name":"Rhein-Sieg-Kreis","type":"Kreis"},"federalState":{"key":"05","name":"Nordrhein-Westfalen"}},{"name":"Hessenweg","postalCode":"53844","locality":"Troisdorf","municipality":{"key":"05382068","name":"Troisdorf, Stadt","type":"Stadt"},"district":{"key":"05382","name":"Rhein-Sieg-Kreis","type":"Kreis"},"federalState":{"key":"05","name":"Nordrhein-Westfalen"}},{"name":"Heuserweg","postalCode":"53842","locality":"Troisdorf","municipality":{"key":"05382068","name":"Troisdorf, Stadt","type":"Stadt"},"district":{"key":"05382","name":"Rhein-Sieg-Kreis","type":"Kreis"},"federalState":{"key":"05","name":"Nordrhein-Westfalen"}},{"name":"Hildegard-von-Bingen-Str.","postalCode":"53844","locality":"Troisdorf","municipality":{"key":"05382068","name":"Troisdorf, Stadt","type":"Stadt"},"district":{"key":"05382","name":"Rhein-Sieg-Kreis","type":"Kreis"},"federalState":{"key":"05","name":"Nordrhein-Westfalen"}},{"name":"Himbeergarten","postalCode":"53844","locality":"Troisdorf","municipality":{"key":"05382068","name":"Troisdorf, Stadt","type":"Stadt"},"district":{"key":"05382","name":"Rhein-Sieg-Kreis","type":"Kreis"},"federalState":{"key":"05","name":"Nordrhein-Westfalen"}},{"name":"Hippolytusstr.","postalCode":"53840","locality":"Troisdorf","municipality":{"key":"05382068","name":"Troisdorf, Stadt","type":"Stadt"},"district":{"key":"05382","name":"Rhein-Sieg-Kreis","type":"Kreis"},"federalState":{"key":"05","name":"Nordrhein-Westfalen"}},{"name":"Hirschbergstr.","postalCode":"53844","locality":"Troisdorf","municipality":{"key":"05382068","name":"Troisdorf, Stadt","type":"Stadt"},"district":{"key":"05382","name":"Rhein-Sieg-Kreis","type":"Kreis"},"federalState":{"key":"05","name":"Nordrhein-Westfalen"}},{"name":"Hitzbroicher Weg","postalCode":"53844","locality":"Troisdorf","municipality":{"key":"05382068","name":"Troisdorf, Stadt","type":"Stadt"},"district":{"key":"05382","name":"Rhein-Sieg-Kreis","type":"Kreis"},"federalState":{"key":"05","name":"Nordrhein-Westfalen"}},{"name":"Hochfeldstr.","postalCode":"53842","locality":"Troisdorf","municipality":{"key":"05382068","name":"Troisdorf, Stadt","type":"Stadt"},"district":{"key":"05382","name":"Rhein-Sieg-Kreis","type":"Kreis"},"federalState":{"key":"05","name":"Nordrhein-Westfalen"}},{"name":"Höckergasse","postalCode":"53842","locality":"Troisdorf","municipality":{"key":"05382068","name":"Troisdorf, Stadt","type":"Stadt"},"district":{"key":"05382","name":"Rhein-Sieg-Kreis","type":"Kreis"},"federalState":{"key":"05","name":"Nordrhein-Westfalen"}},{"name":"Hofgartenstr.","postalCode":"53840","locality":"Troisdorf","municipality":{"key":"05382068","name":"Troisdorf, Stadt","type":"Stadt"},"district":{"key":"05382","name":"Rhein-Sieg-Kreis","type":"Kreis"},"federalState":{"key":"05","name":"Nordrhein-Westfalen"}},{"name":"Hohenzollernstr.","postalCode":"53840","locality":"Troisdorf","municipality":{"key":"05382068","name":"Troisdorf, Stadt","type":"Stadt"},"district":{"key":"05382","name":"Rhein-Sieg-Kreis","type":"Kreis"},"federalState":{"key":"05","name":"Nordrhein-Westfalen"}},{"name":"Hohlsteinstr.","postalCode":"53842","locality":"Troisdorf","municipality":{"key":"05382068","name":"Troisdorf, Stadt","type":"Stadt"},"district":{"key":"05382","name":"Rhein-Sieg-Kreis","type":"Kreis"},"federalState":{"key":"05","name":"Nordrhein-Westfalen"}},{"name":"Hohner Weg","postalCode":"53844","locality":"Troisdorf","municipality":{"key":"05382068","name":"Troisdorf, Stadt","type":"Stadt"},"district":{"key":"05382","name":"Rhein-Sieg-Kreis","type":"Kreis"},"federalState":{"key":"05","name":"Nordrhein-Westfalen"}},{"name":"Holbeinstr.","postalCode":"53844","locality":"Troisdorf","municipality":{"key":"05382068","name":"Troisdorf, Stadt","type":"Stadt"},"district":{"key":"05382","name":"Rhein-Sieg-Kreis","type":"Kreis"},"federalState":{"key":"05","name":"Nordrhein-Westfalen"}},{"name":"Holsteiner Ring","postalCode":"53844","locality":"Troisdorf","municipality":{"key":"05382068","name":"Troisdorf, Stadt","type":"Stadt"},"district":{"key":"05382","name":"Rhein-Sieg-Kreis","type":"Kreis"},"federalState":{"key":"05","name":"Nordrhein-Westfalen"}},{"name":"Holunderweg","postalCode":"53842","locality":"Troisdorf","municipality":{"key":"05382068","name":"Troisdorf, Stadt","type":"Stadt"},"district":{"key":"05382","name":"Rhein-Sieg-Kreis","type":"Kreis"},"federalState":{"key":"05","name":"Nordrhein-Westfalen"}},{"name":"Hornackerplatz","postalCode":"53840","locality":"Troisdorf","municipality":{"key":"05382068","name":"Troisdorf, Stadt","type":"Stadt"},"district":{"key":"05382","name":"Rhein-Sieg-Kreis","type":"Kreis"},"federalState":{"key":"05","name":"Nordrhein-Westfalen"}},{"name":"Hornackerstr.","postalCode":"53840","locality":"Troisdorf","municipality":{"key":"05382068","name":"Troisdorf, Stadt","type":"Stadt"},"district":{"key":"05382","name":"Rhein-Sieg-Kreis","type":"Kreis"},"federalState":{"key":"05","name":"Nordrhein-Westfalen"}},{"name":"Hospitalstr.","postalCode":"53840","locality":"Troisdorf","municipality":{"key":"05382068","name":"Troisdorf, Stadt","type":"Stadt"},"district":{"key":"05382","name":"Rhein-Sieg-Kreis","type":"Kreis"},"federalState":{"key":"05","name":"Nordrhein-Westfalen"}},{"name":"Hubertusstr.","postalCode":"53842","locality":"Troisdorf","municipality":{"key":"05382068","name":"Troisdorf, Stadt","type":"Stadt"},"district":{"key":"05382","name":"Rhein-Sieg-Kreis","type":"Kreis"},"federalState":{"key":"05","name":"Nordrhein-Westfalen"}},{"name":"Humperdinckstr.","postalCode":"53844","locality":"Troisdorf","municipality":{"key":"05382068","name":"Troisdorf, Stadt","type":"Stadt"},"district":{"key":"05382","name":"Rhein-Sieg-Kreis","type":"Kreis"},"federalState":{"key":"05","name":"Nordrhein-Westfalen"}},{"name":"Hunsrückstr.","postalCode":"53842","locality":"Troisdorf","municipality":{"key":"05382068","name":"Troisdorf, Stadt","type":"Stadt"},"district":{"key":"05382","name":"Rhein-Sieg-Kreis","type":"Kreis"},"federalState":{"key":"05","name":"Nordrhein-Westfalen"}},{"name":"Hüttenstr.","postalCode":"53844","locality":"Troisdorf","municipality":{"key":"05382068","name":"Troisdorf, Stadt","type":"Stadt"},"district":{"key":"05382","name":"Rhein-Sieg-Kreis","type":"Kreis"},"federalState":{"key":"05","name":"Nordrhein-Westfalen"}},{"name":"Iltisweg","postalCode":"53842","locality":"Troisdorf","municipality":{"key":"05382068","name":"Troisdorf, Stadt","type":"Stadt"},"district":{"key":"05382","name":"Rhein-Sieg-Kreis","type":"Kreis"},"federalState":{"key":"05","name":"Nordrhein-Westfalen"}},{"name":"Im alten Garten","postalCode":"53842","locality":"Troisdorf","municipality":{"key":"05382068","name":"Troisdorf, Stadt","type":"Stadt"},"district":{"key":"05382","name":"Rhein-Sieg-Kreis","type":"Kreis"},"federalState":{"key":"05","name":"Nordrhein-Westfalen"}},{"name":"Im Auel","postalCode":"53842","locality":"Troisdorf","municipality":{"key":"05382068","name":"Troisdorf, Stadt","type":"Stadt"},"district":{"key":"05382","name":"Rhein-Sieg-Kreis","type":"Kreis"},"federalState":{"key":"05","name":"Nordrhein-Westfalen"}},{"name":"Im Bitzer Feld","postalCode":"53844","locality":"Troisdorf","municipality":{"key":"05382068","name":"Troisdorf, Stadt","type":"Stadt"},"district":{"key":"05382","name":"Rhein-Sieg-Kreis","type":"Kreis"},"federalState":{"key":"05","name":"Nordrhein-Westfalen"}},{"name":"Im Eisenfeld","postalCode":"53842","locality":"Troisdorf","municipality":{"key":"05382068","name":"Troisdorf, Stadt","type":"Stadt"},"district":{"key":"05382","name":"Rhein-Sieg-Kreis","type":"Kreis"},"federalState":{"key":"05","name":"Nordrhein-Westfalen"}},{"name":"Im Feldbruch","postalCode":"53842","locality":"Troisdorf","municipality":{"key":"05382068","name":"Troisdorf, Stadt","type":"Stadt"},"district":{"key":"05382","name":"Rhein-Sieg-Kreis","type":"Kreis"},"federalState":{"key":"05","name":"Nordrhein-Westfalen"}},{"name":"Im Gäßchen","postalCode":"53844","locality":"Troisdorf","municipality":{"key":"05382068","name":"Troisdorf, Stadt","type":"Stadt"},"district":{"key":"05382","name":"Rhein-Sieg-Kreis","type":"Kreis"},"federalState":{"key":"05","name":"Nordrhein-Westfalen"}},{"name":"Im Grotten","postalCode":"53840","locality":"Troisdorf","municipality":{"key":"05382068","name":"Troisdorf, Stadt","type":"Stadt"},"district":{"key":"05382","name":"Rhein-Sieg-Kreis","type":"Kreis"},"federalState":{"key":"05","name":"Nordrhein-Westfalen"}},{"name":"Im Grund","postalCode":"53840","locality":"Troisdorf","municipality":{"key":"05382068","name":"Troisdorf, Stadt","type":"Stadt"},"district":{"key":"05382","name":"Rhein-Sieg-Kreis","type":"Kreis"},"federalState":{"key":"05","name":"Nordrhein-Westfalen"}},{"name":"Im Grünen Anger","postalCode":"53844","locality":"Troisdorf","municipality":{"key":"05382068","name":"Troisdorf, Stadt","type":"Stadt"},"district":{"key":"05382","name":"Rhein-Sieg-Kreis","type":"Kreis"},"federalState":{"key":"05","name":"Nordrhein-Westfalen"}},{"name":"Im Hölzchen","postalCode":"53842","locality":"Troisdorf","municipality":{"key":"05382068","name":"Troisdorf, Stadt","type":"Stadt"},"district":{"key":"05382","name":"Rhein-Sieg-Kreis","type":"Kreis"},"federalState":{"key":"05","name":"Nordrhein-Westfalen"}},{"name":"Im Hüttenfeld","postalCode":"53840","locality":"Troisdorf","municipality":{"key":"05382068","name":"Troisdorf, Stadt","type":"Stadt"},"district":{"key":"05382","name":"Rhein-Sieg-Kreis","type":"Kreis"},"federalState":{"key":"05","name":"Nordrhein-Westfalen"}},{"name":"Im Jägersgarten","postalCode":"53844","locality":"Troisdorf","municipality":{"key":"05382068","name":"Troisdorf, Stadt","type":"Stadt"},"district":{"key":"05382","name":"Rhein-Sieg-Kreis","type":"Kreis"},"federalState":{"key":"05","name":"Nordrhein-Westfalen"}},{"name":"Im Kaltsiefen","postalCode":"53842","locality":"Troisdorf","municipality":{"key":"05382068","name":"Troisdorf, Stadt","type":"Stadt"},"district":{"key":"05382","name":"Rhein-Sieg-Kreis","type":"Kreis"},"federalState":{"key":"05","name":"Nordrhein-Westfalen"}},{"name":"Im Kirchtal","postalCode":"53844","locality":"Troisdorf","municipality":{"key":"05382068","name":"Troisdorf, Stadt","type":"Stadt"},"district":{"key":"05382","name":"Rhein-Sieg-Kreis","type":"Kreis"},"federalState":{"key":"05","name":"Nordrhein-Westfalen"}},{"name":"Im Kleefeld","postalCode":"53842","locality":"Troisdorf","municipality":{"key":"05382068","name":"Troisdorf, Stadt","type":"Stadt"},"district":{"key":"05382","name":"Rhein-Sieg-Kreis","type":"Kreis"},"federalState":{"key":"05","name":"Nordrhein-Westfalen"}},{"name":"Im Kreuzfeld","postalCode":"53842","locality":"Troisdorf","municipality":{"key":"05382068","name":"Troisdorf, Stadt","type":"Stadt"},"district":{"key":"05382","name":"Rhein-Sieg-Kreis","type":"Kreis"},"federalState":{"key":"05","name":"Nordrhein-Westfalen"}},{"name":"Im Krug","postalCode":"53844","locality":"Troisdorf","municipality":{"key":"05382068","name":"Troisdorf, Stadt","type":"Stadt"},"district":{"key":"05382","name":"Rhein-Sieg-Kreis","type":"Kreis"},"federalState":{"key":"05","name":"Nordrhein-Westfalen"}},{"name":"Im Laach","postalCode":"53840","locality":"Troisdorf","municipality":{"key":"05382068","name":"Troisdorf, Stadt","type":"Stadt"},"district":{"key":"05382","name":"Rhein-Sieg-Kreis","type":"Kreis"},"federalState":{"key":"05","name":"Nordrhein-Westfalen"}},{"name":"Im Lettenfeld","postalCode":"53844","locality":"Troisdorf","municipality":{"key":"05382068","name":"Troisdorf, Stadt","type":"Stadt"},"district":{"key":"05382","name":"Rhein-Sieg-Kreis","type":"Kreis"},"federalState":{"key":"05","name":"Nordrhein-Westfalen"}},{"name":"Im Probstgarten","postalCode":"53844","locality":"Troisdorf","municipality":{"key":"05382068","name":"Troisdorf, Stadt","type":"Stadt"},"district":{"key":"05382","name":"Rhein-Sieg-Kreis","type":"Kreis"},"federalState":{"key":"05","name":"Nordrhein-Westfalen"}},{"name":"Im Rehsprung","postalCode":"53840","locality":"Troisdorf","municipality":{"key":"05382068","name":"Troisdorf, Stadt","type":"Stadt"},"district":{"key":"05382","name":"Rhein-Sieg-Kreis","type":"Kreis"},"federalState":{"key":"05","name":"Nordrhein-Westfalen"}},{"name":"Im Rehsprung","postalCode":"53842","locality":"Troisdorf","municipality":{"key":"05382068","name":"Troisdorf, Stadt","type":"Stadt"},"district":{"key":"05382","name":"Rhein-Sieg-Kreis","type":"Kreis"},"federalState":{"key":"05","name":"Nordrhein-Westfalen"}},{"name":"Im Rosengarten","postalCode":"53842","locality":"Troisdorf","municipality":{"key":"05382068","name":"Troisdorf, Stadt","type":"Stadt"},"district":{"key":"05382","name":"Rhein-Sieg-Kreis","type":"Kreis"},"federalState":{"key":"05","name":"Nordrhein-Westfalen"}},{"name":"Im Schonsfeld","postalCode":"53844","locality":"Troisdorf","municipality":{"key":"05382068","name":"Troisdorf, Stadt","type":"Stadt"},"district":{"key":"05382","name":"Rhein-Sieg-Kreis","type":"Kreis"},"federalState":{"key":"05","name":"Nordrhein-Westfalen"}},{"name":"Im Tulpenfeld","postalCode":"53842","locality":"Troisdorf","municipality":{"key":"05382068","name":"Troisdorf, Stadt","type":"Stadt"},"district":{"key":"05382","name":"Rhein-Sieg-Kreis","type":"Kreis"},"federalState":{"key":"05","name":"Nordrhein-Westfalen"}},{"name":"Im Türchen","postalCode":"53844","locality":"Troisdorf","municipality":{"key":"05382068","name":"Troisdorf, Stadt","type":"Stadt"},"district":{"key":"05382","name":"Rhein-Sieg-Kreis","type":"Kreis"},"federalState":{"key":"05","name":"Nordrhein-Westfalen"}},{"name":"Im Wiesengrund","postalCode":"53842","locality":"Troisdorf","municipality":{"key":"05382068","name":"Troisdorf, Stadt","type":"Stadt"},"district":{"key":"05382","name":"Rhein-Sieg-Kreis","type":"Kreis"},"federalState":{"key":"05","name":"Nordrhein-Westfalen"}},{"name":"Im Winkel","postalCode":"53842","locality":"Troisdorf","municipality":{"key":"05382068","name":"Troisdorf, Stadt","type":"Stadt"},"district":{"key":"05382","name":"Rhein-Sieg-Kreis","type":"Kreis"},"federalState":{"key":"05","name":"Nordrhein-Westfalen"}},{"name":"Im Zehntfeld","postalCode":"53842","locality":"Troisdorf","municipality":{"key":"05382068","name":"Troisdorf, Stadt","type":"Stadt"},"district":{"key":"05382","name":"Rhein-Sieg-Kreis","type":"Kreis"},"federalState":{"key":"05","name":"Nordrhein-Westfalen"}},{"name":"Im Zehntfeld","postalCode":"53844","locality":"Troisdorf","municipality":{"key":"05382068","name":"Troisdorf, Stadt","type":"Stadt"},"district":{"key":"05382","name":"Rhein-Sieg-Kreis","type":"Kreis"},"federalState":{"key":"05","name":"Nordrhein-Westfalen"}},{"name":"In den Gärten","postalCode":"53844","locality":"Troisdorf","municipality":{"key":"05382068","name":"Troisdorf, Stadt","type":"Stadt"},"district":{"key":"05382","name":"Rhein-Sieg-Kreis","type":"Kreis"},"federalState":{"key":"05","name":"Nordrhein-Westfalen"}},{"name":"In den Hälsen","postalCode":"53840","locality":"Troisdorf","municipality":{"key":"05382068","name":"Troisdorf, Stadt","type":"Stadt"},"district":{"key":"05382","name":"Rhein-Sieg-Kreis","type":"Kreis"},"federalState":{"key":"05","name":"Nordrhein-Westfalen"}},{"name":"In den Hecken","postalCode":"53840","locality":"Troisdorf","municipality":{"key":"05382068","name":"Troisdorf, Stadt","type":"Stadt"},"district":{"key":"05382","name":"Rhein-Sieg-Kreis","type":"Kreis"},"federalState":{"key":"05","name":"Nordrhein-Westfalen"}},{"name":"In den Höhnen","postalCode":"53842","locality":"Troisdorf","municipality":{"key":"05382068","name":"Troisdorf, Stadt","type":"Stadt"},"district":{"key":"05382","name":"Rhein-Sieg-Kreis","type":"Kreis"},"federalState":{"key":"05","name":"Nordrhein-Westfalen"}},{"name":"In den Weingärten","postalCode":"53844","locality":"Troisdorf","municipality":{"key":"05382068","name":"Troisdorf, Stadt","type":"Stadt"},"district":{"key":"05382","name":"Rhein-Sieg-Kreis","type":"Kreis"},"federalState":{"key":"05","name":"Nordrhein-Westfalen"}},{"name":"In der Bindeflacht","postalCode":"53844","locality":"Troisdorf","municipality":{"key":"05382068","name":"Troisdorf, Stadt","type":"Stadt"},"district":{"key":"05382","name":"Rhein-Sieg-Kreis","type":"Kreis"},"federalState":{"key":"05","name":"Nordrhein-Westfalen"}},{"name":"In der Gronau","postalCode":"53840","locality":"Troisdorf","municipality":{"key":"05382068","name":"Troisdorf, Stadt","type":"Stadt"},"district":{"key":"05382","name":"Rhein-Sieg-Kreis","type":"Kreis"},"federalState":{"key":"05","name":"Nordrhein-Westfalen"}},{"name":"In der Kleinen Heide","postalCode":"53842","locality":"Troisdorf","municipality":{"key":"05382068","name":"Troisdorf, Stadt","type":"Stadt"},"district":{"key":"05382","name":"Rhein-Sieg-Kreis","type":"Kreis"},"federalState":{"key":"05","name":"Nordrhein-Westfalen"}},{"name":"In der Kraus","postalCode":"53844","locality":"Troisdorf","municipality":{"key":"05382068","name":"Troisdorf, Stadt","type":"Stadt"},"district":{"key":"05382","name":"Rhein-Sieg-Kreis","type":"Kreis"},"federalState":{"key":"05","name":"Nordrhein-Westfalen"}},{"name":"In der Maikammer","postalCode":"53840","locality":"Troisdorf","municipality":{"key":"05382068","name":"Troisdorf, Stadt","type":"Stadt"},"district":{"key":"05382","name":"Rhein-Sieg-Kreis","type":"Kreis"},"federalState":{"key":"05","name":"Nordrhein-Westfalen"}},{"name":"Jägerstr.","postalCode":"53844","locality":"Troisdorf","municipality":{"key":"05382068","name":"Troisdorf, Stadt","type":"Stadt"},"district":{"key":"05382","name":"Rhein-Sieg-Kreis","type":"Kreis"},"federalState":{"key":"05","name":"Nordrhein-Westfalen"}},{"name":"Jahnplatz","postalCode":"53840","locality":"Troisdorf","municipality":{"key":"05382068","name":"Troisdorf, Stadt","type":"Stadt"},"district":{"key":"05382","name":"Rhein-Sieg-Kreis","type":"Kreis"},"federalState":{"key":"05","name":"Nordrhein-Westfalen"}},{"name":"Jasminweg","postalCode":"53840","locality":"Troisdorf","municipality":{"key":"05382068","name":"Troisdorf, Stadt","type":"Stadt"},"district":{"key":"05382","name":"Rhein-Sieg-Kreis","type":"Kreis"},"federalState":{"key":"05","name":"Nordrhein-Westfalen"}},{"name":"Jean-Schmitz-Str.","postalCode":"53842","locality":"Troisdorf","municipality":{"key":"05382068","name":"Troisdorf, Stadt","type":"Stadt"},"district":{"key":"05382","name":"Rhein-Sieg-Kreis","type":"Kreis"},"federalState":{"key":"05","name":"Nordrhein-Westfalen"}},{"name":"Johannesstr.","postalCode":"53844","locality":"Troisdorf","municipality":{"key":"05382068","name":"Troisdorf, Stadt","type":"Stadt"},"district":{"key":"05382","name":"Rhein-Sieg-Kreis","type":"Kreis"},"federalState":{"key":"05","name":"Nordrhein-Westfalen"}},{"name":"Johannisbergwerk","postalCode":"53842","locality":"Troisdorf","municipality":{"key":"05382068","name":"Troisdorf, Stadt","type":"Stadt"},"district":{"key":"05382","name":"Rhein-Sieg-Kreis","type":"Kreis"},"federalState":{"key":"05","name":"Nordrhein-Westfalen"}},{"name":"Josef-Frank-Str.","postalCode":"53842","locality":"Troisdorf","municipality":{"key":"05382068","name":"Troisdorf, Stadt","type":"Stadt"},"district":{"key":"05382","name":"Rhein-Sieg-Kreis","type":"Kreis"},"federalState":{"key":"05","name":"Nordrhein-Westfalen"}},{"name":"Josef-Kitz-Str.","postalCode":"53840","locality":"Troisdorf","municipality":{"key":"05382068","name":"Troisdorf, Stadt","type":"Stadt"},"district":{"key":"05382","name":"Rhein-Sieg-Kreis","type":"Kreis"},"federalState":{"key":"05","name":"Nordrhein-Westfalen"}},{"name":"Josef-Schäfer-Str.","postalCode":"53844","locality":"Troisdorf","municipality":{"key":"05382068","name":"Troisdorf, Stadt","type":"Stadt"},"district":{"key":"05382","name":"Rhein-Sieg-Kreis","type":"Kreis"},"federalState":{"key":"05","name":"Nordrhein-Westfalen"}},{"name":"Josefstr.","postalCode":"53842","locality":"Troisdorf","municipality":{"key":"05382068","name":"Troisdorf, Stadt","type":"Stadt"},"district":{"key":"05382","name":"Rhein-Sieg-Kreis","type":"Kreis"},"federalState":{"key":"05","name":"Nordrhein-Westfalen"}},{"name":"Julius-Leber-Str.","postalCode":"53840","locality":"Troisdorf","municipality":{"key":"05382068","name":"Troisdorf, Stadt","type":"Stadt"},"district":{"key":"05382","name":"Rhein-Sieg-Kreis","type":"Kreis"},"federalState":{"key":"05","name":"Nordrhein-Westfalen"}},{"name":"Junkershof","postalCode":"53844","locality":"Troisdorf","municipality":{"key":"05382068","name":"Troisdorf, Stadt","type":"Stadt"},"district":{"key":"05382","name":"Rhein-Sieg-Kreis","type":"Kreis"},"federalState":{"key":"05","name":"Nordrhein-Westfalen"}},{"name":"Junkersring","postalCode":"53844","locality":"Troisdorf","municipality":{"key":"05382068","name":"Troisdorf, Stadt","type":"Stadt"},"district":{"key":"05382","name":"Rhein-Sieg-Kreis","type":"Kreis"},"federalState":{"key":"05","name":"Nordrhein-Westfalen"}},{"name":"Jupiterstr.","postalCode":"53842","locality":"Troisdorf","municipality":{"key":"05382068","name":"Troisdorf, Stadt","type":"Stadt"},"district":{"key":"05382","name":"Rhein-Sieg-Kreis","type":"Kreis"},"federalState":{"key":"05","name":"Nordrhein-Westfalen"}},{"name":"Kaiserstr.","postalCode":"53840","locality":"Troisdorf","municipality":{"key":"05382068","name":"Troisdorf, Stadt","type":"Stadt"},"district":{"key":"05382","name":"Rhein-Sieg-Kreis","type":"Kreis"},"federalState":{"key":"05","name":"Nordrhein-Westfalen"}},{"name":"Kaiserstuhlweg","postalCode":"53844","locality":"Troisdorf","municipality":{"key":"05382068","name":"Troisdorf, Stadt","type":"Stadt"},"district":{"key":"05382","name":"Rhein-Sieg-Kreis","type":"Kreis"},"federalState":{"key":"05","name":"Nordrhein-Westfalen"}},{"name":"Kantstr.","postalCode":"53842","locality":"Troisdorf","municipality":{"key":"05382068","name":"Troisdorf, Stadt","type":"Stadt"},"district":{"key":"05382","name":"Rhein-Sieg-Kreis","type":"Kreis"},"federalState":{"key":"05","name":"Nordrhein-Westfalen"}},{"name":"Kapellenstr.","postalCode":"53844","locality":"Troisdorf","municipality":{"key":"05382068","name":"Troisdorf, Stadt","type":"Stadt"},"district":{"key":"05382","name":"Rhein-Sieg-Kreis","type":"Kreis"},"federalState":{"key":"05","name":"Nordrhein-Westfalen"}},{"name":"Kardinal-Frings-Str.","postalCode":"53842","locality":"Troisdorf","municipality":{"key":"05382068","name":"Troisdorf, Stadt","type":"Stadt"},"district":{"key":"05382","name":"Rhein-Sieg-Kreis","type":"Kreis"},"federalState":{"key":"05","name":"Nordrhein-Westfalen"}},{"name":"Karl-Jarres-Str.","postalCode":"53842","locality":"Troisdorf","municipality":{"key":"05382068","name":"Troisdorf, Stadt","type":"Stadt"},"district":{"key":"05382","name":"Rhein-Sieg-Kreis","type":"Kreis"},"federalState":{"key":"05","name":"Nordrhein-Westfalen"}},{"name":"Karl-Kuhn-Platz","postalCode":"53840","locality":"Troisdorf","municipality":{"key":"05382068","name":"Troisdorf, Stadt","type":"Stadt"},"district":{"key":"05382","name":"Rhein-Sieg-Kreis","type":"Kreis"},"federalState":{"key":"05","name":"Nordrhein-Westfalen"}},{"name":"Karl-Peters-Str.","postalCode":"53840","locality":"Troisdorf","municipality":{"key":"05382068","name":"Troisdorf, Stadt","type":"Stadt"},"district":{"key":"05382","name":"Rhein-Sieg-Kreis","type":"Kreis"},"federalState":{"key":"05","name":"Nordrhein-Westfalen"}},{"name":"Karl-Schurz-Str.","postalCode":"53840","locality":"Troisdorf","municipality":{"key":"05382068","name":"Troisdorf, Stadt","type":"Stadt"},"district":{"key":"05382","name":"Rhein-Sieg-Kreis","type":"Kreis"},"federalState":{"key":"05","name":"Nordrhein-Westfalen"}},{"name":"Karlstr.","postalCode":"53842","locality":"Troisdorf","municipality":{"key":"05382068","name":"Troisdorf, Stadt","type":"Stadt"},"district":{"key":"05382","name":"Rhein-Sieg-Kreis","type":"Kreis"},"federalState":{"key":"05","name":"Nordrhein-Westfalen"}},{"name":"Kasinostr.","postalCode":"53840","locality":"Troisdorf","municipality":{"key":"05382068","name":"Troisdorf, Stadt","type":"Stadt"},"district":{"key":"05382","name":"Rhein-Sieg-Kreis","type":"Kreis"},"federalState":{"key":"05","name":"Nordrhein-Westfalen"}},{"name":"Kasseler Furt","postalCode":"53842","locality":"Troisdorf","municipality":{"key":"05382068","name":"Troisdorf, Stadt","type":"Stadt"},"district":{"key":"05382","name":"Rhein-Sieg-Kreis","type":"Kreis"},"federalState":{"key":"05","name":"Nordrhein-Westfalen"}},{"name":"Kastanienweg","postalCode":"53842","locality":"Troisdorf","municipality":{"key":"05382068","name":"Troisdorf, Stadt","type":"Stadt"},"district":{"key":"05382","name":"Rhein-Sieg-Kreis","type":"Kreis"},"federalState":{"key":"05","name":"Nordrhein-Westfalen"}},{"name":"Katharinenstr.","postalCode":"53844","locality":"Troisdorf","municipality":{"key":"05382068","name":"Troisdorf, Stadt","type":"Stadt"},"district":{"key":"05382","name":"Rhein-Sieg-Kreis","type":"Kreis"},"federalState":{"key":"05","name":"Nordrhein-Westfalen"}},{"name":"Käthe-Kollwitz-Str.","postalCode":"53842","locality":"Troisdorf","municipality":{"key":"05382068","name":"Troisdorf, Stadt","type":"Stadt"},"district":{"key":"05382","name":"Rhein-Sieg-Kreis","type":"Kreis"},"federalState":{"key":"05","name":"Nordrhein-Westfalen"}},{"name":"Keplerstr.","postalCode":"53842","locality":"Troisdorf","municipality":{"key":"05382068","name":"Troisdorf, Stadt","type":"Stadt"},"district":{"key":"05382","name":"Rhein-Sieg-Kreis","type":"Kreis"},"federalState":{"key":"05","name":"Nordrhein-Westfalen"}},{"name":"Kerpener Hof","postalCode":"53844","locality":"Troisdorf","municipality":{"key":"05382068","name":"Troisdorf, Stadt","type":"Stadt"},"district":{"key":"05382","name":"Rhein-Sieg-Kreis","type":"Kreis"},"federalState":{"key":"05","name":"Nordrhein-Westfalen"}},{"name":"Kerpstr.","postalCode":"53844","locality":"Troisdorf","municipality":{"key":"05382068","name":"Troisdorf, Stadt","type":"Stadt"},"district":{"key":"05382","name":"Rhein-Sieg-Kreis","type":"Kreis"},"federalState":{"key":"05","name":"Nordrhein-Westfalen"}},{"name":"Kerschensteinerstr.","postalCode":"53844","locality":"Troisdorf","municipality":{"key":"05382068","name":"Troisdorf, Stadt","type":"Stadt"},"district":{"key":"05382","name":"Rhein-Sieg-Kreis","type":"Kreis"},"federalState":{"key":"05","name":"Nordrhein-Westfalen"}},{"name":"Kettelerstr.","postalCode":"53844","locality":"Troisdorf","municipality":{"key":"05382068","name":"Troisdorf, Stadt","type":"Stadt"},"district":{"key":"05382","name":"Rhein-Sieg-Kreis","type":"Kreis"},"federalState":{"key":"05","name":"Nordrhein-Westfalen"}},{"name":"Kiefernstr.","postalCode":"53842","locality":"Troisdorf","municipality":{"key":"05382068","name":"Troisdorf, Stadt","type":"Stadt"},"district":{"key":"05382","name":"Rhein-Sieg-Kreis","type":"Kreis"},"federalState":{"key":"05","name":"Nordrhein-Westfalen"}},{"name":"Kieler Weg","postalCode":"53844","locality":"Troisdorf","municipality":{"key":"05382068","name":"Troisdorf, Stadt","type":"Stadt"},"district":{"key":"05382","name":"Rhein-Sieg-Kreis","type":"Kreis"},"federalState":{"key":"05","name":"Nordrhein-Westfalen"}},{"name":"Kiesschneise","postalCode":"53842","locality":"Troisdorf","municipality":{"key":"05382068","name":"Troisdorf, Stadt","type":"Stadt"},"district":{"key":"05382","name":"Rhein-Sieg-Kreis","type":"Kreis"},"federalState":{"key":"05","name":"Nordrhein-Westfalen"}},{"name":"Kirchhofstr.","postalCode":"53844","locality":"Troisdorf","municipality":{"key":"05382068","name":"Troisdorf, Stadt","type":"Stadt"},"district":{"key":"05382","name":"Rhein-Sieg-Kreis","type":"Kreis"},"federalState":{"key":"05","name":"Nordrhein-Westfalen"}},{"name":"Kirchsiefenweg","postalCode":"53842","locality":"Troisdorf","municipality":{"key":"05382068","name":"Troisdorf, Stadt","type":"Stadt"},"district":{"key":"05382","name":"Rhein-Sieg-Kreis","type":"Kreis"},"federalState":{"key":"05","name":"Nordrhein-Westfalen"}},{"name":"Kirchstr.","postalCode":"53840","locality":"Troisdorf","municipality":{"key":"05382068","name":"Troisdorf, Stadt","type":"Stadt"},"district":{"key":"05382","name":"Rhein-Sieg-Kreis","type":"Kreis"},"federalState":{"key":"05","name":"Nordrhein-Westfalen"}},{"name":"Kirchweg","postalCode":"53842","locality":"Troisdorf","municipality":{"key":"05382068","name":"Troisdorf, Stadt","type":"Stadt"},"district":{"key":"05382","name":"Rhein-Sieg-Kreis","type":"Kreis"},"federalState":{"key":"05","name":"Nordrhein-Westfalen"}},{"name":"Klara-Engels-Str.","postalCode":"53844","locality":"Troisdorf","municipality":{"key":"05382068","name":"Troisdorf, Stadt","type":"Stadt"},"district":{"key":"05382","name":"Rhein-Sieg-Kreis","type":"Kreis"},"federalState":{"key":"05","name":"Nordrhein-Westfalen"}},{"name":"Kleiststr.","postalCode":"53844","locality":"Troisdorf","municipality":{"key":"05382068","name":"Troisdorf, Stadt","type":"Stadt"},"district":{"key":"05382","name":"Rhein-Sieg-Kreis","type":"Kreis"},"federalState":{"key":"05","name":"Nordrhein-Westfalen"}},{"name":"Klevstr.","postalCode":"53840","locality":"Troisdorf","municipality":{"key":"05382068","name":"Troisdorf, Stadt","type":"Stadt"},"district":{"key":"05382","name":"Rhein-Sieg-Kreis","type":"Kreis"},"federalState":{"key":"05","name":"Nordrhein-Westfalen"}},{"name":"Klostergasse","postalCode":"53844","locality":"Troisdorf","municipality":{"key":"05382068","name":"Troisdorf, Stadt","type":"Stadt"},"district":{"key":"05382","name":"Rhein-Sieg-Kreis","type":"Kreis"},"federalState":{"key":"05","name":"Nordrhein-Westfalen"}},{"name":"Kneippweg","postalCode":"53844","locality":"Troisdorf","municipality":{"key":"05382068","name":"Troisdorf, Stadt","type":"Stadt"},"district":{"key":"05382","name":"Rhein-Sieg-Kreis","type":"Kreis"},"federalState":{"key":"05","name":"Nordrhein-Westfalen"}},{"name":"Kochenholzstr.","postalCode":"53842","locality":"Troisdorf","municipality":{"key":"05382068","name":"Troisdorf, Stadt","type":"Stadt"},"district":{"key":"05382","name":"Rhein-Sieg-Kreis","type":"Kreis"},"federalState":{"key":"05","name":"Nordrhein-Westfalen"}},{"name":"Kölner Str.","postalCode":"53840","locality":"Troisdorf","municipality":{"key":"05382068","name":"Troisdorf, Stadt","type":"Stadt"},"district":{"key":"05382","name":"Rhein-Sieg-Kreis","type":"Kreis"},"federalState":{"key":"05","name":"Nordrhein-Westfalen"}},{"name":"Kolpingstr.","postalCode":"53844","locality":"Troisdorf","municipality":{"key":"05382068","name":"Troisdorf, Stadt","type":"Stadt"},"district":{"key":"05382","name":"Rhein-Sieg-Kreis","type":"Kreis"},"federalState":{"key":"05","name":"Nordrhein-Westfalen"}},{"name":"König-Baudouin-Weg","postalCode":"53842","locality":"Troisdorf","municipality":{"key":"05382068","name":"Troisdorf, Stadt","type":"Stadt"},"district":{"key":"05382","name":"Rhein-Sieg-Kreis","type":"Kreis"},"federalState":{"key":"05","name":"Nordrhein-Westfalen"}},{"name":"Königsberger Str.","postalCode":"53840","locality":"Troisdorf","municipality":{"key":"05382068","name":"Troisdorf, Stadt","type":"Stadt"},"district":{"key":"05382","name":"Rhein-Sieg-Kreis","type":"Kreis"},"federalState":{"key":"05","name":"Nordrhein-Westfalen"}},{"name":"Konrad-Adenauer-Ring","postalCode":"53844","locality":"Troisdorf","municipality":{"key":"05382068","name":"Troisdorf, Stadt","type":"Stadt"},"district":{"key":"05382","name":"Rhein-Sieg-Kreis","type":"Kreis"},"federalState":{"key":"05","name":"Nordrhein-Westfalen"}},{"name":"Krähenweg","postalCode":"53844","locality":"Troisdorf","municipality":{"key":"05382068","name":"Troisdorf, Stadt","type":"Stadt"},"district":{"key":"05382","name":"Rhein-Sieg-Kreis","type":"Kreis"},"federalState":{"key":"05","name":"Nordrhein-Westfalen"}},{"name":"Kranichweg","postalCode":"53844","locality":"Troisdorf","municipality":{"key":"05382068","name":"Troisdorf, Stadt","type":"Stadt"},"district":{"key":"05382","name":"Rhein-Sieg-Kreis","type":"Kreis"},"federalState":{"key":"05","name":"Nordrhein-Westfalen"}},{"name":"Krapelsfelder Gässchen","postalCode":"53840","locality":"Troisdorf","municipality":{"key":"05382068","name":"Troisdorf, Stadt","type":"Stadt"},"district":{"key":"05382","name":"Rhein-Sieg-Kreis","type":"Kreis"},"federalState":{"key":"05","name":"Nordrhein-Westfalen"}},{"name":"Krausgasse","postalCode":"53844","locality":"Troisdorf","municipality":{"key":"05382068","name":"Troisdorf, Stadt","type":"Stadt"},"district":{"key":"05382","name":"Rhein-Sieg-Kreis","type":"Kreis"},"federalState":{"key":"05","name":"Nordrhein-Westfalen"}},{"name":"Kreuzbergstr.","postalCode":"53844","locality":"Troisdorf","municipality":{"key":"05382068","name":"Troisdorf, Stadt","type":"Stadt"},"district":{"key":"05382","name":"Rhein-Sieg-Kreis","type":"Kreis"},"federalState":{"key":"05","name":"Nordrhein-Westfalen"}},{"name":"Kriegsdorfer Str.","postalCode":"53842","locality":"Troisdorf","municipality":{"key":"05382068","name":"Troisdorf, Stadt","type":"Stadt"},"district":{"key":"05382","name":"Rhein-Sieg-Kreis","type":"Kreis"},"federalState":{"key":"05","name":"Nordrhein-Westfalen"}},{"name":"Kriegsdorfer Str.","postalCode":"53844","locality":"Troisdorf","municipality":{"key":"05382068","name":"Troisdorf, Stadt","type":"Stadt"},"district":{"key":"05382","name":"Rhein-Sieg-Kreis","type":"Kreis"},"federalState":{"key":"05","name":"Nordrhein-Westfalen"}},{"name":"Kronenstr.","postalCode":"53840","locality":"Troisdorf","municipality":{"key":"05382068","name":"Troisdorf, Stadt","type":"Stadt"},"district":{"key":"05382","name":"Rhein-Sieg-Kreis","type":"Kreis"},"federalState":{"key":"05","name":"Nordrhein-Westfalen"}},{"name":"Kronprinzenstr.","postalCode":"53840","locality":"Troisdorf","municipality":{"key":"05382068","name":"Troisdorf, Stadt","type":"Stadt"},"district":{"key":"05382","name":"Rhein-Sieg-Kreis","type":"Kreis"},"federalState":{"key":"05","name":"Nordrhein-Westfalen"}},{"name":"Kruppstr.","postalCode":"53840","locality":"Troisdorf","municipality":{"key":"05382068","name":"Troisdorf, Stadt","type":"Stadt"},"district":{"key":"05382","name":"Rhein-Sieg-Kreis","type":"Kreis"},"federalState":{"key":"05","name":"Nordrhein-Westfalen"}},{"name":"Kuckucksweg","postalCode":"53842","locality":"Troisdorf","municipality":{"key":"05382068","name":"Troisdorf, Stadt","type":"Stadt"},"district":{"key":"05382","name":"Rhein-Sieg-Kreis","type":"Kreis"},"federalState":{"key":"05","name":"Nordrhein-Westfalen"}},{"name":"Kurt-Schumacher-Str.","postalCode":"53840","locality":"Troisdorf","municipality":{"key":"05382068","name":"Troisdorf, Stadt","type":"Stadt"},"district":{"key":"05382","name":"Rhein-Sieg-Kreis","type":"Kreis"},"federalState":{"key":"05","name":"Nordrhein-Westfalen"}},{"name":"Laacher See Str.","postalCode":"53844","locality":"Troisdorf","municipality":{"key":"05382068","name":"Troisdorf, Stadt","type":"Stadt"},"district":{"key":"05382","name":"Rhein-Sieg-Kreis","type":"Kreis"},"federalState":{"key":"05","name":"Nordrhein-Westfalen"}},{"name":"Lahnstr.","postalCode":"53840","locality":"Troisdorf","municipality":{"key":"05382068","name":"Troisdorf, Stadt","type":"Stadt"},"district":{"key":"05382","name":"Rhein-Sieg-Kreis","type":"Kreis"},"federalState":{"key":"05","name":"Nordrhein-Westfalen"}},{"name":"Lambertusstr.","postalCode":"53844","locality":"Troisdorf","municipality":{"key":"05382068","name":"Troisdorf, Stadt","type":"Stadt"},"district":{"key":"05382","name":"Rhein-Sieg-Kreis","type":"Kreis"},"federalState":{"key":"05","name":"Nordrhein-Westfalen"}},{"name":"Landgrafenstr.","postalCode":"53842","locality":"Troisdorf","municipality":{"key":"05382068","name":"Troisdorf, Stadt","type":"Stadt"},"district":{"key":"05382","name":"Rhein-Sieg-Kreis","type":"Kreis"},"federalState":{"key":"05","name":"Nordrhein-Westfalen"}},{"name":"Langbaurghstr.","postalCode":"53842","locality":"Troisdorf","municipality":{"key":"05382068","name":"Troisdorf, Stadt","type":"Stadt"},"district":{"key":"05382","name":"Rhein-Sieg-Kreis","type":"Kreis"},"federalState":{"key":"05","name":"Nordrhein-Westfalen"}},{"name":"Langeler Ring","postalCode":"53842","locality":"Troisdorf","municipality":{"key":"05382068","name":"Troisdorf, Stadt","type":"Stadt"},"district":{"key":"05382","name":"Rhein-Sieg-Kreis","type":"Kreis"},"federalState":{"key":"05","name":"Nordrhein-Westfalen"}},{"name":"Langemarckstr.","postalCode":"53840","locality":"Troisdorf","municipality":{"key":"05382068","name":"Troisdorf, Stadt","type":"Stadt"},"district":{"key":"05382","name":"Rhein-Sieg-Kreis","type":"Kreis"},"federalState":{"key":"05","name":"Nordrhein-Westfalen"}},{"name":"Langenstr.","postalCode":"53840","locality":"Troisdorf","municipality":{"key":"05382068","name":"Troisdorf, Stadt","type":"Stadt"},"district":{"key":"05382","name":"Rhein-Sieg-Kreis","type":"Kreis"},"federalState":{"key":"05","name":"Nordrhein-Westfalen"}},{"name":"Längsbroich","postalCode":"53842","locality":"Troisdorf","municipality":{"key":"05382068","name":"Troisdorf, Stadt","type":"Stadt"},"district":{"key":"05382","name":"Rhein-Sieg-Kreis","type":"Kreis"},"federalState":{"key":"05","name":"Nordrhein-Westfalen"}},{"name":"Lärchenweg","postalCode":"53842","locality":"Troisdorf","municipality":{"key":"05382068","name":"Troisdorf, Stadt","type":"Stadt"},"district":{"key":"05382","name":"Rhein-Sieg-Kreis","type":"Kreis"},"federalState":{"key":"05","name":"Nordrhein-Westfalen"}},{"name":"Larstr.","postalCode":"53844","locality":"Troisdorf","municipality":{"key":"05382068","name":"Troisdorf, Stadt","type":"Stadt"},"district":{"key":"05382","name":"Rhein-Sieg-Kreis","type":"Kreis"},"federalState":{"key":"05","name":"Nordrhein-Westfalen"}},{"name":"Laubweg","postalCode":"53842","locality":"Troisdorf","municipality":{"key":"05382068","name":"Troisdorf, Stadt","type":"Stadt"},"district":{"key":"05382","name":"Rhein-Sieg-Kreis","type":"Kreis"},"federalState":{"key":"05","name":"Nordrhein-Westfalen"}},{"name":"Lavendelweg","postalCode":"53840","locality":"Troisdorf","municipality":{"key":"05382068","name":"Troisdorf, Stadt","type":"Stadt"},"district":{"key":"05382","name":"Rhein-Sieg-Kreis","type":"Kreis"},"federalState":{"key":"05","name":"Nordrhein-Westfalen"}},{"name":"Lechfeld","postalCode":"53844","locality":"Troisdorf","municipality":{"key":"05382068","name":"Troisdorf, Stadt","type":"Stadt"},"district":{"key":"05382","name":"Rhein-Sieg-Kreis","type":"Kreis"},"federalState":{"key":"05","name":"Nordrhein-Westfalen"}},{"name":"Lehmannstr.","postalCode":"53842","locality":"Troisdorf","municipality":{"key":"05382068","name":"Troisdorf, Stadt","type":"Stadt"},"district":{"key":"05382","name":"Rhein-Sieg-Kreis","type":"Kreis"},"federalState":{"key":"05","name":"Nordrhein-Westfalen"}},{"name":"Lehmkuhler Str.","postalCode":"53844","locality":"Troisdorf","municipality":{"key":"05382068","name":"Troisdorf, Stadt","type":"Stadt"},"district":{"key":"05382","name":"Rhein-Sieg-Kreis","type":"Kreis"},"federalState":{"key":"05","name":"Nordrhein-Westfalen"}},{"name":"Lenaustr.","postalCode":"53842","locality":"Troisdorf","municipality":{"key":"05382068","name":"Troisdorf, Stadt","type":"Stadt"},"district":{"key":"05382","name":"Rhein-Sieg-Kreis","type":"Kreis"},"federalState":{"key":"05","name":"Nordrhein-Westfalen"}},{"name":"Leostr.","postalCode":"53844","locality":"Troisdorf","municipality":{"key":"05382068","name":"Troisdorf, Stadt","type":"Stadt"},"district":{"key":"05382","name":"Rhein-Sieg-Kreis","type":"Kreis"},"federalState":{"key":"05","name":"Nordrhein-Westfalen"}},{"name":"Lessingstr.","postalCode":"53844","locality":"Troisdorf","municipality":{"key":"05382068","name":"Troisdorf, Stadt","type":"Stadt"},"district":{"key":"05382","name":"Rhein-Sieg-Kreis","type":"Kreis"},"federalState":{"key":"05","name":"Nordrhein-Westfalen"}},{"name":"Leyenweiherstr.","postalCode":"53840","locality":"Troisdorf","municipality":{"key":"05382068","name":"Troisdorf, Stadt","type":"Stadt"},"district":{"key":"05382","name":"Rhein-Sieg-Kreis","type":"Kreis"},"federalState":{"key":"05","name":"Nordrhein-Westfalen"}},{"name":"Liegnitzer Str.","postalCode":"53842","locality":"Troisdorf","municipality":{"key":"05382068","name":"Troisdorf, Stadt","type":"Stadt"},"district":{"key":"05382","name":"Rhein-Sieg-Kreis","type":"Kreis"},"federalState":{"key":"05","name":"Nordrhein-Westfalen"}},{"name":"Lilienweg","postalCode":"53840","locality":"Troisdorf","municipality":{"key":"05382068","name":"Troisdorf, Stadt","type":"Stadt"},"district":{"key":"05382","name":"Rhein-Sieg-Kreis","type":"Kreis"},"federalState":{"key":"05","name":"Nordrhein-Westfalen"}},{"name":"Lindenallee","postalCode":"53842","locality":"Troisdorf","municipality":{"key":"05382068","name":"Troisdorf, Stadt","type":"Stadt"},"district":{"key":"05382","name":"Rhein-Sieg-Kreis","type":"Kreis"},"federalState":{"key":"05","name":"Nordrhein-Westfalen"}},{"name":"Lindenstr.","postalCode":"53842","locality":"Troisdorf","municipality":{"key":"05382068","name":"Troisdorf, Stadt","type":"Stadt"},"district":{"key":"05382","name":"Rhein-Sieg-Kreis","type":"Kreis"},"federalState":{"key":"05","name":"Nordrhein-Westfalen"}},{"name":"Linder Mauspfad","postalCode":"53842","locality":"Troisdorf","municipality":{"key":"05382068","name":"Troisdorf, Stadt","type":"Stadt"},"district":{"key":"05382","name":"Rhein-Sieg-Kreis","type":"Kreis"},"federalState":{"key":"05","name":"Nordrhein-Westfalen"}},{"name":"Linder Str.","postalCode":"53842","locality":"Troisdorf","municipality":{"key":"05382068","name":"Troisdorf, Stadt","type":"Stadt"},"district":{"key":"05382","name":"Rhein-Sieg-Kreis","type":"Kreis"},"federalState":{"key":"05","name":"Nordrhein-Westfalen"}},{"name":"Lindlaustr.","postalCode":"53842","locality":"Troisdorf","municipality":{"key":"05382068","name":"Troisdorf, Stadt","type":"Stadt"},"district":{"key":"05382","name":"Rhein-Sieg-Kreis","type":"Kreis"},"federalState":{"key":"05","name":"Nordrhein-Westfalen"}},{"name":"Lochnerstr.","postalCode":"53844","locality":"Troisdorf","municipality":{"key":"05382068","name":"Troisdorf, Stadt","type":"Stadt"},"district":{"key":"05382","name":"Rhein-Sieg-Kreis","type":"Kreis"},"federalState":{"key":"05","name":"Nordrhein-Westfalen"}},{"name":"Lohmarer Str.","postalCode":"53840","locality":"Troisdorf","municipality":{"key":"05382068","name":"Troisdorf, Stadt","type":"Stadt"},"district":{"key":"05382","name":"Rhein-Sieg-Kreis","type":"Kreis"},"federalState":{"key":"05","name":"Nordrhein-Westfalen"}},{"name":"Lohrbergstr.","postalCode":"53844","locality":"Troisdorf","municipality":{"key":"05382068","name":"Troisdorf, Stadt","type":"Stadt"},"district":{"key":"05382","name":"Rhein-Sieg-Kreis","type":"Kreis"},"federalState":{"key":"05","name":"Nordrhein-Westfalen"}},{"name":"Lorenbahntrasse","postalCode":"53842","locality":"Troisdorf","municipality":{"key":"05382068","name":"Troisdorf, Stadt","type":"Stadt"},"district":{"key":"05382","name":"Rhein-Sieg-Kreis","type":"Kreis"},"federalState":{"key":"05","name":"Nordrhein-Westfalen"}},{"name":"Lortzingstr.","postalCode":"53844","locality":"Troisdorf","municipality":{"key":"05382068","name":"Troisdorf, Stadt","type":"Stadt"},"district":{"key":"05382","name":"Rhein-Sieg-Kreis","type":"Kreis"},"federalState":{"key":"05","name":"Nordrhein-Westfalen"}},{"name":"Louis-Mannstaedt-Str.","postalCode":"53840","locality":"Troisdorf","municipality":{"key":"05382068","name":"Troisdorf, Stadt","type":"Stadt"},"district":{"key":"05382","name":"Rhein-Sieg-Kreis","type":"Kreis"},"federalState":{"key":"05","name":"Nordrhein-Westfalen"}},{"name":"Löwenburgstr.","postalCode":"53844","locality":"Troisdorf","municipality":{"key":"05382068","name":"Troisdorf, Stadt","type":"Stadt"},"district":{"key":"05382","name":"Rhein-Sieg-Kreis","type":"Kreis"},"federalState":{"key":"05","name":"Nordrhein-Westfalen"}},{"name":"Lübecker Weg","postalCode":"53844","locality":"Troisdorf","municipality":{"key":"05382068","name":"Troisdorf, Stadt","type":"Stadt"},"district":{"key":"05382","name":"Rhein-Sieg-Kreis","type":"Kreis"},"federalState":{"key":"05","name":"Nordrhein-Westfalen"}},{"name":"Lucasstr.","postalCode":"53844","locality":"Troisdorf","municipality":{"key":"05382068","name":"Troisdorf, Stadt","type":"Stadt"},"district":{"key":"05382","name":"Rhein-Sieg-Kreis","type":"Kreis"},"federalState":{"key":"05","name":"Nordrhein-Westfalen"}},{"name":"Luisenstr.","postalCode":"53840","locality":"Troisdorf","municipality":{"key":"05382068","name":"Troisdorf, Stadt","type":"Stadt"},"district":{"key":"05382","name":"Rhein-Sieg-Kreis","type":"Kreis"},"federalState":{"key":"05","name":"Nordrhein-Westfalen"}},{"name":"Luisenstr.","postalCode":"53842","locality":"Troisdorf","municipality":{"key":"05382068","name":"Troisdorf, Stadt","type":"Stadt"},"district":{"key":"05382","name":"Rhein-Sieg-Kreis","type":"Kreis"},"federalState":{"key":"05","name":"Nordrhein-Westfalen"}},{"name":"Luise-Otto-Str.","postalCode":"53840","locality":"Troisdorf","municipality":{"key":"05382068","name":"Troisdorf, Stadt","type":"Stadt"},"district":{"key":"05382","name":"Rhein-Sieg-Kreis","type":"Kreis"},"federalState":{"key":"05","name":"Nordrhein-Westfalen"}},{"name":"Luise-Schröder-Str.","postalCode":"53844","locality":"Troisdorf","municipality":{"key":"05382068","name":"Troisdorf, Stadt","type":"Stadt"},"district":{"key":"05382","name":"Rhein-Sieg-Kreis","type":"Kreis"},"federalState":{"key":"05","name":"Nordrhein-Westfalen"}},{"name":"Lülsdorfer Str.","postalCode":"53842","locality":"Troisdorf","municipality":{"key":"05382068","name":"Troisdorf, Stadt","type":"Stadt"},"district":{"key":"05382","name":"Rhein-Sieg-Kreis","type":"Kreis"},"federalState":{"key":"05","name":"Nordrhein-Westfalen"}},{"name":"Lupinenweg","postalCode":"53840","locality":"Troisdorf","municipality":{"key":"05382068","name":"Troisdorf, Stadt","type":"Stadt"},"district":{"key":"05382","name":"Rhein-Sieg-Kreis","type":"Kreis"},"federalState":{"key":"05","name":"Nordrhein-Westfalen"}},{"name":"Lürmannstr.","postalCode":"53840","locality":"Troisdorf","municipality":{"key":"05382068","name":"Troisdorf, Stadt","type":"Stadt"},"district":{"key":"05382","name":"Rhein-Sieg-Kreis","type":"Kreis"},"federalState":{"key":"05","name":"Nordrhein-Westfalen"}},{"name":"Lütticher Str.","postalCode":"53842","locality":"Troisdorf","municipality":{"key":"05382068","name":"Troisdorf, Stadt","type":"Stadt"},"district":{"key":"05382","name":"Rhein-Sieg-Kreis","type":"Kreis"},"federalState":{"key":"05","name":"Nordrhein-Westfalen"}},{"name":"Luxemburger Str.","postalCode":"53842","locality":"Troisdorf","municipality":{"key":"05382068","name":"Troisdorf, Stadt","type":"Stadt"},"district":{"key":"05382","name":"Rhein-Sieg-Kreis","type":"Kreis"},"federalState":{"key":"05","name":"Nordrhein-Westfalen"}},{"name":"Maarstr.","postalCode":"53842","locality":"Troisdorf","municipality":{"key":"05382068","name":"Troisdorf, Stadt","type":"Stadt"},"district":{"key":"05382","name":"Rhein-Sieg-Kreis","type":"Kreis"},"federalState":{"key":"05","name":"Nordrhein-Westfalen"}},{"name":"Magdalenenstr.","postalCode":"53842","locality":"Troisdorf","municipality":{"key":"05382068","name":"Troisdorf, Stadt","type":"Stadt"},"district":{"key":"05382","name":"Rhein-Sieg-Kreis","type":"Kreis"},"federalState":{"key":"05","name":"Nordrhein-Westfalen"}},{"name":"Maienstr.","postalCode":"53840","locality":"Troisdorf","municipality":{"key":"05382068","name":"Troisdorf, Stadt","type":"Stadt"},"district":{"key":"05382","name":"Rhein-Sieg-Kreis","type":"Kreis"},"federalState":{"key":"05","name":"Nordrhein-Westfalen"}},{"name":"Margareta-Stelten-Str.","postalCode":"53844","locality":"Troisdorf","municipality":{"key":"05382068","name":"Troisdorf, Stadt","type":"Stadt"},"district":{"key":"05382","name":"Rhein-Sieg-Kreis","type":"Kreis"},"federalState":{"key":"05","name":"Nordrhein-Westfalen"}},{"name":"Maria-Juchacz-Str.","postalCode":"53840","locality":"Troisdorf","municipality":{"key":"05382068","name":"Troisdorf, Stadt","type":"Stadt"},"district":{"key":"05382","name":"Rhein-Sieg-Kreis","type":"Kreis"},"federalState":{"key":"05","name":"Nordrhein-Westfalen"}},{"name":"Marie-Lene-Rödder-Str.","postalCode":"53840","locality":"Troisdorf","municipality":{"key":"05382068","name":"Troisdorf, Stadt","type":"Stadt"},"district":{"key":"05382","name":"Rhein-Sieg-Kreis","type":"Kreis"},"federalState":{"key":"05","name":"Nordrhein-Westfalen"}},{"name":"Marienburgstr.","postalCode":"53840","locality":"Troisdorf","municipality":{"key":"05382068","name":"Troisdorf, Stadt","type":"Stadt"},"district":{"key":"05382","name":"Rhein-Sieg-Kreis","type":"Kreis"},"federalState":{"key":"05","name":"Nordrhein-Westfalen"}},{"name":"Marienstr.","postalCode":"53842","locality":"Troisdorf","municipality":{"key":"05382068","name":"Troisdorf, Stadt","type":"Stadt"},"district":{"key":"05382","name":"Rhein-Sieg-Kreis","type":"Kreis"},"federalState":{"key":"05","name":"Nordrhein-Westfalen"}},{"name":"Marktplatz","postalCode":"53844","locality":"Troisdorf","municipality":{"key":"05382068","name":"Troisdorf, Stadt","type":"Stadt"},"district":{"key":"05382","name":"Rhein-Sieg-Kreis","type":"Kreis"},"federalState":{"key":"05","name":"Nordrhein-Westfalen"}},{"name":"Markusstr.","postalCode":"53844","locality":"Troisdorf","municipality":{"key":"05382068","name":"Troisdorf, Stadt","type":"Stadt"},"district":{"key":"05382","name":"Rhein-Sieg-Kreis","type":"Kreis"},"federalState":{"key":"05","name":"Nordrhein-Westfalen"}},{"name":"Marmorstr.","postalCode":"53840","locality":"Troisdorf","municipality":{"key":"05382068","name":"Troisdorf, Stadt","type":"Stadt"},"district":{"key":"05382","name":"Rhein-Sieg-Kreis","type":"Kreis"},"federalState":{"key":"05","name":"Nordrhein-Westfalen"}},{"name":"Martin-Luther-Str.","postalCode":"53844","locality":"Troisdorf","municipality":{"key":"05382068","name":"Troisdorf, Stadt","type":"Stadt"},"district":{"key":"05382","name":"Rhein-Sieg-Kreis","type":"Kreis"},"federalState":{"key":"05","name":"Nordrhein-Westfalen"}},{"name":"Martinstr.","postalCode":"53840","locality":"Troisdorf","municipality":{"key":"05382068","name":"Troisdorf, Stadt","type":"Stadt"},"district":{"key":"05382","name":"Rhein-Sieg-Kreis","type":"Kreis"},"federalState":{"key":"05","name":"Nordrhein-Westfalen"}},{"name":"Matthias-Langen-Str.","postalCode":"53840","locality":"Troisdorf","municipality":{"key":"05382068","name":"Troisdorf, Stadt","type":"Stadt"},"district":{"key":"05382","name":"Rhein-Sieg-Kreis","type":"Kreis"},"federalState":{"key":"05","name":"Nordrhein-Westfalen"}},{"name":"Mauspfad","postalCode":"53842","locality":"Troisdorf","municipality":{"key":"05382068","name":"Troisdorf, Stadt","type":"Stadt"},"district":{"key":"05382","name":"Rhein-Sieg-Kreis","type":"Kreis"},"federalState":{"key":"05","name":"Nordrhein-Westfalen"}},{"name":"Max-Ernst-Str.","postalCode":"53844","locality":"Troisdorf","municipality":{"key":"05382068","name":"Troisdorf, Stadt","type":"Stadt"},"district":{"key":"05382","name":"Rhein-Sieg-Kreis","type":"Kreis"},"federalState":{"key":"05","name":"Nordrhein-Westfalen"}},{"name":"Max-Hirsch-Str.","postalCode":"53844","locality":"Troisdorf","municipality":{"key":"05382068","name":"Troisdorf, Stadt","type":"Stadt"},"district":{"key":"05382","name":"Rhein-Sieg-Kreis","type":"Kreis"},"federalState":{"key":"05","name":"Nordrhein-Westfalen"}},{"name":"Max-Planck-Str.","postalCode":"53842","locality":"Troisdorf","municipality":{"key":"05382068","name":"Troisdorf, Stadt","type":"Stadt"},"district":{"key":"05382","name":"Rhein-Sieg-Kreis","type":"Kreis"},"federalState":{"key":"05","name":"Nordrhein-Westfalen"}},{"name":"Meindorfer Allee","postalCode":"53844","locality":"Troisdorf","municipality":{"key":"05382068","name":"Troisdorf, Stadt","type":"Stadt"},"district":{"key":"05382","name":"Rhein-Sieg-Kreis","type":"Kreis"},"federalState":{"key":"05","name":"Nordrhein-Westfalen"}},{"name":"Meindorfer Str.","postalCode":"53844","locality":"Troisdorf","municipality":{"key":"05382068","name":"Troisdorf, Stadt","type":"Stadt"},"district":{"key":"05382","name":"Rhein-Sieg-Kreis","type":"Kreis"},"federalState":{"key":"05","name":"Nordrhein-Westfalen"}},{"name":"Meisenweg","postalCode":"53844","locality":"Troisdorf","municipality":{"key":"05382068","name":"Troisdorf, Stadt","type":"Stadt"},"district":{"key":"05382","name":"Rhein-Sieg-Kreis","type":"Kreis"},"federalState":{"key":"05","name":"Nordrhein-Westfalen"}},{"name":"Mendener Str.","postalCode":"53840","locality":"Troisdorf","municipality":{"key":"05382068","name":"Troisdorf, Stadt","type":"Stadt"},"district":{"key":"05382","name":"Rhein-Sieg-Kreis","type":"Kreis"},"federalState":{"key":"05","name":"Nordrhein-Westfalen"}},{"name":"Mendener Str.","postalCode":"53842","locality":"Troisdorf","municipality":{"key":"05382068","name":"Troisdorf, Stadt","type":"Stadt"},"district":{"key":"05382","name":"Rhein-Sieg-Kreis","type":"Kreis"},"federalState":{"key":"05","name":"Nordrhein-Westfalen"}},{"name":"Merkurweg","postalCode":"53842","locality":"Troisdorf","municipality":{"key":"05382068","name":"Troisdorf, Stadt","type":"Stadt"},"district":{"key":"05382","name":"Rhein-Sieg-Kreis","type":"Kreis"},"federalState":{"key":"05","name":"Nordrhein-Westfalen"}},{"name":"Michelangeloplatz","postalCode":"53844","locality":"Troisdorf","municipality":{"key":"05382068","name":"Troisdorf, Stadt","type":"Stadt"},"district":{"key":"05382","name":"Rhein-Sieg-Kreis","type":"Kreis"},"federalState":{"key":"05","name":"Nordrhein-Westfalen"}},{"name":"Mirabellengarten","postalCode":"53844","locality":"Troisdorf","municipality":{"key":"05382068","name":"Troisdorf, Stadt","type":"Stadt"},"district":{"key":"05382","name":"Rhein-Sieg-Kreis","type":"Kreis"},"federalState":{"key":"05","name":"Nordrhein-Westfalen"}},{"name":"Moltkestr.","postalCode":"53842","locality":"Troisdorf","municipality":{"key":"05382068","name":"Troisdorf, Stadt","type":"Stadt"},"district":{"key":"05382","name":"Rhein-Sieg-Kreis","type":"Kreis"},"federalState":{"key":"05","name":"Nordrhein-Westfalen"}},{"name":"Mondorfer Str.","postalCode":"53844","locality":"Troisdorf","municipality":{"key":"05382068","name":"Troisdorf, Stadt","type":"Stadt"},"district":{"key":"05382","name":"Rhein-Sieg-Kreis","type":"Kreis"},"federalState":{"key":"05","name":"Nordrhein-Westfalen"}},{"name":"Monsignore-Bollenbach-Str.","postalCode":"53844","locality":"Troisdorf","municipality":{"key":"05382068","name":"Troisdorf, Stadt","type":"Stadt"},"district":{"key":"05382","name":"Rhein-Sieg-Kreis","type":"Kreis"},"federalState":{"key":"05","name":"Nordrhein-Westfalen"}},{"name":"Moosbeerenweg","postalCode":"53842","locality":"Troisdorf","municipality":{"key":"05382068","name":"Troisdorf, Stadt","type":"Stadt"},"district":{"key":"05382","name":"Rhein-Sieg-Kreis","type":"Kreis"},"federalState":{"key":"05","name":"Nordrhein-Westfalen"}},{"name":"Mörikestr.","postalCode":"53844","locality":"Troisdorf","municipality":{"key":"05382068","name":"Troisdorf, Stadt","type":"Stadt"},"district":{"key":"05382","name":"Rhein-Sieg-Kreis","type":"Kreis"},"federalState":{"key":"05","name":"Nordrhein-Westfalen"}},{"name":"Moselstr.","postalCode":"53842","locality":"Troisdorf","municipality":{"key":"05382068","name":"Troisdorf, Stadt","type":"Stadt"},"district":{"key":"05382","name":"Rhein-Sieg-Kreis","type":"Kreis"},"federalState":{"key":"05","name":"Nordrhein-Westfalen"}},{"name":"Mottmannstr.","postalCode":"53842","locality":"Troisdorf","municipality":{"key":"05382068","name":"Troisdorf, Stadt","type":"Stadt"},"district":{"key":"05382","name":"Rhein-Sieg-Kreis","type":"Kreis"},"federalState":{"key":"05","name":"Nordrhein-Westfalen"}},{"name":"Mozartstr.","postalCode":"53842","locality":"Troisdorf","municipality":{"key":"05382068","name":"Troisdorf, Stadt","type":"Stadt"},"district":{"key":"05382","name":"Rhein-Sieg-Kreis","type":"Kreis"},"federalState":{"key":"05","name":"Nordrhein-Westfalen"}},{"name":"Mühlenstr.","postalCode":"53844","locality":"Troisdorf","municipality":{"key":"05382068","name":"Troisdorf, Stadt","type":"Stadt"},"district":{"key":"05382","name":"Rhein-Sieg-Kreis","type":"Kreis"},"federalState":{"key":"05","name":"Nordrhein-Westfalen"}},{"name":"Mülheimer Str.","postalCode":"53840","locality":"Troisdorf","municipality":{"key":"05382068","name":"Troisdorf, Stadt","type":"Stadt"},"district":{"key":"05382","name":"Rhein-Sieg-Kreis","type":"Kreis"},"federalState":{"key":"05","name":"Nordrhein-Westfalen"}},{"name":"Müllekovener Str.","postalCode":"53844","locality":"Troisdorf","municipality":{"key":"05382068","name":"Troisdorf, Stadt","type":"Stadt"},"district":{"key":"05382","name":"Rhein-Sieg-Kreis","type":"Kreis"},"federalState":{"key":"05","name":"Nordrhein-Westfalen"}},{"name":"Nahestr.","postalCode":"53840","locality":"Troisdorf","municipality":{"key":"05382068","name":"Troisdorf, Stadt","type":"Stadt"},"district":{"key":"05382","name":"Rhein-Sieg-Kreis","type":"Kreis"},"federalState":{"key":"05","name":"Nordrhein-Westfalen"}},{"name":"Narzissenhof","postalCode":"53840","locality":"Troisdorf","municipality":{"key":"05382068","name":"Troisdorf, Stadt","type":"Stadt"},"district":{"key":"05382","name":"Rhein-Sieg-Kreis","type":"Kreis"},"federalState":{"key":"05","name":"Nordrhein-Westfalen"}},{"name":"Nelkenstr.","postalCode":"53840","locality":"Troisdorf","municipality":{"key":"05382068","name":"Troisdorf, Stadt","type":"Stadt"},"district":{"key":"05382","name":"Rhein-Sieg-Kreis","type":"Kreis"},"federalState":{"key":"05","name":"Nordrhein-Westfalen"}},{"name":"Nelson-Mandela-Str.","postalCode":"53840","locality":"Troisdorf","municipality":{"key":"05382068","name":"Troisdorf, Stadt","type":"Stadt"},"district":{"key":"05382","name":"Rhein-Sieg-Kreis","type":"Kreis"},"federalState":{"key":"05","name":"Nordrhein-Westfalen"}},{"name":"Neue Str.","postalCode":"53840","locality":"Troisdorf","municipality":{"key":"05382068","name":"Troisdorf, Stadt","type":"Stadt"},"district":{"key":"05382","name":"Rhein-Sieg-Kreis","type":"Kreis"},"federalState":{"key":"05","name":"Nordrhein-Westfalen"}},{"name":"Niederkasseler Str.","postalCode":"53842","locality":"Troisdorf","municipality":{"key":"05382068","name":"Troisdorf, Stadt","type":"Stadt"},"district":{"key":"05382","name":"Rhein-Sieg-Kreis","type":"Kreis"},"federalState":{"key":"05","name":"Nordrhein-Westfalen"}},{"name":"Niederkasseler Str.","postalCode":"53844","locality":"Troisdorf","municipality":{"key":"05382068","name":"Troisdorf, Stadt","type":"Stadt"},"district":{"key":"05382","name":"Rhein-Sieg-Kreis","type":"Kreis"},"federalState":{"key":"05","name":"Nordrhein-Westfalen"}},{"name":"Niedersachsenweg","postalCode":"53844","locality":"Troisdorf","municipality":{"key":"05382068","name":"Troisdorf, Stadt","type":"Stadt"},"district":{"key":"05382","name":"Rhein-Sieg-Kreis","type":"Kreis"},"federalState":{"key":"05","name":"Nordrhein-Westfalen"}},{"name":"Noldestr.","postalCode":"53844","locality":"Troisdorf","municipality":{"key":"05382068","name":"Troisdorf, Stadt","type":"Stadt"},"district":{"key":"05382","name":"Rhein-Sieg-Kreis","type":"Kreis"},"federalState":{"key":"05","name":"Nordrhein-Westfalen"}},{"name":"Nordstr.","postalCode":"53840","locality":"Troisdorf","municipality":{"key":"05382068","name":"Troisdorf, Stadt","type":"Stadt"},"district":{"key":"05382","name":"Rhein-Sieg-Kreis","type":"Kreis"},"federalState":{"key":"05","name":"Nordrhein-Westfalen"}},{"name":"Nürburgstr.","postalCode":"53842","locality":"Troisdorf","municipality":{"key":"05382068","name":"Troisdorf, Stadt","type":"Stadt"},"district":{"key":"05382","name":"Rhein-Sieg-Kreis","type":"Kreis"},"federalState":{"key":"05","name":"Nordrhein-Westfalen"}},{"name":"Oberlarer Platz","postalCode":"53842","locality":"Troisdorf","municipality":{"key":"05382068","name":"Troisdorf, Stadt","type":"Stadt"},"district":{"key":"05382","name":"Rhein-Sieg-Kreis","type":"Kreis"},"federalState":{"key":"05","name":"Nordrhein-Westfalen"}},{"name":"Oberlarer Str.","postalCode":"53842","locality":"Troisdorf","municipality":{"key":"05382068","name":"Troisdorf, Stadt","type":"Stadt"},"district":{"key":"05382","name":"Rhein-Sieg-Kreis","type":"Kreis"},"federalState":{"key":"05","name":"Nordrhein-Westfalen"}},{"name":"Oberstr.","postalCode":"53844","locality":"Troisdorf","municipality":{"key":"05382068","name":"Troisdorf, Stadt","type":"Stadt"},"district":{"key":"05382","name":"Rhein-Sieg-Kreis","type":"Kreis"},"federalState":{"key":"05","name":"Nordrhein-Westfalen"}},{"name":"Offenbachstr.","postalCode":"53844","locality":"Troisdorf","municipality":{"key":"05382068","name":"Troisdorf, Stadt","type":"Stadt"},"district":{"key":"05382","name":"Rhein-Sieg-Kreis","type":"Kreis"},"federalState":{"key":"05","name":"Nordrhein-Westfalen"}},{"name":"Ohmstr.","postalCode":"53840","locality":"Troisdorf","municipality":{"key":"05382068","name":"Troisdorf, Stadt","type":"Stadt"},"district":{"key":"05382","name":"Rhein-Sieg-Kreis","type":"Kreis"},"federalState":{"key":"05","name":"Nordrhein-Westfalen"}},{"name":"Oleanderweg","postalCode":"53840","locality":"Troisdorf","municipality":{"key":"05382068","name":"Troisdorf, Stadt","type":"Stadt"},"district":{"key":"05382","name":"Rhein-Sieg-Kreis","type":"Kreis"},"federalState":{"key":"05","name":"Nordrhein-Westfalen"}},{"name":"Orchideenpfad","postalCode":"53840","locality":"Troisdorf","municipality":{"key":"05382068","name":"Troisdorf, Stadt","type":"Stadt"},"district":{"key":"05382","name":"Rhein-Sieg-Kreis","type":"Kreis"},"federalState":{"key":"05","name":"Nordrhein-Westfalen"}},{"name":"Orchideenplatz","postalCode":"53840","locality":"Troisdorf","municipality":{"key":"05382068","name":"Troisdorf, Stadt","type":"Stadt"},"district":{"key":"05382","name":"Rhein-Sieg-Kreis","type":"Kreis"},"federalState":{"key":"05","name":"Nordrhein-Westfalen"}},{"name":"Otto-Hahn-Str.","postalCode":"53842","locality":"Troisdorf","municipality":{"key":"05382068","name":"Troisdorf, Stadt","type":"Stadt"},"district":{"key":"05382","name":"Rhein-Sieg-Kreis","type":"Kreis"},"federalState":{"key":"05","name":"Nordrhein-Westfalen"}},{"name":"Otto-Wels-Str.","postalCode":"53840","locality":"Troisdorf","municipality":{"key":"05382068","name":"Troisdorf, Stadt","type":"Stadt"},"district":{"key":"05382","name":"Rhein-Sieg-Kreis","type":"Kreis"},"federalState":{"key":"05","name":"Nordrhein-Westfalen"}},{"name":"Pacellistr.","postalCode":"53840","locality":"Troisdorf","municipality":{"key":"05382068","name":"Troisdorf, Stadt","type":"Stadt"},"district":{"key":"05382","name":"Rhein-Sieg-Kreis","type":"Kreis"},"federalState":{"key":"05","name":"Nordrhein-Westfalen"}},{"name":"Pänzelsgarten","postalCode":"53844","locality":"Troisdorf","municipality":{"key":"05382068","name":"Troisdorf, Stadt","type":"Stadt"},"district":{"key":"05382","name":"Rhein-Sieg-Kreis","type":"Kreis"},"federalState":{"key":"05","name":"Nordrhein-Westfalen"}},{"name":"Parkstr.","postalCode":"53840","locality":"Troisdorf","municipality":{"key":"05382068","name":"Troisdorf, Stadt","type":"Stadt"},"district":{"key":"05382","name":"Rhein-Sieg-Kreis","type":"Kreis"},"federalState":{"key":"05","name":"Nordrhein-Westfalen"}},{"name":"Parsevalstr.","postalCode":"53842","locality":"Troisdorf","municipality":{"key":"05382068","name":"Troisdorf, Stadt","type":"Stadt"},"district":{"key":"05382","name":"Rhein-Sieg-Kreis","type":"Kreis"},"federalState":{"key":"05","name":"Nordrhein-Westfalen"}},{"name":"Pascalstr.","postalCode":"53840","locality":"Troisdorf","municipality":{"key":"05382068","name":"Troisdorf, Stadt","type":"Stadt"},"district":{"key":"05382","name":"Rhein-Sieg-Kreis","type":"Kreis"},"federalState":{"key":"05","name":"Nordrhein-Westfalen"}},{"name":"Pastor-Böhm-Str.","postalCode":"53844","locality":"Troisdorf","municipality":{"key":"05382068","name":"Troisdorf, Stadt","type":"Stadt"},"district":{"key":"05382","name":"Rhein-Sieg-Kreis","type":"Kreis"},"federalState":{"key":"05","name":"Nordrhein-Westfalen"}},{"name":"Pastor-Hellen-Str.","postalCode":"53844","locality":"Troisdorf","municipality":{"key":"05382068","name":"Troisdorf, Stadt","type":"Stadt"},"district":{"key":"05382","name":"Rhein-Sieg-Kreis","type":"Kreis"},"federalState":{"key":"05","name":"Nordrhein-Westfalen"}},{"name":"Pastorsbitze","postalCode":"53844","locality":"Troisdorf","municipality":{"key":"05382068","name":"Troisdorf, Stadt","type":"Stadt"},"district":{"key":"05382","name":"Rhein-Sieg-Kreis","type":"Kreis"},"federalState":{"key":"05","name":"Nordrhein-Westfalen"}},{"name":"Pastorserlen","postalCode":"53844","locality":"Troisdorf","municipality":{"key":"05382068","name":"Troisdorf, Stadt","type":"Stadt"},"district":{"key":"05382","name":"Rhein-Sieg-Kreis","type":"Kreis"},"federalState":{"key":"05","name":"Nordrhein-Westfalen"}},{"name":"Pastor-Willems-Str.","postalCode":"53842","locality":"Troisdorf","municipality":{"key":"05382068","name":"Troisdorf, Stadt","type":"Stadt"},"district":{"key":"05382","name":"Rhein-Sieg-Kreis","type":"Kreis"},"federalState":{"key":"05","name":"Nordrhein-Westfalen"}},{"name":"Paul-Keller-Str.","postalCode":"53840","locality":"Troisdorf","municipality":{"key":"05382068","name":"Troisdorf, Stadt","type":"Stadt"},"district":{"key":"05382","name":"Rhein-Sieg-Kreis","type":"Kreis"},"federalState":{"key":"05","name":"Nordrhein-Westfalen"}},{"name":"Paul-Müller-Str.","postalCode":"53840","locality":"Troisdorf","municipality":{"key":"05382068","name":"Troisdorf, Stadt","type":"Stadt"},"district":{"key":"05382","name":"Rhein-Sieg-Kreis","type":"Kreis"},"federalState":{"key":"05","name":"Nordrhein-Westfalen"}},{"name":"Paul-Schmetkamp-Str.","postalCode":"53842","locality":"Troisdorf","municipality":{"key":"05382068","name":"Troisdorf, Stadt","type":"Stadt"},"district":{"key":"05382","name":"Rhein-Sieg-Kreis","type":"Kreis"},"federalState":{"key":"05","name":"Nordrhein-Westfalen"}},{"name":"Pestalozzistr.","postalCode":"53842","locality":"Troisdorf","municipality":{"key":"05382068","name":"Troisdorf, Stadt","type":"Stadt"},"district":{"key":"05382","name":"Rhein-Sieg-Kreis","type":"Kreis"},"federalState":{"key":"05","name":"Nordrhein-Westfalen"}},{"name":"Peter-Klöckner-Str.","postalCode":"53842","locality":"Troisdorf","municipality":{"key":"05382068","name":"Troisdorf, Stadt","type":"Stadt"},"district":{"key":"05382","name":"Rhein-Sieg-Kreis","type":"Kreis"},"federalState":{"key":"05","name":"Nordrhein-Westfalen"}},{"name":"Petersbergstr.","postalCode":"53840","locality":"Troisdorf","municipality":{"key":"05382068","name":"Troisdorf, Stadt","type":"Stadt"},"district":{"key":"05382","name":"Rhein-Sieg-Kreis","type":"Kreis"},"federalState":{"key":"05","name":"Nordrhein-Westfalen"}},{"name":"Pfälzer Weg","postalCode":"53844","locality":"Troisdorf","municipality":{"key":"05382068","name":"Troisdorf, Stadt","type":"Stadt"},"district":{"key":"05382","name":"Rhein-Sieg-Kreis","type":"Kreis"},"federalState":{"key":"05","name":"Nordrhein-Westfalen"}},{"name":"Pfarrer-Kenntemich-Platz","postalCode":"53840","locality":"Troisdorf","municipality":{"key":"05382068","name":"Troisdorf, Stadt","type":"Stadt"},"district":{"key":"05382","name":"Rhein-Sieg-Kreis","type":"Kreis"},"federalState":{"key":"05","name":"Nordrhein-Westfalen"}},{"name":"Pfarrer-Theiss-Str.","postalCode":"53840","locality":"Troisdorf","municipality":{"key":"05382068","name":"Troisdorf, Stadt","type":"Stadt"},"district":{"key":"05382","name":"Rhein-Sieg-Kreis","type":"Kreis"},"federalState":{"key":"05","name":"Nordrhein-Westfalen"}},{"name":"Pfarrer-Werr-Str.","postalCode":"53842","locality":"Troisdorf","municipality":{"key":"05382068","name":"Troisdorf, Stadt","type":"Stadt"},"district":{"key":"05382","name":"Rhein-Sieg-Kreis","type":"Kreis"},"federalState":{"key":"05","name":"Nordrhein-Westfalen"}},{"name":"Pfarrer-Wünnenberg-Str.","postalCode":"53840","locality":"Troisdorf","municipality":{"key":"05382068","name":"Troisdorf, Stadt","type":"Stadt"},"district":{"key":"05382","name":"Rhein-Sieg-Kreis","type":"Kreis"},"federalState":{"key":"05","name":"Nordrhein-Westfalen"}},{"name":"Pingenweg","postalCode":"53842","locality":"Troisdorf","municipality":{"key":"05382068","name":"Troisdorf, Stadt","type":"Stadt"},"district":{"key":"05382","name":"Rhein-Sieg-Kreis","type":"Kreis"},"federalState":{"key":"05","name":"Nordrhein-Westfalen"}},{"name":"Pirolweg","postalCode":"53844","locality":"Troisdorf","municipality":{"key":"05382068","name":"Troisdorf, Stadt","type":"Stadt"},"district":{"key":"05382","name":"Rhein-Sieg-Kreis","type":"Kreis"},"federalState":{"key":"05","name":"Nordrhein-Westfalen"}},{"name":"Piusstr.","postalCode":"53842","locality":"Troisdorf","municipality":{"key":"05382068","name":"Troisdorf, Stadt","type":"Stadt"},"district":{"key":"05382","name":"Rhein-Sieg-Kreis","type":"Kreis"},"federalState":{"key":"05","name":"Nordrhein-Westfalen"}},{"name":"Planitzweg","postalCode":"53842","locality":"Troisdorf","municipality":{"key":"05382068","name":"Troisdorf, Stadt","type":"Stadt"},"district":{"key":"05382","name":"Rhein-Sieg-Kreis","type":"Kreis"},"federalState":{"key":"05","name":"Nordrhein-Westfalen"}},{"name":"Porzer Str.","postalCode":"53842","locality":"Troisdorf","municipality":{"key":"05382068","name":"Troisdorf, Stadt","type":"Stadt"},"district":{"key":"05382","name":"Rhein-Sieg-Kreis","type":"Kreis"},"federalState":{"key":"05","name":"Nordrhein-Westfalen"}},{"name":"Posener Str.","postalCode":"53842","locality":"Troisdorf","municipality":{"key":"05382068","name":"Troisdorf, Stadt","type":"Stadt"},"district":{"key":"05382","name":"Rhein-Sieg-Kreis","type":"Kreis"},"federalState":{"key":"05","name":"Nordrhein-Westfalen"}},{"name":"Poststr.","postalCode":"53840","locality":"Troisdorf","municipality":{"key":"05382068","name":"Troisdorf, Stadt","type":"Stadt"},"district":{"key":"05382","name":"Rhein-Sieg-Kreis","type":"Kreis"},"federalState":{"key":"05","name":"Nordrhein-Westfalen"}},{"name":"Pützchensweg","postalCode":"53844","locality":"Troisdorf","municipality":{"key":"05382068","name":"Troisdorf, Stadt","type":"Stadt"},"district":{"key":"05382","name":"Rhein-Sieg-Kreis","type":"Kreis"},"federalState":{"key":"05","name":"Nordrhein-Westfalen"}},{"name":"Quarzitgrubenweg","postalCode":"53842","locality":"Troisdorf","municipality":{"key":"05382068","name":"Troisdorf, Stadt","type":"Stadt"},"district":{"key":"05382","name":"Rhein-Sieg-Kreis","type":"Kreis"},"federalState":{"key":"05","name":"Nordrhein-Westfalen"}},{"name":"Rabeneichsweg","postalCode":"53842","locality":"Troisdorf","municipality":{"key":"05382068","name":"Troisdorf, Stadt","type":"Stadt"},"district":{"key":"05382","name":"Rhein-Sieg-Kreis","type":"Kreis"},"federalState":{"key":"05","name":"Nordrhein-Westfalen"}},{"name":"Rademacherweg","postalCode":"53842","locality":"Troisdorf","municipality":{"key":"05382068","name":"Troisdorf, Stadt","type":"Stadt"},"district":{"key":"05382","name":"Rhein-Sieg-Kreis","type":"Kreis"},"federalState":{"key":"05","name":"Nordrhein-Westfalen"}},{"name":"Raffaelplatz","postalCode":"53844","locality":"Troisdorf","municipality":{"key":"05382068","name":"Troisdorf, Stadt","type":"Stadt"},"district":{"key":"05382","name":"Rhein-Sieg-Kreis","type":"Kreis"},"federalState":{"key":"05","name":"Nordrhein-Westfalen"}},{"name":"Raiffeisenstr.","postalCode":"53844","locality":"Troisdorf","municipality":{"key":"05382068","name":"Troisdorf, Stadt","type":"Stadt"},"district":{"key":"05382","name":"Rhein-Sieg-Kreis","type":"Kreis"},"federalState":{"key":"05","name":"Nordrhein-Westfalen"}},{"name":"Rambusch","postalCode":"53842","locality":"Troisdorf","municipality":{"key":"05382068","name":"Troisdorf, Stadt","type":"Stadt"},"district":{"key":"05382","name":"Rhein-Sieg-Kreis","type":"Kreis"},"federalState":{"key":"05","name":"Nordrhein-Westfalen"}},{"name":"Rathausstr.","postalCode":"53844","locality":"Troisdorf","municipality":{"key":"05382068","name":"Troisdorf, Stadt","type":"Stadt"},"district":{"key":"05382","name":"Rhein-Sieg-Kreis","type":"Kreis"},"federalState":{"key":"05","name":"Nordrhein-Westfalen"}},{"name":"Ravensberger Weg","postalCode":"53840","locality":"Troisdorf","municipality":{"key":"05382068","name":"Troisdorf, Stadt","type":"Stadt"},"district":{"key":"05382","name":"Rhein-Sieg-Kreis","type":"Kreis"},"federalState":{"key":"05","name":"Nordrhein-Westfalen"}},{"name":"Redcarstr.","postalCode":"53842","locality":"Troisdorf","municipality":{"key":"05382068","name":"Troisdorf, Stadt","type":"Stadt"},"district":{"key":"05382","name":"Rhein-Sieg-Kreis","type":"Kreis"},"federalState":{"key":"05","name":"Nordrhein-Westfalen"}},{"name":"Reichensteinstr.","postalCode":"53844","locality":"Troisdorf","municipality":{"key":"05382068","name":"Troisdorf, Stadt","type":"Stadt"},"district":{"key":"05382","name":"Rhein-Sieg-Kreis","type":"Kreis"},"federalState":{"key":"05","name":"Nordrhein-Westfalen"}},{"name":"Reickstr.","postalCode":"53842","locality":"Troisdorf","municipality":{"key":"05382068","name":"Troisdorf, Stadt","type":"Stadt"},"district":{"key":"05382","name":"Rhein-Sieg-Kreis","type":"Kreis"},"federalState":{"key":"05","name":"Nordrhein-Westfalen"}},{"name":"Rembrandtstr.","postalCode":"53844","locality":"Troisdorf","municipality":{"key":"05382068","name":"Troisdorf, Stadt","type":"Stadt"},"district":{"key":"05382","name":"Rhein-Sieg-Kreis","type":"Kreis"},"federalState":{"key":"05","name":"Nordrhein-Westfalen"}},{"name":"Rheidter Str.","postalCode":"53844","locality":"Troisdorf","municipality":{"key":"05382068","name":"Troisdorf, Stadt","type":"Stadt"},"district":{"key":"05382","name":"Rhein-Sieg-Kreis","type":"Kreis"},"federalState":{"key":"05","name":"Nordrhein-Westfalen"}},{"name":"Rheindorfer Str.","postalCode":"53844","locality":"Troisdorf","municipality":{"key":"05382068","name":"Troisdorf, Stadt","type":"Stadt"},"district":{"key":"05382","name":"Rhein-Sieg-Kreis","type":"Kreis"},"federalState":{"key":"05","name":"Nordrhein-Westfalen"}},{"name":"Rheinischer Ring","postalCode":"53844","locality":"Troisdorf","municipality":{"key":"05382068","name":"Troisdorf, Stadt","type":"Stadt"},"district":{"key":"05382","name":"Rhein-Sieg-Kreis","type":"Kreis"},"federalState":{"key":"05","name":"Nordrhein-Westfalen"}},{"name":"Rheinstr.","postalCode":"53844","locality":"Troisdorf","municipality":{"key":"05382068","name":"Troisdorf, Stadt","type":"Stadt"},"district":{"key":"05382","name":"Rhein-Sieg-Kreis","type":"Kreis"},"federalState":{"key":"05","name":"Nordrhein-Westfalen"}},{"name":"Ricarda-Huch-Str.","postalCode":"53840","locality":"Troisdorf","municipality":{"key":"05382068","name":"Troisdorf, Stadt","type":"Stadt"},"district":{"key":"05382","name":"Rhein-Sieg-Kreis","type":"Kreis"},"federalState":{"key":"05","name":"Nordrhein-Westfalen"}},{"name":"Richard-Wagner-Platz","postalCode":"53840","locality":"Troisdorf","municipality":{"key":"05382068","name":"Troisdorf, Stadt","type":"Stadt"},"district":{"key":"05382","name":"Rhein-Sieg-Kreis","type":"Kreis"},"federalState":{"key":"05","name":"Nordrhein-Westfalen"}},{"name":"Richthofenstr.","postalCode":"53840","locality":"Troisdorf","municipality":{"key":"05382068","name":"Troisdorf, Stadt","type":"Stadt"},"district":{"key":"05382","name":"Rhein-Sieg-Kreis","type":"Kreis"},"federalState":{"key":"05","name":"Nordrhein-Westfalen"}},{"name":"Riemenschneiderstr.","postalCode":"53842","locality":"Troisdorf","municipality":{"key":"05382068","name":"Troisdorf, Stadt","type":"Stadt"},"district":{"key":"05382","name":"Rhein-Sieg-Kreis","type":"Kreis"},"federalState":{"key":"05","name":"Nordrhein-Westfalen"}},{"name":"Ringelsteinweg","postalCode":"53842","locality":"Troisdorf","municipality":{"key":"05382068","name":"Troisdorf, Stadt","type":"Stadt"},"district":{"key":"05382","name":"Rhein-Sieg-Kreis","type":"Kreis"},"federalState":{"key":"05","name":"Nordrhein-Westfalen"}},{"name":"Ringstr.","postalCode":"53840","locality":"Troisdorf","municipality":{"key":"05382068","name":"Troisdorf, Stadt","type":"Stadt"},"district":{"key":"05382","name":"Rhein-Sieg-Kreis","type":"Kreis"},"federalState":{"key":"05","name":"Nordrhein-Westfalen"}},{"name":"Robert-Koch-Str.","postalCode":"53844","locality":"Troisdorf","municipality":{"key":"05382068","name":"Troisdorf, Stadt","type":"Stadt"},"district":{"key":"05382","name":"Rhein-Sieg-Kreis","type":"Kreis"},"federalState":{"key":"05","name":"Nordrhein-Westfalen"}},{"name":"Robert-Müller-Platz","postalCode":"53840","locality":"Troisdorf","municipality":{"key":"05382068","name":"Troisdorf, Stadt","type":"Stadt"},"district":{"key":"05382","name":"Rhein-Sieg-Kreis","type":"Kreis"},"federalState":{"key":"05","name":"Nordrhein-Westfalen"}},{"name":"Rodderstr.","postalCode":"53842","locality":"Troisdorf","municipality":{"key":"05382068","name":"Troisdorf, Stadt","type":"Stadt"},"district":{"key":"05382","name":"Rhein-Sieg-Kreis","type":"Kreis"},"federalState":{"key":"05","name":"Nordrhein-Westfalen"}},{"name":"Römerstr.","postalCode":"53840","locality":"Troisdorf","municipality":{"key":"05382068","name":"Troisdorf, Stadt","type":"Stadt"},"district":{"key":"05382","name":"Rhein-Sieg-Kreis","type":"Kreis"},"federalState":{"key":"05","name":"Nordrhein-Westfalen"}},{"name":"Roncallistr.","postalCode":"53840","locality":"Troisdorf","municipality":{"key":"05382068","name":"Troisdorf, Stadt","type":"Stadt"},"district":{"key":"05382","name":"Rhein-Sieg-Kreis","type":"Kreis"},"federalState":{"key":"05","name":"Nordrhein-Westfalen"}},{"name":"Roncallistr.","postalCode":"53844","locality":"Troisdorf","municipality":{"key":"05382068","name":"Troisdorf, Stadt","type":"Stadt"},"district":{"key":"05382","name":"Rhein-Sieg-Kreis","type":"Kreis"},"federalState":{"key":"05","name":"Nordrhein-Westfalen"}},{"name":"Roonstr.","postalCode":"53842","locality":"Troisdorf","municipality":{"key":"05382068","name":"Troisdorf, Stadt","type":"Stadt"},"district":{"key":"05382","name":"Rhein-Sieg-Kreis","type":"Kreis"},"federalState":{"key":"05","name":"Nordrhein-Westfalen"}},{"name":"Rosenhügel","postalCode":"53844","locality":"Troisdorf","municipality":{"key":"05382068","name":"Troisdorf, Stadt","type":"Stadt"},"district":{"key":"05382","name":"Rhein-Sieg-Kreis","type":"Kreis"},"federalState":{"key":"05","name":"Nordrhein-Westfalen"}},{"name":"Rosmarinheide","postalCode":"53842","locality":"Troisdorf","municipality":{"key":"05382068","name":"Troisdorf, Stadt","type":"Stadt"},"district":{"key":"05382","name":"Rhein-Sieg-Kreis","type":"Kreis"},"federalState":{"key":"05","name":"Nordrhein-Westfalen"}},{"name":"Rossinistr.","postalCode":"53844","locality":"Troisdorf","municipality":{"key":"05382068","name":"Troisdorf, Stadt","type":"Stadt"},"district":{"key":"05382","name":"Rhein-Sieg-Kreis","type":"Kreis"},"federalState":{"key":"05","name":"Nordrhein-Westfalen"}},{"name":"Rotter Viehtrift","postalCode":"53842","locality":"Troisdorf","municipality":{"key":"05382068","name":"Troisdorf, Stadt","type":"Stadt"},"district":{"key":"05382","name":"Rhein-Sieg-Kreis","type":"Kreis"},"federalState":{"key":"05","name":"Nordrhein-Westfalen"}},{"name":"Rubensstr.","postalCode":"53844","locality":"Troisdorf","municipality":{"key":"05382068","name":"Troisdorf, Stadt","type":"Stadt"},"district":{"key":"05382","name":"Rhein-Sieg-Kreis","type":"Kreis"},"federalState":{"key":"05","name":"Nordrhein-Westfalen"}},{"name":"Rübkamp","postalCode":"53842","locality":"Troisdorf","municipality":{"key":"05382068","name":"Troisdorf, Stadt","type":"Stadt"},"district":{"key":"05382","name":"Rhein-Sieg-Kreis","type":"Kreis"},"federalState":{"key":"05","name":"Nordrhein-Westfalen"}},{"name":"Rudolfstr.","postalCode":"53842","locality":"Troisdorf","municipality":{"key":"05382068","name":"Troisdorf, Stadt","type":"Stadt"},"district":{"key":"05382","name":"Rhein-Sieg-Kreis","type":"Kreis"},"federalState":{"key":"05","name":"Nordrhein-Westfalen"}},{"name":"Rurseestr.","postalCode":"53844","locality":"Troisdorf","municipality":{"key":"05382068","name":"Troisdorf, Stadt","type":"Stadt"},"district":{"key":"05382","name":"Rhein-Sieg-Kreis","type":"Kreis"},"federalState":{"key":"05","name":"Nordrhein-Westfalen"}},{"name":"Salamanderkaule","postalCode":"53842","locality":"Troisdorf","municipality":{"key":"05382068","name":"Troisdorf, Stadt","type":"Stadt"},"district":{"key":"05382","name":"Rhein-Sieg-Kreis","type":"Kreis"},"federalState":{"key":"05","name":"Nordrhein-Westfalen"}},{"name":"Sankt-Adelheid-Str.","postalCode":"53844","locality":"Troisdorf","municipality":{"key":"05382068","name":"Troisdorf, Stadt","type":"Stadt"},"district":{"key":"05382","name":"Rhein-Sieg-Kreis","type":"Kreis"},"federalState":{"key":"05","name":"Nordrhein-Westfalen"}},{"name":"Saturnstr.","postalCode":"53842","locality":"Troisdorf","municipality":{"key":"05382068","name":"Troisdorf, Stadt","type":"Stadt"},"district":{"key":"05382","name":"Rhein-Sieg-Kreis","type":"Kreis"},"federalState":{"key":"05","name":"Nordrhein-Westfalen"}},{"name":"Sauerbruchstr.","postalCode":"53844","locality":"Troisdorf","municipality":{"key":"05382068","name":"Troisdorf, Stadt","type":"Stadt"},"district":{"key":"05382","name":"Rhein-Sieg-Kreis","type":"Kreis"},"federalState":{"key":"05","name":"Nordrhein-Westfalen"}},{"name":"Scharnhorststr.","postalCode":"53842","locality":"Troisdorf","municipality":{"key":"05382068","name":"Troisdorf, Stadt","type":"Stadt"},"district":{"key":"05382","name":"Rhein-Sieg-Kreis","type":"Kreis"},"federalState":{"key":"05","name":"Nordrhein-Westfalen"}},{"name":"Scheidemannstr.","postalCode":"53842","locality":"Troisdorf","municipality":{"key":"05382068","name":"Troisdorf, Stadt","type":"Stadt"},"district":{"key":"05382","name":"Rhein-Sieg-Kreis","type":"Kreis"},"federalState":{"key":"05","name":"Nordrhein-Westfalen"}},{"name":"Schengbüchel","postalCode":"53842","locality":"Troisdorf","municipality":{"key":"05382068","name":"Troisdorf, Stadt","type":"Stadt"},"district":{"key":"05382","name":"Rhein-Sieg-Kreis","type":"Kreis"},"federalState":{"key":"05","name":"Nordrhein-Westfalen"}},{"name":"Schickergasse","postalCode":"53842","locality":"Troisdorf","municipality":{"key":"05382068","name":"Troisdorf, Stadt","type":"Stadt"},"district":{"key":"05382","name":"Rhein-Sieg-Kreis","type":"Kreis"},"federalState":{"key":"05","name":"Nordrhein-Westfalen"}},{"name":"Schillerstr.","postalCode":"53844","locality":"Troisdorf","municipality":{"key":"05382068","name":"Troisdorf, Stadt","type":"Stadt"},"district":{"key":"05382","name":"Rhein-Sieg-Kreis","type":"Kreis"},"federalState":{"key":"05","name":"Nordrhein-Westfalen"}},{"name":"Schlehdornweg","postalCode":"53842","locality":"Troisdorf","municipality":{"key":"05382068","name":"Troisdorf, Stadt","type":"Stadt"},"district":{"key":"05382","name":"Rhein-Sieg-Kreis","type":"Kreis"},"federalState":{"key":"05","name":"Nordrhein-Westfalen"}},{"name":"Schleidener Str.","postalCode":"53842","locality":"Troisdorf","municipality":{"key":"05382068","name":"Troisdorf, Stadt","type":"Stadt"},"district":{"key":"05382","name":"Rhein-Sieg-Kreis","type":"Kreis"},"federalState":{"key":"05","name":"Nordrhein-Westfalen"}},{"name":"Schlesierstr.","postalCode":"53844","locality":"Troisdorf","municipality":{"key":"05382068","name":"Troisdorf, Stadt","type":"Stadt"},"district":{"key":"05382","name":"Rhein-Sieg-Kreis","type":"Kreis"},"federalState":{"key":"05","name":"Nordrhein-Westfalen"}},{"name":"Schloßstr.","postalCode":"53840","locality":"Troisdorf","municipality":{"key":"05382068","name":"Troisdorf, Stadt","type":"Stadt"},"district":{"key":"05382","name":"Rhein-Sieg-Kreis","type":"Kreis"},"federalState":{"key":"05","name":"Nordrhein-Westfalen"}},{"name":"Schmelzer Weg","postalCode":"53844","locality":"Troisdorf","municipality":{"key":"05382068","name":"Troisdorf, Stadt","type":"Stadt"},"district":{"key":"05382","name":"Rhein-Sieg-Kreis","type":"Kreis"},"federalState":{"key":"05","name":"Nordrhein-Westfalen"}},{"name":"Schmittgasse","postalCode":"53844","locality":"Troisdorf","municipality":{"key":"05382068","name":"Troisdorf, Stadt","type":"Stadt"},"district":{"key":"05382","name":"Rhein-Sieg-Kreis","type":"Kreis"},"federalState":{"key":"05","name":"Nordrhein-Westfalen"}},{"name":"Schopenhauerstr.","postalCode":"53842","locality":"Troisdorf","municipality":{"key":"05382068","name":"Troisdorf, Stadt","type":"Stadt"},"district":{"key":"05382","name":"Rhein-Sieg-Kreis","type":"Kreis"},"federalState":{"key":"05","name":"Nordrhein-Westfalen"}},{"name":"Schubertstr.","postalCode":"53842","locality":"Troisdorf","municipality":{"key":"05382068","name":"Troisdorf, Stadt","type":"Stadt"},"district":{"key":"05382","name":"Rhein-Sieg-Kreis","type":"Kreis"},"federalState":{"key":"05","name":"Nordrhein-Westfalen"}},{"name":"Schumannstr.","postalCode":"53844","locality":"Troisdorf","municipality":{"key":"05382068","name":"Troisdorf, Stadt","type":"Stadt"},"district":{"key":"05382","name":"Rhein-Sieg-Kreis","type":"Kreis"},"federalState":{"key":"05","name":"Nordrhein-Westfalen"}},{"name":"Schützenstr.","postalCode":"53842","locality":"Troisdorf","municipality":{"key":"05382068","name":"Troisdorf, Stadt","type":"Stadt"},"district":{"key":"05382","name":"Rhein-Sieg-Kreis","type":"Kreis"},"federalState":{"key":"05","name":"Nordrhein-Westfalen"}},{"name":"Schwabenweg","postalCode":"53844","locality":"Troisdorf","municipality":{"key":"05382068","name":"Troisdorf, Stadt","type":"Stadt"},"district":{"key":"05382","name":"Rhein-Sieg-Kreis","type":"Kreis"},"federalState":{"key":"05","name":"Nordrhein-Westfalen"}},{"name":"Schwalbenweg","postalCode":"53842","locality":"Troisdorf","municipality":{"key":"05382068","name":"Troisdorf, Stadt","type":"Stadt"},"district":{"key":"05382","name":"Rhein-Sieg-Kreis","type":"Kreis"},"federalState":{"key":"05","name":"Nordrhein-Westfalen"}},{"name":"Schwanenweg","postalCode":"53844","locality":"Troisdorf","municipality":{"key":"05382068","name":"Troisdorf, Stadt","type":"Stadt"},"district":{"key":"05382","name":"Rhein-Sieg-Kreis","type":"Kreis"},"federalState":{"key":"05","name":"Nordrhein-Westfalen"}},{"name":"Schwarzstr.","postalCode":"53840","locality":"Troisdorf","municipality":{"key":"05382068","name":"Troisdorf, Stadt","type":"Stadt"},"district":{"key":"05382","name":"Rhein-Sieg-Kreis","type":"Kreis"},"federalState":{"key":"05","name":"Nordrhein-Westfalen"}},{"name":"Schwarzwaldweg","postalCode":"53844","locality":"Troisdorf","municipality":{"key":"05382068","name":"Troisdorf, Stadt","type":"Stadt"},"district":{"key":"05382","name":"Rhein-Sieg-Kreis","type":"Kreis"},"federalState":{"key":"05","name":"Nordrhein-Westfalen"}},{"name":"Schweitzerstr.","postalCode":"53840","locality":"Troisdorf","municipality":{"key":"05382068","name":"Troisdorf, Stadt","type":"Stadt"},"district":{"key":"05382","name":"Rhein-Sieg-Kreis","type":"Kreis"},"federalState":{"key":"05","name":"Nordrhein-Westfalen"}},{"name":"Schwester-Cleopha-Weg","postalCode":"53842","locality":"Troisdorf","municipality":{"key":"05382068","name":"Troisdorf, Stadt","type":"Stadt"},"district":{"key":"05382","name":"Rhein-Sieg-Kreis","type":"Kreis"},"federalState":{"key":"05","name":"Nordrhein-Westfalen"}},{"name":"Schwester-Florida-Weg","postalCode":"53844","locality":"Troisdorf","municipality":{"key":"05382068","name":"Troisdorf, Stadt","type":"Stadt"},"district":{"key":"05382","name":"Rhein-Sieg-Kreis","type":"Kreis"},"federalState":{"key":"05","name":"Nordrhein-Westfalen"}},{"name":"Schwester-Ludovika-Weg","postalCode":"53842","locality":"Troisdorf","municipality":{"key":"05382068","name":"Troisdorf, Stadt","type":"Stadt"},"district":{"key":"05382","name":"Rhein-Sieg-Kreis","type":"Kreis"},"federalState":{"key":"05","name":"Nordrhein-Westfalen"}},{"name":"Siebengebirgsallee","postalCode":"53840","locality":"Troisdorf","municipality":{"key":"05382068","name":"Troisdorf, Stadt","type":"Stadt"},"district":{"key":"05382","name":"Rhein-Sieg-Kreis","type":"Kreis"},"federalState":{"key":"05","name":"Nordrhein-Westfalen"}},{"name":"Siebengebirgsblick","postalCode":"53844","locality":"Troisdorf","municipality":{"key":"05382068","name":"Troisdorf, Stadt","type":"Stadt"},"district":{"key":"05382","name":"Rhein-Sieg-Kreis","type":"Kreis"},"federalState":{"key":"05","name":"Nordrhein-Westfalen"}},{"name":"Siegburger Weg","postalCode":"53842","locality":"Troisdorf","municipality":{"key":"05382068","name":"Troisdorf, Stadt","type":"Stadt"},"district":{"key":"05382","name":"Rhein-Sieg-Kreis","type":"Kreis"},"federalState":{"key":"05","name":"Nordrhein-Westfalen"}},{"name":"Siegdamm","postalCode":"53844","locality":"Troisdorf","municipality":{"key":"05382068","name":"Troisdorf, Stadt","type":"Stadt"},"district":{"key":"05382","name":"Rhein-Sieg-Kreis","type":"Kreis"},"federalState":{"key":"05","name":"Nordrhein-Westfalen"}},{"name":"Sieglarer Str.","postalCode":"53840","locality":"Troisdorf","municipality":{"key":"05382068","name":"Troisdorf, Stadt","type":"Stadt"},"district":{"key":"05382","name":"Rhein-Sieg-Kreis","type":"Kreis"},"federalState":{"key":"05","name":"Nordrhein-Westfalen"}},{"name":"Sieglarer Str.","postalCode":"53842","locality":"Troisdorf","municipality":{"key":"05382068","name":"Troisdorf, Stadt","type":"Stadt"},"district":{"key":"05382","name":"Rhein-Sieg-Kreis","type":"Kreis"},"federalState":{"key":"05","name":"Nordrhein-Westfalen"}},{"name":"Siegstr.","postalCode":"53844","locality":"Troisdorf","municipality":{"key":"05382068","name":"Troisdorf, Stadt","type":"Stadt"},"district":{"key":"05382","name":"Rhein-Sieg-Kreis","type":"Kreis"},"federalState":{"key":"05","name":"Nordrhein-Westfalen"}},{"name":"Siemens-Martin-Str.","postalCode":"53842","locality":"Troisdorf","municipality":{"key":"05382068","name":"Troisdorf, Stadt","type":"Stadt"},"district":{"key":"05382","name":"Rhein-Sieg-Kreis","type":"Kreis"},"federalState":{"key":"05","name":"Nordrhein-Westfalen"}},{"name":"Siemensstr.","postalCode":"53840","locality":"Troisdorf","municipality":{"key":"05382068","name":"Troisdorf, Stadt","type":"Stadt"},"district":{"key":"05382","name":"Rhein-Sieg-Kreis","type":"Kreis"},"federalState":{"key":"05","name":"Nordrhein-Westfalen"}},{"name":"Silberberger Str.","postalCode":"53844","locality":"Troisdorf","municipality":{"key":"05382068","name":"Troisdorf, Stadt","type":"Stadt"},"district":{"key":"05382","name":"Rhein-Sieg-Kreis","type":"Kreis"},"federalState":{"key":"05","name":"Nordrhein-Westfalen"}},{"name":"Silbergasse","postalCode":"53842","locality":"Troisdorf","municipality":{"key":"05382068","name":"Troisdorf, Stadt","type":"Stadt"},"district":{"key":"05382","name":"Rhein-Sieg-Kreis","type":"Kreis"},"federalState":{"key":"05","name":"Nordrhein-Westfalen"}},{"name":"Sonnenscheinstr.","postalCode":"53840","locality":"Troisdorf","municipality":{"key":"05382068","name":"Troisdorf, Stadt","type":"Stadt"},"district":{"key":"05382","name":"Rhein-Sieg-Kreis","type":"Kreis"},"federalState":{"key":"05","name":"Nordrhein-Westfalen"}},{"name":"Sonnenstr.","postalCode":"53842","locality":"Troisdorf","municipality":{"key":"05382068","name":"Troisdorf, Stadt","type":"Stadt"},"district":{"key":"05382","name":"Rhein-Sieg-Kreis","type":"Kreis"},"federalState":{"key":"05","name":"Nordrhein-Westfalen"}},{"name":"Spatzenweg","postalCode":"53844","locality":"Troisdorf","municipality":{"key":"05382068","name":"Troisdorf, Stadt","type":"Stadt"},"district":{"key":"05382","name":"Rhein-Sieg-Kreis","type":"Kreis"},"federalState":{"key":"05","name":"Nordrhein-Westfalen"}},{"name":"Speestr.","postalCode":"53840","locality":"Troisdorf","municipality":{"key":"05382068","name":"Troisdorf, Stadt","type":"Stadt"},"district":{"key":"05382","name":"Rhein-Sieg-Kreis","type":"Kreis"},"federalState":{"key":"05","name":"Nordrhein-Westfalen"}},{"name":"Sperberweg","postalCode":"53844","locality":"Troisdorf","municipality":{"key":"05382068","name":"Troisdorf, Stadt","type":"Stadt"},"district":{"key":"05382","name":"Rhein-Sieg-Kreis","type":"Kreis"},"federalState":{"key":"05","name":"Nordrhein-Westfalen"}},{"name":"Spichbuschstr.","postalCode":"53842","locality":"Troisdorf","municipality":{"key":"05382068","name":"Troisdorf, Stadt","type":"Stadt"},"district":{"key":"05382","name":"Rhein-Sieg-Kreis","type":"Kreis"},"federalState":{"key":"05","name":"Nordrhein-Westfalen"}},{"name":"Spicher Platz","postalCode":"53842","locality":"Troisdorf","municipality":{"key":"05382068","name":"Troisdorf, Stadt","type":"Stadt"},"district":{"key":"05382","name":"Rhein-Sieg-Kreis","type":"Kreis"},"federalState":{"key":"05","name":"Nordrhein-Westfalen"}},{"name":"Spicher Str.","postalCode":"53844","locality":"Troisdorf","municipality":{"key":"05382068","name":"Troisdorf, Stadt","type":"Stadt"},"district":{"key":"05382","name":"Rhein-Sieg-Kreis","type":"Kreis"},"federalState":{"key":"05","name":"Nordrhein-Westfalen"}},{"name":"Spillbähnstr.","postalCode":"53844","locality":"Troisdorf","municipality":{"key":"05382068","name":"Troisdorf, Stadt","type":"Stadt"},"district":{"key":"05382","name":"Rhein-Sieg-Kreis","type":"Kreis"},"federalState":{"key":"05","name":"Nordrhein-Westfalen"}},{"name":"Spitzwegstr.","postalCode":"53844","locality":"Troisdorf","municipality":{"key":"05382068","name":"Troisdorf, Stadt","type":"Stadt"},"district":{"key":"05382","name":"Rhein-Sieg-Kreis","type":"Kreis"},"federalState":{"key":"05","name":"Nordrhein-Westfalen"}},{"name":"Stadtteilpark Friedrich-Wilhelms-Hütte","postalCode":"53840","locality":"Troisdorf","municipality":{"key":"05382068","name":"Troisdorf, Stadt","type":"Stadt"},"district":{"key":"05382","name":"Rhein-Sieg-Kreis","type":"Kreis"},"federalState":{"key":"05","name":"Nordrhein-Westfalen"}},{"name":"Talweg","postalCode":"53842","locality":"Troisdorf","municipality":{"key":"05382068","name":"Troisdorf, Stadt","type":"Stadt"},"district":{"key":"05382","name":"Rhein-Sieg-Kreis","type":"Kreis"},"federalState":{"key":"05","name":"Nordrhein-Westfalen"}},{"name":"Tannenweg","postalCode":"53842","locality":"Troisdorf","municipality":{"key":"05382068","name":"Troisdorf, Stadt","type":"Stadt"},"district":{"key":"05382","name":"Rhein-Sieg-Kreis","type":"Kreis"},"federalState":{"key":"05","name":"Nordrhein-Westfalen"}},{"name":"Taubengasse","postalCode":"53840","locality":"Troisdorf","municipality":{"key":"05382068","name":"Troisdorf, Stadt","type":"Stadt"},"district":{"key":"05382","name":"Rhein-Sieg-Kreis","type":"Kreis"},"federalState":{"key":"05","name":"Nordrhein-Westfalen"}},{"name":"Taunusweg","postalCode":"53844","locality":"Troisdorf","municipality":{"key":"05382068","name":"Troisdorf, Stadt","type":"Stadt"},"district":{"key":"05382","name":"Rhein-Sieg-Kreis","type":"Kreis"},"federalState":{"key":"05","name":"Nordrhein-Westfalen"}},{"name":"Telegrafstr.","postalCode":"53842","locality":"Troisdorf","municipality":{"key":"05382068","name":"Troisdorf, Stadt","type":"Stadt"},"district":{"key":"05382","name":"Rhein-Sieg-Kreis","type":"Kreis"},"federalState":{"key":"05","name":"Nordrhein-Westfalen"}},{"name":"Teutonenstr.","postalCode":"53844","locality":"Troisdorf","municipality":{"key":"05382068","name":"Troisdorf, Stadt","type":"Stadt"},"district":{"key":"05382","name":"Rhein-Sieg-Kreis","type":"Kreis"},"federalState":{"key":"05","name":"Nordrhein-Westfalen"}},{"name":"Theodor-Heuss-Ring","postalCode":"53840","locality":"Troisdorf","municipality":{"key":"05382068","name":"Troisdorf, Stadt","type":"Stadt"},"district":{"key":"05382","name":"Rhein-Sieg-Kreis","type":"Kreis"},"federalState":{"key":"05","name":"Nordrhein-Westfalen"}},{"name":"Theodor-Körner-Str.","postalCode":"53844","locality":"Troisdorf","municipality":{"key":"05382068","name":"Troisdorf, Stadt","type":"Stadt"},"district":{"key":"05382","name":"Rhein-Sieg-Kreis","type":"Kreis"},"federalState":{"key":"05","name":"Nordrhein-Westfalen"}},{"name":"Thomas-Mann-Str.","postalCode":"53844","locality":"Troisdorf","municipality":{"key":"05382068","name":"Troisdorf, Stadt","type":"Stadt"},"district":{"key":"05382","name":"Rhein-Sieg-Kreis","type":"Kreis"},"federalState":{"key":"05","name":"Nordrhein-Westfalen"}},{"name":"Thomasstr.","postalCode":"53840","locality":"Troisdorf","municipality":{"key":"05382068","name":"Troisdorf, Stadt","type":"Stadt"},"district":{"key":"05382","name":"Rhein-Sieg-Kreis","type":"Kreis"},"federalState":{"key":"05","name":"Nordrhein-Westfalen"}},{"name":"Tilsiter Str.","postalCode":"53840","locality":"Troisdorf","municipality":{"key":"05382068","name":"Troisdorf, Stadt","type":"Stadt"},"district":{"key":"05382","name":"Rhein-Sieg-Kreis","type":"Kreis"},"federalState":{"key":"05","name":"Nordrhein-Westfalen"}},{"name":"Tizianstr.","postalCode":"53844","locality":"Troisdorf","municipality":{"key":"05382068","name":"Troisdorf, Stadt","type":"Stadt"},"district":{"key":"05382","name":"Rhein-Sieg-Kreis","type":"Kreis"},"federalState":{"key":"05","name":"Nordrhein-Westfalen"}},{"name":"Tonio-Guerra-Weg","postalCode":"53840","locality":"Troisdorf","municipality":{"key":"05382068","name":"Troisdorf, Stadt","type":"Stadt"},"district":{"key":"05382","name":"Rhein-Sieg-Kreis","type":"Kreis"},"federalState":{"key":"05","name":"Nordrhein-Westfalen"}},{"name":"Troisdorfer Str.","postalCode":"53844","locality":"Troisdorf","municipality":{"key":"05382068","name":"Troisdorf, Stadt","type":"Stadt"},"district":{"key":"05382","name":"Rhein-Sieg-Kreis","type":"Kreis"},"federalState":{"key":"05","name":"Nordrhein-Westfalen"}},{"name":"Uckendorfer Str.","postalCode":"53844","locality":"Troisdorf","municipality":{"key":"05382068","name":"Troisdorf, Stadt","type":"Stadt"},"district":{"key":"05382","name":"Rhein-Sieg-Kreis","type":"Kreis"},"federalState":{"key":"05","name":"Nordrhein-Westfalen"}},{"name":"Uferstr.","postalCode":"53840","locality":"Troisdorf","municipality":{"key":"05382068","name":"Troisdorf, Stadt","type":"Stadt"},"district":{"key":"05382","name":"Rhein-Sieg-Kreis","type":"Kreis"},"federalState":{"key":"05","name":"Nordrhein-Westfalen"}},{"name":"Uhlandstr.","postalCode":"53844","locality":"Troisdorf","municipality":{"key":"05382068","name":"Troisdorf, Stadt","type":"Stadt"},"district":{"key":"05382","name":"Rhein-Sieg-Kreis","type":"Kreis"},"federalState":{"key":"05","name":"Nordrhein-Westfalen"}},{"name":"Ulmenweg","postalCode":"53842","locality":"Troisdorf","municipality":{"key":"05382068","name":"Troisdorf, Stadt","type":"Stadt"},"district":{"key":"05382","name":"Rhein-Sieg-Kreis","type":"Kreis"},"federalState":{"key":"05","name":"Nordrhein-Westfalen"}},{"name":"Ulrather Blick","postalCode":"53840","locality":"Troisdorf","municipality":{"key":"05382068","name":"Troisdorf, Stadt","type":"Stadt"},"district":{"key":"05382","name":"Rhein-Sieg-Kreis","type":"Kreis"},"federalState":{"key":"05","name":"Nordrhein-Westfalen"}},{"name":"Urbacher Str.","postalCode":"53842","locality":"Troisdorf","municipality":{"key":"05382068","name":"Troisdorf, Stadt","type":"Stadt"},"district":{"key":"05382","name":"Rhein-Sieg-Kreis","type":"Kreis"},"federalState":{"key":"05","name":"Nordrhein-Westfalen"}},{"name":"Ursulaplatz","postalCode":"53840","locality":"Troisdorf","municipality":{"key":"05382068","name":"Troisdorf, Stadt","type":"Stadt"},"district":{"key":"05382","name":"Rhein-Sieg-Kreis","type":"Kreis"},"federalState":{"key":"05","name":"Nordrhein-Westfalen"}},{"name":"Utzenrather Weg","postalCode":"53842","locality":"Troisdorf","municipality":{"key":"05382068","name":"Troisdorf, Stadt","type":"Stadt"},"district":{"key":"05382","name":"Rhein-Sieg-Kreis","type":"Kreis"},"federalState":{"key":"05","name":"Nordrhein-Westfalen"}},{"name":"Van-Gogh-Platz","postalCode":"53844","locality":"Troisdorf","municipality":{"key":"05382068","name":"Troisdorf, Stadt","type":"Stadt"},"district":{"key":"05382","name":"Rhein-Sieg-Kreis","type":"Kreis"},"federalState":{"key":"05","name":"Nordrhein-Westfalen"}},{"name":"Veilchenweg","postalCode":"53840","locality":"Troisdorf","municipality":{"key":"05382068","name":"Troisdorf, Stadt","type":"Stadt"},"district":{"key":"05382","name":"Rhein-Sieg-Kreis","type":"Kreis"},"federalState":{"key":"05","name":"Nordrhein-Westfalen"}},{"name":"Viktoriastr.","postalCode":"53840","locality":"Troisdorf","municipality":{"key":"05382068","name":"Troisdorf, Stadt","type":"Stadt"},"district":{"key":"05382","name":"Rhein-Sieg-Kreis","type":"Kreis"},"federalState":{"key":"05","name":"Nordrhein-Westfalen"}},{"name":"Vom-Stein-Str.","postalCode":"53842","locality":"Troisdorf","municipality":{"key":"05382068","name":"Troisdorf, Stadt","type":"Stadt"},"district":{"key":"05382","name":"Rhein-Sieg-Kreis","type":"Kreis"},"federalState":{"key":"05","name":"Nordrhein-Westfalen"}},{"name":"von-Hassell-Str.","postalCode":"53840","locality":"Troisdorf","municipality":{"key":"05382068","name":"Troisdorf, Stadt","type":"Stadt"},"district":{"key":"05382","name":"Rhein-Sieg-Kreis","type":"Kreis"},"federalState":{"key":"05","name":"Nordrhein-Westfalen"}},{"name":"Von-Loe-Str.","postalCode":"53840","locality":"Troisdorf","municipality":{"key":"05382068","name":"Troisdorf, Stadt","type":"Stadt"},"district":{"key":"05382","name":"Rhein-Sieg-Kreis","type":"Kreis"},"federalState":{"key":"05","name":"Nordrhein-Westfalen"}},{"name":"von-Stauffenberg-Str.","postalCode":"53840","locality":"Troisdorf","municipality":{"key":"05382068","name":"Troisdorf, Stadt","type":"Stadt"},"district":{"key":"05382","name":"Rhein-Sieg-Kreis","type":"Kreis"},"federalState":{"key":"05","name":"Nordrhein-Westfalen"}},{"name":"von-Werth-Str.","postalCode":"53842","locality":"Troisdorf","municipality":{"key":"05382068","name":"Troisdorf, Stadt","type":"Stadt"},"district":{"key":"05382","name":"Rhein-Sieg-Kreis","type":"Kreis"},"federalState":{"key":"05","name":"Nordrhein-Westfalen"}},{"name":"Vorgebirgsblick","postalCode":"53844","locality":"Troisdorf","municipality":{"key":"05382068","name":"Troisdorf, Stadt","type":"Stadt"},"district":{"key":"05382","name":"Rhein-Sieg-Kreis","type":"Kreis"},"federalState":{"key":"05","name":"Nordrhein-Westfalen"}},{"name":"Vulkanstr.","postalCode":"53842","locality":"Troisdorf","municipality":{"key":"05382068","name":"Troisdorf, Stadt","type":"Stadt"},"district":{"key":"05382","name":"Rhein-Sieg-Kreis","type":"Kreis"},"federalState":{"key":"05","name":"Nordrhein-Westfalen"}},{"name":"Wacholderweg","postalCode":"53842","locality":"Troisdorf","municipality":{"key":"05382068","name":"Troisdorf, Stadt","type":"Stadt"},"district":{"key":"05382","name":"Rhein-Sieg-Kreis","type":"Kreis"},"federalState":{"key":"05","name":"Nordrhein-Westfalen"}},{"name":"Wachtelweg","postalCode":"53844","locality":"Troisdorf","municipality":{"key":"05382068","name":"Troisdorf, Stadt","type":"Stadt"},"district":{"key":"05382","name":"Rhein-Sieg-Kreis","type":"Kreis"},"federalState":{"key":"05","name":"Nordrhein-Westfalen"}},{"name":"Wahner Str.","postalCode":"53842","locality":"Troisdorf","municipality":{"key":"05382068","name":"Troisdorf, Stadt","type":"Stadt"},"district":{"key":"05382","name":"Rhein-Sieg-Kreis","type":"Kreis"},"federalState":{"key":"05","name":"Nordrhein-Westfalen"}},{"name":"Waldsiedlung","postalCode":"53842","locality":"Troisdorf","municipality":{"key":"05382068","name":"Troisdorf, Stadt","type":"Stadt"},"district":{"key":"05382","name":"Rhein-Sieg-Kreis","type":"Kreis"},"federalState":{"key":"05","name":"Nordrhein-Westfalen"}},{"name":"Waldstr.","postalCode":"53842","locality":"Troisdorf","municipality":{"key":"05382068","name":"Troisdorf, Stadt","type":"Stadt"},"district":{"key":"05382","name":"Rhein-Sieg-Kreis","type":"Kreis"},"federalState":{"key":"05","name":"Nordrhein-Westfalen"}},{"name":"Walther-Rathenau-Str.","postalCode":"53842","locality":"Troisdorf","municipality":{"key":"05382068","name":"Troisdorf, Stadt","type":"Stadt"},"district":{"key":"05382","name":"Rhein-Sieg-Kreis","type":"Kreis"},"federalState":{"key":"05","name":"Nordrhein-Westfalen"}},{"name":"Wattstr.","postalCode":"53840","locality":"Troisdorf","municipality":{"key":"05382068","name":"Troisdorf, Stadt","type":"Stadt"},"district":{"key":"05382","name":"Rhein-Sieg-Kreis","type":"Kreis"},"federalState":{"key":"05","name":"Nordrhein-Westfalen"}},{"name":"Weberstr.","postalCode":"53844","locality":"Troisdorf","municipality":{"key":"05382068","name":"Troisdorf, Stadt","type":"Stadt"},"district":{"key":"05382","name":"Rhein-Sieg-Kreis","type":"Kreis"},"federalState":{"key":"05","name":"Nordrhein-Westfalen"}},{"name":"Weidengasse","postalCode":"53844","locality":"Troisdorf","municipality":{"key":"05382068","name":"Troisdorf, Stadt","type":"Stadt"},"district":{"key":"05382","name":"Rhein-Sieg-Kreis","type":"Kreis"},"federalState":{"key":"05","name":"Nordrhein-Westfalen"}},{"name":"Weilbergstr.","postalCode":"53844","locality":"Troisdorf","municipality":{"key":"05382068","name":"Troisdorf, Stadt","type":"Stadt"},"district":{"key":"05382","name":"Rhein-Sieg-Kreis","type":"Kreis"},"federalState":{"key":"05","name":"Nordrhein-Westfalen"}},{"name":"Weingartenweg","postalCode":"53840","locality":"Troisdorf","municipality":{"key":"05382068","name":"Troisdorf, Stadt","type":"Stadt"},"district":{"key":"05382","name":"Rhein-Sieg-Kreis","type":"Kreis"},"federalState":{"key":"05","name":"Nordrhein-Westfalen"}},{"name":"Wernerstr.","postalCode":"53842","locality":"Troisdorf","municipality":{"key":"05382068","name":"Troisdorf, Stadt","type":"Stadt"},"district":{"key":"05382","name":"Rhein-Sieg-Kreis","type":"Kreis"},"federalState":{"key":"05","name":"Nordrhein-Westfalen"}},{"name":"Westend","postalCode":"53840","locality":"Troisdorf","municipality":{"key":"05382068","name":"Troisdorf, Stadt","type":"Stadt"},"district":{"key":"05382","name":"Rhein-Sieg-Kreis","type":"Kreis"},"federalState":{"key":"05","name":"Nordrhein-Westfalen"}},{"name":"Westfalenstr.","postalCode":"53844","locality":"Troisdorf","municipality":{"key":"05382068","name":"Troisdorf, Stadt","type":"Stadt"},"district":{"key":"05382","name":"Rhein-Sieg-Kreis","type":"Kreis"},"federalState":{"key":"05","name":"Nordrhein-Westfalen"}},{"name":"Wiedtalstr.","postalCode":"53842","locality":"Troisdorf","municipality":{"key":"05382068","name":"Troisdorf, Stadt","type":"Stadt"},"district":{"key":"05382","name":"Rhein-Sieg-Kreis","type":"Kreis"},"federalState":{"key":"05","name":"Nordrhein-Westfalen"}},{"name":"Wielandstr.","postalCode":"53844","locality":"Troisdorf","municipality":{"key":"05382068","name":"Troisdorf, Stadt","type":"Stadt"},"district":{"key":"05382","name":"Rhein-Sieg-Kreis","type":"Kreis"},"federalState":{"key":"05","name":"Nordrhein-Westfalen"}},{"name":"Wilhelm-Busch-Str.","postalCode":"53844","locality":"Troisdorf","municipality":{"key":"05382068","name":"Troisdorf, Stadt","type":"Stadt"},"district":{"key":"05382","name":"Rhein-Sieg-Kreis","type":"Kreis"},"federalState":{"key":"05","name":"Nordrhein-Westfalen"}},{"name":"Wilhelmstr.","postalCode":"53840","locality":"Troisdorf","municipality":{"key":"05382068","name":"Troisdorf, Stadt","type":"Stadt"},"district":{"key":"05382","name":"Rhein-Sieg-Kreis","type":"Kreis"},"federalState":{"key":"05","name":"Nordrhein-Westfalen"}},{"name":"Wilhelm-Stricker-Weg","postalCode":"53840","locality":"Troisdorf","municipality":{"key":"05382068","name":"Troisdorf, Stadt","type":"Stadt"},"district":{"key":"05382","name":"Rhein-Sieg-Kreis","type":"Kreis"},"federalState":{"key":"05","name":"Nordrhein-Westfalen"}},{"name":"Willy-Brandt-Ring","postalCode":"53840","locality":"Troisdorf","municipality":{"key":"05382068","name":"Troisdorf, Stadt","type":"Stadt"},"district":{"key":"05382","name":"Rhein-Sieg-Kreis","type":"Kreis"},"federalState":{"key":"05","name":"Nordrhein-Westfalen"}},{"name":"Willy-Brandt-Ring","postalCode":"53842","locality":"Troisdorf","municipality":{"key":"05382068","name":"Troisdorf, Stadt","type":"Stadt"},"district":{"key":"05382","name":"Rhein-Sieg-Kreis","type":"Kreis"},"federalState":{"key":"05","name":"Nordrhein-Westfalen"}},{"name":"Willy-Brandt-Ring","postalCode":"53844","locality":"Troisdorf","municipality":{"key":"05382068","name":"Troisdorf, Stadt","type":"Stadt"},"district":{"key":"05382","name":"Rhein-Sieg-Kreis","type":"Kreis"},"federalState":{"key":"05","name":"Nordrhein-Westfalen"}},{"name":"Wim-Nöbel-Str.","postalCode":"53842","locality":"Troisdorf","municipality":{"key":"05382068","name":"Troisdorf, Stadt","type":"Stadt"},"district":{"key":"05382","name":"Rhein-Sieg-Kreis","type":"Kreis"},"federalState":{"key":"05","name":"Nordrhein-Westfalen"}},{"name":"Windgassenplatz","postalCode":"53840","locality":"Troisdorf","municipality":{"key":"05382068","name":"Troisdorf, Stadt","type":"Stadt"},"district":{"key":"05382","name":"Rhein-Sieg-Kreis","type":"Kreis"},"federalState":{"key":"05","name":"Nordrhein-Westfalen"}},{"name":"Witschgasse","postalCode":"53844","locality":"Troisdorf","municipality":{"key":"05382068","name":"Troisdorf, Stadt","type":"Stadt"},"district":{"key":"05382","name":"Rhein-Sieg-Kreis","type":"Kreis"},"federalState":{"key":"05","name":"Nordrhein-Westfalen"}},{"name":"Witzenbachstr.","postalCode":"53842","locality":"Troisdorf","municipality":{"key":"05382068","name":"Troisdorf, Stadt","type":"Stadt"},"district":{"key":"05382","name":"Rhein-Sieg-Kreis","type":"Kreis"},"federalState":{"key":"05","name":"Nordrhein-Westfalen"}},{"name":"Wolfsweg","postalCode":"53842","locality":"Troisdorf","municipality":{"key":"05382068","name":"Troisdorf, Stadt","type":"Stadt"},"district":{"key":"05382","name":"Rhein-Sieg-Kreis","type":"Kreis"},"federalState":{"key":"05","name":"Nordrhein-Westfalen"}},{"name":"Wolkenburgstr.","postalCode":"53844","locality":"Troisdorf","municipality":{"key":"05382068","name":"Troisdorf, Stadt","type":"Stadt"},"district":{"key":"05382","name":"Rhein-Sieg-Kreis","type":"Kreis"},"federalState":{"key":"05","name":"Nordrhein-Westfalen"}},{"name":"Zedernweg","postalCode":"53842","locality":"Troisdorf","municipality":{"key":"05382068","name":"Troisdorf, Stadt","type":"Stadt"},"district":{"key":"05382","name":"Rhein-Sieg-Kreis","type":"Kreis"},"federalState":{"key":"05","name":"Nordrhein-Westfalen"}},{"name":"Zeisigweg","postalCode":"53844","locality":"Troisdorf","municipality":{"key":"05382068","name":"Troisdorf, Stadt","type":"Stadt"},"district":{"key":"05382","name":"Rhein-Sieg-Kreis","type":"Kreis"},"federalState":{"key":"05","name":"Nordrhein-Westfalen"}},{"name":"Zeppelinplatz","postalCode":"53842","locality":"Troisdorf","municipality":{"key":"05382068","name":"Troisdorf, Stadt","type":"Stadt"},"district":{"key":"05382","name":"Rhein-Sieg-Kreis","type":"Kreis"},"federalState":{"key":"05","name":"Nordrhein-Westfalen"}},{"name":"Ziegenbergweg","postalCode":"53842","locality":"Troisdorf","municipality":{"key":"05382068","name":"Troisdorf, Stadt","type":"Stadt"},"district":{"key":"05382","name":"Rhein-Sieg-Kreis","type":"Kreis"},"federalState":{"key":"05","name":"Nordrhein-Westfalen"}},{"name":"Ziethenstr.","postalCode":"53842","locality":"Troisdorf","municipality":{"key":"05382068","name":"Troisdorf, Stadt","type":"Stadt"},"district":{"key":"05382","name":"Rhein-Sieg-Kreis","type":"Kreis"},"federalState":{"key":"05","name":"Nordrhein-Westfalen"}},{"name":"Zobelweg","postalCode":"53842","locality":"Troisdorf","municipality":{"key":"05382068","name":"Troisdorf, Stadt","type":"Stadt"},"district":{"key":"05382","name":"Rhein-Sieg-Kreis","type":"Kreis"},"federalState":{"key":"05","name":"Nordrhein-Westfalen"}},{"name":"Zu den Wichelstöcken","postalCode":"53842","locality":"Troisdorf","municipality":{"key":"05382068","name":"Troisdorf, Stadt","type":"Stadt"},"district":{"key":"05382","name":"Rhein-Sieg-Kreis","type":"Kreis"},"federalState":{"key":"05","name":"Nordrhein-Westfalen"}},{"name":"Zum Altenforst","postalCode":"53840","locality":"Troisdorf","municipality":{"key":"05382068","name":"Troisdorf, Stadt","type":"Stadt"},"district":{"key":"05382","name":"Rhein-Sieg-Kreis","type":"Kreis"},"federalState":{"key":"05","name":"Nordrhein-Westfalen"}},{"name":"Zum Alten Tor","postalCode":"53840","locality":"Troisdorf","municipality":{"key":"05382068","name":"Troisdorf, Stadt","type":"Stadt"},"district":{"key":"05382","name":"Rhein-Sieg-Kreis","type":"Kreis"},"federalState":{"key":"05","name":"Nordrhein-Westfalen"}},{"name":"Zum Antoniuskreuz","postalCode":"53844","locality":"Troisdorf","municipality":{"key":"05382068","name":"Troisdorf, Stadt","type":"Stadt"},"district":{"key":"05382","name":"Rhein-Sieg-Kreis","type":"Kreis"},"federalState":{"key":"05","name":"Nordrhein-Westfalen"}},{"name":"Zum Discholls","postalCode":"53844","locality":"Troisdorf","municipality":{"key":"05382068","name":"Troisdorf, Stadt","type":"Stadt"},"district":{"key":"05382","name":"Rhein-Sieg-Kreis","type":"Kreis"},"federalState":{"key":"05","name":"Nordrhein-Westfalen"}},{"name":"Zum Düffenbroich","postalCode":"53842","locality":"Troisdorf","municipality":{"key":"05382068","name":"Troisdorf, Stadt","type":"Stadt"},"district":{"key":"05382","name":"Rhein-Sieg-Kreis","type":"Kreis"},"federalState":{"key":"05","name":"Nordrhein-Westfalen"}},{"name":"Zum Hühnerberg","postalCode":"53844","locality":"Troisdorf","municipality":{"key":"05382068","name":"Troisdorf, Stadt","type":"Stadt"},"district":{"key":"05382","name":"Rhein-Sieg-Kreis","type":"Kreis"},"federalState":{"key":"05","name":"Nordrhein-Westfalen"}},{"name":"Zum Kalkofen","postalCode":"53844","locality":"Troisdorf","municipality":{"key":"05382068","name":"Troisdorf, Stadt","type":"Stadt"},"district":{"key":"05382","name":"Rhein-Sieg-Kreis","type":"Kreis"},"federalState":{"key":"05","name":"Nordrhein-Westfalen"}},{"name":"Zum Kirchsiefen","postalCode":"53842","locality":"Troisdorf","municipality":{"key":"05382068","name":"Troisdorf, Stadt","type":"Stadt"},"district":{"key":"05382","name":"Rhein-Sieg-Kreis","type":"Kreis"},"federalState":{"key":"05","name":"Nordrhein-Westfalen"}},{"name":"Zum Kronenweiher","postalCode":"53842","locality":"Troisdorf","municipality":{"key":"05382068","name":"Troisdorf, Stadt","type":"Stadt"},"district":{"key":"05382","name":"Rhein-Sieg-Kreis","type":"Kreis"},"federalState":{"key":"05","name":"Nordrhein-Westfalen"}},{"name":"Zum Krötenpfuhl","postalCode":"53842","locality":"Troisdorf","municipality":{"key":"05382068","name":"Troisdorf, Stadt","type":"Stadt"},"district":{"key":"05382","name":"Rhein-Sieg-Kreis","type":"Kreis"},"federalState":{"key":"05","name":"Nordrhein-Westfalen"}},{"name":"Zum Mühlenberg","postalCode":"53844","locality":"Troisdorf","municipality":{"key":"05382068","name":"Troisdorf, Stadt","type":"Stadt"},"district":{"key":"05382","name":"Rhein-Sieg-Kreis","type":"Kreis"},"federalState":{"key":"05","name":"Nordrhein-Westfalen"}},{"name":"Zum Röhrichtsiefen","postalCode":"53840","locality":"Troisdorf","municipality":{"key":"05382068","name":"Troisdorf, Stadt","type":"Stadt"},"district":{"key":"05382","name":"Rhein-Sieg-Kreis","type":"Kreis"},"federalState":{"key":"05","name":"Nordrhein-Westfalen"}},{"name":"Zum Scharfenberg","postalCode":"53842","locality":"Troisdorf","municipality":{"key":"05382068","name":"Troisdorf, Stadt","type":"Stadt"},"district":{"key":"05382","name":"Rhein-Sieg-Kreis","type":"Kreis"},"federalState":{"key":"05","name":"Nordrhein-Westfalen"}},{"name":"Zum Siegblick","postalCode":"53844","locality":"Troisdorf","municipality":{"key":"05382068","name":"Troisdorf, Stadt","type":"Stadt"},"district":{"key":"05382","name":"Rhein-Sieg-Kreis","type":"Kreis"},"federalState":{"key":"05","name":"Nordrhein-Westfalen"}},{"name":"Zum Sonnenberg","postalCode":"53840","locality":"Troisdorf","municipality":{"key":"05382068","name":"Troisdorf, Stadt","type":"Stadt"},"district":{"key":"05382","name":"Rhein-Sieg-Kreis","type":"Kreis"},"federalState":{"key":"05","name":"Nordrhein-Westfalen"}},{"name":"Zum Sonnenhang","postalCode":"53844","locality":"Troisdorf","municipality":{"key":"05382068","name":"Troisdorf, Stadt","type":"Stadt"},"district":{"key":"05382","name":"Rhein-Sieg-Kreis","type":"Kreis"},"federalState":{"key":"05","name":"Nordrhein-Westfalen"}},{"name":"Zum Stocksiefen","postalCode":"53842","locality":"Troisdorf","municipality":{"key":"05382068","name":"Troisdorf, Stadt","type":"Stadt"},"district":{"key":"05382","name":"Rhein-Sieg-Kreis","type":"Kreis"},"federalState":{"key":"05","name":"Nordrhein-Westfalen"}},{"name":"Zur Eremitage","postalCode":"53840","locality":"Troisdorf","municipality":{"key":"05382068","name":"Troisdorf, Stadt","type":"Stadt"},"district":{"key":"05382","name":"Rhein-Sieg-Kreis","type":"Kreis"},"federalState":{"key":"05","name":"Nordrhein-Westfalen"}},{"name":"Zur Grube Versöhnung","postalCode":"53842","locality":"Troisdorf","municipality":{"key":"05382068","name":"Troisdorf, Stadt","type":"Stadt"},"district":{"key":"05382","name":"Rhein-Sieg-Kreis","type":"Kreis"},"federalState":{"key":"05","name":"Nordrhein-Westfalen"}},{"name":"Zur Hardt","postalCode":"53842","locality":"Troisdorf","municipality":{"key":"05382068","name":"Troisdorf, Stadt","type":"Stadt"},"district":{"key":"05382","name":"Rhein-Sieg-Kreis","type":"Kreis"},"federalState":{"key":"05","name":"Nordrhein-Westfalen"}},{"name":"Zur Hohen Schanze","postalCode":"53842","locality":"Troisdorf","municipality":{"key":"05382068","name":"Troisdorf, Stadt","type":"Stadt"},"district":{"key":"05382","name":"Rhein-Sieg-Kreis","type":"Kreis"},"federalState":{"key":"05","name":"Nordrhein-Westfalen"}},{"name":"Zur Kleinbahn","postalCode":"53844","locality":"Troisdorf","municipality":{"key":"05382068","name":"Troisdorf, Stadt","type":"Stadt"},"district":{"key":"05382","name":"Rhein-Sieg-Kreis","type":"Kreis"},"federalState":{"key":"05","name":"Nordrhein-Westfalen"}},{"name":"Zur Luftschiffhalle","postalCode":"53842","locality":"Troisdorf","municipality":{"key":"05382068","name":"Troisdorf, Stadt","type":"Stadt"},"district":{"key":"05382","name":"Rhein-Sieg-Kreis","type":"Kreis"},"federalState":{"key":"05","name":"Nordrhein-Westfalen"}},{"name":"Zur Siegaue","postalCode":"53844","locality":"Troisdorf","municipality":{"key":"05382068","name":"Troisdorf, Stadt","type":"Stadt"},"district":{"key":"05382","name":"Rhein-Sieg-Kreis","type":"Kreis"},"federalState":{"key":"05","name":"Nordrhein-Westfalen"}},{"name":"Zur Siegfähre","postalCode":"53844","locality":"Troisdorf","municipality":{"key":"05382068","name":"Troisdorf, Stadt","type":"Stadt"},"district":{"key":"05382","name":"Rhein-Sieg-Kreis","type":"Kreis"},"federalState":{"key":"05","name":"Nordrhein-Westfalen"}},{"name":"Ölbergstr.","postalCode":"53840","locality":"Troisdorf","municipality":{"key":"05382068","name":"Troisdorf, Stadt","type":"Stadt"},"district":{"key":"05382","name":"Rhein-Sieg-Kreis","type":"Kreis"},"federalState":{"key":"05","name":"Nordrhein-Westfalen"}},]