[{"key":"10184055","name":"Alfred Huggenberger-Strasse","postalCode":"8352","locality":"Elsau","commune":{"key":"219","name":"Elsau","shortName":"Elsau"},"district":{"key":"110","name":"Bezirk Winterthur"},"canton":{"key":"1","code":"ZH","name":"Zürich"},"status":"Real"},{"key":"10008670","name":"Alpstrasse","postalCode":"8352","locality":"Elsau","commune":{"key":"219","name":"Elsau","shortName":"Elsau"},"district":{"key":"110","name":"Bezirk Winterthur"},"canton":{"key":"1","code":"ZH","name":"Zürich"},"status":"Real"},{"key":"10171727","name":"Alte Ricketwilerstrasse","postalCode":"8352","locality":"Elsau","commune":{"key":"219","name":"Elsau","shortName":"Elsau"},"district":{"key":"110","name":"Bezirk Winterthur"},"canton":{"key":"1","code":"ZH","name":"Zürich"},"status":"Real"},{"key":"10075452","name":"Alte St. Gallerstrasse","postalCode":"8352","locality":"Elsau","commune":{"key":"219","name":"Elsau","shortName":"Elsau"},"district":{"key":"110","name":"Bezirk Winterthur"},"canton":{"key":"1","code":"ZH","name":"Zürich"},"status":"Real"},{"key":"10171728","name":"Altschmattstrasse","postalCode":"8352","locality":"Elsau","commune":{"key":"219","name":"Elsau","shortName":"Elsau"},"district":{"key":"110","name":"Bezirk Winterthur"},"canton":{"key":"1","code":"ZH","name":"Zürich"},"status":"Real"},{"key":"10008671","name":"Am Bach","postalCode":"8352","locality":"Elsau","commune":{"key":"219","name":"Elsau","shortName":"Elsau"},"district":{"key":"110","name":"Bezirk Winterthur"},"canton":{"key":"1","code":"ZH","name":"Zürich"},"status":"Real"},{"key":"10171729","name":"Andelbachstrasse","postalCode":"8352","locality":"Elsau","commune":{"key":"219","name":"Elsau","shortName":"Elsau"},"district":{"key":"110","name":"Bezirk Winterthur"},"canton":{"key":"1","code":"ZH","name":"Zürich"},"status":"Real"},{"key":"10171730","name":"Attenbachstrasse","postalCode":"8352","locality":"Elsau","commune":{"key":"219","name":"Elsau","shortName":"Elsau"},"district":{"key":"110","name":"Bezirk Winterthur"},"canton":{"key":"1","code":"ZH","name":"Zürich"},"status":"Real"},{"key":"10125725","name":"Auwiesenstrasse","postalCode":"8352","locality":"Elsau","commune":{"key":"219","name":"Elsau","shortName":"Elsau"},"district":{"key":"110","name":"Bezirk Winterthur"},"canton":{"key":"1","code":"ZH","name":"Zürich"},"status":"Real"},{"key":"10192480","name":"Bahnstrasse","postalCode":"8352","locality":"Elsau","commune":{"key":"219","name":"Elsau","shortName":"Elsau"},"district":{"key":"110","name":"Bezirk Winterthur"},"canton":{"key":"1","code":"ZH","name":"Zürich"},"status":"Real"},{"key":"10182587","name":"Berghaldenstrasse","postalCode":"8352","locality":"Elsau","commune":{"key":"219","name":"Elsau","shortName":"Elsau"},"district":{"key":"110","name":"Bezirk Winterthur"},"canton":{"key":"1","code":"ZH","name":"Zürich"},"status":"Real"},{"key":"10171731","name":"Berghaldenweg","postalCode":"8352","locality":"Elsau","commune":{"key":"219","name":"Elsau","shortName":"Elsau"},"district":{"key":"110","name":"Bezirk Winterthur"},"canton":{"key":"1","code":"ZH","name":"Zürich"},"status":"Real"},{"key":"10171732","name":"Bergholzstrasse","postalCode":"8352","locality":"Elsau","commune":{"key":"219","name":"Elsau","shortName":"Elsau"},"district":{"key":"110","name":"Bezirk Winterthur"},"canton":{"key":"1","code":"ZH","name":"Zürich"},"status":"Real"},{"key":"10171733","name":"Bergliweg","postalCode":"8352","locality":"Elsau","commune":{"key":"219","name":"Elsau","shortName":"Elsau"},"district":{"key":"110","name":"Bezirk Winterthur"},"canton":{"key":"1","code":"ZH","name":"Zürich"},"status":"Real"},{"key":"10110085","name":"Bettlihof","postalCode":"8352","locality":"Elsau","commune":{"key":"219","name":"Elsau","shortName":"Elsau"},"district":{"key":"110","name":"Bezirk Winterthur"},"canton":{"key":"1","code":"ZH","name":"Zürich"},"status":"Real"},{"key":"10075453","name":"Birchstrasse","postalCode":"8352","locality":"Elsau","commune":{"key":"219","name":"Elsau","shortName":"Elsau"},"district":{"key":"110","name":"Bezirk Winterthur"},"canton":{"key":"1","code":"ZH","name":"Zürich"},"status":"Real"},{"key":"10062857","name":"Blumenau","postalCode":"8352","locality":"Elsau","commune":{"key":"219","name":"Elsau","shortName":"Elsau"},"district":{"key":"110","name":"Bezirk Winterthur"},"canton":{"key":"1","code":"ZH","name":"Zürich"},"status":"Real"},{"key":"10171734","name":"Breitenackerstrasse","postalCode":"8352","locality":"Elsau","commune":{"key":"219","name":"Elsau","shortName":"Elsau"},"district":{"key":"110","name":"Bezirk Winterthur"},"canton":{"key":"1","code":"ZH","name":"Zürich"},"status":"Real"},{"key":"10008672","name":"Carl Spitteler-Strasse","postalCode":"8352","locality":"Elsau","commune":{"key":"219","name":"Elsau","shortName":"Elsau"},"district":{"key":"110","name":"Bezirk Winterthur"},"canton":{"key":"1","code":"ZH","name":"Zürich"},"status":"Real"},{"key":"10077658","name":"C.F. Meyer-Strasse","postalCode":"8352","locality":"Elsau","commune":{"key":"219","name":"Elsau","shortName":"Elsau"},"district":{"key":"110","name":"Bezirk Winterthur"},"canton":{"key":"1","code":"ZH","name":"Zürich"},"status":"Real"},{"key":"10075454","name":"Chännerwisstrasse","postalCode":"8352","locality":"Elsau","commune":{"key":"219","name":"Elsau","shortName":"Elsau"},"district":{"key":"110","name":"Bezirk Winterthur"},"canton":{"key":"1","code":"ZH","name":"Zürich"},"status":"Real"},{"key":"10171735","name":"Chapfstrasse","postalCode":"8352","locality":"Elsau","commune":{"key":"219","name":"Elsau","shortName":"Elsau"},"district":{"key":"110","name":"Bezirk Winterthur"},"canton":{"key":"1","code":"ZH","name":"Zürich"},"status":"Real"},{"key":"10171736","name":"Cholholzstrasse","postalCode":"8352","locality":"Elsau","commune":{"key":"219","name":"Elsau","shortName":"Elsau"},"district":{"key":"110","name":"Bezirk Winterthur"},"canton":{"key":"1","code":"ZH","name":"Zürich"},"status":"Real"},{"key":"10182136","name":"Chräenbüel","postalCode":"8352","locality":"Elsau","commune":{"key":"219","name":"Elsau","shortName":"Elsau"},"district":{"key":"110","name":"Bezirk Winterthur"},"canton":{"key":"1","code":"ZH","name":"Zürich"},"status":"Real"},{"key":"10171737","name":"Chräenbüelstrasse","postalCode":"8352","locality":"Elsau","commune":{"key":"219","name":"Elsau","shortName":"Elsau"},"district":{"key":"110","name":"Bezirk Winterthur"},"canton":{"key":"1","code":"ZH","name":"Zürich"},"status":"Real"},{"key":"10062858","name":"Dickbucherstrasse","postalCode":"8352","locality":"Elsau","commune":{"key":"219","name":"Elsau","shortName":"Elsau"},"district":{"key":"110","name":"Bezirk Winterthur"},"canton":{"key":"1","code":"ZH","name":"Zürich"},"status":"Real"},{"key":"10004234","name":"Dorfstrasse","postalCode":"8352","locality":"Elsau","commune":{"key":"219","name":"Elsau","shortName":"Elsau"},"district":{"key":"110","name":"Bezirk Winterthur"},"canton":{"key":"1","code":"ZH","name":"Zürich"},"status":"Real"},{"key":"10171738","name":"Eichholzstrasse","postalCode":"8352","locality":"Elsau","commune":{"key":"219","name":"Elsau","shortName":"Elsau"},"district":{"key":"110","name":"Bezirk Winterthur"},"canton":{"key":"1","code":"ZH","name":"Zürich"},"status":"Real"},{"key":"10007694","name":"Elsauerstrasse","postalCode":"8352","locality":"Elsau","commune":{"key":"219","name":"Elsau","shortName":"Elsau"},"district":{"key":"110","name":"Bezirk Winterthur"},"canton":{"key":"1","code":"ZH","name":"Zürich"},"status":"Real"},{"key":"10171739","name":"Forenholzweg","postalCode":"8352","locality":"Elsau","commune":{"key":"219","name":"Elsau","shortName":"Elsau"},"district":{"key":"110","name":"Bezirk Winterthur"},"canton":{"key":"1","code":"ZH","name":"Zürich"},"status":"Real"},{"key":"10251477","name":"Friedhofweg","postalCode":"8352","locality":"Elsau","commune":{"key":"219","name":"Elsau","shortName":"Elsau"},"district":{"key":"110","name":"Bezirk Winterthur"},"canton":{"key":"1","code":"ZH","name":"Zürich"},"status":"Real"},{"key":"10115005","name":"Frohberg","postalCode":"8352","locality":"Elsau","commune":{"key":"219","name":"Elsau","shortName":"Elsau"},"district":{"key":"110","name":"Bezirk Winterthur"},"canton":{"key":"1","code":"ZH","name":"Zürich"},"status":"Real"},{"key":"10007695","name":"Fulau","postalCode":"8352","locality":"Elsau","commune":{"key":"219","name":"Elsau","shortName":"Elsau"},"district":{"key":"110","name":"Bezirk Winterthur"},"canton":{"key":"1","code":"ZH","name":"Zürich"},"status":"Real"},{"key":"10171740","name":"Fulauerstrasse","postalCode":"8352","locality":"Elsau","commune":{"key":"219","name":"Elsau","shortName":"Elsau"},"district":{"key":"110","name":"Bezirk Winterthur"},"canton":{"key":"1","code":"ZH","name":"Zürich"},"status":"Real"},{"key":"10160701","name":"Fulauertobelstrasse","postalCode":"8352","locality":"Elsau","commune":{"key":"219","name":"Elsau","shortName":"Elsau"},"district":{"key":"110","name":"Bezirk Winterthur"},"canton":{"key":"1","code":"ZH","name":"Zürich"},"status":"Real"},{"key":"10171741","name":"Gatterackerstrasse","postalCode":"8352","locality":"Elsau","commune":{"key":"219","name":"Elsau","shortName":"Elsau"},"district":{"key":"110","name":"Bezirk Winterthur"},"canton":{"key":"1","code":"ZH","name":"Zürich"},"status":"Real"},{"key":"10251479","name":"Geissewägli","postalCode":"8352","locality":"Elsau","commune":{"key":"219","name":"Elsau","shortName":"Elsau"},"district":{"key":"110","name":"Bezirk Winterthur"},"canton":{"key":"1","code":"ZH","name":"Zürich"},"status":"Real"},{"key":"10171742","name":"Geitbergstrasse","postalCode":"8352","locality":"Elsau","commune":{"key":"219","name":"Elsau","shortName":"Elsau"},"district":{"key":"110","name":"Bezirk Winterthur"},"canton":{"key":"1","code":"ZH","name":"Zürich"},"status":"Real"},{"key":"10007696","name":"Gerenweg","postalCode":"8352","locality":"Elsau","commune":{"key":"219","name":"Elsau","shortName":"Elsau"},"district":{"key":"110","name":"Bezirk Winterthur"},"canton":{"key":"1","code":"ZH","name":"Zürich"},"status":"Real"},{"key":"10122763","name":"Gottfried Keller-Strasse","postalCode":"8352","locality":"Elsau","commune":{"key":"219","name":"Elsau","shortName":"Elsau"},"district":{"key":"110","name":"Bezirk Winterthur"},"canton":{"key":"1","code":"ZH","name":"Zürich"},"status":"Real"},{"key":"10075455","name":"Gotthelfstrasse","postalCode":"8352","locality":"Elsau","commune":{"key":"219","name":"Elsau","shortName":"Elsau"},"district":{"key":"110","name":"Bezirk Winterthur"},"canton":{"key":"1","code":"ZH","name":"Zürich"},"status":"Real"},{"key":"10089744","name":"Grossenholzstrasse","postalCode":"8352","locality":"Elsau","commune":{"key":"219","name":"Elsau","shortName":"Elsau"},"district":{"key":"110","name":"Bezirk Winterthur"},"canton":{"key":"1","code":"ZH","name":"Zürich"},"status":"Real"},{"key":"10171743","name":"Guggenbüelstrasse","postalCode":"8352","locality":"Elsau","commune":{"key":"219","name":"Elsau","shortName":"Elsau"},"district":{"key":"110","name":"Bezirk Winterthur"},"canton":{"key":"1","code":"ZH","name":"Zürich"},"status":"Real"},{"key":"10007697","name":"Haldenstrasse","postalCode":"8352","locality":"Elsau","commune":{"key":"219","name":"Elsau","shortName":"Elsau"},"district":{"key":"110","name":"Bezirk Winterthur"},"canton":{"key":"1","code":"ZH","name":"Zürich"},"status":"Real"},{"key":"10088699","name":"Haldenweg","postalCode":"8352","locality":"Elsau","commune":{"key":"219","name":"Elsau","shortName":"Elsau"},"district":{"key":"110","name":"Bezirk Winterthur"},"canton":{"key":"1","code":"ZH","name":"Zürich"},"status":"Real"},{"key":"10163466","name":"Heidenbüelstrasse","postalCode":"8352","locality":"Elsau","commune":{"key":"219","name":"Elsau","shortName":"Elsau"},"district":{"key":"110","name":"Bezirk Winterthur"},"canton":{"key":"1","code":"ZH","name":"Zürich"},"status":"Real"},{"key":"10182135","name":"Heinrich Bosshard-Strasse","postalCode":"8352","locality":"Elsau","commune":{"key":"219","name":"Elsau","shortName":"Elsau"},"district":{"key":"110","name":"Bezirk Winterthur"},"canton":{"key":"1","code":"ZH","name":"Zürich"},"status":"Real"},{"key":"10075456","name":"Hermann Hesse-Strasse","postalCode":"8352","locality":"Elsau","commune":{"key":"219","name":"Elsau","shortName":"Elsau"},"district":{"key":"110","name":"Bezirk Winterthur"},"canton":{"key":"1","code":"ZH","name":"Zürich"},"status":"Real"},{"key":"10171744","name":"Hinterbergstrasse","postalCode":"8352","locality":"Elsau","commune":{"key":"219","name":"Elsau","shortName":"Elsau"},"district":{"key":"110","name":"Bezirk Winterthur"},"canton":{"key":"1","code":"ZH","name":"Zürich"},"status":"Real"},{"key":"10171745","name":"Hintere Etzbergstrasse","postalCode":"8352","locality":"Elsau","commune":{"key":"219","name":"Elsau","shortName":"Elsau"},"district":{"key":"110","name":"Bezirk Winterthur"},"canton":{"key":"1","code":"ZH","name":"Zürich"},"status":"Real"},{"key":"10171746","name":"Hinterweidstrasse","postalCode":"8352","locality":"Elsau","commune":{"key":"219","name":"Elsau","shortName":"Elsau"},"district":{"key":"110","name":"Bezirk Winterthur"},"canton":{"key":"1","code":"ZH","name":"Zürich"},"status":"Real"},{"key":"10251478","name":"Hofwis","postalCode":"8352","locality":"Elsau","commune":{"key":"219","name":"Elsau","shortName":"Elsau"},"district":{"key":"110","name":"Bezirk Winterthur"},"canton":{"key":"1","code":"ZH","name":"Zürich"},"status":"Real"},{"key":"10007698","name":"Hohlgasse","postalCode":"8352","locality":"Elsau","commune":{"key":"219","name":"Elsau","shortName":"Elsau"},"district":{"key":"110","name":"Bezirk Winterthur"},"canton":{"key":"1","code":"ZH","name":"Zürich"},"status":"Real"},{"key":"10007699","name":"Ifang","postalCode":"8352","locality":"Elsau","commune":{"key":"219","name":"Elsau","shortName":"Elsau"},"district":{"key":"110","name":"Bezirk Winterthur"},"canton":{"key":"1","code":"ZH","name":"Zürich"},"status":"Real"},{"key":"10062859","name":"Im Aperg","postalCode":"8352","locality":"Elsau","commune":{"key":"219","name":"Elsau","shortName":"Elsau"},"district":{"key":"110","name":"Bezirk Winterthur"},"canton":{"key":"1","code":"ZH","name":"Zürich"},"status":"Real"},{"key":"10007700","name":"Im Bergli","postalCode":"8352","locality":"Elsau","commune":{"key":"219","name":"Elsau","shortName":"Elsau"},"district":{"key":"110","name":"Bezirk Winterthur"},"canton":{"key":"1","code":"ZH","name":"Zürich"},"status":"Real"},{"key":"10142111","name":"Im Ebnet","postalCode":"8352","locality":"Elsau","commune":{"key":"219","name":"Elsau","shortName":"Elsau"},"district":{"key":"110","name":"Bezirk Winterthur"},"canton":{"key":"1","code":"ZH","name":"Zürich"},"status":"Real"},{"key":"10062860","name":"Im Geren","postalCode":"8352","locality":"Elsau","commune":{"key":"219","name":"Elsau","shortName":"Elsau"},"district":{"key":"110","name":"Bezirk Winterthur"},"canton":{"key":"1","code":"ZH","name":"Zürich"},"status":"Real"},{"key":"10110086","name":"Im Glaser","postalCode":"8352","locality":"Elsau","commune":{"key":"219","name":"Elsau","shortName":"Elsau"},"district":{"key":"110","name":"Bezirk Winterthur"},"canton":{"key":"1","code":"ZH","name":"Zürich"},"status":"Real"},{"key":"10156310","name":"Im Grund","postalCode":"8352","locality":"Elsau","commune":{"key":"219","name":"Elsau","shortName":"Elsau"},"district":{"key":"110","name":"Bezirk Winterthur"},"canton":{"key":"1","code":"ZH","name":"Zürich"},"status":"Real"},{"key":"10062861","name":"Im Halbiacker","postalCode":"8352","locality":"Elsau","commune":{"key":"219","name":"Elsau","shortName":"Elsau"},"district":{"key":"110","name":"Bezirk Winterthur"},"canton":{"key":"1","code":"ZH","name":"Zürich"},"status":"Real"},{"key":"10125726","name":"Im Heidenbühl","postalCode":"8352","locality":"Elsau","commune":{"key":"219","name":"Elsau","shortName":"Elsau"},"district":{"key":"110","name":"Bezirk Winterthur"},"canton":{"key":"1","code":"ZH","name":"Zürich"},"status":"Real"},{"key":"10075457","name":"Im Heidenloch","postalCode":"8352","locality":"Elsau","commune":{"key":"219","name":"Elsau","shortName":"Elsau"},"district":{"key":"110","name":"Bezirk Winterthur"},"canton":{"key":"1","code":"ZH","name":"Zürich"},"status":"Real"},{"key":"10007701","name":"Im Husacker","postalCode":"8352","locality":"Elsau","commune":{"key":"219","name":"Elsau","shortName":"Elsau"},"district":{"key":"110","name":"Bezirk Winterthur"},"canton":{"key":"1","code":"ZH","name":"Zürich"},"status":"Real"},{"key":"10062862","name":"Im Melcher","postalCode":"8352","locality":"Elsau","commune":{"key":"219","name":"Elsau","shortName":"Elsau"},"district":{"key":"110","name":"Bezirk Winterthur"},"canton":{"key":"1","code":"ZH","name":"Zürich"},"status":"Real"},{"key":"10153736","name":"Im Nägelibaum","postalCode":"8352","locality":"Elsau","commune":{"key":"219","name":"Elsau","shortName":"Elsau"},"district":{"key":"110","name":"Bezirk Winterthur"},"canton":{"key":"1","code":"ZH","name":"Zürich"},"status":"Real"},{"key":"10052062","name":"Im Rain","postalCode":"8352","locality":"Elsau","commune":{"key":"219","name":"Elsau","shortName":"Elsau"},"district":{"key":"110","name":"Bezirk Winterthur"},"canton":{"key":"1","code":"ZH","name":"Zürich"},"status":"Real"},{"key":"10075458","name":"Im Rifenbrunnen","postalCode":"8352","locality":"Elsau","commune":{"key":"219","name":"Elsau","shortName":"Elsau"},"district":{"key":"110","name":"Bezirk Winterthur"},"canton":{"key":"1","code":"ZH","name":"Zürich"},"status":"Real"},{"key":"10007702","name":"Im Schründler","postalCode":"8352","locality":"Elsau","commune":{"key":"219","name":"Elsau","shortName":"Elsau"},"district":{"key":"110","name":"Bezirk Winterthur"},"canton":{"key":"1","code":"ZH","name":"Zürich"},"status":"Real"},{"key":"10062863","name":"Im Schürlirain","postalCode":"8352","locality":"Elsau","commune":{"key":"219","name":"Elsau","shortName":"Elsau"},"district":{"key":"110","name":"Bezirk Winterthur"},"canton":{"key":"1","code":"ZH","name":"Zürich"},"status":"Real"},{"key":"10171747","name":"Im Tubental","postalCode":"8352","locality":"Elsau","commune":{"key":"219","name":"Elsau","shortName":"Elsau"},"district":{"key":"110","name":"Bezirk Winterthur"},"canton":{"key":"1","code":"ZH","name":"Zürich"},"status":"Real"},{"key":"10007703","name":"Im Zauner","postalCode":"8352","locality":"Elsau","commune":{"key":"219","name":"Elsau","shortName":"Elsau"},"district":{"key":"110","name":"Bezirk Winterthur"},"canton":{"key":"1","code":"ZH","name":"Zürich"},"status":"Real"},{"key":"10007704","name":"Kirchgasse","postalCode":"8352","locality":"Elsau","commune":{"key":"219","name":"Elsau","shortName":"Elsau"},"district":{"key":"110","name":"Bezirk Winterthur"},"canton":{"key":"1","code":"ZH","name":"Zürich"},"status":"Real"},{"key":"10171748","name":"Laubrütiweg","postalCode":"8352","locality":"Elsau","commune":{"key":"219","name":"Elsau","shortName":"Elsau"},"district":{"key":"110","name":"Bezirk Winterthur"},"canton":{"key":"1","code":"ZH","name":"Zürich"},"status":"Real"},{"key":"10062864","name":"Neuguet","postalCode":"8352","locality":"Elsau","commune":{"key":"219","name":"Elsau","shortName":"Elsau"},"district":{"key":"110","name":"Bezirk Winterthur"},"canton":{"key":"1","code":"ZH","name":"Zürich"},"status":"Real"},{"key":"10171749","name":"Niderwis","postalCode":"8352","locality":"Elsau","commune":{"key":"219","name":"Elsau","shortName":"Elsau"},"district":{"key":"110","name":"Bezirk Winterthur"},"canton":{"key":"1","code":"ZH","name":"Zürich"},"status":"Real"},{"key":"10171750","name":"Nübruchstrasse","postalCode":"8352","locality":"Elsau","commune":{"key":"219","name":"Elsau","shortName":"Elsau"},"district":{"key":"110","name":"Bezirk Winterthur"},"canton":{"key":"1","code":"ZH","name":"Zürich"},"status":"Real"},{"key":"10075459","name":"Obere Egg","postalCode":"8352","locality":"Elsau","commune":{"key":"219","name":"Elsau","shortName":"Elsau"},"district":{"key":"110","name":"Bezirk Winterthur"},"canton":{"key":"1","code":"ZH","name":"Zürich"},"status":"Real"},{"key":"10007705","name":"Oberelsau","postalCode":"8352","locality":"Elsau","commune":{"key":"219","name":"Elsau","shortName":"Elsau"},"district":{"key":"110","name":"Bezirk Winterthur"},"canton":{"key":"1","code":"ZH","name":"Zürich"},"status":"Real"},{"key":"10171751","name":"Obere Rebbergstrasse","postalCode":"8352","locality":"Elsau","commune":{"key":"219","name":"Elsau","shortName":"Elsau"},"district":{"key":"110","name":"Bezirk Winterthur"},"canton":{"key":"1","code":"ZH","name":"Zürich"},"status":"Real"},{"key":"10171752","name":"Oberer Schnasbergweg","postalCode":"8352","locality":"Elsau","commune":{"key":"219","name":"Elsau","shortName":"Elsau"},"district":{"key":"110","name":"Bezirk Winterthur"},"canton":{"key":"1","code":"ZH","name":"Zürich"},"status":"Real"},{"key":"10054273","name":"Obere Schärerstrasse","postalCode":"8352","locality":"Elsau","commune":{"key":"219","name":"Elsau","shortName":"Elsau"},"district":{"key":"110","name":"Bezirk Winterthur"},"canton":{"key":"1","code":"ZH","name":"Zürich"},"status":"Real"},{"key":"10008833","name":"Oberhofstrasse","postalCode":"8352","locality":"Elsau","commune":{"key":"219","name":"Elsau","shortName":"Elsau"},"district":{"key":"110","name":"Bezirk Winterthur"},"canton":{"key":"1","code":"ZH","name":"Zürich"},"status":"Real"},{"key":"10112227","name":"Oberschnasberg","postalCode":"8352","locality":"Elsau","commune":{"key":"219","name":"Elsau","shortName":"Elsau"},"district":{"key":"110","name":"Bezirk Winterthur"},"canton":{"key":"1","code":"ZH","name":"Zürich"},"status":"Real"},{"key":"10171753","name":"Oblimoosstrasse","postalCode":"8352","locality":"Elsau","commune":{"key":"219","name":"Elsau","shortName":"Elsau"},"district":{"key":"110","name":"Bezirk Winterthur"},"canton":{"key":"1","code":"ZH","name":"Zürich"},"status":"Real"},{"key":"10171754","name":"Ougstelstrasse","postalCode":"8352","locality":"Elsau","commune":{"key":"219","name":"Elsau","shortName":"Elsau"},"district":{"key":"110","name":"Bezirk Winterthur"},"canton":{"key":"1","code":"ZH","name":"Zürich"},"status":"Real"},{"key":"10171755","name":"Ougstelweg","postalCode":"8352","locality":"Elsau","commune":{"key":"219","name":"Elsau","shortName":"Elsau"},"district":{"key":"110","name":"Bezirk Winterthur"},"canton":{"key":"1","code":"ZH","name":"Zürich"},"status":"Real"},{"key":"10008834","name":"Pestalozzistrasse","postalCode":"8352","locality":"Elsau","commune":{"key":"219","name":"Elsau","shortName":"Elsau"},"district":{"key":"110","name":"Bezirk Winterthur"},"canton":{"key":"1","code":"ZH","name":"Zürich"},"status":"Real"},{"key":"10171756","name":"Püntackerweg","postalCode":"8352","locality":"Elsau","commune":{"key":"219","name":"Elsau","shortName":"Elsau"},"district":{"key":"110","name":"Bezirk Winterthur"},"canton":{"key":"1","code":"ZH","name":"Zürich"},"status":"Real"},{"key":"10211557","name":"Räterschenstrasse","postalCode":"8352","locality":"Elsau","commune":{"key":"219","name":"Elsau","shortName":"Elsau"},"district":{"key":"110","name":"Bezirk Winterthur"},"canton":{"key":"1","code":"ZH","name":"Zürich"},"status":"Real"},{"key":"10171757","name":"Ricketwilerstrasse","postalCode":"8352","locality":"Elsau","commune":{"key":"219","name":"Elsau","shortName":"Elsau"},"district":{"key":"110","name":"Bezirk Winterthur"},"canton":{"key":"1","code":"ZH","name":"Zürich"},"status":"Real"},{"key":"10062865","name":"Riedstrasse","postalCode":"8352","locality":"Elsau","commune":{"key":"219","name":"Elsau","shortName":"Elsau"},"district":{"key":"110","name":"Bezirk Winterthur"},"canton":{"key":"1","code":"ZH","name":"Zürich"},"status":"Real"},{"key":"10171758","name":"Riedweg","postalCode":"8352","locality":"Elsau","commune":{"key":"219","name":"Elsau","shortName":"Elsau"},"district":{"key":"110","name":"Bezirk Winterthur"},"canton":{"key":"1","code":"ZH","name":"Zürich"},"status":"Real"},{"key":"10171759","name":"Rodlerstrasse","postalCode":"8352","locality":"Elsau","commune":{"key":"219","name":"Elsau","shortName":"Elsau"},"district":{"key":"110","name":"Bezirk Winterthur"},"canton":{"key":"1","code":"ZH","name":"Zürich"},"status":"Real"},{"key":"10171760","name":"Rossweidstrasse","postalCode":"8352","locality":"Elsau","commune":{"key":"219","name":"Elsau","shortName":"Elsau"},"district":{"key":"110","name":"Bezirk Winterthur"},"canton":{"key":"1","code":"ZH","name":"Zürich"},"status":"Real"},{"key":"10008835","name":"Rümikerstrasse","postalCode":"8352","locality":"Elsau","commune":{"key":"219","name":"Elsau","shortName":"Elsau"},"district":{"key":"110","name":"Bezirk Winterthur"},"canton":{"key":"1","code":"ZH","name":"Zürich"},"status":"Real"},{"key":"10171761","name":"Rütistrasse","postalCode":"8352","locality":"Elsau","commune":{"key":"219","name":"Elsau","shortName":"Elsau"},"district":{"key":"110","name":"Bezirk Winterthur"},"canton":{"key":"1","code":"ZH","name":"Zürich"},"status":"Real"},{"key":"10075460","name":"Schauenbergstrasse","postalCode":"8352","locality":"Elsau","commune":{"key":"219","name":"Elsau","shortName":"Elsau"},"district":{"key":"110","name":"Bezirk Winterthur"},"canton":{"key":"1","code":"ZH","name":"Zürich"},"status":"Real"},{"key":"10171762","name":"Scheienzunstrasse","postalCode":"8352","locality":"Elsau","commune":{"key":"219","name":"Elsau","shortName":"Elsau"},"district":{"key":"110","name":"Bezirk Winterthur"},"canton":{"key":"1","code":"ZH","name":"Zürich"},"status":"Real"},{"key":"10182137","name":"Schlatterstrasse","postalCode":"8352","locality":"Elsau","commune":{"key":"219","name":"Elsau","shortName":"Elsau"},"district":{"key":"110","name":"Bezirk Winterthur"},"canton":{"key":"1","code":"ZH","name":"Zürich"},"status":"Real"},{"key":"10120787","name":"Schluck","postalCode":"8352","locality":"Elsau","commune":{"key":"219","name":"Elsau","shortName":"Elsau"},"district":{"key":"110","name":"Bezirk Winterthur"},"canton":{"key":"1","code":"ZH","name":"Zürich"},"status":"Real"},{"key":"10008836","name":"Schnasbergstrasse","postalCode":"8352","locality":"Elsau","commune":{"key":"219","name":"Elsau","shortName":"Elsau"},"district":{"key":"110","name":"Bezirk Winterthur"},"canton":{"key":"1","code":"ZH","name":"Zürich"},"status":"Real"},{"key":"10171763","name":"Schniderholzstrasse","postalCode":"8352","locality":"Elsau","commune":{"key":"219","name":"Elsau","shortName":"Elsau"},"district":{"key":"110","name":"Bezirk Winterthur"},"canton":{"key":"1","code":"ZH","name":"Zürich"},"status":"Real"},{"key":"10062866","name":"Schottikerstrasse","postalCode":"8352","locality":"Elsau","commune":{"key":"219","name":"Elsau","shortName":"Elsau"},"district":{"key":"110","name":"Bezirk Winterthur"},"canton":{"key":"1","code":"ZH","name":"Zürich"},"status":"Real"},{"key":"10154775","name":"Schründlerweg","postalCode":"8352","locality":"Elsau","commune":{"key":"219","name":"Elsau","shortName":"Elsau"},"district":{"key":"110","name":"Bezirk Winterthur"},"canton":{"key":"1","code":"ZH","name":"Zürich"},"status":"Real"},{"key":"10171764","name":"Schwarzrainstrasse","postalCode":"8352","locality":"Elsau","commune":{"key":"219","name":"Elsau","shortName":"Elsau"},"district":{"key":"110","name":"Bezirk Winterthur"},"canton":{"key":"1","code":"ZH","name":"Zürich"},"status":"Real"},{"key":"10171765","name":"Spitzholzweg","postalCode":"8352","locality":"Elsau","commune":{"key":"219","name":"Elsau","shortName":"Elsau"},"district":{"key":"110","name":"Bezirk Winterthur"},"canton":{"key":"1","code":"ZH","name":"Zürich"},"status":"Real"},{"key":"10075461","name":"Stationsstrasse","postalCode":"8352","locality":"Elsau","commune":{"key":"219","name":"Elsau","shortName":"Elsau"},"district":{"key":"110","name":"Bezirk Winterthur"},"canton":{"key":"1","code":"ZH","name":"Zürich"},"status":"Real"},{"key":"10008838","name":"Stegackerstrasse","postalCode":"8352","locality":"Elsau","commune":{"key":"219","name":"Elsau","shortName":"Elsau"},"district":{"key":"110","name":"Bezirk Winterthur"},"canton":{"key":"1","code":"ZH","name":"Zürich"},"status":"Real"},{"key":"10126326","name":"Sternenweg","postalCode":"8352","locality":"Elsau","commune":{"key":"219","name":"Elsau","shortName":"Elsau"},"district":{"key":"110","name":"Bezirk Winterthur"},"canton":{"key":"1","code":"ZH","name":"Zürich"},"status":"Real"},{"key":"10008837","name":"St. Gallerstrasse","postalCode":"8352","locality":"Elsau","commune":{"key":"219","name":"Elsau","shortName":"Elsau"},"district":{"key":"110","name":"Bezirk Winterthur"},"canton":{"key":"1","code":"ZH","name":"Zürich"},"status":"Real"},{"key":"10171766","name":"Strängenholzstrasse","postalCode":"8352","locality":"Elsau","commune":{"key":"219","name":"Elsau","shortName":"Elsau"},"district":{"key":"110","name":"Bezirk Winterthur"},"canton":{"key":"1","code":"ZH","name":"Zürich"},"status":"Real"},{"key":"10008839","name":"Strehlgasse","postalCode":"8352","locality":"Elsau","commune":{"key":"219","name":"Elsau","shortName":"Elsau"},"district":{"key":"110","name":"Bezirk Winterthur"},"canton":{"key":"1","code":"ZH","name":"Zürich"},"status":"Real"},{"key":"10008840","name":"Summerhalden","postalCode":"8352","locality":"Elsau","commune":{"key":"219","name":"Elsau","shortName":"Elsau"},"district":{"key":"110","name":"Bezirk Winterthur"},"canton":{"key":"1","code":"ZH","name":"Zürich"},"status":"Real"},{"key":"10184056","name":"Sunnenberg","postalCode":"8352","locality":"Elsau","commune":{"key":"219","name":"Elsau","shortName":"Elsau"},"district":{"key":"110","name":"Bezirk Winterthur"},"canton":{"key":"1","code":"ZH","name":"Zürich"},"status":"Real"},{"key":"10170495","name":"Talacker","postalCode":"8352","locality":"Elsau","commune":{"key":"219","name":"Elsau","shortName":"Elsau"},"district":{"key":"110","name":"Bezirk Winterthur"},"canton":{"key":"1","code":"ZH","name":"Zürich"},"status":"Real"},{"key":"10075462","name":"Tobelweg","postalCode":"8352","locality":"Elsau","commune":{"key":"219","name":"Elsau","shortName":"Elsau"},"district":{"key":"110","name":"Bezirk Winterthur"},"canton":{"key":"1","code":"ZH","name":"Zürich"},"status":"Real"},{"key":"10008841","name":"Tolhusen","postalCode":"8352","locality":"Elsau","commune":{"key":"219","name":"Elsau","shortName":"Elsau"},"district":{"key":"110","name":"Bezirk Winterthur"},"canton":{"key":"1","code":"ZH","name":"Zürich"},"status":"Real"},{"key":"10110087","name":"Untere Egg","postalCode":"8352","locality":"Elsau","commune":{"key":"219","name":"Elsau","shortName":"Elsau"},"district":{"key":"110","name":"Bezirk Winterthur"},"canton":{"key":"1","code":"ZH","name":"Zürich"},"status":"Real"},{"key":"10171767","name":"Untere Hölltobelstrasse","postalCode":"8352","locality":"Elsau","commune":{"key":"219","name":"Elsau","shortName":"Elsau"},"district":{"key":"110","name":"Bezirk Winterthur"},"canton":{"key":"1","code":"ZH","name":"Zürich"},"status":"Real"},{"key":"10171768","name":"Untere Oblimoosstrasse","postalCode":"8352","locality":"Elsau","commune":{"key":"219","name":"Elsau","shortName":"Elsau"},"district":{"key":"110","name":"Bezirk Winterthur"},"canton":{"key":"1","code":"ZH","name":"Zürich"},"status":"Real"},{"key":"10171769","name":"Untere Rebbergstrasse","postalCode":"8352","locality":"Elsau","commune":{"key":"219","name":"Elsau","shortName":"Elsau"},"district":{"key":"110","name":"Bezirk Winterthur"},"canton":{"key":"1","code":"ZH","name":"Zürich"},"status":"Real"},{"key":"10171770","name":"Unterer Schnasbergweg","postalCode":"8352","locality":"Elsau","commune":{"key":"219","name":"Elsau","shortName":"Elsau"},"district":{"key":"110","name":"Bezirk Winterthur"},"canton":{"key":"1","code":"ZH","name":"Zürich"},"status":"Real"},{"key":"10075463","name":"Untere Schärerstrasse","postalCode":"8352","locality":"Elsau","commune":{"key":"219","name":"Elsau","shortName":"Elsau"},"district":{"key":"110","name":"Bezirk Winterthur"},"canton":{"key":"1","code":"ZH","name":"Zürich"},"status":"Real"},{"key":"10112230","name":"Unterschnasberg","postalCode":"8352","locality":"Elsau","commune":{"key":"219","name":"Elsau","shortName":"Elsau"},"district":{"key":"110","name":"Bezirk Winterthur"},"canton":{"key":"1","code":"ZH","name":"Zürich"},"status":"Real"},{"key":"10172026","name":"Unterschnasbergstrasse","postalCode":"8352","locality":"Elsau","commune":{"key":"219","name":"Elsau","shortName":"Elsau"},"district":{"key":"110","name":"Bezirk Winterthur"},"canton":{"key":"1","code":"ZH","name":"Zürich"},"status":"Real"},{"key":"10172027","name":"Waldfriedhof","postalCode":"8352","locality":"Elsau","commune":{"key":"219","name":"Elsau","shortName":"Elsau"},"district":{"key":"110","name":"Bezirk Winterthur"},"canton":{"key":"1","code":"ZH","name":"Zürich"},"status":"Real"},{"key":"10062867","name":"Wiesendangerstrasse","postalCode":"8352","locality":"Elsau","commune":{"key":"219","name":"Elsau","shortName":"Elsau"},"district":{"key":"110","name":"Bezirk Winterthur"},"canton":{"key":"1","code":"ZH","name":"Zürich"},"status":"Real"},{"key":"10163954","name":"Wisstannenbodenstrasse","postalCode":"8352","locality":"Elsau","commune":{"key":"219","name":"Elsau","shortName":"Elsau"},"district":{"key":"110","name":"Bezirk Winterthur"},"canton":{"key":"1","code":"ZH","name":"Zürich"},"status":"Real"},{"key":"10008842","name":"Zaunerweg","postalCode":"8352","locality":"Elsau","commune":{"key":"219","name":"Elsau","shortName":"Elsau"},"district":{"key":"110","name":"Bezirk Winterthur"},"canton":{"key":"1","code":"ZH","name":"Zürich"},"status":"Real"},]