[{"name":"Alabama-Pfad","postalCode":"08548","locality":"Rosenbach/Vogtland","municipality":{"key":"14523365","name":"Rosenbach/Vogtl.","type":"Kreisangehörige_Gemeinde"},"district":{"key":"14523","name":"Vogtlandkreis","type":"Landkreis"},"federalState":{"key":"14","name":"Sachsen"}},{"name":"Alte Kornbacher Str.","postalCode":"08539","locality":"Rosenbach/Vogtland","municipality":{"key":"14523365","name":"Rosenbach/Vogtl.","type":"Kreisangehörige_Gemeinde"},"district":{"key":"14523","name":"Vogtlandkreis","type":"Landkreis"},"federalState":{"key":"14","name":"Sachsen"}},{"name":"Alte Mühltroffer Str.","postalCode":"08539","locality":"Rosenbach/Vogtland","municipality":{"key":"14523365","name":"Rosenbach/Vogtl.","type":"Kreisangehörige_Gemeinde"},"district":{"key":"14523","name":"Vogtlandkreis","type":"Landkreis"},"federalState":{"key":"14","name":"Sachsen"}},{"name":"Am Anger","postalCode":"08539","locality":"Rosenbach/Vogtland","municipality":{"key":"14523365","name":"Rosenbach/Vogtl.","type":"Kreisangehörige_Gemeinde"},"district":{"key":"14523","name":"Vogtlandkreis","type":"Landkreis"},"federalState":{"key":"14","name":"Sachsen"}},{"name":"Am Bahnhof","postalCode":"08539","locality":"Rosenbach/Vogtland","municipality":{"key":"14523365","name":"Rosenbach/Vogtl.","type":"Kreisangehörige_Gemeinde"},"district":{"key":"14523","name":"Vogtlandkreis","type":"Landkreis"},"federalState":{"key":"14","name":"Sachsen"}},{"name":"Am Berg","postalCode":"08539","locality":"Rosenbach/Vogtland","municipality":{"key":"14523365","name":"Rosenbach/Vogtl.","type":"Kreisangehörige_Gemeinde"},"district":{"key":"14523","name":"Vogtlandkreis","type":"Landkreis"},"federalState":{"key":"14","name":"Sachsen"}},{"name":"Am Berg","postalCode":"08548","locality":"Rosenbach/Vogtland","municipality":{"key":"14523365","name":"Rosenbach/Vogtl.","type":"Kreisangehörige_Gemeinde"},"district":{"key":"14523","name":"Vogtlandkreis","type":"Landkreis"},"federalState":{"key":"14","name":"Sachsen"}},{"name":"Am Dolgowitzer Weg","postalCode":"02708","locality":"Rosenbach","municipality":{"key":"14626470","name":"Rosenbach","type":"Kreisangehörige_Gemeinde"},"district":{"key":"14626","name":"Görlitz","type":"Landkreis"},"federalState":{"key":"14","name":"Sachsen"}},{"name":"Am Hofweg","postalCode":"02708","locality":"Rosenbach","municipality":{"key":"14626470","name":"Rosenbach","type":"Kreisangehörige_Gemeinde"},"district":{"key":"14626","name":"Görlitz","type":"Landkreis"},"federalState":{"key":"14","name":"Sachsen"}},{"name":"Am Höhlenberg","postalCode":"08548","locality":"Rosenbach/Vogtland","municipality":{"key":"14523365","name":"Rosenbach/Vogtl.","type":"Kreisangehörige_Gemeinde"},"district":{"key":"14523","name":"Vogtlandkreis","type":"Landkreis"},"federalState":{"key":"14","name":"Sachsen"}},{"name":"Am Park","postalCode":"08539","locality":"Rosenbach/Vogtland","municipality":{"key":"14523365","name":"Rosenbach/Vogtl.","type":"Kreisangehörige_Gemeinde"},"district":{"key":"14523","name":"Vogtlandkreis","type":"Landkreis"},"federalState":{"key":"14","name":"Sachsen"}},{"name":"Am Rosenbach","postalCode":"02708","locality":"Rosenbach","municipality":{"key":"14626470","name":"Rosenbach","type":"Kreisangehörige_Gemeinde"},"district":{"key":"14626","name":"Görlitz","type":"Landkreis"},"federalState":{"key":"14","name":"Sachsen"}},{"name":"Am Rotstein","postalCode":"02708","locality":"Rosenbach","municipality":{"key":"14626470","name":"Rosenbach","type":"Kreisangehörige_Gemeinde"},"district":{"key":"14626","name":"Görlitz","type":"Landkreis"},"federalState":{"key":"14","name":"Sachsen"}},{"name":"Am Sportplatz","postalCode":"08539","locality":"Rosenbach/Vogtland","municipality":{"key":"14523365","name":"Rosenbach/Vogtl.","type":"Kreisangehörige_Gemeinde"},"district":{"key":"14523","name":"Vogtlandkreis","type":"Landkreis"},"federalState":{"key":"14","name":"Sachsen"}},{"name":"Am Wasserturm","postalCode":"08548","locality":"Rosenbach/Vogtland","municipality":{"key":"14523365","name":"Rosenbach/Vogtl.","type":"Kreisangehörige_Gemeinde"},"district":{"key":"14523","name":"Vogtlandkreis","type":"Landkreis"},"federalState":{"key":"14","name":"Sachsen"}},{"name":"Am Wiesengrund","postalCode":"08539","locality":"Rosenbach/Vogtland","municipality":{"key":"14523365","name":"Rosenbach/Vogtl.","type":"Kreisangehörige_Gemeinde"},"district":{"key":"14523","name":"Vogtlandkreis","type":"Landkreis"},"federalState":{"key":"14","name":"Sachsen"}},{"name":"An den Baumschulen","postalCode":"02708","locality":"Rosenbach","municipality":{"key":"14626470","name":"Rosenbach","type":"Kreisangehörige_Gemeinde"},"district":{"key":"14626","name":"Görlitz","type":"Landkreis"},"federalState":{"key":"14","name":"Sachsen"}},{"name":"An der Bahn","postalCode":"08548","locality":"Rosenbach/Vogtland","municipality":{"key":"14523365","name":"Rosenbach/Vogtl.","type":"Kreisangehörige_Gemeinde"},"district":{"key":"14523","name":"Vogtlandkreis","type":"Landkreis"},"federalState":{"key":"14","name":"Sachsen"}},{"name":"An der Dorfaue","postalCode":"02708","locality":"Rosenbach","municipality":{"key":"14626470","name":"Rosenbach","type":"Kreisangehörige_Gemeinde"},"district":{"key":"14626","name":"Görlitz","type":"Landkreis"},"federalState":{"key":"14","name":"Sachsen"}},{"name":"An der Hohle","postalCode":"08548","locality":"Rosenbach/Vogtland","municipality":{"key":"14523365","name":"Rosenbach/Vogtl.","type":"Kreisangehörige_Gemeinde"},"district":{"key":"14523","name":"Vogtlandkreis","type":"Landkreis"},"federalState":{"key":"14","name":"Sachsen"}},{"name":"An der Leith","postalCode":"08548","locality":"Rosenbach/Vogtland","municipality":{"key":"14523365","name":"Rosenbach/Vogtl.","type":"Kreisangehörige_Gemeinde"},"district":{"key":"14523","name":"Vogtlandkreis","type":"Landkreis"},"federalState":{"key":"14","name":"Sachsen"}},{"name":"Antonstr.","postalCode":"08539","locality":"Rosenbach/Vogtland","municipality":{"key":"14523365","name":"Rosenbach/Vogtl.","type":"Kreisangehörige_Gemeinde"},"district":{"key":"14523","name":"Vogtlandkreis","type":"Landkreis"},"federalState":{"key":"14","name":"Sachsen"}},{"name":"Arbeitsdienstweg","postalCode":"08539","locality":"Rosenbach/Vogtland","municipality":{"key":"14523365","name":"Rosenbach/Vogtl.","type":"Kreisangehörige_Gemeinde"},"district":{"key":"14523","name":"Vogtlandkreis","type":"Landkreis"},"federalState":{"key":"14","name":"Sachsen"}},{"name":"August-Bebel-Str.","postalCode":"08548","locality":"Rosenbach/Vogtland","municipality":{"key":"14523365","name":"Rosenbach/Vogtl.","type":"Kreisangehörige_Gemeinde"},"district":{"key":"14523","name":"Vogtlandkreis","type":"Landkreis"},"federalState":{"key":"14","name":"Sachsen"}},{"name":"Bachgasse","postalCode":"08548","locality":"Rosenbach/Vogtland","municipality":{"key":"14523365","name":"Rosenbach/Vogtl.","type":"Kreisangehörige_Gemeinde"},"district":{"key":"14523","name":"Vogtlandkreis","type":"Landkreis"},"federalState":{"key":"14","name":"Sachsen"}},{"name":"Bahnhofstr.","postalCode":"08539","locality":"Rosenbach/Vogtland","municipality":{"key":"14523365","name":"Rosenbach/Vogtl.","type":"Kreisangehörige_Gemeinde"},"district":{"key":"14523","name":"Vogtlandkreis","type":"Landkreis"},"federalState":{"key":"14","name":"Sachsen"}},{"name":"Bahnhofstr.","postalCode":"08548","locality":"Rosenbach/Vogtland","municipality":{"key":"14523365","name":"Rosenbach/Vogtl.","type":"Kreisangehörige_Gemeinde"},"district":{"key":"14523","name":"Vogtlandkreis","type":"Landkreis"},"federalState":{"key":"14","name":"Sachsen"}},{"name":"Bahnweg","postalCode":"08539","locality":"Rosenbach/Vogtland","municipality":{"key":"14523365","name":"Rosenbach/Vogtl.","type":"Kreisangehörige_Gemeinde"},"district":{"key":"14523","name":"Vogtlandkreis","type":"Landkreis"},"federalState":{"key":"14","name":"Sachsen"}},{"name":"Berg","postalCode":"08539","locality":"Rosenbach/Vogtland","municipality":{"key":"14523365","name":"Rosenbach/Vogtl.","type":"Kreisangehörige_Gemeinde"},"district":{"key":"14523","name":"Vogtlandkreis","type":"Landkreis"},"federalState":{"key":"14","name":"Sachsen"}},{"name":"Bergblick","postalCode":"02708","locality":"Rosenbach","municipality":{"key":"14626470","name":"Rosenbach","type":"Kreisangehörige_Gemeinde"},"district":{"key":"14626","name":"Görlitz","type":"Landkreis"},"federalState":{"key":"14","name":"Sachsen"}},{"name":"Berggasse","postalCode":"08539","locality":"Rosenbach/Vogtland","municipality":{"key":"14523365","name":"Rosenbach/Vogtl.","type":"Kreisangehörige_Gemeinde"},"district":{"key":"14523","name":"Vogtlandkreis","type":"Landkreis"},"federalState":{"key":"14","name":"Sachsen"}},{"name":"Berggasse","postalCode":"08548","locality":"Rosenbach/Vogtland","municipality":{"key":"14523365","name":"Rosenbach/Vogtl.","type":"Kreisangehörige_Gemeinde"},"district":{"key":"14523","name":"Vogtlandkreis","type":"Landkreis"},"federalState":{"key":"14","name":"Sachsen"}},{"name":"Bergstr.","postalCode":"08527","locality":"Rosenbach/Vogtland","municipality":{"key":"14523365","name":"Rosenbach/Vogtl.","type":"Kreisangehörige_Gemeinde"},"district":{"key":"14523","name":"Vogtlandkreis","type":"Landkreis"},"federalState":{"key":"14","name":"Sachsen"}},{"name":"Bergstr.","postalCode":"08539","locality":"Rosenbach/Vogtland","municipality":{"key":"14523365","name":"Rosenbach/Vogtl.","type":"Kreisangehörige_Gemeinde"},"district":{"key":"14523","name":"Vogtlandkreis","type":"Landkreis"},"federalState":{"key":"14","name":"Sachsen"}},{"name":"Bernsgrüner Str.","postalCode":"08539","locality":"Rosenbach/Vogtland","municipality":{"key":"14523365","name":"Rosenbach/Vogtl.","type":"Kreisangehörige_Gemeinde"},"district":{"key":"14523","name":"Vogtlandkreis","type":"Landkreis"},"federalState":{"key":"14","name":"Sachsen"}},{"name":"Bernstädter Str.","postalCode":"02708","locality":"Rosenbach","municipality":{"key":"14626470","name":"Rosenbach","type":"Kreisangehörige_Gemeinde"},"district":{"key":"14626","name":"Görlitz","type":"Landkreis"},"federalState":{"key":"14","name":"Sachsen"}},{"name":"Bitthäuser","postalCode":"08539","locality":"Rosenbach/Vogtland","municipality":{"key":"14523365","name":"Rosenbach/Vogtl.","type":"Kreisangehörige_Gemeinde"},"district":{"key":"14523","name":"Vogtlandkreis","type":"Landkreis"},"federalState":{"key":"14","name":"Sachsen"}},{"name":"Blaugasse","postalCode":"08539","locality":"Rosenbach/Vogtland","municipality":{"key":"14523365","name":"Rosenbach/Vogtl.","type":"Kreisangehörige_Gemeinde"},"district":{"key":"14523","name":"Vogtlandkreis","type":"Landkreis"},"federalState":{"key":"14","name":"Sachsen"}},{"name":"Blumengasse","postalCode":"08548","locality":"Rosenbach/Vogtland","municipality":{"key":"14523365","name":"Rosenbach/Vogtl.","type":"Kreisangehörige_Gemeinde"},"district":{"key":"14523","name":"Vogtlandkreis","type":"Landkreis"},"federalState":{"key":"14","name":"Sachsen"}},{"name":"Brandflügel","postalCode":"08527","locality":"Rosenbach/Vogtland","municipality":{"key":"14523365","name":"Rosenbach/Vogtl.","type":"Kreisangehörige_Gemeinde"},"district":{"key":"14523","name":"Vogtlandkreis","type":"Landkreis"},"federalState":{"key":"14","name":"Sachsen"}},{"name":"Buchenstr.","postalCode":"08539","locality":"Rosenbach/Vogtland","municipality":{"key":"14523365","name":"Rosenbach/Vogtl.","type":"Kreisangehörige_Gemeinde"},"district":{"key":"14523","name":"Vogtlandkreis","type":"Landkreis"},"federalState":{"key":"14","name":"Sachsen"}},{"name":"Carl-Friedrich-Gauß-Str.","postalCode":"02826","locality":"Görlitz","municipality":{"key":"14626110","name":"Görlitz, Stadt","type":"Stadt"},"district":{"key":"14626","name":"Görlitz","type":"Landkreis"},"federalState":{"key":"14","name":"Sachsen"}},{"name":"Carl-von-Ossietzky-Str.","postalCode":"02826","locality":"Görlitz","municipality":{"key":"14626110","name":"Görlitz, Stadt","type":"Stadt"},"district":{"key":"14626","name":"Görlitz","type":"Landkreis"},"federalState":{"key":"14","name":"Sachsen"}},{"name":"Carolusstr.","postalCode":"02827","locality":"Görlitz","municipality":{"key":"14626110","name":"Görlitz, Stadt","type":"Stadt"},"district":{"key":"14626","name":"Görlitz","type":"Landkreis"},"federalState":{"key":"14","name":"Sachsen"}},{"name":"Christian-Heuck-Str.","postalCode":"02827","locality":"Görlitz","municipality":{"key":"14626110","name":"Görlitz, Stadt","type":"Stadt"},"district":{"key":"14626","name":"Görlitz","type":"Landkreis"},"federalState":{"key":"14","name":"Sachsen"}},{"name":"Christoph-Lüders-Str.","postalCode":"02826","locality":"Görlitz","municipality":{"key":"14626110","name":"Görlitz, Stadt","type":"Stadt"},"district":{"key":"14626","name":"Görlitz","type":"Landkreis"},"federalState":{"key":"14","name":"Sachsen"}},{"name":"Chrysanthemenweg","postalCode":"02827","locality":"Görlitz","municipality":{"key":"14626110","name":"Görlitz, Stadt","type":"Stadt"},"district":{"key":"14626","name":"Görlitz","type":"Landkreis"},"federalState":{"key":"14","name":"Sachsen"}},{"name":"Clara-Zetkin-Str.","postalCode":"02827","locality":"Görlitz","municipality":{"key":"14626110","name":"Görlitz, Stadt","type":"Stadt"},"district":{"key":"14626","name":"Görlitz","type":"Landkreis"},"federalState":{"key":"14","name":"Sachsen"}},{"name":"Conrad-Schiedt-Str.","postalCode":"02826","locality":"Görlitz","municipality":{"key":"14626110","name":"Görlitz, Stadt","type":"Stadt"},"district":{"key":"14626","name":"Görlitz","type":"Landkreis"},"federalState":{"key":"14","name":"Sachsen"}},{"name":"Cottbuser Str.","postalCode":"02826","locality":"Görlitz","municipality":{"key":"14626110","name":"Görlitz, Stadt","type":"Stadt"},"district":{"key":"14626","name":"Görlitz","type":"Landkreis"},"federalState":{"key":"14","name":"Sachsen"}},{"name":"Dorfplatz","postalCode":"08527","locality":"Rosenbach/Vogtland","municipality":{"key":"14523365","name":"Rosenbach/Vogtl.","type":"Kreisangehörige_Gemeinde"},"district":{"key":"14523","name":"Vogtlandkreis","type":"Landkreis"},"federalState":{"key":"14","name":"Sachsen"}},{"name":"Dorfplatz","postalCode":"08539","locality":"Rosenbach/Vogtland","municipality":{"key":"14523365","name":"Rosenbach/Vogtl.","type":"Kreisangehörige_Gemeinde"},"district":{"key":"14523","name":"Vogtlandkreis","type":"Landkreis"},"federalState":{"key":"14","name":"Sachsen"}},{"name":"Dorfstr.","postalCode":"02708","locality":"Rosenbach","municipality":{"key":"14626470","name":"Rosenbach","type":"Kreisangehörige_Gemeinde"},"district":{"key":"14626","name":"Görlitz","type":"Landkreis"},"federalState":{"key":"14","name":"Sachsen"}},{"name":"Dorfstr.","postalCode":"08539","locality":"Rosenbach/Vogtland","municipality":{"key":"14523365","name":"Rosenbach/Vogtl.","type":"Kreisangehörige_Gemeinde"},"district":{"key":"14523","name":"Vogtlandkreis","type":"Landkreis"},"federalState":{"key":"14","name":"Sachsen"}},{"name":"Drochauser Str.","postalCode":"08539","locality":"Rosenbach/Vogtland","municipality":{"key":"14523365","name":"Rosenbach/Vogtl.","type":"Kreisangehörige_Gemeinde"},"district":{"key":"14523","name":"Vogtlandkreis","type":"Landkreis"},"federalState":{"key":"14","name":"Sachsen"}},{"name":"Eichigt","postalCode":"08527","locality":"Rosenbach/Vogtland","municipality":{"key":"14523365","name":"Rosenbach/Vogtl.","type":"Kreisangehörige_Gemeinde"},"district":{"key":"14523","name":"Vogtlandkreis","type":"Landkreis"},"federalState":{"key":"14","name":"Sachsen"}},{"name":"Elmweg","postalCode":"08539","locality":"Rosenbach/Vogtland","municipality":{"key":"14523365","name":"Rosenbach/Vogtl.","type":"Kreisangehörige_Gemeinde"},"district":{"key":"14523","name":"Vogtlandkreis","type":"Landkreis"},"federalState":{"key":"14","name":"Sachsen"}},{"name":"Erlichtweg","postalCode":"08539","locality":"Rosenbach/Vogtland","municipality":{"key":"14523365","name":"Rosenbach/Vogtl.","type":"Kreisangehörige_Gemeinde"},"district":{"key":"14523","name":"Vogtlandkreis","type":"Landkreis"},"federalState":{"key":"14","name":"Sachsen"}},{"name":"Ernst-Thälmann-Str.","postalCode":"08548","locality":"Rosenbach/Vogtland","municipality":{"key":"14523365","name":"Rosenbach/Vogtl.","type":"Kreisangehörige_Gemeinde"},"district":{"key":"14523","name":"Vogtlandkreis","type":"Landkreis"},"federalState":{"key":"14","name":"Sachsen"}},{"name":"Fasendorfer Str.","postalCode":"08539","locality":"Rosenbach/Vogtland","municipality":{"key":"14523365","name":"Rosenbach/Vogtl.","type":"Kreisangehörige_Gemeinde"},"district":{"key":"14523","name":"Vogtlandkreis","type":"Landkreis"},"federalState":{"key":"14","name":"Sachsen"}},{"name":"Fasendorfer Weg","postalCode":"08527","locality":"Rosenbach/Vogtland","municipality":{"key":"14523365","name":"Rosenbach/Vogtl.","type":"Kreisangehörige_Gemeinde"},"district":{"key":"14523","name":"Vogtlandkreis","type":"Landkreis"},"federalState":{"key":"14","name":"Sachsen"}},{"name":"Feldstr.","postalCode":"08548","locality":"Rosenbach/Vogtland","municipality":{"key":"14523365","name":"Rosenbach/Vogtl.","type":"Kreisangehörige_Gemeinde"},"district":{"key":"14523","name":"Vogtlandkreis","type":"Landkreis"},"federalState":{"key":"14","name":"Sachsen"}},{"name":"Feldweg","postalCode":"08527","locality":"Rosenbach/Vogtland","municipality":{"key":"14523365","name":"Rosenbach/Vogtl.","type":"Kreisangehörige_Gemeinde"},"district":{"key":"14523","name":"Vogtlandkreis","type":"Landkreis"},"federalState":{"key":"14","name":"Sachsen"}},{"name":"Friedensstr.","postalCode":"08539","locality":"Rosenbach/Vogtland","municipality":{"key":"14523365","name":"Rosenbach/Vogtl.","type":"Kreisangehörige_Gemeinde"},"district":{"key":"14523","name":"Vogtlandkreis","type":"Landkreis"},"federalState":{"key":"14","name":"Sachsen"}},{"name":"Friedrich-Engels-Str.","postalCode":"08548","locality":"Rosenbach/Vogtland","municipality":{"key":"14523365","name":"Rosenbach/Vogtl.","type":"Kreisangehörige_Gemeinde"},"district":{"key":"14523","name":"Vogtlandkreis","type":"Landkreis"},"federalState":{"key":"14","name":"Sachsen"}},{"name":"Fröbersgrüner Str.","postalCode":"08548","locality":"Rosenbach/Vogtland","municipality":{"key":"14523365","name":"Rosenbach/Vogtl.","type":"Kreisangehörige_Gemeinde"},"district":{"key":"14523","name":"Vogtlandkreis","type":"Landkreis"},"federalState":{"key":"14","name":"Sachsen"}},{"name":"Galopp","postalCode":"08527","locality":"Rosenbach/Vogtland","municipality":{"key":"14523365","name":"Rosenbach/Vogtl.","type":"Kreisangehörige_Gemeinde"},"district":{"key":"14523","name":"Vogtlandkreis","type":"Landkreis"},"federalState":{"key":"14","name":"Sachsen"}},{"name":"Gartenstr.","postalCode":"08539","locality":"Rosenbach/Vogtland","municipality":{"key":"14523365","name":"Rosenbach/Vogtl.","type":"Kreisangehörige_Gemeinde"},"district":{"key":"14523","name":"Vogtlandkreis","type":"Landkreis"},"federalState":{"key":"14","name":"Sachsen"}},{"name":"Goethestr.","postalCode":"08539","locality":"Rosenbach/Vogtland","municipality":{"key":"14523365","name":"Rosenbach/Vogtl.","type":"Kreisangehörige_Gemeinde"},"district":{"key":"14523","name":"Vogtlandkreis","type":"Landkreis"},"federalState":{"key":"14","name":"Sachsen"}},{"name":"Goethestr.","postalCode":"08548","locality":"Rosenbach/Vogtland","municipality":{"key":"14523365","name":"Rosenbach/Vogtl.","type":"Kreisangehörige_Gemeinde"},"district":{"key":"14523","name":"Vogtlandkreis","type":"Landkreis"},"federalState":{"key":"14","name":"Sachsen"}},{"name":"Gollepark","postalCode":"08548","locality":"Rosenbach/Vogtland","municipality":{"key":"14523365","name":"Rosenbach/Vogtl.","type":"Kreisangehörige_Gemeinde"},"district":{"key":"14523","name":"Vogtlandkreis","type":"Landkreis"},"federalState":{"key":"14","name":"Sachsen"}},{"name":"Grenzweg","postalCode":"08548","locality":"Rosenbach/Vogtland","municipality":{"key":"14523365","name":"Rosenbach/Vogtl.","type":"Kreisangehörige_Gemeinde"},"district":{"key":"14523","name":"Vogtlandkreis","type":"Landkreis"},"federalState":{"key":"14","name":"Sachsen"}},{"name":"Grüne Aue","postalCode":"02708","locality":"Rosenbach","municipality":{"key":"14626470","name":"Rosenbach","type":"Kreisangehörige_Gemeinde"},"district":{"key":"14626","name":"Görlitz","type":"Landkreis"},"federalState":{"key":"14","name":"Sachsen"}},{"name":"Hauptstr.","postalCode":"08527","locality":"Rosenbach/Vogtland","municipality":{"key":"14523365","name":"Rosenbach/Vogtl.","type":"Kreisangehörige_Gemeinde"},"district":{"key":"14523","name":"Vogtlandkreis","type":"Landkreis"},"federalState":{"key":"14","name":"Sachsen"}},{"name":"Hauptstr.","postalCode":"08539","locality":"Rosenbach/Vogtland","municipality":{"key":"14523365","name":"Rosenbach/Vogtl.","type":"Kreisangehörige_Gemeinde"},"district":{"key":"14523","name":"Vogtlandkreis","type":"Landkreis"},"federalState":{"key":"14","name":"Sachsen"}},{"name":"Hauptstr.","postalCode":"08548","locality":"Rosenbach/Vogtland","municipality":{"key":"14523365","name":"Rosenbach/Vogtl.","type":"Kreisangehörige_Gemeinde"},"district":{"key":"14523","name":"Vogtlandkreis","type":"Landkreis"},"federalState":{"key":"14","name":"Sachsen"}},{"name":"Hauptstr. (Leubnitz)","postalCode":"08539","locality":"Rosenbach/Vogtland","municipality":{"key":"14523365","name":"Rosenbach/Vogtl.","type":"Kreisangehörige_Gemeinde"},"district":{"key":"14523","name":"Vogtlandkreis","type":"Landkreis"},"federalState":{"key":"14","name":"Sachsen"}},{"name":"Häuselweg","postalCode":"08527","locality":"Rosenbach/Vogtland","municipality":{"key":"14523365","name":"Rosenbach/Vogtl.","type":"Kreisangehörige_Gemeinde"},"district":{"key":"14523","name":"Vogtlandkreis","type":"Landkreis"},"federalState":{"key":"14","name":"Sachsen"}},{"name":"Häuselweg","postalCode":"08539","locality":"Rosenbach/Vogtland","municipality":{"key":"14523365","name":"Rosenbach/Vogtl.","type":"Kreisangehörige_Gemeinde"},"district":{"key":"14523","name":"Vogtlandkreis","type":"Landkreis"},"federalState":{"key":"14","name":"Sachsen"}},{"name":"Hechtteichweg","postalCode":"08539","locality":"Rosenbach/Vogtland","municipality":{"key":"14523365","name":"Rosenbach/Vogtl.","type":"Kreisangehörige_Gemeinde"},"district":{"key":"14523","name":"Vogtlandkreis","type":"Landkreis"},"federalState":{"key":"14","name":"Sachsen"}},{"name":"Heidegarten","postalCode":"08548","locality":"Rosenbach/Vogtland","municipality":{"key":"14523365","name":"Rosenbach/Vogtl.","type":"Kreisangehörige_Gemeinde"},"district":{"key":"14523","name":"Vogtlandkreis","type":"Landkreis"},"federalState":{"key":"14","name":"Sachsen"}},{"name":"Heinestr.","postalCode":"08548","locality":"Rosenbach/Vogtland","municipality":{"key":"14523365","name":"Rosenbach/Vogtl.","type":"Kreisangehörige_Gemeinde"},"district":{"key":"14523","name":"Vogtlandkreis","type":"Landkreis"},"federalState":{"key":"14","name":"Sachsen"}},{"name":"Hoher Weg","postalCode":"08539","locality":"Rosenbach/Vogtland","municipality":{"key":"14523365","name":"Rosenbach/Vogtl.","type":"Kreisangehörige_Gemeinde"},"district":{"key":"14523","name":"Vogtlandkreis","type":"Landkreis"},"federalState":{"key":"14","name":"Sachsen"}},{"name":"Hohe Str.","postalCode":"08527","locality":"Rosenbach/Vogtland","municipality":{"key":"14523365","name":"Rosenbach/Vogtl.","type":"Kreisangehörige_Gemeinde"},"district":{"key":"14523","name":"Vogtlandkreis","type":"Landkreis"},"federalState":{"key":"14","name":"Sachsen"}},{"name":"Hohe Str.","postalCode":"08539","locality":"Rosenbach/Vogtland","municipality":{"key":"14523365","name":"Rosenbach/Vogtl.","type":"Kreisangehörige_Gemeinde"},"district":{"key":"14523","name":"Vogtlandkreis","type":"Landkreis"},"federalState":{"key":"14","name":"Sachsen"}},{"name":"Höhlenberg","postalCode":"08548","locality":"Rosenbach/Vogtland","municipality":{"key":"14523365","name":"Rosenbach/Vogtl.","type":"Kreisangehörige_Gemeinde"},"district":{"key":"14523","name":"Vogtlandkreis","type":"Landkreis"},"federalState":{"key":"14","name":"Sachsen"}},{"name":"Höhlenpark","postalCode":"08548","locality":"Rosenbach/Vogtland","municipality":{"key":"14523365","name":"Rosenbach/Vogtl.","type":"Kreisangehörige_Gemeinde"},"district":{"key":"14523","name":"Vogtlandkreis","type":"Landkreis"},"federalState":{"key":"14","name":"Sachsen"}},{"name":"Holzwiesenweg","postalCode":"08539","locality":"Rosenbach/Vogtland","municipality":{"key":"14523365","name":"Rosenbach/Vogtl.","type":"Kreisangehörige_Gemeinde"},"district":{"key":"14523","name":"Vogtlandkreis","type":"Landkreis"},"federalState":{"key":"14","name":"Sachsen"}},{"name":"Im Bogen","postalCode":"02826","locality":"Görlitz","municipality":{"key":"14626110","name":"Görlitz, Stadt","type":"Stadt"},"district":{"key":"14626","name":"Görlitz","type":"Landkreis"},"federalState":{"key":"14","name":"Sachsen"}},{"name":"Immanuel-Kant-Str.","postalCode":"02827","locality":"Görlitz","municipality":{"key":"14626110","name":"Görlitz, Stadt","type":"Stadt"},"district":{"key":"14626","name":"Görlitz","type":"Landkreis"},"federalState":{"key":"14","name":"Sachsen"}},{"name":"In der Aue","postalCode":"02827","locality":"Görlitz","municipality":{"key":"14626110","name":"Görlitz, Stadt","type":"Stadt"},"district":{"key":"14626","name":"Görlitz","type":"Landkreis"},"federalState":{"key":"14","name":"Sachsen"}},{"name":"Jadgflügel","postalCode":"08539","locality":"Rosenbach/Vogtland","municipality":{"key":"14523365","name":"Rosenbach/Vogtl.","type":"Kreisangehörige_Gemeinde"},"district":{"key":"14523","name":"Vogtlandkreis","type":"Landkreis"},"federalState":{"key":"14","name":"Sachsen"}},{"name":"Kaffeesteig","postalCode":"08548","locality":"Rosenbach/Vogtland","municipality":{"key":"14523365","name":"Rosenbach/Vogtl.","type":"Kreisangehörige_Gemeinde"},"district":{"key":"14523","name":"Vogtlandkreis","type":"Landkreis"},"federalState":{"key":"14","name":"Sachsen"}},{"name":"Karl-Liebknecht-Str.","postalCode":"08548","locality":"Rosenbach/Vogtland","municipality":{"key":"14523365","name":"Rosenbach/Vogtl.","type":"Kreisangehörige_Gemeinde"},"district":{"key":"14523","name":"Vogtlandkreis","type":"Landkreis"},"federalState":{"key":"14","name":"Sachsen"}},{"name":"Kindergartenweg","postalCode":"02708","locality":"Rosenbach","municipality":{"key":"14626470","name":"Rosenbach","type":"Kreisangehörige_Gemeinde"},"district":{"key":"14626","name":"Görlitz","type":"Landkreis"},"federalState":{"key":"14","name":"Sachsen"}},{"name":"Kirchsteig","postalCode":"08539","locality":"Rosenbach/Vogtland","municipality":{"key":"14523365","name":"Rosenbach/Vogtl.","type":"Kreisangehörige_Gemeinde"},"district":{"key":"14523","name":"Vogtlandkreis","type":"Landkreis"},"federalState":{"key":"14","name":"Sachsen"}},{"name":"Kirchsteig","postalCode":"08548","locality":"Rosenbach/Vogtland","municipality":{"key":"14523365","name":"Rosenbach/Vogtl.","type":"Kreisangehörige_Gemeinde"},"district":{"key":"14523","name":"Vogtlandkreis","type":"Landkreis"},"federalState":{"key":"14","name":"Sachsen"}},{"name":"Kirchweg","postalCode":"02708","locality":"Rosenbach","municipality":{"key":"14626470","name":"Rosenbach","type":"Kreisangehörige_Gemeinde"},"district":{"key":"14626","name":"Görlitz","type":"Landkreis"},"federalState":{"key":"14","name":"Sachsen"}},{"name":"Kirchweg","postalCode":"08539","locality":"Rosenbach/Vogtland","municipality":{"key":"14523365","name":"Rosenbach/Vogtl.","type":"Kreisangehörige_Gemeinde"},"district":{"key":"14523","name":"Vogtlandkreis","type":"Landkreis"},"federalState":{"key":"14","name":"Sachsen"}},{"name":"Kirschallee","postalCode":"02708","locality":"Rosenbach","municipality":{"key":"14626470","name":"Rosenbach","type":"Kreisangehörige_Gemeinde"},"district":{"key":"14626","name":"Görlitz","type":"Landkreis"},"federalState":{"key":"14","name":"Sachsen"}},{"name":"Kleiner Dorfweg","postalCode":"02708","locality":"Rosenbach","municipality":{"key":"14626470","name":"Rosenbach","type":"Kreisangehörige_Gemeinde"},"district":{"key":"14626","name":"Görlitz","type":"Landkreis"},"federalState":{"key":"14","name":"Sachsen"}},{"name":"Kornbacher Str.","postalCode":"08539","locality":"Rosenbach/Vogtland","municipality":{"key":"14523365","name":"Rosenbach/Vogtl.","type":"Kreisangehörige_Gemeinde"},"district":{"key":"14523","name":"Vogtlandkreis","type":"Landkreis"},"federalState":{"key":"14","name":"Sachsen"}},{"name":"Kulturenweg","postalCode":"08548","locality":"Rosenbach/Vogtland","municipality":{"key":"14523365","name":"Rosenbach/Vogtl.","type":"Kreisangehörige_Gemeinde"},"district":{"key":"14523","name":"Vogtlandkreis","type":"Landkreis"},"federalState":{"key":"14","name":"Sachsen"}},{"name":"Kümmelberg","postalCode":"02708","locality":"Rosenbach","municipality":{"key":"14626470","name":"Rosenbach","type":"Kreisangehörige_Gemeinde"},"district":{"key":"14626","name":"Görlitz","type":"Landkreis"},"federalState":{"key":"14","name":"Sachsen"}},{"name":"Langer Flügel","postalCode":"08527","locality":"Rosenbach/Vogtland","municipality":{"key":"14523365","name":"Rosenbach/Vogtl.","type":"Kreisangehörige_Gemeinde"},"district":{"key":"14523","name":"Vogtlandkreis","type":"Landkreis"},"federalState":{"key":"14","name":"Sachsen"}},{"name":"Langer Weg","postalCode":"08539","locality":"Rosenbach/Vogtland","municipality":{"key":"14523365","name":"Rosenbach/Vogtl.","type":"Kreisangehörige_Gemeinde"},"district":{"key":"14523","name":"Vogtlandkreis","type":"Landkreis"},"federalState":{"key":"14","name":"Sachsen"}},{"name":"Lessingstr.","postalCode":"08548","locality":"Rosenbach/Vogtland","municipality":{"key":"14523365","name":"Rosenbach/Vogtl.","type":"Kreisangehörige_Gemeinde"},"district":{"key":"14523","name":"Vogtlandkreis","type":"Landkreis"},"federalState":{"key":"14","name":"Sachsen"}},{"name":"Leubnitzer Str.","postalCode":"08539","locality":"Rosenbach/Vogtland","municipality":{"key":"14523365","name":"Rosenbach/Vogtl.","type":"Kreisangehörige_Gemeinde"},"district":{"key":"14523","name":"Vogtlandkreis","type":"Landkreis"},"federalState":{"key":"14","name":"Sachsen"}},{"name":"Löbauer Str.","postalCode":"02708","locality":"Rosenbach","municipality":{"key":"14626470","name":"Rosenbach","type":"Kreisangehörige_Gemeinde"},"district":{"key":"14626","name":"Görlitz","type":"Landkreis"},"federalState":{"key":"14","name":"Sachsen"}},{"name":"LPG-Weg","postalCode":"08539","locality":"Rosenbach/Vogtland","municipality":{"key":"14523365","name":"Rosenbach/Vogtl.","type":"Kreisangehörige_Gemeinde"},"district":{"key":"14523","name":"Vogtlandkreis","type":"Landkreis"},"federalState":{"key":"14","name":"Sachsen"}},{"name":"Menzelbuschweg","postalCode":"02708","locality":"Rosenbach","municipality":{"key":"14626470","name":"Rosenbach","type":"Kreisangehörige_Gemeinde"},"district":{"key":"14626","name":"Görlitz","type":"Landkreis"},"federalState":{"key":"14","name":"Sachsen"}},{"name":"Mittelhof","postalCode":"02708","locality":"Rosenbach","municipality":{"key":"14626470","name":"Rosenbach","type":"Kreisangehörige_Gemeinde"},"district":{"key":"14626","name":"Görlitz","type":"Landkreis"},"federalState":{"key":"14","name":"Sachsen"}},{"name":"Mittelhofweg","postalCode":"02708","locality":"Rosenbach","municipality":{"key":"14626470","name":"Rosenbach","type":"Kreisangehörige_Gemeinde"},"district":{"key":"14626","name":"Görlitz","type":"Landkreis"},"federalState":{"key":"14","name":"Sachsen"}},{"name":"Mittelweg","postalCode":"08539","locality":"Rosenbach/Vogtland","municipality":{"key":"14523365","name":"Rosenbach/Vogtl.","type":"Kreisangehörige_Gemeinde"},"district":{"key":"14523","name":"Vogtlandkreis","type":"Landkreis"},"federalState":{"key":"14","name":"Sachsen"}},{"name":"Mittelweg","postalCode":"08548","locality":"Rosenbach/Vogtland","municipality":{"key":"14523365","name":"Rosenbach/Vogtl.","type":"Kreisangehörige_Gemeinde"},"district":{"key":"14523","name":"Vogtlandkreis","type":"Landkreis"},"federalState":{"key":"14","name":"Sachsen"}},{"name":"Mittlerer Mühlweg","postalCode":"08548","locality":"Rosenbach/Vogtland","municipality":{"key":"14523365","name":"Rosenbach/Vogtl.","type":"Kreisangehörige_Gemeinde"},"district":{"key":"14523","name":"Vogtlandkreis","type":"Landkreis"},"federalState":{"key":"14","name":"Sachsen"}},{"name":"Mittlerer Mühlweg (nicht mehr passierbar)","postalCode":"08548","locality":"Rosenbach/Vogtland","municipality":{"key":"14523365","name":"Rosenbach/Vogtl.","type":"Kreisangehörige_Gemeinde"},"district":{"key":"14523","name":"Vogtlandkreis","type":"Landkreis"},"federalState":{"key":"14","name":"Sachsen"}},{"name":"Mühlenweg","postalCode":"08527","locality":"Rosenbach/Vogtland","municipality":{"key":"14523365","name":"Rosenbach/Vogtl.","type":"Kreisangehörige_Gemeinde"},"district":{"key":"14523","name":"Vogtlandkreis","type":"Landkreis"},"federalState":{"key":"14","name":"Sachsen"}},{"name":"Mühltroffer Str.","postalCode":"08539","locality":"Rosenbach/Vogtland","municipality":{"key":"14523365","name":"Rosenbach/Vogtl.","type":"Kreisangehörige_Gemeinde"},"district":{"key":"14523","name":"Vogtlandkreis","type":"Landkreis"},"federalState":{"key":"14","name":"Sachsen"}},{"name":"Mühlweg","postalCode":"08548","locality":"Rosenbach/Vogtland","municipality":{"key":"14523365","name":"Rosenbach/Vogtl.","type":"Kreisangehörige_Gemeinde"},"district":{"key":"14523","name":"Vogtlandkreis","type":"Landkreis"},"federalState":{"key":"14","name":"Sachsen"}},{"name":"Niederhofstr.","postalCode":"02708","locality":"Rosenbach","municipality":{"key":"14626470","name":"Rosenbach","type":"Kreisangehörige_Gemeinde"},"district":{"key":"14626","name":"Görlitz","type":"Landkreis"},"federalState":{"key":"14","name":"Sachsen"}},{"name":"Nordstr.","postalCode":"08539","locality":"Rosenbach/Vogtland","municipality":{"key":"14523365","name":"Rosenbach/Vogtl.","type":"Kreisangehörige_Gemeinde"},"district":{"key":"14523","name":"Vogtlandkreis","type":"Landkreis"},"federalState":{"key":"14","name":"Sachsen"}},{"name":"Oberer Mittelweg","postalCode":"08539","locality":"Rosenbach/Vogtland","municipality":{"key":"14523365","name":"Rosenbach/Vogtl.","type":"Kreisangehörige_Gemeinde"},"district":{"key":"14523","name":"Vogtlandkreis","type":"Landkreis"},"federalState":{"key":"14","name":"Sachsen"}},{"name":"Oberhof","postalCode":"02708","locality":"Rosenbach","municipality":{"key":"14626470","name":"Rosenbach","type":"Kreisangehörige_Gemeinde"},"district":{"key":"14626","name":"Görlitz","type":"Landkreis"},"federalState":{"key":"14","name":"Sachsen"}},{"name":"Oberpirker Str.","postalCode":"08539","locality":"Rosenbach/Vogtland","municipality":{"key":"14523365","name":"Rosenbach/Vogtl.","type":"Kreisangehörige_Gemeinde"},"district":{"key":"14523","name":"Vogtlandkreis","type":"Landkreis"},"federalState":{"key":"14","name":"Sachsen"}},{"name":"Ortsstr.","postalCode":"08548","locality":"Rosenbach/Vogtland","municipality":{"key":"14523365","name":"Rosenbach/Vogtl.","type":"Kreisangehörige_Gemeinde"},"district":{"key":"14523","name":"Vogtlandkreis","type":"Landkreis"},"federalState":{"key":"14","name":"Sachsen"}},{"name":"Pappelweg","postalCode":"08548","locality":"Rosenbach/Vogtland","municipality":{"key":"14523365","name":"Rosenbach/Vogtl.","type":"Kreisangehörige_Gemeinde"},"district":{"key":"14523","name":"Vogtlandkreis","type":"Landkreis"},"federalState":{"key":"14","name":"Sachsen"}},{"name":"Paul-Seifert-Str.","postalCode":"08548","locality":"Rosenbach/Vogtland","municipality":{"key":"14523365","name":"Rosenbach/Vogtl.","type":"Kreisangehörige_Gemeinde"},"district":{"key":"14523","name":"Vogtlandkreis","type":"Landkreis"},"federalState":{"key":"14","name":"Sachsen"}},{"name":"Pausaer Str.","postalCode":"08539","locality":"Rosenbach/Vogtland","municipality":{"key":"14523365","name":"Rosenbach/Vogtl.","type":"Kreisangehörige_Gemeinde"},"district":{"key":"14523","name":"Vogtlandkreis","type":"Landkreis"},"federalState":{"key":"14","name":"Sachsen"}},{"name":"Pirkweg","postalCode":"08539","locality":"Rosenbach/Vogtland","municipality":{"key":"14523365","name":"Rosenbach/Vogtl.","type":"Kreisangehörige_Gemeinde"},"district":{"key":"14523","name":"Vogtlandkreis","type":"Landkreis"},"federalState":{"key":"14","name":"Sachsen"}},{"name":"Plauener Str.","postalCode":"08527","locality":"Rosenbach/Vogtland","municipality":{"key":"14523365","name":"Rosenbach/Vogtl.","type":"Kreisangehörige_Gemeinde"},"district":{"key":"14523","name":"Vogtlandkreis","type":"Landkreis"},"federalState":{"key":"14","name":"Sachsen"}},{"name":"Postplatz","postalCode":"08548","locality":"Rosenbach/Vogtland","municipality":{"key":"14523365","name":"Rosenbach/Vogtl.","type":"Kreisangehörige_Gemeinde"},"district":{"key":"14523","name":"Vogtlandkreis","type":"Landkreis"},"federalState":{"key":"14","name":"Sachsen"}},{"name":"Postweg","postalCode":"08539","locality":"Rosenbach/Vogtland","municipality":{"key":"14523365","name":"Rosenbach/Vogtl.","type":"Kreisangehörige_Gemeinde"},"district":{"key":"14523","name":"Vogtlandkreis","type":"Landkreis"},"federalState":{"key":"14","name":"Sachsen"}},{"name":"Pulverhaus","postalCode":"08539","locality":"Rosenbach/Vogtland","municipality":{"key":"14523365","name":"Rosenbach/Vogtl.","type":"Kreisangehörige_Gemeinde"},"district":{"key":"14523","name":"Vogtlandkreis","type":"Landkreis"},"federalState":{"key":"14","name":"Sachsen"}},{"name":"Querstr.","postalCode":"08539","locality":"Rosenbach/Vogtland","municipality":{"key":"14523365","name":"Rosenbach/Vogtl.","type":"Kreisangehörige_Gemeinde"},"district":{"key":"14523","name":"Vogtlandkreis","type":"Landkreis"},"federalState":{"key":"14","name":"Sachsen"}},{"name":"Reiboldsruh","postalCode":"08527","locality":"Rosenbach/Vogtland","municipality":{"key":"14523365","name":"Rosenbach/Vogtl.","type":"Kreisangehörige_Gemeinde"},"district":{"key":"14523","name":"Vogtlandkreis","type":"Landkreis"},"federalState":{"key":"14","name":"Sachsen"}},{"name":"Rodauer Str.","postalCode":"08539","locality":"Rosenbach/Vogtland","municipality":{"key":"14523365","name":"Rosenbach/Vogtl.","type":"Kreisangehörige_Gemeinde"},"district":{"key":"14523","name":"Vogtlandkreis","type":"Landkreis"},"federalState":{"key":"14","name":"Sachsen"}},{"name":"Rodauer Weg","postalCode":"08539","locality":"Rosenbach/Vogtland","municipality":{"key":"14523365","name":"Rosenbach/Vogtl.","type":"Kreisangehörige_Gemeinde"},"district":{"key":"14523","name":"Vogtlandkreis","type":"Landkreis"},"federalState":{"key":"14","name":"Sachsen"}},{"name":"Rößnitzer Str.","postalCode":"08527","locality":"Rosenbach/Vogtland","municipality":{"key":"14523365","name":"Rosenbach/Vogtl.","type":"Kreisangehörige_Gemeinde"},"district":{"key":"14523","name":"Vogtlandkreis","type":"Landkreis"},"federalState":{"key":"14","name":"Sachsen"}},{"name":"Rößnitzer Str.","postalCode":"08539","locality":"Rosenbach/Vogtland","municipality":{"key":"14523365","name":"Rosenbach/Vogtl.","type":"Kreisangehörige_Gemeinde"},"district":{"key":"14523","name":"Vogtlandkreis","type":"Landkreis"},"federalState":{"key":"14","name":"Sachsen"}},{"name":"Rößnitzweg","postalCode":"08527","locality":"Rosenbach/Vogtland","municipality":{"key":"14523365","name":"Rosenbach/Vogtl.","type":"Kreisangehörige_Gemeinde"},"district":{"key":"14523","name":"Vogtlandkreis","type":"Landkreis"},"federalState":{"key":"14","name":"Sachsen"}},{"name":"Rotsteinweg","postalCode":"02708","locality":"Rosenbach","municipality":{"key":"14626470","name":"Rosenbach","type":"Kreisangehörige_Gemeinde"},"district":{"key":"14626","name":"Görlitz","type":"Landkreis"},"federalState":{"key":"14","name":"Sachsen"}},{"name":"Schafbergstr.","postalCode":"02708","locality":"Rosenbach","municipality":{"key":"14626470","name":"Rosenbach","type":"Kreisangehörige_Gemeinde"},"district":{"key":"14626","name":"Görlitz","type":"Landkreis"},"federalState":{"key":"14","name":"Sachsen"}},{"name":"Schießflügel","postalCode":"08527","locality":"Rosenbach/Vogtland","municipality":{"key":"14523365","name":"Rosenbach/Vogtl.","type":"Kreisangehörige_Gemeinde"},"district":{"key":"14523","name":"Vogtlandkreis","type":"Landkreis"},"federalState":{"key":"14","name":"Sachsen"}},{"name":"Schießflügel","postalCode":"08539","locality":"Rosenbach/Vogtland","municipality":{"key":"14523365","name":"Rosenbach/Vogtl.","type":"Kreisangehörige_Gemeinde"},"district":{"key":"14523","name":"Vogtlandkreis","type":"Landkreis"},"federalState":{"key":"14","name":"Sachsen"}},{"name":"Schießstand","postalCode":"08527","locality":"Rosenbach/Vogtland","municipality":{"key":"14523365","name":"Rosenbach/Vogtl.","type":"Kreisangehörige_Gemeinde"},"district":{"key":"14523","name":"Vogtlandkreis","type":"Landkreis"},"federalState":{"key":"14","name":"Sachsen"}},{"name":"Schleizer Str.","postalCode":"08539","locality":"Rosenbach/Vogtland","municipality":{"key":"14523365","name":"Rosenbach/Vogtl.","type":"Kreisangehörige_Gemeinde"},"district":{"key":"14523","name":"Vogtlandkreis","type":"Landkreis"},"federalState":{"key":"14","name":"Sachsen"}},{"name":"Schloßpark Leubnitz","postalCode":"08539","locality":"Rosenbach/Vogtland","municipality":{"key":"14523365","name":"Rosenbach/Vogtl.","type":"Kreisangehörige_Gemeinde"},"district":{"key":"14523","name":"Vogtlandkreis","type":"Landkreis"},"federalState":{"key":"14","name":"Sachsen"}},{"name":"Schneckengrüner Str.","postalCode":"08527","locality":"Rosenbach/Vogtland","municipality":{"key":"14523365","name":"Rosenbach/Vogtl.","type":"Kreisangehörige_Gemeinde"},"district":{"key":"14523","name":"Vogtlandkreis","type":"Landkreis"},"federalState":{"key":"14","name":"Sachsen"}},{"name":"Schneckengrüner Str.","postalCode":"08539","locality":"Rosenbach/Vogtland","municipality":{"key":"14523365","name":"Rosenbach/Vogtl.","type":"Kreisangehörige_Gemeinde"},"district":{"key":"14523","name":"Vogtlandkreis","type":"Landkreis"},"federalState":{"key":"14","name":"Sachsen"}},{"name":"Schneckengrüner Str.","postalCode":"08548","locality":"Rosenbach/Vogtland","municipality":{"key":"14523365","name":"Rosenbach/Vogtl.","type":"Kreisangehörige_Gemeinde"},"district":{"key":"14523","name":"Vogtlandkreis","type":"Landkreis"},"federalState":{"key":"14","name":"Sachsen"}},{"name":"Schönbacher Str.","postalCode":"08548","locality":"Rosenbach/Vogtland","municipality":{"key":"14523365","name":"Rosenbach/Vogtl.","type":"Kreisangehörige_Gemeinde"},"district":{"key":"14523","name":"Vogtlandkreis","type":"Landkreis"},"federalState":{"key":"14","name":"Sachsen"}},{"name":"Schönberger Str.","postalCode":"08539","locality":"Rosenbach/Vogtland","municipality":{"key":"14523365","name":"Rosenbach/Vogtl.","type":"Kreisangehörige_Gemeinde"},"district":{"key":"14523","name":"Vogtlandkreis","type":"Landkreis"},"federalState":{"key":"14","name":"Sachsen"}},{"name":"Schulstr.","postalCode":"08548","locality":"Rosenbach/Vogtland","municipality":{"key":"14523365","name":"Rosenbach/Vogtl.","type":"Kreisangehörige_Gemeinde"},"district":{"key":"14523","name":"Vogtlandkreis","type":"Landkreis"},"federalState":{"key":"14","name":"Sachsen"}},{"name":"Siebenlind","postalCode":"08548","locality":"Rosenbach/Vogtland","municipality":{"key":"14523365","name":"Rosenbach/Vogtl.","type":"Kreisangehörige_Gemeinde"},"district":{"key":"14523","name":"Vogtlandkreis","type":"Landkreis"},"federalState":{"key":"14","name":"Sachsen"}},{"name":"Siedlung","postalCode":"02708","locality":"Rosenbach","municipality":{"key":"14626470","name":"Rosenbach","type":"Kreisangehörige_Gemeinde"},"district":{"key":"14626","name":"Görlitz","type":"Landkreis"},"federalState":{"key":"14","name":"Sachsen"}},{"name":"Siedlung","postalCode":"08539","locality":"Rosenbach/Vogtland","municipality":{"key":"14523365","name":"Rosenbach/Vogtl.","type":"Kreisangehörige_Gemeinde"},"district":{"key":"14523","name":"Vogtlandkreis","type":"Landkreis"},"federalState":{"key":"14","name":"Sachsen"}},{"name":"Siedlung","postalCode":"08548","locality":"Rosenbach/Vogtland","municipality":{"key":"14523365","name":"Rosenbach/Vogtl.","type":"Kreisangehörige_Gemeinde"},"district":{"key":"14523","name":"Vogtlandkreis","type":"Landkreis"},"federalState":{"key":"14","name":"Sachsen"}},{"name":"Siedlung Niederdorf","postalCode":"02708","locality":"Rosenbach","municipality":{"key":"14626470","name":"Rosenbach","type":"Kreisangehörige_Gemeinde"},"district":{"key":"14626","name":"Görlitz","type":"Landkreis"},"federalState":{"key":"14","name":"Sachsen"}},{"name":"Stadtweg","postalCode":"02708","locality":"Rosenbach","municipality":{"key":"14626470","name":"Rosenbach","type":"Kreisangehörige_Gemeinde"},"district":{"key":"14626","name":"Görlitz","type":"Landkreis"},"federalState":{"key":"14","name":"Sachsen"}},{"name":"Steinbergstr.","postalCode":"02708","locality":"Rosenbach","municipality":{"key":"14626470","name":"Rosenbach","type":"Kreisangehörige_Gemeinde"},"district":{"key":"14626","name":"Görlitz","type":"Landkreis"},"federalState":{"key":"14","name":"Sachsen"}},{"name":"Stelzensteig","postalCode":"08539","locality":"Rosenbach/Vogtland","municipality":{"key":"14523365","name":"Rosenbach/Vogtl.","type":"Kreisangehörige_Gemeinde"},"district":{"key":"14523","name":"Vogtlandkreis","type":"Landkreis"},"federalState":{"key":"14","name":"Sachsen"}},{"name":"Str. nach Drochhaus","postalCode":"08539","locality":"Rosenbach/Vogtland","municipality":{"key":"14523365","name":"Rosenbach/Vogtl.","type":"Kreisangehörige_Gemeinde"},"district":{"key":"14523","name":"Vogtlandkreis","type":"Landkreis"},"federalState":{"key":"14","name":"Sachsen"}},{"name":"Str. nach Leubnitz","postalCode":"08527","locality":"Rosenbach/Vogtland","municipality":{"key":"14523365","name":"Rosenbach/Vogtl.","type":"Kreisangehörige_Gemeinde"},"district":{"key":"14523","name":"Vogtlandkreis","type":"Landkreis"},"federalState":{"key":"14","name":"Sachsen"}},{"name":"Str. zum Altersheim","postalCode":"08539","locality":"Rosenbach/Vogtland","municipality":{"key":"14523365","name":"Rosenbach/Vogtl.","type":"Kreisangehörige_Gemeinde"},"district":{"key":"14523","name":"Vogtlandkreis","type":"Landkreis"},"federalState":{"key":"14","name":"Sachsen"}},{"name":"Südstr.","postalCode":"08539","locality":"Rosenbach/Vogtland","municipality":{"key":"14523365","name":"Rosenbach/Vogtl.","type":"Kreisangehörige_Gemeinde"},"district":{"key":"14523","name":"Vogtlandkreis","type":"Landkreis"},"federalState":{"key":"14","name":"Sachsen"}},{"name":"Talstr.","postalCode":"08539","locality":"Rosenbach/Vogtland","municipality":{"key":"14523365","name":"Rosenbach/Vogtl.","type":"Kreisangehörige_Gemeinde"},"district":{"key":"14523","name":"Vogtlandkreis","type":"Landkreis"},"federalState":{"key":"14","name":"Sachsen"}},{"name":"Teichstr.","postalCode":"08527","locality":"Rosenbach/Vogtland","municipality":{"key":"14523365","name":"Rosenbach/Vogtl.","type":"Kreisangehörige_Gemeinde"},"district":{"key":"14523","name":"Vogtlandkreis","type":"Landkreis"},"federalState":{"key":"14","name":"Sachsen"}},{"name":"Tobertitzer Str.","postalCode":"08527","locality":"Rosenbach/Vogtland","municipality":{"key":"14523365","name":"Rosenbach/Vogtl.","type":"Kreisangehörige_Gemeinde"},"district":{"key":"14523","name":"Vogtlandkreis","type":"Landkreis"},"federalState":{"key":"14","name":"Sachsen"}},{"name":"Tobertitzer Str.","postalCode":"08539","locality":"Rosenbach/Vogtland","municipality":{"key":"14523365","name":"Rosenbach/Vogtl.","type":"Kreisangehörige_Gemeinde"},"district":{"key":"14523","name":"Vogtlandkreis","type":"Landkreis"},"federalState":{"key":"14","name":"Sachsen"}},{"name":"Topfmarkt","postalCode":"08527","locality":"Rosenbach/Vogtland","municipality":{"key":"14523365","name":"Rosenbach/Vogtl.","type":"Kreisangehörige_Gemeinde"},"district":{"key":"14523","name":"Vogtlandkreis","type":"Landkreis"},"federalState":{"key":"14","name":"Sachsen"}},{"name":"Trinkgasse","postalCode":"08527","locality":"Rosenbach/Vogtland","municipality":{"key":"14523365","name":"Rosenbach/Vogtl.","type":"Kreisangehörige_Gemeinde"},"district":{"key":"14523","name":"Vogtlandkreis","type":"Landkreis"},"federalState":{"key":"14","name":"Sachsen"}},{"name":"Untere Dorfstr.","postalCode":"02708","locality":"Rosenbach","municipality":{"key":"14626470","name":"Rosenbach","type":"Kreisangehörige_Gemeinde"},"district":{"key":"14626","name":"Görlitz","type":"Landkreis"},"federalState":{"key":"14","name":"Sachsen"}},{"name":"Unterer Mühlweg","postalCode":"08548","locality":"Rosenbach/Vogtland","municipality":{"key":"14523365","name":"Rosenbach/Vogtl.","type":"Kreisangehörige_Gemeinde"},"district":{"key":"14523","name":"Vogtlandkreis","type":"Landkreis"},"federalState":{"key":"14","name":"Sachsen"}},{"name":"Veilchenweg","postalCode":"02827","locality":"Görlitz","municipality":{"key":"14626110","name":"Görlitz, Stadt","type":"Stadt"},"district":{"key":"14626","name":"Görlitz","type":"Landkreis"},"federalState":{"key":"14","name":"Sachsen"}},{"name":"Verrätergasse","postalCode":"02826","locality":"Görlitz","municipality":{"key":"14626110","name":"Görlitz, Stadt","type":"Stadt"},"district":{"key":"14626","name":"Görlitz","type":"Landkreis"},"federalState":{"key":"14","name":"Sachsen"}},{"name":"Viehweg","postalCode":"02827","locality":"Görlitz","municipality":{"key":"14626110","name":"Görlitz, Stadt","type":"Stadt"},"district":{"key":"14626","name":"Görlitz","type":"Landkreis"},"federalState":{"key":"14","name":"Sachsen"}},{"name":"Virchowstr.","postalCode":"02828","locality":"Görlitz","municipality":{"key":"14626110","name":"Görlitz, Stadt","type":"Stadt"},"district":{"key":"14626","name":"Görlitz","type":"Landkreis"},"federalState":{"key":"14","name":"Sachsen"}},{"name":"Von-Rodewitz-Weg","postalCode":"02828","locality":"Görlitz","municipality":{"key":"14626110","name":"Görlitz, Stadt","type":"Stadt"},"district":{"key":"14626","name":"Görlitz","type":"Landkreis"},"federalState":{"key":"14","name":"Sachsen"}},{"name":"Waldblick","postalCode":"08539","locality":"Rosenbach/Vogtland","municipality":{"key":"14523365","name":"Rosenbach/Vogtl.","type":"Kreisangehörige_Gemeinde"},"district":{"key":"14523","name":"Vogtlandkreis","type":"Landkreis"},"federalState":{"key":"14","name":"Sachsen"}},{"name":"Waldfriedener Str.","postalCode":"08539","locality":"Rosenbach/Vogtland","municipality":{"key":"14523365","name":"Rosenbach/Vogtl.","type":"Kreisangehörige_Gemeinde"},"district":{"key":"14523","name":"Vogtlandkreis","type":"Landkreis"},"federalState":{"key":"14","name":"Sachsen"}},{"name":"Waldstr.","postalCode":"08539","locality":"Rosenbach/Vogtland","municipality":{"key":"14523365","name":"Rosenbach/Vogtl.","type":"Kreisangehörige_Gemeinde"},"district":{"key":"14523","name":"Vogtlandkreis","type":"Landkreis"},"federalState":{"key":"14","name":"Sachsen"}},{"name":"Waldweg","postalCode":"08548","locality":"Rosenbach/Vogtland","municipality":{"key":"14523365","name":"Rosenbach/Vogtl.","type":"Kreisangehörige_Gemeinde"},"district":{"key":"14523","name":"Vogtlandkreis","type":"Landkreis"},"federalState":{"key":"14","name":"Sachsen"}},{"name":"Waldweg nach Tobertitz","postalCode":"08539","locality":"Rosenbach/Vogtland","municipality":{"key":"14523365","name":"Rosenbach/Vogtl.","type":"Kreisangehörige_Gemeinde"},"district":{"key":"14523","name":"Vogtlandkreis","type":"Landkreis"},"federalState":{"key":"14","name":"Sachsen"}},{"name":"Weg zum Dreibauernteich","postalCode":"08539","locality":"Rosenbach/Vogtland","municipality":{"key":"14523365","name":"Rosenbach/Vogtl.","type":"Kreisangehörige_Gemeinde"},"district":{"key":"14523","name":"Vogtlandkreis","type":"Landkreis"},"federalState":{"key":"14","name":"Sachsen"}},{"name":"Weg zum Weberteich","postalCode":"08539","locality":"Rosenbach/Vogtland","municipality":{"key":"14523365","name":"Rosenbach/Vogtl.","type":"Kreisangehörige_Gemeinde"},"district":{"key":"14523","name":"Vogtlandkreis","type":"Landkreis"},"federalState":{"key":"14","name":"Sachsen"}},{"name":"Weg zu Wunderlich","postalCode":"08527","locality":"Rosenbach/Vogtland","municipality":{"key":"14523365","name":"Rosenbach/Vogtl.","type":"Kreisangehörige_Gemeinde"},"district":{"key":"14523","name":"Vogtlandkreis","type":"Landkreis"},"federalState":{"key":"14","name":"Sachsen"}},{"name":"Weststr.","postalCode":"08539","locality":"Rosenbach/Vogtland","municipality":{"key":"14523365","name":"Rosenbach/Vogtl.","type":"Kreisangehörige_Gemeinde"},"district":{"key":"14523","name":"Vogtlandkreis","type":"Landkreis"},"federalState":{"key":"14","name":"Sachsen"}},{"name":"Wiesenweg","postalCode":"08539","locality":"Rosenbach/Vogtland","municipality":{"key":"14523365","name":"Rosenbach/Vogtl.","type":"Kreisangehörige_Gemeinde"},"district":{"key":"14523","name":"Vogtlandkreis","type":"Landkreis"},"federalState":{"key":"14","name":"Sachsen"}},{"name":"Ziegelgasse","postalCode":"08548","locality":"Rosenbach/Vogtland","municipality":{"key":"14523365","name":"Rosenbach/Vogtl.","type":"Kreisangehörige_Gemeinde"},"district":{"key":"14523","name":"Vogtlandkreis","type":"Landkreis"},"federalState":{"key":"14","name":"Sachsen"}},{"name":"Zufahrt \"Klein Amerika\"","postalCode":"08548","locality":"Rosenbach/Vogtland","municipality":{"key":"14523365","name":"Rosenbach/Vogtl.","type":"Kreisangehörige_Gemeinde"},"district":{"key":"14523","name":"Vogtlandkreis","type":"Landkreis"},"federalState":{"key":"14","name":"Sachsen"}},{"name":"Zum Eichicht","postalCode":"08539","locality":"Rosenbach/Vogtland","municipality":{"key":"14523365","name":"Rosenbach/Vogtl.","type":"Kreisangehörige_Gemeinde"},"district":{"key":"14523","name":"Vogtlandkreis","type":"Landkreis"},"federalState":{"key":"14","name":"Sachsen"}},{"name":"Zum Elm","postalCode":"08539","locality":"Rosenbach/Vogtland","municipality":{"key":"14523365","name":"Rosenbach/Vogtl.","type":"Kreisangehörige_Gemeinde"},"district":{"key":"14523","name":"Vogtlandkreis","type":"Landkreis"},"federalState":{"key":"14","name":"Sachsen"}},{"name":"Zum Gründel","postalCode":"02708","locality":"Rosenbach","municipality":{"key":"14626470","name":"Rosenbach","type":"Kreisangehörige_Gemeinde"},"district":{"key":"14626","name":"Görlitz","type":"Landkreis"},"federalState":{"key":"14","name":"Sachsen"}},{"name":"Zum Kühlen Morgen","postalCode":"08548","locality":"Rosenbach/Vogtland","municipality":{"key":"14523365","name":"Rosenbach/Vogtl.","type":"Kreisangehörige_Gemeinde"},"district":{"key":"14523","name":"Vogtlandkreis","type":"Landkreis"},"federalState":{"key":"14","name":"Sachsen"}},{"name":"Zum Schiefer","postalCode":"08548","locality":"Rosenbach/Vogtland","municipality":{"key":"14523365","name":"Rosenbach/Vogtl.","type":"Kreisangehörige_Gemeinde"},"district":{"key":"14523","name":"Vogtlandkreis","type":"Landkreis"},"federalState":{"key":"14","name":"Sachsen"}},{"name":"Zum Sportplatz","postalCode":"08548","locality":"Rosenbach/Vogtland","municipality":{"key":"14523365","name":"Rosenbach/Vogtl.","type":"Kreisangehörige_Gemeinde"},"district":{"key":"14523","name":"Vogtlandkreis","type":"Landkreis"},"federalState":{"key":"14","name":"Sachsen"}},{"name":"Zum Turm","postalCode":"08527","locality":"Rosenbach/Vogtland","municipality":{"key":"14523365","name":"Rosenbach/Vogtl.","type":"Kreisangehörige_Gemeinde"},"district":{"key":"14523","name":"Vogtlandkreis","type":"Landkreis"},"federalState":{"key":"14","name":"Sachsen"}},{"name":"Zum Weißen Stein","postalCode":"08527","locality":"Rosenbach/Vogtland","municipality":{"key":"14523365","name":"Rosenbach/Vogtl.","type":"Kreisangehörige_Gemeinde"},"district":{"key":"14523","name":"Vogtlandkreis","type":"Landkreis"},"federalState":{"key":"14","name":"Sachsen"}},]