[{"name":"Ahornweg","postalCode":"08233","locality":"Treuen","municipality":{"key":"14523430","name":"Treuen, Stadt","type":"Stadt"},"district":{"key":"14523","name":"Vogtlandkreis","type":"Landkreis"},"federalState":{"key":"14","name":"Sachsen"}},{"name":"Albert-Schweitzer-Str.","postalCode":"14929","locality":"Treuenbrietzen","municipality":{"key":"12069632","name":"Treuenbrietzen, Stadt","type":"Stadt"},"district":{"key":"12069","name":"Potsdam-Mittelmark","type":"Landkreis"},"federalState":{"key":"12","name":"Brandenburg"}},{"name":"Albrecht-Bühring-Str.","postalCode":"08233","locality":"Treuen","municipality":{"key":"14523430","name":"Treuen, Stadt","type":"Stadt"},"district":{"key":"14523","name":"Vogtlandkreis","type":"Landkreis"},"federalState":{"key":"14","name":"Sachsen"}},{"name":"Albrecht-Dürer-Str.","postalCode":"08233","locality":"Treuen","municipality":{"key":"14523430","name":"Treuen, Stadt","type":"Stadt"},"district":{"key":"14523","name":"Vogtlandkreis","type":"Landkreis"},"federalState":{"key":"14","name":"Sachsen"}},{"name":"Alte Dorfstr.","postalCode":"14929","locality":"Treuenbrietzen","municipality":{"key":"12069632","name":"Treuenbrietzen, Stadt","type":"Stadt"},"district":{"key":"12069","name":"Potsdam-Mittelmark","type":"Landkreis"},"federalState":{"key":"12","name":"Brandenburg"}},{"name":"Alte Str.","postalCode":"08233","locality":"Treuen","municipality":{"key":"14523430","name":"Treuen, Stadt","type":"Stadt"},"district":{"key":"14523","name":"Vogtlandkreis","type":"Landkreis"},"federalState":{"key":"14","name":"Sachsen"}},{"name":"Alte Treuener Str.","postalCode":"08233","locality":"Treuen","municipality":{"key":"14523430","name":"Treuen, Stadt","type":"Stadt"},"district":{"key":"14523","name":"Vogtlandkreis","type":"Landkreis"},"federalState":{"key":"14","name":"Sachsen"}},{"name":"Alte Weißensander Str.","postalCode":"08233","locality":"Treuen","municipality":{"key":"14523430","name":"Treuen, Stadt","type":"Stadt"},"district":{"key":"14523","name":"Vogtlandkreis","type":"Landkreis"},"federalState":{"key":"14","name":"Sachsen"}},{"name":"Altmannsgrüner Kirchsteig","postalCode":"08233","locality":"Treuen","municipality":{"key":"14523430","name":"Treuen, Stadt","type":"Stadt"},"district":{"key":"14523","name":"Vogtlandkreis","type":"Landkreis"},"federalState":{"key":"14","name":"Sachsen"}},{"name":"Altmannsgrüner Str.","postalCode":"08233","locality":"Treuen","municipality":{"key":"14523430","name":"Treuen, Stadt","type":"Stadt"},"district":{"key":"14523","name":"Vogtlandkreis","type":"Landkreis"},"federalState":{"key":"14","name":"Sachsen"}},{"name":"Am Bärenbach","postalCode":"08233","locality":"Treuen","municipality":{"key":"14523430","name":"Treuen, Stadt","type":"Stadt"},"district":{"key":"14523","name":"Vogtlandkreis","type":"Landkreis"},"federalState":{"key":"14","name":"Sachsen"}},{"name":"Am Birkenweg","postalCode":"14929","locality":"Treuenbrietzen","municipality":{"key":"12069632","name":"Treuenbrietzen, Stadt","type":"Stadt"},"district":{"key":"12069","name":"Potsdam-Mittelmark","type":"Landkreis"},"federalState":{"key":"12","name":"Brandenburg"}},{"name":"Am Fronberg","postalCode":"08233","locality":"Treuen","municipality":{"key":"14523430","name":"Treuen, Stadt","type":"Stadt"},"district":{"key":"14523","name":"Vogtlandkreis","type":"Landkreis"},"federalState":{"key":"14","name":"Sachsen"}},{"name":"Am Gasthof","postalCode":"14929","locality":"Treuenbrietzen","municipality":{"key":"12069632","name":"Treuenbrietzen, Stadt","type":"Stadt"},"district":{"key":"12069","name":"Potsdam-Mittelmark","type":"Landkreis"},"federalState":{"key":"12","name":"Brandenburg"}},{"name":"Am Hellberg","postalCode":"14929","locality":"Treuenbrietzen","municipality":{"key":"12069632","name":"Treuenbrietzen, Stadt","type":"Stadt"},"district":{"key":"12069","name":"Potsdam-Mittelmark","type":"Landkreis"},"federalState":{"key":"12","name":"Brandenburg"}},{"name":"Am Katzenteich","postalCode":"08233","locality":"Treuen","municipality":{"key":"14523430","name":"Treuen, Stadt","type":"Stadt"},"district":{"key":"14523","name":"Vogtlandkreis","type":"Landkreis"},"federalState":{"key":"14","name":"Sachsen"}},{"name":"Am Mahnbrücker Weg","postalCode":"08233","locality":"Treuen","municipality":{"key":"14523430","name":"Treuen, Stadt","type":"Stadt"},"district":{"key":"14523","name":"Vogtlandkreis","type":"Landkreis"},"federalState":{"key":"14","name":"Sachsen"}},{"name":"Am Mühlgraben","postalCode":"08233","locality":"Treuen","municipality":{"key":"14523430","name":"Treuen, Stadt","type":"Stadt"},"district":{"key":"14523","name":"Vogtlandkreis","type":"Landkreis"},"federalState":{"key":"14","name":"Sachsen"}},{"name":"Am Musterplatz","postalCode":"14929","locality":"Treuenbrietzen","municipality":{"key":"12069632","name":"Treuenbrietzen, Stadt","type":"Stadt"},"district":{"key":"12069","name":"Potsdam-Mittelmark","type":"Landkreis"},"federalState":{"key":"12","name":"Brandenburg"}},{"name":"Am Park","postalCode":"08233","locality":"Treuen","municipality":{"key":"14523430","name":"Treuen, Stadt","type":"Stadt"},"district":{"key":"14523","name":"Vogtlandkreis","type":"Landkreis"},"federalState":{"key":"14","name":"Sachsen"}},{"name":"Am Rollberg","postalCode":"08233","locality":"Treuen","municipality":{"key":"14523430","name":"Treuen, Stadt","type":"Stadt"},"district":{"key":"14523","name":"Vogtlandkreis","type":"Landkreis"},"federalState":{"key":"14","name":"Sachsen"}},{"name":"Am Rosenweg","postalCode":"08233","locality":"Treuen","municipality":{"key":"14523430","name":"Treuen, Stadt","type":"Stadt"},"district":{"key":"14523","name":"Vogtlandkreis","type":"Landkreis"},"federalState":{"key":"14","name":"Sachsen"}},{"name":"Am Teich","postalCode":"08233","locality":"Treuen","municipality":{"key":"14523430","name":"Treuen, Stadt","type":"Stadt"},"district":{"key":"14523","name":"Vogtlandkreis","type":"Landkreis"},"federalState":{"key":"14","name":"Sachsen"}},{"name":"Am Wartenberg","postalCode":"08233","locality":"Treuen","municipality":{"key":"14523430","name":"Treuen, Stadt","type":"Stadt"},"district":{"key":"14523","name":"Vogtlandkreis","type":"Landkreis"},"federalState":{"key":"14","name":"Sachsen"}},{"name":"Am Wasserturm","postalCode":"08233","locality":"Treuen","municipality":{"key":"14523430","name":"Treuen, Stadt","type":"Stadt"},"district":{"key":"14523","name":"Vogtlandkreis","type":"Landkreis"},"federalState":{"key":"14","name":"Sachsen"}},{"name":"Am Winkel","postalCode":"08233","locality":"Treuen","municipality":{"key":"14523430","name":"Treuen, Stadt","type":"Stadt"},"district":{"key":"14523","name":"Vogtlandkreis","type":"Landkreis"},"federalState":{"key":"14","name":"Sachsen"}},{"name":"An der Auerbacher Str.","postalCode":"08233","locality":"Treuen","municipality":{"key":"14523430","name":"Treuen, Stadt","type":"Stadt"},"district":{"key":"14523","name":"Vogtlandkreis","type":"Landkreis"},"federalState":{"key":"14","name":"Sachsen"}},{"name":"An der Blindschleiche","postalCode":"08233","locality":"Treuen","municipality":{"key":"14523430","name":"Treuen, Stadt","type":"Stadt"},"district":{"key":"14523","name":"Vogtlandkreis","type":"Landkreis"},"federalState":{"key":"14","name":"Sachsen"}},{"name":"An der Gartenstr.","postalCode":"08233","locality":"Treuen","municipality":{"key":"14523430","name":"Treuen, Stadt","type":"Stadt"},"district":{"key":"14523","name":"Vogtlandkreis","type":"Landkreis"},"federalState":{"key":"14","name":"Sachsen"}},{"name":"An der Siedlung","postalCode":"08233","locality":"Treuen","municipality":{"key":"14523430","name":"Treuen, Stadt","type":"Stadt"},"district":{"key":"14523","name":"Vogtlandkreis","type":"Landkreis"},"federalState":{"key":"14","name":"Sachsen"}},{"name":"An der Waldstr.","postalCode":"08233","locality":"Treuen","municipality":{"key":"14523430","name":"Treuen, Stadt","type":"Stadt"},"district":{"key":"14523","name":"Vogtlandkreis","type":"Landkreis"},"federalState":{"key":"14","name":"Sachsen"}},{"name":"Andreasweg","postalCode":"08233","locality":"Treuen","municipality":{"key":"14523430","name":"Treuen, Stadt","type":"Stadt"},"district":{"key":"14523","name":"Vogtlandkreis","type":"Landkreis"},"federalState":{"key":"14","name":"Sachsen"}},{"name":"Apothekengasse","postalCode":"08233","locality":"Treuen","municipality":{"key":"14523430","name":"Treuen, Stadt","type":"Stadt"},"district":{"key":"14523","name":"Vogtlandkreis","type":"Landkreis"},"federalState":{"key":"14","name":"Sachsen"}},{"name":"Auerbacher Str.","postalCode":"08233","locality":"Treuen","municipality":{"key":"14523430","name":"Treuen, Stadt","type":"Stadt"},"district":{"key":"14523","name":"Vogtlandkreis","type":"Landkreis"},"federalState":{"key":"14","name":"Sachsen"}},{"name":"August-Bebel-Str.","postalCode":"08233","locality":"Treuen","municipality":{"key":"14523430","name":"Treuen, Stadt","type":"Stadt"},"district":{"key":"14523","name":"Vogtlandkreis","type":"Landkreis"},"federalState":{"key":"14","name":"Sachsen"}},{"name":"Bäckerstr.","postalCode":"14929","locality":"Treuenbrietzen","municipality":{"key":"12069632","name":"Treuenbrietzen, Stadt","type":"Stadt"},"district":{"key":"12069","name":"Potsdam-Mittelmark","type":"Landkreis"},"federalState":{"key":"12","name":"Brandenburg"}},{"name":"Badergasse","postalCode":"14929","locality":"Treuenbrietzen","municipality":{"key":"12069632","name":"Treuenbrietzen, Stadt","type":"Stadt"},"district":{"key":"12069","name":"Potsdam-Mittelmark","type":"Landkreis"},"federalState":{"key":"12","name":"Brandenburg"}},{"name":"Bahnhofstr.","postalCode":"08233","locality":"Treuen","municipality":{"key":"14523430","name":"Treuen, Stadt","type":"Stadt"},"district":{"key":"14523","name":"Vogtlandkreis","type":"Landkreis"},"federalState":{"key":"14","name":"Sachsen"}},{"name":"Bahnstr.","postalCode":"08233","locality":"Treuen","municipality":{"key":"14523430","name":"Treuen, Stadt","type":"Stadt"},"district":{"key":"14523","name":"Vogtlandkreis","type":"Landkreis"},"federalState":{"key":"14","name":"Sachsen"}},{"name":"Bardenitzer Dorfstr.","postalCode":"14929","locality":"Treuenbrietzen","municipality":{"key":"12069632","name":"Treuenbrietzen, Stadt","type":"Stadt"},"district":{"key":"12069","name":"Potsdam-Mittelmark","type":"Landkreis"},"federalState":{"key":"12","name":"Brandenburg"}},{"name":"Bauernweg","postalCode":"08233","locality":"Treuen","municipality":{"key":"14523430","name":"Treuen, Stadt","type":"Stadt"},"district":{"key":"14523","name":"Vogtlandkreis","type":"Landkreis"},"federalState":{"key":"14","name":"Sachsen"}},{"name":"Belziger Str.","postalCode":"14929","locality":"Treuenbrietzen","municipality":{"key":"12069632","name":"Treuenbrietzen, Stadt","type":"Stadt"},"district":{"key":"12069","name":"Potsdam-Mittelmark","type":"Landkreis"},"federalState":{"key":"12","name":"Brandenburg"}},{"name":"Berggasse","postalCode":"08233","locality":"Treuen","municipality":{"key":"14523430","name":"Treuen, Stadt","type":"Stadt"},"district":{"key":"14523","name":"Vogtlandkreis","type":"Landkreis"},"federalState":{"key":"14","name":"Sachsen"}},{"name":"Bergstr.","postalCode":"08233","locality":"Treuen","municipality":{"key":"14523430","name":"Treuen, Stadt","type":"Stadt"},"district":{"key":"14523","name":"Vogtlandkreis","type":"Landkreis"},"federalState":{"key":"14","name":"Sachsen"}},{"name":"Berliner Chaussee","postalCode":"14929","locality":"Treuenbrietzen","municipality":{"key":"12069632","name":"Treuenbrietzen, Stadt","type":"Stadt"},"district":{"key":"12069","name":"Potsdam-Mittelmark","type":"Landkreis"},"federalState":{"key":"12","name":"Brandenburg"}},{"name":"Berliner Str.","postalCode":"14929","locality":"Treuenbrietzen","municipality":{"key":"12069632","name":"Treuenbrietzen, Stadt","type":"Stadt"},"district":{"key":"12069","name":"Potsdam-Mittelmark","type":"Landkreis"},"federalState":{"key":"12","name":"Brandenburg"}},{"name":"Birkenweg","postalCode":"14929","locality":"Treuenbrietzen","municipality":{"key":"12069632","name":"Treuenbrietzen, Stadt","type":"Stadt"},"district":{"key":"12069","name":"Potsdam-Mittelmark","type":"Landkreis"},"federalState":{"key":"12","name":"Brandenburg"}},{"name":"Bismarckplatz","postalCode":"08233","locality":"Treuen","municipality":{"key":"14523430","name":"Treuen, Stadt","type":"Stadt"},"district":{"key":"14523","name":"Vogtlandkreis","type":"Landkreis"},"federalState":{"key":"14","name":"Sachsen"}},{"name":"Bismarkstr.","postalCode":"14929","locality":"Treuenbrietzen","municipality":{"key":"12069632","name":"Treuenbrietzen, Stadt","type":"Stadt"},"district":{"key":"12069","name":"Potsdam-Mittelmark","type":"Landkreis"},"federalState":{"key":"12","name":"Brandenburg"}},{"name":"Böllrichstr.","postalCode":"14929","locality":"Treuenbrietzen","municipality":{"key":"12069632","name":"Treuenbrietzen, Stadt","type":"Stadt"},"district":{"key":"12069","name":"Potsdam-Mittelmark","type":"Landkreis"},"federalState":{"key":"12","name":"Brandenburg"}},{"name":"Brachwitzer Dorfstr.","postalCode":"14929","locality":"Treuenbrietzen","municipality":{"key":"12069632","name":"Treuenbrietzen, Stadt","type":"Stadt"},"district":{"key":"12069","name":"Potsdam-Mittelmark","type":"Landkreis"},"federalState":{"key":"12","name":"Brandenburg"}},{"name":"Breite Str.","postalCode":"14929","locality":"Treuenbrietzen","municipality":{"key":"12069632","name":"Treuenbrietzen, Stadt","type":"Stadt"},"district":{"key":"12069","name":"Potsdam-Mittelmark","type":"Landkreis"},"federalState":{"key":"12","name":"Brandenburg"}},{"name":"Brücker Str.","postalCode":"14929","locality":"Treuenbrietzen","municipality":{"key":"12069632","name":"Treuenbrietzen, Stadt","type":"Stadt"},"district":{"key":"12069","name":"Potsdam-Mittelmark","type":"Landkreis"},"federalState":{"key":"12","name":"Brandenburg"}},{"name":"Brunnengasse","postalCode":"08233","locality":"Treuen","municipality":{"key":"14523430","name":"Treuen, Stadt","type":"Stadt"},"district":{"key":"14523","name":"Vogtlandkreis","type":"Landkreis"},"federalState":{"key":"14","name":"Sachsen"}},{"name":"Buch","postalCode":"08233","locality":"Treuen","municipality":{"key":"14523430","name":"Treuen, Stadt","type":"Stadt"},"district":{"key":"14523","name":"Vogtlandkreis","type":"Landkreis"},"federalState":{"key":"14","name":"Sachsen"}},{"name":"Buchenweg","postalCode":"08233","locality":"Treuen","municipality":{"key":"14523430","name":"Treuen, Stadt","type":"Stadt"},"district":{"key":"14523","name":"Vogtlandkreis","type":"Landkreis"},"federalState":{"key":"14","name":"Sachsen"}},{"name":"Bucher Häuser","postalCode":"08233","locality":"Treuen","municipality":{"key":"14523430","name":"Treuen, Stadt","type":"Stadt"},"district":{"key":"14523","name":"Vogtlandkreis","type":"Landkreis"},"federalState":{"key":"14","name":"Sachsen"}},{"name":"Burgwallstr.","postalCode":"14929","locality":"Treuenbrietzen","municipality":{"key":"12069632","name":"Treuenbrietzen, Stadt","type":"Stadt"},"district":{"key":"12069","name":"Potsdam-Mittelmark","type":"Landkreis"},"federalState":{"key":"12","name":"Brandenburg"}},{"name":"Dorfstr.","postalCode":"08233","locality":"Treuen","municipality":{"key":"14523430","name":"Treuen, Stadt","type":"Stadt"},"district":{"key":"14523","name":"Vogtlandkreis","type":"Landkreis"},"federalState":{"key":"14","name":"Sachsen"}},{"name":"Dorfstr.","postalCode":"14929","locality":"Treuenbrietzen","municipality":{"key":"12069632","name":"Treuenbrietzen, Stadt","type":"Stadt"},"district":{"key":"12069","name":"Potsdam-Mittelmark","type":"Landkreis"},"federalState":{"key":"12","name":"Brandenburg"}},{"name":"Dr.-Albert-Schweitzer-Str.","postalCode":"08233","locality":"Treuen","municipality":{"key":"14523430","name":"Treuen, Stadt","type":"Stadt"},"district":{"key":"14523","name":"Vogtlandkreis","type":"Landkreis"},"federalState":{"key":"14","name":"Sachsen"}},{"name":"Dr.-Wilhelm-Külz-Str.","postalCode":"08233","locality":"Treuen","municipality":{"key":"14523430","name":"Treuen, Stadt","type":"Stadt"},"district":{"key":"14523","name":"Vogtlandkreis","type":"Landkreis"},"federalState":{"key":"14","name":"Sachsen"}},{"name":"Dunkelgasse","postalCode":"08233","locality":"Treuen","municipality":{"key":"14523430","name":"Treuen, Stadt","type":"Stadt"},"district":{"key":"14523","name":"Vogtlandkreis","type":"Landkreis"},"federalState":{"key":"14","name":"Sachsen"}},{"name":"Eicher Str.","postalCode":"08233","locality":"Treuen","municipality":{"key":"14523430","name":"Treuen, Stadt","type":"Stadt"},"district":{"key":"14523","name":"Vogtlandkreis","type":"Landkreis"},"federalState":{"key":"14","name":"Sachsen"}},{"name":"Eicher Weg","postalCode":"08233","locality":"Treuen","municipality":{"key":"14523430","name":"Treuen, Stadt","type":"Stadt"},"district":{"key":"14523","name":"Vogtlandkreis","type":"Landkreis"},"federalState":{"key":"14","name":"Sachsen"}},{"name":"Feilitzschstr.","postalCode":"08233","locality":"Treuen","municipality":{"key":"14523430","name":"Treuen, Stadt","type":"Stadt"},"district":{"key":"14523","name":"Vogtlandkreis","type":"Landkreis"},"federalState":{"key":"14","name":"Sachsen"}},{"name":"Feldheimer Str.","postalCode":"14929","locality":"Treuenbrietzen","municipality":{"key":"12069632","name":"Treuenbrietzen, Stadt","type":"Stadt"},"district":{"key":"12069","name":"Potsdam-Mittelmark","type":"Landkreis"},"federalState":{"key":"12","name":"Brandenburg"}},{"name":"Feldheimer Weg","postalCode":"14929","locality":"Treuenbrietzen","municipality":{"key":"12069632","name":"Treuenbrietzen, Stadt","type":"Stadt"},"district":{"key":"12069","name":"Potsdam-Mittelmark","type":"Landkreis"},"federalState":{"key":"12","name":"Brandenburg"}},{"name":"Feldstr.","postalCode":"08233","locality":"Treuen","municipality":{"key":"14523430","name":"Treuen, Stadt","type":"Stadt"},"district":{"key":"14523","name":"Vogtlandkreis","type":"Landkreis"},"federalState":{"key":"14","name":"Sachsen"}},{"name":"Finkensteg","postalCode":"08233","locality":"Treuen","municipality":{"key":"14523430","name":"Treuen, Stadt","type":"Stadt"},"district":{"key":"14523","name":"Vogtlandkreis","type":"Landkreis"},"federalState":{"key":"14","name":"Sachsen"}},{"name":"Friedensring","postalCode":"08233","locality":"Treuen","municipality":{"key":"14523430","name":"Treuen, Stadt","type":"Stadt"},"district":{"key":"14523","name":"Vogtlandkreis","type":"Landkreis"},"federalState":{"key":"14","name":"Sachsen"}},{"name":"Friedensstr.","postalCode":"08233","locality":"Treuen","municipality":{"key":"14523430","name":"Treuen, Stadt","type":"Stadt"},"district":{"key":"14523","name":"Vogtlandkreis","type":"Landkreis"},"federalState":{"key":"14","name":"Sachsen"}},{"name":"Friedrich-Engels-Str.","postalCode":"08233","locality":"Treuen","municipality":{"key":"14523430","name":"Treuen, Stadt","type":"Stadt"},"district":{"key":"14523","name":"Vogtlandkreis","type":"Landkreis"},"federalState":{"key":"14","name":"Sachsen"}},{"name":"Fritz-Reuter-Str.","postalCode":"14929","locality":"Treuenbrietzen","municipality":{"key":"12069632","name":"Treuenbrietzen, Stadt","type":"Stadt"},"district":{"key":"12069","name":"Potsdam-Mittelmark","type":"Landkreis"},"federalState":{"key":"12","name":"Brandenburg"}},{"name":"Gabelsberger Str.","postalCode":"08233","locality":"Treuen","municipality":{"key":"14523430","name":"Treuen, Stadt","type":"Stadt"},"district":{"key":"14523","name":"Vogtlandkreis","type":"Landkreis"},"federalState":{"key":"14","name":"Sachsen"}},{"name":"Gartenstr.","postalCode":"08233","locality":"Treuen","municipality":{"key":"14523430","name":"Treuen, Stadt","type":"Stadt"},"district":{"key":"14523","name":"Vogtlandkreis","type":"Landkreis"},"federalState":{"key":"14","name":"Sachsen"}},{"name":"Gartenstr.","postalCode":"14929","locality":"Treuenbrietzen","municipality":{"key":"12069632","name":"Treuenbrietzen, Stadt","type":"Stadt"},"district":{"key":"12069","name":"Potsdam-Mittelmark","type":"Landkreis"},"federalState":{"key":"12","name":"Brandenburg"}},{"name":"Gartenweg","postalCode":"08233","locality":"Treuen","municipality":{"key":"14523430","name":"Treuen, Stadt","type":"Stadt"},"district":{"key":"14523","name":"Vogtlandkreis","type":"Landkreis"},"federalState":{"key":"14","name":"Sachsen"}},{"name":"Gasse","postalCode":"08233","locality":"Treuen","municipality":{"key":"14523430","name":"Treuen, Stadt","type":"Stadt"},"district":{"key":"14523","name":"Vogtlandkreis","type":"Landkreis"},"federalState":{"key":"14","name":"Sachsen"}},{"name":"Georgenstr.","postalCode":"08233","locality":"Treuen","municipality":{"key":"14523430","name":"Treuen, Stadt","type":"Stadt"},"district":{"key":"14523","name":"Vogtlandkreis","type":"Landkreis"},"federalState":{"key":"14","name":"Sachsen"}},{"name":"Gerberstr.","postalCode":"08233","locality":"Treuen","municipality":{"key":"14523430","name":"Treuen, Stadt","type":"Stadt"},"district":{"key":"14523","name":"Vogtlandkreis","type":"Landkreis"},"federalState":{"key":"14","name":"Sachsen"}},{"name":"Gertraudstr.","postalCode":"14929","locality":"Treuenbrietzen","municipality":{"key":"12069632","name":"Treuenbrietzen, Stadt","type":"Stadt"},"district":{"key":"12069","name":"Potsdam-Mittelmark","type":"Landkreis"},"federalState":{"key":"12","name":"Brandenburg"}},{"name":"Gestellweg","postalCode":"14929","locality":"Treuenbrietzen","municipality":{"key":"12069632","name":"Treuenbrietzen, Stadt","type":"Stadt"},"district":{"key":"12069","name":"Potsdam-Mittelmark","type":"Landkreis"},"federalState":{"key":"12","name":"Brandenburg"}},{"name":"Gewerbestr.","postalCode":"08233","locality":"Treuen","municipality":{"key":"14523430","name":"Treuen, Stadt","type":"Stadt"},"district":{"key":"14523","name":"Vogtlandkreis","type":"Landkreis"},"federalState":{"key":"14","name":"Sachsen"}},{"name":"Goethestr.","postalCode":"08233","locality":"Treuen","municipality":{"key":"14523430","name":"Treuen, Stadt","type":"Stadt"},"district":{"key":"14523","name":"Vogtlandkreis","type":"Landkreis"},"federalState":{"key":"14","name":"Sachsen"}},{"name":"Goethestr.","postalCode":"14929","locality":"Treuenbrietzen","municipality":{"key":"12069632","name":"Treuenbrietzen, Stadt","type":"Stadt"},"district":{"key":"12069","name":"Potsdam-Mittelmark","type":"Landkreis"},"federalState":{"key":"12","name":"Brandenburg"}},{"name":"Goldene Höhe","postalCode":"08233","locality":"Treuen","municipality":{"key":"14523430","name":"Treuen, Stadt","type":"Stadt"},"district":{"key":"14523","name":"Vogtlandkreis","type":"Landkreis"},"federalState":{"key":"14","name":"Sachsen"}},{"name":"Gospersgrün","postalCode":"08233","locality":"Treuen","municipality":{"key":"14523430","name":"Treuen, Stadt","type":"Stadt"},"district":{"key":"14523","name":"Vogtlandkreis","type":"Landkreis"},"federalState":{"key":"14","name":"Sachsen"}},{"name":"Großstr.","postalCode":"14929","locality":"Treuenbrietzen","municipality":{"key":"12069632","name":"Treuenbrietzen, Stadt","type":"Stadt"},"district":{"key":"12069","name":"Potsdam-Mittelmark","type":"Landkreis"},"federalState":{"key":"12","name":"Brandenburg"}},{"name":"Grünstr.","postalCode":"14929","locality":"Treuenbrietzen","municipality":{"key":"12069632","name":"Treuenbrietzen, Stadt","type":"Stadt"},"district":{"key":"12069","name":"Potsdam-Mittelmark","type":"Landkreis"},"federalState":{"key":"12","name":"Brandenburg"}},{"name":"Hans-Grade-Weg","postalCode":"14929","locality":"Treuenbrietzen","municipality":{"key":"12069632","name":"Treuenbrietzen, Stadt","type":"Stadt"},"district":{"key":"12069","name":"Potsdam-Mittelmark","type":"Landkreis"},"federalState":{"key":"12","name":"Brandenburg"}},{"name":"Hartmannsgrüner Str.","postalCode":"08233","locality":"Treuen","municipality":{"key":"14523430","name":"Treuen, Stadt","type":"Stadt"},"district":{"key":"14523","name":"Vogtlandkreis","type":"Landkreis"},"federalState":{"key":"14","name":"Sachsen"}},{"name":"Haseloffer Weg","postalCode":"14929","locality":"Treuenbrietzen","municipality":{"key":"12069632","name":"Treuenbrietzen, Stadt","type":"Stadt"},"district":{"key":"12069","name":"Potsdam-Mittelmark","type":"Landkreis"},"federalState":{"key":"12","name":"Brandenburg"}},{"name":"Hauptstr.","postalCode":"08233","locality":"Treuen","municipality":{"key":"14523430","name":"Treuen, Stadt","type":"Stadt"},"district":{"key":"14523","name":"Vogtlandkreis","type":"Landkreis"},"federalState":{"key":"14","name":"Sachsen"}},{"name":"Heideweg","postalCode":"14929","locality":"Treuenbrietzen","municipality":{"key":"12069632","name":"Treuenbrietzen, Stadt","type":"Stadt"},"district":{"key":"12069","name":"Potsdam-Mittelmark","type":"Landkreis"},"federalState":{"key":"12","name":"Brandenburg"}},{"name":"Heinrich-Heine-Str.","postalCode":"08233","locality":"Treuen","municipality":{"key":"14523430","name":"Treuen, Stadt","type":"Stadt"},"district":{"key":"14523","name":"Vogtlandkreis","type":"Landkreis"},"federalState":{"key":"14","name":"Sachsen"}},{"name":"Heinrich-Heine-Str.","postalCode":"14929","locality":"Treuenbrietzen","municipality":{"key":"12069632","name":"Treuenbrietzen, Stadt","type":"Stadt"},"district":{"key":"12069","name":"Potsdam-Mittelmark","type":"Landkreis"},"federalState":{"key":"12","name":"Brandenburg"}},{"name":"Heinrichstr.","postalCode":"08233","locality":"Treuen","municipality":{"key":"14523430","name":"Treuen, Stadt","type":"Stadt"},"district":{"key":"14523","name":"Vogtlandkreis","type":"Landkreis"},"federalState":{"key":"14","name":"Sachsen"}},{"name":"Heinrich-von-Kleist-Str.","postalCode":"14929","locality":"Treuenbrietzen","municipality":{"key":"12069632","name":"Treuenbrietzen, Stadt","type":"Stadt"},"district":{"key":"12069","name":"Potsdam-Mittelmark","type":"Landkreis"},"federalState":{"key":"12","name":"Brandenburg"}},{"name":"Herlasgrüner Str.","postalCode":"08233","locality":"Treuen","municipality":{"key":"14523430","name":"Treuen, Stadt","type":"Stadt"},"district":{"key":"14523","name":"Vogtlandkreis","type":"Landkreis"},"federalState":{"key":"14","name":"Sachsen"}},{"name":"Hermann-Löns-Weg","postalCode":"14929","locality":"Treuenbrietzen","municipality":{"key":"12069632","name":"Treuenbrietzen, Stadt","type":"Stadt"},"district":{"key":"12069","name":"Potsdam-Mittelmark","type":"Landkreis"},"federalState":{"key":"12","name":"Brandenburg"}},{"name":"Hinter den Gärten","postalCode":"14929","locality":"Treuenbrietzen","municipality":{"key":"12069632","name":"Treuenbrietzen, Stadt","type":"Stadt"},"district":{"key":"12069","name":"Potsdam-Mittelmark","type":"Landkreis"},"federalState":{"key":"12","name":"Brandenburg"}},{"name":"Hinter der Mauer","postalCode":"14929","locality":"Treuenbrietzen","municipality":{"key":"12069632","name":"Treuenbrietzen, Stadt","type":"Stadt"},"district":{"key":"12069","name":"Potsdam-Mittelmark","type":"Landkreis"},"federalState":{"key":"12","name":"Brandenburg"}},{"name":"Hinterer Ring","postalCode":"08233","locality":"Treuen","municipality":{"key":"14523430","name":"Treuen, Stadt","type":"Stadt"},"district":{"key":"14523","name":"Vogtlandkreis","type":"Landkreis"},"federalState":{"key":"14","name":"Sachsen"}},{"name":"Humboldtstr.","postalCode":"08233","locality":"Treuen","municipality":{"key":"14523430","name":"Treuen, Stadt","type":"Stadt"},"district":{"key":"14523","name":"Vogtlandkreis","type":"Landkreis"},"federalState":{"key":"14","name":"Sachsen"}},{"name":"Im Kietz","postalCode":"14929","locality":"Treuenbrietzen","municipality":{"key":"12069632","name":"Treuenbrietzen, Stadt","type":"Stadt"},"district":{"key":"12069","name":"Potsdam-Mittelmark","type":"Landkreis"},"federalState":{"key":"12","name":"Brandenburg"}},{"name":"Im Winkel","postalCode":"14929","locality":"Treuenbrietzen","municipality":{"key":"12069632","name":"Treuenbrietzen, Stadt","type":"Stadt"},"district":{"key":"12069","name":"Potsdam-Mittelmark","type":"Landkreis"},"federalState":{"key":"12","name":"Brandenburg"}},{"name":"In der Gasse","postalCode":"14929","locality":"Treuenbrietzen","municipality":{"key":"12069632","name":"Treuenbrietzen, Stadt","type":"Stadt"},"district":{"key":"12069","name":"Potsdam-Mittelmark","type":"Landkreis"},"federalState":{"key":"12","name":"Brandenburg"}},{"name":"Innere Gasse","postalCode":"08233","locality":"Treuen","municipality":{"key":"14523430","name":"Treuen, Stadt","type":"Stadt"},"district":{"key":"14523","name":"Vogtlandkreis","type":"Landkreis"},"federalState":{"key":"14","name":"Sachsen"}},{"name":"Innere Herlasgrüner Str.","postalCode":"08233","locality":"Treuen","municipality":{"key":"14523430","name":"Treuen, Stadt","type":"Stadt"},"district":{"key":"14523","name":"Vogtlandkreis","type":"Landkreis"},"federalState":{"key":"14","name":"Sachsen"}},{"name":"Jahnstr.","postalCode":"14929","locality":"Treuenbrietzen","municipality":{"key":"12069632","name":"Treuenbrietzen, Stadt","type":"Stadt"},"district":{"key":"12069","name":"Potsdam-Mittelmark","type":"Landkreis"},"federalState":{"key":"12","name":"Brandenburg"}},{"name":"Johanniterstr.","postalCode":"14929","locality":"Treuenbrietzen","municipality":{"key":"12069632","name":"Treuenbrietzen, Stadt","type":"Stadt"},"district":{"key":"12069","name":"Potsdam-Mittelmark","type":"Landkreis"},"federalState":{"key":"12","name":"Brandenburg"}},{"name":"Johann-Sebastian-Bach-Str.","postalCode":"08233","locality":"Treuen","municipality":{"key":"14523430","name":"Treuen, Stadt","type":"Stadt"},"district":{"key":"14523","name":"Vogtlandkreis","type":"Landkreis"},"federalState":{"key":"14","name":"Sachsen"}},{"name":"Justus-von-Liebig-Str.","postalCode":"14929","locality":"Treuenbrietzen","municipality":{"key":"12069632","name":"Treuenbrietzen, Stadt","type":"Stadt"},"district":{"key":"12069","name":"Potsdam-Mittelmark","type":"Landkreis"},"federalState":{"key":"12","name":"Brandenburg"}},{"name":"Jüterboger Str.","postalCode":"14929","locality":"Treuenbrietzen","municipality":{"key":"12069632","name":"Treuenbrietzen, Stadt","type":"Stadt"},"district":{"key":"12069","name":"Potsdam-Mittelmark","type":"Landkreis"},"federalState":{"key":"12","name":"Brandenburg"}},{"name":"Kameruner Weg","postalCode":"14929","locality":"Treuenbrietzen","municipality":{"key":"12069632","name":"Treuenbrietzen, Stadt","type":"Stadt"},"district":{"key":"12069","name":"Potsdam-Mittelmark","type":"Landkreis"},"federalState":{"key":"12","name":"Brandenburg"}},{"name":"Kapitän-Lehmann-Weg","postalCode":"14929","locality":"Treuenbrietzen","municipality":{"key":"12069632","name":"Treuenbrietzen, Stadt","type":"Stadt"},"district":{"key":"12069","name":"Potsdam-Mittelmark","type":"Landkreis"},"federalState":{"key":"12","name":"Brandenburg"}},{"name":"Karl-Liebknecht-Str.","postalCode":"14929","locality":"Treuenbrietzen","municipality":{"key":"12069632","name":"Treuenbrietzen, Stadt","type":"Stadt"},"district":{"key":"12069","name":"Potsdam-Mittelmark","type":"Landkreis"},"federalState":{"key":"12","name":"Brandenburg"}},{"name":"Karl-Marx-Str.","postalCode":"14929","locality":"Treuenbrietzen","municipality":{"key":"12069632","name":"Treuenbrietzen, Stadt","type":"Stadt"},"district":{"key":"12069","name":"Potsdam-Mittelmark","type":"Landkreis"},"federalState":{"key":"12","name":"Brandenburg"}},{"name":"Karlstr.","postalCode":"08233","locality":"Treuen","municipality":{"key":"14523430","name":"Treuen, Stadt","type":"Stadt"},"district":{"key":"14523","name":"Vogtlandkreis","type":"Landkreis"},"federalState":{"key":"14","name":"Sachsen"}},{"name":"Kastanienweg","postalCode":"08233","locality":"Treuen","municipality":{"key":"14523430","name":"Treuen, Stadt","type":"Stadt"},"district":{"key":"14523","name":"Vogtlandkreis","type":"Landkreis"},"federalState":{"key":"14","name":"Sachsen"}},{"name":"Kemnitzer Landstr.","postalCode":"14929","locality":"Treuenbrietzen","municipality":{"key":"12069632","name":"Treuenbrietzen, Stadt","type":"Stadt"},"district":{"key":"12069","name":"Potsdam-Mittelmark","type":"Landkreis"},"federalState":{"key":"12","name":"Brandenburg"}},{"name":"Kietzstr.","postalCode":"14929","locality":"Treuenbrietzen","municipality":{"key":"12069632","name":"Treuenbrietzen, Stadt","type":"Stadt"},"district":{"key":"12069","name":"Potsdam-Mittelmark","type":"Landkreis"},"federalState":{"key":"12","name":"Brandenburg"}},{"name":"Kirchgasse","postalCode":"08233","locality":"Treuen","municipality":{"key":"14523430","name":"Treuen, Stadt","type":"Stadt"},"district":{"key":"14523","name":"Vogtlandkreis","type":"Landkreis"},"federalState":{"key":"14","name":"Sachsen"}},{"name":"Klausdorfer Dorfstr.","postalCode":"14929","locality":"Treuenbrietzen","municipality":{"key":"12069632","name":"Treuenbrietzen, Stadt","type":"Stadt"},"district":{"key":"12069","name":"Potsdam-Mittelmark","type":"Landkreis"},"federalState":{"key":"12","name":"Brandenburg"}},{"name":"Königstr.","postalCode":"08233","locality":"Treuen","municipality":{"key":"14523430","name":"Treuen, Stadt","type":"Stadt"},"district":{"key":"14523","name":"Vogtlandkreis","type":"Landkreis"},"federalState":{"key":"14","name":"Sachsen"}},{"name":"Kreuzweg","postalCode":"08233","locality":"Treuen","municipality":{"key":"14523430","name":"Treuen, Stadt","type":"Stadt"},"district":{"key":"14523","name":"Vogtlandkreis","type":"Landkreis"},"federalState":{"key":"14","name":"Sachsen"}},{"name":"Kümdestr.","postalCode":"14929","locality":"Treuenbrietzen","municipality":{"key":"12069632","name":"Treuenbrietzen, Stadt","type":"Stadt"},"district":{"key":"12069","name":"Potsdam-Mittelmark","type":"Landkreis"},"federalState":{"key":"12","name":"Brandenburg"}},{"name":"Ladestr.","postalCode":"14929","locality":"Treuenbrietzen","municipality":{"key":"12069632","name":"Treuenbrietzen, Stadt","type":"Stadt"},"district":{"key":"12069","name":"Potsdam-Mittelmark","type":"Landkreis"},"federalState":{"key":"12","name":"Brandenburg"}},{"name":"Landschaftstour Treuenbrietzen","postalCode":"14929","locality":"Treuenbrietzen","municipality":{"key":"12069632","name":"Treuenbrietzen, Stadt","type":"Stadt"},"district":{"key":"12069","name":"Potsdam-Mittelmark","type":"Landkreis"},"federalState":{"key":"12","name":"Brandenburg"}},{"name":"Lange Gasse","postalCode":"08233","locality":"Treuen","municipality":{"key":"14523430","name":"Treuen, Stadt","type":"Stadt"},"district":{"key":"14523","name":"Vogtlandkreis","type":"Landkreis"},"federalState":{"key":"14","name":"Sachsen"}},{"name":"Langer Weg","postalCode":"08233","locality":"Treuen","municipality":{"key":"14523430","name":"Treuen, Stadt","type":"Stadt"},"district":{"key":"14523","name":"Vogtlandkreis","type":"Landkreis"},"federalState":{"key":"14","name":"Sachsen"}},{"name":"Lauterbacher Str.","postalCode":"08233","locality":"Treuen","municipality":{"key":"14523430","name":"Treuen, Stadt","type":"Stadt"},"district":{"key":"14523","name":"Vogtlandkreis","type":"Landkreis"},"federalState":{"key":"14","name":"Sachsen"}},{"name":"Leipziger Str.","postalCode":"14929","locality":"Treuenbrietzen","municipality":{"key":"12069632","name":"Treuenbrietzen, Stadt","type":"Stadt"},"district":{"key":"12069","name":"Potsdam-Mittelmark","type":"Landkreis"},"federalState":{"key":"12","name":"Brandenburg"}},{"name":"Lengenfelder Str.","postalCode":"08233","locality":"Treuen","municipality":{"key":"14523430","name":"Treuen, Stadt","type":"Stadt"},"district":{"key":"14523","name":"Vogtlandkreis","type":"Landkreis"},"federalState":{"key":"14","name":"Sachsen"}},{"name":"Lengenfelder Weg","postalCode":"08233","locality":"Treuen","municipality":{"key":"14523430","name":"Treuen, Stadt","type":"Stadt"},"district":{"key":"14523","name":"Vogtlandkreis","type":"Landkreis"},"federalState":{"key":"14","name":"Sachsen"}},{"name":"Lessingstr.","postalCode":"08233","locality":"Treuen","municipality":{"key":"14523430","name":"Treuen, Stadt","type":"Stadt"},"district":{"key":"14523","name":"Vogtlandkreis","type":"Landkreis"},"federalState":{"key":"14","name":"Sachsen"}},{"name":"Lessingstr.","postalCode":"14929","locality":"Treuenbrietzen","municipality":{"key":"12069632","name":"Treuenbrietzen, Stadt","type":"Stadt"},"district":{"key":"12069","name":"Potsdam-Mittelmark","type":"Landkreis"},"federalState":{"key":"12","name":"Brandenburg"}},{"name":"Lilienthalweg","postalCode":"14929","locality":"Treuenbrietzen","municipality":{"key":"12069632","name":"Treuenbrietzen, Stadt","type":"Stadt"},"district":{"key":"12069","name":"Potsdam-Mittelmark","type":"Landkreis"},"federalState":{"key":"12","name":"Brandenburg"}},{"name":"Limbacher Str.","postalCode":"08233","locality":"Treuen","municipality":{"key":"14523430","name":"Treuen, Stadt","type":"Stadt"},"district":{"key":"14523","name":"Vogtlandkreis","type":"Landkreis"},"federalState":{"key":"14","name":"Sachsen"}},{"name":"Lindenallee","postalCode":"14929","locality":"Treuenbrietzen","municipality":{"key":"12069632","name":"Treuenbrietzen, Stadt","type":"Stadt"},"district":{"key":"12069","name":"Potsdam-Mittelmark","type":"Landkreis"},"federalState":{"key":"12","name":"Brandenburg"}},{"name":"Lindenstr.","postalCode":"14929","locality":"Treuenbrietzen","municipality":{"key":"12069632","name":"Treuenbrietzen, Stadt","type":"Stadt"},"district":{"key":"12069","name":"Potsdam-Mittelmark","type":"Landkreis"},"federalState":{"key":"12","name":"Brandenburg"}},{"name":"Lindenweg","postalCode":"08233","locality":"Treuen","municipality":{"key":"14523430","name":"Treuen, Stadt","type":"Stadt"},"district":{"key":"14523","name":"Vogtlandkreis","type":"Landkreis"},"federalState":{"key":"14","name":"Sachsen"}},{"name":"Lindower Weg","postalCode":"14929","locality":"Treuenbrietzen","municipality":{"key":"12069632","name":"Treuenbrietzen, Stadt","type":"Stadt"},"district":{"key":"12069","name":"Potsdam-Mittelmark","type":"Landkreis"},"federalState":{"key":"12","name":"Brandenburg"}},{"name":"Lobbeser Dorfstr.","postalCode":"14929","locality":"Treuenbrietzen","municipality":{"key":"12069632","name":"Treuenbrietzen, Stadt","type":"Stadt"},"district":{"key":"12069","name":"Potsdam-Mittelmark","type":"Landkreis"},"federalState":{"key":"12","name":"Brandenburg"}},{"name":"Lochhäuser","postalCode":"08233","locality":"Treuen","municipality":{"key":"14523430","name":"Treuen, Stadt","type":"Stadt"},"district":{"key":"14523","name":"Vogtlandkreis","type":"Landkreis"},"federalState":{"key":"14","name":"Sachsen"}},{"name":"Lüdendorf","postalCode":"14929","locality":"Treuenbrietzen","municipality":{"key":"12069632","name":"Treuenbrietzen, Stadt","type":"Stadt"},"district":{"key":"12069","name":"Potsdam-Mittelmark","type":"Landkreis"},"federalState":{"key":"12","name":"Brandenburg"}},{"name":"Lüdendorfer Str.","postalCode":"14929","locality":"Treuenbrietzen","municipality":{"key":"12069632","name":"Treuenbrietzen, Stadt","type":"Stadt"},"district":{"key":"12069","name":"Potsdam-Mittelmark","type":"Landkreis"},"federalState":{"key":"12","name":"Brandenburg"}},{"name":"Lüdendorf Nr.","postalCode":"14929","locality":"Treuenbrietzen","municipality":{"key":"12069632","name":"Treuenbrietzen, Stadt","type":"Stadt"},"district":{"key":"12069","name":"Potsdam-Mittelmark","type":"Landkreis"},"federalState":{"key":"12","name":"Brandenburg"}},{"name":"Mahnbrück","postalCode":"08233","locality":"Treuen","municipality":{"key":"14523430","name":"Treuen, Stadt","type":"Stadt"},"district":{"key":"14523","name":"Vogtlandkreis","type":"Landkreis"},"federalState":{"key":"14","name":"Sachsen"}},{"name":"Mahnbrücker Weg","postalCode":"08233","locality":"Treuen","municipality":{"key":"14523430","name":"Treuen, Stadt","type":"Stadt"},"district":{"key":"14523","name":"Vogtlandkreis","type":"Landkreis"},"federalState":{"key":"14","name":"Sachsen"}},{"name":"Manfred-Brüning-Weg","postalCode":"14929","locality":"Treuenbrietzen","municipality":{"key":"12069632","name":"Treuenbrietzen, Stadt","type":"Stadt"},"district":{"key":"12069","name":"Potsdam-Mittelmark","type":"Landkreis"},"federalState":{"key":"12","name":"Brandenburg"}},{"name":"Marcusweg","postalCode":"08233","locality":"Treuen","municipality":{"key":"14523430","name":"Treuen, Stadt","type":"Stadt"},"district":{"key":"14523","name":"Vogtlandkreis","type":"Landkreis"},"federalState":{"key":"14","name":"Sachsen"}},{"name":"Marienkirchstr.","postalCode":"14929","locality":"Treuenbrietzen","municipality":{"key":"12069632","name":"Treuenbrietzen, Stadt","type":"Stadt"},"district":{"key":"12069","name":"Potsdam-Mittelmark","type":"Landkreis"},"federalState":{"key":"12","name":"Brandenburg"}},{"name":"Marienstr.","postalCode":"08233","locality":"Treuen","municipality":{"key":"14523430","name":"Treuen, Stadt","type":"Stadt"},"district":{"key":"14523","name":"Vogtlandkreis","type":"Landkreis"},"federalState":{"key":"14","name":"Sachsen"}},{"name":"Markt","postalCode":"08233","locality":"Treuen","municipality":{"key":"14523430","name":"Treuen, Stadt","type":"Stadt"},"district":{"key":"14523","name":"Vogtlandkreis","type":"Landkreis"},"federalState":{"key":"14","name":"Sachsen"}},{"name":"Marzahnaer Gartenstr.","postalCode":"14929","locality":"Treuenbrietzen","municipality":{"key":"12069632","name":"Treuenbrietzen, Stadt","type":"Stadt"},"district":{"key":"12069","name":"Potsdam-Mittelmark","type":"Landkreis"},"federalState":{"key":"12","name":"Brandenburg"}},{"name":"Marzahnaer Mühlenweg","postalCode":"14929","locality":"Treuenbrietzen","municipality":{"key":"12069632","name":"Treuenbrietzen, Stadt","type":"Stadt"},"district":{"key":"12069","name":"Potsdam-Mittelmark","type":"Landkreis"},"federalState":{"key":"12","name":"Brandenburg"}},{"name":"Marzahnaer Str.","postalCode":"14929","locality":"Treuenbrietzen","municipality":{"key":"12069632","name":"Treuenbrietzen, Stadt","type":"Stadt"},"district":{"key":"12069","name":"Potsdam-Mittelmark","type":"Landkreis"},"federalState":{"key":"12","name":"Brandenburg"}},{"name":"Marzahnaer Winkel","postalCode":"14929","locality":"Treuenbrietzen","municipality":{"key":"12069632","name":"Treuenbrietzen, Stadt","type":"Stadt"},"district":{"key":"12069","name":"Potsdam-Mittelmark","type":"Landkreis"},"federalState":{"key":"12","name":"Brandenburg"}},{"name":"Max-Schubert-Weg","postalCode":"08233","locality":"Treuen","municipality":{"key":"14523430","name":"Treuen, Stadt","type":"Stadt"},"district":{"key":"14523","name":"Vogtlandkreis","type":"Landkreis"},"federalState":{"key":"14","name":"Sachsen"}},{"name":"Mittlerer Ring","postalCode":"08233","locality":"Treuen","municipality":{"key":"14523430","name":"Treuen, Stadt","type":"Stadt"},"district":{"key":"14523","name":"Vogtlandkreis","type":"Landkreis"},"federalState":{"key":"14","name":"Sachsen"}},{"name":"Mühlenweg","postalCode":"14929","locality":"Treuenbrietzen","municipality":{"key":"12069632","name":"Treuenbrietzen, Stadt","type":"Stadt"},"district":{"key":"12069","name":"Potsdam-Mittelmark","type":"Landkreis"},"federalState":{"key":"12","name":"Brandenburg"}},{"name":"Mühlhäuser","postalCode":"08233","locality":"Treuen","municipality":{"key":"14523430","name":"Treuen, Stadt","type":"Stadt"},"district":{"key":"14523","name":"Vogtlandkreis","type":"Landkreis"},"federalState":{"key":"14","name":"Sachsen"}},{"name":"Mühlweg","postalCode":"08233","locality":"Treuen","municipality":{"key":"14523430","name":"Treuen, Stadt","type":"Stadt"},"district":{"key":"14523","name":"Vogtlandkreis","type":"Landkreis"},"federalState":{"key":"14","name":"Sachsen"}},{"name":"Munzstr.","postalCode":"08233","locality":"Treuen","municipality":{"key":"14523430","name":"Treuen, Stadt","type":"Stadt"},"district":{"key":"14523","name":"Vogtlandkreis","type":"Landkreis"},"federalState":{"key":"14","name":"Sachsen"}},{"name":"Nagelgasse","postalCode":"14929","locality":"Treuenbrietzen","municipality":{"key":"12069632","name":"Treuenbrietzen, Stadt","type":"Stadt"},"district":{"key":"12069","name":"Potsdam-Mittelmark","type":"Landkreis"},"federalState":{"key":"12","name":"Brandenburg"}},{"name":"Neue Gasse","postalCode":"08233","locality":"Treuen","municipality":{"key":"14523430","name":"Treuen, Stadt","type":"Stadt"},"district":{"key":"14523","name":"Vogtlandkreis","type":"Landkreis"},"federalState":{"key":"14","name":"Sachsen"}},{"name":"Neue-Hufen-Str.","postalCode":"14929","locality":"Treuenbrietzen","municipality":{"key":"12069632","name":"Treuenbrietzen, Stadt","type":"Stadt"},"district":{"key":"12069","name":"Potsdam-Mittelmark","type":"Landkreis"},"federalState":{"key":"12","name":"Brandenburg"}},{"name":"Neue Marktstr.","postalCode":"14929","locality":"Treuenbrietzen","municipality":{"key":"12069632","name":"Treuenbrietzen, Stadt","type":"Stadt"},"district":{"key":"12069","name":"Potsdam-Mittelmark","type":"Landkreis"},"federalState":{"key":"12","name":"Brandenburg"}},{"name":"Neue Welt","postalCode":"08233","locality":"Treuen","municipality":{"key":"14523430","name":"Treuen, Stadt","type":"Stadt"},"district":{"key":"14523","name":"Vogtlandkreis","type":"Landkreis"},"federalState":{"key":"14","name":"Sachsen"}},{"name":"Nicheler Weg","postalCode":"14929","locality":"Treuenbrietzen","municipality":{"key":"12069632","name":"Treuenbrietzen, Stadt","type":"Stadt"},"district":{"key":"12069","name":"Potsdam-Mittelmark","type":"Landkreis"},"federalState":{"key":"12","name":"Brandenburg"}},{"name":"Niebler Dorfstr.","postalCode":"14929","locality":"Treuenbrietzen","municipality":{"key":"12069632","name":"Treuenbrietzen, Stadt","type":"Stadt"},"district":{"key":"12069","name":"Potsdam-Mittelmark","type":"Landkreis"},"federalState":{"key":"12","name":"Brandenburg"}},{"name":"Niemegker Weg","postalCode":"14929","locality":"Treuenbrietzen","municipality":{"key":"12069632","name":"Treuenbrietzen, Stadt","type":"Stadt"},"district":{"key":"12069","name":"Potsdam-Mittelmark","type":"Landkreis"},"federalState":{"key":"12","name":"Brandenburg"}},{"name":"Nieplitzdamm","postalCode":"14929","locality":"Treuenbrietzen","municipality":{"key":"12069632","name":"Treuenbrietzen, Stadt","type":"Stadt"},"district":{"key":"12069","name":"Potsdam-Mittelmark","type":"Landkreis"},"federalState":{"key":"12","name":"Brandenburg"}},{"name":"Nordstr.","postalCode":"08233","locality":"Treuen","municipality":{"key":"14523430","name":"Treuen, Stadt","type":"Stadt"},"district":{"key":"14523","name":"Vogtlandkreis","type":"Landkreis"},"federalState":{"key":"14","name":"Sachsen"}},{"name":"Nordwalder Ring","postalCode":"14929","locality":"Treuenbrietzen","municipality":{"key":"12069632","name":"Treuenbrietzen, Stadt","type":"Stadt"},"district":{"key":"12069","name":"Potsdam-Mittelmark","type":"Landkreis"},"federalState":{"key":"12","name":"Brandenburg"}},{"name":"Obere Gasse","postalCode":"08233","locality":"Treuen","municipality":{"key":"14523430","name":"Treuen, Stadt","type":"Stadt"},"district":{"key":"14523","name":"Vogtlandkreis","type":"Landkreis"},"federalState":{"key":"14","name":"Sachsen"}},{"name":"Oberlauterbacher Str.","postalCode":"08233","locality":"Treuen","municipality":{"key":"14523430","name":"Treuen, Stadt","type":"Stadt"},"district":{"key":"14523","name":"Vogtlandkreis","type":"Landkreis"},"federalState":{"key":"14","name":"Sachsen"}},{"name":"Oststr.","postalCode":"08233","locality":"Treuen","municipality":{"key":"14523430","name":"Treuen, Stadt","type":"Stadt"},"district":{"key":"14523","name":"Vogtlandkreis","type":"Landkreis"},"federalState":{"key":"14","name":"Sachsen"}},{"name":"Parkstr.","postalCode":"14929","locality":"Treuenbrietzen","municipality":{"key":"12069632","name":"Treuenbrietzen, Stadt","type":"Stadt"},"district":{"key":"12069","name":"Potsdam-Mittelmark","type":"Landkreis"},"federalState":{"key":"12","name":"Brandenburg"}},{"name":"Pechüler Dorfstr.","postalCode":"14929","locality":"Treuenbrietzen","municipality":{"key":"12069632","name":"Treuenbrietzen, Stadt","type":"Stadt"},"district":{"key":"12069","name":"Potsdam-Mittelmark","type":"Landkreis"},"federalState":{"key":"12","name":"Brandenburg"}},{"name":"Perlas","postalCode":"08233","locality":"Treuen","municipality":{"key":"14523430","name":"Treuen, Stadt","type":"Stadt"},"district":{"key":"14523","name":"Vogtlandkreis","type":"Landkreis"},"federalState":{"key":"14","name":"Sachsen"}},{"name":"Perlaser Str.","postalCode":"08233","locality":"Treuen","municipality":{"key":"14523430","name":"Treuen, Stadt","type":"Stadt"},"district":{"key":"14523","name":"Vogtlandkreis","type":"Landkreis"},"federalState":{"key":"14","name":"Sachsen"}},{"name":"Perlaser Weg","postalCode":"08233","locality":"Treuen","municipality":{"key":"14523430","name":"Treuen, Stadt","type":"Stadt"},"district":{"key":"14523","name":"Vogtlandkreis","type":"Landkreis"},"federalState":{"key":"14","name":"Sachsen"}},{"name":"Pfarrgasse","postalCode":"14929","locality":"Treuenbrietzen","municipality":{"key":"12069632","name":"Treuenbrietzen, Stadt","type":"Stadt"},"district":{"key":"12069","name":"Potsdam-Mittelmark","type":"Landkreis"},"federalState":{"key":"12","name":"Brandenburg"}},{"name":"Pfarrstr.","postalCode":"08233","locality":"Treuen","municipality":{"key":"14523430","name":"Treuen, Stadt","type":"Stadt"},"district":{"key":"14523","name":"Vogtlandkreis","type":"Landkreis"},"federalState":{"key":"14","name":"Sachsen"}},{"name":"Postplatz","postalCode":"08233","locality":"Treuen","municipality":{"key":"14523430","name":"Treuen, Stadt","type":"Stadt"},"district":{"key":"14523","name":"Vogtlandkreis","type":"Landkreis"},"federalState":{"key":"14","name":"Sachsen"}},{"name":"Poststr.","postalCode":"08233","locality":"Treuen","municipality":{"key":"14523430","name":"Treuen, Stadt","type":"Stadt"},"district":{"key":"14523","name":"Vogtlandkreis","type":"Landkreis"},"federalState":{"key":"14","name":"Sachsen"}},{"name":"Quergasse","postalCode":"08233","locality":"Treuen","municipality":{"key":"14523430","name":"Treuen, Stadt","type":"Stadt"},"district":{"key":"14523","name":"Vogtlandkreis","type":"Landkreis"},"federalState":{"key":"14","name":"Sachsen"}},{"name":"Querstr.","postalCode":"08233","locality":"Treuen","municipality":{"key":"14523430","name":"Treuen, Stadt","type":"Stadt"},"district":{"key":"14523","name":"Vogtlandkreis","type":"Landkreis"},"federalState":{"key":"14","name":"Sachsen"}},{"name":"Rebesgrüner Str.","postalCode":"08233","locality":"Treuen","municipality":{"key":"14523430","name":"Treuen, Stadt","type":"Stadt"},"district":{"key":"14523","name":"Vogtlandkreis","type":"Landkreis"},"federalState":{"key":"14","name":"Sachsen"}},{"name":"Reumtengrüner Weg","postalCode":"08233","locality":"Treuen","municipality":{"key":"14523430","name":"Treuen, Stadt","type":"Stadt"},"district":{"key":"14523","name":"Vogtlandkreis","type":"Landkreis"},"federalState":{"key":"14","name":"Sachsen"}},{"name":"Rietz-Bucht Nr.","postalCode":"14929","locality":"Treuenbrietzen","municipality":{"key":"12069632","name":"Treuenbrietzen, Stadt","type":"Stadt"},"district":{"key":"12069","name":"Potsdam-Mittelmark","type":"Landkreis"},"federalState":{"key":"12","name":"Brandenburg"}},{"name":"Rietzer Dorfstr.","postalCode":"14929","locality":"Treuenbrietzen","municipality":{"key":"12069632","name":"Treuenbrietzen, Stadt","type":"Stadt"},"district":{"key":"12069","name":"Potsdam-Mittelmark","type":"Landkreis"},"federalState":{"key":"12","name":"Brandenburg"}},{"name":"Ringelsberg","postalCode":"08233","locality":"Treuen","municipality":{"key":"14523430","name":"Treuen, Stadt","type":"Stadt"},"district":{"key":"14523","name":"Vogtlandkreis","type":"Landkreis"},"federalState":{"key":"14","name":"Sachsen"}},{"name":"Ringstr.","postalCode":"14929","locality":"Treuenbrietzen","municipality":{"key":"12069632","name":"Treuenbrietzen, Stadt","type":"Stadt"},"district":{"key":"12069","name":"Potsdam-Mittelmark","type":"Landkreis"},"federalState":{"key":"12","name":"Brandenburg"}},{"name":"Rittergutsberg","postalCode":"08233","locality":"Treuen","municipality":{"key":"14523430","name":"Treuen, Stadt","type":"Stadt"},"district":{"key":"14523","name":"Vogtlandkreis","type":"Landkreis"},"federalState":{"key":"14","name":"Sachsen"}},{"name":"Robert-Koch-Str.","postalCode":"14929","locality":"Treuenbrietzen","municipality":{"key":"12069632","name":"Treuenbrietzen, Stadt","type":"Stadt"},"district":{"key":"12069","name":"Potsdam-Mittelmark","type":"Landkreis"},"federalState":{"key":"12","name":"Brandenburg"}},{"name":"Rodewischer Str.","postalCode":"08233","locality":"Treuen","municipality":{"key":"14523430","name":"Treuen, Stadt","type":"Stadt"},"district":{"key":"14523","name":"Vogtlandkreis","type":"Landkreis"},"federalState":{"key":"14","name":"Sachsen"}},{"name":"Rosengasse","postalCode":"14929","locality":"Treuenbrietzen","municipality":{"key":"12069632","name":"Treuenbrietzen, Stadt","type":"Stadt"},"district":{"key":"12069","name":"Potsdam-Mittelmark","type":"Landkreis"},"federalState":{"key":"12","name":"Brandenburg"}},{"name":"Rosenstr.","postalCode":"08233","locality":"Treuen","municipality":{"key":"14523430","name":"Treuen, Stadt","type":"Stadt"},"district":{"key":"14523","name":"Vogtlandkreis","type":"Landkreis"},"federalState":{"key":"14","name":"Sachsen"}},{"name":"Rudolf-Breitscheid-Str.","postalCode":"08233","locality":"Treuen","municipality":{"key":"14523430","name":"Treuen, Stadt","type":"Stadt"},"district":{"key":"14523","name":"Vogtlandkreis","type":"Landkreis"},"federalState":{"key":"14","name":"Sachsen"}},{"name":"Rudolf-Virchow-Str.","postalCode":"14929","locality":"Treuenbrietzen","municipality":{"key":"12069632","name":"Treuenbrietzen, Stadt","type":"Stadt"},"district":{"key":"12069","name":"Potsdam-Mittelmark","type":"Landkreis"},"federalState":{"key":"12","name":"Brandenburg"}},{"name":"Schießhausweg","postalCode":"08233","locality":"Treuen","municipality":{"key":"14523430","name":"Treuen, Stadt","type":"Stadt"},"district":{"key":"14523","name":"Vogtlandkreis","type":"Landkreis"},"federalState":{"key":"14","name":"Sachsen"}},{"name":"Schillerstr.","postalCode":"08233","locality":"Treuen","municipality":{"key":"14523430","name":"Treuen, Stadt","type":"Stadt"},"district":{"key":"14523","name":"Vogtlandkreis","type":"Landkreis"},"federalState":{"key":"14","name":"Sachsen"}},{"name":"Schillerstr.","postalCode":"14929","locality":"Treuenbrietzen","municipality":{"key":"12069632","name":"Treuenbrietzen, Stadt","type":"Stadt"},"district":{"key":"12069","name":"Potsdam-Mittelmark","type":"Landkreis"},"federalState":{"key":"12","name":"Brandenburg"}},{"name":"Schlalacher Str.","postalCode":"14929","locality":"Treuenbrietzen","municipality":{"key":"12069632","name":"Treuenbrietzen, Stadt","type":"Stadt"},"district":{"key":"12069","name":"Potsdam-Mittelmark","type":"Landkreis"},"federalState":{"key":"12","name":"Brandenburg"}},{"name":"Schloßweg","postalCode":"08233","locality":"Treuen","municipality":{"key":"14523430","name":"Treuen, Stadt","type":"Stadt"},"district":{"key":"14523","name":"Vogtlandkreis","type":"Landkreis"},"federalState":{"key":"14","name":"Sachsen"}},{"name":"Schmögelsdorfer Ringstr.","postalCode":"14929","locality":"Treuenbrietzen","municipality":{"key":"12069632","name":"Treuenbrietzen, Stadt","type":"Stadt"},"district":{"key":"12069","name":"Potsdam-Mittelmark","type":"Landkreis"},"federalState":{"key":"12","name":"Brandenburg"}},{"name":"Schönauer Str.","postalCode":"08233","locality":"Treuen","municipality":{"key":"14523430","name":"Treuen, Stadt","type":"Stadt"},"district":{"key":"14523","name":"Vogtlandkreis","type":"Landkreis"},"federalState":{"key":"14","name":"Sachsen"}},{"name":"Schönefelder Str.","postalCode":"14929","locality":"Treuenbrietzen","municipality":{"key":"12069632","name":"Treuenbrietzen, Stadt","type":"Stadt"},"district":{"key":"12069","name":"Potsdam-Mittelmark","type":"Landkreis"},"federalState":{"key":"12","name":"Brandenburg"}},{"name":"Schreiersgrüner Str.","postalCode":"08233","locality":"Treuen","municipality":{"key":"14523430","name":"Treuen, Stadt","type":"Stadt"},"district":{"key":"14523","name":"Vogtlandkreis","type":"Landkreis"},"federalState":{"key":"14","name":"Sachsen"}},{"name":"Schulgasse","postalCode":"14929","locality":"Treuenbrietzen","municipality":{"key":"12069632","name":"Treuenbrietzen, Stadt","type":"Stadt"},"district":{"key":"12069","name":"Potsdam-Mittelmark","type":"Landkreis"},"federalState":{"key":"12","name":"Brandenburg"}},{"name":"Schulstr.","postalCode":"08233","locality":"Treuen","municipality":{"key":"14523430","name":"Treuen, Stadt","type":"Stadt"},"district":{"key":"14523","name":"Vogtlandkreis","type":"Landkreis"},"federalState":{"key":"14","name":"Sachsen"}},{"name":"Schulweg","postalCode":"14929","locality":"Treuenbrietzen","municipality":{"key":"12069632","name":"Treuenbrietzen, Stadt","type":"Stadt"},"district":{"key":"12069","name":"Potsdam-Mittelmark","type":"Landkreis"},"federalState":{"key":"12","name":"Brandenburg"}},{"name":"Schuttstr.","postalCode":"08233","locality":"Treuen","municipality":{"key":"14523430","name":"Treuen, Stadt","type":"Stadt"},"district":{"key":"14523","name":"Vogtlandkreis","type":"Landkreis"},"federalState":{"key":"14","name":"Sachsen"}},{"name":"Schwarzer Weg","postalCode":"14929","locality":"Treuenbrietzen","municipality":{"key":"12069632","name":"Treuenbrietzen, Stadt","type":"Stadt"},"district":{"key":"12069","name":"Potsdam-Mittelmark","type":"Landkreis"},"federalState":{"key":"12","name":"Brandenburg"}},{"name":"Sebaldusstr.","postalCode":"14929","locality":"Treuenbrietzen","municipality":{"key":"12069632","name":"Treuenbrietzen, Stadt","type":"Stadt"},"district":{"key":"12069","name":"Potsdam-Mittelmark","type":"Landkreis"},"federalState":{"key":"12","name":"Brandenburg"}},{"name":"Selterhofbrücke","postalCode":"14929","locality":"Treuenbrietzen","municipality":{"key":"12069632","name":"Treuenbrietzen, Stadt","type":"Stadt"},"district":{"key":"12069","name":"Potsdam-Mittelmark","type":"Landkreis"},"federalState":{"key":"12","name":"Brandenburg"}},{"name":"Sernowstr.","postalCode":"14929","locality":"Treuenbrietzen","municipality":{"key":"12069632","name":"Treuenbrietzen, Stadt","type":"Stadt"},"district":{"key":"12069","name":"Potsdam-Mittelmark","type":"Landkreis"},"federalState":{"key":"12","name":"Brandenburg"}},{"name":"Sonnenblick","postalCode":"08233","locality":"Treuen","municipality":{"key":"14523430","name":"Treuen, Stadt","type":"Stadt"},"district":{"key":"14523","name":"Vogtlandkreis","type":"Landkreis"},"federalState":{"key":"14","name":"Sachsen"}},{"name":"Steinmühlenstr.","postalCode":"14929","locality":"Treuenbrietzen","municipality":{"key":"12069632","name":"Treuenbrietzen, Stadt","type":"Stadt"},"district":{"key":"12069","name":"Potsdam-Mittelmark","type":"Landkreis"},"federalState":{"key":"12","name":"Brandenburg"}},{"name":"Stickerweg","postalCode":"08233","locality":"Treuen","municipality":{"key":"14523430","name":"Treuen, Stadt","type":"Stadt"},"district":{"key":"14523","name":"Vogtlandkreis","type":"Landkreis"},"federalState":{"key":"14","name":"Sachsen"}},{"name":"Storchenweg","postalCode":"14929","locality":"Treuenbrietzen","municipality":{"key":"12069632","name":"Treuenbrietzen, Stadt","type":"Stadt"},"district":{"key":"12069","name":"Potsdam-Mittelmark","type":"Landkreis"},"federalState":{"key":"12","name":"Brandenburg"}},{"name":"Str. 25","postalCode":"08233","locality":"Treuen","municipality":{"key":"14523430","name":"Treuen, Stadt","type":"Stadt"},"district":{"key":"14523","name":"Vogtlandkreis","type":"Landkreis"},"federalState":{"key":"14","name":"Sachsen"}},{"name":"Str. der DSF","postalCode":"08233","locality":"Treuen","municipality":{"key":"14523430","name":"Treuen, Stadt","type":"Stadt"},"district":{"key":"14523","name":"Vogtlandkreis","type":"Landkreis"},"federalState":{"key":"14","name":"Sachsen"}},{"name":"Str. der Einheit","postalCode":"08233","locality":"Treuen","municipality":{"key":"14523430","name":"Treuen, Stadt","type":"Stadt"},"district":{"key":"14523","name":"Vogtlandkreis","type":"Landkreis"},"federalState":{"key":"14","name":"Sachsen"}},{"name":"Str. der Jugend","postalCode":"08233","locality":"Treuen","municipality":{"key":"14523430","name":"Treuen, Stadt","type":"Stadt"},"district":{"key":"14523","name":"Vogtlandkreis","type":"Landkreis"},"federalState":{"key":"14","name":"Sachsen"}},{"name":"Talstr.","postalCode":"08233","locality":"Treuen","municipality":{"key":"14523430","name":"Treuen, Stadt","type":"Stadt"},"district":{"key":"14523","name":"Vogtlandkreis","type":"Landkreis"},"federalState":{"key":"14","name":"Sachsen"}},{"name":"Theodor-Fontane-Str.","postalCode":"14929","locality":"Treuenbrietzen","municipality":{"key":"12069632","name":"Treuenbrietzen, Stadt","type":"Stadt"},"district":{"key":"12069","name":"Potsdam-Mittelmark","type":"Landkreis"},"federalState":{"key":"12","name":"Brandenburg"}},{"name":"Tiefenbrunnen","postalCode":"14929","locality":"Treuenbrietzen","municipality":{"key":"12069632","name":"Treuenbrietzen, Stadt","type":"Stadt"},"district":{"key":"12069","name":"Potsdam-Mittelmark","type":"Landkreis"},"federalState":{"key":"12","name":"Brandenburg"}},{"name":"Töpfergasse","postalCode":"08233","locality":"Treuen","municipality":{"key":"14523430","name":"Treuen, Stadt","type":"Stadt"},"district":{"key":"14523","name":"Vogtlandkreis","type":"Landkreis"},"federalState":{"key":"14","name":"Sachsen"}},{"name":"Töpferstr.","postalCode":"14929","locality":"Treuenbrietzen","municipality":{"key":"12069632","name":"Treuenbrietzen, Stadt","type":"Stadt"},"district":{"key":"12069","name":"Potsdam-Mittelmark","type":"Landkreis"},"federalState":{"key":"12","name":"Brandenburg"}},{"name":"Treuenbrietzener Str.","postalCode":"14929","locality":"Treuenbrietzen","municipality":{"key":"12069632","name":"Treuenbrietzen, Stadt","type":"Stadt"},"district":{"key":"12069","name":"Potsdam-Mittelmark","type":"Landkreis"},"federalState":{"key":"12","name":"Brandenburg"}},{"name":"Treuener Str.","postalCode":"08233","locality":"Treuen","municipality":{"key":"14523430","name":"Treuen, Stadt","type":"Stadt"},"district":{"key":"14523","name":"Vogtlandkreis","type":"Landkreis"},"federalState":{"key":"14","name":"Sachsen"}},{"name":"Veitenhäuser","postalCode":"08233","locality":"Treuen","municipality":{"key":"14523430","name":"Treuen, Stadt","type":"Stadt"},"district":{"key":"14523","name":"Vogtlandkreis","type":"Landkreis"},"federalState":{"key":"14","name":"Sachsen"}},{"name":"Vogelgesangstr.","postalCode":"14929","locality":"Treuenbrietzen","municipality":{"key":"12069632","name":"Treuenbrietzen, Stadt","type":"Stadt"},"district":{"key":"12069","name":"Potsdam-Mittelmark","type":"Landkreis"},"federalState":{"key":"12","name":"Brandenburg"}},{"name":"Vorderer Ring","postalCode":"08233","locality":"Treuen","municipality":{"key":"14523430","name":"Treuen, Stadt","type":"Stadt"},"district":{"key":"14523","name":"Vogtlandkreis","type":"Landkreis"},"federalState":{"key":"14","name":"Sachsen"}},{"name":"Waldsiedlung","postalCode":"14929","locality":"Treuenbrietzen","municipality":{"key":"12069632","name":"Treuenbrietzen, Stadt","type":"Stadt"},"district":{"key":"12069","name":"Potsdam-Mittelmark","type":"Landkreis"},"federalState":{"key":"12","name":"Brandenburg"}},{"name":"Waldstr.","postalCode":"08233","locality":"Treuen","municipality":{"key":"14523430","name":"Treuen, Stadt","type":"Stadt"},"district":{"key":"14523","name":"Vogtlandkreis","type":"Landkreis"},"federalState":{"key":"14","name":"Sachsen"}},{"name":"Waldweg","postalCode":"14929","locality":"Treuenbrietzen","municipality":{"key":"12069632","name":"Treuenbrietzen, Stadt","type":"Stadt"},"district":{"key":"12069","name":"Potsdam-Mittelmark","type":"Landkreis"},"federalState":{"key":"12","name":"Brandenburg"}},{"name":"Walther-Rathenau-Str.","postalCode":"08233","locality":"Treuen","municipality":{"key":"14523430","name":"Treuen, Stadt","type":"Stadt"},"district":{"key":"14523","name":"Vogtlandkreis","type":"Landkreis"},"federalState":{"key":"14","name":"Sachsen"}},{"name":"Weißensander Str.","postalCode":"08233","locality":"Treuen","municipality":{"key":"14523430","name":"Treuen, Stadt","type":"Stadt"},"district":{"key":"14523","name":"Vogtlandkreis","type":"Landkreis"},"federalState":{"key":"14","name":"Sachsen"}},{"name":"Weststr.","postalCode":"08233","locality":"Treuen","municipality":{"key":"14523430","name":"Treuen, Stadt","type":"Stadt"},"district":{"key":"14523","name":"Vogtlandkreis","type":"Landkreis"},"federalState":{"key":"14","name":"Sachsen"}},{"name":"Wetzelsgrün","postalCode":"08233","locality":"Treuen","municipality":{"key":"14523430","name":"Treuen, Stadt","type":"Stadt"},"district":{"key":"14523","name":"Vogtlandkreis","type":"Landkreis"},"federalState":{"key":"14","name":"Sachsen"}},{"name":"Wetzelsgrüner Str.","postalCode":"08233","locality":"Treuen","municipality":{"key":"14523430","name":"Treuen, Stadt","type":"Stadt"},"district":{"key":"14523","name":"Vogtlandkreis","type":"Landkreis"},"federalState":{"key":"14","name":"Sachsen"}},{"name":"Wiesenweg","postalCode":"14929","locality":"Treuenbrietzen","municipality":{"key":"12069632","name":"Treuenbrietzen, Stadt","type":"Stadt"},"district":{"key":"12069","name":"Potsdam-Mittelmark","type":"Landkreis"},"federalState":{"key":"12","name":"Brandenburg"}},{"name":"Wolfspfützer Weg","postalCode":"08233","locality":"Treuen","municipality":{"key":"14523430","name":"Treuen, Stadt","type":"Stadt"},"district":{"key":"14523","name":"Vogtlandkreis","type":"Landkreis"},"federalState":{"key":"14","name":"Sachsen"}},{"name":"Zenkergäßchen","postalCode":"08233","locality":"Treuen","municipality":{"key":"14523430","name":"Treuen, Stadt","type":"Stadt"},"district":{"key":"14523","name":"Vogtlandkreis","type":"Landkreis"},"federalState":{"key":"14","name":"Sachsen"}},{"name":"Zeppelinweg","postalCode":"14929","locality":"Treuenbrietzen","municipality":{"key":"12069632","name":"Treuenbrietzen, Stadt","type":"Stadt"},"district":{"key":"12069","name":"Potsdam-Mittelmark","type":"Landkreis"},"federalState":{"key":"12","name":"Brandenburg"}},{"name":"Zeudener Dorfstr.","postalCode":"14929","locality":"Treuenbrietzen","municipality":{"key":"12069632","name":"Treuenbrietzen, Stadt","type":"Stadt"},"district":{"key":"12069","name":"Potsdam-Mittelmark","type":"Landkreis"},"federalState":{"key":"12","name":"Brandenburg"}},{"name":"Zeudener Str.","postalCode":"14929","locality":"Treuenbrietzen","municipality":{"key":"12069632","name":"Treuenbrietzen, Stadt","type":"Stadt"},"district":{"key":"12069","name":"Potsdam-Mittelmark","type":"Landkreis"},"federalState":{"key":"12","name":"Brandenburg"}},{"name":"Zeudener Weg","postalCode":"14929","locality":"Treuenbrietzen","municipality":{"key":"12069632","name":"Treuenbrietzen, Stadt","type":"Stadt"},"district":{"key":"12069","name":"Potsdam-Mittelmark","type":"Landkreis"},"federalState":{"key":"12","name":"Brandenburg"}},{"name":"Ziegeleistr.","postalCode":"08233","locality":"Treuen","municipality":{"key":"14523430","name":"Treuen, Stadt","type":"Stadt"},"district":{"key":"14523","name":"Vogtlandkreis","type":"Landkreis"},"federalState":{"key":"14","name":"Sachsen"}},{"name":"Ziegeleiweg","postalCode":"14929","locality":"Treuenbrietzen","municipality":{"key":"12069632","name":"Treuenbrietzen, Stadt","type":"Stadt"},"district":{"key":"12069","name":"Potsdam-Mittelmark","type":"Landkreis"},"federalState":{"key":"12","name":"Brandenburg"}},{"name":"Zingelstr.","postalCode":"14929","locality":"Treuenbrietzen","municipality":{"key":"12069632","name":"Treuenbrietzen, Stadt","type":"Stadt"},"district":{"key":"12069","name":"Potsdam-Mittelmark","type":"Landkreis"},"federalState":{"key":"12","name":"Brandenburg"}},{"name":"Zobeser Str.","postalCode":"08233","locality":"Treuen","municipality":{"key":"14523430","name":"Treuen, Stadt","type":"Stadt"},"district":{"key":"14523","name":"Vogtlandkreis","type":"Landkreis"},"federalState":{"key":"14","name":"Sachsen"}},{"name":"Zum Bahndamm","postalCode":"08233","locality":"Treuen","municipality":{"key":"14523430","name":"Treuen, Stadt","type":"Stadt"},"district":{"key":"14523","name":"Vogtlandkreis","type":"Landkreis"},"federalState":{"key":"14","name":"Sachsen"}},{"name":"Zum Freibad","postalCode":"14929","locality":"Treuenbrietzen","municipality":{"key":"12069632","name":"Treuenbrietzen, Stadt","type":"Stadt"},"district":{"key":"12069","name":"Potsdam-Mittelmark","type":"Landkreis"},"federalState":{"key":"12","name":"Brandenburg"}},{"name":"Zum Sebaldushof","postalCode":"14929","locality":"Treuenbrietzen","municipality":{"key":"12069632","name":"Treuenbrietzen, Stadt","type":"Stadt"},"district":{"key":"12069","name":"Potsdam-Mittelmark","type":"Landkreis"},"federalState":{"key":"12","name":"Brandenburg"}},{"name":"Zum Sportplatz","postalCode":"08233","locality":"Treuen","municipality":{"key":"14523430","name":"Treuen, Stadt","type":"Stadt"},"district":{"key":"14523","name":"Vogtlandkreis","type":"Landkreis"},"federalState":{"key":"14","name":"Sachsen"}},{"name":"Zum Zarth","postalCode":"14929","locality":"Treuenbrietzen","municipality":{"key":"12069632","name":"Treuenbrietzen, Stadt","type":"Stadt"},"district":{"key":"12069","name":"Potsdam-Mittelmark","type":"Landkreis"},"federalState":{"key":"12","name":"Brandenburg"}},{"name":"Zur alten Försterei","postalCode":"14929","locality":"Treuenbrietzen","municipality":{"key":"12069632","name":"Treuenbrietzen, Stadt","type":"Stadt"},"district":{"key":"12069","name":"Potsdam-Mittelmark","type":"Landkreis"},"federalState":{"key":"12","name":"Brandenburg"}},{"name":"Zur Hermannsmühle","postalCode":"14929","locality":"Treuenbrietzen","municipality":{"key":"12069632","name":"Treuenbrietzen, Stadt","type":"Stadt"},"district":{"key":"12069","name":"Potsdam-Mittelmark","type":"Landkreis"},"federalState":{"key":"12","name":"Brandenburg"}},{"name":"Zur Tränke","postalCode":"14929","locality":"Treuenbrietzen","municipality":{"key":"12069632","name":"Treuenbrietzen, Stadt","type":"Stadt"},"district":{"key":"12069","name":"Potsdam-Mittelmark","type":"Landkreis"},"federalState":{"key":"12","name":"Brandenburg"}},]