[{"key":"12061005","name":"Alt Zauche-Wußwerk/Stara Niwa-Wózwjerch","type":"Kreisangehörige_Gemeinde","postalCode":"15913","multiplePostalCodes":false,"association":{"key":"12061","name":"Lieberose/Oberspreewald","type":"Amt"},"district":{"key":"12061","name":"Dahme-Spreewald","type":"Landkreis"},"federalState":{"key":"12","name":"Brandenburg"}},{"key":"12061017","name":"Bersteland","type":"Kreisangehörige_Gemeinde","postalCode":"15910","multiplePostalCodes":true,"association":{"key":"12061","name":"Unterspreewald","type":"Amt"},"district":{"key":"12061","name":"Dahme-Spreewald","type":"Landkreis"},"federalState":{"key":"12","name":"Brandenburg"}},{"key":"12061020","name":"Bestensee","type":"Kreisangehörige_Gemeinde","postalCode":"15741","multiplePostalCodes":false,"association":{"key":"12061","name":"Bestensee","type":"Verbandsfreie_Gemeinde"},"district":{"key":"12061","name":"Dahme-Spreewald","type":"Landkreis"},"federalState":{"key":"12","name":"Brandenburg"}},{"key":"12061061","name":"Byhleguhre-Byhlen/Beła Góra-Bělin","type":"Kreisangehörige_Gemeinde","postalCode":"15913","multiplePostalCodes":false,"association":{"key":"12061","name":"Lieberose/Oberspreewald","type":"Amt"},"district":{"key":"12061","name":"Dahme-Spreewald","type":"Landkreis"},"federalState":{"key":"12","name":"Brandenburg"}},{"key":"12061097","name":"Drahnsdorf","type":"Kreisangehörige_Gemeinde","postalCode":"15938","multiplePostalCodes":false,"association":{"key":"12061","name":"Unterspreewald","type":"Amt"},"district":{"key":"12061","name":"Dahme-Spreewald","type":"Landkreis"},"federalState":{"key":"12","name":"Brandenburg"}},{"key":"12061112","name":"Eichwalde","type":"Kreisangehörige_Gemeinde","postalCode":"15732","multiplePostalCodes":false,"association":{"key":"12061","name":"Eichwalde","type":"Verbandsfreie_Gemeinde"},"district":{"key":"12061","name":"Dahme-Spreewald","type":"Landkreis"},"federalState":{"key":"12","name":"Brandenburg"}},{"key":"12061164","name":"Golßen, Stadt","type":"Stadt","postalCode":"15938","multiplePostalCodes":false,"association":{"key":"12061","name":"Unterspreewald","type":"Amt"},"district":{"key":"12061","name":"Dahme-Spreewald","type":"Landkreis"},"federalState":{"key":"12","name":"Brandenburg"}},{"key":"12061192","name":"Groß Köris","type":"Kreisangehörige_Gemeinde","postalCode":"15746","multiplePostalCodes":true,"association":{"key":"12061","name":"Schenkenländchen","type":"Amt"},"district":{"key":"12061","name":"Dahme-Spreewald","type":"Landkreis"},"federalState":{"key":"12","name":"Brandenburg"}},{"key":"12061216","name":"Halbe","type":"Kreisangehörige_Gemeinde","postalCode":"15757","multiplePostalCodes":true,"association":{"key":"12061","name":"Schenkenländchen","type":"Amt"},"district":{"key":"12061","name":"Dahme-Spreewald","type":"Landkreis"},"federalState":{"key":"12","name":"Brandenburg"}},{"key":"12061217","name":"Heidesee","type":"Kreisangehörige_Gemeinde","postalCode":"15754","multiplePostalCodes":false,"association":{"key":"12061","name":"Heidesee","type":"Verbandsfreie_Gemeinde"},"district":{"key":"12061","name":"Dahme-Spreewald","type":"Landkreis"},"federalState":{"key":"12","name":"Brandenburg"}},{"key":"12061219","name":"Heideblick","type":"Kreisangehörige_Gemeinde","postalCode":"15926","multiplePostalCodes":false,"association":{"key":"12061","name":"Heideblick","type":"Verbandsfreie_Gemeinde"},"district":{"key":"12061","name":"Dahme-Spreewald","type":"Landkreis"},"federalState":{"key":"12","name":"Brandenburg"}},{"key":"12061224","name":"Jamlitz","type":"Kreisangehörige_Gemeinde","postalCode":"15868","multiplePostalCodes":true,"association":{"key":"12061","name":"Lieberose/Oberspreewald","type":"Amt"},"district":{"key":"12061","name":"Dahme-Spreewald","type":"Landkreis"},"federalState":{"key":"12","name":"Brandenburg"}},{"key":"12061244","name":"Kasel-Golzig","type":"Kreisangehörige_Gemeinde","postalCode":"15938","multiplePostalCodes":false,"association":{"key":"12061","name":"Unterspreewald","type":"Amt"},"district":{"key":"12061","name":"Dahme-Spreewald","type":"Landkreis"},"federalState":{"key":"12","name":"Brandenburg"}},{"key":"12061260","name":"Königs Wusterhausen, Stadt","type":"Stadt","postalCode":"15711","multiplePostalCodes":true,"association":{"key":"12061","name":"Königs Wusterhausen, Stadt","type":"Verbandsfreie_Gemeinde"},"district":{"key":"12061","name":"Dahme-Spreewald","type":"Landkreis"},"federalState":{"key":"12","name":"Brandenburg"}},{"key":"12061265","name":"Krausnick-Groß Wasserburg","type":"Kreisangehörige_Gemeinde","postalCode":"15910","multiplePostalCodes":true,"association":{"key":"12061","name":"Unterspreewald","type":"Amt"},"district":{"key":"12061","name":"Dahme-Spreewald","type":"Landkreis"},"federalState":{"key":"12","name":"Brandenburg"}},{"key":"12061308","name":"Lieberose, Stadt","type":"Stadt","postalCode":"15868","multiplePostalCodes":false,"association":{"key":"12061","name":"Lieberose/Oberspreewald","type":"Amt"},"district":{"key":"12061","name":"Dahme-Spreewald","type":"Landkreis"},"federalState":{"key":"12","name":"Brandenburg"}},{"key":"12061316","name":"Lübben (Spreewald) / Lubin (Błota), Stadt","type":"Stadt","postalCode":"15907","multiplePostalCodes":false,"association":{"key":"12061","name":"Lübben (Spreewald) / Lubin (Błota), Stadt","type":"Verbandsfreie_Gemeinde"},"district":{"key":"12061","name":"Dahme-Spreewald","type":"Landkreis"},"federalState":{"key":"12","name":"Brandenburg"}},{"key":"12061320","name":"Luckau, Stadt","type":"Stadt","postalCode":"15926","multiplePostalCodes":false,"association":{"key":"12061","name":"Luckau, Stadt","type":"Verbandsfreie_Gemeinde"},"district":{"key":"12061","name":"Dahme-Spreewald","type":"Landkreis"},"federalState":{"key":"12","name":"Brandenburg"}},{"key":"12061328","name":"Märkisch Buchholz, Stadt","type":"Stadt","postalCode":"15748","multiplePostalCodes":true,"association":{"key":"12061","name":"Schenkenländchen","type":"Amt"},"district":{"key":"12061","name":"Dahme-Spreewald","type":"Landkreis"},"federalState":{"key":"12","name":"Brandenburg"}},{"key":"12061329","name":"Märkische Heide/Markojska Góla","type":"Kreisangehörige_Gemeinde","postalCode":"15913","multiplePostalCodes":false,"association":{"key":"12061","name":"Märkische Heide/Markojska Góla","type":"Verbandsfreie_Gemeinde"},"district":{"key":"12061","name":"Dahme-Spreewald","type":"Landkreis"},"federalState":{"key":"12","name":"Brandenburg"}},{"key":"12061332","name":"Mittenwalde, Stadt","type":"Stadt","postalCode":"15749","multiplePostalCodes":false,"association":{"key":"12061","name":"Mittenwalde, Stadt","type":"Verbandsfreie_Gemeinde"},"district":{"key":"12061","name":"Dahme-Spreewald","type":"Landkreis"},"federalState":{"key":"12","name":"Brandenburg"}},{"key":"12061344","name":"Münchehofe","type":"Kreisangehörige_Gemeinde","postalCode":"15748","multiplePostalCodes":true,"association":{"key":"12061","name":"Schenkenländchen","type":"Amt"},"district":{"key":"12061","name":"Dahme-Spreewald","type":"Landkreis"},"federalState":{"key":"12","name":"Brandenburg"}},{"key":"12061352","name":"Neu Zauche/Nowa Niwa","type":"Kreisangehörige_Gemeinde","postalCode":"15913","multiplePostalCodes":false,"association":{"key":"12061","name":"Lieberose/Oberspreewald","type":"Amt"},"district":{"key":"12061","name":"Dahme-Spreewald","type":"Landkreis"},"federalState":{"key":"12","name":"Brandenburg"}},{"key":"12061405","name":"Rietzneuendorf-Staakow","type":"Kreisangehörige_Gemeinde","postalCode":"15910","multiplePostalCodes":true,"association":{"key":"12061","name":"Unterspreewald","type":"Amt"},"district":{"key":"12061","name":"Dahme-Spreewald","type":"Landkreis"},"federalState":{"key":"12","name":"Brandenburg"}},{"key":"12061428","name":"Schlepzig/Słopišća","type":"Kreisangehörige_Gemeinde","postalCode":"15910","multiplePostalCodes":false,"association":{"key":"12061","name":"Unterspreewald","type":"Amt"},"district":{"key":"12061","name":"Dahme-Spreewald","type":"Landkreis"},"federalState":{"key":"12","name":"Brandenburg"}},{"key":"12061433","name":"Schönefeld","type":"Kreisangehörige_Gemeinde","postalCode":"12529","multiplePostalCodes":false,"association":{"key":"12061","name":"Schönefeld","type":"Verbandsfreie_Gemeinde"},"district":{"key":"12061","name":"Dahme-Spreewald","type":"Landkreis"},"federalState":{"key":"12","name":"Brandenburg"}},{"key":"12061435","name":"Schönwald","type":"Kreisangehörige_Gemeinde","postalCode":"15910","multiplePostalCodes":true,"association":{"key":"12061","name":"Unterspreewald","type":"Amt"},"district":{"key":"12061","name":"Dahme-Spreewald","type":"Landkreis"},"federalState":{"key":"12","name":"Brandenburg"}},{"key":"12061444","name":"Schulzendorf","type":"Kreisangehörige_Gemeinde","postalCode":"15732","multiplePostalCodes":false,"association":{"key":"12061","name":"Schulzendorf","type":"Verbandsfreie_Gemeinde"},"district":{"key":"12061","name":"Dahme-Spreewald","type":"Landkreis"},"federalState":{"key":"12","name":"Brandenburg"}},{"key":"12061448","name":"Schwerin","type":"Kreisangehörige_Gemeinde","postalCode":"15755","multiplePostalCodes":false,"association":{"key":"12061","name":"Schenkenländchen","type":"Amt"},"district":{"key":"12061","name":"Dahme-Spreewald","type":"Landkreis"},"federalState":{"key":"12","name":"Brandenburg"}},{"key":"12061450","name":"Schwielochsee/Gójacki Jazor","type":"Kreisangehörige_Gemeinde","postalCode":"15913","multiplePostalCodes":false,"association":{"key":"12061","name":"Lieberose/Oberspreewald","type":"Amt"},"district":{"key":"12061","name":"Dahme-Spreewald","type":"Landkreis"},"federalState":{"key":"12","name":"Brandenburg"}},{"key":"12061470","name":"Spreewaldheide/Błośańska Góla","type":"Kreisangehörige_Gemeinde","postalCode":"15913","multiplePostalCodes":false,"association":{"key":"12061","name":"Lieberose/Oberspreewald","type":"Amt"},"district":{"key":"12061","name":"Dahme-Spreewald","type":"Landkreis"},"federalState":{"key":"12","name":"Brandenburg"}},{"key":"12061471","name":"Steinreich","type":"Kreisangehörige_Gemeinde","postalCode":"15938","multiplePostalCodes":false,"association":{"key":"12061","name":"Unterspreewald","type":"Amt"},"district":{"key":"12061","name":"Dahme-Spreewald","type":"Landkreis"},"federalState":{"key":"12","name":"Brandenburg"}},{"key":"12061476","name":"Straupitz (Spreewald)/Tšupc (Błota)","type":"Kreisangehörige_Gemeinde","postalCode":"15913","multiplePostalCodes":false,"association":{"key":"12061","name":"Lieberose/Oberspreewald","type":"Amt"},"district":{"key":"12061","name":"Dahme-Spreewald","type":"Landkreis"},"federalState":{"key":"12","name":"Brandenburg"}},{"key":"12061492","name":"Teupitz, Stadt","type":"Stadt","postalCode":"15755","multiplePostalCodes":false,"association":{"key":"12061","name":"Schenkenländchen","type":"Amt"},"district":{"key":"12061","name":"Dahme-Spreewald","type":"Landkreis"},"federalState":{"key":"12","name":"Brandenburg"}},{"key":"12061510","name":"Unterspreewald","type":"Kreisangehörige_Gemeinde","postalCode":"15910","multiplePostalCodes":true,"association":{"key":"12061","name":"Unterspreewald","type":"Amt"},"district":{"key":"12061","name":"Dahme-Spreewald","type":"Landkreis"},"federalState":{"key":"12","name":"Brandenburg"}},{"key":"12061540","name":"Wildau, Stadt","type":"Stadt","postalCode":"15745","multiplePostalCodes":false,"association":{"key":"12061","name":"Wildau, Stadt","type":"Verbandsfreie_Gemeinde"},"district":{"key":"12061","name":"Dahme-Spreewald","type":"Landkreis"},"federalState":{"key":"12","name":"Brandenburg"}},{"key":"12061572","name":"Zeuthen","type":"Kreisangehörige_Gemeinde","postalCode":"15738","multiplePostalCodes":false,"association":{"key":"12061","name":"Zeuthen","type":"Verbandsfreie_Gemeinde"},"district":{"key":"12061","name":"Dahme-Spreewald","type":"Landkreis"},"federalState":{"key":"12","name":"Brandenburg"}}]