[{"name":"Am Bahnhof","postalCode":"15299","locality":"Grunow-Dammendorf","municipality":{"key":"12067205","name":"Grunow-Dammendorf","type":"Kreisangehörige_Gemeinde"},"district":{"key":"12067","name":"Oder-Spree","type":"Landkreis"},"federalState":{"key":"12","name":"Brandenburg"}},{"name":"Am Oberende","postalCode":"15299","locality":"Grunow-Dammendorf","municipality":{"key":"12067205","name":"Grunow-Dammendorf","type":"Kreisangehörige_Gemeinde"},"district":{"key":"12067","name":"Oder-Spree","type":"Landkreis"},"federalState":{"key":"12","name":"Brandenburg"}},{"name":"An der Eiche","postalCode":"15299","locality":"Grunow-Dammendorf","municipality":{"key":"12067205","name":"Grunow-Dammendorf","type":"Kreisangehörige_Gemeinde"},"district":{"key":"12067","name":"Oder-Spree","type":"Landkreis"},"federalState":{"key":"12","name":"Brandenburg"}},{"name":"Bahnhofstr.","postalCode":"15299","locality":"Grunow-Dammendorf","municipality":{"key":"12067205","name":"Grunow-Dammendorf","type":"Kreisangehörige_Gemeinde"},"district":{"key":"12067","name":"Oder-Spree","type":"Landkreis"},"federalState":{"key":"12","name":"Brandenburg"}},{"name":"Beeskower Str.","postalCode":"15299","locality":"Grunow-Dammendorf","municipality":{"key":"12067205","name":"Grunow-Dammendorf","type":"Kreisangehörige_Gemeinde"},"district":{"key":"12067","name":"Oder-Spree","type":"Landkreis"},"federalState":{"key":"12","name":"Brandenburg"}},{"name":"Blockweg","postalCode":"15299","locality":"Grunow-Dammendorf","municipality":{"key":"12067205","name":"Grunow-Dammendorf","type":"Kreisangehörige_Gemeinde"},"district":{"key":"12067","name":"Oder-Spree","type":"Landkreis"},"federalState":{"key":"12","name":"Brandenburg"}},{"name":"Bungalowsiedlung Nordufer","postalCode":"15299","locality":"Grunow-Dammendorf","municipality":{"key":"12067205","name":"Grunow-Dammendorf","type":"Kreisangehörige_Gemeinde"},"district":{"key":"12067","name":"Oder-Spree","type":"Landkreis"},"federalState":{"key":"12","name":"Brandenburg"}},{"name":"Bungalowsiedlung Ostufer","postalCode":"15299","locality":"Grunow-Dammendorf","municipality":{"key":"12067205","name":"Grunow-Dammendorf","type":"Kreisangehörige_Gemeinde"},"district":{"key":"12067","name":"Oder-Spree","type":"Landkreis"},"federalState":{"key":"12","name":"Brandenburg"}},{"name":"Dorfstr.","postalCode":"15299","locality":"Grunow-Dammendorf","municipality":{"key":"12067205","name":"Grunow-Dammendorf","type":"Kreisangehörige_Gemeinde"},"district":{"key":"12067","name":"Oder-Spree","type":"Landkreis"},"federalState":{"key":"12","name":"Brandenburg"}},{"name":"Fließweg","postalCode":"15299","locality":"Grunow-Dammendorf","municipality":{"key":"12067205","name":"Grunow-Dammendorf","type":"Kreisangehörige_Gemeinde"},"district":{"key":"12067","name":"Oder-Spree","type":"Landkreis"},"federalState":{"key":"12","name":"Brandenburg"}},{"name":"Försterei Jacobsee","postalCode":"15299","locality":"Grunow-Dammendorf","municipality":{"key":"12067205","name":"Grunow-Dammendorf","type":"Kreisangehörige_Gemeinde"},"district":{"key":"12067","name":"Oder-Spree","type":"Landkreis"},"federalState":{"key":"12","name":"Brandenburg"}},{"name":"Förstereiweg","postalCode":"15299","locality":"Grunow-Dammendorf","municipality":{"key":"12067205","name":"Grunow-Dammendorf","type":"Kreisangehörige_Gemeinde"},"district":{"key":"12067","name":"Oder-Spree","type":"Landkreis"},"federalState":{"key":"12","name":"Brandenburg"}},{"name":"Försterei Wirchensee","postalCode":"15299","locality":"Grunow-Dammendorf","municipality":{"key":"12067205","name":"Grunow-Dammendorf","type":"Kreisangehörige_Gemeinde"},"district":{"key":"12067","name":"Oder-Spree","type":"Landkreis"},"federalState":{"key":"12","name":"Brandenburg"}},{"name":"Gubener Weg","postalCode":"15299","locality":"Grunow-Dammendorf","municipality":{"key":"12067205","name":"Grunow-Dammendorf","type":"Kreisangehörige_Gemeinde"},"district":{"key":"12067","name":"Oder-Spree","type":"Landkreis"},"federalState":{"key":"12","name":"Brandenburg"}},{"name":"Hauptstr.","postalCode":"15299","locality":"Grunow-Dammendorf","municipality":{"key":"12067205","name":"Grunow-Dammendorf","type":"Kreisangehörige_Gemeinde"},"district":{"key":"12067","name":"Oder-Spree","type":"Landkreis"},"federalState":{"key":"12","name":"Brandenburg"}},{"name":"Heuweg","postalCode":"15299","locality":"Grunow-Dammendorf","municipality":{"key":"12067205","name":"Grunow-Dammendorf","type":"Kreisangehörige_Gemeinde"},"district":{"key":"12067","name":"Oder-Spree","type":"Landkreis"},"federalState":{"key":"12","name":"Brandenburg"}},{"name":"Kieselwitzer Mühle","postalCode":"15299","locality":"Grunow-Dammendorf","municipality":{"key":"12067205","name":"Grunow-Dammendorf","type":"Kreisangehörige_Gemeinde"},"district":{"key":"12067","name":"Oder-Spree","type":"Landkreis"},"federalState":{"key":"12","name":"Brandenburg"}},{"name":"Kleiner Weg","postalCode":"15299","locality":"Grunow-Dammendorf","municipality":{"key":"12067205","name":"Grunow-Dammendorf","type":"Kreisangehörige_Gemeinde"},"district":{"key":"12067","name":"Oder-Spree","type":"Landkreis"},"federalState":{"key":"12","name":"Brandenburg"}},{"name":"Kupferhammerweg","postalCode":"15299","locality":"Grunow-Dammendorf","municipality":{"key":"12067205","name":"Grunow-Dammendorf","type":"Kreisangehörige_Gemeinde"},"district":{"key":"12067","name":"Oder-Spree","type":"Landkreis"},"federalState":{"key":"12","name":"Brandenburg"}},{"name":"Landstr.","postalCode":"15299","locality":"Grunow-Dammendorf","municipality":{"key":"12067205","name":"Grunow-Dammendorf","type":"Kreisangehörige_Gemeinde"},"district":{"key":"12067","name":"Oder-Spree","type":"Landkreis"},"federalState":{"key":"12","name":"Brandenburg"}},{"name":"Lindenstr.","postalCode":"15299","locality":"Grunow-Dammendorf","municipality":{"key":"12067205","name":"Grunow-Dammendorf","type":"Kreisangehörige_Gemeinde"},"district":{"key":"12067","name":"Oder-Spree","type":"Landkreis"},"federalState":{"key":"12","name":"Brandenburg"}},{"name":"Mahlweg","postalCode":"15299","locality":"Grunow-Dammendorf","municipality":{"key":"12067205","name":"Grunow-Dammendorf","type":"Kreisangehörige_Gemeinde"},"district":{"key":"12067","name":"Oder-Spree","type":"Landkreis"},"federalState":{"key":"12","name":"Brandenburg"}},{"name":"Mixdorfer Landstr.","postalCode":"15299","locality":"Grunow-Dammendorf","municipality":{"key":"12067205","name":"Grunow-Dammendorf","type":"Kreisangehörige_Gemeinde"},"district":{"key":"12067","name":"Oder-Spree","type":"Landkreis"},"federalState":{"key":"12","name":"Brandenburg"}},{"name":"Mühlenweg","postalCode":"15299","locality":"Grunow-Dammendorf","municipality":{"key":"12067205","name":"Grunow-Dammendorf","type":"Kreisangehörige_Gemeinde"},"district":{"key":"12067","name":"Oder-Spree","type":"Landkreis"},"federalState":{"key":"12","name":"Brandenburg"}},{"name":"Oelsener Landstr.","postalCode":"15299","locality":"Grunow-Dammendorf","municipality":{"key":"12067205","name":"Grunow-Dammendorf","type":"Kreisangehörige_Gemeinde"},"district":{"key":"12067","name":"Oder-Spree","type":"Landkreis"},"federalState":{"key":"12","name":"Brandenburg"}},{"name":"Postbotengestell","postalCode":"15299","locality":"Grunow-Dammendorf","municipality":{"key":"12067205","name":"Grunow-Dammendorf","type":"Kreisangehörige_Gemeinde"},"district":{"key":"12067","name":"Oder-Spree","type":"Landkreis"},"federalState":{"key":"12","name":"Brandenburg"}},{"name":"Postbotensteig","postalCode":"15299","locality":"Grunow-Dammendorf","municipality":{"key":"12067205","name":"Grunow-Dammendorf","type":"Kreisangehörige_Gemeinde"},"district":{"key":"12067","name":"Oder-Spree","type":"Landkreis"},"federalState":{"key":"12","name":"Brandenburg"}},{"name":"Querweg","postalCode":"15299","locality":"Grunow-Dammendorf","municipality":{"key":"12067205","name":"Grunow-Dammendorf","type":"Kreisangehörige_Gemeinde"},"district":{"key":"12067","name":"Oder-Spree","type":"Landkreis"},"federalState":{"key":"12","name":"Brandenburg"}},{"name":"Seeweg","postalCode":"15299","locality":"Grunow-Dammendorf","municipality":{"key":"12067205","name":"Grunow-Dammendorf","type":"Kreisangehörige_Gemeinde"},"district":{"key":"12067","name":"Oder-Spree","type":"Landkreis"},"federalState":{"key":"12","name":"Brandenburg"}},{"name":"Siedlerweg","postalCode":"15299","locality":"Grunow-Dammendorf","municipality":{"key":"12067205","name":"Grunow-Dammendorf","type":"Kreisangehörige_Gemeinde"},"district":{"key":"12067","name":"Oder-Spree","type":"Landkreis"},"federalState":{"key":"12","name":"Brandenburg"}},{"name":"Totenweg","postalCode":"15299","locality":"Grunow-Dammendorf","municipality":{"key":"12067205","name":"Grunow-Dammendorf","type":"Kreisangehörige_Gemeinde"},"district":{"key":"12067","name":"Oder-Spree","type":"Landkreis"},"federalState":{"key":"12","name":"Brandenburg"}},{"name":"Triftweg","postalCode":"15299","locality":"Grunow-Dammendorf","municipality":{"key":"12067205","name":"Grunow-Dammendorf","type":"Kreisangehörige_Gemeinde"},"district":{"key":"12067","name":"Oder-Spree","type":"Landkreis"},"federalState":{"key":"12","name":"Brandenburg"}},{"name":"Waldlehrpfad","postalCode":"15299","locality":"Grunow-Dammendorf","municipality":{"key":"12067205","name":"Grunow-Dammendorf","type":"Kreisangehörige_Gemeinde"},"district":{"key":"12067","name":"Oder-Spree","type":"Landkreis"},"federalState":{"key":"12","name":"Brandenburg"}},{"name":"Walkemühle","postalCode":"15299","locality":"Grunow-Dammendorf","municipality":{"key":"12067205","name":"Grunow-Dammendorf","type":"Kreisangehörige_Gemeinde"},"district":{"key":"12067","name":"Oder-Spree","type":"Landkreis"},"federalState":{"key":"12","name":"Brandenburg"}},{"name":"Weidenweg","postalCode":"15299","locality":"Grunow-Dammendorf","municipality":{"key":"12067205","name":"Grunow-Dammendorf","type":"Kreisangehörige_Gemeinde"},"district":{"key":"12067","name":"Oder-Spree","type":"Landkreis"},"federalState":{"key":"12","name":"Brandenburg"}},{"name":"Zum Seeblick","postalCode":"15299","locality":"Grunow-Dammendorf","municipality":{"key":"12067205","name":"Grunow-Dammendorf","type":"Kreisangehörige_Gemeinde"},"district":{"key":"12067","name":"Oder-Spree","type":"Landkreis"},"federalState":{"key":"12","name":"Brandenburg"}},]