[{"name":"Adolf-Kolping-Weg","postalCode":"97999","locality":"Igersheim","municipality":{"key":"08128058","name":"Igersheim","type":"Kreisangehörige_Gemeinde"},"district":{"key":"08128","name":"Main-Tauber-Kreis","type":"Landkreis"},"federalState":{"key":"08","name":"Baden-Württemberg"}},{"name":"Altenbergring","postalCode":"97999","locality":"Igersheim","municipality":{"key":"08128058","name":"Igersheim","type":"Kreisangehörige_Gemeinde"},"district":{"key":"08128","name":"Main-Tauber-Kreis","type":"Landkreis"},"federalState":{"key":"08","name":"Baden-Württemberg"}},{"name":"Altenbergweg","postalCode":"97999","locality":"Igersheim","municipality":{"key":"08128058","name":"Igersheim","type":"Kreisangehörige_Gemeinde"},"district":{"key":"08128","name":"Main-Tauber-Kreis","type":"Landkreis"},"federalState":{"key":"08","name":"Baden-Württemberg"}},{"name":"Alter Graben","postalCode":"97999","locality":"Igersheim","municipality":{"key":"08128058","name":"Igersheim","type":"Kreisangehörige_Gemeinde"},"district":{"key":"08128","name":"Main-Tauber-Kreis","type":"Landkreis"},"federalState":{"key":"08","name":"Baden-Württemberg"}},{"name":"Alte Ziegelei","postalCode":"97999","locality":"Igersheim","municipality":{"key":"08128058","name":"Igersheim","type":"Kreisangehörige_Gemeinde"},"district":{"key":"08128","name":"Main-Tauber-Kreis","type":"Landkreis"},"federalState":{"key":"08","name":"Baden-Württemberg"}},{"name":"Am Hohenrain","postalCode":"97999","locality":"Igersheim","municipality":{"key":"08128058","name":"Igersheim","type":"Kreisangehörige_Gemeinde"},"district":{"key":"08128","name":"Main-Tauber-Kreis","type":"Landkreis"},"federalState":{"key":"08","name":"Baden-Württemberg"}},{"name":"Am Lindach","postalCode":"97999","locality":"Igersheim","municipality":{"key":"08128058","name":"Igersheim","type":"Kreisangehörige_Gemeinde"},"district":{"key":"08128","name":"Main-Tauber-Kreis","type":"Landkreis"},"federalState":{"key":"08","name":"Baden-Württemberg"}},{"name":"Am Seedamm","postalCode":"97999","locality":"Igersheim","municipality":{"key":"08128058","name":"Igersheim","type":"Kreisangehörige_Gemeinde"},"district":{"key":"08128","name":"Main-Tauber-Kreis","type":"Landkreis"},"federalState":{"key":"08","name":"Baden-Württemberg"}},{"name":"Am Weinberg","postalCode":"97999","locality":"Igersheim","municipality":{"key":"08128058","name":"Igersheim","type":"Kreisangehörige_Gemeinde"},"district":{"key":"08128","name":"Main-Tauber-Kreis","type":"Landkreis"},"federalState":{"key":"08","name":"Baden-Württemberg"}},{"name":"An der Klinge","postalCode":"97999","locality":"Igersheim","municipality":{"key":"08128058","name":"Igersheim","type":"Kreisangehörige_Gemeinde"},"district":{"key":"08128","name":"Main-Tauber-Kreis","type":"Landkreis"},"federalState":{"key":"08","name":"Baden-Württemberg"}},{"name":"Bachgasse","postalCode":"97999","locality":"Igersheim","municipality":{"key":"08128058","name":"Igersheim","type":"Kreisangehörige_Gemeinde"},"district":{"key":"08128","name":"Main-Tauber-Kreis","type":"Landkreis"},"federalState":{"key":"08","name":"Baden-Württemberg"}},{"name":"Bachsträßchen","postalCode":"97999","locality":"Igersheim","municipality":{"key":"08128058","name":"Igersheim","type":"Kreisangehörige_Gemeinde"},"district":{"key":"08128","name":"Main-Tauber-Kreis","type":"Landkreis"},"federalState":{"key":"08","name":"Baden-Württemberg"}},{"name":"Bad Mergentheimer Str.","postalCode":"97999","locality":"Igersheim","municipality":{"key":"08128058","name":"Igersheim","type":"Kreisangehörige_Gemeinde"},"district":{"key":"08128","name":"Main-Tauber-Kreis","type":"Landkreis"},"federalState":{"key":"08","name":"Baden-Württemberg"}},{"name":"Bahnhofstr.","postalCode":"97999","locality":"Igersheim","municipality":{"key":"08128058","name":"Igersheim","type":"Kreisangehörige_Gemeinde"},"district":{"key":"08128","name":"Main-Tauber-Kreis","type":"Landkreis"},"federalState":{"key":"08","name":"Baden-Württemberg"}},{"name":"Bauernwiesenweg","postalCode":"97999","locality":"Igersheim","municipality":{"key":"08128058","name":"Igersheim","type":"Kreisangehörige_Gemeinde"},"district":{"key":"08128","name":"Main-Tauber-Kreis","type":"Landkreis"},"federalState":{"key":"08","name":"Baden-Württemberg"}},{"name":"Baumgartenstr.","postalCode":"97999","locality":"Igersheim","municipality":{"key":"08128058","name":"Igersheim","type":"Kreisangehörige_Gemeinde"},"district":{"key":"08128","name":"Main-Tauber-Kreis","type":"Landkreis"},"federalState":{"key":"08","name":"Baden-Württemberg"}},{"name":"Beethovenstr.","postalCode":"97999","locality":"Igersheim","municipality":{"key":"08128058","name":"Igersheim","type":"Kreisangehörige_Gemeinde"},"district":{"key":"08128","name":"Main-Tauber-Kreis","type":"Landkreis"},"federalState":{"key":"08","name":"Baden-Württemberg"}},{"name":"Bergstr.","postalCode":"97999","locality":"Igersheim","municipality":{"key":"08128058","name":"Igersheim","type":"Kreisangehörige_Gemeinde"},"district":{"key":"08128","name":"Main-Tauber-Kreis","type":"Landkreis"},"federalState":{"key":"08","name":"Baden-Württemberg"}},{"name":"Bernsfelder Str.","postalCode":"97999","locality":"Igersheim","municipality":{"key":"08128058","name":"Igersheim","type":"Kreisangehörige_Gemeinde"},"district":{"key":"08128","name":"Main-Tauber-Kreis","type":"Landkreis"},"federalState":{"key":"08","name":"Baden-Württemberg"}},{"name":"Biegelweg","postalCode":"97999","locality":"Igersheim","municipality":{"key":"08128058","name":"Igersheim","type":"Kreisangehörige_Gemeinde"},"district":{"key":"08128","name":"Main-Tauber-Kreis","type":"Landkreis"},"federalState":{"key":"08","name":"Baden-Württemberg"}},{"name":"Bildstockweg","postalCode":"97999","locality":"Igersheim","municipality":{"key":"08128058","name":"Igersheim","type":"Kreisangehörige_Gemeinde"},"district":{"key":"08128","name":"Main-Tauber-Kreis","type":"Landkreis"},"federalState":{"key":"08","name":"Baden-Württemberg"}},{"name":"Birkenweg","postalCode":"97999","locality":"Igersheim","municipality":{"key":"08128058","name":"Igersheim","type":"Kreisangehörige_Gemeinde"},"district":{"key":"08128","name":"Main-Tauber-Kreis","type":"Landkreis"},"federalState":{"key":"08","name":"Baden-Württemberg"}},{"name":"Bismarckstr.","postalCode":"97999","locality":"Igersheim","municipality":{"key":"08128058","name":"Igersheim","type":"Kreisangehörige_Gemeinde"},"district":{"key":"08128","name":"Main-Tauber-Kreis","type":"Landkreis"},"federalState":{"key":"08","name":"Baden-Württemberg"}},{"name":"Bittumstr.","postalCode":"97999","locality":"Igersheim","municipality":{"key":"08128058","name":"Igersheim","type":"Kreisangehörige_Gemeinde"},"district":{"key":"08128","name":"Main-Tauber-Kreis","type":"Landkreis"},"federalState":{"key":"08","name":"Baden-Württemberg"}},{"name":"Bodenweg","postalCode":"97999","locality":"Igersheim","municipality":{"key":"08128058","name":"Igersheim","type":"Kreisangehörige_Gemeinde"},"district":{"key":"08128","name":"Main-Tauber-Kreis","type":"Landkreis"},"federalState":{"key":"08","name":"Baden-Württemberg"}},{"name":"Böhmerwaldstr.","postalCode":"97999","locality":"Igersheim","municipality":{"key":"08128058","name":"Igersheim","type":"Kreisangehörige_Gemeinde"},"district":{"key":"08128","name":"Main-Tauber-Kreis","type":"Landkreis"},"federalState":{"key":"08","name":"Baden-Württemberg"}},{"name":"Brahmsstr.","postalCode":"97999","locality":"Igersheim","municipality":{"key":"08128058","name":"Igersheim","type":"Kreisangehörige_Gemeinde"},"district":{"key":"08128","name":"Main-Tauber-Kreis","type":"Landkreis"},"federalState":{"key":"08","name":"Baden-Württemberg"}},{"name":"Breite-Egert-Str.","postalCode":"97999","locality":"Igersheim","municipality":{"key":"08128058","name":"Igersheim","type":"Kreisangehörige_Gemeinde"},"district":{"key":"08128","name":"Main-Tauber-Kreis","type":"Landkreis"},"federalState":{"key":"08","name":"Baden-Württemberg"}},{"name":"Breiter Weg","postalCode":"97999","locality":"Igersheim","municipality":{"key":"08128058","name":"Igersheim","type":"Kreisangehörige_Gemeinde"},"district":{"key":"08128","name":"Main-Tauber-Kreis","type":"Landkreis"},"federalState":{"key":"08","name":"Baden-Württemberg"}},{"name":"Brucknerstr.","postalCode":"97999","locality":"Igersheim","municipality":{"key":"08128058","name":"Igersheim","type":"Kreisangehörige_Gemeinde"},"district":{"key":"08128","name":"Main-Tauber-Kreis","type":"Landkreis"},"federalState":{"key":"08","name":"Baden-Württemberg"}},{"name":"Brunnengasse","postalCode":"97999","locality":"Igersheim","municipality":{"key":"08128058","name":"Igersheim","type":"Kreisangehörige_Gemeinde"},"district":{"key":"08128","name":"Main-Tauber-Kreis","type":"Landkreis"},"federalState":{"key":"08","name":"Baden-Württemberg"}},{"name":"Burgstr.","postalCode":"97999","locality":"Igersheim","municipality":{"key":"08128058","name":"Igersheim","type":"Kreisangehörige_Gemeinde"},"district":{"key":"08128","name":"Main-Tauber-Kreis","type":"Landkreis"},"federalState":{"key":"08","name":"Baden-Württemberg"}},{"name":"Cronbergstr.","postalCode":"97999","locality":"Igersheim","municipality":{"key":"08128058","name":"Igersheim","type":"Kreisangehörige_Gemeinde"},"district":{"key":"08128","name":"Main-Tauber-Kreis","type":"Landkreis"},"federalState":{"key":"08","name":"Baden-Württemberg"}},{"name":"Dachsbauweg","postalCode":"97999","locality":"Igersheim","municipality":{"key":"08128058","name":"Igersheim","type":"Kreisangehörige_Gemeinde"},"district":{"key":"08128","name":"Main-Tauber-Kreis","type":"Landkreis"},"federalState":{"key":"08","name":"Baden-Württemberg"}},{"name":"Deutschordenstr.","postalCode":"97999","locality":"Igersheim","municipality":{"key":"08128058","name":"Igersheim","type":"Kreisangehörige_Gemeinde"},"district":{"key":"08128","name":"Main-Tauber-Kreis","type":"Landkreis"},"federalState":{"key":"08","name":"Baden-Württemberg"}},{"name":"Eichwaldstr.","postalCode":"97999","locality":"Igersheim","municipality":{"key":"08128058","name":"Igersheim","type":"Kreisangehörige_Gemeinde"},"district":{"key":"08128","name":"Main-Tauber-Kreis","type":"Landkreis"},"federalState":{"key":"08","name":"Baden-Württemberg"}},{"name":"Entengasse","postalCode":"97999","locality":"Igersheim","municipality":{"key":"08128058","name":"Igersheim","type":"Kreisangehörige_Gemeinde"},"district":{"key":"08128","name":"Main-Tauber-Kreis","type":"Landkreis"},"federalState":{"key":"08","name":"Baden-Württemberg"}},{"name":"Erlenbachtalstr.","postalCode":"97999","locality":"Igersheim","municipality":{"key":"08128058","name":"Igersheim","type":"Kreisangehörige_Gemeinde"},"district":{"key":"08128","name":"Main-Tauber-Kreis","type":"Landkreis"},"federalState":{"key":"08","name":"Baden-Württemberg"}},{"name":"Erlenbachtalweg","postalCode":"97999","locality":"Igersheim","municipality":{"key":"08128058","name":"Igersheim","type":"Kreisangehörige_Gemeinde"},"district":{"key":"08128","name":"Main-Tauber-Kreis","type":"Landkreis"},"federalState":{"key":"08","name":"Baden-Württemberg"}},{"name":"Finkenstr.","postalCode":"97999","locality":"Igersheim","municipality":{"key":"08128058","name":"Igersheim","type":"Kreisangehörige_Gemeinde"},"district":{"key":"08128","name":"Main-Tauber-Kreis","type":"Landkreis"},"federalState":{"key":"08","name":"Baden-Württemberg"}},{"name":"Frankenstr.","postalCode":"97999","locality":"Igersheim","municipality":{"key":"08128058","name":"Igersheim","type":"Kreisangehörige_Gemeinde"},"district":{"key":"08128","name":"Main-Tauber-Kreis","type":"Landkreis"},"federalState":{"key":"08","name":"Baden-Württemberg"}},{"name":"Friedhofsweg","postalCode":"97999","locality":"Igersheim","municipality":{"key":"08128058","name":"Igersheim","type":"Kreisangehörige_Gemeinde"},"district":{"key":"08128","name":"Main-Tauber-Kreis","type":"Landkreis"},"federalState":{"key":"08","name":"Baden-Württemberg"}},{"name":"Friedrich-Ebert-Str.","postalCode":"97999","locality":"Igersheim","municipality":{"key":"08128058","name":"Igersheim","type":"Kreisangehörige_Gemeinde"},"district":{"key":"08128","name":"Main-Tauber-Kreis","type":"Landkreis"},"federalState":{"key":"08","name":"Baden-Württemberg"}},{"name":"Frühlingstr.","postalCode":"97999","locality":"Igersheim","municipality":{"key":"08128058","name":"Igersheim","type":"Kreisangehörige_Gemeinde"},"district":{"key":"08128","name":"Main-Tauber-Kreis","type":"Landkreis"},"federalState":{"key":"08","name":"Baden-Württemberg"}},{"name":"Galgenbergstr.","postalCode":"97999","locality":"Igersheim","municipality":{"key":"08128058","name":"Igersheim","type":"Kreisangehörige_Gemeinde"},"district":{"key":"08128","name":"Main-Tauber-Kreis","type":"Landkreis"},"federalState":{"key":"08","name":"Baden-Württemberg"}},{"name":"Gartenweg","postalCode":"97999","locality":"Igersheim","municipality":{"key":"08128058","name":"Igersheim","type":"Kreisangehörige_Gemeinde"},"district":{"key":"08128","name":"Main-Tauber-Kreis","type":"Landkreis"},"federalState":{"key":"08","name":"Baden-Württemberg"}},{"name":"Goldbachstr.","postalCode":"97999","locality":"Igersheim","municipality":{"key":"08128058","name":"Igersheim","type":"Kreisangehörige_Gemeinde"},"district":{"key":"08128","name":"Main-Tauber-Kreis","type":"Landkreis"},"federalState":{"key":"08","name":"Baden-Württemberg"}},{"name":"Gumpenweg","postalCode":"97999","locality":"Igersheim","municipality":{"key":"08128058","name":"Igersheim","type":"Kreisangehörige_Gemeinde"},"district":{"key":"08128","name":"Main-Tauber-Kreis","type":"Landkreis"},"federalState":{"key":"08","name":"Baden-Württemberg"}},{"name":"Händelstr.","postalCode":"97999","locality":"Igersheim","municipality":{"key":"08128058","name":"Igersheim","type":"Kreisangehörige_Gemeinde"},"district":{"key":"08128","name":"Main-Tauber-Kreis","type":"Landkreis"},"federalState":{"key":"08","name":"Baden-Württemberg"}},{"name":"Hangweg","postalCode":"97999","locality":"Igersheim","municipality":{"key":"08128058","name":"Igersheim","type":"Kreisangehörige_Gemeinde"},"district":{"key":"08128","name":"Main-Tauber-Kreis","type":"Landkreis"},"federalState":{"key":"08","name":"Baden-Württemberg"}},{"name":"Harthäuser Str.","postalCode":"97999","locality":"Igersheim","municipality":{"key":"08128058","name":"Igersheim","type":"Kreisangehörige_Gemeinde"},"district":{"key":"08128","name":"Main-Tauber-Kreis","type":"Landkreis"},"federalState":{"key":"08","name":"Baden-Württemberg"}},{"name":"Hasenpfad","postalCode":"97999","locality":"Igersheim","municipality":{"key":"08128058","name":"Igersheim","type":"Kreisangehörige_Gemeinde"},"district":{"key":"08128","name":"Main-Tauber-Kreis","type":"Landkreis"},"federalState":{"key":"08","name":"Baden-Württemberg"}},{"name":"Hauptstr.","postalCode":"97999","locality":"Igersheim","municipality":{"key":"08128058","name":"Igersheim","type":"Kreisangehörige_Gemeinde"},"district":{"key":"08128","name":"Main-Tauber-Kreis","type":"Landkreis"},"federalState":{"key":"08","name":"Baden-Württemberg"}},{"name":"Haydnstr.","postalCode":"97999","locality":"Igersheim","municipality":{"key":"08128058","name":"Igersheim","type":"Kreisangehörige_Gemeinde"},"district":{"key":"08128","name":"Main-Tauber-Kreis","type":"Landkreis"},"federalState":{"key":"08","name":"Baden-Württemberg"}},{"name":"Hermann-von-Mittnacht-Str.","postalCode":"97999","locality":"Igersheim","municipality":{"key":"08128058","name":"Igersheim","type":"Kreisangehörige_Gemeinde"},"district":{"key":"08128","name":"Main-Tauber-Kreis","type":"Landkreis"},"federalState":{"key":"08","name":"Baden-Württemberg"}},{"name":"Herrenwiesenstr.","postalCode":"97999","locality":"Igersheim","municipality":{"key":"08128058","name":"Igersheim","type":"Kreisangehörige_Gemeinde"},"district":{"key":"08128","name":"Main-Tauber-Kreis","type":"Landkreis"},"federalState":{"key":"08","name":"Baden-Württemberg"}},{"name":"Hohenloher Weg","postalCode":"97999","locality":"Igersheim","municipality":{"key":"08128058","name":"Igersheim","type":"Kreisangehörige_Gemeinde"},"district":{"key":"08128","name":"Main-Tauber-Kreis","type":"Landkreis"},"federalState":{"key":"08","name":"Baden-Württemberg"}},{"name":"Höhenweg","postalCode":"97999","locality":"Igersheim","municipality":{"key":"08128058","name":"Igersheim","type":"Kreisangehörige_Gemeinde"},"district":{"key":"08128","name":"Main-Tauber-Kreis","type":"Landkreis"},"federalState":{"key":"08","name":"Baden-Württemberg"}},{"name":"Holzäcker","postalCode":"97999","locality":"Igersheim","municipality":{"key":"08128058","name":"Igersheim","type":"Kreisangehörige_Gemeinde"},"district":{"key":"08128","name":"Main-Tauber-Kreis","type":"Landkreis"},"federalState":{"key":"08","name":"Baden-Württemberg"}},{"name":"Igersheimer Str.","postalCode":"97999","locality":"Igersheim","municipality":{"key":"08128058","name":"Igersheim","type":"Kreisangehörige_Gemeinde"},"district":{"key":"08128","name":"Main-Tauber-Kreis","type":"Landkreis"},"federalState":{"key":"08","name":"Baden-Württemberg"}},{"name":"Im Haukele","postalCode":"97999","locality":"Igersheim","municipality":{"key":"08128058","name":"Igersheim","type":"Kreisangehörige_Gemeinde"},"district":{"key":"08128","name":"Main-Tauber-Kreis","type":"Landkreis"},"federalState":{"key":"08","name":"Baden-Württemberg"}},{"name":"Im Wiesengrund","postalCode":"97999","locality":"Igersheim","municipality":{"key":"08128058","name":"Igersheim","type":"Kreisangehörige_Gemeinde"},"district":{"key":"08128","name":"Main-Tauber-Kreis","type":"Landkreis"},"federalState":{"key":"08","name":"Baden-Württemberg"}},{"name":"Kapellenweg","postalCode":"97999","locality":"Igersheim","municipality":{"key":"08128058","name":"Igersheim","type":"Kreisangehörige_Gemeinde"},"district":{"key":"08128","name":"Main-Tauber-Kreis","type":"Landkreis"},"federalState":{"key":"08","name":"Baden-Württemberg"}},{"name":"Kastanienweg","postalCode":"97999","locality":"Igersheim","municipality":{"key":"08128058","name":"Igersheim","type":"Kreisangehörige_Gemeinde"},"district":{"key":"08128","name":"Main-Tauber-Kreis","type":"Landkreis"},"federalState":{"key":"08","name":"Baden-Württemberg"}},{"name":"Kettensteig","postalCode":"97999","locality":"Igersheim","municipality":{"key":"08128058","name":"Igersheim","type":"Kreisangehörige_Gemeinde"},"district":{"key":"08128","name":"Main-Tauber-Kreis","type":"Landkreis"},"federalState":{"key":"08","name":"Baden-Württemberg"}},{"name":"Kirchbergring","postalCode":"97999","locality":"Igersheim","municipality":{"key":"08128058","name":"Igersheim","type":"Kreisangehörige_Gemeinde"},"district":{"key":"08128","name":"Main-Tauber-Kreis","type":"Landkreis"},"federalState":{"key":"08","name":"Baden-Württemberg"}},{"name":"Kirchbergstr.","postalCode":"97999","locality":"Igersheim","municipality":{"key":"08128058","name":"Igersheim","type":"Kreisangehörige_Gemeinde"},"district":{"key":"08128","name":"Main-Tauber-Kreis","type":"Landkreis"},"federalState":{"key":"08","name":"Baden-Württemberg"}},{"name":"Kirchblick","postalCode":"97999","locality":"Igersheim","municipality":{"key":"08128058","name":"Igersheim","type":"Kreisangehörige_Gemeinde"},"district":{"key":"08128","name":"Main-Tauber-Kreis","type":"Landkreis"},"federalState":{"key":"08","name":"Baden-Württemberg"}},{"name":"Kirchenrain","postalCode":"97999","locality":"Igersheim","municipality":{"key":"08128058","name":"Igersheim","type":"Kreisangehörige_Gemeinde"},"district":{"key":"08128","name":"Main-Tauber-Kreis","type":"Landkreis"},"federalState":{"key":"08","name":"Baden-Württemberg"}},{"name":"Kirchgasse","postalCode":"97999","locality":"Igersheim","municipality":{"key":"08128058","name":"Igersheim","type":"Kreisangehörige_Gemeinde"},"district":{"key":"08128","name":"Main-Tauber-Kreis","type":"Landkreis"},"federalState":{"key":"08","name":"Baden-Württemberg"}},{"name":"Konrad-Adenauer-Str.","postalCode":"97999","locality":"Igersheim","municipality":{"key":"08128058","name":"Igersheim","type":"Kreisangehörige_Gemeinde"},"district":{"key":"08128","name":"Main-Tauber-Kreis","type":"Landkreis"},"federalState":{"key":"08","name":"Baden-Württemberg"}},{"name":"Konrad-von-Brauneck-Str.","postalCode":"97999","locality":"Igersheim","municipality":{"key":"08128058","name":"Igersheim","type":"Kreisangehörige_Gemeinde"},"district":{"key":"08128","name":"Main-Tauber-Kreis","type":"Landkreis"},"federalState":{"key":"08","name":"Baden-Württemberg"}},{"name":"Kreuschweg","postalCode":"97999","locality":"Igersheim","municipality":{"key":"08128058","name":"Igersheim","type":"Kreisangehörige_Gemeinde"},"district":{"key":"08128","name":"Main-Tauber-Kreis","type":"Landkreis"},"federalState":{"key":"08","name":"Baden-Württemberg"}},{"name":"Lange Str.","postalCode":"97999","locality":"Igersheim","municipality":{"key":"08128058","name":"Igersheim","type":"Kreisangehörige_Gemeinde"},"district":{"key":"08128","name":"Main-Tauber-Kreis","type":"Landkreis"},"federalState":{"key":"08","name":"Baden-Württemberg"}},{"name":"Lärchenweg","postalCode":"97999","locality":"Igersheim","municipality":{"key":"08128058","name":"Igersheim","type":"Kreisangehörige_Gemeinde"},"district":{"key":"08128","name":"Main-Tauber-Kreis","type":"Landkreis"},"federalState":{"key":"08","name":"Baden-Württemberg"}},{"name":"Leitenweg","postalCode":"97999","locality":"Igersheim","municipality":{"key":"08128058","name":"Igersheim","type":"Kreisangehörige_Gemeinde"},"district":{"key":"08128","name":"Main-Tauber-Kreis","type":"Landkreis"},"federalState":{"key":"08","name":"Baden-Württemberg"}},{"name":"Lindenweg","postalCode":"97999","locality":"Igersheim","municipality":{"key":"08128058","name":"Igersheim","type":"Kreisangehörige_Gemeinde"},"district":{"key":"08128","name":"Main-Tauber-Kreis","type":"Landkreis"},"federalState":{"key":"08","name":"Baden-Württemberg"}},{"name":"Lochenweg","postalCode":"97999","locality":"Igersheim","municipality":{"key":"08128058","name":"Igersheim","type":"Kreisangehörige_Gemeinde"},"district":{"key":"08128","name":"Main-Tauber-Kreis","type":"Landkreis"},"federalState":{"key":"08","name":"Baden-Württemberg"}},{"name":"Löffelsgrabenstr.","postalCode":"97999","locality":"Igersheim","municipality":{"key":"08128058","name":"Igersheim","type":"Kreisangehörige_Gemeinde"},"district":{"key":"08128","name":"Main-Tauber-Kreis","type":"Landkreis"},"federalState":{"key":"08","name":"Baden-Württemberg"}},{"name":"Louisgarder Weg","postalCode":"97999","locality":"Igersheim","municipality":{"key":"08128058","name":"Igersheim","type":"Kreisangehörige_Gemeinde"},"district":{"key":"08128","name":"Main-Tauber-Kreis","type":"Landkreis"},"federalState":{"key":"08","name":"Baden-Württemberg"}},{"name":"Mackweg","postalCode":"97999","locality":"Igersheim","municipality":{"key":"08128058","name":"Igersheim","type":"Kreisangehörige_Gemeinde"},"district":{"key":"08128","name":"Main-Tauber-Kreis","type":"Landkreis"},"federalState":{"key":"08","name":"Baden-Württemberg"}},{"name":"Meisenweg","postalCode":"97999","locality":"Igersheim","municipality":{"key":"08128058","name":"Igersheim","type":"Kreisangehörige_Gemeinde"},"district":{"key":"08128","name":"Main-Tauber-Kreis","type":"Landkreis"},"federalState":{"key":"08","name":"Baden-Württemberg"}},{"name":"Milchlingstr.","postalCode":"97999","locality":"Igersheim","municipality":{"key":"08128058","name":"Igersheim","type":"Kreisangehörige_Gemeinde"},"district":{"key":"08128","name":"Main-Tauber-Kreis","type":"Landkreis"},"federalState":{"key":"08","name":"Baden-Württemberg"}},{"name":"Mittlere Schrot","postalCode":"97999","locality":"Igersheim","municipality":{"key":"08128058","name":"Igersheim","type":"Kreisangehörige_Gemeinde"},"district":{"key":"08128","name":"Main-Tauber-Kreis","type":"Landkreis"},"federalState":{"key":"08","name":"Baden-Württemberg"}},{"name":"Mittlere Str.","postalCode":"97999","locality":"Igersheim","municipality":{"key":"08128058","name":"Igersheim","type":"Kreisangehörige_Gemeinde"},"district":{"key":"08128","name":"Main-Tauber-Kreis","type":"Landkreis"},"federalState":{"key":"08","name":"Baden-Württemberg"}},{"name":"Möhlerplatz","postalCode":"97999","locality":"Igersheim","municipality":{"key":"08128058","name":"Igersheim","type":"Kreisangehörige_Gemeinde"},"district":{"key":"08128","name":"Main-Tauber-Kreis","type":"Landkreis"},"federalState":{"key":"08","name":"Baden-Württemberg"}},{"name":"Mozartstr.","postalCode":"97999","locality":"Igersheim","municipality":{"key":"08128058","name":"Igersheim","type":"Kreisangehörige_Gemeinde"},"district":{"key":"08128","name":"Main-Tauber-Kreis","type":"Landkreis"},"federalState":{"key":"08","name":"Baden-Württemberg"}},{"name":"Mühlgasse","postalCode":"97999","locality":"Igersheim","municipality":{"key":"08128058","name":"Igersheim","type":"Kreisangehörige_Gemeinde"},"district":{"key":"08128","name":"Main-Tauber-Kreis","type":"Landkreis"},"federalState":{"key":"08","name":"Baden-Württemberg"}},{"name":"Mühlweg","postalCode":"97999","locality":"Igersheim","municipality":{"key":"08128058","name":"Igersheim","type":"Kreisangehörige_Gemeinde"},"district":{"key":"08128","name":"Main-Tauber-Kreis","type":"Landkreis"},"federalState":{"key":"08","name":"Baden-Württemberg"}},{"name":"Nassauer Str.","postalCode":"97999","locality":"Igersheim","municipality":{"key":"08128058","name":"Igersheim","type":"Kreisangehörige_Gemeinde"},"district":{"key":"08128","name":"Main-Tauber-Kreis","type":"Landkreis"},"federalState":{"key":"08","name":"Baden-Württemberg"}},{"name":"Neubronn","postalCode":"97999","locality":"Igersheim","municipality":{"key":"08128058","name":"Igersheim","type":"Kreisangehörige_Gemeinde"},"district":{"key":"08128","name":"Main-Tauber-Kreis","type":"Landkreis"},"federalState":{"key":"08","name":"Baden-Württemberg"}},{"name":"Neugreutstr.","postalCode":"97999","locality":"Igersheim","municipality":{"key":"08128058","name":"Igersheim","type":"Kreisangehörige_Gemeinde"},"district":{"key":"08128","name":"Main-Tauber-Kreis","type":"Landkreis"},"federalState":{"key":"08","name":"Baden-Württemberg"}},{"name":"Neuseser Str.","postalCode":"97999","locality":"Igersheim","municipality":{"key":"08128058","name":"Igersheim","type":"Kreisangehörige_Gemeinde"},"district":{"key":"08128","name":"Main-Tauber-Kreis","type":"Landkreis"},"federalState":{"key":"08","name":"Baden-Württemberg"}},{"name":"Neuseser-Tal-Str.","postalCode":"97999","locality":"Igersheim","municipality":{"key":"08128058","name":"Igersheim","type":"Kreisangehörige_Gemeinde"},"district":{"key":"08128","name":"Main-Tauber-Kreis","type":"Landkreis"},"federalState":{"key":"08","name":"Baden-Württemberg"}},{"name":"Nussacker","postalCode":"97999","locality":"Igersheim","municipality":{"key":"08128058","name":"Igersheim","type":"Kreisangehörige_Gemeinde"},"district":{"key":"08128","name":"Main-Tauber-Kreis","type":"Landkreis"},"federalState":{"key":"08","name":"Baden-Württemberg"}},{"name":"Ob den Tannen","postalCode":"97999","locality":"Igersheim","municipality":{"key":"08128058","name":"Igersheim","type":"Kreisangehörige_Gemeinde"},"district":{"key":"08128","name":"Main-Tauber-Kreis","type":"Landkreis"},"federalState":{"key":"08","name":"Baden-Württemberg"}},{"name":"Obere Str.","postalCode":"97999","locality":"Igersheim","municipality":{"key":"08128058","name":"Igersheim","type":"Kreisangehörige_Gemeinde"},"district":{"key":"08128","name":"Main-Tauber-Kreis","type":"Landkreis"},"federalState":{"key":"08","name":"Baden-Württemberg"}},{"name":"Oberhofweg","postalCode":"97999","locality":"Igersheim","municipality":{"key":"08128058","name":"Igersheim","type":"Kreisangehörige_Gemeinde"},"district":{"key":"08128","name":"Main-Tauber-Kreis","type":"Landkreis"},"federalState":{"key":"08","name":"Baden-Württemberg"}},{"name":"Odenwaldstr.","postalCode":"97999","locality":"Igersheim","municipality":{"key":"08128058","name":"Igersheim","type":"Kreisangehörige_Gemeinde"},"district":{"key":"08128","name":"Main-Tauber-Kreis","type":"Landkreis"},"federalState":{"key":"08","name":"Baden-Württemberg"}},{"name":"Oesfelder Str.","postalCode":"97999","locality":"Igersheim","municipality":{"key":"08128058","name":"Igersheim","type":"Kreisangehörige_Gemeinde"},"district":{"key":"08128","name":"Main-Tauber-Kreis","type":"Landkreis"},"federalState":{"key":"08","name":"Baden-Württemberg"}},{"name":"Pfadäckerweg","postalCode":"97999","locality":"Igersheim","municipality":{"key":"08128058","name":"Igersheim","type":"Kreisangehörige_Gemeinde"},"district":{"key":"08128","name":"Main-Tauber-Kreis","type":"Landkreis"},"federalState":{"key":"08","name":"Baden-Württemberg"}},{"name":"Pfarrgang","postalCode":"97999","locality":"Igersheim","municipality":{"key":"08128058","name":"Igersheim","type":"Kreisangehörige_Gemeinde"},"district":{"key":"08128","name":"Main-Tauber-Kreis","type":"Landkreis"},"federalState":{"key":"08","name":"Baden-Württemberg"}},{"name":"Pfarrgartenweg","postalCode":"97999","locality":"Igersheim","municipality":{"key":"08128058","name":"Igersheim","type":"Kreisangehörige_Gemeinde"},"district":{"key":"08128","name":"Main-Tauber-Kreis","type":"Landkreis"},"federalState":{"key":"08","name":"Baden-Württemberg"}},{"name":"Rainweg","postalCode":"97999","locality":"Igersheim","municipality":{"key":"08128058","name":"Igersheim","type":"Kreisangehörige_Gemeinde"},"district":{"key":"08128","name":"Main-Tauber-Kreis","type":"Landkreis"},"federalState":{"key":"08","name":"Baden-Württemberg"}},{"name":"Rathausstr.","postalCode":"97999","locality":"Igersheim","municipality":{"key":"08128058","name":"Igersheim","type":"Kreisangehörige_Gemeinde"},"district":{"key":"08128","name":"Main-Tauber-Kreis","type":"Landkreis"},"federalState":{"key":"08","name":"Baden-Württemberg"}},{"name":"Reckerstal","postalCode":"97999","locality":"Igersheim","municipality":{"key":"08128058","name":"Igersheim","type":"Kreisangehörige_Gemeinde"},"district":{"key":"08128","name":"Main-Tauber-Kreis","type":"Landkreis"},"federalState":{"key":"08","name":"Baden-Württemberg"}},{"name":"Reckerstaler Str.","postalCode":"97999","locality":"Igersheim","municipality":{"key":"08128058","name":"Igersheim","type":"Kreisangehörige_Gemeinde"},"district":{"key":"08128","name":"Main-Tauber-Kreis","type":"Landkreis"},"federalState":{"key":"08","name":"Baden-Württemberg"}},{"name":"Regerstr.","postalCode":"97999","locality":"Igersheim","municipality":{"key":"08128058","name":"Igersheim","type":"Kreisangehörige_Gemeinde"},"district":{"key":"08128","name":"Main-Tauber-Kreis","type":"Landkreis"},"federalState":{"key":"08","name":"Baden-Württemberg"}},{"name":"Reisfelder Steige","postalCode":"97999","locality":"Igersheim","municipality":{"key":"08128058","name":"Igersheim","type":"Kreisangehörige_Gemeinde"},"district":{"key":"08128","name":"Main-Tauber-Kreis","type":"Landkreis"},"federalState":{"key":"08","name":"Baden-Württemberg"}},{"name":"Rhönstr.","postalCode":"97999","locality":"Igersheim","municipality":{"key":"08128058","name":"Igersheim","type":"Kreisangehörige_Gemeinde"},"district":{"key":"08128","name":"Main-Tauber-Kreis","type":"Landkreis"},"federalState":{"key":"08","name":"Baden-Württemberg"}},{"name":"Richtweg","postalCode":"97999","locality":"Igersheim","municipality":{"key":"08128058","name":"Igersheim","type":"Kreisangehörige_Gemeinde"},"district":{"key":"08128","name":"Main-Tauber-Kreis","type":"Landkreis"},"federalState":{"key":"08","name":"Baden-Württemberg"}},{"name":"Riedweg","postalCode":"97999","locality":"Igersheim","municipality":{"key":"08128058","name":"Igersheim","type":"Kreisangehörige_Gemeinde"},"district":{"key":"08128","name":"Main-Tauber-Kreis","type":"Landkreis"},"federalState":{"key":"08","name":"Baden-Württemberg"}},{"name":"Roggenbergstr.","postalCode":"97999","locality":"Igersheim","municipality":{"key":"08128058","name":"Igersheim","type":"Kreisangehörige_Gemeinde"},"district":{"key":"08128","name":"Main-Tauber-Kreis","type":"Landkreis"},"federalState":{"key":"08","name":"Baden-Württemberg"}},{"name":"Römerweg","postalCode":"97999","locality":"Igersheim","municipality":{"key":"08128058","name":"Igersheim","type":"Kreisangehörige_Gemeinde"},"district":{"key":"08128","name":"Main-Tauber-Kreis","type":"Landkreis"},"federalState":{"key":"08","name":"Baden-Württemberg"}},{"name":"Rosenweg","postalCode":"97999","locality":"Igersheim","municipality":{"key":"08128058","name":"Igersheim","type":"Kreisangehörige_Gemeinde"},"district":{"key":"08128","name":"Main-Tauber-Kreis","type":"Landkreis"},"federalState":{"key":"08","name":"Baden-Württemberg"}},{"name":"Schafgraben","postalCode":"97999","locality":"Igersheim","municipality":{"key":"08128058","name":"Igersheim","type":"Kreisangehörige_Gemeinde"},"district":{"key":"08128","name":"Main-Tauber-Kreis","type":"Landkreis"},"federalState":{"key":"08","name":"Baden-Württemberg"}},{"name":"Schäftersheimer Pfad","postalCode":"97999","locality":"Igersheim","municipality":{"key":"08128058","name":"Igersheim","type":"Kreisangehörige_Gemeinde"},"district":{"key":"08128","name":"Main-Tauber-Kreis","type":"Landkreis"},"federalState":{"key":"08","name":"Baden-Württemberg"}},{"name":"Schafwiese","postalCode":"97999","locality":"Igersheim","municipality":{"key":"08128058","name":"Igersheim","type":"Kreisangehörige_Gemeinde"},"district":{"key":"08128","name":"Main-Tauber-Kreis","type":"Landkreis"},"federalState":{"key":"08","name":"Baden-Württemberg"}},{"name":"Schattenweg","postalCode":"97999","locality":"Igersheim","municipality":{"key":"08128058","name":"Igersheim","type":"Kreisangehörige_Gemeinde"},"district":{"key":"08128","name":"Main-Tauber-Kreis","type":"Landkreis"},"federalState":{"key":"08","name":"Baden-Württemberg"}},{"name":"Schlesierstr.","postalCode":"97999","locality":"Igersheim","municipality":{"key":"08128058","name":"Igersheim","type":"Kreisangehörige_Gemeinde"},"district":{"key":"08128","name":"Main-Tauber-Kreis","type":"Landkreis"},"federalState":{"key":"08","name":"Baden-Württemberg"}},{"name":"Schmale Gasse","postalCode":"97999","locality":"Igersheim","municipality":{"key":"08128058","name":"Igersheim","type":"Kreisangehörige_Gemeinde"},"district":{"key":"08128","name":"Main-Tauber-Kreis","type":"Landkreis"},"federalState":{"key":"08","name":"Baden-Württemberg"}},{"name":"Schmiedgasse","postalCode":"97999","locality":"Igersheim","municipality":{"key":"08128058","name":"Igersheim","type":"Kreisangehörige_Gemeinde"},"district":{"key":"08128","name":"Main-Tauber-Kreis","type":"Landkreis"},"federalState":{"key":"08","name":"Baden-Württemberg"}},{"name":"Schrannenweg","postalCode":"97999","locality":"Igersheim","municipality":{"key":"08128058","name":"Igersheim","type":"Kreisangehörige_Gemeinde"},"district":{"key":"08128","name":"Main-Tauber-Kreis","type":"Landkreis"},"federalState":{"key":"08","name":"Baden-Württemberg"}},{"name":"Schubertstr.","postalCode":"97999","locality":"Igersheim","municipality":{"key":"08128058","name":"Igersheim","type":"Kreisangehörige_Gemeinde"},"district":{"key":"08128","name":"Main-Tauber-Kreis","type":"Landkreis"},"federalState":{"key":"08","name":"Baden-Württemberg"}},{"name":"Schüllenweg","postalCode":"97999","locality":"Igersheim","municipality":{"key":"08128058","name":"Igersheim","type":"Kreisangehörige_Gemeinde"},"district":{"key":"08128","name":"Main-Tauber-Kreis","type":"Landkreis"},"federalState":{"key":"08","name":"Baden-Württemberg"}},{"name":"Schulstr.","postalCode":"97999","locality":"Igersheim","municipality":{"key":"08128058","name":"Igersheim","type":"Kreisangehörige_Gemeinde"},"district":{"key":"08128","name":"Main-Tauber-Kreis","type":"Landkreis"},"federalState":{"key":"08","name":"Baden-Württemberg"}},{"name":"Seestr.","postalCode":"97999","locality":"Igersheim","municipality":{"key":"08128058","name":"Igersheim","type":"Kreisangehörige_Gemeinde"},"district":{"key":"08128","name":"Main-Tauber-Kreis","type":"Landkreis"},"federalState":{"key":"08","name":"Baden-Württemberg"}},{"name":"Seewiesenweg","postalCode":"97999","locality":"Igersheim","municipality":{"key":"08128058","name":"Igersheim","type":"Kreisangehörige_Gemeinde"},"district":{"key":"08128","name":"Main-Tauber-Kreis","type":"Landkreis"},"federalState":{"key":"08","name":"Baden-Württemberg"}},{"name":"Simmringen","postalCode":"97999","locality":"Igersheim","municipality":{"key":"08128058","name":"Igersheim","type":"Kreisangehörige_Gemeinde"},"district":{"key":"08128","name":"Main-Tauber-Kreis","type":"Landkreis"},"federalState":{"key":"08","name":"Baden-Württemberg"}},{"name":"Spessartstr.","postalCode":"97999","locality":"Igersheim","municipality":{"key":"08128058","name":"Igersheim","type":"Kreisangehörige_Gemeinde"},"district":{"key":"08128","name":"Main-Tauber-Kreis","type":"Landkreis"},"federalState":{"key":"08","name":"Baden-Württemberg"}},{"name":"Sportplatzweg","postalCode":"97999","locality":"Igersheim","municipality":{"key":"08128058","name":"Igersheim","type":"Kreisangehörige_Gemeinde"},"district":{"key":"08128","name":"Main-Tauber-Kreis","type":"Landkreis"},"federalState":{"key":"08","name":"Baden-Württemberg"}},{"name":"Steigerwaldstr.","postalCode":"97999","locality":"Igersheim","municipality":{"key":"08128058","name":"Igersheim","type":"Kreisangehörige_Gemeinde"},"district":{"key":"08128","name":"Main-Tauber-Kreis","type":"Landkreis"},"federalState":{"key":"08","name":"Baden-Württemberg"}},{"name":"Steigstr.","postalCode":"97999","locality":"Igersheim","municipality":{"key":"08128058","name":"Igersheim","type":"Kreisangehörige_Gemeinde"},"district":{"key":"08128","name":"Main-Tauber-Kreis","type":"Landkreis"},"federalState":{"key":"08","name":"Baden-Württemberg"}},{"name":"Steinweg","postalCode":"97999","locality":"Igersheim","municipality":{"key":"08128058","name":"Igersheim","type":"Kreisangehörige_Gemeinde"},"district":{"key":"08128","name":"Main-Tauber-Kreis","type":"Landkreis"},"federalState":{"key":"08","name":"Baden-Württemberg"}},{"name":"Stresemannweg","postalCode":"97999","locality":"Igersheim","municipality":{"key":"08128058","name":"Igersheim","type":"Kreisangehörige_Gemeinde"},"district":{"key":"08128","name":"Main-Tauber-Kreis","type":"Landkreis"},"federalState":{"key":"08","name":"Baden-Württemberg"}},{"name":"Sudetenstr.","postalCode":"97999","locality":"Igersheim","municipality":{"key":"08128058","name":"Igersheim","type":"Kreisangehörige_Gemeinde"},"district":{"key":"08128","name":"Main-Tauber-Kreis","type":"Landkreis"},"federalState":{"key":"08","name":"Baden-Württemberg"}},{"name":"Talstr.","postalCode":"97999","locality":"Igersheim","municipality":{"key":"08128058","name":"Igersheim","type":"Kreisangehörige_Gemeinde"},"district":{"key":"08128","name":"Main-Tauber-Kreis","type":"Landkreis"},"federalState":{"key":"08","name":"Baden-Württemberg"}},{"name":"Tauberbergstr.","postalCode":"97999","locality":"Igersheim","municipality":{"key":"08128058","name":"Igersheim","type":"Kreisangehörige_Gemeinde"},"district":{"key":"08128","name":"Main-Tauber-Kreis","type":"Landkreis"},"federalState":{"key":"08","name":"Baden-Württemberg"}},{"name":"Tauberweg","postalCode":"97999","locality":"Igersheim","municipality":{"key":"08128058","name":"Igersheim","type":"Kreisangehörige_Gemeinde"},"district":{"key":"08128","name":"Main-Tauber-Kreis","type":"Landkreis"},"federalState":{"key":"08","name":"Baden-Württemberg"}},{"name":"Theodor-Heuß-Str.","postalCode":"97999","locality":"Igersheim","municipality":{"key":"08128058","name":"Igersheim","type":"Kreisangehörige_Gemeinde"},"district":{"key":"08128","name":"Main-Tauber-Kreis","type":"Landkreis"},"federalState":{"key":"08","name":"Baden-Württemberg"}},{"name":"Triebweg","postalCode":"97999","locality":"Igersheim","municipality":{"key":"08128058","name":"Igersheim","type":"Kreisangehörige_Gemeinde"},"district":{"key":"08128","name":"Main-Tauber-Kreis","type":"Landkreis"},"federalState":{"key":"08","name":"Baden-Württemberg"}},{"name":"Tulpenstr.","postalCode":"97999","locality":"Igersheim","municipality":{"key":"08128058","name":"Igersheim","type":"Kreisangehörige_Gemeinde"},"district":{"key":"08128","name":"Main-Tauber-Kreis","type":"Landkreis"},"federalState":{"key":"08","name":"Baden-Württemberg"}},{"name":"Untere Str.","postalCode":"97999","locality":"Igersheim","municipality":{"key":"08128058","name":"Igersheim","type":"Kreisangehörige_Gemeinde"},"district":{"key":"08128","name":"Main-Tauber-Kreis","type":"Landkreis"},"federalState":{"key":"08","name":"Baden-Württemberg"}},{"name":"Unterhofweg","postalCode":"97999","locality":"Igersheim","municipality":{"key":"08128058","name":"Igersheim","type":"Kreisangehörige_Gemeinde"},"district":{"key":"08128","name":"Main-Tauber-Kreis","type":"Landkreis"},"federalState":{"key":"08","name":"Baden-Württemberg"}},{"name":"Wagnerstr.","postalCode":"97999","locality":"Igersheim","municipality":{"key":"08128058","name":"Igersheim","type":"Kreisangehörige_Gemeinde"},"district":{"key":"08128","name":"Main-Tauber-Kreis","type":"Landkreis"},"federalState":{"key":"08","name":"Baden-Württemberg"}},{"name":"Waldweg","postalCode":"97999","locality":"Igersheim","municipality":{"key":"08128058","name":"Igersheim","type":"Kreisangehörige_Gemeinde"},"district":{"key":"08128","name":"Main-Tauber-Kreis","type":"Landkreis"},"federalState":{"key":"08","name":"Baden-Württemberg"}},{"name":"Walter-Wittenstein-Str.","postalCode":"97999","locality":"Igersheim","municipality":{"key":"08128058","name":"Igersheim","type":"Kreisangehörige_Gemeinde"},"district":{"key":"08128","name":"Main-Tauber-Kreis","type":"Landkreis"},"federalState":{"key":"08","name":"Baden-Württemberg"}},{"name":"Weberstr.","postalCode":"97999","locality":"Igersheim","municipality":{"key":"08128058","name":"Igersheim","type":"Kreisangehörige_Gemeinde"},"district":{"key":"08128","name":"Main-Tauber-Kreis","type":"Landkreis"},"federalState":{"key":"08","name":"Baden-Württemberg"}},{"name":"Weidengasse","postalCode":"97999","locality":"Igersheim","municipality":{"key":"08128058","name":"Igersheim","type":"Kreisangehörige_Gemeinde"},"district":{"key":"08128","name":"Main-Tauber-Kreis","type":"Landkreis"},"federalState":{"key":"08","name":"Baden-Württemberg"}},{"name":"Weinbergweg","postalCode":"97999","locality":"Igersheim","municipality":{"key":"08128058","name":"Igersheim","type":"Kreisangehörige_Gemeinde"},"district":{"key":"08128","name":"Main-Tauber-Kreis","type":"Landkreis"},"federalState":{"key":"08","name":"Baden-Württemberg"}},{"name":"Wölffleweg","postalCode":"97999","locality":"Igersheim","municipality":{"key":"08128058","name":"Igersheim","type":"Kreisangehörige_Gemeinde"},"district":{"key":"08128","name":"Main-Tauber-Kreis","type":"Landkreis"},"federalState":{"key":"08","name":"Baden-Württemberg"}},{"name":"Würzburger Str.","postalCode":"97999","locality":"Igersheim","municipality":{"key":"08128058","name":"Igersheim","type":"Kreisangehörige_Gemeinde"},"district":{"key":"08128","name":"Main-Tauber-Kreis","type":"Landkreis"},"federalState":{"key":"08","name":"Baden-Württemberg"}},{"name":"Zum Farrenstall","postalCode":"97999","locality":"Igersheim","municipality":{"key":"08128058","name":"Igersheim","type":"Kreisangehörige_Gemeinde"},"district":{"key":"08128","name":"Main-Tauber-Kreis","type":"Landkreis"},"federalState":{"key":"08","name":"Baden-Württemberg"}},{"name":"Zum Felsenkeller","postalCode":"97999","locality":"Igersheim","municipality":{"key":"08128058","name":"Igersheim","type":"Kreisangehörige_Gemeinde"},"district":{"key":"08128","name":"Main-Tauber-Kreis","type":"Landkreis"},"federalState":{"key":"08","name":"Baden-Württemberg"}},{"name":"Zum Stein","postalCode":"97999","locality":"Igersheim","municipality":{"key":"08128058","name":"Igersheim","type":"Kreisangehörige_Gemeinde"},"district":{"key":"08128","name":"Main-Tauber-Kreis","type":"Landkreis"},"federalState":{"key":"08","name":"Baden-Württemberg"}},{"name":"Zum Vogelherd","postalCode":"97999","locality":"Igersheim","municipality":{"key":"08128058","name":"Igersheim","type":"Kreisangehörige_Gemeinde"},"district":{"key":"08128","name":"Main-Tauber-Kreis","type":"Landkreis"},"federalState":{"key":"08","name":"Baden-Württemberg"}},{"name":"Zwerchweg","postalCode":"97999","locality":"Igersheim","municipality":{"key":"08128058","name":"Igersheim","type":"Kreisangehörige_Gemeinde"},"district":{"key":"08128","name":"Main-Tauber-Kreis","type":"Landkreis"},"federalState":{"key":"08","name":"Baden-Württemberg"}},]