[{"name":"17er Str.","postalCode":"76726","locality":"Germersheim","municipality":{"key":"07334007","name":"Germersheim, Stadt","type":"Stadt"},"district":{"key":"07334","name":"Germersheim","type":"Landkreis"},"federalState":{"key":"07","name":"Rheinland-Pfalz"}},{"name":"Am Bienwald","postalCode":"76779","locality":"Scheibenhardt","municipality":{"key":"07334027","name":"Scheibenhardt","type":"Kreisangehörige_Gemeinde"},"district":{"key":"07334","name":"Germersheim","type":"Landkreis"},"federalState":{"key":"07","name":"Rheinland-Pfalz"}},{"name":"Am Lettenbuckel","postalCode":"76779","locality":"Scheibenhardt","municipality":{"key":"07334027","name":"Scheibenhardt","type":"Kreisangehörige_Gemeinde"},"district":{"key":"07334","name":"Germersheim","type":"Landkreis"},"federalState":{"key":"07","name":"Rheinland-Pfalz"}},{"name":"Bahnhofstr.","postalCode":"76726","locality":"Germersheim","municipality":{"key":"07334007","name":"Germersheim, Stadt","type":"Stadt"},"district":{"key":"07334","name":"Germersheim","type":"Landkreis"},"federalState":{"key":"07","name":"Rheinland-Pfalz"}},{"name":"Beethovenstr.","postalCode":"76726","locality":"Germersheim","municipality":{"key":"07334007","name":"Germersheim, Stadt","type":"Stadt"},"district":{"key":"07334","name":"Germersheim","type":"Landkreis"},"federalState":{"key":"07","name":"Rheinland-Pfalz"}},{"name":"Bellheimer Str.","postalCode":"76726","locality":"Germersheim","municipality":{"key":"07334007","name":"Germersheim, Stadt","type":"Stadt"},"district":{"key":"07334","name":"Germersheim","type":"Landkreis"},"federalState":{"key":"07","name":"Rheinland-Pfalz"}},{"name":"Bergstr.","postalCode":"76726","locality":"Germersheim","municipality":{"key":"07334007","name":"Germersheim, Stadt","type":"Stadt"},"district":{"key":"07334","name":"Germersheim","type":"Landkreis"},"federalState":{"key":"07","name":"Rheinland-Pfalz"}},{"name":"Berliner Str.","postalCode":"76726","locality":"Germersheim","municipality":{"key":"07334007","name":"Germersheim, Stadt","type":"Stadt"},"district":{"key":"07334","name":"Germersheim","type":"Landkreis"},"federalState":{"key":"07","name":"Rheinland-Pfalz"}},{"name":"Birkenweg","postalCode":"76726","locality":"Germersheim","municipality":{"key":"07334007","name":"Germersheim, Stadt","type":"Stadt"},"district":{"key":"07334","name":"Germersheim","type":"Landkreis"},"federalState":{"key":"07","name":"Rheinland-Pfalz"}},{"name":"Bismarckstr.","postalCode":"76726","locality":"Germersheim","municipality":{"key":"07334007","name":"Germersheim, Stadt","type":"Stadt"},"district":{"key":"07334","name":"Germersheim","type":"Landkreis"},"federalState":{"key":"07","name":"Rheinland-Pfalz"}},{"name":"Blaulstr.","postalCode":"76726","locality":"Germersheim","municipality":{"key":"07334007","name":"Germersheim, Stadt","type":"Stadt"},"district":{"key":"07334","name":"Germersheim","type":"Landkreis"},"federalState":{"key":"07","name":"Rheinland-Pfalz"}},{"name":"Blumenstr.","postalCode":"76726","locality":"Germersheim","municipality":{"key":"07334007","name":"Germersheim, Stadt","type":"Stadt"},"district":{"key":"07334","name":"Germersheim","type":"Landkreis"},"federalState":{"key":"07","name":"Rheinland-Pfalz"}},{"name":"Brahmsstr.","postalCode":"76726","locality":"Germersheim","municipality":{"key":"07334007","name":"Germersheim, Stadt","type":"Stadt"},"district":{"key":"07334","name":"Germersheim","type":"Landkreis"},"federalState":{"key":"07","name":"Rheinland-Pfalz"}},{"name":"Brennereiweg","postalCode":"76726","locality":"Germersheim","municipality":{"key":"07334007","name":"Germersheim, Stadt","type":"Stadt"},"district":{"key":"07334","name":"Germersheim","type":"Landkreis"},"federalState":{"key":"07","name":"Rheinland-Pfalz"}},{"name":"Breslauer Str.","postalCode":"76726","locality":"Germersheim","municipality":{"key":"07334007","name":"Germersheim, Stadt","type":"Stadt"},"district":{"key":"07334","name":"Germersheim","type":"Landkreis"},"federalState":{"key":"07","name":"Rheinland-Pfalz"}},{"name":"Buchenweg","postalCode":"76726","locality":"Germersheim","municipality":{"key":"07334007","name":"Germersheim, Stadt","type":"Stadt"},"district":{"key":"07334","name":"Germersheim","type":"Landkreis"},"federalState":{"key":"07","name":"Rheinland-Pfalz"}},{"name":"Burgunder Str.","postalCode":"76726","locality":"Germersheim","municipality":{"key":"07334007","name":"Germersheim, Stadt","type":"Stadt"},"district":{"key":"07334","name":"Germersheim","type":"Landkreis"},"federalState":{"key":"07","name":"Rheinland-Pfalz"}},{"name":"Danziger Str.","postalCode":"76726","locality":"Germersheim","municipality":{"key":"07334007","name":"Germersheim, Stadt","type":"Stadt"},"district":{"key":"07334","name":"Germersheim","type":"Landkreis"},"federalState":{"key":"07","name":"Rheinland-Pfalz"}},{"name":"Donnersgasse","postalCode":"76726","locality":"Germersheim","municipality":{"key":"07334007","name":"Germersheim, Stadt","type":"Stadt"},"district":{"key":"07334","name":"Germersheim","type":"Landkreis"},"federalState":{"key":"07","name":"Rheinland-Pfalz"}},{"name":"Dresdener Str.","postalCode":"76726","locality":"Germersheim","municipality":{"key":"07334007","name":"Germersheim, Stadt","type":"Stadt"},"district":{"key":"07334","name":"Germersheim","type":"Landkreis"},"federalState":{"key":"07","name":"Rheinland-Pfalz"}},{"name":"Eichenweg","postalCode":"76779","locality":"Scheibenhardt","municipality":{"key":"07334027","name":"Scheibenhardt","type":"Kreisangehörige_Gemeinde"},"district":{"key":"07334","name":"Germersheim","type":"Landkreis"},"federalState":{"key":"07","name":"Rheinland-Pfalz"}},{"name":"Feldstr.","postalCode":"76726","locality":"Germersheim","municipality":{"key":"07334007","name":"Germersheim, Stadt","type":"Stadt"},"district":{"key":"07334","name":"Germersheim","type":"Landkreis"},"federalState":{"key":"07","name":"Rheinland-Pfalz"}},{"name":"Festungspark Fronte Lamotte","postalCode":"76726","locality":"Germersheim","municipality":{"key":"07334007","name":"Germersheim, Stadt","type":"Stadt"},"district":{"key":"07334","name":"Germersheim","type":"Landkreis"},"federalState":{"key":"07","name":"Rheinland-Pfalz"}},{"name":"Filchnerstr.","postalCode":"76726","locality":"Germersheim","municipality":{"key":"07334007","name":"Germersheim, Stadt","type":"Stadt"},"district":{"key":"07334","name":"Germersheim","type":"Landkreis"},"federalState":{"key":"07","name":"Rheinland-Pfalz"}},{"name":"Fischerstr.","postalCode":"76726","locality":"Germersheim","municipality":{"key":"07334007","name":"Germersheim, Stadt","type":"Stadt"},"district":{"key":"07334","name":"Germersheim","type":"Landkreis"},"federalState":{"key":"07","name":"Rheinland-Pfalz"}},{"name":"Franz-Schubert-Str.","postalCode":"76726","locality":"Germersheim","municipality":{"key":"07334007","name":"Germersheim, Stadt","type":"Stadt"},"district":{"key":"07334","name":"Germersheim","type":"Landkreis"},"federalState":{"key":"07","name":"Rheinland-Pfalz"}},{"name":"Franz-von-Assisi-Brücke","postalCode":"76726","locality":"Germersheim","municipality":{"key":"07334007","name":"Germersheim, Stadt","type":"Stadt"},"district":{"key":"07334","name":"Germersheim","type":"Landkreis"},"federalState":{"key":"07","name":"Rheinland-Pfalz"}},{"name":"Freiherr-vom-Stein-Str.","postalCode":"76726","locality":"Germersheim","municipality":{"key":"07334007","name":"Germersheim, Stadt","type":"Stadt"},"district":{"key":"07334","name":"Germersheim","type":"Landkreis"},"federalState":{"key":"07","name":"Rheinland-Pfalz"}},{"name":"Friedenstr.","postalCode":"76726","locality":"Germersheim","municipality":{"key":"07334007","name":"Germersheim, Stadt","type":"Stadt"},"district":{"key":"07334","name":"Germersheim","type":"Landkreis"},"federalState":{"key":"07","name":"Rheinland-Pfalz"}},{"name":"Friedhofstr.","postalCode":"76726","locality":"Germersheim","municipality":{"key":"07334007","name":"Germersheim, Stadt","type":"Stadt"},"district":{"key":"07334","name":"Germersheim","type":"Landkreis"},"federalState":{"key":"07","name":"Rheinland-Pfalz"}},{"name":"Friedrich-Ebert-Str.","postalCode":"76726","locality":"Germersheim","municipality":{"key":"07334007","name":"Germersheim, Stadt","type":"Stadt"},"district":{"key":"07334","name":"Germersheim","type":"Landkreis"},"federalState":{"key":"07","name":"Rheinland-Pfalz"}},{"name":"Fronte Beckers","postalCode":"76726","locality":"Germersheim","municipality":{"key":"07334007","name":"Germersheim, Stadt","type":"Stadt"},"district":{"key":"07334","name":"Germersheim","type":"Landkreis"},"federalState":{"key":"07","name":"Rheinland-Pfalz"}},{"name":"Frühlingstr.","postalCode":"76726","locality":"Germersheim","municipality":{"key":"07334007","name":"Germersheim, Stadt","type":"Stadt"},"district":{"key":"07334","name":"Germersheim","type":"Landkreis"},"federalState":{"key":"07","name":"Rheinland-Pfalz"}},{"name":"Gartenstr.","postalCode":"76726","locality":"Germersheim","municipality":{"key":"07334007","name":"Germersheim, Stadt","type":"Stadt"},"district":{"key":"07334","name":"Germersheim","type":"Landkreis"},"federalState":{"key":"07","name":"Rheinland-Pfalz"}},{"name":"Gerichtsstr.","postalCode":"76726","locality":"Germersheim","municipality":{"key":"07334007","name":"Germersheim, Stadt","type":"Stadt"},"district":{"key":"07334","name":"Germersheim","type":"Landkreis"},"federalState":{"key":"07","name":"Rheinland-Pfalz"}},{"name":"Germersheimer Str.","postalCode":"76726","locality":"Germersheim","municipality":{"key":"07334007","name":"Germersheim, Stadt","type":"Stadt"},"district":{"key":"07334","name":"Germersheim","type":"Landkreis"},"federalState":{"key":"07","name":"Rheinland-Pfalz"}},{"name":"Geschwister-Scholl-Str.","postalCode":"76726","locality":"Germersheim","municipality":{"key":"07334007","name":"Germersheim, Stadt","type":"Stadt"},"district":{"key":"07334","name":"Germersheim","type":"Landkreis"},"federalState":{"key":"07","name":"Rheinland-Pfalz"}},{"name":"Glacisstr.","postalCode":"76726","locality":"Germersheim","municipality":{"key":"07334007","name":"Germersheim, Stadt","type":"Stadt"},"district":{"key":"07334","name":"Germersheim","type":"Landkreis"},"federalState":{"key":"07","name":"Rheinland-Pfalz"}},{"name":"Goerdelerstr.","postalCode":"76726","locality":"Germersheim","municipality":{"key":"07334007","name":"Germersheim, Stadt","type":"Stadt"},"district":{"key":"07334","name":"Germersheim","type":"Landkreis"},"federalState":{"key":"07","name":"Rheinland-Pfalz"}},{"name":"Goethestr.","postalCode":"76726","locality":"Germersheim","municipality":{"key":"07334007","name":"Germersheim, Stadt","type":"Stadt"},"district":{"key":"07334","name":"Germersheim","type":"Landkreis"},"federalState":{"key":"07","name":"Rheinland-Pfalz"}},{"name":"Gottfried-Tulla-Str.","postalCode":"76726","locality":"Germersheim","municipality":{"key":"07334007","name":"Germersheim, Stadt","type":"Stadt"},"district":{"key":"07334","name":"Germersheim","type":"Landkreis"},"federalState":{"key":"07","name":"Rheinland-Pfalz"}},{"name":"Guggucks-Plätzel","postalCode":"76726","locality":"Germersheim","municipality":{"key":"07334007","name":"Germersheim, Stadt","type":"Stadt"},"district":{"key":"07334","name":"Germersheim","type":"Landkreis"},"federalState":{"key":"07","name":"Rheinland-Pfalz"}},{"name":"Gustel-Töpfer-Str.","postalCode":"76726","locality":"Germersheim","municipality":{"key":"07334007","name":"Germersheim, Stadt","type":"Stadt"},"district":{"key":"07334","name":"Germersheim","type":"Landkreis"},"federalState":{"key":"07","name":"Rheinland-Pfalz"}},{"name":"Hasenweg","postalCode":"76779","locality":"Scheibenhardt","municipality":{"key":"07334027","name":"Scheibenhardt","type":"Kreisangehörige_Gemeinde"},"district":{"key":"07334","name":"Germersheim","type":"Landkreis"},"federalState":{"key":"07","name":"Rheinland-Pfalz"}},{"name":"Hauptstr.","postalCode":"76779","locality":"Scheibenhardt","municipality":{"key":"07334027","name":"Scheibenhardt","type":"Kreisangehörige_Gemeinde"},"district":{"key":"07334","name":"Germersheim","type":"Landkreis"},"federalState":{"key":"07","name":"Rheinland-Pfalz"}},{"name":"Im Entengrund","postalCode":"76726","locality":"Germersheim","municipality":{"key":"07334007","name":"Germersheim, Stadt","type":"Stadt"},"district":{"key":"07334","name":"Germersheim","type":"Landkreis"},"federalState":{"key":"07","name":"Rheinland-Pfalz"}},{"name":"Im Kehlhorst","postalCode":"76726","locality":"Germersheim","municipality":{"key":"07334007","name":"Germersheim, Stadt","type":"Stadt"},"district":{"key":"07334","name":"Germersheim","type":"Landkreis"},"federalState":{"key":"07","name":"Rheinland-Pfalz"}},{"name":"Im Kleinrhein","postalCode":"76726","locality":"Germersheim","municipality":{"key":"07334007","name":"Germersheim, Stadt","type":"Stadt"},"district":{"key":"07334","name":"Germersheim","type":"Landkreis"},"federalState":{"key":"07","name":"Rheinland-Pfalz"}},{"name":"Im Oberwald","postalCode":"76726","locality":"Germersheim","municipality":{"key":"07334007","name":"Germersheim, Stadt","type":"Stadt"},"district":{"key":"07334","name":"Germersheim","type":"Landkreis"},"federalState":{"key":"07","name":"Rheinland-Pfalz"}},{"name":"Im Roth","postalCode":"76726","locality":"Germersheim","municipality":{"key":"07334007","name":"Germersheim, Stadt","type":"Stadt"},"district":{"key":"07334","name":"Germersheim","type":"Landkreis"},"federalState":{"key":"07","name":"Rheinland-Pfalz"}},{"name":"Im Sandfeld","postalCode":"76726","locality":"Germersheim","municipality":{"key":"07334007","name":"Germersheim, Stadt","type":"Stadt"},"district":{"key":"07334","name":"Germersheim","type":"Landkreis"},"federalState":{"key":"07","name":"Rheinland-Pfalz"}},{"name":"In der kleinen Au","postalCode":"76726","locality":"Germersheim","municipality":{"key":"07334007","name":"Germersheim, Stadt","type":"Stadt"},"district":{"key":"07334","name":"Germersheim","type":"Landkreis"},"federalState":{"key":"07","name":"Rheinland-Pfalz"}},{"name":"In der Kranenbleis","postalCode":"76726","locality":"Germersheim","municipality":{"key":"07334007","name":"Germersheim, Stadt","type":"Stadt"},"district":{"key":"07334","name":"Germersheim","type":"Landkreis"},"federalState":{"key":"07","name":"Rheinland-Pfalz"}},{"name":"In der Rheinaue","postalCode":"76726","locality":"Germersheim","municipality":{"key":"07334007","name":"Germersheim, Stadt","type":"Stadt"},"district":{"key":"07334","name":"Germersheim","type":"Landkreis"},"federalState":{"key":"07","name":"Rheinland-Pfalz"}},{"name":"Infanterie-Galerie","postalCode":"76726","locality":"Germersheim","municipality":{"key":"07334007","name":"Germersheim, Stadt","type":"Stadt"},"district":{"key":"07334","name":"Germersheim","type":"Landkreis"},"federalState":{"key":"07","name":"Rheinland-Pfalz"}},{"name":"Jakobspfad","postalCode":"76779","locality":"Scheibenhardt","municipality":{"key":"07334027","name":"Scheibenhardt","type":"Kreisangehörige_Gemeinde"},"district":{"key":"07334","name":"Germersheim","type":"Landkreis"},"federalState":{"key":"07","name":"Rheinland-Pfalz"}},{"name":"Kandler Sandstr.","postalCode":"76779","locality":"Scheibenhardt","municipality":{"key":"07334027","name":"Scheibenhardt","type":"Kreisangehörige_Gemeinde"},"district":{"key":"07334","name":"Germersheim","type":"Landkreis"},"federalState":{"key":"07","name":"Rheinland-Pfalz"}},{"name":"Lauterweg","postalCode":"76779","locality":"Scheibenhardt","municipality":{"key":"07334027","name":"Scheibenhardt","type":"Kreisangehörige_Gemeinde"},"district":{"key":"07334","name":"Germersheim","type":"Landkreis"},"federalState":{"key":"07","name":"Rheinland-Pfalz"}},{"name":"Maxstr.","postalCode":"76779","locality":"Scheibenhardt","municipality":{"key":"07334027","name":"Scheibenhardt","type":"Kreisangehörige_Gemeinde"},"district":{"key":"07334","name":"Germersheim","type":"Landkreis"},"federalState":{"key":"07","name":"Rheinland-Pfalz"}},{"name":"Mühlweg","postalCode":"76779","locality":"Scheibenhardt","municipality":{"key":"07334027","name":"Scheibenhardt","type":"Kreisangehörige_Gemeinde"},"district":{"key":"07334","name":"Germersheim","type":"Landkreis"},"federalState":{"key":"07","name":"Rheinland-Pfalz"}},{"name":"Nachtigallenweg","postalCode":"76726","locality":"Germersheim","municipality":{"key":"07334007","name":"Germersheim, Stadt","type":"Stadt"},"district":{"key":"07334","name":"Germersheim","type":"Landkreis"},"federalState":{"key":"07","name":"Rheinland-Pfalz"}},{"name":"Neuer Kinderspielplatz","postalCode":"76726","locality":"Germersheim","municipality":{"key":"07334007","name":"Germersheim, Stadt","type":"Stadt"},"district":{"key":"07334","name":"Germersheim","type":"Landkreis"},"federalState":{"key":"07","name":"Rheinland-Pfalz"}},{"name":"Neustr.","postalCode":"76726","locality":"Germersheim","municipality":{"key":"07334007","name":"Germersheim, Stadt","type":"Stadt"},"district":{"key":"07334","name":"Germersheim","type":"Landkreis"},"federalState":{"key":"07","name":"Rheinland-Pfalz"}},{"name":"Obere Hardt","postalCode":"76779","locality":"Scheibenhardt","municipality":{"key":"07334027","name":"Scheibenhardt","type":"Kreisangehörige_Gemeinde"},"district":{"key":"07334","name":"Germersheim","type":"Landkreis"},"federalState":{"key":"07","name":"Rheinland-Pfalz"}},{"name":"Pappelweg","postalCode":"76726","locality":"Germersheim","municipality":{"key":"07334007","name":"Germersheim, Stadt","type":"Stadt"},"district":{"key":"07334","name":"Germersheim","type":"Landkreis"},"federalState":{"key":"07","name":"Rheinland-Pfalz"}},{"name":"Paradeplatz","postalCode":"76726","locality":"Germersheim","municipality":{"key":"07334007","name":"Germersheim, Stadt","type":"Stadt"},"district":{"key":"07334","name":"Germersheim","type":"Landkreis"},"federalState":{"key":"07","name":"Rheinland-Pfalz"}},{"name":"Pater-Bruno-Moos-Str.","postalCode":"76726","locality":"Germersheim","municipality":{"key":"07334007","name":"Germersheim, Stadt","type":"Stadt"},"district":{"key":"07334","name":"Germersheim","type":"Landkreis"},"federalState":{"key":"07","name":"Rheinland-Pfalz"}},{"name":"Pater-Mayer-Str.","postalCode":"76726","locality":"Germersheim","municipality":{"key":"07334007","name":"Germersheim, Stadt","type":"Stadt"},"district":{"key":"07334","name":"Germersheim","type":"Landkreis"},"federalState":{"key":"07","name":"Rheinland-Pfalz"}},{"name":"Peter-Altmeier-Ring","postalCode":"76726","locality":"Germersheim","municipality":{"key":"07334007","name":"Germersheim, Stadt","type":"Stadt"},"district":{"key":"07334","name":"Germersheim","type":"Landkreis"},"federalState":{"key":"07","name":"Rheinland-Pfalz"}},{"name":"Pfarrer-Lang-Str.","postalCode":"76726","locality":"Germersheim","municipality":{"key":"07334007","name":"Germersheim, Stadt","type":"Stadt"},"district":{"key":"07334","name":"Germersheim","type":"Landkreis"},"federalState":{"key":"07","name":"Rheinland-Pfalz"}},{"name":"Pfarrgasse","postalCode":"76726","locality":"Germersheim","municipality":{"key":"07334007","name":"Germersheim, Stadt","type":"Stadt"},"district":{"key":"07334","name":"Germersheim","type":"Landkreis"},"federalState":{"key":"07","name":"Rheinland-Pfalz"}},{"name":"Pionierweg","postalCode":"76726","locality":"Germersheim","municipality":{"key":"07334007","name":"Germersheim, Stadt","type":"Stadt"},"district":{"key":"07334","name":"Germersheim","type":"Landkreis"},"federalState":{"key":"07","name":"Rheinland-Pfalz"}},{"name":"Platanenweg","postalCode":"76726","locality":"Germersheim","municipality":{"key":"07334007","name":"Germersheim, Stadt","type":"Stadt"},"district":{"key":"07334","name":"Germersheim","type":"Landkreis"},"federalState":{"key":"07","name":"Rheinland-Pfalz"}},{"name":"Posthiusstr.","postalCode":"76726","locality":"Germersheim","municipality":{"key":"07334007","name":"Germersheim, Stadt","type":"Stadt"},"district":{"key":"07334","name":"Germersheim","type":"Landkreis"},"federalState":{"key":"07","name":"Rheinland-Pfalz"}},{"name":"Queichstr.","postalCode":"76726","locality":"Germersheim","municipality":{"key":"07334007","name":"Germersheim, Stadt","type":"Stadt"},"district":{"key":"07334","name":"Germersheim","type":"Landkreis"},"federalState":{"key":"07","name":"Rheinland-Pfalz"}},{"name":"Raiffeisenstr.","postalCode":"76726","locality":"Germersheim","municipality":{"key":"07334007","name":"Germersheim, Stadt","type":"Stadt"},"district":{"key":"07334","name":"Germersheim","type":"Landkreis"},"federalState":{"key":"07","name":"Rheinland-Pfalz"}},{"name":"Rathausplatz","postalCode":"76726","locality":"Germersheim","municipality":{"key":"07334007","name":"Germersheim, Stadt","type":"Stadt"},"district":{"key":"07334","name":"Germersheim","type":"Landkreis"},"federalState":{"key":"07","name":"Rheinland-Pfalz"}},{"name":"Reduitstr.","postalCode":"76726","locality":"Germersheim","municipality":{"key":"07334007","name":"Germersheim, Stadt","type":"Stadt"},"district":{"key":"07334","name":"Germersheim","type":"Landkreis"},"federalState":{"key":"07","name":"Rheinland-Pfalz"}},{"name":"Reußstr.","postalCode":"76726","locality":"Germersheim","municipality":{"key":"07334007","name":"Germersheim, Stadt","type":"Stadt"},"district":{"key":"07334","name":"Germersheim","type":"Landkreis"},"federalState":{"key":"07","name":"Rheinland-Pfalz"}},{"name":"Rheinbrückenstr.","postalCode":"76726","locality":"Germersheim","municipality":{"key":"07334007","name":"Germersheim, Stadt","type":"Stadt"},"district":{"key":"07334","name":"Germersheim","type":"Landkreis"},"federalState":{"key":"07","name":"Rheinland-Pfalz"}},{"name":"Rheinsheimer Str.","postalCode":"76726","locality":"Germersheim","municipality":{"key":"07334007","name":"Germersheim, Stadt","type":"Stadt"},"district":{"key":"07334","name":"Germersheim","type":"Landkreis"},"federalState":{"key":"07","name":"Rheinland-Pfalz"}},{"name":"Rheinstr.","postalCode":"76726","locality":"Germersheim","municipality":{"key":"07334007","name":"Germersheim, Stadt","type":"Stadt"},"district":{"key":"07334","name":"Germersheim","type":"Landkreis"},"federalState":{"key":"07","name":"Rheinland-Pfalz"}},{"name":"Richard-Wagner-Str.","postalCode":"76726","locality":"Germersheim","municipality":{"key":"07334007","name":"Germersheim, Stadt","type":"Stadt"},"district":{"key":"07334","name":"Germersheim","type":"Landkreis"},"federalState":{"key":"07","name":"Rheinland-Pfalz"}},{"name":"Richthofenstr.","postalCode":"76726","locality":"Germersheim","municipality":{"key":"07334007","name":"Germersheim, Stadt","type":"Stadt"},"district":{"key":"07334","name":"Germersheim","type":"Landkreis"},"federalState":{"key":"07","name":"Rheinland-Pfalz"}},{"name":"Rietburgstr.","postalCode":"76726","locality":"Germersheim","municipality":{"key":"07334007","name":"Germersheim, Stadt","type":"Stadt"},"district":{"key":"07334","name":"Germersheim","type":"Landkreis"},"federalState":{"key":"07","name":"Rheinland-Pfalz"}},{"name":"Ritter-von-Reichel-Str.","postalCode":"76726","locality":"Germersheim","municipality":{"key":"07334007","name":"Germersheim, Stadt","type":"Stadt"},"district":{"key":"07334","name":"Germersheim","type":"Landkreis"},"federalState":{"key":"07","name":"Rheinland-Pfalz"}},{"name":"Ritter-von-Schmauß-Str.","postalCode":"76726","locality":"Germersheim","municipality":{"key":"07334007","name":"Germersheim, Stadt","type":"Stadt"},"district":{"key":"07334","name":"Germersheim","type":"Landkreis"},"federalState":{"key":"07","name":"Rheinland-Pfalz"}},{"name":"Ritzhauptstr.","postalCode":"76726","locality":"Germersheim","municipality":{"key":"07334007","name":"Germersheim, Stadt","type":"Stadt"},"district":{"key":"07334","name":"Germersheim","type":"Landkreis"},"federalState":{"key":"07","name":"Rheinland-Pfalz"}},{"name":"Robert-Koch-Str.","postalCode":"76726","locality":"Germersheim","municipality":{"key":"07334007","name":"Germersheim, Stadt","type":"Stadt"},"district":{"key":"07334","name":"Germersheim","type":"Landkreis"},"federalState":{"key":"07","name":"Rheinland-Pfalz"}},{"name":"Robert-Schuman-Str.","postalCode":"76726","locality":"Germersheim","municipality":{"key":"07334007","name":"Germersheim, Stadt","type":"Stadt"},"district":{"key":"07334","name":"Germersheim","type":"Landkreis"},"federalState":{"key":"07","name":"Rheinland-Pfalz"}},{"name":"Römerweg","postalCode":"76726","locality":"Germersheim","municipality":{"key":"07334007","name":"Germersheim, Stadt","type":"Stadt"},"district":{"key":"07334","name":"Germersheim","type":"Landkreis"},"federalState":{"key":"07","name":"Rheinland-Pfalz"}},{"name":"Röntgenstr.","postalCode":"76726","locality":"Germersheim","municipality":{"key":"07334007","name":"Germersheim, Stadt","type":"Stadt"},"district":{"key":"07334","name":"Germersheim","type":"Landkreis"},"federalState":{"key":"07","name":"Rheinland-Pfalz"}},{"name":"Rosenstr.","postalCode":"76726","locality":"Germersheim","municipality":{"key":"07334007","name":"Germersheim, Stadt","type":"Stadt"},"district":{"key":"07334","name":"Germersheim","type":"Landkreis"},"federalState":{"key":"07","name":"Rheinland-Pfalz"}},{"name":"Rübenstr.","postalCode":"76726","locality":"Germersheim","municipality":{"key":"07334007","name":"Germersheim, Stadt","type":"Stadt"},"district":{"key":"07334","name":"Germersheim","type":"Landkreis"},"federalState":{"key":"07","name":"Rheinland-Pfalz"}},{"name":"Rudolf-von-Habsburg-Str.","postalCode":"76726","locality":"Germersheim","municipality":{"key":"07334007","name":"Germersheim, Stadt","type":"Stadt"},"district":{"key":"07334","name":"Germersheim","type":"Landkreis"},"federalState":{"key":"07","name":"Rheinland-Pfalz"}},{"name":"Salmbacher Passage","postalCode":"76779","locality":"Scheibenhardt","municipality":{"key":"07334027","name":"Scheibenhardt","type":"Kreisangehörige_Gemeinde"},"district":{"key":"07334","name":"Germersheim","type":"Landkreis"},"federalState":{"key":"07","name":"Rheinland-Pfalz"}},{"name":"Seufzerallee","postalCode":"76779","locality":"Scheibenhardt","municipality":{"key":"07334027","name":"Scheibenhardt","type":"Kreisangehörige_Gemeinde"},"district":{"key":"07334","name":"Germersheim","type":"Landkreis"},"federalState":{"key":"07","name":"Rheinland-Pfalz"}},{"name":"Theobaldstr.","postalCode":"76726","locality":"Germersheim","municipality":{"key":"07334007","name":"Germersheim, Stadt","type":"Stadt"},"district":{"key":"07334","name":"Germersheim","type":"Landkreis"},"federalState":{"key":"07","name":"Rheinland-Pfalz"}},{"name":"Theodor-Heuss-Str.","postalCode":"76726","locality":"Germersheim","municipality":{"key":"07334007","name":"Germersheim, Stadt","type":"Stadt"},"district":{"key":"07334","name":"Germersheim","type":"Landkreis"},"federalState":{"key":"07","name":"Rheinland-Pfalz"}},{"name":"Thomas-Dehler-Str.","postalCode":"76726","locality":"Germersheim","municipality":{"key":"07334007","name":"Germersheim, Stadt","type":"Stadt"},"district":{"key":"07334","name":"Germersheim","type":"Landkreis"},"federalState":{"key":"07","name":"Rheinland-Pfalz"}},{"name":"Tilsiter Str.","postalCode":"76726","locality":"Germersheim","municipality":{"key":"07334007","name":"Germersheim, Stadt","type":"Stadt"},"district":{"key":"07334","name":"Germersheim","type":"Landkreis"},"federalState":{"key":"07","name":"Rheinland-Pfalz"}},{"name":"Tournuser Platz","postalCode":"76726","locality":"Germersheim","municipality":{"key":"07334007","name":"Germersheim, Stadt","type":"Stadt"},"district":{"key":"07334","name":"Germersheim","type":"Landkreis"},"federalState":{"key":"07","name":"Rheinland-Pfalz"}},{"name":"Trifelsstr.","postalCode":"76726","locality":"Germersheim","municipality":{"key":"07334007","name":"Germersheim, Stadt","type":"Stadt"},"district":{"key":"07334","name":"Germersheim","type":"Landkreis"},"federalState":{"key":"07","name":"Rheinland-Pfalz"}},{"name":"Trommelweg","postalCode":"76726","locality":"Germersheim","municipality":{"key":"07334007","name":"Germersheim, Stadt","type":"Stadt"},"district":{"key":"07334","name":"Germersheim","type":"Landkreis"},"federalState":{"key":"07","name":"Rheinland-Pfalz"}},{"name":"Tulpenstr.","postalCode":"76726","locality":"Germersheim","municipality":{"key":"07334007","name":"Germersheim, Stadt","type":"Stadt"},"district":{"key":"07334","name":"Germersheim","type":"Landkreis"},"federalState":{"key":"07","name":"Rheinland-Pfalz"}},{"name":"Tunnel","postalCode":"76726","locality":"Germersheim","municipality":{"key":"07334007","name":"Germersheim, Stadt","type":"Stadt"},"district":{"key":"07334","name":"Germersheim","type":"Landkreis"},"federalState":{"key":"07","name":"Rheinland-Pfalz"}},{"name":"Ulmenstr.","postalCode":"76726","locality":"Germersheim","municipality":{"key":"07334007","name":"Germersheim, Stadt","type":"Stadt"},"district":{"key":"07334","name":"Germersheim","type":"Landkreis"},"federalState":{"key":"07","name":"Rheinland-Pfalz"}},{"name":"Vincentistr.","postalCode":"76726","locality":"Germersheim","municipality":{"key":"07334007","name":"Germersheim, Stadt","type":"Stadt"},"district":{"key":"07334","name":"Germersheim","type":"Landkreis"},"federalState":{"key":"07","name":"Rheinland-Pfalz"}},{"name":"Waldstr.","postalCode":"76779","locality":"Scheibenhardt","municipality":{"key":"07334027","name":"Scheibenhardt","type":"Kreisangehörige_Gemeinde"},"district":{"key":"07334","name":"Germersheim","type":"Landkreis"},"federalState":{"key":"07","name":"Rheinland-Pfalz"}},{"name":"Ysenburgstr.","postalCode":"76726","locality":"Germersheim","municipality":{"key":"07334007","name":"Germersheim, Stadt","type":"Stadt"},"district":{"key":"07334","name":"Germersheim","type":"Landkreis"},"federalState":{"key":"07","name":"Rheinland-Pfalz"}},{"name":"Zollhaus","postalCode":"76779","locality":"Scheibenhardt","municipality":{"key":"07334027","name":"Scheibenhardt","type":"Kreisangehörige_Gemeinde"},"district":{"key":"07334","name":"Germersheim","type":"Landkreis"},"federalState":{"key":"07","name":"Rheinland-Pfalz"}},]