[{"name":"Alte Str.","postalCode":"27419","locality":"Groß Meckelsen","municipality":{"key":"03357017","name":"Groß Meckelsen","type":"Kreisangehörige_Gemeinde"},"district":{"key":"03357","name":"Rotenburg (Wümme)","type":"Landkreis"},"federalState":{"key":"03","name":"Niedersachsen"}},{"name":"Am Bahnhof","postalCode":"27419","locality":"Klein Meckelsen","municipality":{"key":"03357032","name":"Klein Meckelsen","type":"Kreisangehörige_Gemeinde"},"district":{"key":"03357","name":"Rotenburg (Wümme)","type":"Landkreis"},"federalState":{"key":"03","name":"Niedersachsen"}},{"name":"Am Denkmal","postalCode":"27419","locality":"Groß Meckelsen","municipality":{"key":"03357017","name":"Groß Meckelsen","type":"Kreisangehörige_Gemeinde"},"district":{"key":"03357","name":"Rotenburg (Wümme)","type":"Landkreis"},"federalState":{"key":"03","name":"Niedersachsen"}},{"name":"Am Kuhbach","postalCode":"27419","locality":"Groß Meckelsen","municipality":{"key":"03357017","name":"Groß Meckelsen","type":"Kreisangehörige_Gemeinde"},"district":{"key":"03357","name":"Rotenburg (Wümme)","type":"Landkreis"},"federalState":{"key":"03","name":"Niedersachsen"}},{"name":"Am Wald","postalCode":"27419","locality":"Groß Meckelsen","municipality":{"key":"03357017","name":"Groß Meckelsen","type":"Kreisangehörige_Gemeinde"},"district":{"key":"03357","name":"Rotenburg (Wümme)","type":"Landkreis"},"federalState":{"key":"03","name":"Niedersachsen"}},{"name":"Auf dem Wert","postalCode":"54636","locality":"Meckel","municipality":{"key":"07232077","name":"Meckel","type":"Kreisangehörige_Gemeinde"},"district":{"key":"07232","name":"Eifelkreis Bitburg-Prüm","type":"Landkreis"},"federalState":{"key":"07","name":"Rheinland-Pfalz"}},{"name":"Bahnhofstr.","postalCode":"27419","locality":"Groß Meckelsen","municipality":{"key":"03357017","name":"Groß Meckelsen","type":"Kreisangehörige_Gemeinde"},"district":{"key":"03357","name":"Rotenburg (Wümme)","type":"Landkreis"},"federalState":{"key":"03","name":"Niedersachsen"}},{"name":"Bergstr.","postalCode":"54636","locality":"Meckel","municipality":{"key":"07232077","name":"Meckel","type":"Kreisangehörige_Gemeinde"},"district":{"key":"07232","name":"Eifelkreis Bitburg-Prüm","type":"Landkreis"},"federalState":{"key":"07","name":"Rheinland-Pfalz"}},{"name":"Diekberg","postalCode":"27419","locality":"Klein Meckelsen","municipality":{"key":"03357032","name":"Klein Meckelsen","type":"Kreisangehörige_Gemeinde"},"district":{"key":"03357","name":"Rotenburg (Wümme)","type":"Landkreis"},"federalState":{"key":"03","name":"Niedersachsen"}},{"name":"Dorfstr.","postalCode":"27419","locality":"Groß Meckelsen","municipality":{"key":"03357017","name":"Groß Meckelsen","type":"Kreisangehörige_Gemeinde"},"district":{"key":"03357","name":"Rotenburg (Wümme)","type":"Landkreis"},"federalState":{"key":"03","name":"Niedersachsen"}},{"name":"Dorfstr.","postalCode":"27419","locality":"Klein Meckelsen","municipality":{"key":"03357032","name":"Klein Meckelsen","type":"Kreisangehörige_Gemeinde"},"district":{"key":"03357","name":"Rotenburg (Wümme)","type":"Landkreis"},"federalState":{"key":"03","name":"Niedersachsen"}},{"name":"Eichenweg","postalCode":"27419","locality":"Klein Meckelsen","municipality":{"key":"03357032","name":"Klein Meckelsen","type":"Kreisangehörige_Gemeinde"},"district":{"key":"03357","name":"Rotenburg (Wümme)","type":"Landkreis"},"federalState":{"key":"03","name":"Niedersachsen"}},{"name":"Eßlinger Str.","postalCode":"54636","locality":"Meckel","municipality":{"key":"07232077","name":"Meckel","type":"Kreisangehörige_Gemeinde"},"district":{"key":"07232","name":"Eifelkreis Bitburg-Prüm","type":"Landkreis"},"federalState":{"key":"07","name":"Rheinland-Pfalz"}},{"name":"Grabenfeld","postalCode":"27419","locality":"Groß Meckelsen","municipality":{"key":"03357017","name":"Groß Meckelsen","type":"Kreisangehörige_Gemeinde"},"district":{"key":"03357","name":"Rotenburg (Wümme)","type":"Landkreis"},"federalState":{"key":"03","name":"Niedersachsen"}},{"name":"Hauptstr.","postalCode":"27419","locality":"Groß Meckelsen","municipality":{"key":"03357017","name":"Groß Meckelsen","type":"Kreisangehörige_Gemeinde"},"district":{"key":"03357","name":"Rotenburg (Wümme)","type":"Landkreis"},"federalState":{"key":"03","name":"Niedersachsen"}},{"name":"Hauptstr.","postalCode":"54636","locality":"Meckel","municipality":{"key":"07232077","name":"Meckel","type":"Kreisangehörige_Gemeinde"},"district":{"key":"07232","name":"Eifelkreis Bitburg-Prüm","type":"Landkreis"},"federalState":{"key":"07","name":"Rheinland-Pfalz"}},{"name":"Heideweg","postalCode":"27419","locality":"Groß Meckelsen","municipality":{"key":"03357017","name":"Groß Meckelsen","type":"Kreisangehörige_Gemeinde"},"district":{"key":"03357","name":"Rotenburg (Wümme)","type":"Landkreis"},"federalState":{"key":"03","name":"Niedersachsen"}},{"name":"Hinter der Bahn","postalCode":"27419","locality":"Klein Meckelsen","municipality":{"key":"03357032","name":"Klein Meckelsen","type":"Kreisangehörige_Gemeinde"},"district":{"key":"03357","name":"Rotenburg (Wümme)","type":"Landkreis"},"federalState":{"key":"03","name":"Niedersachsen"}},{"name":"Hinterstr.","postalCode":"27419","locality":"Groß Meckelsen","municipality":{"key":"03357017","name":"Groß Meckelsen","type":"Kreisangehörige_Gemeinde"},"district":{"key":"03357","name":"Rotenburg (Wümme)","type":"Landkreis"},"federalState":{"key":"03","name":"Niedersachsen"}},{"name":"Hofgarten","postalCode":"54636","locality":"Meckel","municipality":{"key":"07232077","name":"Meckel","type":"Kreisangehörige_Gemeinde"},"district":{"key":"07232","name":"Eifelkreis Bitburg-Prüm","type":"Landkreis"},"federalState":{"key":"07","name":"Rheinland-Pfalz"}},{"name":"Hohen Eschen","postalCode":"27419","locality":"Klein Meckelsen","municipality":{"key":"03357032","name":"Klein Meckelsen","type":"Kreisangehörige_Gemeinde"},"district":{"key":"03357","name":"Rotenburg (Wümme)","type":"Landkreis"},"federalState":{"key":"03","name":"Niedersachsen"}},{"name":"Hohlweg","postalCode":"54636","locality":"Meckel","municipality":{"key":"07232077","name":"Meckel","type":"Kreisangehörige_Gemeinde"},"district":{"key":"07232","name":"Eifelkreis Bitburg-Prüm","type":"Landkreis"},"federalState":{"key":"07","name":"Rheinland-Pfalz"}},{"name":"Im Wieschen","postalCode":"54636","locality":"Meckel","municipality":{"key":"07232077","name":"Meckel","type":"Kreisangehörige_Gemeinde"},"district":{"key":"07232","name":"Eifelkreis Bitburg-Prüm","type":"Landkreis"},"federalState":{"key":"07","name":"Rheinland-Pfalz"}},{"name":"In der Acht","postalCode":"54636","locality":"Meckel","municipality":{"key":"07232077","name":"Meckel","type":"Kreisangehörige_Gemeinde"},"district":{"key":"07232","name":"Eifelkreis Bitburg-Prüm","type":"Landkreis"},"federalState":{"key":"07","name":"Rheinland-Pfalz"}},{"name":"Ippenser Str.","postalCode":"27419","locality":"Klein Meckelsen","municipality":{"key":"03357032","name":"Klein Meckelsen","type":"Kreisangehörige_Gemeinde"},"district":{"key":"03357","name":"Rotenburg (Wümme)","type":"Landkreis"},"federalState":{"key":"03","name":"Niedersachsen"}},{"name":"Jahnstr.","postalCode":"27419","locality":"Klein Meckelsen","municipality":{"key":"03357032","name":"Klein Meckelsen","type":"Kreisangehörige_Gemeinde"},"district":{"key":"03357","name":"Rotenburg (Wümme)","type":"Landkreis"},"federalState":{"key":"03","name":"Niedersachsen"}},{"name":"Jakobstr.","postalCode":"54636","locality":"Meckel","municipality":{"key":"07232077","name":"Meckel","type":"Kreisangehörige_Gemeinde"},"district":{"key":"07232","name":"Eifelkreis Bitburg-Prüm","type":"Landkreis"},"federalState":{"key":"07","name":"Rheinland-Pfalz"}},{"name":"Kantstr.","postalCode":"27419","locality":"Klein Meckelsen","municipality":{"key":"03357032","name":"Klein Meckelsen","type":"Kreisangehörige_Gemeinde"},"district":{"key":"03357","name":"Rotenburg (Wümme)","type":"Landkreis"},"federalState":{"key":"03","name":"Niedersachsen"}},{"name":"Kaschenbacher Str.","postalCode":"54636","locality":"Meckel","municipality":{"key":"07232077","name":"Meckel","type":"Kreisangehörige_Gemeinde"},"district":{"key":"07232","name":"Eifelkreis Bitburg-Prüm","type":"Landkreis"},"federalState":{"key":"07","name":"Rheinland-Pfalz"}},{"name":"Kirchstr.","postalCode":"54636","locality":"Meckel","municipality":{"key":"07232077","name":"Meckel","type":"Kreisangehörige_Gemeinde"},"district":{"key":"07232","name":"Eifelkreis Bitburg-Prüm","type":"Landkreis"},"federalState":{"key":"07","name":"Rheinland-Pfalz"}},{"name":"Kleebachstr.","postalCode":"54636","locality":"Meckel","municipality":{"key":"07232077","name":"Meckel","type":"Kreisangehörige_Gemeinde"},"district":{"key":"07232","name":"Eifelkreis Bitburg-Prüm","type":"Landkreis"},"federalState":{"key":"07","name":"Rheinland-Pfalz"}},{"name":"Klosterhörn","postalCode":"27419","locality":"Klein Meckelsen","municipality":{"key":"03357032","name":"Klein Meckelsen","type":"Kreisangehörige_Gemeinde"},"district":{"key":"03357","name":"Rotenburg (Wümme)","type":"Landkreis"},"federalState":{"key":"03","name":"Niedersachsen"}},{"name":"Kuhmühler Weg","postalCode":"27419","locality":"Groß Meckelsen","municipality":{"key":"03357017","name":"Groß Meckelsen","type":"Kreisangehörige_Gemeinde"},"district":{"key":"03357","name":"Rotenburg (Wümme)","type":"Landkreis"},"federalState":{"key":"03","name":"Niedersachsen"}},{"name":"Lerchenweg","postalCode":"27419","locality":"Klein Meckelsen","municipality":{"key":"03357032","name":"Klein Meckelsen","type":"Kreisangehörige_Gemeinde"},"district":{"key":"03357","name":"Rotenburg (Wümme)","type":"Landkreis"},"federalState":{"key":"03","name":"Niedersachsen"}},{"name":"Lönsweg","postalCode":"27419","locality":"Klein Meckelsen","municipality":{"key":"03357032","name":"Klein Meckelsen","type":"Kreisangehörige_Gemeinde"},"district":{"key":"03357","name":"Rotenburg (Wümme)","type":"Landkreis"},"federalState":{"key":"03","name":"Niedersachsen"}},{"name":"Meilbrücker Str.","postalCode":"54636","locality":"Meckel","municipality":{"key":"07232077","name":"Meckel","type":"Kreisangehörige_Gemeinde"},"district":{"key":"07232","name":"Eifelkreis Bitburg-Prüm","type":"Landkreis"},"federalState":{"key":"07","name":"Rheinland-Pfalz"}},{"name":"Nordstr.","postalCode":"27419","locality":"Klein Meckelsen","municipality":{"key":"03357032","name":"Klein Meckelsen","type":"Kreisangehörige_Gemeinde"},"district":{"key":"03357","name":"Rotenburg (Wümme)","type":"Landkreis"},"federalState":{"key":"03","name":"Niedersachsen"}},{"name":"Rammeweg","postalCode":"27419","locality":"Groß Meckelsen","municipality":{"key":"03357017","name":"Groß Meckelsen","type":"Kreisangehörige_Gemeinde"},"district":{"key":"03357","name":"Rotenburg (Wümme)","type":"Landkreis"},"federalState":{"key":"03","name":"Niedersachsen"}},{"name":"Ramscher Weg","postalCode":"27419","locality":"Groß Meckelsen","municipality":{"key":"03357017","name":"Groß Meckelsen","type":"Kreisangehörige_Gemeinde"},"district":{"key":"03357","name":"Rotenburg (Wümme)","type":"Landkreis"},"federalState":{"key":"03","name":"Niedersachsen"}},{"name":"Ringstr.","postalCode":"27419","locality":"Klein Meckelsen","municipality":{"key":"03357032","name":"Klein Meckelsen","type":"Kreisangehörige_Gemeinde"},"district":{"key":"03357","name":"Rotenburg (Wümme)","type":"Landkreis"},"federalState":{"key":"03","name":"Niedersachsen"}},{"name":"Schampweg","postalCode":"27419","locality":"Klein Meckelsen","municipality":{"key":"03357032","name":"Klein Meckelsen","type":"Kreisangehörige_Gemeinde"},"district":{"key":"03357","name":"Rotenburg (Wümme)","type":"Landkreis"},"federalState":{"key":"03","name":"Niedersachsen"}},{"name":"Schillerstr.","postalCode":"27419","locality":"Klein Meckelsen","municipality":{"key":"03357032","name":"Klein Meckelsen","type":"Kreisangehörige_Gemeinde"},"district":{"key":"03357","name":"Rotenburg (Wümme)","type":"Landkreis"},"federalState":{"key":"03","name":"Niedersachsen"}},{"name":"Schmiedestr.","postalCode":"54636","locality":"Meckel","municipality":{"key":"07232077","name":"Meckel","type":"Kreisangehörige_Gemeinde"},"district":{"key":"07232","name":"Eifelkreis Bitburg-Prüm","type":"Landkreis"},"federalState":{"key":"07","name":"Rheinland-Pfalz"}},{"name":"Schulstr.","postalCode":"27419","locality":"Groß Meckelsen","municipality":{"key":"03357017","name":"Groß Meckelsen","type":"Kreisangehörige_Gemeinde"},"district":{"key":"03357","name":"Rotenburg (Wümme)","type":"Landkreis"},"federalState":{"key":"03","name":"Niedersachsen"}},{"name":"Schulstr.","postalCode":"27419","locality":"Klein Meckelsen","municipality":{"key":"03357032","name":"Klein Meckelsen","type":"Kreisangehörige_Gemeinde"},"district":{"key":"03357","name":"Rotenburg (Wümme)","type":"Landkreis"},"federalState":{"key":"03","name":"Niedersachsen"}},{"name":"Siedlerstr.","postalCode":"27419","locality":"Groß Meckelsen","municipality":{"key":"03357017","name":"Groß Meckelsen","type":"Kreisangehörige_Gemeinde"},"district":{"key":"03357","name":"Rotenburg (Wümme)","type":"Landkreis"},"federalState":{"key":"03","name":"Niedersachsen"}},{"name":"Tannenweg","postalCode":"27419","locality":"Groß Meckelsen","municipality":{"key":"03357017","name":"Groß Meckelsen","type":"Kreisangehörige_Gemeinde"},"district":{"key":"03357","name":"Rotenburg (Wümme)","type":"Landkreis"},"federalState":{"key":"03","name":"Niedersachsen"}},{"name":"Thieweg","postalCode":"27419","locality":"Klein Meckelsen","municipality":{"key":"03357032","name":"Klein Meckelsen","type":"Kreisangehörige_Gemeinde"},"district":{"key":"03357","name":"Rotenburg (Wümme)","type":"Landkreis"},"federalState":{"key":"03","name":"Niedersachsen"}},{"name":"Volkenser Weg","postalCode":"27419","locality":"Groß Meckelsen","municipality":{"key":"03357017","name":"Groß Meckelsen","type":"Kreisangehörige_Gemeinde"},"district":{"key":"03357","name":"Rotenburg (Wümme)","type":"Landkreis"},"federalState":{"key":"03","name":"Niedersachsen"}},{"name":"Westend","postalCode":"27419","locality":"Klein Meckelsen","municipality":{"key":"03357032","name":"Klein Meckelsen","type":"Kreisangehörige_Gemeinde"},"district":{"key":"03357","name":"Rotenburg (Wümme)","type":"Landkreis"},"federalState":{"key":"03","name":"Niedersachsen"}},{"name":"Wiesenbusch","postalCode":"27419","locality":"Klein Meckelsen","municipality":{"key":"03357032","name":"Klein Meckelsen","type":"Kreisangehörige_Gemeinde"},"district":{"key":"03357","name":"Rotenburg (Wümme)","type":"Landkreis"},"federalState":{"key":"03","name":"Niedersachsen"}},{"name":"Zum Eichenhof","postalCode":"27419","locality":"Groß Meckelsen","municipality":{"key":"03357017","name":"Groß Meckelsen","type":"Kreisangehörige_Gemeinde"},"district":{"key":"03357","name":"Rotenburg (Wümme)","type":"Landkreis"},"federalState":{"key":"03","name":"Niedersachsen"}},{"name":"Zum Schwarzen Kamp","postalCode":"27419","locality":"Klein Meckelsen","municipality":{"key":"03357032","name":"Klein Meckelsen","type":"Kreisangehörige_Gemeinde"},"district":{"key":"03357","name":"Rotenburg (Wümme)","type":"Landkreis"},"federalState":{"key":"03","name":"Niedersachsen"}},]