[{"key":"10017253","name":"Bas de Scherwyl","postalCode":"1634","locality":"La Roche FR","commune":{"key":"2149","name":"La Roche","shortName":"La Roche"},"district":{"key":"1003","name":"District de la Gruyère"},"canton":{"key":"10","code":"FR","name":"Fribourg / Freiburg"},"status":"Real"},{"key":"10253125","name":"Bas du Riau","postalCode":"1634","locality":"La Roche FR","commune":{"key":"2149","name":"La Roche","shortName":"La Roche"},"district":{"key":"1003","name":"District de la Gruyère"},"canton":{"key":"10","code":"FR","name":"Fribourg / Freiburg"},"status":"Real"},{"key":"10253130","name":"Bas du Steckel","postalCode":"1634","locality":"La Roche FR","commune":{"key":"2149","name":"La Roche","shortName":"La Roche"},"district":{"key":"1003","name":"District de la Gruyère"},"canton":{"key":"10","code":"FR","name":"Fribourg / Freiburg"},"status":"Real"},{"key":"10253134","name":"Belle Cierne","postalCode":"1634","locality":"La Roche FR","commune":{"key":"2149","name":"La Roche","shortName":"La Roche"},"district":{"key":"1003","name":"District de la Gruyère"},"canton":{"key":"10","code":"FR","name":"Fribourg / Freiburg"},"status":"Real"},{"key":"10253139","name":"Brendli","postalCode":"1634","locality":"La Roche FR","commune":{"key":"2149","name":"La Roche","shortName":"La Roche"},"district":{"key":"1003","name":"District de la Gruyère"},"canton":{"key":"10","code":"FR","name":"Fribourg / Freiburg"},"status":"Real"},{"key":"10252423","name":"Chalet La Berra","postalCode":"1634","locality":"La Roche FR","commune":{"key":"2149","name":"La Roche","shortName":"La Roche"},"district":{"key":"1003","name":"District de la Gruyère"},"canton":{"key":"10","code":"FR","name":"Fribourg / Freiburg"},"status":"Real"},{"key":"10253140","name":"Charbonnières","postalCode":"1634","locality":"La Roche FR","commune":{"key":"2149","name":"La Roche","shortName":"La Roche"},"district":{"key":"1003","name":"District de la Gruyère"},"canton":{"key":"10","code":"FR","name":"Fribourg / Freiburg"},"status":"Real"},{"key":"10144367","name":"Chemin de la Rugi","postalCode":"1634","locality":"La Roche FR","commune":{"key":"2149","name":"La Roche","shortName":"La Roche"},"district":{"key":"1003","name":"District de la Gruyère"},"canton":{"key":"10","code":"FR","name":"Fribourg / Freiburg"},"status":"Real"},{"key":"10144348","name":"Chemin des Combes","postalCode":"1634","locality":"La Roche FR","commune":{"key":"2149","name":"La Roche","shortName":"La Roche"},"district":{"key":"1003","name":"District de la Gruyère"},"canton":{"key":"10","code":"FR","name":"Fribourg / Freiburg"},"status":"Real"},{"key":"10144368","name":"Chemin des Frandières","postalCode":"1634","locality":"La Roche FR","commune":{"key":"2149","name":"La Roche","shortName":"La Roche"},"district":{"key":"1003","name":"District de la Gruyère"},"canton":{"key":"10","code":"FR","name":"Fribourg / Freiburg"},"status":"Real"},{"key":"10151818","name":"Chemin des Papauses","postalCode":"1634","locality":"La Roche FR","commune":{"key":"2149","name":"La Roche","shortName":"La Roche"},"district":{"key":"1003","name":"District de la Gruyère"},"canton":{"key":"10","code":"FR","name":"Fribourg / Freiburg"},"status":"Real"},{"key":"10151819","name":"Chemin du Bas du Riau","postalCode":"1634","locality":"La Roche FR","commune":{"key":"2149","name":"La Roche","shortName":"La Roche"},"district":{"key":"1003","name":"District de la Gruyère"},"canton":{"key":"10","code":"FR","name":"Fribourg / Freiburg"},"status":"Real"},{"key":"10151820","name":"Chemin du Châtatrey","postalCode":"1634","locality":"La Roche FR","commune":{"key":"2149","name":"La Roche","shortName":"La Roche"},"district":{"key":"1003","name":"District de la Gruyère"},"canton":{"key":"10","code":"FR","name":"Fribourg / Freiburg"},"status":"Real"},{"key":"10151822","name":"Chemin du Petit Bois","postalCode":"1634","locality":"La Roche FR","commune":{"key":"2149","name":"La Roche","shortName":"La Roche"},"district":{"key":"1003","name":"District de la Gruyère"},"canton":{"key":"10","code":"FR","name":"Fribourg / Freiburg"},"status":"Real"},{"key":"10151823","name":"Chemin du Poyet","postalCode":"1634","locality":"La Roche FR","commune":{"key":"2149","name":"La Roche","shortName":"La Roche"},"district":{"key":"1003","name":"District de la Gruyère"},"canton":{"key":"10","code":"FR","name":"Fribourg / Freiburg"},"status":"Real"},{"key":"10151824","name":"Chemin du Stand","postalCode":"1634","locality":"La Roche FR","commune":{"key":"2149","name":"La Roche","shortName":"La Roche"},"district":{"key":"1003","name":"District de la Gruyère"},"canton":{"key":"10","code":"FR","name":"Fribourg / Freiburg"},"status":"Real"},{"key":"10151825","name":"Chemin du Stoutz","postalCode":"1634","locality":"La Roche FR","commune":{"key":"2149","name":"La Roche","shortName":"La Roche"},"district":{"key":"1003","name":"District de la Gruyère"},"canton":{"key":"10","code":"FR","name":"Fribourg / Freiburg"},"status":"Real"},{"key":"10253144","name":"Cierne du Berret","postalCode":"1634","locality":"La Roche FR","commune":{"key":"2149","name":"La Roche","shortName":"La Roche"},"district":{"key":"1003","name":"District de la Gruyère"},"canton":{"key":"10","code":"FR","name":"Fribourg / Freiburg"},"status":"Real"},{"key":"10253149","name":"Cierne du Grand Pra","postalCode":"1634","locality":"La Roche FR","commune":{"key":"2149","name":"La Roche","shortName":"La Roche"},"district":{"key":"1003","name":"District de la Gruyère"},"canton":{"key":"10","code":"FR","name":"Fribourg / Freiburg"},"status":"Real"},{"key":"10253150","name":"Cierne du Lan","postalCode":"1634","locality":"La Roche FR","commune":{"key":"2149","name":"La Roche","shortName":"La Roche"},"district":{"key":"1003","name":"District de la Gruyère"},"canton":{"key":"10","code":"FR","name":"Fribourg / Freiburg"},"status":"Real"},{"key":"10253154","name":"Commun des Fornys","postalCode":"1634","locality":"La Roche FR","commune":{"key":"2149","name":"La Roche","shortName":"La Roche"},"district":{"key":"1003","name":"District de la Gruyère"},"canton":{"key":"10","code":"FR","name":"Fribourg / Freiburg"},"status":"Real"},{"key":"10253157","name":"Cousimbert des Particuliers","postalCode":"1634","locality":"La Roche FR","commune":{"key":"2149","name":"La Roche","shortName":"La Roche"},"district":{"key":"1003","name":"District de la Gruyère"},"canton":{"key":"10","code":"FR","name":"Fribourg / Freiburg"},"status":"Real"},{"key":"10253162","name":"Creux de la Maula","postalCode":"1634","locality":"La Roche FR","commune":{"key":"2149","name":"La Roche","shortName":"La Roche"},"district":{"key":"1003","name":"District de la Gruyère"},"canton":{"key":"10","code":"FR","name":"Fribourg / Freiburg"},"status":"Real"},{"key":"10253165","name":"Crismatta","postalCode":"1634","locality":"La Roche FR","commune":{"key":"2149","name":"La Roche","shortName":"La Roche"},"district":{"key":"1003","name":"District de la Gruyère"},"canton":{"key":"10","code":"FR","name":"Fribourg / Freiburg"},"status":"Real"},{"key":"10088675","name":"En Allière","postalCode":"1634","locality":"La Roche FR","commune":{"key":"2149","name":"La Roche","shortName":"La Roche"},"district":{"key":"1003","name":"District de la Gruyère"},"canton":{"key":"10","code":"FR","name":"Fribourg / Freiburg"},"status":"Real"},{"key":"10253175","name":"Gîte du Commun","postalCode":"1634","locality":"La Roche FR","commune":{"key":"2149","name":"La Roche","shortName":"La Roche"},"district":{"key":"1003","name":"District de la Gruyère"},"canton":{"key":"10","code":"FR","name":"Fribourg / Freiburg"},"status":"Real"},{"key":"10253179","name":"Grande Cierne","postalCode":"1634","locality":"La Roche FR","commune":{"key":"2149","name":"La Roche","shortName":"La Roche"},"district":{"key":"1003","name":"District de la Gruyère"},"canton":{"key":"10","code":"FR","name":"Fribourg / Freiburg"},"status":"Real"},{"key":"10126287","name":"Haut de Scherwyl","postalCode":"1634","locality":"La Roche FR","commune":{"key":"2149","name":"La Roche","shortName":"La Roche"},"district":{"key":"1003","name":"District de la Gruyère"},"canton":{"key":"10","code":"FR","name":"Fribourg / Freiburg"},"status":"Real"},{"key":"10253182","name":"Hellgraben","postalCode":"1634","locality":"La Roche FR","commune":{"key":"2149","name":"La Roche","shortName":"La Roche"},"district":{"key":"1003","name":"District de la Gruyère"},"canton":{"key":"10","code":"FR","name":"Fribourg / Freiburg"},"status":"Real"},{"key":"10259315","name":"Impasse du Bas du Steckel","postalCode":"1634","locality":"La Roche FR","commune":{"key":"2149","name":"La Roche","shortName":"La Roche"},"district":{"key":"1003","name":"District de la Gruyère"},"canton":{"key":"10","code":"FR","name":"Fribourg / Freiburg"},"status":"Planned"},{"key":"10151804","name":"Impasse du Moulin","postalCode":"1634","locality":"La Roche FR","commune":{"key":"2149","name":"La Roche","shortName":"La Roche"},"district":{"key":"1003","name":"District de la Gruyère"},"canton":{"key":"10","code":"FR","name":"Fribourg / Freiburg"},"status":"Real"},{"key":"10198858","name":"Impasse du Petit Bey","postalCode":"1634","locality":"La Roche FR","commune":{"key":"2149","name":"La Roche","shortName":"La Roche"},"district":{"key":"1003","name":"District de la Gruyère"},"canton":{"key":"10","code":"FR","name":"Fribourg / Freiburg"},"status":"Real"},{"key":"10253187","name":"La Berra","postalCode":"1634","locality":"La Roche FR","commune":{"key":"2149","name":"La Roche","shortName":"La Roche"},"district":{"key":"1003","name":"District de la Gruyère"},"canton":{"key":"10","code":"FR","name":"Fribourg / Freiburg"},"status":"Real"},{"key":"10253189","name":"La Boustera","postalCode":"1634","locality":"La Roche FR","commune":{"key":"2149","name":"La Roche","shortName":"La Roche"},"district":{"key":"1003","name":"District de la Gruyère"},"canton":{"key":"10","code":"FR","name":"Fribourg / Freiburg"},"status":"Real"},{"key":"10253192","name":"La Bradla","postalCode":"1634","locality":"La Roche FR","commune":{"key":"2149","name":"La Roche","shortName":"La Roche"},"district":{"key":"1003","name":"District de la Gruyère"},"canton":{"key":"10","code":"FR","name":"Fribourg / Freiburg"},"status":"Real"},{"key":"10252825","name":"La Brüggera","postalCode":"1634","locality":"La Roche FR","commune":{"key":"2149","name":"La Roche","shortName":"La Roche"},"district":{"key":"1003","name":"District de la Gruyère"},"canton":{"key":"10","code":"FR","name":"Fribourg / Freiburg"},"status":"Real"},{"key":"10252828","name":"La Brünisholzena","postalCode":"1634","locality":"La Roche FR","commune":{"key":"2149","name":"La Roche","shortName":"La Roche"},"district":{"key":"1003","name":"District de la Gruyère"},"canton":{"key":"10","code":"FR","name":"Fribourg / Freiburg"},"status":"Real"},{"key":"10252830","name":"La Ciernetta","postalCode":"1634","locality":"La Roche FR","commune":{"key":"2149","name":"La Roche","shortName":"La Roche"},"district":{"key":"1003","name":"District de la Gruyère"},"canton":{"key":"10","code":"FR","name":"Fribourg / Freiburg"},"status":"Real"},{"key":"10252832","name":"La Combert","postalCode":"1634","locality":"La Roche FR","commune":{"key":"2149","name":"La Roche","shortName":"La Roche"},"district":{"key":"1003","name":"District de la Gruyère"},"canton":{"key":"10","code":"FR","name":"Fribourg / Freiburg"},"status":"Real"},{"key":"10252833","name":"La Couta","postalCode":"1634","locality":"La Roche FR","commune":{"key":"2149","name":"La Roche","shortName":"La Roche"},"district":{"key":"1003","name":"District de la Gruyère"},"canton":{"key":"10","code":"FR","name":"Fribourg / Freiburg"},"status":"Real"},{"key":"10151826","name":"La Crapauteire","postalCode":"1634","locality":"La Roche FR","commune":{"key":"2149","name":"La Roche","shortName":"La Roche"},"district":{"key":"1003","name":"District de la Gruyère"},"canton":{"key":"10","code":"FR","name":"Fribourg / Freiburg"},"status":"Real"},{"key":"10195700","name":"La Felle","postalCode":"1634","locality":"La Roche FR","commune":{"key":"2149","name":"La Roche","shortName":"La Roche"},"district":{"key":"1003","name":"District de la Gruyère"},"canton":{"key":"10","code":"FR","name":"Fribourg / Freiburg"},"status":"Real"},{"key":"10253765","name":"La Filistorfena","postalCode":"1634","locality":"La Roche FR","commune":{"key":"2149","name":"La Roche","shortName":"La Roche"},"district":{"key":"1003","name":"District de la Gruyère"},"canton":{"key":"10","code":"FR","name":"Fribourg / Freiburg"},"status":"Real"},{"key":"10253767","name":"La Franière","postalCode":"1634","locality":"La Roche FR","commune":{"key":"2149","name":"La Roche","shortName":"La Roche"},"district":{"key":"1003","name":"District de la Gruyère"},"canton":{"key":"10","code":"FR","name":"Fribourg / Freiburg"},"status":"Real"},{"key":"10198250","name":"La Gissetta","postalCode":"1634","locality":"La Roche FR","commune":{"key":"2149","name":"La Roche","shortName":"La Roche"},"district":{"key":"1003","name":"District de la Gruyère"},"canton":{"key":"10","code":"FR","name":"Fribourg / Freiburg"},"status":"Real"},{"key":"10253773","name":"La Gormanda","postalCode":"1634","locality":"La Roche FR","commune":{"key":"2149","name":"La Roche","shortName":"La Roche"},"district":{"key":"1003","name":"District de la Gruyère"},"canton":{"key":"10","code":"FR","name":"Fribourg / Freiburg"},"status":"Real"},{"key":"10253777","name":"La Guiga","postalCode":"1634","locality":"La Roche FR","commune":{"key":"2149","name":"La Roche","shortName":"La Roche"},"district":{"key":"1003","name":"District de la Gruyère"},"canton":{"key":"10","code":"FR","name":"Fribourg / Freiburg"},"status":"Real"},{"key":"10253827","name":"La Guiga","postalCode":"1634","locality":"La Roche FR","commune":{"key":"2149","name":"La Roche","shortName":"La Roche"},"district":{"key":"1003","name":"District de la Gruyère"},"canton":{"key":"10","code":"FR","name":"Fribourg / Freiburg"},"status":"Real"},{"key":"10253781","name":"La Halla","postalCode":"1634","locality":"La Roche FR","commune":{"key":"2149","name":"La Roche","shortName":"La Roche"},"district":{"key":"1003","name":"District de la Gruyère"},"canton":{"key":"10","code":"FR","name":"Fribourg / Freiburg"},"status":"Real"},{"key":"10191717","name":"La Holena","postalCode":"1634","locality":"La Roche FR","commune":{"key":"2149","name":"La Roche","shortName":"La Roche"},"district":{"key":"1003","name":"District de la Gruyère"},"canton":{"key":"10","code":"FR","name":"Fribourg / Freiburg"},"status":"Real"},{"key":"10253785","name":"La Joux","postalCode":"1634","locality":"La Roche FR","commune":{"key":"2149","name":"La Roche","shortName":"La Roche"},"district":{"key":"1003","name":"District de la Gruyère"},"canton":{"key":"10","code":"FR","name":"Fribourg / Freiburg"},"status":"Real"},{"key":"10253790","name":"La Joux de Treyvaux","postalCode":"1634","locality":"La Roche FR","commune":{"key":"2149","name":"La Roche","shortName":"La Roche"},"district":{"key":"1003","name":"District de la Gruyère"},"canton":{"key":"10","code":"FR","name":"Fribourg / Freiburg"},"status":"Real"},{"key":"10253795","name":"La Joux de Villaret","postalCode":"1634","locality":"La Roche FR","commune":{"key":"2149","name":"La Roche","shortName":"La Roche"},"district":{"key":"1003","name":"District de la Gruyère"},"canton":{"key":"10","code":"FR","name":"Fribourg / Freiburg"},"status":"Real"},{"key":"10253799","name":"La Joux sous le Cousimbert","postalCode":"1634","locality":"La Roche FR","commune":{"key":"2149","name":"La Roche","shortName":"La Roche"},"district":{"key":"1003","name":"District de la Gruyère"},"canton":{"key":"10","code":"FR","name":"Fribourg / Freiburg"},"status":"Real"},{"key":"10151827","name":"La Lenda","postalCode":"1634","locality":"La Roche FR","commune":{"key":"2149","name":"La Roche","shortName":"La Roche"},"district":{"key":"1003","name":"District de la Gruyère"},"canton":{"key":"10","code":"FR","name":"Fribourg / Freiburg"},"status":"Real"},{"key":"10253802","name":"La Müllera","postalCode":"1634","locality":"La Roche FR","commune":{"key":"2149","name":"La Roche","shortName":"La Roche"},"district":{"key":"1003","name":"District de la Gruyère"},"canton":{"key":"10","code":"FR","name":"Fribourg / Freiburg"},"status":"Real"},{"key":"10253805","name":"La Paradisa","postalCode":"1634","locality":"La Roche FR","commune":{"key":"2149","name":"La Roche","shortName":"La Roche"},"district":{"key":"1003","name":"District de la Gruyère"},"canton":{"key":"10","code":"FR","name":"Fribourg / Freiburg"},"status":"Real"},{"key":"10253808","name":"La Poferda","postalCode":"1634","locality":"La Roche FR","commune":{"key":"2149","name":"La Roche","shortName":"La Roche"},"district":{"key":"1003","name":"District de la Gruyère"},"canton":{"key":"10","code":"FR","name":"Fribourg / Freiburg"},"status":"Real"},{"key":"10253811","name":"La Richerne","postalCode":"1634","locality":"La Roche FR","commune":{"key":"2149","name":"La Roche","shortName":"La Roche"},"district":{"key":"1003","name":"District de la Gruyère"},"canton":{"key":"10","code":"FR","name":"Fribourg / Freiburg"},"status":"Real"},{"key":"10253815","name":"La Rigoletta","postalCode":"1634","locality":"La Roche FR","commune":{"key":"2149","name":"La Roche","shortName":"La Roche"},"district":{"key":"1003","name":"District de la Gruyère"},"canton":{"key":"10","code":"FR","name":"Fribourg / Freiburg"},"status":"Real"},{"key":"10253819","name":"La Rugi","postalCode":"1634","locality":"La Roche FR","commune":{"key":"2149","name":"La Roche","shortName":"La Roche"},"district":{"key":"1003","name":"District de la Gruyère"},"canton":{"key":"10","code":"FR","name":"Fribourg / Freiburg"},"status":"Real"},{"key":"10253822","name":"La Schuende","postalCode":"1634","locality":"La Roche FR","commune":{"key":"2149","name":"La Roche","shortName":"La Roche"},"district":{"key":"1003","name":"District de la Gruyère"},"canton":{"key":"10","code":"FR","name":"Fribourg / Freiburg"},"status":"Real"},{"key":"10253826","name":"Le Bey de Montsoflo","postalCode":"1634","locality":"La Roche FR","commune":{"key":"2149","name":"La Roche","shortName":"La Roche"},"district":{"key":"1003","name":"District de la Gruyère"},"canton":{"key":"10","code":"FR","name":"Fribourg / Freiburg"},"status":"Real"},{"key":"10253829","name":"Le Bey de Strublein","postalCode":"1634","locality":"La Roche FR","commune":{"key":"2149","name":"La Roche","shortName":"La Roche"},"district":{"key":"1003","name":"District de la Gruyère"},"canton":{"key":"10","code":"FR","name":"Fribourg / Freiburg"},"status":"Real"},{"key":"10253834","name":"Le Biésibach","postalCode":"1634","locality":"La Roche FR","commune":{"key":"2149","name":"La Roche","shortName":"La Roche"},"district":{"key":"1003","name":"District de la Gruyère"},"canton":{"key":"10","code":"FR","name":"Fribourg / Freiburg"},"status":"Real"},{"key":"10253837","name":"Le Brand","postalCode":"1634","locality":"La Roche FR","commune":{"key":"2149","name":"La Roche","shortName":"La Roche"},"district":{"key":"1003","name":"District de la Gruyère"},"canton":{"key":"10","code":"FR","name":"Fribourg / Freiburg"},"status":"Real"},{"key":"10253840","name":"Le Cousimbert à Remy","postalCode":"1634","locality":"La Roche FR","commune":{"key":"2149","name":"La Roche","shortName":"La Roche"},"district":{"key":"1003","name":"District de la Gruyère"},"canton":{"key":"10","code":"FR","name":"Fribourg / Freiburg"},"status":"Real"},{"key":"10170743","name":"Le Gros Cousimbert","postalCode":"1634","locality":"La Roche FR","commune":{"key":"2149","name":"La Roche","shortName":"La Roche"},"district":{"key":"1003","name":"District de la Gruyère"},"canton":{"key":"10","code":"FR","name":"Fribourg / Freiburg"},"status":"Real"},{"key":"10253844","name":"Le Kracho","postalCode":"1634","locality":"La Roche FR","commune":{"key":"2149","name":"La Roche","shortName":"La Roche"},"district":{"key":"1003","name":"District de la Gruyère"},"canton":{"key":"10","code":"FR","name":"Fribourg / Freiburg"},"status":"Real"},{"key":"10151828","name":"Le Paillesson","postalCode":"1634","locality":"La Roche FR","commune":{"key":"2149","name":"La Roche","shortName":"La Roche"},"district":{"key":"1003","name":"District de la Gruyère"},"canton":{"key":"10","code":"FR","name":"Fribourg / Freiburg"},"status":"Real"},{"key":"10253848","name":"Le Petit Cousimbert","postalCode":"1634","locality":"La Roche FR","commune":{"key":"2149","name":"La Roche","shortName":"La Roche"},"district":{"key":"1003","name":"District de la Gruyère"},"canton":{"key":"10","code":"FR","name":"Fribourg / Freiburg"},"status":"Real"},{"key":"10253871","name":"L'Epinette","postalCode":"1634","locality":"La Roche FR","commune":{"key":"2149","name":"La Roche","shortName":"La Roche"},"district":{"key":"1003","name":"District de la Gruyère"},"canton":{"key":"10","code":"FR","name":"Fribourg / Freiburg"},"status":"Real"},{"key":"10253852","name":"Le Poyet","postalCode":"1634","locality":"La Roche FR","commune":{"key":"2149","name":"La Roche","shortName":"La Roche"},"district":{"key":"1003","name":"District de la Gruyère"},"canton":{"key":"10","code":"FR","name":"Fribourg / Freiburg"},"status":"Real"},{"key":"10253857","name":"Le Pra Modiez","postalCode":"1634","locality":"La Roche FR","commune":{"key":"2149","name":"La Roche","shortName":"La Roche"},"district":{"key":"1003","name":"District de la Gruyère"},"canton":{"key":"10","code":"FR","name":"Fribourg / Freiburg"},"status":"Real"},{"key":"10253862","name":"Le Sapin","postalCode":"1634","locality":"La Roche FR","commune":{"key":"2149","name":"La Roche","shortName":"La Roche"},"district":{"key":"1003","name":"District de la Gruyère"},"canton":{"key":"10","code":"FR","name":"Fribourg / Freiburg"},"status":"Real"},{"key":"10253875","name":"Les Bieles","postalCode":"1634","locality":"La Roche FR","commune":{"key":"2149","name":"La Roche","shortName":"La Roche"},"district":{"key":"1003","name":"District de la Gruyère"},"canton":{"key":"10","code":"FR","name":"Fribourg / Freiburg"},"status":"Real"},{"key":"10253866","name":"Le Schaferle","postalCode":"1634","locality":"La Roche FR","commune":{"key":"2149","name":"La Roche","shortName":"La Roche"},"district":{"key":"1003","name":"District de la Gruyère"},"canton":{"key":"10","code":"FR","name":"Fribourg / Freiburg"},"status":"Real"},{"key":"10181483","name":"Les Chenalettes","postalCode":"1634","locality":"La Roche FR","commune":{"key":"2149","name":"La Roche","shortName":"La Roche"},"district":{"key":"1003","name":"District de la Gruyère"},"canton":{"key":"10","code":"FR","name":"Fribourg / Freiburg"},"status":"Real"},{"key":"10051377","name":"Les Forny","postalCode":"1634","locality":"La Roche FR","commune":{"key":"2149","name":"La Roche","shortName":"La Roche"},"district":{"key":"1003","name":"District de la Gruyère"},"canton":{"key":"10","code":"FR","name":"Fribourg / Freiburg"},"status":"Real"},{"key":"10253879","name":"Les Fornys","postalCode":"1634","locality":"La Roche FR","commune":{"key":"2149","name":"La Roche","shortName":"La Roche"},"district":{"key":"1003","name":"District de la Gruyère"},"canton":{"key":"10","code":"FR","name":"Fribourg / Freiburg"},"status":"Real"},{"key":"10253885","name":"Les Letschies","postalCode":"1634","locality":"La Roche FR","commune":{"key":"2149","name":"La Roche","shortName":"La Roche"},"district":{"key":"1003","name":"District de la Gruyère"},"canton":{"key":"10","code":"FR","name":"Fribourg / Freiburg"},"status":"Real"},{"key":"10253889","name":"Les Planches","postalCode":"1634","locality":"La Roche FR","commune":{"key":"2149","name":"La Roche","shortName":"La Roche"},"district":{"key":"1003","name":"District de la Gruyère"},"canton":{"key":"10","code":"FR","name":"Fribourg / Freiburg"},"status":"Real"},{"key":"10068278","name":"Montsoflo","postalCode":"1634","locality":"La Roche FR","commune":{"key":"2149","name":"La Roche","shortName":"La Roche"},"district":{"key":"1003","name":"District de la Gruyère"},"canton":{"key":"10","code":"FR","name":"Fribourg / Freiburg"},"status":"Real"},{"key":"10253949","name":"Oberbiel","postalCode":"1634","locality":"La Roche FR","commune":{"key":"2149","name":"La Roche","shortName":"La Roche"},"district":{"key":"1003","name":"District de la Gruyère"},"canton":{"key":"10","code":"FR","name":"Fribourg / Freiburg"},"status":"Real"},{"key":"10253952","name":"Pâquier aux Oiseaux","postalCode":"1634","locality":"La Roche FR","commune":{"key":"2149","name":"La Roche","shortName":"La Roche"},"district":{"key":"1003","name":"District de la Gruyère"},"canton":{"key":"10","code":"FR","name":"Fribourg / Freiburg"},"status":"Real"},{"key":"10253956","name":"Petit Vela","postalCode":"1634","locality":"La Roche FR","commune":{"key":"2149","name":"La Roche","shortName":"La Roche"},"district":{"key":"1003","name":"District de la Gruyère"},"canton":{"key":"10","code":"FR","name":"Fribourg / Freiburg"},"status":"Real"},{"key":"10144340","name":"Route de Fribourg","postalCode":"1634","locality":"La Roche FR","commune":{"key":"2149","name":"La Roche","shortName":"La Roche"},"district":{"key":"1003","name":"District de la Gruyère"},"canton":{"key":"10","code":"FR","name":"Fribourg / Freiburg"},"status":"Real"},{"key":"10151829","name":"Route de la Berra","postalCode":"1634","locality":"La Roche FR","commune":{"key":"2149","name":"La Roche","shortName":"La Roche"},"district":{"key":"1003","name":"District de la Gruyère"},"canton":{"key":"10","code":"FR","name":"Fribourg / Freiburg"},"status":"Real"},{"key":"10148566","name":"Route de la Brèteneire","postalCode":"1634","locality":"La Roche FR","commune":{"key":"2149","name":"La Roche","shortName":"La Roche"},"district":{"key":"1003","name":"District de la Gruyère"},"canton":{"key":"10","code":"FR","name":"Fribourg / Freiburg"},"status":"Real"},{"key":"10151830","name":"Route de la Côte","postalCode":"1634","locality":"La Roche FR","commune":{"key":"2149","name":"La Roche","shortName":"La Roche"},"district":{"key":"1003","name":"District de la Gruyère"},"canton":{"key":"10","code":"FR","name":"Fribourg / Freiburg"},"status":"Real"},{"key":"10151831","name":"Route de la Fayaula","postalCode":"1634","locality":"La Roche FR","commune":{"key":"2149","name":"La Roche","shortName":"La Roche"},"district":{"key":"1003","name":"District de la Gruyère"},"canton":{"key":"10","code":"FR","name":"Fribourg / Freiburg"},"status":"Real"},{"key":"10151832","name":"Route de la Gruyère","postalCode":"1634","locality":"La Roche FR","commune":{"key":"2149","name":"La Roche","shortName":"La Roche"},"district":{"key":"1003","name":"District de la Gruyère"},"canton":{"key":"10","code":"FR","name":"Fribourg / Freiburg"},"status":"Real"},{"key":"10151833","name":"Route de la Pra","postalCode":"1634","locality":"La Roche FR","commune":{"key":"2149","name":"La Roche","shortName":"La Roche"},"district":{"key":"1003","name":"District de la Gruyère"},"canton":{"key":"10","code":"FR","name":"Fribourg / Freiburg"},"status":"Real"},{"key":"10151834","name":"Route de la Serbache","postalCode":"1634","locality":"La Roche FR","commune":{"key":"2149","name":"La Roche","shortName":"La Roche"},"district":{"key":"1003","name":"District de la Gruyère"},"canton":{"key":"10","code":"FR","name":"Fribourg / Freiburg"},"status":"Real"},{"key":"10151835","name":"Route de Villaret","postalCode":"1634","locality":"La Roche FR","commune":{"key":"2149","name":"La Roche","shortName":"La Roche"},"district":{"key":"1003","name":"District de la Gruyère"},"canton":{"key":"10","code":"FR","name":"Fribourg / Freiburg"},"status":"Real"},{"key":"10140974","name":"Route du Barrage","postalCode":"1634","locality":"La Roche FR","commune":{"key":"2149","name":"La Roche","shortName":"La Roche"},"district":{"key":"1003","name":"District de la Gruyère"},"canton":{"key":"10","code":"FR","name":"Fribourg / Freiburg"},"status":"Real"},{"key":"10151836","name":"Route du Belvédère","postalCode":"1634","locality":"La Roche FR","commune":{"key":"2149","name":"La Roche","shortName":"La Roche"},"district":{"key":"1003","name":"District de la Gruyère"},"canton":{"key":"10","code":"FR","name":"Fribourg / Freiburg"},"status":"Real"},{"key":"10151837","name":"Route du Lac","postalCode":"1634","locality":"La Roche FR","commune":{"key":"2149","name":"La Roche","shortName":"La Roche"},"district":{"key":"1003","name":"District de la Gruyère"},"canton":{"key":"10","code":"FR","name":"Fribourg / Freiburg"},"status":"Real"},{"key":"10147784","name":"Route du Lan","postalCode":"1634","locality":"La Roche FR","commune":{"key":"2149","name":"La Roche","shortName":"La Roche"},"district":{"key":"1003","name":"District de la Gruyère"},"canton":{"key":"10","code":"FR","name":"Fribourg / Freiburg"},"status":"Real"},{"key":"10151838","name":"Route du Lèche","postalCode":"1634","locality":"La Roche FR","commune":{"key":"2149","name":"La Roche","shortName":"La Roche"},"district":{"key":"1003","name":"District de la Gruyère"},"canton":{"key":"10","code":"FR","name":"Fribourg / Freiburg"},"status":"Real"},{"key":"10151839","name":"Route du Lienne","postalCode":"1634","locality":"La Roche FR","commune":{"key":"2149","name":"La Roche","shortName":"La Roche"},"district":{"key":"1003","name":"District de la Gruyère"},"canton":{"key":"10","code":"FR","name":"Fribourg / Freiburg"},"status":"Real"},{"key":"10149320","name":"Route du Milan","postalCode":"1634","locality":"La Roche FR","commune":{"key":"2149","name":"La Roche","shortName":"La Roche"},"district":{"key":"1003","name":"District de la Gruyère"},"canton":{"key":"10","code":"FR","name":"Fribourg / Freiburg"},"status":"Real"},{"key":"10144345","name":"Route du Steckel","postalCode":"1634","locality":"La Roche FR","commune":{"key":"2149","name":"La Roche","shortName":"La Roche"},"district":{"key":"1003","name":"District de la Gruyère"},"canton":{"key":"10","code":"FR","name":"Fribourg / Freiburg"},"status":"Real"},{"key":"10126300","name":"Route du Stoutzelet","postalCode":"1634","locality":"La Roche FR","commune":{"key":"2149","name":"La Roche","shortName":"La Roche"},"district":{"key":"1003","name":"District de la Gruyère"},"canton":{"key":"10","code":"FR","name":"Fribourg / Freiburg"},"status":"Real"},{"key":"10144369","name":"Route du Vègre","postalCode":"1634","locality":"La Roche FR","commune":{"key":"2149","name":"La Roche","shortName":"La Roche"},"district":{"key":"1003","name":"District de la Gruyère"},"canton":{"key":"10","code":"FR","name":"Fribourg / Freiburg"},"status":"Real"},{"key":"10141000","name":"Route du Zible","postalCode":"1634","locality":"La Roche FR","commune":{"key":"2149","name":"La Roche","shortName":"La Roche"},"district":{"key":"1003","name":"District de la Gruyère"},"canton":{"key":"10","code":"FR","name":"Fribourg / Freiburg"},"status":"Real"},{"key":"10253958","name":"Scherwyl","postalCode":"1634","locality":"La Roche FR","commune":{"key":"2149","name":"La Roche","shortName":"La Roche"},"district":{"key":"1003","name":"District de la Gruyère"},"canton":{"key":"10","code":"FR","name":"Fribourg / Freiburg"},"status":"Real"},{"key":"10253961","name":"Sous la Combert","postalCode":"1634","locality":"La Roche FR","commune":{"key":"2149","name":"La Roche","shortName":"La Roche"},"district":{"key":"1003","name":"District de la Gruyère"},"canton":{"key":"10","code":"FR","name":"Fribourg / Freiburg"},"status":"Real"},{"key":"10144370","name":"Sous la Gormanda","postalCode":"1634","locality":"La Roche FR","commune":{"key":"2149","name":"La Roche","shortName":"La Roche"},"district":{"key":"1003","name":"District de la Gruyère"},"canton":{"key":"10","code":"FR","name":"Fribourg / Freiburg"},"status":"Real"},{"key":"10253963","name":"Sous la Holena","postalCode":"1634","locality":"La Roche FR","commune":{"key":"2149","name":"La Roche","shortName":"La Roche"},"district":{"key":"1003","name":"District de la Gruyère"},"canton":{"key":"10","code":"FR","name":"Fribourg / Freiburg"},"status":"Real"},{"key":"10253969","name":"Sous la Joux","postalCode":"1634","locality":"La Roche FR","commune":{"key":"2149","name":"La Roche","shortName":"La Roche"},"district":{"key":"1003","name":"District de la Gruyère"},"canton":{"key":"10","code":"FR","name":"Fribourg / Freiburg"},"status":"Real"},{"key":"10253974","name":"Sous les Crapauteires","postalCode":"1634","locality":"La Roche FR","commune":{"key":"2149","name":"La Roche","shortName":"La Roche"},"district":{"key":"1003","name":"District de la Gruyère"},"canton":{"key":"10","code":"FR","name":"Fribourg / Freiburg"},"status":"Real"},{"key":"10253978","name":"Spitzmatta","postalCode":"1634","locality":"La Roche FR","commune":{"key":"2149","name":"La Roche","shortName":"La Roche"},"district":{"key":"1003","name":"District de la Gruyère"},"canton":{"key":"10","code":"FR","name":"Fribourg / Freiburg"},"status":"Real"},{"key":"10253980","name":"Supiletta","postalCode":"1634","locality":"La Roche FR","commune":{"key":"2149","name":"La Roche","shortName":"La Roche"},"district":{"key":"1003","name":"District de la Gruyère"},"canton":{"key":"10","code":"FR","name":"Fribourg / Freiburg"},"status":"Real"},{"key":"10253984","name":"Sur la Chaux","postalCode":"1634","locality":"La Roche FR","commune":{"key":"2149","name":"La Roche","shortName":"La Roche"},"district":{"key":"1003","name":"District de la Gruyère"},"canton":{"key":"10","code":"FR","name":"Fribourg / Freiburg"},"status":"Real"},{"key":"10252650","name":"Sur la Roche","postalCode":"1634","locality":"La Roche FR","commune":{"key":"2149","name":"La Roche","shortName":"La Roche"},"district":{"key":"1003","name":"District de la Gruyère"},"canton":{"key":"10","code":"FR","name":"Fribourg / Freiburg"},"status":"Real"},{"key":"10252666","name":"Sur la Roumatta","postalCode":"1634","locality":"La Roche FR","commune":{"key":"2149","name":"La Roche","shortName":"La Roche"},"district":{"key":"1003","name":"District de la Gruyère"},"canton":{"key":"10","code":"FR","name":"Fribourg / Freiburg"},"status":"Real"},{"key":"10252689","name":"Sur la Schuende","postalCode":"1634","locality":"La Roche FR","commune":{"key":"2149","name":"La Roche","shortName":"La Roche"},"district":{"key":"1003","name":"District de la Gruyère"},"canton":{"key":"10","code":"FR","name":"Fribourg / Freiburg"},"status":"Real"},{"key":"10068279","name":"Sur le Bey","postalCode":"1634","locality":"La Roche FR","commune":{"key":"2149","name":"La Roche","shortName":"La Roche"},"district":{"key":"1003","name":"District de la Gruyère"},"canton":{"key":"10","code":"FR","name":"Fribourg / Freiburg"},"status":"Real"},{"key":"10252719","name":"Sur le Brand","postalCode":"1634","locality":"La Roche FR","commune":{"key":"2149","name":"La Roche","shortName":"La Roche"},"district":{"key":"1003","name":"District de la Gruyère"},"canton":{"key":"10","code":"FR","name":"Fribourg / Freiburg"},"status":"Real"},{"key":"10252734","name":"Sur le Hap","postalCode":"1634","locality":"La Roche FR","commune":{"key":"2149","name":"La Roche","shortName":"La Roche"},"district":{"key":"1003","name":"District de la Gruyère"},"canton":{"key":"10","code":"FR","name":"Fribourg / Freiburg"},"status":"Real"},{"key":"10252764","name":"Sur le Lan","postalCode":"1634","locality":"La Roche FR","commune":{"key":"2149","name":"La Roche","shortName":"La Roche"},"district":{"key":"1003","name":"District de la Gruyère"},"canton":{"key":"10","code":"FR","name":"Fribourg / Freiburg"},"status":"Real"},{"key":"10252790","name":"Sur les Medzelenès","postalCode":"1634","locality":"La Roche FR","commune":{"key":"2149","name":"La Roche","shortName":"La Roche"},"district":{"key":"1003","name":"District de la Gruyère"},"canton":{"key":"10","code":"FR","name":"Fribourg / Freiburg"},"status":"Real"},{"key":"10149317","name":"Sur Momont","postalCode":"1634","locality":"La Roche FR","commune":{"key":"2149","name":"La Roche","shortName":"La Roche"},"district":{"key":"1003","name":"District de la Gruyère"},"canton":{"key":"10","code":"FR","name":"Fribourg / Freiburg"},"status":"Real"},{"key":"10252803","name":"Vers l'Eglise","postalCode":"1634","locality":"La Roche FR","commune":{"key":"2149","name":"La Roche","shortName":"La Roche"},"district":{"key":"1003","name":"District de la Gruyère"},"canton":{"key":"10","code":"FR","name":"Fribourg / Freiburg"},"status":"Real"},{"key":"10088711","name":"Vers les Châteaux","postalCode":"1634","locality":"La Roche FR","commune":{"key":"2149","name":"La Roche","shortName":"La Roche"},"district":{"key":"1003","name":"District de la Gruyère"},"canton":{"key":"10","code":"FR","name":"Fribourg / Freiburg"},"status":"Real"},{"key":"10017278","name":"Vers les Roulin","postalCode":"1634","locality":"La Roche FR","commune":{"key":"2149","name":"La Roche","shortName":"La Roche"},"district":{"key":"1003","name":"District de la Gruyère"},"canton":{"key":"10","code":"FR","name":"Fribourg / Freiburg"},"status":"Real"},]