[{"name":"77er Str.","postalCode":"29221","locality":"Celle","municipality":{"key":"03351006","name":"Celle, Stadt","type":"Stadt"},"district":{"key":"03351","name":"Celle","type":"Landkreis"},"federalState":{"key":"03","name":"Niedersachsen"}},{"name":"Ackermannstr.","postalCode":"29353","locality":"Ahnsbeck","municipality":{"key":"03351002","name":"Ahnsbeck","type":"Kreisangehörige_Gemeinde"},"district":{"key":"03351","name":"Celle","type":"Landkreis"},"federalState":{"key":"03","name":"Niedersachsen"}},{"name":"Altenceller Weg","postalCode":"29353","locality":"Ahnsbeck","municipality":{"key":"03351002","name":"Ahnsbeck","type":"Kreisangehörige_Gemeinde"},"district":{"key":"03351","name":"Celle","type":"Landkreis"},"federalState":{"key":"03","name":"Niedersachsen"}},{"name":"Alter Postweg","postalCode":"29353","locality":"Ahnsbeck","municipality":{"key":"03351002","name":"Ahnsbeck","type":"Kreisangehörige_Gemeinde"},"district":{"key":"03351","name":"Celle","type":"Landkreis"},"federalState":{"key":"03","name":"Niedersachsen"}},{"name":"Am Berge","postalCode":"29353","locality":"Ahnsbeck","municipality":{"key":"03351002","name":"Ahnsbeck","type":"Kreisangehörige_Gemeinde"},"district":{"key":"03351","name":"Celle","type":"Landkreis"},"federalState":{"key":"03","name":"Niedersachsen"}},{"name":"Am Dorfbrunnen","postalCode":"29353","locality":"Ahnsbeck","municipality":{"key":"03351002","name":"Ahnsbeck","type":"Kreisangehörige_Gemeinde"},"district":{"key":"03351","name":"Celle","type":"Landkreis"},"federalState":{"key":"03","name":"Niedersachsen"}},{"name":"Am Suhrenberg","postalCode":"29353","locality":"Ahnsbeck","municipality":{"key":"03351002","name":"Ahnsbeck","type":"Kreisangehörige_Gemeinde"},"district":{"key":"03351","name":"Celle","type":"Landkreis"},"federalState":{"key":"03","name":"Niedersachsen"}},{"name":"Auf dem Stüh","postalCode":"29353","locality":"Ahnsbeck","municipality":{"key":"03351002","name":"Ahnsbeck","type":"Kreisangehörige_Gemeinde"},"district":{"key":"03351","name":"Celle","type":"Landkreis"},"federalState":{"key":"03","name":"Niedersachsen"}},{"name":"Baalhopsweg","postalCode":"29353","locality":"Ahnsbeck","municipality":{"key":"03351002","name":"Ahnsbeck","type":"Kreisangehörige_Gemeinde"},"district":{"key":"03351","name":"Celle","type":"Landkreis"},"federalState":{"key":"03","name":"Niedersachsen"}},{"name":"Beckstr.","postalCode":"29353","locality":"Ahnsbeck","municipality":{"key":"03351002","name":"Ahnsbeck","type":"Kreisangehörige_Gemeinde"},"district":{"key":"03351","name":"Celle","type":"Landkreis"},"federalState":{"key":"03","name":"Niedersachsen"}},{"name":"Beedenbosteler Str.","postalCode":"29353","locality":"Ahnsbeck","municipality":{"key":"03351002","name":"Ahnsbeck","type":"Kreisangehörige_Gemeinde"},"district":{"key":"03351","name":"Celle","type":"Landkreis"},"federalState":{"key":"03","name":"Niedersachsen"}},{"name":"Brandkamp","postalCode":"29353","locality":"Ahnsbeck","municipality":{"key":"03351002","name":"Ahnsbeck","type":"Kreisangehörige_Gemeinde"},"district":{"key":"03351","name":"Celle","type":"Landkreis"},"federalState":{"key":"03","name":"Niedersachsen"}},{"name":"Breslauer Str.","postalCode":"29353","locality":"Ahnsbeck","municipality":{"key":"03351002","name":"Ahnsbeck","type":"Kreisangehörige_Gemeinde"},"district":{"key":"03351","name":"Celle","type":"Landkreis"},"federalState":{"key":"03","name":"Niedersachsen"}},{"name":"Bunkenburger Str.","postalCode":"29353","locality":"Ahnsbeck","municipality":{"key":"03351002","name":"Ahnsbeck","type":"Kreisangehörige_Gemeinde"},"district":{"key":"03351","name":"Celle","type":"Landkreis"},"federalState":{"key":"03","name":"Niedersachsen"}},{"name":"Calvinstr.","postalCode":"29223","locality":"Celle","municipality":{"key":"03351006","name":"Celle, Stadt","type":"Stadt"},"district":{"key":"03351","name":"Celle","type":"Landkreis"},"federalState":{"key":"03","name":"Niedersachsen"}},{"name":"Carla-Meyer-Rasch-Str.","postalCode":"29221","locality":"Celle","municipality":{"key":"03351006","name":"Celle, Stadt","type":"Stadt"},"district":{"key":"03351","name":"Celle","type":"Landkreis"},"federalState":{"key":"03","name":"Niedersachsen"}},{"name":"Caroline-Mathilde-Str.","postalCode":"29225","locality":"Celle","municipality":{"key":"03351006","name":"Celle, Stadt","type":"Stadt"},"district":{"key":"03351","name":"Celle","type":"Landkreis"},"federalState":{"key":"03","name":"Niedersachsen"}},{"name":"Carstensstr.","postalCode":"29225","locality":"Celle","municipality":{"key":"03351006","name":"Celle, Stadt","type":"Stadt"},"district":{"key":"03351","name":"Celle","type":"Landkreis"},"federalState":{"key":"03","name":"Niedersachsen"}},{"name":"Celle-Ligure-Str.","postalCode":"29225","locality":"Celle","municipality":{"key":"03351006","name":"Celle, Stadt","type":"Stadt"},"district":{"key":"03351","name":"Celle","type":"Landkreis"},"federalState":{"key":"03","name":"Niedersachsen"}},{"name":"Celler Heerstr.","postalCode":"29229","locality":"Celle","municipality":{"key":"03351006","name":"Celle, Stadt","type":"Stadt"},"district":{"key":"03351","name":"Celle","type":"Landkreis"},"federalState":{"key":"03","name":"Niedersachsen"}},{"name":"Celler Heide","postalCode":"29227","locality":"Celle","municipality":{"key":"03351006","name":"Celle, Stadt","type":"Stadt"},"district":{"key":"03351","name":"Celle","type":"Landkreis"},"federalState":{"key":"03","name":"Niedersachsen"}},{"name":"Celler Str.","postalCode":"29229","locality":"Celle","municipality":{"key":"03351006","name":"Celle, Stadt","type":"Stadt"},"district":{"key":"03351","name":"Celle","type":"Landkreis"},"federalState":{"key":"03","name":"Niedersachsen"}},{"name":"Celler Weg","postalCode":"29227","locality":"Celle","municipality":{"key":"03351006","name":"Celle, Stadt","type":"Stadt"},"district":{"key":"03351","name":"Celle","type":"Landkreis"},"federalState":{"key":"03","name":"Niedersachsen"}},{"name":"Clemens-Cassel-Str.","postalCode":"29223","locality":"Celle","municipality":{"key":"03351006","name":"Celle, Stadt","type":"Stadt"},"district":{"key":"03351","name":"Celle","type":"Landkreis"},"federalState":{"key":"03","name":"Niedersachsen"}},{"name":"Danziger Str.","postalCode":"29353","locality":"Ahnsbeck","municipality":{"key":"03351002","name":"Ahnsbeck","type":"Kreisangehörige_Gemeinde"},"district":{"key":"03351","name":"Celle","type":"Landkreis"},"federalState":{"key":"03","name":"Niedersachsen"}},{"name":"Dieselblökken","postalCode":"29353","locality":"Ahnsbeck","municipality":{"key":"03351002","name":"Ahnsbeck","type":"Kreisangehörige_Gemeinde"},"district":{"key":"03351","name":"Celle","type":"Landkreis"},"federalState":{"key":"03","name":"Niedersachsen"}},{"name":"Echtestr.","postalCode":"29225","locality":"Celle","municipality":{"key":"03351006","name":"Celle, Stadt","type":"Stadt"},"district":{"key":"03351","name":"Celle","type":"Landkreis"},"federalState":{"key":"03","name":"Niedersachsen"}},{"name":"Eckernweg","postalCode":"29229","locality":"Celle","municipality":{"key":"03351006","name":"Celle, Stadt","type":"Stadt"},"district":{"key":"03351","name":"Celle","type":"Landkreis"},"federalState":{"key":"03","name":"Niedersachsen"}},{"name":"Eggersweg","postalCode":"29223","locality":"Celle","municipality":{"key":"03351006","name":"Celle, Stadt","type":"Stadt"},"district":{"key":"03351","name":"Celle","type":"Landkreis"},"federalState":{"key":"03","name":"Niedersachsen"}},{"name":"Eichengrund","postalCode":"29223","locality":"Celle","municipality":{"key":"03351006","name":"Celle, Stadt","type":"Stadt"},"district":{"key":"03351","name":"Celle","type":"Landkreis"},"federalState":{"key":"03","name":"Niedersachsen"}},{"name":"Eichenweg","postalCode":"29227","locality":"Celle","municipality":{"key":"03351006","name":"Celle, Stadt","type":"Stadt"},"district":{"key":"03351","name":"Celle","type":"Landkreis"},"federalState":{"key":"03","name":"Niedersachsen"}},{"name":"Eichhain","postalCode":"29229","locality":"Celle","municipality":{"key":"03351006","name":"Celle, Stadt","type":"Stadt"},"district":{"key":"03351","name":"Celle","type":"Landkreis"},"federalState":{"key":"03","name":"Niedersachsen"}},{"name":"Eichhorststr.","postalCode":"29227","locality":"Celle","municipality":{"key":"03351006","name":"Celle, Stadt","type":"Stadt"},"district":{"key":"03351","name":"Celle","type":"Landkreis"},"federalState":{"key":"03","name":"Niedersachsen"}},{"name":"Eichkamp","postalCode":"29227","locality":"Celle","municipality":{"key":"03351006","name":"Celle, Stadt","type":"Stadt"},"district":{"key":"03351","name":"Celle","type":"Landkreis"},"federalState":{"key":"03","name":"Niedersachsen"}},{"name":"Eickdamm","postalCode":"29229","locality":"Celle","municipality":{"key":"03351006","name":"Celle, Stadt","type":"Stadt"},"district":{"key":"03351","name":"Celle","type":"Landkreis"},"federalState":{"key":"03","name":"Niedersachsen"}},{"name":"Eickenrodtweg","postalCode":"29225","locality":"Celle","municipality":{"key":"03351006","name":"Celle, Stadt","type":"Stadt"},"district":{"key":"03351","name":"Celle","type":"Landkreis"},"federalState":{"key":"03","name":"Niedersachsen"}},{"name":"Eiklint","postalCode":"29227","locality":"Celle","municipality":{"key":"03351006","name":"Celle, Stadt","type":"Stadt"},"district":{"key":"03351","name":"Celle","type":"Landkreis"},"federalState":{"key":"03","name":"Niedersachsen"}},{"name":"Eilensteg","postalCode":"29227","locality":"Celle","municipality":{"key":"03351006","name":"Celle, Stadt","type":"Stadt"},"district":{"key":"03351","name":"Celle","type":"Landkreis"},"federalState":{"key":"03","name":"Niedersachsen"}},{"name":"Elbinger Weg","postalCode":"29225","locality":"Celle","municipality":{"key":"03351006","name":"Celle, Stadt","type":"Stadt"},"district":{"key":"03351","name":"Celle","type":"Landkreis"},"federalState":{"key":"03","name":"Niedersachsen"}},{"name":"Elderhorststr.","postalCode":"29221","locality":"Celle","municipality":{"key":"03351006","name":"Celle, Stadt","type":"Stadt"},"district":{"key":"03351","name":"Celle","type":"Landkreis"},"federalState":{"key":"03","name":"Niedersachsen"}},{"name":"Elebrechtweg","postalCode":"29225","locality":"Celle","municipality":{"key":"03351006","name":"Celle, Stadt","type":"Stadt"},"district":{"key":"03351","name":"Celle","type":"Landkreis"},"federalState":{"key":"03","name":"Niedersachsen"}},{"name":"Ellernkamp","postalCode":"29223","locality":"Celle","municipality":{"key":"03351006","name":"Celle, Stadt","type":"Stadt"},"district":{"key":"03351","name":"Celle","type":"Landkreis"},"federalState":{"key":"03","name":"Niedersachsen"}},{"name":"Else-Wex-Str.","postalCode":"29221","locality":"Celle","municipality":{"key":"03351006","name":"Celle, Stadt","type":"Stadt"},"district":{"key":"03351","name":"Celle","type":"Landkreis"},"federalState":{"key":"03","name":"Niedersachsen"}},{"name":"Elsternstieg","postalCode":"29225","locality":"Celle","municipality":{"key":"03351006","name":"Celle, Stadt","type":"Stadt"},"district":{"key":"03351","name":"Celle","type":"Landkreis"},"federalState":{"key":"03","name":"Niedersachsen"}},{"name":"Eltzestr.","postalCode":"29225","locality":"Celle","municipality":{"key":"03351006","name":"Celle, Stadt","type":"Stadt"},"district":{"key":"03351","name":"Celle","type":"Landkreis"},"federalState":{"key":"03","name":"Niedersachsen"}},{"name":"Elverskamp","postalCode":"29223","locality":"Celle","municipality":{"key":"03351006","name":"Celle, Stadt","type":"Stadt"},"district":{"key":"03351","name":"Celle","type":"Landkreis"},"federalState":{"key":"03","name":"Niedersachsen"}},{"name":"Emigrantenstr.","postalCode":"29221","locality":"Celle","municipality":{"key":"03351006","name":"Celle, Stadt","type":"Stadt"},"district":{"key":"03351","name":"Celle","type":"Landkreis"},"federalState":{"key":"03","name":"Niedersachsen"}},{"name":"Entenfang","postalCode":"29223","locality":"Celle","municipality":{"key":"03351006","name":"Celle, Stadt","type":"Stadt"},"district":{"key":"03351","name":"Celle","type":"Landkreis"},"federalState":{"key":"03","name":"Niedersachsen"}},{"name":"Ententeich","postalCode":"29225","locality":"Celle","municipality":{"key":"03351006","name":"Celle, Stadt","type":"Stadt"},"district":{"key":"03351","name":"Celle","type":"Landkreis"},"federalState":{"key":"03","name":"Niedersachsen"}},{"name":"Erich-Eichelberg-Str.","postalCode":"29221","locality":"Celle","municipality":{"key":"03351006","name":"Celle, Stadt","type":"Stadt"},"district":{"key":"03351","name":"Celle","type":"Landkreis"},"federalState":{"key":"03","name":"Niedersachsen"}},{"name":"Erichsgasse","postalCode":"29225","locality":"Celle","municipality":{"key":"03351006","name":"Celle, Stadt","type":"Stadt"},"district":{"key":"03351","name":"Celle","type":"Landkreis"},"federalState":{"key":"03","name":"Niedersachsen"}},{"name":"Erikaweg","postalCode":"29229","locality":"Celle","municipality":{"key":"03351006","name":"Celle, Stadt","type":"Stadt"},"district":{"key":"03351","name":"Celle","type":"Landkreis"},"federalState":{"key":"03","name":"Niedersachsen"}},{"name":"Erlenweg","postalCode":"29227","locality":"Celle","municipality":{"key":"03351006","name":"Celle, Stadt","type":"Stadt"},"district":{"key":"03351","name":"Celle","type":"Landkreis"},"federalState":{"key":"03","name":"Niedersachsen"}},{"name":"Ermlandring","postalCode":"29225","locality":"Celle","municipality":{"key":"03351006","name":"Celle, Stadt","type":"Stadt"},"district":{"key":"03351","name":"Celle","type":"Landkreis"},"federalState":{"key":"03","name":"Niedersachsen"}},{"name":"Ernst-Sprockhoff-Str.","postalCode":"29227","locality":"Celle","municipality":{"key":"03351006","name":"Celle, Stadt","type":"Stadt"},"district":{"key":"03351","name":"Celle","type":"Landkreis"},"federalState":{"key":"03","name":"Niedersachsen"}},{"name":"Ernst-Wiechert-Weg","postalCode":"29227","locality":"Celle","municipality":{"key":"03351006","name":"Celle, Stadt","type":"Stadt"},"district":{"key":"03351","name":"Celle","type":"Landkreis"},"federalState":{"key":"03","name":"Niedersachsen"}},{"name":"Escheder Str.","postalCode":"29229","locality":"Celle","municipality":{"key":"03351006","name":"Celle, Stadt","type":"Stadt"},"district":{"key":"03351","name":"Celle","type":"Landkreis"},"federalState":{"key":"03","name":"Niedersachsen"}},{"name":"Eschenworth","postalCode":"29229","locality":"Celle","municipality":{"key":"03351006","name":"Celle, Stadt","type":"Stadt"},"district":{"key":"03351","name":"Celle","type":"Landkreis"},"federalState":{"key":"03","name":"Niedersachsen"}},{"name":"Eselsweg","postalCode":"29229","locality":"Celle","municipality":{"key":"03351006","name":"Celle, Stadt","type":"Stadt"},"district":{"key":"03351","name":"Celle","type":"Landkreis"},"federalState":{"key":"03","name":"Niedersachsen"}},{"name":"Eulenpfad","postalCode":"29225","locality":"Celle","municipality":{"key":"03351006","name":"Celle, Stadt","type":"Stadt"},"district":{"key":"03351","name":"Celle","type":"Landkreis"},"federalState":{"key":"03","name":"Niedersachsen"}},{"name":"Everettstr.","postalCode":"29229","locality":"Celle","municipality":{"key":"03351006","name":"Celle, Stadt","type":"Stadt"},"district":{"key":"03351","name":"Celle","type":"Landkreis"},"federalState":{"key":"03","name":"Niedersachsen"}},{"name":"Fabricestr.","postalCode":"29221","locality":"Celle","municipality":{"key":"03351006","name":"Celle, Stadt","type":"Stadt"},"district":{"key":"03351","name":"Celle","type":"Landkreis"},"federalState":{"key":"03","name":"Niedersachsen"}},{"name":"Falkenweg","postalCode":"29225","locality":"Celle","municipality":{"key":"03351006","name":"Celle, Stadt","type":"Stadt"},"district":{"key":"03351","name":"Celle","type":"Landkreis"},"federalState":{"key":"03","name":"Niedersachsen"}},{"name":"Falladastr.","postalCode":"29221","locality":"Celle","municipality":{"key":"03351006","name":"Celle, Stadt","type":"Stadt"},"district":{"key":"03351","name":"Celle","type":"Landkreis"},"federalState":{"key":"03","name":"Niedersachsen"}},{"name":"Fasanenweg","postalCode":"29223","locality":"Celle","municipality":{"key":"03351006","name":"Celle, Stadt","type":"Stadt"},"district":{"key":"03351","name":"Celle","type":"Landkreis"},"federalState":{"key":"03","name":"Niedersachsen"}},{"name":"Feldstr.","postalCode":"29227","locality":"Celle","municipality":{"key":"03351006","name":"Celle, Stadt","type":"Stadt"},"district":{"key":"03351","name":"Celle","type":"Landkreis"},"federalState":{"key":"03","name":"Niedersachsen"}},{"name":"Felicitas-Rose-Str.","postalCode":"29229","locality":"Celle","municipality":{"key":"03351006","name":"Celle, Stadt","type":"Stadt"},"district":{"key":"03351","name":"Celle","type":"Landkreis"},"federalState":{"key":"03","name":"Niedersachsen"}},{"name":"Fichtenweg","postalCode":"29225","locality":"Celle","municipality":{"key":"03351006","name":"Celle, Stadt","type":"Stadt"},"district":{"key":"03351","name":"Celle","type":"Landkreis"},"federalState":{"key":"03","name":"Niedersachsen"}},{"name":"Finkenherd","postalCode":"29223","locality":"Celle","municipality":{"key":"03351006","name":"Celle, Stadt","type":"Stadt"},"district":{"key":"03351","name":"Celle","type":"Landkreis"},"federalState":{"key":"03","name":"Niedersachsen"}},{"name":"Finkenstieg","postalCode":"29225","locality":"Celle","municipality":{"key":"03351006","name":"Celle, Stadt","type":"Stadt"},"district":{"key":"03351","name":"Celle","type":"Landkreis"},"federalState":{"key":"03","name":"Niedersachsen"}},{"name":"Fischerstr.","postalCode":"29227","locality":"Celle","municipality":{"key":"03351006","name":"Celle, Stadt","type":"Stadt"},"district":{"key":"03351","name":"Celle","type":"Landkreis"},"federalState":{"key":"03","name":"Niedersachsen"}},{"name":"Flachsberg","postalCode":"29229","locality":"Celle","municipality":{"key":"03351006","name":"Celle, Stadt","type":"Stadt"},"district":{"key":"03351","name":"Celle","type":"Landkreis"},"federalState":{"key":"03","name":"Niedersachsen"}},{"name":"Fliederweg","postalCode":"29227","locality":"Celle","municipality":{"key":"03351006","name":"Celle, Stadt","type":"Stadt"},"district":{"key":"03351","name":"Celle","type":"Landkreis"},"federalState":{"key":"03","name":"Niedersachsen"}},{"name":"Flootlock","postalCode":"29225","locality":"Celle","municipality":{"key":"03351006","name":"Celle, Stadt","type":"Stadt"},"district":{"key":"03351","name":"Celle","type":"Landkreis"},"federalState":{"key":"03","name":"Niedersachsen"}},{"name":"Flugplatz","postalCode":"29225","locality":"Celle","municipality":{"key":"03351006","name":"Celle, Stadt","type":"Stadt"},"district":{"key":"03351","name":"Celle","type":"Landkreis"},"federalState":{"key":"03","name":"Niedersachsen"}},{"name":"Fohlenweg","postalCode":"29227","locality":"Celle","municipality":{"key":"03351006","name":"Celle, Stadt","type":"Stadt"},"district":{"key":"03351","name":"Celle","type":"Landkreis"},"federalState":{"key":"03","name":"Niedersachsen"}},{"name":"Föhrenweg","postalCode":"29227","locality":"Celle","municipality":{"key":"03351006","name":"Celle, Stadt","type":"Stadt"},"district":{"key":"03351","name":"Celle","type":"Landkreis"},"federalState":{"key":"03","name":"Niedersachsen"}},{"name":"Fontaneweg","postalCode":"29229","locality":"Celle","municipality":{"key":"03351006","name":"Celle, Stadt","type":"Stadt"},"district":{"key":"03351","name":"Celle","type":"Landkreis"},"federalState":{"key":"03","name":"Niedersachsen"}},{"name":"Forstweg","postalCode":"29229","locality":"Celle","municipality":{"key":"03351006","name":"Celle, Stadt","type":"Stadt"},"district":{"key":"03351","name":"Celle","type":"Landkreis"},"federalState":{"key":"03","name":"Niedersachsen"}},{"name":"Französischer Garten","postalCode":"29221","locality":"Celle","municipality":{"key":"03351006","name":"Celle, Stadt","type":"Stadt"},"district":{"key":"03351","name":"Celle","type":"Landkreis"},"federalState":{"key":"03","name":"Niedersachsen"}},{"name":"Freudenthalweg","postalCode":"29229","locality":"Celle","municipality":{"key":"03351006","name":"Celle, Stadt","type":"Stadt"},"district":{"key":"03351","name":"Celle","type":"Landkreis"},"federalState":{"key":"03","name":"Niedersachsen"}},{"name":"Fridagsweg","postalCode":"29223","locality":"Celle","municipality":{"key":"03351006","name":"Celle, Stadt","type":"Stadt"},"district":{"key":"03351","name":"Celle","type":"Landkreis"},"federalState":{"key":"03","name":"Niedersachsen"}},{"name":"Fritzenwiese","postalCode":"29221","locality":"Celle","municipality":{"key":"03351006","name":"Celle, Stadt","type":"Stadt"},"district":{"key":"03351","name":"Celle","type":"Landkreis"},"federalState":{"key":"03","name":"Niedersachsen"}},{"name":"Fritz-Grasshoff-Gasse","postalCode":"29221","locality":"Celle","municipality":{"key":"03351006","name":"Celle, Stadt","type":"Stadt"},"district":{"key":"03351","name":"Celle","type":"Landkreis"},"federalState":{"key":"03","name":"Niedersachsen"}},{"name":"Fritz-Kobbe-Weg","postalCode":"29225","locality":"Celle","municipality":{"key":"03351006","name":"Celle, Stadt","type":"Stadt"},"district":{"key":"03351","name":"Celle","type":"Landkreis"},"federalState":{"key":"03","name":"Niedersachsen"}},{"name":"Fritz-Schmidt-Str.","postalCode":"29221","locality":"Celle","municipality":{"key":"03351006","name":"Celle, Stadt","type":"Stadt"},"district":{"key":"03351","name":"Celle","type":"Landkreis"},"federalState":{"key":"03","name":"Niedersachsen"}},{"name":"Fuchsberg","postalCode":"29225","locality":"Celle","municipality":{"key":"03351006","name":"Celle, Stadt","type":"Stadt"},"district":{"key":"03351","name":"Celle","type":"Landkreis"},"federalState":{"key":"03","name":"Niedersachsen"}},{"name":"Fuchswinkel","postalCode":"29229","locality":"Celle","municipality":{"key":"03351006","name":"Celle, Stadt","type":"Stadt"},"district":{"key":"03351","name":"Celle","type":"Landkreis"},"federalState":{"key":"03","name":"Niedersachsen"}},{"name":"Fuhrberger Landstr.","postalCode":"29225","locality":"Celle","municipality":{"key":"03351006","name":"Celle, Stadt","type":"Stadt"},"district":{"key":"03351","name":"Celle","type":"Landkreis"},"federalState":{"key":"03","name":"Niedersachsen"}},{"name":"Fuhrberger Str.","postalCode":"29225","locality":"Celle","municipality":{"key":"03351006","name":"Celle, Stadt","type":"Stadt"},"district":{"key":"03351","name":"Celle","type":"Landkreis"},"federalState":{"key":"03","name":"Niedersachsen"}},{"name":"Fuhrenkamp","postalCode":"29225","locality":"Celle","municipality":{"key":"03351006","name":"Celle, Stadt","type":"Stadt"},"district":{"key":"03351","name":"Celle","type":"Landkreis"},"federalState":{"key":"03","name":"Niedersachsen"}},{"name":"Fuhrenstieg","postalCode":"29223","locality":"Celle","municipality":{"key":"03351006","name":"Celle, Stadt","type":"Stadt"},"district":{"key":"03351","name":"Celle","type":"Landkreis"},"federalState":{"key":"03","name":"Niedersachsen"}},{"name":"Fuhrmanns Birken","postalCode":"29223","locality":"Celle","municipality":{"key":"03351006","name":"Celle, Stadt","type":"Stadt"},"district":{"key":"03351","name":"Celle","type":"Landkreis"},"federalState":{"key":"03","name":"Niedersachsen"}},{"name":"Fuhserandweg","postalCode":"29221","locality":"Celle","municipality":{"key":"03351006","name":"Celle, Stadt","type":"Stadt"},"district":{"key":"03351","name":"Celle","type":"Landkreis"},"federalState":{"key":"03","name":"Niedersachsen"}},{"name":"Fuhserandweg","postalCode":"29225","locality":"Celle","municipality":{"key":"03351006","name":"Celle, Stadt","type":"Stadt"},"district":{"key":"03351","name":"Celle","type":"Landkreis"},"federalState":{"key":"03","name":"Niedersachsen"}},{"name":"Fuhsestr.","postalCode":"29221","locality":"Celle","municipality":{"key":"03351006","name":"Celle, Stadt","type":"Stadt"},"district":{"key":"03351","name":"Celle","type":"Landkreis"},"federalState":{"key":"03","name":"Niedersachsen"}},{"name":"Fundumstr.","postalCode":"29221","locality":"Celle","municipality":{"key":"03351006","name":"Celle, Stadt","type":"Stadt"},"district":{"key":"03351","name":"Celle","type":"Landkreis"},"federalState":{"key":"03","name":"Niedersachsen"}},{"name":"Gewerbestr.","postalCode":"29353","locality":"Ahnsbeck","municipality":{"key":"03351002","name":"Ahnsbeck","type":"Kreisangehörige_Gemeinde"},"district":{"key":"03351","name":"Celle","type":"Landkreis"},"federalState":{"key":"03","name":"Niedersachsen"}},{"name":"Hauptstr.","postalCode":"29353","locality":"Ahnsbeck","municipality":{"key":"03351002","name":"Ahnsbeck","type":"Kreisangehörige_Gemeinde"},"district":{"key":"03351","name":"Celle","type":"Landkreis"},"federalState":{"key":"03","name":"Niedersachsen"}},{"name":"Herbert-Bangemann-Str.","postalCode":"29353","locality":"Ahnsbeck","municipality":{"key":"03351002","name":"Ahnsbeck","type":"Kreisangehörige_Gemeinde"},"district":{"key":"03351","name":"Celle","type":"Landkreis"},"federalState":{"key":"03","name":"Niedersachsen"}},{"name":"Hitteberg","postalCode":"29353","locality":"Ahnsbeck","municipality":{"key":"03351002","name":"Ahnsbeck","type":"Kreisangehörige_Gemeinde"},"district":{"key":"03351","name":"Celle","type":"Landkreis"},"federalState":{"key":"03","name":"Niedersachsen"}},{"name":"Höfeweg","postalCode":"29353","locality":"Ahnsbeck","municipality":{"key":"03351002","name":"Ahnsbeck","type":"Kreisangehörige_Gemeinde"},"district":{"key":"03351","name":"Celle","type":"Landkreis"},"federalState":{"key":"03","name":"Niedersachsen"}},{"name":"Hoher Kamp","postalCode":"29353","locality":"Ahnsbeck","municipality":{"key":"03351002","name":"Ahnsbeck","type":"Kreisangehörige_Gemeinde"},"district":{"key":"03351","name":"Celle","type":"Landkreis"},"federalState":{"key":"03","name":"Niedersachsen"}},{"name":"Hühnerkamp","postalCode":"29353","locality":"Ahnsbeck","municipality":{"key":"03351002","name":"Ahnsbeck","type":"Kreisangehörige_Gemeinde"},"district":{"key":"03351","name":"Celle","type":"Landkreis"},"federalState":{"key":"03","name":"Niedersachsen"}},{"name":"Ilexweg","postalCode":"29229","locality":"Celle","municipality":{"key":"03351006","name":"Celle, Stadt","type":"Stadt"},"district":{"key":"03351","name":"Celle","type":"Landkreis"},"federalState":{"key":"03","name":"Niedersachsen"}},{"name":"Im Brockhold","postalCode":"29223","locality":"Celle","municipality":{"key":"03351006","name":"Celle, Stadt","type":"Stadt"},"district":{"key":"03351","name":"Celle","type":"Landkreis"},"federalState":{"key":"03","name":"Niedersachsen"}},{"name":"Im Bruchwald","postalCode":"29225","locality":"Celle","municipality":{"key":"03351006","name":"Celle, Stadt","type":"Stadt"},"district":{"key":"03351","name":"Celle","type":"Landkreis"},"federalState":{"key":"03","name":"Niedersachsen"}},{"name":"Im Dorfe","postalCode":"29223","locality":"Celle","municipality":{"key":"03351006","name":"Celle, Stadt","type":"Stadt"},"district":{"key":"03351","name":"Celle","type":"Landkreis"},"federalState":{"key":"03","name":"Niedersachsen"}},{"name":"Im Eck","postalCode":"29229","locality":"Celle","municipality":{"key":"03351006","name":"Celle, Stadt","type":"Stadt"},"district":{"key":"03351","name":"Celle","type":"Landkreis"},"federalState":{"key":"03","name":"Niedersachsen"}},{"name":"Im Gehege","postalCode":"29229","locality":"Celle","municipality":{"key":"03351006","name":"Celle, Stadt","type":"Stadt"},"district":{"key":"03351","name":"Celle","type":"Landkreis"},"federalState":{"key":"03","name":"Niedersachsen"}},{"name":"Im Heege","postalCode":"29229","locality":"Celle","municipality":{"key":"03351006","name":"Celle, Stadt","type":"Stadt"},"district":{"key":"03351","name":"Celle","type":"Landkreis"},"federalState":{"key":"03","name":"Niedersachsen"}},{"name":"Im Heidlande","postalCode":"29227","locality":"Celle","municipality":{"key":"03351006","name":"Celle, Stadt","type":"Stadt"},"district":{"key":"03351","name":"Celle","type":"Landkreis"},"federalState":{"key":"03","name":"Niedersachsen"}},{"name":"Imkerstieg","postalCode":"29225","locality":"Celle","municipality":{"key":"03351006","name":"Celle, Stadt","type":"Stadt"},"district":{"key":"03351","name":"Celle","type":"Landkreis"},"federalState":{"key":"03","name":"Niedersachsen"}},{"name":"Im Kreise","postalCode":"29221","locality":"Celle","municipality":{"key":"03351006","name":"Celle, Stadt","type":"Stadt"},"district":{"key":"03351","name":"Celle","type":"Landkreis"},"federalState":{"key":"03","name":"Niedersachsen"}},{"name":"Im Loh","postalCode":"29229","locality":"Celle","municipality":{"key":"03351006","name":"Celle, Stadt","type":"Stadt"},"district":{"key":"03351","name":"Celle","type":"Landkreis"},"federalState":{"key":"03","name":"Niedersachsen"}},{"name":"Immenweg","postalCode":"29225","locality":"Celle","municipality":{"key":"03351006","name":"Celle, Stadt","type":"Stadt"},"district":{"key":"03351","name":"Celle","type":"Landkreis"},"federalState":{"key":"03","name":"Niedersachsen"}},{"name":"Im Rautenkranz","postalCode":"29223","locality":"Celle","municipality":{"key":"03351006","name":"Celle, Stadt","type":"Stadt"},"district":{"key":"03351","name":"Celle","type":"Landkreis"},"federalState":{"key":"03","name":"Niedersachsen"}},{"name":"Im Rolande","postalCode":"29223","locality":"Celle","municipality":{"key":"03351006","name":"Celle, Stadt","type":"Stadt"},"district":{"key":"03351","name":"Celle","type":"Landkreis"},"federalState":{"key":"03","name":"Niedersachsen"}},{"name":"Im Röthel","postalCode":"29225","locality":"Celle","municipality":{"key":"03351006","name":"Celle, Stadt","type":"Stadt"},"district":{"key":"03351","name":"Celle","type":"Landkreis"},"federalState":{"key":"03","name":"Niedersachsen"}},{"name":"Im Sande","postalCode":"29227","locality":"Celle","municipality":{"key":"03351006","name":"Celle, Stadt","type":"Stadt"},"district":{"key":"03351","name":"Celle","type":"Landkreis"},"federalState":{"key":"03","name":"Niedersachsen"}},{"name":"Im Schelp","postalCode":"29227","locality":"Celle","municipality":{"key":"03351006","name":"Celle, Stadt","type":"Stadt"},"district":{"key":"03351","name":"Celle","type":"Landkreis"},"federalState":{"key":"03","name":"Niedersachsen"}},{"name":"Im Schmaul","postalCode":"29221","locality":"Celle","municipality":{"key":"03351006","name":"Celle, Stadt","type":"Stadt"},"district":{"key":"03351","name":"Celle","type":"Landkreis"},"federalState":{"key":"03","name":"Niedersachsen"}},{"name":"Im Schulgarten","postalCode":"29223","locality":"Celle","municipality":{"key":"03351006","name":"Celle, Stadt","type":"Stadt"},"district":{"key":"03351","name":"Celle","type":"Landkreis"},"federalState":{"key":"03","name":"Niedersachsen"}},{"name":"Im Tale","postalCode":"29229","locality":"Celle","municipality":{"key":"03351006","name":"Celle, Stadt","type":"Stadt"},"district":{"key":"03351","name":"Celle","type":"Landkreis"},"federalState":{"key":"03","name":"Niedersachsen"}},{"name":"Im Teinert","postalCode":"29223","locality":"Celle","municipality":{"key":"03351006","name":"Celle, Stadt","type":"Stadt"},"district":{"key":"03351","name":"Celle","type":"Landkreis"},"federalState":{"key":"03","name":"Niedersachsen"}},{"name":"Im Werder","postalCode":"29221","locality":"Celle","municipality":{"key":"03351006","name":"Celle, Stadt","type":"Stadt"},"district":{"key":"03351","name":"Celle","type":"Landkreis"},"federalState":{"key":"03","name":"Niedersachsen"}},{"name":"Im Winkel","postalCode":"29229","locality":"Celle","municipality":{"key":"03351006","name":"Celle, Stadt","type":"Stadt"},"district":{"key":"03351","name":"Celle","type":"Landkreis"},"federalState":{"key":"03","name":"Niedersachsen"}},{"name":"In den Flachsgärten","postalCode":"29229","locality":"Celle","municipality":{"key":"03351006","name":"Celle, Stadt","type":"Stadt"},"district":{"key":"03351","name":"Celle","type":"Landkreis"},"federalState":{"key":"03","name":"Niedersachsen"}},{"name":"In den Hörsten","postalCode":"29227","locality":"Celle","municipality":{"key":"03351006","name":"Celle, Stadt","type":"Stadt"},"district":{"key":"03351","name":"Celle","type":"Landkreis"},"federalState":{"key":"03","name":"Niedersachsen"}},{"name":"In den Wacholdern","postalCode":"29225","locality":"Celle","municipality":{"key":"03351006","name":"Celle, Stadt","type":"Stadt"},"district":{"key":"03351","name":"Celle","type":"Landkreis"},"federalState":{"key":"03","name":"Niedersachsen"}},{"name":"Industriestr.","postalCode":"29227","locality":"Celle","municipality":{"key":"03351006","name":"Celle, Stadt","type":"Stadt"},"district":{"key":"03351","name":"Celle","type":"Landkreis"},"federalState":{"key":"03","name":"Niedersachsen"}},{"name":"Insterburger Str.","postalCode":"29227","locality":"Celle","municipality":{"key":"03351006","name":"Celle, Stadt","type":"Stadt"},"district":{"key":"03351","name":"Celle","type":"Landkreis"},"federalState":{"key":"03","name":"Niedersachsen"}},{"name":"Institutsgarten","postalCode":"29221","locality":"Celle","municipality":{"key":"03351006","name":"Celle, Stadt","type":"Stadt"},"district":{"key":"03351","name":"Celle","type":"Landkreis"},"federalState":{"key":"03","name":"Niedersachsen"}},{"name":"Irisstr.","postalCode":"29227","locality":"Celle","municipality":{"key":"03351006","name":"Celle, Stadt","type":"Stadt"},"district":{"key":"03351","name":"Celle","type":"Landkreis"},"federalState":{"key":"03","name":"Niedersachsen"}},{"name":"Itagstr.","postalCode":"29221","locality":"Celle","municipality":{"key":"03351006","name":"Celle, Stadt","type":"Stadt"},"district":{"key":"03351","name":"Celle","type":"Landkreis"},"federalState":{"key":"03","name":"Niedersachsen"}},{"name":"Italienischer Garten","postalCode":"29221","locality":"Celle","municipality":{"key":"03351006","name":"Celle, Stadt","type":"Stadt"},"district":{"key":"03351","name":"Celle","type":"Landkreis"},"federalState":{"key":"03","name":"Niedersachsen"}},{"name":"Jacobiweg","postalCode":"29225","locality":"Celle","municipality":{"key":"03351006","name":"Celle, Stadt","type":"Stadt"},"district":{"key":"03351","name":"Celle","type":"Landkreis"},"federalState":{"key":"03","name":"Niedersachsen"}},{"name":"Jagdweg","postalCode":"29227","locality":"Celle","municipality":{"key":"03351006","name":"Celle, Stadt","type":"Stadt"},"district":{"key":"03351","name":"Celle","type":"Landkreis"},"federalState":{"key":"03","name":"Niedersachsen"}},{"name":"Jägeraue","postalCode":"29225","locality":"Celle","municipality":{"key":"03351006","name":"Celle, Stadt","type":"Stadt"},"district":{"key":"03351","name":"Celle","type":"Landkreis"},"federalState":{"key":"03","name":"Niedersachsen"}},{"name":"Jägerberg","postalCode":"29229","locality":"Celle","municipality":{"key":"03351006","name":"Celle, Stadt","type":"Stadt"},"district":{"key":"03351","name":"Celle","type":"Landkreis"},"federalState":{"key":"03","name":"Niedersachsen"}},{"name":"Jägereischer Kirchweg","postalCode":"29229","locality":"Celle","municipality":{"key":"03351006","name":"Celle, Stadt","type":"Stadt"},"district":{"key":"03351","name":"Celle","type":"Landkreis"},"federalState":{"key":"03","name":"Niedersachsen"}},{"name":"Jägerstr.","postalCode":"29221","locality":"Celle","municipality":{"key":"03351006","name":"Celle, Stadt","type":"Stadt"},"district":{"key":"03351","name":"Celle","type":"Landkreis"},"federalState":{"key":"03","name":"Niedersachsen"}},{"name":"Jägerweg","postalCode":"29229","locality":"Celle","municipality":{"key":"03351006","name":"Celle, Stadt","type":"Stadt"},"district":{"key":"03351","name":"Celle","type":"Landkreis"},"federalState":{"key":"03","name":"Niedersachsen"}},{"name":"Jahnstr.","postalCode":"29227","locality":"Celle","municipality":{"key":"03351006","name":"Celle, Stadt","type":"Stadt"},"district":{"key":"03351","name":"Celle","type":"Landkreis"},"federalState":{"key":"03","name":"Niedersachsen"}},{"name":"Jänickestr.","postalCode":"29221","locality":"Celle","municipality":{"key":"03351006","name":"Celle, Stadt","type":"Stadt"},"district":{"key":"03351","name":"Celle","type":"Landkreis"},"federalState":{"key":"03","name":"Niedersachsen"}},{"name":"Johann-Strauß-Weg","postalCode":"29223","locality":"Celle","municipality":{"key":"03351006","name":"Celle, Stadt","type":"Stadt"},"district":{"key":"03351","name":"Celle","type":"Landkreis"},"federalState":{"key":"03","name":"Niedersachsen"}},{"name":"John-Busch-Str.","postalCode":"29223","locality":"Celle","municipality":{"key":"03351006","name":"Celle, Stadt","type":"Stadt"},"district":{"key":"03351","name":"Celle","type":"Landkreis"},"federalState":{"key":"03","name":"Niedersachsen"}},{"name":"Julius-von-der-Wall-Str.","postalCode":"29221","locality":"Celle","municipality":{"key":"03351006","name":"Celle, Stadt","type":"Stadt"},"district":{"key":"03351","name":"Celle","type":"Landkreis"},"federalState":{"key":"03","name":"Niedersachsen"}},{"name":"Kapellenstr.","postalCode":"29353","locality":"Ahnsbeck","municipality":{"key":"03351002","name":"Ahnsbeck","type":"Kreisangehörige_Gemeinde"},"district":{"key":"03351","name":"Celle","type":"Landkreis"},"federalState":{"key":"03","name":"Niedersachsen"}},{"name":"Königsberger Str.","postalCode":"29353","locality":"Ahnsbeck","municipality":{"key":"03351002","name":"Ahnsbeck","type":"Kreisangehörige_Gemeinde"},"district":{"key":"03351","name":"Celle","type":"Landkreis"},"federalState":{"key":"03","name":"Niedersachsen"}},{"name":"Kötnerstr.","postalCode":"29353","locality":"Ahnsbeck","municipality":{"key":"03351002","name":"Ahnsbeck","type":"Kreisangehörige_Gemeinde"},"district":{"key":"03351","name":"Celle","type":"Landkreis"},"federalState":{"key":"03","name":"Niedersachsen"}},{"name":"Kreuzfeldring","postalCode":"29353","locality":"Ahnsbeck","municipality":{"key":"03351002","name":"Ahnsbeck","type":"Kreisangehörige_Gemeinde"},"district":{"key":"03351","name":"Celle","type":"Landkreis"},"federalState":{"key":"03","name":"Niedersachsen"}},{"name":"Lachendorfer Weg","postalCode":"29229","locality":"Celle","municipality":{"key":"03351006","name":"Celle, Stadt","type":"Stadt"},"district":{"key":"03351","name":"Celle","type":"Landkreis"},"federalState":{"key":"03","name":"Niedersachsen"}},{"name":"Lachtehäuser Str.","postalCode":"29223","locality":"Celle","municipality":{"key":"03351006","name":"Celle, Stadt","type":"Stadt"},"district":{"key":"03351","name":"Celle","type":"Landkreis"},"federalState":{"key":"03","name":"Niedersachsen"}},{"name":"Landgestütstr.","postalCode":"29221","locality":"Celle","municipality":{"key":"03351006","name":"Celle, Stadt","type":"Stadt"},"district":{"key":"03351","name":"Celle","type":"Landkreis"},"federalState":{"key":"03","name":"Niedersachsen"}},{"name":"Landsberger Weg","postalCode":"29225","locality":"Celle","municipality":{"key":"03351006","name":"Celle, Stadt","type":"Stadt"},"district":{"key":"03351","name":"Celle","type":"Landkreis"},"federalState":{"key":"03","name":"Niedersachsen"}},{"name":"Landstallmeisterring","postalCode":"29227","locality":"Celle","municipality":{"key":"03351006","name":"Celle, Stadt","type":"Stadt"},"district":{"key":"03351","name":"Celle","type":"Landkreis"},"federalState":{"key":"03","name":"Niedersachsen"}},{"name":"Langenbeckstr.","postalCode":"29221","locality":"Celle","municipality":{"key":"03351006","name":"Celle, Stadt","type":"Stadt"},"district":{"key":"03351","name":"Celle","type":"Landkreis"},"federalState":{"key":"03","name":"Niedersachsen"}},{"name":"Langensalzaplatz","postalCode":"29221","locality":"Celle","municipality":{"key":"03351006","name":"Celle, Stadt","type":"Stadt"},"district":{"key":"03351","name":"Celle","type":"Landkreis"},"federalState":{"key":"03","name":"Niedersachsen"}},{"name":"Langerhansstr.","postalCode":"29223","locality":"Celle","municipality":{"key":"03351006","name":"Celle, Stadt","type":"Stadt"},"district":{"key":"03351","name":"Celle","type":"Landkreis"},"federalState":{"key":"03","name":"Niedersachsen"}},{"name":"Langer Kamp","postalCode":"29227","locality":"Celle","municipality":{"key":"03351006","name":"Celle, Stadt","type":"Stadt"},"district":{"key":"03351","name":"Celle","type":"Landkreis"},"federalState":{"key":"03","name":"Niedersachsen"}},{"name":"Langes Feld","postalCode":"29229","locality":"Celle","municipality":{"key":"03351006","name":"Celle, Stadt","type":"Stadt"},"district":{"key":"03351","name":"Celle","type":"Landkreis"},"federalState":{"key":"03","name":"Niedersachsen"}},{"name":"Lange Str.","postalCode":"29227","locality":"Celle","municipality":{"key":"03351006","name":"Celle, Stadt","type":"Stadt"},"district":{"key":"03351","name":"Celle","type":"Landkreis"},"federalState":{"key":"03","name":"Niedersachsen"}},{"name":"Lange Str.","postalCode":"29229","locality":"Celle","municipality":{"key":"03351006","name":"Celle, Stadt","type":"Stadt"},"district":{"key":"03351","name":"Celle","type":"Landkreis"},"federalState":{"key":"03","name":"Niedersachsen"}},{"name":"Lange Stücke","postalCode":"29227","locality":"Celle","municipality":{"key":"03351006","name":"Celle, Stadt","type":"Stadt"},"district":{"key":"03351","name":"Celle","type":"Landkreis"},"federalState":{"key":"03","name":"Niedersachsen"}},{"name":"Langnerstr.","postalCode":"29225","locality":"Celle","municipality":{"key":"03351006","name":"Celle, Stadt","type":"Stadt"},"district":{"key":"03351","name":"Celle","type":"Landkreis"},"federalState":{"key":"03","name":"Niedersachsen"}},{"name":"Lärchenweg","postalCode":"29227","locality":"Celle","municipality":{"key":"03351006","name":"Celle, Stadt","type":"Stadt"},"district":{"key":"03351","name":"Celle","type":"Landkreis"},"federalState":{"key":"03","name":"Niedersachsen"}},{"name":"Laubenweg","postalCode":"29227","locality":"Celle","municipality":{"key":"03351006","name":"Celle, Stadt","type":"Stadt"},"district":{"key":"03351","name":"Celle","type":"Landkreis"},"federalState":{"key":"03","name":"Niedersachsen"}},{"name":"Lauensteinplatz","postalCode":"29225","locality":"Celle","municipality":{"key":"03351006","name":"Celle, Stadt","type":"Stadt"},"district":{"key":"03351","name":"Celle","type":"Landkreis"},"federalState":{"key":"03","name":"Niedersachsen"}},{"name":"Lauensteinstr.","postalCode":"29225","locality":"Celle","municipality":{"key":"03351006","name":"Celle, Stadt","type":"Stadt"},"district":{"key":"03351","name":"Celle","type":"Landkreis"},"federalState":{"key":"03","name":"Niedersachsen"}},{"name":"Leberstr.","postalCode":"29223","locality":"Celle","municipality":{"key":"03351006","name":"Celle, Stadt","type":"Stadt"},"district":{"key":"03351","name":"Celle","type":"Landkreis"},"federalState":{"key":"03","name":"Niedersachsen"}},{"name":"Lehmhorstweg","postalCode":"29229","locality":"Celle","municipality":{"key":"03351006","name":"Celle, Stadt","type":"Stadt"},"district":{"key":"03351","name":"Celle","type":"Landkreis"},"federalState":{"key":"03","name":"Niedersachsen"}},{"name":"Lehmkuhlenbusch","postalCode":"29229","locality":"Celle","municipality":{"key":"03351006","name":"Celle, Stadt","type":"Stadt"},"district":{"key":"03351","name":"Celle","type":"Landkreis"},"federalState":{"key":"03","name":"Niedersachsen"}},{"name":"Lehmstich","postalCode":"29229","locality":"Celle","municipality":{"key":"03351006","name":"Celle, Stadt","type":"Stadt"},"district":{"key":"03351","name":"Celle","type":"Landkreis"},"federalState":{"key":"03","name":"Niedersachsen"}},{"name":"Leifertshorst","postalCode":"29227","locality":"Celle","municipality":{"key":"03351006","name":"Celle, Stadt","type":"Stadt"},"district":{"key":"03351","name":"Celle","type":"Landkreis"},"federalState":{"key":"03","name":"Niedersachsen"}},{"name":"Lenthestr.","postalCode":"29221","locality":"Celle","municipality":{"key":"03351006","name":"Celle, Stadt","type":"Stadt"},"district":{"key":"03351","name":"Celle","type":"Landkreis"},"federalState":{"key":"03","name":"Niedersachsen"}},{"name":"Leonhardtstr.","postalCode":"29227","locality":"Celle","municipality":{"key":"03351006","name":"Celle, Stadt","type":"Stadt"},"district":{"key":"03351","name":"Celle","type":"Landkreis"},"federalState":{"key":"03","name":"Niedersachsen"}},{"name":"Lerchenweg","postalCode":"29229","locality":"Celle","municipality":{"key":"03351006","name":"Celle, Stadt","type":"Stadt"},"district":{"key":"03351","name":"Celle","type":"Landkreis"},"federalState":{"key":"03","name":"Niedersachsen"}},{"name":"Lescourscher Garten","postalCode":"29223","locality":"Celle","municipality":{"key":"03351006","name":"Celle, Stadt","type":"Stadt"},"district":{"key":"03351","name":"Celle","type":"Landkreis"},"federalState":{"key":"03","name":"Niedersachsen"}},{"name":"Lessingstr.","postalCode":"29227","locality":"Celle","municipality":{"key":"03351006","name":"Celle, Stadt","type":"Stadt"},"district":{"key":"03351","name":"Celle","type":"Landkreis"},"federalState":{"key":"03","name":"Niedersachsen"}},{"name":"Leuschnerstr.","postalCode":"29223","locality":"Celle","municipality":{"key":"03351006","name":"Celle, Stadt","type":"Stadt"},"district":{"key":"03351","name":"Celle","type":"Landkreis"},"federalState":{"key":"03","name":"Niedersachsen"}},{"name":"Lichtnelkenweg","postalCode":"29227","locality":"Celle","municipality":{"key":"03351006","name":"Celle, Stadt","type":"Stadt"},"district":{"key":"03351","name":"Celle","type":"Landkreis"},"federalState":{"key":"03","name":"Niedersachsen"}},{"name":"Liegnitzer Weg","postalCode":"29225","locality":"Celle","municipality":{"key":"03351006","name":"Celle, Stadt","type":"Stadt"},"district":{"key":"03351","name":"Celle","type":"Landkreis"},"federalState":{"key":"03","name":"Niedersachsen"}},{"name":"Ligusterweg","postalCode":"29227","locality":"Celle","municipality":{"key":"03351006","name":"Celle, Stadt","type":"Stadt"},"district":{"key":"03351","name":"Celle","type":"Landkreis"},"federalState":{"key":"03","name":"Niedersachsen"}},{"name":"Lilienweg","postalCode":"29223","locality":"Celle","municipality":{"key":"03351006","name":"Celle, Stadt","type":"Stadt"},"district":{"key":"03351","name":"Celle","type":"Landkreis"},"federalState":{"key":"03","name":"Niedersachsen"}},{"name":"Lindenallee","postalCode":"29227","locality":"Celle","municipality":{"key":"03351006","name":"Celle, Stadt","type":"Stadt"},"district":{"key":"03351","name":"Celle","type":"Landkreis"},"federalState":{"key":"03","name":"Niedersachsen"}},{"name":"Lindenbergstr.","postalCode":"29223","locality":"Celle","municipality":{"key":"03351006","name":"Celle, Stadt","type":"Stadt"},"district":{"key":"03351","name":"Celle","type":"Landkreis"},"federalState":{"key":"03","name":"Niedersachsen"}},{"name":"Lindenstr.","postalCode":"29223","locality":"Celle","municipality":{"key":"03351006","name":"Celle, Stadt","type":"Stadt"},"district":{"key":"03351","name":"Celle","type":"Landkreis"},"federalState":{"key":"03","name":"Niedersachsen"}},{"name":"Linerweg","postalCode":"29227","locality":"Celle","municipality":{"key":"03351006","name":"Celle, Stadt","type":"Stadt"},"district":{"key":"03351","name":"Celle","type":"Landkreis"},"federalState":{"key":"03","name":"Niedersachsen"}},{"name":"Lisa-Korspeter-Str.","postalCode":"29221","locality":"Celle","municipality":{"key":"03351006","name":"Celle, Stadt","type":"Stadt"},"district":{"key":"03351","name":"Celle","type":"Landkreis"},"federalState":{"key":"03","name":"Niedersachsen"}},{"name":"Lisztstr.","postalCode":"29223","locality":"Celle","municipality":{"key":"03351006","name":"Celle, Stadt","type":"Stadt"},"district":{"key":"03351","name":"Celle","type":"Landkreis"},"federalState":{"key":"03","name":"Niedersachsen"}},{"name":"Lochteweg","postalCode":"29223","locality":"Celle","municipality":{"key":"03351006","name":"Celle, Stadt","type":"Stadt"},"district":{"key":"03351","name":"Celle","type":"Landkreis"},"federalState":{"key":"03","name":"Niedersachsen"}},{"name":"Lodemannweg","postalCode":"29223","locality":"Celle","municipality":{"key":"03351006","name":"Celle, Stadt","type":"Stadt"},"district":{"key":"03351","name":"Celle","type":"Landkreis"},"federalState":{"key":"03","name":"Niedersachsen"}},{"name":"Lönspark","postalCode":"29227","locality":"Celle","municipality":{"key":"03351006","name":"Celle, Stadt","type":"Stadt"},"district":{"key":"03351","name":"Celle","type":"Landkreis"},"federalState":{"key":"03","name":"Niedersachsen"}},{"name":"Lönsweg","postalCode":"29225","locality":"Celle","municipality":{"key":"03351006","name":"Celle, Stadt","type":"Stadt"},"district":{"key":"03351","name":"Celle","type":"Landkreis"},"federalState":{"key":"03","name":"Niedersachsen"}},{"name":"Lontzekweg","postalCode":"29223","locality":"Celle","municipality":{"key":"03351006","name":"Celle, Stadt","type":"Stadt"},"district":{"key":"03351","name":"Celle","type":"Landkreis"},"federalState":{"key":"03","name":"Niedersachsen"}},{"name":"Lortzingstr.","postalCode":"29223","locality":"Celle","municipality":{"key":"03351006","name":"Celle, Stadt","type":"Stadt"},"district":{"key":"03351","name":"Celle","type":"Landkreis"},"federalState":{"key":"03","name":"Niedersachsen"}},{"name":"Lückenweg","postalCode":"29227","locality":"Celle","municipality":{"key":"03351006","name":"Celle, Stadt","type":"Stadt"},"district":{"key":"03351","name":"Celle","type":"Landkreis"},"federalState":{"key":"03","name":"Niedersachsen"}},{"name":"Lüder-Wose-Str.","postalCode":"29221","locality":"Celle","municipality":{"key":"03351006","name":"Celle, Stadt","type":"Stadt"},"district":{"key":"03351","name":"Celle","type":"Landkreis"},"federalState":{"key":"03","name":"Niedersachsen"}},{"name":"Lüdkestr.","postalCode":"29227","locality":"Celle","municipality":{"key":"03351006","name":"Celle, Stadt","type":"Stadt"},"district":{"key":"03351","name":"Celle","type":"Landkreis"},"federalState":{"key":"03","name":"Niedersachsen"}},{"name":"Ludwig-Erhard-Str.","postalCode":"29225","locality":"Celle","municipality":{"key":"03351006","name":"Celle, Stadt","type":"Stadt"},"district":{"key":"03351","name":"Celle","type":"Landkreis"},"federalState":{"key":"03","name":"Niedersachsen"}},{"name":"Ludwig-Hölty-Str.","postalCode":"29225","locality":"Celle","municipality":{"key":"03351006","name":"Celle, Stadt","type":"Stadt"},"district":{"key":"03351","name":"Celle","type":"Landkreis"},"federalState":{"key":"03","name":"Niedersachsen"}},{"name":"Mühlenstr.","postalCode":"29353","locality":"Ahnsbeck","municipality":{"key":"03351002","name":"Ahnsbeck","type":"Kreisangehörige_Gemeinde"},"district":{"key":"03351","name":"Celle","type":"Landkreis"},"federalState":{"key":"03","name":"Niedersachsen"}},{"name":"Nordburger Str.","postalCode":"29353","locality":"Ahnsbeck","municipality":{"key":"03351002","name":"Ahnsbeck","type":"Kreisangehörige_Gemeinde"},"district":{"key":"03351","name":"Celle","type":"Landkreis"},"federalState":{"key":"03","name":"Niedersachsen"}},{"name":"Ortkamp","postalCode":"29353","locality":"Ahnsbeck","municipality":{"key":"03351002","name":"Ahnsbeck","type":"Kreisangehörige_Gemeinde"},"district":{"key":"03351","name":"Celle","type":"Landkreis"},"federalState":{"key":"03","name":"Niedersachsen"}},{"name":"Osterende","postalCode":"29353","locality":"Ahnsbeck","municipality":{"key":"03351002","name":"Ahnsbeck","type":"Kreisangehörige_Gemeinde"},"district":{"key":"03351","name":"Celle","type":"Landkreis"},"federalState":{"key":"03","name":"Niedersachsen"}},{"name":"Osterkamp","postalCode":"29353","locality":"Ahnsbeck","municipality":{"key":"03351002","name":"Ahnsbeck","type":"Kreisangehörige_Gemeinde"},"district":{"key":"03351","name":"Celle","type":"Landkreis"},"federalState":{"key":"03","name":"Niedersachsen"}},{"name":"Pommernweg","postalCode":"29353","locality":"Ahnsbeck","municipality":{"key":"03351002","name":"Ahnsbeck","type":"Kreisangehörige_Gemeinde"},"district":{"key":"03351","name":"Celle","type":"Landkreis"},"federalState":{"key":"03","name":"Niedersachsen"}},{"name":"Quedlinburgstr.","postalCode":"29225","locality":"Celle","municipality":{"key":"03351006","name":"Celle, Stadt","type":"Stadt"},"district":{"key":"03351","name":"Celle","type":"Landkreis"},"federalState":{"key":"03","name":"Niedersachsen"}},{"name":"Quellweg","postalCode":"29229","locality":"Celle","municipality":{"key":"03351006","name":"Celle, Stadt","type":"Stadt"},"district":{"key":"03351","name":"Celle","type":"Landkreis"},"federalState":{"key":"03","name":"Niedersachsen"}},{"name":"Quittenweg","postalCode":"29223","locality":"Celle","municipality":{"key":"03351006","name":"Celle, Stadt","type":"Stadt"},"district":{"key":"03351","name":"Celle","type":"Landkreis"},"federalState":{"key":"03","name":"Niedersachsen"}},{"name":"Rhienende","postalCode":"29353","locality":"Ahnsbeck","municipality":{"key":"03351002","name":"Ahnsbeck","type":"Kreisangehörige_Gemeinde"},"district":{"key":"03351","name":"Celle","type":"Landkreis"},"federalState":{"key":"03","name":"Niedersachsen"}},{"name":"Sackwinkel","postalCode":"29353","locality":"Ahnsbeck","municipality":{"key":"03351002","name":"Ahnsbeck","type":"Kreisangehörige_Gemeinde"},"district":{"key":"03351","name":"Celle","type":"Landkreis"},"federalState":{"key":"03","name":"Niedersachsen"}},{"name":"Stettiner Str.","postalCode":"29353","locality":"Ahnsbeck","municipality":{"key":"03351002","name":"Ahnsbeck","type":"Kreisangehörige_Gemeinde"},"district":{"key":"03351","name":"Celle","type":"Landkreis"},"federalState":{"key":"03","name":"Niedersachsen"}},{"name":"Südfeld","postalCode":"29353","locality":"Ahnsbeck","municipality":{"key":"03351002","name":"Ahnsbeck","type":"Kreisangehörige_Gemeinde"},"district":{"key":"03351","name":"Celle","type":"Landkreis"},"federalState":{"key":"03","name":"Niedersachsen"}},{"name":"Talgarten","postalCode":"29353","locality":"Ahnsbeck","municipality":{"key":"03351002","name":"Ahnsbeck","type":"Kreisangehörige_Gemeinde"},"district":{"key":"03351","name":"Celle","type":"Landkreis"},"federalState":{"key":"03","name":"Niedersachsen"}},{"name":"Twegte","postalCode":"29353","locality":"Ahnsbeck","municipality":{"key":"03351002","name":"Ahnsbeck","type":"Kreisangehörige_Gemeinde"},"district":{"key":"03351","name":"Celle","type":"Landkreis"},"federalState":{"key":"03","name":"Niedersachsen"}},{"name":"Uetzkamp","postalCode":"29229","locality":"Celle","municipality":{"key":"03351006","name":"Celle, Stadt","type":"Stadt"},"district":{"key":"03351","name":"Celle","type":"Landkreis"},"federalState":{"key":"03","name":"Niedersachsen"}},{"name":"Uferstr.","postalCode":"29221","locality":"Celle","municipality":{"key":"03351006","name":"Celle, Stadt","type":"Stadt"},"district":{"key":"03351","name":"Celle","type":"Landkreis"},"federalState":{"key":"03","name":"Niedersachsen"}},{"name":"Ulrich-Post-Str.","postalCode":"29227","locality":"Celle","municipality":{"key":"03351006","name":"Celle, Stadt","type":"Stadt"},"district":{"key":"03351","name":"Celle","type":"Landkreis"},"federalState":{"key":"03","name":"Niedersachsen"}},{"name":"Ungerstr.","postalCode":"29221","locality":"Celle","municipality":{"key":"03351006","name":"Celle, Stadt","type":"Stadt"},"district":{"key":"03351","name":"Celle","type":"Landkreis"},"federalState":{"key":"03","name":"Niedersachsen"}},{"name":"Unter den Eichen","postalCode":"29229","locality":"Celle","municipality":{"key":"03351006","name":"Celle, Stadt","type":"Stadt"},"district":{"key":"03351","name":"Celle","type":"Landkreis"},"federalState":{"key":"03","name":"Niedersachsen"}},{"name":"Vogelbeerweg","postalCode":"29229","locality":"Celle","municipality":{"key":"03351006","name":"Celle, Stadt","type":"Stadt"},"district":{"key":"03351","name":"Celle","type":"Landkreis"},"federalState":{"key":"03","name":"Niedersachsen"}},{"name":"Vogelberg","postalCode":"29227","locality":"Celle","municipality":{"key":"03351006","name":"Celle, Stadt","type":"Stadt"},"district":{"key":"03351","name":"Celle","type":"Landkreis"},"federalState":{"key":"03","name":"Niedersachsen"}},{"name":"Vogelsang","postalCode":"29221","locality":"Celle","municipality":{"key":"03351006","name":"Celle, Stadt","type":"Stadt"},"district":{"key":"03351","name":"Celle","type":"Landkreis"},"federalState":{"key":"03","name":"Niedersachsen"}},{"name":"Von-Plauen-Str.","postalCode":"29225","locality":"Celle","municipality":{"key":"03351006","name":"Celle, Stadt","type":"Stadt"},"district":{"key":"03351","name":"Celle","type":"Landkreis"},"federalState":{"key":"03","name":"Niedersachsen"}},{"name":"Von-Stephan-Str.","postalCode":"29229","locality":"Celle","municipality":{"key":"03351006","name":"Celle, Stadt","type":"Stadt"},"district":{"key":"03351","name":"Celle","type":"Landkreis"},"federalState":{"key":"03","name":"Niedersachsen"}},{"name":"Vorbruch","postalCode":"29227","locality":"Celle","municipality":{"key":"03351006","name":"Celle, Stadt","type":"Stadt"},"district":{"key":"03351","name":"Celle","type":"Landkreis"},"federalState":{"key":"03","name":"Niedersachsen"}},{"name":"Vor den Fuhren","postalCode":"29221","locality":"Celle","municipality":{"key":"03351006","name":"Celle, Stadt","type":"Stadt"},"district":{"key":"03351","name":"Celle","type":"Landkreis"},"federalState":{"key":"03","name":"Niedersachsen"}},{"name":"Vorkampstr.","postalCode":"29223","locality":"Celle","municipality":{"key":"03351006","name":"Celle, Stadt","type":"Stadt"},"district":{"key":"03351","name":"Celle","type":"Landkreis"},"federalState":{"key":"03","name":"Niedersachsen"}},{"name":"Vorwerker Platz","postalCode":"29229","locality":"Celle","municipality":{"key":"03351006","name":"Celle, Stadt","type":"Stadt"},"district":{"key":"03351","name":"Celle","type":"Landkreis"},"federalState":{"key":"03","name":"Niedersachsen"}},{"name":"Wacholderstieg","postalCode":"29227","locality":"Celle","municipality":{"key":"03351006","name":"Celle, Stadt","type":"Stadt"},"district":{"key":"03351","name":"Celle","type":"Landkreis"},"federalState":{"key":"03","name":"Niedersachsen"}},{"name":"Wacholderweg","postalCode":"29229","locality":"Celle","municipality":{"key":"03351006","name":"Celle, Stadt","type":"Stadt"},"district":{"key":"03351","name":"Celle","type":"Landkreis"},"federalState":{"key":"03","name":"Niedersachsen"}},{"name":"Wachtelweg","postalCode":"29223","locality":"Celle","municipality":{"key":"03351006","name":"Celle, Stadt","type":"Stadt"},"district":{"key":"03351","name":"Celle","type":"Landkreis"},"federalState":{"key":"03","name":"Niedersachsen"}},{"name":"Wagnerweg","postalCode":"29223","locality":"Celle","municipality":{"key":"03351006","name":"Celle, Stadt","type":"Stadt"},"district":{"key":"03351","name":"Celle","type":"Landkreis"},"federalState":{"key":"03","name":"Niedersachsen"}},{"name":"Waldschmiede","postalCode":"29225","locality":"Celle","municipality":{"key":"03351006","name":"Celle, Stadt","type":"Stadt"},"district":{"key":"03351","name":"Celle","type":"Landkreis"},"federalState":{"key":"03","name":"Niedersachsen"}},{"name":"Waldweg","postalCode":"29221","locality":"Celle","municipality":{"key":"03351006","name":"Celle, Stadt","type":"Stadt"},"district":{"key":"03351","name":"Celle","type":"Landkreis"},"federalState":{"key":"03","name":"Niedersachsen"}},{"name":"Walkaterring","postalCode":"29229","locality":"Celle","municipality":{"key":"03351006","name":"Celle, Stadt","type":"Stadt"},"district":{"key":"03351","name":"Celle","type":"Landkreis"},"federalState":{"key":"03","name":"Niedersachsen"}},{"name":"Walter-Winkelmann-Str.","postalCode":"29229","locality":"Celle","municipality":{"key":"03351006","name":"Celle, Stadt","type":"Stadt"},"district":{"key":"03351","name":"Celle","type":"Landkreis"},"federalState":{"key":"03","name":"Niedersachsen"}},{"name":"Wangelinweg","postalCode":"29225","locality":"Celle","municipality":{"key":"03351006","name":"Celle, Stadt","type":"Stadt"},"district":{"key":"03351","name":"Celle","type":"Landkreis"},"federalState":{"key":"03","name":"Niedersachsen"}},{"name":"Warnemünder Weg","postalCode":"29225","locality":"Celle","municipality":{"key":"03351006","name":"Celle, Stadt","type":"Stadt"},"district":{"key":"03351","name":"Celle","type":"Landkreis"},"federalState":{"key":"03","name":"Niedersachsen"}},{"name":"Warthestr.","postalCode":"29229","locality":"Celle","municipality":{"key":"03351006","name":"Celle, Stadt","type":"Stadt"},"district":{"key":"03351","name":"Celle","type":"Landkreis"},"federalState":{"key":"03","name":"Niedersachsen"}},{"name":"Weberstieg","postalCode":"29229","locality":"Celle","municipality":{"key":"03351006","name":"Celle, Stadt","type":"Stadt"},"district":{"key":"03351","name":"Celle","type":"Landkreis"},"federalState":{"key":"03","name":"Niedersachsen"}},{"name":"Wederweg","postalCode":"29221","locality":"Celle","municipality":{"key":"03351006","name":"Celle, Stadt","type":"Stadt"},"district":{"key":"03351","name":"Celle","type":"Landkreis"},"federalState":{"key":"03","name":"Niedersachsen"}},{"name":"Weghaus","postalCode":"29223","locality":"Celle","municipality":{"key":"03351006","name":"Celle, Stadt","type":"Stadt"},"district":{"key":"03351","name":"Celle","type":"Landkreis"},"federalState":{"key":"03","name":"Niedersachsen"}},{"name":"Weghausstr.","postalCode":"29223","locality":"Celle","municipality":{"key":"03351006","name":"Celle, Stadt","type":"Stadt"},"district":{"key":"03351","name":"Celle","type":"Landkreis"},"federalState":{"key":"03","name":"Niedersachsen"}},{"name":"Wehlenberg","postalCode":"29227","locality":"Celle","municipality":{"key":"03351006","name":"Celle, Stadt","type":"Stadt"},"district":{"key":"03351","name":"Celle","type":"Landkreis"},"federalState":{"key":"03","name":"Niedersachsen"}},{"name":"Wehlstr.","postalCode":"29221","locality":"Celle","municipality":{"key":"03351006","name":"Celle, Stadt","type":"Stadt"},"district":{"key":"03351","name":"Celle","type":"Landkreis"},"federalState":{"key":"03","name":"Niedersachsen"}},{"name":"Wehranlage Osterloh","postalCode":"29227","locality":"Celle","municipality":{"key":"03351006","name":"Celle, Stadt","type":"Stadt"},"district":{"key":"03351","name":"Celle","type":"Landkreis"},"federalState":{"key":"03","name":"Niedersachsen"}},{"name":"Weidenweg","postalCode":"29229","locality":"Celle","municipality":{"key":"03351006","name":"Celle, Stadt","type":"Stadt"},"district":{"key":"03351","name":"Celle","type":"Landkreis"},"federalState":{"key":"03","name":"Niedersachsen"}},{"name":"Weingarten","postalCode":"29223","locality":"Celle","municipality":{"key":"03351006","name":"Celle, Stadt","type":"Stadt"},"district":{"key":"03351","name":"Celle","type":"Landkreis"},"federalState":{"key":"03","name":"Niedersachsen"}},{"name":"Weißes Feld","postalCode":"29221","locality":"Celle","municipality":{"key":"03351006","name":"Celle, Stadt","type":"Stadt"},"district":{"key":"03351","name":"Celle","type":"Landkreis"},"federalState":{"key":"03","name":"Niedersachsen"}},{"name":"Welfenallee","postalCode":"29225","locality":"Celle","municipality":{"key":"03351006","name":"Celle, Stadt","type":"Stadt"},"district":{"key":"03351","name":"Celle","type":"Landkreis"},"federalState":{"key":"03","name":"Niedersachsen"}},{"name":"Wensestr.","postalCode":"29223","locality":"Celle","municipality":{"key":"03351006","name":"Celle, Stadt","type":"Stadt"},"district":{"key":"03351","name":"Celle","type":"Landkreis"},"federalState":{"key":"03","name":"Niedersachsen"}},{"name":"Wernerusstr.","postalCode":"29227","locality":"Celle","municipality":{"key":"03351006","name":"Celle, Stadt","type":"Stadt"},"district":{"key":"03351","name":"Celle","type":"Landkreis"},"federalState":{"key":"03","name":"Niedersachsen"}},{"name":"Westcellertorstr.","postalCode":"29221","locality":"Celle","municipality":{"key":"03351006","name":"Celle, Stadt","type":"Stadt"},"district":{"key":"03351","name":"Celle","type":"Landkreis"},"federalState":{"key":"03","name":"Niedersachsen"}},{"name":"Westerberg","postalCode":"29229","locality":"Celle","municipality":{"key":"03351006","name":"Celle, Stadt","type":"Stadt"},"district":{"key":"03351","name":"Celle","type":"Landkreis"},"federalState":{"key":"03","name":"Niedersachsen"}},{"name":"Westerceller Str.","postalCode":"29227","locality":"Celle","municipality":{"key":"03351006","name":"Celle, Stadt","type":"Stadt"},"district":{"key":"03351","name":"Celle","type":"Landkreis"},"federalState":{"key":"03","name":"Niedersachsen"}},{"name":"Westfeld","postalCode":"29227","locality":"Celle","municipality":{"key":"03351006","name":"Celle, Stadt","type":"Stadt"},"district":{"key":"03351","name":"Celle","type":"Landkreis"},"federalState":{"key":"03","name":"Niedersachsen"}},{"name":"Westpreußenstr.","postalCode":"29225","locality":"Celle","municipality":{"key":"03351006","name":"Celle, Stadt","type":"Stadt"},"district":{"key":"03351","name":"Celle","type":"Landkreis"},"federalState":{"key":"03","name":"Niedersachsen"}},{"name":"Wiesengrund","postalCode":"29227","locality":"Celle","municipality":{"key":"03351006","name":"Celle, Stadt","type":"Stadt"},"district":{"key":"03351","name":"Celle","type":"Landkreis"},"federalState":{"key":"03","name":"Niedersachsen"}},{"name":"Wiesenstr.","postalCode":"29221","locality":"Celle","municipality":{"key":"03351006","name":"Celle, Stadt","type":"Stadt"},"district":{"key":"03351","name":"Celle","type":"Landkreis"},"federalState":{"key":"03","name":"Niedersachsen"}},{"name":"Wiesenstr.","postalCode":"29225","locality":"Celle","municipality":{"key":"03351006","name":"Celle, Stadt","type":"Stadt"},"district":{"key":"03351","name":"Celle","type":"Landkreis"},"federalState":{"key":"03","name":"Niedersachsen"}},{"name":"Wildgarten","postalCode":"29221","locality":"Celle","municipality":{"key":"03351006","name":"Celle, Stadt","type":"Stadt"},"district":{"key":"03351","name":"Celle","type":"Landkreis"},"federalState":{"key":"03","name":"Niedersachsen"}},{"name":"Wildweg","postalCode":"29229","locality":"Celle","municipality":{"key":"03351006","name":"Celle, Stadt","type":"Stadt"},"district":{"key":"03351","name":"Celle","type":"Landkreis"},"federalState":{"key":"03","name":"Niedersachsen"}},{"name":"Wilhelm-Busch-Weg","postalCode":"29229","locality":"Celle","municipality":{"key":"03351006","name":"Celle, Stadt","type":"Stadt"},"district":{"key":"03351","name":"Celle","type":"Landkreis"},"federalState":{"key":"03","name":"Niedersachsen"}},{"name":"Wilhelm-Deecke-Str.","postalCode":"29227","locality":"Celle","municipality":{"key":"03351006","name":"Celle, Stadt","type":"Stadt"},"district":{"key":"03351","name":"Celle","type":"Landkreis"},"federalState":{"key":"03","name":"Niedersachsen"}},{"name":"Wilhelm-Fricke-Weg","postalCode":"29221","locality":"Celle","municipality":{"key":"03351006","name":"Celle, Stadt","type":"Stadt"},"district":{"key":"03351","name":"Celle","type":"Landkreis"},"federalState":{"key":"03","name":"Niedersachsen"}},{"name":"Wilhelm-Hasselmann-Str.","postalCode":"29227","locality":"Celle","municipality":{"key":"03351006","name":"Celle, Stadt","type":"Stadt"},"district":{"key":"03351","name":"Celle","type":"Landkreis"},"federalState":{"key":"03","name":"Niedersachsen"}},{"name":"Wilhelm-Heinichen-Ring","postalCode":"29223","locality":"Celle","municipality":{"key":"03351006","name":"Celle, Stadt","type":"Stadt"},"district":{"key":"03351","name":"Celle","type":"Landkreis"},"federalState":{"key":"03","name":"Niedersachsen"}},{"name":"Wilhelm-Heinichen-Ring","postalCode":"29225","locality":"Celle","municipality":{"key":"03351006","name":"Celle, Stadt","type":"Stadt"},"district":{"key":"03351","name":"Celle","type":"Landkreis"},"federalState":{"key":"03","name":"Niedersachsen"}},{"name":"Wilhelm-Heinichen-Ring","postalCode":"29227","locality":"Celle","municipality":{"key":"03351006","name":"Celle, Stadt","type":"Stadt"},"district":{"key":"03351","name":"Celle","type":"Landkreis"},"federalState":{"key":"03","name":"Niedersachsen"}},{"name":"Wilhelm-Kricheldorff-Str.","postalCode":"29223","locality":"Celle","municipality":{"key":"03351006","name":"Celle, Stadt","type":"Stadt"},"district":{"key":"03351","name":"Celle","type":"Landkreis"},"federalState":{"key":"03","name":"Niedersachsen"}},{"name":"Wilhelm-Saucke-Str.","postalCode":"29227","locality":"Celle","municipality":{"key":"03351006","name":"Celle, Stadt","type":"Stadt"},"district":{"key":"03351","name":"Celle","type":"Landkreis"},"federalState":{"key":"03","name":"Niedersachsen"}},{"name":"Wilshornsfeld","postalCode":"29229","locality":"Celle","municipality":{"key":"03351006","name":"Celle, Stadt","type":"Stadt"},"district":{"key":"03351","name":"Celle","type":"Landkreis"},"federalState":{"key":"03","name":"Niedersachsen"}},{"name":"Windmühlenstr.","postalCode":"29221","locality":"Celle","municipality":{"key":"03351006","name":"Celle, Stadt","type":"Stadt"},"district":{"key":"03351","name":"Celle","type":"Landkreis"},"federalState":{"key":"03","name":"Niedersachsen"}},{"name":"Windthorststr.","postalCode":"29227","locality":"Celle","municipality":{"key":"03351006","name":"Celle, Stadt","type":"Stadt"},"district":{"key":"03351","name":"Celle","type":"Landkreis"},"federalState":{"key":"03","name":"Niedersachsen"}},{"name":"Winkelmanns Graft","postalCode":"29227","locality":"Celle","municipality":{"key":"03351006","name":"Celle, Stadt","type":"Stadt"},"district":{"key":"03351","name":"Celle","type":"Landkreis"},"federalState":{"key":"03","name":"Niedersachsen"}},{"name":"Winsener Str.","postalCode":"29223","locality":"Celle","municipality":{"key":"03351006","name":"Celle, Stadt","type":"Stadt"},"district":{"key":"03351","name":"Celle","type":"Landkreis"},"federalState":{"key":"03","name":"Niedersachsen"}},{"name":"Winsener Weg","postalCode":"29229","locality":"Celle","municipality":{"key":"03351006","name":"Celle, Stadt","type":"Stadt"},"district":{"key":"03351","name":"Celle","type":"Landkreis"},"federalState":{"key":"03","name":"Niedersachsen"}},{"name":"Wittbecker Str.","postalCode":"29229","locality":"Celle","municipality":{"key":"03351006","name":"Celle, Stadt","type":"Stadt"},"district":{"key":"03351","name":"Celle","type":"Landkreis"},"federalState":{"key":"03","name":"Niedersachsen"}},{"name":"Yorckstr.","postalCode":"29223","locality":"Celle","municipality":{"key":"03351006","name":"Celle, Stadt","type":"Stadt"},"district":{"key":"03351","name":"Celle","type":"Landkreis"},"federalState":{"key":"03","name":"Niedersachsen"}},{"name":"Zeisigweg","postalCode":"29229","locality":"Celle","municipality":{"key":"03351006","name":"Celle, Stadt","type":"Stadt"},"district":{"key":"03351","name":"Celle","type":"Landkreis"},"federalState":{"key":"03","name":"Niedersachsen"}},{"name":"Ziegelkamp","postalCode":"29229","locality":"Celle","municipality":{"key":"03351006","name":"Celle, Stadt","type":"Stadt"},"district":{"key":"03351","name":"Celle","type":"Landkreis"},"federalState":{"key":"03","name":"Niedersachsen"}},{"name":"Zimmereistr.","postalCode":"29227","locality":"Celle","municipality":{"key":"03351006","name":"Celle, Stadt","type":"Stadt"},"district":{"key":"03351","name":"Celle","type":"Landkreis"},"federalState":{"key":"03","name":"Niedersachsen"}},{"name":"Zu den Fuhren","postalCode":"29227","locality":"Celle","municipality":{"key":"03351006","name":"Celle, Stadt","type":"Stadt"},"district":{"key":"03351","name":"Celle","type":"Landkreis"},"federalState":{"key":"03","name":"Niedersachsen"}},{"name":"Zugbrückenstr.","postalCode":"29223","locality":"Celle","municipality":{"key":"03351006","name":"Celle, Stadt","type":"Stadt"},"district":{"key":"03351","name":"Celle","type":"Landkreis"},"federalState":{"key":"03","name":"Niedersachsen"}},{"name":"Zum Alten Bad","postalCode":"29227","locality":"Celle","municipality":{"key":"03351006","name":"Celle, Stadt","type":"Stadt"},"district":{"key":"03351","name":"Celle","type":"Landkreis"},"federalState":{"key":"03","name":"Niedersachsen"}},{"name":"Zum Alten Kanal","postalCode":"29225","locality":"Celle","municipality":{"key":"03351006","name":"Celle, Stadt","type":"Stadt"},"district":{"key":"03351","name":"Celle","type":"Landkreis"},"federalState":{"key":"03","name":"Niedersachsen"}},{"name":"Zum Burgwall","postalCode":"29227","locality":"Celle","municipality":{"key":"03351006","name":"Celle, Stadt","type":"Stadt"},"district":{"key":"03351","name":"Celle","type":"Landkreis"},"federalState":{"key":"03","name":"Niedersachsen"}},{"name":"Zum Hartsteinwerk","postalCode":"29229","locality":"Celle","municipality":{"key":"03351006","name":"Celle, Stadt","type":"Stadt"},"district":{"key":"03351","name":"Celle","type":"Landkreis"},"federalState":{"key":"03","name":"Niedersachsen"}},{"name":"Zum Heuweg","postalCode":"29225","locality":"Celle","municipality":{"key":"03351006","name":"Celle, Stadt","type":"Stadt"},"district":{"key":"03351","name":"Celle","type":"Landkreis"},"federalState":{"key":"03","name":"Niedersachsen"}},{"name":"Zum Kiebitzsee","postalCode":"29225","locality":"Celle","municipality":{"key":"03351006","name":"Celle, Stadt","type":"Stadt"},"district":{"key":"03351","name":"Celle","type":"Landkreis"},"federalState":{"key":"03","name":"Niedersachsen"}},{"name":"Zum Schleusenkolk","postalCode":"29223","locality":"Celle","municipality":{"key":"03351006","name":"Celle, Stadt","type":"Stadt"},"district":{"key":"03351","name":"Celle","type":"Landkreis"},"federalState":{"key":"03","name":"Niedersachsen"}},{"name":"Zum Silbersee","postalCode":"29229","locality":"Celle","municipality":{"key":"03351006","name":"Celle, Stadt","type":"Stadt"},"district":{"key":"03351","name":"Celle","type":"Landkreis"},"federalState":{"key":"03","name":"Niedersachsen"}},{"name":"Zum Sportheim","postalCode":"29227","locality":"Celle","municipality":{"key":"03351006","name":"Celle, Stadt","type":"Stadt"},"district":{"key":"03351","name":"Celle","type":"Landkreis"},"federalState":{"key":"03","name":"Niedersachsen"}},{"name":"Zum Thingplatz","postalCode":"29229","locality":"Celle","municipality":{"key":"03351006","name":"Celle, Stadt","type":"Stadt"},"district":{"key":"03351","name":"Celle","type":"Landkreis"},"federalState":{"key":"03","name":"Niedersachsen"}},{"name":"Zum Weißen Moor","postalCode":"29225","locality":"Celle","municipality":{"key":"03351006","name":"Celle, Stadt","type":"Stadt"},"district":{"key":"03351","name":"Celle","type":"Landkreis"},"federalState":{"key":"03","name":"Niedersachsen"}},{"name":"Zur Alten Heerstr.","postalCode":"29227","locality":"Celle","municipality":{"key":"03351006","name":"Celle, Stadt","type":"Stadt"},"district":{"key":"03351","name":"Celle","type":"Landkreis"},"federalState":{"key":"03","name":"Niedersachsen"}},{"name":"Zur Alten Schmiede","postalCode":"29229","locality":"Celle","municipality":{"key":"03351006","name":"Celle, Stadt","type":"Stadt"},"district":{"key":"03351","name":"Celle","type":"Landkreis"},"federalState":{"key":"03","name":"Niedersachsen"}},{"name":"Zur Bünte","postalCode":"29227","locality":"Celle","municipality":{"key":"03351006","name":"Celle, Stadt","type":"Stadt"},"district":{"key":"03351","name":"Celle","type":"Landkreis"},"federalState":{"key":"03","name":"Niedersachsen"}},{"name":"Zur Fuchsfarm","postalCode":"29227","locality":"Celle","municipality":{"key":"03351006","name":"Celle, Stadt","type":"Stadt"},"district":{"key":"03351","name":"Celle","type":"Landkreis"},"federalState":{"key":"03","name":"Niedersachsen"}},{"name":"Zur Hasselklink","postalCode":"29229","locality":"Celle","municipality":{"key":"03351006","name":"Celle, Stadt","type":"Stadt"},"district":{"key":"03351","name":"Celle","type":"Landkreis"},"federalState":{"key":"03","name":"Niedersachsen"}},{"name":"Zur Jägerei","postalCode":"29229","locality":"Celle","municipality":{"key":"03351006","name":"Celle, Stadt","type":"Stadt"},"district":{"key":"03351","name":"Celle","type":"Landkreis"},"federalState":{"key":"03","name":"Niedersachsen"}},{"name":"Österleystr.","postalCode":"29225","locality":"Celle","municipality":{"key":"03351006","name":"Celle, Stadt","type":"Stadt"},"district":{"key":"03351","name":"Celle","type":"Landkreis"},"federalState":{"key":"03","name":"Niedersachsen"}},]