[{"name":"Achtliede","postalCode":"36211","locality":"Alheim","municipality":{"key":"06632001","name":"Alheim","type":"Kreisangehörige_Gemeinde"},"district":{"key":"06632","name":"Hersfeld-Rotenburg","type":"Landkreis"},"federalState":{"key":"06","name":"Hessen"}},{"name":"Ackerweingärten","postalCode":"74388","locality":"Talheim","municipality":{"key":"08125094","name":"Talheim","type":"Kreisangehörige_Gemeinde"},"district":{"key":"08125","name":"Heilbronn","type":"Landkreis"},"federalState":{"key":"08","name":"Baden-Württemberg"}},{"name":"Adlerweg","postalCode":"74399","locality":"Walheim","municipality":{"key":"08118074","name":"Walheim","type":"Kreisangehörige_Gemeinde"},"district":{"key":"08118","name":"Ludwigsburg","type":"Landkreis"},"federalState":{"key":"08","name":"Baden-Württemberg"}},{"name":"Adolf-Trefz-Weg","postalCode":"74388","locality":"Talheim","municipality":{"key":"08125094","name":"Talheim","type":"Kreisangehörige_Gemeinde"},"district":{"key":"08125","name":"Heilbronn","type":"Landkreis"},"federalState":{"key":"08","name":"Baden-Württemberg"}},{"name":"Agendorfer Weg","postalCode":"74388","locality":"Talheim","municipality":{"key":"08125094","name":"Talheim","type":"Kreisangehörige_Gemeinde"},"district":{"key":"08125","name":"Heilbronn","type":"Landkreis"},"federalState":{"key":"08","name":"Baden-Württemberg"}},{"name":"Ahornstr.","postalCode":"36211","locality":"Alheim","municipality":{"key":"06632001","name":"Alheim","type":"Kreisangehörige_Gemeinde"},"district":{"key":"06632","name":"Hersfeld-Rotenburg","type":"Landkreis"},"federalState":{"key":"06","name":"Hessen"}},{"name":"Ahornweg","postalCode":"74388","locality":"Talheim","municipality":{"key":"08125094","name":"Talheim","type":"Kreisangehörige_Gemeinde"},"district":{"key":"08125","name":"Heilbronn","type":"Landkreis"},"federalState":{"key":"08","name":"Baden-Württemberg"}},{"name":"Akazienweg","postalCode":"36211","locality":"Alheim","municipality":{"key":"06632001","name":"Alheim","type":"Kreisangehörige_Gemeinde"},"district":{"key":"06632","name":"Hersfeld-Rotenburg","type":"Landkreis"},"federalState":{"key":"06","name":"Hessen"}},{"name":"Akazienweg","postalCode":"74388","locality":"Talheim","municipality":{"key":"08125094","name":"Talheim","type":"Kreisangehörige_Gemeinde"},"district":{"key":"08125","name":"Heilbronn","type":"Landkreis"},"federalState":{"key":"08","name":"Baden-Württemberg"}},{"name":"Alemannenstr.","postalCode":"74388","locality":"Talheim","municipality":{"key":"08125094","name":"Talheim","type":"Kreisangehörige_Gemeinde"},"district":{"key":"08125","name":"Heilbronn","type":"Landkreis"},"federalState":{"key":"08","name":"Baden-Württemberg"}},{"name":"Alheimerstr.","postalCode":"36211","locality":"Alheim","municipality":{"key":"06632001","name":"Alheim","type":"Kreisangehörige_Gemeinde"},"district":{"key":"06632","name":"Hersfeld-Rotenburg","type":"Landkreis"},"federalState":{"key":"06","name":"Hessen"}},{"name":"Alheimer Weg","postalCode":"36211","locality":"Alheim","municipality":{"key":"06632001","name":"Alheim","type":"Kreisangehörige_Gemeinde"},"district":{"key":"06632","name":"Hersfeld-Rotenburg","type":"Landkreis"},"federalState":{"key":"06","name":"Hessen"}},{"name":"Alte Gasse","postalCode":"36211","locality":"Alheim","municipality":{"key":"06632001","name":"Alheim","type":"Kreisangehörige_Gemeinde"},"district":{"key":"06632","name":"Hersfeld-Rotenburg","type":"Landkreis"},"federalState":{"key":"06","name":"Hessen"}},{"name":"Alter Rauher Stich","postalCode":"74388","locality":"Talheim","municipality":{"key":"08125094","name":"Talheim","type":"Kreisangehörige_Gemeinde"},"district":{"key":"08125","name":"Heilbronn","type":"Landkreis"},"federalState":{"key":"08","name":"Baden-Württemberg"}},{"name":"Am alten Wasser","postalCode":"36211","locality":"Alheim","municipality":{"key":"06632001","name":"Alheim","type":"Kreisangehörige_Gemeinde"},"district":{"key":"06632","name":"Hersfeld-Rotenburg","type":"Landkreis"},"federalState":{"key":"06","name":"Hessen"}},{"name":"Am Bach","postalCode":"36211","locality":"Alheim","municipality":{"key":"06632001","name":"Alheim","type":"Kreisangehörige_Gemeinde"},"district":{"key":"06632","name":"Hersfeld-Rotenburg","type":"Landkreis"},"federalState":{"key":"06","name":"Hessen"}},{"name":"Am Baumbach","postalCode":"74399","locality":"Walheim","municipality":{"key":"08118074","name":"Walheim","type":"Kreisangehörige_Gemeinde"},"district":{"key":"08118","name":"Ludwigsburg","type":"Landkreis"},"federalState":{"key":"08","name":"Baden-Württemberg"}},{"name":"Am Berg","postalCode":"36211","locality":"Alheim","municipality":{"key":"06632001","name":"Alheim","type":"Kreisangehörige_Gemeinde"},"district":{"key":"06632","name":"Hersfeld-Rotenburg","type":"Landkreis"},"federalState":{"key":"06","name":"Hessen"}},{"name":"Am Forsthaus","postalCode":"36211","locality":"Alheim","municipality":{"key":"06632001","name":"Alheim","type":"Kreisangehörige_Gemeinde"},"district":{"key":"06632","name":"Hersfeld-Rotenburg","type":"Landkreis"},"federalState":{"key":"06","name":"Hessen"}},{"name":"Am Haischbaum","postalCode":"36211","locality":"Alheim","municipality":{"key":"06632001","name":"Alheim","type":"Kreisangehörige_Gemeinde"},"district":{"key":"06632","name":"Hersfeld-Rotenburg","type":"Landkreis"},"federalState":{"key":"06","name":"Hessen"}},{"name":"Am Heiligenhaus","postalCode":"36211","locality":"Alheim","municipality":{"key":"06632001","name":"Alheim","type":"Kreisangehörige_Gemeinde"},"district":{"key":"06632","name":"Hersfeld-Rotenburg","type":"Landkreis"},"federalState":{"key":"06","name":"Hessen"}},{"name":"Am Holzgraben","postalCode":"36211","locality":"Alheim","municipality":{"key":"06632001","name":"Alheim","type":"Kreisangehörige_Gemeinde"},"district":{"key":"06632","name":"Hersfeld-Rotenburg","type":"Landkreis"},"federalState":{"key":"06","name":"Hessen"}},{"name":"Am Hüttenrain","postalCode":"36211","locality":"Alheim","municipality":{"key":"06632001","name":"Alheim","type":"Kreisangehörige_Gemeinde"},"district":{"key":"06632","name":"Hersfeld-Rotenburg","type":"Landkreis"},"federalState":{"key":"06","name":"Hessen"}},{"name":"Am Johannesberg","postalCode":"36211","locality":"Alheim","municipality":{"key":"06632001","name":"Alheim","type":"Kreisangehörige_Gemeinde"},"district":{"key":"06632","name":"Hersfeld-Rotenburg","type":"Landkreis"},"federalState":{"key":"06","name":"Hessen"}},{"name":"Am Kirchberg","postalCode":"55278","locality":"Dalheim","municipality":{"key":"07339010","name":"Dalheim","type":"Kreisangehörige_Gemeinde"},"district":{"key":"07339","name":"Mainz-Bingen","type":"Landkreis"},"federalState":{"key":"07","name":"Rheinland-Pfalz"}},{"name":"Am Kringels","postalCode":"36211","locality":"Alheim","municipality":{"key":"06632001","name":"Alheim","type":"Kreisangehörige_Gemeinde"},"district":{"key":"06632","name":"Hersfeld-Rotenburg","type":"Landkreis"},"federalState":{"key":"06","name":"Hessen"}},{"name":"Am Loh","postalCode":"36211","locality":"Alheim","municipality":{"key":"06632001","name":"Alheim","type":"Kreisangehörige_Gemeinde"},"district":{"key":"06632","name":"Hersfeld-Rotenburg","type":"Landkreis"},"federalState":{"key":"06","name":"Hessen"}},{"name":"Am Michelstein","postalCode":"74399","locality":"Walheim","municipality":{"key":"08118074","name":"Walheim","type":"Kreisangehörige_Gemeinde"},"district":{"key":"08118","name":"Ludwigsburg","type":"Landkreis"},"federalState":{"key":"08","name":"Baden-Württemberg"}},{"name":"Am Minnstück","postalCode":"36211","locality":"Alheim","municipality":{"key":"06632001","name":"Alheim","type":"Kreisangehörige_Gemeinde"},"district":{"key":"06632","name":"Hersfeld-Rotenburg","type":"Landkreis"},"federalState":{"key":"06","name":"Hessen"}},{"name":"Am Mühlgraben","postalCode":"36211","locality":"Alheim","municipality":{"key":"06632001","name":"Alheim","type":"Kreisangehörige_Gemeinde"},"district":{"key":"06632","name":"Hersfeld-Rotenburg","type":"Landkreis"},"federalState":{"key":"06","name":"Hessen"}},{"name":"Am Muhrgarten","postalCode":"36211","locality":"Alheim","municipality":{"key":"06632001","name":"Alheim","type":"Kreisangehörige_Gemeinde"},"district":{"key":"06632","name":"Hersfeld-Rotenburg","type":"Landkreis"},"federalState":{"key":"06","name":"Hessen"}},{"name":"Am Plan","postalCode":"09380","locality":"Thalheim/Erzgebirge","municipality":{"key":"14521620","name":"Thalheim/Erzgeb., Stadt","type":"Stadt"},"district":{"key":"14521","name":"Erzgebirgskreis","type":"Landkreis"},"federalState":{"key":"14","name":"Sachsen"}},{"name":"Am Schalkstein","postalCode":"74399","locality":"Walheim","municipality":{"key":"08118074","name":"Walheim","type":"Kreisangehörige_Gemeinde"},"district":{"key":"08118","name":"Ludwigsburg","type":"Landkreis"},"federalState":{"key":"08","name":"Baden-Württemberg"}},{"name":"Am Schieferbruch","postalCode":"09380","locality":"Thalheim/Erzgebirge","municipality":{"key":"14521620","name":"Thalheim/Erzgeb., Stadt","type":"Stadt"},"district":{"key":"14521","name":"Erzgebirgskreis","type":"Landkreis"},"federalState":{"key":"14","name":"Sachsen"}},{"name":"Amselweg","postalCode":"74399","locality":"Walheim","municipality":{"key":"08118074","name":"Walheim","type":"Kreisangehörige_Gemeinde"},"district":{"key":"08118","name":"Ludwigsburg","type":"Landkreis"},"federalState":{"key":"08","name":"Baden-Württemberg"}},{"name":"Amselweg","postalCode":"78607","locality":"Talheim","municipality":{"key":"08327048","name":"Talheim","type":"Kreisangehörige_Gemeinde"},"district":{"key":"08327","name":"Tuttlingen","type":"Landkreis"},"federalState":{"key":"08","name":"Baden-Württemberg"}},{"name":"Am Spielplatz","postalCode":"36211","locality":"Alheim","municipality":{"key":"06632001","name":"Alheim","type":"Kreisangehörige_Gemeinde"},"district":{"key":"06632","name":"Hersfeld-Rotenburg","type":"Landkreis"},"federalState":{"key":"06","name":"Hessen"}},{"name":"Am Steinberg","postalCode":"55278","locality":"Dalheim","municipality":{"key":"07339010","name":"Dalheim","type":"Kreisangehörige_Gemeinde"},"district":{"key":"07339","name":"Mainz-Bingen","type":"Landkreis"},"federalState":{"key":"07","name":"Rheinland-Pfalz"}},{"name":"Am Steiners Berg","postalCode":"36211","locality":"Alheim","municipality":{"key":"06632001","name":"Alheim","type":"Kreisangehörige_Gemeinde"},"district":{"key":"06632","name":"Hersfeld-Rotenburg","type":"Landkreis"},"federalState":{"key":"06","name":"Hessen"}},{"name":"An der Heilinde","postalCode":"36211","locality":"Alheim","municipality":{"key":"06632001","name":"Alheim","type":"Kreisangehörige_Gemeinde"},"district":{"key":"06632","name":"Hersfeld-Rotenburg","type":"Landkreis"},"federalState":{"key":"06","name":"Hessen"}},{"name":"An der Kirche","postalCode":"36211","locality":"Alheim","municipality":{"key":"06632001","name":"Alheim","type":"Kreisangehörige_Gemeinde"},"district":{"key":"06632","name":"Hersfeld-Rotenburg","type":"Landkreis"},"federalState":{"key":"06","name":"Hessen"}},{"name":"An der Quelle","postalCode":"36211","locality":"Alheim","municipality":{"key":"06632001","name":"Alheim","type":"Kreisangehörige_Gemeinde"},"district":{"key":"06632","name":"Hersfeld-Rotenburg","type":"Landkreis"},"federalState":{"key":"06","name":"Hessen"}},{"name":"An der Schanze","postalCode":"78607","locality":"Talheim","municipality":{"key":"08327048","name":"Talheim","type":"Kreisangehörige_Gemeinde"},"district":{"key":"08327","name":"Tuttlingen","type":"Landkreis"},"federalState":{"key":"08","name":"Baden-Württemberg"}},{"name":"An der Warthe","postalCode":"36211","locality":"Alheim","municipality":{"key":"06632001","name":"Alheim","type":"Kreisangehörige_Gemeinde"},"district":{"key":"06632","name":"Hersfeld-Rotenburg","type":"Landkreis"},"federalState":{"key":"06","name":"Hessen"}},{"name":"Anton-Günther-Str.","postalCode":"09380","locality":"Thalheim/Erzgebirge","municipality":{"key":"14521620","name":"Thalheim/Erzgeb., Stadt","type":"Stadt"},"district":{"key":"14521","name":"Erzgebirgskreis","type":"Landkreis"},"federalState":{"key":"14","name":"Sachsen"}},{"name":"Auf dem Böhl","postalCode":"55278","locality":"Dalheim","municipality":{"key":"07339010","name":"Dalheim","type":"Kreisangehörige_Gemeinde"},"district":{"key":"07339","name":"Mainz-Bingen","type":"Landkreis"},"federalState":{"key":"07","name":"Rheinland-Pfalz"}},{"name":"Auf dem Flachsbeet","postalCode":"36211","locality":"Alheim","municipality":{"key":"06632001","name":"Alheim","type":"Kreisangehörige_Gemeinde"},"district":{"key":"06632","name":"Hersfeld-Rotenburg","type":"Landkreis"},"federalState":{"key":"06","name":"Hessen"}},{"name":"Auf dem Stein","postalCode":"36211","locality":"Alheim","municipality":{"key":"06632001","name":"Alheim","type":"Kreisangehörige_Gemeinde"},"district":{"key":"06632","name":"Hersfeld-Rotenburg","type":"Landkreis"},"federalState":{"key":"06","name":"Hessen"}},{"name":"Auf den Elfmorgen","postalCode":"55278","locality":"Dalheim","municipality":{"key":"07339010","name":"Dalheim","type":"Kreisangehörige_Gemeinde"},"district":{"key":"07339","name":"Mainz-Bingen","type":"Landkreis"},"federalState":{"key":"07","name":"Rheinland-Pfalz"}},{"name":"Auf der Burg","postalCode":"74399","locality":"Walheim","municipality":{"key":"08118074","name":"Walheim","type":"Kreisangehörige_Gemeinde"},"district":{"key":"08118","name":"Ludwigsburg","type":"Landkreis"},"federalState":{"key":"08","name":"Baden-Württemberg"}},{"name":"Bachstr.","postalCode":"74388","locality":"Talheim","municipality":{"key":"08125094","name":"Talheim","type":"Kreisangehörige_Gemeinde"},"district":{"key":"08125","name":"Heilbronn","type":"Landkreis"},"federalState":{"key":"08","name":"Baden-Württemberg"}},{"name":"Bachstr.","postalCode":"74399","locality":"Walheim","municipality":{"key":"08118074","name":"Walheim","type":"Kreisangehörige_Gemeinde"},"district":{"key":"08118","name":"Ludwigsburg","type":"Landkreis"},"federalState":{"key":"08","name":"Baden-Württemberg"}},{"name":"Bachweg","postalCode":"09380","locality":"Thalheim/Erzgebirge","municipality":{"key":"14521620","name":"Thalheim/Erzgeb., Stadt","type":"Stadt"},"district":{"key":"14521","name":"Erzgebirgskreis","type":"Landkreis"},"federalState":{"key":"14","name":"Sachsen"}},{"name":"Bachweg","postalCode":"36211","locality":"Alheim","municipality":{"key":"06632001","name":"Alheim","type":"Kreisangehörige_Gemeinde"},"district":{"key":"06632","name":"Hersfeld-Rotenburg","type":"Landkreis"},"federalState":{"key":"06","name":"Hessen"}},{"name":"Backhausgasse","postalCode":"55278","locality":"Dalheim","municipality":{"key":"07339010","name":"Dalheim","type":"Kreisangehörige_Gemeinde"},"district":{"key":"07339","name":"Mainz-Bingen","type":"Landkreis"},"federalState":{"key":"07","name":"Rheinland-Pfalz"}},{"name":"Backhausweg","postalCode":"36211","locality":"Alheim","municipality":{"key":"06632001","name":"Alheim","type":"Kreisangehörige_Gemeinde"},"district":{"key":"06632","name":"Hersfeld-Rotenburg","type":"Landkreis"},"federalState":{"key":"06","name":"Hessen"}},{"name":"Badgasse","postalCode":"74388","locality":"Talheim","municipality":{"key":"08125094","name":"Talheim","type":"Kreisangehörige_Gemeinde"},"district":{"key":"08125","name":"Heilbronn","type":"Landkreis"},"federalState":{"key":"08","name":"Baden-Württemberg"}},{"name":"Bahnhofstr.","postalCode":"09380","locality":"Thalheim/Erzgebirge","municipality":{"key":"14521620","name":"Thalheim/Erzgeb., Stadt","type":"Stadt"},"district":{"key":"14521","name":"Erzgebirgskreis","type":"Landkreis"},"federalState":{"key":"14","name":"Sachsen"}},{"name":"Bahnhofstr.","postalCode":"36211","locality":"Alheim","municipality":{"key":"06632001","name":"Alheim","type":"Kreisangehörige_Gemeinde"},"district":{"key":"06632","name":"Hersfeld-Rotenburg","type":"Landkreis"},"federalState":{"key":"06","name":"Hessen"}},{"name":"Bahnhofstr.","postalCode":"74388","locality":"Talheim","municipality":{"key":"08125094","name":"Talheim","type":"Kreisangehörige_Gemeinde"},"district":{"key":"08125","name":"Heilbronn","type":"Landkreis"},"federalState":{"key":"08","name":"Baden-Württemberg"}},{"name":"Bahnhofstr.","postalCode":"74399","locality":"Walheim","municipality":{"key":"08118074","name":"Walheim","type":"Kreisangehörige_Gemeinde"},"district":{"key":"08118","name":"Ludwigsburg","type":"Landkreis"},"federalState":{"key":"08","name":"Baden-Württemberg"}},{"name":"Bauerngasse","postalCode":"78607","locality":"Talheim","municipality":{"key":"08327048","name":"Talheim","type":"Kreisangehörige_Gemeinde"},"district":{"key":"08327","name":"Tuttlingen","type":"Landkreis"},"federalState":{"key":"08","name":"Baden-Württemberg"}},{"name":"Baumbacher Str.","postalCode":"36211","locality":"Alheim","municipality":{"key":"06632001","name":"Alheim","type":"Kreisangehörige_Gemeinde"},"district":{"key":"06632","name":"Hersfeld-Rotenburg","type":"Landkreis"},"federalState":{"key":"06","name":"Hessen"}},{"name":"Baumbachweg","postalCode":"74399","locality":"Walheim","municipality":{"key":"08118074","name":"Walheim","type":"Kreisangehörige_Gemeinde"},"district":{"key":"08118","name":"Ludwigsburg","type":"Landkreis"},"federalState":{"key":"08","name":"Baden-Württemberg"}},{"name":"Beate-Paulus-Platz","postalCode":"78607","locality":"Talheim","municipality":{"key":"08327048","name":"Talheim","type":"Kreisangehörige_Gemeinde"},"district":{"key":"08327","name":"Tuttlingen","type":"Landkreis"},"federalState":{"key":"08","name":"Baden-Württemberg"}},{"name":"Beethovenweg","postalCode":"74399","locality":"Walheim","municipality":{"key":"08118074","name":"Walheim","type":"Kreisangehörige_Gemeinde"},"district":{"key":"08118","name":"Ludwigsburg","type":"Landkreis"},"federalState":{"key":"08","name":"Baden-Württemberg"}},{"name":"Bei der Mühle","postalCode":"36211","locality":"Alheim","municipality":{"key":"06632001","name":"Alheim","type":"Kreisangehörige_Gemeinde"},"district":{"key":"06632","name":"Hersfeld-Rotenburg","type":"Landkreis"},"federalState":{"key":"06","name":"Hessen"}},{"name":"Beim Elste","postalCode":"36211","locality":"Alheim","municipality":{"key":"06632001","name":"Alheim","type":"Kreisangehörige_Gemeinde"},"district":{"key":"06632","name":"Hersfeld-Rotenburg","type":"Landkreis"},"federalState":{"key":"06","name":"Hessen"}},{"name":"Beim Kalkofen","postalCode":"36211","locality":"Alheim","municipality":{"key":"06632001","name":"Alheim","type":"Kreisangehörige_Gemeinde"},"district":{"key":"06632","name":"Hersfeld-Rotenburg","type":"Landkreis"},"federalState":{"key":"06","name":"Hessen"}},{"name":"Belgische Str.","postalCode":"36211","locality":"Alheim","municipality":{"key":"06632001","name":"Alheim","type":"Kreisangehörige_Gemeinde"},"district":{"key":"06632","name":"Hersfeld-Rotenburg","type":"Landkreis"},"federalState":{"key":"06","name":"Hessen"}},{"name":"Bergbau Erlebnispfad","postalCode":"36211","locality":"Alheim","municipality":{"key":"06632001","name":"Alheim","type":"Kreisangehörige_Gemeinde"},"district":{"key":"06632","name":"Hersfeld-Rotenburg","type":"Landkreis"},"federalState":{"key":"06","name":"Hessen"}},{"name":"Berghausweg","postalCode":"09380","locality":"Thalheim/Erzgebirge","municipality":{"key":"14521620","name":"Thalheim/Erzgeb., Stadt","type":"Stadt"},"district":{"key":"14521","name":"Erzgebirgskreis","type":"Landkreis"},"federalState":{"key":"14","name":"Sachsen"}},{"name":"Bergseestr.","postalCode":"36211","locality":"Alheim","municipality":{"key":"06632001","name":"Alheim","type":"Kreisangehörige_Gemeinde"},"district":{"key":"06632","name":"Hersfeld-Rotenburg","type":"Landkreis"},"federalState":{"key":"06","name":"Hessen"}},{"name":"Bergstr.","postalCode":"09380","locality":"Thalheim/Erzgebirge","municipality":{"key":"14521620","name":"Thalheim/Erzgeb., Stadt","type":"Stadt"},"district":{"key":"14521","name":"Erzgebirgskreis","type":"Landkreis"},"federalState":{"key":"14","name":"Sachsen"}},{"name":"Bergstr.","postalCode":"36211","locality":"Alheim","municipality":{"key":"06632001","name":"Alheim","type":"Kreisangehörige_Gemeinde"},"district":{"key":"06632","name":"Hersfeld-Rotenburg","type":"Landkreis"},"federalState":{"key":"06","name":"Hessen"}},{"name":"Bergstr.","postalCode":"74388","locality":"Talheim","municipality":{"key":"08125094","name":"Talheim","type":"Kreisangehörige_Gemeinde"},"district":{"key":"08125","name":"Heilbronn","type":"Landkreis"},"federalState":{"key":"08","name":"Baden-Württemberg"}},{"name":"Bergstr.","postalCode":"74399","locality":"Walheim","municipality":{"key":"08118074","name":"Walheim","type":"Kreisangehörige_Gemeinde"},"district":{"key":"08118","name":"Ludwigsburg","type":"Landkreis"},"federalState":{"key":"08","name":"Baden-Württemberg"}},{"name":"Bergweg","postalCode":"36211","locality":"Alheim","municipality":{"key":"06632001","name":"Alheim","type":"Kreisangehörige_Gemeinde"},"district":{"key":"06632","name":"Hersfeld-Rotenburg","type":"Landkreis"},"federalState":{"key":"06","name":"Hessen"}},{"name":"Besigheimer Str.","postalCode":"74399","locality":"Walheim","municipality":{"key":"08118074","name":"Walheim","type":"Kreisangehörige_Gemeinde"},"district":{"key":"08118","name":"Ludwigsburg","type":"Landkreis"},"federalState":{"key":"08","name":"Baden-Württemberg"}},{"name":"Betteräckerstr.","postalCode":"78607","locality":"Talheim","municipality":{"key":"08327048","name":"Talheim","type":"Kreisangehörige_Gemeinde"},"district":{"key":"08327","name":"Tuttlingen","type":"Landkreis"},"federalState":{"key":"08","name":"Baden-Württemberg"}},{"name":"Beznerstr.","postalCode":"74399","locality":"Walheim","municipality":{"key":"08118074","name":"Walheim","type":"Kreisangehörige_Gemeinde"},"district":{"key":"08118","name":"Ludwigsburg","type":"Landkreis"},"federalState":{"key":"08","name":"Baden-Württemberg"}},{"name":"Birkberg","postalCode":"36211","locality":"Alheim","municipality":{"key":"06632001","name":"Alheim","type":"Kreisangehörige_Gemeinde"},"district":{"key":"06632","name":"Hersfeld-Rotenburg","type":"Landkreis"},"federalState":{"key":"06","name":"Hessen"}},{"name":"Birkenweg","postalCode":"36211","locality":"Alheim","municipality":{"key":"06632001","name":"Alheim","type":"Kreisangehörige_Gemeinde"},"district":{"key":"06632","name":"Hersfeld-Rotenburg","type":"Landkreis"},"federalState":{"key":"06","name":"Hessen"}},{"name":"Birkenweg","postalCode":"78607","locality":"Talheim","municipality":{"key":"08327048","name":"Talheim","type":"Kreisangehörige_Gemeinde"},"district":{"key":"08327","name":"Tuttlingen","type":"Landkreis"},"federalState":{"key":"08","name":"Baden-Württemberg"}},{"name":"Biß","postalCode":"74388","locality":"Talheim","municipality":{"key":"08125094","name":"Talheim","type":"Kreisangehörige_Gemeinde"},"district":{"key":"08125","name":"Heilbronn","type":"Landkreis"},"federalState":{"key":"08","name":"Baden-Württemberg"}},{"name":"Bitzneweg","postalCode":"78607","locality":"Talheim","municipality":{"key":"08327048","name":"Talheim","type":"Kreisangehörige_Gemeinde"},"district":{"key":"08327","name":"Tuttlingen","type":"Landkreis"},"federalState":{"key":"08","name":"Baden-Württemberg"}},{"name":"Blumenstr.","postalCode":"74399","locality":"Walheim","municipality":{"key":"08118074","name":"Walheim","type":"Kreisangehörige_Gemeinde"},"district":{"key":"08118","name":"Ludwigsburg","type":"Landkreis"},"federalState":{"key":"08","name":"Baden-Württemberg"}},{"name":"Borngasse","postalCode":"36211","locality":"Alheim","municipality":{"key":"06632001","name":"Alheim","type":"Kreisangehörige_Gemeinde"},"district":{"key":"06632","name":"Hersfeld-Rotenburg","type":"Landkreis"},"federalState":{"key":"06","name":"Hessen"}},{"name":"Borngasse","postalCode":"55278","locality":"Dalheim","municipality":{"key":"07339010","name":"Dalheim","type":"Kreisangehörige_Gemeinde"},"district":{"key":"07339","name":"Mainz-Bingen","type":"Landkreis"},"federalState":{"key":"07","name":"Rheinland-Pfalz"}},{"name":"Bornstr.","postalCode":"36211","locality":"Alheim","municipality":{"key":"06632001","name":"Alheim","type":"Kreisangehörige_Gemeinde"},"district":{"key":"06632","name":"Hersfeld-Rotenburg","type":"Landkreis"},"federalState":{"key":"06","name":"Hessen"}},{"name":"Bossenstr.","postalCode":"36211","locality":"Alheim","municipality":{"key":"06632001","name":"Alheim","type":"Kreisangehörige_Gemeinde"},"district":{"key":"06632","name":"Hersfeld-Rotenburg","type":"Landkreis"},"federalState":{"key":"06","name":"Hessen"}},{"name":"Braacher Str.","postalCode":"36211","locality":"Alheim","municipality":{"key":"06632001","name":"Alheim","type":"Kreisangehörige_Gemeinde"},"district":{"key":"06632","name":"Hersfeld-Rotenburg","type":"Landkreis"},"federalState":{"key":"06","name":"Hessen"}},{"name":"Bremachstr.","postalCode":"74388","locality":"Talheim","municipality":{"key":"08125094","name":"Talheim","type":"Kreisangehörige_Gemeinde"},"district":{"key":"08125","name":"Heilbronn","type":"Landkreis"},"federalState":{"key":"08","name":"Baden-Württemberg"}},{"name":"Breslauer Str.","postalCode":"36211","locality":"Alheim","municipality":{"key":"06632001","name":"Alheim","type":"Kreisangehörige_Gemeinde"},"district":{"key":"06632","name":"Hersfeld-Rotenburg","type":"Landkreis"},"federalState":{"key":"06","name":"Hessen"}},{"name":"Breslauer Str.","postalCode":"74388","locality":"Talheim","municipality":{"key":"08125094","name":"Talheim","type":"Kreisangehörige_Gemeinde"},"district":{"key":"08125","name":"Heilbronn","type":"Landkreis"},"federalState":{"key":"08","name":"Baden-Württemberg"}},{"name":"Brückenstr.","postalCode":"74399","locality":"Walheim","municipality":{"key":"08118074","name":"Walheim","type":"Kreisangehörige_Gemeinde"},"district":{"key":"08118","name":"Ludwigsburg","type":"Landkreis"},"federalState":{"key":"08","name":"Baden-Württemberg"}},{"name":"Brünloser Steig","postalCode":"09380","locality":"Thalheim/Erzgebirge","municipality":{"key":"14521620","name":"Thalheim/Erzgeb., Stadt","type":"Stadt"},"district":{"key":"14521","name":"Erzgebirgskreis","type":"Landkreis"},"federalState":{"key":"14","name":"Sachsen"}},{"name":"Buchäckerstr.","postalCode":"78607","locality":"Talheim","municipality":{"key":"08327048","name":"Talheim","type":"Kreisangehörige_Gemeinde"},"district":{"key":"08327","name":"Tuttlingen","type":"Landkreis"},"federalState":{"key":"08","name":"Baden-Württemberg"}},{"name":"Buchenweg","postalCode":"09380","locality":"Thalheim/Erzgebirge","municipality":{"key":"14521620","name":"Thalheim/Erzgeb., Stadt","type":"Stadt"},"district":{"key":"14521","name":"Erzgebirgskreis","type":"Landkreis"},"federalState":{"key":"14","name":"Sachsen"}},{"name":"Buchenweg","postalCode":"78607","locality":"Talheim","municipality":{"key":"08327048","name":"Talheim","type":"Kreisangehörige_Gemeinde"},"district":{"key":"08327","name":"Tuttlingen","type":"Landkreis"},"federalState":{"key":"08","name":"Baden-Württemberg"}},{"name":"Chemnitzer Str.","postalCode":"09380","locality":"Thalheim/Erzgebirge","municipality":{"key":"14521620","name":"Thalheim/Erzgeb., Stadt","type":"Stadt"},"district":{"key":"14521","name":"Erzgebirgskreis","type":"Landkreis"},"federalState":{"key":"14","name":"Sachsen"}},{"name":"Christian-Leichtle-Str.","postalCode":"74388","locality":"Talheim","municipality":{"key":"08125094","name":"Talheim","type":"Kreisangehörige_Gemeinde"},"district":{"key":"08125","name":"Heilbronn","type":"Landkreis"},"federalState":{"key":"08","name":"Baden-Württemberg"}},{"name":"Dammweg","postalCode":"74399","locality":"Walheim","municipality":{"key":"08118074","name":"Walheim","type":"Kreisangehörige_Gemeinde"},"district":{"key":"08118","name":"Ludwigsburg","type":"Landkreis"},"federalState":{"key":"08","name":"Baden-Württemberg"}},{"name":"Delandsrain","postalCode":"36211","locality":"Alheim","municipality":{"key":"06632001","name":"Alheim","type":"Kreisangehörige_Gemeinde"},"district":{"key":"06632","name":"Hersfeld-Rotenburg","type":"Landkreis"},"federalState":{"key":"06","name":"Hessen"}},{"name":"der Laagenweg","postalCode":"09380","locality":"Thalheim/Erzgebirge","municipality":{"key":"14521620","name":"Thalheim/Erzgeb., Stadt","type":"Stadt"},"district":{"key":"14521","name":"Erzgebirgskreis","type":"Landkreis"},"federalState":{"key":"14","name":"Sachsen"}},{"name":"Deutschordenstr.","postalCode":"74388","locality":"Talheim","municipality":{"key":"08125094","name":"Talheim","type":"Kreisangehörige_Gemeinde"},"district":{"key":"08125","name":"Heilbronn","type":"Landkreis"},"federalState":{"key":"08","name":"Baden-Württemberg"}},{"name":"Dexheimer Str.","postalCode":"55278","locality":"Dalheim","municipality":{"key":"07339010","name":"Dalheim","type":"Kreisangehörige_Gemeinde"},"district":{"key":"07339","name":"Mainz-Bingen","type":"Landkreis"},"federalState":{"key":"07","name":"Rheinland-Pfalz"}},{"name":"Dorfchemnitzer Str.","postalCode":"09380","locality":"Thalheim/Erzgebirge","municipality":{"key":"14521620","name":"Thalheim/Erzgeb., Stadt","type":"Stadt"},"district":{"key":"14521","name":"Erzgebirgskreis","type":"Landkreis"},"federalState":{"key":"14","name":"Sachsen"}},{"name":"Dorfstr.","postalCode":"36211","locality":"Alheim","municipality":{"key":"06632001","name":"Alheim","type":"Kreisangehörige_Gemeinde"},"district":{"key":"06632","name":"Hersfeld-Rotenburg","type":"Landkreis"},"federalState":{"key":"06","name":"Hessen"}},{"name":"Dorfwiesenblick","postalCode":"36211","locality":"Alheim","municipality":{"key":"06632001","name":"Alheim","type":"Kreisangehörige_Gemeinde"},"district":{"key":"06632","name":"Hersfeld-Rotenburg","type":"Landkreis"},"federalState":{"key":"06","name":"Hessen"}},{"name":"Drosselweg","postalCode":"74399","locality":"Walheim","municipality":{"key":"08118074","name":"Walheim","type":"Kreisangehörige_Gemeinde"},"district":{"key":"08118","name":"Ludwigsburg","type":"Landkreis"},"federalState":{"key":"08","name":"Baden-Württemberg"}},{"name":"Ebenfeld","postalCode":"36211","locality":"Alheim","municipality":{"key":"06632001","name":"Alheim","type":"Kreisangehörige_Gemeinde"},"district":{"key":"06632","name":"Hersfeld-Rotenburg","type":"Landkreis"},"federalState":{"key":"06","name":"Hessen"}},{"name":"Eberhardstr.","postalCode":"74399","locality":"Walheim","municipality":{"key":"08118074","name":"Walheim","type":"Kreisangehörige_Gemeinde"},"district":{"key":"08118","name":"Ludwigsburg","type":"Landkreis"},"federalState":{"key":"08","name":"Baden-Württemberg"}},{"name":"Egerten","postalCode":"74388","locality":"Talheim","municipality":{"key":"08125094","name":"Talheim","type":"Kreisangehörige_Gemeinde"},"district":{"key":"08125","name":"Heilbronn","type":"Landkreis"},"federalState":{"key":"08","name":"Baden-Württemberg"}},{"name":"Eichenweg","postalCode":"09380","locality":"Thalheim/Erzgebirge","municipality":{"key":"14521620","name":"Thalheim/Erzgeb., Stadt","type":"Stadt"},"district":{"key":"14521","name":"Erzgebirgskreis","type":"Landkreis"},"federalState":{"key":"14","name":"Sachsen"}},{"name":"Eichenweg","postalCode":"78607","locality":"Talheim","municipality":{"key":"08327048","name":"Talheim","type":"Kreisangehörige_Gemeinde"},"district":{"key":"08327","name":"Tuttlingen","type":"Landkreis"},"federalState":{"key":"08","name":"Baden-Württemberg"}},{"name":"Eisenweg","postalCode":"09380","locality":"Thalheim/Erzgebirge","municipality":{"key":"14521620","name":"Thalheim/Erzgeb., Stadt","type":"Stadt"},"district":{"key":"14521","name":"Erzgebirgskreis","type":"Landkreis"},"federalState":{"key":"14","name":"Sachsen"}},{"name":"Eisfeldstr.","postalCode":"36211","locality":"Alheim","municipality":{"key":"06632001","name":"Alheim","type":"Kreisangehörige_Gemeinde"},"district":{"key":"06632","name":"Hersfeld-Rotenburg","type":"Landkreis"},"federalState":{"key":"06","name":"Hessen"}},{"name":"Eitelweiden","postalCode":"74388","locality":"Talheim","municipality":{"key":"08125094","name":"Talheim","type":"Kreisangehörige_Gemeinde"},"district":{"key":"08125","name":"Heilbronn","type":"Landkreis"},"federalState":{"key":"08","name":"Baden-Württemberg"}},{"name":"Ellenbacher Str.","postalCode":"36211","locality":"Alheim","municipality":{"key":"06632001","name":"Alheim","type":"Kreisangehörige_Gemeinde"},"district":{"key":"06632","name":"Hersfeld-Rotenburg","type":"Landkreis"},"federalState":{"key":"06","name":"Hessen"}},{"name":"Enge Gasse","postalCode":"36211","locality":"Alheim","municipality":{"key":"06632001","name":"Alheim","type":"Kreisangehörige_Gemeinde"},"district":{"key":"06632","name":"Hersfeld-Rotenburg","type":"Landkreis"},"federalState":{"key":"06","name":"Hessen"}},{"name":"Erich Müller-Weg","postalCode":"74388","locality":"Talheim","municipality":{"key":"08125094","name":"Talheim","type":"Kreisangehörige_Gemeinde"},"district":{"key":"08125","name":"Heilbronn","type":"Landkreis"},"federalState":{"key":"08","name":"Baden-Württemberg"}},{"name":"Erlenweg","postalCode":"36211","locality":"Alheim","municipality":{"key":"06632001","name":"Alheim","type":"Kreisangehörige_Gemeinde"},"district":{"key":"06632","name":"Hersfeld-Rotenburg","type":"Landkreis"},"federalState":{"key":"06","name":"Hessen"}},{"name":"Etterweg","postalCode":"36211","locality":"Alheim","municipality":{"key":"06632001","name":"Alheim","type":"Kreisangehörige_Gemeinde"},"district":{"key":"06632","name":"Hersfeld-Rotenburg","type":"Landkreis"},"federalState":{"key":"06","name":"Hessen"}},{"name":"Eugen-Klöpfer-Str.","postalCode":"74388","locality":"Talheim","municipality":{"key":"08125094","name":"Talheim","type":"Kreisangehörige_Gemeinde"},"district":{"key":"08125","name":"Heilbronn","type":"Landkreis"},"federalState":{"key":"08","name":"Baden-Württemberg"}},{"name":"Falkensteiner Str.","postalCode":"55278","locality":"Dalheim","municipality":{"key":"07339010","name":"Dalheim","type":"Kreisangehörige_Gemeinde"},"district":{"key":"07339","name":"Mainz-Bingen","type":"Landkreis"},"federalState":{"key":"07","name":"Rheinland-Pfalz"}},{"name":"Falkenweg","postalCode":"74399","locality":"Walheim","municipality":{"key":"08118074","name":"Walheim","type":"Kreisangehörige_Gemeinde"},"district":{"key":"08118","name":"Ludwigsburg","type":"Landkreis"},"federalState":{"key":"08","name":"Baden-Württemberg"}},{"name":"Falterstr.","postalCode":"78607","locality":"Talheim","municipality":{"key":"08327048","name":"Talheim","type":"Kreisangehörige_Gemeinde"},"district":{"key":"08327","name":"Tuttlingen","type":"Landkreis"},"federalState":{"key":"08","name":"Baden-Württemberg"}},{"name":"Feldstr.","postalCode":"09380","locality":"Thalheim/Erzgebirge","municipality":{"key":"14521620","name":"Thalheim/Erzgeb., Stadt","type":"Stadt"},"district":{"key":"14521","name":"Erzgebirgskreis","type":"Landkreis"},"federalState":{"key":"14","name":"Sachsen"}},{"name":"Fichtenweg","postalCode":"78607","locality":"Talheim","municipality":{"key":"08327048","name":"Talheim","type":"Kreisangehörige_Gemeinde"},"district":{"key":"08327","name":"Tuttlingen","type":"Landkreis"},"federalState":{"key":"08","name":"Baden-Württemberg"}},{"name":"Finkenweg","postalCode":"74388","locality":"Talheim","municipality":{"key":"08125094","name":"Talheim","type":"Kreisangehörige_Gemeinde"},"district":{"key":"08125","name":"Heilbronn","type":"Landkreis"},"federalState":{"key":"08","name":"Baden-Württemberg"}},{"name":"Finkenweg","postalCode":"74399","locality":"Walheim","municipality":{"key":"08118074","name":"Walheim","type":"Kreisangehörige_Gemeinde"},"district":{"key":"08118","name":"Ludwigsburg","type":"Landkreis"},"federalState":{"key":"08","name":"Baden-Württemberg"}},{"name":"Finkenweg","postalCode":"78607","locality":"Talheim","municipality":{"key":"08327048","name":"Talheim","type":"Kreisangehörige_Gemeinde"},"district":{"key":"08327","name":"Tuttlingen","type":"Landkreis"},"federalState":{"key":"08","name":"Baden-Württemberg"}},{"name":"Flachsweg","postalCode":"36211","locality":"Alheim","municipality":{"key":"06632001","name":"Alheim","type":"Kreisangehörige_Gemeinde"},"district":{"key":"06632","name":"Hersfeld-Rotenburg","type":"Landkreis"},"federalState":{"key":"06","name":"Hessen"}},{"name":"Fleiner Str.","postalCode":"74388","locality":"Talheim","municipality":{"key":"08125094","name":"Talheim","type":"Kreisangehörige_Gemeinde"},"district":{"key":"08125","name":"Heilbronn","type":"Landkreis"},"federalState":{"key":"08","name":"Baden-Württemberg"}},{"name":"Fleiner Weg","postalCode":"74388","locality":"Talheim","municipality":{"key":"08125094","name":"Talheim","type":"Kreisangehörige_Gemeinde"},"district":{"key":"08125","name":"Heilbronn","type":"Landkreis"},"federalState":{"key":"08","name":"Baden-Württemberg"}},{"name":"Frankenstr.","postalCode":"55278","locality":"Dalheim","municipality":{"key":"07339010","name":"Dalheim","type":"Kreisangehörige_Gemeinde"},"district":{"key":"07339","name":"Mainz-Bingen","type":"Landkreis"},"federalState":{"key":"07","name":"Rheinland-Pfalz"}},{"name":"Frankenstr.","postalCode":"74388","locality":"Talheim","municipality":{"key":"08125094","name":"Talheim","type":"Kreisangehörige_Gemeinde"},"district":{"key":"08125","name":"Heilbronn","type":"Landkreis"},"federalState":{"key":"08","name":"Baden-Württemberg"}},{"name":"Frauenbergstr.","postalCode":"74388","locality":"Talheim","municipality":{"key":"08125094","name":"Talheim","type":"Kreisangehörige_Gemeinde"},"district":{"key":"08125","name":"Heilbronn","type":"Landkreis"},"federalState":{"key":"08","name":"Baden-Württemberg"}},{"name":"Friedhofstr.","postalCode":"36211","locality":"Alheim","municipality":{"key":"06632001","name":"Alheim","type":"Kreisangehörige_Gemeinde"},"district":{"key":"06632","name":"Hersfeld-Rotenburg","type":"Landkreis"},"federalState":{"key":"06","name":"Hessen"}},{"name":"Friedhofstr.","postalCode":"74388","locality":"Talheim","municipality":{"key":"08125094","name":"Talheim","type":"Kreisangehörige_Gemeinde"},"district":{"key":"08125","name":"Heilbronn","type":"Landkreis"},"federalState":{"key":"08","name":"Baden-Württemberg"}},{"name":"Friedhofsweg","postalCode":"36211","locality":"Alheim","municipality":{"key":"06632001","name":"Alheim","type":"Kreisangehörige_Gemeinde"},"district":{"key":"06632","name":"Hersfeld-Rotenburg","type":"Landkreis"},"federalState":{"key":"06","name":"Hessen"}},{"name":"Friedrich-Ebert-Str.","postalCode":"36211","locality":"Alheim","municipality":{"key":"06632001","name":"Alheim","type":"Kreisangehörige_Gemeinde"},"district":{"key":"06632","name":"Hersfeld-Rotenburg","type":"Landkreis"},"federalState":{"key":"06","name":"Hessen"}},{"name":"Friedrichstr.","postalCode":"09380","locality":"Thalheim/Erzgebirge","municipality":{"key":"14521620","name":"Thalheim/Erzgeb., Stadt","type":"Stadt"},"district":{"key":"14521","name":"Erzgebirgskreis","type":"Landkreis"},"federalState":{"key":"14","name":"Sachsen"}},{"name":"Friedrichstr.","postalCode":"74399","locality":"Walheim","municipality":{"key":"08118074","name":"Walheim","type":"Kreisangehörige_Gemeinde"},"district":{"key":"08118","name":"Ludwigsburg","type":"Landkreis"},"federalState":{"key":"08","name":"Baden-Württemberg"}},{"name":"Friesenheimer Weg","postalCode":"55278","locality":"Dalheim","municipality":{"key":"07339010","name":"Dalheim","type":"Kreisangehörige_Gemeinde"},"district":{"key":"07339","name":"Mainz-Bingen","type":"Landkreis"},"federalState":{"key":"07","name":"Rheinland-Pfalz"}},{"name":"Fritz-Springer-Weg","postalCode":"74388","locality":"Talheim","municipality":{"key":"08125094","name":"Talheim","type":"Kreisangehörige_Gemeinde"},"district":{"key":"08125","name":"Heilbronn","type":"Landkreis"},"federalState":{"key":"08","name":"Baden-Württemberg"}},{"name":"Fuldablick","postalCode":"36211","locality":"Alheim","municipality":{"key":"06632001","name":"Alheim","type":"Kreisangehörige_Gemeinde"},"district":{"key":"06632","name":"Hersfeld-Rotenburg","type":"Landkreis"},"federalState":{"key":"06","name":"Hessen"}},{"name":"Fuldastr.","postalCode":"36211","locality":"Alheim","municipality":{"key":"06632001","name":"Alheim","type":"Kreisangehörige_Gemeinde"},"district":{"key":"06632","name":"Hersfeld-Rotenburg","type":"Landkreis"},"federalState":{"key":"06","name":"Hessen"}},{"name":"Fuldaweg","postalCode":"36211","locality":"Alheim","municipality":{"key":"06632001","name":"Alheim","type":"Kreisangehörige_Gemeinde"},"district":{"key":"06632","name":"Hersfeld-Rotenburg","type":"Landkreis"},"federalState":{"key":"06","name":"Hessen"}},{"name":"Fünffensterstr.","postalCode":"36211","locality":"Alheim","municipality":{"key":"06632001","name":"Alheim","type":"Kreisangehörige_Gemeinde"},"district":{"key":"06632","name":"Hersfeld-Rotenburg","type":"Landkreis"},"federalState":{"key":"06","name":"Hessen"}},{"name":"Fünftannenweg","postalCode":"36211","locality":"Alheim","municipality":{"key":"06632001","name":"Alheim","type":"Kreisangehörige_Gemeinde"},"district":{"key":"06632","name":"Hersfeld-Rotenburg","type":"Landkreis"},"federalState":{"key":"06","name":"Hessen"}},{"name":"Ganerbenstr.","postalCode":"74388","locality":"Talheim","municipality":{"key":"08125094","name":"Talheim","type":"Kreisangehörige_Gemeinde"},"district":{"key":"08125","name":"Heilbronn","type":"Landkreis"},"federalState":{"key":"08","name":"Baden-Württemberg"}},{"name":"Gartenstr.","postalCode":"09380","locality":"Thalheim/Erzgebirge","municipality":{"key":"14521620","name":"Thalheim/Erzgeb., Stadt","type":"Stadt"},"district":{"key":"14521","name":"Erzgebirgskreis","type":"Landkreis"},"federalState":{"key":"14","name":"Sachsen"}},{"name":"Gartenstr.","postalCode":"36211","locality":"Alheim","municipality":{"key":"06632001","name":"Alheim","type":"Kreisangehörige_Gemeinde"},"district":{"key":"06632","name":"Hersfeld-Rotenburg","type":"Landkreis"},"federalState":{"key":"06","name":"Hessen"}},{"name":"Gartenstr.","postalCode":"78607","locality":"Talheim","municipality":{"key":"08327048","name":"Talheim","type":"Kreisangehörige_Gemeinde"},"district":{"key":"08327","name":"Tuttlingen","type":"Landkreis"},"federalState":{"key":"08","name":"Baden-Württemberg"}},{"name":"Gartenweg","postalCode":"36211","locality":"Alheim","municipality":{"key":"06632001","name":"Alheim","type":"Kreisangehörige_Gemeinde"},"district":{"key":"06632","name":"Hersfeld-Rotenburg","type":"Landkreis"},"federalState":{"key":"06","name":"Hessen"}},{"name":"Geigersberg","postalCode":"74388","locality":"Talheim","municipality":{"key":"08125094","name":"Talheim","type":"Kreisangehörige_Gemeinde"},"district":{"key":"08125","name":"Heilbronn","type":"Landkreis"},"federalState":{"key":"08","name":"Baden-Württemberg"}},{"name":"Goethestr.","postalCode":"09380","locality":"Thalheim/Erzgebirge","municipality":{"key":"14521620","name":"Thalheim/Erzgeb., Stadt","type":"Stadt"},"district":{"key":"14521","name":"Erzgebirgskreis","type":"Landkreis"},"federalState":{"key":"14","name":"Sachsen"}},{"name":"Goethestr.","postalCode":"74388","locality":"Talheim","municipality":{"key":"08125094","name":"Talheim","type":"Kreisangehörige_Gemeinde"},"district":{"key":"08125","name":"Heilbronn","type":"Landkreis"},"federalState":{"key":"08","name":"Baden-Württemberg"}},{"name":"Gornsdorfer Str.","postalCode":"09380","locality":"Thalheim/Erzgebirge","municipality":{"key":"14521620","name":"Thalheim/Erzgeb., Stadt","type":"Stadt"},"district":{"key":"14521","name":"Erzgebirgskreis","type":"Landkreis"},"federalState":{"key":"14","name":"Sachsen"}},{"name":"Grundstr.","postalCode":"09380","locality":"Thalheim/Erzgebirge","municipality":{"key":"14521620","name":"Thalheim/Erzgeb., Stadt","type":"Stadt"},"district":{"key":"14521","name":"Erzgebirgskreis","type":"Landkreis"},"federalState":{"key":"14","name":"Sachsen"}},{"name":"Grüner Weg","postalCode":"36211","locality":"Alheim","municipality":{"key":"06632001","name":"Alheim","type":"Kreisangehörige_Gemeinde"},"district":{"key":"06632","name":"Hersfeld-Rotenburg","type":"Landkreis"},"federalState":{"key":"06","name":"Hessen"}},{"name":"Gudestr.","postalCode":"36211","locality":"Alheim","municipality":{"key":"06632001","name":"Alheim","type":"Kreisangehörige_Gemeinde"},"district":{"key":"06632","name":"Hersfeld-Rotenburg","type":"Landkreis"},"federalState":{"key":"06","name":"Hessen"}},{"name":"Gutshofstr.","postalCode":"74388","locality":"Talheim","municipality":{"key":"08125094","name":"Talheim","type":"Kreisangehörige_Gemeinde"},"district":{"key":"08125","name":"Heilbronn","type":"Landkreis"},"federalState":{"key":"08","name":"Baden-Württemberg"}},{"name":"Hagstr.","postalCode":"74399","locality":"Walheim","municipality":{"key":"08118074","name":"Walheim","type":"Kreisangehörige_Gemeinde"},"district":{"key":"08118","name":"Ludwigsburg","type":"Landkreis"},"federalState":{"key":"08","name":"Baden-Württemberg"}},{"name":"Haierweg","postalCode":"55278","locality":"Dalheim","municipality":{"key":"07339010","name":"Dalheim","type":"Kreisangehörige_Gemeinde"},"district":{"key":"07339","name":"Mainz-Bingen","type":"Landkreis"},"federalState":{"key":"07","name":"Rheinland-Pfalz"}},{"name":"Haigernstr.","postalCode":"74388","locality":"Talheim","municipality":{"key":"08125094","name":"Talheim","type":"Kreisangehörige_Gemeinde"},"district":{"key":"08125","name":"Heilbronn","type":"Landkreis"},"federalState":{"key":"08","name":"Baden-Württemberg"}},{"name":"Haischwiese","postalCode":"36211","locality":"Alheim","municipality":{"key":"06632001","name":"Alheim","type":"Kreisangehörige_Gemeinde"},"district":{"key":"06632","name":"Hersfeld-Rotenburg","type":"Landkreis"},"federalState":{"key":"06","name":"Hessen"}},{"name":"Haldenweg","postalCode":"78607","locality":"Talheim","municipality":{"key":"08327048","name":"Talheim","type":"Kreisangehörige_Gemeinde"},"district":{"key":"08327","name":"Tuttlingen","type":"Landkreis"},"federalState":{"key":"08","name":"Baden-Württemberg"}},{"name":"Hammergrund","postalCode":"09380","locality":"Thalheim/Erzgebirge","municipality":{"key":"14521620","name":"Thalheim/Erzgeb., Stadt","type":"Stadt"},"district":{"key":"14521","name":"Erzgebirgskreis","type":"Landkreis"},"federalState":{"key":"14","name":"Sachsen"}},{"name":"Hanfgärten","postalCode":"78607","locality":"Talheim","municipality":{"key":"08327048","name":"Talheim","type":"Kreisangehörige_Gemeinde"},"district":{"key":"08327","name":"Tuttlingen","type":"Landkreis"},"federalState":{"key":"08","name":"Baden-Württemberg"}},{"name":"Hanfgasse","postalCode":"36211","locality":"Alheim","municipality":{"key":"06632001","name":"Alheim","type":"Kreisangehörige_Gemeinde"},"district":{"key":"06632","name":"Hersfeld-Rotenburg","type":"Landkreis"},"federalState":{"key":"06","name":"Hessen"}},{"name":"Hanns-Reeger-Weg","postalCode":"74388","locality":"Talheim","municipality":{"key":"08125094","name":"Talheim","type":"Kreisangehörige_Gemeinde"},"district":{"key":"08125","name":"Heilbronn","type":"Landkreis"},"federalState":{"key":"08","name":"Baden-Württemberg"}},{"name":"Hans-Helmer-Str.","postalCode":"74388","locality":"Talheim","municipality":{"key":"08125094","name":"Talheim","type":"Kreisangehörige_Gemeinde"},"district":{"key":"08125","name":"Heilbronn","type":"Landkreis"},"federalState":{"key":"08","name":"Baden-Württemberg"}},{"name":"Haspelweg","postalCode":"36211","locality":"Alheim","municipality":{"key":"06632001","name":"Alheim","type":"Kreisangehörige_Gemeinde"},"district":{"key":"06632","name":"Hersfeld-Rotenburg","type":"Landkreis"},"federalState":{"key":"06","name":"Hessen"}},{"name":"Hasperothstr.","postalCode":"36211","locality":"Alheim","municipality":{"key":"06632001","name":"Alheim","type":"Kreisangehörige_Gemeinde"},"district":{"key":"06632","name":"Hersfeld-Rotenburg","type":"Landkreis"},"federalState":{"key":"06","name":"Hessen"}},{"name":"Hauptstr.","postalCode":"09380","locality":"Thalheim/Erzgebirge","municipality":{"key":"14521620","name":"Thalheim/Erzgeb., Stadt","type":"Stadt"},"district":{"key":"14521","name":"Erzgebirgskreis","type":"Landkreis"},"federalState":{"key":"14","name":"Sachsen"}},{"name":"Hauptstr.","postalCode":"36211","locality":"Alheim","municipality":{"key":"06632001","name":"Alheim","type":"Kreisangehörige_Gemeinde"},"district":{"key":"06632","name":"Hersfeld-Rotenburg","type":"Landkreis"},"federalState":{"key":"06","name":"Hessen"}},{"name":"Hauptstr.","postalCode":"74388","locality":"Talheim","municipality":{"key":"08125094","name":"Talheim","type":"Kreisangehörige_Gemeinde"},"district":{"key":"08125","name":"Heilbronn","type":"Landkreis"},"federalState":{"key":"08","name":"Baden-Württemberg"}},{"name":"Hauptstr.","postalCode":"74399","locality":"Walheim","municipality":{"key":"08118074","name":"Walheim","type":"Kreisangehörige_Gemeinde"},"district":{"key":"08118","name":"Ludwigsburg","type":"Landkreis"},"federalState":{"key":"08","name":"Baden-Württemberg"}},{"name":"Häuserweg","postalCode":"36211","locality":"Alheim","municipality":{"key":"06632001","name":"Alheim","type":"Kreisangehörige_Gemeinde"},"district":{"key":"06632","name":"Hersfeld-Rotenburg","type":"Landkreis"},"federalState":{"key":"06","name":"Hessen"}},{"name":"Heerstr.","postalCode":"78607","locality":"Talheim","municipality":{"key":"08327048","name":"Talheim","type":"Kreisangehörige_Gemeinde"},"district":{"key":"08327","name":"Tuttlingen","type":"Landkreis"},"federalState":{"key":"08","name":"Baden-Württemberg"}},{"name":"Heidehof","postalCode":"78607","locality":"Talheim","municipality":{"key":"08327048","name":"Talheim","type":"Kreisangehörige_Gemeinde"},"district":{"key":"08327","name":"Tuttlingen","type":"Landkreis"},"federalState":{"key":"08","name":"Baden-Württemberg"}},{"name":"Heidengasse","postalCode":"78607","locality":"Talheim","municipality":{"key":"08327048","name":"Talheim","type":"Kreisangehörige_Gemeinde"},"district":{"key":"08327","name":"Tuttlingen","type":"Landkreis"},"federalState":{"key":"08","name":"Baden-Württemberg"}},{"name":"Heilbronner Str.","postalCode":"74388","locality":"Talheim","municipality":{"key":"08125094","name":"Talheim","type":"Kreisangehörige_Gemeinde"},"district":{"key":"08125","name":"Heilbronn","type":"Landkreis"},"federalState":{"key":"08","name":"Baden-Württemberg"}},{"name":"Heilbronner Str.","postalCode":"74399","locality":"Walheim","municipality":{"key":"08118074","name":"Walheim","type":"Kreisangehörige_Gemeinde"},"district":{"key":"08118","name":"Ludwigsburg","type":"Landkreis"},"federalState":{"key":"08","name":"Baden-Württemberg"}},{"name":"Heinebacher Str.","postalCode":"36211","locality":"Alheim","municipality":{"key":"06632001","name":"Alheim","type":"Kreisangehörige_Gemeinde"},"district":{"key":"06632","name":"Hersfeld-Rotenburg","type":"Landkreis"},"federalState":{"key":"06","name":"Hessen"}},{"name":"Heinebacher Weg","postalCode":"36211","locality":"Alheim","municipality":{"key":"06632001","name":"Alheim","type":"Kreisangehörige_Gemeinde"},"district":{"key":"06632","name":"Hersfeld-Rotenburg","type":"Landkreis"},"federalState":{"key":"06","name":"Hessen"}},{"name":"Heinrich-Heine-Str.","postalCode":"74388","locality":"Talheim","municipality":{"key":"08125094","name":"Talheim","type":"Kreisangehörige_Gemeinde"},"district":{"key":"08125","name":"Heilbronn","type":"Landkreis"},"federalState":{"key":"08","name":"Baden-Württemberg"}},{"name":"Heinrichstr.","postalCode":"09380","locality":"Thalheim/Erzgebirge","municipality":{"key":"14521620","name":"Thalheim/Erzgeb., Stadt","type":"Stadt"},"district":{"key":"14521","name":"Erzgebirgskreis","type":"Landkreis"},"federalState":{"key":"14","name":"Sachsen"}},{"name":"Helenenstr.","postalCode":"09380","locality":"Thalheim/Erzgebirge","municipality":{"key":"14521620","name":"Thalheim/Erzgeb., Stadt","type":"Stadt"},"district":{"key":"14521","name":"Erzgebirgskreis","type":"Landkreis"},"federalState":{"key":"14","name":"Sachsen"}},{"name":"Helgenwiesenweg","postalCode":"36211","locality":"Alheim","municipality":{"key":"06632001","name":"Alheim","type":"Kreisangehörige_Gemeinde"},"district":{"key":"06632","name":"Hersfeld-Rotenburg","type":"Landkreis"},"federalState":{"key":"06","name":"Hessen"}},{"name":"Hermann-Löns-Weg","postalCode":"74388","locality":"Talheim","municipality":{"key":"08125094","name":"Talheim","type":"Kreisangehörige_Gemeinde"},"district":{"key":"08125","name":"Heilbronn","type":"Landkreis"},"federalState":{"key":"08","name":"Baden-Württemberg"}},{"name":"Hermann-Stehr-Weg","postalCode":"74388","locality":"Talheim","municipality":{"key":"08125094","name":"Talheim","type":"Kreisangehörige_Gemeinde"},"district":{"key":"08125","name":"Heilbronn","type":"Landkreis"},"federalState":{"key":"08","name":"Baden-Württemberg"}},{"name":"Herzog-Ulrich-Weg","postalCode":"74388","locality":"Talheim","municipality":{"key":"08125094","name":"Talheim","type":"Kreisangehörige_Gemeinde"},"district":{"key":"08125","name":"Heilbronn","type":"Landkreis"},"federalState":{"key":"08","name":"Baden-Württemberg"}},{"name":"Hinter dem Kindergarten","postalCode":"36211","locality":"Alheim","municipality":{"key":"06632001","name":"Alheim","type":"Kreisangehörige_Gemeinde"},"district":{"key":"06632","name":"Hersfeld-Rotenburg","type":"Landkreis"},"federalState":{"key":"06","name":"Hessen"}},{"name":"Hinter den Kreuzgärten","postalCode":"36211","locality":"Alheim","municipality":{"key":"06632001","name":"Alheim","type":"Kreisangehörige_Gemeinde"},"district":{"key":"06632","name":"Hersfeld-Rotenburg","type":"Landkreis"},"federalState":{"key":"06","name":"Hessen"}},{"name":"Hinter den Langen Gärten","postalCode":"36211","locality":"Alheim","municipality":{"key":"06632001","name":"Alheim","type":"Kreisangehörige_Gemeinde"},"district":{"key":"06632","name":"Hersfeld-Rotenburg","type":"Landkreis"},"federalState":{"key":"06","name":"Hessen"}},{"name":"Hinter der Zehntscheuer","postalCode":"36211","locality":"Alheim","municipality":{"key":"06632001","name":"Alheim","type":"Kreisangehörige_Gemeinde"},"district":{"key":"06632","name":"Hersfeld-Rotenburg","type":"Landkreis"},"federalState":{"key":"06","name":"Hessen"}},{"name":"Hinterm Kirchhof","postalCode":"36211","locality":"Alheim","municipality":{"key":"06632001","name":"Alheim","type":"Kreisangehörige_Gemeinde"},"district":{"key":"06632","name":"Hersfeld-Rotenburg","type":"Landkreis"},"federalState":{"key":"06","name":"Hessen"}},{"name":"Hinterm Sand","postalCode":"36211","locality":"Alheim","municipality":{"key":"06632001","name":"Alheim","type":"Kreisangehörige_Gemeinde"},"district":{"key":"06632","name":"Hersfeld-Rotenburg","type":"Landkreis"},"federalState":{"key":"06","name":"Hessen"}},{"name":"Hirtgasse","postalCode":"36211","locality":"Alheim","municipality":{"key":"06632001","name":"Alheim","type":"Kreisangehörige_Gemeinde"},"district":{"key":"06632","name":"Hersfeld-Rotenburg","type":"Landkreis"},"federalState":{"key":"06","name":"Hessen"}},{"name":"Hofackersiedlung","postalCode":"09380","locality":"Thalheim/Erzgebirge","municipality":{"key":"14521620","name":"Thalheim/Erzgeb., Stadt","type":"Stadt"},"district":{"key":"14521","name":"Erzgebirgskreis","type":"Landkreis"},"federalState":{"key":"14","name":"Sachsen"}},{"name":"Hofener Str.","postalCode":"74399","locality":"Walheim","municipality":{"key":"08118074","name":"Walheim","type":"Kreisangehörige_Gemeinde"},"district":{"key":"08118","name":"Ludwigsburg","type":"Landkreis"},"federalState":{"key":"08","name":"Baden-Württemberg"}},{"name":"Hohle","postalCode":"74399","locality":"Walheim","municipality":{"key":"08118074","name":"Walheim","type":"Kreisangehörige_Gemeinde"},"district":{"key":"08118","name":"Ludwigsburg","type":"Landkreis"},"federalState":{"key":"08","name":"Baden-Württemberg"}},{"name":"Hölderlinweg","postalCode":"74388","locality":"Talheim","municipality":{"key":"08125094","name":"Talheim","type":"Kreisangehörige_Gemeinde"},"district":{"key":"08125","name":"Heilbronn","type":"Landkreis"},"federalState":{"key":"08","name":"Baden-Württemberg"}},{"name":"Hölderlinweg","postalCode":"74399","locality":"Walheim","municipality":{"key":"08118074","name":"Walheim","type":"Kreisangehörige_Gemeinde"},"district":{"key":"08118","name":"Ludwigsburg","type":"Landkreis"},"federalState":{"key":"08","name":"Baden-Württemberg"}},{"name":"Hopfgarten","postalCode":"36211","locality":"Alheim","municipality":{"key":"06632001","name":"Alheim","type":"Kreisangehörige_Gemeinde"},"district":{"key":"06632","name":"Hersfeld-Rotenburg","type":"Landkreis"},"federalState":{"key":"06","name":"Hessen"}},{"name":"Horkheimer Str.","postalCode":"74388","locality":"Talheim","municipality":{"key":"08125094","name":"Talheim","type":"Kreisangehörige_Gemeinde"},"district":{"key":"08125","name":"Heilbronn","type":"Landkreis"},"federalState":{"key":"08","name":"Baden-Württemberg"}},{"name":"Hormersdorfer Weg","postalCode":"09380","locality":"Thalheim/Erzgebirge","municipality":{"key":"14521620","name":"Thalheim/Erzgeb., Stadt","type":"Stadt"},"district":{"key":"14521","name":"Erzgebirgskreis","type":"Landkreis"},"federalState":{"key":"14","name":"Sachsen"}},{"name":"Hörnlesbrunnen","postalCode":"74388","locality":"Talheim","municipality":{"key":"08125094","name":"Talheim","type":"Kreisangehörige_Gemeinde"},"district":{"key":"08125","name":"Heilbronn","type":"Landkreis"},"federalState":{"key":"08","name":"Baden-Württemberg"}},{"name":"Hühnerbrünnele","postalCode":"74388","locality":"Talheim","municipality":{"key":"08125094","name":"Talheim","type":"Kreisangehörige_Gemeinde"},"district":{"key":"08125","name":"Heilbronn","type":"Landkreis"},"federalState":{"key":"08","name":"Baden-Württemberg"}},{"name":"Hundsbergstr.","postalCode":"74388","locality":"Talheim","municipality":{"key":"08125094","name":"Talheim","type":"Kreisangehörige_Gemeinde"},"district":{"key":"08125","name":"Heilbronn","type":"Landkreis"},"federalState":{"key":"08","name":"Baden-Württemberg"}},{"name":"Hützlenweg","postalCode":"78607","locality":"Talheim","municipality":{"key":"08327048","name":"Talheim","type":"Kreisangehörige_Gemeinde"},"district":{"key":"08327","name":"Tuttlingen","type":"Landkreis"},"federalState":{"key":"08","name":"Baden-Württemberg"}},{"name":"Im Boden","postalCode":"36211","locality":"Alheim","municipality":{"key":"06632001","name":"Alheim","type":"Kreisangehörige_Gemeinde"},"district":{"key":"06632","name":"Hersfeld-Rotenburg","type":"Landkreis"},"federalState":{"key":"06","name":"Hessen"}},{"name":"Im Ehls","postalCode":"36211","locality":"Alheim","municipality":{"key":"06632001","name":"Alheim","type":"Kreisangehörige_Gemeinde"},"district":{"key":"06632","name":"Hersfeld-Rotenburg","type":"Landkreis"},"federalState":{"key":"06","name":"Hessen"}},{"name":"Im Feld","postalCode":"36211","locality":"Alheim","municipality":{"key":"06632001","name":"Alheim","type":"Kreisangehörige_Gemeinde"},"district":{"key":"06632","name":"Hersfeld-Rotenburg","type":"Landkreis"},"federalState":{"key":"06","name":"Hessen"}},{"name":"Im Gartenfeld","postalCode":"55278","locality":"Dalheim","municipality":{"key":"07339010","name":"Dalheim","type":"Kreisangehörige_Gemeinde"},"district":{"key":"07339","name":"Mainz-Bingen","type":"Landkreis"},"federalState":{"key":"07","name":"Rheinland-Pfalz"}},{"name":"Im Gehege","postalCode":"36211","locality":"Alheim","municipality":{"key":"06632001","name":"Alheim","type":"Kreisangehörige_Gemeinde"},"district":{"key":"06632","name":"Hersfeld-Rotenburg","type":"Landkreis"},"federalState":{"key":"06","name":"Hessen"}},{"name":"Im Graben","postalCode":"36211","locality":"Alheim","municipality":{"key":"06632001","name":"Alheim","type":"Kreisangehörige_Gemeinde"},"district":{"key":"06632","name":"Hersfeld-Rotenburg","type":"Landkreis"},"federalState":{"key":"06","name":"Hessen"}},{"name":"Im Haiglen","postalCode":"74399","locality":"Walheim","municipality":{"key":"08118074","name":"Walheim","type":"Kreisangehörige_Gemeinde"},"district":{"key":"08118","name":"Ludwigsburg","type":"Landkreis"},"federalState":{"key":"08","name":"Baden-Württemberg"}},{"name":"Im Heidegarten","postalCode":"36211","locality":"Alheim","municipality":{"key":"06632001","name":"Alheim","type":"Kreisangehörige_Gemeinde"},"district":{"key":"06632","name":"Hersfeld-Rotenburg","type":"Landkreis"},"federalState":{"key":"06","name":"Hessen"}},{"name":"Im Hof","postalCode":"36211","locality":"Alheim","municipality":{"key":"06632001","name":"Alheim","type":"Kreisangehörige_Gemeinde"},"district":{"key":"06632","name":"Hersfeld-Rotenburg","type":"Landkreis"},"federalState":{"key":"06","name":"Hessen"}},{"name":"Im Jungen","postalCode":"74388","locality":"Talheim","municipality":{"key":"08125094","name":"Talheim","type":"Kreisangehörige_Gemeinde"},"district":{"key":"08125","name":"Heilbronn","type":"Landkreis"},"federalState":{"key":"08","name":"Baden-Württemberg"}},{"name":"Im Osterbach","postalCode":"36211","locality":"Alheim","municipality":{"key":"06632001","name":"Alheim","type":"Kreisangehörige_Gemeinde"},"district":{"key":"06632","name":"Hersfeld-Rotenburg","type":"Landkreis"},"federalState":{"key":"06","name":"Hessen"}},{"name":"Im Pfädle","postalCode":"74388","locality":"Talheim","municipality":{"key":"08125094","name":"Talheim","type":"Kreisangehörige_Gemeinde"},"district":{"key":"08125","name":"Heilbronn","type":"Landkreis"},"federalState":{"key":"08","name":"Baden-Württemberg"}},{"name":"Im Rappen","postalCode":"74388","locality":"Talheim","municipality":{"key":"08125094","name":"Talheim","type":"Kreisangehörige_Gemeinde"},"district":{"key":"08125","name":"Heilbronn","type":"Landkreis"},"federalState":{"key":"08","name":"Baden-Württemberg"}},{"name":"Im Rat","postalCode":"36211","locality":"Alheim","municipality":{"key":"06632001","name":"Alheim","type":"Kreisangehörige_Gemeinde"},"district":{"key":"06632","name":"Hersfeld-Rotenburg","type":"Landkreis"},"federalState":{"key":"06","name":"Hessen"}},{"name":"Im Schecken","postalCode":"78607","locality":"Talheim","municipality":{"key":"08327048","name":"Talheim","type":"Kreisangehörige_Gemeinde"},"district":{"key":"08327","name":"Tuttlingen","type":"Landkreis"},"federalState":{"key":"08","name":"Baden-Württemberg"}},{"name":"Im Siegen","postalCode":"36211","locality":"Alheim","municipality":{"key":"06632001","name":"Alheim","type":"Kreisangehörige_Gemeinde"},"district":{"key":"06632","name":"Hersfeld-Rotenburg","type":"Landkreis"},"federalState":{"key":"06","name":"Hessen"}},{"name":"Im Wiesental","postalCode":"36211","locality":"Alheim","municipality":{"key":"06632001","name":"Alheim","type":"Kreisangehörige_Gemeinde"},"district":{"key":"06632","name":"Hersfeld-Rotenburg","type":"Landkreis"},"federalState":{"key":"06","name":"Hessen"}},{"name":"Im Winkel","postalCode":"36211","locality":"Alheim","municipality":{"key":"06632001","name":"Alheim","type":"Kreisangehörige_Gemeinde"},"district":{"key":"06632","name":"Hersfeld-Rotenburg","type":"Landkreis"},"federalState":{"key":"06","name":"Hessen"}},{"name":"In den Forstwiesen","postalCode":"74388","locality":"Talheim","municipality":{"key":"08125094","name":"Talheim","type":"Kreisangehörige_Gemeinde"},"district":{"key":"08125","name":"Heilbronn","type":"Landkreis"},"federalState":{"key":"08","name":"Baden-Württemberg"}},{"name":"In den Hofwiesen","postalCode":"74388","locality":"Talheim","municipality":{"key":"08125094","name":"Talheim","type":"Kreisangehörige_Gemeinde"},"district":{"key":"08125","name":"Heilbronn","type":"Landkreis"},"federalState":{"key":"08","name":"Baden-Württemberg"}},{"name":"In den kleinen Wiesen","postalCode":"55278","locality":"Dalheim","municipality":{"key":"07339010","name":"Dalheim","type":"Kreisangehörige_Gemeinde"},"district":{"key":"07339","name":"Mainz-Bingen","type":"Landkreis"},"federalState":{"key":"07","name":"Rheinland-Pfalz"}},{"name":"In den Küferlesgärten","postalCode":"74388","locality":"Talheim","municipality":{"key":"08125094","name":"Talheim","type":"Kreisangehörige_Gemeinde"},"district":{"key":"08125","name":"Heilbronn","type":"Landkreis"},"federalState":{"key":"08","name":"Baden-Württemberg"}},{"name":"In der Badstube","postalCode":"74399","locality":"Walheim","municipality":{"key":"08118074","name":"Walheim","type":"Kreisangehörige_Gemeinde"},"district":{"key":"08118","name":"Ludwigsburg","type":"Landkreis"},"federalState":{"key":"08","name":"Baden-Württemberg"}},{"name":"In der Eichhälde","postalCode":"74399","locality":"Walheim","municipality":{"key":"08118074","name":"Walheim","type":"Kreisangehörige_Gemeinde"},"district":{"key":"08118","name":"Ludwigsburg","type":"Landkreis"},"federalState":{"key":"08","name":"Baden-Württemberg"}},{"name":"In der Halde","postalCode":"78607","locality":"Talheim","municipality":{"key":"08327048","name":"Talheim","type":"Kreisangehörige_Gemeinde"},"district":{"key":"08327","name":"Tuttlingen","type":"Landkreis"},"federalState":{"key":"08","name":"Baden-Württemberg"}},{"name":"In der Lehmkaute","postalCode":"36211","locality":"Alheim","municipality":{"key":"06632001","name":"Alheim","type":"Kreisangehörige_Gemeinde"},"district":{"key":"06632","name":"Hersfeld-Rotenburg","type":"Landkreis"},"federalState":{"key":"06","name":"Hessen"}},{"name":"In der Lücke","postalCode":"36211","locality":"Alheim","municipality":{"key":"06632001","name":"Alheim","type":"Kreisangehörige_Gemeinde"},"district":{"key":"06632","name":"Hersfeld-Rotenburg","type":"Landkreis"},"federalState":{"key":"06","name":"Hessen"}},{"name":"In der Spitze","postalCode":"36211","locality":"Alheim","municipality":{"key":"06632001","name":"Alheim","type":"Kreisangehörige_Gemeinde"},"district":{"key":"06632","name":"Hersfeld-Rotenburg","type":"Landkreis"},"federalState":{"key":"06","name":"Hessen"}},{"name":"In der Steinfurche","postalCode":"36211","locality":"Alheim","municipality":{"key":"06632001","name":"Alheim","type":"Kreisangehörige_Gemeinde"},"district":{"key":"06632","name":"Hersfeld-Rotenburg","type":"Landkreis"},"federalState":{"key":"06","name":"Hessen"}},{"name":"In der Tränke","postalCode":"36211","locality":"Alheim","municipality":{"key":"06632001","name":"Alheim","type":"Kreisangehörige_Gemeinde"},"district":{"key":"06632","name":"Hersfeld-Rotenburg","type":"Landkreis"},"federalState":{"key":"06","name":"Hessen"}},{"name":"In der Wart","postalCode":"74388","locality":"Talheim","municipality":{"key":"08125094","name":"Talheim","type":"Kreisangehörige_Gemeinde"},"district":{"key":"08125","name":"Heilbronn","type":"Landkreis"},"federalState":{"key":"08","name":"Baden-Württemberg"}},{"name":"Industriestr.","postalCode":"36211","locality":"Alheim","municipality":{"key":"06632001","name":"Alheim","type":"Kreisangehörige_Gemeinde"},"district":{"key":"06632","name":"Hersfeld-Rotenburg","type":"Landkreis"},"federalState":{"key":"06","name":"Hessen"}},{"name":"Innere Bergstr.","postalCode":"09380","locality":"Thalheim/Erzgebirge","municipality":{"key":"14521620","name":"Thalheim/Erzgeb., Stadt","type":"Stadt"},"district":{"key":"14521","name":"Erzgebirgskreis","type":"Landkreis"},"federalState":{"key":"14","name":"Sachsen"}},{"name":"Ippinger Weg","postalCode":"78607","locality":"Talheim","municipality":{"key":"08327048","name":"Talheim","type":"Kreisangehörige_Gemeinde"},"district":{"key":"08327","name":"Tuttlingen","type":"Landkreis"},"federalState":{"key":"08","name":"Baden-Württemberg"}},{"name":"Jägerhof","postalCode":"36211","locality":"Alheim","municipality":{"key":"06632001","name":"Alheim","type":"Kreisangehörige_Gemeinde"},"district":{"key":"06632","name":"Hersfeld-Rotenburg","type":"Landkreis"},"federalState":{"key":"06","name":"Hessen"}},{"name":"Jägerstr.","postalCode":"09380","locality":"Thalheim/Erzgebirge","municipality":{"key":"14521620","name":"Thalheim/Erzgeb., Stadt","type":"Stadt"},"district":{"key":"14521","name":"Erzgebirgskreis","type":"Landkreis"},"federalState":{"key":"14","name":"Sachsen"}},{"name":"Jägerstr.","postalCode":"36211","locality":"Alheim","municipality":{"key":"06632001","name":"Alheim","type":"Kreisangehörige_Gemeinde"},"district":{"key":"06632","name":"Hersfeld-Rotenburg","type":"Landkreis"},"federalState":{"key":"06","name":"Hessen"}},{"name":"Jahnsdorfer Str.","postalCode":"09380","locality":"Thalheim/Erzgebirge","municipality":{"key":"14521620","name":"Thalheim/Erzgeb., Stadt","type":"Stadt"},"district":{"key":"14521","name":"Erzgebirgskreis","type":"Landkreis"},"federalState":{"key":"14","name":"Sachsen"}},{"name":"Jahnstr.","postalCode":"36211","locality":"Alheim","municipality":{"key":"06632001","name":"Alheim","type":"Kreisangehörige_Gemeinde"},"district":{"key":"06632","name":"Hersfeld-Rotenburg","type":"Landkreis"},"federalState":{"key":"06","name":"Hessen"}},{"name":"Jahnstr.","postalCode":"55278","locality":"Dalheim","municipality":{"key":"07339010","name":"Dalheim","type":"Kreisangehörige_Gemeinde"},"district":{"key":"07339","name":"Mainz-Bingen","type":"Landkreis"},"federalState":{"key":"07","name":"Rheinland-Pfalz"}},{"name":"Jahnstr.","postalCode":"74399","locality":"Walheim","municipality":{"key":"08118074","name":"Walheim","type":"Kreisangehörige_Gemeinde"},"district":{"key":"08118","name":"Ludwigsburg","type":"Landkreis"},"federalState":{"key":"08","name":"Baden-Württemberg"}},{"name":"Julius-Krais-Str.","postalCode":"74388","locality":"Talheim","municipality":{"key":"08125094","name":"Talheim","type":"Kreisangehörige_Gemeinde"},"district":{"key":"08125","name":"Heilbronn","type":"Landkreis"},"federalState":{"key":"08","name":"Baden-Württemberg"}},{"name":"Jungholsstr.","postalCode":"74388","locality":"Talheim","municipality":{"key":"08125094","name":"Talheim","type":"Kreisangehörige_Gemeinde"},"district":{"key":"08125","name":"Heilbronn","type":"Landkreis"},"federalState":{"key":"08","name":"Baden-Württemberg"}},{"name":"Jungholzstr.","postalCode":"74388","locality":"Talheim","municipality":{"key":"08125094","name":"Talheim","type":"Kreisangehörige_Gemeinde"},"district":{"key":"08125","name":"Heilbronn","type":"Landkreis"},"federalState":{"key":"08","name":"Baden-Württemberg"}},{"name":"Justinus-Kerner-Str.","postalCode":"74388","locality":"Talheim","municipality":{"key":"08125094","name":"Talheim","type":"Kreisangehörige_Gemeinde"},"district":{"key":"08125","name":"Heilbronn","type":"Landkreis"},"federalState":{"key":"08","name":"Baden-Württemberg"}},{"name":"Kaisergässchen","postalCode":"09380","locality":"Thalheim/Erzgebirge","municipality":{"key":"14521620","name":"Thalheim/Erzgeb., Stadt","type":"Stadt"},"district":{"key":"14521","name":"Erzgebirgskreis","type":"Landkreis"},"federalState":{"key":"14","name":"Sachsen"}},{"name":"Kaiserstr.","postalCode":"74399","locality":"Walheim","municipality":{"key":"08118074","name":"Walheim","type":"Kreisangehörige_Gemeinde"},"district":{"key":"08118","name":"Ludwigsburg","type":"Landkreis"},"federalState":{"key":"08","name":"Baden-Württemberg"}},{"name":"Kalte Haide","postalCode":"36211","locality":"Alheim","municipality":{"key":"06632001","name":"Alheim","type":"Kreisangehörige_Gemeinde"},"district":{"key":"06632","name":"Hersfeld-Rotenburg","type":"Landkreis"},"federalState":{"key":"06","name":"Hessen"}},{"name":"Kantstr.","postalCode":"09380","locality":"Thalheim/Erzgebirge","municipality":{"key":"14521620","name":"Thalheim/Erzgeb., Stadt","type":"Stadt"},"district":{"key":"14521","name":"Erzgebirgskreis","type":"Landkreis"},"federalState":{"key":"14","name":"Sachsen"}},{"name":"Karlstr.","postalCode":"74388","locality":"Talheim","municipality":{"key":"08125094","name":"Talheim","type":"Kreisangehörige_Gemeinde"},"district":{"key":"08125","name":"Heilbronn","type":"Landkreis"},"federalState":{"key":"08","name":"Baden-Württemberg"}},{"name":"Karlstr.","postalCode":"74399","locality":"Walheim","municipality":{"key":"08118074","name":"Walheim","type":"Kreisangehörige_Gemeinde"},"district":{"key":"08118","name":"Ludwigsburg","type":"Landkreis"},"federalState":{"key":"08","name":"Baden-Württemberg"}},{"name":"Kastanienweg","postalCode":"36211","locality":"Alheim","municipality":{"key":"06632001","name":"Alheim","type":"Kreisangehörige_Gemeinde"},"district":{"key":"06632","name":"Hersfeld-Rotenburg","type":"Landkreis"},"federalState":{"key":"06","name":"Hessen"}},{"name":"Kastellstr.","postalCode":"74399","locality":"Walheim","municipality":{"key":"08118074","name":"Walheim","type":"Kreisangehörige_Gemeinde"},"district":{"key":"08118","name":"Ludwigsburg","type":"Landkreis"},"federalState":{"key":"08","name":"Baden-Württemberg"}},{"name":"Katzensteigle","postalCode":"74399","locality":"Walheim","municipality":{"key":"08118074","name":"Walheim","type":"Kreisangehörige_Gemeinde"},"district":{"key":"08118","name":"Ludwigsburg","type":"Landkreis"},"federalState":{"key":"08","name":"Baden-Württemberg"}},{"name":"Keltergasse","postalCode":"74388","locality":"Talheim","municipality":{"key":"08125094","name":"Talheim","type":"Kreisangehörige_Gemeinde"},"district":{"key":"08125","name":"Heilbronn","type":"Landkreis"},"federalState":{"key":"08","name":"Baden-Württemberg"}},{"name":"Kindergartengässle","postalCode":"78607","locality":"Talheim","municipality":{"key":"08327048","name":"Talheim","type":"Kreisangehörige_Gemeinde"},"district":{"key":"08327","name":"Tuttlingen","type":"Landkreis"},"federalState":{"key":"08","name":"Baden-Württemberg"}},{"name":"Kirchbergweg","postalCode":"36211","locality":"Alheim","municipality":{"key":"06632001","name":"Alheim","type":"Kreisangehörige_Gemeinde"},"district":{"key":"06632","name":"Hersfeld-Rotenburg","type":"Landkreis"},"federalState":{"key":"06","name":"Hessen"}},{"name":"Kirchbrunnen","postalCode":"78607","locality":"Talheim","municipality":{"key":"08327048","name":"Talheim","type":"Kreisangehörige_Gemeinde"},"district":{"key":"08327","name":"Tuttlingen","type":"Landkreis"},"federalState":{"key":"08","name":"Baden-Württemberg"}},{"name":"Kirchrain","postalCode":"36211","locality":"Alheim","municipality":{"key":"06632001","name":"Alheim","type":"Kreisangehörige_Gemeinde"},"district":{"key":"06632","name":"Hersfeld-Rotenburg","type":"Landkreis"},"federalState":{"key":"06","name":"Hessen"}},{"name":"Kirchrainstr.","postalCode":"36211","locality":"Alheim","municipality":{"key":"06632001","name":"Alheim","type":"Kreisangehörige_Gemeinde"},"district":{"key":"06632","name":"Hersfeld-Rotenburg","type":"Landkreis"},"federalState":{"key":"06","name":"Hessen"}},{"name":"Kirchstr.","postalCode":"36211","locality":"Alheim","municipality":{"key":"06632001","name":"Alheim","type":"Kreisangehörige_Gemeinde"},"district":{"key":"06632","name":"Hersfeld-Rotenburg","type":"Landkreis"},"federalState":{"key":"06","name":"Hessen"}},{"name":"Kirchstr.","postalCode":"74399","locality":"Walheim","municipality":{"key":"08118074","name":"Walheim","type":"Kreisangehörige_Gemeinde"},"district":{"key":"08118","name":"Ludwigsburg","type":"Landkreis"},"federalState":{"key":"08","name":"Baden-Württemberg"}},{"name":"Kirchweg","postalCode":"36211","locality":"Alheim","municipality":{"key":"06632001","name":"Alheim","type":"Kreisangehörige_Gemeinde"},"district":{"key":"06632","name":"Hersfeld-Rotenburg","type":"Landkreis"},"federalState":{"key":"06","name":"Hessen"}},{"name":"Kleiststr.","postalCode":"09380","locality":"Thalheim/Erzgebirge","municipality":{"key":"14521620","name":"Thalheim/Erzgeb., Stadt","type":"Stadt"},"district":{"key":"14521","name":"Erzgebirgskreis","type":"Landkreis"},"federalState":{"key":"14","name":"Sachsen"}},{"name":"Klengeweg","postalCode":"36211","locality":"Alheim","municipality":{"key":"06632001","name":"Alheim","type":"Kreisangehörige_Gemeinde"},"district":{"key":"06632","name":"Hersfeld-Rotenburg","type":"Landkreis"},"federalState":{"key":"06","name":"Hessen"}},{"name":"Königsberger Str.","postalCode":"74388","locality":"Talheim","municipality":{"key":"08125094","name":"Talheim","type":"Kreisangehörige_Gemeinde"},"district":{"key":"08125","name":"Heilbronn","type":"Landkreis"},"federalState":{"key":"08","name":"Baden-Württemberg"}},{"name":"Konnefelder Str.","postalCode":"36211","locality":"Alheim","municipality":{"key":"06632001","name":"Alheim","type":"Kreisangehörige_Gemeinde"},"district":{"key":"06632","name":"Hersfeld-Rotenburg","type":"Landkreis"},"federalState":{"key":"06","name":"Hessen"}},{"name":"Krokodilweg","postalCode":"74399","locality":"Walheim","municipality":{"key":"08118074","name":"Walheim","type":"Kreisangehörige_Gemeinde"},"district":{"key":"08118","name":"Ludwigsburg","type":"Landkreis"},"federalState":{"key":"08","name":"Baden-Württemberg"}},{"name":"Kronbornweg","postalCode":"36211","locality":"Alheim","municipality":{"key":"06632001","name":"Alheim","type":"Kreisangehörige_Gemeinde"},"district":{"key":"06632","name":"Hersfeld-Rotenburg","type":"Landkreis"},"federalState":{"key":"06","name":"Hessen"}},{"name":"Kurze Gasse","postalCode":"36211","locality":"Alheim","municipality":{"key":"06632001","name":"Alheim","type":"Kreisangehörige_Gemeinde"},"district":{"key":"06632","name":"Hersfeld-Rotenburg","type":"Landkreis"},"federalState":{"key":"06","name":"Hessen"}},{"name":"Kurze Str.","postalCode":"09380","locality":"Thalheim/Erzgebirge","municipality":{"key":"14521620","name":"Thalheim/Erzgeb., Stadt","type":"Stadt"},"district":{"key":"14521","name":"Erzgebirgskreis","type":"Landkreis"},"federalState":{"key":"14","name":"Sachsen"}},{"name":"Kurze Str.","postalCode":"36211","locality":"Alheim","municipality":{"key":"06632001","name":"Alheim","type":"Kreisangehörige_Gemeinde"},"district":{"key":"06632","name":"Hersfeld-Rotenburg","type":"Landkreis"},"federalState":{"key":"06","name":"Hessen"}},{"name":"Lämlinweg","postalCode":"74388","locality":"Talheim","municipality":{"key":"08125094","name":"Talheim","type":"Kreisangehörige_Gemeinde"},"district":{"key":"08125","name":"Heilbronn","type":"Landkreis"},"federalState":{"key":"08","name":"Baden-Württemberg"}},{"name":"Landschaftsschutzgebiet Lützelstrauch","postalCode":"36211","locality":"Alheim","municipality":{"key":"06632001","name":"Alheim","type":"Kreisangehörige_Gemeinde"},"district":{"key":"06632","name":"Hersfeld-Rotenburg","type":"Landkreis"},"federalState":{"key":"06","name":"Hessen"}},{"name":"Landturmstr.","postalCode":"74388","locality":"Talheim","municipality":{"key":"08125094","name":"Talheim","type":"Kreisangehörige_Gemeinde"},"district":{"key":"08125","name":"Heilbronn","type":"Landkreis"},"federalState":{"key":"08","name":"Baden-Württemberg"}},{"name":"Lange Gasse","postalCode":"74388","locality":"Talheim","municipality":{"key":"08125094","name":"Talheim","type":"Kreisangehörige_Gemeinde"},"district":{"key":"08125","name":"Heilbronn","type":"Landkreis"},"federalState":{"key":"08","name":"Baden-Württemberg"}},{"name":"Lärchenweg","postalCode":"36211","locality":"Alheim","municipality":{"key":"06632001","name":"Alheim","type":"Kreisangehörige_Gemeinde"},"district":{"key":"06632","name":"Hersfeld-Rotenburg","type":"Landkreis"},"federalState":{"key":"06","name":"Hessen"}},{"name":"Lärchenweg","postalCode":"78607","locality":"Talheim","municipality":{"key":"08327048","name":"Talheim","type":"Kreisangehörige_Gemeinde"},"district":{"key":"08327","name":"Tuttlingen","type":"Landkreis"},"federalState":{"key":"08","name":"Baden-Württemberg"}},{"name":"Lauffener Str.","postalCode":"74388","locality":"Talheim","municipality":{"key":"08125094","name":"Talheim","type":"Kreisangehörige_Gemeinde"},"district":{"key":"08125","name":"Heilbronn","type":"Landkreis"},"federalState":{"key":"08","name":"Baden-Württemberg"}},{"name":"Leinenweg","postalCode":"36211","locality":"Alheim","municipality":{"key":"06632001","name":"Alheim","type":"Kreisangehörige_Gemeinde"},"district":{"key":"06632","name":"Hersfeld-Rotenburg","type":"Landkreis"},"federalState":{"key":"06","name":"Hessen"}},{"name":"Lembergerweg","postalCode":"74388","locality":"Talheim","municipality":{"key":"08125094","name":"Talheim","type":"Kreisangehörige_Gemeinde"},"district":{"key":"08125","name":"Heilbronn","type":"Landkreis"},"federalState":{"key":"08","name":"Baden-Württemberg"}},{"name":"Lerchenweg","postalCode":"74388","locality":"Talheim","municipality":{"key":"08125094","name":"Talheim","type":"Kreisangehörige_Gemeinde"},"district":{"key":"08125","name":"Heilbronn","type":"Landkreis"},"federalState":{"key":"08","name":"Baden-Württemberg"}},{"name":"Lerchenweg","postalCode":"74399","locality":"Walheim","municipality":{"key":"08118074","name":"Walheim","type":"Kreisangehörige_Gemeinde"},"district":{"key":"08118","name":"Ludwigsburg","type":"Landkreis"},"federalState":{"key":"08","name":"Baden-Württemberg"}},{"name":"Lessingstr.","postalCode":"09380","locality":"Thalheim/Erzgebirge","municipality":{"key":"14521620","name":"Thalheim/Erzgeb., Stadt","type":"Stadt"},"district":{"key":"14521","name":"Erzgebirgskreis","type":"Landkreis"},"federalState":{"key":"14","name":"Sachsen"}},{"name":"Lettengasse","postalCode":"55278","locality":"Dalheim","municipality":{"key":"07339010","name":"Dalheim","type":"Kreisangehörige_Gemeinde"},"district":{"key":"07339","name":"Mainz-Bingen","type":"Landkreis"},"federalState":{"key":"07","name":"Rheinland-Pfalz"}},{"name":"Licheröder Str.","postalCode":"36211","locality":"Alheim","municipality":{"key":"06632001","name":"Alheim","type":"Kreisangehörige_Gemeinde"},"district":{"key":"06632","name":"Hersfeld-Rotenburg","type":"Landkreis"},"federalState":{"key":"06","name":"Hessen"}},{"name":"Lindengasse","postalCode":"36211","locality":"Alheim","municipality":{"key":"06632001","name":"Alheim","type":"Kreisangehörige_Gemeinde"},"district":{"key":"06632","name":"Hersfeld-Rotenburg","type":"Landkreis"},"federalState":{"key":"06","name":"Hessen"}},{"name":"Lindenstr.","postalCode":"09380","locality":"Thalheim/Erzgebirge","municipality":{"key":"14521620","name":"Thalheim/Erzgeb., Stadt","type":"Stadt"},"district":{"key":"14521","name":"Erzgebirgskreis","type":"Landkreis"},"federalState":{"key":"14","name":"Sachsen"}},{"name":"Lindenstr.","postalCode":"36211","locality":"Alheim","municipality":{"key":"06632001","name":"Alheim","type":"Kreisangehörige_Gemeinde"},"district":{"key":"06632","name":"Hersfeld-Rotenburg","type":"Landkreis"},"federalState":{"key":"06","name":"Hessen"}},{"name":"Lindenweg","postalCode":"74388","locality":"Talheim","municipality":{"key":"08125094","name":"Talheim","type":"Kreisangehörige_Gemeinde"},"district":{"key":"08125","name":"Heilbronn","type":"Landkreis"},"federalState":{"key":"08","name":"Baden-Württemberg"}},{"name":"Löfflerweg","postalCode":"09380","locality":"Thalheim/Erzgebirge","municipality":{"key":"14521620","name":"Thalheim/Erzgeb., Stadt","type":"Stadt"},"district":{"key":"14521","name":"Erzgebirgskreis","type":"Landkreis"},"federalState":{"key":"14","name":"Sachsen"}},{"name":"Lohgasse","postalCode":"36211","locality":"Alheim","municipality":{"key":"06632001","name":"Alheim","type":"Kreisangehörige_Gemeinde"},"district":{"key":"06632","name":"Hersfeld-Rotenburg","type":"Landkreis"},"federalState":{"key":"06","name":"Hessen"}},{"name":"Ludwig-Jahn-Str.","postalCode":"09380","locality":"Thalheim/Erzgebirge","municipality":{"key":"14521620","name":"Thalheim/Erzgeb., Stadt","type":"Stadt"},"district":{"key":"14521","name":"Erzgebirgskreis","type":"Landkreis"},"federalState":{"key":"14","name":"Sachsen"}},{"name":"Ludwigsecker Str.","postalCode":"36211","locality":"Alheim","municipality":{"key":"06632001","name":"Alheim","type":"Kreisangehörige_Gemeinde"},"district":{"key":"06632","name":"Hersfeld-Rotenburg","type":"Landkreis"},"federalState":{"key":"06","name":"Hessen"}},{"name":"Ludwigstr.","postalCode":"74399","locality":"Walheim","municipality":{"key":"08118074","name":"Walheim","type":"Kreisangehörige_Gemeinde"},"district":{"key":"08118","name":"Ludwigsburg","type":"Landkreis"},"federalState":{"key":"08","name":"Baden-Württemberg"}},{"name":"Lutherstr.","postalCode":"09380","locality":"Thalheim/Erzgebirge","municipality":{"key":"14521620","name":"Thalheim/Erzgeb., Stadt","type":"Stadt"},"district":{"key":"14521","name":"Erzgebirgskreis","type":"Landkreis"},"federalState":{"key":"14","name":"Sachsen"}},{"name":"Lützelfeldstr.","postalCode":"36211","locality":"Alheim","municipality":{"key":"06632001","name":"Alheim","type":"Kreisangehörige_Gemeinde"},"district":{"key":"06632","name":"Hersfeld-Rotenburg","type":"Landkreis"},"federalState":{"key":"06","name":"Hessen"}},{"name":"Lützelweg","postalCode":"36211","locality":"Alheim","municipality":{"key":"06632001","name":"Alheim","type":"Kreisangehörige_Gemeinde"},"district":{"key":"06632","name":"Hersfeld-Rotenburg","type":"Landkreis"},"federalState":{"key":"06","name":"Hessen"}},{"name":"Marksteig","postalCode":"09380","locality":"Thalheim/Erzgebirge","municipality":{"key":"14521620","name":"Thalheim/Erzgeb., Stadt","type":"Stadt"},"district":{"key":"14521","name":"Erzgebirgskreis","type":"Landkreis"},"federalState":{"key":"14","name":"Sachsen"}},{"name":"Mäuswedel","postalCode":"74388","locality":"Talheim","municipality":{"key":"08125094","name":"Talheim","type":"Kreisangehörige_Gemeinde"},"district":{"key":"08125","name":"Heilbronn","type":"Landkreis"},"federalState":{"key":"08","name":"Baden-Württemberg"}},{"name":"Meinersdorfer Str.","postalCode":"09380","locality":"Thalheim/Erzgebirge","municipality":{"key":"14521620","name":"Thalheim/Erzgeb., Stadt","type":"Stadt"},"district":{"key":"14521","name":"Erzgebirgskreis","type":"Landkreis"},"federalState":{"key":"14","name":"Sachsen"}},{"name":"Meinersdorfer Weg","postalCode":"09380","locality":"Thalheim/Erzgebirge","municipality":{"key":"14521620","name":"Thalheim/Erzgeb., Stadt","type":"Stadt"},"district":{"key":"14521","name":"Erzgebirgskreis","type":"Landkreis"},"federalState":{"key":"14","name":"Sachsen"}},{"name":"Meisenweg","postalCode":"74399","locality":"Walheim","municipality":{"key":"08118074","name":"Walheim","type":"Kreisangehörige_Gemeinde"},"district":{"key":"08118","name":"Ludwigsburg","type":"Landkreis"},"federalState":{"key":"08","name":"Baden-Württemberg"}},{"name":"Melanchthonstr.","postalCode":"09380","locality":"Thalheim/Erzgebirge","municipality":{"key":"14521620","name":"Thalheim/Erzgeb., Stadt","type":"Stadt"},"district":{"key":"14521","name":"Erzgebirgskreis","type":"Landkreis"},"federalState":{"key":"14","name":"Sachsen"}},{"name":"Merowingerstr.","postalCode":"74388","locality":"Talheim","municipality":{"key":"08125094","name":"Talheim","type":"Kreisangehörige_Gemeinde"},"district":{"key":"08125","name":"Heilbronn","type":"Landkreis"},"federalState":{"key":"08","name":"Baden-Württemberg"}},{"name":"Metzebacher Str.","postalCode":"36211","locality":"Alheim","municipality":{"key":"06632001","name":"Alheim","type":"Kreisangehörige_Gemeinde"},"district":{"key":"06632","name":"Hersfeld-Rotenburg","type":"Landkreis"},"federalState":{"key":"06","name":"Hessen"}},{"name":"Minkosberg","postalCode":"09380","locality":"Thalheim/Erzgebirge","municipality":{"key":"14521620","name":"Thalheim/Erzgeb., Stadt","type":"Stadt"},"district":{"key":"14521","name":"Erzgebirgskreis","type":"Landkreis"},"federalState":{"key":"14","name":"Sachsen"}},{"name":"Morgenröte","postalCode":"09380","locality":"Thalheim/Erzgebirge","municipality":{"key":"14521620","name":"Thalheim/Erzgeb., Stadt","type":"Stadt"},"district":{"key":"14521","name":"Erzgebirgskreis","type":"Landkreis"},"federalState":{"key":"14","name":"Sachsen"}},{"name":"Mörikestr.","postalCode":"74399","locality":"Walheim","municipality":{"key":"08118074","name":"Walheim","type":"Kreisangehörige_Gemeinde"},"district":{"key":"08118","name":"Ludwigsburg","type":"Landkreis"},"federalState":{"key":"08","name":"Baden-Württemberg"}},{"name":"Mörikeweg","postalCode":"74388","locality":"Talheim","municipality":{"key":"08125094","name":"Talheim","type":"Kreisangehörige_Gemeinde"},"district":{"key":"08125","name":"Heilbronn","type":"Landkreis"},"federalState":{"key":"08","name":"Baden-Württemberg"}},{"name":"Moritzstr.","postalCode":"09380","locality":"Thalheim/Erzgebirge","municipality":{"key":"14521620","name":"Thalheim/Erzgeb., Stadt","type":"Stadt"},"district":{"key":"14521","name":"Erzgebirgskreis","type":"Landkreis"},"federalState":{"key":"14","name":"Sachsen"}},{"name":"Mozartweg","postalCode":"74399","locality":"Walheim","municipality":{"key":"08118074","name":"Walheim","type":"Kreisangehörige_Gemeinde"},"district":{"key":"08118","name":"Ludwigsburg","type":"Landkreis"},"federalState":{"key":"08","name":"Baden-Württemberg"}},{"name":"Mühläckerring","postalCode":"74388","locality":"Talheim","municipality":{"key":"08125094","name":"Talheim","type":"Kreisangehörige_Gemeinde"},"district":{"key":"08125","name":"Heilbronn","type":"Landkreis"},"federalState":{"key":"08","name":"Baden-Württemberg"}},{"name":"Mühlenstr.","postalCode":"36211","locality":"Alheim","municipality":{"key":"06632001","name":"Alheim","type":"Kreisangehörige_Gemeinde"},"district":{"key":"06632","name":"Hersfeld-Rotenburg","type":"Landkreis"},"federalState":{"key":"06","name":"Hessen"}},{"name":"Mühlstr.","postalCode":"74388","locality":"Talheim","municipality":{"key":"08125094","name":"Talheim","type":"Kreisangehörige_Gemeinde"},"district":{"key":"08125","name":"Heilbronn","type":"Landkreis"},"federalState":{"key":"08","name":"Baden-Württemberg"}},{"name":"Mühlstr.","postalCode":"74399","locality":"Walheim","municipality":{"key":"08118074","name":"Walheim","type":"Kreisangehörige_Gemeinde"},"district":{"key":"08118","name":"Ludwigsburg","type":"Landkreis"},"federalState":{"key":"08","name":"Baden-Württemberg"}},{"name":"Mühlweg","postalCode":"36211","locality":"Alheim","municipality":{"key":"06632001","name":"Alheim","type":"Kreisangehörige_Gemeinde"},"district":{"key":"06632","name":"Hersfeld-Rotenburg","type":"Landkreis"},"federalState":{"key":"06","name":"Hessen"}},{"name":"Müntzerstr.","postalCode":"09380","locality":"Thalheim/Erzgebirge","municipality":{"key":"14521620","name":"Thalheim/Erzgeb., Stadt","type":"Stadt"},"district":{"key":"14521","name":"Erzgebirgskreis","type":"Landkreis"},"federalState":{"key":"14","name":"Sachsen"}},{"name":"Muskatellerweg","postalCode":"74388","locality":"Talheim","municipality":{"key":"08125094","name":"Talheim","type":"Kreisangehörige_Gemeinde"},"district":{"key":"08125","name":"Heilbronn","type":"Landkreis"},"federalState":{"key":"08","name":"Baden-Württemberg"}},{"name":"Neckarstr.","postalCode":"74399","locality":"Walheim","municipality":{"key":"08118074","name":"Walheim","type":"Kreisangehörige_Gemeinde"},"district":{"key":"08118","name":"Ludwigsburg","type":"Landkreis"},"federalState":{"key":"08","name":"Baden-Württemberg"}},{"name":"Neue Wiesenstr.","postalCode":"09380","locality":"Thalheim/Erzgebirge","municipality":{"key":"14521620","name":"Thalheim/Erzgeb., Stadt","type":"Stadt"},"district":{"key":"14521","name":"Erzgebirgskreis","type":"Landkreis"},"federalState":{"key":"14","name":"Sachsen"}},{"name":"Neugasse","postalCode":"55278","locality":"Dalheim","municipality":{"key":"07339010","name":"Dalheim","type":"Kreisangehörige_Gemeinde"},"district":{"key":"07339","name":"Mainz-Bingen","type":"Landkreis"},"federalState":{"key":"07","name":"Rheinland-Pfalz"}},{"name":"Neulingstr.","postalCode":"74399","locality":"Walheim","municipality":{"key":"08118074","name":"Walheim","type":"Kreisangehörige_Gemeinde"},"district":{"key":"08118","name":"Ludwigsburg","type":"Landkreis"},"federalState":{"key":"08","name":"Baden-Württemberg"}},{"name":"Niederellenbacher Str.","postalCode":"36211","locality":"Alheim","municipality":{"key":"06632001","name":"Alheim","type":"Kreisangehörige_Gemeinde"},"district":{"key":"06632","name":"Hersfeld-Rotenburg","type":"Landkreis"},"federalState":{"key":"06","name":"Hessen"}},{"name":"Nordstr.","postalCode":"09380","locality":"Thalheim/Erzgebirge","municipality":{"key":"14521620","name":"Thalheim/Erzgeb., Stadt","type":"Stadt"},"district":{"key":"14521","name":"Erzgebirgskreis","type":"Landkreis"},"federalState":{"key":"14","name":"Sachsen"}},{"name":"Nürnberger Str.","postalCode":"36211","locality":"Alheim","municipality":{"key":"06632001","name":"Alheim","type":"Kreisangehörige_Gemeinde"},"district":{"key":"06632","name":"Hersfeld-Rotenburg","type":"Landkreis"},"federalState":{"key":"06","name":"Hessen"}},{"name":"Nußbäumle","postalCode":"74388","locality":"Talheim","municipality":{"key":"08125094","name":"Talheim","type":"Kreisangehörige_Gemeinde"},"district":{"key":"08125","name":"Heilbronn","type":"Landkreis"},"federalState":{"key":"08","name":"Baden-Württemberg"}},{"name":"Oberer Brühl","postalCode":"78607","locality":"Talheim","municipality":{"key":"08327048","name":"Talheim","type":"Kreisangehörige_Gemeinde"},"district":{"key":"08327","name":"Tuttlingen","type":"Landkreis"},"federalState":{"key":"08","name":"Baden-Württemberg"}},{"name":"Oberer Deponieweg","postalCode":"74399","locality":"Walheim","municipality":{"key":"08118074","name":"Walheim","type":"Kreisangehörige_Gemeinde"},"district":{"key":"08118","name":"Ludwigsburg","type":"Landkreis"},"federalState":{"key":"08","name":"Baden-Württemberg"}},{"name":"Oberer Erlenbach","postalCode":"36211","locality":"Alheim","municipality":{"key":"06632001","name":"Alheim","type":"Kreisangehörige_Gemeinde"},"district":{"key":"06632","name":"Hersfeld-Rotenburg","type":"Landkreis"},"federalState":{"key":"06","name":"Hessen"}},{"name":"Oberer Winkel","postalCode":"78607","locality":"Talheim","municipality":{"key":"08327048","name":"Talheim","type":"Kreisangehörige_Gemeinde"},"district":{"key":"08327","name":"Tuttlingen","type":"Landkreis"},"federalState":{"key":"08","name":"Baden-Württemberg"}},{"name":"Panoramastr.","postalCode":"36211","locality":"Alheim","municipality":{"key":"06632001","name":"Alheim","type":"Kreisangehörige_Gemeinde"},"district":{"key":"06632","name":"Hersfeld-Rotenburg","type":"Landkreis"},"federalState":{"key":"06","name":"Hessen"}},{"name":"Panoramastr.","postalCode":"74388","locality":"Talheim","municipality":{"key":"08125094","name":"Talheim","type":"Kreisangehörige_Gemeinde"},"district":{"key":"08125","name":"Heilbronn","type":"Landkreis"},"federalState":{"key":"08","name":"Baden-Württemberg"}},{"name":"Panoramaweg","postalCode":"74399","locality":"Walheim","municipality":{"key":"08118074","name":"Walheim","type":"Kreisangehörige_Gemeinde"},"district":{"key":"08118","name":"Ludwigsburg","type":"Landkreis"},"federalState":{"key":"08","name":"Baden-Württemberg"}},{"name":"Pappelweg","postalCode":"36211","locality":"Alheim","municipality":{"key":"06632001","name":"Alheim","type":"Kreisangehörige_Gemeinde"},"district":{"key":"06632","name":"Hersfeld-Rotenburg","type":"Landkreis"},"federalState":{"key":"06","name":"Hessen"}},{"name":"Parkstr.","postalCode":"09380","locality":"Thalheim/Erzgebirge","municipality":{"key":"14521620","name":"Thalheim/Erzgeb., Stadt","type":"Stadt"},"district":{"key":"14521","name":"Erzgebirgskreis","type":"Landkreis"},"federalState":{"key":"14","name":"Sachsen"}},{"name":"Paulinenstr.","postalCode":"74399","locality":"Walheim","municipality":{"key":"08118074","name":"Walheim","type":"Kreisangehörige_Gemeinde"},"district":{"key":"08118","name":"Ludwigsburg","type":"Landkreis"},"federalState":{"key":"08","name":"Baden-Württemberg"}},{"name":"Pestalozzistr.","postalCode":"74388","locality":"Talheim","municipality":{"key":"08125094","name":"Talheim","type":"Kreisangehörige_Gemeinde"},"district":{"key":"08125","name":"Heilbronn","type":"Landkreis"},"federalState":{"key":"08","name":"Baden-Württemberg"}},{"name":"Pfaffenberg","postalCode":"36211","locality":"Alheim","municipality":{"key":"06632001","name":"Alheim","type":"Kreisangehörige_Gemeinde"},"district":{"key":"06632","name":"Hersfeld-Rotenburg","type":"Landkreis"},"federalState":{"key":"06","name":"Hessen"}},{"name":"Pfaffengasse","postalCode":"55278","locality":"Dalheim","municipality":{"key":"07339010","name":"Dalheim","type":"Kreisangehörige_Gemeinde"},"district":{"key":"07339","name":"Mainz-Bingen","type":"Landkreis"},"federalState":{"key":"07","name":"Rheinland-Pfalz"}},{"name":"Pfarrain","postalCode":"36211","locality":"Alheim","municipality":{"key":"06632001","name":"Alheim","type":"Kreisangehörige_Gemeinde"},"district":{"key":"06632","name":"Hersfeld-Rotenburg","type":"Landkreis"},"federalState":{"key":"06","name":"Hessen"}},{"name":"Pfarrgrund","postalCode":"09380","locality":"Thalheim/Erzgebirge","municipality":{"key":"14521620","name":"Thalheim/Erzgeb., Stadt","type":"Stadt"},"district":{"key":"14521","name":"Erzgebirgskreis","type":"Landkreis"},"federalState":{"key":"14","name":"Sachsen"}},{"name":"Pforte","postalCode":"55278","locality":"Dalheim","municipality":{"key":"07339010","name":"Dalheim","type":"Kreisangehörige_Gemeinde"},"district":{"key":"07339","name":"Mainz-Bingen","type":"Landkreis"},"federalState":{"key":"07","name":"Rheinland-Pfalz"}},{"name":"Pfützäckerweg","postalCode":"74388","locality":"Talheim","municipality":{"key":"08125094","name":"Talheim","type":"Kreisangehörige_Gemeinde"},"district":{"key":"08125","name":"Heilbronn","type":"Landkreis"},"federalState":{"key":"08","name":"Baden-Württemberg"}},{"name":"Philosophenweg","postalCode":"74388","locality":"Talheim","municipality":{"key":"08125094","name":"Talheim","type":"Kreisangehörige_Gemeinde"},"district":{"key":"08125","name":"Heilbronn","type":"Landkreis"},"federalState":{"key":"08","name":"Baden-Württemberg"}},{"name":"Pionierweg","postalCode":"09380","locality":"Thalheim/Erzgebirge","municipality":{"key":"14521620","name":"Thalheim/Erzgeb., Stadt","type":"Stadt"},"district":{"key":"14521","name":"Erzgebirgskreis","type":"Landkreis"},"federalState":{"key":"14","name":"Sachsen"}},{"name":"Postgässle","postalCode":"78607","locality":"Talheim","municipality":{"key":"08327048","name":"Talheim","type":"Kreisangehörige_Gemeinde"},"district":{"key":"08327","name":"Tuttlingen","type":"Landkreis"},"federalState":{"key":"08","name":"Baden-Württemberg"}},{"name":"Prinz-Eugen-Str.","postalCode":"74388","locality":"Talheim","municipality":{"key":"08125094","name":"Talheim","type":"Kreisangehörige_Gemeinde"},"district":{"key":"08125","name":"Heilbronn","type":"Landkreis"},"federalState":{"key":"08","name":"Baden-Württemberg"}},{"name":"Querstr.","postalCode":"36211","locality":"Alheim","municipality":{"key":"06632001","name":"Alheim","type":"Kreisangehörige_Gemeinde"},"district":{"key":"06632","name":"Hersfeld-Rotenburg","type":"Landkreis"},"federalState":{"key":"06","name":"Hessen"}},{"name":"Raiffeisenstr.","postalCode":"36211","locality":"Alheim","municipality":{"key":"06632001","name":"Alheim","type":"Kreisangehörige_Gemeinde"},"district":{"key":"06632","name":"Hersfeld-Rotenburg","type":"Landkreis"},"federalState":{"key":"06","name":"Hessen"}},{"name":"Randsiedlung","postalCode":"09380","locality":"Thalheim/Erzgebirge","municipality":{"key":"14521620","name":"Thalheim/Erzgeb., Stadt","type":"Stadt"},"district":{"key":"14521","name":"Erzgebirgskreis","type":"Landkreis"},"federalState":{"key":"14","name":"Sachsen"}},{"name":"Reifenbergstr.","postalCode":"78607","locality":"Talheim","municipality":{"key":"08327048","name":"Talheim","type":"Kreisangehörige_Gemeinde"},"district":{"key":"08327","name":"Tuttlingen","type":"Landkreis"},"federalState":{"key":"08","name":"Baden-Württemberg"}},{"name":"Reuthweg","postalCode":"74399","locality":"Walheim","municipality":{"key":"08118074","name":"Walheim","type":"Kreisangehörige_Gemeinde"},"district":{"key":"08118","name":"Ludwigsburg","type":"Landkreis"},"federalState":{"key":"08","name":"Baden-Württemberg"}},{"name":"Riedmühle","postalCode":"36211","locality":"Alheim","municipality":{"key":"06632001","name":"Alheim","type":"Kreisangehörige_Gemeinde"},"district":{"key":"06632","name":"Hersfeld-Rotenburg","type":"Landkreis"},"federalState":{"key":"06","name":"Hessen"}},{"name":"Riedweg","postalCode":"36211","locality":"Alheim","municipality":{"key":"06632001","name":"Alheim","type":"Kreisangehörige_Gemeinde"},"district":{"key":"06632","name":"Hersfeld-Rotenburg","type":"Landkreis"},"federalState":{"key":"06","name":"Hessen"}},{"name":"Riedweg","postalCode":"78607","locality":"Talheim","municipality":{"key":"08327048","name":"Talheim","type":"Kreisangehörige_Gemeinde"},"district":{"key":"08327","name":"Tuttlingen","type":"Landkreis"},"federalState":{"key":"08","name":"Baden-Württemberg"}},{"name":"Rieslingweg","postalCode":"74388","locality":"Talheim","municipality":{"key":"08125094","name":"Talheim","type":"Kreisangehörige_Gemeinde"},"district":{"key":"08125","name":"Heilbronn","type":"Landkreis"},"federalState":{"key":"08","name":"Baden-Württemberg"}},{"name":"Rieslingweg","postalCode":"74399","locality":"Walheim","municipality":{"key":"08118074","name":"Walheim","type":"Kreisangehörige_Gemeinde"},"district":{"key":"08118","name":"Ludwigsburg","type":"Landkreis"},"federalState":{"key":"08","name":"Baden-Württemberg"}},{"name":"Robert-Bopp-Str.","postalCode":"74388","locality":"Talheim","municipality":{"key":"08125094","name":"Talheim","type":"Kreisangehörige_Gemeinde"},"district":{"key":"08125","name":"Heilbronn","type":"Landkreis"},"federalState":{"key":"08","name":"Baden-Württemberg"}},{"name":"Robert-Koch-Str.","postalCode":"09380","locality":"Thalheim/Erzgebirge","municipality":{"key":"14521620","name":"Thalheim/Erzgeb., Stadt","type":"Stadt"},"district":{"key":"14521","name":"Erzgebirgskreis","type":"Landkreis"},"federalState":{"key":"14","name":"Sachsen"}},{"name":"Robinienweg","postalCode":"74388","locality":"Talheim","municipality":{"key":"08125094","name":"Talheim","type":"Kreisangehörige_Gemeinde"},"district":{"key":"08125","name":"Heilbronn","type":"Landkreis"},"federalState":{"key":"08","name":"Baden-Württemberg"}},{"name":"Rodelstr.","postalCode":"36211","locality":"Alheim","municipality":{"key":"06632001","name":"Alheim","type":"Kreisangehörige_Gemeinde"},"district":{"key":"06632","name":"Hersfeld-Rotenburg","type":"Landkreis"},"federalState":{"key":"06","name":"Hessen"}},{"name":"Rohräcker","postalCode":"74388","locality":"Talheim","municipality":{"key":"08125094","name":"Talheim","type":"Kreisangehörige_Gemeinde"},"district":{"key":"08125","name":"Heilbronn","type":"Landkreis"},"federalState":{"key":"08","name":"Baden-Württemberg"}},{"name":"Rolandstr.","postalCode":"09380","locality":"Thalheim/Erzgebirge","municipality":{"key":"14521620","name":"Thalheim/Erzgeb., Stadt","type":"Stadt"},"district":{"key":"14521","name":"Erzgebirgskreis","type":"Landkreis"},"federalState":{"key":"14","name":"Sachsen"}},{"name":"Römerstr.","postalCode":"55278","locality":"Dalheim","municipality":{"key":"07339010","name":"Dalheim","type":"Kreisangehörige_Gemeinde"},"district":{"key":"07339","name":"Mainz-Bingen","type":"Landkreis"},"federalState":{"key":"07","name":"Rheinland-Pfalz"}},{"name":"Römerstr.","postalCode":"74399","locality":"Walheim","municipality":{"key":"08118074","name":"Walheim","type":"Kreisangehörige_Gemeinde"},"district":{"key":"08118","name":"Ludwigsburg","type":"Landkreis"},"federalState":{"key":"08","name":"Baden-Württemberg"}},{"name":"Römerweg","postalCode":"74388","locality":"Talheim","municipality":{"key":"08125094","name":"Talheim","type":"Kreisangehörige_Gemeinde"},"district":{"key":"08125","name":"Heilbronn","type":"Landkreis"},"federalState":{"key":"08","name":"Baden-Württemberg"}},{"name":"Roßtaler Weg","postalCode":"09380","locality":"Thalheim/Erzgebirge","municipality":{"key":"14521620","name":"Thalheim/Erzgeb., Stadt","type":"Stadt"},"district":{"key":"14521","name":"Erzgebirgskreis","type":"Landkreis"},"federalState":{"key":"14","name":"Sachsen"}},{"name":"Rotenburger Str.","postalCode":"36211","locality":"Alheim","municipality":{"key":"06632001","name":"Alheim","type":"Kreisangehörige_Gemeinde"},"district":{"key":"06632","name":"Hersfeld-Rotenburg","type":"Landkreis"},"federalState":{"key":"06","name":"Hessen"}},{"name":"Ruländerweg","postalCode":"74399","locality":"Walheim","municipality":{"key":"08118074","name":"Walheim","type":"Kreisangehörige_Gemeinde"},"district":{"key":"08118","name":"Ludwigsburg","type":"Landkreis"},"federalState":{"key":"08","name":"Baden-Württemberg"}},{"name":"Salzstr.","postalCode":"09380","locality":"Thalheim/Erzgebirge","municipality":{"key":"14521620","name":"Thalheim/Erzgeb., Stadt","type":"Stadt"},"district":{"key":"14521","name":"Erzgebirgskreis","type":"Landkreis"},"federalState":{"key":"14","name":"Sachsen"}},{"name":"Samtrotweg","postalCode":"74388","locality":"Talheim","municipality":{"key":"08125094","name":"Talheim","type":"Kreisangehörige_Gemeinde"},"district":{"key":"08125","name":"Heilbronn","type":"Landkreis"},"federalState":{"key":"08","name":"Baden-Württemberg"}},{"name":"Sandweg","postalCode":"36211","locality":"Alheim","municipality":{"key":"06632001","name":"Alheim","type":"Kreisangehörige_Gemeinde"},"district":{"key":"06632","name":"Hersfeld-Rotenburg","type":"Landkreis"},"federalState":{"key":"06","name":"Hessen"}},{"name":"Schillerstr.","postalCode":"09380","locality":"Thalheim/Erzgebirge","municipality":{"key":"14521620","name":"Thalheim/Erzgeb., Stadt","type":"Stadt"},"district":{"key":"14521","name":"Erzgebirgskreis","type":"Landkreis"},"federalState":{"key":"14","name":"Sachsen"}},{"name":"Schillerstr.","postalCode":"74388","locality":"Talheim","municipality":{"key":"08125094","name":"Talheim","type":"Kreisangehörige_Gemeinde"},"district":{"key":"08125","name":"Heilbronn","type":"Landkreis"},"federalState":{"key":"08","name":"Baden-Württemberg"}},{"name":"Schillingsrain","postalCode":"36211","locality":"Alheim","municipality":{"key":"06632001","name":"Alheim","type":"Kreisangehörige_Gemeinde"},"district":{"key":"06632","name":"Hersfeld-Rotenburg","type":"Landkreis"},"federalState":{"key":"06","name":"Hessen"}},{"name":"Schindersgrube","postalCode":"74388","locality":"Talheim","municipality":{"key":"08125094","name":"Talheim","type":"Kreisangehörige_Gemeinde"},"district":{"key":"08125","name":"Heilbronn","type":"Landkreis"},"federalState":{"key":"08","name":"Baden-Württemberg"}},{"name":"Schloßstr.","postalCode":"74388","locality":"Talheim","municipality":{"key":"08125094","name":"Talheim","type":"Kreisangehörige_Gemeinde"},"district":{"key":"08125","name":"Heilbronn","type":"Landkreis"},"federalState":{"key":"08","name":"Baden-Württemberg"}},{"name":"Schmalzberg","postalCode":"74388","locality":"Talheim","municipality":{"key":"08125094","name":"Talheim","type":"Kreisangehörige_Gemeinde"},"district":{"key":"08125","name":"Heilbronn","type":"Landkreis"},"federalState":{"key":"08","name":"Baden-Württemberg"}},{"name":"Schmiedplatz","postalCode":"78607","locality":"Talheim","municipality":{"key":"08327048","name":"Talheim","type":"Kreisangehörige_Gemeinde"},"district":{"key":"08327","name":"Tuttlingen","type":"Landkreis"},"federalState":{"key":"08","name":"Baden-Württemberg"}},{"name":"Schnackenwag","postalCode":"09380","locality":"Thalheim/Erzgebirge","municipality":{"key":"14521620","name":"Thalheim/Erzgeb., Stadt","type":"Stadt"},"district":{"key":"14521","name":"Erzgebirgskreis","type":"Landkreis"},"federalState":{"key":"14","name":"Sachsen"}},{"name":"Schneckenburger Platz","postalCode":"78607","locality":"Talheim","municipality":{"key":"08327048","name":"Talheim","type":"Kreisangehörige_Gemeinde"},"district":{"key":"08327","name":"Tuttlingen","type":"Landkreis"},"federalState":{"key":"08","name":"Baden-Württemberg"}},{"name":"Schneckenburger Str.","postalCode":"78607","locality":"Talheim","municipality":{"key":"08327048","name":"Talheim","type":"Kreisangehörige_Gemeinde"},"district":{"key":"08327","name":"Tuttlingen","type":"Landkreis"},"federalState":{"key":"08","name":"Baden-Württemberg"}},{"name":"Schnurgasse","postalCode":"55278","locality":"Dalheim","municipality":{"key":"07339010","name":"Dalheim","type":"Kreisangehörige_Gemeinde"},"district":{"key":"07339","name":"Mainz-Bingen","type":"Landkreis"},"federalState":{"key":"07","name":"Rheinland-Pfalz"}},{"name":"Schozacher Str.","postalCode":"74388","locality":"Talheim","municipality":{"key":"08125094","name":"Talheim","type":"Kreisangehörige_Gemeinde"},"district":{"key":"08125","name":"Heilbronn","type":"Landkreis"},"federalState":{"key":"08","name":"Baden-Württemberg"}},{"name":"Schubartstr.","postalCode":"74399","locality":"Walheim","municipality":{"key":"08118074","name":"Walheim","type":"Kreisangehörige_Gemeinde"},"district":{"key":"08118","name":"Ludwigsburg","type":"Landkreis"},"federalState":{"key":"08","name":"Baden-Württemberg"}},{"name":"Schulstr.","postalCode":"09380","locality":"Thalheim/Erzgebirge","municipality":{"key":"14521620","name":"Thalheim/Erzgeb., Stadt","type":"Stadt"},"district":{"key":"14521","name":"Erzgebirgskreis","type":"Landkreis"},"federalState":{"key":"14","name":"Sachsen"}},{"name":"Schulstr.","postalCode":"36211","locality":"Alheim","municipality":{"key":"06632001","name":"Alheim","type":"Kreisangehörige_Gemeinde"},"district":{"key":"06632","name":"Hersfeld-Rotenburg","type":"Landkreis"},"federalState":{"key":"06","name":"Hessen"}},{"name":"Schulstr.","postalCode":"74399","locality":"Walheim","municipality":{"key":"08118074","name":"Walheim","type":"Kreisangehörige_Gemeinde"},"district":{"key":"08118","name":"Ludwigsburg","type":"Landkreis"},"federalState":{"key":"08","name":"Baden-Württemberg"}},{"name":"Schützenstr.","postalCode":"78607","locality":"Talheim","municipality":{"key":"08327048","name":"Talheim","type":"Kreisangehörige_Gemeinde"},"district":{"key":"08327","name":"Tuttlingen","type":"Landkreis"},"federalState":{"key":"08","name":"Baden-Württemberg"}},{"name":"Schwalbenweg","postalCode":"74399","locality":"Walheim","municipality":{"key":"08118074","name":"Walheim","type":"Kreisangehörige_Gemeinde"},"district":{"key":"08118","name":"Ludwigsburg","type":"Landkreis"},"federalState":{"key":"08","name":"Baden-Württemberg"}},{"name":"Sibyllenweg","postalCode":"74388","locality":"Talheim","municipality":{"key":"08125094","name":"Talheim","type":"Kreisangehörige_Gemeinde"},"district":{"key":"08125","name":"Heilbronn","type":"Landkreis"},"federalState":{"key":"08","name":"Baden-Württemberg"}},{"name":"Silcherstr.","postalCode":"55278","locality":"Dalheim","municipality":{"key":"07339010","name":"Dalheim","type":"Kreisangehörige_Gemeinde"},"district":{"key":"07339","name":"Mainz-Bingen","type":"Landkreis"},"federalState":{"key":"07","name":"Rheinland-Pfalz"}},{"name":"Silcherstr.","postalCode":"74399","locality":"Walheim","municipality":{"key":"08118074","name":"Walheim","type":"Kreisangehörige_Gemeinde"},"district":{"key":"08118","name":"Ludwigsburg","type":"Landkreis"},"federalState":{"key":"08","name":"Baden-Württemberg"}},{"name":"Silcherweg","postalCode":"74388","locality":"Talheim","municipality":{"key":"08125094","name":"Talheim","type":"Kreisangehörige_Gemeinde"},"district":{"key":"08125","name":"Heilbronn","type":"Landkreis"},"federalState":{"key":"08","name":"Baden-Württemberg"}},{"name":"Silvanerweg","postalCode":"74388","locality":"Talheim","municipality":{"key":"08125094","name":"Talheim","type":"Kreisangehörige_Gemeinde"},"district":{"key":"08125","name":"Heilbronn","type":"Landkreis"},"federalState":{"key":"08","name":"Baden-Württemberg"}},{"name":"Sonnenhang","postalCode":"36211","locality":"Alheim","municipality":{"key":"06632001","name":"Alheim","type":"Kreisangehörige_Gemeinde"},"district":{"key":"06632","name":"Hersfeld-Rotenburg","type":"Landkreis"},"federalState":{"key":"06","name":"Hessen"}},{"name":"Sonnenstr.","postalCode":"74388","locality":"Talheim","municipality":{"key":"08125094","name":"Talheim","type":"Kreisangehörige_Gemeinde"},"district":{"key":"08125","name":"Heilbronn","type":"Landkreis"},"federalState":{"key":"08","name":"Baden-Württemberg"}},{"name":"Sontheimer Feld","postalCode":"74388","locality":"Talheim","municipality":{"key":"08125094","name":"Talheim","type":"Kreisangehörige_Gemeinde"},"district":{"key":"08125","name":"Heilbronn","type":"Landkreis"},"federalState":{"key":"08","name":"Baden-Württemberg"}},{"name":"Sontheimer Str.","postalCode":"74388","locality":"Talheim","municipality":{"key":"08125094","name":"Talheim","type":"Kreisangehörige_Gemeinde"},"district":{"key":"08125","name":"Heilbronn","type":"Landkreis"},"federalState":{"key":"08","name":"Baden-Württemberg"}},{"name":"Soultzmatter Str.","postalCode":"74388","locality":"Talheim","municipality":{"key":"08125094","name":"Talheim","type":"Kreisangehörige_Gemeinde"},"district":{"key":"08125","name":"Heilbronn","type":"Landkreis"},"federalState":{"key":"08","name":"Baden-Württemberg"}},{"name":"Sperberseckstr.","postalCode":"74388","locality":"Talheim","municipality":{"key":"08125094","name":"Talheim","type":"Kreisangehörige_Gemeinde"},"district":{"key":"08125","name":"Heilbronn","type":"Landkreis"},"federalState":{"key":"08","name":"Baden-Württemberg"}},{"name":"Stadtbadstr.","postalCode":"09380","locality":"Thalheim/Erzgebirge","municipality":{"key":"14521620","name":"Thalheim/Erzgeb., Stadt","type":"Stadt"},"district":{"key":"14521","name":"Erzgebirgskreis","type":"Landkreis"},"federalState":{"key":"14","name":"Sachsen"}},{"name":"Stadtweg","postalCode":"36211","locality":"Alheim","municipality":{"key":"06632001","name":"Alheim","type":"Kreisangehörige_Gemeinde"},"district":{"key":"06632","name":"Hersfeld-Rotenburg","type":"Landkreis"},"federalState":{"key":"06","name":"Hessen"}},{"name":"Stegleswiesen","postalCode":"74399","locality":"Walheim","municipality":{"key":"08118074","name":"Walheim","type":"Kreisangehörige_Gemeinde"},"district":{"key":"08118","name":"Ludwigsburg","type":"Landkreis"},"federalState":{"key":"08","name":"Baden-Württemberg"}},{"name":"Steinweg","postalCode":"36211","locality":"Alheim","municipality":{"key":"06632001","name":"Alheim","type":"Kreisangehörige_Gemeinde"},"district":{"key":"06632","name":"Hersfeld-Rotenburg","type":"Landkreis"},"federalState":{"key":"06","name":"Hessen"}},{"name":"Sterkelshäuser Str.","postalCode":"36211","locality":"Alheim","municipality":{"key":"06632001","name":"Alheim","type":"Kreisangehörige_Gemeinde"},"district":{"key":"06632","name":"Hersfeld-Rotenburg","type":"Landkreis"},"federalState":{"key":"06","name":"Hessen"}},{"name":"St.-Georg-Str.","postalCode":"55278","locality":"Dalheim","municipality":{"key":"07339010","name":"Dalheim","type":"Kreisangehörige_Gemeinde"},"district":{"key":"07339","name":"Mainz-Bingen","type":"Landkreis"},"federalState":{"key":"07","name":"Rheinland-Pfalz"}},{"name":"St.-Martin-Str.","postalCode":"55278","locality":"Dalheim","municipality":{"key":"07339010","name":"Dalheim","type":"Kreisangehörige_Gemeinde"},"district":{"key":"07339","name":"Mainz-Bingen","type":"Landkreis"},"federalState":{"key":"07","name":"Rheinland-Pfalz"}},{"name":"Stollberger Str.","postalCode":"09380","locality":"Thalheim/Erzgebirge","municipality":{"key":"14521620","name":"Thalheim/Erzgeb., Stadt","type":"Stadt"},"district":{"key":"14521","name":"Erzgebirgskreis","type":"Landkreis"},"federalState":{"key":"14","name":"Sachsen"}},{"name":"Stölver","postalCode":"74388","locality":"Talheim","municipality":{"key":"08125094","name":"Talheim","type":"Kreisangehörige_Gemeinde"},"district":{"key":"08125","name":"Heilbronn","type":"Landkreis"},"federalState":{"key":"08","name":"Baden-Württemberg"}},{"name":"Sturmfederstr.","postalCode":"74388","locality":"Talheim","municipality":{"key":"08125094","name":"Talheim","type":"Kreisangehörige_Gemeinde"},"district":{"key":"08125","name":"Heilbronn","type":"Landkreis"},"federalState":{"key":"08","name":"Baden-Württemberg"}},{"name":"Sylvanerweg","postalCode":"74399","locality":"Walheim","municipality":{"key":"08118074","name":"Walheim","type":"Kreisangehörige_Gemeinde"},"district":{"key":"08118","name":"Ludwigsburg","type":"Landkreis"},"federalState":{"key":"08","name":"Baden-Württemberg"}},{"name":"Talstein","postalCode":"36211","locality":"Alheim","municipality":{"key":"06632001","name":"Alheim","type":"Kreisangehörige_Gemeinde"},"district":{"key":"06632","name":"Hersfeld-Rotenburg","type":"Landkreis"},"federalState":{"key":"06","name":"Hessen"}},{"name":"Tannenäckerweg","postalCode":"74388","locality":"Talheim","municipality":{"key":"08125094","name":"Talheim","type":"Kreisangehörige_Gemeinde"},"district":{"key":"08125","name":"Heilbronn","type":"Landkreis"},"federalState":{"key":"08","name":"Baden-Württemberg"}},{"name":"Tannenstr.","postalCode":"09380","locality":"Thalheim/Erzgebirge","municipality":{"key":"14521620","name":"Thalheim/Erzgeb., Stadt","type":"Stadt"},"district":{"key":"14521","name":"Erzgebirgskreis","type":"Landkreis"},"federalState":{"key":"14","name":"Sachsen"}},{"name":"Tannenweg","postalCode":"78607","locality":"Talheim","municipality":{"key":"08327048","name":"Talheim","type":"Kreisangehörige_Gemeinde"},"district":{"key":"08327","name":"Tuttlingen","type":"Landkreis"},"federalState":{"key":"08","name":"Baden-Württemberg"}},{"name":"Tauchstein","postalCode":"74388","locality":"Talheim","municipality":{"key":"08125094","name":"Talheim","type":"Kreisangehörige_Gemeinde"},"district":{"key":"08125","name":"Heilbronn","type":"Landkreis"},"federalState":{"key":"08","name":"Baden-Württemberg"}},{"name":"Thalheimer Flügelweg","postalCode":"09380","locality":"Thalheim/Erzgebirge","municipality":{"key":"14521620","name":"Thalheim/Erzgeb., Stadt","type":"Stadt"},"district":{"key":"14521","name":"Erzgebirgskreis","type":"Landkreis"},"federalState":{"key":"14","name":"Sachsen"}},{"name":"Theodor-Storm-Weg","postalCode":"74388","locality":"Talheim","municipality":{"key":"08125094","name":"Talheim","type":"Kreisangehörige_Gemeinde"},"district":{"key":"08125","name":"Heilbronn","type":"Landkreis"},"federalState":{"key":"08","name":"Baden-Württemberg"}},{"name":"Thing-Platz","postalCode":"36211","locality":"Alheim","municipality":{"key":"06632001","name":"Alheim","type":"Kreisangehörige_Gemeinde"},"district":{"key":"06632","name":"Hersfeld-Rotenburg","type":"Landkreis"},"federalState":{"key":"06","name":"Hessen"}},{"name":"Torstr.","postalCode":"74399","locality":"Walheim","municipality":{"key":"08118074","name":"Walheim","type":"Kreisangehörige_Gemeinde"},"district":{"key":"08118","name":"Ludwigsburg","type":"Landkreis"},"federalState":{"key":"08","name":"Baden-Württemberg"}},{"name":"Traminerweg","postalCode":"74388","locality":"Talheim","municipality":{"key":"08125094","name":"Talheim","type":"Kreisangehörige_Gemeinde"},"district":{"key":"08125","name":"Heilbronn","type":"Landkreis"},"federalState":{"key":"08","name":"Baden-Württemberg"}},{"name":"Traubenstr.","postalCode":"74399","locality":"Walheim","municipality":{"key":"08118074","name":"Walheim","type":"Kreisangehörige_Gemeinde"},"district":{"key":"08118","name":"Ludwigsburg","type":"Landkreis"},"federalState":{"key":"08","name":"Baden-Württemberg"}},{"name":"Trollingerweg","postalCode":"74388","locality":"Talheim","municipality":{"key":"08125094","name":"Talheim","type":"Kreisangehörige_Gemeinde"},"district":{"key":"08125","name":"Heilbronn","type":"Landkreis"},"federalState":{"key":"08","name":"Baden-Württemberg"}},{"name":"Trollingerweg","postalCode":"74399","locality":"Walheim","municipality":{"key":"08118074","name":"Walheim","type":"Kreisangehörige_Gemeinde"},"district":{"key":"08118","name":"Ludwigsburg","type":"Landkreis"},"federalState":{"key":"08","name":"Baden-Württemberg"}},{"name":"Truebenbach Weg","postalCode":"36211","locality":"Alheim","municipality":{"key":"06632001","name":"Alheim","type":"Kreisangehörige_Gemeinde"},"district":{"key":"06632","name":"Hersfeld-Rotenburg","type":"Landkreis"},"federalState":{"key":"06","name":"Hessen"}},{"name":"Tuninger Str.","postalCode":"78607","locality":"Talheim","municipality":{"key":"08327048","name":"Talheim","type":"Kreisangehörige_Gemeinde"},"district":{"key":"08327","name":"Tuttlingen","type":"Landkreis"},"federalState":{"key":"08","name":"Baden-Württemberg"}},{"name":"Türkenlouisschanze","postalCode":"74388","locality":"Talheim","municipality":{"key":"08125094","name":"Talheim","type":"Kreisangehörige_Gemeinde"},"district":{"key":"08125","name":"Heilbronn","type":"Landkreis"},"federalState":{"key":"08","name":"Baden-Württemberg"}},{"name":"Tuttlinger Str.","postalCode":"78607","locality":"Talheim","municipality":{"key":"08327048","name":"Talheim","type":"Kreisangehörige_Gemeinde"},"district":{"key":"08327","name":"Tuttlingen","type":"Landkreis"},"federalState":{"key":"08","name":"Baden-Württemberg"}},{"name":"Uferstr.","postalCode":"09380","locality":"Thalheim/Erzgebirge","municipality":{"key":"14521620","name":"Thalheim/Erzgeb., Stadt","type":"Stadt"},"district":{"key":"14521","name":"Erzgebirgskreis","type":"Landkreis"},"federalState":{"key":"14","name":"Sachsen"}},{"name":"Uhlandstr.","postalCode":"74388","locality":"Talheim","municipality":{"key":"08125094","name":"Talheim","type":"Kreisangehörige_Gemeinde"},"district":{"key":"08125","name":"Heilbronn","type":"Landkreis"},"federalState":{"key":"08","name":"Baden-Württemberg"}},{"name":"Uhlandstr.","postalCode":"74399","locality":"Walheim","municipality":{"key":"08118074","name":"Walheim","type":"Kreisangehörige_Gemeinde"},"district":{"key":"08118","name":"Ludwigsburg","type":"Landkreis"},"federalState":{"key":"08","name":"Baden-Württemberg"}},{"name":"Ulmenweg","postalCode":"36211","locality":"Alheim","municipality":{"key":"06632001","name":"Alheim","type":"Kreisangehörige_Gemeinde"},"district":{"key":"06632","name":"Hersfeld-Rotenburg","type":"Landkreis"},"federalState":{"key":"06","name":"Hessen"}},{"name":"Untere Bahnhofstr.","postalCode":"09380","locality":"Thalheim/Erzgebirge","municipality":{"key":"14521620","name":"Thalheim/Erzgeb., Stadt","type":"Stadt"},"district":{"key":"14521","name":"Erzgebirgskreis","type":"Landkreis"},"federalState":{"key":"14","name":"Sachsen"}},{"name":"Untere Hauptstr.","postalCode":"09380","locality":"Thalheim/Erzgebirge","municipality":{"key":"14521620","name":"Thalheim/Erzgeb., Stadt","type":"Stadt"},"district":{"key":"14521","name":"Erzgebirgskreis","type":"Landkreis"},"federalState":{"key":"14","name":"Sachsen"}},{"name":"Unterer Brühl","postalCode":"78607","locality":"Talheim","municipality":{"key":"08327048","name":"Talheim","type":"Kreisangehörige_Gemeinde"},"district":{"key":"08327","name":"Tuttlingen","type":"Landkreis"},"federalState":{"key":"08","name":"Baden-Württemberg"}},{"name":"Unterer Deponieweg","postalCode":"74399","locality":"Walheim","municipality":{"key":"08118074","name":"Walheim","type":"Kreisangehörige_Gemeinde"},"district":{"key":"08118","name":"Ludwigsburg","type":"Landkreis"},"federalState":{"key":"08","name":"Baden-Württemberg"}},{"name":"Unterer Erlenbach","postalCode":"36211","locality":"Alheim","municipality":{"key":"06632001","name":"Alheim","type":"Kreisangehörige_Gemeinde"},"district":{"key":"06632","name":"Hersfeld-Rotenburg","type":"Landkreis"},"federalState":{"key":"06","name":"Hessen"}},{"name":"Unterer Winkel","postalCode":"78607","locality":"Talheim","municipality":{"key":"08327048","name":"Talheim","type":"Kreisangehörige_Gemeinde"},"district":{"key":"08327","name":"Tuttlingen","type":"Landkreis"},"federalState":{"key":"08","name":"Baden-Württemberg"}},{"name":"Untergruppenbacher Str.","postalCode":"74388","locality":"Talheim","municipality":{"key":"08125094","name":"Talheim","type":"Kreisangehörige_Gemeinde"},"district":{"key":"08125","name":"Heilbronn","type":"Landkreis"},"federalState":{"key":"08","name":"Baden-Württemberg"}},{"name":"Unterm Birkberg","postalCode":"36211","locality":"Alheim","municipality":{"key":"06632001","name":"Alheim","type":"Kreisangehörige_Gemeinde"},"district":{"key":"06632","name":"Hersfeld-Rotenburg","type":"Landkreis"},"federalState":{"key":"06","name":"Hessen"}},{"name":"Unterm Kirchberg","postalCode":"36211","locality":"Alheim","municipality":{"key":"06632001","name":"Alheim","type":"Kreisangehörige_Gemeinde"},"district":{"key":"06632","name":"Hersfeld-Rotenburg","type":"Landkreis"},"federalState":{"key":"06","name":"Hessen"}},{"name":"Unterm Stein","postalCode":"36211","locality":"Alheim","municipality":{"key":"06632001","name":"Alheim","type":"Kreisangehörige_Gemeinde"},"district":{"key":"06632","name":"Hersfeld-Rotenburg","type":"Landkreis"},"federalState":{"key":"06","name":"Hessen"}},{"name":"Unterm Talweg","postalCode":"36211","locality":"Alheim","municipality":{"key":"06632001","name":"Alheim","type":"Kreisangehörige_Gemeinde"},"district":{"key":"06632","name":"Hersfeld-Rotenburg","type":"Landkreis"},"federalState":{"key":"06","name":"Hessen"}},{"name":"Urbanstr.","postalCode":"74399","locality":"Walheim","municipality":{"key":"08118074","name":"Walheim","type":"Kreisangehörige_Gemeinde"},"district":{"key":"08118","name":"Ludwigsburg","type":"Landkreis"},"federalState":{"key":"08","name":"Baden-Württemberg"}},{"name":"Villastr.","postalCode":"74399","locality":"Walheim","municipality":{"key":"08118074","name":"Walheim","type":"Kreisangehörige_Gemeinde"},"district":{"key":"08118","name":"Ludwigsburg","type":"Landkreis"},"federalState":{"key":"08","name":"Baden-Württemberg"}},{"name":"Vor dem Hellersberg","postalCode":"36211","locality":"Alheim","municipality":{"key":"06632001","name":"Alheim","type":"Kreisangehörige_Gemeinde"},"district":{"key":"06632","name":"Hersfeld-Rotenburg","type":"Landkreis"},"federalState":{"key":"06","name":"Hessen"}},{"name":"Wacholderweg","postalCode":"36211","locality":"Alheim","municipality":{"key":"06632001","name":"Alheim","type":"Kreisangehörige_Gemeinde"},"district":{"key":"06632","name":"Hersfeld-Rotenburg","type":"Landkreis"},"federalState":{"key":"06","name":"Hessen"}},{"name":"Waldsteige","postalCode":"74399","locality":"Walheim","municipality":{"key":"08118074","name":"Walheim","type":"Kreisangehörige_Gemeinde"},"district":{"key":"08118","name":"Ludwigsburg","type":"Landkreis"},"federalState":{"key":"08","name":"Baden-Württemberg"}},{"name":"Wallstr.","postalCode":"09380","locality":"Thalheim/Erzgebirge","municipality":{"key":"14521620","name":"Thalheim/Erzgeb., Stadt","type":"Stadt"},"district":{"key":"14521","name":"Erzgebirgskreis","type":"Landkreis"},"federalState":{"key":"14","name":"Sachsen"}},{"name":"Waltari-Bergmann-Str.","postalCode":"36211","locality":"Alheim","municipality":{"key":"06632001","name":"Alheim","type":"Kreisangehörige_Gemeinde"},"district":{"key":"06632","name":"Hersfeld-Rotenburg","type":"Landkreis"},"federalState":{"key":"06","name":"Hessen"}},{"name":"Waltherstr.","postalCode":"09380","locality":"Thalheim/Erzgebirge","municipality":{"key":"14521620","name":"Thalheim/Erzgeb., Stadt","type":"Stadt"},"district":{"key":"14521","name":"Erzgebirgskreis","type":"Landkreis"},"federalState":{"key":"14","name":"Sachsen"}},{"name":"Wassbergweg","postalCode":"74399","locality":"Walheim","municipality":{"key":"08118074","name":"Walheim","type":"Kreisangehörige_Gemeinde"},"district":{"key":"08118","name":"Ludwigsburg","type":"Landkreis"},"federalState":{"key":"08","name":"Baden-Württemberg"}},{"name":"Weidentalstr.","postalCode":"36211","locality":"Alheim","municipality":{"key":"06632001","name":"Alheim","type":"Kreisangehörige_Gemeinde"},"district":{"key":"06632","name":"Hersfeld-Rotenburg","type":"Landkreis"},"federalState":{"key":"06","name":"Hessen"}},{"name":"Weiherweg","postalCode":"78607","locality":"Talheim","municipality":{"key":"08327048","name":"Talheim","type":"Kreisangehörige_Gemeinde"},"district":{"key":"08327","name":"Tuttlingen","type":"Landkreis"},"federalState":{"key":"08","name":"Baden-Württemberg"}},{"name":"Weinbergstr.","postalCode":"74388","locality":"Talheim","municipality":{"key":"08125094","name":"Talheim","type":"Kreisangehörige_Gemeinde"},"district":{"key":"08125","name":"Heilbronn","type":"Landkreis"},"federalState":{"key":"08","name":"Baden-Württemberg"}},{"name":"Weinolsheimer Str.","postalCode":"55278","locality":"Dalheim","municipality":{"key":"07339010","name":"Dalheim","type":"Kreisangehörige_Gemeinde"},"district":{"key":"07339","name":"Mainz-Bingen","type":"Landkreis"},"federalState":{"key":"07","name":"Rheinland-Pfalz"}},{"name":"Weinolsheimer Weg","postalCode":"55278","locality":"Dalheim","municipality":{"key":"07339010","name":"Dalheim","type":"Kreisangehörige_Gemeinde"},"district":{"key":"07339","name":"Mainz-Bingen","type":"Landkreis"},"federalState":{"key":"07","name":"Rheinland-Pfalz"}},{"name":"Weinstr.","postalCode":"74399","locality":"Walheim","municipality":{"key":"08118074","name":"Walheim","type":"Kreisangehörige_Gemeinde"},"district":{"key":"08118","name":"Ludwigsburg","type":"Landkreis"},"federalState":{"key":"08","name":"Baden-Württemberg"}},{"name":"Weststr.","postalCode":"09380","locality":"Thalheim/Erzgebirge","municipality":{"key":"14521620","name":"Thalheim/Erzgeb., Stadt","type":"Stadt"},"district":{"key":"14521","name":"Erzgebirgskreis","type":"Landkreis"},"federalState":{"key":"14","name":"Sachsen"}},{"name":"Wiesenrain","postalCode":"36211","locality":"Alheim","municipality":{"key":"06632001","name":"Alheim","type":"Kreisangehörige_Gemeinde"},"district":{"key":"06632","name":"Hersfeld-Rotenburg","type":"Landkreis"},"federalState":{"key":"06","name":"Hessen"}},{"name":"Wiesenstr.","postalCode":"09380","locality":"Thalheim/Erzgebirge","municipality":{"key":"14521620","name":"Thalheim/Erzgeb., Stadt","type":"Stadt"},"district":{"key":"14521","name":"Erzgebirgskreis","type":"Landkreis"},"federalState":{"key":"14","name":"Sachsen"}},{"name":"Wildbahn X3, ARS NATURA","postalCode":"36211","locality":"Alheim","municipality":{"key":"06632001","name":"Alheim","type":"Kreisangehörige_Gemeinde"},"district":{"key":"06632","name":"Hersfeld-Rotenburg","type":"Landkreis"},"federalState":{"key":"06","name":"Hessen"}},{"name":"Wilhelm-von-Humboldt-Str.","postalCode":"74388","locality":"Talheim","municipality":{"key":"08125094","name":"Talheim","type":"Kreisangehörige_Gemeinde"},"district":{"key":"08125","name":"Heilbronn","type":"Landkreis"},"federalState":{"key":"08","name":"Baden-Württemberg"}},{"name":"Winzerweg","postalCode":"74388","locality":"Talheim","municipality":{"key":"08125094","name":"Talheim","type":"Kreisangehörige_Gemeinde"},"district":{"key":"08125","name":"Heilbronn","type":"Landkreis"},"federalState":{"key":"08","name":"Baden-Württemberg"}},{"name":"Wolfsgärten","postalCode":"36211","locality":"Alheim","municipality":{"key":"06632001","name":"Alheim","type":"Kreisangehörige_Gemeinde"},"district":{"key":"06632","name":"Hersfeld-Rotenburg","type":"Landkreis"},"federalState":{"key":"06","name":"Hessen"}},{"name":"Wollenberg","postalCode":"74388","locality":"Talheim","municipality":{"key":"08125094","name":"Talheim","type":"Kreisangehörige_Gemeinde"},"district":{"key":"08125","name":"Heilbronn","type":"Landkreis"},"federalState":{"key":"08","name":"Baden-Württemberg"}},{"name":"Wörthstr.","postalCode":"74399","locality":"Walheim","municipality":{"key":"08118074","name":"Walheim","type":"Kreisangehörige_Gemeinde"},"district":{"key":"08118","name":"Ludwigsburg","type":"Landkreis"},"federalState":{"key":"08","name":"Baden-Württemberg"}},{"name":"Wurstsalatbrücke","postalCode":"78607","locality":"Talheim","municipality":{"key":"08327048","name":"Talheim","type":"Kreisangehörige_Gemeinde"},"district":{"key":"08327","name":"Tuttlingen","type":"Landkreis"},"federalState":{"key":"08","name":"Baden-Württemberg"}},{"name":"Zimmerwaldweg","postalCode":"78607","locality":"Talheim","municipality":{"key":"08327048","name":"Talheim","type":"Kreisangehörige_Gemeinde"},"district":{"key":"08327","name":"Tuttlingen","type":"Landkreis"},"federalState":{"key":"08","name":"Baden-Württemberg"}},{"name":"Zum Alheimer","postalCode":"36211","locality":"Alheim","municipality":{"key":"06632001","name":"Alheim","type":"Kreisangehörige_Gemeinde"},"district":{"key":"06632","name":"Hersfeld-Rotenburg","type":"Landkreis"},"federalState":{"key":"06","name":"Hessen"}},{"name":"Zum Bahnhof","postalCode":"36211","locality":"Alheim","municipality":{"key":"06632001","name":"Alheim","type":"Kreisangehörige_Gemeinde"},"district":{"key":"06632","name":"Hersfeld-Rotenburg","type":"Landkreis"},"federalState":{"key":"06","name":"Hessen"}},{"name":"Zum Berg","postalCode":"36211","locality":"Alheim","municipality":{"key":"06632001","name":"Alheim","type":"Kreisangehörige_Gemeinde"},"district":{"key":"06632","name":"Hersfeld-Rotenburg","type":"Landkreis"},"federalState":{"key":"06","name":"Hessen"}},{"name":"Zum Bilstein","postalCode":"36211","locality":"Alheim","municipality":{"key":"06632001","name":"Alheim","type":"Kreisangehörige_Gemeinde"},"district":{"key":"06632","name":"Hersfeld-Rotenburg","type":"Landkreis"},"federalState":{"key":"06","name":"Hessen"}},{"name":"Zum Espe","postalCode":"36211","locality":"Alheim","municipality":{"key":"06632001","name":"Alheim","type":"Kreisangehörige_Gemeinde"},"district":{"key":"06632","name":"Hersfeld-Rotenburg","type":"Landkreis"},"federalState":{"key":"06","name":"Hessen"}},{"name":"Zum Forsthaus","postalCode":"36211","locality":"Alheim","municipality":{"key":"06632001","name":"Alheim","type":"Kreisangehörige_Gemeinde"},"district":{"key":"06632","name":"Hersfeld-Rotenburg","type":"Landkreis"},"federalState":{"key":"06","name":"Hessen"}},{"name":"Zum Ostertal","postalCode":"55278","locality":"Dalheim","municipality":{"key":"07339010","name":"Dalheim","type":"Kreisangehörige_Gemeinde"},"district":{"key":"07339","name":"Mainz-Bingen","type":"Landkreis"},"federalState":{"key":"07","name":"Rheinland-Pfalz"}},{"name":"Zum Ried","postalCode":"36211","locality":"Alheim","municipality":{"key":"06632001","name":"Alheim","type":"Kreisangehörige_Gemeinde"},"district":{"key":"06632","name":"Hersfeld-Rotenburg","type":"Landkreis"},"federalState":{"key":"06","name":"Hessen"}},{"name":"Zum Rosenberg","postalCode":"36211","locality":"Alheim","municipality":{"key":"06632001","name":"Alheim","type":"Kreisangehörige_Gemeinde"},"district":{"key":"06632","name":"Hersfeld-Rotenburg","type":"Landkreis"},"federalState":{"key":"06","name":"Hessen"}},{"name":"Zum Roten Stück","postalCode":"36211","locality":"Alheim","municipality":{"key":"06632001","name":"Alheim","type":"Kreisangehörige_Gemeinde"},"district":{"key":"06632","name":"Hersfeld-Rotenburg","type":"Landkreis"},"federalState":{"key":"06","name":"Hessen"}},{"name":"Zum Schützenhaus","postalCode":"36211","locality":"Alheim","municipality":{"key":"06632001","name":"Alheim","type":"Kreisangehörige_Gemeinde"},"district":{"key":"06632","name":"Hersfeld-Rotenburg","type":"Landkreis"},"federalState":{"key":"06","name":"Hessen"}},{"name":"Zum Sool","postalCode":"36211","locality":"Alheim","municipality":{"key":"06632001","name":"Alheim","type":"Kreisangehörige_Gemeinde"},"district":{"key":"06632","name":"Hersfeld-Rotenburg","type":"Landkreis"},"federalState":{"key":"06","name":"Hessen"}},{"name":"Zum Sportplatz","postalCode":"36211","locality":"Alheim","municipality":{"key":"06632001","name":"Alheim","type":"Kreisangehörige_Gemeinde"},"district":{"key":"06632","name":"Hersfeld-Rotenburg","type":"Landkreis"},"federalState":{"key":"06","name":"Hessen"}},{"name":"Zum Steinland","postalCode":"36211","locality":"Alheim","municipality":{"key":"06632001","name":"Alheim","type":"Kreisangehörige_Gemeinde"},"district":{"key":"06632","name":"Hersfeld-Rotenburg","type":"Landkreis"},"federalState":{"key":"06","name":"Hessen"}},{"name":"Zum Strebelsberg","postalCode":"36211","locality":"Alheim","municipality":{"key":"06632001","name":"Alheim","type":"Kreisangehörige_Gemeinde"},"district":{"key":"06632","name":"Hersfeld-Rotenburg","type":"Landkreis"},"federalState":{"key":"06","name":"Hessen"}},{"name":"Zum Weiher","postalCode":"36211","locality":"Alheim","municipality":{"key":"06632001","name":"Alheim","type":"Kreisangehörige_Gemeinde"},"district":{"key":"06632","name":"Hersfeld-Rotenburg","type":"Landkreis"},"federalState":{"key":"06","name":"Hessen"}},{"name":"Zur Kirche","postalCode":"36211","locality":"Alheim","municipality":{"key":"06632001","name":"Alheim","type":"Kreisangehörige_Gemeinde"},"district":{"key":"06632","name":"Hersfeld-Rotenburg","type":"Landkreis"},"federalState":{"key":"06","name":"Hessen"}},{"name":"Zur Kütte","postalCode":"36211","locality":"Alheim","municipality":{"key":"06632001","name":"Alheim","type":"Kreisangehörige_Gemeinde"},"district":{"key":"06632","name":"Hersfeld-Rotenburg","type":"Landkreis"},"federalState":{"key":"06","name":"Hessen"}},{"name":"Zur Osterbach Mühle","postalCode":"36211","locality":"Alheim","municipality":{"key":"06632001","name":"Alheim","type":"Kreisangehörige_Gemeinde"},"district":{"key":"06632","name":"Hersfeld-Rotenburg","type":"Landkreis"},"federalState":{"key":"06","name":"Hessen"}},{"name":"Zur Warthe","postalCode":"36211","locality":"Alheim","municipality":{"key":"06632001","name":"Alheim","type":"Kreisangehörige_Gemeinde"},"district":{"key":"06632","name":"Hersfeld-Rotenburg","type":"Landkreis"},"federalState":{"key":"06","name":"Hessen"}},{"name":"Zwönitztalstr.","postalCode":"09380","locality":"Thalheim/Erzgebirge","municipality":{"key":"14521620","name":"Thalheim/Erzgeb., Stadt","type":"Stadt"},"district":{"key":"14521","name":"Erzgebirgskreis","type":"Landkreis"},"federalState":{"key":"14","name":"Sachsen"}},{"name":"Äußere Bergstr.","postalCode":"09380","locality":"Thalheim/Erzgebirge","municipality":{"key":"14521620","name":"Thalheim/Erzgeb., Stadt","type":"Stadt"},"district":{"key":"14521","name":"Erzgebirgskreis","type":"Landkreis"},"federalState":{"key":"14","name":"Sachsen"}},{"name":"Äußere Heinrichstr.","postalCode":"09380","locality":"Thalheim/Erzgebirge","municipality":{"key":"14521620","name":"Thalheim/Erzgeb., Stadt","type":"Stadt"},"district":{"key":"14521","name":"Erzgebirgskreis","type":"Landkreis"},"federalState":{"key":"14","name":"Sachsen"}},{"name":"Äußere Lessingstr.","postalCode":"09380","locality":"Thalheim/Erzgebirge","municipality":{"key":"14521620","name":"Thalheim/Erzgeb., Stadt","type":"Stadt"},"district":{"key":"14521","name":"Erzgebirgskreis","type":"Landkreis"},"federalState":{"key":"14","name":"Sachsen"}},{"name":"Öfinger Str.","postalCode":"78607","locality":"Talheim","municipality":{"key":"08327048","name":"Talheim","type":"Kreisangehörige_Gemeinde"},"district":{"key":"08327","name":"Tuttlingen","type":"Landkreis"},"federalState":{"key":"08","name":"Baden-Württemberg"}},{"name":"Überm Talweg","postalCode":"36211","locality":"Alheim","municipality":{"key":"06632001","name":"Alheim","type":"Kreisangehörige_Gemeinde"},"district":{"key":"06632","name":"Hersfeld-Rotenburg","type":"Landkreis"},"federalState":{"key":"06","name":"Hessen"}},]