[{"key":"10162746","name":"Allmendstrasse","postalCode":"6243","locality":"Egolzwil","commune":{"key":"1127","name":"Egolzwil","shortName":"Egolzwil"},"district":{"key":"315","name":"Wahlkreis Willisau"},"canton":{"key":"3","code":"LU","name":"Luzern"},"status":"Real"},{"key":"10063446","name":"Alpenblick","postalCode":"6243","locality":"Egolzwil","commune":{"key":"1127","name":"Egolzwil","shortName":"Egolzwil"},"district":{"key":"315","name":"Wahlkreis Willisau"},"canton":{"key":"3","code":"LU","name":"Luzern"},"status":"Real"},{"key":"10129432","name":"Am See","postalCode":"6243","locality":"Egolzwil","commune":{"key":"1127","name":"Egolzwil","shortName":"Egolzwil"},"district":{"key":"315","name":"Wahlkreis Willisau"},"canton":{"key":"3","code":"LU","name":"Luzern"},"status":"Real"},{"key":"10209243","name":"Baschimattstrasse","postalCode":"6243","locality":"Egolzwil","commune":{"key":"1127","name":"Egolzwil","shortName":"Egolzwil"},"district":{"key":"315","name":"Wahlkreis Willisau"},"canton":{"key":"3","code":"LU","name":"Luzern"},"status":"Real"},{"key":"10017725","name":"Baumacher","postalCode":"6243","locality":"Egolzwil","commune":{"key":"1127","name":"Egolzwil","shortName":"Egolzwil"},"district":{"key":"315","name":"Wahlkreis Willisau"},"canton":{"key":"3","code":"LU","name":"Luzern"},"status":"Real"},{"key":"10129429","name":"Baumgarten","postalCode":"6243","locality":"Egolzwil","commune":{"key":"1127","name":"Egolzwil","shortName":"Egolzwil"},"district":{"key":"315","name":"Wahlkreis Willisau"},"canton":{"key":"3","code":"LU","name":"Luzern"},"status":"Real"},{"key":"10051783","name":"Bodenacher","postalCode":"6243","locality":"Egolzwil","commune":{"key":"1127","name":"Egolzwil","shortName":"Egolzwil"},"district":{"key":"315","name":"Wahlkreis Willisau"},"canton":{"key":"3","code":"LU","name":"Luzern"},"status":"Real"},{"key":"10159850","name":"Büelenhof","postalCode":"6243","locality":"Egolzwil","commune":{"key":"1127","name":"Egolzwil","shortName":"Egolzwil"},"district":{"key":"315","name":"Wahlkreis Willisau"},"canton":{"key":"3","code":"LU","name":"Luzern"},"status":"Real"},{"key":"10083498","name":"Chrüzacher","postalCode":"6243","locality":"Egolzwil","commune":{"key":"1127","name":"Egolzwil","shortName":"Egolzwil"},"district":{"key":"315","name":"Wahlkreis Willisau"},"canton":{"key":"3","code":"LU","name":"Luzern"},"status":"Real"},{"key":"10187326","name":"Dorf","postalCode":"6243","locality":"Egolzwil","commune":{"key":"1127","name":"Egolzwil","shortName":"Egolzwil"},"district":{"key":"315","name":"Wahlkreis Willisau"},"canton":{"key":"3","code":"LU","name":"Luzern"},"status":"Real"},{"key":"10114874","name":"Dorfchärn","postalCode":"6243","locality":"Egolzwil","commune":{"key":"1127","name":"Egolzwil","shortName":"Egolzwil"},"district":{"key":"315","name":"Wahlkreis Willisau"},"canton":{"key":"3","code":"LU","name":"Luzern"},"status":"Real"},{"key":"10017726","name":"Dorfmatt","postalCode":"6243","locality":"Egolzwil","commune":{"key":"1127","name":"Egolzwil","shortName":"Egolzwil"},"district":{"key":"315","name":"Wahlkreis Willisau"},"canton":{"key":"3","code":"LU","name":"Luzern"},"status":"Real"},{"key":"10158528","name":"Egolzwilerberg","postalCode":"6243","locality":"Egolzwil","commune":{"key":"1127","name":"Egolzwil","shortName":"Egolzwil"},"district":{"key":"315","name":"Wahlkreis Willisau"},"canton":{"key":"3","code":"LU","name":"Luzern"},"status":"Real"},{"key":"10017727","name":"Engelberg","postalCode":"6243","locality":"Egolzwil","commune":{"key":"1127","name":"Egolzwil","shortName":"Egolzwil"},"district":{"key":"315","name":"Wahlkreis Willisau"},"canton":{"key":"3","code":"LU","name":"Luzern"},"status":"Real"},{"key":"10063447","name":"Engelbergstrasse","postalCode":"6243","locality":"Egolzwil","commune":{"key":"1127","name":"Egolzwil","shortName":"Egolzwil"},"district":{"key":"315","name":"Wahlkreis Willisau"},"canton":{"key":"3","code":"LU","name":"Luzern"},"status":"Real"},{"key":"10017728","name":"Feld","postalCode":"6243","locality":"Egolzwil","commune":{"key":"1127","name":"Egolzwil","shortName":"Egolzwil"},"district":{"key":"315","name":"Wahlkreis Willisau"},"canton":{"key":"3","code":"LU","name":"Luzern"},"status":"Real"},{"key":"10122530","name":"Feldhof","postalCode":"6243","locality":"Egolzwil","commune":{"key":"1127","name":"Egolzwil","shortName":"Egolzwil"},"district":{"key":"315","name":"Wahlkreis Willisau"},"canton":{"key":"3","code":"LU","name":"Luzern"},"status":"Real"},{"key":"10017729","name":"Gehren","postalCode":"6243","locality":"Egolzwil","commune":{"key":"1127","name":"Egolzwil","shortName":"Egolzwil"},"district":{"key":"315","name":"Wahlkreis Willisau"},"canton":{"key":"3","code":"LU","name":"Luzern"},"status":"Real"},{"key":"10051784","name":"Gehrenmatt","postalCode":"6243","locality":"Egolzwil","commune":{"key":"1127","name":"Egolzwil","shortName":"Egolzwil"},"district":{"key":"315","name":"Wahlkreis Willisau"},"canton":{"key":"3","code":"LU","name":"Luzern"},"status":"Real"},{"key":"10116555","name":"Gehrenweg","postalCode":"6243","locality":"Egolzwil","commune":{"key":"1127","name":"Egolzwil","shortName":"Egolzwil"},"district":{"key":"315","name":"Wahlkreis Willisau"},"canton":{"key":"3","code":"LU","name":"Luzern"},"status":"Real"},{"key":"10083499","name":"Geissacher","postalCode":"6243","locality":"Egolzwil","commune":{"key":"1127","name":"Egolzwil","shortName":"Egolzwil"},"district":{"key":"315","name":"Wahlkreis Willisau"},"canton":{"key":"3","code":"LU","name":"Luzern"},"status":"Real"},{"key":"10103709","name":"Gewerbestrasse","postalCode":"6243","locality":"Egolzwil","commune":{"key":"1127","name":"Egolzwil","shortName":"Egolzwil"},"district":{"key":"315","name":"Wahlkreis Willisau"},"canton":{"key":"3","code":"LU","name":"Luzern"},"status":"Real"},{"key":"10252630","name":"Goldbrunnewald","postalCode":"6243","locality":"Egolzwil","commune":{"key":"1127","name":"Egolzwil","shortName":"Egolzwil"},"district":{"key":"315","name":"Wahlkreis Willisau"},"canton":{"key":"3","code":"LU","name":"Luzern"},"status":"Real"},{"key":"10017730","name":"Grossmatt","postalCode":"6243","locality":"Egolzwil","commune":{"key":"1127","name":"Egolzwil","shortName":"Egolzwil"},"district":{"key":"315","name":"Wahlkreis Willisau"},"canton":{"key":"3","code":"LU","name":"Luzern"},"status":"Real"},{"key":"10064514","name":"Haldenweg","postalCode":"6243","locality":"Egolzwil","commune":{"key":"1127","name":"Egolzwil","shortName":"Egolzwil"},"district":{"key":"315","name":"Wahlkreis Willisau"},"canton":{"key":"3","code":"LU","name":"Luzern"},"status":"Real"},{"key":"10131208","name":"Hinterberg","postalCode":"6243","locality":"Egolzwil","commune":{"key":"1127","name":"Egolzwil","shortName":"Egolzwil"},"district":{"key":"315","name":"Wahlkreis Willisau"},"canton":{"key":"3","code":"LU","name":"Luzern"},"status":"Real"},{"key":"10165050","name":"Hofacher","postalCode":"6243","locality":"Egolzwil","commune":{"key":"1127","name":"Egolzwil","shortName":"Egolzwil"},"district":{"key":"315","name":"Wahlkreis Willisau"},"canton":{"key":"3","code":"LU","name":"Luzern"},"status":"Real"},{"key":"10115887","name":"Hübeli","postalCode":"6243","locality":"Egolzwil","commune":{"key":"1127","name":"Egolzwil","shortName":"Egolzwil"},"district":{"key":"315","name":"Wahlkreis Willisau"},"canton":{"key":"3","code":"LU","name":"Luzern"},"status":"Real"},{"key":"10252631","name":"Kätzigerhöhe","postalCode":"6243","locality":"Egolzwil","commune":{"key":"1127","name":"Egolzwil","shortName":"Egolzwil"},"district":{"key":"315","name":"Wahlkreis Willisau"},"canton":{"key":"3","code":"LU","name":"Luzern"},"status":"Real"},{"key":"10017731","name":"Kirchmatt","postalCode":"6243","locality":"Egolzwil","commune":{"key":"1127","name":"Egolzwil","shortName":"Egolzwil"},"district":{"key":"315","name":"Wahlkreis Willisau"},"canton":{"key":"3","code":"LU","name":"Luzern"},"status":"Real"},{"key":"10064515","name":"Kirchrain","postalCode":"6243","locality":"Egolzwil","commune":{"key":"1127","name":"Egolzwil","shortName":"Egolzwil"},"district":{"key":"315","name":"Wahlkreis Willisau"},"canton":{"key":"3","code":"LU","name":"Luzern"},"status":"Real"},{"key":"10017732","name":"Köcheli","postalCode":"6243","locality":"Egolzwil","commune":{"key":"1127","name":"Egolzwil","shortName":"Egolzwil"},"district":{"key":"315","name":"Wahlkreis Willisau"},"canton":{"key":"3","code":"LU","name":"Luzern"},"status":"Real"},{"key":"10083500","name":"Längacher","postalCode":"6243","locality":"Egolzwil","commune":{"key":"1127","name":"Egolzwil","shortName":"Egolzwil"},"district":{"key":"315","name":"Wahlkreis Willisau"},"canton":{"key":"3","code":"LU","name":"Luzern"},"status":"Real"},{"key":"10017733","name":"Moos","postalCode":"6243","locality":"Egolzwil","commune":{"key":"1127","name":"Egolzwil","shortName":"Egolzwil"},"district":{"key":"315","name":"Wahlkreis Willisau"},"canton":{"key":"3","code":"LU","name":"Luzern"},"status":"Real"},{"key":"10064516","name":"Moosmatt","postalCode":"6243","locality":"Egolzwil","commune":{"key":"1127","name":"Egolzwil","shortName":"Egolzwil"},"district":{"key":"315","name":"Wahlkreis Willisau"},"canton":{"key":"3","code":"LU","name":"Luzern"},"status":"Real"},{"key":"10204450","name":"Nebikerstrasse","postalCode":"6243","locality":"Egolzwil","commune":{"key":"1127","name":"Egolzwil","shortName":"Egolzwil"},"district":{"key":"315","name":"Wahlkreis Willisau"},"canton":{"key":"3","code":"LU","name":"Luzern"},"status":"Real"},{"key":"10017734","name":"Oberdorf","postalCode":"6243","locality":"Egolzwil","commune":{"key":"1127","name":"Egolzwil","shortName":"Egolzwil"},"district":{"key":"315","name":"Wahlkreis Willisau"},"canton":{"key":"3","code":"LU","name":"Luzern"},"status":"Real"},{"key":"10083501","name":"Oberer Käppeliweg","postalCode":"6243","locality":"Egolzwil","commune":{"key":"1127","name":"Egolzwil","shortName":"Egolzwil"},"district":{"key":"315","name":"Wahlkreis Willisau"},"canton":{"key":"3","code":"LU","name":"Luzern"},"status":"Real"},{"key":"10064517","name":"Panoramastrasse","postalCode":"6243","locality":"Egolzwil","commune":{"key":"1127","name":"Egolzwil","shortName":"Egolzwil"},"district":{"key":"315","name":"Wahlkreis Willisau"},"canton":{"key":"3","code":"LU","name":"Luzern"},"status":"Real"},{"key":"10204453","name":"Pfarrkirche","postalCode":"6243","locality":"Egolzwil","commune":{"key":"1127","name":"Egolzwil","shortName":"Egolzwil"},"district":{"key":"315","name":"Wahlkreis Willisau"},"canton":{"key":"3","code":"LU","name":"Luzern"},"status":"Real"},{"key":"10107733","name":"Rainacher","postalCode":"6243","locality":"Egolzwil","commune":{"key":"1127","name":"Egolzwil","shortName":"Egolzwil"},"district":{"key":"315","name":"Wahlkreis Willisau"},"canton":{"key":"3","code":"LU","name":"Luzern"},"status":"Real"},{"key":"10018848","name":"Schlössliweg","postalCode":"6243","locality":"Egolzwil","commune":{"key":"1127","name":"Egolzwil","shortName":"Egolzwil"},"district":{"key":"315","name":"Wahlkreis Willisau"},"canton":{"key":"3","code":"LU","name":"Luzern"},"status":"Real"},{"key":"10207099","name":"Schötzerstrasse","postalCode":"6243","locality":"Egolzwil","commune":{"key":"1127","name":"Egolzwil","shortName":"Egolzwil"},"district":{"key":"315","name":"Wahlkreis Willisau"},"canton":{"key":"3","code":"LU","name":"Luzern"},"status":"Real"},{"key":"10252632","name":"Schürmatt","postalCode":"6243","locality":"Egolzwil","commune":{"key":"1127","name":"Egolzwil","shortName":"Egolzwil"},"district":{"key":"315","name":"Wahlkreis Willisau"},"canton":{"key":"3","code":"LU","name":"Luzern"},"status":"Real"},{"key":"10187327","name":"Seehalde","postalCode":"6243","locality":"Egolzwil","commune":{"key":"1127","name":"Egolzwil","shortName":"Egolzwil"},"district":{"key":"315","name":"Wahlkreis Willisau"},"canton":{"key":"3","code":"LU","name":"Luzern"},"status":"Real"},{"key":"10018849","name":"Seehof","postalCode":"6243","locality":"Egolzwil","commune":{"key":"1127","name":"Egolzwil","shortName":"Egolzwil"},"district":{"key":"315","name":"Wahlkreis Willisau"},"canton":{"key":"3","code":"LU","name":"Luzern"},"status":"Real"},{"key":"10103710","name":"Steinacher","postalCode":"6243","locality":"Egolzwil","commune":{"key":"1127","name":"Egolzwil","shortName":"Egolzwil"},"district":{"key":"315","name":"Wahlkreis Willisau"},"canton":{"key":"3","code":"LU","name":"Luzern"},"status":"Real"},{"key":"10083502","name":"Stigacher","postalCode":"6243","locality":"Egolzwil","commune":{"key":"1127","name":"Egolzwil","shortName":"Egolzwil"},"district":{"key":"315","name":"Wahlkreis Willisau"},"canton":{"key":"3","code":"LU","name":"Luzern"},"status":"Real"},{"key":"10064518","name":"Unterdorf","postalCode":"6243","locality":"Egolzwil","commune":{"key":"1127","name":"Egolzwil","shortName":"Egolzwil"},"district":{"key":"315","name":"Wahlkreis Willisau"},"canton":{"key":"3","code":"LU","name":"Luzern"},"status":"Real"},{"key":"10018850","name":"Unterer Käppeliweg","postalCode":"6243","locality":"Egolzwil","commune":{"key":"1127","name":"Egolzwil","shortName":"Egolzwil"},"district":{"key":"315","name":"Wahlkreis Willisau"},"canton":{"key":"3","code":"LU","name":"Luzern"},"status":"Real"},{"key":"10021520","name":"Unterfeld","postalCode":"6243","locality":"Egolzwil","commune":{"key":"1127","name":"Egolzwil","shortName":"Egolzwil"},"district":{"key":"315","name":"Wahlkreis Willisau"},"canton":{"key":"3","code":"LU","name":"Luzern"},"status":"Real"},{"key":"10083503","name":"Wauwilermoos","postalCode":"6243","locality":"Egolzwil","commune":{"key":"1127","name":"Egolzwil","shortName":"Egolzwil"},"district":{"key":"315","name":"Wahlkreis Willisau"},"canton":{"key":"3","code":"LU","name":"Luzern"},"status":"Real"},{"key":"10204451","name":"Wauwilerstrasse","postalCode":"6243","locality":"Egolzwil","commune":{"key":"1127","name":"Egolzwil","shortName":"Egolzwil"},"district":{"key":"315","name":"Wahlkreis Willisau"},"canton":{"key":"3","code":"LU","name":"Luzern"},"status":"Real"},{"key":"10208155","name":"Weid","postalCode":"6243","locality":"Egolzwil","commune":{"key":"1127","name":"Egolzwil","shortName":"Egolzwil"},"district":{"key":"315","name":"Wahlkreis Willisau"},"canton":{"key":"3","code":"LU","name":"Luzern"},"status":"Real"},]