[{"name":"Ackerbrunnenweg","postalCode":"86637","locality":"Villenbach","municipality":{"key":"09773179","name":"Villenbach","type":"Kreisangehörige_Gemeinde"},"district":{"key":"09773","name":"Dillingen a.d.Donau","type":"Landkreis"},"federalState":{"key":"09","name":"Bayern"}},{"name":"Ahornweg","postalCode":"86637","locality":"Villenbach","municipality":{"key":"09773179","name":"Villenbach","type":"Kreisangehörige_Gemeinde"},"district":{"key":"09773","name":"Dillingen a.d.Donau","type":"Landkreis"},"federalState":{"key":"09","name":"Bayern"}},{"name":"Am Bayerfeld","postalCode":"86637","locality":"Villenbach","municipality":{"key":"09773179","name":"Villenbach","type":"Kreisangehörige_Gemeinde"},"district":{"key":"09773","name":"Dillingen a.d.Donau","type":"Landkreis"},"federalState":{"key":"09","name":"Bayern"}},{"name":"Am Kornfeld","postalCode":"86637","locality":"Villenbach","municipality":{"key":"09773179","name":"Villenbach","type":"Kreisangehörige_Gemeinde"},"district":{"key":"09773","name":"Dillingen a.d.Donau","type":"Landkreis"},"federalState":{"key":"09","name":"Bayern"}},{"name":"Am Kreuzacker","postalCode":"86637","locality":"Villenbach","municipality":{"key":"09773179","name":"Villenbach","type":"Kreisangehörige_Gemeinde"},"district":{"key":"09773","name":"Dillingen a.d.Donau","type":"Landkreis"},"federalState":{"key":"09","name":"Bayern"}},{"name":"Am Sportplatz","postalCode":"86637","locality":"Villenbach","municipality":{"key":"09773179","name":"Villenbach","type":"Kreisangehörige_Gemeinde"},"district":{"key":"09773","name":"Dillingen a.d.Donau","type":"Landkreis"},"federalState":{"key":"09","name":"Bayern"}},{"name":"Am Weiherleberg","postalCode":"86637","locality":"Villenbach","municipality":{"key":"09773179","name":"Villenbach","type":"Kreisangehörige_Gemeinde"},"district":{"key":"09773","name":"Dillingen a.d.Donau","type":"Landkreis"},"federalState":{"key":"09","name":"Bayern"}},{"name":"Am Ziegelstadel","postalCode":"86637","locality":"Villenbach","municipality":{"key":"09773179","name":"Villenbach","type":"Kreisangehörige_Gemeinde"},"district":{"key":"09773","name":"Dillingen a.d.Donau","type":"Landkreis"},"federalState":{"key":"09","name":"Bayern"}},{"name":"An der Hühle","postalCode":"86637","locality":"Villenbach","municipality":{"key":"09773179","name":"Villenbach","type":"Kreisangehörige_Gemeinde"},"district":{"key":"09773","name":"Dillingen a.d.Donau","type":"Landkreis"},"federalState":{"key":"09","name":"Bayern"}},{"name":"Angerstr.","postalCode":"86637","locality":"Villenbach","municipality":{"key":"09773179","name":"Villenbach","type":"Kreisangehörige_Gemeinde"},"district":{"key":"09773","name":"Dillingen a.d.Donau","type":"Landkreis"},"federalState":{"key":"09","name":"Bayern"}},{"name":"Bäckergasse","postalCode":"86637","locality":"Villenbach","municipality":{"key":"09773179","name":"Villenbach","type":"Kreisangehörige_Gemeinde"},"district":{"key":"09773","name":"Dillingen a.d.Donau","type":"Landkreis"},"federalState":{"key":"09","name":"Bayern"}},{"name":"Canisiusstr.","postalCode":"89407","locality":"Dillingen a.d.Donau","municipality":{"key":"09773125","name":"Dillingen a.d.Donau, GKSt","type":"Große_Kreisstadt"},"district":{"key":"09773","name":"Dillingen a.d.Donau","type":"Landkreis"},"federalState":{"key":"09","name":"Bayern"}},{"name":"Carl-Benz-Str.","postalCode":"89407","locality":"Dillingen a.d.Donau","municipality":{"key":"09773125","name":"Dillingen a.d.Donau, GKSt","type":"Große_Kreisstadt"},"district":{"key":"09773","name":"Dillingen a.d.Donau","type":"Landkreis"},"federalState":{"key":"09","name":"Bayern"}},{"name":"Christastr.","postalCode":"89407","locality":"Dillingen a.d.Donau","municipality":{"key":"09773125","name":"Dillingen a.d.Donau, GKSt","type":"Große_Kreisstadt"},"district":{"key":"09773","name":"Dillingen a.d.Donau","type":"Landkreis"},"federalState":{"key":"09","name":"Bayern"}},{"name":"Christgartenstr.","postalCode":"89407","locality":"Dillingen a.d.Donau","municipality":{"key":"09773125","name":"Dillingen a.d.Donau, GKSt","type":"Große_Kreisstadt"},"district":{"key":"09773","name":"Dillingen a.d.Donau","type":"Landkreis"},"federalState":{"key":"09","name":"Bayern"}},{"name":"Christoph-von-Schmid-Str.","postalCode":"89407","locality":"Dillingen a.d.Donau","municipality":{"key":"09773125","name":"Dillingen a.d.Donau, GKSt","type":"Große_Kreisstadt"},"district":{"key":"09773","name":"Dillingen a.d.Donau","type":"Landkreis"},"federalState":{"key":"09","name":"Bayern"}},{"name":"Demhart","postalCode":"86637","locality":"Villenbach","municipality":{"key":"09773179","name":"Villenbach","type":"Kreisangehörige_Gemeinde"},"district":{"key":"09773","name":"Dillingen a.d.Donau","type":"Landkreis"},"federalState":{"key":"09","name":"Bayern"}},{"name":"Demharter Str.","postalCode":"86637","locality":"Villenbach","municipality":{"key":"09773179","name":"Villenbach","type":"Kreisangehörige_Gemeinde"},"district":{"key":"09773","name":"Dillingen a.d.Donau","type":"Landkreis"},"federalState":{"key":"09","name":"Bayern"}},{"name":"Dorfstr.","postalCode":"86637","locality":"Villenbach","municipality":{"key":"09773179","name":"Villenbach","type":"Kreisangehörige_Gemeinde"},"district":{"key":"09773","name":"Dillingen a.d.Donau","type":"Landkreis"},"federalState":{"key":"09","name":"Bayern"}},{"name":"Eichenweg","postalCode":"86637","locality":"Villenbach","municipality":{"key":"09773179","name":"Villenbach","type":"Kreisangehörige_Gemeinde"},"district":{"key":"09773","name":"Dillingen a.d.Donau","type":"Landkreis"},"federalState":{"key":"09","name":"Bayern"}},{"name":"Friedhofstr.","postalCode":"86637","locality":"Villenbach","municipality":{"key":"09773179","name":"Villenbach","type":"Kreisangehörige_Gemeinde"},"district":{"key":"09773","name":"Dillingen a.d.Donau","type":"Landkreis"},"federalState":{"key":"09","name":"Bayern"}},{"name":"Gladiolenweg","postalCode":"86637","locality":"Villenbach","municipality":{"key":"09773179","name":"Villenbach","type":"Kreisangehörige_Gemeinde"},"district":{"key":"09773","name":"Dillingen a.d.Donau","type":"Landkreis"},"federalState":{"key":"09","name":"Bayern"}},{"name":"Grundweg","postalCode":"86637","locality":"Villenbach","municipality":{"key":"09773179","name":"Villenbach","type":"Kreisangehörige_Gemeinde"},"district":{"key":"09773","name":"Dillingen a.d.Donau","type":"Landkreis"},"federalState":{"key":"09","name":"Bayern"}},{"name":"Hauptstr.","postalCode":"86637","locality":"Villenbach","municipality":{"key":"09773179","name":"Villenbach","type":"Kreisangehörige_Gemeinde"},"district":{"key":"09773","name":"Dillingen a.d.Donau","type":"Landkreis"},"federalState":{"key":"09","name":"Bayern"}},{"name":"Hausenermühle","postalCode":"86637","locality":"Villenbach","municipality":{"key":"09773179","name":"Villenbach","type":"Kreisangehörige_Gemeinde"},"district":{"key":"09773","name":"Dillingen a.d.Donau","type":"Landkreis"},"federalState":{"key":"09","name":"Bayern"}},{"name":"Hirtenmahd","postalCode":"86637","locality":"Villenbach","municipality":{"key":"09773179","name":"Villenbach","type":"Kreisangehörige_Gemeinde"},"district":{"key":"09773","name":"Dillingen a.d.Donau","type":"Landkreis"},"federalState":{"key":"09","name":"Bayern"}},{"name":"Im Feldle","postalCode":"86637","locality":"Villenbach","municipality":{"key":"09773179","name":"Villenbach","type":"Kreisangehörige_Gemeinde"},"district":{"key":"09773","name":"Dillingen a.d.Donau","type":"Landkreis"},"federalState":{"key":"09","name":"Bayern"}},{"name":"Jägerstr.","postalCode":"89407","locality":"Dillingen a.d.Donau","municipality":{"key":"09773125","name":"Dillingen a.d.Donau, GKSt","type":"Große_Kreisstadt"},"district":{"key":"09773","name":"Dillingen a.d.Donau","type":"Landkreis"},"federalState":{"key":"09","name":"Bayern"}},{"name":"Jahnstr.","postalCode":"89407","locality":"Dillingen a.d.Donau","municipality":{"key":"09773125","name":"Dillingen a.d.Donau, GKSt","type":"Große_Kreisstadt"},"district":{"key":"09773","name":"Dillingen a.d.Donau","type":"Landkreis"},"federalState":{"key":"09","name":"Bayern"}},{"name":"Jakobstal","postalCode":"89407","locality":"Dillingen a.d.Donau","municipality":{"key":"09773125","name":"Dillingen a.d.Donau, GKSt","type":"Große_Kreisstadt"},"district":{"key":"09773","name":"Dillingen a.d.Donau","type":"Landkreis"},"federalState":{"key":"09","name":"Bayern"}},{"name":"Johannes-Scheifele-Str.","postalCode":"89407","locality":"Dillingen a.d.Donau","municipality":{"key":"09773125","name":"Dillingen a.d.Donau, GKSt","type":"Große_Kreisstadt"},"district":{"key":"09773","name":"Dillingen a.d.Donau","type":"Landkreis"},"federalState":{"key":"09","name":"Bayern"}},{"name":"Johannes-Scheiffele-Str.","postalCode":"89407","locality":"Dillingen a.d.Donau","municipality":{"key":"09773125","name":"Dillingen a.d.Donau, GKSt","type":"Große_Kreisstadt"},"district":{"key":"09773","name":"Dillingen a.d.Donau","type":"Landkreis"},"federalState":{"key":"09","name":"Bayern"}},{"name":"Johann-Hitzler-Weg","postalCode":"89407","locality":"Dillingen a.d.Donau","municipality":{"key":"09773125","name":"Dillingen a.d.Donau, GKSt","type":"Große_Kreisstadt"},"district":{"key":"09773","name":"Dillingen a.d.Donau","type":"Landkreis"},"federalState":{"key":"09","name":"Bayern"}},{"name":"Johann-Michael-Fischer-Str.","postalCode":"89407","locality":"Dillingen a.d.Donau","municipality":{"key":"09773125","name":"Dillingen a.d.Donau, GKSt","type":"Große_Kreisstadt"},"district":{"key":"09773","name":"Dillingen a.d.Donau","type":"Landkreis"},"federalState":{"key":"09","name":"Bayern"}},{"name":"Johann-Michael-Sailer-Str.","postalCode":"89407","locality":"Dillingen a.d.Donau","municipality":{"key":"09773125","name":"Dillingen a.d.Donau, GKSt","type":"Große_Kreisstadt"},"district":{"key":"09773","name":"Dillingen a.d.Donau","type":"Landkreis"},"federalState":{"key":"09","name":"Bayern"}},{"name":"Josef-Bauer-Weg","postalCode":"89407","locality":"Dillingen a.d.Donau","municipality":{"key":"09773125","name":"Dillingen a.d.Donau, GKSt","type":"Große_Kreisstadt"},"district":{"key":"09773","name":"Dillingen a.d.Donau","type":"Landkreis"},"federalState":{"key":"09","name":"Bayern"}},{"name":"Josef-Feistle-Str.","postalCode":"89407","locality":"Dillingen a.d.Donau","municipality":{"key":"09773125","name":"Dillingen a.d.Donau, GKSt","type":"Große_Kreisstadt"},"district":{"key":"09773","name":"Dillingen a.d.Donau","type":"Landkreis"},"federalState":{"key":"09","name":"Bayern"}},{"name":"Josef-Litzel-Ring","postalCode":"89407","locality":"Dillingen a.d.Donau","municipality":{"key":"09773125","name":"Dillingen a.d.Donau, GKSt","type":"Große_Kreisstadt"},"district":{"key":"09773","name":"Dillingen a.d.Donau","type":"Landkreis"},"federalState":{"key":"09","name":"Bayern"}},{"name":"Josef-Rabini-Weg","postalCode":"89407","locality":"Dillingen a.d.Donau","municipality":{"key":"09773125","name":"Dillingen a.d.Donau, GKSt","type":"Große_Kreisstadt"},"district":{"key":"09773","name":"Dillingen a.d.Donau","type":"Landkreis"},"federalState":{"key":"09","name":"Bayern"}},{"name":"Joseph-Heitzmann-Str.","postalCode":"89407","locality":"Dillingen a.d.Donau","municipality":{"key":"09773125","name":"Dillingen a.d.Donau, GKSt","type":"Große_Kreisstadt"},"district":{"key":"09773","name":"Dillingen a.d.Donau","type":"Landkreis"},"federalState":{"key":"09","name":"Bayern"}},{"name":"Joseph-Keller-Weg","postalCode":"89407","locality":"Dillingen a.d.Donau","municipality":{"key":"09773125","name":"Dillingen a.d.Donau, GKSt","type":"Große_Kreisstadt"},"district":{"key":"09773","name":"Dillingen a.d.Donau","type":"Landkreis"},"federalState":{"key":"09","name":"Bayern"}},{"name":"Juraweg","postalCode":"89407","locality":"Dillingen a.d.Donau","municipality":{"key":"09773125","name":"Dillingen a.d.Donau, GKSt","type":"Große_Kreisstadt"},"district":{"key":"09773","name":"Dillingen a.d.Donau","type":"Landkreis"},"federalState":{"key":"09","name":"Bayern"}},{"name":"Justus-von-Liebig-Str.","postalCode":"89407","locality":"Dillingen a.d.Donau","municipality":{"key":"09773125","name":"Dillingen a.d.Donau, GKSt","type":"Große_Kreisstadt"},"district":{"key":"09773","name":"Dillingen a.d.Donau","type":"Landkreis"},"federalState":{"key":"09","name":"Bayern"}},{"name":"Kalteck","postalCode":"86637","locality":"Villenbach","municipality":{"key":"09773179","name":"Villenbach","type":"Kreisangehörige_Gemeinde"},"district":{"key":"09773","name":"Dillingen a.d.Donau","type":"Landkreis"},"federalState":{"key":"09","name":"Bayern"}},{"name":"Kirchstr.","postalCode":"86637","locality":"Villenbach","municipality":{"key":"09773179","name":"Villenbach","type":"Kreisangehörige_Gemeinde"},"district":{"key":"09773","name":"Dillingen a.d.Donau","type":"Landkreis"},"federalState":{"key":"09","name":"Bayern"}},{"name":"Lilienstr.","postalCode":"86637","locality":"Villenbach","municipality":{"key":"09773179","name":"Villenbach","type":"Kreisangehörige_Gemeinde"},"district":{"key":"09773","name":"Dillingen a.d.Donau","type":"Landkreis"},"federalState":{"key":"09","name":"Bayern"}},{"name":"Mitterfeldstr.","postalCode":"86637","locality":"Villenbach","municipality":{"key":"09773179","name":"Villenbach","type":"Kreisangehörige_Gemeinde"},"district":{"key":"09773","name":"Dillingen a.d.Donau","type":"Landkreis"},"federalState":{"key":"09","name":"Bayern"}},{"name":"Narzissenweg","postalCode":"86637","locality":"Villenbach","municipality":{"key":"09773179","name":"Villenbach","type":"Kreisangehörige_Gemeinde"},"district":{"key":"09773","name":"Dillingen a.d.Donau","type":"Landkreis"},"federalState":{"key":"09","name":"Bayern"}},{"name":"Nelkenstr.","postalCode":"86637","locality":"Villenbach","municipality":{"key":"09773179","name":"Villenbach","type":"Kreisangehörige_Gemeinde"},"district":{"key":"09773","name":"Dillingen a.d.Donau","type":"Landkreis"},"federalState":{"key":"09","name":"Bayern"}},{"name":"Oberriedstr.","postalCode":"86637","locality":"Villenbach","municipality":{"key":"09773179","name":"Villenbach","type":"Kreisangehörige_Gemeinde"},"district":{"key":"09773","name":"Dillingen a.d.Donau","type":"Landkreis"},"federalState":{"key":"09","name":"Bayern"}},{"name":"Postweg","postalCode":"86637","locality":"Villenbach","municipality":{"key":"09773179","name":"Villenbach","type":"Kreisangehörige_Gemeinde"},"district":{"key":"09773","name":"Dillingen a.d.Donau","type":"Landkreis"},"federalState":{"key":"09","name":"Bayern"}},{"name":"Primelweg","postalCode":"86637","locality":"Villenbach","municipality":{"key":"09773179","name":"Villenbach","type":"Kreisangehörige_Gemeinde"},"district":{"key":"09773","name":"Dillingen a.d.Donau","type":"Landkreis"},"federalState":{"key":"09","name":"Bayern"}},{"name":"Riedstr.","postalCode":"86637","locality":"Villenbach","municipality":{"key":"09773179","name":"Villenbach","type":"Kreisangehörige_Gemeinde"},"district":{"key":"09773","name":"Dillingen a.d.Donau","type":"Landkreis"},"federalState":{"key":"09","name":"Bayern"}},{"name":"Rosenstr.","postalCode":"86637","locality":"Villenbach","municipality":{"key":"09773179","name":"Villenbach","type":"Kreisangehörige_Gemeinde"},"district":{"key":"09773","name":"Dillingen a.d.Donau","type":"Landkreis"},"federalState":{"key":"09","name":"Bayern"}},{"name":"Sontheimer Str.","postalCode":"86637","locality":"Villenbach","municipality":{"key":"09773179","name":"Villenbach","type":"Kreisangehörige_Gemeinde"},"district":{"key":"09773","name":"Dillingen a.d.Donau","type":"Landkreis"},"federalState":{"key":"09","name":"Bayern"}},{"name":"St.-Leonhard-Str.","postalCode":"86637","locality":"Villenbach","municipality":{"key":"09773179","name":"Villenbach","type":"Kreisangehörige_Gemeinde"},"district":{"key":"09773","name":"Dillingen a.d.Donau","type":"Landkreis"},"federalState":{"key":"09","name":"Bayern"}},{"name":"Tulpenstr.","postalCode":"86637","locality":"Villenbach","municipality":{"key":"09773179","name":"Villenbach","type":"Kreisangehörige_Gemeinde"},"district":{"key":"09773","name":"Dillingen a.d.Donau","type":"Landkreis"},"federalState":{"key":"09","name":"Bayern"}},{"name":"Unterdorfstr.","postalCode":"86637","locality":"Villenbach","municipality":{"key":"09773179","name":"Villenbach","type":"Kreisangehörige_Gemeinde"},"district":{"key":"09773","name":"Dillingen a.d.Donau","type":"Landkreis"},"federalState":{"key":"09","name":"Bayern"}},{"name":"Viehweidstr.","postalCode":"86637","locality":"Villenbach","municipality":{"key":"09773179","name":"Villenbach","type":"Kreisangehörige_Gemeinde"},"district":{"key":"09773","name":"Dillingen a.d.Donau","type":"Landkreis"},"federalState":{"key":"09","name":"Bayern"}},{"name":"Wachtelweg","postalCode":"89407","locality":"Dillingen a.d.Donau","municipality":{"key":"09773125","name":"Dillingen a.d.Donau, GKSt","type":"Große_Kreisstadt"},"district":{"key":"09773","name":"Dillingen a.d.Donau","type":"Landkreis"},"federalState":{"key":"09","name":"Bayern"}},{"name":"Waidhausweg","postalCode":"89407","locality":"Dillingen a.d.Donau","municipality":{"key":"09773125","name":"Dillingen a.d.Donau, GKSt","type":"Große_Kreisstadt"},"district":{"key":"09773","name":"Dillingen a.d.Donau","type":"Landkreis"},"federalState":{"key":"09","name":"Bayern"}},{"name":"Waisenhausgäßchen","postalCode":"89407","locality":"Dillingen a.d.Donau","municipality":{"key":"09773125","name":"Dillingen a.d.Donau, GKSt","type":"Große_Kreisstadt"},"district":{"key":"09773","name":"Dillingen a.d.Donau","type":"Landkreis"},"federalState":{"key":"09","name":"Bayern"}},{"name":"Weberstr.","postalCode":"89407","locality":"Dillingen a.d.Donau","municipality":{"key":"09773125","name":"Dillingen a.d.Donau, GKSt","type":"Große_Kreisstadt"},"district":{"key":"09773","name":"Dillingen a.d.Donau","type":"Landkreis"},"federalState":{"key":"09","name":"Bayern"}},{"name":"Weg an den Bahngleisen","postalCode":"89407","locality":"Dillingen a.d.Donau","municipality":{"key":"09773125","name":"Dillingen a.d.Donau, GKSt","type":"Große_Kreisstadt"},"district":{"key":"09773","name":"Dillingen a.d.Donau","type":"Landkreis"},"federalState":{"key":"09","name":"Bayern"}},{"name":"Weidenweg","postalCode":"89407","locality":"Dillingen a.d.Donau","municipality":{"key":"09773125","name":"Dillingen a.d.Donau, GKSt","type":"Große_Kreisstadt"},"district":{"key":"09773","name":"Dillingen a.d.Donau","type":"Landkreis"},"federalState":{"key":"09","name":"Bayern"}},{"name":"Weigandweg","postalCode":"89407","locality":"Dillingen a.d.Donau","municipality":{"key":"09773125","name":"Dillingen a.d.Donau, GKSt","type":"Große_Kreisstadt"},"district":{"key":"09773","name":"Dillingen a.d.Donau","type":"Landkreis"},"federalState":{"key":"09","name":"Bayern"}},{"name":"Weilhammerweg","postalCode":"89407","locality":"Dillingen a.d.Donau","municipality":{"key":"09773125","name":"Dillingen a.d.Donau, GKSt","type":"Große_Kreisstadt"},"district":{"key":"09773","name":"Dillingen a.d.Donau","type":"Landkreis"},"federalState":{"key":"09","name":"Bayern"}},{"name":"Welfenstr.","postalCode":"89407","locality":"Dillingen a.d.Donau","municipality":{"key":"09773125","name":"Dillingen a.d.Donau, GKSt","type":"Große_Kreisstadt"},"district":{"key":"09773","name":"Dillingen a.d.Donau","type":"Landkreis"},"federalState":{"key":"09","name":"Bayern"}},{"name":"Werdenbergstr.","postalCode":"89407","locality":"Dillingen a.d.Donau","municipality":{"key":"09773125","name":"Dillingen a.d.Donau, GKSt","type":"Große_Kreisstadt"},"district":{"key":"09773","name":"Dillingen a.d.Donau","type":"Landkreis"},"federalState":{"key":"09","name":"Bayern"}},{"name":"Werner-von-Siemens-Str.","postalCode":"89407","locality":"Dillingen a.d.Donau","municipality":{"key":"09773125","name":"Dillingen a.d.Donau, GKSt","type":"Große_Kreisstadt"},"district":{"key":"09773","name":"Dillingen a.d.Donau","type":"Landkreis"},"federalState":{"key":"09","name":"Bayern"}},{"name":"Westendstr.","postalCode":"89407","locality":"Dillingen a.d.Donau","municipality":{"key":"09773125","name":"Dillingen a.d.Donau, GKSt","type":"Große_Kreisstadt"},"district":{"key":"09773","name":"Dillingen a.d.Donau","type":"Landkreis"},"federalState":{"key":"09","name":"Bayern"}},{"name":"Wettinger Str.","postalCode":"89407","locality":"Dillingen a.d.Donau","municipality":{"key":"09773125","name":"Dillingen a.d.Donau, GKSt","type":"Große_Kreisstadt"},"district":{"key":"09773","name":"Dillingen a.d.Donau","type":"Landkreis"},"federalState":{"key":"09","name":"Bayern"}},{"name":"Wigramstr.","postalCode":"89407","locality":"Dillingen a.d.Donau","municipality":{"key":"09773125","name":"Dillingen a.d.Donau, GKSt","type":"Große_Kreisstadt"},"district":{"key":"09773","name":"Dillingen a.d.Donau","type":"Landkreis"},"federalState":{"key":"09","name":"Bayern"}},{"name":"Wilhelm-Bauer-Str.","postalCode":"89407","locality":"Dillingen a.d.Donau","municipality":{"key":"09773125","name":"Dillingen a.d.Donau, GKSt","type":"Große_Kreisstadt"},"district":{"key":"09773","name":"Dillingen a.d.Donau","type":"Landkreis"},"federalState":{"key":"09","name":"Bayern"}},{"name":"Willy-Brandt-Str.","postalCode":"89407","locality":"Dillingen a.d.Donau","municipality":{"key":"09773125","name":"Dillingen a.d.Donau, GKSt","type":"Große_Kreisstadt"},"district":{"key":"09773","name":"Dillingen a.d.Donau","type":"Landkreis"},"federalState":{"key":"09","name":"Bayern"}},{"name":"Winterthurer Weg","postalCode":"89407","locality":"Dillingen a.d.Donau","municipality":{"key":"09773125","name":"Dillingen a.d.Donau, GKSt","type":"Große_Kreisstadt"},"district":{"key":"09773","name":"Dillingen a.d.Donau","type":"Landkreis"},"federalState":{"key":"09","name":"Bayern"}},{"name":"Wittelsbacherallee","postalCode":"89407","locality":"Dillingen a.d.Donau","municipality":{"key":"09773125","name":"Dillingen a.d.Donau, GKSt","type":"Große_Kreisstadt"},"district":{"key":"09773","name":"Dillingen a.d.Donau","type":"Landkreis"},"federalState":{"key":"09","name":"Bayern"}},{"name":"Ziegelstr.","postalCode":"89407","locality":"Dillingen a.d.Donau","municipality":{"key":"09773125","name":"Dillingen a.d.Donau, GKSt","type":"Große_Kreisstadt"},"district":{"key":"09773","name":"Dillingen a.d.Donau","type":"Landkreis"},"federalState":{"key":"09","name":"Bayern"}},{"name":"Zollstr.","postalCode":"89407","locality":"Dillingen a.d.Donau","municipality":{"key":"09773125","name":"Dillingen a.d.Donau, GKSt","type":"Große_Kreisstadt"},"district":{"key":"09773","name":"Dillingen a.d.Donau","type":"Landkreis"},"federalState":{"key":"09","name":"Bayern"}},{"name":"Zuger Weg","postalCode":"89407","locality":"Dillingen a.d.Donau","municipality":{"key":"09773125","name":"Dillingen a.d.Donau, GKSt","type":"Große_Kreisstadt"},"district":{"key":"09773","name":"Dillingen a.d.Donau","type":"Landkreis"},"federalState":{"key":"09","name":"Bayern"}},{"name":"Zum Kreuzacker","postalCode":"89407","locality":"Dillingen a.d.Donau","municipality":{"key":"09773125","name":"Dillingen a.d.Donau, GKSt","type":"Große_Kreisstadt"},"district":{"key":"09773","name":"Dillingen a.d.Donau","type":"Landkreis"},"federalState":{"key":"09","name":"Bayern"}},{"name":"Zunhammerweg","postalCode":"89407","locality":"Dillingen a.d.Donau","municipality":{"key":"09773125","name":"Dillingen a.d.Donau, GKSt","type":"Große_Kreisstadt"},"district":{"key":"09773","name":"Dillingen a.d.Donau","type":"Landkreis"},"federalState":{"key":"09","name":"Bayern"}},{"name":"Zwergbachstr.","postalCode":"89407","locality":"Dillingen a.d.Donau","municipality":{"key":"09773125","name":"Dillingen a.d.Donau, GKSt","type":"Große_Kreisstadt"},"district":{"key":"09773","name":"Dillingen a.d.Donau","type":"Landkreis"},"federalState":{"key":"09","name":"Bayern"}},{"name":"Zwergstr.","postalCode":"89407","locality":"Dillingen a.d.Donau","municipality":{"key":"09773125","name":"Dillingen a.d.Donau, GKSt","type":"Große_Kreisstadt"},"district":{"key":"09773","name":"Dillingen a.d.Donau","type":"Landkreis"},"federalState":{"key":"09","name":"Bayern"}},{"name":"Ölberggasse","postalCode":"89407","locality":"Dillingen a.d.Donau","municipality":{"key":"09773125","name":"Dillingen a.d.Donau, GKSt","type":"Große_Kreisstadt"},"district":{"key":"09773","name":"Dillingen a.d.Donau","type":"Landkreis"},"federalState":{"key":"09","name":"Bayern"}},{"name":"Überaschungsweg (Sackgasse)","postalCode":"89407","locality":"Dillingen a.d.Donau","municipality":{"key":"09773125","name":"Dillingen a.d.Donau, GKSt","type":"Große_Kreisstadt"},"district":{"key":"09773","name":"Dillingen a.d.Donau","type":"Landkreis"},"federalState":{"key":"09","name":"Bayern"}},]