[{"key":"10239129","name":"A3","postalCode":"5107","locality":"Schinznach Dorf","commune":{"key":"4125","name":"Schinznach","shortName":"Schinznach"},"district":{"key":"1904","name":"Bezirk Brugg"},"canton":{"key":"19","code":"AG","name":"Aargau"},"status":"Real"},{"key":"10239744","name":"A3","postalCode":"5116","locality":"Schinznach Bad","commune":{"key":"4095","name":"Brugg","shortName":"Brugg"},"district":{"key":"1904","name":"Bezirk Brugg"},"canton":{"key":"19","code":"AG","name":"Aargau"},"status":"Real"},{"key":"10251807","name":"Aarauerstrasse","postalCode":"5116","locality":"Schinznach Bad","commune":{"key":"4095","name":"Brugg","shortName":"Brugg"},"district":{"key":"1904","name":"Bezirk Brugg"},"canton":{"key":"19","code":"AG","name":"Aargau"},"status":"Real"},{"key":"10248169","name":"Aarestrasse","postalCode":"5107","locality":"Schinznach Dorf","commune":{"key":"4125","name":"Schinznach","shortName":"Schinznach"},"district":{"key":"1904","name":"Bezirk Brugg"},"canton":{"key":"19","code":"AG","name":"Aargau"},"status":"Real"},{"key":"10139417","name":"Aarestrasse","postalCode":"5116","locality":"Schinznach Bad","commune":{"key":"4095","name":"Brugg","shortName":"Brugg"},"district":{"key":"1904","name":"Bezirk Brugg"},"canton":{"key":"19","code":"AG","name":"Aargau"},"status":"Real"},{"key":"10031747","name":"Aarhof","postalCode":"5107","locality":"Schinznach Dorf","commune":{"key":"4125","name":"Schinznach","shortName":"Schinznach"},"district":{"key":"1904","name":"Bezirk Brugg"},"canton":{"key":"19","code":"AG","name":"Aargau"},"status":"Real"},{"key":"10069637","name":"Aeschbordweg","postalCode":"5107","locality":"Schinznach Dorf","commune":{"key":"4125","name":"Schinznach","shortName":"Schinznach"},"district":{"key":"1904","name":"Bezirk Brugg"},"canton":{"key":"19","code":"AG","name":"Aargau"},"status":"Real"},{"key":"10052908","name":"Alte Gasse","postalCode":"5107","locality":"Schinznach Dorf","commune":{"key":"4125","name":"Schinznach","shortName":"Schinznach"},"district":{"key":"1904","name":"Bezirk Brugg"},"canton":{"key":"19","code":"AG","name":"Aargau"},"status":"Real"},{"key":"10031748","name":"Ausserdorfstrasse","postalCode":"5107","locality":"Schinznach Dorf","commune":{"key":"4125","name":"Schinznach","shortName":"Schinznach"},"district":{"key":"1904","name":"Bezirk Brugg"},"canton":{"key":"19","code":"AG","name":"Aargau"},"status":"Real"},{"key":"10031750","name":"Bächlimattweg","postalCode":"5107","locality":"Schinznach Dorf","commune":{"key":"4125","name":"Schinznach","shortName":"Schinznach"},"district":{"key":"1904","name":"Bezirk Brugg"},"canton":{"key":"19","code":"AG","name":"Aargau"},"status":"Real"},{"key":"10069638","name":"Bächlirain","postalCode":"5107","locality":"Schinznach Dorf","commune":{"key":"4125","name":"Schinznach","shortName":"Schinznach"},"district":{"key":"1904","name":"Bezirk Brugg"},"canton":{"key":"19","code":"AG","name":"Aargau"},"status":"Real"},{"key":"10050604","name":"Badschachen","postalCode":"5116","locality":"Schinznach Bad","commune":{"key":"4095","name":"Brugg","shortName":"Brugg"},"district":{"key":"1904","name":"Bezirk Brugg"},"canton":{"key":"19","code":"AG","name":"Aargau"},"status":"Real"},{"key":"10101788","name":"Badstrasse","postalCode":"5116","locality":"Schinznach Bad","commune":{"key":"4095","name":"Brugg","shortName":"Brugg"},"district":{"key":"1904","name":"Bezirk Brugg"},"canton":{"key":"19","code":"AG","name":"Aargau"},"status":"Real"},{"key":"10069635","name":"Bahnhofstrasse","postalCode":"5116","locality":"Schinznach Bad","commune":{"key":"4095","name":"Brugg","shortName":"Brugg"},"district":{"key":"1904","name":"Bezirk Brugg"},"canton":{"key":"19","code":"AG","name":"Aargau"},"status":"Real"},{"key":"10037449","name":"Balm","postalCode":"5107","locality":"Schinznach Dorf","commune":{"key":"4125","name":"Schinznach","shortName":"Schinznach"},"district":{"key":"1904","name":"Bezirk Brugg"},"canton":{"key":"19","code":"AG","name":"Aargau"},"status":"Real"},{"key":"10185189","name":"Berg","postalCode":"5107","locality":"Schinznach Dorf","commune":{"key":"4125","name":"Schinznach","shortName":"Schinznach"},"district":{"key":"1904","name":"Bezirk Brugg"},"canton":{"key":"19","code":"AG","name":"Aargau"},"status":"Real"},{"key":"10031749","name":"Bielweg","postalCode":"5107","locality":"Schinznach Dorf","commune":{"key":"4125","name":"Schinznach","shortName":"Schinznach"},"district":{"key":"1904","name":"Bezirk Brugg"},"canton":{"key":"19","code":"AG","name":"Aargau"},"status":"Real"},{"key":"10031738","name":"Bifangstrasse","postalCode":"5116","locality":"Schinznach Bad","commune":{"key":"4095","name":"Brugg","shortName":"Brugg"},"district":{"key":"1904","name":"Bezirk Brugg"},"canton":{"key":"19","code":"AG","name":"Aargau"},"status":"Real"},{"key":"10052909","name":"Blumenweg","postalCode":"5107","locality":"Schinznach Dorf","commune":{"key":"4125","name":"Schinznach","shortName":"Schinznach"},"district":{"key":"1904","name":"Bezirk Brugg"},"canton":{"key":"19","code":"AG","name":"Aargau"},"status":"Real"},{"key":"10031739","name":"Blumenweg","postalCode":"5116","locality":"Schinznach Bad","commune":{"key":"4095","name":"Brugg","shortName":"Brugg"},"district":{"key":"1904","name":"Bezirk Brugg"},"canton":{"key":"19","code":"AG","name":"Aargau"},"status":"Real"},{"key":"10251669","name":"Bodenackerstrasse","postalCode":"5116","locality":"Schinznach Bad","commune":{"key":"4095","name":"Brugg","shortName":"Brugg"},"district":{"key":"1904","name":"Bezirk Brugg"},"canton":{"key":"19","code":"AG","name":"Aargau"},"status":"Real"},{"key":"10031751","name":"Bözenegg","postalCode":"5107","locality":"Schinznach Dorf","commune":{"key":"4125","name":"Schinznach","shortName":"Schinznach"},"district":{"key":"1904","name":"Bezirk Brugg"},"canton":{"key":"19","code":"AG","name":"Aargau"},"status":"Real"},{"key":"10052910","name":"Bözeneggstrasse","postalCode":"5107","locality":"Schinznach Dorf","commune":{"key":"4125","name":"Schinznach","shortName":"Schinznach"},"district":{"key":"1904","name":"Bezirk Brugg"},"canton":{"key":"19","code":"AG","name":"Aargau"},"status":"Real"},{"key":"10101793","name":"Bözhalde","postalCode":"5107","locality":"Schinznach Dorf","commune":{"key":"4125","name":"Schinznach","shortName":"Schinznach"},"district":{"key":"1904","name":"Bezirk Brugg"},"canton":{"key":"19","code":"AG","name":"Aargau"},"status":"Real"},{"key":"10185359","name":"Breitackerstrasse","postalCode":"5116","locality":"Schinznach Bad","commune":{"key":"4095","name":"Brugg","shortName":"Brugg"},"district":{"key":"1904","name":"Bezirk Brugg"},"canton":{"key":"19","code":"AG","name":"Aargau"},"status":"Real"},{"key":"10101792","name":"Breiternstrasse","postalCode":"5107","locality":"Schinznach Dorf","commune":{"key":"4125","name":"Schinznach","shortName":"Schinznach"},"district":{"key":"1904","name":"Bezirk Brugg"},"canton":{"key":"19","code":"AG","name":"Aargau"},"status":"Real"},{"key":"10031740","name":"Bruggerstrasse","postalCode":"5116","locality":"Schinznach Bad","commune":{"key":"4095","name":"Brugg","shortName":"Brugg"},"district":{"key":"1904","name":"Bezirk Brugg"},"canton":{"key":"19","code":"AG","name":"Aargau"},"status":"Real"},{"key":"10159562","name":"Brunnengässli","postalCode":"5107","locality":"Schinznach Dorf","commune":{"key":"4125","name":"Schinznach","shortName":"Schinznach"},"district":{"key":"1904","name":"Bezirk Brugg"},"canton":{"key":"19","code":"AG","name":"Aargau"},"status":"Real"},{"key":"10240202","name":"Chalmweg","postalCode":"5107","locality":"Schinznach Dorf","commune":{"key":"4125","name":"Schinznach","shortName":"Schinznach"},"district":{"key":"1904","name":"Bezirk Brugg"},"canton":{"key":"19","code":"AG","name":"Aargau"},"status":"Real"},{"key":"10031752","name":"Degerfeldstrasse","postalCode":"5107","locality":"Schinznach Dorf","commune":{"key":"4125","name":"Schinznach","shortName":"Schinznach"},"district":{"key":"1904","name":"Bezirk Brugg"},"canton":{"key":"19","code":"AG","name":"Aargau"},"status":"Real"},{"key":"10031753","name":"Färbergässli","postalCode":"5107","locality":"Schinznach Dorf","commune":{"key":"4125","name":"Schinznach","shortName":"Schinznach"},"district":{"key":"1904","name":"Bezirk Brugg"},"canton":{"key":"19","code":"AG","name":"Aargau"},"status":"Real"},{"key":"10101794","name":"Feldschenrain","postalCode":"5107","locality":"Schinznach Dorf","commune":{"key":"4125","name":"Schinznach","shortName":"Schinznach"},"district":{"key":"1904","name":"Bezirk Brugg"},"canton":{"key":"19","code":"AG","name":"Aargau"},"status":"Real"},{"key":"10188329","name":"Feldschenweg","postalCode":"5107","locality":"Schinznach Dorf","commune":{"key":"4125","name":"Schinznach","shortName":"Schinznach"},"district":{"key":"1904","name":"Bezirk Brugg"},"canton":{"key":"19","code":"AG","name":"Aargau"},"status":"Real"},{"key":"10100704","name":"Feldstrasse","postalCode":"5107","locality":"Schinznach Dorf","commune":{"key":"4125","name":"Schinznach","shortName":"Schinznach"},"district":{"key":"1904","name":"Bezirk Brugg"},"canton":{"key":"19","code":"AG","name":"Aargau"},"status":"Real"},{"key":"10139418","name":"Friedhofweg","postalCode":"5116","locality":"Schinznach Bad","commune":{"key":"4095","name":"Brugg","shortName":"Brugg"},"district":{"key":"1904","name":"Bezirk Brugg"},"canton":{"key":"19","code":"AG","name":"Aargau"},"status":"Real"},{"key":"10031755","name":"Gäbigasse","postalCode":"5107","locality":"Schinznach Dorf","commune":{"key":"4125","name":"Schinznach","shortName":"Schinznach"},"district":{"key":"1904","name":"Bezirk Brugg"},"canton":{"key":"19","code":"AG","name":"Aargau"},"status":"Real"},{"key":"10031754","name":"Gartenweg","postalCode":"5107","locality":"Schinznach Dorf","commune":{"key":"4125","name":"Schinznach","shortName":"Schinznach"},"district":{"key":"1904","name":"Bezirk Brugg"},"canton":{"key":"19","code":"AG","name":"Aargau"},"status":"Real"},{"key":"10153538","name":"Geissackerweg","postalCode":"5116","locality":"Schinznach Bad","commune":{"key":"4095","name":"Brugg","shortName":"Brugg"},"district":{"key":"1904","name":"Bezirk Brugg"},"canton":{"key":"19","code":"AG","name":"Aargau"},"status":"Real"},{"key":"10108142","name":"Getzhaldenweg","postalCode":"5107","locality":"Schinznach Dorf","commune":{"key":"4125","name":"Schinznach","shortName":"Schinznach"},"district":{"key":"1904","name":"Bezirk Brugg"},"canton":{"key":"19","code":"AG","name":"Aargau"},"status":"Real"},{"key":"10159563","name":"Gewerbestrasse","postalCode":"5107","locality":"Schinznach Dorf","commune":{"key":"4125","name":"Schinznach","shortName":"Schinznach"},"district":{"key":"1904","name":"Bezirk Brugg"},"canton":{"key":"19","code":"AG","name":"Aargau"},"status":"Real"},{"key":"10242223","name":"Gnossiwegli","postalCode":"5107","locality":"Schinznach Dorf","commune":{"key":"4125","name":"Schinznach","shortName":"Schinznach"},"district":{"key":"1904","name":"Bezirk Brugg"},"canton":{"key":"19","code":"AG","name":"Aargau"},"status":"Real"},{"key":"10069636","name":"Grabenackerstrasse","postalCode":"5116","locality":"Schinznach Bad","commune":{"key":"4095","name":"Brugg","shortName":"Brugg"},"district":{"key":"1904","name":"Bezirk Brugg"},"canton":{"key":"19","code":"AG","name":"Aargau"},"status":"Real"},{"key":"10190018","name":"Grünfeldweg","postalCode":"5116","locality":"Schinznach Bad","commune":{"key":"4095","name":"Brugg","shortName":"Brugg"},"district":{"key":"1904","name":"Bezirk Brugg"},"canton":{"key":"19","code":"AG","name":"Aargau"},"status":"Real"},{"key":"10101795","name":"Habsburgweg","postalCode":"5107","locality":"Schinznach Dorf","commune":{"key":"4125","name":"Schinznach","shortName":"Schinznach"},"district":{"key":"1904","name":"Bezirk Brugg"},"canton":{"key":"19","code":"AG","name":"Aargau"},"status":"Real"},{"key":"10050605","name":"Heister","postalCode":"5107","locality":"Schinznach Dorf","commune":{"key":"4125","name":"Schinznach","shortName":"Schinznach"},"district":{"key":"1904","name":"Bezirk Brugg"},"canton":{"key":"19","code":"AG","name":"Aargau"},"status":"Real"},{"key":"10090675","name":"Hinterbalm","postalCode":"5107","locality":"Schinznach Dorf","commune":{"key":"4125","name":"Schinznach","shortName":"Schinznach"},"district":{"key":"1904","name":"Bezirk Brugg"},"canton":{"key":"19","code":"AG","name":"Aargau"},"status":"Real"},{"key":"10137869","name":"Hofmattweg","postalCode":"5107","locality":"Schinznach Dorf","commune":{"key":"4125","name":"Schinznach","shortName":"Schinznach"},"district":{"key":"1904","name":"Bezirk Brugg"},"canton":{"key":"19","code":"AG","name":"Aargau"},"status":"Real"},{"key":"10052911","name":"Hohestrasse","postalCode":"5107","locality":"Schinznach Dorf","commune":{"key":"4125","name":"Schinznach","shortName":"Schinznach"},"district":{"key":"1904","name":"Bezirk Brugg"},"canton":{"key":"19","code":"AG","name":"Aargau"},"status":"Real"},{"key":"10137868","name":"Im Stampf","postalCode":"5107","locality":"Schinznach Dorf","commune":{"key":"4125","name":"Schinznach","shortName":"Schinznach"},"district":{"key":"1904","name":"Bezirk Brugg"},"canton":{"key":"19","code":"AG","name":"Aargau"},"status":"Real"},{"key":"10108896","name":"Johannisweg","postalCode":"5107","locality":"Schinznach Dorf","commune":{"key":"4125","name":"Schinznach","shortName":"Schinznach"},"district":{"key":"1904","name":"Bezirk Brugg"},"canton":{"key":"19","code":"AG","name":"Aargau"},"status":"Real"},{"key":"10034527","name":"Kellermattweg","postalCode":"5107","locality":"Schinznach Dorf","commune":{"key":"4125","name":"Schinznach","shortName":"Schinznach"},"district":{"key":"1904","name":"Bezirk Brugg"},"canton":{"key":"19","code":"AG","name":"Aargau"},"status":"Real"},{"key":"10031741","name":"Kindergartenstrasse","postalCode":"5116","locality":"Schinznach Bad","commune":{"key":"4095","name":"Brugg","shortName":"Brugg"},"district":{"key":"1904","name":"Bezirk Brugg"},"canton":{"key":"19","code":"AG","name":"Aargau"},"status":"Real"},{"key":"10052912","name":"Kirchgasse","postalCode":"5107","locality":"Schinznach Dorf","commune":{"key":"4125","name":"Schinznach","shortName":"Schinznach"},"district":{"key":"1904","name":"Bezirk Brugg"},"canton":{"key":"19","code":"AG","name":"Aargau"},"status":"Real"},{"key":"10034528","name":"Kneublet","postalCode":"5107","locality":"Schinznach Dorf","commune":{"key":"4125","name":"Schinznach","shortName":"Schinznach"},"district":{"key":"1904","name":"Bezirk Brugg"},"canton":{"key":"19","code":"AG","name":"Aargau"},"status":"Real"},{"key":"10105033","name":"Körbergasse","postalCode":"5107","locality":"Schinznach Dorf","commune":{"key":"4125","name":"Schinznach","shortName":"Schinznach"},"district":{"key":"1904","name":"Bezirk Brugg"},"canton":{"key":"19","code":"AG","name":"Aargau"},"status":"Real"},{"key":"10185361","name":"Kreuzbrunnen","postalCode":"5107","locality":"Schinznach Dorf","commune":{"key":"4125","name":"Schinznach","shortName":"Schinznach"},"district":{"key":"1904","name":"Bezirk Brugg"},"canton":{"key":"19","code":"AG","name":"Aargau"},"status":"Real"},{"key":"10101796","name":"Krummenlandstrasse","postalCode":"5107","locality":"Schinznach Dorf","commune":{"key":"4125","name":"Schinznach","shortName":"Schinznach"},"district":{"key":"1904","name":"Bezirk Brugg"},"canton":{"key":"19","code":"AG","name":"Aargau"},"status":"Real"},{"key":"10100705","name":"Lindenstrasse","postalCode":"5107","locality":"Schinznach Dorf","commune":{"key":"4125","name":"Schinznach","shortName":"Schinznach"},"district":{"key":"1904","name":"Bezirk Brugg"},"canton":{"key":"19","code":"AG","name":"Aargau"},"status":"Real"},{"key":"10143705","name":"Luken","postalCode":"5107","locality":"Schinznach Dorf","commune":{"key":"4125","name":"Schinznach","shortName":"Schinznach"},"district":{"key":"1904","name":"Bezirk Brugg"},"canton":{"key":"19","code":"AG","name":"Aargau"},"status":"Real"},{"key":"10124759","name":"Mühlegässli","postalCode":"5107","locality":"Schinznach Dorf","commune":{"key":"4125","name":"Schinznach","shortName":"Schinznach"},"district":{"key":"1904","name":"Bezirk Brugg"},"canton":{"key":"19","code":"AG","name":"Aargau"},"status":"Real"},{"key":"10112867","name":"Nebenbachweg","postalCode":"5107","locality":"Schinznach Dorf","commune":{"key":"4125","name":"Schinznach","shortName":"Schinznach"},"district":{"key":"1904","name":"Bezirk Brugg"},"canton":{"key":"19","code":"AG","name":"Aargau"},"status":"Real"},{"key":"10034529","name":"Oberdorfstrasse","postalCode":"5107","locality":"Schinznach Dorf","commune":{"key":"4125","name":"Schinznach","shortName":"Schinznach"},"district":{"key":"1904","name":"Bezirk Brugg"},"canton":{"key":"19","code":"AG","name":"Aargau"},"status":"Real"},{"key":"10069639","name":"Ober Rooplig","postalCode":"5107","locality":"Schinznach Dorf","commune":{"key":"4125","name":"Schinznach","shortName":"Schinznach"},"district":{"key":"1904","name":"Bezirk Brugg"},"canton":{"key":"19","code":"AG","name":"Aargau"},"status":"Real"},{"key":"10239133","name":"Ortsverbindung","postalCode":"5107","locality":"Schinznach Dorf","commune":{"key":"4125","name":"Schinznach","shortName":"Schinznach"},"district":{"key":"1904","name":"Bezirk Brugg"},"canton":{"key":"19","code":"AG","name":"Aargau"},"status":"Real"},{"key":"10031742","name":"Pfarrweg","postalCode":"5116","locality":"Schinznach Bad","commune":{"key":"4095","name":"Brugg","shortName":"Brugg"},"district":{"key":"1904","name":"Bezirk Brugg"},"canton":{"key":"19","code":"AG","name":"Aargau"},"status":"Real"},{"key":"10052913","name":"Pilatusweg","postalCode":"5107","locality":"Schinznach Dorf","commune":{"key":"4125","name":"Schinznach","shortName":"Schinznach"},"district":{"key":"1904","name":"Bezirk Brugg"},"canton":{"key":"19","code":"AG","name":"Aargau"},"status":"Real"},{"key":"10031743","name":"Rebackerstrasse","postalCode":"5116","locality":"Schinznach Bad","commune":{"key":"4095","name":"Brugg","shortName":"Brugg"},"district":{"key":"1904","name":"Bezirk Brugg"},"canton":{"key":"19","code":"AG","name":"Aargau"},"status":"Real"},{"key":"10240210","name":"Rebbergstrasse","postalCode":"5107","locality":"Schinznach Dorf","commune":{"key":"4125","name":"Schinznach","shortName":"Schinznach"},"district":{"key":"1904","name":"Bezirk Brugg"},"canton":{"key":"19","code":"AG","name":"Aargau"},"status":"Real"},{"key":"10240170","name":"Rebmatt","postalCode":"5107","locality":"Schinznach Dorf","commune":{"key":"4125","name":"Schinznach","shortName":"Schinznach"},"district":{"key":"1904","name":"Bezirk Brugg"},"canton":{"key":"19","code":"AG","name":"Aargau"},"status":"Real"},{"key":"10122175","name":"Ringstrasse","postalCode":"5116","locality":"Schinznach Bad","commune":{"key":"4095","name":"Brugg","shortName":"Brugg"},"district":{"key":"1904","name":"Bezirk Brugg"},"canton":{"key":"19","code":"AG","name":"Aargau"},"status":"Real"},{"key":"10097904","name":"Römerhof","postalCode":"5107","locality":"Schinznach Dorf","commune":{"key":"4125","name":"Schinznach","shortName":"Schinznach"},"district":{"key":"1904","name":"Bezirk Brugg"},"canton":{"key":"19","code":"AG","name":"Aargau"},"status":"Real"},{"key":"10034530","name":"Rosenweg","postalCode":"5107","locality":"Schinznach Dorf","commune":{"key":"4125","name":"Schinznach","shortName":"Schinznach"},"district":{"key":"1904","name":"Bezirk Brugg"},"canton":{"key":"19","code":"AG","name":"Aargau"},"status":"Real"},{"key":"10101789","name":"Rütelistrasse","postalCode":"5116","locality":"Schinznach Bad","commune":{"key":"4095","name":"Brugg","shortName":"Brugg"},"district":{"key":"1904","name":"Bezirk Brugg"},"canton":{"key":"19","code":"AG","name":"Aargau"},"status":"Real"},{"key":"10210724","name":"Säligrundstrasse","postalCode":"5107","locality":"Schinznach Dorf","commune":{"key":"4125","name":"Schinznach","shortName":"Schinznach"},"district":{"key":"1904","name":"Bezirk Brugg"},"canton":{"key":"19","code":"AG","name":"Aargau"},"status":"Real"},{"key":"10031744","name":"Schachenstrasse","postalCode":"5116","locality":"Schinznach Bad","commune":{"key":"4095","name":"Brugg","shortName":"Brugg"},"district":{"key":"1904","name":"Bezirk Brugg"},"canton":{"key":"19","code":"AG","name":"Aargau"},"status":"Real"},{"key":"10031745","name":"Scherzerstrasse","postalCode":"5116","locality":"Schinznach Bad","commune":{"key":"4095","name":"Brugg","shortName":"Brugg"},"district":{"key":"1904","name":"Bezirk Brugg"},"canton":{"key":"19","code":"AG","name":"Aargau"},"status":"Real"},{"key":"10101790","name":"Scheuerackerstrasse","postalCode":"5116","locality":"Schinznach Bad","commune":{"key":"4095","name":"Brugg","shortName":"Brugg"},"district":{"key":"1904","name":"Bezirk Brugg"},"canton":{"key":"19","code":"AG","name":"Aargau"},"status":"Real"},{"key":"10186860","name":"Schrannstrasse","postalCode":"5107","locality":"Schinznach Dorf","commune":{"key":"4125","name":"Schinznach","shortName":"Schinznach"},"district":{"key":"1904","name":"Bezirk Brugg"},"canton":{"key":"19","code":"AG","name":"Aargau"},"status":"Real"},{"key":"10105032","name":"Schulhausstrasse","postalCode":"5116","locality":"Schinznach Bad","commune":{"key":"4095","name":"Brugg","shortName":"Brugg"},"district":{"key":"1904","name":"Bezirk Brugg"},"canton":{"key":"19","code":"AG","name":"Aargau"},"status":"Real"},{"key":"10240181","name":"Schulstrasse","postalCode":"5107","locality":"Schinznach Dorf","commune":{"key":"4125","name":"Schinznach","shortName":"Schinznach"},"district":{"key":"1904","name":"Bezirk Brugg"},"canton":{"key":"19","code":"AG","name":"Aargau"},"status":"Real"},{"key":"10101798","name":"Sonnmattweg","postalCode":"5107","locality":"Schinznach Dorf","commune":{"key":"4125","name":"Schinznach","shortName":"Schinznach"},"district":{"key":"1904","name":"Bezirk Brugg"},"canton":{"key":"19","code":"AG","name":"Aargau"},"status":"Real"},{"key":"10069640","name":"Steinachbrücke","postalCode":"5107","locality":"Schinznach Dorf","commune":{"key":"4125","name":"Schinznach","shortName":"Schinznach"},"district":{"key":"1904","name":"Bezirk Brugg"},"canton":{"key":"19","code":"AG","name":"Aargau"},"status":"Real"},{"key":"10050606","name":"Steinachhof","postalCode":"5107","locality":"Schinznach Dorf","commune":{"key":"4125","name":"Schinznach","shortName":"Schinznach"},"district":{"key":"1904","name":"Bezirk Brugg"},"canton":{"key":"19","code":"AG","name":"Aargau"},"status":"Real"},{"key":"10112866","name":"Steinbruchstrasse","postalCode":"5116","locality":"Schinznach Bad","commune":{"key":"4095","name":"Brugg","shortName":"Brugg"},"district":{"key":"1904","name":"Bezirk Brugg"},"canton":{"key":"19","code":"AG","name":"Aargau"},"status":"Real"},{"key":"10031746","name":"Steinzelgstrasse","postalCode":"5116","locality":"Schinznach Bad","commune":{"key":"4095","name":"Brugg","shortName":"Brugg"},"district":{"key":"1904","name":"Bezirk Brugg"},"canton":{"key":"19","code":"AG","name":"Aargau"},"status":"Real"},{"key":"10101791","name":"Strassackerstrasse","postalCode":"5116","locality":"Schinznach Bad","commune":{"key":"4095","name":"Brugg","shortName":"Brugg"},"district":{"key":"1904","name":"Bezirk Brugg"},"canton":{"key":"19","code":"AG","name":"Aargau"},"status":"Real"},{"key":"10239137","name":"Strickstrasse","postalCode":"5107","locality":"Schinznach Dorf","commune":{"key":"4125","name":"Schinznach","shortName":"Schinznach"},"district":{"key":"1904","name":"Bezirk Brugg"},"canton":{"key":"19","code":"AG","name":"Aargau"},"status":"Real"},{"key":"10052914","name":"Talbachweg","postalCode":"5107","locality":"Schinznach Dorf","commune":{"key":"4125","name":"Schinznach","shortName":"Schinznach"},"district":{"key":"1904","name":"Bezirk Brugg"},"canton":{"key":"19","code":"AG","name":"Aargau"},"status":"Real"},{"key":"10147604","name":"Täuferkirche","postalCode":"5107","locality":"Schinznach Dorf","commune":{"key":"4125","name":"Schinznach","shortName":"Schinznach"},"district":{"key":"1904","name":"Bezirk Brugg"},"canton":{"key":"19","code":"AG","name":"Aargau"},"status":"Real"},{"key":"10101799","name":"Trottenstrasse","postalCode":"5107","locality":"Schinznach Dorf","commune":{"key":"4125","name":"Schinznach","shortName":"Schinznach"},"district":{"key":"1904","name":"Bezirk Brugg"},"canton":{"key":"19","code":"AG","name":"Aargau"},"status":"Real"},{"key":"10034532","name":"Tulpenweg","postalCode":"5107","locality":"Schinznach Dorf","commune":{"key":"4125","name":"Schinznach","shortName":"Schinznach"},"district":{"key":"1904","name":"Bezirk Brugg"},"canton":{"key":"19","code":"AG","name":"Aargau"},"status":"Real"},{"key":"10034533","name":"Unterdorfstrasse","postalCode":"5107","locality":"Schinznach Dorf","commune":{"key":"4125","name":"Schinznach","shortName":"Schinznach"},"district":{"key":"1904","name":"Bezirk Brugg"},"canton":{"key":"19","code":"AG","name":"Aargau"},"status":"Real"},{"key":"10185360","name":"Unterdorfstrasse","postalCode":"5116","locality":"Schinznach Bad","commune":{"key":"4095","name":"Brugg","shortName":"Brugg"},"district":{"key":"1904","name":"Bezirk Brugg"},"canton":{"key":"19","code":"AG","name":"Aargau"},"status":"Real"},{"key":"10069641","name":"Untere Mühle","postalCode":"5107","locality":"Schinznach Dorf","commune":{"key":"4125","name":"Schinznach","shortName":"Schinznach"},"district":{"key":"1904","name":"Bezirk Brugg"},"canton":{"key":"19","code":"AG","name":"Aargau"},"status":"Real"},{"key":"10034531","name":"Unter Strick","postalCode":"5107","locality":"Schinznach Dorf","commune":{"key":"4125","name":"Schinznach","shortName":"Schinznach"},"district":{"key":"1904","name":"Bezirk Brugg"},"canton":{"key":"19","code":"AG","name":"Aargau"},"status":"Real"},{"key":"10240189","name":"Veltheimerstrasse","postalCode":"5107","locality":"Schinznach Dorf","commune":{"key":"4125","name":"Schinznach","shortName":"Schinznach"},"district":{"key":"1904","name":"Bezirk Brugg"},"canton":{"key":"19","code":"AG","name":"Aargau"},"status":"Real"},{"key":"10185362","name":"Wallbach","postalCode":"5107","locality":"Schinznach Dorf","commune":{"key":"4125","name":"Schinznach","shortName":"Schinznach"},"district":{"key":"1904","name":"Bezirk Brugg"},"canton":{"key":"19","code":"AG","name":"Aargau"},"status":"Real"},{"key":"10034534","name":"Wanne","postalCode":"5107","locality":"Schinznach Dorf","commune":{"key":"4125","name":"Schinznach","shortName":"Schinznach"},"district":{"key":"1904","name":"Bezirk Brugg"},"canton":{"key":"19","code":"AG","name":"Aargau"},"status":"Real"},{"key":"10069642","name":"Wannenweg","postalCode":"5107","locality":"Schinznach Dorf","commune":{"key":"4125","name":"Schinznach","shortName":"Schinznach"},"district":{"key":"1904","name":"Bezirk Brugg"},"canton":{"key":"19","code":"AG","name":"Aargau"},"status":"Real"},{"key":"10034535","name":"Warmbachweg","postalCode":"5107","locality":"Schinznach Dorf","commune":{"key":"4125","name":"Schinznach","shortName":"Schinznach"},"district":{"key":"1904","name":"Bezirk Brugg"},"canton":{"key":"19","code":"AG","name":"Aargau"},"status":"Real"},{"key":"10050607","name":"Weisse Trotte","postalCode":"5107","locality":"Schinznach Dorf","commune":{"key":"4125","name":"Schinznach","shortName":"Schinznach"},"district":{"key":"1904","name":"Bezirk Brugg"},"canton":{"key":"19","code":"AG","name":"Aargau"},"status":"Real"},{"key":"10112868","name":"Wendelweg","postalCode":"5107","locality":"Schinznach Dorf","commune":{"key":"4125","name":"Schinznach","shortName":"Schinznach"},"district":{"key":"1904","name":"Bezirk Brugg"},"canton":{"key":"19","code":"AG","name":"Aargau"},"status":"Real"},{"key":"10034536","name":"Wiesenweg","postalCode":"5107","locality":"Schinznach Dorf","commune":{"key":"4125","name":"Schinznach","shortName":"Schinznach"},"district":{"key":"1904","name":"Bezirk Brugg"},"canton":{"key":"19","code":"AG","name":"Aargau"},"status":"Real"},{"key":"10101800","name":"Winkelweg","postalCode":"5107","locality":"Schinznach Dorf","commune":{"key":"4125","name":"Schinznach","shortName":"Schinznach"},"district":{"key":"1904","name":"Bezirk Brugg"},"canton":{"key":"19","code":"AG","name":"Aargau"},"status":"Real"},{"key":"10240196","name":"Winzerweg","postalCode":"5107","locality":"Schinznach Dorf","commune":{"key":"4125","name":"Schinznach","shortName":"Schinznach"},"district":{"key":"1904","name":"Bezirk Brugg"},"canton":{"key":"19","code":"AG","name":"Aargau"},"status":"Real"},{"key":"10034537","name":"Zelgliweg","postalCode":"5107","locality":"Schinznach Dorf","commune":{"key":"4125","name":"Schinznach","shortName":"Schinznach"},"district":{"key":"1904","name":"Bezirk Brugg"},"canton":{"key":"19","code":"AG","name":"Aargau"},"status":"Real"},{"key":"10034538","name":"Ziegelweg","postalCode":"5107","locality":"Schinznach Dorf","commune":{"key":"4125","name":"Schinznach","shortName":"Schinznach"},"district":{"key":"1904","name":"Bezirk Brugg"},"canton":{"key":"19","code":"AG","name":"Aargau"},"status":"Real"},{"key":"10034539","name":"Zwendlenweg","postalCode":"5107","locality":"Schinznach Dorf","commune":{"key":"4125","name":"Schinznach","shortName":"Schinznach"},"district":{"key":"1904","name":"Bezirk Brugg"},"canton":{"key":"19","code":"AG","name":"Aargau"},"status":"Real"},{"key":"10201512","name":"Ölermattstrasse","postalCode":"5116","locality":"Schinznach Bad","commune":{"key":"4095","name":"Brugg","shortName":"Brugg"},"district":{"key":"1904","name":"Bezirk Brugg"},"canton":{"key":"19","code":"AG","name":"Aargau"},"status":"Real"},]