[{"name":"Aiglsbacher Weg","postalCode":"84089","locality":"Aiglsbach","municipality":{"key":"09273113","name":"Aiglsbach","type":"Kreisangehörige_Gemeinde"},"district":{"key":"09273","name":"Kelheim","type":"Landkreis"},"federalState":{"key":"09","name":"Bayern"}},{"name":"Albrecht-von-Aiglspeck-Str.","postalCode":"84089","locality":"Aiglsbach","municipality":{"key":"09273113","name":"Aiglsbach","type":"Kreisangehörige_Gemeinde"},"district":{"key":"09273","name":"Kelheim","type":"Landkreis"},"federalState":{"key":"09","name":"Bayern"}},{"name":"Alter Grenzweg","postalCode":"84089","locality":"Aiglsbach","municipality":{"key":"09273113","name":"Aiglsbach","type":"Kreisangehörige_Gemeinde"},"district":{"key":"09273","name":"Kelheim","type":"Landkreis"},"federalState":{"key":"09","name":"Bayern"}},{"name":"Am Riedfeld","postalCode":"84089","locality":"Aiglsbach","municipality":{"key":"09273113","name":"Aiglsbach","type":"Kreisangehörige_Gemeinde"},"district":{"key":"09273","name":"Kelheim","type":"Landkreis"},"federalState":{"key":"09","name":"Bayern"}},{"name":"Am Ringweg","postalCode":"84089","locality":"Aiglsbach","municipality":{"key":"09273113","name":"Aiglsbach","type":"Kreisangehörige_Gemeinde"},"district":{"key":"09273","name":"Kelheim","type":"Landkreis"},"federalState":{"key":"09","name":"Bayern"}},{"name":"Bergweg","postalCode":"84089","locality":"Aiglsbach","municipality":{"key":"09273113","name":"Aiglsbach","type":"Kreisangehörige_Gemeinde"},"district":{"key":"09273","name":"Kelheim","type":"Landkreis"},"federalState":{"key":"09","name":"Bayern"}},{"name":"Bittgang KLJB Mühlhausen","postalCode":"84089","locality":"Aiglsbach","municipality":{"key":"09273113","name":"Aiglsbach","type":"Kreisangehörige_Gemeinde"},"district":{"key":"09273","name":"Kelheim","type":"Landkreis"},"federalState":{"key":"09","name":"Bayern"}},{"name":"Buch","postalCode":"84089","locality":"Aiglsbach","municipality":{"key":"09273113","name":"Aiglsbach","type":"Kreisangehörige_Gemeinde"},"district":{"key":"09273","name":"Kelheim","type":"Landkreis"},"federalState":{"key":"09","name":"Bayern"}},{"name":"Buchenring","postalCode":"84089","locality":"Aiglsbach","municipality":{"key":"09273113","name":"Aiglsbach","type":"Kreisangehörige_Gemeinde"},"district":{"key":"09273","name":"Kelheim","type":"Landkreis"},"federalState":{"key":"09","name":"Bayern"}},{"name":"Burgweg","postalCode":"84089","locality":"Aiglsbach","municipality":{"key":"09273113","name":"Aiglsbach","type":"Kreisangehörige_Gemeinde"},"district":{"key":"09273","name":"Kelheim","type":"Landkreis"},"federalState":{"key":"09","name":"Bayern"}},{"name":"Carl-Anton-Lang-Str.","postalCode":"93309","locality":"Kelheim","municipality":{"key":"09273137","name":"Kelheim, St","type":"Stadt"},"district":{"key":"09273","name":"Kelheim","type":"Landkreis"},"federalState":{"key":"09","name":"Bayern"}},{"name":"Cramannsdorfer Weg","postalCode":"93309","locality":"Kelheim","municipality":{"key":"09273137","name":"Kelheim, St","type":"Stadt"},"district":{"key":"09273","name":"Kelheim","type":"Landkreis"},"federalState":{"key":"09","name":"Bayern"}},{"name":"Dahlien Str.","postalCode":"93309","locality":"Kelheim","municipality":{"key":"09273137","name":"Kelheim, St","type":"Stadt"},"district":{"key":"09273","name":"Kelheim","type":"Landkreis"},"federalState":{"key":"09","name":"Bayern"}},{"name":"Donaupark","postalCode":"93309","locality":"Kelheim","municipality":{"key":"09273137","name":"Kelheim, St","type":"Stadt"},"district":{"key":"09273","name":"Kelheim","type":"Landkreis"},"federalState":{"key":"09","name":"Bayern"}},{"name":"Donaupromenade","postalCode":"93309","locality":"Kelheim","municipality":{"key":"09273137","name":"Kelheim, St","type":"Stadt"},"district":{"key":"09273","name":"Kelheim","type":"Landkreis"},"federalState":{"key":"09","name":"Bayern"}},{"name":"Donaustr.","postalCode":"93309","locality":"Kelheim","municipality":{"key":"09273137","name":"Kelheim, St","type":"Stadt"},"district":{"key":"09273","name":"Kelheim","type":"Landkreis"},"federalState":{"key":"09","name":"Bayern"}},{"name":"Dorfring","postalCode":"93309","locality":"Kelheim","municipality":{"key":"09273137","name":"Kelheim, St","type":"Stadt"},"district":{"key":"09273","name":"Kelheim","type":"Landkreis"},"federalState":{"key":"09","name":"Bayern"}},{"name":"Dorfstr.","postalCode":"93309","locality":"Kelheim","municipality":{"key":"09273137","name":"Kelheim, St","type":"Stadt"},"district":{"key":"09273","name":"Kelheim","type":"Landkreis"},"federalState":{"key":"09","name":"Bayern"}},{"name":"Drahtwerke","postalCode":"55596","locality":"Waldböckelheim","municipality":{"key":"07133107","name":"Waldböckelheim","type":"Kreisangehörige_Gemeinde"},"district":{"key":"07133","name":"Bad Kreuznach","type":"Landkreis"},"federalState":{"key":"07","name":"Rheinland-Pfalz"}},{"name":"Dr.-Clemm-Str.","postalCode":"93309","locality":"Kelheim","municipality":{"key":"09273137","name":"Kelheim, St","type":"Stadt"},"district":{"key":"09273","name":"Kelheim","type":"Landkreis"},"federalState":{"key":"09","name":"Bayern"}},{"name":"Dr.-Harster-Str.","postalCode":"93309","locality":"Kelheim","municipality":{"key":"09273137","name":"Kelheim, St","type":"Stadt"},"district":{"key":"09273","name":"Kelheim","type":"Landkreis"},"federalState":{"key":"09","name":"Bayern"}},{"name":"Drosselstr.","postalCode":"93309","locality":"Kelheim","municipality":{"key":"09273137","name":"Kelheim, St","type":"Stadt"},"district":{"key":"09273","name":"Kelheim","type":"Landkreis"},"federalState":{"key":"09","name":"Bayern"}},{"name":"Dr.-Weber-Str.","postalCode":"93309","locality":"Kelheim","municipality":{"key":"09273137","name":"Kelheim, St","type":"Stadt"},"district":{"key":"09273","name":"Kelheim","type":"Landkreis"},"federalState":{"key":"09","name":"Bayern"}},{"name":"Ebenweg","postalCode":"84089","locality":"Aiglsbach","municipality":{"key":"09273113","name":"Aiglsbach","type":"Kreisangehörige_Gemeinde"},"district":{"key":"09273","name":"Kelheim","type":"Landkreis"},"federalState":{"key":"09","name":"Bayern"}},{"name":"Finkenstr.","postalCode":"84089","locality":"Aiglsbach","municipality":{"key":"09273113","name":"Aiglsbach","type":"Kreisangehörige_Gemeinde"},"district":{"key":"09273","name":"Kelheim","type":"Landkreis"},"federalState":{"key":"09","name":"Bayern"}},{"name":"Gasseltshausen","postalCode":"84089","locality":"Aiglsbach","municipality":{"key":"09273113","name":"Aiglsbach","type":"Kreisangehörige_Gemeinde"},"district":{"key":"09273","name":"Kelheim","type":"Landkreis"},"federalState":{"key":"09","name":"Bayern"}},{"name":"Geisenfelder Str.","postalCode":"84089","locality":"Aiglsbach","municipality":{"key":"09273113","name":"Aiglsbach","type":"Kreisangehörige_Gemeinde"},"district":{"key":"09273","name":"Kelheim","type":"Landkreis"},"federalState":{"key":"09","name":"Bayern"}},{"name":"Haslachweg","postalCode":"84089","locality":"Aiglsbach","municipality":{"key":"09273113","name":"Aiglsbach","type":"Kreisangehörige_Gemeinde"},"district":{"key":"09273","name":"Kelheim","type":"Landkreis"},"federalState":{"key":"09","name":"Bayern"}},{"name":"Hofmarkweg","postalCode":"84089","locality":"Aiglsbach","municipality":{"key":"09273113","name":"Aiglsbach","type":"Kreisangehörige_Gemeinde"},"district":{"key":"09273","name":"Kelheim","type":"Landkreis"},"federalState":{"key":"09","name":"Bayern"}},{"name":"Im Brühl","postalCode":"55596","locality":"Waldböckelheim","municipality":{"key":"07133107","name":"Waldböckelheim","type":"Kreisangehörige_Gemeinde"},"district":{"key":"07133","name":"Bad Kreuznach","type":"Landkreis"},"federalState":{"key":"07","name":"Rheinland-Pfalz"}},{"name":"Im Kleingedank","postalCode":"55599","locality":"Gau-Bickelheim","municipality":{"key":"07331030","name":"Gau-Bickelheim","type":"Kreisangehörige_Gemeinde"},"district":{"key":"07331","name":"Alzey-Worms","type":"Landkreis"},"federalState":{"key":"07","name":"Rheinland-Pfalz"}},{"name":"Im Raul","postalCode":"55596","locality":"Waldböckelheim","municipality":{"key":"07133107","name":"Waldböckelheim","type":"Kreisangehörige_Gemeinde"},"district":{"key":"07133","name":"Bad Kreuznach","type":"Landkreis"},"federalState":{"key":"07","name":"Rheinland-Pfalz"}},{"name":"In der Beinde","postalCode":"55596","locality":"Schloßböckelheim","municipality":{"key":"07133089","name":"Schloßböckelheim","type":"Kreisangehörige_Gemeinde"},"district":{"key":"07133","name":"Bad Kreuznach","type":"Landkreis"},"federalState":{"key":"07","name":"Rheinland-Pfalz"}},{"name":"In der Gasse","postalCode":"93309","locality":"Kelheim","municipality":{"key":"09273137","name":"Kelheim, St","type":"Stadt"},"district":{"key":"09273","name":"Kelheim","type":"Landkreis"},"federalState":{"key":"09","name":"Bayern"}},{"name":"In der Wolfskaute","postalCode":"55599","locality":"Gau-Bickelheim","municipality":{"key":"07331030","name":"Gau-Bickelheim","type":"Kreisangehörige_Gemeinde"},"district":{"key":"07331","name":"Alzey-Worms","type":"Landkreis"},"federalState":{"key":"07","name":"Rheinland-Pfalz"}},{"name":"Irisweg","postalCode":"93309","locality":"Kelheim","municipality":{"key":"09273137","name":"Kelheim, St","type":"Stadt"},"district":{"key":"09273","name":"Kelheim","type":"Landkreis"},"federalState":{"key":"09","name":"Bayern"}},{"name":"Jägerweg","postalCode":"93309","locality":"Kelheim","municipality":{"key":"09273137","name":"Kelheim, St","type":"Stadt"},"district":{"key":"09273","name":"Kelheim","type":"Landkreis"},"federalState":{"key":"09","name":"Bayern"}},{"name":"Jahnstr.","postalCode":"55596","locality":"Waldböckelheim","municipality":{"key":"07133107","name":"Waldböckelheim","type":"Kreisangehörige_Gemeinde"},"district":{"key":"07133","name":"Bad Kreuznach","type":"Landkreis"},"federalState":{"key":"07","name":"Rheinland-Pfalz"}},{"name":"Jakob-Wickert-Str.","postalCode":"55596","locality":"Waldböckelheim","municipality":{"key":"07133107","name":"Waldböckelheim","type":"Kreisangehörige_Gemeinde"},"district":{"key":"07133","name":"Bad Kreuznach","type":"Landkreis"},"federalState":{"key":"07","name":"Rheinland-Pfalz"}},{"name":"Johann-Mayr-Str.","postalCode":"93309","locality":"Kelheim","municipality":{"key":"09273137","name":"Kelheim, St","type":"Stadt"},"district":{"key":"09273","name":"Kelheim","type":"Landkreis"},"federalState":{"key":"09","name":"Bayern"}},{"name":"Johann-Stoll-Str.","postalCode":"93309","locality":"Kelheim","municipality":{"key":"09273137","name":"Kelheim, St","type":"Stadt"},"district":{"key":"09273","name":"Kelheim","type":"Landkreis"},"federalState":{"key":"09","name":"Bayern"}},{"name":"Judmannweg","postalCode":"93309","locality":"Kelheim","municipality":{"key":"09273137","name":"Kelheim, St","type":"Stadt"},"district":{"key":"09273","name":"Kelheim","type":"Landkreis"},"federalState":{"key":"09","name":"Bayern"}},{"name":"Jurasteig","postalCode":"93309","locality":"Kelheim","municipality":{"key":"09273137","name":"Kelheim, St","type":"Stadt"},"district":{"key":"09273","name":"Kelheim","type":"Landkreis"},"federalState":{"key":"09","name":"Bayern"}},{"name":"Keltenschanzweg","postalCode":"84089","locality":"Aiglsbach","municipality":{"key":"09273113","name":"Aiglsbach","type":"Kreisangehörige_Gemeinde"},"district":{"key":"09273","name":"Kelheim","type":"Landkreis"},"federalState":{"key":"09","name":"Bayern"}},{"name":"Keltenstr.","postalCode":"84089","locality":"Aiglsbach","municipality":{"key":"09273113","name":"Aiglsbach","type":"Kreisangehörige_Gemeinde"},"district":{"key":"09273","name":"Kelheim","type":"Landkreis"},"federalState":{"key":"09","name":"Bayern"}},{"name":"Kindsberg","postalCode":"84089","locality":"Aiglsbach","municipality":{"key":"09273113","name":"Aiglsbach","type":"Kreisangehörige_Gemeinde"},"district":{"key":"09273","name":"Kelheim","type":"Landkreis"},"federalState":{"key":"09","name":"Bayern"}},{"name":"Landrat-Holzner-Str.","postalCode":"84089","locality":"Aiglsbach","municipality":{"key":"09273113","name":"Aiglsbach","type":"Kreisangehörige_Gemeinde"},"district":{"key":"09273","name":"Kelheim","type":"Landkreis"},"federalState":{"key":"09","name":"Bayern"}},{"name":"Leonhardistr.","postalCode":"84089","locality":"Aiglsbach","municipality":{"key":"09273113","name":"Aiglsbach","type":"Kreisangehörige_Gemeinde"},"district":{"key":"09273","name":"Kelheim","type":"Landkreis"},"federalState":{"key":"09","name":"Bayern"}},{"name":"Lerchenfeldstr.","postalCode":"84089","locality":"Aiglsbach","municipality":{"key":"09273113","name":"Aiglsbach","type":"Kreisangehörige_Gemeinde"},"district":{"key":"09273","name":"Kelheim","type":"Landkreis"},"federalState":{"key":"09","name":"Bayern"}},{"name":"Lindenstr.","postalCode":"84089","locality":"Aiglsbach","municipality":{"key":"09273113","name":"Aiglsbach","type":"Kreisangehörige_Gemeinde"},"district":{"key":"09273","name":"Kelheim","type":"Landkreis"},"federalState":{"key":"09","name":"Bayern"}},{"name":"Mainburger Str.","postalCode":"84089","locality":"Aiglsbach","municipality":{"key":"09273113","name":"Aiglsbach","type":"Kreisangehörige_Gemeinde"},"district":{"key":"09273","name":"Kelheim","type":"Landkreis"},"federalState":{"key":"09","name":"Bayern"}},{"name":"Minhausenstr.","postalCode":"84089","locality":"Aiglsbach","municipality":{"key":"09273113","name":"Aiglsbach","type":"Kreisangehörige_Gemeinde"},"district":{"key":"09273","name":"Kelheim","type":"Landkreis"},"federalState":{"key":"09","name":"Bayern"}},{"name":"Moosham","postalCode":"84089","locality":"Aiglsbach","municipality":{"key":"09273113","name":"Aiglsbach","type":"Kreisangehörige_Gemeinde"},"district":{"key":"09273","name":"Kelheim","type":"Landkreis"},"federalState":{"key":"09","name":"Bayern"}},{"name":"Nahetalstr.","postalCode":"55596","locality":"Schloßböckelheim","municipality":{"key":"07133089","name":"Schloßböckelheim","type":"Kreisangehörige_Gemeinde"},"district":{"key":"07133","name":"Bad Kreuznach","type":"Landkreis"},"federalState":{"key":"07","name":"Rheinland-Pfalz"}},{"name":"Nelkenstr.","postalCode":"93309","locality":"Kelheim","municipality":{"key":"09273137","name":"Kelheim, St","type":"Stadt"},"district":{"key":"09273","name":"Kelheim","type":"Landkreis"},"federalState":{"key":"09","name":"Bayern"}},{"name":"Neustädter Str.","postalCode":"93309","locality":"Kelheim","municipality":{"key":"09273137","name":"Kelheim, St","type":"Stadt"},"district":{"key":"09273","name":"Kelheim","type":"Landkreis"},"federalState":{"key":"09","name":"Bayern"}},{"name":"Niederdörfl","postalCode":"93309","locality":"Kelheim","municipality":{"key":"09273137","name":"Kelheim, St","type":"Stadt"},"district":{"key":"09273","name":"Kelheim","type":"Landkreis"},"federalState":{"key":"09","name":"Bayern"}},{"name":"Niedermünsterstr.","postalCode":"93309","locality":"Kelheim","municipality":{"key":"09273137","name":"Kelheim, St","type":"Stadt"},"district":{"key":"09273","name":"Kelheim","type":"Landkreis"},"federalState":{"key":"09","name":"Bayern"}},{"name":"Obere Pforte","postalCode":"55599","locality":"Gau-Bickelheim","municipality":{"key":"07331030","name":"Gau-Bickelheim","type":"Kreisangehörige_Gemeinde"},"district":{"key":"07331","name":"Alzey-Worms","type":"Landkreis"},"federalState":{"key":"07","name":"Rheinland-Pfalz"}},{"name":"Oberer Brühl","postalCode":"55596","locality":"Waldböckelheim","municipality":{"key":"07133107","name":"Waldböckelheim","type":"Kreisangehörige_Gemeinde"},"district":{"key":"07133","name":"Bad Kreuznach","type":"Landkreis"},"federalState":{"key":"07","name":"Rheinland-Pfalz"}},{"name":"Ortsring","postalCode":"93309","locality":"Kelheim","municipality":{"key":"09273137","name":"Kelheim, St","type":"Stadt"},"district":{"key":"09273","name":"Kelheim","type":"Landkreis"},"federalState":{"key":"09","name":"Bayern"}},{"name":"Otto-Gruber-Str.","postalCode":"93309","locality":"Kelheim","municipality":{"key":"09273137","name":"Kelheim, St","type":"Stadt"},"district":{"key":"09273","name":"Kelheim","type":"Landkreis"},"federalState":{"key":"09","name":"Bayern"}},{"name":"Ottostr.","postalCode":"93309","locality":"Kelheim","municipality":{"key":"09273137","name":"Kelheim, St","type":"Stadt"},"district":{"key":"09273","name":"Kelheim","type":"Landkreis"},"federalState":{"key":"09","name":"Bayern"}},{"name":"Pfarrer-Mayer-Weg","postalCode":"84089","locality":"Aiglsbach","municipality":{"key":"09273113","name":"Aiglsbach","type":"Kreisangehörige_Gemeinde"},"district":{"key":"09273","name":"Kelheim","type":"Landkreis"},"federalState":{"key":"09","name":"Bayern"}},{"name":"Pöbenhausen","postalCode":"84089","locality":"Aiglsbach","municipality":{"key":"09273113","name":"Aiglsbach","type":"Kreisangehörige_Gemeinde"},"district":{"key":"09273","name":"Kelheim","type":"Landkreis"},"federalState":{"key":"09","name":"Bayern"}},{"name":"Radertshausen","postalCode":"84089","locality":"Aiglsbach","municipality":{"key":"09273113","name":"Aiglsbach","type":"Kreisangehörige_Gemeinde"},"district":{"key":"09273","name":"Kelheim","type":"Landkreis"},"federalState":{"key":"09","name":"Bayern"}},{"name":"Schloßbergstr.","postalCode":"84089","locality":"Aiglsbach","municipality":{"key":"09273113","name":"Aiglsbach","type":"Kreisangehörige_Gemeinde"},"district":{"key":"09273","name":"Kelheim","type":"Landkreis"},"federalState":{"key":"09","name":"Bayern"}},{"name":"Schloßkirchenweg","postalCode":"84089","locality":"Aiglsbach","municipality":{"key":"09273113","name":"Aiglsbach","type":"Kreisangehörige_Gemeinde"},"district":{"key":"09273","name":"Kelheim","type":"Landkreis"},"federalState":{"key":"09","name":"Bayern"}},{"name":"Schwalbenäcker","postalCode":"84089","locality":"Aiglsbach","municipality":{"key":"09273113","name":"Aiglsbach","type":"Kreisangehörige_Gemeinde"},"district":{"key":"09273","name":"Kelheim","type":"Landkreis"},"federalState":{"key":"09","name":"Bayern"}},{"name":"Sommeraustr.","postalCode":"84089","locality":"Aiglsbach","municipality":{"key":"09273113","name":"Aiglsbach","type":"Kreisangehörige_Gemeinde"},"district":{"key":"09273","name":"Kelheim","type":"Landkreis"},"federalState":{"key":"09","name":"Bayern"}},{"name":"Steinbergstr.","postalCode":"84089","locality":"Aiglsbach","municipality":{"key":"09273113","name":"Aiglsbach","type":"Kreisangehörige_Gemeinde"},"district":{"key":"09273","name":"Kelheim","type":"Landkreis"},"federalState":{"key":"09","name":"Bayern"}},{"name":"Teuertinger Str.","postalCode":"93309","locality":"Kelheim","municipality":{"key":"09273137","name":"Kelheim, St","type":"Stadt"},"district":{"key":"09273","name":"Kelheim","type":"Landkreis"},"federalState":{"key":"09","name":"Bayern"}},{"name":"Tilsiter Str.","postalCode":"93309","locality":"Kelheim","municipality":{"key":"09273137","name":"Kelheim, St","type":"Stadt"},"district":{"key":"09273","name":"Kelheim","type":"Landkreis"},"federalState":{"key":"09","name":"Bayern"}},{"name":"Torhausplatz","postalCode":"93309","locality":"Kelheim","municipality":{"key":"09273137","name":"Kelheim, St","type":"Stadt"},"district":{"key":"09273","name":"Kelheim","type":"Landkreis"},"federalState":{"key":"09","name":"Bayern"}},{"name":"Traubenweg","postalCode":"93309","locality":"Kelheim","municipality":{"key":"09273137","name":"Kelheim, St","type":"Stadt"},"district":{"key":"09273","name":"Kelheim","type":"Landkreis"},"federalState":{"key":"09","name":"Bayern"}},{"name":"Triftstr.","postalCode":"93309","locality":"Kelheim","municipality":{"key":"09273137","name":"Kelheim, St","type":"Stadt"},"district":{"key":"09273","name":"Kelheim","type":"Landkreis"},"federalState":{"key":"09","name":"Bayern"}},{"name":"Tulpenring","postalCode":"93309","locality":"Kelheim","municipality":{"key":"09273137","name":"Kelheim, St","type":"Stadt"},"district":{"key":"09273","name":"Kelheim","type":"Landkreis"},"federalState":{"key":"09","name":"Bayern"}},{"name":"Tulpenstr.","postalCode":"93309","locality":"Kelheim","municipality":{"key":"09273137","name":"Kelheim, St","type":"Stadt"},"district":{"key":"09273","name":"Kelheim","type":"Landkreis"},"federalState":{"key":"09","name":"Bayern"}},{"name":"Uferstr.","postalCode":"93309","locality":"Kelheim","municipality":{"key":"09273137","name":"Kelheim, St","type":"Stadt"},"district":{"key":"09273","name":"Kelheim","type":"Landkreis"},"federalState":{"key":"09","name":"Bayern"}},{"name":"Ulrichstr.","postalCode":"93309","locality":"Kelheim","municipality":{"key":"09273137","name":"Kelheim, St","type":"Stadt"},"district":{"key":"09273","name":"Kelheim","type":"Landkreis"},"federalState":{"key":"09","name":"Bayern"}},{"name":"Untere Dorfgasse","postalCode":"93309","locality":"Kelheim","municipality":{"key":"09273137","name":"Kelheim, St","type":"Stadt"},"district":{"key":"09273","name":"Kelheim","type":"Landkreis"},"federalState":{"key":"09","name":"Bayern"}},{"name":"Unterer Sand","postalCode":"55596","locality":"Waldböckelheim","municipality":{"key":"07133107","name":"Waldböckelheim","type":"Kreisangehörige_Gemeinde"},"district":{"key":"07133","name":"Bad Kreuznach","type":"Landkreis"},"federalState":{"key":"07","name":"Rheinland-Pfalz"}},{"name":"Untergasse","postalCode":"55599","locality":"Gau-Bickelheim","municipality":{"key":"07331030","name":"Gau-Bickelheim","type":"Kreisangehörige_Gemeinde"},"district":{"key":"07331","name":"Alzey-Worms","type":"Landkreis"},"federalState":{"key":"07","name":"Rheinland-Pfalz"}},{"name":"Unter Mayen","postalCode":"55596","locality":"Waldböckelheim","municipality":{"key":"07133107","name":"Waldböckelheim","type":"Kreisangehörige_Gemeinde"},"district":{"key":"07133","name":"Bad Kreuznach","type":"Landkreis"},"federalState":{"key":"07","name":"Rheinland-Pfalz"}},{"name":"Urnenring","postalCode":"93309","locality":"Kelheim","municipality":{"key":"09273137","name":"Kelheim, St","type":"Stadt"},"district":{"key":"09273","name":"Kelheim","type":"Landkreis"},"federalState":{"key":"09","name":"Bayern"}},{"name":"Veilchenstr.","postalCode":"93309","locality":"Kelheim","municipality":{"key":"09273137","name":"Kelheim, St","type":"Stadt"},"district":{"key":"09273","name":"Kelheim","type":"Landkreis"},"federalState":{"key":"09","name":"Bayern"}},{"name":"Vogelsang","postalCode":"55596","locality":"Waldböckelheim","municipality":{"key":"07133107","name":"Waldböckelheim","type":"Kreisangehörige_Gemeinde"},"district":{"key":"07133","name":"Bad Kreuznach","type":"Landkreis"},"federalState":{"key":"07","name":"Rheinland-Pfalz"}},{"name":"Von-Eichendorff-Str.","postalCode":"93309","locality":"Kelheim","municipality":{"key":"09273137","name":"Kelheim, St","type":"Stadt"},"district":{"key":"09273","name":"Kelheim","type":"Landkreis"},"federalState":{"key":"09","name":"Bayern"}},{"name":"Vordere Mauergasse","postalCode":"55599","locality":"Gau-Bickelheim","municipality":{"key":"07331030","name":"Gau-Bickelheim","type":"Kreisangehörige_Gemeinde"},"district":{"key":"07331","name":"Alzey-Worms","type":"Landkreis"},"federalState":{"key":"07","name":"Rheinland-Pfalz"}},{"name":"Wiedenfeldstr.","postalCode":"84089","locality":"Aiglsbach","municipality":{"key":"09273113","name":"Aiglsbach","type":"Kreisangehörige_Gemeinde"},"district":{"key":"09273","name":"Kelheim","type":"Landkreis"},"federalState":{"key":"09","name":"Bayern"}},{"name":"Winzerlohweg","postalCode":"84089","locality":"Aiglsbach","municipality":{"key":"09273113","name":"Aiglsbach","type":"Kreisangehörige_Gemeinde"},"district":{"key":"09273","name":"Kelheim","type":"Landkreis"},"federalState":{"key":"09","name":"Bayern"}},{"name":"Ziegeleistr.","postalCode":"84089","locality":"Aiglsbach","municipality":{"key":"09273113","name":"Aiglsbach","type":"Kreisangehörige_Gemeinde"},"district":{"key":"09273","name":"Kelheim","type":"Landkreis"},"federalState":{"key":"09","name":"Bayern"}},{"name":"Östliche Weinstr.","postalCode":"93309","locality":"Kelheim","municipality":{"key":"09273137","name":"Kelheim, St","type":"Stadt"},"district":{"key":"09273","name":"Kelheim","type":"Landkreis"},"federalState":{"key":"09","name":"Bayern"}},]