[{"name":"Ahornweg","postalCode":"97659","locality":"Schönau a.d.Brend","municipality":{"key":"09673163","name":"Schönau a.d.Brend","type":"Kreisangehörige_Gemeinde"},"district":{"key":"09673","name":"Rhön-Grabfeld","type":"Landkreis"},"federalState":{"key":"09","name":"Bayern"}},{"name":"Am Kirchberg","postalCode":"97659","locality":"Schönau a.d.Brend","municipality":{"key":"09673163","name":"Schönau a.d.Brend","type":"Kreisangehörige_Gemeinde"},"district":{"key":"09673","name":"Rhön-Grabfeld","type":"Landkreis"},"federalState":{"key":"09","name":"Bayern"}},{"name":"Arthur-Johlige-Weg","postalCode":"97659","locality":"Schönau a.d.Brend","municipality":{"key":"09673163","name":"Schönau a.d.Brend","type":"Kreisangehörige_Gemeinde"},"district":{"key":"09673","name":"Rhön-Grabfeld","type":"Landkreis"},"federalState":{"key":"09","name":"Bayern"}},{"name":"Auerhahnstr.","postalCode":"97659","locality":"Schönau a.d.Brend","municipality":{"key":"09673163","name":"Schönau a.d.Brend","type":"Kreisangehörige_Gemeinde"},"district":{"key":"09673","name":"Rhön-Grabfeld","type":"Landkreis"},"federalState":{"key":"09","name":"Bayern"}},{"name":"Bergstr.","postalCode":"97659","locality":"Schönau a.d.Brend","municipality":{"key":"09673163","name":"Schönau a.d.Brend","type":"Kreisangehörige_Gemeinde"},"district":{"key":"09673","name":"Rhön-Grabfeld","type":"Landkreis"},"federalState":{"key":"09","name":"Bayern"}},{"name":"Birkenweg","postalCode":"97659","locality":"Schönau a.d.Brend","municipality":{"key":"09673163","name":"Schönau a.d.Brend","type":"Kreisangehörige_Gemeinde"},"district":{"key":"09673","name":"Rhön-Grabfeld","type":"Landkreis"},"federalState":{"key":"09","name":"Bayern"}},{"name":"Brendstr.","postalCode":"97659","locality":"Schönau a.d.Brend","municipality":{"key":"09673163","name":"Schönau a.d.Brend","type":"Kreisangehörige_Gemeinde"},"district":{"key":"09673","name":"Rhön-Grabfeld","type":"Landkreis"},"federalState":{"key":"09","name":"Bayern"}},{"name":"Burgwallbacher Str.","postalCode":"97659","locality":"Schönau a.d.Brend","municipality":{"key":"09673163","name":"Schönau a.d.Brend","type":"Kreisangehörige_Gemeinde"},"district":{"key":"09673","name":"Rhön-Grabfeld","type":"Landkreis"},"federalState":{"key":"09","name":"Bayern"}},{"name":"Burgweg","postalCode":"97659","locality":"Schönau a.d.Brend","municipality":{"key":"09673163","name":"Schönau a.d.Brend","type":"Kreisangehörige_Gemeinde"},"district":{"key":"09673","name":"Rhön-Grabfeld","type":"Landkreis"},"federalState":{"key":"09","name":"Bayern"}},{"name":"Fliederweg","postalCode":"97659","locality":"Schönau a.d.Brend","municipality":{"key":"09673163","name":"Schönau a.d.Brend","type":"Kreisangehörige_Gemeinde"},"district":{"key":"09673","name":"Rhön-Grabfeld","type":"Landkreis"},"federalState":{"key":"09","name":"Bayern"}},{"name":"Forstweg","postalCode":"97659","locality":"Schönau a.d.Brend","municipality":{"key":"09673163","name":"Schönau a.d.Brend","type":"Kreisangehörige_Gemeinde"},"district":{"key":"09673","name":"Rhön-Grabfeld","type":"Landkreis"},"federalState":{"key":"09","name":"Bayern"}},{"name":"Freigartenweg","postalCode":"97659","locality":"Schönau a.d.Brend","municipality":{"key":"09673163","name":"Schönau a.d.Brend","type":"Kreisangehörige_Gemeinde"},"district":{"key":"09673","name":"Rhön-Grabfeld","type":"Landkreis"},"federalState":{"key":"09","name":"Bayern"}},{"name":"Gartenstr.","postalCode":"97659","locality":"Schönau a.d.Brend","municipality":{"key":"09673163","name":"Schönau a.d.Brend","type":"Kreisangehörige_Gemeinde"},"district":{"key":"09673","name":"Rhön-Grabfeld","type":"Landkreis"},"federalState":{"key":"09","name":"Bayern"}},{"name":"Hagweg","postalCode":"97659","locality":"Schönau a.d.Brend","municipality":{"key":"09673163","name":"Schönau a.d.Brend","type":"Kreisangehörige_Gemeinde"},"district":{"key":"09673","name":"Rhön-Grabfeld","type":"Landkreis"},"federalState":{"key":"09","name":"Bayern"}},{"name":"Kirchweg","postalCode":"97659","locality":"Schönau a.d.Brend","municipality":{"key":"09673163","name":"Schönau a.d.Brend","type":"Kreisangehörige_Gemeinde"},"district":{"key":"09673","name":"Rhön-Grabfeld","type":"Landkreis"},"federalState":{"key":"09","name":"Bayern"}},{"name":"Klosterpfad","postalCode":"97659","locality":"Schönau a.d.Brend","municipality":{"key":"09673163","name":"Schönau a.d.Brend","type":"Kreisangehörige_Gemeinde"},"district":{"key":"09673","name":"Rhön-Grabfeld","type":"Landkreis"},"federalState":{"key":"09","name":"Bayern"}},{"name":"Kreuzbergstr.","postalCode":"97659","locality":"Schönau a.d.Brend","municipality":{"key":"09673163","name":"Schönau a.d.Brend","type":"Kreisangehörige_Gemeinde"},"district":{"key":"09673","name":"Rhön-Grabfeld","type":"Landkreis"},"federalState":{"key":"09","name":"Bayern"}},{"name":"Krummbacher Str.","postalCode":"97659","locality":"Schönau a.d.Brend","municipality":{"key":"09673163","name":"Schönau a.d.Brend","type":"Kreisangehörige_Gemeinde"},"district":{"key":"09673","name":"Rhön-Grabfeld","type":"Landkreis"},"federalState":{"key":"09","name":"Bayern"}},{"name":"Liesbachstr.","postalCode":"97659","locality":"Schönau a.d.Brend","municipality":{"key":"09673163","name":"Schönau a.d.Brend","type":"Kreisangehörige_Gemeinde"},"district":{"key":"09673","name":"Rhön-Grabfeld","type":"Landkreis"},"federalState":{"key":"09","name":"Bayern"}},{"name":"Markbergstr.","postalCode":"97659","locality":"Schönau a.d.Brend","municipality":{"key":"09673163","name":"Schönau a.d.Brend","type":"Kreisangehörige_Gemeinde"},"district":{"key":"09673","name":"Rhön-Grabfeld","type":"Landkreis"},"federalState":{"key":"09","name":"Bayern"}},{"name":"Mühlweg","postalCode":"97659","locality":"Schönau a.d.Brend","municipality":{"key":"09673163","name":"Schönau a.d.Brend","type":"Kreisangehörige_Gemeinde"},"district":{"key":"09673","name":"Rhön-Grabfeld","type":"Landkreis"},"federalState":{"key":"09","name":"Bayern"}},{"name":"Otto-Feick-Weg","postalCode":"97659","locality":"Schönau a.d.Brend","municipality":{"key":"09673163","name":"Schönau a.d.Brend","type":"Kreisangehörige_Gemeinde"},"district":{"key":"09673","name":"Rhön-Grabfeld","type":"Landkreis"},"federalState":{"key":"09","name":"Bayern"}},{"name":"Rhönstr.","postalCode":"97659","locality":"Schönau a.d.Brend","municipality":{"key":"09673163","name":"Schönau a.d.Brend","type":"Kreisangehörige_Gemeinde"},"district":{"key":"09673","name":"Rhön-Grabfeld","type":"Landkreis"},"federalState":{"key":"09","name":"Bayern"}},{"name":"Salzforststr.","postalCode":"97659","locality":"Schönau a.d.Brend","municipality":{"key":"09673163","name":"Schönau a.d.Brend","type":"Kreisangehörige_Gemeinde"},"district":{"key":"09673","name":"Rhön-Grabfeld","type":"Landkreis"},"federalState":{"key":"09","name":"Bayern"}},{"name":"Sandweg","postalCode":"97659","locality":"Schönau a.d.Brend","municipality":{"key":"09673163","name":"Schönau a.d.Brend","type":"Kreisangehörige_Gemeinde"},"district":{"key":"09673","name":"Rhön-Grabfeld","type":"Landkreis"},"federalState":{"key":"09","name":"Bayern"}},{"name":"Schöpfengärtenweg","postalCode":"97659","locality":"Schönau a.d.Brend","municipality":{"key":"09673163","name":"Schönau a.d.Brend","type":"Kreisangehörige_Gemeinde"},"district":{"key":"09673","name":"Rhön-Grabfeld","type":"Landkreis"},"federalState":{"key":"09","name":"Bayern"}},{"name":"Seeweg","postalCode":"97659","locality":"Schönau a.d.Brend","municipality":{"key":"09673163","name":"Schönau a.d.Brend","type":"Kreisangehörige_Gemeinde"},"district":{"key":"09673","name":"Rhön-Grabfeld","type":"Landkreis"},"federalState":{"key":"09","name":"Bayern"}},{"name":"Sonnenstr.","postalCode":"97659","locality":"Schönau a.d.Brend","municipality":{"key":"09673163","name":"Schönau a.d.Brend","type":"Kreisangehörige_Gemeinde"},"district":{"key":"09673","name":"Rhön-Grabfeld","type":"Landkreis"},"federalState":{"key":"09","name":"Bayern"}},{"name":"Talblick","postalCode":"97659","locality":"Schönau a.d.Brend","municipality":{"key":"09673163","name":"Schönau a.d.Brend","type":"Kreisangehörige_Gemeinde"},"district":{"key":"09673","name":"Rhön-Grabfeld","type":"Landkreis"},"federalState":{"key":"09","name":"Bayern"}},{"name":"Tannenweg","postalCode":"97659","locality":"Schönau a.d.Brend","municipality":{"key":"09673163","name":"Schönau a.d.Brend","type":"Kreisangehörige_Gemeinde"},"district":{"key":"09673","name":"Rhön-Grabfeld","type":"Landkreis"},"federalState":{"key":"09","name":"Bayern"}},{"name":"Waldstr.","postalCode":"97659","locality":"Schönau a.d.Brend","municipality":{"key":"09673163","name":"Schönau a.d.Brend","type":"Kreisangehörige_Gemeinde"},"district":{"key":"09673","name":"Rhön-Grabfeld","type":"Landkreis"},"federalState":{"key":"09","name":"Bayern"}},{"name":"Wiesenweg","postalCode":"97659","locality":"Schönau a.d.Brend","municipality":{"key":"09673163","name":"Schönau a.d.Brend","type":"Kreisangehörige_Gemeinde"},"district":{"key":"09673","name":"Rhön-Grabfeld","type":"Landkreis"},"federalState":{"key":"09","name":"Bayern"}},{"name":"Zwanzigacker","postalCode":"97659","locality":"Schönau a.d.Brend","municipality":{"key":"09673163","name":"Schönau a.d.Brend","type":"Kreisangehörige_Gemeinde"},"district":{"key":"09673","name":"Rhön-Grabfeld","type":"Landkreis"},"federalState":{"key":"09","name":"Bayern"}},]