[{"name":"Ackerstr.","postalCode":"40670","locality":"Meerbusch","municipality":{"key":"05162022","name":"Meerbusch, Stadt","type":"Stadt"},"district":{"key":"05162","name":"Rhein-Kreis Neuss","type":"Kreis"},"federalState":{"key":"05","name":"Nordrhein-Westfalen"}},{"name":"Ahornstr.","postalCode":"40667","locality":"Meerbusch","municipality":{"key":"05162022","name":"Meerbusch, Stadt","type":"Stadt"},"district":{"key":"05162","name":"Rhein-Kreis Neuss","type":"Kreis"},"federalState":{"key":"05","name":"Nordrhein-Westfalen"}},{"name":"Albertstr.","postalCode":"40668","locality":"Meerbusch","municipality":{"key":"05162022","name":"Meerbusch, Stadt","type":"Stadt"},"district":{"key":"05162","name":"Rhein-Kreis Neuss","type":"Kreis"},"federalState":{"key":"05","name":"Nordrhein-Westfalen"}},{"name":"Allensteiner Str.","postalCode":"40668","locality":"Meerbusch","municipality":{"key":"05162022","name":"Meerbusch, Stadt","type":"Stadt"},"district":{"key":"05162","name":"Rhein-Kreis Neuss","type":"Kreis"},"federalState":{"key":"05","name":"Nordrhein-Westfalen"}},{"name":"Alte Landstr.","postalCode":"40670","locality":"Meerbusch","municipality":{"key":"05162022","name":"Meerbusch, Stadt","type":"Stadt"},"district":{"key":"05162","name":"Rhein-Kreis Neuss","type":"Kreis"},"federalState":{"key":"05","name":"Nordrhein-Westfalen"}},{"name":"Alte Poststr.","postalCode":"40670","locality":"Meerbusch","municipality":{"key":"05162022","name":"Meerbusch, Stadt","type":"Stadt"},"district":{"key":"05162","name":"Rhein-Kreis Neuss","type":"Kreis"},"federalState":{"key":"05","name":"Nordrhein-Westfalen"}},{"name":"Alter Kirchweg","postalCode":"40667","locality":"Meerbusch","municipality":{"key":"05162022","name":"Meerbusch, Stadt","type":"Stadt"},"district":{"key":"05162","name":"Rhein-Kreis Neuss","type":"Kreis"},"federalState":{"key":"05","name":"Nordrhein-Westfalen"}},{"name":"Alte Wasserstr.","postalCode":"40668","locality":"Meerbusch","municipality":{"key":"05162022","name":"Meerbusch, Stadt","type":"Stadt"},"district":{"key":"05162","name":"Rhein-Kreis Neuss","type":"Kreis"},"federalState":{"key":"05","name":"Nordrhein-Westfalen"}},{"name":"Alt Langst","postalCode":"40668","locality":"Meerbusch","municipality":{"key":"05162022","name":"Meerbusch, Stadt","type":"Stadt"},"district":{"key":"05162","name":"Rhein-Kreis Neuss","type":"Kreis"},"federalState":{"key":"05","name":"Nordrhein-Westfalen"}},{"name":"Alt Schürkesfeld","postalCode":"40670","locality":"Meerbusch","municipality":{"key":"05162022","name":"Meerbusch, Stadt","type":"Stadt"},"district":{"key":"05162","name":"Rhein-Kreis Neuss","type":"Kreis"},"federalState":{"key":"05","name":"Nordrhein-Westfalen"}},{"name":"Am Alten Teich","postalCode":"40668","locality":"Meerbusch","municipality":{"key":"05162022","name":"Meerbusch, Stadt","type":"Stadt"},"district":{"key":"05162","name":"Rhein-Kreis Neuss","type":"Kreis"},"federalState":{"key":"05","name":"Nordrhein-Westfalen"}},{"name":"Amandusstr.","postalCode":"40670","locality":"Meerbusch","municipality":{"key":"05162022","name":"Meerbusch, Stadt","type":"Stadt"},"district":{"key":"05162","name":"Rhein-Kreis Neuss","type":"Kreis"},"federalState":{"key":"05","name":"Nordrhein-Westfalen"}},{"name":"Am Anker","postalCode":"40668","locality":"Meerbusch","municipality":{"key":"05162022","name":"Meerbusch, Stadt","type":"Stadt"},"district":{"key":"05162","name":"Rhein-Kreis Neuss","type":"Kreis"},"federalState":{"key":"05","name":"Nordrhein-Westfalen"}},{"name":"Am Bach","postalCode":"40668","locality":"Meerbusch","municipality":{"key":"05162022","name":"Meerbusch, Stadt","type":"Stadt"},"district":{"key":"05162","name":"Rhein-Kreis Neuss","type":"Kreis"},"federalState":{"key":"05","name":"Nordrhein-Westfalen"}},{"name":"Am Berg","postalCode":"40670","locality":"Meerbusch","municipality":{"key":"05162022","name":"Meerbusch, Stadt","type":"Stadt"},"district":{"key":"05162","name":"Rhein-Kreis Neuss","type":"Kreis"},"federalState":{"key":"05","name":"Nordrhein-Westfalen"}},{"name":"Am Blumenfeld","postalCode":"40667","locality":"Meerbusch","municipality":{"key":"05162022","name":"Meerbusch, Stadt","type":"Stadt"},"district":{"key":"05162","name":"Rhein-Kreis Neuss","type":"Kreis"},"federalState":{"key":"05","name":"Nordrhein-Westfalen"}},{"name":"Am Böllershof","postalCode":"40670","locality":"Meerbusch","municipality":{"key":"05162022","name":"Meerbusch, Stadt","type":"Stadt"},"district":{"key":"05162","name":"Rhein-Kreis Neuss","type":"Kreis"},"federalState":{"key":"05","name":"Nordrhein-Westfalen"}},{"name":"Am Breienacker","postalCode":"40670","locality":"Meerbusch","municipality":{"key":"05162022","name":"Meerbusch, Stadt","type":"Stadt"},"district":{"key":"05162","name":"Rhein-Kreis Neuss","type":"Kreis"},"federalState":{"key":"05","name":"Nordrhein-Westfalen"}},{"name":"Am Breil","postalCode":"40667","locality":"Meerbusch","municipality":{"key":"05162022","name":"Meerbusch, Stadt","type":"Stadt"},"district":{"key":"05162","name":"Rhein-Kreis Neuss","type":"Kreis"},"federalState":{"key":"05","name":"Nordrhein-Westfalen"}},{"name":"Am Bürgerwäldchen","postalCode":"40668","locality":"Meerbusch","municipality":{"key":"05162022","name":"Meerbusch, Stadt","type":"Stadt"},"district":{"key":"05162","name":"Rhein-Kreis Neuss","type":"Kreis"},"federalState":{"key":"05","name":"Nordrhein-Westfalen"}},{"name":"Am Buschend","postalCode":"40670","locality":"Meerbusch","municipality":{"key":"05162022","name":"Meerbusch, Stadt","type":"Stadt"},"district":{"key":"05162","name":"Rhein-Kreis Neuss","type":"Kreis"},"federalState":{"key":"05","name":"Nordrhein-Westfalen"}},{"name":"Am Damm","postalCode":"40668","locality":"Meerbusch","municipality":{"key":"05162022","name":"Meerbusch, Stadt","type":"Stadt"},"district":{"key":"05162","name":"Rhein-Kreis Neuss","type":"Kreis"},"federalState":{"key":"05","name":"Nordrhein-Westfalen"}},{"name":"Am Dyck","postalCode":"40668","locality":"Meerbusch","municipality":{"key":"05162022","name":"Meerbusch, Stadt","type":"Stadt"},"district":{"key":"05162","name":"Rhein-Kreis Neuss","type":"Kreis"},"federalState":{"key":"05","name":"Nordrhein-Westfalen"}},{"name":"Am Eichenkreuz","postalCode":"40667","locality":"Meerbusch","municipality":{"key":"05162022","name":"Meerbusch, Stadt","type":"Stadt"},"district":{"key":"05162","name":"Rhein-Kreis Neuss","type":"Kreis"},"federalState":{"key":"05","name":"Nordrhein-Westfalen"}},{"name":"Am Eisenbrand","postalCode":"40667","locality":"Meerbusch","municipality":{"key":"05162022","name":"Meerbusch, Stadt","type":"Stadt"},"district":{"key":"05162","name":"Rhein-Kreis Neuss","type":"Kreis"},"federalState":{"key":"05","name":"Nordrhein-Westfalen"}},{"name":"Am Farnacker","postalCode":"40667","locality":"Meerbusch","municipality":{"key":"05162022","name":"Meerbusch, Stadt","type":"Stadt"},"district":{"key":"05162","name":"Rhein-Kreis Neuss","type":"Kreis"},"federalState":{"key":"05","name":"Nordrhein-Westfalen"}},{"name":"Am Feldbrand","postalCode":"40667","locality":"Meerbusch","municipality":{"key":"05162022","name":"Meerbusch, Stadt","type":"Stadt"},"district":{"key":"05162","name":"Rhein-Kreis Neuss","type":"Kreis"},"federalState":{"key":"05","name":"Nordrhein-Westfalen"}},{"name":"Am Flehkamp","postalCode":"40667","locality":"Meerbusch","municipality":{"key":"05162022","name":"Meerbusch, Stadt","type":"Stadt"},"district":{"key":"05162","name":"Rhein-Kreis Neuss","type":"Kreis"},"federalState":{"key":"05","name":"Nordrhein-Westfalen"}},{"name":"Am Forstenberg","postalCode":"40668","locality":"Meerbusch","municipality":{"key":"05162022","name":"Meerbusch, Stadt","type":"Stadt"},"district":{"key":"05162","name":"Rhein-Kreis Neuss","type":"Kreis"},"federalState":{"key":"05","name":"Nordrhein-Westfalen"}},{"name":"Am Fronhof","postalCode":"40667","locality":"Meerbusch","municipality":{"key":"05162022","name":"Meerbusch, Stadt","type":"Stadt"},"district":{"key":"05162","name":"Rhein-Kreis Neuss","type":"Kreis"},"federalState":{"key":"05","name":"Nordrhein-Westfalen"}},{"name":"Am Fußfall","postalCode":"40670","locality":"Meerbusch","municipality":{"key":"05162022","name":"Meerbusch, Stadt","type":"Stadt"},"district":{"key":"05162","name":"Rhein-Kreis Neuss","type":"Kreis"},"federalState":{"key":"05","name":"Nordrhein-Westfalen"}},{"name":"Am Görgestor","postalCode":"40670","locality":"Meerbusch","municipality":{"key":"05162022","name":"Meerbusch, Stadt","type":"Stadt"},"district":{"key":"05162","name":"Rhein-Kreis Neuss","type":"Kreis"},"federalState":{"key":"05","name":"Nordrhein-Westfalen"}},{"name":"Am Grünen Weg","postalCode":"40667","locality":"Meerbusch","municipality":{"key":"05162022","name":"Meerbusch, Stadt","type":"Stadt"},"district":{"key":"05162","name":"Rhein-Kreis Neuss","type":"Kreis"},"federalState":{"key":"05","name":"Nordrhein-Westfalen"}},{"name":"Am Gumpertzhof","postalCode":"40670","locality":"Meerbusch","municipality":{"key":"05162022","name":"Meerbusch, Stadt","type":"Stadt"},"district":{"key":"05162","name":"Rhein-Kreis Neuss","type":"Kreis"},"federalState":{"key":"05","name":"Nordrhein-Westfalen"}},{"name":"Am Gutort","postalCode":"40670","locality":"Meerbusch","municipality":{"key":"05162022","name":"Meerbusch, Stadt","type":"Stadt"},"district":{"key":"05162","name":"Rhein-Kreis Neuss","type":"Kreis"},"federalState":{"key":"05","name":"Nordrhein-Westfalen"}},{"name":"Am Gutshof","postalCode":"40667","locality":"Meerbusch","municipality":{"key":"05162022","name":"Meerbusch, Stadt","type":"Stadt"},"district":{"key":"05162","name":"Rhein-Kreis Neuss","type":"Kreis"},"federalState":{"key":"05","name":"Nordrhein-Westfalen"}},{"name":"Am Hagelkreuz","postalCode":"40670","locality":"Meerbusch","municipality":{"key":"05162022","name":"Meerbusch, Stadt","type":"Stadt"},"district":{"key":"05162","name":"Rhein-Kreis Neuss","type":"Kreis"},"federalState":{"key":"05","name":"Nordrhein-Westfalen"}},{"name":"Am Hannenhof","postalCode":"40668","locality":"Meerbusch","municipality":{"key":"05162022","name":"Meerbusch, Stadt","type":"Stadt"},"district":{"key":"05162","name":"Rhein-Kreis Neuss","type":"Kreis"},"federalState":{"key":"05","name":"Nordrhein-Westfalen"}},{"name":"Am Haushof","postalCode":"40670","locality":"Meerbusch","municipality":{"key":"05162022","name":"Meerbusch, Stadt","type":"Stadt"},"district":{"key":"05162","name":"Rhein-Kreis Neuss","type":"Kreis"},"federalState":{"key":"05","name":"Nordrhein-Westfalen"}},{"name":"Am Heidbergdamm","postalCode":"40668","locality":"Meerbusch","municipality":{"key":"05162022","name":"Meerbusch, Stadt","type":"Stadt"},"district":{"key":"05162","name":"Rhein-Kreis Neuss","type":"Kreis"},"federalState":{"key":"05","name":"Nordrhein-Westfalen"}},{"name":"Am Hoterhof","postalCode":"40670","locality":"Meerbusch","municipality":{"key":"05162022","name":"Meerbusch, Stadt","type":"Stadt"},"district":{"key":"05162","name":"Rhein-Kreis Neuss","type":"Kreis"},"federalState":{"key":"05","name":"Nordrhein-Westfalen"}},{"name":"Am Hövel","postalCode":"40667","locality":"Meerbusch","municipality":{"key":"05162022","name":"Meerbusch, Stadt","type":"Stadt"},"district":{"key":"05162","name":"Rhein-Kreis Neuss","type":"Kreis"},"federalState":{"key":"05","name":"Nordrhein-Westfalen"}},{"name":"Am Ismerhof","postalCode":"40668","locality":"Meerbusch","municipality":{"key":"05162022","name":"Meerbusch, Stadt","type":"Stadt"},"district":{"key":"05162","name":"Rhein-Kreis Neuss","type":"Kreis"},"federalState":{"key":"05","name":"Nordrhein-Westfalen"}},{"name":"Am Junkerstrauch","postalCode":"40667","locality":"Meerbusch","municipality":{"key":"05162022","name":"Meerbusch, Stadt","type":"Stadt"},"district":{"key":"05162","name":"Rhein-Kreis Neuss","type":"Kreis"},"federalState":{"key":"05","name":"Nordrhein-Westfalen"}},{"name":"Am Kamberg","postalCode":"40668","locality":"Meerbusch","municipality":{"key":"05162022","name":"Meerbusch, Stadt","type":"Stadt"},"district":{"key":"05162","name":"Rhein-Kreis Neuss","type":"Kreis"},"federalState":{"key":"05","name":"Nordrhein-Westfalen"}},{"name":"Am Kapellengraben","postalCode":"40670","locality":"Meerbusch","municipality":{"key":"05162022","name":"Meerbusch, Stadt","type":"Stadt"},"district":{"key":"05162","name":"Rhein-Kreis Neuss","type":"Kreis"},"federalState":{"key":"05","name":"Nordrhein-Westfalen"}},{"name":"Am Kapittelsbusch","postalCode":"40667","locality":"Meerbusch","municipality":{"key":"05162022","name":"Meerbusch, Stadt","type":"Stadt"},"district":{"key":"05162","name":"Rhein-Kreis Neuss","type":"Kreis"},"federalState":{"key":"05","name":"Nordrhein-Westfalen"}},{"name":"Am Kirchendriesch","postalCode":"40667","locality":"Meerbusch","municipality":{"key":"05162022","name":"Meerbusch, Stadt","type":"Stadt"},"district":{"key":"05162","name":"Rhein-Kreis Neuss","type":"Kreis"},"federalState":{"key":"05","name":"Nordrhein-Westfalen"}},{"name":"Am Kniekamp","postalCode":"40667","locality":"Meerbusch","municipality":{"key":"05162022","name":"Meerbusch, Stadt","type":"Stadt"},"district":{"key":"05162","name":"Rhein-Kreis Neuss","type":"Kreis"},"federalState":{"key":"05","name":"Nordrhein-Westfalen"}},{"name":"Am Krüershof","postalCode":"40667","locality":"Meerbusch","municipality":{"key":"05162022","name":"Meerbusch, Stadt","type":"Stadt"},"district":{"key":"05162","name":"Rhein-Kreis Neuss","type":"Kreis"},"federalState":{"key":"05","name":"Nordrhein-Westfalen"}},{"name":"Bachstr.","postalCode":"40670","locality":"Meerbusch","municipality":{"key":"05162022","name":"Meerbusch, Stadt","type":"Stadt"},"district":{"key":"05162","name":"Rhein-Kreis Neuss","type":"Kreis"},"federalState":{"key":"05","name":"Nordrhein-Westfalen"}},{"name":"Badendonker Str.","postalCode":"40667","locality":"Meerbusch","municipality":{"key":"05162022","name":"Meerbusch, Stadt","type":"Stadt"},"district":{"key":"05162","name":"Rhein-Kreis Neuss","type":"Kreis"},"federalState":{"key":"05","name":"Nordrhein-Westfalen"}},{"name":"Badener Weg","postalCode":"40667","locality":"Meerbusch","municipality":{"key":"05162022","name":"Meerbusch, Stadt","type":"Stadt"},"district":{"key":"05162","name":"Rhein-Kreis Neuss","type":"Kreis"},"federalState":{"key":"05","name":"Nordrhein-Westfalen"}},{"name":"Bahnhofsweg","postalCode":"40670","locality":"Meerbusch","municipality":{"key":"05162022","name":"Meerbusch, Stadt","type":"Stadt"},"district":{"key":"05162","name":"Rhein-Kreis Neuss","type":"Kreis"},"federalState":{"key":"05","name":"Nordrhein-Westfalen"}},{"name":"Barbara-Gerretz-Str.","postalCode":"40670","locality":"Meerbusch","municipality":{"key":"05162022","name":"Meerbusch, Stadt","type":"Stadt"},"district":{"key":"05162","name":"Rhein-Kreis Neuss","type":"Kreis"},"federalState":{"key":"05","name":"Nordrhein-Westfalen"}},{"name":"Beethovenstr.","postalCode":"40670","locality":"Meerbusch","municipality":{"key":"05162022","name":"Meerbusch, Stadt","type":"Stadt"},"district":{"key":"05162","name":"Rhein-Kreis Neuss","type":"Kreis"},"federalState":{"key":"05","name":"Nordrhein-Westfalen"}},{"name":"Bergfeld","postalCode":"40670","locality":"Meerbusch","municipality":{"key":"05162022","name":"Meerbusch, Stadt","type":"Stadt"},"district":{"key":"05162","name":"Rhein-Kreis Neuss","type":"Kreis"},"federalState":{"key":"05","name":"Nordrhein-Westfalen"}},{"name":"Berliner Str.","postalCode":"40668","locality":"Meerbusch","municipality":{"key":"05162022","name":"Meerbusch, Stadt","type":"Stadt"},"district":{"key":"05162","name":"Rhein-Kreis Neuss","type":"Kreis"},"federalState":{"key":"05","name":"Nordrhein-Westfalen"}},{"name":"Birkemesweg","postalCode":"40670","locality":"Meerbusch","municipality":{"key":"05162022","name":"Meerbusch, Stadt","type":"Stadt"},"district":{"key":"05162","name":"Rhein-Kreis Neuss","type":"Kreis"},"federalState":{"key":"05","name":"Nordrhein-Westfalen"}},{"name":"Birkendonk","postalCode":"40668","locality":"Meerbusch","municipality":{"key":"05162022","name":"Meerbusch, Stadt","type":"Stadt"},"district":{"key":"05162","name":"Rhein-Kreis Neuss","type":"Kreis"},"federalState":{"key":"05","name":"Nordrhein-Westfalen"}},{"name":"Birkenhofweg","postalCode":"40668","locality":"Meerbusch","municipality":{"key":"05162022","name":"Meerbusch, Stadt","type":"Stadt"},"district":{"key":"05162","name":"Rhein-Kreis Neuss","type":"Kreis"},"federalState":{"key":"05","name":"Nordrhein-Westfalen"}},{"name":"Birkenweg","postalCode":"40670","locality":"Meerbusch","municipality":{"key":"05162022","name":"Meerbusch, Stadt","type":"Stadt"},"district":{"key":"05162","name":"Rhein-Kreis Neuss","type":"Kreis"},"federalState":{"key":"05","name":"Nordrhein-Westfalen"}},{"name":"Birkhuhnweg","postalCode":"40668","locality":"Meerbusch","municipality":{"key":"05162022","name":"Meerbusch, Stadt","type":"Stadt"},"district":{"key":"05162","name":"Rhein-Kreis Neuss","type":"Kreis"},"federalState":{"key":"05","name":"Nordrhein-Westfalen"}},{"name":"Bismarckstr.","postalCode":"40668","locality":"Meerbusch","municipality":{"key":"05162022","name":"Meerbusch, Stadt","type":"Stadt"},"district":{"key":"05162","name":"Rhein-Kreis Neuss","type":"Kreis"},"federalState":{"key":"05","name":"Nordrhein-Westfalen"}},{"name":"Blumenstr.","postalCode":"40667","locality":"Meerbusch","municipality":{"key":"05162022","name":"Meerbusch, Stadt","type":"Stadt"},"district":{"key":"05162","name":"Rhein-Kreis Neuss","type":"Kreis"},"federalState":{"key":"05","name":"Nordrhein-Westfalen"}},{"name":"Böhlerstr.","postalCode":"40667","locality":"Meerbusch","municipality":{"key":"05162022","name":"Meerbusch, Stadt","type":"Stadt"},"district":{"key":"05162","name":"Rhein-Kreis Neuss","type":"Kreis"},"federalState":{"key":"05","name":"Nordrhein-Westfalen"}},{"name":"Böhlerweg","postalCode":"40667","locality":"Meerbusch","municipality":{"key":"05162022","name":"Meerbusch, Stadt","type":"Stadt"},"district":{"key":"05162","name":"Rhein-Kreis Neuss","type":"Kreis"},"federalState":{"key":"05","name":"Nordrhein-Westfalen"}},{"name":"Bommershöfe","postalCode":"40670","locality":"Meerbusch","municipality":{"key":"05162022","name":"Meerbusch, Stadt","type":"Stadt"},"district":{"key":"05162","name":"Rhein-Kreis Neuss","type":"Kreis"},"federalState":{"key":"05","name":"Nordrhein-Westfalen"}},{"name":"Bommershöfer Weg","postalCode":"40670","locality":"Meerbusch","municipality":{"key":"05162022","name":"Meerbusch, Stadt","type":"Stadt"},"district":{"key":"05162","name":"Rhein-Kreis Neuss","type":"Kreis"},"federalState":{"key":"05","name":"Nordrhein-Westfalen"}},{"name":"Bommersweg","postalCode":"40670","locality":"Meerbusch","municipality":{"key":"05162022","name":"Meerbusch, Stadt","type":"Stadt"},"district":{"key":"05162","name":"Rhein-Kreis Neuss","type":"Kreis"},"federalState":{"key":"05","name":"Nordrhein-Westfalen"}},{"name":"Bongardgasse","postalCode":"40670","locality":"Meerbusch","municipality":{"key":"05162022","name":"Meerbusch, Stadt","type":"Stadt"},"district":{"key":"05162","name":"Rhein-Kreis Neuss","type":"Kreis"},"federalState":{"key":"05","name":"Nordrhein-Westfalen"}},{"name":"Bösinghovener Str.","postalCode":"40668","locality":"Meerbusch","municipality":{"key":"05162022","name":"Meerbusch, Stadt","type":"Stadt"},"district":{"key":"05162","name":"Rhein-Kreis Neuss","type":"Kreis"},"federalState":{"key":"05","name":"Nordrhein-Westfalen"}},{"name":"Bovert","postalCode":"40670","locality":"Meerbusch","municipality":{"key":"05162022","name":"Meerbusch, Stadt","type":"Stadt"},"district":{"key":"05162","name":"Rhein-Kreis Neuss","type":"Kreis"},"federalState":{"key":"05","name":"Nordrhein-Westfalen"}},{"name":"Boverter Kirchweg","postalCode":"40670","locality":"Meerbusch","municipality":{"key":"05162022","name":"Meerbusch, Stadt","type":"Stadt"},"district":{"key":"05162","name":"Rhein-Kreis Neuss","type":"Kreis"},"federalState":{"key":"05","name":"Nordrhein-Westfalen"}},{"name":"Brahmsweg","postalCode":"40670","locality":"Meerbusch","municipality":{"key":"05162022","name":"Meerbusch, Stadt","type":"Stadt"},"district":{"key":"05162","name":"Rhein-Kreis Neuss","type":"Kreis"},"federalState":{"key":"05","name":"Nordrhein-Westfalen"}},{"name":"Brauersweg","postalCode":"40670","locality":"Meerbusch","municipality":{"key":"05162022","name":"Meerbusch, Stadt","type":"Stadt"},"district":{"key":"05162","name":"Rhein-Kreis Neuss","type":"Kreis"},"federalState":{"key":"05","name":"Nordrhein-Westfalen"}},{"name":"Breite Str.","postalCode":"40670","locality":"Meerbusch","municipality":{"key":"05162022","name":"Meerbusch, Stadt","type":"Stadt"},"district":{"key":"05162","name":"Rhein-Kreis Neuss","type":"Kreis"},"federalState":{"key":"05","name":"Nordrhein-Westfalen"}},{"name":"Breslauer Str.","postalCode":"40668","locality":"Meerbusch","municipality":{"key":"05162022","name":"Meerbusch, Stadt","type":"Stadt"},"district":{"key":"05162","name":"Rhein-Kreis Neuss","type":"Kreis"},"federalState":{"key":"05","name":"Nordrhein-Westfalen"}},{"name":"Bretonenstr.","postalCode":"40670","locality":"Meerbusch","municipality":{"key":"05162022","name":"Meerbusch, Stadt","type":"Stadt"},"district":{"key":"05162","name":"Rhein-Kreis Neuss","type":"Kreis"},"federalState":{"key":"05","name":"Nordrhein-Westfalen"}},{"name":"Brockhofweg","postalCode":"40668","locality":"Meerbusch","municipality":{"key":"05162022","name":"Meerbusch, Stadt","type":"Stadt"},"district":{"key":"05162","name":"Rhein-Kreis Neuss","type":"Kreis"},"federalState":{"key":"05","name":"Nordrhein-Westfalen"}},{"name":"Broichweg","postalCode":"40667","locality":"Meerbusch","municipality":{"key":"05162022","name":"Meerbusch, Stadt","type":"Stadt"},"district":{"key":"05162","name":"Rhein-Kreis Neuss","type":"Kreis"},"federalState":{"key":"05","name":"Nordrhein-Westfalen"}},{"name":"Brucknerstr.","postalCode":"40670","locality":"Meerbusch","municipality":{"key":"05162022","name":"Meerbusch, Stadt","type":"Stadt"},"district":{"key":"05162","name":"Rhein-Kreis Neuss","type":"Kreis"},"federalState":{"key":"05","name":"Nordrhein-Westfalen"}},{"name":"Brüggener Weg","postalCode":"40670","locality":"Meerbusch","municipality":{"key":"05162022","name":"Meerbusch, Stadt","type":"Stadt"},"district":{"key":"05162","name":"Rhein-Kreis Neuss","type":"Kreis"},"federalState":{"key":"05","name":"Nordrhein-Westfalen"}},{"name":"Brühler Weg","postalCode":"40667","locality":"Meerbusch","municipality":{"key":"05162022","name":"Meerbusch, Stadt","type":"Stadt"},"district":{"key":"05162","name":"Rhein-Kreis Neuss","type":"Kreis"},"federalState":{"key":"05","name":"Nordrhein-Westfalen"}},{"name":"Brunnenstr.","postalCode":"40668","locality":"Meerbusch","municipality":{"key":"05162022","name":"Meerbusch, Stadt","type":"Stadt"},"district":{"key":"05162","name":"Rhein-Kreis Neuss","type":"Kreis"},"federalState":{"key":"05","name":"Nordrhein-Westfalen"}},{"name":"Buchendonk","postalCode":"40668","locality":"Meerbusch","municipality":{"key":"05162022","name":"Meerbusch, Stadt","type":"Stadt"},"district":{"key":"05162","name":"Rhein-Kreis Neuss","type":"Kreis"},"federalState":{"key":"05","name":"Nordrhein-Westfalen"}},{"name":"Buchenweg","postalCode":"40667","locality":"Meerbusch","municipality":{"key":"05162022","name":"Meerbusch, Stadt","type":"Stadt"},"district":{"key":"05162","name":"Rhein-Kreis Neuss","type":"Kreis"},"federalState":{"key":"05","name":"Nordrhein-Westfalen"}},{"name":"Büdericher Allee","postalCode":"40667","locality":"Meerbusch","municipality":{"key":"05162022","name":"Meerbusch, Stadt","type":"Stadt"},"district":{"key":"05162","name":"Rhein-Kreis Neuss","type":"Kreis"},"federalState":{"key":"05","name":"Nordrhein-Westfalen"}},{"name":"Buschstr.","postalCode":"40667","locality":"Meerbusch","municipality":{"key":"05162022","name":"Meerbusch, Stadt","type":"Stadt"},"district":{"key":"05162","name":"Rhein-Kreis Neuss","type":"Kreis"},"federalState":{"key":"05","name":"Nordrhein-Westfalen"}},{"name":"Buschstr.","postalCode":"40670","locality":"Meerbusch","municipality":{"key":"05162022","name":"Meerbusch, Stadt","type":"Stadt"},"district":{"key":"05162","name":"Rhein-Kreis Neuss","type":"Kreis"},"federalState":{"key":"05","name":"Nordrhein-Westfalen"}},{"name":"Bussardweg","postalCode":"40670","locality":"Meerbusch","municipality":{"key":"05162022","name":"Meerbusch, Stadt","type":"Stadt"},"district":{"key":"05162","name":"Rhein-Kreis Neuss","type":"Kreis"},"federalState":{"key":"05","name":"Nordrhein-Westfalen"}},{"name":"Camesallee","postalCode":"40670","locality":"Meerbusch","municipality":{"key":"05162022","name":"Meerbusch, Stadt","type":"Stadt"},"district":{"key":"05162","name":"Rhein-Kreis Neuss","type":"Kreis"},"federalState":{"key":"05","name":"Nordrhein-Westfalen"}},{"name":"Camesstr.","postalCode":"40670","locality":"Meerbusch","municipality":{"key":"05162022","name":"Meerbusch, Stadt","type":"Stadt"},"district":{"key":"05162","name":"Rhein-Kreis Neuss","type":"Kreis"},"federalState":{"key":"05","name":"Nordrhein-Westfalen"}},{"name":"Carmenstr.","postalCode":"40668","locality":"Meerbusch","municipality":{"key":"05162022","name":"Meerbusch, Stadt","type":"Stadt"},"district":{"key":"05162","name":"Rhein-Kreis Neuss","type":"Kreis"},"federalState":{"key":"05","name":"Nordrhein-Westfalen"}},{"name":"Chlodwigstr.","postalCode":"40668","locality":"Meerbusch","municipality":{"key":"05162022","name":"Meerbusch, Stadt","type":"Stadt"},"district":{"key":"05162","name":"Rhein-Kreis Neuss","type":"Kreis"},"federalState":{"key":"05","name":"Nordrhein-Westfalen"}},{"name":"Chopinstr.","postalCode":"40670","locality":"Meerbusch","municipality":{"key":"05162022","name":"Meerbusch, Stadt","type":"Stadt"},"district":{"key":"05162","name":"Rhein-Kreis Neuss","type":"Kreis"},"federalState":{"key":"05","name":"Nordrhein-Westfalen"}},{"name":"Claudiusstr.","postalCode":"40668","locality":"Meerbusch","municipality":{"key":"05162022","name":"Meerbusch, Stadt","type":"Stadt"},"district":{"key":"05162","name":"Rhein-Kreis Neuss","type":"Kreis"},"federalState":{"key":"05","name":"Nordrhein-Westfalen"}},{"name":"Comeniusstr.","postalCode":"40670","locality":"Meerbusch","municipality":{"key":"05162022","name":"Meerbusch, Stadt","type":"Stadt"},"district":{"key":"05162","name":"Rhein-Kreis Neuss","type":"Kreis"},"federalState":{"key":"05","name":"Nordrhein-Westfalen"}},{"name":"Cranachstr.","postalCode":"40667","locality":"Meerbusch","municipality":{"key":"05162022","name":"Meerbusch, Stadt","type":"Stadt"},"district":{"key":"05162","name":"Rhein-Kreis Neuss","type":"Kreis"},"federalState":{"key":"05","name":"Nordrhein-Westfalen"}},{"name":"Daddersweg","postalCode":"40667","locality":"Meerbusch","municipality":{"key":"05162022","name":"Meerbusch, Stadt","type":"Stadt"},"district":{"key":"05162","name":"Rhein-Kreis Neuss","type":"Kreis"},"federalState":{"key":"05","name":"Nordrhein-Westfalen"}},{"name":"Dahlienpfad","postalCode":"40670","locality":"Meerbusch","municipality":{"key":"05162022","name":"Meerbusch, Stadt","type":"Stadt"},"district":{"key":"05162","name":"Rhein-Kreis Neuss","type":"Kreis"},"federalState":{"key":"05","name":"Nordrhein-Westfalen"}},{"name":"Danziger Str.","postalCode":"40670","locality":"Meerbusch","municipality":{"key":"05162022","name":"Meerbusch, Stadt","type":"Stadt"},"district":{"key":"05162","name":"Rhein-Kreis Neuss","type":"Kreis"},"federalState":{"key":"05","name":"Nordrhein-Westfalen"}},{"name":"Dechant-Faßbender-Str.","postalCode":"40670","locality":"Meerbusch","municipality":{"key":"05162022","name":"Meerbusch, Stadt","type":"Stadt"},"district":{"key":"05162","name":"Rhein-Kreis Neuss","type":"Kreis"},"federalState":{"key":"05","name":"Nordrhein-Westfalen"}},{"name":"Deichweg","postalCode":"40668","locality":"Meerbusch","municipality":{"key":"05162022","name":"Meerbusch, Stadt","type":"Stadt"},"district":{"key":"05162","name":"Rhein-Kreis Neuss","type":"Kreis"},"federalState":{"key":"05","name":"Nordrhein-Westfalen"}},{"name":"Der Kreuz-Wildweg","postalCode":"40667","locality":"Meerbusch","municipality":{"key":"05162022","name":"Meerbusch, Stadt","type":"Stadt"},"district":{"key":"05162","name":"Rhein-Kreis Neuss","type":"Kreis"},"federalState":{"key":"05","name":"Nordrhein-Westfalen"}},{"name":"Der Kreuz-Wildweg","postalCode":"40670","locality":"Meerbusch","municipality":{"key":"05162022","name":"Meerbusch, Stadt","type":"Stadt"},"district":{"key":"05162","name":"Rhein-Kreis Neuss","type":"Kreis"},"federalState":{"key":"05","name":"Nordrhein-Westfalen"}},{"name":"Dietrich-Bonhoeffer-Str.","postalCode":"40667","locality":"Meerbusch","municipality":{"key":"05162022","name":"Meerbusch, Stadt","type":"Stadt"},"district":{"key":"05162","name":"Rhein-Kreis Neuss","type":"Kreis"},"federalState":{"key":"05","name":"Nordrhein-Westfalen"}},{"name":"Dohlenweg","postalCode":"40668","locality":"Meerbusch","municipality":{"key":"05162022","name":"Meerbusch, Stadt","type":"Stadt"},"district":{"key":"05162","name":"Rhein-Kreis Neuss","type":"Kreis"},"federalState":{"key":"05","name":"Nordrhein-Westfalen"}},{"name":"Dompfaffweg","postalCode":"40668","locality":"Meerbusch","municipality":{"key":"05162022","name":"Meerbusch, Stadt","type":"Stadt"},"district":{"key":"05162","name":"Rhein-Kreis Neuss","type":"Kreis"},"federalState":{"key":"05","name":"Nordrhein-Westfalen"}},{"name":"Dorfstr.","postalCode":"40667","locality":"Meerbusch","municipality":{"key":"05162022","name":"Meerbusch, Stadt","type":"Stadt"},"district":{"key":"05162","name":"Rhein-Kreis Neuss","type":"Kreis"},"federalState":{"key":"05","name":"Nordrhein-Westfalen"}},{"name":"Dörperweg","postalCode":"40670","locality":"Meerbusch","municipality":{"key":"05162022","name":"Meerbusch, Stadt","type":"Stadt"},"district":{"key":"05162","name":"Rhein-Kreis Neuss","type":"Kreis"},"federalState":{"key":"05","name":"Nordrhein-Westfalen"}},{"name":"Dreispitzweg","postalCode":"40668","locality":"Meerbusch","municipality":{"key":"05162022","name":"Meerbusch, Stadt","type":"Stadt"},"district":{"key":"05162","name":"Rhein-Kreis Neuss","type":"Kreis"},"federalState":{"key":"05","name":"Nordrhein-Westfalen"}},{"name":"Dresdener Str.","postalCode":"40670","locality":"Meerbusch","municipality":{"key":"05162022","name":"Meerbusch, Stadt","type":"Stadt"},"district":{"key":"05162","name":"Rhein-Kreis Neuss","type":"Kreis"},"federalState":{"key":"05","name":"Nordrhein-Westfalen"}},{"name":"Dr.-Franz-Schütz-Platz","postalCode":"40667","locality":"Meerbusch","municipality":{"key":"05162022","name":"Meerbusch, Stadt","type":"Stadt"},"district":{"key":"05162","name":"Rhein-Kreis Neuss","type":"Kreis"},"federalState":{"key":"05","name":"Nordrhein-Westfalen"}},{"name":"Dr. Hans-Lampenscherff-Platz","postalCode":"40670","locality":"Meerbusch","municipality":{"key":"05162022","name":"Meerbusch, Stadt","type":"Stadt"},"district":{"key":"05162","name":"Rhein-Kreis Neuss","type":"Kreis"},"federalState":{"key":"05","name":"Nordrhein-Westfalen"}},{"name":"Drosselweg","postalCode":"40667","locality":"Meerbusch","municipality":{"key":"05162022","name":"Meerbusch, Stadt","type":"Stadt"},"district":{"key":"05162","name":"Rhein-Kreis Neuss","type":"Kreis"},"federalState":{"key":"05","name":"Nordrhein-Westfalen"}},{"name":"Dr.-Wilhelm-Hilser-Str.","postalCode":"40667","locality":"Meerbusch","municipality":{"key":"05162022","name":"Meerbusch, Stadt","type":"Stadt"},"district":{"key":"05162","name":"Rhein-Kreis Neuss","type":"Kreis"},"federalState":{"key":"05","name":"Nordrhein-Westfalen"}},{"name":"Dückersstr.","postalCode":"40667","locality":"Meerbusch","municipality":{"key":"05162022","name":"Meerbusch, Stadt","type":"Stadt"},"district":{"key":"05162","name":"Rhein-Kreis Neuss","type":"Kreis"},"federalState":{"key":"05","name":"Nordrhein-Westfalen"}},{"name":"Dülsweg","postalCode":"40667","locality":"Meerbusch","municipality":{"key":"05162022","name":"Meerbusch, Stadt","type":"Stadt"},"district":{"key":"05162","name":"Rhein-Kreis Neuss","type":"Kreis"},"federalState":{"key":"05","name":"Nordrhein-Westfalen"}},{"name":"Dürerstr.","postalCode":"40667","locality":"Meerbusch","municipality":{"key":"05162022","name":"Meerbusch, Stadt","type":"Stadt"},"district":{"key":"05162","name":"Rhein-Kreis Neuss","type":"Kreis"},"federalState":{"key":"05","name":"Nordrhein-Westfalen"}},{"name":"Düsseldorfer Str.","postalCode":"40667","locality":"Meerbusch","municipality":{"key":"05162022","name":"Meerbusch, Stadt","type":"Stadt"},"district":{"key":"05162","name":"Rhein-Kreis Neuss","type":"Kreis"},"federalState":{"key":"05","name":"Nordrhein-Westfalen"}},{"name":"Düsselweg","postalCode":"40670","locality":"Meerbusch","municipality":{"key":"05162022","name":"Meerbusch, Stadt","type":"Stadt"},"district":{"key":"05162","name":"Rhein-Kreis Neuss","type":"Kreis"},"federalState":{"key":"05","name":"Nordrhein-Westfalen"}},{"name":"Earl-Bakken-Platz","postalCode":"40670","locality":"Meerbusch","municipality":{"key":"05162022","name":"Meerbusch, Stadt","type":"Stadt"},"district":{"key":"05162","name":"Rhein-Kreis Neuss","type":"Kreis"},"federalState":{"key":"05","name":"Nordrhein-Westfalen"}},{"name":"Eibenweg","postalCode":"40668","locality":"Meerbusch","municipality":{"key":"05162022","name":"Meerbusch, Stadt","type":"Stadt"},"district":{"key":"05162","name":"Rhein-Kreis Neuss","type":"Kreis"},"federalState":{"key":"05","name":"Nordrhein-Westfalen"}},{"name":"Eichendorffstr.","postalCode":"40668","locality":"Meerbusch","municipality":{"key":"05162022","name":"Meerbusch, Stadt","type":"Stadt"},"district":{"key":"05162","name":"Rhein-Kreis Neuss","type":"Kreis"},"federalState":{"key":"05","name":"Nordrhein-Westfalen"}},{"name":"Eichenweg","postalCode":"40667","locality":"Meerbusch","municipality":{"key":"05162022","name":"Meerbusch, Stadt","type":"Stadt"},"district":{"key":"05162","name":"Rhein-Kreis Neuss","type":"Kreis"},"federalState":{"key":"05","name":"Nordrhein-Westfalen"}},{"name":"Einsteinstr.","postalCode":"40670","locality":"Meerbusch","municipality":{"key":"05162022","name":"Meerbusch, Stadt","type":"Stadt"},"district":{"key":"05162","name":"Rhein-Kreis Neuss","type":"Kreis"},"federalState":{"key":"05","name":"Nordrhein-Westfalen"}},{"name":"Elbinger Str.","postalCode":"40670","locality":"Meerbusch","municipality":{"key":"05162022","name":"Meerbusch, Stadt","type":"Stadt"},"district":{"key":"05162","name":"Rhein-Kreis Neuss","type":"Kreis"},"federalState":{"key":"05","name":"Nordrhein-Westfalen"}},{"name":"Elisabethstr.","postalCode":"40668","locality":"Meerbusch","municipality":{"key":"05162022","name":"Meerbusch, Stadt","type":"Stadt"},"district":{"key":"05162","name":"Rhein-Kreis Neuss","type":"Kreis"},"federalState":{"key":"05","name":"Nordrhein-Westfalen"}},{"name":"Elsternweg","postalCode":"40668","locality":"Meerbusch","municipality":{"key":"05162022","name":"Meerbusch, Stadt","type":"Stadt"},"district":{"key":"05162","name":"Rhein-Kreis Neuss","type":"Kreis"},"federalState":{"key":"05","name":"Nordrhein-Westfalen"}},{"name":"Emil-Nolde-Weg","postalCode":"40670","locality":"Meerbusch","municipality":{"key":"05162022","name":"Meerbusch, Stadt","type":"Stadt"},"district":{"key":"05162","name":"Rhein-Kreis Neuss","type":"Kreis"},"federalState":{"key":"05","name":"Nordrhein-Westfalen"}},{"name":"Emmericher Weg","postalCode":"40670","locality":"Meerbusch","municipality":{"key":"05162022","name":"Meerbusch, Stadt","type":"Stadt"},"district":{"key":"05162","name":"Rhein-Kreis Neuss","type":"Kreis"},"federalState":{"key":"05","name":"Nordrhein-Westfalen"}},{"name":"Erftstr.","postalCode":"40670","locality":"Meerbusch","municipality":{"key":"05162022","name":"Meerbusch, Stadt","type":"Stadt"},"district":{"key":"05162","name":"Rhein-Kreis Neuss","type":"Kreis"},"federalState":{"key":"05","name":"Nordrhein-Westfalen"}},{"name":"Erich-Kästner-Str.","postalCode":"40670","locality":"Meerbusch","municipality":{"key":"05162022","name":"Meerbusch, Stadt","type":"Stadt"},"district":{"key":"05162","name":"Rhein-Kreis Neuss","type":"Kreis"},"federalState":{"key":"05","name":"Nordrhein-Westfalen"}},{"name":"Erikaweg","postalCode":"40670","locality":"Meerbusch","municipality":{"key":"05162022","name":"Meerbusch, Stadt","type":"Stadt"},"district":{"key":"05162","name":"Rhein-Kreis Neuss","type":"Kreis"},"federalState":{"key":"05","name":"Nordrhein-Westfalen"}},{"name":"Erlenweg","postalCode":"40667","locality":"Meerbusch","municipality":{"key":"05162022","name":"Meerbusch, Stadt","type":"Stadt"},"district":{"key":"05162","name":"Rhein-Kreis Neuss","type":"Kreis"},"federalState":{"key":"05","name":"Nordrhein-Westfalen"}},{"name":"Erschsträßchen","postalCode":"40670","locality":"Meerbusch","municipality":{"key":"05162022","name":"Meerbusch, Stadt","type":"Stadt"},"district":{"key":"05162","name":"Rhein-Kreis Neuss","type":"Kreis"},"federalState":{"key":"05","name":"Nordrhein-Westfalen"}},{"name":"Erwin-Heerich-Str.","postalCode":"40670","locality":"Meerbusch","municipality":{"key":"05162022","name":"Meerbusch, Stadt","type":"Stadt"},"district":{"key":"05162","name":"Rhein-Kreis Neuss","type":"Kreis"},"federalState":{"key":"05","name":"Nordrhein-Westfalen"}},{"name":"Eschendonk","postalCode":"40668","locality":"Meerbusch","municipality":{"key":"05162022","name":"Meerbusch, Stadt","type":"Stadt"},"district":{"key":"05162","name":"Rhein-Kreis Neuss","type":"Kreis"},"federalState":{"key":"05","name":"Nordrhein-Westfalen"}},{"name":"Eschenweg","postalCode":"40667","locality":"Meerbusch","municipality":{"key":"05162022","name":"Meerbusch, Stadt","type":"Stadt"},"district":{"key":"05162","name":"Rhein-Kreis Neuss","type":"Kreis"},"federalState":{"key":"05","name":"Nordrhein-Westfalen"}},{"name":"Espenweg","postalCode":"40668","locality":"Meerbusch","municipality":{"key":"05162022","name":"Meerbusch, Stadt","type":"Stadt"},"district":{"key":"05162","name":"Rhein-Kreis Neuss","type":"Kreis"},"federalState":{"key":"05","name":"Nordrhein-Westfalen"}},{"name":"Eulengrund","postalCode":"40668","locality":"Meerbusch","municipality":{"key":"05162022","name":"Meerbusch, Stadt","type":"Stadt"},"district":{"key":"05162","name":"Rhein-Kreis Neuss","type":"Kreis"},"federalState":{"key":"05","name":"Nordrhein-Westfalen"}},{"name":"Falkenweg","postalCode":"40670","locality":"Meerbusch","municipality":{"key":"05162022","name":"Meerbusch, Stadt","type":"Stadt"},"district":{"key":"05162","name":"Rhein-Kreis Neuss","type":"Kreis"},"federalState":{"key":"05","name":"Nordrhein-Westfalen"}},{"name":"Fasanenweg","postalCode":"40668","locality":"Meerbusch","municipality":{"key":"05162022","name":"Meerbusch, Stadt","type":"Stadt"},"district":{"key":"05162","name":"Rhein-Kreis Neuss","type":"Kreis"},"federalState":{"key":"05","name":"Nordrhein-Westfalen"}},{"name":"Feldblumenweg","postalCode":"40668","locality":"Meerbusch","municipality":{"key":"05162022","name":"Meerbusch, Stadt","type":"Stadt"},"district":{"key":"05162","name":"Rhein-Kreis Neuss","type":"Kreis"},"federalState":{"key":"05","name":"Nordrhein-Westfalen"}},{"name":"Feldstr.","postalCode":"40667","locality":"Meerbusch","municipality":{"key":"05162022","name":"Meerbusch, Stadt","type":"Stadt"},"district":{"key":"05162","name":"Rhein-Kreis Neuss","type":"Kreis"},"federalState":{"key":"05","name":"Nordrhein-Westfalen"}},{"name":"Fellerhöfer Weg","postalCode":"40670","locality":"Meerbusch","municipality":{"key":"05162022","name":"Meerbusch, Stadt","type":"Stadt"},"district":{"key":"05162","name":"Rhein-Kreis Neuss","type":"Kreis"},"federalState":{"key":"05","name":"Nordrhein-Westfalen"}},{"name":"Fichtenweg","postalCode":"40667","locality":"Meerbusch","municipality":{"key":"05162022","name":"Meerbusch, Stadt","type":"Stadt"},"district":{"key":"05162","name":"Rhein-Kreis Neuss","type":"Kreis"},"federalState":{"key":"05","name":"Nordrhein-Westfalen"}},{"name":"Finkenweg","postalCode":"40667","locality":"Meerbusch","municipality":{"key":"05162022","name":"Meerbusch, Stadt","type":"Stadt"},"district":{"key":"05162","name":"Rhein-Kreis Neuss","type":"Kreis"},"federalState":{"key":"05","name":"Nordrhein-Westfalen"}},{"name":"Fischelner Str.","postalCode":"40668","locality":"Meerbusch","municipality":{"key":"05162022","name":"Meerbusch, Stadt","type":"Stadt"},"district":{"key":"05162","name":"Rhein-Kreis Neuss","type":"Kreis"},"federalState":{"key":"05","name":"Nordrhein-Westfalen"}},{"name":"Fliederstr.","postalCode":"40668","locality":"Meerbusch","municipality":{"key":"05162022","name":"Meerbusch, Stadt","type":"Stadt"},"district":{"key":"05162","name":"Rhein-Kreis Neuss","type":"Kreis"},"federalState":{"key":"05","name":"Nordrhein-Westfalen"}},{"name":"Florastr.","postalCode":"40667","locality":"Meerbusch","municipality":{"key":"05162022","name":"Meerbusch, Stadt","type":"Stadt"},"district":{"key":"05162","name":"Rhein-Kreis Neuss","type":"Kreis"},"federalState":{"key":"05","name":"Nordrhein-Westfalen"}},{"name":"Florianstr.","postalCode":"40668","locality":"Meerbusch","municipality":{"key":"05162022","name":"Meerbusch, Stadt","type":"Stadt"},"district":{"key":"05162","name":"Rhein-Kreis Neuss","type":"Kreis"},"federalState":{"key":"05","name":"Nordrhein-Westfalen"}},{"name":"Fontanestr.","postalCode":"40667","locality":"Meerbusch","municipality":{"key":"05162022","name":"Meerbusch, Stadt","type":"Stadt"},"district":{"key":"05162","name":"Rhein-Kreis Neuss","type":"Kreis"},"federalState":{"key":"05","name":"Nordrhein-Westfalen"}},{"name":"Forsthausweg","postalCode":"40667","locality":"Meerbusch","municipality":{"key":"05162022","name":"Meerbusch, Stadt","type":"Stadt"},"district":{"key":"05162","name":"Rhein-Kreis Neuss","type":"Kreis"},"federalState":{"key":"05","name":"Nordrhein-Westfalen"}},{"name":"Forststr.","postalCode":"40670","locality":"Meerbusch","municipality":{"key":"05162022","name":"Meerbusch, Stadt","type":"Stadt"},"district":{"key":"05162","name":"Rhein-Kreis Neuss","type":"Kreis"},"federalState":{"key":"05","name":"Nordrhein-Westfalen"}},{"name":"Fouesnantplatz","postalCode":"40670","locality":"Meerbusch","municipality":{"key":"05162022","name":"Meerbusch, Stadt","type":"Stadt"},"district":{"key":"05162","name":"Rhein-Kreis Neuss","type":"Kreis"},"federalState":{"key":"05","name":"Nordrhein-Westfalen"}},{"name":"Frankenweg","postalCode":"40667","locality":"Meerbusch","municipality":{"key":"05162022","name":"Meerbusch, Stadt","type":"Stadt"},"district":{"key":"05162","name":"Rhein-Kreis Neuss","type":"Kreis"},"federalState":{"key":"05","name":"Nordrhein-Westfalen"}},{"name":"Franz-Marc-Weg","postalCode":"40670","locality":"Meerbusch","municipality":{"key":"05162022","name":"Meerbusch, Stadt","type":"Stadt"},"district":{"key":"05162","name":"Rhein-Kreis Neuss","type":"Kreis"},"federalState":{"key":"05","name":"Nordrhein-Westfalen"}},{"name":"Franz-Schmitz-Weg","postalCode":"40668","locality":"Meerbusch","municipality":{"key":"05162022","name":"Meerbusch, Stadt","type":"Stadt"},"district":{"key":"05162","name":"Rhein-Kreis Neuss","type":"Kreis"},"federalState":{"key":"05","name":"Nordrhein-Westfalen"}},{"name":"Friedeberger Weg","postalCode":"40667","locality":"Meerbusch","municipality":{"key":"05162022","name":"Meerbusch, Stadt","type":"Stadt"},"district":{"key":"05162","name":"Rhein-Kreis Neuss","type":"Kreis"},"federalState":{"key":"05","name":"Nordrhein-Westfalen"}},{"name":"Friedenstr.","postalCode":"40667","locality":"Meerbusch","municipality":{"key":"05162022","name":"Meerbusch, Stadt","type":"Stadt"},"district":{"key":"05162","name":"Rhein-Kreis Neuss","type":"Kreis"},"federalState":{"key":"05","name":"Nordrhein-Westfalen"}},{"name":"Friedhofweg","postalCode":"40667","locality":"Meerbusch","municipality":{"key":"05162022","name":"Meerbusch, Stadt","type":"Stadt"},"district":{"key":"05162","name":"Rhein-Kreis Neuss","type":"Kreis"},"federalState":{"key":"05","name":"Nordrhein-Westfalen"}},{"name":"Friedrich-Ebert-Str.","postalCode":"40667","locality":"Meerbusch","municipality":{"key":"05162022","name":"Meerbusch, Stadt","type":"Stadt"},"district":{"key":"05162","name":"Rhein-Kreis Neuss","type":"Kreis"},"federalState":{"key":"05","name":"Nordrhein-Westfalen"}},{"name":"Friedrich-von-der-Leyen-Str.","postalCode":"40667","locality":"Meerbusch","municipality":{"key":"05162022","name":"Meerbusch, Stadt","type":"Stadt"},"district":{"key":"05162","name":"Rhein-Kreis Neuss","type":"Kreis"},"federalState":{"key":"05","name":"Nordrhein-Westfalen"}},{"name":"Fritz-Wendt-Str.","postalCode":"40670","locality":"Meerbusch","municipality":{"key":"05162022","name":"Meerbusch, Stadt","type":"Stadt"},"district":{"key":"05162","name":"Rhein-Kreis Neuss","type":"Kreis"},"federalState":{"key":"05","name":"Nordrhein-Westfalen"}},{"name":"Fröbelstr.","postalCode":"40670","locality":"Meerbusch","municipality":{"key":"05162022","name":"Meerbusch, Stadt","type":"Stadt"},"district":{"key":"05162","name":"Rhein-Kreis Neuss","type":"Kreis"},"federalState":{"key":"05","name":"Nordrhein-Westfalen"}},{"name":"Fronhofstr.","postalCode":"40668","locality":"Meerbusch","municipality":{"key":"05162022","name":"Meerbusch, Stadt","type":"Stadt"},"district":{"key":"05162","name":"Rhein-Kreis Neuss","type":"Kreis"},"federalState":{"key":"05","name":"Nordrhein-Westfalen"}},{"name":"Fuchspfad","postalCode":"40668","locality":"Meerbusch","municipality":{"key":"05162022","name":"Meerbusch, Stadt","type":"Stadt"},"district":{"key":"05162","name":"Rhein-Kreis Neuss","type":"Kreis"},"federalState":{"key":"05","name":"Nordrhein-Westfalen"}},{"name":"Függershofweg","postalCode":"40668","locality":"Meerbusch","municipality":{"key":"05162022","name":"Meerbusch, Stadt","type":"Stadt"},"district":{"key":"05162","name":"Rhein-Kreis Neuss","type":"Kreis"},"federalState":{"key":"05","name":"Nordrhein-Westfalen"}},{"name":"Further Weg","postalCode":"40667","locality":"Meerbusch","municipality":{"key":"05162022","name":"Meerbusch, Stadt","type":"Stadt"},"district":{"key":"05162","name":"Rhein-Kreis Neuss","type":"Kreis"},"federalState":{"key":"05","name":"Nordrhein-Westfalen"}},{"name":"Galgenweg","postalCode":"40670","locality":"Meerbusch","municipality":{"key":"05162022","name":"Meerbusch, Stadt","type":"Stadt"},"district":{"key":"05162","name":"Rhein-Kreis Neuss","type":"Kreis"},"federalState":{"key":"05","name":"Nordrhein-Westfalen"}},{"name":"Gartenpark Haus Meer","postalCode":"40667","locality":"Meerbusch","municipality":{"key":"05162022","name":"Meerbusch, Stadt","type":"Stadt"},"district":{"key":"05162","name":"Rhein-Kreis Neuss","type":"Kreis"},"federalState":{"key":"05","name":"Nordrhein-Westfalen"}},{"name":"Gartenstr.","postalCode":"40667","locality":"Meerbusch","municipality":{"key":"05162022","name":"Meerbusch, Stadt","type":"Stadt"},"district":{"key":"05162","name":"Rhein-Kreis Neuss","type":"Kreis"},"federalState":{"key":"05","name":"Nordrhein-Westfalen"}},{"name":"Gatherstr.","postalCode":"40670","locality":"Meerbusch","municipality":{"key":"05162022","name":"Meerbusch, Stadt","type":"Stadt"},"district":{"key":"05162","name":"Rhein-Kreis Neuss","type":"Kreis"},"federalState":{"key":"05","name":"Nordrhein-Westfalen"}},{"name":"Geisweg","postalCode":"40668","locality":"Meerbusch","municipality":{"key":"05162022","name":"Meerbusch, Stadt","type":"Stadt"},"district":{"key":"05162","name":"Rhein-Kreis Neuss","type":"Kreis"},"federalState":{"key":"05","name":"Nordrhein-Westfalen"}},{"name":"Gelderner Weg","postalCode":"40670","locality":"Meerbusch","municipality":{"key":"05162022","name":"Meerbusch, Stadt","type":"Stadt"},"district":{"key":"05162","name":"Rhein-Kreis Neuss","type":"Kreis"},"federalState":{"key":"05","name":"Nordrhein-Westfalen"}},{"name":"Gelleper Str.","postalCode":"40668","locality":"Meerbusch","municipality":{"key":"05162022","name":"Meerbusch, Stadt","type":"Stadt"},"district":{"key":"05162","name":"Rhein-Kreis Neuss","type":"Kreis"},"federalState":{"key":"05","name":"Nordrhein-Westfalen"}},{"name":"Gelvenweg","postalCode":"40670","locality":"Meerbusch","municipality":{"key":"05162022","name":"Meerbusch, Stadt","type":"Stadt"},"district":{"key":"05162","name":"Rhein-Kreis Neuss","type":"Kreis"},"federalState":{"key":"05","name":"Nordrhein-Westfalen"}},{"name":"Geranienweg","postalCode":"40670","locality":"Meerbusch","municipality":{"key":"05162022","name":"Meerbusch, Stadt","type":"Stadt"},"district":{"key":"05162","name":"Rhein-Kreis Neuss","type":"Kreis"},"federalState":{"key":"05","name":"Nordrhein-Westfalen"}},{"name":"Gereonstr.","postalCode":"40667","locality":"Meerbusch","municipality":{"key":"05162022","name":"Meerbusch, Stadt","type":"Stadt"},"district":{"key":"05162","name":"Rhein-Kreis Neuss","type":"Kreis"},"federalState":{"key":"05","name":"Nordrhein-Westfalen"}},{"name":"Gerhard-Bacher-Str.","postalCode":"40670","locality":"Meerbusch","municipality":{"key":"05162022","name":"Meerbusch, Stadt","type":"Stadt"},"district":{"key":"05162","name":"Rhein-Kreis Neuss","type":"Kreis"},"federalState":{"key":"05","name":"Nordrhein-Westfalen"}},{"name":"Gerhart-Hauptmann-Str.","postalCode":"40670","locality":"Meerbusch","municipality":{"key":"05162022","name":"Meerbusch, Stadt","type":"Stadt"},"district":{"key":"05162","name":"Rhein-Kreis Neuss","type":"Kreis"},"federalState":{"key":"05","name":"Nordrhein-Westfalen"}},{"name":"Geschwister-Scholl-Str.","postalCode":"40667","locality":"Meerbusch","municipality":{"key":"05162022","name":"Meerbusch, Stadt","type":"Stadt"},"district":{"key":"05162","name":"Rhein-Kreis Neuss","type":"Kreis"},"federalState":{"key":"05","name":"Nordrhein-Westfalen"}},{"name":"Giesenend","postalCode":"40670","locality":"Meerbusch","municipality":{"key":"05162022","name":"Meerbusch, Stadt","type":"Stadt"},"district":{"key":"05162","name":"Rhein-Kreis Neuss","type":"Kreis"},"federalState":{"key":"05","name":"Nordrhein-Westfalen"}},{"name":"Giesenender Kirchweg","postalCode":"40670","locality":"Meerbusch","municipality":{"key":"05162022","name":"Meerbusch, Stadt","type":"Stadt"},"district":{"key":"05162","name":"Rhein-Kreis Neuss","type":"Kreis"},"federalState":{"key":"05","name":"Nordrhein-Westfalen"}},{"name":"Ginsterweg","postalCode":"40668","locality":"Meerbusch","municipality":{"key":"05162022","name":"Meerbusch, Stadt","type":"Stadt"},"district":{"key":"05162","name":"Rhein-Kreis Neuss","type":"Kreis"},"federalState":{"key":"05","name":"Nordrhein-Westfalen"}},{"name":"Gladiolenweg","postalCode":"40670","locality":"Meerbusch","municipality":{"key":"05162022","name":"Meerbusch, Stadt","type":"Stadt"},"district":{"key":"05162","name":"Rhein-Kreis Neuss","type":"Kreis"},"federalState":{"key":"05","name":"Nordrhein-Westfalen"}},{"name":"Gocher Weg","postalCode":"40670","locality":"Meerbusch","municipality":{"key":"05162022","name":"Meerbusch, Stadt","type":"Stadt"},"district":{"key":"05162","name":"Rhein-Kreis Neuss","type":"Kreis"},"federalState":{"key":"05","name":"Nordrhein-Westfalen"}},{"name":"Goethestr.","postalCode":"40670","locality":"Meerbusch","municipality":{"key":"05162022","name":"Meerbusch, Stadt","type":"Stadt"},"district":{"key":"05162","name":"Rhein-Kreis Neuss","type":"Kreis"},"federalState":{"key":"05","name":"Nordrhein-Westfalen"}},{"name":"Goldammerweg","postalCode":"40670","locality":"Meerbusch","municipality":{"key":"05162022","name":"Meerbusch, Stadt","type":"Stadt"},"district":{"key":"05162","name":"Rhein-Kreis Neuss","type":"Kreis"},"federalState":{"key":"05","name":"Nordrhein-Westfalen"}},{"name":"Gonellastr.","postalCode":"40668","locality":"Meerbusch","municipality":{"key":"05162022","name":"Meerbusch, Stadt","type":"Stadt"},"district":{"key":"05162","name":"Rhein-Kreis Neuss","type":"Kreis"},"federalState":{"key":"05","name":"Nordrhein-Westfalen"}},{"name":"Görgesheideweg","postalCode":"40670","locality":"Meerbusch","municipality":{"key":"05162022","name":"Meerbusch, Stadt","type":"Stadt"},"district":{"key":"05162","name":"Rhein-Kreis Neuss","type":"Kreis"},"federalState":{"key":"05","name":"Nordrhein-Westfalen"}},{"name":"Görresstr.","postalCode":"40670","locality":"Meerbusch","municipality":{"key":"05162022","name":"Meerbusch, Stadt","type":"Stadt"},"district":{"key":"05162","name":"Rhein-Kreis Neuss","type":"Kreis"},"federalState":{"key":"05","name":"Nordrhein-Westfalen"}},{"name":"Gottlieb-Daimler-Str.","postalCode":"40670","locality":"Meerbusch","municipality":{"key":"05162022","name":"Meerbusch, Stadt","type":"Stadt"},"district":{"key":"05162","name":"Rhein-Kreis Neuss","type":"Kreis"},"federalState":{"key":"05","name":"Nordrhein-Westfalen"}},{"name":"Grabenstr.","postalCode":"40667","locality":"Meerbusch","municipality":{"key":"05162022","name":"Meerbusch, Stadt","type":"Stadt"},"district":{"key":"05162","name":"Rhein-Kreis Neuss","type":"Kreis"},"federalState":{"key":"05","name":"Nordrhein-Westfalen"}},{"name":"Greifswalder Str.","postalCode":"40668","locality":"Meerbusch","municipality":{"key":"05162022","name":"Meerbusch, Stadt","type":"Stadt"},"district":{"key":"05162","name":"Rhein-Kreis Neuss","type":"Kreis"},"federalState":{"key":"05","name":"Nordrhein-Westfalen"}},{"name":"Greit","postalCode":"40670","locality":"Meerbusch","municipality":{"key":"05162022","name":"Meerbusch, Stadt","type":"Stadt"},"district":{"key":"05162","name":"Rhein-Kreis Neuss","type":"Kreis"},"federalState":{"key":"05","name":"Nordrhein-Westfalen"}},{"name":"Grenzstr.","postalCode":"40670","locality":"Meerbusch","municipality":{"key":"05162022","name":"Meerbusch, Stadt","type":"Stadt"},"district":{"key":"05162","name":"Rhein-Kreis Neuss","type":"Kreis"},"federalState":{"key":"05","name":"Nordrhein-Westfalen"}},{"name":"Große Gasse","postalCode":"40668","locality":"Meerbusch","municipality":{"key":"05162022","name":"Meerbusch, Stadt","type":"Stadt"},"district":{"key":"05162","name":"Rhein-Kreis Neuss","type":"Kreis"},"federalState":{"key":"05","name":"Nordrhein-Westfalen"}},{"name":"Grünstr.","postalCode":"40667","locality":"Meerbusch","municipality":{"key":"05162022","name":"Meerbusch, Stadt","type":"Stadt"},"district":{"key":"05162","name":"Rhein-Kreis Neuss","type":"Kreis"},"federalState":{"key":"05","name":"Nordrhein-Westfalen"}},{"name":"Gruttorfer Weg","postalCode":"40670","locality":"Meerbusch","municipality":{"key":"05162022","name":"Meerbusch, Stadt","type":"Stadt"},"district":{"key":"05162","name":"Rhein-Kreis Neuss","type":"Kreis"},"federalState":{"key":"05","name":"Nordrhein-Westfalen"}},{"name":"Gustav-van-Beek-Allee","postalCode":"40670","locality":"Meerbusch","municipality":{"key":"05162022","name":"Meerbusch, Stadt","type":"Stadt"},"district":{"key":"05162","name":"Rhein-Kreis Neuss","type":"Kreis"},"federalState":{"key":"05","name":"Nordrhein-Westfalen"}},{"name":"Gut Dyckhof","postalCode":"40667","locality":"Meerbusch","municipality":{"key":"05162022","name":"Meerbusch, Stadt","type":"Stadt"},"district":{"key":"05162","name":"Rhein-Kreis Neuss","type":"Kreis"},"federalState":{"key":"05","name":"Nordrhein-Westfalen"}},{"name":"Gutenbergstr.","postalCode":"40670","locality":"Meerbusch","municipality":{"key":"05162022","name":"Meerbusch, Stadt","type":"Stadt"},"district":{"key":"05162","name":"Rhein-Kreis Neuss","type":"Kreis"},"federalState":{"key":"05","name":"Nordrhein-Westfalen"}},{"name":"Habichtweg","postalCode":"40670","locality":"Meerbusch","municipality":{"key":"05162022","name":"Meerbusch, Stadt","type":"Stadt"},"district":{"key":"05162","name":"Rhein-Kreis Neuss","type":"Kreis"},"federalState":{"key":"05","name":"Nordrhein-Westfalen"}},{"name":"Hans-Arp-Weg","postalCode":"40670","locality":"Meerbusch","municipality":{"key":"05162022","name":"Meerbusch, Stadt","type":"Stadt"},"district":{"key":"05162","name":"Rhein-Kreis Neuss","type":"Kreis"},"federalState":{"key":"05","name":"Nordrhein-Westfalen"}},{"name":"Haselweg","postalCode":"40668","locality":"Meerbusch","municipality":{"key":"05162022","name":"Meerbusch, Stadt","type":"Stadt"},"district":{"key":"05162","name":"Rhein-Kreis Neuss","type":"Kreis"},"federalState":{"key":"05","name":"Nordrhein-Westfalen"}},{"name":"Hauptstr.","postalCode":"40668","locality":"Meerbusch","municipality":{"key":"05162022","name":"Meerbusch, Stadt","type":"Stadt"},"district":{"key":"05162","name":"Rhein-Kreis Neuss","type":"Kreis"},"federalState":{"key":"05","name":"Nordrhein-Westfalen"}},{"name":"Hauptweg","postalCode":"40668","locality":"Meerbusch","municipality":{"key":"05162022","name":"Meerbusch, Stadt","type":"Stadt"},"district":{"key":"05162","name":"Rhein-Kreis Neuss","type":"Kreis"},"federalState":{"key":"05","name":"Nordrhein-Westfalen"}},{"name":"Haus Meer","postalCode":"40667","locality":"Meerbusch","municipality":{"key":"05162022","name":"Meerbusch, Stadt","type":"Stadt"},"district":{"key":"05162","name":"Rhein-Kreis Neuss","type":"Kreis"},"federalState":{"key":"05","name":"Nordrhein-Westfalen"}},{"name":"Haydnstr.","postalCode":"40670","locality":"Meerbusch","municipality":{"key":"05162022","name":"Meerbusch, Stadt","type":"Stadt"},"district":{"key":"05162","name":"Rhein-Kreis Neuss","type":"Kreis"},"federalState":{"key":"05","name":"Nordrhein-Westfalen"}},{"name":"Hegelstr.","postalCode":"40667","locality":"Meerbusch","municipality":{"key":"05162022","name":"Meerbusch, Stadt","type":"Stadt"},"district":{"key":"05162","name":"Rhein-Kreis Neuss","type":"Kreis"},"federalState":{"key":"05","name":"Nordrhein-Westfalen"}},{"name":"Heideweg","postalCode":"40668","locality":"Meerbusch","municipality":{"key":"05162022","name":"Meerbusch, Stadt","type":"Stadt"},"district":{"key":"05162","name":"Rhein-Kreis Neuss","type":"Kreis"},"federalState":{"key":"05","name":"Nordrhein-Westfalen"}},{"name":"Heinenkamp","postalCode":"40670","locality":"Meerbusch","municipality":{"key":"05162022","name":"Meerbusch, Stadt","type":"Stadt"},"district":{"key":"05162","name":"Rhein-Kreis Neuss","type":"Kreis"},"federalState":{"key":"05","name":"Nordrhein-Westfalen"}},{"name":"Heinrich-Böll-Str.","postalCode":"40670","locality":"Meerbusch","municipality":{"key":"05162022","name":"Meerbusch, Stadt","type":"Stadt"},"district":{"key":"05162","name":"Rhein-Kreis Neuss","type":"Kreis"},"federalState":{"key":"05","name":"Nordrhein-Westfalen"}},{"name":"Heinrich-Dickmann-Str.","postalCode":"40670","locality":"Meerbusch","municipality":{"key":"05162022","name":"Meerbusch, Stadt","type":"Stadt"},"district":{"key":"05162","name":"Rhein-Kreis Neuss","type":"Kreis"},"federalState":{"key":"05","name":"Nordrhein-Westfalen"}},{"name":"Heinrich-Heine-Str.","postalCode":"40670","locality":"Meerbusch","municipality":{"key":"05162022","name":"Meerbusch, Stadt","type":"Stadt"},"district":{"key":"05162","name":"Rhein-Kreis Neuss","type":"Kreis"},"federalState":{"key":"05","name":"Nordrhein-Westfalen"}},{"name":"Heinrich-Kürfgen-Str.","postalCode":"40670","locality":"Meerbusch","municipality":{"key":"05162022","name":"Meerbusch, Stadt","type":"Stadt"},"district":{"key":"05162","name":"Rhein-Kreis Neuss","type":"Kreis"},"federalState":{"key":"05","name":"Nordrhein-Westfalen"}},{"name":"Heinrichstr.","postalCode":"40668","locality":"Meerbusch","municipality":{"key":"05162022","name":"Meerbusch, Stadt","type":"Stadt"},"district":{"key":"05162","name":"Rhein-Kreis Neuss","type":"Kreis"},"federalState":{"key":"05","name":"Nordrhein-Westfalen"}},{"name":"Helen-Keller-Str.","postalCode":"40670","locality":"Meerbusch","municipality":{"key":"05162022","name":"Meerbusch, Stadt","type":"Stadt"},"district":{"key":"05162","name":"Rhein-Kreis Neuss","type":"Kreis"},"federalState":{"key":"05","name":"Nordrhein-Westfalen"}},{"name":"Hermann-Hesse-Str.","postalCode":"40670","locality":"Meerbusch","municipality":{"key":"05162022","name":"Meerbusch, Stadt","type":"Stadt"},"district":{"key":"05162","name":"Rhein-Kreis Neuss","type":"Kreis"},"federalState":{"key":"05","name":"Nordrhein-Westfalen"}},{"name":"Hermann-Unger-Allee","postalCode":"40667","locality":"Meerbusch","municipality":{"key":"05162022","name":"Meerbusch, Stadt","type":"Stadt"},"district":{"key":"05162","name":"Rhein-Kreis Neuss","type":"Kreis"},"federalState":{"key":"05","name":"Nordrhein-Westfalen"}},{"name":"Herta-Klingbeil-Str.","postalCode":"40668","locality":"Meerbusch","municipality":{"key":"05162022","name":"Meerbusch, Stadt","type":"Stadt"},"district":{"key":"05162","name":"Rhein-Kreis Neuss","type":"Kreis"},"federalState":{"key":"05","name":"Nordrhein-Westfalen"}},{"name":"Hessenweg","postalCode":"40667","locality":"Meerbusch","municipality":{"key":"05162022","name":"Meerbusch, Stadt","type":"Stadt"},"district":{"key":"05162","name":"Rhein-Kreis Neuss","type":"Kreis"},"federalState":{"key":"05","name":"Nordrhein-Westfalen"}},{"name":"Hildegundisallee","postalCode":"40667","locality":"Meerbusch","municipality":{"key":"05162022","name":"Meerbusch, Stadt","type":"Stadt"},"district":{"key":"05162","name":"Rhein-Kreis Neuss","type":"Kreis"},"federalState":{"key":"05","name":"Nordrhein-Westfalen"}},{"name":"Hildegundisstr.","postalCode":"40668","locality":"Meerbusch","municipality":{"key":"05162022","name":"Meerbusch, Stadt","type":"Stadt"},"district":{"key":"05162","name":"Rhein-Kreis Neuss","type":"Kreis"},"federalState":{"key":"05","name":"Nordrhein-Westfalen"}},{"name":"Hindenburgstr.","postalCode":"40667","locality":"Meerbusch","municipality":{"key":"05162022","name":"Meerbusch, Stadt","type":"Stadt"},"district":{"key":"05162","name":"Rhein-Kreis Neuss","type":"Kreis"},"federalState":{"key":"05","name":"Nordrhein-Westfalen"}},{"name":"Hingstenweg","postalCode":"40670","locality":"Meerbusch","municipality":{"key":"05162022","name":"Meerbusch, Stadt","type":"Stadt"},"district":{"key":"05162","name":"Rhein-Kreis Neuss","type":"Kreis"},"federalState":{"key":"05","name":"Nordrhein-Westfalen"}},{"name":"Hinsbecker Weg","postalCode":"40670","locality":"Meerbusch","municipality":{"key":"05162022","name":"Meerbusch, Stadt","type":"Stadt"},"district":{"key":"05162","name":"Rhein-Kreis Neuss","type":"Kreis"},"federalState":{"key":"05","name":"Nordrhein-Westfalen"}},{"name":"Hochstr.","postalCode":"40670","locality":"Meerbusch","municipality":{"key":"05162022","name":"Meerbusch, Stadt","type":"Stadt"},"district":{"key":"05162","name":"Rhein-Kreis Neuss","type":"Kreis"},"federalState":{"key":"05","name":"Nordrhein-Westfalen"}},{"name":"Hohegrabenweg","postalCode":"40667","locality":"Meerbusch","municipality":{"key":"05162022","name":"Meerbusch, Stadt","type":"Stadt"},"district":{"key":"05162","name":"Rhein-Kreis Neuss","type":"Kreis"},"federalState":{"key":"05","name":"Nordrhein-Westfalen"}},{"name":"Hohlenweg","postalCode":"40670","locality":"Meerbusch","municipality":{"key":"05162022","name":"Meerbusch, Stadt","type":"Stadt"},"district":{"key":"05162","name":"Rhein-Kreis Neuss","type":"Kreis"},"federalState":{"key":"05","name":"Nordrhein-Westfalen"}},{"name":"Holbeinstr.","postalCode":"40667","locality":"Meerbusch","municipality":{"key":"05162022","name":"Meerbusch, Stadt","type":"Stadt"},"district":{"key":"05162","name":"Rhein-Kreis Neuss","type":"Kreis"},"federalState":{"key":"05","name":"Nordrhein-Westfalen"}},{"name":"Hölderlinstr.","postalCode":"40667","locality":"Meerbusch","municipality":{"key":"05162022","name":"Meerbusch, Stadt","type":"Stadt"},"district":{"key":"05162","name":"Rhein-Kreis Neuss","type":"Kreis"},"federalState":{"key":"05","name":"Nordrhein-Westfalen"}},{"name":"Hölssig-Str.","postalCode":"40670","locality":"Meerbusch","municipality":{"key":"05162022","name":"Meerbusch, Stadt","type":"Stadt"},"district":{"key":"05162","name":"Rhein-Kreis Neuss","type":"Kreis"},"federalState":{"key":"05","name":"Nordrhein-Westfalen"}},{"name":"Holsteiner Str.","postalCode":"40667","locality":"Meerbusch","municipality":{"key":"05162022","name":"Meerbusch, Stadt","type":"Stadt"},"district":{"key":"05162","name":"Rhein-Kreis Neuss","type":"Kreis"},"federalState":{"key":"05","name":"Nordrhein-Westfalen"}},{"name":"Holunderweg","postalCode":"40670","locality":"Meerbusch","municipality":{"key":"05162022","name":"Meerbusch, Stadt","type":"Stadt"},"district":{"key":"05162","name":"Rhein-Kreis Neuss","type":"Kreis"},"federalState":{"key":"05","name":"Nordrhein-Westfalen"}},{"name":"Hoterheideweg","postalCode":"40670","locality":"Meerbusch","municipality":{"key":"05162022","name":"Meerbusch, Stadt","type":"Stadt"},"district":{"key":"05162","name":"Rhein-Kreis Neuss","type":"Kreis"},"federalState":{"key":"05","name":"Nordrhein-Westfalen"}},{"name":"Hoxdelle","postalCode":"40667","locality":"Meerbusch","municipality":{"key":"05162022","name":"Meerbusch, Stadt","type":"Stadt"},"district":{"key":"05162","name":"Rhein-Kreis Neuss","type":"Kreis"},"federalState":{"key":"05","name":"Nordrhein-Westfalen"}},{"name":"Hoxhof","postalCode":"40667","locality":"Meerbusch","municipality":{"key":"05162022","name":"Meerbusch, Stadt","type":"Stadt"},"district":{"key":"05162","name":"Rhein-Kreis Neuss","type":"Kreis"},"federalState":{"key":"05","name":"Nordrhein-Westfalen"}},{"name":"Hubertusweg","postalCode":"40670","locality":"Meerbusch","municipality":{"key":"05162022","name":"Meerbusch, Stadt","type":"Stadt"},"district":{"key":"05162","name":"Rhein-Kreis Neuss","type":"Kreis"},"federalState":{"key":"05","name":"Nordrhein-Westfalen"}},{"name":"Hugo-Recken-Str.","postalCode":"40670","locality":"Meerbusch","municipality":{"key":"05162022","name":"Meerbusch, Stadt","type":"Stadt"},"district":{"key":"05162","name":"Rhein-Kreis Neuss","type":"Kreis"},"federalState":{"key":"05","name":"Nordrhein-Westfalen"}},{"name":"Hülsenbuschweg","postalCode":"40667","locality":"Meerbusch","municipality":{"key":"05162022","name":"Meerbusch, Stadt","type":"Stadt"},"district":{"key":"05162","name":"Rhein-Kreis Neuss","type":"Kreis"},"federalState":{"key":"05","name":"Nordrhein-Westfalen"}},{"name":"Humboldtstr.","postalCode":"40667","locality":"Meerbusch","municipality":{"key":"05162022","name":"Meerbusch, Stadt","type":"Stadt"},"district":{"key":"05162","name":"Rhein-Kreis Neuss","type":"Kreis"},"federalState":{"key":"05","name":"Nordrhein-Westfalen"}},{"name":"Hummelstr.","postalCode":"40668","locality":"Meerbusch","municipality":{"key":"05162022","name":"Meerbusch, Stadt","type":"Stadt"},"district":{"key":"05162","name":"Rhein-Kreis Neuss","type":"Kreis"},"federalState":{"key":"05","name":"Nordrhein-Westfalen"}},{"name":"Ilbertzweg","postalCode":"40670","locality":"Meerbusch","municipality":{"key":"05162022","name":"Meerbusch, Stadt","type":"Stadt"},"district":{"key":"05162","name":"Rhein-Kreis Neuss","type":"Kreis"},"federalState":{"key":"05","name":"Nordrhein-Westfalen"}},{"name":"Ilvericher Str.","postalCode":"40668","locality":"Meerbusch","municipality":{"key":"05162022","name":"Meerbusch, Stadt","type":"Stadt"},"district":{"key":"05162","name":"Rhein-Kreis Neuss","type":"Kreis"},"federalState":{"key":"05","name":"Nordrhein-Westfalen"}},{"name":"Im Bachgrund","postalCode":"40667","locality":"Meerbusch","municipality":{"key":"05162022","name":"Meerbusch, Stadt","type":"Stadt"},"district":{"key":"05162","name":"Rhein-Kreis Neuss","type":"Kreis"},"federalState":{"key":"05","name":"Nordrhein-Westfalen"}},{"name":"Im Gründchen","postalCode":"40670","locality":"Meerbusch","municipality":{"key":"05162022","name":"Meerbusch, Stadt","type":"Stadt"},"district":{"key":"05162","name":"Rhein-Kreis Neuss","type":"Kreis"},"federalState":{"key":"05","name":"Nordrhein-Westfalen"}},{"name":"Im Haag","postalCode":"40670","locality":"Meerbusch","municipality":{"key":"05162022","name":"Meerbusch, Stadt","type":"Stadt"},"district":{"key":"05162","name":"Rhein-Kreis Neuss","type":"Kreis"},"federalState":{"key":"05","name":"Nordrhein-Westfalen"}},{"name":"Im Kamp","postalCode":"40667","locality":"Meerbusch","municipality":{"key":"05162022","name":"Meerbusch, Stadt","type":"Stadt"},"district":{"key":"05162","name":"Rhein-Kreis Neuss","type":"Kreis"},"federalState":{"key":"05","name":"Nordrhein-Westfalen"}},{"name":"Im Küppersfeld","postalCode":"40667","locality":"Meerbusch","municipality":{"key":"05162022","name":"Meerbusch, Stadt","type":"Stadt"},"district":{"key":"05162","name":"Rhein-Kreis Neuss","type":"Kreis"},"federalState":{"key":"05","name":"Nordrhein-Westfalen"}},{"name":"Im Niederstift","postalCode":"40667","locality":"Meerbusch","municipality":{"key":"05162022","name":"Meerbusch, Stadt","type":"Stadt"},"district":{"key":"05162","name":"Rhein-Kreis Neuss","type":"Kreis"},"federalState":{"key":"05","name":"Nordrhein-Westfalen"}},{"name":"Im Park","postalCode":"40667","locality":"Meerbusch","municipality":{"key":"05162022","name":"Meerbusch, Stadt","type":"Stadt"},"district":{"key":"05162","name":"Rhein-Kreis Neuss","type":"Kreis"},"federalState":{"key":"05","name":"Nordrhein-Westfalen"}},{"name":"Im Quellgrund","postalCode":"40670","locality":"Meerbusch","municipality":{"key":"05162022","name":"Meerbusch, Stadt","type":"Stadt"},"district":{"key":"05162","name":"Rhein-Kreis Neuss","type":"Kreis"},"federalState":{"key":"05","name":"Nordrhein-Westfalen"}},{"name":"Im Rott","postalCode":"40668","locality":"Meerbusch","municipality":{"key":"05162022","name":"Meerbusch, Stadt","type":"Stadt"},"district":{"key":"05162","name":"Rhein-Kreis Neuss","type":"Kreis"},"federalState":{"key":"05","name":"Nordrhein-Westfalen"}},{"name":"Im Schieb","postalCode":"40668","locality":"Meerbusch","municipality":{"key":"05162022","name":"Meerbusch, Stadt","type":"Stadt"},"district":{"key":"05162","name":"Rhein-Kreis Neuss","type":"Kreis"},"federalState":{"key":"05","name":"Nordrhein-Westfalen"}},{"name":"Im Wiesengrund","postalCode":"40670","locality":"Meerbusch","municipality":{"key":"05162022","name":"Meerbusch, Stadt","type":"Stadt"},"district":{"key":"05162","name":"Rhein-Kreis Neuss","type":"Kreis"},"federalState":{"key":"05","name":"Nordrhein-Westfalen"}},{"name":"Im Winkel","postalCode":"40670","locality":"Meerbusch","municipality":{"key":"05162022","name":"Meerbusch, Stadt","type":"Stadt"},"district":{"key":"05162","name":"Rhein-Kreis Neuss","type":"Kreis"},"federalState":{"key":"05","name":"Nordrhein-Westfalen"}},{"name":"In der Balsdonk","postalCode":"40668","locality":"Meerbusch","municipality":{"key":"05162022","name":"Meerbusch, Stadt","type":"Stadt"},"district":{"key":"05162","name":"Rhein-Kreis Neuss","type":"Kreis"},"federalState":{"key":"05","name":"Nordrhein-Westfalen"}},{"name":"In der Issel","postalCode":"40667","locality":"Meerbusch","municipality":{"key":"05162022","name":"Meerbusch, Stadt","type":"Stadt"},"district":{"key":"05162","name":"Rhein-Kreis Neuss","type":"Kreis"},"federalState":{"key":"05","name":"Nordrhein-Westfalen"}},{"name":"In der Loh","postalCode":"40668","locality":"Meerbusch","municipality":{"key":"05162022","name":"Meerbusch, Stadt","type":"Stadt"},"district":{"key":"05162","name":"Rhein-Kreis Neuss","type":"Kreis"},"federalState":{"key":"05","name":"Nordrhein-Westfalen"}},{"name":"In der Meer","postalCode":"40667","locality":"Meerbusch","municipality":{"key":"05162022","name":"Meerbusch, Stadt","type":"Stadt"},"district":{"key":"05162","name":"Rhein-Kreis Neuss","type":"Kreis"},"federalState":{"key":"05","name":"Nordrhein-Westfalen"}},{"name":"In der Wasserstadt","postalCode":"40668","locality":"Meerbusch","municipality":{"key":"05162022","name":"Meerbusch, Stadt","type":"Stadt"},"district":{"key":"05162","name":"Rhein-Kreis Neuss","type":"Kreis"},"federalState":{"key":"05","name":"Nordrhein-Westfalen"}},{"name":"Ingeborg-Bachmann-Str.","postalCode":"40670","locality":"Meerbusch","municipality":{"key":"05162022","name":"Meerbusch, Stadt","type":"Stadt"},"district":{"key":"05162","name":"Rhein-Kreis Neuss","type":"Kreis"},"federalState":{"key":"05","name":"Nordrhein-Westfalen"}},{"name":"Ingerweg","postalCode":"40670","locality":"Meerbusch","municipality":{"key":"05162022","name":"Meerbusch, Stadt","type":"Stadt"},"district":{"key":"05162","name":"Rhein-Kreis Neuss","type":"Kreis"},"federalState":{"key":"05","name":"Nordrhein-Westfalen"}},{"name":"Ingrid-von-Schmettow-Str.","postalCode":"40667","locality":"Meerbusch","municipality":{"key":"05162022","name":"Meerbusch, Stadt","type":"Stadt"},"district":{"key":"05162","name":"Rhein-Kreis Neuss","type":"Kreis"},"federalState":{"key":"05","name":"Nordrhein-Westfalen"}},{"name":"Insterburger Str.","postalCode":"40670","locality":"Meerbusch","municipality":{"key":"05162022","name":"Meerbusch, Stadt","type":"Stadt"},"district":{"key":"05162","name":"Rhein-Kreis Neuss","type":"Kreis"},"federalState":{"key":"05","name":"Nordrhein-Westfalen"}},{"name":"Isseldyk","postalCode":"40667","locality":"Meerbusch","municipality":{"key":"05162022","name":"Meerbusch, Stadt","type":"Stadt"},"district":{"key":"05162","name":"Rhein-Kreis Neuss","type":"Kreis"},"federalState":{"key":"05","name":"Nordrhein-Westfalen"}},{"name":"Isselweg","postalCode":"40670","locality":"Meerbusch","municipality":{"key":"05162022","name":"Meerbusch, Stadt","type":"Stadt"},"district":{"key":"05162","name":"Rhein-Kreis Neuss","type":"Kreis"},"federalState":{"key":"05","name":"Nordrhein-Westfalen"}},{"name":"Issemerplatz","postalCode":"40668","locality":"Meerbusch","municipality":{"key":"05162022","name":"Meerbusch, Stadt","type":"Stadt"},"district":{"key":"05162","name":"Rhein-Kreis Neuss","type":"Kreis"},"federalState":{"key":"05","name":"Nordrhein-Westfalen"}},{"name":"Ivangsweg","postalCode":"40670","locality":"Meerbusch","municipality":{"key":"05162022","name":"Meerbusch, Stadt","type":"Stadt"},"district":{"key":"05162","name":"Rhein-Kreis Neuss","type":"Kreis"},"federalState":{"key":"05","name":"Nordrhein-Westfalen"}},{"name":"Jahnstr.","postalCode":"40670","locality":"Meerbusch","municipality":{"key":"05162022","name":"Meerbusch, Stadt","type":"Stadt"},"district":{"key":"05162","name":"Rhein-Kreis Neuss","type":"Kreis"},"federalState":{"key":"05","name":"Nordrhein-Westfalen"}},{"name":"Jasminstr.","postalCode":"40668","locality":"Meerbusch","municipality":{"key":"05162022","name":"Meerbusch, Stadt","type":"Stadt"},"district":{"key":"05162","name":"Rhein-Kreis Neuss","type":"Kreis"},"federalState":{"key":"05","name":"Nordrhein-Westfalen"}},{"name":"Johann-Dahmen-Str.","postalCode":"40667","locality":"Meerbusch","municipality":{"key":"05162022","name":"Meerbusch, Stadt","type":"Stadt"},"district":{"key":"05162","name":"Rhein-Kreis Neuss","type":"Kreis"},"federalState":{"key":"05","name":"Nordrhein-Westfalen"}},{"name":"Johannes-Kirschbaum-Str.","postalCode":"40667","locality":"Meerbusch","municipality":{"key":"05162022","name":"Meerbusch, Stadt","type":"Stadt"},"district":{"key":"05162","name":"Rhein-Kreis Neuss","type":"Kreis"},"federalState":{"key":"05","name":"Nordrhein-Westfalen"}},{"name":"Johann-Wienands-Platz","postalCode":"40667","locality":"Meerbusch","municipality":{"key":"05162022","name":"Meerbusch, Stadt","type":"Stadt"},"district":{"key":"05162","name":"Rhein-Kreis Neuss","type":"Kreis"},"federalState":{"key":"05","name":"Nordrhein-Westfalen"}},{"name":"Josef-Kohtes-Str.","postalCode":"40670","locality":"Meerbusch","municipality":{"key":"05162022","name":"Meerbusch, Stadt","type":"Stadt"},"district":{"key":"05162","name":"Rhein-Kreis Neuss","type":"Kreis"},"federalState":{"key":"05","name":"Nordrhein-Westfalen"}},{"name":"Josef-Tovornik-Str.","postalCode":"40668","locality":"Meerbusch","municipality":{"key":"05162022","name":"Meerbusch, Stadt","type":"Stadt"},"district":{"key":"05162","name":"Rhein-Kreis Neuss","type":"Kreis"},"federalState":{"key":"05","name":"Nordrhein-Westfalen"}},{"name":"Josef-Werres-Str.","postalCode":"40668","locality":"Meerbusch","municipality":{"key":"05162022","name":"Meerbusch, Stadt","type":"Stadt"},"district":{"key":"05162","name":"Rhein-Kreis Neuss","type":"Kreis"},"federalState":{"key":"05","name":"Nordrhein-Westfalen"}},{"name":"Kaarster Str.","postalCode":"40670","locality":"Meerbusch","municipality":{"key":"05162022","name":"Meerbusch, Stadt","type":"Stadt"},"district":{"key":"05162","name":"Rhein-Kreis Neuss","type":"Kreis"},"federalState":{"key":"05","name":"Nordrhein-Westfalen"}},{"name":"Kaiserswerther Str.","postalCode":"40668","locality":"Meerbusch","municipality":{"key":"05162022","name":"Meerbusch, Stadt","type":"Stadt"},"district":{"key":"05162","name":"Rhein-Kreis Neuss","type":"Kreis"},"federalState":{"key":"05","name":"Nordrhein-Westfalen"}},{"name":"Kaldenberg","postalCode":"40668","locality":"Meerbusch","municipality":{"key":"05162022","name":"Meerbusch, Stadt","type":"Stadt"},"district":{"key":"05162","name":"Rhein-Kreis Neuss","type":"Kreis"},"federalState":{"key":"05","name":"Nordrhein-Westfalen"}},{"name":"Kalverdonksweg","postalCode":"40670","locality":"Meerbusch","municipality":{"key":"05162022","name":"Meerbusch, Stadt","type":"Stadt"},"district":{"key":"05162","name":"Rhein-Kreis Neuss","type":"Kreis"},"federalState":{"key":"05","name":"Nordrhein-Westfalen"}},{"name":"Kamperweg","postalCode":"40670","locality":"Meerbusch","municipality":{"key":"05162022","name":"Meerbusch, Stadt","type":"Stadt"},"district":{"key":"05162","name":"Rhein-Kreis Neuss","type":"Kreis"},"federalState":{"key":"05","name":"Nordrhein-Westfalen"}},{"name":"Kantstr.","postalCode":"40667","locality":"Meerbusch","municipality":{"key":"05162022","name":"Meerbusch, Stadt","type":"Stadt"},"district":{"key":"05162","name":"Rhein-Kreis Neuss","type":"Kreis"},"federalState":{"key":"05","name":"Nordrhein-Westfalen"}},{"name":"Kanzlei","postalCode":"40667","locality":"Meerbusch","municipality":{"key":"05162022","name":"Meerbusch, Stadt","type":"Stadt"},"district":{"key":"05162","name":"Rhein-Kreis Neuss","type":"Kreis"},"federalState":{"key":"05","name":"Nordrhein-Westfalen"}},{"name":"Kapellenstr.","postalCode":"40670","locality":"Meerbusch","municipality":{"key":"05162022","name":"Meerbusch, Stadt","type":"Stadt"},"district":{"key":"05162","name":"Rhein-Kreis Neuss","type":"Kreis"},"federalState":{"key":"05","name":"Nordrhein-Westfalen"}},{"name":"Karl-Arnold-Str.","postalCode":"40667","locality":"Meerbusch","municipality":{"key":"05162022","name":"Meerbusch, Stadt","type":"Stadt"},"district":{"key":"05162","name":"Rhein-Kreis Neuss","type":"Kreis"},"federalState":{"key":"05","name":"Nordrhein-Westfalen"}},{"name":"Karl-Borromäus-Str.","postalCode":"40667","locality":"Meerbusch","municipality":{"key":"05162022","name":"Meerbusch, Stadt","type":"Stadt"},"district":{"key":"05162","name":"Rhein-Kreis Neuss","type":"Kreis"},"federalState":{"key":"05","name":"Nordrhein-Westfalen"}},{"name":"Karl-Reimes-Str.","postalCode":"40668","locality":"Meerbusch","municipality":{"key":"05162022","name":"Meerbusch, Stadt","type":"Stadt"},"district":{"key":"05162","name":"Rhein-Kreis Neuss","type":"Kreis"},"federalState":{"key":"05","name":"Nordrhein-Westfalen"}},{"name":"Karl-Rüsing-Str.","postalCode":"40670","locality":"Meerbusch","municipality":{"key":"05162022","name":"Meerbusch, Stadt","type":"Stadt"},"district":{"key":"05162","name":"Rhein-Kreis Neuss","type":"Kreis"},"federalState":{"key":"05","name":"Nordrhein-Westfalen"}},{"name":"Kastanienweg","postalCode":"40667","locality":"Meerbusch","municipality":{"key":"05162022","name":"Meerbusch, Stadt","type":"Stadt"},"district":{"key":"05162","name":"Rhein-Kreis Neuss","type":"Kreis"},"federalState":{"key":"05","name":"Nordrhein-Westfalen"}},{"name":"Käthe-Kollwitz-Weg","postalCode":"40670","locality":"Meerbusch","municipality":{"key":"05162022","name":"Meerbusch, Stadt","type":"Stadt"},"district":{"key":"05162","name":"Rhein-Kreis Neuss","type":"Kreis"},"federalState":{"key":"05","name":"Nordrhein-Westfalen"}},{"name":"Kaustinenweg","postalCode":"40670","locality":"Meerbusch","municipality":{"key":"05162022","name":"Meerbusch, Stadt","type":"Stadt"},"district":{"key":"05162","name":"Rhein-Kreis Neuss","type":"Kreis"},"federalState":{"key":"05","name":"Nordrhein-Westfalen"}},{"name":"Kempener Weg","postalCode":"40670","locality":"Meerbusch","municipality":{"key":"05162022","name":"Meerbusch, Stadt","type":"Stadt"},"district":{"key":"05162","name":"Rhein-Kreis Neuss","type":"Kreis"},"federalState":{"key":"05","name":"Nordrhein-Westfalen"}},{"name":"Kemperallee","postalCode":"40668","locality":"Meerbusch","municipality":{"key":"05162022","name":"Meerbusch, Stadt","type":"Stadt"},"district":{"key":"05162","name":"Rhein-Kreis Neuss","type":"Kreis"},"federalState":{"key":"05","name":"Nordrhein-Westfalen"}},{"name":"Kesselsweg","postalCode":"40670","locality":"Meerbusch","municipality":{"key":"05162022","name":"Meerbusch, Stadt","type":"Stadt"},"district":{"key":"05162","name":"Rhein-Kreis Neuss","type":"Kreis"},"federalState":{"key":"05","name":"Nordrhein-Westfalen"}},{"name":"Kettelerstr.","postalCode":"40667","locality":"Meerbusch","municipality":{"key":"05162022","name":"Meerbusch, Stadt","type":"Stadt"},"district":{"key":"05162","name":"Rhein-Kreis Neuss","type":"Kreis"},"federalState":{"key":"05","name":"Nordrhein-Westfalen"}},{"name":"Kevelaerer Weg","postalCode":"40670","locality":"Meerbusch","municipality":{"key":"05162022","name":"Meerbusch, Stadt","type":"Stadt"},"district":{"key":"05162","name":"Rhein-Kreis Neuss","type":"Kreis"},"federalState":{"key":"05","name":"Nordrhein-Westfalen"}},{"name":"Kiebitzweg","postalCode":"40668","locality":"Meerbusch","municipality":{"key":"05162022","name":"Meerbusch, Stadt","type":"Stadt"},"district":{"key":"05162","name":"Rhein-Kreis Neuss","type":"Kreis"},"federalState":{"key":"05","name":"Nordrhein-Westfalen"}},{"name":"Kieferneck","postalCode":"40667","locality":"Meerbusch","municipality":{"key":"05162022","name":"Meerbusch, Stadt","type":"Stadt"},"district":{"key":"05162","name":"Rhein-Kreis Neuss","type":"Kreis"},"federalState":{"key":"05","name":"Nordrhein-Westfalen"}},{"name":"Kierster Mühlenweg","postalCode":"40668","locality":"Meerbusch","municipality":{"key":"05162022","name":"Meerbusch, Stadt","type":"Stadt"},"district":{"key":"05162","name":"Rhein-Kreis Neuss","type":"Kreis"},"federalState":{"key":"05","name":"Nordrhein-Westfalen"}},{"name":"Kierster Str.","postalCode":"40668","locality":"Meerbusch","municipality":{"key":"05162022","name":"Meerbusch, Stadt","type":"Stadt"},"district":{"key":"05162","name":"Rhein-Kreis Neuss","type":"Kreis"},"federalState":{"key":"05","name":"Nordrhein-Westfalen"}},{"name":"Kirchpfad","postalCode":"40667","locality":"Meerbusch","municipality":{"key":"05162022","name":"Meerbusch, Stadt","type":"Stadt"},"district":{"key":"05162","name":"Rhein-Kreis Neuss","type":"Kreis"},"federalState":{"key":"05","name":"Nordrhein-Westfalen"}},{"name":"Kirchplatz","postalCode":"40670","locality":"Meerbusch","municipality":{"key":"05162022","name":"Meerbusch, Stadt","type":"Stadt"},"district":{"key":"05162","name":"Rhein-Kreis Neuss","type":"Kreis"},"federalState":{"key":"05","name":"Nordrhein-Westfalen"}},{"name":"Kleinkinder-Spielplatz","postalCode":"40667","locality":"Meerbusch","municipality":{"key":"05162022","name":"Meerbusch, Stadt","type":"Stadt"},"district":{"key":"05162","name":"Rhein-Kreis Neuss","type":"Kreis"},"federalState":{"key":"05","name":"Nordrhein-Westfalen"}},{"name":"Klever Weg","postalCode":"40670","locality":"Meerbusch","municipality":{"key":"05162022","name":"Meerbusch, Stadt","type":"Stadt"},"district":{"key":"05162","name":"Rhein-Kreis Neuss","type":"Kreis"},"federalState":{"key":"05","name":"Nordrhein-Westfalen"}},{"name":"Kolberger Str.","postalCode":"40670","locality":"Meerbusch","municipality":{"key":"05162022","name":"Meerbusch, Stadt","type":"Stadt"},"district":{"key":"05162","name":"Rhein-Kreis Neuss","type":"Kreis"},"federalState":{"key":"05","name":"Nordrhein-Westfalen"}},{"name":"Kollenburger Weg","postalCode":"40670","locality":"Meerbusch","municipality":{"key":"05162022","name":"Meerbusch, Stadt","type":"Stadt"},"district":{"key":"05162","name":"Rhein-Kreis Neuss","type":"Kreis"},"federalState":{"key":"05","name":"Nordrhein-Westfalen"}},{"name":"Kolpingstr.","postalCode":"40667","locality":"Meerbusch","municipality":{"key":"05162022","name":"Meerbusch, Stadt","type":"Stadt"},"district":{"key":"05162","name":"Rhein-Kreis Neuss","type":"Kreis"},"federalState":{"key":"05","name":"Nordrhein-Westfalen"}},{"name":"Königsberger Str.","postalCode":"40670","locality":"Meerbusch","municipality":{"key":"05162022","name":"Meerbusch, Stadt","type":"Stadt"},"district":{"key":"05162","name":"Rhein-Kreis Neuss","type":"Kreis"},"federalState":{"key":"05","name":"Nordrhein-Westfalen"}},{"name":"Kornblumenweg","postalCode":"40670","locality":"Meerbusch","municipality":{"key":"05162022","name":"Meerbusch, Stadt","type":"Stadt"},"district":{"key":"05162","name":"Rhein-Kreis Neuss","type":"Kreis"},"federalState":{"key":"05","name":"Nordrhein-Westfalen"}},{"name":"Kornstr.","postalCode":"40670","locality":"Meerbusch","municipality":{"key":"05162022","name":"Meerbusch, Stadt","type":"Stadt"},"district":{"key":"05162","name":"Rhein-Kreis Neuss","type":"Kreis"},"federalState":{"key":"05","name":"Nordrhein-Westfalen"}},{"name":"Kösliner Weg","postalCode":"40670","locality":"Meerbusch","municipality":{"key":"05162022","name":"Meerbusch, Stadt","type":"Stadt"},"district":{"key":"05162","name":"Rhein-Kreis Neuss","type":"Kreis"},"federalState":{"key":"05","name":"Nordrhein-Westfalen"}},{"name":"Krähenacker","postalCode":"40670","locality":"Meerbusch","municipality":{"key":"05162022","name":"Meerbusch, Stadt","type":"Stadt"},"district":{"key":"05162","name":"Rhein-Kreis Neuss","type":"Kreis"},"federalState":{"key":"05","name":"Nordrhein-Westfalen"}},{"name":"Krahnengasse","postalCode":"40668","locality":"Meerbusch","municipality":{"key":"05162022","name":"Meerbusch, Stadt","type":"Stadt"},"district":{"key":"05162","name":"Rhein-Kreis Neuss","type":"Kreis"},"federalState":{"key":"05","name":"Nordrhein-Westfalen"}},{"name":"Kranenburger Str.","postalCode":"40670","locality":"Meerbusch","municipality":{"key":"05162022","name":"Meerbusch, Stadt","type":"Stadt"},"district":{"key":"05162","name":"Rhein-Kreis Neuss","type":"Kreis"},"federalState":{"key":"05","name":"Nordrhein-Westfalen"}},{"name":"Krefelder Str.","postalCode":"40670","locality":"Meerbusch","municipality":{"key":"05162022","name":"Meerbusch, Stadt","type":"Stadt"},"district":{"key":"05162","name":"Rhein-Kreis Neuss","type":"Kreis"},"federalState":{"key":"05","name":"Nordrhein-Westfalen"}},{"name":"Kreuzweg","postalCode":"40667","locality":"Meerbusch","municipality":{"key":"05162022","name":"Meerbusch, Stadt","type":"Stadt"},"district":{"key":"05162","name":"Rhein-Kreis Neuss","type":"Kreis"},"federalState":{"key":"05","name":"Nordrhein-Westfalen"}},{"name":"Krokusweg","postalCode":"40670","locality":"Meerbusch","municipality":{"key":"05162022","name":"Meerbusch, Stadt","type":"Stadt"},"district":{"key":"05162","name":"Rhein-Kreis Neuss","type":"Kreis"},"federalState":{"key":"05","name":"Nordrhein-Westfalen"}},{"name":"Kuhweg","postalCode":"40668","locality":"Meerbusch","municipality":{"key":"05162022","name":"Meerbusch, Stadt","type":"Stadt"},"district":{"key":"05162","name":"Rhein-Kreis Neuss","type":"Kreis"},"federalState":{"key":"05","name":"Nordrhein-Westfalen"}},{"name":"Kulenweg","postalCode":"40668","locality":"Meerbusch","municipality":{"key":"05162022","name":"Meerbusch, Stadt","type":"Stadt"},"district":{"key":"05162","name":"Rhein-Kreis Neuss","type":"Kreis"},"federalState":{"key":"05","name":"Nordrhein-Westfalen"}},{"name":"Kullenberg","postalCode":"40668","locality":"Meerbusch","municipality":{"key":"05162022","name":"Meerbusch, Stadt","type":"Stadt"},"district":{"key":"05162","name":"Rhein-Kreis Neuss","type":"Kreis"},"federalState":{"key":"05","name":"Nordrhein-Westfalen"}},{"name":"Kurze Str.","postalCode":"40670","locality":"Meerbusch","municipality":{"key":"05162022","name":"Meerbusch, Stadt","type":"Stadt"},"district":{"key":"05162","name":"Rhein-Kreis Neuss","type":"Kreis"},"federalState":{"key":"05","name":"Nordrhein-Westfalen"}},{"name":"Küstriner Weg","postalCode":"40670","locality":"Meerbusch","municipality":{"key":"05162022","name":"Meerbusch, Stadt","type":"Stadt"},"district":{"key":"05162","name":"Rhein-Kreis Neuss","type":"Kreis"},"federalState":{"key":"05","name":"Nordrhein-Westfalen"}},{"name":"Laacher Weg","postalCode":"40667","locality":"Meerbusch","municipality":{"key":"05162022","name":"Meerbusch, Stadt","type":"Stadt"},"district":{"key":"05162","name":"Rhein-Kreis Neuss","type":"Kreis"},"federalState":{"key":"05","name":"Nordrhein-Westfalen"}},{"name":"Ladestr.","postalCode":"40670","locality":"Meerbusch","municipality":{"key":"05162022","name":"Meerbusch, Stadt","type":"Stadt"},"district":{"key":"05162","name":"Rhein-Kreis Neuss","type":"Kreis"},"federalState":{"key":"05","name":"Nordrhein-Westfalen"}},{"name":"Landschaftspark Am Strümper Busch","postalCode":"40670","locality":"Meerbusch","municipality":{"key":"05162022","name":"Meerbusch, Stadt","type":"Stadt"},"district":{"key":"05162","name":"Rhein-Kreis Neuss","type":"Kreis"},"federalState":{"key":"05","name":"Nordrhein-Westfalen"}},{"name":"Langster Str.","postalCode":"40668","locality":"Meerbusch","municipality":{"key":"05162022","name":"Meerbusch, Stadt","type":"Stadt"},"district":{"key":"05162","name":"Rhein-Kreis Neuss","type":"Kreis"},"federalState":{"key":"05","name":"Nordrhein-Westfalen"}},{"name":"Lanker Str.","postalCode":"40668","locality":"Meerbusch","municipality":{"key":"05162022","name":"Meerbusch, Stadt","type":"Stadt"},"district":{"key":"05162","name":"Rhein-Kreis Neuss","type":"Kreis"},"federalState":{"key":"05","name":"Nordrhein-Westfalen"}},{"name":"Latumer Bruchweg","postalCode":"40668","locality":"Meerbusch","municipality":{"key":"05162022","name":"Meerbusch, Stadt","type":"Stadt"},"district":{"key":"05162","name":"Rhein-Kreis Neuss","type":"Kreis"},"federalState":{"key":"05","name":"Nordrhein-Westfalen"}},{"name":"Latumer Str.","postalCode":"40668","locality":"Meerbusch","municipality":{"key":"05162022","name":"Meerbusch, Stadt","type":"Stadt"},"district":{"key":"05162","name":"Rhein-Kreis Neuss","type":"Kreis"},"federalState":{"key":"05","name":"Nordrhein-Westfalen"}},{"name":"Latumer Weg","postalCode":"40668","locality":"Meerbusch","municipality":{"key":"05162022","name":"Meerbusch, Stadt","type":"Stadt"},"district":{"key":"05162","name":"Rhein-Kreis Neuss","type":"Kreis"},"federalState":{"key":"05","name":"Nordrhein-Westfalen"}},{"name":"Lavendelstr.","postalCode":"40670","locality":"Meerbusch","municipality":{"key":"05162022","name":"Meerbusch, Stadt","type":"Stadt"},"district":{"key":"05162","name":"Rhein-Kreis Neuss","type":"Kreis"},"federalState":{"key":"05","name":"Nordrhein-Westfalen"}},{"name":"Leibnizstr.","postalCode":"40670","locality":"Meerbusch","municipality":{"key":"05162022","name":"Meerbusch, Stadt","type":"Stadt"},"district":{"key":"05162","name":"Rhein-Kreis Neuss","type":"Kreis"},"federalState":{"key":"05","name":"Nordrhein-Westfalen"}},{"name":"Leipziger Str.","postalCode":"40668","locality":"Meerbusch","municipality":{"key":"05162022","name":"Meerbusch, Stadt","type":"Stadt"},"district":{"key":"05162","name":"Rhein-Kreis Neuss","type":"Kreis"},"federalState":{"key":"05","name":"Nordrhein-Westfalen"}},{"name":"Lerchenweg","postalCode":"40667","locality":"Meerbusch","municipality":{"key":"05162022","name":"Meerbusch, Stadt","type":"Stadt"},"district":{"key":"05162","name":"Rhein-Kreis Neuss","type":"Kreis"},"federalState":{"key":"05","name":"Nordrhein-Westfalen"}},{"name":"Lessingstr.","postalCode":"40667","locality":"Meerbusch","municipality":{"key":"05162022","name":"Meerbusch, Stadt","type":"Stadt"},"district":{"key":"05162","name":"Rhein-Kreis Neuss","type":"Kreis"},"federalState":{"key":"05","name":"Nordrhein-Westfalen"}},{"name":"Lettweg","postalCode":"40667","locality":"Meerbusch","municipality":{"key":"05162022","name":"Meerbusch, Stadt","type":"Stadt"},"district":{"key":"05162","name":"Rhein-Kreis Neuss","type":"Kreis"},"federalState":{"key":"05","name":"Nordrhein-Westfalen"}},{"name":"Liegnitzer Str.","postalCode":"40670","locality":"Meerbusch","municipality":{"key":"05162022","name":"Meerbusch, Stadt","type":"Stadt"},"district":{"key":"05162","name":"Rhein-Kreis Neuss","type":"Kreis"},"federalState":{"key":"05","name":"Nordrhein-Westfalen"}},{"name":"Ligusterweg","postalCode":"40667","locality":"Meerbusch","municipality":{"key":"05162022","name":"Meerbusch, Stadt","type":"Stadt"},"district":{"key":"05162","name":"Rhein-Kreis Neuss","type":"Kreis"},"federalState":{"key":"05","name":"Nordrhein-Westfalen"}},{"name":"Lilienpfad","postalCode":"40670","locality":"Meerbusch","municipality":{"key":"05162022","name":"Meerbusch, Stadt","type":"Stadt"},"district":{"key":"05162","name":"Rhein-Kreis Neuss","type":"Kreis"},"federalState":{"key":"05","name":"Nordrhein-Westfalen"}},{"name":"Lindenstr.","postalCode":"40670","locality":"Meerbusch","municipality":{"key":"05162022","name":"Meerbusch, Stadt","type":"Stadt"},"district":{"key":"05162","name":"Rhein-Kreis Neuss","type":"Kreis"},"federalState":{"key":"05","name":"Nordrhein-Westfalen"}},{"name":"Linner Str.","postalCode":"40668","locality":"Meerbusch","municipality":{"key":"05162022","name":"Meerbusch, Stadt","type":"Stadt"},"district":{"key":"05162","name":"Rhein-Kreis Neuss","type":"Kreis"},"federalState":{"key":"05","name":"Nordrhein-Westfalen"}},{"name":"Lippeweg","postalCode":"40670","locality":"Meerbusch","municipality":{"key":"05162022","name":"Meerbusch, Stadt","type":"Stadt"},"district":{"key":"05162","name":"Rhein-Kreis Neuss","type":"Kreis"},"federalState":{"key":"05","name":"Nordrhein-Westfalen"}},{"name":"Lise-Meitner-Str.","postalCode":"40670","locality":"Meerbusch","municipality":{"key":"05162022","name":"Meerbusch, Stadt","type":"Stadt"},"district":{"key":"05162","name":"Rhein-Kreis Neuss","type":"Kreis"},"federalState":{"key":"05","name":"Nordrhein-Westfalen"}},{"name":"Lönsweg","postalCode":"40670","locality":"Meerbusch","municipality":{"key":"05162022","name":"Meerbusch, Stadt","type":"Stadt"},"district":{"key":"05162","name":"Rhein-Kreis Neuss","type":"Kreis"},"federalState":{"key":"05","name":"Nordrhein-Westfalen"}},{"name":"Lortzingstr.","postalCode":"40667","locality":"Meerbusch","municipality":{"key":"05162022","name":"Meerbusch, Stadt","type":"Stadt"},"district":{"key":"05162","name":"Rhein-Kreis Neuss","type":"Kreis"},"federalState":{"key":"05","name":"Nordrhein-Westfalen"}},{"name":"Lotharstr.","postalCode":"40668","locality":"Meerbusch","municipality":{"key":"05162022","name":"Meerbusch, Stadt","type":"Stadt"},"district":{"key":"05162","name":"Rhein-Kreis Neuss","type":"Kreis"},"federalState":{"key":"05","name":"Nordrhein-Westfalen"}},{"name":"Lötterfelder Str.","postalCode":"40667","locality":"Meerbusch","municipality":{"key":"05162022","name":"Meerbusch, Stadt","type":"Stadt"},"district":{"key":"05162","name":"Rhein-Kreis Neuss","type":"Kreis"},"federalState":{"key":"05","name":"Nordrhein-Westfalen"}},{"name":"Magdeburger Str.","postalCode":"40667","locality":"Meerbusch","municipality":{"key":"05162022","name":"Meerbusch, Stadt","type":"Stadt"},"district":{"key":"05162","name":"Rhein-Kreis Neuss","type":"Kreis"},"federalState":{"key":"05","name":"Nordrhein-Westfalen"}},{"name":"Marie-Curie-Str.","postalCode":"40670","locality":"Meerbusch","municipality":{"key":"05162022","name":"Meerbusch, Stadt","type":"Stadt"},"district":{"key":"05162","name":"Rhein-Kreis Neuss","type":"Kreis"},"federalState":{"key":"05","name":"Nordrhein-Westfalen"}},{"name":"Marienburger Str.","postalCode":"40667","locality":"Meerbusch","municipality":{"key":"05162022","name":"Meerbusch, Stadt","type":"Stadt"},"district":{"key":"05162","name":"Rhein-Kreis Neuss","type":"Kreis"},"federalState":{"key":"05","name":"Nordrhein-Westfalen"}},{"name":"Martinstr.","postalCode":"40668","locality":"Meerbusch","municipality":{"key":"05162022","name":"Meerbusch, Stadt","type":"Stadt"},"district":{"key":"05162","name":"Rhein-Kreis Neuss","type":"Kreis"},"federalState":{"key":"05","name":"Nordrhein-Westfalen"}},{"name":"Mataréstr.","postalCode":"40667","locality":"Meerbusch","municipality":{"key":"05162022","name":"Meerbusch, Stadt","type":"Stadt"},"district":{"key":"05162","name":"Rhein-Kreis Neuss","type":"Kreis"},"federalState":{"key":"05","name":"Nordrhein-Westfalen"}},{"name":"Mathias-von-Hallberg-Str.","postalCode":"40668","locality":"Meerbusch","municipality":{"key":"05162022","name":"Meerbusch, Stadt","type":"Stadt"},"district":{"key":"05162","name":"Rhein-Kreis Neuss","type":"Kreis"},"federalState":{"key":"05","name":"Nordrhein-Westfalen"}},{"name":"Matthias-Grathes-Str.","postalCode":"40670","locality":"Meerbusch","municipality":{"key":"05162022","name":"Meerbusch, Stadt","type":"Stadt"},"district":{"key":"05162","name":"Rhein-Kreis Neuss","type":"Kreis"},"federalState":{"key":"05","name":"Nordrhein-Westfalen"}},{"name":"Mauritiusstr.","postalCode":"40667","locality":"Meerbusch","municipality":{"key":"05162022","name":"Meerbusch, Stadt","type":"Stadt"},"district":{"key":"05162","name":"Rhein-Kreis Neuss","type":"Kreis"},"federalState":{"key":"05","name":"Nordrhein-Westfalen"}},{"name":"Max-Ernst-Str.","postalCode":"40670","locality":"Meerbusch","municipality":{"key":"05162022","name":"Meerbusch, Stadt","type":"Stadt"},"district":{"key":"05162","name":"Rhein-Kreis Neuss","type":"Kreis"},"federalState":{"key":"05","name":"Nordrhein-Westfalen"}},{"name":"Max-Planck-Str.","postalCode":"40670","locality":"Meerbusch","municipality":{"key":"05162022","name":"Meerbusch, Stadt","type":"Stadt"},"district":{"key":"05162","name":"Rhein-Kreis Neuss","type":"Kreis"},"federalState":{"key":"05","name":"Nordrhein-Westfalen"}},{"name":"Meerbuscher Str.","postalCode":"40667","locality":"Meerbusch","municipality":{"key":"05162022","name":"Meerbusch, Stadt","type":"Stadt"},"district":{"key":"05162","name":"Rhein-Kreis Neuss","type":"Kreis"},"federalState":{"key":"05","name":"Nordrhein-Westfalen"}},{"name":"Meerbuscher Str.","postalCode":"40670","locality":"Meerbusch","municipality":{"key":"05162022","name":"Meerbusch, Stadt","type":"Stadt"},"district":{"key":"05162","name":"Rhein-Kreis Neuss","type":"Kreis"},"federalState":{"key":"05","name":"Nordrhein-Westfalen"}},{"name":"Meerhofstr.","postalCode":"40670","locality":"Meerbusch","municipality":{"key":"05162022","name":"Meerbusch, Stadt","type":"Stadt"},"district":{"key":"05162","name":"Rhein-Kreis Neuss","type":"Kreis"},"federalState":{"key":"05","name":"Nordrhein-Westfalen"}},{"name":"Meisenweg","postalCode":"40667","locality":"Meerbusch","municipality":{"key":"05162022","name":"Meerbusch, Stadt","type":"Stadt"},"district":{"key":"05162","name":"Rhein-Kreis Neuss","type":"Kreis"},"federalState":{"key":"05","name":"Nordrhein-Westfalen"}},{"name":"Mendelssohnstr.","postalCode":"40670","locality":"Meerbusch","municipality":{"key":"05162022","name":"Meerbusch, Stadt","type":"Stadt"},"district":{"key":"05162","name":"Rhein-Kreis Neuss","type":"Kreis"},"federalState":{"key":"05","name":"Nordrhein-Westfalen"}},{"name":"Merowingerstr.","postalCode":"40668","locality":"Meerbusch","municipality":{"key":"05162022","name":"Meerbusch, Stadt","type":"Stadt"},"district":{"key":"05162","name":"Rhein-Kreis Neuss","type":"Kreis"},"federalState":{"key":"05","name":"Nordrhein-Westfalen"}},{"name":"Meyersweg","postalCode":"40668","locality":"Meerbusch","municipality":{"key":"05162022","name":"Meerbusch, Stadt","type":"Stadt"},"district":{"key":"05162","name":"Rhein-Kreis Neuss","type":"Kreis"},"federalState":{"key":"05","name":"Nordrhein-Westfalen"}},{"name":"Meyersweg","postalCode":"40670","locality":"Meerbusch","municipality":{"key":"05162022","name":"Meerbusch, Stadt","type":"Stadt"},"district":{"key":"05162","name":"Rhein-Kreis Neuss","type":"Kreis"},"federalState":{"key":"05","name":"Nordrhein-Westfalen"}},{"name":"Mittelstr.","postalCode":"40668","locality":"Meerbusch","municipality":{"key":"05162022","name":"Meerbusch, Stadt","type":"Stadt"},"district":{"key":"05162","name":"Rhein-Kreis Neuss","type":"Kreis"},"federalState":{"key":"05","name":"Nordrhein-Westfalen"}},{"name":"Moerser Str.","postalCode":"40667","locality":"Meerbusch","municipality":{"key":"05162022","name":"Meerbusch, Stadt","type":"Stadt"},"district":{"key":"05162","name":"Rhein-Kreis Neuss","type":"Kreis"},"federalState":{"key":"05","name":"Nordrhein-Westfalen"}},{"name":"Moerser Str.","postalCode":"40670","locality":"Meerbusch","municipality":{"key":"05162022","name":"Meerbusch, Stadt","type":"Stadt"},"district":{"key":"05162","name":"Rhein-Kreis Neuss","type":"Kreis"},"federalState":{"key":"05","name":"Nordrhein-Westfalen"}},{"name":"Mohnweg","postalCode":"40670","locality":"Meerbusch","municipality":{"key":"05162022","name":"Meerbusch, Stadt","type":"Stadt"},"district":{"key":"05162","name":"Rhein-Kreis Neuss","type":"Kreis"},"federalState":{"key":"05","name":"Nordrhein-Westfalen"}},{"name":"Mollsfeld","postalCode":"40670","locality":"Meerbusch","municipality":{"key":"05162022","name":"Meerbusch, Stadt","type":"Stadt"},"district":{"key":"05162","name":"Rhein-Kreis Neuss","type":"Kreis"},"federalState":{"key":"05","name":"Nordrhein-Westfalen"}},{"name":"Mönkesweg","postalCode":"40670","locality":"Meerbusch","municipality":{"key":"05162022","name":"Meerbusch, Stadt","type":"Stadt"},"district":{"key":"05162","name":"Rhein-Kreis Neuss","type":"Kreis"},"federalState":{"key":"05","name":"Nordrhein-Westfalen"}},{"name":"Montessoristr.","postalCode":"40670","locality":"Meerbusch","municipality":{"key":"05162022","name":"Meerbusch, Stadt","type":"Stadt"},"district":{"key":"05162","name":"Rhein-Kreis Neuss","type":"Kreis"},"federalState":{"key":"05","name":"Nordrhein-Westfalen"}},{"name":"Mörikestr.","postalCode":"40668","locality":"Meerbusch","municipality":{"key":"05162022","name":"Meerbusch, Stadt","type":"Stadt"},"district":{"key":"05162","name":"Rhein-Kreis Neuss","type":"Kreis"},"federalState":{"key":"05","name":"Nordrhein-Westfalen"}},{"name":"Mosaikstr.","postalCode":"40670","locality":"Meerbusch","municipality":{"key":"05162022","name":"Meerbusch, Stadt","type":"Stadt"},"district":{"key":"05162","name":"Rhein-Kreis Neuss","type":"Kreis"},"federalState":{"key":"05","name":"Nordrhein-Westfalen"}},{"name":"Mozartplatz","postalCode":"40670","locality":"Meerbusch","municipality":{"key":"05162022","name":"Meerbusch, Stadt","type":"Stadt"},"district":{"key":"05162","name":"Rhein-Kreis Neuss","type":"Kreis"},"federalState":{"key":"05","name":"Nordrhein-Westfalen"}},{"name":"Mozartstr.","postalCode":"40667","locality":"Meerbusch","municipality":{"key":"05162022","name":"Meerbusch, Stadt","type":"Stadt"},"district":{"key":"05162","name":"Rhein-Kreis Neuss","type":"Kreis"},"federalState":{"key":"05","name":"Nordrhein-Westfalen"}},{"name":"Mühlenfeld","postalCode":"40670","locality":"Meerbusch","municipality":{"key":"05162022","name":"Meerbusch, Stadt","type":"Stadt"},"district":{"key":"05162","name":"Rhein-Kreis Neuss","type":"Kreis"},"federalState":{"key":"05","name":"Nordrhein-Westfalen"}},{"name":"Mühlenstr.","postalCode":"40668","locality":"Meerbusch","municipality":{"key":"05162022","name":"Meerbusch, Stadt","type":"Stadt"},"district":{"key":"05162","name":"Rhein-Kreis Neuss","type":"Kreis"},"federalState":{"key":"05","name":"Nordrhein-Westfalen"}},{"name":"Nachtigallenweg","postalCode":"40668","locality":"Meerbusch","municipality":{"key":"05162022","name":"Meerbusch, Stadt","type":"Stadt"},"district":{"key":"05162","name":"Rhein-Kreis Neuss","type":"Kreis"},"federalState":{"key":"05","name":"Nordrhein-Westfalen"}},{"name":"Narzissenweg","postalCode":"40670","locality":"Meerbusch","municipality":{"key":"05162022","name":"Meerbusch, Stadt","type":"Stadt"},"district":{"key":"05162","name":"Rhein-Kreis Neuss","type":"Kreis"},"federalState":{"key":"05","name":"Nordrhein-Westfalen"}},{"name":"Nattweg","postalCode":"40668","locality":"Meerbusch","municipality":{"key":"05162022","name":"Meerbusch, Stadt","type":"Stadt"},"district":{"key":"05162","name":"Rhein-Kreis Neuss","type":"Kreis"},"federalState":{"key":"05","name":"Nordrhein-Westfalen"}},{"name":"Necklenbroicher Str.","postalCode":"40667","locality":"Meerbusch","municipality":{"key":"05162022","name":"Meerbusch, Stadt","type":"Stadt"},"district":{"key":"05162","name":"Rhein-Kreis Neuss","type":"Kreis"},"federalState":{"key":"05","name":"Nordrhein-Westfalen"}},{"name":"Nelkenstr.","postalCode":"40668","locality":"Meerbusch","municipality":{"key":"05162022","name":"Meerbusch, Stadt","type":"Stadt"},"district":{"key":"05162","name":"Rhein-Kreis Neuss","type":"Kreis"},"federalState":{"key":"05","name":"Nordrhein-Westfalen"}},{"name":"Netteweg","postalCode":"40670","locality":"Meerbusch","municipality":{"key":"05162022","name":"Meerbusch, Stadt","type":"Stadt"},"district":{"key":"05162","name":"Rhein-Kreis Neuss","type":"Kreis"},"federalState":{"key":"05","name":"Nordrhein-Westfalen"}},{"name":"Neuer Weg","postalCode":"40670","locality":"Meerbusch","municipality":{"key":"05162022","name":"Meerbusch, Stadt","type":"Stadt"},"district":{"key":"05162","name":"Rhein-Kreis Neuss","type":"Kreis"},"federalState":{"key":"05","name":"Nordrhein-Westfalen"}},{"name":"Neusser Feldweg","postalCode":"40670","locality":"Meerbusch","municipality":{"key":"05162022","name":"Meerbusch, Stadt","type":"Stadt"},"district":{"key":"05162","name":"Rhein-Kreis Neuss","type":"Kreis"},"federalState":{"key":"05","name":"Nordrhein-Westfalen"}},{"name":"Neusser Str.","postalCode":"40667","locality":"Meerbusch","municipality":{"key":"05162022","name":"Meerbusch, Stadt","type":"Stadt"},"district":{"key":"05162","name":"Rhein-Kreis Neuss","type":"Kreis"},"federalState":{"key":"05","name":"Nordrhein-Westfalen"}},{"name":"Neustr.","postalCode":"40667","locality":"Meerbusch","municipality":{"key":"05162022","name":"Meerbusch, Stadt","type":"Stadt"},"district":{"key":"05162","name":"Rhein-Kreis Neuss","type":"Kreis"},"federalState":{"key":"05","name":"Nordrhein-Westfalen"}},{"name":"Nibbelsweg","postalCode":"40670","locality":"Meerbusch","municipality":{"key":"05162022","name":"Meerbusch, Stadt","type":"Stadt"},"district":{"key":"05162","name":"Rhein-Kreis Neuss","type":"Kreis"},"federalState":{"key":"05","name":"Nordrhein-Westfalen"}},{"name":"Niederdonker Str.","postalCode":"40667","locality":"Meerbusch","municipality":{"key":"05162022","name":"Meerbusch, Stadt","type":"Stadt"},"district":{"key":"05162","name":"Rhein-Kreis Neuss","type":"Kreis"},"federalState":{"key":"05","name":"Nordrhein-Westfalen"}},{"name":"Niederlöricker Str.","postalCode":"40667","locality":"Meerbusch","municipality":{"key":"05162022","name":"Meerbusch, Stadt","type":"Stadt"},"district":{"key":"05162","name":"Rhein-Kreis Neuss","type":"Kreis"},"federalState":{"key":"05","name":"Nordrhein-Westfalen"}},{"name":"Nierster Str.","postalCode":"40668","locality":"Meerbusch","municipality":{"key":"05162022","name":"Meerbusch, Stadt","type":"Stadt"},"district":{"key":"05162","name":"Rhein-Kreis Neuss","type":"Kreis"},"federalState":{"key":"05","name":"Nordrhein-Westfalen"}},{"name":"Niersweg","postalCode":"40670","locality":"Meerbusch","municipality":{"key":"05162022","name":"Meerbusch, Stadt","type":"Stadt"},"district":{"key":"05162","name":"Rhein-Kreis Neuss","type":"Kreis"},"federalState":{"key":"05","name":"Nordrhein-Westfalen"}},{"name":"Nordstr.","postalCode":"40667","locality":"Meerbusch","municipality":{"key":"05162022","name":"Meerbusch, Stadt","type":"Stadt"},"district":{"key":"05162","name":"Rhein-Kreis Neuss","type":"Kreis"},"federalState":{"key":"05","name":"Nordrhein-Westfalen"}},{"name":"Norprathstr.","postalCode":"40667","locality":"Meerbusch","municipality":{"key":"05162022","name":"Meerbusch, Stadt","type":"Stadt"},"district":{"key":"05162","name":"Rhein-Kreis Neuss","type":"Kreis"},"federalState":{"key":"05","name":"Nordrhein-Westfalen"}},{"name":"Obere Str.","postalCode":"40668","locality":"Meerbusch","municipality":{"key":"05162022","name":"Meerbusch, Stadt","type":"Stadt"},"district":{"key":"05162","name":"Rhein-Kreis Neuss","type":"Kreis"},"federalState":{"key":"05","name":"Nordrhein-Westfalen"}},{"name":"Obere Str.","postalCode":"40670","locality":"Meerbusch","municipality":{"key":"05162022","name":"Meerbusch, Stadt","type":"Stadt"},"district":{"key":"05162","name":"Rhein-Kreis Neuss","type":"Kreis"},"federalState":{"key":"05","name":"Nordrhein-Westfalen"}},{"name":"Oleanderweg","postalCode":"40670","locality":"Meerbusch","municipality":{"key":"05162022","name":"Meerbusch, Stadt","type":"Stadt"},"district":{"key":"05162","name":"Rhein-Kreis Neuss","type":"Kreis"},"federalState":{"key":"05","name":"Nordrhein-Westfalen"}},{"name":"Oskar-Schlemmer-Weg","postalCode":"40670","locality":"Meerbusch","municipality":{"key":"05162022","name":"Meerbusch, Stadt","type":"Stadt"},"district":{"key":"05162","name":"Rhein-Kreis Neuss","type":"Kreis"},"federalState":{"key":"05","name":"Nordrhein-Westfalen"}},{"name":"Ossum","postalCode":"40668","locality":"Meerbusch","municipality":{"key":"05162022","name":"Meerbusch, Stadt","type":"Stadt"},"district":{"key":"05162","name":"Rhein-Kreis Neuss","type":"Kreis"},"federalState":{"key":"05","name":"Nordrhein-Westfalen"}},{"name":"Ossumer Str.","postalCode":"40668","locality":"Meerbusch","municipality":{"key":"05162022","name":"Meerbusch, Stadt","type":"Stadt"},"district":{"key":"05162","name":"Rhein-Kreis Neuss","type":"Kreis"},"federalState":{"key":"05","name":"Nordrhein-Westfalen"}},{"name":"Ostarastr.","postalCode":"40670","locality":"Meerbusch","municipality":{"key":"05162022","name":"Meerbusch, Stadt","type":"Stadt"},"district":{"key":"05162","name":"Rhein-Kreis Neuss","type":"Kreis"},"federalState":{"key":"05","name":"Nordrhein-Westfalen"}},{"name":"Osterather Str.","postalCode":"40670","locality":"Meerbusch","municipality":{"key":"05162022","name":"Meerbusch, Stadt","type":"Stadt"},"district":{"key":"05162","name":"Rhein-Kreis Neuss","type":"Kreis"},"federalState":{"key":"05","name":"Nordrhein-Westfalen"}},{"name":"Oststr.","postalCode":"40667","locality":"Meerbusch","municipality":{"key":"05162022","name":"Meerbusch, Stadt","type":"Stadt"},"district":{"key":"05162","name":"Rhein-Kreis Neuss","type":"Kreis"},"federalState":{"key":"05","name":"Nordrhein-Westfalen"}},{"name":"Otto-Hahn-Str.","postalCode":"40670","locality":"Meerbusch","municipality":{"key":"05162022","name":"Meerbusch, Stadt","type":"Stadt"},"district":{"key":"05162","name":"Rhein-Kreis Neuss","type":"Kreis"},"federalState":{"key":"05","name":"Nordrhein-Westfalen"}},{"name":"Pannebäckerstr.","postalCode":"40668","locality":"Meerbusch","municipality":{"key":"05162022","name":"Meerbusch, Stadt","type":"Stadt"},"district":{"key":"05162","name":"Rhein-Kreis Neuss","type":"Kreis"},"federalState":{"key":"05","name":"Nordrhein-Westfalen"}},{"name":"Pappelallee","postalCode":"40668","locality":"Meerbusch","municipality":{"key":"05162022","name":"Meerbusch, Stadt","type":"Stadt"},"district":{"key":"05162","name":"Rhein-Kreis Neuss","type":"Kreis"},"federalState":{"key":"05","name":"Nordrhein-Westfalen"}},{"name":"Paul-Jülke-Str.","postalCode":"40670","locality":"Meerbusch","municipality":{"key":"05162022","name":"Meerbusch, Stadt","type":"Stadt"},"district":{"key":"05162","name":"Rhein-Kreis Neuss","type":"Kreis"},"federalState":{"key":"05","name":"Nordrhein-Westfalen"}},{"name":"Paul-Klee-Str.","postalCode":"40670","locality":"Meerbusch","municipality":{"key":"05162022","name":"Meerbusch, Stadt","type":"Stadt"},"district":{"key":"05162","name":"Rhein-Kreis Neuss","type":"Kreis"},"federalState":{"key":"05","name":"Nordrhein-Westfalen"}},{"name":"Pestalozzistr.","postalCode":"40670","locality":"Meerbusch","municipality":{"key":"05162022","name":"Meerbusch, Stadt","type":"Stadt"},"district":{"key":"05162","name":"Rhein-Kreis Neuss","type":"Kreis"},"federalState":{"key":"05","name":"Nordrhein-Westfalen"}},{"name":"Peter-Weyers-Str.","postalCode":"40668","locality":"Meerbusch","municipality":{"key":"05162022","name":"Meerbusch, Stadt","type":"Stadt"},"district":{"key":"05162","name":"Rhein-Kreis Neuss","type":"Kreis"},"federalState":{"key":"05","name":"Nordrhein-Westfalen"}},{"name":"Pfälzer Str.","postalCode":"40667","locality":"Meerbusch","municipality":{"key":"05162022","name":"Meerbusch, Stadt","type":"Stadt"},"district":{"key":"05162","name":"Rhein-Kreis Neuss","type":"Kreis"},"federalState":{"key":"05","name":"Nordrhein-Westfalen"}},{"name":"Pfarrer-Wohl-Str.","postalCode":"40670","locality":"Meerbusch","municipality":{"key":"05162022","name":"Meerbusch, Stadt","type":"Stadt"},"district":{"key":"05162","name":"Rhein-Kreis Neuss","type":"Kreis"},"federalState":{"key":"05","name":"Nordrhein-Westfalen"}},{"name":"Pfarrstr.","postalCode":"40668","locality":"Meerbusch","municipality":{"key":"05162022","name":"Meerbusch, Stadt","type":"Stadt"},"district":{"key":"05162","name":"Rhein-Kreis Neuss","type":"Kreis"},"federalState":{"key":"05","name":"Nordrhein-Westfalen"}},{"name":"Posener Str.","postalCode":"40670","locality":"Meerbusch","municipality":{"key":"05162022","name":"Meerbusch, Stadt","type":"Stadt"},"district":{"key":"05162","name":"Rhein-Kreis Neuss","type":"Kreis"},"federalState":{"key":"05","name":"Nordrhein-Westfalen"}},{"name":"Poststr.","postalCode":"40667","locality":"Meerbusch","municipality":{"key":"05162022","name":"Meerbusch, Stadt","type":"Stadt"},"district":{"key":"05162","name":"Rhein-Kreis Neuss","type":"Kreis"},"federalState":{"key":"05","name":"Nordrhein-Westfalen"}},{"name":"Pullerweg","postalCode":"40670","locality":"Meerbusch","municipality":{"key":"05162022","name":"Meerbusch, Stadt","type":"Stadt"},"district":{"key":"05162","name":"Rhein-Kreis Neuss","type":"Kreis"},"federalState":{"key":"05","name":"Nordrhein-Westfalen"}},{"name":"Querstr.","postalCode":"40668","locality":"Meerbusch","municipality":{"key":"05162022","name":"Meerbusch, Stadt","type":"Stadt"},"district":{"key":"05162","name":"Rhein-Kreis Neuss","type":"Kreis"},"federalState":{"key":"05","name":"Nordrhein-Westfalen"}},{"name":"Raiffeisenplatz","postalCode":"40670","locality":"Meerbusch","municipality":{"key":"05162022","name":"Meerbusch, Stadt","type":"Stadt"},"district":{"key":"05162","name":"Rhein-Kreis Neuss","type":"Kreis"},"federalState":{"key":"05","name":"Nordrhein-Westfalen"}},{"name":"Rebhuhnweg","postalCode":"40668","locality":"Meerbusch","municipality":{"key":"05162022","name":"Meerbusch, Stadt","type":"Stadt"},"district":{"key":"05162","name":"Rhein-Kreis Neuss","type":"Kreis"},"federalState":{"key":"05","name":"Nordrhein-Westfalen"}},{"name":"Regerstr.","postalCode":"40670","locality":"Meerbusch","municipality":{"key":"05162022","name":"Meerbusch, Stadt","type":"Stadt"},"district":{"key":"05162","name":"Rhein-Kreis Neuss","type":"Kreis"},"federalState":{"key":"05","name":"Nordrhein-Westfalen"}},{"name":"Reiherweg","postalCode":"40670","locality":"Meerbusch","municipality":{"key":"05162022","name":"Meerbusch, Stadt","type":"Stadt"},"district":{"key":"05162","name":"Rhein-Kreis Neuss","type":"Kreis"},"federalState":{"key":"05","name":"Nordrhein-Westfalen"}},{"name":"Rheinberger Weg","postalCode":"40670","locality":"Meerbusch","municipality":{"key":"05162022","name":"Meerbusch, Stadt","type":"Stadt"},"district":{"key":"05162","name":"Rhein-Kreis Neuss","type":"Kreis"},"federalState":{"key":"05","name":"Nordrhein-Westfalen"}},{"name":"Rheindamm","postalCode":"40668","locality":"Meerbusch","municipality":{"key":"05162022","name":"Meerbusch, Stadt","type":"Stadt"},"district":{"key":"05162","name":"Rhein-Kreis Neuss","type":"Kreis"},"federalState":{"key":"05","name":"Nordrhein-Westfalen"}},{"name":"Rheinfeldweg","postalCode":"40667","locality":"Meerbusch","municipality":{"key":"05162022","name":"Meerbusch, Stadt","type":"Stadt"},"district":{"key":"05162","name":"Rhein-Kreis Neuss","type":"Kreis"},"federalState":{"key":"05","name":"Nordrhein-Westfalen"}},{"name":"Rheinpfad","postalCode":"40667","locality":"Meerbusch","municipality":{"key":"05162022","name":"Meerbusch, Stadt","type":"Stadt"},"district":{"key":"05162","name":"Rhein-Kreis Neuss","type":"Kreis"},"federalState":{"key":"05","name":"Nordrhein-Westfalen"}},{"name":"Rheinstr.","postalCode":"40668","locality":"Meerbusch","municipality":{"key":"05162022","name":"Meerbusch, Stadt","type":"Stadt"},"district":{"key":"05162","name":"Rhein-Kreis Neuss","type":"Kreis"},"federalState":{"key":"05","name":"Nordrhein-Westfalen"}},{"name":"Rilkestr.","postalCode":"40668","locality":"Meerbusch","municipality":{"key":"05162022","name":"Meerbusch, Stadt","type":"Stadt"},"district":{"key":"05162","name":"Rhein-Kreis Neuss","type":"Kreis"},"federalState":{"key":"05","name":"Nordrhein-Westfalen"}},{"name":"Robert-Bosch-Str.","postalCode":"40668","locality":"Meerbusch","municipality":{"key":"05162022","name":"Meerbusch, Stadt","type":"Stadt"},"district":{"key":"05162","name":"Rhein-Kreis Neuss","type":"Kreis"},"federalState":{"key":"05","name":"Nordrhein-Westfalen"}},{"name":"Römerstr.","postalCode":"40667","locality":"Meerbusch","municipality":{"key":"05162022","name":"Meerbusch, Stadt","type":"Stadt"},"district":{"key":"05162","name":"Rhein-Kreis Neuss","type":"Kreis"},"federalState":{"key":"05","name":"Nordrhein-Westfalen"}},{"name":"Rosenhof","postalCode":"40670","locality":"Meerbusch","municipality":{"key":"05162022","name":"Meerbusch, Stadt","type":"Stadt"},"district":{"key":"05162","name":"Rhein-Kreis Neuss","type":"Kreis"},"federalState":{"key":"05","name":"Nordrhein-Westfalen"}},{"name":"Rosenstr.","postalCode":"40667","locality":"Meerbusch","municipality":{"key":"05162022","name":"Meerbusch, Stadt","type":"Stadt"},"district":{"key":"05162","name":"Rhein-Kreis Neuss","type":"Kreis"},"federalState":{"key":"05","name":"Nordrhein-Westfalen"}},{"name":"Roßbachstr.","postalCode":"40667","locality":"Meerbusch","municipality":{"key":"05162022","name":"Meerbusch, Stadt","type":"Stadt"},"district":{"key":"05162","name":"Rhein-Kreis Neuss","type":"Kreis"},"federalState":{"key":"05","name":"Nordrhein-Westfalen"}},{"name":"Rostocker Str.","postalCode":"40668","locality":"Meerbusch","municipality":{"key":"05162022","name":"Meerbusch, Stadt","type":"Stadt"},"district":{"key":"05162","name":"Rhein-Kreis Neuss","type":"Kreis"},"federalState":{"key":"05","name":"Nordrhein-Westfalen"}},{"name":"Rotdornstr.","postalCode":"40667","locality":"Meerbusch","municipality":{"key":"05162022","name":"Meerbusch, Stadt","type":"Stadt"},"district":{"key":"05162","name":"Rhein-Kreis Neuss","type":"Kreis"},"federalState":{"key":"05","name":"Nordrhein-Westfalen"}},{"name":"Rottfeldstr.","postalCode":"40670","locality":"Meerbusch","municipality":{"key":"05162022","name":"Meerbusch, Stadt","type":"Stadt"},"district":{"key":"05162","name":"Rhein-Kreis Neuss","type":"Kreis"},"federalState":{"key":"05","name":"Nordrhein-Westfalen"}},{"name":"Röttgenweg","postalCode":"40667","locality":"Meerbusch","municipality":{"key":"05162022","name":"Meerbusch, Stadt","type":"Stadt"},"district":{"key":"05162","name":"Rhein-Kreis Neuss","type":"Kreis"},"federalState":{"key":"05","name":"Nordrhein-Westfalen"}},{"name":"Rottstr.","postalCode":"40668","locality":"Meerbusch","municipality":{"key":"05162022","name":"Meerbusch, Stadt","type":"Stadt"},"district":{"key":"05162","name":"Rhein-Kreis Neuss","type":"Kreis"},"federalState":{"key":"05","name":"Nordrhein-Westfalen"}},{"name":"Rudolf-Lensing-Ring","postalCode":"40670","locality":"Meerbusch","municipality":{"key":"05162022","name":"Meerbusch, Stadt","type":"Stadt"},"district":{"key":"05162","name":"Rhein-Kreis Neuss","type":"Kreis"},"federalState":{"key":"05","name":"Nordrhein-Westfalen"}},{"name":"Ruth-Niehaus-Str.","postalCode":"40667","locality":"Meerbusch","municipality":{"key":"05162022","name":"Meerbusch, Stadt","type":"Stadt"},"district":{"key":"05162","name":"Rhein-Kreis Neuss","type":"Kreis"},"federalState":{"key":"05","name":"Nordrhein-Westfalen"}},{"name":"Salierstr.","postalCode":"40668","locality":"Meerbusch","municipality":{"key":"05162022","name":"Meerbusch, Stadt","type":"Stadt"},"district":{"key":"05162","name":"Rhein-Kreis Neuss","type":"Kreis"},"federalState":{"key":"05","name":"Nordrhein-Westfalen"}},{"name":"Sandacker","postalCode":"40668","locality":"Meerbusch","municipality":{"key":"05162022","name":"Meerbusch, Stadt","type":"Stadt"},"district":{"key":"05162","name":"Rhein-Kreis Neuss","type":"Kreis"},"federalState":{"key":"05","name":"Nordrhein-Westfalen"}},{"name":"Sandberg","postalCode":"40668","locality":"Meerbusch","municipality":{"key":"05162022","name":"Meerbusch, Stadt","type":"Stadt"},"district":{"key":"05162","name":"Rhein-Kreis Neuss","type":"Kreis"},"federalState":{"key":"05","name":"Nordrhein-Westfalen"}},{"name":"Sankt-Nikolaus-Str.","postalCode":"40670","locality":"Meerbusch","municipality":{"key":"05162022","name":"Meerbusch, Stadt","type":"Stadt"},"district":{"key":"05162","name":"Rhein-Kreis Neuss","type":"Kreis"},"federalState":{"key":"05","name":"Nordrhein-Westfalen"}},{"name":"Schackumer Str.","postalCode":"40667","locality":"Meerbusch","municipality":{"key":"05162022","name":"Meerbusch, Stadt","type":"Stadt"},"district":{"key":"05162","name":"Rhein-Kreis Neuss","type":"Kreis"},"federalState":{"key":"05","name":"Nordrhein-Westfalen"}},{"name":"Schaertzgensweg","postalCode":"40667","locality":"Meerbusch","municipality":{"key":"05162022","name":"Meerbusch, Stadt","type":"Stadt"},"district":{"key":"05162","name":"Rhein-Kreis Neuss","type":"Kreis"},"federalState":{"key":"05","name":"Nordrhein-Westfalen"}},{"name":"Scheidweg","postalCode":"40668","locality":"Meerbusch","municipality":{"key":"05162022","name":"Meerbusch, Stadt","type":"Stadt"},"district":{"key":"05162","name":"Rhein-Kreis Neuss","type":"Kreis"},"federalState":{"key":"05","name":"Nordrhein-Westfalen"}},{"name":"Scheidweg Nierst","postalCode":"40668","locality":"Meerbusch","municipality":{"key":"05162022","name":"Meerbusch, Stadt","type":"Stadt"},"district":{"key":"05162","name":"Rhein-Kreis Neuss","type":"Kreis"},"federalState":{"key":"05","name":"Nordrhein-Westfalen"}},{"name":"Schiefelberg","postalCode":"40670","locality":"Meerbusch","municipality":{"key":"05162022","name":"Meerbusch, Stadt","type":"Stadt"},"district":{"key":"05162","name":"Rhein-Kreis Neuss","type":"Kreis"},"federalState":{"key":"05","name":"Nordrhein-Westfalen"}},{"name":"Schillerpark","postalCode":"40667","locality":"Meerbusch","municipality":{"key":"05162022","name":"Meerbusch, Stadt","type":"Stadt"},"district":{"key":"05162","name":"Rhein-Kreis Neuss","type":"Kreis"},"federalState":{"key":"05","name":"Nordrhein-Westfalen"}},{"name":"Schillerstr.","postalCode":"40668","locality":"Meerbusch","municipality":{"key":"05162022","name":"Meerbusch, Stadt","type":"Stadt"},"district":{"key":"05162","name":"Rhein-Kreis Neuss","type":"Kreis"},"federalState":{"key":"05","name":"Nordrhein-Westfalen"}},{"name":"Schloßendweg","postalCode":"40670","locality":"Meerbusch","municipality":{"key":"05162022","name":"Meerbusch, Stadt","type":"Stadt"},"district":{"key":"05162","name":"Rhein-Kreis Neuss","type":"Kreis"},"federalState":{"key":"05","name":"Nordrhein-Westfalen"}},{"name":"Schloßstr.","postalCode":"40668","locality":"Meerbusch","municipality":{"key":"05162022","name":"Meerbusch, Stadt","type":"Stadt"},"district":{"key":"05162","name":"Rhein-Kreis Neuss","type":"Kreis"},"federalState":{"key":"05","name":"Nordrhein-Westfalen"}},{"name":"Schloßstr.","postalCode":"40670","locality":"Meerbusch","municipality":{"key":"05162022","name":"Meerbusch, Stadt","type":"Stadt"},"district":{"key":"05162","name":"Rhein-Kreis Neuss","type":"Kreis"},"federalState":{"key":"05","name":"Nordrhein-Westfalen"}},{"name":"Schmalseitweg","postalCode":"40667","locality":"Meerbusch","municipality":{"key":"05162022","name":"Meerbusch, Stadt","type":"Stadt"},"district":{"key":"05162","name":"Rhein-Kreis Neuss","type":"Kreis"},"federalState":{"key":"05","name":"Nordrhein-Westfalen"}},{"name":"Schmitzberg","postalCode":"40667","locality":"Meerbusch","municipality":{"key":"05162022","name":"Meerbusch, Stadt","type":"Stadt"},"district":{"key":"05162","name":"Rhein-Kreis Neuss","type":"Kreis"},"federalState":{"key":"05","name":"Nordrhein-Westfalen"}},{"name":"Schneiderspfad","postalCode":"40670","locality":"Meerbusch","municipality":{"key":"05162022","name":"Meerbusch, Stadt","type":"Stadt"},"district":{"key":"05162","name":"Rhein-Kreis Neuss","type":"Kreis"},"federalState":{"key":"05","name":"Nordrhein-Westfalen"}},{"name":"Schubertstr.","postalCode":"40670","locality":"Meerbusch","municipality":{"key":"05162022","name":"Meerbusch, Stadt","type":"Stadt"},"district":{"key":"05162","name":"Rhein-Kreis Neuss","type":"Kreis"},"federalState":{"key":"05","name":"Nordrhein-Westfalen"}},{"name":"Schulgasse","postalCode":"40668","locality":"Meerbusch","municipality":{"key":"05162022","name":"Meerbusch, Stadt","type":"Stadt"},"district":{"key":"05162","name":"Rhein-Kreis Neuss","type":"Kreis"},"federalState":{"key":"05","name":"Nordrhein-Westfalen"}},{"name":"Schulstr.","postalCode":"40668","locality":"Meerbusch","municipality":{"key":"05162022","name":"Meerbusch, Stadt","type":"Stadt"},"district":{"key":"05162","name":"Rhein-Kreis Neuss","type":"Kreis"},"federalState":{"key":"05","name":"Nordrhein-Westfalen"}},{"name":"Schumannstr.","postalCode":"40670","locality":"Meerbusch","municipality":{"key":"05162022","name":"Meerbusch, Stadt","type":"Stadt"},"district":{"key":"05162","name":"Rhein-Kreis Neuss","type":"Kreis"},"federalState":{"key":"05","name":"Nordrhein-Westfalen"}},{"name":"Schürkesweg","postalCode":"40670","locality":"Meerbusch","municipality":{"key":"05162022","name":"Meerbusch, Stadt","type":"Stadt"},"district":{"key":"05162","name":"Rhein-Kreis Neuss","type":"Kreis"},"federalState":{"key":"05","name":"Nordrhein-Westfalen"}},{"name":"Schützendelle","postalCode":"40670","locality":"Meerbusch","municipality":{"key":"05162022","name":"Meerbusch, Stadt","type":"Stadt"},"district":{"key":"05162","name":"Rhein-Kreis Neuss","type":"Kreis"},"federalState":{"key":"05","name":"Nordrhein-Westfalen"}},{"name":"Schützenstr.","postalCode":"40668","locality":"Meerbusch","municipality":{"key":"05162022","name":"Meerbusch, Stadt","type":"Stadt"},"district":{"key":"05162","name":"Rhein-Kreis Neuss","type":"Kreis"},"federalState":{"key":"05","name":"Nordrhein-Westfalen"}},{"name":"Schützhofweg","postalCode":"40668","locality":"Meerbusch","municipality":{"key":"05162022","name":"Meerbusch, Stadt","type":"Stadt"},"district":{"key":"05162","name":"Rhein-Kreis Neuss","type":"Kreis"},"federalState":{"key":"05","name":"Nordrhein-Westfalen"}},{"name":"Schwalbenweg","postalCode":"40667","locality":"Meerbusch","municipality":{"key":"05162022","name":"Meerbusch, Stadt","type":"Stadt"},"district":{"key":"05162","name":"Rhein-Kreis Neuss","type":"Kreis"},"federalState":{"key":"05","name":"Nordrhein-Westfalen"}},{"name":"Schwalmweg","postalCode":"40670","locality":"Meerbusch","municipality":{"key":"05162022","name":"Meerbusch, Stadt","type":"Stadt"},"district":{"key":"05162","name":"Rhein-Kreis Neuss","type":"Kreis"},"federalState":{"key":"05","name":"Nordrhein-Westfalen"}},{"name":"Schweinheimer Weg","postalCode":"40670","locality":"Meerbusch","municipality":{"key":"05162022","name":"Meerbusch, Stadt","type":"Stadt"},"district":{"key":"05162","name":"Rhein-Kreis Neuss","type":"Kreis"},"federalState":{"key":"05","name":"Nordrhein-Westfalen"}},{"name":"Schwertgesweg","postalCode":"40670","locality":"Meerbusch","municipality":{"key":"05162022","name":"Meerbusch, Stadt","type":"Stadt"},"district":{"key":"05162","name":"Rhein-Kreis Neuss","type":"Kreis"},"federalState":{"key":"05","name":"Nordrhein-Westfalen"}},{"name":"Sebastianstr.","postalCode":"40668","locality":"Meerbusch","municipality":{"key":"05162022","name":"Meerbusch, Stadt","type":"Stadt"},"district":{"key":"05162","name":"Rhein-Kreis Neuss","type":"Kreis"},"federalState":{"key":"05","name":"Nordrhein-Westfalen"}},{"name":"Siebenschmerzenweg","postalCode":"40667","locality":"Meerbusch","municipality":{"key":"05162022","name":"Meerbusch, Stadt","type":"Stadt"},"district":{"key":"05162","name":"Rhein-Kreis Neuss","type":"Kreis"},"federalState":{"key":"05","name":"Nordrhein-Westfalen"}},{"name":"Siemensstr.","postalCode":"40670","locality":"Meerbusch","municipality":{"key":"05162022","name":"Meerbusch, Stadt","type":"Stadt"},"district":{"key":"05162","name":"Rhein-Kreis Neuss","type":"Kreis"},"federalState":{"key":"05","name":"Nordrhein-Westfalen"}},{"name":"Sommersheck","postalCode":"40668","locality":"Meerbusch","municipality":{"key":"05162022","name":"Meerbusch, Stadt","type":"Stadt"},"district":{"key":"05162","name":"Rhein-Kreis Neuss","type":"Kreis"},"federalState":{"key":"05","name":"Nordrhein-Westfalen"}},{"name":"Sonnenweg","postalCode":"40667","locality":"Meerbusch","municipality":{"key":"05162022","name":"Meerbusch, Stadt","type":"Stadt"},"district":{"key":"05162","name":"Rhein-Kreis Neuss","type":"Kreis"},"federalState":{"key":"05","name":"Nordrhein-Westfalen"}},{"name":"Sonsbecker Weg","postalCode":"40670","locality":"Meerbusch","municipality":{"key":"05162022","name":"Meerbusch, Stadt","type":"Stadt"},"district":{"key":"05162","name":"Rhein-Kreis Neuss","type":"Kreis"},"federalState":{"key":"05","name":"Nordrhein-Westfalen"}},{"name":"Sperberweg","postalCode":"40668","locality":"Meerbusch","municipality":{"key":"05162022","name":"Meerbusch, Stadt","type":"Stadt"},"district":{"key":"05162","name":"Rhein-Kreis Neuss","type":"Kreis"},"federalState":{"key":"05","name":"Nordrhein-Westfalen"}},{"name":"Stadtgrenze","postalCode":"40670","locality":"Meerbusch","municipality":{"key":"05162022","name":"Meerbusch, Stadt","type":"Stadt"},"district":{"key":"05162","name":"Rhein-Kreis Neuss","type":"Kreis"},"federalState":{"key":"05","name":"Nordrhein-Westfalen"}},{"name":"Stephanusstr.","postalCode":"40668","locality":"Meerbusch","municipality":{"key":"05162022","name":"Meerbusch, Stadt","type":"Stadt"},"district":{"key":"05162","name":"Rhein-Kreis Neuss","type":"Kreis"},"federalState":{"key":"05","name":"Nordrhein-Westfalen"}},{"name":"Stettiner Str.","postalCode":"40668","locality":"Meerbusch","municipality":{"key":"05162022","name":"Meerbusch, Stadt","type":"Stadt"},"district":{"key":"05162","name":"Rhein-Kreis Neuss","type":"Kreis"},"federalState":{"key":"05","name":"Nordrhein-Westfalen"}},{"name":"Stichweg Hildegundisstr.","postalCode":"40668","locality":"Meerbusch","municipality":{"key":"05162022","name":"Meerbusch, Stadt","type":"Stadt"},"district":{"key":"05162","name":"Rhein-Kreis Neuss","type":"Kreis"},"federalState":{"key":"05","name":"Nordrhein-Westfalen"}},{"name":"Stichweg Scheidweg","postalCode":"40668","locality":"Meerbusch","municipality":{"key":"05162022","name":"Meerbusch, Stadt","type":"Stadt"},"district":{"key":"05162","name":"Rhein-Kreis Neuss","type":"Kreis"},"federalState":{"key":"05","name":"Nordrhein-Westfalen"}},{"name":"Stockweg","postalCode":"40668","locality":"Meerbusch","municipality":{"key":"05162022","name":"Meerbusch, Stadt","type":"Stadt"},"district":{"key":"05162","name":"Rhein-Kreis Neuss","type":"Kreis"},"federalState":{"key":"05","name":"Nordrhein-Westfalen"}},{"name":"Stormstr.","postalCode":"40668","locality":"Meerbusch","municipality":{"key":"05162022","name":"Meerbusch, Stadt","type":"Stadt"},"district":{"key":"05162","name":"Rhein-Kreis Neuss","type":"Kreis"},"federalState":{"key":"05","name":"Nordrhein-Westfalen"}},{"name":"Straelener Weg","postalCode":"40670","locality":"Meerbusch","municipality":{"key":"05162022","name":"Meerbusch, Stadt","type":"Stadt"},"district":{"key":"05162","name":"Rhein-Kreis Neuss","type":"Kreis"},"federalState":{"key":"05","name":"Nordrhein-Westfalen"}},{"name":"Stratumer Str.","postalCode":"40668","locality":"Meerbusch","municipality":{"key":"05162022","name":"Meerbusch, Stadt","type":"Stadt"},"district":{"key":"05162","name":"Rhein-Kreis Neuss","type":"Kreis"},"federalState":{"key":"05","name":"Nordrhein-Westfalen"}},{"name":"Struckslindenweg","postalCode":"40670","locality":"Meerbusch","municipality":{"key":"05162022","name":"Meerbusch, Stadt","type":"Stadt"},"district":{"key":"05162","name":"Rhein-Kreis Neuss","type":"Kreis"},"federalState":{"key":"05","name":"Nordrhein-Westfalen"}},{"name":"Strümper Berg","postalCode":"40670","locality":"Meerbusch","municipality":{"key":"05162022","name":"Meerbusch, Stadt","type":"Stadt"},"district":{"key":"05162","name":"Rhein-Kreis Neuss","type":"Kreis"},"federalState":{"key":"05","name":"Nordrhein-Westfalen"}},{"name":"Strümper Str.","postalCode":"40670","locality":"Meerbusch","municipality":{"key":"05162022","name":"Meerbusch, Stadt","type":"Stadt"},"district":{"key":"05162","name":"Rhein-Kreis Neuss","type":"Kreis"},"federalState":{"key":"05","name":"Nordrhein-Westfalen"}},{"name":"Südstr.","postalCode":"40670","locality":"Meerbusch","municipality":{"key":"05162022","name":"Meerbusch, Stadt","type":"Stadt"},"district":{"key":"05162","name":"Rhein-Kreis Neuss","type":"Kreis"},"federalState":{"key":"05","name":"Nordrhein-Westfalen"}},{"name":"Suitbertusstr.","postalCode":"40668","locality":"Meerbusch","municipality":{"key":"05162022","name":"Meerbusch, Stadt","type":"Stadt"},"district":{"key":"05162","name":"Rhein-Kreis Neuss","type":"Kreis"},"federalState":{"key":"05","name":"Nordrhein-Westfalen"}},{"name":"Talweg","postalCode":"40668","locality":"Meerbusch","municipality":{"key":"05162022","name":"Meerbusch, Stadt","type":"Stadt"},"district":{"key":"05162","name":"Rhein-Kreis Neuss","type":"Kreis"},"federalState":{"key":"05","name":"Nordrhein-Westfalen"}},{"name":"Tannenstr.","postalCode":"40668","locality":"Meerbusch","municipality":{"key":"05162022","name":"Meerbusch, Stadt","type":"Stadt"},"district":{"key":"05162","name":"Rhein-Kreis Neuss","type":"Kreis"},"federalState":{"key":"05","name":"Nordrhein-Westfalen"}},{"name":"Tannenweg","postalCode":"40670","locality":"Meerbusch","municipality":{"key":"05162022","name":"Meerbusch, Stadt","type":"Stadt"},"district":{"key":"05162","name":"Rhein-Kreis Neuss","type":"Kreis"},"federalState":{"key":"05","name":"Nordrhein-Westfalen"}},{"name":"Taubenacker","postalCode":"40668","locality":"Meerbusch","municipality":{"key":"05162022","name":"Meerbusch, Stadt","type":"Stadt"},"district":{"key":"05162","name":"Rhein-Kreis Neuss","type":"Kreis"},"federalState":{"key":"05","name":"Nordrhein-Westfalen"}},{"name":"Theodor-Hellmich-Str.","postalCode":"40667","locality":"Meerbusch","municipality":{"key":"05162022","name":"Meerbusch, Stadt","type":"Stadt"},"district":{"key":"05162","name":"Rhein-Kreis Neuss","type":"Kreis"},"federalState":{"key":"05","name":"Nordrhein-Westfalen"}},{"name":"Theodor-Heuss-Str.","postalCode":"40670","locality":"Meerbusch","municipality":{"key":"05162022","name":"Meerbusch, Stadt","type":"Stadt"},"district":{"key":"05162","name":"Rhein-Kreis Neuss","type":"Kreis"},"federalState":{"key":"05","name":"Nordrhein-Westfalen"}},{"name":"Theodor-Holzschneider-Platz","postalCode":"40670","locality":"Meerbusch","municipality":{"key":"05162022","name":"Meerbusch, Stadt","type":"Stadt"},"district":{"key":"05162","name":"Rhein-Kreis Neuss","type":"Kreis"},"federalState":{"key":"05","name":"Nordrhein-Westfalen"}},{"name":"Theodor-Litt-Str.","postalCode":"40670","locality":"Meerbusch","municipality":{"key":"05162022","name":"Meerbusch, Stadt","type":"Stadt"},"district":{"key":"05162","name":"Rhein-Kreis Neuss","type":"Kreis"},"federalState":{"key":"05","name":"Nordrhein-Westfalen"}},{"name":"Thomas-Mann-Str.","postalCode":"40670","locality":"Meerbusch","municipality":{"key":"05162022","name":"Meerbusch, Stadt","type":"Stadt"},"district":{"key":"05162","name":"Rhein-Kreis Neuss","type":"Kreis"},"federalState":{"key":"05","name":"Nordrhein-Westfalen"}},{"name":"Tilsiter Str.","postalCode":"40668","locality":"Meerbusch","municipality":{"key":"05162022","name":"Meerbusch, Stadt","type":"Stadt"},"district":{"key":"05162","name":"Rhein-Kreis Neuss","type":"Kreis"},"federalState":{"key":"05","name":"Nordrhein-Westfalen"}},{"name":"Tonstr.","postalCode":"40670","locality":"Meerbusch","municipality":{"key":"05162022","name":"Meerbusch, Stadt","type":"Stadt"},"district":{"key":"05162","name":"Rhein-Kreis Neuss","type":"Kreis"},"federalState":{"key":"05","name":"Nordrhein-Westfalen"}},{"name":"Tulpenweg","postalCode":"40670","locality":"Meerbusch","municipality":{"key":"05162022","name":"Meerbusch, Stadt","type":"Stadt"},"district":{"key":"05162","name":"Rhein-Kreis Neuss","type":"Kreis"},"federalState":{"key":"05","name":"Nordrhein-Westfalen"}},{"name":"Uerdinger Gerichtsweg","postalCode":"40670","locality":"Meerbusch","municipality":{"key":"05162022","name":"Meerbusch, Stadt","type":"Stadt"},"district":{"key":"05162","name":"Rhein-Kreis Neuss","type":"Kreis"},"federalState":{"key":"05","name":"Nordrhein-Westfalen"}},{"name":"Uerdinger Str.","postalCode":"40668","locality":"Meerbusch","municipality":{"key":"05162022","name":"Meerbusch, Stadt","type":"Stadt"},"district":{"key":"05162","name":"Rhein-Kreis Neuss","type":"Kreis"},"federalState":{"key":"05","name":"Nordrhein-Westfalen"}},{"name":"Uhlandstr.","postalCode":"40668","locality":"Meerbusch","municipality":{"key":"05162022","name":"Meerbusch, Stadt","type":"Stadt"},"district":{"key":"05162","name":"Rhein-Kreis Neuss","type":"Kreis"},"federalState":{"key":"05","name":"Nordrhein-Westfalen"}},{"name":"Ulmendonk","postalCode":"40668","locality":"Meerbusch","municipality":{"key":"05162022","name":"Meerbusch, Stadt","type":"Stadt"},"district":{"key":"05162","name":"Rhein-Kreis Neuss","type":"Kreis"},"federalState":{"key":"05","name":"Nordrhein-Westfalen"}},{"name":"Ulmenstr.","postalCode":"40668","locality":"Meerbusch","municipality":{"key":"05162022","name":"Meerbusch, Stadt","type":"Stadt"},"district":{"key":"05162","name":"Rhein-Kreis Neuss","type":"Kreis"},"federalState":{"key":"05","name":"Nordrhein-Westfalen"}},{"name":"Unter den Eichen","postalCode":"40667","locality":"Meerbusch","municipality":{"key":"05162022","name":"Meerbusch, Stadt","type":"Stadt"},"district":{"key":"05162","name":"Rhein-Kreis Neuss","type":"Kreis"},"federalState":{"key":"05","name":"Nordrhein-Westfalen"}},{"name":"Unter der Mühle","postalCode":"40667","locality":"Meerbusch","municipality":{"key":"05162022","name":"Meerbusch, Stadt","type":"Stadt"},"district":{"key":"05162","name":"Rhein-Kreis Neuss","type":"Kreis"},"federalState":{"key":"05","name":"Nordrhein-Westfalen"}},{"name":"Unter'm Kurhut","postalCode":"40667","locality":"Meerbusch","municipality":{"key":"05162022","name":"Meerbusch, Stadt","type":"Stadt"},"district":{"key":"05162","name":"Rhein-Kreis Neuss","type":"Kreis"},"federalState":{"key":"05","name":"Nordrhein-Westfalen"}},{"name":"Van-Dawen-Weg","postalCode":"40668","locality":"Meerbusch","municipality":{"key":"05162022","name":"Meerbusch, Stadt","type":"Stadt"},"district":{"key":"05162","name":"Rhein-Kreis Neuss","type":"Kreis"},"federalState":{"key":"05","name":"Nordrhein-Westfalen"}},{"name":"Vedastusstr.","postalCode":"40670","locality":"Meerbusch","municipality":{"key":"05162022","name":"Meerbusch, Stadt","type":"Stadt"},"district":{"key":"05162","name":"Rhein-Kreis Neuss","type":"Kreis"},"federalState":{"key":"05","name":"Nordrhein-Westfalen"}},{"name":"Veilchenweg","postalCode":"40670","locality":"Meerbusch","municipality":{"key":"05162022","name":"Meerbusch, Stadt","type":"Stadt"},"district":{"key":"05162","name":"Rhein-Kreis Neuss","type":"Kreis"},"federalState":{"key":"05","name":"Nordrhein-Westfalen"}},{"name":"Verbindungsweg Giesenend / willicher Str.","postalCode":"40670","locality":"Meerbusch","municipality":{"key":"05162022","name":"Meerbusch, Stadt","type":"Stadt"},"district":{"key":"05162","name":"Rhein-Kreis Neuss","type":"Kreis"},"federalState":{"key":"05","name":"Nordrhein-Westfalen"}},{"name":"Viehgasse","postalCode":"40670","locality":"Meerbusch","municipality":{"key":"05162022","name":"Meerbusch, Stadt","type":"Stadt"},"district":{"key":"05162","name":"Rhein-Kreis Neuss","type":"Kreis"},"federalState":{"key":"05","name":"Nordrhein-Westfalen"}},{"name":"Virchowstr.","postalCode":"40670","locality":"Meerbusch","municipality":{"key":"05162022","name":"Meerbusch, Stadt","type":"Stadt"},"district":{"key":"05162","name":"Rhein-Kreis Neuss","type":"Kreis"},"federalState":{"key":"05","name":"Nordrhein-Westfalen"}},{"name":"Von-Arenberg-Str.","postalCode":"40668","locality":"Meerbusch","municipality":{"key":"05162022","name":"Meerbusch, Stadt","type":"Stadt"},"district":{"key":"05162","name":"Rhein-Kreis Neuss","type":"Kreis"},"federalState":{"key":"05","name":"Nordrhein-Westfalen"}},{"name":"Von-Bodelschwingh-Str.","postalCode":"40667","locality":"Meerbusch","municipality":{"key":"05162022","name":"Meerbusch, Stadt","type":"Stadt"},"district":{"key":"05162","name":"Rhein-Kreis Neuss","type":"Kreis"},"federalState":{"key":"05","name":"Nordrhein-Westfalen"}},{"name":"Von-Stauffenberg-Str.","postalCode":"40667","locality":"Meerbusch","municipality":{"key":"05162022","name":"Meerbusch, Stadt","type":"Stadt"},"district":{"key":"05162","name":"Rhein-Kreis Neuss","type":"Kreis"},"federalState":{"key":"05","name":"Nordrhein-Westfalen"}},{"name":"Vor den Höfen","postalCode":"40668","locality":"Meerbusch","municipality":{"key":"05162022","name":"Meerbusch, Stadt","type":"Stadt"},"district":{"key":"05162","name":"Rhein-Kreis Neuss","type":"Kreis"},"federalState":{"key":"05","name":"Nordrhein-Westfalen"}},{"name":"Vorderer Lohweg","postalCode":"40668","locality":"Meerbusch","municipality":{"key":"05162022","name":"Meerbusch, Stadt","type":"Stadt"},"district":{"key":"05162","name":"Rhein-Kreis Neuss","type":"Kreis"},"federalState":{"key":"05","name":"Nordrhein-Westfalen"}},{"name":"Vorstenberg","postalCode":"40668","locality":"Meerbusch","municipality":{"key":"05162022","name":"Meerbusch, Stadt","type":"Stadt"},"district":{"key":"05162","name":"Rhein-Kreis Neuss","type":"Kreis"},"federalState":{"key":"05","name":"Nordrhein-Westfalen"}},{"name":"Vynhovenstr.","postalCode":"40670","locality":"Meerbusch","municipality":{"key":"05162022","name":"Meerbusch, Stadt","type":"Stadt"},"district":{"key":"05162","name":"Rhein-Kreis Neuss","type":"Kreis"},"federalState":{"key":"05","name":"Nordrhein-Westfalen"}},{"name":"Wachtelweg","postalCode":"40668","locality":"Meerbusch","municipality":{"key":"05162022","name":"Meerbusch, Stadt","type":"Stadt"},"district":{"key":"05162","name":"Rhein-Kreis Neuss","type":"Kreis"},"federalState":{"key":"05","name":"Nordrhein-Westfalen"}},{"name":"Wagnerplatz","postalCode":"40670","locality":"Meerbusch","municipality":{"key":"05162022","name":"Meerbusch, Stadt","type":"Stadt"},"district":{"key":"05162","name":"Rhein-Kreis Neuss","type":"Kreis"},"federalState":{"key":"05","name":"Nordrhein-Westfalen"}},{"name":"Waldweg","postalCode":"40668","locality":"Meerbusch","municipality":{"key":"05162022","name":"Meerbusch, Stadt","type":"Stadt"},"district":{"key":"05162","name":"Rhein-Kreis Neuss","type":"Kreis"},"federalState":{"key":"05","name":"Nordrhein-Westfalen"}},{"name":"Wanheimer Str.","postalCode":"40667","locality":"Meerbusch","municipality":{"key":"05162022","name":"Meerbusch, Stadt","type":"Stadt"},"district":{"key":"05162","name":"Rhein-Kreis Neuss","type":"Kreis"},"federalState":{"key":"05","name":"Nordrhein-Westfalen"}},{"name":"Wasserstr.","postalCode":"40668","locality":"Meerbusch","municipality":{"key":"05162022","name":"Meerbusch, Stadt","type":"Stadt"},"district":{"key":"05162","name":"Rhein-Kreis Neuss","type":"Kreis"},"federalState":{"key":"05","name":"Nordrhein-Westfalen"}},{"name":"Webergasse","postalCode":"40668","locality":"Meerbusch","municipality":{"key":"05162022","name":"Meerbusch, Stadt","type":"Stadt"},"district":{"key":"05162","name":"Rhein-Kreis Neuss","type":"Kreis"},"federalState":{"key":"05","name":"Nordrhein-Westfalen"}},{"name":"Weberstr.","postalCode":"40667","locality":"Meerbusch","municipality":{"key":"05162022","name":"Meerbusch, Stadt","type":"Stadt"},"district":{"key":"05162","name":"Rhein-Kreis Neuss","type":"Kreis"},"federalState":{"key":"05","name":"Nordrhein-Westfalen"}},{"name":"Weidendonk","postalCode":"40668","locality":"Meerbusch","municipality":{"key":"05162022","name":"Meerbusch, Stadt","type":"Stadt"},"district":{"key":"05162","name":"Rhein-Kreis Neuss","type":"Kreis"},"federalState":{"key":"05","name":"Nordrhein-Westfalen"}},{"name":"Weidenstr.","postalCode":"40668","locality":"Meerbusch","municipality":{"key":"05162022","name":"Meerbusch, Stadt","type":"Stadt"},"district":{"key":"05162","name":"Rhein-Kreis Neuss","type":"Kreis"},"federalState":{"key":"05","name":"Nordrhein-Westfalen"}},{"name":"Weingartsweg","postalCode":"40668","locality":"Meerbusch","municipality":{"key":"05162022","name":"Meerbusch, Stadt","type":"Stadt"},"district":{"key":"05162","name":"Rhein-Kreis Neuss","type":"Kreis"},"federalState":{"key":"05","name":"Nordrhein-Westfalen"}},{"name":"Weißenberger Weg","postalCode":"40667","locality":"Meerbusch","municipality":{"key":"05162022","name":"Meerbusch, Stadt","type":"Stadt"},"district":{"key":"05162","name":"Rhein-Kreis Neuss","type":"Kreis"},"federalState":{"key":"05","name":"Nordrhein-Westfalen"}},{"name":"Werkstr.","postalCode":"40670","locality":"Meerbusch","municipality":{"key":"05162022","name":"Meerbusch, Stadt","type":"Stadt"},"district":{"key":"05162","name":"Rhein-Kreis Neuss","type":"Kreis"},"federalState":{"key":"05","name":"Nordrhein-Westfalen"}},{"name":"Werthallee","postalCode":"40668","locality":"Meerbusch","municipality":{"key":"05162022","name":"Meerbusch, Stadt","type":"Stadt"},"district":{"key":"05162","name":"Rhein-Kreis Neuss","type":"Kreis"},"federalState":{"key":"05","name":"Nordrhein-Westfalen"}},{"name":"Weseler Weg","postalCode":"40667","locality":"Meerbusch","municipality":{"key":"05162022","name":"Meerbusch, Stadt","type":"Stadt"},"district":{"key":"05162","name":"Rhein-Kreis Neuss","type":"Kreis"},"federalState":{"key":"05","name":"Nordrhein-Westfalen"}},{"name":"Westfalenweg","postalCode":"40667","locality":"Meerbusch","municipality":{"key":"05162022","name":"Meerbusch, Stadt","type":"Stadt"},"district":{"key":"05162","name":"Rhein-Kreis Neuss","type":"Kreis"},"federalState":{"key":"05","name":"Nordrhein-Westfalen"}},{"name":"Westring","postalCode":"40670","locality":"Meerbusch","municipality":{"key":"05162022","name":"Meerbusch, Stadt","type":"Stadt"},"district":{"key":"05162","name":"Rhein-Kreis Neuss","type":"Kreis"},"federalState":{"key":"05","name":"Nordrhein-Westfalen"}},{"name":"Weyergrafweg","postalCode":"40670","locality":"Meerbusch","municipality":{"key":"05162022","name":"Meerbusch, Stadt","type":"Stadt"},"district":{"key":"05162","name":"Rhein-Kreis Neuss","type":"Kreis"},"federalState":{"key":"05","name":"Nordrhein-Westfalen"}},{"name":"Wichernweg","postalCode":"40667","locality":"Meerbusch","municipality":{"key":"05162022","name":"Meerbusch, Stadt","type":"Stadt"},"district":{"key":"05162","name":"Rhein-Kreis Neuss","type":"Kreis"},"federalState":{"key":"05","name":"Nordrhein-Westfalen"}},{"name":"Wielandstr.","postalCode":"40668","locality":"Meerbusch","municipality":{"key":"05162022","name":"Meerbusch, Stadt","type":"Stadt"},"district":{"key":"05162","name":"Rhein-Kreis Neuss","type":"Kreis"},"federalState":{"key":"05","name":"Nordrhein-Westfalen"}},{"name":"Wienenweg","postalCode":"40670","locality":"Meerbusch","municipality":{"key":"05162022","name":"Meerbusch, Stadt","type":"Stadt"},"district":{"key":"05162","name":"Rhein-Kreis Neuss","type":"Kreis"},"federalState":{"key":"05","name":"Nordrhein-Westfalen"}},{"name":"Wiesenweg","postalCode":"40668","locality":"Meerbusch","municipality":{"key":"05162022","name":"Meerbusch, Stadt","type":"Stadt"},"district":{"key":"05162","name":"Rhein-Kreis Neuss","type":"Kreis"},"federalState":{"key":"05","name":"Nordrhein-Westfalen"}},{"name":"Will-Hanebal-Platz","postalCode":"40667","locality":"Meerbusch","municipality":{"key":"05162022","name":"Meerbusch, Stadt","type":"Stadt"},"district":{"key":"05162","name":"Rhein-Kreis Neuss","type":"Kreis"},"federalState":{"key":"05","name":"Nordrhein-Westfalen"}},{"name":"Willicher Str.","postalCode":"40670","locality":"Meerbusch","municipality":{"key":"05162022","name":"Meerbusch, Stadt","type":"Stadt"},"district":{"key":"05162","name":"Rhein-Kreis Neuss","type":"Kreis"},"federalState":{"key":"05","name":"Nordrhein-Westfalen"}},{"name":"Willstätterstr.","postalCode":"40667","locality":"Meerbusch","municipality":{"key":"05162022","name":"Meerbusch, Stadt","type":"Stadt"},"district":{"key":"05162","name":"Rhein-Kreis Neuss","type":"Kreis"},"federalState":{"key":"05","name":"Nordrhein-Westfalen"}},{"name":"Windmühlenweg","postalCode":"40668","locality":"Meerbusch","municipality":{"key":"05162022","name":"Meerbusch, Stadt","type":"Stadt"},"district":{"key":"05162","name":"Rhein-Kreis Neuss","type":"Kreis"},"federalState":{"key":"05","name":"Nordrhein-Westfalen"}},{"name":"Winklerweg","postalCode":"40670","locality":"Meerbusch","municipality":{"key":"05162022","name":"Meerbusch, Stadt","type":"Stadt"},"district":{"key":"05162","name":"Rhein-Kreis Neuss","type":"Kreis"},"federalState":{"key":"05","name":"Nordrhein-Westfalen"}},{"name":"Winnendonk","postalCode":"40667","locality":"Meerbusch","municipality":{"key":"05162022","name":"Meerbusch, Stadt","type":"Stadt"},"district":{"key":"05162","name":"Rhein-Kreis Neuss","type":"Kreis"},"federalState":{"key":"05","name":"Nordrhein-Westfalen"}},{"name":"Wittenberger Str.","postalCode":"40668","locality":"Meerbusch","municipality":{"key":"05162022","name":"Meerbusch, Stadt","type":"Stadt"},"district":{"key":"05162","name":"Rhein-Kreis Neuss","type":"Kreis"},"federalState":{"key":"05","name":"Nordrhein-Westfalen"}},{"name":"Witzfeldstr.","postalCode":"40667","locality":"Meerbusch","municipality":{"key":"05162022","name":"Meerbusch, Stadt","type":"Stadt"},"district":{"key":"05162","name":"Rhein-Kreis Neuss","type":"Kreis"},"federalState":{"key":"05","name":"Nordrhein-Westfalen"}},{"name":"Xantener Str.","postalCode":"40668","locality":"Meerbusch","municipality":{"key":"05162022","name":"Meerbusch, Stadt","type":"Stadt"},"district":{"key":"05162","name":"Rhein-Kreis Neuss","type":"Kreis"},"federalState":{"key":"05","name":"Nordrhein-Westfalen"}},{"name":"Xantener Str.","postalCode":"40670","locality":"Meerbusch","municipality":{"key":"05162022","name":"Meerbusch, Stadt","type":"Stadt"},"district":{"key":"05162","name":"Rhein-Kreis Neuss","type":"Kreis"},"federalState":{"key":"05","name":"Nordrhein-Westfalen"}},{"name":"Zeisigweg","postalCode":"40668","locality":"Meerbusch","municipality":{"key":"05162022","name":"Meerbusch, Stadt","type":"Stadt"},"district":{"key":"05162","name":"Rhein-Kreis Neuss","type":"Kreis"},"federalState":{"key":"05","name":"Nordrhein-Westfalen"}},{"name":"Zum Heidberg","postalCode":"40668","locality":"Meerbusch","municipality":{"key":"05162022","name":"Meerbusch, Stadt","type":"Stadt"},"district":{"key":"05162","name":"Rhein-Kreis Neuss","type":"Kreis"},"federalState":{"key":"05","name":"Nordrhein-Westfalen"}},{"name":"Zur Alten Burg","postalCode":"40670","locality":"Meerbusch","municipality":{"key":"05162022","name":"Meerbusch, Stadt","type":"Stadt"},"district":{"key":"05162","name":"Rhein-Kreis Neuss","type":"Kreis"},"federalState":{"key":"05","name":"Nordrhein-Westfalen"}},{"name":"Zur Rheinfähre","postalCode":"40668","locality":"Meerbusch","municipality":{"key":"05162022","name":"Meerbusch, Stadt","type":"Stadt"},"district":{"key":"05162","name":"Rhein-Kreis Neuss","type":"Kreis"},"federalState":{"key":"05","name":"Nordrhein-Westfalen"}},]