[{"name":"Achtern Sand","postalCode":"25451","locality":"Quickborn","municipality":{"key":"01056041","name":"Quickborn, Stadt","type":"Stadt"},"district":{"key":"01056","name":"Pinneberg","type":"Kreis"},"federalState":{"key":"01","name":"Schleswig-Holstein"}},{"name":"Adlerstr.","postalCode":"25451","locality":"Quickborn","municipality":{"key":"01056041","name":"Quickborn, Stadt","type":"Stadt"},"district":{"key":"01056","name":"Pinneberg","type":"Kreis"},"federalState":{"key":"01","name":"Schleswig-Holstein"}},{"name":"Ahornweg","postalCode":"25451","locality":"Quickborn","municipality":{"key":"01056041","name":"Quickborn, Stadt","type":"Stadt"},"district":{"key":"01056","name":"Pinneberg","type":"Kreis"},"federalState":{"key":"01","name":"Schleswig-Holstein"}},{"name":"Ahrenskamp","postalCode":"25451","locality":"Quickborn","municipality":{"key":"01056041","name":"Quickborn, Stadt","type":"Stadt"},"district":{"key":"01056","name":"Pinneberg","type":"Kreis"},"federalState":{"key":"01","name":"Schleswig-Holstein"}},{"name":"Alter Hof","postalCode":"25451","locality":"Quickborn","municipality":{"key":"01056041","name":"Quickborn, Stadt","type":"Stadt"},"district":{"key":"01056","name":"Pinneberg","type":"Kreis"},"federalState":{"key":"01","name":"Schleswig-Holstein"}},{"name":"Am Ahrensfeld","postalCode":"25451","locality":"Quickborn","municipality":{"key":"01056041","name":"Quickborn, Stadt","type":"Stadt"},"district":{"key":"01056","name":"Pinneberg","type":"Kreis"},"federalState":{"key":"01","name":"Schleswig-Holstein"}},{"name":"Am Berg","postalCode":"25451","locality":"Quickborn","municipality":{"key":"01056041","name":"Quickborn, Stadt","type":"Stadt"},"district":{"key":"01056","name":"Pinneberg","type":"Kreis"},"federalState":{"key":"01","name":"Schleswig-Holstein"}},{"name":"Am Freibad","postalCode":"25451","locality":"Quickborn","municipality":{"key":"01056041","name":"Quickborn, Stadt","type":"Stadt"},"district":{"key":"01056","name":"Pinneberg","type":"Kreis"},"federalState":{"key":"01","name":"Schleswig-Holstein"}},{"name":"Am Gertrudenhof","postalCode":"25451","locality":"Quickborn","municipality":{"key":"01056041","name":"Quickborn, Stadt","type":"Stadt"},"district":{"key":"01056","name":"Pinneberg","type":"Kreis"},"federalState":{"key":"01","name":"Schleswig-Holstein"}},{"name":"Am Himmelmoor","postalCode":"25451","locality":"Quickborn","municipality":{"key":"01056041","name":"Quickborn, Stadt","type":"Stadt"},"district":{"key":"01056","name":"Pinneberg","type":"Kreis"},"federalState":{"key":"01","name":"Schleswig-Holstein"}},{"name":"Am Hörn","postalCode":"25451","locality":"Quickborn","municipality":{"key":"01056041","name":"Quickborn, Stadt","type":"Stadt"},"district":{"key":"01056","name":"Pinneberg","type":"Kreis"},"federalState":{"key":"01","name":"Schleswig-Holstein"}},{"name":"Am Katenhof","postalCode":"25451","locality":"Quickborn","municipality":{"key":"01056041","name":"Quickborn, Stadt","type":"Stadt"},"district":{"key":"01056","name":"Pinneberg","type":"Kreis"},"federalState":{"key":"01","name":"Schleswig-Holstein"}},{"name":"Am Klotzenmoor","postalCode":"25451","locality":"Quickborn","municipality":{"key":"01056041","name":"Quickborn, Stadt","type":"Stadt"},"district":{"key":"01056","name":"Pinneberg","type":"Kreis"},"federalState":{"key":"01","name":"Schleswig-Holstein"}},{"name":"Am Mühlenberg","postalCode":"25451","locality":"Quickborn","municipality":{"key":"01056041","name":"Quickborn, Stadt","type":"Stadt"},"district":{"key":"01056","name":"Pinneberg","type":"Kreis"},"federalState":{"key":"01","name":"Schleswig-Holstein"}},{"name":"Am Seekamp","postalCode":"25451","locality":"Quickborn","municipality":{"key":"01056041","name":"Quickborn, Stadt","type":"Stadt"},"district":{"key":"01056","name":"Pinneberg","type":"Kreis"},"federalState":{"key":"01","name":"Schleswig-Holstein"}},{"name":"Amselweg","postalCode":"25451","locality":"Quickborn","municipality":{"key":"01056041","name":"Quickborn, Stadt","type":"Stadt"},"district":{"key":"01056","name":"Pinneberg","type":"Kreis"},"federalState":{"key":"01","name":"Schleswig-Holstein"}},{"name":"An der Malchower Brücke","postalCode":"25451","locality":"Quickborn","municipality":{"key":"01056041","name":"Quickborn, Stadt","type":"Stadt"},"district":{"key":"01056","name":"Pinneberg","type":"Kreis"},"federalState":{"key":"01","name":"Schleswig-Holstein"}},{"name":"An der Retloh","postalCode":"25451","locality":"Quickborn","municipality":{"key":"01056041","name":"Quickborn, Stadt","type":"Stadt"},"district":{"key":"01056","name":"Pinneberg","type":"Kreis"},"federalState":{"key":"01","name":"Schleswig-Holstein"}},{"name":"An der Schmiede","postalCode":"25451","locality":"Quickborn","municipality":{"key":"01056041","name":"Quickborn, Stadt","type":"Stadt"},"district":{"key":"01056","name":"Pinneberg","type":"Kreis"},"federalState":{"key":"01","name":"Schleswig-Holstein"}},{"name":"Andreas-Schlüter-Weg","postalCode":"25451","locality":"Quickborn","municipality":{"key":"01056041","name":"Quickborn, Stadt","type":"Stadt"},"district":{"key":"01056","name":"Pinneberg","type":"Kreis"},"federalState":{"key":"01","name":"Schleswig-Holstein"}},{"name":"Astrid-Lindgren-Weg","postalCode":"25451","locality":"Quickborn","municipality":{"key":"01056041","name":"Quickborn, Stadt","type":"Stadt"},"district":{"key":"01056","name":"Pinneberg","type":"Kreis"},"federalState":{"key":"01","name":"Schleswig-Holstein"}},{"name":"Bahnhofstr.","postalCode":"25451","locality":"Quickborn","municipality":{"key":"01056041","name":"Quickborn, Stadt","type":"Stadt"},"district":{"key":"01056","name":"Pinneberg","type":"Kreis"},"federalState":{"key":"01","name":"Schleswig-Holstein"}},{"name":"Bahnstr.","postalCode":"25451","locality":"Quickborn","municipality":{"key":"01056041","name":"Quickborn, Stadt","type":"Stadt"},"district":{"key":"01056","name":"Pinneberg","type":"Kreis"},"federalState":{"key":"01","name":"Schleswig-Holstein"}},{"name":"Barmstedter Str.","postalCode":"25451","locality":"Quickborn","municipality":{"key":"01056041","name":"Quickborn, Stadt","type":"Stadt"},"district":{"key":"01056","name":"Pinneberg","type":"Kreis"},"federalState":{"key":"01","name":"Schleswig-Holstein"}},{"name":"Baumschulkehre","postalCode":"25451","locality":"Quickborn","municipality":{"key":"01056041","name":"Quickborn, Stadt","type":"Stadt"},"district":{"key":"01056","name":"Pinneberg","type":"Kreis"},"federalState":{"key":"01","name":"Schleswig-Holstein"}},{"name":"Behnkeweg","postalCode":"25451","locality":"Quickborn","municipality":{"key":"01056041","name":"Quickborn, Stadt","type":"Stadt"},"district":{"key":"01056","name":"Pinneberg","type":"Kreis"},"federalState":{"key":"01","name":"Schleswig-Holstein"}},{"name":"Beim Schwartmoor","postalCode":"25451","locality":"Quickborn","municipality":{"key":"01056041","name":"Quickborn, Stadt","type":"Stadt"},"district":{"key":"01056","name":"Pinneberg","type":"Kreis"},"federalState":{"key":"01","name":"Schleswig-Holstein"}},{"name":"Berliner Str.","postalCode":"25451","locality":"Quickborn","municipality":{"key":"01056041","name":"Quickborn, Stadt","type":"Stadt"},"district":{"key":"01056","name":"Pinneberg","type":"Kreis"},"federalState":{"key":"01","name":"Schleswig-Holstein"}},{"name":"Bernstorffstr.","postalCode":"25451","locality":"Quickborn","municipality":{"key":"01056041","name":"Quickborn, Stadt","type":"Stadt"},"district":{"key":"01056","name":"Pinneberg","type":"Kreis"},"federalState":{"key":"01","name":"Schleswig-Holstein"}},{"name":"Beselerstr.","postalCode":"25451","locality":"Quickborn","municipality":{"key":"01056041","name":"Quickborn, Stadt","type":"Stadt"},"district":{"key":"01056","name":"Pinneberg","type":"Kreis"},"federalState":{"key":"01","name":"Schleswig-Holstein"}},{"name":"Birkenallee","postalCode":"25451","locality":"Quickborn","municipality":{"key":"01056041","name":"Quickborn, Stadt","type":"Stadt"},"district":{"key":"01056","name":"Pinneberg","type":"Kreis"},"federalState":{"key":"01","name":"Schleswig-Holstein"}},{"name":"Birkenweg","postalCode":"25451","locality":"Quickborn","municipality":{"key":"01056041","name":"Quickborn, Stadt","type":"Stadt"},"district":{"key":"01056","name":"Pinneberg","type":"Kreis"},"federalState":{"key":"01","name":"Schleswig-Holstein"}},{"name":"Boxholmstr.","postalCode":"25451","locality":"Quickborn","municipality":{"key":"01056041","name":"Quickborn, Stadt","type":"Stadt"},"district":{"key":"01056","name":"Pinneberg","type":"Kreis"},"federalState":{"key":"01","name":"Schleswig-Holstein"}},{"name":"Breedenmoorweg","postalCode":"25451","locality":"Quickborn","municipality":{"key":"01056041","name":"Quickborn, Stadt","type":"Stadt"},"district":{"key":"01056","name":"Pinneberg","type":"Kreis"},"federalState":{"key":"01","name":"Schleswig-Holstein"}},{"name":"Buchenweg","postalCode":"25451","locality":"Quickborn","municipality":{"key":"01056041","name":"Quickborn, Stadt","type":"Stadt"},"district":{"key":"01056","name":"Pinneberg","type":"Kreis"},"federalState":{"key":"01","name":"Schleswig-Holstein"}},{"name":"Büchnerweg","postalCode":"25451","locality":"Quickborn","municipality":{"key":"01056041","name":"Quickborn, Stadt","type":"Stadt"},"district":{"key":"01056","name":"Pinneberg","type":"Kreis"},"federalState":{"key":"01","name":"Schleswig-Holstein"}},{"name":"Büthweg","postalCode":"25712","locality":"Quickborn","municipality":{"key":"01051089","name":"Quickborn","type":"Kreisangehörige_Gemeinde"},"district":{"key":"01051","name":"Dithmarschen","type":"Kreis"},"federalState":{"key":"01","name":"Schleswig-Holstein"}},{"name":"Christian-Alberti-Weg","postalCode":"25451","locality":"Quickborn","municipality":{"key":"01056041","name":"Quickborn, Stadt","type":"Stadt"},"district":{"key":"01056","name":"Pinneberg","type":"Kreis"},"federalState":{"key":"01","name":"Schleswig-Holstein"}},{"name":"Christianslust","postalCode":"25712","locality":"Quickborn","municipality":{"key":"01051089","name":"Quickborn","type":"Kreisangehörige_Gemeinde"},"district":{"key":"01051","name":"Dithmarschen","type":"Kreis"},"federalState":{"key":"01","name":"Schleswig-Holstein"}},{"name":"Claus-Strüven-Siedlung","postalCode":"25451","locality":"Quickborn","municipality":{"key":"01056041","name":"Quickborn, Stadt","type":"Stadt"},"district":{"key":"01056","name":"Pinneberg","type":"Kreis"},"federalState":{"key":"01","name":"Schleswig-Holstein"}},{"name":"Curt-Stegener-Str.","postalCode":"25451","locality":"Quickborn","municipality":{"key":"01056041","name":"Quickborn, Stadt","type":"Stadt"},"district":{"key":"01056","name":"Pinneberg","type":"Kreis"},"federalState":{"key":"01","name":"Schleswig-Holstein"}},{"name":"Dahlmannstr.","postalCode":"25451","locality":"Quickborn","municipality":{"key":"01056041","name":"Quickborn, Stadt","type":"Stadt"},"district":{"key":"01056","name":"Pinneberg","type":"Kreis"},"federalState":{"key":"01","name":"Schleswig-Holstein"}},{"name":"Danziger Str.","postalCode":"25451","locality":"Quickborn","municipality":{"key":"01056041","name":"Quickborn, Stadt","type":"Stadt"},"district":{"key":"01056","name":"Pinneberg","type":"Kreis"},"federalState":{"key":"01","name":"Schleswig-Holstein"}},{"name":"Dorfstr.","postalCode":"25451","locality":"Quickborn","municipality":{"key":"01056041","name":"Quickborn, Stadt","type":"Stadt"},"district":{"key":"01056","name":"Pinneberg","type":"Kreis"},"federalState":{"key":"01","name":"Schleswig-Holstein"}},{"name":"Dorotheenring","postalCode":"25451","locality":"Quickborn","municipality":{"key":"01056041","name":"Quickborn, Stadt","type":"Stadt"},"district":{"key":"01056","name":"Pinneberg","type":"Kreis"},"federalState":{"key":"01","name":"Schleswig-Holstein"}},{"name":"Dorotheenstr.","postalCode":"25451","locality":"Quickborn","municipality":{"key":"01056041","name":"Quickborn, Stadt","type":"Stadt"},"district":{"key":"01056","name":"Pinneberg","type":"Kreis"},"federalState":{"key":"01","name":"Schleswig-Holstein"}},{"name":"Dreibeekenmoorweg","postalCode":"25451","locality":"Quickborn","municipality":{"key":"01056041","name":"Quickborn, Stadt","type":"Stadt"},"district":{"key":"01056","name":"Pinneberg","type":"Kreis"},"federalState":{"key":"01","name":"Schleswig-Holstein"}},{"name":"Drosselweg","postalCode":"25451","locality":"Quickborn","municipality":{"key":"01056041","name":"Quickborn, Stadt","type":"Stadt"},"district":{"key":"01056","name":"Pinneberg","type":"Kreis"},"federalState":{"key":"01","name":"Schleswig-Holstein"}},{"name":"Droysenkehre","postalCode":"25451","locality":"Quickborn","municipality":{"key":"01056041","name":"Quickborn, Stadt","type":"Stadt"},"district":{"key":"01056","name":"Pinneberg","type":"Kreis"},"federalState":{"key":"01","name":"Schleswig-Holstein"}},{"name":"Eichendorffstr.","postalCode":"25451","locality":"Quickborn","municipality":{"key":"01056041","name":"Quickborn, Stadt","type":"Stadt"},"district":{"key":"01056","name":"Pinneberg","type":"Kreis"},"federalState":{"key":"01","name":"Schleswig-Holstein"}},{"name":"Eichenweg","postalCode":"25451","locality":"Quickborn","municipality":{"key":"01056041","name":"Quickborn, Stadt","type":"Stadt"},"district":{"key":"01056","name":"Pinneberg","type":"Kreis"},"federalState":{"key":"01","name":"Schleswig-Holstein"}},{"name":"Ellerauer Str.","postalCode":"25451","locality":"Quickborn","municipality":{"key":"01056041","name":"Quickborn, Stadt","type":"Stadt"},"district":{"key":"01056","name":"Pinneberg","type":"Kreis"},"federalState":{"key":"01","name":"Schleswig-Holstein"}},{"name":"Elsenseestr.","postalCode":"25451","locality":"Quickborn","municipality":{"key":"01056041","name":"Quickborn, Stadt","type":"Stadt"},"district":{"key":"01056","name":"Pinneberg","type":"Kreis"},"federalState":{"key":"01","name":"Schleswig-Holstein"}},{"name":"Emil-Nolde-Str.","postalCode":"25451","locality":"Quickborn","municipality":{"key":"01056041","name":"Quickborn, Stadt","type":"Stadt"},"district":{"key":"01056","name":"Pinneberg","type":"Kreis"},"federalState":{"key":"01","name":"Schleswig-Holstein"}},{"name":"Erich-Thiel-Str.","postalCode":"25451","locality":"Quickborn","municipality":{"key":"01056041","name":"Quickborn, Stadt","type":"Stadt"},"district":{"key":"01056","name":"Pinneberg","type":"Kreis"},"federalState":{"key":"01","name":"Schleswig-Holstein"}},{"name":"Erleneck","postalCode":"25451","locality":"Quickborn","municipality":{"key":"01056041","name":"Quickborn, Stadt","type":"Stadt"},"district":{"key":"01056","name":"Pinneberg","type":"Kreis"},"federalState":{"key":"01","name":"Schleswig-Holstein"}},{"name":"Erlenweg","postalCode":"25451","locality":"Quickborn","municipality":{"key":"01056041","name":"Quickborn, Stadt","type":"Stadt"},"district":{"key":"01056","name":"Pinneberg","type":"Kreis"},"federalState":{"key":"01","name":"Schleswig-Holstein"}},{"name":"Ernst-Barlach-Weg","postalCode":"25451","locality":"Quickborn","municipality":{"key":"01056041","name":"Quickborn, Stadt","type":"Stadt"},"district":{"key":"01056","name":"Pinneberg","type":"Kreis"},"federalState":{"key":"01","name":"Schleswig-Holstein"}},{"name":"Erwin-Salomon-Str.","postalCode":"25451","locality":"Quickborn","municipality":{"key":"01056041","name":"Quickborn, Stadt","type":"Stadt"},"district":{"key":"01056","name":"Pinneberg","type":"Kreis"},"federalState":{"key":"01","name":"Schleswig-Holstein"}},{"name":"Eschenweg","postalCode":"25451","locality":"Quickborn","municipality":{"key":"01056041","name":"Quickborn, Stadt","type":"Stadt"},"district":{"key":"01056","name":"Pinneberg","type":"Kreis"},"federalState":{"key":"01","name":"Schleswig-Holstein"}},{"name":"Falckstr.","postalCode":"25451","locality":"Quickborn","municipality":{"key":"01056041","name":"Quickborn, Stadt","type":"Stadt"},"district":{"key":"01056","name":"Pinneberg","type":"Kreis"},"federalState":{"key":"01","name":"Schleswig-Holstein"}},{"name":"Falkengrund","postalCode":"25451","locality":"Quickborn","municipality":{"key":"01056041","name":"Quickborn, Stadt","type":"Stadt"},"district":{"key":"01056","name":"Pinneberg","type":"Kreis"},"federalState":{"key":"01","name":"Schleswig-Holstein"}},{"name":"Fasanenweg","postalCode":"25451","locality":"Quickborn","municipality":{"key":"01056041","name":"Quickborn, Stadt","type":"Stadt"},"district":{"key":"01056","name":"Pinneberg","type":"Kreis"},"federalState":{"key":"01","name":"Schleswig-Holstein"}},{"name":"Feldbehnstr.","postalCode":"25451","locality":"Quickborn","municipality":{"key":"01056041","name":"Quickborn, Stadt","type":"Stadt"},"district":{"key":"01056","name":"Pinneberg","type":"Kreis"},"federalState":{"key":"01","name":"Schleswig-Holstein"}},{"name":"Feldbehnsweg","postalCode":"25451","locality":"Quickborn","municipality":{"key":"01056041","name":"Quickborn, Stadt","type":"Stadt"},"district":{"key":"01056","name":"Pinneberg","type":"Kreis"},"federalState":{"key":"01","name":"Schleswig-Holstein"}},{"name":"Feldstr.","postalCode":"25451","locality":"Quickborn","municipality":{"key":"01056041","name":"Quickborn, Stadt","type":"Stadt"},"district":{"key":"01056","name":"Pinneberg","type":"Kreis"},"federalState":{"key":"01","name":"Schleswig-Holstein"}},{"name":"Finkenweg","postalCode":"25451","locality":"Quickborn","municipality":{"key":"01056041","name":"Quickborn, Stadt","type":"Stadt"},"district":{"key":"01056","name":"Pinneberg","type":"Kreis"},"federalState":{"key":"01","name":"Schleswig-Holstein"}},{"name":"Fontanestr.","postalCode":"25451","locality":"Quickborn","municipality":{"key":"01056041","name":"Quickborn, Stadt","type":"Stadt"},"district":{"key":"01056","name":"Pinneberg","type":"Kreis"},"federalState":{"key":"01","name":"Schleswig-Holstein"}},{"name":"Friedenstr.","postalCode":"25451","locality":"Quickborn","municipality":{"key":"01056041","name":"Quickborn, Stadt","type":"Stadt"},"district":{"key":"01056","name":"Pinneberg","type":"Kreis"},"federalState":{"key":"01","name":"Schleswig-Holstein"}},{"name":"Friedhofsweg","postalCode":"25451","locality":"Quickborn","municipality":{"key":"01056041","name":"Quickborn, Stadt","type":"Stadt"},"district":{"key":"01056","name":"Pinneberg","type":"Kreis"},"federalState":{"key":"01","name":"Schleswig-Holstein"}},{"name":"Friedlandstr.","postalCode":"25451","locality":"Quickborn","municipality":{"key":"01056041","name":"Quickborn, Stadt","type":"Stadt"},"district":{"key":"01056","name":"Pinneberg","type":"Kreis"},"federalState":{"key":"01","name":"Schleswig-Holstein"}},{"name":"Friedrichsgaber Str.","postalCode":"25451","locality":"Quickborn","municipality":{"key":"01056041","name":"Quickborn, Stadt","type":"Stadt"},"district":{"key":"01056","name":"Pinneberg","type":"Kreis"},"federalState":{"key":"01","name":"Schleswig-Holstein"}},{"name":"Fritz-Reuter-Str.","postalCode":"25451","locality":"Quickborn","municipality":{"key":"01056041","name":"Quickborn, Stadt","type":"Stadt"},"district":{"key":"01056","name":"Pinneberg","type":"Kreis"},"federalState":{"key":"01","name":"Schleswig-Holstein"}},{"name":"Gärtnerstr.","postalCode":"25451","locality":"Quickborn","municipality":{"key":"01056041","name":"Quickborn, Stadt","type":"Stadt"},"district":{"key":"01056","name":"Pinneberg","type":"Kreis"},"federalState":{"key":"01","name":"Schleswig-Holstein"}},{"name":"Gärtnertwiete","postalCode":"25451","locality":"Quickborn","municipality":{"key":"01056041","name":"Quickborn, Stadt","type":"Stadt"},"district":{"key":"01056","name":"Pinneberg","type":"Kreis"},"federalState":{"key":"01","name":"Schleswig-Holstein"}},{"name":"Georg-Kolbe-Stieg","postalCode":"25451","locality":"Quickborn","municipality":{"key":"01056041","name":"Quickborn, Stadt","type":"Stadt"},"district":{"key":"01056","name":"Pinneberg","type":"Kreis"},"federalState":{"key":"01","name":"Schleswig-Holstein"}},{"name":"Georg-Kolbe-Weg","postalCode":"25451","locality":"Quickborn","municipality":{"key":"01056041","name":"Quickborn, Stadt","type":"Stadt"},"district":{"key":"01056","name":"Pinneberg","type":"Kreis"},"federalState":{"key":"01","name":"Schleswig-Holstein"}},{"name":"Gerberstr.","postalCode":"25451","locality":"Quickborn","municipality":{"key":"01056041","name":"Quickborn, Stadt","type":"Stadt"},"district":{"key":"01056","name":"Pinneberg","type":"Kreis"},"federalState":{"key":"01","name":"Schleswig-Holstein"}},{"name":"Ginsterkamp","postalCode":"25451","locality":"Quickborn","municipality":{"key":"01056041","name":"Quickborn, Stadt","type":"Stadt"},"district":{"key":"01056","name":"Pinneberg","type":"Kreis"},"federalState":{"key":"01","name":"Schleswig-Holstein"}},{"name":"Ginstertwiete","postalCode":"25451","locality":"Quickborn","municipality":{"key":"01056041","name":"Quickborn, Stadt","type":"Stadt"},"district":{"key":"01056","name":"Pinneberg","type":"Kreis"},"federalState":{"key":"01","name":"Schleswig-Holstein"}},{"name":"Goethestr.","postalCode":"25451","locality":"Quickborn","municipality":{"key":"01056041","name":"Quickborn, Stadt","type":"Stadt"},"district":{"key":"01056","name":"Pinneberg","type":"Kreis"},"federalState":{"key":"01","name":"Schleswig-Holstein"}},{"name":"Gorch-Fock-Kehre","postalCode":"25451","locality":"Quickborn","municipality":{"key":"01056041","name":"Quickborn, Stadt","type":"Stadt"},"district":{"key":"01056","name":"Pinneberg","type":"Kreis"},"federalState":{"key":"01","name":"Schleswig-Holstein"}},{"name":"Grandweg","postalCode":"25451","locality":"Quickborn","municipality":{"key":"01056041","name":"Quickborn, Stadt","type":"Stadt"},"district":{"key":"01056","name":"Pinneberg","type":"Kreis"},"federalState":{"key":"01","name":"Schleswig-Holstein"}},{"name":"Grevensberg","postalCode":"25712","locality":"Quickborn","municipality":{"key":"01051089","name":"Quickborn","type":"Kreisangehörige_Gemeinde"},"district":{"key":"01051","name":"Dithmarschen","type":"Kreis"},"federalState":{"key":"01","name":"Schleswig-Holstein"}},{"name":"Gustav-Falke-Str.","postalCode":"25451","locality":"Quickborn","municipality":{"key":"01056041","name":"Quickborn, Stadt","type":"Stadt"},"district":{"key":"01056","name":"Pinneberg","type":"Kreis"},"federalState":{"key":"01","name":"Schleswig-Holstein"}},{"name":"Güttloh","postalCode":"25451","locality":"Quickborn","municipality":{"key":"01056041","name":"Quickborn, Stadt","type":"Stadt"},"district":{"key":"01056","name":"Pinneberg","type":"Kreis"},"federalState":{"key":"01","name":"Schleswig-Holstein"}},{"name":"Habichtshorst","postalCode":"25451","locality":"Quickborn","municipality":{"key":"01056041","name":"Quickborn, Stadt","type":"Stadt"},"district":{"key":"01056","name":"Pinneberg","type":"Kreis"},"federalState":{"key":"01","name":"Schleswig-Holstein"}},{"name":"Habichtstr.","postalCode":"25451","locality":"Quickborn","municipality":{"key":"01056041","name":"Quickborn, Stadt","type":"Stadt"},"district":{"key":"01056","name":"Pinneberg","type":"Kreis"},"federalState":{"key":"01","name":"Schleswig-Holstein"}},{"name":"Hainbuchenstieg","postalCode":"25451","locality":"Quickborn","municipality":{"key":"01056041","name":"Quickborn, Stadt","type":"Stadt"},"district":{"key":"01056","name":"Pinneberg","type":"Kreis"},"federalState":{"key":"01","name":"Schleswig-Holstein"}},{"name":"Halenberg","postalCode":"25451","locality":"Quickborn","municipality":{"key":"01056041","name":"Quickborn, Stadt","type":"Stadt"},"district":{"key":"01056","name":"Pinneberg","type":"Kreis"},"federalState":{"key":"01","name":"Schleswig-Holstein"}},{"name":"Hamburger Str.","postalCode":"25451","locality":"Quickborn","municipality":{"key":"01056041","name":"Quickborn, Stadt","type":"Stadt"},"district":{"key":"01056","name":"Pinneberg","type":"Kreis"},"federalState":{"key":"01","name":"Schleswig-Holstein"}},{"name":"Hans-Heyden-Str.","postalCode":"25451","locality":"Quickborn","municipality":{"key":"01056041","name":"Quickborn, Stadt","type":"Stadt"},"district":{"key":"01056","name":"Pinneberg","type":"Kreis"},"federalState":{"key":"01","name":"Schleswig-Holstein"}},{"name":"Hans-Leip-Str.","postalCode":"25451","locality":"Quickborn","municipality":{"key":"01056041","name":"Quickborn, Stadt","type":"Stadt"},"district":{"key":"01056","name":"Pinneberg","type":"Kreis"},"federalState":{"key":"01","name":"Schleswig-Holstein"}},{"name":"Hans-Rantzau-Str.","postalCode":"25451","locality":"Quickborn","municipality":{"key":"01056041","name":"Quickborn, Stadt","type":"Stadt"},"district":{"key":"01056","name":"Pinneberg","type":"Kreis"},"federalState":{"key":"01","name":"Schleswig-Holstein"}},{"name":"Harksheider Weg","postalCode":"25451","locality":"Quickborn","municipality":{"key":"01056041","name":"Quickborn, Stadt","type":"Stadt"},"district":{"key":"01056","name":"Pinneberg","type":"Kreis"},"federalState":{"key":"01","name":"Schleswig-Holstein"}},{"name":"Hasloher Twiete","postalCode":"25451","locality":"Quickborn","municipality":{"key":"01056041","name":"Quickborn, Stadt","type":"Stadt"},"district":{"key":"01056","name":"Pinneberg","type":"Kreis"},"federalState":{"key":"01","name":"Schleswig-Holstein"}},{"name":"Hauptstr.","postalCode":"25712","locality":"Quickborn","municipality":{"key":"01051089","name":"Quickborn","type":"Kreisangehörige_Gemeinde"},"district":{"key":"01051","name":"Dithmarschen","type":"Kreis"},"federalState":{"key":"01","name":"Schleswig-Holstein"}},{"name":"Hebbelstr.","postalCode":"25451","locality":"Quickborn","municipality":{"key":"01056041","name":"Quickborn, Stadt","type":"Stadt"},"district":{"key":"01056","name":"Pinneberg","type":"Kreis"},"federalState":{"key":"01","name":"Schleswig-Holstein"}},{"name":"Heideweg","postalCode":"25451","locality":"Quickborn","municipality":{"key":"01056041","name":"Quickborn, Stadt","type":"Stadt"},"district":{"key":"01056","name":"Pinneberg","type":"Kreis"},"federalState":{"key":"01","name":"Schleswig-Holstein"}},{"name":"Heidkampstr.","postalCode":"25451","locality":"Quickborn","municipality":{"key":"01056041","name":"Quickborn, Stadt","type":"Stadt"},"district":{"key":"01056","name":"Pinneberg","type":"Kreis"},"federalState":{"key":"01","name":"Schleswig-Holstein"}},{"name":"Heidkamptwiete","postalCode":"25451","locality":"Quickborn","municipality":{"key":"01056041","name":"Quickborn, Stadt","type":"Stadt"},"district":{"key":"01056","name":"Pinneberg","type":"Kreis"},"federalState":{"key":"01","name":"Schleswig-Holstein"}},{"name":"Heinrich-Heine-Str.","postalCode":"25451","locality":"Quickborn","municipality":{"key":"01056041","name":"Quickborn, Stadt","type":"Stadt"},"district":{"key":"01056","name":"Pinneberg","type":"Kreis"},"federalState":{"key":"01","name":"Schleswig-Holstein"}},{"name":"Heinrich-Hertz-Str.","postalCode":"25451","locality":"Quickborn","municipality":{"key":"01056041","name":"Quickborn, Stadt","type":"Stadt"},"district":{"key":"01056","name":"Pinneberg","type":"Kreis"},"federalState":{"key":"01","name":"Schleswig-Holstein"}},{"name":"Heinrich-Lohse-Str.","postalCode":"25451","locality":"Quickborn","municipality":{"key":"01056041","name":"Quickborn, Stadt","type":"Stadt"},"district":{"key":"01056","name":"Pinneberg","type":"Kreis"},"federalState":{"key":"01","name":"Schleswig-Holstein"}},{"name":"Heinrich-Wellpott-Str.","postalCode":"25451","locality":"Quickborn","municipality":{"key":"01056041","name":"Quickborn, Stadt","type":"Stadt"},"district":{"key":"01056","name":"Pinneberg","type":"Kreis"},"federalState":{"key":"01","name":"Schleswig-Holstein"}},{"name":"Herderstr.","postalCode":"25451","locality":"Quickborn","municipality":{"key":"01056041","name":"Quickborn, Stadt","type":"Stadt"},"district":{"key":"01056","name":"Pinneberg","type":"Kreis"},"federalState":{"key":"01","name":"Schleswig-Holstein"}},{"name":"Hermann-Löns-Str.","postalCode":"25451","locality":"Quickborn","municipality":{"key":"01056041","name":"Quickborn, Stadt","type":"Stadt"},"district":{"key":"01056","name":"Pinneberg","type":"Kreis"},"federalState":{"key":"01","name":"Schleswig-Holstein"}},{"name":"Hertha-Sponer-Kehre","postalCode":"25451","locality":"Quickborn","municipality":{"key":"01056041","name":"Quickborn, Stadt","type":"Stadt"},"district":{"key":"01056","name":"Pinneberg","type":"Kreis"},"federalState":{"key":"01","name":"Schleswig-Holstein"}},{"name":"Hildegard-Burgdorf-Str.","postalCode":"25451","locality":"Quickborn","municipality":{"key":"01056041","name":"Quickborn, Stadt","type":"Stadt"},"district":{"key":"01056","name":"Pinneberg","type":"Kreis"},"federalState":{"key":"01","name":"Schleswig-Holstein"}},{"name":"Himmelmoorchaussee","postalCode":"25451","locality":"Quickborn","municipality":{"key":"01056041","name":"Quickborn, Stadt","type":"Stadt"},"district":{"key":"01056","name":"Pinneberg","type":"Kreis"},"federalState":{"key":"01","name":"Schleswig-Holstein"}},{"name":"Himmelmoorweg","postalCode":"25451","locality":"Quickborn","municipality":{"key":"01056041","name":"Quickborn, Stadt","type":"Stadt"},"district":{"key":"01056","name":"Pinneberg","type":"Kreis"},"federalState":{"key":"01","name":"Schleswig-Holstein"}},{"name":"Hinrich-Fehrs-Str.","postalCode":"25451","locality":"Quickborn","municipality":{"key":"01056041","name":"Quickborn, Stadt","type":"Stadt"},"district":{"key":"01056","name":"Pinneberg","type":"Kreis"},"federalState":{"key":"01","name":"Schleswig-Holstein"}},{"name":"Hochkamp","postalCode":"25451","locality":"Quickborn","municipality":{"key":"01056041","name":"Quickborn, Stadt","type":"Stadt"},"district":{"key":"01056","name":"Pinneberg","type":"Kreis"},"federalState":{"key":"01","name":"Schleswig-Holstein"}},{"name":"Hölderlinstr.","postalCode":"25451","locality":"Quickborn","municipality":{"key":"01056041","name":"Quickborn, Stadt","type":"Stadt"},"district":{"key":"01056","name":"Pinneberg","type":"Kreis"},"federalState":{"key":"01","name":"Schleswig-Holstein"}},{"name":"Holmmoortwiete","postalCode":"25451","locality":"Quickborn","municipality":{"key":"01056041","name":"Quickborn, Stadt","type":"Stadt"},"district":{"key":"01056","name":"Pinneberg","type":"Kreis"},"federalState":{"key":"01","name":"Schleswig-Holstein"}},{"name":"Im Grund","postalCode":"25451","locality":"Quickborn","municipality":{"key":"01056041","name":"Quickborn, Stadt","type":"Stadt"},"district":{"key":"01056","name":"Pinneberg","type":"Kreis"},"federalState":{"key":"01","name":"Schleswig-Holstein"}},{"name":"Jägerstr.","postalCode":"25451","locality":"Quickborn","municipality":{"key":"01056041","name":"Quickborn, Stadt","type":"Stadt"},"district":{"key":"01056","name":"Pinneberg","type":"Kreis"},"federalState":{"key":"01","name":"Schleswig-Holstein"}},{"name":"Jahnstr.","postalCode":"25451","locality":"Quickborn","municipality":{"key":"01056041","name":"Quickborn, Stadt","type":"Stadt"},"district":{"key":"01056","name":"Pinneberg","type":"Kreis"},"federalState":{"key":"01","name":"Schleswig-Holstein"}},{"name":"Johann-Rist-Kehre","postalCode":"25451","locality":"Quickborn","municipality":{"key":"01056041","name":"Quickborn, Stadt","type":"Stadt"},"district":{"key":"01056","name":"Pinneberg","type":"Kreis"},"federalState":{"key":"01","name":"Schleswig-Holstein"}},{"name":"Justus-von-Liebig-Ring","postalCode":"25451","locality":"Quickborn","municipality":{"key":"01056041","name":"Quickborn, Stadt","type":"Stadt"},"district":{"key":"01056","name":"Pinneberg","type":"Kreis"},"federalState":{"key":"01","name":"Schleswig-Holstein"}},{"name":"Kampmoorstr.","postalCode":"25451","locality":"Quickborn","municipality":{"key":"01056041","name":"Quickborn, Stadt","type":"Stadt"},"district":{"key":"01056","name":"Pinneberg","type":"Kreis"},"federalState":{"key":"01","name":"Schleswig-Holstein"}},{"name":"Kampstr.","postalCode":"25451","locality":"Quickborn","municipality":{"key":"01056041","name":"Quickborn, Stadt","type":"Stadt"},"district":{"key":"01056","name":"Pinneberg","type":"Kreis"},"federalState":{"key":"01","name":"Schleswig-Holstein"}},{"name":"Kastanienweg","postalCode":"25451","locality":"Quickborn","municipality":{"key":"01056041","name":"Quickborn, Stadt","type":"Stadt"},"district":{"key":"01056","name":"Pinneberg","type":"Kreis"},"federalState":{"key":"01","name":"Schleswig-Holstein"}},{"name":"Kiefernhain","postalCode":"25451","locality":"Quickborn","municipality":{"key":"01056041","name":"Quickborn, Stadt","type":"Stadt"},"district":{"key":"01056","name":"Pinneberg","type":"Kreis"},"federalState":{"key":"01","name":"Schleswig-Holstein"}},{"name":"Kiefernweg","postalCode":"25451","locality":"Quickborn","municipality":{"key":"01056041","name":"Quickborn, Stadt","type":"Stadt"},"district":{"key":"01056","name":"Pinneberg","type":"Kreis"},"federalState":{"key":"01","name":"Schleswig-Holstein"}},{"name":"Kieler Str.","postalCode":"25451","locality":"Quickborn","municipality":{"key":"01056041","name":"Quickborn, Stadt","type":"Stadt"},"district":{"key":"01056","name":"Pinneberg","type":"Kreis"},"federalState":{"key":"01","name":"Schleswig-Holstein"}},{"name":"Klaus-Groth-Str.","postalCode":"25451","locality":"Quickborn","municipality":{"key":"01056041","name":"Quickborn, Stadt","type":"Stadt"},"district":{"key":"01056","name":"Pinneberg","type":"Kreis"},"federalState":{"key":"01","name":"Schleswig-Holstein"}},{"name":"Kleiststr.","postalCode":"25451","locality":"Quickborn","municipality":{"key":"01056041","name":"Quickborn, Stadt","type":"Stadt"},"district":{"key":"01056","name":"Pinneberg","type":"Kreis"},"federalState":{"key":"01","name":"Schleswig-Holstein"}},{"name":"Klingenberg","postalCode":"25451","locality":"Quickborn","municipality":{"key":"01056041","name":"Quickborn, Stadt","type":"Stadt"},"district":{"key":"01056","name":"Pinneberg","type":"Kreis"},"federalState":{"key":"01","name":"Schleswig-Holstein"}},{"name":"Klöngasse","postalCode":"25451","locality":"Quickborn","municipality":{"key":"01056041","name":"Quickborn, Stadt","type":"Stadt"},"district":{"key":"01056","name":"Pinneberg","type":"Kreis"},"federalState":{"key":"01","name":"Schleswig-Holstein"}},{"name":"Klöterbarg","postalCode":"25712","locality":"Quickborn","municipality":{"key":"01051089","name":"Quickborn","type":"Kreisangehörige_Gemeinde"},"district":{"key":"01051","name":"Dithmarschen","type":"Kreis"},"federalState":{"key":"01","name":"Schleswig-Holstein"}},{"name":"Kornblumenweg","postalCode":"25451","locality":"Quickborn","municipality":{"key":"01056041","name":"Quickborn, Stadt","type":"Stadt"},"district":{"key":"01056","name":"Pinneberg","type":"Kreis"},"federalState":{"key":"01","name":"Schleswig-Holstein"}},{"name":"Krokuskehre","postalCode":"25451","locality":"Quickborn","municipality":{"key":"01056041","name":"Quickborn, Stadt","type":"Stadt"},"district":{"key":"01056","name":"Pinneberg","type":"Kreis"},"federalState":{"key":"01","name":"Schleswig-Holstein"}},{"name":"Kugelfang","postalCode":"25451","locality":"Quickborn","municipality":{"key":"01056041","name":"Quickborn, Stadt","type":"Stadt"},"district":{"key":"01056","name":"Pinneberg","type":"Kreis"},"federalState":{"key":"01","name":"Schleswig-Holstein"}},{"name":"Kurzer Kamp","postalCode":"25451","locality":"Quickborn","municipality":{"key":"01056041","name":"Quickborn, Stadt","type":"Stadt"},"district":{"key":"01056","name":"Pinneberg","type":"Kreis"},"federalState":{"key":"01","name":"Schleswig-Holstein"}},{"name":"Kurzer Weg","postalCode":"25451","locality":"Quickborn","municipality":{"key":"01056041","name":"Quickborn, Stadt","type":"Stadt"},"district":{"key":"01056","name":"Pinneberg","type":"Kreis"},"federalState":{"key":"01","name":"Schleswig-Holstein"}},{"name":"Ladestr.","postalCode":"25451","locality":"Quickborn","municipality":{"key":"01056041","name":"Quickborn, Stadt","type":"Stadt"},"district":{"key":"01056","name":"Pinneberg","type":"Kreis"},"federalState":{"key":"01","name":"Schleswig-Holstein"}},{"name":"Langenkamp","postalCode":"25451","locality":"Quickborn","municipality":{"key":"01056041","name":"Quickborn, Stadt","type":"Stadt"},"district":{"key":"01056","name":"Pinneberg","type":"Kreis"},"federalState":{"key":"01","name":"Schleswig-Holstein"}},{"name":"Lenaustr.","postalCode":"25451","locality":"Quickborn","municipality":{"key":"01056041","name":"Quickborn, Stadt","type":"Stadt"},"district":{"key":"01056","name":"Pinneberg","type":"Kreis"},"federalState":{"key":"01","name":"Schleswig-Holstein"}},{"name":"Lerchenweg","postalCode":"25451","locality":"Quickborn","municipality":{"key":"01056041","name":"Quickborn, Stadt","type":"Stadt"},"district":{"key":"01056","name":"Pinneberg","type":"Kreis"},"federalState":{"key":"01","name":"Schleswig-Holstein"}},{"name":"Lessingstr.","postalCode":"25451","locality":"Quickborn","municipality":{"key":"01056041","name":"Quickborn, Stadt","type":"Stadt"},"district":{"key":"01056","name":"Pinneberg","type":"Kreis"},"federalState":{"key":"01","name":"Schleswig-Holstein"}},{"name":"Liliencronstr.","postalCode":"25451","locality":"Quickborn","municipality":{"key":"01056041","name":"Quickborn, Stadt","type":"Stadt"},"district":{"key":"01056","name":"Pinneberg","type":"Kreis"},"federalState":{"key":"01","name":"Schleswig-Holstein"}},{"name":"Lilienstr.","postalCode":"25451","locality":"Quickborn","municipality":{"key":"01056041","name":"Quickborn, Stadt","type":"Stadt"},"district":{"key":"01056","name":"Pinneberg","type":"Kreis"},"federalState":{"key":"01","name":"Schleswig-Holstein"}},{"name":"Lindenstr.","postalCode":"25451","locality":"Quickborn","municipality":{"key":"01056041","name":"Quickborn, Stadt","type":"Stadt"},"district":{"key":"01056","name":"Pinneberg","type":"Kreis"},"federalState":{"key":"01","name":"Schleswig-Holstein"}},{"name":"Lise-Meitner-Weg","postalCode":"25451","locality":"Quickborn","municipality":{"key":"01056041","name":"Quickborn, Stadt","type":"Stadt"},"district":{"key":"01056","name":"Pinneberg","type":"Kreis"},"federalState":{"key":"01","name":"Schleswig-Holstein"}},{"name":"Lornsenstr.","postalCode":"25451","locality":"Quickborn","municipality":{"key":"01056041","name":"Quickborn, Stadt","type":"Stadt"},"district":{"key":"01056","name":"Pinneberg","type":"Kreis"},"federalState":{"key":"01","name":"Schleswig-Holstein"}},{"name":"Marie-Curie-Str.","postalCode":"25451","locality":"Quickborn","municipality":{"key":"01056041","name":"Quickborn, Stadt","type":"Stadt"},"district":{"key":"01056","name":"Pinneberg","type":"Kreis"},"federalState":{"key":"01","name":"Schleswig-Holstein"}},{"name":"Marienhöhe","postalCode":"25451","locality":"Quickborn","municipality":{"key":"01056041","name":"Quickborn, Stadt","type":"Stadt"},"district":{"key":"01056","name":"Pinneberg","type":"Kreis"},"federalState":{"key":"01","name":"Schleswig-Holstein"}},{"name":"Marienweg","postalCode":"25451","locality":"Quickborn","municipality":{"key":"01056041","name":"Quickborn, Stadt","type":"Stadt"},"district":{"key":"01056","name":"Pinneberg","type":"Kreis"},"federalState":{"key":"01","name":"Schleswig-Holstein"}},{"name":"Marktstr.","postalCode":"25451","locality":"Quickborn","municipality":{"key":"01056041","name":"Quickborn, Stadt","type":"Stadt"},"district":{"key":"01056","name":"Pinneberg","type":"Kreis"},"federalState":{"key":"01","name":"Schleswig-Holstein"}},{"name":"Matthias-Claudius-Ring","postalCode":"25451","locality":"Quickborn","municipality":{"key":"01056041","name":"Quickborn, Stadt","type":"Stadt"},"district":{"key":"01056","name":"Pinneberg","type":"Kreis"},"federalState":{"key":"01","name":"Schleswig-Holstein"}},{"name":"Max-Planck-Str.","postalCode":"25451","locality":"Quickborn","municipality":{"key":"01056041","name":"Quickborn, Stadt","type":"Stadt"},"district":{"key":"01056","name":"Pinneberg","type":"Kreis"},"federalState":{"key":"01","name":"Schleswig-Holstein"}},{"name":"Moorkehre","postalCode":"25451","locality":"Quickborn","municipality":{"key":"01056041","name":"Quickborn, Stadt","type":"Stadt"},"district":{"key":"01056","name":"Pinneberg","type":"Kreis"},"federalState":{"key":"01","name":"Schleswig-Holstein"}},{"name":"Mörikeweg","postalCode":"25451","locality":"Quickborn","municipality":{"key":"01056041","name":"Quickborn, Stadt","type":"Stadt"},"district":{"key":"01056","name":"Pinneberg","type":"Kreis"},"federalState":{"key":"01","name":"Schleswig-Holstein"}},{"name":"Mühlenstr.","postalCode":"25712","locality":"Quickborn","municipality":{"key":"01051089","name":"Quickborn","type":"Kreisangehörige_Gemeinde"},"district":{"key":"01051","name":"Dithmarschen","type":"Kreis"},"federalState":{"key":"01","name":"Schleswig-Holstein"}},{"name":"Nelkenweg","postalCode":"25451","locality":"Quickborn","municipality":{"key":"01056041","name":"Quickborn, Stadt","type":"Stadt"},"district":{"key":"01056","name":"Pinneberg","type":"Kreis"},"federalState":{"key":"01","name":"Schleswig-Holstein"}},{"name":"Neuer Kamp","postalCode":"25451","locality":"Quickborn","municipality":{"key":"01056041","name":"Quickborn, Stadt","type":"Stadt"},"district":{"key":"01056","name":"Pinneberg","type":"Kreis"},"federalState":{"key":"01","name":"Schleswig-Holstein"}},{"name":"Ohlmöhlenweg","postalCode":"25451","locality":"Quickborn","municipality":{"key":"01056041","name":"Quickborn, Stadt","type":"Stadt"},"district":{"key":"01056","name":"Pinneberg","type":"Kreis"},"federalState":{"key":"01","name":"Schleswig-Holstein"}},{"name":"Ole Tann","postalCode":"25451","locality":"Quickborn","municipality":{"key":"01056041","name":"Quickborn, Stadt","type":"Stadt"},"district":{"key":"01056","name":"Pinneberg","type":"Kreis"},"federalState":{"key":"01","name":"Schleswig-Holstein"}},{"name":"Otto-Hahn-Str.","postalCode":"25451","locality":"Quickborn","municipality":{"key":"01056041","name":"Quickborn, Stadt","type":"Stadt"},"district":{"key":"01056","name":"Pinneberg","type":"Kreis"},"federalState":{"key":"01","name":"Schleswig-Holstein"}},{"name":"Pappelweg","postalCode":"25451","locality":"Quickborn","municipality":{"key":"01056041","name":"Quickborn, Stadt","type":"Stadt"},"district":{"key":"01056","name":"Pinneberg","type":"Kreis"},"federalState":{"key":"01","name":"Schleswig-Holstein"}},{"name":"Paul-Warnecke-Platz","postalCode":"25451","locality":"Quickborn","municipality":{"key":"01056041","name":"Quickborn, Stadt","type":"Stadt"},"district":{"key":"01056","name":"Pinneberg","type":"Kreis"},"federalState":{"key":"01","name":"Schleswig-Holstein"}},{"name":"Pinnauweg","postalCode":"25451","locality":"Quickborn","municipality":{"key":"01056041","name":"Quickborn, Stadt","type":"Stadt"},"district":{"key":"01056","name":"Pinneberg","type":"Kreis"},"federalState":{"key":"01","name":"Schleswig-Holstein"}},{"name":"Pinneberger Str.","postalCode":"25451","locality":"Quickborn","municipality":{"key":"01056041","name":"Quickborn, Stadt","type":"Stadt"},"district":{"key":"01056","name":"Pinneberg","type":"Kreis"},"federalState":{"key":"01","name":"Schleswig-Holstein"}},{"name":"Pommernring","postalCode":"25451","locality":"Quickborn","municipality":{"key":"01056041","name":"Quickborn, Stadt","type":"Stadt"},"district":{"key":"01056","name":"Pinneberg","type":"Kreis"},"federalState":{"key":"01","name":"Schleswig-Holstein"}},{"name":"Potsdamer Kehre","postalCode":"25451","locality":"Quickborn","municipality":{"key":"01056041","name":"Quickborn, Stadt","type":"Stadt"},"district":{"key":"01056","name":"Pinneberg","type":"Kreis"},"federalState":{"key":"01","name":"Schleswig-Holstein"}},{"name":"Querkamp","postalCode":"25451","locality":"Quickborn","municipality":{"key":"01056041","name":"Quickborn, Stadt","type":"Stadt"},"district":{"key":"01056","name":"Pinneberg","type":"Kreis"},"federalState":{"key":"01","name":"Schleswig-Holstein"}},{"name":"Querstr.","postalCode":"25451","locality":"Quickborn","municipality":{"key":"01056041","name":"Quickborn, Stadt","type":"Stadt"},"district":{"key":"01056","name":"Pinneberg","type":"Kreis"},"federalState":{"key":"01","name":"Schleswig-Holstein"}},{"name":"Rader Str.","postalCode":"25712","locality":"Quickborn","municipality":{"key":"01051089","name":"Quickborn","type":"Kreisangehörige_Gemeinde"},"district":{"key":"01051","name":"Dithmarschen","type":"Kreis"},"federalState":{"key":"01","name":"Schleswig-Holstein"}},{"name":"Raiffeisenstieg","postalCode":"25451","locality":"Quickborn","municipality":{"key":"01056041","name":"Quickborn, Stadt","type":"Stadt"},"district":{"key":"01056","name":"Pinneberg","type":"Kreis"},"federalState":{"key":"01","name":"Schleswig-Holstein"}},{"name":"Raiffeisenstr.","postalCode":"25451","locality":"Quickborn","municipality":{"key":"01056041","name":"Quickborn, Stadt","type":"Stadt"},"district":{"key":"01056","name":"Pinneberg","type":"Kreis"},"federalState":{"key":"01","name":"Schleswig-Holstein"}},{"name":"Renzeler Str.","postalCode":"25451","locality":"Quickborn","municipality":{"key":"01056041","name":"Quickborn, Stadt","type":"Stadt"},"district":{"key":"01056","name":"Pinneberg","type":"Kreis"},"federalState":{"key":"01","name":"Schleswig-Holstein"}},{"name":"Reventlowkehre","postalCode":"25451","locality":"Quickborn","municipality":{"key":"01056041","name":"Quickborn, Stadt","type":"Stadt"},"district":{"key":"01056","name":"Pinneberg","type":"Kreis"},"federalState":{"key":"01","name":"Schleswig-Holstein"}},{"name":"Ricarda-Huch-Str.","postalCode":"25451","locality":"Quickborn","municipality":{"key":"01056041","name":"Quickborn, Stadt","type":"Stadt"},"district":{"key":"01056","name":"Pinneberg","type":"Kreis"},"federalState":{"key":"01","name":"Schleswig-Holstein"}},{"name":"Rilkestr.","postalCode":"25451","locality":"Quickborn","municipality":{"key":"01056041","name":"Quickborn, Stadt","type":"Stadt"},"district":{"key":"01056","name":"Pinneberg","type":"Kreis"},"federalState":{"key":"01","name":"Schleswig-Holstein"}},{"name":"Rosenkehre","postalCode":"25451","locality":"Quickborn","municipality":{"key":"01056041","name":"Quickborn, Stadt","type":"Stadt"},"district":{"key":"01056","name":"Pinneberg","type":"Kreis"},"federalState":{"key":"01","name":"Schleswig-Holstein"}},{"name":"Rotdornweg","postalCode":"25451","locality":"Quickborn","municipality":{"key":"01056041","name":"Quickborn, Stadt","type":"Stadt"},"district":{"key":"01056","name":"Pinneberg","type":"Kreis"},"federalState":{"key":"01","name":"Schleswig-Holstein"}},{"name":"Rudolf-Kinau-Str.","postalCode":"25451","locality":"Quickborn","municipality":{"key":"01056041","name":"Quickborn, Stadt","type":"Stadt"},"district":{"key":"01056","name":"Pinneberg","type":"Kreis"},"federalState":{"key":"01","name":"Schleswig-Holstein"}},{"name":"Sandkehre","postalCode":"25451","locality":"Quickborn","municipality":{"key":"01056041","name":"Quickborn, Stadt","type":"Stadt"},"district":{"key":"01056","name":"Pinneberg","type":"Kreis"},"federalState":{"key":"01","name":"Schleswig-Holstein"}},{"name":"Schillerstr.","postalCode":"25451","locality":"Quickborn","municipality":{"key":"01056041","name":"Quickborn, Stadt","type":"Stadt"},"district":{"key":"01056","name":"Pinneberg","type":"Kreis"},"federalState":{"key":"01","name":"Schleswig-Holstein"}},{"name":"Schlesienstr.","postalCode":"25451","locality":"Quickborn","municipality":{"key":"01056041","name":"Quickborn, Stadt","type":"Stadt"},"district":{"key":"01056","name":"Pinneberg","type":"Kreis"},"federalState":{"key":"01","name":"Schleswig-Holstein"}},{"name":"Schulstr.","postalCode":"25451","locality":"Quickborn","municipality":{"key":"01056041","name":"Quickborn, Stadt","type":"Stadt"},"district":{"key":"01056","name":"Pinneberg","type":"Kreis"},"federalState":{"key":"01","name":"Schleswig-Holstein"}},{"name":"Schulweg","postalCode":"25451","locality":"Quickborn","municipality":{"key":"01056041","name":"Quickborn, Stadt","type":"Stadt"},"district":{"key":"01056","name":"Pinneberg","type":"Kreis"},"federalState":{"key":"01","name":"Schleswig-Holstein"}},{"name":"Schützenstr.","postalCode":"25451","locality":"Quickborn","municipality":{"key":"01056041","name":"Quickborn, Stadt","type":"Stadt"},"district":{"key":"01056","name":"Pinneberg","type":"Kreis"},"federalState":{"key":"01","name":"Schleswig-Holstein"}},{"name":"Schwartmoorallee","postalCode":"25451","locality":"Quickborn","municipality":{"key":"01056041","name":"Quickborn, Stadt","type":"Stadt"},"district":{"key":"01056","name":"Pinneberg","type":"Kreis"},"federalState":{"key":"01","name":"Schleswig-Holstein"}},{"name":"Schwartmoorweg","postalCode":"25451","locality":"Quickborn","municipality":{"key":"01056041","name":"Quickborn, Stadt","type":"Stadt"},"district":{"key":"01056","name":"Pinneberg","type":"Kreis"},"federalState":{"key":"01","name":"Schleswig-Holstein"}},{"name":"Sonnenblumenweg","postalCode":"25451","locality":"Quickborn","municipality":{"key":"01056041","name":"Quickborn, Stadt","type":"Stadt"},"district":{"key":"01056","name":"Pinneberg","type":"Kreis"},"federalState":{"key":"01","name":"Schleswig-Holstein"}},{"name":"Sperberweg","postalCode":"25451","locality":"Quickborn","municipality":{"key":"01056041","name":"Quickborn, Stadt","type":"Stadt"},"district":{"key":"01056","name":"Pinneberg","type":"Kreis"},"federalState":{"key":"01","name":"Schleswig-Holstein"}},{"name":"Steertmoorweg","postalCode":"25451","locality":"Quickborn","municipality":{"key":"01056041","name":"Quickborn, Stadt","type":"Stadt"},"district":{"key":"01056","name":"Pinneberg","type":"Kreis"},"federalState":{"key":"01","name":"Schleswig-Holstein"}},{"name":"Strüvenweg","postalCode":"25451","locality":"Quickborn","municipality":{"key":"01056041","name":"Quickborn, Stadt","type":"Stadt"},"district":{"key":"01056","name":"Pinneberg","type":"Kreis"},"federalState":{"key":"01","name":"Schleswig-Holstein"}},{"name":"Süderkamp","postalCode":"25451","locality":"Quickborn","municipality":{"key":"01056041","name":"Quickborn, Stadt","type":"Stadt"},"district":{"key":"01056","name":"Pinneberg","type":"Kreis"},"federalState":{"key":"01","name":"Schleswig-Holstein"}},{"name":"Süderstr.","postalCode":"25451","locality":"Quickborn","municipality":{"key":"01056041","name":"Quickborn, Stadt","type":"Stadt"},"district":{"key":"01056","name":"Pinneberg","type":"Kreis"},"federalState":{"key":"01","name":"Schleswig-Holstein"}},{"name":"Talstr.","postalCode":"25451","locality":"Quickborn","municipality":{"key":"01056041","name":"Quickborn, Stadt","type":"Stadt"},"district":{"key":"01056","name":"Pinneberg","type":"Kreis"},"federalState":{"key":"01","name":"Schleswig-Holstein"}},{"name":"Tangstedter Str.","postalCode":"25451","locality":"Quickborn","municipality":{"key":"01056041","name":"Quickborn, Stadt","type":"Stadt"},"district":{"key":"01056","name":"Pinneberg","type":"Kreis"},"federalState":{"key":"01","name":"Schleswig-Holstein"}},{"name":"Tannenweg","postalCode":"25451","locality":"Quickborn","municipality":{"key":"01056041","name":"Quickborn, Stadt","type":"Stadt"},"district":{"key":"01056","name":"Pinneberg","type":"Kreis"},"federalState":{"key":"01","name":"Schleswig-Holstein"}},{"name":"Teichstr.","postalCode":"25451","locality":"Quickborn","municipality":{"key":"01056041","name":"Quickborn, Stadt","type":"Stadt"},"district":{"key":"01056","name":"Pinneberg","type":"Kreis"},"federalState":{"key":"01","name":"Schleswig-Holstein"}},{"name":"Theodor-Körner-Str.","postalCode":"25451","locality":"Quickborn","municipality":{"key":"01056041","name":"Quickborn, Stadt","type":"Stadt"},"district":{"key":"01056","name":"Pinneberg","type":"Kreis"},"federalState":{"key":"01","name":"Schleswig-Holstein"}},{"name":"Theodor-Storm-Str.","postalCode":"25451","locality":"Quickborn","municipality":{"key":"01056041","name":"Quickborn, Stadt","type":"Stadt"},"district":{"key":"01056","name":"Pinneberg","type":"Kreis"},"federalState":{"key":"01","name":"Schleswig-Holstein"}},{"name":"Thörlsweg","postalCode":"25451","locality":"Quickborn","municipality":{"key":"01056041","name":"Quickborn, Stadt","type":"Stadt"},"district":{"key":"01056","name":"Pinneberg","type":"Kreis"},"federalState":{"key":"01","name":"Schleswig-Holstein"}},{"name":"Timm-Kröger-Str.","postalCode":"25451","locality":"Quickborn","municipality":{"key":"01056041","name":"Quickborn, Stadt","type":"Stadt"},"district":{"key":"01056","name":"Pinneberg","type":"Kreis"},"federalState":{"key":"01","name":"Schleswig-Holstein"}},{"name":"Torfstr.","postalCode":"25451","locality":"Quickborn","municipality":{"key":"01056041","name":"Quickborn, Stadt","type":"Stadt"},"district":{"key":"01056","name":"Pinneberg","type":"Kreis"},"federalState":{"key":"01","name":"Schleswig-Holstein"}},{"name":"Tränkeweg","postalCode":"25451","locality":"Quickborn","municipality":{"key":"01056041","name":"Quickborn, Stadt","type":"Stadt"},"district":{"key":"01056","name":"Pinneberg","type":"Kreis"},"federalState":{"key":"01","name":"Schleswig-Holstein"}},{"name":"Tulpenstr.","postalCode":"25451","locality":"Quickborn","municipality":{"key":"01056041","name":"Quickborn, Stadt","type":"Stadt"},"district":{"key":"01056","name":"Pinneberg","type":"Kreis"},"federalState":{"key":"01","name":"Schleswig-Holstein"}},{"name":"Uhlandstr.","postalCode":"25451","locality":"Quickborn","municipality":{"key":"01056041","name":"Quickborn, Stadt","type":"Stadt"},"district":{"key":"01056","name":"Pinneberg","type":"Kreis"},"federalState":{"key":"01","name":"Schleswig-Holstein"}},{"name":"Ulmenweg","postalCode":"25451","locality":"Quickborn","municipality":{"key":"01056041","name":"Quickborn, Stadt","type":"Stadt"},"district":{"key":"01056","name":"Pinneberg","type":"Kreis"},"federalState":{"key":"01","name":"Schleswig-Holstein"}},{"name":"Ulzburger Landstr.","postalCode":"25451","locality":"Quickborn","municipality":{"key":"01056041","name":"Quickborn, Stadt","type":"Stadt"},"district":{"key":"01056","name":"Pinneberg","type":"Kreis"},"federalState":{"key":"01","name":"Schleswig-Holstein"}},{"name":"Vörn Felben","postalCode":"25451","locality":"Quickborn","municipality":{"key":"01056041","name":"Quickborn, Stadt","type":"Stadt"},"district":{"key":"01056","name":"Pinneberg","type":"Kreis"},"federalState":{"key":"01","name":"Schleswig-Holstein"}},{"name":"Wacholdertwiete","postalCode":"25451","locality":"Quickborn","municipality":{"key":"01056041","name":"Quickborn, Stadt","type":"Stadt"},"district":{"key":"01056","name":"Pinneberg","type":"Kreis"},"federalState":{"key":"01","name":"Schleswig-Holstein"}},{"name":"Waidmannsring","postalCode":"25451","locality":"Quickborn","municipality":{"key":"01056041","name":"Quickborn, Stadt","type":"Stadt"},"district":{"key":"01056","name":"Pinneberg","type":"Kreis"},"federalState":{"key":"01","name":"Schleswig-Holstein"}},{"name":"Waldweg","postalCode":"25451","locality":"Quickborn","municipality":{"key":"01056041","name":"Quickborn, Stadt","type":"Stadt"},"district":{"key":"01056","name":"Pinneberg","type":"Kreis"},"federalState":{"key":"01","name":"Schleswig-Holstein"}},{"name":"Weidenweg","postalCode":"25451","locality":"Quickborn","municipality":{"key":"01056041","name":"Quickborn, Stadt","type":"Stadt"},"district":{"key":"01056","name":"Pinneberg","type":"Kreis"},"federalState":{"key":"01","name":"Schleswig-Holstein"}},{"name":"Wiesengrund","postalCode":"25451","locality":"Quickborn","municipality":{"key":"01056041","name":"Quickborn, Stadt","type":"Stadt"},"district":{"key":"01056","name":"Pinneberg","type":"Kreis"},"federalState":{"key":"01","name":"Schleswig-Holstein"}},{"name":"Wilhelm-Conrad-Röntgen-Stieg","postalCode":"25451","locality":"Quickborn","municipality":{"key":"01056041","name":"Quickborn, Stadt","type":"Stadt"},"district":{"key":"01056","name":"Pinneberg","type":"Kreis"},"federalState":{"key":"01","name":"Schleswig-Holstein"}},{"name":"Zauchenplatz","postalCode":"25451","locality":"Quickborn","municipality":{"key":"01056041","name":"Quickborn, Stadt","type":"Stadt"},"district":{"key":"01056","name":"Pinneberg","type":"Kreis"},"federalState":{"key":"01","name":"Schleswig-Holstein"}},{"name":"Zeppelinstr.","postalCode":"25451","locality":"Quickborn","municipality":{"key":"01056041","name":"Quickborn, Stadt","type":"Stadt"},"district":{"key":"01056","name":"Pinneberg","type":"Kreis"},"federalState":{"key":"01","name":"Schleswig-Holstein"}},{"name":"Ziegenweg","postalCode":"25451","locality":"Quickborn","municipality":{"key":"01056041","name":"Quickborn, Stadt","type":"Stadt"},"district":{"key":"01056","name":"Pinneberg","type":"Kreis"},"federalState":{"key":"01","name":"Schleswig-Holstein"}},{"name":"Ösch","postalCode":"25712","locality":"Quickborn","municipality":{"key":"01051089","name":"Quickborn","type":"Kreisangehörige_Gemeinde"},"district":{"key":"01051","name":"Dithmarschen","type":"Kreis"},"federalState":{"key":"01","name":"Schleswig-Holstein"}},]