[{"name":"Adolf-Schachtner-Str.","postalCode":"84552","locality":"Geratskirchen","municipality":{"key":"09277122","name":"Geratskirchen","type":"Kreisangehörige_Gemeinde"},"district":{"key":"09277","name":"Rottal-Inn","type":"Landkreis"},"federalState":{"key":"09","name":"Bayern"}},{"name":"Ahornstr.","postalCode":"84552","locality":"Geratskirchen","municipality":{"key":"09277122","name":"Geratskirchen","type":"Kreisangehörige_Gemeinde"},"district":{"key":"09277","name":"Rottal-Inn","type":"Landkreis"},"federalState":{"key":"09","name":"Bayern"}},{"name":"Am Schloßberg","postalCode":"84552","locality":"Geratskirchen","municipality":{"key":"09277122","name":"Geratskirchen","type":"Kreisangehörige_Gemeinde"},"district":{"key":"09277","name":"Rottal-Inn","type":"Landkreis"},"federalState":{"key":"09","name":"Bayern"}},{"name":"Eggenfeldener Str.","postalCode":"84552","locality":"Geratskirchen","municipality":{"key":"09277122","name":"Geratskirchen","type":"Kreisangehörige_Gemeinde"},"district":{"key":"09277","name":"Rottal-Inn","type":"Landkreis"},"federalState":{"key":"09","name":"Bayern"}},{"name":"Erlenring","postalCode":"84552","locality":"Geratskirchen","municipality":{"key":"09277122","name":"Geratskirchen","type":"Kreisangehörige_Gemeinde"},"district":{"key":"09277","name":"Rottal-Inn","type":"Landkreis"},"federalState":{"key":"09","name":"Bayern"}},{"name":"Further Str.","postalCode":"84552","locality":"Geratskirchen","municipality":{"key":"09277122","name":"Geratskirchen","type":"Kreisangehörige_Gemeinde"},"district":{"key":"09277","name":"Rottal-Inn","type":"Landkreis"},"federalState":{"key":"09","name":"Bayern"}},{"name":"Georg-Weiß-Str.","postalCode":"84552","locality":"Geratskirchen","municipality":{"key":"09277122","name":"Geratskirchen","type":"Kreisangehörige_Gemeinde"},"district":{"key":"09277","name":"Rottal-Inn","type":"Landkreis"},"federalState":{"key":"09","name":"Bayern"}},{"name":"Hofmark","postalCode":"84552","locality":"Geratskirchen","municipality":{"key":"09277122","name":"Geratskirchen","type":"Kreisangehörige_Gemeinde"},"district":{"key":"09277","name":"Rottal-Inn","type":"Landkreis"},"federalState":{"key":"09","name":"Bayern"}},{"name":"Mermoser Str.","postalCode":"84552","locality":"Geratskirchen","municipality":{"key":"09277122","name":"Geratskirchen","type":"Kreisangehörige_Gemeinde"},"district":{"key":"09277","name":"Rottal-Inn","type":"Landkreis"},"federalState":{"key":"09","name":"Bayern"}},{"name":"Mesnerweg","postalCode":"84552","locality":"Geratskirchen","municipality":{"key":"09277122","name":"Geratskirchen","type":"Kreisangehörige_Gemeinde"},"district":{"key":"09277","name":"Rottal-Inn","type":"Landkreis"},"federalState":{"key":"09","name":"Bayern"}},{"name":"Mühldorfer Str.","postalCode":"84552","locality":"Geratskirchen","municipality":{"key":"09277122","name":"Geratskirchen","type":"Kreisangehörige_Gemeinde"},"district":{"key":"09277","name":"Rottal-Inn","type":"Landkreis"},"federalState":{"key":"09","name":"Bayern"}},{"name":"Oberfeldstr.","postalCode":"84552","locality":"Geratskirchen","municipality":{"key":"09277122","name":"Geratskirchen","type":"Kreisangehörige_Gemeinde"},"district":{"key":"09277","name":"Rottal-Inn","type":"Landkreis"},"federalState":{"key":"09","name":"Bayern"}},{"name":"Ringstr.","postalCode":"84552","locality":"Geratskirchen","municipality":{"key":"09277122","name":"Geratskirchen","type":"Kreisangehörige_Gemeinde"},"district":{"key":"09277","name":"Rottal-Inn","type":"Landkreis"},"federalState":{"key":"09","name":"Bayern"}},{"name":"Schloßbergring","postalCode":"84552","locality":"Geratskirchen","municipality":{"key":"09277122","name":"Geratskirchen","type":"Kreisangehörige_Gemeinde"},"district":{"key":"09277","name":"Rottal-Inn","type":"Landkreis"},"federalState":{"key":"09","name":"Bayern"}},{"name":"Schulweg","postalCode":"84552","locality":"Geratskirchen","municipality":{"key":"09277122","name":"Geratskirchen","type":"Kreisangehörige_Gemeinde"},"district":{"key":"09277","name":"Rottal-Inn","type":"Landkreis"},"federalState":{"key":"09","name":"Bayern"}},{"name":"Unterfeldstr.","postalCode":"84552","locality":"Geratskirchen","municipality":{"key":"09277122","name":"Geratskirchen","type":"Kreisangehörige_Gemeinde"},"district":{"key":"09277","name":"Rottal-Inn","type":"Landkreis"},"federalState":{"key":"09","name":"Bayern"}},{"name":"Wirtstr.","postalCode":"84552","locality":"Geratskirchen","municipality":{"key":"09277122","name":"Geratskirchen","type":"Kreisangehörige_Gemeinde"},"district":{"key":"09277","name":"Rottal-Inn","type":"Landkreis"},"federalState":{"key":"09","name":"Bayern"}},{"name":"Öttinger Str.","postalCode":"84552","locality":"Geratskirchen","municipality":{"key":"09277122","name":"Geratskirchen","type":"Kreisangehörige_Gemeinde"},"district":{"key":"09277","name":"Rottal-Inn","type":"Landkreis"},"federalState":{"key":"09","name":"Bayern"}},]