[{"name":"Abt-Brandt-Str.","postalCode":"97941","locality":"Tauberbischofsheim","municipality":{"key":"08128115","name":"Tauberbischofsheim, Stadt","type":"Stadt"},"district":{"key":"08128","name":"Main-Tauber-Kreis","type":"Landkreis"},"federalState":{"key":"08","name":"Baden-Württemberg"}},{"name":"Adam-Ries-Str.","postalCode":"97941","locality":"Tauberbischofsheim","municipality":{"key":"08128115","name":"Tauberbischofsheim, Stadt","type":"Stadt"},"district":{"key":"08128","name":"Main-Tauber-Kreis","type":"Landkreis"},"federalState":{"key":"08","name":"Baden-Württemberg"}},{"name":"Ahornstr.","postalCode":"97941","locality":"Tauberbischofsheim","municipality":{"key":"08128115","name":"Tauberbischofsheim, Stadt","type":"Stadt"},"district":{"key":"08128","name":"Main-Tauber-Kreis","type":"Landkreis"},"federalState":{"key":"08","name":"Baden-Württemberg"}},{"name":"Albert-Einstein-Str.","postalCode":"97941","locality":"Tauberbischofsheim","municipality":{"key":"08128115","name":"Tauberbischofsheim, Stadt","type":"Stadt"},"district":{"key":"08128","name":"Main-Tauber-Kreis","type":"Landkreis"},"federalState":{"key":"08","name":"Baden-Württemberg"}},{"name":"Albert-Schweitzer-Str.","postalCode":"97941","locality":"Tauberbischofsheim","municipality":{"key":"08128115","name":"Tauberbischofsheim, Stadt","type":"Stadt"},"district":{"key":"08128","name":"Main-Tauber-Kreis","type":"Landkreis"},"federalState":{"key":"08","name":"Baden-Württemberg"}},{"name":"Alte Steige","postalCode":"97941","locality":"Tauberbischofsheim","municipality":{"key":"08128115","name":"Tauberbischofsheim, Stadt","type":"Stadt"},"district":{"key":"08128","name":"Main-Tauber-Kreis","type":"Landkreis"},"federalState":{"key":"08","name":"Baden-Württemberg"}},{"name":"Alte Wertheimer Str.","postalCode":"97941","locality":"Tauberbischofsheim","municipality":{"key":"08128115","name":"Tauberbischofsheim, Stadt","type":"Stadt"},"district":{"key":"08128","name":"Main-Tauber-Kreis","type":"Landkreis"},"federalState":{"key":"08","name":"Baden-Württemberg"}},{"name":"Am Baumgarten","postalCode":"97941","locality":"Tauberbischofsheim","municipality":{"key":"08128115","name":"Tauberbischofsheim, Stadt","type":"Stadt"},"district":{"key":"08128","name":"Main-Tauber-Kreis","type":"Landkreis"},"federalState":{"key":"08","name":"Baden-Württemberg"}},{"name":"Am Bild","postalCode":"97941","locality":"Tauberbischofsheim","municipality":{"key":"08128115","name":"Tauberbischofsheim, Stadt","type":"Stadt"},"district":{"key":"08128","name":"Main-Tauber-Kreis","type":"Landkreis"},"federalState":{"key":"08","name":"Baden-Württemberg"}},{"name":"Am Brenner","postalCode":"97941","locality":"Tauberbischofsheim","municipality":{"key":"08128115","name":"Tauberbischofsheim, Stadt","type":"Stadt"},"district":{"key":"08128","name":"Main-Tauber-Kreis","type":"Landkreis"},"federalState":{"key":"08","name":"Baden-Württemberg"}},{"name":"Am Brunnenrain","postalCode":"97941","locality":"Tauberbischofsheim","municipality":{"key":"08128115","name":"Tauberbischofsheim, Stadt","type":"Stadt"},"district":{"key":"08128","name":"Main-Tauber-Kreis","type":"Landkreis"},"federalState":{"key":"08","name":"Baden-Württemberg"}},{"name":"Am Dittwarer Bahnhof","postalCode":"97941","locality":"Tauberbischofsheim","municipality":{"key":"08128115","name":"Tauberbischofsheim, Stadt","type":"Stadt"},"district":{"key":"08128","name":"Main-Tauber-Kreis","type":"Landkreis"},"federalState":{"key":"08","name":"Baden-Württemberg"}},{"name":"Am Dorf","postalCode":"97941","locality":"Tauberbischofsheim","municipality":{"key":"08128115","name":"Tauberbischofsheim, Stadt","type":"Stadt"},"district":{"key":"08128","name":"Main-Tauber-Kreis","type":"Landkreis"},"federalState":{"key":"08","name":"Baden-Württemberg"}},{"name":"Am Dörrlein","postalCode":"97941","locality":"Tauberbischofsheim","municipality":{"key":"08128115","name":"Tauberbischofsheim, Stadt","type":"Stadt"},"district":{"key":"08128","name":"Main-Tauber-Kreis","type":"Landkreis"},"federalState":{"key":"08","name":"Baden-Württemberg"}},{"name":"Am Eichelberg","postalCode":"97941","locality":"Tauberbischofsheim","municipality":{"key":"08128115","name":"Tauberbischofsheim, Stadt","type":"Stadt"},"district":{"key":"08128","name":"Main-Tauber-Kreis","type":"Landkreis"},"federalState":{"key":"08","name":"Baden-Württemberg"}},{"name":"Am Flur","postalCode":"97941","locality":"Tauberbischofsheim","municipality":{"key":"08128115","name":"Tauberbischofsheim, Stadt","type":"Stadt"},"district":{"key":"08128","name":"Main-Tauber-Kreis","type":"Landkreis"},"federalState":{"key":"08","name":"Baden-Württemberg"}},{"name":"Am Hang","postalCode":"97941","locality":"Tauberbischofsheim","municipality":{"key":"08128115","name":"Tauberbischofsheim, Stadt","type":"Stadt"},"district":{"key":"08128","name":"Main-Tauber-Kreis","type":"Landkreis"},"federalState":{"key":"08","name":"Baden-Württemberg"}},{"name":"Am Haubenlöchlein","postalCode":"97941","locality":"Tauberbischofsheim","municipality":{"key":"08128115","name":"Tauberbischofsheim, Stadt","type":"Stadt"},"district":{"key":"08128","name":"Main-Tauber-Kreis","type":"Landkreis"},"federalState":{"key":"08","name":"Baden-Württemberg"}},{"name":"Am Heimbergsflur","postalCode":"97941","locality":"Tauberbischofsheim","municipality":{"key":"08128115","name":"Tauberbischofsheim, Stadt","type":"Stadt"},"district":{"key":"08128","name":"Main-Tauber-Kreis","type":"Landkreis"},"federalState":{"key":"08","name":"Baden-Württemberg"}},{"name":"Am Höhberg","postalCode":"97941","locality":"Tauberbischofsheim","municipality":{"key":"08128115","name":"Tauberbischofsheim, Stadt","type":"Stadt"},"district":{"key":"08128","name":"Main-Tauber-Kreis","type":"Landkreis"},"federalState":{"key":"08","name":"Baden-Württemberg"}},{"name":"Am Jüdlein","postalCode":"97941","locality":"Tauberbischofsheim","municipality":{"key":"08128115","name":"Tauberbischofsheim, Stadt","type":"Stadt"},"district":{"key":"08128","name":"Main-Tauber-Kreis","type":"Landkreis"},"federalState":{"key":"08","name":"Baden-Württemberg"}},{"name":"Am Käpelle","postalCode":"97941","locality":"Tauberbischofsheim","municipality":{"key":"08128115","name":"Tauberbischofsheim, Stadt","type":"Stadt"},"district":{"key":"08128","name":"Main-Tauber-Kreis","type":"Landkreis"},"federalState":{"key":"08","name":"Baden-Württemberg"}},{"name":"Am Kirschengarten","postalCode":"97941","locality":"Tauberbischofsheim","municipality":{"key":"08128115","name":"Tauberbischofsheim, Stadt","type":"Stadt"},"district":{"key":"08128","name":"Main-Tauber-Kreis","type":"Landkreis"},"federalState":{"key":"08","name":"Baden-Württemberg"}},{"name":"Am Miltenstein","postalCode":"97941","locality":"Tauberbischofsheim","municipality":{"key":"08128115","name":"Tauberbischofsheim, Stadt","type":"Stadt"},"district":{"key":"08128","name":"Main-Tauber-Kreis","type":"Landkreis"},"federalState":{"key":"08","name":"Baden-Württemberg"}},{"name":"Am Neuberg","postalCode":"97941","locality":"Tauberbischofsheim","municipality":{"key":"08128115","name":"Tauberbischofsheim, Stadt","type":"Stadt"},"district":{"key":"08128","name":"Main-Tauber-Kreis","type":"Landkreis"},"federalState":{"key":"08","name":"Baden-Württemberg"}},{"name":"Am Pfarrweinberg","postalCode":"97941","locality":"Tauberbischofsheim","municipality":{"key":"08128115","name":"Tauberbischofsheim, Stadt","type":"Stadt"},"district":{"key":"08128","name":"Main-Tauber-Kreis","type":"Landkreis"},"federalState":{"key":"08","name":"Baden-Württemberg"}},{"name":"Am Rain","postalCode":"97941","locality":"Tauberbischofsheim","municipality":{"key":"08128115","name":"Tauberbischofsheim, Stadt","type":"Stadt"},"district":{"key":"08128","name":"Main-Tauber-Kreis","type":"Landkreis"},"federalState":{"key":"08","name":"Baden-Württemberg"}},{"name":"Am Rebhuhn","postalCode":"97941","locality":"Tauberbischofsheim","municipality":{"key":"08128115","name":"Tauberbischofsheim, Stadt","type":"Stadt"},"district":{"key":"08128","name":"Main-Tauber-Kreis","type":"Landkreis"},"federalState":{"key":"08","name":"Baden-Württemberg"}},{"name":"Am Spielplatz","postalCode":"97941","locality":"Tauberbischofsheim","municipality":{"key":"08128115","name":"Tauberbischofsheim, Stadt","type":"Stadt"},"district":{"key":"08128","name":"Main-Tauber-Kreis","type":"Landkreis"},"federalState":{"key":"08","name":"Baden-Württemberg"}},{"name":"Am Sprait","postalCode":"97941","locality":"Tauberbischofsheim","municipality":{"key":"08128115","name":"Tauberbischofsheim, Stadt","type":"Stadt"},"district":{"key":"08128","name":"Main-Tauber-Kreis","type":"Landkreis"},"federalState":{"key":"08","name":"Baden-Württemberg"}},{"name":"Am Staaten","postalCode":"97941","locality":"Tauberbischofsheim","municipality":{"key":"08128115","name":"Tauberbischofsheim, Stadt","type":"Stadt"},"district":{"key":"08128","name":"Main-Tauber-Kreis","type":"Landkreis"},"federalState":{"key":"08","name":"Baden-Württemberg"}},{"name":"Am Stadtschreiber","postalCode":"97941","locality":"Tauberbischofsheim","municipality":{"key":"08128115","name":"Tauberbischofsheim, Stadt","type":"Stadt"},"district":{"key":"08128","name":"Main-Tauber-Kreis","type":"Landkreis"},"federalState":{"key":"08","name":"Baden-Württemberg"}},{"name":"Am Tiefen Weg","postalCode":"97941","locality":"Tauberbischofsheim","municipality":{"key":"08128115","name":"Tauberbischofsheim, Stadt","type":"Stadt"},"district":{"key":"08128","name":"Main-Tauber-Kreis","type":"Landkreis"},"federalState":{"key":"08","name":"Baden-Württemberg"}},{"name":"Amtstr.","postalCode":"97941","locality":"Tauberbischofsheim","municipality":{"key":"08128115","name":"Tauberbischofsheim, Stadt","type":"Stadt"},"district":{"key":"08128","name":"Main-Tauber-Kreis","type":"Landkreis"},"federalState":{"key":"08","name":"Baden-Württemberg"}},{"name":"Am Weiher","postalCode":"97941","locality":"Tauberbischofsheim","municipality":{"key":"08128115","name":"Tauberbischofsheim, Stadt","type":"Stadt"},"district":{"key":"08128","name":"Main-Tauber-Kreis","type":"Landkreis"},"federalState":{"key":"08","name":"Baden-Württemberg"}},{"name":"Am Wiesenbach","postalCode":"97941","locality":"Tauberbischofsheim","municipality":{"key":"08128115","name":"Tauberbischofsheim, Stadt","type":"Stadt"},"district":{"key":"08128","name":"Main-Tauber-Kreis","type":"Landkreis"},"federalState":{"key":"08","name":"Baden-Württemberg"}},{"name":"Am Wört","postalCode":"97941","locality":"Tauberbischofsheim","municipality":{"key":"08128115","name":"Tauberbischofsheim, Stadt","type":"Stadt"},"district":{"key":"08128","name":"Main-Tauber-Kreis","type":"Landkreis"},"federalState":{"key":"08","name":"Baden-Württemberg"}},{"name":"An der Eisenbahn","postalCode":"97941","locality":"Tauberbischofsheim","municipality":{"key":"08128115","name":"Tauberbischofsheim, Stadt","type":"Stadt"},"district":{"key":"08128","name":"Main-Tauber-Kreis","type":"Landkreis"},"federalState":{"key":"08","name":"Baden-Württemberg"}},{"name":"An der Gänsstirne","postalCode":"97941","locality":"Tauberbischofsheim","municipality":{"key":"08128115","name":"Tauberbischofsheim, Stadt","type":"Stadt"},"district":{"key":"08128","name":"Main-Tauber-Kreis","type":"Landkreis"},"federalState":{"key":"08","name":"Baden-Württemberg"}},{"name":"An der Lehmgrube","postalCode":"97941","locality":"Tauberbischofsheim","municipality":{"key":"08128115","name":"Tauberbischofsheim, Stadt","type":"Stadt"},"district":{"key":"08128","name":"Main-Tauber-Kreis","type":"Landkreis"},"federalState":{"key":"08","name":"Baden-Württemberg"}},{"name":"An der Setz","postalCode":"97941","locality":"Tauberbischofsheim","municipality":{"key":"08128115","name":"Tauberbischofsheim, Stadt","type":"Stadt"},"district":{"key":"08128","name":"Main-Tauber-Kreis","type":"Landkreis"},"federalState":{"key":"08","name":"Baden-Württemberg"}},{"name":"Anton-Schwan-Str.","postalCode":"97941","locality":"Tauberbischofsheim","municipality":{"key":"08128115","name":"Tauberbischofsheim, Stadt","type":"Stadt"},"district":{"key":"08128","name":"Main-Tauber-Kreis","type":"Landkreis"},"federalState":{"key":"08","name":"Baden-Württemberg"}},{"name":"Armstr.","postalCode":"97941","locality":"Tauberbischofsheim","municipality":{"key":"08128115","name":"Tauberbischofsheim, Stadt","type":"Stadt"},"district":{"key":"08128","name":"Main-Tauber-Kreis","type":"Landkreis"},"federalState":{"key":"08","name":"Baden-Württemberg"}},{"name":"Asternweg","postalCode":"97941","locality":"Tauberbischofsheim","municipality":{"key":"08128115","name":"Tauberbischofsheim, Stadt","type":"Stadt"},"district":{"key":"08128","name":"Main-Tauber-Kreis","type":"Landkreis"},"federalState":{"key":"08","name":"Baden-Württemberg"}},{"name":"Bachgasse","postalCode":"97941","locality":"Tauberbischofsheim","municipality":{"key":"08128115","name":"Tauberbischofsheim, Stadt","type":"Stadt"},"district":{"key":"08128","name":"Main-Tauber-Kreis","type":"Landkreis"},"federalState":{"key":"08","name":"Baden-Württemberg"}},{"name":"Badener Ring","postalCode":"97941","locality":"Tauberbischofsheim","municipality":{"key":"08128115","name":"Tauberbischofsheim, Stadt","type":"Stadt"},"district":{"key":"08128","name":"Main-Tauber-Kreis","type":"Landkreis"},"federalState":{"key":"08","name":"Baden-Württemberg"}},{"name":"Badgasse","postalCode":"97941","locality":"Tauberbischofsheim","municipality":{"key":"08128115","name":"Tauberbischofsheim, Stadt","type":"Stadt"},"district":{"key":"08128","name":"Main-Tauber-Kreis","type":"Landkreis"},"federalState":{"key":"08","name":"Baden-Württemberg"}},{"name":"Bahnhofstr.","postalCode":"97941","locality":"Tauberbischofsheim","municipality":{"key":"08128115","name":"Tauberbischofsheim, Stadt","type":"Stadt"},"district":{"key":"08128","name":"Main-Tauber-Kreis","type":"Landkreis"},"federalState":{"key":"08","name":"Baden-Württemberg"}},{"name":"Barbarossaweg","postalCode":"97941","locality":"Tauberbischofsheim","municipality":{"key":"08128115","name":"Tauberbischofsheim, Stadt","type":"Stadt"},"district":{"key":"08128","name":"Main-Tauber-Kreis","type":"Landkreis"},"federalState":{"key":"08","name":"Baden-Württemberg"}},{"name":"Baumgartenweg","postalCode":"97941","locality":"Tauberbischofsheim","municipality":{"key":"08128115","name":"Tauberbischofsheim, Stadt","type":"Stadt"},"district":{"key":"08128","name":"Main-Tauber-Kreis","type":"Landkreis"},"federalState":{"key":"08","name":"Baden-Württemberg"}},{"name":"Bäumlein","postalCode":"97941","locality":"Tauberbischofsheim","municipality":{"key":"08128115","name":"Tauberbischofsheim, Stadt","type":"Stadt"},"district":{"key":"08128","name":"Main-Tauber-Kreis","type":"Landkreis"},"federalState":{"key":"08","name":"Baden-Württemberg"}},{"name":"Beethovenstr.","postalCode":"97941","locality":"Tauberbischofsheim","municipality":{"key":"08128115","name":"Tauberbischofsheim, Stadt","type":"Stadt"},"district":{"key":"08128","name":"Main-Tauber-Kreis","type":"Landkreis"},"federalState":{"key":"08","name":"Baden-Württemberg"}},{"name":"Beim Kindergarten","postalCode":"97941","locality":"Tauberbischofsheim","municipality":{"key":"08128115","name":"Tauberbischofsheim, Stadt","type":"Stadt"},"district":{"key":"08128","name":"Main-Tauber-Kreis","type":"Landkreis"},"federalState":{"key":"08","name":"Baden-Württemberg"}},{"name":"Bergpfad","postalCode":"97941","locality":"Tauberbischofsheim","municipality":{"key":"08128115","name":"Tauberbischofsheim, Stadt","type":"Stadt"},"district":{"key":"08128","name":"Main-Tauber-Kreis","type":"Landkreis"},"federalState":{"key":"08","name":"Baden-Württemberg"}},{"name":"Bergstr.","postalCode":"97941","locality":"Tauberbischofsheim","municipality":{"key":"08128115","name":"Tauberbischofsheim, Stadt","type":"Stadt"},"district":{"key":"08128","name":"Main-Tauber-Kreis","type":"Landkreis"},"federalState":{"key":"08","name":"Baden-Württemberg"}},{"name":"Beundstr.","postalCode":"97941","locality":"Tauberbischofsheim","municipality":{"key":"08128115","name":"Tauberbischofsheim, Stadt","type":"Stadt"},"district":{"key":"08128","name":"Main-Tauber-Kreis","type":"Landkreis"},"federalState":{"key":"08","name":"Baden-Württemberg"}},{"name":"Birkenweg","postalCode":"97941","locality":"Tauberbischofsheim","municipality":{"key":"08128115","name":"Tauberbischofsheim, Stadt","type":"Stadt"},"district":{"key":"08128","name":"Main-Tauber-Kreis","type":"Landkreis"},"federalState":{"key":"08","name":"Baden-Württemberg"}},{"name":"Bleichstr.","postalCode":"97941","locality":"Tauberbischofsheim","municipality":{"key":"08128115","name":"Tauberbischofsheim, Stadt","type":"Stadt"},"district":{"key":"08128","name":"Main-Tauber-Kreis","type":"Landkreis"},"federalState":{"key":"08","name":"Baden-Württemberg"}},{"name":"Blumenstr.","postalCode":"97941","locality":"Tauberbischofsheim","municipality":{"key":"08128115","name":"Tauberbischofsheim, Stadt","type":"Stadt"},"district":{"key":"08128","name":"Main-Tauber-Kreis","type":"Landkreis"},"federalState":{"key":"08","name":"Baden-Württemberg"}},{"name":"Bödeleinsweg","postalCode":"97941","locality":"Tauberbischofsheim","municipality":{"key":"08128115","name":"Tauberbischofsheim, Stadt","type":"Stadt"},"district":{"key":"08128","name":"Main-Tauber-Kreis","type":"Landkreis"},"federalState":{"key":"08","name":"Baden-Württemberg"}},{"name":"Bonifatiusstr.","postalCode":"97941","locality":"Tauberbischofsheim","municipality":{"key":"08128115","name":"Tauberbischofsheim, Stadt","type":"Stadt"},"district":{"key":"08128","name":"Main-Tauber-Kreis","type":"Landkreis"},"federalState":{"key":"08","name":"Baden-Württemberg"}},{"name":"Brahmsweg","postalCode":"97941","locality":"Tauberbischofsheim","municipality":{"key":"08128115","name":"Tauberbischofsheim, Stadt","type":"Stadt"},"district":{"key":"08128","name":"Main-Tauber-Kreis","type":"Landkreis"},"federalState":{"key":"08","name":"Baden-Württemberg"}},{"name":"Brehmbachstr.","postalCode":"97941","locality":"Tauberbischofsheim","municipality":{"key":"08128115","name":"Tauberbischofsheim, Stadt","type":"Stadt"},"district":{"key":"08128","name":"Main-Tauber-Kreis","type":"Landkreis"},"federalState":{"key":"08","name":"Baden-Württemberg"}},{"name":"Brennerring","postalCode":"97941","locality":"Tauberbischofsheim","municipality":{"key":"08128115","name":"Tauberbischofsheim, Stadt","type":"Stadt"},"district":{"key":"08128","name":"Main-Tauber-Kreis","type":"Landkreis"},"federalState":{"key":"08","name":"Baden-Württemberg"}},{"name":"Brentanoweg","postalCode":"97941","locality":"Tauberbischofsheim","municipality":{"key":"08128115","name":"Tauberbischofsheim, Stadt","type":"Stadt"},"district":{"key":"08128","name":"Main-Tauber-Kreis","type":"Landkreis"},"federalState":{"key":"08","name":"Baden-Württemberg"}},{"name":"Brückenstr.","postalCode":"97941","locality":"Tauberbischofsheim","municipality":{"key":"08128115","name":"Tauberbischofsheim, Stadt","type":"Stadt"},"district":{"key":"08128","name":"Main-Tauber-Kreis","type":"Landkreis"},"federalState":{"key":"08","name":"Baden-Württemberg"}},{"name":"Brunnengasse","postalCode":"97941","locality":"Tauberbischofsheim","municipality":{"key":"08128115","name":"Tauberbischofsheim, Stadt","type":"Stadt"},"district":{"key":"08128","name":"Main-Tauber-Kreis","type":"Landkreis"},"federalState":{"key":"08","name":"Baden-Württemberg"}},{"name":"Bundesstr.","postalCode":"97941","locality":"Tauberbischofsheim","municipality":{"key":"08128115","name":"Tauberbischofsheim, Stadt","type":"Stadt"},"district":{"key":"08128","name":"Main-Tauber-Kreis","type":"Landkreis"},"federalState":{"key":"08","name":"Baden-Württemberg"}},{"name":"Burgunderweg","postalCode":"97941","locality":"Tauberbischofsheim","municipality":{"key":"08128115","name":"Tauberbischofsheim, Stadt","type":"Stadt"},"district":{"key":"08128","name":"Main-Tauber-Kreis","type":"Landkreis"},"federalState":{"key":"08","name":"Baden-Württemberg"}},{"name":"Burgweg","postalCode":"97941","locality":"Tauberbischofsheim","municipality":{"key":"08128115","name":"Tauberbischofsheim, Stadt","type":"Stadt"},"district":{"key":"08128","name":"Main-Tauber-Kreis","type":"Landkreis"},"federalState":{"key":"08","name":"Baden-Württemberg"}},{"name":"Buscherstr.","postalCode":"97941","locality":"Tauberbischofsheim","municipality":{"key":"08128115","name":"Tauberbischofsheim, Stadt","type":"Stadt"},"district":{"key":"08128","name":"Main-Tauber-Kreis","type":"Landkreis"},"federalState":{"key":"08","name":"Baden-Württemberg"}},{"name":"Clausingstr.","postalCode":"97941","locality":"Tauberbischofsheim","municipality":{"key":"08128115","name":"Tauberbischofsheim, Stadt","type":"Stadt"},"district":{"key":"08128","name":"Main-Tauber-Kreis","type":"Landkreis"},"federalState":{"key":"08","name":"Baden-Württemberg"}},{"name":"Dahlienweg","postalCode":"97941","locality":"Tauberbischofsheim","municipality":{"key":"08128115","name":"Tauberbischofsheim, Stadt","type":"Stadt"},"district":{"key":"08128","name":"Main-Tauber-Kreis","type":"Landkreis"},"federalState":{"key":"08","name":"Baden-Württemberg"}},{"name":"Daimlerstr.","postalCode":"97941","locality":"Tauberbischofsheim","municipality":{"key":"08128115","name":"Tauberbischofsheim, Stadt","type":"Stadt"},"district":{"key":"08128","name":"Main-Tauber-Kreis","type":"Landkreis"},"federalState":{"key":"08","name":"Baden-Württemberg"}},{"name":"Dittigheimer Str.","postalCode":"97941","locality":"Tauberbischofsheim","municipality":{"key":"08128115","name":"Tauberbischofsheim, Stadt","type":"Stadt"},"district":{"key":"08128","name":"Main-Tauber-Kreis","type":"Landkreis"},"federalState":{"key":"08","name":"Baden-Württemberg"}},{"name":"Dittigheimer Weg","postalCode":"97941","locality":"Tauberbischofsheim","municipality":{"key":"08128115","name":"Tauberbischofsheim, Stadt","type":"Stadt"},"district":{"key":"08128","name":"Main-Tauber-Kreis","type":"Landkreis"},"federalState":{"key":"08","name":"Baden-Württemberg"}},{"name":"Dittwarer Str.","postalCode":"97941","locality":"Tauberbischofsheim","municipality":{"key":"08128115","name":"Tauberbischofsheim, Stadt","type":"Stadt"},"district":{"key":"08128","name":"Main-Tauber-Kreis","type":"Landkreis"},"federalState":{"key":"08","name":"Baden-Württemberg"}},{"name":"Dr.-Burger-Str.","postalCode":"97941","locality":"Tauberbischofsheim","municipality":{"key":"08128115","name":"Tauberbischofsheim, Stadt","type":"Stadt"},"district":{"key":"08128","name":"Main-Tauber-Kreis","type":"Landkreis"},"federalState":{"key":"08","name":"Baden-Württemberg"}},{"name":"Dr.-Stöcker-Weg","postalCode":"97941","locality":"Tauberbischofsheim","municipality":{"key":"08128115","name":"Tauberbischofsheim, Stadt","type":"Stadt"},"district":{"key":"08128","name":"Main-Tauber-Kreis","type":"Landkreis"},"federalState":{"key":"08","name":"Baden-Württemberg"}},{"name":"Dr.-Ulrich-Str.","postalCode":"97941","locality":"Tauberbischofsheim","municipality":{"key":"08128115","name":"Tauberbischofsheim, Stadt","type":"Stadt"},"district":{"key":"08128","name":"Main-Tauber-Kreis","type":"Landkreis"},"federalState":{"key":"08","name":"Baden-Württemberg"}},{"name":"Duderstädter Allee","postalCode":"97941","locality":"Tauberbischofsheim","municipality":{"key":"08128115","name":"Tauberbischofsheim, Stadt","type":"Stadt"},"district":{"key":"08128","name":"Main-Tauber-Kreis","type":"Landkreis"},"federalState":{"key":"08","name":"Baden-Württemberg"}},{"name":"Dürerstr.","postalCode":"97941","locality":"Tauberbischofsheim","municipality":{"key":"08128115","name":"Tauberbischofsheim, Stadt","type":"Stadt"},"district":{"key":"08128","name":"Main-Tauber-Kreis","type":"Landkreis"},"federalState":{"key":"08","name":"Baden-Württemberg"}},{"name":"Eichendorffstr.","postalCode":"97941","locality":"Tauberbischofsheim","municipality":{"key":"08128115","name":"Tauberbischofsheim, Stadt","type":"Stadt"},"district":{"key":"08128","name":"Main-Tauber-Kreis","type":"Landkreis"},"federalState":{"key":"08","name":"Baden-Württemberg"}},{"name":"Eichstr.","postalCode":"97941","locality":"Tauberbischofsheim","municipality":{"key":"08128115","name":"Tauberbischofsheim, Stadt","type":"Stadt"},"district":{"key":"08128","name":"Main-Tauber-Kreis","type":"Landkreis"},"federalState":{"key":"08","name":"Baden-Württemberg"}},{"name":"Eiersheimer Weg","postalCode":"97941","locality":"Tauberbischofsheim","municipality":{"key":"08128115","name":"Tauberbischofsheim, Stadt","type":"Stadt"},"district":{"key":"08128","name":"Main-Tauber-Kreis","type":"Landkreis"},"federalState":{"key":"08","name":"Baden-Württemberg"}},{"name":"Enge Gasse","postalCode":"97941","locality":"Tauberbischofsheim","municipality":{"key":"08128115","name":"Tauberbischofsheim, Stadt","type":"Stadt"},"district":{"key":"08128","name":"Main-Tauber-Kreis","type":"Landkreis"},"federalState":{"key":"08","name":"Baden-Württemberg"}},{"name":"Eppstr.","postalCode":"97941","locality":"Tauberbischofsheim","municipality":{"key":"08128115","name":"Tauberbischofsheim, Stadt","type":"Stadt"},"district":{"key":"08128","name":"Main-Tauber-Kreis","type":"Landkreis"},"federalState":{"key":"08","name":"Baden-Württemberg"}},{"name":"Erlenstr.","postalCode":"97941","locality":"Tauberbischofsheim","municipality":{"key":"08128115","name":"Tauberbischofsheim, Stadt","type":"Stadt"},"district":{"key":"08128","name":"Main-Tauber-Kreis","type":"Landkreis"},"federalState":{"key":"08","name":"Baden-Württemberg"}},{"name":"Ernst-Bauer-Str.","postalCode":"97941","locality":"Tauberbischofsheim","municipality":{"key":"08128115","name":"Tauberbischofsheim, Stadt","type":"Stadt"},"district":{"key":"08128","name":"Main-Tauber-Kreis","type":"Landkreis"},"federalState":{"key":"08","name":"Baden-Württemberg"}},{"name":"Falk-Müller-Str.","postalCode":"97941","locality":"Tauberbischofsheim","municipality":{"key":"08128115","name":"Tauberbischofsheim, Stadt","type":"Stadt"},"district":{"key":"08128","name":"Main-Tauber-Kreis","type":"Landkreis"},"federalState":{"key":"08","name":"Baden-Württemberg"}},{"name":"Fichtenweg","postalCode":"97941","locality":"Tauberbischofsheim","municipality":{"key":"08128115","name":"Tauberbischofsheim, Stadt","type":"Stadt"},"district":{"key":"08128","name":"Main-Tauber-Kreis","type":"Landkreis"},"federalState":{"key":"08","name":"Baden-Württemberg"}},{"name":"Fischergärten","postalCode":"97941","locality":"Tauberbischofsheim","municipality":{"key":"08128115","name":"Tauberbischofsheim, Stadt","type":"Stadt"},"district":{"key":"08128","name":"Main-Tauber-Kreis","type":"Landkreis"},"federalState":{"key":"08","name":"Baden-Württemberg"}},{"name":"Fischgäßchen","postalCode":"97941","locality":"Tauberbischofsheim","municipality":{"key":"08128115","name":"Tauberbischofsheim, Stadt","type":"Stadt"},"district":{"key":"08128","name":"Main-Tauber-Kreis","type":"Landkreis"},"federalState":{"key":"08","name":"Baden-Württemberg"}},{"name":"Fliederstr.","postalCode":"97941","locality":"Tauberbischofsheim","municipality":{"key":"08128115","name":"Tauberbischofsheim, Stadt","type":"Stadt"},"district":{"key":"08128","name":"Main-Tauber-Kreis","type":"Landkreis"},"federalState":{"key":"08","name":"Baden-Württemberg"}},{"name":"Fliederweg","postalCode":"97941","locality":"Tauberbischofsheim","municipality":{"key":"08128115","name":"Tauberbischofsheim, Stadt","type":"Stadt"},"district":{"key":"08128","name":"Main-Tauber-Kreis","type":"Landkreis"},"federalState":{"key":"08","name":"Baden-Württemberg"}},{"name":"Flürlein","postalCode":"97941","locality":"Tauberbischofsheim","municipality":{"key":"08128115","name":"Tauberbischofsheim, Stadt","type":"Stadt"},"district":{"key":"08128","name":"Main-Tauber-Kreis","type":"Landkreis"},"federalState":{"key":"08","name":"Baden-Württemberg"}},{"name":"Flurstr.","postalCode":"97941","locality":"Tauberbischofsheim","municipality":{"key":"08128115","name":"Tauberbischofsheim, Stadt","type":"Stadt"},"district":{"key":"08128","name":"Main-Tauber-Kreis","type":"Landkreis"},"federalState":{"key":"08","name":"Baden-Württemberg"}},{"name":"Frauenstr.","postalCode":"97941","locality":"Tauberbischofsheim","municipality":{"key":"08128115","name":"Tauberbischofsheim, Stadt","type":"Stadt"},"district":{"key":"08128","name":"Main-Tauber-Kreis","type":"Landkreis"},"federalState":{"key":"08","name":"Baden-Württemberg"}},{"name":"Friedhofstr.","postalCode":"97941","locality":"Tauberbischofsheim","municipality":{"key":"08128115","name":"Tauberbischofsheim, Stadt","type":"Stadt"},"district":{"key":"08128","name":"Main-Tauber-Kreis","type":"Landkreis"},"federalState":{"key":"08","name":"Baden-Württemberg"}},{"name":"Friesenweg","postalCode":"97941","locality":"Tauberbischofsheim","municipality":{"key":"08128115","name":"Tauberbischofsheim, Stadt","type":"Stadt"},"district":{"key":"08128","name":"Main-Tauber-Kreis","type":"Landkreis"},"federalState":{"key":"08","name":"Baden-Württemberg"}},{"name":"Fröbelstr.","postalCode":"97941","locality":"Tauberbischofsheim","municipality":{"key":"08128115","name":"Tauberbischofsheim, Stadt","type":"Stadt"},"district":{"key":"08128","name":"Main-Tauber-Kreis","type":"Landkreis"},"federalState":{"key":"08","name":"Baden-Württemberg"}},{"name":"Frombergstr.","postalCode":"97941","locality":"Tauberbischofsheim","municipality":{"key":"08128115","name":"Tauberbischofsheim, Stadt","type":"Stadt"},"district":{"key":"08128","name":"Main-Tauber-Kreis","type":"Landkreis"},"federalState":{"key":"08","name":"Baden-Württemberg"}},{"name":"Frühlingstr.","postalCode":"97941","locality":"Tauberbischofsheim","municipality":{"key":"08128115","name":"Tauberbischofsheim, Stadt","type":"Stadt"},"district":{"key":"08128","name":"Main-Tauber-Kreis","type":"Landkreis"},"federalState":{"key":"08","name":"Baden-Württemberg"}},{"name":"Frühmeßgasse","postalCode":"97941","locality":"Tauberbischofsheim","municipality":{"key":"08128115","name":"Tauberbischofsheim, Stadt","type":"Stadt"},"district":{"key":"08128","name":"Main-Tauber-Kreis","type":"Landkreis"},"federalState":{"key":"08","name":"Baden-Württemberg"}},{"name":"Ganter Campus","postalCode":"97941","locality":"Tauberbischofsheim","municipality":{"key":"08128115","name":"Tauberbischofsheim, Stadt","type":"Stadt"},"district":{"key":"08128","name":"Main-Tauber-Kreis","type":"Landkreis"},"federalState":{"key":"08","name":"Baden-Württemberg"}},{"name":"Gartenpfad","postalCode":"97941","locality":"Tauberbischofsheim","municipality":{"key":"08128115","name":"Tauberbischofsheim, Stadt","type":"Stadt"},"district":{"key":"08128","name":"Main-Tauber-Kreis","type":"Landkreis"},"federalState":{"key":"08","name":"Baden-Württemberg"}},{"name":"Gartenstr.","postalCode":"97941","locality":"Tauberbischofsheim","municipality":{"key":"08128115","name":"Tauberbischofsheim, Stadt","type":"Stadt"},"district":{"key":"08128","name":"Main-Tauber-Kreis","type":"Landkreis"},"federalState":{"key":"08","name":"Baden-Württemberg"}},{"name":"Gäßleinsgärten","postalCode":"97941","locality":"Tauberbischofsheim","municipality":{"key":"08128115","name":"Tauberbischofsheim, Stadt","type":"Stadt"},"district":{"key":"08128","name":"Main-Tauber-Kreis","type":"Landkreis"},"federalState":{"key":"08","name":"Baden-Württemberg"}},{"name":"Gerbergasse","postalCode":"97941","locality":"Tauberbischofsheim","municipality":{"key":"08128115","name":"Tauberbischofsheim, Stadt","type":"Stadt"},"district":{"key":"08128","name":"Main-Tauber-Kreis","type":"Landkreis"},"federalState":{"key":"08","name":"Baden-Württemberg"}},{"name":"Gissigheimer Str.","postalCode":"97941","locality":"Tauberbischofsheim","municipality":{"key":"08128115","name":"Tauberbischofsheim, Stadt","type":"Stadt"},"district":{"key":"08128","name":"Main-Tauber-Kreis","type":"Landkreis"},"federalState":{"key":"08","name":"Baden-Württemberg"}},{"name":"Glashüttenweg","postalCode":"97941","locality":"Tauberbischofsheim","municipality":{"key":"08128115","name":"Tauberbischofsheim, Stadt","type":"Stadt"},"district":{"key":"08128","name":"Main-Tauber-Kreis","type":"Landkreis"},"federalState":{"key":"08","name":"Baden-Württemberg"}},{"name":"Glockengraben","postalCode":"97941","locality":"Tauberbischofsheim","municipality":{"key":"08128115","name":"Tauberbischofsheim, Stadt","type":"Stadt"},"district":{"key":"08128","name":"Main-Tauber-Kreis","type":"Landkreis"},"federalState":{"key":"08","name":"Baden-Württemberg"}},{"name":"Glockenweg","postalCode":"97941","locality":"Tauberbischofsheim","municipality":{"key":"08128115","name":"Tauberbischofsheim, Stadt","type":"Stadt"},"district":{"key":"08128","name":"Main-Tauber-Kreis","type":"Landkreis"},"federalState":{"key":"08","name":"Baden-Württemberg"}},{"name":"Goethestr.","postalCode":"97941","locality":"Tauberbischofsheim","municipality":{"key":"08128115","name":"Tauberbischofsheim, Stadt","type":"Stadt"},"district":{"key":"08128","name":"Main-Tauber-Kreis","type":"Landkreis"},"federalState":{"key":"08","name":"Baden-Württemberg"}},{"name":"Gotenweg","postalCode":"97941","locality":"Tauberbischofsheim","municipality":{"key":"08128115","name":"Tauberbischofsheim, Stadt","type":"Stadt"},"district":{"key":"08128","name":"Main-Tauber-Kreis","type":"Landkreis"},"federalState":{"key":"08","name":"Baden-Württemberg"}},{"name":"Götzenberg","postalCode":"97941","locality":"Tauberbischofsheim","municipality":{"key":"08128115","name":"Tauberbischofsheim, Stadt","type":"Stadt"},"district":{"key":"08128","name":"Main-Tauber-Kreis","type":"Landkreis"},"federalState":{"key":"08","name":"Baden-Württemberg"}},{"name":"Grabenweg","postalCode":"97941","locality":"Tauberbischofsheim","municipality":{"key":"08128115","name":"Tauberbischofsheim, Stadt","type":"Stadt"},"district":{"key":"08128","name":"Main-Tauber-Kreis","type":"Landkreis"},"federalState":{"key":"08","name":"Baden-Württemberg"}},{"name":"Grasbergstr.","postalCode":"97941","locality":"Tauberbischofsheim","municipality":{"key":"08128115","name":"Tauberbischofsheim, Stadt","type":"Stadt"},"district":{"key":"08128","name":"Main-Tauber-Kreis","type":"Landkreis"},"federalState":{"key":"08","name":"Baden-Württemberg"}},{"name":"Grünewaldstr.","postalCode":"97941","locality":"Tauberbischofsheim","municipality":{"key":"08128115","name":"Tauberbischofsheim, Stadt","type":"Stadt"},"district":{"key":"08128","name":"Main-Tauber-Kreis","type":"Landkreis"},"federalState":{"key":"08","name":"Baden-Württemberg"}},{"name":"Grünsfelder Str.","postalCode":"97941","locality":"Tauberbischofsheim","municipality":{"key":"08128115","name":"Tauberbischofsheim, Stadt","type":"Stadt"},"district":{"key":"08128","name":"Main-Tauber-Kreis","type":"Landkreis"},"federalState":{"key":"08","name":"Baden-Württemberg"}},{"name":"Gymnasiumstr.","postalCode":"97941","locality":"Tauberbischofsheim","municipality":{"key":"08128115","name":"Tauberbischofsheim, Stadt","type":"Stadt"},"district":{"key":"08128","name":"Main-Tauber-Kreis","type":"Landkreis"},"federalState":{"key":"08","name":"Baden-Württemberg"}},{"name":"Hauptstr.","postalCode":"97941","locality":"Tauberbischofsheim","municipality":{"key":"08128115","name":"Tauberbischofsheim, Stadt","type":"Stadt"},"district":{"key":"08128","name":"Main-Tauber-Kreis","type":"Landkreis"},"federalState":{"key":"08","name":"Baden-Württemberg"}},{"name":"Haydnweg","postalCode":"97941","locality":"Tauberbischofsheim","municipality":{"key":"08128115","name":"Tauberbischofsheim, Stadt","type":"Stadt"},"district":{"key":"08128","name":"Main-Tauber-Kreis","type":"Landkreis"},"federalState":{"key":"08","name":"Baden-Württemberg"}},{"name":"Hebelweg","postalCode":"97941","locality":"Tauberbischofsheim","municipality":{"key":"08128115","name":"Tauberbischofsheim, Stadt","type":"Stadt"},"district":{"key":"08128","name":"Main-Tauber-Kreis","type":"Landkreis"},"federalState":{"key":"08","name":"Baden-Württemberg"}},{"name":"Heckfelder Str.","postalCode":"97941","locality":"Tauberbischofsheim","municipality":{"key":"08128115","name":"Tauberbischofsheim, Stadt","type":"Stadt"},"district":{"key":"08128","name":"Main-Tauber-Kreis","type":"Landkreis"},"federalState":{"key":"08","name":"Baden-Württemberg"}},{"name":"Heineweg","postalCode":"97941","locality":"Tauberbischofsheim","municipality":{"key":"08128115","name":"Tauberbischofsheim, Stadt","type":"Stadt"},"district":{"key":"08128","name":"Main-Tauber-Kreis","type":"Landkreis"},"federalState":{"key":"08","name":"Baden-Württemberg"}},{"name":"Herbelweg","postalCode":"97941","locality":"Tauberbischofsheim","municipality":{"key":"08128115","name":"Tauberbischofsheim, Stadt","type":"Stadt"},"district":{"key":"08128","name":"Main-Tauber-Kreis","type":"Landkreis"},"federalState":{"key":"08","name":"Baden-Württemberg"}},{"name":"Herderweg","postalCode":"97941","locality":"Tauberbischofsheim","municipality":{"key":"08128115","name":"Tauberbischofsheim, Stadt","type":"Stadt"},"district":{"key":"08128","name":"Main-Tauber-Kreis","type":"Landkreis"},"federalState":{"key":"08","name":"Baden-Württemberg"}},{"name":"Herrenmühle","postalCode":"97941","locality":"Tauberbischofsheim","municipality":{"key":"08128115","name":"Tauberbischofsheim, Stadt","type":"Stadt"},"district":{"key":"08128","name":"Main-Tauber-Kreis","type":"Landkreis"},"federalState":{"key":"08","name":"Baden-Württemberg"}},{"name":"Hintere Gasse","postalCode":"97941","locality":"Tauberbischofsheim","municipality":{"key":"08128115","name":"Tauberbischofsheim, Stadt","type":"Stadt"},"district":{"key":"08128","name":"Main-Tauber-Kreis","type":"Landkreis"},"federalState":{"key":"08","name":"Baden-Württemberg"}},{"name":"Hintere Torstr.","postalCode":"97941","locality":"Tauberbischofsheim","municipality":{"key":"08128115","name":"Tauberbischofsheim, Stadt","type":"Stadt"},"district":{"key":"08128","name":"Main-Tauber-Kreis","type":"Landkreis"},"federalState":{"key":"08","name":"Baden-Württemberg"}},{"name":"Hochhäuser Str.","postalCode":"97941","locality":"Tauberbischofsheim","municipality":{"key":"08128115","name":"Tauberbischofsheim, Stadt","type":"Stadt"},"district":{"key":"08128","name":"Main-Tauber-Kreis","type":"Landkreis"},"federalState":{"key":"08","name":"Baden-Württemberg"}},{"name":"Hockergräberstr.","postalCode":"97941","locality":"Tauberbischofsheim","municipality":{"key":"08128115","name":"Tauberbischofsheim, Stadt","type":"Stadt"},"district":{"key":"08128","name":"Main-Tauber-Kreis","type":"Landkreis"},"federalState":{"key":"08","name":"Baden-Württemberg"}},{"name":"Hof Steinbach","postalCode":"97941","locality":"Tauberbischofsheim","municipality":{"key":"08128115","name":"Tauberbischofsheim, Stadt","type":"Stadt"},"district":{"key":"08128","name":"Main-Tauber-Kreis","type":"Landkreis"},"federalState":{"key":"08","name":"Baden-Württemberg"}},{"name":"Höhbergstr.","postalCode":"97941","locality":"Tauberbischofsheim","municipality":{"key":"08128115","name":"Tauberbischofsheim, Stadt","type":"Stadt"},"district":{"key":"08128","name":"Main-Tauber-Kreis","type":"Landkreis"},"federalState":{"key":"08","name":"Baden-Württemberg"}},{"name":"Hohenstr.","postalCode":"97941","locality":"Tauberbischofsheim","municipality":{"key":"08128115","name":"Tauberbischofsheim, Stadt","type":"Stadt"},"district":{"key":"08128","name":"Main-Tauber-Kreis","type":"Landkreis"},"federalState":{"key":"08","name":"Baden-Württemberg"}},{"name":"Hölderlinweg","postalCode":"97941","locality":"Tauberbischofsheim","municipality":{"key":"08128115","name":"Tauberbischofsheim, Stadt","type":"Stadt"},"district":{"key":"08128","name":"Main-Tauber-Kreis","type":"Landkreis"},"federalState":{"key":"08","name":"Baden-Württemberg"}},{"name":"Im Gäßlein","postalCode":"97941","locality":"Tauberbischofsheim","municipality":{"key":"08128115","name":"Tauberbischofsheim, Stadt","type":"Stadt"},"district":{"key":"08128","name":"Main-Tauber-Kreis","type":"Landkreis"},"federalState":{"key":"08","name":"Baden-Württemberg"}},{"name":"Im Grund","postalCode":"97941","locality":"Tauberbischofsheim","municipality":{"key":"08128115","name":"Tauberbischofsheim, Stadt","type":"Stadt"},"district":{"key":"08128","name":"Main-Tauber-Kreis","type":"Landkreis"},"federalState":{"key":"08","name":"Baden-Württemberg"}},{"name":"Impfinger Pfad","postalCode":"97941","locality":"Tauberbischofsheim","municipality":{"key":"08128115","name":"Tauberbischofsheim, Stadt","type":"Stadt"},"district":{"key":"08128","name":"Main-Tauber-Kreis","type":"Landkreis"},"federalState":{"key":"08","name":"Baden-Württemberg"}},{"name":"Im Stickelgarten","postalCode":"97941","locality":"Tauberbischofsheim","municipality":{"key":"08128115","name":"Tauberbischofsheim, Stadt","type":"Stadt"},"district":{"key":"08128","name":"Main-Tauber-Kreis","type":"Landkreis"},"federalState":{"key":"08","name":"Baden-Württemberg"}},{"name":"Johannes-Kepler-Str.","postalCode":"97941","locality":"Tauberbischofsheim","municipality":{"key":"08128115","name":"Tauberbischofsheim, Stadt","type":"Stadt"},"district":{"key":"08128","name":"Main-Tauber-Kreis","type":"Landkreis"},"federalState":{"key":"08","name":"Baden-Württemberg"}},{"name":"Johanneskreuzstr.","postalCode":"97941","locality":"Tauberbischofsheim","municipality":{"key":"08128115","name":"Tauberbischofsheim, Stadt","type":"Stadt"},"district":{"key":"08128","name":"Main-Tauber-Kreis","type":"Landkreis"},"federalState":{"key":"08","name":"Baden-Württemberg"}},{"name":"Josef-Dürr-Str.","postalCode":"97941","locality":"Tauberbischofsheim","municipality":{"key":"08128115","name":"Tauberbischofsheim, Stadt","type":"Stadt"},"district":{"key":"08128","name":"Main-Tauber-Kreis","type":"Landkreis"},"federalState":{"key":"08","name":"Baden-Württemberg"}},{"name":"Josef-Lang-Weg","postalCode":"97941","locality":"Tauberbischofsheim","municipality":{"key":"08128115","name":"Tauberbischofsheim, Stadt","type":"Stadt"},"district":{"key":"08128","name":"Main-Tauber-Kreis","type":"Landkreis"},"federalState":{"key":"08","name":"Baden-Württemberg"}},{"name":"Judengasse","postalCode":"97941","locality":"Tauberbischofsheim","municipality":{"key":"08128115","name":"Tauberbischofsheim, Stadt","type":"Stadt"},"district":{"key":"08128","name":"Main-Tauber-Kreis","type":"Landkreis"},"federalState":{"key":"08","name":"Baden-Württemberg"}},{"name":"Julius-Berberich-Str.","postalCode":"97941","locality":"Tauberbischofsheim","municipality":{"key":"08128115","name":"Tauberbischofsheim, Stadt","type":"Stadt"},"district":{"key":"08128","name":"Main-Tauber-Kreis","type":"Landkreis"},"federalState":{"key":"08","name":"Baden-Württemberg"}},{"name":"Julius-Echter-Str.","postalCode":"97941","locality":"Tauberbischofsheim","municipality":{"key":"08128115","name":"Tauberbischofsheim, Stadt","type":"Stadt"},"district":{"key":"08128","name":"Main-Tauber-Kreis","type":"Landkreis"},"federalState":{"key":"08","name":"Baden-Württemberg"}},{"name":"Kachelstr.","postalCode":"97941","locality":"Tauberbischofsheim","municipality":{"key":"08128115","name":"Tauberbischofsheim, Stadt","type":"Stadt"},"district":{"key":"08128","name":"Main-Tauber-Kreis","type":"Landkreis"},"federalState":{"key":"08","name":"Baden-Württemberg"}},{"name":"Kapellenstr.","postalCode":"97941","locality":"Tauberbischofsheim","municipality":{"key":"08128115","name":"Tauberbischofsheim, Stadt","type":"Stadt"},"district":{"key":"08128","name":"Main-Tauber-Kreis","type":"Landkreis"},"federalState":{"key":"08","name":"Baden-Württemberg"}},{"name":"Kartäuser Ring","postalCode":"97941","locality":"Tauberbischofsheim","municipality":{"key":"08128115","name":"Tauberbischofsheim, Stadt","type":"Stadt"},"district":{"key":"08128","name":"Main-Tauber-Kreis","type":"Landkreis"},"federalState":{"key":"08","name":"Baden-Württemberg"}},{"name":"Kasernenstr.","postalCode":"97941","locality":"Tauberbischofsheim","municipality":{"key":"08128115","name":"Tauberbischofsheim, Stadt","type":"Stadt"},"district":{"key":"08128","name":"Main-Tauber-Kreis","type":"Landkreis"},"federalState":{"key":"08","name":"Baden-Württemberg"}},{"name":"Kastanienallee","postalCode":"97941","locality":"Tauberbischofsheim","municipality":{"key":"08128115","name":"Tauberbischofsheim, Stadt","type":"Stadt"},"district":{"key":"08128","name":"Main-Tauber-Kreis","type":"Landkreis"},"federalState":{"key":"08","name":"Baden-Württemberg"}},{"name":"Keltenweg","postalCode":"97941","locality":"Tauberbischofsheim","municipality":{"key":"08128115","name":"Tauberbischofsheim, Stadt","type":"Stadt"},"district":{"key":"08128","name":"Main-Tauber-Kreis","type":"Landkreis"},"federalState":{"key":"08","name":"Baden-Württemberg"}},{"name":"Kilianstr.","postalCode":"97941","locality":"Tauberbischofsheim","municipality":{"key":"08128115","name":"Tauberbischofsheim, Stadt","type":"Stadt"},"district":{"key":"08128","name":"Main-Tauber-Kreis","type":"Landkreis"},"federalState":{"key":"08","name":"Baden-Württemberg"}},{"name":"Kirchenbergring","postalCode":"97941","locality":"Tauberbischofsheim","municipality":{"key":"08128115","name":"Tauberbischofsheim, Stadt","type":"Stadt"},"district":{"key":"08128","name":"Main-Tauber-Kreis","type":"Landkreis"},"federalState":{"key":"08","name":"Baden-Württemberg"}},{"name":"Kirchgäßchen","postalCode":"97941","locality":"Tauberbischofsheim","municipality":{"key":"08128115","name":"Tauberbischofsheim, Stadt","type":"Stadt"},"district":{"key":"08128","name":"Main-Tauber-Kreis","type":"Landkreis"},"federalState":{"key":"08","name":"Baden-Württemberg"}},{"name":"Kirchpfad","postalCode":"97941","locality":"Tauberbischofsheim","municipality":{"key":"08128115","name":"Tauberbischofsheim, Stadt","type":"Stadt"},"district":{"key":"08128","name":"Main-Tauber-Kreis","type":"Landkreis"},"federalState":{"key":"08","name":"Baden-Württemberg"}},{"name":"Kirchplatz","postalCode":"97941","locality":"Tauberbischofsheim","municipality":{"key":"08128115","name":"Tauberbischofsheim, Stadt","type":"Stadt"},"district":{"key":"08128","name":"Main-Tauber-Kreis","type":"Landkreis"},"federalState":{"key":"08","name":"Baden-Württemberg"}},{"name":"Kirchweg","postalCode":"97941","locality":"Tauberbischofsheim","municipality":{"key":"08128115","name":"Tauberbischofsheim, Stadt","type":"Stadt"},"district":{"key":"08128","name":"Main-Tauber-Kreis","type":"Landkreis"},"federalState":{"key":"08","name":"Baden-Württemberg"}},{"name":"Klesbergstr.","postalCode":"97941","locality":"Tauberbischofsheim","municipality":{"key":"08128115","name":"Tauberbischofsheim, Stadt","type":"Stadt"},"district":{"key":"08128","name":"Main-Tauber-Kreis","type":"Landkreis"},"federalState":{"key":"08","name":"Baden-Württemberg"}},{"name":"Klinge","postalCode":"97941","locality":"Tauberbischofsheim","municipality":{"key":"08128115","name":"Tauberbischofsheim, Stadt","type":"Stadt"},"district":{"key":"08128","name":"Main-Tauber-Kreis","type":"Landkreis"},"federalState":{"key":"08","name":"Baden-Württemberg"}},{"name":"Klostergasse","postalCode":"97941","locality":"Tauberbischofsheim","municipality":{"key":"08128115","name":"Tauberbischofsheim, Stadt","type":"Stadt"},"district":{"key":"08128","name":"Main-Tauber-Kreis","type":"Landkreis"},"federalState":{"key":"08","name":"Baden-Württemberg"}},{"name":"Kolpingstr.","postalCode":"97941","locality":"Tauberbischofsheim","municipality":{"key":"08128115","name":"Tauberbischofsheim, Stadt","type":"Stadt"},"district":{"key":"08128","name":"Main-Tauber-Kreis","type":"Landkreis"},"federalState":{"key":"08","name":"Baden-Württemberg"}},{"name":"Königheimer Str.","postalCode":"97941","locality":"Tauberbischofsheim","municipality":{"key":"08128115","name":"Tauberbischofsheim, Stadt","type":"Stadt"},"district":{"key":"08128","name":"Main-Tauber-Kreis","type":"Landkreis"},"federalState":{"key":"08","name":"Baden-Württemberg"}},{"name":"Königheimer Weg","postalCode":"97941","locality":"Tauberbischofsheim","municipality":{"key":"08128115","name":"Tauberbischofsheim, Stadt","type":"Stadt"},"district":{"key":"08128","name":"Main-Tauber-Kreis","type":"Landkreis"},"federalState":{"key":"08","name":"Baden-Württemberg"}},{"name":"Krainerweg","postalCode":"97941","locality":"Tauberbischofsheim","municipality":{"key":"08128115","name":"Tauberbischofsheim, Stadt","type":"Stadt"},"district":{"key":"08128","name":"Main-Tauber-Kreis","type":"Landkreis"},"federalState":{"key":"08","name":"Baden-Württemberg"}},{"name":"Krautgartenweg","postalCode":"97941","locality":"Tauberbischofsheim","municipality":{"key":"08128115","name":"Tauberbischofsheim, Stadt","type":"Stadt"},"district":{"key":"08128","name":"Main-Tauber-Kreis","type":"Landkreis"},"federalState":{"key":"08","name":"Baden-Württemberg"}},{"name":"Kreuzweg","postalCode":"97941","locality":"Tauberbischofsheim","municipality":{"key":"08128115","name":"Tauberbischofsheim, Stadt","type":"Stadt"},"district":{"key":"08128","name":"Main-Tauber-Kreis","type":"Landkreis"},"federalState":{"key":"08","name":"Baden-Württemberg"}},{"name":"Külsheimer Str.","postalCode":"97941","locality":"Tauberbischofsheim","municipality":{"key":"08128115","name":"Tauberbischofsheim, Stadt","type":"Stadt"},"district":{"key":"08128","name":"Main-Tauber-Kreis","type":"Landkreis"},"federalState":{"key":"08","name":"Baden-Württemberg"}},{"name":"Kurmainzring","postalCode":"97941","locality":"Tauberbischofsheim","municipality":{"key":"08128115","name":"Tauberbischofsheim, Stadt","type":"Stadt"},"district":{"key":"08128","name":"Main-Tauber-Kreis","type":"Landkreis"},"federalState":{"key":"08","name":"Baden-Württemberg"}},{"name":"Kurze Gasse","postalCode":"97941","locality":"Tauberbischofsheim","municipality":{"key":"08128115","name":"Tauberbischofsheim, Stadt","type":"Stadt"},"district":{"key":"08128","name":"Main-Tauber-Kreis","type":"Landkreis"},"federalState":{"key":"08","name":"Baden-Württemberg"}},{"name":"Kurze Steige","postalCode":"97941","locality":"Tauberbischofsheim","municipality":{"key":"08128115","name":"Tauberbischofsheim, Stadt","type":"Stadt"},"district":{"key":"08128","name":"Main-Tauber-Kreis","type":"Landkreis"},"federalState":{"key":"08","name":"Baden-Württemberg"}},{"name":"Landstr.","postalCode":"97941","locality":"Tauberbischofsheim","municipality":{"key":"08128115","name":"Tauberbischofsheim, Stadt","type":"Stadt"},"district":{"key":"08128","name":"Main-Tauber-Kreis","type":"Landkreis"},"federalState":{"key":"08","name":"Baden-Württemberg"}},{"name":"Lange Gasse","postalCode":"97941","locality":"Tauberbischofsheim","municipality":{"key":"08128115","name":"Tauberbischofsheim, Stadt","type":"Stadt"},"district":{"key":"08128","name":"Main-Tauber-Kreis","type":"Landkreis"},"federalState":{"key":"08","name":"Baden-Württemberg"}},{"name":"Lange Steig","postalCode":"97941","locality":"Tauberbischofsheim","municipality":{"key":"08128115","name":"Tauberbischofsheim, Stadt","type":"Stadt"},"district":{"key":"08128","name":"Main-Tauber-Kreis","type":"Landkreis"},"federalState":{"key":"08","name":"Baden-Württemberg"}},{"name":"La Roche-Weg","postalCode":"97941","locality":"Tauberbischofsheim","municipality":{"key":"08128115","name":"Tauberbischofsheim, Stadt","type":"Stadt"},"district":{"key":"08128","name":"Main-Tauber-Kreis","type":"Landkreis"},"federalState":{"key":"08","name":"Baden-Württemberg"}},{"name":"Laurentiusbergstr.","postalCode":"97941","locality":"Tauberbischofsheim","municipality":{"key":"08128115","name":"Tauberbischofsheim, Stadt","type":"Stadt"},"district":{"key":"08128","name":"Main-Tauber-Kreis","type":"Landkreis"},"federalState":{"key":"08","name":"Baden-Württemberg"}},{"name":"Laurentiusstr.","postalCode":"97941","locality":"Tauberbischofsheim","municipality":{"key":"08128115","name":"Tauberbischofsheim, Stadt","type":"Stadt"},"district":{"key":"08128","name":"Main-Tauber-Kreis","type":"Landkreis"},"federalState":{"key":"08","name":"Baden-Württemberg"}},{"name":"Leintalblick","postalCode":"97941","locality":"Tauberbischofsheim","municipality":{"key":"08128115","name":"Tauberbischofsheim, Stadt","type":"Stadt"},"district":{"key":"08128","name":"Main-Tauber-Kreis","type":"Landkreis"},"federalState":{"key":"08","name":"Baden-Württemberg"}},{"name":"Lerchenrain","postalCode":"97941","locality":"Tauberbischofsheim","municipality":{"key":"08128115","name":"Tauberbischofsheim, Stadt","type":"Stadt"},"district":{"key":"08128","name":"Main-Tauber-Kreis","type":"Landkreis"},"federalState":{"key":"08","name":"Baden-Württemberg"}},{"name":"Lessingweg","postalCode":"97941","locality":"Tauberbischofsheim","municipality":{"key":"08128115","name":"Tauberbischofsheim, Stadt","type":"Stadt"},"district":{"key":"08128","name":"Main-Tauber-Kreis","type":"Landkreis"},"federalState":{"key":"08","name":"Baden-Württemberg"}},{"name":"Lindenstr.","postalCode":"97941","locality":"Tauberbischofsheim","municipality":{"key":"08128115","name":"Tauberbischofsheim, Stadt","type":"Stadt"},"district":{"key":"08128","name":"Main-Tauber-Kreis","type":"Landkreis"},"federalState":{"key":"08","name":"Baden-Württemberg"}},{"name":"Lindenweg","postalCode":"97941","locality":"Tauberbischofsheim","municipality":{"key":"08128115","name":"Tauberbischofsheim, Stadt","type":"Stadt"},"district":{"key":"08128","name":"Main-Tauber-Kreis","type":"Landkreis"},"federalState":{"key":"08","name":"Baden-Württemberg"}},{"name":"Lortzingweg","postalCode":"97941","locality":"Tauberbischofsheim","municipality":{"key":"08128115","name":"Tauberbischofsheim, Stadt","type":"Stadt"},"district":{"key":"08128","name":"Main-Tauber-Kreis","type":"Landkreis"},"federalState":{"key":"08","name":"Baden-Württemberg"}},{"name":"Ludwig-Mönch-Str.","postalCode":"97941","locality":"Tauberbischofsheim","municipality":{"key":"08128115","name":"Tauberbischofsheim, Stadt","type":"Stadt"},"district":{"key":"08128","name":"Main-Tauber-Kreis","type":"Landkreis"},"federalState":{"key":"08","name":"Baden-Württemberg"}},{"name":"Lupinenweg","postalCode":"97941","locality":"Tauberbischofsheim","municipality":{"key":"08128115","name":"Tauberbischofsheim, Stadt","type":"Stadt"},"district":{"key":"08128","name":"Main-Tauber-Kreis","type":"Landkreis"},"federalState":{"key":"08","name":"Baden-Württemberg"}},{"name":"Manggasse","postalCode":"97941","locality":"Tauberbischofsheim","municipality":{"key":"08128115","name":"Tauberbischofsheim, Stadt","type":"Stadt"},"district":{"key":"08128","name":"Main-Tauber-Kreis","type":"Landkreis"},"federalState":{"key":"08","name":"Baden-Württemberg"}},{"name":"Marktplatz","postalCode":"97941","locality":"Tauberbischofsheim","municipality":{"key":"08128115","name":"Tauberbischofsheim, Stadt","type":"Stadt"},"district":{"key":"08128","name":"Main-Tauber-Kreis","type":"Landkreis"},"federalState":{"key":"08","name":"Baden-Württemberg"}},{"name":"Mäuerlein","postalCode":"97941","locality":"Tauberbischofsheim","municipality":{"key":"08128115","name":"Tauberbischofsheim, Stadt","type":"Stadt"},"district":{"key":"08128","name":"Main-Tauber-Kreis","type":"Landkreis"},"federalState":{"key":"08","name":"Baden-Württemberg"}},{"name":"Max-Planck-Str.","postalCode":"97941","locality":"Tauberbischofsheim","municipality":{"key":"08128115","name":"Tauberbischofsheim, Stadt","type":"Stadt"},"district":{"key":"08128","name":"Main-Tauber-Kreis","type":"Landkreis"},"federalState":{"key":"08","name":"Baden-Württemberg"}},{"name":"Max-Strauss-Weg","postalCode":"97941","locality":"Tauberbischofsheim","municipality":{"key":"08128115","name":"Tauberbischofsheim, Stadt","type":"Stadt"},"district":{"key":"08128","name":"Main-Tauber-Kreis","type":"Landkreis"},"federalState":{"key":"08","name":"Baden-Württemberg"}},{"name":"Mergentheimer Str.","postalCode":"97941","locality":"Tauberbischofsheim","municipality":{"key":"08128115","name":"Tauberbischofsheim, Stadt","type":"Stadt"},"district":{"key":"08128","name":"Main-Tauber-Kreis","type":"Landkreis"},"federalState":{"key":"08","name":"Baden-Württemberg"}},{"name":"Merowingerstr.","postalCode":"97941","locality":"Tauberbischofsheim","municipality":{"key":"08128115","name":"Tauberbischofsheim, Stadt","type":"Stadt"},"district":{"key":"08128","name":"Main-Tauber-Kreis","type":"Landkreis"},"federalState":{"key":"08","name":"Baden-Württemberg"}},{"name":"Mittbergweg","postalCode":"97941","locality":"Tauberbischofsheim","municipality":{"key":"08128115","name":"Tauberbischofsheim, Stadt","type":"Stadt"},"district":{"key":"08128","name":"Main-Tauber-Kreis","type":"Landkreis"},"federalState":{"key":"08","name":"Baden-Württemberg"}},{"name":"Mittelort","postalCode":"97941","locality":"Tauberbischofsheim","municipality":{"key":"08128115","name":"Tauberbischofsheim, Stadt","type":"Stadt"},"district":{"key":"08128","name":"Main-Tauber-Kreis","type":"Landkreis"},"federalState":{"key":"08","name":"Baden-Württemberg"}},{"name":"Mittlere Gasse","postalCode":"97941","locality":"Tauberbischofsheim","municipality":{"key":"08128115","name":"Tauberbischofsheim, Stadt","type":"Stadt"},"district":{"key":"08128","name":"Main-Tauber-Kreis","type":"Landkreis"},"federalState":{"key":"08","name":"Baden-Württemberg"}},{"name":"Mittlere Sonnenhalde","postalCode":"97941","locality":"Tauberbischofsheim","municipality":{"key":"08128115","name":"Tauberbischofsheim, Stadt","type":"Stadt"},"district":{"key":"08128","name":"Main-Tauber-Kreis","type":"Landkreis"},"federalState":{"key":"08","name":"Baden-Württemberg"}},{"name":"Mörikeweg","postalCode":"97941","locality":"Tauberbischofsheim","municipality":{"key":"08128115","name":"Tauberbischofsheim, Stadt","type":"Stadt"},"district":{"key":"08128","name":"Main-Tauber-Kreis","type":"Landkreis"},"federalState":{"key":"08","name":"Baden-Württemberg"}},{"name":"Mozartweg","postalCode":"97941","locality":"Tauberbischofsheim","municipality":{"key":"08128115","name":"Tauberbischofsheim, Stadt","type":"Stadt"},"district":{"key":"08128","name":"Main-Tauber-Kreis","type":"Landkreis"},"federalState":{"key":"08","name":"Baden-Württemberg"}},{"name":"Muckbachweg","postalCode":"97941","locality":"Tauberbischofsheim","municipality":{"key":"08128115","name":"Tauberbischofsheim, Stadt","type":"Stadt"},"district":{"key":"08128","name":"Main-Tauber-Kreis","type":"Landkreis"},"federalState":{"key":"08","name":"Baden-Württemberg"}},{"name":"Mühlenwörth","postalCode":"97941","locality":"Tauberbischofsheim","municipality":{"key":"08128115","name":"Tauberbischofsheim, Stadt","type":"Stadt"},"district":{"key":"08128","name":"Main-Tauber-Kreis","type":"Landkreis"},"federalState":{"key":"08","name":"Baden-Württemberg"}},{"name":"Mühlgasse","postalCode":"97941","locality":"Tauberbischofsheim","municipality":{"key":"08128115","name":"Tauberbischofsheim, Stadt","type":"Stadt"},"district":{"key":"08128","name":"Main-Tauber-Kreis","type":"Landkreis"},"federalState":{"key":"08","name":"Baden-Württemberg"}},{"name":"Mühlrainstr.","postalCode":"97941","locality":"Tauberbischofsheim","municipality":{"key":"08128115","name":"Tauberbischofsheim, Stadt","type":"Stadt"},"district":{"key":"08128","name":"Main-Tauber-Kreis","type":"Landkreis"},"federalState":{"key":"08","name":"Baden-Württemberg"}},{"name":"Museumstr.","postalCode":"97941","locality":"Tauberbischofsheim","municipality":{"key":"08128115","name":"Tauberbischofsheim, Stadt","type":"Stadt"},"district":{"key":"08128","name":"Main-Tauber-Kreis","type":"Landkreis"},"federalState":{"key":"08","name":"Baden-Württemberg"}},{"name":"Nelkenweg","postalCode":"97941","locality":"Tauberbischofsheim","municipality":{"key":"08128115","name":"Tauberbischofsheim, Stadt","type":"Stadt"},"district":{"key":"08128","name":"Main-Tauber-Kreis","type":"Landkreis"},"federalState":{"key":"08","name":"Baden-Württemberg"}},{"name":"Nelly-Sachs-Weg","postalCode":"97941","locality":"Tauberbischofsheim","municipality":{"key":"08128115","name":"Tauberbischofsheim, Stadt","type":"Stadt"},"district":{"key":"08128","name":"Main-Tauber-Kreis","type":"Landkreis"},"federalState":{"key":"08","name":"Baden-Württemberg"}},{"name":"Neubaugasse","postalCode":"97941","locality":"Tauberbischofsheim","municipality":{"key":"08128115","name":"Tauberbischofsheim, Stadt","type":"Stadt"},"district":{"key":"08128","name":"Main-Tauber-Kreis","type":"Landkreis"},"federalState":{"key":"08","name":"Baden-Württemberg"}},{"name":"Neue Gasse","postalCode":"97941","locality":"Tauberbischofsheim","municipality":{"key":"08128115","name":"Tauberbischofsheim, Stadt","type":"Stadt"},"district":{"key":"08128","name":"Main-Tauber-Kreis","type":"Landkreis"},"federalState":{"key":"08","name":"Baden-Württemberg"}},{"name":"Neue Heimat","postalCode":"97941","locality":"Tauberbischofsheim","municipality":{"key":"08128115","name":"Tauberbischofsheim, Stadt","type":"Stadt"},"district":{"key":"08128","name":"Main-Tauber-Kreis","type":"Landkreis"},"federalState":{"key":"08","name":"Baden-Württemberg"}},{"name":"Niels-Bohr-Str.","postalCode":"97941","locality":"Tauberbischofsheim","municipality":{"key":"08128115","name":"Tauberbischofsheim, Stadt","type":"Stadt"},"district":{"key":"08128","name":"Main-Tauber-Kreis","type":"Landkreis"},"federalState":{"key":"08","name":"Baden-Württemberg"}},{"name":"Nordbrücke","postalCode":"97941","locality":"Tauberbischofsheim","municipality":{"key":"08128115","name":"Tauberbischofsheim, Stadt","type":"Stadt"},"district":{"key":"08128","name":"Main-Tauber-Kreis","type":"Landkreis"},"federalState":{"key":"08","name":"Baden-Württemberg"}},{"name":"Oberdorf","postalCode":"97941","locality":"Tauberbischofsheim","municipality":{"key":"08128115","name":"Tauberbischofsheim, Stadt","type":"Stadt"},"district":{"key":"08128","name":"Main-Tauber-Kreis","type":"Landkreis"},"federalState":{"key":"08","name":"Baden-Württemberg"}},{"name":"Obere Beund","postalCode":"97941","locality":"Tauberbischofsheim","municipality":{"key":"08128115","name":"Tauberbischofsheim, Stadt","type":"Stadt"},"district":{"key":"08128","name":"Main-Tauber-Kreis","type":"Landkreis"},"federalState":{"key":"08","name":"Baden-Württemberg"}},{"name":"Obere Gasse","postalCode":"97941","locality":"Tauberbischofsheim","municipality":{"key":"08128115","name":"Tauberbischofsheim, Stadt","type":"Stadt"},"district":{"key":"08128","name":"Main-Tauber-Kreis","type":"Landkreis"},"federalState":{"key":"08","name":"Baden-Württemberg"}},{"name":"Oberer Kirchberg","postalCode":"97941","locality":"Tauberbischofsheim","municipality":{"key":"08128115","name":"Tauberbischofsheim, Stadt","type":"Stadt"},"district":{"key":"08128","name":"Main-Tauber-Kreis","type":"Landkreis"},"federalState":{"key":"08","name":"Baden-Württemberg"}},{"name":"Obere Sonnenhalde","postalCode":"97941","locality":"Tauberbischofsheim","municipality":{"key":"08128115","name":"Tauberbischofsheim, Stadt","type":"Stadt"},"district":{"key":"08128","name":"Main-Tauber-Kreis","type":"Landkreis"},"federalState":{"key":"08","name":"Baden-Württemberg"}},{"name":"Obere Torstr.","postalCode":"97941","locality":"Tauberbischofsheim","municipality":{"key":"08128115","name":"Tauberbischofsheim, Stadt","type":"Stadt"},"district":{"key":"08128","name":"Main-Tauber-Kreis","type":"Landkreis"},"federalState":{"key":"08","name":"Baden-Württemberg"}},{"name":"Oldenburger Str.","postalCode":"97941","locality":"Tauberbischofsheim","municipality":{"key":"08128115","name":"Tauberbischofsheim, Stadt","type":"Stadt"},"district":{"key":"08128","name":"Main-Tauber-Kreis","type":"Landkreis"},"federalState":{"key":"08","name":"Baden-Württemberg"}},{"name":"Parkblick","postalCode":"97941","locality":"Tauberbischofsheim","municipality":{"key":"08128115","name":"Tauberbischofsheim, Stadt","type":"Stadt"},"district":{"key":"08128","name":"Main-Tauber-Kreis","type":"Landkreis"},"federalState":{"key":"08","name":"Baden-Württemberg"}},{"name":"Pestalozziallee","postalCode":"97941","locality":"Tauberbischofsheim","municipality":{"key":"08128115","name":"Tauberbischofsheim, Stadt","type":"Stadt"},"district":{"key":"08128","name":"Main-Tauber-Kreis","type":"Landkreis"},"federalState":{"key":"08","name":"Baden-Württemberg"}},{"name":"Pfarrgasse","postalCode":"97941","locality":"Tauberbischofsheim","municipality":{"key":"08128115","name":"Tauberbischofsheim, Stadt","type":"Stadt"},"district":{"key":"08128","name":"Main-Tauber-Kreis","type":"Landkreis"},"federalState":{"key":"08","name":"Baden-Württemberg"}},{"name":"Plan","postalCode":"97941","locality":"Tauberbischofsheim","municipality":{"key":"08128115","name":"Tauberbischofsheim, Stadt","type":"Stadt"},"district":{"key":"08128","name":"Main-Tauber-Kreis","type":"Landkreis"},"federalState":{"key":"08","name":"Baden-Württemberg"}},{"name":"Raiffeisenweg","postalCode":"97941","locality":"Tauberbischofsheim","municipality":{"key":"08128115","name":"Tauberbischofsheim, Stadt","type":"Stadt"},"district":{"key":"08128","name":"Main-Tauber-Kreis","type":"Landkreis"},"federalState":{"key":"08","name":"Baden-Württemberg"}},{"name":"Rammingerstr.","postalCode":"97941","locality":"Tauberbischofsheim","municipality":{"key":"08128115","name":"Tauberbischofsheim, Stadt","type":"Stadt"},"district":{"key":"08128","name":"Main-Tauber-Kreis","type":"Landkreis"},"federalState":{"key":"08","name":"Baden-Württemberg"}},{"name":"Rathausplatz","postalCode":"97941","locality":"Tauberbischofsheim","municipality":{"key":"08128115","name":"Tauberbischofsheim, Stadt","type":"Stadt"},"district":{"key":"08128","name":"Main-Tauber-Kreis","type":"Landkreis"},"federalState":{"key":"08","name":"Baden-Württemberg"}},{"name":"Rathausstr.","postalCode":"97941","locality":"Tauberbischofsheim","municipality":{"key":"08128115","name":"Tauberbischofsheim, Stadt","type":"Stadt"},"district":{"key":"08128","name":"Main-Tauber-Kreis","type":"Landkreis"},"federalState":{"key":"08","name":"Baden-Württemberg"}},{"name":"Rentamtsgasse","postalCode":"97941","locality":"Tauberbischofsheim","municipality":{"key":"08128115","name":"Tauberbischofsheim, Stadt","type":"Stadt"},"district":{"key":"08128","name":"Main-Tauber-Kreis","type":"Landkreis"},"federalState":{"key":"08","name":"Baden-Württemberg"}},{"name":"Richard-Trunk-Str.","postalCode":"97941","locality":"Tauberbischofsheim","municipality":{"key":"08128115","name":"Tauberbischofsheim, Stadt","type":"Stadt"},"district":{"key":"08128","name":"Main-Tauber-Kreis","type":"Landkreis"},"federalState":{"key":"08","name":"Baden-Württemberg"}},{"name":"Riedernstr.","postalCode":"97941","locality":"Tauberbischofsheim","municipality":{"key":"08128115","name":"Tauberbischofsheim, Stadt","type":"Stadt"},"district":{"key":"08128","name":"Main-Tauber-Kreis","type":"Landkreis"},"federalState":{"key":"08","name":"Baden-Württemberg"}},{"name":"Riemenschneiderstr.","postalCode":"97941","locality":"Tauberbischofsheim","municipality":{"key":"08128115","name":"Tauberbischofsheim, Stadt","type":"Stadt"},"district":{"key":"08128","name":"Main-Tauber-Kreis","type":"Landkreis"},"federalState":{"key":"08","name":"Baden-Württemberg"}},{"name":"Rilkeweg","postalCode":"97941","locality":"Tauberbischofsheim","municipality":{"key":"08128115","name":"Tauberbischofsheim, Stadt","type":"Stadt"},"district":{"key":"08128","name":"Main-Tauber-Kreis","type":"Landkreis"},"federalState":{"key":"08","name":"Baden-Württemberg"}},{"name":"Ringstr.","postalCode":"97941","locality":"Tauberbischofsheim","municipality":{"key":"08128115","name":"Tauberbischofsheim, Stadt","type":"Stadt"},"district":{"key":"08128","name":"Main-Tauber-Kreis","type":"Landkreis"},"federalState":{"key":"08","name":"Baden-Württemberg"}},{"name":"Robert-Koch-Str.","postalCode":"97941","locality":"Tauberbischofsheim","municipality":{"key":"08128115","name":"Tauberbischofsheim, Stadt","type":"Stadt"},"district":{"key":"08128","name":"Main-Tauber-Kreis","type":"Landkreis"},"federalState":{"key":"08","name":"Baden-Württemberg"}},{"name":"Rollenmühle","postalCode":"97941","locality":"Tauberbischofsheim","municipality":{"key":"08128115","name":"Tauberbischofsheim, Stadt","type":"Stadt"},"district":{"key":"08128","name":"Main-Tauber-Kreis","type":"Landkreis"},"federalState":{"key":"08","name":"Baden-Württemberg"}},{"name":"Römerstr.","postalCode":"97941","locality":"Tauberbischofsheim","municipality":{"key":"08128115","name":"Tauberbischofsheim, Stadt","type":"Stadt"},"district":{"key":"08128","name":"Main-Tauber-Kreis","type":"Landkreis"},"federalState":{"key":"08","name":"Baden-Württemberg"}},{"name":"Rosenstr.","postalCode":"97941","locality":"Tauberbischofsheim","municipality":{"key":"08128115","name":"Tauberbischofsheim, Stadt","type":"Stadt"},"district":{"key":"08128","name":"Main-Tauber-Kreis","type":"Landkreis"},"federalState":{"key":"08","name":"Baden-Württemberg"}},{"name":"Ruhbankstr.","postalCode":"97941","locality":"Tauberbischofsheim","municipality":{"key":"08128115","name":"Tauberbischofsheim, Stadt","type":"Stadt"},"district":{"key":"08128","name":"Main-Tauber-Kreis","type":"Landkreis"},"federalState":{"key":"08","name":"Baden-Württemberg"}},{"name":"Sachsenweg","postalCode":"97941","locality":"Tauberbischofsheim","municipality":{"key":"08128115","name":"Tauberbischofsheim, Stadt","type":"Stadt"},"district":{"key":"08128","name":"Main-Tauber-Kreis","type":"Landkreis"},"federalState":{"key":"08","name":"Baden-Württemberg"}},{"name":"Schafweg","postalCode":"97941","locality":"Tauberbischofsheim","municipality":{"key":"08128115","name":"Tauberbischofsheim, Stadt","type":"Stadt"},"district":{"key":"08128","name":"Main-Tauber-Kreis","type":"Landkreis"},"federalState":{"key":"08","name":"Baden-Württemberg"}},{"name":"Scheffelweg","postalCode":"97941","locality":"Tauberbischofsheim","municipality":{"key":"08128115","name":"Tauberbischofsheim, Stadt","type":"Stadt"},"district":{"key":"08128","name":"Main-Tauber-Kreis","type":"Landkreis"},"federalState":{"key":"08","name":"Baden-Württemberg"}},{"name":"Schillerstr.","postalCode":"97941","locality":"Tauberbischofsheim","municipality":{"key":"08128115","name":"Tauberbischofsheim, Stadt","type":"Stadt"},"district":{"key":"08128","name":"Main-Tauber-Kreis","type":"Landkreis"},"federalState":{"key":"08","name":"Baden-Württemberg"}},{"name":"Schirrmannweg","postalCode":"97941","locality":"Tauberbischofsheim","municipality":{"key":"08128115","name":"Tauberbischofsheim, Stadt","type":"Stadt"},"district":{"key":"08128","name":"Main-Tauber-Kreis","type":"Landkreis"},"federalState":{"key":"08","name":"Baden-Württemberg"}},{"name":"Schlachtsteige","postalCode":"97941","locality":"Tauberbischofsheim","municipality":{"key":"08128115","name":"Tauberbischofsheim, Stadt","type":"Stadt"},"district":{"key":"08128","name":"Main-Tauber-Kreis","type":"Landkreis"},"federalState":{"key":"08","name":"Baden-Württemberg"}},{"name":"Schlachtstr.","postalCode":"97941","locality":"Tauberbischofsheim","municipality":{"key":"08128115","name":"Tauberbischofsheim, Stadt","type":"Stadt"},"district":{"key":"08128","name":"Main-Tauber-Kreis","type":"Landkreis"},"federalState":{"key":"08","name":"Baden-Württemberg"}},{"name":"Schloßplatz","postalCode":"97941","locality":"Tauberbischofsheim","municipality":{"key":"08128115","name":"Tauberbischofsheim, Stadt","type":"Stadt"},"district":{"key":"08128","name":"Main-Tauber-Kreis","type":"Landkreis"},"federalState":{"key":"08","name":"Baden-Württemberg"}},{"name":"Schloßstr.","postalCode":"97941","locality":"Tauberbischofsheim","municipality":{"key":"08128115","name":"Tauberbischofsheim, Stadt","type":"Stadt"},"district":{"key":"08128","name":"Main-Tauber-Kreis","type":"Landkreis"},"federalState":{"key":"08","name":"Baden-Württemberg"}},{"name":"Schloßweg","postalCode":"97941","locality":"Tauberbischofsheim","municipality":{"key":"08128115","name":"Tauberbischofsheim, Stadt","type":"Stadt"},"district":{"key":"08128","name":"Main-Tauber-Kreis","type":"Landkreis"},"federalState":{"key":"08","name":"Baden-Württemberg"}},{"name":"Schmiedegasse","postalCode":"97941","locality":"Tauberbischofsheim","municipality":{"key":"08128115","name":"Tauberbischofsheim, Stadt","type":"Stadt"},"district":{"key":"08128","name":"Main-Tauber-Kreis","type":"Landkreis"},"federalState":{"key":"08","name":"Baden-Württemberg"}},{"name":"Schmiederstr.","postalCode":"97941","locality":"Tauberbischofsheim","municipality":{"key":"08128115","name":"Tauberbischofsheim, Stadt","type":"Stadt"},"district":{"key":"08128","name":"Main-Tauber-Kreis","type":"Landkreis"},"federalState":{"key":"08","name":"Baden-Württemberg"}},{"name":"Schneidemühle","postalCode":"97941","locality":"Tauberbischofsheim","municipality":{"key":"08128115","name":"Tauberbischofsheim, Stadt","type":"Stadt"},"district":{"key":"08128","name":"Main-Tauber-Kreis","type":"Landkreis"},"federalState":{"key":"08","name":"Baden-Württemberg"}},{"name":"Schubertstr.","postalCode":"97941","locality":"Tauberbischofsheim","municipality":{"key":"08128115","name":"Tauberbischofsheim, Stadt","type":"Stadt"},"district":{"key":"08128","name":"Main-Tauber-Kreis","type":"Landkreis"},"federalState":{"key":"08","name":"Baden-Württemberg"}},{"name":"Schulgasse","postalCode":"97941","locality":"Tauberbischofsheim","municipality":{"key":"08128115","name":"Tauberbischofsheim, Stadt","type":"Stadt"},"district":{"key":"08128","name":"Main-Tauber-Kreis","type":"Landkreis"},"federalState":{"key":"08","name":"Baden-Württemberg"}},{"name":"Schulweg","postalCode":"97941","locality":"Tauberbischofsheim","municipality":{"key":"08128115","name":"Tauberbischofsheim, Stadt","type":"Stadt"},"district":{"key":"08128","name":"Main-Tauber-Kreis","type":"Landkreis"},"federalState":{"key":"08","name":"Baden-Württemberg"}},{"name":"Schulzengasse","postalCode":"97941","locality":"Tauberbischofsheim","municipality":{"key":"08128115","name":"Tauberbischofsheim, Stadt","type":"Stadt"},"district":{"key":"08128","name":"Main-Tauber-Kreis","type":"Landkreis"},"federalState":{"key":"08","name":"Baden-Württemberg"}},{"name":"Schürerweg","postalCode":"97941","locality":"Tauberbischofsheim","municipality":{"key":"08128115","name":"Tauberbischofsheim, Stadt","type":"Stadt"},"district":{"key":"08128","name":"Main-Tauber-Kreis","type":"Landkreis"},"federalState":{"key":"08","name":"Baden-Württemberg"}},{"name":"Schützenweg","postalCode":"97941","locality":"Tauberbischofsheim","municipality":{"key":"08128115","name":"Tauberbischofsheim, Stadt","type":"Stadt"},"district":{"key":"08128","name":"Main-Tauber-Kreis","type":"Landkreis"},"federalState":{"key":"08","name":"Baden-Württemberg"}},{"name":"Schwabenweg","postalCode":"97941","locality":"Tauberbischofsheim","municipality":{"key":"08128115","name":"Tauberbischofsheim, Stadt","type":"Stadt"},"district":{"key":"08128","name":"Main-Tauber-Kreis","type":"Landkreis"},"federalState":{"key":"08","name":"Baden-Württemberg"}},{"name":"Seewiesenweg","postalCode":"97941","locality":"Tauberbischofsheim","municipality":{"key":"08128115","name":"Tauberbischofsheim, Stadt","type":"Stadt"},"district":{"key":"08128","name":"Main-Tauber-Kreis","type":"Landkreis"},"federalState":{"key":"08","name":"Baden-Württemberg"}},{"name":"Siemensstr.","postalCode":"97941","locality":"Tauberbischofsheim","municipality":{"key":"08128115","name":"Tauberbischofsheim, Stadt","type":"Stadt"},"district":{"key":"08128","name":"Main-Tauber-Kreis","type":"Landkreis"},"federalState":{"key":"08","name":"Baden-Württemberg"}},{"name":"Sonnenplatz","postalCode":"97941","locality":"Tauberbischofsheim","municipality":{"key":"08128115","name":"Tauberbischofsheim, Stadt","type":"Stadt"},"district":{"key":"08128","name":"Main-Tauber-Kreis","type":"Landkreis"},"federalState":{"key":"08","name":"Baden-Württemberg"}},{"name":"Speerstr.","postalCode":"97941","locality":"Tauberbischofsheim","municipality":{"key":"08128115","name":"Tauberbischofsheim, Stadt","type":"Stadt"},"district":{"key":"08128","name":"Main-Tauber-Kreis","type":"Landkreis"},"federalState":{"key":"08","name":"Baden-Württemberg"}},{"name":"Spitalweg","postalCode":"97941","locality":"Tauberbischofsheim","municipality":{"key":"08128115","name":"Tauberbischofsheim, Stadt","type":"Stadt"},"district":{"key":"08128","name":"Main-Tauber-Kreis","type":"Landkreis"},"federalState":{"key":"08","name":"Baden-Württemberg"}},{"name":"Stammbergweg","postalCode":"97941","locality":"Tauberbischofsheim","municipality":{"key":"08128115","name":"Tauberbischofsheim, Stadt","type":"Stadt"},"district":{"key":"08128","name":"Main-Tauber-Kreis","type":"Landkreis"},"federalState":{"key":"08","name":"Baden-Württemberg"}},{"name":"Stauferring","postalCode":"97941","locality":"Tauberbischofsheim","municipality":{"key":"08128115","name":"Tauberbischofsheim, Stadt","type":"Stadt"},"district":{"key":"08128","name":"Main-Tauber-Kreis","type":"Landkreis"},"federalState":{"key":"08","name":"Baden-Württemberg"}},{"name":"Steige","postalCode":"97941","locality":"Tauberbischofsheim","municipality":{"key":"08128115","name":"Tauberbischofsheim, Stadt","type":"Stadt"},"district":{"key":"08128","name":"Main-Tauber-Kreis","type":"Landkreis"},"federalState":{"key":"08","name":"Baden-Württemberg"}},{"name":"Steppersgasse","postalCode":"97941","locality":"Tauberbischofsheim","municipality":{"key":"08128115","name":"Tauberbischofsheim, Stadt","type":"Stadt"},"district":{"key":"08128","name":"Main-Tauber-Kreis","type":"Landkreis"},"federalState":{"key":"08","name":"Baden-Württemberg"}},{"name":"Stifterstr.","postalCode":"97941","locality":"Tauberbischofsheim","municipality":{"key":"08128115","name":"Tauberbischofsheim, Stadt","type":"Stadt"},"district":{"key":"08128","name":"Main-Tauber-Kreis","type":"Landkreis"},"federalState":{"key":"08","name":"Baden-Württemberg"}},{"name":"St.-Lioba-Platz","postalCode":"97941","locality":"Tauberbischofsheim","municipality":{"key":"08128115","name":"Tauberbischofsheim, Stadt","type":"Stadt"},"district":{"key":"08128","name":"Main-Tauber-Kreis","type":"Landkreis"},"federalState":{"key":"08","name":"Baden-Württemberg"}},{"name":"St.-Lioba-Str.","postalCode":"97941","locality":"Tauberbischofsheim","municipality":{"key":"08128115","name":"Tauberbischofsheim, Stadt","type":"Stadt"},"district":{"key":"08128","name":"Main-Tauber-Kreis","type":"Landkreis"},"federalState":{"key":"08","name":"Baden-Württemberg"}},{"name":"Stockgewann","postalCode":"97941","locality":"Tauberbischofsheim","municipality":{"key":"08128115","name":"Tauberbischofsheim, Stadt","type":"Stadt"},"district":{"key":"08128","name":"Main-Tauber-Kreis","type":"Landkreis"},"federalState":{"key":"08","name":"Baden-Württemberg"}},{"name":"Stormweg","postalCode":"97941","locality":"Tauberbischofsheim","municipality":{"key":"08128115","name":"Tauberbischofsheim, Stadt","type":"Stadt"},"district":{"key":"08128","name":"Main-Tauber-Kreis","type":"Landkreis"},"federalState":{"key":"08","name":"Baden-Württemberg"}},{"name":"Struwepfad","postalCode":"97941","locality":"Tauberbischofsheim","municipality":{"key":"08128115","name":"Tauberbischofsheim, Stadt","type":"Stadt"},"district":{"key":"08128","name":"Main-Tauber-Kreis","type":"Landkreis"},"federalState":{"key":"08","name":"Baden-Württemberg"}},{"name":"Sudetenstr.","postalCode":"97941","locality":"Tauberbischofsheim","municipality":{"key":"08128115","name":"Tauberbischofsheim, Stadt","type":"Stadt"},"district":{"key":"08128","name":"Main-Tauber-Kreis","type":"Landkreis"},"federalState":{"key":"08","name":"Baden-Württemberg"}},{"name":"Synagogengasse","postalCode":"97941","locality":"Tauberbischofsheim","municipality":{"key":"08128115","name":"Tauberbischofsheim, Stadt","type":"Stadt"},"district":{"key":"08128","name":"Main-Tauber-Kreis","type":"Landkreis"},"federalState":{"key":"08","name":"Baden-Württemberg"}},{"name":"Talblick","postalCode":"97941","locality":"Tauberbischofsheim","municipality":{"key":"08128115","name":"Tauberbischofsheim, Stadt","type":"Stadt"},"district":{"key":"08128","name":"Main-Tauber-Kreis","type":"Landkreis"},"federalState":{"key":"08","name":"Baden-Württemberg"}},{"name":"Talstr.","postalCode":"97941","locality":"Tauberbischofsheim","municipality":{"key":"08128115","name":"Tauberbischofsheim, Stadt","type":"Stadt"},"district":{"key":"08128","name":"Main-Tauber-Kreis","type":"Landkreis"},"federalState":{"key":"08","name":"Baden-Württemberg"}},{"name":"Tannenbergstr.","postalCode":"97941","locality":"Tauberbischofsheim","municipality":{"key":"08128115","name":"Tauberbischofsheim, Stadt","type":"Stadt"},"district":{"key":"08128","name":"Main-Tauber-Kreis","type":"Landkreis"},"federalState":{"key":"08","name":"Baden-Württemberg"}},{"name":"Tannenweg","postalCode":"97941","locality":"Tauberbischofsheim","municipality":{"key":"08128115","name":"Tauberbischofsheim, Stadt","type":"Stadt"},"district":{"key":"08128","name":"Main-Tauber-Kreis","type":"Landkreis"},"federalState":{"key":"08","name":"Baden-Württemberg"}},{"name":"Taubenhausweg","postalCode":"97941","locality":"Tauberbischofsheim","municipality":{"key":"08128115","name":"Tauberbischofsheim, Stadt","type":"Stadt"},"district":{"key":"08128","name":"Main-Tauber-Kreis","type":"Landkreis"},"federalState":{"key":"08","name":"Baden-Württemberg"}},{"name":"Tauberblick","postalCode":"97941","locality":"Tauberbischofsheim","municipality":{"key":"08128115","name":"Tauberbischofsheim, Stadt","type":"Stadt"},"district":{"key":"08128","name":"Main-Tauber-Kreis","type":"Landkreis"},"federalState":{"key":"08","name":"Baden-Württemberg"}},{"name":"Tauberhell","postalCode":"97941","locality":"Tauberbischofsheim","municipality":{"key":"08128115","name":"Tauberbischofsheim, Stadt","type":"Stadt"},"district":{"key":"08128","name":"Main-Tauber-Kreis","type":"Landkreis"},"federalState":{"key":"08","name":"Baden-Württemberg"}},{"name":"Taubertalstr.","postalCode":"97941","locality":"Tauberbischofsheim","municipality":{"key":"08128115","name":"Tauberbischofsheim, Stadt","type":"Stadt"},"district":{"key":"08128","name":"Main-Tauber-Kreis","type":"Landkreis"},"federalState":{"key":"08","name":"Baden-Württemberg"}},{"name":"Tiefengasse","postalCode":"97941","locality":"Tauberbischofsheim","municipality":{"key":"08128115","name":"Tauberbischofsheim, Stadt","type":"Stadt"},"district":{"key":"08128","name":"Main-Tauber-Kreis","type":"Landkreis"},"federalState":{"key":"08","name":"Baden-Württemberg"}},{"name":"Torgartenstr.","postalCode":"97941","locality":"Tauberbischofsheim","municipality":{"key":"08128115","name":"Tauberbischofsheim, Stadt","type":"Stadt"},"district":{"key":"08128","name":"Main-Tauber-Kreis","type":"Landkreis"},"federalState":{"key":"08","name":"Baden-Württemberg"}},{"name":"Torgartenweg","postalCode":"97941","locality":"Tauberbischofsheim","municipality":{"key":"08128115","name":"Tauberbischofsheim, Stadt","type":"Stadt"},"district":{"key":"08128","name":"Main-Tauber-Kreis","type":"Landkreis"},"federalState":{"key":"08","name":"Baden-Württemberg"}},{"name":"Trimm-dich-Pfad","postalCode":"97941","locality":"Tauberbischofsheim","municipality":{"key":"08128115","name":"Tauberbischofsheim, Stadt","type":"Stadt"},"district":{"key":"08128","name":"Main-Tauber-Kreis","type":"Landkreis"},"federalState":{"key":"08","name":"Baden-Württemberg"}},{"name":"Tulpenstr.","postalCode":"97941","locality":"Tauberbischofsheim","municipality":{"key":"08128115","name":"Tauberbischofsheim, Stadt","type":"Stadt"},"district":{"key":"08128","name":"Main-Tauber-Kreis","type":"Landkreis"},"federalState":{"key":"08","name":"Baden-Württemberg"}},{"name":"Tulpenweg","postalCode":"97941","locality":"Tauberbischofsheim","municipality":{"key":"08128115","name":"Tauberbischofsheim, Stadt","type":"Stadt"},"district":{"key":"08128","name":"Main-Tauber-Kreis","type":"Landkreis"},"federalState":{"key":"08","name":"Baden-Württemberg"}},{"name":"Uhlandweg","postalCode":"97941","locality":"Tauberbischofsheim","municipality":{"key":"08128115","name":"Tauberbischofsheim, Stadt","type":"Stadt"},"district":{"key":"08128","name":"Main-Tauber-Kreis","type":"Landkreis"},"federalState":{"key":"08","name":"Baden-Württemberg"}},{"name":"Ulmenweg","postalCode":"97941","locality":"Tauberbischofsheim","municipality":{"key":"08128115","name":"Tauberbischofsheim, Stadt","type":"Stadt"},"district":{"key":"08128","name":"Main-Tauber-Kreis","type":"Landkreis"},"federalState":{"key":"08","name":"Baden-Württemberg"}},{"name":"Unterdorf","postalCode":"97941","locality":"Tauberbischofsheim","municipality":{"key":"08128115","name":"Tauberbischofsheim, Stadt","type":"Stadt"},"district":{"key":"08128","name":"Main-Tauber-Kreis","type":"Landkreis"},"federalState":{"key":"08","name":"Baden-Württemberg"}},{"name":"Untere Beund","postalCode":"97941","locality":"Tauberbischofsheim","municipality":{"key":"08128115","name":"Tauberbischofsheim, Stadt","type":"Stadt"},"district":{"key":"08128","name":"Main-Tauber-Kreis","type":"Landkreis"},"federalState":{"key":"08","name":"Baden-Württemberg"}},{"name":"Untere Gasse","postalCode":"97941","locality":"Tauberbischofsheim","municipality":{"key":"08128115","name":"Tauberbischofsheim, Stadt","type":"Stadt"},"district":{"key":"08128","name":"Main-Tauber-Kreis","type":"Landkreis"},"federalState":{"key":"08","name":"Baden-Württemberg"}},{"name":"Unterer Kirchberg","postalCode":"97941","locality":"Tauberbischofsheim","municipality":{"key":"08128115","name":"Tauberbischofsheim, Stadt","type":"Stadt"},"district":{"key":"08128","name":"Main-Tauber-Kreis","type":"Landkreis"},"federalState":{"key":"08","name":"Baden-Württemberg"}},{"name":"Untere Sonnenhalde","postalCode":"97941","locality":"Tauberbischofsheim","municipality":{"key":"08128115","name":"Tauberbischofsheim, Stadt","type":"Stadt"},"district":{"key":"08128","name":"Main-Tauber-Kreis","type":"Landkreis"},"federalState":{"key":"08","name":"Baden-Württemberg"}},{"name":"Untere Torstr.","postalCode":"97941","locality":"Tauberbischofsheim","municipality":{"key":"08128115","name":"Tauberbischofsheim, Stadt","type":"Stadt"},"district":{"key":"08128","name":"Main-Tauber-Kreis","type":"Landkreis"},"federalState":{"key":"08","name":"Baden-Württemberg"}},{"name":"Veit-Stoß-Str.","postalCode":"97941","locality":"Tauberbischofsheim","municipality":{"key":"08128115","name":"Tauberbischofsheim, Stadt","type":"Stadt"},"district":{"key":"08128","name":"Main-Tauber-Kreis","type":"Landkreis"},"federalState":{"key":"08","name":"Baden-Württemberg"}},{"name":"Veitstr.","postalCode":"97941","locality":"Tauberbischofsheim","municipality":{"key":"08128115","name":"Tauberbischofsheim, Stadt","type":"Stadt"},"district":{"key":"08128","name":"Main-Tauber-Kreis","type":"Landkreis"},"federalState":{"key":"08","name":"Baden-Württemberg"}},{"name":"Vitryallee","postalCode":"97941","locality":"Tauberbischofsheim","municipality":{"key":"08128115","name":"Tauberbischofsheim, Stadt","type":"Stadt"},"district":{"key":"08128","name":"Main-Tauber-Kreis","type":"Landkreis"},"federalState":{"key":"08","name":"Baden-Württemberg"}},{"name":"Von-Faber-Str.","postalCode":"97941","locality":"Tauberbischofsheim","municipality":{"key":"08128115","name":"Tauberbischofsheim, Stadt","type":"Stadt"},"district":{"key":"08128","name":"Main-Tauber-Kreis","type":"Landkreis"},"federalState":{"key":"08","name":"Baden-Württemberg"}},{"name":"Von-Ketteler-Weg","postalCode":"97941","locality":"Tauberbischofsheim","municipality":{"key":"08128115","name":"Tauberbischofsheim, Stadt","type":"Stadt"},"district":{"key":"08128","name":"Main-Tauber-Kreis","type":"Landkreis"},"federalState":{"key":"08","name":"Baden-Württemberg"}},{"name":"Von-Rieneck-Str.","postalCode":"97941","locality":"Tauberbischofsheim","municipality":{"key":"08128115","name":"Tauberbischofsheim, Stadt","type":"Stadt"},"district":{"key":"08128","name":"Main-Tauber-Kreis","type":"Landkreis"},"federalState":{"key":"08","name":"Baden-Württemberg"}},{"name":"Waldsteige","postalCode":"97941","locality":"Tauberbischofsheim","municipality":{"key":"08128115","name":"Tauberbischofsheim, Stadt","type":"Stadt"},"district":{"key":"08128","name":"Main-Tauber-Kreis","type":"Landkreis"},"federalState":{"key":"08","name":"Baden-Württemberg"}},{"name":"Weickstr.","postalCode":"97941","locality":"Tauberbischofsheim","municipality":{"key":"08128115","name":"Tauberbischofsheim, Stadt","type":"Stadt"},"district":{"key":"08128","name":"Main-Tauber-Kreis","type":"Landkreis"},"federalState":{"key":"08","name":"Baden-Württemberg"}},{"name":"Weinigstr.","postalCode":"97941","locality":"Tauberbischofsheim","municipality":{"key":"08128115","name":"Tauberbischofsheim, Stadt","type":"Stadt"},"district":{"key":"08128","name":"Main-Tauber-Kreis","type":"Landkreis"},"federalState":{"key":"08","name":"Baden-Württemberg"}},{"name":"Weinlehrpfad Edelberg","postalCode":"97941","locality":"Tauberbischofsheim","municipality":{"key":"08128115","name":"Tauberbischofsheim, Stadt","type":"Stadt"},"district":{"key":"08128","name":"Main-Tauber-Kreis","type":"Landkreis"},"federalState":{"key":"08","name":"Baden-Württemberg"}},{"name":"Wellenbergstr.","postalCode":"97941","locality":"Tauberbischofsheim","municipality":{"key":"08128115","name":"Tauberbischofsheim, Stadt","type":"Stadt"},"district":{"key":"08128","name":"Main-Tauber-Kreis","type":"Landkreis"},"federalState":{"key":"08","name":"Baden-Württemberg"}},{"name":"Wertheimer Str.","postalCode":"97941","locality":"Tauberbischofsheim","municipality":{"key":"08128115","name":"Tauberbischofsheim, Stadt","type":"Stadt"},"district":{"key":"08128","name":"Main-Tauber-Kreis","type":"Landkreis"},"federalState":{"key":"08","name":"Baden-Württemberg"}},{"name":"Wickental","postalCode":"97941","locality":"Tauberbischofsheim","municipality":{"key":"08128115","name":"Tauberbischofsheim, Stadt","type":"Stadt"},"district":{"key":"08128","name":"Main-Tauber-Kreis","type":"Landkreis"},"federalState":{"key":"08","name":"Baden-Württemberg"}},{"name":"Wieselweg","postalCode":"97941","locality":"Tauberbischofsheim","municipality":{"key":"08128115","name":"Tauberbischofsheim, Stadt","type":"Stadt"},"district":{"key":"08128","name":"Main-Tauber-Kreis","type":"Landkreis"},"federalState":{"key":"08","name":"Baden-Württemberg"}},{"name":"Wilhelm-Busch-Str.","postalCode":"97941","locality":"Tauberbischofsheim","municipality":{"key":"08128115","name":"Tauberbischofsheim, Stadt","type":"Stadt"},"district":{"key":"08128","name":"Main-Tauber-Kreis","type":"Landkreis"},"federalState":{"key":"08","name":"Baden-Württemberg"}},{"name":"Wolfgangstr.","postalCode":"97941","locality":"Tauberbischofsheim","municipality":{"key":"08128115","name":"Tauberbischofsheim, Stadt","type":"Stadt"},"district":{"key":"08128","name":"Main-Tauber-Kreis","type":"Landkreis"},"federalState":{"key":"08","name":"Baden-Württemberg"}},{"name":"Wolfstalflurstr.","postalCode":"97941","locality":"Tauberbischofsheim","municipality":{"key":"08128115","name":"Tauberbischofsheim, Stadt","type":"Stadt"},"district":{"key":"08128","name":"Main-Tauber-Kreis","type":"Landkreis"},"federalState":{"key":"08","name":"Baden-Württemberg"}},{"name":"Würzburger Str.","postalCode":"97941","locality":"Tauberbischofsheim","municipality":{"key":"08128115","name":"Tauberbischofsheim, Stadt","type":"Stadt"},"district":{"key":"08128","name":"Main-Tauber-Kreis","type":"Landkreis"},"federalState":{"key":"08","name":"Baden-Württemberg"}},{"name":"Zähringerweg","postalCode":"97941","locality":"Tauberbischofsheim","municipality":{"key":"08128115","name":"Tauberbischofsheim, Stadt","type":"Stadt"},"district":{"key":"08128","name":"Main-Tauber-Kreis","type":"Landkreis"},"federalState":{"key":"08","name":"Baden-Württemberg"}},{"name":"Zehntfreistr.","postalCode":"97941","locality":"Tauberbischofsheim","municipality":{"key":"08128115","name":"Tauberbischofsheim, Stadt","type":"Stadt"},"district":{"key":"08128","name":"Main-Tauber-Kreis","type":"Landkreis"},"federalState":{"key":"08","name":"Baden-Württemberg"}},{"name":"Zehntgasse","postalCode":"97941","locality":"Tauberbischofsheim","municipality":{"key":"08128115","name":"Tauberbischofsheim, Stadt","type":"Stadt"},"district":{"key":"08128","name":"Main-Tauber-Kreis","type":"Landkreis"},"federalState":{"key":"08","name":"Baden-Württemberg"}},{"name":"Zickzack-Weg","postalCode":"97941","locality":"Tauberbischofsheim","municipality":{"key":"08128115","name":"Tauberbischofsheim, Stadt","type":"Stadt"},"district":{"key":"08128","name":"Main-Tauber-Kreis","type":"Landkreis"},"federalState":{"key":"08","name":"Baden-Württemberg"}},{"name":"Zobelweg","postalCode":"97941","locality":"Tauberbischofsheim","municipality":{"key":"08128115","name":"Tauberbischofsheim, Stadt","type":"Stadt"},"district":{"key":"08128","name":"Main-Tauber-Kreis","type":"Landkreis"},"federalState":{"key":"08","name":"Baden-Württemberg"}},{"name":"Zugelderstr.","postalCode":"97941","locality":"Tauberbischofsheim","municipality":{"key":"08128115","name":"Tauberbischofsheim, Stadt","type":"Stadt"},"district":{"key":"08128","name":"Main-Tauber-Kreis","type":"Landkreis"},"federalState":{"key":"08","name":"Baden-Württemberg"}},{"name":"Zum Berg","postalCode":"97941","locality":"Tauberbischofsheim","municipality":{"key":"08128115","name":"Tauberbischofsheim, Stadt","type":"Stadt"},"district":{"key":"08128","name":"Main-Tauber-Kreis","type":"Landkreis"},"federalState":{"key":"08","name":"Baden-Württemberg"}},{"name":"Zum Brünnle","postalCode":"97941","locality":"Tauberbischofsheim","municipality":{"key":"08128115","name":"Tauberbischofsheim, Stadt","type":"Stadt"},"district":{"key":"08128","name":"Main-Tauber-Kreis","type":"Landkreis"},"federalState":{"key":"08","name":"Baden-Württemberg"}},{"name":"Zum Mühlkanal","postalCode":"97941","locality":"Tauberbischofsheim","municipality":{"key":"08128115","name":"Tauberbischofsheim, Stadt","type":"Stadt"},"district":{"key":"08128","name":"Main-Tauber-Kreis","type":"Landkreis"},"federalState":{"key":"08","name":"Baden-Württemberg"}},{"name":"Zum Oberen Tor","postalCode":"97941","locality":"Tauberbischofsheim","municipality":{"key":"08128115","name":"Tauberbischofsheim, Stadt","type":"Stadt"},"district":{"key":"08128","name":"Main-Tauber-Kreis","type":"Landkreis"},"federalState":{"key":"08","name":"Baden-Württemberg"}},{"name":"Zum Plan","postalCode":"97941","locality":"Tauberbischofsheim","municipality":{"key":"08128115","name":"Tauberbischofsheim, Stadt","type":"Stadt"},"district":{"key":"08128","name":"Main-Tauber-Kreis","type":"Landkreis"},"federalState":{"key":"08","name":"Baden-Württemberg"}},{"name":"Zum Rohnberg","postalCode":"97941","locality":"Tauberbischofsheim","municipality":{"key":"08128115","name":"Tauberbischofsheim, Stadt","type":"Stadt"},"district":{"key":"08128","name":"Main-Tauber-Kreis","type":"Landkreis"},"federalState":{"key":"08","name":"Baden-Württemberg"}},{"name":"Zum Schneekasten","postalCode":"97941","locality":"Tauberbischofsheim","municipality":{"key":"08128115","name":"Tauberbischofsheim, Stadt","type":"Stadt"},"district":{"key":"08128","name":"Main-Tauber-Kreis","type":"Landkreis"},"federalState":{"key":"08","name":"Baden-Württemberg"}},{"name":"Zum Steinschmätzer","postalCode":"97941","locality":"Tauberbischofsheim","municipality":{"key":"08128115","name":"Tauberbischofsheim, Stadt","type":"Stadt"},"district":{"key":"08128","name":"Main-Tauber-Kreis","type":"Landkreis"},"federalState":{"key":"08","name":"Baden-Württemberg"}},{"name":"Zum Stickelgarten","postalCode":"97941","locality":"Tauberbischofsheim","municipality":{"key":"08128115","name":"Tauberbischofsheim, Stadt","type":"Stadt"},"district":{"key":"08128","name":"Main-Tauber-Kreis","type":"Landkreis"},"federalState":{"key":"08","name":"Baden-Württemberg"}},{"name":"Zum Wehrgarten","postalCode":"97941","locality":"Tauberbischofsheim","municipality":{"key":"08128115","name":"Tauberbischofsheim, Stadt","type":"Stadt"},"district":{"key":"08128","name":"Main-Tauber-Kreis","type":"Landkreis"},"federalState":{"key":"08","name":"Baden-Württemberg"}},{"name":"Zur Altenau","postalCode":"97941","locality":"Tauberbischofsheim","municipality":{"key":"08128115","name":"Tauberbischofsheim, Stadt","type":"Stadt"},"district":{"key":"08128","name":"Main-Tauber-Kreis","type":"Landkreis"},"federalState":{"key":"08","name":"Baden-Württemberg"}},{"name":"Zur Steige","postalCode":"97941","locality":"Tauberbischofsheim","municipality":{"key":"08128115","name":"Tauberbischofsheim, Stadt","type":"Stadt"},"district":{"key":"08128","name":"Main-Tauber-Kreis","type":"Landkreis"},"federalState":{"key":"08","name":"Baden-Württemberg"}},{"name":"Zur Wanne","postalCode":"97941","locality":"Tauberbischofsheim","municipality":{"key":"08128115","name":"Tauberbischofsheim, Stadt","type":"Stadt"},"district":{"key":"08128","name":"Main-Tauber-Kreis","type":"Landkreis"},"federalState":{"key":"08","name":"Baden-Württemberg"}},]