[{"name":"Alter Kirchweg","postalCode":"57614","locality":"Mudenbach","municipality":{"key":"07143267","name":"Mudenbach","type":"Kreisangehörige_Gemeinde"},"district":{"key":"07143","name":"Westerwaldkreis","type":"Landkreis"},"federalState":{"key":"07","name":"Rheinland-Pfalz"}},{"name":"Am Sportplatz","postalCode":"57614","locality":"Mudenbach","municipality":{"key":"07143267","name":"Mudenbach","type":"Kreisangehörige_Gemeinde"},"district":{"key":"07143","name":"Westerwaldkreis","type":"Landkreis"},"federalState":{"key":"07","name":"Rheinland-Pfalz"}},{"name":"Auf dem Kreuz","postalCode":"57614","locality":"Mudenbach","municipality":{"key":"07143267","name":"Mudenbach","type":"Kreisangehörige_Gemeinde"},"district":{"key":"07143","name":"Westerwaldkreis","type":"Landkreis"},"federalState":{"key":"07","name":"Rheinland-Pfalz"}},{"name":"Bei Kaisers-Haus","postalCode":"57614","locality":"Mudenbach","municipality":{"key":"07143267","name":"Mudenbach","type":"Kreisangehörige_Gemeinde"},"district":{"key":"07143","name":"Westerwaldkreis","type":"Landkreis"},"federalState":{"key":"07","name":"Rheinland-Pfalz"}},{"name":"Borneweg","postalCode":"57614","locality":"Mudenbach","municipality":{"key":"07143267","name":"Mudenbach","type":"Kreisangehörige_Gemeinde"},"district":{"key":"07143","name":"Westerwaldkreis","type":"Landkreis"},"federalState":{"key":"07","name":"Rheinland-Pfalz"}},{"name":"Boroder Weg","postalCode":"57614","locality":"Mudenbach","municipality":{"key":"07143267","name":"Mudenbach","type":"Kreisangehörige_Gemeinde"},"district":{"key":"07143","name":"Westerwaldkreis","type":"Landkreis"},"federalState":{"key":"07","name":"Rheinland-Pfalz"}},{"name":"Dörneweg","postalCode":"57614","locality":"Mudenbach","municipality":{"key":"07143267","name":"Mudenbach","type":"Kreisangehörige_Gemeinde"},"district":{"key":"07143","name":"Westerwaldkreis","type":"Landkreis"},"federalState":{"key":"07","name":"Rheinland-Pfalz"}},{"name":"Farrenauer Weg","postalCode":"57614","locality":"Mudenbach","municipality":{"key":"07143267","name":"Mudenbach","type":"Kreisangehörige_Gemeinde"},"district":{"key":"07143","name":"Westerwaldkreis","type":"Landkreis"},"federalState":{"key":"07","name":"Rheinland-Pfalz"}},{"name":"Gartenstr.","postalCode":"57614","locality":"Mudenbach","municipality":{"key":"07143267","name":"Mudenbach","type":"Kreisangehörige_Gemeinde"},"district":{"key":"07143","name":"Westerwaldkreis","type":"Landkreis"},"federalState":{"key":"07","name":"Rheinland-Pfalz"}},{"name":"Hachenburger Str.","postalCode":"57614","locality":"Mudenbach","municipality":{"key":"07143267","name":"Mudenbach","type":"Kreisangehörige_Gemeinde"},"district":{"key":"07143","name":"Westerwaldkreis","type":"Landkreis"},"federalState":{"key":"07","name":"Rheinland-Pfalz"}},{"name":"Hauptstr.","postalCode":"57614","locality":"Mudenbach","municipality":{"key":"07143267","name":"Mudenbach","type":"Kreisangehörige_Gemeinde"},"district":{"key":"07143","name":"Westerwaldkreis","type":"Landkreis"},"federalState":{"key":"07","name":"Rheinland-Pfalz"}},{"name":"Hinterm Garten","postalCode":"57614","locality":"Mudenbach","municipality":{"key":"07143267","name":"Mudenbach","type":"Kreisangehörige_Gemeinde"},"district":{"key":"07143","name":"Westerwaldkreis","type":"Landkreis"},"federalState":{"key":"07","name":"Rheinland-Pfalz"}},{"name":"Im Blumenstück","postalCode":"57614","locality":"Mudenbach","municipality":{"key":"07143267","name":"Mudenbach","type":"Kreisangehörige_Gemeinde"},"district":{"key":"07143","name":"Westerwaldkreis","type":"Landkreis"},"federalState":{"key":"07","name":"Rheinland-Pfalz"}},{"name":"In den Eichen","postalCode":"57614","locality":"Mudenbach","municipality":{"key":"07143267","name":"Mudenbach","type":"Kreisangehörige_Gemeinde"},"district":{"key":"07143","name":"Westerwaldkreis","type":"Landkreis"},"federalState":{"key":"07","name":"Rheinland-Pfalz"}},{"name":"Linnenhöfchen","postalCode":"57614","locality":"Mudenbach","municipality":{"key":"07143267","name":"Mudenbach","type":"Kreisangehörige_Gemeinde"},"district":{"key":"07143","name":"Westerwaldkreis","type":"Landkreis"},"federalState":{"key":"07","name":"Rheinland-Pfalz"}},{"name":"Mühlenweg","postalCode":"57614","locality":"Mudenbach","municipality":{"key":"07143267","name":"Mudenbach","type":"Kreisangehörige_Gemeinde"},"district":{"key":"07143","name":"Westerwaldkreis","type":"Landkreis"},"federalState":{"key":"07","name":"Rheinland-Pfalz"}},{"name":"Oberer Wiesenweg","postalCode":"57614","locality":"Mudenbach","municipality":{"key":"07143267","name":"Mudenbach","type":"Kreisangehörige_Gemeinde"},"district":{"key":"07143","name":"Westerwaldkreis","type":"Landkreis"},"federalState":{"key":"07","name":"Rheinland-Pfalz"}},{"name":"Osterweg","postalCode":"57614","locality":"Mudenbach","municipality":{"key":"07143267","name":"Mudenbach","type":"Kreisangehörige_Gemeinde"},"district":{"key":"07143","name":"Westerwaldkreis","type":"Landkreis"},"federalState":{"key":"07","name":"Rheinland-Pfalz"}},{"name":"Rosenweg","postalCode":"57614","locality":"Mudenbach","municipality":{"key":"07143267","name":"Mudenbach","type":"Kreisangehörige_Gemeinde"},"district":{"key":"07143","name":"Westerwaldkreis","type":"Landkreis"},"federalState":{"key":"07","name":"Rheinland-Pfalz"}},{"name":"Tannenweg","postalCode":"57614","locality":"Mudenbach","municipality":{"key":"07143267","name":"Mudenbach","type":"Kreisangehörige_Gemeinde"},"district":{"key":"07143","name":"Westerwaldkreis","type":"Landkreis"},"federalState":{"key":"07","name":"Rheinland-Pfalz"}},{"name":"Vor der Hardt","postalCode":"57614","locality":"Mudenbach","municipality":{"key":"07143267","name":"Mudenbach","type":"Kreisangehörige_Gemeinde"},"district":{"key":"07143","name":"Westerwaldkreis","type":"Landkreis"},"federalState":{"key":"07","name":"Rheinland-Pfalz"}},{"name":"Wiesenweg","postalCode":"57614","locality":"Mudenbach","municipality":{"key":"07143267","name":"Mudenbach","type":"Kreisangehörige_Gemeinde"},"district":{"key":"07143","name":"Westerwaldkreis","type":"Landkreis"},"federalState":{"key":"07","name":"Rheinland-Pfalz"}},]