[{"name":"Ahornweg","postalCode":"66620","locality":"Nonnweiler","municipality":{"key":"10046115","name":"Nonnweiler","type":"Kreisangehörige_Gemeinde"},"district":{"key":"10046","name":"St. Wendel","type":"Landkreis"},"federalState":{"key":"10","name":"Saarland"}},{"name":"Alte Eiweilerstr.","postalCode":"66620","locality":"Nonnweiler","municipality":{"key":"10046115","name":"Nonnweiler","type":"Kreisangehörige_Gemeinde"},"district":{"key":"10046","name":"St. Wendel","type":"Landkreis"},"federalState":{"key":"10","name":"Saarland"}},{"name":"Alte Hohl","postalCode":"66620","locality":"Nonnweiler","municipality":{"key":"10046115","name":"Nonnweiler","type":"Kreisangehörige_Gemeinde"},"district":{"key":"10046","name":"St. Wendel","type":"Landkreis"},"federalState":{"key":"10","name":"Saarland"}},{"name":"Alter Bahndamm","postalCode":"66620","locality":"Nonnweiler","municipality":{"key":"10046115","name":"Nonnweiler","type":"Kreisangehörige_Gemeinde"},"district":{"key":"10046","name":"St. Wendel","type":"Landkreis"},"federalState":{"key":"10","name":"Saarland"}},{"name":"Alter Huf","postalCode":"66620","locality":"Nonnweiler","municipality":{"key":"10046115","name":"Nonnweiler","type":"Kreisangehörige_Gemeinde"},"district":{"key":"10046","name":"St. Wendel","type":"Landkreis"},"federalState":{"key":"10","name":"Saarland"}},{"name":"Am Butzenberg","postalCode":"66620","locality":"Nonnweiler","municipality":{"key":"10046115","name":"Nonnweiler","type":"Kreisangehörige_Gemeinde"},"district":{"key":"10046","name":"St. Wendel","type":"Landkreis"},"federalState":{"key":"10","name":"Saarland"}},{"name":"Am Flößchen","postalCode":"66620","locality":"Nonnweiler","municipality":{"key":"10046115","name":"Nonnweiler","type":"Kreisangehörige_Gemeinde"},"district":{"key":"10046","name":"St. Wendel","type":"Landkreis"},"federalState":{"key":"10","name":"Saarland"}},{"name":"Am Galgenberg","postalCode":"66620","locality":"Nonnweiler","municipality":{"key":"10046115","name":"Nonnweiler","type":"Kreisangehörige_Gemeinde"},"district":{"key":"10046","name":"St. Wendel","type":"Landkreis"},"federalState":{"key":"10","name":"Saarland"}},{"name":"Am Hammerberg","postalCode":"66620","locality":"Nonnweiler","municipality":{"key":"10046115","name":"Nonnweiler","type":"Kreisangehörige_Gemeinde"},"district":{"key":"10046","name":"St. Wendel","type":"Landkreis"},"federalState":{"key":"10","name":"Saarland"}},{"name":"Am Kirschbösch","postalCode":"66620","locality":"Nonnweiler","municipality":{"key":"10046115","name":"Nonnweiler","type":"Kreisangehörige_Gemeinde"},"district":{"key":"10046","name":"St. Wendel","type":"Landkreis"},"federalState":{"key":"10","name":"Saarland"}},{"name":"Am Klopp","postalCode":"66620","locality":"Nonnweiler","municipality":{"key":"10046115","name":"Nonnweiler","type":"Kreisangehörige_Gemeinde"},"district":{"key":"10046","name":"St. Wendel","type":"Landkreis"},"federalState":{"key":"10","name":"Saarland"}},{"name":"Am Langenborn","postalCode":"66620","locality":"Nonnweiler","municipality":{"key":"10046115","name":"Nonnweiler","type":"Kreisangehörige_Gemeinde"},"district":{"key":"10046","name":"St. Wendel","type":"Landkreis"},"federalState":{"key":"10","name":"Saarland"}},{"name":"Am Marktplatz","postalCode":"66620","locality":"Nonnweiler","municipality":{"key":"10046115","name":"Nonnweiler","type":"Kreisangehörige_Gemeinde"},"district":{"key":"10046","name":"St. Wendel","type":"Landkreis"},"federalState":{"key":"10","name":"Saarland"}},{"name":"Am Scheibchen","postalCode":"66620","locality":"Nonnweiler","municipality":{"key":"10046115","name":"Nonnweiler","type":"Kreisangehörige_Gemeinde"},"district":{"key":"10046","name":"St. Wendel","type":"Landkreis"},"federalState":{"key":"10","name":"Saarland"}},{"name":"Am Schwimmbad","postalCode":"66620","locality":"Nonnweiler","municipality":{"key":"10046115","name":"Nonnweiler","type":"Kreisangehörige_Gemeinde"},"district":{"key":"10046","name":"St. Wendel","type":"Landkreis"},"federalState":{"key":"10","name":"Saarland"}},{"name":"Amselweg","postalCode":"66620","locality":"Nonnweiler","municipality":{"key":"10046115","name":"Nonnweiler","type":"Kreisangehörige_Gemeinde"},"district":{"key":"10046","name":"St. Wendel","type":"Landkreis"},"federalState":{"key":"10","name":"Saarland"}},{"name":"Am Söterberg","postalCode":"66620","locality":"Nonnweiler","municipality":{"key":"10046115","name":"Nonnweiler","type":"Kreisangehörige_Gemeinde"},"district":{"key":"10046","name":"St. Wendel","type":"Landkreis"},"federalState":{"key":"10","name":"Saarland"}},{"name":"Am Stellerberg","postalCode":"66620","locality":"Nonnweiler","municipality":{"key":"10046115","name":"Nonnweiler","type":"Kreisangehörige_Gemeinde"},"district":{"key":"10046","name":"St. Wendel","type":"Landkreis"},"federalState":{"key":"10","name":"Saarland"}},{"name":"Am Wiesberg","postalCode":"66620","locality":"Nonnweiler","municipality":{"key":"10046115","name":"Nonnweiler","type":"Kreisangehörige_Gemeinde"},"district":{"key":"10046","name":"St. Wendel","type":"Landkreis"},"federalState":{"key":"10","name":"Saarland"}},{"name":"Am Zoll","postalCode":"66620","locality":"Nonnweiler","municipality":{"key":"10046115","name":"Nonnweiler","type":"Kreisangehörige_Gemeinde"},"district":{"key":"10046","name":"St. Wendel","type":"Landkreis"},"federalState":{"key":"10","name":"Saarland"}},{"name":"An der Turnhalle","postalCode":"66620","locality":"Nonnweiler","municipality":{"key":"10046115","name":"Nonnweiler","type":"Kreisangehörige_Gemeinde"},"district":{"key":"10046","name":"St. Wendel","type":"Landkreis"},"federalState":{"key":"10","name":"Saarland"}},{"name":"Auensbach","postalCode":"66620","locality":"Nonnweiler","municipality":{"key":"10046115","name":"Nonnweiler","type":"Kreisangehörige_Gemeinde"},"district":{"key":"10046","name":"St. Wendel","type":"Landkreis"},"federalState":{"key":"10","name":"Saarland"}},{"name":"Auf dem Flürchen","postalCode":"66620","locality":"Nonnweiler","municipality":{"key":"10046115","name":"Nonnweiler","type":"Kreisangehörige_Gemeinde"},"district":{"key":"10046","name":"St. Wendel","type":"Landkreis"},"federalState":{"key":"10","name":"Saarland"}},{"name":"Auf dem Känel","postalCode":"66620","locality":"Nonnweiler","municipality":{"key":"10046115","name":"Nonnweiler","type":"Kreisangehörige_Gemeinde"},"district":{"key":"10046","name":"St. Wendel","type":"Landkreis"},"federalState":{"key":"10","name":"Saarland"}},{"name":"Auf dem Kreuzfeld","postalCode":"66620","locality":"Nonnweiler","municipality":{"key":"10046115","name":"Nonnweiler","type":"Kreisangehörige_Gemeinde"},"district":{"key":"10046","name":"St. Wendel","type":"Landkreis"},"federalState":{"key":"10","name":"Saarland"}},{"name":"Auf der Fels","postalCode":"66620","locality":"Nonnweiler","municipality":{"key":"10046115","name":"Nonnweiler","type":"Kreisangehörige_Gemeinde"},"district":{"key":"10046","name":"St. Wendel","type":"Landkreis"},"federalState":{"key":"10","name":"Saarland"}},{"name":"Auf der Föhr","postalCode":"66620","locality":"Nonnweiler","municipality":{"key":"10046115","name":"Nonnweiler","type":"Kreisangehörige_Gemeinde"},"district":{"key":"10046","name":"St. Wendel","type":"Landkreis"},"federalState":{"key":"10","name":"Saarland"}},{"name":"Auf der Geig","postalCode":"66620","locality":"Nonnweiler","municipality":{"key":"10046115","name":"Nonnweiler","type":"Kreisangehörige_Gemeinde"},"district":{"key":"10046","name":"St. Wendel","type":"Landkreis"},"federalState":{"key":"10","name":"Saarland"}},{"name":"Auf der Hohlbach","postalCode":"66620","locality":"Nonnweiler","municipality":{"key":"10046115","name":"Nonnweiler","type":"Kreisangehörige_Gemeinde"},"district":{"key":"10046","name":"St. Wendel","type":"Landkreis"},"federalState":{"key":"10","name":"Saarland"}},{"name":"Auf der Schmelz","postalCode":"66620","locality":"Nonnweiler","municipality":{"key":"10046115","name":"Nonnweiler","type":"Kreisangehörige_Gemeinde"},"district":{"key":"10046","name":"St. Wendel","type":"Landkreis"},"federalState":{"key":"10","name":"Saarland"}},{"name":"Auf der Tränk","postalCode":"66620","locality":"Nonnweiler","municipality":{"key":"10046115","name":"Nonnweiler","type":"Kreisangehörige_Gemeinde"},"district":{"key":"10046","name":"St. Wendel","type":"Landkreis"},"federalState":{"key":"10","name":"Saarland"}},{"name":"Auf Krämer","postalCode":"66620","locality":"Nonnweiler","municipality":{"key":"10046115","name":"Nonnweiler","type":"Kreisangehörige_Gemeinde"},"district":{"key":"10046","name":"St. Wendel","type":"Landkreis"},"federalState":{"key":"10","name":"Saarland"}},{"name":"Bahnhofstr.","postalCode":"66620","locality":"Nonnweiler","municipality":{"key":"10046115","name":"Nonnweiler","type":"Kreisangehörige_Gemeinde"},"district":{"key":"10046","name":"St. Wendel","type":"Landkreis"},"federalState":{"key":"10","name":"Saarland"}},{"name":"Bauerschilz","postalCode":"66620","locality":"Nonnweiler","municipality":{"key":"10046115","name":"Nonnweiler","type":"Kreisangehörige_Gemeinde"},"district":{"key":"10046","name":"St. Wendel","type":"Landkreis"},"federalState":{"key":"10","name":"Saarland"}},{"name":"Beethovenstr.","postalCode":"66620","locality":"Nonnweiler","municipality":{"key":"10046115","name":"Nonnweiler","type":"Kreisangehörige_Gemeinde"},"district":{"key":"10046","name":"St. Wendel","type":"Landkreis"},"federalState":{"key":"10","name":"Saarland"}},{"name":"Beim Diedeborn","postalCode":"66620","locality":"Nonnweiler","municipality":{"key":"10046115","name":"Nonnweiler","type":"Kreisangehörige_Gemeinde"},"district":{"key":"10046","name":"St. Wendel","type":"Landkreis"},"federalState":{"key":"10","name":"Saarland"}},{"name":"Bergstr.","postalCode":"66620","locality":"Nonnweiler","municipality":{"key":"10046115","name":"Nonnweiler","type":"Kreisangehörige_Gemeinde"},"district":{"key":"10046","name":"St. Wendel","type":"Landkreis"},"federalState":{"key":"10","name":"Saarland"}},{"name":"Bienenlehrpfad","postalCode":"66620","locality":"Nonnweiler","municipality":{"key":"10046115","name":"Nonnweiler","type":"Kreisangehörige_Gemeinde"},"district":{"key":"10046","name":"St. Wendel","type":"Landkreis"},"federalState":{"key":"10","name":"Saarland"}},{"name":"Bierfelder Str.","postalCode":"66620","locality":"Nonnweiler","municipality":{"key":"10046115","name":"Nonnweiler","type":"Kreisangehörige_Gemeinde"},"district":{"key":"10046","name":"St. Wendel","type":"Landkreis"},"federalState":{"key":"10","name":"Saarland"}},{"name":"Birkenweg","postalCode":"66620","locality":"Nonnweiler","municipality":{"key":"10046115","name":"Nonnweiler","type":"Kreisangehörige_Gemeinde"},"district":{"key":"10046","name":"St. Wendel","type":"Landkreis"},"federalState":{"key":"10","name":"Saarland"}},{"name":"Blumenweg","postalCode":"66620","locality":"Nonnweiler","municipality":{"key":"10046115","name":"Nonnweiler","type":"Kreisangehörige_Gemeinde"},"district":{"key":"10046","name":"St. Wendel","type":"Landkreis"},"federalState":{"key":"10","name":"Saarland"}},{"name":"Boschwiese","postalCode":"66620","locality":"Nonnweiler","municipality":{"key":"10046115","name":"Nonnweiler","type":"Kreisangehörige_Gemeinde"},"district":{"key":"10046","name":"St. Wendel","type":"Landkreis"},"federalState":{"key":"10","name":"Saarland"}},{"name":"Bosener Str.","postalCode":"66620","locality":"Nonnweiler","municipality":{"key":"10046115","name":"Nonnweiler","type":"Kreisangehörige_Gemeinde"},"district":{"key":"10046","name":"St. Wendel","type":"Landkreis"},"federalState":{"key":"10","name":"Saarland"}},{"name":"Braunshausener Str.","postalCode":"66620","locality":"Nonnweiler","municipality":{"key":"10046115","name":"Nonnweiler","type":"Kreisangehörige_Gemeinde"},"district":{"key":"10046","name":"St. Wendel","type":"Landkreis"},"federalState":{"key":"10","name":"Saarland"}},{"name":"Brunnenstr.","postalCode":"66620","locality":"Nonnweiler","municipality":{"key":"10046115","name":"Nonnweiler","type":"Kreisangehörige_Gemeinde"},"district":{"key":"10046","name":"St. Wendel","type":"Landkreis"},"federalState":{"key":"10","name":"Saarland"}},{"name":"Buchenweg","postalCode":"66620","locality":"Nonnweiler","municipality":{"key":"10046115","name":"Nonnweiler","type":"Kreisangehörige_Gemeinde"},"district":{"key":"10046","name":"St. Wendel","type":"Landkreis"},"federalState":{"key":"10","name":"Saarland"}},{"name":"Bühlrech","postalCode":"66620","locality":"Nonnweiler","municipality":{"key":"10046115","name":"Nonnweiler","type":"Kreisangehörige_Gemeinde"},"district":{"key":"10046","name":"St. Wendel","type":"Landkreis"},"federalState":{"key":"10","name":"Saarland"}},{"name":"Bungert","postalCode":"66620","locality":"Nonnweiler","municipality":{"key":"10046115","name":"Nonnweiler","type":"Kreisangehörige_Gemeinde"},"district":{"key":"10046","name":"St. Wendel","type":"Landkreis"},"federalState":{"key":"10","name":"Saarland"}},{"name":"Buweilerstr.","postalCode":"66620","locality":"Nonnweiler","municipality":{"key":"10046115","name":"Nonnweiler","type":"Kreisangehörige_Gemeinde"},"district":{"key":"10046","name":"St. Wendel","type":"Landkreis"},"federalState":{"key":"10","name":"Saarland"}},{"name":"Cloefweg","postalCode":"66620","locality":"Nonnweiler","municipality":{"key":"10046115","name":"Nonnweiler","type":"Kreisangehörige_Gemeinde"},"district":{"key":"10046","name":"St. Wendel","type":"Landkreis"},"federalState":{"key":"10","name":"Saarland"}},{"name":"Distelwies","postalCode":"66620","locality":"Nonnweiler","municipality":{"key":"10046115","name":"Nonnweiler","type":"Kreisangehörige_Gemeinde"},"district":{"key":"10046","name":"St. Wendel","type":"Landkreis"},"federalState":{"key":"10","name":"Saarland"}},{"name":"Dornstr.","postalCode":"66620","locality":"Nonnweiler","municipality":{"key":"10046115","name":"Nonnweiler","type":"Kreisangehörige_Gemeinde"},"district":{"key":"10046","name":"St. Wendel","type":"Landkreis"},"federalState":{"key":"10","name":"Saarland"}},{"name":"Drei Eichen","postalCode":"66620","locality":"Nonnweiler","municipality":{"key":"10046115","name":"Nonnweiler","type":"Kreisangehörige_Gemeinde"},"district":{"key":"10046","name":"St. Wendel","type":"Landkreis"},"federalState":{"key":"10","name":"Saarland"}},{"name":"Drosselweg","postalCode":"66620","locality":"Nonnweiler","municipality":{"key":"10046115","name":"Nonnweiler","type":"Kreisangehörige_Gemeinde"},"district":{"key":"10046","name":"St. Wendel","type":"Landkreis"},"federalState":{"key":"10","name":"Saarland"}},{"name":"Dr.-Spang-Str.","postalCode":"66620","locality":"Nonnweiler","municipality":{"key":"10046115","name":"Nonnweiler","type":"Kreisangehörige_Gemeinde"},"district":{"key":"10046","name":"St. Wendel","type":"Landkreis"},"federalState":{"key":"10","name":"Saarland"}},{"name":"Eichenlaubstr.","postalCode":"66620","locality":"Nonnweiler","municipality":{"key":"10046115","name":"Nonnweiler","type":"Kreisangehörige_Gemeinde"},"district":{"key":"10046","name":"St. Wendel","type":"Landkreis"},"federalState":{"key":"10","name":"Saarland"}},{"name":"Eichenweg","postalCode":"66620","locality":"Nonnweiler","municipality":{"key":"10046115","name":"Nonnweiler","type":"Kreisangehörige_Gemeinde"},"district":{"key":"10046","name":"St. Wendel","type":"Landkreis"},"federalState":{"key":"10","name":"Saarland"}},{"name":"Eisenbahnstr.","postalCode":"66620","locality":"Nonnweiler","municipality":{"key":"10046115","name":"Nonnweiler","type":"Kreisangehörige_Gemeinde"},"district":{"key":"10046","name":"St. Wendel","type":"Landkreis"},"federalState":{"key":"10","name":"Saarland"}},{"name":"Eiweilerstr.","postalCode":"66620","locality":"Nonnweiler","municipality":{"key":"10046115","name":"Nonnweiler","type":"Kreisangehörige_Gemeinde"},"district":{"key":"10046","name":"St. Wendel","type":"Landkreis"},"federalState":{"key":"10","name":"Saarland"}},{"name":"Ernst-Wagner-Str.","postalCode":"66620","locality":"Nonnweiler","municipality":{"key":"10046115","name":"Nonnweiler","type":"Kreisangehörige_Gemeinde"},"district":{"key":"10046","name":"St. Wendel","type":"Landkreis"},"federalState":{"key":"10","name":"Saarland"}},{"name":"Eschenweg","postalCode":"66620","locality":"Nonnweiler","municipality":{"key":"10046115","name":"Nonnweiler","type":"Kreisangehörige_Gemeinde"},"district":{"key":"10046","name":"St. Wendel","type":"Landkreis"},"federalState":{"key":"10","name":"Saarland"}},{"name":"Europahausstr.","postalCode":"66620","locality":"Nonnweiler","municipality":{"key":"10046115","name":"Nonnweiler","type":"Kreisangehörige_Gemeinde"},"district":{"key":"10046","name":"St. Wendel","type":"Landkreis"},"federalState":{"key":"10","name":"Saarland"}},{"name":"Fahrflurweg","postalCode":"66620","locality":"Nonnweiler","municipality":{"key":"10046115","name":"Nonnweiler","type":"Kreisangehörige_Gemeinde"},"district":{"key":"10046","name":"St. Wendel","type":"Landkreis"},"federalState":{"key":"10","name":"Saarland"}},{"name":"Fasanenweg","postalCode":"66620","locality":"Nonnweiler","municipality":{"key":"10046115","name":"Nonnweiler","type":"Kreisangehörige_Gemeinde"},"district":{"key":"10046","name":"St. Wendel","type":"Landkreis"},"federalState":{"key":"10","name":"Saarland"}},{"name":"Feldstr.","postalCode":"66620","locality":"Nonnweiler","municipality":{"key":"10046115","name":"Nonnweiler","type":"Kreisangehörige_Gemeinde"},"district":{"key":"10046","name":"St. Wendel","type":"Landkreis"},"federalState":{"key":"10","name":"Saarland"}},{"name":"Felsenweg","postalCode":"66620","locality":"Nonnweiler","municipality":{"key":"10046115","name":"Nonnweiler","type":"Kreisangehörige_Gemeinde"},"district":{"key":"10046","name":"St. Wendel","type":"Landkreis"},"federalState":{"key":"10","name":"Saarland"}},{"name":"Felsstr.","postalCode":"66620","locality":"Nonnweiler","municipality":{"key":"10046115","name":"Nonnweiler","type":"Kreisangehörige_Gemeinde"},"district":{"key":"10046","name":"St. Wendel","type":"Landkreis"},"federalState":{"key":"10","name":"Saarland"}},{"name":"Fesselswiese","postalCode":"66620","locality":"Nonnweiler","municipality":{"key":"10046115","name":"Nonnweiler","type":"Kreisangehörige_Gemeinde"},"district":{"key":"10046","name":"St. Wendel","type":"Landkreis"},"federalState":{"key":"10","name":"Saarland"}},{"name":"Fichtenweg","postalCode":"66620","locality":"Nonnweiler","municipality":{"key":"10046115","name":"Nonnweiler","type":"Kreisangehörige_Gemeinde"},"district":{"key":"10046","name":"St. Wendel","type":"Landkreis"},"federalState":{"key":"10","name":"Saarland"}},{"name":"Finkenweg","postalCode":"66620","locality":"Nonnweiler","municipality":{"key":"10046115","name":"Nonnweiler","type":"Kreisangehörige_Gemeinde"},"district":{"key":"10046","name":"St. Wendel","type":"Landkreis"},"federalState":{"key":"10","name":"Saarland"}},{"name":"Fliederweg","postalCode":"66620","locality":"Nonnweiler","municipality":{"key":"10046115","name":"Nonnweiler","type":"Kreisangehörige_Gemeinde"},"district":{"key":"10046","name":"St. Wendel","type":"Landkreis"},"federalState":{"key":"10","name":"Saarland"}},{"name":"Forststr.","postalCode":"66620","locality":"Nonnweiler","municipality":{"key":"10046115","name":"Nonnweiler","type":"Kreisangehörige_Gemeinde"},"district":{"key":"10046","name":"St. Wendel","type":"Landkreis"},"federalState":{"key":"10","name":"Saarland"}},{"name":"Friedhofstr.","postalCode":"66620","locality":"Nonnweiler","municipality":{"key":"10046115","name":"Nonnweiler","type":"Kreisangehörige_Gemeinde"},"district":{"key":"10046","name":"St. Wendel","type":"Landkreis"},"federalState":{"key":"10","name":"Saarland"}},{"name":"Gartenstr.","postalCode":"66620","locality":"Nonnweiler","municipality":{"key":"10046115","name":"Nonnweiler","type":"Kreisangehörige_Gemeinde"},"district":{"key":"10046","name":"St. Wendel","type":"Landkreis"},"federalState":{"key":"10","name":"Saarland"}},{"name":"Geiset","postalCode":"66620","locality":"Nonnweiler","municipality":{"key":"10046115","name":"Nonnweiler","type":"Kreisangehörige_Gemeinde"},"district":{"key":"10046","name":"St. Wendel","type":"Landkreis"},"federalState":{"key":"10","name":"Saarland"}},{"name":"Gerhardstr.","postalCode":"66620","locality":"Nonnweiler","municipality":{"key":"10046115","name":"Nonnweiler","type":"Kreisangehörige_Gemeinde"},"district":{"key":"10046","name":"St. Wendel","type":"Landkreis"},"federalState":{"key":"10","name":"Saarland"}},{"name":"Goethestr.","postalCode":"66620","locality":"Nonnweiler","municipality":{"key":"10046115","name":"Nonnweiler","type":"Kreisangehörige_Gemeinde"},"district":{"key":"10046","name":"St. Wendel","type":"Landkreis"},"federalState":{"key":"10","name":"Saarland"}},{"name":"Gommsmühle","postalCode":"66620","locality":"Nonnweiler","municipality":{"key":"10046115","name":"Nonnweiler","type":"Kreisangehörige_Gemeinde"},"district":{"key":"10046","name":"St. Wendel","type":"Landkreis"},"federalState":{"key":"10","name":"Saarland"}},{"name":"Grimburger Weg","postalCode":"66620","locality":"Nonnweiler","municipality":{"key":"10046115","name":"Nonnweiler","type":"Kreisangehörige_Gemeinde"},"district":{"key":"10046","name":"St. Wendel","type":"Landkreis"},"federalState":{"key":"10","name":"Saarland"}},{"name":"Gusenburger Weg","postalCode":"66620","locality":"Nonnweiler","municipality":{"key":"10046115","name":"Nonnweiler","type":"Kreisangehörige_Gemeinde"},"district":{"key":"10046","name":"St. Wendel","type":"Landkreis"},"federalState":{"key":"10","name":"Saarland"}},{"name":"Haagstr.","postalCode":"66620","locality":"Nonnweiler","municipality":{"key":"10046115","name":"Nonnweiler","type":"Kreisangehörige_Gemeinde"},"district":{"key":"10046","name":"St. Wendel","type":"Landkreis"},"federalState":{"key":"10","name":"Saarland"}},{"name":"Hauptstr.","postalCode":"66620","locality":"Nonnweiler","municipality":{"key":"10046115","name":"Nonnweiler","type":"Kreisangehörige_Gemeinde"},"district":{"key":"10046","name":"St. Wendel","type":"Landkreis"},"federalState":{"key":"10","name":"Saarland"}},{"name":"Haydnstr.","postalCode":"66620","locality":"Nonnweiler","municipality":{"key":"10046115","name":"Nonnweiler","type":"Kreisangehörige_Gemeinde"},"district":{"key":"10046","name":"St. Wendel","type":"Landkreis"},"federalState":{"key":"10","name":"Saarland"}},{"name":"Hermann-Löns-Str.","postalCode":"66620","locality":"Nonnweiler","municipality":{"key":"10046115","name":"Nonnweiler","type":"Kreisangehörige_Gemeinde"},"district":{"key":"10046","name":"St. Wendel","type":"Landkreis"},"federalState":{"key":"10","name":"Saarland"}},{"name":"Hinter Krähenbusch","postalCode":"66620","locality":"Nonnweiler","municipality":{"key":"10046115","name":"Nonnweiler","type":"Kreisangehörige_Gemeinde"},"district":{"key":"10046","name":"St. Wendel","type":"Landkreis"},"federalState":{"key":"10","name":"Saarland"}},{"name":"Hochwaldstr.","postalCode":"66620","locality":"Nonnweiler","municipality":{"key":"10046115","name":"Nonnweiler","type":"Kreisangehörige_Gemeinde"},"district":{"key":"10046","name":"St. Wendel","type":"Landkreis"},"federalState":{"key":"10","name":"Saarland"}},{"name":"Höhenstr.","postalCode":"66620","locality":"Nonnweiler","municipality":{"key":"10046115","name":"Nonnweiler","type":"Kreisangehörige_Gemeinde"},"district":{"key":"10046","name":"St. Wendel","type":"Landkreis"},"federalState":{"key":"10","name":"Saarland"}},{"name":"Hohlstr.","postalCode":"66620","locality":"Nonnweiler","municipality":{"key":"10046115","name":"Nonnweiler","type":"Kreisangehörige_Gemeinde"},"district":{"key":"10046","name":"St. Wendel","type":"Landkreis"},"federalState":{"key":"10","name":"Saarland"}},{"name":"Homesweg","postalCode":"66620","locality":"Nonnweiler","municipality":{"key":"10046115","name":"Nonnweiler","type":"Kreisangehörige_Gemeinde"},"district":{"key":"10046","name":"St. Wendel","type":"Landkreis"},"federalState":{"key":"10","name":"Saarland"}},{"name":"Horstgraben","postalCode":"66620","locality":"Nonnweiler","municipality":{"key":"10046115","name":"Nonnweiler","type":"Kreisangehörige_Gemeinde"},"district":{"key":"10046","name":"St. Wendel","type":"Landkreis"},"federalState":{"key":"10","name":"Saarland"}},{"name":"Hubertusrunde","postalCode":"66620","locality":"Nonnweiler","municipality":{"key":"10046115","name":"Nonnweiler","type":"Kreisangehörige_Gemeinde"},"district":{"key":"10046","name":"St. Wendel","type":"Landkreis"},"federalState":{"key":"10","name":"Saarland"}},{"name":"Hubertusstr.","postalCode":"66620","locality":"Nonnweiler","municipality":{"key":"10046115","name":"Nonnweiler","type":"Kreisangehörige_Gemeinde"},"district":{"key":"10046","name":"St. Wendel","type":"Landkreis"},"federalState":{"key":"10","name":"Saarland"}},{"name":"Hunnenringstr.","postalCode":"66620","locality":"Nonnweiler","municipality":{"key":"10046115","name":"Nonnweiler","type":"Kreisangehörige_Gemeinde"},"district":{"key":"10046","name":"St. Wendel","type":"Landkreis"},"federalState":{"key":"10","name":"Saarland"}},{"name":"Hunnenringweg","postalCode":"66620","locality":"Nonnweiler","municipality":{"key":"10046115","name":"Nonnweiler","type":"Kreisangehörige_Gemeinde"},"district":{"key":"10046","name":"St. Wendel","type":"Landkreis"},"federalState":{"key":"10","name":"Saarland"}},{"name":"Im Aller","postalCode":"66620","locality":"Nonnweiler","municipality":{"key":"10046115","name":"Nonnweiler","type":"Kreisangehörige_Gemeinde"},"district":{"key":"10046","name":"St. Wendel","type":"Landkreis"},"federalState":{"key":"10","name":"Saarland"}},{"name":"Im Bruch","postalCode":"66620","locality":"Nonnweiler","municipality":{"key":"10046115","name":"Nonnweiler","type":"Kreisangehörige_Gemeinde"},"district":{"key":"10046","name":"St. Wendel","type":"Landkreis"},"federalState":{"key":"10","name":"Saarland"}},{"name":"Im Bruchborn","postalCode":"66620","locality":"Nonnweiler","municipality":{"key":"10046115","name":"Nonnweiler","type":"Kreisangehörige_Gemeinde"},"district":{"key":"10046","name":"St. Wendel","type":"Landkreis"},"federalState":{"key":"10","name":"Saarland"}},{"name":"Im Brühl","postalCode":"66620","locality":"Nonnweiler","municipality":{"key":"10046115","name":"Nonnweiler","type":"Kreisangehörige_Gemeinde"},"district":{"key":"10046","name":"St. Wendel","type":"Landkreis"},"federalState":{"key":"10","name":"Saarland"}},{"name":"Im Dörrengarten","postalCode":"66620","locality":"Nonnweiler","municipality":{"key":"10046115","name":"Nonnweiler","type":"Kreisangehörige_Gemeinde"},"district":{"key":"10046","name":"St. Wendel","type":"Landkreis"},"federalState":{"key":"10","name":"Saarland"}},{"name":"Im Erker","postalCode":"66620","locality":"Nonnweiler","municipality":{"key":"10046115","name":"Nonnweiler","type":"Kreisangehörige_Gemeinde"},"district":{"key":"10046","name":"St. Wendel","type":"Landkreis"},"federalState":{"key":"10","name":"Saarland"}},{"name":"Im Graben","postalCode":"66620","locality":"Nonnweiler","municipality":{"key":"10046115","name":"Nonnweiler","type":"Kreisangehörige_Gemeinde"},"district":{"key":"10046","name":"St. Wendel","type":"Landkreis"},"federalState":{"key":"10","name":"Saarland"}},{"name":"Im Gries","postalCode":"66620","locality":"Nonnweiler","municipality":{"key":"10046115","name":"Nonnweiler","type":"Kreisangehörige_Gemeinde"},"district":{"key":"10046","name":"St. Wendel","type":"Landkreis"},"federalState":{"key":"10","name":"Saarland"}},{"name":"Im Hahnecken","postalCode":"66620","locality":"Nonnweiler","municipality":{"key":"10046115","name":"Nonnweiler","type":"Kreisangehörige_Gemeinde"},"district":{"key":"10046","name":"St. Wendel","type":"Landkreis"},"federalState":{"key":"10","name":"Saarland"}},{"name":"Im Hornfeld","postalCode":"66620","locality":"Nonnweiler","municipality":{"key":"10046115","name":"Nonnweiler","type":"Kreisangehörige_Gemeinde"},"district":{"key":"10046","name":"St. Wendel","type":"Landkreis"},"federalState":{"key":"10","name":"Saarland"}},{"name":"Im Kleegarten","postalCode":"66620","locality":"Nonnweiler","municipality":{"key":"10046115","name":"Nonnweiler","type":"Kreisangehörige_Gemeinde"},"district":{"key":"10046","name":"St. Wendel","type":"Landkreis"},"federalState":{"key":"10","name":"Saarland"}},{"name":"Im Lückenfeld","postalCode":"66620","locality":"Nonnweiler","municipality":{"key":"10046115","name":"Nonnweiler","type":"Kreisangehörige_Gemeinde"},"district":{"key":"10046","name":"St. Wendel","type":"Landkreis"},"federalState":{"key":"10","name":"Saarland"}},{"name":"Im Oberdorf","postalCode":"66620","locality":"Nonnweiler","municipality":{"key":"10046115","name":"Nonnweiler","type":"Kreisangehörige_Gemeinde"},"district":{"key":"10046","name":"St. Wendel","type":"Landkreis"},"federalState":{"key":"10","name":"Saarland"}},{"name":"Im Rehwinkel","postalCode":"66620","locality":"Nonnweiler","municipality":{"key":"10046115","name":"Nonnweiler","type":"Kreisangehörige_Gemeinde"},"district":{"key":"10046","name":"St. Wendel","type":"Landkreis"},"federalState":{"key":"10","name":"Saarland"}},{"name":"Im Rosengarten","postalCode":"66620","locality":"Nonnweiler","municipality":{"key":"10046115","name":"Nonnweiler","type":"Kreisangehörige_Gemeinde"},"district":{"key":"10046","name":"St. Wendel","type":"Landkreis"},"federalState":{"key":"10","name":"Saarland"}},{"name":"Im Unterdorf","postalCode":"66620","locality":"Nonnweiler","municipality":{"key":"10046115","name":"Nonnweiler","type":"Kreisangehörige_Gemeinde"},"district":{"key":"10046","name":"St. Wendel","type":"Landkreis"},"federalState":{"key":"10","name":"Saarland"}},{"name":"Im Wieschen","postalCode":"66620","locality":"Nonnweiler","municipality":{"key":"10046115","name":"Nonnweiler","type":"Kreisangehörige_Gemeinde"},"district":{"key":"10046","name":"St. Wendel","type":"Landkreis"},"federalState":{"key":"10","name":"Saarland"}},{"name":"Im Zuckerfeld","postalCode":"66620","locality":"Nonnweiler","municipality":{"key":"10046115","name":"Nonnweiler","type":"Kreisangehörige_Gemeinde"},"district":{"key":"10046","name":"St. Wendel","type":"Landkreis"},"federalState":{"key":"10","name":"Saarland"}},{"name":"In den Schemeln","postalCode":"66620","locality":"Nonnweiler","municipality":{"key":"10046115","name":"Nonnweiler","type":"Kreisangehörige_Gemeinde"},"district":{"key":"10046","name":"St. Wendel","type":"Landkreis"},"federalState":{"key":"10","name":"Saarland"}},{"name":"In den Stümpen","postalCode":"66620","locality":"Nonnweiler","municipality":{"key":"10046115","name":"Nonnweiler","type":"Kreisangehörige_Gemeinde"},"district":{"key":"10046","name":"St. Wendel","type":"Landkreis"},"federalState":{"key":"10","name":"Saarland"}},{"name":"In der Keip","postalCode":"66620","locality":"Nonnweiler","municipality":{"key":"10046115","name":"Nonnweiler","type":"Kreisangehörige_Gemeinde"},"district":{"key":"10046","name":"St. Wendel","type":"Landkreis"},"federalState":{"key":"10","name":"Saarland"}},{"name":"In der Kripp","postalCode":"66620","locality":"Nonnweiler","municipality":{"key":"10046115","name":"Nonnweiler","type":"Kreisangehörige_Gemeinde"},"district":{"key":"10046","name":"St. Wendel","type":"Landkreis"},"federalState":{"key":"10","name":"Saarland"}},{"name":"In der Langenfeld","postalCode":"66620","locality":"Nonnweiler","municipality":{"key":"10046115","name":"Nonnweiler","type":"Kreisangehörige_Gemeinde"},"district":{"key":"10046","name":"St. Wendel","type":"Landkreis"},"federalState":{"key":"10","name":"Saarland"}},{"name":"In der Meß","postalCode":"66620","locality":"Nonnweiler","municipality":{"key":"10046115","name":"Nonnweiler","type":"Kreisangehörige_Gemeinde"},"district":{"key":"10046","name":"St. Wendel","type":"Landkreis"},"federalState":{"key":"10","name":"Saarland"}},{"name":"In der Seiters","postalCode":"66620","locality":"Nonnweiler","municipality":{"key":"10046115","name":"Nonnweiler","type":"Kreisangehörige_Gemeinde"},"district":{"key":"10046","name":"St. Wendel","type":"Landkreis"},"federalState":{"key":"10","name":"Saarland"}},{"name":"Irmaweg","postalCode":"66620","locality":"Nonnweiler","municipality":{"key":"10046115","name":"Nonnweiler","type":"Kreisangehörige_Gemeinde"},"district":{"key":"10046","name":"St. Wendel","type":"Landkreis"},"federalState":{"key":"10","name":"Saarland"}},{"name":"Johannisstr.","postalCode":"66620","locality":"Nonnweiler","municipality":{"key":"10046115","name":"Nonnweiler","type":"Kreisangehörige_Gemeinde"},"district":{"key":"10046","name":"St. Wendel","type":"Landkreis"},"federalState":{"key":"10","name":"Saarland"}},{"name":"Kahlenbergweg","postalCode":"66620","locality":"Nonnweiler","municipality":{"key":"10046115","name":"Nonnweiler","type":"Kreisangehörige_Gemeinde"},"district":{"key":"10046","name":"St. Wendel","type":"Landkreis"},"federalState":{"key":"10","name":"Saarland"}},{"name":"Kälbergarten","postalCode":"66620","locality":"Nonnweiler","municipality":{"key":"10046115","name":"Nonnweiler","type":"Kreisangehörige_Gemeinde"},"district":{"key":"10046","name":"St. Wendel","type":"Landkreis"},"federalState":{"key":"10","name":"Saarland"}},{"name":"Kannenberg","postalCode":"66620","locality":"Nonnweiler","municipality":{"key":"10046115","name":"Nonnweiler","type":"Kreisangehörige_Gemeinde"},"district":{"key":"10046","name":"St. Wendel","type":"Landkreis"},"federalState":{"key":"10","name":"Saarland"}},{"name":"Karl-Diehl-Str.","postalCode":"66620","locality":"Nonnweiler","municipality":{"key":"10046115","name":"Nonnweiler","type":"Kreisangehörige_Gemeinde"},"district":{"key":"10046","name":"St. Wendel","type":"Landkreis"},"federalState":{"key":"10","name":"Saarland"}},{"name":"Kastanienweg","postalCode":"66620","locality":"Nonnweiler","municipality":{"key":"10046115","name":"Nonnweiler","type":"Kreisangehörige_Gemeinde"},"district":{"key":"10046","name":"St. Wendel","type":"Landkreis"},"federalState":{"key":"10","name":"Saarland"}},{"name":"Kasteler Str.","postalCode":"66620","locality":"Nonnweiler","municipality":{"key":"10046115","name":"Nonnweiler","type":"Kreisangehörige_Gemeinde"},"district":{"key":"10046","name":"St. Wendel","type":"Landkreis"},"federalState":{"key":"10","name":"Saarland"}},{"name":"Keltenpark","postalCode":"66620","locality":"Nonnweiler","municipality":{"key":"10046115","name":"Nonnweiler","type":"Kreisangehörige_Gemeinde"},"district":{"key":"10046","name":"St. Wendel","type":"Landkreis"},"federalState":{"key":"10","name":"Saarland"}},{"name":"Keltenweg","postalCode":"66620","locality":"Nonnweiler","municipality":{"key":"10046115","name":"Nonnweiler","type":"Kreisangehörige_Gemeinde"},"district":{"key":"10046","name":"St. Wendel","type":"Landkreis"},"federalState":{"key":"10","name":"Saarland"}},{"name":"Kiefernweg","postalCode":"66620","locality":"Nonnweiler","municipality":{"key":"10046115","name":"Nonnweiler","type":"Kreisangehörige_Gemeinde"},"district":{"key":"10046","name":"St. Wendel","type":"Landkreis"},"federalState":{"key":"10","name":"Saarland"}},{"name":"Kirchstr.","postalCode":"66620","locality":"Nonnweiler","municipality":{"key":"10046115","name":"Nonnweiler","type":"Kreisangehörige_Gemeinde"},"district":{"key":"10046","name":"St. Wendel","type":"Landkreis"},"federalState":{"key":"10","name":"Saarland"}},{"name":"Kostenbacher Str.","postalCode":"66620","locality":"Nonnweiler","municipality":{"key":"10046115","name":"Nonnweiler","type":"Kreisangehörige_Gemeinde"},"district":{"key":"10046","name":"St. Wendel","type":"Landkreis"},"federalState":{"key":"10","name":"Saarland"}},{"name":"Langgarten","postalCode":"66620","locality":"Nonnweiler","municipality":{"key":"10046115","name":"Nonnweiler","type":"Kreisangehörige_Gemeinde"},"district":{"key":"10046","name":"St. Wendel","type":"Landkreis"},"federalState":{"key":"10","name":"Saarland"}},{"name":"Langheckstr.","postalCode":"66620","locality":"Nonnweiler","municipality":{"key":"10046115","name":"Nonnweiler","type":"Kreisangehörige_Gemeinde"},"district":{"key":"10046","name":"St. Wendel","type":"Landkreis"},"federalState":{"key":"10","name":"Saarland"}},{"name":"Lehmkaulstr.","postalCode":"66620","locality":"Nonnweiler","municipality":{"key":"10046115","name":"Nonnweiler","type":"Kreisangehörige_Gemeinde"},"district":{"key":"10046","name":"St. Wendel","type":"Landkreis"},"federalState":{"key":"10","name":"Saarland"}},{"name":"Lerchenweg","postalCode":"66620","locality":"Nonnweiler","municipality":{"key":"10046115","name":"Nonnweiler","type":"Kreisangehörige_Gemeinde"},"district":{"key":"10046","name":"St. Wendel","type":"Landkreis"},"federalState":{"key":"10","name":"Saarland"}},{"name":"Lindenweg","postalCode":"66620","locality":"Nonnweiler","municipality":{"key":"10046115","name":"Nonnweiler","type":"Kreisangehörige_Gemeinde"},"district":{"key":"10046","name":"St. Wendel","type":"Landkreis"},"federalState":{"key":"10","name":"Saarland"}},{"name":"Mariahütte","postalCode":"66620","locality":"Nonnweiler","municipality":{"key":"10046115","name":"Nonnweiler","type":"Kreisangehörige_Gemeinde"},"district":{"key":"10046","name":"St. Wendel","type":"Landkreis"},"federalState":{"key":"10","name":"Saarland"}},{"name":"Mariahütter Str.","postalCode":"66620","locality":"Nonnweiler","municipality":{"key":"10046115","name":"Nonnweiler","type":"Kreisangehörige_Gemeinde"},"district":{"key":"10046","name":"St. Wendel","type":"Landkreis"},"federalState":{"key":"10","name":"Saarland"}},{"name":"Matzenberg","postalCode":"66620","locality":"Nonnweiler","municipality":{"key":"10046115","name":"Nonnweiler","type":"Kreisangehörige_Gemeinde"},"district":{"key":"10046","name":"St. Wendel","type":"Landkreis"},"federalState":{"key":"10","name":"Saarland"}},{"name":"Mettnicher Str.","postalCode":"66620","locality":"Nonnweiler","municipality":{"key":"10046115","name":"Nonnweiler","type":"Kreisangehörige_Gemeinde"},"district":{"key":"10046","name":"St. Wendel","type":"Landkreis"},"federalState":{"key":"10","name":"Saarland"}},{"name":"Moosbruchweg","postalCode":"66620","locality":"Nonnweiler","municipality":{"key":"10046115","name":"Nonnweiler","type":"Kreisangehörige_Gemeinde"},"district":{"key":"10046","name":"St. Wendel","type":"Landkreis"},"federalState":{"key":"10","name":"Saarland"}},{"name":"Morschborn","postalCode":"66620","locality":"Nonnweiler","municipality":{"key":"10046115","name":"Nonnweiler","type":"Kreisangehörige_Gemeinde"},"district":{"key":"10046","name":"St. Wendel","type":"Landkreis"},"federalState":{"key":"10","name":"Saarland"}},{"name":"Mozartstr.","postalCode":"66620","locality":"Nonnweiler","municipality":{"key":"10046115","name":"Nonnweiler","type":"Kreisangehörige_Gemeinde"},"district":{"key":"10046","name":"St. Wendel","type":"Landkreis"},"federalState":{"key":"10","name":"Saarland"}},{"name":"Mühlenweg","postalCode":"66620","locality":"Nonnweiler","municipality":{"key":"10046115","name":"Nonnweiler","type":"Kreisangehörige_Gemeinde"},"district":{"key":"10046","name":"St. Wendel","type":"Landkreis"},"federalState":{"key":"10","name":"Saarland"}},{"name":"Mühlfelder Str.","postalCode":"66620","locality":"Nonnweiler","municipality":{"key":"10046115","name":"Nonnweiler","type":"Kreisangehörige_Gemeinde"},"district":{"key":"10046","name":"St. Wendel","type":"Landkreis"},"federalState":{"key":"10","name":"Saarland"}},{"name":"Muswiese","postalCode":"66620","locality":"Nonnweiler","municipality":{"key":"10046115","name":"Nonnweiler","type":"Kreisangehörige_Gemeinde"},"district":{"key":"10046","name":"St. Wendel","type":"Landkreis"},"federalState":{"key":"10","name":"Saarland"}},{"name":"Nagelstr.","postalCode":"66620","locality":"Nonnweiler","municipality":{"key":"10046115","name":"Nonnweiler","type":"Kreisangehörige_Gemeinde"},"district":{"key":"10046","name":"St. Wendel","type":"Landkreis"},"federalState":{"key":"10","name":"Saarland"}},{"name":"Nelkenstr.","postalCode":"66620","locality":"Nonnweiler","municipality":{"key":"10046115","name":"Nonnweiler","type":"Kreisangehörige_Gemeinde"},"district":{"key":"10046","name":"St. Wendel","type":"Landkreis"},"federalState":{"key":"10","name":"Saarland"}},{"name":"Neuer Weg","postalCode":"66620","locality":"Nonnweiler","municipality":{"key":"10046115","name":"Nonnweiler","type":"Kreisangehörige_Gemeinde"},"district":{"key":"10046","name":"St. Wendel","type":"Landkreis"},"federalState":{"key":"10","name":"Saarland"}},{"name":"Oldenburger Str.","postalCode":"66620","locality":"Nonnweiler","municipality":{"key":"10046115","name":"Nonnweiler","type":"Kreisangehörige_Gemeinde"},"district":{"key":"10046","name":"St. Wendel","type":"Landkreis"},"federalState":{"key":"10","name":"Saarland"}},{"name":"Peterbergstr.","postalCode":"66620","locality":"Nonnweiler","municipality":{"key":"10046115","name":"Nonnweiler","type":"Kreisangehörige_Gemeinde"},"district":{"key":"10046","name":"St. Wendel","type":"Landkreis"},"federalState":{"key":"10","name":"Saarland"}},{"name":"Pfarrer-Ebertz-Str.","postalCode":"66620","locality":"Nonnweiler","municipality":{"key":"10046115","name":"Nonnweiler","type":"Kreisangehörige_Gemeinde"},"district":{"key":"10046","name":"St. Wendel","type":"Landkreis"},"federalState":{"key":"10","name":"Saarland"}},{"name":"Prälat-Faber-Str.","postalCode":"66620","locality":"Nonnweiler","municipality":{"key":"10046115","name":"Nonnweiler","type":"Kreisangehörige_Gemeinde"},"district":{"key":"10046","name":"St. Wendel","type":"Landkreis"},"federalState":{"key":"10","name":"Saarland"}},{"name":"Primsstr.","postalCode":"66620","locality":"Nonnweiler","municipality":{"key":"10046115","name":"Nonnweiler","type":"Kreisangehörige_Gemeinde"},"district":{"key":"10046","name":"St. Wendel","type":"Landkreis"},"federalState":{"key":"10","name":"Saarland"}},{"name":"Primstaler Panoramapfad","postalCode":"66620","locality":"Nonnweiler","municipality":{"key":"10046115","name":"Nonnweiler","type":"Kreisangehörige_Gemeinde"},"district":{"key":"10046","name":"St. Wendel","type":"Landkreis"},"federalState":{"key":"10","name":"Saarland"}},{"name":"Primstaler Panoramaweg","postalCode":"66620","locality":"Nonnweiler","municipality":{"key":"10046115","name":"Nonnweiler","type":"Kreisangehörige_Gemeinde"},"district":{"key":"10046","name":"St. Wendel","type":"Landkreis"},"federalState":{"key":"10","name":"Saarland"}},{"name":"Primstalradweg","postalCode":"66620","locality":"Nonnweiler","municipality":{"key":"10046115","name":"Nonnweiler","type":"Kreisangehörige_Gemeinde"},"district":{"key":"10046","name":"St. Wendel","type":"Landkreis"},"federalState":{"key":"10","name":"Saarland"}},{"name":"Ringstr.","postalCode":"66620","locality":"Nonnweiler","municipality":{"key":"10046115","name":"Nonnweiler","type":"Kreisangehörige_Gemeinde"},"district":{"key":"10046","name":"St. Wendel","type":"Landkreis"},"federalState":{"key":"10","name":"Saarland"}},{"name":"Ringwallstr.","postalCode":"66620","locality":"Nonnweiler","municipality":{"key":"10046115","name":"Nonnweiler","type":"Kreisangehörige_Gemeinde"},"district":{"key":"10046","name":"St. Wendel","type":"Landkreis"},"federalState":{"key":"10","name":"Saarland"}},{"name":"Römerstr.","postalCode":"66620","locality":"Nonnweiler","municipality":{"key":"10046115","name":"Nonnweiler","type":"Kreisangehörige_Gemeinde"},"district":{"key":"10046","name":"St. Wendel","type":"Landkreis"},"federalState":{"key":"10","name":"Saarland"}},{"name":"Rosenweg","postalCode":"66620","locality":"Nonnweiler","municipality":{"key":"10046115","name":"Nonnweiler","type":"Kreisangehörige_Gemeinde"},"district":{"key":"10046","name":"St. Wendel","type":"Landkreis"},"federalState":{"key":"10","name":"Saarland"}},{"name":"Schillerweg","postalCode":"66620","locality":"Nonnweiler","municipality":{"key":"10046115","name":"Nonnweiler","type":"Kreisangehörige_Gemeinde"},"district":{"key":"10046","name":"St. Wendel","type":"Landkreis"},"federalState":{"key":"10","name":"Saarland"}},{"name":"Schlangenweg","postalCode":"66620","locality":"Nonnweiler","municipality":{"key":"10046115","name":"Nonnweiler","type":"Kreisangehörige_Gemeinde"},"district":{"key":"10046","name":"St. Wendel","type":"Landkreis"},"federalState":{"key":"10","name":"Saarland"}},{"name":"Schmalweg","postalCode":"66620","locality":"Nonnweiler","municipality":{"key":"10046115","name":"Nonnweiler","type":"Kreisangehörige_Gemeinde"},"district":{"key":"10046","name":"St. Wendel","type":"Landkreis"},"federalState":{"key":"10","name":"Saarland"}},{"name":"Schubertstr.","postalCode":"66620","locality":"Nonnweiler","municipality":{"key":"10046115","name":"Nonnweiler","type":"Kreisangehörige_Gemeinde"},"district":{"key":"10046","name":"St. Wendel","type":"Landkreis"},"federalState":{"key":"10","name":"Saarland"}},{"name":"Schulweg","postalCode":"66620","locality":"Nonnweiler","municipality":{"key":"10046115","name":"Nonnweiler","type":"Kreisangehörige_Gemeinde"},"district":{"key":"10046","name":"St. Wendel","type":"Landkreis"},"federalState":{"key":"10","name":"Saarland"}},{"name":"Schwalbenweg","postalCode":"66620","locality":"Nonnweiler","municipality":{"key":"10046115","name":"Nonnweiler","type":"Kreisangehörige_Gemeinde"},"district":{"key":"10046","name":"St. Wendel","type":"Landkreis"},"federalState":{"key":"10","name":"Saarland"}},{"name":"Schwarzenbacher Str.","postalCode":"66620","locality":"Nonnweiler","municipality":{"key":"10046115","name":"Nonnweiler","type":"Kreisangehörige_Gemeinde"},"district":{"key":"10046","name":"St. Wendel","type":"Landkreis"},"federalState":{"key":"10","name":"Saarland"}},{"name":"Sonnenstr.","postalCode":"66620","locality":"Nonnweiler","municipality":{"key":"10046115","name":"Nonnweiler","type":"Kreisangehörige_Gemeinde"},"district":{"key":"10046","name":"St. Wendel","type":"Landkreis"},"federalState":{"key":"10","name":"Saarland"}},{"name":"Söterner Str.","postalCode":"66620","locality":"Nonnweiler","municipality":{"key":"10046115","name":"Nonnweiler","type":"Kreisangehörige_Gemeinde"},"district":{"key":"10046","name":"St. Wendel","type":"Landkreis"},"federalState":{"key":"10","name":"Saarland"}},{"name":"Starenweg","postalCode":"66620","locality":"Nonnweiler","municipality":{"key":"10046115","name":"Nonnweiler","type":"Kreisangehörige_Gemeinde"},"district":{"key":"10046","name":"St. Wendel","type":"Landkreis"},"federalState":{"key":"10","name":"Saarland"}},{"name":"Steinkaul","postalCode":"66620","locality":"Nonnweiler","municipality":{"key":"10046115","name":"Nonnweiler","type":"Kreisangehörige_Gemeinde"},"district":{"key":"10046","name":"St. Wendel","type":"Landkreis"},"federalState":{"key":"10","name":"Saarland"}},{"name":"St.-Nikolaus-Str.","postalCode":"66620","locality":"Nonnweiler","municipality":{"key":"10046115","name":"Nonnweiler","type":"Kreisangehörige_Gemeinde"},"district":{"key":"10046","name":"St. Wendel","type":"Landkreis"},"federalState":{"key":"10","name":"Saarland"}},{"name":"Talstr.","postalCode":"66620","locality":"Nonnweiler","municipality":{"key":"10046115","name":"Nonnweiler","type":"Kreisangehörige_Gemeinde"},"district":{"key":"10046","name":"St. Wendel","type":"Landkreis"},"federalState":{"key":"10","name":"Saarland"}},{"name":"Tannenweg","postalCode":"66620","locality":"Nonnweiler","municipality":{"key":"10046115","name":"Nonnweiler","type":"Kreisangehörige_Gemeinde"},"district":{"key":"10046","name":"St. Wendel","type":"Landkreis"},"federalState":{"key":"10","name":"Saarland"}},{"name":"Tholeyer Str.","postalCode":"66620","locality":"Nonnweiler","municipality":{"key":"10046115","name":"Nonnweiler","type":"Kreisangehörige_Gemeinde"},"district":{"key":"10046","name":"St. Wendel","type":"Landkreis"},"federalState":{"key":"10","name":"Saarland"}},{"name":"Trierer Str.","postalCode":"66620","locality":"Nonnweiler","municipality":{"key":"10046115","name":"Nonnweiler","type":"Kreisangehörige_Gemeinde"},"district":{"key":"10046","name":"St. Wendel","type":"Landkreis"},"federalState":{"key":"10","name":"Saarland"}},{"name":"Tulpenweg","postalCode":"66620","locality":"Nonnweiler","municipality":{"key":"10046115","name":"Nonnweiler","type":"Kreisangehörige_Gemeinde"},"district":{"key":"10046","name":"St. Wendel","type":"Landkreis"},"federalState":{"key":"10","name":"Saarland"}},{"name":"Ulmenweg","postalCode":"66620","locality":"Nonnweiler","municipality":{"key":"10046115","name":"Nonnweiler","type":"Kreisangehörige_Gemeinde"},"district":{"key":"10046","name":"St. Wendel","type":"Landkreis"},"federalState":{"key":"10","name":"Saarland"}},{"name":"Unter der Fels","postalCode":"66620","locality":"Nonnweiler","municipality":{"key":"10046115","name":"Nonnweiler","type":"Kreisangehörige_Gemeinde"},"district":{"key":"10046","name":"St. Wendel","type":"Landkreis"},"federalState":{"key":"10","name":"Saarland"}},{"name":"Vor der Höhe","postalCode":"66620","locality":"Nonnweiler","municipality":{"key":"10046115","name":"Nonnweiler","type":"Kreisangehörige_Gemeinde"},"district":{"key":"10046","name":"St. Wendel","type":"Landkreis"},"federalState":{"key":"10","name":"Saarland"}},{"name":"Wadriller Str.","postalCode":"66620","locality":"Nonnweiler","municipality":{"key":"10046115","name":"Nonnweiler","type":"Kreisangehörige_Gemeinde"},"district":{"key":"10046","name":"St. Wendel","type":"Landkreis"},"federalState":{"key":"10","name":"Saarland"}},{"name":"Walchwies","postalCode":"66620","locality":"Nonnweiler","municipality":{"key":"10046115","name":"Nonnweiler","type":"Kreisangehörige_Gemeinde"},"district":{"key":"10046","name":"St. Wendel","type":"Landkreis"},"federalState":{"key":"10","name":"Saarland"}},{"name":"Waldbahn","postalCode":"66620","locality":"Nonnweiler","municipality":{"key":"10046115","name":"Nonnweiler","type":"Kreisangehörige_Gemeinde"},"district":{"key":"10046","name":"St. Wendel","type":"Landkreis"},"federalState":{"key":"10","name":"Saarland"}},{"name":"Waldweg","postalCode":"66620","locality":"Nonnweiler","municipality":{"key":"10046115","name":"Nonnweiler","type":"Kreisangehörige_Gemeinde"},"district":{"key":"10046","name":"St. Wendel","type":"Landkreis"},"federalState":{"key":"10","name":"Saarland"}},{"name":"Wendalinusstr.","postalCode":"66620","locality":"Nonnweiler","municipality":{"key":"10046115","name":"Nonnweiler","type":"Kreisangehörige_Gemeinde"},"district":{"key":"10046","name":"St. Wendel","type":"Landkreis"},"federalState":{"key":"10","name":"Saarland"}},{"name":"Wennebruchstr.","postalCode":"66620","locality":"Nonnweiler","municipality":{"key":"10046115","name":"Nonnweiler","type":"Kreisangehörige_Gemeinde"},"district":{"key":"10046","name":"St. Wendel","type":"Landkreis"},"federalState":{"key":"10","name":"Saarland"}},{"name":"Wiesbachstr.","postalCode":"66620","locality":"Nonnweiler","municipality":{"key":"10046115","name":"Nonnweiler","type":"Kreisangehörige_Gemeinde"},"district":{"key":"10046","name":"St. Wendel","type":"Landkreis"},"federalState":{"key":"10","name":"Saarland"}},{"name":"Zebischberg","postalCode":"66620","locality":"Nonnweiler","municipality":{"key":"10046115","name":"Nonnweiler","type":"Kreisangehörige_Gemeinde"},"district":{"key":"10046","name":"St. Wendel","type":"Landkreis"},"federalState":{"key":"10","name":"Saarland"}},{"name":"Ziegelhütte","postalCode":"66620","locality":"Nonnweiler","municipality":{"key":"10046115","name":"Nonnweiler","type":"Kreisangehörige_Gemeinde"},"district":{"key":"10046","name":"St. Wendel","type":"Landkreis"},"federalState":{"key":"10","name":"Saarland"}},{"name":"Zum Dennefeld","postalCode":"66620","locality":"Nonnweiler","municipality":{"key":"10046115","name":"Nonnweiler","type":"Kreisangehörige_Gemeinde"},"district":{"key":"10046","name":"St. Wendel","type":"Landkreis"},"federalState":{"key":"10","name":"Saarland"}},{"name":"Zum Dollberg","postalCode":"66620","locality":"Nonnweiler","municipality":{"key":"10046115","name":"Nonnweiler","type":"Kreisangehörige_Gemeinde"},"district":{"key":"10046","name":"St. Wendel","type":"Landkreis"},"federalState":{"key":"10","name":"Saarland"}},{"name":"Zum Dorfbrunnen","postalCode":"66620","locality":"Nonnweiler","municipality":{"key":"10046115","name":"Nonnweiler","type":"Kreisangehörige_Gemeinde"},"district":{"key":"10046","name":"St. Wendel","type":"Landkreis"},"federalState":{"key":"10","name":"Saarland"}},{"name":"Zum Ebertswald","postalCode":"66620","locality":"Nonnweiler","municipality":{"key":"10046115","name":"Nonnweiler","type":"Kreisangehörige_Gemeinde"},"district":{"key":"10046","name":"St. Wendel","type":"Landkreis"},"federalState":{"key":"10","name":"Saarland"}},{"name":"Zum Engelsbach","postalCode":"66620","locality":"Nonnweiler","municipality":{"key":"10046115","name":"Nonnweiler","type":"Kreisangehörige_Gemeinde"},"district":{"key":"10046","name":"St. Wendel","type":"Landkreis"},"federalState":{"key":"10","name":"Saarland"}},{"name":"Zum Europahaus","postalCode":"66620","locality":"Nonnweiler","municipality":{"key":"10046115","name":"Nonnweiler","type":"Kreisangehörige_Gemeinde"},"district":{"key":"10046","name":"St. Wendel","type":"Landkreis"},"federalState":{"key":"10","name":"Saarland"}},{"name":"Zum Handenberg","postalCode":"66620","locality":"Nonnweiler","municipality":{"key":"10046115","name":"Nonnweiler","type":"Kreisangehörige_Gemeinde"},"district":{"key":"10046","name":"St. Wendel","type":"Landkreis"},"federalState":{"key":"10","name":"Saarland"}},{"name":"Zum Hasenrech","postalCode":"66620","locality":"Nonnweiler","municipality":{"key":"10046115","name":"Nonnweiler","type":"Kreisangehörige_Gemeinde"},"district":{"key":"10046","name":"St. Wendel","type":"Landkreis"},"federalState":{"key":"10","name":"Saarland"}},{"name":"Zum Hirtenweg","postalCode":"66620","locality":"Nonnweiler","municipality":{"key":"10046115","name":"Nonnweiler","type":"Kreisangehörige_Gemeinde"},"district":{"key":"10046","name":"St. Wendel","type":"Landkreis"},"federalState":{"key":"10","name":"Saarland"}},{"name":"Zum Kahlenberg","postalCode":"66620","locality":"Nonnweiler","municipality":{"key":"10046115","name":"Nonnweiler","type":"Kreisangehörige_Gemeinde"},"district":{"key":"10046","name":"St. Wendel","type":"Landkreis"},"federalState":{"key":"10","name":"Saarland"}},{"name":"Zum Kallenborn","postalCode":"66620","locality":"Nonnweiler","municipality":{"key":"10046115","name":"Nonnweiler","type":"Kreisangehörige_Gemeinde"},"district":{"key":"10046","name":"St. Wendel","type":"Landkreis"},"federalState":{"key":"10","name":"Saarland"}},{"name":"Zum Moosbruch","postalCode":"66620","locality":"Nonnweiler","municipality":{"key":"10046115","name":"Nonnweiler","type":"Kreisangehörige_Gemeinde"},"district":{"key":"10046","name":"St. Wendel","type":"Landkreis"},"federalState":{"key":"10","name":"Saarland"}},{"name":"Zum Mütterheim","postalCode":"66620","locality":"Nonnweiler","municipality":{"key":"10046115","name":"Nonnweiler","type":"Kreisangehörige_Gemeinde"},"district":{"key":"10046","name":"St. Wendel","type":"Landkreis"},"federalState":{"key":"10","name":"Saarland"}},{"name":"Zum Sportplatz","postalCode":"66620","locality":"Nonnweiler","municipality":{"key":"10046115","name":"Nonnweiler","type":"Kreisangehörige_Gemeinde"},"district":{"key":"10046","name":"St. Wendel","type":"Landkreis"},"federalState":{"key":"10","name":"Saarland"}},{"name":"Zum Wäldchen","postalCode":"66620","locality":"Nonnweiler","municipality":{"key":"10046115","name":"Nonnweiler","type":"Kreisangehörige_Gemeinde"},"district":{"key":"10046","name":"St. Wendel","type":"Landkreis"},"federalState":{"key":"10","name":"Saarland"}},{"name":"Zur Bergerflur","postalCode":"66620","locality":"Nonnweiler","municipality":{"key":"10046115","name":"Nonnweiler","type":"Kreisangehörige_Gemeinde"},"district":{"key":"10046","name":"St. Wendel","type":"Landkreis"},"federalState":{"key":"10","name":"Saarland"}},{"name":"Zur Münzbach","postalCode":"66620","locality":"Nonnweiler","municipality":{"key":"10046115","name":"Nonnweiler","type":"Kreisangehörige_Gemeinde"},"district":{"key":"10046","name":"St. Wendel","type":"Landkreis"},"federalState":{"key":"10","name":"Saarland"}},{"name":"Zur Schellkaul","postalCode":"66620","locality":"Nonnweiler","municipality":{"key":"10046115","name":"Nonnweiler","type":"Kreisangehörige_Gemeinde"},"district":{"key":"10046","name":"St. Wendel","type":"Landkreis"},"federalState":{"key":"10","name":"Saarland"}},{"name":"Züscherwies","postalCode":"66620","locality":"Nonnweiler","municipality":{"key":"10046115","name":"Nonnweiler","type":"Kreisangehörige_Gemeinde"},"district":{"key":"10046","name":"St. Wendel","type":"Landkreis"},"federalState":{"key":"10","name":"Saarland"}},]