[{"name":"Achsenrieder Str.","postalCode":"87739","locality":"Breitenbrunn","municipality":{"key":"09778121","name":"Breitenbrunn","type":"Kreisangehörige_Gemeinde"},"district":{"key":"09778","name":"Unterallgäu","type":"Landkreis"},"federalState":{"key":"09","name":"Bayern"}},{"name":"Achterweg","postalCode":"08359","locality":"Breitenbrunn/Erzgebirge","municipality":{"key":"14521110","name":"Breitenbrunn/Erzgeb.","type":"Kreisangehörige_Gemeinde"},"district":{"key":"14521","name":"Erzgebirgskreis","type":"Landkreis"},"federalState":{"key":"14","name":"Sachsen"}},{"name":"Ahornweg","postalCode":"92363","locality":"Breitenbrunn","municipality":{"key":"09373115","name":"Breitenbrunn, M","type":"Markt"},"district":{"key":"09373","name":"Neumarkt i.d.OPf.","type":"Landkreis"},"federalState":{"key":"09","name":"Bayern"}},{"name":"Allersfeldener Str.","postalCode":"92363","locality":"Breitenbrunn","municipality":{"key":"09373115","name":"Breitenbrunn, M","type":"Markt"},"district":{"key":"09373","name":"Neumarkt i.d.OPf.","type":"Landkreis"},"federalState":{"key":"09","name":"Bayern"}},{"name":"Alpenstr.","postalCode":"87739","locality":"Breitenbrunn","municipality":{"key":"09778121","name":"Breitenbrunn","type":"Kreisangehörige_Gemeinde"},"district":{"key":"09778","name":"Unterallgäu","type":"Landkreis"},"federalState":{"key":"09","name":"Bayern"}},{"name":"Alte Jägerhäuser Str.","postalCode":"08359","locality":"Breitenbrunn/Erzgebirge","municipality":{"key":"14521110","name":"Breitenbrunn/Erzgeb.","type":"Kreisangehörige_Gemeinde"},"district":{"key":"14521","name":"Erzgebirgskreis","type":"Landkreis"},"federalState":{"key":"14","name":"Sachsen"}},{"name":"Alte Poststr.","postalCode":"08359","locality":"Breitenbrunn/Erzgebirge","municipality":{"key":"14521110","name":"Breitenbrunn/Erzgeb.","type":"Kreisangehörige_Gemeinde"},"district":{"key":"14521","name":"Erzgebirgskreis","type":"Landkreis"},"federalState":{"key":"14","name":"Sachsen"}},{"name":"Alte Rascher Str.","postalCode":"92363","locality":"Breitenbrunn","municipality":{"key":"09373115","name":"Breitenbrunn, M","type":"Markt"},"district":{"key":"09373","name":"Neumarkt i.d.OPf.","type":"Landkreis"},"federalState":{"key":"09","name":"Bayern"}},{"name":"Alter Drechslerweg","postalCode":"08359","locality":"Breitenbrunn/Erzgebirge","municipality":{"key":"14521110","name":"Breitenbrunn/Erzgeb.","type":"Kreisangehörige_Gemeinde"},"district":{"key":"14521","name":"Erzgebirgskreis","type":"Landkreis"},"federalState":{"key":"14","name":"Sachsen"}},{"name":"Alter Fällbachweg","postalCode":"08359","locality":"Breitenbrunn/Erzgebirge","municipality":{"key":"14521110","name":"Breitenbrunn/Erzgeb.","type":"Kreisangehörige_Gemeinde"},"district":{"key":"14521","name":"Erzgebirgskreis","type":"Landkreis"},"federalState":{"key":"14","name":"Sachsen"}},{"name":"Alter Johanngeorgenstädter Weg","postalCode":"08359","locality":"Breitenbrunn/Erzgebirge","municipality":{"key":"14521110","name":"Breitenbrunn/Erzgeb.","type":"Kreisangehörige_Gemeinde"},"district":{"key":"14521","name":"Erzgebirgskreis","type":"Landkreis"},"federalState":{"key":"14","name":"Sachsen"}},{"name":"Alter Schulweg","postalCode":"08359","locality":"Breitenbrunn/Erzgebirge","municipality":{"key":"14521110","name":"Breitenbrunn/Erzgeb.","type":"Kreisangehörige_Gemeinde"},"district":{"key":"14521","name":"Erzgebirgskreis","type":"Landkreis"},"federalState":{"key":"14","name":"Sachsen"}},{"name":"Alter Silbertransportweg","postalCode":"08359","locality":"Breitenbrunn/Erzgebirge","municipality":{"key":"14521110","name":"Breitenbrunn/Erzgeb.","type":"Kreisangehörige_Gemeinde"},"district":{"key":"14521","name":"Erzgebirgskreis","type":"Landkreis"},"federalState":{"key":"14","name":"Sachsen"}},{"name":"Alte Tellerhäuser Str.","postalCode":"08359","locality":"Breitenbrunn/Erzgebirge","municipality":{"key":"14521110","name":"Breitenbrunn/Erzgeb.","type":"Kreisangehörige_Gemeinde"},"district":{"key":"14521","name":"Erzgebirgskreis","type":"Landkreis"},"federalState":{"key":"14","name":"Sachsen"}},{"name":"Am Anger","postalCode":"92363","locality":"Breitenbrunn","municipality":{"key":"09373115","name":"Breitenbrunn, M","type":"Markt"},"district":{"key":"09373","name":"Neumarkt i.d.OPf.","type":"Landkreis"},"federalState":{"key":"09","name":"Bayern"}},{"name":"Am Bahnacker","postalCode":"87739","locality":"Breitenbrunn","municipality":{"key":"09778121","name":"Breitenbrunn","type":"Kreisangehörige_Gemeinde"},"district":{"key":"09778","name":"Unterallgäu","type":"Landkreis"},"federalState":{"key":"09","name":"Bayern"}},{"name":"Am Blumenrain","postalCode":"87739","locality":"Breitenbrunn","municipality":{"key":"09778121","name":"Breitenbrunn","type":"Kreisangehörige_Gemeinde"},"district":{"key":"09778","name":"Unterallgäu","type":"Landkreis"},"federalState":{"key":"09","name":"Bayern"}},{"name":"Am Buchenwald","postalCode":"08359","locality":"Breitenbrunn/Erzgebirge","municipality":{"key":"14521110","name":"Breitenbrunn/Erzgeb.","type":"Kreisangehörige_Gemeinde"},"district":{"key":"14521","name":"Erzgebirgskreis","type":"Landkreis"},"federalState":{"key":"14","name":"Sachsen"}},{"name":"Am Einsberg","postalCode":"08359","locality":"Breitenbrunn/Erzgebirge","municipality":{"key":"14521110","name":"Breitenbrunn/Erzgeb.","type":"Kreisangehörige_Gemeinde"},"district":{"key":"14521","name":"Erzgebirgskreis","type":"Landkreis"},"federalState":{"key":"14","name":"Sachsen"}},{"name":"Am Feldle","postalCode":"87739","locality":"Breitenbrunn","municipality":{"key":"09778121","name":"Breitenbrunn","type":"Kreisangehörige_Gemeinde"},"district":{"key":"09778","name":"Unterallgäu","type":"Landkreis"},"federalState":{"key":"09","name":"Bayern"}},{"name":"Am Graben","postalCode":"92363","locality":"Breitenbrunn","municipality":{"key":"09373115","name":"Breitenbrunn, M","type":"Markt"},"district":{"key":"09373","name":"Neumarkt i.d.OPf.","type":"Landkreis"},"federalState":{"key":"09","name":"Bayern"}},{"name":"Am Grenzhang","postalCode":"08359","locality":"Breitenbrunn/Erzgebirge","municipality":{"key":"14521110","name":"Breitenbrunn/Erzgeb.","type":"Kreisangehörige_Gemeinde"},"district":{"key":"14521","name":"Erzgebirgskreis","type":"Landkreis"},"federalState":{"key":"14","name":"Sachsen"}},{"name":"Am Güntherteich","postalCode":"08359","locality":"Breitenbrunn/Erzgebirge","municipality":{"key":"14521110","name":"Breitenbrunn/Erzgeb.","type":"Kreisangehörige_Gemeinde"},"district":{"key":"14521","name":"Erzgebirgskreis","type":"Landkreis"},"federalState":{"key":"14","name":"Sachsen"}},{"name":"Am Hang","postalCode":"08359","locality":"Breitenbrunn/Erzgebirge","municipality":{"key":"14521110","name":"Breitenbrunn/Erzgeb.","type":"Kreisangehörige_Gemeinde"},"district":{"key":"14521","name":"Erzgebirgskreis","type":"Landkreis"},"federalState":{"key":"14","name":"Sachsen"}},{"name":"Am Hutfeld","postalCode":"92363","locality":"Breitenbrunn","municipality":{"key":"09373115","name":"Breitenbrunn, M","type":"Markt"},"district":{"key":"09373","name":"Neumarkt i.d.OPf.","type":"Landkreis"},"federalState":{"key":"09","name":"Bayern"}},{"name":"Am Kammerstein","postalCode":"08359","locality":"Breitenbrunn/Erzgebirge","municipality":{"key":"14521110","name":"Breitenbrunn/Erzgeb.","type":"Kreisangehörige_Gemeinde"},"district":{"key":"14521","name":"Erzgebirgskreis","type":"Landkreis"},"federalState":{"key":"14","name":"Sachsen"}},{"name":"Am Märzenberg","postalCode":"08359","locality":"Breitenbrunn/Erzgebirge","municipality":{"key":"14521110","name":"Breitenbrunn/Erzgeb.","type":"Kreisangehörige_Gemeinde"},"district":{"key":"14521","name":"Erzgebirgskreis","type":"Landkreis"},"federalState":{"key":"14","name":"Sachsen"}},{"name":"Am Milchbach","postalCode":"08359","locality":"Breitenbrunn/Erzgebirge","municipality":{"key":"14521110","name":"Breitenbrunn/Erzgeb.","type":"Kreisangehörige_Gemeinde"},"district":{"key":"14521","name":"Erzgebirgskreis","type":"Landkreis"},"federalState":{"key":"14","name":"Sachsen"}},{"name":"Am Ösch","postalCode":"87739","locality":"Breitenbrunn","municipality":{"key":"09778121","name":"Breitenbrunn","type":"Kreisangehörige_Gemeinde"},"district":{"key":"09778","name":"Unterallgäu","type":"Landkreis"},"federalState":{"key":"09","name":"Bayern"}},{"name":"Am Pulverturm","postalCode":"08359","locality":"Breitenbrunn/Erzgebirge","municipality":{"key":"14521110","name":"Breitenbrunn/Erzgeb.","type":"Kreisangehörige_Gemeinde"},"district":{"key":"14521","name":"Erzgebirgskreis","type":"Landkreis"},"federalState":{"key":"14","name":"Sachsen"}},{"name":"Am Schloßweiher","postalCode":"87739","locality":"Breitenbrunn","municipality":{"key":"09778121","name":"Breitenbrunn","type":"Kreisangehörige_Gemeinde"},"district":{"key":"09778","name":"Unterallgäu","type":"Landkreis"},"federalState":{"key":"09","name":"Bayern"}},{"name":"Am Sonnenbühl","postalCode":"87739","locality":"Breitenbrunn","municipality":{"key":"09778121","name":"Breitenbrunn","type":"Kreisangehörige_Gemeinde"},"district":{"key":"09778","name":"Unterallgäu","type":"Landkreis"},"federalState":{"key":"09","name":"Bayern"}},{"name":"Am Sportplatz","postalCode":"87739","locality":"Breitenbrunn","municipality":{"key":"09778121","name":"Breitenbrunn","type":"Kreisangehörige_Gemeinde"},"district":{"key":"09778","name":"Unterallgäu","type":"Landkreis"},"federalState":{"key":"09","name":"Bayern"}},{"name":"Am Waldblick","postalCode":"08359","locality":"Breitenbrunn/Erzgebirge","municipality":{"key":"14521110","name":"Breitenbrunn/Erzgeb.","type":"Kreisangehörige_Gemeinde"},"district":{"key":"14521","name":"Erzgebirgskreis","type":"Landkreis"},"federalState":{"key":"14","name":"Sachsen"}},{"name":"Am Waldeck","postalCode":"08359","locality":"Breitenbrunn/Erzgebirge","municipality":{"key":"14521110","name":"Breitenbrunn/Erzgeb.","type":"Kreisangehörige_Gemeinde"},"district":{"key":"14521","name":"Erzgebirgskreis","type":"Landkreis"},"federalState":{"key":"14","name":"Sachsen"}},{"name":"Am Weißwald","postalCode":"08359","locality":"Breitenbrunn/Erzgebirge","municipality":{"key":"14521110","name":"Breitenbrunn/Erzgeb.","type":"Kreisangehörige_Gemeinde"},"district":{"key":"14521","name":"Erzgebirgskreis","type":"Landkreis"},"federalState":{"key":"14","name":"Sachsen"}},{"name":"Am Wiesengrund","postalCode":"87739","locality":"Breitenbrunn","municipality":{"key":"09778121","name":"Breitenbrunn","type":"Kreisangehörige_Gemeinde"},"district":{"key":"09778","name":"Unterallgäu","type":"Landkreis"},"federalState":{"key":"09","name":"Bayern"}},{"name":"An der Linde","postalCode":"87739","locality":"Breitenbrunn","municipality":{"key":"09778121","name":"Breitenbrunn","type":"Kreisangehörige_Gemeinde"},"district":{"key":"09778","name":"Unterallgäu","type":"Landkreis"},"federalState":{"key":"09","name":"Bayern"}},{"name":"Angerweg","postalCode":"87739","locality":"Breitenbrunn","municipality":{"key":"09778121","name":"Breitenbrunn","type":"Kreisangehörige_Gemeinde"},"district":{"key":"09778","name":"Unterallgäu","type":"Landkreis"},"federalState":{"key":"09","name":"Bayern"}},{"name":"Anton-Günther-Str.","postalCode":"08359","locality":"Breitenbrunn/Erzgebirge","municipality":{"key":"14521110","name":"Breitenbrunn/Erzgeb.","type":"Kreisangehörige_Gemeinde"},"district":{"key":"14521","name":"Erzgebirgskreis","type":"Landkreis"},"federalState":{"key":"14","name":"Sachsen"}},{"name":"Antonsthaler Str.","postalCode":"08359","locality":"Breitenbrunn/Erzgebirge","municipality":{"key":"14521110","name":"Breitenbrunn/Erzgeb.","type":"Kreisangehörige_Gemeinde"},"district":{"key":"14521","name":"Erzgebirgskreis","type":"Landkreis"},"federalState":{"key":"14","name":"Sachsen"}},{"name":"Arnoldshammer","postalCode":"08359","locality":"Breitenbrunn/Erzgebirge","municipality":{"key":"14521110","name":"Breitenbrunn/Erzgeb.","type":"Kreisangehörige_Gemeinde"},"district":{"key":"14521","name":"Erzgebirgskreis","type":"Landkreis"},"federalState":{"key":"14","name":"Sachsen"}},{"name":"Arnoldshammerring","postalCode":"08359","locality":"Breitenbrunn/Erzgebirge","municipality":{"key":"14521110","name":"Breitenbrunn/Erzgeb.","type":"Kreisangehörige_Gemeinde"},"district":{"key":"14521","name":"Erzgebirgskreis","type":"Landkreis"},"federalState":{"key":"14","name":"Sachsen"}},{"name":"Auf der Hadern","postalCode":"92363","locality":"Breitenbrunn","municipality":{"key":"09373115","name":"Breitenbrunn, M","type":"Markt"},"district":{"key":"09373","name":"Neumarkt i.d.OPf.","type":"Landkreis"},"federalState":{"key":"09","name":"Bayern"}},{"name":"Bachstr.","postalCode":"87739","locality":"Breitenbrunn","municipality":{"key":"09778121","name":"Breitenbrunn","type":"Kreisangehörige_Gemeinde"},"district":{"key":"09778","name":"Unterallgäu","type":"Landkreis"},"federalState":{"key":"09","name":"Bayern"}},{"name":"Bäckergasse","postalCode":"87739","locality":"Breitenbrunn","municipality":{"key":"09778121","name":"Breitenbrunn","type":"Kreisangehörige_Gemeinde"},"district":{"key":"09778","name":"Unterallgäu","type":"Landkreis"},"federalState":{"key":"09","name":"Bayern"}},{"name":"Badergaßl","postalCode":"92363","locality":"Breitenbrunn","municipality":{"key":"09373115","name":"Breitenbrunn, M","type":"Markt"},"district":{"key":"09373","name":"Neumarkt i.d.OPf.","type":"Landkreis"},"federalState":{"key":"09","name":"Bayern"}},{"name":"Badstr.","postalCode":"92363","locality":"Breitenbrunn","municipality":{"key":"09373115","name":"Breitenbrunn, M","type":"Markt"},"district":{"key":"09373","name":"Neumarkt i.d.OPf.","type":"Landkreis"},"federalState":{"key":"09","name":"Bayern"}},{"name":"Badweg","postalCode":"08359","locality":"Breitenbrunn/Erzgebirge","municipality":{"key":"14521110","name":"Breitenbrunn/Erzgeb.","type":"Kreisangehörige_Gemeinde"},"district":{"key":"14521","name":"Erzgebirgskreis","type":"Landkreis"},"federalState":{"key":"14","name":"Sachsen"}},{"name":"Bahnhofstr.","postalCode":"87739","locality":"Breitenbrunn","municipality":{"key":"09778121","name":"Breitenbrunn","type":"Kreisangehörige_Gemeinde"},"district":{"key":"09778","name":"Unterallgäu","type":"Landkreis"},"federalState":{"key":"09","name":"Bayern"}},{"name":"Bahnsteig","postalCode":"92363","locality":"Breitenbrunn","municipality":{"key":"09373115","name":"Breitenbrunn, M","type":"Markt"},"district":{"key":"09373","name":"Neumarkt i.d.OPf.","type":"Landkreis"},"federalState":{"key":"09","name":"Bayern"}},{"name":"Bahnstr.","postalCode":"87739","locality":"Breitenbrunn","municipality":{"key":"09778121","name":"Breitenbrunn","type":"Kreisangehörige_Gemeinde"},"district":{"key":"09778","name":"Unterallgäu","type":"Landkreis"},"federalState":{"key":"09","name":"Bayern"}},{"name":"Bauernweg","postalCode":"08359","locality":"Breitenbrunn/Erzgebirge","municipality":{"key":"14521110","name":"Breitenbrunn/Erzgeb.","type":"Kreisangehörige_Gemeinde"},"district":{"key":"14521","name":"Erzgebirgskreis","type":"Landkreis"},"federalState":{"key":"14","name":"Sachsen"}},{"name":"Baumgärtle","postalCode":"87739","locality":"Breitenbrunn","municipality":{"key":"09778121","name":"Breitenbrunn","type":"Kreisangehörige_Gemeinde"},"district":{"key":"09778","name":"Unterallgäu","type":"Landkreis"},"federalState":{"key":"09","name":"Bayern"}},{"name":"Bayernring","postalCode":"92363","locality":"Breitenbrunn","municipality":{"key":"09373115","name":"Breitenbrunn, M","type":"Markt"},"district":{"key":"09373","name":"Neumarkt i.d.OPf.","type":"Landkreis"},"federalState":{"key":"09","name":"Bayern"}},{"name":"Berghöfer Str.","postalCode":"87739","locality":"Breitenbrunn","municipality":{"key":"09778121","name":"Breitenbrunn","type":"Kreisangehörige_Gemeinde"},"district":{"key":"09778","name":"Unterallgäu","type":"Landkreis"},"federalState":{"key":"09","name":"Bayern"}},{"name":"Bergsteig","postalCode":"08359","locality":"Breitenbrunn/Erzgebirge","municipality":{"key":"14521110","name":"Breitenbrunn/Erzgeb.","type":"Kreisangehörige_Gemeinde"},"district":{"key":"14521","name":"Erzgebirgskreis","type":"Landkreis"},"federalState":{"key":"14","name":"Sachsen"}},{"name":"Bergstr.","postalCode":"08359","locality":"Breitenbrunn/Erzgebirge","municipality":{"key":"14521110","name":"Breitenbrunn/Erzgeb.","type":"Kreisangehörige_Gemeinde"},"district":{"key":"14521","name":"Erzgebirgskreis","type":"Landkreis"},"federalState":{"key":"14","name":"Sachsen"}},{"name":"Bergstr.","postalCode":"92363","locality":"Breitenbrunn","municipality":{"key":"09373115","name":"Breitenbrunn, M","type":"Markt"},"district":{"key":"09373","name":"Neumarkt i.d.OPf.","type":"Landkreis"},"federalState":{"key":"09","name":"Bayern"}},{"name":"Beyreutherweg","postalCode":"08359","locality":"Breitenbrunn/Erzgebirge","municipality":{"key":"14521110","name":"Breitenbrunn/Erzgeb.","type":"Kreisangehörige_Gemeinde"},"district":{"key":"14521","name":"Erzgebirgskreis","type":"Landkreis"},"federalState":{"key":"14","name":"Sachsen"}},{"name":"Birkenweg","postalCode":"87739","locality":"Breitenbrunn","municipality":{"key":"09778121","name":"Breitenbrunn","type":"Kreisangehörige_Gemeinde"},"district":{"key":"09778","name":"Unterallgäu","type":"Landkreis"},"federalState":{"key":"09","name":"Bayern"}},{"name":"Birkenweg","postalCode":"92363","locality":"Breitenbrunn","municipality":{"key":"09373115","name":"Breitenbrunn, M","type":"Markt"},"district":{"key":"09373","name":"Neumarkt i.d.OPf.","type":"Landkreis"},"federalState":{"key":"09","name":"Bayern"}},{"name":"Boschhornweg","postalCode":"87739","locality":"Breitenbrunn","municipality":{"key":"09778121","name":"Breitenbrunn","type":"Kreisangehörige_Gemeinde"},"district":{"key":"09778","name":"Unterallgäu","type":"Landkreis"},"federalState":{"key":"09","name":"Bayern"}},{"name":"Brandbergweg","postalCode":"08359","locality":"Breitenbrunn/Erzgebirge","municipality":{"key":"14521110","name":"Breitenbrunn/Erzgeb.","type":"Kreisangehörige_Gemeinde"},"district":{"key":"14521","name":"Erzgebirgskreis","type":"Landkreis"},"federalState":{"key":"14","name":"Sachsen"}},{"name":"Breitenbrunner Str.","postalCode":"08359","locality":"Breitenbrunn/Erzgebirge","municipality":{"key":"14521110","name":"Breitenbrunn/Erzgeb.","type":"Kreisangehörige_Gemeinde"},"district":{"key":"14521","name":"Erzgebirgskreis","type":"Landkreis"},"federalState":{"key":"14","name":"Sachsen"}},{"name":"Breitenbrunner Str.","postalCode":"92363","locality":"Breitenbrunn","municipality":{"key":"09373115","name":"Breitenbrunn, M","type":"Markt"},"district":{"key":"09373","name":"Neumarkt i.d.OPf.","type":"Landkreis"},"federalState":{"key":"09","name":"Bayern"}},{"name":"Breitenbrunner Weg","postalCode":"92363","locality":"Breitenbrunn","municipality":{"key":"09373115","name":"Breitenbrunn, M","type":"Markt"},"district":{"key":"09373","name":"Neumarkt i.d.OPf.","type":"Landkreis"},"federalState":{"key":"09","name":"Bayern"}},{"name":"Breitenegger Weg","postalCode":"92363","locality":"Breitenbrunn","municipality":{"key":"09373115","name":"Breitenbrunn, M","type":"Markt"},"district":{"key":"09373","name":"Neumarkt i.d.OPf.","type":"Landkreis"},"federalState":{"key":"09","name":"Bayern"}},{"name":"Bretagneplatz","postalCode":"87739","locality":"Breitenbrunn","municipality":{"key":"09778121","name":"Breitenbrunn","type":"Kreisangehörige_Gemeinde"},"district":{"key":"09778","name":"Unterallgäu","type":"Landkreis"},"federalState":{"key":"09","name":"Bayern"}},{"name":"Brunnengasse","postalCode":"87739","locality":"Breitenbrunn","municipality":{"key":"09778121","name":"Breitenbrunn","type":"Kreisangehörige_Gemeinde"},"district":{"key":"09778","name":"Unterallgäu","type":"Landkreis"},"federalState":{"key":"09","name":"Bayern"}},{"name":"Brunnerweg","postalCode":"92363","locality":"Breitenbrunn","municipality":{"key":"09373115","name":"Breitenbrunn, M","type":"Markt"},"district":{"key":"09373","name":"Neumarkt i.d.OPf.","type":"Landkreis"},"federalState":{"key":"09","name":"Bayern"}},{"name":"Buchenwaldweg","postalCode":"08359","locality":"Breitenbrunn/Erzgebirge","municipality":{"key":"14521110","name":"Breitenbrunn/Erzgeb.","type":"Kreisangehörige_Gemeinde"},"district":{"key":"14521","name":"Erzgebirgskreis","type":"Landkreis"},"federalState":{"key":"14","name":"Sachsen"}},{"name":"Buchenweg","postalCode":"92363","locality":"Breitenbrunn","municipality":{"key":"09373115","name":"Breitenbrunn, M","type":"Markt"},"district":{"key":"09373","name":"Neumarkt i.d.OPf.","type":"Landkreis"},"federalState":{"key":"09","name":"Bayern"}},{"name":"Bürgermeister-Egger-Str.","postalCode":"87739","locality":"Breitenbrunn","municipality":{"key":"09778121","name":"Breitenbrunn","type":"Kreisangehörige_Gemeinde"},"district":{"key":"09778","name":"Unterallgäu","type":"Landkreis"},"federalState":{"key":"09","name":"Bayern"}},{"name":"Burkertsleithenweg","postalCode":"08359","locality":"Breitenbrunn/Erzgebirge","municipality":{"key":"14521110","name":"Breitenbrunn/Erzgeb.","type":"Kreisangehörige_Gemeinde"},"district":{"key":"14521","name":"Erzgebirgskreis","type":"Landkreis"},"federalState":{"key":"14","name":"Sachsen"}},{"name":"Carolathal","postalCode":"08359","locality":"Breitenbrunn/Erzgebirge","municipality":{"key":"14521110","name":"Breitenbrunn/Erzgeb.","type":"Kreisangehörige_Gemeinde"},"district":{"key":"14521","name":"Erzgebirgskreis","type":"Landkreis"},"federalState":{"key":"14","name":"Sachsen"}},{"name":"Crandorfer Str.","postalCode":"08359","locality":"Breitenbrunn/Erzgebirge","municipality":{"key":"14521110","name":"Breitenbrunn/Erzgeb.","type":"Kreisangehörige_Gemeinde"},"district":{"key":"14521","name":"Erzgebirgskreis","type":"Landkreis"},"federalState":{"key":"14","name":"Sachsen"}},{"name":"Der erste Hauptflügel","postalCode":"08359","locality":"Breitenbrunn/Erzgebirge","municipality":{"key":"14521110","name":"Breitenbrunn/Erzgeb.","type":"Kreisangehörige_Gemeinde"},"district":{"key":"14521","name":"Erzgebirgskreis","type":"Landkreis"},"federalState":{"key":"14","name":"Sachsen"}},{"name":"Dietfurter Str.","postalCode":"92363","locality":"Breitenbrunn","municipality":{"key":"09373115","name":"Breitenbrunn, M","type":"Markt"},"district":{"key":"09373","name":"Neumarkt i.d.OPf.","type":"Landkreis"},"federalState":{"key":"09","name":"Bayern"}},{"name":"Dietfurter Weg","postalCode":"92363","locality":"Breitenbrunn","municipality":{"key":"09373115","name":"Breitenbrunn, M","type":"Markt"},"district":{"key":"09373","name":"Neumarkt i.d.OPf.","type":"Landkreis"},"federalState":{"key":"09","name":"Bayern"}},{"name":"Dorfberg","postalCode":"08359","locality":"Breitenbrunn/Erzgebirge","municipality":{"key":"14521110","name":"Breitenbrunn/Erzgeb.","type":"Kreisangehörige_Gemeinde"},"district":{"key":"14521","name":"Erzgebirgskreis","type":"Landkreis"},"federalState":{"key":"14","name":"Sachsen"}},{"name":"Dorfstr.","postalCode":"87739","locality":"Breitenbrunn","municipality":{"key":"09778121","name":"Breitenbrunn","type":"Kreisangehörige_Gemeinde"},"district":{"key":"09778","name":"Unterallgäu","type":"Landkreis"},"federalState":{"key":"09","name":"Bayern"}},{"name":"Dorfstr.","postalCode":"92363","locality":"Breitenbrunn","municipality":{"key":"09373115","name":"Breitenbrunn, M","type":"Markt"},"district":{"key":"09373","name":"Neumarkt i.d.OPf.","type":"Landkreis"},"federalState":{"key":"09","name":"Bayern"}},{"name":"Dreifaltigkeitsweg","postalCode":"87739","locality":"Breitenbrunn","municipality":{"key":"09778121","name":"Breitenbrunn","type":"Kreisangehörige_Gemeinde"},"district":{"key":"09778","name":"Unterallgäu","type":"Landkreis"},"federalState":{"key":"09","name":"Bayern"}},{"name":"Dürner Str.","postalCode":"92363","locality":"Breitenbrunn","municipality":{"key":"09373115","name":"Breitenbrunn, M","type":"Markt"},"district":{"key":"09373","name":"Neumarkt i.d.OPf.","type":"Landkreis"},"federalState":{"key":"09","name":"Bayern"}},{"name":"Eggertshofen","postalCode":"92363","locality":"Breitenbrunn","municipality":{"key":"09373115","name":"Breitenbrunn, M","type":"Markt"},"district":{"key":"09373","name":"Neumarkt i.d.OPf.","type":"Landkreis"},"federalState":{"key":"09","name":"Bayern"}},{"name":"Ehgärtlstr.","postalCode":"92363","locality":"Breitenbrunn","municipality":{"key":"09373115","name":"Breitenbrunn, M","type":"Markt"},"district":{"key":"09373","name":"Neumarkt i.d.OPf.","type":"Landkreis"},"federalState":{"key":"09","name":"Bayern"}},{"name":"Eibenweg","postalCode":"92363","locality":"Breitenbrunn","municipality":{"key":"09373115","name":"Breitenbrunn, M","type":"Markt"},"district":{"key":"09373","name":"Neumarkt i.d.OPf.","type":"Landkreis"},"federalState":{"key":"09","name":"Bayern"}},{"name":"Eichenweg","postalCode":"92363","locality":"Breitenbrunn","municipality":{"key":"09373115","name":"Breitenbrunn, M","type":"Markt"},"district":{"key":"09373","name":"Neumarkt i.d.OPf.","type":"Landkreis"},"federalState":{"key":"09","name":"Bayern"}},{"name":"Eismannsdorf","postalCode":"92363","locality":"Breitenbrunn","municipality":{"key":"09373115","name":"Breitenbrunn, M","type":"Markt"},"district":{"key":"09373","name":"Neumarkt i.d.OPf.","type":"Landkreis"},"federalState":{"key":"09","name":"Bayern"}},{"name":"Erlabrunner Weg","postalCode":"08359","locality":"Breitenbrunn/Erzgebirge","municipality":{"key":"14521110","name":"Breitenbrunn/Erzgeb.","type":"Kreisangehörige_Gemeinde"},"district":{"key":"14521","name":"Erzgebirgskreis","type":"Landkreis"},"federalState":{"key":"14","name":"Sachsen"}},{"name":"Erlaer Str.","postalCode":"08359","locality":"Breitenbrunn/Erzgebirge","municipality":{"key":"14521110","name":"Breitenbrunn/Erzgeb.","type":"Kreisangehörige_Gemeinde"},"district":{"key":"14521","name":"Erzgebirgskreis","type":"Landkreis"},"federalState":{"key":"14","name":"Sachsen"}},{"name":"Erster Hauptflügel","postalCode":"08359","locality":"Breitenbrunn/Erzgebirge","municipality":{"key":"14521110","name":"Breitenbrunn/Erzgeb.","type":"Kreisangehörige_Gemeinde"},"district":{"key":"14521","name":"Erzgebirgskreis","type":"Landkreis"},"federalState":{"key":"14","name":"Sachsen"}},{"name":"Erster Mittelflügel","postalCode":"08359","locality":"Breitenbrunn/Erzgebirge","municipality":{"key":"14521110","name":"Breitenbrunn/Erzgeb.","type":"Kreisangehörige_Gemeinde"},"district":{"key":"14521","name":"Erzgebirgskreis","type":"Landkreis"},"federalState":{"key":"14","name":"Sachsen"}},{"name":"Erzstr.","postalCode":"08359","locality":"Breitenbrunn/Erzgebirge","municipality":{"key":"14521110","name":"Breitenbrunn/Erzgeb.","type":"Kreisangehörige_Gemeinde"},"district":{"key":"14521","name":"Erzgebirgskreis","type":"Landkreis"},"federalState":{"key":"14","name":"Sachsen"}},{"name":"Eselsberger Flügel","postalCode":"08359","locality":"Breitenbrunn/Erzgebirge","municipality":{"key":"14521110","name":"Breitenbrunn/Erzgeb.","type":"Kreisangehörige_Gemeinde"},"district":{"key":"14521","name":"Erzgebirgskreis","type":"Landkreis"},"federalState":{"key":"14","name":"Sachsen"}},{"name":"Fällbachweg","postalCode":"08359","locality":"Breitenbrunn/Erzgebirge","municipality":{"key":"14521110","name":"Breitenbrunn/Erzgeb.","type":"Kreisangehörige_Gemeinde"},"district":{"key":"14521","name":"Erzgebirgskreis","type":"Landkreis"},"federalState":{"key":"14","name":"Sachsen"}},{"name":"Feldweg","postalCode":"08359","locality":"Breitenbrunn/Erzgebirge","municipality":{"key":"14521110","name":"Breitenbrunn/Erzgeb.","type":"Kreisangehörige_Gemeinde"},"district":{"key":"14521","name":"Erzgebirgskreis","type":"Landkreis"},"federalState":{"key":"14","name":"Sachsen"}},{"name":"Fichtenstr.","postalCode":"92363","locality":"Breitenbrunn","municipality":{"key":"09373115","name":"Breitenbrunn, M","type":"Markt"},"district":{"key":"09373","name":"Neumarkt i.d.OPf.","type":"Landkreis"},"federalState":{"key":"09","name":"Bayern"}},{"name":"Fichtenweg","postalCode":"87739","locality":"Breitenbrunn","municipality":{"key":"09778121","name":"Breitenbrunn","type":"Kreisangehörige_Gemeinde"},"district":{"key":"09778","name":"Unterallgäu","type":"Landkreis"},"federalState":{"key":"09","name":"Bayern"}},{"name":"Flößbahn","postalCode":"08359","locality":"Breitenbrunn/Erzgebirge","municipality":{"key":"14521110","name":"Breitenbrunn/Erzgeb.","type":"Kreisangehörige_Gemeinde"},"district":{"key":"14521","name":"Erzgebirgskreis","type":"Landkreis"},"federalState":{"key":"14","name":"Sachsen"}},{"name":"Flößholzweg","postalCode":"08359","locality":"Breitenbrunn/Erzgebirge","municipality":{"key":"14521110","name":"Breitenbrunn/Erzgeb.","type":"Kreisangehörige_Gemeinde"},"district":{"key":"14521","name":"Erzgebirgskreis","type":"Landkreis"},"federalState":{"key":"14","name":"Sachsen"}},{"name":"Flügel C","postalCode":"08359","locality":"Breitenbrunn/Erzgebirge","municipality":{"key":"14521110","name":"Breitenbrunn/Erzgeb.","type":"Kreisangehörige_Gemeinde"},"district":{"key":"14521","name":"Erzgebirgskreis","type":"Landkreis"},"federalState":{"key":"14","name":"Sachsen"}},{"name":"Föhrenhalde","postalCode":"87739","locality":"Breitenbrunn","municipality":{"key":"09778121","name":"Breitenbrunn","type":"Kreisangehörige_Gemeinde"},"district":{"key":"09778","name":"Unterallgäu","type":"Landkreis"},"federalState":{"key":"09","name":"Bayern"}},{"name":"Frankenring","postalCode":"92363","locality":"Breitenbrunn","municipality":{"key":"09373115","name":"Breitenbrunn, M","type":"Markt"},"district":{"key":"09373","name":"Neumarkt i.d.OPf.","type":"Landkreis"},"federalState":{"key":"09","name":"Bayern"}},{"name":"Franz-Dziebko-Str.","postalCode":"08359","locality":"Breitenbrunn/Erzgebirge","municipality":{"key":"14521110","name":"Breitenbrunn/Erzgeb.","type":"Kreisangehörige_Gemeinde"},"district":{"key":"14521","name":"Erzgebirgskreis","type":"Landkreis"},"federalState":{"key":"14","name":"Sachsen"}},{"name":"Freankensteuerweg","postalCode":"08359","locality":"Breitenbrunn/Erzgebirge","municipality":{"key":"14521110","name":"Breitenbrunn/Erzgeb.","type":"Kreisangehörige_Gemeinde"},"district":{"key":"14521","name":"Erzgebirgskreis","type":"Landkreis"},"federalState":{"key":"14","name":"Sachsen"}},{"name":"Friedhofstr.","postalCode":"87739","locality":"Breitenbrunn","municipality":{"key":"09778121","name":"Breitenbrunn","type":"Kreisangehörige_Gemeinde"},"district":{"key":"09778","name":"Unterallgäu","type":"Landkreis"},"federalState":{"key":"09","name":"Bayern"}},{"name":"Fritzschberg","postalCode":"08359","locality":"Breitenbrunn/Erzgebirge","municipality":{"key":"14521110","name":"Breitenbrunn/Erzgeb.","type":"Kreisangehörige_Gemeinde"},"district":{"key":"14521","name":"Erzgebirgskreis","type":"Landkreis"},"federalState":{"key":"14","name":"Sachsen"}},{"name":"Frühlingstr.","postalCode":"87739","locality":"Breitenbrunn","municipality":{"key":"09778121","name":"Breitenbrunn","type":"Kreisangehörige_Gemeinde"},"district":{"key":"09778","name":"Unterallgäu","type":"Landkreis"},"federalState":{"key":"09","name":"Bayern"}},{"name":"Fürbuch","postalCode":"87739","locality":"Breitenbrunn","municipality":{"key":"09778121","name":"Breitenbrunn","type":"Kreisangehörige_Gemeinde"},"district":{"key":"09778","name":"Unterallgäu","type":"Landkreis"},"federalState":{"key":"09","name":"Bayern"}},{"name":"Fürbucher Fußweg","postalCode":"87739","locality":"Breitenbrunn","municipality":{"key":"09778121","name":"Breitenbrunn","type":"Kreisangehörige_Gemeinde"},"district":{"key":"09778","name":"Unterallgäu","type":"Landkreis"},"federalState":{"key":"09","name":"Bayern"}},{"name":"Galgenflügel","postalCode":"08359","locality":"Breitenbrunn/Erzgebirge","municipality":{"key":"14521110","name":"Breitenbrunn/Erzgeb.","type":"Kreisangehörige_Gemeinde"},"district":{"key":"14521","name":"Erzgebirgskreis","type":"Landkreis"},"federalState":{"key":"14","name":"Sachsen"}},{"name":"Gartenstr.","postalCode":"87739","locality":"Breitenbrunn","municipality":{"key":"09778121","name":"Breitenbrunn","type":"Kreisangehörige_Gemeinde"},"district":{"key":"09778","name":"Unterallgäu","type":"Landkreis"},"federalState":{"key":"09","name":"Bayern"}},{"name":"Gartenstr.","postalCode":"92363","locality":"Breitenbrunn","municipality":{"key":"09373115","name":"Breitenbrunn, M","type":"Markt"},"district":{"key":"09373","name":"Neumarkt i.d.OPf.","type":"Landkreis"},"federalState":{"key":"09","name":"Bayern"}},{"name":"Gartenweg","postalCode":"08359","locality":"Breitenbrunn/Erzgebirge","municipality":{"key":"14521110","name":"Breitenbrunn/Erzgeb.","type":"Kreisangehörige_Gemeinde"},"district":{"key":"14521","name":"Erzgebirgskreis","type":"Landkreis"},"federalState":{"key":"14","name":"Sachsen"}},{"name":"Gässele","postalCode":"87739","locality":"Breitenbrunn","municipality":{"key":"09778121","name":"Breitenbrunn","type":"Kreisangehörige_Gemeinde"},"district":{"key":"09778","name":"Unterallgäu","type":"Landkreis"},"federalState":{"key":"09","name":"Bayern"}},{"name":"Gaßl","postalCode":"92363","locality":"Breitenbrunn","municipality":{"key":"09373115","name":"Breitenbrunn, M","type":"Markt"},"district":{"key":"09373","name":"Neumarkt i.d.OPf.","type":"Landkreis"},"federalState":{"key":"09","name":"Bayern"}},{"name":"Geishofweg","postalCode":"92363","locality":"Breitenbrunn","municipality":{"key":"09373115","name":"Breitenbrunn, M","type":"Markt"},"district":{"key":"09373","name":"Neumarkt i.d.OPf.","type":"Landkreis"},"federalState":{"key":"09","name":"Bayern"}},{"name":"Georgenthal","postalCode":"08359","locality":"Breitenbrunn/Erzgebirge","municipality":{"key":"14521110","name":"Breitenbrunn/Erzgeb.","type":"Kreisangehörige_Gemeinde"},"district":{"key":"14521","name":"Erzgebirgskreis","type":"Landkreis"},"federalState":{"key":"14","name":"Sachsen"}},{"name":"Graupnerweg","postalCode":"08359","locality":"Breitenbrunn/Erzgebirge","municipality":{"key":"14521110","name":"Breitenbrunn/Erzgeb.","type":"Kreisangehörige_Gemeinde"},"district":{"key":"14521","name":"Erzgebirgskreis","type":"Landkreis"},"federalState":{"key":"14","name":"Sachsen"}},{"name":"Grenzgrund","postalCode":"08359","locality":"Breitenbrunn/Erzgebirge","municipality":{"key":"14521110","name":"Breitenbrunn/Erzgeb.","type":"Kreisangehörige_Gemeinde"},"district":{"key":"14521","name":"Erzgebirgskreis","type":"Landkreis"},"federalState":{"key":"14","name":"Sachsen"}},{"name":"Grenzweg","postalCode":"08359","locality":"Breitenbrunn/Erzgebirge","municipality":{"key":"14521110","name":"Breitenbrunn/Erzgeb.","type":"Kreisangehörige_Gemeinde"},"district":{"key":"14521","name":"Erzgebirgskreis","type":"Landkreis"},"federalState":{"key":"14","name":"Sachsen"}},{"name":"Grüner Winkel","postalCode":"08359","locality":"Breitenbrunn/Erzgebirge","municipality":{"key":"14521110","name":"Breitenbrunn/Erzgeb.","type":"Kreisangehörige_Gemeinde"},"district":{"key":"14521","name":"Erzgebirgskreis","type":"Landkreis"},"federalState":{"key":"14","name":"Sachsen"}},{"name":"Grüntenweg","postalCode":"87739","locality":"Breitenbrunn","municipality":{"key":"09778121","name":"Breitenbrunn","type":"Kreisangehörige_Gemeinde"},"district":{"key":"09778","name":"Unterallgäu","type":"Landkreis"},"federalState":{"key":"09","name":"Bayern"}},{"name":"Gumpenbergweg","postalCode":"92363","locality":"Breitenbrunn","municipality":{"key":"09373115","name":"Breitenbrunn, M","type":"Markt"},"district":{"key":"09373","name":"Neumarkt i.d.OPf.","type":"Landkreis"},"federalState":{"key":"09","name":"Bayern"}},{"name":"Haarbergweg","postalCode":"92363","locality":"Breitenbrunn","municipality":{"key":"09373115","name":"Breitenbrunn, M","type":"Markt"},"district":{"key":"09373","name":"Neumarkt i.d.OPf.","type":"Landkreis"},"federalState":{"key":"09","name":"Bayern"}},{"name":"Hafnerweg","postalCode":"92363","locality":"Breitenbrunn","municipality":{"key":"09373115","name":"Breitenbrunn, M","type":"Markt"},"district":{"key":"09373","name":"Neumarkt i.d.OPf.","type":"Landkreis"},"federalState":{"key":"09","name":"Bayern"}},{"name":"Hahnweg","postalCode":"08359","locality":"Breitenbrunn/Erzgebirge","municipality":{"key":"14521110","name":"Breitenbrunn/Erzgeb.","type":"Kreisangehörige_Gemeinde"},"district":{"key":"14521","name":"Erzgebirgskreis","type":"Landkreis"},"federalState":{"key":"14","name":"Sachsen"}},{"name":"Halbemeile","postalCode":"08359","locality":"Breitenbrunn/Erzgebirge","municipality":{"key":"14521110","name":"Breitenbrunn/Erzgeb.","type":"Kreisangehörige_Gemeinde"},"district":{"key":"14521","name":"Erzgebirgskreis","type":"Landkreis"},"federalState":{"key":"14","name":"Sachsen"}},{"name":"Halbemeiler Str.","postalCode":"08359","locality":"Breitenbrunn/Erzgebirge","municipality":{"key":"14521110","name":"Breitenbrunn/Erzgeb.","type":"Kreisangehörige_Gemeinde"},"district":{"key":"14521","name":"Erzgebirgskreis","type":"Landkreis"},"federalState":{"key":"14","name":"Sachsen"}},{"name":"Halbemeiler Weg","postalCode":"08359","locality":"Breitenbrunn/Erzgebirge","municipality":{"key":"14521110","name":"Breitenbrunn/Erzgeb.","type":"Kreisangehörige_Gemeinde"},"district":{"key":"14521","name":"Erzgebirgskreis","type":"Landkreis"},"federalState":{"key":"14","name":"Sachsen"}},{"name":"Halbverlorenweg","postalCode":"08359","locality":"Breitenbrunn/Erzgebirge","municipality":{"key":"14521110","name":"Breitenbrunn/Erzgeb.","type":"Kreisangehörige_Gemeinde"},"district":{"key":"14521","name":"Erzgebirgskreis","type":"Landkreis"},"federalState":{"key":"14","name":"Sachsen"}},{"name":"Hammerbergstr.","postalCode":"08359","locality":"Breitenbrunn/Erzgebirge","municipality":{"key":"14521110","name":"Breitenbrunn/Erzgeb.","type":"Kreisangehörige_Gemeinde"},"district":{"key":"14521","name":"Erzgebirgskreis","type":"Landkreis"},"federalState":{"key":"14","name":"Sachsen"}},{"name":"Hammerleithe","postalCode":"08359","locality":"Breitenbrunn/Erzgebirge","municipality":{"key":"14521110","name":"Breitenbrunn/Erzgeb.","type":"Kreisangehörige_Gemeinde"},"district":{"key":"14521","name":"Erzgebirgskreis","type":"Landkreis"},"federalState":{"key":"14","name":"Sachsen"}},{"name":"Hangweg","postalCode":"08359","locality":"Breitenbrunn/Erzgebirge","municipality":{"key":"14521110","name":"Breitenbrunn/Erzgeb.","type":"Kreisangehörige_Gemeinde"},"district":{"key":"14521","name":"Erzgebirgskreis","type":"Landkreis"},"federalState":{"key":"14","name":"Sachsen"}},{"name":"Hansenmühle","postalCode":"08359","locality":"Breitenbrunn/Erzgebirge","municipality":{"key":"14521110","name":"Breitenbrunn/Erzgeb.","type":"Kreisangehörige_Gemeinde"},"district":{"key":"14521","name":"Erzgebirgskreis","type":"Landkreis"},"federalState":{"key":"14","name":"Sachsen"}},{"name":"Hans-Vieweger-Str.","postalCode":"08359","locality":"Breitenbrunn/Erzgebirge","municipality":{"key":"14521110","name":"Breitenbrunn/Erzgeb.","type":"Kreisangehörige_Gemeinde"},"district":{"key":"14521","name":"Erzgebirgskreis","type":"Landkreis"},"federalState":{"key":"14","name":"Sachsen"}},{"name":"Hasberger Str.","postalCode":"87739","locality":"Breitenbrunn","municipality":{"key":"09778121","name":"Breitenbrunn","type":"Kreisangehörige_Gemeinde"},"district":{"key":"09778","name":"Unterallgäu","type":"Landkreis"},"federalState":{"key":"09","name":"Bayern"}},{"name":"Hauptstr.","postalCode":"08359","locality":"Breitenbrunn/Erzgebirge","municipality":{"key":"14521110","name":"Breitenbrunn/Erzgeb.","type":"Kreisangehörige_Gemeinde"},"district":{"key":"14521","name":"Erzgebirgskreis","type":"Landkreis"},"federalState":{"key":"14","name":"Sachsen"}},{"name":"Hauptstr.","postalCode":"87739","locality":"Breitenbrunn","municipality":{"key":"09778121","name":"Breitenbrunn","type":"Kreisangehörige_Gemeinde"},"district":{"key":"09778","name":"Unterallgäu","type":"Landkreis"},"federalState":{"key":"09","name":"Bayern"}},{"name":"Heuschuppenweg","postalCode":"08359","locality":"Breitenbrunn/Erzgebirge","municipality":{"key":"14521110","name":"Breitenbrunn/Erzgeb.","type":"Kreisangehörige_Gemeinde"},"district":{"key":"14521","name":"Erzgebirgskreis","type":"Landkreis"},"federalState":{"key":"14","name":"Sachsen"}},{"name":"Hinterer Kohlweg","postalCode":"08359","locality":"Breitenbrunn/Erzgebirge","municipality":{"key":"14521110","name":"Breitenbrunn/Erzgeb.","type":"Kreisangehörige_Gemeinde"},"district":{"key":"14521","name":"Erzgebirgskreis","type":"Landkreis"},"federalState":{"key":"14","name":"Sachsen"}},{"name":"Hinterödberg","postalCode":"92363","locality":"Breitenbrunn","municipality":{"key":"09373115","name":"Breitenbrunn, M","type":"Markt"},"district":{"key":"09373","name":"Neumarkt i.d.OPf.","type":"Landkreis"},"federalState":{"key":"09","name":"Bayern"}},{"name":"Hirschsprungweg","postalCode":"08359","locality":"Breitenbrunn/Erzgebirge","municipality":{"key":"14521110","name":"Breitenbrunn/Erzgeb.","type":"Kreisangehörige_Gemeinde"},"district":{"key":"14521","name":"Erzgebirgskreis","type":"Landkreis"},"federalState":{"key":"14","name":"Sachsen"}},{"name":"Hirschstein","postalCode":"08359","locality":"Breitenbrunn/Erzgebirge","municipality":{"key":"14521110","name":"Breitenbrunn/Erzgeb.","type":"Kreisangehörige_Gemeinde"},"district":{"key":"14521","name":"Erzgebirgskreis","type":"Landkreis"},"federalState":{"key":"14","name":"Sachsen"}},{"name":"Hirschsteinweg","postalCode":"08359","locality":"Breitenbrunn/Erzgebirge","municipality":{"key":"14521110","name":"Breitenbrunn/Erzgeb.","type":"Kreisangehörige_Gemeinde"},"district":{"key":"14521","name":"Erzgebirgskreis","type":"Landkreis"},"federalState":{"key":"14","name":"Sachsen"}},{"name":"Hirtenbergweg","postalCode":"08359","locality":"Breitenbrunn/Erzgebirge","municipality":{"key":"14521110","name":"Breitenbrunn/Erzgeb.","type":"Kreisangehörige_Gemeinde"},"district":{"key":"14521","name":"Erzgebirgskreis","type":"Landkreis"},"federalState":{"key":"14","name":"Sachsen"}},{"name":"Hirtenlohweg","postalCode":"87739","locality":"Breitenbrunn","municipality":{"key":"09778121","name":"Breitenbrunn","type":"Kreisangehörige_Gemeinde"},"district":{"key":"09778","name":"Unterallgäu","type":"Landkreis"},"federalState":{"key":"09","name":"Bayern"}},{"name":"Hochgarten","postalCode":"87739","locality":"Breitenbrunn","municipality":{"key":"09778121","name":"Breitenbrunn","type":"Kreisangehörige_Gemeinde"},"district":{"key":"09778","name":"Unterallgäu","type":"Landkreis"},"federalState":{"key":"09","name":"Bayern"}},{"name":"Hoffeldstr.","postalCode":"92363","locality":"Breitenbrunn","municipality":{"key":"09373115","name":"Breitenbrunn, M","type":"Markt"},"district":{"key":"09373","name":"Neumarkt i.d.OPf.","type":"Landkreis"},"federalState":{"key":"09","name":"Bayern"}},{"name":"Hohenbüglweg","postalCode":"92363","locality":"Breitenbrunn","municipality":{"key":"09373115","name":"Breitenbrunn, M","type":"Markt"},"district":{"key":"09373","name":"Neumarkt i.d.OPf.","type":"Landkreis"},"federalState":{"key":"09","name":"Bayern"}},{"name":"Höhligweg","postalCode":"08359","locality":"Breitenbrunn/Erzgebirge","municipality":{"key":"14521110","name":"Breitenbrunn/Erzgeb.","type":"Kreisangehörige_Gemeinde"},"district":{"key":"14521","name":"Erzgebirgskreis","type":"Landkreis"},"federalState":{"key":"14","name":"Sachsen"}},{"name":"In der Au","postalCode":"92363","locality":"Breitenbrunn","municipality":{"key":"09373115","name":"Breitenbrunn, M","type":"Markt"},"district":{"key":"09373","name":"Neumarkt i.d.OPf.","type":"Landkreis"},"federalState":{"key":"09","name":"Bayern"}},{"name":"Jägerhäuser Str.","postalCode":"08359","locality":"Breitenbrunn/Erzgebirge","municipality":{"key":"14521110","name":"Breitenbrunn/Erzgeb.","type":"Kreisangehörige_Gemeinde"},"district":{"key":"14521","name":"Erzgebirgskreis","type":"Landkreis"},"federalState":{"key":"14","name":"Sachsen"}},{"name":"Johanngeorgenstädter Weg","postalCode":"08359","locality":"Breitenbrunn/Erzgebirge","municipality":{"key":"14521110","name":"Breitenbrunn/Erzgeb.","type":"Kreisangehörige_Gemeinde"},"district":{"key":"14521","name":"Erzgebirgskreis","type":"Landkreis"},"federalState":{"key":"14","name":"Sachsen"}},{"name":"Kaffenbergweg","postalCode":"08359","locality":"Breitenbrunn/Erzgebirge","municipality":{"key":"14521110","name":"Breitenbrunn/Erzgeb.","type":"Kreisangehörige_Gemeinde"},"district":{"key":"14521","name":"Erzgebirgskreis","type":"Landkreis"},"federalState":{"key":"14","name":"Sachsen"}},{"name":"Kaisermoos","postalCode":"87739","locality":"Breitenbrunn","municipality":{"key":"09778121","name":"Breitenbrunn","type":"Kreisangehörige_Gemeinde"},"district":{"key":"09778","name":"Unterallgäu","type":"Landkreis"},"federalState":{"key":"09","name":"Bayern"}},{"name":"Kaisersmoos","postalCode":"87739","locality":"Breitenbrunn","municipality":{"key":"09778121","name":"Breitenbrunn","type":"Kreisangehörige_Gemeinde"},"district":{"key":"09778","name":"Unterallgäu","type":"Landkreis"},"federalState":{"key":"09","name":"Bayern"}},{"name":"Kammelweg","postalCode":"87739","locality":"Breitenbrunn","municipality":{"key":"09778121","name":"Breitenbrunn","type":"Kreisangehörige_Gemeinde"},"district":{"key":"09778","name":"Unterallgäu","type":"Landkreis"},"federalState":{"key":"09","name":"Bayern"}},{"name":"Kapellenweg","postalCode":"87739","locality":"Breitenbrunn","municipality":{"key":"09778121","name":"Breitenbrunn","type":"Kreisangehörige_Gemeinde"},"district":{"key":"09778","name":"Unterallgäu","type":"Landkreis"},"federalState":{"key":"09","name":"Bayern"}},{"name":"Karlsbader Str.","postalCode":"08359","locality":"Breitenbrunn/Erzgebirge","municipality":{"key":"14521110","name":"Breitenbrunn/Erzgeb.","type":"Kreisangehörige_Gemeinde"},"district":{"key":"14521","name":"Erzgebirgskreis","type":"Landkreis"},"federalState":{"key":"14","name":"Sachsen"}},{"name":"Kastanienweg","postalCode":"92363","locality":"Breitenbrunn","municipality":{"key":"09373115","name":"Breitenbrunn, M","type":"Markt"},"district":{"key":"09373","name":"Neumarkt i.d.OPf.","type":"Landkreis"},"federalState":{"key":"09","name":"Bayern"}},{"name":"Kastlmühlweg","postalCode":"92363","locality":"Breitenbrunn","municipality":{"key":"09373115","name":"Breitenbrunn, M","type":"Markt"},"district":{"key":"09373","name":"Neumarkt i.d.OPf.","type":"Landkreis"},"federalState":{"key":"09","name":"Bayern"}},{"name":"Kemnather Str.","postalCode":"92363","locality":"Breitenbrunn","municipality":{"key":"09373115","name":"Breitenbrunn, M","type":"Markt"},"district":{"key":"09373","name":"Neumarkt i.d.OPf.","type":"Landkreis"},"federalState":{"key":"09","name":"Bayern"}},{"name":"Kirchberg","postalCode":"87739","locality":"Breitenbrunn","municipality":{"key":"09778121","name":"Breitenbrunn","type":"Kreisangehörige_Gemeinde"},"district":{"key":"09778","name":"Unterallgäu","type":"Landkreis"},"federalState":{"key":"09","name":"Bayern"}},{"name":"Kirchenweg","postalCode":"92363","locality":"Breitenbrunn","municipality":{"key":"09373115","name":"Breitenbrunn, M","type":"Markt"},"district":{"key":"09373","name":"Neumarkt i.d.OPf.","type":"Landkreis"},"federalState":{"key":"09","name":"Bayern"}},{"name":"Kirchgasse","postalCode":"87739","locality":"Breitenbrunn","municipality":{"key":"09778121","name":"Breitenbrunn","type":"Kreisangehörige_Gemeinde"},"district":{"key":"09778","name":"Unterallgäu","type":"Landkreis"},"federalState":{"key":"09","name":"Bayern"}},{"name":"Kirchhaslacher Str.","postalCode":"87739","locality":"Breitenbrunn","municipality":{"key":"09778121","name":"Breitenbrunn","type":"Kreisangehörige_Gemeinde"},"district":{"key":"09778","name":"Unterallgäu","type":"Landkreis"},"federalState":{"key":"09","name":"Bayern"}},{"name":"Kirchplatz","postalCode":"92363","locality":"Breitenbrunn","municipality":{"key":"09373115","name":"Breitenbrunn, M","type":"Markt"},"district":{"key":"09373","name":"Neumarkt i.d.OPf.","type":"Landkreis"},"federalState":{"key":"09","name":"Bayern"}},{"name":"Kirchsteig","postalCode":"08359","locality":"Breitenbrunn/Erzgebirge","municipality":{"key":"14521110","name":"Breitenbrunn/Erzgeb.","type":"Kreisangehörige_Gemeinde"},"district":{"key":"14521","name":"Erzgebirgskreis","type":"Landkreis"},"federalState":{"key":"14","name":"Sachsen"}},{"name":"Kirchstr.","postalCode":"08359","locality":"Breitenbrunn/Erzgebirge","municipality":{"key":"14521110","name":"Breitenbrunn/Erzgeb.","type":"Kreisangehörige_Gemeinde"},"district":{"key":"14521","name":"Erzgebirgskreis","type":"Landkreis"},"federalState":{"key":"14","name":"Sachsen"}},{"name":"Kirchstr.","postalCode":"87739","locality":"Breitenbrunn","municipality":{"key":"09778121","name":"Breitenbrunn","type":"Kreisangehörige_Gemeinde"},"district":{"key":"09778","name":"Unterallgäu","type":"Landkreis"},"federalState":{"key":"09","name":"Bayern"}},{"name":"Kleinbuchweg","postalCode":"92363","locality":"Breitenbrunn","municipality":{"key":"09373115","name":"Breitenbrunn, M","type":"Markt"},"district":{"key":"09373","name":"Neumarkt i.d.OPf.","type":"Landkreis"},"federalState":{"key":"09","name":"Bayern"}},{"name":"Klingerbachweg","postalCode":"08359","locality":"Breitenbrunn/Erzgebirge","municipality":{"key":"14521110","name":"Breitenbrunn/Erzgeb.","type":"Kreisangehörige_Gemeinde"},"district":{"key":"14521","name":"Erzgebirgskreis","type":"Landkreis"},"federalState":{"key":"14","name":"Sachsen"}},{"name":"Klingerweg","postalCode":"92363","locality":"Breitenbrunn","municipality":{"key":"09373115","name":"Breitenbrunn, M","type":"Markt"},"district":{"key":"09373","name":"Neumarkt i.d.OPf.","type":"Landkreis"},"federalState":{"key":"09","name":"Bayern"}},{"name":"Klughäuser Weg","postalCode":"08359","locality":"Breitenbrunn/Erzgebirge","municipality":{"key":"14521110","name":"Breitenbrunn/Erzgeb.","type":"Kreisangehörige_Gemeinde"},"district":{"key":"14521","name":"Erzgebirgskreis","type":"Landkreis"},"federalState":{"key":"14","name":"Sachsen"}},{"name":"Köck","postalCode":"87739","locality":"Breitenbrunn","municipality":{"key":"09778121","name":"Breitenbrunn","type":"Kreisangehörige_Gemeinde"},"district":{"key":"09778","name":"Unterallgäu","type":"Landkreis"},"federalState":{"key":"09","name":"Bayern"}},{"name":"Kohlenweg","postalCode":"08359","locality":"Breitenbrunn/Erzgebirge","municipality":{"key":"14521110","name":"Breitenbrunn/Erzgeb.","type":"Kreisangehörige_Gemeinde"},"district":{"key":"14521","name":"Erzgebirgskreis","type":"Landkreis"},"federalState":{"key":"14","name":"Sachsen"}},{"name":"Kohlweg","postalCode":"08359","locality":"Breitenbrunn/Erzgebirge","municipality":{"key":"14521110","name":"Breitenbrunn/Erzgeb.","type":"Kreisangehörige_Gemeinde"},"district":{"key":"14521","name":"Erzgebirgskreis","type":"Landkreis"},"federalState":{"key":"14","name":"Sachsen"}},{"name":"Korb","postalCode":"87739","locality":"Breitenbrunn","municipality":{"key":"09778121","name":"Breitenbrunn","type":"Kreisangehörige_Gemeinde"},"district":{"key":"09778","name":"Unterallgäu","type":"Landkreis"},"federalState":{"key":"09","name":"Bayern"}},{"name":"Kornstr.","postalCode":"87739","locality":"Breitenbrunn","municipality":{"key":"09778121","name":"Breitenbrunn","type":"Kreisangehörige_Gemeinde"},"district":{"key":"09778","name":"Unterallgäu","type":"Landkreis"},"federalState":{"key":"09","name":"Bayern"}},{"name":"Kranbächelweg","postalCode":"08359","locality":"Breitenbrunn/Erzgebirge","municipality":{"key":"14521110","name":"Breitenbrunn/Erzgeb.","type":"Kreisangehörige_Gemeinde"},"district":{"key":"14521","name":"Erzgebirgskreis","type":"Landkreis"},"federalState":{"key":"14","name":"Sachsen"}},{"name":"Kreuzberg","postalCode":"87739","locality":"Breitenbrunn","municipality":{"key":"09778121","name":"Breitenbrunn","type":"Kreisangehörige_Gemeinde"},"district":{"key":"09778","name":"Unterallgäu","type":"Landkreis"},"federalState":{"key":"09","name":"Bayern"}},{"name":"Kreuzherrenweg","postalCode":"87739","locality":"Breitenbrunn","municipality":{"key":"09778121","name":"Breitenbrunn","type":"Kreisangehörige_Gemeinde"},"district":{"key":"09778","name":"Unterallgäu","type":"Landkreis"},"federalState":{"key":"09","name":"Bayern"}},{"name":"Krummer Flügel","postalCode":"08359","locality":"Breitenbrunn/Erzgebirge","municipality":{"key":"14521110","name":"Breitenbrunn/Erzgeb.","type":"Kreisangehörige_Gemeinde"},"district":{"key":"14521","name":"Erzgebirgskreis","type":"Landkreis"},"federalState":{"key":"14","name":"Sachsen"}},{"name":"Kunnersbachstr.","postalCode":"08359","locality":"Breitenbrunn/Erzgebirge","municipality":{"key":"14521110","name":"Breitenbrunn/Erzgeb.","type":"Kreisangehörige_Gemeinde"},"district":{"key":"14521","name":"Erzgebirgskreis","type":"Landkreis"},"federalState":{"key":"14","name":"Sachsen"}},{"name":"Kunnersbachweg","postalCode":"08359","locality":"Breitenbrunn/Erzgebirge","municipality":{"key":"14521110","name":"Breitenbrunn/Erzgeb.","type":"Kreisangehörige_Gemeinde"},"district":{"key":"14521","name":"Erzgebirgskreis","type":"Landkreis"},"federalState":{"key":"14","name":"Sachsen"}},{"name":"Kunnersbrunnweg","postalCode":"08359","locality":"Breitenbrunn/Erzgebirge","municipality":{"key":"14521110","name":"Breitenbrunn/Erzgeb.","type":"Kreisangehörige_Gemeinde"},"district":{"key":"14521","name":"Erzgebirgskreis","type":"Landkreis"},"federalState":{"key":"14","name":"Sachsen"}},{"name":"Kupferweg","postalCode":"08359","locality":"Breitenbrunn/Erzgebirge","municipality":{"key":"14521110","name":"Breitenbrunn/Erzgeb.","type":"Kreisangehörige_Gemeinde"},"district":{"key":"14521","name":"Erzgebirgskreis","type":"Landkreis"},"federalState":{"key":"14","name":"Sachsen"}},{"name":"Langenrieder Str.","postalCode":"92363","locality":"Breitenbrunn","municipality":{"key":"09373115","name":"Breitenbrunn, M","type":"Markt"},"district":{"key":"09373","name":"Neumarkt i.d.OPf.","type":"Landkreis"},"federalState":{"key":"09","name":"Bayern"}},{"name":"Langenrieder Weg","postalCode":"92363","locality":"Breitenbrunn","municipality":{"key":"09373115","name":"Breitenbrunn, M","type":"Markt"},"district":{"key":"09373","name":"Neumarkt i.d.OPf.","type":"Landkreis"},"federalState":{"key":"09","name":"Bayern"}},{"name":"Langenthonhausen","postalCode":"92363","locality":"Breitenbrunn","municipality":{"key":"09373115","name":"Breitenbrunn, M","type":"Markt"},"district":{"key":"09373","name":"Neumarkt i.d.OPf.","type":"Landkreis"},"federalState":{"key":"09","name":"Bayern"}},{"name":"Langer Raum Weg","postalCode":"08359","locality":"Breitenbrunn/Erzgebirge","municipality":{"key":"14521110","name":"Breitenbrunn/Erzgeb.","type":"Kreisangehörige_Gemeinde"},"district":{"key":"14521","name":"Erzgebirgskreis","type":"Landkreis"},"federalState":{"key":"14","name":"Sachsen"}},{"name":"Lärchenweg","postalCode":"87739","locality":"Breitenbrunn","municipality":{"key":"09778121","name":"Breitenbrunn","type":"Kreisangehörige_Gemeinde"},"district":{"key":"09778","name":"Unterallgäu","type":"Landkreis"},"federalState":{"key":"09","name":"Bayern"}},{"name":"Lärchenweg","postalCode":"92363","locality":"Breitenbrunn","municipality":{"key":"09373115","name":"Breitenbrunn, M","type":"Markt"},"district":{"key":"09373","name":"Neumarkt i.d.OPf.","type":"Landkreis"},"federalState":{"key":"09","name":"Bayern"}},{"name":"Lehmgrundweg","postalCode":"08359","locality":"Breitenbrunn/Erzgebirge","municipality":{"key":"14521110","name":"Breitenbrunn/Erzgeb.","type":"Kreisangehörige_Gemeinde"},"district":{"key":"14521","name":"Erzgebirgskreis","type":"Landkreis"},"federalState":{"key":"14","name":"Sachsen"}},{"name":"Leiterzhofen","postalCode":"92363","locality":"Breitenbrunn","municipality":{"key":"09373115","name":"Breitenbrunn, M","type":"Markt"},"district":{"key":"09373","name":"Neumarkt i.d.OPf.","type":"Landkreis"},"federalState":{"key":"09","name":"Bayern"}},{"name":"Lindenweg","postalCode":"87739","locality":"Breitenbrunn","municipality":{"key":"09778121","name":"Breitenbrunn","type":"Kreisangehörige_Gemeinde"},"district":{"key":"09778","name":"Unterallgäu","type":"Landkreis"},"federalState":{"key":"09","name":"Bayern"}},{"name":"Lindenweg","postalCode":"92363","locality":"Breitenbrunn","municipality":{"key":"09373115","name":"Breitenbrunn, M","type":"Markt"},"district":{"key":"09373","name":"Neumarkt i.d.OPf.","type":"Landkreis"},"federalState":{"key":"09","name":"Bayern"}},{"name":"Loppenhausener Str.","postalCode":"87739","locality":"Breitenbrunn","municipality":{"key":"09778121","name":"Breitenbrunn","type":"Kreisangehörige_Gemeinde"},"district":{"key":"09778","name":"Unterallgäu","type":"Landkreis"},"federalState":{"key":"09","name":"Bayern"}},{"name":"Ludwig-Jahn-Str.","postalCode":"08359","locality":"Breitenbrunn/Erzgebirge","municipality":{"key":"14521110","name":"Breitenbrunn/Erzgeb.","type":"Kreisangehörige_Gemeinde"},"district":{"key":"14521","name":"Erzgebirgskreis","type":"Landkreis"},"federalState":{"key":"14","name":"Sachsen"}},{"name":"Marktplatz","postalCode":"92363","locality":"Breitenbrunn","municipality":{"key":"09373115","name":"Breitenbrunn, M","type":"Markt"},"district":{"key":"09373","name":"Neumarkt i.d.OPf.","type":"Landkreis"},"federalState":{"key":"09","name":"Bayern"}},{"name":"Matzlsberger Str.","postalCode":"92363","locality":"Breitenbrunn","municipality":{"key":"09373115","name":"Breitenbrunn, M","type":"Markt"},"district":{"key":"09373","name":"Neumarkt i.d.OPf.","type":"Landkreis"},"federalState":{"key":"09","name":"Bayern"}},{"name":"Merkleweg","postalCode":"87739","locality":"Breitenbrunn","municipality":{"key":"09778121","name":"Breitenbrunn","type":"Kreisangehörige_Gemeinde"},"district":{"key":"09778","name":"Unterallgäu","type":"Landkreis"},"federalState":{"key":"09","name":"Bayern"}},{"name":"Milchbachweg","postalCode":"08359","locality":"Breitenbrunn/Erzgebirge","municipality":{"key":"14521110","name":"Breitenbrunn/Erzgeb.","type":"Kreisangehörige_Gemeinde"},"district":{"key":"14521","name":"Erzgebirgskreis","type":"Landkreis"},"federalState":{"key":"14","name":"Sachsen"}},{"name":"Mittelstr.","postalCode":"08359","locality":"Breitenbrunn/Erzgebirge","municipality":{"key":"14521110","name":"Breitenbrunn/Erzgeb.","type":"Kreisangehörige_Gemeinde"},"district":{"key":"14521","name":"Erzgebirgskreis","type":"Landkreis"},"federalState":{"key":"14","name":"Sachsen"}},{"name":"Mittelweg","postalCode":"08359","locality":"Breitenbrunn/Erzgebirge","municipality":{"key":"14521110","name":"Breitenbrunn/Erzgeb.","type":"Kreisangehörige_Gemeinde"},"district":{"key":"14521","name":"Erzgebirgskreis","type":"Landkreis"},"federalState":{"key":"14","name":"Sachsen"}},{"name":"Molkereistr.","postalCode":"87739","locality":"Breitenbrunn","municipality":{"key":"09778121","name":"Breitenbrunn","type":"Kreisangehörige_Gemeinde"},"district":{"key":"09778","name":"Unterallgäu","type":"Landkreis"},"federalState":{"key":"09","name":"Bayern"}},{"name":"Morellostr.","postalCode":"87739","locality":"Breitenbrunn","municipality":{"key":"09778121","name":"Breitenbrunn","type":"Kreisangehörige_Gemeinde"},"district":{"key":"09778","name":"Unterallgäu","type":"Landkreis"},"federalState":{"key":"09","name":"Bayern"}},{"name":"Morgenleithe","postalCode":"08359","locality":"Breitenbrunn/Erzgebirge","municipality":{"key":"14521110","name":"Breitenbrunn/Erzgeb.","type":"Kreisangehörige_Gemeinde"},"district":{"key":"14521","name":"Erzgebirgskreis","type":"Landkreis"},"federalState":{"key":"14","name":"Sachsen"}},{"name":"Mückenbachweg","postalCode":"08359","locality":"Breitenbrunn/Erzgebirge","municipality":{"key":"14521110","name":"Breitenbrunn/Erzgeb.","type":"Kreisangehörige_Gemeinde"},"district":{"key":"14521","name":"Erzgebirgskreis","type":"Landkreis"},"federalState":{"key":"14","name":"Sachsen"}},{"name":"Mühlanger","postalCode":"08359","locality":"Breitenbrunn/Erzgebirge","municipality":{"key":"14521110","name":"Breitenbrunn/Erzgeb.","type":"Kreisangehörige_Gemeinde"},"district":{"key":"14521","name":"Erzgebirgskreis","type":"Landkreis"},"federalState":{"key":"14","name":"Sachsen"}},{"name":"Mühlbachweg","postalCode":"87739","locality":"Breitenbrunn","municipality":{"key":"09778121","name":"Breitenbrunn","type":"Kreisangehörige_Gemeinde"},"district":{"key":"09778","name":"Unterallgäu","type":"Landkreis"},"federalState":{"key":"09","name":"Bayern"}},{"name":"Mühlenstr.","postalCode":"87739","locality":"Breitenbrunn","municipality":{"key":"09778121","name":"Breitenbrunn","type":"Kreisangehörige_Gemeinde"},"district":{"key":"09778","name":"Unterallgäu","type":"Landkreis"},"federalState":{"key":"09","name":"Bayern"}},{"name":"Mühlenweg","postalCode":"92363","locality":"Breitenbrunn","municipality":{"key":"09373115","name":"Breitenbrunn, M","type":"Markt"},"district":{"key":"09373","name":"Neumarkt i.d.OPf.","type":"Landkreis"},"federalState":{"key":"09","name":"Bayern"}},{"name":"Mühlgraben","postalCode":"87739","locality":"Breitenbrunn","municipality":{"key":"09778121","name":"Breitenbrunn","type":"Kreisangehörige_Gemeinde"},"district":{"key":"09778","name":"Unterallgäu","type":"Landkreis"},"federalState":{"key":"09","name":"Bayern"}},{"name":"Neuer Weg","postalCode":"08359","locality":"Breitenbrunn/Erzgebirge","municipality":{"key":"14521110","name":"Breitenbrunn/Erzgeb.","type":"Kreisangehörige_Gemeinde"},"district":{"key":"14521","name":"Erzgebirgskreis","type":"Landkreis"},"federalState":{"key":"14","name":"Sachsen"}},{"name":"Neue Siedlung","postalCode":"08359","locality":"Breitenbrunn/Erzgebirge","municipality":{"key":"14521110","name":"Breitenbrunn/Erzgeb.","type":"Kreisangehörige_Gemeinde"},"district":{"key":"14521","name":"Erzgebirgskreis","type":"Landkreis"},"federalState":{"key":"14","name":"Sachsen"}},{"name":"Neuwegflügel","postalCode":"08359","locality":"Breitenbrunn/Erzgebirge","municipality":{"key":"14521110","name":"Breitenbrunn/Erzgeb.","type":"Kreisangehörige_Gemeinde"},"district":{"key":"14521","name":"Erzgebirgskreis","type":"Landkreis"},"federalState":{"key":"14","name":"Sachsen"}},{"name":"Niederdorfer Weg","postalCode":"08359","locality":"Breitenbrunn/Erzgebirge","municipality":{"key":"14521110","name":"Breitenbrunn/Erzgeb.","type":"Kreisangehörige_Gemeinde"},"district":{"key":"14521","name":"Erzgebirgskreis","type":"Landkreis"},"federalState":{"key":"14","name":"Sachsen"}},{"name":"Oberberghöfe","postalCode":"87739","locality":"Breitenbrunn","municipality":{"key":"09778121","name":"Breitenbrunn","type":"Kreisangehörige_Gemeinde"},"district":{"key":"09778","name":"Unterallgäu","type":"Landkreis"},"federalState":{"key":"09","name":"Bayern"}},{"name":"Oberdorfer Flügel","postalCode":"08359","locality":"Breitenbrunn/Erzgebirge","municipality":{"key":"14521110","name":"Breitenbrunn/Erzgeb.","type":"Kreisangehörige_Gemeinde"},"district":{"key":"14521","name":"Erzgebirgskreis","type":"Landkreis"},"federalState":{"key":"14","name":"Sachsen"}},{"name":"Oberdorfer Weg","postalCode":"08359","locality":"Breitenbrunn/Erzgebirge","municipality":{"key":"14521110","name":"Breitenbrunn/Erzgeb.","type":"Kreisangehörige_Gemeinde"},"district":{"key":"14521","name":"Erzgebirgskreis","type":"Landkreis"},"federalState":{"key":"14","name":"Sachsen"}},{"name":"Oberer Anger","postalCode":"92363","locality":"Breitenbrunn","municipality":{"key":"09373115","name":"Breitenbrunn, M","type":"Markt"},"district":{"key":"09373","name":"Neumarkt i.d.OPf.","type":"Landkreis"},"federalState":{"key":"09","name":"Bayern"}},{"name":"Oberer Reimertweg","postalCode":"08359","locality":"Breitenbrunn/Erzgebirge","municipality":{"key":"14521110","name":"Breitenbrunn/Erzgeb.","type":"Kreisangehörige_Gemeinde"},"district":{"key":"14521","name":"Erzgebirgskreis","type":"Landkreis"},"federalState":{"key":"14","name":"Sachsen"}},{"name":"Obergasse","postalCode":"92363","locality":"Breitenbrunn","municipality":{"key":"09373115","name":"Breitenbrunn, M","type":"Markt"},"district":{"key":"09373","name":"Neumarkt i.d.OPf.","type":"Landkreis"},"federalState":{"key":"09","name":"Bayern"}},{"name":"Oberwiesenthaler Str.","postalCode":"08359","locality":"Breitenbrunn/Erzgebirge","municipality":{"key":"14521110","name":"Breitenbrunn/Erzgeb.","type":"Kreisangehörige_Gemeinde"},"district":{"key":"14521","name":"Erzgebirgskreis","type":"Landkreis"},"federalState":{"key":"14","name":"Sachsen"}},{"name":"Oberwiesenthaler Weg","postalCode":"08359","locality":"Breitenbrunn/Erzgebirge","municipality":{"key":"14521110","name":"Breitenbrunn/Erzgeb.","type":"Kreisangehörige_Gemeinde"},"district":{"key":"14521","name":"Erzgebirgskreis","type":"Landkreis"},"federalState":{"key":"14","name":"Sachsen"}},{"name":"Ochsenkopfring","postalCode":"08359","locality":"Breitenbrunn/Erzgebirge","municipality":{"key":"14521110","name":"Breitenbrunn/Erzgeb.","type":"Kreisangehörige_Gemeinde"},"district":{"key":"14521","name":"Erzgebirgskreis","type":"Landkreis"},"federalState":{"key":"14","name":"Sachsen"}},{"name":"Ortsstr.","postalCode":"92363","locality":"Breitenbrunn","municipality":{"key":"09373115","name":"Breitenbrunn, M","type":"Markt"},"district":{"key":"09373","name":"Neumarkt i.d.OPf.","type":"Landkreis"},"federalState":{"key":"09","name":"Bayern"}},{"name":"Pestalozziweg","postalCode":"08359","locality":"Breitenbrunn/Erzgebirge","municipality":{"key":"14521110","name":"Breitenbrunn/Erzgeb.","type":"Kreisangehörige_Gemeinde"},"district":{"key":"14521","name":"Erzgebirgskreis","type":"Landkreis"},"federalState":{"key":"14","name":"Sachsen"}},{"name":"Pfälzer Weg","postalCode":"92363","locality":"Breitenbrunn","municipality":{"key":"09373115","name":"Breitenbrunn, M","type":"Markt"},"district":{"key":"09373","name":"Neumarkt i.d.OPf.","type":"Landkreis"},"federalState":{"key":"09","name":"Bayern"}},{"name":"Pfarrer-Hönig-Weg","postalCode":"92363","locality":"Breitenbrunn","municipality":{"key":"09373115","name":"Breitenbrunn, M","type":"Markt"},"district":{"key":"09373","name":"Neumarkt i.d.OPf.","type":"Landkreis"},"federalState":{"key":"09","name":"Bayern"}},{"name":"Pfarrleithenweg","postalCode":"92363","locality":"Breitenbrunn","municipality":{"key":"09373115","name":"Breitenbrunn, M","type":"Markt"},"district":{"key":"09373","name":"Neumarkt i.d.OPf.","type":"Landkreis"},"federalState":{"key":"09","name":"Bayern"}},{"name":"Pflasterweg","postalCode":"08359","locality":"Breitenbrunn/Erzgebirge","municipality":{"key":"14521110","name":"Breitenbrunn/Erzgeb.","type":"Kreisangehörige_Gemeinde"},"district":{"key":"14521","name":"Erzgebirgskreis","type":"Landkreis"},"federalState":{"key":"14","name":"Sachsen"}},{"name":"Pflinzweg","postalCode":"92363","locality":"Breitenbrunn","municipality":{"key":"09373115","name":"Breitenbrunn, M","type":"Markt"},"district":{"key":"09373","name":"Neumarkt i.d.OPf.","type":"Landkreis"},"federalState":{"key":"09","name":"Bayern"}},{"name":"Pilzweg","postalCode":"87739","locality":"Breitenbrunn","municipality":{"key":"09778121","name":"Breitenbrunn","type":"Kreisangehörige_Gemeinde"},"district":{"key":"09778","name":"Unterallgäu","type":"Landkreis"},"federalState":{"key":"09","name":"Bayern"}},{"name":"Pionierweg","postalCode":"08359","locality":"Breitenbrunn/Erzgebirge","municipality":{"key":"14521110","name":"Breitenbrunn/Erzgeb.","type":"Kreisangehörige_Gemeinde"},"district":{"key":"14521","name":"Erzgebirgskreis","type":"Landkreis"},"federalState":{"key":"14","name":"Sachsen"}},{"name":"Pöhlaer Str.","postalCode":"08359","locality":"Breitenbrunn/Erzgebirge","municipality":{"key":"14521110","name":"Breitenbrunn/Erzgeb.","type":"Kreisangehörige_Gemeinde"},"district":{"key":"14521","name":"Erzgebirgskreis","type":"Landkreis"},"federalState":{"key":"14","name":"Sachsen"}},{"name":"Pointweg","postalCode":"92363","locality":"Breitenbrunn","municipality":{"key":"09373115","name":"Breitenbrunn, M","type":"Markt"},"district":{"key":"09373","name":"Neumarkt i.d.OPf.","type":"Landkreis"},"federalState":{"key":"09","name":"Bayern"}},{"name":"Postberg","postalCode":"08359","locality":"Breitenbrunn/Erzgebirge","municipality":{"key":"14521110","name":"Breitenbrunn/Erzgeb.","type":"Kreisangehörige_Gemeinde"},"district":{"key":"14521","name":"Erzgebirgskreis","type":"Landkreis"},"federalState":{"key":"14","name":"Sachsen"}},{"name":"Preißhausstr.","postalCode":"08359","locality":"Breitenbrunn/Erzgebirge","municipality":{"key":"14521110","name":"Breitenbrunn/Erzgeb.","type":"Kreisangehörige_Gemeinde"},"district":{"key":"14521","name":"Erzgebirgskreis","type":"Landkreis"},"federalState":{"key":"14","name":"Sachsen"}},{"name":"Premerzhofener Str.","postalCode":"92363","locality":"Breitenbrunn","municipality":{"key":"09373115","name":"Breitenbrunn, M","type":"Markt"},"district":{"key":"09373","name":"Neumarkt i.d.OPf.","type":"Landkreis"},"federalState":{"key":"09","name":"Bayern"}},{"name":"Quellenweg","postalCode":"87739","locality":"Breitenbrunn","municipality":{"key":"09778121","name":"Breitenbrunn","type":"Kreisangehörige_Gemeinde"},"district":{"key":"09778","name":"Unterallgäu","type":"Landkreis"},"federalState":{"key":"09","name":"Bayern"}},{"name":"Rabenberger Str.","postalCode":"08359","locality":"Breitenbrunn/Erzgebirge","municipality":{"key":"14521110","name":"Breitenbrunn/Erzgeb.","type":"Kreisangehörige_Gemeinde"},"district":{"key":"14521","name":"Erzgebirgskreis","type":"Landkreis"},"federalState":{"key":"14","name":"Sachsen"}},{"name":"Raiffeisenstr.","postalCode":"87739","locality":"Breitenbrunn","municipality":{"key":"09778121","name":"Breitenbrunn","type":"Kreisangehörige_Gemeinde"},"district":{"key":"09778","name":"Unterallgäu","type":"Landkreis"},"federalState":{"key":"09","name":"Bayern"}},{"name":"Reitsteig","postalCode":"08359","locality":"Breitenbrunn/Erzgebirge","municipality":{"key":"14521110","name":"Breitenbrunn/Erzgeb.","type":"Kreisangehörige_Gemeinde"},"district":{"key":"14521","name":"Erzgebirgskreis","type":"Landkreis"},"federalState":{"key":"14","name":"Sachsen"}},{"name":"Ringweg","postalCode":"08359","locality":"Breitenbrunn/Erzgebirge","municipality":{"key":"14521110","name":"Breitenbrunn/Erzgeb.","type":"Kreisangehörige_Gemeinde"},"district":{"key":"14521","name":"Erzgebirgskreis","type":"Landkreis"},"federalState":{"key":"14","name":"Sachsen"}},{"name":"Robert-Koch-Str.","postalCode":"08359","locality":"Breitenbrunn/Erzgebirge","municipality":{"key":"14521110","name":"Breitenbrunn/Erzgeb.","type":"Kreisangehörige_Gemeinde"},"district":{"key":"14521","name":"Erzgebirgskreis","type":"Landkreis"},"federalState":{"key":"14","name":"Sachsen"}},{"name":"Rofen","postalCode":"92363","locality":"Breitenbrunn","municipality":{"key":"09373115","name":"Breitenbrunn, M","type":"Markt"},"district":{"key":"09373","name":"Neumarkt i.d.OPf.","type":"Landkreis"},"federalState":{"key":"09","name":"Bayern"}},{"name":"Rondell","postalCode":"08359","locality":"Breitenbrunn/Erzgebirge","municipality":{"key":"14521110","name":"Breitenbrunn/Erzgeb.","type":"Kreisangehörige_Gemeinde"},"district":{"key":"14521","name":"Erzgebirgskreis","type":"Landkreis"},"federalState":{"key":"14","name":"Sachsen"}},{"name":"Roter Bergweg","postalCode":"08359","locality":"Breitenbrunn/Erzgebirge","municipality":{"key":"14521110","name":"Breitenbrunn/Erzgeb.","type":"Kreisangehörige_Gemeinde"},"district":{"key":"14521","name":"Erzgebirgskreis","type":"Landkreis"},"federalState":{"key":"14","name":"Sachsen"}},{"name":"Rothen-Adler-Str.","postalCode":"08359","locality":"Breitenbrunn/Erzgebirge","municipality":{"key":"14521110","name":"Breitenbrunn/Erzgeb.","type":"Kreisangehörige_Gemeinde"},"district":{"key":"14521","name":"Erzgebirgskreis","type":"Landkreis"},"federalState":{"key":"14","name":"Sachsen"}},{"name":"Rothenberg","postalCode":"08359","locality":"Breitenbrunn/Erzgebirge","municipality":{"key":"14521110","name":"Breitenbrunn/Erzgeb.","type":"Kreisangehörige_Gemeinde"},"district":{"key":"14521","name":"Erzgebirgskreis","type":"Landkreis"},"federalState":{"key":"14","name":"Sachsen"}},{"name":"Rothenbergweg","postalCode":"08359","locality":"Breitenbrunn/Erzgebirge","municipality":{"key":"14521110","name":"Breitenbrunn/Erzgeb.","type":"Kreisangehörige_Gemeinde"},"district":{"key":"14521","name":"Erzgebirgskreis","type":"Landkreis"},"federalState":{"key":"14","name":"Sachsen"}},{"name":"Rothenhammerweg","postalCode":"08359","locality":"Breitenbrunn/Erzgebirge","municipality":{"key":"14521110","name":"Breitenbrunn/Erzgeb.","type":"Kreisangehörige_Gemeinde"},"district":{"key":"14521","name":"Erzgebirgskreis","type":"Landkreis"},"federalState":{"key":"14","name":"Sachsen"}},{"name":"Russelweg","postalCode":"92363","locality":"Breitenbrunn","municipality":{"key":"09373115","name":"Breitenbrunn, M","type":"Markt"},"district":{"key":"09373","name":"Neumarkt i.d.OPf.","type":"Landkreis"},"federalState":{"key":"09","name":"Bayern"}},{"name":"Sachsen Weg","postalCode":"92363","locality":"Breitenbrunn","municipality":{"key":"09373115","name":"Breitenbrunn, M","type":"Markt"},"district":{"key":"09373","name":"Neumarkt i.d.OPf.","type":"Landkreis"},"federalState":{"key":"09","name":"Bayern"}},{"name":"Samuelweg","postalCode":"08359","locality":"Breitenbrunn/Erzgebirge","municipality":{"key":"14521110","name":"Breitenbrunn/Erzgeb.","type":"Kreisangehörige_Gemeinde"},"district":{"key":"14521","name":"Erzgebirgskreis","type":"Landkreis"},"federalState":{"key":"14","name":"Sachsen"}},{"name":"Sankt-Sebastians-Weg","postalCode":"92363","locality":"Breitenbrunn","municipality":{"key":"09373115","name":"Breitenbrunn, M","type":"Markt"},"district":{"key":"09373","name":"Neumarkt i.d.OPf.","type":"Landkreis"},"federalState":{"key":"09","name":"Bayern"}},{"name":"Schachtstr.","postalCode":"08359","locality":"Breitenbrunn/Erzgebirge","municipality":{"key":"14521110","name":"Breitenbrunn/Erzgeb.","type":"Kreisangehörige_Gemeinde"},"district":{"key":"14521","name":"Erzgebirgskreis","type":"Landkreis"},"federalState":{"key":"14","name":"Sachsen"}},{"name":"Schäfereiweg","postalCode":"08359","locality":"Breitenbrunn/Erzgebirge","municipality":{"key":"14521110","name":"Breitenbrunn/Erzgeb.","type":"Kreisangehörige_Gemeinde"},"district":{"key":"14521","name":"Erzgebirgskreis","type":"Landkreis"},"federalState":{"key":"14","name":"Sachsen"}},{"name":"Schellenberg","postalCode":"87739","locality":"Breitenbrunn","municipality":{"key":"09778121","name":"Breitenbrunn","type":"Kreisangehörige_Gemeinde"},"district":{"key":"09778","name":"Unterallgäu","type":"Landkreis"},"federalState":{"key":"09","name":"Bayern"}},{"name":"Schloßbergleite","postalCode":"92363","locality":"Breitenbrunn","municipality":{"key":"09373115","name":"Breitenbrunn, M","type":"Markt"},"district":{"key":"09373","name":"Neumarkt i.d.OPf.","type":"Landkreis"},"federalState":{"key":"09","name":"Bayern"}},{"name":"Schloßbergweg","postalCode":"87739","locality":"Breitenbrunn","municipality":{"key":"09778121","name":"Breitenbrunn","type":"Kreisangehörige_Gemeinde"},"district":{"key":"09778","name":"Unterallgäu","type":"Landkreis"},"federalState":{"key":"09","name":"Bayern"}},{"name":"Schloßbergweg","postalCode":"92363","locality":"Breitenbrunn","municipality":{"key":"09373115","name":"Breitenbrunn, M","type":"Markt"},"district":{"key":"09373","name":"Neumarkt i.d.OPf.","type":"Landkreis"},"federalState":{"key":"09","name":"Bayern"}},{"name":"Schorenweg","postalCode":"87739","locality":"Breitenbrunn","municipality":{"key":"09778121","name":"Breitenbrunn","type":"Kreisangehörige_Gemeinde"},"district":{"key":"09778","name":"Unterallgäu","type":"Landkreis"},"federalState":{"key":"09","name":"Bayern"}},{"name":"Schuhmacherweg","postalCode":"87739","locality":"Breitenbrunn","municipality":{"key":"09778121","name":"Breitenbrunn","type":"Kreisangehörige_Gemeinde"},"district":{"key":"09778","name":"Unterallgäu","type":"Landkreis"},"federalState":{"key":"09","name":"Bayern"}},{"name":"Schulberg","postalCode":"87739","locality":"Breitenbrunn","municipality":{"key":"09778121","name":"Breitenbrunn","type":"Kreisangehörige_Gemeinde"},"district":{"key":"09778","name":"Unterallgäu","type":"Landkreis"},"federalState":{"key":"09","name":"Bayern"}},{"name":"Schulstr.","postalCode":"08359","locality":"Breitenbrunn/Erzgebirge","municipality":{"key":"14521110","name":"Breitenbrunn/Erzgeb.","type":"Kreisangehörige_Gemeinde"},"district":{"key":"14521","name":"Erzgebirgskreis","type":"Landkreis"},"federalState":{"key":"14","name":"Sachsen"}},{"name":"Schulweg","postalCode":"92363","locality":"Breitenbrunn","municipality":{"key":"09373115","name":"Breitenbrunn, M","type":"Markt"},"district":{"key":"09373","name":"Neumarkt i.d.OPf.","type":"Landkreis"},"federalState":{"key":"09","name":"Bayern"}},{"name":"Schützenhauser Flügel","postalCode":"08359","locality":"Breitenbrunn/Erzgebirge","municipality":{"key":"14521110","name":"Breitenbrunn/Erzgeb.","type":"Kreisangehörige_Gemeinde"},"district":{"key":"14521","name":"Erzgebirgskreis","type":"Landkreis"},"federalState":{"key":"14","name":"Sachsen"}},{"name":"Schwarzenberger Str.","postalCode":"08359","locality":"Breitenbrunn/Erzgebirge","municipality":{"key":"14521110","name":"Breitenbrunn/Erzgeb.","type":"Kreisangehörige_Gemeinde"},"district":{"key":"14521","name":"Erzgebirgskreis","type":"Landkreis"},"federalState":{"key":"14","name":"Sachsen"}},{"name":"Schwarzer Weg","postalCode":"08359","locality":"Breitenbrunn/Erzgebirge","municipality":{"key":"14521110","name":"Breitenbrunn/Erzgeb.","type":"Kreisangehörige_Gemeinde"},"district":{"key":"14521","name":"Erzgebirgskreis","type":"Landkreis"},"federalState":{"key":"14","name":"Sachsen"}},{"name":"Schwarzwasser -Weg","postalCode":"08359","locality":"Breitenbrunn/Erzgebirge","municipality":{"key":"14521110","name":"Breitenbrunn/Erzgeb.","type":"Kreisangehörige_Gemeinde"},"district":{"key":"14521","name":"Erzgebirgskreis","type":"Landkreis"},"federalState":{"key":"14","name":"Sachsen"}},{"name":"Seifenbachweg","postalCode":"08359","locality":"Breitenbrunn/Erzgebirge","municipality":{"key":"14521110","name":"Breitenbrunn/Erzgeb.","type":"Kreisangehörige_Gemeinde"},"district":{"key":"14521","name":"Erzgebirgskreis","type":"Landkreis"},"federalState":{"key":"14","name":"Sachsen"}},{"name":"Seifenrand","postalCode":"08359","locality":"Breitenbrunn/Erzgebirge","municipality":{"key":"14521110","name":"Breitenbrunn/Erzgeb.","type":"Kreisangehörige_Gemeinde"},"district":{"key":"14521","name":"Erzgebirgskreis","type":"Landkreis"},"federalState":{"key":"14","name":"Sachsen"}},{"name":"Siedlerberg","postalCode":"08359","locality":"Breitenbrunn/Erzgebirge","municipality":{"key":"14521110","name":"Breitenbrunn/Erzgeb.","type":"Kreisangehörige_Gemeinde"},"district":{"key":"14521","name":"Erzgebirgskreis","type":"Landkreis"},"federalState":{"key":"14","name":"Sachsen"}},{"name":"Siedlereck","postalCode":"08359","locality":"Breitenbrunn/Erzgebirge","municipality":{"key":"14521110","name":"Breitenbrunn/Erzgeb.","type":"Kreisangehörige_Gemeinde"},"district":{"key":"14521","name":"Erzgebirgskreis","type":"Landkreis"},"federalState":{"key":"14","name":"Sachsen"}},{"name":"Siedlerweg","postalCode":"08359","locality":"Breitenbrunn/Erzgebirge","municipality":{"key":"14521110","name":"Breitenbrunn/Erzgeb.","type":"Kreisangehörige_Gemeinde"},"district":{"key":"14521","name":"Erzgebirgskreis","type":"Landkreis"},"federalState":{"key":"14","name":"Sachsen"}},{"name":"Siedlung","postalCode":"87739","locality":"Breitenbrunn","municipality":{"key":"09778121","name":"Breitenbrunn","type":"Kreisangehörige_Gemeinde"},"district":{"key":"09778","name":"Unterallgäu","type":"Landkreis"},"federalState":{"key":"09","name":"Bayern"}},{"name":"Siegertshofen","postalCode":"92363","locality":"Breitenbrunn","municipality":{"key":"09373115","name":"Breitenbrunn, M","type":"Markt"},"district":{"key":"09373","name":"Neumarkt i.d.OPf.","type":"Landkreis"},"federalState":{"key":"09","name":"Bayern"}},{"name":"Siegertshofener Str.","postalCode":"92363","locality":"Breitenbrunn","municipality":{"key":"09373115","name":"Breitenbrunn, M","type":"Markt"},"district":{"key":"09373","name":"Neumarkt i.d.OPf.","type":"Landkreis"},"federalState":{"key":"09","name":"Bayern"}},{"name":"Silberweg","postalCode":"08359","locality":"Breitenbrunn/Erzgebirge","municipality":{"key":"14521110","name":"Breitenbrunn/Erzgeb.","type":"Kreisangehörige_Gemeinde"},"district":{"key":"14521","name":"Erzgebirgskreis","type":"Landkreis"},"federalState":{"key":"14","name":"Sachsen"}},{"name":"Sonnenleithe","postalCode":"08359","locality":"Breitenbrunn/Erzgebirge","municipality":{"key":"14521110","name":"Breitenbrunn/Erzgeb.","type":"Kreisangehörige_Gemeinde"},"district":{"key":"14521","name":"Erzgebirgskreis","type":"Landkreis"},"federalState":{"key":"14","name":"Sachsen"}},{"name":"Sonnenweg","postalCode":"87739","locality":"Breitenbrunn","municipality":{"key":"09778121","name":"Breitenbrunn","type":"Kreisangehörige_Gemeinde"},"district":{"key":"09778","name":"Unterallgäu","type":"Landkreis"},"federalState":{"key":"09","name":"Bayern"}},{"name":"Sportplatzring","postalCode":"87739","locality":"Breitenbrunn","municipality":{"key":"09778121","name":"Breitenbrunn","type":"Kreisangehörige_Gemeinde"},"district":{"key":"09778","name":"Unterallgäu","type":"Landkreis"},"federalState":{"key":"09","name":"Bayern"}},{"name":"Staadorfer Weg","postalCode":"92363","locality":"Breitenbrunn","municipality":{"key":"09373115","name":"Breitenbrunn, M","type":"Markt"},"district":{"key":"09373","name":"Neumarkt i.d.OPf.","type":"Landkreis"},"federalState":{"key":"09","name":"Bayern"}},{"name":"Staudenberg","postalCode":"87739","locality":"Breitenbrunn","municipality":{"key":"09778121","name":"Breitenbrunn","type":"Kreisangehörige_Gemeinde"},"district":{"key":"09778","name":"Unterallgäu","type":"Landkreis"},"federalState":{"key":"09","name":"Bayern"}},{"name":"St. Christoph","postalCode":"08359","locality":"Breitenbrunn/Erzgebirge","municipality":{"key":"14521110","name":"Breitenbrunn/Erzgeb.","type":"Kreisangehörige_Gemeinde"},"district":{"key":"14521","name":"Erzgebirgskreis","type":"Landkreis"},"federalState":{"key":"14","name":"Sachsen"}},{"name":"Steinbach","postalCode":"87739","locality":"Breitenbrunn","municipality":{"key":"09778121","name":"Breitenbrunn","type":"Kreisangehörige_Gemeinde"},"district":{"key":"09778","name":"Unterallgäu","type":"Landkreis"},"federalState":{"key":"09","name":"Bayern"}},{"name":"Steinbachweg","postalCode":"08359","locality":"Breitenbrunn/Erzgebirge","municipality":{"key":"14521110","name":"Breitenbrunn/Erzgeb.","type":"Kreisangehörige_Gemeinde"},"district":{"key":"14521","name":"Erzgebirgskreis","type":"Landkreis"},"federalState":{"key":"14","name":"Sachsen"}},{"name":"Steinheidel","postalCode":"08359","locality":"Breitenbrunn/Erzgebirge","municipality":{"key":"14521110","name":"Breitenbrunn/Erzgeb.","type":"Kreisangehörige_Gemeinde"},"district":{"key":"14521","name":"Erzgebirgskreis","type":"Landkreis"},"federalState":{"key":"14","name":"Sachsen"}},{"name":"Steinheidler Weg","postalCode":"08359","locality":"Breitenbrunn/Erzgebirge","municipality":{"key":"14521110","name":"Breitenbrunn/Erzgeb.","type":"Kreisangehörige_Gemeinde"},"district":{"key":"14521","name":"Erzgebirgskreis","type":"Landkreis"},"federalState":{"key":"14","name":"Sachsen"}},{"name":"Steinweg","postalCode":"08359","locality":"Breitenbrunn/Erzgebirge","municipality":{"key":"14521110","name":"Breitenbrunn/Erzgeb.","type":"Kreisangehörige_Gemeinde"},"district":{"key":"14521","name":"Erzgebirgskreis","type":"Landkreis"},"federalState":{"key":"14","name":"Sachsen"}},{"name":"Stöckelweg","postalCode":"08359","locality":"Breitenbrunn/Erzgebirge","municipality":{"key":"14521110","name":"Breitenbrunn/Erzgeb.","type":"Kreisangehörige_Gemeinde"},"district":{"key":"14521","name":"Erzgebirgskreis","type":"Landkreis"},"federalState":{"key":"14","name":"Sachsen"}},{"name":"Stockeracker","postalCode":"92363","locality":"Breitenbrunn","municipality":{"key":"09373115","name":"Breitenbrunn, M","type":"Markt"},"district":{"key":"09373","name":"Neumarkt i.d.OPf.","type":"Landkreis"},"federalState":{"key":"09","name":"Bayern"}},{"name":"Sudeten Weg","postalCode":"92363","locality":"Breitenbrunn","municipality":{"key":"09373115","name":"Breitenbrunn, M","type":"Markt"},"district":{"key":"09373","name":"Neumarkt i.d.OPf.","type":"Landkreis"},"federalState":{"key":"09","name":"Bayern"}},{"name":"Talstr.","postalCode":"08359","locality":"Breitenbrunn/Erzgebirge","municipality":{"key":"14521110","name":"Breitenbrunn/Erzgeb.","type":"Kreisangehörige_Gemeinde"},"district":{"key":"14521","name":"Erzgebirgskreis","type":"Landkreis"},"federalState":{"key":"14","name":"Sachsen"}},{"name":"Tannenweg","postalCode":"87739","locality":"Breitenbrunn","municipality":{"key":"09778121","name":"Breitenbrunn","type":"Kreisangehörige_Gemeinde"},"district":{"key":"09778","name":"Unterallgäu","type":"Landkreis"},"federalState":{"key":"09","name":"Bayern"}},{"name":"Tannenweg","postalCode":"92363","locality":"Breitenbrunn","municipality":{"key":"09373115","name":"Breitenbrunn, M","type":"Markt"},"district":{"key":"09373","name":"Neumarkt i.d.OPf.","type":"Landkreis"},"federalState":{"key":"09","name":"Bayern"}},{"name":"Thomas-Müntzer-Weg","postalCode":"08359","locality":"Breitenbrunn/Erzgebirge","municipality":{"key":"14521110","name":"Breitenbrunn/Erzgeb.","type":"Kreisangehörige_Gemeinde"},"district":{"key":"14521","name":"Erzgebirgskreis","type":"Landkreis"},"federalState":{"key":"14","name":"Sachsen"}},{"name":"Thüringer Weg","postalCode":"92363","locality":"Breitenbrunn","municipality":{"key":"09373115","name":"Breitenbrunn, M","type":"Markt"},"district":{"key":"09373","name":"Neumarkt i.d.OPf.","type":"Landkreis"},"federalState":{"key":"09","name":"Bayern"}},{"name":"Tränktrögelweg","postalCode":"08359","locality":"Breitenbrunn/Erzgebirge","municipality":{"key":"14521110","name":"Breitenbrunn/Erzgeb.","type":"Kreisangehörige_Gemeinde"},"district":{"key":"14521","name":"Erzgebirgskreis","type":"Landkreis"},"federalState":{"key":"14","name":"Sachsen"}},{"name":"Unterbürger Weg","postalCode":"92363","locality":"Breitenbrunn","municipality":{"key":"09373115","name":"Breitenbrunn, M","type":"Markt"},"district":{"key":"09373","name":"Neumarkt i.d.OPf.","type":"Landkreis"},"federalState":{"key":"09","name":"Bayern"}},{"name":"Unterer Reimertweg","postalCode":"08359","locality":"Breitenbrunn/Erzgebirge","municipality":{"key":"14521110","name":"Breitenbrunn/Erzgeb.","type":"Kreisangehörige_Gemeinde"},"district":{"key":"14521","name":"Erzgebirgskreis","type":"Landkreis"},"federalState":{"key":"14","name":"Sachsen"}},{"name":"Unterer Steinriegelweg","postalCode":"08359","locality":"Breitenbrunn/Erzgebirge","municipality":{"key":"14521110","name":"Breitenbrunn/Erzgeb.","type":"Kreisangehörige_Gemeinde"},"district":{"key":"14521","name":"Erzgebirgskreis","type":"Landkreis"},"federalState":{"key":"14","name":"Sachsen"}},{"name":"Verbindungsweg (KM)","postalCode":"92363","locality":"Breitenbrunn","municipality":{"key":"09373115","name":"Breitenbrunn, M","type":"Markt"},"district":{"key":"09373","name":"Neumarkt i.d.OPf.","type":"Landkreis"},"federalState":{"key":"09","name":"Bayern"}},{"name":"Vogelberg","postalCode":"08359","locality":"Breitenbrunn/Erzgebirge","municipality":{"key":"14521110","name":"Breitenbrunn/Erzgeb.","type":"Kreisangehörige_Gemeinde"},"district":{"key":"14521","name":"Erzgebirgskreis","type":"Landkreis"},"federalState":{"key":"14","name":"Sachsen"}},{"name":"Von-Tilly-Str.","postalCode":"92363","locality":"Breitenbrunn","municipality":{"key":"09373115","name":"Breitenbrunn, M","type":"Markt"},"district":{"key":"09373","name":"Neumarkt i.d.OPf.","type":"Landkreis"},"federalState":{"key":"09","name":"Bayern"}},{"name":"Vorderer Kohlweg","postalCode":"08359","locality":"Breitenbrunn/Erzgebirge","municipality":{"key":"14521110","name":"Breitenbrunn/Erzgeb.","type":"Kreisangehörige_Gemeinde"},"district":{"key":"14521","name":"Erzgebirgskreis","type":"Landkreis"},"federalState":{"key":"14","name":"Sachsen"}},{"name":"Waldgrabenweg","postalCode":"08359","locality":"Breitenbrunn/Erzgebirge","municipality":{"key":"14521110","name":"Breitenbrunn/Erzgeb.","type":"Kreisangehörige_Gemeinde"},"district":{"key":"14521","name":"Erzgebirgskreis","type":"Landkreis"},"federalState":{"key":"14","name":"Sachsen"}},{"name":"Waldstr.","postalCode":"08359","locality":"Breitenbrunn/Erzgebirge","municipality":{"key":"14521110","name":"Breitenbrunn/Erzgeb.","type":"Kreisangehörige_Gemeinde"},"district":{"key":"14521","name":"Erzgebirgskreis","type":"Landkreis"},"federalState":{"key":"14","name":"Sachsen"}},{"name":"Waldstr.","postalCode":"87739","locality":"Breitenbrunn","municipality":{"key":"09778121","name":"Breitenbrunn","type":"Kreisangehörige_Gemeinde"},"district":{"key":"09778","name":"Unterallgäu","type":"Landkreis"},"federalState":{"key":"09","name":"Bayern"}},{"name":"Waldweg","postalCode":"08359","locality":"Breitenbrunn/Erzgebirge","municipality":{"key":"14521110","name":"Breitenbrunn/Erzgeb.","type":"Kreisangehörige_Gemeinde"},"district":{"key":"14521","name":"Erzgebirgskreis","type":"Landkreis"},"federalState":{"key":"14","name":"Sachsen"}},{"name":"Wasserhausweg","postalCode":"87739","locality":"Breitenbrunn","municipality":{"key":"09778121","name":"Breitenbrunn","type":"Kreisangehörige_Gemeinde"},"district":{"key":"09778","name":"Unterallgäu","type":"Landkreis"},"federalState":{"key":"09","name":"Bayern"}},{"name":"Webergasse","postalCode":"92363","locality":"Breitenbrunn","municipality":{"key":"09373115","name":"Breitenbrunn, M","type":"Markt"},"district":{"key":"09373","name":"Neumarkt i.d.OPf.","type":"Landkreis"},"federalState":{"key":"09","name":"Bayern"}},{"name":"Weiherstr.","postalCode":"87739","locality":"Breitenbrunn","municipality":{"key":"09778121","name":"Breitenbrunn","type":"Kreisangehörige_Gemeinde"},"district":{"key":"09778","name":"Unterallgäu","type":"Landkreis"},"federalState":{"key":"09","name":"Bayern"}},{"name":"Weiherweg","postalCode":"87739","locality":"Breitenbrunn","municipality":{"key":"09778121","name":"Breitenbrunn","type":"Kreisangehörige_Gemeinde"},"district":{"key":"09778","name":"Unterallgäu","type":"Landkreis"},"federalState":{"key":"09","name":"Bayern"}},{"name":"Weilbacher Str.","postalCode":"87739","locality":"Breitenbrunn","municipality":{"key":"09778121","name":"Breitenbrunn","type":"Kreisangehörige_Gemeinde"},"district":{"key":"09778","name":"Unterallgäu","type":"Landkreis"},"federalState":{"key":"09","name":"Bayern"}},{"name":"Weilerstr.","postalCode":"87739","locality":"Breitenbrunn","municipality":{"key":"09778121","name":"Breitenbrunn","type":"Kreisangehörige_Gemeinde"},"district":{"key":"09778","name":"Unterallgäu","type":"Landkreis"},"federalState":{"key":"09","name":"Bayern"}},{"name":"Wiesengrund","postalCode":"92363","locality":"Breitenbrunn","municipality":{"key":"09373115","name":"Breitenbrunn, M","type":"Markt"},"district":{"key":"09373","name":"Neumarkt i.d.OPf.","type":"Landkreis"},"federalState":{"key":"09","name":"Bayern"}},{"name":"Wiesenweg","postalCode":"08359","locality":"Breitenbrunn/Erzgebirge","municipality":{"key":"14521110","name":"Breitenbrunn/Erzgeb.","type":"Kreisangehörige_Gemeinde"},"district":{"key":"14521","name":"Erzgebirgskreis","type":"Landkreis"},"federalState":{"key":"14","name":"Sachsen"}},{"name":"Wiesenweg","postalCode":"87739","locality":"Breitenbrunn","municipality":{"key":"09778121","name":"Breitenbrunn","type":"Kreisangehörige_Gemeinde"},"district":{"key":"09778","name":"Unterallgäu","type":"Landkreis"},"federalState":{"key":"09","name":"Bayern"}},{"name":"Wildetaubenflügel","postalCode":"08359","locality":"Breitenbrunn/Erzgebirge","municipality":{"key":"14521110","name":"Breitenbrunn/Erzgeb.","type":"Kreisangehörige_Gemeinde"},"district":{"key":"14521","name":"Erzgebirgskreis","type":"Landkreis"},"federalState":{"key":"14","name":"Sachsen"}},{"name":"Winner Str.","postalCode":"92363","locality":"Breitenbrunn","municipality":{"key":"09373115","name":"Breitenbrunn, M","type":"Markt"},"district":{"key":"09373","name":"Neumarkt i.d.OPf.","type":"Landkreis"},"federalState":{"key":"09","name":"Bayern"}},{"name":"Wirtsgasse","postalCode":"92363","locality":"Breitenbrunn","municipality":{"key":"09373115","name":"Breitenbrunn, M","type":"Markt"},"district":{"key":"09373","name":"Neumarkt i.d.OPf.","type":"Landkreis"},"federalState":{"key":"09","name":"Bayern"}},{"name":"Wissinger Str.","postalCode":"92363","locality":"Breitenbrunn","municipality":{"key":"09373115","name":"Breitenbrunn, M","type":"Markt"},"district":{"key":"09373","name":"Neumarkt i.d.OPf.","type":"Landkreis"},"federalState":{"key":"09","name":"Bayern"}},{"name":"Wissinger Weg","postalCode":"92363","locality":"Breitenbrunn","municipality":{"key":"09373115","name":"Breitenbrunn, M","type":"Markt"},"district":{"key":"09373","name":"Neumarkt i.d.OPf.","type":"Landkreis"},"federalState":{"key":"09","name":"Bayern"}},{"name":"Wolfertshofen","postalCode":"92363","locality":"Breitenbrunn","municipality":{"key":"09373115","name":"Breitenbrunn, M","type":"Markt"},"district":{"key":"09373","name":"Neumarkt i.d.OPf.","type":"Landkreis"},"federalState":{"key":"09","name":"Bayern"}},{"name":"Zainhammerstr.","postalCode":"08359","locality":"Breitenbrunn/Erzgebirge","municipality":{"key":"14521110","name":"Breitenbrunn/Erzgeb.","type":"Kreisangehörige_Gemeinde"},"district":{"key":"14521","name":"Erzgebirgskreis","type":"Landkreis"},"federalState":{"key":"14","name":"Sachsen"}},{"name":"Zinnweg","postalCode":"08359","locality":"Breitenbrunn/Erzgebirge","municipality":{"key":"14521110","name":"Breitenbrunn/Erzgeb.","type":"Kreisangehörige_Gemeinde"},"district":{"key":"14521","name":"Erzgebirgskreis","type":"Landkreis"},"federalState":{"key":"14","name":"Sachsen"}},{"name":"Zollstr.","postalCode":"08359","locality":"Breitenbrunn/Erzgebirge","municipality":{"key":"14521110","name":"Breitenbrunn/Erzgeb.","type":"Kreisangehörige_Gemeinde"},"district":{"key":"14521","name":"Erzgebirgskreis","type":"Landkreis"},"federalState":{"key":"14","name":"Sachsen"}},{"name":"Zufahrt Erzgebirgsferienwohnung Tino Götz","postalCode":"08359","locality":"Breitenbrunn/Erzgebirge","municipality":{"key":"14521110","name":"Breitenbrunn/Erzgeb.","type":"Kreisangehörige_Gemeinde"},"district":{"key":"14521","name":"Erzgebirgskreis","type":"Landkreis"},"federalState":{"key":"14","name":"Sachsen"}},{"name":"Zum Heutal","postalCode":"92363","locality":"Breitenbrunn","municipality":{"key":"09373115","name":"Breitenbrunn, M","type":"Markt"},"district":{"key":"09373","name":"Neumarkt i.d.OPf.","type":"Landkreis"},"federalState":{"key":"09","name":"Bayern"}},{"name":"Zur Gärtnerei","postalCode":"08359","locality":"Breitenbrunn/Erzgebirge","municipality":{"key":"14521110","name":"Breitenbrunn/Erzgeb.","type":"Kreisangehörige_Gemeinde"},"district":{"key":"14521","name":"Erzgebirgskreis","type":"Landkreis"},"federalState":{"key":"14","name":"Sachsen"}},{"name":"Zur Jugendherberge","postalCode":"08359","locality":"Breitenbrunn/Erzgebirge","municipality":{"key":"14521110","name":"Breitenbrunn/Erzgeb.","type":"Kreisangehörige_Gemeinde"},"district":{"key":"14521","name":"Erzgebirgskreis","type":"Landkreis"},"federalState":{"key":"14","name":"Sachsen"}},{"name":"Ödberg","postalCode":"92363","locality":"Breitenbrunn","municipality":{"key":"09373115","name":"Breitenbrunn, M","type":"Markt"},"district":{"key":"09373","name":"Neumarkt i.d.OPf.","type":"Landkreis"},"federalState":{"key":"09","name":"Bayern"}},{"name":"Ödenhaid","postalCode":"92363","locality":"Breitenbrunn","municipality":{"key":"09373115","name":"Breitenbrunn, M","type":"Markt"},"district":{"key":"09373","name":"Neumarkt i.d.OPf.","type":"Landkreis"},"federalState":{"key":"09","name":"Bayern"}},]