[{"name":"Alsfelder Str.","postalCode":"36318","locality":"Schwalmtal","municipality":{"key":"06535017","name":"Schwalmtal","type":"Kreisangehörige_Gemeinde"},"district":{"key":"06535","name":"Vogelsbergkreis","type":"Landkreis"},"federalState":{"key":"06","name":"Hessen"}},{"name":"Alsfelder Weg","postalCode":"36318","locality":"Schwalmtal","municipality":{"key":"06535017","name":"Schwalmtal","type":"Kreisangehörige_Gemeinde"},"district":{"key":"06535","name":"Vogelsbergkreis","type":"Landkreis"},"federalState":{"key":"06","name":"Hessen"}},{"name":"Altenburger Weg","postalCode":"36318","locality":"Schwalmtal","municipality":{"key":"06535017","name":"Schwalmtal","type":"Kreisangehörige_Gemeinde"},"district":{"key":"06535","name":"Vogelsbergkreis","type":"Landkreis"},"federalState":{"key":"06","name":"Hessen"}},{"name":"Alter Alsfelder Weg","postalCode":"36318","locality":"Schwalmtal","municipality":{"key":"06535017","name":"Schwalmtal","type":"Kreisangehörige_Gemeinde"},"district":{"key":"06535","name":"Vogelsbergkreis","type":"Landkreis"},"federalState":{"key":"06","name":"Hessen"}},{"name":"Am Bachgarten","postalCode":"36318","locality":"Schwalmtal","municipality":{"key":"06535017","name":"Schwalmtal","type":"Kreisangehörige_Gemeinde"},"district":{"key":"06535","name":"Vogelsbergkreis","type":"Landkreis"},"federalState":{"key":"06","name":"Hessen"}},{"name":"Am Bahnhof","postalCode":"36318","locality":"Schwalmtal","municipality":{"key":"06535017","name":"Schwalmtal","type":"Kreisangehörige_Gemeinde"},"district":{"key":"06535","name":"Vogelsbergkreis","type":"Landkreis"},"federalState":{"key":"06","name":"Hessen"}},{"name":"Am Berg","postalCode":"36318","locality":"Schwalmtal","municipality":{"key":"06535017","name":"Schwalmtal","type":"Kreisangehörige_Gemeinde"},"district":{"key":"06535","name":"Vogelsbergkreis","type":"Landkreis"},"federalState":{"key":"06","name":"Hessen"}},{"name":"Am Bergacker","postalCode":"36318","locality":"Schwalmtal","municipality":{"key":"06535017","name":"Schwalmtal","type":"Kreisangehörige_Gemeinde"},"district":{"key":"06535","name":"Vogelsbergkreis","type":"Landkreis"},"federalState":{"key":"06","name":"Hessen"}},{"name":"Am Bergerpesch","postalCode":"41366","locality":"Schwalmtal","municipality":{"key":"05166024","name":"Schwalmtal","type":"Kreisangehörige_Gemeinde"},"district":{"key":"05166","name":"Viersen","type":"Kreis"},"federalState":{"key":"05","name":"Nordrhein-Westfalen"}},{"name":"Am Blauenstein","postalCode":"41366","locality":"Schwalmtal","municipality":{"key":"05166024","name":"Schwalmtal","type":"Kreisangehörige_Gemeinde"},"district":{"key":"05166","name":"Viersen","type":"Kreis"},"federalState":{"key":"05","name":"Nordrhein-Westfalen"}},{"name":"Am Bornpflaster","postalCode":"36318","locality":"Schwalmtal","municipality":{"key":"06535017","name":"Schwalmtal","type":"Kreisangehörige_Gemeinde"},"district":{"key":"06535","name":"Vogelsbergkreis","type":"Landkreis"},"federalState":{"key":"06","name":"Hessen"}},{"name":"Am Brunkelskeller","postalCode":"36318","locality":"Schwalmtal","municipality":{"key":"06535017","name":"Schwalmtal","type":"Kreisangehörige_Gemeinde"},"district":{"key":"06535","name":"Vogelsbergkreis","type":"Landkreis"},"federalState":{"key":"06","name":"Hessen"}},{"name":"Am Dorfweiher","postalCode":"41366","locality":"Schwalmtal","municipality":{"key":"05166024","name":"Schwalmtal","type":"Kreisangehörige_Gemeinde"},"district":{"key":"05166","name":"Viersen","type":"Kreis"},"federalState":{"key":"05","name":"Nordrhein-Westfalen"}},{"name":"Amerner Benden","postalCode":"41366","locality":"Schwalmtal","municipality":{"key":"05166024","name":"Schwalmtal","type":"Kreisangehörige_Gemeinde"},"district":{"key":"05166","name":"Viersen","type":"Kreis"},"federalState":{"key":"05","name":"Nordrhein-Westfalen"}},{"name":"Amerner Str.","postalCode":"41366","locality":"Schwalmtal","municipality":{"key":"05166024","name":"Schwalmtal","type":"Kreisangehörige_Gemeinde"},"district":{"key":"05166","name":"Viersen","type":"Kreis"},"federalState":{"key":"05","name":"Nordrhein-Westfalen"}},{"name":"Am Forstamt","postalCode":"36318","locality":"Schwalmtal","municipality":{"key":"06535017","name":"Schwalmtal","type":"Kreisangehörige_Gemeinde"},"district":{"key":"06535","name":"Vogelsbergkreis","type":"Landkreis"},"federalState":{"key":"06","name":"Hessen"}},{"name":"Am Gassenacker","postalCode":"36318","locality":"Schwalmtal","municipality":{"key":"06535017","name":"Schwalmtal","type":"Kreisangehörige_Gemeinde"},"district":{"key":"06535","name":"Vogelsbergkreis","type":"Landkreis"},"federalState":{"key":"06","name":"Hessen"}},{"name":"Am Gefrierhaus","postalCode":"36318","locality":"Schwalmtal","municipality":{"key":"06535017","name":"Schwalmtal","type":"Kreisangehörige_Gemeinde"},"district":{"key":"06535","name":"Vogelsbergkreis","type":"Landkreis"},"federalState":{"key":"06","name":"Hessen"}},{"name":"Am Grohacker","postalCode":"36318","locality":"Schwalmtal","municipality":{"key":"06535017","name":"Schwalmtal","type":"Kreisangehörige_Gemeinde"},"district":{"key":"06535","name":"Vogelsbergkreis","type":"Landkreis"},"federalState":{"key":"06","name":"Hessen"}},{"name":"Am Hachberg","postalCode":"36318","locality":"Schwalmtal","municipality":{"key":"06535017","name":"Schwalmtal","type":"Kreisangehörige_Gemeinde"},"district":{"key":"06535","name":"Vogelsbergkreis","type":"Landkreis"},"federalState":{"key":"06","name":"Hessen"}},{"name":"Am Hohen Rain","postalCode":"36318","locality":"Schwalmtal","municipality":{"key":"06535017","name":"Schwalmtal","type":"Kreisangehörige_Gemeinde"},"district":{"key":"06535","name":"Vogelsbergkreis","type":"Landkreis"},"federalState":{"key":"06","name":"Hessen"}},{"name":"Am Johannesgarten","postalCode":"36318","locality":"Schwalmtal","municipality":{"key":"06535017","name":"Schwalmtal","type":"Kreisangehörige_Gemeinde"},"district":{"key":"06535","name":"Vogelsbergkreis","type":"Landkreis"},"federalState":{"key":"06","name":"Hessen"}},{"name":"Am Kiesfeld","postalCode":"36318","locality":"Schwalmtal","municipality":{"key":"06535017","name":"Schwalmtal","type":"Kreisangehörige_Gemeinde"},"district":{"key":"06535","name":"Vogelsbergkreis","type":"Landkreis"},"federalState":{"key":"06","name":"Hessen"}},{"name":"Am Kirschgarten","postalCode":"36318","locality":"Schwalmtal","municipality":{"key":"06535017","name":"Schwalmtal","type":"Kreisangehörige_Gemeinde"},"district":{"key":"06535","name":"Vogelsbergkreis","type":"Landkreis"},"federalState":{"key":"06","name":"Hessen"}},{"name":"Am Kornhaus","postalCode":"36318","locality":"Schwalmtal","municipality":{"key":"06535017","name":"Schwalmtal","type":"Kreisangehörige_Gemeinde"},"district":{"key":"06535","name":"Vogelsbergkreis","type":"Landkreis"},"federalState":{"key":"06","name":"Hessen"}},{"name":"Am Nottbäumchen","postalCode":"41366","locality":"Schwalmtal","municipality":{"key":"05166024","name":"Schwalmtal","type":"Kreisangehörige_Gemeinde"},"district":{"key":"05166","name":"Viersen","type":"Kreis"},"federalState":{"key":"05","name":"Nordrhein-Westfalen"}},{"name":"Am Rodengarten","postalCode":"36318","locality":"Schwalmtal","municipality":{"key":"06535017","name":"Schwalmtal","type":"Kreisangehörige_Gemeinde"},"district":{"key":"06535","name":"Vogelsbergkreis","type":"Landkreis"},"federalState":{"key":"06","name":"Hessen"}},{"name":"Am Rodgarten","postalCode":"36318","locality":"Schwalmtal","municipality":{"key":"06535017","name":"Schwalmtal","type":"Kreisangehörige_Gemeinde"},"district":{"key":"06535","name":"Vogelsbergkreis","type":"Landkreis"},"federalState":{"key":"06","name":"Hessen"}},{"name":"Am Schuhgrundsbach","postalCode":"36318","locality":"Schwalmtal","municipality":{"key":"06535017","name":"Schwalmtal","type":"Kreisangehörige_Gemeinde"},"district":{"key":"06535","name":"Vogelsbergkreis","type":"Landkreis"},"federalState":{"key":"06","name":"Hessen"}},{"name":"Amselweg","postalCode":"41366","locality":"Schwalmtal","municipality":{"key":"05166024","name":"Schwalmtal","type":"Kreisangehörige_Gemeinde"},"district":{"key":"05166","name":"Viersen","type":"Kreis"},"federalState":{"key":"05","name":"Nordrhein-Westfalen"}},{"name":"Am Stein","postalCode":"36318","locality":"Schwalmtal","municipality":{"key":"06535017","name":"Schwalmtal","type":"Kreisangehörige_Gemeinde"},"district":{"key":"06535","name":"Vogelsbergkreis","type":"Landkreis"},"federalState":{"key":"06","name":"Hessen"}},{"name":"Am Stollhof","postalCode":"36318","locality":"Schwalmtal","municipality":{"key":"06535017","name":"Schwalmtal","type":"Kreisangehörige_Gemeinde"},"district":{"key":"06535","name":"Vogelsbergkreis","type":"Landkreis"},"federalState":{"key":"06","name":"Hessen"}},{"name":"Am Teichdamm","postalCode":"36318","locality":"Schwalmtal","municipality":{"key":"06535017","name":"Schwalmtal","type":"Kreisangehörige_Gemeinde"},"district":{"key":"06535","name":"Vogelsbergkreis","type":"Landkreis"},"federalState":{"key":"06","name":"Hessen"}},{"name":"Am Triesch","postalCode":"36318","locality":"Schwalmtal","municipality":{"key":"06535017","name":"Schwalmtal","type":"Kreisangehörige_Gemeinde"},"district":{"key":"06535","name":"Vogelsbergkreis","type":"Landkreis"},"federalState":{"key":"06","name":"Hessen"}},{"name":"Am Wasser","postalCode":"36318","locality":"Schwalmtal","municipality":{"key":"06535017","name":"Schwalmtal","type":"Kreisangehörige_Gemeinde"},"district":{"key":"06535","name":"Vogelsbergkreis","type":"Landkreis"},"federalState":{"key":"06","name":"Hessen"}},{"name":"Am Wieshof","postalCode":"36318","locality":"Schwalmtal","municipality":{"key":"06535017","name":"Schwalmtal","type":"Kreisangehörige_Gemeinde"},"district":{"key":"06535","name":"Vogelsbergkreis","type":"Landkreis"},"federalState":{"key":"06","name":"Hessen"}},{"name":"Am Zoppenberg","postalCode":"41366","locality":"Schwalmtal","municipality":{"key":"05166024","name":"Schwalmtal","type":"Kreisangehörige_Gemeinde"},"district":{"key":"05166","name":"Viersen","type":"Kreis"},"federalState":{"key":"05","name":"Nordrhein-Westfalen"}},{"name":"An der Alten Schule","postalCode":"36318","locality":"Schwalmtal","municipality":{"key":"06535017","name":"Schwalmtal","type":"Kreisangehörige_Gemeinde"},"district":{"key":"06535","name":"Vogelsbergkreis","type":"Landkreis"},"federalState":{"key":"06","name":"Hessen"}},{"name":"An der Bergwiese","postalCode":"36318","locality":"Schwalmtal","municipality":{"key":"06535017","name":"Schwalmtal","type":"Kreisangehörige_Gemeinde"},"district":{"key":"06535","name":"Vogelsbergkreis","type":"Landkreis"},"federalState":{"key":"06","name":"Hessen"}},{"name":"An der Hausermühle","postalCode":"41366","locality":"Schwalmtal","municipality":{"key":"05166024","name":"Schwalmtal","type":"Kreisangehörige_Gemeinde"},"district":{"key":"05166","name":"Viersen","type":"Kreis"},"federalState":{"key":"05","name":"Nordrhein-Westfalen"}},{"name":"An der Hohl","postalCode":"36318","locality":"Schwalmtal","municipality":{"key":"06535017","name":"Schwalmtal","type":"Kreisangehörige_Gemeinde"},"district":{"key":"06535","name":"Vogelsbergkreis","type":"Landkreis"},"federalState":{"key":"06","name":"Hessen"}},{"name":"An der Kuhtrift","postalCode":"36318","locality":"Schwalmtal","municipality":{"key":"06535017","name":"Schwalmtal","type":"Kreisangehörige_Gemeinde"},"district":{"key":"06535","name":"Vogelsbergkreis","type":"Landkreis"},"federalState":{"key":"06","name":"Hessen"}},{"name":"An der Schomm","postalCode":"41366","locality":"Schwalmtal","municipality":{"key":"05166024","name":"Schwalmtal","type":"Kreisangehörige_Gemeinde"},"district":{"key":"05166","name":"Viersen","type":"Kreis"},"federalState":{"key":"05","name":"Nordrhein-Westfalen"}},{"name":"An Haus Clee","postalCode":"41366","locality":"Schwalmtal","municipality":{"key":"05166024","name":"Schwalmtal","type":"Kreisangehörige_Gemeinde"},"district":{"key":"05166","name":"Viersen","type":"Kreis"},"federalState":{"key":"05","name":"Nordrhein-Westfalen"}},{"name":"An St. Anton","postalCode":"41366","locality":"Schwalmtal","municipality":{"key":"05166024","name":"Schwalmtal","type":"Kreisangehörige_Gemeinde"},"district":{"key":"05166","name":"Viersen","type":"Kreis"},"federalState":{"key":"05","name":"Nordrhein-Westfalen"}},{"name":"An St. Georg","postalCode":"41366","locality":"Schwalmtal","municipality":{"key":"05166024","name":"Schwalmtal","type":"Kreisangehörige_Gemeinde"},"district":{"key":"05166","name":"Viersen","type":"Kreis"},"federalState":{"key":"05","name":"Nordrhein-Westfalen"}},{"name":"Antoniusstr.","postalCode":"41366","locality":"Schwalmtal","municipality":{"key":"05166024","name":"Schwalmtal","type":"Kreisangehörige_Gemeinde"},"district":{"key":"05166","name":"Viersen","type":"Kreis"},"federalState":{"key":"05","name":"Nordrhein-Westfalen"}},{"name":"Atzeltrift","postalCode":"36318","locality":"Schwalmtal","municipality":{"key":"06535017","name":"Schwalmtal","type":"Kreisangehörige_Gemeinde"},"district":{"key":"06535","name":"Vogelsbergkreis","type":"Landkreis"},"federalState":{"key":"06","name":"Hessen"}},{"name":"Auerbach Str.","postalCode":"36318","locality":"Schwalmtal","municipality":{"key":"06535017","name":"Schwalmtal","type":"Kreisangehörige_Gemeinde"},"district":{"key":"06535","name":"Vogelsbergkreis","type":"Landkreis"},"federalState":{"key":"06","name":"Hessen"}},{"name":"Außenliegend","postalCode":"36318","locality":"Schwalmtal","municipality":{"key":"06535017","name":"Schwalmtal","type":"Kreisangehörige_Gemeinde"},"district":{"key":"06535","name":"Vogelsbergkreis","type":"Landkreis"},"federalState":{"key":"06","name":"Hessen"}},{"name":"Backhausweg","postalCode":"36318","locality":"Schwalmtal","municipality":{"key":"06535017","name":"Schwalmtal","type":"Kreisangehörige_Gemeinde"},"district":{"key":"06535","name":"Vogelsbergkreis","type":"Landkreis"},"federalState":{"key":"06","name":"Hessen"}},{"name":"Bahnhofstr.","postalCode":"41366","locality":"Schwalmtal","municipality":{"key":"05166024","name":"Schwalmtal","type":"Kreisangehörige_Gemeinde"},"district":{"key":"05166","name":"Viersen","type":"Kreis"},"federalState":{"key":"05","name":"Nordrhein-Westfalen"}},{"name":"Bahnstr.","postalCode":"41366","locality":"Schwalmtal","municipality":{"key":"05166024","name":"Schwalmtal","type":"Kreisangehörige_Gemeinde"},"district":{"key":"05166","name":"Viersen","type":"Kreis"},"federalState":{"key":"05","name":"Nordrhein-Westfalen"}},{"name":"Bärgartenweg","postalCode":"36318","locality":"Schwalmtal","municipality":{"key":"06535017","name":"Schwalmtal","type":"Kreisangehörige_Gemeinde"},"district":{"key":"06535","name":"Vogelsbergkreis","type":"Landkreis"},"federalState":{"key":"06","name":"Hessen"}},{"name":"Bärlauchweg","postalCode":"41366","locality":"Schwalmtal","municipality":{"key":"05166024","name":"Schwalmtal","type":"Kreisangehörige_Gemeinde"},"district":{"key":"05166","name":"Viersen","type":"Kreis"},"federalState":{"key":"05","name":"Nordrhein-Westfalen"}},{"name":"Bauernwaldweg","postalCode":"36318","locality":"Schwalmtal","municipality":{"key":"06535017","name":"Schwalmtal","type":"Kreisangehörige_Gemeinde"},"district":{"key":"06535","name":"Vogelsbergkreis","type":"Landkreis"},"federalState":{"key":"06","name":"Hessen"}},{"name":"Beethovenstr.","postalCode":"41366","locality":"Schwalmtal","municipality":{"key":"05166024","name":"Schwalmtal","type":"Kreisangehörige_Gemeinde"},"district":{"key":"05166","name":"Viersen","type":"Kreis"},"federalState":{"key":"05","name":"Nordrhein-Westfalen"}},{"name":"Berg","postalCode":"41366","locality":"Schwalmtal","municipality":{"key":"05166024","name":"Schwalmtal","type":"Kreisangehörige_Gemeinde"},"district":{"key":"05166","name":"Viersen","type":"Kreis"},"federalState":{"key":"05","name":"Nordrhein-Westfalen"}},{"name":"Bergstr.","postalCode":"36318","locality":"Schwalmtal","municipality":{"key":"06535017","name":"Schwalmtal","type":"Kreisangehörige_Gemeinde"},"district":{"key":"06535","name":"Vogelsbergkreis","type":"Landkreis"},"federalState":{"key":"06","name":"Hessen"}},{"name":"Bergweg","postalCode":"36318","locality":"Schwalmtal","municipality":{"key":"06535017","name":"Schwalmtal","type":"Kreisangehörige_Gemeinde"},"district":{"key":"06535","name":"Vogelsbergkreis","type":"Landkreis"},"federalState":{"key":"06","name":"Hessen"}},{"name":"Bernhard-Rösler-Str.","postalCode":"41366","locality":"Schwalmtal","municipality":{"key":"05166024","name":"Schwalmtal","type":"Kreisangehörige_Gemeinde"},"district":{"key":"05166","name":"Viersen","type":"Kreis"},"federalState":{"key":"05","name":"Nordrhein-Westfalen"}},{"name":"Bienweg","postalCode":"36318","locality":"Schwalmtal","municipality":{"key":"06535017","name":"Schwalmtal","type":"Kreisangehörige_Gemeinde"},"district":{"key":"06535","name":"Vogelsbergkreis","type":"Landkreis"},"federalState":{"key":"06","name":"Hessen"}},{"name":"Birgen","postalCode":"41366","locality":"Schwalmtal","municipality":{"key":"05166024","name":"Schwalmtal","type":"Kreisangehörige_Gemeinde"},"district":{"key":"05166","name":"Viersen","type":"Kreis"},"federalState":{"key":"05","name":"Nordrhein-Westfalen"}},{"name":"Birkenweg","postalCode":"41366","locality":"Schwalmtal","municipality":{"key":"05166024","name":"Schwalmtal","type":"Kreisangehörige_Gemeinde"},"district":{"key":"05166","name":"Viersen","type":"Kreis"},"federalState":{"key":"05","name":"Nordrhein-Westfalen"}},{"name":"Bleichwall","postalCode":"41366","locality":"Schwalmtal","municipality":{"key":"05166024","name":"Schwalmtal","type":"Kreisangehörige_Gemeinde"},"district":{"key":"05166","name":"Viersen","type":"Kreis"},"federalState":{"key":"05","name":"Nordrhein-Westfalen"}},{"name":"Bodenwiesenweg","postalCode":"36318","locality":"Schwalmtal","municipality":{"key":"06535017","name":"Schwalmtal","type":"Kreisangehörige_Gemeinde"},"district":{"key":"06535","name":"Vogelsbergkreis","type":"Landkreis"},"federalState":{"key":"06","name":"Hessen"}},{"name":"Boisheimer Str.","postalCode":"41366","locality":"Schwalmtal","municipality":{"key":"05166024","name":"Schwalmtal","type":"Kreisangehörige_Gemeinde"},"district":{"key":"05166","name":"Viersen","type":"Kreis"},"federalState":{"key":"05","name":"Nordrhein-Westfalen"}},{"name":"Borngasse","postalCode":"36318","locality":"Schwalmtal","municipality":{"key":"06535017","name":"Schwalmtal","type":"Kreisangehörige_Gemeinde"},"district":{"key":"06535","name":"Vogelsbergkreis","type":"Landkreis"},"federalState":{"key":"06","name":"Hessen"}},{"name":"Bornwiesenweg","postalCode":"36318","locality":"Schwalmtal","municipality":{"key":"06535017","name":"Schwalmtal","type":"Kreisangehörige_Gemeinde"},"district":{"key":"06535","name":"Vogelsbergkreis","type":"Landkreis"},"federalState":{"key":"06","name":"Hessen"}},{"name":"Brauerschwender Str.","postalCode":"36318","locality":"Schwalmtal","municipality":{"key":"06535017","name":"Schwalmtal","type":"Kreisangehörige_Gemeinde"},"district":{"key":"06535","name":"Vogelsbergkreis","type":"Landkreis"},"federalState":{"key":"06","name":"Hessen"}},{"name":"Brauerschwender Weg","postalCode":"36318","locality":"Schwalmtal","municipality":{"key":"06535017","name":"Schwalmtal","type":"Kreisangehörige_Gemeinde"},"district":{"key":"06535","name":"Vogelsbergkreis","type":"Landkreis"},"federalState":{"key":"06","name":"Hessen"}},{"name":"Breslauer Str.","postalCode":"41366","locality":"Schwalmtal","municipality":{"key":"05166024","name":"Schwalmtal","type":"Kreisangehörige_Gemeinde"},"district":{"key":"05166","name":"Viersen","type":"Kreis"},"federalState":{"key":"05","name":"Nordrhein-Westfalen"}},{"name":"Bruchweg","postalCode":"41366","locality":"Schwalmtal","municipality":{"key":"05166024","name":"Schwalmtal","type":"Kreisangehörige_Gemeinde"},"district":{"key":"05166","name":"Viersen","type":"Kreis"},"federalState":{"key":"05","name":"Nordrhein-Westfalen"}},{"name":"Brückenwiesenweg","postalCode":"36318","locality":"Schwalmtal","municipality":{"key":"06535017","name":"Schwalmtal","type":"Kreisangehörige_Gemeinde"},"district":{"key":"06535","name":"Vogelsbergkreis","type":"Landkreis"},"federalState":{"key":"06","name":"Hessen"}},{"name":"Brüggener Hütte","postalCode":"41366","locality":"Schwalmtal","municipality":{"key":"05166024","name":"Schwalmtal","type":"Kreisangehörige_Gemeinde"},"district":{"key":"05166","name":"Viersen","type":"Kreis"},"federalState":{"key":"05","name":"Nordrhein-Westfalen"}},{"name":"Brüggener Weg","postalCode":"41366","locality":"Schwalmtal","municipality":{"key":"05166024","name":"Schwalmtal","type":"Kreisangehörige_Gemeinde"},"district":{"key":"05166","name":"Viersen","type":"Kreis"},"federalState":{"key":"05","name":"Nordrhein-Westfalen"}},{"name":"Brunkelsfeld","postalCode":"36318","locality":"Schwalmtal","municipality":{"key":"06535017","name":"Schwalmtal","type":"Kreisangehörige_Gemeinde"},"district":{"key":"06535","name":"Vogelsbergkreis","type":"Landkreis"},"federalState":{"key":"06","name":"Hessen"}},{"name":"Brunkelsweg","postalCode":"36318","locality":"Schwalmtal","municipality":{"key":"06535017","name":"Schwalmtal","type":"Kreisangehörige_Gemeinde"},"district":{"key":"06535","name":"Vogelsbergkreis","type":"Landkreis"},"federalState":{"key":"06","name":"Hessen"}},{"name":"Brunnenstr.","postalCode":"41366","locality":"Schwalmtal","municipality":{"key":"05166024","name":"Schwalmtal","type":"Kreisangehörige_Gemeinde"},"district":{"key":"05166","name":"Viersen","type":"Kreis"},"federalState":{"key":"05","name":"Nordrhein-Westfalen"}},{"name":"Buchenstr.","postalCode":"41366","locality":"Schwalmtal","municipality":{"key":"05166024","name":"Schwalmtal","type":"Kreisangehörige_Gemeinde"},"district":{"key":"05166","name":"Viersen","type":"Kreis"},"federalState":{"key":"05","name":"Nordrhein-Westfalen"}},{"name":"Cahn-Weg","postalCode":"41366","locality":"Schwalmtal","municipality":{"key":"05166024","name":"Schwalmtal","type":"Kreisangehörige_Gemeinde"},"district":{"key":"05166","name":"Viersen","type":"Kreis"},"federalState":{"key":"05","name":"Nordrhein-Westfalen"}},{"name":"Dahlienweg","postalCode":"41366","locality":"Schwalmtal","municipality":{"key":"05166024","name":"Schwalmtal","type":"Kreisangehörige_Gemeinde"},"district":{"key":"05166","name":"Viersen","type":"Kreis"},"federalState":{"key":"05","name":"Nordrhein-Westfalen"}},{"name":"Danziger Str.","postalCode":"41366","locality":"Schwalmtal","municipality":{"key":"05166024","name":"Schwalmtal","type":"Kreisangehörige_Gemeinde"},"district":{"key":"05166","name":"Viersen","type":"Kreis"},"federalState":{"key":"05","name":"Nordrhein-Westfalen"}},{"name":"Dietrich-Bonhoeffer-Str.","postalCode":"41366","locality":"Schwalmtal","municipality":{"key":"05166024","name":"Schwalmtal","type":"Kreisangehörige_Gemeinde"},"district":{"key":"05166","name":"Viersen","type":"Kreis"},"federalState":{"key":"05","name":"Nordrhein-Westfalen"}},{"name":"Dillweg","postalCode":"41366","locality":"Schwalmtal","municipality":{"key":"05166024","name":"Schwalmtal","type":"Kreisangehörige_Gemeinde"},"district":{"key":"05166","name":"Viersen","type":"Kreis"},"federalState":{"key":"05","name":"Nordrhein-Westfalen"}},{"name":"Dopbusch","postalCode":"41366","locality":"Schwalmtal","municipality":{"key":"05166024","name":"Schwalmtal","type":"Kreisangehörige_Gemeinde"},"district":{"key":"05166","name":"Viersen","type":"Kreis"},"federalState":{"key":"05","name":"Nordrhein-Westfalen"}},{"name":"Dorffeld","postalCode":"41366","locality":"Schwalmtal","municipality":{"key":"05166024","name":"Schwalmtal","type":"Kreisangehörige_Gemeinde"},"district":{"key":"05166","name":"Viersen","type":"Kreis"},"federalState":{"key":"05","name":"Nordrhein-Westfalen"}},{"name":"Dorfstr.","postalCode":"41366","locality":"Schwalmtal","municipality":{"key":"05166024","name":"Schwalmtal","type":"Kreisangehörige_Gemeinde"},"district":{"key":"05166","name":"Viersen","type":"Kreis"},"federalState":{"key":"05","name":"Nordrhein-Westfalen"}},{"name":"Dresdner Str.","postalCode":"41366","locality":"Schwalmtal","municipality":{"key":"05166024","name":"Schwalmtal","type":"Kreisangehörige_Gemeinde"},"district":{"key":"05166","name":"Viersen","type":"Kreis"},"federalState":{"key":"05","name":"Nordrhein-Westfalen"}},{"name":"Dülkener Str.","postalCode":"41366","locality":"Schwalmtal","municipality":{"key":"05166024","name":"Schwalmtal","type":"Kreisangehörige_Gemeinde"},"district":{"key":"05166","name":"Viersen","type":"Kreis"},"federalState":{"key":"05","name":"Nordrhein-Westfalen"}},{"name":"Ecke","postalCode":"36318","locality":"Schwalmtal","municipality":{"key":"06535017","name":"Schwalmtal","type":"Kreisangehörige_Gemeinde"},"district":{"key":"06535","name":"Vogelsbergkreis","type":"Landkreis"},"federalState":{"key":"06","name":"Hessen"}},{"name":"Eichendorffstr.","postalCode":"41366","locality":"Schwalmtal","municipality":{"key":"05166024","name":"Schwalmtal","type":"Kreisangehörige_Gemeinde"},"district":{"key":"05166","name":"Viersen","type":"Kreis"},"federalState":{"key":"05","name":"Nordrhein-Westfalen"}},{"name":"Eichenweg","postalCode":"36318","locality":"Schwalmtal","municipality":{"key":"06535017","name":"Schwalmtal","type":"Kreisangehörige_Gemeinde"},"district":{"key":"06535","name":"Vogelsbergkreis","type":"Landkreis"},"federalState":{"key":"06","name":"Hessen"}},{"name":"Eichenweg","postalCode":"41366","locality":"Schwalmtal","municipality":{"key":"05166024","name":"Schwalmtal","type":"Kreisangehörige_Gemeinde"},"district":{"key":"05166","name":"Viersen","type":"Kreis"},"federalState":{"key":"05","name":"Nordrhein-Westfalen"}},{"name":"Eicken","postalCode":"41366","locality":"Schwalmtal","municipality":{"key":"05166024","name":"Schwalmtal","type":"Kreisangehörige_Gemeinde"},"district":{"key":"05166","name":"Viersen","type":"Kreis"},"federalState":{"key":"05","name":"Nordrhein-Westfalen"}},{"name":"Eickener Str.","postalCode":"41366","locality":"Schwalmtal","municipality":{"key":"05166024","name":"Schwalmtal","type":"Kreisangehörige_Gemeinde"},"district":{"key":"05166","name":"Viersen","type":"Kreis"},"federalState":{"key":"05","name":"Nordrhein-Westfalen"}},{"name":"Eifaer Str.","postalCode":"36318","locality":"Schwalmtal","municipality":{"key":"06535017","name":"Schwalmtal","type":"Kreisangehörige_Gemeinde"},"district":{"key":"06535","name":"Vogelsbergkreis","type":"Landkreis"},"federalState":{"key":"06","name":"Hessen"}},{"name":"Elisabeth-Rösler-Str.","postalCode":"41366","locality":"Schwalmtal","municipality":{"key":"05166024","name":"Schwalmtal","type":"Kreisangehörige_Gemeinde"},"district":{"key":"05166","name":"Viersen","type":"Kreis"},"federalState":{"key":"05","name":"Nordrhein-Westfalen"}},{"name":"End","postalCode":"41366","locality":"Schwalmtal","municipality":{"key":"05166024","name":"Schwalmtal","type":"Kreisangehörige_Gemeinde"},"district":{"key":"05166","name":"Viersen","type":"Kreis"},"federalState":{"key":"05","name":"Nordrhein-Westfalen"}},{"name":"Erlenweg","postalCode":"36318","locality":"Schwalmtal","municipality":{"key":"06535017","name":"Schwalmtal","type":"Kreisangehörige_Gemeinde"},"district":{"key":"06535","name":"Vogelsbergkreis","type":"Landkreis"},"federalState":{"key":"06","name":"Hessen"}},{"name":"Eschenrath","postalCode":"41366","locality":"Schwalmtal","municipality":{"key":"05166024","name":"Schwalmtal","type":"Kreisangehörige_Gemeinde"},"district":{"key":"05166","name":"Viersen","type":"Kreis"},"federalState":{"key":"05","name":"Nordrhein-Westfalen"}},{"name":"Eulersgasse","postalCode":"36318","locality":"Schwalmtal","municipality":{"key":"06535017","name":"Schwalmtal","type":"Kreisangehörige_Gemeinde"},"district":{"key":"06535","name":"Vogelsbergkreis","type":"Landkreis"},"federalState":{"key":"06","name":"Hessen"}},{"name":"Felderseite","postalCode":"41366","locality":"Schwalmtal","municipality":{"key":"05166024","name":"Schwalmtal","type":"Kreisangehörige_Gemeinde"},"district":{"key":"05166","name":"Viersen","type":"Kreis"},"federalState":{"key":"05","name":"Nordrhein-Westfalen"}},{"name":"Fenchelweg","postalCode":"41366","locality":"Schwalmtal","municipality":{"key":"05166024","name":"Schwalmtal","type":"Kreisangehörige_Gemeinde"},"district":{"key":"05166","name":"Viersen","type":"Kreis"},"federalState":{"key":"05","name":"Nordrhein-Westfalen"}},{"name":"Fichtenstr.","postalCode":"41366","locality":"Schwalmtal","municipality":{"key":"05166024","name":"Schwalmtal","type":"Kreisangehörige_Gemeinde"},"district":{"key":"05166","name":"Viersen","type":"Kreis"},"federalState":{"key":"05","name":"Nordrhein-Westfalen"}},{"name":"Finkenweg","postalCode":"41366","locality":"Schwalmtal","municipality":{"key":"05166024","name":"Schwalmtal","type":"Kreisangehörige_Gemeinde"},"district":{"key":"05166","name":"Viersen","type":"Kreis"},"federalState":{"key":"05","name":"Nordrhein-Westfalen"}},{"name":"Fischeln","postalCode":"41366","locality":"Schwalmtal","municipality":{"key":"05166024","name":"Schwalmtal","type":"Kreisangehörige_Gemeinde"},"district":{"key":"05166","name":"Viersen","type":"Kreis"},"federalState":{"key":"05","name":"Nordrhein-Westfalen"}},{"name":"Fischelner Weg","postalCode":"41366","locality":"Schwalmtal","municipality":{"key":"05166024","name":"Schwalmtal","type":"Kreisangehörige_Gemeinde"},"district":{"key":"05166","name":"Viersen","type":"Kreis"},"federalState":{"key":"05","name":"Nordrhein-Westfalen"}},{"name":"Fliederweg","postalCode":"41366","locality":"Schwalmtal","municipality":{"key":"05166024","name":"Schwalmtal","type":"Kreisangehörige_Gemeinde"},"district":{"key":"05166","name":"Viersen","type":"Kreis"},"federalState":{"key":"05","name":"Nordrhein-Westfalen"}},{"name":"Foßecke","postalCode":"36318","locality":"Schwalmtal","municipality":{"key":"06535017","name":"Schwalmtal","type":"Kreisangehörige_Gemeinde"},"district":{"key":"06535","name":"Vogelsbergkreis","type":"Landkreis"},"federalState":{"key":"06","name":"Hessen"}},{"name":"Frankenmühle","postalCode":"41366","locality":"Schwalmtal","municipality":{"key":"05166024","name":"Schwalmtal","type":"Kreisangehörige_Gemeinde"},"district":{"key":"05166","name":"Viersen","type":"Kreis"},"federalState":{"key":"05","name":"Nordrhein-Westfalen"}},{"name":"Frankenweg","postalCode":"41366","locality":"Schwalmtal","municipality":{"key":"05166024","name":"Schwalmtal","type":"Kreisangehörige_Gemeinde"},"district":{"key":"05166","name":"Viersen","type":"Kreis"},"federalState":{"key":"05","name":"Nordrhein-Westfalen"}},{"name":"Friedensstr.","postalCode":"36318","locality":"Schwalmtal","municipality":{"key":"06535017","name":"Schwalmtal","type":"Kreisangehörige_Gemeinde"},"district":{"key":"06535","name":"Vogelsbergkreis","type":"Landkreis"},"federalState":{"key":"06","name":"Hessen"}},{"name":"Friedenstr.","postalCode":"41366","locality":"Schwalmtal","municipality":{"key":"05166024","name":"Schwalmtal","type":"Kreisangehörige_Gemeinde"},"district":{"key":"05166","name":"Viersen","type":"Kreis"},"federalState":{"key":"05","name":"Nordrhein-Westfalen"}},{"name":"Friedhofstr.","postalCode":"36318","locality":"Schwalmtal","municipality":{"key":"06535017","name":"Schwalmtal","type":"Kreisangehörige_Gemeinde"},"district":{"key":"06535","name":"Vogelsbergkreis","type":"Landkreis"},"federalState":{"key":"06","name":"Hessen"}},{"name":"Friedhofstr.","postalCode":"41366","locality":"Schwalmtal","municipality":{"key":"05166024","name":"Schwalmtal","type":"Kreisangehörige_Gemeinde"},"district":{"key":"05166","name":"Viersen","type":"Kreis"},"federalState":{"key":"05","name":"Nordrhein-Westfalen"}},{"name":"Fuchsbauweg","postalCode":"36318","locality":"Schwalmtal","municipality":{"key":"06535017","name":"Schwalmtal","type":"Kreisangehörige_Gemeinde"},"district":{"key":"06535","name":"Vogelsbergkreis","type":"Landkreis"},"federalState":{"key":"06","name":"Hessen"}},{"name":"Gangesallee","postalCode":"41366","locality":"Schwalmtal","municipality":{"key":"05166024","name":"Schwalmtal","type":"Kreisangehörige_Gemeinde"},"district":{"key":"05166","name":"Viersen","type":"Kreis"},"federalState":{"key":"05","name":"Nordrhein-Westfalen"}},{"name":"Gartenstr.","postalCode":"36318","locality":"Schwalmtal","municipality":{"key":"06535017","name":"Schwalmtal","type":"Kreisangehörige_Gemeinde"},"district":{"key":"06535","name":"Vogelsbergkreis","type":"Landkreis"},"federalState":{"key":"06","name":"Hessen"}},{"name":"Gartenstr.","postalCode":"41366","locality":"Schwalmtal","municipality":{"key":"05166024","name":"Schwalmtal","type":"Kreisangehörige_Gemeinde"},"district":{"key":"05166","name":"Viersen","type":"Kreis"},"federalState":{"key":"05","name":"Nordrhein-Westfalen"}},{"name":"Gartenweg","postalCode":"36318","locality":"Schwalmtal","municipality":{"key":"06535017","name":"Schwalmtal","type":"Kreisangehörige_Gemeinde"},"district":{"key":"06535","name":"Vogelsbergkreis","type":"Landkreis"},"federalState":{"key":"06","name":"Hessen"}},{"name":"Gartenweg","postalCode":"41366","locality":"Schwalmtal","municipality":{"key":"05166024","name":"Schwalmtal","type":"Kreisangehörige_Gemeinde"},"district":{"key":"05166","name":"Viersen","type":"Kreis"},"federalState":{"key":"05","name":"Nordrhein-Westfalen"}},{"name":"Gendohr","postalCode":"41366","locality":"Schwalmtal","municipality":{"key":"05166024","name":"Schwalmtal","type":"Kreisangehörige_Gemeinde"},"district":{"key":"05166","name":"Viersen","type":"Kreis"},"federalState":{"key":"05","name":"Nordrhein-Westfalen"}},{"name":"Geneschen","postalCode":"41366","locality":"Schwalmtal","municipality":{"key":"05166024","name":"Schwalmtal","type":"Kreisangehörige_Gemeinde"},"district":{"key":"05166","name":"Viersen","type":"Kreis"},"federalState":{"key":"05","name":"Nordrhein-Westfalen"}},{"name":"Gerhard-Peters-Str.","postalCode":"41366","locality":"Schwalmtal","municipality":{"key":"05166024","name":"Schwalmtal","type":"Kreisangehörige_Gemeinde"},"district":{"key":"05166","name":"Viersen","type":"Kreis"},"federalState":{"key":"05","name":"Nordrhein-Westfalen"}},{"name":"Gerhart-Hauptmann-Str.","postalCode":"41366","locality":"Schwalmtal","municipality":{"key":"05166024","name":"Schwalmtal","type":"Kreisangehörige_Gemeinde"},"district":{"key":"05166","name":"Viersen","type":"Kreis"},"federalState":{"key":"05","name":"Nordrhein-Westfalen"}},{"name":"Gertrudisstr.","postalCode":"41366","locality":"Schwalmtal","municipality":{"key":"05166024","name":"Schwalmtal","type":"Kreisangehörige_Gemeinde"},"district":{"key":"05166","name":"Viersen","type":"Kreis"},"federalState":{"key":"05","name":"Nordrhein-Westfalen"}},{"name":"Geschw.-Scholl-Str.","postalCode":"41366","locality":"Schwalmtal","municipality":{"key":"05166024","name":"Schwalmtal","type":"Kreisangehörige_Gemeinde"},"district":{"key":"05166","name":"Viersen","type":"Kreis"},"federalState":{"key":"05","name":"Nordrhein-Westfalen"}},{"name":"Gladbacher Str.","postalCode":"41366","locality":"Schwalmtal","municipality":{"key":"05166024","name":"Schwalmtal","type":"Kreisangehörige_Gemeinde"},"district":{"key":"05166","name":"Viersen","type":"Kreis"},"federalState":{"key":"05","name":"Nordrhein-Westfalen"}},{"name":"Goethestr.","postalCode":"41366","locality":"Schwalmtal","municipality":{"key":"05166024","name":"Schwalmtal","type":"Kreisangehörige_Gemeinde"},"district":{"key":"05166","name":"Viersen","type":"Kreis"},"federalState":{"key":"05","name":"Nordrhein-Westfalen"}},{"name":"Großwiesenweg","postalCode":"36318","locality":"Schwalmtal","municipality":{"key":"06535017","name":"Schwalmtal","type":"Kreisangehörige_Gemeinde"},"district":{"key":"06535","name":"Vogelsbergkreis","type":"Landkreis"},"federalState":{"key":"06","name":"Hessen"}},{"name":"Grundweg","postalCode":"36318","locality":"Schwalmtal","municipality":{"key":"06535017","name":"Schwalmtal","type":"Kreisangehörige_Gemeinde"},"district":{"key":"06535","name":"Vogelsbergkreis","type":"Landkreis"},"federalState":{"key":"06","name":"Hessen"}},{"name":"Gustav-Rösler-Str.","postalCode":"41366","locality":"Schwalmtal","municipality":{"key":"05166024","name":"Schwalmtal","type":"Kreisangehörige_Gemeinde"},"district":{"key":"05166","name":"Viersen","type":"Kreis"},"federalState":{"key":"05","name":"Nordrhein-Westfalen"}},{"name":"Hagen","postalCode":"41366","locality":"Schwalmtal","municipality":{"key":"05166024","name":"Schwalmtal","type":"Kreisangehörige_Gemeinde"},"district":{"key":"05166","name":"Viersen","type":"Kreis"},"federalState":{"key":"05","name":"Nordrhein-Westfalen"}},{"name":"Hainersweg","postalCode":"36318","locality":"Schwalmtal","municipality":{"key":"06535017","name":"Schwalmtal","type":"Kreisangehörige_Gemeinde"},"district":{"key":"06535","name":"Vogelsbergkreis","type":"Landkreis"},"federalState":{"key":"06","name":"Hessen"}},{"name":"Harikseeweg","postalCode":"41366","locality":"Schwalmtal","municipality":{"key":"05166024","name":"Schwalmtal","type":"Kreisangehörige_Gemeinde"},"district":{"key":"05166","name":"Viersen","type":"Kreis"},"federalState":{"key":"05","name":"Nordrhein-Westfalen"}},{"name":"Harlingsweg","postalCode":"36318","locality":"Schwalmtal","municipality":{"key":"06535017","name":"Schwalmtal","type":"Kreisangehörige_Gemeinde"},"district":{"key":"06535","name":"Vogelsbergkreis","type":"Landkreis"},"federalState":{"key":"06","name":"Hessen"}},{"name":"Häsenberg","postalCode":"41366","locality":"Schwalmtal","municipality":{"key":"05166024","name":"Schwalmtal","type":"Kreisangehörige_Gemeinde"},"district":{"key":"05166","name":"Viersen","type":"Kreis"},"federalState":{"key":"05","name":"Nordrhein-Westfalen"}},{"name":"Hauptstr.","postalCode":"36318","locality":"Schwalmtal","municipality":{"key":"06535017","name":"Schwalmtal","type":"Kreisangehörige_Gemeinde"},"district":{"key":"06535","name":"Vogelsbergkreis","type":"Landkreis"},"federalState":{"key":"06","name":"Hessen"}},{"name":"Hauptstr.","postalCode":"41366","locality":"Schwalmtal","municipality":{"key":"05166024","name":"Schwalmtal","type":"Kreisangehörige_Gemeinde"},"district":{"key":"05166","name":"Viersen","type":"Kreis"},"federalState":{"key":"05","name":"Nordrhein-Westfalen"}},{"name":"Haversloh","postalCode":"41366","locality":"Schwalmtal","municipality":{"key":"05166024","name":"Schwalmtal","type":"Kreisangehörige_Gemeinde"},"district":{"key":"05166","name":"Viersen","type":"Kreis"},"federalState":{"key":"05","name":"Nordrhein-Westfalen"}},{"name":"Heerstr.","postalCode":"41366","locality":"Schwalmtal","municipality":{"key":"05166024","name":"Schwalmtal","type":"Kreisangehörige_Gemeinde"},"district":{"key":"05166","name":"Viersen","type":"Kreis"},"federalState":{"key":"05","name":"Nordrhein-Westfalen"}},{"name":"Hehler","postalCode":"41366","locality":"Schwalmtal","municipality":{"key":"05166024","name":"Schwalmtal","type":"Kreisangehörige_Gemeinde"},"district":{"key":"05166","name":"Viersen","type":"Kreis"},"federalState":{"key":"05","name":"Nordrhein-Westfalen"}},{"name":"Heidend","postalCode":"41366","locality":"Schwalmtal","municipality":{"key":"05166024","name":"Schwalmtal","type":"Kreisangehörige_Gemeinde"},"district":{"key":"05166","name":"Viersen","type":"Kreis"},"federalState":{"key":"05","name":"Nordrhein-Westfalen"}},{"name":"Heidweiher","postalCode":"41366","locality":"Schwalmtal","municipality":{"key":"05166024","name":"Schwalmtal","type":"Kreisangehörige_Gemeinde"},"district":{"key":"05166","name":"Viersen","type":"Kreis"},"federalState":{"key":"05","name":"Nordrhein-Westfalen"}},{"name":"Heiligen Weg","postalCode":"41366","locality":"Schwalmtal","municipality":{"key":"05166024","name":"Schwalmtal","type":"Kreisangehörige_Gemeinde"},"district":{"key":"05166","name":"Viersen","type":"Kreis"},"federalState":{"key":"05","name":"Nordrhein-Westfalen"}},{"name":"Heinrich-Jennißen-Str.","postalCode":"41366","locality":"Schwalmtal","municipality":{"key":"05166024","name":"Schwalmtal","type":"Kreisangehörige_Gemeinde"},"district":{"key":"05166","name":"Viersen","type":"Kreis"},"federalState":{"key":"05","name":"Nordrhein-Westfalen"}},{"name":"Heinrich-Leven-Str.","postalCode":"41366","locality":"Schwalmtal","municipality":{"key":"05166024","name":"Schwalmtal","type":"Kreisangehörige_Gemeinde"},"district":{"key":"05166","name":"Viersen","type":"Kreis"},"federalState":{"key":"05","name":"Nordrhein-Westfalen"}},{"name":"Helmut-Schaaf-Weg","postalCode":"36318","locality":"Schwalmtal","municipality":{"key":"06535017","name":"Schwalmtal","type":"Kreisangehörige_Gemeinde"},"district":{"key":"06535","name":"Vogelsbergkreis","type":"Landkreis"},"federalState":{"key":"06","name":"Hessen"}},{"name":"Hergersdorfer Str.","postalCode":"36318","locality":"Schwalmtal","municipality":{"key":"06535017","name":"Schwalmtal","type":"Kreisangehörige_Gemeinde"},"district":{"key":"06535","name":"Vogelsbergkreis","type":"Landkreis"},"federalState":{"key":"06","name":"Hessen"}},{"name":"Hermann-Löns-Str.","postalCode":"41366","locality":"Schwalmtal","municipality":{"key":"05166024","name":"Schwalmtal","type":"Kreisangehörige_Gemeinde"},"district":{"key":"05166","name":"Viersen","type":"Kreis"},"federalState":{"key":"05","name":"Nordrhein-Westfalen"}},{"name":"Hintergasse","postalCode":"36318","locality":"Schwalmtal","municipality":{"key":"06535017","name":"Schwalmtal","type":"Kreisangehörige_Gemeinde"},"district":{"key":"06535","name":"Vogelsbergkreis","type":"Landkreis"},"federalState":{"key":"06","name":"Hessen"}},{"name":"Hochstr.","postalCode":"36318","locality":"Schwalmtal","municipality":{"key":"06535017","name":"Schwalmtal","type":"Kreisangehörige_Gemeinde"},"district":{"key":"06535","name":"Vogelsbergkreis","type":"Landkreis"},"federalState":{"key":"06","name":"Hessen"}},{"name":"Hoferland","postalCode":"41366","locality":"Schwalmtal","municipality":{"key":"05166024","name":"Schwalmtal","type":"Kreisangehörige_Gemeinde"},"district":{"key":"05166","name":"Viersen","type":"Kreis"},"federalState":{"key":"05","name":"Nordrhein-Westfalen"}},{"name":"Hofwiesenweg","postalCode":"36318","locality":"Schwalmtal","municipality":{"key":"06535017","name":"Schwalmtal","type":"Kreisangehörige_Gemeinde"},"district":{"key":"06535","name":"Vogelsbergkreis","type":"Landkreis"},"federalState":{"key":"06","name":"Hessen"}},{"name":"Hopfgartener Str.","postalCode":"36318","locality":"Schwalmtal","municipality":{"key":"06535017","name":"Schwalmtal","type":"Kreisangehörige_Gemeinde"},"district":{"key":"06535","name":"Vogelsbergkreis","type":"Landkreis"},"federalState":{"key":"06","name":"Hessen"}},{"name":"Hopfgartener Weg","postalCode":"36318","locality":"Schwalmtal","municipality":{"key":"06535017","name":"Schwalmtal","type":"Kreisangehörige_Gemeinde"},"district":{"key":"06535","name":"Vogelsbergkreis","type":"Landkreis"},"federalState":{"key":"06","name":"Hessen"}},{"name":"Hospitalstr.","postalCode":"41366","locality":"Schwalmtal","municipality":{"key":"05166024","name":"Schwalmtal","type":"Kreisangehörige_Gemeinde"},"district":{"key":"05166","name":"Viersen","type":"Kreis"},"federalState":{"key":"05","name":"Nordrhein-Westfalen"}},{"name":"Hostert","postalCode":"41366","locality":"Schwalmtal","municipality":{"key":"05166024","name":"Schwalmtal","type":"Kreisangehörige_Gemeinde"},"district":{"key":"05166","name":"Viersen","type":"Kreis"},"federalState":{"key":"05","name":"Nordrhein-Westfalen"}},{"name":"Im Hof","postalCode":"36318","locality":"Schwalmtal","municipality":{"key":"06535017","name":"Schwalmtal","type":"Kreisangehörige_Gemeinde"},"district":{"key":"06535","name":"Vogelsbergkreis","type":"Landkreis"},"federalState":{"key":"06","name":"Hessen"}},{"name":"Im Kamp","postalCode":"41366","locality":"Schwalmtal","municipality":{"key":"05166024","name":"Schwalmtal","type":"Kreisangehörige_Gemeinde"},"district":{"key":"05166","name":"Viersen","type":"Kreis"},"federalState":{"key":"05","name":"Nordrhein-Westfalen"}},{"name":"Im Leimenfeld","postalCode":"36318","locality":"Schwalmtal","municipality":{"key":"06535017","name":"Schwalmtal","type":"Kreisangehörige_Gemeinde"},"district":{"key":"06535","name":"Vogelsbergkreis","type":"Landkreis"},"federalState":{"key":"06","name":"Hessen"}},{"name":"Im Oberdorf","postalCode":"36318","locality":"Schwalmtal","municipality":{"key":"06535017","name":"Schwalmtal","type":"Kreisangehörige_Gemeinde"},"district":{"key":"06535","name":"Vogelsbergkreis","type":"Landkreis"},"federalState":{"key":"06","name":"Hessen"}},{"name":"Im Schwalmgrund","postalCode":"36318","locality":"Schwalmtal","municipality":{"key":"06535017","name":"Schwalmtal","type":"Kreisangehörige_Gemeinde"},"district":{"key":"06535","name":"Vogelsbergkreis","type":"Landkreis"},"federalState":{"key":"06","name":"Hessen"}},{"name":"In den Erlen","postalCode":"36318","locality":"Schwalmtal","municipality":{"key":"06535017","name":"Schwalmtal","type":"Kreisangehörige_Gemeinde"},"district":{"key":"06535","name":"Vogelsbergkreis","type":"Landkreis"},"federalState":{"key":"06","name":"Hessen"}},{"name":"In der Au","postalCode":"36318","locality":"Schwalmtal","municipality":{"key":"06535017","name":"Schwalmtal","type":"Kreisangehörige_Gemeinde"},"district":{"key":"06535","name":"Vogelsbergkreis","type":"Landkreis"},"federalState":{"key":"06","name":"Hessen"}},{"name":"In der Eck","postalCode":"36318","locality":"Schwalmtal","municipality":{"key":"06535017","name":"Schwalmtal","type":"Kreisangehörige_Gemeinde"},"district":{"key":"06535","name":"Vogelsbergkreis","type":"Landkreis"},"federalState":{"key":"06","name":"Hessen"}},{"name":"Industriestr.","postalCode":"41366","locality":"Schwalmtal","municipality":{"key":"05166024","name":"Schwalmtal","type":"Kreisangehörige_Gemeinde"},"district":{"key":"05166","name":"Viersen","type":"Kreis"},"federalState":{"key":"05","name":"Nordrhein-Westfalen"}},{"name":"Jahnstr.","postalCode":"36318","locality":"Schwalmtal","municipality":{"key":"06535017","name":"Schwalmtal","type":"Kreisangehörige_Gemeinde"},"district":{"key":"06535","name":"Vogelsbergkreis","type":"Landkreis"},"federalState":{"key":"06","name":"Hessen"}},{"name":"Jansweg","postalCode":"41366","locality":"Schwalmtal","municipality":{"key":"05166024","name":"Schwalmtal","type":"Kreisangehörige_Gemeinde"},"district":{"key":"05166","name":"Viersen","type":"Kreis"},"federalState":{"key":"05","name":"Nordrhein-Westfalen"}},{"name":"Johannesgartenweg","postalCode":"36318","locality":"Schwalmtal","municipality":{"key":"06535017","name":"Schwalmtal","type":"Kreisangehörige_Gemeinde"},"district":{"key":"06535","name":"Vogelsbergkreis","type":"Landkreis"},"federalState":{"key":"06","name":"Hessen"}},{"name":"Johannes-Steuernagel-Weg","postalCode":"36318","locality":"Schwalmtal","municipality":{"key":"06535017","name":"Schwalmtal","type":"Kreisangehörige_Gemeinde"},"district":{"key":"06535","name":"Vogelsbergkreis","type":"Landkreis"},"federalState":{"key":"06","name":"Hessen"}},{"name":"Josef-Rösler-Str.","postalCode":"41366","locality":"Schwalmtal","municipality":{"key":"05166024","name":"Schwalmtal","type":"Kreisangehörige_Gemeinde"},"district":{"key":"05166","name":"Viersen","type":"Kreis"},"federalState":{"key":"05","name":"Nordrhein-Westfalen"}},{"name":"Jupiterweg","postalCode":"41366","locality":"Schwalmtal","municipality":{"key":"05166024","name":"Schwalmtal","type":"Kreisangehörige_Gemeinde"},"district":{"key":"05166","name":"Viersen","type":"Kreis"},"federalState":{"key":"05","name":"Nordrhein-Westfalen"}},{"name":"Kaiserpark","postalCode":"41366","locality":"Schwalmtal","municipality":{"key":"05166024","name":"Schwalmtal","type":"Kreisangehörige_Gemeinde"},"district":{"key":"05166","name":"Viersen","type":"Kreis"},"federalState":{"key":"05","name":"Nordrhein-Westfalen"}},{"name":"Kaltensteinsweg","postalCode":"41366","locality":"Schwalmtal","municipality":{"key":"05166024","name":"Schwalmtal","type":"Kreisangehörige_Gemeinde"},"district":{"key":"05166","name":"Viersen","type":"Kreis"},"federalState":{"key":"05","name":"Nordrhein-Westfalen"}},{"name":"Kamillenweg","postalCode":"41366","locality":"Schwalmtal","municipality":{"key":"05166024","name":"Schwalmtal","type":"Kreisangehörige_Gemeinde"},"district":{"key":"05166","name":"Viersen","type":"Kreis"},"federalState":{"key":"05","name":"Nordrhein-Westfalen"}},{"name":"Kampweg","postalCode":"41366","locality":"Schwalmtal","municipality":{"key":"05166024","name":"Schwalmtal","type":"Kreisangehörige_Gemeinde"},"district":{"key":"05166","name":"Viersen","type":"Kreis"},"federalState":{"key":"05","name":"Nordrhein-Westfalen"}},{"name":"Karl-Kaiser-Weg","postalCode":"36318","locality":"Schwalmtal","municipality":{"key":"06535017","name":"Schwalmtal","type":"Kreisangehörige_Gemeinde"},"district":{"key":"06535","name":"Vogelsbergkreis","type":"Landkreis"},"federalState":{"key":"06","name":"Hessen"}},{"name":"Kasender Str.","postalCode":"41366","locality":"Schwalmtal","municipality":{"key":"05166024","name":"Schwalmtal","type":"Kreisangehörige_Gemeinde"},"district":{"key":"05166","name":"Viersen","type":"Kreis"},"federalState":{"key":"05","name":"Nordrhein-Westfalen"}},{"name":"Kastanienallee","postalCode":"41366","locality":"Schwalmtal","municipality":{"key":"05166024","name":"Schwalmtal","type":"Kreisangehörige_Gemeinde"},"district":{"key":"05166","name":"Viersen","type":"Kreis"},"federalState":{"key":"05","name":"Nordrhein-Westfalen"}},{"name":"K.-E.-Kreuder-Weg","postalCode":"36318","locality":"Schwalmtal","municipality":{"key":"06535017","name":"Schwalmtal","type":"Kreisangehörige_Gemeinde"},"district":{"key":"06535","name":"Vogelsbergkreis","type":"Landkreis"},"federalState":{"key":"06","name":"Hessen"}},{"name":"Kerbelweg","postalCode":"41366","locality":"Schwalmtal","municipality":{"key":"05166024","name":"Schwalmtal","type":"Kreisangehörige_Gemeinde"},"district":{"key":"05166","name":"Viersen","type":"Kreis"},"federalState":{"key":"05","name":"Nordrhein-Westfalen"}},{"name":"Kiefernweg","postalCode":"36318","locality":"Schwalmtal","municipality":{"key":"06535017","name":"Schwalmtal","type":"Kreisangehörige_Gemeinde"},"district":{"key":"06535","name":"Vogelsbergkreis","type":"Landkreis"},"federalState":{"key":"06","name":"Hessen"}},{"name":"Kirchenpfad","postalCode":"36318","locality":"Schwalmtal","municipality":{"key":"06535017","name":"Schwalmtal","type":"Kreisangehörige_Gemeinde"},"district":{"key":"06535","name":"Vogelsbergkreis","type":"Landkreis"},"federalState":{"key":"06","name":"Hessen"}},{"name":"Kirchgasse","postalCode":"36318","locality":"Schwalmtal","municipality":{"key":"06535017","name":"Schwalmtal","type":"Kreisangehörige_Gemeinde"},"district":{"key":"06535","name":"Vogelsbergkreis","type":"Landkreis"},"federalState":{"key":"06","name":"Hessen"}},{"name":"Kirchstr.","postalCode":"36318","locality":"Schwalmtal","municipality":{"key":"06535017","name":"Schwalmtal","type":"Kreisangehörige_Gemeinde"},"district":{"key":"06535","name":"Vogelsbergkreis","type":"Landkreis"},"federalState":{"key":"06","name":"Hessen"}},{"name":"Kirchstr.","postalCode":"41366","locality":"Schwalmtal","municipality":{"key":"05166024","name":"Schwalmtal","type":"Kreisangehörige_Gemeinde"},"district":{"key":"05166","name":"Viersen","type":"Kreis"},"federalState":{"key":"05","name":"Nordrhein-Westfalen"}},{"name":"Kirchweg","postalCode":"36318","locality":"Schwalmtal","municipality":{"key":"06535017","name":"Schwalmtal","type":"Kreisangehörige_Gemeinde"},"district":{"key":"06535","name":"Vogelsbergkreis","type":"Landkreis"},"federalState":{"key":"06","name":"Hessen"}},{"name":"Kleiststr.","postalCode":"41366","locality":"Schwalmtal","municipality":{"key":"05166024","name":"Schwalmtal","type":"Kreisangehörige_Gemeinde"},"district":{"key":"05166","name":"Viersen","type":"Kreis"},"federalState":{"key":"05","name":"Nordrhein-Westfalen"}},{"name":"Klosterstr.","postalCode":"41366","locality":"Schwalmtal","municipality":{"key":"05166024","name":"Schwalmtal","type":"Kreisangehörige_Gemeinde"},"district":{"key":"05166","name":"Viersen","type":"Kreis"},"federalState":{"key":"05","name":"Nordrhein-Westfalen"}},{"name":"Kockskamp","postalCode":"41366","locality":"Schwalmtal","municipality":{"key":"05166024","name":"Schwalmtal","type":"Kreisangehörige_Gemeinde"},"district":{"key":"05166","name":"Viersen","type":"Kreis"},"federalState":{"key":"05","name":"Nordrhein-Westfalen"}},{"name":"Kohlstöcksweg","postalCode":"36318","locality":"Schwalmtal","municipality":{"key":"06535017","name":"Schwalmtal","type":"Kreisangehörige_Gemeinde"},"district":{"key":"06535","name":"Vogelsbergkreis","type":"Landkreis"},"federalState":{"key":"06","name":"Hessen"}},{"name":"Kolpingstr.","postalCode":"41366","locality":"Schwalmtal","municipality":{"key":"05166024","name":"Schwalmtal","type":"Kreisangehörige_Gemeinde"},"district":{"key":"05166","name":"Viersen","type":"Kreis"},"federalState":{"key":"05","name":"Nordrhein-Westfalen"}},{"name":"Korianderweg","postalCode":"41366","locality":"Schwalmtal","municipality":{"key":"05166024","name":"Schwalmtal","type":"Kreisangehörige_Gemeinde"},"district":{"key":"05166","name":"Viersen","type":"Kreis"},"federalState":{"key":"05","name":"Nordrhein-Westfalen"}},{"name":"Kranenbruch","postalCode":"41366","locality":"Schwalmtal","municipality":{"key":"05166024","name":"Schwalmtal","type":"Kreisangehörige_Gemeinde"},"district":{"key":"05166","name":"Viersen","type":"Kreis"},"federalState":{"key":"05","name":"Nordrhein-Westfalen"}},{"name":"Kronenweg","postalCode":"41366","locality":"Schwalmtal","municipality":{"key":"05166024","name":"Schwalmtal","type":"Kreisangehörige_Gemeinde"},"district":{"key":"05166","name":"Viersen","type":"Kreis"},"federalState":{"key":"05","name":"Nordrhein-Westfalen"}},{"name":"Kurt-Schumacher-Str.","postalCode":"36318","locality":"Schwalmtal","municipality":{"key":"06535017","name":"Schwalmtal","type":"Kreisangehörige_Gemeinde"},"district":{"key":"06535","name":"Vogelsbergkreis","type":"Landkreis"},"federalState":{"key":"06","name":"Hessen"}},{"name":"Lange Str.","postalCode":"41366","locality":"Schwalmtal","municipality":{"key":"05166024","name":"Schwalmtal","type":"Kreisangehörige_Gemeinde"},"district":{"key":"05166","name":"Viersen","type":"Kreis"},"federalState":{"key":"05","name":"Nordrhein-Westfalen"}},{"name":"Lanzenbergstr.","postalCode":"36318","locality":"Schwalmtal","municipality":{"key":"06535017","name":"Schwalmtal","type":"Kreisangehörige_Gemeinde"},"district":{"key":"06535","name":"Vogelsbergkreis","type":"Landkreis"},"federalState":{"key":"06","name":"Hessen"}},{"name":"Lauterbacher Str.","postalCode":"36318","locality":"Schwalmtal","municipality":{"key":"06535017","name":"Schwalmtal","type":"Kreisangehörige_Gemeinde"},"district":{"key":"06535","name":"Vogelsbergkreis","type":"Landkreis"},"federalState":{"key":"06","name":"Hessen"}},{"name":"Lavendelweg","postalCode":"41366","locality":"Schwalmtal","municipality":{"key":"05166024","name":"Schwalmtal","type":"Kreisangehörige_Gemeinde"},"district":{"key":"05166","name":"Viersen","type":"Kreis"},"federalState":{"key":"05","name":"Nordrhein-Westfalen"}},{"name":"Leloh","postalCode":"41366","locality":"Schwalmtal","municipality":{"key":"05166024","name":"Schwalmtal","type":"Kreisangehörige_Gemeinde"},"district":{"key":"05166","name":"Viersen","type":"Kreis"},"federalState":{"key":"05","name":"Nordrhein-Westfalen"}},{"name":"Lenzenpfad","postalCode":"41366","locality":"Schwalmtal","municipality":{"key":"05166024","name":"Schwalmtal","type":"Kreisangehörige_Gemeinde"},"district":{"key":"05166","name":"Viersen","type":"Kreis"},"federalState":{"key":"05","name":"Nordrhein-Westfalen"}},{"name":"Lessingstr.","postalCode":"41366","locality":"Schwalmtal","municipality":{"key":"05166024","name":"Schwalmtal","type":"Kreisangehörige_Gemeinde"},"district":{"key":"05166","name":"Viersen","type":"Kreis"},"federalState":{"key":"05","name":"Nordrhein-Westfalen"}},{"name":"Levy-Weg","postalCode":"41366","locality":"Schwalmtal","municipality":{"key":"05166024","name":"Schwalmtal","type":"Kreisangehörige_Gemeinde"},"district":{"key":"05166","name":"Viersen","type":"Kreis"},"federalState":{"key":"05","name":"Nordrhein-Westfalen"}},{"name":"Linde","postalCode":"41366","locality":"Schwalmtal","municipality":{"key":"05166024","name":"Schwalmtal","type":"Kreisangehörige_Gemeinde"},"district":{"key":"05166","name":"Viersen","type":"Kreis"},"federalState":{"key":"05","name":"Nordrhein-Westfalen"}},{"name":"Lindenkamp","postalCode":"41366","locality":"Schwalmtal","municipality":{"key":"05166024","name":"Schwalmtal","type":"Kreisangehörige_Gemeinde"},"district":{"key":"05166","name":"Viersen","type":"Kreis"},"federalState":{"key":"05","name":"Nordrhein-Westfalen"}},{"name":"Lindenstr.","postalCode":"36318","locality":"Schwalmtal","municipality":{"key":"06535017","name":"Schwalmtal","type":"Kreisangehörige_Gemeinde"},"district":{"key":"06535","name":"Vogelsbergkreis","type":"Landkreis"},"federalState":{"key":"06","name":"Hessen"}},{"name":"Lindheide","postalCode":"41366","locality":"Schwalmtal","municipality":{"key":"05166024","name":"Schwalmtal","type":"Kreisangehörige_Gemeinde"},"district":{"key":"05166","name":"Viersen","type":"Kreis"},"federalState":{"key":"05","name":"Nordrhein-Westfalen"}},{"name":"Lorbeerweg","postalCode":"41366","locality":"Schwalmtal","municipality":{"key":"05166024","name":"Schwalmtal","type":"Kreisangehörige_Gemeinde"},"district":{"key":"05166","name":"Viersen","type":"Kreis"},"federalState":{"key":"05","name":"Nordrhein-Westfalen"}},{"name":"Lotzemer","postalCode":"41366","locality":"Schwalmtal","municipality":{"key":"05166024","name":"Schwalmtal","type":"Kreisangehörige_Gemeinde"},"district":{"key":"05166","name":"Viersen","type":"Kreis"},"federalState":{"key":"05","name":"Nordrhein-Westfalen"}},{"name":"Lüttelforst","postalCode":"41366","locality":"Schwalmtal","municipality":{"key":"05166024","name":"Schwalmtal","type":"Kreisangehörige_Gemeinde"},"district":{"key":"05166","name":"Viersen","type":"Kreis"},"federalState":{"key":"05","name":"Nordrhein-Westfalen"}},{"name":"Lüttelforster Str.","postalCode":"41366","locality":"Schwalmtal","municipality":{"key":"05166024","name":"Schwalmtal","type":"Kreisangehörige_Gemeinde"},"district":{"key":"05166","name":"Viersen","type":"Kreis"},"federalState":{"key":"05","name":"Nordrhein-Westfalen"}},{"name":"Lüttelforster Weg","postalCode":"41366","locality":"Schwalmtal","municipality":{"key":"05166024","name":"Schwalmtal","type":"Kreisangehörige_Gemeinde"},"district":{"key":"05166","name":"Viersen","type":"Kreis"},"federalState":{"key":"05","name":"Nordrhein-Westfalen"}},{"name":"Malvenweg","postalCode":"41366","locality":"Schwalmtal","municipality":{"key":"05166024","name":"Schwalmtal","type":"Kreisangehörige_Gemeinde"},"district":{"key":"05166","name":"Viersen","type":"Kreis"},"federalState":{"key":"05","name":"Nordrhein-Westfalen"}},{"name":"Margeritenweg","postalCode":"41366","locality":"Schwalmtal","municipality":{"key":"05166024","name":"Schwalmtal","type":"Kreisangehörige_Gemeinde"},"district":{"key":"05166","name":"Viersen","type":"Kreis"},"federalState":{"key":"05","name":"Nordrhein-Westfalen"}},{"name":"Markt","postalCode":"41366","locality":"Schwalmtal","municipality":{"key":"05166024","name":"Schwalmtal","type":"Kreisangehörige_Gemeinde"},"district":{"key":"05166","name":"Viersen","type":"Kreis"},"federalState":{"key":"05","name":"Nordrhein-Westfalen"}},{"name":"Marktstr.","postalCode":"41366","locality":"Schwalmtal","municipality":{"key":"05166024","name":"Schwalmtal","type":"Kreisangehörige_Gemeinde"},"district":{"key":"05166","name":"Viersen","type":"Kreis"},"federalState":{"key":"05","name":"Nordrhein-Westfalen"}},{"name":"Marsweg","postalCode":"41366","locality":"Schwalmtal","municipality":{"key":"05166024","name":"Schwalmtal","type":"Kreisangehörige_Gemeinde"},"district":{"key":"05166","name":"Viersen","type":"Kreis"},"federalState":{"key":"05","name":"Nordrhein-Westfalen"}},{"name":"Maximilian-Kolbe-Str.","postalCode":"41366","locality":"Schwalmtal","municipality":{"key":"05166024","name":"Schwalmtal","type":"Kreisangehörige_Gemeinde"},"district":{"key":"05166","name":"Viersen","type":"Kreis"},"federalState":{"key":"05","name":"Nordrhein-Westfalen"}},{"name":"Meicheser Str.","postalCode":"36318","locality":"Schwalmtal","municipality":{"key":"06535017","name":"Schwalmtal","type":"Kreisangehörige_Gemeinde"},"district":{"key":"06535","name":"Vogelsbergkreis","type":"Landkreis"},"federalState":{"key":"06","name":"Hessen"}},{"name":"Melchiorsgrund","postalCode":"36318","locality":"Schwalmtal","municipality":{"key":"06535017","name":"Schwalmtal","type":"Kreisangehörige_Gemeinde"},"district":{"key":"06535","name":"Vogelsbergkreis","type":"Landkreis"},"federalState":{"key":"06","name":"Hessen"}},{"name":"Melissenstr.","postalCode":"41366","locality":"Schwalmtal","municipality":{"key":"05166024","name":"Schwalmtal","type":"Kreisangehörige_Gemeinde"},"district":{"key":"05166","name":"Viersen","type":"Kreis"},"federalState":{"key":"05","name":"Nordrhein-Westfalen"}},{"name":"Memelstr.","postalCode":"41366","locality":"Schwalmtal","municipality":{"key":"05166024","name":"Schwalmtal","type":"Kreisangehörige_Gemeinde"},"district":{"key":"05166","name":"Viersen","type":"Kreis"},"federalState":{"key":"05","name":"Nordrhein-Westfalen"}},{"name":"Merkurweg","postalCode":"41366","locality":"Schwalmtal","municipality":{"key":"05166024","name":"Schwalmtal","type":"Kreisangehörige_Gemeinde"},"district":{"key":"05166","name":"Viersen","type":"Kreis"},"federalState":{"key":"05","name":"Nordrhein-Westfalen"}},{"name":"Mondweg","postalCode":"41366","locality":"Schwalmtal","municipality":{"key":"05166024","name":"Schwalmtal","type":"Kreisangehörige_Gemeinde"},"district":{"key":"05166","name":"Viersen","type":"Kreis"},"federalState":{"key":"05","name":"Nordrhein-Westfalen"}},{"name":"Mozartstr.","postalCode":"41366","locality":"Schwalmtal","municipality":{"key":"05166024","name":"Schwalmtal","type":"Kreisangehörige_Gemeinde"},"district":{"key":"05166","name":"Viersen","type":"Kreis"},"federalState":{"key":"05","name":"Nordrhein-Westfalen"}},{"name":"Mühleneck","postalCode":"41366","locality":"Schwalmtal","municipality":{"key":"05166024","name":"Schwalmtal","type":"Kreisangehörige_Gemeinde"},"district":{"key":"05166","name":"Viersen","type":"Kreis"},"federalState":{"key":"05","name":"Nordrhein-Westfalen"}},{"name":"Mühlenweg","postalCode":"41366","locality":"Schwalmtal","municipality":{"key":"05166024","name":"Schwalmtal","type":"Kreisangehörige_Gemeinde"},"district":{"key":"05166","name":"Viersen","type":"Kreis"},"federalState":{"key":"05","name":"Nordrhein-Westfalen"}},{"name":"Mühlrather Mühle","postalCode":"41366","locality":"Schwalmtal","municipality":{"key":"05166024","name":"Schwalmtal","type":"Kreisangehörige_Gemeinde"},"district":{"key":"05166","name":"Viersen","type":"Kreis"},"federalState":{"key":"05","name":"Nordrhein-Westfalen"}},{"name":"Mühlweg","postalCode":"36318","locality":"Schwalmtal","municipality":{"key":"06535017","name":"Schwalmtal","type":"Kreisangehörige_Gemeinde"},"district":{"key":"06535","name":"Vogelsbergkreis","type":"Landkreis"},"federalState":{"key":"06","name":"Hessen"}},{"name":"Müllersgäßchen","postalCode":"36318","locality":"Schwalmtal","municipality":{"key":"06535017","name":"Schwalmtal","type":"Kreisangehörige_Gemeinde"},"district":{"key":"06535","name":"Vogelsbergkreis","type":"Landkreis"},"federalState":{"key":"06","name":"Hessen"}},{"name":"Muselstr.","postalCode":"36318","locality":"Schwalmtal","municipality":{"key":"06535017","name":"Schwalmtal","type":"Kreisangehörige_Gemeinde"},"district":{"key":"06535","name":"Vogelsbergkreis","type":"Landkreis"},"federalState":{"key":"06","name":"Hessen"}},{"name":"Naphausen","postalCode":"41366","locality":"Schwalmtal","municipality":{"key":"05166024","name":"Schwalmtal","type":"Kreisangehörige_Gemeinde"},"district":{"key":"05166","name":"Viersen","type":"Kreis"},"federalState":{"key":"05","name":"Nordrhein-Westfalen"}},{"name":"Nelkenweg","postalCode":"41366","locality":"Schwalmtal","municipality":{"key":"05166024","name":"Schwalmtal","type":"Kreisangehörige_Gemeinde"},"district":{"key":"05166","name":"Viersen","type":"Kreis"},"federalState":{"key":"05","name":"Nordrhein-Westfalen"}},{"name":"Neptunweg","postalCode":"41366","locality":"Schwalmtal","municipality":{"key":"05166024","name":"Schwalmtal","type":"Kreisangehörige_Gemeinde"},"district":{"key":"05166","name":"Viersen","type":"Kreis"},"federalState":{"key":"05","name":"Nordrhein-Westfalen"}},{"name":"Neugasse","postalCode":"36318","locality":"Schwalmtal","municipality":{"key":"06535017","name":"Schwalmtal","type":"Kreisangehörige_Gemeinde"},"district":{"key":"06535","name":"Vogelsbergkreis","type":"Landkreis"},"federalState":{"key":"06","name":"Hessen"}},{"name":"Niederstr.","postalCode":"41366","locality":"Schwalmtal","municipality":{"key":"05166024","name":"Schwalmtal","type":"Kreisangehörige_Gemeinde"},"district":{"key":"05166","name":"Viersen","type":"Kreis"},"federalState":{"key":"05","name":"Nordrhein-Westfalen"}},{"name":"Nordstr.","postalCode":"41366","locality":"Schwalmtal","municipality":{"key":"05166024","name":"Schwalmtal","type":"Kreisangehörige_Gemeinde"},"district":{"key":"05166","name":"Viersen","type":"Kreis"},"federalState":{"key":"05","name":"Nordrhein-Westfalen"}},{"name":"Nordtangente","postalCode":"41366","locality":"Schwalmtal","municipality":{"key":"05166024","name":"Schwalmtal","type":"Kreisangehörige_Gemeinde"},"district":{"key":"05166","name":"Viersen","type":"Kreis"},"federalState":{"key":"05","name":"Nordrhein-Westfalen"}},{"name":"Ober-Breidenbacher-Weg","postalCode":"36318","locality":"Schwalmtal","municipality":{"key":"06535017","name":"Schwalmtal","type":"Kreisangehörige_Gemeinde"},"district":{"key":"06535","name":"Vogelsbergkreis","type":"Landkreis"},"federalState":{"key":"06","name":"Hessen"}},{"name":"Oberer Riehweg","postalCode":"36318","locality":"Schwalmtal","municipality":{"key":"06535017","name":"Schwalmtal","type":"Kreisangehörige_Gemeinde"},"district":{"key":"06535","name":"Vogelsbergkreis","type":"Landkreis"},"federalState":{"key":"06","name":"Hessen"}},{"name":"Oderstr.","postalCode":"41366","locality":"Schwalmtal","municipality":{"key":"05166024","name":"Schwalmtal","type":"Kreisangehörige_Gemeinde"},"district":{"key":"05166","name":"Viersen","type":"Kreis"},"federalState":{"key":"05","name":"Nordrhein-Westfalen"}},{"name":"Ostendstr.","postalCode":"36318","locality":"Schwalmtal","municipality":{"key":"06535017","name":"Schwalmtal","type":"Kreisangehörige_Gemeinde"},"district":{"key":"06535","name":"Vogelsbergkreis","type":"Landkreis"},"federalState":{"key":"06","name":"Hessen"}},{"name":"Otto-Richtberg-Str.","postalCode":"36318","locality":"Schwalmtal","municipality":{"key":"06535017","name":"Schwalmtal","type":"Kreisangehörige_Gemeinde"},"district":{"key":"06535","name":"Vogelsbergkreis","type":"Landkreis"},"federalState":{"key":"06","name":"Hessen"}},{"name":"Otto-Wels-Str.","postalCode":"41366","locality":"Schwalmtal","municipality":{"key":"05166024","name":"Schwalmtal","type":"Kreisangehörige_Gemeinde"},"district":{"key":"05166","name":"Viersen","type":"Kreis"},"federalState":{"key":"05","name":"Nordrhein-Westfalen"}},{"name":"Palzeskamp","postalCode":"41366","locality":"Schwalmtal","municipality":{"key":"05166024","name":"Schwalmtal","type":"Kreisangehörige_Gemeinde"},"district":{"key":"05166","name":"Viersen","type":"Kreis"},"federalState":{"key":"05","name":"Nordrhein-Westfalen"}},{"name":"Pannenmühlenweg","postalCode":"41366","locality":"Schwalmtal","municipality":{"key":"05166024","name":"Schwalmtal","type":"Kreisangehörige_Gemeinde"},"district":{"key":"05166","name":"Viersen","type":"Kreis"},"federalState":{"key":"05","name":"Nordrhein-Westfalen"}},{"name":"Pletschweg","postalCode":"41366","locality":"Schwalmtal","municipality":{"key":"05166024","name":"Schwalmtal","type":"Kreisangehörige_Gemeinde"},"district":{"key":"05166","name":"Viersen","type":"Kreis"},"federalState":{"key":"05","name":"Nordrhein-Westfalen"}},{"name":"Plutoweg","postalCode":"41366","locality":"Schwalmtal","municipality":{"key":"05166024","name":"Schwalmtal","type":"Kreisangehörige_Gemeinde"},"district":{"key":"05166","name":"Viersen","type":"Kreis"},"federalState":{"key":"05","name":"Nordrhein-Westfalen"}},{"name":"Polmansstr.","postalCode":"41366","locality":"Schwalmtal","municipality":{"key":"05166024","name":"Schwalmtal","type":"Kreisangehörige_Gemeinde"},"district":{"key":"05166","name":"Viersen","type":"Kreis"},"federalState":{"key":"05","name":"Nordrhein-Westfalen"}},{"name":"Printzenhof","postalCode":"41366","locality":"Schwalmtal","municipality":{"key":"05166024","name":"Schwalmtal","type":"Kreisangehörige_Gemeinde"},"district":{"key":"05166","name":"Viersen","type":"Kreis"},"federalState":{"key":"05","name":"Nordrhein-Westfalen"}},{"name":"Pumpenstr.","postalCode":"41366","locality":"Schwalmtal","municipality":{"key":"05166024","name":"Schwalmtal","type":"Kreisangehörige_Gemeinde"},"district":{"key":"05166","name":"Viersen","type":"Kreis"},"federalState":{"key":"05","name":"Nordrhein-Westfalen"}},{"name":"Quartelsweg","postalCode":"41366","locality":"Schwalmtal","municipality":{"key":"05166024","name":"Schwalmtal","type":"Kreisangehörige_Gemeinde"},"district":{"key":"05166","name":"Viersen","type":"Kreis"},"federalState":{"key":"05","name":"Nordrhein-Westfalen"}},{"name":"Querstr.","postalCode":"41366","locality":"Schwalmtal","municipality":{"key":"05166024","name":"Schwalmtal","type":"Kreisangehörige_Gemeinde"},"district":{"key":"05166","name":"Viersen","type":"Kreis"},"federalState":{"key":"05","name":"Nordrhein-Westfalen"}},{"name":"Raderberg","postalCode":"41366","locality":"Schwalmtal","municipality":{"key":"05166024","name":"Schwalmtal","type":"Kreisangehörige_Gemeinde"},"district":{"key":"05166","name":"Viersen","type":"Kreis"},"federalState":{"key":"05","name":"Nordrhein-Westfalen"}},{"name":"Radermühle","postalCode":"41366","locality":"Schwalmtal","municipality":{"key":"05166024","name":"Schwalmtal","type":"Kreisangehörige_Gemeinde"},"district":{"key":"05166","name":"Viersen","type":"Kreis"},"federalState":{"key":"05","name":"Nordrhein-Westfalen"}},{"name":"Rainröder Str.","postalCode":"36318","locality":"Schwalmtal","municipality":{"key":"06535017","name":"Schwalmtal","type":"Kreisangehörige_Gemeinde"},"district":{"key":"06535","name":"Vogelsbergkreis","type":"Landkreis"},"federalState":{"key":"06","name":"Hessen"}},{"name":"Rasenweg","postalCode":"36318","locality":"Schwalmtal","municipality":{"key":"06535017","name":"Schwalmtal","type":"Kreisangehörige_Gemeinde"},"district":{"key":"06535","name":"Vogelsbergkreis","type":"Landkreis"},"federalState":{"key":"06","name":"Hessen"}},{"name":"Rathausstr.","postalCode":"36318","locality":"Schwalmtal","municipality":{"key":"06535017","name":"Schwalmtal","type":"Kreisangehörige_Gemeinde"},"district":{"key":"06535","name":"Vogelsbergkreis","type":"Landkreis"},"federalState":{"key":"06","name":"Hessen"}},{"name":"Renneperstr.","postalCode":"41366","locality":"Schwalmtal","municipality":{"key":"05166024","name":"Schwalmtal","type":"Kreisangehörige_Gemeinde"},"district":{"key":"05166","name":"Viersen","type":"Kreis"},"federalState":{"key":"05","name":"Nordrhein-Westfalen"}},{"name":"Reuterser Str.","postalCode":"36318","locality":"Schwalmtal","municipality":{"key":"06535017","name":"Schwalmtal","type":"Kreisangehörige_Gemeinde"},"district":{"key":"06535","name":"Vogelsbergkreis","type":"Landkreis"},"federalState":{"key":"06","name":"Hessen"}},{"name":"Richard-Wagner-Platz","postalCode":"41366","locality":"Schwalmtal","municipality":{"key":"05166024","name":"Schwalmtal","type":"Kreisangehörige_Gemeinde"},"district":{"key":"05166","name":"Viersen","type":"Kreis"},"federalState":{"key":"05","name":"Nordrhein-Westfalen"}},{"name":"Rickelrather Str.","postalCode":"41366","locality":"Schwalmtal","municipality":{"key":"05166024","name":"Schwalmtal","type":"Kreisangehörige_Gemeinde"},"district":{"key":"05166","name":"Viersen","type":"Kreis"},"federalState":{"key":"05","name":"Nordrhein-Westfalen"}},{"name":"Riehweg","postalCode":"36318","locality":"Schwalmtal","municipality":{"key":"06535017","name":"Schwalmtal","type":"Kreisangehörige_Gemeinde"},"district":{"key":"06535","name":"Vogelsbergkreis","type":"Landkreis"},"federalState":{"key":"06","name":"Hessen"}},{"name":"Rieth","postalCode":"41366","locality":"Schwalmtal","municipality":{"key":"05166024","name":"Schwalmtal","type":"Kreisangehörige_Gemeinde"},"district":{"key":"05166","name":"Viersen","type":"Kreis"},"federalState":{"key":"05","name":"Nordrhein-Westfalen"}},{"name":"Ringstr.","postalCode":"36318","locality":"Schwalmtal","municipality":{"key":"06535017","name":"Schwalmtal","type":"Kreisangehörige_Gemeinde"},"district":{"key":"06535","name":"Vogelsbergkreis","type":"Landkreis"},"federalState":{"key":"06","name":"Hessen"}},{"name":"Ringstr.","postalCode":"41366","locality":"Schwalmtal","municipality":{"key":"05166024","name":"Schwalmtal","type":"Kreisangehörige_Gemeinde"},"district":{"key":"05166","name":"Viersen","type":"Kreis"},"federalState":{"key":"05","name":"Nordrhein-Westfalen"}},{"name":"Rochusstr.","postalCode":"41366","locality":"Schwalmtal","municipality":{"key":"05166024","name":"Schwalmtal","type":"Kreisangehörige_Gemeinde"},"district":{"key":"05166","name":"Viersen","type":"Kreis"},"federalState":{"key":"05","name":"Nordrhein-Westfalen"}},{"name":"Roermonder Str.","postalCode":"41366","locality":"Schwalmtal","municipality":{"key":"05166024","name":"Schwalmtal","type":"Kreisangehörige_Gemeinde"},"district":{"key":"05166","name":"Viersen","type":"Kreis"},"federalState":{"key":"05","name":"Nordrhein-Westfalen"}},{"name":"Römerstr.","postalCode":"41366","locality":"Schwalmtal","municipality":{"key":"05166024","name":"Schwalmtal","type":"Kreisangehörige_Gemeinde"},"district":{"key":"05166","name":"Viersen","type":"Kreis"},"federalState":{"key":"05","name":"Nordrhein-Westfalen"}},{"name":"Rosenfeldweg","postalCode":"36318","locality":"Schwalmtal","municipality":{"key":"06535017","name":"Schwalmtal","type":"Kreisangehörige_Gemeinde"},"district":{"key":"06535","name":"Vogelsbergkreis","type":"Landkreis"},"federalState":{"key":"06","name":"Hessen"}},{"name":"Rosenweg","postalCode":"41366","locality":"Schwalmtal","municipality":{"key":"05166024","name":"Schwalmtal","type":"Kreisangehörige_Gemeinde"},"district":{"key":"05166","name":"Viersen","type":"Kreis"},"federalState":{"key":"05","name":"Nordrhein-Westfalen"}},{"name":"Rosmarinstr.","postalCode":"41366","locality":"Schwalmtal","municipality":{"key":"05166024","name":"Schwalmtal","type":"Kreisangehörige_Gemeinde"},"district":{"key":"05166","name":"Viersen","type":"Kreis"},"federalState":{"key":"05","name":"Nordrhein-Westfalen"}},{"name":"Rüsgen","postalCode":"41366","locality":"Schwalmtal","municipality":{"key":"05166024","name":"Schwalmtal","type":"Kreisangehörige_Gemeinde"},"district":{"key":"05166","name":"Viersen","type":"Kreis"},"federalState":{"key":"05","name":"Nordrhein-Westfalen"}},{"name":"Rüsgenfeld","postalCode":"41366","locality":"Schwalmtal","municipality":{"key":"05166024","name":"Schwalmtal","type":"Kreisangehörige_Gemeinde"},"district":{"key":"05166","name":"Viersen","type":"Kreis"},"federalState":{"key":"05","name":"Nordrhein-Westfalen"}},{"name":"Salbeiweg","postalCode":"41366","locality":"Schwalmtal","municipality":{"key":"05166024","name":"Schwalmtal","type":"Kreisangehörige_Gemeinde"},"district":{"key":"05166","name":"Viersen","type":"Kreis"},"federalState":{"key":"05","name":"Nordrhein-Westfalen"}},{"name":"Sandrück Str.","postalCode":"36318","locality":"Schwalmtal","municipality":{"key":"06535017","name":"Schwalmtal","type":"Kreisangehörige_Gemeinde"},"district":{"key":"06535","name":"Vogelsbergkreis","type":"Landkreis"},"federalState":{"key":"06","name":"Hessen"}},{"name":"Saturnweg","postalCode":"41366","locality":"Schwalmtal","municipality":{"key":"05166024","name":"Schwalmtal","type":"Kreisangehörige_Gemeinde"},"district":{"key":"05166","name":"Viersen","type":"Kreis"},"federalState":{"key":"05","name":"Nordrhein-Westfalen"}},{"name":"Schagen","postalCode":"41366","locality":"Schwalmtal","municipality":{"key":"05166024","name":"Schwalmtal","type":"Kreisangehörige_Gemeinde"},"district":{"key":"05166","name":"Viersen","type":"Kreis"},"federalState":{"key":"05","name":"Nordrhein-Westfalen"}},{"name":"Schellerbaum","postalCode":"41366","locality":"Schwalmtal","municipality":{"key":"05166024","name":"Schwalmtal","type":"Kreisangehörige_Gemeinde"},"district":{"key":"05166","name":"Viersen","type":"Kreis"},"federalState":{"key":"05","name":"Nordrhein-Westfalen"}},{"name":"Schellerstr.","postalCode":"41366","locality":"Schwalmtal","municipality":{"key":"05166024","name":"Schwalmtal","type":"Kreisangehörige_Gemeinde"},"district":{"key":"05166","name":"Viersen","type":"Kreis"},"federalState":{"key":"05","name":"Nordrhein-Westfalen"}},{"name":"Scheuernwaldweg","postalCode":"36318","locality":"Schwalmtal","municipality":{"key":"06535017","name":"Schwalmtal","type":"Kreisangehörige_Gemeinde"},"district":{"key":"06535","name":"Vogelsbergkreis","type":"Landkreis"},"federalState":{"key":"06","name":"Hessen"}},{"name":"Schieferdyck","postalCode":"41366","locality":"Schwalmtal","municipality":{"key":"05166024","name":"Schwalmtal","type":"Kreisangehörige_Gemeinde"},"district":{"key":"05166","name":"Viersen","type":"Kreis"},"federalState":{"key":"05","name":"Nordrhein-Westfalen"}},{"name":"Schier","postalCode":"41366","locality":"Schwalmtal","municipality":{"key":"05166024","name":"Schwalmtal","type":"Kreisangehörige_Gemeinde"},"district":{"key":"05166","name":"Viersen","type":"Kreis"},"federalState":{"key":"05","name":"Nordrhein-Westfalen"}},{"name":"Schillerstr.","postalCode":"41366","locality":"Schwalmtal","municipality":{"key":"05166024","name":"Schwalmtal","type":"Kreisangehörige_Gemeinde"},"district":{"key":"05166","name":"Viersen","type":"Kreis"},"federalState":{"key":"05","name":"Nordrhein-Westfalen"}},{"name":"Schlüsselgall","postalCode":"36318","locality":"Schwalmtal","municipality":{"key":"06535017","name":"Schwalmtal","type":"Kreisangehörige_Gemeinde"},"district":{"key":"06535","name":"Vogelsbergkreis","type":"Landkreis"},"federalState":{"key":"06","name":"Hessen"}},{"name":"Schmalend","postalCode":"41366","locality":"Schwalmtal","municipality":{"key":"05166024","name":"Schwalmtal","type":"Kreisangehörige_Gemeinde"},"district":{"key":"05166","name":"Viersen","type":"Kreis"},"federalState":{"key":"05","name":"Nordrhein-Westfalen"}},{"name":"Schöffenweg","postalCode":"36318","locality":"Schwalmtal","municipality":{"key":"06535017","name":"Schwalmtal","type":"Kreisangehörige_Gemeinde"},"district":{"key":"06535","name":"Vogelsbergkreis","type":"Landkreis"},"federalState":{"key":"06","name":"Hessen"}},{"name":"Schubertstr.","postalCode":"41366","locality":"Schwalmtal","municipality":{"key":"05166024","name":"Schwalmtal","type":"Kreisangehörige_Gemeinde"},"district":{"key":"05166","name":"Viersen","type":"Kreis"},"federalState":{"key":"05","name":"Nordrhein-Westfalen"}},{"name":"Schuhgrundsweg","postalCode":"36318","locality":"Schwalmtal","municipality":{"key":"06535017","name":"Schwalmtal","type":"Kreisangehörige_Gemeinde"},"district":{"key":"06535","name":"Vogelsbergkreis","type":"Landkreis"},"federalState":{"key":"06","name":"Hessen"}},{"name":"Schulstr.","postalCode":"36318","locality":"Schwalmtal","municipality":{"key":"06535017","name":"Schwalmtal","type":"Kreisangehörige_Gemeinde"},"district":{"key":"06535","name":"Vogelsbergkreis","type":"Landkreis"},"federalState":{"key":"06","name":"Hessen"}},{"name":"Schulstr.","postalCode":"41366","locality":"Schwalmtal","municipality":{"key":"05166024","name":"Schwalmtal","type":"Kreisangehörige_Gemeinde"},"district":{"key":"05166","name":"Viersen","type":"Kreis"},"federalState":{"key":"05","name":"Nordrhein-Westfalen"}},{"name":"Schulwall","postalCode":"41366","locality":"Schwalmtal","municipality":{"key":"05166024","name":"Schwalmtal","type":"Kreisangehörige_Gemeinde"},"district":{"key":"05166","name":"Viersen","type":"Kreis"},"federalState":{"key":"05","name":"Nordrhein-Westfalen"}},{"name":"Schürensteg","postalCode":"41366","locality":"Schwalmtal","municipality":{"key":"05166024","name":"Schwalmtal","type":"Kreisangehörige_Gemeinde"},"district":{"key":"05166","name":"Viersen","type":"Kreis"},"federalState":{"key":"05","name":"Nordrhein-Westfalen"}},{"name":"Schwalmstr.","postalCode":"36318","locality":"Schwalmtal","municipality":{"key":"06535017","name":"Schwalmtal","type":"Kreisangehörige_Gemeinde"},"district":{"key":"06535","name":"Vogelsbergkreis","type":"Landkreis"},"federalState":{"key":"06","name":"Hessen"}},{"name":"Schwalmstr.","postalCode":"41366","locality":"Schwalmtal","municipality":{"key":"05166024","name":"Schwalmtal","type":"Kreisangehörige_Gemeinde"},"district":{"key":"05166","name":"Viersen","type":"Kreis"},"federalState":{"key":"05","name":"Nordrhein-Westfalen"}},{"name":"Schwarzer Str.","postalCode":"36318","locality":"Schwalmtal","municipality":{"key":"06535017","name":"Schwalmtal","type":"Kreisangehörige_Gemeinde"},"district":{"key":"06535","name":"Vogelsbergkreis","type":"Landkreis"},"federalState":{"key":"06","name":"Hessen"}},{"name":"Sechs Linden","postalCode":"41366","locality":"Schwalmtal","municipality":{"key":"05166024","name":"Schwalmtal","type":"Kreisangehörige_Gemeinde"},"district":{"key":"05166","name":"Viersen","type":"Kreis"},"federalState":{"key":"05","name":"Nordrhein-Westfalen"}},{"name":"Smetsend","postalCode":"41366","locality":"Schwalmtal","municipality":{"key":"05166024","name":"Schwalmtal","type":"Kreisangehörige_Gemeinde"},"district":{"key":"05166","name":"Viersen","type":"Kreis"},"federalState":{"key":"05","name":"Nordrhein-Westfalen"}},{"name":"Sonnenstr.","postalCode":"36318","locality":"Schwalmtal","municipality":{"key":"06535017","name":"Schwalmtal","type":"Kreisangehörige_Gemeinde"},"district":{"key":"06535","name":"Vogelsbergkreis","type":"Landkreis"},"federalState":{"key":"06","name":"Hessen"}},{"name":"Sonnenweg","postalCode":"41366","locality":"Schwalmtal","municipality":{"key":"05166024","name":"Schwalmtal","type":"Kreisangehörige_Gemeinde"},"district":{"key":"05166","name":"Viersen","type":"Kreis"},"federalState":{"key":"05","name":"Nordrhein-Westfalen"}},{"name":"Steeg","postalCode":"41366","locality":"Schwalmtal","municipality":{"key":"05166024","name":"Schwalmtal","type":"Kreisangehörige_Gemeinde"},"district":{"key":"05166","name":"Viersen","type":"Kreis"},"federalState":{"key":"05","name":"Nordrhein-Westfalen"}},{"name":"Steegskamp","postalCode":"41366","locality":"Schwalmtal","municipality":{"key":"05166024","name":"Schwalmtal","type":"Kreisangehörige_Gemeinde"},"district":{"key":"05166","name":"Viersen","type":"Kreis"},"federalState":{"key":"05","name":"Nordrhein-Westfalen"}},{"name":"Sternstr.","postalCode":"41366","locality":"Schwalmtal","municipality":{"key":"05166024","name":"Schwalmtal","type":"Kreisangehörige_Gemeinde"},"district":{"key":"05166","name":"Viersen","type":"Kreis"},"federalState":{"key":"05","name":"Nordrhein-Westfalen"}},{"name":"Stettiner Str.","postalCode":"41366","locality":"Schwalmtal","municipality":{"key":"05166024","name":"Schwalmtal","type":"Kreisangehörige_Gemeinde"},"district":{"key":"05166","name":"Viersen","type":"Kreis"},"federalState":{"key":"05","name":"Nordrhein-Westfalen"}},{"name":"St.Michael-Str.","postalCode":"41366","locality":"Schwalmtal","municipality":{"key":"05166024","name":"Schwalmtal","type":"Kreisangehörige_Gemeinde"},"district":{"key":"05166","name":"Viersen","type":"Kreis"},"federalState":{"key":"05","name":"Nordrhein-Westfalen"}},{"name":"Stöckener Weg","postalCode":"41366","locality":"Schwalmtal","municipality":{"key":"05166024","name":"Schwalmtal","type":"Kreisangehörige_Gemeinde"},"district":{"key":"05166","name":"Viersen","type":"Kreis"},"federalState":{"key":"05","name":"Nordrhein-Westfalen"}},{"name":"Storndorfer Str.","postalCode":"36318","locality":"Schwalmtal","municipality":{"key":"06535017","name":"Schwalmtal","type":"Kreisangehörige_Gemeinde"},"district":{"key":"06535","name":"Vogelsbergkreis","type":"Landkreis"},"federalState":{"key":"06","name":"Hessen"}},{"name":"Strebendorfer Str.","postalCode":"36318","locality":"Schwalmtal","municipality":{"key":"06535017","name":"Schwalmtal","type":"Kreisangehörige_Gemeinde"},"district":{"key":"06535","name":"Vogelsbergkreis","type":"Landkreis"},"federalState":{"key":"06","name":"Hessen"}},{"name":"St.-Wolfhelm-Str.","postalCode":"41366","locality":"Schwalmtal","municipality":{"key":"05166024","name":"Schwalmtal","type":"Kreisangehörige_Gemeinde"},"district":{"key":"05166","name":"Viersen","type":"Kreis"},"federalState":{"key":"05","name":"Nordrhein-Westfalen"}},{"name":"Sudetenstr.","postalCode":"36318","locality":"Schwalmtal","municipality":{"key":"06535017","name":"Schwalmtal","type":"Kreisangehörige_Gemeinde"},"district":{"key":"06535","name":"Vogelsbergkreis","type":"Landkreis"},"federalState":{"key":"06","name":"Hessen"}},{"name":"Teichstr.","postalCode":"36318","locality":"Schwalmtal","municipality":{"key":"06535017","name":"Schwalmtal","type":"Kreisangehörige_Gemeinde"},"district":{"key":"06535","name":"Vogelsbergkreis","type":"Landkreis"},"federalState":{"key":"06","name":"Hessen"}},{"name":"Teichweg","postalCode":"36318","locality":"Schwalmtal","municipality":{"key":"06535017","name":"Schwalmtal","type":"Kreisangehörige_Gemeinde"},"district":{"key":"06535","name":"Vogelsbergkreis","type":"Landkreis"},"federalState":{"key":"06","name":"Hessen"}},{"name":"Thelen Mühle","postalCode":"41366","locality":"Schwalmtal","municipality":{"key":"05166024","name":"Schwalmtal","type":"Kreisangehörige_Gemeinde"},"district":{"key":"05166","name":"Viersen","type":"Kreis"},"federalState":{"key":"05","name":"Nordrhein-Westfalen"}},{"name":"Toerschenweg","postalCode":"41366","locality":"Schwalmtal","municipality":{"key":"05166024","name":"Schwalmtal","type":"Kreisangehörige_Gemeinde"},"district":{"key":"05166","name":"Viersen","type":"Kreis"},"federalState":{"key":"05","name":"Nordrhein-Westfalen"}},{"name":"Topsweg","postalCode":"41366","locality":"Schwalmtal","municipality":{"key":"05166024","name":"Schwalmtal","type":"Kreisangehörige_Gemeinde"},"district":{"key":"05166","name":"Viersen","type":"Kreis"},"federalState":{"key":"05","name":"Nordrhein-Westfalen"}},{"name":"Trift","postalCode":"36318","locality":"Schwalmtal","municipality":{"key":"06535017","name":"Schwalmtal","type":"Kreisangehörige_Gemeinde"},"district":{"key":"06535","name":"Vogelsbergkreis","type":"Landkreis"},"federalState":{"key":"06","name":"Hessen"}},{"name":"Tulpenweg","postalCode":"41366","locality":"Schwalmtal","municipality":{"key":"05166024","name":"Schwalmtal","type":"Kreisangehörige_Gemeinde"},"district":{"key":"05166","name":"Viersen","type":"Kreis"},"federalState":{"key":"05","name":"Nordrhein-Westfalen"}},{"name":"Turmstr.","postalCode":"41366","locality":"Schwalmtal","municipality":{"key":"05166024","name":"Schwalmtal","type":"Kreisangehörige_Gemeinde"},"district":{"key":"05166","name":"Viersen","type":"Kreis"},"federalState":{"key":"05","name":"Nordrhein-Westfalen"}},{"name":"Ungerath","postalCode":"41366","locality":"Schwalmtal","municipality":{"key":"05166024","name":"Schwalmtal","type":"Kreisangehörige_Gemeinde"},"district":{"key":"05166","name":"Viersen","type":"Kreis"},"federalState":{"key":"05","name":"Nordrhein-Westfalen"}},{"name":"Ungerather Kirchweg","postalCode":"41366","locality":"Schwalmtal","municipality":{"key":"05166024","name":"Schwalmtal","type":"Kreisangehörige_Gemeinde"},"district":{"key":"05166","name":"Viersen","type":"Kreis"},"federalState":{"key":"05","name":"Nordrhein-Westfalen"}},{"name":"Ungerather Str.","postalCode":"41366","locality":"Schwalmtal","municipality":{"key":"05166024","name":"Schwalmtal","type":"Kreisangehörige_Gemeinde"},"district":{"key":"05166","name":"Viersen","type":"Kreis"},"federalState":{"key":"05","name":"Nordrhein-Westfalen"}},{"name":"Unter-Sorger-Str.","postalCode":"36318","locality":"Schwalmtal","municipality":{"key":"06535017","name":"Schwalmtal","type":"Kreisangehörige_Gemeinde"},"district":{"key":"06535","name":"Vogelsbergkreis","type":"Landkreis"},"federalState":{"key":"06","name":"Hessen"}},{"name":"Uranusweg","postalCode":"41366","locality":"Schwalmtal","municipality":{"key":"05166024","name":"Schwalmtal","type":"Kreisangehörige_Gemeinde"},"district":{"key":"05166","name":"Viersen","type":"Kreis"},"federalState":{"key":"05","name":"Nordrhein-Westfalen"}},{"name":"Vadenröder Str.","postalCode":"36318","locality":"Schwalmtal","municipality":{"key":"06535017","name":"Schwalmtal","type":"Kreisangehörige_Gemeinde"},"district":{"key":"06535","name":"Vogelsbergkreis","type":"Landkreis"},"federalState":{"key":"06","name":"Hessen"}},{"name":"Veilchenweg","postalCode":"41366","locality":"Schwalmtal","municipality":{"key":"05166024","name":"Schwalmtal","type":"Kreisangehörige_Gemeinde"},"district":{"key":"05166","name":"Viersen","type":"Kreis"},"federalState":{"key":"05","name":"Nordrhein-Westfalen"}},{"name":"Viehstiege","postalCode":"41366","locality":"Schwalmtal","municipality":{"key":"05166024","name":"Schwalmtal","type":"Kreisangehörige_Gemeinde"},"district":{"key":"05166","name":"Viersen","type":"Kreis"},"federalState":{"key":"05","name":"Nordrhein-Westfalen"}},{"name":"Vogelsbergstr.","postalCode":"36318","locality":"Schwalmtal","municipality":{"key":"06535017","name":"Schwalmtal","type":"Kreisangehörige_Gemeinde"},"district":{"key":"06535","name":"Vogelsbergkreis","type":"Landkreis"},"federalState":{"key":"06","name":"Hessen"}},{"name":"Vogelsrath","postalCode":"41366","locality":"Schwalmtal","municipality":{"key":"05166024","name":"Schwalmtal","type":"Kreisangehörige_Gemeinde"},"district":{"key":"05166","name":"Viersen","type":"Kreis"},"federalState":{"key":"05","name":"Nordrhein-Westfalen"}},{"name":"Vorstadt","postalCode":"41366","locality":"Schwalmtal","municipality":{"key":"05166024","name":"Schwalmtal","type":"Kreisangehörige_Gemeinde"},"district":{"key":"05166","name":"Viersen","type":"Kreis"},"federalState":{"key":"05","name":"Nordrhein-Westfalen"}},{"name":"Vossenberg","postalCode":"41366","locality":"Schwalmtal","municipality":{"key":"05166024","name":"Schwalmtal","type":"Kreisangehörige_Gemeinde"},"district":{"key":"05166","name":"Viersen","type":"Kreis"},"federalState":{"key":"05","name":"Nordrhein-Westfalen"}},{"name":"Wagnerstr.","postalCode":"36318","locality":"Schwalmtal","municipality":{"key":"06535017","name":"Schwalmtal","type":"Kreisangehörige_Gemeinde"},"district":{"key":"06535","name":"Vogelsbergkreis","type":"Landkreis"},"federalState":{"key":"06","name":"Hessen"}},{"name":"Waldnieler Heide","postalCode":"41366","locality":"Schwalmtal","municipality":{"key":"05166024","name":"Schwalmtal","type":"Kreisangehörige_Gemeinde"},"district":{"key":"05166","name":"Viersen","type":"Kreis"},"federalState":{"key":"05","name":"Nordrhein-Westfalen"}},{"name":"Waldnieler Str.","postalCode":"41366","locality":"Schwalmtal","municipality":{"key":"05166024","name":"Schwalmtal","type":"Kreisangehörige_Gemeinde"},"district":{"key":"05166","name":"Viersen","type":"Kreis"},"federalState":{"key":"05","name":"Nordrhein-Westfalen"}},{"name":"Waldstr.","postalCode":"36318","locality":"Schwalmtal","municipality":{"key":"06535017","name":"Schwalmtal","type":"Kreisangehörige_Gemeinde"},"district":{"key":"06535","name":"Vogelsbergkreis","type":"Landkreis"},"federalState":{"key":"06","name":"Hessen"}},{"name":"Waldweg","postalCode":"41366","locality":"Schwalmtal","municipality":{"key":"05166024","name":"Schwalmtal","type":"Kreisangehörige_Gemeinde"},"district":{"key":"05166","name":"Viersen","type":"Kreis"},"federalState":{"key":"05","name":"Nordrhein-Westfalen"}},{"name":"Wallenröder Str.","postalCode":"36318","locality":"Schwalmtal","municipality":{"key":"06535017","name":"Schwalmtal","type":"Kreisangehörige_Gemeinde"},"district":{"key":"06535","name":"Vogelsbergkreis","type":"Landkreis"},"federalState":{"key":"06","name":"Hessen"}},{"name":"Wallweg","postalCode":"41366","locality":"Schwalmtal","municipality":{"key":"05166024","name":"Schwalmtal","type":"Kreisangehörige_Gemeinde"},"district":{"key":"05166","name":"Viersen","type":"Kreis"},"federalState":{"key":"05","name":"Nordrhein-Westfalen"}},{"name":"Weichselstr.","postalCode":"41366","locality":"Schwalmtal","municipality":{"key":"05166024","name":"Schwalmtal","type":"Kreisangehörige_Gemeinde"},"district":{"key":"05166","name":"Viersen","type":"Kreis"},"federalState":{"key":"05","name":"Nordrhein-Westfalen"}},{"name":"Weiherstr.","postalCode":"41366","locality":"Schwalmtal","municipality":{"key":"05166024","name":"Schwalmtal","type":"Kreisangehörige_Gemeinde"},"district":{"key":"05166","name":"Viersen","type":"Kreis"},"federalState":{"key":"05","name":"Nordrhein-Westfalen"}},{"name":"Weißdornstr.","postalCode":"41366","locality":"Schwalmtal","municipality":{"key":"05166024","name":"Schwalmtal","type":"Kreisangehörige_Gemeinde"},"district":{"key":"05166","name":"Viersen","type":"Kreis"},"federalState":{"key":"05","name":"Nordrhein-Westfalen"}},{"name":"Weiße Erde","postalCode":"36318","locality":"Schwalmtal","municipality":{"key":"06535017","name":"Schwalmtal","type":"Kreisangehörige_Gemeinde"},"district":{"key":"06535","name":"Vogelsbergkreis","type":"Landkreis"},"federalState":{"key":"06","name":"Hessen"}},{"name":"Weserstr.","postalCode":"41366","locality":"Schwalmtal","municipality":{"key":"05166024","name":"Schwalmtal","type":"Kreisangehörige_Gemeinde"},"district":{"key":"05166","name":"Viersen","type":"Kreis"},"federalState":{"key":"05","name":"Nordrhein-Westfalen"}},{"name":"Weyers Weg","postalCode":"41366","locality":"Schwalmtal","municipality":{"key":"05166024","name":"Schwalmtal","type":"Kreisangehörige_Gemeinde"},"district":{"key":"05166","name":"Viersen","type":"Kreis"},"federalState":{"key":"05","name":"Nordrhein-Westfalen"}},{"name":"Wiesenstr.","postalCode":"41366","locality":"Schwalmtal","municipality":{"key":"05166024","name":"Schwalmtal","type":"Kreisangehörige_Gemeinde"},"district":{"key":"05166","name":"Viersen","type":"Kreis"},"federalState":{"key":"05","name":"Nordrhein-Westfalen"}},{"name":"Wilhelm-Engbrocks-Str.","postalCode":"41366","locality":"Schwalmtal","municipality":{"key":"05166024","name":"Schwalmtal","type":"Kreisangehörige_Gemeinde"},"district":{"key":"05166","name":"Viersen","type":"Kreis"},"federalState":{"key":"05","name":"Nordrhein-Westfalen"}},{"name":"Willy-Rösler-Str.","postalCode":"41366","locality":"Schwalmtal","municipality":{"key":"05166024","name":"Schwalmtal","type":"Kreisangehörige_Gemeinde"},"district":{"key":"05166","name":"Viersen","type":"Kreis"},"federalState":{"key":"05","name":"Nordrhein-Westfalen"}},{"name":"Windhäuser Str.","postalCode":"36318","locality":"Schwalmtal","municipality":{"key":"06535017","name":"Schwalmtal","type":"Kreisangehörige_Gemeinde"},"district":{"key":"06535","name":"Vogelsbergkreis","type":"Landkreis"},"federalState":{"key":"06","name":"Hessen"}},{"name":"Winkels Feld","postalCode":"41366","locality":"Schwalmtal","municipality":{"key":"05166024","name":"Schwalmtal","type":"Kreisangehörige_Gemeinde"},"district":{"key":"05166","name":"Viersen","type":"Kreis"},"federalState":{"key":"05","name":"Nordrhein-Westfalen"}},{"name":"Wolfersbergstr.","postalCode":"36318","locality":"Schwalmtal","municipality":{"key":"06535017","name":"Schwalmtal","type":"Kreisangehörige_Gemeinde"},"district":{"key":"06535","name":"Vogelsbergkreis","type":"Landkreis"},"federalState":{"key":"06","name":"Hessen"}},{"name":"Zu den Schwalmquellen","postalCode":"36318","locality":"Schwalmtal","municipality":{"key":"06535017","name":"Schwalmtal","type":"Kreisangehörige_Gemeinde"},"district":{"key":"06535","name":"Vogelsbergkreis","type":"Landkreis"},"federalState":{"key":"06","name":"Hessen"}},{"name":"Zum Burghof","postalCode":"41366","locality":"Schwalmtal","municipality":{"key":"05166024","name":"Schwalmtal","type":"Kreisangehörige_Gemeinde"},"district":{"key":"05166","name":"Viersen","type":"Kreis"},"federalState":{"key":"05","name":"Nordrhein-Westfalen"}},{"name":"Zum Opferrain","postalCode":"36318","locality":"Schwalmtal","municipality":{"key":"06535017","name":"Schwalmtal","type":"Kreisangehörige_Gemeinde"},"district":{"key":"06535","name":"Vogelsbergkreis","type":"Landkreis"},"federalState":{"key":"06","name":"Hessen"}},{"name":"Zum Vogelsberg","postalCode":"36318","locality":"Schwalmtal","municipality":{"key":"06535017","name":"Schwalmtal","type":"Kreisangehörige_Gemeinde"},"district":{"key":"06535","name":"Vogelsbergkreis","type":"Landkreis"},"federalState":{"key":"06","name":"Hessen"}},{"name":"Zum Wannbachsteg","postalCode":"36318","locality":"Schwalmtal","municipality":{"key":"06535017","name":"Schwalmtal","type":"Kreisangehörige_Gemeinde"},"district":{"key":"06535","name":"Vogelsbergkreis","type":"Landkreis"},"federalState":{"key":"06","name":"Hessen"}},{"name":"Zur Atzeltrift","postalCode":"36318","locality":"Schwalmtal","municipality":{"key":"06535017","name":"Schwalmtal","type":"Kreisangehörige_Gemeinde"},"district":{"key":"06535","name":"Vogelsbergkreis","type":"Landkreis"},"federalState":{"key":"06","name":"Hessen"}},{"name":"Zur Kirche","postalCode":"36318","locality":"Schwalmtal","municipality":{"key":"06535017","name":"Schwalmtal","type":"Kreisangehörige_Gemeinde"},"district":{"key":"06535","name":"Vogelsbergkreis","type":"Landkreis"},"federalState":{"key":"06","name":"Hessen"}},{"name":"Zur Schule","postalCode":"36318","locality":"Schwalmtal","municipality":{"key":"06535017","name":"Schwalmtal","type":"Kreisangehörige_Gemeinde"},"district":{"key":"06535","name":"Vogelsbergkreis","type":"Landkreis"},"federalState":{"key":"06","name":"Hessen"}},]