[{"name":"Ahornweg","postalCode":"71560","locality":"Sulzbach an der Murr","municipality":{"key":"08119075","name":"Sulzbach an der Murr","type":"Kreisangehörige_Gemeinde"},"district":{"key":"08119","name":"Rems-Murr-Kreis","type":"Landkreis"},"federalState":{"key":"08","name":"Baden-Württemberg"}},{"name":"Aladinstr.","postalCode":"71560","locality":"Sulzbach an der Murr","municipality":{"key":"08119075","name":"Sulzbach an der Murr","type":"Kreisangehörige_Gemeinde"},"district":{"key":"08119","name":"Rems-Murr-Kreis","type":"Landkreis"},"federalState":{"key":"08","name":"Baden-Württemberg"}},{"name":"Alexanderstr.","postalCode":"71560","locality":"Sulzbach an der Murr","municipality":{"key":"08119075","name":"Sulzbach an der Murr","type":"Kreisangehörige_Gemeinde"},"district":{"key":"08119","name":"Rems-Murr-Kreis","type":"Landkreis"},"federalState":{"key":"08","name":"Baden-Württemberg"}},{"name":"Altwieserweg","postalCode":"71560","locality":"Sulzbach an der Murr","municipality":{"key":"08119075","name":"Sulzbach an der Murr","type":"Kreisangehörige_Gemeinde"},"district":{"key":"08119","name":"Rems-Murr-Kreis","type":"Landkreis"},"federalState":{"key":"08","name":"Baden-Württemberg"}},{"name":"Amselweg","postalCode":"71560","locality":"Sulzbach an der Murr","municipality":{"key":"08119075","name":"Sulzbach an der Murr","type":"Kreisangehörige_Gemeinde"},"district":{"key":"08119","name":"Rems-Murr-Kreis","type":"Landkreis"},"federalState":{"key":"08","name":"Baden-Württemberg"}},{"name":"Andersenstr.","postalCode":"71560","locality":"Sulzbach an der Murr","municipality":{"key":"08119075","name":"Sulzbach an der Murr","type":"Kreisangehörige_Gemeinde"},"district":{"key":"08119","name":"Rems-Murr-Kreis","type":"Landkreis"},"federalState":{"key":"08","name":"Baden-Württemberg"}},{"name":"Backnanger Str.","postalCode":"71560","locality":"Sulzbach an der Murr","municipality":{"key":"08119075","name":"Sulzbach an der Murr","type":"Kreisangehörige_Gemeinde"},"district":{"key":"08119","name":"Rems-Murr-Kreis","type":"Landkreis"},"federalState":{"key":"08","name":"Baden-Württemberg"}},{"name":"Bahnhofstr.","postalCode":"71560","locality":"Sulzbach an der Murr","municipality":{"key":"08119075","name":"Sulzbach an der Murr","type":"Kreisangehörige_Gemeinde"},"district":{"key":"08119","name":"Rems-Murr-Kreis","type":"Landkreis"},"federalState":{"key":"08","name":"Baden-Württemberg"}},{"name":"Bartenbacher Sträßle","postalCode":"71560","locality":"Sulzbach an der Murr","municipality":{"key":"08119075","name":"Sulzbach an der Murr","type":"Kreisangehörige_Gemeinde"},"district":{"key":"08119","name":"Rems-Murr-Kreis","type":"Landkreis"},"federalState":{"key":"08","name":"Baden-Württemberg"}},{"name":"Bergstr.","postalCode":"71560","locality":"Sulzbach an der Murr","municipality":{"key":"08119075","name":"Sulzbach an der Murr","type":"Kreisangehörige_Gemeinde"},"district":{"key":"08119","name":"Rems-Murr-Kreis","type":"Landkreis"},"federalState":{"key":"08","name":"Baden-Württemberg"}},{"name":"Berwinkel","postalCode":"71560","locality":"Sulzbach an der Murr","municipality":{"key":"08119075","name":"Sulzbach an der Murr","type":"Kreisangehörige_Gemeinde"},"district":{"key":"08119","name":"Rems-Murr-Kreis","type":"Landkreis"},"federalState":{"key":"08","name":"Baden-Württemberg"}},{"name":"Bindengasse","postalCode":"71560","locality":"Sulzbach an der Murr","municipality":{"key":"08119075","name":"Sulzbach an der Murr","type":"Kreisangehörige_Gemeinde"},"district":{"key":"08119","name":"Rems-Murr-Kreis","type":"Landkreis"},"federalState":{"key":"08","name":"Baden-Württemberg"}},{"name":"Birkenweg","postalCode":"71560","locality":"Sulzbach an der Murr","municipality":{"key":"08119075","name":"Sulzbach an der Murr","type":"Kreisangehörige_Gemeinde"},"district":{"key":"08119","name":"Rems-Murr-Kreis","type":"Landkreis"},"federalState":{"key":"08","name":"Baden-Württemberg"}},{"name":"Brahmsstr.","postalCode":"71560","locality":"Sulzbach an der Murr","municipality":{"key":"08119075","name":"Sulzbach an der Murr","type":"Kreisangehörige_Gemeinde"},"district":{"key":"08119","name":"Rems-Murr-Kreis","type":"Landkreis"},"federalState":{"key":"08","name":"Baden-Württemberg"}},{"name":"Brenntenweg","postalCode":"71560","locality":"Sulzbach an der Murr","municipality":{"key":"08119075","name":"Sulzbach an der Murr","type":"Kreisangehörige_Gemeinde"},"district":{"key":"08119","name":"Rems-Murr-Kreis","type":"Landkreis"},"federalState":{"key":"08","name":"Baden-Württemberg"}},{"name":"Brühlgasse","postalCode":"71560","locality":"Sulzbach an der Murr","municipality":{"key":"08119075","name":"Sulzbach an der Murr","type":"Kreisangehörige_Gemeinde"},"district":{"key":"08119","name":"Rems-Murr-Kreis","type":"Landkreis"},"federalState":{"key":"08","name":"Baden-Württemberg"}},{"name":"Buchenstr.","postalCode":"71560","locality":"Sulzbach an der Murr","municipality":{"key":"08119075","name":"Sulzbach an der Murr","type":"Kreisangehörige_Gemeinde"},"district":{"key":"08119","name":"Rems-Murr-Kreis","type":"Landkreis"},"federalState":{"key":"08","name":"Baden-Württemberg"}},{"name":"Bushof","postalCode":"71560","locality":"Sulzbach an der Murr","municipality":{"key":"08119075","name":"Sulzbach an der Murr","type":"Kreisangehörige_Gemeinde"},"district":{"key":"08119","name":"Rems-Murr-Kreis","type":"Landkreis"},"federalState":{"key":"08","name":"Baden-Württemberg"}},{"name":"Charlottenweg","postalCode":"71560","locality":"Sulzbach an der Murr","municipality":{"key":"08119075","name":"Sulzbach an der Murr","type":"Kreisangehörige_Gemeinde"},"district":{"key":"08119","name":"Rems-Murr-Kreis","type":"Landkreis"},"federalState":{"key":"08","name":"Baden-Württemberg"}},{"name":"Christian-Küenzlen-Str.","postalCode":"71560","locality":"Sulzbach an der Murr","municipality":{"key":"08119075","name":"Sulzbach an der Murr","type":"Kreisangehörige_Gemeinde"},"district":{"key":"08119","name":"Rems-Murr-Kreis","type":"Landkreis"},"federalState":{"key":"08","name":"Baden-Württemberg"}},{"name":"Dachsweg","postalCode":"71560","locality":"Sulzbach an der Murr","municipality":{"key":"08119075","name":"Sulzbach an der Murr","type":"Kreisangehörige_Gemeinde"},"district":{"key":"08119","name":"Rems-Murr-Kreis","type":"Landkreis"},"federalState":{"key":"08","name":"Baden-Württemberg"}},{"name":"Dornröschenstr.","postalCode":"71560","locality":"Sulzbach an der Murr","municipality":{"key":"08119075","name":"Sulzbach an der Murr","type":"Kreisangehörige_Gemeinde"},"district":{"key":"08119","name":"Rems-Murr-Kreis","type":"Landkreis"},"federalState":{"key":"08","name":"Baden-Württemberg"}},{"name":"Dorotheenweg","postalCode":"71560","locality":"Sulzbach an der Murr","municipality":{"key":"08119075","name":"Sulzbach an der Murr","type":"Kreisangehörige_Gemeinde"},"district":{"key":"08119","name":"Rems-Murr-Kreis","type":"Landkreis"},"federalState":{"key":"08","name":"Baden-Württemberg"}},{"name":"Dreckweg","postalCode":"71560","locality":"Sulzbach an der Murr","municipality":{"key":"08119075","name":"Sulzbach an der Murr","type":"Kreisangehörige_Gemeinde"},"district":{"key":"08119","name":"Rems-Murr-Kreis","type":"Landkreis"},"federalState":{"key":"08","name":"Baden-Württemberg"}},{"name":"Eichendorffstr.","postalCode":"71560","locality":"Sulzbach an der Murr","municipality":{"key":"08119075","name":"Sulzbach an der Murr","type":"Kreisangehörige_Gemeinde"},"district":{"key":"08119","name":"Rems-Murr-Kreis","type":"Landkreis"},"federalState":{"key":"08","name":"Baden-Württemberg"}},{"name":"Eisenbahnstr.","postalCode":"71560","locality":"Sulzbach an der Murr","municipality":{"key":"08119075","name":"Sulzbach an der Murr","type":"Kreisangehörige_Gemeinde"},"district":{"key":"08119","name":"Rems-Murr-Kreis","type":"Landkreis"},"federalState":{"key":"08","name":"Baden-Württemberg"}},{"name":"Elisabethenweg","postalCode":"71560","locality":"Sulzbach an der Murr","municipality":{"key":"08119075","name":"Sulzbach an der Murr","type":"Kreisangehörige_Gemeinde"},"district":{"key":"08119","name":"Rems-Murr-Kreis","type":"Landkreis"},"federalState":{"key":"08","name":"Baden-Württemberg"}},{"name":"Erlenweg","postalCode":"71560","locality":"Sulzbach an der Murr","municipality":{"key":"08119075","name":"Sulzbach an der Murr","type":"Kreisangehörige_Gemeinde"},"district":{"key":"08119","name":"Rems-Murr-Kreis","type":"Landkreis"},"federalState":{"key":"08","name":"Baden-Württemberg"}},{"name":"Eschenstruet","postalCode":"71560","locality":"Sulzbach an der Murr","municipality":{"key":"08119075","name":"Sulzbach an der Murr","type":"Kreisangehörige_Gemeinde"},"district":{"key":"08119","name":"Rems-Murr-Kreis","type":"Landkreis"},"federalState":{"key":"08","name":"Baden-Württemberg"}},{"name":"Eugenstr.","postalCode":"71560","locality":"Sulzbach an der Murr","municipality":{"key":"08119075","name":"Sulzbach an der Murr","type":"Kreisangehörige_Gemeinde"},"district":{"key":"08119","name":"Rems-Murr-Kreis","type":"Landkreis"},"federalState":{"key":"08","name":"Baden-Württemberg"}},{"name":"Fabrikstr.","postalCode":"71560","locality":"Sulzbach an der Murr","municipality":{"key":"08119075","name":"Sulzbach an der Murr","type":"Kreisangehörige_Gemeinde"},"district":{"key":"08119","name":"Rems-Murr-Kreis","type":"Landkreis"},"federalState":{"key":"08","name":"Baden-Württemberg"}},{"name":"Fasanenweg","postalCode":"71560","locality":"Sulzbach an der Murr","municipality":{"key":"08119075","name":"Sulzbach an der Murr","type":"Kreisangehörige_Gemeinde"},"district":{"key":"08119","name":"Rems-Murr-Kreis","type":"Landkreis"},"federalState":{"key":"08","name":"Baden-Württemberg"}},{"name":"Femelwaldweg","postalCode":"71560","locality":"Sulzbach an der Murr","municipality":{"key":"08119075","name":"Sulzbach an der Murr","type":"Kreisangehörige_Gemeinde"},"district":{"key":"08119","name":"Rems-Murr-Kreis","type":"Landkreis"},"federalState":{"key":"08","name":"Baden-Württemberg"}},{"name":"Fichtenstr.","postalCode":"71560","locality":"Sulzbach an der Murr","municipality":{"key":"08119075","name":"Sulzbach an der Murr","type":"Kreisangehörige_Gemeinde"},"district":{"key":"08119","name":"Rems-Murr-Kreis","type":"Landkreis"},"federalState":{"key":"08","name":"Baden-Württemberg"}},{"name":"Finkenweg","postalCode":"71560","locality":"Sulzbach an der Murr","municipality":{"key":"08119075","name":"Sulzbach an der Murr","type":"Kreisangehörige_Gemeinde"},"district":{"key":"08119","name":"Rems-Murr-Kreis","type":"Landkreis"},"federalState":{"key":"08","name":"Baden-Württemberg"}},{"name":"Fischbachweg","postalCode":"71560","locality":"Sulzbach an der Murr","municipality":{"key":"08119075","name":"Sulzbach an der Murr","type":"Kreisangehörige_Gemeinde"},"district":{"key":"08119","name":"Rems-Murr-Kreis","type":"Landkreis"},"federalState":{"key":"08","name":"Baden-Württemberg"}},{"name":"Flurstr.","postalCode":"71560","locality":"Sulzbach an der Murr","municipality":{"key":"08119075","name":"Sulzbach an der Murr","type":"Kreisangehörige_Gemeinde"},"district":{"key":"08119","name":"Rems-Murr-Kreis","type":"Landkreis"},"federalState":{"key":"08","name":"Baden-Württemberg"}},{"name":"Fontaneweg","postalCode":"71560","locality":"Sulzbach an der Murr","municipality":{"key":"08119075","name":"Sulzbach an der Murr","type":"Kreisangehörige_Gemeinde"},"district":{"key":"08119","name":"Rems-Murr-Kreis","type":"Landkreis"},"federalState":{"key":"08","name":"Baden-Württemberg"}},{"name":"Friedhofstr.","postalCode":"71560","locality":"Sulzbach an der Murr","municipality":{"key":"08119075","name":"Sulzbach an der Murr","type":"Kreisangehörige_Gemeinde"},"district":{"key":"08119","name":"Rems-Murr-Kreis","type":"Landkreis"},"federalState":{"key":"08","name":"Baden-Württemberg"}},{"name":"Friedrichstr.","postalCode":"71560","locality":"Sulzbach an der Murr","municipality":{"key":"08119075","name":"Sulzbach an der Murr","type":"Kreisangehörige_Gemeinde"},"district":{"key":"08119","name":"Rems-Murr-Kreis","type":"Landkreis"},"federalState":{"key":"08","name":"Baden-Württemberg"}},{"name":"Fuchsgasse","postalCode":"71560","locality":"Sulzbach an der Murr","municipality":{"key":"08119075","name":"Sulzbach an der Murr","type":"Kreisangehörige_Gemeinde"},"district":{"key":"08119","name":"Rems-Murr-Kreis","type":"Landkreis"},"federalState":{"key":"08","name":"Baden-Württemberg"}},{"name":"Gartenstr.","postalCode":"71560","locality":"Sulzbach an der Murr","municipality":{"key":"08119075","name":"Sulzbach an der Murr","type":"Kreisangehörige_Gemeinde"},"district":{"key":"08119","name":"Rems-Murr-Kreis","type":"Landkreis"},"federalState":{"key":"08","name":"Baden-Württemberg"}},{"name":"Gärtlesrain","postalCode":"71560","locality":"Sulzbach an der Murr","municipality":{"key":"08119075","name":"Sulzbach an der Murr","type":"Kreisangehörige_Gemeinde"},"district":{"key":"08119","name":"Rems-Murr-Kreis","type":"Landkreis"},"federalState":{"key":"08","name":"Baden-Württemberg"}},{"name":"Gerberstr.","postalCode":"71560","locality":"Sulzbach an der Murr","municipality":{"key":"08119075","name":"Sulzbach an der Murr","type":"Kreisangehörige_Gemeinde"},"district":{"key":"08119","name":"Rems-Murr-Kreis","type":"Landkreis"},"federalState":{"key":"08","name":"Baden-Württemberg"}},{"name":"Goethestr.","postalCode":"71560","locality":"Sulzbach an der Murr","municipality":{"key":"08119075","name":"Sulzbach an der Murr","type":"Kreisangehörige_Gemeinde"},"district":{"key":"08119","name":"Rems-Murr-Kreis","type":"Landkreis"},"federalState":{"key":"08","name":"Baden-Württemberg"}},{"name":"Grimmstr.","postalCode":"71560","locality":"Sulzbach an der Murr","municipality":{"key":"08119075","name":"Sulzbach an der Murr","type":"Kreisangehörige_Gemeinde"},"district":{"key":"08119","name":"Rems-Murr-Kreis","type":"Landkreis"},"federalState":{"key":"08","name":"Baden-Württemberg"}},{"name":"Gumpengasse","postalCode":"71560","locality":"Sulzbach an der Murr","municipality":{"key":"08119075","name":"Sulzbach an der Murr","type":"Kreisangehörige_Gemeinde"},"district":{"key":"08119","name":"Rems-Murr-Kreis","type":"Landkreis"},"federalState":{"key":"08","name":"Baden-Württemberg"}},{"name":"Häfnergärten","postalCode":"71560","locality":"Sulzbach an der Murr","municipality":{"key":"08119075","name":"Sulzbach an der Murr","type":"Kreisangehörige_Gemeinde"},"district":{"key":"08119","name":"Rems-Murr-Kreis","type":"Landkreis"},"federalState":{"key":"08","name":"Baden-Württemberg"}},{"name":"Häfnerweg","postalCode":"71560","locality":"Sulzbach an der Murr","municipality":{"key":"08119075","name":"Sulzbach an der Murr","type":"Kreisangehörige_Gemeinde"},"district":{"key":"08119","name":"Rems-Murr-Kreis","type":"Landkreis"},"federalState":{"key":"08","name":"Baden-Württemberg"}},{"name":"Hager","postalCode":"71560","locality":"Sulzbach an der Murr","municipality":{"key":"08119075","name":"Sulzbach an der Murr","type":"Kreisangehörige_Gemeinde"},"district":{"key":"08119","name":"Rems-Murr-Kreis","type":"Landkreis"},"federalState":{"key":"08","name":"Baden-Württemberg"}},{"name":"Hallengasse","postalCode":"71560","locality":"Sulzbach an der Murr","municipality":{"key":"08119075","name":"Sulzbach an der Murr","type":"Kreisangehörige_Gemeinde"},"district":{"key":"08119","name":"Rems-Murr-Kreis","type":"Landkreis"},"federalState":{"key":"08","name":"Baden-Württemberg"}},{"name":"Haller Str.","postalCode":"71560","locality":"Sulzbach an der Murr","municipality":{"key":"08119075","name":"Sulzbach an der Murr","type":"Kreisangehörige_Gemeinde"},"district":{"key":"08119","name":"Rems-Murr-Kreis","type":"Landkreis"},"federalState":{"key":"08","name":"Baden-Württemberg"}},{"name":"Händelstr.","postalCode":"71560","locality":"Sulzbach an der Murr","municipality":{"key":"08119075","name":"Sulzbach an der Murr","type":"Kreisangehörige_Gemeinde"},"district":{"key":"08119","name":"Rems-Murr-Kreis","type":"Landkreis"},"federalState":{"key":"08","name":"Baden-Württemberg"}},{"name":"Harrenberg","postalCode":"71560","locality":"Sulzbach an der Murr","municipality":{"key":"08119075","name":"Sulzbach an der Murr","type":"Kreisangehörige_Gemeinde"},"district":{"key":"08119","name":"Rems-Murr-Kreis","type":"Landkreis"},"federalState":{"key":"08","name":"Baden-Württemberg"}},{"name":"Harrenbergweg","postalCode":"71560","locality":"Sulzbach an der Murr","municipality":{"key":"08119075","name":"Sulzbach an der Murr","type":"Kreisangehörige_Gemeinde"},"district":{"key":"08119","name":"Rems-Murr-Kreis","type":"Landkreis"},"federalState":{"key":"08","name":"Baden-Württemberg"}},{"name":"Haselbachmühleweg","postalCode":"71560","locality":"Sulzbach an der Murr","municipality":{"key":"08119075","name":"Sulzbach an der Murr","type":"Kreisangehörige_Gemeinde"},"district":{"key":"08119","name":"Rems-Murr-Kreis","type":"Landkreis"},"federalState":{"key":"08","name":"Baden-Württemberg"}},{"name":"Haselbachstr.","postalCode":"71560","locality":"Sulzbach an der Murr","municipality":{"key":"08119075","name":"Sulzbach an der Murr","type":"Kreisangehörige_Gemeinde"},"district":{"key":"08119","name":"Rems-Murr-Kreis","type":"Landkreis"},"federalState":{"key":"08","name":"Baden-Württemberg"}},{"name":"Haselbachweg","postalCode":"71560","locality":"Sulzbach an der Murr","municipality":{"key":"08119075","name":"Sulzbach an der Murr","type":"Kreisangehörige_Gemeinde"},"district":{"key":"08119","name":"Rems-Murr-Kreis","type":"Landkreis"},"federalState":{"key":"08","name":"Baden-Württemberg"}},{"name":"Hasenhofweg","postalCode":"71560","locality":"Sulzbach an der Murr","municipality":{"key":"08119075","name":"Sulzbach an der Murr","type":"Kreisangehörige_Gemeinde"},"district":{"key":"08119","name":"Rems-Murr-Kreis","type":"Landkreis"},"federalState":{"key":"08","name":"Baden-Württemberg"}},{"name":"Hauffweg","postalCode":"71560","locality":"Sulzbach an der Murr","municipality":{"key":"08119075","name":"Sulzbach an der Murr","type":"Kreisangehörige_Gemeinde"},"district":{"key":"08119","name":"Rems-Murr-Kreis","type":"Landkreis"},"federalState":{"key":"08","name":"Baden-Württemberg"}},{"name":"Haydnstr.","postalCode":"71560","locality":"Sulzbach an der Murr","municipality":{"key":"08119075","name":"Sulzbach an der Murr","type":"Kreisangehörige_Gemeinde"},"district":{"key":"08119","name":"Rems-Murr-Kreis","type":"Landkreis"},"federalState":{"key":"08","name":"Baden-Württemberg"}},{"name":"Heerweg","postalCode":"71560","locality":"Sulzbach an der Murr","municipality":{"key":"08119075","name":"Sulzbach an der Murr","type":"Kreisangehörige_Gemeinde"},"district":{"key":"08119","name":"Rems-Murr-Kreis","type":"Landkreis"},"federalState":{"key":"08","name":"Baden-Württemberg"}},{"name":"Heilbronner Str.","postalCode":"71560","locality":"Sulzbach an der Murr","municipality":{"key":"08119075","name":"Sulzbach an der Murr","type":"Kreisangehörige_Gemeinde"},"district":{"key":"08119","name":"Rems-Murr-Kreis","type":"Landkreis"},"federalState":{"key":"08","name":"Baden-Württemberg"}},{"name":"Herderweg","postalCode":"71560","locality":"Sulzbach an der Murr","municipality":{"key":"08119075","name":"Sulzbach an der Murr","type":"Kreisangehörige_Gemeinde"},"district":{"key":"08119","name":"Rems-Murr-Kreis","type":"Landkreis"},"federalState":{"key":"08","name":"Baden-Württemberg"}},{"name":"Hermannstr.","postalCode":"71560","locality":"Sulzbach an der Murr","municipality":{"key":"08119075","name":"Sulzbach an der Murr","type":"Kreisangehörige_Gemeinde"},"district":{"key":"08119","name":"Rems-Murr-Kreis","type":"Landkreis"},"federalState":{"key":"08","name":"Baden-Württemberg"}},{"name":"Hofgasse","postalCode":"71560","locality":"Sulzbach an der Murr","municipality":{"key":"08119075","name":"Sulzbach an der Murr","type":"Kreisangehörige_Gemeinde"},"district":{"key":"08119","name":"Rems-Murr-Kreis","type":"Landkreis"},"federalState":{"key":"08","name":"Baden-Württemberg"}},{"name":"Hoher Weg","postalCode":"71560","locality":"Sulzbach an der Murr","municipality":{"key":"08119075","name":"Sulzbach an der Murr","type":"Kreisangehörige_Gemeinde"},"district":{"key":"08119","name":"Rems-Murr-Kreis","type":"Landkreis"},"federalState":{"key":"08","name":"Baden-Württemberg"}},{"name":"Hohlklingenweg","postalCode":"71560","locality":"Sulzbach an der Murr","municipality":{"key":"08119075","name":"Sulzbach an der Murr","type":"Kreisangehörige_Gemeinde"},"district":{"key":"08119","name":"Rems-Murr-Kreis","type":"Landkreis"},"federalState":{"key":"08","name":"Baden-Württemberg"}},{"name":"Hölderlinweg","postalCode":"71560","locality":"Sulzbach an der Murr","municipality":{"key":"08119075","name":"Sulzbach an der Murr","type":"Kreisangehörige_Gemeinde"},"district":{"key":"08119","name":"Rems-Murr-Kreis","type":"Landkreis"},"federalState":{"key":"08","name":"Baden-Württemberg"}},{"name":"Hollestr.","postalCode":"71560","locality":"Sulzbach an der Murr","municipality":{"key":"08119075","name":"Sulzbach an der Murr","type":"Kreisangehörige_Gemeinde"},"district":{"key":"08119","name":"Rems-Murr-Kreis","type":"Landkreis"},"federalState":{"key":"08","name":"Baden-Württemberg"}},{"name":"Iltisgasse","postalCode":"71560","locality":"Sulzbach an der Murr","municipality":{"key":"08119075","name":"Sulzbach an der Murr","type":"Kreisangehörige_Gemeinde"},"district":{"key":"08119","name":"Rems-Murr-Kreis","type":"Landkreis"},"federalState":{"key":"08","name":"Baden-Württemberg"}},{"name":"Im Brühl","postalCode":"71560","locality":"Sulzbach an der Murr","municipality":{"key":"08119075","name":"Sulzbach an der Murr","type":"Kreisangehörige_Gemeinde"},"district":{"key":"08119","name":"Rems-Murr-Kreis","type":"Landkreis"},"federalState":{"key":"08","name":"Baden-Württemberg"}},{"name":"Im Horben","postalCode":"71560","locality":"Sulzbach an der Murr","municipality":{"key":"08119075","name":"Sulzbach an der Murr","type":"Kreisangehörige_Gemeinde"},"district":{"key":"08119","name":"Rems-Murr-Kreis","type":"Landkreis"},"federalState":{"key":"08","name":"Baden-Württemberg"}},{"name":"Im Märchengarten","postalCode":"71560","locality":"Sulzbach an der Murr","municipality":{"key":"08119075","name":"Sulzbach an der Murr","type":"Kreisangehörige_Gemeinde"},"district":{"key":"08119","name":"Rems-Murr-Kreis","type":"Landkreis"},"federalState":{"key":"08","name":"Baden-Württemberg"}},{"name":"Industriestr.","postalCode":"71560","locality":"Sulzbach an der Murr","municipality":{"key":"08119075","name":"Sulzbach an der Murr","type":"Kreisangehörige_Gemeinde"},"district":{"key":"08119","name":"Rems-Murr-Kreis","type":"Landkreis"},"federalState":{"key":"08","name":"Baden-Württemberg"}},{"name":"Ittenberg","postalCode":"71560","locality":"Sulzbach an der Murr","municipality":{"key":"08119075","name":"Sulzbach an der Murr","type":"Kreisangehörige_Gemeinde"},"district":{"key":"08119","name":"Rems-Murr-Kreis","type":"Landkreis"},"federalState":{"key":"08","name":"Baden-Württemberg"}},{"name":"Ittenberger Str.","postalCode":"71560","locality":"Sulzbach an der Murr","municipality":{"key":"08119075","name":"Sulzbach an der Murr","type":"Kreisangehörige_Gemeinde"},"district":{"key":"08119","name":"Rems-Murr-Kreis","type":"Landkreis"},"federalState":{"key":"08","name":"Baden-Württemberg"}},{"name":"Jahnstr.","postalCode":"71560","locality":"Sulzbach an der Murr","municipality":{"key":"08119075","name":"Sulzbach an der Murr","type":"Kreisangehörige_Gemeinde"},"district":{"key":"08119","name":"Rems-Murr-Kreis","type":"Landkreis"},"federalState":{"key":"08","name":"Baden-Württemberg"}},{"name":"Jenseits der Lauter","postalCode":"71560","locality":"Sulzbach an der Murr","municipality":{"key":"08119075","name":"Sulzbach an der Murr","type":"Kreisangehörige_Gemeinde"},"district":{"key":"08119","name":"Rems-Murr-Kreis","type":"Landkreis"},"federalState":{"key":"08","name":"Baden-Württemberg"}},{"name":"Kaltenbronnensträßchen","postalCode":"71560","locality":"Sulzbach an der Murr","municipality":{"key":"08119075","name":"Sulzbach an der Murr","type":"Kreisangehörige_Gemeinde"},"district":{"key":"08119","name":"Rems-Murr-Kreis","type":"Landkreis"},"federalState":{"key":"08","name":"Baden-Württemberg"}},{"name":"Kanalstr.","postalCode":"71560","locality":"Sulzbach an der Murr","municipality":{"key":"08119075","name":"Sulzbach an der Murr","type":"Kreisangehörige_Gemeinde"},"district":{"key":"08119","name":"Rems-Murr-Kreis","type":"Landkreis"},"federalState":{"key":"08","name":"Baden-Württemberg"}},{"name":"Karlstr.","postalCode":"71560","locality":"Sulzbach an der Murr","municipality":{"key":"08119075","name":"Sulzbach an der Murr","type":"Kreisangehörige_Gemeinde"},"district":{"key":"08119","name":"Rems-Murr-Kreis","type":"Landkreis"},"federalState":{"key":"08","name":"Baden-Württemberg"}},{"name":"Kastanienweg","postalCode":"71560","locality":"Sulzbach an der Murr","municipality":{"key":"08119075","name":"Sulzbach an der Murr","type":"Kreisangehörige_Gemeinde"},"district":{"key":"08119","name":"Rems-Murr-Kreis","type":"Landkreis"},"federalState":{"key":"08","name":"Baden-Württemberg"}},{"name":"Katharinenweg","postalCode":"71560","locality":"Sulzbach an der Murr","municipality":{"key":"08119075","name":"Sulzbach an der Murr","type":"Kreisangehörige_Gemeinde"},"district":{"key":"08119","name":"Rems-Murr-Kreis","type":"Landkreis"},"federalState":{"key":"08","name":"Baden-Württemberg"}},{"name":"Kernerweg","postalCode":"71560","locality":"Sulzbach an der Murr","municipality":{"key":"08119075","name":"Sulzbach an der Murr","type":"Kreisangehörige_Gemeinde"},"district":{"key":"08119","name":"Rems-Murr-Kreis","type":"Landkreis"},"federalState":{"key":"08","name":"Baden-Württemberg"}},{"name":"Kirchgasse","postalCode":"71560","locality":"Sulzbach an der Murr","municipality":{"key":"08119075","name":"Sulzbach an der Murr","type":"Kreisangehörige_Gemeinde"},"district":{"key":"08119","name":"Rems-Murr-Kreis","type":"Landkreis"},"federalState":{"key":"08","name":"Baden-Württemberg"}},{"name":"Kirchhofweg","postalCode":"71560","locality":"Sulzbach an der Murr","municipality":{"key":"08119075","name":"Sulzbach an der Murr","type":"Kreisangehörige_Gemeinde"},"district":{"key":"08119","name":"Rems-Murr-Kreis","type":"Landkreis"},"federalState":{"key":"08","name":"Baden-Württemberg"}},{"name":"Kleinhöchberg","postalCode":"71560","locality":"Sulzbach an der Murr","municipality":{"key":"08119075","name":"Sulzbach an der Murr","type":"Kreisangehörige_Gemeinde"},"district":{"key":"08119","name":"Rems-Murr-Kreis","type":"Landkreis"},"federalState":{"key":"08","name":"Baden-Württemberg"}},{"name":"Kleinhöchberger Str.","postalCode":"71560","locality":"Sulzbach an der Murr","municipality":{"key":"08119075","name":"Sulzbach an der Murr","type":"Kreisangehörige_Gemeinde"},"district":{"key":"08119","name":"Rems-Murr-Kreis","type":"Landkreis"},"federalState":{"key":"08","name":"Baden-Württemberg"}},{"name":"Klingenackersträßle","postalCode":"71560","locality":"Sulzbach an der Murr","municipality":{"key":"08119075","name":"Sulzbach an der Murr","type":"Kreisangehörige_Gemeinde"},"district":{"key":"08119","name":"Rems-Murr-Kreis","type":"Landkreis"},"federalState":{"key":"08","name":"Baden-Württemberg"}},{"name":"Kreuzackerstr.","postalCode":"71560","locality":"Sulzbach an der Murr","municipality":{"key":"08119075","name":"Sulzbach an der Murr","type":"Kreisangehörige_Gemeinde"},"district":{"key":"08119","name":"Rems-Murr-Kreis","type":"Landkreis"},"federalState":{"key":"08","name":"Baden-Württemberg"}},{"name":"Lärchenweg","postalCode":"71560","locality":"Sulzbach an der Murr","municipality":{"key":"08119075","name":"Sulzbach an der Murr","type":"Kreisangehörige_Gemeinde"},"district":{"key":"08119","name":"Rems-Murr-Kreis","type":"Landkreis"},"federalState":{"key":"08","name":"Baden-Württemberg"}},{"name":"Liemannsklinge","postalCode":"71560","locality":"Sulzbach an der Murr","municipality":{"key":"08119075","name":"Sulzbach an der Murr","type":"Kreisangehörige_Gemeinde"},"district":{"key":"08119","name":"Rems-Murr-Kreis","type":"Landkreis"},"federalState":{"key":"08","name":"Baden-Württemberg"}},{"name":"Lindenstr.","postalCode":"71560","locality":"Sulzbach an der Murr","municipality":{"key":"08119075","name":"Sulzbach an der Murr","type":"Kreisangehörige_Gemeinde"},"district":{"key":"08119","name":"Rems-Murr-Kreis","type":"Landkreis"},"federalState":{"key":"08","name":"Baden-Württemberg"}},{"name":"Lortzingstr.","postalCode":"71560","locality":"Sulzbach an der Murr","municipality":{"key":"08119075","name":"Sulzbach an der Murr","type":"Kreisangehörige_Gemeinde"},"district":{"key":"08119","name":"Rems-Murr-Kreis","type":"Landkreis"},"federalState":{"key":"08","name":"Baden-Württemberg"}},{"name":"Ludwigstr.","postalCode":"71560","locality":"Sulzbach an der Murr","municipality":{"key":"08119075","name":"Sulzbach an der Murr","type":"Kreisangehörige_Gemeinde"},"district":{"key":"08119","name":"Rems-Murr-Kreis","type":"Landkreis"},"federalState":{"key":"08","name":"Baden-Württemberg"}},{"name":"Luisenweg","postalCode":"71560","locality":"Sulzbach an der Murr","municipality":{"key":"08119075","name":"Sulzbach an der Murr","type":"Kreisangehörige_Gemeinde"},"district":{"key":"08119","name":"Rems-Murr-Kreis","type":"Landkreis"},"federalState":{"key":"08","name":"Baden-Württemberg"}},{"name":"Mangoldstr.","postalCode":"71560","locality":"Sulzbach an der Murr","municipality":{"key":"08119075","name":"Sulzbach an der Murr","type":"Kreisangehörige_Gemeinde"},"district":{"key":"08119","name":"Rems-Murr-Kreis","type":"Landkreis"},"federalState":{"key":"08","name":"Baden-Württemberg"}},{"name":"Märchenstr.","postalCode":"71560","locality":"Sulzbach an der Murr","municipality":{"key":"08119075","name":"Sulzbach an der Murr","type":"Kreisangehörige_Gemeinde"},"district":{"key":"08119","name":"Rems-Murr-Kreis","type":"Landkreis"},"federalState":{"key":"08","name":"Baden-Württemberg"}},{"name":"Margarethenstr.","postalCode":"71560","locality":"Sulzbach an der Murr","municipality":{"key":"08119075","name":"Sulzbach an der Murr","type":"Kreisangehörige_Gemeinde"},"district":{"key":"08119","name":"Rems-Murr-Kreis","type":"Landkreis"},"federalState":{"key":"08","name":"Baden-Württemberg"}},{"name":"Marktstr.","postalCode":"71560","locality":"Sulzbach an der Murr","municipality":{"key":"08119075","name":"Sulzbach an der Murr","type":"Kreisangehörige_Gemeinde"},"district":{"key":"08119","name":"Rems-Murr-Kreis","type":"Landkreis"},"federalState":{"key":"08","name":"Baden-Württemberg"}},{"name":"Milchstr.","postalCode":"71560","locality":"Sulzbach an der Murr","municipality":{"key":"08119075","name":"Sulzbach an der Murr","type":"Kreisangehörige_Gemeinde"},"district":{"key":"08119","name":"Rems-Murr-Kreis","type":"Landkreis"},"federalState":{"key":"08","name":"Baden-Württemberg"}},{"name":"Mörikeweg","postalCode":"71560","locality":"Sulzbach an der Murr","municipality":{"key":"08119075","name":"Sulzbach an der Murr","type":"Kreisangehörige_Gemeinde"},"district":{"key":"08119","name":"Rems-Murr-Kreis","type":"Landkreis"},"federalState":{"key":"08","name":"Baden-Württemberg"}},{"name":"Müllerholzweg","postalCode":"71560","locality":"Sulzbach an der Murr","municipality":{"key":"08119075","name":"Sulzbach an der Murr","type":"Kreisangehörige_Gemeinde"},"district":{"key":"08119","name":"Rems-Murr-Kreis","type":"Landkreis"},"federalState":{"key":"08","name":"Baden-Württemberg"}},{"name":"Murrhardter Str.","postalCode":"71560","locality":"Sulzbach an der Murr","municipality":{"key":"08119075","name":"Sulzbach an der Murr","type":"Kreisangehörige_Gemeinde"},"district":{"key":"08119","name":"Rems-Murr-Kreis","type":"Landkreis"},"federalState":{"key":"08","name":"Baden-Württemberg"}},{"name":"Murrstr.","postalCode":"71560","locality":"Sulzbach an der Murr","municipality":{"key":"08119075","name":"Sulzbach an der Murr","type":"Kreisangehörige_Gemeinde"},"district":{"key":"08119","name":"Rems-Murr-Kreis","type":"Landkreis"},"federalState":{"key":"08","name":"Baden-Württemberg"}},{"name":"Neuäckerweg","postalCode":"71560","locality":"Sulzbach an der Murr","municipality":{"key":"08119075","name":"Sulzbach an der Murr","type":"Kreisangehörige_Gemeinde"},"district":{"key":"08119","name":"Rems-Murr-Kreis","type":"Landkreis"},"federalState":{"key":"08","name":"Baden-Württemberg"}},{"name":"Neubruch","postalCode":"71560","locality":"Sulzbach an der Murr","municipality":{"key":"08119075","name":"Sulzbach an der Murr","type":"Kreisangehörige_Gemeinde"},"district":{"key":"08119","name":"Rems-Murr-Kreis","type":"Landkreis"},"federalState":{"key":"08","name":"Baden-Württemberg"}},{"name":"Neue Str.","postalCode":"71560","locality":"Sulzbach an der Murr","municipality":{"key":"08119075","name":"Sulzbach an der Murr","type":"Kreisangehörige_Gemeinde"},"district":{"key":"08119","name":"Rems-Murr-Kreis","type":"Landkreis"},"federalState":{"key":"08","name":"Baden-Württemberg"}},{"name":"Neuwiesenweg","postalCode":"71560","locality":"Sulzbach an der Murr","municipality":{"key":"08119075","name":"Sulzbach an der Murr","type":"Kreisangehörige_Gemeinde"},"district":{"key":"08119","name":"Rems-Murr-Kreis","type":"Landkreis"},"federalState":{"key":"08","name":"Baden-Württemberg"}},{"name":"Oberer Steinbergweg","postalCode":"71560","locality":"Sulzbach an der Murr","municipality":{"key":"08119075","name":"Sulzbach an der Murr","type":"Kreisangehörige_Gemeinde"},"district":{"key":"08119","name":"Rems-Murr-Kreis","type":"Landkreis"},"federalState":{"key":"08","name":"Baden-Württemberg"}},{"name":"Oberer Vorhaldeweg","postalCode":"71560","locality":"Sulzbach an der Murr","municipality":{"key":"08119075","name":"Sulzbach an der Murr","type":"Kreisangehörige_Gemeinde"},"district":{"key":"08119","name":"Rems-Murr-Kreis","type":"Landkreis"},"federalState":{"key":"08","name":"Baden-Württemberg"}},{"name":"Ochsenbergweg","postalCode":"71560","locality":"Sulzbach an der Murr","municipality":{"key":"08119075","name":"Sulzbach an der Murr","type":"Kreisangehörige_Gemeinde"},"district":{"key":"08119","name":"Rems-Murr-Kreis","type":"Landkreis"},"federalState":{"key":"08","name":"Baden-Württemberg"}},{"name":"Olgastr.","postalCode":"71560","locality":"Sulzbach an der Murr","municipality":{"key":"08119075","name":"Sulzbach an der Murr","type":"Kreisangehörige_Gemeinde"},"district":{"key":"08119","name":"Rems-Murr-Kreis","type":"Landkreis"},"federalState":{"key":"08","name":"Baden-Württemberg"}},{"name":"Paulinenweg","postalCode":"71560","locality":"Sulzbach an der Murr","municipality":{"key":"08119075","name":"Sulzbach an der Murr","type":"Kreisangehörige_Gemeinde"},"district":{"key":"08119","name":"Rems-Murr-Kreis","type":"Landkreis"},"federalState":{"key":"08","name":"Baden-Württemberg"}},{"name":"Prügelweg","postalCode":"71560","locality":"Sulzbach an der Murr","municipality":{"key":"08119075","name":"Sulzbach an der Murr","type":"Kreisangehörige_Gemeinde"},"district":{"key":"08119","name":"Rems-Murr-Kreis","type":"Landkreis"},"federalState":{"key":"08","name":"Baden-Württemberg"}},{"name":"Rilkeweg","postalCode":"71560","locality":"Sulzbach an der Murr","municipality":{"key":"08119075","name":"Sulzbach an der Murr","type":"Kreisangehörige_Gemeinde"},"district":{"key":"08119","name":"Rems-Murr-Kreis","type":"Landkreis"},"federalState":{"key":"08","name":"Baden-Württemberg"}},{"name":"Rotkäppchenstr.","postalCode":"71560","locality":"Sulzbach an der Murr","municipality":{"key":"08119075","name":"Sulzbach an der Murr","type":"Kreisangehörige_Gemeinde"},"district":{"key":"08119","name":"Rems-Murr-Kreis","type":"Landkreis"},"federalState":{"key":"08","name":"Baden-Württemberg"}},{"name":"Sammetgasse","postalCode":"71560","locality":"Sulzbach an der Murr","municipality":{"key":"08119075","name":"Sulzbach an der Murr","type":"Kreisangehörige_Gemeinde"},"district":{"key":"08119","name":"Rems-Murr-Kreis","type":"Landkreis"},"federalState":{"key":"08","name":"Baden-Württemberg"}},{"name":"Sandbergstr.","postalCode":"71560","locality":"Sulzbach an der Murr","municipality":{"key":"08119075","name":"Sulzbach an der Murr","type":"Kreisangehörige_Gemeinde"},"district":{"key":"08119","name":"Rems-Murr-Kreis","type":"Landkreis"},"federalState":{"key":"08","name":"Baden-Württemberg"}},{"name":"Scheffelweg","postalCode":"71560","locality":"Sulzbach an der Murr","municipality":{"key":"08119075","name":"Sulzbach an der Murr","type":"Kreisangehörige_Gemeinde"},"district":{"key":"08119","name":"Rems-Murr-Kreis","type":"Landkreis"},"federalState":{"key":"08","name":"Baden-Württemberg"}},{"name":"Schelmenklingenweg","postalCode":"71560","locality":"Sulzbach an der Murr","municipality":{"key":"08119075","name":"Sulzbach an der Murr","type":"Kreisangehörige_Gemeinde"},"district":{"key":"08119","name":"Rems-Murr-Kreis","type":"Landkreis"},"federalState":{"key":"08","name":"Baden-Württemberg"}},{"name":"Schillerstr.","postalCode":"71560","locality":"Sulzbach an der Murr","municipality":{"key":"08119075","name":"Sulzbach an der Murr","type":"Kreisangehörige_Gemeinde"},"district":{"key":"08119","name":"Rems-Murr-Kreis","type":"Landkreis"},"federalState":{"key":"08","name":"Baden-Württemberg"}},{"name":"Schloßgasse","postalCode":"71560","locality":"Sulzbach an der Murr","municipality":{"key":"08119075","name":"Sulzbach an der Murr","type":"Kreisangehörige_Gemeinde"},"district":{"key":"08119","name":"Rems-Murr-Kreis","type":"Landkreis"},"federalState":{"key":"08","name":"Baden-Württemberg"}},{"name":"Schmale Gasse","postalCode":"71560","locality":"Sulzbach an der Murr","municipality":{"key":"08119075","name":"Sulzbach an der Murr","type":"Kreisangehörige_Gemeinde"},"district":{"key":"08119","name":"Rems-Murr-Kreis","type":"Landkreis"},"federalState":{"key":"08","name":"Baden-Württemberg"}},{"name":"Schubertweg","postalCode":"71560","locality":"Sulzbach an der Murr","municipality":{"key":"08119075","name":"Sulzbach an der Murr","type":"Kreisangehörige_Gemeinde"},"district":{"key":"08119","name":"Rems-Murr-Kreis","type":"Landkreis"},"federalState":{"key":"08","name":"Baden-Württemberg"}},{"name":"Schulgasse","postalCode":"71560","locality":"Sulzbach an der Murr","municipality":{"key":"08119075","name":"Sulzbach an der Murr","type":"Kreisangehörige_Gemeinde"},"district":{"key":"08119","name":"Rems-Murr-Kreis","type":"Landkreis"},"federalState":{"key":"08","name":"Baden-Württemberg"}},{"name":"Seeklingenweg","postalCode":"71560","locality":"Sulzbach an der Murr","municipality":{"key":"08119075","name":"Sulzbach an der Murr","type":"Kreisangehörige_Gemeinde"},"district":{"key":"08119","name":"Rems-Murr-Kreis","type":"Landkreis"},"federalState":{"key":"08","name":"Baden-Württemberg"}},{"name":"Seestr.","postalCode":"71560","locality":"Sulzbach an der Murr","municipality":{"key":"08119075","name":"Sulzbach an der Murr","type":"Kreisangehörige_Gemeinde"},"district":{"key":"08119","name":"Rems-Murr-Kreis","type":"Landkreis"},"federalState":{"key":"08","name":"Baden-Württemberg"}},{"name":"Seewaldsträßle","postalCode":"71560","locality":"Sulzbach an der Murr","municipality":{"key":"08119075","name":"Sulzbach an der Murr","type":"Kreisangehörige_Gemeinde"},"district":{"key":"08119","name":"Rems-Murr-Kreis","type":"Landkreis"},"federalState":{"key":"08","name":"Baden-Württemberg"}},{"name":"Silcherweg","postalCode":"71560","locality":"Sulzbach an der Murr","municipality":{"key":"08119075","name":"Sulzbach an der Murr","type":"Kreisangehörige_Gemeinde"},"district":{"key":"08119","name":"Rems-Murr-Kreis","type":"Landkreis"},"federalState":{"key":"08","name":"Baden-Württemberg"}},{"name":"Sophienring","postalCode":"71560","locality":"Sulzbach an der Murr","municipality":{"key":"08119075","name":"Sulzbach an der Murr","type":"Kreisangehörige_Gemeinde"},"district":{"key":"08119","name":"Rems-Murr-Kreis","type":"Landkreis"},"federalState":{"key":"08","name":"Baden-Württemberg"}},{"name":"Talstr.","postalCode":"71560","locality":"Sulzbach an der Murr","municipality":{"key":"08119075","name":"Sulzbach an der Murr","type":"Kreisangehörige_Gemeinde"},"district":{"key":"08119","name":"Rems-Murr-Kreis","type":"Landkreis"},"federalState":{"key":"08","name":"Baden-Württemberg"}},{"name":"Tannenstr.","postalCode":"71560","locality":"Sulzbach an der Murr","municipality":{"key":"08119075","name":"Sulzbach an der Murr","type":"Kreisangehörige_Gemeinde"},"district":{"key":"08119","name":"Rems-Murr-Kreis","type":"Landkreis"},"federalState":{"key":"08","name":"Baden-Württemberg"}},{"name":"Theodor-Heuss-Str.","postalCode":"71560","locality":"Sulzbach an der Murr","municipality":{"key":"08119075","name":"Sulzbach an der Murr","type":"Kreisangehörige_Gemeinde"},"district":{"key":"08119","name":"Rems-Murr-Kreis","type":"Landkreis"},"federalState":{"key":"08","name":"Baden-Württemberg"}},{"name":"Theodorstr.","postalCode":"71560","locality":"Sulzbach an der Murr","municipality":{"key":"08119075","name":"Sulzbach an der Murr","type":"Kreisangehörige_Gemeinde"},"district":{"key":"08119","name":"Rems-Murr-Kreis","type":"Landkreis"},"federalState":{"key":"08","name":"Baden-Württemberg"}},{"name":"Theresienweg","postalCode":"71560","locality":"Sulzbach an der Murr","municipality":{"key":"08119075","name":"Sulzbach an der Murr","type":"Kreisangehörige_Gemeinde"},"district":{"key":"08119","name":"Rems-Murr-Kreis","type":"Landkreis"},"federalState":{"key":"08","name":"Baden-Württemberg"}},{"name":"Trampelpfad Ziegeläcker Lautern","postalCode":"71560","locality":"Sulzbach an der Murr","municipality":{"key":"08119075","name":"Sulzbach an der Murr","type":"Kreisangehörige_Gemeinde"},"district":{"key":"08119","name":"Rems-Murr-Kreis","type":"Landkreis"},"federalState":{"key":"08","name":"Baden-Württemberg"}},{"name":"Uferstr.","postalCode":"71560","locality":"Sulzbach an der Murr","municipality":{"key":"08119075","name":"Sulzbach an der Murr","type":"Kreisangehörige_Gemeinde"},"district":{"key":"08119","name":"Rems-Murr-Kreis","type":"Landkreis"},"federalState":{"key":"08","name":"Baden-Württemberg"}},{"name":"Uhlandstr.","postalCode":"71560","locality":"Sulzbach an der Murr","municipality":{"key":"08119075","name":"Sulzbach an der Murr","type":"Kreisangehörige_Gemeinde"},"district":{"key":"08119","name":"Rems-Murr-Kreis","type":"Landkreis"},"federalState":{"key":"08","name":"Baden-Württemberg"}},{"name":"Ulmenstr.","postalCode":"71560","locality":"Sulzbach an der Murr","municipality":{"key":"08119075","name":"Sulzbach an der Murr","type":"Kreisangehörige_Gemeinde"},"district":{"key":"08119","name":"Rems-Murr-Kreis","type":"Landkreis"},"federalState":{"key":"08","name":"Baden-Württemberg"}},{"name":"Umgehungsstr.","postalCode":"71560","locality":"Sulzbach an der Murr","municipality":{"key":"08119075","name":"Sulzbach an der Murr","type":"Kreisangehörige_Gemeinde"},"district":{"key":"08119","name":"Rems-Murr-Kreis","type":"Landkreis"},"federalState":{"key":"08","name":"Baden-Württemberg"}},{"name":"Unterer Stegäckerweg","postalCode":"71560","locality":"Sulzbach an der Murr","municipality":{"key":"08119075","name":"Sulzbach an der Murr","type":"Kreisangehörige_Gemeinde"},"district":{"key":"08119","name":"Rems-Murr-Kreis","type":"Landkreis"},"federalState":{"key":"08","name":"Baden-Württemberg"}},{"name":"Urbanstr.","postalCode":"71560","locality":"Sulzbach an der Murr","municipality":{"key":"08119075","name":"Sulzbach an der Murr","type":"Kreisangehörige_Gemeinde"},"district":{"key":"08119","name":"Rems-Murr-Kreis","type":"Landkreis"},"federalState":{"key":"08","name":"Baden-Württemberg"}},{"name":"Utschbergrundweg","postalCode":"71560","locality":"Sulzbach an der Murr","municipality":{"key":"08119075","name":"Sulzbach an der Murr","type":"Kreisangehörige_Gemeinde"},"district":{"key":"08119","name":"Rems-Murr-Kreis","type":"Landkreis"},"federalState":{"key":"08","name":"Baden-Württemberg"}},{"name":"Vorhaldeweg","postalCode":"71560","locality":"Sulzbach an der Murr","municipality":{"key":"08119075","name":"Sulzbach an der Murr","type":"Kreisangehörige_Gemeinde"},"district":{"key":"08119","name":"Rems-Murr-Kreis","type":"Landkreis"},"federalState":{"key":"08","name":"Baden-Württemberg"}},{"name":"Wagnerstr.","postalCode":"71560","locality":"Sulzbach an der Murr","municipality":{"key":"08119075","name":"Sulzbach an der Murr","type":"Kreisangehörige_Gemeinde"},"district":{"key":"08119","name":"Rems-Murr-Kreis","type":"Landkreis"},"federalState":{"key":"08","name":"Baden-Württemberg"}},{"name":"Wengertstr.","postalCode":"71560","locality":"Sulzbach an der Murr","municipality":{"key":"08119075","name":"Sulzbach an der Murr","type":"Kreisangehörige_Gemeinde"},"district":{"key":"08119","name":"Rems-Murr-Kreis","type":"Landkreis"},"federalState":{"key":"08","name":"Baden-Württemberg"}},{"name":"Wenzelstr.","postalCode":"71560","locality":"Sulzbach an der Murr","municipality":{"key":"08119075","name":"Sulzbach an der Murr","type":"Kreisangehörige_Gemeinde"},"district":{"key":"08119","name":"Rems-Murr-Kreis","type":"Landkreis"},"federalState":{"key":"08","name":"Baden-Württemberg"}},{"name":"Wilhelmstr.","postalCode":"71560","locality":"Sulzbach an der Murr","municipality":{"key":"08119075","name":"Sulzbach an der Murr","type":"Kreisangehörige_Gemeinde"},"district":{"key":"08119","name":"Rems-Murr-Kreis","type":"Landkreis"},"federalState":{"key":"08","name":"Baden-Württemberg"}},{"name":"Winterhaldenweg","postalCode":"71560","locality":"Sulzbach an der Murr","municipality":{"key":"08119075","name":"Sulzbach an der Murr","type":"Kreisangehörige_Gemeinde"},"district":{"key":"08119","name":"Rems-Murr-Kreis","type":"Landkreis"},"federalState":{"key":"08","name":"Baden-Württemberg"}},{"name":"Wüstenbergstr.","postalCode":"71560","locality":"Sulzbach an der Murr","municipality":{"key":"08119075","name":"Sulzbach an der Murr","type":"Kreisangehörige_Gemeinde"},"district":{"key":"08119","name":"Rems-Murr-Kreis","type":"Landkreis"},"federalState":{"key":"08","name":"Baden-Württemberg"}},{"name":"Ziegeläcker","postalCode":"71560","locality":"Sulzbach an der Murr","municipality":{"key":"08119075","name":"Sulzbach an der Murr","type":"Kreisangehörige_Gemeinde"},"district":{"key":"08119","name":"Rems-Murr-Kreis","type":"Landkreis"},"federalState":{"key":"08","name":"Baden-Württemberg"}},{"name":"Zollstockstr.","postalCode":"71560","locality":"Sulzbach an der Murr","municipality":{"key":"08119075","name":"Sulzbach an der Murr","type":"Kreisangehörige_Gemeinde"},"district":{"key":"08119","name":"Rems-Murr-Kreis","type":"Landkreis"},"federalState":{"key":"08","name":"Baden-Württemberg"}},{"name":"Zwerenberg","postalCode":"71560","locality":"Sulzbach an der Murr","municipality":{"key":"08119075","name":"Sulzbach an der Murr","type":"Kreisangehörige_Gemeinde"},"district":{"key":"08119","name":"Rems-Murr-Kreis","type":"Landkreis"},"federalState":{"key":"08","name":"Baden-Württemberg"}},]