[{"name":"Alte Lüneburger Bahn","postalCode":"19322","locality":"Cumlosen","municipality":{"key":"12070060","name":"Cumlosen","type":"Kreisangehörige_Gemeinde"},"district":{"key":"12070","name":"Prignitz","type":"Landkreis"},"federalState":{"key":"12","name":"Brandenburg"}},{"name":"Am Deich","postalCode":"19322","locality":"Cumlosen","municipality":{"key":"12070060","name":"Cumlosen","type":"Kreisangehörige_Gemeinde"},"district":{"key":"12070","name":"Prignitz","type":"Landkreis"},"federalState":{"key":"12","name":"Brandenburg"}},{"name":"Am Elbdeich","postalCode":"19322","locality":"Cumlosen","municipality":{"key":"12070060","name":"Cumlosen","type":"Kreisangehörige_Gemeinde"},"district":{"key":"12070","name":"Prignitz","type":"Landkreis"},"federalState":{"key":"12","name":"Brandenburg"}},{"name":"Ausbau","postalCode":"19322","locality":"Cumlosen","municipality":{"key":"12070060","name":"Cumlosen","type":"Kreisangehörige_Gemeinde"},"district":{"key":"12070","name":"Prignitz","type":"Landkreis"},"federalState":{"key":"12","name":"Brandenburg"}},{"name":"Bodenberg","postalCode":"19322","locality":"Cumlosen","municipality":{"key":"12070060","name":"Cumlosen","type":"Kreisangehörige_Gemeinde"},"district":{"key":"12070","name":"Prignitz","type":"Landkreis"},"federalState":{"key":"12","name":"Brandenburg"}},{"name":"Brink","postalCode":"19322","locality":"Cumlosen","municipality":{"key":"12070060","name":"Cumlosen","type":"Kreisangehörige_Gemeinde"},"district":{"key":"12070","name":"Prignitz","type":"Landkreis"},"federalState":{"key":"12","name":"Brandenburg"}},{"name":"Culoser Waldweg","postalCode":"19322","locality":"Cumlosen","municipality":{"key":"12070060","name":"Cumlosen","type":"Kreisangehörige_Gemeinde"},"district":{"key":"12070","name":"Prignitz","type":"Landkreis"},"federalState":{"key":"12","name":"Brandenburg"}},{"name":"Cumloser Str.","postalCode":"19322","locality":"Cumlosen","municipality":{"key":"12070060","name":"Cumlosen","type":"Kreisangehörige_Gemeinde"},"district":{"key":"12070","name":"Prignitz","type":"Landkreis"},"federalState":{"key":"12","name":"Brandenburg"}},{"name":"Dorfplatz","postalCode":"19322","locality":"Cumlosen","municipality":{"key":"12070060","name":"Cumlosen","type":"Kreisangehörige_Gemeinde"},"district":{"key":"12070","name":"Prignitz","type":"Landkreis"},"federalState":{"key":"12","name":"Brandenburg"}},{"name":"Dorfstr.","postalCode":"19322","locality":"Cumlosen","municipality":{"key":"12070060","name":"Cumlosen","type":"Kreisangehörige_Gemeinde"},"district":{"key":"12070","name":"Prignitz","type":"Landkreis"},"federalState":{"key":"12","name":"Brandenburg"}},{"name":"Eichenallee","postalCode":"16928","locality":"Groß Pankow (Prignitz)","municipality":{"key":"12070125","name":"Groß Pankow (Prignitz)","type":"Kreisangehörige_Gemeinde"},"district":{"key":"12070","name":"Prignitz","type":"Landkreis"},"federalState":{"key":"12","name":"Brandenburg"}},{"name":"Eichenweg","postalCode":"16928","locality":"Groß Pankow (Prignitz)","municipality":{"key":"12070125","name":"Groß Pankow (Prignitz)","type":"Kreisangehörige_Gemeinde"},"district":{"key":"12070","name":"Prignitz","type":"Landkreis"},"federalState":{"key":"12","name":"Brandenburg"}},{"name":"Friedhofsweg","postalCode":"19322","locality":"Cumlosen","municipality":{"key":"12070060","name":"Cumlosen","type":"Kreisangehörige_Gemeinde"},"district":{"key":"12070","name":"Prignitz","type":"Landkreis"},"federalState":{"key":"12","name":"Brandenburg"}},{"name":"Gemeindeweg","postalCode":"19322","locality":"Cumlosen","municipality":{"key":"12070060","name":"Cumlosen","type":"Kreisangehörige_Gemeinde"},"district":{"key":"12070","name":"Prignitz","type":"Landkreis"},"federalState":{"key":"12","name":"Brandenburg"}},{"name":"Hasenheide","postalCode":"19322","locality":"Cumlosen","municipality":{"key":"12070060","name":"Cumlosen","type":"Kreisangehörige_Gemeinde"},"district":{"key":"12070","name":"Prignitz","type":"Landkreis"},"federalState":{"key":"12","name":"Brandenburg"}},{"name":"Hinter den Höfen","postalCode":"19322","locality":"Cumlosen","municipality":{"key":"12070060","name":"Cumlosen","type":"Kreisangehörige_Gemeinde"},"district":{"key":"12070","name":"Prignitz","type":"Landkreis"},"federalState":{"key":"12","name":"Brandenburg"}},{"name":"Im Winkel","postalCode":"19322","locality":"Cumlosen","municipality":{"key":"12070060","name":"Cumlosen","type":"Kreisangehörige_Gemeinde"},"district":{"key":"12070","name":"Prignitz","type":"Landkreis"},"federalState":{"key":"12","name":"Brandenburg"}},{"name":"Jakobsdorfer Weg","postalCode":"16928","locality":"Groß Pankow (Prignitz)","municipality":{"key":"12070125","name":"Groß Pankow (Prignitz)","type":"Kreisangehörige_Gemeinde"},"district":{"key":"12070","name":"Prignitz","type":"Landkreis"},"federalState":{"key":"12","name":"Brandenburg"}},{"name":"Kirchplatz","postalCode":"19322","locality":"Cumlosen","municipality":{"key":"12070060","name":"Cumlosen","type":"Kreisangehörige_Gemeinde"},"district":{"key":"12070","name":"Prignitz","type":"Landkreis"},"federalState":{"key":"12","name":"Brandenburg"}},{"name":"Lenzener Chaussee","postalCode":"19322","locality":"Cumlosen","municipality":{"key":"12070060","name":"Cumlosen","type":"Kreisangehörige_Gemeinde"},"district":{"key":"12070","name":"Prignitz","type":"Landkreis"},"federalState":{"key":"12","name":"Brandenburg"}},{"name":"Lenzener Str.","postalCode":"19322","locality":"Cumlosen","municipality":{"key":"12070060","name":"Cumlosen","type":"Kreisangehörige_Gemeinde"},"district":{"key":"12070","name":"Prignitz","type":"Landkreis"},"federalState":{"key":"12","name":"Brandenburg"}},{"name":"Lindenweg","postalCode":"19322","locality":"Cumlosen","municipality":{"key":"12070060","name":"Cumlosen","type":"Kreisangehörige_Gemeinde"},"district":{"key":"12070","name":"Prignitz","type":"Landkreis"},"federalState":{"key":"12","name":"Brandenburg"}},{"name":"Mittelweg","postalCode":"19322","locality":"Cumlosen","municipality":{"key":"12070060","name":"Cumlosen","type":"Kreisangehörige_Gemeinde"},"district":{"key":"12070","name":"Prignitz","type":"Landkreis"},"federalState":{"key":"12","name":"Brandenburg"}},{"name":"Motricher Str.","postalCode":"19322","locality":"Cumlosen","municipality":{"key":"12070060","name":"Cumlosen","type":"Kreisangehörige_Gemeinde"},"district":{"key":"12070","name":"Prignitz","type":"Landkreis"},"federalState":{"key":"12","name":"Brandenburg"}},{"name":"Motricher Weg","postalCode":"19322","locality":"Cumlosen","municipality":{"key":"12070060","name":"Cumlosen","type":"Kreisangehörige_Gemeinde"},"district":{"key":"12070","name":"Prignitz","type":"Landkreis"},"federalState":{"key":"12","name":"Brandenburg"}},{"name":"Müggendorf","postalCode":"19322","locality":"Cumlosen","municipality":{"key":"12070060","name":"Cumlosen","type":"Kreisangehörige_Gemeinde"},"district":{"key":"12070","name":"Prignitz","type":"Landkreis"},"federalState":{"key":"12","name":"Brandenburg"}},{"name":"Neue Str.","postalCode":"19322","locality":"Cumlosen","municipality":{"key":"12070060","name":"Cumlosen","type":"Kreisangehörige_Gemeinde"},"district":{"key":"12070","name":"Prignitz","type":"Landkreis"},"federalState":{"key":"12","name":"Brandenburg"}},{"name":"Obere Dorfstr.","postalCode":"16928","locality":"Groß Pankow (Prignitz)","municipality":{"key":"12070125","name":"Groß Pankow (Prignitz)","type":"Kreisangehörige_Gemeinde"},"district":{"key":"12070","name":"Prignitz","type":"Landkreis"},"federalState":{"key":"12","name":"Brandenburg"}},{"name":"Pankeweg","postalCode":"16928","locality":"Groß Pankow (Prignitz)","municipality":{"key":"12070125","name":"Groß Pankow (Prignitz)","type":"Kreisangehörige_Gemeinde"},"district":{"key":"12070","name":"Prignitz","type":"Landkreis"},"federalState":{"key":"12","name":"Brandenburg"}},{"name":"Pankower Weg","postalCode":"16928","locality":"Groß Pankow (Prignitz)","municipality":{"key":"12070125","name":"Groß Pankow (Prignitz)","type":"Kreisangehörige_Gemeinde"},"district":{"key":"12070","name":"Prignitz","type":"Landkreis"},"federalState":{"key":"12","name":"Brandenburg"}},{"name":"Parkstr.","postalCode":"16928","locality":"Groß Pankow (Prignitz)","municipality":{"key":"12070125","name":"Groß Pankow (Prignitz)","type":"Kreisangehörige_Gemeinde"},"district":{"key":"12070","name":"Prignitz","type":"Landkreis"},"federalState":{"key":"12","name":"Brandenburg"}},{"name":"Perleberger Str.","postalCode":"16928","locality":"Groß Pankow (Prignitz)","municipality":{"key":"12070125","name":"Groß Pankow (Prignitz)","type":"Kreisangehörige_Gemeinde"},"district":{"key":"12070","name":"Prignitz","type":"Landkreis"},"federalState":{"key":"12","name":"Brandenburg"}},{"name":"Putlitzer Str.","postalCode":"16928","locality":"Groß Pankow (Prignitz)","municipality":{"key":"12070125","name":"Groß Pankow (Prignitz)","type":"Kreisangehörige_Gemeinde"},"district":{"key":"12070","name":"Prignitz","type":"Landkreis"},"federalState":{"key":"12","name":"Brandenburg"}},{"name":"Reckenthiner Str.","postalCode":"16928","locality":"Groß Pankow (Prignitz)","municipality":{"key":"12070125","name":"Groß Pankow (Prignitz)","type":"Kreisangehörige_Gemeinde"},"district":{"key":"12070","name":"Prignitz","type":"Landkreis"},"federalState":{"key":"12","name":"Brandenburg"}},{"name":"Reetzer Str.","postalCode":"16928","locality":"Groß Pankow (Prignitz)","municipality":{"key":"12070125","name":"Groß Pankow (Prignitz)","type":"Kreisangehörige_Gemeinde"},"district":{"key":"12070","name":"Prignitz","type":"Landkreis"},"federalState":{"key":"12","name":"Brandenburg"}},{"name":"Retziner Weg","postalCode":"16928","locality":"Groß Pankow (Prignitz)","municipality":{"key":"12070125","name":"Groß Pankow (Prignitz)","type":"Kreisangehörige_Gemeinde"},"district":{"key":"12070","name":"Prignitz","type":"Landkreis"},"federalState":{"key":"12","name":"Brandenburg"}},{"name":"Ringstr.","postalCode":"16928","locality":"Groß Pankow (Prignitz)","municipality":{"key":"12070125","name":"Groß Pankow (Prignitz)","type":"Kreisangehörige_Gemeinde"},"district":{"key":"12070","name":"Prignitz","type":"Landkreis"},"federalState":{"key":"12","name":"Brandenburg"}},{"name":"Rohlsdorf","postalCode":"16928","locality":"Groß Pankow (Prignitz)","municipality":{"key":"12070125","name":"Groß Pankow (Prignitz)","type":"Kreisangehörige_Gemeinde"},"district":{"key":"12070","name":"Prignitz","type":"Landkreis"},"federalState":{"key":"12","name":"Brandenburg"}},{"name":"Rosa-Luxemburg-Str.","postalCode":"16928","locality":"Groß Pankow (Prignitz)","municipality":{"key":"12070125","name":"Groß Pankow (Prignitz)","type":"Kreisangehörige_Gemeinde"},"district":{"key":"12070","name":"Prignitz","type":"Landkreis"},"federalState":{"key":"12","name":"Brandenburg"}},{"name":"Rosenweg","postalCode":"16928","locality":"Groß Pankow (Prignitz)","municipality":{"key":"12070125","name":"Groß Pankow (Prignitz)","type":"Kreisangehörige_Gemeinde"},"district":{"key":"12070","name":"Prignitz","type":"Landkreis"},"federalState":{"key":"12","name":"Brandenburg"}},{"name":"Seeviertel","postalCode":"19322","locality":"Cumlosen","municipality":{"key":"12070060","name":"Cumlosen","type":"Kreisangehörige_Gemeinde"},"district":{"key":"12070","name":"Prignitz","type":"Landkreis"},"federalState":{"key":"12","name":"Brandenburg"}},{"name":"Tacken","postalCode":"16928","locality":"Groß Pankow (Prignitz)","municipality":{"key":"12070125","name":"Groß Pankow (Prignitz)","type":"Kreisangehörige_Gemeinde"},"district":{"key":"12070","name":"Prignitz","type":"Landkreis"},"federalState":{"key":"12","name":"Brandenburg"}},{"name":"Tangendorf Ausbau","postalCode":"16928","locality":"Groß Pankow (Prignitz)","municipality":{"key":"12070125","name":"Groß Pankow (Prignitz)","type":"Kreisangehörige_Gemeinde"},"district":{"key":"12070","name":"Prignitz","type":"Landkreis"},"federalState":{"key":"12","name":"Brandenburg"}},{"name":"Tangendorfer Hauptstr.","postalCode":"16928","locality":"Groß Pankow (Prignitz)","municipality":{"key":"12070125","name":"Groß Pankow (Prignitz)","type":"Kreisangehörige_Gemeinde"},"district":{"key":"12070","name":"Prignitz","type":"Landkreis"},"federalState":{"key":"12","name":"Brandenburg"}},{"name":"Tangendorfer Str.","postalCode":"16928","locality":"Groß Pankow (Prignitz)","municipality":{"key":"12070125","name":"Groß Pankow (Prignitz)","type":"Kreisangehörige_Gemeinde"},"district":{"key":"12070","name":"Prignitz","type":"Landkreis"},"federalState":{"key":"12","name":"Brandenburg"}},{"name":"Tüchener Hauptstr.","postalCode":"16928","locality":"Groß Pankow (Prignitz)","municipality":{"key":"12070125","name":"Groß Pankow (Prignitz)","type":"Kreisangehörige_Gemeinde"},"district":{"key":"12070","name":"Prignitz","type":"Landkreis"},"federalState":{"key":"12","name":"Brandenburg"}},{"name":"Unter den Linden","postalCode":"16928","locality":"Groß Pankow (Prignitz)","municipality":{"key":"12070125","name":"Groß Pankow (Prignitz)","type":"Kreisangehörige_Gemeinde"},"district":{"key":"12070","name":"Prignitz","type":"Landkreis"},"federalState":{"key":"12","name":"Brandenburg"}},{"name":"Vahrnower Str.","postalCode":"16928","locality":"Groß Pankow (Prignitz)","municipality":{"key":"12070125","name":"Groß Pankow (Prignitz)","type":"Kreisangehörige_Gemeinde"},"district":{"key":"12070","name":"Prignitz","type":"Landkreis"},"federalState":{"key":"12","name":"Brandenburg"}},{"name":"Vettin","postalCode":"16928","locality":"Groß Pankow (Prignitz)","municipality":{"key":"12070125","name":"Groß Pankow (Prignitz)","type":"Kreisangehörige_Gemeinde"},"district":{"key":"12070","name":"Prignitz","type":"Landkreis"},"federalState":{"key":"12","name":"Brandenburg"}},{"name":"Vettiner Str.","postalCode":"16928","locality":"Groß Pankow (Prignitz)","municipality":{"key":"12070125","name":"Groß Pankow (Prignitz)","type":"Kreisangehörige_Gemeinde"},"district":{"key":"12070","name":"Prignitz","type":"Landkreis"},"federalState":{"key":"12","name":"Brandenburg"}},{"name":"Waldweg","postalCode":"19322","locality":"Cumlosen","municipality":{"key":"12070060","name":"Cumlosen","type":"Kreisangehörige_Gemeinde"},"district":{"key":"12070","name":"Prignitz","type":"Landkreis"},"federalState":{"key":"12","name":"Brandenburg"}},{"name":"Zu den Wiesen","postalCode":"19322","locality":"Cumlosen","municipality":{"key":"12070060","name":"Cumlosen","type":"Kreisangehörige_Gemeinde"},"district":{"key":"12070","name":"Prignitz","type":"Landkreis"},"federalState":{"key":"12","name":"Brandenburg"}},{"name":"Zur Bahn","postalCode":"19322","locality":"Cumlosen","municipality":{"key":"12070060","name":"Cumlosen","type":"Kreisangehörige_Gemeinde"},"district":{"key":"12070","name":"Prignitz","type":"Landkreis"},"federalState":{"key":"12","name":"Brandenburg"}},]