[{"name":"Bruchallee","postalCode":"76889","locality":"Schweighofen","municipality":{"key":"07337072","name":"Schweighofen","type":"Kreisangehörige_Gemeinde"},"district":{"key":"07337","name":"Südliche Weinstraße","type":"Landkreis"},"federalState":{"key":"07","name":"Rheinland-Pfalz"}},{"name":"Friedhofstr.","postalCode":"76889","locality":"Schweighofen","municipality":{"key":"07337072","name":"Schweighofen","type":"Kreisangehörige_Gemeinde"},"district":{"key":"07337","name":"Südliche Weinstraße","type":"Landkreis"},"federalState":{"key":"07","name":"Rheinland-Pfalz"}},{"name":"Gartenstr.","postalCode":"76889","locality":"Schweighofen","municipality":{"key":"07337072","name":"Schweighofen","type":"Kreisangehörige_Gemeinde"},"district":{"key":"07337","name":"Südliche Weinstraße","type":"Landkreis"},"federalState":{"key":"07","name":"Rheinland-Pfalz"}},{"name":"Grenzweg","postalCode":"76889","locality":"Schweighofen","municipality":{"key":"07337072","name":"Schweighofen","type":"Kreisangehörige_Gemeinde"},"district":{"key":"07337","name":"Südliche Weinstraße","type":"Landkreis"},"federalState":{"key":"07","name":"Rheinland-Pfalz"}},{"name":"Hans-Trapp-Str.","postalCode":"76889","locality":"Schweighofen","municipality":{"key":"07337072","name":"Schweighofen","type":"Kreisangehörige_Gemeinde"},"district":{"key":"07337","name":"Südliche Weinstraße","type":"Landkreis"},"federalState":{"key":"07","name":"Rheinland-Pfalz"}},{"name":"Hauptstr.","postalCode":"76889","locality":"Schweighofen","municipality":{"key":"07337072","name":"Schweighofen","type":"Kreisangehörige_Gemeinde"},"district":{"key":"07337","name":"Südliche Weinstraße","type":"Landkreis"},"federalState":{"key":"07","name":"Rheinland-Pfalz"}},{"name":"Kirchstr.","postalCode":"76889","locality":"Schweighofen","municipality":{"key":"07337072","name":"Schweighofen","type":"Kreisangehörige_Gemeinde"},"district":{"key":"07337","name":"Südliche Weinstraße","type":"Landkreis"},"federalState":{"key":"07","name":"Rheinland-Pfalz"}},{"name":"Lerchenweg","postalCode":"76889","locality":"Schweighofen","municipality":{"key":"07337072","name":"Schweighofen","type":"Kreisangehörige_Gemeinde"},"district":{"key":"07337","name":"Südliche Weinstraße","type":"Landkreis"},"federalState":{"key":"07","name":"Rheinland-Pfalz"}},{"name":"Lichtenhart","postalCode":"76889","locality":"Schweighofen","municipality":{"key":"07337072","name":"Schweighofen","type":"Kreisangehörige_Gemeinde"},"district":{"key":"07337","name":"Südliche Weinstraße","type":"Landkreis"},"federalState":{"key":"07","name":"Rheinland-Pfalz"}},{"name":"Pfr.-Michael-Frey-Str.","postalCode":"76889","locality":"Schweighofen","municipality":{"key":"07337072","name":"Schweighofen","type":"Kreisangehörige_Gemeinde"},"district":{"key":"07337","name":"Südliche Weinstraße","type":"Landkreis"},"federalState":{"key":"07","name":"Rheinland-Pfalz"}},{"name":"Schulstr.","postalCode":"76889","locality":"Schweighofen","municipality":{"key":"07337072","name":"Schweighofen","type":"Kreisangehörige_Gemeinde"},"district":{"key":"07337","name":"Südliche Weinstraße","type":"Landkreis"},"federalState":{"key":"07","name":"Rheinland-Pfalz"}},{"name":"Schweighofer Weg","postalCode":"76889","locality":"Schweighofen","municipality":{"key":"07337072","name":"Schweighofen","type":"Kreisangehörige_Gemeinde"},"district":{"key":"07337","name":"Südliche Weinstraße","type":"Landkreis"},"federalState":{"key":"07","name":"Rheinland-Pfalz"}},{"name":"Speckstr.","postalCode":"76889","locality":"Schweighofen","municipality":{"key":"07337072","name":"Schweighofen","type":"Kreisangehörige_Gemeinde"},"district":{"key":"07337","name":"Südliche Weinstraße","type":"Landkreis"},"federalState":{"key":"07","name":"Rheinland-Pfalz"}},{"name":"St. Remigius-Str.","postalCode":"76889","locality":"Schweighofen","municipality":{"key":"07337072","name":"Schweighofen","type":"Kreisangehörige_Gemeinde"},"district":{"key":"07337","name":"Südliche Weinstraße","type":"Landkreis"},"federalState":{"key":"07","name":"Rheinland-Pfalz"}},{"name":"Südring","postalCode":"76889","locality":"Schweighofen","municipality":{"key":"07337072","name":"Schweighofen","type":"Kreisangehörige_Gemeinde"},"district":{"key":"07337","name":"Südliche Weinstraße","type":"Landkreis"},"federalState":{"key":"07","name":"Rheinland-Pfalz"}},{"name":"Weinstr.","postalCode":"76889","locality":"Schweighofen","municipality":{"key":"07337072","name":"Schweighofen","type":"Kreisangehörige_Gemeinde"},"district":{"key":"07337","name":"Südliche Weinstraße","type":"Landkreis"},"federalState":{"key":"07","name":"Rheinland-Pfalz"}},{"name":"Wiesenstr.","postalCode":"76889","locality":"Schweighofen","municipality":{"key":"07337072","name":"Schweighofen","type":"Kreisangehörige_Gemeinde"},"district":{"key":"07337","name":"Südliche Weinstraße","type":"Landkreis"},"federalState":{"key":"07","name":"Rheinland-Pfalz"}},]