[{"name":"Am Anger","postalCode":"85309","locality":"Pörnbach","municipality":{"key":"09186144","name":"Pörnbach","type":"Kreisangehörige_Gemeinde"},"district":{"key":"09186","name":"Pfaffenhofen a.d.Ilm","type":"Landkreis"},"federalState":{"key":"09","name":"Bayern"}},{"name":"Am Feller","postalCode":"85309","locality":"Pörnbach","municipality":{"key":"09186144","name":"Pörnbach","type":"Kreisangehörige_Gemeinde"},"district":{"key":"09186","name":"Pfaffenhofen a.d.Ilm","type":"Landkreis"},"federalState":{"key":"09","name":"Bayern"}},{"name":"Am Gaißberg","postalCode":"85309","locality":"Pörnbach","municipality":{"key":"09186144","name":"Pörnbach","type":"Kreisangehörige_Gemeinde"},"district":{"key":"09186","name":"Pfaffenhofen a.d.Ilm","type":"Landkreis"},"federalState":{"key":"09","name":"Bayern"}},{"name":"Am Gießbach","postalCode":"85309","locality":"Pörnbach","municipality":{"key":"09186144","name":"Pörnbach","type":"Kreisangehörige_Gemeinde"},"district":{"key":"09186","name":"Pfaffenhofen a.d.Ilm","type":"Landkreis"},"federalState":{"key":"09","name":"Bayern"}},{"name":"Am Mitterweg","postalCode":"85309","locality":"Pörnbach","municipality":{"key":"09186144","name":"Pörnbach","type":"Kreisangehörige_Gemeinde"},"district":{"key":"09186","name":"Pfaffenhofen a.d.Ilm","type":"Landkreis"},"federalState":{"key":"09","name":"Bayern"}},{"name":"Am Weiher","postalCode":"85309","locality":"Pörnbach","municipality":{"key":"09186144","name":"Pörnbach","type":"Kreisangehörige_Gemeinde"},"district":{"key":"09186","name":"Pfaffenhofen a.d.Ilm","type":"Landkreis"},"federalState":{"key":"09","name":"Bayern"}},{"name":"Am Wiesengrund","postalCode":"85309","locality":"Pörnbach","municipality":{"key":"09186144","name":"Pörnbach","type":"Kreisangehörige_Gemeinde"},"district":{"key":"09186","name":"Pfaffenhofen a.d.Ilm","type":"Landkreis"},"federalState":{"key":"09","name":"Bayern"}},{"name":"Bachstr.","postalCode":"85309","locality":"Pörnbach","municipality":{"key":"09186144","name":"Pörnbach","type":"Kreisangehörige_Gemeinde"},"district":{"key":"09186","name":"Pfaffenhofen a.d.Ilm","type":"Landkreis"},"federalState":{"key":"09","name":"Bayern"}},{"name":"Bergring","postalCode":"85309","locality":"Pörnbach","municipality":{"key":"09186144","name":"Pörnbach","type":"Kreisangehörige_Gemeinde"},"district":{"key":"09186","name":"Pfaffenhofen a.d.Ilm","type":"Landkreis"},"federalState":{"key":"09","name":"Bayern"}},{"name":"Bergstr.","postalCode":"85309","locality":"Pörnbach","municipality":{"key":"09186144","name":"Pörnbach","type":"Kreisangehörige_Gemeinde"},"district":{"key":"09186","name":"Pfaffenhofen a.d.Ilm","type":"Landkreis"},"federalState":{"key":"09","name":"Bayern"}},{"name":"Birklweg","postalCode":"85309","locality":"Pörnbach","municipality":{"key":"09186144","name":"Pörnbach","type":"Kreisangehörige_Gemeinde"},"district":{"key":"09186","name":"Pfaffenhofen a.d.Ilm","type":"Landkreis"},"federalState":{"key":"09","name":"Bayern"}},{"name":"Blumenstr.","postalCode":"85309","locality":"Pörnbach","municipality":{"key":"09186144","name":"Pörnbach","type":"Kreisangehörige_Gemeinde"},"district":{"key":"09186","name":"Pfaffenhofen a.d.Ilm","type":"Landkreis"},"federalState":{"key":"09","name":"Bayern"}},{"name":"Dorfstr.","postalCode":"85309","locality":"Pörnbach","municipality":{"key":"09186144","name":"Pörnbach","type":"Kreisangehörige_Gemeinde"},"district":{"key":"09186","name":"Pfaffenhofen a.d.Ilm","type":"Landkreis"},"federalState":{"key":"09","name":"Bayern"}},{"name":"Ehrenberger Str.","postalCode":"85309","locality":"Pörnbach","municipality":{"key":"09186144","name":"Pörnbach","type":"Kreisangehörige_Gemeinde"},"district":{"key":"09186","name":"Pfaffenhofen a.d.Ilm","type":"Landkreis"},"federalState":{"key":"09","name":"Bayern"}},{"name":"Erlenstr.","postalCode":"85309","locality":"Pörnbach","municipality":{"key":"09186144","name":"Pörnbach","type":"Kreisangehörige_Gemeinde"},"district":{"key":"09186","name":"Pfaffenhofen a.d.Ilm","type":"Landkreis"},"federalState":{"key":"09","name":"Bayern"}},{"name":"Graf-Toerring-Str.","postalCode":"85309","locality":"Pörnbach","municipality":{"key":"09186144","name":"Pörnbach","type":"Kreisangehörige_Gemeinde"},"district":{"key":"09186","name":"Pfaffenhofen a.d.Ilm","type":"Landkreis"},"federalState":{"key":"09","name":"Bayern"}},{"name":"Hans-Lackner-Str.","postalCode":"85309","locality":"Pörnbach","municipality":{"key":"09186144","name":"Pörnbach","type":"Kreisangehörige_Gemeinde"},"district":{"key":"09186","name":"Pfaffenhofen a.d.Ilm","type":"Landkreis"},"federalState":{"key":"09","name":"Bayern"}},{"name":"Hauptstr.","postalCode":"85309","locality":"Pörnbach","municipality":{"key":"09186144","name":"Pörnbach","type":"Kreisangehörige_Gemeinde"},"district":{"key":"09186","name":"Pfaffenhofen a.d.Ilm","type":"Landkreis"},"federalState":{"key":"09","name":"Bayern"}},{"name":"Hochstr.","postalCode":"85309","locality":"Pörnbach","municipality":{"key":"09186144","name":"Pörnbach","type":"Kreisangehörige_Gemeinde"},"district":{"key":"09186","name":"Pfaffenhofen a.d.Ilm","type":"Landkreis"},"federalState":{"key":"09","name":"Bayern"}},{"name":"Hochweg","postalCode":"85309","locality":"Pörnbach","municipality":{"key":"09186144","name":"Pörnbach","type":"Kreisangehörige_Gemeinde"},"district":{"key":"09186","name":"Pfaffenhofen a.d.Ilm","type":"Landkreis"},"federalState":{"key":"09","name":"Bayern"}},{"name":"Hofmarkring","postalCode":"85309","locality":"Pörnbach","municipality":{"key":"09186144","name":"Pörnbach","type":"Kreisangehörige_Gemeinde"},"district":{"key":"09186","name":"Pfaffenhofen a.d.Ilm","type":"Landkreis"},"federalState":{"key":"09","name":"Bayern"}},{"name":"Hoheberg","postalCode":"85309","locality":"Pörnbach","municipality":{"key":"09186144","name":"Pörnbach","type":"Kreisangehörige_Gemeinde"},"district":{"key":"09186","name":"Pfaffenhofen a.d.Ilm","type":"Landkreis"},"federalState":{"key":"09","name":"Bayern"}},{"name":"Hopfenstr.","postalCode":"85309","locality":"Pörnbach","municipality":{"key":"09186144","name":"Pörnbach","type":"Kreisangehörige_Gemeinde"},"district":{"key":"09186","name":"Pfaffenhofen a.d.Ilm","type":"Landkreis"},"federalState":{"key":"09","name":"Bayern"}},{"name":"Ingolstädter Str.","postalCode":"85309","locality":"Pörnbach","municipality":{"key":"09186144","name":"Pörnbach","type":"Kreisangehörige_Gemeinde"},"district":{"key":"09186","name":"Pfaffenhofen a.d.Ilm","type":"Landkreis"},"federalState":{"key":"09","name":"Bayern"}},{"name":"Kapellenweg","postalCode":"85309","locality":"Pörnbach","municipality":{"key":"09186144","name":"Pörnbach","type":"Kreisangehörige_Gemeinde"},"district":{"key":"09186","name":"Pfaffenhofen a.d.Ilm","type":"Landkreis"},"federalState":{"key":"09","name":"Bayern"}},{"name":"Kirchplatz","postalCode":"85309","locality":"Pörnbach","municipality":{"key":"09186144","name":"Pörnbach","type":"Kreisangehörige_Gemeinde"},"district":{"key":"09186","name":"Pfaffenhofen a.d.Ilm","type":"Landkreis"},"federalState":{"key":"09","name":"Bayern"}},{"name":"Kirchstr.","postalCode":"85309","locality":"Pörnbach","municipality":{"key":"09186144","name":"Pörnbach","type":"Kreisangehörige_Gemeinde"},"district":{"key":"09186","name":"Pfaffenhofen a.d.Ilm","type":"Landkreis"},"federalState":{"key":"09","name":"Bayern"}},{"name":"Kollberg","postalCode":"85309","locality":"Pörnbach","municipality":{"key":"09186144","name":"Pörnbach","type":"Kreisangehörige_Gemeinde"},"district":{"key":"09186","name":"Pfaffenhofen a.d.Ilm","type":"Landkreis"},"federalState":{"key":"09","name":"Bayern"}},{"name":"Langenbrucker Str.","postalCode":"85309","locality":"Pörnbach","municipality":{"key":"09186144","name":"Pörnbach","type":"Kreisangehörige_Gemeinde"},"district":{"key":"09186","name":"Pfaffenhofen a.d.Ilm","type":"Landkreis"},"federalState":{"key":"09","name":"Bayern"}},{"name":"Lärchenstr.","postalCode":"85309","locality":"Pörnbach","municipality":{"key":"09186144","name":"Pörnbach","type":"Kreisangehörige_Gemeinde"},"district":{"key":"09186","name":"Pfaffenhofen a.d.Ilm","type":"Landkreis"},"federalState":{"key":"09","name":"Bayern"}},{"name":"Maushof","postalCode":"85309","locality":"Pörnbach","municipality":{"key":"09186144","name":"Pörnbach","type":"Kreisangehörige_Gemeinde"},"district":{"key":"09186","name":"Pfaffenhofen a.d.Ilm","type":"Landkreis"},"federalState":{"key":"09","name":"Bayern"}},{"name":"Münchener Str.","postalCode":"85309","locality":"Pörnbach","municipality":{"key":"09186144","name":"Pörnbach","type":"Kreisangehörige_Gemeinde"},"district":{"key":"09186","name":"Pfaffenhofen a.d.Ilm","type":"Landkreis"},"federalState":{"key":"09","name":"Bayern"}},{"name":"Nußbaumstr.","postalCode":"85309","locality":"Pörnbach","municipality":{"key":"09186144","name":"Pörnbach","type":"Kreisangehörige_Gemeinde"},"district":{"key":"09186","name":"Pfaffenhofen a.d.Ilm","type":"Landkreis"},"federalState":{"key":"09","name":"Bayern"}},{"name":"Ortsstr.","postalCode":"85309","locality":"Pörnbach","municipality":{"key":"09186144","name":"Pörnbach","type":"Kreisangehörige_Gemeinde"},"district":{"key":"09186","name":"Pfaffenhofen a.d.Ilm","type":"Landkreis"},"federalState":{"key":"09","name":"Bayern"}},{"name":"Quellengasse","postalCode":"85309","locality":"Pörnbach","municipality":{"key":"09186144","name":"Pörnbach","type":"Kreisangehörige_Gemeinde"},"district":{"key":"09186","name":"Pfaffenhofen a.d.Ilm","type":"Landkreis"},"federalState":{"key":"09","name":"Bayern"}},{"name":"Raiffeisenstr.","postalCode":"85309","locality":"Pörnbach","municipality":{"key":"09186144","name":"Pörnbach","type":"Kreisangehörige_Gemeinde"},"district":{"key":"09186","name":"Pfaffenhofen a.d.Ilm","type":"Landkreis"},"federalState":{"key":"09","name":"Bayern"}},{"name":"Regensburger Str.","postalCode":"85309","locality":"Pörnbach","municipality":{"key":"09186144","name":"Pörnbach","type":"Kreisangehörige_Gemeinde"},"district":{"key":"09186","name":"Pfaffenhofen a.d.Ilm","type":"Landkreis"},"federalState":{"key":"09","name":"Bayern"}},{"name":"Ringstr.","postalCode":"85309","locality":"Pörnbach","municipality":{"key":"09186144","name":"Pörnbach","type":"Kreisangehörige_Gemeinde"},"district":{"key":"09186","name":"Pfaffenhofen a.d.Ilm","type":"Landkreis"},"federalState":{"key":"09","name":"Bayern"}},{"name":"Rosenstr.","postalCode":"85309","locality":"Pörnbach","municipality":{"key":"09186144","name":"Pörnbach","type":"Kreisangehörige_Gemeinde"},"district":{"key":"09186","name":"Pfaffenhofen a.d.Ilm","type":"Landkreis"},"federalState":{"key":"09","name":"Bayern"}},{"name":"Schloßplatz","postalCode":"85309","locality":"Pörnbach","municipality":{"key":"09186144","name":"Pörnbach","type":"Kreisangehörige_Gemeinde"},"district":{"key":"09186","name":"Pfaffenhofen a.d.Ilm","type":"Landkreis"},"federalState":{"key":"09","name":"Bayern"}},{"name":"Schulweg","postalCode":"85309","locality":"Pörnbach","municipality":{"key":"09186144","name":"Pörnbach","type":"Kreisangehörige_Gemeinde"},"district":{"key":"09186","name":"Pfaffenhofen a.d.Ilm","type":"Landkreis"},"federalState":{"key":"09","name":"Bayern"}},{"name":"Sonnenstr.","postalCode":"85309","locality":"Pörnbach","municipality":{"key":"09186144","name":"Pörnbach","type":"Kreisangehörige_Gemeinde"},"district":{"key":"09186","name":"Pfaffenhofen a.d.Ilm","type":"Landkreis"},"federalState":{"key":"09","name":"Bayern"}},{"name":"Tulpenstr.","postalCode":"85309","locality":"Pörnbach","municipality":{"key":"09186144","name":"Pörnbach","type":"Kreisangehörige_Gemeinde"},"district":{"key":"09186","name":"Pfaffenhofen a.d.Ilm","type":"Landkreis"},"federalState":{"key":"09","name":"Bayern"}},{"name":"Westhang","postalCode":"85309","locality":"Pörnbach","municipality":{"key":"09186144","name":"Pörnbach","type":"Kreisangehörige_Gemeinde"},"district":{"key":"09186","name":"Pfaffenhofen a.d.Ilm","type":"Landkreis"},"federalState":{"key":"09","name":"Bayern"}},]