[{"name":"Ahornweg","postalCode":"73340","locality":"Amstetten","municipality":{"key":"08425008","name":"Amstetten","type":"Kreisangehörige_Gemeinde"},"district":{"key":"08425","name":"Alb-Donau-Kreis","type":"Landkreis"},"federalState":{"key":"08","name":"Baden-Württemberg"}},{"name":"Alte Gärtnerei","postalCode":"73340","locality":"Amstetten","municipality":{"key":"08425008","name":"Amstetten","type":"Kreisangehörige_Gemeinde"},"district":{"key":"08425","name":"Alb-Donau-Kreis","type":"Landkreis"},"federalState":{"key":"08","name":"Baden-Württemberg"}},{"name":"Alter Ettlenschießer Weg","postalCode":"73340","locality":"Amstetten","municipality":{"key":"08425008","name":"Amstetten","type":"Kreisangehörige_Gemeinde"},"district":{"key":"08425","name":"Alb-Donau-Kreis","type":"Landkreis"},"federalState":{"key":"08","name":"Baden-Württemberg"}},{"name":"Alter Postweg","postalCode":"73340","locality":"Amstetten","municipality":{"key":"08425008","name":"Amstetten","type":"Kreisangehörige_Gemeinde"},"district":{"key":"08425","name":"Alb-Donau-Kreis","type":"Landkreis"},"federalState":{"key":"08","name":"Baden-Württemberg"}},{"name":"Am Bahnhof","postalCode":"73340","locality":"Amstetten","municipality":{"key":"08425008","name":"Amstetten","type":"Kreisangehörige_Gemeinde"},"district":{"key":"08425","name":"Alb-Donau-Kreis","type":"Landkreis"},"federalState":{"key":"08","name":"Baden-Württemberg"}},{"name":"Am Landgraben","postalCode":"73340","locality":"Amstetten","municipality":{"key":"08425008","name":"Amstetten","type":"Kreisangehörige_Gemeinde"},"district":{"key":"08425","name":"Alb-Donau-Kreis","type":"Landkreis"},"federalState":{"key":"08","name":"Baden-Württemberg"}},{"name":"Am Ofenloch","postalCode":"73340","locality":"Amstetten","municipality":{"key":"08425008","name":"Amstetten","type":"Kreisangehörige_Gemeinde"},"district":{"key":"08425","name":"Alb-Donau-Kreis","type":"Landkreis"},"federalState":{"key":"08","name":"Baden-Württemberg"}},{"name":"Am Pfarrgarten","postalCode":"73340","locality":"Amstetten","municipality":{"key":"08425008","name":"Amstetten","type":"Kreisangehörige_Gemeinde"},"district":{"key":"08425","name":"Alb-Donau-Kreis","type":"Landkreis"},"federalState":{"key":"08","name":"Baden-Württemberg"}},{"name":"Am Postacker","postalCode":"73340","locality":"Amstetten","municipality":{"key":"08425008","name":"Amstetten","type":"Kreisangehörige_Gemeinde"},"district":{"key":"08425","name":"Alb-Donau-Kreis","type":"Landkreis"},"federalState":{"key":"08","name":"Baden-Württemberg"}},{"name":"Am Sandrain","postalCode":"73340","locality":"Amstetten","municipality":{"key":"08425008","name":"Amstetten","type":"Kreisangehörige_Gemeinde"},"district":{"key":"08425","name":"Alb-Donau-Kreis","type":"Landkreis"},"federalState":{"key":"08","name":"Baden-Württemberg"}},{"name":"Amselweg","postalCode":"73340","locality":"Amstetten","municipality":{"key":"08425008","name":"Amstetten","type":"Kreisangehörige_Gemeinde"},"district":{"key":"08425","name":"Alb-Donau-Kreis","type":"Landkreis"},"federalState":{"key":"08","name":"Baden-Württemberg"}},{"name":"Auf dem Aurain","postalCode":"73340","locality":"Amstetten","municipality":{"key":"08425008","name":"Amstetten","type":"Kreisangehörige_Gemeinde"},"district":{"key":"08425","name":"Alb-Donau-Kreis","type":"Landkreis"},"federalState":{"key":"08","name":"Baden-Württemberg"}},{"name":"Bahnhof","postalCode":"73340","locality":"Amstetten","municipality":{"key":"08425008","name":"Amstetten","type":"Kreisangehörige_Gemeinde"},"district":{"key":"08425","name":"Alb-Donau-Kreis","type":"Landkreis"},"federalState":{"key":"08","name":"Baden-Württemberg"}},{"name":"Bahnhofstr.","postalCode":"73340","locality":"Amstetten","municipality":{"key":"08425008","name":"Amstetten","type":"Kreisangehörige_Gemeinde"},"district":{"key":"08425","name":"Alb-Donau-Kreis","type":"Landkreis"},"federalState":{"key":"08","name":"Baden-Württemberg"}},{"name":"Bei der Röße","postalCode":"73340","locality":"Amstetten","municipality":{"key":"08425008","name":"Amstetten","type":"Kreisangehörige_Gemeinde"},"district":{"key":"08425","name":"Alb-Donau-Kreis","type":"Landkreis"},"federalState":{"key":"08","name":"Baden-Württemberg"}},{"name":"Beim Kreuzstein","postalCode":"73340","locality":"Amstetten","municipality":{"key":"08425008","name":"Amstetten","type":"Kreisangehörige_Gemeinde"},"district":{"key":"08425","name":"Alb-Donau-Kreis","type":"Landkreis"},"federalState":{"key":"08","name":"Baden-Württemberg"}},{"name":"Beim Rot","postalCode":"73340","locality":"Amstetten","municipality":{"key":"08425008","name":"Amstetten","type":"Kreisangehörige_Gemeinde"},"district":{"key":"08425","name":"Alb-Donau-Kreis","type":"Landkreis"},"federalState":{"key":"08","name":"Baden-Württemberg"}},{"name":"Beim Steinbrunnen","postalCode":"73340","locality":"Amstetten","municipality":{"key":"08425008","name":"Amstetten","type":"Kreisangehörige_Gemeinde"},"district":{"key":"08425","name":"Alb-Donau-Kreis","type":"Landkreis"},"federalState":{"key":"08","name":"Baden-Württemberg"}},{"name":"Bergstr.","postalCode":"73340","locality":"Amstetten","municipality":{"key":"08425008","name":"Amstetten","type":"Kreisangehörige_Gemeinde"},"district":{"key":"08425","name":"Alb-Donau-Kreis","type":"Landkreis"},"federalState":{"key":"08","name":"Baden-Württemberg"}},{"name":"Binsenstr.","postalCode":"73340","locality":"Amstetten","municipality":{"key":"08425008","name":"Amstetten","type":"Kreisangehörige_Gemeinde"},"district":{"key":"08425","name":"Alb-Donau-Kreis","type":"Landkreis"},"federalState":{"key":"08","name":"Baden-Württemberg"}},{"name":"Birketweg","postalCode":"73340","locality":"Amstetten","municipality":{"key":"08425008","name":"Amstetten","type":"Kreisangehörige_Gemeinde"},"district":{"key":"08425","name":"Alb-Donau-Kreis","type":"Landkreis"},"federalState":{"key":"08","name":"Baden-Württemberg"}},{"name":"Blumenweg","postalCode":"73340","locality":"Amstetten","municipality":{"key":"08425008","name":"Amstetten","type":"Kreisangehörige_Gemeinde"},"district":{"key":"08425","name":"Alb-Donau-Kreis","type":"Landkreis"},"federalState":{"key":"08","name":"Baden-Württemberg"}},{"name":"Bräunisheimer Str.","postalCode":"73340","locality":"Amstetten","municipality":{"key":"08425008","name":"Amstetten","type":"Kreisangehörige_Gemeinde"},"district":{"key":"08425","name":"Alb-Donau-Kreis","type":"Landkreis"},"federalState":{"key":"08","name":"Baden-Württemberg"}},{"name":"Brühl","postalCode":"73340","locality":"Amstetten","municipality":{"key":"08425008","name":"Amstetten","type":"Kreisangehörige_Gemeinde"},"district":{"key":"08425","name":"Alb-Donau-Kreis","type":"Landkreis"},"federalState":{"key":"08","name":"Baden-Württemberg"}},{"name":"Brühlweg","postalCode":"73340","locality":"Amstetten","municipality":{"key":"08425008","name":"Amstetten","type":"Kreisangehörige_Gemeinde"},"district":{"key":"08425","name":"Alb-Donau-Kreis","type":"Landkreis"},"federalState":{"key":"08","name":"Baden-Württemberg"}},{"name":"Brunnenstr.","postalCode":"73340","locality":"Amstetten","municipality":{"key":"08425008","name":"Amstetten","type":"Kreisangehörige_Gemeinde"},"district":{"key":"08425","name":"Alb-Donau-Kreis","type":"Landkreis"},"federalState":{"key":"08","name":"Baden-Württemberg"}},{"name":"Buchenweg","postalCode":"73340","locality":"Amstetten","municipality":{"key":"08425008","name":"Amstetten","type":"Kreisangehörige_Gemeinde"},"district":{"key":"08425","name":"Alb-Donau-Kreis","type":"Landkreis"},"federalState":{"key":"08","name":"Baden-Württemberg"}},{"name":"Burgstr.","postalCode":"73340","locality":"Amstetten","municipality":{"key":"08425008","name":"Amstetten","type":"Kreisangehörige_Gemeinde"},"district":{"key":"08425","name":"Alb-Donau-Kreis","type":"Landkreis"},"federalState":{"key":"08","name":"Baden-Württemberg"}},{"name":"Distelweg","postalCode":"73340","locality":"Amstetten","municipality":{"key":"08425008","name":"Amstetten","type":"Kreisangehörige_Gemeinde"},"district":{"key":"08425","name":"Alb-Donau-Kreis","type":"Landkreis"},"federalState":{"key":"08","name":"Baden-Württemberg"}},{"name":"Drosselweg","postalCode":"73340","locality":"Amstetten","municipality":{"key":"08425008","name":"Amstetten","type":"Kreisangehörige_Gemeinde"},"district":{"key":"08425","name":"Alb-Donau-Kreis","type":"Landkreis"},"federalState":{"key":"08","name":"Baden-Württemberg"}},{"name":"Dürre Wiese","postalCode":"73340","locality":"Amstetten","municipality":{"key":"08425008","name":"Amstetten","type":"Kreisangehörige_Gemeinde"},"district":{"key":"08425","name":"Alb-Donau-Kreis","type":"Landkreis"},"federalState":{"key":"08","name":"Baden-Württemberg"}},{"name":"Eichenhang","postalCode":"73340","locality":"Amstetten","municipality":{"key":"08425008","name":"Amstetten","type":"Kreisangehörige_Gemeinde"},"district":{"key":"08425","name":"Alb-Donau-Kreis","type":"Landkreis"},"federalState":{"key":"08","name":"Baden-Württemberg"}},{"name":"Erlenweg","postalCode":"73340","locality":"Amstetten","municipality":{"key":"08425008","name":"Amstetten","type":"Kreisangehörige_Gemeinde"},"district":{"key":"08425","name":"Alb-Donau-Kreis","type":"Landkreis"},"federalState":{"key":"08","name":"Baden-Württemberg"}},{"name":"Eschenweg","postalCode":"73340","locality":"Amstetten","municipality":{"key":"08425008","name":"Amstetten","type":"Kreisangehörige_Gemeinde"},"district":{"key":"08425","name":"Alb-Donau-Kreis","type":"Landkreis"},"federalState":{"key":"08","name":"Baden-Württemberg"}},{"name":"Falkenweg","postalCode":"73340","locality":"Amstetten","municipality":{"key":"08425008","name":"Amstetten","type":"Kreisangehörige_Gemeinde"},"district":{"key":"08425","name":"Alb-Donau-Kreis","type":"Landkreis"},"federalState":{"key":"08","name":"Baden-Württemberg"}},{"name":"Finkenweg","postalCode":"73340","locality":"Amstetten","municipality":{"key":"08425008","name":"Amstetten","type":"Kreisangehörige_Gemeinde"},"district":{"key":"08425","name":"Alb-Donau-Kreis","type":"Landkreis"},"federalState":{"key":"08","name":"Baden-Württemberg"}},{"name":"Flinsweg","postalCode":"73340","locality":"Amstetten","municipality":{"key":"08425008","name":"Amstetten","type":"Kreisangehörige_Gemeinde"},"district":{"key":"08425","name":"Alb-Donau-Kreis","type":"Landkreis"},"federalState":{"key":"08","name":"Baden-Württemberg"}},{"name":"Forststr.","postalCode":"73340","locality":"Amstetten","municipality":{"key":"08425008","name":"Amstetten","type":"Kreisangehörige_Gemeinde"},"district":{"key":"08425","name":"Alb-Donau-Kreis","type":"Landkreis"},"federalState":{"key":"08","name":"Baden-Württemberg"}},{"name":"Gartenstr.","postalCode":"73340","locality":"Amstetten","municipality":{"key":"08425008","name":"Amstetten","type":"Kreisangehörige_Gemeinde"},"district":{"key":"08425","name":"Alb-Donau-Kreis","type":"Landkreis"},"federalState":{"key":"08","name":"Baden-Württemberg"}},{"name":"Gassenäcker","postalCode":"73340","locality":"Amstetten","municipality":{"key":"08425008","name":"Amstetten","type":"Kreisangehörige_Gemeinde"},"district":{"key":"08425","name":"Alb-Donau-Kreis","type":"Landkreis"},"federalState":{"key":"08","name":"Baden-Württemberg"}},{"name":"Geislinger Str.","postalCode":"73340","locality":"Amstetten","municipality":{"key":"08425008","name":"Amstetten","type":"Kreisangehörige_Gemeinde"},"district":{"key":"08425","name":"Alb-Donau-Kreis","type":"Landkreis"},"federalState":{"key":"08","name":"Baden-Württemberg"}},{"name":"Grubenweg","postalCode":"73340","locality":"Amstetten","municipality":{"key":"08425008","name":"Amstetten","type":"Kreisangehörige_Gemeinde"},"district":{"key":"08425","name":"Alb-Donau-Kreis","type":"Landkreis"},"federalState":{"key":"08","name":"Baden-Württemberg"}},{"name":"Guckengäßle","postalCode":"73340","locality":"Amstetten","municipality":{"key":"08425008","name":"Amstetten","type":"Kreisangehörige_Gemeinde"},"district":{"key":"08425","name":"Alb-Donau-Kreis","type":"Landkreis"},"federalState":{"key":"08","name":"Baden-Württemberg"}},{"name":"Hahnenbergweg","postalCode":"73340","locality":"Amstetten","municipality":{"key":"08425008","name":"Amstetten","type":"Kreisangehörige_Gemeinde"},"district":{"key":"08425","name":"Alb-Donau-Kreis","type":"Landkreis"},"federalState":{"key":"08","name":"Baden-Württemberg"}},{"name":"Haldenweg","postalCode":"73340","locality":"Amstetten","municipality":{"key":"08425008","name":"Amstetten","type":"Kreisangehörige_Gemeinde"},"district":{"key":"08425","name":"Alb-Donau-Kreis","type":"Landkreis"},"federalState":{"key":"08","name":"Baden-Württemberg"}},{"name":"Hauptstr.","postalCode":"73340","locality":"Amstetten","municipality":{"key":"08425008","name":"Amstetten","type":"Kreisangehörige_Gemeinde"},"district":{"key":"08425","name":"Alb-Donau-Kreis","type":"Landkreis"},"federalState":{"key":"08","name":"Baden-Württemberg"}},{"name":"Haustr.","postalCode":"73340","locality":"Amstetten","municipality":{"key":"08425008","name":"Amstetten","type":"Kreisangehörige_Gemeinde"},"district":{"key":"08425","name":"Alb-Donau-Kreis","type":"Landkreis"},"federalState":{"key":"08","name":"Baden-Württemberg"}},{"name":"Heutalweg","postalCode":"73340","locality":"Amstetten","municipality":{"key":"08425008","name":"Amstetten","type":"Kreisangehörige_Gemeinde"},"district":{"key":"08425","name":"Alb-Donau-Kreis","type":"Landkreis"},"federalState":{"key":"08","name":"Baden-Württemberg"}},{"name":"Hinter den Gärten","postalCode":"73340","locality":"Amstetten","municipality":{"key":"08425008","name":"Amstetten","type":"Kreisangehörige_Gemeinde"},"district":{"key":"08425","name":"Alb-Donau-Kreis","type":"Landkreis"},"federalState":{"key":"08","name":"Baden-Württemberg"}},{"name":"Hintere Gasse","postalCode":"73340","locality":"Amstetten","municipality":{"key":"08425008","name":"Amstetten","type":"Kreisangehörige_Gemeinde"},"district":{"key":"08425","name":"Alb-Donau-Kreis","type":"Landkreis"},"federalState":{"key":"08","name":"Baden-Württemberg"}},{"name":"Hofstattstr.","postalCode":"73340","locality":"Amstetten","municipality":{"key":"08425008","name":"Amstetten","type":"Kreisangehörige_Gemeinde"},"district":{"key":"08425","name":"Alb-Donau-Kreis","type":"Landkreis"},"federalState":{"key":"08","name":"Baden-Württemberg"}},{"name":"Hofstetter Str.","postalCode":"73340","locality":"Amstetten","municipality":{"key":"08425008","name":"Amstetten","type":"Kreisangehörige_Gemeinde"},"district":{"key":"08425","name":"Alb-Donau-Kreis","type":"Landkreis"},"federalState":{"key":"08","name":"Baden-Württemberg"}},{"name":"Hofstr.","postalCode":"73340","locality":"Amstetten","municipality":{"key":"08425008","name":"Amstetten","type":"Kreisangehörige_Gemeinde"},"district":{"key":"08425","name":"Alb-Donau-Kreis","type":"Landkreis"},"federalState":{"key":"08","name":"Baden-Württemberg"}},{"name":"Holunderweg","postalCode":"73340","locality":"Amstetten","municipality":{"key":"08425008","name":"Amstetten","type":"Kreisangehörige_Gemeinde"},"district":{"key":"08425","name":"Alb-Donau-Kreis","type":"Landkreis"},"federalState":{"key":"08","name":"Baden-Württemberg"}},{"name":"Hülenweg","postalCode":"73340","locality":"Amstetten","municipality":{"key":"08425008","name":"Amstetten","type":"Kreisangehörige_Gemeinde"},"district":{"key":"08425","name":"Alb-Donau-Kreis","type":"Landkreis"},"federalState":{"key":"08","name":"Baden-Württemberg"}},{"name":"Im Bodenfeld","postalCode":"73340","locality":"Amstetten","municipality":{"key":"08425008","name":"Amstetten","type":"Kreisangehörige_Gemeinde"},"district":{"key":"08425","name":"Alb-Donau-Kreis","type":"Landkreis"},"federalState":{"key":"08","name":"Baden-Württemberg"}},{"name":"Im Burrach","postalCode":"73340","locality":"Amstetten","municipality":{"key":"08425008","name":"Amstetten","type":"Kreisangehörige_Gemeinde"},"district":{"key":"08425","name":"Alb-Donau-Kreis","type":"Landkreis"},"federalState":{"key":"08","name":"Baden-Württemberg"}},{"name":"Im Gäßle","postalCode":"73340","locality":"Amstetten","municipality":{"key":"08425008","name":"Amstetten","type":"Kreisangehörige_Gemeinde"},"district":{"key":"08425","name":"Alb-Donau-Kreis","type":"Landkreis"},"federalState":{"key":"08","name":"Baden-Württemberg"}},{"name":"Im Söld","postalCode":"73340","locality":"Amstetten","municipality":{"key":"08425008","name":"Amstetten","type":"Kreisangehörige_Gemeinde"},"district":{"key":"08425","name":"Alb-Donau-Kreis","type":"Landkreis"},"federalState":{"key":"08","name":"Baden-Württemberg"}},{"name":"Im Steeg","postalCode":"73340","locality":"Amstetten","municipality":{"key":"08425008","name":"Amstetten","type":"Kreisangehörige_Gemeinde"},"district":{"key":"08425","name":"Alb-Donau-Kreis","type":"Landkreis"},"federalState":{"key":"08","name":"Baden-Württemberg"}},{"name":"In der Au","postalCode":"73340","locality":"Amstetten","municipality":{"key":"08425008","name":"Amstetten","type":"Kreisangehörige_Gemeinde"},"district":{"key":"08425","name":"Alb-Donau-Kreis","type":"Landkreis"},"federalState":{"key":"08","name":"Baden-Württemberg"}},{"name":"Industriestr.","postalCode":"73340","locality":"Amstetten","municipality":{"key":"08425008","name":"Amstetten","type":"Kreisangehörige_Gemeinde"},"district":{"key":"08425","name":"Alb-Donau-Kreis","type":"Landkreis"},"federalState":{"key":"08","name":"Baden-Württemberg"}},{"name":"Katzensteige","postalCode":"73340","locality":"Amstetten","municipality":{"key":"08425008","name":"Amstetten","type":"Kreisangehörige_Gemeinde"},"district":{"key":"08425","name":"Alb-Donau-Kreis","type":"Landkreis"},"federalState":{"key":"08","name":"Baden-Württemberg"}},{"name":"Kaubtal","postalCode":"73340","locality":"Amstetten","municipality":{"key":"08425008","name":"Amstetten","type":"Kreisangehörige_Gemeinde"},"district":{"key":"08425","name":"Alb-Donau-Kreis","type":"Landkreis"},"federalState":{"key":"08","name":"Baden-Württemberg"}},{"name":"Keltenplatz","postalCode":"73340","locality":"Amstetten","municipality":{"key":"08425008","name":"Amstetten","type":"Kreisangehörige_Gemeinde"},"district":{"key":"08425","name":"Alb-Donau-Kreis","type":"Landkreis"},"federalState":{"key":"08","name":"Baden-Württemberg"}},{"name":"Kirchgasse","postalCode":"73340","locality":"Amstetten","municipality":{"key":"08425008","name":"Amstetten","type":"Kreisangehörige_Gemeinde"},"district":{"key":"08425","name":"Alb-Donau-Kreis","type":"Landkreis"},"federalState":{"key":"08","name":"Baden-Württemberg"}},{"name":"Längenwiesen","postalCode":"73340","locality":"Amstetten","municipality":{"key":"08425008","name":"Amstetten","type":"Kreisangehörige_Gemeinde"},"district":{"key":"08425","name":"Alb-Donau-Kreis","type":"Landkreis"},"federalState":{"key":"08","name":"Baden-Württemberg"}},{"name":"Längenwiesenweg","postalCode":"73340","locality":"Amstetten","municipality":{"key":"08425008","name":"Amstetten","type":"Kreisangehörige_Gemeinde"},"district":{"key":"08425","name":"Alb-Donau-Kreis","type":"Landkreis"},"federalState":{"key":"08","name":"Baden-Württemberg"}},{"name":"Lange Str.","postalCode":"73340","locality":"Amstetten","municipality":{"key":"08425008","name":"Amstetten","type":"Kreisangehörige_Gemeinde"},"district":{"key":"08425","name":"Alb-Donau-Kreis","type":"Landkreis"},"federalState":{"key":"08","name":"Baden-Württemberg"}},{"name":"Laurentiusweg","postalCode":"73340","locality":"Amstetten","municipality":{"key":"08425008","name":"Amstetten","type":"Kreisangehörige_Gemeinde"},"district":{"key":"08425","name":"Alb-Donau-Kreis","type":"Landkreis"},"federalState":{"key":"08","name":"Baden-Württemberg"}},{"name":"Lerchenweg","postalCode":"73340","locality":"Amstetten","municipality":{"key":"08425008","name":"Amstetten","type":"Kreisangehörige_Gemeinde"},"district":{"key":"08425","name":"Alb-Donau-Kreis","type":"Landkreis"},"federalState":{"key":"08","name":"Baden-Württemberg"}},{"name":"Lindenstr.","postalCode":"73340","locality":"Amstetten","municipality":{"key":"08425008","name":"Amstetten","type":"Kreisangehörige_Gemeinde"},"district":{"key":"08425","name":"Alb-Donau-Kreis","type":"Landkreis"},"federalState":{"key":"08","name":"Baden-Württemberg"}},{"name":"Lonetalstr.","postalCode":"73340","locality":"Amstetten","municipality":{"key":"08425008","name":"Amstetten","type":"Kreisangehörige_Gemeinde"},"district":{"key":"08425","name":"Alb-Donau-Kreis","type":"Landkreis"},"federalState":{"key":"08","name":"Baden-Württemberg"}},{"name":"Lontalweg","postalCode":"73340","locality":"Amstetten","municipality":{"key":"08425008","name":"Amstetten","type":"Kreisangehörige_Gemeinde"},"district":{"key":"08425","name":"Alb-Donau-Kreis","type":"Landkreis"},"federalState":{"key":"08","name":"Baden-Württemberg"}},{"name":"Meisenweg","postalCode":"73340","locality":"Amstetten","municipality":{"key":"08425008","name":"Amstetten","type":"Kreisangehörige_Gemeinde"},"district":{"key":"08425","name":"Alb-Donau-Kreis","type":"Landkreis"},"federalState":{"key":"08","name":"Baden-Württemberg"}},{"name":"Mühlweg","postalCode":"73340","locality":"Amstetten","municipality":{"key":"08425008","name":"Amstetten","type":"Kreisangehörige_Gemeinde"},"district":{"key":"08425","name":"Alb-Donau-Kreis","type":"Landkreis"},"federalState":{"key":"08","name":"Baden-Württemberg"}},{"name":"Nellinger Str.","postalCode":"73340","locality":"Amstetten","municipality":{"key":"08425008","name":"Amstetten","type":"Kreisangehörige_Gemeinde"},"district":{"key":"08425","name":"Alb-Donau-Kreis","type":"Landkreis"},"federalState":{"key":"08","name":"Baden-Württemberg"}},{"name":"Neue Str.","postalCode":"73340","locality":"Amstetten","municipality":{"key":"08425008","name":"Amstetten","type":"Kreisangehörige_Gemeinde"},"district":{"key":"08425","name":"Alb-Donau-Kreis","type":"Landkreis"},"federalState":{"key":"08","name":"Baden-Württemberg"}},{"name":"Neuhauser Str.","postalCode":"73340","locality":"Amstetten","municipality":{"key":"08425008","name":"Amstetten","type":"Kreisangehörige_Gemeinde"},"district":{"key":"08425","name":"Alb-Donau-Kreis","type":"Landkreis"},"federalState":{"key":"08","name":"Baden-Württemberg"}},{"name":"Ofenlocher Weg","postalCode":"73340","locality":"Amstetten","municipality":{"key":"08425008","name":"Amstetten","type":"Kreisangehörige_Gemeinde"},"district":{"key":"08425","name":"Alb-Donau-Kreis","type":"Landkreis"},"federalState":{"key":"08","name":"Baden-Württemberg"}},{"name":"Ortsstr.","postalCode":"73340","locality":"Amstetten","municipality":{"key":"08425008","name":"Amstetten","type":"Kreisangehörige_Gemeinde"},"district":{"key":"08425","name":"Alb-Donau-Kreis","type":"Landkreis"},"federalState":{"key":"08","name":"Baden-Württemberg"}},{"name":"Panoramastr.","postalCode":"73340","locality":"Amstetten","municipality":{"key":"08425008","name":"Amstetten","type":"Kreisangehörige_Gemeinde"},"district":{"key":"08425","name":"Alb-Donau-Kreis","type":"Landkreis"},"federalState":{"key":"08","name":"Baden-Württemberg"}},{"name":"Pfaffenhalde","postalCode":"73340","locality":"Amstetten","municipality":{"key":"08425008","name":"Amstetten","type":"Kreisangehörige_Gemeinde"},"district":{"key":"08425","name":"Alb-Donau-Kreis","type":"Landkreis"},"federalState":{"key":"08","name":"Baden-Württemberg"}},{"name":"Pfaffenhaldeweg","postalCode":"73340","locality":"Amstetten","municipality":{"key":"08425008","name":"Amstetten","type":"Kreisangehörige_Gemeinde"},"district":{"key":"08425","name":"Alb-Donau-Kreis","type":"Landkreis"},"federalState":{"key":"08","name":"Baden-Württemberg"}},{"name":"Pfarrweg","postalCode":"73340","locality":"Amstetten","municipality":{"key":"08425008","name":"Amstetten","type":"Kreisangehörige_Gemeinde"},"district":{"key":"08425","name":"Alb-Donau-Kreis","type":"Landkreis"},"federalState":{"key":"08","name":"Baden-Württemberg"}},{"name":"Poststr.","postalCode":"73340","locality":"Amstetten","municipality":{"key":"08425008","name":"Amstetten","type":"Kreisangehörige_Gemeinde"},"district":{"key":"08425","name":"Alb-Donau-Kreis","type":"Landkreis"},"federalState":{"key":"08","name":"Baden-Württemberg"}},{"name":"Römerstr.","postalCode":"73340","locality":"Amstetten","municipality":{"key":"08425008","name":"Amstetten","type":"Kreisangehörige_Gemeinde"},"district":{"key":"08425","name":"Alb-Donau-Kreis","type":"Landkreis"},"federalState":{"key":"08","name":"Baden-Württemberg"}},{"name":"Rosengrund","postalCode":"73340","locality":"Amstetten","municipality":{"key":"08425008","name":"Amstetten","type":"Kreisangehörige_Gemeinde"},"district":{"key":"08425","name":"Alb-Donau-Kreis","type":"Landkreis"},"federalState":{"key":"08","name":"Baden-Württemberg"}},{"name":"Rosenstr.","postalCode":"73340","locality":"Amstetten","municipality":{"key":"08425008","name":"Amstetten","type":"Kreisangehörige_Gemeinde"},"district":{"key":"08425","name":"Alb-Donau-Kreis","type":"Landkreis"},"federalState":{"key":"08","name":"Baden-Württemberg"}},{"name":"Schalkstetter Str.","postalCode":"73340","locality":"Amstetten","municipality":{"key":"08425008","name":"Amstetten","type":"Kreisangehörige_Gemeinde"},"district":{"key":"08425","name":"Alb-Donau-Kreis","type":"Landkreis"},"federalState":{"key":"08","name":"Baden-Württemberg"}},{"name":"Scharfenholzweg","postalCode":"73340","locality":"Amstetten","municipality":{"key":"08425008","name":"Amstetten","type":"Kreisangehörige_Gemeinde"},"district":{"key":"08425","name":"Alb-Donau-Kreis","type":"Landkreis"},"federalState":{"key":"08","name":"Baden-Württemberg"}},{"name":"Schelmenhaldeweg","postalCode":"73340","locality":"Amstetten","municipality":{"key":"08425008","name":"Amstetten","type":"Kreisangehörige_Gemeinde"},"district":{"key":"08425","name":"Alb-Donau-Kreis","type":"Landkreis"},"federalState":{"key":"08","name":"Baden-Württemberg"}},{"name":"Schillerstr.","postalCode":"73340","locality":"Amstetten","municipality":{"key":"08425008","name":"Amstetten","type":"Kreisangehörige_Gemeinde"},"district":{"key":"08425","name":"Alb-Donau-Kreis","type":"Landkreis"},"federalState":{"key":"08","name":"Baden-Württemberg"}},{"name":"Schlehenbühl","postalCode":"73340","locality":"Amstetten","municipality":{"key":"08425008","name":"Amstetten","type":"Kreisangehörige_Gemeinde"},"district":{"key":"08425","name":"Alb-Donau-Kreis","type":"Landkreis"},"federalState":{"key":"08","name":"Baden-Württemberg"}},{"name":"Schmiedegasse","postalCode":"73340","locality":"Amstetten","municipality":{"key":"08425008","name":"Amstetten","type":"Kreisangehörige_Gemeinde"},"district":{"key":"08425","name":"Alb-Donau-Kreis","type":"Landkreis"},"federalState":{"key":"08","name":"Baden-Württemberg"}},{"name":"Schulweg","postalCode":"73340","locality":"Amstetten","municipality":{"key":"08425008","name":"Amstetten","type":"Kreisangehörige_Gemeinde"},"district":{"key":"08425","name":"Alb-Donau-Kreis","type":"Landkreis"},"federalState":{"key":"08","name":"Baden-Württemberg"}},{"name":"Schützenstr.","postalCode":"73340","locality":"Amstetten","municipality":{"key":"08425008","name":"Amstetten","type":"Kreisangehörige_Gemeinde"},"district":{"key":"08425","name":"Alb-Donau-Kreis","type":"Landkreis"},"federalState":{"key":"08","name":"Baden-Württemberg"}},{"name":"Schwalbenweg","postalCode":"73340","locality":"Amstetten","municipality":{"key":"08425008","name":"Amstetten","type":"Kreisangehörige_Gemeinde"},"district":{"key":"08425","name":"Alb-Donau-Kreis","type":"Landkreis"},"federalState":{"key":"08","name":"Baden-Württemberg"}},{"name":"Schweizer Str.","postalCode":"73340","locality":"Amstetten","municipality":{"key":"08425008","name":"Amstetten","type":"Kreisangehörige_Gemeinde"},"district":{"key":"08425","name":"Alb-Donau-Kreis","type":"Landkreis"},"federalState":{"key":"08","name":"Baden-Württemberg"}},{"name":"Silcherstr.","postalCode":"73340","locality":"Amstetten","municipality":{"key":"08425008","name":"Amstetten","type":"Kreisangehörige_Gemeinde"},"district":{"key":"08425","name":"Alb-Donau-Kreis","type":"Landkreis"},"federalState":{"key":"08","name":"Baden-Württemberg"}},{"name":"Sonnenberg","postalCode":"73340","locality":"Amstetten","municipality":{"key":"08425008","name":"Amstetten","type":"Kreisangehörige_Gemeinde"},"district":{"key":"08425","name":"Alb-Donau-Kreis","type":"Landkreis"},"federalState":{"key":"08","name":"Baden-Württemberg"}},{"name":"Spatzenweg","postalCode":"73340","locality":"Amstetten","municipality":{"key":"08425008","name":"Amstetten","type":"Kreisangehörige_Gemeinde"},"district":{"key":"08425","name":"Alb-Donau-Kreis","type":"Landkreis"},"federalState":{"key":"08","name":"Baden-Württemberg"}},{"name":"Sperberweg","postalCode":"73340","locality":"Amstetten","municipality":{"key":"08425008","name":"Amstetten","type":"Kreisangehörige_Gemeinde"},"district":{"key":"08425","name":"Alb-Donau-Kreis","type":"Landkreis"},"federalState":{"key":"08","name":"Baden-Württemberg"}},{"name":"Spitalstr.","postalCode":"73340","locality":"Amstetten","municipality":{"key":"08425008","name":"Amstetten","type":"Kreisangehörige_Gemeinde"},"district":{"key":"08425","name":"Alb-Donau-Kreis","type":"Landkreis"},"federalState":{"key":"08","name":"Baden-Württemberg"}},{"name":"Starenweg","postalCode":"73340","locality":"Amstetten","municipality":{"key":"08425008","name":"Amstetten","type":"Kreisangehörige_Gemeinde"},"district":{"key":"08425","name":"Alb-Donau-Kreis","type":"Landkreis"},"federalState":{"key":"08","name":"Baden-Württemberg"}},{"name":"Stockachweg","postalCode":"73340","locality":"Amstetten","municipality":{"key":"08425008","name":"Amstetten","type":"Kreisangehörige_Gemeinde"},"district":{"key":"08425","name":"Alb-Donau-Kreis","type":"Landkreis"},"federalState":{"key":"08","name":"Baden-Württemberg"}},{"name":"Talstr.","postalCode":"73340","locality":"Amstetten","municipality":{"key":"08425008","name":"Amstetten","type":"Kreisangehörige_Gemeinde"},"district":{"key":"08425","name":"Alb-Donau-Kreis","type":"Landkreis"},"federalState":{"key":"08","name":"Baden-Württemberg"}},{"name":"Tulpenweg","postalCode":"73340","locality":"Amstetten","municipality":{"key":"08425008","name":"Amstetten","type":"Kreisangehörige_Gemeinde"},"district":{"key":"08425","name":"Alb-Donau-Kreis","type":"Landkreis"},"federalState":{"key":"08","name":"Baden-Württemberg"}},{"name":"Uhlandstr.","postalCode":"73340","locality":"Amstetten","municipality":{"key":"08425008","name":"Amstetten","type":"Kreisangehörige_Gemeinde"},"district":{"key":"08425","name":"Alb-Donau-Kreis","type":"Landkreis"},"federalState":{"key":"08","name":"Baden-Württemberg"}},{"name":"Untere Wiesenstr.","postalCode":"73340","locality":"Amstetten","municipality":{"key":"08425008","name":"Amstetten","type":"Kreisangehörige_Gemeinde"},"district":{"key":"08425","name":"Alb-Donau-Kreis","type":"Landkreis"},"federalState":{"key":"08","name":"Baden-Württemberg"}},{"name":"Wacholderweg","postalCode":"73340","locality":"Amstetten","municipality":{"key":"08425008","name":"Amstetten","type":"Kreisangehörige_Gemeinde"},"district":{"key":"08425","name":"Alb-Donau-Kreis","type":"Landkreis"},"federalState":{"key":"08","name":"Baden-Württemberg"}},{"name":"Waldeck","postalCode":"73340","locality":"Amstetten","municipality":{"key":"08425008","name":"Amstetten","type":"Kreisangehörige_Gemeinde"},"district":{"key":"08425","name":"Alb-Donau-Kreis","type":"Landkreis"},"federalState":{"key":"08","name":"Baden-Württemberg"}},{"name":"Waldweg","postalCode":"73340","locality":"Amstetten","municipality":{"key":"08425008","name":"Amstetten","type":"Kreisangehörige_Gemeinde"},"district":{"key":"08425","name":"Alb-Donau-Kreis","type":"Landkreis"},"federalState":{"key":"08","name":"Baden-Württemberg"}},{"name":"Wannenhof","postalCode":"73340","locality":"Amstetten","municipality":{"key":"08425008","name":"Amstetten","type":"Kreisangehörige_Gemeinde"},"district":{"key":"08425","name":"Alb-Donau-Kreis","type":"Landkreis"},"federalState":{"key":"08","name":"Baden-Württemberg"}},{"name":"Wasserfallweg","postalCode":"73340","locality":"Amstetten","municipality":{"key":"08425008","name":"Amstetten","type":"Kreisangehörige_Gemeinde"},"district":{"key":"08425","name":"Alb-Donau-Kreis","type":"Landkreis"},"federalState":{"key":"08","name":"Baden-Württemberg"}},{"name":"Wasserstr.","postalCode":"73340","locality":"Amstetten","municipality":{"key":"08425008","name":"Amstetten","type":"Kreisangehörige_Gemeinde"},"district":{"key":"08425","name":"Alb-Donau-Kreis","type":"Landkreis"},"federalState":{"key":"08","name":"Baden-Württemberg"}},{"name":"Weiler Str.","postalCode":"73340","locality":"Amstetten","municipality":{"key":"08425008","name":"Amstetten","type":"Kreisangehörige_Gemeinde"},"district":{"key":"08425","name":"Alb-Donau-Kreis","type":"Landkreis"},"federalState":{"key":"08","name":"Baden-Württemberg"}},{"name":"Weinhäldele","postalCode":"73340","locality":"Amstetten","municipality":{"key":"08425008","name":"Amstetten","type":"Kreisangehörige_Gemeinde"},"district":{"key":"08425","name":"Alb-Donau-Kreis","type":"Landkreis"},"federalState":{"key":"08","name":"Baden-Württemberg"}},{"name":"Weißer Weg","postalCode":"73340","locality":"Amstetten","municipality":{"key":"08425008","name":"Amstetten","type":"Kreisangehörige_Gemeinde"},"district":{"key":"08425","name":"Alb-Donau-Kreis","type":"Landkreis"},"federalState":{"key":"08","name":"Baden-Württemberg"}},{"name":"Wiesenweg","postalCode":"73340","locality":"Amstetten","municipality":{"key":"08425008","name":"Amstetten","type":"Kreisangehörige_Gemeinde"},"district":{"key":"08425","name":"Alb-Donau-Kreis","type":"Landkreis"},"federalState":{"key":"08","name":"Baden-Württemberg"}},{"name":"Zeisigweg","postalCode":"73340","locality":"Amstetten","municipality":{"key":"08425008","name":"Amstetten","type":"Kreisangehörige_Gemeinde"},"district":{"key":"08425","name":"Alb-Donau-Kreis","type":"Landkreis"},"federalState":{"key":"08","name":"Baden-Württemberg"}},{"name":"Ziegelwaldstr.","postalCode":"73340","locality":"Amstetten","municipality":{"key":"08425008","name":"Amstetten","type":"Kreisangehörige_Gemeinde"},"district":{"key":"08425","name":"Alb-Donau-Kreis","type":"Landkreis"},"federalState":{"key":"08","name":"Baden-Württemberg"}},]