[{"name":"Bachstr.","postalCode":"56767","locality":"Uersfeld","municipality":{"key":"07233242","name":"Uersfeld","type":"Kreisangehörige_Gemeinde"},"district":{"key":"07233","name":"Vulkaneifel","type":"Landkreis"},"federalState":{"key":"07","name":"Rheinland-Pfalz"}},{"name":"Bahnhofsstr.","postalCode":"56767","locality":"Uersfeld","municipality":{"key":"07233242","name":"Uersfeld","type":"Kreisangehörige_Gemeinde"},"district":{"key":"07233","name":"Vulkaneifel","type":"Landkreis"},"federalState":{"key":"07","name":"Rheinland-Pfalz"}},{"name":"Bergstr.","postalCode":"56767","locality":"Uersfeld","municipality":{"key":"07233242","name":"Uersfeld","type":"Kreisangehörige_Gemeinde"},"district":{"key":"07233","name":"Vulkaneifel","type":"Landkreis"},"federalState":{"key":"07","name":"Rheinland-Pfalz"}},{"name":"Brämelenweg","postalCode":"56767","locality":"Uersfeld","municipality":{"key":"07233242","name":"Uersfeld","type":"Kreisangehörige_Gemeinde"},"district":{"key":"07233","name":"Vulkaneifel","type":"Landkreis"},"federalState":{"key":"07","name":"Rheinland-Pfalz"}},{"name":"Hauptstr.","postalCode":"56767","locality":"Uersfeld","municipality":{"key":"07233242","name":"Uersfeld","type":"Kreisangehörige_Gemeinde"},"district":{"key":"07233","name":"Vulkaneifel","type":"Landkreis"},"federalState":{"key":"07","name":"Rheinland-Pfalz"}},{"name":"Hinter der Kirch","postalCode":"56767","locality":"Uersfeld","municipality":{"key":"07233242","name":"Uersfeld","type":"Kreisangehörige_Gemeinde"},"district":{"key":"07233","name":"Vulkaneifel","type":"Landkreis"},"federalState":{"key":"07","name":"Rheinland-Pfalz"}},{"name":"Hinter der Kirche","postalCode":"56767","locality":"Uersfeld","municipality":{"key":"07233242","name":"Uersfeld","type":"Kreisangehörige_Gemeinde"},"district":{"key":"07233","name":"Vulkaneifel","type":"Landkreis"},"federalState":{"key":"07","name":"Rheinland-Pfalz"}},{"name":"Hochstr.","postalCode":"56767","locality":"Uersfeld","municipality":{"key":"07233242","name":"Uersfeld","type":"Kreisangehörige_Gemeinde"},"district":{"key":"07233","name":"Vulkaneifel","type":"Landkreis"},"federalState":{"key":"07","name":"Rheinland-Pfalz"}},{"name":"Hohlweg","postalCode":"56767","locality":"Uersfeld","municipality":{"key":"07233242","name":"Uersfeld","type":"Kreisangehörige_Gemeinde"},"district":{"key":"07233","name":"Vulkaneifel","type":"Landkreis"},"federalState":{"key":"07","name":"Rheinland-Pfalz"}},{"name":"Kirchstr.","postalCode":"56767","locality":"Uersfeld","municipality":{"key":"07233242","name":"Uersfeld","type":"Kreisangehörige_Gemeinde"},"district":{"key":"07233","name":"Vulkaneifel","type":"Landkreis"},"federalState":{"key":"07","name":"Rheinland-Pfalz"}},{"name":"Lerchenweg","postalCode":"56767","locality":"Uersfeld","municipality":{"key":"07233242","name":"Uersfeld","type":"Kreisangehörige_Gemeinde"},"district":{"key":"07233","name":"Vulkaneifel","type":"Landkreis"},"federalState":{"key":"07","name":"Rheinland-Pfalz"}},{"name":"Lindenstr.","postalCode":"56767","locality":"Uersfeld","municipality":{"key":"07233242","name":"Uersfeld","type":"Kreisangehörige_Gemeinde"},"district":{"key":"07233","name":"Vulkaneifel","type":"Landkreis"},"federalState":{"key":"07","name":"Rheinland-Pfalz"}},{"name":"Mühlenweg","postalCode":"56767","locality":"Uersfeld","municipality":{"key":"07233242","name":"Uersfeld","type":"Kreisangehörige_Gemeinde"},"district":{"key":"07233","name":"Vulkaneifel","type":"Landkreis"},"federalState":{"key":"07","name":"Rheinland-Pfalz"}},{"name":"Ober dem Wasserborn","postalCode":"56767","locality":"Uersfeld","municipality":{"key":"07233242","name":"Uersfeld","type":"Kreisangehörige_Gemeinde"},"district":{"key":"07233","name":"Vulkaneifel","type":"Landkreis"},"federalState":{"key":"07","name":"Rheinland-Pfalz"}},{"name":"Römerhügel","postalCode":"56767","locality":"Uersfeld","municipality":{"key":"07233242","name":"Uersfeld","type":"Kreisangehörige_Gemeinde"},"district":{"key":"07233","name":"Vulkaneifel","type":"Landkreis"},"federalState":{"key":"07","name":"Rheinland-Pfalz"}},{"name":"Schulstr.","postalCode":"56767","locality":"Uersfeld","municipality":{"key":"07233242","name":"Uersfeld","type":"Kreisangehörige_Gemeinde"},"district":{"key":"07233","name":"Vulkaneifel","type":"Landkreis"},"federalState":{"key":"07","name":"Rheinland-Pfalz"}},{"name":"Sportplatz","postalCode":"56767","locality":"Uersfeld","municipality":{"key":"07233242","name":"Uersfeld","type":"Kreisangehörige_Gemeinde"},"district":{"key":"07233","name":"Vulkaneifel","type":"Landkreis"},"federalState":{"key":"07","name":"Rheinland-Pfalz"}},{"name":"Waldweg","postalCode":"56767","locality":"Uersfeld","municipality":{"key":"07233242","name":"Uersfeld","type":"Kreisangehörige_Gemeinde"},"district":{"key":"07233","name":"Vulkaneifel","type":"Landkreis"},"federalState":{"key":"07","name":"Rheinland-Pfalz"}},{"name":"Winkelstr.","postalCode":"56767","locality":"Uersfeld","municipality":{"key":"07233242","name":"Uersfeld","type":"Kreisangehörige_Gemeinde"},"district":{"key":"07233","name":"Vulkaneifel","type":"Landkreis"},"federalState":{"key":"07","name":"Rheinland-Pfalz"}},{"name":"Zollweg","postalCode":"56767","locality":"Uersfeld","municipality":{"key":"07233242","name":"Uersfeld","type":"Kreisangehörige_Gemeinde"},"district":{"key":"07233","name":"Vulkaneifel","type":"Landkreis"},"federalState":{"key":"07","name":"Rheinland-Pfalz"}},{"name":"Zum Sportplatz","postalCode":"56767","locality":"Uersfeld","municipality":{"key":"07233242","name":"Uersfeld","type":"Kreisangehörige_Gemeinde"},"district":{"key":"07233","name":"Vulkaneifel","type":"Landkreis"},"federalState":{"key":"07","name":"Rheinland-Pfalz"}},{"name":"Zur Schmiede","postalCode":"56767","locality":"Uersfeld","municipality":{"key":"07233242","name":"Uersfeld","type":"Kreisangehörige_Gemeinde"},"district":{"key":"07233","name":"Vulkaneifel","type":"Landkreis"},"federalState":{"key":"07","name":"Rheinland-Pfalz"}},{"name":"Zwischen den Wegen","postalCode":"56767","locality":"Uersfeld","municipality":{"key":"07233242","name":"Uersfeld","type":"Kreisangehörige_Gemeinde"},"district":{"key":"07233","name":"Vulkaneifel","type":"Landkreis"},"federalState":{"key":"07","name":"Rheinland-Pfalz"}},]