[{"name":"Alter Weg","postalCode":"56593","locality":"Horhausen (Westerwald)","municipality":{"key":"07132055","name":"Horhausen (Westerwald)","type":"Kreisangehörige_Gemeinde"},"district":{"key":"07132","name":"Altenkirchen (Westerwald)","type":"Landkreis"},"federalState":{"key":"07","name":"Rheinland-Pfalz"}},{"name":"Alte Schulstr.","postalCode":"56593","locality":"Horhausen (Westerwald)","municipality":{"key":"07132055","name":"Horhausen (Westerwald)","type":"Kreisangehörige_Gemeinde"},"district":{"key":"07132","name":"Altenkirchen (Westerwald)","type":"Landkreis"},"federalState":{"key":"07","name":"Rheinland-Pfalz"}},{"name":"Am Bach","postalCode":"56593","locality":"Horhausen (Westerwald)","municipality":{"key":"07132055","name":"Horhausen (Westerwald)","type":"Kreisangehörige_Gemeinde"},"district":{"key":"07132","name":"Altenkirchen (Westerwald)","type":"Landkreis"},"federalState":{"key":"07","name":"Rheinland-Pfalz"}},{"name":"Am Born","postalCode":"56593","locality":"Horhausen (Westerwald)","municipality":{"key":"07132055","name":"Horhausen (Westerwald)","type":"Kreisangehörige_Gemeinde"},"district":{"key":"07132","name":"Altenkirchen (Westerwald)","type":"Landkreis"},"federalState":{"key":"07","name":"Rheinland-Pfalz"}},{"name":"Amselweg","postalCode":"56593","locality":"Horhausen (Westerwald)","municipality":{"key":"07132055","name":"Horhausen (Westerwald)","type":"Kreisangehörige_Gemeinde"},"district":{"key":"07132","name":"Altenkirchen (Westerwald)","type":"Landkreis"},"federalState":{"key":"07","name":"Rheinland-Pfalz"}},{"name":"Am Wiesenhang","postalCode":"56593","locality":"Horhausen (Westerwald)","municipality":{"key":"07132055","name":"Horhausen (Westerwald)","type":"Kreisangehörige_Gemeinde"},"district":{"key":"07132","name":"Altenkirchen (Westerwald)","type":"Landkreis"},"federalState":{"key":"07","name":"Rheinland-Pfalz"}},{"name":"Auf dem Acker","postalCode":"56593","locality":"Horhausen (Westerwald)","municipality":{"key":"07132055","name":"Horhausen (Westerwald)","type":"Kreisangehörige_Gemeinde"},"district":{"key":"07132","name":"Altenkirchen (Westerwald)","type":"Landkreis"},"federalState":{"key":"07","name":"Rheinland-Pfalz"}},{"name":"Beethovenstr.","postalCode":"56593","locality":"Horhausen (Westerwald)","municipality":{"key":"07132055","name":"Horhausen (Westerwald)","type":"Kreisangehörige_Gemeinde"},"district":{"key":"07132","name":"Altenkirchen (Westerwald)","type":"Landkreis"},"federalState":{"key":"07","name":"Rheinland-Pfalz"}},{"name":"Bergstr.","postalCode":"56593","locality":"Horhausen (Westerwald)","municipality":{"key":"07132055","name":"Horhausen (Westerwald)","type":"Kreisangehörige_Gemeinde"},"district":{"key":"07132","name":"Altenkirchen (Westerwald)","type":"Landkreis"},"federalState":{"key":"07","name":"Rheinland-Pfalz"}},{"name":"Billensteiner Str.","postalCode":"56379","locality":"Horhausen","municipality":{"key":"07141062","name":"Horhausen","type":"Kreisangehörige_Gemeinde"},"district":{"key":"07141","name":"Rhein-Lahn-Kreis","type":"Landkreis"},"federalState":{"key":"07","name":"Rheinland-Pfalz"}},{"name":"Bischof-Rüth-Str.","postalCode":"56593","locality":"Horhausen (Westerwald)","municipality":{"key":"07132055","name":"Horhausen (Westerwald)","type":"Kreisangehörige_Gemeinde"},"district":{"key":"07132","name":"Altenkirchen (Westerwald)","type":"Landkreis"},"federalState":{"key":"07","name":"Rheinland-Pfalz"}},{"name":"Blumenstr.","postalCode":"56593","locality":"Horhausen (Westerwald)","municipality":{"key":"07132055","name":"Horhausen (Westerwald)","type":"Kreisangehörige_Gemeinde"},"district":{"key":"07132","name":"Altenkirchen (Westerwald)","type":"Landkreis"},"federalState":{"key":"07","name":"Rheinland-Pfalz"}},{"name":"Floriansweg","postalCode":"56593","locality":"Horhausen (Westerwald)","municipality":{"key":"07132055","name":"Horhausen (Westerwald)","type":"Kreisangehörige_Gemeinde"},"district":{"key":"07132","name":"Altenkirchen (Westerwald)","type":"Landkreis"},"federalState":{"key":"07","name":"Rheinland-Pfalz"}},{"name":"Forststr.","postalCode":"56593","locality":"Horhausen (Westerwald)","municipality":{"key":"07132055","name":"Horhausen (Westerwald)","type":"Kreisangehörige_Gemeinde"},"district":{"key":"07132","name":"Altenkirchen (Westerwald)","type":"Landkreis"},"federalState":{"key":"07","name":"Rheinland-Pfalz"}},{"name":"Friedhofstr.","postalCode":"56593","locality":"Horhausen (Westerwald)","municipality":{"key":"07132055","name":"Horhausen (Westerwald)","type":"Kreisangehörige_Gemeinde"},"district":{"key":"07132","name":"Altenkirchen (Westerwald)","type":"Landkreis"},"federalState":{"key":"07","name":"Rheinland-Pfalz"}},{"name":"Gartenstr.","postalCode":"56593","locality":"Horhausen (Westerwald)","municipality":{"key":"07132055","name":"Horhausen (Westerwald)","type":"Kreisangehörige_Gemeinde"},"district":{"key":"07132","name":"Altenkirchen (Westerwald)","type":"Landkreis"},"federalState":{"key":"07","name":"Rheinland-Pfalz"}},{"name":"Grenzbachstr.","postalCode":"56593","locality":"Horhausen (Westerwald)","municipality":{"key":"07132055","name":"Horhausen (Westerwald)","type":"Kreisangehörige_Gemeinde"},"district":{"key":"07132","name":"Altenkirchen (Westerwald)","type":"Landkreis"},"federalState":{"key":"07","name":"Rheinland-Pfalz"}},{"name":"Grundstr.","postalCode":"56593","locality":"Horhausen (Westerwald)","municipality":{"key":"07132055","name":"Horhausen (Westerwald)","type":"Kreisangehörige_Gemeinde"},"district":{"key":"07132","name":"Altenkirchen (Westerwald)","type":"Landkreis"},"federalState":{"key":"07","name":"Rheinland-Pfalz"}},{"name":"Hauptstr.","postalCode":"56379","locality":"Horhausen","municipality":{"key":"07141062","name":"Horhausen","type":"Kreisangehörige_Gemeinde"},"district":{"key":"07141","name":"Rhein-Lahn-Kreis","type":"Landkreis"},"federalState":{"key":"07","name":"Rheinland-Pfalz"}},{"name":"Haydnstr.","postalCode":"56593","locality":"Horhausen (Westerwald)","municipality":{"key":"07132055","name":"Horhausen (Westerwald)","type":"Kreisangehörige_Gemeinde"},"district":{"key":"07132","name":"Altenkirchen (Westerwald)","type":"Landkreis"},"federalState":{"key":"07","name":"Rheinland-Pfalz"}},{"name":"Huf","postalCode":"56593","locality":"Horhausen (Westerwald)","municipality":{"key":"07132055","name":"Horhausen (Westerwald)","type":"Kreisangehörige_Gemeinde"},"district":{"key":"07132","name":"Altenkirchen (Westerwald)","type":"Landkreis"},"federalState":{"key":"07","name":"Rheinland-Pfalz"}},{"name":"Hufer Berg","postalCode":"56593","locality":"Horhausen (Westerwald)","municipality":{"key":"07132055","name":"Horhausen (Westerwald)","type":"Kreisangehörige_Gemeinde"},"district":{"key":"07132","name":"Altenkirchen (Westerwald)","type":"Landkreis"},"federalState":{"key":"07","name":"Rheinland-Pfalz"}},{"name":"Hufer Garten","postalCode":"56593","locality":"Horhausen (Westerwald)","municipality":{"key":"07132055","name":"Horhausen (Westerwald)","type":"Kreisangehörige_Gemeinde"},"district":{"key":"07132","name":"Altenkirchen (Westerwald)","type":"Landkreis"},"federalState":{"key":"07","name":"Rheinland-Pfalz"}},{"name":"Hufer Mittelweg","postalCode":"56593","locality":"Horhausen (Westerwald)","municipality":{"key":"07132055","name":"Horhausen (Westerwald)","type":"Kreisangehörige_Gemeinde"},"district":{"key":"07132","name":"Altenkirchen (Westerwald)","type":"Landkreis"},"federalState":{"key":"07","name":"Rheinland-Pfalz"}},{"name":"Hufer Oberdorf","postalCode":"56593","locality":"Horhausen (Westerwald)","municipality":{"key":"07132055","name":"Horhausen (Westerwald)","type":"Kreisangehörige_Gemeinde"},"district":{"key":"07132","name":"Altenkirchen (Westerwald)","type":"Landkreis"},"federalState":{"key":"07","name":"Rheinland-Pfalz"}},{"name":"Hufer Unterdorf","postalCode":"56593","locality":"Horhausen (Westerwald)","municipality":{"key":"07132055","name":"Horhausen (Westerwald)","type":"Kreisangehörige_Gemeinde"},"district":{"key":"07132","name":"Altenkirchen (Westerwald)","type":"Landkreis"},"federalState":{"key":"07","name":"Rheinland-Pfalz"}},{"name":"Im Arensbitzchen","postalCode":"56593","locality":"Horhausen (Westerwald)","municipality":{"key":"07132055","name":"Horhausen (Westerwald)","type":"Kreisangehörige_Gemeinde"},"district":{"key":"07132","name":"Altenkirchen (Westerwald)","type":"Landkreis"},"federalState":{"key":"07","name":"Rheinland-Pfalz"}},{"name":"Im Heiligentriesch","postalCode":"56379","locality":"Horhausen","municipality":{"key":"07141062","name":"Horhausen","type":"Kreisangehörige_Gemeinde"},"district":{"key":"07141","name":"Rhein-Lahn-Kreis","type":"Landkreis"},"federalState":{"key":"07","name":"Rheinland-Pfalz"}},{"name":"Im Herrengarten","postalCode":"56593","locality":"Horhausen (Westerwald)","municipality":{"key":"07132055","name":"Horhausen (Westerwald)","type":"Kreisangehörige_Gemeinde"},"district":{"key":"07132","name":"Altenkirchen (Westerwald)","type":"Landkreis"},"federalState":{"key":"07","name":"Rheinland-Pfalz"}},{"name":"Im Oberdorf","postalCode":"56593","locality":"Horhausen (Westerwald)","municipality":{"key":"07132055","name":"Horhausen (Westerwald)","type":"Kreisangehörige_Gemeinde"},"district":{"key":"07132","name":"Altenkirchen (Westerwald)","type":"Landkreis"},"federalState":{"key":"07","name":"Rheinland-Pfalz"}},{"name":"In der Dell","postalCode":"56593","locality":"Horhausen (Westerwald)","municipality":{"key":"07132055","name":"Horhausen (Westerwald)","type":"Kreisangehörige_Gemeinde"},"district":{"key":"07132","name":"Altenkirchen (Westerwald)","type":"Landkreis"},"federalState":{"key":"07","name":"Rheinland-Pfalz"}},{"name":"In der Dorfwiese","postalCode":"56593","locality":"Horhausen (Westerwald)","municipality":{"key":"07132055","name":"Horhausen (Westerwald)","type":"Kreisangehörige_Gemeinde"},"district":{"key":"07132","name":"Altenkirchen (Westerwald)","type":"Landkreis"},"federalState":{"key":"07","name":"Rheinland-Pfalz"}},{"name":"In der Hohl","postalCode":"56593","locality":"Horhausen (Westerwald)","municipality":{"key":"07132055","name":"Horhausen (Westerwald)","type":"Kreisangehörige_Gemeinde"},"district":{"key":"07132","name":"Altenkirchen (Westerwald)","type":"Landkreis"},"federalState":{"key":"07","name":"Rheinland-Pfalz"}},{"name":"In der Pfuhlwiese","postalCode":"56593","locality":"Horhausen (Westerwald)","municipality":{"key":"07132055","name":"Horhausen (Westerwald)","type":"Kreisangehörige_Gemeinde"},"district":{"key":"07132","name":"Altenkirchen (Westerwald)","type":"Landkreis"},"federalState":{"key":"07","name":"Rheinland-Pfalz"}},{"name":"Industriepark","postalCode":"56593","locality":"Horhausen (Westerwald)","municipality":{"key":"07132055","name":"Horhausen (Westerwald)","type":"Kreisangehörige_Gemeinde"},"district":{"key":"07132","name":"Altenkirchen (Westerwald)","type":"Landkreis"},"federalState":{"key":"07","name":"Rheinland-Pfalz"}},{"name":"Jahnstr.","postalCode":"56593","locality":"Horhausen (Westerwald)","municipality":{"key":"07132055","name":"Horhausen (Westerwald)","type":"Kreisangehörige_Gemeinde"},"district":{"key":"07132","name":"Altenkirchen (Westerwald)","type":"Landkreis"},"federalState":{"key":"07","name":"Rheinland-Pfalz"}},{"name":"Kaplan-Dasbach-Str.","postalCode":"56593","locality":"Horhausen (Westerwald)","municipality":{"key":"07132055","name":"Horhausen (Westerwald)","type":"Kreisangehörige_Gemeinde"},"district":{"key":"07132","name":"Altenkirchen (Westerwald)","type":"Landkreis"},"federalState":{"key":"07","name":"Rheinland-Pfalz"}},{"name":"Kardinal-Höffner-Platz","postalCode":"56593","locality":"Horhausen (Westerwald)","municipality":{"key":"07132055","name":"Horhausen (Westerwald)","type":"Kreisangehörige_Gemeinde"},"district":{"key":"07132","name":"Altenkirchen (Westerwald)","type":"Landkreis"},"federalState":{"key":"07","name":"Rheinland-Pfalz"}},{"name":"Kardinal-Höffner-Str.","postalCode":"56593","locality":"Horhausen (Westerwald)","municipality":{"key":"07132055","name":"Horhausen (Westerwald)","type":"Kreisangehörige_Gemeinde"},"district":{"key":"07132","name":"Altenkirchen (Westerwald)","type":"Landkreis"},"federalState":{"key":"07","name":"Rheinland-Pfalz"}},{"name":"Kirchpark","postalCode":"56593","locality":"Horhausen (Westerwald)","municipality":{"key":"07132055","name":"Horhausen (Westerwald)","type":"Kreisangehörige_Gemeinde"},"district":{"key":"07132","name":"Altenkirchen (Westerwald)","type":"Landkreis"},"federalState":{"key":"07","name":"Rheinland-Pfalz"}},{"name":"Kirchstr.","postalCode":"56593","locality":"Horhausen (Westerwald)","municipality":{"key":"07132055","name":"Horhausen (Westerwald)","type":"Kreisangehörige_Gemeinde"},"district":{"key":"07132","name":"Altenkirchen (Westerwald)","type":"Landkreis"},"federalState":{"key":"07","name":"Rheinland-Pfalz"}},{"name":"Kirchweg","postalCode":"56379","locality":"Horhausen","municipality":{"key":"07141062","name":"Horhausen","type":"Kreisangehörige_Gemeinde"},"district":{"key":"07141","name":"Rhein-Lahn-Kreis","type":"Landkreis"},"federalState":{"key":"07","name":"Rheinland-Pfalz"}},{"name":"Luchert","postalCode":"56593","locality":"Horhausen (Westerwald)","municipality":{"key":"07132055","name":"Horhausen (Westerwald)","type":"Kreisangehörige_Gemeinde"},"district":{"key":"07132","name":"Altenkirchen (Westerwald)","type":"Landkreis"},"federalState":{"key":"07","name":"Rheinland-Pfalz"}},{"name":"Meisenweg","postalCode":"56593","locality":"Horhausen (Westerwald)","municipality":{"key":"07132055","name":"Horhausen (Westerwald)","type":"Kreisangehörige_Gemeinde"},"district":{"key":"07132","name":"Altenkirchen (Westerwald)","type":"Landkreis"},"federalState":{"key":"07","name":"Rheinland-Pfalz"}},{"name":"Mittelweg","postalCode":"56379","locality":"Horhausen","municipality":{"key":"07141062","name":"Horhausen","type":"Kreisangehörige_Gemeinde"},"district":{"key":"07141","name":"Rhein-Lahn-Kreis","type":"Landkreis"},"federalState":{"key":"07","name":"Rheinland-Pfalz"}},{"name":"Mozartstr.","postalCode":"56593","locality":"Horhausen (Westerwald)","municipality":{"key":"07132055","name":"Horhausen (Westerwald)","type":"Kreisangehörige_Gemeinde"},"district":{"key":"07132","name":"Altenkirchen (Westerwald)","type":"Landkreis"},"federalState":{"key":"07","name":"Rheinland-Pfalz"}},{"name":"Mühlenweg","postalCode":"56593","locality":"Horhausen (Westerwald)","municipality":{"key":"07132055","name":"Horhausen (Westerwald)","type":"Kreisangehörige_Gemeinde"},"district":{"key":"07132","name":"Altenkirchen (Westerwald)","type":"Landkreis"},"federalState":{"key":"07","name":"Rheinland-Pfalz"}},{"name":"Neue Schulstr.","postalCode":"56593","locality":"Horhausen (Westerwald)","municipality":{"key":"07132055","name":"Horhausen (Westerwald)","type":"Kreisangehörige_Gemeinde"},"district":{"key":"07132","name":"Altenkirchen (Westerwald)","type":"Landkreis"},"federalState":{"key":"07","name":"Rheinland-Pfalz"}},{"name":"Ortsstr.","postalCode":"56379","locality":"Horhausen","municipality":{"key":"07141062","name":"Horhausen","type":"Kreisangehörige_Gemeinde"},"district":{"key":"07141","name":"Rhein-Lahn-Kreis","type":"Landkreis"},"federalState":{"key":"07","name":"Rheinland-Pfalz"}},{"name":"Raiffeisenstr.","postalCode":"56593","locality":"Horhausen (Westerwald)","municipality":{"key":"07132055","name":"Horhausen (Westerwald)","type":"Kreisangehörige_Gemeinde"},"district":{"key":"07132","name":"Altenkirchen (Westerwald)","type":"Landkreis"},"federalState":{"key":"07","name":"Rheinland-Pfalz"}},{"name":"Rheinstr.","postalCode":"56593","locality":"Horhausen (Westerwald)","municipality":{"key":"07132055","name":"Horhausen (Westerwald)","type":"Kreisangehörige_Gemeinde"},"district":{"key":"07132","name":"Altenkirchen (Westerwald)","type":"Landkreis"},"federalState":{"key":"07","name":"Rheinland-Pfalz"}},{"name":"Salzweg","postalCode":"56379","locality":"Horhausen","municipality":{"key":"07141062","name":"Horhausen","type":"Kreisangehörige_Gemeinde"},"district":{"key":"07141","name":"Rhein-Lahn-Kreis","type":"Landkreis"},"federalState":{"key":"07","name":"Rheinland-Pfalz"}},{"name":"Schubertstr.","postalCode":"56593","locality":"Horhausen (Westerwald)","municipality":{"key":"07132055","name":"Horhausen (Westerwald)","type":"Kreisangehörige_Gemeinde"},"district":{"key":"07132","name":"Altenkirchen (Westerwald)","type":"Landkreis"},"federalState":{"key":"07","name":"Rheinland-Pfalz"}},{"name":"Schulstr.","postalCode":"56379","locality":"Horhausen","municipality":{"key":"07141062","name":"Horhausen","type":"Kreisangehörige_Gemeinde"},"district":{"key":"07141","name":"Rhein-Lahn-Kreis","type":"Landkreis"},"federalState":{"key":"07","name":"Rheinland-Pfalz"}},{"name":"Talstr.","postalCode":"56593","locality":"Horhausen (Westerwald)","municipality":{"key":"07132055","name":"Horhausen (Westerwald)","type":"Kreisangehörige_Gemeinde"},"district":{"key":"07132","name":"Altenkirchen (Westerwald)","type":"Landkreis"},"federalState":{"key":"07","name":"Rheinland-Pfalz"}},{"name":"Tannenstr.","postalCode":"56593","locality":"Horhausen (Westerwald)","municipality":{"key":"07132055","name":"Horhausen (Westerwald)","type":"Kreisangehörige_Gemeinde"},"district":{"key":"07132","name":"Altenkirchen (Westerwald)","type":"Landkreis"},"federalState":{"key":"07","name":"Rheinland-Pfalz"}},{"name":"Tempelsberg","postalCode":"56593","locality":"Horhausen (Westerwald)","municipality":{"key":"07132055","name":"Horhausen (Westerwald)","type":"Kreisangehörige_Gemeinde"},"district":{"key":"07132","name":"Altenkirchen (Westerwald)","type":"Landkreis"},"federalState":{"key":"07","name":"Rheinland-Pfalz"}},{"name":"Waldweg","postalCode":"56593","locality":"Horhausen (Westerwald)","municipality":{"key":"07132055","name":"Horhausen (Westerwald)","type":"Kreisangehörige_Gemeinde"},"district":{"key":"07132","name":"Altenkirchen (Westerwald)","type":"Landkreis"},"federalState":{"key":"07","name":"Rheinland-Pfalz"}},{"name":"Weiherstr.","postalCode":"56593","locality":"Horhausen (Westerwald)","municipality":{"key":"07132055","name":"Horhausen (Westerwald)","type":"Kreisangehörige_Gemeinde"},"district":{"key":"07132","name":"Altenkirchen (Westerwald)","type":"Landkreis"},"federalState":{"key":"07","name":"Rheinland-Pfalz"}},{"name":"Wiesenweg","postalCode":"56593","locality":"Horhausen (Westerwald)","municipality":{"key":"07132055","name":"Horhausen (Westerwald)","type":"Kreisangehörige_Gemeinde"},"district":{"key":"07132","name":"Altenkirchen (Westerwald)","type":"Landkreis"},"federalState":{"key":"07","name":"Rheinland-Pfalz"}},{"name":"Wilhelmstr.","postalCode":"56379","locality":"Horhausen","municipality":{"key":"07141062","name":"Horhausen","type":"Kreisangehörige_Gemeinde"},"district":{"key":"07141","name":"Rhein-Lahn-Kreis","type":"Landkreis"},"federalState":{"key":"07","name":"Rheinland-Pfalz"}},{"name":"Zum Giersseifen","postalCode":"56593","locality":"Horhausen (Westerwald)","municipality":{"key":"07132055","name":"Horhausen (Westerwald)","type":"Kreisangehörige_Gemeinde"},"district":{"key":"07132","name":"Altenkirchen (Westerwald)","type":"Landkreis"},"federalState":{"key":"07","name":"Rheinland-Pfalz"}},{"name":"Zwischen den Str.n","postalCode":"56379","locality":"Horhausen","municipality":{"key":"07141062","name":"Horhausen","type":"Kreisangehörige_Gemeinde"},"district":{"key":"07141","name":"Rhein-Lahn-Kreis","type":"Landkreis"},"federalState":{"key":"07","name":"Rheinland-Pfalz"}},]