[{"name":"Am Güllhof","postalCode":"56424","locality":"Ebernhahn","municipality":{"key":"07143012","name":"Ebernhahn","type":"Kreisangehörige_Gemeinde"},"district":{"key":"07143","name":"Westerwaldkreis","type":"Landkreis"},"federalState":{"key":"07","name":"Rheinland-Pfalz"}},{"name":"Am Tor","postalCode":"56424","locality":"Ebernhahn","municipality":{"key":"07143012","name":"Ebernhahn","type":"Kreisangehörige_Gemeinde"},"district":{"key":"07143","name":"Westerwaldkreis","type":"Landkreis"},"federalState":{"key":"07","name":"Rheinland-Pfalz"}},{"name":"Anna-Paul-Str.","postalCode":"56424","locality":"Ebernhahn","municipality":{"key":"07143012","name":"Ebernhahn","type":"Kreisangehörige_Gemeinde"},"district":{"key":"07143","name":"Westerwaldkreis","type":"Landkreis"},"federalState":{"key":"07","name":"Rheinland-Pfalz"}},{"name":"Bergstr.","postalCode":"56424","locality":"Ebernhahn","municipality":{"key":"07143012","name":"Ebernhahn","type":"Kreisangehörige_Gemeinde"},"district":{"key":"07143","name":"Westerwaldkreis","type":"Landkreis"},"federalState":{"key":"07","name":"Rheinland-Pfalz"}},{"name":"Dernbacher Str.","postalCode":"56424","locality":"Ebernhahn","municipality":{"key":"07143012","name":"Ebernhahn","type":"Kreisangehörige_Gemeinde"},"district":{"key":"07143","name":"Westerwaldkreis","type":"Landkreis"},"federalState":{"key":"07","name":"Rheinland-Pfalz"}},{"name":"Goethestr.","postalCode":"56424","locality":"Ebernhahn","municipality":{"key":"07143012","name":"Ebernhahn","type":"Kreisangehörige_Gemeinde"},"district":{"key":"07143","name":"Westerwaldkreis","type":"Landkreis"},"federalState":{"key":"07","name":"Rheinland-Pfalz"}},{"name":"In der Grimmel","postalCode":"56424","locality":"Ebernhahn","municipality":{"key":"07143012","name":"Ebernhahn","type":"Kreisangehörige_Gemeinde"},"district":{"key":"07143","name":"Westerwaldkreis","type":"Landkreis"},"federalState":{"key":"07","name":"Rheinland-Pfalz"}},{"name":"In der Hähne","postalCode":"56424","locality":"Ebernhahn","municipality":{"key":"07143012","name":"Ebernhahn","type":"Kreisangehörige_Gemeinde"},"district":{"key":"07143","name":"Westerwaldkreis","type":"Landkreis"},"federalState":{"key":"07","name":"Rheinland-Pfalz"}},{"name":"In der Holl","postalCode":"56424","locality":"Ebernhahn","municipality":{"key":"07143012","name":"Ebernhahn","type":"Kreisangehörige_Gemeinde"},"district":{"key":"07143","name":"Westerwaldkreis","type":"Landkreis"},"federalState":{"key":"07","name":"Rheinland-Pfalz"}},{"name":"Kannenbäckerstr.","postalCode":"56424","locality":"Ebernhahn","municipality":{"key":"07143012","name":"Ebernhahn","type":"Kreisangehörige_Gemeinde"},"district":{"key":"07143","name":"Westerwaldkreis","type":"Landkreis"},"federalState":{"key":"07","name":"Rheinland-Pfalz"}},{"name":"Kapellenstr.","postalCode":"56424","locality":"Ebernhahn","municipality":{"key":"07143012","name":"Ebernhahn","type":"Kreisangehörige_Gemeinde"},"district":{"key":"07143","name":"Westerwaldkreis","type":"Landkreis"},"federalState":{"key":"07","name":"Rheinland-Pfalz"}},{"name":"Kirchstr.","postalCode":"56424","locality":"Ebernhahn","municipality":{"key":"07143012","name":"Ebernhahn","type":"Kreisangehörige_Gemeinde"},"district":{"key":"07143","name":"Westerwaldkreis","type":"Landkreis"},"federalState":{"key":"07","name":"Rheinland-Pfalz"}},{"name":"Kleinfeldchenstr.","postalCode":"56424","locality":"Ebernhahn","municipality":{"key":"07143012","name":"Ebernhahn","type":"Kreisangehörige_Gemeinde"},"district":{"key":"07143","name":"Westerwaldkreis","type":"Landkreis"},"federalState":{"key":"07","name":"Rheinland-Pfalz"}},{"name":"Mittelstr.","postalCode":"56424","locality":"Ebernhahn","municipality":{"key":"07143012","name":"Ebernhahn","type":"Kreisangehörige_Gemeinde"},"district":{"key":"07143","name":"Westerwaldkreis","type":"Landkreis"},"federalState":{"key":"07","name":"Rheinland-Pfalz"}},{"name":"Oststr.","postalCode":"56424","locality":"Ebernhahn","municipality":{"key":"07143012","name":"Ebernhahn","type":"Kreisangehörige_Gemeinde"},"district":{"key":"07143","name":"Westerwaldkreis","type":"Landkreis"},"federalState":{"key":"07","name":"Rheinland-Pfalz"}},{"name":"Pfarrer-Klein-Str.","postalCode":"56424","locality":"Ebernhahn","municipality":{"key":"07143012","name":"Ebernhahn","type":"Kreisangehörige_Gemeinde"},"district":{"key":"07143","name":"Westerwaldkreis","type":"Landkreis"},"federalState":{"key":"07","name":"Rheinland-Pfalz"}},{"name":"Rosenheck","postalCode":"56424","locality":"Ebernhahn","municipality":{"key":"07143012","name":"Ebernhahn","type":"Kreisangehörige_Gemeinde"},"district":{"key":"07143","name":"Westerwaldkreis","type":"Landkreis"},"federalState":{"key":"07","name":"Rheinland-Pfalz"}},{"name":"Schillerstr.","postalCode":"56424","locality":"Ebernhahn","municipality":{"key":"07143012","name":"Ebernhahn","type":"Kreisangehörige_Gemeinde"},"district":{"key":"07143","name":"Westerwaldkreis","type":"Landkreis"},"federalState":{"key":"07","name":"Rheinland-Pfalz"}},{"name":"Schubertstr.","postalCode":"56424","locality":"Ebernhahn","municipality":{"key":"07143012","name":"Ebernhahn","type":"Kreisangehörige_Gemeinde"},"district":{"key":"07143","name":"Westerwaldkreis","type":"Landkreis"},"federalState":{"key":"07","name":"Rheinland-Pfalz"}},{"name":"Schulstr.","postalCode":"56424","locality":"Ebernhahn","municipality":{"key":"07143012","name":"Ebernhahn","type":"Kreisangehörige_Gemeinde"},"district":{"key":"07143","name":"Westerwaldkreis","type":"Landkreis"},"federalState":{"key":"07","name":"Rheinland-Pfalz"}},{"name":"Wagnerstr.","postalCode":"56424","locality":"Ebernhahn","municipality":{"key":"07143012","name":"Ebernhahn","type":"Kreisangehörige_Gemeinde"},"district":{"key":"07143","name":"Westerwaldkreis","type":"Landkreis"},"federalState":{"key":"07","name":"Rheinland-Pfalz"}},{"name":"Waldstr.","postalCode":"56424","locality":"Ebernhahn","municipality":{"key":"07143012","name":"Ebernhahn","type":"Kreisangehörige_Gemeinde"},"district":{"key":"07143","name":"Westerwaldkreis","type":"Landkreis"},"federalState":{"key":"07","name":"Rheinland-Pfalz"}},{"name":"Westerwaldweg","postalCode":"56424","locality":"Ebernhahn","municipality":{"key":"07143012","name":"Ebernhahn","type":"Kreisangehörige_Gemeinde"},"district":{"key":"07143","name":"Westerwaldkreis","type":"Landkreis"},"federalState":{"key":"07","name":"Rheinland-Pfalz"}},{"name":"Zum Brückengarten","postalCode":"56424","locality":"Ebernhahn","municipality":{"key":"07143012","name":"Ebernhahn","type":"Kreisangehörige_Gemeinde"},"district":{"key":"07143","name":"Westerwaldkreis","type":"Landkreis"},"federalState":{"key":"07","name":"Rheinland-Pfalz"}},{"name":"Zum Massenberg","postalCode":"56424","locality":"Ebernhahn","municipality":{"key":"07143012","name":"Ebernhahn","type":"Kreisangehörige_Gemeinde"},"district":{"key":"07143","name":"Westerwaldkreis","type":"Landkreis"},"federalState":{"key":"07","name":"Rheinland-Pfalz"}},{"name":"Zur Alten Wiese","postalCode":"56424","locality":"Ebernhahn","municipality":{"key":"07143012","name":"Ebernhahn","type":"Kreisangehörige_Gemeinde"},"district":{"key":"07143","name":"Westerwaldkreis","type":"Landkreis"},"federalState":{"key":"07","name":"Rheinland-Pfalz"}},]