[{"name":"Aan Schniewind","postalCode":"52538","locality":"Selfkant","municipality":{"key":"05370024","name":"Selfkant","type":"Kreisangehörige_Gemeinde"},"district":{"key":"05370","name":"Heinsberg","type":"Kreis"},"federalState":{"key":"05","name":"Nordrhein-Westfalen"}},{"name":"Agnesstr.","postalCode":"52538","locality":"Selfkant","municipality":{"key":"05370024","name":"Selfkant","type":"Kreisangehörige_Gemeinde"},"district":{"key":"05370","name":"Heinsberg","type":"Kreis"},"federalState":{"key":"05","name":"Nordrhein-Westfalen"}},{"name":"Ahornstr.","postalCode":"52538","locality":"Selfkant","municipality":{"key":"05370024","name":"Selfkant","type":"Kreisangehörige_Gemeinde"},"district":{"key":"05370","name":"Heinsberg","type":"Kreis"},"federalState":{"key":"05","name":"Nordrhein-Westfalen"}},{"name":"Am Alten Bach","postalCode":"52538","locality":"Selfkant","municipality":{"key":"05370024","name":"Selfkant","type":"Kreisangehörige_Gemeinde"},"district":{"key":"05370","name":"Heinsberg","type":"Kreis"},"federalState":{"key":"05","name":"Nordrhein-Westfalen"}},{"name":"Am Bilderweg","postalCode":"52538","locality":"Selfkant","municipality":{"key":"05370024","name":"Selfkant","type":"Kreisangehörige_Gemeinde"},"district":{"key":"05370","name":"Heinsberg","type":"Kreis"},"federalState":{"key":"05","name":"Nordrhein-Westfalen"}},{"name":"Am Büschken","postalCode":"52538","locality":"Selfkant","municipality":{"key":"05370024","name":"Selfkant","type":"Kreisangehörige_Gemeinde"},"district":{"key":"05370","name":"Heinsberg","type":"Kreis"},"federalState":{"key":"05","name":"Nordrhein-Westfalen"}},{"name":"Am Dorfanger","postalCode":"52538","locality":"Selfkant","municipality":{"key":"05370024","name":"Selfkant","type":"Kreisangehörige_Gemeinde"},"district":{"key":"05370","name":"Heinsberg","type":"Kreis"},"federalState":{"key":"05","name":"Nordrhein-Westfalen"}},{"name":"Am Gatter","postalCode":"52538","locality":"Selfkant","municipality":{"key":"05370024","name":"Selfkant","type":"Kreisangehörige_Gemeinde"},"district":{"key":"05370","name":"Heinsberg","type":"Kreis"},"federalState":{"key":"05","name":"Nordrhein-Westfalen"}},{"name":"Am Hundsrath","postalCode":"52538","locality":"Selfkant","municipality":{"key":"05370024","name":"Selfkant","type":"Kreisangehörige_Gemeinde"},"district":{"key":"05370","name":"Heinsberg","type":"Kreis"},"federalState":{"key":"05","name":"Nordrhein-Westfalen"}},{"name":"Am Kirchenfeld","postalCode":"52538","locality":"Selfkant","municipality":{"key":"05370024","name":"Selfkant","type":"Kreisangehörige_Gemeinde"},"district":{"key":"05370","name":"Heinsberg","type":"Kreis"},"federalState":{"key":"05","name":"Nordrhein-Westfalen"}},{"name":"Am Obersthof","postalCode":"52538","locality":"Selfkant","municipality":{"key":"05370024","name":"Selfkant","type":"Kreisangehörige_Gemeinde"},"district":{"key":"05370","name":"Heinsberg","type":"Kreis"},"federalState":{"key":"05","name":"Nordrhein-Westfalen"}},{"name":"Am Rathaus","postalCode":"52538","locality":"Selfkant","municipality":{"key":"05370024","name":"Selfkant","type":"Kreisangehörige_Gemeinde"},"district":{"key":"05370","name":"Heinsberg","type":"Kreis"},"federalState":{"key":"05","name":"Nordrhein-Westfalen"}},{"name":"Am Saeffelbach","postalCode":"52538","locality":"Selfkant","municipality":{"key":"05370024","name":"Selfkant","type":"Kreisangehörige_Gemeinde"},"district":{"key":"05370","name":"Heinsberg","type":"Kreis"},"federalState":{"key":"05","name":"Nordrhein-Westfalen"}},{"name":"Am Sportplatz","postalCode":"52538","locality":"Selfkant","municipality":{"key":"05370024","name":"Selfkant","type":"Kreisangehörige_Gemeinde"},"district":{"key":"05370","name":"Heinsberg","type":"Kreis"},"federalState":{"key":"05","name":"Nordrhein-Westfalen"}},{"name":"Am Steincleef","postalCode":"52538","locality":"Selfkant","municipality":{"key":"05370024","name":"Selfkant","type":"Kreisangehörige_Gemeinde"},"district":{"key":"05370","name":"Heinsberg","type":"Kreis"},"federalState":{"key":"05","name":"Nordrhein-Westfalen"}},{"name":"Am Südhang","postalCode":"52538","locality":"Selfkant","municipality":{"key":"05370024","name":"Selfkant","type":"Kreisangehörige_Gemeinde"},"district":{"key":"05370","name":"Heinsberg","type":"Kreis"},"federalState":{"key":"05","name":"Nordrhein-Westfalen"}},{"name":"An der Mühle","postalCode":"52538","locality":"Selfkant","municipality":{"key":"05370024","name":"Selfkant","type":"Kreisangehörige_Gemeinde"},"district":{"key":"05370","name":"Heinsberg","type":"Kreis"},"federalState":{"key":"05","name":"Nordrhein-Westfalen"}},{"name":"An der Raderstrass","postalCode":"52538","locality":"Selfkant","municipality":{"key":"05370024","name":"Selfkant","type":"Kreisangehörige_Gemeinde"},"district":{"key":"05370","name":"Heinsberg","type":"Kreis"},"federalState":{"key":"05","name":"Nordrhein-Westfalen"}},{"name":"An der Tränke","postalCode":"52538","locality":"Selfkant","municipality":{"key":"05370024","name":"Selfkant","type":"Kreisangehörige_Gemeinde"},"district":{"key":"05370","name":"Heinsberg","type":"Kreis"},"federalState":{"key":"05","name":"Nordrhein-Westfalen"}},{"name":"An der Waldschänke","postalCode":"52538","locality":"Selfkant","municipality":{"key":"05370024","name":"Selfkant","type":"Kreisangehörige_Gemeinde"},"district":{"key":"05370","name":"Heinsberg","type":"Kreis"},"federalState":{"key":"05","name":"Nordrhein-Westfalen"}},{"name":"An Dilia","postalCode":"52538","locality":"Selfkant","municipality":{"key":"05370024","name":"Selfkant","type":"Kreisangehörige_Gemeinde"},"district":{"key":"05370","name":"Heinsberg","type":"Kreis"},"federalState":{"key":"05","name":"Nordrhein-Westfalen"}},{"name":"Andreasstr.","postalCode":"52538","locality":"Selfkant","municipality":{"key":"05370024","name":"Selfkant","type":"Kreisangehörige_Gemeinde"},"district":{"key":"05370","name":"Heinsberg","type":"Kreis"},"federalState":{"key":"05","name":"Nordrhein-Westfalen"}},{"name":"Annastr.","postalCode":"52538","locality":"Selfkant","municipality":{"key":"05370024","name":"Selfkant","type":"Kreisangehörige_Gemeinde"},"district":{"key":"05370","name":"Heinsberg","type":"Kreis"},"federalState":{"key":"05","name":"Nordrhein-Westfalen"}},{"name":"Auf dem Stein","postalCode":"52538","locality":"Selfkant","municipality":{"key":"05370024","name":"Selfkant","type":"Kreisangehörige_Gemeinde"},"district":{"key":"05370","name":"Heinsberg","type":"Kreis"},"federalState":{"key":"05","name":"Nordrhein-Westfalen"}},{"name":"Auf den Hoecken","postalCode":"52538","locality":"Selfkant","municipality":{"key":"05370024","name":"Selfkant","type":"Kreisangehörige_Gemeinde"},"district":{"key":"05370","name":"Heinsberg","type":"Kreis"},"federalState":{"key":"05","name":"Nordrhein-Westfalen"}},{"name":"Auf die Höff","postalCode":"52538","locality":"Selfkant","municipality":{"key":"05370024","name":"Selfkant","type":"Kreisangehörige_Gemeinde"},"district":{"key":"05370","name":"Heinsberg","type":"Kreis"},"federalState":{"key":"05","name":"Nordrhein-Westfalen"}},{"name":"Bach-Str.","postalCode":"52538","locality":"Selfkant","municipality":{"key":"05370024","name":"Selfkant","type":"Kreisangehörige_Gemeinde"},"district":{"key":"05370","name":"Heinsberg","type":"Kreis"},"federalState":{"key":"05","name":"Nordrhein-Westfalen"}},{"name":"Bahnstr.","postalCode":"52538","locality":"Selfkant","municipality":{"key":"05370024","name":"Selfkant","type":"Kreisangehörige_Gemeinde"},"district":{"key":"05370","name":"Heinsberg","type":"Kreis"},"federalState":{"key":"05","name":"Nordrhein-Westfalen"}},{"name":"Barbaraweg","postalCode":"52538","locality":"Selfkant","municipality":{"key":"05370024","name":"Selfkant","type":"Kreisangehörige_Gemeinde"},"district":{"key":"05370","name":"Heinsberg","type":"Kreis"},"federalState":{"key":"05","name":"Nordrhein-Westfalen"}},{"name":"Bergstr.","postalCode":"52538","locality":"Selfkant","municipality":{"key":"05370024","name":"Selfkant","type":"Kreisangehörige_Gemeinde"},"district":{"key":"05370","name":"Heinsberg","type":"Kreis"},"federalState":{"key":"05","name":"Nordrhein-Westfalen"}},{"name":"Berliner Str.","postalCode":"52538","locality":"Selfkant","municipality":{"key":"05370024","name":"Selfkant","type":"Kreisangehörige_Gemeinde"},"district":{"key":"05370","name":"Heinsberg","type":"Kreis"},"federalState":{"key":"05","name":"Nordrhein-Westfalen"}},{"name":"Biesener Weg","postalCode":"52538","locality":"Selfkant","municipality":{"key":"05370024","name":"Selfkant","type":"Kreisangehörige_Gemeinde"},"district":{"key":"05370","name":"Heinsberg","type":"Kreis"},"federalState":{"key":"05","name":"Nordrhein-Westfalen"}},{"name":"Bingelrader Str.","postalCode":"52538","locality":"Selfkant","municipality":{"key":"05370024","name":"Selfkant","type":"Kreisangehörige_Gemeinde"},"district":{"key":"05370","name":"Heinsberg","type":"Kreis"},"federalState":{"key":"05","name":"Nordrhein-Westfalen"}},{"name":"Birder Str.","postalCode":"52538","locality":"Selfkant","municipality":{"key":"05370024","name":"Selfkant","type":"Kreisangehörige_Gemeinde"},"district":{"key":"05370","name":"Heinsberg","type":"Kreis"},"federalState":{"key":"05","name":"Nordrhein-Westfalen"}},{"name":"Birkenderkamp","postalCode":"52538","locality":"Selfkant","municipality":{"key":"05370024","name":"Selfkant","type":"Kreisangehörige_Gemeinde"},"district":{"key":"05370","name":"Heinsberg","type":"Kreis"},"federalState":{"key":"05","name":"Nordrhein-Westfalen"}},{"name":"Bocksberg","postalCode":"52538","locality":"Selfkant","municipality":{"key":"05370024","name":"Selfkant","type":"Kreisangehörige_Gemeinde"},"district":{"key":"05370","name":"Heinsberg","type":"Kreis"},"federalState":{"key":"05","name":"Nordrhein-Westfalen"}},{"name":"Breberener Str.","postalCode":"52538","locality":"Selfkant","municipality":{"key":"05370024","name":"Selfkant","type":"Kreisangehörige_Gemeinde"},"district":{"key":"05370","name":"Heinsberg","type":"Kreis"},"federalState":{"key":"05","name":"Nordrhein-Westfalen"}},{"name":"Breslauer Str.","postalCode":"52538","locality":"Selfkant","municipality":{"key":"05370024","name":"Selfkant","type":"Kreisangehörige_Gemeinde"},"district":{"key":"05370","name":"Heinsberg","type":"Kreis"},"federalState":{"key":"05","name":"Nordrhein-Westfalen"}},{"name":"Bruchstr.","postalCode":"52538","locality":"Selfkant","municipality":{"key":"05370024","name":"Selfkant","type":"Kreisangehörige_Gemeinde"},"district":{"key":"05370","name":"Heinsberg","type":"Kreis"},"federalState":{"key":"05","name":"Nordrhein-Westfalen"}},{"name":"Buchenweg","postalCode":"52538","locality":"Selfkant","municipality":{"key":"05370024","name":"Selfkant","type":"Kreisangehörige_Gemeinde"},"district":{"key":"05370","name":"Heinsberg","type":"Kreis"},"federalState":{"key":"05","name":"Nordrhein-Westfalen"}},{"name":"Buschweg","postalCode":"52538","locality":"Selfkant","municipality":{"key":"05370024","name":"Selfkant","type":"Kreisangehörige_Gemeinde"},"district":{"key":"05370","name":"Heinsberg","type":"Kreis"},"federalState":{"key":"05","name":"Nordrhein-Westfalen"}},{"name":"Cäcilienring","postalCode":"52538","locality":"Selfkant","municipality":{"key":"05370024","name":"Selfkant","type":"Kreisangehörige_Gemeinde"},"district":{"key":"05370","name":"Heinsberg","type":"Kreis"},"federalState":{"key":"05","name":"Nordrhein-Westfalen"}},{"name":"Danziger Str.","postalCode":"52538","locality":"Selfkant","municipality":{"key":"05370024","name":"Selfkant","type":"Kreisangehörige_Gemeinde"},"district":{"key":"05370","name":"Heinsberg","type":"Kreis"},"federalState":{"key":"05","name":"Nordrhein-Westfalen"}},{"name":"Dechant-Kamper-Str.","postalCode":"52538","locality":"Selfkant","municipality":{"key":"05370024","name":"Selfkant","type":"Kreisangehörige_Gemeinde"},"district":{"key":"05370","name":"Heinsberg","type":"Kreis"},"federalState":{"key":"05","name":"Nordrhein-Westfalen"}},{"name":"De-Plevitz-Str.","postalCode":"52538","locality":"Selfkant","municipality":{"key":"05370024","name":"Selfkant","type":"Kreisangehörige_Gemeinde"},"district":{"key":"05370","name":"Heinsberg","type":"Kreis"},"federalState":{"key":"05","name":"Nordrhein-Westfalen"}},{"name":"Diecker Weg","postalCode":"52538","locality":"Selfkant","municipality":{"key":"05370024","name":"Selfkant","type":"Kreisangehörige_Gemeinde"},"district":{"key":"05370","name":"Heinsberg","type":"Kreis"},"federalState":{"key":"05","name":"Nordrhein-Westfalen"}},{"name":"Dorfplatz","postalCode":"52538","locality":"Selfkant","municipality":{"key":"05370024","name":"Selfkant","type":"Kreisangehörige_Gemeinde"},"district":{"key":"05370","name":"Heinsberg","type":"Kreis"},"federalState":{"key":"05","name":"Nordrhein-Westfalen"}},{"name":"Dorfstr.","postalCode":"52538","locality":"Selfkant","municipality":{"key":"05370024","name":"Selfkant","type":"Kreisangehörige_Gemeinde"},"district":{"key":"05370","name":"Heinsberg","type":"Kreis"},"federalState":{"key":"05","name":"Nordrhein-Westfalen"}},{"name":"Driesch","postalCode":"52538","locality":"Selfkant","municipality":{"key":"05370024","name":"Selfkant","type":"Kreisangehörige_Gemeinde"},"district":{"key":"05370","name":"Heinsberg","type":"Kreis"},"federalState":{"key":"05","name":"Nordrhein-Westfalen"}},{"name":"Eburonenstr.","postalCode":"52538","locality":"Selfkant","municipality":{"key":"05370024","name":"Selfkant","type":"Kreisangehörige_Gemeinde"},"district":{"key":"05370","name":"Heinsberg","type":"Kreis"},"federalState":{"key":"05","name":"Nordrhein-Westfalen"}},{"name":"Eichenweg","postalCode":"52538","locality":"Selfkant","municipality":{"key":"05370024","name":"Selfkant","type":"Kreisangehörige_Gemeinde"},"district":{"key":"05370","name":"Heinsberg","type":"Kreis"},"federalState":{"key":"05","name":"Nordrhein-Westfalen"}},{"name":"Elisabethstr.","postalCode":"52538","locality":"Selfkant","municipality":{"key":"05370024","name":"Selfkant","type":"Kreisangehörige_Gemeinde"},"district":{"key":"05370","name":"Heinsberg","type":"Kreis"},"federalState":{"key":"05","name":"Nordrhein-Westfalen"}},{"name":"Engelbertstr.","postalCode":"52538","locality":"Selfkant","municipality":{"key":"05370024","name":"Selfkant","type":"Kreisangehörige_Gemeinde"},"district":{"key":"05370","name":"Heinsberg","type":"Kreis"},"federalState":{"key":"05","name":"Nordrhein-Westfalen"}},{"name":"Feldchen","postalCode":"52538","locality":"Selfkant","municipality":{"key":"05370024","name":"Selfkant","type":"Kreisangehörige_Gemeinde"},"district":{"key":"05370","name":"Heinsberg","type":"Kreis"},"federalState":{"key":"05","name":"Nordrhein-Westfalen"}},{"name":"Fichtenhain","postalCode":"52538","locality":"Selfkant","municipality":{"key":"05370024","name":"Selfkant","type":"Kreisangehörige_Gemeinde"},"district":{"key":"05370","name":"Heinsberg","type":"Kreis"},"federalState":{"key":"05","name":"Nordrhein-Westfalen"}},{"name":"Filterskoul","postalCode":"52538","locality":"Selfkant","municipality":{"key":"05370024","name":"Selfkant","type":"Kreisangehörige_Gemeinde"},"district":{"key":"05370","name":"Heinsberg","type":"Kreis"},"federalState":{"key":"05","name":"Nordrhein-Westfalen"}},{"name":"Frankenstr.","postalCode":"52538","locality":"Selfkant","municipality":{"key":"05370024","name":"Selfkant","type":"Kreisangehörige_Gemeinde"},"district":{"key":"05370","name":"Heinsberg","type":"Kreis"},"federalState":{"key":"05","name":"Nordrhein-Westfalen"}},{"name":"Friedhofstr.","postalCode":"52538","locality":"Selfkant","municipality":{"key":"05370024","name":"Selfkant","type":"Kreisangehörige_Gemeinde"},"district":{"key":"05370","name":"Heinsberg","type":"Kreis"},"federalState":{"key":"05","name":"Nordrhein-Westfalen"}},{"name":"Gartenstr.","postalCode":"52538","locality":"Selfkant","municipality":{"key":"05370024","name":"Selfkant","type":"Kreisangehörige_Gemeinde"},"district":{"key":"05370","name":"Heinsberg","type":"Kreis"},"federalState":{"key":"05","name":"Nordrhein-Westfalen"}},{"name":"Gastesweg","postalCode":"52538","locality":"Selfkant","municipality":{"key":"05370024","name":"Selfkant","type":"Kreisangehörige_Gemeinde"},"district":{"key":"05370","name":"Heinsberg","type":"Kreis"},"federalState":{"key":"05","name":"Nordrhein-Westfalen"}},{"name":"Gausweg","postalCode":"52538","locality":"Selfkant","municipality":{"key":"05370024","name":"Selfkant","type":"Kreisangehörige_Gemeinde"},"district":{"key":"05370","name":"Heinsberg","type":"Kreis"},"federalState":{"key":"05","name":"Nordrhein-Westfalen"}},{"name":"Geilenkirchener Str.","postalCode":"52538","locality":"Selfkant","municipality":{"key":"05370024","name":"Selfkant","type":"Kreisangehörige_Gemeinde"},"district":{"key":"05370","name":"Heinsberg","type":"Kreis"},"federalState":{"key":"05","name":"Nordrhein-Westfalen"}},{"name":"Gen Hoefke","postalCode":"52538","locality":"Selfkant","municipality":{"key":"05370024","name":"Selfkant","type":"Kreisangehörige_Gemeinde"},"district":{"key":"05370","name":"Heinsberg","type":"Kreis"},"federalState":{"key":"05","name":"Nordrhein-Westfalen"}},{"name":"Gertrudisstr.","postalCode":"52538","locality":"Selfkant","municipality":{"key":"05370024","name":"Selfkant","type":"Kreisangehörige_Gemeinde"},"district":{"key":"05370","name":"Heinsberg","type":"Kreis"},"federalState":{"key":"05","name":"Nordrhein-Westfalen"}},{"name":"Ginsterweg","postalCode":"52538","locality":"Selfkant","municipality":{"key":"05370024","name":"Selfkant","type":"Kreisangehörige_Gemeinde"},"district":{"key":"05370","name":"Heinsberg","type":"Kreis"},"federalState":{"key":"05","name":"Nordrhein-Westfalen"}},{"name":"Grenzstr.","postalCode":"52538","locality":"Selfkant","municipality":{"key":"05370024","name":"Selfkant","type":"Kreisangehörige_Gemeinde"},"district":{"key":"05370","name":"Heinsberg","type":"Kreis"},"federalState":{"key":"05","name":"Nordrhein-Westfalen"}},{"name":"Grünstr.","postalCode":"52538","locality":"Selfkant","municipality":{"key":"05370024","name":"Selfkant","type":"Kreisangehörige_Gemeinde"},"district":{"key":"05370","name":"Heinsberg","type":"Kreis"},"federalState":{"key":"05","name":"Nordrhein-Westfalen"}},{"name":"Hauptstr.","postalCode":"52538","locality":"Selfkant","municipality":{"key":"05370024","name":"Selfkant","type":"Kreisangehörige_Gemeinde"},"district":{"key":"05370","name":"Heinsberg","type":"Kreis"},"federalState":{"key":"05","name":"Nordrhein-Westfalen"}},{"name":"Haus Groevenkamp","postalCode":"52538","locality":"Selfkant","municipality":{"key":"05370024","name":"Selfkant","type":"Kreisangehörige_Gemeinde"},"district":{"key":"05370","name":"Heinsberg","type":"Kreis"},"federalState":{"key":"05","name":"Nordrhein-Westfalen"}},{"name":"Haverterweg","postalCode":"52538","locality":"Selfkant","municipality":{"key":"05370024","name":"Selfkant","type":"Kreisangehörige_Gemeinde"},"district":{"key":"05370","name":"Heinsberg","type":"Kreis"},"federalState":{"key":"05","name":"Nordrhein-Westfalen"}},{"name":"Haverter Weg","postalCode":"52538","locality":"Selfkant","municipality":{"key":"05370024","name":"Selfkant","type":"Kreisangehörige_Gemeinde"},"district":{"key":"05370","name":"Heinsberg","type":"Kreis"},"federalState":{"key":"05","name":"Nordrhein-Westfalen"}},{"name":"Heerstr.","postalCode":"52538","locality":"Selfkant","municipality":{"key":"05370024","name":"Selfkant","type":"Kreisangehörige_Gemeinde"},"district":{"key":"05370","name":"Heinsberg","type":"Kreis"},"federalState":{"key":"05","name":"Nordrhein-Westfalen"}},{"name":"Heidestr.","postalCode":"52538","locality":"Selfkant","municipality":{"key":"05370024","name":"Selfkant","type":"Kreisangehörige_Gemeinde"},"district":{"key":"05370","name":"Heinsberg","type":"Kreis"},"federalState":{"key":"05","name":"Nordrhein-Westfalen"}},{"name":"Heinsberger Str.","postalCode":"52538","locality":"Selfkant","municipality":{"key":"05370024","name":"Selfkant","type":"Kreisangehörige_Gemeinde"},"district":{"key":"05370","name":"Heinsberg","type":"Kreis"},"federalState":{"key":"05","name":"Nordrhein-Westfalen"}},{"name":"Herkenrather Weg","postalCode":"52538","locality":"Selfkant","municipality":{"key":"05370024","name":"Selfkant","type":"Kreisangehörige_Gemeinde"},"district":{"key":"05370","name":"Heinsberg","type":"Kreis"},"federalState":{"key":"05","name":"Nordrhein-Westfalen"}},{"name":"Hillensberger Weg","postalCode":"52538","locality":"Selfkant","municipality":{"key":"05370024","name":"Selfkant","type":"Kreisangehörige_Gemeinde"},"district":{"key":"05370","name":"Heinsberg","type":"Kreis"},"federalState":{"key":"05","name":"Nordrhein-Westfalen"}},{"name":"Hochstr.","postalCode":"52538","locality":"Selfkant","municipality":{"key":"05370024","name":"Selfkant","type":"Kreisangehörige_Gemeinde"},"district":{"key":"05370","name":"Heinsberg","type":"Kreis"},"federalState":{"key":"05","name":"Nordrhein-Westfalen"}},{"name":"Höfgensweg","postalCode":"52538","locality":"Selfkant","municipality":{"key":"05370024","name":"Selfkant","type":"Kreisangehörige_Gemeinde"},"district":{"key":"05370","name":"Heinsberg","type":"Kreis"},"federalState":{"key":"05","name":"Nordrhein-Westfalen"}},{"name":"Holzstr.","postalCode":"52538","locality":"Selfkant","municipality":{"key":"05370024","name":"Selfkant","type":"Kreisangehörige_Gemeinde"},"district":{"key":"05370","name":"Heinsberg","type":"Kreis"},"federalState":{"key":"05","name":"Nordrhein-Westfalen"}},{"name":"Höngener Weg","postalCode":"52538","locality":"Selfkant","municipality":{"key":"05370024","name":"Selfkant","type":"Kreisangehörige_Gemeinde"},"district":{"key":"05370","name":"Heinsberg","type":"Kreis"},"federalState":{"key":"05","name":"Nordrhein-Westfalen"}},{"name":"Hubertusstr.","postalCode":"52538","locality":"Selfkant","municipality":{"key":"05370024","name":"Selfkant","type":"Kreisangehörige_Gemeinde"},"district":{"key":"05370","name":"Heinsberg","type":"Kreis"},"federalState":{"key":"05","name":"Nordrhein-Westfalen"}},{"name":"Im Acker","postalCode":"52538","locality":"Selfkant","municipality":{"key":"05370024","name":"Selfkant","type":"Kreisangehörige_Gemeinde"},"district":{"key":"05370","name":"Heinsberg","type":"Kreis"},"federalState":{"key":"05","name":"Nordrhein-Westfalen"}},{"name":"Im Blumental","postalCode":"52538","locality":"Selfkant","municipality":{"key":"05370024","name":"Selfkant","type":"Kreisangehörige_Gemeinde"},"district":{"key":"05370","name":"Heinsberg","type":"Kreis"},"federalState":{"key":"05","name":"Nordrhein-Westfalen"}},{"name":"Im Heidfeld","postalCode":"52538","locality":"Selfkant","municipality":{"key":"05370024","name":"Selfkant","type":"Kreisangehörige_Gemeinde"},"district":{"key":"05370","name":"Heinsberg","type":"Kreis"},"federalState":{"key":"05","name":"Nordrhein-Westfalen"}},{"name":"Im Langental","postalCode":"52538","locality":"Selfkant","municipality":{"key":"05370024","name":"Selfkant","type":"Kreisangehörige_Gemeinde"},"district":{"key":"05370","name":"Heinsberg","type":"Kreis"},"federalState":{"key":"05","name":"Nordrhein-Westfalen"}},{"name":"Im Steg","postalCode":"52538","locality":"Selfkant","municipality":{"key":"05370024","name":"Selfkant","type":"Kreisangehörige_Gemeinde"},"district":{"key":"05370","name":"Heinsberg","type":"Kreis"},"federalState":{"key":"05","name":"Nordrhein-Westfalen"}},{"name":"Isenbrucher Mühle","postalCode":"52538","locality":"Selfkant","municipality":{"key":"05370024","name":"Selfkant","type":"Kreisangehörige_Gemeinde"},"district":{"key":"05370","name":"Heinsberg","type":"Kreis"},"federalState":{"key":"05","name":"Nordrhein-Westfalen"}},{"name":"Jabeeker Weg","postalCode":"52538","locality":"Selfkant","municipality":{"key":"05370024","name":"Selfkant","type":"Kreisangehörige_Gemeinde"},"district":{"key":"05370","name":"Heinsberg","type":"Kreis"},"federalState":{"key":"05","name":"Nordrhein-Westfalen"}},{"name":"Jenaer Str.","postalCode":"52538","locality":"Selfkant","municipality":{"key":"05370024","name":"Selfkant","type":"Kreisangehörige_Gemeinde"},"district":{"key":"05370","name":"Heinsberg","type":"Kreis"},"federalState":{"key":"05","name":"Nordrhein-Westfalen"}},{"name":"Johannesstr.","postalCode":"52538","locality":"Selfkant","municipality":{"key":"05370024","name":"Selfkant","type":"Kreisangehörige_Gemeinde"},"district":{"key":"05370","name":"Heinsberg","type":"Kreis"},"federalState":{"key":"05","name":"Nordrhein-Westfalen"}},{"name":"Johann-Grein-Str.","postalCode":"52538","locality":"Selfkant","municipality":{"key":"05370024","name":"Selfkant","type":"Kreisangehörige_Gemeinde"},"district":{"key":"05370","name":"Heinsberg","type":"Kreis"},"federalState":{"key":"05","name":"Nordrhein-Westfalen"}},{"name":"Josefshof","postalCode":"52538","locality":"Selfkant","municipality":{"key":"05370024","name":"Selfkant","type":"Kreisangehörige_Gemeinde"},"district":{"key":"05370","name":"Heinsberg","type":"Kreis"},"federalState":{"key":"05","name":"Nordrhein-Westfalen"}},{"name":"Joseph-Prinz-Str.","postalCode":"52538","locality":"Selfkant","municipality":{"key":"05370024","name":"Selfkant","type":"Kreisangehörige_Gemeinde"},"district":{"key":"05370","name":"Heinsberg","type":"Kreis"},"federalState":{"key":"05","name":"Nordrhein-Westfalen"}},{"name":"Jubiläumsstr.","postalCode":"52538","locality":"Selfkant","municipality":{"key":"05370024","name":"Selfkant","type":"Kreisangehörige_Gemeinde"},"district":{"key":"05370","name":"Heinsberg","type":"Kreis"},"federalState":{"key":"05","name":"Nordrhein-Westfalen"}},{"name":"Kämpchen","postalCode":"52538","locality":"Selfkant","municipality":{"key":"05370024","name":"Selfkant","type":"Kreisangehörige_Gemeinde"},"district":{"key":"05370","name":"Heinsberg","type":"Kreis"},"federalState":{"key":"05","name":"Nordrhein-Westfalen"}},{"name":"Kapellenstr.","postalCode":"52538","locality":"Selfkant","municipality":{"key":"05370024","name":"Selfkant","type":"Kreisangehörige_Gemeinde"},"district":{"key":"05370","name":"Heinsberg","type":"Kreis"},"federalState":{"key":"05","name":"Nordrhein-Westfalen"}},{"name":"Karl-Arnold-Str.","postalCode":"52538","locality":"Selfkant","municipality":{"key":"05370024","name":"Selfkant","type":"Kreisangehörige_Gemeinde"},"district":{"key":"05370","name":"Heinsberg","type":"Kreis"},"federalState":{"key":"05","name":"Nordrhein-Westfalen"}},{"name":"Katharinenweg","postalCode":"52538","locality":"Selfkant","municipality":{"key":"05370024","name":"Selfkant","type":"Kreisangehörige_Gemeinde"},"district":{"key":"05370","name":"Heinsberg","type":"Kreis"},"federalState":{"key":"05","name":"Nordrhein-Westfalen"}},{"name":"Keltenstr.","postalCode":"52538","locality":"Selfkant","municipality":{"key":"05370024","name":"Selfkant","type":"Kreisangehörige_Gemeinde"},"district":{"key":"05370","name":"Heinsberg","type":"Kreis"},"federalState":{"key":"05","name":"Nordrhein-Westfalen"}},{"name":"Kempweg","postalCode":"52538","locality":"Selfkant","municipality":{"key":"05370024","name":"Selfkant","type":"Kreisangehörige_Gemeinde"},"district":{"key":"05370","name":"Heinsberg","type":"Kreis"},"federalState":{"key":"05","name":"Nordrhein-Westfalen"}},{"name":"Kiefernweg","postalCode":"52538","locality":"Selfkant","municipality":{"key":"05370024","name":"Selfkant","type":"Kreisangehörige_Gemeinde"},"district":{"key":"05370","name":"Heinsberg","type":"Kreis"},"federalState":{"key":"05","name":"Nordrhein-Westfalen"}},{"name":"Kirchplatz","postalCode":"52538","locality":"Selfkant","municipality":{"key":"05370024","name":"Selfkant","type":"Kreisangehörige_Gemeinde"},"district":{"key":"05370","name":"Heinsberg","type":"Kreis"},"federalState":{"key":"05","name":"Nordrhein-Westfalen"}},{"name":"Kirchstr.","postalCode":"52538","locality":"Selfkant","municipality":{"key":"05370024","name":"Selfkant","type":"Kreisangehörige_Gemeinde"},"district":{"key":"05370","name":"Heinsberg","type":"Kreis"},"federalState":{"key":"05","name":"Nordrhein-Westfalen"}},{"name":"Kirchweg","postalCode":"52538","locality":"Selfkant","municipality":{"key":"05370024","name":"Selfkant","type":"Kreisangehörige_Gemeinde"},"district":{"key":"05370","name":"Heinsberg","type":"Kreis"},"federalState":{"key":"05","name":"Nordrhein-Westfalen"}},{"name":"Kleinwehrhagen","postalCode":"52538","locality":"Selfkant","municipality":{"key":"05370024","name":"Selfkant","type":"Kreisangehörige_Gemeinde"},"district":{"key":"05370","name":"Heinsberg","type":"Kreis"},"federalState":{"key":"05","name":"Nordrhein-Westfalen"}},{"name":"Kleiweg","postalCode":"52538","locality":"Selfkant","municipality":{"key":"05370024","name":"Selfkant","type":"Kreisangehörige_Gemeinde"},"district":{"key":"05370","name":"Heinsberg","type":"Kreis"},"federalState":{"key":"05","name":"Nordrhein-Westfalen"}},{"name":"Klosterpfad","postalCode":"52538","locality":"Selfkant","municipality":{"key":"05370024","name":"Selfkant","type":"Kreisangehörige_Gemeinde"},"district":{"key":"05370","name":"Heinsberg","type":"Kreis"},"federalState":{"key":"05","name":"Nordrhein-Westfalen"}},{"name":"Königsberger Str.","postalCode":"52538","locality":"Selfkant","municipality":{"key":"05370024","name":"Selfkant","type":"Kreisangehörige_Gemeinde"},"district":{"key":"05370","name":"Heinsberg","type":"Kreis"},"federalState":{"key":"05","name":"Nordrhein-Westfalen"}},{"name":"Körberstr.","postalCode":"52538","locality":"Selfkant","municipality":{"key":"05370024","name":"Selfkant","type":"Kreisangehörige_Gemeinde"},"district":{"key":"05370","name":"Heinsberg","type":"Kreis"},"federalState":{"key":"05","name":"Nordrhein-Westfalen"}},{"name":"Kreisstr.","postalCode":"52538","locality":"Selfkant","municipality":{"key":"05370024","name":"Selfkant","type":"Kreisangehörige_Gemeinde"},"district":{"key":"05370","name":"Heinsberg","type":"Kreis"},"federalState":{"key":"05","name":"Nordrhein-Westfalen"}},{"name":"Kreuzstr.","postalCode":"52538","locality":"Selfkant","municipality":{"key":"05370024","name":"Selfkant","type":"Kreisangehörige_Gemeinde"},"district":{"key":"05370","name":"Heinsberg","type":"Kreis"},"federalState":{"key":"05","name":"Nordrhein-Westfalen"}},{"name":"Krouw","postalCode":"52538","locality":"Selfkant","municipality":{"key":"05370024","name":"Selfkant","type":"Kreisangehörige_Gemeinde"},"district":{"key":"05370","name":"Heinsberg","type":"Kreis"},"federalState":{"key":"05","name":"Nordrhein-Westfalen"}},{"name":"Laaker Weg","postalCode":"52538","locality":"Selfkant","municipality":{"key":"05370024","name":"Selfkant","type":"Kreisangehörige_Gemeinde"},"district":{"key":"05370","name":"Heinsberg","type":"Kreis"},"federalState":{"key":"05","name":"Nordrhein-Westfalen"}},{"name":"Lahrstr.","postalCode":"52538","locality":"Selfkant","municipality":{"key":"05370024","name":"Selfkant","type":"Kreisangehörige_Gemeinde"},"district":{"key":"05370","name":"Heinsberg","type":"Kreis"},"federalState":{"key":"05","name":"Nordrhein-Westfalen"}},{"name":"Lambertusstr.","postalCode":"52538","locality":"Selfkant","municipality":{"key":"05370024","name":"Selfkant","type":"Kreisangehörige_Gemeinde"},"district":{"key":"05370","name":"Heinsberg","type":"Kreis"},"federalState":{"key":"05","name":"Nordrhein-Westfalen"}},{"name":"Landstr.","postalCode":"52538","locality":"Selfkant","municipality":{"key":"05370024","name":"Selfkant","type":"Kreisangehörige_Gemeinde"},"district":{"key":"05370","name":"Heinsberg","type":"Kreis"},"federalState":{"key":"05","name":"Nordrhein-Westfalen"}},{"name":"Lärchenweg","postalCode":"52538","locality":"Selfkant","municipality":{"key":"05370024","name":"Selfkant","type":"Kreisangehörige_Gemeinde"},"district":{"key":"05370","name":"Heinsberg","type":"Kreis"},"federalState":{"key":"05","name":"Nordrhein-Westfalen"}},{"name":"Leipziger Str.","postalCode":"52538","locality":"Selfkant","municipality":{"key":"05370024","name":"Selfkant","type":"Kreisangehörige_Gemeinde"},"district":{"key":"05370","name":"Heinsberg","type":"Kreis"},"federalState":{"key":"05","name":"Nordrhein-Westfalen"}},{"name":"Lilienweg","postalCode":"52538","locality":"Selfkant","municipality":{"key":"05370024","name":"Selfkant","type":"Kreisangehörige_Gemeinde"},"district":{"key":"05370","name":"Heinsberg","type":"Kreis"},"federalState":{"key":"05","name":"Nordrhein-Westfalen"}},{"name":"Lind","postalCode":"52538","locality":"Selfkant","municipality":{"key":"05370024","name":"Selfkant","type":"Kreisangehörige_Gemeinde"},"district":{"key":"05370","name":"Heinsberg","type":"Kreis"},"federalState":{"key":"05","name":"Nordrhein-Westfalen"}},{"name":"Lindenstr.","postalCode":"52538","locality":"Selfkant","municipality":{"key":"05370024","name":"Selfkant","type":"Kreisangehörige_Gemeinde"},"district":{"key":"05370","name":"Heinsberg","type":"Kreis"},"federalState":{"key":"05","name":"Nordrhein-Westfalen"}},{"name":"Lukasstr.","postalCode":"52538","locality":"Selfkant","municipality":{"key":"05370024","name":"Selfkant","type":"Kreisangehörige_Gemeinde"},"district":{"key":"05370","name":"Heinsberg","type":"Kreis"},"federalState":{"key":"05","name":"Nordrhein-Westfalen"}},{"name":"Marienstr.","postalCode":"52538","locality":"Selfkant","municipality":{"key":"05370024","name":"Selfkant","type":"Kreisangehörige_Gemeinde"},"district":{"key":"05370","name":"Heinsberg","type":"Kreis"},"federalState":{"key":"05","name":"Nordrhein-Westfalen"}},{"name":"Marktweg","postalCode":"52538","locality":"Selfkant","municipality":{"key":"05370024","name":"Selfkant","type":"Kreisangehörige_Gemeinde"},"district":{"key":"05370","name":"Heinsberg","type":"Kreis"},"federalState":{"key":"05","name":"Nordrhein-Westfalen"}},{"name":"Markusplatz","postalCode":"52538","locality":"Selfkant","municipality":{"key":"05370024","name":"Selfkant","type":"Kreisangehörige_Gemeinde"},"district":{"key":"05370","name":"Heinsberg","type":"Kreis"},"federalState":{"key":"05","name":"Nordrhein-Westfalen"}},{"name":"Martinusstr.","postalCode":"52538","locality":"Selfkant","municipality":{"key":"05370024","name":"Selfkant","type":"Kreisangehörige_Gemeinde"},"district":{"key":"05370","name":"Heinsberg","type":"Kreis"},"federalState":{"key":"05","name":"Nordrhein-Westfalen"}},{"name":"Messweg","postalCode":"52538","locality":"Selfkant","municipality":{"key":"05370024","name":"Selfkant","type":"Kreisangehörige_Gemeinde"},"district":{"key":"05370","name":"Heinsberg","type":"Kreis"},"federalState":{"key":"05","name":"Nordrhein-Westfalen"}},{"name":"Michaelstr.","postalCode":"52538","locality":"Selfkant","municipality":{"key":"05370024","name":"Selfkant","type":"Kreisangehörige_Gemeinde"},"district":{"key":"05370","name":"Heinsberg","type":"Kreis"},"federalState":{"key":"05","name":"Nordrhein-Westfalen"}},{"name":"Millener Weg","postalCode":"52538","locality":"Selfkant","municipality":{"key":"05370024","name":"Selfkant","type":"Kreisangehörige_Gemeinde"},"district":{"key":"05370","name":"Heinsberg","type":"Kreis"},"federalState":{"key":"05","name":"Nordrhein-Westfalen"}},{"name":"Mittelstr.","postalCode":"52538","locality":"Selfkant","municipality":{"key":"05370024","name":"Selfkant","type":"Kreisangehörige_Gemeinde"},"district":{"key":"05370","name":"Heinsberg","type":"Kreis"},"federalState":{"key":"05","name":"Nordrhein-Westfalen"}},{"name":"Mühlenstr.","postalCode":"52538","locality":"Selfkant","municipality":{"key":"05370024","name":"Selfkant","type":"Kreisangehörige_Gemeinde"},"district":{"key":"05370","name":"Heinsberg","type":"Kreis"},"federalState":{"key":"05","name":"Nordrhein-Westfalen"}},{"name":"Nachtigallenweg","postalCode":"52538","locality":"Selfkant","municipality":{"key":"05370024","name":"Selfkant","type":"Kreisangehörige_Gemeinde"},"district":{"key":"05370","name":"Heinsberg","type":"Kreis"},"federalState":{"key":"05","name":"Nordrhein-Westfalen"}},{"name":"Nelkenweg","postalCode":"52538","locality":"Selfkant","municipality":{"key":"05370024","name":"Selfkant","type":"Kreisangehörige_Gemeinde"},"district":{"key":"05370","name":"Heinsberg","type":"Kreis"},"federalState":{"key":"05","name":"Nordrhein-Westfalen"}},{"name":"Neustr.","postalCode":"52538","locality":"Selfkant","municipality":{"key":"05370024","name":"Selfkant","type":"Kreisangehörige_Gemeinde"},"district":{"key":"05370","name":"Heinsberg","type":"Kreis"},"federalState":{"key":"05","name":"Nordrhein-Westfalen"}},{"name":"Nikolausstr.","postalCode":"52538","locality":"Selfkant","municipality":{"key":"05370024","name":"Selfkant","type":"Kreisangehörige_Gemeinde"},"district":{"key":"05370","name":"Heinsberg","type":"Kreis"},"federalState":{"key":"05","name":"Nordrhein-Westfalen"}},{"name":"Oligstr.","postalCode":"52538","locality":"Selfkant","municipality":{"key":"05370024","name":"Selfkant","type":"Kreisangehörige_Gemeinde"},"district":{"key":"05370","name":"Heinsberg","type":"Kreis"},"federalState":{"key":"05","name":"Nordrhein-Westfalen"}},{"name":"Op de Berg","postalCode":"52538","locality":"Selfkant","municipality":{"key":"05370024","name":"Selfkant","type":"Kreisangehörige_Gemeinde"},"district":{"key":"05370","name":"Heinsberg","type":"Kreis"},"federalState":{"key":"05","name":"Nordrhein-Westfalen"}},{"name":"Op de Camp","postalCode":"52538","locality":"Selfkant","municipality":{"key":"05370024","name":"Selfkant","type":"Kreisangehörige_Gemeinde"},"district":{"key":"05370","name":"Heinsberg","type":"Kreis"},"federalState":{"key":"05","name":"Nordrhein-Westfalen"}},{"name":"Panneschop","postalCode":"52538","locality":"Selfkant","municipality":{"key":"05370024","name":"Selfkant","type":"Kreisangehörige_Gemeinde"},"district":{"key":"05370","name":"Heinsberg","type":"Kreis"},"federalState":{"key":"05","name":"Nordrhein-Westfalen"}},{"name":"Paulusstr.","postalCode":"52538","locality":"Selfkant","municipality":{"key":"05370024","name":"Selfkant","type":"Kreisangehörige_Gemeinde"},"district":{"key":"05370","name":"Heinsberg","type":"Kreis"},"federalState":{"key":"05","name":"Nordrhein-Westfalen"}},{"name":"Pesch","postalCode":"52538","locality":"Selfkant","municipality":{"key":"05370024","name":"Selfkant","type":"Kreisangehörige_Gemeinde"},"district":{"key":"05370","name":"Heinsberg","type":"Kreis"},"federalState":{"key":"05","name":"Nordrhein-Westfalen"}},{"name":"Petrusstr.","postalCode":"52538","locality":"Selfkant","municipality":{"key":"05370024","name":"Selfkant","type":"Kreisangehörige_Gemeinde"},"district":{"key":"05370","name":"Heinsberg","type":"Kreis"},"federalState":{"key":"05","name":"Nordrhein-Westfalen"}},{"name":"Pfarrer-Fuhs-Str.","postalCode":"52538","locality":"Selfkant","municipality":{"key":"05370024","name":"Selfkant","type":"Kreisangehörige_Gemeinde"},"district":{"key":"05370","name":"Heinsberg","type":"Kreis"},"federalState":{"key":"05","name":"Nordrhein-Westfalen"}},{"name":"Pfarrer-Jäger-Str.","postalCode":"52538","locality":"Selfkant","municipality":{"key":"05370024","name":"Selfkant","type":"Kreisangehörige_Gemeinde"},"district":{"key":"05370","name":"Heinsberg","type":"Kreis"},"federalState":{"key":"05","name":"Nordrhein-Westfalen"}},{"name":"Pfarrer-Kreins-Str.","postalCode":"52538","locality":"Selfkant","municipality":{"key":"05370024","name":"Selfkant","type":"Kreisangehörige_Gemeinde"},"district":{"key":"05370","name":"Heinsberg","type":"Kreis"},"federalState":{"key":"05","name":"Nordrhein-Westfalen"}},{"name":"Pfarrer-Meising-Str.","postalCode":"52538","locality":"Selfkant","municipality":{"key":"05370024","name":"Selfkant","type":"Kreisangehörige_Gemeinde"},"district":{"key":"05370","name":"Heinsberg","type":"Kreis"},"federalState":{"key":"05","name":"Nordrhein-Westfalen"}},{"name":"Propsteiweg","postalCode":"52538","locality":"Selfkant","municipality":{"key":"05370024","name":"Selfkant","type":"Kreisangehörige_Gemeinde"},"district":{"key":"05370","name":"Heinsberg","type":"Kreis"},"federalState":{"key":"05","name":"Nordrhein-Westfalen"}},{"name":"Prunkweg","postalCode":"52538","locality":"Selfkant","municipality":{"key":"05370024","name":"Selfkant","type":"Kreisangehörige_Gemeinde"},"district":{"key":"05370","name":"Heinsberg","type":"Kreis"},"federalState":{"key":"05","name":"Nordrhein-Westfalen"}},{"name":"Querweg","postalCode":"16831","locality":"Rheinsberg","municipality":{"key":"12068353","name":"Rheinsberg, Stadt","type":"Stadt"},"district":{"key":"12068","name":"Ostprignitz-Ruppin","type":"Landkreis"},"federalState":{"key":"12","name":"Brandenburg"}},{"name":"Raederstr.","postalCode":"52538","locality":"Selfkant","municipality":{"key":"05370024","name":"Selfkant","type":"Kreisangehörige_Gemeinde"},"district":{"key":"05370","name":"Heinsberg","type":"Kreis"},"federalState":{"key":"05","name":"Nordrhein-Westfalen"}},{"name":"Raiffeisenstr.","postalCode":"52538","locality":"Selfkant","municipality":{"key":"05370024","name":"Selfkant","type":"Kreisangehörige_Gemeinde"},"district":{"key":"05370","name":"Heinsberg","type":"Kreis"},"federalState":{"key":"05","name":"Nordrhein-Westfalen"}},{"name":"Reyweg","postalCode":"52538","locality":"Selfkant","municipality":{"key":"05370024","name":"Selfkant","type":"Kreisangehörige_Gemeinde"},"district":{"key":"05370","name":"Heinsberg","type":"Kreis"},"federalState":{"key":"05","name":"Nordrhein-Westfalen"}},{"name":"Robert-Bosch-Str.","postalCode":"52538","locality":"Selfkant","municipality":{"key":"05370024","name":"Selfkant","type":"Kreisangehörige_Gemeinde"},"district":{"key":"05370","name":"Heinsberg","type":"Kreis"},"federalState":{"key":"05","name":"Nordrhein-Westfalen"}},{"name":"Rodebachaue","postalCode":"52538","locality":"Selfkant","municipality":{"key":"05370024","name":"Selfkant","type":"Kreisangehörige_Gemeinde"},"district":{"key":"05370","name":"Heinsberg","type":"Kreis"},"federalState":{"key":"05","name":"Nordrhein-Westfalen"}},{"name":"Rodebachstr.","postalCode":"52538","locality":"Selfkant","municipality":{"key":"05370024","name":"Selfkant","type":"Kreisangehörige_Gemeinde"},"district":{"key":"05370","name":"Heinsberg","type":"Kreis"},"federalState":{"key":"05","name":"Nordrhein-Westfalen"}},{"name":"Römerstr.","postalCode":"52538","locality":"Selfkant","municipality":{"key":"05370024","name":"Selfkant","type":"Kreisangehörige_Gemeinde"},"district":{"key":"05370","name":"Heinsberg","type":"Kreis"},"federalState":{"key":"05","name":"Nordrhein-Westfalen"}},{"name":"Rosenweg","postalCode":"52538","locality":"Selfkant","municipality":{"key":"05370024","name":"Selfkant","type":"Kreisangehörige_Gemeinde"},"district":{"key":"05370","name":"Heinsberg","type":"Kreis"},"federalState":{"key":"05","name":"Nordrhein-Westfalen"}},{"name":"Sandkoul","postalCode":"52538","locality":"Selfkant","municipality":{"key":"05370024","name":"Selfkant","type":"Kreisangehörige_Gemeinde"},"district":{"key":"05370","name":"Heinsberg","type":"Kreis"},"federalState":{"key":"05","name":"Nordrhein-Westfalen"}},{"name":"Schienegraaf","postalCode":"52538","locality":"Selfkant","municipality":{"key":"05370024","name":"Selfkant","type":"Kreisangehörige_Gemeinde"},"district":{"key":"05370","name":"Heinsberg","type":"Kreis"},"federalState":{"key":"05","name":"Nordrhein-Westfalen"}},{"name":"Schulstr.","postalCode":"52538","locality":"Selfkant","municipality":{"key":"05370024","name":"Selfkant","type":"Kreisangehörige_Gemeinde"},"district":{"key":"05370","name":"Heinsberg","type":"Kreis"},"federalState":{"key":"05","name":"Nordrhein-Westfalen"}},{"name":"Schützenpfad","postalCode":"52538","locality":"Selfkant","municipality":{"key":"05370024","name":"Selfkant","type":"Kreisangehörige_Gemeinde"},"district":{"key":"05370","name":"Heinsberg","type":"Kreis"},"federalState":{"key":"05","name":"Nordrhein-Westfalen"}},{"name":"Sebastianusstr.","postalCode":"52538","locality":"Selfkant","municipality":{"key":"05370024","name":"Selfkant","type":"Kreisangehörige_Gemeinde"},"district":{"key":"05370","name":"Heinsberg","type":"Kreis"},"federalState":{"key":"05","name":"Nordrhein-Westfalen"}},{"name":"Selfkantstr.","postalCode":"52538","locality":"Selfkant","municipality":{"key":"05370024","name":"Selfkant","type":"Kreisangehörige_Gemeinde"},"district":{"key":"05370","name":"Heinsberg","type":"Kreis"},"federalState":{"key":"05","name":"Nordrhein-Westfalen"}},{"name":"Severinusstr.","postalCode":"52538","locality":"Selfkant","municipality":{"key":"05370024","name":"Selfkant","type":"Kreisangehörige_Gemeinde"},"district":{"key":"05370","name":"Heinsberg","type":"Kreis"},"federalState":{"key":"05","name":"Nordrhein-Westfalen"}},{"name":"Siemensstr.","postalCode":"52538","locality":"Selfkant","municipality":{"key":"05370024","name":"Selfkant","type":"Kreisangehörige_Gemeinde"},"district":{"key":"05370","name":"Heinsberg","type":"Kreis"},"federalState":{"key":"05","name":"Nordrhein-Westfalen"}},{"name":"Sittarder Str.","postalCode":"52538","locality":"Selfkant","municipality":{"key":"05370024","name":"Selfkant","type":"Kreisangehörige_Gemeinde"},"district":{"key":"05370","name":"Heinsberg","type":"Kreis"},"federalState":{"key":"05","name":"Nordrhein-Westfalen"}},{"name":"Sofienring","postalCode":"52538","locality":"Selfkant","municipality":{"key":"05370024","name":"Selfkant","type":"Kreisangehörige_Gemeinde"},"district":{"key":"05370","name":"Heinsberg","type":"Kreis"},"federalState":{"key":"05","name":"Nordrhein-Westfalen"}},{"name":"Suestrastr.","postalCode":"52538","locality":"Selfkant","municipality":{"key":"05370024","name":"Selfkant","type":"Kreisangehörige_Gemeinde"},"district":{"key":"05370","name":"Heinsberg","type":"Kreis"},"federalState":{"key":"05","name":"Nordrhein-Westfalen"}},{"name":"Talweg","postalCode":"52538","locality":"Selfkant","municipality":{"key":"05370024","name":"Selfkant","type":"Kreisangehörige_Gemeinde"},"district":{"key":"05370","name":"Heinsberg","type":"Kreis"},"federalState":{"key":"05","name":"Nordrhein-Westfalen"}},{"name":"Tannenweg","postalCode":"52538","locality":"Selfkant","municipality":{"key":"05370024","name":"Selfkant","type":"Kreisangehörige_Gemeinde"},"district":{"key":"05370","name":"Heinsberg","type":"Kreis"},"federalState":{"key":"05","name":"Nordrhein-Westfalen"}},{"name":"Trichterweg","postalCode":"52538","locality":"Selfkant","municipality":{"key":"05370024","name":"Selfkant","type":"Kreisangehörige_Gemeinde"},"district":{"key":"05370","name":"Heinsberg","type":"Kreis"},"federalState":{"key":"05","name":"Nordrhein-Westfalen"}},{"name":"Tüdderner Weg","postalCode":"52538","locality":"Selfkant","municipality":{"key":"05370024","name":"Selfkant","type":"Kreisangehörige_Gemeinde"},"district":{"key":"05370","name":"Heinsberg","type":"Kreis"},"federalState":{"key":"05","name":"Nordrhein-Westfalen"}},{"name":"Uetterather Dorfstr.","postalCode":"52525","locality":"Heinsberg","municipality":{"key":"05370016","name":"Heinsberg, Stadt","type":"Stadt"},"district":{"key":"05370","name":"Heinsberg","type":"Kreis"},"federalState":{"key":"05","name":"Nordrhein-Westfalen"}},{"name":"Uetterather Str.","postalCode":"52525","locality":"Heinsberg","municipality":{"key":"05370016","name":"Heinsberg, Stadt","type":"Stadt"},"district":{"key":"05370","name":"Heinsberg","type":"Kreis"},"federalState":{"key":"05","name":"Nordrhein-Westfalen"}},{"name":"Uetterather Weg","postalCode":"52525","locality":"Heinsberg","municipality":{"key":"05370016","name":"Heinsberg, Stadt","type":"Stadt"},"district":{"key":"05370","name":"Heinsberg","type":"Kreis"},"federalState":{"key":"05","name":"Nordrhein-Westfalen"}},{"name":"Uferpromenade","postalCode":"16831","locality":"Rheinsberg","municipality":{"key":"12068353","name":"Rheinsberg, Stadt","type":"Stadt"},"district":{"key":"12068","name":"Ostprignitz-Ruppin","type":"Landkreis"},"federalState":{"key":"12","name":"Brandenburg"}},{"name":"Uferweg","postalCode":"16831","locality":"Rheinsberg","municipality":{"key":"12068353","name":"Rheinsberg, Stadt","type":"Stadt"},"district":{"key":"12068","name":"Ostprignitz-Ruppin","type":"Landkreis"},"federalState":{"key":"12","name":"Brandenburg"}},{"name":"Uhlandstr.","postalCode":"52525","locality":"Heinsberg","municipality":{"key":"05370016","name":"Heinsberg, Stadt","type":"Stadt"},"district":{"key":"05370","name":"Heinsberg","type":"Kreis"},"federalState":{"key":"05","name":"Nordrhein-Westfalen"}},{"name":"Ullrichstr.","postalCode":"52525","locality":"Heinsberg","municipality":{"key":"05370016","name":"Heinsberg, Stadt","type":"Stadt"},"district":{"key":"05370","name":"Heinsberg","type":"Kreis"},"federalState":{"key":"05","name":"Nordrhein-Westfalen"}},{"name":"Ulmenstr.","postalCode":"52525","locality":"Heinsberg","municipality":{"key":"05370016","name":"Heinsberg, Stadt","type":"Stadt"},"district":{"key":"05370","name":"Heinsberg","type":"Kreis"},"federalState":{"key":"05","name":"Nordrhein-Westfalen"}},{"name":"Ulmenweg","postalCode":"16831","locality":"Rheinsberg","municipality":{"key":"12068353","name":"Rheinsberg, Stadt","type":"Stadt"},"district":{"key":"12068","name":"Ostprignitz-Ruppin","type":"Landkreis"},"federalState":{"key":"12","name":"Brandenburg"}},{"name":"Unterbrucher Str.","postalCode":"52525","locality":"Heinsberg","municipality":{"key":"05370016","name":"Heinsberg, Stadt","type":"Stadt"},"district":{"key":"05370","name":"Heinsberg","type":"Kreis"},"federalState":{"key":"05","name":"Nordrhein-Westfalen"}},{"name":"Untere Braminseestr.","postalCode":"16837","locality":"Rheinsberg","municipality":{"key":"12068353","name":"Rheinsberg, Stadt","type":"Stadt"},"district":{"key":"12068","name":"Ostprignitz-Ruppin","type":"Landkreis"},"federalState":{"key":"12","name":"Brandenburg"}},{"name":"Unterster Hof","postalCode":"52525","locality":"Heinsberg","municipality":{"key":"05370016","name":"Heinsberg, Stadt","type":"Stadt"},"district":{"key":"05370","name":"Heinsberg","type":"Kreis"},"federalState":{"key":"05","name":"Nordrhein-Westfalen"}},{"name":"Urbanstr.","postalCode":"52525","locality":"Heinsberg","municipality":{"key":"05370016","name":"Heinsberg, Stadt","type":"Stadt"},"district":{"key":"05370","name":"Heinsberg","type":"Kreis"},"federalState":{"key":"05","name":"Nordrhein-Westfalen"}},{"name":"Vennstr.","postalCode":"52538","locality":"Selfkant","municipality":{"key":"05370024","name":"Selfkant","type":"Kreisangehörige_Gemeinde"},"district":{"key":"05370","name":"Heinsberg","type":"Kreis"},"federalState":{"key":"05","name":"Nordrhein-Westfalen"}},{"name":"Vollmühle","postalCode":"52538","locality":"Selfkant","municipality":{"key":"05370024","name":"Selfkant","type":"Kreisangehörige_Gemeinde"},"district":{"key":"05370","name":"Heinsberg","type":"Kreis"},"federalState":{"key":"05","name":"Nordrhein-Westfalen"}},{"name":"Von-Byland-Str.","postalCode":"52538","locality":"Selfkant","municipality":{"key":"05370024","name":"Selfkant","type":"Kreisangehörige_Gemeinde"},"district":{"key":"05370","name":"Heinsberg","type":"Kreis"},"federalState":{"key":"05","name":"Nordrhein-Westfalen"}},{"name":"Von-Hauert-Str.","postalCode":"52538","locality":"Selfkant","municipality":{"key":"05370024","name":"Selfkant","type":"Kreisangehörige_Gemeinde"},"district":{"key":"05370","name":"Heinsberg","type":"Kreis"},"federalState":{"key":"05","name":"Nordrhein-Westfalen"}},{"name":"Von-Humboldt-Str.","postalCode":"52538","locality":"Selfkant","municipality":{"key":"05370024","name":"Selfkant","type":"Kreisangehörige_Gemeinde"},"district":{"key":"05370","name":"Heinsberg","type":"Kreis"},"federalState":{"key":"05","name":"Nordrhein-Westfalen"}},{"name":"Waldfeuchter Str.","postalCode":"52538","locality":"Selfkant","municipality":{"key":"05370024","name":"Selfkant","type":"Kreisangehörige_Gemeinde"},"district":{"key":"05370","name":"Heinsberg","type":"Kreis"},"federalState":{"key":"05","name":"Nordrhein-Westfalen"}},{"name":"Waldstr.","postalCode":"52538","locality":"Selfkant","municipality":{"key":"05370024","name":"Selfkant","type":"Kreisangehörige_Gemeinde"},"district":{"key":"05370","name":"Heinsberg","type":"Kreis"},"federalState":{"key":"05","name":"Nordrhein-Westfalen"}},{"name":"Weidenstr.","postalCode":"52538","locality":"Selfkant","municipality":{"key":"05370024","name":"Selfkant","type":"Kreisangehörige_Gemeinde"},"district":{"key":"05370","name":"Heinsberg","type":"Kreis"},"federalState":{"key":"05","name":"Nordrhein-Westfalen"}},{"name":"Weiherstr.","postalCode":"52538","locality":"Selfkant","municipality":{"key":"05370024","name":"Selfkant","type":"Kreisangehörige_Gemeinde"},"district":{"key":"05370","name":"Heinsberg","type":"Kreis"},"federalState":{"key":"05","name":"Nordrhein-Westfalen"}},{"name":"Weimarer Str.","postalCode":"52538","locality":"Selfkant","municipality":{"key":"05370024","name":"Selfkant","type":"Kreisangehörige_Gemeinde"},"district":{"key":"05370","name":"Heinsberg","type":"Kreis"},"federalState":{"key":"05","name":"Nordrhein-Westfalen"}},{"name":"Westerholzer Str.","postalCode":"52538","locality":"Selfkant","municipality":{"key":"05370024","name":"Selfkant","type":"Kreisangehörige_Gemeinde"},"district":{"key":"05370","name":"Heinsberg","type":"Kreis"},"federalState":{"key":"05","name":"Nordrhein-Westfalen"}},{"name":"Wiesenstr.","postalCode":"52538","locality":"Selfkant","municipality":{"key":"05370024","name":"Selfkant","type":"Kreisangehörige_Gemeinde"},"district":{"key":"05370","name":"Heinsberg","type":"Kreis"},"federalState":{"key":"05","name":"Nordrhein-Westfalen"}},{"name":"Zehntweg","postalCode":"52538","locality":"Selfkant","municipality":{"key":"05370024","name":"Selfkant","type":"Kreisangehörige_Gemeinde"},"district":{"key":"05370","name":"Heinsberg","type":"Kreis"},"federalState":{"key":"05","name":"Nordrhein-Westfalen"}},{"name":"Zu den Benden","postalCode":"52538","locality":"Selfkant","municipality":{"key":"05370024","name":"Selfkant","type":"Kreisangehörige_Gemeinde"},"district":{"key":"05370","name":"Heinsberg","type":"Kreis"},"federalState":{"key":"05","name":"Nordrhein-Westfalen"}},{"name":"Zum Haus Millen","postalCode":"52538","locality":"Selfkant","municipality":{"key":"05370024","name":"Selfkant","type":"Kreisangehörige_Gemeinde"},"district":{"key":"05370","name":"Heinsberg","type":"Kreis"},"federalState":{"key":"05","name":"Nordrhein-Westfalen"}},{"name":"Zum Klüfgen","postalCode":"52538","locality":"Selfkant","municipality":{"key":"05370024","name":"Selfkant","type":"Kreisangehörige_Gemeinde"},"district":{"key":"05370","name":"Heinsberg","type":"Kreis"},"federalState":{"key":"05","name":"Nordrhein-Westfalen"}},{"name":"Zum Schützenbruch","postalCode":"52538","locality":"Selfkant","municipality":{"key":"05370024","name":"Selfkant","type":"Kreisangehörige_Gemeinde"},"district":{"key":"05370","name":"Heinsberg","type":"Kreis"},"federalState":{"key":"05","name":"Nordrhein-Westfalen"}},{"name":"Zum Westerholz","postalCode":"52538","locality":"Selfkant","municipality":{"key":"05370024","name":"Selfkant","type":"Kreisangehörige_Gemeinde"},"district":{"key":"05370","name":"Heinsberg","type":"Kreis"},"federalState":{"key":"05","name":"Nordrhein-Westfalen"}},{"name":"Zum Wiesengrund","postalCode":"52538","locality":"Selfkant","municipality":{"key":"05370024","name":"Selfkant","type":"Kreisangehörige_Gemeinde"},"district":{"key":"05370","name":"Heinsberg","type":"Kreis"},"federalState":{"key":"05","name":"Nordrhein-Westfalen"}},{"name":"Zur Turnhalle","postalCode":"52538","locality":"Selfkant","municipality":{"key":"05370024","name":"Selfkant","type":"Kreisangehörige_Gemeinde"},"district":{"key":"05370","name":"Heinsberg","type":"Kreis"},"federalState":{"key":"05","name":"Nordrhein-Westfalen"}},{"name":"Zur Viehweide","postalCode":"52538","locality":"Selfkant","municipality":{"key":"05370024","name":"Selfkant","type":"Kreisangehörige_Gemeinde"},"district":{"key":"05370","name":"Heinsberg","type":"Kreis"},"federalState":{"key":"05","name":"Nordrhein-Westfalen"}},{"name":"Zur Westzipfelhalle","postalCode":"52538","locality":"Selfkant","municipality":{"key":"05370024","name":"Selfkant","type":"Kreisangehörige_Gemeinde"},"district":{"key":"05370","name":"Heinsberg","type":"Kreis"},"federalState":{"key":"05","name":"Nordrhein-Westfalen"}},]