[{"name":"Achtern Hoff","postalCode":"24796","locality":"Bovenau","municipality":{"key":"01058026","name":"Bovenau","type":"Kreisangehörige_Gemeinde"},"district":{"key":"01058","name":"Rendsburg-Eckernförde","type":"Kreis"},"federalState":{"key":"01","name":"Schleswig-Holstein"}},{"name":"Ahornallee","postalCode":"24796","locality":"Bovenau","municipality":{"key":"01058026","name":"Bovenau","type":"Kreisangehörige_Gemeinde"},"district":{"key":"01058","name":"Rendsburg-Eckernförde","type":"Kreis"},"federalState":{"key":"01","name":"Schleswig-Holstein"}},{"name":"Alte Schleuse","postalCode":"24796","locality":"Bovenau","municipality":{"key":"01058026","name":"Bovenau","type":"Kreisangehörige_Gemeinde"},"district":{"key":"01058","name":"Rendsburg-Eckernförde","type":"Kreis"},"federalState":{"key":"01","name":"Schleswig-Holstein"}},{"name":"Altmüllervieh","postalCode":"24796","locality":"Bovenau","municipality":{"key":"01058026","name":"Bovenau","type":"Kreisangehörige_Gemeinde"},"district":{"key":"01058","name":"Rendsburg-Eckernförde","type":"Kreis"},"federalState":{"key":"01","name":"Schleswig-Holstein"}},{"name":"Am Redder","postalCode":"24796","locality":"Bovenau","municipality":{"key":"01058026","name":"Bovenau","type":"Kreisangehörige_Gemeinde"},"district":{"key":"01058","name":"Rendsburg-Eckernförde","type":"Kreis"},"federalState":{"key":"01","name":"Schleswig-Holstein"}},{"name":"Am Wiesengrund","postalCode":"24796","locality":"Bovenau","municipality":{"key":"01058026","name":"Bovenau","type":"Kreisangehörige_Gemeinde"},"district":{"key":"01058","name":"Rendsburg-Eckernförde","type":"Kreis"},"federalState":{"key":"01","name":"Schleswig-Holstein"}},{"name":"An der Kirche","postalCode":"24796","locality":"Bovenau","municipality":{"key":"01058026","name":"Bovenau","type":"Kreisangehörige_Gemeinde"},"district":{"key":"01058","name":"Rendsburg-Eckernförde","type":"Kreis"},"federalState":{"key":"01","name":"Schleswig-Holstein"}},{"name":"Ehlersdorfer Ring","postalCode":"24796","locality":"Bovenau","municipality":{"key":"01058026","name":"Bovenau","type":"Kreisangehörige_Gemeinde"},"district":{"key":"01058","name":"Rendsburg-Eckernförde","type":"Kreis"},"federalState":{"key":"01","name":"Schleswig-Holstein"}},{"name":"Erlenkamp","postalCode":"24796","locality":"Bovenau","municipality":{"key":"01058026","name":"Bovenau","type":"Kreisangehörige_Gemeinde"},"district":{"key":"01058","name":"Rendsburg-Eckernförde","type":"Kreis"},"federalState":{"key":"01","name":"Schleswig-Holstein"}},{"name":"Fasanenweg","postalCode":"24796","locality":"Bovenau","municipality":{"key":"01058026","name":"Bovenau","type":"Kreisangehörige_Gemeinde"},"district":{"key":"01058","name":"Rendsburg-Eckernförde","type":"Kreis"},"federalState":{"key":"01","name":"Schleswig-Holstein"}},{"name":"Georgenthal","postalCode":"24796","locality":"Bovenau","municipality":{"key":"01058026","name":"Bovenau","type":"Kreisangehörige_Gemeinde"},"district":{"key":"01058","name":"Rendsburg-Eckernförde","type":"Kreis"},"federalState":{"key":"01","name":"Schleswig-Holstein"}},{"name":"Hofweg","postalCode":"24796","locality":"Bovenau","municipality":{"key":"01058026","name":"Bovenau","type":"Kreisangehörige_Gemeinde"},"district":{"key":"01058","name":"Rendsburg-Eckernförde","type":"Kreis"},"federalState":{"key":"01","name":"Schleswig-Holstein"}},{"name":"Horst","postalCode":"24796","locality":"Bovenau","municipality":{"key":"01058026","name":"Bovenau","type":"Kreisangehörige_Gemeinde"},"district":{"key":"01058","name":"Rendsburg-Eckernförde","type":"Kreis"},"federalState":{"key":"01","name":"Schleswig-Holstein"}},{"name":"Im Winkel","postalCode":"24796","locality":"Bovenau","municipality":{"key":"01058026","name":"Bovenau","type":"Kreisangehörige_Gemeinde"},"district":{"key":"01058","name":"Rendsburg-Eckernförde","type":"Kreis"},"federalState":{"key":"01","name":"Schleswig-Holstein"}},{"name":"In de Grund","postalCode":"24796","locality":"Bovenau","municipality":{"key":"01058026","name":"Bovenau","type":"Kreisangehörige_Gemeinde"},"district":{"key":"01058","name":"Rendsburg-Eckernförde","type":"Kreis"},"federalState":{"key":"01","name":"Schleswig-Holstein"}},{"name":"Karinshöh","postalCode":"24796","locality":"Bovenau","municipality":{"key":"01058026","name":"Bovenau","type":"Kreisangehörige_Gemeinde"},"district":{"key":"01058","name":"Rendsburg-Eckernförde","type":"Kreis"},"federalState":{"key":"01","name":"Schleswig-Holstein"}},{"name":"Katharinenborn","postalCode":"24796","locality":"Bovenau","municipality":{"key":"01058026","name":"Bovenau","type":"Kreisangehörige_Gemeinde"},"district":{"key":"01058","name":"Rendsburg-Eckernförde","type":"Kreis"},"federalState":{"key":"01","name":"Schleswig-Holstein"}},{"name":"Kieler Str.","postalCode":"24796","locality":"Bovenau","municipality":{"key":"01058026","name":"Bovenau","type":"Kreisangehörige_Gemeinde"},"district":{"key":"01058","name":"Rendsburg-Eckernförde","type":"Kreis"},"federalState":{"key":"01","name":"Schleswig-Holstein"}},{"name":"Langenrade","postalCode":"24796","locality":"Bovenau","municipality":{"key":"01058026","name":"Bovenau","type":"Kreisangehörige_Gemeinde"},"district":{"key":"01058","name":"Rendsburg-Eckernförde","type":"Kreis"},"federalState":{"key":"01","name":"Schleswig-Holstein"}},{"name":"Langkoppel","postalCode":"24796","locality":"Bovenau","municipality":{"key":"01058026","name":"Bovenau","type":"Kreisangehörige_Gemeinde"},"district":{"key":"01058","name":"Rendsburg-Eckernförde","type":"Kreis"},"federalState":{"key":"01","name":"Schleswig-Holstein"}},{"name":"Nachtigallenweg","postalCode":"24796","locality":"Bovenau","municipality":{"key":"01058026","name":"Bovenau","type":"Kreisangehörige_Gemeinde"},"district":{"key":"01058","name":"Rendsburg-Eckernförde","type":"Kreis"},"federalState":{"key":"01","name":"Schleswig-Holstein"}},{"name":"Neuland","postalCode":"24796","locality":"Bovenau","municipality":{"key":"01058026","name":"Bovenau","type":"Kreisangehörige_Gemeinde"},"district":{"key":"01058","name":"Rendsburg-Eckernförde","type":"Kreis"},"federalState":{"key":"01","name":"Schleswig-Holstein"}},{"name":"No de Masch","postalCode":"24796","locality":"Bovenau","municipality":{"key":"01058026","name":"Bovenau","type":"Kreisangehörige_Gemeinde"},"district":{"key":"01058","name":"Rendsburg-Eckernförde","type":"Kreis"},"federalState":{"key":"01","name":"Schleswig-Holstein"}},{"name":"No de Schmed","postalCode":"24796","locality":"Bovenau","municipality":{"key":"01058026","name":"Bovenau","type":"Kreisangehörige_Gemeinde"},"district":{"key":"01058","name":"Rendsburg-Eckernförde","type":"Kreis"},"federalState":{"key":"01","name":"Schleswig-Holstein"}},{"name":"Rendsburger Str.","postalCode":"24796","locality":"Bovenau","municipality":{"key":"01058026","name":"Bovenau","type":"Kreisangehörige_Gemeinde"},"district":{"key":"01058","name":"Rendsburg-Eckernförde","type":"Kreis"},"federalState":{"key":"01","name":"Schleswig-Holstein"}},{"name":"Rosenberg","postalCode":"24796","locality":"Bovenau","municipality":{"key":"01058026","name":"Bovenau","type":"Kreisangehörige_Gemeinde"},"district":{"key":"01058","name":"Rendsburg-Eckernförde","type":"Kreis"},"federalState":{"key":"01","name":"Schleswig-Holstein"}},{"name":"Sehestedter Str.","postalCode":"24796","locality":"Bovenau","municipality":{"key":"01058026","name":"Bovenau","type":"Kreisangehörige_Gemeinde"},"district":{"key":"01058","name":"Rendsburg-Eckernförde","type":"Kreis"},"federalState":{"key":"01","name":"Schleswig-Holstein"}},{"name":"Wakendorf","postalCode":"24796","locality":"Bovenau","municipality":{"key":"01058026","name":"Bovenau","type":"Kreisangehörige_Gemeinde"},"district":{"key":"01058","name":"Rendsburg-Eckernförde","type":"Kreis"},"federalState":{"key":"01","name":"Schleswig-Holstein"}},{"name":"Windmühlenberg","postalCode":"24796","locality":"Bovenau","municipality":{"key":"01058026","name":"Bovenau","type":"Kreisangehörige_Gemeinde"},"district":{"key":"01058","name":"Rendsburg-Eckernförde","type":"Kreis"},"federalState":{"key":"01","name":"Schleswig-Holstein"}},{"name":"Zur Allee","postalCode":"24796","locality":"Bovenau","municipality":{"key":"01058026","name":"Bovenau","type":"Kreisangehörige_Gemeinde"},"district":{"key":"01058","name":"Rendsburg-Eckernförde","type":"Kreis"},"federalState":{"key":"01","name":"Schleswig-Holstein"}},]