[{"name":"Aggensteinstr.","postalCode":"87640","locality":"Biessenhofen","municipality":{"key":"09777112","name":"Biessenhofen","type":"Kreisangehörige_Gemeinde"},"district":{"key":"09777","name":"Ostallgäu","type":"Landkreis"},"federalState":{"key":"09","name":"Bayern"}},{"name":"Ahornstr.","postalCode":"87640","locality":"Biessenhofen","municipality":{"key":"09777112","name":"Biessenhofen","type":"Kreisangehörige_Gemeinde"},"district":{"key":"09777","name":"Ostallgäu","type":"Landkreis"},"federalState":{"key":"09","name":"Bayern"}},{"name":"Aitranger Str.","postalCode":"87640","locality":"Biessenhofen","municipality":{"key":"09777112","name":"Biessenhofen","type":"Kreisangehörige_Gemeinde"},"district":{"key":"09777","name":"Ostallgäu","type":"Landkreis"},"federalState":{"key":"09","name":"Bayern"}},{"name":"Alemannenstr.","postalCode":"87640","locality":"Biessenhofen","municipality":{"key":"09777112","name":"Biessenhofen","type":"Kreisangehörige_Gemeinde"},"district":{"key":"09777","name":"Ostallgäu","type":"Landkreis"},"federalState":{"key":"09","name":"Bayern"}},{"name":"Allgäuer Str.","postalCode":"87640","locality":"Biessenhofen","municipality":{"key":"09777112","name":"Biessenhofen","type":"Kreisangehörige_Gemeinde"},"district":{"key":"09777","name":"Ostallgäu","type":"Landkreis"},"federalState":{"key":"09","name":"Bayern"}},{"name":"Alpenstr.","postalCode":"87640","locality":"Biessenhofen","municipality":{"key":"09777112","name":"Biessenhofen","type":"Kreisangehörige_Gemeinde"},"district":{"key":"09777","name":"Ostallgäu","type":"Landkreis"},"federalState":{"key":"09","name":"Bayern"}},{"name":"Alpursaweg","postalCode":"87640","locality":"Biessenhofen","municipality":{"key":"09777112","name":"Biessenhofen","type":"Kreisangehörige_Gemeinde"},"district":{"key":"09777","name":"Ostallgäu","type":"Landkreis"},"federalState":{"key":"09","name":"Bayern"}},{"name":"Altdorfer Str.","postalCode":"87640","locality":"Biessenhofen","municipality":{"key":"09777112","name":"Biessenhofen","type":"Kreisangehörige_Gemeinde"},"district":{"key":"09777","name":"Ostallgäu","type":"Landkreis"},"federalState":{"key":"09","name":"Bayern"}},{"name":"Alte Marktoberdorfer Str.","postalCode":"87640","locality":"Biessenhofen","municipality":{"key":"09777112","name":"Biessenhofen","type":"Kreisangehörige_Gemeinde"},"district":{"key":"09777","name":"Ostallgäu","type":"Landkreis"},"federalState":{"key":"09","name":"Bayern"}},{"name":"Altnachweg","postalCode":"87640","locality":"Biessenhofen","municipality":{"key":"09777112","name":"Biessenhofen","type":"Kreisangehörige_Gemeinde"},"district":{"key":"09777","name":"Ostallgäu","type":"Landkreis"},"federalState":{"key":"09","name":"Bayern"}},{"name":"Am Alten Wehr","postalCode":"87640","locality":"Biessenhofen","municipality":{"key":"09777112","name":"Biessenhofen","type":"Kreisangehörige_Gemeinde"},"district":{"key":"09777","name":"Ostallgäu","type":"Landkreis"},"federalState":{"key":"09","name":"Bayern"}},{"name":"Am Bächle","postalCode":"87640","locality":"Biessenhofen","municipality":{"key":"09777112","name":"Biessenhofen","type":"Kreisangehörige_Gemeinde"},"district":{"key":"09777","name":"Ostallgäu","type":"Landkreis"},"federalState":{"key":"09","name":"Bayern"}},{"name":"Am Berg","postalCode":"87640","locality":"Biessenhofen","municipality":{"key":"09777112","name":"Biessenhofen","type":"Kreisangehörige_Gemeinde"},"district":{"key":"09777","name":"Ostallgäu","type":"Landkreis"},"federalState":{"key":"09","name":"Bayern"}},{"name":"Am Hang","postalCode":"87640","locality":"Biessenhofen","municipality":{"key":"09777112","name":"Biessenhofen","type":"Kreisangehörige_Gemeinde"},"district":{"key":"09777","name":"Ostallgäu","type":"Landkreis"},"federalState":{"key":"09","name":"Bayern"}},{"name":"Am Mühlbach","postalCode":"87640","locality":"Biessenhofen","municipality":{"key":"09777112","name":"Biessenhofen","type":"Kreisangehörige_Gemeinde"},"district":{"key":"09777","name":"Ostallgäu","type":"Landkreis"},"federalState":{"key":"09","name":"Bayern"}},{"name":"Am Ramersberg","postalCode":"87640","locality":"Biessenhofen","municipality":{"key":"09777112","name":"Biessenhofen","type":"Kreisangehörige_Gemeinde"},"district":{"key":"09777","name":"Ostallgäu","type":"Landkreis"},"federalState":{"key":"09","name":"Bayern"}},{"name":"An der Säge","postalCode":"87640","locality":"Biessenhofen","municipality":{"key":"09777112","name":"Biessenhofen","type":"Kreisangehörige_Gemeinde"},"district":{"key":"09777","name":"Ostallgäu","type":"Landkreis"},"federalState":{"key":"09","name":"Bayern"}},{"name":"An der Schanze","postalCode":"87640","locality":"Biessenhofen","municipality":{"key":"09777112","name":"Biessenhofen","type":"Kreisangehörige_Gemeinde"},"district":{"key":"09777","name":"Ostallgäu","type":"Landkreis"},"federalState":{"key":"09","name":"Bayern"}},{"name":"An der Stegmühle","postalCode":"87640","locality":"Biessenhofen","municipality":{"key":"09777112","name":"Biessenhofen","type":"Kreisangehörige_Gemeinde"},"district":{"key":"09777","name":"Ostallgäu","type":"Landkreis"},"federalState":{"key":"09","name":"Bayern"}},{"name":"Andreasweg","postalCode":"87640","locality":"Biessenhofen","municipality":{"key":"09777112","name":"Biessenhofen","type":"Kreisangehörige_Gemeinde"},"district":{"key":"09777","name":"Ostallgäu","type":"Landkreis"},"federalState":{"key":"09","name":"Bayern"}},{"name":"Auenweg","postalCode":"87640","locality":"Biessenhofen","municipality":{"key":"09777112","name":"Biessenhofen","type":"Kreisangehörige_Gemeinde"},"district":{"key":"09777","name":"Ostallgäu","type":"Landkreis"},"federalState":{"key":"09","name":"Bayern"}},{"name":"Auerbergweg","postalCode":"87640","locality":"Biessenhofen","municipality":{"key":"09777112","name":"Biessenhofen","type":"Kreisangehörige_Gemeinde"},"district":{"key":"09777","name":"Ostallgäu","type":"Landkreis"},"federalState":{"key":"09","name":"Bayern"}},{"name":"Aulaichstr.","postalCode":"87640","locality":"Biessenhofen","municipality":{"key":"09777112","name":"Biessenhofen","type":"Kreisangehörige_Gemeinde"},"district":{"key":"09777","name":"Ostallgäu","type":"Landkreis"},"federalState":{"key":"09","name":"Bayern"}},{"name":"Bachweg","postalCode":"87640","locality":"Biessenhofen","municipality":{"key":"09777112","name":"Biessenhofen","type":"Kreisangehörige_Gemeinde"},"district":{"key":"09777","name":"Ostallgäu","type":"Landkreis"},"federalState":{"key":"09","name":"Bayern"}},{"name":"Bahnhofstr.","postalCode":"87640","locality":"Biessenhofen","municipality":{"key":"09777112","name":"Biessenhofen","type":"Kreisangehörige_Gemeinde"},"district":{"key":"09777","name":"Ostallgäu","type":"Landkreis"},"federalState":{"key":"09","name":"Bayern"}},{"name":"Bahnhofweg","postalCode":"87640","locality":"Biessenhofen","municipality":{"key":"09777112","name":"Biessenhofen","type":"Kreisangehörige_Gemeinde"},"district":{"key":"09777","name":"Ostallgäu","type":"Landkreis"},"federalState":{"key":"09","name":"Bayern"}},{"name":"Bahnleite","postalCode":"87640","locality":"Biessenhofen","municipality":{"key":"09777112","name":"Biessenhofen","type":"Kreisangehörige_Gemeinde"},"district":{"key":"09777","name":"Ostallgäu","type":"Landkreis"},"federalState":{"key":"09","name":"Bayern"}},{"name":"Bästin-Kuns-Weg","postalCode":"87640","locality":"Biessenhofen","municipality":{"key":"09777112","name":"Biessenhofen","type":"Kreisangehörige_Gemeinde"},"district":{"key":"09777","name":"Ostallgäu","type":"Landkreis"},"federalState":{"key":"09","name":"Bayern"}},{"name":"Beim Schimmelhof","postalCode":"87640","locality":"Biessenhofen","municipality":{"key":"09777112","name":"Biessenhofen","type":"Kreisangehörige_Gemeinde"},"district":{"key":"09777","name":"Ostallgäu","type":"Landkreis"},"federalState":{"key":"09","name":"Bayern"}},{"name":"Beim Weiß","postalCode":"87640","locality":"Biessenhofen","municipality":{"key":"09777112","name":"Biessenhofen","type":"Kreisangehörige_Gemeinde"},"district":{"key":"09777","name":"Ostallgäu","type":"Landkreis"},"federalState":{"key":"09","name":"Bayern"}},{"name":"Benzenauerweg","postalCode":"87640","locality":"Biessenhofen","municipality":{"key":"09777112","name":"Biessenhofen","type":"Kreisangehörige_Gemeinde"},"district":{"key":"09777","name":"Ostallgäu","type":"Landkreis"},"federalState":{"key":"09","name":"Bayern"}},{"name":"Berggassenweg","postalCode":"87640","locality":"Biessenhofen","municipality":{"key":"09777112","name":"Biessenhofen","type":"Kreisangehörige_Gemeinde"},"district":{"key":"09777","name":"Ostallgäu","type":"Landkreis"},"federalState":{"key":"09","name":"Bayern"}},{"name":"Bernbacher Str.","postalCode":"87640","locality":"Biessenhofen","municipality":{"key":"09777112","name":"Biessenhofen","type":"Kreisangehörige_Gemeinde"},"district":{"key":"09777","name":"Ostallgäu","type":"Landkreis"},"federalState":{"key":"09","name":"Bayern"}},{"name":"Bernbacher Weg","postalCode":"87640","locality":"Biessenhofen","municipality":{"key":"09777112","name":"Biessenhofen","type":"Kreisangehörige_Gemeinde"},"district":{"key":"09777","name":"Ostallgäu","type":"Landkreis"},"federalState":{"key":"09","name":"Bayern"}},{"name":"Besselstr.","postalCode":"87640","locality":"Biessenhofen","municipality":{"key":"09777112","name":"Biessenhofen","type":"Kreisangehörige_Gemeinde"},"district":{"key":"09777","name":"Ostallgäu","type":"Landkreis"},"federalState":{"key":"09","name":"Bayern"}},{"name":"Breitenbergstr.","postalCode":"87640","locality":"Biessenhofen","municipality":{"key":"09777112","name":"Biessenhofen","type":"Kreisangehörige_Gemeinde"},"district":{"key":"09777","name":"Ostallgäu","type":"Landkreis"},"federalState":{"key":"09","name":"Bayern"}},{"name":"Brunnenstr.","postalCode":"87640","locality":"Biessenhofen","municipality":{"key":"09777112","name":"Biessenhofen","type":"Kreisangehörige_Gemeinde"},"district":{"key":"09777","name":"Ostallgäu","type":"Landkreis"},"federalState":{"key":"09","name":"Bayern"}},{"name":"Dammweg","postalCode":"87640","locality":"Biessenhofen","municipality":{"key":"09777112","name":"Biessenhofen","type":"Kreisangehörige_Gemeinde"},"district":{"key":"09777","name":"Ostallgäu","type":"Landkreis"},"federalState":{"key":"09","name":"Bayern"}},{"name":"Dietweg","postalCode":"87640","locality":"Biessenhofen","municipality":{"key":"09777112","name":"Biessenhofen","type":"Kreisangehörige_Gemeinde"},"district":{"key":"09777","name":"Ostallgäu","type":"Landkreis"},"federalState":{"key":"09","name":"Bayern"}},{"name":"Dorfstr.","postalCode":"87640","locality":"Biessenhofen","municipality":{"key":"09777112","name":"Biessenhofen","type":"Kreisangehörige_Gemeinde"},"district":{"key":"09777","name":"Ostallgäu","type":"Landkreis"},"federalState":{"key":"09","name":"Bayern"}},{"name":"Ebenhofener Str.","postalCode":"87640","locality":"Biessenhofen","municipality":{"key":"09777112","name":"Biessenhofen","type":"Kreisangehörige_Gemeinde"},"district":{"key":"09777","name":"Ostallgäu","type":"Landkreis"},"federalState":{"key":"09","name":"Bayern"}},{"name":"Eberleweg","postalCode":"87640","locality":"Biessenhofen","municipality":{"key":"09777112","name":"Biessenhofen","type":"Kreisangehörige_Gemeinde"},"district":{"key":"09777","name":"Ostallgäu","type":"Landkreis"},"federalState":{"key":"09","name":"Bayern"}},{"name":"Egatweg","postalCode":"87640","locality":"Biessenhofen","municipality":{"key":"09777112","name":"Biessenhofen","type":"Kreisangehörige_Gemeinde"},"district":{"key":"09777","name":"Ostallgäu","type":"Landkreis"},"federalState":{"key":"09","name":"Bayern"}},{"name":"Eisenbahnweg","postalCode":"87640","locality":"Biessenhofen","municipality":{"key":"09777112","name":"Biessenhofen","type":"Kreisangehörige_Gemeinde"},"district":{"key":"09777","name":"Ostallgäu","type":"Landkreis"},"federalState":{"key":"09","name":"Bayern"}},{"name":"Esconestr.","postalCode":"87640","locality":"Biessenhofen","municipality":{"key":"09777112","name":"Biessenhofen","type":"Kreisangehörige_Gemeinde"},"district":{"key":"09777","name":"Ostallgäu","type":"Landkreis"},"federalState":{"key":"09","name":"Bayern"}},{"name":"Falkensteinstr.","postalCode":"87640","locality":"Biessenhofen","municipality":{"key":"09777112","name":"Biessenhofen","type":"Kreisangehörige_Gemeinde"},"district":{"key":"09777","name":"Ostallgäu","type":"Landkreis"},"federalState":{"key":"09","name":"Bayern"}},{"name":"Feldbauerstr.","postalCode":"87640","locality":"Biessenhofen","municipality":{"key":"09777112","name":"Biessenhofen","type":"Kreisangehörige_Gemeinde"},"district":{"key":"09777","name":"Ostallgäu","type":"Landkreis"},"federalState":{"key":"09","name":"Bayern"}},{"name":"Freibergweg","postalCode":"87640","locality":"Biessenhofen","municipality":{"key":"09777112","name":"Biessenhofen","type":"Kreisangehörige_Gemeinde"},"district":{"key":"09777","name":"Ostallgäu","type":"Landkreis"},"federalState":{"key":"09","name":"Bayern"}},{"name":"Friedhofweg","postalCode":"87640","locality":"Biessenhofen","municipality":{"key":"09777112","name":"Biessenhofen","type":"Kreisangehörige_Gemeinde"},"district":{"key":"09777","name":"Ostallgäu","type":"Landkreis"},"federalState":{"key":"09","name":"Bayern"}},{"name":"Füssener Str.","postalCode":"87640","locality":"Biessenhofen","municipality":{"key":"09777112","name":"Biessenhofen","type":"Kreisangehörige_Gemeinde"},"district":{"key":"09777","name":"Ostallgäu","type":"Landkreis"},"federalState":{"key":"09","name":"Bayern"}},{"name":"Gartenweg","postalCode":"87640","locality":"Biessenhofen","municipality":{"key":"09777112","name":"Biessenhofen","type":"Kreisangehörige_Gemeinde"},"district":{"key":"09777","name":"Ostallgäu","type":"Landkreis"},"federalState":{"key":"09","name":"Bayern"}},{"name":"Gaußstr.","postalCode":"87640","locality":"Biessenhofen","municipality":{"key":"09777112","name":"Biessenhofen","type":"Kreisangehörige_Gemeinde"},"district":{"key":"09777","name":"Ostallgäu","type":"Landkreis"},"federalState":{"key":"09","name":"Bayern"}},{"name":"Geisenhofener Str.","postalCode":"87640","locality":"Biessenhofen","municipality":{"key":"09777112","name":"Biessenhofen","type":"Kreisangehörige_Gemeinde"},"district":{"key":"09777","name":"Ostallgäu","type":"Landkreis"},"federalState":{"key":"09","name":"Bayern"}},{"name":"Geltnachstr.","postalCode":"87640","locality":"Biessenhofen","municipality":{"key":"09777112","name":"Biessenhofen","type":"Kreisangehörige_Gemeinde"},"district":{"key":"09777","name":"Ostallgäu","type":"Landkreis"},"federalState":{"key":"09","name":"Bayern"}},{"name":"Gewerbepark","postalCode":"87640","locality":"Biessenhofen","municipality":{"key":"09777112","name":"Biessenhofen","type":"Kreisangehörige_Gemeinde"},"district":{"key":"09777","name":"Ostallgäu","type":"Landkreis"},"federalState":{"key":"09","name":"Bayern"}},{"name":"Grüntenstr.","postalCode":"87640","locality":"Biessenhofen","municipality":{"key":"09777112","name":"Biessenhofen","type":"Kreisangehörige_Gemeinde"},"district":{"key":"09777","name":"Ostallgäu","type":"Landkreis"},"federalState":{"key":"09","name":"Bayern"}},{"name":"Haldenfeld","postalCode":"87640","locality":"Biessenhofen","municipality":{"key":"09777112","name":"Biessenhofen","type":"Kreisangehörige_Gemeinde"},"district":{"key":"09777","name":"Ostallgäu","type":"Landkreis"},"federalState":{"key":"09","name":"Bayern"}},{"name":"Hardtweg","postalCode":"87640","locality":"Biessenhofen","municipality":{"key":"09777112","name":"Biessenhofen","type":"Kreisangehörige_Gemeinde"},"district":{"key":"09777","name":"Ostallgäu","type":"Landkreis"},"federalState":{"key":"09","name":"Bayern"}},{"name":"Heubrückenweg","postalCode":"87640","locality":"Biessenhofen","municipality":{"key":"09777112","name":"Biessenhofen","type":"Kreisangehörige_Gemeinde"},"district":{"key":"09777","name":"Ostallgäu","type":"Landkreis"},"federalState":{"key":"09","name":"Bayern"}},{"name":"Heuweg","postalCode":"87640","locality":"Biessenhofen","municipality":{"key":"09777112","name":"Biessenhofen","type":"Kreisangehörige_Gemeinde"},"district":{"key":"09777","name":"Ostallgäu","type":"Landkreis"},"federalState":{"key":"09","name":"Bayern"}},{"name":"Hintere Mühle","postalCode":"87640","locality":"Biessenhofen","municipality":{"key":"09777112","name":"Biessenhofen","type":"Kreisangehörige_Gemeinde"},"district":{"key":"09777","name":"Ostallgäu","type":"Landkreis"},"federalState":{"key":"09","name":"Bayern"}},{"name":"Hirtenmahdweg","postalCode":"87640","locality":"Biessenhofen","municipality":{"key":"09777112","name":"Biessenhofen","type":"Kreisangehörige_Gemeinde"},"district":{"key":"09777","name":"Ostallgäu","type":"Landkreis"},"federalState":{"key":"09","name":"Bayern"}},{"name":"Hornaustr.","postalCode":"87640","locality":"Biessenhofen","municipality":{"key":"09777112","name":"Biessenhofen","type":"Kreisangehörige_Gemeinde"},"district":{"key":"09777","name":"Ostallgäu","type":"Landkreis"},"federalState":{"key":"09","name":"Bayern"}},{"name":"Im Anger","postalCode":"87640","locality":"Biessenhofen","municipality":{"key":"09777112","name":"Biessenhofen","type":"Kreisangehörige_Gemeinde"},"district":{"key":"09777","name":"Ostallgäu","type":"Landkreis"},"federalState":{"key":"09","name":"Bayern"}},{"name":"Im Feld","postalCode":"87640","locality":"Biessenhofen","municipality":{"key":"09777112","name":"Biessenhofen","type":"Kreisangehörige_Gemeinde"},"district":{"key":"09777","name":"Ostallgäu","type":"Landkreis"},"federalState":{"key":"09","name":"Bayern"}},{"name":"In der Mühlob","postalCode":"87640","locality":"Biessenhofen","municipality":{"key":"09777112","name":"Biessenhofen","type":"Kreisangehörige_Gemeinde"},"district":{"key":"09777","name":"Ostallgäu","type":"Landkreis"},"federalState":{"key":"09","name":"Bayern"}},{"name":"Jahnstr.","postalCode":"87640","locality":"Biessenhofen","municipality":{"key":"09777112","name":"Biessenhofen","type":"Kreisangehörige_Gemeinde"},"district":{"key":"09777","name":"Ostallgäu","type":"Landkreis"},"federalState":{"key":"09","name":"Bayern"}},{"name":"Kaufbeurener Str.","postalCode":"87640","locality":"Biessenhofen","municipality":{"key":"09777112","name":"Biessenhofen","type":"Kreisangehörige_Gemeinde"},"district":{"key":"09777","name":"Ostallgäu","type":"Landkreis"},"federalState":{"key":"09","name":"Bayern"}},{"name":"Kaufbeurener Weg","postalCode":"87640","locality":"Biessenhofen","municipality":{"key":"09777112","name":"Biessenhofen","type":"Kreisangehörige_Gemeinde"},"district":{"key":"09777","name":"Ostallgäu","type":"Landkreis"},"federalState":{"key":"09","name":"Bayern"}},{"name":"Kaufbeurer Str.","postalCode":"87640","locality":"Biessenhofen","municipality":{"key":"09777112","name":"Biessenhofen","type":"Kreisangehörige_Gemeinde"},"district":{"key":"09777","name":"Ostallgäu","type":"Landkreis"},"federalState":{"key":"09","name":"Bayern"}},{"name":"Kirchensteig","postalCode":"87640","locality":"Biessenhofen","municipality":{"key":"09777112","name":"Biessenhofen","type":"Kreisangehörige_Gemeinde"},"district":{"key":"09777","name":"Ostallgäu","type":"Landkreis"},"federalState":{"key":"09","name":"Bayern"}},{"name":"Kirchenstr.","postalCode":"87640","locality":"Biessenhofen","municipality":{"key":"09777112","name":"Biessenhofen","type":"Kreisangehörige_Gemeinde"},"district":{"key":"09777","name":"Ostallgäu","type":"Landkreis"},"federalState":{"key":"09","name":"Bayern"}},{"name":"Kirnachstr.","postalCode":"87640","locality":"Biessenhofen","municipality":{"key":"09777112","name":"Biessenhofen","type":"Kreisangehörige_Gemeinde"},"district":{"key":"09777","name":"Ostallgäu","type":"Landkreis"},"federalState":{"key":"09","name":"Bayern"}},{"name":"Krumper Allee","postalCode":"87640","locality":"Biessenhofen","municipality":{"key":"09777112","name":"Biessenhofen","type":"Kreisangehörige_Gemeinde"},"district":{"key":"09777","name":"Ostallgäu","type":"Landkreis"},"federalState":{"key":"09","name":"Bayern"}},{"name":"Leibnizstr.","postalCode":"87640","locality":"Biessenhofen","municipality":{"key":"09777112","name":"Biessenhofen","type":"Kreisangehörige_Gemeinde"},"district":{"key":"09777","name":"Ostallgäu","type":"Landkreis"},"federalState":{"key":"09","name":"Bayern"}},{"name":"Lenzbauerweg","postalCode":"87640","locality":"Biessenhofen","municipality":{"key":"09777112","name":"Biessenhofen","type":"Kreisangehörige_Gemeinde"},"district":{"key":"09777","name":"Ostallgäu","type":"Landkreis"},"federalState":{"key":"09","name":"Bayern"}},{"name":"Lindenweg","postalCode":"87640","locality":"Biessenhofen","municipality":{"key":"09777112","name":"Biessenhofen","type":"Kreisangehörige_Gemeinde"},"district":{"key":"09777","name":"Ostallgäu","type":"Landkreis"},"federalState":{"key":"09","name":"Bayern"}},{"name":"Loretoweg","postalCode":"87640","locality":"Biessenhofen","municipality":{"key":"09777112","name":"Biessenhofen","type":"Kreisangehörige_Gemeinde"},"district":{"key":"09777","name":"Ostallgäu","type":"Landkreis"},"federalState":{"key":"09","name":"Bayern"}},{"name":"Markgrafenweg","postalCode":"87640","locality":"Biessenhofen","municipality":{"key":"09777112","name":"Biessenhofen","type":"Kreisangehörige_Gemeinde"},"district":{"key":"09777","name":"Ostallgäu","type":"Landkreis"},"federalState":{"key":"09","name":"Bayern"}},{"name":"Marktoberdorfer Str.","postalCode":"87640","locality":"Biessenhofen","municipality":{"key":"09777112","name":"Biessenhofen","type":"Kreisangehörige_Gemeinde"},"district":{"key":"09777","name":"Ostallgäu","type":"Landkreis"},"federalState":{"key":"09","name":"Bayern"}},{"name":"Märzenburgweg","postalCode":"87640","locality":"Biessenhofen","municipality":{"key":"09777112","name":"Biessenhofen","type":"Kreisangehörige_Gemeinde"},"district":{"key":"09777","name":"Ostallgäu","type":"Landkreis"},"federalState":{"key":"09","name":"Bayern"}},{"name":"Mitterfeldstr.","postalCode":"87640","locality":"Biessenhofen","municipality":{"key":"09777112","name":"Biessenhofen","type":"Kreisangehörige_Gemeinde"},"district":{"key":"09777","name":"Ostallgäu","type":"Landkreis"},"federalState":{"key":"09","name":"Bayern"}},{"name":"Mittlerer Weg","postalCode":"87640","locality":"Biessenhofen","municipality":{"key":"09777112","name":"Biessenhofen","type":"Kreisangehörige_Gemeinde"},"district":{"key":"09777","name":"Ostallgäu","type":"Landkreis"},"federalState":{"key":"09","name":"Bayern"}},{"name":"Mühlenstr.","postalCode":"87640","locality":"Biessenhofen","municipality":{"key":"09777112","name":"Biessenhofen","type":"Kreisangehörige_Gemeinde"},"district":{"key":"09777","name":"Ostallgäu","type":"Landkreis"},"federalState":{"key":"09","name":"Bayern"}},{"name":"Mühltalweg","postalCode":"87640","locality":"Biessenhofen","municipality":{"key":"09777112","name":"Biessenhofen","type":"Kreisangehörige_Gemeinde"},"district":{"key":"09777","name":"Ostallgäu","type":"Landkreis"},"federalState":{"key":"09","name":"Bayern"}},{"name":"Nebelhornstr.","postalCode":"87640","locality":"Biessenhofen","municipality":{"key":"09777112","name":"Biessenhofen","type":"Kreisangehörige_Gemeinde"},"district":{"key":"09777","name":"Ostallgäu","type":"Landkreis"},"federalState":{"key":"09","name":"Bayern"}},{"name":"Obere Bahnhofstr.","postalCode":"87640","locality":"Biessenhofen","municipality":{"key":"09777112","name":"Biessenhofen","type":"Kreisangehörige_Gemeinde"},"district":{"key":"09777","name":"Ostallgäu","type":"Landkreis"},"federalState":{"key":"09","name":"Bayern"}},{"name":"Ottilienberg","postalCode":"87640","locality":"Biessenhofen","municipality":{"key":"09777112","name":"Biessenhofen","type":"Kreisangehörige_Gemeinde"},"district":{"key":"09777","name":"Ostallgäu","type":"Landkreis"},"federalState":{"key":"09","name":"Bayern"}},{"name":"Paradiesinsel","postalCode":"87640","locality":"Biessenhofen","municipality":{"key":"09777112","name":"Biessenhofen","type":"Kreisangehörige_Gemeinde"},"district":{"key":"09777","name":"Ostallgäu","type":"Landkreis"},"federalState":{"key":"09","name":"Bayern"}},{"name":"Pfarrer-Wilhalm-Weg","postalCode":"87640","locality":"Biessenhofen","municipality":{"key":"09777112","name":"Biessenhofen","type":"Kreisangehörige_Gemeinde"},"district":{"key":"09777","name":"Ostallgäu","type":"Landkreis"},"federalState":{"key":"09","name":"Bayern"}},{"name":"Poststr.","postalCode":"87640","locality":"Biessenhofen","municipality":{"key":"09777112","name":"Biessenhofen","type":"Kreisangehörige_Gemeinde"},"district":{"key":"09777","name":"Ostallgäu","type":"Landkreis"},"federalState":{"key":"09","name":"Bayern"}},{"name":"Remchingenstr.","postalCode":"87640","locality":"Biessenhofen","municipality":{"key":"09777112","name":"Biessenhofen","type":"Kreisangehörige_Gemeinde"},"district":{"key":"09777","name":"Ostallgäu","type":"Landkreis"},"federalState":{"key":"09","name":"Bayern"}},{"name":"Ringweg","postalCode":"87640","locality":"Biessenhofen","municipality":{"key":"09777112","name":"Biessenhofen","type":"Kreisangehörige_Gemeinde"},"district":{"key":"09777","name":"Ostallgäu","type":"Landkreis"},"federalState":{"key":"09","name":"Bayern"}},{"name":"Römerstr.","postalCode":"87640","locality":"Biessenhofen","municipality":{"key":"09777112","name":"Biessenhofen","type":"Kreisangehörige_Gemeinde"},"district":{"key":"09777","name":"Ostallgäu","type":"Landkreis"},"federalState":{"key":"09","name":"Bayern"}},{"name":"Rubihornweg","postalCode":"87640","locality":"Biessenhofen","municipality":{"key":"09777112","name":"Biessenhofen","type":"Kreisangehörige_Gemeinde"},"district":{"key":"09777","name":"Ostallgäu","type":"Landkreis"},"federalState":{"key":"09","name":"Bayern"}},{"name":"Ruderatshofener Str.","postalCode":"87640","locality":"Biessenhofen","municipality":{"key":"09777112","name":"Biessenhofen","type":"Kreisangehörige_Gemeinde"},"district":{"key":"09777","name":"Ostallgäu","type":"Landkreis"},"federalState":{"key":"09","name":"Bayern"}},{"name":"Säulingstr.","postalCode":"87640","locality":"Biessenhofen","municipality":{"key":"09777112","name":"Biessenhofen","type":"Kreisangehörige_Gemeinde"},"district":{"key":"09777","name":"Ostallgäu","type":"Landkreis"},"federalState":{"key":"09","name":"Bayern"}},{"name":"Schießstattstr.","postalCode":"87640","locality":"Biessenhofen","municipality":{"key":"09777112","name":"Biessenhofen","type":"Kreisangehörige_Gemeinde"},"district":{"key":"09777","name":"Ostallgäu","type":"Landkreis"},"federalState":{"key":"09","name":"Bayern"}},{"name":"Schulweg","postalCode":"87640","locality":"Biessenhofen","municipality":{"key":"09777112","name":"Biessenhofen","type":"Kreisangehörige_Gemeinde"},"district":{"key":"09777","name":"Ostallgäu","type":"Landkreis"},"federalState":{"key":"09","name":"Bayern"}},{"name":"Schützenstr.","postalCode":"87640","locality":"Biessenhofen","municipality":{"key":"09777112","name":"Biessenhofen","type":"Kreisangehörige_Gemeinde"},"district":{"key":"09777","name":"Ostallgäu","type":"Landkreis"},"federalState":{"key":"09","name":"Bayern"}},{"name":"Soldnerstr.","postalCode":"87640","locality":"Biessenhofen","municipality":{"key":"09777112","name":"Biessenhofen","type":"Kreisangehörige_Gemeinde"},"district":{"key":"09777","name":"Ostallgäu","type":"Landkreis"},"federalState":{"key":"09","name":"Bayern"}},{"name":"Sonneneck","postalCode":"87640","locality":"Biessenhofen","municipality":{"key":"09777112","name":"Biessenhofen","type":"Kreisangehörige_Gemeinde"},"district":{"key":"09777","name":"Ostallgäu","type":"Landkreis"},"federalState":{"key":"09","name":"Bayern"}},{"name":"Stockachweg","postalCode":"87640","locality":"Biessenhofen","municipality":{"key":"09777112","name":"Biessenhofen","type":"Kreisangehörige_Gemeinde"},"district":{"key":"09777","name":"Ostallgäu","type":"Landkreis"},"federalState":{"key":"09","name":"Bayern"}},{"name":"Stotzingerweg","postalCode":"87640","locality":"Biessenhofen","municipality":{"key":"09777112","name":"Biessenhofen","type":"Kreisangehörige_Gemeinde"},"district":{"key":"09777","name":"Ostallgäu","type":"Landkreis"},"federalState":{"key":"09","name":"Bayern"}},{"name":"Tegelbergweg","postalCode":"87640","locality":"Biessenhofen","municipality":{"key":"09777112","name":"Biessenhofen","type":"Kreisangehörige_Gemeinde"},"district":{"key":"09777","name":"Ostallgäu","type":"Landkreis"},"federalState":{"key":"09","name":"Bayern"}},{"name":"Unterfeld","postalCode":"87640","locality":"Biessenhofen","municipality":{"key":"09777112","name":"Biessenhofen","type":"Kreisangehörige_Gemeinde"},"district":{"key":"09777","name":"Ostallgäu","type":"Landkreis"},"federalState":{"key":"09","name":"Bayern"}},{"name":"Weberleweg","postalCode":"87640","locality":"Biessenhofen","municipality":{"key":"09777112","name":"Biessenhofen","type":"Kreisangehörige_Gemeinde"},"district":{"key":"09777","name":"Ostallgäu","type":"Landkreis"},"federalState":{"key":"09","name":"Bayern"}},{"name":"Weitfeldstr.","postalCode":"87640","locality":"Biessenhofen","municipality":{"key":"09777112","name":"Biessenhofen","type":"Kreisangehörige_Gemeinde"},"district":{"key":"09777","name":"Ostallgäu","type":"Landkreis"},"federalState":{"key":"09","name":"Bayern"}},{"name":"Wertachbogen","postalCode":"87640","locality":"Biessenhofen","municipality":{"key":"09777112","name":"Biessenhofen","type":"Kreisangehörige_Gemeinde"},"district":{"key":"09777","name":"Ostallgäu","type":"Landkreis"},"federalState":{"key":"09","name":"Bayern"}},{"name":"Wertachsteg","postalCode":"87640","locality":"Biessenhofen","municipality":{"key":"09777112","name":"Biessenhofen","type":"Kreisangehörige_Gemeinde"},"district":{"key":"09777","name":"Ostallgäu","type":"Landkreis"},"federalState":{"key":"09","name":"Bayern"}},{"name":"Wertachweg","postalCode":"87640","locality":"Biessenhofen","municipality":{"key":"09777112","name":"Biessenhofen","type":"Kreisangehörige_Gemeinde"},"district":{"key":"09777","name":"Ostallgäu","type":"Landkreis"},"federalState":{"key":"09","name":"Bayern"}},{"name":"Wiesenweg","postalCode":"87640","locality":"Biessenhofen","municipality":{"key":"09777112","name":"Biessenhofen","type":"Kreisangehörige_Gemeinde"},"district":{"key":"09777","name":"Ostallgäu","type":"Landkreis"},"federalState":{"key":"09","name":"Bayern"}},]