[{"name":"Aarstr.","postalCode":"65623","locality":"Hahnstätten","municipality":{"key":"07141051","name":"Hahnstätten","type":"Kreisangehörige_Gemeinde"},"district":{"key":"07141","name":"Rhein-Lahn-Kreis","type":"Landkreis"},"federalState":{"key":"07","name":"Rheinland-Pfalz"}},{"name":"Ahornweg","postalCode":"65623","locality":"Hahnstätten","municipality":{"key":"07141051","name":"Hahnstätten","type":"Kreisangehörige_Gemeinde"},"district":{"key":"07141","name":"Rhein-Lahn-Kreis","type":"Landkreis"},"federalState":{"key":"07","name":"Rheinland-Pfalz"}},{"name":"Akazienweg","postalCode":"65623","locality":"Hahnstätten","municipality":{"key":"07141051","name":"Hahnstätten","type":"Kreisangehörige_Gemeinde"},"district":{"key":"07141","name":"Rhein-Lahn-Kreis","type":"Landkreis"},"federalState":{"key":"07","name":"Rheinland-Pfalz"}},{"name":"Am Alten Markt","postalCode":"65623","locality":"Hahnstätten","municipality":{"key":"07141051","name":"Hahnstätten","type":"Kreisangehörige_Gemeinde"},"district":{"key":"07141","name":"Rhein-Lahn-Kreis","type":"Landkreis"},"federalState":{"key":"07","name":"Rheinland-Pfalz"}},{"name":"Am Flutgraben","postalCode":"65623","locality":"Hahnstätten","municipality":{"key":"07141051","name":"Hahnstätten","type":"Kreisangehörige_Gemeinde"},"district":{"key":"07141","name":"Rhein-Lahn-Kreis","type":"Landkreis"},"federalState":{"key":"07","name":"Rheinland-Pfalz"}},{"name":"Am Goldborn","postalCode":"65623","locality":"Hahnstätten","municipality":{"key":"07141051","name":"Hahnstätten","type":"Kreisangehörige_Gemeinde"},"district":{"key":"07141","name":"Rhein-Lahn-Kreis","type":"Landkreis"},"federalState":{"key":"07","name":"Rheinland-Pfalz"}},{"name":"Am Hang","postalCode":"65623","locality":"Hahnstätten","municipality":{"key":"07141051","name":"Hahnstätten","type":"Kreisangehörige_Gemeinde"},"district":{"key":"07141","name":"Rhein-Lahn-Kreis","type":"Landkreis"},"federalState":{"key":"07","name":"Rheinland-Pfalz"}},{"name":"Amselweg","postalCode":"65623","locality":"Hahnstätten","municipality":{"key":"07141051","name":"Hahnstätten","type":"Kreisangehörige_Gemeinde"},"district":{"key":"07141","name":"Rhein-Lahn-Kreis","type":"Landkreis"},"federalState":{"key":"07","name":"Rheinland-Pfalz"}},{"name":"Auf dem Pitzberg","postalCode":"65623","locality":"Hahnstätten","municipality":{"key":"07141051","name":"Hahnstätten","type":"Kreisangehörige_Gemeinde"},"district":{"key":"07141","name":"Rhein-Lahn-Kreis","type":"Landkreis"},"federalState":{"key":"07","name":"Rheinland-Pfalz"}},{"name":"Auf der Dahl","postalCode":"65623","locality":"Hahnstätten","municipality":{"key":"07141051","name":"Hahnstätten","type":"Kreisangehörige_Gemeinde"},"district":{"key":"07141","name":"Rhein-Lahn-Kreis","type":"Landkreis"},"federalState":{"key":"07","name":"Rheinland-Pfalz"}},{"name":"Auf der Höhe","postalCode":"65623","locality":"Hahnstätten","municipality":{"key":"07141051","name":"Hahnstätten","type":"Kreisangehörige_Gemeinde"},"district":{"key":"07141","name":"Rhein-Lahn-Kreis","type":"Landkreis"},"federalState":{"key":"07","name":"Rheinland-Pfalz"}},{"name":"Austr.","postalCode":"65623","locality":"Hahnstätten","municipality":{"key":"07141051","name":"Hahnstätten","type":"Kreisangehörige_Gemeinde"},"district":{"key":"07141","name":"Rhein-Lahn-Kreis","type":"Landkreis"},"federalState":{"key":"07","name":"Rheinland-Pfalz"}},{"name":"Bahnhofstr.","postalCode":"65623","locality":"Hahnstätten","municipality":{"key":"07141051","name":"Hahnstätten","type":"Kreisangehörige_Gemeinde"},"district":{"key":"07141","name":"Rhein-Lahn-Kreis","type":"Landkreis"},"federalState":{"key":"07","name":"Rheinland-Pfalz"}},{"name":"Birkenweg","postalCode":"65623","locality":"Hahnstätten","municipality":{"key":"07141051","name":"Hahnstätten","type":"Kreisangehörige_Gemeinde"},"district":{"key":"07141","name":"Rhein-Lahn-Kreis","type":"Landkreis"},"federalState":{"key":"07","name":"Rheinland-Pfalz"}},{"name":"Botanischer Garten Schloss Bieberstein","postalCode":"65623","locality":"Hahnstätten","municipality":{"key":"07141051","name":"Hahnstätten","type":"Kreisangehörige_Gemeinde"},"district":{"key":"07141","name":"Rhein-Lahn-Kreis","type":"Landkreis"},"federalState":{"key":"07","name":"Rheinland-Pfalz"}},{"name":"Brückengasse","postalCode":"65623","locality":"Hahnstätten","municipality":{"key":"07141051","name":"Hahnstätten","type":"Kreisangehörige_Gemeinde"},"district":{"key":"07141","name":"Rhein-Lahn-Kreis","type":"Landkreis"},"federalState":{"key":"07","name":"Rheinland-Pfalz"}},{"name":"Brückenstr.","postalCode":"65623","locality":"Hahnstätten","municipality":{"key":"07141051","name":"Hahnstätten","type":"Kreisangehörige_Gemeinde"},"district":{"key":"07141","name":"Rhein-Lahn-Kreis","type":"Landkreis"},"federalState":{"key":"07","name":"Rheinland-Pfalz"}},{"name":"Buchenweg","postalCode":"65623","locality":"Hahnstätten","municipality":{"key":"07141051","name":"Hahnstätten","type":"Kreisangehörige_Gemeinde"},"district":{"key":"07141","name":"Rhein-Lahn-Kreis","type":"Landkreis"},"federalState":{"key":"07","name":"Rheinland-Pfalz"}},{"name":"Burgschwalbacher Str.","postalCode":"65623","locality":"Hahnstätten","municipality":{"key":"07141051","name":"Hahnstätten","type":"Kreisangehörige_Gemeinde"},"district":{"key":"07141","name":"Rhein-Lahn-Kreis","type":"Landkreis"},"federalState":{"key":"07","name":"Rheinland-Pfalz"}},{"name":"Dahlstr.","postalCode":"65623","locality":"Hahnstätten","municipality":{"key":"07141051","name":"Hahnstätten","type":"Kreisangehörige_Gemeinde"},"district":{"key":"07141","name":"Rhein-Lahn-Kreis","type":"Landkreis"},"federalState":{"key":"07","name":"Rheinland-Pfalz"}},{"name":"Falkenwalder Str.","postalCode":"65623","locality":"Hahnstätten","municipality":{"key":"07141051","name":"Hahnstätten","type":"Kreisangehörige_Gemeinde"},"district":{"key":"07141","name":"Rhein-Lahn-Kreis","type":"Landkreis"},"federalState":{"key":"07","name":"Rheinland-Pfalz"}},{"name":"Fliederweg","postalCode":"65623","locality":"Hahnstätten","municipality":{"key":"07141051","name":"Hahnstätten","type":"Kreisangehörige_Gemeinde"},"district":{"key":"07141","name":"Rhein-Lahn-Kreis","type":"Landkreis"},"federalState":{"key":"07","name":"Rheinland-Pfalz"}},{"name":"Gartenstr.","postalCode":"65623","locality":"Hahnstätten","municipality":{"key":"07141051","name":"Hahnstätten","type":"Kreisangehörige_Gemeinde"},"district":{"key":"07141","name":"Rhein-Lahn-Kreis","type":"Landkreis"},"federalState":{"key":"07","name":"Rheinland-Pfalz"}},{"name":"Goldammerweg","postalCode":"65623","locality":"Hahnstätten","municipality":{"key":"07141051","name":"Hahnstätten","type":"Kreisangehörige_Gemeinde"},"district":{"key":"07141","name":"Rhein-Lahn-Kreis","type":"Landkreis"},"federalState":{"key":"07","name":"Rheinland-Pfalz"}},{"name":"Hahnstätter Str.","postalCode":"65623","locality":"Hahnstätten","municipality":{"key":"07141051","name":"Hahnstätten","type":"Kreisangehörige_Gemeinde"},"district":{"key":"07141","name":"Rhein-Lahn-Kreis","type":"Landkreis"},"federalState":{"key":"07","name":"Rheinland-Pfalz"}},{"name":"Hof Goldborn","postalCode":"65623","locality":"Hahnstätten","municipality":{"key":"07141051","name":"Hahnstätten","type":"Kreisangehörige_Gemeinde"},"district":{"key":"07141","name":"Rhein-Lahn-Kreis","type":"Landkreis"},"federalState":{"key":"07","name":"Rheinland-Pfalz"}},{"name":"Hohlenfelsbachstr.","postalCode":"65623","locality":"Hahnstätten","municipality":{"key":"07141051","name":"Hahnstätten","type":"Kreisangehörige_Gemeinde"},"district":{"key":"07141","name":"Rhein-Lahn-Kreis","type":"Landkreis"},"federalState":{"key":"07","name":"Rheinland-Pfalz"}},{"name":"Hortensienweg","postalCode":"65623","locality":"Hahnstätten","municipality":{"key":"07141051","name":"Hahnstätten","type":"Kreisangehörige_Gemeinde"},"district":{"key":"07141","name":"Rhein-Lahn-Kreis","type":"Landkreis"},"federalState":{"key":"07","name":"Rheinland-Pfalz"}},{"name":"Hubertusweg","postalCode":"65623","locality":"Hahnstätten","municipality":{"key":"07141051","name":"Hahnstätten","type":"Kreisangehörige_Gemeinde"},"district":{"key":"07141","name":"Rhein-Lahn-Kreis","type":"Landkreis"},"federalState":{"key":"07","name":"Rheinland-Pfalz"}},{"name":"Im Hirschel","postalCode":"65623","locality":"Hahnstätten","municipality":{"key":"07141051","name":"Hahnstätten","type":"Kreisangehörige_Gemeinde"},"district":{"key":"07141","name":"Rhein-Lahn-Kreis","type":"Landkreis"},"federalState":{"key":"07","name":"Rheinland-Pfalz"}},{"name":"In den Wingerten","postalCode":"65623","locality":"Hahnstätten","municipality":{"key":"07141051","name":"Hahnstätten","type":"Kreisangehörige_Gemeinde"},"district":{"key":"07141","name":"Rhein-Lahn-Kreis","type":"Landkreis"},"federalState":{"key":"07","name":"Rheinland-Pfalz"}},{"name":"In der Bashell","postalCode":"65623","locality":"Hahnstätten","municipality":{"key":"07141051","name":"Hahnstätten","type":"Kreisangehörige_Gemeinde"},"district":{"key":"07141","name":"Rhein-Lahn-Kreis","type":"Landkreis"},"federalState":{"key":"07","name":"Rheinland-Pfalz"}},{"name":"In der Schliem","postalCode":"65623","locality":"Hahnstätten","municipality":{"key":"07141051","name":"Hahnstätten","type":"Kreisangehörige_Gemeinde"},"district":{"key":"07141","name":"Rhein-Lahn-Kreis","type":"Landkreis"},"federalState":{"key":"07","name":"Rheinland-Pfalz"}},{"name":"Jahnstr.","postalCode":"65623","locality":"Hahnstätten","municipality":{"key":"07141051","name":"Hahnstätten","type":"Kreisangehörige_Gemeinde"},"district":{"key":"07141","name":"Rhein-Lahn-Kreis","type":"Landkreis"},"federalState":{"key":"07","name":"Rheinland-Pfalz"}},{"name":"Kirchgasse","postalCode":"65623","locality":"Hahnstätten","municipality":{"key":"07141051","name":"Hahnstätten","type":"Kreisangehörige_Gemeinde"},"district":{"key":"07141","name":"Rhein-Lahn-Kreis","type":"Landkreis"},"federalState":{"key":"07","name":"Rheinland-Pfalz"}},{"name":"Klapperfeldstr.","postalCode":"65623","locality":"Hahnstätten","municipality":{"key":"07141051","name":"Hahnstätten","type":"Kreisangehörige_Gemeinde"},"district":{"key":"07141","name":"Rhein-Lahn-Kreis","type":"Landkreis"},"federalState":{"key":"07","name":"Rheinland-Pfalz"}},{"name":"Kolberger Str.","postalCode":"65623","locality":"Hahnstätten","municipality":{"key":"07141051","name":"Hahnstätten","type":"Kreisangehörige_Gemeinde"},"district":{"key":"07141","name":"Rhein-Lahn-Kreis","type":"Landkreis"},"federalState":{"key":"07","name":"Rheinland-Pfalz"}},{"name":"Kösliner Str.","postalCode":"65623","locality":"Hahnstätten","municipality":{"key":"07141051","name":"Hahnstätten","type":"Kreisangehörige_Gemeinde"},"district":{"key":"07141","name":"Rhein-Lahn-Kreis","type":"Landkreis"},"federalState":{"key":"07","name":"Rheinland-Pfalz"}},{"name":"Lilienweg","postalCode":"65623","locality":"Hahnstätten","municipality":{"key":"07141051","name":"Hahnstätten","type":"Kreisangehörige_Gemeinde"},"district":{"key":"07141","name":"Rhein-Lahn-Kreis","type":"Landkreis"},"federalState":{"key":"07","name":"Rheinland-Pfalz"}},{"name":"Lindenweg","postalCode":"65623","locality":"Hahnstätten","municipality":{"key":"07141051","name":"Hahnstätten","type":"Kreisangehörige_Gemeinde"},"district":{"key":"07141","name":"Rhein-Lahn-Kreis","type":"Landkreis"},"federalState":{"key":"07","name":"Rheinland-Pfalz"}},{"name":"Löhweg","postalCode":"65623","locality":"Hahnstätten","municipality":{"key":"07141051","name":"Hahnstätten","type":"Kreisangehörige_Gemeinde"},"district":{"key":"07141","name":"Rhein-Lahn-Kreis","type":"Landkreis"},"federalState":{"key":"07","name":"Rheinland-Pfalz"}},{"name":"Marktstr.","postalCode":"65623","locality":"Hahnstätten","municipality":{"key":"07141051","name":"Hahnstätten","type":"Kreisangehörige_Gemeinde"},"district":{"key":"07141","name":"Rhein-Lahn-Kreis","type":"Landkreis"},"federalState":{"key":"07","name":"Rheinland-Pfalz"}},{"name":"Mühlgasse","postalCode":"65623","locality":"Hahnstätten","municipality":{"key":"07141051","name":"Hahnstätten","type":"Kreisangehörige_Gemeinde"},"district":{"key":"07141","name":"Rhein-Lahn-Kreis","type":"Landkreis"},"federalState":{"key":"07","name":"Rheinland-Pfalz"}},{"name":"Netzbacher Str.","postalCode":"65623","locality":"Hahnstätten","municipality":{"key":"07141051","name":"Hahnstätten","type":"Kreisangehörige_Gemeinde"},"district":{"key":"07141","name":"Rhein-Lahn-Kreis","type":"Landkreis"},"federalState":{"key":"07","name":"Rheinland-Pfalz"}},{"name":"Nußbergstr.","postalCode":"65623","locality":"Hahnstätten","municipality":{"key":"07141051","name":"Hahnstätten","type":"Kreisangehörige_Gemeinde"},"district":{"key":"07141","name":"Rhein-Lahn-Kreis","type":"Landkreis"},"federalState":{"key":"07","name":"Rheinland-Pfalz"}},{"name":"Ober der Ölmühle","postalCode":"65623","locality":"Hahnstätten","municipality":{"key":"07141051","name":"Hahnstätten","type":"Kreisangehörige_Gemeinde"},"district":{"key":"07141","name":"Rhein-Lahn-Kreis","type":"Landkreis"},"federalState":{"key":"07","name":"Rheinland-Pfalz"}},{"name":"Oberneiser Str.","postalCode":"65623","locality":"Hahnstätten","municipality":{"key":"07141051","name":"Hahnstätten","type":"Kreisangehörige_Gemeinde"},"district":{"key":"07141","name":"Rhein-Lahn-Kreis","type":"Landkreis"},"federalState":{"key":"07","name":"Rheinland-Pfalz"}},{"name":"Ochsewaadweg","postalCode":"65623","locality":"Hahnstätten","municipality":{"key":"07141051","name":"Hahnstätten","type":"Kreisangehörige_Gemeinde"},"district":{"key":"07141","name":"Rhein-Lahn-Kreis","type":"Landkreis"},"federalState":{"key":"07","name":"Rheinland-Pfalz"}},{"name":"Pitzgasse","postalCode":"65623","locality":"Hahnstätten","municipality":{"key":"07141051","name":"Hahnstätten","type":"Kreisangehörige_Gemeinde"},"district":{"key":"07141","name":"Rhein-Lahn-Kreis","type":"Landkreis"},"federalState":{"key":"07","name":"Rheinland-Pfalz"}},{"name":"Regenwalder Str.","postalCode":"65623","locality":"Hahnstätten","municipality":{"key":"07141051","name":"Hahnstätten","type":"Kreisangehörige_Gemeinde"},"district":{"key":"07141","name":"Rhein-Lahn-Kreis","type":"Landkreis"},"federalState":{"key":"07","name":"Rheinland-Pfalz"}},{"name":"Rheinstr.","postalCode":"65623","locality":"Hahnstätten","municipality":{"key":"07141051","name":"Hahnstätten","type":"Kreisangehörige_Gemeinde"},"district":{"key":"07141","name":"Rhein-Lahn-Kreis","type":"Landkreis"},"federalState":{"key":"07","name":"Rheinland-Pfalz"}},{"name":"Ringstr.","postalCode":"65623","locality":"Hahnstätten","municipality":{"key":"07141051","name":"Hahnstätten","type":"Kreisangehörige_Gemeinde"},"district":{"key":"07141","name":"Rhein-Lahn-Kreis","type":"Landkreis"},"federalState":{"key":"07","name":"Rheinland-Pfalz"}},{"name":"Rößlerstr.","postalCode":"65623","locality":"Hahnstätten","municipality":{"key":"07141051","name":"Hahnstätten","type":"Kreisangehörige_Gemeinde"},"district":{"key":"07141","name":"Rhein-Lahn-Kreis","type":"Landkreis"},"federalState":{"key":"07","name":"Rheinland-Pfalz"}},{"name":"Schinnergass","postalCode":"65623","locality":"Hahnstätten","municipality":{"key":"07141051","name":"Hahnstätten","type":"Kreisangehörige_Gemeinde"},"district":{"key":"07141","name":"Rhein-Lahn-Kreis","type":"Landkreis"},"federalState":{"key":"07","name":"Rheinland-Pfalz"}},{"name":"Schloßstr.","postalCode":"65623","locality":"Hahnstätten","municipality":{"key":"07141051","name":"Hahnstätten","type":"Kreisangehörige_Gemeinde"},"district":{"key":"07141","name":"Rhein-Lahn-Kreis","type":"Landkreis"},"federalState":{"key":"07","name":"Rheinland-Pfalz"}},{"name":"Schönborner Str.","postalCode":"65623","locality":"Hahnstätten","municipality":{"key":"07141051","name":"Hahnstätten","type":"Kreisangehörige_Gemeinde"},"district":{"key":"07141","name":"Rhein-Lahn-Kreis","type":"Landkreis"},"federalState":{"key":"07","name":"Rheinland-Pfalz"}},{"name":"Schöne Aussicht","postalCode":"65623","locality":"Hahnstätten","municipality":{"key":"07141051","name":"Hahnstätten","type":"Kreisangehörige_Gemeinde"},"district":{"key":"07141","name":"Rhein-Lahn-Kreis","type":"Landkreis"},"federalState":{"key":"07","name":"Rheinland-Pfalz"}},{"name":"Siedlerweg","postalCode":"65623","locality":"Hahnstätten","municipality":{"key":"07141051","name":"Hahnstätten","type":"Kreisangehörige_Gemeinde"},"district":{"key":"07141","name":"Rhein-Lahn-Kreis","type":"Landkreis"},"federalState":{"key":"07","name":"Rheinland-Pfalz"}},{"name":"Stargarder Str.","postalCode":"65623","locality":"Hahnstätten","municipality":{"key":"07141051","name":"Hahnstätten","type":"Kreisangehörige_Gemeinde"},"district":{"key":"07141","name":"Rhein-Lahn-Kreis","type":"Landkreis"},"federalState":{"key":"07","name":"Rheinland-Pfalz"}},{"name":"Steile Gewann","postalCode":"65623","locality":"Hahnstätten","municipality":{"key":"07141051","name":"Hahnstätten","type":"Kreisangehörige_Gemeinde"},"district":{"key":"07141","name":"Rhein-Lahn-Kreis","type":"Landkreis"},"federalState":{"key":"07","name":"Rheinland-Pfalz"}},{"name":"Stettiner Str.","postalCode":"65623","locality":"Hahnstätten","municipality":{"key":"07141051","name":"Hahnstätten","type":"Kreisangehörige_Gemeinde"},"district":{"key":"07141","name":"Rhein-Lahn-Kreis","type":"Landkreis"},"federalState":{"key":"07","name":"Rheinland-Pfalz"}},{"name":"Strak Schnaas","postalCode":"65623","locality":"Hahnstätten","municipality":{"key":"07141051","name":"Hahnstätten","type":"Kreisangehörige_Gemeinde"},"district":{"key":"07141","name":"Rhein-Lahn-Kreis","type":"Landkreis"},"federalState":{"key":"07","name":"Rheinland-Pfalz"}},{"name":"Talblick","postalCode":"65623","locality":"Hahnstätten","municipality":{"key":"07141051","name":"Hahnstätten","type":"Kreisangehörige_Gemeinde"},"district":{"key":"07141","name":"Rhein-Lahn-Kreis","type":"Landkreis"},"federalState":{"key":"07","name":"Rheinland-Pfalz"}},{"name":"Tannenweg","postalCode":"65623","locality":"Hahnstätten","municipality":{"key":"07141051","name":"Hahnstätten","type":"Kreisangehörige_Gemeinde"},"district":{"key":"07141","name":"Rhein-Lahn-Kreis","type":"Landkreis"},"federalState":{"key":"07","name":"Rheinland-Pfalz"}},{"name":"Tulpenweg","postalCode":"65623","locality":"Hahnstätten","municipality":{"key":"07141051","name":"Hahnstätten","type":"Kreisangehörige_Gemeinde"},"district":{"key":"07141","name":"Rhein-Lahn-Kreis","type":"Landkreis"},"federalState":{"key":"07","name":"Rheinland-Pfalz"}},{"name":"Waldstr.","postalCode":"65623","locality":"Hahnstätten","municipality":{"key":"07141051","name":"Hahnstätten","type":"Kreisangehörige_Gemeinde"},"district":{"key":"07141","name":"Rhein-Lahn-Kreis","type":"Landkreis"},"federalState":{"key":"07","name":"Rheinland-Pfalz"}},{"name":"Welschbachstr.","postalCode":"65623","locality":"Hahnstätten","municipality":{"key":"07141051","name":"Hahnstätten","type":"Kreisangehörige_Gemeinde"},"district":{"key":"07141","name":"Rhein-Lahn-Kreis","type":"Landkreis"},"federalState":{"key":"07","name":"Rheinland-Pfalz"}},{"name":"Wiesengrund","postalCode":"65623","locality":"Hahnstätten","municipality":{"key":"07141051","name":"Hahnstätten","type":"Kreisangehörige_Gemeinde"},"district":{"key":"07141","name":"Rhein-Lahn-Kreis","type":"Landkreis"},"federalState":{"key":"07","name":"Rheinland-Pfalz"}},{"name":"Wiesenstr.","postalCode":"65623","locality":"Hahnstätten","municipality":{"key":"07141051","name":"Hahnstätten","type":"Kreisangehörige_Gemeinde"},"district":{"key":"07141","name":"Rhein-Lahn-Kreis","type":"Landkreis"},"federalState":{"key":"07","name":"Rheinland-Pfalz"}},]