[{"name":"Ackerstr.","postalCode":"92703","locality":"Krummennaab","municipality":{"key":"09377132","name":"Krummennaab","type":"Kreisangehörige_Gemeinde"},"district":{"key":"09377","name":"Tirschenreuth","type":"Landkreis"},"federalState":{"key":"09","name":"Bayern"}},{"name":"Am Bahnhof","postalCode":"92703","locality":"Krummennaab","municipality":{"key":"09377132","name":"Krummennaab","type":"Kreisangehörige_Gemeinde"},"district":{"key":"09377","name":"Tirschenreuth","type":"Landkreis"},"federalState":{"key":"09","name":"Bayern"}},{"name":"Am Gries","postalCode":"92703","locality":"Krummennaab","municipality":{"key":"09377132","name":"Krummennaab","type":"Kreisangehörige_Gemeinde"},"district":{"key":"09377","name":"Tirschenreuth","type":"Landkreis"},"federalState":{"key":"09","name":"Bayern"}},{"name":"Am Waldrand","postalCode":"92703","locality":"Krummennaab","municipality":{"key":"09377132","name":"Krummennaab","type":"Kreisangehörige_Gemeinde"},"district":{"key":"09377","name":"Tirschenreuth","type":"Landkreis"},"federalState":{"key":"09","name":"Bayern"}},{"name":"Asternweg","postalCode":"92703","locality":"Krummennaab","municipality":{"key":"09377132","name":"Krummennaab","type":"Kreisangehörige_Gemeinde"},"district":{"key":"09377","name":"Tirschenreuth","type":"Landkreis"},"federalState":{"key":"09","name":"Bayern"}},{"name":"Birkenweg","postalCode":"92703","locality":"Krummennaab","municipality":{"key":"09377132","name":"Krummennaab","type":"Kreisangehörige_Gemeinde"},"district":{"key":"09377","name":"Tirschenreuth","type":"Landkreis"},"federalState":{"key":"09","name":"Bayern"}},{"name":"Blumenstr.","postalCode":"92703","locality":"Krummennaab","municipality":{"key":"09377132","name":"Krummennaab","type":"Kreisangehörige_Gemeinde"},"district":{"key":"09377","name":"Tirschenreuth","type":"Landkreis"},"federalState":{"key":"09","name":"Bayern"}},{"name":"Burggrub","postalCode":"92703","locality":"Krummennaab","municipality":{"key":"09377132","name":"Krummennaab","type":"Kreisangehörige_Gemeinde"},"district":{"key":"09377","name":"Tirschenreuth","type":"Landkreis"},"federalState":{"key":"09","name":"Bayern"}},{"name":"Dammstr.","postalCode":"92703","locality":"Krummennaab","municipality":{"key":"09377132","name":"Krummennaab","type":"Kreisangehörige_Gemeinde"},"district":{"key":"09377","name":"Tirschenreuth","type":"Landkreis"},"federalState":{"key":"09","name":"Bayern"}},{"name":"Dobmeierstr.","postalCode":"92703","locality":"Krummennaab","municipality":{"key":"09377132","name":"Krummennaab","type":"Kreisangehörige_Gemeinde"},"district":{"key":"09377","name":"Tirschenreuth","type":"Landkreis"},"federalState":{"key":"09","name":"Bayern"}},{"name":"Dr.-Höcht-Str.","postalCode":"92703","locality":"Krummennaab","municipality":{"key":"09377132","name":"Krummennaab","type":"Kreisangehörige_Gemeinde"},"district":{"key":"09377","name":"Tirschenreuth","type":"Landkreis"},"federalState":{"key":"09","name":"Bayern"}},{"name":"Erlenweg","postalCode":"92703","locality":"Krummennaab","municipality":{"key":"09377132","name":"Krummennaab","type":"Kreisangehörige_Gemeinde"},"district":{"key":"09377","name":"Tirschenreuth","type":"Landkreis"},"federalState":{"key":"09","name":"Bayern"}},{"name":"Eschenweg","postalCode":"92703","locality":"Krummennaab","municipality":{"key":"09377132","name":"Krummennaab","type":"Kreisangehörige_Gemeinde"},"district":{"key":"09377","name":"Tirschenreuth","type":"Landkreis"},"federalState":{"key":"09","name":"Bayern"}},{"name":"Finkenweg","postalCode":"92703","locality":"Krummennaab","municipality":{"key":"09377132","name":"Krummennaab","type":"Kreisangehörige_Gemeinde"},"district":{"key":"09377","name":"Tirschenreuth","type":"Landkreis"},"federalState":{"key":"09","name":"Bayern"}},{"name":"Flurstr.","postalCode":"92703","locality":"Krummennaab","municipality":{"key":"09377132","name":"Krummennaab","type":"Kreisangehörige_Gemeinde"},"district":{"key":"09377","name":"Tirschenreuth","type":"Landkreis"},"federalState":{"key":"09","name":"Bayern"}},{"name":"Forstergasse","postalCode":"92703","locality":"Krummennaab","municipality":{"key":"09377132","name":"Krummennaab","type":"Kreisangehörige_Gemeinde"},"district":{"key":"09377","name":"Tirschenreuth","type":"Landkreis"},"federalState":{"key":"09","name":"Bayern"}},{"name":"Freiherr-von-Lindenfels-Str.","postalCode":"92703","locality":"Krummennaab","municipality":{"key":"09377132","name":"Krummennaab","type":"Kreisangehörige_Gemeinde"},"district":{"key":"09377","name":"Tirschenreuth","type":"Landkreis"},"federalState":{"key":"09","name":"Bayern"}},{"name":"Friedenfelser Str.","postalCode":"92703","locality":"Krummennaab","municipality":{"key":"09377132","name":"Krummennaab","type":"Kreisangehörige_Gemeinde"},"district":{"key":"09377","name":"Tirschenreuth","type":"Landkreis"},"federalState":{"key":"09","name":"Bayern"}},{"name":"Friedhofsweg","postalCode":"92703","locality":"Krummennaab","municipality":{"key":"09377132","name":"Krummennaab","type":"Kreisangehörige_Gemeinde"},"district":{"key":"09377","name":"Tirschenreuth","type":"Landkreis"},"federalState":{"key":"09","name":"Bayern"}},{"name":"Gartenstr.","postalCode":"92703","locality":"Krummennaab","municipality":{"key":"09377132","name":"Krummennaab","type":"Kreisangehörige_Gemeinde"},"district":{"key":"09377","name":"Tirschenreuth","type":"Landkreis"},"federalState":{"key":"09","name":"Bayern"}},{"name":"Georg-Mark-Str.","postalCode":"92703","locality":"Krummennaab","municipality":{"key":"09377132","name":"Krummennaab","type":"Kreisangehörige_Gemeinde"},"district":{"key":"09377","name":"Tirschenreuth","type":"Landkreis"},"federalState":{"key":"09","name":"Bayern"}},{"name":"Hammerweg","postalCode":"92703","locality":"Krummennaab","municipality":{"key":"09377132","name":"Krummennaab","type":"Kreisangehörige_Gemeinde"},"district":{"key":"09377","name":"Tirschenreuth","type":"Landkreis"},"federalState":{"key":"09","name":"Bayern"}},{"name":"Hauptstr.","postalCode":"92703","locality":"Krummennaab","municipality":{"key":"09377132","name":"Krummennaab","type":"Kreisangehörige_Gemeinde"},"district":{"key":"09377","name":"Tirschenreuth","type":"Landkreis"},"federalState":{"key":"09","name":"Bayern"}},{"name":"Hirtenleite","postalCode":"92703","locality":"Krummennaab","municipality":{"key":"09377132","name":"Krummennaab","type":"Kreisangehörige_Gemeinde"},"district":{"key":"09377","name":"Tirschenreuth","type":"Landkreis"},"federalState":{"key":"09","name":"Bayern"}},{"name":"Im Lehen","postalCode":"95643","locality":"Tirschenreuth","municipality":{"key":"09377154","name":"Tirschenreuth, St","type":"Stadt"},"district":{"key":"09377","name":"Tirschenreuth","type":"Landkreis"},"federalState":{"key":"09","name":"Bayern"}},{"name":"Jahnstr.","postalCode":"92703","locality":"Krummennaab","municipality":{"key":"09377132","name":"Krummennaab","type":"Kreisangehörige_Gemeinde"},"district":{"key":"09377","name":"Tirschenreuth","type":"Landkreis"},"federalState":{"key":"09","name":"Bayern"}},{"name":"Johann-Baptist-Lehner-Str.","postalCode":"92703","locality":"Krummennaab","municipality":{"key":"09377132","name":"Krummennaab","type":"Kreisangehörige_Gemeinde"},"district":{"key":"09377","name":"Tirschenreuth","type":"Landkreis"},"federalState":{"key":"09","name":"Bayern"}},{"name":"Kirchsteig","postalCode":"92703","locality":"Krummennaab","municipality":{"key":"09377132","name":"Krummennaab","type":"Kreisangehörige_Gemeinde"},"district":{"key":"09377","name":"Tirschenreuth","type":"Landkreis"},"federalState":{"key":"09","name":"Bayern"}},{"name":"Kohlbühl","postalCode":"92703","locality":"Krummennaab","municipality":{"key":"09377132","name":"Krummennaab","type":"Kreisangehörige_Gemeinde"},"district":{"key":"09377","name":"Tirschenreuth","type":"Landkreis"},"federalState":{"key":"09","name":"Bayern"}},{"name":"Kühlenmorgen","postalCode":"92703","locality":"Krummennaab","municipality":{"key":"09377132","name":"Krummennaab","type":"Kreisangehörige_Gemeinde"},"district":{"key":"09377","name":"Tirschenreuth","type":"Landkreis"},"federalState":{"key":"09","name":"Bayern"}},{"name":"Lehen","postalCode":"92703","locality":"Krummennaab","municipality":{"key":"09377132","name":"Krummennaab","type":"Kreisangehörige_Gemeinde"},"district":{"key":"09377","name":"Tirschenreuth","type":"Landkreis"},"federalState":{"key":"09","name":"Bayern"}},{"name":"Lehenerstr.","postalCode":"92703","locality":"Krummennaab","municipality":{"key":"09377132","name":"Krummennaab","type":"Kreisangehörige_Gemeinde"},"district":{"key":"09377","name":"Tirschenreuth","type":"Landkreis"},"federalState":{"key":"09","name":"Bayern"}},{"name":"Lindenweg","postalCode":"92703","locality":"Krummennaab","municipality":{"key":"09377132","name":"Krummennaab","type":"Kreisangehörige_Gemeinde"},"district":{"key":"09377","name":"Tirschenreuth","type":"Landkreis"},"federalState":{"key":"09","name":"Bayern"}},{"name":"Mähringer Str.","postalCode":"95643","locality":"Tirschenreuth","municipality":{"key":"09377154","name":"Tirschenreuth, St","type":"Stadt"},"district":{"key":"09377","name":"Tirschenreuth","type":"Landkreis"},"federalState":{"key":"09","name":"Bayern"}},{"name":"Marienbader Str.","postalCode":"95643","locality":"Tirschenreuth","municipality":{"key":"09377154","name":"Tirschenreuth, St","type":"Stadt"},"district":{"key":"09377","name":"Tirschenreuth","type":"Landkreis"},"federalState":{"key":"09","name":"Bayern"}},{"name":"Marienstr.","postalCode":"95643","locality":"Tirschenreuth","municipality":{"key":"09377154","name":"Tirschenreuth, St","type":"Stadt"},"district":{"key":"09377","name":"Tirschenreuth","type":"Landkreis"},"federalState":{"key":"09","name":"Bayern"}},{"name":"Martin-Luther-Str.","postalCode":"95643","locality":"Tirschenreuth","municipality":{"key":"09377154","name":"Tirschenreuth, St","type":"Stadt"},"district":{"key":"09377","name":"Tirschenreuth","type":"Landkreis"},"federalState":{"key":"09","name":"Bayern"}},{"name":"Matzersreuth","postalCode":"95643","locality":"Tirschenreuth","municipality":{"key":"09377154","name":"Tirschenreuth, St","type":"Stadt"},"district":{"key":"09377","name":"Tirschenreuth","type":"Landkreis"},"federalState":{"key":"09","name":"Bayern"}},{"name":"Maximilianplatz","postalCode":"95643","locality":"Tirschenreuth","municipality":{"key":"09377154","name":"Tirschenreuth, St","type":"Stadt"},"district":{"key":"09377","name":"Tirschenreuth","type":"Landkreis"},"federalState":{"key":"09","name":"Bayern"}},{"name":"Max-Reger-Str.","postalCode":"95643","locality":"Tirschenreuth","municipality":{"key":"09377154","name":"Tirschenreuth, St","type":"Stadt"},"district":{"key":"09377","name":"Tirschenreuth","type":"Landkreis"},"federalState":{"key":"09","name":"Bayern"}},{"name":"Mezgerstr.","postalCode":"95643","locality":"Tirschenreuth","municipality":{"key":"09377154","name":"Tirschenreuth, St","type":"Stadt"},"district":{"key":"09377","name":"Tirschenreuth","type":"Landkreis"},"federalState":{"key":"09","name":"Bayern"}},{"name":"Mitterteicher Str.","postalCode":"95643","locality":"Tirschenreuth","municipality":{"key":"09377154","name":"Tirschenreuth, St","type":"Stadt"},"district":{"key":"09377","name":"Tirschenreuth","type":"Landkreis"},"federalState":{"key":"09","name":"Bayern"}},{"name":"Mitterweg","postalCode":"95643","locality":"Tirschenreuth","municipality":{"key":"09377154","name":"Tirschenreuth, St","type":"Stadt"},"district":{"key":"09377","name":"Tirschenreuth","type":"Landkreis"},"federalState":{"key":"09","name":"Bayern"}},{"name":"Mozartstr.","postalCode":"95643","locality":"Tirschenreuth","municipality":{"key":"09377154","name":"Tirschenreuth, St","type":"Stadt"},"district":{"key":"09377","name":"Tirschenreuth","type":"Landkreis"},"federalState":{"key":"09","name":"Bayern"}},{"name":"Mühlbachpark","postalCode":"95643","locality":"Tirschenreuth","municipality":{"key":"09377154","name":"Tirschenreuth, St","type":"Stadt"},"district":{"key":"09377","name":"Tirschenreuth","type":"Landkreis"},"federalState":{"key":"09","name":"Bayern"}},{"name":"Mühlbühl","postalCode":"95643","locality":"Tirschenreuth","municipality":{"key":"09377154","name":"Tirschenreuth, St","type":"Stadt"},"district":{"key":"09377","name":"Tirschenreuth","type":"Landkreis"},"federalState":{"key":"09","name":"Bayern"}},{"name":"Mühlbühlstr.","postalCode":"95643","locality":"Tirschenreuth","municipality":{"key":"09377154","name":"Tirschenreuth, St","type":"Stadt"},"district":{"key":"09377","name":"Tirschenreuth","type":"Landkreis"},"federalState":{"key":"09","name":"Bayern"}},{"name":"Mühlenweg","postalCode":"95643","locality":"Tirschenreuth","municipality":{"key":"09377154","name":"Tirschenreuth, St","type":"Stadt"},"district":{"key":"09377","name":"Tirschenreuth","type":"Landkreis"},"federalState":{"key":"09","name":"Bayern"}},{"name":"Murschrottplatz","postalCode":"95643","locality":"Tirschenreuth","municipality":{"key":"09377154","name":"Tirschenreuth, St","type":"Stadt"},"district":{"key":"09377","name":"Tirschenreuth","type":"Landkreis"},"federalState":{"key":"09","name":"Bayern"}},{"name":"Nelkenweg","postalCode":"92703","locality":"Krummennaab","municipality":{"key":"09377132","name":"Krummennaab","type":"Kreisangehörige_Gemeinde"},"district":{"key":"09377","name":"Tirschenreuth","type":"Landkreis"},"federalState":{"key":"09","name":"Bayern"}},{"name":"Otto-Hahn-Str.","postalCode":"95643","locality":"Tirschenreuth","municipality":{"key":"09377154","name":"Tirschenreuth, St","type":"Stadt"},"district":{"key":"09377","name":"Tirschenreuth","type":"Landkreis"},"federalState":{"key":"09","name":"Bayern"}},{"name":"Pointweg","postalCode":"92703","locality":"Krummennaab","municipality":{"key":"09377132","name":"Krummennaab","type":"Kreisangehörige_Gemeinde"},"district":{"key":"09377","name":"Tirschenreuth","type":"Landkreis"},"federalState":{"key":"09","name":"Bayern"}},{"name":"Rathausgasse","postalCode":"92703","locality":"Krummennaab","municipality":{"key":"09377132","name":"Krummennaab","type":"Kreisangehörige_Gemeinde"},"district":{"key":"09377","name":"Tirschenreuth","type":"Landkreis"},"federalState":{"key":"09","name":"Bayern"}},{"name":"Reuther Str.","postalCode":"92703","locality":"Krummennaab","municipality":{"key":"09377132","name":"Krummennaab","type":"Kreisangehörige_Gemeinde"},"district":{"key":"09377","name":"Tirschenreuth","type":"Landkreis"},"federalState":{"key":"09","name":"Bayern"}},{"name":"Ringstr.","postalCode":"92703","locality":"Krummennaab","municipality":{"key":"09377132","name":"Krummennaab","type":"Kreisangehörige_Gemeinde"},"district":{"key":"09377","name":"Tirschenreuth","type":"Landkreis"},"federalState":{"key":"09","name":"Bayern"}},{"name":"Rosenweg","postalCode":"92703","locality":"Krummennaab","municipality":{"key":"09377132","name":"Krummennaab","type":"Kreisangehörige_Gemeinde"},"district":{"key":"09377","name":"Tirschenreuth","type":"Landkreis"},"federalState":{"key":"09","name":"Bayern"}},{"name":"Röthenbacher Str.","postalCode":"92703","locality":"Krummennaab","municipality":{"key":"09377132","name":"Krummennaab","type":"Kreisangehörige_Gemeinde"},"district":{"key":"09377","name":"Tirschenreuth","type":"Landkreis"},"federalState":{"key":"09","name":"Bayern"}},{"name":"Sassenhof","postalCode":"92703","locality":"Krummennaab","municipality":{"key":"09377132","name":"Krummennaab","type":"Kreisangehörige_Gemeinde"},"district":{"key":"09377","name":"Tirschenreuth","type":"Landkreis"},"federalState":{"key":"09","name":"Bayern"}},{"name":"Schulrangen","postalCode":"92703","locality":"Krummennaab","municipality":{"key":"09377132","name":"Krummennaab","type":"Kreisangehörige_Gemeinde"},"district":{"key":"09377","name":"Tirschenreuth","type":"Landkreis"},"federalState":{"key":"09","name":"Bayern"}},{"name":"Schulstr.","postalCode":"92703","locality":"Krummennaab","municipality":{"key":"09377132","name":"Krummennaab","type":"Kreisangehörige_Gemeinde"},"district":{"key":"09377","name":"Tirschenreuth","type":"Landkreis"},"federalState":{"key":"09","name":"Bayern"}},{"name":"Siedlung","postalCode":"92703","locality":"Krummennaab","municipality":{"key":"09377132","name":"Krummennaab","type":"Kreisangehörige_Gemeinde"},"district":{"key":"09377","name":"Tirschenreuth","type":"Landkreis"},"federalState":{"key":"09","name":"Bayern"}},{"name":"Sonnenstr.","postalCode":"92703","locality":"Krummennaab","municipality":{"key":"09377132","name":"Krummennaab","type":"Kreisangehörige_Gemeinde"},"district":{"key":"09377","name":"Tirschenreuth","type":"Landkreis"},"federalState":{"key":"09","name":"Bayern"}},{"name":"Steinbühl","postalCode":"92703","locality":"Krummennaab","municipality":{"key":"09377132","name":"Krummennaab","type":"Kreisangehörige_Gemeinde"},"district":{"key":"09377","name":"Tirschenreuth","type":"Landkreis"},"federalState":{"key":"09","name":"Bayern"}},{"name":"Steinwald-Radweg","postalCode":"92703","locality":"Krummennaab","municipality":{"key":"09377132","name":"Krummennaab","type":"Kreisangehörige_Gemeinde"},"district":{"key":"09377","name":"Tirschenreuth","type":"Landkreis"},"federalState":{"key":"09","name":"Bayern"}},{"name":"Trautenberg","postalCode":"92703","locality":"Krummennaab","municipality":{"key":"09377132","name":"Krummennaab","type":"Kreisangehörige_Gemeinde"},"district":{"key":"09377","name":"Tirschenreuth","type":"Landkreis"},"federalState":{"key":"09","name":"Bayern"}},{"name":"Trautenberger Str.","postalCode":"92703","locality":"Krummennaab","municipality":{"key":"09377132","name":"Krummennaab","type":"Kreisangehörige_Gemeinde"},"district":{"key":"09377","name":"Tirschenreuth","type":"Landkreis"},"federalState":{"key":"09","name":"Bayern"}},{"name":"Triftgasse","postalCode":"92703","locality":"Krummennaab","municipality":{"key":"09377132","name":"Krummennaab","type":"Kreisangehörige_Gemeinde"},"district":{"key":"09377","name":"Tirschenreuth","type":"Landkreis"},"federalState":{"key":"09","name":"Bayern"}},{"name":"Tulpenstr.","postalCode":"92703","locality":"Krummennaab","municipality":{"key":"09377132","name":"Krummennaab","type":"Kreisangehörige_Gemeinde"},"district":{"key":"09377","name":"Tirschenreuth","type":"Landkreis"},"federalState":{"key":"09","name":"Bayern"}},{"name":"Unteres Dorf","postalCode":"92703","locality":"Krummennaab","municipality":{"key":"09377132","name":"Krummennaab","type":"Kreisangehörige_Gemeinde"},"district":{"key":"09377","name":"Tirschenreuth","type":"Landkreis"},"federalState":{"key":"09","name":"Bayern"}},{"name":"Vizinalbahnradweg","postalCode":"95643","locality":"Tirschenreuth","municipality":{"key":"09377154","name":"Tirschenreuth, St","type":"Stadt"},"district":{"key":"09377","name":"Tirschenreuth","type":"Landkreis"},"federalState":{"key":"09","name":"Bayern"}},{"name":"Vorholzplatz","postalCode":"95643","locality":"Tirschenreuth","municipality":{"key":"09377154","name":"Tirschenreuth, St","type":"Stadt"},"district":{"key":"09377","name":"Tirschenreuth","type":"Landkreis"},"federalState":{"key":"09","name":"Bayern"}},{"name":"Vorholzweg","postalCode":"95643","locality":"Tirschenreuth","municipality":{"key":"09377154","name":"Tirschenreuth, St","type":"Stadt"},"district":{"key":"09377","name":"Tirschenreuth","type":"Landkreis"},"federalState":{"key":"09","name":"Bayern"}},{"name":"Waffenhammer","postalCode":"92703","locality":"Krummennaab","municipality":{"key":"09377132","name":"Krummennaab","type":"Kreisangehörige_Gemeinde"},"district":{"key":"09377","name":"Tirschenreuth","type":"Landkreis"},"federalState":{"key":"09","name":"Bayern"}},{"name":"Wiesauer Str.","postalCode":"92703","locality":"Krummennaab","municipality":{"key":"09377132","name":"Krummennaab","type":"Kreisangehörige_Gemeinde"},"district":{"key":"09377","name":"Tirschenreuth","type":"Landkreis"},"federalState":{"key":"09","name":"Bayern"}},{"name":"Wirtsgasse","postalCode":"92703","locality":"Krummennaab","municipality":{"key":"09377132","name":"Krummennaab","type":"Kreisangehörige_Gemeinde"},"district":{"key":"09377","name":"Tirschenreuth","type":"Landkreis"},"federalState":{"key":"09","name":"Bayern"}},{"name":"Zeidlholzweg","postalCode":"92703","locality":"Krummennaab","municipality":{"key":"09377132","name":"Krummennaab","type":"Kreisangehörige_Gemeinde"},"district":{"key":"09377","name":"Tirschenreuth","type":"Landkreis"},"federalState":{"key":"09","name":"Bayern"}},{"name":"Ägidienplatz","postalCode":"92703","locality":"Krummennaab","municipality":{"key":"09377132","name":"Krummennaab","type":"Kreisangehörige_Gemeinde"},"district":{"key":"09377","name":"Tirschenreuth","type":"Landkreis"},"federalState":{"key":"09","name":"Bayern"}},]