[{"name":"Am Forst","postalCode":"54597","locality":"Rommersheim","municipality":{"key":"07232300","name":"Rommersheim","type":"Kreisangehörige_Gemeinde"},"district":{"key":"07232","name":"Eifelkreis Bitburg-Prüm","type":"Landkreis"},"federalState":{"key":"07","name":"Rheinland-Pfalz"}},{"name":"Am Goldberg","postalCode":"54597","locality":"Rommersheim","municipality":{"key":"07232300","name":"Rommersheim","type":"Kreisangehörige_Gemeinde"},"district":{"key":"07232","name":"Eifelkreis Bitburg-Prüm","type":"Landkreis"},"federalState":{"key":"07","name":"Rheinland-Pfalz"}},{"name":"Auf der Schlack","postalCode":"54597","locality":"Rommersheim","municipality":{"key":"07232300","name":"Rommersheim","type":"Kreisangehörige_Gemeinde"},"district":{"key":"07232","name":"Eifelkreis Bitburg-Prüm","type":"Landkreis"},"federalState":{"key":"07","name":"Rheinland-Pfalz"}},{"name":"Bergweg","postalCode":"54597","locality":"Rommersheim","municipality":{"key":"07232300","name":"Rommersheim","type":"Kreisangehörige_Gemeinde"},"district":{"key":"07232","name":"Eifelkreis Bitburg-Prüm","type":"Landkreis"},"federalState":{"key":"07","name":"Rheinland-Pfalz"}},{"name":"Breitwiesental","postalCode":"54597","locality":"Rommersheim","municipality":{"key":"07232300","name":"Rommersheim","type":"Kreisangehörige_Gemeinde"},"district":{"key":"07232","name":"Eifelkreis Bitburg-Prüm","type":"Landkreis"},"federalState":{"key":"07","name":"Rheinland-Pfalz"}},{"name":"Buchenweg","postalCode":"54597","locality":"Rommersheim","municipality":{"key":"07232300","name":"Rommersheim","type":"Kreisangehörige_Gemeinde"},"district":{"key":"07232","name":"Eifelkreis Bitburg-Prüm","type":"Landkreis"},"federalState":{"key":"07","name":"Rheinland-Pfalz"}},{"name":"Ellwerather Str.","postalCode":"54597","locality":"Rommersheim","municipality":{"key":"07232300","name":"Rommersheim","type":"Kreisangehörige_Gemeinde"},"district":{"key":"07232","name":"Eifelkreis Bitburg-Prüm","type":"Landkreis"},"federalState":{"key":"07","name":"Rheinland-Pfalz"}},{"name":"Hauptstr.","postalCode":"54597","locality":"Rommersheim","municipality":{"key":"07232300","name":"Rommersheim","type":"Kreisangehörige_Gemeinde"},"district":{"key":"07232","name":"Eifelkreis Bitburg-Prüm","type":"Landkreis"},"federalState":{"key":"07","name":"Rheinland-Pfalz"}},{"name":"Im Haag","postalCode":"54597","locality":"Rommersheim","municipality":{"key":"07232300","name":"Rommersheim","type":"Kreisangehörige_Gemeinde"},"district":{"key":"07232","name":"Eifelkreis Bitburg-Prüm","type":"Landkreis"},"federalState":{"key":"07","name":"Rheinland-Pfalz"}},{"name":"Kirchweg","postalCode":"54597","locality":"Rommersheim","municipality":{"key":"07232300","name":"Rommersheim","type":"Kreisangehörige_Gemeinde"},"district":{"key":"07232","name":"Eifelkreis Bitburg-Prüm","type":"Landkreis"},"federalState":{"key":"07","name":"Rheinland-Pfalz"}},{"name":"Lehmbachstr.","postalCode":"54597","locality":"Rommersheim","municipality":{"key":"07232300","name":"Rommersheim","type":"Kreisangehörige_Gemeinde"},"district":{"key":"07232","name":"Eifelkreis Bitburg-Prüm","type":"Landkreis"},"federalState":{"key":"07","name":"Rheinland-Pfalz"}},{"name":"Lindenstr.","postalCode":"54597","locality":"Rommersheim","municipality":{"key":"07232300","name":"Rommersheim","type":"Kreisangehörige_Gemeinde"},"district":{"key":"07232","name":"Eifelkreis Bitburg-Prüm","type":"Landkreis"},"federalState":{"key":"07","name":"Rheinland-Pfalz"}},{"name":"Nimsweg","postalCode":"54597","locality":"Rommersheim","municipality":{"key":"07232300","name":"Rommersheim","type":"Kreisangehörige_Gemeinde"},"district":{"key":"07232","name":"Eifelkreis Bitburg-Prüm","type":"Landkreis"},"federalState":{"key":"07","name":"Rheinland-Pfalz"}},{"name":"Schönecker Schweiz","postalCode":"54597","locality":"Rommersheim","municipality":{"key":"07232300","name":"Rommersheim","type":"Kreisangehörige_Gemeinde"},"district":{"key":"07232","name":"Eifelkreis Bitburg-Prüm","type":"Landkreis"},"federalState":{"key":"07","name":"Rheinland-Pfalz"}},{"name":"Sonnenwende","postalCode":"54597","locality":"Rommersheim","municipality":{"key":"07232300","name":"Rommersheim","type":"Kreisangehörige_Gemeinde"},"district":{"key":"07232","name":"Eifelkreis Bitburg-Prüm","type":"Landkreis"},"federalState":{"key":"07","name":"Rheinland-Pfalz"}},{"name":"Vor Gonsert","postalCode":"54597","locality":"Rommersheim","municipality":{"key":"07232300","name":"Rommersheim","type":"Kreisangehörige_Gemeinde"},"district":{"key":"07232","name":"Eifelkreis Bitburg-Prüm","type":"Landkreis"},"federalState":{"key":"07","name":"Rheinland-Pfalz"}},{"name":"Vor Hahlen","postalCode":"54597","locality":"Rommersheim","municipality":{"key":"07232300","name":"Rommersheim","type":"Kreisangehörige_Gemeinde"},"district":{"key":"07232","name":"Eifelkreis Bitburg-Prüm","type":"Landkreis"},"federalState":{"key":"07","name":"Rheinland-Pfalz"}},{"name":"Weinsheimer Held","postalCode":"54597","locality":"Rommersheim","municipality":{"key":"07232300","name":"Rommersheim","type":"Kreisangehörige_Gemeinde"},"district":{"key":"07232","name":"Eifelkreis Bitburg-Prüm","type":"Landkreis"},"federalState":{"key":"07","name":"Rheinland-Pfalz"}},]