[{"name":"Alter Frachtweg","postalCode":"23899","locality":"Besenthal","municipality":{"key":"01053010","name":"Besenthal","type":"Kreisangehörige_Gemeinde"},"district":{"key":"01053","name":"Herzogtum Lauenburg","type":"Kreis"},"federalState":{"key":"01","name":"Schleswig-Holstein"}},{"name":"Alter Mühlenweg","postalCode":"23899","locality":"Besenthal","municipality":{"key":"01053010","name":"Besenthal","type":"Kreisangehörige_Gemeinde"},"district":{"key":"01053","name":"Herzogtum Lauenburg","type":"Kreis"},"federalState":{"key":"01","name":"Schleswig-Holstein"}},{"name":"Am Brink","postalCode":"23899","locality":"Besenthal","municipality":{"key":"01053010","name":"Besenthal","type":"Kreisangehörige_Gemeinde"},"district":{"key":"01053","name":"Herzogtum Lauenburg","type":"Kreis"},"federalState":{"key":"01","name":"Schleswig-Holstein"}},{"name":"Büchener Landstr.","postalCode":"23899","locality":"Besenthal","municipality":{"key":"01053010","name":"Besenthal","type":"Kreisangehörige_Gemeinde"},"district":{"key":"01053","name":"Herzogtum Lauenburg","type":"Kreis"},"federalState":{"key":"01","name":"Schleswig-Holstein"}},{"name":"Dorfstr.","postalCode":"23899","locality":"Besenthal","municipality":{"key":"01053010","name":"Besenthal","type":"Kreisangehörige_Gemeinde"},"district":{"key":"01053","name":"Herzogtum Lauenburg","type":"Kreis"},"federalState":{"key":"01","name":"Schleswig-Holstein"}},{"name":"Gudower Mühle","postalCode":"23899","locality":"Besenthal","municipality":{"key":"01053010","name":"Besenthal","type":"Kreisangehörige_Gemeinde"},"district":{"key":"01053","name":"Herzogtum Lauenburg","type":"Kreis"},"federalState":{"key":"01","name":"Schleswig-Holstein"}},{"name":"Langenlehstener Str.","postalCode":"23899","locality":"Besenthal","municipality":{"key":"01053010","name":"Besenthal","type":"Kreisangehörige_Gemeinde"},"district":{"key":"01053","name":"Herzogtum Lauenburg","type":"Kreis"},"federalState":{"key":"01","name":"Schleswig-Holstein"}},{"name":"Wasserkrüger Weg","postalCode":"23899","locality":"Besenthal","municipality":{"key":"01053010","name":"Besenthal","type":"Kreisangehörige_Gemeinde"},"district":{"key":"01053","name":"Herzogtum Lauenburg","type":"Kreis"},"federalState":{"key":"01","name":"Schleswig-Holstein"}},]