[{"name":"Achter de Fenn","postalCode":"25870","locality":"Oldenswort","municipality":{"key":"01054095","name":"Oldenswort","type":"Kreisangehörige_Gemeinde"},"district":{"key":"01054","name":"Nordfriesland","type":"Kreis"},"federalState":{"key":"01","name":"Schleswig-Holstein"}},{"name":"Achter de Höf","postalCode":"25870","locality":"Oldenswort","municipality":{"key":"01054095","name":"Oldenswort","type":"Kreisangehörige_Gemeinde"},"district":{"key":"01054","name":"Nordfriesland","type":"Kreis"},"federalState":{"key":"01","name":"Schleswig-Holstein"}},{"name":"An de Schützenwarft","postalCode":"25870","locality":"Oldenswort","municipality":{"key":"01054095","name":"Oldenswort","type":"Kreisangehörige_Gemeinde"},"district":{"key":"01054","name":"Nordfriesland","type":"Kreis"},"federalState":{"key":"01","name":"Schleswig-Holstein"}},{"name":"Bi de Friheit","postalCode":"25870","locality":"Oldenswort","municipality":{"key":"01054095","name":"Oldenswort","type":"Kreisangehörige_Gemeinde"},"district":{"key":"01054","name":"Nordfriesland","type":"Kreis"},"federalState":{"key":"01","name":"Schleswig-Holstein"}},{"name":"Bodderweg","postalCode":"25870","locality":"Oldenswort","municipality":{"key":"01054095","name":"Oldenswort","type":"Kreisangehörige_Gemeinde"},"district":{"key":"01054","name":"Nordfriesland","type":"Kreis"},"federalState":{"key":"01","name":"Schleswig-Holstein"}},{"name":"Broder-Jacobs-Weg","postalCode":"25870","locality":"Oldenswort","municipality":{"key":"01054095","name":"Oldenswort","type":"Kreisangehörige_Gemeinde"},"district":{"key":"01054","name":"Nordfriesland","type":"Kreis"},"federalState":{"key":"01","name":"Schleswig-Holstein"}},{"name":"Bruersgang","postalCode":"25870","locality":"Oldenswort","municipality":{"key":"01054095","name":"Oldenswort","type":"Kreisangehörige_Gemeinde"},"district":{"key":"01054","name":"Nordfriesland","type":"Kreis"},"federalState":{"key":"01","name":"Schleswig-Holstein"}},{"name":"Carsten-Hans-Weg","postalCode":"25870","locality":"Oldenswort","municipality":{"key":"01054095","name":"Oldenswort","type":"Kreisangehörige_Gemeinde"},"district":{"key":"01054","name":"Nordfriesland","type":"Kreis"},"federalState":{"key":"01","name":"Schleswig-Holstein"}},{"name":"Dankwerthstr.","postalCode":"25870","locality":"Oldenswort","municipality":{"key":"01054095","name":"Oldenswort","type":"Kreisangehörige_Gemeinde"},"district":{"key":"01054","name":"Nordfriesland","type":"Kreis"},"federalState":{"key":"01","name":"Schleswig-Holstein"}},{"name":"Dorfstr.","postalCode":"25870","locality":"Oldenswort","municipality":{"key":"01054095","name":"Oldenswort","type":"Kreisangehörige_Gemeinde"},"district":{"key":"01054","name":"Nordfriesland","type":"Kreis"},"federalState":{"key":"01","name":"Schleswig-Holstein"}},{"name":"Eiderstedter Str.","postalCode":"25870","locality":"Oldenswort","municipality":{"key":"01054095","name":"Oldenswort","type":"Kreisangehörige_Gemeinde"},"district":{"key":"01054","name":"Nordfriesland","type":"Kreis"},"federalState":{"key":"01","name":"Schleswig-Holstein"}},{"name":"Everschopstr.","postalCode":"25870","locality":"Oldenswort","municipality":{"key":"01054095","name":"Oldenswort","type":"Kreisangehörige_Gemeinde"},"district":{"key":"01054","name":"Nordfriesland","type":"Kreis"},"federalState":{"key":"01","name":"Schleswig-Holstein"}},{"name":"Friedrichstädter Chaussee","postalCode":"25870","locality":"Oldenswort","municipality":{"key":"01054095","name":"Oldenswort","type":"Kreisangehörige_Gemeinde"},"district":{"key":"01054","name":"Nordfriesland","type":"Kreis"},"federalState":{"key":"01","name":"Schleswig-Holstein"}},{"name":"Harblek","postalCode":"25870","locality":"Oldenswort","municipality":{"key":"01054095","name":"Oldenswort","type":"Kreisangehörige_Gemeinde"},"district":{"key":"01054","name":"Nordfriesland","type":"Kreis"},"federalState":{"key":"01","name":"Schleswig-Holstein"}},{"name":"Harbleker Chaussee","postalCode":"25870","locality":"Oldenswort","municipality":{"key":"01054095","name":"Oldenswort","type":"Kreisangehörige_Gemeinde"},"district":{"key":"01054","name":"Nordfriesland","type":"Kreis"},"federalState":{"key":"01","name":"Schleswig-Holstein"}},{"name":"Hochbrücksiel","postalCode":"25870","locality":"Oldenswort","municipality":{"key":"01054095","name":"Oldenswort","type":"Kreisangehörige_Gemeinde"},"district":{"key":"01054","name":"Nordfriesland","type":"Kreis"},"federalState":{"key":"01","name":"Schleswig-Holstein"}},{"name":"Kirchenfenne","postalCode":"25870","locality":"Oldenswort","municipality":{"key":"01054095","name":"Oldenswort","type":"Kreisangehörige_Gemeinde"},"district":{"key":"01054","name":"Nordfriesland","type":"Kreis"},"federalState":{"key":"01","name":"Schleswig-Holstein"}},{"name":"Kirchenweg","postalCode":"25870","locality":"Oldenswort","municipality":{"key":"01054095","name":"Oldenswort","type":"Kreisangehörige_Gemeinde"},"district":{"key":"01054","name":"Nordfriesland","type":"Kreis"},"federalState":{"key":"01","name":"Schleswig-Holstein"}},{"name":"Klifflandstr.","postalCode":"25870","locality":"Oldenswort","municipality":{"key":"01054095","name":"Oldenswort","type":"Kreisangehörige_Gemeinde"},"district":{"key":"01054","name":"Nordfriesland","type":"Kreis"},"federalState":{"key":"01","name":"Schleswig-Holstein"}},{"name":"Kotzenbüller Chaussee","postalCode":"25870","locality":"Oldenswort","municipality":{"key":"01054095","name":"Oldenswort","type":"Kreisangehörige_Gemeinde"},"district":{"key":"01054","name":"Nordfriesland","type":"Kreis"},"federalState":{"key":"01","name":"Schleswig-Holstein"}},{"name":"Lohgerberweg","postalCode":"25870","locality":"Oldenswort","municipality":{"key":"01054095","name":"Oldenswort","type":"Kreisangehörige_Gemeinde"},"district":{"key":"01054","name":"Nordfriesland","type":"Kreis"},"federalState":{"key":"01","name":"Schleswig-Holstein"}},{"name":"Mühlenstr.","postalCode":"25870","locality":"Oldenswort","municipality":{"key":"01054095","name":"Oldenswort","type":"Kreisangehörige_Gemeinde"},"district":{"key":"01054","name":"Nordfriesland","type":"Kreis"},"federalState":{"key":"01","name":"Schleswig-Holstein"}},{"name":"Niederweg","postalCode":"25870","locality":"Oldenswort","municipality":{"key":"01054095","name":"Oldenswort","type":"Kreisangehörige_Gemeinde"},"district":{"key":"01054","name":"Nordfriesland","type":"Kreis"},"federalState":{"key":"01","name":"Schleswig-Holstein"}},{"name":"Osterende","postalCode":"25870","locality":"Oldenswort","municipality":{"key":"01054095","name":"Oldenswort","type":"Kreisangehörige_Gemeinde"},"district":{"key":"01054","name":"Nordfriesland","type":"Kreis"},"federalState":{"key":"01","name":"Schleswig-Holstein"}},{"name":"Osterender Chaussee","postalCode":"25870","locality":"Oldenswort","municipality":{"key":"01054095","name":"Oldenswort","type":"Kreisangehörige_Gemeinde"},"district":{"key":"01054","name":"Nordfriesland","type":"Kreis"},"federalState":{"key":"01","name":"Schleswig-Holstein"}},{"name":"Ottenschölstr.","postalCode":"25870","locality":"Oldenswort","municipality":{"key":"01054095","name":"Oldenswort","type":"Kreisangehörige_Gemeinde"},"district":{"key":"01054","name":"Nordfriesland","type":"Kreis"},"federalState":{"key":"01","name":"Schleswig-Holstein"}},{"name":"Rethdeich","postalCode":"25870","locality":"Oldenswort","municipality":{"key":"01054095","name":"Oldenswort","type":"Kreisangehörige_Gemeinde"},"district":{"key":"01054","name":"Nordfriesland","type":"Kreis"},"federalState":{"key":"01","name":"Schleswig-Holstein"}},{"name":"Rieperweg","postalCode":"25870","locality":"Oldenswort","municipality":{"key":"01054095","name":"Oldenswort","type":"Kreisangehörige_Gemeinde"},"district":{"key":"01054","name":"Nordfriesland","type":"Kreis"},"federalState":{"key":"01","name":"Schleswig-Holstein"}},{"name":"Rungholtstr.","postalCode":"25870","locality":"Oldenswort","municipality":{"key":"01054095","name":"Oldenswort","type":"Kreisangehörige_Gemeinde"},"district":{"key":"01054","name":"Nordfriesland","type":"Kreis"},"federalState":{"key":"01","name":"Schleswig-Holstein"}},{"name":"Schüttenhus Weg","postalCode":"25870","locality":"Oldenswort","municipality":{"key":"01054095","name":"Oldenswort","type":"Kreisangehörige_Gemeinde"},"district":{"key":"01054","name":"Nordfriesland","type":"Kreis"},"federalState":{"key":"01","name":"Schleswig-Holstein"}},{"name":"Süderdeich","postalCode":"25870","locality":"Oldenswort","municipality":{"key":"01054095","name":"Oldenswort","type":"Kreisangehörige_Gemeinde"},"district":{"key":"01054","name":"Nordfriesland","type":"Kreis"},"federalState":{"key":"01","name":"Schleswig-Holstein"}},{"name":"Toftinger Str.","postalCode":"25870","locality":"Oldenswort","municipality":{"key":"01054095","name":"Oldenswort","type":"Kreisangehörige_Gemeinde"},"district":{"key":"01054","name":"Nordfriesland","type":"Kreis"},"federalState":{"key":"01","name":"Schleswig-Holstein"}},{"name":"Utholmstr.","postalCode":"25870","locality":"Oldenswort","municipality":{"key":"01054095","name":"Oldenswort","type":"Kreisangehörige_Gemeinde"},"district":{"key":"01054","name":"Nordfriesland","type":"Kreis"},"federalState":{"key":"01","name":"Schleswig-Holstein"}},{"name":"Warmhörner Deich","postalCode":"25870","locality":"Oldenswort","municipality":{"key":"01054095","name":"Oldenswort","type":"Kreisangehörige_Gemeinde"},"district":{"key":"01054","name":"Nordfriesland","type":"Kreis"},"federalState":{"key":"01","name":"Schleswig-Holstein"}},]