[{"key":"10066122","name":"Ahornstrasse","postalCode":"4564","locality":"Obergerlafingen","commune":{"key":"2528","name":"Obergerlafingen","shortName":"Obergerlafingen"},"district":{"key":"1106","name":"Bezirk Wasseramt"},"canton":{"key":"11","code":"SO","name":"Solothurn"},"status":"Real"},{"key":"10144839","name":"Ahornweg","postalCode":"4563","locality":"Gerlafingen","commune":{"key":"2519","name":"Gerlafingen","shortName":"Gerlafingen"},"district":{"key":"1106","name":"Bezirk Wasseramt"},"canton":{"key":"11","code":"SO","name":"Solothurn"},"status":"Real"},{"key":"10213001","name":"Alte Gerlafingenstrasse","postalCode":"4563","locality":"Gerlafingen","commune":{"key":"2519","name":"Gerlafingen","shortName":"Gerlafingen"},"district":{"key":"1106","name":"Bezirk Wasseramt"},"canton":{"key":"11","code":"SO","name":"Solothurn"},"status":"Real"},{"key":"10022427","name":"Alte Gerlafingenstrasse","postalCode":"4563","locality":"Gerlafingen","commune":{"key":"2519","name":"Gerlafingen","shortName":"Gerlafingen"},"district":{"key":"1106","name":"Bezirk Wasseramt"},"canton":{"key":"11","code":"SO","name":"Solothurn"},"status":"Real"},{"key":"10148838","name":"Ambossweg","postalCode":"4563","locality":"Gerlafingen","commune":{"key":"2519","name":"Gerlafingen","shortName":"Gerlafingen"},"district":{"key":"1106","name":"Bezirk Wasseramt"},"canton":{"key":"11","code":"SO","name":"Solothurn"},"status":"Real"},{"key":"10091817","name":"Amselstrasse","postalCode":"4563","locality":"Gerlafingen","commune":{"key":"2519","name":"Gerlafingen","shortName":"Gerlafingen"},"district":{"key":"1106","name":"Bezirk Wasseramt"},"canton":{"key":"11","code":"SO","name":"Solothurn"},"status":"Real"},{"key":"10190058","name":"Amselweg","postalCode":"4564","locality":"Obergerlafingen","commune":{"key":"2528","name":"Obergerlafingen","shortName":"Obergerlafingen"},"district":{"key":"1106","name":"Bezirk Wasseramt"},"canton":{"key":"11","code":"SO","name":"Solothurn"},"status":"Real"},{"key":"10091151","name":"Artmattstrasse","postalCode":"4563","locality":"Gerlafingen","commune":{"key":"2519","name":"Gerlafingen","shortName":"Gerlafingen"},"district":{"key":"1106","name":"Bezirk Wasseramt"},"canton":{"key":"11","code":"SO","name":"Solothurn"},"status":"Real"},{"key":"10184042","name":"Arvenweg","postalCode":"4564","locality":"Obergerlafingen","commune":{"key":"2528","name":"Obergerlafingen","shortName":"Obergerlafingen"},"district":{"key":"1106","name":"Bezirk Wasseramt"},"canton":{"key":"11","code":"SO","name":"Solothurn"},"status":"Real"},{"key":"10066391","name":"Asternweg","postalCode":"4563","locality":"Gerlafingen","commune":{"key":"2519","name":"Gerlafingen","shortName":"Gerlafingen"},"district":{"key":"1106","name":"Bezirk Wasseramt"},"canton":{"key":"11","code":"SO","name":"Solothurn"},"status":"Real"},{"key":"10242661","name":"Autobahn A1","postalCode":"4564","locality":"Obergerlafingen","commune":{"key":"2528","name":"Obergerlafingen","shortName":"Obergerlafingen"},"district":{"key":"1106","name":"Bezirk Wasseramt"},"canton":{"key":"11","code":"SO","name":"Solothurn"},"status":"Real"},{"key":"10051506","name":"Azaleenstrasse","postalCode":"4563","locality":"Gerlafingen","commune":{"key":"2519","name":"Gerlafingen","shortName":"Gerlafingen"},"district":{"key":"1106","name":"Bezirk Wasseramt"},"canton":{"key":"11","code":"SO","name":"Solothurn"},"status":"Real"},{"key":"10016517","name":"Bachmattstrasse","postalCode":"4563","locality":"Gerlafingen","commune":{"key":"2519","name":"Gerlafingen","shortName":"Gerlafingen"},"district":{"key":"1106","name":"Bezirk Wasseramt"},"canton":{"key":"11","code":"SO","name":"Solothurn"},"status":"Real"},{"key":"10016518","name":"Bachmattweg","postalCode":"4563","locality":"Gerlafingen","commune":{"key":"2519","name":"Gerlafingen","shortName":"Gerlafingen"},"district":{"key":"1106","name":"Bezirk Wasseramt"},"canton":{"key":"11","code":"SO","name":"Solothurn"},"status":"Real"},{"key":"10171493","name":"Bachweg","postalCode":"4564","locality":"Obergerlafingen","commune":{"key":"2528","name":"Obergerlafingen","shortName":"Obergerlafingen"},"district":{"key":"1106","name":"Bezirk Wasseramt"},"canton":{"key":"11","code":"SO","name":"Solothurn"},"status":"Real"},{"key":"10190057","name":"Bahnhofstrasse","postalCode":"4563","locality":"Gerlafingen","commune":{"key":"2519","name":"Gerlafingen","shortName":"Gerlafingen"},"district":{"key":"1106","name":"Bezirk Wasseramt"},"canton":{"key":"11","code":"SO","name":"Solothurn"},"status":"Real"},{"key":"10091152","name":"Berthastrasse","postalCode":"4563","locality":"Gerlafingen","commune":{"key":"2519","name":"Gerlafingen","shortName":"Gerlafingen"},"district":{"key":"1106","name":"Bezirk Wasseramt"},"canton":{"key":"11","code":"SO","name":"Solothurn"},"status":"Real"},{"key":"10016519","name":"Biberiststrasse","postalCode":"4563","locality":"Gerlafingen","commune":{"key":"2519","name":"Gerlafingen","shortName":"Gerlafingen"},"district":{"key":"1106","name":"Bezirk Wasseramt"},"canton":{"key":"11","code":"SO","name":"Solothurn"},"status":"Real"},{"key":"10156787","name":"Birkenstrasse","postalCode":"4563","locality":"Gerlafingen","commune":{"key":"2519","name":"Gerlafingen","shortName":"Gerlafingen"},"district":{"key":"1106","name":"Bezirk Wasseramt"},"canton":{"key":"11","code":"SO","name":"Solothurn"},"status":"Real"},{"key":"10091825","name":"Birkenstrasse","postalCode":"4564","locality":"Obergerlafingen","commune":{"key":"2528","name":"Obergerlafingen","shortName":"Obergerlafingen"},"district":{"key":"1106","name":"Bezirk Wasseramt"},"canton":{"key":"11","code":"SO","name":"Solothurn"},"status":"Real"},{"key":"10111344","name":"Bolacker","postalCode":"4563","locality":"Gerlafingen","commune":{"key":"2519","name":"Gerlafingen","shortName":"Gerlafingen"},"district":{"key":"1106","name":"Bezirk Wasseramt"},"canton":{"key":"11","code":"SO","name":"Solothurn"},"status":"Real"},{"key":"10067531","name":"Breitmattstrasse","postalCode":"4563","locality":"Gerlafingen","commune":{"key":"2519","name":"Gerlafingen","shortName":"Gerlafingen"},"district":{"key":"1106","name":"Bezirk Wasseramt"},"canton":{"key":"11","code":"SO","name":"Solothurn"},"status":"Real"},{"key":"10051507","name":"Buchenstrasse","postalCode":"4563","locality":"Gerlafingen","commune":{"key":"2519","name":"Gerlafingen","shortName":"Gerlafingen"},"district":{"key":"1106","name":"Bezirk Wasseramt"},"canton":{"key":"11","code":"SO","name":"Solothurn"},"status":"Real"},{"key":"10022485","name":"Buchenweg","postalCode":"4564","locality":"Obergerlafingen","commune":{"key":"2528","name":"Obergerlafingen","shortName":"Obergerlafingen"},"district":{"key":"1106","name":"Bezirk Wasseramt"},"canton":{"key":"11","code":"SO","name":"Solothurn"},"status":"Real"},{"key":"10016796","name":"Dahlienstrasse","postalCode":"4563","locality":"Gerlafingen","commune":{"key":"2519","name":"Gerlafingen","shortName":"Gerlafingen"},"district":{"key":"1106","name":"Bezirk Wasseramt"},"canton":{"key":"11","code":"SO","name":"Solothurn"},"status":"Real"},{"key":"10241817","name":"Dahlienweg","postalCode":"4564","locality":"Obergerlafingen","commune":{"key":"2528","name":"Obergerlafingen","shortName":"Obergerlafingen"},"district":{"key":"1106","name":"Bezirk Wasseramt"},"canton":{"key":"11","code":"SO","name":"Solothurn"},"status":"Real"},{"key":"10091153","name":"Derendingenstrasse","postalCode":"4563","locality":"Gerlafingen","commune":{"key":"2519","name":"Gerlafingen","shortName":"Gerlafingen"},"district":{"key":"1106","name":"Bezirk Wasseramt"},"canton":{"key":"11","code":"SO","name":"Solothurn"},"status":"Real"},{"key":"10051508","name":"Drosselweg","postalCode":"4563","locality":"Gerlafingen","commune":{"key":"2519","name":"Gerlafingen","shortName":"Gerlafingen"},"district":{"key":"1106","name":"Bezirk Wasseramt"},"canton":{"key":"11","code":"SO","name":"Solothurn"},"status":"Real"},{"key":"10181572","name":"Drosselweg","postalCode":"4564","locality":"Obergerlafingen","commune":{"key":"2528","name":"Obergerlafingen","shortName":"Obergerlafingen"},"district":{"key":"1106","name":"Bezirk Wasseramt"},"canton":{"key":"11","code":"SO","name":"Solothurn"},"status":"Real"},{"key":"10066123","name":"Eichenweg","postalCode":"4564","locality":"Obergerlafingen","commune":{"key":"2528","name":"Obergerlafingen","shortName":"Obergerlafingen"},"district":{"key":"1106","name":"Bezirk Wasseramt"},"canton":{"key":"11","code":"SO","name":"Solothurn"},"status":"Real"},{"key":"10115298","name":"Eichholzstrasse","postalCode":"4563","locality":"Gerlafingen","commune":{"key":"2519","name":"Gerlafingen","shortName":"Gerlafingen"},"district":{"key":"1106","name":"Bezirk Wasseramt"},"canton":{"key":"11","code":"SO","name":"Solothurn"},"status":"Real"},{"key":"10016797","name":"Eichholzweg","postalCode":"4563","locality":"Gerlafingen","commune":{"key":"2519","name":"Gerlafingen","shortName":"Gerlafingen"},"district":{"key":"1106","name":"Bezirk Wasseramt"},"canton":{"key":"11","code":"SO","name":"Solothurn"},"status":"Real"},{"key":"10055937","name":"Elsternweg","postalCode":"4564","locality":"Obergerlafingen","commune":{"key":"2528","name":"Obergerlafingen","shortName":"Obergerlafingen"},"district":{"key":"1106","name":"Bezirk Wasseramt"},"canton":{"key":"11","code":"SO","name":"Solothurn"},"status":"Real"},{"key":"10091818","name":"Erlenstrasse","postalCode":"4563","locality":"Gerlafingen","commune":{"key":"2519","name":"Gerlafingen","shortName":"Gerlafingen"},"district":{"key":"1106","name":"Bezirk Wasseramt"},"canton":{"key":"11","code":"SO","name":"Solothurn"},"status":"Real"},{"key":"10090902","name":"Erlenweg","postalCode":"4564","locality":"Obergerlafingen","commune":{"key":"2528","name":"Obergerlafingen","shortName":"Obergerlafingen"},"district":{"key":"1106","name":"Bezirk Wasseramt"},"canton":{"key":"11","code":"SO","name":"Solothurn"},"status":"Real"},{"key":"10109920","name":"Eschenstrasse","postalCode":"4563","locality":"Gerlafingen","commune":{"key":"2519","name":"Gerlafingen","shortName":"Gerlafingen"},"district":{"key":"1106","name":"Bezirk Wasseramt"},"canton":{"key":"11","code":"SO","name":"Solothurn"},"status":"Real"},{"key":"10022486","name":"Eschenweg","postalCode":"4564","locality":"Obergerlafingen","commune":{"key":"2528","name":"Obergerlafingen","shortName":"Obergerlafingen"},"district":{"key":"1106","name":"Bezirk Wasseramt"},"canton":{"key":"11","code":"SO","name":"Solothurn"},"status":"Real"},{"key":"10067532","name":"Fichtenweg","postalCode":"4563","locality":"Gerlafingen","commune":{"key":"2519","name":"Gerlafingen","shortName":"Gerlafingen"},"district":{"key":"1106","name":"Bezirk Wasseramt"},"canton":{"key":"11","code":"SO","name":"Solothurn"},"status":"Real"},{"key":"10016798","name":"Finkenweg","postalCode":"4563","locality":"Gerlafingen","commune":{"key":"2519","name":"Gerlafingen","shortName":"Gerlafingen"},"district":{"key":"1106","name":"Bezirk Wasseramt"},"canton":{"key":"11","code":"SO","name":"Solothurn"},"status":"Real"},{"key":"10055938","name":"Finkenweg","postalCode":"4564","locality":"Obergerlafingen","commune":{"key":"2528","name":"Obergerlafingen","shortName":"Obergerlafingen"},"district":{"key":"1106","name":"Bezirk Wasseramt"},"canton":{"key":"11","code":"SO","name":"Solothurn"},"status":"Real"},{"key":"10186501","name":"Fliederstrasse","postalCode":"4563","locality":"Gerlafingen","commune":{"key":"2519","name":"Gerlafingen","shortName":"Gerlafingen"},"district":{"key":"1106","name":"Bezirk Wasseramt"},"canton":{"key":"11","code":"SO","name":"Solothurn"},"status":"Real"},{"key":"10022487","name":"Fliederweg","postalCode":"4564","locality":"Obergerlafingen","commune":{"key":"2528","name":"Obergerlafingen","shortName":"Obergerlafingen"},"district":{"key":"1106","name":"Bezirk Wasseramt"},"canton":{"key":"11","code":"SO","name":"Solothurn"},"status":"Real"},{"key":"10091154","name":"Florastrasse","postalCode":"4563","locality":"Gerlafingen","commune":{"key":"2519","name":"Gerlafingen","shortName":"Gerlafingen"},"district":{"key":"1106","name":"Bezirk Wasseramt"},"canton":{"key":"11","code":"SO","name":"Solothurn"},"status":"Real"},{"key":"10022488","name":"Flurweg","postalCode":"4564","locality":"Obergerlafingen","commune":{"key":"2528","name":"Obergerlafingen","shortName":"Obergerlafingen"},"district":{"key":"1106","name":"Bezirk Wasseramt"},"canton":{"key":"11","code":"SO","name":"Solothurn"},"status":"Real"},{"key":"10016799","name":"Föhrenstrasse","postalCode":"4563","locality":"Gerlafingen","commune":{"key":"2519","name":"Gerlafingen","shortName":"Gerlafingen"},"district":{"key":"1106","name":"Bezirk Wasseramt"},"canton":{"key":"11","code":"SO","name":"Solothurn"},"status":"Real"},{"key":"10258306","name":"Franzackerweg","postalCode":"4564","locality":"Obergerlafingen","commune":{"key":"2528","name":"Obergerlafingen","shortName":"Obergerlafingen"},"district":{"key":"1106","name":"Bezirk Wasseramt"},"canton":{"key":"11","code":"SO","name":"Solothurn"},"status":"Planned"},{"key":"10184033","name":"Friedhofstrasse","postalCode":"4563","locality":"Gerlafingen","commune":{"key":"2519","name":"Gerlafingen","shortName":"Gerlafingen"},"district":{"key":"1106","name":"Bezirk Wasseramt"},"canton":{"key":"11","code":"SO","name":"Solothurn"},"status":"Real"},{"key":"10051509","name":"Friedmattstrasse","postalCode":"4563","locality":"Gerlafingen","commune":{"key":"2519","name":"Gerlafingen","shortName":"Gerlafingen"},"district":{"key":"1106","name":"Bezirk Wasseramt"},"canton":{"key":"11","code":"SO","name":"Solothurn"},"status":"Real"},{"key":"10067533","name":"Geiselfeldstrasse","postalCode":"4563","locality":"Gerlafingen","commune":{"key":"2519","name":"Gerlafingen","shortName":"Gerlafingen"},"district":{"key":"1106","name":"Bezirk Wasseramt"},"canton":{"key":"11","code":"SO","name":"Solothurn"},"status":"Real"},{"key":"10091155","name":"Gerkfeldstrasse","postalCode":"4563","locality":"Gerlafingen","commune":{"key":"2519","name":"Gerlafingen","shortName":"Gerlafingen"},"district":{"key":"1106","name":"Bezirk Wasseramt"},"canton":{"key":"11","code":"SO","name":"Solothurn"},"status":"Real"},{"key":"10212580","name":"Gerlafingenstrasse","postalCode":"4563","locality":"Gerlafingen","commune":{"key":"2519","name":"Gerlafingen","shortName":"Gerlafingen"},"district":{"key":"1106","name":"Bezirk Wasseramt"},"canton":{"key":"11","code":"SO","name":"Solothurn"},"status":"Real"},{"key":"10184034","name":"Gewerbestrasse","postalCode":"4563","locality":"Gerlafingen","commune":{"key":"2519","name":"Gerlafingen","shortName":"Gerlafingen"},"district":{"key":"1106","name":"Bezirk Wasseramt"},"canton":{"key":"11","code":"SO","name":"Solothurn"},"status":"Real"},{"key":"10016800","name":"Gladiolenweg","postalCode":"4563","locality":"Gerlafingen","commune":{"key":"2519","name":"Gerlafingen","shortName":"Gerlafingen"},"district":{"key":"1106","name":"Bezirk Wasseramt"},"canton":{"key":"11","code":"SO","name":"Solothurn"},"status":"Real"},{"key":"10016801","name":"Gländstrasse","postalCode":"4563","locality":"Gerlafingen","commune":{"key":"2519","name":"Gerlafingen","shortName":"Gerlafingen"},"district":{"key":"1106","name":"Bezirk Wasseramt"},"canton":{"key":"11","code":"SO","name":"Solothurn"},"status":"Real"},{"key":"10191247","name":"Grossfeldstrasse","postalCode":"4563","locality":"Gerlafingen","commune":{"key":"2519","name":"Gerlafingen","shortName":"Gerlafingen"},"district":{"key":"1106","name":"Bezirk Wasseramt"},"canton":{"key":"11","code":"SO","name":"Solothurn"},"status":"Real"},{"key":"10103740","name":"Grüttmattstrasse","postalCode":"4563","locality":"Gerlafingen","commune":{"key":"2519","name":"Gerlafingen","shortName":"Gerlafingen"},"district":{"key":"1106","name":"Bezirk Wasseramt"},"canton":{"key":"11","code":"SO","name":"Solothurn"},"status":"Real"},{"key":"10016802","name":"Grüttstrasse","postalCode":"4563","locality":"Gerlafingen","commune":{"key":"2519","name":"Gerlafingen","shortName":"Gerlafingen"},"district":{"key":"1106","name":"Bezirk Wasseramt"},"canton":{"key":"11","code":"SO","name":"Solothurn"},"status":"Real"},{"key":"10055939","name":"Grüttstrasse","postalCode":"4564","locality":"Obergerlafingen","commune":{"key":"2528","name":"Obergerlafingen","shortName":"Obergerlafingen"},"district":{"key":"1106","name":"Bezirk Wasseramt"},"canton":{"key":"11","code":"SO","name":"Solothurn"},"status":"Real"},{"key":"10016803","name":"Güterstrasse","postalCode":"4563","locality":"Gerlafingen","commune":{"key":"2519","name":"Gerlafingen","shortName":"Gerlafingen"},"district":{"key":"1106","name":"Bezirk Wasseramt"},"canton":{"key":"11","code":"SO","name":"Solothurn"},"status":"Real"},{"key":"10016804","name":"Hammerweg","postalCode":"4563","locality":"Gerlafingen","commune":{"key":"2519","name":"Gerlafingen","shortName":"Gerlafingen"},"district":{"key":"1106","name":"Bezirk Wasseramt"},"canton":{"key":"11","code":"SO","name":"Solothurn"},"status":"Real"},{"key":"10066124","name":"Hauptstrasse","postalCode":"4563","locality":"Gerlafingen","commune":{"key":"2519","name":"Gerlafingen","shortName":"Gerlafingen"},"district":{"key":"1106","name":"Bezirk Wasseramt"},"canton":{"key":"11","code":"SO","name":"Solothurn"},"status":"Real"},{"key":"10016805","name":"Hauptstrasse","postalCode":"4563","locality":"Gerlafingen","commune":{"key":"2519","name":"Gerlafingen","shortName":"Gerlafingen"},"district":{"key":"1106","name":"Bezirk Wasseramt"},"canton":{"key":"11","code":"SO","name":"Solothurn"},"status":"Real"},{"key":"10066124","name":"Hauptstrasse","postalCode":"4564","locality":"Obergerlafingen","commune":{"key":"2528","name":"Obergerlafingen","shortName":"Obergerlafingen"},"district":{"key":"1106","name":"Bezirk Wasseramt"},"canton":{"key":"11","code":"SO","name":"Solothurn"},"status":"Real"},{"key":"10091156","name":"Hausmattstrasse","postalCode":"4563","locality":"Gerlafingen","commune":{"key":"2519","name":"Gerlafingen","shortName":"Gerlafingen"},"district":{"key":"1106","name":"Bezirk Wasseramt"},"canton":{"key":"11","code":"SO","name":"Solothurn"},"status":"Real"},{"key":"10187769","name":"Hofmattweg","postalCode":"4563","locality":"Gerlafingen","commune":{"key":"2519","name":"Gerlafingen","shortName":"Gerlafingen"},"district":{"key":"1106","name":"Bezirk Wasseramt"},"canton":{"key":"11","code":"SO","name":"Solothurn"},"status":"Real"},{"key":"10022489","name":"Hofstatt","postalCode":"4564","locality":"Obergerlafingen","commune":{"key":"2528","name":"Obergerlafingen","shortName":"Obergerlafingen"},"district":{"key":"1106","name":"Bezirk Wasseramt"},"canton":{"key":"11","code":"SO","name":"Solothurn"},"status":"Real"},{"key":"10191251","name":"Hölzli","postalCode":"4564","locality":"Obergerlafingen","commune":{"key":"2528","name":"Obergerlafingen","shortName":"Obergerlafingen"},"district":{"key":"1106","name":"Bezirk Wasseramt"},"canton":{"key":"11","code":"SO","name":"Solothurn"},"status":"Real"},{"key":"10023411","name":"Imfeldweg","postalCode":"4563","locality":"Gerlafingen","commune":{"key":"2519","name":"Gerlafingen","shortName":"Gerlafingen"},"district":{"key":"1106","name":"Bezirk Wasseramt"},"canton":{"key":"11","code":"SO","name":"Solothurn"},"status":"Real"},{"key":"10023412","name":"Irisweg","postalCode":"4563","locality":"Gerlafingen","commune":{"key":"2519","name":"Gerlafingen","shortName":"Gerlafingen"},"district":{"key":"1106","name":"Bezirk Wasseramt"},"canton":{"key":"11","code":"SO","name":"Solothurn"},"status":"Real"},{"key":"10212585","name":"Kirchacker","postalCode":"4564","locality":"Obergerlafingen","commune":{"key":"2528","name":"Obergerlafingen","shortName":"Obergerlafingen"},"district":{"key":"1106","name":"Bezirk Wasseramt"},"canton":{"key":"11","code":"SO","name":"Solothurn"},"status":"Real"},{"key":"10186227","name":"Kleinmattweg","postalCode":"4563","locality":"Gerlafingen","commune":{"key":"2519","name":"Gerlafingen","shortName":"Gerlafingen"},"district":{"key":"1106","name":"Bezirk Wasseramt"},"canton":{"key":"11","code":"SO","name":"Solothurn"},"status":"Real"},{"key":"10091157","name":"Kornfeldgasse","postalCode":"4563","locality":"Gerlafingen","commune":{"key":"2519","name":"Gerlafingen","shortName":"Gerlafingen"},"district":{"key":"1106","name":"Bezirk Wasseramt"},"canton":{"key":"11","code":"SO","name":"Solothurn"},"status":"Real"},{"key":"10067534","name":"Kornfeldstrasse","postalCode":"4563","locality":"Gerlafingen","commune":{"key":"2519","name":"Gerlafingen","shortName":"Gerlafingen"},"district":{"key":"1106","name":"Bezirk Wasseramt"},"canton":{"key":"11","code":"SO","name":"Solothurn"},"status":"Real"},{"key":"10023413","name":"Kornfeldweg","postalCode":"4563","locality":"Gerlafingen","commune":{"key":"2519","name":"Gerlafingen","shortName":"Gerlafingen"},"district":{"key":"1106","name":"Bezirk Wasseramt"},"canton":{"key":"11","code":"SO","name":"Solothurn"},"status":"Real"},{"key":"10023414","name":"Kreuzmattweg","postalCode":"4563","locality":"Gerlafingen","commune":{"key":"2519","name":"Gerlafingen","shortName":"Gerlafingen"},"district":{"key":"1106","name":"Bezirk Wasseramt"},"canton":{"key":"11","code":"SO","name":"Solothurn"},"status":"Real"},{"key":"10091158","name":"Kriegstettenstrasse","postalCode":"4563","locality":"Gerlafingen","commune":{"key":"2519","name":"Gerlafingen","shortName":"Gerlafingen"},"district":{"key":"1106","name":"Bezirk Wasseramt"},"canton":{"key":"11","code":"SO","name":"Solothurn"},"status":"Real"},{"key":"10022490","name":"Kriegstettenstrasse","postalCode":"4564","locality":"Obergerlafingen","commune":{"key":"2528","name":"Obergerlafingen","shortName":"Obergerlafingen"},"district":{"key":"1106","name":"Bezirk Wasseramt"},"canton":{"key":"11","code":"SO","name":"Solothurn"},"status":"Real"},{"key":"10173358","name":"Krokusweg","postalCode":"4563","locality":"Gerlafingen","commune":{"key":"2519","name":"Gerlafingen","shortName":"Gerlafingen"},"district":{"key":"1106","name":"Bezirk Wasseramt"},"canton":{"key":"11","code":"SO","name":"Solothurn"},"status":"Real"},{"key":"10121123","name":"Kurzfeldweg","postalCode":"4563","locality":"Gerlafingen","commune":{"key":"2519","name":"Gerlafingen","shortName":"Gerlafingen"},"district":{"key":"1106","name":"Bezirk Wasseramt"},"canton":{"key":"11","code":"SO","name":"Solothurn"},"status":"Real"},{"key":"10103745","name":"Längackerstrasse","postalCode":"4564","locality":"Obergerlafingen","commune":{"key":"2528","name":"Obergerlafingen","shortName":"Obergerlafingen"},"district":{"key":"1106","name":"Bezirk Wasseramt"},"canton":{"key":"11","code":"SO","name":"Solothurn"},"status":"Real"},{"key":"10109921","name":"Langfeldstrasse","postalCode":"4563","locality":"Gerlafingen","commune":{"key":"2519","name":"Gerlafingen","shortName":"Gerlafingen"},"district":{"key":"1106","name":"Bezirk Wasseramt"},"canton":{"key":"11","code":"SO","name":"Solothurn"},"status":"Real"},{"key":"10091159","name":"Längmattstrasse","postalCode":"4563","locality":"Gerlafingen","commune":{"key":"2519","name":"Gerlafingen","shortName":"Gerlafingen"},"district":{"key":"1106","name":"Bezirk Wasseramt"},"canton":{"key":"11","code":"SO","name":"Solothurn"},"status":"Real"},{"key":"10023416","name":"Längmattweg","postalCode":"4563","locality":"Gerlafingen","commune":{"key":"2519","name":"Gerlafingen","shortName":"Gerlafingen"},"district":{"key":"1106","name":"Bezirk Wasseramt"},"canton":{"key":"11","code":"SO","name":"Solothurn"},"status":"Real"},{"key":"10055940","name":"Leimenweg","postalCode":"4564","locality":"Obergerlafingen","commune":{"key":"2528","name":"Obergerlafingen","shortName":"Obergerlafingen"},"district":{"key":"1106","name":"Bezirk Wasseramt"},"canton":{"key":"11","code":"SO","name":"Solothurn"},"status":"Real"},{"key":"10067535","name":"Lerchenfeldstrasse","postalCode":"4563","locality":"Gerlafingen","commune":{"key":"2519","name":"Gerlafingen","shortName":"Gerlafingen"},"district":{"key":"1106","name":"Bezirk Wasseramt"},"canton":{"key":"11","code":"SO","name":"Solothurn"},"status":"Real"},{"key":"10090903","name":"Lerchenweg","postalCode":"4564","locality":"Obergerlafingen","commune":{"key":"2528","name":"Obergerlafingen","shortName":"Obergerlafingen"},"district":{"key":"1106","name":"Bezirk Wasseramt"},"canton":{"key":"11","code":"SO","name":"Solothurn"},"status":"Real"},{"key":"10023415","name":"Lilienstrasse","postalCode":"4563","locality":"Gerlafingen","commune":{"key":"2519","name":"Gerlafingen","shortName":"Gerlafingen"},"district":{"key":"1106","name":"Bezirk Wasseramt"},"canton":{"key":"11","code":"SO","name":"Solothurn"},"status":"Real"},{"key":"10156789","name":"Lindenweg","postalCode":"4563","locality":"Gerlafingen","commune":{"key":"2519","name":"Gerlafingen","shortName":"Gerlafingen"},"district":{"key":"1106","name":"Bezirk Wasseramt"},"canton":{"key":"11","code":"SO","name":"Solothurn"},"status":"Real"},{"key":"10184035","name":"Lupinenstrasse","postalCode":"4563","locality":"Gerlafingen","commune":{"key":"2519","name":"Gerlafingen","shortName":"Gerlafingen"},"district":{"key":"1106","name":"Bezirk Wasseramt"},"canton":{"key":"11","code":"SO","name":"Solothurn"},"status":"Real"},{"key":"10023417","name":"Magnolienstrasse","postalCode":"4563","locality":"Gerlafingen","commune":{"key":"2519","name":"Gerlafingen","shortName":"Gerlafingen"},"district":{"key":"1106","name":"Bezirk Wasseramt"},"canton":{"key":"11","code":"SO","name":"Solothurn"},"status":"Real"},{"key":"10103741","name":"Margritenweg","postalCode":"4563","locality":"Gerlafingen","commune":{"key":"2519","name":"Gerlafingen","shortName":"Gerlafingen"},"district":{"key":"1106","name":"Bezirk Wasseramt"},"canton":{"key":"11","code":"SO","name":"Solothurn"},"status":"Real"},{"key":"10055941","name":"Meisenweg","postalCode":"4564","locality":"Obergerlafingen","commune":{"key":"2528","name":"Obergerlafingen","shortName":"Obergerlafingen"},"district":{"key":"1106","name":"Bezirk Wasseramt"},"canton":{"key":"11","code":"SO","name":"Solothurn"},"status":"Real"},{"key":"10091160","name":"Mittelfeldstrasse","postalCode":"4563","locality":"Gerlafingen","commune":{"key":"2519","name":"Gerlafingen","shortName":"Gerlafingen"},"district":{"key":"1106","name":"Bezirk Wasseramt"},"canton":{"key":"11","code":"SO","name":"Solothurn"},"status":"Real"},{"key":"10171496","name":"Moosmattweg","postalCode":"4563","locality":"Gerlafingen","commune":{"key":"2519","name":"Gerlafingen","shortName":"Gerlafingen"},"district":{"key":"1106","name":"Bezirk Wasseramt"},"canton":{"key":"11","code":"SO","name":"Solothurn"},"status":"Real"},{"key":"10023418","name":"Mühlackerstrasse","postalCode":"4563","locality":"Gerlafingen","commune":{"key":"2519","name":"Gerlafingen","shortName":"Gerlafingen"},"district":{"key":"1106","name":"Bezirk Wasseramt"},"canton":{"key":"11","code":"SO","name":"Solothurn"},"status":"Real"},{"key":"10023419","name":"Mühlackerweg","postalCode":"4563","locality":"Gerlafingen","commune":{"key":"2519","name":"Gerlafingen","shortName":"Gerlafingen"},"district":{"key":"1106","name":"Bezirk Wasseramt"},"canton":{"key":"11","code":"SO","name":"Solothurn"},"status":"Real"},{"key":"10115299","name":"Mühlegasse","postalCode":"4563","locality":"Gerlafingen","commune":{"key":"2519","name":"Gerlafingen","shortName":"Gerlafingen"},"district":{"key":"1106","name":"Bezirk Wasseramt"},"canton":{"key":"11","code":"SO","name":"Solothurn"},"status":"Real"},{"key":"10186228","name":"Mühleweg","postalCode":"4563","locality":"Gerlafingen","commune":{"key":"2519","name":"Gerlafingen","shortName":"Gerlafingen"},"district":{"key":"1106","name":"Bezirk Wasseramt"},"canton":{"key":"11","code":"SO","name":"Solothurn"},"status":"Real"},{"key":"10067536","name":"Nelkenstrasse","postalCode":"4563","locality":"Gerlafingen","commune":{"key":"2519","name":"Gerlafingen","shortName":"Gerlafingen"},"district":{"key":"1106","name":"Bezirk Wasseramt"},"canton":{"key":"11","code":"SO","name":"Solothurn"},"status":"Real"},{"key":"10022491","name":"Nelkenweg","postalCode":"4564","locality":"Obergerlafingen","commune":{"key":"2528","name":"Obergerlafingen","shortName":"Obergerlafingen"},"district":{"key":"1106","name":"Bezirk Wasseramt"},"canton":{"key":"11","code":"SO","name":"Solothurn"},"status":"Real"},{"key":"10089806","name":"Neumattstrasse","postalCode":"4563","locality":"Gerlafingen","commune":{"key":"2519","name":"Gerlafingen","shortName":"Gerlafingen"},"district":{"key":"1106","name":"Bezirk Wasseramt"},"canton":{"key":"11","code":"SO","name":"Solothurn"},"status":"Real"},{"key":"10023420","name":"Nordringstrasse","postalCode":"4563","locality":"Gerlafingen","commune":{"key":"2519","name":"Gerlafingen","shortName":"Gerlafingen"},"district":{"key":"1106","name":"Bezirk Wasseramt"},"canton":{"key":"11","code":"SO","name":"Solothurn"},"status":"Real"},{"key":"10023421","name":"Oberfeldstrasse","postalCode":"4563","locality":"Gerlafingen","commune":{"key":"2519","name":"Gerlafingen","shortName":"Gerlafingen"},"district":{"key":"1106","name":"Bezirk Wasseramt"},"canton":{"key":"11","code":"SO","name":"Solothurn"},"status":"Real"},{"key":"10089807","name":"Obergerlafingenstrasse","postalCode":"4563","locality":"Gerlafingen","commune":{"key":"2519","name":"Gerlafingen","shortName":"Gerlafingen"},"district":{"key":"1106","name":"Bezirk Wasseramt"},"canton":{"key":"11","code":"SO","name":"Solothurn"},"status":"Real"},{"key":"10022492","name":"Poststrasse","postalCode":"4564","locality":"Obergerlafingen","commune":{"key":"2528","name":"Obergerlafingen","shortName":"Obergerlafingen"},"district":{"key":"1106","name":"Bezirk Wasseramt"},"canton":{"key":"11","code":"SO","name":"Solothurn"},"status":"Real"},{"key":"10153144","name":"Primelweg","postalCode":"4563","locality":"Gerlafingen","commune":{"key":"2519","name":"Gerlafingen","shortName":"Gerlafingen"},"district":{"key":"1106","name":"Bezirk Wasseramt"},"canton":{"key":"11","code":"SO","name":"Solothurn"},"status":"Real"},{"key":"10067537","name":"Privatstrasse","postalCode":"4563","locality":"Gerlafingen","commune":{"key":"2519","name":"Gerlafingen","shortName":"Gerlafingen"},"district":{"key":"1106","name":"Bezirk Wasseramt"},"canton":{"key":"11","code":"SO","name":"Solothurn"},"status":"Real"},{"key":"10212589","name":"Recherswilstrasse","postalCode":"4564","locality":"Obergerlafingen","commune":{"key":"2528","name":"Obergerlafingen","shortName":"Obergerlafingen"},"district":{"key":"1106","name":"Bezirk Wasseramt"},"canton":{"key":"11","code":"SO","name":"Solothurn"},"status":"Real"},{"key":"10091826","name":"Ringstrasse","postalCode":"4564","locality":"Obergerlafingen","commune":{"key":"2528","name":"Obergerlafingen","shortName":"Obergerlafingen"},"district":{"key":"1106","name":"Bezirk Wasseramt"},"canton":{"key":"11","code":"SO","name":"Solothurn"},"status":"Real"},{"key":"10023422","name":"Rosenstrasse","postalCode":"4563","locality":"Gerlafingen","commune":{"key":"2519","name":"Gerlafingen","shortName":"Gerlafingen"},"district":{"key":"1106","name":"Bezirk Wasseramt"},"canton":{"key":"11","code":"SO","name":"Solothurn"},"status":"Real"},{"key":"10022493","name":"Rosenstrasse","postalCode":"4564","locality":"Obergerlafingen","commune":{"key":"2528","name":"Obergerlafingen","shortName":"Obergerlafingen"},"district":{"key":"1106","name":"Bezirk Wasseramt"},"canton":{"key":"11","code":"SO","name":"Solothurn"},"status":"Real"},{"key":"10067538","name":"Sägefeldstrasse","postalCode":"4563","locality":"Gerlafingen","commune":{"key":"2519","name":"Gerlafingen","shortName":"Gerlafingen"},"district":{"key":"1106","name":"Bezirk Wasseramt"},"canton":{"key":"11","code":"SO","name":"Solothurn"},"status":"Real"},{"key":"10023423","name":"Schmiedeweg","postalCode":"4563","locality":"Gerlafingen","commune":{"key":"2519","name":"Gerlafingen","shortName":"Gerlafingen"},"district":{"key":"1106","name":"Bezirk Wasseramt"},"canton":{"key":"11","code":"SO","name":"Solothurn"},"status":"Real"},{"key":"10023424","name":"Schulhausstrasse","postalCode":"4563","locality":"Gerlafingen","commune":{"key":"2519","name":"Gerlafingen","shortName":"Gerlafingen"},"district":{"key":"1106","name":"Bezirk Wasseramt"},"canton":{"key":"11","code":"SO","name":"Solothurn"},"status":"Real"},{"key":"10090904","name":"Schulhausstrasse","postalCode":"4564","locality":"Obergerlafingen","commune":{"key":"2528","name":"Obergerlafingen","shortName":"Obergerlafingen"},"district":{"key":"1106","name":"Bezirk Wasseramt"},"canton":{"key":"11","code":"SO","name":"Solothurn"},"status":"Real"},{"key":"10055942","name":"Schwalbenweg","postalCode":"4564","locality":"Obergerlafingen","commune":{"key":"2528","name":"Obergerlafingen","shortName":"Obergerlafingen"},"district":{"key":"1106","name":"Bezirk Wasseramt"},"canton":{"key":"11","code":"SO","name":"Solothurn"},"status":"Real"},{"key":"10089808","name":"Sonnenfeldstrasse","postalCode":"4563","locality":"Gerlafingen","commune":{"key":"2519","name":"Gerlafingen","shortName":"Gerlafingen"},"district":{"key":"1106","name":"Bezirk Wasseramt"},"canton":{"key":"11","code":"SO","name":"Solothurn"},"status":"Real"},{"key":"10212591","name":"Sportfeldstrasse","postalCode":"4564","locality":"Obergerlafingen","commune":{"key":"2528","name":"Obergerlafingen","shortName":"Obergerlafingen"},"district":{"key":"1106","name":"Bezirk Wasseramt"},"canton":{"key":"11","code":"SO","name":"Solothurn"},"status":"Real"},{"key":"10111345","name":"Steinackerweg","postalCode":"4564","locality":"Obergerlafingen","commune":{"key":"2528","name":"Obergerlafingen","shortName":"Obergerlafingen"},"district":{"key":"1106","name":"Bezirk Wasseramt"},"canton":{"key":"11","code":"SO","name":"Solothurn"},"status":"Real"},{"key":"10023425","name":"Steinhölzlistrasse","postalCode":"4563","locality":"Gerlafingen","commune":{"key":"2519","name":"Gerlafingen","shortName":"Gerlafingen"},"district":{"key":"1106","name":"Bezirk Wasseramt"},"canton":{"key":"11","code":"SO","name":"Solothurn"},"status":"Real"},{"key":"10023426","name":"Südringstrasse","postalCode":"4563","locality":"Gerlafingen","commune":{"key":"2519","name":"Gerlafingen","shortName":"Gerlafingen"},"district":{"key":"1106","name":"Bezirk Wasseramt"},"canton":{"key":"11","code":"SO","name":"Solothurn"},"status":"Real"},{"key":"10128658","name":"Tannenweg","postalCode":"4564","locality":"Obergerlafingen","commune":{"key":"2528","name":"Obergerlafingen","shortName":"Obergerlafingen"},"district":{"key":"1106","name":"Bezirk Wasseramt"},"canton":{"key":"11","code":"SO","name":"Solothurn"},"status":"Real"},{"key":"10184036","name":"Tannstrasse","postalCode":"4563","locality":"Gerlafingen","commune":{"key":"2519","name":"Gerlafingen","shortName":"Gerlafingen"},"district":{"key":"1106","name":"Bezirk Wasseramt"},"canton":{"key":"11","code":"SO","name":"Solothurn"},"status":"Real"},{"key":"10175682","name":"Taubenweg","postalCode":"4564","locality":"Obergerlafingen","commune":{"key":"2528","name":"Obergerlafingen","shortName":"Obergerlafingen"},"district":{"key":"1106","name":"Bezirk Wasseramt"},"canton":{"key":"11","code":"SO","name":"Solothurn"},"status":"Real"},{"key":"10089809","name":"Tiefmattstrasse","postalCode":"4563","locality":"Gerlafingen","commune":{"key":"2519","name":"Gerlafingen","shortName":"Gerlafingen"},"district":{"key":"1106","name":"Bezirk Wasseramt"},"canton":{"key":"11","code":"SO","name":"Solothurn"},"status":"Real"},{"key":"10186229","name":"Tiefmattweg","postalCode":"4563","locality":"Gerlafingen","commune":{"key":"2519","name":"Gerlafingen","shortName":"Gerlafingen"},"district":{"key":"1106","name":"Bezirk Wasseramt"},"canton":{"key":"11","code":"SO","name":"Solothurn"},"status":"Real"},{"key":"10051510","name":"Tulpenstrasse","postalCode":"4563","locality":"Gerlafingen","commune":{"key":"2519","name":"Gerlafingen","shortName":"Gerlafingen"},"district":{"key":"1106","name":"Bezirk Wasseramt"},"canton":{"key":"11","code":"SO","name":"Solothurn"},"status":"Real"},{"key":"10109922","name":"Ulmenstrasse","postalCode":"4563","locality":"Gerlafingen","commune":{"key":"2519","name":"Gerlafingen","shortName":"Gerlafingen"},"district":{"key":"1106","name":"Bezirk Wasseramt"},"canton":{"key":"11","code":"SO","name":"Solothurn"},"status":"Real"},{"key":"10184043","name":"Ulmenweg","postalCode":"4564","locality":"Obergerlafingen","commune":{"key":"2528","name":"Obergerlafingen","shortName":"Obergerlafingen"},"district":{"key":"1106","name":"Bezirk Wasseramt"},"canton":{"key":"11","code":"SO","name":"Solothurn"},"status":"Real"},{"key":"10090905","name":"Utzenstorfstrasse","postalCode":"4564","locality":"Obergerlafingen","commune":{"key":"2528","name":"Obergerlafingen","shortName":"Obergerlafingen"},"district":{"key":"1106","name":"Bezirk Wasseramt"},"canton":{"key":"11","code":"SO","name":"Solothurn"},"status":"Real"},{"key":"10067539","name":"Veilchenweg","postalCode":"4563","locality":"Gerlafingen","commune":{"key":"2519","name":"Gerlafingen","shortName":"Gerlafingen"},"district":{"key":"1106","name":"Bezirk Wasseramt"},"canton":{"key":"11","code":"SO","name":"Solothurn"},"status":"Real"},{"key":"10023427","name":"Verenaweg","postalCode":"4563","locality":"Gerlafingen","commune":{"key":"2519","name":"Gerlafingen","shortName":"Gerlafingen"},"district":{"key":"1106","name":"Bezirk Wasseramt"},"canton":{"key":"11","code":"SO","name":"Solothurn"},"status":"Real"},{"key":"10091819","name":"Waldstrasse","postalCode":"4563","locality":"Gerlafingen","commune":{"key":"2519","name":"Gerlafingen","shortName":"Gerlafingen"},"district":{"key":"1106","name":"Bezirk Wasseramt"},"canton":{"key":"11","code":"SO","name":"Solothurn"},"status":"Real"},{"key":"10125843","name":"Waldstrasse","postalCode":"4564","locality":"Obergerlafingen","commune":{"key":"2528","name":"Obergerlafingen","shortName":"Obergerlafingen"},"district":{"key":"1106","name":"Bezirk Wasseramt"},"canton":{"key":"11","code":"SO","name":"Solothurn"},"status":"Real"},{"key":"10128609","name":"Weiherweg","postalCode":"4563","locality":"Gerlafingen","commune":{"key":"2519","name":"Gerlafingen","shortName":"Gerlafingen"},"district":{"key":"1106","name":"Bezirk Wasseramt"},"canton":{"key":"11","code":"SO","name":"Solothurn"},"status":"Real"},{"key":"10212917","name":"Werkareal-Ost","postalCode":"4563","locality":"Gerlafingen","commune":{"key":"2519","name":"Gerlafingen","shortName":"Gerlafingen"},"district":{"key":"1106","name":"Bezirk Wasseramt"},"canton":{"key":"11","code":"SO","name":"Solothurn"},"status":"Real"},{"key":"10023428","name":"Werkareal-West","postalCode":"4563","locality":"Gerlafingen","commune":{"key":"2519","name":"Gerlafingen","shortName":"Gerlafingen"},"district":{"key":"1106","name":"Bezirk Wasseramt"},"canton":{"key":"11","code":"SO","name":"Solothurn"},"status":"Real"},{"key":"10103742","name":"Wiesenfeldgasse","postalCode":"4563","locality":"Gerlafingen","commune":{"key":"2519","name":"Gerlafingen","shortName":"Gerlafingen"},"district":{"key":"1106","name":"Bezirk Wasseramt"},"canton":{"key":"11","code":"SO","name":"Solothurn"},"status":"Real"},{"key":"10107042","name":"Wiesenfeldstrasse","postalCode":"4563","locality":"Gerlafingen","commune":{"key":"2519","name":"Gerlafingen","shortName":"Gerlafingen"},"district":{"key":"1106","name":"Bezirk Wasseramt"},"canton":{"key":"11","code":"SO","name":"Solothurn"},"status":"Real"},{"key":"10023429","name":"Wilerstrasse","postalCode":"4563","locality":"Gerlafingen","commune":{"key":"2519","name":"Gerlafingen","shortName":"Gerlafingen"},"district":{"key":"1106","name":"Bezirk Wasseramt"},"canton":{"key":"11","code":"SO","name":"Solothurn"},"status":"Real"},{"key":"10181573","name":"Zeisigweg","postalCode":"4564","locality":"Obergerlafingen","commune":{"key":"2528","name":"Obergerlafingen","shortName":"Obergerlafingen"},"district":{"key":"1106","name":"Bezirk Wasseramt"},"canton":{"key":"11","code":"SO","name":"Solothurn"},"status":"Real"},{"key":"10089810","name":"Zelglistrasse","postalCode":"4563","locality":"Gerlafingen","commune":{"key":"2519","name":"Gerlafingen","shortName":"Gerlafingen"},"district":{"key":"1106","name":"Bezirk Wasseramt"},"canton":{"key":"11","code":"SO","name":"Solothurn"},"status":"Real"},{"key":"10022494","name":"Zielebachstrasse","postalCode":"4564","locality":"Obergerlafingen","commune":{"key":"2528","name":"Obergerlafingen","shortName":"Obergerlafingen"},"district":{"key":"1106","name":"Bezirk Wasseramt"},"canton":{"key":"11","code":"SO","name":"Solothurn"},"status":"Real"},{"key":"10053774","name":"Zielmattenring","postalCode":"4563","locality":"Gerlafingen","commune":{"key":"2519","name":"Gerlafingen","shortName":"Gerlafingen"},"district":{"key":"1106","name":"Bezirk Wasseramt"},"canton":{"key":"11","code":"SO","name":"Solothurn"},"status":"Real"},{"key":"10152707","name":"Zielmattenstrasse","postalCode":"4563","locality":"Gerlafingen","commune":{"key":"2519","name":"Gerlafingen","shortName":"Gerlafingen"},"district":{"key":"1106","name":"Bezirk Wasseramt"},"canton":{"key":"11","code":"SO","name":"Solothurn"},"status":"Real"},]