[{"name":"Ahornweg","postalCode":"97267","locality":"Himmelstadt","municipality":{"key":"09677142","name":"Himmelstadt","type":"Kreisangehörige_Gemeinde"},"district":{"key":"09677","name":"Main-Spessart","type":"Landkreis"},"federalState":{"key":"09","name":"Bayern"}},{"name":"Am Burkardstuhl","postalCode":"97267","locality":"Himmelstadt","municipality":{"key":"09677142","name":"Himmelstadt","type":"Kreisangehörige_Gemeinde"},"district":{"key":"09677","name":"Main-Spessart","type":"Landkreis"},"federalState":{"key":"09","name":"Bayern"}},{"name":"Am Häusleacker","postalCode":"97267","locality":"Himmelstadt","municipality":{"key":"09677142","name":"Himmelstadt","type":"Kreisangehörige_Gemeinde"},"district":{"key":"09677","name":"Main-Spessart","type":"Landkreis"},"federalState":{"key":"09","name":"Bayern"}},{"name":"Am Hirtengarten","postalCode":"97267","locality":"Himmelstadt","municipality":{"key":"09677142","name":"Himmelstadt","type":"Kreisangehörige_Gemeinde"},"district":{"key":"09677","name":"Main-Spessart","type":"Landkreis"},"federalState":{"key":"09","name":"Bayern"}},{"name":"Bahnhofstr.","postalCode":"97267","locality":"Himmelstadt","municipality":{"key":"09677142","name":"Himmelstadt","type":"Kreisangehörige_Gemeinde"},"district":{"key":"09677","name":"Main-Spessart","type":"Landkreis"},"federalState":{"key":"09","name":"Bayern"}},{"name":"Birkenstr.","postalCode":"97267","locality":"Himmelstadt","municipality":{"key":"09677142","name":"Himmelstadt","type":"Kreisangehörige_Gemeinde"},"district":{"key":"09677","name":"Main-Spessart","type":"Landkreis"},"federalState":{"key":"09","name":"Bayern"}},{"name":"Brückenstr.","postalCode":"97267","locality":"Himmelstadt","municipality":{"key":"09677142","name":"Himmelstadt","type":"Kreisangehörige_Gemeinde"},"district":{"key":"09677","name":"Main-Spessart","type":"Landkreis"},"federalState":{"key":"09","name":"Bayern"}},{"name":"Brunntalstr.","postalCode":"97267","locality":"Himmelstadt","municipality":{"key":"09677142","name":"Himmelstadt","type":"Kreisangehörige_Gemeinde"},"district":{"key":"09677","name":"Main-Spessart","type":"Landkreis"},"federalState":{"key":"09","name":"Bayern"}},{"name":"Buchenweg","postalCode":"97267","locality":"Himmelstadt","municipality":{"key":"09677142","name":"Himmelstadt","type":"Kreisangehörige_Gemeinde"},"district":{"key":"09677","name":"Main-Spessart","type":"Landkreis"},"federalState":{"key":"09","name":"Bayern"}},{"name":"Daimlerstr.","postalCode":"97267","locality":"Himmelstadt","municipality":{"key":"09677142","name":"Himmelstadt","type":"Kreisangehörige_Gemeinde"},"district":{"key":"09677","name":"Main-Spessart","type":"Landkreis"},"federalState":{"key":"09","name":"Bayern"}},{"name":"Denkmalstr.","postalCode":"97267","locality":"Himmelstadt","municipality":{"key":"09677142","name":"Himmelstadt","type":"Kreisangehörige_Gemeinde"},"district":{"key":"09677","name":"Main-Spessart","type":"Landkreis"},"federalState":{"key":"09","name":"Bayern"}},{"name":"Fichtenstr.","postalCode":"97267","locality":"Himmelstadt","municipality":{"key":"09677142","name":"Himmelstadt","type":"Kreisangehörige_Gemeinde"},"district":{"key":"09677","name":"Main-Spessart","type":"Landkreis"},"federalState":{"key":"09","name":"Bayern"}},{"name":"Fischergasse","postalCode":"97267","locality":"Himmelstadt","municipality":{"key":"09677142","name":"Himmelstadt","type":"Kreisangehörige_Gemeinde"},"district":{"key":"09677","name":"Main-Spessart","type":"Landkreis"},"federalState":{"key":"09","name":"Bayern"}},{"name":"Friedhofsweg","postalCode":"97267","locality":"Himmelstadt","municipality":{"key":"09677142","name":"Himmelstadt","type":"Kreisangehörige_Gemeinde"},"district":{"key":"09677","name":"Main-Spessart","type":"Landkreis"},"federalState":{"key":"09","name":"Bayern"}},{"name":"Gartenstr.","postalCode":"97267","locality":"Himmelstadt","municipality":{"key":"09677142","name":"Himmelstadt","type":"Kreisangehörige_Gemeinde"},"district":{"key":"09677","name":"Main-Spessart","type":"Landkreis"},"federalState":{"key":"09","name":"Bayern"}},{"name":"Hauptstr.","postalCode":"97267","locality":"Himmelstadt","municipality":{"key":"09677142","name":"Himmelstadt","type":"Kreisangehörige_Gemeinde"},"district":{"key":"09677","name":"Main-Spessart","type":"Landkreis"},"federalState":{"key":"09","name":"Bayern"}},{"name":"Hirtengartenweg","postalCode":"97267","locality":"Himmelstadt","municipality":{"key":"09677142","name":"Himmelstadt","type":"Kreisangehörige_Gemeinde"},"district":{"key":"09677","name":"Main-Spessart","type":"Landkreis"},"federalState":{"key":"09","name":"Bayern"}},{"name":"Hofstr.","postalCode":"97267","locality":"Himmelstadt","municipality":{"key":"09677142","name":"Himmelstadt","type":"Kreisangehörige_Gemeinde"},"district":{"key":"09677","name":"Main-Spessart","type":"Landkreis"},"federalState":{"key":"09","name":"Bayern"}},{"name":"Kirchplatz","postalCode":"97267","locality":"Himmelstadt","municipality":{"key":"09677142","name":"Himmelstadt","type":"Kreisangehörige_Gemeinde"},"district":{"key":"09677","name":"Main-Spessart","type":"Landkreis"},"federalState":{"key":"09","name":"Bayern"}},{"name":"Klosterweg","postalCode":"97267","locality":"Himmelstadt","municipality":{"key":"09677142","name":"Himmelstadt","type":"Kreisangehörige_Gemeinde"},"district":{"key":"09677","name":"Main-Spessart","type":"Landkreis"},"federalState":{"key":"09","name":"Bayern"}},{"name":"Lärchenweg","postalCode":"97267","locality":"Himmelstadt","municipality":{"key":"09677142","name":"Himmelstadt","type":"Kreisangehörige_Gemeinde"},"district":{"key":"09677","name":"Main-Spessart","type":"Landkreis"},"federalState":{"key":"09","name":"Bayern"}},{"name":"Lehmgrubenweg","postalCode":"97267","locality":"Himmelstadt","municipality":{"key":"09677142","name":"Himmelstadt","type":"Kreisangehörige_Gemeinde"},"district":{"key":"09677","name":"Main-Spessart","type":"Landkreis"},"federalState":{"key":"09","name":"Bayern"}},{"name":"Lindenweg","postalCode":"97267","locality":"Himmelstadt","municipality":{"key":"09677142","name":"Himmelstadt","type":"Kreisangehörige_Gemeinde"},"district":{"key":"09677","name":"Main-Spessart","type":"Landkreis"},"federalState":{"key":"09","name":"Bayern"}},{"name":"Mainstr.","postalCode":"97267","locality":"Himmelstadt","municipality":{"key":"09677142","name":"Himmelstadt","type":"Kreisangehörige_Gemeinde"},"district":{"key":"09677","name":"Main-Spessart","type":"Landkreis"},"federalState":{"key":"09","name":"Bayern"}},{"name":"Mausbergstr.","postalCode":"97267","locality":"Himmelstadt","municipality":{"key":"09677142","name":"Himmelstadt","type":"Kreisangehörige_Gemeinde"},"district":{"key":"09677","name":"Main-Spessart","type":"Landkreis"},"federalState":{"key":"09","name":"Bayern"}},{"name":"MSP 8","postalCode":"97267","locality":"Himmelstadt","municipality":{"key":"09677142","name":"Himmelstadt","type":"Kreisangehörige_Gemeinde"},"district":{"key":"09677","name":"Main-Spessart","type":"Landkreis"},"federalState":{"key":"09","name":"Bayern"}},{"name":"Obere Ringstr.","postalCode":"97267","locality":"Himmelstadt","municipality":{"key":"09677142","name":"Himmelstadt","type":"Kreisangehörige_Gemeinde"},"district":{"key":"09677","name":"Main-Spessart","type":"Landkreis"},"federalState":{"key":"09","name":"Bayern"}},{"name":"Pillenbergstr.","postalCode":"97267","locality":"Himmelstadt","municipality":{"key":"09677142","name":"Himmelstadt","type":"Kreisangehörige_Gemeinde"},"district":{"key":"09677","name":"Main-Spessart","type":"Landkreis"},"federalState":{"key":"09","name":"Bayern"}},{"name":"Rudolf-Diesel-Str.","postalCode":"97267","locality":"Himmelstadt","municipality":{"key":"09677142","name":"Himmelstadt","type":"Kreisangehörige_Gemeinde"},"district":{"key":"09677","name":"Main-Spessart","type":"Landkreis"},"federalState":{"key":"09","name":"Bayern"}},{"name":"Schmiedsgasse","postalCode":"97267","locality":"Himmelstadt","municipality":{"key":"09677142","name":"Himmelstadt","type":"Kreisangehörige_Gemeinde"},"district":{"key":"09677","name":"Main-Spessart","type":"Landkreis"},"federalState":{"key":"09","name":"Bayern"}},{"name":"Talrainstr.","postalCode":"97267","locality":"Himmelstadt","municipality":{"key":"09677142","name":"Himmelstadt","type":"Kreisangehörige_Gemeinde"},"district":{"key":"09677","name":"Main-Spessart","type":"Landkreis"},"federalState":{"key":"09","name":"Bayern"}},{"name":"Tannenstr.","postalCode":"97267","locality":"Himmelstadt","municipality":{"key":"09677142","name":"Himmelstadt","type":"Kreisangehörige_Gemeinde"},"district":{"key":"09677","name":"Main-Spessart","type":"Landkreis"},"federalState":{"key":"09","name":"Bayern"}},{"name":"Triebstr.","postalCode":"97267","locality":"Himmelstadt","municipality":{"key":"09677142","name":"Himmelstadt","type":"Kreisangehörige_Gemeinde"},"district":{"key":"09677","name":"Main-Spessart","type":"Landkreis"},"federalState":{"key":"09","name":"Bayern"}},{"name":"Untere Ringstr.","postalCode":"97267","locality":"Himmelstadt","municipality":{"key":"09677142","name":"Himmelstadt","type":"Kreisangehörige_Gemeinde"},"district":{"key":"09677","name":"Main-Spessart","type":"Landkreis"},"federalState":{"key":"09","name":"Bayern"}},{"name":"Waldstr.","postalCode":"97267","locality":"Himmelstadt","municipality":{"key":"09677142","name":"Himmelstadt","type":"Kreisangehörige_Gemeinde"},"district":{"key":"09677","name":"Main-Spessart","type":"Landkreis"},"federalState":{"key":"09","name":"Bayern"}},{"name":"Wiesenweg","postalCode":"97267","locality":"Himmelstadt","municipality":{"key":"09677142","name":"Himmelstadt","type":"Kreisangehörige_Gemeinde"},"district":{"key":"09677","name":"Main-Spessart","type":"Landkreis"},"federalState":{"key":"09","name":"Bayern"}},{"name":"Würzburger Str.","postalCode":"97267","locality":"Himmelstadt","municipality":{"key":"09677142","name":"Himmelstadt","type":"Kreisangehörige_Gemeinde"},"district":{"key":"09677","name":"Main-Spessart","type":"Landkreis"},"federalState":{"key":"09","name":"Bayern"}},]