[{"name":"Am Denkmal","postalCode":"23936","locality":"Upahl","municipality":{"key":"13074079","name":"Upahl","type":"Kreisangehörige_Gemeinde"},"district":{"key":"13074","name":"Nordwestmecklenburg","type":"Landkreis"},"federalState":{"key":"13","name":"Mecklenburg-Vorpommern"}},{"name":"Am Dorfplatz","postalCode":"23936","locality":"Upahl","municipality":{"key":"13074079","name":"Upahl","type":"Kreisangehörige_Gemeinde"},"district":{"key":"13074","name":"Nordwestmecklenburg","type":"Landkreis"},"federalState":{"key":"13","name":"Mecklenburg-Vorpommern"}},{"name":"Am Forellenbach","postalCode":"23936","locality":"Upahl","municipality":{"key":"13074079","name":"Upahl","type":"Kreisangehörige_Gemeinde"},"district":{"key":"13074","name":"Nordwestmecklenburg","type":"Landkreis"},"federalState":{"key":"13","name":"Mecklenburg-Vorpommern"}},{"name":"Am Holländersteig","postalCode":"23936","locality":"Upahl","municipality":{"key":"13074079","name":"Upahl","type":"Kreisangehörige_Gemeinde"},"district":{"key":"13074","name":"Nordwestmecklenburg","type":"Landkreis"},"federalState":{"key":"13","name":"Mecklenburg-Vorpommern"}},{"name":"Am Horstenberg","postalCode":"23936","locality":"Upahl","municipality":{"key":"13074079","name":"Upahl","type":"Kreisangehörige_Gemeinde"},"district":{"key":"13074","name":"Nordwestmecklenburg","type":"Landkreis"},"federalState":{"key":"13","name":"Mecklenburg-Vorpommern"}},{"name":"Am Möllerbarg","postalCode":"23936","locality":"Upahl","municipality":{"key":"13074079","name":"Upahl","type":"Kreisangehörige_Gemeinde"},"district":{"key":"13074","name":"Nordwestmecklenburg","type":"Landkreis"},"federalState":{"key":"13","name":"Mecklenburg-Vorpommern"}},{"name":"Am Park","postalCode":"23936","locality":"Upahl","municipality":{"key":"13074079","name":"Upahl","type":"Kreisangehörige_Gemeinde"},"district":{"key":"13074","name":"Nordwestmecklenburg","type":"Landkreis"},"federalState":{"key":"13","name":"Mecklenburg-Vorpommern"}},{"name":"Am Schlosspark","postalCode":"23936","locality":"Upahl","municipality":{"key":"13074079","name":"Upahl","type":"Kreisangehörige_Gemeinde"},"district":{"key":"13074","name":"Nordwestmecklenburg","type":"Landkreis"},"federalState":{"key":"13","name":"Mecklenburg-Vorpommern"}},{"name":"Am Wall","postalCode":"23936","locality":"Upahl","municipality":{"key":"13074079","name":"Upahl","type":"Kreisangehörige_Gemeinde"},"district":{"key":"13074","name":"Nordwestmecklenburg","type":"Landkreis"},"federalState":{"key":"13","name":"Mecklenburg-Vorpommern"}},{"name":"An der B105 Waldeck","postalCode":"23936","locality":"Upahl","municipality":{"key":"13074079","name":"Upahl","type":"Kreisangehörige_Gemeinde"},"district":{"key":"13074","name":"Nordwestmecklenburg","type":"Landkreis"},"federalState":{"key":"13","name":"Mecklenburg-Vorpommern"}},{"name":"Auf dem Schoor","postalCode":"23936","locality":"Upahl","municipality":{"key":"13074079","name":"Upahl","type":"Kreisangehörige_Gemeinde"},"district":{"key":"13074","name":"Nordwestmecklenburg","type":"Landkreis"},"federalState":{"key":"13","name":"Mecklenburg-Vorpommern"}},{"name":"Ausbau Sievershagen","postalCode":"23936","locality":"Upahl","municipality":{"key":"13074079","name":"Upahl","type":"Kreisangehörige_Gemeinde"},"district":{"key":"13074","name":"Nordwestmecklenburg","type":"Landkreis"},"federalState":{"key":"13","name":"Mecklenburg-Vorpommern"}},{"name":"Bauernweg","postalCode":"23936","locality":"Upahl","municipality":{"key":"13074079","name":"Upahl","type":"Kreisangehörige_Gemeinde"},"district":{"key":"13074","name":"Nordwestmecklenburg","type":"Landkreis"},"federalState":{"key":"13","name":"Mecklenburg-Vorpommern"}},{"name":"Blieschendorf","postalCode":"23936","locality":"Upahl","municipality":{"key":"13074079","name":"Upahl","type":"Kreisangehörige_Gemeinde"},"district":{"key":"13074","name":"Nordwestmecklenburg","type":"Landkreis"},"federalState":{"key":"13","name":"Mecklenburg-Vorpommern"}},{"name":"Boienhagen","postalCode":"23936","locality":"Upahl","municipality":{"key":"13074079","name":"Upahl","type":"Kreisangehörige_Gemeinde"},"district":{"key":"13074","name":"Nordwestmecklenburg","type":"Landkreis"},"federalState":{"key":"13","name":"Mecklenburg-Vorpommern"}},{"name":"Diedrichshäger Str.","postalCode":"23936","locality":"Upahl","municipality":{"key":"13074079","name":"Upahl","type":"Kreisangehörige_Gemeinde"},"district":{"key":"13074","name":"Nordwestmecklenburg","type":"Landkreis"},"federalState":{"key":"13","name":"Mecklenburg-Vorpommern"}},{"name":"Dorfplatz","postalCode":"18276","locality":"Klein Upahl","municipality":{"key":"13072055","name":"Klein Upahl","type":"Kreisangehörige_Gemeinde"},"district":{"key":"13072","name":"Landkreis Rostock","type":"Landkreis"},"federalState":{"key":"13","name":"Mecklenburg-Vorpommern"}},{"name":"Dorfstr.","postalCode":"18276","locality":"Klein Upahl","municipality":{"key":"13072055","name":"Klein Upahl","type":"Kreisangehörige_Gemeinde"},"district":{"key":"13072","name":"Landkreis Rostock","type":"Landkreis"},"federalState":{"key":"13","name":"Mecklenburg-Vorpommern"}},{"name":"Dorfstr. Plüschow","postalCode":"23936","locality":"Upahl","municipality":{"key":"13074079","name":"Upahl","type":"Kreisangehörige_Gemeinde"},"district":{"key":"13074","name":"Nordwestmecklenburg","type":"Landkreis"},"federalState":{"key":"13","name":"Mecklenburg-Vorpommern"}},{"name":"Eichengrund","postalCode":"23936","locality":"Upahl","municipality":{"key":"13074079","name":"Upahl","type":"Kreisangehörige_Gemeinde"},"district":{"key":"13074","name":"Nordwestmecklenburg","type":"Landkreis"},"federalState":{"key":"13","name":"Mecklenburg-Vorpommern"}},{"name":"Forstweg","postalCode":"23936","locality":"Upahl","municipality":{"key":"13074079","name":"Upahl","type":"Kreisangehörige_Gemeinde"},"district":{"key":"13074","name":"Nordwestmecklenburg","type":"Landkreis"},"federalState":{"key":"13","name":"Mecklenburg-Vorpommern"}},{"name":"Friedrichshäger Str.","postalCode":"23936","locality":"Upahl","municipality":{"key":"13074079","name":"Upahl","type":"Kreisangehörige_Gemeinde"},"district":{"key":"13074","name":"Nordwestmecklenburg","type":"Landkreis"},"federalState":{"key":"13","name":"Mecklenburg-Vorpommern"}},{"name":"Grevesmühlener Str.","postalCode":"23936","locality":"Upahl","municipality":{"key":"13074079","name":"Upahl","type":"Kreisangehörige_Gemeinde"},"district":{"key":"13074","name":"Nordwestmecklenburg","type":"Landkreis"},"federalState":{"key":"13","name":"Mecklenburg-Vorpommern"}},{"name":"Grüner Weg","postalCode":"18276","locality":"Klein Upahl","municipality":{"key":"13072055","name":"Klein Upahl","type":"Kreisangehörige_Gemeinde"},"district":{"key":"13072","name":"Landkreis Rostock","type":"Landkreis"},"federalState":{"key":"13","name":"Mecklenburg-Vorpommern"}},{"name":"Hanshagen","postalCode":"23936","locality":"Upahl","municipality":{"key":"13074079","name":"Upahl","type":"Kreisangehörige_Gemeinde"},"district":{"key":"13074","name":"Nordwestmecklenburg","type":"Landkreis"},"federalState":{"key":"13","name":"Mecklenburg-Vorpommern"}},{"name":"Hauptstr.","postalCode":"23936","locality":"Upahl","municipality":{"key":"13074079","name":"Upahl","type":"Kreisangehörige_Gemeinde"},"district":{"key":"13074","name":"Nordwestmecklenburg","type":"Landkreis"},"federalState":{"key":"13","name":"Mecklenburg-Vorpommern"}},{"name":"Hilgendorfer Dorfstr.","postalCode":"23936","locality":"Upahl","municipality":{"key":"13074079","name":"Upahl","type":"Kreisangehörige_Gemeinde"},"district":{"key":"13074","name":"Nordwestmecklenburg","type":"Landkreis"},"federalState":{"key":"13","name":"Mecklenburg-Vorpommern"}},{"name":"Jeeser Str.","postalCode":"23936","locality":"Upahl","municipality":{"key":"13074079","name":"Upahl","type":"Kreisangehörige_Gemeinde"},"district":{"key":"13074","name":"Nordwestmecklenburg","type":"Landkreis"},"federalState":{"key":"13","name":"Mecklenburg-Vorpommern"}},{"name":"Mühlenbergweg","postalCode":"18276","locality":"Klein Upahl","municipality":{"key":"13072055","name":"Klein Upahl","type":"Kreisangehörige_Gemeinde"},"district":{"key":"13072","name":"Landkreis Rostock","type":"Landkreis"},"federalState":{"key":"13","name":"Mecklenburg-Vorpommern"}},{"name":"Naschendorfer Str.","postalCode":"23936","locality":"Upahl","municipality":{"key":"13074079","name":"Upahl","type":"Kreisangehörige_Gemeinde"},"district":{"key":"13074","name":"Nordwestmecklenburg","type":"Landkreis"},"federalState":{"key":"13","name":"Mecklenburg-Vorpommern"}},{"name":"Neuländer Weg","postalCode":"23936","locality":"Upahl","municipality":{"key":"13074079","name":"Upahl","type":"Kreisangehörige_Gemeinde"},"district":{"key":"13074","name":"Nordwestmecklenburg","type":"Landkreis"},"federalState":{"key":"13","name":"Mecklenburg-Vorpommern"}},{"name":"Plüschower Dorfstr.","postalCode":"23936","locality":"Upahl","municipality":{"key":"13074079","name":"Upahl","type":"Kreisangehörige_Gemeinde"},"district":{"key":"13074","name":"Nordwestmecklenburg","type":"Landkreis"},"federalState":{"key":"13","name":"Mecklenburg-Vorpommern"}},{"name":"Plüschower Mühle","postalCode":"23936","locality":"Upahl","municipality":{"key":"13074079","name":"Upahl","type":"Kreisangehörige_Gemeinde"},"district":{"key":"13074","name":"Nordwestmecklenburg","type":"Landkreis"},"federalState":{"key":"13","name":"Mecklenburg-Vorpommern"}},{"name":"Poststr.","postalCode":"23936","locality":"Upahl","municipality":{"key":"13074079","name":"Upahl","type":"Kreisangehörige_Gemeinde"},"district":{"key":"13074","name":"Nordwestmecklenburg","type":"Landkreis"},"federalState":{"key":"13","name":"Mecklenburg-Vorpommern"}},{"name":"Rambeeler Str.","postalCode":"23936","locality":"Upahl","municipality":{"key":"13074079","name":"Upahl","type":"Kreisangehörige_Gemeinde"},"district":{"key":"13074","name":"Nordwestmecklenburg","type":"Landkreis"},"federalState":{"key":"13","name":"Mecklenburg-Vorpommern"}},{"name":"Schmiedeweg","postalCode":"23936","locality":"Upahl","municipality":{"key":"13074079","name":"Upahl","type":"Kreisangehörige_Gemeinde"},"district":{"key":"13074","name":"Nordwestmecklenburg","type":"Landkreis"},"federalState":{"key":"13","name":"Mecklenburg-Vorpommern"}},{"name":"Schulzenweg","postalCode":"23936","locality":"Upahl","municipality":{"key":"13074079","name":"Upahl","type":"Kreisangehörige_Gemeinde"},"district":{"key":"13074","name":"Nordwestmecklenburg","type":"Landkreis"},"federalState":{"key":"13","name":"Mecklenburg-Vorpommern"}},{"name":"Schusterweg","postalCode":"23936","locality":"Upahl","municipality":{"key":"13074079","name":"Upahl","type":"Kreisangehörige_Gemeinde"},"district":{"key":"13074","name":"Nordwestmecklenburg","type":"Landkreis"},"federalState":{"key":"13","name":"Mecklenburg-Vorpommern"}},{"name":"Seestr.","postalCode":"18276","locality":"Klein Upahl","municipality":{"key":"13072055","name":"Klein Upahl","type":"Kreisangehörige_Gemeinde"},"district":{"key":"13072","name":"Landkreis Rostock","type":"Landkreis"},"federalState":{"key":"13","name":"Mecklenburg-Vorpommern"}},{"name":"Seestr.","postalCode":"23936","locality":"Upahl","municipality":{"key":"13074079","name":"Upahl","type":"Kreisangehörige_Gemeinde"},"district":{"key":"13074","name":"Nordwestmecklenburg","type":"Landkreis"},"federalState":{"key":"13","name":"Mecklenburg-Vorpommern"}},{"name":"Siedlerweg","postalCode":"23936","locality":"Upahl","municipality":{"key":"13074079","name":"Upahl","type":"Kreisangehörige_Gemeinde"},"district":{"key":"13074","name":"Nordwestmecklenburg","type":"Landkreis"},"federalState":{"key":"13","name":"Mecklenburg-Vorpommern"}},{"name":"Sievershagen","postalCode":"23936","locality":"Upahl","municipality":{"key":"13074079","name":"Upahl","type":"Kreisangehörige_Gemeinde"},"district":{"key":"13074","name":"Nordwestmecklenburg","type":"Landkreis"},"federalState":{"key":"13","name":"Mecklenburg-Vorpommern"}},{"name":"Testorfer Str.","postalCode":"23936","locality":"Upahl","municipality":{"key":"13074079","name":"Upahl","type":"Kreisangehörige_Gemeinde"},"district":{"key":"13074","name":"Nordwestmecklenburg","type":"Landkreis"},"federalState":{"key":"13","name":"Mecklenburg-Vorpommern"}},{"name":"Unter den Linden","postalCode":"23936","locality":"Upahl","municipality":{"key":"13074079","name":"Upahl","type":"Kreisangehörige_Gemeinde"},"district":{"key":"13074","name":"Nordwestmecklenburg","type":"Landkreis"},"federalState":{"key":"13","name":"Mecklenburg-Vorpommern"}},{"name":"Waldweg","postalCode":"23936","locality":"Upahl","municipality":{"key":"13074079","name":"Upahl","type":"Kreisangehörige_Gemeinde"},"district":{"key":"13074","name":"Nordwestmecklenburg","type":"Landkreis"},"federalState":{"key":"13","name":"Mecklenburg-Vorpommern"}},{"name":"Wasserweg","postalCode":"18276","locality":"Klein Upahl","municipality":{"key":"13072055","name":"Klein Upahl","type":"Kreisangehörige_Gemeinde"},"district":{"key":"13072","name":"Landkreis Rostock","type":"Landkreis"},"federalState":{"key":"13","name":"Mecklenburg-Vorpommern"}},{"name":"Zum Jasenberg","postalCode":"18276","locality":"Klein Upahl","municipality":{"key":"13072055","name":"Klein Upahl","type":"Kreisangehörige_Gemeinde"},"district":{"key":"13072","name":"Landkreis Rostock","type":"Landkreis"},"federalState":{"key":"13","name":"Mecklenburg-Vorpommern"}},{"name":"Zum Karpfenteich","postalCode":"23936","locality":"Upahl","municipality":{"key":"13074079","name":"Upahl","type":"Kreisangehörige_Gemeinde"},"district":{"key":"13074","name":"Nordwestmecklenburg","type":"Landkreis"},"federalState":{"key":"13","name":"Mecklenburg-Vorpommern"}},{"name":"Zum Sportplatz","postalCode":"23936","locality":"Upahl","municipality":{"key":"13074079","name":"Upahl","type":"Kreisangehörige_Gemeinde"},"district":{"key":"13074","name":"Nordwestmecklenburg","type":"Landkreis"},"federalState":{"key":"13","name":"Mecklenburg-Vorpommern"}},{"name":"Zum Torfmoor","postalCode":"23936","locality":"Upahl","municipality":{"key":"13074079","name":"Upahl","type":"Kreisangehörige_Gemeinde"},"district":{"key":"13074","name":"Nordwestmecklenburg","type":"Landkreis"},"federalState":{"key":"13","name":"Mecklenburg-Vorpommern"}},]