[{"name":"Am Mühlholz","postalCode":"09634","locality":"Reinsberg","municipality":{"key":"14522480","name":"Reinsberg","type":"Kreisangehörige_Gemeinde"},"district":{"key":"14522","name":"Mittelsachsen","type":"Landkreis"},"federalState":{"key":"14","name":"Sachsen"}},{"name":"Am Städtchen","postalCode":"09629","locality":"Reinsberg","municipality":{"key":"14522480","name":"Reinsberg","type":"Kreisangehörige_Gemeinde"},"district":{"key":"14522","name":"Mittelsachsen","type":"Landkreis"},"federalState":{"key":"14","name":"Sachsen"}},{"name":"Am Zechengrund","postalCode":"09629","locality":"Reinsberg","municipality":{"key":"14522480","name":"Reinsberg","type":"Kreisangehörige_Gemeinde"},"district":{"key":"14522","name":"Mittelsachsen","type":"Landkreis"},"federalState":{"key":"14","name":"Sachsen"}},{"name":"Am Zollhaus","postalCode":"09629","locality":"Reinsberg","municipality":{"key":"14522480","name":"Reinsberg","type":"Kreisangehörige_Gemeinde"},"district":{"key":"14522","name":"Mittelsachsen","type":"Landkreis"},"federalState":{"key":"14","name":"Sachsen"}},{"name":"Anbauweg","postalCode":"09629","locality":"Reinsberg","municipality":{"key":"14522480","name":"Reinsberg","type":"Kreisangehörige_Gemeinde"},"district":{"key":"14522","name":"Mittelsachsen","type":"Landkreis"},"federalState":{"key":"14","name":"Sachsen"}},{"name":"Badstr.","postalCode":"09629","locality":"Reinsberg","municipality":{"key":"14522480","name":"Reinsberg","type":"Kreisangehörige_Gemeinde"},"district":{"key":"14522","name":"Mittelsachsen","type":"Landkreis"},"federalState":{"key":"14","name":"Sachsen"}},{"name":"Bahnhofstr.","postalCode":"09629","locality":"Reinsberg","municipality":{"key":"14522480","name":"Reinsberg","type":"Kreisangehörige_Gemeinde"},"district":{"key":"14522","name":"Mittelsachsen","type":"Landkreis"},"federalState":{"key":"14","name":"Sachsen"}},{"name":"Bauernweg","postalCode":"09634","locality":"Reinsberg","municipality":{"key":"14522480","name":"Reinsberg","type":"Kreisangehörige_Gemeinde"},"district":{"key":"14522","name":"Mittelsachsen","type":"Landkreis"},"federalState":{"key":"14","name":"Sachsen"}},{"name":"Bergmannweg","postalCode":"09629","locality":"Reinsberg","municipality":{"key":"14522480","name":"Reinsberg","type":"Kreisangehörige_Gemeinde"},"district":{"key":"14522","name":"Mittelsachsen","type":"Landkreis"},"federalState":{"key":"14","name":"Sachsen"}},{"name":"Blankensteiner Str.","postalCode":"09629","locality":"Reinsberg","municipality":{"key":"14522480","name":"Reinsberg","type":"Kreisangehörige_Gemeinde"},"district":{"key":"14522","name":"Mittelsachsen","type":"Landkreis"},"federalState":{"key":"14","name":"Sachsen"}},{"name":"Buchenweg","postalCode":"09629","locality":"Reinsberg","municipality":{"key":"14522480","name":"Reinsberg","type":"Kreisangehörige_Gemeinde"},"district":{"key":"14522","name":"Mittelsachsen","type":"Landkreis"},"federalState":{"key":"14","name":"Sachsen"}},{"name":"Dittmannsdorfer Str.","postalCode":"09629","locality":"Reinsberg","municipality":{"key":"14522480","name":"Reinsberg","type":"Kreisangehörige_Gemeinde"},"district":{"key":"14522","name":"Mittelsachsen","type":"Landkreis"},"federalState":{"key":"14","name":"Sachsen"}},{"name":"Dorfstr.","postalCode":"09629","locality":"Reinsberg","municipality":{"key":"14522480","name":"Reinsberg","type":"Kreisangehörige_Gemeinde"},"district":{"key":"14522","name":"Mittelsachsen","type":"Landkreis"},"federalState":{"key":"14","name":"Sachsen"}},{"name":"ehem. Schmalspurbahn Freital-Potschappel–Nossen","postalCode":"09629","locality":"Reinsberg","municipality":{"key":"14522480","name":"Reinsberg","type":"Kreisangehörige_Gemeinde"},"district":{"key":"14522","name":"Mittelsachsen","type":"Landkreis"},"federalState":{"key":"14","name":"Sachsen"}},{"name":"Fasanenstr.","postalCode":"09629","locality":"Reinsberg","municipality":{"key":"14522480","name":"Reinsberg","type":"Kreisangehörige_Gemeinde"},"district":{"key":"14522","name":"Mittelsachsen","type":"Landkreis"},"federalState":{"key":"14","name":"Sachsen"}},{"name":"Fasanerie","postalCode":"09634","locality":"Reinsberg","municipality":{"key":"14522480","name":"Reinsberg","type":"Kreisangehörige_Gemeinde"},"district":{"key":"14522","name":"Mittelsachsen","type":"Landkreis"},"federalState":{"key":"14","name":"Sachsen"}},{"name":"Forstweg","postalCode":"09629","locality":"Reinsberg","municipality":{"key":"14522480","name":"Reinsberg","type":"Kreisangehörige_Gemeinde"},"district":{"key":"14522","name":"Mittelsachsen","type":"Landkreis"},"federalState":{"key":"14","name":"Sachsen"}},{"name":"Freiberger Str.","postalCode":"09629","locality":"Reinsberg","municipality":{"key":"14522480","name":"Reinsberg","type":"Kreisangehörige_Gemeinde"},"district":{"key":"14522","name":"Mittelsachsen","type":"Landkreis"},"federalState":{"key":"14","name":"Sachsen"}},{"name":"Fuchslöcherweg","postalCode":"09629","locality":"Reinsberg","municipality":{"key":"14522480","name":"Reinsberg","type":"Kreisangehörige_Gemeinde"},"district":{"key":"14522","name":"Mittelsachsen","type":"Landkreis"},"federalState":{"key":"14","name":"Sachsen"}},{"name":"Gasse","postalCode":"09629","locality":"Reinsberg","municipality":{"key":"14522480","name":"Reinsberg","type":"Kreisangehörige_Gemeinde"},"district":{"key":"14522","name":"Mittelsachsen","type":"Landkreis"},"federalState":{"key":"14","name":"Sachsen"}},{"name":"Hauptstr.","postalCode":"09629","locality":"Reinsberg","municipality":{"key":"14522480","name":"Reinsberg","type":"Kreisangehörige_Gemeinde"},"district":{"key":"14522","name":"Mittelsachsen","type":"Landkreis"},"federalState":{"key":"14","name":"Sachsen"}},{"name":"Hauptstr.","postalCode":"09634","locality":"Reinsberg","municipality":{"key":"14522480","name":"Reinsberg","type":"Kreisangehörige_Gemeinde"},"district":{"key":"14522","name":"Mittelsachsen","type":"Landkreis"},"federalState":{"key":"14","name":"Sachsen"}},{"name":"Helbigsdorfer Str.","postalCode":"09629","locality":"Reinsberg","municipality":{"key":"14522480","name":"Reinsberg","type":"Kreisangehörige_Gemeinde"},"district":{"key":"14522","name":"Mittelsachsen","type":"Landkreis"},"federalState":{"key":"14","name":"Sachsen"}},{"name":"Hirschfelder Str.","postalCode":"09629","locality":"Reinsberg","municipality":{"key":"14522480","name":"Reinsberg","type":"Kreisangehörige_Gemeinde"},"district":{"key":"14522","name":"Mittelsachsen","type":"Landkreis"},"federalState":{"key":"14","name":"Sachsen"}},{"name":"Kastanienallee","postalCode":"09629","locality":"Reinsberg","municipality":{"key":"14522480","name":"Reinsberg","type":"Kreisangehörige_Gemeinde"},"district":{"key":"14522","name":"Mittelsachsen","type":"Landkreis"},"federalState":{"key":"14","name":"Sachsen"}},{"name":"Kirchgasse","postalCode":"09629","locality":"Reinsberg","municipality":{"key":"14522480","name":"Reinsberg","type":"Kreisangehörige_Gemeinde"},"district":{"key":"14522","name":"Mittelsachsen","type":"Landkreis"},"federalState":{"key":"14","name":"Sachsen"}},{"name":"Kirchweg","postalCode":"09629","locality":"Reinsberg","municipality":{"key":"14522480","name":"Reinsberg","type":"Kreisangehörige_Gemeinde"},"district":{"key":"14522","name":"Mittelsachsen","type":"Landkreis"},"federalState":{"key":"14","name":"Sachsen"}},{"name":"Kirschallee","postalCode":"09634","locality":"Reinsberg","municipality":{"key":"14522480","name":"Reinsberg","type":"Kreisangehörige_Gemeinde"},"district":{"key":"14522","name":"Mittelsachsen","type":"Landkreis"},"federalState":{"key":"14","name":"Sachsen"}},{"name":"Langer Garten","postalCode":"09634","locality":"Reinsberg","municipality":{"key":"14522480","name":"Reinsberg","type":"Kreisangehörige_Gemeinde"},"district":{"key":"14522","name":"Mittelsachsen","type":"Landkreis"},"federalState":{"key":"14","name":"Sachsen"}},{"name":"Meißner Str.","postalCode":"09629","locality":"Reinsberg","municipality":{"key":"14522480","name":"Reinsberg","type":"Kreisangehörige_Gemeinde"},"district":{"key":"14522","name":"Mittelsachsen","type":"Landkreis"},"federalState":{"key":"14","name":"Sachsen"}},{"name":"Mohorner Str.","postalCode":"09629","locality":"Reinsberg","municipality":{"key":"14522480","name":"Reinsberg","type":"Kreisangehörige_Gemeinde"},"district":{"key":"14522","name":"Mittelsachsen","type":"Landkreis"},"federalState":{"key":"14","name":"Sachsen"}},{"name":"Monumentweg","postalCode":"09629","locality":"Reinsberg","municipality":{"key":"14522480","name":"Reinsberg","type":"Kreisangehörige_Gemeinde"},"district":{"key":"14522","name":"Mittelsachsen","type":"Landkreis"},"federalState":{"key":"14","name":"Sachsen"}},{"name":"Moritztal","postalCode":"09634","locality":"Reinsberg","municipality":{"key":"14522480","name":"Reinsberg","type":"Kreisangehörige_Gemeinde"},"district":{"key":"14522","name":"Mittelsachsen","type":"Landkreis"},"federalState":{"key":"14","name":"Sachsen"}},{"name":"Mörnerstr.","postalCode":"09629","locality":"Reinsberg","municipality":{"key":"14522480","name":"Reinsberg","type":"Kreisangehörige_Gemeinde"},"district":{"key":"14522","name":"Mittelsachsen","type":"Landkreis"},"federalState":{"key":"14","name":"Sachsen"}},{"name":"Neudorfer Str.","postalCode":"09629","locality":"Reinsberg","municipality":{"key":"14522480","name":"Reinsberg","type":"Kreisangehörige_Gemeinde"},"district":{"key":"14522","name":"Mittelsachsen","type":"Landkreis"},"federalState":{"key":"14","name":"Sachsen"}},{"name":"Neukirchner Str.","postalCode":"09629","locality":"Reinsberg","municipality":{"key":"14522480","name":"Reinsberg","type":"Kreisangehörige_Gemeinde"},"district":{"key":"14522","name":"Mittelsachsen","type":"Landkreis"},"federalState":{"key":"14","name":"Sachsen"}},{"name":"Nordstr.","postalCode":"09629","locality":"Reinsberg","municipality":{"key":"14522480","name":"Reinsberg","type":"Kreisangehörige_Gemeinde"},"district":{"key":"14522","name":"Mittelsachsen","type":"Landkreis"},"federalState":{"key":"14","name":"Sachsen"}},{"name":"Pfarrberg","postalCode":"09629","locality":"Reinsberg","municipality":{"key":"14522480","name":"Reinsberg","type":"Kreisangehörige_Gemeinde"},"district":{"key":"14522","name":"Mittelsachsen","type":"Landkreis"},"federalState":{"key":"14","name":"Sachsen"}},{"name":"Reichelweg","postalCode":"09629","locality":"Reinsberg","municipality":{"key":"14522480","name":"Reinsberg","type":"Kreisangehörige_Gemeinde"},"district":{"key":"14522","name":"Mittelsachsen","type":"Landkreis"},"federalState":{"key":"14","name":"Sachsen"}},{"name":"Reinsberger Str.","postalCode":"09629","locality":"Reinsberg","municipality":{"key":"14522480","name":"Reinsberg","type":"Kreisangehörige_Gemeinde"},"district":{"key":"14522","name":"Mittelsachsen","type":"Landkreis"},"federalState":{"key":"14","name":"Sachsen"}},{"name":"Reinsberger Str.","postalCode":"09634","locality":"Reinsberg","municipality":{"key":"14522480","name":"Reinsberg","type":"Kreisangehörige_Gemeinde"},"district":{"key":"14522","name":"Mittelsachsen","type":"Landkreis"},"federalState":{"key":"14","name":"Sachsen"}},{"name":"Schneidemühlenweg","postalCode":"09629","locality":"Reinsberg","municipality":{"key":"14522480","name":"Reinsberg","type":"Kreisangehörige_Gemeinde"},"district":{"key":"14522","name":"Mittelsachsen","type":"Landkreis"},"federalState":{"key":"14","name":"Sachsen"}},{"name":"Siedlung","postalCode":"09634","locality":"Reinsberg","municipality":{"key":"14522480","name":"Reinsberg","type":"Kreisangehörige_Gemeinde"},"district":{"key":"14522","name":"Mittelsachsen","type":"Landkreis"},"federalState":{"key":"14","name":"Sachsen"}},{"name":"Siedlungsstr.","postalCode":"09629","locality":"Reinsberg","municipality":{"key":"14522480","name":"Reinsberg","type":"Kreisangehörige_Gemeinde"},"district":{"key":"14522","name":"Mittelsachsen","type":"Landkreis"},"federalState":{"key":"14","name":"Sachsen"}},{"name":"Steinbacher Str.","postalCode":"09629","locality":"Reinsberg","municipality":{"key":"14522480","name":"Reinsberg","type":"Kreisangehörige_Gemeinde"},"district":{"key":"14522","name":"Mittelsachsen","type":"Landkreis"},"federalState":{"key":"14","name":"Sachsen"}},{"name":"Talstr.","postalCode":"09629","locality":"Reinsberg","municipality":{"key":"14522480","name":"Reinsberg","type":"Kreisangehörige_Gemeinde"},"district":{"key":"14522","name":"Mittelsachsen","type":"Landkreis"},"federalState":{"key":"14","name":"Sachsen"}},{"name":"Tanneberger Str.","postalCode":"09629","locality":"Reinsberg","municipality":{"key":"14522480","name":"Reinsberg","type":"Kreisangehörige_Gemeinde"},"district":{"key":"14522","name":"Mittelsachsen","type":"Landkreis"},"federalState":{"key":"14","name":"Sachsen"}},{"name":"Tännichtweg","postalCode":"09629","locality":"Reinsberg","municipality":{"key":"14522480","name":"Reinsberg","type":"Kreisangehörige_Gemeinde"},"district":{"key":"14522","name":"Mittelsachsen","type":"Landkreis"},"federalState":{"key":"14","name":"Sachsen"}},{"name":"Vorwerkstr.","postalCode":"09629","locality":"Reinsberg","municipality":{"key":"14522480","name":"Reinsberg","type":"Kreisangehörige_Gemeinde"},"district":{"key":"14522","name":"Mittelsachsen","type":"Landkreis"},"federalState":{"key":"14","name":"Sachsen"}},{"name":"Waldstr.","postalCode":"09629","locality":"Reinsberg","municipality":{"key":"14522480","name":"Reinsberg","type":"Kreisangehörige_Gemeinde"},"district":{"key":"14522","name":"Mittelsachsen","type":"Landkreis"},"federalState":{"key":"14","name":"Sachsen"}},{"name":"Wolfsstr.","postalCode":"09629","locality":"Reinsberg","municipality":{"key":"14522480","name":"Reinsberg","type":"Kreisangehörige_Gemeinde"},"district":{"key":"14522","name":"Mittelsachsen","type":"Landkreis"},"federalState":{"key":"14","name":"Sachsen"}},]