[{"name":"Adlerweg","postalCode":"86399","locality":"Bobingen","municipality":{"key":"09772125","name":"Bobingen, St","type":"Stadt"},"district":{"key":"09772","name":"Augsburg","type":"Landkreis"},"federalState":{"key":"09","name":"Bayern"}},{"name":"Adolph-Kolping-Str.","postalCode":"86399","locality":"Bobingen","municipality":{"key":"09772125","name":"Bobingen, St","type":"Stadt"},"district":{"key":"09772","name":"Augsburg","type":"Landkreis"},"federalState":{"key":"09","name":"Bayern"}},{"name":"Ahornstr.","postalCode":"86399","locality":"Bobingen","municipality":{"key":"09772125","name":"Bobingen, St","type":"Stadt"},"district":{"key":"09772","name":"Augsburg","type":"Landkreis"},"federalState":{"key":"09","name":"Bayern"}},{"name":"Ahweg","postalCode":"86399","locality":"Bobingen","municipality":{"key":"09772125","name":"Bobingen, St","type":"Stadt"},"district":{"key":"09772","name":"Augsburg","type":"Landkreis"},"federalState":{"key":"09","name":"Bayern"}},{"name":"Akazienstr.","postalCode":"86399","locality":"Bobingen","municipality":{"key":"09772125","name":"Bobingen, St","type":"Stadt"},"district":{"key":"09772","name":"Augsburg","type":"Landkreis"},"federalState":{"key":"09","name":"Bayern"}},{"name":"Albert-Einstein-Str.","postalCode":"86399","locality":"Bobingen","municipality":{"key":"09772125","name":"Bobingen, St","type":"Stadt"},"district":{"key":"09772","name":"Augsburg","type":"Landkreis"},"federalState":{"key":"09","name":"Bayern"}},{"name":"Albert-Schweitzer-Str.","postalCode":"86399","locality":"Bobingen","municipality":{"key":"09772125","name":"Bobingen, St","type":"Stadt"},"district":{"key":"09772","name":"Augsburg","type":"Landkreis"},"federalState":{"key":"09","name":"Bayern"}},{"name":"Alpenstr.","postalCode":"86399","locality":"Bobingen","municipality":{"key":"09772125","name":"Bobingen, St","type":"Stadt"},"district":{"key":"09772","name":"Augsburg","type":"Landkreis"},"federalState":{"key":"09","name":"Bayern"}},{"name":"Alpseeweg","postalCode":"86399","locality":"Bobingen","municipality":{"key":"09772125","name":"Bobingen, St","type":"Stadt"},"district":{"key":"09772","name":"Augsburg","type":"Landkreis"},"federalState":{"key":"09","name":"Bayern"}},{"name":"Altmühlstr.","postalCode":"86399","locality":"Bobingen","municipality":{"key":"09772125","name":"Bobingen, St","type":"Stadt"},"district":{"key":"09772","name":"Augsburg","type":"Landkreis"},"federalState":{"key":"09","name":"Bayern"}},{"name":"Am Bergacker","postalCode":"86399","locality":"Bobingen","municipality":{"key":"09772125","name":"Bobingen, St","type":"Stadt"},"district":{"key":"09772","name":"Augsburg","type":"Landkreis"},"federalState":{"key":"09","name":"Bayern"}},{"name":"Am Eichkobel","postalCode":"86399","locality":"Bobingen","municipality":{"key":"09772125","name":"Bobingen, St","type":"Stadt"},"district":{"key":"09772","name":"Augsburg","type":"Landkreis"},"federalState":{"key":"09","name":"Bayern"}},{"name":"Ammerseeweg","postalCode":"86399","locality":"Bobingen","municipality":{"key":"09772125","name":"Bobingen, St","type":"Stadt"},"district":{"key":"09772","name":"Augsburg","type":"Landkreis"},"federalState":{"key":"09","name":"Bayern"}},{"name":"Am Moosacker","postalCode":"86399","locality":"Bobingen","municipality":{"key":"09772125","name":"Bobingen, St","type":"Stadt"},"district":{"key":"09772","name":"Augsburg","type":"Landkreis"},"federalState":{"key":"09","name":"Bayern"}},{"name":"Amperweg","postalCode":"86399","locality":"Bobingen","municipality":{"key":"09772125","name":"Bobingen, St","type":"Stadt"},"district":{"key":"09772","name":"Augsburg","type":"Landkreis"},"federalState":{"key":"09","name":"Bayern"}},{"name":"Am Rain","postalCode":"86399","locality":"Bobingen","municipality":{"key":"09772125","name":"Bobingen, St","type":"Stadt"},"district":{"key":"09772","name":"Augsburg","type":"Landkreis"},"federalState":{"key":"09","name":"Bayern"}},{"name":"Am Schwettinger Graben","postalCode":"86399","locality":"Bobingen","municipality":{"key":"09772125","name":"Bobingen, St","type":"Stadt"},"district":{"key":"09772","name":"Augsburg","type":"Landkreis"},"federalState":{"key":"09","name":"Bayern"}},{"name":"Amselweg","postalCode":"86399","locality":"Bobingen","municipality":{"key":"09772125","name":"Bobingen, St","type":"Stadt"},"district":{"key":"09772","name":"Augsburg","type":"Landkreis"},"federalState":{"key":"09","name":"Bayern"}},{"name":"Am Sonnenbichl","postalCode":"86399","locality":"Bobingen","municipality":{"key":"09772125","name":"Bobingen, St","type":"Stadt"},"district":{"key":"09772","name":"Augsburg","type":"Landkreis"},"federalState":{"key":"09","name":"Bayern"}},{"name":"Am Waldrain","postalCode":"86399","locality":"Bobingen","municipality":{"key":"09772125","name":"Bobingen, St","type":"Stadt"},"district":{"key":"09772","name":"Augsburg","type":"Landkreis"},"federalState":{"key":"09","name":"Bayern"}},{"name":"Am Wasserturm","postalCode":"86399","locality":"Bobingen","municipality":{"key":"09772125","name":"Bobingen, St","type":"Stadt"},"district":{"key":"09772","name":"Augsburg","type":"Landkreis"},"federalState":{"key":"09","name":"Bayern"}},{"name":"Am Wiesenhang","postalCode":"86399","locality":"Bobingen","municipality":{"key":"09772125","name":"Bobingen, St","type":"Stadt"},"district":{"key":"09772","name":"Augsburg","type":"Landkreis"},"federalState":{"key":"09","name":"Bayern"}},{"name":"Angerweg","postalCode":"86399","locality":"Bobingen","municipality":{"key":"09772125","name":"Bobingen, St","type":"Stadt"},"district":{"key":"09772","name":"Augsburg","type":"Landkreis"},"federalState":{"key":"09","name":"Bayern"}},{"name":"Anhauser Str.","postalCode":"86399","locality":"Bobingen","municipality":{"key":"09772125","name":"Bobingen, St","type":"Stadt"},"district":{"key":"09772","name":"Augsburg","type":"Landkreis"},"federalState":{"key":"09","name":"Bayern"}},{"name":"Anicher Str.","postalCode":"86399","locality":"Bobingen","municipality":{"key":"09772125","name":"Bobingen, St","type":"Stadt"},"district":{"key":"09772","name":"Augsburg","type":"Landkreis"},"federalState":{"key":"09","name":"Bayern"}},{"name":"Anna-Müller-Str.","postalCode":"86399","locality":"Bobingen","municipality":{"key":"09772125","name":"Bobingen, St","type":"Stadt"},"district":{"key":"09772","name":"Augsburg","type":"Landkreis"},"federalState":{"key":"09","name":"Bayern"}},{"name":"Asamweg","postalCode":"86399","locality":"Bobingen","municipality":{"key":"09772125","name":"Bobingen, St","type":"Stadt"},"district":{"key":"09772","name":"Augsburg","type":"Landkreis"},"federalState":{"key":"09","name":"Bayern"}},{"name":"Asternweg","postalCode":"86399","locality":"Bobingen","municipality":{"key":"09772125","name":"Bobingen, St","type":"Stadt"},"district":{"key":"09772","name":"Augsburg","type":"Landkreis"},"federalState":{"key":"09","name":"Bayern"}},{"name":"Attenhofer Str.","postalCode":"86399","locality":"Bobingen","municipality":{"key":"09772125","name":"Bobingen, St","type":"Stadt"},"district":{"key":"09772","name":"Augsburg","type":"Landkreis"},"federalState":{"key":"09","name":"Bayern"}},{"name":"Auenstr.","postalCode":"86399","locality":"Bobingen","municipality":{"key":"09772125","name":"Bobingen, St","type":"Stadt"},"district":{"key":"09772","name":"Augsburg","type":"Landkreis"},"federalState":{"key":"09","name":"Bayern"}},{"name":"Augsburger Str.","postalCode":"86399","locality":"Bobingen","municipality":{"key":"09772125","name":"Bobingen, St","type":"Stadt"},"district":{"key":"09772","name":"Augsburg","type":"Landkreis"},"federalState":{"key":"09","name":"Bayern"}},{"name":"Bachgasse","postalCode":"86399","locality":"Bobingen","municipality":{"key":"09772125","name":"Bobingen, St","type":"Stadt"},"district":{"key":"09772","name":"Augsburg","type":"Landkreis"},"federalState":{"key":"09","name":"Bayern"}},{"name":"Bäckerstr.","postalCode":"86399","locality":"Bobingen","municipality":{"key":"09772125","name":"Bobingen, St","type":"Stadt"},"district":{"key":"09772","name":"Augsburg","type":"Landkreis"},"federalState":{"key":"09","name":"Bayern"}},{"name":"Badstr.","postalCode":"86399","locality":"Bobingen","municipality":{"key":"09772125","name":"Bobingen, St","type":"Stadt"},"district":{"key":"09772","name":"Augsburg","type":"Landkreis"},"federalState":{"key":"09","name":"Bayern"}},{"name":"Bahndamm","postalCode":"86399","locality":"Bobingen","municipality":{"key":"09772125","name":"Bobingen, St","type":"Stadt"},"district":{"key":"09772","name":"Augsburg","type":"Landkreis"},"federalState":{"key":"09","name":"Bayern"}},{"name":"Bahnhofstr.","postalCode":"86399","locality":"Bobingen","municipality":{"key":"09772125","name":"Bobingen, St","type":"Stadt"},"district":{"key":"09772","name":"Augsburg","type":"Landkreis"},"federalState":{"key":"09","name":"Bayern"}},{"name":"Baltenstr.","postalCode":"86399","locality":"Bobingen","municipality":{"key":"09772125","name":"Bobingen, St","type":"Stadt"},"district":{"key":"09772","name":"Augsburg","type":"Landkreis"},"federalState":{"key":"09","name":"Bayern"}},{"name":"Bamberger Str.","postalCode":"86399","locality":"Bobingen","municipality":{"key":"09772125","name":"Bobingen, St","type":"Stadt"},"district":{"key":"09772","name":"Augsburg","type":"Landkreis"},"federalState":{"key":"09","name":"Bayern"}},{"name":"Banaterstr.","postalCode":"86399","locality":"Bobingen","municipality":{"key":"09772125","name":"Bobingen, St","type":"Stadt"},"district":{"key":"09772","name":"Augsburg","type":"Landkreis"},"federalState":{"key":"09","name":"Bayern"}},{"name":"Bannackerstr.","postalCode":"86399","locality":"Bobingen","municipality":{"key":"09772125","name":"Bobingen, St","type":"Stadt"},"district":{"key":"09772","name":"Augsburg","type":"Landkreis"},"federalState":{"key":"09","name":"Bayern"}},{"name":"Bauernstr.","postalCode":"86399","locality":"Bobingen","municipality":{"key":"09772125","name":"Bobingen, St","type":"Stadt"},"district":{"key":"09772","name":"Augsburg","type":"Landkreis"},"federalState":{"key":"09","name":"Bayern"}},{"name":"Berggasse","postalCode":"86399","locality":"Bobingen","municipality":{"key":"09772125","name":"Bobingen, St","type":"Stadt"},"district":{"key":"09772","name":"Augsburg","type":"Landkreis"},"federalState":{"key":"09","name":"Bayern"}},{"name":"Berghornweg","postalCode":"86399","locality":"Bobingen","municipality":{"key":"09772125","name":"Bobingen, St","type":"Stadt"},"district":{"key":"09772","name":"Augsburg","type":"Landkreis"},"federalState":{"key":"09","name":"Bayern"}},{"name":"Birkenweg","postalCode":"86399","locality":"Bobingen","municipality":{"key":"09772125","name":"Bobingen, St","type":"Stadt"},"district":{"key":"09772","name":"Augsburg","type":"Landkreis"},"federalState":{"key":"09","name":"Bayern"}},{"name":"Bischof-Ulrich-Str.","postalCode":"86399","locality":"Bobingen","municipality":{"key":"09772125","name":"Bobingen, St","type":"Stadt"},"district":{"key":"09772","name":"Augsburg","type":"Landkreis"},"federalState":{"key":"09","name":"Bayern"}},{"name":"Blumenweg","postalCode":"86399","locality":"Bobingen","municipality":{"key":"09772125","name":"Bobingen, St","type":"Stadt"},"district":{"key":"09772","name":"Augsburg","type":"Landkreis"},"federalState":{"key":"09","name":"Bayern"}},{"name":"Blütenweg","postalCode":"86399","locality":"Bobingen","municipality":{"key":"09772125","name":"Bobingen, St","type":"Stadt"},"district":{"key":"09772","name":"Augsburg","type":"Landkreis"},"federalState":{"key":"09","name":"Bayern"}},{"name":"Bobinger Str.","postalCode":"86399","locality":"Bobingen","municipality":{"key":"09772125","name":"Bobingen, St","type":"Stadt"},"district":{"key":"09772","name":"Augsburg","type":"Landkreis"},"federalState":{"key":"09","name":"Bayern"}},{"name":"Bodenseestr.","postalCode":"86399","locality":"Bobingen","municipality":{"key":"09772125","name":"Bobingen, St","type":"Stadt"},"district":{"key":"09772","name":"Augsburg","type":"Landkreis"},"federalState":{"key":"09","name":"Bayern"}},{"name":"Boschstr.","postalCode":"86399","locality":"Bobingen","municipality":{"key":"09772125","name":"Bobingen, St","type":"Stadt"},"district":{"key":"09772","name":"Augsburg","type":"Landkreis"},"federalState":{"key":"09","name":"Bayern"}},{"name":"Breite Steige","postalCode":"86399","locality":"Bobingen","municipality":{"key":"09772125","name":"Bobingen, St","type":"Stadt"},"district":{"key":"09772","name":"Augsburg","type":"Landkreis"},"federalState":{"key":"09","name":"Bayern"}},{"name":"Brombeerweg","postalCode":"86399","locality":"Bobingen","municipality":{"key":"09772125","name":"Bobingen, St","type":"Stadt"},"district":{"key":"09772","name":"Augsburg","type":"Landkreis"},"federalState":{"key":"09","name":"Bayern"}},{"name":"Brunnenstr.","postalCode":"86399","locality":"Bobingen","municipality":{"key":"09772125","name":"Bobingen, St","type":"Stadt"},"district":{"key":"09772","name":"Augsburg","type":"Landkreis"},"federalState":{"key":"09","name":"Bayern"}},{"name":"Buchenstr.","postalCode":"86399","locality":"Bobingen","municipality":{"key":"09772125","name":"Bobingen, St","type":"Stadt"},"district":{"key":"09772","name":"Augsburg","type":"Landkreis"},"federalState":{"key":"09","name":"Bayern"}},{"name":"Bürgermeister-Barth-Str.","postalCode":"86399","locality":"Bobingen","municipality":{"key":"09772125","name":"Bobingen, St","type":"Stadt"},"district":{"key":"09772","name":"Augsburg","type":"Landkreis"},"federalState":{"key":"09","name":"Bayern"}},{"name":"Bussardweg","postalCode":"86399","locality":"Bobingen","municipality":{"key":"09772125","name":"Bobingen, St","type":"Stadt"},"district":{"key":"09772","name":"Augsburg","type":"Landkreis"},"federalState":{"key":"09","name":"Bayern"}},{"name":"Calmbergstr.","postalCode":"86159","locality":"Augsburg","municipality":{"key":"09761000","name":"Augsburg","type":"Kreisfreie_Stadt"},"district":{"key":"09761","name":"Augsburg","type":"Kreisfreie_Stadt"},"federalState":{"key":"09","name":"Bayern"}},{"name":"Canisiusstr.","postalCode":"86159","locality":"Augsburg","municipality":{"key":"09761000","name":"Augsburg","type":"Kreisfreie_Stadt"},"district":{"key":"09761","name":"Augsburg","type":"Kreisfreie_Stadt"},"federalState":{"key":"09","name":"Bayern"}},{"name":"Caritasweg","postalCode":"86153","locality":"Augsburg","municipality":{"key":"09761000","name":"Augsburg","type":"Kreisfreie_Stadt"},"district":{"key":"09761","name":"Augsburg","type":"Kreisfreie_Stadt"},"federalState":{"key":"09","name":"Bayern"}},{"name":"Carl-Hüber-Str.","postalCode":"86179","locality":"Augsburg","municipality":{"key":"09761000","name":"Augsburg","type":"Kreisfreie_Stadt"},"district":{"key":"09761","name":"Augsburg","type":"Kreisfreie_Stadt"},"federalState":{"key":"09","name":"Bayern"}},{"name":"Carl-Loewe-Str.","postalCode":"86157","locality":"Augsburg","municipality":{"key":"09761000","name":"Augsburg","type":"Kreisfreie_Stadt"},"district":{"key":"09761","name":"Augsburg","type":"Kreisfreie_Stadt"},"federalState":{"key":"09","name":"Bayern"}},{"name":"Carl-Maria-von-Weber-Str.","postalCode":"86157","locality":"Augsburg","municipality":{"key":"09761000","name":"Augsburg","type":"Kreisfreie_Stadt"},"district":{"key":"09761","name":"Augsburg","type":"Kreisfreie_Stadt"},"federalState":{"key":"09","name":"Bayern"}},{"name":"Carl-Natterer-Str.","postalCode":"86169","locality":"Augsburg","municipality":{"key":"09761000","name":"Augsburg","type":"Kreisfreie_Stadt"},"district":{"key":"09761","name":"Augsburg","type":"Kreisfreie_Stadt"},"federalState":{"key":"09","name":"Bayern"}},{"name":"Carl-Schurz-Str.","postalCode":"86156","locality":"Augsburg","municipality":{"key":"09761000","name":"Augsburg","type":"Kreisfreie_Stadt"},"district":{"key":"09761","name":"Augsburg","type":"Kreisfreie_Stadt"},"federalState":{"key":"09","name":"Bayern"}},{"name":"Carl-Zeiss-Str.","postalCode":"86199","locality":"Augsburg","municipality":{"key":"09761000","name":"Augsburg","type":"Kreisfreie_Stadt"},"district":{"key":"09761","name":"Augsburg","type":"Kreisfreie_Stadt"},"federalState":{"key":"09","name":"Bayern"}},{"name":"Carron-du-Val-Str.","postalCode":"86161","locality":"Augsburg","municipality":{"key":"09761000","name":"Augsburg","type":"Kreisfreie_Stadt"},"district":{"key":"09761","name":"Augsburg","type":"Kreisfreie_Stadt"},"federalState":{"key":"09","name":"Bayern"}},{"name":"Chemnitzer Str.","postalCode":"86157","locality":"Augsburg","municipality":{"key":"09761000","name":"Augsburg","type":"Kreisfreie_Stadt"},"district":{"key":"09761","name":"Augsburg","type":"Kreisfreie_Stadt"},"federalState":{"key":"09","name":"Bayern"}},{"name":"Chippenham-Ring","postalCode":"86316","locality":"Augsburg","municipality":{"key":"09761000","name":"Augsburg","type":"Kreisfreie_Stadt"},"district":{"key":"09761","name":"Augsburg","type":"Kreisfreie_Stadt"},"federalState":{"key":"09","name":"Bayern"}},{"name":"Christian Dierig Park","postalCode":"86157","locality":"Augsburg","municipality":{"key":"09761000","name":"Augsburg","type":"Kreisfreie_Stadt"},"district":{"key":"09761","name":"Augsburg","type":"Kreisfreie_Stadt"},"federalState":{"key":"09","name":"Bayern"}},{"name":"Christian-Dierig-Str.","postalCode":"86157","locality":"Augsburg","municipality":{"key":"09761000","name":"Augsburg","type":"Kreisfreie_Stadt"},"district":{"key":"09761","name":"Augsburg","type":"Kreisfreie_Stadt"},"federalState":{"key":"09","name":"Bayern"}},{"name":"Christleseeweg","postalCode":"86163","locality":"Augsburg","municipality":{"key":"09761000","name":"Augsburg","type":"Kreisfreie_Stadt"},"district":{"key":"09761","name":"Augsburg","type":"Kreisfreie_Stadt"},"federalState":{"key":"09","name":"Bayern"}},{"name":"Christoph-von-Schmid-Str.","postalCode":"86159","locality":"Augsburg","municipality":{"key":"09761000","name":"Augsburg","type":"Kreisfreie_Stadt"},"district":{"key":"09761","name":"Augsburg","type":"Kreisfreie_Stadt"},"federalState":{"key":"09","name":"Bayern"}},{"name":"Clara-Hätzler-Str.","postalCode":"86161","locality":"Augsburg","municipality":{"key":"09761000","name":"Augsburg","type":"Kreisfreie_Stadt"},"district":{"key":"09761","name":"Augsburg","type":"Kreisfreie_Stadt"},"federalState":{"key":"09","name":"Bayern"}},{"name":"Clara-Tott-Str.","postalCode":"86156","locality":"Augsburg","municipality":{"key":"09761000","name":"Augsburg","type":"Kreisfreie_Stadt"},"district":{"key":"09761","name":"Augsburg","type":"Kreisfreie_Stadt"},"federalState":{"key":"09","name":"Bayern"}},{"name":"Clematisweg","postalCode":"86169","locality":"Augsburg","municipality":{"key":"09761000","name":"Augsburg","type":"Kreisfreie_Stadt"},"district":{"key":"09761","name":"Augsburg","type":"Kreisfreie_Stadt"},"federalState":{"key":"09","name":"Bayern"}},{"name":"Clementine-Heymann-Str.","postalCode":"86169","locality":"Augsburg","municipality":{"key":"09761000","name":"Augsburg","type":"Kreisfreie_Stadt"},"district":{"key":"09761","name":"Augsburg","type":"Kreisfreie_Stadt"},"federalState":{"key":"09","name":"Bayern"}},{"name":"Columbusstr.","postalCode":"86156","locality":"Augsburg","municipality":{"key":"09761000","name":"Augsburg","type":"Kreisfreie_Stadt"},"district":{"key":"09761","name":"Augsburg","type":"Kreisfreie_Stadt"},"federalState":{"key":"09","name":"Bayern"}},{"name":"Cranachstr.","postalCode":"86169","locality":"Augsburg","municipality":{"key":"09761000","name":"Augsburg","type":"Kreisfreie_Stadt"},"district":{"key":"09761","name":"Augsburg","type":"Kreisfreie_Stadt"},"federalState":{"key":"09","name":"Bayern"}},{"name":"Curt-Frenzel-Str.","postalCode":"86167","locality":"Augsburg","municipality":{"key":"09761000","name":"Augsburg","type":"Kreisfreie_Stadt"},"district":{"key":"09761","name":"Augsburg","type":"Kreisfreie_Stadt"},"federalState":{"key":"09","name":"Bayern"}},{"name":"Curtiusstr.","postalCode":"86165","locality":"Augsburg","municipality":{"key":"09761000","name":"Augsburg","type":"Kreisfreie_Stadt"},"district":{"key":"09761","name":"Augsburg","type":"Kreisfreie_Stadt"},"federalState":{"key":"09","name":"Bayern"}},{"name":"Dammstr.","postalCode":"86399","locality":"Bobingen","municipality":{"key":"09772125","name":"Bobingen, St","type":"Stadt"},"district":{"key":"09772","name":"Augsburg","type":"Landkreis"},"federalState":{"key":"09","name":"Bayern"}},{"name":"Dieselstr.","postalCode":"86399","locality":"Bobingen","municipality":{"key":"09772125","name":"Bobingen, St","type":"Stadt"},"district":{"key":"09772","name":"Augsburg","type":"Landkreis"},"federalState":{"key":"09","name":"Bayern"}},{"name":"Dietrich-Bonhoeffer-Str.","postalCode":"86399","locality":"Bobingen","municipality":{"key":"09772125","name":"Bobingen, St","type":"Stadt"},"district":{"key":"09772","name":"Augsburg","type":"Landkreis"},"federalState":{"key":"09","name":"Bayern"}},{"name":"Dilgerstr.","postalCode":"86399","locality":"Bobingen","municipality":{"key":"09772125","name":"Bobingen, St","type":"Stadt"},"district":{"key":"09772","name":"Augsburg","type":"Landkreis"},"federalState":{"key":"09","name":"Bayern"}},{"name":"Donaustr.","postalCode":"86399","locality":"Bobingen","municipality":{"key":"09772125","name":"Bobingen, St","type":"Stadt"},"district":{"key":"09772","name":"Augsburg","type":"Landkreis"},"federalState":{"key":"09","name":"Bayern"}},{"name":"Dossenbergerstr.","postalCode":"86399","locality":"Bobingen","municipality":{"key":"09772125","name":"Bobingen, St","type":"Stadt"},"district":{"key":"09772","name":"Augsburg","type":"Landkreis"},"federalState":{"key":"09","name":"Bayern"}},{"name":"Dr.-Jaufmann-Str.","postalCode":"86399","locality":"Bobingen","municipality":{"key":"09772125","name":"Bobingen, St","type":"Stadt"},"district":{"key":"09772","name":"Augsburg","type":"Landkreis"},"federalState":{"key":"09","name":"Bayern"}},{"name":"Dr.-Kämpf-Str.","postalCode":"86399","locality":"Bobingen","municipality":{"key":"09772125","name":"Bobingen, St","type":"Stadt"},"district":{"key":"09772","name":"Augsburg","type":"Landkreis"},"federalState":{"key":"09","name":"Bayern"}},{"name":"Dr.-Lehner-Str.","postalCode":"86399","locality":"Bobingen","municipality":{"key":"09772125","name":"Bobingen, St","type":"Stadt"},"district":{"key":"09772","name":"Augsburg","type":"Landkreis"},"federalState":{"key":"09","name":"Bayern"}},{"name":"Dr.-Rühfel-Weg","postalCode":"86399","locality":"Bobingen","municipality":{"key":"09772125","name":"Bobingen, St","type":"Stadt"},"district":{"key":"09772","name":"Augsburg","type":"Landkreis"},"federalState":{"key":"09","name":"Bayern"}},{"name":"Dr.-Zoller-Str.","postalCode":"86399","locality":"Bobingen","municipality":{"key":"09772125","name":"Bobingen, St","type":"Stadt"},"district":{"key":"09772","name":"Augsburg","type":"Landkreis"},"federalState":{"key":"09","name":"Bayern"}},{"name":"Durch das Teufelstal","postalCode":"86399","locality":"Bobingen","municipality":{"key":"09772125","name":"Bobingen, St","type":"Stadt"},"district":{"key":"09772","name":"Augsburg","type":"Landkreis"},"federalState":{"key":"09","name":"Bayern"}},{"name":"Dürerweg","postalCode":"86399","locality":"Bobingen","municipality":{"key":"09772125","name":"Bobingen, St","type":"Stadt"},"district":{"key":"09772","name":"Augsburg","type":"Landkreis"},"federalState":{"key":"09","name":"Bayern"}},{"name":"Edisonstr.","postalCode":"86399","locality":"Bobingen","municipality":{"key":"09772125","name":"Bobingen, St","type":"Stadt"},"district":{"key":"09772","name":"Augsburg","type":"Landkreis"},"federalState":{"key":"09","name":"Bayern"}},{"name":"Edith-Stein-Str.","postalCode":"86399","locality":"Bobingen","municipality":{"key":"09772125","name":"Bobingen, St","type":"Stadt"},"district":{"key":"09772","name":"Augsburg","type":"Landkreis"},"federalState":{"key":"09","name":"Bayern"}},{"name":"Eichenstr.","postalCode":"86399","locality":"Bobingen","municipality":{"key":"09772125","name":"Bobingen, St","type":"Stadt"},"district":{"key":"09772","name":"Augsburg","type":"Landkreis"},"federalState":{"key":"09","name":"Bayern"}},{"name":"Elsternweg","postalCode":"86399","locality":"Bobingen","municipality":{"key":"09772125","name":"Bobingen, St","type":"Stadt"},"district":{"key":"09772","name":"Augsburg","type":"Landkreis"},"federalState":{"key":"09","name":"Bayern"}},{"name":"Engelshofer Str.","postalCode":"86399","locality":"Bobingen","municipality":{"key":"09772125","name":"Bobingen, St","type":"Stadt"},"district":{"key":"09772","name":"Augsburg","type":"Landkreis"},"federalState":{"key":"09","name":"Bayern"}},{"name":"Entenweg","postalCode":"86399","locality":"Bobingen","municipality":{"key":"09772125","name":"Bobingen, St","type":"Stadt"},"district":{"key":"09772","name":"Augsburg","type":"Landkreis"},"federalState":{"key":"09","name":"Bayern"}},{"name":"Enzianweg","postalCode":"86399","locality":"Bobingen","municipality":{"key":"09772125","name":"Bobingen, St","type":"Stadt"},"district":{"key":"09772","name":"Augsburg","type":"Landkreis"},"federalState":{"key":"09","name":"Bayern"}},{"name":"Erdbeerweg","postalCode":"86399","locality":"Bobingen","municipality":{"key":"09772125","name":"Bobingen, St","type":"Stadt"},"district":{"key":"09772","name":"Augsburg","type":"Landkreis"},"federalState":{"key":"09","name":"Bayern"}},{"name":"Erlenstr.","postalCode":"86399","locality":"Bobingen","municipality":{"key":"09772125","name":"Bobingen, St","type":"Stadt"},"district":{"key":"09772","name":"Augsburg","type":"Landkreis"},"federalState":{"key":"09","name":"Bayern"}},{"name":"Eschenweg","postalCode":"86399","locality":"Bobingen","municipality":{"key":"09772125","name":"Bobingen, St","type":"Stadt"},"district":{"key":"09772","name":"Augsburg","type":"Landkreis"},"federalState":{"key":"09","name":"Bayern"}},{"name":"Falkenweg","postalCode":"86399","locality":"Bobingen","municipality":{"key":"09772125","name":"Bobingen, St","type":"Stadt"},"district":{"key":"09772","name":"Augsburg","type":"Landkreis"},"federalState":{"key":"09","name":"Bayern"}},{"name":"Farnweg","postalCode":"86399","locality":"Bobingen","municipality":{"key":"09772125","name":"Bobingen, St","type":"Stadt"},"district":{"key":"09772","name":"Augsburg","type":"Landkreis"},"federalState":{"key":"09","name":"Bayern"}},{"name":"Fasanenweg","postalCode":"86399","locality":"Bobingen","municipality":{"key":"09772125","name":"Bobingen, St","type":"Stadt"},"district":{"key":"09772","name":"Augsburg","type":"Landkreis"},"federalState":{"key":"09","name":"Bayern"}},{"name":"Fichtenstr.","postalCode":"86399","locality":"Bobingen","municipality":{"key":"09772125","name":"Bobingen, St","type":"Stadt"},"district":{"key":"09772","name":"Augsburg","type":"Landkreis"},"federalState":{"key":"09","name":"Bayern"}},{"name":"Fischmeisterstr.","postalCode":"86399","locality":"Bobingen","municipality":{"key":"09772125","name":"Bobingen, St","type":"Stadt"},"district":{"key":"09772","name":"Augsburg","type":"Landkreis"},"federalState":{"key":"09","name":"Bayern"}},{"name":"Fliederweg","postalCode":"86399","locality":"Bobingen","municipality":{"key":"09772125","name":"Bobingen, St","type":"Stadt"},"district":{"key":"09772","name":"Augsburg","type":"Landkreis"},"federalState":{"key":"09","name":"Bayern"}},{"name":"Flurstr.","postalCode":"86399","locality":"Bobingen","municipality":{"key":"09772125","name":"Bobingen, St","type":"Stadt"},"district":{"key":"09772","name":"Augsburg","type":"Landkreis"},"federalState":{"key":"09","name":"Bayern"}},{"name":"Föhrenstr.","postalCode":"86399","locality":"Bobingen","municipality":{"key":"09772125","name":"Bobingen, St","type":"Stadt"},"district":{"key":"09772","name":"Augsburg","type":"Landkreis"},"federalState":{"key":"09","name":"Bayern"}},{"name":"Fraunhoferstr.","postalCode":"86399","locality":"Bobingen","municipality":{"key":"09772125","name":"Bobingen, St","type":"Stadt"},"district":{"key":"09772","name":"Augsburg","type":"Landkreis"},"federalState":{"key":"09","name":"Bayern"}},{"name":"Freiburger Str.","postalCode":"86399","locality":"Bobingen","municipality":{"key":"09772125","name":"Bobingen, St","type":"Stadt"},"district":{"key":"09772","name":"Augsburg","type":"Landkreis"},"federalState":{"key":"09","name":"Bayern"}},{"name":"Freisinger Str.","postalCode":"86399","locality":"Bobingen","municipality":{"key":"09772125","name":"Bobingen, St","type":"Stadt"},"district":{"key":"09772","name":"Augsburg","type":"Landkreis"},"federalState":{"key":"09","name":"Bayern"}},{"name":"Frieda-Forster-Str.","postalCode":"86399","locality":"Bobingen","municipality":{"key":"09772125","name":"Bobingen, St","type":"Stadt"},"district":{"key":"09772","name":"Augsburg","type":"Landkreis"},"federalState":{"key":"09","name":"Bayern"}},{"name":"Friedensstr.","postalCode":"86399","locality":"Bobingen","municipality":{"key":"09772125","name":"Bobingen, St","type":"Stadt"},"district":{"key":"09772","name":"Augsburg","type":"Landkreis"},"federalState":{"key":"09","name":"Bayern"}},{"name":"Friedhofweg","postalCode":"86399","locality":"Bobingen","municipality":{"key":"09772125","name":"Bobingen, St","type":"Stadt"},"district":{"key":"09772","name":"Augsburg","type":"Landkreis"},"federalState":{"key":"09","name":"Bayern"}},{"name":"Frühlingstr.","postalCode":"86399","locality":"Bobingen","municipality":{"key":"09772125","name":"Bobingen, St","type":"Stadt"},"district":{"key":"09772","name":"Augsburg","type":"Landkreis"},"federalState":{"key":"09","name":"Bayern"}},{"name":"Fuggerstr.","postalCode":"86399","locality":"Bobingen","municipality":{"key":"09772125","name":"Bobingen, St","type":"Stadt"},"district":{"key":"09772","name":"Augsburg","type":"Landkreis"},"federalState":{"key":"09","name":"Bayern"}},{"name":"Galgenbergstr.","postalCode":"86399","locality":"Bobingen","municipality":{"key":"09772125","name":"Bobingen, St","type":"Stadt"},"district":{"key":"09772","name":"Augsburg","type":"Landkreis"},"federalState":{"key":"09","name":"Bayern"}},{"name":"Gartenstr.","postalCode":"86399","locality":"Bobingen","municipality":{"key":"09772125","name":"Bobingen, St","type":"Stadt"},"district":{"key":"09772","name":"Augsburg","type":"Landkreis"},"federalState":{"key":"09","name":"Bayern"}},{"name":"Gennachweg","postalCode":"86399","locality":"Bobingen","municipality":{"key":"09772125","name":"Bobingen, St","type":"Stadt"},"district":{"key":"09772","name":"Augsburg","type":"Landkreis"},"federalState":{"key":"09","name":"Bayern"}},{"name":"Gerhard-Höllerich-Ring","postalCode":"86399","locality":"Bobingen","municipality":{"key":"09772125","name":"Bobingen, St","type":"Stadt"},"district":{"key":"09772","name":"Augsburg","type":"Landkreis"},"federalState":{"key":"09","name":"Bayern"}},{"name":"Geschwister-Scholl-Weg","postalCode":"86399","locality":"Bobingen","municipality":{"key":"09772125","name":"Bobingen, St","type":"Stadt"},"district":{"key":"09772","name":"Augsburg","type":"Landkreis"},"federalState":{"key":"09","name":"Bayern"}},{"name":"Gesundbrunnenweg","postalCode":"86399","locality":"Bobingen","municipality":{"key":"09772125","name":"Bobingen, St","type":"Stadt"},"district":{"key":"09772","name":"Augsburg","type":"Landkreis"},"federalState":{"key":"09","name":"Bayern"}},{"name":"Glockerweg","postalCode":"86399","locality":"Bobingen","municipality":{"key":"09772125","name":"Bobingen, St","type":"Stadt"},"district":{"key":"09772","name":"Augsburg","type":"Landkreis"},"federalState":{"key":"09","name":"Bayern"}},{"name":"Glückstr.","postalCode":"86399","locality":"Bobingen","municipality":{"key":"09772125","name":"Bobingen, St","type":"Stadt"},"district":{"key":"09772","name":"Augsburg","type":"Landkreis"},"federalState":{"key":"09","name":"Bayern"}},{"name":"Goethestr.","postalCode":"86399","locality":"Bobingen","municipality":{"key":"09772125","name":"Bobingen, St","type":"Stadt"},"district":{"key":"09772","name":"Augsburg","type":"Landkreis"},"federalState":{"key":"09","name":"Bayern"}},{"name":"Golfweg","postalCode":"86399","locality":"Bobingen","municipality":{"key":"09772125","name":"Bobingen, St","type":"Stadt"},"district":{"key":"09772","name":"Augsburg","type":"Landkreis"},"federalState":{"key":"09","name":"Bayern"}},{"name":"Graf-Stauffenberg-Str.","postalCode":"86399","locality":"Bobingen","municipality":{"key":"09772125","name":"Bobingen, St","type":"Stadt"},"district":{"key":"09772","name":"Augsburg","type":"Landkreis"},"federalState":{"key":"09","name":"Bayern"}},{"name":"Graf-Zeppelin-Str.","postalCode":"86399","locality":"Bobingen","municipality":{"key":"09772125","name":"Bobingen, St","type":"Stadt"},"district":{"key":"09772","name":"Augsburg","type":"Landkreis"},"federalState":{"key":"09","name":"Bayern"}},{"name":"Greifstr.","postalCode":"86399","locality":"Bobingen","municipality":{"key":"09772125","name":"Bobingen, St","type":"Stadt"},"district":{"key":"09772","name":"Augsburg","type":"Landkreis"},"federalState":{"key":"09","name":"Bayern"}},{"name":"Greiselstr.","postalCode":"86399","locality":"Bobingen","municipality":{"key":"09772125","name":"Bobingen, St","type":"Stadt"},"district":{"key":"09772","name":"Augsburg","type":"Landkreis"},"federalState":{"key":"09","name":"Bayern"}},{"name":"Grenzingstr.","postalCode":"86399","locality":"Bobingen","municipality":{"key":"09772125","name":"Bobingen, St","type":"Stadt"},"district":{"key":"09772","name":"Augsburg","type":"Landkreis"},"federalState":{"key":"09","name":"Bayern"}},{"name":"Grenzstr.","postalCode":"86399","locality":"Bobingen","municipality":{"key":"09772125","name":"Bobingen, St","type":"Stadt"},"district":{"key":"09772","name":"Augsburg","type":"Landkreis"},"federalState":{"key":"09","name":"Bayern"}},{"name":"Grüntenstr.","postalCode":"86399","locality":"Bobingen","municipality":{"key":"09772125","name":"Bobingen, St","type":"Stadt"},"district":{"key":"09772","name":"Augsburg","type":"Landkreis"},"federalState":{"key":"09","name":"Bayern"}},{"name":"Grünweg","postalCode":"86399","locality":"Bobingen","municipality":{"key":"09772125","name":"Bobingen, St","type":"Stadt"},"district":{"key":"09772","name":"Augsburg","type":"Landkreis"},"federalState":{"key":"09","name":"Bayern"}},{"name":"Günzweg","postalCode":"86399","locality":"Bobingen","municipality":{"key":"09772125","name":"Bobingen, St","type":"Stadt"},"district":{"key":"09772","name":"Augsburg","type":"Landkreis"},"federalState":{"key":"09","name":"Bayern"}},{"name":"Gutenbergstr.","postalCode":"86399","locality":"Bobingen","municipality":{"key":"09772125","name":"Bobingen, St","type":"Stadt"},"district":{"key":"09772","name":"Augsburg","type":"Landkreis"},"federalState":{"key":"09","name":"Bayern"}},{"name":"Habichtweg","postalCode":"86399","locality":"Bobingen","municipality":{"key":"09772125","name":"Bobingen, St","type":"Stadt"},"district":{"key":"09772","name":"Augsburg","type":"Landkreis"},"federalState":{"key":"09","name":"Bayern"}},{"name":"Hans-Böckler-Str.","postalCode":"86399","locality":"Bobingen","municipality":{"key":"09772125","name":"Bobingen, St","type":"Stadt"},"district":{"key":"09772","name":"Augsburg","type":"Landkreis"},"federalState":{"key":"09","name":"Bayern"}},{"name":"Hans-Sachs-Str.","postalCode":"86399","locality":"Bobingen","municipality":{"key":"09772125","name":"Bobingen, St","type":"Stadt"},"district":{"key":"09772","name":"Augsburg","type":"Landkreis"},"federalState":{"key":"09","name":"Bayern"}},{"name":"Haselnußweg","postalCode":"86399","locality":"Bobingen","municipality":{"key":"09772125","name":"Bobingen, St","type":"Stadt"},"district":{"key":"09772","name":"Augsburg","type":"Landkreis"},"federalState":{"key":"09","name":"Bayern"}},{"name":"Hattenbergstr.","postalCode":"86399","locality":"Bobingen","municipality":{"key":"09772125","name":"Bobingen, St","type":"Stadt"},"district":{"key":"09772","name":"Augsburg","type":"Landkreis"},"federalState":{"key":"09","name":"Bayern"}},{"name":"Haunstetterstr.","postalCode":"86399","locality":"Bobingen","municipality":{"key":"09772125","name":"Bobingen, St","type":"Stadt"},"district":{"key":"09772","name":"Augsburg","type":"Landkreis"},"federalState":{"key":"09","name":"Bayern"}},{"name":"Haunstetter Str.","postalCode":"86399","locality":"Bobingen","municipality":{"key":"09772125","name":"Bobingen, St","type":"Stadt"},"district":{"key":"09772","name":"Augsburg","type":"Landkreis"},"federalState":{"key":"09","name":"Bayern"}},{"name":"Heidelbeerweg","postalCode":"86399","locality":"Bobingen","municipality":{"key":"09772125","name":"Bobingen, St","type":"Stadt"},"district":{"key":"09772","name":"Augsburg","type":"Landkreis"},"federalState":{"key":"09","name":"Bayern"}},{"name":"Heidelberger Str.","postalCode":"86399","locality":"Bobingen","municipality":{"key":"09772125","name":"Bobingen, St","type":"Stadt"},"district":{"key":"09772","name":"Augsburg","type":"Landkreis"},"federalState":{"key":"09","name":"Bayern"}},{"name":"Herbststr.","postalCode":"86399","locality":"Bobingen","municipality":{"key":"09772125","name":"Bobingen, St","type":"Stadt"},"district":{"key":"09772","name":"Augsburg","type":"Landkreis"},"federalState":{"key":"09","name":"Bayern"}},{"name":"Hermann-Hesse-Str.","postalCode":"86399","locality":"Bobingen","municipality":{"key":"09772125","name":"Bobingen, St","type":"Stadt"},"district":{"key":"09772","name":"Augsburg","type":"Landkreis"},"federalState":{"key":"09","name":"Bayern"}},{"name":"Hermann-Köhl-Str.","postalCode":"86399","locality":"Bobingen","municipality":{"key":"09772125","name":"Bobingen, St","type":"Stadt"},"district":{"key":"09772","name":"Augsburg","type":"Landkreis"},"federalState":{"key":"09","name":"Bayern"}},{"name":"Hertzstr.","postalCode":"86399","locality":"Bobingen","municipality":{"key":"09772125","name":"Bobingen, St","type":"Stadt"},"district":{"key":"09772","name":"Augsburg","type":"Landkreis"},"federalState":{"key":"09","name":"Bayern"}},{"name":"Himbeerweg","postalCode":"86399","locality":"Bobingen","municipality":{"key":"09772125","name":"Bobingen, St","type":"Stadt"},"district":{"key":"09772","name":"Augsburg","type":"Landkreis"},"federalState":{"key":"09","name":"Bayern"}},{"name":"Hindenburgstr.","postalCode":"86399","locality":"Bobingen","municipality":{"key":"09772125","name":"Bobingen, St","type":"Stadt"},"district":{"key":"09772","name":"Augsburg","type":"Landkreis"},"federalState":{"key":"09","name":"Bayern"}},{"name":"Hirtenstr.","postalCode":"86399","locality":"Bobingen","municipality":{"key":"09772125","name":"Bobingen, St","type":"Stadt"},"district":{"key":"09772","name":"Augsburg","type":"Landkreis"},"federalState":{"key":"09","name":"Bayern"}},{"name":"Hochfeldstr.","postalCode":"86399","locality":"Bobingen","municipality":{"key":"09772125","name":"Bobingen, St","type":"Stadt"},"district":{"key":"09772","name":"Augsburg","type":"Landkreis"},"federalState":{"key":"09","name":"Bayern"}},{"name":"Hochstiftweg","postalCode":"86399","locality":"Bobingen","municipality":{"key":"09772125","name":"Bobingen, St","type":"Stadt"},"district":{"key":"09772","name":"Augsburg","type":"Landkreis"},"federalState":{"key":"09","name":"Bayern"}},{"name":"Hochstr.","postalCode":"86399","locality":"Bobingen","municipality":{"key":"09772125","name":"Bobingen, St","type":"Stadt"},"district":{"key":"09772","name":"Augsburg","type":"Landkreis"},"federalState":{"key":"09","name":"Bayern"}},{"name":"Hoechster Str.","postalCode":"86399","locality":"Bobingen","municipality":{"key":"09772125","name":"Bobingen, St","type":"Stadt"},"district":{"key":"09772","name":"Augsburg","type":"Landkreis"},"federalState":{"key":"09","name":"Bayern"}},{"name":"Holbeinring","postalCode":"86399","locality":"Bobingen","municipality":{"key":"09772125","name":"Bobingen, St","type":"Stadt"},"district":{"key":"09772","name":"Augsburg","type":"Landkreis"},"federalState":{"key":"09","name":"Bayern"}},{"name":"Holunderweg","postalCode":"86399","locality":"Bobingen","municipality":{"key":"09772125","name":"Bobingen, St","type":"Stadt"},"district":{"key":"09772","name":"Augsburg","type":"Landkreis"},"federalState":{"key":"09","name":"Bayern"}},{"name":"Hopfenweg","postalCode":"86399","locality":"Bobingen","municipality":{"key":"09772125","name":"Bobingen, St","type":"Stadt"},"district":{"key":"09772","name":"Augsburg","type":"Landkreis"},"federalState":{"key":"09","name":"Bayern"}},{"name":"Hubertusweg","postalCode":"86399","locality":"Bobingen","municipality":{"key":"09772125","name":"Bobingen, St","type":"Stadt"},"district":{"key":"09772","name":"Augsburg","type":"Landkreis"},"federalState":{"key":"09","name":"Bayern"}},{"name":"Illerstr.","postalCode":"86399","locality":"Bobingen","municipality":{"key":"09772125","name":"Bobingen, St","type":"Stadt"},"district":{"key":"09772","name":"Augsburg","type":"Landkreis"},"federalState":{"key":"09","name":"Bayern"}},{"name":"Im Wiesengrund","postalCode":"86399","locality":"Bobingen","municipality":{"key":"09772125","name":"Bobingen, St","type":"Stadt"},"district":{"key":"09772","name":"Augsburg","type":"Landkreis"},"federalState":{"key":"09","name":"Bayern"}},{"name":"In den Wertachgärten","postalCode":"86399","locality":"Bobingen","municipality":{"key":"09772125","name":"Bobingen, St","type":"Stadt"},"district":{"key":"09772","name":"Augsburg","type":"Landkreis"},"federalState":{"key":"09","name":"Bayern"}},{"name":"Inselweg","postalCode":"86399","locality":"Bobingen","municipality":{"key":"09772125","name":"Bobingen, St","type":"Stadt"},"district":{"key":"09772","name":"Augsburg","type":"Landkreis"},"federalState":{"key":"09","name":"Bayern"}},{"name":"Isarstr.","postalCode":"86399","locality":"Bobingen","municipality":{"key":"09772125","name":"Bobingen, St","type":"Stadt"},"district":{"key":"09772","name":"Augsburg","type":"Landkreis"},"federalState":{"key":"09","name":"Bayern"}},{"name":"Jahnstr.","postalCode":"86399","locality":"Bobingen","municipality":{"key":"09772125","name":"Bobingen, St","type":"Stadt"},"district":{"key":"09772","name":"Augsburg","type":"Landkreis"},"federalState":{"key":"09","name":"Bayern"}},{"name":"Johannisbeerweg","postalCode":"86399","locality":"Bobingen","municipality":{"key":"09772125","name":"Bobingen, St","type":"Stadt"},"district":{"key":"09772","name":"Augsburg","type":"Landkreis"},"federalState":{"key":"09","name":"Bayern"}},{"name":"Kaltenbachweg","postalCode":"86399","locality":"Bobingen","municipality":{"key":"09772125","name":"Bobingen, St","type":"Stadt"},"district":{"key":"09772","name":"Augsburg","type":"Landkreis"},"federalState":{"key":"09","name":"Bayern"}},{"name":"Karwendelstr.","postalCode":"86399","locality":"Bobingen","municipality":{"key":"09772125","name":"Bobingen, St","type":"Stadt"},"district":{"key":"09772","name":"Augsburg","type":"Landkreis"},"federalState":{"key":"09","name":"Bayern"}},{"name":"Keltenweg","postalCode":"86399","locality":"Bobingen","municipality":{"key":"09772125","name":"Bobingen, St","type":"Stadt"},"district":{"key":"09772","name":"Augsburg","type":"Landkreis"},"federalState":{"key":"09","name":"Bayern"}},{"name":"Keplerstr.","postalCode":"86399","locality":"Bobingen","municipality":{"key":"09772125","name":"Bobingen, St","type":"Stadt"},"district":{"key":"09772","name":"Augsburg","type":"Landkreis"},"federalState":{"key":"09","name":"Bayern"}},{"name":"Kiefernstr.","postalCode":"86399","locality":"Bobingen","municipality":{"key":"09772125","name":"Bobingen, St","type":"Stadt"},"district":{"key":"09772","name":"Augsburg","type":"Landkreis"},"federalState":{"key":"09","name":"Bayern"}},{"name":"Kirchenweg","postalCode":"86399","locality":"Bobingen","municipality":{"key":"09772125","name":"Bobingen, St","type":"Stadt"},"district":{"key":"09772","name":"Augsburg","type":"Landkreis"},"federalState":{"key":"09","name":"Bayern"}},{"name":"Kirchplatz","postalCode":"86399","locality":"Bobingen","municipality":{"key":"09772125","name":"Bobingen, St","type":"Stadt"},"district":{"key":"09772","name":"Augsburg","type":"Landkreis"},"federalState":{"key":"09","name":"Bayern"}},{"name":"Kleiberweg","postalCode":"86399","locality":"Bobingen","municipality":{"key":"09772125","name":"Bobingen, St","type":"Stadt"},"district":{"key":"09772","name":"Augsburg","type":"Landkreis"},"federalState":{"key":"09","name":"Bayern"}},{"name":"Kleinhansstr.","postalCode":"86399","locality":"Bobingen","municipality":{"key":"09772125","name":"Bobingen, St","type":"Stadt"},"district":{"key":"09772","name":"Augsburg","type":"Landkreis"},"federalState":{"key":"09","name":"Bayern"}},{"name":"Klimmacher Str.","postalCode":"86399","locality":"Bobingen","municipality":{"key":"09772125","name":"Bobingen, St","type":"Stadt"},"district":{"key":"09772","name":"Augsburg","type":"Landkreis"},"federalState":{"key":"09","name":"Bayern"}},{"name":"Koloniestr.","postalCode":"86399","locality":"Bobingen","municipality":{"key":"09772125","name":"Bobingen, St","type":"Stadt"},"district":{"key":"09772","name":"Augsburg","type":"Landkreis"},"federalState":{"key":"09","name":"Bayern"}},{"name":"Königsbrunner Str.","postalCode":"86399","locality":"Bobingen","municipality":{"key":"09772125","name":"Bobingen, St","type":"Stadt"},"district":{"key":"09772","name":"Augsburg","type":"Landkreis"},"federalState":{"key":"09","name":"Bayern"}},{"name":"Kornstr.","postalCode":"86399","locality":"Bobingen","municipality":{"key":"09772125","name":"Bobingen, St","type":"Stadt"},"district":{"key":"09772","name":"Augsburg","type":"Landkreis"},"federalState":{"key":"09","name":"Bayern"}},{"name":"Kreuzangerstr.","postalCode":"86399","locality":"Bobingen","municipality":{"key":"09772125","name":"Bobingen, St","type":"Stadt"},"district":{"key":"09772","name":"Augsburg","type":"Landkreis"},"federalState":{"key":"09","name":"Bayern"}},{"name":"Krumbacher Str.","postalCode":"86399","locality":"Bobingen","municipality":{"key":"09772125","name":"Bobingen, St","type":"Stadt"},"district":{"key":"09772","name":"Augsburg","type":"Landkreis"},"federalState":{"key":"09","name":"Bayern"}},{"name":"Landrat-Dr.-Frey-Platz","postalCode":"86399","locality":"Bobingen","municipality":{"key":"09772125","name":"Bobingen, St","type":"Stadt"},"district":{"key":"09772","name":"Augsburg","type":"Landkreis"},"federalState":{"key":"09","name":"Bayern"}},{"name":"Landshuter Allee","postalCode":"86399","locality":"Bobingen","municipality":{"key":"09772125","name":"Bobingen, St","type":"Stadt"},"district":{"key":"09772","name":"Augsburg","type":"Landkreis"},"federalState":{"key":"09","name":"Bayern"}},{"name":"Lärchenstr.","postalCode":"86399","locality":"Bobingen","municipality":{"key":"09772125","name":"Bobingen, St","type":"Stadt"},"district":{"key":"09772","name":"Augsburg","type":"Landkreis"},"federalState":{"key":"09","name":"Bayern"}},{"name":"Laurentiusweg","postalCode":"86399","locality":"Bobingen","municipality":{"key":"09772125","name":"Bobingen, St","type":"Stadt"},"district":{"key":"09772","name":"Augsburg","type":"Landkreis"},"federalState":{"key":"09","name":"Bayern"}},{"name":"Lechallee","postalCode":"86399","locality":"Bobingen","municipality":{"key":"09772125","name":"Bobingen, St","type":"Stadt"},"district":{"key":"09772","name":"Augsburg","type":"Landkreis"},"federalState":{"key":"09","name":"Bayern"}},{"name":"Leckenwalterstr.","postalCode":"86399","locality":"Bobingen","municipality":{"key":"09772125","name":"Bobingen, St","type":"Stadt"},"district":{"key":"09772","name":"Augsburg","type":"Landkreis"},"federalState":{"key":"09","name":"Bayern"}},{"name":"Leitenberg","postalCode":"86399","locality":"Bobingen","municipality":{"key":"09772125","name":"Bobingen, St","type":"Stadt"},"district":{"key":"09772","name":"Augsburg","type":"Landkreis"},"federalState":{"key":"09","name":"Bayern"}},{"name":"Liebfrauenstr.","postalCode":"86399","locality":"Bobingen","municipality":{"key":"09772125","name":"Bobingen, St","type":"Stadt"},"district":{"key":"09772","name":"Augsburg","type":"Landkreis"},"federalState":{"key":"09","name":"Bayern"}},{"name":"Liebigstr.","postalCode":"86399","locality":"Bobingen","municipality":{"key":"09772125","name":"Bobingen, St","type":"Stadt"},"district":{"key":"09772","name":"Augsburg","type":"Landkreis"},"federalState":{"key":"09","name":"Bayern"}},{"name":"Ligusterstr.","postalCode":"86399","locality":"Bobingen","municipality":{"key":"09772125","name":"Bobingen, St","type":"Stadt"},"district":{"key":"09772","name":"Augsburg","type":"Landkreis"},"federalState":{"key":"09","name":"Bayern"}},{"name":"Lilienthalstr.","postalCode":"86399","locality":"Bobingen","municipality":{"key":"09772125","name":"Bobingen, St","type":"Stadt"},"district":{"key":"09772","name":"Augsburg","type":"Landkreis"},"federalState":{"key":"09","name":"Bayern"}},{"name":"Lindauer Str.","postalCode":"86399","locality":"Bobingen","municipality":{"key":"09772125","name":"Bobingen, St","type":"Stadt"},"district":{"key":"09772","name":"Augsburg","type":"Landkreis"},"federalState":{"key":"09","name":"Bayern"}},{"name":"Lindberghstr.","postalCode":"86399","locality":"Bobingen","municipality":{"key":"09772125","name":"Bobingen, St","type":"Stadt"},"district":{"key":"09772","name":"Augsburg","type":"Landkreis"},"federalState":{"key":"09","name":"Bayern"}},{"name":"Lindenweg","postalCode":"86399","locality":"Bobingen","municipality":{"key":"09772125","name":"Bobingen, St","type":"Stadt"},"district":{"key":"09772","name":"Augsburg","type":"Landkreis"},"federalState":{"key":"09","name":"Bayern"}},{"name":"Loisachweg","postalCode":"86399","locality":"Bobingen","municipality":{"key":"09772125","name":"Bobingen, St","type":"Stadt"},"district":{"key":"09772","name":"Augsburg","type":"Landkreis"},"federalState":{"key":"09","name":"Bayern"}},{"name":"Löschbergweg","postalCode":"86399","locality":"Bobingen","municipality":{"key":"09772125","name":"Bobingen, St","type":"Stadt"},"district":{"key":"09772","name":"Augsburg","type":"Landkreis"},"federalState":{"key":"09","name":"Bayern"}},{"name":"Ludger-Hölker-Str.","postalCode":"86399","locality":"Bobingen","municipality":{"key":"09772125","name":"Bobingen, St","type":"Stadt"},"district":{"key":"09772","name":"Augsburg","type":"Landkreis"},"federalState":{"key":"09","name":"Bayern"}},{"name":"Mackensenstr.","postalCode":"86399","locality":"Bobingen","municipality":{"key":"09772125","name":"Bobingen, St","type":"Stadt"},"district":{"key":"09772","name":"Augsburg","type":"Landkreis"},"federalState":{"key":"09","name":"Bayern"}},{"name":"Mähderweg","postalCode":"86399","locality":"Bobingen","municipality":{"key":"09772125","name":"Bobingen, St","type":"Stadt"},"district":{"key":"09772","name":"Augsburg","type":"Landkreis"},"federalState":{"key":"09","name":"Bayern"}},{"name":"Maria-Hilf-Str.","postalCode":"86399","locality":"Bobingen","municipality":{"key":"09772125","name":"Bobingen, St","type":"Stadt"},"district":{"key":"09772","name":"Augsburg","type":"Landkreis"},"federalState":{"key":"09","name":"Bayern"}},{"name":"Max-Fischer-Str.","postalCode":"86399","locality":"Bobingen","municipality":{"key":"09772125","name":"Bobingen, St","type":"Stadt"},"district":{"key":"09772","name":"Augsburg","type":"Landkreis"},"federalState":{"key":"09","name":"Bayern"}},{"name":"Maximilian-Kolbe-Str.","postalCode":"86399","locality":"Bobingen","municipality":{"key":"09772125","name":"Bobingen, St","type":"Stadt"},"district":{"key":"09772","name":"Augsburg","type":"Landkreis"},"federalState":{"key":"09","name":"Bayern"}},{"name":"Mayerweg","postalCode":"86399","locality":"Bobingen","municipality":{"key":"09772125","name":"Bobingen, St","type":"Stadt"},"district":{"key":"09772","name":"Augsburg","type":"Landkreis"},"federalState":{"key":"09","name":"Bayern"}},{"name":"Michael-Schäffer-Str.","postalCode":"86399","locality":"Bobingen","municipality":{"key":"09772125","name":"Bobingen, St","type":"Stadt"},"district":{"key":"09772","name":"Augsburg","type":"Landkreis"},"federalState":{"key":"09","name":"Bayern"}},{"name":"Mickhauser Str.","postalCode":"86399","locality":"Bobingen","municipality":{"key":"09772125","name":"Bobingen, St","type":"Stadt"},"district":{"key":"09772","name":"Augsburg","type":"Landkreis"},"federalState":{"key":"09","name":"Bayern"}},{"name":"Milchgasse","postalCode":"86399","locality":"Bobingen","municipality":{"key":"09772125","name":"Bobingen, St","type":"Stadt"},"district":{"key":"09772","name":"Augsburg","type":"Landkreis"},"federalState":{"key":"09","name":"Bayern"}},{"name":"Mindelstr.","postalCode":"86399","locality":"Bobingen","municipality":{"key":"09772125","name":"Bobingen, St","type":"Stadt"},"district":{"key":"09772","name":"Augsburg","type":"Landkreis"},"federalState":{"key":"09","name":"Bayern"}},{"name":"Moosachweg","postalCode":"86399","locality":"Bobingen","municipality":{"key":"09772125","name":"Bobingen, St","type":"Stadt"},"district":{"key":"09772","name":"Augsburg","type":"Landkreis"},"federalState":{"key":"09","name":"Bayern"}},{"name":"Mozartstr.","postalCode":"86399","locality":"Bobingen","municipality":{"key":"09772125","name":"Bobingen, St","type":"Stadt"},"district":{"key":"09772","name":"Augsburg","type":"Landkreis"},"federalState":{"key":"09","name":"Bayern"}},{"name":"Mühlanger","postalCode":"86399","locality":"Bobingen","municipality":{"key":"09772125","name":"Bobingen, St","type":"Stadt"},"district":{"key":"09772","name":"Augsburg","type":"Landkreis"},"federalState":{"key":"09","name":"Bayern"}},{"name":"Mühlberg","postalCode":"86399","locality":"Bobingen","municipality":{"key":"09772125","name":"Bobingen, St","type":"Stadt"},"district":{"key":"09772","name":"Augsburg","type":"Landkreis"},"federalState":{"key":"09","name":"Bayern"}},{"name":"Neue Theile","postalCode":"86399","locality":"Bobingen","municipality":{"key":"09772125","name":"Bobingen, St","type":"Stadt"},"district":{"key":"09772","name":"Augsburg","type":"Landkreis"},"federalState":{"key":"09","name":"Bayern"}},{"name":"Nürnberger Str.","postalCode":"86399","locality":"Bobingen","municipality":{"key":"09772125","name":"Bobingen, St","type":"Stadt"},"district":{"key":"09772","name":"Augsburg","type":"Landkreis"},"federalState":{"key":"09","name":"Bayern"}},{"name":"Oberottmarshauser Str.","postalCode":"86399","locality":"Bobingen","municipality":{"key":"09772125","name":"Bobingen, St","type":"Stadt"},"district":{"key":"09772","name":"Augsburg","type":"Landkreis"},"federalState":{"key":"09","name":"Bayern"}},{"name":"Oskar-Müller-Str.","postalCode":"86399","locality":"Bobingen","municipality":{"key":"09772125","name":"Bobingen, St","type":"Stadt"},"district":{"key":"09772","name":"Augsburg","type":"Landkreis"},"federalState":{"key":"09","name":"Bayern"}},{"name":"Ostpreußenstr.","postalCode":"86399","locality":"Bobingen","municipality":{"key":"09772125","name":"Bobingen, St","type":"Stadt"},"district":{"key":"09772","name":"Augsburg","type":"Landkreis"},"federalState":{"key":"09","name":"Bayern"}},{"name":"Parkstr.","postalCode":"86399","locality":"Bobingen","municipality":{"key":"09772125","name":"Bobingen, St","type":"Stadt"},"district":{"key":"09772","name":"Augsburg","type":"Landkreis"},"federalState":{"key":"09","name":"Bayern"}},{"name":"Passauer Str.","postalCode":"86399","locality":"Bobingen","municipality":{"key":"09772125","name":"Bobingen, St","type":"Stadt"},"district":{"key":"09772","name":"Augsburg","type":"Landkreis"},"federalState":{"key":"09","name":"Bayern"}},{"name":"Paul-Gerhardt-Str.","postalCode":"86399","locality":"Bobingen","municipality":{"key":"09772125","name":"Bobingen, St","type":"Stadt"},"district":{"key":"09772","name":"Augsburg","type":"Landkreis"},"federalState":{"key":"09","name":"Bayern"}},{"name":"Pestalozzistr.","postalCode":"86399","locality":"Bobingen","municipality":{"key":"09772125","name":"Bobingen, St","type":"Stadt"},"district":{"key":"09772","name":"Augsburg","type":"Landkreis"},"federalState":{"key":"09","name":"Bayern"}},{"name":"Peter-Dörfler-Str.","postalCode":"86399","locality":"Bobingen","municipality":{"key":"09772125","name":"Bobingen, St","type":"Stadt"},"district":{"key":"09772","name":"Augsburg","type":"Landkreis"},"federalState":{"key":"09","name":"Bayern"}},{"name":"Peter-Henlein-Str.","postalCode":"86399","locality":"Bobingen","municipality":{"key":"09772125","name":"Bobingen, St","type":"Stadt"},"district":{"key":"09772","name":"Augsburg","type":"Landkreis"},"federalState":{"key":"09","name":"Bayern"}},{"name":"Pfarrer-Haßlacher-Str.","postalCode":"86399","locality":"Bobingen","municipality":{"key":"09772125","name":"Bobingen, St","type":"Stadt"},"district":{"key":"09772","name":"Augsburg","type":"Landkreis"},"federalState":{"key":"09","name":"Bayern"}},{"name":"Pommernstr.","postalCode":"86399","locality":"Bobingen","municipality":{"key":"09772125","name":"Bobingen, St","type":"Stadt"},"district":{"key":"09772","name":"Augsburg","type":"Landkreis"},"federalState":{"key":"09","name":"Bayern"}},{"name":"private property","postalCode":"86399","locality":"Bobingen","municipality":{"key":"09772125","name":"Bobingen, St","type":"Stadt"},"district":{"key":"09772","name":"Augsburg","type":"Landkreis"},"federalState":{"key":"09","name":"Bayern"}},{"name":"Quellenweg","postalCode":"86399","locality":"Bobingen","municipality":{"key":"09772125","name":"Bobingen, St","type":"Stadt"},"district":{"key":"09772","name":"Augsburg","type":"Landkreis"},"federalState":{"key":"09","name":"Bayern"}},{"name":"Radegundisstr.","postalCode":"86399","locality":"Bobingen","municipality":{"key":"09772125","name":"Bobingen, St","type":"Stadt"},"district":{"key":"09772","name":"Augsburg","type":"Landkreis"},"federalState":{"key":"09","name":"Bayern"}},{"name":"Rathausstr.","postalCode":"86399","locality":"Bobingen","municipality":{"key":"09772125","name":"Bobingen, St","type":"Stadt"},"district":{"key":"09772","name":"Augsburg","type":"Landkreis"},"federalState":{"key":"09","name":"Bayern"}},{"name":"Rebhuhnweg","postalCode":"86399","locality":"Bobingen","municipality":{"key":"09772125","name":"Bobingen, St","type":"Stadt"},"district":{"key":"09772","name":"Augsburg","type":"Landkreis"},"federalState":{"key":"09","name":"Bayern"}},{"name":"Regensburger Allee","postalCode":"86399","locality":"Bobingen","municipality":{"key":"09772125","name":"Bobingen, St","type":"Stadt"},"district":{"key":"09772","name":"Augsburg","type":"Landkreis"},"federalState":{"key":"09","name":"Bayern"}},{"name":"Rehsprungweg","postalCode":"86399","locality":"Bobingen","municipality":{"key":"09772125","name":"Bobingen, St","type":"Stadt"},"district":{"key":"09772","name":"Augsburg","type":"Landkreis"},"federalState":{"key":"09","name":"Bayern"}},{"name":"Reinhartshauser Str.","postalCode":"86399","locality":"Bobingen","municipality":{"key":"09772125","name":"Bobingen, St","type":"Stadt"},"district":{"key":"09772","name":"Augsburg","type":"Landkreis"},"federalState":{"key":"09","name":"Bayern"}},{"name":"Rembrandtstr.","postalCode":"86399","locality":"Bobingen","municipality":{"key":"09772125","name":"Bobingen, St","type":"Stadt"},"district":{"key":"09772","name":"Augsburg","type":"Landkreis"},"federalState":{"key":"09","name":"Bayern"}},{"name":"Rißweg","postalCode":"86399","locality":"Bobingen","municipality":{"key":"09772125","name":"Bobingen, St","type":"Stadt"},"district":{"key":"09772","name":"Augsburg","type":"Landkreis"},"federalState":{"key":"09","name":"Bayern"}},{"name":"Roggenmühlstr.","postalCode":"86399","locality":"Bobingen","municipality":{"key":"09772125","name":"Bobingen, St","type":"Stadt"},"district":{"key":"09772","name":"Augsburg","type":"Landkreis"},"federalState":{"key":"09","name":"Bayern"}},{"name":"Römerstr.","postalCode":"86399","locality":"Bobingen","municipality":{"key":"09772125","name":"Bobingen, St","type":"Stadt"},"district":{"key":"09772","name":"Augsburg","type":"Landkreis"},"federalState":{"key":"09","name":"Bayern"}},{"name":"Röntgenstr.","postalCode":"86399","locality":"Bobingen","municipality":{"key":"09772125","name":"Bobingen, St","type":"Stadt"},"district":{"key":"09772","name":"Augsburg","type":"Landkreis"},"federalState":{"key":"09","name":"Bayern"}},{"name":"Rosenheimer Allee","postalCode":"86399","locality":"Bobingen","municipality":{"key":"09772125","name":"Bobingen, St","type":"Stadt"},"district":{"key":"09772","name":"Augsburg","type":"Landkreis"},"federalState":{"key":"09","name":"Bayern"}},{"name":"Rosenweg","postalCode":"86399","locality":"Bobingen","municipality":{"key":"09772125","name":"Bobingen, St","type":"Stadt"},"district":{"key":"09772","name":"Augsburg","type":"Landkreis"},"federalState":{"key":"09","name":"Bayern"}},{"name":"Rupert-Mayer-Weg","postalCode":"86399","locality":"Bobingen","municipality":{"key":"09772125","name":"Bobingen, St","type":"Stadt"},"district":{"key":"09772","name":"Augsburg","type":"Landkreis"},"federalState":{"key":"09","name":"Bayern"}},{"name":"Sanddornstr.","postalCode":"86399","locality":"Bobingen","municipality":{"key":"09772125","name":"Bobingen, St","type":"Stadt"},"district":{"key":"09772","name":"Augsburg","type":"Landkreis"},"federalState":{"key":"09","name":"Bayern"}},{"name":"Schalmeistr.","postalCode":"86399","locality":"Bobingen","municipality":{"key":"09772125","name":"Bobingen, St","type":"Stadt"},"district":{"key":"09772","name":"Augsburg","type":"Landkreis"},"federalState":{"key":"09","name":"Bayern"}},{"name":"Schillerstr.","postalCode":"86399","locality":"Bobingen","municipality":{"key":"09772125","name":"Bobingen, St","type":"Stadt"},"district":{"key":"09772","name":"Augsburg","type":"Landkreis"},"federalState":{"key":"09","name":"Bayern"}},{"name":"Schlaueweg","postalCode":"86399","locality":"Bobingen","municipality":{"key":"09772125","name":"Bobingen, St","type":"Stadt"},"district":{"key":"09772","name":"Augsburg","type":"Landkreis"},"federalState":{"key":"09","name":"Bayern"}},{"name":"Schlehenweg","postalCode":"86399","locality":"Bobingen","municipality":{"key":"09772125","name":"Bobingen, St","type":"Stadt"},"district":{"key":"09772","name":"Augsburg","type":"Landkreis"},"federalState":{"key":"09","name":"Bayern"}},{"name":"Schlesierstr.","postalCode":"86399","locality":"Bobingen","municipality":{"key":"09772125","name":"Bobingen, St","type":"Stadt"},"district":{"key":"09772","name":"Augsburg","type":"Landkreis"},"federalState":{"key":"09","name":"Bayern"}},{"name":"Schloßberg","postalCode":"86399","locality":"Bobingen","municipality":{"key":"09772125","name":"Bobingen, St","type":"Stadt"},"district":{"key":"09772","name":"Augsburg","type":"Landkreis"},"federalState":{"key":"09","name":"Bayern"}},{"name":"Schlosserweg","postalCode":"86399","locality":"Bobingen","municipality":{"key":"09772125","name":"Bobingen, St","type":"Stadt"},"district":{"key":"09772","name":"Augsburg","type":"Landkreis"},"federalState":{"key":"09","name":"Bayern"}},{"name":"Schlößleweg","postalCode":"86399","locality":"Bobingen","municipality":{"key":"09772125","name":"Bobingen, St","type":"Stadt"},"district":{"key":"09772","name":"Augsburg","type":"Landkreis"},"federalState":{"key":"09","name":"Bayern"}},{"name":"Schmutterweg","postalCode":"86399","locality":"Bobingen","municipality":{"key":"09772125","name":"Bobingen, St","type":"Stadt"},"district":{"key":"09772","name":"Augsburg","type":"Landkreis"},"federalState":{"key":"09","name":"Bayern"}},{"name":"Schnitterstr.","postalCode":"86399","locality":"Bobingen","municipality":{"key":"09772125","name":"Bobingen, St","type":"Stadt"},"district":{"key":"09772","name":"Augsburg","type":"Landkreis"},"federalState":{"key":"09","name":"Bayern"}},{"name":"Schönfeldstr.","postalCode":"86399","locality":"Bobingen","municipality":{"key":"09772125","name":"Bobingen, St","type":"Stadt"},"district":{"key":"09772","name":"Augsburg","type":"Landkreis"},"federalState":{"key":"09","name":"Bayern"}},{"name":"Schreiberweg","postalCode":"86399","locality":"Bobingen","municipality":{"key":"09772125","name":"Bobingen, St","type":"Stadt"},"district":{"key":"09772","name":"Augsburg","type":"Landkreis"},"federalState":{"key":"09","name":"Bayern"}},{"name":"Schwabenstr.","postalCode":"86399","locality":"Bobingen","municipality":{"key":"09772125","name":"Bobingen, St","type":"Stadt"},"district":{"key":"09772","name":"Augsburg","type":"Landkreis"},"federalState":{"key":"09","name":"Bayern"}},{"name":"Schwettingerweg","postalCode":"86399","locality":"Bobingen","municipality":{"key":"09772125","name":"Bobingen, St","type":"Stadt"},"district":{"key":"09772","name":"Augsburg","type":"Landkreis"},"federalState":{"key":"09","name":"Bayern"}},{"name":"Sebastian-Kneipp-Str.","postalCode":"86399","locality":"Bobingen","municipality":{"key":"09772125","name":"Bobingen, St","type":"Stadt"},"district":{"key":"09772","name":"Augsburg","type":"Landkreis"},"federalState":{"key":"09","name":"Bayern"}},{"name":"Sebastianweg","postalCode":"86399","locality":"Bobingen","municipality":{"key":"09772125","name":"Bobingen, St","type":"Stadt"},"district":{"key":"09772","name":"Augsburg","type":"Landkreis"},"federalState":{"key":"09","name":"Bayern"}},{"name":"Sichelweg","postalCode":"86399","locality":"Bobingen","municipality":{"key":"09772125","name":"Bobingen, St","type":"Stadt"},"district":{"key":"09772","name":"Augsburg","type":"Landkreis"},"federalState":{"key":"09","name":"Bayern"}},{"name":"Siebenbürgerstr.","postalCode":"86399","locality":"Bobingen","municipality":{"key":"09772125","name":"Bobingen, St","type":"Stadt"},"district":{"key":"09772","name":"Augsburg","type":"Landkreis"},"federalState":{"key":"09","name":"Bayern"}},{"name":"Siedlerweg","postalCode":"86399","locality":"Bobingen","municipality":{"key":"09772125","name":"Bobingen, St","type":"Stadt"},"district":{"key":"09772","name":"Augsburg","type":"Landkreis"},"federalState":{"key":"09","name":"Bayern"}},{"name":"Siegertshofer Str.","postalCode":"86399","locality":"Bobingen","municipality":{"key":"09772125","name":"Bobingen, St","type":"Stadt"},"district":{"key":"09772","name":"Augsburg","type":"Landkreis"},"federalState":{"key":"09","name":"Bayern"}},{"name":"Singoldanger","postalCode":"86399","locality":"Bobingen","municipality":{"key":"09772125","name":"Bobingen, St","type":"Stadt"},"district":{"key":"09772","name":"Augsburg","type":"Landkreis"},"federalState":{"key":"09","name":"Bayern"}},{"name":"Singoldpark","postalCode":"86399","locality":"Bobingen","municipality":{"key":"09772125","name":"Bobingen, St","type":"Stadt"},"district":{"key":"09772","name":"Augsburg","type":"Landkreis"},"federalState":{"key":"09","name":"Bayern"}},{"name":"Singoldpromenade","postalCode":"86399","locality":"Bobingen","municipality":{"key":"09772125","name":"Bobingen, St","type":"Stadt"},"district":{"key":"09772","name":"Augsburg","type":"Landkreis"},"federalState":{"key":"09","name":"Bayern"}},{"name":"Sinkelweg","postalCode":"86399","locality":"Bobingen","municipality":{"key":"09772125","name":"Bobingen, St","type":"Stadt"},"district":{"key":"09772","name":"Augsburg","type":"Landkreis"},"federalState":{"key":"09","name":"Bayern"}},{"name":"Sommerhausberg","postalCode":"86399","locality":"Bobingen","municipality":{"key":"09772125","name":"Bobingen, St","type":"Stadt"},"district":{"key":"09772","name":"Augsburg","type":"Landkreis"},"federalState":{"key":"09","name":"Bayern"}},{"name":"Sommerstr.","postalCode":"86399","locality":"Bobingen","municipality":{"key":"09772125","name":"Bobingen, St","type":"Stadt"},"district":{"key":"09772","name":"Augsburg","type":"Landkreis"},"federalState":{"key":"09","name":"Bayern"}},{"name":"Sperberweg","postalCode":"86399","locality":"Bobingen","municipality":{"key":"09772125","name":"Bobingen, St","type":"Stadt"},"district":{"key":"09772","name":"Augsburg","type":"Landkreis"},"federalState":{"key":"09","name":"Bayern"}},{"name":"Sperlingweg","postalCode":"86399","locality":"Bobingen","municipality":{"key":"09772125","name":"Bobingen, St","type":"Stadt"},"district":{"key":"09772","name":"Augsburg","type":"Landkreis"},"federalState":{"key":"09","name":"Bayern"}},{"name":"Spettinger Str.","postalCode":"86399","locality":"Bobingen","municipality":{"key":"09772125","name":"Bobingen, St","type":"Stadt"},"district":{"key":"09772","name":"Augsburg","type":"Landkreis"},"federalState":{"key":"09","name":"Bayern"}},{"name":"Steigangerweg","postalCode":"86399","locality":"Bobingen","municipality":{"key":"09772125","name":"Bobingen, St","type":"Stadt"},"district":{"key":"09772","name":"Augsburg","type":"Landkreis"},"federalState":{"key":"09","name":"Bayern"}},{"name":"Storchenweg","postalCode":"86399","locality":"Bobingen","municipality":{"key":"09772125","name":"Bobingen, St","type":"Stadt"},"district":{"key":"09772","name":"Augsburg","type":"Landkreis"},"federalState":{"key":"09","name":"Bayern"}},{"name":"Straßberger Str.","postalCode":"86399","locality":"Bobingen","municipality":{"key":"09772125","name":"Bobingen, St","type":"Stadt"},"district":{"key":"09772","name":"Augsburg","type":"Landkreis"},"federalState":{"key":"09","name":"Bayern"}},{"name":"Südendstr.","postalCode":"86399","locality":"Bobingen","municipality":{"key":"09772125","name":"Bobingen, St","type":"Stadt"},"district":{"key":"09772","name":"Augsburg","type":"Landkreis"},"federalState":{"key":"09","name":"Bayern"}},{"name":"Sudetenstr.","postalCode":"86399","locality":"Bobingen","municipality":{"key":"09772125","name":"Bobingen, St","type":"Stadt"},"district":{"key":"09772","name":"Augsburg","type":"Landkreis"},"federalState":{"key":"09","name":"Bayern"}},{"name":"Südliche Fraunhoferstr.","postalCode":"86399","locality":"Bobingen","municipality":{"key":"09772125","name":"Bobingen, St","type":"Stadt"},"district":{"key":"09772","name":"Augsburg","type":"Landkreis"},"federalState":{"key":"09","name":"Bayern"}},{"name":"Tannenstr.","postalCode":"86399","locality":"Bobingen","municipality":{"key":"09772125","name":"Bobingen, St","type":"Stadt"},"district":{"key":"09772","name":"Augsburg","type":"Landkreis"},"federalState":{"key":"09","name":"Bayern"}},{"name":"Taubenweg","postalCode":"86399","locality":"Bobingen","municipality":{"key":"09772125","name":"Bobingen, St","type":"Stadt"},"district":{"key":"09772","name":"Augsburg","type":"Landkreis"},"federalState":{"key":"09","name":"Bayern"}},{"name":"Tübinger Str.","postalCode":"86399","locality":"Bobingen","municipality":{"key":"09772125","name":"Bobingen, St","type":"Stadt"},"district":{"key":"09772","name":"Augsburg","type":"Landkreis"},"federalState":{"key":"09","name":"Bayern"}},{"name":"Tulpenweg","postalCode":"86399","locality":"Bobingen","municipality":{"key":"09772125","name":"Bobingen, St","type":"Stadt"},"district":{"key":"09772","name":"Augsburg","type":"Landkreis"},"federalState":{"key":"09","name":"Bayern"}},{"name":"Turmstr.","postalCode":"86399","locality":"Bobingen","municipality":{"key":"09772125","name":"Bobingen, St","type":"Stadt"},"district":{"key":"09772","name":"Augsburg","type":"Landkreis"},"federalState":{"key":"09","name":"Bayern"}},{"name":"Tutzinger Str.","postalCode":"86399","locality":"Bobingen","municipality":{"key":"09772125","name":"Bobingen, St","type":"Stadt"},"district":{"key":"09772","name":"Augsburg","type":"Landkreis"},"federalState":{"key":"09","name":"Bayern"}},{"name":"Uferstr.","postalCode":"86399","locality":"Bobingen","municipality":{"key":"09772125","name":"Bobingen, St","type":"Stadt"},"district":{"key":"09772","name":"Augsburg","type":"Landkreis"},"federalState":{"key":"09","name":"Bayern"}},{"name":"Ulmenweg","postalCode":"86399","locality":"Bobingen","municipality":{"key":"09772125","name":"Bobingen, St","type":"Stadt"},"district":{"key":"09772","name":"Augsburg","type":"Landkreis"},"federalState":{"key":"09","name":"Bayern"}},{"name":"Unterfeldstr.","postalCode":"86399","locality":"Bobingen","municipality":{"key":"09772125","name":"Bobingen, St","type":"Stadt"},"district":{"key":"09772","name":"Augsburg","type":"Landkreis"},"federalState":{"key":"09","name":"Bayern"}},{"name":"Venusberg","postalCode":"86399","locality":"Bobingen","municipality":{"key":"09772125","name":"Bobingen, St","type":"Stadt"},"district":{"key":"09772","name":"Augsburg","type":"Landkreis"},"federalState":{"key":"09","name":"Bayern"}},{"name":"Villenbachstr.","postalCode":"86399","locality":"Bobingen","municipality":{"key":"09772125","name":"Bobingen, St","type":"Stadt"},"district":{"key":"09772","name":"Augsburg","type":"Landkreis"},"federalState":{"key":"09","name":"Bayern"}},{"name":"Vogelberg","postalCode":"86399","locality":"Bobingen","municipality":{"key":"09772125","name":"Bobingen, St","type":"Stadt"},"district":{"key":"09772","name":"Augsburg","type":"Landkreis"},"federalState":{"key":"09","name":"Bayern"}},{"name":"Vogteiweg","postalCode":"86399","locality":"Bobingen","municipality":{"key":"09772125","name":"Bobingen, St","type":"Stadt"},"district":{"key":"09772","name":"Augsburg","type":"Landkreis"},"federalState":{"key":"09","name":"Bayern"}},{"name":"Von-Lotzbeck-Str.","postalCode":"86399","locality":"Bobingen","municipality":{"key":"09772125","name":"Bobingen, St","type":"Stadt"},"district":{"key":"09772","name":"Augsburg","type":"Landkreis"},"federalState":{"key":"09","name":"Bayern"}},{"name":"Wacholderstr.","postalCode":"86399","locality":"Bobingen","municipality":{"key":"09772125","name":"Bobingen, St","type":"Stadt"},"district":{"key":"09772","name":"Augsburg","type":"Landkreis"},"federalState":{"key":"09","name":"Bayern"}},{"name":"Waldberger Str.","postalCode":"86399","locality":"Bobingen","municipality":{"key":"09772125","name":"Bobingen, St","type":"Stadt"},"district":{"key":"09772","name":"Augsburg","type":"Landkreis"},"federalState":{"key":"09","name":"Bayern"}},{"name":"Weidenstr.","postalCode":"86399","locality":"Bobingen","municipality":{"key":"09772125","name":"Bobingen, St","type":"Stadt"},"district":{"key":"09772","name":"Augsburg","type":"Landkreis"},"federalState":{"key":"09","name":"Bayern"}},{"name":"Weihermahdstr.","postalCode":"86399","locality":"Bobingen","municipality":{"key":"09772125","name":"Bobingen, St","type":"Stadt"},"district":{"key":"09772","name":"Augsburg","type":"Landkreis"},"federalState":{"key":"09","name":"Bayern"}},{"name":"Weißdornweg","postalCode":"86399","locality":"Bobingen","municipality":{"key":"09772125","name":"Bobingen, St","type":"Stadt"},"district":{"key":"09772","name":"Augsburg","type":"Landkreis"},"federalState":{"key":"09","name":"Bayern"}},{"name":"Wendelinstr.","postalCode":"86399","locality":"Bobingen","municipality":{"key":"09772125","name":"Bobingen, St","type":"Stadt"},"district":{"key":"09772","name":"Augsburg","type":"Landkreis"},"federalState":{"key":"09","name":"Bayern"}},{"name":"Wertachstr.","postalCode":"86399","locality":"Bobingen","municipality":{"key":"09772125","name":"Bobingen, St","type":"Stadt"},"district":{"key":"09772","name":"Augsburg","type":"Landkreis"},"federalState":{"key":"09","name":"Bayern"}},{"name":"Wertherstr.","postalCode":"86399","locality":"Bobingen","municipality":{"key":"09772125","name":"Bobingen, St","type":"Stadt"},"district":{"key":"09772","name":"Augsburg","type":"Landkreis"},"federalState":{"key":"09","name":"Bayern"}},{"name":"Wettersteinstr.","postalCode":"86399","locality":"Bobingen","municipality":{"key":"09772125","name":"Bobingen, St","type":"Stadt"},"district":{"key":"09772","name":"Augsburg","type":"Landkreis"},"federalState":{"key":"09","name":"Bayern"}},{"name":"Wiesenstr.","postalCode":"86399","locality":"Bobingen","municipality":{"key":"09772125","name":"Bobingen, St","type":"Stadt"},"district":{"key":"09772","name":"Augsburg","type":"Landkreis"},"federalState":{"key":"09","name":"Bayern"}},{"name":"Wiesentalstr.","postalCode":"86399","locality":"Bobingen","municipality":{"key":"09772125","name":"Bobingen, St","type":"Stadt"},"district":{"key":"09772","name":"Augsburg","type":"Landkreis"},"federalState":{"key":"09","name":"Bayern"}},{"name":"Wiesgäßchen","postalCode":"86399","locality":"Bobingen","municipality":{"key":"09772125","name":"Bobingen, St","type":"Stadt"},"district":{"key":"09772","name":"Augsburg","type":"Landkreis"},"federalState":{"key":"09","name":"Bayern"}},{"name":"Winterstr.","postalCode":"86399","locality":"Bobingen","municipality":{"key":"09772125","name":"Bobingen, St","type":"Stadt"},"district":{"key":"09772","name":"Augsburg","type":"Landkreis"},"federalState":{"key":"09","name":"Bayern"}},{"name":"Wolfsgäßchen","postalCode":"86399","locality":"Bobingen","municipality":{"key":"09772125","name":"Bobingen, St","type":"Stadt"},"district":{"key":"09772","name":"Augsburg","type":"Landkreis"},"federalState":{"key":"09","name":"Bayern"}},{"name":"Wörnitzweg","postalCode":"86399","locality":"Bobingen","municipality":{"key":"09772125","name":"Bobingen, St","type":"Stadt"},"district":{"key":"09772","name":"Augsburg","type":"Landkreis"},"federalState":{"key":"09","name":"Bayern"}},{"name":"Würzburger Str.","postalCode":"86399","locality":"Bobingen","municipality":{"key":"09772125","name":"Bobingen, St","type":"Stadt"},"district":{"key":"09772","name":"Augsburg","type":"Landkreis"},"federalState":{"key":"09","name":"Bayern"}},{"name":"Yorckstr.","postalCode":"86165","locality":"Augsburg","municipality":{"key":"09761000","name":"Augsburg","type":"Kreisfreie_Stadt"},"district":{"key":"09761","name":"Augsburg","type":"Kreisfreie_Stadt"},"federalState":{"key":"09","name":"Bayern"}},{"name":"Zedernstr.","postalCode":"86399","locality":"Bobingen","municipality":{"key":"09772125","name":"Bobingen, St","type":"Stadt"},"district":{"key":"09772","name":"Augsburg","type":"Landkreis"},"federalState":{"key":"09","name":"Bayern"}},{"name":"Zehentweg","postalCode":"86399","locality":"Bobingen","municipality":{"key":"09772125","name":"Bobingen, St","type":"Stadt"},"district":{"key":"09772","name":"Augsburg","type":"Landkreis"},"federalState":{"key":"09","name":"Bayern"}},{"name":"Ziegeleistr.","postalCode":"86399","locality":"Bobingen","municipality":{"key":"09772125","name":"Bobingen, St","type":"Stadt"},"district":{"key":"09772","name":"Augsburg","type":"Landkreis"},"federalState":{"key":"09","name":"Bayern"}},{"name":"Zugspitzstr.","postalCode":"86399","locality":"Bobingen","municipality":{"key":"09772125","name":"Bobingen, St","type":"Stadt"},"district":{"key":"09772","name":"Augsburg","type":"Landkreis"},"federalState":{"key":"09","name":"Bayern"}},{"name":"Zusamweg","postalCode":"86399","locality":"Bobingen","municipality":{"key":"09772125","name":"Bobingen, St","type":"Stadt"},"district":{"key":"09772","name":"Augsburg","type":"Landkreis"},"federalState":{"key":"09","name":"Bayern"}},{"name":"Zweigstr.","postalCode":"86399","locality":"Bobingen","municipality":{"key":"09772125","name":"Bobingen, St","type":"Stadt"},"district":{"key":"09772","name":"Augsburg","type":"Landkreis"},"federalState":{"key":"09","name":"Bayern"}},{"name":"Ährenstr.","postalCode":"86179","locality":"Augsburg","municipality":{"key":"09761000","name":"Augsburg","type":"Kreisfreie_Stadt"},"district":{"key":"09761","name":"Augsburg","type":"Kreisfreie_Stadt"},"federalState":{"key":"09","name":"Bayern"}},{"name":"Äußerer Gang","postalCode":"86150","locality":"Augsburg","municipality":{"key":"09761000","name":"Augsburg","type":"Kreisfreie_Stadt"},"district":{"key":"09761","name":"Augsburg","type":"Kreisfreie_Stadt"},"federalState":{"key":"09","name":"Bayern"}},{"name":"Äußeres Pfaffengäßchen","postalCode":"86152","locality":"Augsburg","municipality":{"key":"09761000","name":"Augsburg","type":"Kreisfreie_Stadt"},"district":{"key":"09761","name":"Augsburg","type":"Kreisfreie_Stadt"},"federalState":{"key":"09","name":"Bayern"}},{"name":"Äußere Uferstr.","postalCode":"86154","locality":"Augsburg","municipality":{"key":"09761000","name":"Augsburg","type":"Kreisfreie_Stadt"},"district":{"key":"09761","name":"Augsburg","type":"Kreisfreie_Stadt"},"federalState":{"key":"09","name":"Bayern"}},{"name":"Ölwiesenweg","postalCode":"86399","locality":"Bobingen","municipality":{"key":"09772125","name":"Bobingen, St","type":"Stadt"},"district":{"key":"09772","name":"Augsburg","type":"Landkreis"},"federalState":{"key":"09","name":"Bayern"}},]