[{"name":"Alte Försterei","postalCode":"07806","locality":"Neustadt an der Orla","municipality":{"key":"16075073","name":"Neustadt an der Orla, Stadt","type":"Stadt"},"district":{"key":"16075","name":"Saale-Orla-Kreis","type":"Landkreis"},"federalState":{"key":"16","name":"Thüringen"}},{"name":"Alte Landstr.","postalCode":"07806","locality":"Neustadt an der Orla","municipality":{"key":"16075073","name":"Neustadt an der Orla, Stadt","type":"Stadt"},"district":{"key":"16075","name":"Saale-Orla-Kreis","type":"Landkreis"},"federalState":{"key":"16","name":"Thüringen"}},{"name":"Am Anger","postalCode":"07806","locality":"Neustadt an der Orla","municipality":{"key":"16075073","name":"Neustadt an der Orla, Stadt","type":"Stadt"},"district":{"key":"16075","name":"Saale-Orla-Kreis","type":"Landkreis"},"federalState":{"key":"16","name":"Thüringen"}},{"name":"Am Berg","postalCode":"07806","locality":"Neustadt an der Orla","municipality":{"key":"16075073","name":"Neustadt an der Orla, Stadt","type":"Stadt"},"district":{"key":"16075","name":"Saale-Orla-Kreis","type":"Landkreis"},"federalState":{"key":"16","name":"Thüringen"}},{"name":"Am Campingplatz","postalCode":"07806","locality":"Neustadt an der Orla","municipality":{"key":"16075073","name":"Neustadt an der Orla, Stadt","type":"Stadt"},"district":{"key":"16075","name":"Saale-Orla-Kreis","type":"Landkreis"},"federalState":{"key":"16","name":"Thüringen"}},{"name":"Am Döhlener Weg","postalCode":"07806","locality":"Neustadt an der Orla","municipality":{"key":"16075073","name":"Neustadt an der Orla, Stadt","type":"Stadt"},"district":{"key":"16075","name":"Saale-Orla-Kreis","type":"Landkreis"},"federalState":{"key":"16","name":"Thüringen"}},{"name":"Am Eiskellerplatz","postalCode":"07806","locality":"Neustadt an der Orla","municipality":{"key":"16075073","name":"Neustadt an der Orla, Stadt","type":"Stadt"},"district":{"key":"16075","name":"Saale-Orla-Kreis","type":"Landkreis"},"federalState":{"key":"16","name":"Thüringen"}},{"name":"Am Friedensgarten","postalCode":"07806","locality":"Neustadt an der Orla","municipality":{"key":"16075073","name":"Neustadt an der Orla, Stadt","type":"Stadt"},"district":{"key":"16075","name":"Saale-Orla-Kreis","type":"Landkreis"},"federalState":{"key":"16","name":"Thüringen"}},{"name":"Am Graben","postalCode":"07806","locality":"Neustadt an der Orla","municipality":{"key":"16075073","name":"Neustadt an der Orla, Stadt","type":"Stadt"},"district":{"key":"16075","name":"Saale-Orla-Kreis","type":"Landkreis"},"federalState":{"key":"16","name":"Thüringen"}},{"name":"Am Gries","postalCode":"07806","locality":"Neustadt an der Orla","municipality":{"key":"16075073","name":"Neustadt an der Orla, Stadt","type":"Stadt"},"district":{"key":"16075","name":"Saale-Orla-Kreis","type":"Landkreis"},"federalState":{"key":"16","name":"Thüringen"}},{"name":"Am Hain","postalCode":"07806","locality":"Neustadt an der Orla","municipality":{"key":"16075073","name":"Neustadt an der Orla, Stadt","type":"Stadt"},"district":{"key":"16075","name":"Saale-Orla-Kreis","type":"Landkreis"},"federalState":{"key":"16","name":"Thüringen"}},{"name":"Am Heinrichsberg","postalCode":"07806","locality":"Neustadt an der Orla","municipality":{"key":"16075073","name":"Neustadt an der Orla, Stadt","type":"Stadt"},"district":{"key":"16075","name":"Saale-Orla-Kreis","type":"Landkreis"},"federalState":{"key":"16","name":"Thüringen"}},{"name":"Am Kalkofen","postalCode":"07806","locality":"Neustadt an der Orla","municipality":{"key":"16075073","name":"Neustadt an der Orla, Stadt","type":"Stadt"},"district":{"key":"16075","name":"Saale-Orla-Kreis","type":"Landkreis"},"federalState":{"key":"16","name":"Thüringen"}},{"name":"Am Kupferberg","postalCode":"07806","locality":"Neustadt an der Orla","municipality":{"key":"16075073","name":"Neustadt an der Orla, Stadt","type":"Stadt"},"district":{"key":"16075","name":"Saale-Orla-Kreis","type":"Landkreis"},"federalState":{"key":"16","name":"Thüringen"}},{"name":"Am Lilienberg","postalCode":"07806","locality":"Neustadt an der Orla","municipality":{"key":"16075073","name":"Neustadt an der Orla, Stadt","type":"Stadt"},"district":{"key":"16075","name":"Saale-Orla-Kreis","type":"Landkreis"},"federalState":{"key":"16","name":"Thüringen"}},{"name":"Am Lindenplatz","postalCode":"07806","locality":"Neustadt an der Orla","municipality":{"key":"16075073","name":"Neustadt an der Orla, Stadt","type":"Stadt"},"district":{"key":"16075","name":"Saale-Orla-Kreis","type":"Landkreis"},"federalState":{"key":"16","name":"Thüringen"}},{"name":"Am Oberen Gries","postalCode":"07806","locality":"Neustadt an der Orla","municipality":{"key":"16075073","name":"Neustadt an der Orla, Stadt","type":"Stadt"},"district":{"key":"16075","name":"Saale-Orla-Kreis","type":"Landkreis"},"federalState":{"key":"16","name":"Thüringen"}},{"name":"Am Park","postalCode":"07806","locality":"Neustadt an der Orla","municipality":{"key":"16075073","name":"Neustadt an der Orla, Stadt","type":"Stadt"},"district":{"key":"16075","name":"Saale-Orla-Kreis","type":"Landkreis"},"federalState":{"key":"16","name":"Thüringen"}},{"name":"Am Rosenweg","postalCode":"07806","locality":"Neustadt an der Orla","municipality":{"key":"16075073","name":"Neustadt an der Orla, Stadt","type":"Stadt"},"district":{"key":"16075","name":"Saale-Orla-Kreis","type":"Landkreis"},"federalState":{"key":"16","name":"Thüringen"}},{"name":"Am Südhang","postalCode":"07806","locality":"Neustadt an der Orla","municipality":{"key":"16075073","name":"Neustadt an der Orla, Stadt","type":"Stadt"},"district":{"key":"16075","name":"Saale-Orla-Kreis","type":"Landkreis"},"federalState":{"key":"16","name":"Thüringen"}},{"name":"Am Unteren Gries","postalCode":"07806","locality":"Neustadt an der Orla","municipality":{"key":"16075073","name":"Neustadt an der Orla, Stadt","type":"Stadt"},"district":{"key":"16075","name":"Saale-Orla-Kreis","type":"Landkreis"},"federalState":{"key":"16","name":"Thüringen"}},{"name":"An den Schneewehen","postalCode":"07806","locality":"Neustadt an der Orla","municipality":{"key":"16075073","name":"Neustadt an der Orla, Stadt","type":"Stadt"},"district":{"key":"16075","name":"Saale-Orla-Kreis","type":"Landkreis"},"federalState":{"key":"16","name":"Thüringen"}},{"name":"An den Wehrwiesen","postalCode":"07806","locality":"Neustadt an der Orla","municipality":{"key":"16075073","name":"Neustadt an der Orla, Stadt","type":"Stadt"},"district":{"key":"16075","name":"Saale-Orla-Kreis","type":"Landkreis"},"federalState":{"key":"16","name":"Thüringen"}},{"name":"An der Kirche","postalCode":"07806","locality":"Neustadt an der Orla","municipality":{"key":"16075073","name":"Neustadt an der Orla, Stadt","type":"Stadt"},"district":{"key":"16075","name":"Saale-Orla-Kreis","type":"Landkreis"},"federalState":{"key":"16","name":"Thüringen"}},{"name":"An der Schule","postalCode":"07806","locality":"Neustadt an der Orla","municipality":{"key":"16075073","name":"Neustadt an der Orla, Stadt","type":"Stadt"},"district":{"key":"16075","name":"Saale-Orla-Kreis","type":"Landkreis"},"federalState":{"key":"16","name":"Thüringen"}},{"name":"An der unteren Schule","postalCode":"07806","locality":"Neustadt an der Orla","municipality":{"key":"16075073","name":"Neustadt an der Orla, Stadt","type":"Stadt"},"district":{"key":"16075","name":"Saale-Orla-Kreis","type":"Landkreis"},"federalState":{"key":"16","name":"Thüringen"}},{"name":"Arnshaugk","postalCode":"07806","locality":"Neustadt an der Orla","municipality":{"key":"16075073","name":"Neustadt an der Orla, Stadt","type":"Stadt"},"district":{"key":"16075","name":"Saale-Orla-Kreis","type":"Landkreis"},"federalState":{"key":"16","name":"Thüringen"}},{"name":"Arnshaugker Str.","postalCode":"07806","locality":"Neustadt an der Orla","municipality":{"key":"16075073","name":"Neustadt an der Orla, Stadt","type":"Stadt"},"district":{"key":"16075","name":"Saale-Orla-Kreis","type":"Landkreis"},"federalState":{"key":"16","name":"Thüringen"}},{"name":"Auf dem Dohlenberg","postalCode":"07806","locality":"Neustadt an der Orla","municipality":{"key":"16075073","name":"Neustadt an der Orla, Stadt","type":"Stadt"},"district":{"key":"16075","name":"Saale-Orla-Kreis","type":"Landkreis"},"federalState":{"key":"16","name":"Thüringen"}},{"name":"August-Bebel-Str.","postalCode":"07806","locality":"Neustadt an der Orla","municipality":{"key":"16075073","name":"Neustadt an der Orla, Stadt","type":"Stadt"},"district":{"key":"16075","name":"Saale-Orla-Kreis","type":"Landkreis"},"federalState":{"key":"16","name":"Thüringen"}},{"name":"Bachstr.","postalCode":"07806","locality":"Neustadt an der Orla","municipality":{"key":"16075073","name":"Neustadt an der Orla, Stadt","type":"Stadt"},"district":{"key":"16075","name":"Saale-Orla-Kreis","type":"Landkreis"},"federalState":{"key":"16","name":"Thüringen"}},{"name":"Bahnhofstr.","postalCode":"07806","locality":"Neustadt an der Orla","municipality":{"key":"16075073","name":"Neustadt an der Orla, Stadt","type":"Stadt"},"district":{"key":"16075","name":"Saale-Orla-Kreis","type":"Landkreis"},"federalState":{"key":"16","name":"Thüringen"}},{"name":"Bertolt-Brecht-Str.","postalCode":"07806","locality":"Neustadt an der Orla","municipality":{"key":"16075073","name":"Neustadt an der Orla, Stadt","type":"Stadt"},"district":{"key":"16075","name":"Saale-Orla-Kreis","type":"Landkreis"},"federalState":{"key":"16","name":"Thüringen"}},{"name":"Bierweg","postalCode":"07806","locality":"Neustadt an der Orla","municipality":{"key":"16075073","name":"Neustadt an der Orla, Stadt","type":"Stadt"},"district":{"key":"16075","name":"Saale-Orla-Kreis","type":"Landkreis"},"federalState":{"key":"16","name":"Thüringen"}},{"name":"Borngässel","postalCode":"07806","locality":"Neustadt an der Orla","municipality":{"key":"16075073","name":"Neustadt an der Orla, Stadt","type":"Stadt"},"district":{"key":"16075","name":"Saale-Orla-Kreis","type":"Landkreis"},"federalState":{"key":"16","name":"Thüringen"}},{"name":"Börthener Weg","postalCode":"07806","locality":"Neustadt an der Orla","municipality":{"key":"16075073","name":"Neustadt an der Orla, Stadt","type":"Stadt"},"district":{"key":"16075","name":"Saale-Orla-Kreis","type":"Landkreis"},"federalState":{"key":"16","name":"Thüringen"}},{"name":"Brauhausgasse","postalCode":"07806","locality":"Neustadt an der Orla","municipality":{"key":"16075073","name":"Neustadt an der Orla, Stadt","type":"Stadt"},"district":{"key":"16075","name":"Saale-Orla-Kreis","type":"Landkreis"},"federalState":{"key":"16","name":"Thüringen"}},{"name":"Breitenhain","postalCode":"07806","locality":"Neustadt an der Orla","municipality":{"key":"16075073","name":"Neustadt an der Orla, Stadt","type":"Stadt"},"district":{"key":"16075","name":"Saale-Orla-Kreis","type":"Landkreis"},"federalState":{"key":"16","name":"Thüringen"}},{"name":"Busbahnhof","postalCode":"07806","locality":"Neustadt an der Orla","municipality":{"key":"16075073","name":"Neustadt an der Orla, Stadt","type":"Stadt"},"district":{"key":"16075","name":"Saale-Orla-Kreis","type":"Landkreis"},"federalState":{"key":"16","name":"Thüringen"}},{"name":"Centbaumweg","postalCode":"07806","locality":"Neustadt an der Orla","municipality":{"key":"16075073","name":"Neustadt an der Orla, Stadt","type":"Stadt"},"district":{"key":"16075","name":"Saale-Orla-Kreis","type":"Landkreis"},"federalState":{"key":"16","name":"Thüringen"}},{"name":"Dimitroffstr.","postalCode":"07806","locality":"Neustadt an der Orla","municipality":{"key":"16075073","name":"Neustadt an der Orla, Stadt","type":"Stadt"},"district":{"key":"16075","name":"Saale-Orla-Kreis","type":"Landkreis"},"federalState":{"key":"16","name":"Thüringen"}},{"name":"Döhlen","postalCode":"07806","locality":"Neustadt an der Orla","municipality":{"key":"16075073","name":"Neustadt an der Orla, Stadt","type":"Stadt"},"district":{"key":"16075","name":"Saale-Orla-Kreis","type":"Landkreis"},"federalState":{"key":"16","name":"Thüringen"}},{"name":"Dorfplatz","postalCode":"07806","locality":"Neustadt an der Orla","municipality":{"key":"16075073","name":"Neustadt an der Orla, Stadt","type":"Stadt"},"district":{"key":"16075","name":"Saale-Orla-Kreis","type":"Landkreis"},"federalState":{"key":"16","name":"Thüringen"}},{"name":"Drebagrund","postalCode":"07806","locality":"Neustadt an der Orla","municipality":{"key":"16075073","name":"Neustadt an der Orla, Stadt","type":"Stadt"},"district":{"key":"16075","name":"Saale-Orla-Kreis","type":"Landkreis"},"federalState":{"key":"16","name":"Thüringen"}},{"name":"Entenplan","postalCode":"07806","locality":"Neustadt an der Orla","municipality":{"key":"16075073","name":"Neustadt an der Orla, Stadt","type":"Stadt"},"district":{"key":"16075","name":"Saale-Orla-Kreis","type":"Landkreis"},"federalState":{"key":"16","name":"Thüringen"}},{"name":"Ernst-Thälmann-Str.","postalCode":"07806","locality":"Neustadt an der Orla","municipality":{"key":"16075073","name":"Neustadt an der Orla, Stadt","type":"Stadt"},"district":{"key":"16075","name":"Saale-Orla-Kreis","type":"Landkreis"},"federalState":{"key":"16","name":"Thüringen"}},{"name":"Erzweg","postalCode":"07806","locality":"Neustadt an der Orla","municipality":{"key":"16075073","name":"Neustadt an der Orla, Stadt","type":"Stadt"},"district":{"key":"16075","name":"Saale-Orla-Kreis","type":"Landkreis"},"federalState":{"key":"16","name":"Thüringen"}},{"name":"Eschenweg","postalCode":"07806","locality":"Neustadt an der Orla","municipality":{"key":"16075073","name":"Neustadt an der Orla, Stadt","type":"Stadt"},"district":{"key":"16075","name":"Saale-Orla-Kreis","type":"Landkreis"},"federalState":{"key":"16","name":"Thüringen"}},{"name":"Fleischergasse","postalCode":"07806","locality":"Neustadt an der Orla","municipality":{"key":"16075073","name":"Neustadt an der Orla, Stadt","type":"Stadt"},"district":{"key":"16075","name":"Saale-Orla-Kreis","type":"Landkreis"},"federalState":{"key":"16","name":"Thüringen"}},{"name":"Florian-Geyer-Str.","postalCode":"07806","locality":"Neustadt an der Orla","municipality":{"key":"16075073","name":"Neustadt an der Orla, Stadt","type":"Stadt"},"district":{"key":"16075","name":"Saale-Orla-Kreis","type":"Landkreis"},"federalState":{"key":"16","name":"Thüringen"}},{"name":"Flurteil Brille","postalCode":"07806","locality":"Neustadt an der Orla","municipality":{"key":"16075073","name":"Neustadt an der Orla, Stadt","type":"Stadt"},"district":{"key":"16075","name":"Saale-Orla-Kreis","type":"Landkreis"},"federalState":{"key":"16","name":"Thüringen"}},{"name":"Franz-Schubert-Weg","postalCode":"07806","locality":"Neustadt an der Orla","municipality":{"key":"16075073","name":"Neustadt an der Orla, Stadt","type":"Stadt"},"district":{"key":"16075","name":"Saale-Orla-Kreis","type":"Landkreis"},"federalState":{"key":"16","name":"Thüringen"}},{"name":"Friedhofstr.","postalCode":"07806","locality":"Neustadt an der Orla","municipality":{"key":"16075073","name":"Neustadt an der Orla, Stadt","type":"Stadt"},"district":{"key":"16075","name":"Saale-Orla-Kreis","type":"Landkreis"},"federalState":{"key":"16","name":"Thüringen"}},{"name":"Gerberstr.","postalCode":"07806","locality":"Neustadt an der Orla","municipality":{"key":"16075073","name":"Neustadt an der Orla, Stadt","type":"Stadt"},"district":{"key":"16075","name":"Saale-Orla-Kreis","type":"Landkreis"},"federalState":{"key":"16","name":"Thüringen"}},{"name":"Gerhart-Hauptmann-Str.","postalCode":"07806","locality":"Neustadt an der Orla","municipality":{"key":"16075073","name":"Neustadt an der Orla, Stadt","type":"Stadt"},"district":{"key":"16075","name":"Saale-Orla-Kreis","type":"Landkreis"},"federalState":{"key":"16","name":"Thüringen"}},{"name":"Gerichtsgasse","postalCode":"07806","locality":"Neustadt an der Orla","municipality":{"key":"16075073","name":"Neustadt an der Orla, Stadt","type":"Stadt"},"district":{"key":"16075","name":"Saale-Orla-Kreis","type":"Landkreis"},"federalState":{"key":"16","name":"Thüringen"}},{"name":"Gewerbestr.","postalCode":"07806","locality":"Neustadt an der Orla","municipality":{"key":"16075073","name":"Neustadt an der Orla, Stadt","type":"Stadt"},"district":{"key":"16075","name":"Saale-Orla-Kreis","type":"Landkreis"},"federalState":{"key":"16","name":"Thüringen"}},{"name":"Grenzweg","postalCode":"07806","locality":"Neustadt an der Orla","municipality":{"key":"16075073","name":"Neustadt an der Orla, Stadt","type":"Stadt"},"district":{"key":"16075","name":"Saale-Orla-Kreis","type":"Landkreis"},"federalState":{"key":"16","name":"Thüringen"}},{"name":"Grüner Weg","postalCode":"07806","locality":"Neustadt an der Orla","municipality":{"key":"16075073","name":"Neustadt an der Orla, Stadt","type":"Stadt"},"district":{"key":"16075","name":"Saale-Orla-Kreis","type":"Landkreis"},"federalState":{"key":"16","name":"Thüringen"}},{"name":"Hain","postalCode":"07806","locality":"Neustadt an der Orla","municipality":{"key":"16075073","name":"Neustadt an der Orla, Stadt","type":"Stadt"},"district":{"key":"16075","name":"Saale-Orla-Kreis","type":"Landkreis"},"federalState":{"key":"16","name":"Thüringen"}},{"name":"Hainweg","postalCode":"07806","locality":"Neustadt an der Orla","municipality":{"key":"16075073","name":"Neustadt an der Orla, Stadt","type":"Stadt"},"district":{"key":"16075","name":"Saale-Orla-Kreis","type":"Landkreis"},"federalState":{"key":"16","name":"Thüringen"}},{"name":"Hans-Beimler-Str.","postalCode":"07806","locality":"Neustadt an der Orla","municipality":{"key":"16075073","name":"Neustadt an der Orla, Stadt","type":"Stadt"},"district":{"key":"16075","name":"Saale-Orla-Kreis","type":"Landkreis"},"federalState":{"key":"16","name":"Thüringen"}},{"name":"Hauptstr.","postalCode":"07806","locality":"Neustadt an der Orla","municipality":{"key":"16075073","name":"Neustadt an der Orla, Stadt","type":"Stadt"},"district":{"key":"16075","name":"Saale-Orla-Kreis","type":"Landkreis"},"federalState":{"key":"16","name":"Thüringen"}},{"name":"Heinrich-Heine-Str.","postalCode":"07806","locality":"Neustadt an der Orla","municipality":{"key":"16075073","name":"Neustadt an der Orla, Stadt","type":"Stadt"},"district":{"key":"16075","name":"Saale-Orla-Kreis","type":"Landkreis"},"federalState":{"key":"16","name":"Thüringen"}},{"name":"Heinrich-Kiefer-Str.","postalCode":"07806","locality":"Neustadt an der Orla","municipality":{"key":"16075073","name":"Neustadt an der Orla, Stadt","type":"Stadt"},"district":{"key":"16075","name":"Saale-Orla-Kreis","type":"Landkreis"},"federalState":{"key":"16","name":"Thüringen"}},{"name":"Hohe Str.","postalCode":"07806","locality":"Neustadt an der Orla","municipality":{"key":"16075073","name":"Neustadt an der Orla, Stadt","type":"Stadt"},"district":{"key":"16075","name":"Saale-Orla-Kreis","type":"Landkreis"},"federalState":{"key":"16","name":"Thüringen"}},{"name":"Hopfgasse","postalCode":"07806","locality":"Neustadt an der Orla","municipality":{"key":"16075073","name":"Neustadt an der Orla, Stadt","type":"Stadt"},"district":{"key":"16075","name":"Saale-Orla-Kreis","type":"Landkreis"},"federalState":{"key":"16","name":"Thüringen"}},{"name":"Hugo-Müller-Str.","postalCode":"07806","locality":"Neustadt an der Orla","municipality":{"key":"16075073","name":"Neustadt an der Orla, Stadt","type":"Stadt"},"district":{"key":"16075","name":"Saale-Orla-Kreis","type":"Landkreis"},"federalState":{"key":"16","name":"Thüringen"}},{"name":"Im Dorf","postalCode":"07806","locality":"Neustadt an der Orla","municipality":{"key":"16075073","name":"Neustadt an der Orla, Stadt","type":"Stadt"},"district":{"key":"16075","name":"Saale-Orla-Kreis","type":"Landkreis"},"federalState":{"key":"16","name":"Thüringen"}},{"name":"Im Fischergrund","postalCode":"07806","locality":"Neustadt an der Orla","municipality":{"key":"16075073","name":"Neustadt an der Orla, Stadt","type":"Stadt"},"district":{"key":"16075","name":"Saale-Orla-Kreis","type":"Landkreis"},"federalState":{"key":"16","name":"Thüringen"}},{"name":"Im Winkel","postalCode":"07806","locality":"Neustadt an der Orla","municipality":{"key":"16075073","name":"Neustadt an der Orla, Stadt","type":"Stadt"},"district":{"key":"16075","name":"Saale-Orla-Kreis","type":"Landkreis"},"federalState":{"key":"16","name":"Thüringen"}},{"name":"In der Kohlung","postalCode":"07806","locality":"Neustadt an der Orla","municipality":{"key":"16075073","name":"Neustadt an der Orla, Stadt","type":"Stadt"},"district":{"key":"16075","name":"Saale-Orla-Kreis","type":"Landkreis"},"federalState":{"key":"16","name":"Thüringen"}},{"name":"Jungferngasse","postalCode":"07806","locality":"Neustadt an der Orla","municipality":{"key":"16075073","name":"Neustadt an der Orla, Stadt","type":"Stadt"},"district":{"key":"16075","name":"Saale-Orla-Kreis","type":"Landkreis"},"federalState":{"key":"16","name":"Thüringen"}},{"name":"Kahlaer Str.","postalCode":"07806","locality":"Neustadt an der Orla","municipality":{"key":"16075073","name":"Neustadt an der Orla, Stadt","type":"Stadt"},"district":{"key":"16075","name":"Saale-Orla-Kreis","type":"Landkreis"},"federalState":{"key":"16","name":"Thüringen"}},{"name":"Karl-Liebknecht-Str.","postalCode":"07806","locality":"Neustadt an der Orla","municipality":{"key":"16075073","name":"Neustadt an der Orla, Stadt","type":"Stadt"},"district":{"key":"16075","name":"Saale-Orla-Kreis","type":"Landkreis"},"federalState":{"key":"16","name":"Thüringen"}},{"name":"Kirchgasse","postalCode":"07806","locality":"Neustadt an der Orla","municipality":{"key":"16075073","name":"Neustadt an der Orla, Stadt","type":"Stadt"},"district":{"key":"16075","name":"Saale-Orla-Kreis","type":"Landkreis"},"federalState":{"key":"16","name":"Thüringen"}},{"name":"Kirchplatz","postalCode":"07806","locality":"Neustadt an der Orla","municipality":{"key":"16075073","name":"Neustadt an der Orla, Stadt","type":"Stadt"},"district":{"key":"16075","name":"Saale-Orla-Kreis","type":"Landkreis"},"federalState":{"key":"16","name":"Thüringen"}},{"name":"Kleina","postalCode":"07806","locality":"Neustadt an der Orla","municipality":{"key":"16075073","name":"Neustadt an der Orla, Stadt","type":"Stadt"},"district":{"key":"16075","name":"Saale-Orla-Kreis","type":"Landkreis"},"federalState":{"key":"16","name":"Thüringen"}},{"name":"Kospodaer Str.","postalCode":"07806","locality":"Neustadt an der Orla","municipality":{"key":"16075073","name":"Neustadt an der Orla, Stadt","type":"Stadt"},"district":{"key":"16075","name":"Saale-Orla-Kreis","type":"Landkreis"},"federalState":{"key":"16","name":"Thüringen"}},{"name":"Köthnitz","postalCode":"07806","locality":"Neustadt an der Orla","municipality":{"key":"16075073","name":"Neustadt an der Orla, Stadt","type":"Stadt"},"district":{"key":"16075","name":"Saale-Orla-Kreis","type":"Landkreis"},"federalState":{"key":"16","name":"Thüringen"}},{"name":"Krautgasse","postalCode":"07806","locality":"Neustadt an der Orla","municipality":{"key":"16075073","name":"Neustadt an der Orla, Stadt","type":"Stadt"},"district":{"key":"16075","name":"Saale-Orla-Kreis","type":"Landkreis"},"federalState":{"key":"16","name":"Thüringen"}},{"name":"Kurzer Weg","postalCode":"07806","locality":"Neustadt an der Orla","municipality":{"key":"16075073","name":"Neustadt an der Orla, Stadt","type":"Stadt"},"district":{"key":"16075","name":"Saale-Orla-Kreis","type":"Landkreis"},"federalState":{"key":"16","name":"Thüringen"}},{"name":"Laupheimer Str.","postalCode":"07806","locality":"Neustadt an der Orla","municipality":{"key":"16075073","name":"Neustadt an der Orla, Stadt","type":"Stadt"},"district":{"key":"16075","name":"Saale-Orla-Kreis","type":"Landkreis"},"federalState":{"key":"16","name":"Thüringen"}},{"name":"Lausnitzer Weg","postalCode":"07806","locality":"Neustadt an der Orla","municipality":{"key":"16075073","name":"Neustadt an der Orla, Stadt","type":"Stadt"},"district":{"key":"16075","name":"Saale-Orla-Kreis","type":"Landkreis"},"federalState":{"key":"16","name":"Thüringen"}},{"name":"Leichweg","postalCode":"07806","locality":"Neustadt an der Orla","municipality":{"key":"16075073","name":"Neustadt an der Orla, Stadt","type":"Stadt"},"district":{"key":"16075","name":"Saale-Orla-Kreis","type":"Landkreis"},"federalState":{"key":"16","name":"Thüringen"}},{"name":"Leonhard-Frank-Str.","postalCode":"07806","locality":"Neustadt an der Orla","municipality":{"key":"16075073","name":"Neustadt an der Orla, Stadt","type":"Stadt"},"district":{"key":"16075","name":"Saale-Orla-Kreis","type":"Landkreis"},"federalState":{"key":"16","name":"Thüringen"}},{"name":"Lichtenauer Weg","postalCode":"07806","locality":"Neustadt an der Orla","municipality":{"key":"16075073","name":"Neustadt an der Orla, Stadt","type":"Stadt"},"district":{"key":"16075","name":"Saale-Orla-Kreis","type":"Landkreis"},"federalState":{"key":"16","name":"Thüringen"}},{"name":"Lindenstr.","postalCode":"07806","locality":"Neustadt an der Orla","municipality":{"key":"16075073","name":"Neustadt an der Orla, Stadt","type":"Stadt"},"district":{"key":"16075","name":"Saale-Orla-Kreis","type":"Landkreis"},"federalState":{"key":"16","name":"Thüringen"}},{"name":"Ludwig-Jahn-Str.","postalCode":"07806","locality":"Neustadt an der Orla","municipality":{"key":"16075073","name":"Neustadt an der Orla, Stadt","type":"Stadt"},"district":{"key":"16075","name":"Saale-Orla-Kreis","type":"Landkreis"},"federalState":{"key":"16","name":"Thüringen"}},{"name":"Luftschiffweg","postalCode":"07806","locality":"Neustadt an der Orla","municipality":{"key":"16075073","name":"Neustadt an der Orla, Stadt","type":"Stadt"},"district":{"key":"16075","name":"Saale-Orla-Kreis","type":"Landkreis"},"federalState":{"key":"16","name":"Thüringen"}},{"name":"Markt","postalCode":"07806","locality":"Neustadt an der Orla","municipality":{"key":"16075073","name":"Neustadt an der Orla, Stadt","type":"Stadt"},"district":{"key":"16075","name":"Saale-Orla-Kreis","type":"Landkreis"},"federalState":{"key":"16","name":"Thüringen"}},{"name":"Marktstr.","postalCode":"07806","locality":"Neustadt an der Orla","municipality":{"key":"16075073","name":"Neustadt an der Orla, Stadt","type":"Stadt"},"district":{"key":"16075","name":"Saale-Orla-Kreis","type":"Landkreis"},"federalState":{"key":"16","name":"Thüringen"}},{"name":"Mauergasse","postalCode":"07806","locality":"Neustadt an der Orla","municipality":{"key":"16075073","name":"Neustadt an der Orla, Stadt","type":"Stadt"},"district":{"key":"16075","name":"Saale-Orla-Kreis","type":"Landkreis"},"federalState":{"key":"16","name":"Thüringen"}},{"name":"Meilitzer Str.","postalCode":"07806","locality":"Neustadt an der Orla","municipality":{"key":"16075073","name":"Neustadt an der Orla, Stadt","type":"Stadt"},"district":{"key":"16075","name":"Saale-Orla-Kreis","type":"Landkreis"},"federalState":{"key":"16","name":"Thüringen"}},{"name":"Mittelweg","postalCode":"07806","locality":"Neustadt an der Orla","municipality":{"key":"16075073","name":"Neustadt an der Orla, Stadt","type":"Stadt"},"district":{"key":"16075","name":"Saale-Orla-Kreis","type":"Landkreis"},"federalState":{"key":"16","name":"Thüringen"}},{"name":"Neuer Weg","postalCode":"07806","locality":"Neustadt an der Orla","municipality":{"key":"16075073","name":"Neustadt an der Orla, Stadt","type":"Stadt"},"district":{"key":"16075","name":"Saale-Orla-Kreis","type":"Landkreis"},"federalState":{"key":"16","name":"Thüringen"}},{"name":"Neue Str.","postalCode":"07806","locality":"Neustadt an der Orla","municipality":{"key":"16075073","name":"Neustadt an der Orla, Stadt","type":"Stadt"},"district":{"key":"16075","name":"Saale-Orla-Kreis","type":"Landkreis"},"federalState":{"key":"16","name":"Thüringen"}},{"name":"Neugasse","postalCode":"07806","locality":"Neustadt an der Orla","municipality":{"key":"16075073","name":"Neustadt an der Orla, Stadt","type":"Stadt"},"district":{"key":"16075","name":"Saale-Orla-Kreis","type":"Landkreis"},"federalState":{"key":"16","name":"Thüringen"}},{"name":"Neustädter Str.","postalCode":"07806","locality":"Neustadt an der Orla","municipality":{"key":"16075073","name":"Neustadt an der Orla, Stadt","type":"Stadt"},"district":{"key":"16075","name":"Saale-Orla-Kreis","type":"Landkreis"},"federalState":{"key":"16","name":"Thüringen"}},{"name":"Oberer Willy-Dolge-Weg","postalCode":"07806","locality":"Neustadt an der Orla","municipality":{"key":"16075073","name":"Neustadt an der Orla, Stadt","type":"Stadt"},"district":{"key":"16075","name":"Saale-Orla-Kreis","type":"Landkreis"},"federalState":{"key":"16","name":"Thüringen"}},{"name":"Orlagasse","postalCode":"07806","locality":"Neustadt an der Orla","municipality":{"key":"16075073","name":"Neustadt an der Orla, Stadt","type":"Stadt"},"district":{"key":"16075","name":"Saale-Orla-Kreis","type":"Landkreis"},"federalState":{"key":"16","name":"Thüringen"}},{"name":"Ortsstr.","postalCode":"07806","locality":"Neustadt an der Orla","municipality":{"key":"16075073","name":"Neustadt an der Orla, Stadt","type":"Stadt"},"district":{"key":"16075","name":"Saale-Orla-Kreis","type":"Landkreis"},"federalState":{"key":"16","name":"Thüringen"}},{"name":"Oststr.","postalCode":"07806","locality":"Neustadt an der Orla","municipality":{"key":"16075073","name":"Neustadt an der Orla, Stadt","type":"Stadt"},"district":{"key":"16075","name":"Saale-Orla-Kreis","type":"Landkreis"},"federalState":{"key":"16","name":"Thüringen"}},{"name":"Park am Rittergut Knau","postalCode":"07806","locality":"Neustadt an der Orla","municipality":{"key":"16075073","name":"Neustadt an der Orla, Stadt","type":"Stadt"},"district":{"key":"16075","name":"Saale-Orla-Kreis","type":"Landkreis"},"federalState":{"key":"16","name":"Thüringen"}},{"name":"Pillingsdorfer Str.","postalCode":"07806","locality":"Neustadt an der Orla","municipality":{"key":"16075073","name":"Neustadt an der Orla, Stadt","type":"Stadt"},"district":{"key":"16075","name":"Saale-Orla-Kreis","type":"Landkreis"},"federalState":{"key":"16","name":"Thüringen"}},{"name":"Posen","postalCode":"07806","locality":"Neustadt an der Orla","municipality":{"key":"16075073","name":"Neustadt an der Orla, Stadt","type":"Stadt"},"district":{"key":"16075","name":"Saale-Orla-Kreis","type":"Landkreis"},"federalState":{"key":"16","name":"Thüringen"}},{"name":"Pößnecker Str.","postalCode":"07806","locality":"Neustadt an der Orla","municipality":{"key":"16075073","name":"Neustadt an der Orla, Stadt","type":"Stadt"},"district":{"key":"16075","name":"Saale-Orla-Kreis","type":"Landkreis"},"federalState":{"key":"16","name":"Thüringen"}},{"name":"Promenadenweg","postalCode":"07806","locality":"Neustadt an der Orla","municipality":{"key":"16075073","name":"Neustadt an der Orla, Stadt","type":"Stadt"},"district":{"key":"16075","name":"Saale-Orla-Kreis","type":"Landkreis"},"federalState":{"key":"16","name":"Thüringen"}},{"name":"Puschkinplatz","postalCode":"07806","locality":"Neustadt an der Orla","municipality":{"key":"16075073","name":"Neustadt an der Orla, Stadt","type":"Stadt"},"district":{"key":"16075","name":"Saale-Orla-Kreis","type":"Landkreis"},"federalState":{"key":"16","name":"Thüringen"}},{"name":"Quendelweg","postalCode":"07806","locality":"Neustadt an der Orla","municipality":{"key":"16075073","name":"Neustadt an der Orla, Stadt","type":"Stadt"},"district":{"key":"16075","name":"Saale-Orla-Kreis","type":"Landkreis"},"federalState":{"key":"16","name":"Thüringen"}},{"name":"Rathenaustr.","postalCode":"07806","locality":"Neustadt an der Orla","municipality":{"key":"16075073","name":"Neustadt an der Orla, Stadt","type":"Stadt"},"district":{"key":"16075","name":"Saale-Orla-Kreis","type":"Landkreis"},"federalState":{"key":"16","name":"Thüringen"}},{"name":"Rodaer Str.","postalCode":"07806","locality":"Neustadt an der Orla","municipality":{"key":"16075073","name":"Neustadt an der Orla, Stadt","type":"Stadt"},"district":{"key":"16075","name":"Saale-Orla-Kreis","type":"Landkreis"},"federalState":{"key":"16","name":"Thüringen"}},{"name":"Rosenweg","postalCode":"07806","locality":"Neustadt an der Orla","municipality":{"key":"16075073","name":"Neustadt an der Orla, Stadt","type":"Stadt"},"district":{"key":"16075","name":"Saale-Orla-Kreis","type":"Landkreis"},"federalState":{"key":"16","name":"Thüringen"}},{"name":"Sackgasse","postalCode":"07806","locality":"Neustadt an der Orla","municipality":{"key":"16075073","name":"Neustadt an der Orla, Stadt","type":"Stadt"},"district":{"key":"16075","name":"Saale-Orla-Kreis","type":"Landkreis"},"federalState":{"key":"16","name":"Thüringen"}},{"name":"Sandweg","postalCode":"07806","locality":"Neustadt an der Orla","municipality":{"key":"16075073","name":"Neustadt an der Orla, Stadt","type":"Stadt"},"district":{"key":"16075","name":"Saale-Orla-Kreis","type":"Landkreis"},"federalState":{"key":"16","name":"Thüringen"}},{"name":"Schillerstr.","postalCode":"07806","locality":"Neustadt an der Orla","municipality":{"key":"16075073","name":"Neustadt an der Orla, Stadt","type":"Stadt"},"district":{"key":"16075","name":"Saale-Orla-Kreis","type":"Landkreis"},"federalState":{"key":"16","name":"Thüringen"}},{"name":"Schleizer Str.","postalCode":"07806","locality":"Neustadt an der Orla","municipality":{"key":"16075073","name":"Neustadt an der Orla, Stadt","type":"Stadt"},"district":{"key":"16075","name":"Saale-Orla-Kreis","type":"Landkreis"},"federalState":{"key":"16","name":"Thüringen"}},{"name":"Schloßgasse","postalCode":"07806","locality":"Neustadt an der Orla","municipality":{"key":"16075073","name":"Neustadt an der Orla, Stadt","type":"Stadt"},"district":{"key":"16075","name":"Saale-Orla-Kreis","type":"Landkreis"},"federalState":{"key":"16","name":"Thüringen"}},{"name":"Schulgasse","postalCode":"07806","locality":"Neustadt an der Orla","municipality":{"key":"16075073","name":"Neustadt an der Orla, Stadt","type":"Stadt"},"district":{"key":"16075","name":"Saale-Orla-Kreis","type":"Landkreis"},"federalState":{"key":"16","name":"Thüringen"}},{"name":"Schulpforte","postalCode":"07806","locality":"Neustadt an der Orla","municipality":{"key":"16075073","name":"Neustadt an der Orla, Stadt","type":"Stadt"},"district":{"key":"16075","name":"Saale-Orla-Kreis","type":"Landkreis"},"federalState":{"key":"16","name":"Thüringen"}},{"name":"Schulstr.","postalCode":"07806","locality":"Neustadt an der Orla","municipality":{"key":"16075073","name":"Neustadt an der Orla, Stadt","type":"Stadt"},"district":{"key":"16075","name":"Saale-Orla-Kreis","type":"Landkreis"},"federalState":{"key":"16","name":"Thüringen"}},{"name":"Schwarze Brücke","postalCode":"07806","locality":"Neustadt an der Orla","municipality":{"key":"16075073","name":"Neustadt an der Orla, Stadt","type":"Stadt"},"district":{"key":"16075","name":"Saale-Orla-Kreis","type":"Landkreis"},"federalState":{"key":"16","name":"Thüringen"}},{"name":"Silberberg","postalCode":"07806","locality":"Neustadt an der Orla","municipality":{"key":"16075073","name":"Neustadt an der Orla, Stadt","type":"Stadt"},"district":{"key":"16075","name":"Saale-Orla-Kreis","type":"Landkreis"},"federalState":{"key":"16","name":"Thüringen"}},{"name":"Sorga","postalCode":"07806","locality":"Neustadt an der Orla","municipality":{"key":"16075073","name":"Neustadt an der Orla, Stadt","type":"Stadt"},"district":{"key":"16075","name":"Saale-Orla-Kreis","type":"Landkreis"},"federalState":{"key":"16","name":"Thüringen"}},{"name":"Steinbrücken","postalCode":"07806","locality":"Neustadt an der Orla","municipality":{"key":"16075073","name":"Neustadt an der Orla, Stadt","type":"Stadt"},"district":{"key":"16075","name":"Saale-Orla-Kreis","type":"Landkreis"},"federalState":{"key":"16","name":"Thüringen"}},{"name":"Storchspforte","postalCode":"07806","locality":"Neustadt an der Orla","municipality":{"key":"16075073","name":"Neustadt an der Orla, Stadt","type":"Stadt"},"district":{"key":"16075","name":"Saale-Orla-Kreis","type":"Landkreis"},"federalState":{"key":"16","name":"Thüringen"}},{"name":"Str. des Friedens","postalCode":"07806","locality":"Neustadt an der Orla","municipality":{"key":"16075073","name":"Neustadt an der Orla, Stadt","type":"Stadt"},"district":{"key":"16075","name":"Saale-Orla-Kreis","type":"Landkreis"},"federalState":{"key":"16","name":"Thüringen"}},{"name":"Strößwitz","postalCode":"07806","locality":"Neustadt an der Orla","municipality":{"key":"16075073","name":"Neustadt an der Orla, Stadt","type":"Stadt"},"district":{"key":"16075","name":"Saale-Orla-Kreis","type":"Landkreis"},"federalState":{"key":"16","name":"Thüringen"}},{"name":"Südstr.","postalCode":"07806","locality":"Neustadt an der Orla","municipality":{"key":"16075073","name":"Neustadt an der Orla, Stadt","type":"Stadt"},"district":{"key":"16075","name":"Saale-Orla-Kreis","type":"Landkreis"},"federalState":{"key":"16","name":"Thüringen"}},{"name":"Talstr.","postalCode":"07806","locality":"Neustadt an der Orla","municipality":{"key":"16075073","name":"Neustadt an der Orla, Stadt","type":"Stadt"},"district":{"key":"16075","name":"Saale-Orla-Kreis","type":"Landkreis"},"federalState":{"key":"16","name":"Thüringen"}},{"name":"Thomas-Müntzer-Str.","postalCode":"07806","locality":"Neustadt an der Orla","municipality":{"key":"16075073","name":"Neustadt an der Orla, Stadt","type":"Stadt"},"district":{"key":"16075","name":"Saale-Orla-Kreis","type":"Landkreis"},"federalState":{"key":"16","name":"Thüringen"}},{"name":"Topfmarkt","postalCode":"07806","locality":"Neustadt an der Orla","municipality":{"key":"16075073","name":"Neustadt an der Orla, Stadt","type":"Stadt"},"district":{"key":"16075","name":"Saale-Orla-Kreis","type":"Landkreis"},"federalState":{"key":"16","name":"Thüringen"}},{"name":"Triptiser Str.","postalCode":"07806","locality":"Neustadt an der Orla","municipality":{"key":"16075073","name":"Neustadt an der Orla, Stadt","type":"Stadt"},"district":{"key":"16075","name":"Saale-Orla-Kreis","type":"Landkreis"},"federalState":{"key":"16","name":"Thüringen"}},{"name":"Viehweg","postalCode":"07806","locality":"Neustadt an der Orla","municipality":{"key":"16075073","name":"Neustadt an der Orla, Stadt","type":"Stadt"},"district":{"key":"16075","name":"Saale-Orla-Kreis","type":"Landkreis"},"federalState":{"key":"16","name":"Thüringen"}},{"name":"Volkshauspark","postalCode":"07806","locality":"Neustadt an der Orla","municipality":{"key":"16075073","name":"Neustadt an der Orla, Stadt","type":"Stadt"},"district":{"key":"16075","name":"Saale-Orla-Kreis","type":"Landkreis"},"federalState":{"key":"16","name":"Thüringen"}},{"name":"Waldhaus am Börnersgrund","postalCode":"07806","locality":"Neustadt an der Orla","municipality":{"key":"16075073","name":"Neustadt an der Orla, Stadt","type":"Stadt"},"district":{"key":"16075","name":"Saale-Orla-Kreis","type":"Landkreis"},"federalState":{"key":"16","name":"Thüringen"}},{"name":"Walkmühlenstr.","postalCode":"07806","locality":"Neustadt an der Orla","municipality":{"key":"16075073","name":"Neustadt an der Orla, Stadt","type":"Stadt"},"district":{"key":"16075","name":"Saale-Orla-Kreis","type":"Landkreis"},"federalState":{"key":"16","name":"Thüringen"}},{"name":"Weg am Wasserbehälter","postalCode":"07806","locality":"Neustadt an der Orla","municipality":{"key":"16075073","name":"Neustadt an der Orla, Stadt","type":"Stadt"},"district":{"key":"16075","name":"Saale-Orla-Kreis","type":"Landkreis"},"federalState":{"key":"16","name":"Thüringen"}},{"name":"Weltwitzer Str.","postalCode":"07806","locality":"Neustadt an der Orla","municipality":{"key":"16075073","name":"Neustadt an der Orla, Stadt","type":"Stadt"},"district":{"key":"16075","name":"Saale-Orla-Kreis","type":"Landkreis"},"federalState":{"key":"16","name":"Thüringen"}},{"name":"Weststr.","postalCode":"07806","locality":"Neustadt an der Orla","municipality":{"key":"16075073","name":"Neustadt an der Orla, Stadt","type":"Stadt"},"district":{"key":"16075","name":"Saale-Orla-Kreis","type":"Landkreis"},"federalState":{"key":"16","name":"Thüringen"}},{"name":"Willy-Dolge-Weg","postalCode":"07806","locality":"Neustadt an der Orla","municipality":{"key":"16075073","name":"Neustadt an der Orla, Stadt","type":"Stadt"},"district":{"key":"16075","name":"Saale-Orla-Kreis","type":"Landkreis"},"federalState":{"key":"16","name":"Thüringen"}},{"name":"Wimmlerstr.","postalCode":"07806","locality":"Neustadt an der Orla","municipality":{"key":"16075073","name":"Neustadt an der Orla, Stadt","type":"Stadt"},"district":{"key":"16075","name":"Saale-Orla-Kreis","type":"Landkreis"},"federalState":{"key":"16","name":"Thüringen"}},{"name":"Wolfersdorfer Weg","postalCode":"07806","locality":"Neustadt an der Orla","municipality":{"key":"16075073","name":"Neustadt an der Orla, Stadt","type":"Stadt"},"district":{"key":"16075","name":"Saale-Orla-Kreis","type":"Landkreis"},"federalState":{"key":"16","name":"Thüringen"}},{"name":"Ziegeleiweg","postalCode":"07806","locality":"Neustadt an der Orla","municipality":{"key":"16075073","name":"Neustadt an der Orla, Stadt","type":"Stadt"},"district":{"key":"16075","name":"Saale-Orla-Kreis","type":"Landkreis"},"federalState":{"key":"16","name":"Thüringen"}},{"name":"Ziegenrücker Str.","postalCode":"07806","locality":"Neustadt an der Orla","municipality":{"key":"16075073","name":"Neustadt an der Orla, Stadt","type":"Stadt"},"district":{"key":"16075","name":"Saale-Orla-Kreis","type":"Landkreis"},"federalState":{"key":"16","name":"Thüringen"}},{"name":"Zum alten Mühlgraben","postalCode":"07806","locality":"Neustadt an der Orla","municipality":{"key":"16075073","name":"Neustadt an der Orla, Stadt","type":"Stadt"},"district":{"key":"16075","name":"Saale-Orla-Kreis","type":"Landkreis"},"federalState":{"key":"16","name":"Thüringen"}},{"name":"Zum kalten Tal","postalCode":"07806","locality":"Neustadt an der Orla","municipality":{"key":"16075073","name":"Neustadt an der Orla, Stadt","type":"Stadt"},"district":{"key":"16075","name":"Saale-Orla-Kreis","type":"Landkreis"},"federalState":{"key":"16","name":"Thüringen"}},{"name":"Zum Lärchenwald","postalCode":"07806","locality":"Neustadt an der Orla","municipality":{"key":"16075073","name":"Neustadt an der Orla, Stadt","type":"Stadt"},"district":{"key":"16075","name":"Saale-Orla-Kreis","type":"Landkreis"},"federalState":{"key":"16","name":"Thüringen"}},{"name":"Zum Mühlengrund","postalCode":"07806","locality":"Neustadt an der Orla","municipality":{"key":"16075073","name":"Neustadt an der Orla, Stadt","type":"Stadt"},"district":{"key":"16075","name":"Saale-Orla-Kreis","type":"Landkreis"},"federalState":{"key":"16","name":"Thüringen"}},{"name":"Zum Rommelteich","postalCode":"07806","locality":"Neustadt an der Orla","municipality":{"key":"16075073","name":"Neustadt an der Orla, Stadt","type":"Stadt"},"district":{"key":"16075","name":"Saale-Orla-Kreis","type":"Landkreis"},"federalState":{"key":"16","name":"Thüringen"}},]