[{"name":"Ahrweg","postalCode":"53507","locality":"Dernau","municipality":{"key":"07131017","name":"Dernau","type":"Kreisangehörige_Gemeinde"},"district":{"key":"07131","name":"Ahrweiler","type":"Landkreis"},"federalState":{"key":"07","name":"Rheinland-Pfalz"}},{"name":"Auf der Wacht","postalCode":"53507","locality":"Dernau","municipality":{"key":"07131017","name":"Dernau","type":"Kreisangehörige_Gemeinde"},"district":{"key":"07131","name":"Ahrweiler","type":"Landkreis"},"federalState":{"key":"07","name":"Rheinland-Pfalz"}},{"name":"Bachstr.","postalCode":"53507","locality":"Dernau","municipality":{"key":"07131017","name":"Dernau","type":"Kreisangehörige_Gemeinde"},"district":{"key":"07131","name":"Ahrweiler","type":"Landkreis"},"federalState":{"key":"07","name":"Rheinland-Pfalz"}},{"name":"Bergstr.","postalCode":"53507","locality":"Dernau","municipality":{"key":"07131017","name":"Dernau","type":"Kreisangehörige_Gemeinde"},"district":{"key":"07131","name":"Ahrweiler","type":"Landkreis"},"federalState":{"key":"07","name":"Rheinland-Pfalz"}},{"name":"Bonner Str.","postalCode":"53507","locality":"Dernau","municipality":{"key":"07131017","name":"Dernau","type":"Kreisangehörige_Gemeinde"},"district":{"key":"07131","name":"Ahrweiler","type":"Landkreis"},"federalState":{"key":"07","name":"Rheinland-Pfalz"}},{"name":"Bundesstr.","postalCode":"53507","locality":"Dernau","municipality":{"key":"07131017","name":"Dernau","type":"Kreisangehörige_Gemeinde"},"district":{"key":"07131","name":"Ahrweiler","type":"Landkreis"},"federalState":{"key":"07","name":"Rheinland-Pfalz"}},{"name":"Bungertstr.","postalCode":"53507","locality":"Dernau","municipality":{"key":"07131017","name":"Dernau","type":"Kreisangehörige_Gemeinde"},"district":{"key":"07131","name":"Ahrweiler","type":"Landkreis"},"federalState":{"key":"07","name":"Rheinland-Pfalz"}},{"name":"Burgstr.","postalCode":"53507","locality":"Dernau","municipality":{"key":"07131017","name":"Dernau","type":"Kreisangehörige_Gemeinde"},"district":{"key":"07131","name":"Ahrweiler","type":"Landkreis"},"federalState":{"key":"07","name":"Rheinland-Pfalz"}},{"name":"Burgunderstr.","postalCode":"53507","locality":"Dernau","municipality":{"key":"07131017","name":"Dernau","type":"Kreisangehörige_Gemeinde"},"district":{"key":"07131","name":"Ahrweiler","type":"Landkreis"},"federalState":{"key":"07","name":"Rheinland-Pfalz"}},{"name":"Carl-von-Ehrenwall-Allee","postalCode":"53474","locality":"Bad Neuenahr-Ahrweiler","municipality":{"key":"07131007","name":"Bad Neuenahr-Ahrweiler, Stadt","type":"Stadt"},"district":{"key":"07131","name":"Ahrweiler","type":"Landkreis"},"federalState":{"key":"07","name":"Rheinland-Pfalz"}},{"name":"Carl-Weisgerber-Weg","postalCode":"53474","locality":"Bad Neuenahr-Ahrweiler","municipality":{"key":"07131007","name":"Bad Neuenahr-Ahrweiler, Stadt","type":"Stadt"},"district":{"key":"07131","name":"Ahrweiler","type":"Landkreis"},"federalState":{"key":"07","name":"Rheinland-Pfalz"}},{"name":"Casinostr.","postalCode":"53474","locality":"Bad Neuenahr-Ahrweiler","municipality":{"key":"07131007","name":"Bad Neuenahr-Ahrweiler, Stadt","type":"Stadt"},"district":{"key":"07131","name":"Ahrweiler","type":"Landkreis"},"federalState":{"key":"07","name":"Rheinland-Pfalz"}},{"name":"Christian-Develich-Str.","postalCode":"53474","locality":"Bad Neuenahr-Ahrweiler","municipality":{"key":"07131007","name":"Bad Neuenahr-Ahrweiler, Stadt","type":"Stadt"},"district":{"key":"07131","name":"Ahrweiler","type":"Landkreis"},"federalState":{"key":"07","name":"Rheinland-Pfalz"}},{"name":"Christian-Ulrich-Str.","postalCode":"53474","locality":"Bad Neuenahr-Ahrweiler","municipality":{"key":"07131007","name":"Bad Neuenahr-Ahrweiler, Stadt","type":"Stadt"},"district":{"key":"07131","name":"Ahrweiler","type":"Landkreis"},"federalState":{"key":"07","name":"Rheinland-Pfalz"}},{"name":"Christine-Demmer-Str.","postalCode":"53474","locality":"Bad Neuenahr-Ahrweiler","municipality":{"key":"07131007","name":"Bad Neuenahr-Ahrweiler, Stadt","type":"Stadt"},"district":{"key":"07131","name":"Ahrweiler","type":"Landkreis"},"federalState":{"key":"07","name":"Rheinland-Pfalz"}},{"name":"Christopherusweg","postalCode":"53474","locality":"Bad Neuenahr-Ahrweiler","municipality":{"key":"07131007","name":"Bad Neuenahr-Ahrweiler, Stadt","type":"Stadt"},"district":{"key":"07131","name":"Ahrweiler","type":"Landkreis"},"federalState":{"key":"07","name":"Rheinland-Pfalz"}},{"name":"Cyrillus-Jarre-Str.","postalCode":"53474","locality":"Bad Neuenahr-Ahrweiler","municipality":{"key":"07131007","name":"Bad Neuenahr-Ahrweiler, Stadt","type":"Stadt"},"district":{"key":"07131","name":"Ahrweiler","type":"Landkreis"},"federalState":{"key":"07","name":"Rheinland-Pfalz"}},{"name":"Dahliengarten","postalCode":"53474","locality":"Bad Neuenahr-Ahrweiler","municipality":{"key":"07131007","name":"Bad Neuenahr-Ahrweiler, Stadt","type":"Stadt"},"district":{"key":"07131","name":"Ahrweiler","type":"Landkreis"},"federalState":{"key":"07","name":"Rheinland-Pfalz"}},{"name":"Dahlienweg","postalCode":"53474","locality":"Bad Neuenahr-Ahrweiler","municipality":{"key":"07131007","name":"Bad Neuenahr-Ahrweiler, Stadt","type":"Stadt"},"district":{"key":"07131","name":"Ahrweiler","type":"Landkreis"},"federalState":{"key":"07","name":"Rheinland-Pfalz"}},{"name":"Danziger Str.","postalCode":"53474","locality":"Bad Neuenahr-Ahrweiler","municipality":{"key":"07131007","name":"Bad Neuenahr-Ahrweiler, Stadt","type":"Stadt"},"district":{"key":"07131","name":"Ahrweiler","type":"Landkreis"},"federalState":{"key":"07","name":"Rheinland-Pfalz"}},{"name":"Delderstr.","postalCode":"53474","locality":"Bad Neuenahr-Ahrweiler","municipality":{"key":"07131007","name":"Bad Neuenahr-Ahrweiler, Stadt","type":"Stadt"},"district":{"key":"07131","name":"Ahrweiler","type":"Landkreis"},"federalState":{"key":"07","name":"Rheinland-Pfalz"}},{"name":"Dombergstr.","postalCode":"53474","locality":"Bad Neuenahr-Ahrweiler","municipality":{"key":"07131007","name":"Bad Neuenahr-Ahrweiler, Stadt","type":"Stadt"},"district":{"key":"07131","name":"Ahrweiler","type":"Landkreis"},"federalState":{"key":"07","name":"Rheinland-Pfalz"}},{"name":"Domherrenstr.","postalCode":"53474","locality":"Bad Neuenahr-Ahrweiler","municipality":{"key":"07131007","name":"Bad Neuenahr-Ahrweiler, Stadt","type":"Stadt"},"district":{"key":"07131","name":"Ahrweiler","type":"Landkreis"},"federalState":{"key":"07","name":"Rheinland-Pfalz"}},{"name":"Dorotheenweg","postalCode":"53474","locality":"Bad Neuenahr-Ahrweiler","municipality":{"key":"07131007","name":"Bad Neuenahr-Ahrweiler, Stadt","type":"Stadt"},"district":{"key":"07131","name":"Ahrweiler","type":"Landkreis"},"federalState":{"key":"07","name":"Rheinland-Pfalz"}},{"name":"Dronke-Weg","postalCode":"53474","locality":"Bad Neuenahr-Ahrweiler","municipality":{"key":"07131007","name":"Bad Neuenahr-Ahrweiler, Stadt","type":"Stadt"},"district":{"key":"07131","name":"Ahrweiler","type":"Landkreis"},"federalState":{"key":"07","name":"Rheinland-Pfalz"}},{"name":"Drosselweg","postalCode":"53474","locality":"Bad Neuenahr-Ahrweiler","municipality":{"key":"07131007","name":"Bad Neuenahr-Ahrweiler, Stadt","type":"Stadt"},"district":{"key":"07131","name":"Ahrweiler","type":"Landkreis"},"federalState":{"key":"07","name":"Rheinland-Pfalz"}},{"name":"Dr.-Weißenfeld-Str.","postalCode":"53474","locality":"Bad Neuenahr-Ahrweiler","municipality":{"key":"07131007","name":"Bad Neuenahr-Ahrweiler, Stadt","type":"Stadt"},"district":{"key":"07131","name":"Ahrweiler","type":"Landkreis"},"federalState":{"key":"07","name":"Rheinland-Pfalz"}},{"name":"Edith-Stein-Str.","postalCode":"53474","locality":"Bad Neuenahr-Ahrweiler","municipality":{"key":"07131007","name":"Bad Neuenahr-Ahrweiler, Stadt","type":"Stadt"},"district":{"key":"07131","name":"Ahrweiler","type":"Landkreis"},"federalState":{"key":"07","name":"Rheinland-Pfalz"}},{"name":"Ehlinger Str.","postalCode":"53474","locality":"Bad Neuenahr-Ahrweiler","municipality":{"key":"07131007","name":"Bad Neuenahr-Ahrweiler, Stadt","type":"Stadt"},"district":{"key":"07131","name":"Ahrweiler","type":"Landkreis"},"federalState":{"key":"07","name":"Rheinland-Pfalz"}},{"name":"Eichendorffstr.","postalCode":"53474","locality":"Bad Neuenahr-Ahrweiler","municipality":{"key":"07131007","name":"Bad Neuenahr-Ahrweiler, Stadt","type":"Stadt"},"district":{"key":"07131","name":"Ahrweiler","type":"Landkreis"},"federalState":{"key":"07","name":"Rheinland-Pfalz"}},{"name":"Eichenweg","postalCode":"53474","locality":"Bad Neuenahr-Ahrweiler","municipality":{"key":"07131007","name":"Bad Neuenahr-Ahrweiler, Stadt","type":"Stadt"},"district":{"key":"07131","name":"Ahrweiler","type":"Landkreis"},"federalState":{"key":"07","name":"Rheinland-Pfalz"}},{"name":"Eifelstr.","postalCode":"53474","locality":"Bad Neuenahr-Ahrweiler","municipality":{"key":"07131007","name":"Bad Neuenahr-Ahrweiler, Stadt","type":"Stadt"},"district":{"key":"07131","name":"Ahrweiler","type":"Landkreis"},"federalState":{"key":"07","name":"Rheinland-Pfalz"}},{"name":"Elinger Buschweg","postalCode":"53474","locality":"Bad Neuenahr-Ahrweiler","municipality":{"key":"07131007","name":"Bad Neuenahr-Ahrweiler, Stadt","type":"Stadt"},"district":{"key":"07131","name":"Ahrweiler","type":"Landkreis"},"federalState":{"key":"07","name":"Rheinland-Pfalz"}},{"name":"Elligstr.","postalCode":"53474","locality":"Bad Neuenahr-Ahrweiler","municipality":{"key":"07131007","name":"Bad Neuenahr-Ahrweiler, Stadt","type":"Stadt"},"district":{"key":"07131","name":"Ahrweiler","type":"Landkreis"},"federalState":{"key":"07","name":"Rheinland-Pfalz"}},{"name":"Erlenweg","postalCode":"53474","locality":"Bad Neuenahr-Ahrweiler","municipality":{"key":"07131007","name":"Bad Neuenahr-Ahrweiler, Stadt","type":"Stadt"},"district":{"key":"07131","name":"Ahrweiler","type":"Landkreis"},"federalState":{"key":"07","name":"Rheinland-Pfalz"}},{"name":"Ernst-Karl-Plachner-Weg","postalCode":"53474","locality":"Bad Neuenahr-Ahrweiler","municipality":{"key":"07131007","name":"Bad Neuenahr-Ahrweiler, Stadt","type":"Stadt"},"district":{"key":"07131","name":"Ahrweiler","type":"Landkreis"},"federalState":{"key":"07","name":"Rheinland-Pfalz"}},{"name":"Ernst-Kley-Str.","postalCode":"53474","locality":"Bad Neuenahr-Ahrweiler","municipality":{"key":"07131007","name":"Bad Neuenahr-Ahrweiler, Stadt","type":"Stadt"},"district":{"key":"07131","name":"Ahrweiler","type":"Landkreis"},"federalState":{"key":"07","name":"Rheinland-Pfalz"}},{"name":"Ernst-Thrasolt-Str.","postalCode":"53474","locality":"Bad Neuenahr-Ahrweiler","municipality":{"key":"07131007","name":"Bad Neuenahr-Ahrweiler, Stadt","type":"Stadt"},"district":{"key":"07131","name":"Ahrweiler","type":"Landkreis"},"federalState":{"key":"07","name":"Rheinland-Pfalz"}},{"name":"Eschenweg","postalCode":"53474","locality":"Bad Neuenahr-Ahrweiler","municipality":{"key":"07131007","name":"Bad Neuenahr-Ahrweiler, Stadt","type":"Stadt"},"district":{"key":"07131","name":"Ahrweiler","type":"Landkreis"},"federalState":{"key":"07","name":"Rheinland-Pfalz"}},{"name":"Eulenstr.","postalCode":"53474","locality":"Bad Neuenahr-Ahrweiler","municipality":{"key":"07131007","name":"Bad Neuenahr-Ahrweiler, Stadt","type":"Stadt"},"district":{"key":"07131","name":"Ahrweiler","type":"Landkreis"},"federalState":{"key":"07","name":"Rheinland-Pfalz"}},{"name":"Friedensstr.","postalCode":"53507","locality":"Dernau","municipality":{"key":"07131017","name":"Dernau","type":"Kreisangehörige_Gemeinde"},"district":{"key":"07131","name":"Ahrweiler","type":"Landkreis"},"federalState":{"key":"07","name":"Rheinland-Pfalz"}},{"name":"Gartenstr.","postalCode":"53507","locality":"Dernau","municipality":{"key":"07131017","name":"Dernau","type":"Kreisangehörige_Gemeinde"},"district":{"key":"07131","name":"Ahrweiler","type":"Landkreis"},"federalState":{"key":"07","name":"Rheinland-Pfalz"}},{"name":"Hardtbergstr.","postalCode":"53507","locality":"Dernau","municipality":{"key":"07131017","name":"Dernau","type":"Kreisangehörige_Gemeinde"},"district":{"key":"07131","name":"Ahrweiler","type":"Landkreis"},"federalState":{"key":"07","name":"Rheinland-Pfalz"}},{"name":"Hauptstr.","postalCode":"53507","locality":"Dernau","municipality":{"key":"07131017","name":"Dernau","type":"Kreisangehörige_Gemeinde"},"district":{"key":"07131","name":"Ahrweiler","type":"Landkreis"},"federalState":{"key":"07","name":"Rheinland-Pfalz"}},{"name":"Im Burggarten","postalCode":"53507","locality":"Dernau","municipality":{"key":"07131017","name":"Dernau","type":"Kreisangehörige_Gemeinde"},"district":{"key":"07131","name":"Ahrweiler","type":"Landkreis"},"federalState":{"key":"07","name":"Rheinland-Pfalz"}},{"name":"Im Guten Acker","postalCode":"53507","locality":"Dernau","municipality":{"key":"07131017","name":"Dernau","type":"Kreisangehörige_Gemeinde"},"district":{"key":"07131","name":"Ahrweiler","type":"Landkreis"},"federalState":{"key":"07","name":"Rheinland-Pfalz"}},{"name":"Im Pfarrgarten","postalCode":"53507","locality":"Dernau","municipality":{"key":"07131017","name":"Dernau","type":"Kreisangehörige_Gemeinde"},"district":{"key":"07131","name":"Ahrweiler","type":"Landkreis"},"federalState":{"key":"07","name":"Rheinland-Pfalz"}},{"name":"Im Trensenhaus","postalCode":"53507","locality":"Dernau","municipality":{"key":"07131017","name":"Dernau","type":"Kreisangehörige_Gemeinde"},"district":{"key":"07131","name":"Ahrweiler","type":"Landkreis"},"federalState":{"key":"07","name":"Rheinland-Pfalz"}},{"name":"Jahnstr.","postalCode":"53474","locality":"Bad Neuenahr-Ahrweiler","municipality":{"key":"07131007","name":"Bad Neuenahr-Ahrweiler, Stadt","type":"Stadt"},"district":{"key":"07131","name":"Ahrweiler","type":"Landkreis"},"federalState":{"key":"07","name":"Rheinland-Pfalz"}},{"name":"Jakob-Rausch-Str.","postalCode":"53474","locality":"Bad Neuenahr-Ahrweiler","municipality":{"key":"07131007","name":"Bad Neuenahr-Ahrweiler, Stadt","type":"Stadt"},"district":{"key":"07131","name":"Ahrweiler","type":"Landkreis"},"federalState":{"key":"07","name":"Rheinland-Pfalz"}},{"name":"Jesuitenstr.","postalCode":"53474","locality":"Bad Neuenahr-Ahrweiler","municipality":{"key":"07131007","name":"Bad Neuenahr-Ahrweiler, Stadt","type":"Stadt"},"district":{"key":"07131","name":"Ahrweiler","type":"Landkreis"},"federalState":{"key":"07","name":"Rheinland-Pfalz"}},{"name":"Joerresstr.","postalCode":"53474","locality":"Bad Neuenahr-Ahrweiler","municipality":{"key":"07131007","name":"Bad Neuenahr-Ahrweiler, Stadt","type":"Stadt"},"district":{"key":"07131","name":"Ahrweiler","type":"Landkreis"},"federalState":{"key":"07","name":"Rheinland-Pfalz"}},{"name":"Johannes-Kirschweng-Str.","postalCode":"53474","locality":"Bad Neuenahr-Ahrweiler","municipality":{"key":"07131007","name":"Bad Neuenahr-Ahrweiler, Stadt","type":"Stadt"},"district":{"key":"07131","name":"Ahrweiler","type":"Landkreis"},"federalState":{"key":"07","name":"Rheinland-Pfalz"}},{"name":"Johannes-Müller-Str.","postalCode":"53474","locality":"Bad Neuenahr-Ahrweiler","municipality":{"key":"07131007","name":"Bad Neuenahr-Ahrweiler, Stadt","type":"Stadt"},"district":{"key":"07131","name":"Ahrweiler","type":"Landkreis"},"federalState":{"key":"07","name":"Rheinland-Pfalz"}},{"name":"Johannisbergweg","postalCode":"53474","locality":"Bad Neuenahr-Ahrweiler","municipality":{"key":"07131007","name":"Bad Neuenahr-Ahrweiler, Stadt","type":"Stadt"},"district":{"key":"07131","name":"Ahrweiler","type":"Landkreis"},"federalState":{"key":"07","name":"Rheinland-Pfalz"}},{"name":"Johannisstr.","postalCode":"53474","locality":"Bad Neuenahr-Ahrweiler","municipality":{"key":"07131007","name":"Bad Neuenahr-Ahrweiler, Stadt","type":"Stadt"},"district":{"key":"07131","name":"Ahrweiler","type":"Landkreis"},"federalState":{"key":"07","name":"Rheinland-Pfalz"}},{"name":"Johanniswall","postalCode":"53474","locality":"Bad Neuenahr-Ahrweiler","municipality":{"key":"07131007","name":"Bad Neuenahr-Ahrweiler, Stadt","type":"Stadt"},"district":{"key":"07131","name":"Ahrweiler","type":"Landkreis"},"federalState":{"key":"07","name":"Rheinland-Pfalz"}},{"name":"Josef-Dickopf-Str.","postalCode":"53474","locality":"Bad Neuenahr-Ahrweiler","municipality":{"key":"07131007","name":"Bad Neuenahr-Ahrweiler, Stadt","type":"Stadt"},"district":{"key":"07131","name":"Ahrweiler","type":"Landkreis"},"federalState":{"key":"07","name":"Rheinland-Pfalz"}},{"name":"Josef-Schäfer-Weg","postalCode":"53474","locality":"Bad Neuenahr-Ahrweiler","municipality":{"key":"07131007","name":"Bad Neuenahr-Ahrweiler, Stadt","type":"Stadt"},"district":{"key":"07131","name":"Ahrweiler","type":"Landkreis"},"federalState":{"key":"07","name":"Rheinland-Pfalz"}},{"name":"Josefstr.","postalCode":"53474","locality":"Bad Neuenahr-Ahrweiler","municipality":{"key":"07131007","name":"Bad Neuenahr-Ahrweiler, Stadt","type":"Stadt"},"district":{"key":"07131","name":"Ahrweiler","type":"Landkreis"},"federalState":{"key":"07","name":"Rheinland-Pfalz"}},{"name":"Jülichstr.","postalCode":"53474","locality":"Bad Neuenahr-Ahrweiler","municipality":{"key":"07131007","name":"Bad Neuenahr-Ahrweiler, Stadt","type":"Stadt"},"district":{"key":"07131","name":"Ahrweiler","type":"Landkreis"},"federalState":{"key":"07","name":"Rheinland-Pfalz"}},{"name":"Kaiserin-Auguste-Viktoria Park","postalCode":"53474","locality":"Bad Neuenahr-Ahrweiler","municipality":{"key":"07131007","name":"Bad Neuenahr-Ahrweiler, Stadt","type":"Stadt"},"district":{"key":"07131","name":"Ahrweiler","type":"Landkreis"},"federalState":{"key":"07","name":"Rheinland-Pfalz"}},{"name":"Kalvarienbergstr.","postalCode":"53474","locality":"Bad Neuenahr-Ahrweiler","municipality":{"key":"07131007","name":"Bad Neuenahr-Ahrweiler, Stadt","type":"Stadt"},"district":{"key":"07131","name":"Ahrweiler","type":"Landkreis"},"federalState":{"key":"07","name":"Rheinland-Pfalz"}},{"name":"Kanonenwall","postalCode":"53474","locality":"Bad Neuenahr-Ahrweiler","municipality":{"key":"07131007","name":"Bad Neuenahr-Ahrweiler, Stadt","type":"Stadt"},"district":{"key":"07131","name":"Ahrweiler","type":"Landkreis"},"federalState":{"key":"07","name":"Rheinland-Pfalz"}},{"name":"Kapellenstr.","postalCode":"53474","locality":"Bad Neuenahr-Ahrweiler","municipality":{"key":"07131007","name":"Bad Neuenahr-Ahrweiler, Stadt","type":"Stadt"},"district":{"key":"07131","name":"Ahrweiler","type":"Landkreis"},"federalState":{"key":"07","name":"Rheinland-Pfalz"}},{"name":"Karl-von-Ehrenwall-Allee","postalCode":"53474","locality":"Bad Neuenahr-Ahrweiler","municipality":{"key":"07131007","name":"Bad Neuenahr-Ahrweiler, Stadt","type":"Stadt"},"district":{"key":"07131","name":"Ahrweiler","type":"Landkreis"},"federalState":{"key":"07","name":"Rheinland-Pfalz"}},{"name":"Keltenstr.","postalCode":"53474","locality":"Bad Neuenahr-Ahrweiler","municipality":{"key":"07131007","name":"Bad Neuenahr-Ahrweiler, Stadt","type":"Stadt"},"district":{"key":"07131","name":"Ahrweiler","type":"Landkreis"},"federalState":{"key":"07","name":"Rheinland-Pfalz"}},{"name":"Kiefernweg","postalCode":"53474","locality":"Bad Neuenahr-Ahrweiler","municipality":{"key":"07131007","name":"Bad Neuenahr-Ahrweiler, Stadt","type":"Stadt"},"district":{"key":"07131","name":"Ahrweiler","type":"Landkreis"},"federalState":{"key":"07","name":"Rheinland-Pfalz"}},{"name":"Kinkelstr.","postalCode":"53474","locality":"Bad Neuenahr-Ahrweiler","municipality":{"key":"07131007","name":"Bad Neuenahr-Ahrweiler, Stadt","type":"Stadt"},"district":{"key":"07131","name":"Ahrweiler","type":"Landkreis"},"federalState":{"key":"07","name":"Rheinland-Pfalz"}},{"name":"Kirchenpfad","postalCode":"53474","locality":"Bad Neuenahr-Ahrweiler","municipality":{"key":"07131007","name":"Bad Neuenahr-Ahrweiler, Stadt","type":"Stadt"},"district":{"key":"07131","name":"Ahrweiler","type":"Landkreis"},"federalState":{"key":"07","name":"Rheinland-Pfalz"}},{"name":"Kirchstr.","postalCode":"53474","locality":"Bad Neuenahr-Ahrweiler","municipality":{"key":"07131007","name":"Bad Neuenahr-Ahrweiler, Stadt","type":"Stadt"},"district":{"key":"07131","name":"Ahrweiler","type":"Landkreis"},"federalState":{"key":"07","name":"Rheinland-Pfalz"}},{"name":"Kleiner Weg","postalCode":"53474","locality":"Bad Neuenahr-Ahrweiler","municipality":{"key":"07131007","name":"Bad Neuenahr-Ahrweiler, Stadt","type":"Stadt"},"district":{"key":"07131","name":"Ahrweiler","type":"Landkreis"},"federalState":{"key":"07","name":"Rheinland-Pfalz"}},{"name":"Klön Ecke","postalCode":"53474","locality":"Bad Neuenahr-Ahrweiler","municipality":{"key":"07131007","name":"Bad Neuenahr-Ahrweiler, Stadt","type":"Stadt"},"district":{"key":"07131","name":"Ahrweiler","type":"Landkreis"},"federalState":{"key":"07","name":"Rheinland-Pfalz"}},{"name":"Kloster-Prüm-Str.","postalCode":"53474","locality":"Bad Neuenahr-Ahrweiler","municipality":{"key":"07131007","name":"Bad Neuenahr-Ahrweiler, Stadt","type":"Stadt"},"district":{"key":"07131","name":"Ahrweiler","type":"Landkreis"},"federalState":{"key":"07","name":"Rheinland-Pfalz"}},{"name":"Klosterstr.","postalCode":"53474","locality":"Bad Neuenahr-Ahrweiler","municipality":{"key":"07131007","name":"Bad Neuenahr-Ahrweiler, Stadt","type":"Stadt"},"district":{"key":"07131","name":"Ahrweiler","type":"Landkreis"},"federalState":{"key":"07","name":"Rheinland-Pfalz"}},{"name":"Köhlerhofweg","postalCode":"53474","locality":"Bad Neuenahr-Ahrweiler","municipality":{"key":"07131007","name":"Bad Neuenahr-Ahrweiler, Stadt","type":"Stadt"},"district":{"key":"07131","name":"Ahrweiler","type":"Landkreis"},"federalState":{"key":"07","name":"Rheinland-Pfalz"}},{"name":"Kölner Str.","postalCode":"53474","locality":"Bad Neuenahr-Ahrweiler","municipality":{"key":"07131007","name":"Bad Neuenahr-Ahrweiler, Stadt","type":"Stadt"},"district":{"key":"07131","name":"Ahrweiler","type":"Landkreis"},"federalState":{"key":"07","name":"Rheinland-Pfalz"}},{"name":"Kolpingstr.","postalCode":"53474","locality":"Bad Neuenahr-Ahrweiler","municipality":{"key":"07131007","name":"Bad Neuenahr-Ahrweiler, Stadt","type":"Stadt"},"district":{"key":"07131","name":"Ahrweiler","type":"Landkreis"},"federalState":{"key":"07","name":"Rheinland-Pfalz"}},{"name":"Königsberger Str.","postalCode":"53474","locality":"Bad Neuenahr-Ahrweiler","municipality":{"key":"07131007","name":"Bad Neuenahr-Ahrweiler, Stadt","type":"Stadt"},"district":{"key":"07131","name":"Ahrweiler","type":"Landkreis"},"federalState":{"key":"07","name":"Rheinland-Pfalz"}},{"name":"Königstr.","postalCode":"53474","locality":"Bad Neuenahr-Ahrweiler","municipality":{"key":"07131007","name":"Bad Neuenahr-Ahrweiler, Stadt","type":"Stadt"},"district":{"key":"07131","name":"Ahrweiler","type":"Landkreis"},"federalState":{"key":"07","name":"Rheinland-Pfalz"}},{"name":"Konsumsgasse","postalCode":"53474","locality":"Bad Neuenahr-Ahrweiler","municipality":{"key":"07131007","name":"Bad Neuenahr-Ahrweiler, Stadt","type":"Stadt"},"district":{"key":"07131","name":"Ahrweiler","type":"Landkreis"},"federalState":{"key":"07","name":"Rheinland-Pfalz"}},{"name":"Kräuterbergstr.","postalCode":"53474","locality":"Bad Neuenahr-Ahrweiler","municipality":{"key":"07131007","name":"Bad Neuenahr-Ahrweiler, Stadt","type":"Stadt"},"district":{"key":"07131","name":"Ahrweiler","type":"Landkreis"},"federalState":{"key":"07","name":"Rheinland-Pfalz"}},{"name":"Kreuzstr.","postalCode":"53474","locality":"Bad Neuenahr-Ahrweiler","municipality":{"key":"07131007","name":"Bad Neuenahr-Ahrweiler, Stadt","type":"Stadt"},"district":{"key":"07131","name":"Ahrweiler","type":"Landkreis"},"federalState":{"key":"07","name":"Rheinland-Pfalz"}},{"name":"Kurgarten","postalCode":"53474","locality":"Bad Neuenahr-Ahrweiler","municipality":{"key":"07131007","name":"Bad Neuenahr-Ahrweiler, Stadt","type":"Stadt"},"district":{"key":"07131","name":"Ahrweiler","type":"Landkreis"},"federalState":{"key":"07","name":"Rheinland-Pfalz"}},{"name":"Kurgartenstr.","postalCode":"53474","locality":"Bad Neuenahr-Ahrweiler","municipality":{"key":"07131007","name":"Bad Neuenahr-Ahrweiler, Stadt","type":"Stadt"},"district":{"key":"07131","name":"Ahrweiler","type":"Landkreis"},"federalState":{"key":"07","name":"Rheinland-Pfalz"}},{"name":"Küstriner Str.","postalCode":"53474","locality":"Bad Neuenahr-Ahrweiler","municipality":{"key":"07131007","name":"Bad Neuenahr-Ahrweiler, Stadt","type":"Stadt"},"district":{"key":"07131","name":"Ahrweiler","type":"Landkreis"},"federalState":{"key":"07","name":"Rheinland-Pfalz"}},{"name":"Landgrafenstr.","postalCode":"53474","locality":"Bad Neuenahr-Ahrweiler","municipality":{"key":"07131007","name":"Bad Neuenahr-Ahrweiler, Stadt","type":"Stadt"},"district":{"key":"07131","name":"Ahrweiler","type":"Landkreis"},"federalState":{"key":"07","name":"Rheinland-Pfalz"}},{"name":"Landrat-Joachim-Weiler-Platz","postalCode":"53474","locality":"Bad Neuenahr-Ahrweiler","municipality":{"key":"07131007","name":"Bad Neuenahr-Ahrweiler, Stadt","type":"Stadt"},"district":{"key":"07131","name":"Ahrweiler","type":"Landkreis"},"federalState":{"key":"07","name":"Rheinland-Pfalz"}},{"name":"Landskroner Str.","postalCode":"53474","locality":"Bad Neuenahr-Ahrweiler","municipality":{"key":"07131007","name":"Bad Neuenahr-Ahrweiler, Stadt","type":"Stadt"},"district":{"key":"07131","name":"Ahrweiler","type":"Landkreis"},"federalState":{"key":"07","name":"Rheinland-Pfalz"}},{"name":"Laurentiusstr.","postalCode":"53474","locality":"Bad Neuenahr-Ahrweiler","municipality":{"key":"07131007","name":"Bad Neuenahr-Ahrweiler, Stadt","type":"Stadt"},"district":{"key":"07131","name":"Ahrweiler","type":"Landkreis"},"federalState":{"key":"07","name":"Rheinland-Pfalz"}},{"name":"Leipziger Str.","postalCode":"53474","locality":"Bad Neuenahr-Ahrweiler","municipality":{"key":"07131007","name":"Bad Neuenahr-Ahrweiler, Stadt","type":"Stadt"},"district":{"key":"07131","name":"Ahrweiler","type":"Landkreis"},"federalState":{"key":"07","name":"Rheinland-Pfalz"}},{"name":"Lennepark","postalCode":"53474","locality":"Bad Neuenahr-Ahrweiler","municipality":{"key":"07131007","name":"Bad Neuenahr-Ahrweiler, Stadt","type":"Stadt"},"district":{"key":"07131","name":"Ahrweiler","type":"Landkreis"},"federalState":{"key":"07","name":"Rheinland-Pfalz"}},{"name":"Lenné Weg","postalCode":"53474","locality":"Bad Neuenahr-Ahrweiler","municipality":{"key":"07131007","name":"Bad Neuenahr-Ahrweiler, Stadt","type":"Stadt"},"district":{"key":"07131","name":"Ahrweiler","type":"Landkreis"},"federalState":{"key":"07","name":"Rheinland-Pfalz"}},{"name":"Leonardusstr.","postalCode":"53474","locality":"Bad Neuenahr-Ahrweiler","municipality":{"key":"07131007","name":"Bad Neuenahr-Ahrweiler, Stadt","type":"Stadt"},"district":{"key":"07131","name":"Ahrweiler","type":"Landkreis"},"federalState":{"key":"07","name":"Rheinland-Pfalz"}},{"name":"Lerchenweg","postalCode":"53474","locality":"Bad Neuenahr-Ahrweiler","municipality":{"key":"07131007","name":"Bad Neuenahr-Ahrweiler, Stadt","type":"Stadt"},"district":{"key":"07131","name":"Ahrweiler","type":"Landkreis"},"federalState":{"key":"07","name":"Rheinland-Pfalz"}},{"name":"Lessingstr.","postalCode":"53474","locality":"Bad Neuenahr-Ahrweiler","municipality":{"key":"07131007","name":"Bad Neuenahr-Ahrweiler, Stadt","type":"Stadt"},"district":{"key":"07131","name":"Ahrweiler","type":"Landkreis"},"federalState":{"key":"07","name":"Rheinland-Pfalz"}},{"name":"Lindenstr.","postalCode":"53474","locality":"Bad Neuenahr-Ahrweiler","municipality":{"key":"07131007","name":"Bad Neuenahr-Ahrweiler, Stadt","type":"Stadt"},"district":{"key":"07131","name":"Ahrweiler","type":"Landkreis"},"federalState":{"key":"07","name":"Rheinland-Pfalz"}},{"name":"Lindenweg","postalCode":"53474","locality":"Bad Neuenahr-Ahrweiler","municipality":{"key":"07131007","name":"Bad Neuenahr-Ahrweiler, Stadt","type":"Stadt"},"district":{"key":"07131","name":"Ahrweiler","type":"Landkreis"},"federalState":{"key":"07","name":"Rheinland-Pfalz"}},{"name":"Löhndorfer Weg","postalCode":"53474","locality":"Bad Neuenahr-Ahrweiler","municipality":{"key":"07131007","name":"Bad Neuenahr-Ahrweiler, Stadt","type":"Stadt"},"district":{"key":"07131","name":"Ahrweiler","type":"Landkreis"},"federalState":{"key":"07","name":"Rheinland-Pfalz"}},{"name":"Ludwig-Wirtz-Str.","postalCode":"53474","locality":"Bad Neuenahr-Ahrweiler","municipality":{"key":"07131007","name":"Bad Neuenahr-Ahrweiler, Stadt","type":"Stadt"},"district":{"key":"07131","name":"Ahrweiler","type":"Landkreis"},"federalState":{"key":"07","name":"Rheinland-Pfalz"}},{"name":"Mahrweg","postalCode":"53507","locality":"Dernau","municipality":{"key":"07131017","name":"Dernau","type":"Kreisangehörige_Gemeinde"},"district":{"key":"07131","name":"Ahrweiler","type":"Landkreis"},"federalState":{"key":"07","name":"Rheinland-Pfalz"}},{"name":"Nachtigallenschlag","postalCode":"53474","locality":"Bad Neuenahr-Ahrweiler","municipality":{"key":"07131007","name":"Bad Neuenahr-Ahrweiler, Stadt","type":"Stadt"},"district":{"key":"07131","name":"Ahrweiler","type":"Landkreis"},"federalState":{"key":"07","name":"Rheinland-Pfalz"}},{"name":"Nelkenweg","postalCode":"53474","locality":"Bad Neuenahr-Ahrweiler","municipality":{"key":"07131007","name":"Bad Neuenahr-Ahrweiler, Stadt","type":"Stadt"},"district":{"key":"07131","name":"Ahrweiler","type":"Landkreis"},"federalState":{"key":"07","name":"Rheinland-Pfalz"}},{"name":"Neuenahrer Str.","postalCode":"53474","locality":"Bad Neuenahr-Ahrweiler","municipality":{"key":"07131007","name":"Bad Neuenahr-Ahrweiler, Stadt","type":"Stadt"},"district":{"key":"07131","name":"Ahrweiler","type":"Landkreis"},"federalState":{"key":"07","name":"Rheinland-Pfalz"}},{"name":"Neuer Weg","postalCode":"53474","locality":"Bad Neuenahr-Ahrweiler","municipality":{"key":"07131007","name":"Bad Neuenahr-Ahrweiler, Stadt","type":"Stadt"},"district":{"key":"07131","name":"Ahrweiler","type":"Landkreis"},"federalState":{"key":"07","name":"Rheinland-Pfalz"}},{"name":"Niessen Weg","postalCode":"53474","locality":"Bad Neuenahr-Ahrweiler","municipality":{"key":"07131007","name":"Bad Neuenahr-Ahrweiler, Stadt","type":"Stadt"},"district":{"key":"07131","name":"Ahrweiler","type":"Landkreis"},"federalState":{"key":"07","name":"Rheinland-Pfalz"}},{"name":"Nikolaus-Bahles-Str.","postalCode":"53474","locality":"Bad Neuenahr-Ahrweiler","municipality":{"key":"07131007","name":"Bad Neuenahr-Ahrweiler, Stadt","type":"Stadt"},"district":{"key":"07131","name":"Ahrweiler","type":"Landkreis"},"federalState":{"key":"07","name":"Rheinland-Pfalz"}},{"name":"Nikolaus-Molitor-Str.","postalCode":"53474","locality":"Bad Neuenahr-Ahrweiler","municipality":{"key":"07131007","name":"Bad Neuenahr-Ahrweiler, Stadt","type":"Stadt"},"district":{"key":"07131","name":"Ahrweiler","type":"Landkreis"},"federalState":{"key":"07","name":"Rheinland-Pfalz"}},{"name":"Nordstr.","postalCode":"53474","locality":"Bad Neuenahr-Ahrweiler","municipality":{"key":"07131007","name":"Bad Neuenahr-Ahrweiler, Stadt","type":"Stadt"},"district":{"key":"07131","name":"Ahrweiler","type":"Landkreis"},"federalState":{"key":"07","name":"Rheinland-Pfalz"}},{"name":"Ober den Gärten","postalCode":"53474","locality":"Bad Neuenahr-Ahrweiler","municipality":{"key":"07131007","name":"Bad Neuenahr-Ahrweiler, Stadt","type":"Stadt"},"district":{"key":"07131","name":"Ahrweiler","type":"Landkreis"},"federalState":{"key":"07","name":"Rheinland-Pfalz"}},{"name":"Oberhutstr.","postalCode":"53474","locality":"Bad Neuenahr-Ahrweiler","municipality":{"key":"07131007","name":"Bad Neuenahr-Ahrweiler, Stadt","type":"Stadt"},"district":{"key":"07131","name":"Ahrweiler","type":"Landkreis"},"federalState":{"key":"07","name":"Rheinland-Pfalz"}},{"name":"Oberstr.","postalCode":"53474","locality":"Bad Neuenahr-Ahrweiler","municipality":{"key":"07131007","name":"Bad Neuenahr-Ahrweiler, Stadt","type":"Stadt"},"district":{"key":"07131","name":"Ahrweiler","type":"Landkreis"},"federalState":{"key":"07","name":"Rheinland-Pfalz"}},{"name":"Orsbeckstr.","postalCode":"53474","locality":"Bad Neuenahr-Ahrweiler","municipality":{"key":"07131007","name":"Bad Neuenahr-Ahrweiler, Stadt","type":"Stadt"},"district":{"key":"07131","name":"Ahrweiler","type":"Landkreis"},"federalState":{"key":"07","name":"Rheinland-Pfalz"}},{"name":"Oststr.","postalCode":"53474","locality":"Bad Neuenahr-Ahrweiler","municipality":{"key":"07131007","name":"Bad Neuenahr-Ahrweiler, Stadt","type":"Stadt"},"district":{"key":"07131","name":"Ahrweiler","type":"Landkreis"},"federalState":{"key":"07","name":"Rheinland-Pfalz"}},{"name":"Otlerstr.","postalCode":"53474","locality":"Bad Neuenahr-Ahrweiler","municipality":{"key":"07131007","name":"Bad Neuenahr-Ahrweiler, Stadt","type":"Stadt"},"district":{"key":"07131","name":"Ahrweiler","type":"Landkreis"},"federalState":{"key":"07","name":"Rheinland-Pfalz"}},{"name":"Pfarrer-Hehn-Weg","postalCode":"53507","locality":"Dernau","municipality":{"key":"07131017","name":"Dernau","type":"Kreisangehörige_Gemeinde"},"district":{"key":"07131","name":"Ahrweiler","type":"Landkreis"},"federalState":{"key":"07","name":"Rheinland-Pfalz"}},{"name":"Quellenstr.","postalCode":"53474","locality":"Bad Neuenahr-Ahrweiler","municipality":{"key":"07131007","name":"Bad Neuenahr-Ahrweiler, Stadt","type":"Stadt"},"district":{"key":"07131","name":"Ahrweiler","type":"Landkreis"},"federalState":{"key":"07","name":"Rheinland-Pfalz"}},{"name":"Römerstr.","postalCode":"53507","locality":"Dernau","municipality":{"key":"07131017","name":"Dernau","type":"Kreisangehörige_Gemeinde"},"district":{"key":"07131","name":"Ahrweiler","type":"Landkreis"},"federalState":{"key":"07","name":"Rheinland-Pfalz"}},{"name":"Rotweinstr.","postalCode":"53507","locality":"Dernau","municipality":{"key":"07131017","name":"Dernau","type":"Kreisangehörige_Gemeinde"},"district":{"key":"07131","name":"Ahrweiler","type":"Landkreis"},"federalState":{"key":"07","name":"Rheinland-Pfalz"}},{"name":"Schmittmannstr.","postalCode":"53507","locality":"Dernau","municipality":{"key":"07131017","name":"Dernau","type":"Kreisangehörige_Gemeinde"},"district":{"key":"07131","name":"Ahrweiler","type":"Landkreis"},"federalState":{"key":"07","name":"Rheinland-Pfalz"}},{"name":"Steinbergsmühle","postalCode":"53507","locality":"Dernau","municipality":{"key":"07131017","name":"Dernau","type":"Kreisangehörige_Gemeinde"},"district":{"key":"07131","name":"Ahrweiler","type":"Landkreis"},"federalState":{"key":"07","name":"Rheinland-Pfalz"}},{"name":"Talweg","postalCode":"53474","locality":"Bad Neuenahr-Ahrweiler","municipality":{"key":"07131007","name":"Bad Neuenahr-Ahrweiler, Stadt","type":"Stadt"},"district":{"key":"07131","name":"Ahrweiler","type":"Landkreis"},"federalState":{"key":"07","name":"Rheinland-Pfalz"}},{"name":"Tannenweg","postalCode":"53474","locality":"Bad Neuenahr-Ahrweiler","municipality":{"key":"07131007","name":"Bad Neuenahr-Ahrweiler, Stadt","type":"Stadt"},"district":{"key":"07131","name":"Ahrweiler","type":"Landkreis"},"federalState":{"key":"07","name":"Rheinland-Pfalz"}},{"name":"Taunusstr.","postalCode":"53474","locality":"Bad Neuenahr-Ahrweiler","municipality":{"key":"07131007","name":"Bad Neuenahr-Ahrweiler, Stadt","type":"Stadt"},"district":{"key":"07131","name":"Ahrweiler","type":"Landkreis"},"federalState":{"key":"07","name":"Rheinland-Pfalz"}},{"name":"Teichstr.","postalCode":"53474","locality":"Bad Neuenahr-Ahrweiler","municipality":{"key":"07131007","name":"Bad Neuenahr-Ahrweiler, Stadt","type":"Stadt"},"district":{"key":"07131","name":"Ahrweiler","type":"Landkreis"},"federalState":{"key":"07","name":"Rheinland-Pfalz"}},{"name":"Telegrafenstr.","postalCode":"53474","locality":"Bad Neuenahr-Ahrweiler","municipality":{"key":"07131007","name":"Bad Neuenahr-Ahrweiler, Stadt","type":"Stadt"},"district":{"key":"07131","name":"Ahrweiler","type":"Landkreis"},"federalState":{"key":"07","name":"Rheinland-Pfalz"}},{"name":"Theodor-Klein-Str.","postalCode":"53474","locality":"Bad Neuenahr-Ahrweiler","municipality":{"key":"07131007","name":"Bad Neuenahr-Ahrweiler, Stadt","type":"Stadt"},"district":{"key":"07131","name":"Ahrweiler","type":"Landkreis"},"federalState":{"key":"07","name":"Rheinland-Pfalz"}},{"name":"Thurgauer Str.","postalCode":"53474","locality":"Bad Neuenahr-Ahrweiler","municipality":{"key":"07131007","name":"Bad Neuenahr-Ahrweiler, Stadt","type":"Stadt"},"district":{"key":"07131","name":"Ahrweiler","type":"Landkreis"},"federalState":{"key":"07","name":"Rheinland-Pfalz"}},{"name":"Thurgauer Str. 10/1 - 10/7","postalCode":"53474","locality":"Bad Neuenahr-Ahrweiler","municipality":{"key":"07131007","name":"Bad Neuenahr-Ahrweiler, Stadt","type":"Stadt"},"district":{"key":"07131","name":"Ahrweiler","type":"Landkreis"},"federalState":{"key":"07","name":"Rheinland-Pfalz"}},{"name":"Thurgauer Str. 2/1 - 2/5","postalCode":"53474","locality":"Bad Neuenahr-Ahrweiler","municipality":{"key":"07131007","name":"Bad Neuenahr-Ahrweiler, Stadt","type":"Stadt"},"district":{"key":"07131","name":"Ahrweiler","type":"Landkreis"},"federalState":{"key":"07","name":"Rheinland-Pfalz"}},{"name":"Thurgauer Str. 8/1 - 8/7","postalCode":"53474","locality":"Bad Neuenahr-Ahrweiler","municipality":{"key":"07131007","name":"Bad Neuenahr-Ahrweiler, Stadt","type":"Stadt"},"district":{"key":"07131","name":"Ahrweiler","type":"Landkreis"},"federalState":{"key":"07","name":"Rheinland-Pfalz"}},{"name":"Tilsiter Str.","postalCode":"53474","locality":"Bad Neuenahr-Ahrweiler","municipality":{"key":"07131007","name":"Bad Neuenahr-Ahrweiler, Stadt","type":"Stadt"},"district":{"key":"07131","name":"Ahrweiler","type":"Landkreis"},"federalState":{"key":"07","name":"Rheinland-Pfalz"}},{"name":"Trümmerstr.","postalCode":"53474","locality":"Bad Neuenahr-Ahrweiler","municipality":{"key":"07131007","name":"Bad Neuenahr-Ahrweiler, Stadt","type":"Stadt"},"district":{"key":"07131","name":"Ahrweiler","type":"Landkreis"},"federalState":{"key":"07","name":"Rheinland-Pfalz"}},{"name":"Tulpenweg","postalCode":"53474","locality":"Bad Neuenahr-Ahrweiler","municipality":{"key":"07131007","name":"Bad Neuenahr-Ahrweiler, Stadt","type":"Stadt"},"district":{"key":"07131","name":"Ahrweiler","type":"Landkreis"},"federalState":{"key":"07","name":"Rheinland-Pfalz"}},{"name":"Uhlandstr.","postalCode":"53474","locality":"Bad Neuenahr-Ahrweiler","municipality":{"key":"07131007","name":"Bad Neuenahr-Ahrweiler, Stadt","type":"Stadt"},"district":{"key":"07131","name":"Ahrweiler","type":"Landkreis"},"federalState":{"key":"07","name":"Rheinland-Pfalz"}},{"name":"Ulmenweg","postalCode":"53474","locality":"Bad Neuenahr-Ahrweiler","municipality":{"key":"07131007","name":"Bad Neuenahr-Ahrweiler, Stadt","type":"Stadt"},"district":{"key":"07131","name":"Ahrweiler","type":"Landkreis"},"federalState":{"key":"07","name":"Rheinland-Pfalz"}},{"name":"Unterstr.","postalCode":"53474","locality":"Bad Neuenahr-Ahrweiler","municipality":{"key":"07131007","name":"Bad Neuenahr-Ahrweiler, Stadt","type":"Stadt"},"district":{"key":"07131","name":"Ahrweiler","type":"Landkreis"},"federalState":{"key":"07","name":"Rheinland-Pfalz"}},{"name":"Ursulinenstr.","postalCode":"53474","locality":"Bad Neuenahr-Ahrweiler","municipality":{"key":"07131007","name":"Bad Neuenahr-Ahrweiler, Stadt","type":"Stadt"},"district":{"key":"07131","name":"Ahrweiler","type":"Landkreis"},"federalState":{"key":"07","name":"Rheinland-Pfalz"}},{"name":"Vehner Weg","postalCode":"53474","locality":"Bad Neuenahr-Ahrweiler","municipality":{"key":"07131007","name":"Bad Neuenahr-Ahrweiler, Stadt","type":"Stadt"},"district":{"key":"07131","name":"Ahrweiler","type":"Landkreis"},"federalState":{"key":"07","name":"Rheinland-Pfalz"}},{"name":"Veltenstr.","postalCode":"53474","locality":"Bad Neuenahr-Ahrweiler","municipality":{"key":"07131007","name":"Bad Neuenahr-Ahrweiler, Stadt","type":"Stadt"},"district":{"key":"07131","name":"Ahrweiler","type":"Landkreis"},"federalState":{"key":"07","name":"Rheinland-Pfalz"}},{"name":"Vinxtweg","postalCode":"53474","locality":"Bad Neuenahr-Ahrweiler","municipality":{"key":"07131007","name":"Bad Neuenahr-Ahrweiler, Stadt","type":"Stadt"},"district":{"key":"07131","name":"Ahrweiler","type":"Landkreis"},"federalState":{"key":"07","name":"Rheinland-Pfalz"}},{"name":"Wanderweg 2","postalCode":"53507","locality":"Dernau","municipality":{"key":"07131017","name":"Dernau","type":"Kreisangehörige_Gemeinde"},"district":{"key":"07131","name":"Ahrweiler","type":"Landkreis"},"federalState":{"key":"07","name":"Rheinland-Pfalz"}},{"name":"Wingertstr.","postalCode":"53507","locality":"Dernau","municipality":{"key":"07131017","name":"Dernau","type":"Kreisangehörige_Gemeinde"},"district":{"key":"07131","name":"Ahrweiler","type":"Landkreis"},"federalState":{"key":"07","name":"Rheinland-Pfalz"}},{"name":"Zaungartenstr.","postalCode":"53507","locality":"Dernau","municipality":{"key":"07131017","name":"Dernau","type":"Kreisangehörige_Gemeinde"},"district":{"key":"07131","name":"Ahrweiler","type":"Landkreis"},"federalState":{"key":"07","name":"Rheinland-Pfalz"}},]