[{"name":"Adlerfelsenweg","postalCode":"08309","locality":"Eibenstock","municipality":{"key":"14521170","name":"Eibenstock, Stadt","type":"Stadt"},"district":{"key":"14521","name":"Erzgebirgskreis","type":"Landkreis"},"federalState":{"key":"14","name":"Sachsen"}},{"name":"Albertplatz","postalCode":"08309","locality":"Eibenstock","municipality":{"key":"14521170","name":"Eibenstock, Stadt","type":"Stadt"},"district":{"key":"14521","name":"Erzgebirgskreis","type":"Landkreis"},"federalState":{"key":"14","name":"Sachsen"}},{"name":"Alte Poststr.","postalCode":"08309","locality":"Eibenstock","municipality":{"key":"14521170","name":"Eibenstock, Stadt","type":"Stadt"},"district":{"key":"14521","name":"Erzgebirgskreis","type":"Landkreis"},"federalState":{"key":"14","name":"Sachsen"}},{"name":"Alter Buchenweg","postalCode":"08309","locality":"Eibenstock","municipality":{"key":"14521170","name":"Eibenstock, Stadt","type":"Stadt"},"district":{"key":"14521","name":"Erzgebirgskreis","type":"Landkreis"},"federalState":{"key":"14","name":"Sachsen"}},{"name":"Alter Fällbachweg","postalCode":"08309","locality":"Eibenstock","municipality":{"key":"14521170","name":"Eibenstock, Stadt","type":"Stadt"},"district":{"key":"14521","name":"Erzgebirgskreis","type":"Landkreis"},"federalState":{"key":"14","name":"Sachsen"}},{"name":"Alter Höllengrundweg","postalCode":"08309","locality":"Eibenstock","municipality":{"key":"14521170","name":"Eibenstock, Stadt","type":"Stadt"},"district":{"key":"14521","name":"Erzgebirgskreis","type":"Landkreis"},"federalState":{"key":"14","name":"Sachsen"}},{"name":"Alter neuer Weg","postalCode":"08309","locality":"Eibenstock","municipality":{"key":"14521170","name":"Eibenstock, Stadt","type":"Stadt"},"district":{"key":"14521","name":"Erzgebirgskreis","type":"Landkreis"},"federalState":{"key":"14","name":"Sachsen"}},{"name":"alter Postweg","postalCode":"08309","locality":"Eibenstock","municipality":{"key":"14521170","name":"Eibenstock, Stadt","type":"Stadt"},"district":{"key":"14521","name":"Erzgebirgskreis","type":"Landkreis"},"federalState":{"key":"14","name":"Sachsen"}},{"name":"Alter Weg","postalCode":"08309","locality":"Eibenstock","municipality":{"key":"14521170","name":"Eibenstock, Stadt","type":"Stadt"},"district":{"key":"14521","name":"Erzgebirgskreis","type":"Landkreis"},"federalState":{"key":"14","name":"Sachsen"}},{"name":"Alte Schneeberger Str.","postalCode":"08309","locality":"Eibenstock","municipality":{"key":"14521170","name":"Eibenstock, Stadt","type":"Stadt"},"district":{"key":"14521","name":"Erzgebirgskreis","type":"Landkreis"},"federalState":{"key":"14","name":"Sachsen"}},{"name":"Alte Schwarzenberger Str.","postalCode":"08309","locality":"Eibenstock","municipality":{"key":"14521170","name":"Eibenstock, Stadt","type":"Stadt"},"district":{"key":"14521","name":"Erzgebirgskreis","type":"Landkreis"},"federalState":{"key":"14","name":"Sachsen"}},{"name":"Alte Zollhäuser","postalCode":"08309","locality":"Eibenstock","municipality":{"key":"14521170","name":"Eibenstock, Stadt","type":"Stadt"},"district":{"key":"14521","name":"Erzgebirgskreis","type":"Landkreis"},"federalState":{"key":"14","name":"Sachsen"}},{"name":"Am Bühl","postalCode":"08309","locality":"Eibenstock","municipality":{"key":"14521170","name":"Eibenstock, Stadt","type":"Stadt"},"district":{"key":"14521","name":"Erzgebirgskreis","type":"Landkreis"},"federalState":{"key":"14","name":"Sachsen"}},{"name":"Am Frölichwald","postalCode":"08309","locality":"Eibenstock","municipality":{"key":"14521170","name":"Eibenstock, Stadt","type":"Stadt"},"district":{"key":"14521","name":"Erzgebirgskreis","type":"Landkreis"},"federalState":{"key":"14","name":"Sachsen"}},{"name":"Am Gerstenbergweg","postalCode":"08309","locality":"Eibenstock","municipality":{"key":"14521170","name":"Eibenstock, Stadt","type":"Stadt"},"district":{"key":"14521","name":"Erzgebirgskreis","type":"Landkreis"},"federalState":{"key":"14","name":"Sachsen"}},{"name":"Am Graben","postalCode":"08309","locality":"Eibenstock","municipality":{"key":"14521170","name":"Eibenstock, Stadt","type":"Stadt"},"district":{"key":"14521","name":"Erzgebirgskreis","type":"Landkreis"},"federalState":{"key":"14","name":"Sachsen"}},{"name":"Am Gutsweg","postalCode":"08309","locality":"Eibenstock","municipality":{"key":"14521170","name":"Eibenstock, Stadt","type":"Stadt"},"district":{"key":"14521","name":"Erzgebirgskreis","type":"Landkreis"},"federalState":{"key":"14","name":"Sachsen"}},{"name":"Am Hänelberg","postalCode":"08309","locality":"Eibenstock","municipality":{"key":"14521170","name":"Eibenstock, Stadt","type":"Stadt"},"district":{"key":"14521","name":"Erzgebirgskreis","type":"Landkreis"},"federalState":{"key":"14","name":"Sachsen"}},{"name":"Am Hohlweg","postalCode":"08309","locality":"Eibenstock","municipality":{"key":"14521170","name":"Eibenstock, Stadt","type":"Stadt"},"district":{"key":"14521","name":"Erzgebirgskreis","type":"Landkreis"},"federalState":{"key":"14","name":"Sachsen"}},{"name":"Am Lindenacker","postalCode":"08309","locality":"Eibenstock","municipality":{"key":"14521170","name":"Eibenstock, Stadt","type":"Stadt"},"district":{"key":"14521","name":"Erzgebirgskreis","type":"Landkreis"},"federalState":{"key":"14","name":"Sachsen"}},{"name":"Am Rehmerhang","postalCode":"08309","locality":"Eibenstock","municipality":{"key":"14521170","name":"Eibenstock, Stadt","type":"Stadt"},"district":{"key":"14521","name":"Erzgebirgskreis","type":"Landkreis"},"federalState":{"key":"14","name":"Sachsen"}},{"name":"Amselpfad","postalCode":"08309","locality":"Eibenstock","municipality":{"key":"14521170","name":"Eibenstock, Stadt","type":"Stadt"},"district":{"key":"14521","name":"Erzgebirgskreis","type":"Landkreis"},"federalState":{"key":"14","name":"Sachsen"}},{"name":"Am Sportplatz","postalCode":"08309","locality":"Eibenstock","municipality":{"key":"14521170","name":"Eibenstock, Stadt","type":"Stadt"},"district":{"key":"14521","name":"Erzgebirgskreis","type":"Landkreis"},"federalState":{"key":"14","name":"Sachsen"}},{"name":"Am Steinbächel","postalCode":"08309","locality":"Eibenstock","municipality":{"key":"14521170","name":"Eibenstock, Stadt","type":"Stadt"},"district":{"key":"14521","name":"Erzgebirgskreis","type":"Landkreis"},"federalState":{"key":"14","name":"Sachsen"}},{"name":"Am Stern","postalCode":"08309","locality":"Eibenstock","municipality":{"key":"14521170","name":"Eibenstock, Stadt","type":"Stadt"},"district":{"key":"14521","name":"Erzgebirgskreis","type":"Landkreis"},"federalState":{"key":"14","name":"Sachsen"}},{"name":"An der Bergstr.","postalCode":"08309","locality":"Eibenstock","municipality":{"key":"14521170","name":"Eibenstock, Stadt","type":"Stadt"},"district":{"key":"14521","name":"Erzgebirgskreis","type":"Landkreis"},"federalState":{"key":"14","name":"Sachsen"}},{"name":"An der Binge","postalCode":"08309","locality":"Eibenstock","municipality":{"key":"14521170","name":"Eibenstock, Stadt","type":"Stadt"},"district":{"key":"14521","name":"Erzgebirgskreis","type":"Landkreis"},"federalState":{"key":"14","name":"Sachsen"}},{"name":"An der Mohrenstr.","postalCode":"08309","locality":"Eibenstock","municipality":{"key":"14521170","name":"Eibenstock, Stadt","type":"Stadt"},"district":{"key":"14521","name":"Erzgebirgskreis","type":"Landkreis"},"federalState":{"key":"14","name":"Sachsen"}},{"name":"An der Sosaer Str.","postalCode":"08309","locality":"Eibenstock","municipality":{"key":"14521170","name":"Eibenstock, Stadt","type":"Stadt"},"district":{"key":"14521","name":"Erzgebirgskreis","type":"Landkreis"},"federalState":{"key":"14","name":"Sachsen"}},{"name":"An der Südstr.","postalCode":"08309","locality":"Eibenstock","municipality":{"key":"14521170","name":"Eibenstock, Stadt","type":"Stadt"},"district":{"key":"14521","name":"Erzgebirgskreis","type":"Landkreis"},"federalState":{"key":"14","name":"Sachsen"}},{"name":"An der Talsperre","postalCode":"08309","locality":"Eibenstock","municipality":{"key":"14521170","name":"Eibenstock, Stadt","type":"Stadt"},"district":{"key":"14521","name":"Erzgebirgskreis","type":"Landkreis"},"federalState":{"key":"14","name":"Sachsen"}},{"name":"An der Vodelstr.","postalCode":"08309","locality":"Eibenstock","municipality":{"key":"14521170","name":"Eibenstock, Stadt","type":"Stadt"},"district":{"key":"14521","name":"Erzgebirgskreis","type":"Landkreis"},"federalState":{"key":"14","name":"Sachsen"}},{"name":"Auersbergstr.","postalCode":"08309","locality":"Eibenstock","municipality":{"key":"14521170","name":"Eibenstock, Stadt","type":"Stadt"},"district":{"key":"14521","name":"Erzgebirgskreis","type":"Landkreis"},"federalState":{"key":"14","name":"Sachsen"}},{"name":"Auersbergweg","postalCode":"08309","locality":"Eibenstock","municipality":{"key":"14521170","name":"Eibenstock, Stadt","type":"Stadt"},"district":{"key":"14521","name":"Erzgebirgskreis","type":"Landkreis"},"federalState":{"key":"14","name":"Sachsen"}},{"name":"Bachstr.","postalCode":"08309","locality":"Eibenstock","municipality":{"key":"14521170","name":"Eibenstock, Stadt","type":"Stadt"},"district":{"key":"14521","name":"Erzgebirgskreis","type":"Landkreis"},"federalState":{"key":"14","name":"Sachsen"}},{"name":"Bärensäureweg","postalCode":"08309","locality":"Eibenstock","municipality":{"key":"14521170","name":"Eibenstock, Stadt","type":"Stadt"},"district":{"key":"14521","name":"Erzgebirgskreis","type":"Landkreis"},"federalState":{"key":"14","name":"Sachsen"}},{"name":"Bärenweg","postalCode":"08309","locality":"Eibenstock","municipality":{"key":"14521170","name":"Eibenstock, Stadt","type":"Stadt"},"district":{"key":"14521","name":"Erzgebirgskreis","type":"Landkreis"},"federalState":{"key":"14","name":"Sachsen"}},{"name":"Bärenzechenweg","postalCode":"08309","locality":"Eibenstock","municipality":{"key":"14521170","name":"Eibenstock, Stadt","type":"Stadt"},"district":{"key":"14521","name":"Erzgebirgskreis","type":"Landkreis"},"federalState":{"key":"14","name":"Sachsen"}},{"name":"Bechsteingrund","postalCode":"08309","locality":"Eibenstock","municipality":{"key":"14521170","name":"Eibenstock, Stadt","type":"Stadt"},"district":{"key":"14521","name":"Erzgebirgskreis","type":"Landkreis"},"federalState":{"key":"14","name":"Sachsen"}},{"name":"Bergbaulehrpfad","postalCode":"08309","locality":"Eibenstock","municipality":{"key":"14521170","name":"Eibenstock, Stadt","type":"Stadt"},"district":{"key":"14521","name":"Erzgebirgskreis","type":"Landkreis"},"federalState":{"key":"14","name":"Sachsen"}},{"name":"Bergfußsteig","postalCode":"08309","locality":"Eibenstock","municipality":{"key":"14521170","name":"Eibenstock, Stadt","type":"Stadt"},"district":{"key":"14521","name":"Erzgebirgskreis","type":"Landkreis"},"federalState":{"key":"14","name":"Sachsen"}},{"name":"Bergstr.","postalCode":"08309","locality":"Eibenstock","municipality":{"key":"14521170","name":"Eibenstock, Stadt","type":"Stadt"},"district":{"key":"14521","name":"Erzgebirgskreis","type":"Landkreis"},"federalState":{"key":"14","name":"Sachsen"}},{"name":"Blauenthaler Hauptstr.","postalCode":"08309","locality":"Eibenstock","municipality":{"key":"14521170","name":"Eibenstock, Stadt","type":"Stadt"},"district":{"key":"14521","name":"Erzgebirgskreis","type":"Landkreis"},"federalState":{"key":"14","name":"Sachsen"}},{"name":"Blauenthaler Str.","postalCode":"08309","locality":"Eibenstock","municipality":{"key":"14521170","name":"Eibenstock, Stadt","type":"Stadt"},"district":{"key":"14521","name":"Erzgebirgskreis","type":"Landkreis"},"federalState":{"key":"14","name":"Sachsen"}},{"name":"Blechhammer","postalCode":"08309","locality":"Eibenstock","municipality":{"key":"14521170","name":"Eibenstock, Stadt","type":"Stadt"},"district":{"key":"14521","name":"Erzgebirgskreis","type":"Landkreis"},"federalState":{"key":"14","name":"Sachsen"}},{"name":"Blechhammerweg","postalCode":"08309","locality":"Eibenstock","municipality":{"key":"14521170","name":"Eibenstock, Stadt","type":"Stadt"},"district":{"key":"14521","name":"Erzgebirgskreis","type":"Landkreis"},"federalState":{"key":"14","name":"Sachsen"}},{"name":"Bockauer Str.","postalCode":"08309","locality":"Eibenstock","municipality":{"key":"14521170","name":"Eibenstock, Stadt","type":"Stadt"},"district":{"key":"14521","name":"Erzgebirgskreis","type":"Landkreis"},"federalState":{"key":"14","name":"Sachsen"}},{"name":"Bockautalstr.","postalCode":"08309","locality":"Eibenstock","municipality":{"key":"14521170","name":"Eibenstock, Stadt","type":"Stadt"},"district":{"key":"14521","name":"Erzgebirgskreis","type":"Landkreis"},"federalState":{"key":"14","name":"Sachsen"}},{"name":"Bodopark","postalCode":"08309","locality":"Eibenstock","municipality":{"key":"14521170","name":"Eibenstock, Stadt","type":"Stadt"},"district":{"key":"14521","name":"Erzgebirgskreis","type":"Landkreis"},"federalState":{"key":"14","name":"Sachsen"}},{"name":"Bräunsbächlweg","postalCode":"08309","locality":"Eibenstock","municipality":{"key":"14521170","name":"Eibenstock, Stadt","type":"Stadt"},"district":{"key":"14521","name":"Erzgebirgskreis","type":"Landkreis"},"federalState":{"key":"14","name":"Sachsen"}},{"name":"Bretgasse","postalCode":"08309","locality":"Eibenstock","municipality":{"key":"14521170","name":"Eibenstock, Stadt","type":"Stadt"},"district":{"key":"14521","name":"Erzgebirgskreis","type":"Landkreis"},"federalState":{"key":"14","name":"Sachsen"}},{"name":"Bretschneiderstr.","postalCode":"08309","locality":"Eibenstock","municipality":{"key":"14521170","name":"Eibenstock, Stadt","type":"Stadt"},"district":{"key":"14521","name":"Erzgebirgskreis","type":"Landkreis"},"federalState":{"key":"14","name":"Sachsen"}},{"name":"Brettmühlenweg","postalCode":"08309","locality":"Eibenstock","municipality":{"key":"14521170","name":"Eibenstock, Stadt","type":"Stadt"},"district":{"key":"14521","name":"Erzgebirgskreis","type":"Landkreis"},"federalState":{"key":"14","name":"Sachsen"}},{"name":"Brückenstr.","postalCode":"08309","locality":"Eibenstock","municipality":{"key":"14521170","name":"Eibenstock, Stadt","type":"Stadt"},"district":{"key":"14521","name":"Erzgebirgskreis","type":"Landkreis"},"federalState":{"key":"14","name":"Sachsen"}},{"name":"Brühl","postalCode":"08309","locality":"Eibenstock","municipality":{"key":"14521170","name":"Eibenstock, Stadt","type":"Stadt"},"district":{"key":"14521","name":"Erzgebirgskreis","type":"Landkreis"},"federalState":{"key":"14","name":"Sachsen"}},{"name":"Brunnenweg","postalCode":"08309","locality":"Eibenstock","municipality":{"key":"14521170","name":"Eibenstock, Stadt","type":"Stadt"},"district":{"key":"14521","name":"Erzgebirgskreis","type":"Landkreis"},"federalState":{"key":"14","name":"Sachsen"}},{"name":"Buchenweg","postalCode":"08309","locality":"Eibenstock","municipality":{"key":"14521170","name":"Eibenstock, Stadt","type":"Stadt"},"district":{"key":"14521","name":"Erzgebirgskreis","type":"Landkreis"},"federalState":{"key":"14","name":"Sachsen"}},{"name":"Buchkampweg","postalCode":"08309","locality":"Eibenstock","municipality":{"key":"14521170","name":"Eibenstock, Stadt","type":"Stadt"},"district":{"key":"14521","name":"Erzgebirgskreis","type":"Landkreis"},"federalState":{"key":"14","name":"Sachsen"}},{"name":"Bühlstr.","postalCode":"08309","locality":"Eibenstock","municipality":{"key":"14521170","name":"Eibenstock, Stadt","type":"Stadt"},"district":{"key":"14521","name":"Erzgebirgskreis","type":"Landkreis"},"federalState":{"key":"14","name":"Sachsen"}},{"name":"Bürgermeister-Hesse-Str.","postalCode":"08309","locality":"Eibenstock","municipality":{"key":"14521170","name":"Eibenstock, Stadt","type":"Stadt"},"district":{"key":"14521","name":"Erzgebirgskreis","type":"Landkreis"},"federalState":{"key":"14","name":"Sachsen"}},{"name":"Burkhardtsgrüner Str.","postalCode":"08309","locality":"Eibenstock","municipality":{"key":"14521170","name":"Eibenstock, Stadt","type":"Stadt"},"district":{"key":"14521","name":"Erzgebirgskreis","type":"Landkreis"},"federalState":{"key":"14","name":"Sachsen"}},{"name":"Butterweg","postalCode":"08309","locality":"Eibenstock","municipality":{"key":"14521170","name":"Eibenstock, Stadt","type":"Stadt"},"district":{"key":"14521","name":"Erzgebirgskreis","type":"Landkreis"},"federalState":{"key":"14","name":"Sachsen"}},{"name":"Carlsfeld-Eibenstocker Weg","postalCode":"08309","locality":"Eibenstock","municipality":{"key":"14521170","name":"Eibenstock, Stadt","type":"Stadt"},"district":{"key":"14521","name":"Erzgebirgskreis","type":"Landkreis"},"federalState":{"key":"14","name":"Sachsen"}},{"name":"Carlsfelder Hauptstr.","postalCode":"08309","locality":"Eibenstock","municipality":{"key":"14521170","name":"Eibenstock, Stadt","type":"Stadt"},"district":{"key":"14521","name":"Erzgebirgskreis","type":"Landkreis"},"federalState":{"key":"14","name":"Sachsen"}},{"name":"Carlsfelder Steig","postalCode":"08309","locality":"Eibenstock","municipality":{"key":"14521170","name":"Eibenstock, Stadt","type":"Stadt"},"district":{"key":"14521","name":"Erzgebirgskreis","type":"Landkreis"},"federalState":{"key":"14","name":"Sachsen"}},{"name":"Carlsfelder Str.","postalCode":"08309","locality":"Eibenstock","municipality":{"key":"14521170","name":"Eibenstock, Stadt","type":"Stadt"},"district":{"key":"14521","name":"Erzgebirgskreis","type":"Landkreis"},"federalState":{"key":"14","name":"Sachsen"}},{"name":"Clara-Angermann-Str.","postalCode":"08309","locality":"Eibenstock","municipality":{"key":"14521170","name":"Eibenstock, Stadt","type":"Stadt"},"district":{"key":"14521","name":"Erzgebirgskreis","type":"Landkreis"},"federalState":{"key":"14","name":"Sachsen"}},{"name":"Conradsheider Weg","postalCode":"08309","locality":"Eibenstock","municipality":{"key":"14521170","name":"Eibenstock, Stadt","type":"Stadt"},"district":{"key":"14521","name":"Erzgebirgskreis","type":"Landkreis"},"federalState":{"key":"14","name":"Sachsen"}},{"name":"Die Sieben","postalCode":"08309","locality":"Eibenstock","municipality":{"key":"14521170","name":"Eibenstock, Stadt","type":"Stadt"},"district":{"key":"14521","name":"Erzgebirgskreis","type":"Landkreis"},"federalState":{"key":"14","name":"Sachsen"}},{"name":"Döhlergasse","postalCode":"08309","locality":"Eibenstock","municipality":{"key":"14521170","name":"Eibenstock, Stadt","type":"Stadt"},"district":{"key":"14521","name":"Erzgebirgskreis","type":"Landkreis"},"federalState":{"key":"14","name":"Sachsen"}},{"name":"Dönitzgrundweg","postalCode":"08309","locality":"Eibenstock","municipality":{"key":"14521170","name":"Eibenstock, Stadt","type":"Stadt"},"district":{"key":"14521","name":"Erzgebirgskreis","type":"Landkreis"},"federalState":{"key":"14","name":"Sachsen"}},{"name":"Dorfstr.","postalCode":"08309","locality":"Eibenstock","municipality":{"key":"14521170","name":"Eibenstock, Stadt","type":"Stadt"},"district":{"key":"14521","name":"Erzgebirgskreis","type":"Landkreis"},"federalState":{"key":"14","name":"Sachsen"}},{"name":"Drechslerweg","postalCode":"08309","locality":"Eibenstock","municipality":{"key":"14521170","name":"Eibenstock, Stadt","type":"Stadt"},"district":{"key":"14521","name":"Erzgebirgskreis","type":"Landkreis"},"federalState":{"key":"14","name":"Sachsen"}},{"name":"Drei-Talsperrenweg","postalCode":"08309","locality":"Eibenstock","municipality":{"key":"14521170","name":"Eibenstock, Stadt","type":"Stadt"},"district":{"key":"14521","name":"Erzgebirgskreis","type":"Landkreis"},"federalState":{"key":"14","name":"Sachsen"}},{"name":"Dr.-Leidholdt-Str.","postalCode":"08309","locality":"Eibenstock","municipality":{"key":"14521170","name":"Eibenstock, Stadt","type":"Stadt"},"district":{"key":"14521","name":"Erzgebirgskreis","type":"Landkreis"},"federalState":{"key":"14","name":"Sachsen"}},{"name":"Dürrer Berg","postalCode":"08309","locality":"Eibenstock","municipality":{"key":"14521170","name":"Eibenstock, Stadt","type":"Stadt"},"district":{"key":"14521","name":"Erzgebirgskreis","type":"Landkreis"},"federalState":{"key":"14","name":"Sachsen"}},{"name":"Ehrenhausweg","postalCode":"08309","locality":"Eibenstock","municipality":{"key":"14521170","name":"Eibenstock, Stadt","type":"Stadt"},"district":{"key":"14521","name":"Erzgebirgskreis","type":"Landkreis"},"federalState":{"key":"14","name":"Sachsen"}},{"name":"Eibenstocker Grenzflügel","postalCode":"08309","locality":"Eibenstock","municipality":{"key":"14521170","name":"Eibenstock, Stadt","type":"Stadt"},"district":{"key":"14521","name":"Erzgebirgskreis","type":"Landkreis"},"federalState":{"key":"14","name":"Sachsen"}},{"name":"Eibenstocker Str.","postalCode":"08309","locality":"Eibenstock","municipality":{"key":"14521170","name":"Eibenstock, Stadt","type":"Stadt"},"district":{"key":"14521","name":"Erzgebirgskreis","type":"Landkreis"},"federalState":{"key":"14","name":"Sachsen"}},{"name":"Eibenstocker Weg","postalCode":"08309","locality":"Eibenstock","municipality":{"key":"14521170","name":"Eibenstock, Stadt","type":"Stadt"},"district":{"key":"14521","name":"Erzgebirgskreis","type":"Landkreis"},"federalState":{"key":"14","name":"Sachsen"}},{"name":"Ellbogenweg","postalCode":"08309","locality":"Eibenstock","municipality":{"key":"14521170","name":"Eibenstock, Stadt","type":"Stadt"},"district":{"key":"14521","name":"Erzgebirgskreis","type":"Landkreis"},"federalState":{"key":"14","name":"Sachsen"}},{"name":"Erbwaldweg","postalCode":"08309","locality":"Eibenstock","municipality":{"key":"14521170","name":"Eibenstock, Stadt","type":"Stadt"},"district":{"key":"14521","name":"Erzgebirgskreis","type":"Landkreis"},"federalState":{"key":"14","name":"Sachsen"}},{"name":"Erzweg","postalCode":"08309","locality":"Eibenstock","municipality":{"key":"14521170","name":"Eibenstock, Stadt","type":"Stadt"},"district":{"key":"14521","name":"Erzgebirgskreis","type":"Landkreis"},"federalState":{"key":"14","name":"Sachsen"}},{"name":"Eselsberger Flügel","postalCode":"08309","locality":"Eibenstock","municipality":{"key":"14521170","name":"Eibenstock, Stadt","type":"Stadt"},"district":{"key":"14521","name":"Erzgebirgskreis","type":"Landkreis"},"federalState":{"key":"14","name":"Sachsen"}},{"name":"Fällbacher Str.","postalCode":"08309","locality":"Eibenstock","municipality":{"key":"14521170","name":"Eibenstock, Stadt","type":"Stadt"},"district":{"key":"14521","name":"Erzgebirgskreis","type":"Landkreis"},"federalState":{"key":"14","name":"Sachsen"}},{"name":"Feldstr.","postalCode":"08309","locality":"Eibenstock","municipality":{"key":"14521170","name":"Eibenstock, Stadt","type":"Stadt"},"district":{"key":"14521","name":"Erzgebirgskreis","type":"Landkreis"},"federalState":{"key":"14","name":"Sachsen"}},{"name":"Feuerwehrstr.","postalCode":"08309","locality":"Eibenstock","municipality":{"key":"14521170","name":"Eibenstock, Stadt","type":"Stadt"},"district":{"key":"14521","name":"Erzgebirgskreis","type":"Landkreis"},"federalState":{"key":"14","name":"Sachsen"}},{"name":"Floßholzzechenweg","postalCode":"08309","locality":"Eibenstock","municipality":{"key":"14521170","name":"Eibenstock, Stadt","type":"Stadt"},"district":{"key":"14521","name":"Erzgebirgskreis","type":"Landkreis"},"federalState":{"key":"14","name":"Sachsen"}},{"name":"Flößweg","postalCode":"08309","locality":"Eibenstock","municipality":{"key":"14521170","name":"Eibenstock, Stadt","type":"Stadt"},"district":{"key":"14521","name":"Erzgebirgskreis","type":"Landkreis"},"federalState":{"key":"14","name":"Sachsen"}},{"name":"Flügel 3","postalCode":"08309","locality":"Eibenstock","municipality":{"key":"14521170","name":"Eibenstock, Stadt","type":"Stadt"},"district":{"key":"14521","name":"Erzgebirgskreis","type":"Landkreis"},"federalState":{"key":"14","name":"Sachsen"}},{"name":"Flügel 4","postalCode":"08309","locality":"Eibenstock","municipality":{"key":"14521170","name":"Eibenstock, Stadt","type":"Stadt"},"district":{"key":"14521","name":"Erzgebirgskreis","type":"Landkreis"},"federalState":{"key":"14","name":"Sachsen"}},{"name":"Flügel P","postalCode":"08309","locality":"Eibenstock","municipality":{"key":"14521170","name":"Eibenstock, Stadt","type":"Stadt"},"district":{"key":"14521","name":"Erzgebirgskreis","type":"Landkreis"},"federalState":{"key":"14","name":"Sachsen"}},{"name":"Flügel Q","postalCode":"08309","locality":"Eibenstock","municipality":{"key":"14521170","name":"Eibenstock, Stadt","type":"Stadt"},"district":{"key":"14521","name":"Erzgebirgskreis","type":"Landkreis"},"federalState":{"key":"14","name":"Sachsen"}},{"name":"Forsthausweg","postalCode":"08309","locality":"Eibenstock","municipality":{"key":"14521170","name":"Eibenstock, Stadt","type":"Stadt"},"district":{"key":"14521","name":"Erzgebirgskreis","type":"Landkreis"},"federalState":{"key":"14","name":"Sachsen"}},{"name":"Forstmeisterweg","postalCode":"08309","locality":"Eibenstock","municipality":{"key":"14521170","name":"Eibenstock, Stadt","type":"Stadt"},"district":{"key":"14521","name":"Erzgebirgskreis","type":"Landkreis"},"federalState":{"key":"14","name":"Sachsen"}},{"name":"Forstsiedlung","postalCode":"08309","locality":"Eibenstock","municipality":{"key":"14521170","name":"Eibenstock, Stadt","type":"Stadt"},"district":{"key":"14521","name":"Erzgebirgskreis","type":"Landkreis"},"federalState":{"key":"14","name":"Sachsen"}},{"name":"Freche Flitzer","postalCode":"08309","locality":"Eibenstock","municipality":{"key":"14521170","name":"Eibenstock, Stadt","type":"Stadt"},"district":{"key":"14521","name":"Erzgebirgskreis","type":"Landkreis"},"federalState":{"key":"14","name":"Sachsen"}},{"name":"Friedensstr.","postalCode":"08309","locality":"Eibenstock","municipality":{"key":"14521170","name":"Eibenstock, Stadt","type":"Stadt"},"district":{"key":"14521","name":"Erzgebirgskreis","type":"Landkreis"},"federalState":{"key":"14","name":"Sachsen"}},{"name":"Friedhofschneise","postalCode":"08309","locality":"Eibenstock","municipality":{"key":"14521170","name":"Eibenstock, Stadt","type":"Stadt"},"district":{"key":"14521","name":"Erzgebirgskreis","type":"Landkreis"},"federalState":{"key":"14","name":"Sachsen"}},{"name":"Friedhofsweg","postalCode":"08309","locality":"Eibenstock","municipality":{"key":"14521170","name":"Eibenstock, Stadt","type":"Stadt"},"district":{"key":"14521","name":"Erzgebirgskreis","type":"Landkreis"},"federalState":{"key":"14","name":"Sachsen"}},{"name":"Frölichweg","postalCode":"08309","locality":"Eibenstock","municipality":{"key":"14521170","name":"Eibenstock, Stadt","type":"Stadt"},"district":{"key":"14521","name":"Erzgebirgskreis","type":"Landkreis"},"federalState":{"key":"14","name":"Sachsen"}},{"name":"Frölichwiese","postalCode":"08309","locality":"Eibenstock","municipality":{"key":"14521170","name":"Eibenstock, Stadt","type":"Stadt"},"district":{"key":"14521","name":"Erzgebirgskreis","type":"Landkreis"},"federalState":{"key":"14","name":"Sachsen"}},{"name":"Frühbußer Steig","postalCode":"08309","locality":"Eibenstock","municipality":{"key":"14521170","name":"Eibenstock, Stadt","type":"Stadt"},"district":{"key":"14521","name":"Erzgebirgskreis","type":"Landkreis"},"federalState":{"key":"14","name":"Sachsen"}},{"name":"Frühbusser Str.","postalCode":"08309","locality":"Eibenstock","municipality":{"key":"14521170","name":"Eibenstock, Stadt","type":"Stadt"},"district":{"key":"14521","name":"Erzgebirgskreis","type":"Landkreis"},"federalState":{"key":"14","name":"Sachsen"}},{"name":"Funckstr.","postalCode":"08309","locality":"Eibenstock","municipality":{"key":"14521170","name":"Eibenstock, Stadt","type":"Stadt"},"district":{"key":"14521","name":"Erzgebirgskreis","type":"Landkreis"},"federalState":{"key":"14","name":"Sachsen"}},{"name":"Gabelsbergerstr.","postalCode":"08309","locality":"Eibenstock","municipality":{"key":"14521170","name":"Eibenstock, Stadt","type":"Stadt"},"district":{"key":"14521","name":"Erzgebirgskreis","type":"Landkreis"},"federalState":{"key":"14","name":"Sachsen"}},{"name":"Galgenflügel","postalCode":"08309","locality":"Eibenstock","municipality":{"key":"14521170","name":"Eibenstock, Stadt","type":"Stadt"},"district":{"key":"14521","name":"Erzgebirgskreis","type":"Landkreis"},"federalState":{"key":"14","name":"Sachsen"}},{"name":"Gartenstr.","postalCode":"08309","locality":"Eibenstock","municipality":{"key":"14521170","name":"Eibenstock, Stadt","type":"Stadt"},"district":{"key":"14521","name":"Erzgebirgskreis","type":"Landkreis"},"federalState":{"key":"14","name":"Sachsen"}},{"name":"Gasanstaltsweg","postalCode":"08309","locality":"Eibenstock","municipality":{"key":"14521170","name":"Eibenstock, Stadt","type":"Stadt"},"district":{"key":"14521","name":"Erzgebirgskreis","type":"Landkreis"},"federalState":{"key":"14","name":"Sachsen"}},{"name":"Gerstenbergweg","postalCode":"08309","locality":"Eibenstock","municipality":{"key":"14521170","name":"Eibenstock, Stadt","type":"Stadt"},"district":{"key":"14521","name":"Erzgebirgskreis","type":"Landkreis"},"federalState":{"key":"14","name":"Sachsen"}},{"name":"Granitzberger Steg","postalCode":"08309","locality":"Eibenstock","municipality":{"key":"14521170","name":"Eibenstock, Stadt","type":"Stadt"},"district":{"key":"14521","name":"Erzgebirgskreis","type":"Landkreis"},"federalState":{"key":"14","name":"Sachsen"}},{"name":"Graupnerweg","postalCode":"08309","locality":"Eibenstock","municipality":{"key":"14521170","name":"Eibenstock, Stadt","type":"Stadt"},"district":{"key":"14521","name":"Erzgebirgskreis","type":"Landkreis"},"federalState":{"key":"14","name":"Sachsen"}},{"name":"Grundweg","postalCode":"08309","locality":"Eibenstock","municipality":{"key":"14521170","name":"Eibenstock, Stadt","type":"Stadt"},"district":{"key":"14521","name":"Erzgebirgskreis","type":"Landkreis"},"federalState":{"key":"14","name":"Sachsen"}},{"name":"Günnels Heuweg","postalCode":"08309","locality":"Eibenstock","municipality":{"key":"14521170","name":"Eibenstock, Stadt","type":"Stadt"},"district":{"key":"14521","name":"Erzgebirgskreis","type":"Landkreis"},"federalState":{"key":"14","name":"Sachsen"}},{"name":"Gutsweg","postalCode":"08309","locality":"Eibenstock","municipality":{"key":"14521170","name":"Eibenstock, Stadt","type":"Stadt"},"district":{"key":"14521","name":"Erzgebirgskreis","type":"Landkreis"},"federalState":{"key":"14","name":"Sachsen"}},{"name":"Haberleithe","postalCode":"08309","locality":"Eibenstock","municipality":{"key":"14521170","name":"Eibenstock, Stadt","type":"Stadt"},"district":{"key":"14521","name":"Erzgebirgskreis","type":"Landkreis"},"federalState":{"key":"14","name":"Sachsen"}},{"name":"Hänelberg","postalCode":"08309","locality":"Eibenstock","municipality":{"key":"14521170","name":"Eibenstock, Stadt","type":"Stadt"},"district":{"key":"14521","name":"Erzgebirgskreis","type":"Landkreis"},"federalState":{"key":"14","name":"Sachsen"}},{"name":"Hangweg","postalCode":"08309","locality":"Eibenstock","municipality":{"key":"14521170","name":"Eibenstock, Stadt","type":"Stadt"},"district":{"key":"14521","name":"Erzgebirgskreis","type":"Landkreis"},"federalState":{"key":"14","name":"Sachsen"}},{"name":"Hauptstr.","postalCode":"08309","locality":"Eibenstock","municipality":{"key":"14521170","name":"Eibenstock, Stadt","type":"Stadt"},"district":{"key":"14521","name":"Erzgebirgskreis","type":"Landkreis"},"federalState":{"key":"14","name":"Sachsen"}},{"name":"Heckleitenweg","postalCode":"08309","locality":"Eibenstock","municipality":{"key":"14521170","name":"Eibenstock, Stadt","type":"Stadt"},"district":{"key":"14521","name":"Erzgebirgskreis","type":"Landkreis"},"federalState":{"key":"14","name":"Sachsen"}},{"name":"Heinrichsbacherweg","postalCode":"08309","locality":"Eibenstock","municipality":{"key":"14521170","name":"Eibenstock, Stadt","type":"Stadt"},"district":{"key":"14521","name":"Erzgebirgskreis","type":"Landkreis"},"federalState":{"key":"14","name":"Sachsen"}},{"name":"Heiterer Blickweg","postalCode":"08309","locality":"Eibenstock","municipality":{"key":"14521170","name":"Eibenstock, Stadt","type":"Stadt"},"district":{"key":"14521","name":"Erzgebirgskreis","type":"Landkreis"},"federalState":{"key":"14","name":"Sachsen"}},{"name":"Heuschuppenweg","postalCode":"08309","locality":"Eibenstock","municipality":{"key":"14521170","name":"Eibenstock, Stadt","type":"Stadt"},"district":{"key":"14521","name":"Erzgebirgskreis","type":"Landkreis"},"federalState":{"key":"14","name":"Sachsen"}},{"name":"Hillering","postalCode":"08309","locality":"Eibenstock","municipality":{"key":"14521170","name":"Eibenstock, Stadt","type":"Stadt"},"district":{"key":"14521","name":"Erzgebirgskreis","type":"Landkreis"},"federalState":{"key":"14","name":"Sachsen"}},{"name":"Himmelfahrt","postalCode":"08309","locality":"Eibenstock","municipality":{"key":"14521170","name":"Eibenstock, Stadt","type":"Stadt"},"district":{"key":"14521","name":"Erzgebirgskreis","type":"Landkreis"},"federalState":{"key":"14","name":"Sachsen"}},{"name":"Hintere Rehmerstr.","postalCode":"08309","locality":"Eibenstock","municipality":{"key":"14521170","name":"Eibenstock, Stadt","type":"Stadt"},"district":{"key":"14521","name":"Erzgebirgskreis","type":"Landkreis"},"federalState":{"key":"14","name":"Sachsen"}},{"name":"Hirschleckenweg","postalCode":"08309","locality":"Eibenstock","municipality":{"key":"14521170","name":"Eibenstock, Stadt","type":"Stadt"},"district":{"key":"14521","name":"Erzgebirgskreis","type":"Landkreis"},"federalState":{"key":"14","name":"Sachsen"}},{"name":"Hoffnungsweg","postalCode":"08309","locality":"Eibenstock","municipality":{"key":"14521170","name":"Eibenstock, Stadt","type":"Stadt"},"district":{"key":"14521","name":"Erzgebirgskreis","type":"Landkreis"},"federalState":{"key":"14","name":"Sachsen"}},{"name":"Hoher Weg","postalCode":"08309","locality":"Eibenstock","municipality":{"key":"14521170","name":"Eibenstock, Stadt","type":"Stadt"},"district":{"key":"14521","name":"Erzgebirgskreis","type":"Landkreis"},"federalState":{"key":"14","name":"Sachsen"}},{"name":"Hüblerweg","postalCode":"08309","locality":"Eibenstock","municipality":{"key":"14521170","name":"Eibenstock, Stadt","type":"Stadt"},"district":{"key":"14521","name":"Erzgebirgskreis","type":"Landkreis"},"federalState":{"key":"14","name":"Sachsen"}},{"name":"Hugo-Zschau-Str.","postalCode":"08309","locality":"Eibenstock","municipality":{"key":"14521170","name":"Eibenstock, Stadt","type":"Stadt"},"district":{"key":"14521","name":"Erzgebirgskreis","type":"Landkreis"},"federalState":{"key":"14","name":"Sachsen"}},{"name":"Jägersteig","postalCode":"08309","locality":"Eibenstock","municipality":{"key":"14521170","name":"Eibenstock, Stadt","type":"Stadt"},"district":{"key":"14521","name":"Erzgebirgskreis","type":"Landkreis"},"federalState":{"key":"14","name":"Sachsen"}},{"name":"Johanngeorgenstädter Grenzflügel","postalCode":"08309","locality":"Eibenstock","municipality":{"key":"14521170","name":"Eibenstock, Stadt","type":"Stadt"},"district":{"key":"14521","name":"Erzgebirgskreis","type":"Landkreis"},"federalState":{"key":"14","name":"Sachsen"}},{"name":"Jordanweg","postalCode":"08309","locality":"Eibenstock","municipality":{"key":"14521170","name":"Eibenstock, Stadt","type":"Stadt"},"district":{"key":"14521","name":"Erzgebirgskreis","type":"Landkreis"},"federalState":{"key":"14","name":"Sachsen"}},{"name":"Kaltenbrunner Flügel","postalCode":"08309","locality":"Eibenstock","municipality":{"key":"14521170","name":"Eibenstock, Stadt","type":"Stadt"},"district":{"key":"14521","name":"Erzgebirgskreis","type":"Landkreis"},"federalState":{"key":"14","name":"Sachsen"}},{"name":"Kalter Brunnenweg","postalCode":"08309","locality":"Eibenstock","municipality":{"key":"14521170","name":"Eibenstock, Stadt","type":"Stadt"},"district":{"key":"14521","name":"Erzgebirgskreis","type":"Landkreis"},"federalState":{"key":"14","name":"Sachsen"}},{"name":"Kammloipe","postalCode":"08309","locality":"Eibenstock","municipality":{"key":"14521170","name":"Eibenstock, Stadt","type":"Stadt"},"district":{"key":"14521","name":"Erzgebirgskreis","type":"Landkreis"},"federalState":{"key":"14","name":"Sachsen"}},{"name":"Kammweg","postalCode":"08309","locality":"Eibenstock","municipality":{"key":"14521170","name":"Eibenstock, Stadt","type":"Stadt"},"district":{"key":"14521","name":"Erzgebirgskreis","type":"Landkreis"},"federalState":{"key":"14","name":"Sachsen"}},{"name":"Karlsbader Str.","postalCode":"08309","locality":"Eibenstock","municipality":{"key":"14521170","name":"Eibenstock, Stadt","type":"Stadt"},"district":{"key":"14521","name":"Erzgebirgskreis","type":"Landkreis"},"federalState":{"key":"14","name":"Sachsen"}},{"name":"Kellerweg","postalCode":"08309","locality":"Eibenstock","municipality":{"key":"14521170","name":"Eibenstock, Stadt","type":"Stadt"},"district":{"key":"14521","name":"Erzgebirgskreis","type":"Landkreis"},"federalState":{"key":"14","name":"Sachsen"}},{"name":"Kirchplatz","postalCode":"08309","locality":"Eibenstock","municipality":{"key":"14521170","name":"Eibenstock, Stadt","type":"Stadt"},"district":{"key":"14521","name":"Erzgebirgskreis","type":"Landkreis"},"federalState":{"key":"14","name":"Sachsen"}},{"name":"Kirchsteig","postalCode":"08309","locality":"Eibenstock","municipality":{"key":"14521170","name":"Eibenstock, Stadt","type":"Stadt"},"district":{"key":"14521","name":"Erzgebirgskreis","type":"Landkreis"},"federalState":{"key":"14","name":"Sachsen"}},{"name":"Klährweg","postalCode":"08309","locality":"Eibenstock","municipality":{"key":"14521170","name":"Eibenstock, Stadt","type":"Stadt"},"district":{"key":"14521","name":"Erzgebirgskreis","type":"Landkreis"},"federalState":{"key":"14","name":"Sachsen"}},{"name":"Kleiner Wilzschweg","postalCode":"08309","locality":"Eibenstock","municipality":{"key":"14521170","name":"Eibenstock, Stadt","type":"Stadt"},"district":{"key":"14521","name":"Erzgebirgskreis","type":"Landkreis"},"federalState":{"key":"14","name":"Sachsen"}},{"name":"Klötzerweg","postalCode":"08309","locality":"Eibenstock","municipality":{"key":"14521170","name":"Eibenstock, Stadt","type":"Stadt"},"district":{"key":"14521","name":"Erzgebirgskreis","type":"Landkreis"},"federalState":{"key":"14","name":"Sachsen"}},{"name":"Köhlerweg","postalCode":"08309","locality":"Eibenstock","municipality":{"key":"14521170","name":"Eibenstock, Stadt","type":"Stadt"},"district":{"key":"14521","name":"Erzgebirgskreis","type":"Landkreis"},"federalState":{"key":"14","name":"Sachsen"}},{"name":"Kramsbachweg","postalCode":"08309","locality":"Eibenstock","municipality":{"key":"14521170","name":"Eibenstock, Stadt","type":"Stadt"},"district":{"key":"14521","name":"Erzgebirgskreis","type":"Landkreis"},"federalState":{"key":"14","name":"Sachsen"}},{"name":"Kreuzelweg","postalCode":"08309","locality":"Eibenstock","municipality":{"key":"14521170","name":"Eibenstock, Stadt","type":"Stadt"},"district":{"key":"14521","name":"Erzgebirgskreis","type":"Landkreis"},"federalState":{"key":"14","name":"Sachsen"}},{"name":"Krummer Flügel","postalCode":"08309","locality":"Eibenstock","municipality":{"key":"14521170","name":"Eibenstock, Stadt","type":"Stadt"},"district":{"key":"14521","name":"Erzgebirgskreis","type":"Landkreis"},"federalState":{"key":"14","name":"Sachsen"}},{"name":"Kurzer Weg","postalCode":"08309","locality":"Eibenstock","municipality":{"key":"14521170","name":"Eibenstock, Stadt","type":"Stadt"},"district":{"key":"14521","name":"Erzgebirgskreis","type":"Landkreis"},"federalState":{"key":"14","name":"Sachsen"}},{"name":"Leitungsaufhieb","postalCode":"08309","locality":"Eibenstock","municipality":{"key":"14521170","name":"Eibenstock, Stadt","type":"Stadt"},"district":{"key":"14521","name":"Erzgebirgskreis","type":"Landkreis"},"federalState":{"key":"14","name":"Sachsen"}},{"name":"Lohgasse","postalCode":"08309","locality":"Eibenstock","municipality":{"key":"14521170","name":"Eibenstock, Stadt","type":"Stadt"},"district":{"key":"14521","name":"Erzgebirgskreis","type":"Landkreis"},"federalState":{"key":"14","name":"Sachsen"}},{"name":"Ludwig-Jahn-Str.","postalCode":"08309","locality":"Eibenstock","municipality":{"key":"14521170","name":"Eibenstock, Stadt","type":"Stadt"},"district":{"key":"14521","name":"Erzgebirgskreis","type":"Landkreis"},"federalState":{"key":"14","name":"Sachsen"}},{"name":"Lutherweg","postalCode":"08309","locality":"Eibenstock","municipality":{"key":"14521170","name":"Eibenstock, Stadt","type":"Stadt"},"district":{"key":"14521","name":"Erzgebirgskreis","type":"Landkreis"},"federalState":{"key":"14","name":"Sachsen"}},{"name":"Markersbachweg","postalCode":"08309","locality":"Eibenstock","municipality":{"key":"14521170","name":"Eibenstock, Stadt","type":"Stadt"},"district":{"key":"14521","name":"Erzgebirgskreis","type":"Landkreis"},"federalState":{"key":"14","name":"Sachsen"}},{"name":"Markscheiderweg","postalCode":"08309","locality":"Eibenstock","municipality":{"key":"14521170","name":"Eibenstock, Stadt","type":"Stadt"},"district":{"key":"14521","name":"Erzgebirgskreis","type":"Landkreis"},"federalState":{"key":"14","name":"Sachsen"}},{"name":"Marktplatz","postalCode":"08309","locality":"Eibenstock","municipality":{"key":"14521170","name":"Eibenstock, Stadt","type":"Stadt"},"district":{"key":"14521","name":"Erzgebirgskreis","type":"Landkreis"},"federalState":{"key":"14","name":"Sachsen"}},{"name":"Merzweg","postalCode":"08309","locality":"Eibenstock","municipality":{"key":"14521170","name":"Eibenstock, Stadt","type":"Stadt"},"district":{"key":"14521","name":"Erzgebirgskreis","type":"Landkreis"},"federalState":{"key":"14","name":"Sachsen"}},{"name":"Messingwerk","postalCode":"08309","locality":"Eibenstock","municipality":{"key":"14521170","name":"Eibenstock, Stadt","type":"Stadt"},"district":{"key":"14521","name":"Erzgebirgskreis","type":"Landkreis"},"federalState":{"key":"14","name":"Sachsen"}},{"name":"Milchbachweg","postalCode":"08309","locality":"Eibenstock","municipality":{"key":"14521170","name":"Eibenstock, Stadt","type":"Stadt"},"district":{"key":"14521","name":"Erzgebirgskreis","type":"Landkreis"},"federalState":{"key":"14","name":"Sachsen"}},{"name":"Mittelflügel","postalCode":"08309","locality":"Eibenstock","municipality":{"key":"14521170","name":"Eibenstock, Stadt","type":"Stadt"},"district":{"key":"14521","name":"Erzgebirgskreis","type":"Landkreis"},"federalState":{"key":"14","name":"Sachsen"}},{"name":"Mohrenstr.","postalCode":"08309","locality":"Eibenstock","municipality":{"key":"14521170","name":"Eibenstock, Stadt","type":"Stadt"},"district":{"key":"14521","name":"Erzgebirgskreis","type":"Landkreis"},"federalState":{"key":"14","name":"Sachsen"}},{"name":"Morgenröthe-Carlsfelder-Weg","postalCode":"08309","locality":"Eibenstock","municipality":{"key":"14521170","name":"Eibenstock, Stadt","type":"Stadt"},"district":{"key":"14521","name":"Erzgebirgskreis","type":"Landkreis"},"federalState":{"key":"14","name":"Sachsen"}},{"name":"Morgenröther Str.","postalCode":"08309","locality":"Eibenstock","municipality":{"key":"14521170","name":"Eibenstock, Stadt","type":"Stadt"},"district":{"key":"14521","name":"Erzgebirgskreis","type":"Landkreis"},"federalState":{"key":"14","name":"Sachsen"}},{"name":"Mühlberg","postalCode":"08309","locality":"Eibenstock","municipality":{"key":"14521170","name":"Eibenstock, Stadt","type":"Stadt"},"district":{"key":"14521","name":"Erzgebirgskreis","type":"Landkreis"},"federalState":{"key":"14","name":"Sachsen"}},{"name":"Muldenhammerstr.","postalCode":"08309","locality":"Eibenstock","municipality":{"key":"14521170","name":"Eibenstock, Stadt","type":"Stadt"},"district":{"key":"14521","name":"Erzgebirgskreis","type":"Landkreis"},"federalState":{"key":"14","name":"Sachsen"}},{"name":"Muldenstr.","postalCode":"08309","locality":"Eibenstock","municipality":{"key":"14521170","name":"Eibenstock, Stadt","type":"Stadt"},"district":{"key":"14521","name":"Erzgebirgskreis","type":"Landkreis"},"federalState":{"key":"14","name":"Sachsen"}},{"name":"Muldenufer","postalCode":"08309","locality":"Eibenstock","municipality":{"key":"14521170","name":"Eibenstock, Stadt","type":"Stadt"},"district":{"key":"14521","name":"Erzgebirgskreis","type":"Landkreis"},"federalState":{"key":"14","name":"Sachsen"}},{"name":"Nachtflügel","postalCode":"08309","locality":"Eibenstock","municipality":{"key":"14521170","name":"Eibenstock, Stadt","type":"Stadt"},"district":{"key":"14521","name":"Erzgebirgskreis","type":"Landkreis"},"federalState":{"key":"14","name":"Sachsen"}},{"name":"Nassebrückenweg","postalCode":"08309","locality":"Eibenstock","municipality":{"key":"14521170","name":"Eibenstock, Stadt","type":"Stadt"},"district":{"key":"14521","name":"Erzgebirgskreis","type":"Landkreis"},"federalState":{"key":"14","name":"Sachsen"}},{"name":"Neidhardtsthaler Str.","postalCode":"08309","locality":"Eibenstock","municipality":{"key":"14521170","name":"Eibenstock, Stadt","type":"Stadt"},"district":{"key":"14521","name":"Erzgebirgskreis","type":"Landkreis"},"federalState":{"key":"14","name":"Sachsen"}},{"name":"Neidhardtsthaler Weg","postalCode":"08309","locality":"Eibenstock","municipality":{"key":"14521170","name":"Eibenstock, Stadt","type":"Stadt"},"district":{"key":"14521","name":"Erzgebirgskreis","type":"Landkreis"},"federalState":{"key":"14","name":"Sachsen"}},{"name":"Neuer Bärenweg","postalCode":"08309","locality":"Eibenstock","municipality":{"key":"14521170","name":"Eibenstock, Stadt","type":"Stadt"},"district":{"key":"14521","name":"Erzgebirgskreis","type":"Landkreis"},"federalState":{"key":"14","name":"Sachsen"}},{"name":"Neuer Buchenweg","postalCode":"08309","locality":"Eibenstock","municipality":{"key":"14521170","name":"Eibenstock, Stadt","type":"Stadt"},"district":{"key":"14521","name":"Erzgebirgskreis","type":"Landkreis"},"federalState":{"key":"14","name":"Sachsen"}},{"name":"Neuer Leichenweg","postalCode":"08309","locality":"Eibenstock","municipality":{"key":"14521170","name":"Eibenstock, Stadt","type":"Stadt"},"district":{"key":"14521","name":"Erzgebirgskreis","type":"Landkreis"},"federalState":{"key":"14","name":"Sachsen"}},{"name":"Neues Haus","postalCode":"08309","locality":"Eibenstock","municipality":{"key":"14521170","name":"Eibenstock, Stadt","type":"Stadt"},"district":{"key":"14521","name":"Erzgebirgskreis","type":"Landkreis"},"federalState":{"key":"14","name":"Sachsen"}},{"name":"Neue Welt","postalCode":"08309","locality":"Eibenstock","municipality":{"key":"14521170","name":"Eibenstock, Stadt","type":"Stadt"},"district":{"key":"14521","name":"Erzgebirgskreis","type":"Landkreis"},"federalState":{"key":"14","name":"Sachsen"}},{"name":"Neugasse","postalCode":"08309","locality":"Eibenstock","municipality":{"key":"14521170","name":"Eibenstock, Stadt","type":"Stadt"},"district":{"key":"14521","name":"Erzgebirgskreis","type":"Landkreis"},"federalState":{"key":"14","name":"Sachsen"}},{"name":"Nonnenhausweg","postalCode":"08309","locality":"Eibenstock","municipality":{"key":"14521170","name":"Eibenstock, Stadt","type":"Stadt"},"district":{"key":"14521","name":"Erzgebirgskreis","type":"Landkreis"},"federalState":{"key":"14","name":"Sachsen"}},{"name":"Nordhüttenweg","postalCode":"08309","locality":"Eibenstock","municipality":{"key":"14521170","name":"Eibenstock, Stadt","type":"Stadt"},"district":{"key":"14521","name":"Erzgebirgskreis","type":"Landkreis"},"federalState":{"key":"14","name":"Sachsen"}},{"name":"Obere Crottenseestr.","postalCode":"08309","locality":"Eibenstock","municipality":{"key":"14521170","name":"Eibenstock, Stadt","type":"Stadt"},"district":{"key":"14521","name":"Erzgebirgskreis","type":"Landkreis"},"federalState":{"key":"14","name":"Sachsen"}},{"name":"Obere Gasse","postalCode":"08309","locality":"Eibenstock","municipality":{"key":"14521170","name":"Eibenstock, Stadt","type":"Stadt"},"district":{"key":"14521","name":"Erzgebirgskreis","type":"Landkreis"},"federalState":{"key":"14","name":"Sachsen"}},{"name":"Oststr.","postalCode":"08309","locality":"Eibenstock","municipality":{"key":"14521170","name":"Eibenstock, Stadt","type":"Stadt"},"district":{"key":"14521","name":"Erzgebirgskreis","type":"Landkreis"},"federalState":{"key":"14","name":"Sachsen"}},{"name":"Otto-Findeisen-Str.","postalCode":"08309","locality":"Eibenstock","municipality":{"key":"14521170","name":"Eibenstock, Stadt","type":"Stadt"},"district":{"key":"14521","name":"Erzgebirgskreis","type":"Landkreis"},"federalState":{"key":"14","name":"Sachsen"}},{"name":"Parkstr.","postalCode":"08309","locality":"Eibenstock","municipality":{"key":"14521170","name":"Eibenstock, Stadt","type":"Stadt"},"district":{"key":"14521","name":"Erzgebirgskreis","type":"Landkreis"},"federalState":{"key":"14","name":"Sachsen"}},{"name":"Parkweg","postalCode":"08309","locality":"Eibenstock","municipality":{"key":"14521170","name":"Eibenstock, Stadt","type":"Stadt"},"district":{"key":"14521","name":"Erzgebirgskreis","type":"Landkreis"},"federalState":{"key":"14","name":"Sachsen"}},{"name":"Pechhüttenweg","postalCode":"08309","locality":"Eibenstock","municipality":{"key":"14521170","name":"Eibenstock, Stadt","type":"Stadt"},"district":{"key":"14521","name":"Erzgebirgskreis","type":"Landkreis"},"federalState":{"key":"14","name":"Sachsen"}},{"name":"Pestalozzistr.","postalCode":"08309","locality":"Eibenstock","municipality":{"key":"14521170","name":"Eibenstock, Stadt","type":"Stadt"},"district":{"key":"14521","name":"Erzgebirgskreis","type":"Landkreis"},"federalState":{"key":"14","name":"Sachsen"}},{"name":"Pfarrplatz","postalCode":"08309","locality":"Eibenstock","municipality":{"key":"14521170","name":"Eibenstock, Stadt","type":"Stadt"},"district":{"key":"14521","name":"Erzgebirgskreis","type":"Landkreis"},"federalState":{"key":"14","name":"Sachsen"}},{"name":"Pfingstfeststräßel","postalCode":"08309","locality":"Eibenstock","municipality":{"key":"14521170","name":"Eibenstock, Stadt","type":"Stadt"},"district":{"key":"14521","name":"Erzgebirgskreis","type":"Landkreis"},"federalState":{"key":"14","name":"Sachsen"}},{"name":"Plänerleithenweg","postalCode":"08309","locality":"Eibenstock","municipality":{"key":"14521170","name":"Eibenstock, Stadt","type":"Stadt"},"district":{"key":"14521","name":"Erzgebirgskreis","type":"Landkreis"},"federalState":{"key":"14","name":"Sachsen"}},{"name":"Platz des Friedens","postalCode":"08309","locality":"Eibenstock","municipality":{"key":"14521170","name":"Eibenstock, Stadt","type":"Stadt"},"district":{"key":"14521","name":"Erzgebirgskreis","type":"Landkreis"},"federalState":{"key":"14","name":"Sachsen"}},{"name":"Postplatz","postalCode":"08309","locality":"Eibenstock","municipality":{"key":"14521170","name":"Eibenstock, Stadt","type":"Stadt"},"district":{"key":"14521","name":"Erzgebirgskreis","type":"Landkreis"},"federalState":{"key":"14","name":"Sachsen"}},{"name":"Potemannweg","postalCode":"08309","locality":"Eibenstock","municipality":{"key":"14521170","name":"Eibenstock, Stadt","type":"Stadt"},"district":{"key":"14521","name":"Erzgebirgskreis","type":"Landkreis"},"federalState":{"key":"14","name":"Sachsen"}},{"name":"Quergasse","postalCode":"08309","locality":"Eibenstock","municipality":{"key":"14521170","name":"Eibenstock, Stadt","type":"Stadt"},"district":{"key":"14521","name":"Erzgebirgskreis","type":"Landkreis"},"federalState":{"key":"14","name":"Sachsen"}},{"name":"Rähmergrundweg","postalCode":"08309","locality":"Eibenstock","municipality":{"key":"14521170","name":"Eibenstock, Stadt","type":"Stadt"},"district":{"key":"14521","name":"Erzgebirgskreis","type":"Landkreis"},"federalState":{"key":"14","name":"Sachsen"}},{"name":"Rautenkranzer Str.","postalCode":"08309","locality":"Eibenstock","municipality":{"key":"14521170","name":"Eibenstock, Stadt","type":"Stadt"},"district":{"key":"14521","name":"Erzgebirgskreis","type":"Landkreis"},"federalState":{"key":"14","name":"Sachsen"}},{"name":"Rautenkranzer Wiesenweg","postalCode":"08309","locality":"Eibenstock","municipality":{"key":"14521170","name":"Eibenstock, Stadt","type":"Stadt"},"district":{"key":"14521","name":"Erzgebirgskreis","type":"Landkreis"},"federalState":{"key":"14","name":"Sachsen"}},{"name":"Rehhübelweg","postalCode":"08309","locality":"Eibenstock","municipality":{"key":"14521170","name":"Eibenstock, Stadt","type":"Stadt"},"district":{"key":"14521","name":"Erzgebirgskreis","type":"Landkreis"},"federalState":{"key":"14","name":"Sachsen"}},{"name":"Reitsteig","postalCode":"08309","locality":"Eibenstock","municipality":{"key":"14521170","name":"Eibenstock, Stadt","type":"Stadt"},"district":{"key":"14521","name":"Erzgebirgskreis","type":"Landkreis"},"federalState":{"key":"14","name":"Sachsen"}},{"name":"Reutersweg","postalCode":"08309","locality":"Eibenstock","municipality":{"key":"14521170","name":"Eibenstock, Stadt","type":"Stadt"},"district":{"key":"14521","name":"Erzgebirgskreis","type":"Landkreis"},"federalState":{"key":"14","name":"Sachsen"}},{"name":"Riedertbachweg","postalCode":"08309","locality":"Eibenstock","municipality":{"key":"14521170","name":"Eibenstock, Stadt","type":"Stadt"},"district":{"key":"14521","name":"Erzgebirgskreis","type":"Landkreis"},"federalState":{"key":"14","name":"Sachsen"}},{"name":"Riesenberger Str.","postalCode":"08309","locality":"Eibenstock","municipality":{"key":"14521170","name":"Eibenstock, Stadt","type":"Stadt"},"district":{"key":"14521","name":"Erzgebirgskreis","type":"Landkreis"},"federalState":{"key":"14","name":"Sachsen"}},{"name":"Riesentannenweg","postalCode":"08309","locality":"Eibenstock","municipality":{"key":"14521170","name":"Eibenstock, Stadt","type":"Stadt"},"district":{"key":"14521","name":"Erzgebirgskreis","type":"Landkreis"},"federalState":{"key":"14","name":"Sachsen"}},{"name":"Ringstr.","postalCode":"08309","locality":"Eibenstock","municipality":{"key":"14521170","name":"Eibenstock, Stadt","type":"Stadt"},"district":{"key":"14521","name":"Erzgebirgskreis","type":"Landkreis"},"federalState":{"key":"14","name":"Sachsen"}},{"name":"Rodelbahn","postalCode":"08309","locality":"Eibenstock","municipality":{"key":"14521170","name":"Eibenstock, Stadt","type":"Stadt"},"district":{"key":"14521","name":"Erzgebirgskreis","type":"Landkreis"},"federalState":{"key":"14","name":"Sachsen"}},{"name":"Rosa-Luxemburg-Str.","postalCode":"08309","locality":"Eibenstock","municipality":{"key":"14521170","name":"Eibenstock, Stadt","type":"Stadt"},"district":{"key":"14521","name":"Erzgebirgskreis","type":"Landkreis"},"federalState":{"key":"14","name":"Sachsen"}},{"name":"Rosenweg","postalCode":"08309","locality":"Eibenstock","municipality":{"key":"14521170","name":"Eibenstock, Stadt","type":"Stadt"},"district":{"key":"14521","name":"Erzgebirgskreis","type":"Landkreis"},"federalState":{"key":"14","name":"Sachsen"}},{"name":"Rotgrubener Str.","postalCode":"08309","locality":"Eibenstock","municipality":{"key":"14521170","name":"Eibenstock, Stadt","type":"Stadt"},"district":{"key":"14521","name":"Erzgebirgskreis","type":"Landkreis"},"federalState":{"key":"14","name":"Sachsen"}},{"name":"Rotgrubenweg","postalCode":"08309","locality":"Eibenstock","municipality":{"key":"14521170","name":"Eibenstock, Stadt","type":"Stadt"},"district":{"key":"14521","name":"Erzgebirgskreis","type":"Landkreis"},"federalState":{"key":"14","name":"Sachsen"}},{"name":"Röthenbachweg","postalCode":"08309","locality":"Eibenstock","municipality":{"key":"14521170","name":"Eibenstock, Stadt","type":"Stadt"},"district":{"key":"14521","name":"Erzgebirgskreis","type":"Landkreis"},"federalState":{"key":"14","name":"Sachsen"}},{"name":"Sachsenberger Weg","postalCode":"08309","locality":"Eibenstock","municipality":{"key":"14521170","name":"Eibenstock, Stadt","type":"Stadt"},"district":{"key":"14521","name":"Erzgebirgskreis","type":"Landkreis"},"federalState":{"key":"14","name":"Sachsen"}},{"name":"Sandbrunnenweg","postalCode":"08309","locality":"Eibenstock","municipality":{"key":"14521170","name":"Eibenstock, Stadt","type":"Stadt"},"district":{"key":"14521","name":"Erzgebirgskreis","type":"Landkreis"},"federalState":{"key":"14","name":"Sachsen"}},{"name":"Schießplatzweg","postalCode":"08309","locality":"Eibenstock","municipality":{"key":"14521170","name":"Eibenstock, Stadt","type":"Stadt"},"district":{"key":"14521","name":"Erzgebirgskreis","type":"Landkreis"},"federalState":{"key":"14","name":"Sachsen"}},{"name":"Schlangenweg","postalCode":"08309","locality":"Eibenstock","municipality":{"key":"14521170","name":"Eibenstock, Stadt","type":"Stadt"},"district":{"key":"14521","name":"Erzgebirgskreis","type":"Landkreis"},"federalState":{"key":"14","name":"Sachsen"}},{"name":"Schneeberger Str.","postalCode":"08309","locality":"Eibenstock","municipality":{"key":"14521170","name":"Eibenstock, Stadt","type":"Stadt"},"district":{"key":"14521","name":"Erzgebirgskreis","type":"Landkreis"},"federalState":{"key":"14","name":"Sachsen"}},{"name":"Schneehübelweg","postalCode":"08309","locality":"Eibenstock","municipality":{"key":"14521170","name":"Eibenstock, Stadt","type":"Stadt"},"district":{"key":"14521","name":"Erzgebirgskreis","type":"Landkreis"},"federalState":{"key":"14","name":"Sachsen"}},{"name":"Schnorr-v.-Carolsfeld-Weg","postalCode":"08309","locality":"Eibenstock","municipality":{"key":"14521170","name":"Eibenstock, Stadt","type":"Stadt"},"district":{"key":"14521","name":"Erzgebirgskreis","type":"Landkreis"},"federalState":{"key":"14","name":"Sachsen"}},{"name":"Schönheider Wiesenweg","postalCode":"08309","locality":"Eibenstock","municipality":{"key":"14521170","name":"Eibenstock, Stadt","type":"Stadt"},"district":{"key":"14521","name":"Erzgebirgskreis","type":"Landkreis"},"federalState":{"key":"14","name":"Sachsen"}},{"name":"Schulberg","postalCode":"08309","locality":"Eibenstock","municipality":{"key":"14521170","name":"Eibenstock, Stadt","type":"Stadt"},"district":{"key":"14521","name":"Erzgebirgskreis","type":"Landkreis"},"federalState":{"key":"14","name":"Sachsen"}},{"name":"Schulgäßchen","postalCode":"08309","locality":"Eibenstock","municipality":{"key":"14521170","name":"Eibenstock, Stadt","type":"Stadt"},"district":{"key":"14521","name":"Erzgebirgskreis","type":"Landkreis"},"federalState":{"key":"14","name":"Sachsen"}},{"name":"Schulmeisterweg","postalCode":"08309","locality":"Eibenstock","municipality":{"key":"14521170","name":"Eibenstock, Stadt","type":"Stadt"},"district":{"key":"14521","name":"Erzgebirgskreis","type":"Landkreis"},"federalState":{"key":"14","name":"Sachsen"}},{"name":"Schulstr.","postalCode":"08309","locality":"Eibenstock","municipality":{"key":"14521170","name":"Eibenstock, Stadt","type":"Stadt"},"district":{"key":"14521","name":"Erzgebirgskreis","type":"Landkreis"},"federalState":{"key":"14","name":"Sachsen"}},{"name":"Schützenstr.","postalCode":"08309","locality":"Eibenstock","municipality":{"key":"14521170","name":"Eibenstock, Stadt","type":"Stadt"},"district":{"key":"14521","name":"Erzgebirgskreis","type":"Landkreis"},"federalState":{"key":"14","name":"Sachsen"}},{"name":"Schwalbenweg","postalCode":"08309","locality":"Eibenstock","municipality":{"key":"14521170","name":"Eibenstock, Stadt","type":"Stadt"},"district":{"key":"14521","name":"Erzgebirgskreis","type":"Landkreis"},"federalState":{"key":"14","name":"Sachsen"}},{"name":"Schwarzenberger Str.","postalCode":"08309","locality":"Eibenstock","municipality":{"key":"14521170","name":"Eibenstock, Stadt","type":"Stadt"},"district":{"key":"14521","name":"Erzgebirgskreis","type":"Landkreis"},"federalState":{"key":"14","name":"Sachsen"}},{"name":"Seifenlehrpfad","postalCode":"08309","locality":"Eibenstock","municipality":{"key":"14521170","name":"Eibenstock, Stadt","type":"Stadt"},"district":{"key":"14521","name":"Erzgebirgskreis","type":"Landkreis"},"federalState":{"key":"14","name":"Sachsen"}},{"name":"Seitenflügel","postalCode":"08309","locality":"Eibenstock","municipality":{"key":"14521170","name":"Eibenstock, Stadt","type":"Stadt"},"district":{"key":"14521","name":"Erzgebirgskreis","type":"Landkreis"},"federalState":{"key":"14","name":"Sachsen"}},{"name":"Siebener Str.","postalCode":"08309","locality":"Eibenstock","municipality":{"key":"14521170","name":"Eibenstock, Stadt","type":"Stadt"},"district":{"key":"14521","name":"Erzgebirgskreis","type":"Landkreis"},"federalState":{"key":"14","name":"Sachsen"}},{"name":"Siedlerstr.","postalCode":"08309","locality":"Eibenstock","municipality":{"key":"14521170","name":"Eibenstock, Stadt","type":"Stadt"},"district":{"key":"14521","name":"Erzgebirgskreis","type":"Landkreis"},"federalState":{"key":"14","name":"Sachsen"}},{"name":"Siedlung des Friedens","postalCode":"08309","locality":"Eibenstock","municipality":{"key":"14521170","name":"Eibenstock, Stadt","type":"Stadt"},"district":{"key":"14521","name":"Erzgebirgskreis","type":"Landkreis"},"federalState":{"key":"14","name":"Sachsen"}},{"name":"Siedlungsstr.","postalCode":"08309","locality":"Eibenstock","municipality":{"key":"14521170","name":"Eibenstock, Stadt","type":"Stadt"},"district":{"key":"14521","name":"Erzgebirgskreis","type":"Landkreis"},"federalState":{"key":"14","name":"Sachsen"}},{"name":"Siedlungsweg","postalCode":"08309","locality":"Eibenstock","municipality":{"key":"14521170","name":"Eibenstock, Stadt","type":"Stadt"},"district":{"key":"14521","name":"Erzgebirgskreis","type":"Landkreis"},"federalState":{"key":"14","name":"Sachsen"}},{"name":"Simmigweg","postalCode":"08309","locality":"Eibenstock","municipality":{"key":"14521170","name":"Eibenstock, Stadt","type":"Stadt"},"district":{"key":"14521","name":"Erzgebirgskreis","type":"Landkreis"},"federalState":{"key":"14","name":"Sachsen"}},{"name":"Sonneneck","postalCode":"08309","locality":"Eibenstock","municipality":{"key":"14521170","name":"Eibenstock, Stadt","type":"Stadt"},"district":{"key":"14521","name":"Erzgebirgskreis","type":"Landkreis"},"federalState":{"key":"14","name":"Sachsen"}},{"name":"Sosaer Steig","postalCode":"08309","locality":"Eibenstock","municipality":{"key":"14521170","name":"Eibenstock, Stadt","type":"Stadt"},"district":{"key":"14521","name":"Erzgebirgskreis","type":"Landkreis"},"federalState":{"key":"14","name":"Sachsen"}},{"name":"Sosaer Str.","postalCode":"08309","locality":"Eibenstock","municipality":{"key":"14521170","name":"Eibenstock, Stadt","type":"Stadt"},"district":{"key":"14521","name":"Erzgebirgskreis","type":"Landkreis"},"federalState":{"key":"14","name":"Sachsen"}},{"name":"Sosaer Weg","postalCode":"08309","locality":"Eibenstock","municipality":{"key":"14521170","name":"Eibenstock, Stadt","type":"Stadt"},"district":{"key":"14521","name":"Erzgebirgskreis","type":"Landkreis"},"federalState":{"key":"14","name":"Sachsen"}},{"name":"Spindlerweg","postalCode":"08309","locality":"Eibenstock","municipality":{"key":"14521170","name":"Eibenstock, Stadt","type":"Stadt"},"district":{"key":"14521","name":"Erzgebirgskreis","type":"Landkreis"},"federalState":{"key":"14","name":"Sachsen"}},{"name":"Spitzleithenweg","postalCode":"08309","locality":"Eibenstock","municipality":{"key":"14521170","name":"Eibenstock, Stadt","type":"Stadt"},"district":{"key":"14521","name":"Erzgebirgskreis","type":"Landkreis"},"federalState":{"key":"14","name":"Sachsen"}},{"name":"Stabhammerweg","postalCode":"08309","locality":"Eibenstock","municipality":{"key":"14521170","name":"Eibenstock, Stadt","type":"Stadt"},"district":{"key":"14521","name":"Erzgebirgskreis","type":"Landkreis"},"federalState":{"key":"14","name":"Sachsen"}},{"name":"Steinerne Brücke","postalCode":"08309","locality":"Eibenstock","municipality":{"key":"14521170","name":"Eibenstock, Stadt","type":"Stadt"},"district":{"key":"14521","name":"Erzgebirgskreis","type":"Landkreis"},"federalState":{"key":"14","name":"Sachsen"}},{"name":"Stephan-Dietrich-Str.","postalCode":"08309","locality":"Eibenstock","municipality":{"key":"14521170","name":"Eibenstock, Stadt","type":"Stadt"},"district":{"key":"14521","name":"Erzgebirgskreis","type":"Landkreis"},"federalState":{"key":"14","name":"Sachsen"}},{"name":"Sternflügel","postalCode":"08309","locality":"Eibenstock","municipality":{"key":"14521170","name":"Eibenstock, Stadt","type":"Stadt"},"district":{"key":"14521","name":"Erzgebirgskreis","type":"Landkreis"},"federalState":{"key":"14","name":"Sachsen"}},{"name":"Sternflügelweg","postalCode":"08309","locality":"Eibenstock","municipality":{"key":"14521170","name":"Eibenstock, Stadt","type":"Stadt"},"district":{"key":"14521","name":"Erzgebirgskreis","type":"Landkreis"},"federalState":{"key":"14","name":"Sachsen"}},{"name":"Str. der Einheit","postalCode":"08309","locality":"Eibenstock","municipality":{"key":"14521170","name":"Eibenstock, Stadt","type":"Stadt"},"district":{"key":"14521","name":"Erzgebirgskreis","type":"Landkreis"},"federalState":{"key":"14","name":"Sachsen"}},{"name":"Südstr.","postalCode":"08309","locality":"Eibenstock","municipality":{"key":"14521170","name":"Eibenstock, Stadt","type":"Stadt"},"district":{"key":"14521","name":"Erzgebirgskreis","type":"Landkreis"},"federalState":{"key":"14","name":"Sachsen"}},{"name":"Talsperrenstr.","postalCode":"08309","locality":"Eibenstock","municipality":{"key":"14521170","name":"Eibenstock, Stadt","type":"Stadt"},"district":{"key":"14521","name":"Erzgebirgskreis","type":"Landkreis"},"federalState":{"key":"14","name":"Sachsen"}},{"name":"Talsperrenweg","postalCode":"08309","locality":"Eibenstock","municipality":{"key":"14521170","name":"Eibenstock, Stadt","type":"Stadt"},"district":{"key":"14521","name":"Erzgebirgskreis","type":"Landkreis"},"federalState":{"key":"14","name":"Sachsen"}},{"name":"Tannenbaumer Strasse","postalCode":"08309","locality":"Eibenstock","municipality":{"key":"14521170","name":"Eibenstock, Stadt","type":"Stadt"},"district":{"key":"14521","name":"Erzgebirgskreis","type":"Landkreis"},"federalState":{"key":"14","name":"Sachsen"}},{"name":"Tannenweg","postalCode":"08309","locality":"Eibenstock","municipality":{"key":"14521170","name":"Eibenstock, Stadt","type":"Stadt"},"district":{"key":"14521","name":"Erzgebirgskreis","type":"Landkreis"},"federalState":{"key":"14","name":"Sachsen"}},{"name":"Tannenzechenweg","postalCode":"08309","locality":"Eibenstock","municipality":{"key":"14521170","name":"Eibenstock, Stadt","type":"Stadt"},"district":{"key":"14521","name":"Erzgebirgskreis","type":"Landkreis"},"federalState":{"key":"14","name":"Sachsen"}},{"name":"Teichgasse","postalCode":"08309","locality":"Eibenstock","municipality":{"key":"14521170","name":"Eibenstock, Stadt","type":"Stadt"},"district":{"key":"14521","name":"Erzgebirgskreis","type":"Landkreis"},"federalState":{"key":"14","name":"Sachsen"}},{"name":"Teichhäuselweg","postalCode":"08309","locality":"Eibenstock","municipality":{"key":"14521170","name":"Eibenstock, Stadt","type":"Stadt"},"district":{"key":"14521","name":"Erzgebirgskreis","type":"Landkreis"},"federalState":{"key":"14","name":"Sachsen"}},{"name":"Teichweg","postalCode":"08309","locality":"Eibenstock","municipality":{"key":"14521170","name":"Eibenstock, Stadt","type":"Stadt"},"district":{"key":"14521","name":"Erzgebirgskreis","type":"Landkreis"},"federalState":{"key":"14","name":"Sachsen"}},{"name":"Thiemannweg","postalCode":"08309","locality":"Eibenstock","municipality":{"key":"14521170","name":"Eibenstock, Stadt","type":"Stadt"},"district":{"key":"14521","name":"Erzgebirgskreis","type":"Landkreis"},"federalState":{"key":"14","name":"Sachsen"}},{"name":"Töllescher Graben Weg","postalCode":"08309","locality":"Eibenstock","municipality":{"key":"14521170","name":"Eibenstock, Stadt","type":"Stadt"},"district":{"key":"14521","name":"Erzgebirgskreis","type":"Landkreis"},"federalState":{"key":"14","name":"Sachsen"}},{"name":"Triftweg","postalCode":"08309","locality":"Eibenstock","municipality":{"key":"14521170","name":"Eibenstock, Stadt","type":"Stadt"},"district":{"key":"14521","name":"Erzgebirgskreis","type":"Landkreis"},"federalState":{"key":"14","name":"Sachsen"}},{"name":"Uhdestr.","postalCode":"08309","locality":"Eibenstock","municipality":{"key":"14521170","name":"Eibenstock, Stadt","type":"Stadt"},"district":{"key":"14521","name":"Erzgebirgskreis","type":"Landkreis"},"federalState":{"key":"14","name":"Sachsen"}},{"name":"Unterblauenthaler Weg","postalCode":"08309","locality":"Eibenstock","municipality":{"key":"14521170","name":"Eibenstock, Stadt","type":"Stadt"},"district":{"key":"14521","name":"Erzgebirgskreis","type":"Landkreis"},"federalState":{"key":"14","name":"Sachsen"}},{"name":"Untere Crottenseestr.","postalCode":"08309","locality":"Eibenstock","municipality":{"key":"14521170","name":"Eibenstock, Stadt","type":"Stadt"},"district":{"key":"14521","name":"Erzgebirgskreis","type":"Landkreis"},"federalState":{"key":"14","name":"Sachsen"}},{"name":"Viergesellweg","postalCode":"08309","locality":"Eibenstock","municipality":{"key":"14521170","name":"Eibenstock, Stadt","type":"Stadt"},"district":{"key":"14521","name":"Erzgebirgskreis","type":"Landkreis"},"federalState":{"key":"14","name":"Sachsen"}},{"name":"Vodelstr.","postalCode":"08309","locality":"Eibenstock","municipality":{"key":"14521170","name":"Eibenstock, Stadt","type":"Stadt"},"district":{"key":"14521","name":"Erzgebirgskreis","type":"Landkreis"},"federalState":{"key":"14","name":"Sachsen"}},{"name":"Vordere Rehmerstr.","postalCode":"08309","locality":"Eibenstock","municipality":{"key":"14521170","name":"Eibenstock, Stadt","type":"Stadt"},"district":{"key":"14521","name":"Erzgebirgskreis","type":"Landkreis"},"federalState":{"key":"14","name":"Sachsen"}},{"name":"Waldblick","postalCode":"08309","locality":"Eibenstock","municipality":{"key":"14521170","name":"Eibenstock, Stadt","type":"Stadt"},"district":{"key":"14521","name":"Erzgebirgskreis","type":"Landkreis"},"federalState":{"key":"14","name":"Sachsen"}},{"name":"Weg zur Handlung","postalCode":"08309","locality":"Eibenstock","municipality":{"key":"14521170","name":"Eibenstock, Stadt","type":"Stadt"},"district":{"key":"14521","name":"Erzgebirgskreis","type":"Landkreis"},"federalState":{"key":"14","name":"Sachsen"}},{"name":"Weststr.","postalCode":"08309","locality":"Eibenstock","municipality":{"key":"14521170","name":"Eibenstock, Stadt","type":"Stadt"},"district":{"key":"14521","name":"Erzgebirgskreis","type":"Landkreis"},"federalState":{"key":"14","name":"Sachsen"}},{"name":"Wiesenstr.","postalCode":"08309","locality":"Eibenstock","municipality":{"key":"14521170","name":"Eibenstock, Stadt","type":"Stadt"},"district":{"key":"14521","name":"Erzgebirgskreis","type":"Landkreis"},"federalState":{"key":"14","name":"Sachsen"}},{"name":"Wiesenweg","postalCode":"08309","locality":"Eibenstock","municipality":{"key":"14521170","name":"Eibenstock, Stadt","type":"Stadt"},"district":{"key":"14521","name":"Erzgebirgskreis","type":"Landkreis"},"federalState":{"key":"14","name":"Sachsen"}},{"name":"Wilzschhaus","postalCode":"08309","locality":"Eibenstock","municipality":{"key":"14521170","name":"Eibenstock, Stadt","type":"Stadt"},"district":{"key":"14521","name":"Erzgebirgskreis","type":"Landkreis"},"federalState":{"key":"14","name":"Sachsen"}},{"name":"Wilzschhäuserweg","postalCode":"08309","locality":"Eibenstock","municipality":{"key":"14521170","name":"Eibenstock, Stadt","type":"Stadt"},"district":{"key":"14521","name":"Erzgebirgskreis","type":"Landkreis"},"federalState":{"key":"14","name":"Sachsen"}},{"name":"Windischweg","postalCode":"08309","locality":"Eibenstock","municipality":{"key":"14521170","name":"Eibenstock, Stadt","type":"Stadt"},"district":{"key":"14521","name":"Erzgebirgskreis","type":"Landkreis"},"federalState":{"key":"14","name":"Sachsen"}},{"name":"Winklerstr.","postalCode":"08309","locality":"Eibenstock","municipality":{"key":"14521170","name":"Eibenstock, Stadt","type":"Stadt"},"district":{"key":"14521","name":"Erzgebirgskreis","type":"Landkreis"},"federalState":{"key":"14","name":"Sachsen"}},{"name":"Wintergrünweg","postalCode":"08309","locality":"Eibenstock","municipality":{"key":"14521170","name":"Eibenstock, Stadt","type":"Stadt"},"district":{"key":"14521","name":"Erzgebirgskreis","type":"Landkreis"},"federalState":{"key":"14","name":"Sachsen"}},{"name":"Wölfeweg","postalCode":"08309","locality":"Eibenstock","municipality":{"key":"14521170","name":"Eibenstock, Stadt","type":"Stadt"},"district":{"key":"14521","name":"Erzgebirgskreis","type":"Landkreis"},"federalState":{"key":"14","name":"Sachsen"}},{"name":"Wolfseifenbachweg","postalCode":"08309","locality":"Eibenstock","municipality":{"key":"14521170","name":"Eibenstock, Stadt","type":"Stadt"},"district":{"key":"14521","name":"Erzgebirgskreis","type":"Landkreis"},"federalState":{"key":"14","name":"Sachsen"}},{"name":"Wurzelrudis-Gipfelrunde","postalCode":"08309","locality":"Eibenstock","municipality":{"key":"14521170","name":"Eibenstock, Stadt","type":"Stadt"},"district":{"key":"14521","name":"Erzgebirgskreis","type":"Landkreis"},"federalState":{"key":"14","name":"Sachsen"}},{"name":"Wurzelweg","postalCode":"08309","locality":"Eibenstock","municipality":{"key":"14521170","name":"Eibenstock, Stadt","type":"Stadt"},"district":{"key":"14521","name":"Erzgebirgskreis","type":"Landkreis"},"federalState":{"key":"14","name":"Sachsen"}},{"name":"Ziegenbrücke","postalCode":"08309","locality":"Eibenstock","municipality":{"key":"14521170","name":"Eibenstock, Stadt","type":"Stadt"},"district":{"key":"14521","name":"Erzgebirgskreis","type":"Landkreis"},"federalState":{"key":"14","name":"Sachsen"}},{"name":"Zimmersacher Steig","postalCode":"08309","locality":"Eibenstock","municipality":{"key":"14521170","name":"Eibenstock, Stadt","type":"Stadt"},"district":{"key":"14521","name":"Erzgebirgskreis","type":"Landkreis"},"federalState":{"key":"14","name":"Sachsen"}},{"name":"Zimmersacherstr.","postalCode":"08309","locality":"Eibenstock","municipality":{"key":"14521170","name":"Eibenstock, Stadt","type":"Stadt"},"district":{"key":"14521","name":"Erzgebirgskreis","type":"Landkreis"},"federalState":{"key":"14","name":"Sachsen"}},{"name":"Zimmersacherweg","postalCode":"08309","locality":"Eibenstock","municipality":{"key":"14521170","name":"Eibenstock, Stadt","type":"Stadt"},"district":{"key":"14521","name":"Erzgebirgskreis","type":"Landkreis"},"federalState":{"key":"14","name":"Sachsen"}},{"name":"Zinnsteig","postalCode":"08309","locality":"Eibenstock","municipality":{"key":"14521170","name":"Eibenstock, Stadt","type":"Stadt"},"district":{"key":"14521","name":"Erzgebirgskreis","type":"Landkreis"},"federalState":{"key":"14","name":"Sachsen"}},{"name":"Zinnstr.","postalCode":"08309","locality":"Eibenstock","municipality":{"key":"14521170","name":"Eibenstock, Stadt","type":"Stadt"},"district":{"key":"14521","name":"Erzgebirgskreis","type":"Landkreis"},"federalState":{"key":"14","name":"Sachsen"}},]