[{"name":"Bergstr.","postalCode":"66484","locality":"Dietrichingen","municipality":{"key":"07340208","name":"Dietrichingen","type":"Kreisangehörige_Gemeinde"},"district":{"key":"07340","name":"Südwestpfalz","type":"Landkreis"},"federalState":{"key":"07","name":"Rheinland-Pfalz"}},{"name":"Feldstr.","postalCode":"66484","locality":"Dietrichingen","municipality":{"key":"07340208","name":"Dietrichingen","type":"Kreisangehörige_Gemeinde"},"district":{"key":"07340","name":"Südwestpfalz","type":"Landkreis"},"federalState":{"key":"07","name":"Rheinland-Pfalz"}},{"name":"Flurstr.","postalCode":"66484","locality":"Dietrichingen","municipality":{"key":"07340208","name":"Dietrichingen","type":"Kreisangehörige_Gemeinde"},"district":{"key":"07340","name":"Südwestpfalz","type":"Landkreis"},"federalState":{"key":"07","name":"Rheinland-Pfalz"}},{"name":"Gustav-Schmenger-Str.","postalCode":"66484","locality":"Dietrichingen","municipality":{"key":"07340208","name":"Dietrichingen","type":"Kreisangehörige_Gemeinde"},"district":{"key":"07340","name":"Südwestpfalz","type":"Landkreis"},"federalState":{"key":"07","name":"Rheinland-Pfalz"}},{"name":"Hauptstr.","postalCode":"66484","locality":"Dietrichingen","municipality":{"key":"07340208","name":"Dietrichingen","type":"Kreisangehörige_Gemeinde"},"district":{"key":"07340","name":"Südwestpfalz","type":"Landkreis"},"federalState":{"key":"07","name":"Rheinland-Pfalz"}},{"name":"Monbijou","postalCode":"66484","locality":"Dietrichingen","municipality":{"key":"07340208","name":"Dietrichingen","type":"Kreisangehörige_Gemeinde"},"district":{"key":"07340","name":"Südwestpfalz","type":"Landkreis"},"federalState":{"key":"07","name":"Rheinland-Pfalz"}},{"name":"Schulstr.","postalCode":"66484","locality":"Dietrichingen","municipality":{"key":"07340208","name":"Dietrichingen","type":"Kreisangehörige_Gemeinde"},"district":{"key":"07340","name":"Südwestpfalz","type":"Landkreis"},"federalState":{"key":"07","name":"Rheinland-Pfalz"}},{"name":"Waldstr.","postalCode":"66484","locality":"Dietrichingen","municipality":{"key":"07340208","name":"Dietrichingen","type":"Kreisangehörige_Gemeinde"},"district":{"key":"07340","name":"Südwestpfalz","type":"Landkreis"},"federalState":{"key":"07","name":"Rheinland-Pfalz"}},]