[{"key":"16070001","name":"Alkersleben","type":"Kreisangehörige_Gemeinde","postalCode":"99310","multiplePostalCodes":false,"association":{"key":"16070","name":"Riechheimer Berg","type":"Verwaltungsgemeinschaft"},"district":{"key":"16070","name":"Ilm-Kreis","type":"Landkreis"},"federalState":{"key":"16","name":"Thüringen"}},{"key":"16070004","name":"Arnstadt, Stadt","type":"Stadt","postalCode":"99310","multiplePostalCodes":false,"association":{"key":"16070","name":"Arnstadt, Stadt","type":"Verbandsfreie_Gemeinde"},"district":{"key":"16070","name":"Ilm-Kreis","type":"Landkreis"},"federalState":{"key":"16","name":"Thüringen"}},{"key":"16070006","name":"Bösleben-Wüllersleben","type":"Kreisangehörige_Gemeinde","postalCode":"99310","multiplePostalCodes":false,"association":{"key":"16070","name":"Riechheimer Berg","type":"Verwaltungsgemeinschaft"},"district":{"key":"16070","name":"Ilm-Kreis","type":"Landkreis"},"federalState":{"key":"16","name":"Thüringen"}},{"key":"16070008","name":"Dornheim","type":"Kreisangehörige_Gemeinde","postalCode":"99310","multiplePostalCodes":false,"association":{"key":"16070","name":"Riechheimer Berg","type":"Verwaltungsgemeinschaft"},"district":{"key":"16070","name":"Ilm-Kreis","type":"Landkreis"},"federalState":{"key":"16","name":"Thüringen"}},{"key":"16070011","name":"Elgersburg","type":"Kreisangehörige_Gemeinde","postalCode":"98716","multiplePostalCodes":true,"association":{"key":"16070","name":"Geratal/Plaue","type":"Verwaltungsgemeinschaft"},"district":{"key":"16070","name":"Ilm-Kreis","type":"Landkreis"},"federalState":{"key":"16","name":"Thüringen"}},{"key":"16070012","name":"Elleben","type":"Kreisangehörige_Gemeinde","postalCode":"99334","multiplePostalCodes":true,"association":{"key":"16070","name":"Riechheimer Berg","type":"Verwaltungsgemeinschaft"},"district":{"key":"16070","name":"Ilm-Kreis","type":"Landkreis"},"federalState":{"key":"16","name":"Thüringen"}},{"key":"16070013","name":"Elxleben","type":"Kreisangehörige_Gemeinde","postalCode":"99334","multiplePostalCodes":true,"association":{"key":"16070","name":"Riechheimer Berg","type":"Verwaltungsgemeinschaft"},"district":{"key":"16070","name":"Ilm-Kreis","type":"Landkreis"},"federalState":{"key":"16","name":"Thüringen"}},{"key":"16070028","name":"Amt Wachsenburg","type":"Kreisangehörige_Gemeinde","postalCode":"99334","multiplePostalCodes":false,"association":{"key":"16070","name":"Amt Wachsenburg","type":"Verbandsfreie_Gemeinde"},"district":{"key":"16070","name":"Ilm-Kreis","type":"Landkreis"},"federalState":{"key":"16","name":"Thüringen"}},{"key":"16070029","name":"Ilmenau, Stadt","type":"Stadt","postalCode":"98693","multiplePostalCodes":true,"association":{"key":"16070","name":"Ilmenau, Stadt","type":"Verbandsfreie_Gemeinde"},"district":{"key":"16070","name":"Ilm-Kreis","type":"Landkreis"},"federalState":{"key":"16","name":"Thüringen"}},{"key":"16070034","name":"Martinroda","type":"Kreisangehörige_Gemeinde","postalCode":"98693","multiplePostalCodes":true,"association":{"key":"16070","name":"Geratal/Plaue","type":"Verwaltungsgemeinschaft"},"district":{"key":"16070","name":"Ilm-Kreis","type":"Landkreis"},"federalState":{"key":"16","name":"Thüringen"}},{"key":"16070041","name":"Osthausen-Wülfershausen","type":"Kreisangehörige_Gemeinde","postalCode":"99310","multiplePostalCodes":false,"association":{"key":"16070","name":"Riechheimer Berg","type":"Verwaltungsgemeinschaft"},"district":{"key":"16070","name":"Ilm-Kreis","type":"Landkreis"},"federalState":{"key":"16","name":"Thüringen"}},{"key":"16070043","name":"Plaue, Stadt","type":"Stadt","postalCode":"99338","multiplePostalCodes":true,"association":{"key":"16070","name":"Geratal/Plaue","type":"Verwaltungsgemeinschaft"},"district":{"key":"16070","name":"Ilm-Kreis","type":"Landkreis"},"federalState":{"key":"16","name":"Thüringen"}},{"key":"16070048","name":"Stadtilm, Stadt","type":"Stadt","postalCode":"99326","multiplePostalCodes":false,"association":{"key":"16070","name":"Stadtilm, Stadt","type":"Verbandsfreie_Gemeinde"},"district":{"key":"16070","name":"Ilm-Kreis","type":"Landkreis"},"federalState":{"key":"16","name":"Thüringen"}},{"key":"16070054","name":"Witzleben","type":"Kreisangehörige_Gemeinde","postalCode":"99310","multiplePostalCodes":false,"association":{"key":"16070","name":"Riechheimer Berg","type":"Verwaltungsgemeinschaft"},"district":{"key":"16070","name":"Ilm-Kreis","type":"Landkreis"},"federalState":{"key":"16","name":"Thüringen"}},{"key":"16070057","name":"Geratal","type":"Kreisangehörige_Gemeinde","postalCode":"99330","multiplePostalCodes":true,"association":{"key":"16070","name":"Geratal","type":"Verbandsfreie_Gemeinde"},"district":{"key":"16070","name":"Ilm-Kreis","type":"Landkreis"},"federalState":{"key":"16","name":"Thüringen"}},{"key":"16070058","name":"Großbreitenbach, Stadt","type":"Stadt","postalCode":"98701","multiplePostalCodes":false,"association":{"key":"16070","name":"Großbreitenbach, Stadt","type":"Verbandsfreie_Gemeinde"},"district":{"key":"16070","name":"Ilm-Kreis","type":"Landkreis"},"federalState":{"key":"16","name":"Thüringen"}}]