[{"name":"Ahornstr.","postalCode":"82237","locality":"Wörthsee","municipality":{"key":"09188145","name":"Wörthsee","type":"Kreisangehörige_Gemeinde"},"district":{"key":"09188","name":"Starnberg","type":"Landkreis"},"federalState":{"key":"09","name":"Bayern"}},{"name":"Alpenblick","postalCode":"82237","locality":"Wörthsee","municipality":{"key":"09188145","name":"Wörthsee","type":"Kreisangehörige_Gemeinde"},"district":{"key":"09188","name":"Starnberg","type":"Landkreis"},"federalState":{"key":"09","name":"Bayern"}},{"name":"Am Bacherl","postalCode":"82237","locality":"Wörthsee","municipality":{"key":"09188145","name":"Wörthsee","type":"Kreisangehörige_Gemeinde"},"district":{"key":"09188","name":"Starnberg","type":"Landkreis"},"federalState":{"key":"09","name":"Bayern"}},{"name":"Am Bichlberg","postalCode":"82237","locality":"Wörthsee","municipality":{"key":"09188145","name":"Wörthsee","type":"Kreisangehörige_Gemeinde"},"district":{"key":"09188","name":"Starnberg","type":"Landkreis"},"federalState":{"key":"09","name":"Bayern"}},{"name":"Am Hochanger","postalCode":"82237","locality":"Wörthsee","municipality":{"key":"09188145","name":"Wörthsee","type":"Kreisangehörige_Gemeinde"},"district":{"key":"09188","name":"Starnberg","type":"Landkreis"},"federalState":{"key":"09","name":"Bayern"}},{"name":"Am Oberfeld","postalCode":"82237","locality":"Wörthsee","municipality":{"key":"09188145","name":"Wörthsee","type":"Kreisangehörige_Gemeinde"},"district":{"key":"09188","name":"Starnberg","type":"Landkreis"},"federalState":{"key":"09","name":"Bayern"}},{"name":"Am Pfeifenberg","postalCode":"82237","locality":"Wörthsee","municipality":{"key":"09188145","name":"Wörthsee","type":"Kreisangehörige_Gemeinde"},"district":{"key":"09188","name":"Starnberg","type":"Landkreis"},"federalState":{"key":"09","name":"Bayern"}},{"name":"Am Schererberg","postalCode":"82237","locality":"Wörthsee","municipality":{"key":"09188145","name":"Wörthsee","type":"Kreisangehörige_Gemeinde"},"district":{"key":"09188","name":"Starnberg","type":"Landkreis"},"federalState":{"key":"09","name":"Bayern"}},{"name":"Amselweg","postalCode":"82237","locality":"Wörthsee","municipality":{"key":"09188145","name":"Wörthsee","type":"Kreisangehörige_Gemeinde"},"district":{"key":"09188","name":"Starnberg","type":"Landkreis"},"federalState":{"key":"09","name":"Bayern"}},{"name":"Am Steinberg","postalCode":"82237","locality":"Wörthsee","municipality":{"key":"09188145","name":"Wörthsee","type":"Kreisangehörige_Gemeinde"},"district":{"key":"09188","name":"Starnberg","type":"Landkreis"},"federalState":{"key":"09","name":"Bayern"}},{"name":"Am Teilsrain","postalCode":"82237","locality":"Wörthsee","municipality":{"key":"09188145","name":"Wörthsee","type":"Kreisangehörige_Gemeinde"},"district":{"key":"09188","name":"Starnberg","type":"Landkreis"},"federalState":{"key":"09","name":"Bayern"}},{"name":"Am Weiher","postalCode":"82237","locality":"Wörthsee","municipality":{"key":"09188145","name":"Wörthsee","type":"Kreisangehörige_Gemeinde"},"district":{"key":"09188","name":"Starnberg","type":"Landkreis"},"federalState":{"key":"09","name":"Bayern"}},{"name":"Auinger Str.","postalCode":"82237","locality":"Wörthsee","municipality":{"key":"09188145","name":"Wörthsee","type":"Kreisangehörige_Gemeinde"},"district":{"key":"09188","name":"Starnberg","type":"Landkreis"},"federalState":{"key":"09","name":"Bayern"}},{"name":"Bahnhofstr.","postalCode":"82237","locality":"Wörthsee","municipality":{"key":"09188145","name":"Wörthsee","type":"Kreisangehörige_Gemeinde"},"district":{"key":"09188","name":"Starnberg","type":"Landkreis"},"federalState":{"key":"09","name":"Bayern"}},{"name":"Birkenweg","postalCode":"82237","locality":"Wörthsee","municipality":{"key":"09188145","name":"Wörthsee","type":"Kreisangehörige_Gemeinde"},"district":{"key":"09188","name":"Starnberg","type":"Landkreis"},"federalState":{"key":"09","name":"Bayern"}},{"name":"Blumenweg","postalCode":"82237","locality":"Wörthsee","municipality":{"key":"09188145","name":"Wörthsee","type":"Kreisangehörige_Gemeinde"},"district":{"key":"09188","name":"Starnberg","type":"Landkreis"},"federalState":{"key":"09","name":"Bayern"}},{"name":"Brückenweg","postalCode":"82237","locality":"Wörthsee","municipality":{"key":"09188145","name":"Wörthsee","type":"Kreisangehörige_Gemeinde"},"district":{"key":"09188","name":"Starnberg","type":"Landkreis"},"federalState":{"key":"09","name":"Bayern"}},{"name":"Buchenweg","postalCode":"82237","locality":"Wörthsee","municipality":{"key":"09188145","name":"Wörthsee","type":"Kreisangehörige_Gemeinde"},"district":{"key":"09188","name":"Starnberg","type":"Landkreis"},"federalState":{"key":"09","name":"Bayern"}},{"name":"Buchteil","postalCode":"82237","locality":"Wörthsee","municipality":{"key":"09188145","name":"Wörthsee","type":"Kreisangehörige_Gemeinde"},"district":{"key":"09188","name":"Starnberg","type":"Landkreis"},"federalState":{"key":"09","name":"Bayern"}},{"name":"Bullachstr.","postalCode":"82237","locality":"Wörthsee","municipality":{"key":"09188145","name":"Wörthsee","type":"Kreisangehörige_Gemeinde"},"district":{"key":"09188","name":"Starnberg","type":"Landkreis"},"federalState":{"key":"09","name":"Bayern"}},{"name":"Burgselberg","postalCode":"82237","locality":"Wörthsee","municipality":{"key":"09188145","name":"Wörthsee","type":"Kreisangehörige_Gemeinde"},"district":{"key":"09188","name":"Starnberg","type":"Landkreis"},"federalState":{"key":"09","name":"Bayern"}},{"name":"Carolinenstr.","postalCode":"82319","locality":"Starnberg","municipality":{"key":"09188139","name":"Starnberg, St","type":"Stadt"},"district":{"key":"09188","name":"Starnberg","type":"Landkreis"},"federalState":{"key":"09","name":"Bayern"}},{"name":"Dahlienweg","postalCode":"82237","locality":"Wörthsee","municipality":{"key":"09188145","name":"Wörthsee","type":"Kreisangehörige_Gemeinde"},"district":{"key":"09188","name":"Starnberg","type":"Landkreis"},"federalState":{"key":"09","name":"Bayern"}},{"name":"Dettmarweg","postalCode":"82237","locality":"Wörthsee","municipality":{"key":"09188145","name":"Wörthsee","type":"Kreisangehörige_Gemeinde"},"district":{"key":"09188","name":"Starnberg","type":"Landkreis"},"federalState":{"key":"09","name":"Bayern"}},{"name":"Dorfstr.","postalCode":"82237","locality":"Wörthsee","municipality":{"key":"09188145","name":"Wörthsee","type":"Kreisangehörige_Gemeinde"},"district":{"key":"09188","name":"Starnberg","type":"Landkreis"},"federalState":{"key":"09","name":"Bayern"}},{"name":"Drosselgasse","postalCode":"82237","locality":"Wörthsee","municipality":{"key":"09188145","name":"Wörthsee","type":"Kreisangehörige_Gemeinde"},"district":{"key":"09188","name":"Starnberg","type":"Landkreis"},"federalState":{"key":"09","name":"Bayern"}},{"name":"Eichenweg","postalCode":"82237","locality":"Wörthsee","municipality":{"key":"09188145","name":"Wörthsee","type":"Kreisangehörige_Gemeinde"},"district":{"key":"09188","name":"Starnberg","type":"Landkreis"},"federalState":{"key":"09","name":"Bayern"}},{"name":"Enzianweg","postalCode":"82237","locality":"Wörthsee","municipality":{"key":"09188145","name":"Wörthsee","type":"Kreisangehörige_Gemeinde"},"district":{"key":"09188","name":"Starnberg","type":"Landkreis"},"federalState":{"key":"09","name":"Bayern"}},{"name":"Erlenweg","postalCode":"82237","locality":"Wörthsee","municipality":{"key":"09188145","name":"Wörthsee","type":"Kreisangehörige_Gemeinde"},"district":{"key":"09188","name":"Starnberg","type":"Landkreis"},"federalState":{"key":"09","name":"Bayern"}},{"name":"Etterschlager Str.","postalCode":"82237","locality":"Wörthsee","municipality":{"key":"09188145","name":"Wörthsee","type":"Kreisangehörige_Gemeinde"},"district":{"key":"09188","name":"Starnberg","type":"Landkreis"},"federalState":{"key":"09","name":"Bayern"}},{"name":"Fasanenweg","postalCode":"82237","locality":"Wörthsee","municipality":{"key":"09188145","name":"Wörthsee","type":"Kreisangehörige_Gemeinde"},"district":{"key":"09188","name":"Starnberg","type":"Landkreis"},"federalState":{"key":"09","name":"Bayern"}},{"name":"Fichtenstr.","postalCode":"82237","locality":"Wörthsee","municipality":{"key":"09188145","name":"Wörthsee","type":"Kreisangehörige_Gemeinde"},"district":{"key":"09188","name":"Starnberg","type":"Landkreis"},"federalState":{"key":"09","name":"Bayern"}},{"name":"Finkenweg","postalCode":"82237","locality":"Wörthsee","municipality":{"key":"09188145","name":"Wörthsee","type":"Kreisangehörige_Gemeinde"},"district":{"key":"09188","name":"Starnberg","type":"Landkreis"},"federalState":{"key":"09","name":"Bayern"}},{"name":"Fliederstr.","postalCode":"82237","locality":"Wörthsee","municipality":{"key":"09188145","name":"Wörthsee","type":"Kreisangehörige_Gemeinde"},"district":{"key":"09188","name":"Starnberg","type":"Landkreis"},"federalState":{"key":"09","name":"Bayern"}},{"name":"Graf-Toerring-Str.","postalCode":"82237","locality":"Wörthsee","municipality":{"key":"09188145","name":"Wörthsee","type":"Kreisangehörige_Gemeinde"},"district":{"key":"09188","name":"Starnberg","type":"Landkreis"},"federalState":{"key":"09","name":"Bayern"}},{"name":"Grünlandstr.","postalCode":"82237","locality":"Wörthsee","municipality":{"key":"09188145","name":"Wörthsee","type":"Kreisangehörige_Gemeinde"},"district":{"key":"09188","name":"Starnberg","type":"Landkreis"},"federalState":{"key":"09","name":"Bayern"}},{"name":"Günteringer Str.","postalCode":"82237","locality":"Wörthsee","municipality":{"key":"09188145","name":"Wörthsee","type":"Kreisangehörige_Gemeinde"},"district":{"key":"09188","name":"Starnberg","type":"Landkreis"},"federalState":{"key":"09","name":"Bayern"}},{"name":"Hauptstr.","postalCode":"82237","locality":"Wörthsee","municipality":{"key":"09188145","name":"Wörthsee","type":"Kreisangehörige_Gemeinde"},"district":{"key":"09188","name":"Starnberg","type":"Landkreis"},"federalState":{"key":"09","name":"Bayern"}},{"name":"Herbergstr.","postalCode":"82237","locality":"Wörthsee","municipality":{"key":"09188145","name":"Wörthsee","type":"Kreisangehörige_Gemeinde"},"district":{"key":"09188","name":"Starnberg","type":"Landkreis"},"federalState":{"key":"09","name":"Bayern"}},{"name":"Hintere Seestr.","postalCode":"82237","locality":"Wörthsee","municipality":{"key":"09188145","name":"Wörthsee","type":"Kreisangehörige_Gemeinde"},"district":{"key":"09188","name":"Starnberg","type":"Landkreis"},"federalState":{"key":"09","name":"Bayern"}},{"name":"Hochstaudenweg","postalCode":"82237","locality":"Wörthsee","municipality":{"key":"09188145","name":"Wörthsee","type":"Kreisangehörige_Gemeinde"},"district":{"key":"09188","name":"Starnberg","type":"Landkreis"},"federalState":{"key":"09","name":"Bayern"}},{"name":"Hochweg","postalCode":"82237","locality":"Wörthsee","municipality":{"key":"09188145","name":"Wörthsee","type":"Kreisangehörige_Gemeinde"},"district":{"key":"09188","name":"Starnberg","type":"Landkreis"},"federalState":{"key":"09","name":"Bayern"}},{"name":"Im Buchteil","postalCode":"82237","locality":"Wörthsee","municipality":{"key":"09188145","name":"Wörthsee","type":"Kreisangehörige_Gemeinde"},"district":{"key":"09188","name":"Starnberg","type":"Landkreis"},"federalState":{"key":"09","name":"Bayern"}},{"name":"Im Grund","postalCode":"82237","locality":"Wörthsee","municipality":{"key":"09188145","name":"Wörthsee","type":"Kreisangehörige_Gemeinde"},"district":{"key":"09188","name":"Starnberg","type":"Landkreis"},"federalState":{"key":"09","name":"Bayern"}},{"name":"Inninger Str.","postalCode":"82237","locality":"Wörthsee","municipality":{"key":"09188145","name":"Wörthsee","type":"Kreisangehörige_Gemeinde"},"district":{"key":"09188","name":"Starnberg","type":"Landkreis"},"federalState":{"key":"09","name":"Bayern"}},{"name":"Jägerstr.","postalCode":"82237","locality":"Wörthsee","municipality":{"key":"09188145","name":"Wörthsee","type":"Kreisangehörige_Gemeinde"},"district":{"key":"09188","name":"Starnberg","type":"Landkreis"},"federalState":{"key":"09","name":"Bayern"}},{"name":"Joachim-Königbauer-Weg","postalCode":"82237","locality":"Wörthsee","municipality":{"key":"09188145","name":"Wörthsee","type":"Kreisangehörige_Gemeinde"},"district":{"key":"09188","name":"Starnberg","type":"Landkreis"},"federalState":{"key":"09","name":"Bayern"}},{"name":"Karpfhofweg","postalCode":"82237","locality":"Wörthsee","municipality":{"key":"09188145","name":"Wörthsee","type":"Kreisangehörige_Gemeinde"},"district":{"key":"09188","name":"Starnberg","type":"Landkreis"},"federalState":{"key":"09","name":"Bayern"}},{"name":"Kiebitzstr.","postalCode":"82237","locality":"Wörthsee","municipality":{"key":"09188145","name":"Wörthsee","type":"Kreisangehörige_Gemeinde"},"district":{"key":"09188","name":"Starnberg","type":"Landkreis"},"federalState":{"key":"09","name":"Bayern"}},{"name":"Kirchweg","postalCode":"82237","locality":"Wörthsee","municipality":{"key":"09188145","name":"Wörthsee","type":"Kreisangehörige_Gemeinde"},"district":{"key":"09188","name":"Starnberg","type":"Landkreis"},"federalState":{"key":"09","name":"Bayern"}},{"name":"Kuckuckstr.","postalCode":"82237","locality":"Wörthsee","municipality":{"key":"09188145","name":"Wörthsee","type":"Kreisangehörige_Gemeinde"},"district":{"key":"09188","name":"Starnberg","type":"Landkreis"},"federalState":{"key":"09","name":"Bayern"}},{"name":"Lerchenstr.","postalCode":"82237","locality":"Wörthsee","municipality":{"key":"09188145","name":"Wörthsee","type":"Kreisangehörige_Gemeinde"},"district":{"key":"09188","name":"Starnberg","type":"Landkreis"},"federalState":{"key":"09","name":"Bayern"}},{"name":"Lindenweg","postalCode":"82237","locality":"Wörthsee","municipality":{"key":"09188145","name":"Wörthsee","type":"Kreisangehörige_Gemeinde"},"district":{"key":"09188","name":"Starnberg","type":"Landkreis"},"federalState":{"key":"09","name":"Bayern"}},{"name":"Mauerner Str.","postalCode":"82237","locality":"Wörthsee","municipality":{"key":"09188145","name":"Wörthsee","type":"Kreisangehörige_Gemeinde"},"district":{"key":"09188","name":"Starnberg","type":"Landkreis"},"federalState":{"key":"09","name":"Bayern"}},{"name":"Meilinger Str.","postalCode":"82237","locality":"Wörthsee","municipality":{"key":"09188145","name":"Wörthsee","type":"Kreisangehörige_Gemeinde"},"district":{"key":"09188","name":"Starnberg","type":"Landkreis"},"federalState":{"key":"09","name":"Bayern"}},{"name":"Meisenweg","postalCode":"82237","locality":"Wörthsee","municipality":{"key":"09188145","name":"Wörthsee","type":"Kreisangehörige_Gemeinde"},"district":{"key":"09188","name":"Starnberg","type":"Landkreis"},"federalState":{"key":"09","name":"Bayern"}},{"name":"Moosbichlweg","postalCode":"82237","locality":"Wörthsee","municipality":{"key":"09188145","name":"Wörthsee","type":"Kreisangehörige_Gemeinde"},"district":{"key":"09188","name":"Starnberg","type":"Landkreis"},"federalState":{"key":"09","name":"Bayern"}},{"name":"Muldenstr.","postalCode":"82237","locality":"Wörthsee","municipality":{"key":"09188145","name":"Wörthsee","type":"Kreisangehörige_Gemeinde"},"district":{"key":"09188","name":"Starnberg","type":"Landkreis"},"federalState":{"key":"09","name":"Bayern"}},{"name":"Münchner Str.","postalCode":"82237","locality":"Wörthsee","municipality":{"key":"09188145","name":"Wörthsee","type":"Kreisangehörige_Gemeinde"},"district":{"key":"09188","name":"Starnberg","type":"Landkreis"},"federalState":{"key":"09","name":"Bayern"}},{"name":"Neusiedlungsstr.","postalCode":"82237","locality":"Wörthsee","municipality":{"key":"09188145","name":"Wörthsee","type":"Kreisangehörige_Gemeinde"},"district":{"key":"09188","name":"Starnberg","type":"Landkreis"},"federalState":{"key":"09","name":"Bayern"}},{"name":"Obere Dorfstr.","postalCode":"82237","locality":"Wörthsee","municipality":{"key":"09188145","name":"Wörthsee","type":"Kreisangehörige_Gemeinde"},"district":{"key":"09188","name":"Starnberg","type":"Landkreis"},"federalState":{"key":"09","name":"Bayern"}},{"name":"Obere Seeleite","postalCode":"82237","locality":"Wörthsee","municipality":{"key":"09188145","name":"Wörthsee","type":"Kreisangehörige_Gemeinde"},"district":{"key":"09188","name":"Starnberg","type":"Landkreis"},"federalState":{"key":"09","name":"Bayern"}},{"name":"Osterholzweg","postalCode":"82237","locality":"Wörthsee","municipality":{"key":"09188145","name":"Wörthsee","type":"Kreisangehörige_Gemeinde"},"district":{"key":"09188","name":"Starnberg","type":"Landkreis"},"federalState":{"key":"09","name":"Bayern"}},{"name":"Panoramaweg","postalCode":"82237","locality":"Wörthsee","municipality":{"key":"09188145","name":"Wörthsee","type":"Kreisangehörige_Gemeinde"},"district":{"key":"09188","name":"Starnberg","type":"Landkreis"},"federalState":{"key":"09","name":"Bayern"}},{"name":"Pfarrer-Elmar-Schnitzler-Weg","postalCode":"82237","locality":"Wörthsee","municipality":{"key":"09188145","name":"Wörthsee","type":"Kreisangehörige_Gemeinde"},"district":{"key":"09188","name":"Starnberg","type":"Landkreis"},"federalState":{"key":"09","name":"Bayern"}},{"name":"Rehsteig","postalCode":"82237","locality":"Wörthsee","municipality":{"key":"09188145","name":"Wörthsee","type":"Kreisangehörige_Gemeinde"},"district":{"key":"09188","name":"Starnberg","type":"Landkreis"},"federalState":{"key":"09","name":"Bayern"}},{"name":"Rosengasse","postalCode":"82237","locality":"Wörthsee","municipality":{"key":"09188145","name":"Wörthsee","type":"Kreisangehörige_Gemeinde"},"district":{"key":"09188","name":"Starnberg","type":"Landkreis"},"federalState":{"key":"09","name":"Bayern"}},{"name":"Schluifelder Str.","postalCode":"82237","locality":"Wörthsee","municipality":{"key":"09188145","name":"Wörthsee","type":"Kreisangehörige_Gemeinde"},"district":{"key":"09188","name":"Starnberg","type":"Landkreis"},"federalState":{"key":"09","name":"Bayern"}},{"name":"Schulstr.","postalCode":"82237","locality":"Wörthsee","municipality":{"key":"09188145","name":"Wörthsee","type":"Kreisangehörige_Gemeinde"},"district":{"key":"09188","name":"Starnberg","type":"Landkreis"},"federalState":{"key":"09","name":"Bayern"}},{"name":"Schwalbenweg","postalCode":"82237","locality":"Wörthsee","municipality":{"key":"09188145","name":"Wörthsee","type":"Kreisangehörige_Gemeinde"},"district":{"key":"09188","name":"Starnberg","type":"Landkreis"},"federalState":{"key":"09","name":"Bayern"}},{"name":"Seeblick","postalCode":"82237","locality":"Wörthsee","municipality":{"key":"09188145","name":"Wörthsee","type":"Kreisangehörige_Gemeinde"},"district":{"key":"09188","name":"Starnberg","type":"Landkreis"},"federalState":{"key":"09","name":"Bayern"}},{"name":"Seeleite","postalCode":"82237","locality":"Wörthsee","municipality":{"key":"09188145","name":"Wörthsee","type":"Kreisangehörige_Gemeinde"},"district":{"key":"09188","name":"Starnberg","type":"Landkreis"},"federalState":{"key":"09","name":"Bayern"}},{"name":"Seepromenade","postalCode":"82237","locality":"Wörthsee","municipality":{"key":"09188145","name":"Wörthsee","type":"Kreisangehörige_Gemeinde"},"district":{"key":"09188","name":"Starnberg","type":"Landkreis"},"federalState":{"key":"09","name":"Bayern"}},{"name":"Seestr.","postalCode":"82237","locality":"Wörthsee","municipality":{"key":"09188145","name":"Wörthsee","type":"Kreisangehörige_Gemeinde"},"district":{"key":"09188","name":"Starnberg","type":"Landkreis"},"federalState":{"key":"09","name":"Bayern"}},{"name":"Seeuferweg","postalCode":"82237","locality":"Wörthsee","municipality":{"key":"09188145","name":"Wörthsee","type":"Kreisangehörige_Gemeinde"},"district":{"key":"09188","name":"Starnberg","type":"Landkreis"},"federalState":{"key":"09","name":"Bayern"}},{"name":"Seewiese","postalCode":"82237","locality":"Wörthsee","municipality":{"key":"09188145","name":"Wörthsee","type":"Kreisangehörige_Gemeinde"},"district":{"key":"09188","name":"Starnberg","type":"Landkreis"},"federalState":{"key":"09","name":"Bayern"}},{"name":"Seglerweg","postalCode":"82237","locality":"Wörthsee","municipality":{"key":"09188145","name":"Wörthsee","type":"Kreisangehörige_Gemeinde"},"district":{"key":"09188","name":"Starnberg","type":"Landkreis"},"federalState":{"key":"09","name":"Bayern"}},{"name":"Sonnenwinkel","postalCode":"82237","locality":"Wörthsee","municipality":{"key":"09188145","name":"Wörthsee","type":"Kreisangehörige_Gemeinde"},"district":{"key":"09188","name":"Starnberg","type":"Landkreis"},"federalState":{"key":"09","name":"Bayern"}},{"name":"Steige","postalCode":"82237","locality":"Wörthsee","municipality":{"key":"09188145","name":"Wörthsee","type":"Kreisangehörige_Gemeinde"},"district":{"key":"09188","name":"Starnberg","type":"Landkreis"},"federalState":{"key":"09","name":"Bayern"}},{"name":"Steinebach, Bahnhof","postalCode":"82237","locality":"Wörthsee","municipality":{"key":"09188145","name":"Wörthsee","type":"Kreisangehörige_Gemeinde"},"district":{"key":"09188","name":"Starnberg","type":"Landkreis"},"federalState":{"key":"09","name":"Bayern"}},{"name":"St.-Florian-Weg","postalCode":"82237","locality":"Wörthsee","municipality":{"key":"09188145","name":"Wörthsee","type":"Kreisangehörige_Gemeinde"},"district":{"key":"09188","name":"Starnberg","type":"Landkreis"},"federalState":{"key":"09","name":"Bayern"}},{"name":"Sylvester-Hörndl-Str.","postalCode":"82237","locality":"Wörthsee","municipality":{"key":"09188145","name":"Wörthsee","type":"Kreisangehörige_Gemeinde"},"district":{"key":"09188","name":"Starnberg","type":"Landkreis"},"federalState":{"key":"09","name":"Bayern"}},{"name":"Taubenweg","postalCode":"82237","locality":"Wörthsee","municipality":{"key":"09188145","name":"Wörthsee","type":"Kreisangehörige_Gemeinde"},"district":{"key":"09188","name":"Starnberg","type":"Landkreis"},"federalState":{"key":"09","name":"Bayern"}},{"name":"Tulpenweg","postalCode":"82237","locality":"Wörthsee","municipality":{"key":"09188145","name":"Wörthsee","type":"Kreisangehörige_Gemeinde"},"district":{"key":"09188","name":"Starnberg","type":"Landkreis"},"federalState":{"key":"09","name":"Bayern"}},{"name":"Uhde-Bernays-Weg","postalCode":"82319","locality":"Starnberg","municipality":{"key":"09188139","name":"Starnberg, St","type":"Stadt"},"district":{"key":"09188","name":"Starnberg","type":"Landkreis"},"federalState":{"key":"09","name":"Bayern"}},{"name":"Uhdestr.","postalCode":"82319","locality":"Starnberg","municipality":{"key":"09188139","name":"Starnberg, St","type":"Stadt"},"district":{"key":"09188","name":"Starnberg","type":"Landkreis"},"federalState":{"key":"09","name":"Bayern"}},{"name":"Uneringer Str.","postalCode":"82319","locality":"Starnberg","municipality":{"key":"09188139","name":"Starnberg, St","type":"Stadt"},"district":{"key":"09188","name":"Starnberg","type":"Landkreis"},"federalState":{"key":"09","name":"Bayern"}},{"name":"Unterer Seeweg","postalCode":"82319","locality":"Starnberg","municipality":{"key":"09188139","name":"Starnberg, St","type":"Stadt"},"district":{"key":"09188","name":"Starnberg","type":"Landkreis"},"federalState":{"key":"09","name":"Bayern"}},{"name":"Unterschorn","postalCode":"82319","locality":"Starnberg","municipality":{"key":"09188139","name":"Starnberg, St","type":"Stadt"},"district":{"key":"09188","name":"Starnberg","type":"Landkreis"},"federalState":{"key":"09","name":"Bayern"}},{"name":"Vordere Seestr.","postalCode":"82237","locality":"Wörthsee","municipality":{"key":"09188145","name":"Wörthsee","type":"Kreisangehörige_Gemeinde"},"district":{"key":"09188","name":"Starnberg","type":"Landkreis"},"federalState":{"key":"09","name":"Bayern"}},{"name":"Waldbrunn","postalCode":"82237","locality":"Wörthsee","municipality":{"key":"09188145","name":"Wörthsee","type":"Kreisangehörige_Gemeinde"},"district":{"key":"09188","name":"Starnberg","type":"Landkreis"},"federalState":{"key":"09","name":"Bayern"}},{"name":"Waldstr.","postalCode":"82237","locality":"Wörthsee","municipality":{"key":"09188145","name":"Wörthsee","type":"Kreisangehörige_Gemeinde"},"district":{"key":"09188","name":"Starnberg","type":"Landkreis"},"federalState":{"key":"09","name":"Bayern"}},{"name":"Waldweg","postalCode":"82237","locality":"Wörthsee","municipality":{"key":"09188145","name":"Wörthsee","type":"Kreisangehörige_Gemeinde"},"district":{"key":"09188","name":"Starnberg","type":"Landkreis"},"federalState":{"key":"09","name":"Bayern"}},{"name":"Weßlinger Str.","postalCode":"82237","locality":"Wörthsee","municipality":{"key":"09188145","name":"Wörthsee","type":"Kreisangehörige_Gemeinde"},"district":{"key":"09188","name":"Starnberg","type":"Landkreis"},"federalState":{"key":"09","name":"Bayern"}},{"name":"Wörthsee Roßschwemme","postalCode":"82237","locality":"Wörthsee","municipality":{"key":"09188145","name":"Wörthsee","type":"Kreisangehörige_Gemeinde"},"district":{"key":"09188","name":"Starnberg","type":"Landkreis"},"federalState":{"key":"09","name":"Bayern"}},{"name":"Zeppelinpromenade","postalCode":"82319","locality":"Starnberg","municipality":{"key":"09188139","name":"Starnberg, St","type":"Stadt"},"district":{"key":"09188","name":"Starnberg","type":"Landkreis"},"federalState":{"key":"09","name":"Bayern"}},{"name":"Zirbelweg","postalCode":"82319","locality":"Starnberg","municipality":{"key":"09188139","name":"Starnberg, St","type":"Stadt"},"district":{"key":"09188","name":"Starnberg","type":"Landkreis"},"federalState":{"key":"09","name":"Bayern"}},{"name":"Zugspitzstr.","postalCode":"82319","locality":"Starnberg","municipality":{"key":"09188139","name":"Starnberg, St","type":"Stadt"},"district":{"key":"09188","name":"Starnberg","type":"Landkreis"},"federalState":{"key":"09","name":"Bayern"}},{"name":"Zugspitzstr.","postalCode":"82347","locality":"Bernried am Starnberger See","municipality":{"key":"09190115","name":"Bernried am Starnberger See","type":"Kreisangehörige_Gemeinde"},"district":{"key":"09190","name":"Weilheim-Schongau","type":"Landkreis"},"federalState":{"key":"09","name":"Bayern"}},{"name":"Zur Montesorischule","postalCode":"82319","locality":"Starnberg","municipality":{"key":"09188139","name":"Starnberg, St","type":"Stadt"},"district":{"key":"09188","name":"Starnberg","type":"Landkreis"},"federalState":{"key":"09","name":"Bayern"}},{"name":"Zweigstr.","postalCode":"82319","locality":"Starnberg","municipality":{"key":"09188139","name":"Starnberg, St","type":"Stadt"},"district":{"key":"09188","name":"Starnberg","type":"Landkreis"},"federalState":{"key":"09","name":"Bayern"}},]