[{"name":"Ackerstr.","postalCode":"15370","locality":"Fredersdorf-Vogelsdorf","municipality":{"key":"12064136","name":"Fredersdorf-Vogelsdorf","type":"Kreisangehörige_Gemeinde"},"district":{"key":"12064","name":"Märkisch-Oderland","type":"Landkreis"},"federalState":{"key":"12","name":"Brandenburg"}},{"name":"Adolf-Hoffmann-Str.","postalCode":"15370","locality":"Fredersdorf-Vogelsdorf","municipality":{"key":"12064136","name":"Fredersdorf-Vogelsdorf","type":"Kreisangehörige_Gemeinde"},"district":{"key":"12064","name":"Märkisch-Oderland","type":"Landkreis"},"federalState":{"key":"12","name":"Brandenburg"}},{"name":"Ahornstr.","postalCode":"15370","locality":"Fredersdorf-Vogelsdorf","municipality":{"key":"12064136","name":"Fredersdorf-Vogelsdorf","type":"Kreisangehörige_Gemeinde"},"district":{"key":"12064","name":"Märkisch-Oderland","type":"Landkreis"},"federalState":{"key":"12","name":"Brandenburg"}},{"name":"Akazienstr.","postalCode":"15370","locality":"Fredersdorf-Vogelsdorf","municipality":{"key":"12064136","name":"Fredersdorf-Vogelsdorf","type":"Kreisangehörige_Gemeinde"},"district":{"key":"12064","name":"Märkisch-Oderland","type":"Landkreis"},"federalState":{"key":"12","name":"Brandenburg"}},{"name":"Altlandsberger Chaussee","postalCode":"15370","locality":"Fredersdorf-Vogelsdorf","municipality":{"key":"12064136","name":"Fredersdorf-Vogelsdorf","type":"Kreisangehörige_Gemeinde"},"district":{"key":"12064","name":"Märkisch-Oderland","type":"Landkreis"},"federalState":{"key":"12","name":"Brandenburg"}},{"name":"Altlandsberger Weg","postalCode":"15370","locality":"Fredersdorf-Vogelsdorf","municipality":{"key":"12064136","name":"Fredersdorf-Vogelsdorf","type":"Kreisangehörige_Gemeinde"},"district":{"key":"12064","name":"Märkisch-Oderland","type":"Landkreis"},"federalState":{"key":"12","name":"Brandenburg"}},{"name":"Am Bahnhof","postalCode":"15370","locality":"Fredersdorf-Vogelsdorf","municipality":{"key":"12064136","name":"Fredersdorf-Vogelsdorf","type":"Kreisangehörige_Gemeinde"},"district":{"key":"12064","name":"Märkisch-Oderland","type":"Landkreis"},"federalState":{"key":"12","name":"Brandenburg"}},{"name":"Am Grassee","postalCode":"15370","locality":"Fredersdorf-Vogelsdorf","municipality":{"key":"12064136","name":"Fredersdorf-Vogelsdorf","type":"Kreisangehörige_Gemeinde"},"district":{"key":"12064","name":"Märkisch-Oderland","type":"Landkreis"},"federalState":{"key":"12","name":"Brandenburg"}},{"name":"Am Krummen See","postalCode":"15370","locality":"Fredersdorf-Vogelsdorf","municipality":{"key":"12064136","name":"Fredersdorf-Vogelsdorf","type":"Kreisangehörige_Gemeinde"},"district":{"key":"12064","name":"Märkisch-Oderland","type":"Landkreis"},"federalState":{"key":"12","name":"Brandenburg"}},{"name":"Am Rathaus","postalCode":"15370","locality":"Fredersdorf-Vogelsdorf","municipality":{"key":"12064136","name":"Fredersdorf-Vogelsdorf","type":"Kreisangehörige_Gemeinde"},"district":{"key":"12064","name":"Märkisch-Oderland","type":"Landkreis"},"federalState":{"key":"12","name":"Brandenburg"}},{"name":"Am Schlosspark","postalCode":"15370","locality":"Fredersdorf-Vogelsdorf","municipality":{"key":"12064136","name":"Fredersdorf-Vogelsdorf","type":"Kreisangehörige_Gemeinde"},"district":{"key":"12064","name":"Märkisch-Oderland","type":"Landkreis"},"federalState":{"key":"12","name":"Brandenburg"}},{"name":"Amselstr.","postalCode":"15370","locality":"Fredersdorf-Vogelsdorf","municipality":{"key":"12064136","name":"Fredersdorf-Vogelsdorf","type":"Kreisangehörige_Gemeinde"},"district":{"key":"12064","name":"Märkisch-Oderland","type":"Landkreis"},"federalState":{"key":"12","name":"Brandenburg"}},{"name":"Am Sportplatz","postalCode":"15370","locality":"Fredersdorf-Vogelsdorf","municipality":{"key":"12064136","name":"Fredersdorf-Vogelsdorf","type":"Kreisangehörige_Gemeinde"},"district":{"key":"12064","name":"Märkisch-Oderland","type":"Landkreis"},"federalState":{"key":"12","name":"Brandenburg"}},{"name":"An der Seestr.","postalCode":"15370","locality":"Fredersdorf-Vogelsdorf","municipality":{"key":"12064136","name":"Fredersdorf-Vogelsdorf","type":"Kreisangehörige_Gemeinde"},"district":{"key":"12064","name":"Märkisch-Oderland","type":"Landkreis"},"federalState":{"key":"12","name":"Brandenburg"}},{"name":"Anton-Saefkow-Str.","postalCode":"15370","locality":"Fredersdorf-Vogelsdorf","municipality":{"key":"12064136","name":"Fredersdorf-Vogelsdorf","type":"Kreisangehörige_Gemeinde"},"district":{"key":"12064","name":"Märkisch-Oderland","type":"Landkreis"},"federalState":{"key":"12","name":"Brandenburg"}},{"name":"Arndtstr.","postalCode":"15370","locality":"Fredersdorf-Vogelsdorf","municipality":{"key":"12064136","name":"Fredersdorf-Vogelsdorf","type":"Kreisangehörige_Gemeinde"},"district":{"key":"12064","name":"Märkisch-Oderland","type":"Landkreis"},"federalState":{"key":"12","name":"Brandenburg"}},{"name":"Bahnhofstr.","postalCode":"15370","locality":"Fredersdorf-Vogelsdorf","municipality":{"key":"12064136","name":"Fredersdorf-Vogelsdorf","type":"Kreisangehörige_Gemeinde"},"district":{"key":"12064","name":"Märkisch-Oderland","type":"Landkreis"},"federalState":{"key":"12","name":"Brandenburg"}},{"name":"Baumschulenstr.","postalCode":"15370","locality":"Fredersdorf-Vogelsdorf","municipality":{"key":"12064136","name":"Fredersdorf-Vogelsdorf","type":"Kreisangehörige_Gemeinde"},"district":{"key":"12064","name":"Märkisch-Oderland","type":"Landkreis"},"federalState":{"key":"12","name":"Brandenburg"}},{"name":"Beethovenstr.","postalCode":"15370","locality":"Fredersdorf-Vogelsdorf","municipality":{"key":"12064136","name":"Fredersdorf-Vogelsdorf","type":"Kreisangehörige_Gemeinde"},"district":{"key":"12064","name":"Märkisch-Oderland","type":"Landkreis"},"federalState":{"key":"12","name":"Brandenburg"}},{"name":"Beppo-Römer-Str.","postalCode":"15370","locality":"Fredersdorf-Vogelsdorf","municipality":{"key":"12064136","name":"Fredersdorf-Vogelsdorf","type":"Kreisangehörige_Gemeinde"},"district":{"key":"12064","name":"Märkisch-Oderland","type":"Landkreis"},"federalState":{"key":"12","name":"Brandenburg"}},{"name":"Berliner Str.","postalCode":"15370","locality":"Fredersdorf-Vogelsdorf","municipality":{"key":"12064136","name":"Fredersdorf-Vogelsdorf","type":"Kreisangehörige_Gemeinde"},"district":{"key":"12064","name":"Märkisch-Oderland","type":"Landkreis"},"federalState":{"key":"12","name":"Brandenburg"}},{"name":"Bettina-von-Arnim-Str.","postalCode":"15370","locality":"Fredersdorf-Vogelsdorf","municipality":{"key":"12064136","name":"Fredersdorf-Vogelsdorf","type":"Kreisangehörige_Gemeinde"},"district":{"key":"12064","name":"Märkisch-Oderland","type":"Landkreis"},"federalState":{"key":"12","name":"Brandenburg"}},{"name":"Birkeneck","postalCode":"15370","locality":"Fredersdorf-Vogelsdorf","municipality":{"key":"12064136","name":"Fredersdorf-Vogelsdorf","type":"Kreisangehörige_Gemeinde"},"district":{"key":"12064","name":"Märkisch-Oderland","type":"Landkreis"},"federalState":{"key":"12","name":"Brandenburg"}},{"name":"Birkenstr.","postalCode":"15370","locality":"Fredersdorf-Vogelsdorf","municipality":{"key":"12064136","name":"Fredersdorf-Vogelsdorf","type":"Kreisangehörige_Gemeinde"},"district":{"key":"12064","name":"Märkisch-Oderland","type":"Landkreis"},"federalState":{"key":"12","name":"Brandenburg"}},{"name":"Blumenstr.","postalCode":"15370","locality":"Fredersdorf-Vogelsdorf","municipality":{"key":"12064136","name":"Fredersdorf-Vogelsdorf","type":"Kreisangehörige_Gemeinde"},"district":{"key":"12064","name":"Märkisch-Oderland","type":"Landkreis"},"federalState":{"key":"12","name":"Brandenburg"}},{"name":"Böcklinstr.","postalCode":"15370","locality":"Fredersdorf-Vogelsdorf","municipality":{"key":"12064136","name":"Fredersdorf-Vogelsdorf","type":"Kreisangehörige_Gemeinde"},"district":{"key":"12064","name":"Märkisch-Oderland","type":"Landkreis"},"federalState":{"key":"12","name":"Brandenburg"}},{"name":"Bollensdorfer Allee","postalCode":"15370","locality":"Fredersdorf-Vogelsdorf","municipality":{"key":"12064136","name":"Fredersdorf-Vogelsdorf","type":"Kreisangehörige_Gemeinde"},"district":{"key":"12064","name":"Märkisch-Oderland","type":"Landkreis"},"federalState":{"key":"12","name":"Brandenburg"}},{"name":"Bonsaiweg","postalCode":"15370","locality":"Fredersdorf-Vogelsdorf","municipality":{"key":"12064136","name":"Fredersdorf-Vogelsdorf","type":"Kreisangehörige_Gemeinde"},"district":{"key":"12064","name":"Märkisch-Oderland","type":"Landkreis"},"federalState":{"key":"12","name":"Brandenburg"}},{"name":"Brahmsstr.","postalCode":"15370","locality":"Fredersdorf-Vogelsdorf","municipality":{"key":"12064136","name":"Fredersdorf-Vogelsdorf","type":"Kreisangehörige_Gemeinde"},"district":{"key":"12064","name":"Märkisch-Oderland","type":"Landkreis"},"federalState":{"key":"12","name":"Brandenburg"}},{"name":"Breite Str.","postalCode":"15370","locality":"Fredersdorf-Vogelsdorf","municipality":{"key":"12064136","name":"Fredersdorf-Vogelsdorf","type":"Kreisangehörige_Gemeinde"},"district":{"key":"12064","name":"Märkisch-Oderland","type":"Landkreis"},"federalState":{"key":"12","name":"Brandenburg"}},{"name":"Bruchmühler Str.","postalCode":"15370","locality":"Fredersdorf-Vogelsdorf","municipality":{"key":"12064136","name":"Fredersdorf-Vogelsdorf","type":"Kreisangehörige_Gemeinde"},"district":{"key":"12064","name":"Märkisch-Oderland","type":"Landkreis"},"federalState":{"key":"12","name":"Brandenburg"}},{"name":"Brückenstr.","postalCode":"15370","locality":"Fredersdorf-Vogelsdorf","municipality":{"key":"12064136","name":"Fredersdorf-Vogelsdorf","type":"Kreisangehörige_Gemeinde"},"district":{"key":"12064","name":"Märkisch-Oderland","type":"Landkreis"},"federalState":{"key":"12","name":"Brandenburg"}},{"name":"Brunhildstr.","postalCode":"15370","locality":"Fredersdorf-Vogelsdorf","municipality":{"key":"12064136","name":"Fredersdorf-Vogelsdorf","type":"Kreisangehörige_Gemeinde"},"district":{"key":"12064","name":"Märkisch-Oderland","type":"Landkreis"},"federalState":{"key":"12","name":"Brandenburg"}},{"name":"Buchenstr.","postalCode":"15370","locality":"Fredersdorf-Vogelsdorf","municipality":{"key":"12064136","name":"Fredersdorf-Vogelsdorf","type":"Kreisangehörige_Gemeinde"},"district":{"key":"12064","name":"Märkisch-Oderland","type":"Landkreis"},"federalState":{"key":"12","name":"Brandenburg"}},{"name":"Busentscher Weg","postalCode":"15370","locality":"Fredersdorf-Vogelsdorf","municipality":{"key":"12064136","name":"Fredersdorf-Vogelsdorf","type":"Kreisangehörige_Gemeinde"},"district":{"key":"12064","name":"Märkisch-Oderland","type":"Landkreis"},"federalState":{"key":"12","name":"Brandenburg"}},{"name":"Chamissostr.","postalCode":"15370","locality":"Fredersdorf-Vogelsdorf","municipality":{"key":"12064136","name":"Fredersdorf-Vogelsdorf","type":"Kreisangehörige_Gemeinde"},"district":{"key":"12064","name":"Märkisch-Oderland","type":"Landkreis"},"federalState":{"key":"12","name":"Brandenburg"}},{"name":"Clara-Zetkin-Str.","postalCode":"15370","locality":"Fredersdorf-Vogelsdorf","municipality":{"key":"12064136","name":"Fredersdorf-Vogelsdorf","type":"Kreisangehörige_Gemeinde"},"district":{"key":"12064","name":"Märkisch-Oderland","type":"Landkreis"},"federalState":{"key":"12","name":"Brandenburg"}},{"name":"Cranachstr.","postalCode":"15370","locality":"Fredersdorf-Vogelsdorf","municipality":{"key":"12064136","name":"Fredersdorf-Vogelsdorf","type":"Kreisangehörige_Gemeinde"},"district":{"key":"12064","name":"Märkisch-Oderland","type":"Landkreis"},"federalState":{"key":"12","name":"Brandenburg"}},{"name":"Dahmestr.","postalCode":"15370","locality":"Fredersdorf-Vogelsdorf","municipality":{"key":"12064136","name":"Fredersdorf-Vogelsdorf","type":"Kreisangehörige_Gemeinde"},"district":{"key":"12064","name":"Märkisch-Oderland","type":"Landkreis"},"federalState":{"key":"12","name":"Brandenburg"}},{"name":"Dieselstr.","postalCode":"15370","locality":"Fredersdorf-Vogelsdorf","municipality":{"key":"12064136","name":"Fredersdorf-Vogelsdorf","type":"Kreisangehörige_Gemeinde"},"district":{"key":"12064","name":"Märkisch-Oderland","type":"Landkreis"},"federalState":{"key":"12","name":"Brandenburg"}},{"name":"Dietrichstr.","postalCode":"15370","locality":"Fredersdorf-Vogelsdorf","municipality":{"key":"12064136","name":"Fredersdorf-Vogelsdorf","type":"Kreisangehörige_Gemeinde"},"district":{"key":"12064","name":"Märkisch-Oderland","type":"Landkreis"},"federalState":{"key":"12","name":"Brandenburg"}},{"name":"Dorfstr.","postalCode":"15370","locality":"Fredersdorf-Vogelsdorf","municipality":{"key":"12064136","name":"Fredersdorf-Vogelsdorf","type":"Kreisangehörige_Gemeinde"},"district":{"key":"12064","name":"Märkisch-Oderland","type":"Landkreis"},"federalState":{"key":"12","name":"Brandenburg"}},{"name":"Dürerstr.","postalCode":"15370","locality":"Fredersdorf-Vogelsdorf","municipality":{"key":"12064136","name":"Fredersdorf-Vogelsdorf","type":"Kreisangehörige_Gemeinde"},"district":{"key":"12064","name":"Märkisch-Oderland","type":"Landkreis"},"federalState":{"key":"12","name":"Brandenburg"}},{"name":"Ebereschenstr.","postalCode":"15370","locality":"Fredersdorf-Vogelsdorf","municipality":{"key":"12064136","name":"Fredersdorf-Vogelsdorf","type":"Kreisangehörige_Gemeinde"},"district":{"key":"12064","name":"Märkisch-Oderland","type":"Landkreis"},"federalState":{"key":"12","name":"Brandenburg"}},{"name":"Eichendorffstr.","postalCode":"15370","locality":"Fredersdorf-Vogelsdorf","municipality":{"key":"12064136","name":"Fredersdorf-Vogelsdorf","type":"Kreisangehörige_Gemeinde"},"district":{"key":"12064","name":"Märkisch-Oderland","type":"Landkreis"},"federalState":{"key":"12","name":"Brandenburg"}},{"name":"Eisenbahnsiedlung","postalCode":"15370","locality":"Fredersdorf-Vogelsdorf","municipality":{"key":"12064136","name":"Fredersdorf-Vogelsdorf","type":"Kreisangehörige_Gemeinde"},"district":{"key":"12064","name":"Märkisch-Oderland","type":"Landkreis"},"federalState":{"key":"12","name":"Brandenburg"}},{"name":"Elbestr.","postalCode":"15370","locality":"Fredersdorf-Vogelsdorf","municipality":{"key":"12064136","name":"Fredersdorf-Vogelsdorf","type":"Kreisangehörige_Gemeinde"},"district":{"key":"12064","name":"Märkisch-Oderland","type":"Landkreis"},"federalState":{"key":"12","name":"Brandenburg"}},{"name":"Erich-Mühsam-Str.","postalCode":"15370","locality":"Fredersdorf-Vogelsdorf","municipality":{"key":"12064136","name":"Fredersdorf-Vogelsdorf","type":"Kreisangehörige_Gemeinde"},"district":{"key":"12064","name":"Märkisch-Oderland","type":"Landkreis"},"federalState":{"key":"12","name":"Brandenburg"}},{"name":"Ernst-Thälmann-Str.","postalCode":"15370","locality":"Fredersdorf-Vogelsdorf","municipality":{"key":"12064136","name":"Fredersdorf-Vogelsdorf","type":"Kreisangehörige_Gemeinde"},"district":{"key":"12064","name":"Märkisch-Oderland","type":"Landkreis"},"federalState":{"key":"12","name":"Brandenburg"}},{"name":"Feldstr.","postalCode":"15370","locality":"Fredersdorf-Vogelsdorf","municipality":{"key":"12064136","name":"Fredersdorf-Vogelsdorf","type":"Kreisangehörige_Gemeinde"},"district":{"key":"12064","name":"Märkisch-Oderland","type":"Landkreis"},"federalState":{"key":"12","name":"Brandenburg"}},{"name":"Feldweg","postalCode":"15370","locality":"Fredersdorf-Vogelsdorf","municipality":{"key":"12064136","name":"Fredersdorf-Vogelsdorf","type":"Kreisangehörige_Gemeinde"},"district":{"key":"12064","name":"Märkisch-Oderland","type":"Landkreis"},"federalState":{"key":"12","name":"Brandenburg"}},{"name":"Feuerbachstr.","postalCode":"15370","locality":"Fredersdorf-Vogelsdorf","municipality":{"key":"12064136","name":"Fredersdorf-Vogelsdorf","type":"Kreisangehörige_Gemeinde"},"district":{"key":"12064","name":"Märkisch-Oderland","type":"Landkreis"},"federalState":{"key":"12","name":"Brandenburg"}},{"name":"Fichtenweg","postalCode":"15370","locality":"Fredersdorf-Vogelsdorf","municipality":{"key":"12064136","name":"Fredersdorf-Vogelsdorf","type":"Kreisangehörige_Gemeinde"},"district":{"key":"12064","name":"Märkisch-Oderland","type":"Landkreis"},"federalState":{"key":"12","name":"Brandenburg"}},{"name":"Fichtestr.","postalCode":"15370","locality":"Fredersdorf-Vogelsdorf","municipality":{"key":"12064136","name":"Fredersdorf-Vogelsdorf","type":"Kreisangehörige_Gemeinde"},"district":{"key":"12064","name":"Märkisch-Oderland","type":"Landkreis"},"federalState":{"key":"12","name":"Brandenburg"}},{"name":"Finkenstr.","postalCode":"15370","locality":"Fredersdorf-Vogelsdorf","municipality":{"key":"12064136","name":"Fredersdorf-Vogelsdorf","type":"Kreisangehörige_Gemeinde"},"district":{"key":"12064","name":"Märkisch-Oderland","type":"Landkreis"},"federalState":{"key":"12","name":"Brandenburg"}},{"name":"Flächennaturdenkmal Luchpfuhl","postalCode":"15370","locality":"Fredersdorf-Vogelsdorf","municipality":{"key":"12064136","name":"Fredersdorf-Vogelsdorf","type":"Kreisangehörige_Gemeinde"},"district":{"key":"12064","name":"Märkisch-Oderland","type":"Landkreis"},"federalState":{"key":"12","name":"Brandenburg"}},{"name":"Fliederstr.","postalCode":"15370","locality":"Fredersdorf-Vogelsdorf","municipality":{"key":"12064136","name":"Fredersdorf-Vogelsdorf","type":"Kreisangehörige_Gemeinde"},"district":{"key":"12064","name":"Märkisch-Oderland","type":"Landkreis"},"federalState":{"key":"12","name":"Brandenburg"}},{"name":"Fließstr.","postalCode":"15370","locality":"Fredersdorf-Vogelsdorf","municipality":{"key":"12064136","name":"Fredersdorf-Vogelsdorf","type":"Kreisangehörige_Gemeinde"},"district":{"key":"12064","name":"Märkisch-Oderland","type":"Landkreis"},"federalState":{"key":"12","name":"Brandenburg"}},{"name":"Floraring Nord","postalCode":"15370","locality":"Fredersdorf-Vogelsdorf","municipality":{"key":"12064136","name":"Fredersdorf-Vogelsdorf","type":"Kreisangehörige_Gemeinde"},"district":{"key":"12064","name":"Märkisch-Oderland","type":"Landkreis"},"federalState":{"key":"12","name":"Brandenburg"}},{"name":"Floraring Süd","postalCode":"15370","locality":"Fredersdorf-Vogelsdorf","municipality":{"key":"12064136","name":"Fredersdorf-Vogelsdorf","type":"Kreisangehörige_Gemeinde"},"district":{"key":"12064","name":"Märkisch-Oderland","type":"Landkreis"},"federalState":{"key":"12","name":"Brandenburg"}},{"name":"Florastr.","postalCode":"15370","locality":"Fredersdorf-Vogelsdorf","municipality":{"key":"12064136","name":"Fredersdorf-Vogelsdorf","type":"Kreisangehörige_Gemeinde"},"district":{"key":"12064","name":"Märkisch-Oderland","type":"Landkreis"},"federalState":{"key":"12","name":"Brandenburg"}},{"name":"Flotowstr.","postalCode":"15370","locality":"Fredersdorf-Vogelsdorf","municipality":{"key":"12064136","name":"Fredersdorf-Vogelsdorf","type":"Kreisangehörige_Gemeinde"},"district":{"key":"12064","name":"Märkisch-Oderland","type":"Landkreis"},"federalState":{"key":"12","name":"Brandenburg"}},{"name":"Försterweg","postalCode":"15370","locality":"Fredersdorf-Vogelsdorf","municipality":{"key":"12064136","name":"Fredersdorf-Vogelsdorf","type":"Kreisangehörige_Gemeinde"},"district":{"key":"12064","name":"Märkisch-Oderland","type":"Landkreis"},"federalState":{"key":"12","name":"Brandenburg"}},{"name":"Frankfurter Chaussee","postalCode":"15370","locality":"Fredersdorf-Vogelsdorf","municipality":{"key":"12064136","name":"Fredersdorf-Vogelsdorf","type":"Kreisangehörige_Gemeinde"},"district":{"key":"12064","name":"Märkisch-Oderland","type":"Landkreis"},"federalState":{"key":"12","name":"Brandenburg"}},{"name":"Fredersdorfer Chaussee","postalCode":"15370","locality":"Fredersdorf-Vogelsdorf","municipality":{"key":"12064136","name":"Fredersdorf-Vogelsdorf","type":"Kreisangehörige_Gemeinde"},"district":{"key":"12064","name":"Märkisch-Oderland","type":"Landkreis"},"federalState":{"key":"12","name":"Brandenburg"}},{"name":"Fredersdorfer Str.","postalCode":"15370","locality":"Fredersdorf-Vogelsdorf","municipality":{"key":"12064136","name":"Fredersdorf-Vogelsdorf","type":"Kreisangehörige_Gemeinde"},"district":{"key":"12064","name":"Märkisch-Oderland","type":"Landkreis"},"federalState":{"key":"12","name":"Brandenburg"}},{"name":"Freiligrathstr.","postalCode":"15370","locality":"Fredersdorf-Vogelsdorf","municipality":{"key":"12064136","name":"Fredersdorf-Vogelsdorf","type":"Kreisangehörige_Gemeinde"},"district":{"key":"12064","name":"Märkisch-Oderland","type":"Landkreis"},"federalState":{"key":"12","name":"Brandenburg"}},{"name":"Friedrich-Ebert-Str.","postalCode":"15370","locality":"Fredersdorf-Vogelsdorf","municipality":{"key":"12064136","name":"Fredersdorf-Vogelsdorf","type":"Kreisangehörige_Gemeinde"},"district":{"key":"12064","name":"Märkisch-Oderland","type":"Landkreis"},"federalState":{"key":"12","name":"Brandenburg"}},{"name":"Friedrich-Engels-Str.","postalCode":"15370","locality":"Fredersdorf-Vogelsdorf","municipality":{"key":"12064136","name":"Fredersdorf-Vogelsdorf","type":"Kreisangehörige_Gemeinde"},"district":{"key":"12064","name":"Märkisch-Oderland","type":"Landkreis"},"federalState":{"key":"12","name":"Brandenburg"}},{"name":"Fröbelstr.","postalCode":"15370","locality":"Fredersdorf-Vogelsdorf","municipality":{"key":"12064136","name":"Fredersdorf-Vogelsdorf","type":"Kreisangehörige_Gemeinde"},"district":{"key":"12064","name":"Märkisch-Oderland","type":"Landkreis"},"federalState":{"key":"12","name":"Brandenburg"}},{"name":"Gartenstr.","postalCode":"15370","locality":"Fredersdorf-Vogelsdorf","municipality":{"key":"12064136","name":"Fredersdorf-Vogelsdorf","type":"Kreisangehörige_Gemeinde"},"district":{"key":"12064","name":"Märkisch-Oderland","type":"Landkreis"},"federalState":{"key":"12","name":"Brandenburg"}},{"name":"Gärtnerstr.","postalCode":"15370","locality":"Fredersdorf-Vogelsdorf","municipality":{"key":"12064136","name":"Fredersdorf-Vogelsdorf","type":"Kreisangehörige_Gemeinde"},"district":{"key":"12064","name":"Märkisch-Oderland","type":"Landkreis"},"federalState":{"key":"12","name":"Brandenburg"}},{"name":"Gewerbeparkstr.","postalCode":"15370","locality":"Fredersdorf-Vogelsdorf","municipality":{"key":"12064136","name":"Fredersdorf-Vogelsdorf","type":"Kreisangehörige_Gemeinde"},"district":{"key":"12064","name":"Märkisch-Oderland","type":"Landkreis"},"federalState":{"key":"12","name":"Brandenburg"}},{"name":"Giselherstr.","postalCode":"15370","locality":"Fredersdorf-Vogelsdorf","municipality":{"key":"12064136","name":"Fredersdorf-Vogelsdorf","type":"Kreisangehörige_Gemeinde"},"district":{"key":"12064","name":"Märkisch-Oderland","type":"Landkreis"},"federalState":{"key":"12","name":"Brandenburg"}},{"name":"Goethestr.","postalCode":"15370","locality":"Fredersdorf-Vogelsdorf","municipality":{"key":"12064136","name":"Fredersdorf-Vogelsdorf","type":"Kreisangehörige_Gemeinde"},"district":{"key":"12064","name":"Märkisch-Oderland","type":"Landkreis"},"federalState":{"key":"12","name":"Brandenburg"}},{"name":"Grabenstr.","postalCode":"15370","locality":"Fredersdorf-Vogelsdorf","municipality":{"key":"12064136","name":"Fredersdorf-Vogelsdorf","type":"Kreisangehörige_Gemeinde"},"district":{"key":"12064","name":"Märkisch-Oderland","type":"Landkreis"},"federalState":{"key":"12","name":"Brandenburg"}},{"name":"Grenzstr.","postalCode":"15370","locality":"Fredersdorf-Vogelsdorf","municipality":{"key":"12064136","name":"Fredersdorf-Vogelsdorf","type":"Kreisangehörige_Gemeinde"},"district":{"key":"12064","name":"Märkisch-Oderland","type":"Landkreis"},"federalState":{"key":"12","name":"Brandenburg"}},{"name":"Grünerlinder Weg","postalCode":"15370","locality":"Fredersdorf-Vogelsdorf","municipality":{"key":"12064136","name":"Fredersdorf-Vogelsdorf","type":"Kreisangehörige_Gemeinde"},"district":{"key":"12064","name":"Märkisch-Oderland","type":"Landkreis"},"federalState":{"key":"12","name":"Brandenburg"}},{"name":"Grüner Weg","postalCode":"15370","locality":"Fredersdorf-Vogelsdorf","municipality":{"key":"12064136","name":"Fredersdorf-Vogelsdorf","type":"Kreisangehörige_Gemeinde"},"district":{"key":"12064","name":"Märkisch-Oderland","type":"Landkreis"},"federalState":{"key":"12","name":"Brandenburg"}},{"name":"Gunterstr.","postalCode":"15370","locality":"Fredersdorf-Vogelsdorf","municipality":{"key":"12064136","name":"Fredersdorf-Vogelsdorf","type":"Kreisangehörige_Gemeinde"},"district":{"key":"12064","name":"Märkisch-Oderland","type":"Landkreis"},"federalState":{"key":"12","name":"Brandenburg"}},{"name":"Gustav-Freytag-Str.","postalCode":"15370","locality":"Fredersdorf-Vogelsdorf","municipality":{"key":"12064136","name":"Fredersdorf-Vogelsdorf","type":"Kreisangehörige_Gemeinde"},"district":{"key":"12064","name":"Märkisch-Oderland","type":"Landkreis"},"federalState":{"key":"12","name":"Brandenburg"}},{"name":"Gutenbergstr.","postalCode":"15370","locality":"Fredersdorf-Vogelsdorf","municipality":{"key":"12064136","name":"Fredersdorf-Vogelsdorf","type":"Kreisangehörige_Gemeinde"},"district":{"key":"12064","name":"Märkisch-Oderland","type":"Landkreis"},"federalState":{"key":"12","name":"Brandenburg"}},{"name":"Halbe Str.","postalCode":"15370","locality":"Fredersdorf-Vogelsdorf","municipality":{"key":"12064136","name":"Fredersdorf-Vogelsdorf","type":"Kreisangehörige_Gemeinde"},"district":{"key":"12064","name":"Märkisch-Oderland","type":"Landkreis"},"federalState":{"key":"12","name":"Brandenburg"}},{"name":"Hans-Sachs-Str.","postalCode":"15370","locality":"Fredersdorf-Vogelsdorf","municipality":{"key":"12064136","name":"Fredersdorf-Vogelsdorf","type":"Kreisangehörige_Gemeinde"},"district":{"key":"12064","name":"Märkisch-Oderland","type":"Landkreis"},"federalState":{"key":"12","name":"Brandenburg"}},{"name":"Havelstr.","postalCode":"15370","locality":"Fredersdorf-Vogelsdorf","municipality":{"key":"12064136","name":"Fredersdorf-Vogelsdorf","type":"Kreisangehörige_Gemeinde"},"district":{"key":"12064","name":"Märkisch-Oderland","type":"Landkreis"},"federalState":{"key":"12","name":"Brandenburg"}},{"name":"Haydnstr.","postalCode":"15370","locality":"Fredersdorf-Vogelsdorf","municipality":{"key":"12064136","name":"Fredersdorf-Vogelsdorf","type":"Kreisangehörige_Gemeinde"},"district":{"key":"12064","name":"Märkisch-Oderland","type":"Landkreis"},"federalState":{"key":"12","name":"Brandenburg"}},{"name":"Hebbelstr.","postalCode":"15370","locality":"Fredersdorf-Vogelsdorf","municipality":{"key":"12064136","name":"Fredersdorf-Vogelsdorf","type":"Kreisangehörige_Gemeinde"},"district":{"key":"12064","name":"Märkisch-Oderland","type":"Landkreis"},"federalState":{"key":"12","name":"Brandenburg"}},{"name":"Heckenstr.","postalCode":"15370","locality":"Fredersdorf-Vogelsdorf","municipality":{"key":"12064136","name":"Fredersdorf-Vogelsdorf","type":"Kreisangehörige_Gemeinde"},"district":{"key":"12064","name":"Märkisch-Oderland","type":"Landkreis"},"federalState":{"key":"12","name":"Brandenburg"}},{"name":"Heideweg","postalCode":"15370","locality":"Fredersdorf-Vogelsdorf","municipality":{"key":"12064136","name":"Fredersdorf-Vogelsdorf","type":"Kreisangehörige_Gemeinde"},"district":{"key":"12064","name":"Märkisch-Oderland","type":"Landkreis"},"federalState":{"key":"12","name":"Brandenburg"}},{"name":"Heinestr.","postalCode":"15370","locality":"Fredersdorf-Vogelsdorf","municipality":{"key":"12064136","name":"Fredersdorf-Vogelsdorf","type":"Kreisangehörige_Gemeinde"},"district":{"key":"12064","name":"Märkisch-Oderland","type":"Landkreis"},"federalState":{"key":"12","name":"Brandenburg"}},{"name":"Herbert-Behrens-Hangeler-Weg","postalCode":"15370","locality":"Fredersdorf-Vogelsdorf","municipality":{"key":"12064136","name":"Fredersdorf-Vogelsdorf","type":"Kreisangehörige_Gemeinde"},"district":{"key":"12064","name":"Märkisch-Oderland","type":"Landkreis"},"federalState":{"key":"12","name":"Brandenburg"}},{"name":"Hermann-Löns-Str.","postalCode":"15370","locality":"Fredersdorf-Vogelsdorf","municipality":{"key":"12064136","name":"Fredersdorf-Vogelsdorf","type":"Kreisangehörige_Gemeinde"},"district":{"key":"12064","name":"Märkisch-Oderland","type":"Landkreis"},"federalState":{"key":"12","name":"Brandenburg"}},{"name":"Heuweg","postalCode":"15370","locality":"Fredersdorf-Vogelsdorf","municipality":{"key":"12064136","name":"Fredersdorf-Vogelsdorf","type":"Kreisangehörige_Gemeinde"},"district":{"key":"12064","name":"Märkisch-Oderland","type":"Landkreis"},"federalState":{"key":"12","name":"Brandenburg"}},{"name":"Holbeinstr.","postalCode":"15370","locality":"Fredersdorf-Vogelsdorf","municipality":{"key":"12064136","name":"Fredersdorf-Vogelsdorf","type":"Kreisangehörige_Gemeinde"},"district":{"key":"12064","name":"Märkisch-Oderland","type":"Landkreis"},"federalState":{"key":"12","name":"Brandenburg"}},{"name":"Holteistr.","postalCode":"15370","locality":"Fredersdorf-Vogelsdorf","municipality":{"key":"12064136","name":"Fredersdorf-Vogelsdorf","type":"Kreisangehörige_Gemeinde"},"district":{"key":"12064","name":"Märkisch-Oderland","type":"Landkreis"},"federalState":{"key":"12","name":"Brandenburg"}},{"name":"Hosemannstr.","postalCode":"15370","locality":"Fredersdorf-Vogelsdorf","municipality":{"key":"12064136","name":"Fredersdorf-Vogelsdorf","type":"Kreisangehörige_Gemeinde"},"district":{"key":"12064","name":"Märkisch-Oderland","type":"Landkreis"},"federalState":{"key":"12","name":"Brandenburg"}},{"name":"Igelweg","postalCode":"15370","locality":"Fredersdorf-Vogelsdorf","municipality":{"key":"12064136","name":"Fredersdorf-Vogelsdorf","type":"Kreisangehörige_Gemeinde"},"district":{"key":"12064","name":"Märkisch-Oderland","type":"Landkreis"},"federalState":{"key":"12","name":"Brandenburg"}},{"name":"Inselstr.","postalCode":"15370","locality":"Fredersdorf-Vogelsdorf","municipality":{"key":"12064136","name":"Fredersdorf-Vogelsdorf","type":"Kreisangehörige_Gemeinde"},"district":{"key":"12064","name":"Märkisch-Oderland","type":"Landkreis"},"federalState":{"key":"12","name":"Brandenburg"}},{"name":"Jahnstr.","postalCode":"15370","locality":"Fredersdorf-Vogelsdorf","municipality":{"key":"12064136","name":"Fredersdorf-Vogelsdorf","type":"Kreisangehörige_Gemeinde"},"district":{"key":"12064","name":"Märkisch-Oderland","type":"Landkreis"},"federalState":{"key":"12","name":"Brandenburg"}},{"name":"Kantstr.","postalCode":"15370","locality":"Fredersdorf-Vogelsdorf","municipality":{"key":"12064136","name":"Fredersdorf-Vogelsdorf","type":"Kreisangehörige_Gemeinde"},"district":{"key":"12064","name":"Märkisch-Oderland","type":"Landkreis"},"federalState":{"key":"12","name":"Brandenburg"}},{"name":"Karl-Liebknecht-Str.","postalCode":"15370","locality":"Fredersdorf-Vogelsdorf","municipality":{"key":"12064136","name":"Fredersdorf-Vogelsdorf","type":"Kreisangehörige_Gemeinde"},"district":{"key":"12064","name":"Märkisch-Oderland","type":"Landkreis"},"federalState":{"key":"12","name":"Brandenburg"}},{"name":"Karl-Marx-Str.","postalCode":"15370","locality":"Fredersdorf-Vogelsdorf","municipality":{"key":"12064136","name":"Fredersdorf-Vogelsdorf","type":"Kreisangehörige_Gemeinde"},"district":{"key":"12064","name":"Märkisch-Oderland","type":"Landkreis"},"federalState":{"key":"12","name":"Brandenburg"}},{"name":"Käthe-Kollwitz-Str.","postalCode":"15370","locality":"Fredersdorf-Vogelsdorf","municipality":{"key":"12064136","name":"Fredersdorf-Vogelsdorf","type":"Kreisangehörige_Gemeinde"},"district":{"key":"12064","name":"Märkisch-Oderland","type":"Landkreis"},"federalState":{"key":"12","name":"Brandenburg"}},{"name":"Kiefernweg","postalCode":"15370","locality":"Fredersdorf-Vogelsdorf","municipality":{"key":"12064136","name":"Fredersdorf-Vogelsdorf","type":"Kreisangehörige_Gemeinde"},"district":{"key":"12064","name":"Märkisch-Oderland","type":"Landkreis"},"federalState":{"key":"12","name":"Brandenburg"}},{"name":"Kirchstr.","postalCode":"15370","locality":"Fredersdorf-Vogelsdorf","municipality":{"key":"12064136","name":"Fredersdorf-Vogelsdorf","type":"Kreisangehörige_Gemeinde"},"district":{"key":"12064","name":"Märkisch-Oderland","type":"Landkreis"},"federalState":{"key":"12","name":"Brandenburg"}},{"name":"Kirschblütenweg","postalCode":"15370","locality":"Fredersdorf-Vogelsdorf","municipality":{"key":"12064136","name":"Fredersdorf-Vogelsdorf","type":"Kreisangehörige_Gemeinde"},"district":{"key":"12064","name":"Märkisch-Oderland","type":"Landkreis"},"federalState":{"key":"12","name":"Brandenburg"}},{"name":"Knausstr.","postalCode":"15370","locality":"Fredersdorf-Vogelsdorf","municipality":{"key":"12064136","name":"Fredersdorf-Vogelsdorf","type":"Kreisangehörige_Gemeinde"},"district":{"key":"12064","name":"Märkisch-Oderland","type":"Landkreis"},"federalState":{"key":"12","name":"Brandenburg"}},{"name":"Kornblumenweg","postalCode":"15370","locality":"Fredersdorf-Vogelsdorf","municipality":{"key":"12064136","name":"Fredersdorf-Vogelsdorf","type":"Kreisangehörige_Gemeinde"},"district":{"key":"12064","name":"Märkisch-Oderland","type":"Landkreis"},"federalState":{"key":"12","name":"Brandenburg"}},{"name":"Krautstr.","postalCode":"15370","locality":"Fredersdorf-Vogelsdorf","municipality":{"key":"12064136","name":"Fredersdorf-Vogelsdorf","type":"Kreisangehörige_Gemeinde"},"district":{"key":"12064","name":"Märkisch-Oderland","type":"Landkreis"},"federalState":{"key":"12","name":"Brandenburg"}},{"name":"Kretzerstr.","postalCode":"15370","locality":"Fredersdorf-Vogelsdorf","municipality":{"key":"12064136","name":"Fredersdorf-Vogelsdorf","type":"Kreisangehörige_Gemeinde"},"district":{"key":"12064","name":"Märkisch-Oderland","type":"Landkreis"},"federalState":{"key":"12","name":"Brandenburg"}},{"name":"Kreuerstr.","postalCode":"15370","locality":"Fredersdorf-Vogelsdorf","municipality":{"key":"12064136","name":"Fredersdorf-Vogelsdorf","type":"Kreisangehörige_Gemeinde"},"district":{"key":"12064","name":"Märkisch-Oderland","type":"Landkreis"},"federalState":{"key":"12","name":"Brandenburg"}},{"name":"Kreuzstr.","postalCode":"15370","locality":"Fredersdorf-Vogelsdorf","municipality":{"key":"12064136","name":"Fredersdorf-Vogelsdorf","type":"Kreisangehörige_Gemeinde"},"district":{"key":"12064","name":"Märkisch-Oderland","type":"Landkreis"},"federalState":{"key":"12","name":"Brandenburg"}},{"name":"Krumme Str.","postalCode":"15370","locality":"Fredersdorf-Vogelsdorf","municipality":{"key":"12064136","name":"Fredersdorf-Vogelsdorf","type":"Kreisangehörige_Gemeinde"},"district":{"key":"12064","name":"Märkisch-Oderland","type":"Landkreis"},"federalState":{"key":"12","name":"Brandenburg"}},{"name":"Kurze Str.","postalCode":"15370","locality":"Fredersdorf-Vogelsdorf","municipality":{"key":"12064136","name":"Fredersdorf-Vogelsdorf","type":"Kreisangehörige_Gemeinde"},"district":{"key":"12064","name":"Märkisch-Oderland","type":"Landkreis"},"federalState":{"key":"12","name":"Brandenburg"}},{"name":"Landstr.","postalCode":"15370","locality":"Fredersdorf-Vogelsdorf","municipality":{"key":"12064136","name":"Fredersdorf-Vogelsdorf","type":"Kreisangehörige_Gemeinde"},"district":{"key":"12064","name":"Märkisch-Oderland","type":"Landkreis"},"federalState":{"key":"12","name":"Brandenburg"}},{"name":"Lange Str.","postalCode":"15370","locality":"Fredersdorf-Vogelsdorf","municipality":{"key":"12064136","name":"Fredersdorf-Vogelsdorf","type":"Kreisangehörige_Gemeinde"},"district":{"key":"12064","name":"Märkisch-Oderland","type":"Landkreis"},"federalState":{"key":"12","name":"Brandenburg"}},{"name":"Lenbachstr.","postalCode":"15370","locality":"Fredersdorf-Vogelsdorf","municipality":{"key":"12064136","name":"Fredersdorf-Vogelsdorf","type":"Kreisangehörige_Gemeinde"},"district":{"key":"12064","name":"Märkisch-Oderland","type":"Landkreis"},"federalState":{"key":"12","name":"Brandenburg"}},{"name":"Lerchenstr.","postalCode":"15370","locality":"Fredersdorf-Vogelsdorf","municipality":{"key":"12064136","name":"Fredersdorf-Vogelsdorf","type":"Kreisangehörige_Gemeinde"},"district":{"key":"12064","name":"Märkisch-Oderland","type":"Landkreis"},"federalState":{"key":"12","name":"Brandenburg"}},{"name":"Lessingstr.","postalCode":"15370","locality":"Fredersdorf-Vogelsdorf","municipality":{"key":"12064136","name":"Fredersdorf-Vogelsdorf","type":"Kreisangehörige_Gemeinde"},"district":{"key":"12064","name":"Märkisch-Oderland","type":"Landkreis"},"federalState":{"key":"12","name":"Brandenburg"}},{"name":"Lilienthalstr.","postalCode":"15370","locality":"Fredersdorf-Vogelsdorf","municipality":{"key":"12064136","name":"Fredersdorf-Vogelsdorf","type":"Kreisangehörige_Gemeinde"},"district":{"key":"12064","name":"Märkisch-Oderland","type":"Landkreis"},"federalState":{"key":"12","name":"Brandenburg"}},{"name":"Lindenallee","postalCode":"15370","locality":"Fredersdorf-Vogelsdorf","municipality":{"key":"12064136","name":"Fredersdorf-Vogelsdorf","type":"Kreisangehörige_Gemeinde"},"district":{"key":"12064","name":"Märkisch-Oderland","type":"Landkreis"},"federalState":{"key":"12","name":"Brandenburg"}},{"name":"Lisztstr.","postalCode":"15370","locality":"Fredersdorf-Vogelsdorf","municipality":{"key":"12064136","name":"Fredersdorf-Vogelsdorf","type":"Kreisangehörige_Gemeinde"},"district":{"key":"12064","name":"Märkisch-Oderland","type":"Landkreis"},"federalState":{"key":"12","name":"Brandenburg"}},{"name":"Loosestr.","postalCode":"15370","locality":"Fredersdorf-Vogelsdorf","municipality":{"key":"12064136","name":"Fredersdorf-Vogelsdorf","type":"Kreisangehörige_Gemeinde"},"district":{"key":"12064","name":"Märkisch-Oderland","type":"Landkreis"},"federalState":{"key":"12","name":"Brandenburg"}},{"name":"Lortzingstr.","postalCode":"15370","locality":"Fredersdorf-Vogelsdorf","municipality":{"key":"12064136","name":"Fredersdorf-Vogelsdorf","type":"Kreisangehörige_Gemeinde"},"district":{"key":"12064","name":"Märkisch-Oderland","type":"Landkreis"},"federalState":{"key":"12","name":"Brandenburg"}},{"name":"Mainstr.","postalCode":"15370","locality":"Fredersdorf-Vogelsdorf","municipality":{"key":"12064136","name":"Fredersdorf-Vogelsdorf","type":"Kreisangehörige_Gemeinde"},"district":{"key":"12064","name":"Märkisch-Oderland","type":"Landkreis"},"federalState":{"key":"12","name":"Brandenburg"}},{"name":"Margarethe-Näfe-Str.","postalCode":"15370","locality":"Fredersdorf-Vogelsdorf","municipality":{"key":"12064136","name":"Fredersdorf-Vogelsdorf","type":"Kreisangehörige_Gemeinde"},"district":{"key":"12064","name":"Märkisch-Oderland","type":"Landkreis"},"federalState":{"key":"12","name":"Brandenburg"}},{"name":"Marktstr.","postalCode":"15370","locality":"Fredersdorf-Vogelsdorf","municipality":{"key":"12064136","name":"Fredersdorf-Vogelsdorf","type":"Kreisangehörige_Gemeinde"},"district":{"key":"12064","name":"Märkisch-Oderland","type":"Landkreis"},"federalState":{"key":"12","name":"Brandenburg"}},{"name":"Martin-Luther-Str.","postalCode":"15370","locality":"Fredersdorf-Vogelsdorf","municipality":{"key":"12064136","name":"Fredersdorf-Vogelsdorf","type":"Kreisangehörige_Gemeinde"},"district":{"key":"12064","name":"Märkisch-Oderland","type":"Landkreis"},"federalState":{"key":"12","name":"Brandenburg"}},{"name":"Meisenweg","postalCode":"15370","locality":"Fredersdorf-Vogelsdorf","municipality":{"key":"12064136","name":"Fredersdorf-Vogelsdorf","type":"Kreisangehörige_Gemeinde"},"district":{"key":"12064","name":"Märkisch-Oderland","type":"Landkreis"},"federalState":{"key":"12","name":"Brandenburg"}},{"name":"Menzelstr.","postalCode":"15370","locality":"Fredersdorf-Vogelsdorf","municipality":{"key":"12064136","name":"Fredersdorf-Vogelsdorf","type":"Kreisangehörige_Gemeinde"},"district":{"key":"12064","name":"Märkisch-Oderland","type":"Landkreis"},"federalState":{"key":"12","name":"Brandenburg"}},{"name":"Mittelstr.","postalCode":"15370","locality":"Fredersdorf-Vogelsdorf","municipality":{"key":"12064136","name":"Fredersdorf-Vogelsdorf","type":"Kreisangehörige_Gemeinde"},"district":{"key":"12064","name":"Märkisch-Oderland","type":"Landkreis"},"federalState":{"key":"12","name":"Brandenburg"}},{"name":"Mohnblumenweg","postalCode":"15370","locality":"Fredersdorf-Vogelsdorf","municipality":{"key":"12064136","name":"Fredersdorf-Vogelsdorf","type":"Kreisangehörige_Gemeinde"},"district":{"key":"12064","name":"Märkisch-Oderland","type":"Landkreis"},"federalState":{"key":"12","name":"Brandenburg"}},{"name":"Mozartstr.","postalCode":"15370","locality":"Fredersdorf-Vogelsdorf","municipality":{"key":"12064136","name":"Fredersdorf-Vogelsdorf","type":"Kreisangehörige_Gemeinde"},"district":{"key":"12064","name":"Märkisch-Oderland","type":"Landkreis"},"federalState":{"key":"12","name":"Brandenburg"}},{"name":"Neue Str.","postalCode":"15370","locality":"Fredersdorf-Vogelsdorf","municipality":{"key":"12064136","name":"Fredersdorf-Vogelsdorf","type":"Kreisangehörige_Gemeinde"},"district":{"key":"12064","name":"Märkisch-Oderland","type":"Landkreis"},"federalState":{"key":"12","name":"Brandenburg"}},{"name":"Nibelungenring","postalCode":"15370","locality":"Fredersdorf-Vogelsdorf","municipality":{"key":"12064136","name":"Fredersdorf-Vogelsdorf","type":"Kreisangehörige_Gemeinde"},"district":{"key":"12064","name":"Märkisch-Oderland","type":"Landkreis"},"federalState":{"key":"12","name":"Brandenburg"}},{"name":"Oderstr.","postalCode":"15370","locality":"Fredersdorf-Vogelsdorf","municipality":{"key":"12064136","name":"Fredersdorf-Vogelsdorf","type":"Kreisangehörige_Gemeinde"},"district":{"key":"12064","name":"Märkisch-Oderland","type":"Landkreis"},"federalState":{"key":"12","name":"Brandenburg"}},{"name":"Ottostr.","postalCode":"15370","locality":"Fredersdorf-Vogelsdorf","municipality":{"key":"12064136","name":"Fredersdorf-Vogelsdorf","type":"Kreisangehörige_Gemeinde"},"district":{"key":"12064","name":"Märkisch-Oderland","type":"Landkreis"},"federalState":{"key":"12","name":"Brandenburg"}},{"name":"Pappelweg","postalCode":"15370","locality":"Fredersdorf-Vogelsdorf","municipality":{"key":"12064136","name":"Fredersdorf-Vogelsdorf","type":"Kreisangehörige_Gemeinde"},"district":{"key":"12064","name":"Märkisch-Oderland","type":"Landkreis"},"federalState":{"key":"12","name":"Brandenburg"}},{"name":"Parkstr.","postalCode":"15370","locality":"Fredersdorf-Vogelsdorf","municipality":{"key":"12064136","name":"Fredersdorf-Vogelsdorf","type":"Kreisangehörige_Gemeinde"},"district":{"key":"12064","name":"Märkisch-Oderland","type":"Landkreis"},"federalState":{"key":"12","name":"Brandenburg"}},{"name":"Paul-Lincke-Str.","postalCode":"15370","locality":"Fredersdorf-Vogelsdorf","municipality":{"key":"12064136","name":"Fredersdorf-Vogelsdorf","type":"Kreisangehörige_Gemeinde"},"district":{"key":"12064","name":"Märkisch-Oderland","type":"Landkreis"},"federalState":{"key":"12","name":"Brandenburg"}},{"name":"Petershagener Str.","postalCode":"15370","locality":"Fredersdorf-Vogelsdorf","municipality":{"key":"12064136","name":"Fredersdorf-Vogelsdorf","type":"Kreisangehörige_Gemeinde"},"district":{"key":"12064","name":"Märkisch-Oderland","type":"Landkreis"},"federalState":{"key":"12","name":"Brandenburg"}},{"name":"Platanenstr.","postalCode":"15370","locality":"Fredersdorf-Vogelsdorf","municipality":{"key":"12064136","name":"Fredersdorf-Vogelsdorf","type":"Kreisangehörige_Gemeinde"},"district":{"key":"12064","name":"Märkisch-Oderland","type":"Landkreis"},"federalState":{"key":"12","name":"Brandenburg"}},{"name":"Platz der Befreiung","postalCode":"15370","locality":"Fredersdorf-Vogelsdorf","municipality":{"key":"12064136","name":"Fredersdorf-Vogelsdorf","type":"Kreisangehörige_Gemeinde"},"district":{"key":"12064","name":"Märkisch-Oderland","type":"Landkreis"},"federalState":{"key":"12","name":"Brandenburg"}},{"name":"Pohlstr.","postalCode":"15370","locality":"Fredersdorf-Vogelsdorf","municipality":{"key":"12064136","name":"Fredersdorf-Vogelsdorf","type":"Kreisangehörige_Gemeinde"},"district":{"key":"12064","name":"Märkisch-Oderland","type":"Landkreis"},"federalState":{"key":"12","name":"Brandenburg"}},{"name":"Posentsche Str.","postalCode":"15370","locality":"Fredersdorf-Vogelsdorf","municipality":{"key":"12064136","name":"Fredersdorf-Vogelsdorf","type":"Kreisangehörige_Gemeinde"},"district":{"key":"12064","name":"Märkisch-Oderland","type":"Landkreis"},"federalState":{"key":"12","name":"Brandenburg"}},{"name":"Rembrandtstr.","postalCode":"15370","locality":"Fredersdorf-Vogelsdorf","municipality":{"key":"12064136","name":"Fredersdorf-Vogelsdorf","type":"Kreisangehörige_Gemeinde"},"district":{"key":"12064","name":"Märkisch-Oderland","type":"Landkreis"},"federalState":{"key":"12","name":"Brandenburg"}},{"name":"Reuterstr.","postalCode":"15370","locality":"Fredersdorf-Vogelsdorf","municipality":{"key":"12064136","name":"Fredersdorf-Vogelsdorf","type":"Kreisangehörige_Gemeinde"},"district":{"key":"12064","name":"Märkisch-Oderland","type":"Landkreis"},"federalState":{"key":"12","name":"Brandenburg"}},{"name":"Rheinstr.","postalCode":"15370","locality":"Fredersdorf-Vogelsdorf","municipality":{"key":"12064136","name":"Fredersdorf-Vogelsdorf","type":"Kreisangehörige_Gemeinde"},"district":{"key":"12064","name":"Märkisch-Oderland","type":"Landkreis"},"federalState":{"key":"12","name":"Brandenburg"}},{"name":"Richard-Jänsch-Str.","postalCode":"15370","locality":"Fredersdorf-Vogelsdorf","municipality":{"key":"12064136","name":"Fredersdorf-Vogelsdorf","type":"Kreisangehörige_Gemeinde"},"district":{"key":"12064","name":"Märkisch-Oderland","type":"Landkreis"},"federalState":{"key":"12","name":"Brandenburg"}},{"name":"Richard-Wagner-Str.","postalCode":"15370","locality":"Fredersdorf-Vogelsdorf","municipality":{"key":"12064136","name":"Fredersdorf-Vogelsdorf","type":"Kreisangehörige_Gemeinde"},"district":{"key":"12064","name":"Märkisch-Oderland","type":"Landkreis"},"federalState":{"key":"12","name":"Brandenburg"}},{"name":"Ringstr.","postalCode":"15370","locality":"Fredersdorf-Vogelsdorf","municipality":{"key":"12064136","name":"Fredersdorf-Vogelsdorf","type":"Kreisangehörige_Gemeinde"},"district":{"key":"12064","name":"Märkisch-Oderland","type":"Landkreis"},"federalState":{"key":"12","name":"Brandenburg"}},{"name":"Röntgenstr.","postalCode":"15370","locality":"Fredersdorf-Vogelsdorf","municipality":{"key":"12064136","name":"Fredersdorf-Vogelsdorf","type":"Kreisangehörige_Gemeinde"},"district":{"key":"12064","name":"Märkisch-Oderland","type":"Landkreis"},"federalState":{"key":"12","name":"Brandenburg"}},{"name":"Rosenweg","postalCode":"15370","locality":"Fredersdorf-Vogelsdorf","municipality":{"key":"12064136","name":"Fredersdorf-Vogelsdorf","type":"Kreisangehörige_Gemeinde"},"district":{"key":"12064","name":"Märkisch-Oderland","type":"Landkreis"},"federalState":{"key":"12","name":"Brandenburg"}},{"name":"Rosinstr.","postalCode":"15370","locality":"Fredersdorf-Vogelsdorf","municipality":{"key":"12064136","name":"Fredersdorf-Vogelsdorf","type":"Kreisangehörige_Gemeinde"},"district":{"key":"12064","name":"Märkisch-Oderland","type":"Landkreis"},"federalState":{"key":"12","name":"Brandenburg"}},{"name":"Rubensstr.","postalCode":"15370","locality":"Fredersdorf-Vogelsdorf","municipality":{"key":"12064136","name":"Fredersdorf-Vogelsdorf","type":"Kreisangehörige_Gemeinde"},"district":{"key":"12064","name":"Märkisch-Oderland","type":"Landkreis"},"federalState":{"key":"12","name":"Brandenburg"}},{"name":"Rüdersdorfer Str.","postalCode":"15370","locality":"Fredersdorf-Vogelsdorf","municipality":{"key":"12064136","name":"Fredersdorf-Vogelsdorf","type":"Kreisangehörige_Gemeinde"},"district":{"key":"12064","name":"Märkisch-Oderland","type":"Landkreis"},"federalState":{"key":"12","name":"Brandenburg"}},{"name":"Rudolf-Breitscheid-Str.","postalCode":"15370","locality":"Fredersdorf-Vogelsdorf","municipality":{"key":"12064136","name":"Fredersdorf-Vogelsdorf","type":"Kreisangehörige_Gemeinde"},"district":{"key":"12064","name":"Märkisch-Oderland","type":"Landkreis"},"federalState":{"key":"12","name":"Brandenburg"}},{"name":"Saalestr.","postalCode":"15370","locality":"Fredersdorf-Vogelsdorf","municipality":{"key":"12064136","name":"Fredersdorf-Vogelsdorf","type":"Kreisangehörige_Gemeinde"},"district":{"key":"12064","name":"Märkisch-Oderland","type":"Landkreis"},"federalState":{"key":"12","name":"Brandenburg"}},{"name":"Sanddornweg","postalCode":"15370","locality":"Fredersdorf-Vogelsdorf","municipality":{"key":"12064136","name":"Fredersdorf-Vogelsdorf","type":"Kreisangehörige_Gemeinde"},"district":{"key":"12064","name":"Märkisch-Oderland","type":"Landkreis"},"federalState":{"key":"12","name":"Brandenburg"}},{"name":"Schäfergarten","postalCode":"15370","locality":"Fredersdorf-Vogelsdorf","municipality":{"key":"12064136","name":"Fredersdorf-Vogelsdorf","type":"Kreisangehörige_Gemeinde"},"district":{"key":"12064","name":"Märkisch-Oderland","type":"Landkreis"},"federalState":{"key":"12","name":"Brandenburg"}},{"name":"Scheererstr.","postalCode":"15370","locality":"Fredersdorf-Vogelsdorf","municipality":{"key":"12064136","name":"Fredersdorf-Vogelsdorf","type":"Kreisangehörige_Gemeinde"},"district":{"key":"12064","name":"Märkisch-Oderland","type":"Landkreis"},"federalState":{"key":"12","name":"Brandenburg"}},{"name":"Schillerstr.","postalCode":"15370","locality":"Fredersdorf-Vogelsdorf","municipality":{"key":"12064136","name":"Fredersdorf-Vogelsdorf","type":"Kreisangehörige_Gemeinde"},"district":{"key":"12064","name":"Märkisch-Oderland","type":"Landkreis"},"federalState":{"key":"12","name":"Brandenburg"}},{"name":"Schöneicher Allee","postalCode":"15370","locality":"Fredersdorf-Vogelsdorf","municipality":{"key":"12064136","name":"Fredersdorf-Vogelsdorf","type":"Kreisangehörige_Gemeinde"},"district":{"key":"12064","name":"Märkisch-Oderland","type":"Landkreis"},"federalState":{"key":"12","name":"Brandenburg"}},{"name":"Schöneicher Weg","postalCode":"15370","locality":"Fredersdorf-Vogelsdorf","municipality":{"key":"12064136","name":"Fredersdorf-Vogelsdorf","type":"Kreisangehörige_Gemeinde"},"district":{"key":"12064","name":"Märkisch-Oderland","type":"Landkreis"},"federalState":{"key":"12","name":"Brandenburg"}},{"name":"Schubertstr.","postalCode":"15370","locality":"Fredersdorf-Vogelsdorf","municipality":{"key":"12064136","name":"Fredersdorf-Vogelsdorf","type":"Kreisangehörige_Gemeinde"},"district":{"key":"12064","name":"Märkisch-Oderland","type":"Landkreis"},"federalState":{"key":"12","name":"Brandenburg"}},{"name":"Schwarzer Weg","postalCode":"15370","locality":"Fredersdorf-Vogelsdorf","municipality":{"key":"12064136","name":"Fredersdorf-Vogelsdorf","type":"Kreisangehörige_Gemeinde"},"district":{"key":"12064","name":"Märkisch-Oderland","type":"Landkreis"},"federalState":{"key":"12","name":"Brandenburg"}},{"name":"Sebastian-Bach-Str.","postalCode":"15370","locality":"Fredersdorf-Vogelsdorf","municipality":{"key":"12064136","name":"Fredersdorf-Vogelsdorf","type":"Kreisangehörige_Gemeinde"},"district":{"key":"12064","name":"Märkisch-Oderland","type":"Landkreis"},"federalState":{"key":"12","name":"Brandenburg"}},{"name":"Seestr.","postalCode":"15370","locality":"Fredersdorf-Vogelsdorf","municipality":{"key":"12064136","name":"Fredersdorf-Vogelsdorf","type":"Kreisangehörige_Gemeinde"},"district":{"key":"12064","name":"Märkisch-Oderland","type":"Landkreis"},"federalState":{"key":"12","name":"Brandenburg"}},{"name":"Senefelderstr.","postalCode":"15370","locality":"Fredersdorf-Vogelsdorf","municipality":{"key":"12064136","name":"Fredersdorf-Vogelsdorf","type":"Kreisangehörige_Gemeinde"},"district":{"key":"12064","name":"Märkisch-Oderland","type":"Landkreis"},"federalState":{"key":"12","name":"Brandenburg"}},{"name":"Senitzstr.","postalCode":"15370","locality":"Fredersdorf-Vogelsdorf","municipality":{"key":"12064136","name":"Fredersdorf-Vogelsdorf","type":"Kreisangehörige_Gemeinde"},"district":{"key":"12064","name":"Märkisch-Oderland","type":"Landkreis"},"federalState":{"key":"12","name":"Brandenburg"}},{"name":"Siegfriedring","postalCode":"15370","locality":"Fredersdorf-Vogelsdorf","municipality":{"key":"12064136","name":"Fredersdorf-Vogelsdorf","type":"Kreisangehörige_Gemeinde"},"district":{"key":"12064","name":"Märkisch-Oderland","type":"Landkreis"},"federalState":{"key":"12","name":"Brandenburg"}},{"name":"Sommerweg","postalCode":"15370","locality":"Fredersdorf-Vogelsdorf","municipality":{"key":"12064136","name":"Fredersdorf-Vogelsdorf","type":"Kreisangehörige_Gemeinde"},"district":{"key":"12064","name":"Märkisch-Oderland","type":"Landkreis"},"federalState":{"key":"12","name":"Brandenburg"}},{"name":"Sperlingsgasse","postalCode":"15370","locality":"Fredersdorf-Vogelsdorf","municipality":{"key":"12064136","name":"Fredersdorf-Vogelsdorf","type":"Kreisangehörige_Gemeinde"},"district":{"key":"12064","name":"Märkisch-Oderland","type":"Landkreis"},"federalState":{"key":"12","name":"Brandenburg"}},{"name":"Spitzwegstr.","postalCode":"15370","locality":"Fredersdorf-Vogelsdorf","municipality":{"key":"12064136","name":"Fredersdorf-Vogelsdorf","type":"Kreisangehörige_Gemeinde"},"district":{"key":"12064","name":"Märkisch-Oderland","type":"Landkreis"},"federalState":{"key":"12","name":"Brandenburg"}},{"name":"Spreestr.","postalCode":"15370","locality":"Fredersdorf-Vogelsdorf","municipality":{"key":"12064136","name":"Fredersdorf-Vogelsdorf","type":"Kreisangehörige_Gemeinde"},"district":{"key":"12064","name":"Märkisch-Oderland","type":"Landkreis"},"federalState":{"key":"12","name":"Brandenburg"}},{"name":"Str. an der Bahn","postalCode":"15370","locality":"Fredersdorf-Vogelsdorf","municipality":{"key":"12064136","name":"Fredersdorf-Vogelsdorf","type":"Kreisangehörige_Gemeinde"},"district":{"key":"12064","name":"Märkisch-Oderland","type":"Landkreis"},"federalState":{"key":"12","name":"Brandenburg"}},{"name":"Tannenweg","postalCode":"15370","locality":"Fredersdorf-Vogelsdorf","municipality":{"key":"12064136","name":"Fredersdorf-Vogelsdorf","type":"Kreisangehörige_Gemeinde"},"district":{"key":"12064","name":"Märkisch-Oderland","type":"Landkreis"},"federalState":{"key":"12","name":"Brandenburg"}},{"name":"Tasdorfer Str.","postalCode":"15370","locality":"Fredersdorf-Vogelsdorf","municipality":{"key":"12064136","name":"Fredersdorf-Vogelsdorf","type":"Kreisangehörige_Gemeinde"},"district":{"key":"12064","name":"Märkisch-Oderland","type":"Landkreis"},"federalState":{"key":"12","name":"Brandenburg"}},{"name":"Taubenstr.","postalCode":"15370","locality":"Fredersdorf-Vogelsdorf","municipality":{"key":"12064136","name":"Fredersdorf-Vogelsdorf","type":"Kreisangehörige_Gemeinde"},"district":{"key":"12064","name":"Märkisch-Oderland","type":"Landkreis"},"federalState":{"key":"12","name":"Brandenburg"}},{"name":"Thomas-Mann-Str.","postalCode":"15370","locality":"Fredersdorf-Vogelsdorf","municipality":{"key":"12064136","name":"Fredersdorf-Vogelsdorf","type":"Kreisangehörige_Gemeinde"},"district":{"key":"12064","name":"Märkisch-Oderland","type":"Landkreis"},"federalState":{"key":"12","name":"Brandenburg"}},{"name":"Tieckstr.","postalCode":"15370","locality":"Fredersdorf-Vogelsdorf","municipality":{"key":"12064136","name":"Fredersdorf-Vogelsdorf","type":"Kreisangehörige_Gemeinde"},"district":{"key":"12064","name":"Märkisch-Oderland","type":"Landkreis"},"federalState":{"key":"12","name":"Brandenburg"}},{"name":"Tulpengasse","postalCode":"15370","locality":"Fredersdorf-Vogelsdorf","municipality":{"key":"12064136","name":"Fredersdorf-Vogelsdorf","type":"Kreisangehörige_Gemeinde"},"district":{"key":"12064","name":"Märkisch-Oderland","type":"Landkreis"},"federalState":{"key":"12","name":"Brandenburg"}},{"name":"Uhlandstr.","postalCode":"15370","locality":"Fredersdorf-Vogelsdorf","municipality":{"key":"12064136","name":"Fredersdorf-Vogelsdorf","type":"Kreisangehörige_Gemeinde"},"district":{"key":"12064","name":"Märkisch-Oderland","type":"Landkreis"},"federalState":{"key":"12","name":"Brandenburg"}},{"name":"Ulmenstr.","postalCode":"15370","locality":"Fredersdorf-Vogelsdorf","municipality":{"key":"12064136","name":"Fredersdorf-Vogelsdorf","type":"Kreisangehörige_Gemeinde"},"district":{"key":"12064","name":"Märkisch-Oderland","type":"Landkreis"},"federalState":{"key":"12","name":"Brandenburg"}},{"name":"Verbindungsweg","postalCode":"15370","locality":"Fredersdorf-Vogelsdorf","municipality":{"key":"12064136","name":"Fredersdorf-Vogelsdorf","type":"Kreisangehörige_Gemeinde"},"district":{"key":"12064","name":"Märkisch-Oderland","type":"Landkreis"},"federalState":{"key":"12","name":"Brandenburg"}},{"name":"Verdrießstr.","postalCode":"15370","locality":"Fredersdorf-Vogelsdorf","municipality":{"key":"12064136","name":"Fredersdorf-Vogelsdorf","type":"Kreisangehörige_Gemeinde"},"district":{"key":"12064","name":"Märkisch-Oderland","type":"Landkreis"},"federalState":{"key":"12","name":"Brandenburg"}},{"name":"Vogelbeerstr.","postalCode":"15370","locality":"Fredersdorf-Vogelsdorf","municipality":{"key":"12064136","name":"Fredersdorf-Vogelsdorf","type":"Kreisangehörige_Gemeinde"},"district":{"key":"12064","name":"Märkisch-Oderland","type":"Landkreis"},"federalState":{"key":"12","name":"Brandenburg"}},{"name":"Vogelsdorfer Str.","postalCode":"15370","locality":"Fredersdorf-Vogelsdorf","municipality":{"key":"12064136","name":"Fredersdorf-Vogelsdorf","type":"Kreisangehörige_Gemeinde"},"district":{"key":"12064","name":"Märkisch-Oderland","type":"Landkreis"},"federalState":{"key":"12","name":"Brandenburg"}},{"name":"Voigtstr.","postalCode":"15370","locality":"Fredersdorf-Vogelsdorf","municipality":{"key":"12064136","name":"Fredersdorf-Vogelsdorf","type":"Kreisangehörige_Gemeinde"},"district":{"key":"12064","name":"Märkisch-Oderland","type":"Landkreis"},"federalState":{"key":"12","name":"Brandenburg"}},{"name":"Waldstr.","postalCode":"15370","locality":"Fredersdorf-Vogelsdorf","municipality":{"key":"12064136","name":"Fredersdorf-Vogelsdorf","type":"Kreisangehörige_Gemeinde"},"district":{"key":"12064","name":"Märkisch-Oderland","type":"Landkreis"},"federalState":{"key":"12","name":"Brandenburg"}},{"name":"Waldweg","postalCode":"15370","locality":"Fredersdorf-Vogelsdorf","municipality":{"key":"12064136","name":"Fredersdorf-Vogelsdorf","type":"Kreisangehörige_Gemeinde"},"district":{"key":"12064","name":"Märkisch-Oderland","type":"Landkreis"},"federalState":{"key":"12","name":"Brandenburg"}},{"name":"Walter-Kollo-Str.","postalCode":"15370","locality":"Fredersdorf-Vogelsdorf","municipality":{"key":"12064136","name":"Fredersdorf-Vogelsdorf","type":"Kreisangehörige_Gemeinde"},"district":{"key":"12064","name":"Märkisch-Oderland","type":"Landkreis"},"federalState":{"key":"12","name":"Brandenburg"}},{"name":"Wankelstr.","postalCode":"15370","locality":"Fredersdorf-Vogelsdorf","municipality":{"key":"12064136","name":"Fredersdorf-Vogelsdorf","type":"Kreisangehörige_Gemeinde"},"district":{"key":"12064","name":"Märkisch-Oderland","type":"Landkreis"},"federalState":{"key":"12","name":"Brandenburg"}},{"name":"Weberstr.","postalCode":"15370","locality":"Fredersdorf-Vogelsdorf","municipality":{"key":"12064136","name":"Fredersdorf-Vogelsdorf","type":"Kreisangehörige_Gemeinde"},"district":{"key":"12064","name":"Märkisch-Oderland","type":"Landkreis"},"federalState":{"key":"12","name":"Brandenburg"}},{"name":"Weidenweg","postalCode":"15370","locality":"Fredersdorf-Vogelsdorf","municipality":{"key":"12064136","name":"Fredersdorf-Vogelsdorf","type":"Kreisangehörige_Gemeinde"},"district":{"key":"12064","name":"Märkisch-Oderland","type":"Landkreis"},"federalState":{"key":"12","name":"Brandenburg"}},{"name":"Weingartnerstr.","postalCode":"15370","locality":"Fredersdorf-Vogelsdorf","municipality":{"key":"12064136","name":"Fredersdorf-Vogelsdorf","type":"Kreisangehörige_Gemeinde"},"district":{"key":"12064","name":"Märkisch-Oderland","type":"Landkreis"},"federalState":{"key":"12","name":"Brandenburg"}},{"name":"Werderstr.","postalCode":"15370","locality":"Fredersdorf-Vogelsdorf","municipality":{"key":"12064136","name":"Fredersdorf-Vogelsdorf","type":"Kreisangehörige_Gemeinde"},"district":{"key":"12064","name":"Märkisch-Oderland","type":"Landkreis"},"federalState":{"key":"12","name":"Brandenburg"}},{"name":"Weserstr.","postalCode":"15370","locality":"Fredersdorf-Vogelsdorf","municipality":{"key":"12064136","name":"Fredersdorf-Vogelsdorf","type":"Kreisangehörige_Gemeinde"},"district":{"key":"12064","name":"Märkisch-Oderland","type":"Landkreis"},"federalState":{"key":"12","name":"Brandenburg"}},{"name":"Wiesengrund","postalCode":"15370","locality":"Fredersdorf-Vogelsdorf","municipality":{"key":"12064136","name":"Fredersdorf-Vogelsdorf","type":"Kreisangehörige_Gemeinde"},"district":{"key":"12064","name":"Märkisch-Oderland","type":"Landkreis"},"federalState":{"key":"12","name":"Brandenburg"}},{"name":"Wiesenweg","postalCode":"15370","locality":"Fredersdorf-Vogelsdorf","municipality":{"key":"12064136","name":"Fredersdorf-Vogelsdorf","type":"Kreisangehörige_Gemeinde"},"district":{"key":"12064","name":"Märkisch-Oderland","type":"Landkreis"},"federalState":{"key":"12","name":"Brandenburg"}},{"name":"Wilhelm-Busch-Str.","postalCode":"15370","locality":"Fredersdorf-Vogelsdorf","municipality":{"key":"12064136","name":"Fredersdorf-Vogelsdorf","type":"Kreisangehörige_Gemeinde"},"district":{"key":"12064","name":"Märkisch-Oderland","type":"Landkreis"},"federalState":{"key":"12","name":"Brandenburg"}},{"name":"Zeppelinstr.","postalCode":"15370","locality":"Fredersdorf-Vogelsdorf","municipality":{"key":"12064136","name":"Fredersdorf-Vogelsdorf","type":"Kreisangehörige_Gemeinde"},"district":{"key":"12064","name":"Märkisch-Oderland","type":"Landkreis"},"federalState":{"key":"12","name":"Brandenburg"}},{"name":"Zillestr.","postalCode":"15370","locality":"Fredersdorf-Vogelsdorf","municipality":{"key":"12064136","name":"Fredersdorf-Vogelsdorf","type":"Kreisangehörige_Gemeinde"},"district":{"key":"12064","name":"Märkisch-Oderland","type":"Landkreis"},"federalState":{"key":"12","name":"Brandenburg"}},]