[{"name":"Am Hütter Wohld","postalCode":"18209","locality":"Bartenshagen-Parkentin","municipality":{"key":"13072007","name":"Bartenshagen-Parkentin","type":"Kreisangehörige_Gemeinde"},"district":{"key":"13072","name":"Landkreis Rostock","type":"Landkreis"},"federalState":{"key":"13","name":"Mecklenburg-Vorpommern"}},{"name":"Am Kindergarten","postalCode":"18209","locality":"Bartenshagen-Parkentin","municipality":{"key":"13072007","name":"Bartenshagen-Parkentin","type":"Kreisangehörige_Gemeinde"},"district":{"key":"13072","name":"Landkreis Rostock","type":"Landkreis"},"federalState":{"key":"13","name":"Mecklenburg-Vorpommern"}},{"name":"Am Reiterhof","postalCode":"18209","locality":"Bartenshagen-Parkentin","municipality":{"key":"13072007","name":"Bartenshagen-Parkentin","type":"Kreisangehörige_Gemeinde"},"district":{"key":"13072","name":"Landkreis Rostock","type":"Landkreis"},"federalState":{"key":"13","name":"Mecklenburg-Vorpommern"}},{"name":"Am Stegebach","postalCode":"18209","locality":"Bartenshagen-Parkentin","municipality":{"key":"13072007","name":"Bartenshagen-Parkentin","type":"Kreisangehörige_Gemeinde"},"district":{"key":"13072","name":"Landkreis Rostock","type":"Landkreis"},"federalState":{"key":"13","name":"Mecklenburg-Vorpommern"}},{"name":"Am Wiesengrund","postalCode":"18209","locality":"Bartenshagen-Parkentin","municipality":{"key":"13072007","name":"Bartenshagen-Parkentin","type":"Kreisangehörige_Gemeinde"},"district":{"key":"13072","name":"Landkreis Rostock","type":"Landkreis"},"federalState":{"key":"13","name":"Mecklenburg-Vorpommern"}},{"name":"An den Weiden","postalCode":"18209","locality":"Bartenshagen-Parkentin","municipality":{"key":"13072007","name":"Bartenshagen-Parkentin","type":"Kreisangehörige_Gemeinde"},"district":{"key":"13072","name":"Landkreis Rostock","type":"Landkreis"},"federalState":{"key":"13","name":"Mecklenburg-Vorpommern"}},{"name":"An der Streuobstwiese","postalCode":"18209","locality":"Bartenshagen-Parkentin","municipality":{"key":"13072007","name":"Bartenshagen-Parkentin","type":"Kreisangehörige_Gemeinde"},"district":{"key":"13072","name":"Landkreis Rostock","type":"Landkreis"},"federalState":{"key":"13","name":"Mecklenburg-Vorpommern"}},{"name":"Bachstelzenweg","postalCode":"18209","locality":"Bartenshagen-Parkentin","municipality":{"key":"13072007","name":"Bartenshagen-Parkentin","type":"Kreisangehörige_Gemeinde"},"district":{"key":"13072","name":"Landkreis Rostock","type":"Landkreis"},"federalState":{"key":"13","name":"Mecklenburg-Vorpommern"}},{"name":"Bahnhofstr.","postalCode":"18209","locality":"Bartenshagen-Parkentin","municipality":{"key":"13072007","name":"Bartenshagen-Parkentin","type":"Kreisangehörige_Gemeinde"},"district":{"key":"13072","name":"Landkreis Rostock","type":"Landkreis"},"federalState":{"key":"13","name":"Mecklenburg-Vorpommern"}},{"name":"Bartenshäger Str.","postalCode":"18209","locality":"Bartenshagen-Parkentin","municipality":{"key":"13072007","name":"Bartenshagen-Parkentin","type":"Kreisangehörige_Gemeinde"},"district":{"key":"13072","name":"Landkreis Rostock","type":"Landkreis"},"federalState":{"key":"13","name":"Mecklenburg-Vorpommern"}},{"name":"Bollbrücke","postalCode":"18209","locality":"Bartenshagen-Parkentin","municipality":{"key":"13072007","name":"Bartenshagen-Parkentin","type":"Kreisangehörige_Gemeinde"},"district":{"key":"13072","name":"Landkreis Rostock","type":"Landkreis"},"federalState":{"key":"13","name":"Mecklenburg-Vorpommern"}},{"name":"Doberaner Str.","postalCode":"18209","locality":"Bartenshagen-Parkentin","municipality":{"key":"13072007","name":"Bartenshagen-Parkentin","type":"Kreisangehörige_Gemeinde"},"district":{"key":"13072","name":"Landkreis Rostock","type":"Landkreis"},"federalState":{"key":"13","name":"Mecklenburg-Vorpommern"}},{"name":"Feldstr.","postalCode":"18209","locality":"Bartenshagen-Parkentin","municipality":{"key":"13072007","name":"Bartenshagen-Parkentin","type":"Kreisangehörige_Gemeinde"},"district":{"key":"13072","name":"Landkreis Rostock","type":"Landkreis"},"federalState":{"key":"13","name":"Mecklenburg-Vorpommern"}},{"name":"Forstmeisterschneise","postalCode":"18209","locality":"Bartenshagen-Parkentin","municipality":{"key":"13072007","name":"Bartenshagen-Parkentin","type":"Kreisangehörige_Gemeinde"},"district":{"key":"13072","name":"Landkreis Rostock","type":"Landkreis"},"federalState":{"key":"13","name":"Mecklenburg-Vorpommern"}},{"name":"Grüne Schneise","postalCode":"18209","locality":"Bartenshagen-Parkentin","municipality":{"key":"13072007","name":"Bartenshagen-Parkentin","type":"Kreisangehörige_Gemeinde"},"district":{"key":"13072","name":"Landkreis Rostock","type":"Landkreis"},"federalState":{"key":"13","name":"Mecklenburg-Vorpommern"}},{"name":"Heckenweg","postalCode":"18209","locality":"Bartenshagen-Parkentin","municipality":{"key":"13072007","name":"Bartenshagen-Parkentin","type":"Kreisangehörige_Gemeinde"},"district":{"key":"13072","name":"Landkreis Rostock","type":"Landkreis"},"federalState":{"key":"13","name":"Mecklenburg-Vorpommern"}},{"name":"Koppelweg","postalCode":"18209","locality":"Bartenshagen-Parkentin","municipality":{"key":"13072007","name":"Bartenshagen-Parkentin","type":"Kreisangehörige_Gemeinde"},"district":{"key":"13072","name":"Landkreis Rostock","type":"Landkreis"},"federalState":{"key":"13","name":"Mecklenburg-Vorpommern"}},{"name":"Lindenallee","postalCode":"18209","locality":"Bartenshagen-Parkentin","municipality":{"key":"13072007","name":"Bartenshagen-Parkentin","type":"Kreisangehörige_Gemeinde"},"district":{"key":"13072","name":"Landkreis Rostock","type":"Landkreis"},"federalState":{"key":"13","name":"Mecklenburg-Vorpommern"}},{"name":"Nordblick","postalCode":"18209","locality":"Bartenshagen-Parkentin","municipality":{"key":"13072007","name":"Bartenshagen-Parkentin","type":"Kreisangehörige_Gemeinde"},"district":{"key":"13072","name":"Landkreis Rostock","type":"Landkreis"},"federalState":{"key":"13","name":"Mecklenburg-Vorpommern"}},{"name":"Parkentiner Weg","postalCode":"18209","locality":"Bartenshagen-Parkentin","municipality":{"key":"13072007","name":"Bartenshagen-Parkentin","type":"Kreisangehörige_Gemeinde"},"district":{"key":"13072","name":"Landkreis Rostock","type":"Landkreis"},"federalState":{"key":"13","name":"Mecklenburg-Vorpommern"}},{"name":"Pirolallee","postalCode":"18209","locality":"Bartenshagen-Parkentin","municipality":{"key":"13072007","name":"Bartenshagen-Parkentin","type":"Kreisangehörige_Gemeinde"},"district":{"key":"13072","name":"Landkreis Rostock","type":"Landkreis"},"federalState":{"key":"13","name":"Mecklenburg-Vorpommern"}},{"name":"Querstr.","postalCode":"18209","locality":"Bartenshagen-Parkentin","municipality":{"key":"13072007","name":"Bartenshagen-Parkentin","type":"Kreisangehörige_Gemeinde"},"district":{"key":"13072","name":"Landkreis Rostock","type":"Landkreis"},"federalState":{"key":"13","name":"Mecklenburg-Vorpommern"}},{"name":"Rostocker Str.","postalCode":"18209","locality":"Bartenshagen-Parkentin","municipality":{"key":"13072007","name":"Bartenshagen-Parkentin","type":"Kreisangehörige_Gemeinde"},"district":{"key":"13072","name":"Landkreis Rostock","type":"Landkreis"},"federalState":{"key":"13","name":"Mecklenburg-Vorpommern"}},{"name":"Stegekampring","postalCode":"18209","locality":"Bartenshagen-Parkentin","municipality":{"key":"13072007","name":"Bartenshagen-Parkentin","type":"Kreisangehörige_Gemeinde"},"district":{"key":"13072","name":"Landkreis Rostock","type":"Landkreis"},"federalState":{"key":"13","name":"Mecklenburg-Vorpommern"}},{"name":"Waldweg","postalCode":"18209","locality":"Bartenshagen-Parkentin","municipality":{"key":"13072007","name":"Bartenshagen-Parkentin","type":"Kreisangehörige_Gemeinde"},"district":{"key":"13072","name":"Landkreis Rostock","type":"Landkreis"},"federalState":{"key":"13","name":"Mecklenburg-Vorpommern"}},{"name":"Wiesengrund","postalCode":"18209","locality":"Bartenshagen-Parkentin","municipality":{"key":"13072007","name":"Bartenshagen-Parkentin","type":"Kreisangehörige_Gemeinde"},"district":{"key":"13072","name":"Landkreis Rostock","type":"Landkreis"},"federalState":{"key":"13","name":"Mecklenburg-Vorpommern"}},{"name":"Wiesenstr.","postalCode":"18209","locality":"Bartenshagen-Parkentin","municipality":{"key":"13072007","name":"Bartenshagen-Parkentin","type":"Kreisangehörige_Gemeinde"},"district":{"key":"13072","name":"Landkreis Rostock","type":"Landkreis"},"federalState":{"key":"13","name":"Mecklenburg-Vorpommern"}},{"name":"Zur Hofkoppel","postalCode":"18209","locality":"Bartenshagen-Parkentin","municipality":{"key":"13072007","name":"Bartenshagen-Parkentin","type":"Kreisangehörige_Gemeinde"},"district":{"key":"13072","name":"Landkreis Rostock","type":"Landkreis"},"federalState":{"key":"13","name":"Mecklenburg-Vorpommern"}},{"name":"Zur Linde","postalCode":"18209","locality":"Bartenshagen-Parkentin","municipality":{"key":"13072007","name":"Bartenshagen-Parkentin","type":"Kreisangehörige_Gemeinde"},"district":{"key":"13072","name":"Landkreis Rostock","type":"Landkreis"},"federalState":{"key":"13","name":"Mecklenburg-Vorpommern"}},]