[{"key":"10170458","name":"Ahoru","postalCode":"3914","locality":"Blatten b. Naters","commune":{"key":"6007","name":"Naters","shortName":"Naters"},"district":{"key":"2301","name":"Bezirk Brig"},"canton":{"key":"23","code":"VS","name":"Valais / Wallis"},"status":"Real"},{"key":"10241068","name":"Bietschhornstrasse","postalCode":"3919","locality":"Blatten (Lötschen)","commune":{"key":"6192","name":"Blatten","shortName":"Blatten"},"district":{"key":"2309","name":"Bezirk Raron"},"canton":{"key":"23","code":"VS","name":"Valais / Wallis"},"status":"Real"},{"key":"10241108","name":"Bifigweg","postalCode":"3919","locality":"Blatten (Lötschen)","commune":{"key":"6192","name":"Blatten","shortName":"Blatten"},"district":{"key":"2309","name":"Bezirk Raron"},"canton":{"key":"23","code":"VS","name":"Valais / Wallis"},"status":"Real"},{"key":"10241105","name":"Birchweg","postalCode":"3919","locality":"Blatten (Lötschen)","commune":{"key":"6192","name":"Blatten","shortName":"Blatten"},"district":{"key":"2309","name":"Bezirk Raron"},"canton":{"key":"23","code":"VS","name":"Valais / Wallis"},"status":"Real"},{"key":"10241059","name":"Blattenstrasse","postalCode":"3919","locality":"Blatten (Lötschen)","commune":{"key":"6192","name":"Blatten","shortName":"Blatten"},"district":{"key":"2309","name":"Bezirk Raron"},"canton":{"key":"23","code":"VS","name":"Valais / Wallis"},"status":"Real"},{"key":"10171500","name":"Blattnerhalta","postalCode":"3914","locality":"Blatten b. Naters","commune":{"key":"6007","name":"Naters","shortName":"Naters"},"district":{"key":"2301","name":"Bezirk Brig"},"canton":{"key":"23","code":"VS","name":"Valais / Wallis"},"status":"Real"},{"key":"10236235","name":"Blattnerriebe","postalCode":"3914","locality":"Blatten b. Naters","commune":{"key":"6007","name":"Naters","shortName":"Naters"},"district":{"key":"2301","name":"Bezirk Brig"},"canton":{"key":"23","code":"VS","name":"Valais / Wallis"},"status":"Real"},{"key":"10173737","name":"Bliischmelzi","postalCode":"3914","locality":"Blatten b. Naters","commune":{"key":"6007","name":"Naters","shortName":"Naters"},"district":{"key":"2301","name":"Bezirk Brig"},"canton":{"key":"23","code":"VS","name":"Valais / Wallis"},"status":"Real"},{"key":"10241074","name":"Bodmenweg","postalCode":"3919","locality":"Blatten (Lötschen)","commune":{"key":"6192","name":"Blatten","shortName":"Blatten"},"district":{"key":"2309","name":"Bezirk Raron"},"canton":{"key":"23","code":"VS","name":"Valais / Wallis"},"status":"Real"},{"key":"10241066","name":"Brunnmattenstrasse","postalCode":"3919","locality":"Blatten (Lötschen)","commune":{"key":"6192","name":"Blatten","shortName":"Blatten"},"district":{"key":"2309","name":"Bezirk Raron"},"canton":{"key":"23","code":"VS","name":"Valais / Wallis"},"status":"Real"},{"key":"10241073","name":"Burgerhausweg","postalCode":"3919","locality":"Blatten (Lötschen)","commune":{"key":"6192","name":"Blatten","shortName":"Blatten"},"district":{"key":"2309","name":"Bezirk Raron"},"canton":{"key":"23","code":"VS","name":"Valais / Wallis"},"status":"Real"},{"key":"10171779","name":"Egga","postalCode":"3914","locality":"Blatten b. Naters","commune":{"key":"6007","name":"Naters","shortName":"Naters"},"district":{"key":"2301","name":"Bezirk Brig"},"canton":{"key":"23","code":"VS","name":"Valais / Wallis"},"status":"Real"},{"key":"10082348","name":"Eija","postalCode":"3914","locality":"Blatten b. Naters","commune":{"key":"6007","name":"Naters","shortName":"Naters"},"district":{"key":"2301","name":"Bezirk Brig"},"canton":{"key":"23","code":"VS","name":"Valais / Wallis"},"status":"Real"},{"key":"10173734","name":"Eijeltiniweg","postalCode":"3914","locality":"Blatten b. Naters","commune":{"key":"6007","name":"Naters","shortName":"Naters"},"district":{"key":"2301","name":"Bezirk Brig"},"canton":{"key":"23","code":"VS","name":"Valais / Wallis"},"status":"Real"},{"key":"10241077","name":"Eistenstrasse","postalCode":"3919","locality":"Blatten (Lötschen)","commune":{"key":"6192","name":"Blatten","shortName":"Blatten"},"district":{"key":"2309","name":"Bezirk Raron"},"canton":{"key":"23","code":"VS","name":"Valais / Wallis"},"status":"Real"},{"key":"10241078","name":"Eistgasse","postalCode":"3919","locality":"Blatten (Lötschen)","commune":{"key":"6192","name":"Blatten","shortName":"Blatten"},"district":{"key":"2309","name":"Bezirk Raron"},"canton":{"key":"23","code":"VS","name":"Valais / Wallis"},"status":"Real"},{"key":"10241061","name":"Enginweg","postalCode":"3919","locality":"Blatten (Lötschen)","commune":{"key":"6192","name":"Blatten","shortName":"Blatten"},"district":{"key":"2309","name":"Bezirk Raron"},"canton":{"key":"23","code":"VS","name":"Valais / Wallis"},"status":"Real"},{"key":"10241095","name":"Faflerstrasse","postalCode":"3919","locality":"Blatten (Lötschen)","commune":{"key":"6192","name":"Blatten","shortName":"Blatten"},"district":{"key":"2309","name":"Bezirk Raron"},"canton":{"key":"23","code":"VS","name":"Valais / Wallis"},"status":"Real"},{"key":"10241102","name":"Finstertanweg","postalCode":"3919","locality":"Blatten (Lötschen)","commune":{"key":"6192","name":"Blatten","shortName":"Blatten"},"district":{"key":"2309","name":"Bezirk Raron"},"canton":{"key":"23","code":"VS","name":"Valais / Wallis"},"status":"Real"},{"key":"10241081","name":"Firtstrasse","postalCode":"3919","locality":"Blatten (Lötschen)","commune":{"key":"6192","name":"Blatten","shortName":"Blatten"},"district":{"key":"2309","name":"Bezirk Raron"},"canton":{"key":"23","code":"VS","name":"Valais / Wallis"},"status":"Real"},{"key":"10170744","name":"Fure","postalCode":"3914","locality":"Blatten b. Naters","commune":{"key":"6007","name":"Naters","shortName":"Naters"},"district":{"key":"2301","name":"Bezirk Brig"},"canton":{"key":"23","code":"VS","name":"Valais / Wallis"},"status":"Real"},{"key":"10174554","name":"Geissbalma","postalCode":"3914","locality":"Blatten b. Naters","commune":{"key":"6007","name":"Naters","shortName":"Naters"},"district":{"key":"2301","name":"Bezirk Brig"},"canton":{"key":"23","code":"VS","name":"Valais / Wallis"},"status":"Real"},{"key":"10241062","name":"Gisentellweg","postalCode":"3919","locality":"Blatten (Lötschen)","commune":{"key":"6192","name":"Blatten","shortName":"Blatten"},"district":{"key":"2309","name":"Bezirk Raron"},"canton":{"key":"23","code":"VS","name":"Valais / Wallis"},"status":"Real"},{"key":"10138948","name":"Gletscheralp","postalCode":"3919","locality":"Blatten (Lötschen)","commune":{"key":"6192","name":"Blatten","shortName":"Blatten"},"district":{"key":"2309","name":"Bezirk Raron"},"canton":{"key":"23","code":"VS","name":"Valais / Wallis"},"status":"Real"},{"key":"10042861","name":"Guferli","postalCode":"3914","locality":"Blatten b. Naters","commune":{"key":"6007","name":"Naters","shortName":"Naters"},"district":{"key":"2301","name":"Bezirk Brig"},"canton":{"key":"23","code":"VS","name":"Valais / Wallis"},"status":"Real"},{"key":"10254319","name":"Haldenweg","postalCode":"3914","locality":"Blatten b. Naters","commune":{"key":"6007","name":"Naters","shortName":"Naters"},"district":{"key":"2301","name":"Bezirk Brig"},"canton":{"key":"23","code":"VS","name":"Valais / Wallis"},"status":"Real"},{"key":"10170747","name":"Hasul","postalCode":"3914","locality":"Blatten b. Naters","commune":{"key":"6007","name":"Naters","shortName":"Naters"},"district":{"key":"2301","name":"Bezirk Brig"},"canton":{"key":"23","code":"VS","name":"Valais / Wallis"},"status":"Real"},{"key":"10172855","name":"Heeji","postalCode":"3914","locality":"Blatten b. Naters","commune":{"key":"6007","name":"Naters","shortName":"Naters"},"district":{"key":"2301","name":"Bezirk Brig"},"canton":{"key":"23","code":"VS","name":"Valais / Wallis"},"status":"Real"},{"key":"10096783","name":"Holzji","postalCode":"3914","locality":"Blatten b. Naters","commune":{"key":"6007","name":"Naters","shortName":"Naters"},"district":{"key":"2301","name":"Bezirk Brig"},"canton":{"key":"23","code":"VS","name":"Valais / Wallis"},"status":"Real"},{"key":"10241100","name":"Hotelweg","postalCode":"3919","locality":"Blatten (Lötschen)","commune":{"key":"6192","name":"Blatten","shortName":"Blatten"},"district":{"key":"2309","name":"Bezirk Raron"},"canton":{"key":"23","code":"VS","name":"Valais / Wallis"},"status":"Real"},{"key":"10163705","name":"Kapellenweg","postalCode":"3914","locality":"Blatten b. Naters","commune":{"key":"6007","name":"Naters","shortName":"Naters"},"district":{"key":"2301","name":"Bezirk Brig"},"canton":{"key":"23","code":"VS","name":"Valais / Wallis"},"status":"Real"},{"key":"10241063","name":"Kirchweg","postalCode":"3919","locality":"Blatten (Lötschen)","commune":{"key":"6192","name":"Blatten","shortName":"Blatten"},"district":{"key":"2309","name":"Bezirk Raron"},"canton":{"key":"23","code":"VS","name":"Valais / Wallis"},"status":"Real"},{"key":"10241115","name":"Kühmattweg","postalCode":"3919","locality":"Blatten (Lötschen)","commune":{"key":"6192","name":"Blatten","shortName":"Blatten"},"district":{"key":"2309","name":"Bezirk Raron"},"canton":{"key":"23","code":"VS","name":"Valais / Wallis"},"status":"Real"},{"key":"10241064","name":"Lonzaweg","postalCode":"3919","locality":"Blatten (Lötschen)","commune":{"key":"6192","name":"Blatten","shortName":"Blatten"},"district":{"key":"2309","name":"Bezirk Raron"},"canton":{"key":"23","code":"VS","name":"Valais / Wallis"},"status":"Real"},{"key":"10254735","name":"Massaweg","postalCode":"3914","locality":"Blatten b. Naters","commune":{"key":"6007","name":"Naters","shortName":"Naters"},"district":{"key":"2301","name":"Bezirk Brig"},"canton":{"key":"23","code":"VS","name":"Valais / Wallis"},"status":"Real"},{"key":"10171772","name":"Müelera","postalCode":"3914","locality":"Blatten b. Naters","commune":{"key":"6007","name":"Naters","shortName":"Naters"},"district":{"key":"2301","name":"Bezirk Brig"},"canton":{"key":"23","code":"VS","name":"Valais / Wallis"},"status":"Real"},{"key":"10241097","name":"Nesthornweg","postalCode":"3919","locality":"Blatten (Lötschen)","commune":{"key":"6192","name":"Blatten","shortName":"Blatten"},"district":{"key":"2309","name":"Bezirk Raron"},"canton":{"key":"23","code":"VS","name":"Valais / Wallis"},"status":"Real"},{"key":"10241460","name":"Netzbordstrasse","postalCode":"3919","locality":"Blatten (Lötschen)","commune":{"key":"6192","name":"Blatten","shortName":"Blatten"},"district":{"key":"2309","name":"Bezirk Raron"},"canton":{"key":"23","code":"VS","name":"Valais / Wallis"},"status":"Real"},{"key":"10241109","name":"Netzbordweg","postalCode":"3919","locality":"Blatten (Lötschen)","commune":{"key":"6192","name":"Blatten","shortName":"Blatten"},"district":{"key":"2309","name":"Bezirk Raron"},"canton":{"key":"23","code":"VS","name":"Valais / Wallis"},"status":"Real"},{"key":"10042863","name":"Ober Erich","postalCode":"3914","locality":"Blatten b. Naters","commune":{"key":"6007","name":"Naters","shortName":"Naters"},"district":{"key":"2301","name":"Bezirk Brig"},"canton":{"key":"23","code":"VS","name":"Valais / Wallis"},"status":"Real"},{"key":"10053537","name":"Oberi Täätsche","postalCode":"3914","locality":"Blatten b. Naters","commune":{"key":"6007","name":"Naters","shortName":"Naters"},"district":{"key":"2301","name":"Bezirk Brig"},"canton":{"key":"23","code":"VS","name":"Valais / Wallis"},"status":"Real"},{"key":"10241096","name":"Oberriedstrasse","postalCode":"3919","locality":"Blatten (Lötschen)","commune":{"key":"6192","name":"Blatten","shortName":"Blatten"},"district":{"key":"2309","name":"Bezirk Raron"},"canton":{"key":"23","code":"VS","name":"Valais / Wallis"},"status":"Real"},{"key":"10209836","name":"Reka-Feriendorf","postalCode":"3914","locality":"Blatten b. Naters","commune":{"key":"6007","name":"Naters","shortName":"Naters"},"district":{"key":"2301","name":"Bezirk Brig"},"canton":{"key":"23","code":"VS","name":"Valais / Wallis"},"status":"Real"},{"key":"10241098","name":"Riedstrasse","postalCode":"3919","locality":"Blatten (Lötschen)","commune":{"key":"6192","name":"Blatten","shortName":"Blatten"},"district":{"key":"2309","name":"Bezirk Raron"},"canton":{"key":"23","code":"VS","name":"Valais / Wallis"},"status":"Real"},{"key":"10171773","name":"Rischinu","postalCode":"3914","locality":"Blatten b. Naters","commune":{"key":"6007","name":"Naters","shortName":"Naters"},"district":{"key":"2301","name":"Bezirk Brig"},"canton":{"key":"23","code":"VS","name":"Valais / Wallis"},"status":"Real"},{"key":"10173721","name":"Rischinustrasse","postalCode":"3914","locality":"Blatten b. Naters","commune":{"key":"6007","name":"Naters","shortName":"Naters"},"district":{"key":"2301","name":"Bezirk Brig"},"canton":{"key":"23","code":"VS","name":"Valais / Wallis"},"status":"Real"},{"key":"10038537","name":"Rossweg","postalCode":"3914","locality":"Blatten b. Naters","commune":{"key":"6007","name":"Naters","shortName":"Naters"},"district":{"key":"2301","name":"Bezirk Brig"},"canton":{"key":"23","code":"VS","name":"Valais / Wallis"},"status":"Real"},{"key":"10241071","name":"Sagenweg","postalCode":"3919","locality":"Blatten (Lötschen)","commune":{"key":"6192","name":"Blatten","shortName":"Blatten"},"district":{"key":"2309","name":"Bezirk Raron"},"canton":{"key":"23","code":"VS","name":"Valais / Wallis"},"status":"Real"},{"key":"10241070","name":"Schluchtweg","postalCode":"3919","locality":"Blatten (Lötschen)","commune":{"key":"6192","name":"Blatten","shortName":"Blatten"},"district":{"key":"2309","name":"Bezirk Raron"},"canton":{"key":"23","code":"VS","name":"Valais / Wallis"},"status":"Real"},{"key":"10241072","name":"Spielfluhweg","postalCode":"3919","locality":"Blatten (Lötschen)","commune":{"key":"6192","name":"Blatten","shortName":"Blatten"},"district":{"key":"2309","name":"Bezirk Raron"},"canton":{"key":"23","code":"VS","name":"Valais / Wallis"},"status":"Real"},{"key":"10241076","name":"Stadelfluhweg","postalCode":"3919","locality":"Blatten (Lötschen)","commune":{"key":"6192","name":"Blatten","shortName":"Blatten"},"district":{"key":"2309","name":"Bezirk Raron"},"canton":{"key":"23","code":"VS","name":"Valais / Wallis"},"status":"Real"},{"key":"10241065","name":"Stegmattenweg","postalCode":"3919","locality":"Blatten (Lötschen)","commune":{"key":"6192","name":"Blatten","shortName":"Blatten"},"district":{"key":"2309","name":"Bezirk Raron"},"canton":{"key":"23","code":"VS","name":"Valais / Wallis"},"status":"Real"},{"key":"10171777","name":"Steigadu","postalCode":"3914","locality":"Blatten b. Naters","commune":{"key":"6007","name":"Naters","shortName":"Naters"},"district":{"key":"2301","name":"Bezirk Brig"},"canton":{"key":"23","code":"VS","name":"Valais / Wallis"},"status":"Real"},{"key":"10241082","name":"Steinschlagweg","postalCode":"3919","locality":"Blatten (Lötschen)","commune":{"key":"6192","name":"Blatten","shortName":"Blatten"},"district":{"key":"2309","name":"Bezirk Raron"},"canton":{"key":"23","code":"VS","name":"Valais / Wallis"},"status":"Real"},{"key":"10241079","name":"St. Wendelinweg","postalCode":"3919","locality":"Blatten (Lötschen)","commune":{"key":"6192","name":"Blatten","shortName":"Blatten"},"district":{"key":"2309","name":"Bezirk Raron"},"canton":{"key":"23","code":"VS","name":"Valais / Wallis"},"status":"Real"},{"key":"10173722","name":"Täätschestrasse","postalCode":"3914","locality":"Blatten b. Naters","commune":{"key":"6007","name":"Naters","shortName":"Naters"},"district":{"key":"2301","name":"Bezirk Brig"},"canton":{"key":"23","code":"VS","name":"Valais / Wallis"},"status":"Real"},{"key":"10241113","name":"Talstrasse","postalCode":"3919","locality":"Blatten (Lötschen)","commune":{"key":"6192","name":"Blatten","shortName":"Blatten"},"district":{"key":"2309","name":"Bezirk Raron"},"canton":{"key":"23","code":"VS","name":"Valais / Wallis"},"status":"Real"},{"key":"10241107","name":"Tärrastrasse","postalCode":"3919","locality":"Blatten (Lötschen)","commune":{"key":"6192","name":"Blatten","shortName":"Blatten"},"district":{"key":"2309","name":"Bezirk Raron"},"canton":{"key":"23","code":"VS","name":"Valais / Wallis"},"status":"Real"},{"key":"10256735","name":"Teichweg","postalCode":"3919","locality":"Blatten (Lötschen)","commune":{"key":"6192","name":"Blatten","shortName":"Blatten"},"district":{"key":"2309","name":"Bezirk Raron"},"canton":{"key":"23","code":"VS","name":"Valais / Wallis"},"status":"Real"},{"key":"10241110","name":"Tennmattenweg","postalCode":"3919","locality":"Blatten (Lötschen)","commune":{"key":"6192","name":"Blatten","shortName":"Blatten"},"district":{"key":"2309","name":"Bezirk Raron"},"canton":{"key":"23","code":"VS","name":"Valais / Wallis"},"status":"Real"},{"key":"10241069","name":"Tiefenmattenstrasse","postalCode":"3919","locality":"Blatten (Lötschen)","commune":{"key":"6192","name":"Blatten","shortName":"Blatten"},"district":{"key":"2309","name":"Bezirk Raron"},"canton":{"key":"23","code":"VS","name":"Valais / Wallis"},"status":"Real"},{"key":"10068353","name":"Tirblunweg","postalCode":"3919","locality":"Blatten (Lötschen)","commune":{"key":"6192","name":"Blatten","shortName":"Blatten"},"district":{"key":"2309","name":"Bezirk Raron"},"canton":{"key":"23","code":"VS","name":"Valais / Wallis"},"status":"Real"},{"key":"10173726","name":"Treichweg","postalCode":"3914","locality":"Blatten b. Naters","commune":{"key":"6007","name":"Naters","shortName":"Naters"},"district":{"key":"2301","name":"Bezirk Brig"},"canton":{"key":"23","code":"VS","name":"Valais / Wallis"},"status":"Real"},{"key":"10138411","name":"Tschuggegga","postalCode":"3914","locality":"Blatten b. Naters","commune":{"key":"6007","name":"Naters","shortName":"Naters"},"district":{"key":"2301","name":"Bezirk Brig"},"canton":{"key":"23","code":"VS","name":"Valais / Wallis"},"status":"Real"},{"key":"10102976","name":"Tschuggen","postalCode":"3914","locality":"Blatten b. Naters","commune":{"key":"6007","name":"Naters","shortName":"Naters"},"district":{"key":"2301","name":"Bezirk Brig"},"canton":{"key":"23","code":"VS","name":"Valais / Wallis"},"status":"Real"},{"key":"10171512","name":"Tschuggflüe","postalCode":"3914","locality":"Blatten b. Naters","commune":{"key":"6007","name":"Naters","shortName":"Naters"},"district":{"key":"2301","name":"Bezirk Brig"},"canton":{"key":"23","code":"VS","name":"Valais / Wallis"},"status":"Real"},{"key":"10241075","name":"Umlaufgasse","postalCode":"3919","locality":"Blatten (Lötschen)","commune":{"key":"6192","name":"Blatten","shortName":"Blatten"},"district":{"key":"2309","name":"Bezirk Raron"},"canton":{"key":"23","code":"VS","name":"Valais / Wallis"},"status":"Real"},{"key":"10138412","name":"Unner Erich","postalCode":"3914","locality":"Blatten b. Naters","commune":{"key":"6007","name":"Naters","shortName":"Naters"},"district":{"key":"2301","name":"Bezirk Brig"},"canton":{"key":"23","code":"VS","name":"Valais / Wallis"},"status":"Real"},{"key":"10053535","name":"Unneri Täätsche","postalCode":"3914","locality":"Blatten b. Naters","commune":{"key":"6007","name":"Naters","shortName":"Naters"},"district":{"key":"2301","name":"Bezirk Brig"},"canton":{"key":"23","code":"VS","name":"Valais / Wallis"},"status":"Real"},{"key":"10241111","name":"Weeschtumattenweg","postalCode":"3919","locality":"Blatten (Lötschen)","commune":{"key":"6192","name":"Blatten","shortName":"Blatten"},"district":{"key":"2309","name":"Bezirk Raron"},"canton":{"key":"23","code":"VS","name":"Valais / Wallis"},"status":"Real"},{"key":"10241080","name":"Weissenriedstrasse","postalCode":"3919","locality":"Blatten (Lötschen)","commune":{"key":"6192","name":"Blatten","shortName":"Blatten"},"district":{"key":"2309","name":"Bezirk Raron"},"canton":{"key":"23","code":"VS","name":"Valais / Wallis"},"status":"Real"},{"key":"10174546","name":"Wiggerscha","postalCode":"3914","locality":"Blatten b. Naters","commune":{"key":"6007","name":"Naters","shortName":"Naters"},"district":{"key":"2301","name":"Bezirk Brig"},"canton":{"key":"23","code":"VS","name":"Valais / Wallis"},"status":"Real"},{"key":"10197182","name":"Wiichje","postalCode":"3914","locality":"Blatten b. Naters","commune":{"key":"6007","name":"Naters","shortName":"Naters"},"district":{"key":"2301","name":"Bezirk Brig"},"canton":{"key":"23","code":"VS","name":"Valais / Wallis"},"status":"Real"},{"key":"10241103","name":"Winterbletschenweg","postalCode":"3919","locality":"Blatten (Lötschen)","commune":{"key":"6192","name":"Blatten","shortName":"Blatten"},"district":{"key":"2309","name":"Bezirk Raron"},"canton":{"key":"23","code":"VS","name":"Valais / Wallis"},"status":"Real"},{"key":"10174544","name":"Zer niwwu Schiir","postalCode":"3914","locality":"Blatten b. Naters","commune":{"key":"6007","name":"Naters","shortName":"Naters"},"district":{"key":"2301","name":"Bezirk Brig"},"canton":{"key":"23","code":"VS","name":"Valais / Wallis"},"status":"Real"},{"key":"10241104","name":"Zubinweg","postalCode":"3919","locality":"Blatten (Lötschen)","commune":{"key":"6192","name":"Blatten","shortName":"Blatten"},"district":{"key":"2309","name":"Bezirk Raron"},"canton":{"key":"23","code":"VS","name":"Valais / Wallis"},"status":"Real"},{"key":"10173729","name":"Zum Bärg","postalCode":"3914","locality":"Blatten b. Naters","commune":{"key":"6007","name":"Naters","shortName":"Naters"},"district":{"key":"2301","name":"Bezirk Brig"},"canton":{"key":"23","code":"VS","name":"Valais / Wallis"},"status":"Real"},]