[{"key":"10136799","name":"Ahornweg","postalCode":"4524","locality":"Günsberg","commune":{"key":"2547","name":"Günsberg","shortName":"Günsberg"},"district":{"key":"1107","name":"Bezirk Lebern"},"canton":{"key":"11","code":"SO","name":"Solothurn"},"status":"Real"},{"key":"10212630","name":"Alte Balmbergstrasse","postalCode":"4525","locality":"Balm b. Günsberg","commune":{"key":"2541","name":"Balm bei Günsberg","shortName":"Balm bei Günsberg"},"district":{"key":"1107","name":"Bezirk Lebern"},"canton":{"key":"11","code":"SO","name":"Solothurn"},"status":"Real"},{"key":"10020803","name":"Balmbergstrasse","postalCode":"4524","locality":"Günsberg","commune":{"key":"2547","name":"Günsberg","shortName":"Günsberg"},"district":{"key":"1107","name":"Bezirk Lebern"},"canton":{"key":"11","code":"SO","name":"Solothurn"},"status":"Real"},{"key":"10212634","name":"Balmbergstrasse","postalCode":"4525","locality":"Balm b. Günsberg","commune":{"key":"2541","name":"Balm bei Günsberg","shortName":"Balm bei Günsberg"},"district":{"key":"1107","name":"Bezirk Lebern"},"canton":{"key":"11","code":"SO","name":"Solothurn"},"status":"Real"},{"key":"10089595","name":"Balmfluhstrasse","postalCode":"4524","locality":"Günsberg","commune":{"key":"2547","name":"Günsberg","shortName":"Günsberg"},"district":{"key":"1107","name":"Bezirk Lebern"},"canton":{"key":"11","code":"SO","name":"Solothurn"},"status":"Real"},{"key":"10020804","name":"Balmstrasse","postalCode":"4524","locality":"Günsberg","commune":{"key":"2547","name":"Günsberg","shortName":"Günsberg"},"district":{"key":"1107","name":"Bezirk Lebern"},"canton":{"key":"11","code":"SO","name":"Solothurn"},"status":"Real"},{"key":"10111352","name":"Balmweid","postalCode":"4525","locality":"Balm b. Günsberg","commune":{"key":"2541","name":"Balm bei Günsberg","shortName":"Balm bei Günsberg"},"district":{"key":"1107","name":"Bezirk Lebern"},"canton":{"key":"11","code":"SO","name":"Solothurn"},"status":"Real"},{"key":"10051307","name":"Bannstrasse","postalCode":"4524","locality":"Günsberg","commune":{"key":"2547","name":"Günsberg","shortName":"Günsberg"},"district":{"key":"1107","name":"Bezirk Lebern"},"canton":{"key":"11","code":"SO","name":"Solothurn"},"status":"Real"},{"key":"10064662","name":"Bergli","postalCode":"4524","locality":"Günsberg","commune":{"key":"2547","name":"Günsberg","shortName":"Günsberg"},"district":{"key":"1107","name":"Bezirk Lebern"},"canton":{"key":"11","code":"SO","name":"Solothurn"},"status":"Real"},{"key":"10136797","name":"Bergmattweg","postalCode":"4524","locality":"Günsberg","commune":{"key":"2547","name":"Günsberg","shortName":"Günsberg"},"district":{"key":"1107","name":"Bezirk Lebern"},"canton":{"key":"11","code":"SO","name":"Solothurn"},"status":"Real"},{"key":"10181859","name":"Brüggackerstrasse","postalCode":"4524","locality":"Günsberg","commune":{"key":"2547","name":"Günsberg","shortName":"Günsberg"},"district":{"key":"1107","name":"Bezirk Lebern"},"canton":{"key":"11","code":"SO","name":"Solothurn"},"status":"Real"},{"key":"10053781","name":"Brüggmatt","postalCode":"4524","locality":"Günsberg","commune":{"key":"2547","name":"Günsberg","shortName":"Günsberg"},"district":{"key":"1107","name":"Bezirk Lebern"},"canton":{"key":"11","code":"SO","name":"Solothurn"},"status":"Real"},{"key":"10146235","name":"Brüggmattweg","postalCode":"4524","locality":"Günsberg","commune":{"key":"2547","name":"Günsberg","shortName":"Günsberg"},"district":{"key":"1107","name":"Bezirk Lebern"},"canton":{"key":"11","code":"SO","name":"Solothurn"},"status":"Real"},{"key":"10051308","name":"Bubengasse","postalCode":"4524","locality":"Günsberg","commune":{"key":"2547","name":"Günsberg","shortName":"Günsberg"},"district":{"key":"1107","name":"Bezirk Lebern"},"canton":{"key":"11","code":"SO","name":"Solothurn"},"status":"Real"},{"key":"10020805","name":"Buchenrain","postalCode":"4524","locality":"Günsberg","commune":{"key":"2547","name":"Günsberg","shortName":"Günsberg"},"district":{"key":"1107","name":"Bezirk Lebern"},"canton":{"key":"11","code":"SO","name":"Solothurn"},"status":"Real"},{"key":"10136798","name":"Buechweid","postalCode":"4524","locality":"Günsberg","commune":{"key":"2547","name":"Günsberg","shortName":"Günsberg"},"district":{"key":"1107","name":"Bezirk Lebern"},"canton":{"key":"11","code":"SO","name":"Solothurn"},"status":"Real"},{"key":"10115322","name":"Bündtenstrasse","postalCode":"4524","locality":"Günsberg","commune":{"key":"2547","name":"Günsberg","shortName":"Günsberg"},"district":{"key":"1107","name":"Bezirk Lebern"},"canton":{"key":"11","code":"SO","name":"Solothurn"},"status":"Real"},{"key":"10055967","name":"Burgstrasse","postalCode":"4525","locality":"Balm b. Günsberg","commune":{"key":"2541","name":"Balm bei Günsberg","shortName":"Balm bei Günsberg"},"district":{"key":"1107","name":"Bezirk Lebern"},"canton":{"key":"11","code":"SO","name":"Solothurn"},"status":"Real"},{"key":"10064663","name":"Dälen","postalCode":"4524","locality":"Günsberg","commune":{"key":"2547","name":"Günsberg","shortName":"Günsberg"},"district":{"key":"1107","name":"Bezirk Lebern"},"canton":{"key":"11","code":"SO","name":"Solothurn"},"status":"Real"},{"key":"10051309","name":"Eichholzweg","postalCode":"4524","locality":"Günsberg","commune":{"key":"2547","name":"Günsberg","shortName":"Günsberg"},"district":{"key":"1107","name":"Bezirk Lebern"},"canton":{"key":"11","code":"SO","name":"Solothurn"},"status":"Real"},{"key":"10136803","name":"Eschenweg","postalCode":"4524","locality":"Günsberg","commune":{"key":"2547","name":"Günsberg","shortName":"Günsberg"},"district":{"key":"1107","name":"Bezirk Lebern"},"canton":{"key":"11","code":"SO","name":"Solothurn"},"status":"Real"},{"key":"10020806","name":"Fiechtlerstrasse","postalCode":"4524","locality":"Günsberg","commune":{"key":"2547","name":"Günsberg","shortName":"Günsberg"},"district":{"key":"1107","name":"Bezirk Lebern"},"canton":{"key":"11","code":"SO","name":"Solothurn"},"status":"Real"},{"key":"10021088","name":"Fiechtlerweg","postalCode":"4524","locality":"Günsberg","commune":{"key":"2547","name":"Günsberg","shortName":"Günsberg"},"district":{"key":"1107","name":"Bezirk Lebern"},"canton":{"key":"11","code":"SO","name":"Solothurn"},"status":"Real"},{"key":"10139133","name":"Fuchsweg","postalCode":"4524","locality":"Günsberg","commune":{"key":"2547","name":"Günsberg","shortName":"Günsberg"},"district":{"key":"1107","name":"Bezirk Lebern"},"canton":{"key":"11","code":"SO","name":"Solothurn"},"status":"Real"},{"key":"10092112","name":"Gasse","postalCode":"4524","locality":"Günsberg","commune":{"key":"2547","name":"Günsberg","shortName":"Günsberg"},"district":{"key":"1107","name":"Bezirk Lebern"},"canton":{"key":"11","code":"SO","name":"Solothurn"},"status":"Real"},{"key":"10187780","name":"Gerackerstrasse","postalCode":"4524","locality":"Günsberg","commune":{"key":"2547","name":"Günsberg","shortName":"Günsberg"},"district":{"key":"1107","name":"Bezirk Lebern"},"canton":{"key":"11","code":"SO","name":"Solothurn"},"status":"Real"},{"key":"10057994","name":"Gewerbestrasse","postalCode":"4524","locality":"Günsberg","commune":{"key":"2547","name":"Günsberg","shortName":"Günsberg"},"district":{"key":"1107","name":"Bezirk Lebern"},"canton":{"key":"11","code":"SO","name":"Solothurn"},"status":"Real"},{"key":"10053782","name":"Glutzenberg","postalCode":"4524","locality":"Günsberg","commune":{"key":"2547","name":"Günsberg","shortName":"Günsberg"},"district":{"key":"1107","name":"Bezirk Lebern"},"canton":{"key":"11","code":"SO","name":"Solothurn"},"status":"Real"},{"key":"10190065","name":"Glutzenbergstrasse","postalCode":"4524","locality":"Günsberg","commune":{"key":"2547","name":"Günsberg","shortName":"Günsberg"},"district":{"key":"1107","name":"Bezirk Lebern"},"canton":{"key":"11","code":"SO","name":"Solothurn"},"status":"Real"},{"key":"10136802","name":"Grüngliweg","postalCode":"4524","locality":"Günsberg","commune":{"key":"2547","name":"Günsberg","shortName":"Günsberg"},"district":{"key":"1107","name":"Bezirk Lebern"},"canton":{"key":"11","code":"SO","name":"Solothurn"},"status":"Real"},{"key":"10016667","name":"Hauptstrasse","postalCode":"4525","locality":"Balm b. Günsberg","commune":{"key":"2541","name":"Balm bei Günsberg","shortName":"Balm bei Günsberg"},"district":{"key":"1107","name":"Bezirk Lebern"},"canton":{"key":"11","code":"SO","name":"Solothurn"},"status":"Real"},{"key":"10166027","name":"Hofackerweg","postalCode":"4524","locality":"Günsberg","commune":{"key":"2547","name":"Günsberg","shortName":"Günsberg"},"district":{"key":"1107","name":"Bezirk Lebern"},"canton":{"key":"11","code":"SO","name":"Solothurn"},"status":"Real"},{"key":"10021089","name":"Hofstattweg","postalCode":"4524","locality":"Günsberg","commune":{"key":"2547","name":"Günsberg","shortName":"Günsberg"},"district":{"key":"1107","name":"Bezirk Lebern"},"canton":{"key":"11","code":"SO","name":"Solothurn"},"status":"Real"},{"key":"10016668","name":"Höhenweg","postalCode":"4525","locality":"Balm b. Günsberg","commune":{"key":"2541","name":"Balm bei Günsberg","shortName":"Balm bei Günsberg"},"district":{"key":"1107","name":"Bezirk Lebern"},"canton":{"key":"11","code":"SO","name":"Solothurn"},"status":"Real"},{"key":"10146232","name":"Jurastrasse","postalCode":"4524","locality":"Günsberg","commune":{"key":"2547","name":"Günsberg","shortName":"Günsberg"},"district":{"key":"1107","name":"Bezirk Lebern"},"canton":{"key":"11","code":"SO","name":"Solothurn"},"status":"Real"},{"key":"10064664","name":"Kirchgasse","postalCode":"4524","locality":"Günsberg","commune":{"key":"2547","name":"Günsberg","shortName":"Günsberg"},"district":{"key":"1107","name":"Bezirk Lebern"},"canton":{"key":"11","code":"SO","name":"Solothurn"},"status":"Real"},{"key":"10181860","name":"Kirchmattweg","postalCode":"4524","locality":"Günsberg","commune":{"key":"2547","name":"Günsberg","shortName":"Günsberg"},"district":{"key":"1107","name":"Bezirk Lebern"},"canton":{"key":"11","code":"SO","name":"Solothurn"},"status":"Real"},{"key":"10021090","name":"Längmatt","postalCode":"4524","locality":"Günsberg","commune":{"key":"2547","name":"Günsberg","shortName":"Günsberg"},"district":{"key":"1107","name":"Bezirk Lebern"},"canton":{"key":"11","code":"SO","name":"Solothurn"},"status":"Real"},{"key":"10130541","name":"Lissersbergli","postalCode":"4524","locality":"Günsberg","commune":{"key":"2547","name":"Günsberg","shortName":"Günsberg"},"district":{"key":"1107","name":"Bezirk Lebern"},"canton":{"key":"11","code":"SO","name":"Solothurn"},"status":"Real"},{"key":"10186505","name":"Lutackerstrasse","postalCode":"4524","locality":"Günsberg","commune":{"key":"2547","name":"Günsberg","shortName":"Günsberg"},"district":{"key":"1107","name":"Bezirk Lebern"},"canton":{"key":"11","code":"SO","name":"Solothurn"},"status":"Real"},{"key":"10146238","name":"Mattenweg","postalCode":"4524","locality":"Günsberg","commune":{"key":"2547","name":"Günsberg","shortName":"Günsberg"},"district":{"key":"1107","name":"Bezirk Lebern"},"canton":{"key":"11","code":"SO","name":"Solothurn"},"status":"Real"},{"key":"10128614","name":"Mittlerer Balmberg","postalCode":"4525","locality":"Balm b. Günsberg","commune":{"key":"2541","name":"Balm bei Günsberg","shortName":"Balm bei Günsberg"},"district":{"key":"1107","name":"Bezirk Lebern"},"canton":{"key":"11","code":"SO","name":"Solothurn"},"status":"Real"},{"key":"10252279","name":"Müligrabenstrasse","postalCode":"4524","locality":"Günsberg","commune":{"key":"2547","name":"Günsberg","shortName":"Günsberg"},"district":{"key":"1107","name":"Bezirk Lebern"},"canton":{"key":"11","code":"SO","name":"Solothurn"},"status":"Planned"},{"key":"10121040","name":"Niederwilstrasse","postalCode":"4525","locality":"Balm b. Günsberg","commune":{"key":"2541","name":"Balm bei Günsberg","shortName":"Balm bei Günsberg"},"district":{"key":"1107","name":"Bezirk Lebern"},"canton":{"key":"11","code":"SO","name":"Solothurn"},"status":"Real"},{"key":"10146231","name":"Obere Bangerten","postalCode":"4524","locality":"Günsberg","commune":{"key":"2547","name":"Günsberg","shortName":"Günsberg"},"district":{"key":"1107","name":"Bezirk Lebern"},"canton":{"key":"11","code":"SO","name":"Solothurn"},"status":"Real"},{"key":"10064665","name":"Ober Glutzenberg","postalCode":"4524","locality":"Günsberg","commune":{"key":"2547","name":"Günsberg","shortName":"Günsberg"},"district":{"key":"1107","name":"Bezirk Lebern"},"canton":{"key":"11","code":"SO","name":"Solothurn"},"status":"Real"},{"key":"10146239","name":"Rainackerstrasse","postalCode":"4524","locality":"Günsberg","commune":{"key":"2547","name":"Günsberg","shortName":"Günsberg"},"district":{"key":"1107","name":"Bezirk Lebern"},"canton":{"key":"11","code":"SO","name":"Solothurn"},"status":"Real"},{"key":"10136804","name":"Rebenweg","postalCode":"4524","locality":"Günsberg","commune":{"key":"2547","name":"Günsberg","shortName":"Günsberg"},"district":{"key":"1107","name":"Bezirk Lebern"},"canton":{"key":"11","code":"SO","name":"Solothurn"},"status":"Real"},{"key":"10115143","name":"Ribiweg","postalCode":"4524","locality":"Günsberg","commune":{"key":"2547","name":"Günsberg","shortName":"Günsberg"},"district":{"key":"1107","name":"Bezirk Lebern"},"canton":{"key":"11","code":"SO","name":"Solothurn"},"status":"Real"},{"key":"10053783","name":"Säget","postalCode":"4524","locality":"Günsberg","commune":{"key":"2547","name":"Günsberg","shortName":"Günsberg"},"district":{"key":"1107","name":"Bezirk Lebern"},"canton":{"key":"11","code":"SO","name":"Solothurn"},"status":"Real"},{"key":"10136800","name":"Sandackerstrasse","postalCode":"4524","locality":"Günsberg","commune":{"key":"2547","name":"Günsberg","shortName":"Günsberg"},"district":{"key":"1107","name":"Bezirk Lebern"},"canton":{"key":"11","code":"SO","name":"Solothurn"},"status":"Real"},{"key":"10021091","name":"Schulhausstrasse","postalCode":"4524","locality":"Günsberg","commune":{"key":"2547","name":"Günsberg","shortName":"Günsberg"},"district":{"key":"1107","name":"Bezirk Lebern"},"canton":{"key":"11","code":"SO","name":"Solothurn"},"status":"Real"},{"key":"10092113","name":"Schürmattstrasse","postalCode":"4524","locality":"Günsberg","commune":{"key":"2547","name":"Günsberg","shortName":"Günsberg"},"district":{"key":"1107","name":"Bezirk Lebern"},"canton":{"key":"11","code":"SO","name":"Solothurn"},"status":"Real"},{"key":"10214921","name":"Schützenhausweg","postalCode":"4524","locality":"Günsberg","commune":{"key":"2547","name":"Günsberg","shortName":"Günsberg"},"district":{"key":"1107","name":"Bezirk Lebern"},"canton":{"key":"11","code":"SO","name":"Solothurn"},"status":"Real"},{"key":"10116667","name":"Solothurnstrasse","postalCode":"4524","locality":"Günsberg","commune":{"key":"2547","name":"Günsberg","shortName":"Günsberg"},"district":{"key":"1107","name":"Bezirk Lebern"},"canton":{"key":"11","code":"SO","name":"Solothurn"},"status":"Real"},{"key":"10085692","name":"Spiesackerstrasse","postalCode":"4524","locality":"Günsberg","commune":{"key":"2547","name":"Günsberg","shortName":"Günsberg"},"district":{"key":"1107","name":"Bezirk Lebern"},"canton":{"key":"11","code":"SO","name":"Solothurn"},"status":"Real"},{"key":"10115323","name":"Sportplatzstrasse","postalCode":"4524","locality":"Günsberg","commune":{"key":"2547","name":"Günsberg","shortName":"Günsberg"},"district":{"key":"1107","name":"Bezirk Lebern"},"canton":{"key":"11","code":"SO","name":"Solothurn"},"status":"Real"},{"key":"10146237","name":"Stapflerstrasse","postalCode":"4524","locality":"Günsberg","commune":{"key":"2547","name":"Günsberg","shortName":"Günsberg"},"district":{"key":"1107","name":"Bezirk Lebern"},"canton":{"key":"11","code":"SO","name":"Solothurn"},"status":"Real"},{"key":"10214925","name":"Steimertenweg","postalCode":"4524","locality":"Günsberg","commune":{"key":"2547","name":"Günsberg","shortName":"Günsberg"},"district":{"key":"1107","name":"Bezirk Lebern"},"canton":{"key":"11","code":"SO","name":"Solothurn"},"status":"Real"},{"key":"10136801","name":"Traubenweg","postalCode":"4524","locality":"Günsberg","commune":{"key":"2547","name":"Günsberg","shortName":"Günsberg"},"district":{"key":"1107","name":"Bezirk Lebern"},"canton":{"key":"11","code":"SO","name":"Solothurn"},"status":"Real"},{"key":"10146230","name":"Untere Bangerten","postalCode":"4524","locality":"Günsberg","commune":{"key":"2547","name":"Günsberg","shortName":"Günsberg"},"district":{"key":"1107","name":"Bezirk Lebern"},"canton":{"key":"11","code":"SO","name":"Solothurn"},"status":"Real"},{"key":"10066438","name":"Unterer Balmberg","postalCode":"4525","locality":"Balm b. Günsberg","commune":{"key":"2541","name":"Balm bei Günsberg","shortName":"Balm bei Günsberg"},"district":{"key":"1107","name":"Bezirk Lebern"},"canton":{"key":"11","code":"SO","name":"Solothurn"},"status":"Real"},{"key":"10021092","name":"Vorberg","postalCode":"4524","locality":"Günsberg","commune":{"key":"2547","name":"Günsberg","shortName":"Günsberg"},"district":{"key":"1107","name":"Bezirk Lebern"},"canton":{"key":"11","code":"SO","name":"Solothurn"},"status":"Real"},{"key":"10214929","name":"Vorderes Hofbergli","postalCode":"4524","locality":"Günsberg","commune":{"key":"2547","name":"Günsberg","shortName":"Günsberg"},"district":{"key":"1107","name":"Bezirk Lebern"},"canton":{"key":"11","code":"SO","name":"Solothurn"},"status":"Real"},{"key":"10212637","name":"Vorröti","postalCode":"4525","locality":"Balm b. Günsberg","commune":{"key":"2541","name":"Balm bei Günsberg","shortName":"Balm bei Günsberg"},"district":{"key":"1107","name":"Bezirk Lebern"},"canton":{"key":"11","code":"SO","name":"Solothurn"},"status":"Real"},{"key":"10051310","name":"Vorstettlistrasse","postalCode":"4524","locality":"Günsberg","commune":{"key":"2547","name":"Günsberg","shortName":"Günsberg"},"district":{"key":"1107","name":"Bezirk Lebern"},"canton":{"key":"11","code":"SO","name":"Solothurn"},"status":"Real"},{"key":"10146234","name":"Weidgässli","postalCode":"4524","locality":"Günsberg","commune":{"key":"2547","name":"Günsberg","shortName":"Günsberg"},"district":{"key":"1107","name":"Bezirk Lebern"},"canton":{"key":"11","code":"SO","name":"Solothurn"},"status":"Real"},{"key":"10091214","name":"Weidli","postalCode":"4525","locality":"Balm b. Günsberg","commune":{"key":"2541","name":"Balm bei Günsberg","shortName":"Balm bei Günsberg"},"district":{"key":"1107","name":"Bezirk Lebern"},"canton":{"key":"11","code":"SO","name":"Solothurn"},"status":"Real"},{"key":"10085693","name":"Weingartenstrasse","postalCode":"4524","locality":"Günsberg","commune":{"key":"2547","name":"Günsberg","shortName":"Günsberg"},"district":{"key":"1107","name":"Bezirk Lebern"},"canton":{"key":"11","code":"SO","name":"Solothurn"},"status":"Real"},]