[{"name":"Altstadt","postalCode":"92714","locality":"Pleystein","municipality":{"key":"09374147","name":"Pleystein, St","type":"Stadt"},"district":{"key":"09374","name":"Neustadt a.d.Waldnaab","type":"Landkreis"},"federalState":{"key":"09","name":"Bayern"}},{"name":"Am Baumgarten","postalCode":"92714","locality":"Pleystein","municipality":{"key":"09374147","name":"Pleystein, St","type":"Stadt"},"district":{"key":"09374","name":"Neustadt a.d.Waldnaab","type":"Landkreis"},"federalState":{"key":"09","name":"Bayern"}},{"name":"Am Hirtenacker","postalCode":"92714","locality":"Pleystein","municipality":{"key":"09374147","name":"Pleystein, St","type":"Stadt"},"district":{"key":"09374","name":"Neustadt a.d.Waldnaab","type":"Landkreis"},"federalState":{"key":"09","name":"Bayern"}},{"name":"Am Schaufelstiel","postalCode":"92714","locality":"Pleystein","municipality":{"key":"09374147","name":"Pleystein, St","type":"Stadt"},"district":{"key":"09374","name":"Neustadt a.d.Waldnaab","type":"Landkreis"},"federalState":{"key":"09","name":"Bayern"}},{"name":"Amselweg","postalCode":"92714","locality":"Pleystein","municipality":{"key":"09374147","name":"Pleystein, St","type":"Stadt"},"district":{"key":"09374","name":"Neustadt a.d.Waldnaab","type":"Landkreis"},"federalState":{"key":"09","name":"Bayern"}},{"name":"Am Sonnenhang","postalCode":"92714","locality":"Pleystein","municipality":{"key":"09374147","name":"Pleystein, St","type":"Stadt"},"district":{"key":"09374","name":"Neustadt a.d.Waldnaab","type":"Landkreis"},"federalState":{"key":"09","name":"Bayern"}},{"name":"Am Stadtweiher","postalCode":"92714","locality":"Pleystein","municipality":{"key":"09374147","name":"Pleystein, St","type":"Stadt"},"district":{"key":"09374","name":"Neustadt a.d.Waldnaab","type":"Landkreis"},"federalState":{"key":"09","name":"Bayern"}},{"name":"Anton-Wurzer-Str.","postalCode":"92714","locality":"Pleystein","municipality":{"key":"09374147","name":"Pleystein, St","type":"Stadt"},"district":{"key":"09374","name":"Neustadt a.d.Waldnaab","type":"Landkreis"},"federalState":{"key":"09","name":"Bayern"}},{"name":"Augustinerstr.","postalCode":"92714","locality":"Pleystein","municipality":{"key":"09374147","name":"Pleystein, St","type":"Stadt"},"district":{"key":"09374","name":"Neustadt a.d.Waldnaab","type":"Landkreis"},"federalState":{"key":"09","name":"Bayern"}},{"name":"Bartlmühlweg","postalCode":"92714","locality":"Pleystein","municipality":{"key":"09374147","name":"Pleystein, St","type":"Stadt"},"district":{"key":"09374","name":"Neustadt a.d.Waldnaab","type":"Landkreis"},"federalState":{"key":"09","name":"Bayern"}},{"name":"Berglerschleife","postalCode":"92714","locality":"Pleystein","municipality":{"key":"09374147","name":"Pleystein, St","type":"Stadt"},"district":{"key":"09374","name":"Neustadt a.d.Waldnaab","type":"Landkreis"},"federalState":{"key":"09","name":"Bayern"}},{"name":"Bibershof","postalCode":"92714","locality":"Pleystein","municipality":{"key":"09374147","name":"Pleystein, St","type":"Stadt"},"district":{"key":"09374","name":"Neustadt a.d.Waldnaab","type":"Landkreis"},"federalState":{"key":"09","name":"Bayern"}},{"name":"Bienenweg","postalCode":"92714","locality":"Pleystein","municipality":{"key":"09374147","name":"Pleystein, St","type":"Stadt"},"district":{"key":"09374","name":"Neustadt a.d.Waldnaab","type":"Landkreis"},"federalState":{"key":"09","name":"Bayern"}},{"name":"Birkenweg","postalCode":"92714","locality":"Pleystein","municipality":{"key":"09374147","name":"Pleystein, St","type":"Stadt"},"district":{"key":"09374","name":"Neustadt a.d.Waldnaab","type":"Landkreis"},"federalState":{"key":"09","name":"Bayern"}},{"name":"Bischof-Anzer-Str.","postalCode":"92714","locality":"Pleystein","municipality":{"key":"09374147","name":"Pleystein, St","type":"Stadt"},"district":{"key":"09374","name":"Neustadt a.d.Waldnaab","type":"Landkreis"},"federalState":{"key":"09","name":"Bayern"}},{"name":"Bischof-Wittmann-Str.","postalCode":"92714","locality":"Pleystein","municipality":{"key":"09374147","name":"Pleystein, St","type":"Stadt"},"district":{"key":"09374","name":"Neustadt a.d.Waldnaab","type":"Landkreis"},"federalState":{"key":"09","name":"Bayern"}},{"name":"Blumenstr.","postalCode":"92714","locality":"Pleystein","municipality":{"key":"09374147","name":"Pleystein, St","type":"Stadt"},"district":{"key":"09374","name":"Neustadt a.d.Waldnaab","type":"Landkreis"},"federalState":{"key":"09","name":"Bayern"}},{"name":"Böhmerwaldstr.","postalCode":"92714","locality":"Pleystein","municipality":{"key":"09374147","name":"Pleystein, St","type":"Stadt"},"district":{"key":"09374","name":"Neustadt a.d.Waldnaab","type":"Landkreis"},"federalState":{"key":"09","name":"Bayern"}},{"name":"Burggut","postalCode":"92714","locality":"Pleystein","municipality":{"key":"09374147","name":"Pleystein, St","type":"Stadt"},"district":{"key":"09374","name":"Neustadt a.d.Waldnaab","type":"Landkreis"},"federalState":{"key":"09","name":"Bayern"}},{"name":"Burkhardsrieth","postalCode":"92714","locality":"Pleystein","municipality":{"key":"09374147","name":"Pleystein, St","type":"Stadt"},"district":{"key":"09374","name":"Neustadt a.d.Waldnaab","type":"Landkreis"},"federalState":{"key":"09","name":"Bayern"}},{"name":"Erlenweg","postalCode":"92714","locality":"Pleystein","municipality":{"key":"09374147","name":"Pleystein, St","type":"Stadt"},"district":{"key":"09374","name":"Neustadt a.d.Waldnaab","type":"Landkreis"},"federalState":{"key":"09","name":"Bayern"}},{"name":"Fasanenstr.","postalCode":"92714","locality":"Pleystein","municipality":{"key":"09374147","name":"Pleystein, St","type":"Stadt"},"district":{"key":"09374","name":"Neustadt a.d.Waldnaab","type":"Landkreis"},"federalState":{"key":"09","name":"Bayern"}},{"name":"Ferdinand-Lehner-Str.","postalCode":"92714","locality":"Pleystein","municipality":{"key":"09374147","name":"Pleystein, St","type":"Stadt"},"district":{"key":"09374","name":"Neustadt a.d.Waldnaab","type":"Landkreis"},"federalState":{"key":"09","name":"Bayern"}},{"name":"Fichtenweg","postalCode":"92714","locality":"Pleystein","municipality":{"key":"09374147","name":"Pleystein, St","type":"Stadt"},"district":{"key":"09374","name":"Neustadt a.d.Waldnaab","type":"Landkreis"},"federalState":{"key":"09","name":"Bayern"}},{"name":"Finkenhammerweg","postalCode":"92714","locality":"Pleystein","municipality":{"key":"09374147","name":"Pleystein, St","type":"Stadt"},"district":{"key":"09374","name":"Neustadt a.d.Waldnaab","type":"Landkreis"},"federalState":{"key":"09","name":"Bayern"}},{"name":"Forststr.","postalCode":"92714","locality":"Pleystein","municipality":{"key":"09374147","name":"Pleystein, St","type":"Stadt"},"district":{"key":"09374","name":"Neustadt a.d.Waldnaab","type":"Landkreis"},"federalState":{"key":"09","name":"Bayern"}},{"name":"Galgenbergweg","postalCode":"92714","locality":"Pleystein","municipality":{"key":"09374147","name":"Pleystein, St","type":"Stadt"},"district":{"key":"09374","name":"Neustadt a.d.Waldnaab","type":"Landkreis"},"federalState":{"key":"09","name":"Bayern"}},{"name":"Gesteinachweg","postalCode":"92714","locality":"Pleystein","municipality":{"key":"09374147","name":"Pleystein, St","type":"Stadt"},"district":{"key":"09374","name":"Neustadt a.d.Waldnaab","type":"Landkreis"},"federalState":{"key":"09","name":"Bayern"}},{"name":"Grabenallee","postalCode":"92714","locality":"Pleystein","municipality":{"key":"09374147","name":"Pleystein, St","type":"Stadt"},"district":{"key":"09374","name":"Neustadt a.d.Waldnaab","type":"Landkreis"},"federalState":{"key":"09","name":"Bayern"}},{"name":"Graf-Sinzendorf-Str.","postalCode":"92714","locality":"Pleystein","municipality":{"key":"09374147","name":"Pleystein, St","type":"Stadt"},"district":{"key":"09374","name":"Neustadt a.d.Waldnaab","type":"Landkreis"},"federalState":{"key":"09","name":"Bayern"}},{"name":"Herrnpoint","postalCode":"92714","locality":"Pleystein","municipality":{"key":"09374147","name":"Pleystein, St","type":"Stadt"},"district":{"key":"09374","name":"Neustadt a.d.Waldnaab","type":"Landkreis"},"federalState":{"key":"09","name":"Bayern"}},{"name":"Hubertusstr.","postalCode":"92714","locality":"Pleystein","municipality":{"key":"09374147","name":"Pleystein, St","type":"Stadt"},"district":{"key":"09374","name":"Neustadt a.d.Waldnaab","type":"Landkreis"},"federalState":{"key":"09","name":"Bayern"}},{"name":"Jägerstr.","postalCode":"92714","locality":"Pleystein","municipality":{"key":"09374147","name":"Pleystein, St","type":"Stadt"},"district":{"key":"09374","name":"Neustadt a.d.Waldnaab","type":"Landkreis"},"federalState":{"key":"09","name":"Bayern"}},{"name":"Jobst-von-Brand-Str.","postalCode":"92714","locality":"Pleystein","municipality":{"key":"09374147","name":"Pleystein, St","type":"Stadt"},"district":{"key":"09374","name":"Neustadt a.d.Waldnaab","type":"Landkreis"},"federalState":{"key":"09","name":"Bayern"}},{"name":"Kreuzbergweg","postalCode":"92714","locality":"Pleystein","municipality":{"key":"09374147","name":"Pleystein, St","type":"Stadt"},"district":{"key":"09374","name":"Neustadt a.d.Waldnaab","type":"Landkreis"},"federalState":{"key":"09","name":"Bayern"}},{"name":"Lehrer-Fichtel-Str.","postalCode":"92714","locality":"Pleystein","municipality":{"key":"09374147","name":"Pleystein, St","type":"Stadt"},"district":{"key":"09374","name":"Neustadt a.d.Waldnaab","type":"Landkreis"},"federalState":{"key":"09","name":"Bayern"}},{"name":"Leistritzstr.","postalCode":"92714","locality":"Pleystein","municipality":{"key":"09374147","name":"Pleystein, St","type":"Stadt"},"district":{"key":"09374","name":"Neustadt a.d.Waldnaab","type":"Landkreis"},"federalState":{"key":"09","name":"Bayern"}},{"name":"Lerchenweg","postalCode":"92714","locality":"Pleystein","municipality":{"key":"09374147","name":"Pleystein, St","type":"Stadt"},"district":{"key":"09374","name":"Neustadt a.d.Waldnaab","type":"Landkreis"},"federalState":{"key":"09","name":"Bayern"}},{"name":"Leuchtenbergerstr.","postalCode":"92714","locality":"Pleystein","municipality":{"key":"09374147","name":"Pleystein, St","type":"Stadt"},"district":{"key":"09374","name":"Neustadt a.d.Waldnaab","type":"Landkreis"},"federalState":{"key":"09","name":"Bayern"}},{"name":"Lohma","postalCode":"92714","locality":"Pleystein","municipality":{"key":"09374147","name":"Pleystein, St","type":"Stadt"},"district":{"key":"09374","name":"Neustadt a.d.Waldnaab","type":"Landkreis"},"federalState":{"key":"09","name":"Bayern"}},{"name":"Lohmaer Str.","postalCode":"92714","locality":"Pleystein","municipality":{"key":"09374147","name":"Pleystein, St","type":"Stadt"},"district":{"key":"09374","name":"Neustadt a.d.Waldnaab","type":"Landkreis"},"federalState":{"key":"09","name":"Bayern"}},{"name":"Lohma Siedlung","postalCode":"92714","locality":"Pleystein","municipality":{"key":"09374147","name":"Pleystein, St","type":"Stadt"},"district":{"key":"09374","name":"Neustadt a.d.Waldnaab","type":"Landkreis"},"federalState":{"key":"09","name":"Bayern"}},{"name":"Marktplatz","postalCode":"92714","locality":"Pleystein","municipality":{"key":"09374147","name":"Pleystein, St","type":"Stadt"},"district":{"key":"09374","name":"Neustadt a.d.Waldnaab","type":"Landkreis"},"federalState":{"key":"09","name":"Bayern"}},{"name":"Max-Schiller-Str.","postalCode":"92714","locality":"Pleystein","municipality":{"key":"09374147","name":"Pleystein, St","type":"Stadt"},"district":{"key":"09374","name":"Neustadt a.d.Waldnaab","type":"Landkreis"},"federalState":{"key":"09","name":"Bayern"}},{"name":"Miesbrunn","postalCode":"92714","locality":"Pleystein","municipality":{"key":"09374147","name":"Pleystein, St","type":"Stadt"},"district":{"key":"09374","name":"Neustadt a.d.Waldnaab","type":"Landkreis"},"federalState":{"key":"09","name":"Bayern"}},{"name":"Miesbrunner Str.","postalCode":"92714","locality":"Pleystein","municipality":{"key":"09374147","name":"Pleystein, St","type":"Stadt"},"district":{"key":"09374","name":"Neustadt a.d.Waldnaab","type":"Landkreis"},"federalState":{"key":"09","name":"Bayern"}},{"name":"Neuenhammerstr.","postalCode":"92714","locality":"Pleystein","municipality":{"key":"09374147","name":"Pleystein, St","type":"Stadt"},"district":{"key":"09374","name":"Neustadt a.d.Waldnaab","type":"Landkreis"},"federalState":{"key":"09","name":"Bayern"}},{"name":"Obere Stiegelwiesen","postalCode":"92714","locality":"Pleystein","municipality":{"key":"09374147","name":"Pleystein, St","type":"Stadt"},"district":{"key":"09374","name":"Neustadt a.d.Waldnaab","type":"Landkreis"},"federalState":{"key":"09","name":"Bayern"}},{"name":"Parkanlage Stadtweiher","postalCode":"92714","locality":"Pleystein","municipality":{"key":"09374147","name":"Pleystein, St","type":"Stadt"},"district":{"key":"09374","name":"Neustadt a.d.Waldnaab","type":"Landkreis"},"federalState":{"key":"09","name":"Bayern"}},{"name":"Pfarrplatz","postalCode":"92714","locality":"Pleystein","municipality":{"key":"09374147","name":"Pleystein, St","type":"Stadt"},"district":{"key":"09374","name":"Neustadt a.d.Waldnaab","type":"Landkreis"},"federalState":{"key":"09","name":"Bayern"}},{"name":"Pleysteinpfad","postalCode":"92714","locality":"Pleystein","municipality":{"key":"09374147","name":"Pleystein, St","type":"Stadt"},"district":{"key":"09374","name":"Neustadt a.d.Waldnaab","type":"Landkreis"},"federalState":{"key":"09","name":"Bayern"}},{"name":"Pleysteinweg","postalCode":"92714","locality":"Pleystein","municipality":{"key":"09374147","name":"Pleystein, St","type":"Stadt"},"district":{"key":"09374","name":"Neustadt a.d.Waldnaab","type":"Landkreis"},"federalState":{"key":"09","name":"Bayern"}},{"name":"Salesianerstr.","postalCode":"92714","locality":"Pleystein","municipality":{"key":"09374147","name":"Pleystein, St","type":"Stadt"},"district":{"key":"09374","name":"Neustadt a.d.Waldnaab","type":"Landkreis"},"federalState":{"key":"09","name":"Bayern"}},{"name":"Sebastian-Trossner-Str.","postalCode":"92714","locality":"Pleystein","municipality":{"key":"09374147","name":"Pleystein, St","type":"Stadt"},"district":{"key":"09374","name":"Neustadt a.d.Waldnaab","type":"Landkreis"},"federalState":{"key":"09","name":"Bayern"}},{"name":"Sonnenstr.","postalCode":"92714","locality":"Pleystein","municipality":{"key":"09374147","name":"Pleystein, St","type":"Stadt"},"district":{"key":"09374","name":"Neustadt a.d.Waldnaab","type":"Landkreis"},"federalState":{"key":"09","name":"Bayern"}},{"name":"Spielhof","postalCode":"92714","locality":"Pleystein","municipality":{"key":"09374147","name":"Pleystein, St","type":"Stadt"},"district":{"key":"09374","name":"Neustadt a.d.Waldnaab","type":"Landkreis"},"federalState":{"key":"09","name":"Bayern"}},{"name":"Stadtgraben Nord","postalCode":"92714","locality":"Pleystein","municipality":{"key":"09374147","name":"Pleystein, St","type":"Stadt"},"district":{"key":"09374","name":"Neustadt a.d.Waldnaab","type":"Landkreis"},"federalState":{"key":"09","name":"Bayern"}},{"name":"Stadtgraben Ost","postalCode":"92714","locality":"Pleystein","municipality":{"key":"09374147","name":"Pleystein, St","type":"Stadt"},"district":{"key":"09374","name":"Neustadt a.d.Waldnaab","type":"Landkreis"},"federalState":{"key":"09","name":"Bayern"}},{"name":"Stadtgraben West","postalCode":"92714","locality":"Pleystein","municipality":{"key":"09374147","name":"Pleystein, St","type":"Stadt"},"district":{"key":"09374","name":"Neustadt a.d.Waldnaab","type":"Landkreis"},"federalState":{"key":"09","name":"Bayern"}},{"name":"Steinbach","postalCode":"92714","locality":"Pleystein","municipality":{"key":"09374147","name":"Pleystein, St","type":"Stadt"},"district":{"key":"09374","name":"Neustadt a.d.Waldnaab","type":"Landkreis"},"federalState":{"key":"09","name":"Bayern"}},{"name":"Steingasse","postalCode":"92714","locality":"Pleystein","municipality":{"key":"09374147","name":"Pleystein, St","type":"Stadt"},"district":{"key":"09374","name":"Neustadt a.d.Waldnaab","type":"Landkreis"},"federalState":{"key":"09","name":"Bayern"}},{"name":"Untere Steingasse","postalCode":"92714","locality":"Pleystein","municipality":{"key":"09374147","name":"Pleystein, St","type":"Stadt"},"district":{"key":"09374","name":"Neustadt a.d.Waldnaab","type":"Landkreis"},"federalState":{"key":"09","name":"Bayern"}},{"name":"Untere Stiegelwiesen","postalCode":"92714","locality":"Pleystein","municipality":{"key":"09374147","name":"Pleystein, St","type":"Stadt"},"district":{"key":"09374","name":"Neustadt a.d.Waldnaab","type":"Landkreis"},"federalState":{"key":"09","name":"Bayern"}},{"name":"Vohenstraußer Str.","postalCode":"92714","locality":"Pleystein","municipality":{"key":"09374147","name":"Pleystein, St","type":"Stadt"},"district":{"key":"09374","name":"Neustadt a.d.Waldnaab","type":"Landkreis"},"federalState":{"key":"09","name":"Bayern"}},{"name":"Vöslesrieth","postalCode":"92714","locality":"Pleystein","municipality":{"key":"09374147","name":"Pleystein, St","type":"Stadt"},"district":{"key":"09374","name":"Neustadt a.d.Waldnaab","type":"Landkreis"},"federalState":{"key":"09","name":"Bayern"}},{"name":"Wallgraben","postalCode":"92714","locality":"Pleystein","municipality":{"key":"09374147","name":"Pleystein, St","type":"Stadt"},"district":{"key":"09374","name":"Neustadt a.d.Waldnaab","type":"Landkreis"},"federalState":{"key":"09","name":"Bayern"}},{"name":"Wasserleiten","postalCode":"92714","locality":"Pleystein","municipality":{"key":"09374147","name":"Pleystein, St","type":"Stadt"},"district":{"key":"09374","name":"Neustadt a.d.Waldnaab","type":"Landkreis"},"federalState":{"key":"09","name":"Bayern"}},{"name":"Weberstr.","postalCode":"92714","locality":"Pleystein","municipality":{"key":"09374147","name":"Pleystein, St","type":"Stadt"},"district":{"key":"09374","name":"Neustadt a.d.Waldnaab","type":"Landkreis"},"federalState":{"key":"09","name":"Bayern"}},{"name":"Wiesenweg","postalCode":"92714","locality":"Pleystein","municipality":{"key":"09374147","name":"Pleystein, St","type":"Stadt"},"district":{"key":"09374","name":"Neustadt a.d.Waldnaab","type":"Landkreis"},"federalState":{"key":"09","name":"Bayern"}},{"name":"Zengerhof","postalCode":"92714","locality":"Pleystein","municipality":{"key":"09374147","name":"Pleystein, St","type":"Stadt"},"district":{"key":"09374","name":"Neustadt a.d.Waldnaab","type":"Landkreis"},"federalState":{"key":"09","name":"Bayern"}},{"name":"Ziegeltorgasse","postalCode":"92714","locality":"Pleystein","municipality":{"key":"09374147","name":"Pleystein, St","type":"Stadt"},"district":{"key":"09374","name":"Neustadt a.d.Waldnaab","type":"Landkreis"},"federalState":{"key":"09","name":"Bayern"}},{"name":"Ziegeltrath","postalCode":"92714","locality":"Pleystein","municipality":{"key":"09374147","name":"Pleystein, St","type":"Stadt"},"district":{"key":"09374","name":"Neustadt a.d.Waldnaab","type":"Landkreis"},"federalState":{"key":"09","name":"Bayern"}},{"name":"Zillertal","postalCode":"92714","locality":"Pleystein","municipality":{"key":"09374147","name":"Pleystein, St","type":"Stadt"},"district":{"key":"09374","name":"Neustadt a.d.Waldnaab","type":"Landkreis"},"federalState":{"key":"09","name":"Bayern"}},{"name":"Zottbachstr.","postalCode":"92714","locality":"Pleystein","municipality":{"key":"09374147","name":"Pleystein, St","type":"Stadt"},"district":{"key":"09374","name":"Neustadt a.d.Waldnaab","type":"Landkreis"},"federalState":{"key":"09","name":"Bayern"}},{"name":"Ödhäuser","postalCode":"92714","locality":"Pleystein","municipality":{"key":"09374147","name":"Pleystein, St","type":"Stadt"},"district":{"key":"09374","name":"Neustadt a.d.Waldnaab","type":"Landkreis"},"federalState":{"key":"09","name":"Bayern"}},]