[{"name":"Abt-Anselm-Str.","postalCode":"87724","locality":"Ottobeuren","municipality":{"key":"09778186","name":"Ottobeuren, M","type":"Markt"},"district":{"key":"09778","name":"Unterallgäu","type":"Landkreis"},"federalState":{"key":"09","name":"Bayern"}},{"name":"Abt-Honorat-Str.","postalCode":"87724","locality":"Ottobeuren","municipality":{"key":"09778186","name":"Ottobeuren, M","type":"Markt"},"district":{"key":"09778","name":"Unterallgäu","type":"Landkreis"},"federalState":{"key":"09","name":"Bayern"}},{"name":"Abt-Kindelmann-Str.","postalCode":"87724","locality":"Ottobeuren","municipality":{"key":"09778186","name":"Ottobeuren, M","type":"Markt"},"district":{"key":"09778","name":"Unterallgäu","type":"Landkreis"},"federalState":{"key":"09","name":"Bayern"}},{"name":"Abt-Toto-Str.","postalCode":"87724","locality":"Ottobeuren","municipality":{"key":"09778186","name":"Ottobeuren, M","type":"Markt"},"district":{"key":"09778","name":"Unterallgäu","type":"Landkreis"},"federalState":{"key":"09","name":"Bayern"}},{"name":"Adelgundeweg","postalCode":"87724","locality":"Ottobeuren","municipality":{"key":"09778186","name":"Ottobeuren, M","type":"Markt"},"district":{"key":"09778","name":"Unterallgäu","type":"Landkreis"},"federalState":{"key":"09","name":"Bayern"}},{"name":"Adolf-Kolping-Str.","postalCode":"87724","locality":"Ottobeuren","municipality":{"key":"09778186","name":"Ottobeuren, M","type":"Markt"},"district":{"key":"09778","name":"Unterallgäu","type":"Landkreis"},"federalState":{"key":"09","name":"Bayern"}},{"name":"Albert-Schweitzer-Str.","postalCode":"87724","locality":"Ottobeuren","municipality":{"key":"09778186","name":"Ottobeuren, M","type":"Markt"},"district":{"key":"09778","name":"Unterallgäu","type":"Landkreis"},"federalState":{"key":"09","name":"Bayern"}},{"name":"Alexanderstr.","postalCode":"87724","locality":"Ottobeuren","municipality":{"key":"09778186","name":"Ottobeuren, M","type":"Markt"},"district":{"key":"09778","name":"Unterallgäu","type":"Landkreis"},"federalState":{"key":"09","name":"Bayern"}},{"name":"Allgäustr.","postalCode":"87724","locality":"Ottobeuren","municipality":{"key":"09778186","name":"Ottobeuren, M","type":"Markt"},"district":{"key":"09778","name":"Unterallgäu","type":"Landkreis"},"federalState":{"key":"09","name":"Bayern"}},{"name":"Alter Postweg","postalCode":"87724","locality":"Ottobeuren","municipality":{"key":"09778186","name":"Ottobeuren, M","type":"Markt"},"district":{"key":"09778","name":"Unterallgäu","type":"Landkreis"},"federalState":{"key":"09","name":"Bayern"}},{"name":"Am Brühl","postalCode":"87724","locality":"Ottobeuren","municipality":{"key":"09778186","name":"Ottobeuren, M","type":"Markt"},"district":{"key":"09778","name":"Unterallgäu","type":"Landkreis"},"federalState":{"key":"09","name":"Bayern"}},{"name":"Am Galgenberg","postalCode":"87724","locality":"Ottobeuren","municipality":{"key":"09778186","name":"Ottobeuren, M","type":"Markt"},"district":{"key":"09778","name":"Unterallgäu","type":"Landkreis"},"federalState":{"key":"09","name":"Bayern"}},{"name":"Am Hofacker","postalCode":"87724","locality":"Ottobeuren","municipality":{"key":"09778186","name":"Ottobeuren, M","type":"Markt"},"district":{"key":"09778","name":"Unterallgäu","type":"Landkreis"},"federalState":{"key":"09","name":"Bayern"}},{"name":"Amiconistr.","postalCode":"87724","locality":"Ottobeuren","municipality":{"key":"09778186","name":"Ottobeuren, M","type":"Markt"},"district":{"key":"09778","name":"Unterallgäu","type":"Landkreis"},"federalState":{"key":"09","name":"Bayern"}},{"name":"Am Konohof","postalCode":"87724","locality":"Ottobeuren","municipality":{"key":"09778186","name":"Ottobeuren, M","type":"Markt"},"district":{"key":"09778","name":"Unterallgäu","type":"Landkreis"},"federalState":{"key":"09","name":"Bayern"}},{"name":"Am Mühlberg","postalCode":"87724","locality":"Ottobeuren","municipality":{"key":"09778186","name":"Ottobeuren, M","type":"Markt"},"district":{"key":"09778","name":"Unterallgäu","type":"Landkreis"},"federalState":{"key":"09","name":"Bayern"}},{"name":"Am Sonnenbühl","postalCode":"87724","locality":"Ottobeuren","municipality":{"key":"09778186","name":"Ottobeuren, M","type":"Markt"},"district":{"key":"09778","name":"Unterallgäu","type":"Landkreis"},"federalState":{"key":"09","name":"Bayern"}},{"name":"Am Sportplatz","postalCode":"87724","locality":"Ottobeuren","municipality":{"key":"09778186","name":"Ottobeuren, M","type":"Markt"},"district":{"key":"09778","name":"Unterallgäu","type":"Landkreis"},"federalState":{"key":"09","name":"Bayern"}},{"name":"Arthur-M.-Miller-Str.","postalCode":"87724","locality":"Ottobeuren","municipality":{"key":"09778186","name":"Ottobeuren, M","type":"Markt"},"district":{"key":"09778","name":"Unterallgäu","type":"Landkreis"},"federalState":{"key":"09","name":"Bayern"}},{"name":"Aurbacherstr.","postalCode":"87724","locality":"Ottobeuren","municipality":{"key":"09778186","name":"Ottobeuren, M","type":"Markt"},"district":{"key":"09778","name":"Unterallgäu","type":"Landkreis"},"federalState":{"key":"09","name":"Bayern"}},{"name":"Bahnhofsplatz","postalCode":"87724","locality":"Ottobeuren","municipality":{"key":"09778186","name":"Ottobeuren, M","type":"Markt"},"district":{"key":"09778","name":"Unterallgäu","type":"Landkreis"},"federalState":{"key":"09","name":"Bayern"}},{"name":"Bahnhofstr.","postalCode":"87724","locality":"Ottobeuren","municipality":{"key":"09778186","name":"Ottobeuren, M","type":"Markt"},"district":{"key":"09778","name":"Unterallgäu","type":"Landkreis"},"federalState":{"key":"09","name":"Bayern"}},{"name":"Bannwaldweg","postalCode":"87724","locality":"Ottobeuren","municipality":{"key":"09778186","name":"Ottobeuren, M","type":"Markt"},"district":{"key":"09778","name":"Unterallgäu","type":"Landkreis"},"federalState":{"key":"09","name":"Bayern"}},{"name":"Beethovenstr.","postalCode":"87724","locality":"Ottobeuren","municipality":{"key":"09778186","name":"Ottobeuren, M","type":"Markt"},"district":{"key":"09778","name":"Unterallgäu","type":"Landkreis"},"federalState":{"key":"09","name":"Bayern"}},{"name":"Bergstr.","postalCode":"87724","locality":"Ottobeuren","municipality":{"key":"09778186","name":"Ottobeuren, M","type":"Markt"},"district":{"key":"09778","name":"Unterallgäu","type":"Landkreis"},"federalState":{"key":"09","name":"Bayern"}},{"name":"Bert-Brecht-Str.","postalCode":"87724","locality":"Ottobeuren","municipality":{"key":"09778186","name":"Ottobeuren, M","type":"Markt"},"district":{"key":"09778","name":"Unterallgäu","type":"Landkreis"},"federalState":{"key":"09","name":"Bayern"}},{"name":"Böhmerwaldstr.","postalCode":"87724","locality":"Ottobeuren","municipality":{"key":"09778186","name":"Ottobeuren, M","type":"Markt"},"district":{"key":"09778","name":"Unterallgäu","type":"Landkreis"},"federalState":{"key":"09","name":"Bayern"}},{"name":"Bollenmühle","postalCode":"87724","locality":"Ottobeuren","municipality":{"key":"09778186","name":"Ottobeuren, M","type":"Markt"},"district":{"key":"09778","name":"Unterallgäu","type":"Landkreis"},"federalState":{"key":"09","name":"Bayern"}},{"name":"Breitenackerstr.","postalCode":"87724","locality":"Ottobeuren","municipality":{"key":"09778186","name":"Ottobeuren, M","type":"Markt"},"district":{"key":"09778","name":"Unterallgäu","type":"Landkreis"},"federalState":{"key":"09","name":"Bayern"}},{"name":"Breslauer Str.","postalCode":"87724","locality":"Ottobeuren","municipality":{"key":"09778186","name":"Ottobeuren, M","type":"Markt"},"district":{"key":"09778","name":"Unterallgäu","type":"Landkreis"},"federalState":{"key":"09","name":"Bayern"}},{"name":"Brüchlins","postalCode":"87724","locality":"Ottobeuren","municipality":{"key":"09778186","name":"Ottobeuren, M","type":"Markt"},"district":{"key":"09778","name":"Unterallgäu","type":"Landkreis"},"federalState":{"key":"09","name":"Bayern"}},{"name":"Brucknerstr.","postalCode":"87724","locality":"Ottobeuren","municipality":{"key":"09778186","name":"Ottobeuren, M","type":"Markt"},"district":{"key":"09778","name":"Unterallgäu","type":"Landkreis"},"federalState":{"key":"09","name":"Bayern"}},{"name":"Bürgermeister-Fergg-Str.","postalCode":"87724","locality":"Ottobeuren","municipality":{"key":"09778186","name":"Ottobeuren, M","type":"Markt"},"district":{"key":"09778","name":"Unterallgäu","type":"Landkreis"},"federalState":{"key":"09","name":"Bayern"}},{"name":"Bürgermeister-Hasel-Str.","postalCode":"87724","locality":"Ottobeuren","municipality":{"key":"09778186","name":"Ottobeuren, M","type":"Markt"},"district":{"key":"09778","name":"Unterallgäu","type":"Landkreis"},"federalState":{"key":"09","name":"Bayern"}},{"name":"Bürgermeister-Mahler-Str.","postalCode":"87724","locality":"Ottobeuren","municipality":{"key":"09778186","name":"Ottobeuren, M","type":"Markt"},"district":{"key":"09778","name":"Unterallgäu","type":"Landkreis"},"federalState":{"key":"09","name":"Bayern"}},{"name":"Bürgermeister-Wegmann-Str.","postalCode":"87724","locality":"Ottobeuren","municipality":{"key":"09778186","name":"Ottobeuren, M","type":"Markt"},"district":{"key":"09778","name":"Unterallgäu","type":"Landkreis"},"federalState":{"key":"09","name":"Bayern"}},{"name":"Christianstr.","postalCode":"87724","locality":"Ottobeuren","municipality":{"key":"09778186","name":"Ottobeuren, M","type":"Markt"},"district":{"key":"09778","name":"Unterallgäu","type":"Landkreis"},"federalState":{"key":"09","name":"Bayern"}},{"name":"Dr.-Friedrich-Kuhn-Weg","postalCode":"87724","locality":"Ottobeuren","municipality":{"key":"09778186","name":"Ottobeuren, M","type":"Markt"},"district":{"key":"09778","name":"Unterallgäu","type":"Landkreis"},"federalState":{"key":"09","name":"Bayern"}},{"name":"Dr.-Karl-Lenz-Str.","postalCode":"87724","locality":"Ottobeuren","municipality":{"key":"09778186","name":"Ottobeuren, M","type":"Markt"},"district":{"key":"09778","name":"Unterallgäu","type":"Landkreis"},"federalState":{"key":"09","name":"Bayern"}},{"name":"Egerländer Str.","postalCode":"87724","locality":"Ottobeuren","municipality":{"key":"09778186","name":"Ottobeuren, M","type":"Markt"},"district":{"key":"09778","name":"Unterallgäu","type":"Landkreis"},"federalState":{"key":"09","name":"Bayern"}},{"name":"Eggisried","postalCode":"87724","locality":"Ottobeuren","municipality":{"key":"09778186","name":"Ottobeuren, M","type":"Markt"},"district":{"key":"09778","name":"Unterallgäu","type":"Landkreis"},"federalState":{"key":"09","name":"Bayern"}},{"name":"Eichenallee","postalCode":"87724","locality":"Ottobeuren","municipality":{"key":"09778186","name":"Ottobeuren, M","type":"Markt"},"district":{"key":"09778","name":"Unterallgäu","type":"Landkreis"},"federalState":{"key":"09","name":"Bayern"}},{"name":"Eldern","postalCode":"87724","locality":"Ottobeuren","municipality":{"key":"09778186","name":"Ottobeuren, M","type":"Markt"},"district":{"key":"09778","name":"Unterallgäu","type":"Landkreis"},"federalState":{"key":"09","name":"Bayern"}},{"name":"Ellenbogstr.","postalCode":"87724","locality":"Ottobeuren","municipality":{"key":"09778186","name":"Ottobeuren, M","type":"Markt"},"district":{"key":"09778","name":"Unterallgäu","type":"Landkreis"},"federalState":{"key":"09","name":"Bayern"}},{"name":"Erlerstr.","postalCode":"87724","locality":"Ottobeuren","municipality":{"key":"09778186","name":"Ottobeuren, M","type":"Markt"},"district":{"key":"09778","name":"Unterallgäu","type":"Landkreis"},"federalState":{"key":"09","name":"Bayern"}},{"name":"Eschbach","postalCode":"87724","locality":"Ottobeuren","municipality":{"key":"09778186","name":"Ottobeuren, M","type":"Markt"},"district":{"key":"09778","name":"Unterallgäu","type":"Landkreis"},"federalState":{"key":"09","name":"Bayern"}},{"name":"Eschweg","postalCode":"87724","locality":"Ottobeuren","municipality":{"key":"09778186","name":"Ottobeuren, M","type":"Markt"},"district":{"key":"09778","name":"Unterallgäu","type":"Landkreis"},"federalState":{"key":"09","name":"Bayern"}},{"name":"Faichtmayrstr.","postalCode":"87724","locality":"Ottobeuren","municipality":{"key":"09778186","name":"Ottobeuren, M","type":"Markt"},"district":{"key":"09778","name":"Unterallgäu","type":"Landkreis"},"federalState":{"key":"09","name":"Bayern"}},{"name":"Faßbinderstr.","postalCode":"87724","locality":"Ottobeuren","municipality":{"key":"09778186","name":"Ottobeuren, M","type":"Markt"},"district":{"key":"09778","name":"Unterallgäu","type":"Landkreis"},"federalState":{"key":"09","name":"Bayern"}},{"name":"Friedhofweg","postalCode":"87724","locality":"Ottobeuren","municipality":{"key":"09778186","name":"Ottobeuren, M","type":"Markt"},"district":{"key":"09778","name":"Unterallgäu","type":"Landkreis"},"federalState":{"key":"09","name":"Bayern"}},{"name":"Fröhlinser Str.","postalCode":"87724","locality":"Ottobeuren","municipality":{"key":"09778186","name":"Ottobeuren, M","type":"Markt"},"district":{"key":"09778","name":"Unterallgäu","type":"Landkreis"},"federalState":{"key":"09","name":"Bayern"}},{"name":"Gabelsbergerstr.","postalCode":"87724","locality":"Ottobeuren","municipality":{"key":"09778186","name":"Ottobeuren, M","type":"Markt"},"district":{"key":"09778","name":"Unterallgäu","type":"Landkreis"},"federalState":{"key":"09","name":"Bayern"}},{"name":"Ganghoferstr.","postalCode":"87724","locality":"Ottobeuren","municipality":{"key":"09778186","name":"Ottobeuren, M","type":"Markt"},"district":{"key":"09778","name":"Unterallgäu","type":"Landkreis"},"federalState":{"key":"09","name":"Bayern"}},{"name":"Gertrud-von-le-Fort-Str.","postalCode":"87724","locality":"Ottobeuren","municipality":{"key":"09778186","name":"Ottobeuren, M","type":"Markt"},"district":{"key":"09778","name":"Unterallgäu","type":"Landkreis"},"federalState":{"key":"09","name":"Bayern"}},{"name":"Goethestr.","postalCode":"87724","locality":"Ottobeuren","municipality":{"key":"09778186","name":"Ottobeuren, M","type":"Markt"},"district":{"key":"09778","name":"Unterallgäu","type":"Landkreis"},"federalState":{"key":"09","name":"Bayern"}},{"name":"Grottenweg","postalCode":"87724","locality":"Ottobeuren","municipality":{"key":"09778186","name":"Ottobeuren, M","type":"Markt"},"district":{"key":"09778","name":"Unterallgäu","type":"Landkreis"},"federalState":{"key":"09","name":"Bayern"}},{"name":"Guggenberg","postalCode":"87724","locality":"Ottobeuren","municipality":{"key":"09778186","name":"Ottobeuren, M","type":"Markt"},"district":{"key":"09778","name":"Unterallgäu","type":"Landkreis"},"federalState":{"key":"09","name":"Bayern"}},{"name":"Guggenberger Str.","postalCode":"87724","locality":"Ottobeuren","municipality":{"key":"09778186","name":"Ottobeuren, M","type":"Markt"},"district":{"key":"09778","name":"Unterallgäu","type":"Landkreis"},"federalState":{"key":"09","name":"Bayern"}},{"name":"Gustav-Stein-Str.","postalCode":"87724","locality":"Ottobeuren","municipality":{"key":"09778186","name":"Ottobeuren, M","type":"Markt"},"district":{"key":"09778","name":"Unterallgäu","type":"Landkreis"},"federalState":{"key":"09","name":"Bayern"}},{"name":"Haydnstr.","postalCode":"87724","locality":"Ottobeuren","municipality":{"key":"09778186","name":"Ottobeuren, M","type":"Markt"},"district":{"key":"09778","name":"Unterallgäu","type":"Landkreis"},"federalState":{"key":"09","name":"Bayern"}},{"name":"Heinrich-Heine-Str.","postalCode":"87724","locality":"Ottobeuren","municipality":{"key":"09778186","name":"Ottobeuren, M","type":"Markt"},"district":{"key":"09778","name":"Unterallgäu","type":"Landkreis"},"federalState":{"key":"09","name":"Bayern"}},{"name":"Hermann-Koneberg-Str.","postalCode":"87724","locality":"Ottobeuren","municipality":{"key":"09778186","name":"Ottobeuren, M","type":"Markt"},"district":{"key":"09778","name":"Unterallgäu","type":"Landkreis"},"federalState":{"key":"09","name":"Bayern"}},{"name":"Hochwasserrückhaltebecken Eldern","postalCode":"87724","locality":"Ottobeuren","municipality":{"key":"09778186","name":"Ottobeuren, M","type":"Markt"},"district":{"key":"09778","name":"Unterallgäu","type":"Landkreis"},"federalState":{"key":"09","name":"Bayern"}},{"name":"Hofs","postalCode":"87724","locality":"Ottobeuren","municipality":{"key":"09778186","name":"Ottobeuren, M","type":"Markt"},"district":{"key":"09778","name":"Unterallgäu","type":"Landkreis"},"federalState":{"key":"09","name":"Bayern"}},{"name":"Holzheystr.","postalCode":"87724","locality":"Ottobeuren","municipality":{"key":"09778186","name":"Ottobeuren, M","type":"Markt"},"district":{"key":"09778","name":"Unterallgäu","type":"Landkreis"},"federalState":{"key":"09","name":"Bayern"}},{"name":"Hörmannstr.","postalCode":"87724","locality":"Ottobeuren","municipality":{"key":"09778186","name":"Ottobeuren, M","type":"Markt"},"district":{"key":"09778","name":"Unterallgäu","type":"Landkreis"},"federalState":{"key":"09","name":"Bayern"}},{"name":"Im Hatzenried","postalCode":"87724","locality":"Ottobeuren","municipality":{"key":"09778186","name":"Ottobeuren, M","type":"Markt"},"district":{"key":"09778","name":"Unterallgäu","type":"Landkreis"},"federalState":{"key":"09","name":"Bayern"}},{"name":"Im Königreich","postalCode":"87724","locality":"Ottobeuren","municipality":{"key":"09778186","name":"Ottobeuren, M","type":"Markt"},"district":{"key":"09778","name":"Unterallgäu","type":"Landkreis"},"federalState":{"key":"09","name":"Bayern"}},{"name":"Johannes-Gutenberg-Str.","postalCode":"87724","locality":"Ottobeuren","municipality":{"key":"09778186","name":"Ottobeuren, M","type":"Markt"},"district":{"key":"09778","name":"Unterallgäu","type":"Landkreis"},"federalState":{"key":"09","name":"Bayern"}},{"name":"Johann-Hiebel-Str.","postalCode":"87724","locality":"Ottobeuren","municipality":{"key":"09778186","name":"Ottobeuren, M","type":"Markt"},"district":{"key":"09778","name":"Unterallgäu","type":"Landkreis"},"federalState":{"key":"09","name":"Bayern"}},{"name":"Johann-Klein-Str.","postalCode":"87724","locality":"Ottobeuren","municipality":{"key":"09778186","name":"Ottobeuren, M","type":"Markt"},"district":{"key":"09778","name":"Unterallgäu","type":"Landkreis"},"federalState":{"key":"09","name":"Bayern"}},{"name":"Johann-Michael-Fischer-Str.","postalCode":"87724","locality":"Ottobeuren","municipality":{"key":"09778186","name":"Ottobeuren, M","type":"Markt"},"district":{"key":"09778","name":"Unterallgäu","type":"Landkreis"},"federalState":{"key":"09","name":"Bayern"}},{"name":"Johann-Sebastian-Bach-Str.","postalCode":"87724","locality":"Ottobeuren","municipality":{"key":"09778186","name":"Ottobeuren, M","type":"Markt"},"district":{"key":"09778","name":"Unterallgäu","type":"Landkreis"},"federalState":{"key":"09","name":"Bayern"}},{"name":"Josefinenfeldstr.","postalCode":"87724","locality":"Ottobeuren","municipality":{"key":"09778186","name":"Ottobeuren, M","type":"Markt"},"district":{"key":"09778","name":"Unterallgäu","type":"Landkreis"},"federalState":{"key":"09","name":"Bayern"}},{"name":"Kalkofenweg","postalCode":"87724","locality":"Ottobeuren","municipality":{"key":"09778186","name":"Ottobeuren, M","type":"Markt"},"district":{"key":"09778","name":"Unterallgäu","type":"Landkreis"},"federalState":{"key":"09","name":"Bayern"}},{"name":"Kaltenbrunnweg","postalCode":"87724","locality":"Ottobeuren","municipality":{"key":"09778186","name":"Ottobeuren, M","type":"Markt"},"district":{"key":"09778","name":"Unterallgäu","type":"Landkreis"},"federalState":{"key":"09","name":"Bayern"}},{"name":"Karl-Riepp-Str.","postalCode":"87724","locality":"Ottobeuren","municipality":{"key":"09778186","name":"Ottobeuren, M","type":"Markt"},"district":{"key":"09778","name":"Unterallgäu","type":"Landkreis"},"federalState":{"key":"09","name":"Bayern"}},{"name":"Kirchweg","postalCode":"87724","locality":"Ottobeuren","municipality":{"key":"09778186","name":"Ottobeuren, M","type":"Markt"},"district":{"key":"09778","name":"Unterallgäu","type":"Landkreis"},"federalState":{"key":"09","name":"Bayern"}},{"name":"Klosterwaldstr.","postalCode":"87724","locality":"Ottobeuren","municipality":{"key":"09778186","name":"Ottobeuren, M","type":"Markt"},"district":{"key":"09778","name":"Unterallgäu","type":"Landkreis"},"federalState":{"key":"09","name":"Bayern"}},{"name":"Kneipp-Aktiv-Park","postalCode":"87724","locality":"Ottobeuren","municipality":{"key":"09778186","name":"Ottobeuren, M","type":"Markt"},"district":{"key":"09778","name":"Unterallgäu","type":"Landkreis"},"federalState":{"key":"09","name":"Bayern"}},{"name":"Kramerstr.","postalCode":"87724","locality":"Ottobeuren","municipality":{"key":"09778186","name":"Ottobeuren, M","type":"Markt"},"district":{"key":"09778","name":"Unterallgäu","type":"Landkreis"},"federalState":{"key":"09","name":"Bayern"}},{"name":"Langenberger Str.","postalCode":"87724","locality":"Ottobeuren","municipality":{"key":"09778186","name":"Ottobeuren, M","type":"Markt"},"district":{"key":"09778","name":"Unterallgäu","type":"Landkreis"},"federalState":{"key":"09","name":"Bayern"}},{"name":"Lessingstr.","postalCode":"87724","locality":"Ottobeuren","municipality":{"key":"09778186","name":"Ottobeuren, M","type":"Markt"},"district":{"key":"09778","name":"Unterallgäu","type":"Landkreis"},"federalState":{"key":"09","name":"Bayern"}},{"name":"Leupolz","postalCode":"87724","locality":"Ottobeuren","municipality":{"key":"09778186","name":"Ottobeuren, M","type":"Markt"},"district":{"key":"09778","name":"Unterallgäu","type":"Landkreis"},"federalState":{"key":"09","name":"Bayern"}},{"name":"Lindenstr.","postalCode":"87724","locality":"Ottobeuren","municipality":{"key":"09778186","name":"Ottobeuren, M","type":"Markt"},"district":{"key":"09778","name":"Unterallgäu","type":"Landkreis"},"federalState":{"key":"09","name":"Bayern"}},{"name":"Ludwigstr.","postalCode":"87724","locality":"Ottobeuren","municipality":{"key":"09778186","name":"Ottobeuren, M","type":"Markt"},"district":{"key":"09778","name":"Unterallgäu","type":"Landkreis"},"federalState":{"key":"09","name":"Bayern"}},{"name":"Ludwig-Thoma-Str.","postalCode":"87724","locality":"Ottobeuren","municipality":{"key":"09778186","name":"Ottobeuren, M","type":"Markt"},"district":{"key":"09778","name":"Unterallgäu","type":"Landkreis"},"federalState":{"key":"09","name":"Bayern"}},{"name":"Luitpoldstr.","postalCode":"87724","locality":"Ottobeuren","municipality":{"key":"09778186","name":"Ottobeuren, M","type":"Markt"},"district":{"key":"09778","name":"Unterallgäu","type":"Landkreis"},"federalState":{"key":"09","name":"Bayern"}},{"name":"Maria-Stern-Str.","postalCode":"87724","locality":"Ottobeuren","municipality":{"key":"09778186","name":"Ottobeuren, M","type":"Markt"},"district":{"key":"09778","name":"Unterallgäu","type":"Landkreis"},"federalState":{"key":"09","name":"Bayern"}},{"name":"Markt Rettenbacher Str.","postalCode":"87724","locality":"Ottobeuren","municipality":{"key":"09778186","name":"Ottobeuren, M","type":"Markt"},"district":{"key":"09778","name":"Unterallgäu","type":"Landkreis"},"federalState":{"key":"09","name":"Bayern"}},{"name":"Memminger Str.","postalCode":"87724","locality":"Ottobeuren","municipality":{"key":"09778186","name":"Ottobeuren, M","type":"Markt"},"district":{"key":"09778","name":"Unterallgäu","type":"Landkreis"},"federalState":{"key":"09","name":"Bayern"}},{"name":"Mörikestr.","postalCode":"87724","locality":"Ottobeuren","municipality":{"key":"09778186","name":"Ottobeuren, M","type":"Markt"},"district":{"key":"09778","name":"Unterallgäu","type":"Landkreis"},"federalState":{"key":"09","name":"Bayern"}},{"name":"Mozartstr.","postalCode":"87724","locality":"Ottobeuren","municipality":{"key":"09778186","name":"Ottobeuren, M","type":"Markt"},"district":{"key":"09778","name":"Unterallgäu","type":"Landkreis"},"federalState":{"key":"09","name":"Bayern"}},{"name":"Mühlbachstr.","postalCode":"87724","locality":"Ottobeuren","municipality":{"key":"09778186","name":"Ottobeuren, M","type":"Markt"},"district":{"key":"09778","name":"Unterallgäu","type":"Landkreis"},"federalState":{"key":"09","name":"Bayern"}},{"name":"Norciastr.","postalCode":"87724","locality":"Ottobeuren","municipality":{"key":"09778186","name":"Ottobeuren, M","type":"Markt"},"district":{"key":"09778","name":"Unterallgäu","type":"Landkreis"},"federalState":{"key":"09","name":"Bayern"}},{"name":"Obere Str.","postalCode":"87724","locality":"Ottobeuren","municipality":{"key":"09778186","name":"Ottobeuren, M","type":"Markt"},"district":{"key":"09778","name":"Unterallgäu","type":"Landkreis"},"federalState":{"key":"09","name":"Bayern"}},{"name":"Ottobeurer Str.","postalCode":"87724","locality":"Ottobeuren","municipality":{"key":"09778186","name":"Ottobeuren, M","type":"Markt"},"district":{"key":"09778","name":"Unterallgäu","type":"Landkreis"},"federalState":{"key":"09","name":"Bayern"}},{"name":"Pater-Christoph-Vogt-Str.","postalCode":"87724","locality":"Ottobeuren","municipality":{"key":"09778186","name":"Ottobeuren, M","type":"Markt"},"district":{"key":"09778","name":"Unterallgäu","type":"Landkreis"},"federalState":{"key":"09","name":"Bayern"}},{"name":"Pater-Jeremias-Mayr-Str.","postalCode":"87724","locality":"Ottobeuren","municipality":{"key":"09778186","name":"Ottobeuren, M","type":"Markt"},"district":{"key":"09778","name":"Unterallgäu","type":"Landkreis"},"federalState":{"key":"09","name":"Bayern"}},{"name":"Pater-Kaspar-Kuhn-Str.","postalCode":"87724","locality":"Ottobeuren","municipality":{"key":"09778186","name":"Ottobeuren, M","type":"Markt"},"district":{"key":"09778","name":"Unterallgäu","type":"Landkreis"},"federalState":{"key":"09","name":"Bayern"}},{"name":"Pater-Maurus-Feyerabend-Str.","postalCode":"87724","locality":"Ottobeuren","municipality":{"key":"09778186","name":"Ottobeuren, M","type":"Markt"},"district":{"key":"09778","name":"Unterallgäu","type":"Landkreis"},"federalState":{"key":"09","name":"Bayern"}},{"name":"Peter-Dörfler-Str.","postalCode":"87724","locality":"Ottobeuren","municipality":{"key":"09778186","name":"Ottobeuren, M","type":"Markt"},"district":{"key":"09778","name":"Unterallgäu","type":"Landkreis"},"federalState":{"key":"09","name":"Bayern"}},{"name":"Peter-Henlein-Str.","postalCode":"87724","locality":"Ottobeuren","municipality":{"key":"09778186","name":"Ottobeuren, M","type":"Markt"},"district":{"key":"09778","name":"Unterallgäu","type":"Landkreis"},"federalState":{"key":"09","name":"Bayern"}},{"name":"Piechlerstr.","postalCode":"87724","locality":"Ottobeuren","municipality":{"key":"09778186","name":"Ottobeuren, M","type":"Markt"},"district":{"key":"09778","name":"Unterallgäu","type":"Landkreis"},"federalState":{"key":"09","name":"Bayern"}},{"name":"Professor-Eichel-Brücke","postalCode":"87724","locality":"Ottobeuren","municipality":{"key":"09778186","name":"Ottobeuren, M","type":"Markt"},"district":{"key":"09778","name":"Unterallgäu","type":"Landkreis"},"federalState":{"key":"09","name":"Bayern"}},{"name":"Rabinystr.","postalCode":"87724","locality":"Ottobeuren","municipality":{"key":"09778186","name":"Ottobeuren, M","type":"Markt"},"district":{"key":"09778","name":"Unterallgäu","type":"Landkreis"},"federalState":{"key":"09","name":"Bayern"}},{"name":"Reuthen","postalCode":"87724","locality":"Ottobeuren","municipality":{"key":"09778186","name":"Ottobeuren, M","type":"Markt"},"district":{"key":"09778","name":"Unterallgäu","type":"Landkreis"},"federalState":{"key":"09","name":"Bayern"}},{"name":"Riedstr.","postalCode":"87724","locality":"Ottobeuren","municipality":{"key":"09778186","name":"Ottobeuren, M","type":"Markt"},"district":{"key":"09778","name":"Unterallgäu","type":"Landkreis"},"federalState":{"key":"09","name":"Bayern"}},{"name":"Rudolf-Diesel-Str.","postalCode":"87724","locality":"Ottobeuren","municipality":{"key":"09778186","name":"Ottobeuren, M","type":"Markt"},"district":{"key":"09778","name":"Unterallgäu","type":"Landkreis"},"federalState":{"key":"09","name":"Bayern"}},{"name":"Rupertstr.","postalCode":"87724","locality":"Ottobeuren","municipality":{"key":"09778186","name":"Ottobeuren, M","type":"Markt"},"district":{"key":"09778","name":"Unterallgäu","type":"Landkreis"},"federalState":{"key":"09","name":"Bayern"}},{"name":"Schellenberg","postalCode":"87724","locality":"Ottobeuren","municipality":{"key":"09778186","name":"Ottobeuren, M","type":"Markt"},"district":{"key":"09778","name":"Unterallgäu","type":"Landkreis"},"federalState":{"key":"09","name":"Bayern"}},{"name":"Schelmenheider Weg","postalCode":"87724","locality":"Ottobeuren","municipality":{"key":"09778186","name":"Ottobeuren, M","type":"Markt"},"district":{"key":"09778","name":"Unterallgäu","type":"Landkreis"},"federalState":{"key":"09","name":"Bayern"}},{"name":"Schieggstr.","postalCode":"87724","locality":"Ottobeuren","municipality":{"key":"09778186","name":"Ottobeuren, M","type":"Markt"},"district":{"key":"09778","name":"Unterallgäu","type":"Landkreis"},"federalState":{"key":"09","name":"Bayern"}},{"name":"Schießstattweg","postalCode":"87724","locality":"Ottobeuren","municipality":{"key":"09778186","name":"Ottobeuren, M","type":"Markt"},"district":{"key":"09778","name":"Unterallgäu","type":"Landkreis"},"federalState":{"key":"09","name":"Bayern"}},{"name":"Schillerstr.","postalCode":"87724","locality":"Ottobeuren","municipality":{"key":"09778186","name":"Ottobeuren, M","type":"Markt"},"district":{"key":"09778","name":"Unterallgäu","type":"Landkreis"},"federalState":{"key":"09","name":"Bayern"}},{"name":"Schmiedgasse","postalCode":"87724","locality":"Ottobeuren","municipality":{"key":"09778186","name":"Ottobeuren, M","type":"Markt"},"district":{"key":"09778","name":"Unterallgäu","type":"Landkreis"},"federalState":{"key":"09","name":"Bayern"}},{"name":"Schnizerstr.","postalCode":"87724","locality":"Ottobeuren","municipality":{"key":"09778186","name":"Ottobeuren, M","type":"Markt"},"district":{"key":"09778","name":"Unterallgäu","type":"Landkreis"},"federalState":{"key":"09","name":"Bayern"}},{"name":"Schützenstr.","postalCode":"87724","locality":"Ottobeuren","municipality":{"key":"09778186","name":"Ottobeuren, M","type":"Markt"},"district":{"key":"09778","name":"Unterallgäu","type":"Landkreis"},"federalState":{"key":"09","name":"Bayern"}},{"name":"Schwabensiedlung","postalCode":"87724","locality":"Ottobeuren","municipality":{"key":"09778186","name":"Ottobeuren, M","type":"Markt"},"district":{"key":"09778","name":"Unterallgäu","type":"Landkreis"},"federalState":{"key":"09","name":"Bayern"}},{"name":"Schwabenstr.","postalCode":"87724","locality":"Ottobeuren","municipality":{"key":"09778186","name":"Ottobeuren, M","type":"Markt"},"district":{"key":"09778","name":"Unterallgäu","type":"Landkreis"},"federalState":{"key":"09","name":"Bayern"}},{"name":"Sebastian-Kneipp-Str.","postalCode":"87724","locality":"Ottobeuren","municipality":{"key":"09778186","name":"Ottobeuren, M","type":"Markt"},"district":{"key":"09778","name":"Unterallgäu","type":"Landkreis"},"federalState":{"key":"09","name":"Bayern"}},{"name":"Silachweg","postalCode":"87724","locality":"Ottobeuren","municipality":{"key":"09778186","name":"Ottobeuren, M","type":"Markt"},"district":{"key":"09778","name":"Unterallgäu","type":"Landkreis"},"federalState":{"key":"09","name":"Bayern"}},{"name":"Spitalstr.","postalCode":"87724","locality":"Ottobeuren","municipality":{"key":"09778186","name":"Ottobeuren, M","type":"Markt"},"district":{"key":"09778","name":"Unterallgäu","type":"Landkreis"},"federalState":{"key":"09","name":"Bayern"}},{"name":"Stauderweg","postalCode":"87724","locality":"Ottobeuren","municipality":{"key":"09778186","name":"Ottobeuren, M","type":"Markt"},"district":{"key":"09778","name":"Unterallgäu","type":"Landkreis"},"federalState":{"key":"09","name":"Bayern"}},{"name":"St.-Donat-Str.","postalCode":"87724","locality":"Ottobeuren","municipality":{"key":"09778186","name":"Ottobeuren, M","type":"Markt"},"district":{"key":"09778","name":"Unterallgäu","type":"Landkreis"},"federalState":{"key":"09","name":"Bayern"}},{"name":"Steige","postalCode":"87724","locality":"Ottobeuren","municipality":{"key":"09778186","name":"Ottobeuren, M","type":"Markt"},"district":{"key":"09778","name":"Unterallgäu","type":"Landkreis"},"federalState":{"key":"09","name":"Bayern"}},{"name":"Stephansried","postalCode":"87724","locality":"Ottobeuren","municipality":{"key":"09778186","name":"Ottobeuren, M","type":"Markt"},"district":{"key":"09778","name":"Unterallgäu","type":"Landkreis"},"federalState":{"key":"09","name":"Bayern"}},{"name":"Stephansrieder Str.","postalCode":"87724","locality":"Ottobeuren","municipality":{"key":"09778186","name":"Ottobeuren, M","type":"Markt"},"district":{"key":"09778","name":"Unterallgäu","type":"Landkreis"},"federalState":{"key":"09","name":"Bayern"}},{"name":"Sterngasse","postalCode":"87724","locality":"Ottobeuren","municipality":{"key":"09778186","name":"Ottobeuren, M","type":"Markt"},"district":{"key":"09778","name":"Unterallgäu","type":"Landkreis"},"federalState":{"key":"09","name":"Bayern"}},{"name":"Sudetenstr.","postalCode":"87724","locality":"Ottobeuren","municipality":{"key":"09778186","name":"Ottobeuren, M","type":"Markt"},"district":{"key":"09778","name":"Unterallgäu","type":"Landkreis"},"federalState":{"key":"09","name":"Bayern"}},{"name":"Talackerweg","postalCode":"87724","locality":"Ottobeuren","municipality":{"key":"09778186","name":"Ottobeuren, M","type":"Markt"},"district":{"key":"09778","name":"Unterallgäu","type":"Landkreis"},"federalState":{"key":"09","name":"Bayern"}},{"name":"Thalheimerstr.","postalCode":"87724","locality":"Ottobeuren","municipality":{"key":"09778186","name":"Ottobeuren, M","type":"Markt"},"district":{"key":"09778","name":"Unterallgäu","type":"Landkreis"},"federalState":{"key":"09","name":"Bayern"}},{"name":"Uhlandstr.","postalCode":"87724","locality":"Ottobeuren","municipality":{"key":"09778186","name":"Ottobeuren, M","type":"Markt"},"district":{"key":"09778","name":"Unterallgäu","type":"Landkreis"},"federalState":{"key":"09","name":"Bayern"}},{"name":"Ulrichstr.","postalCode":"87724","locality":"Ottobeuren","municipality":{"key":"09778186","name":"Ottobeuren, M","type":"Markt"},"district":{"key":"09778","name":"Unterallgäu","type":"Landkreis"},"federalState":{"key":"09","name":"Bayern"}},{"name":"Unterhaslach","postalCode":"87724","locality":"Ottobeuren","municipality":{"key":"09778186","name":"Ottobeuren, M","type":"Markt"},"district":{"key":"09778","name":"Unterallgäu","type":"Landkreis"},"federalState":{"key":"09","name":"Bayern"}},{"name":"Zeillerstr.","postalCode":"87724","locality":"Ottobeuren","municipality":{"key":"09778186","name":"Ottobeuren, M","type":"Markt"},"district":{"key":"09778","name":"Unterallgäu","type":"Landkreis"},"federalState":{"key":"09","name":"Bayern"}},{"name":"Zeppelinstr.","postalCode":"87724","locality":"Ottobeuren","municipality":{"key":"09778186","name":"Ottobeuren, M","type":"Markt"},"district":{"key":"09778","name":"Unterallgäu","type":"Landkreis"},"federalState":{"key":"09","name":"Bayern"}},{"name":"Zum Kälberboscha","postalCode":"87724","locality":"Ottobeuren","municipality":{"key":"09778186","name":"Ottobeuren, M","type":"Markt"},"district":{"key":"09778","name":"Unterallgäu","type":"Landkreis"},"federalState":{"key":"09","name":"Bayern"}},]