[{"name":"Auf dem Köppel","postalCode":"57629","locality":"Heimborn","municipality":{"key":"07143236","name":"Heimborn","type":"Kreisangehörige_Gemeinde"},"district":{"key":"07143","name":"Westerwaldkreis","type":"Landkreis"},"federalState":{"key":"07","name":"Rheinland-Pfalz"}},{"name":"Auf der Bitz","postalCode":"57629","locality":"Heimborn","municipality":{"key":"07143236","name":"Heimborn","type":"Kreisangehörige_Gemeinde"},"district":{"key":"07143","name":"Westerwaldkreis","type":"Landkreis"},"federalState":{"key":"07","name":"Rheinland-Pfalz"}},{"name":"Baumertstr.","postalCode":"57629","locality":"Heimborn","municipality":{"key":"07143236","name":"Heimborn","type":"Kreisangehörige_Gemeinde"},"district":{"key":"07143","name":"Westerwaldkreis","type":"Landkreis"},"federalState":{"key":"07","name":"Rheinland-Pfalz"}},{"name":"Eichenweg","postalCode":"57629","locality":"Heimborn","municipality":{"key":"07143236","name":"Heimborn","type":"Kreisangehörige_Gemeinde"},"district":{"key":"07143","name":"Westerwaldkreis","type":"Landkreis"},"federalState":{"key":"07","name":"Rheinland-Pfalz"}},{"name":"Eulenwald","postalCode":"57629","locality":"Heimborn","municipality":{"key":"07143236","name":"Heimborn","type":"Kreisangehörige_Gemeinde"},"district":{"key":"07143","name":"Westerwaldkreis","type":"Landkreis"},"federalState":{"key":"07","name":"Rheinland-Pfalz"}},{"name":"Gartenstr.","postalCode":"57629","locality":"Heimborn","municipality":{"key":"07143236","name":"Heimborn","type":"Kreisangehörige_Gemeinde"},"district":{"key":"07143","name":"Westerwaldkreis","type":"Landkreis"},"federalState":{"key":"07","name":"Rheinland-Pfalz"}},{"name":"In der Hall","postalCode":"57629","locality":"Heimborn","municipality":{"key":"07143236","name":"Heimborn","type":"Kreisangehörige_Gemeinde"},"district":{"key":"07143","name":"Westerwaldkreis","type":"Landkreis"},"federalState":{"key":"07","name":"Rheinland-Pfalz"}},{"name":"Lindenstr.","postalCode":"57629","locality":"Heimborn","municipality":{"key":"07143236","name":"Heimborn","type":"Kreisangehörige_Gemeinde"},"district":{"key":"07143","name":"Westerwaldkreis","type":"Landkreis"},"federalState":{"key":"07","name":"Rheinland-Pfalz"}},{"name":"Nisterstr.","postalCode":"57629","locality":"Heimborn","municipality":{"key":"07143236","name":"Heimborn","type":"Kreisangehörige_Gemeinde"},"district":{"key":"07143","name":"Westerwaldkreis","type":"Landkreis"},"federalState":{"key":"07","name":"Rheinland-Pfalz"}},{"name":"Schultheiss-Str.","postalCode":"57629","locality":"Heimborn","municipality":{"key":"07143236","name":"Heimborn","type":"Kreisangehörige_Gemeinde"},"district":{"key":"07143","name":"Westerwaldkreis","type":"Landkreis"},"federalState":{"key":"07","name":"Rheinland-Pfalz"}},{"name":"Vor der Hardt","postalCode":"57629","locality":"Heimborn","municipality":{"key":"07143236","name":"Heimborn","type":"Kreisangehörige_Gemeinde"},"district":{"key":"07143","name":"Westerwaldkreis","type":"Landkreis"},"federalState":{"key":"07","name":"Rheinland-Pfalz"}},{"name":"Wilhelmstr.","postalCode":"57629","locality":"Heimborn","municipality":{"key":"07143236","name":"Heimborn","type":"Kreisangehörige_Gemeinde"},"district":{"key":"07143","name":"Westerwaldkreis","type":"Landkreis"},"federalState":{"key":"07","name":"Rheinland-Pfalz"}},]