[{"key":"10240252","name":"Crestas","postalCode":"7114","locality":"Uors (Lumnezia)","commune":{"key":"3618","name":"Lumnezia","shortName":"Lumnezia"},"district":{"key":"1850","name":"Region Surselva"},"canton":{"key":"18","code":"GR","name":"Graubünden / Grigioni / Grischun"},"status":"Real"},{"key":"10240232","name":"Plaun","postalCode":"7114","locality":"Uors (Lumnezia)","commune":{"key":"3618","name":"Lumnezia","shortName":"Lumnezia"},"district":{"key":"1850","name":"Region Surselva"},"canton":{"key":"18","code":"GR","name":"Graubünden / Grigioni / Grischun"},"status":"Real"},{"key":"10171045","name":"Via Padrus","postalCode":"7114","locality":"Uors (Lumnezia)","commune":{"key":"3618","name":"Lumnezia","shortName":"Lumnezia"},"district":{"key":"1850","name":"Region Surselva"},"canton":{"key":"18","code":"GR","name":"Graubünden / Grigioni / Grischun"},"status":"Real"},{"key":"10168906","name":"Via Planezzas","postalCode":"7114","locality":"Uors (Lumnezia)","commune":{"key":"3618","name":"Lumnezia","shortName":"Lumnezia"},"district":{"key":"1850","name":"Region Surselva"},"canton":{"key":"18","code":"GR","name":"Graubünden / Grigioni / Grischun"},"status":"Real"},{"key":"10171052","name":"Via Puoz Sut","postalCode":"7114","locality":"Uors (Lumnezia)","commune":{"key":"3618","name":"Lumnezia","shortName":"Lumnezia"},"district":{"key":"1850","name":"Region Surselva"},"canton":{"key":"18","code":"GR","name":"Graubünden / Grigioni / Grischun"},"status":"Real"},{"key":"10168905","name":"Via Scola","postalCode":"7114","locality":"Uors (Lumnezia)","commune":{"key":"3618","name":"Lumnezia","shortName":"Lumnezia"},"district":{"key":"1850","name":"Region Surselva"},"canton":{"key":"18","code":"GR","name":"Graubünden / Grigioni / Grischun"},"status":"Real"},{"key":"10168907","name":"Via Sum Resgias","postalCode":"7114","locality":"Uors (Lumnezia)","commune":{"key":"3618","name":"Lumnezia","shortName":"Lumnezia"},"district":{"key":"1850","name":"Region Surselva"},"canton":{"key":"18","code":"GR","name":"Graubünden / Grigioni / Grischun"},"status":"Real"},{"key":"10167338","name":"Via Val","postalCode":"7114","locality":"Uors (Lumnezia)","commune":{"key":"3618","name":"Lumnezia","shortName":"Lumnezia"},"district":{"key":"1850","name":"Region Surselva"},"canton":{"key":"18","code":"GR","name":"Graubünden / Grigioni / Grischun"},"status":"Real"},]