[{"name":"Aacher Str.","postalCode":"72280","locality":"Dornstetten","municipality":{"key":"08237019","name":"Dornstetten, Stadt","type":"Stadt"},"district":{"key":"08237","name":"Freudenstadt","type":"Landkreis"},"federalState":{"key":"08","name":"Baden-Württemberg"}},{"name":"Ahornweg","postalCode":"72280","locality":"Dornstetten","municipality":{"key":"08237019","name":"Dornstetten, Stadt","type":"Stadt"},"district":{"key":"08237","name":"Freudenstadt","type":"Landkreis"},"federalState":{"key":"08","name":"Baden-Württemberg"}},{"name":"Albblick","postalCode":"72280","locality":"Dornstetten","municipality":{"key":"08237019","name":"Dornstetten, Stadt","type":"Stadt"},"district":{"key":"08237","name":"Freudenstadt","type":"Landkreis"},"federalState":{"key":"08","name":"Baden-Württemberg"}},{"name":"Allmandweg","postalCode":"72280","locality":"Dornstetten","municipality":{"key":"08237019","name":"Dornstetten, Stadt","type":"Stadt"},"district":{"key":"08237","name":"Freudenstadt","type":"Landkreis"},"federalState":{"key":"08","name":"Baden-Württemberg"}},{"name":"Alte Gasse","postalCode":"72280","locality":"Dornstetten","municipality":{"key":"08237019","name":"Dornstetten, Stadt","type":"Stadt"},"district":{"key":"08237","name":"Freudenstadt","type":"Landkreis"},"federalState":{"key":"08","name":"Baden-Württemberg"}},{"name":"Alte Poststr.","postalCode":"72280","locality":"Dornstetten","municipality":{"key":"08237019","name":"Dornstetten, Stadt","type":"Stadt"},"district":{"key":"08237","name":"Freudenstadt","type":"Landkreis"},"federalState":{"key":"08","name":"Baden-Württemberg"}},{"name":"Alter Grüntaler Weg","postalCode":"72280","locality":"Dornstetten","municipality":{"key":"08237019","name":"Dornstetten, Stadt","type":"Stadt"},"district":{"key":"08237","name":"Freudenstadt","type":"Landkreis"},"federalState":{"key":"08","name":"Baden-Württemberg"}},{"name":"Alter Stadtweg","postalCode":"72280","locality":"Dornstetten","municipality":{"key":"08237019","name":"Dornstetten, Stadt","type":"Stadt"},"district":{"key":"08237","name":"Freudenstadt","type":"Landkreis"},"federalState":{"key":"08","name":"Baden-Württemberg"}},{"name":"Am Aacher Berg","postalCode":"72280","locality":"Dornstetten","municipality":{"key":"08237019","name":"Dornstetten, Stadt","type":"Stadt"},"district":{"key":"08237","name":"Freudenstadt","type":"Landkreis"},"federalState":{"key":"08","name":"Baden-Württemberg"}},{"name":"Am Aispach","postalCode":"72280","locality":"Dornstetten","municipality":{"key":"08237019","name":"Dornstetten, Stadt","type":"Stadt"},"district":{"key":"08237","name":"Freudenstadt","type":"Landkreis"},"federalState":{"key":"08","name":"Baden-Württemberg"}},{"name":"Am Bergwerk","postalCode":"72280","locality":"Dornstetten","municipality":{"key":"08237019","name":"Dornstetten, Stadt","type":"Stadt"},"district":{"key":"08237","name":"Freudenstadt","type":"Landkreis"},"federalState":{"key":"08","name":"Baden-Württemberg"}},{"name":"Am Eichwald","postalCode":"72280","locality":"Dornstetten","municipality":{"key":"08237019","name":"Dornstetten, Stadt","type":"Stadt"},"district":{"key":"08237","name":"Freudenstadt","type":"Landkreis"},"federalState":{"key":"08","name":"Baden-Württemberg"}},{"name":"Am Kübelbach","postalCode":"72280","locality":"Dornstetten","municipality":{"key":"08237019","name":"Dornstetten, Stadt","type":"Stadt"},"district":{"key":"08237","name":"Freudenstadt","type":"Landkreis"},"federalState":{"key":"08","name":"Baden-Württemberg"}},{"name":"Am Pfahlberg","postalCode":"72280","locality":"Dornstetten","municipality":{"key":"08237019","name":"Dornstetten, Stadt","type":"Stadt"},"district":{"key":"08237","name":"Freudenstadt","type":"Landkreis"},"federalState":{"key":"08","name":"Baden-Württemberg"}},{"name":"Am Schönblick","postalCode":"72280","locality":"Dornstetten","municipality":{"key":"08237019","name":"Dornstetten, Stadt","type":"Stadt"},"district":{"key":"08237","name":"Freudenstadt","type":"Landkreis"},"federalState":{"key":"08","name":"Baden-Württemberg"}},{"name":"Amselweg","postalCode":"72280","locality":"Dornstetten","municipality":{"key":"08237019","name":"Dornstetten, Stadt","type":"Stadt"},"district":{"key":"08237","name":"Freudenstadt","type":"Landkreis"},"federalState":{"key":"08","name":"Baden-Württemberg"}},{"name":"Am Silberberg","postalCode":"72280","locality":"Dornstetten","municipality":{"key":"08237019","name":"Dornstetten, Stadt","type":"Stadt"},"district":{"key":"08237","name":"Freudenstadt","type":"Landkreis"},"federalState":{"key":"08","name":"Baden-Württemberg"}},{"name":"Am Sonnenrain","postalCode":"72280","locality":"Dornstetten","municipality":{"key":"08237019","name":"Dornstetten, Stadt","type":"Stadt"},"district":{"key":"08237","name":"Freudenstadt","type":"Landkreis"},"federalState":{"key":"08","name":"Baden-Württemberg"}},{"name":"Am Stadtberg","postalCode":"72280","locality":"Dornstetten","municipality":{"key":"08237019","name":"Dornstetten, Stadt","type":"Stadt"},"district":{"key":"08237","name":"Freudenstadt","type":"Landkreis"},"federalState":{"key":"08","name":"Baden-Württemberg"}},{"name":"Am Walkenrain","postalCode":"72280","locality":"Dornstetten","municipality":{"key":"08237019","name":"Dornstetten, Stadt","type":"Stadt"},"district":{"key":"08237","name":"Freudenstadt","type":"Landkreis"},"federalState":{"key":"08","name":"Baden-Württemberg"}},{"name":"An der Brunnenstube","postalCode":"72280","locality":"Dornstetten","municipality":{"key":"08237019","name":"Dornstetten, Stadt","type":"Stadt"},"district":{"key":"08237","name":"Freudenstadt","type":"Landkreis"},"federalState":{"key":"08","name":"Baden-Württemberg"}},{"name":"Ascheriedweg","postalCode":"72280","locality":"Dornstetten","municipality":{"key":"08237019","name":"Dornstetten, Stadt","type":"Stadt"},"district":{"key":"08237","name":"Freudenstadt","type":"Landkreis"},"federalState":{"key":"08","name":"Baden-Württemberg"}},{"name":"Auf dem Berg","postalCode":"72280","locality":"Dornstetten","municipality":{"key":"08237019","name":"Dornstetten, Stadt","type":"Stadt"},"district":{"key":"08237","name":"Freudenstadt","type":"Landkreis"},"federalState":{"key":"08","name":"Baden-Württemberg"}},{"name":"August-Lämmle-Str.","postalCode":"72280","locality":"Dornstetten","municipality":{"key":"08237019","name":"Dornstetten, Stadt","type":"Stadt"},"district":{"key":"08237","name":"Freudenstadt","type":"Landkreis"},"federalState":{"key":"08","name":"Baden-Württemberg"}},{"name":"Badgasse","postalCode":"72280","locality":"Dornstetten","municipality":{"key":"08237019","name":"Dornstetten, Stadt","type":"Stadt"},"district":{"key":"08237","name":"Freudenstadt","type":"Landkreis"},"federalState":{"key":"08","name":"Baden-Württemberg"}},{"name":"Bahnhofstr.","postalCode":"72280","locality":"Dornstetten","municipality":{"key":"08237019","name":"Dornstetten, Stadt","type":"Stadt"},"district":{"key":"08237","name":"Freudenstadt","type":"Landkreis"},"federalState":{"key":"08","name":"Baden-Württemberg"}},{"name":"Benzinger Hof","postalCode":"72280","locality":"Dornstetten","municipality":{"key":"08237019","name":"Dornstetten, Stadt","type":"Stadt"},"district":{"key":"08237","name":"Freudenstadt","type":"Landkreis"},"federalState":{"key":"08","name":"Baden-Württemberg"}},{"name":"Bergwiese","postalCode":"72280","locality":"Dornstetten","municipality":{"key":"08237019","name":"Dornstetten, Stadt","type":"Stadt"},"district":{"key":"08237","name":"Freudenstadt","type":"Landkreis"},"federalState":{"key":"08","name":"Baden-Württemberg"}},{"name":"Birkenweg","postalCode":"72280","locality":"Dornstetten","municipality":{"key":"08237019","name":"Dornstetten, Stadt","type":"Stadt"},"district":{"key":"08237","name":"Freudenstadt","type":"Landkreis"},"federalState":{"key":"08","name":"Baden-Württemberg"}},{"name":"Brunnenberg","postalCode":"72280","locality":"Dornstetten","municipality":{"key":"08237019","name":"Dornstetten, Stadt","type":"Stadt"},"district":{"key":"08237","name":"Freudenstadt","type":"Landkreis"},"federalState":{"key":"08","name":"Baden-Württemberg"}},{"name":"Brunnenbergstr.","postalCode":"72280","locality":"Dornstetten","municipality":{"key":"08237019","name":"Dornstetten, Stadt","type":"Stadt"},"district":{"key":"08237","name":"Freudenstadt","type":"Landkreis"},"federalState":{"key":"08","name":"Baden-Württemberg"}},{"name":"Brunnensteige","postalCode":"72280","locality":"Dornstetten","municipality":{"key":"08237019","name":"Dornstetten, Stadt","type":"Stadt"},"district":{"key":"08237","name":"Freudenstadt","type":"Landkreis"},"federalState":{"key":"08","name":"Baden-Württemberg"}},{"name":"Brunnenstr.","postalCode":"72280","locality":"Dornstetten","municipality":{"key":"08237019","name":"Dornstetten, Stadt","type":"Stadt"},"district":{"key":"08237","name":"Freudenstadt","type":"Landkreis"},"federalState":{"key":"08","name":"Baden-Württemberg"}},{"name":"Buchenweg","postalCode":"72280","locality":"Dornstetten","municipality":{"key":"08237019","name":"Dornstetten, Stadt","type":"Stadt"},"district":{"key":"08237","name":"Freudenstadt","type":"Landkreis"},"federalState":{"key":"08","name":"Baden-Württemberg"}},{"name":"Burgblick","postalCode":"72280","locality":"Dornstetten","municipality":{"key":"08237019","name":"Dornstetten, Stadt","type":"Stadt"},"district":{"key":"08237","name":"Freudenstadt","type":"Landkreis"},"federalState":{"key":"08","name":"Baden-Württemberg"}},{"name":"Cresbacher Str.","postalCode":"72280","locality":"Dornstetten","municipality":{"key":"08237019","name":"Dornstetten, Stadt","type":"Stadt"},"district":{"key":"08237","name":"Freudenstadt","type":"Landkreis"},"federalState":{"key":"08","name":"Baden-Württemberg"}},{"name":"Danziger Str.","postalCode":"72280","locality":"Dornstetten","municipality":{"key":"08237019","name":"Dornstetten, Stadt","type":"Stadt"},"district":{"key":"08237","name":"Freudenstadt","type":"Landkreis"},"federalState":{"key":"08","name":"Baden-Württemberg"}},{"name":"Dietersweiler Str.","postalCode":"72280","locality":"Dornstetten","municipality":{"key":"08237019","name":"Dornstetten, Stadt","type":"Stadt"},"district":{"key":"08237","name":"Freudenstadt","type":"Landkreis"},"federalState":{"key":"08","name":"Baden-Württemberg"}},{"name":"Dietrich-Bonhoeffer-Str.","postalCode":"72280","locality":"Dornstetten","municipality":{"key":"08237019","name":"Dornstetten, Stadt","type":"Stadt"},"district":{"key":"08237","name":"Freudenstadt","type":"Landkreis"},"federalState":{"key":"08","name":"Baden-Württemberg"}},{"name":"Dornstetter Str.","postalCode":"72280","locality":"Dornstetten","municipality":{"key":"08237019","name":"Dornstetten, Stadt","type":"Stadt"},"district":{"key":"08237","name":"Freudenstadt","type":"Landkreis"},"federalState":{"key":"08","name":"Baden-Württemberg"}},{"name":"Dr.-Karl-Mahler-Str.","postalCode":"72280","locality":"Dornstetten","municipality":{"key":"08237019","name":"Dornstetten, Stadt","type":"Stadt"},"district":{"key":"08237","name":"Freudenstadt","type":"Landkreis"},"federalState":{"key":"08","name":"Baden-Württemberg"}},{"name":"Eichendorffweg","postalCode":"72280","locality":"Dornstetten","municipality":{"key":"08237019","name":"Dornstetten, Stadt","type":"Stadt"},"district":{"key":"08237","name":"Freudenstadt","type":"Landkreis"},"federalState":{"key":"08","name":"Baden-Württemberg"}},{"name":"Eichenweg","postalCode":"72280","locality":"Dornstetten","municipality":{"key":"08237019","name":"Dornstetten, Stadt","type":"Stadt"},"district":{"key":"08237","name":"Freudenstadt","type":"Landkreis"},"federalState":{"key":"08","name":"Baden-Württemberg"}},{"name":"Enge Gasse","postalCode":"72280","locality":"Dornstetten","municipality":{"key":"08237019","name":"Dornstetten, Stadt","type":"Stadt"},"district":{"key":"08237","name":"Freudenstadt","type":"Landkreis"},"federalState":{"key":"08","name":"Baden-Württemberg"}},{"name":"Engeltal","postalCode":"72280","locality":"Dornstetten","municipality":{"key":"08237019","name":"Dornstetten, Stadt","type":"Stadt"},"district":{"key":"08237","name":"Freudenstadt","type":"Landkreis"},"federalState":{"key":"08","name":"Baden-Württemberg"}},{"name":"Eschenweg","postalCode":"72280","locality":"Dornstetten","municipality":{"key":"08237019","name":"Dornstetten, Stadt","type":"Stadt"},"district":{"key":"08237","name":"Freudenstadt","type":"Landkreis"},"federalState":{"key":"08","name":"Baden-Württemberg"}},{"name":"Fichtenweg","postalCode":"72280","locality":"Dornstetten","municipality":{"key":"08237019","name":"Dornstetten, Stadt","type":"Stadt"},"district":{"key":"08237","name":"Freudenstadt","type":"Landkreis"},"federalState":{"key":"08","name":"Baden-Württemberg"}},{"name":"Finkenweg","postalCode":"72280","locality":"Dornstetten","municipality":{"key":"08237019","name":"Dornstetten, Stadt","type":"Stadt"},"district":{"key":"08237","name":"Freudenstadt","type":"Landkreis"},"federalState":{"key":"08","name":"Baden-Württemberg"}},{"name":"Fischwangstr.","postalCode":"72280","locality":"Dornstetten","municipality":{"key":"08237019","name":"Dornstetten, Stadt","type":"Stadt"},"district":{"key":"08237","name":"Freudenstadt","type":"Landkreis"},"federalState":{"key":"08","name":"Baden-Württemberg"}},{"name":"Fliederstr.","postalCode":"72280","locality":"Dornstetten","municipality":{"key":"08237019","name":"Dornstetten, Stadt","type":"Stadt"},"district":{"key":"08237","name":"Freudenstadt","type":"Landkreis"},"federalState":{"key":"08","name":"Baden-Württemberg"}},{"name":"Flößerstr.","postalCode":"72280","locality":"Dornstetten","municipality":{"key":"08237019","name":"Dornstetten, Stadt","type":"Stadt"},"district":{"key":"08237","name":"Freudenstadt","type":"Landkreis"},"federalState":{"key":"08","name":"Baden-Württemberg"}},{"name":"Forststr.","postalCode":"72280","locality":"Dornstetten","municipality":{"key":"08237019","name":"Dornstetten, Stadt","type":"Stadt"},"district":{"key":"08237","name":"Freudenstadt","type":"Landkreis"},"federalState":{"key":"08","name":"Baden-Württemberg"}},{"name":"Freudenstädter Str.","postalCode":"72280","locality":"Dornstetten","municipality":{"key":"08237019","name":"Dornstetten, Stadt","type":"Stadt"},"district":{"key":"08237","name":"Freudenstadt","type":"Landkreis"},"federalState":{"key":"08","name":"Baden-Württemberg"}},{"name":"Friedhofweg","postalCode":"72280","locality":"Dornstetten","municipality":{"key":"08237019","name":"Dornstetten, Stadt","type":"Stadt"},"district":{"key":"08237","name":"Freudenstadt","type":"Landkreis"},"federalState":{"key":"08","name":"Baden-Württemberg"}},{"name":"Fritz-Bochinger-Weg","postalCode":"72280","locality":"Dornstetten","municipality":{"key":"08237019","name":"Dornstetten, Stadt","type":"Stadt"},"district":{"key":"08237","name":"Freudenstadt","type":"Landkreis"},"federalState":{"key":"08","name":"Baden-Württemberg"}},{"name":"Frühlingstr.","postalCode":"72280","locality":"Dornstetten","municipality":{"key":"08237019","name":"Dornstetten, Stadt","type":"Stadt"},"district":{"key":"08237","name":"Freudenstadt","type":"Landkreis"},"federalState":{"key":"08","name":"Baden-Württemberg"}},{"name":"Gaisberg","postalCode":"72280","locality":"Dornstetten","municipality":{"key":"08237019","name":"Dornstetten, Stadt","type":"Stadt"},"district":{"key":"08237","name":"Freudenstadt","type":"Landkreis"},"federalState":{"key":"08","name":"Baden-Württemberg"}},{"name":"Gartenstr.","postalCode":"72280","locality":"Dornstetten","municipality":{"key":"08237019","name":"Dornstetten, Stadt","type":"Stadt"},"district":{"key":"08237","name":"Freudenstadt","type":"Landkreis"},"federalState":{"key":"08","name":"Baden-Württemberg"}},{"name":"Gärtlesäcker","postalCode":"72280","locality":"Dornstetten","municipality":{"key":"08237019","name":"Dornstetten, Stadt","type":"Stadt"},"district":{"key":"08237","name":"Freudenstadt","type":"Landkreis"},"federalState":{"key":"08","name":"Baden-Württemberg"}},{"name":"Georg-Feuerbacher-Str.","postalCode":"72280","locality":"Dornstetten","municipality":{"key":"08237019","name":"Dornstetten, Stadt","type":"Stadt"},"district":{"key":"08237","name":"Freudenstadt","type":"Landkreis"},"federalState":{"key":"08","name":"Baden-Württemberg"}},{"name":"Glaswiesenweg","postalCode":"72280","locality":"Dornstetten","municipality":{"key":"08237019","name":"Dornstetten, Stadt","type":"Stadt"},"district":{"key":"08237","name":"Freudenstadt","type":"Landkreis"},"federalState":{"key":"08","name":"Baden-Württemberg"}},{"name":"Glattalstr.","postalCode":"72280","locality":"Dornstetten","municipality":{"key":"08237019","name":"Dornstetten, Stadt","type":"Stadt"},"district":{"key":"08237","name":"Freudenstadt","type":"Landkreis"},"federalState":{"key":"08","name":"Baden-Württemberg"}},{"name":"Goethestr.","postalCode":"72280","locality":"Dornstetten","municipality":{"key":"08237019","name":"Dornstetten, Stadt","type":"Stadt"},"district":{"key":"08237","name":"Freudenstadt","type":"Landkreis"},"federalState":{"key":"08","name":"Baden-Württemberg"}},{"name":"Göhrnweg","postalCode":"72280","locality":"Dornstetten","municipality":{"key":"08237019","name":"Dornstetten, Stadt","type":"Stadt"},"district":{"key":"08237","name":"Freudenstadt","type":"Landkreis"},"federalState":{"key":"08","name":"Baden-Württemberg"}},{"name":"Gottlieb-Daimler-Str.","postalCode":"72280","locality":"Dornstetten","municipality":{"key":"08237019","name":"Dornstetten, Stadt","type":"Stadt"},"district":{"key":"08237","name":"Freudenstadt","type":"Landkreis"},"federalState":{"key":"08","name":"Baden-Württemberg"}},{"name":"Grüner Weg","postalCode":"72280","locality":"Dornstetten","municipality":{"key":"08237019","name":"Dornstetten, Stadt","type":"Stadt"},"district":{"key":"08237","name":"Freudenstadt","type":"Landkreis"},"federalState":{"key":"08","name":"Baden-Württemberg"}},{"name":"Grüntaler Str.","postalCode":"72280","locality":"Dornstetten","municipality":{"key":"08237019","name":"Dornstetten, Stadt","type":"Stadt"},"district":{"key":"08237","name":"Freudenstadt","type":"Landkreis"},"federalState":{"key":"08","name":"Baden-Württemberg"}},{"name":"Hallwanger Weg","postalCode":"72280","locality":"Dornstetten","municipality":{"key":"08237019","name":"Dornstetten, Stadt","type":"Stadt"},"district":{"key":"08237","name":"Freudenstadt","type":"Landkreis"},"federalState":{"key":"08","name":"Baden-Württemberg"}},{"name":"Hans-Thoma-Str.","postalCode":"72280","locality":"Dornstetten","municipality":{"key":"08237019","name":"Dornstetten, Stadt","type":"Stadt"},"district":{"key":"08237","name":"Freudenstadt","type":"Landkreis"},"federalState":{"key":"08","name":"Baden-Württemberg"}},{"name":"Hauptstr.","postalCode":"72280","locality":"Dornstetten","municipality":{"key":"08237019","name":"Dornstetten, Stadt","type":"Stadt"},"district":{"key":"08237","name":"Freudenstadt","type":"Landkreis"},"federalState":{"key":"08","name":"Baden-Württemberg"}},{"name":"Heinrich-Schäff-Str.","postalCode":"72280","locality":"Dornstetten","municipality":{"key":"08237019","name":"Dornstetten, Stadt","type":"Stadt"},"district":{"key":"08237","name":"Freudenstadt","type":"Landkreis"},"federalState":{"key":"08","name":"Baden-Württemberg"}},{"name":"Herdwasenstr.","postalCode":"72280","locality":"Dornstetten","municipality":{"key":"08237019","name":"Dornstetten, Stadt","type":"Stadt"},"district":{"key":"08237","name":"Freudenstadt","type":"Landkreis"},"federalState":{"key":"08","name":"Baden-Württemberg"}},{"name":"Hermann-Hesse-Str.","postalCode":"72280","locality":"Dornstetten","municipality":{"key":"08237019","name":"Dornstetten, Stadt","type":"Stadt"},"district":{"key":"08237","name":"Freudenstadt","type":"Landkreis"},"federalState":{"key":"08","name":"Baden-Württemberg"}},{"name":"Heselwiesenstr.","postalCode":"72280","locality":"Dornstetten","municipality":{"key":"08237019","name":"Dornstetten, Stadt","type":"Stadt"},"district":{"key":"08237","name":"Freudenstadt","type":"Landkreis"},"federalState":{"key":"08","name":"Baden-Württemberg"}},{"name":"Hochgerichtstr.","postalCode":"72280","locality":"Dornstetten","municipality":{"key":"08237019","name":"Dornstetten, Stadt","type":"Stadt"},"district":{"key":"08237","name":"Freudenstadt","type":"Landkreis"},"federalState":{"key":"08","name":"Baden-Württemberg"}},{"name":"Hölderlinstr.","postalCode":"72280","locality":"Dornstetten","municipality":{"key":"08237019","name":"Dornstetten, Stadt","type":"Stadt"},"district":{"key":"08237","name":"Freudenstadt","type":"Landkreis"},"federalState":{"key":"08","name":"Baden-Württemberg"}},{"name":"Holunderweg","postalCode":"72280","locality":"Dornstetten","municipality":{"key":"08237019","name":"Dornstetten, Stadt","type":"Stadt"},"district":{"key":"08237","name":"Freudenstadt","type":"Landkreis"},"federalState":{"key":"08","name":"Baden-Württemberg"}},{"name":"Horber Weg","postalCode":"72280","locality":"Dornstetten","municipality":{"key":"08237019","name":"Dornstetten, Stadt","type":"Stadt"},"district":{"key":"08237","name":"Freudenstadt","type":"Landkreis"},"federalState":{"key":"08","name":"Baden-Württemberg"}},{"name":"Im Biegel","postalCode":"72280","locality":"Dornstetten","municipality":{"key":"08237019","name":"Dornstetten, Stadt","type":"Stadt"},"district":{"key":"08237","name":"Freudenstadt","type":"Landkreis"},"federalState":{"key":"08","name":"Baden-Württemberg"}},{"name":"Im Brühl","postalCode":"72280","locality":"Dornstetten","municipality":{"key":"08237019","name":"Dornstetten, Stadt","type":"Stadt"},"district":{"key":"08237","name":"Freudenstadt","type":"Landkreis"},"federalState":{"key":"08","name":"Baden-Württemberg"}},{"name":"Im Herrenfeld","postalCode":"72280","locality":"Dornstetten","municipality":{"key":"08237019","name":"Dornstetten, Stadt","type":"Stadt"},"district":{"key":"08237","name":"Freudenstadt","type":"Landkreis"},"federalState":{"key":"08","name":"Baden-Württemberg"}},{"name":"Im Höfle","postalCode":"72280","locality":"Dornstetten","municipality":{"key":"08237019","name":"Dornstetten, Stadt","type":"Stadt"},"district":{"key":"08237","name":"Freudenstadt","type":"Landkreis"},"federalState":{"key":"08","name":"Baden-Württemberg"}},{"name":"Im Lengenbrunnen","postalCode":"72280","locality":"Dornstetten","municipality":{"key":"08237019","name":"Dornstetten, Stadt","type":"Stadt"},"district":{"key":"08237","name":"Freudenstadt","type":"Landkreis"},"federalState":{"key":"08","name":"Baden-Württemberg"}},{"name":"Im Rank","postalCode":"72280","locality":"Dornstetten","municipality":{"key":"08237019","name":"Dornstetten, Stadt","type":"Stadt"},"district":{"key":"08237","name":"Freudenstadt","type":"Landkreis"},"federalState":{"key":"08","name":"Baden-Württemberg"}},{"name":"Im Tiergarten","postalCode":"72280","locality":"Dornstetten","municipality":{"key":"08237019","name":"Dornstetten, Stadt","type":"Stadt"},"district":{"key":"08237","name":"Freudenstadt","type":"Landkreis"},"federalState":{"key":"08","name":"Baden-Württemberg"}},{"name":"In der Au","postalCode":"72280","locality":"Dornstetten","municipality":{"key":"08237019","name":"Dornstetten, Stadt","type":"Stadt"},"district":{"key":"08237","name":"Freudenstadt","type":"Landkreis"},"federalState":{"key":"08","name":"Baden-Württemberg"}},{"name":"Irmgardsglück","postalCode":"72280","locality":"Dornstetten","municipality":{"key":"08237019","name":"Dornstetten, Stadt","type":"Stadt"},"district":{"key":"08237","name":"Freudenstadt","type":"Landkreis"},"federalState":{"key":"08","name":"Baden-Württemberg"}},{"name":"Jägermühle","postalCode":"72280","locality":"Dornstetten","municipality":{"key":"08237019","name":"Dornstetten, Stadt","type":"Stadt"},"district":{"key":"08237","name":"Freudenstadt","type":"Landkreis"},"federalState":{"key":"08","name":"Baden-Württemberg"}},{"name":"Jakob-Mutz-Str.","postalCode":"72280","locality":"Dornstetten","municipality":{"key":"08237019","name":"Dornstetten, Stadt","type":"Stadt"},"district":{"key":"08237","name":"Freudenstadt","type":"Landkreis"},"federalState":{"key":"08","name":"Baden-Württemberg"}},{"name":"Johannes-Wössner-Str.","postalCode":"72280","locality":"Dornstetten","municipality":{"key":"08237019","name":"Dornstetten, Stadt","type":"Stadt"},"district":{"key":"08237","name":"Freudenstadt","type":"Landkreis"},"federalState":{"key":"08","name":"Baden-Württemberg"}},{"name":"Justinus-Kerner-Weg","postalCode":"72280","locality":"Dornstetten","municipality":{"key":"08237019","name":"Dornstetten, Stadt","type":"Stadt"},"district":{"key":"08237","name":"Freudenstadt","type":"Landkreis"},"federalState":{"key":"08","name":"Baden-Württemberg"}},{"name":"Karl-Bohn-Str.","postalCode":"72280","locality":"Dornstetten","municipality":{"key":"08237019","name":"Dornstetten, Stadt","type":"Stadt"},"district":{"key":"08237","name":"Freudenstadt","type":"Landkreis"},"federalState":{"key":"08","name":"Baden-Württemberg"}},{"name":"Karlstr.","postalCode":"72280","locality":"Dornstetten","municipality":{"key":"08237019","name":"Dornstetten, Stadt","type":"Stadt"},"district":{"key":"08237","name":"Freudenstadt","type":"Landkreis"},"federalState":{"key":"08","name":"Baden-Württemberg"}},{"name":"Kastanienweg","postalCode":"72280","locality":"Dornstetten","municipality":{"key":"08237019","name":"Dornstetten, Stadt","type":"Stadt"},"district":{"key":"08237","name":"Freudenstadt","type":"Landkreis"},"federalState":{"key":"08","name":"Baden-Württemberg"}},{"name":"Kindergartenweg","postalCode":"72280","locality":"Dornstetten","municipality":{"key":"08237019","name":"Dornstetten, Stadt","type":"Stadt"},"district":{"key":"08237","name":"Freudenstadt","type":"Landkreis"},"federalState":{"key":"08","name":"Baden-Württemberg"}},{"name":"Kirchplatz","postalCode":"72280","locality":"Dornstetten","municipality":{"key":"08237019","name":"Dornstetten, Stadt","type":"Stadt"},"district":{"key":"08237","name":"Freudenstadt","type":"Landkreis"},"federalState":{"key":"08","name":"Baden-Württemberg"}},{"name":"Klosterweg","postalCode":"72280","locality":"Dornstetten","municipality":{"key":"08237019","name":"Dornstetten, Stadt","type":"Stadt"},"district":{"key":"08237","name":"Freudenstadt","type":"Landkreis"},"federalState":{"key":"08","name":"Baden-Württemberg"}},{"name":"Königsberger Str.","postalCode":"72280","locality":"Dornstetten","municipality":{"key":"08237019","name":"Dornstetten, Stadt","type":"Stadt"},"district":{"key":"08237","name":"Freudenstadt","type":"Landkreis"},"federalState":{"key":"08","name":"Baden-Württemberg"}},{"name":"Kreuzweg","postalCode":"72280","locality":"Dornstetten","municipality":{"key":"08237019","name":"Dornstetten, Stadt","type":"Stadt"},"district":{"key":"08237","name":"Freudenstadt","type":"Landkreis"},"federalState":{"key":"08","name":"Baden-Württemberg"}},{"name":"Lange Steige","postalCode":"72280","locality":"Dornstetten","municipality":{"key":"08237019","name":"Dornstetten, Stadt","type":"Stadt"},"district":{"key":"08237","name":"Freudenstadt","type":"Landkreis"},"federalState":{"key":"08","name":"Baden-Württemberg"}},{"name":"Lenzhalde","postalCode":"72280","locality":"Dornstetten","municipality":{"key":"08237019","name":"Dornstetten, Stadt","type":"Stadt"},"district":{"key":"08237","name":"Freudenstadt","type":"Landkreis"},"federalState":{"key":"08","name":"Baden-Württemberg"}},{"name":"Lerchenweg","postalCode":"72280","locality":"Dornstetten","municipality":{"key":"08237019","name":"Dornstetten, Stadt","type":"Stadt"},"district":{"key":"08237","name":"Freudenstadt","type":"Landkreis"},"federalState":{"key":"08","name":"Baden-Württemberg"}},{"name":"Lessingstr.","postalCode":"72280","locality":"Dornstetten","municipality":{"key":"08237019","name":"Dornstetten, Stadt","type":"Stadt"},"district":{"key":"08237","name":"Freudenstadt","type":"Landkreis"},"federalState":{"key":"08","name":"Baden-Württemberg"}},{"name":"Lindenweg","postalCode":"72280","locality":"Dornstetten","municipality":{"key":"08237019","name":"Dornstetten, Stadt","type":"Stadt"},"district":{"key":"08237","name":"Freudenstadt","type":"Landkreis"},"federalState":{"key":"08","name":"Baden-Württemberg"}},{"name":"Lise-Meitner-Str.","postalCode":"72280","locality":"Dornstetten","municipality":{"key":"08237019","name":"Dornstetten, Stadt","type":"Stadt"},"district":{"key":"08237","name":"Freudenstadt","type":"Landkreis"},"federalState":{"key":"08","name":"Baden-Württemberg"}},{"name":"Luxemburgsträßle","postalCode":"72280","locality":"Dornstetten","municipality":{"key":"08237019","name":"Dornstetten, Stadt","type":"Stadt"},"district":{"key":"08237","name":"Freudenstadt","type":"Landkreis"},"federalState":{"key":"08","name":"Baden-Württemberg"}},{"name":"Marktplatz","postalCode":"72280","locality":"Dornstetten","municipality":{"key":"08237019","name":"Dornstetten, Stadt","type":"Stadt"},"district":{"key":"08237","name":"Freudenstadt","type":"Landkreis"},"federalState":{"key":"08","name":"Baden-Württemberg"}},{"name":"Mauerweg","postalCode":"72280","locality":"Dornstetten","municipality":{"key":"08237019","name":"Dornstetten, Stadt","type":"Stadt"},"district":{"key":"08237","name":"Freudenstadt","type":"Landkreis"},"federalState":{"key":"08","name":"Baden-Württemberg"}},{"name":"Meisenweg","postalCode":"72280","locality":"Dornstetten","municipality":{"key":"08237019","name":"Dornstetten, Stadt","type":"Stadt"},"district":{"key":"08237","name":"Freudenstadt","type":"Landkreis"},"federalState":{"key":"08","name":"Baden-Württemberg"}},{"name":"Mörikeweg","postalCode":"72280","locality":"Dornstetten","municipality":{"key":"08237019","name":"Dornstetten, Stadt","type":"Stadt"},"district":{"key":"08237","name":"Freudenstadt","type":"Landkreis"},"federalState":{"key":"08","name":"Baden-Württemberg"}},{"name":"Mühlbachweg","postalCode":"72280","locality":"Dornstetten","municipality":{"key":"08237019","name":"Dornstetten, Stadt","type":"Stadt"},"district":{"key":"08237","name":"Freudenstadt","type":"Landkreis"},"federalState":{"key":"08","name":"Baden-Württemberg"}},{"name":"Mühlweg","postalCode":"72280","locality":"Dornstetten","municipality":{"key":"08237019","name":"Dornstetten, Stadt","type":"Stadt"},"district":{"key":"08237","name":"Freudenstadt","type":"Landkreis"},"federalState":{"key":"08","name":"Baden-Württemberg"}},{"name":"Musbacher Str.","postalCode":"72280","locality":"Dornstetten","municipality":{"key":"08237019","name":"Dornstetten, Stadt","type":"Stadt"},"district":{"key":"08237","name":"Freudenstadt","type":"Landkreis"},"federalState":{"key":"08","name":"Baden-Württemberg"}},{"name":"Nonnenweg","postalCode":"72280","locality":"Dornstetten","municipality":{"key":"08237019","name":"Dornstetten, Stadt","type":"Stadt"},"district":{"key":"08237","name":"Freudenstadt","type":"Landkreis"},"federalState":{"key":"08","name":"Baden-Württemberg"}},{"name":"Oberamtsgasse","postalCode":"72280","locality":"Dornstetten","municipality":{"key":"08237019","name":"Dornstetten, Stadt","type":"Stadt"},"district":{"key":"08237","name":"Freudenstadt","type":"Landkreis"},"federalState":{"key":"08","name":"Baden-Württemberg"}},{"name":"Obere Wiesenstr.","postalCode":"72280","locality":"Dornstetten","municipality":{"key":"08237019","name":"Dornstetten, Stadt","type":"Stadt"},"district":{"key":"08237","name":"Freudenstadt","type":"Landkreis"},"federalState":{"key":"08","name":"Baden-Württemberg"}},{"name":"Ortsstr.","postalCode":"72280","locality":"Dornstetten","municipality":{"key":"08237019","name":"Dornstetten, Stadt","type":"Stadt"},"district":{"key":"08237","name":"Freudenstadt","type":"Landkreis"},"federalState":{"key":"08","name":"Baden-Württemberg"}},{"name":"Otto-Hahn-Str.","postalCode":"72280","locality":"Dornstetten","municipality":{"key":"08237019","name":"Dornstetten, Stadt","type":"Stadt"},"district":{"key":"08237","name":"Freudenstadt","type":"Landkreis"},"federalState":{"key":"08","name":"Baden-Württemberg"}},{"name":"Panoramastr.","postalCode":"72280","locality":"Dornstetten","municipality":{"key":"08237019","name":"Dornstetten, Stadt","type":"Stadt"},"district":{"key":"08237","name":"Freudenstadt","type":"Landkreis"},"federalState":{"key":"08","name":"Baden-Württemberg"}},{"name":"Pfahlbergweg","postalCode":"72280","locality":"Dornstetten","municipality":{"key":"08237019","name":"Dornstetten, Stadt","type":"Stadt"},"district":{"key":"08237","name":"Freudenstadt","type":"Landkreis"},"federalState":{"key":"08","name":"Baden-Württemberg"}},{"name":"Pflanzengartenweg","postalCode":"72280","locality":"Dornstetten","municipality":{"key":"08237019","name":"Dornstetten, Stadt","type":"Stadt"},"district":{"key":"08237","name":"Freudenstadt","type":"Landkreis"},"federalState":{"key":"08","name":"Baden-Württemberg"}},{"name":"Promenade","postalCode":"72280","locality":"Dornstetten","municipality":{"key":"08237019","name":"Dornstetten, Stadt","type":"Stadt"},"district":{"key":"08237","name":"Freudenstadt","type":"Landkreis"},"federalState":{"key":"08","name":"Baden-Württemberg"}},{"name":"Quellenweg","postalCode":"72250","locality":"Freudenstadt","municipality":{"key":"08237028","name":"Freudenstadt, Stadt","type":"Große_Kreisstadt"},"district":{"key":"08237","name":"Freudenstadt","type":"Landkreis"},"federalState":{"key":"08","name":"Baden-Württemberg"}},{"name":"Raiffeisenstr.","postalCode":"72280","locality":"Dornstetten","municipality":{"key":"08237019","name":"Dornstetten, Stadt","type":"Stadt"},"district":{"key":"08237","name":"Freudenstadt","type":"Landkreis"},"federalState":{"key":"08","name":"Baden-Württemberg"}},{"name":"Reuteweg","postalCode":"72280","locality":"Dornstetten","municipality":{"key":"08237019","name":"Dornstetten, Stadt","type":"Stadt"},"district":{"key":"08237","name":"Freudenstadt","type":"Landkreis"},"federalState":{"key":"08","name":"Baden-Württemberg"}},{"name":"Riedsteige","postalCode":"72280","locality":"Dornstetten","municipality":{"key":"08237019","name":"Dornstetten, Stadt","type":"Stadt"},"district":{"key":"08237","name":"Freudenstadt","type":"Landkreis"},"federalState":{"key":"08","name":"Baden-Württemberg"}},{"name":"Ringstr.","postalCode":"72280","locality":"Dornstetten","municipality":{"key":"08237019","name":"Dornstetten, Stadt","type":"Stadt"},"district":{"key":"08237","name":"Freudenstadt","type":"Landkreis"},"federalState":{"key":"08","name":"Baden-Württemberg"}},{"name":"Robert-Bosch-Str.","postalCode":"72280","locality":"Dornstetten","municipality":{"key":"08237019","name":"Dornstetten, Stadt","type":"Stadt"},"district":{"key":"08237","name":"Freudenstadt","type":"Landkreis"},"federalState":{"key":"08","name":"Baden-Württemberg"}},{"name":"Römerstr.","postalCode":"72280","locality":"Dornstetten","municipality":{"key":"08237019","name":"Dornstetten, Stadt","type":"Stadt"},"district":{"key":"08237","name":"Freudenstadt","type":"Landkreis"},"federalState":{"key":"08","name":"Baden-Württemberg"}},{"name":"Rosenweg","postalCode":"72280","locality":"Dornstetten","municipality":{"key":"08237019","name":"Dornstetten, Stadt","type":"Stadt"},"district":{"key":"08237","name":"Freudenstadt","type":"Landkreis"},"federalState":{"key":"08","name":"Baden-Württemberg"}},{"name":"Schauinsland","postalCode":"72280","locality":"Dornstetten","municipality":{"key":"08237019","name":"Dornstetten, Stadt","type":"Stadt"},"district":{"key":"08237","name":"Freudenstadt","type":"Landkreis"},"federalState":{"key":"08","name":"Baden-Württemberg"}},{"name":"Scheffelstr.","postalCode":"72280","locality":"Dornstetten","municipality":{"key":"08237019","name":"Dornstetten, Stadt","type":"Stadt"},"district":{"key":"08237","name":"Freudenstadt","type":"Landkreis"},"federalState":{"key":"08","name":"Baden-Württemberg"}},{"name":"Schießgrabenstr.","postalCode":"72280","locality":"Dornstetten","municipality":{"key":"08237019","name":"Dornstetten, Stadt","type":"Stadt"},"district":{"key":"08237","name":"Freudenstadt","type":"Landkreis"},"federalState":{"key":"08","name":"Baden-Württemberg"}},{"name":"Schillerstr.","postalCode":"72280","locality":"Dornstetten","municipality":{"key":"08237019","name":"Dornstetten, Stadt","type":"Stadt"},"district":{"key":"08237","name":"Freudenstadt","type":"Landkreis"},"federalState":{"key":"08","name":"Baden-Württemberg"}},{"name":"Schlehenweg","postalCode":"72280","locality":"Dornstetten","municipality":{"key":"08237019","name":"Dornstetten, Stadt","type":"Stadt"},"district":{"key":"08237","name":"Freudenstadt","type":"Landkreis"},"federalState":{"key":"08","name":"Baden-Württemberg"}},{"name":"Schönauerstr.","postalCode":"72280","locality":"Dornstetten","municipality":{"key":"08237019","name":"Dornstetten, Stadt","type":"Stadt"},"district":{"key":"08237","name":"Freudenstadt","type":"Landkreis"},"federalState":{"key":"08","name":"Baden-Württemberg"}},{"name":"Schopflocher Weg","postalCode":"72280","locality":"Dornstetten","municipality":{"key":"08237019","name":"Dornstetten, Stadt","type":"Stadt"},"district":{"key":"08237","name":"Freudenstadt","type":"Landkreis"},"federalState":{"key":"08","name":"Baden-Württemberg"}},{"name":"Schorn","postalCode":"72280","locality":"Dornstetten","municipality":{"key":"08237019","name":"Dornstetten, Stadt","type":"Stadt"},"district":{"key":"08237","name":"Freudenstadt","type":"Landkreis"},"federalState":{"key":"08","name":"Baden-Württemberg"}},{"name":"Schulberg","postalCode":"72280","locality":"Dornstetten","municipality":{"key":"08237019","name":"Dornstetten, Stadt","type":"Stadt"},"district":{"key":"08237","name":"Freudenstadt","type":"Landkreis"},"federalState":{"key":"08","name":"Baden-Württemberg"}},{"name":"Schulgäßle","postalCode":"72280","locality":"Dornstetten","municipality":{"key":"08237019","name":"Dornstetten, Stadt","type":"Stadt"},"district":{"key":"08237","name":"Freudenstadt","type":"Landkreis"},"federalState":{"key":"08","name":"Baden-Württemberg"}},{"name":"Siemensstr.","postalCode":"72280","locality":"Dornstetten","municipality":{"key":"08237019","name":"Dornstetten, Stadt","type":"Stadt"},"district":{"key":"08237","name":"Freudenstadt","type":"Landkreis"},"federalState":{"key":"08","name":"Baden-Württemberg"}},{"name":"Silbergasse","postalCode":"72280","locality":"Dornstetten","municipality":{"key":"08237019","name":"Dornstetten, Stadt","type":"Stadt"},"district":{"key":"08237","name":"Freudenstadt","type":"Landkreis"},"federalState":{"key":"08","name":"Baden-Württemberg"}},{"name":"Silberwaldstr.","postalCode":"72280","locality":"Dornstetten","municipality":{"key":"08237019","name":"Dornstetten, Stadt","type":"Stadt"},"district":{"key":"08237","name":"Freudenstadt","type":"Landkreis"},"federalState":{"key":"08","name":"Baden-Württemberg"}},{"name":"Silberwaldsweg","postalCode":"72280","locality":"Dornstetten","municipality":{"key":"08237019","name":"Dornstetten, Stadt","type":"Stadt"},"district":{"key":"08237","name":"Freudenstadt","type":"Landkreis"},"federalState":{"key":"08","name":"Baden-Württemberg"}},{"name":"Silcherstr.","postalCode":"72280","locality":"Dornstetten","municipality":{"key":"08237019","name":"Dornstetten, Stadt","type":"Stadt"},"district":{"key":"08237","name":"Freudenstadt","type":"Landkreis"},"federalState":{"key":"08","name":"Baden-Württemberg"}},{"name":"Sonnenhalde","postalCode":"72280","locality":"Dornstetten","municipality":{"key":"08237019","name":"Dornstetten, Stadt","type":"Stadt"},"district":{"key":"08237","name":"Freudenstadt","type":"Landkreis"},"federalState":{"key":"08","name":"Baden-Württemberg"}},{"name":"Steiningstr.","postalCode":"72280","locality":"Dornstetten","municipality":{"key":"08237019","name":"Dornstetten, Stadt","type":"Stadt"},"district":{"key":"08237","name":"Freudenstadt","type":"Landkreis"},"federalState":{"key":"08","name":"Baden-Württemberg"}},{"name":"Stuttgarter Str.","postalCode":"72280","locality":"Dornstetten","municipality":{"key":"08237019","name":"Dornstetten, Stadt","type":"Stadt"},"district":{"key":"08237","name":"Freudenstadt","type":"Landkreis"},"federalState":{"key":"08","name":"Baden-Württemberg"}},{"name":"Sulzer Str.","postalCode":"72280","locality":"Dornstetten","municipality":{"key":"08237019","name":"Dornstetten, Stadt","type":"Stadt"},"district":{"key":"08237","name":"Freudenstadt","type":"Landkreis"},"federalState":{"key":"08","name":"Baden-Württemberg"}},{"name":"Tannenweg","postalCode":"72280","locality":"Dornstetten","municipality":{"key":"08237019","name":"Dornstetten, Stadt","type":"Stadt"},"district":{"key":"08237","name":"Freudenstadt","type":"Landkreis"},"federalState":{"key":"08","name":"Baden-Württemberg"}},{"name":"Täuscheweg","postalCode":"72280","locality":"Dornstetten","municipality":{"key":"08237019","name":"Dornstetten, Stadt","type":"Stadt"},"district":{"key":"08237","name":"Freudenstadt","type":"Landkreis"},"federalState":{"key":"08","name":"Baden-Württemberg"}},{"name":"Teichweg","postalCode":"72280","locality":"Dornstetten","municipality":{"key":"08237019","name":"Dornstetten, Stadt","type":"Stadt"},"district":{"key":"08237","name":"Freudenstadt","type":"Landkreis"},"federalState":{"key":"08","name":"Baden-Württemberg"}},{"name":"Tübinger Str.","postalCode":"72280","locality":"Dornstetten","municipality":{"key":"08237019","name":"Dornstetten, Stadt","type":"Stadt"},"district":{"key":"08237","name":"Freudenstadt","type":"Landkreis"},"federalState":{"key":"08","name":"Baden-Württemberg"}},{"name":"Turnhalleplatz","postalCode":"72280","locality":"Dornstetten","municipality":{"key":"08237019","name":"Dornstetten, Stadt","type":"Stadt"},"district":{"key":"08237","name":"Freudenstadt","type":"Landkreis"},"federalState":{"key":"08","name":"Baden-Württemberg"}},{"name":"Uhlandstr.","postalCode":"72280","locality":"Dornstetten","municipality":{"key":"08237019","name":"Dornstetten, Stadt","type":"Stadt"},"district":{"key":"08237","name":"Freudenstadt","type":"Landkreis"},"federalState":{"key":"08","name":"Baden-Württemberg"}},{"name":"Ulrich-Etter-Str.","postalCode":"72280","locality":"Dornstetten","municipality":{"key":"08237019","name":"Dornstetten, Stadt","type":"Stadt"},"district":{"key":"08237","name":"Freudenstadt","type":"Landkreis"},"federalState":{"key":"08","name":"Baden-Württemberg"}},{"name":"Untere Hauptstr.","postalCode":"72280","locality":"Dornstetten","municipality":{"key":"08237019","name":"Dornstetten, Stadt","type":"Stadt"},"district":{"key":"08237","name":"Freudenstadt","type":"Landkreis"},"federalState":{"key":"08","name":"Baden-Württemberg"}},{"name":"Vogelsangweg","postalCode":"72280","locality":"Dornstetten","municipality":{"key":"08237019","name":"Dornstetten, Stadt","type":"Stadt"},"district":{"key":"08237","name":"Freudenstadt","type":"Landkreis"},"federalState":{"key":"08","name":"Baden-Württemberg"}},{"name":"Wacholderweg","postalCode":"72280","locality":"Dornstetten","municipality":{"key":"08237019","name":"Dornstetten, Stadt","type":"Stadt"},"district":{"key":"08237","name":"Freudenstadt","type":"Landkreis"},"federalState":{"key":"08","name":"Baden-Württemberg"}},{"name":"Waldstr.","postalCode":"72280","locality":"Dornstetten","municipality":{"key":"08237019","name":"Dornstetten, Stadt","type":"Stadt"},"district":{"key":"08237","name":"Freudenstadt","type":"Landkreis"},"federalState":{"key":"08","name":"Baden-Württemberg"}},{"name":"Weiherweg","postalCode":"72280","locality":"Dornstetten","municipality":{"key":"08237019","name":"Dornstetten, Stadt","type":"Stadt"},"district":{"key":"08237","name":"Freudenstadt","type":"Landkreis"},"federalState":{"key":"08","name":"Baden-Württemberg"}},{"name":"Weiherwiesenweg","postalCode":"72280","locality":"Dornstetten","municipality":{"key":"08237019","name":"Dornstetten, Stadt","type":"Stadt"},"district":{"key":"08237","name":"Freudenstadt","type":"Landkreis"},"federalState":{"key":"08","name":"Baden-Württemberg"}},{"name":"Weiler Weg","postalCode":"72280","locality":"Dornstetten","municipality":{"key":"08237019","name":"Dornstetten, Stadt","type":"Stadt"},"district":{"key":"08237","name":"Freudenstadt","type":"Landkreis"},"federalState":{"key":"08","name":"Baden-Württemberg"}},{"name":"Weißdornweg","postalCode":"72280","locality":"Dornstetten","municipality":{"key":"08237019","name":"Dornstetten, Stadt","type":"Stadt"},"district":{"key":"08237","name":"Freudenstadt","type":"Landkreis"},"federalState":{"key":"08","name":"Baden-Württemberg"}},{"name":"Weißer Weg","postalCode":"72280","locality":"Dornstetten","municipality":{"key":"08237019","name":"Dornstetten, Stadt","type":"Stadt"},"district":{"key":"08237","name":"Freudenstadt","type":"Landkreis"},"federalState":{"key":"08","name":"Baden-Württemberg"}},{"name":"Wielandstr.","postalCode":"72280","locality":"Dornstetten","municipality":{"key":"08237019","name":"Dornstetten, Stadt","type":"Stadt"},"district":{"key":"08237","name":"Freudenstadt","type":"Landkreis"},"federalState":{"key":"08","name":"Baden-Württemberg"}},{"name":"Wilhelm-Diener-Str.","postalCode":"72280","locality":"Dornstetten","municipality":{"key":"08237019","name":"Dornstetten, Stadt","type":"Stadt"},"district":{"key":"08237","name":"Freudenstadt","type":"Landkreis"},"federalState":{"key":"08","name":"Baden-Württemberg"}},{"name":"Wilhelm-Hauff-Weg","postalCode":"72280","locality":"Dornstetten","municipality":{"key":"08237019","name":"Dornstetten, Stadt","type":"Stadt"},"district":{"key":"08237","name":"Freudenstadt","type":"Landkreis"},"federalState":{"key":"08","name":"Baden-Württemberg"}},{"name":"Zehntgasse","postalCode":"72280","locality":"Dornstetten","municipality":{"key":"08237019","name":"Dornstetten, Stadt","type":"Stadt"},"district":{"key":"08237","name":"Freudenstadt","type":"Landkreis"},"federalState":{"key":"08","name":"Baden-Württemberg"}},{"name":"Zeppelinstr.","postalCode":"72280","locality":"Dornstetten","municipality":{"key":"08237019","name":"Dornstetten, Stadt","type":"Stadt"},"district":{"key":"08237","name":"Freudenstadt","type":"Landkreis"},"federalState":{"key":"08","name":"Baden-Württemberg"}},{"name":"Zollernblick","postalCode":"72280","locality":"Dornstetten","municipality":{"key":"08237019","name":"Dornstetten, Stadt","type":"Stadt"},"district":{"key":"08237","name":"Freudenstadt","type":"Landkreis"},"federalState":{"key":"08","name":"Baden-Württemberg"}},{"name":"Zollstockstr.","postalCode":"72280","locality":"Dornstetten","municipality":{"key":"08237019","name":"Dornstetten, Stadt","type":"Stadt"},"district":{"key":"08237","name":"Freudenstadt","type":"Landkreis"},"federalState":{"key":"08","name":"Baden-Württemberg"}},{"name":"Äschenriedweg","postalCode":"72280","locality":"Dornstetten","municipality":{"key":"08237019","name":"Dornstetten, Stadt","type":"Stadt"},"district":{"key":"08237","name":"Freudenstadt","type":"Landkreis"},"federalState":{"key":"08","name":"Baden-Württemberg"}},{"name":"Österbach","postalCode":"72250","locality":"Freudenstadt","municipality":{"key":"08237028","name":"Freudenstadt, Stadt","type":"Große_Kreisstadt"},"district":{"key":"08237","name":"Freudenstadt","type":"Landkreis"},"federalState":{"key":"08","name":"Baden-Württemberg"}},]