[{"name":"Am Dorfbach","postalCode":"88167","locality":"Stiefenhofen","municipality":{"key":"09776127","name":"Stiefenhofen","type":"Kreisangehörige_Gemeinde"},"district":{"key":"09776","name":"Lindau (Bodensee)","type":"Landkreis"},"federalState":{"key":"09","name":"Bayern"}},{"name":"Am Haldenacker","postalCode":"88167","locality":"Stiefenhofen","municipality":{"key":"09776127","name":"Stiefenhofen","type":"Kreisangehörige_Gemeinde"},"district":{"key":"09776","name":"Lindau (Bodensee)","type":"Landkreis"},"federalState":{"key":"09","name":"Bayern"}},{"name":"Auf der Breite","postalCode":"88167","locality":"Stiefenhofen","municipality":{"key":"09776127","name":"Stiefenhofen","type":"Kreisangehörige_Gemeinde"},"district":{"key":"09776","name":"Lindau (Bodensee)","type":"Landkreis"},"federalState":{"key":"09","name":"Bayern"}},{"name":"Balzerberg","postalCode":"88167","locality":"Stiefenhofen","municipality":{"key":"09776127","name":"Stiefenhofen","type":"Kreisangehörige_Gemeinde"},"district":{"key":"09776","name":"Lindau (Bodensee)","type":"Landkreis"},"federalState":{"key":"09","name":"Bayern"}},{"name":"Balzhofener Moor","postalCode":"88167","locality":"Stiefenhofen","municipality":{"key":"09776127","name":"Stiefenhofen","type":"Kreisangehörige_Gemeinde"},"district":{"key":"09776","name":"Lindau (Bodensee)","type":"Landkreis"},"federalState":{"key":"09","name":"Bayern"}},{"name":"Dekan-Prestl-Weg","postalCode":"88167","locality":"Stiefenhofen","municipality":{"key":"09776127","name":"Stiefenhofen","type":"Kreisangehörige_Gemeinde"},"district":{"key":"09776","name":"Lindau (Bodensee)","type":"Landkreis"},"federalState":{"key":"09","name":"Bayern"}},{"name":"Feriendorf Wolfsried","postalCode":"88167","locality":"Stiefenhofen","municipality":{"key":"09776127","name":"Stiefenhofen","type":"Kreisangehörige_Gemeinde"},"district":{"key":"09776","name":"Lindau (Bodensee)","type":"Landkreis"},"federalState":{"key":"09","name":"Bayern"}},{"name":"Genhofen","postalCode":"88167","locality":"Stiefenhofen","municipality":{"key":"09776127","name":"Stiefenhofen","type":"Kreisangehörige_Gemeinde"},"district":{"key":"09776","name":"Lindau (Bodensee)","type":"Landkreis"},"federalState":{"key":"09","name":"Bayern"}},{"name":"Harbatshofen","postalCode":"88167","locality":"Stiefenhofen","municipality":{"key":"09776127","name":"Stiefenhofen","type":"Kreisangehörige_Gemeinde"},"district":{"key":"09776","name":"Lindau (Bodensee)","type":"Landkreis"},"federalState":{"key":"09","name":"Bayern"}},{"name":"Hauptstr.","postalCode":"88167","locality":"Stiefenhofen","municipality":{"key":"09776127","name":"Stiefenhofen","type":"Kreisangehörige_Gemeinde"},"district":{"key":"09776","name":"Lindau (Bodensee)","type":"Landkreis"},"federalState":{"key":"09","name":"Bayern"}},{"name":"Hopfen","postalCode":"88167","locality":"Stiefenhofen","municipality":{"key":"09776127","name":"Stiefenhofen","type":"Kreisangehörige_Gemeinde"},"district":{"key":"09776","name":"Lindau (Bodensee)","type":"Landkreis"},"federalState":{"key":"09","name":"Bayern"}},{"name":"Kirchholzweg","postalCode":"88167","locality":"Stiefenhofen","municipality":{"key":"09776127","name":"Stiefenhofen","type":"Kreisangehörige_Gemeinde"},"district":{"key":"09776","name":"Lindau (Bodensee)","type":"Landkreis"},"federalState":{"key":"09","name":"Bayern"}},{"name":"Mittelhofen","postalCode":"88167","locality":"Stiefenhofen","municipality":{"key":"09776127","name":"Stiefenhofen","type":"Kreisangehörige_Gemeinde"},"district":{"key":"09776","name":"Lindau (Bodensee)","type":"Landkreis"},"federalState":{"key":"09","name":"Bayern"}},{"name":"Schulstr.","postalCode":"88167","locality":"Stiefenhofen","municipality":{"key":"09776127","name":"Stiefenhofen","type":"Kreisangehörige_Gemeinde"},"district":{"key":"09776","name":"Lindau (Bodensee)","type":"Landkreis"},"federalState":{"key":"09","name":"Bayern"}},{"name":"Simmerberger Str.","postalCode":"88167","locality":"Stiefenhofen","municipality":{"key":"09776127","name":"Stiefenhofen","type":"Kreisangehörige_Gemeinde"},"district":{"key":"09776","name":"Lindau (Bodensee)","type":"Landkreis"},"federalState":{"key":"09","name":"Bayern"}},{"name":"Turmburgweg","postalCode":"88167","locality":"Stiefenhofen","municipality":{"key":"09776127","name":"Stiefenhofen","type":"Kreisangehörige_Gemeinde"},"district":{"key":"09776","name":"Lindau (Bodensee)","type":"Landkreis"},"federalState":{"key":"09","name":"Bayern"}},{"name":"Verbindungsforstweg","postalCode":"88167","locality":"Stiefenhofen","municipality":{"key":"09776127","name":"Stiefenhofen","type":"Kreisangehörige_Gemeinde"},"district":{"key":"09776","name":"Lindau (Bodensee)","type":"Landkreis"},"federalState":{"key":"09","name":"Bayern"}},{"name":"Waldwiesweg","postalCode":"88167","locality":"Stiefenhofen","municipality":{"key":"09776127","name":"Stiefenhofen","type":"Kreisangehörige_Gemeinde"},"district":{"key":"09776","name":"Lindau (Bodensee)","type":"Landkreis"},"federalState":{"key":"09","name":"Bayern"}},{"name":"Wolfsried","postalCode":"88167","locality":"Stiefenhofen","municipality":{"key":"09776127","name":"Stiefenhofen","type":"Kreisangehörige_Gemeinde"},"district":{"key":"09776","name":"Lindau (Bodensee)","type":"Landkreis"},"federalState":{"key":"09","name":"Bayern"}},]