[{"name":"Ahornweg","postalCode":"17498","locality":"Weitenhagen","municipality":{"key":"13075142","name":"Weitenhagen","type":"Kreisangehörige_Gemeinde"},"district":{"key":"13075","name":"Vorpommern-Greifswald","type":"Landkreis"},"federalState":{"key":"13","name":"Mecklenburg-Vorpommern"}},{"name":"Alt-Seehagen","postalCode":"18461","locality":"Weitenhagen","municipality":{"key":"13073097","name":"Weitenhagen","type":"Kreisangehörige_Gemeinde"},"district":{"key":"13073","name":"Vorpommern-Rügen","type":"Landkreis"},"federalState":{"key":"13","name":"Mecklenburg-Vorpommern"}},{"name":"Am Anger","postalCode":"18461","locality":"Weitenhagen","municipality":{"key":"13073097","name":"Weitenhagen","type":"Kreisangehörige_Gemeinde"},"district":{"key":"13073","name":"Vorpommern-Rügen","type":"Landkreis"},"federalState":{"key":"13","name":"Mecklenburg-Vorpommern"}},{"name":"Am Bierbach","postalCode":"17498","locality":"Weitenhagen","municipality":{"key":"13075142","name":"Weitenhagen","type":"Kreisangehörige_Gemeinde"},"district":{"key":"13075","name":"Vorpommern-Greifswald","type":"Landkreis"},"federalState":{"key":"13","name":"Mecklenburg-Vorpommern"}},{"name":"Am Felde","postalCode":"17498","locality":"Weitenhagen","municipality":{"key":"13075142","name":"Weitenhagen","type":"Kreisangehörige_Gemeinde"},"district":{"key":"13075","name":"Vorpommern-Greifswald","type":"Landkreis"},"federalState":{"key":"13","name":"Mecklenburg-Vorpommern"}},{"name":"Am Haus der Stille","postalCode":"17498","locality":"Weitenhagen","municipality":{"key":"13075142","name":"Weitenhagen","type":"Kreisangehörige_Gemeinde"},"district":{"key":"13075","name":"Vorpommern-Greifswald","type":"Landkreis"},"federalState":{"key":"13","name":"Mecklenburg-Vorpommern"}},{"name":"Am Kleinbahndamm","postalCode":"17498","locality":"Weitenhagen","municipality":{"key":"13075142","name":"Weitenhagen","type":"Kreisangehörige_Gemeinde"},"district":{"key":"13075","name":"Vorpommern-Greifswald","type":"Landkreis"},"federalState":{"key":"13","name":"Mecklenburg-Vorpommern"}},{"name":"Am Schäperhoff","postalCode":"17498","locality":"Weitenhagen","municipality":{"key":"13075142","name":"Weitenhagen","type":"Kreisangehörige_Gemeinde"},"district":{"key":"13075","name":"Vorpommern-Greifswald","type":"Landkreis"},"federalState":{"key":"13","name":"Mecklenburg-Vorpommern"}},{"name":"Am Soll","postalCode":"17498","locality":"Weitenhagen","municipality":{"key":"13075142","name":"Weitenhagen","type":"Kreisangehörige_Gemeinde"},"district":{"key":"13075","name":"Vorpommern-Greifswald","type":"Landkreis"},"federalState":{"key":"13","name":"Mecklenburg-Vorpommern"}},{"name":"Am Wasserwerk","postalCode":"17498","locality":"Weitenhagen","municipality":{"key":"13075142","name":"Weitenhagen","type":"Kreisangehörige_Gemeinde"},"district":{"key":"13075","name":"Vorpommern-Greifswald","type":"Landkreis"},"federalState":{"key":"13","name":"Mecklenburg-Vorpommern"}},{"name":"Am Wolfsbach","postalCode":"18461","locality":"Weitenhagen","municipality":{"key":"13073097","name":"Weitenhagen","type":"Kreisangehörige_Gemeinde"},"district":{"key":"13073","name":"Vorpommern-Rügen","type":"Landkreis"},"federalState":{"key":"13","name":"Mecklenburg-Vorpommern"}},{"name":"An den Rhadewiesen","postalCode":"17498","locality":"Weitenhagen","municipality":{"key":"13075142","name":"Weitenhagen","type":"Kreisangehörige_Gemeinde"},"district":{"key":"13075","name":"Vorpommern-Greifswald","type":"Landkreis"},"federalState":{"key":"13","name":"Mecklenburg-Vorpommern"}},{"name":"An der Chaussee","postalCode":"17498","locality":"Weitenhagen","municipality":{"key":"13075142","name":"Weitenhagen","type":"Kreisangehörige_Gemeinde"},"district":{"key":"13075","name":"Vorpommern-Greifswald","type":"Landkreis"},"federalState":{"key":"13","name":"Mecklenburg-Vorpommern"}},{"name":"Ausbau","postalCode":"18461","locality":"Weitenhagen","municipality":{"key":"13073097","name":"Weitenhagen","type":"Kreisangehörige_Gemeinde"},"district":{"key":"13073","name":"Vorpommern-Rügen","type":"Landkreis"},"federalState":{"key":"13","name":"Mecklenburg-Vorpommern"}},{"name":"Behrenhöfer Weg","postalCode":"17498","locality":"Weitenhagen","municipality":{"key":"13075142","name":"Weitenhagen","type":"Kreisangehörige_Gemeinde"},"district":{"key":"13075","name":"Vorpommern-Greifswald","type":"Landkreis"},"federalState":{"key":"13","name":"Mecklenburg-Vorpommern"}},{"name":"Birkenweg","postalCode":"17498","locality":"Weitenhagen","municipality":{"key":"13075142","name":"Weitenhagen","type":"Kreisangehörige_Gemeinde"},"district":{"key":"13075","name":"Vorpommern-Greifswald","type":"Landkreis"},"federalState":{"key":"13","name":"Mecklenburg-Vorpommern"}},{"name":"Chaussee","postalCode":"18461","locality":"Weitenhagen","municipality":{"key":"13073097","name":"Weitenhagen","type":"Kreisangehörige_Gemeinde"},"district":{"key":"13073","name":"Vorpommern-Rügen","type":"Landkreis"},"federalState":{"key":"13","name":"Mecklenburg-Vorpommern"}},{"name":"Dorfstr.","postalCode":"17498","locality":"Weitenhagen","municipality":{"key":"13075142","name":"Weitenhagen","type":"Kreisangehörige_Gemeinde"},"district":{"key":"13075","name":"Vorpommern-Greifswald","type":"Landkreis"},"federalState":{"key":"13","name":"Mecklenburg-Vorpommern"}},{"name":"Dorfstr.","postalCode":"18461","locality":"Weitenhagen","municipality":{"key":"13073097","name":"Weitenhagen","type":"Kreisangehörige_Gemeinde"},"district":{"key":"13073","name":"Vorpommern-Rügen","type":"Landkreis"},"federalState":{"key":"13","name":"Mecklenburg-Vorpommern"}},{"name":"Eichenweg","postalCode":"17498","locality":"Weitenhagen","municipality":{"key":"13075142","name":"Weitenhagen","type":"Kreisangehörige_Gemeinde"},"district":{"key":"13075","name":"Vorpommern-Greifswald","type":"Landkreis"},"federalState":{"key":"13","name":"Mecklenburg-Vorpommern"}},{"name":"Erlenweg","postalCode":"17498","locality":"Weitenhagen","municipality":{"key":"13075142","name":"Weitenhagen","type":"Kreisangehörige_Gemeinde"},"district":{"key":"13075","name":"Vorpommern-Greifswald","type":"Landkreis"},"federalState":{"key":"13","name":"Mecklenburg-Vorpommern"}},{"name":"Feldweg","postalCode":"18461","locality":"Weitenhagen","municipality":{"key":"13073097","name":"Weitenhagen","type":"Kreisangehörige_Gemeinde"},"district":{"key":"13073","name":"Vorpommern-Rügen","type":"Landkreis"},"federalState":{"key":"13","name":"Mecklenburg-Vorpommern"}},{"name":"Fliederweg","postalCode":"17498","locality":"Weitenhagen","municipality":{"key":"13075142","name":"Weitenhagen","type":"Kreisangehörige_Gemeinde"},"district":{"key":"13075","name":"Vorpommern-Greifswald","type":"Landkreis"},"federalState":{"key":"13","name":"Mecklenburg-Vorpommern"}},{"name":"Friedhofsweg","postalCode":"18461","locality":"Weitenhagen","municipality":{"key":"13073097","name":"Weitenhagen","type":"Kreisangehörige_Gemeinde"},"district":{"key":"13073","name":"Vorpommern-Rügen","type":"Landkreis"},"federalState":{"key":"13","name":"Mecklenburg-Vorpommern"}},{"name":"Gartenstr.","postalCode":"17498","locality":"Weitenhagen","municipality":{"key":"13075142","name":"Weitenhagen","type":"Kreisangehörige_Gemeinde"},"district":{"key":"13075","name":"Vorpommern-Greifswald","type":"Landkreis"},"federalState":{"key":"13","name":"Mecklenburg-Vorpommern"}},{"name":"Greifswalder Landweg","postalCode":"17498","locality":"Weitenhagen","municipality":{"key":"13075142","name":"Weitenhagen","type":"Kreisangehörige_Gemeinde"},"district":{"key":"13075","name":"Vorpommern-Greifswald","type":"Landkreis"},"federalState":{"key":"13","name":"Mecklenburg-Vorpommern"}},{"name":"Guester Str.","postalCode":"17498","locality":"Weitenhagen","municipality":{"key":"13075142","name":"Weitenhagen","type":"Kreisangehörige_Gemeinde"},"district":{"key":"13075","name":"Vorpommern-Greifswald","type":"Landkreis"},"federalState":{"key":"13","name":"Mecklenburg-Vorpommern"}},{"name":"Guester Weg","postalCode":"17498","locality":"Weitenhagen","municipality":{"key":"13075142","name":"Weitenhagen","type":"Kreisangehörige_Gemeinde"},"district":{"key":"13075","name":"Vorpommern-Greifswald","type":"Landkreis"},"federalState":{"key":"13","name":"Mecklenburg-Vorpommern"}},{"name":"Gutshof","postalCode":"17498","locality":"Weitenhagen","municipality":{"key":"13075142","name":"Weitenhagen","type":"Kreisangehörige_Gemeinde"},"district":{"key":"13075","name":"Vorpommern-Greifswald","type":"Landkreis"},"federalState":{"key":"13","name":"Mecklenburg-Vorpommern"}},{"name":"Hauptstr.","postalCode":"17498","locality":"Weitenhagen","municipality":{"key":"13075142","name":"Weitenhagen","type":"Kreisangehörige_Gemeinde"},"district":{"key":"13075","name":"Vorpommern-Greifswald","type":"Landkreis"},"federalState":{"key":"13","name":"Mecklenburg-Vorpommern"}},{"name":"Heide","postalCode":"17498","locality":"Weitenhagen","municipality":{"key":"13075142","name":"Weitenhagen","type":"Kreisangehörige_Gemeinde"},"district":{"key":"13075","name":"Vorpommern-Greifswald","type":"Landkreis"},"federalState":{"key":"13","name":"Mecklenburg-Vorpommern"}},{"name":"Helmshäger Weg","postalCode":"17498","locality":"Weitenhagen","municipality":{"key":"13075142","name":"Weitenhagen","type":"Kreisangehörige_Gemeinde"},"district":{"key":"13075","name":"Vorpommern-Greifswald","type":"Landkreis"},"federalState":{"key":"13","name":"Mecklenburg-Vorpommern"}},{"name":"Hofstr.","postalCode":"18461","locality":"Weitenhagen","municipality":{"key":"13073097","name":"Weitenhagen","type":"Kreisangehörige_Gemeinde"},"district":{"key":"13073","name":"Vorpommern-Rügen","type":"Landkreis"},"federalState":{"key":"13","name":"Mecklenburg-Vorpommern"}},{"name":"Joelkenberg Ring","postalCode":"17498","locality":"Weitenhagen","municipality":{"key":"13075142","name":"Weitenhagen","type":"Kreisangehörige_Gemeinde"},"district":{"key":"13075","name":"Vorpommern-Greifswald","type":"Landkreis"},"federalState":{"key":"13","name":"Mecklenburg-Vorpommern"}},{"name":"Kastanienweg","postalCode":"17498","locality":"Weitenhagen","municipality":{"key":"13075142","name":"Weitenhagen","type":"Kreisangehörige_Gemeinde"},"district":{"key":"13075","name":"Vorpommern-Greifswald","type":"Landkreis"},"federalState":{"key":"13","name":"Mecklenburg-Vorpommern"}},{"name":"Kiefernsteig","postalCode":"17498","locality":"Weitenhagen","municipality":{"key":"13075142","name":"Weitenhagen","type":"Kreisangehörige_Gemeinde"},"district":{"key":"13075","name":"Vorpommern-Greifswald","type":"Landkreis"},"federalState":{"key":"13","name":"Mecklenburg-Vorpommern"}},{"name":"Kleiner Weg","postalCode":"17498","locality":"Weitenhagen","municipality":{"key":"13075142","name":"Weitenhagen","type":"Kreisangehörige_Gemeinde"},"district":{"key":"13075","name":"Vorpommern-Greifswald","type":"Landkreis"},"federalState":{"key":"13","name":"Mecklenburg-Vorpommern"}},{"name":"Koitenhagen","postalCode":"18461","locality":"Weitenhagen","municipality":{"key":"13073097","name":"Weitenhagen","type":"Kreisangehörige_Gemeinde"},"district":{"key":"13073","name":"Vorpommern-Rügen","type":"Landkreis"},"federalState":{"key":"13","name":"Mecklenburg-Vorpommern"}},{"name":"Lange Reihe","postalCode":"17498","locality":"Weitenhagen","municipality":{"key":"13075142","name":"Weitenhagen","type":"Kreisangehörige_Gemeinde"},"district":{"key":"13075","name":"Vorpommern-Greifswald","type":"Landkreis"},"federalState":{"key":"13","name":"Mecklenburg-Vorpommern"}},{"name":"Lärchenweg","postalCode":"17498","locality":"Weitenhagen","municipality":{"key":"13075142","name":"Weitenhagen","type":"Kreisangehörige_Gemeinde"},"district":{"key":"13075","name":"Vorpommern-Greifswald","type":"Landkreis"},"federalState":{"key":"13","name":"Mecklenburg-Vorpommern"}},{"name":"Parkweg","postalCode":"18461","locality":"Weitenhagen","municipality":{"key":"13073097","name":"Weitenhagen","type":"Kreisangehörige_Gemeinde"},"district":{"key":"13073","name":"Vorpommern-Rügen","type":"Landkreis"},"federalState":{"key":"13","name":"Mecklenburg-Vorpommern"}},{"name":"Potthäger Damm","postalCode":"17498","locality":"Weitenhagen","municipality":{"key":"13075142","name":"Weitenhagen","type":"Kreisangehörige_Gemeinde"},"district":{"key":"13075","name":"Vorpommern-Greifswald","type":"Landkreis"},"federalState":{"key":"13","name":"Mecklenburg-Vorpommern"}},{"name":"Schönwalder Weg","postalCode":"17498","locality":"Weitenhagen","municipality":{"key":"13075142","name":"Weitenhagen","type":"Kreisangehörige_Gemeinde"},"district":{"key":"13075","name":"Vorpommern-Greifswald","type":"Landkreis"},"federalState":{"key":"13","name":"Mecklenburg-Vorpommern"}},{"name":"Schulstr.","postalCode":"17498","locality":"Weitenhagen","municipality":{"key":"13075142","name":"Weitenhagen","type":"Kreisangehörige_Gemeinde"},"district":{"key":"13075","name":"Vorpommern-Greifswald","type":"Landkreis"},"federalState":{"key":"13","name":"Mecklenburg-Vorpommern"}},{"name":"Siedlung","postalCode":"17498","locality":"Weitenhagen","municipality":{"key":"13075142","name":"Weitenhagen","type":"Kreisangehörige_Gemeinde"},"district":{"key":"13075","name":"Vorpommern-Greifswald","type":"Landkreis"},"federalState":{"key":"13","name":"Mecklenburg-Vorpommern"}},{"name":"Südstr.","postalCode":"18461","locality":"Weitenhagen","municipality":{"key":"13073097","name":"Weitenhagen","type":"Kreisangehörige_Gemeinde"},"district":{"key":"13073","name":"Vorpommern-Rügen","type":"Landkreis"},"federalState":{"key":"13","name":"Mecklenburg-Vorpommern"}},{"name":"Tannenweg","postalCode":"17498","locality":"Weitenhagen","municipality":{"key":"13075142","name":"Weitenhagen","type":"Kreisangehörige_Gemeinde"},"district":{"key":"13075","name":"Vorpommern-Greifswald","type":"Landkreis"},"federalState":{"key":"13","name":"Mecklenburg-Vorpommern"}},{"name":"Weitenhäger Landweg","postalCode":"17498","locality":"Weitenhagen","municipality":{"key":"13075142","name":"Weitenhagen","type":"Kreisangehörige_Gemeinde"},"district":{"key":"13075","name":"Vorpommern-Greifswald","type":"Landkreis"},"federalState":{"key":"13","name":"Mecklenburg-Vorpommern"}},{"name":"Wiesenstr.","postalCode":"17498","locality":"Weitenhagen","municipality":{"key":"13075142","name":"Weitenhagen","type":"Kreisangehörige_Gemeinde"},"district":{"key":"13075","name":"Vorpommern-Greifswald","type":"Landkreis"},"federalState":{"key":"13","name":"Mecklenburg-Vorpommern"}},{"name":"Zu den Blöcken","postalCode":"18461","locality":"Weitenhagen","municipality":{"key":"13073097","name":"Weitenhagen","type":"Kreisangehörige_Gemeinde"},"district":{"key":"13073","name":"Vorpommern-Rügen","type":"Landkreis"},"federalState":{"key":"13","name":"Mecklenburg-Vorpommern"}},{"name":"Zum Gutshaus","postalCode":"17498","locality":"Weitenhagen","municipality":{"key":"13075142","name":"Weitenhagen","type":"Kreisangehörige_Gemeinde"},"district":{"key":"13075","name":"Vorpommern-Greifswald","type":"Landkreis"},"federalState":{"key":"13","name":"Mecklenburg-Vorpommern"}},{"name":"Zum Mühlenberg","postalCode":"17498","locality":"Weitenhagen","municipality":{"key":"13075142","name":"Weitenhagen","type":"Kreisangehörige_Gemeinde"},"district":{"key":"13075","name":"Vorpommern-Greifswald","type":"Landkreis"},"federalState":{"key":"13","name":"Mecklenburg-Vorpommern"}},{"name":"Zum Voßberg","postalCode":"17498","locality":"Weitenhagen","municipality":{"key":"13075142","name":"Weitenhagen","type":"Kreisangehörige_Gemeinde"},"district":{"key":"13075","name":"Vorpommern-Greifswald","type":"Landkreis"},"federalState":{"key":"13","name":"Mecklenburg-Vorpommern"}},{"name":"Zur Schwedenschanze","postalCode":"17498","locality":"Weitenhagen","municipality":{"key":"13075142","name":"Weitenhagen","type":"Kreisangehörige_Gemeinde"},"district":{"key":"13075","name":"Vorpommern-Greifswald","type":"Landkreis"},"federalState":{"key":"13","name":"Mecklenburg-Vorpommern"}},]