[{"key":"10181317","name":"Avenue de la Gare","postalCode":"1462","locality":"Yvonand","commune":{"key":"5939","name":"Yvonand","shortName":"Yvonand"},"district":{"key":"2224","name":"District du Jura-Nord vaudois"},"canton":{"key":"22","code":"VD","name":"Vaud"},"status":"Real"},{"key":"10097772","name":"Avenue de Mordagne","postalCode":"1462","locality":"Yvonand","commune":{"key":"5939","name":"Yvonand","shortName":"Yvonand"},"district":{"key":"2224","name":"District du Jura-Nord vaudois"},"canton":{"key":"22","code":"VD","name":"Vaud"},"status":"Real"},{"key":"10043113","name":"Avenue des Pins","postalCode":"1462","locality":"Yvonand","commune":{"key":"5939","name":"Yvonand","shortName":"Yvonand"},"district":{"key":"2224","name":"District du Jura-Nord vaudois"},"canton":{"key":"22","code":"VD","name":"Vaud"},"status":"Real"},{"key":"10083297","name":"Avenue des Sports","postalCode":"1462","locality":"Yvonand","commune":{"key":"5939","name":"Yvonand","shortName":"Yvonand"},"district":{"key":"2224","name":"District du Jura-Nord vaudois"},"canton":{"key":"22","code":"VD","name":"Vaud"},"status":"Real"},{"key":"10043114","name":"Avenue du Temple","postalCode":"1462","locality":"Yvonand","commune":{"key":"5939","name":"Yvonand","shortName":"Yvonand"},"district":{"key":"2224","name":"District du Jura-Nord vaudois"},"canton":{"key":"22","code":"VD","name":"Vaud"},"status":"Real"},{"key":"10132443","name":"Chemin de Brit","postalCode":"1462","locality":"Yvonand","commune":{"key":"5939","name":"Yvonand","shortName":"Yvonand"},"district":{"key":"2224","name":"District du Jura-Nord vaudois"},"canton":{"key":"22","code":"VD","name":"Vaud"},"status":"Real"},{"key":"10043115","name":"Chemin de Coppet","postalCode":"1462","locality":"Yvonand","commune":{"key":"5939","name":"Yvonand","shortName":"Yvonand"},"district":{"key":"2224","name":"District du Jura-Nord vaudois"},"canton":{"key":"22","code":"VD","name":"Vaud"},"status":"Real"},{"key":"10240471","name":"Chemin de Crenod","postalCode":"1462","locality":"Yvonand","commune":{"key":"5939","name":"Yvonand","shortName":"Yvonand"},"district":{"key":"2224","name":"District du Jura-Nord vaudois"},"canton":{"key":"22","code":"VD","name":"Vaud"},"status":"Real"},{"key":"10043116","name":"Chemin de Frezin","postalCode":"1462","locality":"Yvonand","commune":{"key":"5939","name":"Yvonand","shortName":"Yvonand"},"district":{"key":"2224","name":"District du Jura-Nord vaudois"},"canton":{"key":"22","code":"VD","name":"Vaud"},"status":"Real"},{"key":"10169072","name":"Chemin de Frouye","postalCode":"1462","locality":"Yvonand","commune":{"key":"5939","name":"Yvonand","shortName":"Yvonand"},"district":{"key":"2224","name":"District du Jura-Nord vaudois"},"canton":{"key":"22","code":"VD","name":"Vaud"},"status":"Real"},{"key":"10240472","name":"Chemin de la Croix","postalCode":"1462","locality":"Yvonand","commune":{"key":"5939","name":"Yvonand","shortName":"Yvonand"},"district":{"key":"2224","name":"District du Jura-Nord vaudois"},"canton":{"key":"22","code":"VD","name":"Vaud"},"status":"Real"},{"key":"10043118","name":"Chemin de la Cua","postalCode":"1462","locality":"Yvonand","commune":{"key":"5939","name":"Yvonand","shortName":"Yvonand"},"district":{"key":"2224","name":"District du Jura-Nord vaudois"},"canton":{"key":"22","code":"VD","name":"Vaud"},"status":"Real"},{"key":"10097774","name":"Chemin de la Cure","postalCode":"1462","locality":"Yvonand","commune":{"key":"5939","name":"Yvonand","shortName":"Yvonand"},"district":{"key":"2224","name":"District du Jura-Nord vaudois"},"canton":{"key":"22","code":"VD","name":"Vaud"},"status":"Real"},{"key":"10189319","name":"Chemin de la Golaz","postalCode":"1462","locality":"Yvonand","commune":{"key":"5939","name":"Yvonand","shortName":"Yvonand"},"district":{"key":"2224","name":"District du Jura-Nord vaudois"},"canton":{"key":"22","code":"VD","name":"Vaud"},"status":"Real"},{"key":"10129686","name":"Chemin de la Moutonnerie","postalCode":"1462","locality":"Yvonand","commune":{"key":"5939","name":"Yvonand","shortName":"Yvonand"},"district":{"key":"2224","name":"District du Jura-Nord vaudois"},"canton":{"key":"22","code":"VD","name":"Vaud"},"status":"Real"},{"key":"10171244","name":"Chemin de la Paix","postalCode":"1462","locality":"Yvonand","commune":{"key":"5939","name":"Yvonand","shortName":"Yvonand"},"district":{"key":"2224","name":"District du Jura-Nord vaudois"},"canton":{"key":"22","code":"VD","name":"Vaud"},"status":"Real"},{"key":"10194288","name":"Chemin de la Pardine","postalCode":"1462","locality":"Yvonand","commune":{"key":"5939","name":"Yvonand","shortName":"Yvonand"},"district":{"key":"2224","name":"District du Jura-Nord vaudois"},"canton":{"key":"22","code":"VD","name":"Vaud"},"status":"Real"},{"key":"10083299","name":"Chemin de la Petite Amérique","postalCode":"1462","locality":"Yvonand","commune":{"key":"5939","name":"Yvonand","shortName":"Yvonand"},"district":{"key":"2224","name":"District du Jura-Nord vaudois"},"canton":{"key":"22","code":"VD","name":"Vaud"},"status":"Real"},{"key":"10097775","name":"Chemin de la Plage","postalCode":"1462","locality":"Yvonand","commune":{"key":"5939","name":"Yvonand","shortName":"Yvonand"},"district":{"key":"2224","name":"District du Jura-Nord vaudois"},"canton":{"key":"22","code":"VD","name":"Vaud"},"status":"Real"},{"key":"10240508","name":"Chemin de la Roche Martin","postalCode":"1462","locality":"Yvonand","commune":{"key":"5939","name":"Yvonand","shortName":"Yvonand"},"district":{"key":"2224","name":"District du Jura-Nord vaudois"},"canton":{"key":"22","code":"VD","name":"Vaud"},"status":"Real"},{"key":"10043119","name":"Chemin de la Rochettaz","postalCode":"1462","locality":"Yvonand","commune":{"key":"5939","name":"Yvonand","shortName":"Yvonand"},"district":{"key":"2224","name":"District du Jura-Nord vaudois"},"canton":{"key":"22","code":"VD","name":"Vaud"},"status":"Real"},{"key":"10083298","name":"Chemin de l'Etroit","postalCode":"1462","locality":"Yvonand","commune":{"key":"5939","name":"Yvonand","shortName":"Yvonand"},"district":{"key":"2224","name":"District du Jura-Nord vaudois"},"canton":{"key":"22","code":"VD","name":"Vaud"},"status":"Real"},{"key":"10043117","name":"Chemin de l'Orjalet","postalCode":"1462","locality":"Yvonand","commune":{"key":"5939","name":"Yvonand","shortName":"Yvonand"},"district":{"key":"2224","name":"District du Jura-Nord vaudois"},"canton":{"key":"22","code":"VD","name":"Vaud"},"status":"Real"},{"key":"10097773","name":"Chemin de Montchoisi","postalCode":"1462","locality":"Yvonand","commune":{"key":"5939","name":"Yvonand","shortName":"Yvonand"},"district":{"key":"2224","name":"District du Jura-Nord vaudois"},"canton":{"key":"22","code":"VD","name":"Vaud"},"status":"Real"},{"key":"10207501","name":"Chemin des Amonettes","postalCode":"1462","locality":"Yvonand","commune":{"key":"5939","name":"Yvonand","shortName":"Yvonand"},"district":{"key":"2224","name":"District du Jura-Nord vaudois"},"canton":{"key":"22","code":"VD","name":"Vaud"},"status":"Real"},{"key":"10097776","name":"Chemin des Cerisiers","postalCode":"1462","locality":"Yvonand","commune":{"key":"5939","name":"Yvonand","shortName":"Yvonand"},"district":{"key":"2224","name":"District du Jura-Nord vaudois"},"canton":{"key":"22","code":"VD","name":"Vaud"},"status":"Real"},{"key":"10181318","name":"Chemin des Colons","postalCode":"1462","locality":"Yvonand","commune":{"key":"5939","name":"Yvonand","shortName":"Yvonand"},"district":{"key":"2224","name":"District du Jura-Nord vaudois"},"canton":{"key":"22","code":"VD","name":"Vaud"},"status":"Real"},{"key":"10158179","name":"Chemin des Condémines","postalCode":"1462","locality":"Yvonand","commune":{"key":"5939","name":"Yvonand","shortName":"Yvonand"},"district":{"key":"2224","name":"District du Jura-Nord vaudois"},"canton":{"key":"22","code":"VD","name":"Vaud"},"status":"Real"},{"key":"10116299","name":"Chemin des Goilles","postalCode":"1462","locality":"Yvonand","commune":{"key":"5939","name":"Yvonand","shortName":"Yvonand"},"district":{"key":"2224","name":"District du Jura-Nord vaudois"},"canton":{"key":"22","code":"VD","name":"Vaud"},"status":"Real"},{"key":"10202332","name":"Chemin des Lucioles","postalCode":"1462","locality":"Yvonand","commune":{"key":"5939","name":"Yvonand","shortName":"Yvonand"},"district":{"key":"2224","name":"District du Jura-Nord vaudois"},"canton":{"key":"22","code":"VD","name":"Vaud"},"status":"Real"},{"key":"10043120","name":"Chemin des Pêcheurs","postalCode":"1462","locality":"Yvonand","commune":{"key":"5939","name":"Yvonand","shortName":"Yvonand"},"district":{"key":"2224","name":"District du Jura-Nord vaudois"},"canton":{"key":"22","code":"VD","name":"Vaud"},"status":"Real"},{"key":"10097777","name":"Chemin des Rosiers","postalCode":"1462","locality":"Yvonand","commune":{"key":"5939","name":"Yvonand","shortName":"Yvonand"},"district":{"key":"2224","name":"District du Jura-Nord vaudois"},"canton":{"key":"22","code":"VD","name":"Vaud"},"status":"Real"},{"key":"10107347","name":"Chemin des Saules","postalCode":"1462","locality":"Yvonand","commune":{"key":"5939","name":"Yvonand","shortName":"Yvonand"},"district":{"key":"2224","name":"District du Jura-Nord vaudois"},"canton":{"key":"22","code":"VD","name":"Vaud"},"status":"Real"},{"key":"10019529","name":"Chemin des Vernes","postalCode":"1462","locality":"Yvonand","commune":{"key":"5939","name":"Yvonand","shortName":"Yvonand"},"district":{"key":"2224","name":"District du Jura-Nord vaudois"},"canton":{"key":"22","code":"VD","name":"Vaud"},"status":"Real"},{"key":"10240474","name":"Chemin du Chaney","postalCode":"1462","locality":"Yvonand","commune":{"key":"5939","name":"Yvonand","shortName":"Yvonand"},"district":{"key":"2224","name":"District du Jura-Nord vaudois"},"canton":{"key":"22","code":"VD","name":"Vaud"},"status":"Real"},{"key":"10223940","name":"Chemin du Giron","postalCode":"1462","locality":"Yvonand","commune":{"key":"5939","name":"Yvonand","shortName":"Yvonand"},"district":{"key":"2224","name":"District du Jura-Nord vaudois"},"canton":{"key":"22","code":"VD","name":"Vaud"},"status":"Real"},{"key":"10043121","name":"Chemin du Grand-Clos","postalCode":"1462","locality":"Yvonand","commune":{"key":"5939","name":"Yvonand","shortName":"Yvonand"},"district":{"key":"2224","name":"District du Jura-Nord vaudois"},"canton":{"key":"22","code":"VD","name":"Vaud"},"status":"Real"},{"key":"10240475","name":"Chemin du Milieu","postalCode":"1462","locality":"Yvonand","commune":{"key":"5939","name":"Yvonand","shortName":"Yvonand"},"district":{"key":"2224","name":"District du Jura-Nord vaudois"},"canton":{"key":"22","code":"VD","name":"Vaud"},"status":"Real"},{"key":"10240476","name":"Chemin du Monument","postalCode":"1462","locality":"Yvonand","commune":{"key":"5939","name":"Yvonand","shortName":"Yvonand"},"district":{"key":"2224","name":"District du Jura-Nord vaudois"},"canton":{"key":"22","code":"VD","name":"Vaud"},"status":"Real"},{"key":"10043122","name":"Chemin du Petit Marais","postalCode":"1462","locality":"Yvonand","commune":{"key":"5939","name":"Yvonand","shortName":"Yvonand"},"district":{"key":"2224","name":"District du Jura-Nord vaudois"},"canton":{"key":"22","code":"VD","name":"Vaud"},"status":"Real"},{"key":"10161587","name":"Chemin du Poyet","postalCode":"1462","locality":"Yvonand","commune":{"key":"5939","name":"Yvonand","shortName":"Yvonand"},"district":{"key":"2224","name":"District du Jura-Nord vaudois"},"canton":{"key":"22","code":"VD","name":"Vaud"},"status":"Real"},{"key":"10097778","name":"Chemin du Rébut","postalCode":"1462","locality":"Yvonand","commune":{"key":"5939","name":"Yvonand","shortName":"Yvonand"},"district":{"key":"2224","name":"District du Jura-Nord vaudois"},"canton":{"key":"22","code":"VD","name":"Vaud"},"status":"Real"},{"key":"10043123","name":"Chemin du Réservoir","postalCode":"1462","locality":"Yvonand","commune":{"key":"5939","name":"Yvonand","shortName":"Yvonand"},"district":{"key":"2224","name":"District du Jura-Nord vaudois"},"canton":{"key":"22","code":"VD","name":"Vaud"},"status":"Real"},{"key":"10043124","name":"Grand'Rue","postalCode":"1462","locality":"Yvonand","commune":{"key":"5939","name":"Yvonand","shortName":"Yvonand"},"district":{"key":"2224","name":"District du Jura-Nord vaudois"},"canton":{"key":"22","code":"VD","name":"Vaud"},"status":"Real"},{"key":"10109696","name":"Grève du Grand Jenoud","postalCode":"1462","locality":"Yvonand","commune":{"key":"5939","name":"Yvonand","shortName":"Yvonand"},"district":{"key":"2224","name":"District du Jura-Nord vaudois"},"canton":{"key":"22","code":"VD","name":"Vaud"},"status":"Real"},{"key":"10134635","name":"Impasse des Griottes","postalCode":"1462","locality":"Yvonand","commune":{"key":"5939","name":"Yvonand","shortName":"Yvonand"},"district":{"key":"2224","name":"District du Jura-Nord vaudois"},"canton":{"key":"22","code":"VD","name":"Vaud"},"status":"Real"},{"key":"10142445","name":"Impasse des Pommiers","postalCode":"1462","locality":"Yvonand","commune":{"key":"5939","name":"Yvonand","shortName":"Yvonand"},"district":{"key":"2224","name":"District du Jura-Nord vaudois"},"canton":{"key":"22","code":"VD","name":"Vaud"},"status":"Real"},{"key":"10097779","name":"Impasse du Siau","postalCode":"1462","locality":"Yvonand","commune":{"key":"5939","name":"Yvonand","shortName":"Yvonand"},"district":{"key":"2224","name":"District du Jura-Nord vaudois"},"canton":{"key":"22","code":"VD","name":"Vaud"},"status":"Real"},{"key":"10043125","name":"La Grand'Moille","postalCode":"1462","locality":"Yvonand","commune":{"key":"5939","name":"Yvonand","shortName":"Yvonand"},"district":{"key":"2224","name":"District du Jura-Nord vaudois"},"canton":{"key":"22","code":"VD","name":"Vaud"},"status":"Real"},{"key":"10181319","name":"La Vaux","postalCode":"1462","locality":"Yvonand","commune":{"key":"5939","name":"Yvonand","shortName":"Yvonand"},"district":{"key":"2224","name":"District du Jura-Nord vaudois"},"canton":{"key":"22","code":"VD","name":"Vaud"},"status":"Real"},{"key":"10116189","name":"La Vignette","postalCode":"1462","locality":"Yvonand","commune":{"key":"5939","name":"Yvonand","shortName":"Yvonand"},"district":{"key":"2224","name":"District du Jura-Nord vaudois"},"canton":{"key":"22","code":"VD","name":"Vaud"},"status":"Real"},{"key":"10181321","name":"Le Moulin","postalCode":"1462","locality":"Yvonand","commune":{"key":"5939","name":"Yvonand","shortName":"Yvonand"},"district":{"key":"2224","name":"District du Jura-Nord vaudois"},"canton":{"key":"22","code":"VD","name":"Vaud"},"status":"Real"},{"key":"10083300","name":"Niédens-Dessous","postalCode":"1462","locality":"Yvonand","commune":{"key":"5939","name":"Yvonand","shortName":"Yvonand"},"district":{"key":"2224","name":"District du Jura-Nord vaudois"},"canton":{"key":"22","code":"VD","name":"Vaud"},"status":"Real"},{"key":"10164378","name":"Niédens-Dessus","postalCode":"1462","locality":"Yvonand","commune":{"key":"5939","name":"Yvonand","shortName":"Yvonand"},"district":{"key":"2224","name":"District du Jura-Nord vaudois"},"canton":{"key":"22","code":"VD","name":"Vaud"},"status":"Real"},{"key":"10247052","name":"Perreret","postalCode":"1462","locality":"Yvonand","commune":{"key":"5939","name":"Yvonand","shortName":"Yvonand"},"district":{"key":"2224","name":"District du Jura-Nord vaudois"},"canton":{"key":"22","code":"VD","name":"Vaud"},"status":"Real"},{"key":"10043128","name":"Quartier de la Tuilerie","postalCode":"1462","locality":"Yvonand","commune":{"key":"5939","name":"Yvonand","shortName":"Yvonand"},"district":{"key":"2224","name":"District du Jura-Nord vaudois"},"canton":{"key":"22","code":"VD","name":"Vaud"},"status":"Real"},{"key":"10245812","name":"Route de Cheseaux","postalCode":"1462","locality":"Yvonand","commune":{"key":"5939","name":"Yvonand","shortName":"Yvonand"},"district":{"key":"2224","name":"District du Jura-Nord vaudois"},"canton":{"key":"22","code":"VD","name":"Vaud"},"status":"Real"},{"key":"10097781","name":"Route de Pomy","postalCode":"1462","locality":"Yvonand","commune":{"key":"5939","name":"Yvonand","shortName":"Yvonand"},"district":{"key":"2224","name":"District du Jura-Nord vaudois"},"canton":{"key":"22","code":"VD","name":"Vaud"},"status":"Real"},{"key":"10083301","name":"Route de Rovray","postalCode":"1462","locality":"Yvonand","commune":{"key":"5939","name":"Yvonand","shortName":"Yvonand"},"district":{"key":"2224","name":"District du Jura-Nord vaudois"},"canton":{"key":"22","code":"VD","name":"Vaud"},"status":"Real"},{"key":"10043127","name":"Route des Vursys","postalCode":"1462","locality":"Yvonand","commune":{"key":"5939","name":"Yvonand","shortName":"Yvonand"},"district":{"key":"2224","name":"District du Jura-Nord vaudois"},"canton":{"key":"22","code":"VD","name":"Vaud"},"status":"Real"},{"key":"10181450","name":"Route de Villars-Epeney","postalCode":"1462","locality":"Yvonand","commune":{"key":"5939","name":"Yvonand","shortName":"Yvonand"},"district":{"key":"2224","name":"District du Jura-Nord vaudois"},"canton":{"key":"22","code":"VD","name":"Vaud"},"status":"Real"},{"key":"10043132","name":"Rue de la Bauma","postalCode":"1462","locality":"Yvonand","commune":{"key":"5939","name":"Yvonand","shortName":"Yvonand"},"district":{"key":"2224","name":"District du Jura-Nord vaudois"},"canton":{"key":"22","code":"VD","name":"Vaud"},"status":"Real"},{"key":"10055308","name":"Rue de la Mauguettaz","postalCode":"1462","locality":"Yvonand","commune":{"key":"5939","name":"Yvonand","shortName":"Yvonand"},"district":{"key":"2224","name":"District du Jura-Nord vaudois"},"canton":{"key":"22","code":"VD","name":"Vaud"},"status":"Real"},{"key":"10097784","name":"Rue de la Menthue","postalCode":"1462","locality":"Yvonand","commune":{"key":"5939","name":"Yvonand","shortName":"Yvonand"},"district":{"key":"2224","name":"District du Jura-Nord vaudois"},"canton":{"key":"22","code":"VD","name":"Vaud"},"status":"Real"},{"key":"10115841","name":"Rue de l'Ancien Collège","postalCode":"1462","locality":"Yvonand","commune":{"key":"5939","name":"Yvonand","shortName":"Yvonand"},"district":{"key":"2224","name":"District du Jura-Nord vaudois"},"canton":{"key":"22","code":"VD","name":"Vaud"},"status":"Real"},{"key":"10171878","name":"Rue de l'Ancienne Laiterie","postalCode":"1462","locality":"Yvonand","commune":{"key":"5939","name":"Yvonand","shortName":"Yvonand"},"district":{"key":"2224","name":"District du Jura-Nord vaudois"},"canton":{"key":"22","code":"VD","name":"Vaud"},"status":"Real"},{"key":"10106430","name":"Rue de l'Ancien Stand","postalCode":"1462","locality":"Yvonand","commune":{"key":"5939","name":"Yvonand","shortName":"Yvonand"},"district":{"key":"2224","name":"District du Jura-Nord vaudois"},"canton":{"key":"22","code":"VD","name":"Vaud"},"status":"Real"},{"key":"10043133","name":"Rue de la Passerelle","postalCode":"1462","locality":"Yvonand","commune":{"key":"5939","name":"Yvonand","shortName":"Yvonand"},"district":{"key":"2224","name":"District du Jura-Nord vaudois"},"canton":{"key":"22","code":"VD","name":"Vaud"},"status":"Real"},{"key":"10043134","name":"Rue de la Ria","postalCode":"1462","locality":"Yvonand","commune":{"key":"5939","name":"Yvonand","shortName":"Yvonand"},"district":{"key":"2224","name":"District du Jura-Nord vaudois"},"canton":{"key":"22","code":"VD","name":"Vaud"},"status":"Real"},{"key":"10055309","name":"Rue de la Scierie","postalCode":"1462","locality":"Yvonand","commune":{"key":"5939","name":"Yvonand","shortName":"Yvonand"},"district":{"key":"2224","name":"District du Jura-Nord vaudois"},"canton":{"key":"22","code":"VD","name":"Vaud"},"status":"Real"},{"key":"10083302","name":"Rue de la Tannerie","postalCode":"1462","locality":"Yvonand","commune":{"key":"5939","name":"Yvonand","shortName":"Yvonand"},"district":{"key":"2224","name":"District du Jura-Nord vaudois"},"canton":{"key":"22","code":"VD","name":"Vaud"},"status":"Real"},{"key":"10097783","name":"Rue de l'Impasse","postalCode":"1462","locality":"Yvonand","commune":{"key":"5939","name":"Yvonand","shortName":"Yvonand"},"district":{"key":"2224","name":"District du Jura-Nord vaudois"},"canton":{"key":"22","code":"VD","name":"Vaud"},"status":"Real"},{"key":"10043131","name":"Rue de l'Industrie","postalCode":"1462","locality":"Yvonand","commune":{"key":"5939","name":"Yvonand","shortName":"Yvonand"},"district":{"key":"2224","name":"District du Jura-Nord vaudois"},"canton":{"key":"22","code":"VD","name":"Vaud"},"status":"Real"},{"key":"10043130","name":"Rue de Mortaigue","postalCode":"1462","locality":"Yvonand","commune":{"key":"5939","name":"Yvonand","shortName":"Yvonand"},"district":{"key":"2224","name":"District du Jura-Nord vaudois"},"canton":{"key":"22","code":"VD","name":"Vaud"},"status":"Real"},{"key":"10181320","name":"Rue de Priales","postalCode":"1462","locality":"Yvonand","commune":{"key":"5939","name":"Yvonand","shortName":"Yvonand"},"district":{"key":"2224","name":"District du Jura-Nord vaudois"},"canton":{"key":"22","code":"VD","name":"Vaud"},"status":"Real"},{"key":"10097785","name":"Rue des Fleurettes","postalCode":"1462","locality":"Yvonand","commune":{"key":"5939","name":"Yvonand","shortName":"Yvonand"},"district":{"key":"2224","name":"District du Jura-Nord vaudois"},"canton":{"key":"22","code":"VD","name":"Vaud"},"status":"Real"},{"key":"10043135","name":"Rue des Lilas","postalCode":"1462","locality":"Yvonand","commune":{"key":"5939","name":"Yvonand","shortName":"Yvonand"},"district":{"key":"2224","name":"District du Jura-Nord vaudois"},"canton":{"key":"22","code":"VD","name":"Vaud"},"status":"Real"},{"key":"10169073","name":"Rue des Ochettes","postalCode":"1462","locality":"Yvonand","commune":{"key":"5939","name":"Yvonand","shortName":"Yvonand"},"district":{"key":"2224","name":"District du Jura-Nord vaudois"},"canton":{"key":"22","code":"VD","name":"Vaud"},"status":"Real"},{"key":"10055310","name":"Rue des Pâquis","postalCode":"1462","locality":"Yvonand","commune":{"key":"5939","name":"Yvonand","shortName":"Yvonand"},"district":{"key":"2224","name":"District du Jura-Nord vaudois"},"canton":{"key":"22","code":"VD","name":"Vaud"},"status":"Real"},{"key":"10108626","name":"Rue des Tapasabllias","postalCode":"1462","locality":"Yvonand","commune":{"key":"5939","name":"Yvonand","shortName":"Yvonand"},"district":{"key":"2224","name":"District du Jura-Nord vaudois"},"canton":{"key":"22","code":"VD","name":"Vaud"},"status":"Real"},{"key":"10043136","name":"Rue des Vergers","postalCode":"1462","locality":"Yvonand","commune":{"key":"5939","name":"Yvonand","shortName":"Yvonand"},"district":{"key":"2224","name":"District du Jura-Nord vaudois"},"canton":{"key":"22","code":"VD","name":"Vaud"},"status":"Real"},{"key":"10189320","name":"Rue de Treysala","postalCode":"1462","locality":"Yvonand","commune":{"key":"5939","name":"Yvonand","shortName":"Yvonand"},"district":{"key":"2224","name":"District du Jura-Nord vaudois"},"canton":{"key":"22","code":"VD","name":"Vaud"},"status":"Real"},{"key":"10097786","name":"Rue Dr. Gallandat","postalCode":"1462","locality":"Yvonand","commune":{"key":"5939","name":"Yvonand","shortName":"Yvonand"},"district":{"key":"2224","name":"District du Jura-Nord vaudois"},"canton":{"key":"22","code":"VD","name":"Vaud"},"status":"Real"},{"key":"10169074","name":"Rue du Casino","postalCode":"1462","locality":"Yvonand","commune":{"key":"5939","name":"Yvonand","shortName":"Yvonand"},"district":{"key":"2224","name":"District du Jura-Nord vaudois"},"canton":{"key":"22","code":"VD","name":"Vaud"},"status":"Real"},{"key":"10106431","name":"Rue du Grand Jenoud","postalCode":"1462","locality":"Yvonand","commune":{"key":"5939","name":"Yvonand","shortName":"Yvonand"},"district":{"key":"2224","name":"District du Jura-Nord vaudois"},"canton":{"key":"22","code":"VD","name":"Vaud"},"status":"Real"},{"key":"10083303","name":"Rue du Lac","postalCode":"1462","locality":"Yvonand","commune":{"key":"5939","name":"Yvonand","shortName":"Yvonand"},"district":{"key":"2224","name":"District du Jura-Nord vaudois"},"canton":{"key":"22","code":"VD","name":"Vaud"},"status":"Real"},{"key":"10043137","name":"Rue du Marais","postalCode":"1462","locality":"Yvonand","commune":{"key":"5939","name":"Yvonand","shortName":"Yvonand"},"district":{"key":"2224","name":"District du Jura-Nord vaudois"},"canton":{"key":"22","code":"VD","name":"Vaud"},"status":"Real"},{"key":"10115421","name":"Rue du Vieux-Port","postalCode":"1462","locality":"Yvonand","commune":{"key":"5939","name":"Yvonand","shortName":"Yvonand"},"district":{"key":"2224","name":"District du Jura-Nord vaudois"},"canton":{"key":"22","code":"VD","name":"Vaud"},"status":"Real"},{"key":"10043129","name":"Rue Hélène Correvon","postalCode":"1462","locality":"Yvonand","commune":{"key":"5939","name":"Yvonand","shortName":"Yvonand"},"district":{"key":"2224","name":"District du Jura-Nord vaudois"},"canton":{"key":"22","code":"VD","name":"Vaud"},"status":"Real"},{"key":"10097782","name":"Rue Oche-Berthoud","postalCode":"1462","locality":"Yvonand","commune":{"key":"5939","name":"Yvonand","shortName":"Yvonand"},"district":{"key":"2224","name":"District du Jura-Nord vaudois"},"canton":{"key":"22","code":"VD","name":"Vaud"},"status":"Real"},{"key":"10068506","name":"Valleires","postalCode":"1462","locality":"Yvonand","commune":{"key":"5939","name":"Yvonand","shortName":"Yvonand"},"district":{"key":"2224","name":"District du Jura-Nord vaudois"},"canton":{"key":"22","code":"VD","name":"Vaud"},"status":"Real"},]