[{"name":"Am Schloßberg","postalCode":"07778","locality":"Tautenburg","municipality":{"key":"16074096","name":"Tautenburg","type":"Kreisangehörige_Gemeinde"},"district":{"key":"16074","name":"Saale-Holzland-Kreis","type":"Landkreis"},"federalState":{"key":"16","name":"Thüringen"}},{"name":"An der Bastei","postalCode":"07778","locality":"Tautenburg","municipality":{"key":"16074096","name":"Tautenburg","type":"Kreisangehörige_Gemeinde"},"district":{"key":"16074","name":"Saale-Holzland-Kreis","type":"Landkreis"},"federalState":{"key":"16","name":"Thüringen"}},{"name":"Im Hebetal","postalCode":"07778","locality":"Tautenburg","municipality":{"key":"16074096","name":"Tautenburg","type":"Kreisangehörige_Gemeinde"},"district":{"key":"16074","name":"Saale-Holzland-Kreis","type":"Landkreis"},"federalState":{"key":"16","name":"Thüringen"}},{"name":"Im Vogelgrund","postalCode":"07778","locality":"Tautenburg","municipality":{"key":"16074096","name":"Tautenburg","type":"Kreisangehörige_Gemeinde"},"district":{"key":"16074","name":"Saale-Holzland-Kreis","type":"Landkreis"},"federalState":{"key":"16","name":"Thüringen"}},{"name":"Kriegsgründchen","postalCode":"07778","locality":"Tautenburg","municipality":{"key":"16074096","name":"Tautenburg","type":"Kreisangehörige_Gemeinde"},"district":{"key":"16074","name":"Saale-Holzland-Kreis","type":"Landkreis"},"federalState":{"key":"16","name":"Thüringen"}},{"name":"Lindenstr.","postalCode":"07778","locality":"Tautenburg","municipality":{"key":"16074096","name":"Tautenburg","type":"Kreisangehörige_Gemeinde"},"district":{"key":"16074","name":"Saale-Holzland-Kreis","type":"Landkreis"},"federalState":{"key":"16","name":"Thüringen"}},{"name":"Sperbersgrund","postalCode":"07778","locality":"Tautenburg","municipality":{"key":"16074096","name":"Tautenburg","type":"Kreisangehörige_Gemeinde"},"district":{"key":"16074","name":"Saale-Holzland-Kreis","type":"Landkreis"},"federalState":{"key":"16","name":"Thüringen"}},{"name":"Zum Sommerberg","postalCode":"07778","locality":"Tautenburg","municipality":{"key":"16074096","name":"Tautenburg","type":"Kreisangehörige_Gemeinde"},"district":{"key":"16074","name":"Saale-Holzland-Kreis","type":"Landkreis"},"federalState":{"key":"16","name":"Thüringen"}},]