[
  {
    "code": "50201",
    "district": {
      "code": "502",
      "name": "Hallein",
      "key": "502"
    },
    "federalProvince": {
      "name": "Salzburg",
      "key": "5"
    },
    "postalCode": "5441",
    "name": "Abtenau",
    "multiplePostalCodes": true,
    "key": "50201",
    "status": "MarketTown"
  },
  {
    "code": "50202",
    "district": {
      "code": "502",
      "name": "Hallein",
      "key": "502"
    },
    "federalProvince": {
      "name": "Salzburg",
      "key": "5"
    },
    "postalCode": "5421",
    "name": "Adnet",
    "multiplePostalCodes": true,
    "key": "50202",
    "status": "None"
  },
  {
    "code": "50203",
    "district": {
      "code": "502",
      "name": "Hallein",
      "key": "502"
    },
    "federalProvince": {
      "name": "Salzburg",
      "key": "5"
    },
    "postalCode": "5524",
    "name": "Annaberg-Lungötz",
    "multiplePostalCodes": true,
    "key": "50203",
    "status": "None"
  },
  {
    "code": "50204",
    "district": {
      "code": "502",
      "name": "Hallein",
      "key": "502"
    },
    "federalProvince": {
      "name": "Salzburg",
      "key": "5"
    },
    "postalCode": "5440",
    "name": "Golling an der Salzach",
    "multiplePostalCodes": false,
    "key": "50204",
    "status": "MarketTown"
  },
  {
    "code": "50205",
    "district": {
      "code": "502",
      "name": "Hallein",
      "key": "502"
    },
    "federalProvince": {
      "name": "Salzburg",
      "key": "5"
    },
    "postalCode": "5400",
    "name": "Hallein",
    "multiplePostalCodes": true,
    "key": "50205",
    "status": "UrbanMunicipality"
  },
  {
    "code": "50206",
    "district": {
      "code": "502",
      "name": "Hallein",
      "key": "502"
    },
    "federalProvince": {
      "name": "Salzburg",
      "key": "5"
    },
    "postalCode": "5425",
    "name": "Krispl",
    "multiplePostalCodes": false,
    "key": "50206",
    "status": "None"
  },
  {
    "code": "50207",
    "district": {
      "code": "502",
      "name": "Hallein",
      "key": "502"
    },
    "federalProvince": {
      "name": "Salzburg",
      "key": "5"
    },
    "postalCode": "5431",
    "name": "Kuchl",
    "multiplePostalCodes": true,
    "key": "50207",
    "status": "MarketTown"
  },
  {
    "code": "50208",
    "district": {
      "code": "502",
      "name": "Hallein",
      "key": "502"
    },
    "federalProvince": {
      "name": "Salzburg",
      "key": "5"
    },
    "postalCode": "5411",
    "name": "Oberalm",
    "multiplePostalCodes": true,
    "key": "50208",
    "status": "MarketTown"
  },
  {
    "code": "50209",
    "district": {
      "code": "502",
      "name": "Hallein",
      "key": "502"
    },
    "federalProvince": {
      "name": "Salzburg",
      "key": "5"
    },
    "postalCode": "5412",
    "name": "Puch bei Hallein",
    "multiplePostalCodes": false,
    "key": "50209",
    "status": "None"
  },
  {
    "code": "50210",
    "district": {
      "code": "502",
      "name": "Hallein",
      "key": "502"
    },
    "federalProvince": {
      "name": "Salzburg",
      "key": "5"
    },
    "postalCode": "5442",
    "name": "Rußbach am Paß Gschütt",
    "multiplePostalCodes": false,
    "key": "50210",
    "status": "None"
  },
  {
    "code": "50211",
    "district": {
      "code": "502",
      "name": "Hallein",
      "key": "502"
    },
    "federalProvince": {
      "name": "Salzburg",
      "key": "5"
    },
    "postalCode": "5423",
    "name": "Sankt Koloman",
    "multiplePostalCodes": false,
    "key": "50211",
    "status": "None"
  },
  {
    "code": "50212",
    "district": {
      "code": "502",
      "name": "Hallein",
      "key": "502"
    },
    "federalProvince": {
      "name": "Salzburg",
      "key": "5"
    },
    "postalCode": "5440",
    "name": "Scheffau am Tennengebirge",
    "multiplePostalCodes": true,
    "key": "50212",
    "status": "None"
  },
  {
    "code": "50213",
    "district": {
      "code": "502",
      "name": "Hallein",
      "key": "502"
    },
    "federalProvince": {
      "name": "Salzburg",
      "key": "5"
    },
    "postalCode": "5424",
    "name": "Bad Vigaun",
    "multiplePostalCodes": false,
    "key": "50213",
    "status": "None"
  }
]