[{"name":"Glisser Bruch","postalCode":"31604","locality":"Raddestorf","municipality":{"key":"03256024","name":"Raddestorf","type":"Kreisangehörige_Gemeinde"},"district":{"key":"03256","name":"Nienburg (Weser)","type":"Landkreis"},"federalState":{"key":"03","name":"Niedersachsen"}},{"name":"Glisser Dorfstr.","postalCode":"31604","locality":"Raddestorf","municipality":{"key":"03256024","name":"Raddestorf","type":"Kreisangehörige_Gemeinde"},"district":{"key":"03256","name":"Nienburg (Weser)","type":"Landkreis"},"federalState":{"key":"03","name":"Niedersachsen"}},{"name":"Glisser Heide","postalCode":"31604","locality":"Raddestorf","municipality":{"key":"03256024","name":"Raddestorf","type":"Kreisangehörige_Gemeinde"},"district":{"key":"03256","name":"Nienburg (Weser)","type":"Landkreis"},"federalState":{"key":"03","name":"Niedersachsen"}},{"name":"Glisser Landstr.","postalCode":"31604","locality":"Raddestorf","municipality":{"key":"03256024","name":"Raddestorf","type":"Kreisangehörige_Gemeinde"},"district":{"key":"03256","name":"Nienburg (Weser)","type":"Landkreis"},"federalState":{"key":"03","name":"Niedersachsen"}},{"name":"Glisser Mitte","postalCode":"31604","locality":"Raddestorf","municipality":{"key":"03256024","name":"Raddestorf","type":"Kreisangehörige_Gemeinde"},"district":{"key":"03256","name":"Nienburg (Weser)","type":"Landkreis"},"federalState":{"key":"03","name":"Niedersachsen"}},{"name":"Glisser Riede","postalCode":"31604","locality":"Raddestorf","municipality":{"key":"03256024","name":"Raddestorf","type":"Kreisangehörige_Gemeinde"},"district":{"key":"03256","name":"Nienburg (Weser)","type":"Landkreis"},"federalState":{"key":"03","name":"Niedersachsen"}},{"name":"Gräsebilde","postalCode":"31604","locality":"Raddestorf","municipality":{"key":"03256024","name":"Raddestorf","type":"Kreisangehörige_Gemeinde"},"district":{"key":"03256","name":"Nienburg (Weser)","type":"Landkreis"},"federalState":{"key":"03","name":"Niedersachsen"}},{"name":"Halle","postalCode":"31604","locality":"Raddestorf","municipality":{"key":"03256024","name":"Raddestorf","type":"Kreisangehörige_Gemeinde"},"district":{"key":"03256","name":"Nienburg (Weser)","type":"Landkreis"},"federalState":{"key":"03","name":"Niedersachsen"}},{"name":"Harrienstedt","postalCode":"31604","locality":"Raddestorf","municipality":{"key":"03256024","name":"Raddestorf","type":"Kreisangehörige_Gemeinde"},"district":{"key":"03256","name":"Nienburg (Weser)","type":"Landkreis"},"federalState":{"key":"03","name":"Niedersachsen"}},{"name":"Kiebitzhöhe","postalCode":"31604","locality":"Raddestorf","municipality":{"key":"03256024","name":"Raddestorf","type":"Kreisangehörige_Gemeinde"},"district":{"key":"03256","name":"Nienburg (Weser)","type":"Landkreis"},"federalState":{"key":"03","name":"Niedersachsen"}},{"name":"Kiebitzweg","postalCode":"31604","locality":"Raddestorf","municipality":{"key":"03256024","name":"Raddestorf","type":"Kreisangehörige_Gemeinde"},"district":{"key":"03256","name":"Nienburg (Weser)","type":"Landkreis"},"federalState":{"key":"03","name":"Niedersachsen"}},{"name":"Kleinenheerse","postalCode":"31604","locality":"Raddestorf","municipality":{"key":"03256024","name":"Raddestorf","type":"Kreisangehörige_Gemeinde"},"district":{"key":"03256","name":"Nienburg (Weser)","type":"Landkreis"},"federalState":{"key":"03","name":"Niedersachsen"}},{"name":"Kreuzkrug","postalCode":"31604","locality":"Raddestorf","municipality":{"key":"03256024","name":"Raddestorf","type":"Kreisangehörige_Gemeinde"},"district":{"key":"03256","name":"Nienburg (Weser)","type":"Landkreis"},"federalState":{"key":"03","name":"Niedersachsen"}},{"name":"Nachtigallenweg","postalCode":"31604","locality":"Raddestorf","municipality":{"key":"03256024","name":"Raddestorf","type":"Kreisangehörige_Gemeinde"},"district":{"key":"03256","name":"Nienburg (Weser)","type":"Landkreis"},"federalState":{"key":"03","name":"Niedersachsen"}},{"name":"Stolzenauer Str.","postalCode":"31604","locality":"Raddestorf","municipality":{"key":"03256024","name":"Raddestorf","type":"Kreisangehörige_Gemeinde"},"district":{"key":"03256","name":"Nienburg (Weser)","type":"Landkreis"},"federalState":{"key":"03","name":"Niedersachsen"}},{"name":"Westenfeld","postalCode":"31604","locality":"Raddestorf","municipality":{"key":"03256024","name":"Raddestorf","type":"Kreisangehörige_Gemeinde"},"district":{"key":"03256","name":"Nienburg (Weser)","type":"Landkreis"},"federalState":{"key":"03","name":"Niedersachsen"}},]