[{"name":"Alte Salzstr.","postalCode":"21481","locality":"Schnakenbek","municipality":{"key":"01053111","name":"Schnakenbek","type":"Kreisangehörige_Gemeinde"},"district":{"key":"01053","name":"Herzogtum Lauenburg","type":"Kreis"},"federalState":{"key":"01","name":"Schleswig-Holstein"}},{"name":"Am Keil","postalCode":"21481","locality":"Schnakenbek","municipality":{"key":"01053111","name":"Schnakenbek","type":"Kreisangehörige_Gemeinde"},"district":{"key":"01053","name":"Herzogtum Lauenburg","type":"Kreis"},"federalState":{"key":"01","name":"Schleswig-Holstein"}},{"name":"Am Sportplatz","postalCode":"21481","locality":"Schnakenbek","municipality":{"key":"01053111","name":"Schnakenbek","type":"Kreisangehörige_Gemeinde"},"district":{"key":"01053","name":"Herzogtum Lauenburg","type":"Kreis"},"federalState":{"key":"01","name":"Schleswig-Holstein"}},{"name":"Am Walde","postalCode":"21481","locality":"Schnakenbek","municipality":{"key":"01053111","name":"Schnakenbek","type":"Kreisangehörige_Gemeinde"},"district":{"key":"01053","name":"Herzogtum Lauenburg","type":"Kreis"},"federalState":{"key":"01","name":"Schleswig-Holstein"}},{"name":"An der Kapelle","postalCode":"21481","locality":"Schnakenbek","municipality":{"key":"01053111","name":"Schnakenbek","type":"Kreisangehörige_Gemeinde"},"district":{"key":"01053","name":"Herzogtum Lauenburg","type":"Kreis"},"federalState":{"key":"01","name":"Schleswig-Holstein"}},{"name":"An der Schule","postalCode":"21481","locality":"Schnakenbek","municipality":{"key":"01053111","name":"Schnakenbek","type":"Kreisangehörige_Gemeinde"},"district":{"key":"01053","name":"Herzogtum Lauenburg","type":"Kreis"},"federalState":{"key":"01","name":"Schleswig-Holstein"}},{"name":"Bektal","postalCode":"21481","locality":"Schnakenbek","municipality":{"key":"01053111","name":"Schnakenbek","type":"Kreisangehörige_Gemeinde"},"district":{"key":"01053","name":"Herzogtum Lauenburg","type":"Kreis"},"federalState":{"key":"01","name":"Schleswig-Holstein"}},{"name":"Bergstr.","postalCode":"21481","locality":"Schnakenbek","municipality":{"key":"01053111","name":"Schnakenbek","type":"Kreisangehörige_Gemeinde"},"district":{"key":"01053","name":"Herzogtum Lauenburg","type":"Kreis"},"federalState":{"key":"01","name":"Schleswig-Holstein"}},{"name":"Berliner Str.","postalCode":"21481","locality":"Schnakenbek","municipality":{"key":"01053111","name":"Schnakenbek","type":"Kreisangehörige_Gemeinde"},"district":{"key":"01053","name":"Herzogtum Lauenburg","type":"Kreis"},"federalState":{"key":"01","name":"Schleswig-Holstein"}},{"name":"Buchhörn","postalCode":"21481","locality":"Schnakenbek","municipality":{"key":"01053111","name":"Schnakenbek","type":"Kreisangehörige_Gemeinde"},"district":{"key":"01053","name":"Herzogtum Lauenburg","type":"Kreis"},"federalState":{"key":"01","name":"Schleswig-Holstein"}},{"name":"Dorfstr.","postalCode":"21481","locality":"Schnakenbek","municipality":{"key":"01053111","name":"Schnakenbek","type":"Kreisangehörige_Gemeinde"},"district":{"key":"01053","name":"Herzogtum Lauenburg","type":"Kreis"},"federalState":{"key":"01","name":"Schleswig-Holstein"}},{"name":"Elbkamp","postalCode":"21481","locality":"Schnakenbek","municipality":{"key":"01053111","name":"Schnakenbek","type":"Kreisangehörige_Gemeinde"},"district":{"key":"01053","name":"Herzogtum Lauenburg","type":"Kreis"},"federalState":{"key":"01","name":"Schleswig-Holstein"}},{"name":"Feuerbahn","postalCode":"21481","locality":"Schnakenbek","municipality":{"key":"01053111","name":"Schnakenbek","type":"Kreisangehörige_Gemeinde"},"district":{"key":"01053","name":"Herzogtum Lauenburg","type":"Kreis"},"federalState":{"key":"01","name":"Schleswig-Holstein"}},{"name":"Forstweg","postalCode":"21481","locality":"Schnakenbek","municipality":{"key":"01053111","name":"Schnakenbek","type":"Kreisangehörige_Gemeinde"},"district":{"key":"01053","name":"Herzogtum Lauenburg","type":"Kreis"},"federalState":{"key":"01","name":"Schleswig-Holstein"}},{"name":"Glüsinger Grund","postalCode":"21481","locality":"Schnakenbek","municipality":{"key":"01053111","name":"Schnakenbek","type":"Kreisangehörige_Gemeinde"},"district":{"key":"01053","name":"Herzogtum Lauenburg","type":"Kreis"},"federalState":{"key":"01","name":"Schleswig-Holstein"}},{"name":"Glüsinger Str.","postalCode":"21481","locality":"Schnakenbek","municipality":{"key":"01053111","name":"Schnakenbek","type":"Kreisangehörige_Gemeinde"},"district":{"key":"01053","name":"Herzogtum Lauenburg","type":"Kreis"},"federalState":{"key":"01","name":"Schleswig-Holstein"}},{"name":"Kurze Str.","postalCode":"21481","locality":"Schnakenbek","municipality":{"key":"01053111","name":"Schnakenbek","type":"Kreisangehörige_Gemeinde"},"district":{"key":"01053","name":"Herzogtum Lauenburg","type":"Kreis"},"federalState":{"key":"01","name":"Schleswig-Holstein"}},{"name":"Lärchenhain","postalCode":"21481","locality":"Schnakenbek","municipality":{"key":"01053111","name":"Schnakenbek","type":"Kreisangehörige_Gemeinde"},"district":{"key":"01053","name":"Herzogtum Lauenburg","type":"Kreis"},"federalState":{"key":"01","name":"Schleswig-Holstein"}},{"name":"Lauenburger Fußsteig","postalCode":"21481","locality":"Schnakenbek","municipality":{"key":"01053111","name":"Schnakenbek","type":"Kreisangehörige_Gemeinde"},"district":{"key":"01053","name":"Herzogtum Lauenburg","type":"Kreis"},"federalState":{"key":"01","name":"Schleswig-Holstein"}},{"name":"Mittelweg","postalCode":"21481","locality":"Schnakenbek","municipality":{"key":"01053111","name":"Schnakenbek","type":"Kreisangehörige_Gemeinde"},"district":{"key":"01053","name":"Herzogtum Lauenburg","type":"Kreis"},"federalState":{"key":"01","name":"Schleswig-Holstein"}},{"name":"Papenkamp","postalCode":"21481","locality":"Schnakenbek","municipality":{"key":"01053111","name":"Schnakenbek","type":"Kreisangehörige_Gemeinde"},"district":{"key":"01053","name":"Herzogtum Lauenburg","type":"Kreis"},"federalState":{"key":"01","name":"Schleswig-Holstein"}},{"name":"Sandkrug","postalCode":"21481","locality":"Schnakenbek","municipality":{"key":"01053111","name":"Schnakenbek","type":"Kreisangehörige_Gemeinde"},"district":{"key":"01053","name":"Herzogtum Lauenburg","type":"Kreis"},"federalState":{"key":"01","name":"Schleswig-Holstein"}},{"name":"Schäferhof","postalCode":"21481","locality":"Schnakenbek","municipality":{"key":"01053111","name":"Schnakenbek","type":"Kreisangehörige_Gemeinde"},"district":{"key":"01053","name":"Herzogtum Lauenburg","type":"Kreis"},"federalState":{"key":"01","name":"Schleswig-Holstein"}},{"name":"Schäferkamp","postalCode":"21481","locality":"Schnakenbek","municipality":{"key":"01053111","name":"Schnakenbek","type":"Kreisangehörige_Gemeinde"},"district":{"key":"01053","name":"Herzogtum Lauenburg","type":"Kreis"},"federalState":{"key":"01","name":"Schleswig-Holstein"}},{"name":"Twiete","postalCode":"21481","locality":"Schnakenbek","municipality":{"key":"01053111","name":"Schnakenbek","type":"Kreisangehörige_Gemeinde"},"district":{"key":"01053","name":"Herzogtum Lauenburg","type":"Kreis"},"federalState":{"key":"01","name":"Schleswig-Holstein"}},{"name":"Vorwerk","postalCode":"21481","locality":"Schnakenbek","municipality":{"key":"01053111","name":"Schnakenbek","type":"Kreisangehörige_Gemeinde"},"district":{"key":"01053","name":"Herzogtum Lauenburg","type":"Kreis"},"federalState":{"key":"01","name":"Schleswig-Holstein"}},{"name":"Wiesengrund","postalCode":"21481","locality":"Schnakenbek","municipality":{"key":"01053111","name":"Schnakenbek","type":"Kreisangehörige_Gemeinde"},"district":{"key":"01053","name":"Herzogtum Lauenburg","type":"Kreis"},"federalState":{"key":"01","name":"Schleswig-Holstein"}},{"name":"Zur Koppel","postalCode":"21481","locality":"Schnakenbek","municipality":{"key":"01053111","name":"Schnakenbek","type":"Kreisangehörige_Gemeinde"},"district":{"key":"01053","name":"Herzogtum Lauenburg","type":"Kreis"},"federalState":{"key":"01","name":"Schleswig-Holstein"}},]