[{"name":"Am Grünberg","postalCode":"76891","locality":"Erlenbach bei Dahn","municipality":{"key":"07340010","name":"Erlenbach bei Dahn","type":"Kreisangehörige_Gemeinde"},"district":{"key":"07340","name":"Südwestpfalz","type":"Landkreis"},"federalState":{"key":"07","name":"Rheinland-Pfalz"}},{"name":"Bergstr.","postalCode":"76891","locality":"Erlenbach bei Dahn","municipality":{"key":"07340010","name":"Erlenbach bei Dahn","type":"Kreisangehörige_Gemeinde"},"district":{"key":"07340","name":"Südwestpfalz","type":"Landkreis"},"federalState":{"key":"07","name":"Rheinland-Pfalz"}},{"name":"Binsenhohlstr.","postalCode":"76891","locality":"Erlenbach bei Dahn","municipality":{"key":"07340010","name":"Erlenbach bei Dahn","type":"Kreisangehörige_Gemeinde"},"district":{"key":"07340","name":"Südwestpfalz","type":"Landkreis"},"federalState":{"key":"07","name":"Rheinland-Pfalz"}},{"name":"Brunnenweg","postalCode":"76891","locality":"Erlenbach bei Dahn","municipality":{"key":"07340010","name":"Erlenbach bei Dahn","type":"Kreisangehörige_Gemeinde"},"district":{"key":"07340","name":"Südwestpfalz","type":"Landkreis"},"federalState":{"key":"07","name":"Rheinland-Pfalz"}},{"name":"Grünheckstr.","postalCode":"76891","locality":"Erlenbach bei Dahn","municipality":{"key":"07340010","name":"Erlenbach bei Dahn","type":"Kreisangehörige_Gemeinde"},"district":{"key":"07340","name":"Südwestpfalz","type":"Landkreis"},"federalState":{"key":"07","name":"Rheinland-Pfalz"}},{"name":"Hauptmann-Hoffmann-Str.","postalCode":"76891","locality":"Erlenbach bei Dahn","municipality":{"key":"07340010","name":"Erlenbach bei Dahn","type":"Kreisangehörige_Gemeinde"},"district":{"key":"07340","name":"Südwestpfalz","type":"Landkreis"},"federalState":{"key":"07","name":"Rheinland-Pfalz"}},{"name":"Hauptstr.","postalCode":"76891","locality":"Erlenbach bei Dahn","municipality":{"key":"07340010","name":"Erlenbach bei Dahn","type":"Kreisangehörige_Gemeinde"},"district":{"key":"07340","name":"Südwestpfalz","type":"Landkreis"},"federalState":{"key":"07","name":"Rheinland-Pfalz"}},{"name":"Hübelstr.","postalCode":"76891","locality":"Erlenbach bei Dahn","municipality":{"key":"07340010","name":"Erlenbach bei Dahn","type":"Kreisangehörige_Gemeinde"},"district":{"key":"07340","name":"Südwestpfalz","type":"Landkreis"},"federalState":{"key":"07","name":"Rheinland-Pfalz"}},{"name":"Im Langenthal","postalCode":"76891","locality":"Erlenbach bei Dahn","municipality":{"key":"07340010","name":"Erlenbach bei Dahn","type":"Kreisangehörige_Gemeinde"},"district":{"key":"07340","name":"Südwestpfalz","type":"Landkreis"},"federalState":{"key":"07","name":"Rheinland-Pfalz"}},{"name":"Kirchstr.","postalCode":"76891","locality":"Erlenbach bei Dahn","municipality":{"key":"07340010","name":"Erlenbach bei Dahn","type":"Kreisangehörige_Gemeinde"},"district":{"key":"07340","name":"Südwestpfalz","type":"Landkreis"},"federalState":{"key":"07","name":"Rheinland-Pfalz"}},{"name":"Ortsstr.","postalCode":"76891","locality":"Erlenbach bei Dahn","municipality":{"key":"07340010","name":"Erlenbach bei Dahn","type":"Kreisangehörige_Gemeinde"},"district":{"key":"07340","name":"Südwestpfalz","type":"Landkreis"},"federalState":{"key":"07","name":"Rheinland-Pfalz"}},{"name":"Vogesenstr.","postalCode":"76891","locality":"Erlenbach bei Dahn","municipality":{"key":"07340010","name":"Erlenbach bei Dahn","type":"Kreisangehörige_Gemeinde"},"district":{"key":"07340","name":"Südwestpfalz","type":"Landkreis"},"federalState":{"key":"07","name":"Rheinland-Pfalz"}},{"name":"Wolfsweg","postalCode":"76891","locality":"Erlenbach bei Dahn","municipality":{"key":"07340010","name":"Erlenbach bei Dahn","type":"Kreisangehörige_Gemeinde"},"district":{"key":"07340","name":"Südwestpfalz","type":"Landkreis"},"federalState":{"key":"07","name":"Rheinland-Pfalz"}},]