[{"name":"Am Kirchberg","postalCode":"18249","locality":"Baumgarten","municipality":{"key":"13072009","name":"Baumgarten","type":"Kreisangehörige_Gemeinde"},"district":{"key":"13072","name":"Landkreis Rostock","type":"Landkreis"},"federalState":{"key":"13","name":"Mecklenburg-Vorpommern"}},{"name":"Am Mühlenberg","postalCode":"18246","locality":"Baumgarten","municipality":{"key":"13072009","name":"Baumgarten","type":"Kreisangehörige_Gemeinde"},"district":{"key":"13072","name":"Landkreis Rostock","type":"Landkreis"},"federalState":{"key":"13","name":"Mecklenburg-Vorpommern"}},{"name":"Am Rötsal","postalCode":"18249","locality":"Baumgarten","municipality":{"key":"13072009","name":"Baumgarten","type":"Kreisangehörige_Gemeinde"},"district":{"key":"13072","name":"Landkreis Rostock","type":"Landkreis"},"federalState":{"key":"13","name":"Mecklenburg-Vorpommern"}},{"name":"An der Dorfstätte","postalCode":"18249","locality":"Baumgarten","municipality":{"key":"13072009","name":"Baumgarten","type":"Kreisangehörige_Gemeinde"},"district":{"key":"13072","name":"Landkreis Rostock","type":"Landkreis"},"federalState":{"key":"13","name":"Mecklenburg-Vorpommern"}},{"name":"Ausbau","postalCode":"18246","locality":"Baumgarten","municipality":{"key":"13072009","name":"Baumgarten","type":"Kreisangehörige_Gemeinde"},"district":{"key":"13072","name":"Landkreis Rostock","type":"Landkreis"},"federalState":{"key":"13","name":"Mecklenburg-Vorpommern"}},{"name":"Ausbau Qualitz","postalCode":"18249","locality":"Baumgarten","municipality":{"key":"13072009","name":"Baumgarten","type":"Kreisangehörige_Gemeinde"},"district":{"key":"13072","name":"Landkreis Rostock","type":"Landkreis"},"federalState":{"key":"13","name":"Mecklenburg-Vorpommern"}},{"name":"Blumenstr.","postalCode":"18246","locality":"Baumgarten","municipality":{"key":"13072009","name":"Baumgarten","type":"Kreisangehörige_Gemeinde"},"district":{"key":"13072","name":"Landkreis Rostock","type":"Landkreis"},"federalState":{"key":"13","name":"Mecklenburg-Vorpommern"}},{"name":"Bützower Str.","postalCode":"18246","locality":"Baumgarten","municipality":{"key":"13072009","name":"Baumgarten","type":"Kreisangehörige_Gemeinde"},"district":{"key":"13072","name":"Landkreis Rostock","type":"Landkreis"},"federalState":{"key":"13","name":"Mecklenburg-Vorpommern"}},{"name":"Dorfstr.","postalCode":"18249","locality":"Baumgarten","municipality":{"key":"13072009","name":"Baumgarten","type":"Kreisangehörige_Gemeinde"},"district":{"key":"13072","name":"Landkreis Rostock","type":"Landkreis"},"federalState":{"key":"13","name":"Mecklenburg-Vorpommern"}},{"name":"Gralow","postalCode":"18249","locality":"Baumgarten","municipality":{"key":"13072009","name":"Baumgarten","type":"Kreisangehörige_Gemeinde"},"district":{"key":"13072","name":"Landkreis Rostock","type":"Landkreis"},"federalState":{"key":"13","name":"Mecklenburg-Vorpommern"}},{"name":"Gralower Str.","postalCode":"18249","locality":"Baumgarten","municipality":{"key":"13072009","name":"Baumgarten","type":"Kreisangehörige_Gemeinde"},"district":{"key":"13072","name":"Landkreis Rostock","type":"Landkreis"},"federalState":{"key":"13","name":"Mecklenburg-Vorpommern"}},{"name":"Hauptstr.","postalCode":"18249","locality":"Baumgarten","municipality":{"key":"13072009","name":"Baumgarten","type":"Kreisangehörige_Gemeinde"},"district":{"key":"13072","name":"Landkreis Rostock","type":"Landkreis"},"federalState":{"key":"13","name":"Mecklenburg-Vorpommern"}},{"name":"Katelbogener Str.","postalCode":"18249","locality":"Baumgarten","municipality":{"key":"13072009","name":"Baumgarten","type":"Kreisangehörige_Gemeinde"},"district":{"key":"13072","name":"Landkreis Rostock","type":"Landkreis"},"federalState":{"key":"13","name":"Mecklenburg-Vorpommern"}},{"name":"Lerchenweg","postalCode":"18246","locality":"Baumgarten","municipality":{"key":"13072009","name":"Baumgarten","type":"Kreisangehörige_Gemeinde"},"district":{"key":"13072","name":"Landkreis Rostock","type":"Landkreis"},"federalState":{"key":"13","name":"Mecklenburg-Vorpommern"}},{"name":"Lindenplatz","postalCode":"18249","locality":"Baumgarten","municipality":{"key":"13072009","name":"Baumgarten","type":"Kreisangehörige_Gemeinde"},"district":{"key":"13072","name":"Landkreis Rostock","type":"Landkreis"},"federalState":{"key":"13","name":"Mecklenburg-Vorpommern"}},{"name":"Lindenstr.","postalCode":"18246","locality":"Baumgarten","municipality":{"key":"13072009","name":"Baumgarten","type":"Kreisangehörige_Gemeinde"},"district":{"key":"13072","name":"Landkreis Rostock","type":"Landkreis"},"federalState":{"key":"13","name":"Mecklenburg-Vorpommern"}},{"name":"Poststr.","postalCode":"18246","locality":"Baumgarten","municipality":{"key":"13072009","name":"Baumgarten","type":"Kreisangehörige_Gemeinde"},"district":{"key":"13072","name":"Landkreis Rostock","type":"Landkreis"},"federalState":{"key":"13","name":"Mecklenburg-Vorpommern"}},{"name":"Qualitzer Str.","postalCode":"18246","locality":"Baumgarten","municipality":{"key":"13072009","name":"Baumgarten","type":"Kreisangehörige_Gemeinde"},"district":{"key":"13072","name":"Landkreis Rostock","type":"Landkreis"},"federalState":{"key":"13","name":"Mecklenburg-Vorpommern"}},{"name":"Schependorf","postalCode":"18246","locality":"Baumgarten","municipality":{"key":"13072009","name":"Baumgarten","type":"Kreisangehörige_Gemeinde"},"district":{"key":"13072","name":"Landkreis Rostock","type":"Landkreis"},"federalState":{"key":"13","name":"Mecklenburg-Vorpommern"}},{"name":"Schusterecke","postalCode":"18249","locality":"Baumgarten","municipality":{"key":"13072009","name":"Baumgarten","type":"Kreisangehörige_Gemeinde"},"district":{"key":"13072","name":"Landkreis Rostock","type":"Landkreis"},"federalState":{"key":"13","name":"Mecklenburg-Vorpommern"}},{"name":"Smädstieg","postalCode":"18246","locality":"Baumgarten","municipality":{"key":"13072009","name":"Baumgarten","type":"Kreisangehörige_Gemeinde"},"district":{"key":"13072","name":"Landkreis Rostock","type":"Landkreis"},"federalState":{"key":"13","name":"Mecklenburg-Vorpommern"}},{"name":"Sumpfquerung","postalCode":"18249","locality":"Baumgarten","municipality":{"key":"13072009","name":"Baumgarten","type":"Kreisangehörige_Gemeinde"},"district":{"key":"13072","name":"Landkreis Rostock","type":"Landkreis"},"federalState":{"key":"13","name":"Mecklenburg-Vorpommern"}},{"name":"Warnowstr.","postalCode":"18246","locality":"Baumgarten","municipality":{"key":"13072009","name":"Baumgarten","type":"Kreisangehörige_Gemeinde"},"district":{"key":"13072","name":"Landkreis Rostock","type":"Landkreis"},"federalState":{"key":"13","name":"Mecklenburg-Vorpommern"}},{"name":"Wiesenweg","postalCode":"18246","locality":"Baumgarten","municipality":{"key":"13072009","name":"Baumgarten","type":"Kreisangehörige_Gemeinde"},"district":{"key":"13072","name":"Landkreis Rostock","type":"Landkreis"},"federalState":{"key":"13","name":"Mecklenburg-Vorpommern"}},{"name":"Zum Vossenbarg","postalCode":"18246","locality":"Baumgarten","municipality":{"key":"13072009","name":"Baumgarten","type":"Kreisangehörige_Gemeinde"},"district":{"key":"13072","name":"Landkreis Rostock","type":"Landkreis"},"federalState":{"key":"13","name":"Mecklenburg-Vorpommern"}},{"name":"Zum Weinberg","postalCode":"18249","locality":"Baumgarten","municipality":{"key":"13072009","name":"Baumgarten","type":"Kreisangehörige_Gemeinde"},"district":{"key":"13072","name":"Landkreis Rostock","type":"Landkreis"},"federalState":{"key":"13","name":"Mecklenburg-Vorpommern"}},]