[{"name":"Ahornstr.","postalCode":"83253","locality":"Rimsting","municipality":{"key":"09187168","name":"Rimsting","type":"Kreisangehörige_Gemeinde"},"district":{"key":"09187","name":"Rosenheim","type":"Landkreis"},"federalState":{"key":"09","name":"Bayern"}},{"name":"Albert-Eibach-Str.","postalCode":"83253","locality":"Rimsting","municipality":{"key":"09187168","name":"Rimsting","type":"Kreisangehörige_Gemeinde"},"district":{"key":"09187","name":"Rosenheim","type":"Landkreis"},"federalState":{"key":"09","name":"Bayern"}},{"name":"Alte Rathausstr.","postalCode":"83253","locality":"Rimsting","municipality":{"key":"09187168","name":"Rimsting","type":"Kreisangehörige_Gemeinde"},"district":{"key":"09187","name":"Rosenheim","type":"Landkreis"},"federalState":{"key":"09","name":"Bayern"}},{"name":"Am Hang","postalCode":"83253","locality":"Rimsting","municipality":{"key":"09187168","name":"Rimsting","type":"Kreisangehörige_Gemeinde"},"district":{"key":"09187","name":"Rosenheim","type":"Landkreis"},"federalState":{"key":"09","name":"Bayern"}},{"name":"Amselweg","postalCode":"83253","locality":"Rimsting","municipality":{"key":"09187168","name":"Rimsting","type":"Kreisangehörige_Gemeinde"},"district":{"key":"09187","name":"Rosenheim","type":"Landkreis"},"federalState":{"key":"09","name":"Bayern"}},{"name":"Angerweg","postalCode":"83253","locality":"Rimsting","municipality":{"key":"09187168","name":"Rimsting","type":"Kreisangehörige_Gemeinde"},"district":{"key":"09187","name":"Rosenheim","type":"Landkreis"},"federalState":{"key":"09","name":"Bayern"}},{"name":"Badeplatz Stettner See","postalCode":"83253","locality":"Rimsting","municipality":{"key":"09187168","name":"Rimsting","type":"Kreisangehörige_Gemeinde"},"district":{"key":"09187","name":"Rosenheim","type":"Landkreis"},"federalState":{"key":"09","name":"Bayern"}},{"name":"Bahnhofstr.","postalCode":"83253","locality":"Rimsting","municipality":{"key":"09187168","name":"Rimsting","type":"Kreisangehörige_Gemeinde"},"district":{"key":"09187","name":"Rosenheim","type":"Landkreis"},"federalState":{"key":"09","name":"Bayern"}},{"name":"Birkenweg","postalCode":"83253","locality":"Rimsting","municipality":{"key":"09187168","name":"Rimsting","type":"Kreisangehörige_Gemeinde"},"district":{"key":"09187","name":"Rosenheim","type":"Landkreis"},"federalState":{"key":"09","name":"Bayern"}},{"name":"Buchenstr.","postalCode":"83253","locality":"Rimsting","municipality":{"key":"09187168","name":"Rimsting","type":"Kreisangehörige_Gemeinde"},"district":{"key":"09187","name":"Rosenheim","type":"Landkreis"},"federalState":{"key":"09","name":"Bayern"}},{"name":"Burgersdorfer Str.","postalCode":"83253","locality":"Rimsting","municipality":{"key":"09187168","name":"Rimsting","type":"Kreisangehörige_Gemeinde"},"district":{"key":"09187","name":"Rosenheim","type":"Landkreis"},"federalState":{"key":"09","name":"Bayern"}},{"name":"Carl-Orff-Str.","postalCode":"83024","locality":"Rosenheim","municipality":{"key":"09163000","name":"Rosenheim","type":"Kreisfreie_Stadt"},"district":{"key":"09163","name":"Rosenheim","type":"Kreisfreie_Stadt"},"federalState":{"key":"09","name":"Bayern"}},{"name":"Carossastr.","postalCode":"83026","locality":"Rosenheim","municipality":{"key":"09163000","name":"Rosenheim","type":"Kreisfreie_Stadt"},"district":{"key":"09163","name":"Rosenheim","type":"Kreisfreie_Stadt"},"federalState":{"key":"09","name":"Bayern"}},{"name":"Caspar-Filser-Str.","postalCode":"83026","locality":"Rosenheim","municipality":{"key":"09163000","name":"Rosenheim","type":"Kreisfreie_Stadt"},"district":{"key":"09163","name":"Rosenheim","type":"Kreisfreie_Stadt"},"federalState":{"key":"09","name":"Bayern"}},{"name":"Chiemseestr.","postalCode":"83022","locality":"Rosenheim","municipality":{"key":"09163000","name":"Rosenheim","type":"Kreisfreie_Stadt"},"district":{"key":"09163","name":"Rosenheim","type":"Kreisfreie_Stadt"},"federalState":{"key":"09","name":"Bayern"}},{"name":"Christian-Mali-Weg","postalCode":"83026","locality":"Rosenheim","municipality":{"key":"09163000","name":"Rosenheim","type":"Kreisfreie_Stadt"},"district":{"key":"09163","name":"Rosenheim","type":"Kreisfreie_Stadt"},"federalState":{"key":"09","name":"Bayern"}},{"name":"Dahlienweg","postalCode":"83253","locality":"Rimsting","municipality":{"key":"09187168","name":"Rimsting","type":"Kreisangehörige_Gemeinde"},"district":{"key":"09187","name":"Rosenheim","type":"Landkreis"},"federalState":{"key":"09","name":"Bayern"}},{"name":"Dr.-Rudolf-Veh-Str.","postalCode":"83253","locality":"Rimsting","municipality":{"key":"09187168","name":"Rimsting","type":"Kreisangehörige_Gemeinde"},"district":{"key":"09187","name":"Rosenheim","type":"Landkreis"},"federalState":{"key":"09","name":"Bayern"}},{"name":"Eichenstr.","postalCode":"83253","locality":"Rimsting","municipality":{"key":"09187168","name":"Rimsting","type":"Kreisangehörige_Gemeinde"},"district":{"key":"09187","name":"Rosenheim","type":"Landkreis"},"federalState":{"key":"09","name":"Bayern"}},{"name":"Endorfer Str.","postalCode":"83253","locality":"Rimsting","municipality":{"key":"09187168","name":"Rimsting","type":"Kreisangehörige_Gemeinde"},"district":{"key":"09187","name":"Rosenheim","type":"Landkreis"},"federalState":{"key":"09","name":"Bayern"}},{"name":"Fichtenstr.","postalCode":"83253","locality":"Rimsting","municipality":{"key":"09187168","name":"Rimsting","type":"Kreisangehörige_Gemeinde"},"district":{"key":"09187","name":"Rosenheim","type":"Landkreis"},"federalState":{"key":"09","name":"Bayern"}},{"name":"Finkenweg","postalCode":"83253","locality":"Rimsting","municipality":{"key":"09187168","name":"Rimsting","type":"Kreisangehörige_Gemeinde"},"district":{"key":"09187","name":"Rosenheim","type":"Landkreis"},"federalState":{"key":"09","name":"Bayern"}},{"name":"Föhrenstr.","postalCode":"83253","locality":"Rimsting","municipality":{"key":"09187168","name":"Rimsting","type":"Kreisangehörige_Gemeinde"},"district":{"key":"09187","name":"Rosenheim","type":"Landkreis"},"federalState":{"key":"09","name":"Bayern"}},{"name":"Forellenweg","postalCode":"83253","locality":"Rimsting","municipality":{"key":"09187168","name":"Rimsting","type":"Kreisangehörige_Gemeinde"},"district":{"key":"09187","name":"Rosenheim","type":"Landkreis"},"federalState":{"key":"09","name":"Bayern"}},{"name":"Frühlingstr.","postalCode":"83253","locality":"Rimsting","municipality":{"key":"09187168","name":"Rimsting","type":"Kreisangehörige_Gemeinde"},"district":{"key":"09187","name":"Rosenheim","type":"Landkreis"},"federalState":{"key":"09","name":"Bayern"}},{"name":"Gänsbach","postalCode":"83253","locality":"Rimsting","municipality":{"key":"09187168","name":"Rimsting","type":"Kreisangehörige_Gemeinde"},"district":{"key":"09187","name":"Rosenheim","type":"Landkreis"},"federalState":{"key":"09","name":"Bayern"}},{"name":"Gartenweg","postalCode":"83253","locality":"Rimsting","municipality":{"key":"09187168","name":"Rimsting","type":"Kreisangehörige_Gemeinde"},"district":{"key":"09187","name":"Rosenheim","type":"Landkreis"},"federalState":{"key":"09","name":"Bayern"}},{"name":"Gattern - Berg","postalCode":"83253","locality":"Rimsting","municipality":{"key":"09187168","name":"Rimsting","type":"Kreisangehörige_Gemeinde"},"district":{"key":"09187","name":"Rosenheim","type":"Landkreis"},"federalState":{"key":"09","name":"Bayern"}},{"name":"Greimharting","postalCode":"83253","locality":"Rimsting","municipality":{"key":"09187168","name":"Rimsting","type":"Kreisangehörige_Gemeinde"},"district":{"key":"09187","name":"Rosenheim","type":"Landkreis"},"federalState":{"key":"09","name":"Bayern"}},{"name":"Greimhartinger Str.","postalCode":"83253","locality":"Rimsting","municipality":{"key":"09187168","name":"Rimsting","type":"Kreisangehörige_Gemeinde"},"district":{"key":"09187","name":"Rosenheim","type":"Landkreis"},"federalState":{"key":"09","name":"Bayern"}},{"name":"Hochfellnstr.","postalCode":"83253","locality":"Rimsting","municipality":{"key":"09187168","name":"Rimsting","type":"Kreisangehörige_Gemeinde"},"district":{"key":"09187","name":"Rosenheim","type":"Landkreis"},"federalState":{"key":"09","name":"Bayern"}},{"name":"Hochgernstr.","postalCode":"83253","locality":"Rimsting","municipality":{"key":"09187168","name":"Rimsting","type":"Kreisangehörige_Gemeinde"},"district":{"key":"09187","name":"Rosenheim","type":"Landkreis"},"federalState":{"key":"09","name":"Bayern"}},{"name":"Hochriesstr.","postalCode":"83253","locality":"Rimsting","municipality":{"key":"09187168","name":"Rimsting","type":"Kreisangehörige_Gemeinde"},"district":{"key":"09187","name":"Rosenheim","type":"Landkreis"},"federalState":{"key":"09","name":"Bayern"}},{"name":"Hochstaufenweg","postalCode":"83253","locality":"Rimsting","municipality":{"key":"09187168","name":"Rimsting","type":"Kreisangehörige_Gemeinde"},"district":{"key":"09187","name":"Rosenheim","type":"Landkreis"},"federalState":{"key":"09","name":"Bayern"}},{"name":"Höhenweg","postalCode":"83253","locality":"Rimsting","municipality":{"key":"09187168","name":"Rimsting","type":"Kreisangehörige_Gemeinde"},"district":{"key":"09187","name":"Rosenheim","type":"Landkreis"},"federalState":{"key":"09","name":"Bayern"}},{"name":"Holzberg","postalCode":"83253","locality":"Rimsting","municipality":{"key":"09187168","name":"Rimsting","type":"Kreisangehörige_Gemeinde"},"district":{"key":"09187","name":"Rosenheim","type":"Landkreis"},"federalState":{"key":"09","name":"Bayern"}},{"name":"Ihlaustr.","postalCode":"83024","locality":"Rosenheim","municipality":{"key":"09163000","name":"Rosenheim","type":"Kreisfreie_Stadt"},"district":{"key":"09163","name":"Rosenheim","type":"Kreisfreie_Stadt"},"federalState":{"key":"09","name":"Bayern"}},{"name":"Illerstr.","postalCode":"83026","locality":"Rosenheim","municipality":{"key":"09163000","name":"Rosenheim","type":"Kreisfreie_Stadt"},"district":{"key":"09163","name":"Rosenheim","type":"Kreisfreie_Stadt"},"federalState":{"key":"09","name":"Bayern"}},{"name":"Im Acker","postalCode":"57520","locality":"Rosenheim","municipality":{"key":"07132095","name":"Rosenheim (Landkreis Altenkirchen)","type":"Kreisangehörige_Gemeinde"},"district":{"key":"07132","name":"Altenkirchen (Westerwald)","type":"Landkreis"},"federalState":{"key":"07","name":"Rheinland-Pfalz"}},{"name":"Im Eichsfeld","postalCode":"57520","locality":"Rosenheim","municipality":{"key":"07132095","name":"Rosenheim (Landkreis Altenkirchen)","type":"Kreisangehörige_Gemeinde"},"district":{"key":"07132","name":"Altenkirchen (Westerwald)","type":"Landkreis"},"federalState":{"key":"07","name":"Rheinland-Pfalz"}},{"name":"Im Kochbrunnen","postalCode":"57520","locality":"Rosenheim","municipality":{"key":"07132095","name":"Rosenheim (Landkreis Altenkirchen)","type":"Kreisangehörige_Gemeinde"},"district":{"key":"07132","name":"Altenkirchen (Westerwald)","type":"Landkreis"},"federalState":{"key":"07","name":"Rheinland-Pfalz"}},{"name":"In der nassen Struth","postalCode":"57520","locality":"Rosenheim","municipality":{"key":"07132095","name":"Rosenheim (Landkreis Altenkirchen)","type":"Kreisangehörige_Gemeinde"},"district":{"key":"07132","name":"Altenkirchen (Westerwald)","type":"Landkreis"},"federalState":{"key":"07","name":"Rheinland-Pfalz"}},{"name":"In der Rose","postalCode":"57520","locality":"Rosenheim","municipality":{"key":"07132095","name":"Rosenheim (Landkreis Altenkirchen)","type":"Kreisangehörige_Gemeinde"},"district":{"key":"07132","name":"Altenkirchen (Westerwald)","type":"Landkreis"},"federalState":{"key":"07","name":"Rheinland-Pfalz"}},{"name":"In der Schmucken","postalCode":"83022","locality":"Rosenheim","municipality":{"key":"09163000","name":"Rosenheim","type":"Kreisfreie_Stadt"},"district":{"key":"09163","name":"Rosenheim","type":"Kreisfreie_Stadt"},"federalState":{"key":"09","name":"Bayern"}},{"name":"Innfeldstr.","postalCode":"83026","locality":"Rosenheim","municipality":{"key":"09163000","name":"Rosenheim","type":"Kreisfreie_Stadt"},"district":{"key":"09163","name":"Rosenheim","type":"Kreisfreie_Stadt"},"federalState":{"key":"09","name":"Bayern"}},{"name":"Innlände","postalCode":"83022","locality":"Rosenheim","municipality":{"key":"09163000","name":"Rosenheim","type":"Kreisfreie_Stadt"},"district":{"key":"09163","name":"Rosenheim","type":"Kreisfreie_Stadt"},"federalState":{"key":"09","name":"Bayern"}},{"name":"Inn-Museum-Freigelände","postalCode":"83022","locality":"Rosenheim","municipality":{"key":"09163000","name":"Rosenheim","type":"Kreisfreie_Stadt"},"district":{"key":"09163","name":"Rosenheim","type":"Kreisfreie_Stadt"},"federalState":{"key":"09","name":"Bayern"}},{"name":"Innsbrucker Str.","postalCode":"83022","locality":"Rosenheim","municipality":{"key":"09163000","name":"Rosenheim","type":"Kreisfreie_Stadt"},"district":{"key":"09163","name":"Rosenheim","type":"Kreisfreie_Stadt"},"federalState":{"key":"09","name":"Bayern"}},{"name":"Innsbrucker Str.","postalCode":"83026","locality":"Rosenheim","municipality":{"key":"09163000","name":"Rosenheim","type":"Kreisfreie_Stadt"},"district":{"key":"09163","name":"Rosenheim","type":"Kreisfreie_Stadt"},"federalState":{"key":"09","name":"Bayern"}},{"name":"Innstr.","postalCode":"83022","locality":"Rosenheim","municipality":{"key":"09163000","name":"Rosenheim","type":"Kreisfreie_Stadt"},"district":{"key":"09163","name":"Rosenheim","type":"Kreisfreie_Stadt"},"federalState":{"key":"09","name":"Bayern"}},{"name":"Inntalstr.","postalCode":"83026","locality":"Rosenheim","municipality":{"key":"09163000","name":"Rosenheim","type":"Kreisfreie_Stadt"},"district":{"key":"09163","name":"Rosenheim","type":"Kreisfreie_Stadt"},"federalState":{"key":"09","name":"Bayern"}},{"name":"Isarstr.","postalCode":"83026","locality":"Rosenheim","municipality":{"key":"09163000","name":"Rosenheim","type":"Kreisfreie_Stadt"},"district":{"key":"09163","name":"Rosenheim","type":"Kreisfreie_Stadt"},"federalState":{"key":"09","name":"Bayern"}},{"name":"Jägerstr.","postalCode":"83024","locality":"Rosenheim","municipality":{"key":"09163000","name":"Rosenheim","type":"Kreisfreie_Stadt"},"district":{"key":"09163","name":"Rosenheim","type":"Kreisfreie_Stadt"},"federalState":{"key":"09","name":"Bayern"}},{"name":"Jahnstr.","postalCode":"83022","locality":"Rosenheim","municipality":{"key":"09163000","name":"Rosenheim","type":"Kreisfreie_Stadt"},"district":{"key":"09163","name":"Rosenheim","type":"Kreisfreie_Stadt"},"federalState":{"key":"09","name":"Bayern"}},{"name":"Jenbachweg","postalCode":"83026","locality":"Rosenheim","municipality":{"key":"09163000","name":"Rosenheim","type":"Kreisfreie_Stadt"},"district":{"key":"09163","name":"Rosenheim","type":"Kreisfreie_Stadt"},"federalState":{"key":"09","name":"Bayern"}},{"name":"Johannesweg","postalCode":"83026","locality":"Rosenheim","municipality":{"key":"09163000","name":"Rosenheim","type":"Kreisfreie_Stadt"},"district":{"key":"09163","name":"Rosenheim","type":"Kreisfreie_Stadt"},"federalState":{"key":"09","name":"Bayern"}},{"name":"Johann-Maier-Weg","postalCode":"83024","locality":"Rosenheim","municipality":{"key":"09163000","name":"Rosenheim","type":"Kreisfreie_Stadt"},"district":{"key":"09163","name":"Rosenheim","type":"Kreisfreie_Stadt"},"federalState":{"key":"09","name":"Bayern"}},{"name":"Johann-Sebastian-Bach-Str.","postalCode":"83024","locality":"Rosenheim","municipality":{"key":"09163000","name":"Rosenheim","type":"Kreisfreie_Stadt"},"district":{"key":"09163","name":"Rosenheim","type":"Kreisfreie_Stadt"},"federalState":{"key":"09","name":"Bayern"}},{"name":"Joseph-Haydn-Str.","postalCode":"83024","locality":"Rosenheim","municipality":{"key":"09163000","name":"Rosenheim","type":"Kreisfreie_Stadt"},"district":{"key":"09163","name":"Rosenheim","type":"Kreisfreie_Stadt"},"federalState":{"key":"09","name":"Bayern"}},{"name":"Justus-von-Liebig-Str.","postalCode":"83022","locality":"Rosenheim","municipality":{"key":"09163000","name":"Rosenheim","type":"Kreisfreie_Stadt"},"district":{"key":"09163","name":"Rosenheim","type":"Kreisfreie_Stadt"},"federalState":{"key":"09","name":"Bayern"}},{"name":"Kalkgrubstr.","postalCode":"83253","locality":"Rimsting","municipality":{"key":"09187168","name":"Rimsting","type":"Kreisangehörige_Gemeinde"},"district":{"key":"09187","name":"Rosenheim","type":"Landkreis"},"federalState":{"key":"09","name":"Bayern"}},{"name":"Kampenwandstr.","postalCode":"83253","locality":"Rimsting","municipality":{"key":"09187168","name":"Rimsting","type":"Kreisangehörige_Gemeinde"},"district":{"key":"09187","name":"Rosenheim","type":"Landkreis"},"federalState":{"key":"09","name":"Bayern"}},{"name":"Kindlpoint","postalCode":"83253","locality":"Rimsting","municipality":{"key":"09187168","name":"Rimsting","type":"Kreisangehörige_Gemeinde"},"district":{"key":"09187","name":"Rosenheim","type":"Landkreis"},"federalState":{"key":"09","name":"Bayern"}},{"name":"Kirchplatz","postalCode":"83253","locality":"Rimsting","municipality":{"key":"09187168","name":"Rimsting","type":"Kreisangehörige_Gemeinde"},"district":{"key":"09187","name":"Rosenheim","type":"Landkreis"},"federalState":{"key":"09","name":"Bayern"}},{"name":"Lärchenstr.","postalCode":"83253","locality":"Rimsting","municipality":{"key":"09187168","name":"Rimsting","type":"Kreisangehörige_Gemeinde"},"district":{"key":"09187","name":"Rosenheim","type":"Landkreis"},"federalState":{"key":"09","name":"Bayern"}},{"name":"Lindenstr.","postalCode":"83253","locality":"Rimsting","municipality":{"key":"09187168","name":"Rimsting","type":"Kreisangehörige_Gemeinde"},"district":{"key":"09187","name":"Rosenheim","type":"Landkreis"},"federalState":{"key":"09","name":"Bayern"}},{"name":"Ludwigshöhenweg","postalCode":"83253","locality":"Rimsting","municipality":{"key":"09187168","name":"Rimsting","type":"Kreisangehörige_Gemeinde"},"district":{"key":"09187","name":"Rosenheim","type":"Landkreis"},"federalState":{"key":"09","name":"Bayern"}},{"name":"Max-Bartl-Str.","postalCode":"83253","locality":"Rimsting","municipality":{"key":"09187168","name":"Rimsting","type":"Kreisangehörige_Gemeinde"},"district":{"key":"09187","name":"Rosenheim","type":"Landkreis"},"federalState":{"key":"09","name":"Bayern"}},{"name":"Nelkenweg","postalCode":"83253","locality":"Rimsting","municipality":{"key":"09187168","name":"Rimsting","type":"Kreisangehörige_Gemeinde"},"district":{"key":"09187","name":"Rosenheim","type":"Landkreis"},"federalState":{"key":"09","name":"Bayern"}},{"name":"Nordstr.","postalCode":"83253","locality":"Rimsting","municipality":{"key":"09187168","name":"Rimsting","type":"Kreisangehörige_Gemeinde"},"district":{"key":"09187","name":"Rosenheim","type":"Landkreis"},"federalState":{"key":"09","name":"Bayern"}},{"name":"Oberdorfstr.","postalCode":"83253","locality":"Rimsting","municipality":{"key":"09187168","name":"Rimsting","type":"Kreisangehörige_Gemeinde"},"district":{"key":"09187","name":"Rosenheim","type":"Landkreis"},"federalState":{"key":"09","name":"Bayern"}},{"name":"Osterhofen","postalCode":"83253","locality":"Rimsting","municipality":{"key":"09187168","name":"Rimsting","type":"Kreisangehörige_Gemeinde"},"district":{"key":"09187","name":"Rosenheim","type":"Landkreis"},"federalState":{"key":"09","name":"Bayern"}},{"name":"Otterkring","postalCode":"83253","locality":"Rimsting","municipality":{"key":"09187168","name":"Rimsting","type":"Kreisangehörige_Gemeinde"},"district":{"key":"09187","name":"Rosenheim","type":"Landkreis"},"federalState":{"key":"09","name":"Bayern"}},{"name":"Paradiesstr.","postalCode":"83253","locality":"Rimsting","municipality":{"key":"09187168","name":"Rimsting","type":"Kreisangehörige_Gemeinde"},"district":{"key":"09187","name":"Rosenheim","type":"Landkreis"},"federalState":{"key":"09","name":"Bayern"}},{"name":"Pinswang","postalCode":"83253","locality":"Rimsting","municipality":{"key":"09187168","name":"Rimsting","type":"Kreisangehörige_Gemeinde"},"district":{"key":"09187","name":"Rosenheim","type":"Landkreis"},"federalState":{"key":"09","name":"Bayern"}},{"name":"Pinswang 1b-1e,6-6d","postalCode":"83253","locality":"Rimsting","municipality":{"key":"09187168","name":"Rimsting","type":"Kreisangehörige_Gemeinde"},"district":{"key":"09187","name":"Rosenheim","type":"Landkreis"},"federalState":{"key":"09","name":"Bayern"}},{"name":"Point","postalCode":"83253","locality":"Rimsting","municipality":{"key":"09187168","name":"Rimsting","type":"Kreisangehörige_Gemeinde"},"district":{"key":"09187","name":"Rosenheim","type":"Landkreis"},"federalState":{"key":"09","name":"Bayern"}},{"name":"Priener Str.","postalCode":"83253","locality":"Rimsting","municipality":{"key":"09187168","name":"Rimsting","type":"Kreisangehörige_Gemeinde"},"district":{"key":"09187","name":"Rosenheim","type":"Landkreis"},"federalState":{"key":"09","name":"Bayern"}},{"name":"Quirinstr.","postalCode":"83024","locality":"Rosenheim","municipality":{"key":"09163000","name":"Rosenheim","type":"Kreisfreie_Stadt"},"district":{"key":"09163","name":"Rosenheim","type":"Kreisfreie_Stadt"},"federalState":{"key":"09","name":"Bayern"}},{"name":"Rimsting","postalCode":"83253","locality":"Rimsting","municipality":{"key":"09187168","name":"Rimsting","type":"Kreisangehörige_Gemeinde"},"district":{"key":"09187","name":"Rosenheim","type":"Landkreis"},"federalState":{"key":"09","name":"Bayern"}},{"name":"Rimstinger Str.","postalCode":"83253","locality":"Rimsting","municipality":{"key":"09187168","name":"Rimsting","type":"Kreisangehörige_Gemeinde"},"district":{"key":"09187","name":"Rosenheim","type":"Landkreis"},"federalState":{"key":"09","name":"Bayern"}},{"name":"Römerweg","postalCode":"83253","locality":"Rimsting","municipality":{"key":"09187168","name":"Rimsting","type":"Kreisangehörige_Gemeinde"},"district":{"key":"09187","name":"Rosenheim","type":"Landkreis"},"federalState":{"key":"09","name":"Bayern"}},{"name":"Rosenstr.","postalCode":"83253","locality":"Rimsting","municipality":{"key":"09187168","name":"Rimsting","type":"Kreisangehörige_Gemeinde"},"district":{"key":"09187","name":"Rosenheim","type":"Landkreis"},"federalState":{"key":"09","name":"Bayern"}},{"name":"Sandstr.","postalCode":"83253","locality":"Rimsting","municipality":{"key":"09187168","name":"Rimsting","type":"Kreisangehörige_Gemeinde"},"district":{"key":"09187","name":"Rosenheim","type":"Landkreis"},"federalState":{"key":"09","name":"Bayern"}},{"name":"Sassau","postalCode":"83253","locality":"Rimsting","municipality":{"key":"09187168","name":"Rimsting","type":"Kreisangehörige_Gemeinde"},"district":{"key":"09187","name":"Rosenheim","type":"Landkreis"},"federalState":{"key":"09","name":"Bayern"}},{"name":"Schafwaschen","postalCode":"83253","locality":"Rimsting","municipality":{"key":"09187168","name":"Rimsting","type":"Kreisangehörige_Gemeinde"},"district":{"key":"09187","name":"Rosenheim","type":"Landkreis"},"federalState":{"key":"09","name":"Bayern"}},{"name":"Schafwaschener Weg","postalCode":"83253","locality":"Rimsting","municipality":{"key":"09187168","name":"Rimsting","type":"Kreisangehörige_Gemeinde"},"district":{"key":"09187","name":"Rosenheim","type":"Landkreis"},"federalState":{"key":"09","name":"Bayern"}},{"name":"Schulstr.","postalCode":"83253","locality":"Rimsting","municipality":{"key":"09187168","name":"Rimsting","type":"Kreisangehörige_Gemeinde"},"district":{"key":"09187","name":"Rosenheim","type":"Landkreis"},"federalState":{"key":"09","name":"Bayern"}},{"name":"Seestr.","postalCode":"83253","locality":"Rimsting","municipality":{"key":"09187168","name":"Rimsting","type":"Kreisangehörige_Gemeinde"},"district":{"key":"09187","name":"Rosenheim","type":"Landkreis"},"federalState":{"key":"09","name":"Bayern"}},{"name":"Sommerstr.","postalCode":"83253","locality":"Rimsting","municipality":{"key":"09187168","name":"Rimsting","type":"Kreisangehörige_Gemeinde"},"district":{"key":"09187","name":"Rosenheim","type":"Landkreis"},"federalState":{"key":"09","name":"Bayern"}},{"name":"Sonnenstr.","postalCode":"83253","locality":"Rimsting","municipality":{"key":"09187168","name":"Rimsting","type":"Kreisangehörige_Gemeinde"},"district":{"key":"09187","name":"Rosenheim","type":"Landkreis"},"federalState":{"key":"09","name":"Bayern"}},{"name":"Strandbad Rimsting","postalCode":"83253","locality":"Rimsting","municipality":{"key":"09187168","name":"Rimsting","type":"Kreisangehörige_Gemeinde"},"district":{"key":"09187","name":"Rosenheim","type":"Landkreis"},"federalState":{"key":"09","name":"Bayern"}},{"name":"Südstr.","postalCode":"83253","locality":"Rimsting","municipality":{"key":"09187168","name":"Rimsting","type":"Kreisangehörige_Gemeinde"},"district":{"key":"09187","name":"Rosenheim","type":"Landkreis"},"federalState":{"key":"09","name":"Bayern"}},{"name":"Tannenstr.","postalCode":"83253","locality":"Rimsting","municipality":{"key":"09187168","name":"Rimsting","type":"Kreisangehörige_Gemeinde"},"district":{"key":"09187","name":"Rosenheim","type":"Landkreis"},"federalState":{"key":"09","name":"Bayern"}},{"name":"Thomas-Schuster-Str.","postalCode":"83253","locality":"Rimsting","municipality":{"key":"09187168","name":"Rimsting","type":"Kreisangehörige_Gemeinde"},"district":{"key":"09187","name":"Rosenheim","type":"Landkreis"},"federalState":{"key":"09","name":"Bayern"}},{"name":"Tulpenstr.","postalCode":"83253","locality":"Rimsting","municipality":{"key":"09187168","name":"Rimsting","type":"Kreisangehörige_Gemeinde"},"district":{"key":"09187","name":"Rosenheim","type":"Landkreis"},"federalState":{"key":"09","name":"Bayern"}},{"name":"Uhlandstr.","postalCode":"83024","locality":"Rosenheim","municipality":{"key":"09163000","name":"Rosenheim","type":"Kreisfreie_Stadt"},"district":{"key":"09163","name":"Rosenheim","type":"Kreisfreie_Stadt"},"federalState":{"key":"09","name":"Bayern"}},{"name":"Ulmenweg","postalCode":"83022","locality":"Rosenheim","municipality":{"key":"09163000","name":"Rosenheim","type":"Kreisfreie_Stadt"},"district":{"key":"09163","name":"Rosenheim","type":"Kreisfreie_Stadt"},"federalState":{"key":"09","name":"Bayern"}},{"name":"Unterer Gernauweg","postalCode":"83026","locality":"Rosenheim","municipality":{"key":"09163000","name":"Rosenheim","type":"Kreisfreie_Stadt"},"district":{"key":"09163","name":"Rosenheim","type":"Kreisfreie_Stadt"},"federalState":{"key":"09","name":"Bayern"}},{"name":"Unterkaltbrunn","postalCode":"83026","locality":"Rosenheim","municipality":{"key":"09163000","name":"Rosenheim","type":"Kreisfreie_Stadt"},"district":{"key":"09163","name":"Rosenheim","type":"Kreisfreie_Stadt"},"federalState":{"key":"09","name":"Bayern"}},{"name":"Unterkaltbrunner Str.","postalCode":"83026","locality":"Rosenheim","municipality":{"key":"09163000","name":"Rosenheim","type":"Kreisfreie_Stadt"},"district":{"key":"09163","name":"Rosenheim","type":"Kreisfreie_Stadt"},"federalState":{"key":"09","name":"Bayern"}},{"name":"Verdunstr.","postalCode":"83026","locality":"Rosenheim","municipality":{"key":"09163000","name":"Rosenheim","type":"Kreisfreie_Stadt"},"district":{"key":"09163","name":"Rosenheim","type":"Kreisfreie_Stadt"},"federalState":{"key":"09","name":"Bayern"}},{"name":"Von-der-Tann-Str.","postalCode":"83022","locality":"Rosenheim","municipality":{"key":"09163000","name":"Rosenheim","type":"Kreisfreie_Stadt"},"district":{"key":"09163","name":"Rosenheim","type":"Kreisfreie_Stadt"},"federalState":{"key":"09","name":"Bayern"}},{"name":"Vorarlbergweg","postalCode":"83024","locality":"Rosenheim","municipality":{"key":"09163000","name":"Rosenheim","type":"Kreisfreie_Stadt"},"district":{"key":"09163","name":"Rosenheim","type":"Kreisfreie_Stadt"},"federalState":{"key":"09","name":"Bayern"}},{"name":"Waldstr.","postalCode":"83253","locality":"Rimsting","municipality":{"key":"09187168","name":"Rimsting","type":"Kreisangehörige_Gemeinde"},"district":{"key":"09187","name":"Rosenheim","type":"Landkreis"},"federalState":{"key":"09","name":"Bayern"}},{"name":"Wendelsteinstr.","postalCode":"83253","locality":"Rimsting","municipality":{"key":"09187168","name":"Rimsting","type":"Kreisangehörige_Gemeinde"},"district":{"key":"09187","name":"Rosenheim","type":"Landkreis"},"federalState":{"key":"09","name":"Bayern"}},{"name":"Westenstr.","postalCode":"83253","locality":"Rimsting","municipality":{"key":"09187168","name":"Rimsting","type":"Kreisangehörige_Gemeinde"},"district":{"key":"09187","name":"Rosenheim","type":"Landkreis"},"federalState":{"key":"09","name":"Bayern"}},{"name":"Westernacher Str.","postalCode":"83253","locality":"Rimsting","municipality":{"key":"09187168","name":"Rimsting","type":"Kreisangehörige_Gemeinde"},"district":{"key":"09187","name":"Rosenheim","type":"Landkreis"},"federalState":{"key":"09","name":"Bayern"}},{"name":"Zacking","postalCode":"83253","locality":"Rimsting","municipality":{"key":"09187168","name":"Rimsting","type":"Kreisangehörige_Gemeinde"},"district":{"key":"09187","name":"Rosenheim","type":"Landkreis"},"federalState":{"key":"09","name":"Bayern"}},{"name":"Äußere Münchener Str.","postalCode":"83022","locality":"Rosenheim","municipality":{"key":"09163000","name":"Rosenheim","type":"Kreisfreie_Stadt"},"district":{"key":"09163","name":"Rosenheim","type":"Kreisfreie_Stadt"},"federalState":{"key":"09","name":"Bayern"}},{"name":"Äußere Münchener Str.","postalCode":"83026","locality":"Rosenheim","municipality":{"key":"09163000","name":"Rosenheim","type":"Kreisfreie_Stadt"},"district":{"key":"09163","name":"Rosenheim","type":"Kreisfreie_Stadt"},"federalState":{"key":"09","name":"Bayern"}},{"name":"Äußere Oberaustr.","postalCode":"83026","locality":"Rosenheim","municipality":{"key":"09163000","name":"Rosenheim","type":"Kreisfreie_Stadt"},"district":{"key":"09163","name":"Rosenheim","type":"Kreisfreie_Stadt"},"federalState":{"key":"09","name":"Bayern"}},]