[{"name":"Am Breitstück","postalCode":"57520","locality":"Langenbach bei Kirburg","municipality":{"key":"07143253","name":"Langenbach bei Kirburg","type":"Kreisangehörige_Gemeinde"},"district":{"key":"07143","name":"Westerwaldkreis","type":"Landkreis"},"federalState":{"key":"07","name":"Rheinland-Pfalz"}},{"name":"Am Scheuerchen","postalCode":"57520","locality":"Langenbach bei Kirburg","municipality":{"key":"07143253","name":"Langenbach bei Kirburg","type":"Kreisangehörige_Gemeinde"},"district":{"key":"07143","name":"Westerwaldkreis","type":"Landkreis"},"federalState":{"key":"07","name":"Rheinland-Pfalz"}},{"name":"Am Steinrücken","postalCode":"57520","locality":"Langenbach bei Kirburg","municipality":{"key":"07143253","name":"Langenbach bei Kirburg","type":"Kreisangehörige_Gemeinde"},"district":{"key":"07143","name":"Westerwaldkreis","type":"Landkreis"},"federalState":{"key":"07","name":"Rheinland-Pfalz"}},{"name":"Bergstr.","postalCode":"57520","locality":"Langenbach bei Kirburg","municipality":{"key":"07143253","name":"Langenbach bei Kirburg","type":"Kreisangehörige_Gemeinde"},"district":{"key":"07143","name":"Westerwaldkreis","type":"Landkreis"},"federalState":{"key":"07","name":"Rheinland-Pfalz"}},{"name":"Betzdorfer Str.","postalCode":"57520","locality":"Langenbach bei Kirburg","municipality":{"key":"07143253","name":"Langenbach bei Kirburg","type":"Kreisangehörige_Gemeinde"},"district":{"key":"07143","name":"Westerwaldkreis","type":"Landkreis"},"federalState":{"key":"07","name":"Rheinland-Pfalz"}},{"name":"Bogenstr.","postalCode":"57520","locality":"Langenbach bei Kirburg","municipality":{"key":"07143253","name":"Langenbach bei Kirburg","type":"Kreisangehörige_Gemeinde"},"district":{"key":"07143","name":"Westerwaldkreis","type":"Landkreis"},"federalState":{"key":"07","name":"Rheinland-Pfalz"}},{"name":"Hauptstr.","postalCode":"57520","locality":"Langenbach bei Kirburg","municipality":{"key":"07143253","name":"Langenbach bei Kirburg","type":"Kreisangehörige_Gemeinde"},"district":{"key":"07143","name":"Westerwaldkreis","type":"Landkreis"},"federalState":{"key":"07","name":"Rheinland-Pfalz"}},{"name":"Hochstr.","postalCode":"57520","locality":"Langenbach bei Kirburg","municipality":{"key":"07143253","name":"Langenbach bei Kirburg","type":"Kreisangehörige_Gemeinde"},"district":{"key":"07143","name":"Westerwaldkreis","type":"Landkreis"},"federalState":{"key":"07","name":"Rheinland-Pfalz"}},{"name":"Im Großen Garten","postalCode":"57520","locality":"Langenbach bei Kirburg","municipality":{"key":"07143253","name":"Langenbach bei Kirburg","type":"Kreisangehörige_Gemeinde"},"district":{"key":"07143","name":"Westerwaldkreis","type":"Landkreis"},"federalState":{"key":"07","name":"Rheinland-Pfalz"}},{"name":"Im Wiesengrund","postalCode":"57520","locality":"Langenbach bei Kirburg","municipality":{"key":"07143253","name":"Langenbach bei Kirburg","type":"Kreisangehörige_Gemeinde"},"district":{"key":"07143","name":"Westerwaldkreis","type":"Landkreis"},"federalState":{"key":"07","name":"Rheinland-Pfalz"}},{"name":"In den Stöcken","postalCode":"57520","locality":"Langenbach bei Kirburg","municipality":{"key":"07143253","name":"Langenbach bei Kirburg","type":"Kreisangehörige_Gemeinde"},"district":{"key":"07143","name":"Westerwaldkreis","type":"Landkreis"},"federalState":{"key":"07","name":"Rheinland-Pfalz"}},{"name":"In der Steinhecke","postalCode":"57520","locality":"Langenbach bei Kirburg","municipality":{"key":"07143253","name":"Langenbach bei Kirburg","type":"Kreisangehörige_Gemeinde"},"district":{"key":"07143","name":"Westerwaldkreis","type":"Landkreis"},"federalState":{"key":"07","name":"Rheinland-Pfalz"}},{"name":"Lindenweg","postalCode":"57520","locality":"Langenbach bei Kirburg","municipality":{"key":"07143253","name":"Langenbach bei Kirburg","type":"Kreisangehörige_Gemeinde"},"district":{"key":"07143","name":"Westerwaldkreis","type":"Landkreis"},"federalState":{"key":"07","name":"Rheinland-Pfalz"}},{"name":"Mittelweg","postalCode":"57520","locality":"Langenbach bei Kirburg","municipality":{"key":"07143253","name":"Langenbach bei Kirburg","type":"Kreisangehörige_Gemeinde"},"district":{"key":"07143","name":"Westerwaldkreis","type":"Landkreis"},"federalState":{"key":"07","name":"Rheinland-Pfalz"}},{"name":"Poststr.","postalCode":"57520","locality":"Langenbach bei Kirburg","municipality":{"key":"07143253","name":"Langenbach bei Kirburg","type":"Kreisangehörige_Gemeinde"},"district":{"key":"07143","name":"Westerwaldkreis","type":"Landkreis"},"federalState":{"key":"07","name":"Rheinland-Pfalz"}},{"name":"Ringstr.","postalCode":"57520","locality":"Langenbach bei Kirburg","municipality":{"key":"07143253","name":"Langenbach bei Kirburg","type":"Kreisangehörige_Gemeinde"},"district":{"key":"07143","name":"Westerwaldkreis","type":"Landkreis"},"federalState":{"key":"07","name":"Rheinland-Pfalz"}},{"name":"Schulweg","postalCode":"57520","locality":"Langenbach bei Kirburg","municipality":{"key":"07143253","name":"Langenbach bei Kirburg","type":"Kreisangehörige_Gemeinde"},"district":{"key":"07143","name":"Westerwaldkreis","type":"Landkreis"},"federalState":{"key":"07","name":"Rheinland-Pfalz"}},{"name":"Steimelsweg","postalCode":"57520","locality":"Langenbach bei Kirburg","municipality":{"key":"07143253","name":"Langenbach bei Kirburg","type":"Kreisangehörige_Gemeinde"},"district":{"key":"07143","name":"Westerwaldkreis","type":"Landkreis"},"federalState":{"key":"07","name":"Rheinland-Pfalz"}},{"name":"Unter den Stöcken","postalCode":"57520","locality":"Langenbach bei Kirburg","municipality":{"key":"07143253","name":"Langenbach bei Kirburg","type":"Kreisangehörige_Gemeinde"},"district":{"key":"07143","name":"Westerwaldkreis","type":"Landkreis"},"federalState":{"key":"07","name":"Rheinland-Pfalz"}},{"name":"Vor der Kirchwies","postalCode":"57520","locality":"Langenbach bei Kirburg","municipality":{"key":"07143253","name":"Langenbach bei Kirburg","type":"Kreisangehörige_Gemeinde"},"district":{"key":"07143","name":"Westerwaldkreis","type":"Landkreis"},"federalState":{"key":"07","name":"Rheinland-Pfalz"}},{"name":"Waldstr.","postalCode":"57520","locality":"Langenbach bei Kirburg","municipality":{"key":"07143253","name":"Langenbach bei Kirburg","type":"Kreisangehörige_Gemeinde"},"district":{"key":"07143","name":"Westerwaldkreis","type":"Landkreis"},"federalState":{"key":"07","name":"Rheinland-Pfalz"}},{"name":"Wiesenstr.","postalCode":"57520","locality":"Langenbach bei Kirburg","municipality":{"key":"07143253","name":"Langenbach bei Kirburg","type":"Kreisangehörige_Gemeinde"},"district":{"key":"07143","name":"Westerwaldkreis","type":"Landkreis"},"federalState":{"key":"07","name":"Rheinland-Pfalz"}},{"name":"Zur Holzwiese","postalCode":"57520","locality":"Langenbach bei Kirburg","municipality":{"key":"07143253","name":"Langenbach bei Kirburg","type":"Kreisangehörige_Gemeinde"},"district":{"key":"07143","name":"Westerwaldkreis","type":"Landkreis"},"federalState":{"key":"07","name":"Rheinland-Pfalz"}},{"name":"Zur Krautmauer","postalCode":"57520","locality":"Langenbach bei Kirburg","municipality":{"key":"07143253","name":"Langenbach bei Kirburg","type":"Kreisangehörige_Gemeinde"},"district":{"key":"07143","name":"Westerwaldkreis","type":"Landkreis"},"federalState":{"key":"07","name":"Rheinland-Pfalz"}},]