[{"name":"Alte Allee","postalCode":"04668","locality":"Otterwisch","municipality":{"key":"14729330","name":"Otterwisch","type":"Kreisangehörige_Gemeinde"},"district":{"key":"14729","name":"Leipzig","type":"Landkreis"},"federalState":{"key":"14","name":"Sachsen"}},{"name":"Am Bahnhof","postalCode":"04668","locality":"Otterwisch","municipality":{"key":"14729330","name":"Otterwisch","type":"Kreisangehörige_Gemeinde"},"district":{"key":"14729","name":"Leipzig","type":"Landkreis"},"federalState":{"key":"14","name":"Sachsen"}},{"name":"Am Forsthaus","postalCode":"04668","locality":"Otterwisch","municipality":{"key":"14729330","name":"Otterwisch","type":"Kreisangehörige_Gemeinde"},"district":{"key":"14729","name":"Leipzig","type":"Landkreis"},"federalState":{"key":"14","name":"Sachsen"}},{"name":"Am Oberteich","postalCode":"04668","locality":"Otterwisch","municipality":{"key":"14729330","name":"Otterwisch","type":"Kreisangehörige_Gemeinde"},"district":{"key":"14729","name":"Leipzig","type":"Landkreis"},"federalState":{"key":"14","name":"Sachsen"}},{"name":"Am Türmchen","postalCode":"04668","locality":"Otterwisch","municipality":{"key":"14729330","name":"Otterwisch","type":"Kreisangehörige_Gemeinde"},"district":{"key":"14729","name":"Leipzig","type":"Landkreis"},"federalState":{"key":"14","name":"Sachsen"}},{"name":"An der Eiche","postalCode":"04668","locality":"Otterwisch","municipality":{"key":"14729330","name":"Otterwisch","type":"Kreisangehörige_Gemeinde"},"district":{"key":"14729","name":"Leipzig","type":"Landkreis"},"federalState":{"key":"14","name":"Sachsen"}},{"name":"Bad Lausicker Str.","postalCode":"04668","locality":"Otterwisch","municipality":{"key":"14729330","name":"Otterwisch","type":"Kreisangehörige_Gemeinde"},"district":{"key":"14729","name":"Leipzig","type":"Landkreis"},"federalState":{"key":"14","name":"Sachsen"}},{"name":"Bahnhofstr.","postalCode":"04668","locality":"Otterwisch","municipality":{"key":"14729330","name":"Otterwisch","type":"Kreisangehörige_Gemeinde"},"district":{"key":"14729","name":"Leipzig","type":"Landkreis"},"federalState":{"key":"14","name":"Sachsen"}},{"name":"Bernbrucher Str.","postalCode":"04668","locality":"Otterwisch","municipality":{"key":"14729330","name":"Otterwisch","type":"Kreisangehörige_Gemeinde"},"district":{"key":"14729","name":"Leipzig","type":"Landkreis"},"federalState":{"key":"14","name":"Sachsen"}},{"name":"Brückenweg","postalCode":"04668","locality":"Otterwisch","municipality":{"key":"14729330","name":"Otterwisch","type":"Kreisangehörige_Gemeinde"},"district":{"key":"14729","name":"Leipzig","type":"Landkreis"},"federalState":{"key":"14","name":"Sachsen"}},{"name":"Buchenring","postalCode":"04668","locality":"Otterwisch","municipality":{"key":"14729330","name":"Otterwisch","type":"Kreisangehörige_Gemeinde"},"district":{"key":"14729","name":"Leipzig","type":"Landkreis"},"federalState":{"key":"14","name":"Sachsen"}},{"name":"Cäcilienstr.","postalCode":"04317","locality":"Leipzig","municipality":{"key":"14713000","name":"Leipzig, Stadt","type":"Kreisfreie_Stadt"},"district":{"key":"14713","name":"Leipzig, Stadt","type":"Kreisfreie_Stadt"},"federalState":{"key":"14","name":"Sachsen"}},{"name":"Calaustr.","postalCode":"04229","locality":"Leipzig","municipality":{"key":"14713000","name":"Leipzig, Stadt","type":"Kreisfreie_Stadt"},"district":{"key":"14713","name":"Leipzig, Stadt","type":"Kreisfreie_Stadt"},"federalState":{"key":"14","name":"Sachsen"}},{"name":"Calderónweg","postalCode":"04289","locality":"Leipzig","municipality":{"key":"14713000","name":"Leipzig, Stadt","type":"Kreisfreie_Stadt"},"district":{"key":"14713","name":"Leipzig, Stadt","type":"Kreisfreie_Stadt"},"federalState":{"key":"14","name":"Sachsen"}},{"name":"Calvisiusstr.","postalCode":"04177","locality":"Leipzig","municipality":{"key":"14713000","name":"Leipzig, Stadt","type":"Kreisfreie_Stadt"},"district":{"key":"14713","name":"Leipzig, Stadt","type":"Kreisfreie_Stadt"},"federalState":{"key":"14","name":"Sachsen"}},{"name":"Campestr.","postalCode":"04229","locality":"Leipzig","municipality":{"key":"14713000","name":"Leipzig, Stadt","type":"Kreisfreie_Stadt"},"district":{"key":"14713","name":"Leipzig, Stadt","type":"Kreisfreie_Stadt"},"federalState":{"key":"14","name":"Sachsen"}},{"name":"Cannaweg","postalCode":"04318","locality":"Leipzig","municipality":{"key":"14713000","name":"Leipzig, Stadt","type":"Kreisfreie_Stadt"},"district":{"key":"14713","name":"Leipzig, Stadt","type":"Kreisfreie_Stadt"},"federalState":{"key":"14","name":"Sachsen"}},{"name":"Carlebachstr.","postalCode":"04357","locality":"Leipzig","municipality":{"key":"14713000","name":"Leipzig, Stadt","type":"Kreisfreie_Stadt"},"district":{"key":"14713","name":"Leipzig, Stadt","type":"Kreisfreie_Stadt"},"federalState":{"key":"14","name":"Sachsen"}},{"name":"Carl-Hinné-Str.","postalCode":"04178","locality":"Leipzig","municipality":{"key":"14713000","name":"Leipzig, Stadt","type":"Kreisfreie_Stadt"},"district":{"key":"14713","name":"Leipzig, Stadt","type":"Kreisfreie_Stadt"},"federalState":{"key":"14","name":"Sachsen"}},{"name":"Carl-Maria-von-Weber-Str.","postalCode":"04109","locality":"Leipzig","municipality":{"key":"14713000","name":"Leipzig, Stadt","type":"Kreisfreie_Stadt"},"district":{"key":"14713","name":"Leipzig, Stadt","type":"Kreisfreie_Stadt"},"federalState":{"key":"14","name":"Sachsen"}},{"name":"Carl-Meyer-Str.","postalCode":"04178","locality":"Leipzig","municipality":{"key":"14713000","name":"Leipzig, Stadt","type":"Kreisfreie_Stadt"},"district":{"key":"14713","name":"Leipzig, Stadt","type":"Kreisfreie_Stadt"},"federalState":{"key":"14","name":"Sachsen"}},{"name":"Carl-Munde-Str.","postalCode":"04288","locality":"Leipzig","municipality":{"key":"14713000","name":"Leipzig, Stadt","type":"Kreisfreie_Stadt"},"district":{"key":"14713","name":"Leipzig, Stadt","type":"Kreisfreie_Stadt"},"federalState":{"key":"14","name":"Sachsen"}},{"name":"Carl-Weichelt-Str.","postalCode":"04249","locality":"Leipzig","municipality":{"key":"14713000","name":"Leipzig, Stadt","type":"Kreisfreie_Stadt"},"district":{"key":"14713","name":"Leipzig, Stadt","type":"Kreisfreie_Stadt"},"federalState":{"key":"14","name":"Sachsen"}},{"name":"Carpzovstr.","postalCode":"04317","locality":"Leipzig","municipality":{"key":"14713000","name":"Leipzig, Stadt","type":"Kreisfreie_Stadt"},"district":{"key":"14713","name":"Leipzig, Stadt","type":"Kreisfreie_Stadt"},"federalState":{"key":"14","name":"Sachsen"}},{"name":"Carusbrücke","postalCode":"04109","locality":"Leipzig","municipality":{"key":"14713000","name":"Leipzig, Stadt","type":"Kreisfreie_Stadt"},"district":{"key":"14713","name":"Leipzig, Stadt","type":"Kreisfreie_Stadt"},"federalState":{"key":"14","name":"Sachsen"}},{"name":"Cervantesweg","postalCode":"04289","locality":"Leipzig","municipality":{"key":"14713000","name":"Leipzig, Stadt","type":"Kreisfreie_Stadt"},"district":{"key":"14713","name":"Leipzig, Stadt","type":"Kreisfreie_Stadt"},"federalState":{"key":"14","name":"Sachsen"}},{"name":"Cézanneweg","postalCode":"04289","locality":"Leipzig","municipality":{"key":"14713000","name":"Leipzig, Stadt","type":"Kreisfreie_Stadt"},"district":{"key":"14713","name":"Leipzig, Stadt","type":"Kreisfreie_Stadt"},"federalState":{"key":"14","name":"Sachsen"}},{"name":"Charlottenstr.","postalCode":"04317","locality":"Leipzig","municipality":{"key":"14713000","name":"Leipzig, Stadt","type":"Kreisfreie_Stadt"},"district":{"key":"14713","name":"Leipzig, Stadt","type":"Kreisfreie_Stadt"},"federalState":{"key":"14","name":"Sachsen"}},{"name":"Charlottenweg","postalCode":"04159","locality":"Leipzig","municipality":{"key":"14713000","name":"Leipzig, Stadt","type":"Kreisfreie_Stadt"},"district":{"key":"14713","name":"Leipzig, Stadt","type":"Kreisfreie_Stadt"},"federalState":{"key":"14","name":"Sachsen"}},{"name":"Chemnitzer Str.","postalCode":"04289","locality":"Leipzig","municipality":{"key":"14713000","name":"Leipzig, Stadt","type":"Kreisfreie_Stadt"},"district":{"key":"14713","name":"Leipzig, Stadt","type":"Kreisfreie_Stadt"},"federalState":{"key":"14","name":"Sachsen"}},{"name":"Cheruskerstr.","postalCode":"04299","locality":"Leipzig","municipality":{"key":"14713000","name":"Leipzig, Stadt","type":"Kreisfreie_Stadt"},"district":{"key":"14713","name":"Leipzig, Stadt","type":"Kreisfreie_Stadt"},"federalState":{"key":"14","name":"Sachsen"}},{"name":"Chopinstr.","postalCode":"04103","locality":"Leipzig","municipality":{"key":"14713000","name":"Leipzig, Stadt","type":"Kreisfreie_Stadt"},"district":{"key":"14713","name":"Leipzig, Stadt","type":"Kreisfreie_Stadt"},"federalState":{"key":"14","name":"Sachsen"}},{"name":"Christian-Ferkel-Str.","postalCode":"04159","locality":"Leipzig","municipality":{"key":"14713000","name":"Leipzig, Stadt","type":"Kreisfreie_Stadt"},"district":{"key":"14713","name":"Leipzig, Stadt","type":"Kreisfreie_Stadt"},"federalState":{"key":"14","name":"Sachsen"}},{"name":"Christian-Grunert-Str.","postalCode":"04288","locality":"Leipzig","municipality":{"key":"14713000","name":"Leipzig, Stadt","type":"Kreisfreie_Stadt"},"district":{"key":"14713","name":"Leipzig, Stadt","type":"Kreisfreie_Stadt"},"federalState":{"key":"14","name":"Sachsen"}},{"name":"Christian-Schmid-Str.","postalCode":"04319","locality":"Leipzig","municipality":{"key":"14713000","name":"Leipzig, Stadt","type":"Kreisfreie_Stadt"},"district":{"key":"14713","name":"Leipzig, Stadt","type":"Kreisfreie_Stadt"},"federalState":{"key":"14","name":"Sachsen"}},{"name":"Christianstr.","postalCode":"04105","locality":"Leipzig","municipality":{"key":"14713000","name":"Leipzig, Stadt","type":"Kreisfreie_Stadt"},"district":{"key":"14713","name":"Leipzig, Stadt","type":"Kreisfreie_Stadt"},"federalState":{"key":"14","name":"Sachsen"}},{"name":"Christian-Wille-Weg","postalCode":"04316","locality":"Leipzig","municipality":{"key":"14713000","name":"Leipzig, Stadt","type":"Kreisfreie_Stadt"},"district":{"key":"14713","name":"Leipzig, Stadt","type":"Kreisfreie_Stadt"},"federalState":{"key":"14","name":"Sachsen"}},{"name":"Christoph-Probst-Str.","postalCode":"04159","locality":"Leipzig","municipality":{"key":"14713000","name":"Leipzig, Stadt","type":"Kreisfreie_Stadt"},"district":{"key":"14713","name":"Leipzig, Stadt","type":"Kreisfreie_Stadt"},"federalState":{"key":"14","name":"Sachsen"}},{"name":"Christoph-Schubert-Str.","postalCode":"04158","locality":"Leipzig","municipality":{"key":"14713000","name":"Leipzig, Stadt","type":"Kreisfreie_Stadt"},"district":{"key":"14713","name":"Leipzig, Stadt","type":"Kreisfreie_Stadt"},"federalState":{"key":"14","name":"Sachsen"}},{"name":"Chrysanthemenweg","postalCode":"04318","locality":"Leipzig","municipality":{"key":"14713000","name":"Leipzig, Stadt","type":"Kreisfreie_Stadt"},"district":{"key":"14713","name":"Leipzig, Stadt","type":"Kreisfreie_Stadt"},"federalState":{"key":"14","name":"Sachsen"}},{"name":"Cichoriusstr.","postalCode":"04318","locality":"Leipzig","municipality":{"key":"14713000","name":"Leipzig, Stadt","type":"Kreisfreie_Stadt"},"district":{"key":"14713","name":"Leipzig, Stadt","type":"Kreisfreie_Stadt"},"federalState":{"key":"14","name":"Sachsen"}},{"name":"Clara-Wieck-Str.","postalCode":"04347","locality":"Leipzig","municipality":{"key":"14713000","name":"Leipzig, Stadt","type":"Kreisfreie_Stadt"},"district":{"key":"14713","name":"Leipzig, Stadt","type":"Kreisfreie_Stadt"},"federalState":{"key":"14","name":"Sachsen"}},{"name":"Clara-Zetkin-Str.","postalCode":"04178","locality":"Leipzig","municipality":{"key":"14713000","name":"Leipzig, Stadt","type":"Kreisfreie_Stadt"},"district":{"key":"14713","name":"Leipzig, Stadt","type":"Kreisfreie_Stadt"},"federalState":{"key":"14","name":"Sachsen"}},{"name":"Claudiusstr.","postalCode":"04157","locality":"Leipzig","municipality":{"key":"14713000","name":"Leipzig, Stadt","type":"Kreisfreie_Stadt"},"district":{"key":"14713","name":"Leipzig, Stadt","type":"Kreisfreie_Stadt"},"federalState":{"key":"14","name":"Sachsen"}},{"name":"Clausewitzstr.","postalCode":"04159","locality":"Leipzig","municipality":{"key":"14713000","name":"Leipzig, Stadt","type":"Kreisfreie_Stadt"},"district":{"key":"14713","name":"Leipzig, Stadt","type":"Kreisfreie_Stadt"},"federalState":{"key":"14","name":"Sachsen"}},{"name":"Claußbruchstr.","postalCode":"04159","locality":"Leipzig","municipality":{"key":"14713000","name":"Leipzig, Stadt","type":"Kreisfreie_Stadt"},"district":{"key":"14713","name":"Leipzig, Stadt","type":"Kreisfreie_Stadt"},"federalState":{"key":"14","name":"Sachsen"}},{"name":"Clemens-Thieme-Str.","postalCode":"04288","locality":"Leipzig","municipality":{"key":"14713000","name":"Leipzig, Stadt","type":"Kreisfreie_Stadt"},"district":{"key":"14713","name":"Leipzig, Stadt","type":"Kreisfreie_Stadt"},"federalState":{"key":"14","name":"Sachsen"}},{"name":"Cletzener Weg","postalCode":"04129","locality":"Leipzig","municipality":{"key":"14713000","name":"Leipzig, Stadt","type":"Kreisfreie_Stadt"},"district":{"key":"14713","name":"Leipzig, Stadt","type":"Kreisfreie_Stadt"},"federalState":{"key":"14","name":"Sachsen"}},{"name":"Cleudner Str.","postalCode":"04349","locality":"Leipzig","municipality":{"key":"14713000","name":"Leipzig, Stadt","type":"Kreisfreie_Stadt"},"district":{"key":"14713","name":"Leipzig, Stadt","type":"Kreisfreie_Stadt"},"federalState":{"key":"14","name":"Sachsen"}},{"name":"Coblenzer Str.","postalCode":"04109","locality":"Leipzig","municipality":{"key":"14713000","name":"Leipzig, Stadt","type":"Kreisfreie_Stadt"},"district":{"key":"14713","name":"Leipzig, Stadt","type":"Kreisfreie_Stadt"},"federalState":{"key":"14","name":"Sachsen"}},{"name":"Cocciusstr.","postalCode":"04249","locality":"Leipzig","municipality":{"key":"14713000","name":"Leipzig, Stadt","type":"Kreisfreie_Stadt"},"district":{"key":"14713","name":"Leipzig, Stadt","type":"Kreisfreie_Stadt"},"federalState":{"key":"14","name":"Sachsen"}},{"name":"Cohnheimstr.","postalCode":"04289","locality":"Leipzig","municipality":{"key":"14713000","name":"Leipzig, Stadt","type":"Kreisfreie_Stadt"},"district":{"key":"14713","name":"Leipzig, Stadt","type":"Kreisfreie_Stadt"},"federalState":{"key":"14","name":"Sachsen"}},{"name":"Colberger Weg","postalCode":"04207","locality":"Leipzig","municipality":{"key":"14713000","name":"Leipzig, Stadt","type":"Kreisfreie_Stadt"},"district":{"key":"14713","name":"Leipzig, Stadt","type":"Kreisfreie_Stadt"},"federalState":{"key":"14","name":"Sachsen"}},{"name":"Colmbergsiedlung","postalCode":"04288","locality":"Leipzig","municipality":{"key":"14713000","name":"Leipzig, Stadt","type":"Kreisfreie_Stadt"},"district":{"key":"14713","name":"Leipzig, Stadt","type":"Kreisfreie_Stadt"},"federalState":{"key":"14","name":"Sachsen"}},{"name":"Colmblick","postalCode":"04288","locality":"Leipzig","municipality":{"key":"14713000","name":"Leipzig, Stadt","type":"Kreisfreie_Stadt"},"district":{"key":"14713","name":"Leipzig, Stadt","type":"Kreisfreie_Stadt"},"federalState":{"key":"14","name":"Sachsen"}},{"name":"Comeniusstr.","postalCode":"04315","locality":"Leipzig","municipality":{"key":"14713000","name":"Leipzig, Stadt","type":"Kreisfreie_Stadt"},"district":{"key":"14713","name":"Leipzig, Stadt","type":"Kreisfreie_Stadt"},"federalState":{"key":"14","name":"Sachsen"}},{"name":"Connewitzer Str.","postalCode":"04289","locality":"Leipzig","municipality":{"key":"14713000","name":"Leipzig, Stadt","type":"Kreisfreie_Stadt"},"district":{"key":"14713","name":"Leipzig, Stadt","type":"Kreisfreie_Stadt"},"federalState":{"key":"14","name":"Sachsen"}},{"name":"Coppiplatz","postalCode":"04157","locality":"Leipzig","municipality":{"key":"14713000","name":"Leipzig, Stadt","type":"Kreisfreie_Stadt"},"district":{"key":"14713","name":"Leipzig, Stadt","type":"Kreisfreie_Stadt"},"federalState":{"key":"14","name":"Sachsen"}},{"name":"Coppistr.","postalCode":"04129","locality":"Leipzig","municipality":{"key":"14713000","name":"Leipzig, Stadt","type":"Kreisfreie_Stadt"},"district":{"key":"14713","name":"Leipzig, Stadt","type":"Kreisfreie_Stadt"},"federalState":{"key":"14","name":"Sachsen"}},{"name":"Coppistr.","postalCode":"04157","locality":"Leipzig","municipality":{"key":"14713000","name":"Leipzig, Stadt","type":"Kreisfreie_Stadt"},"district":{"key":"14713","name":"Leipzig, Stadt","type":"Kreisfreie_Stadt"},"federalState":{"key":"14","name":"Sachsen"}},{"name":"Corinthstr.","postalCode":"04157","locality":"Leipzig","municipality":{"key":"14713000","name":"Leipzig, Stadt","type":"Kreisfreie_Stadt"},"district":{"key":"14713","name":"Leipzig, Stadt","type":"Kreisfreie_Stadt"},"federalState":{"key":"14","name":"Sachsen"}},{"name":"Dorfstr.","postalCode":"04668","locality":"Otterwisch","municipality":{"key":"14729330","name":"Otterwisch","type":"Kreisangehörige_Gemeinde"},"district":{"key":"14729","name":"Leipzig","type":"Landkreis"},"federalState":{"key":"14","name":"Sachsen"}},{"name":"Ebenholzweg","postalCode":"04178","locality":"Leipzig","municipality":{"key":"14713000","name":"Leipzig, Stadt","type":"Kreisfreie_Stadt"},"district":{"key":"14713","name":"Leipzig, Stadt","type":"Kreisfreie_Stadt"},"federalState":{"key":"14","name":"Sachsen"}},{"name":"Ebereschenweg","postalCode":"04158","locality":"Leipzig","municipality":{"key":"14713000","name":"Leipzig, Stadt","type":"Kreisfreie_Stadt"},"district":{"key":"14713","name":"Leipzig, Stadt","type":"Kreisfreie_Stadt"},"federalState":{"key":"14","name":"Sachsen"}},{"name":"Eberlestr.","postalCode":"04319","locality":"Leipzig","municipality":{"key":"14713000","name":"Leipzig, Stadt","type":"Kreisfreie_Stadt"},"district":{"key":"14713","name":"Leipzig, Stadt","type":"Kreisfreie_Stadt"},"federalState":{"key":"14","name":"Sachsen"}},{"name":"Eberpfad","postalCode":"04249","locality":"Leipzig","municipality":{"key":"14713000","name":"Leipzig, Stadt","type":"Kreisfreie_Stadt"},"district":{"key":"14713","name":"Leipzig, Stadt","type":"Kreisfreie_Stadt"},"federalState":{"key":"14","name":"Sachsen"}},{"name":"Ecksteinstr.","postalCode":"04277","locality":"Leipzig","municipality":{"key":"14713000","name":"Leipzig, Stadt","type":"Kreisfreie_Stadt"},"district":{"key":"14713","name":"Leipzig, Stadt","type":"Kreisfreie_Stadt"},"federalState":{"key":"14","name":"Sachsen"}},{"name":"Edisonstr.","postalCode":"04319","locality":"Leipzig","municipality":{"key":"14713000","name":"Leipzig, Stadt","type":"Kreisfreie_Stadt"},"district":{"key":"14713","name":"Leipzig, Stadt","type":"Kreisfreie_Stadt"},"federalState":{"key":"14","name":"Sachsen"}},{"name":"Edlichstr.","postalCode":"04315","locality":"Leipzig","municipality":{"key":"14713000","name":"Leipzig, Stadt","type":"Kreisfreie_Stadt"},"district":{"key":"14713","name":"Leipzig, Stadt","type":"Kreisfreie_Stadt"},"federalState":{"key":"14","name":"Sachsen"}},{"name":"Edmond-Kaiser-Str.","postalCode":"04158","locality":"Leipzig","municipality":{"key":"14713000","name":"Leipzig, Stadt","type":"Kreisfreie_Stadt"},"district":{"key":"14713","name":"Leipzig, Stadt","type":"Kreisfreie_Stadt"},"federalState":{"key":"14","name":"Sachsen"}},{"name":"Edmond-Kaiser-Str.","postalCode":"04159","locality":"Leipzig","municipality":{"key":"14713000","name":"Leipzig, Stadt","type":"Kreisfreie_Stadt"},"district":{"key":"14713","name":"Leipzig, Stadt","type":"Kreisfreie_Stadt"},"federalState":{"key":"14","name":"Sachsen"}},{"name":"Eduardstr.","postalCode":"04229","locality":"Leipzig","municipality":{"key":"14713000","name":"Leipzig, Stadt","type":"Kreisfreie_Stadt"},"district":{"key":"14713","name":"Leipzig, Stadt","type":"Kreisfreie_Stadt"},"federalState":{"key":"14","name":"Sachsen"}},{"name":"Eduard-von-Hartmann-Str.","postalCode":"04157","locality":"Leipzig","municipality":{"key":"14713000","name":"Leipzig, Stadt","type":"Kreisfreie_Stadt"},"district":{"key":"14713","name":"Leipzig, Stadt","type":"Kreisfreie_Stadt"},"federalState":{"key":"14","name":"Sachsen"}},{"name":"Edvard-Grieg-Allee","postalCode":"04109","locality":"Leipzig","municipality":{"key":"14713000","name":"Leipzig, Stadt","type":"Kreisfreie_Stadt"},"district":{"key":"14713","name":"Leipzig, Stadt","type":"Kreisfreie_Stadt"},"federalState":{"key":"14","name":"Sachsen"}},{"name":"Eferdinger Str.","postalCode":"04349","locality":"Leipzig","municipality":{"key":"14713000","name":"Leipzig, Stadt","type":"Kreisfreie_Stadt"},"district":{"key":"14713","name":"Leipzig, Stadt","type":"Kreisfreie_Stadt"},"federalState":{"key":"14","name":"Sachsen"}},{"name":"Egelstr.","postalCode":"04103","locality":"Leipzig","municipality":{"key":"14713000","name":"Leipzig, Stadt","type":"Kreisfreie_Stadt"},"district":{"key":"14713","name":"Leipzig, Stadt","type":"Kreisfreie_Stadt"},"federalState":{"key":"14","name":"Sachsen"}},{"name":"Egon-Erwin-Kisch-Weg","postalCode":"04299","locality":"Leipzig","municipality":{"key":"14713000","name":"Leipzig, Stadt","type":"Kreisfreie_Stadt"},"district":{"key":"14713","name":"Leipzig, Stadt","type":"Kreisfreie_Stadt"},"federalState":{"key":"14","name":"Sachsen"}},{"name":"ehem. Westplatz","postalCode":"04109","locality":"Leipzig","municipality":{"key":"14713000","name":"Leipzig, Stadt","type":"Kreisfreie_Stadt"},"district":{"key":"14713","name":"Leipzig, Stadt","type":"Kreisfreie_Stadt"},"federalState":{"key":"14","name":"Sachsen"}},{"name":"Ehrenberger Str.","postalCode":"04178","locality":"Leipzig","municipality":{"key":"14713000","name":"Leipzig, Stadt","type":"Kreisfreie_Stadt"},"district":{"key":"14713","name":"Leipzig, Stadt","type":"Kreisfreie_Stadt"},"federalState":{"key":"14","name":"Sachsen"}},{"name":"Ehrensteinstr.","postalCode":"04105","locality":"Leipzig","municipality":{"key":"14713000","name":"Leipzig, Stadt","type":"Kreisfreie_Stadt"},"district":{"key":"14713","name":"Leipzig, Stadt","type":"Kreisfreie_Stadt"},"federalState":{"key":"14","name":"Sachsen"}},{"name":"Eibenweg","postalCode":"04316","locality":"Leipzig","municipality":{"key":"14713000","name":"Leipzig, Stadt","type":"Kreisfreie_Stadt"},"district":{"key":"14713","name":"Leipzig, Stadt","type":"Kreisfreie_Stadt"},"federalState":{"key":"14","name":"Sachsen"}},{"name":"Eichbergstr.","postalCode":"04349","locality":"Leipzig","municipality":{"key":"14713000","name":"Leipzig, Stadt","type":"Kreisfreie_Stadt"},"district":{"key":"14713","name":"Leipzig, Stadt","type":"Kreisfreie_Stadt"},"federalState":{"key":"14","name":"Sachsen"}},{"name":"Eichelbaumstr.","postalCode":"04249","locality":"Leipzig","municipality":{"key":"14713000","name":"Leipzig, Stadt","type":"Kreisfreie_Stadt"},"district":{"key":"14713","name":"Leipzig, Stadt","type":"Kreisfreie_Stadt"},"federalState":{"key":"14","name":"Sachsen"}},{"name":"Eichendorffstr.","postalCode":"04277","locality":"Leipzig","municipality":{"key":"14713000","name":"Leipzig, Stadt","type":"Kreisfreie_Stadt"},"district":{"key":"14713","name":"Leipzig, Stadt","type":"Kreisfreie_Stadt"},"federalState":{"key":"14","name":"Sachsen"}},{"name":"Eichlerstr.","postalCode":"04317","locality":"Leipzig","municipality":{"key":"14713000","name":"Leipzig, Stadt","type":"Kreisfreie_Stadt"},"district":{"key":"14713","name":"Leipzig, Stadt","type":"Kreisfreie_Stadt"},"federalState":{"key":"14","name":"Sachsen"}},{"name":"Eidechsenweg","postalCode":"04299","locality":"Leipzig","municipality":{"key":"14713000","name":"Leipzig, Stadt","type":"Kreisfreie_Stadt"},"district":{"key":"14713","name":"Leipzig, Stadt","type":"Kreisfreie_Stadt"},"federalState":{"key":"14","name":"Sachsen"}},{"name":"Eidechsenweg","postalCode":"04329","locality":"Leipzig","municipality":{"key":"14713000","name":"Leipzig, Stadt","type":"Kreisfreie_Stadt"},"district":{"key":"14713","name":"Leipzig, Stadt","type":"Kreisfreie_Stadt"},"federalState":{"key":"14","name":"Sachsen"}},{"name":"Eigene Scholle","postalCode":"04178","locality":"Leipzig","municipality":{"key":"14713000","name":"Leipzig, Stadt","type":"Kreisfreie_Stadt"},"district":{"key":"14713","name":"Leipzig, Stadt","type":"Kreisfreie_Stadt"},"federalState":{"key":"14","name":"Sachsen"}},{"name":"Eigenheimstr.","postalCode":"04279","locality":"Leipzig","municipality":{"key":"14713000","name":"Leipzig, Stadt","type":"Kreisfreie_Stadt"},"district":{"key":"14713","name":"Leipzig, Stadt","type":"Kreisfreie_Stadt"},"federalState":{"key":"14","name":"Sachsen"}},{"name":"Eilenburger Str.","postalCode":"04317","locality":"Leipzig","municipality":{"key":"14713000","name":"Leipzig, Stadt","type":"Kreisfreie_Stadt"},"district":{"key":"14713","name":"Leipzig, Stadt","type":"Kreisfreie_Stadt"},"federalState":{"key":"14","name":"Sachsen"}},{"name":"Einertstr.","postalCode":"04315","locality":"Leipzig","municipality":{"key":"14713000","name":"Leipzig, Stadt","type":"Kreisfreie_Stadt"},"district":{"key":"14713","name":"Leipzig, Stadt","type":"Kreisfreie_Stadt"},"federalState":{"key":"14","name":"Sachsen"}},{"name":"Einsteinstr.","postalCode":"04229","locality":"Leipzig","municipality":{"key":"14713000","name":"Leipzig, Stadt","type":"Kreisfreie_Stadt"},"district":{"key":"14713","name":"Leipzig, Stadt","type":"Kreisfreie_Stadt"},"federalState":{"key":"14","name":"Sachsen"}},{"name":"Eisenacher Str.","postalCode":"04155","locality":"Leipzig","municipality":{"key":"14713000","name":"Leipzig, Stadt","type":"Kreisfreie_Stadt"},"district":{"key":"14713","name":"Leipzig, Stadt","type":"Kreisfreie_Stadt"},"federalState":{"key":"14","name":"Sachsen"}},{"name":"Eisenbahnstr.","postalCode":"04315","locality":"Leipzig","municipality":{"key":"14713000","name":"Leipzig, Stadt","type":"Kreisfreie_Stadt"},"district":{"key":"14713","name":"Leipzig, Stadt","type":"Kreisfreie_Stadt"},"federalState":{"key":"14","name":"Sachsen"}},{"name":"Eisenberger Ring","postalCode":"04205","locality":"Leipzig","municipality":{"key":"14713000","name":"Leipzig, Stadt","type":"Kreisfreie_Stadt"},"district":{"key":"14713","name":"Leipzig, Stadt","type":"Kreisfreie_Stadt"},"federalState":{"key":"14","name":"Sachsen"}},{"name":"Eisenschmidtplatz","postalCode":"04288","locality":"Leipzig","municipality":{"key":"14713000","name":"Leipzig, Stadt","type":"Kreisfreie_Stadt"},"district":{"key":"14713","name":"Leipzig, Stadt","type":"Kreisfreie_Stadt"},"federalState":{"key":"14","name":"Sachsen"}},{"name":"Eisvogelweg","postalCode":"04129","locality":"Leipzig","municipality":{"key":"14713000","name":"Leipzig, Stadt","type":"Kreisfreie_Stadt"},"district":{"key":"14713","name":"Leipzig, Stadt","type":"Kreisfreie_Stadt"},"federalState":{"key":"14","name":"Sachsen"}},{"name":"Eisvogelweg","postalCode":"04318","locality":"Leipzig","municipality":{"key":"14713000","name":"Leipzig, Stadt","type":"Kreisfreie_Stadt"},"district":{"key":"14713","name":"Leipzig, Stadt","type":"Kreisfreie_Stadt"},"federalState":{"key":"14","name":"Sachsen"}},{"name":"Eitingonstr.","postalCode":"04105","locality":"Leipzig","municipality":{"key":"14713000","name":"Leipzig, Stadt","type":"Kreisfreie_Stadt"},"district":{"key":"14713","name":"Leipzig, Stadt","type":"Kreisfreie_Stadt"},"federalState":{"key":"14","name":"Sachsen"}},{"name":"Elche","postalCode":"04277","locality":"Leipzig","municipality":{"key":"14713000","name":"Leipzig, Stadt","type":"Kreisfreie_Stadt"},"district":{"key":"14713","name":"Leipzig, Stadt","type":"Kreisfreie_Stadt"},"federalState":{"key":"14","name":"Sachsen"}},{"name":"Elchweg","postalCode":"04249","locality":"Leipzig","municipality":{"key":"14713000","name":"Leipzig, Stadt","type":"Kreisfreie_Stadt"},"district":{"key":"14713","name":"Leipzig, Stadt","type":"Kreisfreie_Stadt"},"federalState":{"key":"14","name":"Sachsen"}},{"name":"Elfenweg","postalCode":"04277","locality":"Leipzig","municipality":{"key":"14713000","name":"Leipzig, Stadt","type":"Kreisfreie_Stadt"},"district":{"key":"14713","name":"Leipzig, Stadt","type":"Kreisfreie_Stadt"},"federalState":{"key":"14","name":"Sachsen"}},{"name":"Elisabeth-Schumacher-Str.","postalCode":"04328","locality":"Leipzig","municipality":{"key":"14713000","name":"Leipzig, Stadt","type":"Kreisfreie_Stadt"},"district":{"key":"14713","name":"Leipzig, Stadt","type":"Kreisfreie_Stadt"},"federalState":{"key":"14","name":"Sachsen"}},{"name":"Elisabethstr.","postalCode":"04315","locality":"Leipzig","municipality":{"key":"14713000","name":"Leipzig, Stadt","type":"Kreisfreie_Stadt"},"district":{"key":"14713","name":"Leipzig, Stadt","type":"Kreisfreie_Stadt"},"federalState":{"key":"14","name":"Sachsen"}},{"name":"Ellernweg","postalCode":"04179","locality":"Leipzig","municipality":{"key":"14713000","name":"Leipzig, Stadt","type":"Kreisfreie_Stadt"},"district":{"key":"14713","name":"Leipzig, Stadt","type":"Kreisfreie_Stadt"},"federalState":{"key":"14","name":"Sachsen"}},{"name":"Elli-Voigt-Str.","postalCode":"04159","locality":"Leipzig","municipality":{"key":"14713000","name":"Leipzig, Stadt","type":"Kreisfreie_Stadt"},"district":{"key":"14713","name":"Leipzig, Stadt","type":"Kreisfreie_Stadt"},"federalState":{"key":"14","name":"Sachsen"}},{"name":"Elsa-Brändström-Str.","postalCode":"04347","locality":"Leipzig","municipality":{"key":"14713000","name":"Leipzig, Stadt","type":"Kreisfreie_Stadt"},"district":{"key":"14713","name":"Leipzig, Stadt","type":"Kreisfreie_Stadt"},"federalState":{"key":"14","name":"Sachsen"}},{"name":"Elsapark","postalCode":"04315","locality":"Leipzig","municipality":{"key":"14713000","name":"Leipzig, Stadt","type":"Kreisfreie_Stadt"},"district":{"key":"14713","name":"Leipzig, Stadt","type":"Kreisfreie_Stadt"},"federalState":{"key":"14","name":"Sachsen"}},{"name":"Elsastr.","postalCode":"04315","locality":"Leipzig","municipality":{"key":"14713000","name":"Leipzig, Stadt","type":"Kreisfreie_Stadt"},"district":{"key":"14713","name":"Leipzig, Stadt","type":"Kreisfreie_Stadt"},"federalState":{"key":"14","name":"Sachsen"}},{"name":"Elsbethstr.","postalCode":"04155","locality":"Leipzig","municipality":{"key":"14713000","name":"Leipzig, Stadt","type":"Kreisfreie_Stadt"},"district":{"key":"14713","name":"Leipzig, Stadt","type":"Kreisfreie_Stadt"},"federalState":{"key":"14","name":"Sachsen"}},{"name":"Elsteraue","postalCode":"04159","locality":"Leipzig","municipality":{"key":"14713000","name":"Leipzig, Stadt","type":"Kreisfreie_Stadt"},"district":{"key":"14713","name":"Leipzig, Stadt","type":"Kreisfreie_Stadt"},"federalState":{"key":"14","name":"Sachsen"}},{"name":"Elsterberg","postalCode":"04159","locality":"Leipzig","municipality":{"key":"14713000","name":"Leipzig, Stadt","type":"Kreisfreie_Stadt"},"district":{"key":"14713","name":"Leipzig, Stadt","type":"Kreisfreie_Stadt"},"federalState":{"key":"14","name":"Sachsen"}},{"name":"Fabrikstr.","postalCode":"04178","locality":"Leipzig","municipality":{"key":"14713000","name":"Leipzig, Stadt","type":"Kreisfreie_Stadt"},"district":{"key":"14713","name":"Leipzig, Stadt","type":"Kreisfreie_Stadt"},"federalState":{"key":"14","name":"Sachsen"}},{"name":"Falkensteinstr.","postalCode":"04249","locality":"Leipzig","municipality":{"key":"14713000","name":"Leipzig, Stadt","type":"Kreisfreie_Stadt"},"district":{"key":"14713","name":"Leipzig, Stadt","type":"Kreisfreie_Stadt"},"federalState":{"key":"14","name":"Sachsen"}},{"name":"Falkenweg","postalCode":"04129","locality":"Leipzig","municipality":{"key":"14713000","name":"Leipzig, Stadt","type":"Kreisfreie_Stadt"},"district":{"key":"14713","name":"Leipzig, Stadt","type":"Kreisfreie_Stadt"},"federalState":{"key":"14","name":"Sachsen"}},{"name":"Falkenweg","postalCode":"04155","locality":"Leipzig","municipality":{"key":"14713000","name":"Leipzig, Stadt","type":"Kreisfreie_Stadt"},"district":{"key":"14713","name":"Leipzig, Stadt","type":"Kreisfreie_Stadt"},"federalState":{"key":"14","name":"Sachsen"}},{"name":"Falkenweg","postalCode":"04178","locality":"Leipzig","municipality":{"key":"14713000","name":"Leipzig, Stadt","type":"Kreisfreie_Stadt"},"district":{"key":"14713","name":"Leipzig, Stadt","type":"Kreisfreie_Stadt"},"federalState":{"key":"14","name":"Sachsen"}},{"name":"Falkenweg","postalCode":"04279","locality":"Leipzig","municipality":{"key":"14713000","name":"Leipzig, Stadt","type":"Kreisfreie_Stadt"},"district":{"key":"14713","name":"Leipzig, Stadt","type":"Kreisfreie_Stadt"},"federalState":{"key":"14","name":"Sachsen"}},{"name":"Falkenweg","postalCode":"04318","locality":"Leipzig","municipality":{"key":"14713000","name":"Leipzig, Stadt","type":"Kreisfreie_Stadt"},"district":{"key":"14713","name":"Leipzig, Stadt","type":"Kreisfreie_Stadt"},"federalState":{"key":"14","name":"Sachsen"}},{"name":"Falladabrücke","postalCode":"04159","locality":"Leipzig","municipality":{"key":"14713000","name":"Leipzig, Stadt","type":"Kreisfreie_Stadt"},"district":{"key":"14713","name":"Leipzig, Stadt","type":"Kreisfreie_Stadt"},"federalState":{"key":"14","name":"Sachsen"}},{"name":"Falladastr.","postalCode":"04159","locality":"Leipzig","municipality":{"key":"14713000","name":"Leipzig, Stadt","type":"Kreisfreie_Stadt"},"district":{"key":"14713","name":"Leipzig, Stadt","type":"Kreisfreie_Stadt"},"federalState":{"key":"14","name":"Sachsen"}},{"name":"Falterstr.","postalCode":"04329","locality":"Leipzig","municipality":{"key":"14713000","name":"Leipzig, Stadt","type":"Kreisfreie_Stadt"},"district":{"key":"14713","name":"Leipzig, Stadt","type":"Kreisfreie_Stadt"},"federalState":{"key":"14","name":"Sachsen"}},{"name":"Faradaystr.","postalCode":"04159","locality":"Leipzig","municipality":{"key":"14713000","name":"Leipzig, Stadt","type":"Kreisfreie_Stadt"},"district":{"key":"14713","name":"Leipzig, Stadt","type":"Kreisfreie_Stadt"},"federalState":{"key":"14","name":"Sachsen"}},{"name":"Färberstr.","postalCode":"04105","locality":"Leipzig","municipality":{"key":"14713000","name":"Leipzig, Stadt","type":"Kreisfreie_Stadt"},"district":{"key":"14713","name":"Leipzig, Stadt","type":"Kreisfreie_Stadt"},"federalState":{"key":"14","name":"Sachsen"}},{"name":"Färberstr.","postalCode":"04109","locality":"Leipzig","municipality":{"key":"14713000","name":"Leipzig, Stadt","type":"Kreisfreie_Stadt"},"district":{"key":"14713","name":"Leipzig, Stadt","type":"Kreisfreie_Stadt"},"federalState":{"key":"14","name":"Sachsen"}},{"name":"Farnweg","postalCode":"04357","locality":"Leipzig","municipality":{"key":"14713000","name":"Leipzig, Stadt","type":"Kreisfreie_Stadt"},"district":{"key":"14713","name":"Leipzig, Stadt","type":"Kreisfreie_Stadt"},"federalState":{"key":"14","name":"Sachsen"}},{"name":"Fasanenhöhe","postalCode":"04288","locality":"Leipzig","municipality":{"key":"14713000","name":"Leipzig, Stadt","type":"Kreisfreie_Stadt"},"district":{"key":"14713","name":"Leipzig, Stadt","type":"Kreisfreie_Stadt"},"federalState":{"key":"14","name":"Sachsen"}},{"name":"Fasanenhügel","postalCode":"04316","locality":"Leipzig","municipality":{"key":"14713000","name":"Leipzig, Stadt","type":"Kreisfreie_Stadt"},"district":{"key":"14713","name":"Leipzig, Stadt","type":"Kreisfreie_Stadt"},"federalState":{"key":"14","name":"Sachsen"}},{"name":"Fasanenpfad","postalCode":"04249","locality":"Leipzig","municipality":{"key":"14713000","name":"Leipzig, Stadt","type":"Kreisfreie_Stadt"},"district":{"key":"14713","name":"Leipzig, Stadt","type":"Kreisfreie_Stadt"},"federalState":{"key":"14","name":"Sachsen"}},{"name":"Fasanenweg","postalCode":"04155","locality":"Leipzig","municipality":{"key":"14713000","name":"Leipzig, Stadt","type":"Kreisfreie_Stadt"},"district":{"key":"14713","name":"Leipzig, Stadt","type":"Kreisfreie_Stadt"},"federalState":{"key":"14","name":"Sachsen"}},{"name":"Fasanenweg","postalCode":"04289","locality":"Leipzig","municipality":{"key":"14713000","name":"Leipzig, Stadt","type":"Kreisfreie_Stadt"},"district":{"key":"14713","name":"Leipzig, Stadt","type":"Kreisfreie_Stadt"},"federalState":{"key":"14","name":"Sachsen"}},{"name":"Fasanenweg","postalCode":"04316","locality":"Leipzig","municipality":{"key":"14713000","name":"Leipzig, Stadt","type":"Kreisfreie_Stadt"},"district":{"key":"14713","name":"Leipzig, Stadt","type":"Kreisfreie_Stadt"},"federalState":{"key":"14","name":"Sachsen"}},{"name":"Fechnerstr.","postalCode":"04155","locality":"Leipzig","municipality":{"key":"14713000","name":"Leipzig, Stadt","type":"Kreisfreie_Stadt"},"district":{"key":"14713","name":"Leipzig, Stadt","type":"Kreisfreie_Stadt"},"federalState":{"key":"14","name":"Sachsen"}},{"name":"Fehmarner Str.","postalCode":"04159","locality":"Leipzig","municipality":{"key":"14713000","name":"Leipzig, Stadt","type":"Kreisfreie_Stadt"},"district":{"key":"14713","name":"Leipzig, Stadt","type":"Kreisfreie_Stadt"},"federalState":{"key":"14","name":"Sachsen"}},{"name":"Feldahornweg","postalCode":"04158","locality":"Leipzig","municipality":{"key":"14713000","name":"Leipzig, Stadt","type":"Kreisfreie_Stadt"},"district":{"key":"14713","name":"Leipzig, Stadt","type":"Kreisfreie_Stadt"},"federalState":{"key":"14","name":"Sachsen"}},{"name":"Feldblumenweg","postalCode":"04207","locality":"Leipzig","municipality":{"key":"14713000","name":"Leipzig, Stadt","type":"Kreisfreie_Stadt"},"district":{"key":"14713","name":"Leipzig, Stadt","type":"Kreisfreie_Stadt"},"federalState":{"key":"14","name":"Sachsen"}},{"name":"Feldhasenweg","postalCode":"04329","locality":"Leipzig","municipality":{"key":"14713000","name":"Leipzig, Stadt","type":"Kreisfreie_Stadt"},"district":{"key":"14713","name":"Leipzig, Stadt","type":"Kreisfreie_Stadt"},"federalState":{"key":"14","name":"Sachsen"}},{"name":"Feldlerchenweg","postalCode":"04178","locality":"Leipzig","municipality":{"key":"14713000","name":"Leipzig, Stadt","type":"Kreisfreie_Stadt"},"district":{"key":"14713","name":"Leipzig, Stadt","type":"Kreisfreie_Stadt"},"federalState":{"key":"14","name":"Sachsen"}},{"name":"Feldstr.","postalCode":"04288","locality":"Leipzig","municipality":{"key":"14713000","name":"Leipzig, Stadt","type":"Kreisfreie_Stadt"},"district":{"key":"14713","name":"Leipzig, Stadt","type":"Kreisfreie_Stadt"},"federalState":{"key":"14","name":"Sachsen"}},{"name":"Feldstr.","postalCode":"04289","locality":"Leipzig","municipality":{"key":"14713000","name":"Leipzig, Stadt","type":"Kreisfreie_Stadt"},"district":{"key":"14713","name":"Leipzig, Stadt","type":"Kreisfreie_Stadt"},"federalState":{"key":"14","name":"Sachsen"}},{"name":"Felsenbirnenstr.","postalCode":"04329","locality":"Leipzig","municipality":{"key":"14713000","name":"Leipzig, Stadt","type":"Kreisfreie_Stadt"},"district":{"key":"14713","name":"Leipzig, Stadt","type":"Kreisfreie_Stadt"},"federalState":{"key":"14","name":"Sachsen"}},{"name":"Felsenkellerstr.","postalCode":"04177","locality":"Leipzig","municipality":{"key":"14713000","name":"Leipzig, Stadt","type":"Kreisfreie_Stadt"},"district":{"key":"14713","name":"Leipzig, Stadt","type":"Kreisfreie_Stadt"},"federalState":{"key":"14","name":"Sachsen"}},{"name":"Fenchelweg","postalCode":"04158","locality":"Leipzig","municipality":{"key":"14713000","name":"Leipzig, Stadt","type":"Kreisfreie_Stadt"},"district":{"key":"14713","name":"Leipzig, Stadt","type":"Kreisfreie_Stadt"},"federalState":{"key":"14","name":"Sachsen"}},{"name":"Ferdinand-Freiligrath-Str.","postalCode":"04158","locality":"Leipzig","municipality":{"key":"14713000","name":"Leipzig, Stadt","type":"Kreisfreie_Stadt"},"district":{"key":"14713","name":"Leipzig, Stadt","type":"Kreisfreie_Stadt"},"federalState":{"key":"14","name":"Sachsen"}},{"name":"Ferdinand-Gruner-Str.","postalCode":"04158","locality":"Leipzig","municipality":{"key":"14713000","name":"Leipzig, Stadt","type":"Kreisfreie_Stadt"},"district":{"key":"14713","name":"Leipzig, Stadt","type":"Kreisfreie_Stadt"},"federalState":{"key":"14","name":"Sachsen"}},{"name":"Ferdinand-Jost-Str.","postalCode":"04299","locality":"Leipzig","municipality":{"key":"14713000","name":"Leipzig, Stadt","type":"Kreisfreie_Stadt"},"district":{"key":"14713","name":"Leipzig, Stadt","type":"Kreisfreie_Stadt"},"federalState":{"key":"14","name":"Sachsen"}},{"name":"Ferdinand-Lassalle-Str.","postalCode":"04109","locality":"Leipzig","municipality":{"key":"14713000","name":"Leipzig, Stadt","type":"Kreisfreie_Stadt"},"district":{"key":"14713","name":"Leipzig, Stadt","type":"Kreisfreie_Stadt"},"federalState":{"key":"14","name":"Sachsen"}},{"name":"Ferdinand-Rhode-Str.","postalCode":"04107","locality":"Leipzig","municipality":{"key":"14713000","name":"Leipzig, Stadt","type":"Kreisfreie_Stadt"},"district":{"key":"14713","name":"Leipzig, Stadt","type":"Kreisfreie_Stadt"},"federalState":{"key":"14","name":"Sachsen"}},{"name":"Festplatz","postalCode":"04288","locality":"Leipzig","municipality":{"key":"14713000","name":"Leipzig, Stadt","type":"Kreisfreie_Stadt"},"district":{"key":"14713","name":"Leipzig, Stadt","type":"Kreisfreie_Stadt"},"federalState":{"key":"14","name":"Sachsen"}},{"name":"Festplatz KGV \"Kultur\"","postalCode":"04318","locality":"Leipzig","municipality":{"key":"14713000","name":"Leipzig, Stadt","type":"Kreisfreie_Stadt"},"district":{"key":"14713","name":"Leipzig, Stadt","type":"Kreisfreie_Stadt"},"federalState":{"key":"14","name":"Sachsen"}},{"name":"Feuchtwangerstr.","postalCode":"04349","locality":"Leipzig","municipality":{"key":"14713000","name":"Leipzig, Stadt","type":"Kreisfreie_Stadt"},"district":{"key":"14713","name":"Leipzig, Stadt","type":"Kreisfreie_Stadt"},"federalState":{"key":"14","name":"Sachsen"}},{"name":"Feuerbachstr.","postalCode":"04105","locality":"Leipzig","municipality":{"key":"14713000","name":"Leipzig, Stadt","type":"Kreisfreie_Stadt"},"district":{"key":"14713","name":"Leipzig, Stadt","type":"Kreisfreie_Stadt"},"federalState":{"key":"14","name":"Sachsen"}},{"name":"Feuerbachweg","postalCode":"04328","locality":"Leipzig","municipality":{"key":"14713000","name":"Leipzig, Stadt","type":"Kreisfreie_Stadt"},"district":{"key":"14713","name":"Leipzig, Stadt","type":"Kreisfreie_Stadt"},"federalState":{"key":"14","name":"Sachsen"}},{"name":"Fichtenstr.","postalCode":"04316","locality":"Leipzig","municipality":{"key":"14713000","name":"Leipzig, Stadt","type":"Kreisfreie_Stadt"},"district":{"key":"14713","name":"Leipzig, Stadt","type":"Kreisfreie_Stadt"},"federalState":{"key":"14","name":"Sachsen"}},{"name":"Fichtesiedlung","postalCode":"04158","locality":"Leipzig","municipality":{"key":"14713000","name":"Leipzig, Stadt","type":"Kreisfreie_Stadt"},"district":{"key":"14713","name":"Leipzig, Stadt","type":"Kreisfreie_Stadt"},"federalState":{"key":"14","name":"Sachsen"}},{"name":"Fichtestr.","postalCode":"04275","locality":"Leipzig","municipality":{"key":"14713000","name":"Leipzig, Stadt","type":"Kreisfreie_Stadt"},"district":{"key":"14713","name":"Leipzig, Stadt","type":"Kreisfreie_Stadt"},"federalState":{"key":"14","name":"Sachsen"}},{"name":"Finkengrund","postalCode":"04158","locality":"Leipzig","municipality":{"key":"14713000","name":"Leipzig, Stadt","type":"Kreisfreie_Stadt"},"district":{"key":"14713","name":"Leipzig, Stadt","type":"Kreisfreie_Stadt"},"federalState":{"key":"14","name":"Sachsen"}},{"name":"Finkensteig","postalCode":"04159","locality":"Leipzig","municipality":{"key":"14713000","name":"Leipzig, Stadt","type":"Kreisfreie_Stadt"},"district":{"key":"14713","name":"Leipzig, Stadt","type":"Kreisfreie_Stadt"},"federalState":{"key":"14","name":"Sachsen"}},{"name":"Finkenweg","postalCode":"04129","locality":"Leipzig","municipality":{"key":"14713000","name":"Leipzig, Stadt","type":"Kreisfreie_Stadt"},"district":{"key":"14713","name":"Leipzig, Stadt","type":"Kreisfreie_Stadt"},"federalState":{"key":"14","name":"Sachsen"}},{"name":"Finkenweg","postalCode":"04155","locality":"Leipzig","municipality":{"key":"14713000","name":"Leipzig, Stadt","type":"Kreisfreie_Stadt"},"district":{"key":"14713","name":"Leipzig, Stadt","type":"Kreisfreie_Stadt"},"federalState":{"key":"14","name":"Sachsen"}},{"name":"Finkenweg","postalCode":"04159","locality":"Leipzig","municipality":{"key":"14713000","name":"Leipzig, Stadt","type":"Kreisfreie_Stadt"},"district":{"key":"14713","name":"Leipzig, Stadt","type":"Kreisfreie_Stadt"},"federalState":{"key":"14","name":"Sachsen"}},{"name":"Finkenweg","postalCode":"04179","locality":"Leipzig","municipality":{"key":"14713000","name":"Leipzig, Stadt","type":"Kreisfreie_Stadt"},"district":{"key":"14713","name":"Leipzig, Stadt","type":"Kreisfreie_Stadt"},"federalState":{"key":"14","name":"Sachsen"}},{"name":"Gartenstr.","postalCode":"04668","locality":"Otterwisch","municipality":{"key":"14729330","name":"Otterwisch","type":"Kreisangehörige_Gemeinde"},"district":{"key":"14729","name":"Leipzig","type":"Landkreis"},"federalState":{"key":"14","name":"Sachsen"}},{"name":"Grethener Allee","postalCode":"04668","locality":"Otterwisch","municipality":{"key":"14729330","name":"Otterwisch","type":"Kreisangehörige_Gemeinde"},"district":{"key":"14729","name":"Leipzig","type":"Landkreis"},"federalState":{"key":"14","name":"Sachsen"}},{"name":"Großbucher Str.","postalCode":"04668","locality":"Otterwisch","municipality":{"key":"14729330","name":"Otterwisch","type":"Kreisangehörige_Gemeinde"},"district":{"key":"14729","name":"Leipzig","type":"Landkreis"},"federalState":{"key":"14","name":"Sachsen"}},{"name":"Hauptstr.","postalCode":"04668","locality":"Otterwisch","municipality":{"key":"14729330","name":"Otterwisch","type":"Kreisangehörige_Gemeinde"},"district":{"key":"14729","name":"Leipzig","type":"Landkreis"},"federalState":{"key":"14","name":"Sachsen"}},{"name":"Hintere Dorfstr.","postalCode":"04668","locality":"Otterwisch","municipality":{"key":"14729330","name":"Otterwisch","type":"Kreisangehörige_Gemeinde"},"district":{"key":"14729","name":"Leipzig","type":"Landkreis"},"federalState":{"key":"14","name":"Sachsen"}},{"name":"Idastr.","postalCode":"04315","locality":"Leipzig","municipality":{"key":"14713000","name":"Leipzig, Stadt","type":"Kreisfreie_Stadt"},"district":{"key":"14713","name":"Leipzig, Stadt","type":"Kreisfreie_Stadt"},"federalState":{"key":"14","name":"Sachsen"}},{"name":"Idunweg","postalCode":"04349","locality":"Leipzig","municipality":{"key":"14713000","name":"Leipzig, Stadt","type":"Kreisfreie_Stadt"},"district":{"key":"14713","name":"Leipzig, Stadt","type":"Kreisfreie_Stadt"},"federalState":{"key":"14","name":"Sachsen"}},{"name":"Igelstr.","postalCode":"04329","locality":"Leipzig","municipality":{"key":"14713000","name":"Leipzig, Stadt","type":"Kreisfreie_Stadt"},"district":{"key":"14713","name":"Leipzig, Stadt","type":"Kreisfreie_Stadt"},"federalState":{"key":"14","name":"Sachsen"}},{"name":"Igelweg","postalCode":"04279","locality":"Leipzig","municipality":{"key":"14713000","name":"Leipzig, Stadt","type":"Kreisfreie_Stadt"},"district":{"key":"14713","name":"Leipzig, Stadt","type":"Kreisfreie_Stadt"},"federalState":{"key":"14","name":"Sachsen"}},{"name":"Igelweg","postalCode":"04316","locality":"Leipzig","municipality":{"key":"14713000","name":"Leipzig, Stadt","type":"Kreisfreie_Stadt"},"district":{"key":"14713","name":"Leipzig, Stadt","type":"Kreisfreie_Stadt"},"federalState":{"key":"14","name":"Sachsen"}},{"name":"Ihmelsstr.","postalCode":"04315","locality":"Leipzig","municipality":{"key":"14713000","name":"Leipzig, Stadt","type":"Kreisfreie_Stadt"},"district":{"key":"14713","name":"Leipzig, Stadt","type":"Kreisfreie_Stadt"},"federalState":{"key":"14","name":"Sachsen"}},{"name":"Ilmenauer Weg","postalCode":"04205","locality":"Leipzig","municipality":{"key":"14713000","name":"Leipzig, Stadt","type":"Kreisfreie_Stadt"},"district":{"key":"14713","name":"Leipzig, Stadt","type":"Kreisfreie_Stadt"},"federalState":{"key":"14","name":"Sachsen"}},{"name":"Ilse-Decho-Weg","postalCode":"04319","locality":"Leipzig","municipality":{"key":"14713000","name":"Leipzig, Stadt","type":"Kreisfreie_Stadt"},"district":{"key":"14713","name":"Leipzig, Stadt","type":"Kreisfreie_Stadt"},"federalState":{"key":"14","name":"Sachsen"}},{"name":"Iltispfad","postalCode":"04249","locality":"Leipzig","municipality":{"key":"14713000","name":"Leipzig, Stadt","type":"Kreisfreie_Stadt"},"district":{"key":"14713","name":"Leipzig, Stadt","type":"Kreisfreie_Stadt"},"federalState":{"key":"14","name":"Sachsen"}},{"name":"Im Birkengrund","postalCode":"04288","locality":"Leipzig","municipality":{"key":"14713000","name":"Leipzig, Stadt","type":"Kreisfreie_Stadt"},"district":{"key":"14713","name":"Leipzig, Stadt","type":"Kreisfreie_Stadt"},"federalState":{"key":"14","name":"Sachsen"}},{"name":"Im Blumengrund","postalCode":"04319","locality":"Leipzig","municipality":{"key":"14713000","name":"Leipzig, Stadt","type":"Kreisfreie_Stadt"},"district":{"key":"14713","name":"Leipzig, Stadt","type":"Kreisfreie_Stadt"},"federalState":{"key":"14","name":"Sachsen"}},{"name":"Im Dölitzer Holz","postalCode":"04279","locality":"Leipzig","municipality":{"key":"14713000","name":"Leipzig, Stadt","type":"Kreisfreie_Stadt"},"district":{"key":"14713","name":"Leipzig, Stadt","type":"Kreisfreie_Stadt"},"federalState":{"key":"14","name":"Sachsen"}},{"name":"Im Limburgerpark","postalCode":"04279","locality":"Leipzig","municipality":{"key":"14713000","name":"Leipzig, Stadt","type":"Kreisfreie_Stadt"},"district":{"key":"14713","name":"Leipzig, Stadt","type":"Kreisfreie_Stadt"},"federalState":{"key":"14","name":"Sachsen"}},{"name":"Im Lindengrund","postalCode":"04288","locality":"Leipzig","municipality":{"key":"14713000","name":"Leipzig, Stadt","type":"Kreisfreie_Stadt"},"district":{"key":"14713","name":"Leipzig, Stadt","type":"Kreisfreie_Stadt"},"federalState":{"key":"14","name":"Sachsen"}},{"name":"Immenstr.","postalCode":"04249","locality":"Leipzig","municipality":{"key":"14713000","name":"Leipzig, Stadt","type":"Kreisfreie_Stadt"},"district":{"key":"14713","name":"Leipzig, Stadt","type":"Kreisfreie_Stadt"},"federalState":{"key":"14","name":"Sachsen"}},{"name":"Immischweg","postalCode":"04279","locality":"Leipzig","municipality":{"key":"14713000","name":"Leipzig, Stadt","type":"Kreisfreie_Stadt"},"district":{"key":"14713","name":"Leipzig, Stadt","type":"Kreisfreie_Stadt"},"federalState":{"key":"14","name":"Sachsen"}},{"name":"Im Tannengrund","postalCode":"04288","locality":"Leipzig","municipality":{"key":"14713000","name":"Leipzig, Stadt","type":"Kreisfreie_Stadt"},"district":{"key":"14713","name":"Leipzig, Stadt","type":"Kreisfreie_Stadt"},"federalState":{"key":"14","name":"Sachsen"}},{"name":"Im Weidengrund","postalCode":"04288","locality":"Leipzig","municipality":{"key":"14713000","name":"Leipzig, Stadt","type":"Kreisfreie_Stadt"},"district":{"key":"14713","name":"Leipzig, Stadt","type":"Kreisfreie_Stadt"},"federalState":{"key":"14","name":"Sachsen"}},{"name":"Im Winkel","postalCode":"04178","locality":"Leipzig","municipality":{"key":"14713000","name":"Leipzig, Stadt","type":"Kreisfreie_Stadt"},"district":{"key":"14713","name":"Leipzig, Stadt","type":"Kreisfreie_Stadt"},"federalState":{"key":"14","name":"Sachsen"}},{"name":"Im Zipfel","postalCode":"04159","locality":"Leipzig","municipality":{"key":"14713000","name":"Leipzig, Stadt","type":"Kreisfreie_Stadt"},"district":{"key":"14713","name":"Leipzig, Stadt","type":"Kreisfreie_Stadt"},"federalState":{"key":"14","name":"Sachsen"}},{"name":"Industriestr.","postalCode":"04229","locality":"Leipzig","municipality":{"key":"14713000","name":"Leipzig, Stadt","type":"Kreisfreie_Stadt"},"district":{"key":"14713","name":"Leipzig, Stadt","type":"Kreisfreie_Stadt"},"federalState":{"key":"14","name":"Sachsen"}},{"name":"Ingwerweg","postalCode":"04158","locality":"Leipzig","municipality":{"key":"14713000","name":"Leipzig, Stadt","type":"Kreisfreie_Stadt"},"district":{"key":"14713","name":"Leipzig, Stadt","type":"Kreisfreie_Stadt"},"federalState":{"key":"14","name":"Sachsen"}},{"name":"Innenring","postalCode":"04158","locality":"Leipzig","municipality":{"key":"14713000","name":"Leipzig, Stadt","type":"Kreisfreie_Stadt"},"district":{"key":"14713","name":"Leipzig, Stadt","type":"Kreisfreie_Stadt"},"federalState":{"key":"14","name":"Sachsen"}},{"name":"Inselstr.","postalCode":"04103","locality":"Leipzig","municipality":{"key":"14713000","name":"Leipzig, Stadt","type":"Kreisfreie_Stadt"},"district":{"key":"14713","name":"Leipzig, Stadt","type":"Kreisfreie_Stadt"},"federalState":{"key":"14","name":"Sachsen"}},{"name":"Irisweg","postalCode":"04157","locality":"Leipzig","municipality":{"key":"14713000","name":"Leipzig, Stadt","type":"Kreisfreie_Stadt"},"district":{"key":"14713","name":"Leipzig, Stadt","type":"Kreisfreie_Stadt"},"federalState":{"key":"14","name":"Sachsen"}},{"name":"Italiaanderstr.","postalCode":"04349","locality":"Leipzig","municipality":{"key":"14713000","name":"Leipzig, Stadt","type":"Kreisfreie_Stadt"},"district":{"key":"14713","name":"Leipzig, Stadt","type":"Kreisfreie_Stadt"},"federalState":{"key":"14","name":"Sachsen"}},{"name":"Jack-London-Weg","postalCode":"04289","locality":"Leipzig","municipality":{"key":"14713000","name":"Leipzig, Stadt","type":"Kreisfreie_Stadt"},"district":{"key":"14713","name":"Leipzig, Stadt","type":"Kreisfreie_Stadt"},"federalState":{"key":"14","name":"Sachsen"}},{"name":"Jacobstr.","postalCode":"04105","locality":"Leipzig","municipality":{"key":"14713000","name":"Leipzig, Stadt","type":"Kreisfreie_Stadt"},"district":{"key":"14713","name":"Leipzig, Stadt","type":"Kreisfreie_Stadt"},"federalState":{"key":"14","name":"Sachsen"}},{"name":"Jadassohnstr.","postalCode":"04179","locality":"Leipzig","municipality":{"key":"14713000","name":"Leipzig, Stadt","type":"Kreisfreie_Stadt"},"district":{"key":"14713","name":"Leipzig, Stadt","type":"Kreisfreie_Stadt"},"federalState":{"key":"14","name":"Sachsen"}},{"name":"Jadebogen","postalCode":"04319","locality":"Leipzig","municipality":{"key":"14713000","name":"Leipzig, Stadt","type":"Kreisfreie_Stadt"},"district":{"key":"14713","name":"Leipzig, Stadt","type":"Kreisfreie_Stadt"},"federalState":{"key":"14","name":"Sachsen"}},{"name":"Jägerhofpassage","postalCode":"04109","locality":"Leipzig","municipality":{"key":"14713000","name":"Leipzig, Stadt","type":"Kreisfreie_Stadt"},"district":{"key":"14713","name":"Leipzig, Stadt","type":"Kreisfreie_Stadt"},"federalState":{"key":"14","name":"Sachsen"}},{"name":"Jägerstr.","postalCode":"04157","locality":"Leipzig","municipality":{"key":"14713000","name":"Leipzig, Stadt","type":"Kreisfreie_Stadt"},"district":{"key":"14713","name":"Leipzig, Stadt","type":"Kreisfreie_Stadt"},"federalState":{"key":"14","name":"Sachsen"}},{"name":"Jahnallee","postalCode":"04109","locality":"Leipzig","municipality":{"key":"14713000","name":"Leipzig, Stadt","type":"Kreisfreie_Stadt"},"district":{"key":"14713","name":"Leipzig, Stadt","type":"Kreisfreie_Stadt"},"federalState":{"key":"14","name":"Sachsen"}},{"name":"Jahnallee","postalCode":"04177","locality":"Leipzig","municipality":{"key":"14713000","name":"Leipzig, Stadt","type":"Kreisfreie_Stadt"},"district":{"key":"14713","name":"Leipzig, Stadt","type":"Kreisfreie_Stadt"},"federalState":{"key":"14","name":"Sachsen"}},{"name":"Jahnstr.","postalCode":"04288","locality":"Leipzig","municipality":{"key":"14713000","name":"Leipzig, Stadt","type":"Kreisfreie_Stadt"},"district":{"key":"14713","name":"Leipzig, Stadt","type":"Kreisfreie_Stadt"},"federalState":{"key":"14","name":"Sachsen"}},{"name":"Jahnweg","postalCode":"04319","locality":"Leipzig","municipality":{"key":"14713000","name":"Leipzig, Stadt","type":"Kreisfreie_Stadt"},"district":{"key":"14713","name":"Leipzig, Stadt","type":"Kreisfreie_Stadt"},"federalState":{"key":"14","name":"Sachsen"}},{"name":"Jahrtausendfeld","postalCode":"04177","locality":"Leipzig","municipality":{"key":"14713000","name":"Leipzig, Stadt","type":"Kreisfreie_Stadt"},"district":{"key":"14713","name":"Leipzig, Stadt","type":"Kreisfreie_Stadt"},"federalState":{"key":"14","name":"Sachsen"}},{"name":"Jakobiwinkel","postalCode":"04178","locality":"Leipzig","municipality":{"key":"14713000","name":"Leipzig, Stadt","type":"Kreisfreie_Stadt"},"district":{"key":"14713","name":"Leipzig, Stadt","type":"Kreisfreie_Stadt"},"federalState":{"key":"14","name":"Sachsen"}},{"name":"Jasminweg","postalCode":"04318","locality":"Leipzig","municipality":{"key":"14713000","name":"Leipzig, Stadt","type":"Kreisfreie_Stadt"},"district":{"key":"14713","name":"Leipzig, Stadt","type":"Kreisfreie_Stadt"},"federalState":{"key":"14","name":"Sachsen"}},{"name":"Jaspisstr.","postalCode":"04319","locality":"Leipzig","municipality":{"key":"14713000","name":"Leipzig, Stadt","type":"Kreisfreie_Stadt"},"district":{"key":"14713","name":"Leipzig, Stadt","type":"Kreisfreie_Stadt"},"federalState":{"key":"14","name":"Sachsen"}},{"name":"J.-C.-Hinrichs-Str.","postalCode":"04315","locality":"Leipzig","municipality":{"key":"14713000","name":"Leipzig, Stadt","type":"Kreisfreie_Stadt"},"district":{"key":"14713","name":"Leipzig, Stadt","type":"Kreisfreie_Stadt"},"federalState":{"key":"14","name":"Sachsen"}},{"name":"Joachim-Gottschalk-Weg","postalCode":"04289","locality":"Leipzig","municipality":{"key":"14713000","name":"Leipzig, Stadt","type":"Kreisfreie_Stadt"},"district":{"key":"14713","name":"Leipzig, Stadt","type":"Kreisfreie_Stadt"},"federalState":{"key":"14","name":"Sachsen"}},{"name":"Jöcherstr.","postalCode":"04318","locality":"Leipzig","municipality":{"key":"14713000","name":"Leipzig, Stadt","type":"Kreisfreie_Stadt"},"district":{"key":"14713","name":"Leipzig, Stadt","type":"Kreisfreie_Stadt"},"federalState":{"key":"14","name":"Sachsen"}},{"name":"Johann-Adolf-Str.","postalCode":"04279","locality":"Leipzig","municipality":{"key":"14713000","name":"Leipzig, Stadt","type":"Kreisfreie_Stadt"},"district":{"key":"14713","name":"Leipzig, Stadt","type":"Kreisfreie_Stadt"},"federalState":{"key":"14","name":"Sachsen"}},{"name":"Johannastr.","postalCode":"04279","locality":"Leipzig","municipality":{"key":"14713000","name":"Leipzig, Stadt","type":"Kreisfreie_Stadt"},"district":{"key":"14713","name":"Leipzig, Stadt","type":"Kreisfreie_Stadt"},"federalState":{"key":"14","name":"Sachsen"}},{"name":"Johannes-Kärner-Str.","postalCode":"04328","locality":"Leipzig","municipality":{"key":"14713000","name":"Leipzig, Stadt","type":"Kreisfreie_Stadt"},"district":{"key":"14713","name":"Leipzig, Stadt","type":"Kreisfreie_Stadt"},"federalState":{"key":"14","name":"Sachsen"}},{"name":"Johannes-R.-Becher-Str.","postalCode":"04279","locality":"Leipzig","municipality":{"key":"14713000","name":"Leipzig, Stadt","type":"Kreisfreie_Stadt"},"district":{"key":"14713","name":"Leipzig, Stadt","type":"Kreisfreie_Stadt"},"federalState":{"key":"14","name":"Sachsen"}},{"name":"Johannes-Weyrauch-Platz","postalCode":"04178","locality":"Leipzig","municipality":{"key":"14713000","name":"Leipzig, Stadt","type":"Kreisfreie_Stadt"},"district":{"key":"14713","name":"Leipzig, Stadt","type":"Kreisfreie_Stadt"},"federalState":{"key":"14","name":"Sachsen"}},{"name":"Johannisallee","postalCode":"04103","locality":"Leipzig","municipality":{"key":"14713000","name":"Leipzig, Stadt","type":"Kreisfreie_Stadt"},"district":{"key":"14713","name":"Leipzig, Stadt","type":"Kreisfreie_Stadt"},"federalState":{"key":"14","name":"Sachsen"}},{"name":"Johannisallee","postalCode":"04317","locality":"Leipzig","municipality":{"key":"14713000","name":"Leipzig, Stadt","type":"Kreisfreie_Stadt"},"district":{"key":"14713","name":"Leipzig, Stadt","type":"Kreisfreie_Stadt"},"federalState":{"key":"14","name":"Sachsen"}},{"name":"Johannisgasse","postalCode":"04103","locality":"Leipzig","municipality":{"key":"14713000","name":"Leipzig, Stadt","type":"Kreisfreie_Stadt"},"district":{"key":"14713","name":"Leipzig, Stadt","type":"Kreisfreie_Stadt"},"federalState":{"key":"14","name":"Sachsen"}},{"name":"Johannishöhe","postalCode":"04279","locality":"Leipzig","municipality":{"key":"14713000","name":"Leipzig, Stadt","type":"Kreisfreie_Stadt"},"district":{"key":"14713","name":"Leipzig, Stadt","type":"Kreisfreie_Stadt"},"federalState":{"key":"14","name":"Sachsen"}},{"name":"Johannisplatz","postalCode":"04103","locality":"Leipzig","municipality":{"key":"14713000","name":"Leipzig, Stadt","type":"Kreisfreie_Stadt"},"district":{"key":"14713","name":"Leipzig, Stadt","type":"Kreisfreie_Stadt"},"federalState":{"key":"14","name":"Sachsen"}},{"name":"Johann-Jakob-Weber-Platz","postalCode":"04299","locality":"Leipzig","municipality":{"key":"14713000","name":"Leipzig, Stadt","type":"Kreisfreie_Stadt"},"district":{"key":"14713","name":"Leipzig, Stadt","type":"Kreisfreie_Stadt"},"federalState":{"key":"14","name":"Sachsen"}},{"name":"Johnsonweg","postalCode":"04289","locality":"Leipzig","municipality":{"key":"14713000","name":"Leipzig, Stadt","type":"Kreisfreie_Stadt"},"district":{"key":"14713","name":"Leipzig, Stadt","type":"Kreisfreie_Stadt"},"federalState":{"key":"14","name":"Sachsen"}},{"name":"Jöhstädter Str.","postalCode":"04349","locality":"Leipzig","municipality":{"key":"14713000","name":"Leipzig, Stadt","type":"Kreisfreie_Stadt"},"district":{"key":"14713","name":"Leipzig, Stadt","type":"Kreisfreie_Stadt"},"federalState":{"key":"14","name":"Sachsen"}},{"name":"Jonasstr.","postalCode":"04315","locality":"Leipzig","municipality":{"key":"14713000","name":"Leipzig, Stadt","type":"Kreisfreie_Stadt"},"district":{"key":"14713","name":"Leipzig, Stadt","type":"Kreisfreie_Stadt"},"federalState":{"key":"14","name":"Sachsen"}},{"name":"Jonsdorfer Str.","postalCode":"04207","locality":"Leipzig","municipality":{"key":"14713000","name":"Leipzig, Stadt","type":"Kreisfreie_Stadt"},"district":{"key":"14713","name":"Leipzig, Stadt","type":"Kreisfreie_Stadt"},"federalState":{"key":"14","name":"Sachsen"}},{"name":"Jordanstr.","postalCode":"04177","locality":"Leipzig","municipality":{"key":"14713000","name":"Leipzig, Stadt","type":"Kreisfreie_Stadt"},"district":{"key":"14713","name":"Leipzig, Stadt","type":"Kreisfreie_Stadt"},"federalState":{"key":"14","name":"Sachsen"}},{"name":"Jörgen-Schmidtchen-Weg","postalCode":"04157","locality":"Leipzig","municipality":{"key":"14713000","name":"Leipzig, Stadt","type":"Kreisfreie_Stadt"},"district":{"key":"14713","name":"Leipzig, Stadt","type":"Kreisfreie_Stadt"},"federalState":{"key":"14","name":"Sachsen"}},{"name":"Josephinenstr.","postalCode":"04317","locality":"Leipzig","municipality":{"key":"14713000","name":"Leipzig, Stadt","type":"Kreisfreie_Stadt"},"district":{"key":"14713","name":"Leipzig, Stadt","type":"Kreisfreie_Stadt"},"federalState":{"key":"14","name":"Sachsen"}},{"name":"Josephstr.","postalCode":"04177","locality":"Leipzig","municipality":{"key":"14713000","name":"Leipzig, Stadt","type":"Kreisfreie_Stadt"},"district":{"key":"14713","name":"Leipzig, Stadt","type":"Kreisfreie_Stadt"},"federalState":{"key":"14","name":"Sachsen"}},{"name":"Jouleweg","postalCode":"04299","locality":"Leipzig","municipality":{"key":"14713000","name":"Leipzig, Stadt","type":"Kreisfreie_Stadt"},"district":{"key":"14713","name":"Leipzig, Stadt","type":"Kreisfreie_Stadt"},"federalState":{"key":"14","name":"Sachsen"}},{"name":"Judith-Auer-Str.","postalCode":"04317","locality":"Leipzig","municipality":{"key":"14713000","name":"Leipzig, Stadt","type":"Kreisfreie_Stadt"},"district":{"key":"14713","name":"Leipzig, Stadt","type":"Kreisfreie_Stadt"},"federalState":{"key":"14","name":"Sachsen"}},{"name":"Juister Weg","postalCode":"04157","locality":"Leipzig","municipality":{"key":"14713000","name":"Leipzig, Stadt","type":"Kreisfreie_Stadt"},"district":{"key":"14713","name":"Leipzig, Stadt","type":"Kreisfreie_Stadt"},"federalState":{"key":"14","name":"Sachsen"}},{"name":"Julian-Marchlewski-Str.","postalCode":"04347","locality":"Leipzig","municipality":{"key":"14713000","name":"Leipzig, Stadt","type":"Kreisfreie_Stadt"},"district":{"key":"14713","name":"Leipzig, Stadt","type":"Kreisfreie_Stadt"},"federalState":{"key":"14","name":"Sachsen"}},{"name":"Julius-Krause-Str.","postalCode":"04318","locality":"Leipzig","municipality":{"key":"14713000","name":"Leipzig, Stadt","type":"Kreisfreie_Stadt"},"district":{"key":"14713","name":"Leipzig, Stadt","type":"Kreisfreie_Stadt"},"federalState":{"key":"14","name":"Sachsen"}},{"name":"Juliusstr.","postalCode":"04315","locality":"Leipzig","municipality":{"key":"14713000","name":"Leipzig, Stadt","type":"Kreisfreie_Stadt"},"district":{"key":"14713","name":"Leipzig, Stadt","type":"Kreisfreie_Stadt"},"federalState":{"key":"14","name":"Sachsen"}},{"name":"Jungfernstiege","postalCode":"04159","locality":"Leipzig","municipality":{"key":"14713000","name":"Leipzig, Stadt","type":"Kreisfreie_Stadt"},"district":{"key":"14713","name":"Leipzig, Stadt","type":"Kreisfreie_Stadt"},"federalState":{"key":"14","name":"Sachsen"}},{"name":"Junghanßstr.","postalCode":"04179","locality":"Leipzig","municipality":{"key":"14713000","name":"Leipzig, Stadt","type":"Kreisfreie_Stadt"},"district":{"key":"14713","name":"Leipzig, Stadt","type":"Kreisfreie_Stadt"},"federalState":{"key":"14","name":"Sachsen"}},{"name":"Jupiterstr.","postalCode":"04205","locality":"Leipzig","municipality":{"key":"14713000","name":"Leipzig, Stadt","type":"Kreisfreie_Stadt"},"district":{"key":"14713","name":"Leipzig, Stadt","type":"Kreisfreie_Stadt"},"federalState":{"key":"14","name":"Sachsen"}},{"name":"Jupp-Müller-Str.","postalCode":"04159","locality":"Leipzig","municipality":{"key":"14713000","name":"Leipzig, Stadt","type":"Kreisfreie_Stadt"},"district":{"key":"14713","name":"Leipzig, Stadt","type":"Kreisfreie_Stadt"},"federalState":{"key":"14","name":"Sachsen"}},{"name":"Juridicum-Passage","postalCode":"04109","locality":"Leipzig","municipality":{"key":"14713000","name":"Leipzig, Stadt","type":"Kreisfreie_Stadt"},"district":{"key":"14713","name":"Leipzig, Stadt","type":"Kreisfreie_Stadt"},"federalState":{"key":"14","name":"Sachsen"}},{"name":"Jutta-Hipp-Weg","postalCode":"04289","locality":"Leipzig","municipality":{"key":"14713000","name":"Leipzig, Stadt","type":"Kreisfreie_Stadt"},"district":{"key":"14713","name":"Leipzig, Stadt","type":"Kreisfreie_Stadt"},"federalState":{"key":"14","name":"Sachsen"}},{"name":"Kahlhoffweg","postalCode":"04279","locality":"Leipzig","municipality":{"key":"14713000","name":"Leipzig, Stadt","type":"Kreisfreie_Stadt"},"district":{"key":"14713","name":"Leipzig, Stadt","type":"Kreisfreie_Stadt"},"federalState":{"key":"14","name":"Sachsen"}},{"name":"Kamelpfad","postalCode":"04277","locality":"Leipzig","municipality":{"key":"14713000","name":"Leipzig, Stadt","type":"Kreisfreie_Stadt"},"district":{"key":"14713","name":"Leipzig, Stadt","type":"Kreisfreie_Stadt"},"federalState":{"key":"14","name":"Sachsen"}},{"name":"Kamillenweg","postalCode":"04158","locality":"Leipzig","municipality":{"key":"14713000","name":"Leipzig, Stadt","type":"Kreisfreie_Stadt"},"district":{"key":"14713","name":"Leipzig, Stadt","type":"Kreisfreie_Stadt"},"federalState":{"key":"14","name":"Sachsen"}},{"name":"Kanalstr.","postalCode":"04155","locality":"Leipzig","municipality":{"key":"14713000","name":"Leipzig, Stadt","type":"Kreisfreie_Stadt"},"district":{"key":"14713","name":"Leipzig, Stadt","type":"Kreisfreie_Stadt"},"federalState":{"key":"14","name":"Sachsen"}},{"name":"Kändlerstr.","postalCode":"04207","locality":"Leipzig","municipality":{"key":"14713000","name":"Leipzig, Stadt","type":"Kreisfreie_Stadt"},"district":{"key":"14713","name":"Leipzig, Stadt","type":"Kreisfreie_Stadt"},"federalState":{"key":"14","name":"Sachsen"}},{"name":"Kaninchensteig","postalCode":"04249","locality":"Leipzig","municipality":{"key":"14713000","name":"Leipzig, Stadt","type":"Kreisfreie_Stadt"},"district":{"key":"14713","name":"Leipzig, Stadt","type":"Kreisfreie_Stadt"},"federalState":{"key":"14","name":"Sachsen"}},{"name":"Kaninchenweg","postalCode":"04277","locality":"Leipzig","municipality":{"key":"14713000","name":"Leipzig, Stadt","type":"Kreisfreie_Stadt"},"district":{"key":"14713","name":"Leipzig, Stadt","type":"Kreisfreie_Stadt"},"federalState":{"key":"14","name":"Sachsen"}},{"name":"Kantatenweg","postalCode":"04229","locality":"Leipzig","municipality":{"key":"14713000","name":"Leipzig, Stadt","type":"Kreisfreie_Stadt"},"district":{"key":"14713","name":"Leipzig, Stadt","type":"Kreisfreie_Stadt"},"federalState":{"key":"14","name":"Sachsen"}},{"name":"Kantor-Andrä-Str.","postalCode":"04178","locality":"Leipzig","municipality":{"key":"14713000","name":"Leipzig, Stadt","type":"Kreisfreie_Stadt"},"district":{"key":"14713","name":"Leipzig, Stadt","type":"Kreisfreie_Stadt"},"federalState":{"key":"14","name":"Sachsen"}},{"name":"Kantor-Hase-Str.","postalCode":"04158","locality":"Leipzig","municipality":{"key":"14713000","name":"Leipzig, Stadt","type":"Kreisfreie_Stadt"},"district":{"key":"14713","name":"Leipzig, Stadt","type":"Kreisfreie_Stadt"},"federalState":{"key":"14","name":"Sachsen"}},{"name":"Kantor-Schmidt-Weg","postalCode":"04316","locality":"Leipzig","municipality":{"key":"14713000","name":"Leipzig, Stadt","type":"Kreisfreie_Stadt"},"district":{"key":"14713","name":"Leipzig, Stadt","type":"Kreisfreie_Stadt"},"federalState":{"key":"14","name":"Sachsen"}},{"name":"Kantstr.","postalCode":"04275","locality":"Leipzig","municipality":{"key":"14713000","name":"Leipzig, Stadt","type":"Kreisfreie_Stadt"},"district":{"key":"14713","name":"Leipzig, Stadt","type":"Kreisfreie_Stadt"},"federalState":{"key":"14","name":"Sachsen"}},{"name":"Kapellenstr.","postalCode":"04315","locality":"Leipzig","municipality":{"key":"14713000","name":"Leipzig, Stadt","type":"Kreisfreie_Stadt"},"district":{"key":"14713","name":"Leipzig, Stadt","type":"Kreisfreie_Stadt"},"federalState":{"key":"14","name":"Sachsen"}},{"name":"Kapellenstr.","postalCode":"04317","locality":"Leipzig","municipality":{"key":"14713000","name":"Leipzig, Stadt","type":"Kreisfreie_Stadt"},"district":{"key":"14713","name":"Leipzig, Stadt","type":"Kreisfreie_Stadt"},"federalState":{"key":"14","name":"Sachsen"}},{"name":"Karl-Blechen-Str.","postalCode":"04328","locality":"Leipzig","municipality":{"key":"14713000","name":"Leipzig, Stadt","type":"Kreisfreie_Stadt"},"district":{"key":"14713","name":"Leipzig, Stadt","type":"Kreisfreie_Stadt"},"federalState":{"key":"14","name":"Sachsen"}},{"name":"Karl-Bücher-Str.","postalCode":"04328","locality":"Leipzig","municipality":{"key":"14713000","name":"Leipzig, Stadt","type":"Kreisfreie_Stadt"},"district":{"key":"14713","name":"Leipzig, Stadt","type":"Kreisfreie_Stadt"},"federalState":{"key":"14","name":"Sachsen"}},{"name":"Karl-Ferlemann-Str.","postalCode":"04177","locality":"Leipzig","municipality":{"key":"14713000","name":"Leipzig, Stadt","type":"Kreisfreie_Stadt"},"district":{"key":"14713","name":"Leipzig, Stadt","type":"Kreisfreie_Stadt"},"federalState":{"key":"14","name":"Sachsen"}},{"name":"Karl-Friedrich-Str.","postalCode":"04316","locality":"Leipzig","municipality":{"key":"14713000","name":"Leipzig, Stadt","type":"Kreisfreie_Stadt"},"district":{"key":"14713","name":"Leipzig, Stadt","type":"Kreisfreie_Stadt"},"federalState":{"key":"14","name":"Sachsen"}},{"name":"Karl-Härting-Str.","postalCode":"04318","locality":"Leipzig","municipality":{"key":"14713000","name":"Leipzig, Stadt","type":"Kreisfreie_Stadt"},"district":{"key":"14713","name":"Leipzig, Stadt","type":"Kreisfreie_Stadt"},"federalState":{"key":"14","name":"Sachsen"}},{"name":"Karl-Heft-Str.","postalCode":"04249","locality":"Leipzig","municipality":{"key":"14713000","name":"Leipzig, Stadt","type":"Kreisfreie_Stadt"},"district":{"key":"14713","name":"Leipzig, Stadt","type":"Kreisfreie_Stadt"},"federalState":{"key":"14","name":"Sachsen"}},{"name":"Karl-Heine-Platz","postalCode":"04177","locality":"Leipzig","municipality":{"key":"14713000","name":"Leipzig, Stadt","type":"Kreisfreie_Stadt"},"district":{"key":"14713","name":"Leipzig, Stadt","type":"Kreisfreie_Stadt"},"federalState":{"key":"14","name":"Sachsen"}},{"name":"Karl-Heine-Str.","postalCode":"04229","locality":"Leipzig","municipality":{"key":"14713000","name":"Leipzig, Stadt","type":"Kreisfreie_Stadt"},"district":{"key":"14713","name":"Leipzig, Stadt","type":"Kreisfreie_Stadt"},"federalState":{"key":"14","name":"Sachsen"}},{"name":"Karl-Helbig-Str.","postalCode":"04159","locality":"Leipzig","municipality":{"key":"14713000","name":"Leipzig, Stadt","type":"Kreisfreie_Stadt"},"district":{"key":"14713","name":"Leipzig, Stadt","type":"Kreisfreie_Stadt"},"federalState":{"key":"14","name":"Sachsen"}},{"name":"Karl-Jungbluth-Str.","postalCode":"04279","locality":"Leipzig","municipality":{"key":"14713000","name":"Leipzig, Stadt","type":"Kreisfreie_Stadt"},"district":{"key":"14713","name":"Leipzig, Stadt","type":"Kreisfreie_Stadt"},"federalState":{"key":"14","name":"Sachsen"}},{"name":"Karl-Liebknecht-Str.","postalCode":"04107","locality":"Leipzig","municipality":{"key":"14713000","name":"Leipzig, Stadt","type":"Kreisfreie_Stadt"},"district":{"key":"14713","name":"Leipzig, Stadt","type":"Kreisfreie_Stadt"},"federalState":{"key":"14","name":"Sachsen"}},{"name":"Karl-Liebknecht-Str.","postalCode":"04275","locality":"Leipzig","municipality":{"key":"14713000","name":"Leipzig, Stadt","type":"Kreisfreie_Stadt"},"district":{"key":"14713","name":"Leipzig, Stadt","type":"Kreisfreie_Stadt"},"federalState":{"key":"14","name":"Sachsen"}},{"name":"Karl-Liebknecht-Str.","postalCode":"04277","locality":"Leipzig","municipality":{"key":"14713000","name":"Leipzig, Stadt","type":"Kreisfreie_Stadt"},"district":{"key":"14713","name":"Leipzig, Stadt","type":"Kreisfreie_Stadt"},"federalState":{"key":"14","name":"Sachsen"}},{"name":"Karl-Mannsfeld-Str.","postalCode":"04158","locality":"Leipzig","municipality":{"key":"14713000","name":"Leipzig, Stadt","type":"Kreisfreie_Stadt"},"district":{"key":"14713","name":"Leipzig, Stadt","type":"Kreisfreie_Stadt"},"federalState":{"key":"14","name":"Sachsen"}},{"name":"Karl-Marx-Platz","postalCode":"04158","locality":"Leipzig","municipality":{"key":"14713000","name":"Leipzig, Stadt","type":"Kreisfreie_Stadt"},"district":{"key":"14713","name":"Leipzig, Stadt","type":"Kreisfreie_Stadt"},"federalState":{"key":"14","name":"Sachsen"}},{"name":"Karl-Marx-Str.","postalCode":"04158","locality":"Leipzig","municipality":{"key":"14713000","name":"Leipzig, Stadt","type":"Kreisfreie_Stadt"},"district":{"key":"14713","name":"Leipzig, Stadt","type":"Kreisfreie_Stadt"},"federalState":{"key":"14","name":"Sachsen"}},{"name":"Karl-Moor-Weg","postalCode":"04349","locality":"Leipzig","municipality":{"key":"14713000","name":"Leipzig, Stadt","type":"Kreisfreie_Stadt"},"district":{"key":"14713","name":"Leipzig, Stadt","type":"Kreisfreie_Stadt"},"federalState":{"key":"14","name":"Sachsen"}},{"name":"Karl-Rothe-Str.","postalCode":"04105","locality":"Leipzig","municipality":{"key":"14713000","name":"Leipzig, Stadt","type":"Kreisfreie_Stadt"},"district":{"key":"14713","name":"Leipzig, Stadt","type":"Kreisfreie_Stadt"},"federalState":{"key":"14","name":"Sachsen"}},{"name":"Karl-Schurz-Str.","postalCode":"04179","locality":"Leipzig","municipality":{"key":"14713000","name":"Leipzig, Stadt","type":"Kreisfreie_Stadt"},"district":{"key":"14713","name":"Leipzig, Stadt","type":"Kreisfreie_Stadt"},"federalState":{"key":"14","name":"Sachsen"}},{"name":"Karl-Siegismund-Str.","postalCode":"04317","locality":"Leipzig","municipality":{"key":"14713000","name":"Leipzig, Stadt","type":"Kreisfreie_Stadt"},"district":{"key":"14713","name":"Leipzig, Stadt","type":"Kreisfreie_Stadt"},"federalState":{"key":"14","name":"Sachsen"}},{"name":"Karlsruher Str.","postalCode":"04209","locality":"Leipzig","municipality":{"key":"14713000","name":"Leipzig, Stadt","type":"Kreisfreie_Stadt"},"district":{"key":"14713","name":"Leipzig, Stadt","type":"Kreisfreie_Stadt"},"federalState":{"key":"14","name":"Sachsen"}},{"name":"Karlstädter Str.","postalCode":"04207","locality":"Leipzig","municipality":{"key":"14713000","name":"Leipzig, Stadt","type":"Kreisfreie_Stadt"},"district":{"key":"14713","name":"Leipzig, Stadt","type":"Kreisfreie_Stadt"},"federalState":{"key":"14","name":"Sachsen"}},{"name":"Karlstr.","postalCode":"04316","locality":"Leipzig","municipality":{"key":"14713000","name":"Leipzig, Stadt","type":"Kreisfreie_Stadt"},"district":{"key":"14713","name":"Leipzig, Stadt","type":"Kreisfreie_Stadt"},"federalState":{"key":"14","name":"Sachsen"}},{"name":"Karl-Tauchnitz-Str.","postalCode":"04107","locality":"Leipzig","municipality":{"key":"14713000","name":"Leipzig, Stadt","type":"Kreisfreie_Stadt"},"district":{"key":"14713","name":"Leipzig, Stadt","type":"Kreisfreie_Stadt"},"federalState":{"key":"14","name":"Sachsen"}},{"name":"Karl-Tauchnitz-Str.","postalCode":"04109","locality":"Leipzig","municipality":{"key":"14713000","name":"Leipzig, Stadt","type":"Kreisfreie_Stadt"},"district":{"key":"14713","name":"Leipzig, Stadt","type":"Kreisfreie_Stadt"},"federalState":{"key":"14","name":"Sachsen"}},{"name":"Karl-Tauchnitz-Str.","postalCode":"04275","locality":"Leipzig","municipality":{"key":"14713000","name":"Leipzig, Stadt","type":"Kreisfreie_Stadt"},"district":{"key":"14713","name":"Leipzig, Stadt","type":"Kreisfreie_Stadt"},"federalState":{"key":"14","name":"Sachsen"}},{"name":"Karl-Vogel-Str.","postalCode":"04318","locality":"Leipzig","municipality":{"key":"14713000","name":"Leipzig, Stadt","type":"Kreisfreie_Stadt"},"district":{"key":"14713","name":"Leipzig, Stadt","type":"Kreisfreie_Stadt"},"federalState":{"key":"14","name":"Sachsen"}},{"name":"Karl-Winkler-Str.","postalCode":"04158","locality":"Leipzig","municipality":{"key":"14713000","name":"Leipzig, Stadt","type":"Kreisfreie_Stadt"},"district":{"key":"14713","name":"Leipzig, Stadt","type":"Kreisfreie_Stadt"},"federalState":{"key":"14","name":"Sachsen"}},{"name":"Kärrnerstr.","postalCode":"04288","locality":"Leipzig","municipality":{"key":"14713000","name":"Leipzig, Stadt","type":"Kreisfreie_Stadt"},"district":{"key":"14713","name":"Leipzig, Stadt","type":"Kreisfreie_Stadt"},"federalState":{"key":"14","name":"Sachsen"}},{"name":"Kärrnerweg","postalCode":"04288","locality":"Leipzig","municipality":{"key":"14713000","name":"Leipzig, Stadt","type":"Kreisfreie_Stadt"},"district":{"key":"14713","name":"Leipzig, Stadt","type":"Kreisfreie_Stadt"},"federalState":{"key":"14","name":"Sachsen"}},{"name":"Kasseler Str.","postalCode":"04155","locality":"Leipzig","municipality":{"key":"14713000","name":"Leipzig, Stadt","type":"Kreisfreie_Stadt"},"district":{"key":"14713","name":"Leipzig, Stadt","type":"Kreisfreie_Stadt"},"federalState":{"key":"14","name":"Sachsen"}},{"name":"Kastanienallee","postalCode":"04159","locality":"Leipzig","municipality":{"key":"14713000","name":"Leipzig, Stadt","type":"Kreisfreie_Stadt"},"district":{"key":"14713","name":"Leipzig, Stadt","type":"Kreisfreie_Stadt"},"federalState":{"key":"14","name":"Sachsen"}},{"name":"Kastanienallee","postalCode":"04178","locality":"Leipzig","municipality":{"key":"14713000","name":"Leipzig, Stadt","type":"Kreisfreie_Stadt"},"district":{"key":"14713","name":"Leipzig, Stadt","type":"Kreisfreie_Stadt"},"federalState":{"key":"14","name":"Sachsen"}},{"name":"Kastanienring","postalCode":"04316","locality":"Leipzig","municipality":{"key":"14713000","name":"Leipzig, Stadt","type":"Kreisfreie_Stadt"},"district":{"key":"14713","name":"Leipzig, Stadt","type":"Kreisfreie_Stadt"},"federalState":{"key":"14","name":"Sachsen"}},{"name":"Kastanienstr.","postalCode":"04356","locality":"Leipzig","municipality":{"key":"14713000","name":"Leipzig, Stadt","type":"Kreisfreie_Stadt"},"district":{"key":"14713","name":"Leipzig, Stadt","type":"Kreisfreie_Stadt"},"federalState":{"key":"14","name":"Sachsen"}},{"name":"Kästnerbogen","postalCode":"04349","locality":"Leipzig","municipality":{"key":"14713000","name":"Leipzig, Stadt","type":"Kreisfreie_Stadt"},"district":{"key":"14713","name":"Leipzig, Stadt","type":"Kreisfreie_Stadt"},"federalState":{"key":"14","name":"Sachsen"}},{"name":"Lindenstr.","postalCode":"04668","locality":"Otterwisch","municipality":{"key":"14729330","name":"Otterwisch","type":"Kreisangehörige_Gemeinde"},"district":{"key":"14729","name":"Leipzig","type":"Landkreis"},"federalState":{"key":"14","name":"Sachsen"}},{"name":"Lindners Weg","postalCode":"04668","locality":"Otterwisch","municipality":{"key":"14729330","name":"Otterwisch","type":"Kreisangehörige_Gemeinde"},"district":{"key":"14729","name":"Leipzig","type":"Landkreis"},"federalState":{"key":"14","name":"Sachsen"}},{"name":"Marktweg","postalCode":"04668","locality":"Otterwisch","municipality":{"key":"14729330","name":"Otterwisch","type":"Kreisangehörige_Gemeinde"},"district":{"key":"14729","name":"Leipzig","type":"Landkreis"},"federalState":{"key":"14","name":"Sachsen"}},{"name":"Neue Str.","postalCode":"04668","locality":"Otterwisch","municipality":{"key":"14729330","name":"Otterwisch","type":"Kreisangehörige_Gemeinde"},"district":{"key":"14729","name":"Leipzig","type":"Landkreis"},"federalState":{"key":"14","name":"Sachsen"}},{"name":"Oberdorfstr.","postalCode":"04299","locality":"Leipzig","municipality":{"key":"14713000","name":"Leipzig, Stadt","type":"Kreisfreie_Stadt"},"district":{"key":"14713","name":"Leipzig, Stadt","type":"Kreisfreie_Stadt"},"federalState":{"key":"14","name":"Sachsen"}},{"name":"Obere Eichstädtstr.","postalCode":"04299","locality":"Leipzig","municipality":{"key":"14713000","name":"Leipzig, Stadt","type":"Kreisfreie_Stadt"},"district":{"key":"14713","name":"Leipzig, Stadt","type":"Kreisfreie_Stadt"},"federalState":{"key":"14","name":"Sachsen"}},{"name":"Obere Mühlenstr.","postalCode":"04178","locality":"Leipzig","municipality":{"key":"14713000","name":"Leipzig, Stadt","type":"Kreisfreie_Stadt"},"district":{"key":"14713","name":"Leipzig, Stadt","type":"Kreisfreie_Stadt"},"federalState":{"key":"14","name":"Sachsen"}},{"name":"Obere Nordstr.","postalCode":"04288","locality":"Leipzig","municipality":{"key":"14713000","name":"Leipzig, Stadt","type":"Kreisfreie_Stadt"},"district":{"key":"14713","name":"Leipzig, Stadt","type":"Kreisfreie_Stadt"},"federalState":{"key":"14","name":"Sachsen"}},{"name":"Oberhofer Weg","postalCode":"04205","locality":"Leipzig","municipality":{"key":"14713000","name":"Leipzig, Stadt","type":"Kreisfreie_Stadt"},"district":{"key":"14713","name":"Leipzig, Stadt","type":"Kreisfreie_Stadt"},"federalState":{"key":"14","name":"Sachsen"}},{"name":"Oberholzstr.","postalCode":"04288","locality":"Leipzig","municipality":{"key":"14713000","name":"Leipzig, Stadt","type":"Kreisfreie_Stadt"},"district":{"key":"14713","name":"Leipzig, Stadt","type":"Kreisfreie_Stadt"},"federalState":{"key":"14","name":"Sachsen"}},{"name":"Oberläuterstr.","postalCode":"04357","locality":"Leipzig","municipality":{"key":"14713000","name":"Leipzig, Stadt","type":"Kreisfreie_Stadt"},"district":{"key":"14713","name":"Leipzig, Stadt","type":"Kreisfreie_Stadt"},"federalState":{"key":"14","name":"Sachsen"}},{"name":"Obernaundorfer Str.","postalCode":"04316","locality":"Leipzig","municipality":{"key":"14713000","name":"Leipzig, Stadt","type":"Kreisfreie_Stadt"},"district":{"key":"14713","name":"Leipzig, Stadt","type":"Kreisfreie_Stadt"},"federalState":{"key":"14","name":"Sachsen"}},{"name":"Oberweg","postalCode":"04157","locality":"Leipzig","municipality":{"key":"14713000","name":"Leipzig, Stadt","type":"Kreisfreie_Stadt"},"district":{"key":"14713","name":"Leipzig, Stadt","type":"Kreisfreie_Stadt"},"federalState":{"key":"14","name":"Sachsen"}},{"name":"Obludastr.","postalCode":"04347","locality":"Leipzig","municipality":{"key":"14713000","name":"Leipzig, Stadt","type":"Kreisfreie_Stadt"},"district":{"key":"14713","name":"Leipzig, Stadt","type":"Kreisfreie_Stadt"},"federalState":{"key":"14","name":"Sachsen"}},{"name":"Obstgarten","postalCode":"04229","locality":"Leipzig","municipality":{"key":"14713000","name":"Leipzig, Stadt","type":"Kreisfreie_Stadt"},"district":{"key":"14713","name":"Leipzig, Stadt","type":"Kreisfreie_Stadt"},"federalState":{"key":"14","name":"Sachsen"}},{"name":"Ochsenweg","postalCode":"04178","locality":"Leipzig","municipality":{"key":"14713000","name":"Leipzig, Stadt","type":"Kreisfreie_Stadt"},"district":{"key":"14713","name":"Leipzig, Stadt","type":"Kreisfreie_Stadt"},"federalState":{"key":"14","name":"Sachsen"}},{"name":"Odermannstr.","postalCode":"04177","locality":"Leipzig","municipality":{"key":"14713000","name":"Leipzig, Stadt","type":"Kreisfreie_Stadt"},"district":{"key":"14713","name":"Leipzig, Stadt","type":"Kreisfreie_Stadt"},"federalState":{"key":"14","name":"Sachsen"}},{"name":"Oelsnitzer Str.","postalCode":"04349","locality":"Leipzig","municipality":{"key":"14713000","name":"Leipzig, Stadt","type":"Kreisfreie_Stadt"},"district":{"key":"14713","name":"Leipzig, Stadt","type":"Kreisfreie_Stadt"},"federalState":{"key":"14","name":"Sachsen"}},{"name":"Oelßners Hof","postalCode":"04109","locality":"Leipzig","municipality":{"key":"14713000","name":"Leipzig, Stadt","type":"Kreisfreie_Stadt"},"district":{"key":"14713","name":"Leipzig, Stadt","type":"Kreisfreie_Stadt"},"federalState":{"key":"14","name":"Sachsen"}},{"name":"Oelßnerstr.","postalCode":"04357","locality":"Leipzig","municipality":{"key":"14713000","name":"Leipzig, Stadt","type":"Kreisfreie_Stadt"},"district":{"key":"14713","name":"Leipzig, Stadt","type":"Kreisfreie_Stadt"},"federalState":{"key":"14","name":"Sachsen"}},{"name":"Oertgering","postalCode":"04319","locality":"Leipzig","municipality":{"key":"14713000","name":"Leipzig, Stadt","type":"Kreisfreie_Stadt"},"district":{"key":"14713","name":"Leipzig, Stadt","type":"Kreisfreie_Stadt"},"federalState":{"key":"14","name":"Sachsen"}},{"name":"Oeserstr.","postalCode":"04229","locality":"Leipzig","municipality":{"key":"14713000","name":"Leipzig, Stadt","type":"Kreisfreie_Stadt"},"district":{"key":"14713","name":"Leipzig, Stadt","type":"Kreisfreie_Stadt"},"federalState":{"key":"14","name":"Sachsen"}},{"name":"Offenbachweg","postalCode":"04289","locality":"Leipzig","municipality":{"key":"14713000","name":"Leipzig, Stadt","type":"Kreisfreie_Stadt"},"district":{"key":"14713","name":"Leipzig, Stadt","type":"Kreisfreie_Stadt"},"federalState":{"key":"14","name":"Sachsen"}},{"name":"Offenburger Str.","postalCode":"04209","locality":"Leipzig","municipality":{"key":"14713000","name":"Leipzig, Stadt","type":"Kreisfreie_Stadt"},"district":{"key":"14713","name":"Leipzig, Stadt","type":"Kreisfreie_Stadt"},"federalState":{"key":"14","name":"Sachsen"}},{"name":"Ohmweg","postalCode":"04299","locality":"Leipzig","municipality":{"key":"14713000","name":"Leipzig, Stadt","type":"Kreisfreie_Stadt"},"district":{"key":"14713","name":"Leipzig, Stadt","type":"Kreisfreie_Stadt"},"federalState":{"key":"14","name":"Sachsen"}},{"name":"Olbernhauer Str.","postalCode":"04349","locality":"Leipzig","municipality":{"key":"14713000","name":"Leipzig, Stadt","type":"Kreisfreie_Stadt"},"district":{"key":"14713","name":"Leipzig, Stadt","type":"Kreisfreie_Stadt"},"federalState":{"key":"14","name":"Sachsen"}},{"name":"Olchinger Str.","postalCode":"04158","locality":"Leipzig","municipality":{"key":"14713000","name":"Leipzig, Stadt","type":"Kreisfreie_Stadt"},"district":{"key":"14713","name":"Leipzig, Stadt","type":"Kreisfreie_Stadt"},"federalState":{"key":"14","name":"Sachsen"}},{"name":"Oldenburger Str.","postalCode":"04157","locality":"Leipzig","municipality":{"key":"14713000","name":"Leipzig, Stadt","type":"Kreisfreie_Stadt"},"district":{"key":"14713","name":"Leipzig, Stadt","type":"Kreisfreie_Stadt"},"federalState":{"key":"14","name":"Sachsen"}},{"name":"Oleanderweg","postalCode":"04288","locality":"Leipzig","municipality":{"key":"14713000","name":"Leipzig, Stadt","type":"Kreisfreie_Stadt"},"district":{"key":"14713","name":"Leipzig, Stadt","type":"Kreisfreie_Stadt"},"federalState":{"key":"14","name":"Sachsen"}},{"name":"Onckenstr.","postalCode":"04159","locality":"Leipzig","municipality":{"key":"14713000","name":"Leipzig, Stadt","type":"Kreisfreie_Stadt"},"district":{"key":"14713","name":"Leipzig, Stadt","type":"Kreisfreie_Stadt"},"federalState":{"key":"14","name":"Sachsen"}},{"name":"Opalstr.","postalCode":"04319","locality":"Leipzig","municipality":{"key":"14713000","name":"Leipzig, Stadt","type":"Kreisfreie_Stadt"},"district":{"key":"14713","name":"Leipzig, Stadt","type":"Kreisfreie_Stadt"},"federalState":{"key":"14","name":"Sachsen"}},{"name":"Opferweg","postalCode":"04159","locality":"Leipzig","municipality":{"key":"14713000","name":"Leipzig, Stadt","type":"Kreisfreie_Stadt"},"district":{"key":"14713","name":"Leipzig, Stadt","type":"Kreisfreie_Stadt"},"federalState":{"key":"14","name":"Sachsen"}},{"name":"Orchideenweg","postalCode":"04288","locality":"Leipzig","municipality":{"key":"14713000","name":"Leipzig, Stadt","type":"Kreisfreie_Stadt"},"district":{"key":"14713","name":"Leipzig, Stadt","type":"Kreisfreie_Stadt"},"federalState":{"key":"14","name":"Sachsen"}},{"name":"Orenburger Weg","postalCode":"04207","locality":"Leipzig","municipality":{"key":"14713000","name":"Leipzig, Stadt","type":"Kreisfreie_Stadt"},"district":{"key":"14713","name":"Leipzig, Stadt","type":"Kreisfreie_Stadt"},"federalState":{"key":"14","name":"Sachsen"}},{"name":"Ortrunweg","postalCode":"04279","locality":"Leipzig","municipality":{"key":"14713000","name":"Leipzig, Stadt","type":"Kreisfreie_Stadt"},"district":{"key":"14713","name":"Leipzig, Stadt","type":"Kreisfreie_Stadt"},"federalState":{"key":"14","name":"Sachsen"}},{"name":"Oschatzer Str.","postalCode":"04299","locality":"Leipzig","municipality":{"key":"14713000","name":"Leipzig, Stadt","type":"Kreisfreie_Stadt"},"district":{"key":"14713","name":"Leipzig, Stadt","type":"Kreisfreie_Stadt"},"federalState":{"key":"14","name":"Sachsen"}},{"name":"Oskar-Calov-Str.","postalCode":"04288","locality":"Leipzig","municipality":{"key":"14713000","name":"Leipzig, Stadt","type":"Kreisfreie_Stadt"},"district":{"key":"14713","name":"Leipzig, Stadt","type":"Kreisfreie_Stadt"},"federalState":{"key":"14","name":"Sachsen"}},{"name":"Ossietzkystr.","postalCode":"04347","locality":"Leipzig","municipality":{"key":"14713000","name":"Leipzig, Stadt","type":"Kreisfreie_Stadt"},"district":{"key":"14713","name":"Leipzig, Stadt","type":"Kreisfreie_Stadt"},"federalState":{"key":"14","name":"Sachsen"}},{"name":"Ostende","postalCode":"04288","locality":"Leipzig","municipality":{"key":"14713000","name":"Leipzig, Stadt","type":"Kreisfreie_Stadt"},"district":{"key":"14713","name":"Leipzig, Stadt","type":"Kreisfreie_Stadt"},"federalState":{"key":"14","name":"Sachsen"}},{"name":"Osten-Sacken-Weg","postalCode":"04289","locality":"Leipzig","municipality":{"key":"14713000","name":"Leipzig, Stadt","type":"Kreisfreie_Stadt"},"district":{"key":"14713","name":"Leipzig, Stadt","type":"Kreisfreie_Stadt"},"federalState":{"key":"14","name":"Sachsen"}},{"name":"Osterglockenweg","postalCode":"04159","locality":"Leipzig","municipality":{"key":"14713000","name":"Leipzig, Stadt","type":"Kreisfreie_Stadt"},"district":{"key":"14713","name":"Leipzig, Stadt","type":"Kreisfreie_Stadt"},"federalState":{"key":"14","name":"Sachsen"}},{"name":"Ostheimstr.","postalCode":"04328","locality":"Leipzig","municipality":{"key":"14713000","name":"Leipzig, Stadt","type":"Kreisfreie_Stadt"},"district":{"key":"14713","name":"Leipzig, Stadt","type":"Kreisfreie_Stadt"},"federalState":{"key":"14","name":"Sachsen"}},{"name":"Osthöhe","postalCode":"04316","locality":"Leipzig","municipality":{"key":"14713000","name":"Leipzig, Stadt","type":"Kreisfreie_Stadt"},"district":{"key":"14713","name":"Leipzig, Stadt","type":"Kreisfreie_Stadt"},"federalState":{"key":"14","name":"Sachsen"}},{"name":"Ostplatz","postalCode":"04103","locality":"Leipzig","municipality":{"key":"14713000","name":"Leipzig, Stadt","type":"Kreisfreie_Stadt"},"district":{"key":"14713","name":"Leipzig, Stadt","type":"Kreisfreie_Stadt"},"federalState":{"key":"14","name":"Sachsen"}},{"name":"Ostplatz","postalCode":"04317","locality":"Leipzig","municipality":{"key":"14713000","name":"Leipzig, Stadt","type":"Kreisfreie_Stadt"},"district":{"key":"14713","name":"Leipzig, Stadt","type":"Kreisfreie_Stadt"},"federalState":{"key":"14","name":"Sachsen"}},{"name":"Ostrowskistr.","postalCode":"04357","locality":"Leipzig","municipality":{"key":"14713000","name":"Leipzig, Stadt","type":"Kreisfreie_Stadt"},"district":{"key":"14713","name":"Leipzig, Stadt","type":"Kreisfreie_Stadt"},"federalState":{"key":"14","name":"Sachsen"}},{"name":"Oststr.","postalCode":"04299","locality":"Leipzig","municipality":{"key":"14713000","name":"Leipzig, Stadt","type":"Kreisfreie_Stadt"},"district":{"key":"14713","name":"Leipzig, Stadt","type":"Kreisfreie_Stadt"},"federalState":{"key":"14","name":"Sachsen"}},{"name":"Oststr.","postalCode":"04317","locality":"Leipzig","municipality":{"key":"14713000","name":"Leipzig, Stadt","type":"Kreisfreie_Stadt"},"district":{"key":"14713","name":"Leipzig, Stadt","type":"Kreisfreie_Stadt"},"federalState":{"key":"14","name":"Sachsen"}},{"name":"Ostwaldstr.","postalCode":"04329","locality":"Leipzig","municipality":{"key":"14713000","name":"Leipzig, Stadt","type":"Kreisfreie_Stadt"},"district":{"key":"14713","name":"Leipzig, Stadt","type":"Kreisfreie_Stadt"},"federalState":{"key":"14","name":"Sachsen"}},{"name":"Ost-Weg","postalCode":"04158","locality":"Leipzig","municipality":{"key":"14713000","name":"Leipzig, Stadt","type":"Kreisfreie_Stadt"},"district":{"key":"14713","name":"Leipzig, Stadt","type":"Kreisfreie_Stadt"},"federalState":{"key":"14","name":"Sachsen"}},{"name":"Oswald-Kahnt-Ring","postalCode":"04158","locality":"Leipzig","municipality":{"key":"14713000","name":"Leipzig, Stadt","type":"Kreisfreie_Stadt"},"district":{"key":"14713","name":"Leipzig, Stadt","type":"Kreisfreie_Stadt"},"federalState":{"key":"14","name":"Sachsen"}},{"name":"Oswaldstr.","postalCode":"04317","locality":"Leipzig","municipality":{"key":"14713000","name":"Leipzig, Stadt","type":"Kreisfreie_Stadt"},"district":{"key":"14713","name":"Leipzig, Stadt","type":"Kreisfreie_Stadt"},"federalState":{"key":"14","name":"Sachsen"}},{"name":"Otterstr.","postalCode":"04329","locality":"Leipzig","municipality":{"key":"14713000","name":"Leipzig, Stadt","type":"Kreisfreie_Stadt"},"district":{"key":"14713","name":"Leipzig, Stadt","type":"Kreisfreie_Stadt"},"federalState":{"key":"14","name":"Sachsen"}},{"name":"Otto-Adam-Str.","postalCode":"04157","locality":"Leipzig","municipality":{"key":"14713000","name":"Leipzig, Stadt","type":"Kreisfreie_Stadt"},"district":{"key":"14713","name":"Leipzig, Stadt","type":"Kreisfreie_Stadt"},"federalState":{"key":"14","name":"Sachsen"}},{"name":"Packhofstr.","postalCode":"04105","locality":"Leipzig","municipality":{"key":"14713000","name":"Leipzig, Stadt","type":"Kreisfreie_Stadt"},"district":{"key":"14713","name":"Leipzig, Stadt","type":"Kreisfreie_Stadt"},"federalState":{"key":"14","name":"Sachsen"}},{"name":"Pahlenweg","postalCode":"04289","locality":"Leipzig","municipality":{"key":"14713000","name":"Leipzig, Stadt","type":"Kreisfreie_Stadt"},"district":{"key":"14713","name":"Leipzig, Stadt","type":"Kreisfreie_Stadt"},"federalState":{"key":"14","name":"Sachsen"}},{"name":"Palmengartenbrücke","postalCode":"04177","locality":"Leipzig","municipality":{"key":"14713000","name":"Leipzig, Stadt","type":"Kreisfreie_Stadt"},"district":{"key":"14713","name":"Leipzig, Stadt","type":"Kreisfreie_Stadt"},"federalState":{"key":"14","name":"Sachsen"}},{"name":"Palmstr.","postalCode":"04317","locality":"Leipzig","municipality":{"key":"14713000","name":"Leipzig, Stadt","type":"Kreisfreie_Stadt"},"district":{"key":"14713","name":"Leipzig, Stadt","type":"Kreisfreie_Stadt"},"federalState":{"key":"14","name":"Sachsen"}},{"name":"Panitzstr.","postalCode":"04229","locality":"Leipzig","municipality":{"key":"14713000","name":"Leipzig, Stadt","type":"Kreisfreie_Stadt"},"district":{"key":"14713","name":"Leipzig, Stadt","type":"Kreisfreie_Stadt"},"federalState":{"key":"14","name":"Sachsen"}},{"name":"Papageienweg","postalCode":"04318","locality":"Leipzig","municipality":{"key":"14713000","name":"Leipzig, Stadt","type":"Kreisfreie_Stadt"},"district":{"key":"14713","name":"Leipzig, Stadt","type":"Kreisfreie_Stadt"},"federalState":{"key":"14","name":"Sachsen"}},{"name":"Papiermühlstr.","postalCode":"04299","locality":"Leipzig","municipality":{"key":"14713000","name":"Leipzig, Stadt","type":"Kreisfreie_Stadt"},"district":{"key":"14713","name":"Leipzig, Stadt","type":"Kreisfreie_Stadt"},"federalState":{"key":"14","name":"Sachsen"}},{"name":"Papiermühlstr.","postalCode":"04317","locality":"Leipzig","municipality":{"key":"14713000","name":"Leipzig, Stadt","type":"Kreisfreie_Stadt"},"district":{"key":"14713","name":"Leipzig, Stadt","type":"Kreisfreie_Stadt"},"federalState":{"key":"14","name":"Sachsen"}},{"name":"Papitzer Str.","postalCode":"04159","locality":"Leipzig","municipality":{"key":"14713000","name":"Leipzig, Stadt","type":"Kreisfreie_Stadt"},"district":{"key":"14713","name":"Leipzig, Stadt","type":"Kreisfreie_Stadt"},"federalState":{"key":"14","name":"Sachsen"}},{"name":"Pappelblick","postalCode":"04349","locality":"Leipzig","municipality":{"key":"14713000","name":"Leipzig, Stadt","type":"Kreisfreie_Stadt"},"district":{"key":"14713","name":"Leipzig, Stadt","type":"Kreisfreie_Stadt"},"federalState":{"key":"14","name":"Sachsen"}},{"name":"Pappelhof","postalCode":"04357","locality":"Leipzig","municipality":{"key":"14713000","name":"Leipzig, Stadt","type":"Kreisfreie_Stadt"},"district":{"key":"14713","name":"Leipzig, Stadt","type":"Kreisfreie_Stadt"},"federalState":{"key":"14","name":"Sachsen"}},{"name":"Pappelweg","postalCode":"04178","locality":"Leipzig","municipality":{"key":"14713000","name":"Leipzig, Stadt","type":"Kreisfreie_Stadt"},"district":{"key":"14713","name":"Leipzig, Stadt","type":"Kreisfreie_Stadt"},"federalState":{"key":"14","name":"Sachsen"}},{"name":"Parkallee","postalCode":"04209","locality":"Leipzig","municipality":{"key":"14713000","name":"Leipzig, Stadt","type":"Kreisfreie_Stadt"},"district":{"key":"14713","name":"Leipzig, Stadt","type":"Kreisfreie_Stadt"},"federalState":{"key":"14","name":"Sachsen"}},{"name":"Park am Diakonissenhaus","postalCode":"04177","locality":"Leipzig","municipality":{"key":"14713000","name":"Leipzig, Stadt","type":"Kreisfreie_Stadt"},"district":{"key":"14713","name":"Leipzig, Stadt","type":"Kreisfreie_Stadt"},"federalState":{"key":"14","name":"Sachsen"}},{"name":"Park am Schwanenteich","postalCode":"04109","locality":"Leipzig","municipality":{"key":"14713000","name":"Leipzig, Stadt","type":"Kreisfreie_Stadt"},"district":{"key":"14713","name":"Leipzig, Stadt","type":"Kreisfreie_Stadt"},"federalState":{"key":"14","name":"Sachsen"}},{"name":"Park an der Etzoldschen Sandgrube","postalCode":"04289","locality":"Leipzig","municipality":{"key":"14713000","name":"Leipzig, Stadt","type":"Kreisfreie_Stadt"},"district":{"key":"14713","name":"Leipzig, Stadt","type":"Kreisfreie_Stadt"},"federalState":{"key":"14","name":"Sachsen"}},{"name":"Park an der Liebigstr.","postalCode":"04103","locality":"Leipzig","municipality":{"key":"14713000","name":"Leipzig, Stadt","type":"Kreisfreie_Stadt"},"district":{"key":"14713","name":"Leipzig, Stadt","type":"Kreisfreie_Stadt"},"federalState":{"key":"14","name":"Sachsen"}},{"name":"Parkanlage Kastaniengarten","postalCode":"04277","locality":"Leipzig","municipality":{"key":"14713000","name":"Leipzig, Stadt","type":"Kreisfreie_Stadt"},"district":{"key":"14713","name":"Leipzig, Stadt","type":"Kreisfreie_Stadt"},"federalState":{"key":"14","name":"Sachsen"}},{"name":"Park Dösen","postalCode":"04289","locality":"Leipzig","municipality":{"key":"14713000","name":"Leipzig, Stadt","type":"Kreisfreie_Stadt"},"district":{"key":"14713","name":"Leipzig, Stadt","type":"Kreisfreie_Stadt"},"federalState":{"key":"14","name":"Sachsen"}},{"name":"Park Kloster St. Albert","postalCode":"04159","locality":"Leipzig","municipality":{"key":"14713000","name":"Leipzig, Stadt","type":"Kreisfreie_Stadt"},"district":{"key":"14713","name":"Leipzig, Stadt","type":"Kreisfreie_Stadt"},"federalState":{"key":"14","name":"Sachsen"}},{"name":"Parkring","postalCode":"04158","locality":"Leipzig","municipality":{"key":"14713000","name":"Leipzig, Stadt","type":"Kreisfreie_Stadt"},"district":{"key":"14713","name":"Leipzig, Stadt","type":"Kreisfreie_Stadt"},"federalState":{"key":"14","name":"Sachsen"}},{"name":"Parkstr.","postalCode":"04288","locality":"Leipzig","municipality":{"key":"14713000","name":"Leipzig, Stadt","type":"Kreisfreie_Stadt"},"district":{"key":"14713","name":"Leipzig, Stadt","type":"Kreisfreie_Stadt"},"federalState":{"key":"14","name":"Sachsen"}},{"name":"Parkweg","postalCode":"04178","locality":"Leipzig","municipality":{"key":"14713000","name":"Leipzig, Stadt","type":"Kreisfreie_Stadt"},"district":{"key":"14713","name":"Leipzig, Stadt","type":"Kreisfreie_Stadt"},"federalState":{"key":"14","name":"Sachsen"}},{"name":"Parthenstr.","postalCode":"04105","locality":"Leipzig","municipality":{"key":"14713000","name":"Leipzig, Stadt","type":"Kreisfreie_Stadt"},"district":{"key":"14713","name":"Leipzig, Stadt","type":"Kreisfreie_Stadt"},"federalState":{"key":"14","name":"Sachsen"}},{"name":"Parzelle \"Mühlstr. 14 e.V.\"","postalCode":"04317","locality":"Leipzig","municipality":{"key":"14713000","name":"Leipzig, Stadt","type":"Kreisfreie_Stadt"},"district":{"key":"14713","name":"Leipzig, Stadt","type":"Kreisfreie_Stadt"},"federalState":{"key":"14","name":"Sachsen"}},{"name":"Pater-Aurelius-Platz","postalCode":"04159","locality":"Leipzig","municipality":{"key":"14713000","name":"Leipzig, Stadt","type":"Kreisfreie_Stadt"},"district":{"key":"14713","name":"Leipzig, Stadt","type":"Kreisfreie_Stadt"},"federalState":{"key":"14","name":"Sachsen"}},{"name":"Pater-Gordian-Str.","postalCode":"04158","locality":"Leipzig","municipality":{"key":"14713000","name":"Leipzig, Stadt","type":"Kreisfreie_Stadt"},"district":{"key":"14713","name":"Leipzig, Stadt","type":"Kreisfreie_Stadt"},"federalState":{"key":"14","name":"Sachsen"}},{"name":"Pater-Gordian-Str.","postalCode":"04159","locality":"Leipzig","municipality":{"key":"14713000","name":"Leipzig, Stadt","type":"Kreisfreie_Stadt"},"district":{"key":"14713","name":"Leipzig, Stadt","type":"Kreisfreie_Stadt"},"federalState":{"key":"14","name":"Sachsen"}},{"name":"Paul-Ermler-Weg","postalCode":"04179","locality":"Leipzig","municipality":{"key":"14713000","name":"Leipzig, Stadt","type":"Kreisfreie_Stadt"},"district":{"key":"14713","name":"Leipzig, Stadt","type":"Kreisfreie_Stadt"},"federalState":{"key":"14","name":"Sachsen"}},{"name":"Paul-Ernst-Str.","postalCode":"04159","locality":"Leipzig","municipality":{"key":"14713000","name":"Leipzig, Stadt","type":"Kreisfreie_Stadt"},"district":{"key":"14713","name":"Leipzig, Stadt","type":"Kreisfreie_Stadt"},"federalState":{"key":"14","name":"Sachsen"}},{"name":"Paul-Flechsig-Str.","postalCode":"04289","locality":"Leipzig","municipality":{"key":"14713000","name":"Leipzig, Stadt","type":"Kreisfreie_Stadt"},"district":{"key":"14713","name":"Leipzig, Stadt","type":"Kreisfreie_Stadt"},"federalState":{"key":"14","name":"Sachsen"}},{"name":"Paul-Gerhardt-Weg","postalCode":"04109","locality":"Leipzig","municipality":{"key":"14713000","name":"Leipzig, Stadt","type":"Kreisfreie_Stadt"},"district":{"key":"14713","name":"Leipzig, Stadt","type":"Kreisfreie_Stadt"},"federalState":{"key":"14","name":"Sachsen"}},{"name":"Paul-Gruner-Str.","postalCode":"04107","locality":"Leipzig","municipality":{"key":"14713000","name":"Leipzig, Stadt","type":"Kreisfreie_Stadt"},"district":{"key":"14713","name":"Leipzig, Stadt","type":"Kreisfreie_Stadt"},"federalState":{"key":"14","name":"Sachsen"}},{"name":"Paul-Herbst-Weg","postalCode":"04103","locality":"Leipzig","municipality":{"key":"14713000","name":"Leipzig, Stadt","type":"Kreisfreie_Stadt"},"district":{"key":"14713","name":"Leipzig, Stadt","type":"Kreisfreie_Stadt"},"federalState":{"key":"14","name":"Sachsen"}},{"name":"Paul-Heyse-Str.","postalCode":"04347","locality":"Leipzig","municipality":{"key":"14713000","name":"Leipzig, Stadt","type":"Kreisfreie_Stadt"},"district":{"key":"14713","name":"Leipzig, Stadt","type":"Kreisfreie_Stadt"},"federalState":{"key":"14","name":"Sachsen"}},{"name":"Paulinengrund","postalCode":"04159","locality":"Leipzig","municipality":{"key":"14713000","name":"Leipzig, Stadt","type":"Kreisfreie_Stadt"},"district":{"key":"14713","name":"Leipzig, Stadt","type":"Kreisfreie_Stadt"},"federalState":{"key":"14","name":"Sachsen"}},{"name":"Paulinenstr.","postalCode":"04315","locality":"Leipzig","municipality":{"key":"14713000","name":"Leipzig, Stadt","type":"Kreisfreie_Stadt"},"district":{"key":"14713","name":"Leipzig, Stadt","type":"Kreisfreie_Stadt"},"federalState":{"key":"14","name":"Sachsen"}},{"name":"Paulinerweg","postalCode":"04299","locality":"Leipzig","municipality":{"key":"14713000","name":"Leipzig, Stadt","type":"Kreisfreie_Stadt"},"district":{"key":"14713","name":"Leipzig, Stadt","type":"Kreisfreie_Stadt"},"federalState":{"key":"14","name":"Sachsen"}},{"name":"Paul-Klöpsch-Str.","postalCode":"04316","locality":"Leipzig","municipality":{"key":"14713000","name":"Leipzig, Stadt","type":"Kreisfreie_Stadt"},"district":{"key":"14713","name":"Leipzig, Stadt","type":"Kreisfreie_Stadt"},"federalState":{"key":"14","name":"Sachsen"}},{"name":"Paul-Küstner-Str.","postalCode":"04177","locality":"Leipzig","municipality":{"key":"14713000","name":"Leipzig, Stadt","type":"Kreisfreie_Stadt"},"district":{"key":"14713","name":"Leipzig, Stadt","type":"Kreisfreie_Stadt"},"federalState":{"key":"14","name":"Sachsen"}},{"name":"Paul-Langheinrich-Str.","postalCode":"04178","locality":"Leipzig","municipality":{"key":"14713000","name":"Leipzig, Stadt","type":"Kreisfreie_Stadt"},"district":{"key":"14713","name":"Leipzig, Stadt","type":"Kreisfreie_Stadt"},"federalState":{"key":"14","name":"Sachsen"}},{"name":"Paul-List-Str.","postalCode":"04103","locality":"Leipzig","municipality":{"key":"14713000","name":"Leipzig, Stadt","type":"Kreisfreie_Stadt"},"district":{"key":"14713","name":"Leipzig, Stadt","type":"Kreisfreie_Stadt"},"federalState":{"key":"14","name":"Sachsen"}},{"name":"Paul-Michael-Str.","postalCode":"04179","locality":"Leipzig","municipality":{"key":"14713000","name":"Leipzig, Stadt","type":"Kreisfreie_Stadt"},"district":{"key":"14713","name":"Leipzig, Stadt","type":"Kreisfreie_Stadt"},"federalState":{"key":"14","name":"Sachsen"}},{"name":"Paul-Schneider-Str.","postalCode":"04129","locality":"Leipzig","municipality":{"key":"14713000","name":"Leipzig, Stadt","type":"Kreisfreie_Stadt"},"district":{"key":"14713","name":"Leipzig, Stadt","type":"Kreisfreie_Stadt"},"federalState":{"key":"14","name":"Sachsen"}},{"name":"Paunsdorfer Allee","postalCode":"04319","locality":"Leipzig","municipality":{"key":"14713000","name":"Leipzig, Stadt","type":"Kreisfreie_Stadt"},"district":{"key":"14713","name":"Leipzig, Stadt","type":"Kreisfreie_Stadt"},"federalState":{"key":"14","name":"Sachsen"}},{"name":"Paunsdorfer Allee","postalCode":"04329","locality":"Leipzig","municipality":{"key":"14713000","name":"Leipzig, Stadt","type":"Kreisfreie_Stadt"},"district":{"key":"14713","name":"Leipzig, Stadt","type":"Kreisfreie_Stadt"},"federalState":{"key":"14","name":"Sachsen"}},{"name":"Paunsdorfer Str.","postalCode":"04316","locality":"Leipzig","municipality":{"key":"14713000","name":"Leipzig, Stadt","type":"Kreisfreie_Stadt"},"district":{"key":"14713","name":"Leipzig, Stadt","type":"Kreisfreie_Stadt"},"federalState":{"key":"14","name":"Sachsen"}},{"name":"Paunsdorfer Str.","postalCode":"04328","locality":"Leipzig","municipality":{"key":"14713000","name":"Leipzig, Stadt","type":"Kreisfreie_Stadt"},"district":{"key":"14713","name":"Leipzig, Stadt","type":"Kreisfreie_Stadt"},"federalState":{"key":"14","name":"Sachsen"}},{"name":"Paußnitzstr.","postalCode":"04229","locality":"Leipzig","municipality":{"key":"14713000","name":"Leipzig, Stadt","type":"Kreisfreie_Stadt"},"district":{"key":"14713","name":"Leipzig, Stadt","type":"Kreisfreie_Stadt"},"federalState":{"key":"14","name":"Sachsen"}},{"name":"Payrstr.","postalCode":"04289","locality":"Leipzig","municipality":{"key":"14713000","name":"Leipzig, Stadt","type":"Kreisfreie_Stadt"},"district":{"key":"14713","name":"Leipzig, Stadt","type":"Kreisfreie_Stadt"},"federalState":{"key":"14","name":"Sachsen"}},{"name":"Quasnitzer Höhe","postalCode":"04159","locality":"Leipzig","municipality":{"key":"14713000","name":"Leipzig, Stadt","type":"Kreisfreie_Stadt"},"district":{"key":"14713","name":"Leipzig, Stadt","type":"Kreisfreie_Stadt"},"federalState":{"key":"14","name":"Sachsen"}},{"name":"Quasnitzer Weg","postalCode":"04159","locality":"Leipzig","municipality":{"key":"14713000","name":"Leipzig, Stadt","type":"Kreisfreie_Stadt"},"district":{"key":"14713","name":"Leipzig, Stadt","type":"Kreisfreie_Stadt"},"federalState":{"key":"14","name":"Sachsen"}},{"name":"Queckstr.","postalCode":"04177","locality":"Leipzig","municipality":{"key":"14713000","name":"Leipzig, Stadt","type":"Kreisfreie_Stadt"},"district":{"key":"14713","name":"Leipzig, Stadt","type":"Kreisfreie_Stadt"},"federalState":{"key":"14","name":"Sachsen"}},{"name":"Quedlinburger Str.","postalCode":"04157","locality":"Leipzig","municipality":{"key":"14713000","name":"Leipzig, Stadt","type":"Kreisfreie_Stadt"},"district":{"key":"14713","name":"Leipzig, Stadt","type":"Kreisfreie_Stadt"},"federalState":{"key":"14","name":"Sachsen"}},{"name":"Quermaße","postalCode":"04288","locality":"Leipzig","municipality":{"key":"14713000","name":"Leipzig, Stadt","type":"Kreisfreie_Stadt"},"district":{"key":"14713","name":"Leipzig, Stadt","type":"Kreisfreie_Stadt"},"federalState":{"key":"14","name":"Sachsen"}},{"name":"Querstr.","postalCode":"04103","locality":"Leipzig","municipality":{"key":"14713000","name":"Leipzig, Stadt","type":"Kreisfreie_Stadt"},"district":{"key":"14713","name":"Leipzig, Stadt","type":"Kreisfreie_Stadt"},"federalState":{"key":"14","name":"Sachsen"}},{"name":"Querweg","postalCode":"04159","locality":"Leipzig","municipality":{"key":"14713000","name":"Leipzig, Stadt","type":"Kreisfreie_Stadt"},"district":{"key":"14713","name":"Leipzig, Stadt","type":"Kreisfreie_Stadt"},"federalState":{"key":"14","name":"Sachsen"}},{"name":"Querweg","postalCode":"04277","locality":"Leipzig","municipality":{"key":"14713000","name":"Leipzig, Stadt","type":"Kreisfreie_Stadt"},"district":{"key":"14713","name":"Leipzig, Stadt","type":"Kreisfreie_Stadt"},"federalState":{"key":"14","name":"Sachsen"}},{"name":"Querweg","postalCode":"04318","locality":"Leipzig","municipality":{"key":"14713000","name":"Leipzig, Stadt","type":"Kreisfreie_Stadt"},"district":{"key":"14713","name":"Leipzig, Stadt","type":"Kreisfreie_Stadt"},"federalState":{"key":"14","name":"Sachsen"}},{"name":"Quittenweg","postalCode":"04316","locality":"Leipzig","municipality":{"key":"14713000","name":"Leipzig, Stadt","type":"Kreisfreie_Stadt"},"district":{"key":"14713","name":"Leipzig, Stadt","type":"Kreisfreie_Stadt"},"federalState":{"key":"14","name":"Sachsen"}},{"name":"Rabenerstr.","postalCode":"04177","locality":"Leipzig","municipality":{"key":"14713000","name":"Leipzig, Stadt","type":"Kreisfreie_Stadt"},"district":{"key":"14713","name":"Leipzig, Stadt","type":"Kreisfreie_Stadt"},"federalState":{"key":"14","name":"Sachsen"}},{"name":"Rabensteinplatz","postalCode":"04103","locality":"Leipzig","municipality":{"key":"14713000","name":"Leipzig, Stadt","type":"Kreisfreie_Stadt"},"district":{"key":"14713","name":"Leipzig, Stadt","type":"Kreisfreie_Stadt"},"federalState":{"key":"14","name":"Sachsen"}},{"name":"Rabenweg","postalCode":"04158","locality":"Leipzig","municipality":{"key":"14713000","name":"Leipzig, Stadt","type":"Kreisfreie_Stadt"},"district":{"key":"14713","name":"Leipzig, Stadt","type":"Kreisfreie_Stadt"},"federalState":{"key":"14","name":"Sachsen"}},{"name":"Rabet","postalCode":"04315","locality":"Leipzig","municipality":{"key":"14713000","name":"Leipzig, Stadt","type":"Kreisfreie_Stadt"},"district":{"key":"14713","name":"Leipzig, Stadt","type":"Kreisfreie_Stadt"},"federalState":{"key":"14","name":"Sachsen"}},{"name":"Rackwitzer Str.","postalCode":"04129","locality":"Leipzig","municipality":{"key":"14713000","name":"Leipzig, Stadt","type":"Kreisfreie_Stadt"},"district":{"key":"14713","name":"Leipzig, Stadt","type":"Kreisfreie_Stadt"},"federalState":{"key":"14","name":"Sachsen"}},{"name":"Rackwitzer Str.","postalCode":"04347","locality":"Leipzig","municipality":{"key":"14713000","name":"Leipzig, Stadt","type":"Kreisfreie_Stadt"},"district":{"key":"14713","name":"Leipzig, Stadt","type":"Kreisfreie_Stadt"},"federalState":{"key":"14","name":"Sachsen"}},{"name":"Radefelder Allee","postalCode":"04158","locality":"Leipzig","municipality":{"key":"14713000","name":"Leipzig, Stadt","type":"Kreisfreie_Stadt"},"district":{"key":"14713","name":"Leipzig, Stadt","type":"Kreisfreie_Stadt"},"federalState":{"key":"14","name":"Sachsen"}},{"name":"Radefelder Str.","postalCode":"04159","locality":"Leipzig","municipality":{"key":"14713000","name":"Leipzig, Stadt","type":"Kreisfreie_Stadt"},"district":{"key":"14713","name":"Leipzig, Stadt","type":"Kreisfreie_Stadt"},"federalState":{"key":"14","name":"Sachsen"}},{"name":"Radefelder Weg","postalCode":"04159","locality":"Leipzig","municipality":{"key":"14713000","name":"Leipzig, Stadt","type":"Kreisfreie_Stadt"},"district":{"key":"14713","name":"Leipzig, Stadt","type":"Kreisfreie_Stadt"},"federalState":{"key":"14","name":"Sachsen"}},{"name":"Radiusstr.","postalCode":"04179","locality":"Leipzig","municipality":{"key":"14713000","name":"Leipzig, Stadt","type":"Kreisfreie_Stadt"},"district":{"key":"14713","name":"Leipzig, Stadt","type":"Kreisfreie_Stadt"},"federalState":{"key":"14","name":"Sachsen"}},{"name":"Raiffeisenstr.","postalCode":"04249","locality":"Leipzig","municipality":{"key":"14713000","name":"Leipzig, Stadt","type":"Kreisfreie_Stadt"},"district":{"key":"14713","name":"Leipzig, Stadt","type":"Kreisfreie_Stadt"},"federalState":{"key":"14","name":"Sachsen"}},{"name":"Raimundstr.","postalCode":"04177","locality":"Leipzig","municipality":{"key":"14713000","name":"Leipzig, Stadt","type":"Kreisfreie_Stadt"},"district":{"key":"14713","name":"Leipzig, Stadt","type":"Kreisfreie_Stadt"},"federalState":{"key":"14","name":"Sachsen"}},{"name":"Ramdohrscher Park","postalCode":"04318","locality":"Leipzig","municipality":{"key":"14713000","name":"Leipzig, Stadt","type":"Kreisfreie_Stadt"},"district":{"key":"14713","name":"Leipzig, Stadt","type":"Kreisfreie_Stadt"},"federalState":{"key":"14","name":"Sachsen"}},{"name":"Ranftsche Gasse","postalCode":"04103","locality":"Leipzig","municipality":{"key":"14713000","name":"Leipzig, Stadt","type":"Kreisfreie_Stadt"},"district":{"key":"14713","name":"Leipzig, Stadt","type":"Kreisfreie_Stadt"},"federalState":{"key":"14","name":"Sachsen"}},{"name":"Rankestr.","postalCode":"04318","locality":"Leipzig","municipality":{"key":"14713000","name":"Leipzig, Stadt","type":"Kreisfreie_Stadt"},"district":{"key":"14713","name":"Leipzig, Stadt","type":"Kreisfreie_Stadt"},"federalState":{"key":"14","name":"Sachsen"}},{"name":"Ranstädter Steinweg","postalCode":"04105","locality":"Leipzig","municipality":{"key":"14713000","name":"Leipzig, Stadt","type":"Kreisfreie_Stadt"},"district":{"key":"14713","name":"Leipzig, Stadt","type":"Kreisfreie_Stadt"},"federalState":{"key":"14","name":"Sachsen"}},{"name":"Ranstädter Steinweg","postalCode":"04109","locality":"Leipzig","municipality":{"key":"14713000","name":"Leipzig, Stadt","type":"Kreisfreie_Stadt"},"district":{"key":"14713","name":"Leipzig, Stadt","type":"Kreisfreie_Stadt"},"federalState":{"key":"14","name":"Sachsen"}},{"name":"Ranunkelweg","postalCode":"04275","locality":"Leipzig","municipality":{"key":"14713000","name":"Leipzig, Stadt","type":"Kreisfreie_Stadt"},"district":{"key":"14713","name":"Leipzig, Stadt","type":"Kreisfreie_Stadt"},"federalState":{"key":"14","name":"Sachsen"}},{"name":"Räpitzer Str.","postalCode":"04249","locality":"Leipzig","municipality":{"key":"14713000","name":"Leipzig, Stadt","type":"Kreisfreie_Stadt"},"district":{"key":"14713","name":"Leipzig, Stadt","type":"Kreisfreie_Stadt"},"federalState":{"key":"14","name":"Sachsen"}},{"name":"Rapsweg","postalCode":"04207","locality":"Leipzig","municipality":{"key":"14713000","name":"Leipzig, Stadt","type":"Kreisfreie_Stadt"},"district":{"key":"14713","name":"Leipzig, Stadt","type":"Kreisfreie_Stadt"},"federalState":{"key":"14","name":"Sachsen"}},{"name":"Rapunzelweg","postalCode":"04277","locality":"Leipzig","municipality":{"key":"14713000","name":"Leipzig, Stadt","type":"Kreisfreie_Stadt"},"district":{"key":"14713","name":"Leipzig, Stadt","type":"Kreisfreie_Stadt"},"federalState":{"key":"14","name":"Sachsen"}},{"name":"Raschwitzer Str.","postalCode":"04279","locality":"Leipzig","municipality":{"key":"14713000","name":"Leipzig, Stadt","type":"Kreisfreie_Stadt"},"district":{"key":"14713","name":"Leipzig, Stadt","type":"Kreisfreie_Stadt"},"federalState":{"key":"14","name":"Sachsen"}},{"name":"Rasenweg","postalCode":"04288","locality":"Leipzig","municipality":{"key":"14713000","name":"Leipzig, Stadt","type":"Kreisfreie_Stadt"},"district":{"key":"14713","name":"Leipzig, Stadt","type":"Kreisfreie_Stadt"},"federalState":{"key":"14","name":"Sachsen"}},{"name":"Rathausring","postalCode":"04205","locality":"Leipzig","municipality":{"key":"14713000","name":"Leipzig, Stadt","type":"Kreisfreie_Stadt"},"district":{"key":"14713","name":"Leipzig, Stadt","type":"Kreisfreie_Stadt"},"federalState":{"key":"14","name":"Sachsen"}},{"name":"Rathausstr.","postalCode":"04178","locality":"Leipzig","municipality":{"key":"14713000","name":"Leipzig, Stadt","type":"Kreisfreie_Stadt"},"district":{"key":"14713","name":"Leipzig, Stadt","type":"Kreisfreie_Stadt"},"federalState":{"key":"14","name":"Sachsen"}},{"name":"Rathenaustr.","postalCode":"04179","locality":"Leipzig","municipality":{"key":"14713000","name":"Leipzig, Stadt","type":"Kreisfreie_Stadt"},"district":{"key":"14713","name":"Leipzig, Stadt","type":"Kreisfreie_Stadt"},"federalState":{"key":"14","name":"Sachsen"}},{"name":"Ratsfreischulstr.","postalCode":"04109","locality":"Leipzig","municipality":{"key":"14713000","name":"Leipzig, Stadt","type":"Kreisfreie_Stadt"},"district":{"key":"14713","name":"Leipzig, Stadt","type":"Kreisfreie_Stadt"},"federalState":{"key":"14","name":"Sachsen"}},{"name":"Ratzelstr.","postalCode":"04207","locality":"Leipzig","municipality":{"key":"14713000","name":"Leipzig, Stadt","type":"Kreisfreie_Stadt"},"district":{"key":"14713","name":"Leipzig, Stadt","type":"Kreisfreie_Stadt"},"federalState":{"key":"14","name":"Sachsen"}},{"name":"Rauchfussweg","postalCode":"04319","locality":"Leipzig","municipality":{"key":"14713000","name":"Leipzig, Stadt","type":"Kreisfreie_Stadt"},"district":{"key":"14713","name":"Leipzig, Stadt","type":"Kreisfreie_Stadt"},"federalState":{"key":"14","name":"Sachsen"}},{"name":"Raustr.","postalCode":"04159","locality":"Leipzig","municipality":{"key":"14713000","name":"Leipzig, Stadt","type":"Kreisfreie_Stadt"},"district":{"key":"14713","name":"Leipzig, Stadt","type":"Kreisfreie_Stadt"},"federalState":{"key":"14","name":"Sachsen"}},{"name":"Rebhuhnsteig","postalCode":"04249","locality":"Leipzig","municipality":{"key":"14713000","name":"Leipzig, Stadt","type":"Kreisfreie_Stadt"},"district":{"key":"14713","name":"Leipzig, Stadt","type":"Kreisfreie_Stadt"},"federalState":{"key":"14","name":"Sachsen"}},{"name":"Reclamstr.","postalCode":"04315","locality":"Leipzig","municipality":{"key":"14713000","name":"Leipzig, Stadt","type":"Kreisfreie_Stadt"},"district":{"key":"14713","name":"Leipzig, Stadt","type":"Kreisfreie_Stadt"},"federalState":{"key":"14","name":"Sachsen"}},{"name":"Regenbogen","postalCode":"04207","locality":"Leipzig","municipality":{"key":"14713000","name":"Leipzig, Stadt","type":"Kreisfreie_Stadt"},"district":{"key":"14713","name":"Leipzig, Stadt","type":"Kreisfreie_Stadt"},"federalState":{"key":"14","name":"Sachsen"}},{"name":"Regensburger Str.","postalCode":"04356","locality":"Leipzig","municipality":{"key":"14713000","name":"Leipzig, Stadt","type":"Kreisfreie_Stadt"},"district":{"key":"14713","name":"Leipzig, Stadt","type":"Kreisfreie_Stadt"},"federalState":{"key":"14","name":"Sachsen"}},{"name":"Reginenstr.","postalCode":"04155","locality":"Leipzig","municipality":{"key":"14713000","name":"Leipzig, Stadt","type":"Kreisfreie_Stadt"},"district":{"key":"14713","name":"Leipzig, Stadt","type":"Kreisfreie_Stadt"},"federalState":{"key":"14","name":"Sachsen"}},{"name":"Rehbacher Anger","postalCode":"04249","locality":"Leipzig","municipality":{"key":"14713000","name":"Leipzig, Stadt","type":"Kreisfreie_Stadt"},"district":{"key":"14713","name":"Leipzig, Stadt","type":"Kreisfreie_Stadt"},"federalState":{"key":"14","name":"Sachsen"}},{"name":"Rehbacher Str.","postalCode":"04249","locality":"Leipzig","municipality":{"key":"14713000","name":"Leipzig, Stadt","type":"Kreisfreie_Stadt"},"district":{"key":"14713","name":"Leipzig, Stadt","type":"Kreisfreie_Stadt"},"federalState":{"key":"14","name":"Sachsen"}},{"name":"Rehpfad","postalCode":"04249","locality":"Leipzig","municipality":{"key":"14713000","name":"Leipzig, Stadt","type":"Kreisfreie_Stadt"},"district":{"key":"14713","name":"Leipzig, Stadt","type":"Kreisfreie_Stadt"},"federalState":{"key":"14","name":"Sachsen"}},{"name":"Rehwagenstr.","postalCode":"04288","locality":"Leipzig","municipality":{"key":"14713000","name":"Leipzig, Stadt","type":"Kreisfreie_Stadt"},"district":{"key":"14713","name":"Leipzig, Stadt","type":"Kreisfreie_Stadt"},"federalState":{"key":"14","name":"Sachsen"}},{"name":"Rehwild","postalCode":"04277","locality":"Leipzig","municipality":{"key":"14713000","name":"Leipzig, Stadt","type":"Kreisfreie_Stadt"},"district":{"key":"14713","name":"Leipzig, Stadt","type":"Kreisfreie_Stadt"},"federalState":{"key":"14","name":"Sachsen"}},{"name":"Reichelstr.","postalCode":"04109","locality":"Leipzig","municipality":{"key":"14713000","name":"Leipzig, Stadt","type":"Kreisfreie_Stadt"},"district":{"key":"14713","name":"Leipzig, Stadt","type":"Kreisfreie_Stadt"},"federalState":{"key":"14","name":"Sachsen"}},{"name":"Reichenberger Str.","postalCode":"04178","locality":"Leipzig","municipality":{"key":"14713000","name":"Leipzig, Stadt","type":"Kreisfreie_Stadt"},"district":{"key":"14713","name":"Leipzig, Stadt","type":"Kreisfreie_Stadt"},"federalState":{"key":"14","name":"Sachsen"}},{"name":"Reichpietschstr.","postalCode":"04317","locality":"Leipzig","municipality":{"key":"14713000","name":"Leipzig, Stadt","type":"Kreisfreie_Stadt"},"district":{"key":"14713","name":"Leipzig, Stadt","type":"Kreisfreie_Stadt"},"federalState":{"key":"14","name":"Sachsen"}},{"name":"Reichpietschstr.","postalCode":"04318","locality":"Leipzig","municipality":{"key":"14713000","name":"Leipzig, Stadt","type":"Kreisfreie_Stadt"},"district":{"key":"14713","name":"Leipzig, Stadt","type":"Kreisfreie_Stadt"},"federalState":{"key":"14","name":"Sachsen"}},{"name":"Reichsbahnerstr.","postalCode":"04319","locality":"Leipzig","municipality":{"key":"14713000","name":"Leipzig, Stadt","type":"Kreisfreie_Stadt"},"district":{"key":"14713","name":"Leipzig, Stadt","type":"Kreisfreie_Stadt"},"federalState":{"key":"14","name":"Sachsen"}},{"name":"Reichsstr.","postalCode":"04109","locality":"Leipzig","municipality":{"key":"14713000","name":"Leipzig, Stadt","type":"Kreisfreie_Stadt"},"district":{"key":"14713","name":"Leipzig, Stadt","type":"Kreisfreie_Stadt"},"federalState":{"key":"14","name":"Sachsen"}},{"name":"Reiherweg","postalCode":"04178","locality":"Leipzig","municipality":{"key":"14713000","name":"Leipzig, Stadt","type":"Kreisfreie_Stadt"},"district":{"key":"14713","name":"Leipzig, Stadt","type":"Kreisfreie_Stadt"},"federalState":{"key":"14","name":"Sachsen"}},{"name":"Reinhardtstr.","postalCode":"04318","locality":"Leipzig","municipality":{"key":"14713000","name":"Leipzig, Stadt","type":"Kreisfreie_Stadt"},"district":{"key":"14713","name":"Leipzig, Stadt","type":"Kreisfreie_Stadt"},"federalState":{"key":"14","name":"Sachsen"}},{"name":"Reinhold-Krüger-Str.","postalCode":"04317","locality":"Leipzig","municipality":{"key":"14713000","name":"Leipzig, Stadt","type":"Kreisfreie_Stadt"},"district":{"key":"14713","name":"Leipzig, Stadt","type":"Kreisfreie_Stadt"},"federalState":{"key":"14","name":"Sachsen"}},{"name":"Reinhold-Schulze-Str.","postalCode":"04288","locality":"Leipzig","municipality":{"key":"14713000","name":"Leipzig, Stadt","type":"Kreisfreie_Stadt"},"district":{"key":"14713","name":"Leipzig, Stadt","type":"Kreisfreie_Stadt"},"federalState":{"key":"14","name":"Sachsen"}},{"name":"Sauteichallee","postalCode":"04668","locality":"Otterwisch","municipality":{"key":"14729330","name":"Otterwisch","type":"Kreisangehörige_Gemeinde"},"district":{"key":"14729","name":"Leipzig","type":"Landkreis"},"federalState":{"key":"14","name":"Sachsen"}},{"name":"Schloß","postalCode":"04668","locality":"Otterwisch","municipality":{"key":"14729330","name":"Otterwisch","type":"Kreisangehörige_Gemeinde"},"district":{"key":"14729","name":"Leipzig","type":"Landkreis"},"federalState":{"key":"14","name":"Sachsen"}},{"name":"Schlossallee","postalCode":"04668","locality":"Otterwisch","municipality":{"key":"14729330","name":"Otterwisch","type":"Kreisangehörige_Gemeinde"},"district":{"key":"14729","name":"Leipzig","type":"Landkreis"},"federalState":{"key":"14","name":"Sachsen"}},{"name":"Schulgasse","postalCode":"04668","locality":"Otterwisch","municipality":{"key":"14729330","name":"Otterwisch","type":"Kreisangehörige_Gemeinde"},"district":{"key":"14729","name":"Leipzig","type":"Landkreis"},"federalState":{"key":"14","name":"Sachsen"}},{"name":"Sommerberg","postalCode":"04668","locality":"Otterwisch","municipality":{"key":"14729330","name":"Otterwisch","type":"Kreisangehörige_Gemeinde"},"district":{"key":"14729","name":"Leipzig","type":"Landkreis"},"federalState":{"key":"14","name":"Sachsen"}},{"name":"Sommerweg","postalCode":"04668","locality":"Otterwisch","municipality":{"key":"14729330","name":"Otterwisch","type":"Kreisangehörige_Gemeinde"},"district":{"key":"14729","name":"Leipzig","type":"Landkreis"},"federalState":{"key":"14","name":"Sachsen"}},{"name":"Stockheimer Str.","postalCode":"04668","locality":"Otterwisch","municipality":{"key":"14729330","name":"Otterwisch","type":"Kreisangehörige_Gemeinde"},"district":{"key":"14729","name":"Leipzig","type":"Landkreis"},"federalState":{"key":"14","name":"Sachsen"}},{"name":"Str. des Friedens","postalCode":"04668","locality":"Otterwisch","municipality":{"key":"14729330","name":"Otterwisch","type":"Kreisangehörige_Gemeinde"},"district":{"key":"14729","name":"Leipzig","type":"Landkreis"},"federalState":{"key":"14","name":"Sachsen"}},{"name":"Talstr.","postalCode":"04103","locality":"Leipzig","municipality":{"key":"14713000","name":"Leipzig, Stadt","type":"Kreisfreie_Stadt"},"district":{"key":"14713","name":"Leipzig, Stadt","type":"Kreisfreie_Stadt"},"federalState":{"key":"14","name":"Sachsen"}},{"name":"Talweg","postalCode":"04277","locality":"Leipzig","municipality":{"key":"14713000","name":"Leipzig, Stadt","type":"Kreisfreie_Stadt"},"district":{"key":"14713","name":"Leipzig, Stadt","type":"Kreisfreie_Stadt"},"federalState":{"key":"14","name":"Sachsen"}},{"name":"Tannenwaldstr.","postalCode":"04159","locality":"Leipzig","municipality":{"key":"14713000","name":"Leipzig, Stadt","type":"Kreisfreie_Stadt"},"district":{"key":"14713","name":"Leipzig, Stadt","type":"Kreisfreie_Stadt"},"federalState":{"key":"14","name":"Sachsen"}},{"name":"Tannenweg","postalCode":"04288","locality":"Leipzig","municipality":{"key":"14713000","name":"Leipzig, Stadt","type":"Kreisfreie_Stadt"},"district":{"key":"14713","name":"Leipzig, Stadt","type":"Kreisfreie_Stadt"},"federalState":{"key":"14","name":"Sachsen"}},{"name":"Tarostr.","postalCode":"04103","locality":"Leipzig","municipality":{"key":"14713000","name":"Leipzig, Stadt","type":"Kreisfreie_Stadt"},"district":{"key":"14713","name":"Leipzig, Stadt","type":"Kreisfreie_Stadt"},"federalState":{"key":"14","name":"Sachsen"}},{"name":"Täschners Garten","postalCode":"04288","locality":"Leipzig","municipality":{"key":"14713000","name":"Leipzig, Stadt","type":"Kreisfreie_Stadt"},"district":{"key":"14713","name":"Leipzig, Stadt","type":"Kreisfreie_Stadt"},"federalState":{"key":"14","name":"Sachsen"}},{"name":"Täschnerstr.","postalCode":"04289","locality":"Leipzig","municipality":{"key":"14713000","name":"Leipzig, Stadt","type":"Kreisfreie_Stadt"},"district":{"key":"14713","name":"Leipzig, Stadt","type":"Kreisfreie_Stadt"},"federalState":{"key":"14","name":"Sachsen"}},{"name":"Täubchenweg","postalCode":"04103","locality":"Leipzig","municipality":{"key":"14713000","name":"Leipzig, Stadt","type":"Kreisfreie_Stadt"},"district":{"key":"14713","name":"Leipzig, Stadt","type":"Kreisfreie_Stadt"},"federalState":{"key":"14","name":"Sachsen"}},{"name":"Täubchenweg","postalCode":"04129","locality":"Leipzig","municipality":{"key":"14713000","name":"Leipzig, Stadt","type":"Kreisfreie_Stadt"},"district":{"key":"14713","name":"Leipzig, Stadt","type":"Kreisfreie_Stadt"},"federalState":{"key":"14","name":"Sachsen"}},{"name":"Täubchenweg","postalCode":"04317","locality":"Leipzig","municipality":{"key":"14713000","name":"Leipzig, Stadt","type":"Kreisfreie_Stadt"},"district":{"key":"14713","name":"Leipzig, Stadt","type":"Kreisfreie_Stadt"},"federalState":{"key":"14","name":"Sachsen"}},{"name":"Taubenbergweg","postalCode":"04249","locality":"Leipzig","municipality":{"key":"14713000","name":"Leipzig, Stadt","type":"Kreisfreie_Stadt"},"district":{"key":"14713","name":"Leipzig, Stadt","type":"Kreisfreie_Stadt"},"federalState":{"key":"14","name":"Sachsen"}},{"name":"Taubenweg","postalCode":"04318","locality":"Leipzig","municipality":{"key":"14713000","name":"Leipzig, Stadt","type":"Kreisfreie_Stadt"},"district":{"key":"14713","name":"Leipzig, Stadt","type":"Kreisfreie_Stadt"},"federalState":{"key":"14","name":"Sachsen"}},{"name":"Taubestr.","postalCode":"04347","locality":"Leipzig","municipality":{"key":"14713000","name":"Leipzig, Stadt","type":"Kreisfreie_Stadt"},"district":{"key":"14713","name":"Leipzig, Stadt","type":"Kreisfreie_Stadt"},"federalState":{"key":"14","name":"Sachsen"}},{"name":"Tauchaer Str.","postalCode":"04349","locality":"Leipzig","municipality":{"key":"14713000","name":"Leipzig, Stadt","type":"Kreisfreie_Stadt"},"district":{"key":"14713","name":"Leipzig, Stadt","type":"Kreisfreie_Stadt"},"federalState":{"key":"14","name":"Sachsen"}},{"name":"Tauchaer Str.","postalCode":"04357","locality":"Leipzig","municipality":{"key":"14713000","name":"Leipzig, Stadt","type":"Kreisfreie_Stadt"},"district":{"key":"14713","name":"Leipzig, Stadt","type":"Kreisfreie_Stadt"},"federalState":{"key":"14","name":"Sachsen"}},{"name":"Taurusweg","postalCode":"04205","locality":"Leipzig","municipality":{"key":"14713000","name":"Leipzig, Stadt","type":"Kreisfreie_Stadt"},"district":{"key":"14713","name":"Leipzig, Stadt","type":"Kreisfreie_Stadt"},"federalState":{"key":"14","name":"Sachsen"}},{"name":"Teerosenweg","postalCode":"04178","locality":"Leipzig","municipality":{"key":"14713000","name":"Leipzig, Stadt","type":"Kreisfreie_Stadt"},"district":{"key":"14713","name":"Leipzig, Stadt","type":"Kreisfreie_Stadt"},"federalState":{"key":"14","name":"Sachsen"}},{"name":"Teichgräberstr.","postalCode":"04279","locality":"Leipzig","municipality":{"key":"14713000","name":"Leipzig, Stadt","type":"Kreisfreie_Stadt"},"district":{"key":"14713","name":"Leipzig, Stadt","type":"Kreisfreie_Stadt"},"federalState":{"key":"14","name":"Sachsen"}},{"name":"Teichmannstr.","postalCode":"04288","locality":"Leipzig","municipality":{"key":"14713000","name":"Leipzig, Stadt","type":"Kreisfreie_Stadt"},"district":{"key":"14713","name":"Leipzig, Stadt","type":"Kreisfreie_Stadt"},"federalState":{"key":"14","name":"Sachsen"}},{"name":"Teichstr.","postalCode":"04277","locality":"Leipzig","municipality":{"key":"14713000","name":"Leipzig, Stadt","type":"Kreisfreie_Stadt"},"district":{"key":"14713","name":"Leipzig, Stadt","type":"Kreisfreie_Stadt"},"federalState":{"key":"14","name":"Sachsen"}},{"name":"Teichweg","postalCode":"04356","locality":"Leipzig","municipality":{"key":"14713000","name":"Leipzig, Stadt","type":"Kreisfreie_Stadt"},"district":{"key":"14713","name":"Leipzig, Stadt","type":"Kreisfreie_Stadt"},"federalState":{"key":"14","name":"Sachsen"}},{"name":"Telemannstr.","postalCode":"04107","locality":"Leipzig","municipality":{"key":"14713000","name":"Leipzig, Stadt","type":"Kreisfreie_Stadt"},"district":{"key":"14713","name":"Leipzig, Stadt","type":"Kreisfreie_Stadt"},"federalState":{"key":"14","name":"Sachsen"}},{"name":"Tellweg","postalCode":"04129","locality":"Leipzig","municipality":{"key":"14713000","name":"Leipzig, Stadt","type":"Kreisfreie_Stadt"},"district":{"key":"14713","name":"Leipzig, Stadt","type":"Kreisfreie_Stadt"},"federalState":{"key":"14","name":"Sachsen"}},{"name":"Tennstedter Weg","postalCode":"04207","locality":"Leipzig","municipality":{"key":"14713000","name":"Leipzig, Stadt","type":"Kreisfreie_Stadt"},"district":{"key":"14713","name":"Leipzig, Stadt","type":"Kreisfreie_Stadt"},"federalState":{"key":"14","name":"Sachsen"}},{"name":"Teschstr.","postalCode":"04349","locality":"Leipzig","municipality":{"key":"14713000","name":"Leipzig, Stadt","type":"Kreisfreie_Stadt"},"district":{"key":"14713","name":"Leipzig, Stadt","type":"Kreisfreie_Stadt"},"federalState":{"key":"14","name":"Sachsen"}},{"name":"Teslastr.","postalCode":"04347","locality":"Leipzig","municipality":{"key":"14713000","name":"Leipzig, Stadt","type":"Kreisfreie_Stadt"},"district":{"key":"14713","name":"Leipzig, Stadt","type":"Kreisfreie_Stadt"},"federalState":{"key":"14","name":"Sachsen"}},{"name":"Teubnerstr.","postalCode":"04317","locality":"Leipzig","municipality":{"key":"14713000","name":"Leipzig, Stadt","type":"Kreisfreie_Stadt"},"district":{"key":"14713","name":"Leipzig, Stadt","type":"Kreisfreie_Stadt"},"federalState":{"key":"14","name":"Sachsen"}},{"name":"Thaerstr.","postalCode":"04129","locality":"Leipzig","municipality":{"key":"14713000","name":"Leipzig, Stadt","type":"Kreisfreie_Stadt"},"district":{"key":"14713","name":"Leipzig, Stadt","type":"Kreisfreie_Stadt"},"federalState":{"key":"14","name":"Sachsen"}},{"name":"Thallwitzer Str.","postalCode":"04318","locality":"Leipzig","municipality":{"key":"14713000","name":"Leipzig, Stadt","type":"Kreisfreie_Stadt"},"district":{"key":"14713","name":"Leipzig, Stadt","type":"Kreisfreie_Stadt"},"federalState":{"key":"14","name":"Sachsen"}},{"name":"Thärigenstr.","postalCode":"04159","locality":"Leipzig","municipality":{"key":"14713000","name":"Leipzig, Stadt","type":"Kreisfreie_Stadt"},"district":{"key":"14713","name":"Leipzig, Stadt","type":"Kreisfreie_Stadt"},"federalState":{"key":"14","name":"Sachsen"}},{"name":"Theaterpassage","postalCode":"04109","locality":"Leipzig","municipality":{"key":"14713000","name":"Leipzig, Stadt","type":"Kreisfreie_Stadt"},"district":{"key":"14713","name":"Leipzig, Stadt","type":"Kreisfreie_Stadt"},"federalState":{"key":"14","name":"Sachsen"}},{"name":"Theklaer Str.","postalCode":"04347","locality":"Leipzig","municipality":{"key":"14713000","name":"Leipzig, Stadt","type":"Kreisfreie_Stadt"},"district":{"key":"14713","name":"Leipzig, Stadt","type":"Kreisfreie_Stadt"},"federalState":{"key":"14","name":"Sachsen"}},{"name":"Theklaer Str.","postalCode":"04349","locality":"Leipzig","municipality":{"key":"14713000","name":"Leipzig, Stadt","type":"Kreisfreie_Stadt"},"district":{"key":"14713","name":"Leipzig, Stadt","type":"Kreisfreie_Stadt"},"federalState":{"key":"14","name":"Sachsen"}},{"name":"Theobald-Beer-Str.","postalCode":"04158","locality":"Leipzig","municipality":{"key":"14713000","name":"Leipzig, Stadt","type":"Kreisfreie_Stadt"},"district":{"key":"14713","name":"Leipzig, Stadt","type":"Kreisfreie_Stadt"},"federalState":{"key":"14","name":"Sachsen"}},{"name":"Theodor-Heuss-Str.","postalCode":"04328","locality":"Leipzig","municipality":{"key":"14713000","name":"Leipzig, Stadt","type":"Kreisfreie_Stadt"},"district":{"key":"14713","name":"Leipzig, Stadt","type":"Kreisfreie_Stadt"},"federalState":{"key":"14","name":"Sachsen"}},{"name":"Theodor-Kunz-Ring","postalCode":"04319","locality":"Leipzig","municipality":{"key":"14713000","name":"Leipzig, Stadt","type":"Kreisfreie_Stadt"},"district":{"key":"14713","name":"Leipzig, Stadt","type":"Kreisfreie_Stadt"},"federalState":{"key":"14","name":"Sachsen"}},{"name":"Theodor-Neubauer-Str.","postalCode":"04318","locality":"Leipzig","municipality":{"key":"14713000","name":"Leipzig, Stadt","type":"Kreisfreie_Stadt"},"district":{"key":"14713","name":"Leipzig, Stadt","type":"Kreisfreie_Stadt"},"federalState":{"key":"14","name":"Sachsen"}},{"name":"Theodor-Voigt-Str.","postalCode":"04288","locality":"Leipzig","municipality":{"key":"14713000","name":"Leipzig, Stadt","type":"Kreisfreie_Stadt"},"district":{"key":"14713","name":"Leipzig, Stadt","type":"Kreisfreie_Stadt"},"federalState":{"key":"14","name":"Sachsen"}},{"name":"Theresienstr.","postalCode":"04105","locality":"Leipzig","municipality":{"key":"14713000","name":"Leipzig, Stadt","type":"Kreisfreie_Stadt"},"district":{"key":"14713","name":"Leipzig, Stadt","type":"Kreisfreie_Stadt"},"federalState":{"key":"14","name":"Sachsen"}},{"name":"Theresienstr.","postalCode":"04129","locality":"Leipzig","municipality":{"key":"14713000","name":"Leipzig, Stadt","type":"Kreisfreie_Stadt"},"district":{"key":"14713","name":"Leipzig, Stadt","type":"Kreisfreie_Stadt"},"federalState":{"key":"14","name":"Sachsen"}},{"name":"Thiemstr.","postalCode":"04299","locality":"Leipzig","municipality":{"key":"14713000","name":"Leipzig, Stadt","type":"Kreisfreie_Stadt"},"district":{"key":"14713","name":"Leipzig, Stadt","type":"Kreisfreie_Stadt"},"federalState":{"key":"14","name":"Sachsen"}},{"name":"Thierbacher Str.","postalCode":"04277","locality":"Leipzig","municipality":{"key":"14713000","name":"Leipzig, Stadt","type":"Kreisfreie_Stadt"},"district":{"key":"14713","name":"Leipzig, Stadt","type":"Kreisfreie_Stadt"},"federalState":{"key":"14","name":"Sachsen"}},{"name":"Thieriotstr.","postalCode":"04347","locality":"Leipzig","municipality":{"key":"14713000","name":"Leipzig, Stadt","type":"Kreisfreie_Stadt"},"district":{"key":"14713","name":"Leipzig, Stadt","type":"Kreisfreie_Stadt"},"federalState":{"key":"14","name":"Sachsen"}},{"name":"Thierschstr.","postalCode":"04289","locality":"Leipzig","municipality":{"key":"14713000","name":"Leipzig, Stadt","type":"Kreisfreie_Stadt"},"district":{"key":"14713","name":"Leipzig, Stadt","type":"Kreisfreie_Stadt"},"federalState":{"key":"14","name":"Sachsen"}},{"name":"Thietmarstr.","postalCode":"04179","locality":"Leipzig","municipality":{"key":"14713000","name":"Leipzig, Stadt","type":"Kreisfreie_Stadt"},"district":{"key":"14713","name":"Leipzig, Stadt","type":"Kreisfreie_Stadt"},"federalState":{"key":"14","name":"Sachsen"}},{"name":"Thomasgasse","postalCode":"04109","locality":"Leipzig","municipality":{"key":"14713000","name":"Leipzig, Stadt","type":"Kreisfreie_Stadt"},"district":{"key":"14713","name":"Leipzig, Stadt","type":"Kreisfreie_Stadt"},"federalState":{"key":"14","name":"Sachsen"}},{"name":"Thomasiusstr.","postalCode":"04109","locality":"Leipzig","municipality":{"key":"14713000","name":"Leipzig, Stadt","type":"Kreisfreie_Stadt"},"district":{"key":"14713","name":"Leipzig, Stadt","type":"Kreisfreie_Stadt"},"federalState":{"key":"14","name":"Sachsen"}},{"name":"Thomaskirchhof","postalCode":"04109","locality":"Leipzig","municipality":{"key":"14713000","name":"Leipzig, Stadt","type":"Kreisfreie_Stadt"},"district":{"key":"14713","name":"Leipzig, Stadt","type":"Kreisfreie_Stadt"},"federalState":{"key":"14","name":"Sachsen"}},{"name":"Thomas-Mann-Str.","postalCode":"04319","locality":"Leipzig","municipality":{"key":"14713000","name":"Leipzig, Stadt","type":"Kreisfreie_Stadt"},"district":{"key":"14713","name":"Leipzig, Stadt","type":"Kreisfreie_Stadt"},"federalState":{"key":"14","name":"Sachsen"}},{"name":"Thomas-Müntzer-Str.","postalCode":"04207","locality":"Leipzig","municipality":{"key":"14713000","name":"Leipzig, Stadt","type":"Kreisfreie_Stadt"},"district":{"key":"14713","name":"Leipzig, Stadt","type":"Kreisfreie_Stadt"},"federalState":{"key":"14","name":"Sachsen"}},{"name":"Uferstr.","postalCode":"04105","locality":"Leipzig","municipality":{"key":"14713000","name":"Leipzig, Stadt","type":"Kreisfreie_Stadt"},"district":{"key":"14713","name":"Leipzig, Stadt","type":"Kreisfreie_Stadt"},"federalState":{"key":"14","name":"Sachsen"}},{"name":"Ugiwinkel","postalCode":"04289","locality":"Leipzig","municipality":{"key":"14713000","name":"Leipzig, Stadt","type":"Kreisfreie_Stadt"},"district":{"key":"14713","name":"Leipzig, Stadt","type":"Kreisfreie_Stadt"},"federalState":{"key":"14","name":"Sachsen"}},{"name":"Uhlandstr.","postalCode":"04177","locality":"Leipzig","municipality":{"key":"14713000","name":"Leipzig, Stadt","type":"Kreisfreie_Stadt"},"district":{"key":"14713","name":"Leipzig, Stadt","type":"Kreisfreie_Stadt"},"federalState":{"key":"14","name":"Sachsen"}},{"name":"Uhlandweg","postalCode":"04316","locality":"Leipzig","municipality":{"key":"14713000","name":"Leipzig, Stadt","type":"Kreisfreie_Stadt"},"district":{"key":"14713","name":"Leipzig, Stadt","type":"Kreisfreie_Stadt"},"federalState":{"key":"14","name":"Sachsen"}},{"name":"Uhrigstr.","postalCode":"04159","locality":"Leipzig","municipality":{"key":"14713000","name":"Leipzig, Stadt","type":"Kreisfreie_Stadt"},"district":{"key":"14713","name":"Leipzig, Stadt","type":"Kreisfreie_Stadt"},"federalState":{"key":"14","name":"Sachsen"}},{"name":"Uhuweg","postalCode":"04155","locality":"Leipzig","municipality":{"key":"14713000","name":"Leipzig, Stadt","type":"Kreisfreie_Stadt"},"district":{"key":"14713","name":"Leipzig, Stadt","type":"Kreisfreie_Stadt"},"federalState":{"key":"14","name":"Sachsen"}},{"name":"Uhuweg","postalCode":"04318","locality":"Leipzig","municipality":{"key":"14713000","name":"Leipzig, Stadt","type":"Kreisfreie_Stadt"},"district":{"key":"14713","name":"Leipzig, Stadt","type":"Kreisfreie_Stadt"},"federalState":{"key":"14","name":"Sachsen"}},{"name":"Ulmenweg","postalCode":"04316","locality":"Leipzig","municipality":{"key":"14713000","name":"Leipzig, Stadt","type":"Kreisfreie_Stadt"},"district":{"key":"14713","name":"Leipzig, Stadt","type":"Kreisfreie_Stadt"},"federalState":{"key":"14","name":"Sachsen"}},{"name":"Ulmer Str.","postalCode":"04209","locality":"Leipzig","municipality":{"key":"14713000","name":"Leipzig, Stadt","type":"Kreisfreie_Stadt"},"district":{"key":"14713","name":"Leipzig, Stadt","type":"Kreisfreie_Stadt"},"federalState":{"key":"14","name":"Sachsen"}},{"name":"Ulrichstr.","postalCode":"04155","locality":"Leipzig","municipality":{"key":"14713000","name":"Leipzig, Stadt","type":"Kreisfreie_Stadt"},"district":{"key":"14713","name":"Leipzig, Stadt","type":"Kreisfreie_Stadt"},"federalState":{"key":"14","name":"Sachsen"}},{"name":"Undinenweg","postalCode":"04277","locality":"Leipzig","municipality":{"key":"14713000","name":"Leipzig, Stadt","type":"Kreisfreie_Stadt"},"district":{"key":"14713","name":"Leipzig, Stadt","type":"Kreisfreie_Stadt"},"federalState":{"key":"14","name":"Sachsen"}},{"name":"Ungerstr.","postalCode":"04318","locality":"Leipzig","municipality":{"key":"14713000","name":"Leipzig, Stadt","type":"Kreisfreie_Stadt"},"district":{"key":"14713","name":"Leipzig, Stadt","type":"Kreisfreie_Stadt"},"federalState":{"key":"14","name":"Sachsen"}},{"name":"Universitätsstr.","postalCode":"04109","locality":"Leipzig","municipality":{"key":"14713000","name":"Leipzig, Stadt","type":"Kreisfreie_Stadt"},"district":{"key":"14713","name":"Leipzig, Stadt","type":"Kreisfreie_Stadt"},"federalState":{"key":"14","name":"Sachsen"}},{"name":"Untere Eichstädtstr.","postalCode":"04299","locality":"Leipzig","municipality":{"key":"14713000","name":"Leipzig, Stadt","type":"Kreisfreie_Stadt"},"district":{"key":"14713","name":"Leipzig, Stadt","type":"Kreisfreie_Stadt"},"federalState":{"key":"14","name":"Sachsen"}},{"name":"Untere Mühlenstr.","postalCode":"04178","locality":"Leipzig","municipality":{"key":"14713000","name":"Leipzig, Stadt","type":"Kreisfreie_Stadt"},"district":{"key":"14713","name":"Leipzig, Stadt","type":"Kreisfreie_Stadt"},"federalState":{"key":"14","name":"Sachsen"}},{"name":"Untere Nordstr.","postalCode":"04288","locality":"Leipzig","municipality":{"key":"14713000","name":"Leipzig, Stadt","type":"Kreisfreie_Stadt"},"district":{"key":"14713","name":"Leipzig, Stadt","type":"Kreisfreie_Stadt"},"federalState":{"key":"14","name":"Sachsen"}},{"name":"Unterer Sandweg","postalCode":"04158","locality":"Leipzig","municipality":{"key":"14713000","name":"Leipzig, Stadt","type":"Kreisfreie_Stadt"},"district":{"key":"14713","name":"Leipzig, Stadt","type":"Kreisfreie_Stadt"},"federalState":{"key":"14","name":"Sachsen"}},{"name":"Unterführung","postalCode":"04159","locality":"Leipzig","municipality":{"key":"14713000","name":"Leipzig, Stadt","type":"Kreisfreie_Stadt"},"district":{"key":"14713","name":"Leipzig, Stadt","type":"Kreisfreie_Stadt"},"federalState":{"key":"14","name":"Sachsen"}},{"name":"Uranusstr.","postalCode":"04205","locality":"Leipzig","municipality":{"key":"14713000","name":"Leipzig, Stadt","type":"Kreisfreie_Stadt"},"district":{"key":"14713","name":"Leipzig, Stadt","type":"Kreisfreie_Stadt"},"federalState":{"key":"14","name":"Sachsen"}},{"name":"Ursula-Götze-Str.","postalCode":"04349","locality":"Leipzig","municipality":{"key":"14713000","name":"Leipzig, Stadt","type":"Kreisfreie_Stadt"},"district":{"key":"14713","name":"Leipzig, Stadt","type":"Kreisfreie_Stadt"},"federalState":{"key":"14","name":"Sachsen"}},{"name":"Usedomer Str.","postalCode":"04159","locality":"Leipzig","municipality":{"key":"14713000","name":"Leipzig, Stadt","type":"Kreisfreie_Stadt"},"district":{"key":"14713","name":"Leipzig, Stadt","type":"Kreisfreie_Stadt"},"federalState":{"key":"14","name":"Sachsen"}},{"name":"Václav-Neumann-Str.","postalCode":"04299","locality":"Leipzig","municipality":{"key":"14713000","name":"Leipzig, Stadt","type":"Kreisfreie_Stadt"},"district":{"key":"14713","name":"Leipzig, Stadt","type":"Kreisfreie_Stadt"},"federalState":{"key":"14","name":"Sachsen"}},{"name":"Vater-Jahn-Str.","postalCode":"04158","locality":"Leipzig","municipality":{"key":"14713000","name":"Leipzig, Stadt","type":"Kreisfreie_Stadt"},"district":{"key":"14713","name":"Leipzig, Stadt","type":"Kreisfreie_Stadt"},"federalState":{"key":"14","name":"Sachsen"}},{"name":"Veilchenweg","postalCode":"04155","locality":"Leipzig","municipality":{"key":"14713000","name":"Leipzig, Stadt","type":"Kreisfreie_Stadt"},"district":{"key":"14713","name":"Leipzig, Stadt","type":"Kreisfreie_Stadt"},"federalState":{"key":"14","name":"Sachsen"}},{"name":"Veilchenweg","postalCode":"04157","locality":"Leipzig","municipality":{"key":"14713000","name":"Leipzig, Stadt","type":"Kreisfreie_Stadt"},"district":{"key":"14713","name":"Leipzig, Stadt","type":"Kreisfreie_Stadt"},"federalState":{"key":"14","name":"Sachsen"}},{"name":"Veilchenweg","postalCode":"04205","locality":"Leipzig","municipality":{"key":"14713000","name":"Leipzig, Stadt","type":"Kreisfreie_Stadt"},"district":{"key":"14713","name":"Leipzig, Stadt","type":"Kreisfreie_Stadt"},"federalState":{"key":"14","name":"Sachsen"}},{"name":"Veilchenweg","postalCode":"04275","locality":"Leipzig","municipality":{"key":"14713000","name":"Leipzig, Stadt","type":"Kreisfreie_Stadt"},"district":{"key":"14713","name":"Leipzig, Stadt","type":"Kreisfreie_Stadt"},"federalState":{"key":"14","name":"Sachsen"}},{"name":"Veilchenweg","postalCode":"04299","locality":"Leipzig","municipality":{"key":"14713000","name":"Leipzig, Stadt","type":"Kreisfreie_Stadt"},"district":{"key":"14713","name":"Leipzig, Stadt","type":"Kreisfreie_Stadt"},"federalState":{"key":"14","name":"Sachsen"}},{"name":"Veilchenweg","postalCode":"04318","locality":"Leipzig","municipality":{"key":"14713000","name":"Leipzig, Stadt","type":"Kreisfreie_Stadt"},"district":{"key":"14713","name":"Leipzig, Stadt","type":"Kreisfreie_Stadt"},"federalState":{"key":"14","name":"Sachsen"}},{"name":"Verdistr.","postalCode":"04319","locality":"Leipzig","municipality":{"key":"14713000","name":"Leipzig, Stadt","type":"Kreisfreie_Stadt"},"district":{"key":"14713","name":"Leipzig, Stadt","type":"Kreisfreie_Stadt"},"federalState":{"key":"14","name":"Sachsen"}},{"name":"Verlängerte Max-Liebermann-Str.","postalCode":"04159","locality":"Leipzig","municipality":{"key":"14713000","name":"Leipzig, Stadt","type":"Kreisfreie_Stadt"},"district":{"key":"14713","name":"Leipzig, Stadt","type":"Kreisfreie_Stadt"},"federalState":{"key":"14","name":"Sachsen"}},{"name":"Verlängerte Schwedenstr.","postalCode":"04158","locality":"Leipzig","municipality":{"key":"14713000","name":"Leipzig, Stadt","type":"Kreisfreie_Stadt"},"district":{"key":"14713","name":"Leipzig, Stadt","type":"Kreisfreie_Stadt"},"federalState":{"key":"14","name":"Sachsen"}},{"name":"Verlängerte Wilhelmstr.","postalCode":"04158","locality":"Leipzig","municipality":{"key":"14713000","name":"Leipzig, Stadt","type":"Kreisfreie_Stadt"},"district":{"key":"14713","name":"Leipzig, Stadt","type":"Kreisfreie_Stadt"},"federalState":{"key":"14","name":"Sachsen"}},{"name":"Vetters Hof","postalCode":"04109","locality":"Leipzig","municipality":{"key":"14713000","name":"Leipzig, Stadt","type":"Kreisfreie_Stadt"},"district":{"key":"14713","name":"Leipzig, Stadt","type":"Kreisfreie_Stadt"},"federalState":{"key":"14","name":"Sachsen"}},{"name":"Viaduktweg","postalCode":"04158","locality":"Leipzig","municipality":{"key":"14713000","name":"Leipzig, Stadt","type":"Kreisfreie_Stadt"},"district":{"key":"14713","name":"Leipzig, Stadt","type":"Kreisfreie_Stadt"},"federalState":{"key":"14","name":"Sachsen"}},{"name":"Vierackerwiesen","postalCode":"04179","locality":"Leipzig","municipality":{"key":"14713000","name":"Leipzig, Stadt","type":"Kreisfreie_Stadt"},"district":{"key":"14713","name":"Leipzig, Stadt","type":"Kreisfreie_Stadt"},"federalState":{"key":"14","name":"Sachsen"}},{"name":"Viertelsweg","postalCode":"04157","locality":"Leipzig","municipality":{"key":"14713000","name":"Leipzig, Stadt","type":"Kreisfreie_Stadt"},"district":{"key":"14713","name":"Leipzig, Stadt","type":"Kreisfreie_Stadt"},"federalState":{"key":"14","name":"Sachsen"}},{"name":"Vierzehn-Bäume-Weg","postalCode":"04357","locality":"Leipzig","municipality":{"key":"14713000","name":"Leipzig, Stadt","type":"Kreisfreie_Stadt"},"district":{"key":"14713","name":"Leipzig, Stadt","type":"Kreisfreie_Stadt"},"federalState":{"key":"14","name":"Sachsen"}},{"name":"Viktoriastr.","postalCode":"04317","locality":"Leipzig","municipality":{"key":"14713000","name":"Leipzig, Stadt","type":"Kreisfreie_Stadt"},"district":{"key":"14713","name":"Leipzig, Stadt","type":"Kreisfreie_Stadt"},"federalState":{"key":"14","name":"Sachsen"}},{"name":"Virchowstr.","postalCode":"04157","locality":"Leipzig","municipality":{"key":"14713000","name":"Leipzig, Stadt","type":"Kreisfreie_Stadt"},"district":{"key":"14713","name":"Leipzig, Stadt","type":"Kreisfreie_Stadt"},"federalState":{"key":"14","name":"Sachsen"}},{"name":"Vivaldistr.","postalCode":"04319","locality":"Leipzig","municipality":{"key":"14713000","name":"Leipzig, Stadt","type":"Kreisfreie_Stadt"},"district":{"key":"14713","name":"Leipzig, Stadt","type":"Kreisfreie_Stadt"},"federalState":{"key":"14","name":"Sachsen"}},{"name":"Vlamenstr.","postalCode":"04159","locality":"Leipzig","municipality":{"key":"14713000","name":"Leipzig, Stadt","type":"Kreisfreie_Stadt"},"district":{"key":"14713","name":"Leipzig, Stadt","type":"Kreisfreie_Stadt"},"federalState":{"key":"14","name":"Sachsen"}},{"name":"Voigtstr.","postalCode":"04179","locality":"Leipzig","municipality":{"key":"14713000","name":"Leipzig, Stadt","type":"Kreisfreie_Stadt"},"district":{"key":"14713","name":"Leipzig, Stadt","type":"Kreisfreie_Stadt"},"federalState":{"key":"14","name":"Sachsen"}},{"name":"Volbedingstr.","postalCode":"04347","locality":"Leipzig","municipality":{"key":"14713000","name":"Leipzig, Stadt","type":"Kreisfreie_Stadt"},"district":{"key":"14713","name":"Leipzig, Stadt","type":"Kreisfreie_Stadt"},"federalState":{"key":"14","name":"Sachsen"}},{"name":"Volbedingstr.","postalCode":"04357","locality":"Leipzig","municipality":{"key":"14713000","name":"Leipzig, Stadt","type":"Kreisfreie_Stadt"},"district":{"key":"14713","name":"Leipzig, Stadt","type":"Kreisfreie_Stadt"},"federalState":{"key":"14","name":"Sachsen"}},{"name":"Volckmarstr.","postalCode":"04317","locality":"Leipzig","municipality":{"key":"14713000","name":"Leipzig, Stadt","type":"Kreisfreie_Stadt"},"district":{"key":"14713","name":"Leipzig, Stadt","type":"Kreisfreie_Stadt"},"federalState":{"key":"14","name":"Sachsen"}},{"name":"Volksgartenstr.","postalCode":"04347","locality":"Leipzig","municipality":{"key":"14713000","name":"Leipzig, Stadt","type":"Kreisfreie_Stadt"},"district":{"key":"14713","name":"Leipzig, Stadt","type":"Kreisfreie_Stadt"},"federalState":{"key":"14","name":"Sachsen"}},{"name":"Vollhardtstr.","postalCode":"04279","locality":"Leipzig","municipality":{"key":"14713000","name":"Leipzig, Stadt","type":"Kreisfreie_Stadt"},"district":{"key":"14713","name":"Leipzig, Stadt","type":"Kreisfreie_Stadt"},"federalState":{"key":"14","name":"Sachsen"}},{"name":"Voltairestr.","postalCode":"04159","locality":"Leipzig","municipality":{"key":"14713000","name":"Leipzig, Stadt","type":"Kreisfreie_Stadt"},"district":{"key":"14713","name":"Leipzig, Stadt","type":"Kreisfreie_Stadt"},"federalState":{"key":"14","name":"Sachsen"}},{"name":"Voltaweg","postalCode":"04299","locality":"Leipzig","municipality":{"key":"14713000","name":"Leipzig, Stadt","type":"Kreisfreie_Stadt"},"district":{"key":"14713","name":"Leipzig, Stadt","type":"Kreisfreie_Stadt"},"federalState":{"key":"14","name":"Sachsen"}},{"name":"Vor dem Hospitaltore","postalCode":"04103","locality":"Leipzig","municipality":{"key":"14713000","name":"Leipzig, Stadt","type":"Kreisfreie_Stadt"},"district":{"key":"14713","name":"Leipzig, Stadt","type":"Kreisfreie_Stadt"},"federalState":{"key":"14","name":"Sachsen"}},{"name":"Vordere Schlobachstr.","postalCode":"04178","locality":"Leipzig","municipality":{"key":"14713000","name":"Leipzig, Stadt","type":"Kreisfreie_Stadt"},"district":{"key":"14713","name":"Leipzig, Stadt","type":"Kreisfreie_Stadt"},"federalState":{"key":"14","name":"Sachsen"}},{"name":"Waldsiedlung","postalCode":"04668","locality":"Otterwisch","municipality":{"key":"14729330","name":"Otterwisch","type":"Kreisangehörige_Gemeinde"},"district":{"key":"14729","name":"Leipzig","type":"Landkreis"},"federalState":{"key":"14","name":"Sachsen"}},{"name":"Wiesenstr.","postalCode":"04668","locality":"Otterwisch","municipality":{"key":"14729330","name":"Otterwisch","type":"Kreisangehörige_Gemeinde"},"district":{"key":"14729","name":"Leipzig","type":"Landkreis"},"federalState":{"key":"14","name":"Sachsen"}},{"name":"Windmühlenallee","postalCode":"04668","locality":"Otterwisch","municipality":{"key":"14729330","name":"Otterwisch","type":"Kreisangehörige_Gemeinde"},"district":{"key":"14729","name":"Leipzig","type":"Landkreis"},"federalState":{"key":"14","name":"Sachsen"}},{"name":"Winterberg","postalCode":"04668","locality":"Otterwisch","municipality":{"key":"14729330","name":"Otterwisch","type":"Kreisangehörige_Gemeinde"},"district":{"key":"14729","name":"Leipzig","type":"Landkreis"},"federalState":{"key":"14","name":"Sachsen"}},{"name":"Yorck-Diebitsch-Str.","postalCode":"04178","locality":"Leipzig","municipality":{"key":"14713000","name":"Leipzig, Stadt","type":"Kreisfreie_Stadt"},"district":{"key":"14713","name":"Leipzig, Stadt","type":"Kreisfreie_Stadt"},"federalState":{"key":"14","name":"Sachsen"}},{"name":"Yorckstr.","postalCode":"04159","locality":"Leipzig","municipality":{"key":"14713000","name":"Leipzig, Stadt","type":"Kreisfreie_Stadt"},"district":{"key":"14713","name":"Leipzig, Stadt","type":"Kreisfreie_Stadt"},"federalState":{"key":"14","name":"Sachsen"}},{"name":"Yuccaweg","postalCode":"04155","locality":"Leipzig","municipality":{"key":"14713000","name":"Leipzig, Stadt","type":"Kreisfreie_Stadt"},"district":{"key":"14713","name":"Leipzig, Stadt","type":"Kreisfreie_Stadt"},"federalState":{"key":"14","name":"Sachsen"}},{"name":"Zadestr.","postalCode":"04289","locality":"Leipzig","municipality":{"key":"14713000","name":"Leipzig, Stadt","type":"Kreisfreie_Stadt"},"district":{"key":"14713","name":"Leipzig, Stadt","type":"Kreisfreie_Stadt"},"federalState":{"key":"14","name":"Sachsen"}},{"name":"Zaubergarten","postalCode":"04299","locality":"Leipzig","municipality":{"key":"14713000","name":"Leipzig, Stadt","type":"Kreisfreie_Stadt"},"district":{"key":"14713","name":"Leipzig, Stadt","type":"Kreisfreie_Stadt"},"federalState":{"key":"14","name":"Sachsen"}},{"name":"Zauberweg","postalCode":"04277","locality":"Leipzig","municipality":{"key":"14713000","name":"Leipzig, Stadt","type":"Kreisfreie_Stadt"},"district":{"key":"14713","name":"Leipzig, Stadt","type":"Kreisfreie_Stadt"},"federalState":{"key":"14","name":"Sachsen"}},{"name":"Zaucheblick","postalCode":"04288","locality":"Leipzig","municipality":{"key":"14713000","name":"Leipzig, Stadt","type":"Kreisfreie_Stadt"},"district":{"key":"14713","name":"Leipzig, Stadt","type":"Kreisfreie_Stadt"},"federalState":{"key":"14","name":"Sachsen"}},{"name":"Zaucheweg","postalCode":"04316","locality":"Leipzig","municipality":{"key":"14713000","name":"Leipzig, Stadt","type":"Kreisfreie_Stadt"},"district":{"key":"14713","name":"Leipzig, Stadt","type":"Kreisfreie_Stadt"},"federalState":{"key":"14","name":"Sachsen"}},{"name":"Zaunkönigweg","postalCode":"04129","locality":"Leipzig","municipality":{"key":"14713000","name":"Leipzig, Stadt","type":"Kreisfreie_Stadt"},"district":{"key":"14713","name":"Leipzig, Stadt","type":"Kreisfreie_Stadt"},"federalState":{"key":"14","name":"Sachsen"}},{"name":"Zaunkönigweg","postalCode":"04155","locality":"Leipzig","municipality":{"key":"14713000","name":"Leipzig, Stadt","type":"Kreisfreie_Stadt"},"district":{"key":"14713","name":"Leipzig, Stadt","type":"Kreisfreie_Stadt"},"federalState":{"key":"14","name":"Sachsen"}},{"name":"Zaunkönigweg","postalCode":"04159","locality":"Leipzig","municipality":{"key":"14713000","name":"Leipzig, Stadt","type":"Kreisfreie_Stadt"},"district":{"key":"14713","name":"Leipzig, Stadt","type":"Kreisfreie_Stadt"},"federalState":{"key":"14","name":"Sachsen"}},{"name":"Zaunkönigweg","postalCode":"04229","locality":"Leipzig","municipality":{"key":"14713000","name":"Leipzig, Stadt","type":"Kreisfreie_Stadt"},"district":{"key":"14713","name":"Leipzig, Stadt","type":"Kreisfreie_Stadt"},"federalState":{"key":"14","name":"Sachsen"}},{"name":"Zedernholzweg","postalCode":"04178","locality":"Leipzig","municipality":{"key":"14713000","name":"Leipzig, Stadt","type":"Kreisfreie_Stadt"},"district":{"key":"14713","name":"Leipzig, Stadt","type":"Kreisfreie_Stadt"},"federalState":{"key":"14","name":"Sachsen"}},{"name":"Zehmenstr.","postalCode":"04159","locality":"Leipzig","municipality":{"key":"14713000","name":"Leipzig, Stadt","type":"Kreisfreie_Stadt"},"district":{"key":"14713","name":"Leipzig, Stadt","type":"Kreisfreie_Stadt"},"federalState":{"key":"14","name":"Sachsen"}},{"name":"Zehmischstr.","postalCode":"04279","locality":"Leipzig","municipality":{"key":"14713000","name":"Leipzig, Stadt","type":"Kreisfreie_Stadt"},"district":{"key":"14713","name":"Leipzig, Stadt","type":"Kreisfreie_Stadt"},"federalState":{"key":"14","name":"Sachsen"}},{"name":"Zeisigweg","postalCode":"04129","locality":"Leipzig","municipality":{"key":"14713000","name":"Leipzig, Stadt","type":"Kreisfreie_Stadt"},"district":{"key":"14713","name":"Leipzig, Stadt","type":"Kreisfreie_Stadt"},"federalState":{"key":"14","name":"Sachsen"}},{"name":"Zeisigweg","postalCode":"04155","locality":"Leipzig","municipality":{"key":"14713000","name":"Leipzig, Stadt","type":"Kreisfreie_Stadt"},"district":{"key":"14713","name":"Leipzig, Stadt","type":"Kreisfreie_Stadt"},"federalState":{"key":"14","name":"Sachsen"}},{"name":"Zeisigweg","postalCode":"04159","locality":"Leipzig","municipality":{"key":"14713000","name":"Leipzig, Stadt","type":"Kreisfreie_Stadt"},"district":{"key":"14713","name":"Leipzig, Stadt","type":"Kreisfreie_Stadt"},"federalState":{"key":"14","name":"Sachsen"}},{"name":"Zeisigweg","postalCode":"04277","locality":"Leipzig","municipality":{"key":"14713000","name":"Leipzig, Stadt","type":"Kreisfreie_Stadt"},"district":{"key":"14713","name":"Leipzig, Stadt","type":"Kreisfreie_Stadt"},"federalState":{"key":"14","name":"Sachsen"}},{"name":"Zeisigweg","postalCode":"04318","locality":"Leipzig","municipality":{"key":"14713000","name":"Leipzig, Stadt","type":"Kreisfreie_Stadt"},"district":{"key":"14713","name":"Leipzig, Stadt","type":"Kreisfreie_Stadt"},"federalState":{"key":"14","name":"Sachsen"}},{"name":"Zeitzer Str.","postalCode":"04249","locality":"Leipzig","municipality":{"key":"14713000","name":"Leipzig, Stadt","type":"Kreisfreie_Stadt"},"district":{"key":"14713","name":"Leipzig, Stadt","type":"Kreisfreie_Stadt"},"federalState":{"key":"14","name":"Sachsen"}},{"name":"Zentralstr.","postalCode":"04109","locality":"Leipzig","municipality":{"key":"14713000","name":"Leipzig, Stadt","type":"Kreisfreie_Stadt"},"district":{"key":"14713","name":"Leipzig, Stadt","type":"Kreisfreie_Stadt"},"federalState":{"key":"14","name":"Sachsen"}},{"name":"Zerbster Str.","postalCode":"04129","locality":"Leipzig","municipality":{"key":"14713000","name":"Leipzig, Stadt","type":"Kreisfreie_Stadt"},"district":{"key":"14713","name":"Leipzig, Stadt","type":"Kreisfreie_Stadt"},"federalState":{"key":"14","name":"Sachsen"}},{"name":"Zeumerstr.","postalCode":"04347","locality":"Leipzig","municipality":{"key":"14713000","name":"Leipzig, Stadt","type":"Kreisfreie_Stadt"},"district":{"key":"14713","name":"Leipzig, Stadt","type":"Kreisfreie_Stadt"},"federalState":{"key":"14","name":"Sachsen"}},{"name":"Ziegeleiweg","postalCode":"04158","locality":"Leipzig","municipality":{"key":"14713000","name":"Leipzig, Stadt","type":"Kreisfreie_Stadt"},"district":{"key":"14713","name":"Leipzig, Stadt","type":"Kreisfreie_Stadt"},"federalState":{"key":"14","name":"Sachsen"}},{"name":"Ziegelstr.","postalCode":"04288","locality":"Leipzig","municipality":{"key":"14713000","name":"Leipzig, Stadt","type":"Kreisfreie_Stadt"},"district":{"key":"14713","name":"Leipzig, Stadt","type":"Kreisfreie_Stadt"},"federalState":{"key":"14","name":"Sachsen"}},{"name":"Ziegelstr.","postalCode":"04316","locality":"Leipzig","municipality":{"key":"14713000","name":"Leipzig, Stadt","type":"Kreisfreie_Stadt"},"district":{"key":"14713","name":"Leipzig, Stadt","type":"Kreisfreie_Stadt"},"federalState":{"key":"14","name":"Sachsen"}},{"name":"Ziegensteg","postalCode":"04277","locality":"Leipzig","municipality":{"key":"14713000","name":"Leipzig, Stadt","type":"Kreisfreie_Stadt"},"district":{"key":"14713","name":"Leipzig, Stadt","type":"Kreisfreie_Stadt"},"federalState":{"key":"14","name":"Sachsen"}},{"name":"Zillerstr.","postalCode":"04317","locality":"Leipzig","municipality":{"key":"14713000","name":"Leipzig, Stadt","type":"Kreisfreie_Stadt"},"district":{"key":"14713","name":"Leipzig, Stadt","type":"Kreisfreie_Stadt"},"federalState":{"key":"14","name":"Sachsen"}},{"name":"Zillstr.","postalCode":"04157","locality":"Leipzig","municipality":{"key":"14713000","name":"Leipzig, Stadt","type":"Kreisfreie_Stadt"},"district":{"key":"14713","name":"Leipzig, Stadt","type":"Kreisfreie_Stadt"},"federalState":{"key":"14","name":"Sachsen"}},{"name":"Zimmerstr.","postalCode":"04109","locality":"Leipzig","municipality":{"key":"14713000","name":"Leipzig, Stadt","type":"Kreisfreie_Stadt"},"district":{"key":"14713","name":"Leipzig, Stadt","type":"Kreisfreie_Stadt"},"federalState":{"key":"14","name":"Sachsen"}},{"name":"Zimmerweg","postalCode":"04229","locality":"Leipzig","municipality":{"key":"14713000","name":"Leipzig, Stadt","type":"Kreisfreie_Stadt"},"district":{"key":"14713","name":"Leipzig, Stadt","type":"Kreisfreie_Stadt"},"federalState":{"key":"14","name":"Sachsen"}},{"name":"Zingster Str.","postalCode":"04207","locality":"Leipzig","municipality":{"key":"14713000","name":"Leipzig, Stadt","type":"Kreisfreie_Stadt"},"district":{"key":"14713","name":"Leipzig, Stadt","type":"Kreisfreie_Stadt"},"federalState":{"key":"14","name":"Sachsen"}},{"name":"Zinnienweg","postalCode":"04318","locality":"Leipzig","municipality":{"key":"14713000","name":"Leipzig, Stadt","type":"Kreisfreie_Stadt"},"district":{"key":"14713","name":"Leipzig, Stadt","type":"Kreisfreie_Stadt"},"federalState":{"key":"14","name":"Sachsen"}},{"name":"Zinnienweg","postalCode":"04319","locality":"Leipzig","municipality":{"key":"14713000","name":"Leipzig, Stadt","type":"Kreisfreie_Stadt"},"district":{"key":"14713","name":"Leipzig, Stadt","type":"Kreisfreie_Stadt"},"federalState":{"key":"14","name":"Sachsen"}},{"name":"Ziolkowskistr.","postalCode":"04357","locality":"Leipzig","municipality":{"key":"14713000","name":"Leipzig, Stadt","type":"Kreisfreie_Stadt"},"district":{"key":"14713","name":"Leipzig, Stadt","type":"Kreisfreie_Stadt"},"federalState":{"key":"14","name":"Sachsen"}},{"name":"Zirkonstr.","postalCode":"04319","locality":"Leipzig","municipality":{"key":"14713000","name":"Leipzig, Stadt","type":"Kreisfreie_Stadt"},"district":{"key":"14713","name":"Leipzig, Stadt","type":"Kreisfreie_Stadt"},"federalState":{"key":"14","name":"Sachsen"}},{"name":"Zittauer Str.","postalCode":"04347","locality":"Leipzig","municipality":{"key":"14713000","name":"Leipzig, Stadt","type":"Kreisfreie_Stadt"},"district":{"key":"14713","name":"Leipzig, Stadt","type":"Kreisfreie_Stadt"},"federalState":{"key":"14","name":"Sachsen"}},{"name":"Ziustr.","postalCode":"04349","locality":"Leipzig","municipality":{"key":"14713000","name":"Leipzig, Stadt","type":"Kreisfreie_Stadt"},"district":{"key":"14713","name":"Leipzig, Stadt","type":"Kreisfreie_Stadt"},"federalState":{"key":"14","name":"Sachsen"}},{"name":"Zolaweg","postalCode":"04289","locality":"Leipzig","municipality":{"key":"14713000","name":"Leipzig, Stadt","type":"Kreisfreie_Stadt"},"district":{"key":"14713","name":"Leipzig, Stadt","type":"Kreisfreie_Stadt"},"federalState":{"key":"14","name":"Sachsen"}},{"name":"Zollikoferstr.","postalCode":"04315","locality":"Leipzig","municipality":{"key":"14713000","name":"Leipzig, Stadt","type":"Kreisfreie_Stadt"},"district":{"key":"14713","name":"Leipzig, Stadt","type":"Kreisfreie_Stadt"},"federalState":{"key":"14","name":"Sachsen"}},{"name":"Zöllnerweg","postalCode":"04105","locality":"Leipzig","municipality":{"key":"14713000","name":"Leipzig, Stadt","type":"Kreisfreie_Stadt"},"district":{"key":"14713","name":"Leipzig, Stadt","type":"Kreisfreie_Stadt"},"federalState":{"key":"14","name":"Sachsen"}},{"name":"Zoo-Rundweg","postalCode":"04105","locality":"Leipzig","municipality":{"key":"14713000","name":"Leipzig, Stadt","type":"Kreisfreie_Stadt"},"district":{"key":"14713","name":"Leipzig, Stadt","type":"Kreisfreie_Stadt"},"federalState":{"key":"14","name":"Sachsen"}},{"name":"Zschampertaue","postalCode":"04207","locality":"Leipzig","municipality":{"key":"14713000","name":"Leipzig, Stadt","type":"Kreisfreie_Stadt"},"district":{"key":"14713","name":"Leipzig, Stadt","type":"Kreisfreie_Stadt"},"federalState":{"key":"14","name":"Sachsen"}},{"name":"Zschochersche Allee","postalCode":"04207","locality":"Leipzig","municipality":{"key":"14713000","name":"Leipzig, Stadt","type":"Kreisfreie_Stadt"},"district":{"key":"14713","name":"Leipzig, Stadt","type":"Kreisfreie_Stadt"},"federalState":{"key":"14","name":"Sachsen"}},{"name":"Zschochersche Str.","postalCode":"04177","locality":"Leipzig","municipality":{"key":"14713000","name":"Leipzig, Stadt","type":"Kreisfreie_Stadt"},"district":{"key":"14713","name":"Leipzig, Stadt","type":"Kreisfreie_Stadt"},"federalState":{"key":"14","name":"Sachsen"}},{"name":"Zschochersche Str.","postalCode":"04229","locality":"Leipzig","municipality":{"key":"14713000","name":"Leipzig, Stadt","type":"Kreisfreie_Stadt"},"district":{"key":"14713","name":"Leipzig, Stadt","type":"Kreisfreie_Stadt"},"federalState":{"key":"14","name":"Sachsen"}},{"name":"Zschölkauer Weg","postalCode":"04129","locality":"Leipzig","municipality":{"key":"14713000","name":"Leipzig, Stadt","type":"Kreisfreie_Stadt"},"district":{"key":"14713","name":"Leipzig, Stadt","type":"Kreisfreie_Stadt"},"federalState":{"key":"14","name":"Sachsen"}},{"name":"Zschopauer Str.","postalCode":"04349","locality":"Leipzig","municipality":{"key":"14713000","name":"Leipzig, Stadt","type":"Kreisfreie_Stadt"},"district":{"key":"14713","name":"Leipzig, Stadt","type":"Kreisfreie_Stadt"},"federalState":{"key":"14","name":"Sachsen"}},{"name":"Zschortauer Str.","postalCode":"04129","locality":"Leipzig","municipality":{"key":"14713000","name":"Leipzig, Stadt","type":"Kreisfreie_Stadt"},"district":{"key":"14713","name":"Leipzig, Stadt","type":"Kreisfreie_Stadt"},"federalState":{"key":"14","name":"Sachsen"}},{"name":"Zucholdweg","postalCode":"04319","locality":"Leipzig","municipality":{"key":"14713000","name":"Leipzig, Stadt","type":"Kreisfreie_Stadt"},"district":{"key":"14713","name":"Leipzig, Stadt","type":"Kreisfreie_Stadt"},"federalState":{"key":"14","name":"Sachsen"}},{"name":"Zuckelhausener Ring","postalCode":"04288","locality":"Leipzig","municipality":{"key":"14713000","name":"Leipzig, Stadt","type":"Kreisfreie_Stadt"},"district":{"key":"14713","name":"Leipzig, Stadt","type":"Kreisfreie_Stadt"},"federalState":{"key":"14","name":"Sachsen"}},{"name":"Zuckelhäuser Str.","postalCode":"04299","locality":"Leipzig","municipality":{"key":"14713000","name":"Leipzig, Stadt","type":"Kreisfreie_Stadt"},"district":{"key":"14713","name":"Leipzig, Stadt","type":"Kreisfreie_Stadt"},"federalState":{"key":"14","name":"Sachsen"}},{"name":"Äußere Auenblickstr.","postalCode":"04159","locality":"Leipzig","municipality":{"key":"14713000","name":"Leipzig, Stadt","type":"Kreisfreie_Stadt"},"district":{"key":"14713","name":"Leipzig, Stadt","type":"Kreisfreie_Stadt"},"federalState":{"key":"14","name":"Sachsen"}},{"name":"Äußere Friedrich-Naumann-Str.","postalCode":"04158","locality":"Leipzig","municipality":{"key":"14713000","name":"Leipzig, Stadt","type":"Kreisfreie_Stadt"},"district":{"key":"14713","name":"Leipzig, Stadt","type":"Kreisfreie_Stadt"},"federalState":{"key":"14","name":"Sachsen"}},{"name":"Äußere Mühlenstr.","postalCode":"04159","locality":"Leipzig","municipality":{"key":"14713000","name":"Leipzig, Stadt","type":"Kreisfreie_Stadt"},"district":{"key":"14713","name":"Leipzig, Stadt","type":"Kreisfreie_Stadt"},"federalState":{"key":"14","name":"Sachsen"}},{"name":"Äußere Raustr.","postalCode":"04158","locality":"Leipzig","municipality":{"key":"14713000","name":"Leipzig, Stadt","type":"Kreisfreie_Stadt"},"district":{"key":"14713","name":"Leipzig, Stadt","type":"Kreisfreie_Stadt"},"federalState":{"key":"14","name":"Sachsen"}},{"name":"Äußerer Zeisigweg","postalCode":"04158","locality":"Leipzig","municipality":{"key":"14713000","name":"Leipzig, Stadt","type":"Kreisfreie_Stadt"},"district":{"key":"14713","name":"Leipzig, Stadt","type":"Kreisfreie_Stadt"},"federalState":{"key":"14","name":"Sachsen"}},{"name":"Ölhafenstr.","postalCode":"04159","locality":"Leipzig","municipality":{"key":"14713000","name":"Leipzig, Stadt","type":"Kreisfreie_Stadt"},"district":{"key":"14713","name":"Leipzig, Stadt","type":"Kreisfreie_Stadt"},"federalState":{"key":"14","name":"Sachsen"}},{"name":"Österreicherweg","postalCode":"04289","locality":"Leipzig","municipality":{"key":"14713000","name":"Leipzig, Stadt","type":"Kreisfreie_Stadt"},"district":{"key":"14713","name":"Leipzig, Stadt","type":"Kreisfreie_Stadt"},"federalState":{"key":"14","name":"Sachsen"}},]