[{"name":"Aachener Str.","postalCode":"53937","locality":"Schleiden","municipality":{"key":"05366036","name":"Schleiden, Stadt","type":"Stadt"},"district":{"key":"05366","name":"Euskirchen","type":"Kreis"},"federalState":{"key":"05","name":"Nordrhein-Westfalen"}},{"name":"Ahornweg","postalCode":"53937","locality":"Schleiden","municipality":{"key":"05366036","name":"Schleiden, Stadt","type":"Stadt"},"district":{"key":"05366","name":"Euskirchen","type":"Kreis"},"federalState":{"key":"05","name":"Nordrhein-Westfalen"}},{"name":"Alte Bahnhofstr.","postalCode":"53937","locality":"Schleiden","municipality":{"key":"05366036","name":"Schleiden, Stadt","type":"Stadt"},"district":{"key":"05366","name":"Euskirchen","type":"Kreis"},"federalState":{"key":"05","name":"Nordrhein-Westfalen"}},{"name":"Alter Kirchweg","postalCode":"53937","locality":"Schleiden","municipality":{"key":"05366036","name":"Schleiden, Stadt","type":"Stadt"},"district":{"key":"05366","name":"Euskirchen","type":"Kreis"},"federalState":{"key":"05","name":"Nordrhein-Westfalen"}},{"name":"Alter Römerweg","postalCode":"53937","locality":"Schleiden","municipality":{"key":"05366036","name":"Schleiden, Stadt","type":"Stadt"},"district":{"key":"05366","name":"Euskirchen","type":"Kreis"},"federalState":{"key":"05","name":"Nordrhein-Westfalen"}},{"name":"Alter Weg","postalCode":"53937","locality":"Schleiden","municipality":{"key":"05366036","name":"Schleiden, Stadt","type":"Stadt"},"district":{"key":"05366","name":"Euskirchen","type":"Kreis"},"federalState":{"key":"05","name":"Nordrhein-Westfalen"}},{"name":"Am alten Rathaus","postalCode":"53937","locality":"Schleiden","municipality":{"key":"05366036","name":"Schleiden, Stadt","type":"Stadt"},"district":{"key":"05366","name":"Euskirchen","type":"Kreis"},"federalState":{"key":"05","name":"Nordrhein-Westfalen"}},{"name":"Am Dieffenbach","postalCode":"53937","locality":"Schleiden","municipality":{"key":"05366036","name":"Schleiden, Stadt","type":"Stadt"},"district":{"key":"05366","name":"Euskirchen","type":"Kreis"},"federalState":{"key":"05","name":"Nordrhein-Westfalen"}},{"name":"Am Driesch","postalCode":"53937","locality":"Schleiden","municipality":{"key":"05366036","name":"Schleiden, Stadt","type":"Stadt"},"district":{"key":"05366","name":"Euskirchen","type":"Kreis"},"federalState":{"key":"05","name":"Nordrhein-Westfalen"}},{"name":"Ameisenhardt","postalCode":"53937","locality":"Schleiden","municipality":{"key":"05366036","name":"Schleiden, Stadt","type":"Stadt"},"district":{"key":"05366","name":"Euskirchen","type":"Kreis"},"federalState":{"key":"05","name":"Nordrhein-Westfalen"}},{"name":"Am Feldrain","postalCode":"53937","locality":"Schleiden","municipality":{"key":"05366036","name":"Schleiden, Stadt","type":"Stadt"},"district":{"key":"05366","name":"Euskirchen","type":"Kreis"},"federalState":{"key":"05","name":"Nordrhein-Westfalen"}},{"name":"Am Forst","postalCode":"53937","locality":"Schleiden","municipality":{"key":"05366036","name":"Schleiden, Stadt","type":"Stadt"},"district":{"key":"05366","name":"Euskirchen","type":"Kreis"},"federalState":{"key":"05","name":"Nordrhein-Westfalen"}},{"name":"Am Hähnchen","postalCode":"53937","locality":"Schleiden","municipality":{"key":"05366036","name":"Schleiden, Stadt","type":"Stadt"},"district":{"key":"05366","name":"Euskirchen","type":"Kreis"},"federalState":{"key":"05","name":"Nordrhein-Westfalen"}},{"name":"Am Heiligenhäuschen","postalCode":"53937","locality":"Schleiden","municipality":{"key":"05366036","name":"Schleiden, Stadt","type":"Stadt"},"district":{"key":"05366","name":"Euskirchen","type":"Kreis"},"federalState":{"key":"05","name":"Nordrhein-Westfalen"}},{"name":"Am Hühnerberg","postalCode":"53937","locality":"Schleiden","municipality":{"key":"05366036","name":"Schleiden, Stadt","type":"Stadt"},"district":{"key":"05366","name":"Euskirchen","type":"Kreis"},"federalState":{"key":"05","name":"Nordrhein-Westfalen"}},{"name":"Am Kreuzberg","postalCode":"53937","locality":"Schleiden","municipality":{"key":"05366036","name":"Schleiden, Stadt","type":"Stadt"},"district":{"key":"05366","name":"Euskirchen","type":"Kreis"},"federalState":{"key":"05","name":"Nordrhein-Westfalen"}},{"name":"Am Lieberg","postalCode":"53937","locality":"Schleiden","municipality":{"key":"05366036","name":"Schleiden, Stadt","type":"Stadt"},"district":{"key":"05366","name":"Euskirchen","type":"Kreis"},"federalState":{"key":"05","name":"Nordrhein-Westfalen"}},{"name":"Am Markt","postalCode":"53937","locality":"Schleiden","municipality":{"key":"05366036","name":"Schleiden, Stadt","type":"Stadt"},"district":{"key":"05366","name":"Euskirchen","type":"Kreis"},"federalState":{"key":"05","name":"Nordrhein-Westfalen"}},{"name":"Am Merrchen","postalCode":"53937","locality":"Schleiden","municipality":{"key":"05366036","name":"Schleiden, Stadt","type":"Stadt"},"district":{"key":"05366","name":"Euskirchen","type":"Kreis"},"federalState":{"key":"05","name":"Nordrhein-Westfalen"}},{"name":"Am Mühlenberg","postalCode":"53937","locality":"Schleiden","municipality":{"key":"05366036","name":"Schleiden, Stadt","type":"Stadt"},"district":{"key":"05366","name":"Euskirchen","type":"Kreis"},"federalState":{"key":"05","name":"Nordrhein-Westfalen"}},{"name":"Am Pättchen","postalCode":"53937","locality":"Schleiden","municipality":{"key":"05366036","name":"Schleiden, Stadt","type":"Stadt"},"district":{"key":"05366","name":"Euskirchen","type":"Kreis"},"federalState":{"key":"05","name":"Nordrhein-Westfalen"}},{"name":"Am Plan","postalCode":"53937","locality":"Schleiden","municipality":{"key":"05366036","name":"Schleiden, Stadt","type":"Stadt"},"district":{"key":"05366","name":"Euskirchen","type":"Kreis"},"federalState":{"key":"05","name":"Nordrhein-Westfalen"}},{"name":"Am Pütz","postalCode":"53937","locality":"Schleiden","municipality":{"key":"05366036","name":"Schleiden, Stadt","type":"Stadt"},"district":{"key":"05366","name":"Euskirchen","type":"Kreis"},"federalState":{"key":"05","name":"Nordrhein-Westfalen"}},{"name":"Am Rundenbaum","postalCode":"53937","locality":"Schleiden","municipality":{"key":"05366036","name":"Schleiden, Stadt","type":"Stadt"},"district":{"key":"05366","name":"Euskirchen","type":"Kreis"},"federalState":{"key":"05","name":"Nordrhein-Westfalen"}},{"name":"Am Salzberg","postalCode":"53937","locality":"Schleiden","municipality":{"key":"05366036","name":"Schleiden, Stadt","type":"Stadt"},"district":{"key":"05366","name":"Euskirchen","type":"Kreis"},"federalState":{"key":"05","name":"Nordrhein-Westfalen"}},{"name":"Am Schmittenpesch","postalCode":"53937","locality":"Schleiden","municipality":{"key":"05366036","name":"Schleiden, Stadt","type":"Stadt"},"district":{"key":"05366","name":"Euskirchen","type":"Kreis"},"federalState":{"key":"05","name":"Nordrhein-Westfalen"}},{"name":"Amselweg","postalCode":"53937","locality":"Schleiden","municipality":{"key":"05366036","name":"Schleiden, Stadt","type":"Stadt"},"district":{"key":"05366","name":"Euskirchen","type":"Kreis"},"federalState":{"key":"05","name":"Nordrhein-Westfalen"}},{"name":"Am Werk","postalCode":"53937","locality":"Schleiden","municipality":{"key":"05366036","name":"Schleiden, Stadt","type":"Stadt"},"district":{"key":"05366","name":"Euskirchen","type":"Kreis"},"federalState":{"key":"05","name":"Nordrhein-Westfalen"}},{"name":"An der Eiche","postalCode":"53937","locality":"Schleiden","municipality":{"key":"05366036","name":"Schleiden, Stadt","type":"Stadt"},"district":{"key":"05366","name":"Euskirchen","type":"Kreis"},"federalState":{"key":"05","name":"Nordrhein-Westfalen"}},{"name":"An der Hardt","postalCode":"53937","locality":"Schleiden","municipality":{"key":"05366036","name":"Schleiden, Stadt","type":"Stadt"},"district":{"key":"05366","name":"Euskirchen","type":"Kreis"},"federalState":{"key":"05","name":"Nordrhein-Westfalen"}},{"name":"An der Kapelle","postalCode":"53937","locality":"Schleiden","municipality":{"key":"05366036","name":"Schleiden, Stadt","type":"Stadt"},"district":{"key":"05366","name":"Euskirchen","type":"Kreis"},"federalState":{"key":"05","name":"Nordrhein-Westfalen"}},{"name":"An der Ley","postalCode":"53937","locality":"Schleiden","municipality":{"key":"05366036","name":"Schleiden, Stadt","type":"Stadt"},"district":{"key":"05366","name":"Euskirchen","type":"Kreis"},"federalState":{"key":"05","name":"Nordrhein-Westfalen"}},{"name":"An der Linde","postalCode":"53937","locality":"Schleiden","municipality":{"key":"05366036","name":"Schleiden, Stadt","type":"Stadt"},"district":{"key":"05366","name":"Euskirchen","type":"Kreis"},"federalState":{"key":"05","name":"Nordrhein-Westfalen"}},{"name":"An der Maiheck","postalCode":"53937","locality":"Schleiden","municipality":{"key":"05366036","name":"Schleiden, Stadt","type":"Stadt"},"district":{"key":"05366","name":"Euskirchen","type":"Kreis"},"federalState":{"key":"05","name":"Nordrhein-Westfalen"}},{"name":"An der Olef","postalCode":"53937","locality":"Schleiden","municipality":{"key":"05366036","name":"Schleiden, Stadt","type":"Stadt"},"district":{"key":"05366","name":"Euskirchen","type":"Kreis"},"federalState":{"key":"05","name":"Nordrhein-Westfalen"}},{"name":"An St. Katharina","postalCode":"53937","locality":"Schleiden","municipality":{"key":"05366036","name":"Schleiden, Stadt","type":"Stadt"},"district":{"key":"05366","name":"Euskirchen","type":"Kreis"},"federalState":{"key":"05","name":"Nordrhein-Westfalen"}},{"name":"Arenbergstr.","postalCode":"53937","locality":"Schleiden","municipality":{"key":"05366036","name":"Schleiden, Stadt","type":"Stadt"},"district":{"key":"05366","name":"Euskirchen","type":"Kreis"},"federalState":{"key":"05","name":"Nordrhein-Westfalen"}},{"name":"Auelshag","postalCode":"53937","locality":"Schleiden","municipality":{"key":"05366036","name":"Schleiden, Stadt","type":"Stadt"},"district":{"key":"05366","name":"Euskirchen","type":"Kreis"},"federalState":{"key":"05","name":"Nordrhein-Westfalen"}},{"name":"Auf dem Acker","postalCode":"53937","locality":"Schleiden","municipality":{"key":"05366036","name":"Schleiden, Stadt","type":"Stadt"},"district":{"key":"05366","name":"Euskirchen","type":"Kreis"},"federalState":{"key":"05","name":"Nordrhein-Westfalen"}},{"name":"Auf dem Fürling","postalCode":"53937","locality":"Schleiden","municipality":{"key":"05366036","name":"Schleiden, Stadt","type":"Stadt"},"district":{"key":"05366","name":"Euskirchen","type":"Kreis"},"federalState":{"key":"05","name":"Nordrhein-Westfalen"}},{"name":"Auf dem Hohenfeld","postalCode":"53937","locality":"Schleiden","municipality":{"key":"05366036","name":"Schleiden, Stadt","type":"Stadt"},"district":{"key":"05366","name":"Euskirchen","type":"Kreis"},"federalState":{"key":"05","name":"Nordrhein-Westfalen"}},{"name":"Auf dem Stock","postalCode":"53937","locality":"Schleiden","municipality":{"key":"05366036","name":"Schleiden, Stadt","type":"Stadt"},"district":{"key":"05366","name":"Euskirchen","type":"Kreis"},"federalState":{"key":"05","name":"Nordrhein-Westfalen"}},{"name":"Auf der Batterie","postalCode":"53937","locality":"Schleiden","municipality":{"key":"05366036","name":"Schleiden, Stadt","type":"Stadt"},"district":{"key":"05366","name":"Euskirchen","type":"Kreis"},"federalState":{"key":"05","name":"Nordrhein-Westfalen"}},{"name":"Auf der Maar","postalCode":"53937","locality":"Schleiden","municipality":{"key":"05366036","name":"Schleiden, Stadt","type":"Stadt"},"district":{"key":"05366","name":"Euskirchen","type":"Kreis"},"federalState":{"key":"05","name":"Nordrhein-Westfalen"}},{"name":"Auf der Vedert","postalCode":"53937","locality":"Schleiden","municipality":{"key":"05366036","name":"Schleiden, Stadt","type":"Stadt"},"district":{"key":"05366","name":"Euskirchen","type":"Kreis"},"federalState":{"key":"05","name":"Nordrhein-Westfalen"}},{"name":"Auf Knopspesch","postalCode":"53937","locality":"Schleiden","municipality":{"key":"05366036","name":"Schleiden, Stadt","type":"Stadt"},"district":{"key":"05366","name":"Euskirchen","type":"Kreis"},"federalState":{"key":"05","name":"Nordrhein-Westfalen"}},{"name":"Auf'm Dörnchen","postalCode":"53937","locality":"Schleiden","municipality":{"key":"05366036","name":"Schleiden, Stadt","type":"Stadt"},"district":{"key":"05366","name":"Euskirchen","type":"Kreis"},"federalState":{"key":"05","name":"Nordrhein-Westfalen"}},{"name":"Baronsdell","postalCode":"53937","locality":"Schleiden","municipality":{"key":"05366036","name":"Schleiden, Stadt","type":"Stadt"},"district":{"key":"05366","name":"Euskirchen","type":"Kreis"},"federalState":{"key":"05","name":"Nordrhein-Westfalen"}},{"name":"Berescheid","postalCode":"53937","locality":"Schleiden","municipality":{"key":"05366036","name":"Schleiden, Stadt","type":"Stadt"},"district":{"key":"05366","name":"Euskirchen","type":"Kreis"},"federalState":{"key":"05","name":"Nordrhein-Westfalen"}},{"name":"Bergstr.","postalCode":"53937","locality":"Schleiden","municipality":{"key":"05366036","name":"Schleiden, Stadt","type":"Stadt"},"district":{"key":"05366","name":"Euskirchen","type":"Kreis"},"federalState":{"key":"05","name":"Nordrhein-Westfalen"}},{"name":"Birkenweg","postalCode":"53937","locality":"Schleiden","municipality":{"key":"05366036","name":"Schleiden, Stadt","type":"Stadt"},"district":{"key":"05366","name":"Euskirchen","type":"Kreis"},"federalState":{"key":"05","name":"Nordrhein-Westfalen"}},{"name":"Blankenheimer Str.","postalCode":"53937","locality":"Schleiden","municipality":{"key":"05366036","name":"Schleiden, Stadt","type":"Stadt"},"district":{"key":"05366","name":"Euskirchen","type":"Kreis"},"federalState":{"key":"05","name":"Nordrhein-Westfalen"}},{"name":"Blumenthaler Str.","postalCode":"53937","locality":"Schleiden","municipality":{"key":"05366036","name":"Schleiden, Stadt","type":"Stadt"},"district":{"key":"05366","name":"Euskirchen","type":"Kreis"},"federalState":{"key":"05","name":"Nordrhein-Westfalen"}},{"name":"Brabantstr.","postalCode":"53937","locality":"Schleiden","municipality":{"key":"05366036","name":"Schleiden, Stadt","type":"Stadt"},"district":{"key":"05366","name":"Euskirchen","type":"Kreis"},"federalState":{"key":"05","name":"Nordrhein-Westfalen"}},{"name":"Braubach","postalCode":"53937","locality":"Schleiden","municipality":{"key":"05366036","name":"Schleiden, Stadt","type":"Stadt"},"district":{"key":"05366","name":"Euskirchen","type":"Kreis"},"federalState":{"key":"05","name":"Nordrhein-Westfalen"}},{"name":"Breslauer Str.","postalCode":"53937","locality":"Schleiden","municipality":{"key":"05366036","name":"Schleiden, Stadt","type":"Stadt"},"district":{"key":"05366","name":"Euskirchen","type":"Kreis"},"federalState":{"key":"05","name":"Nordrhein-Westfalen"}},{"name":"Broich","postalCode":"53937","locality":"Schleiden","municipality":{"key":"05366036","name":"Schleiden, Stadt","type":"Stadt"},"district":{"key":"05366","name":"Euskirchen","type":"Kreis"},"federalState":{"key":"05","name":"Nordrhein-Westfalen"}},{"name":"Brombeerweg","postalCode":"53937","locality":"Schleiden","municipality":{"key":"05366036","name":"Schleiden, Stadt","type":"Stadt"},"district":{"key":"05366","name":"Euskirchen","type":"Kreis"},"federalState":{"key":"05","name":"Nordrhein-Westfalen"}},{"name":"Bronsfeld","postalCode":"53937","locality":"Schleiden","municipality":{"key":"05366036","name":"Schleiden, Stadt","type":"Stadt"},"district":{"key":"05366","name":"Euskirchen","type":"Kreis"},"federalState":{"key":"05","name":"Nordrhein-Westfalen"}},{"name":"Bruchheck","postalCode":"53937","locality":"Schleiden","municipality":{"key":"05366036","name":"Schleiden, Stadt","type":"Stadt"},"district":{"key":"05366","name":"Euskirchen","type":"Kreis"},"federalState":{"key":"05","name":"Nordrhein-Westfalen"}},{"name":"Bruchstr.","postalCode":"53937","locality":"Schleiden","municipality":{"key":"05366036","name":"Schleiden, Stadt","type":"Stadt"},"district":{"key":"05366","name":"Euskirchen","type":"Kreis"},"federalState":{"key":"05","name":"Nordrhein-Westfalen"}},{"name":"Brücksief","postalCode":"53937","locality":"Schleiden","municipality":{"key":"05366036","name":"Schleiden, Stadt","type":"Stadt"},"district":{"key":"05366","name":"Euskirchen","type":"Kreis"},"federalState":{"key":"05","name":"Nordrhein-Westfalen"}},{"name":"Brunnenstr.","postalCode":"53937","locality":"Schleiden","municipality":{"key":"05366036","name":"Schleiden, Stadt","type":"Stadt"},"district":{"key":"05366","name":"Euskirchen","type":"Kreis"},"federalState":{"key":"05","name":"Nordrhein-Westfalen"}},{"name":"Büchel","postalCode":"53937","locality":"Schleiden","municipality":{"key":"05366036","name":"Schleiden, Stadt","type":"Stadt"},"district":{"key":"05366","name":"Euskirchen","type":"Kreis"},"federalState":{"key":"05","name":"Nordrhein-Westfalen"}},{"name":"Buchenweg","postalCode":"53937","locality":"Schleiden","municipality":{"key":"05366036","name":"Schleiden, Stadt","type":"Stadt"},"district":{"key":"05366","name":"Euskirchen","type":"Kreis"},"federalState":{"key":"05","name":"Nordrhein-Westfalen"}},{"name":"Burgauel","postalCode":"53937","locality":"Schleiden","municipality":{"key":"05366036","name":"Schleiden, Stadt","type":"Stadt"},"district":{"key":"05366","name":"Euskirchen","type":"Kreis"},"federalState":{"key":"05","name":"Nordrhein-Westfalen"}},{"name":"Burgstr.","postalCode":"53937","locality":"Schleiden","municipality":{"key":"05366036","name":"Schleiden, Stadt","type":"Stadt"},"district":{"key":"05366","name":"Euskirchen","type":"Kreis"},"federalState":{"key":"05","name":"Nordrhein-Westfalen"}},{"name":"Claudiusstr.","postalCode":"53937","locality":"Schleiden","municipality":{"key":"05366036","name":"Schleiden, Stadt","type":"Stadt"},"district":{"key":"05366","name":"Euskirchen","type":"Kreis"},"federalState":{"key":"05","name":"Nordrhein-Westfalen"}},{"name":"Danziger Str.","postalCode":"53937","locality":"Schleiden","municipality":{"key":"05366036","name":"Schleiden, Stadt","type":"Stadt"},"district":{"key":"05366","name":"Euskirchen","type":"Kreis"},"federalState":{"key":"05","name":"Nordrhein-Westfalen"}},{"name":"Dedersberg","postalCode":"53937","locality":"Schleiden","municipality":{"key":"05366036","name":"Schleiden, Stadt","type":"Stadt"},"district":{"key":"05366","name":"Euskirchen","type":"Kreis"},"federalState":{"key":"05","name":"Nordrhein-Westfalen"}},{"name":"Dehlenbach","postalCode":"53937","locality":"Schleiden","municipality":{"key":"05366036","name":"Schleiden, Stadt","type":"Stadt"},"district":{"key":"05366","name":"Euskirchen","type":"Kreis"},"federalState":{"key":"05","name":"Nordrhein-Westfalen"}},{"name":"de Schuel-Jajß","postalCode":"53937","locality":"Schleiden","municipality":{"key":"05366036","name":"Schleiden, Stadt","type":"Stadt"},"district":{"key":"05366","name":"Euskirchen","type":"Kreis"},"federalState":{"key":"05","name":"Nordrhein-Westfalen"}},{"name":"de Zöleper-Jajß","postalCode":"53937","locality":"Schleiden","municipality":{"key":"05366036","name":"Schleiden, Stadt","type":"Stadt"},"district":{"key":"05366","name":"Euskirchen","type":"Kreis"},"federalState":{"key":"05","name":"Nordrhein-Westfalen"}},{"name":"Dorfplatz Harperscheid","postalCode":"53937","locality":"Schleiden","municipality":{"key":"05366036","name":"Schleiden, Stadt","type":"Stadt"},"district":{"key":"05366","name":"Euskirchen","type":"Kreis"},"federalState":{"key":"05","name":"Nordrhein-Westfalen"}},{"name":"Dorfstr.","postalCode":"53937","locality":"Schleiden","municipality":{"key":"05366036","name":"Schleiden, Stadt","type":"Stadt"},"district":{"key":"05366","name":"Euskirchen","type":"Kreis"},"federalState":{"key":"05","name":"Nordrhein-Westfalen"}},{"name":"Dreiborner Str.","postalCode":"53937","locality":"Schleiden","municipality":{"key":"05366036","name":"Schleiden, Stadt","type":"Stadt"},"district":{"key":"05366","name":"Euskirchen","type":"Kreis"},"federalState":{"key":"05","name":"Nordrhein-Westfalen"}},{"name":"Dreiborner Weg","postalCode":"53937","locality":"Schleiden","municipality":{"key":"05366036","name":"Schleiden, Stadt","type":"Stadt"},"district":{"key":"05366","name":"Euskirchen","type":"Kreis"},"federalState":{"key":"05","name":"Nordrhein-Westfalen"}},{"name":"Dronkestr.","postalCode":"53937","locality":"Schleiden","municipality":{"key":"05366036","name":"Schleiden, Stadt","type":"Stadt"},"district":{"key":"05366","name":"Euskirchen","type":"Kreis"},"federalState":{"key":"05","name":"Nordrhein-Westfalen"}},{"name":"Drosselweg","postalCode":"53937","locality":"Schleiden","municipality":{"key":"05366036","name":"Schleiden, Stadt","type":"Stadt"},"district":{"key":"05366","name":"Euskirchen","type":"Kreis"},"federalState":{"key":"05","name":"Nordrhein-Westfalen"}},{"name":"Dürener Str.","postalCode":"53937","locality":"Schleiden","municipality":{"key":"05366036","name":"Schleiden, Stadt","type":"Stadt"},"district":{"key":"05366","name":"Euskirchen","type":"Kreis"},"federalState":{"key":"05","name":"Nordrhein-Westfalen"}},{"name":"Düttlinger Str.","postalCode":"53937","locality":"Schleiden","municipality":{"key":"05366036","name":"Schleiden, Stadt","type":"Stadt"},"district":{"key":"05366","name":"Euskirchen","type":"Kreis"},"federalState":{"key":"05","name":"Nordrhein-Westfalen"}},{"name":"Eckstr.","postalCode":"53937","locality":"Schleiden","municipality":{"key":"05366036","name":"Schleiden, Stadt","type":"Stadt"},"district":{"key":"05366","name":"Euskirchen","type":"Kreis"},"federalState":{"key":"05","name":"Nordrhein-Westfalen"}},{"name":"Egelstr.","postalCode":"53937","locality":"Schleiden","municipality":{"key":"05366036","name":"Schleiden, Stadt","type":"Stadt"},"district":{"key":"05366","name":"Euskirchen","type":"Kreis"},"federalState":{"key":"05","name":"Nordrhein-Westfalen"}},{"name":"Eibenweg","postalCode":"53937","locality":"Schleiden","municipality":{"key":"05366036","name":"Schleiden, Stadt","type":"Stadt"},"district":{"key":"05366","name":"Euskirchen","type":"Kreis"},"federalState":{"key":"05","name":"Nordrhein-Westfalen"}},{"name":"Eichenweg","postalCode":"53937","locality":"Schleiden","municipality":{"key":"05366036","name":"Schleiden, Stadt","type":"Stadt"},"district":{"key":"05366","name":"Euskirchen","type":"Kreis"},"federalState":{"key":"05","name":"Nordrhein-Westfalen"}},{"name":"Eifel-Ardennen-Platz","postalCode":"53937","locality":"Schleiden","municipality":{"key":"05366036","name":"Schleiden, Stadt","type":"Stadt"},"district":{"key":"05366","name":"Euskirchen","type":"Kreis"},"federalState":{"key":"05","name":"Nordrhein-Westfalen"}},{"name":"Einruhrer Str.","postalCode":"53937","locality":"Schleiden","municipality":{"key":"05366036","name":"Schleiden, Stadt","type":"Stadt"},"district":{"key":"05366","name":"Euskirchen","type":"Kreis"},"federalState":{"key":"05","name":"Nordrhein-Westfalen"}},{"name":"Erlenweg","postalCode":"53937","locality":"Schleiden","municipality":{"key":"05366036","name":"Schleiden, Stadt","type":"Stadt"},"district":{"key":"05366","name":"Euskirchen","type":"Kreis"},"federalState":{"key":"05","name":"Nordrhein-Westfalen"}},{"name":"Erzgarten","postalCode":"53937","locality":"Schleiden","municipality":{"key":"05366036","name":"Schleiden, Stadt","type":"Stadt"},"district":{"key":"05366","name":"Euskirchen","type":"Kreis"},"federalState":{"key":"05","name":"Nordrhein-Westfalen"}},{"name":"Eschenweg","postalCode":"53937","locality":"Schleiden","municipality":{"key":"05366036","name":"Schleiden, Stadt","type":"Stadt"},"district":{"key":"05366","name":"Euskirchen","type":"Kreis"},"federalState":{"key":"05","name":"Nordrhein-Westfalen"}},{"name":"Ettelscheid","postalCode":"53937","locality":"Schleiden","municipality":{"key":"05366036","name":"Schleiden, Stadt","type":"Stadt"},"district":{"key":"05366","name":"Euskirchen","type":"Kreis"},"federalState":{"key":"05","name":"Nordrhein-Westfalen"}},{"name":"Eulenweg","postalCode":"53937","locality":"Schleiden","municipality":{"key":"05366036","name":"Schleiden, Stadt","type":"Stadt"},"district":{"key":"05366","name":"Euskirchen","type":"Kreis"},"federalState":{"key":"05","name":"Nordrhein-Westfalen"}},{"name":"EV - Weg 45","postalCode":"53937","locality":"Schleiden","municipality":{"key":"05366036","name":"Schleiden, Stadt","type":"Stadt"},"district":{"key":"05366","name":"Euskirchen","type":"Kreis"},"federalState":{"key":"05","name":"Nordrhein-Westfalen"}},{"name":"Fichtenweg","postalCode":"53937","locality":"Schleiden","municipality":{"key":"05366036","name":"Schleiden, Stadt","type":"Stadt"},"district":{"key":"05366","name":"Euskirchen","type":"Kreis"},"federalState":{"key":"05","name":"Nordrhein-Westfalen"}},{"name":"Fuchsweg","postalCode":"53937","locality":"Schleiden","municipality":{"key":"05366036","name":"Schleiden, Stadt","type":"Stadt"},"district":{"key":"05366","name":"Euskirchen","type":"Kreis"},"federalState":{"key":"05","name":"Nordrhein-Westfalen"}},{"name":"Gansberweg","postalCode":"53937","locality":"Schleiden","municipality":{"key":"05366036","name":"Schleiden, Stadt","type":"Stadt"},"district":{"key":"05366","name":"Euskirchen","type":"Kreis"},"federalState":{"key":"05","name":"Nordrhein-Westfalen"}},{"name":"Gartenstr.","postalCode":"53937","locality":"Schleiden","municipality":{"key":"05366036","name":"Schleiden, Stadt","type":"Stadt"},"district":{"key":"05366","name":"Euskirchen","type":"Kreis"},"federalState":{"key":"05","name":"Nordrhein-Westfalen"}},{"name":"Gartenweg","postalCode":"53937","locality":"Schleiden","municipality":{"key":"05366036","name":"Schleiden, Stadt","type":"Stadt"},"district":{"key":"05366","name":"Euskirchen","type":"Kreis"},"federalState":{"key":"05","name":"Nordrhein-Westfalen"}},{"name":"Gemünder Str.","postalCode":"53937","locality":"Schleiden","municipality":{"key":"05366036","name":"Schleiden, Stadt","type":"Stadt"},"district":{"key":"05366","name":"Euskirchen","type":"Kreis"},"federalState":{"key":"05","name":"Nordrhein-Westfalen"}},{"name":"Georgstr.","postalCode":"53937","locality":"Schleiden","municipality":{"key":"05366036","name":"Schleiden, Stadt","type":"Stadt"},"district":{"key":"05366","name":"Euskirchen","type":"Kreis"},"federalState":{"key":"05","name":"Nordrhein-Westfalen"}},{"name":"Ginsterweg","postalCode":"53937","locality":"Schleiden","municipality":{"key":"05366036","name":"Schleiden, Stadt","type":"Stadt"},"district":{"key":"05366","name":"Euskirchen","type":"Kreis"},"federalState":{"key":"05","name":"Nordrhein-Westfalen"}},{"name":"Glashüttenstr.","postalCode":"53937","locality":"Schleiden","municipality":{"key":"05366036","name":"Schleiden, Stadt","type":"Stadt"},"district":{"key":"05366","name":"Euskirchen","type":"Kreis"},"federalState":{"key":"05","name":"Nordrhein-Westfalen"}},{"name":"Goethestr.","postalCode":"53937","locality":"Schleiden","municipality":{"key":"05366036","name":"Schleiden, Stadt","type":"Stadt"},"district":{"key":"05366","name":"Euskirchen","type":"Kreis"},"federalState":{"key":"05","name":"Nordrhein-Westfalen"}},{"name":"Goldfuß","postalCode":"53937","locality":"Schleiden","municipality":{"key":"05366036","name":"Schleiden, Stadt","type":"Stadt"},"district":{"key":"05366","name":"Euskirchen","type":"Kreis"},"federalState":{"key":"05","name":"Nordrhein-Westfalen"}},{"name":"Graweg","postalCode":"53937","locality":"Schleiden","municipality":{"key":"05366036","name":"Schleiden, Stadt","type":"Stadt"},"district":{"key":"05366","name":"Euskirchen","type":"Kreis"},"federalState":{"key":"05","name":"Nordrhein-Westfalen"}},{"name":"Güntherweg","postalCode":"53937","locality":"Schleiden","municipality":{"key":"05366036","name":"Schleiden, Stadt","type":"Stadt"},"district":{"key":"05366","name":"Euskirchen","type":"Kreis"},"federalState":{"key":"05","name":"Nordrhein-Westfalen"}},{"name":"Haagstr.","postalCode":"53937","locality":"Schleiden","municipality":{"key":"05366036","name":"Schleiden, Stadt","type":"Stadt"},"district":{"key":"05366","name":"Euskirchen","type":"Kreis"},"federalState":{"key":"05","name":"Nordrhein-Westfalen"}},{"name":"Hagefeld","postalCode":"53937","locality":"Schleiden","municipality":{"key":"05366036","name":"Schleiden, Stadt","type":"Stadt"},"district":{"key":"05366","name":"Euskirchen","type":"Kreis"},"federalState":{"key":"05","name":"Nordrhein-Westfalen"}},{"name":"Harperscheid","postalCode":"53937","locality":"Schleiden","municipality":{"key":"05366036","name":"Schleiden, Stadt","type":"Stadt"},"district":{"key":"05366","name":"Euskirchen","type":"Kreis"},"federalState":{"key":"05","name":"Nordrhein-Westfalen"}},{"name":"Haselnußweg","postalCode":"53937","locality":"Schleiden","municipality":{"key":"05366036","name":"Schleiden, Stadt","type":"Stadt"},"district":{"key":"05366","name":"Euskirchen","type":"Kreis"},"federalState":{"key":"05","name":"Nordrhein-Westfalen"}},{"name":"Hasselweg","postalCode":"53937","locality":"Schleiden","municipality":{"key":"05366036","name":"Schleiden, Stadt","type":"Stadt"},"district":{"key":"05366","name":"Euskirchen","type":"Kreis"},"federalState":{"key":"05","name":"Nordrhein-Westfalen"}},{"name":"Hausten","postalCode":"53937","locality":"Schleiden","municipality":{"key":"05366036","name":"Schleiden, Stadt","type":"Stadt"},"district":{"key":"05366","name":"Euskirchen","type":"Kreis"},"federalState":{"key":"05","name":"Nordrhein-Westfalen"}},{"name":"Heckengäßchen","postalCode":"53937","locality":"Schleiden","municipality":{"key":"05366036","name":"Schleiden, Stadt","type":"Stadt"},"district":{"key":"05366","name":"Euskirchen","type":"Kreis"},"federalState":{"key":"05","name":"Nordrhein-Westfalen"}},{"name":"Heckenrosenweg","postalCode":"53937","locality":"Schleiden","municipality":{"key":"05366036","name":"Schleiden, Stadt","type":"Stadt"},"district":{"key":"05366","name":"Euskirchen","type":"Kreis"},"federalState":{"key":"05","name":"Nordrhein-Westfalen"}},{"name":"Heidersberg","postalCode":"53937","locality":"Schleiden","municipality":{"key":"05366036","name":"Schleiden, Stadt","type":"Stadt"},"district":{"key":"05366","name":"Euskirchen","type":"Kreis"},"federalState":{"key":"05","name":"Nordrhein-Westfalen"}},{"name":"Heidestr.","postalCode":"53937","locality":"Schleiden","municipality":{"key":"05366036","name":"Schleiden, Stadt","type":"Stadt"},"district":{"key":"05366","name":"Euskirchen","type":"Kreis"},"federalState":{"key":"05","name":"Nordrhein-Westfalen"}},{"name":"Heideweg","postalCode":"53937","locality":"Schleiden","municipality":{"key":"05366036","name":"Schleiden, Stadt","type":"Stadt"},"district":{"key":"05366","name":"Euskirchen","type":"Kreis"},"federalState":{"key":"05","name":"Nordrhein-Westfalen"}},{"name":"Heinenpesch","postalCode":"53937","locality":"Schleiden","municipality":{"key":"05366036","name":"Schleiden, Stadt","type":"Stadt"},"district":{"key":"05366","name":"Euskirchen","type":"Kreis"},"federalState":{"key":"05","name":"Nordrhein-Westfalen"}},{"name":"Hellenthaler Str.","postalCode":"53937","locality":"Schleiden","municipality":{"key":"05366036","name":"Schleiden, Stadt","type":"Stadt"},"district":{"key":"05366","name":"Euskirchen","type":"Kreis"},"federalState":{"key":"05","name":"Nordrhein-Westfalen"}},{"name":"Herderstr.","postalCode":"53937","locality":"Schleiden","municipality":{"key":"05366036","name":"Schleiden, Stadt","type":"Stadt"},"district":{"key":"05366","name":"Euskirchen","type":"Kreis"},"federalState":{"key":"05","name":"Nordrhein-Westfalen"}},{"name":"Hergartener Buschweg","postalCode":"53937","locality":"Schleiden","municipality":{"key":"05366036","name":"Schleiden, Stadt","type":"Stadt"},"district":{"key":"05366","name":"Euskirchen","type":"Kreis"},"federalState":{"key":"05","name":"Nordrhein-Westfalen"}},{"name":"Herhahn","postalCode":"53937","locality":"Schleiden","municipality":{"key":"05366036","name":"Schleiden, Stadt","type":"Stadt"},"district":{"key":"05366","name":"Euskirchen","type":"Kreis"},"federalState":{"key":"05","name":"Nordrhein-Westfalen"}},{"name":"Hermann-Kattwinkel-Platz","postalCode":"53937","locality":"Schleiden","municipality":{"key":"05366036","name":"Schleiden, Stadt","type":"Stadt"},"district":{"key":"05366","name":"Euskirchen","type":"Kreis"},"federalState":{"key":"05","name":"Nordrhein-Westfalen"}},{"name":"Heuberg","postalCode":"53937","locality":"Schleiden","municipality":{"key":"05366036","name":"Schleiden, Stadt","type":"Stadt"},"district":{"key":"05366","name":"Euskirchen","type":"Kreis"},"federalState":{"key":"05","name":"Nordrhein-Westfalen"}},{"name":"Hillenhardt","postalCode":"53937","locality":"Schleiden","municipality":{"key":"05366036","name":"Schleiden, Stadt","type":"Stadt"},"district":{"key":"05366","name":"Euskirchen","type":"Kreis"},"federalState":{"key":"05","name":"Nordrhein-Westfalen"}},{"name":"Hirschweg","postalCode":"53937","locality":"Schleiden","municipality":{"key":"05366036","name":"Schleiden, Stadt","type":"Stadt"},"district":{"key":"05366","name":"Euskirchen","type":"Kreis"},"federalState":{"key":"05","name":"Nordrhein-Westfalen"}},{"name":"Höddelbach","postalCode":"53937","locality":"Schleiden","municipality":{"key":"05366036","name":"Schleiden, Stadt","type":"Stadt"},"district":{"key":"05366","name":"Euskirchen","type":"Kreis"},"federalState":{"key":"05","name":"Nordrhein-Westfalen"}},{"name":"Höfener Str.","postalCode":"53937","locality":"Schleiden","municipality":{"key":"05366036","name":"Schleiden, Stadt","type":"Stadt"},"district":{"key":"05366","name":"Euskirchen","type":"Kreis"},"federalState":{"key":"05","name":"Nordrhein-Westfalen"}},{"name":"Hofpesch","postalCode":"53937","locality":"Schleiden","municipality":{"key":"05366036","name":"Schleiden, Stadt","type":"Stadt"},"district":{"key":"05366","name":"Euskirchen","type":"Kreis"},"federalState":{"key":"05","name":"Nordrhein-Westfalen"}},{"name":"Höhenweg","postalCode":"53937","locality":"Schleiden","municipality":{"key":"05366036","name":"Schleiden, Stadt","type":"Stadt"},"district":{"key":"05366","name":"Euskirchen","type":"Kreis"},"federalState":{"key":"05","name":"Nordrhein-Westfalen"}},{"name":"Hohe Str.","postalCode":"53937","locality":"Schleiden","municipality":{"key":"05366036","name":"Schleiden, Stadt","type":"Stadt"},"district":{"key":"05366","name":"Euskirchen","type":"Kreis"},"federalState":{"key":"05","name":"Nordrhein-Westfalen"}},{"name":"Holgenbach","postalCode":"53937","locality":"Schleiden","municipality":{"key":"05366036","name":"Schleiden, Stadt","type":"Stadt"},"district":{"key":"05366","name":"Euskirchen","type":"Kreis"},"federalState":{"key":"05","name":"Nordrhein-Westfalen"}},{"name":"Holter","postalCode":"53937","locality":"Schleiden","municipality":{"key":"05366036","name":"Schleiden, Stadt","type":"Stadt"},"district":{"key":"05366","name":"Euskirchen","type":"Kreis"},"federalState":{"key":"05","name":"Nordrhein-Westfalen"}},{"name":"Holunderweg","postalCode":"53937","locality":"Schleiden","municipality":{"key":"05366036","name":"Schleiden, Stadt","type":"Stadt"},"district":{"key":"05366","name":"Euskirchen","type":"Kreis"},"federalState":{"key":"05","name":"Nordrhein-Westfalen"}},{"name":"Höttenstr.","postalCode":"53937","locality":"Schleiden","municipality":{"key":"05366036","name":"Schleiden, Stadt","type":"Stadt"},"district":{"key":"05366","name":"Euskirchen","type":"Kreis"},"federalState":{"key":"05","name":"Nordrhein-Westfalen"}},{"name":"Hühnerbuschstr.","postalCode":"53937","locality":"Schleiden","municipality":{"key":"05366036","name":"Schleiden, Stadt","type":"Stadt"},"district":{"key":"05366","name":"Euskirchen","type":"Kreis"},"federalState":{"key":"05","name":"Nordrhein-Westfalen"}},{"name":"Humboldtstr.","postalCode":"53937","locality":"Schleiden","municipality":{"key":"05366036","name":"Schleiden, Stadt","type":"Stadt"},"district":{"key":"05366","name":"Euskirchen","type":"Kreis"},"federalState":{"key":"05","name":"Nordrhein-Westfalen"}},{"name":"Im Auel","postalCode":"53937","locality":"Schleiden","municipality":{"key":"05366036","name":"Schleiden, Stadt","type":"Stadt"},"district":{"key":"05366","name":"Euskirchen","type":"Kreis"},"federalState":{"key":"05","name":"Nordrhein-Westfalen"}},{"name":"Im Burggarten","postalCode":"53937","locality":"Schleiden","municipality":{"key":"05366036","name":"Schleiden, Stadt","type":"Stadt"},"district":{"key":"05366","name":"Euskirchen","type":"Kreis"},"federalState":{"key":"05","name":"Nordrhein-Westfalen"}},{"name":"Im Pützfeld","postalCode":"53937","locality":"Schleiden","municipality":{"key":"05366036","name":"Schleiden, Stadt","type":"Stadt"},"district":{"key":"05366","name":"Euskirchen","type":"Kreis"},"federalState":{"key":"05","name":"Nordrhein-Westfalen"}},{"name":"Im Wiesengrund","postalCode":"53937","locality":"Schleiden","municipality":{"key":"05366036","name":"Schleiden, Stadt","type":"Stadt"},"district":{"key":"05366","name":"Euskirchen","type":"Kreis"},"federalState":{"key":"05","name":"Nordrhein-Westfalen"}},{"name":"Im Wiesgen","postalCode":"53937","locality":"Schleiden","municipality":{"key":"05366036","name":"Schleiden, Stadt","type":"Stadt"},"district":{"key":"05366","name":"Euskirchen","type":"Kreis"},"federalState":{"key":"05","name":"Nordrhein-Westfalen"}},{"name":"Im Wingertchen","postalCode":"53937","locality":"Schleiden","municipality":{"key":"05366036","name":"Schleiden, Stadt","type":"Stadt"},"district":{"key":"05366","name":"Euskirchen","type":"Kreis"},"federalState":{"key":"05","name":"Nordrhein-Westfalen"}},{"name":"In den Tälern","postalCode":"53937","locality":"Schleiden","municipality":{"key":"05366036","name":"Schleiden, Stadt","type":"Stadt"},"district":{"key":"05366","name":"Euskirchen","type":"Kreis"},"federalState":{"key":"05","name":"Nordrhein-Westfalen"}},{"name":"In den Weiden","postalCode":"53937","locality":"Schleiden","municipality":{"key":"05366036","name":"Schleiden, Stadt","type":"Stadt"},"district":{"key":"05366","name":"Euskirchen","type":"Kreis"},"federalState":{"key":"05","name":"Nordrhein-Westfalen"}},{"name":"In den Weiern","postalCode":"53937","locality":"Schleiden","municipality":{"key":"05366036","name":"Schleiden, Stadt","type":"Stadt"},"district":{"key":"05366","name":"Euskirchen","type":"Kreis"},"federalState":{"key":"05","name":"Nordrhein-Westfalen"}},{"name":"In der Däle","postalCode":"53937","locality":"Schleiden","municipality":{"key":"05366036","name":"Schleiden, Stadt","type":"Stadt"},"district":{"key":"05366","name":"Euskirchen","type":"Kreis"},"federalState":{"key":"05","name":"Nordrhein-Westfalen"}},{"name":"In der Höll","postalCode":"53937","locality":"Schleiden","municipality":{"key":"05366036","name":"Schleiden, Stadt","type":"Stadt"},"district":{"key":"05366","name":"Euskirchen","type":"Kreis"},"federalState":{"key":"05","name":"Nordrhein-Westfalen"}},{"name":"In der Seebricht","postalCode":"53937","locality":"Schleiden","municipality":{"key":"05366036","name":"Schleiden, Stadt","type":"Stadt"},"district":{"key":"05366","name":"Euskirchen","type":"Kreis"},"federalState":{"key":"05","name":"Nordrhein-Westfalen"}},{"name":"In der Streng","postalCode":"53937","locality":"Schleiden","municipality":{"key":"05366036","name":"Schleiden, Stadt","type":"Stadt"},"district":{"key":"05366","name":"Euskirchen","type":"Kreis"},"federalState":{"key":"05","name":"Nordrhein-Westfalen"}},{"name":"Jahnstr.","postalCode":"53937","locality":"Schleiden","municipality":{"key":"05366036","name":"Schleiden, Stadt","type":"Stadt"},"district":{"key":"05366","name":"Euskirchen","type":"Kreis"},"federalState":{"key":"05","name":"Nordrhein-Westfalen"}},{"name":"Johannes-Sturmius Park","postalCode":"53937","locality":"Schleiden","municipality":{"key":"05366036","name":"Schleiden, Stadt","type":"Stadt"},"district":{"key":"05366","name":"Euskirchen","type":"Kreis"},"federalState":{"key":"05","name":"Nordrhein-Westfalen"}},{"name":"Johannesweg","postalCode":"53937","locality":"Schleiden","municipality":{"key":"05366036","name":"Schleiden, Stadt","type":"Stadt"},"district":{"key":"05366","name":"Euskirchen","type":"Kreis"},"federalState":{"key":"05","name":"Nordrhein-Westfalen"}},{"name":"K 17","postalCode":"53937","locality":"Schleiden","municipality":{"key":"05366036","name":"Schleiden, Stadt","type":"Stadt"},"district":{"key":"05366","name":"Euskirchen","type":"Kreis"},"federalState":{"key":"05","name":"Nordrhein-Westfalen"}},{"name":"Kaller Str.","postalCode":"53937","locality":"Schleiden","municipality":{"key":"05366036","name":"Schleiden, Stadt","type":"Stadt"},"district":{"key":"05366","name":"Euskirchen","type":"Kreis"},"federalState":{"key":"05","name":"Nordrhein-Westfalen"}},{"name":"Kapellenweg","postalCode":"53937","locality":"Schleiden","municipality":{"key":"05366036","name":"Schleiden, Stadt","type":"Stadt"},"district":{"key":"05366","name":"Euskirchen","type":"Kreis"},"federalState":{"key":"05","name":"Nordrhein-Westfalen"}},{"name":"Karl-Kaufmann-Str.","postalCode":"53937","locality":"Schleiden","municipality":{"key":"05366036","name":"Schleiden, Stadt","type":"Stadt"},"district":{"key":"05366","name":"Euskirchen","type":"Kreis"},"federalState":{"key":"05","name":"Nordrhein-Westfalen"}},{"name":"Kastanienweg","postalCode":"53937","locality":"Schleiden","municipality":{"key":"05366036","name":"Schleiden, Stadt","type":"Stadt"},"district":{"key":"05366","name":"Euskirchen","type":"Kreis"},"federalState":{"key":"05","name":"Nordrhein-Westfalen"}},{"name":"Katharinenstr.","postalCode":"53937","locality":"Schleiden","municipality":{"key":"05366036","name":"Schleiden, Stadt","type":"Stadt"},"district":{"key":"05366","name":"Euskirchen","type":"Kreis"},"federalState":{"key":"05","name":"Nordrhein-Westfalen"}},{"name":"Katzenbroich","postalCode":"53937","locality":"Schleiden","municipality":{"key":"05366036","name":"Schleiden, Stadt","type":"Stadt"},"district":{"key":"05366","name":"Euskirchen","type":"Kreis"},"federalState":{"key":"05","name":"Nordrhein-Westfalen"}},{"name":"Kermeterstr.","postalCode":"53937","locality":"Schleiden","municipality":{"key":"05366036","name":"Schleiden, Stadt","type":"Stadt"},"district":{"key":"05366","name":"Euskirchen","type":"Kreis"},"federalState":{"key":"05","name":"Nordrhein-Westfalen"}},{"name":"Kerperscheid","postalCode":"53937","locality":"Schleiden","municipality":{"key":"05366036","name":"Schleiden, Stadt","type":"Stadt"},"district":{"key":"05366","name":"Euskirchen","type":"Kreis"},"federalState":{"key":"05","name":"Nordrhein-Westfalen"}},{"name":"Kerperscheider Weg","postalCode":"53937","locality":"Schleiden","municipality":{"key":"05366036","name":"Schleiden, Stadt","type":"Stadt"},"district":{"key":"05366","name":"Euskirchen","type":"Kreis"},"federalState":{"key":"05","name":"Nordrhein-Westfalen"}},{"name":"Kirchbergweg","postalCode":"53937","locality":"Schleiden","municipality":{"key":"05366036","name":"Schleiden, Stadt","type":"Stadt"},"district":{"key":"05366","name":"Euskirchen","type":"Kreis"},"federalState":{"key":"05","name":"Nordrhein-Westfalen"}},{"name":"Kirchstr.","postalCode":"53937","locality":"Schleiden","municipality":{"key":"05366036","name":"Schleiden, Stadt","type":"Stadt"},"district":{"key":"05366","name":"Euskirchen","type":"Kreis"},"federalState":{"key":"05","name":"Nordrhein-Westfalen"}},{"name":"Kirschdell","postalCode":"53937","locality":"Schleiden","municipality":{"key":"05366036","name":"Schleiden, Stadt","type":"Stadt"},"district":{"key":"05366","name":"Euskirchen","type":"Kreis"},"federalState":{"key":"05","name":"Nordrhein-Westfalen"}},{"name":"Klosterplatz","postalCode":"53937","locality":"Schleiden","municipality":{"key":"05366036","name":"Schleiden, Stadt","type":"Stadt"},"district":{"key":"05366","name":"Euskirchen","type":"Kreis"},"federalState":{"key":"05","name":"Nordrhein-Westfalen"}},{"name":"Kölner Str.","postalCode":"53937","locality":"Schleiden","municipality":{"key":"05366036","name":"Schleiden, Stadt","type":"Stadt"},"district":{"key":"05366","name":"Euskirchen","type":"Kreis"},"federalState":{"key":"05","name":"Nordrhein-Westfalen"}},{"name":"Königsberger Str.","postalCode":"53937","locality":"Schleiden","municipality":{"key":"05366036","name":"Schleiden, Stadt","type":"Stadt"},"district":{"key":"05366","name":"Euskirchen","type":"Kreis"},"federalState":{"key":"05","name":"Nordrhein-Westfalen"}},{"name":"Kriegerdenkmal Harperscheid","postalCode":"53937","locality":"Schleiden","municipality":{"key":"05366036","name":"Schleiden, Stadt","type":"Stadt"},"district":{"key":"05366","name":"Euskirchen","type":"Kreis"},"federalState":{"key":"05","name":"Nordrhein-Westfalen"}},{"name":"Kronenburger Str.","postalCode":"53937","locality":"Schleiden","municipality":{"key":"05366036","name":"Schleiden, Stadt","type":"Stadt"},"district":{"key":"05366","name":"Euskirchen","type":"Kreis"},"federalState":{"key":"05","name":"Nordrhein-Westfalen"}},{"name":"Kurgartenstr.","postalCode":"53937","locality":"Schleiden","municipality":{"key":"05366036","name":"Schleiden, Stadt","type":"Stadt"},"district":{"key":"05366","name":"Euskirchen","type":"Kreis"},"federalState":{"key":"05","name":"Nordrhein-Westfalen"}},{"name":"Kurhausstr.","postalCode":"53937","locality":"Schleiden","municipality":{"key":"05366036","name":"Schleiden, Stadt","type":"Stadt"},"district":{"key":"05366","name":"Euskirchen","type":"Kreis"},"federalState":{"key":"05","name":"Nordrhein-Westfalen"}},{"name":"Kurpark","postalCode":"53937","locality":"Schleiden","municipality":{"key":"05366036","name":"Schleiden, Stadt","type":"Stadt"},"district":{"key":"05366","name":"Euskirchen","type":"Kreis"},"federalState":{"key":"05","name":"Nordrhein-Westfalen"}},{"name":"Kurparkstr.","postalCode":"53937","locality":"Schleiden","municipality":{"key":"05366036","name":"Schleiden, Stadt","type":"Stadt"},"district":{"key":"05366","name":"Euskirchen","type":"Kreis"},"federalState":{"key":"05","name":"Nordrhein-Westfalen"}},{"name":"Lahsbachstr.","postalCode":"53937","locality":"Schleiden","municipality":{"key":"05366036","name":"Schleiden, Stadt","type":"Stadt"},"district":{"key":"05366","name":"Euskirchen","type":"Kreis"},"federalState":{"key":"05","name":"Nordrhein-Westfalen"}},{"name":"Langerscheider Weg","postalCode":"53937","locality":"Schleiden","municipality":{"key":"05366036","name":"Schleiden, Stadt","type":"Stadt"},"district":{"key":"05366","name":"Euskirchen","type":"Kreis"},"federalState":{"key":"05","name":"Nordrhein-Westfalen"}},{"name":"Lindenstr.","postalCode":"53937","locality":"Schleiden","municipality":{"key":"05366036","name":"Schleiden, Stadt","type":"Stadt"},"district":{"key":"05366","name":"Euskirchen","type":"Kreis"},"federalState":{"key":"05","name":"Nordrhein-Westfalen"}},{"name":"Lützenberg","postalCode":"53937","locality":"Schleiden","municipality":{"key":"05366036","name":"Schleiden, Stadt","type":"Stadt"},"district":{"key":"05366","name":"Euskirchen","type":"Kreis"},"federalState":{"key":"05","name":"Nordrhein-Westfalen"}},{"name":"Luxemburger Str.","postalCode":"53937","locality":"Schleiden","municipality":{"key":"05366036","name":"Schleiden, Stadt","type":"Stadt"},"district":{"key":"05366","name":"Euskirchen","type":"Kreis"},"federalState":{"key":"05","name":"Nordrhein-Westfalen"}},{"name":"Maisbergstr.","postalCode":"53937","locality":"Schleiden","municipality":{"key":"05366036","name":"Schleiden, Stadt","type":"Stadt"},"district":{"key":"05366","name":"Euskirchen","type":"Kreis"},"federalState":{"key":"05","name":"Nordrhein-Westfalen"}},{"name":"Malmedyer Str.","postalCode":"53937","locality":"Schleiden","municipality":{"key":"05366036","name":"Schleiden, Stadt","type":"Stadt"},"district":{"key":"05366","name":"Euskirchen","type":"Kreis"},"federalState":{"key":"05","name":"Nordrhein-Westfalen"}},{"name":"Malsbendener Auel","postalCode":"53937","locality":"Schleiden","municipality":{"key":"05366036","name":"Schleiden, Stadt","type":"Stadt"},"district":{"key":"05366","name":"Euskirchen","type":"Kreis"},"federalState":{"key":"05","name":"Nordrhein-Westfalen"}},{"name":"Manderscheider Str.","postalCode":"53937","locality":"Schleiden","municipality":{"key":"05366036","name":"Schleiden, Stadt","type":"Stadt"},"district":{"key":"05366","name":"Euskirchen","type":"Kreis"},"federalState":{"key":"05","name":"Nordrhein-Westfalen"}},{"name":"Marienplatz","postalCode":"53937","locality":"Schleiden","municipality":{"key":"05366036","name":"Schleiden, Stadt","type":"Stadt"},"district":{"key":"05366","name":"Euskirchen","type":"Kreis"},"federalState":{"key":"05","name":"Nordrhein-Westfalen"}},{"name":"Marienstr.","postalCode":"53937","locality":"Schleiden","municipality":{"key":"05366036","name":"Schleiden, Stadt","type":"Stadt"},"district":{"key":"05366","name":"Euskirchen","type":"Kreis"},"federalState":{"key":"05","name":"Nordrhein-Westfalen"}},{"name":"Märkische Str.","postalCode":"53937","locality":"Schleiden","municipality":{"key":"05366036","name":"Schleiden, Stadt","type":"Stadt"},"district":{"key":"05366","name":"Euskirchen","type":"Kreis"},"federalState":{"key":"05","name":"Nordrhein-Westfalen"}},{"name":"Martinstr.","postalCode":"53937","locality":"Schleiden","municipality":{"key":"05366036","name":"Schleiden, Stadt","type":"Stadt"},"district":{"key":"05366","name":"Euskirchen","type":"Kreis"},"federalState":{"key":"05","name":"Nordrhein-Westfalen"}},{"name":"Maueler Pfad","postalCode":"53937","locality":"Schleiden","municipality":{"key":"05366036","name":"Schleiden, Stadt","type":"Stadt"},"district":{"key":"05366","name":"Euskirchen","type":"Kreis"},"federalState":{"key":"05","name":"Nordrhein-Westfalen"}},{"name":"Maueler Str.","postalCode":"53937","locality":"Schleiden","municipality":{"key":"05366036","name":"Schleiden, Stadt","type":"Stadt"},"district":{"key":"05366","name":"Euskirchen","type":"Kreis"},"federalState":{"key":"05","name":"Nordrhein-Westfalen"}},{"name":"Monschauer Str.","postalCode":"53937","locality":"Schleiden","municipality":{"key":"05366036","name":"Schleiden, Stadt","type":"Stadt"},"district":{"key":"05366","name":"Euskirchen","type":"Kreis"},"federalState":{"key":"05","name":"Nordrhein-Westfalen"}},{"name":"Mörikestr.","postalCode":"53937","locality":"Schleiden","municipality":{"key":"05366036","name":"Schleiden, Stadt","type":"Stadt"},"district":{"key":"05366","name":"Euskirchen","type":"Kreis"},"federalState":{"key":"05","name":"Nordrhein-Westfalen"}},{"name":"Morsbach","postalCode":"53937","locality":"Schleiden","municipality":{"key":"05366036","name":"Schleiden, Stadt","type":"Stadt"},"district":{"key":"05366","name":"Euskirchen","type":"Kreis"},"federalState":{"key":"05","name":"Nordrhein-Westfalen"}},{"name":"Moselpesch","postalCode":"53937","locality":"Schleiden","municipality":{"key":"05366036","name":"Schleiden, Stadt","type":"Stadt"},"district":{"key":"05366","name":"Euskirchen","type":"Kreis"},"federalState":{"key":"05","name":"Nordrhein-Westfalen"}},{"name":"Mühlenstr.","postalCode":"53937","locality":"Schleiden","municipality":{"key":"05366036","name":"Schleiden, Stadt","type":"Stadt"},"district":{"key":"05366","name":"Euskirchen","type":"Kreis"},"federalState":{"key":"05","name":"Nordrhein-Westfalen"}},{"name":"Müsgesauel","postalCode":"53937","locality":"Schleiden","municipality":{"key":"05366036","name":"Schleiden, Stadt","type":"Stadt"},"district":{"key":"05366","name":"Euskirchen","type":"Kreis"},"federalState":{"key":"05","name":"Nordrhein-Westfalen"}},{"name":"Nachtigallenweg","postalCode":"53937","locality":"Schleiden","municipality":{"key":"05366036","name":"Schleiden, Stadt","type":"Stadt"},"district":{"key":"05366","name":"Euskirchen","type":"Kreis"},"federalState":{"key":"05","name":"Nordrhein-Westfalen"}},{"name":"Neustr.","postalCode":"53937","locality":"Schleiden","municipality":{"key":"05366036","name":"Schleiden, Stadt","type":"Stadt"},"district":{"key":"05366","name":"Euskirchen","type":"Kreis"},"federalState":{"key":"05","name":"Nordrhein-Westfalen"}},{"name":"Niederfeld","postalCode":"53937","locality":"Schleiden","municipality":{"key":"05366036","name":"Schleiden, Stadt","type":"Stadt"},"district":{"key":"05366","name":"Euskirchen","type":"Kreis"},"federalState":{"key":"05","name":"Nordrhein-Westfalen"}},{"name":"Nierfeld","postalCode":"53937","locality":"Schleiden","municipality":{"key":"05366036","name":"Schleiden, Stadt","type":"Stadt"},"district":{"key":"05366","name":"Euskirchen","type":"Kreis"},"federalState":{"key":"05","name":"Nordrhein-Westfalen"}},{"name":"Oberer Sittard","postalCode":"53937","locality":"Schleiden","municipality":{"key":"05366036","name":"Schleiden, Stadt","type":"Stadt"},"district":{"key":"05366","name":"Euskirchen","type":"Kreis"},"federalState":{"key":"05","name":"Nordrhein-Westfalen"}},{"name":"Oberstr.","postalCode":"53937","locality":"Schleiden","municipality":{"key":"05366036","name":"Schleiden, Stadt","type":"Stadt"},"district":{"key":"05366","name":"Euskirchen","type":"Kreis"},"federalState":{"key":"05","name":"Nordrhein-Westfalen"}},{"name":"Oestlingsweg","postalCode":"53937","locality":"Schleiden","municipality":{"key":"05366036","name":"Schleiden, Stadt","type":"Stadt"},"district":{"key":"05366","name":"Euskirchen","type":"Kreis"},"federalState":{"key":"05","name":"Nordrhein-Westfalen"}},{"name":"Ohligsköpfchen","postalCode":"53937","locality":"Schleiden","municipality":{"key":"05366036","name":"Schleiden, Stadt","type":"Stadt"},"district":{"key":"05366","name":"Euskirchen","type":"Kreis"},"federalState":{"key":"05","name":"Nordrhein-Westfalen"}},{"name":"Oleftal","postalCode":"53937","locality":"Schleiden","municipality":{"key":"05366036","name":"Schleiden, Stadt","type":"Stadt"},"district":{"key":"05366","name":"Euskirchen","type":"Kreis"},"federalState":{"key":"05","name":"Nordrhein-Westfalen"}},{"name":"om Dresch","postalCode":"53937","locality":"Schleiden","municipality":{"key":"05366036","name":"Schleiden, Stadt","type":"Stadt"},"district":{"key":"05366","name":"Euskirchen","type":"Kreis"},"federalState":{"key":"05","name":"Nordrhein-Westfalen"}},{"name":"Oswald-Matheis-Str.","postalCode":"53937","locality":"Schleiden","municipality":{"key":"05366036","name":"Schleiden, Stadt","type":"Stadt"},"district":{"key":"05366","name":"Euskirchen","type":"Kreis"},"federalState":{"key":"05","name":"Nordrhein-Westfalen"}},{"name":"Paffenbach","postalCode":"53937","locality":"Schleiden","municipality":{"key":"05366036","name":"Schleiden, Stadt","type":"Stadt"},"district":{"key":"05366","name":"Euskirchen","type":"Kreis"},"federalState":{"key":"05","name":"Nordrhein-Westfalen"}},{"name":"Panzerstr.","postalCode":"53937","locality":"Schleiden","municipality":{"key":"05366036","name":"Schleiden, Stadt","type":"Stadt"},"district":{"key":"05366","name":"Euskirchen","type":"Kreis"},"federalState":{"key":"05","name":"Nordrhein-Westfalen"}},{"name":"Parkallee","postalCode":"53937","locality":"Schleiden","municipality":{"key":"05366036","name":"Schleiden, Stadt","type":"Stadt"},"district":{"key":"05366","name":"Euskirchen","type":"Kreis"},"federalState":{"key":"05","name":"Nordrhein-Westfalen"}},{"name":"Pfarrer-Grundmann-Str.","postalCode":"53937","locality":"Schleiden","municipality":{"key":"05366036","name":"Schleiden, Stadt","type":"Stadt"},"district":{"key":"05366","name":"Euskirchen","type":"Kreis"},"federalState":{"key":"05","name":"Nordrhein-Westfalen"}},{"name":"Pfarrer-Holl-Str.","postalCode":"53937","locality":"Schleiden","municipality":{"key":"05366036","name":"Schleiden, Stadt","type":"Stadt"},"district":{"key":"05366","name":"Euskirchen","type":"Kreis"},"federalState":{"key":"05","name":"Nordrhein-Westfalen"}},{"name":"Pfarrer-Kneipp-Str.","postalCode":"53937","locality":"Schleiden","municipality":{"key":"05366036","name":"Schleiden, Stadt","type":"Stadt"},"district":{"key":"05366","name":"Euskirchen","type":"Kreis"},"federalState":{"key":"05","name":"Nordrhein-Westfalen"}},{"name":"Poensgenstr.","postalCode":"53937","locality":"Schleiden","municipality":{"key":"05366036","name":"Schleiden, Stadt","type":"Stadt"},"district":{"key":"05366","name":"Euskirchen","type":"Kreis"},"federalState":{"key":"05","name":"Nordrhein-Westfalen"}},{"name":"Prümer Str.","postalCode":"53937","locality":"Schleiden","municipality":{"key":"05366036","name":"Schleiden, Stadt","type":"Stadt"},"district":{"key":"05366","name":"Euskirchen","type":"Kreis"},"federalState":{"key":"05","name":"Nordrhein-Westfalen"}},{"name":"Pützauel","postalCode":"53937","locality":"Schleiden","municipality":{"key":"05366036","name":"Schleiden, Stadt","type":"Stadt"},"district":{"key":"05366","name":"Euskirchen","type":"Kreis"},"federalState":{"key":"05","name":"Nordrhein-Westfalen"}},{"name":"Pützbenden","postalCode":"53937","locality":"Schleiden","municipality":{"key":"05366036","name":"Schleiden, Stadt","type":"Stadt"},"district":{"key":"05366","name":"Euskirchen","type":"Kreis"},"federalState":{"key":"05","name":"Nordrhein-Westfalen"}},{"name":"Pützgarten","postalCode":"53937","locality":"Schleiden","municipality":{"key":"05366036","name":"Schleiden, Stadt","type":"Stadt"},"district":{"key":"05366","name":"Euskirchen","type":"Kreis"},"federalState":{"key":"05","name":"Nordrhein-Westfalen"}},{"name":"Quarzstr.","postalCode":"53881","locality":"Euskirchen","municipality":{"key":"05366016","name":"Euskirchen, Stadt","type":"Stadt"},"district":{"key":"05366","name":"Euskirchen","type":"Kreis"},"federalState":{"key":"05","name":"Nordrhein-Westfalen"}},{"name":"Reidtmeisterstr.","postalCode":"53937","locality":"Schleiden","municipality":{"key":"05366036","name":"Schleiden, Stadt","type":"Stadt"},"district":{"key":"05366","name":"Euskirchen","type":"Kreis"},"federalState":{"key":"05","name":"Nordrhein-Westfalen"}},{"name":"Reifferscheider Str.","postalCode":"53937","locality":"Schleiden","municipality":{"key":"05366036","name":"Schleiden, Stadt","type":"Stadt"},"district":{"key":"05366","name":"Euskirchen","type":"Kreis"},"federalState":{"key":"05","name":"Nordrhein-Westfalen"}},{"name":"Reinhardsau","postalCode":"53937","locality":"Schleiden","municipality":{"key":"05366036","name":"Schleiden, Stadt","type":"Stadt"},"district":{"key":"05366","name":"Euskirchen","type":"Kreis"},"federalState":{"key":"05","name":"Nordrhein-Westfalen"}},{"name":"Rinkenbach","postalCode":"53937","locality":"Schleiden","municipality":{"key":"05366036","name":"Schleiden, Stadt","type":"Stadt"},"district":{"key":"05366","name":"Euskirchen","type":"Kreis"},"federalState":{"key":"05","name":"Nordrhein-Westfalen"}},{"name":"Rochusstr.","postalCode":"53937","locality":"Schleiden","municipality":{"key":"05366036","name":"Schleiden, Stadt","type":"Stadt"},"district":{"key":"05366","name":"Euskirchen","type":"Kreis"},"federalState":{"key":"05","name":"Nordrhein-Westfalen"}},{"name":"Römerstr.","postalCode":"53937","locality":"Schleiden","municipality":{"key":"05366036","name":"Schleiden, Stadt","type":"Stadt"},"district":{"key":"05366","name":"Euskirchen","type":"Kreis"},"federalState":{"key":"05","name":"Nordrhein-Westfalen"}},{"name":"Rosenhügel","postalCode":"53937","locality":"Schleiden","municipality":{"key":"05366036","name":"Schleiden, Stadt","type":"Stadt"},"district":{"key":"05366","name":"Euskirchen","type":"Kreis"},"federalState":{"key":"05","name":"Nordrhein-Westfalen"}},{"name":"Rotdornweg","postalCode":"53937","locality":"Schleiden","municipality":{"key":"05366036","name":"Schleiden, Stadt","type":"Stadt"},"district":{"key":"05366","name":"Euskirchen","type":"Kreis"},"federalState":{"key":"05","name":"Nordrhein-Westfalen"}},{"name":"Rötgenstr.","postalCode":"53937","locality":"Schleiden","municipality":{"key":"05366036","name":"Schleiden, Stadt","type":"Stadt"},"district":{"key":"05366","name":"Euskirchen","type":"Kreis"},"federalState":{"key":"05","name":"Nordrhein-Westfalen"}},{"name":"Ruppenberg","postalCode":"53937","locality":"Schleiden","municipality":{"key":"05366036","name":"Schleiden, Stadt","type":"Stadt"},"district":{"key":"05366","name":"Euskirchen","type":"Kreis"},"federalState":{"key":"05","name":"Nordrhein-Westfalen"}},{"name":"Sankt-Sebastianus-Weg","postalCode":"53937","locality":"Schleiden","municipality":{"key":"05366036","name":"Schleiden, Stadt","type":"Stadt"},"district":{"key":"05366","name":"Euskirchen","type":"Kreis"},"federalState":{"key":"05","name":"Nordrhein-Westfalen"}},{"name":"Schafbachmühle","postalCode":"53937","locality":"Schleiden","municipality":{"key":"05366036","name":"Schleiden, Stadt","type":"Stadt"},"district":{"key":"05366","name":"Euskirchen","type":"Kreis"},"federalState":{"key":"05","name":"Nordrhein-Westfalen"}},{"name":"Scheuren","postalCode":"53937","locality":"Schleiden","municipality":{"key":"05366036","name":"Schleiden, Stadt","type":"Stadt"},"district":{"key":"05366","name":"Euskirchen","type":"Kreis"},"federalState":{"key":"05","name":"Nordrhein-Westfalen"}},{"name":"Scheurener Str.","postalCode":"53937","locality":"Schleiden","municipality":{"key":"05366036","name":"Schleiden, Stadt","type":"Stadt"},"district":{"key":"05366","name":"Euskirchen","type":"Kreis"},"federalState":{"key":"05","name":"Nordrhein-Westfalen"}},{"name":"Schillerstr.","postalCode":"53937","locality":"Schleiden","municipality":{"key":"05366036","name":"Schleiden, Stadt","type":"Stadt"},"district":{"key":"05366","name":"Euskirchen","type":"Kreis"},"federalState":{"key":"05","name":"Nordrhein-Westfalen"}},{"name":"Schlehenweg","postalCode":"53937","locality":"Schleiden","municipality":{"key":"05366036","name":"Schleiden, Stadt","type":"Stadt"},"district":{"key":"05366","name":"Euskirchen","type":"Kreis"},"federalState":{"key":"05","name":"Nordrhein-Westfalen"}},{"name":"Schleidener Str.","postalCode":"53937","locality":"Schleiden","municipality":{"key":"05366036","name":"Schleiden, Stadt","type":"Stadt"},"district":{"key":"05366","name":"Euskirchen","type":"Kreis"},"federalState":{"key":"05","name":"Nordrhein-Westfalen"}},{"name":"Schloßauel","postalCode":"53937","locality":"Schleiden","municipality":{"key":"05366036","name":"Schleiden, Stadt","type":"Stadt"},"district":{"key":"05366","name":"Euskirchen","type":"Kreis"},"federalState":{"key":"05","name":"Nordrhein-Westfalen"}},{"name":"Schlosspark","postalCode":"53937","locality":"Schleiden","municipality":{"key":"05366036","name":"Schleiden, Stadt","type":"Stadt"},"district":{"key":"05366","name":"Euskirchen","type":"Kreis"},"federalState":{"key":"05","name":"Nordrhein-Westfalen"}},{"name":"Schneifelstr.","postalCode":"53937","locality":"Schleiden","municipality":{"key":"05366036","name":"Schleiden, Stadt","type":"Stadt"},"district":{"key":"05366","name":"Euskirchen","type":"Kreis"},"federalState":{"key":"05","name":"Nordrhein-Westfalen"}},{"name":"Schoellerstr.","postalCode":"53937","locality":"Schleiden","municipality":{"key":"05366036","name":"Schleiden, Stadt","type":"Stadt"},"district":{"key":"05366","name":"Euskirchen","type":"Kreis"},"federalState":{"key":"05","name":"Nordrhein-Westfalen"}},{"name":"Schöneseiffen","postalCode":"53937","locality":"Schleiden","municipality":{"key":"05366036","name":"Schleiden, Stadt","type":"Stadt"},"district":{"key":"05366","name":"Euskirchen","type":"Kreis"},"federalState":{"key":"05","name":"Nordrhein-Westfalen"}},{"name":"Schulweg","postalCode":"53937","locality":"Schleiden","municipality":{"key":"05366036","name":"Schleiden, Stadt","type":"Stadt"},"district":{"key":"05366","name":"Euskirchen","type":"Kreis"},"federalState":{"key":"05","name":"Nordrhein-Westfalen"}},{"name":"Schweitzerstr.","postalCode":"53937","locality":"Schleiden","municipality":{"key":"05366036","name":"Schleiden, Stadt","type":"Stadt"},"district":{"key":"05366","name":"Euskirchen","type":"Kreis"},"federalState":{"key":"05","name":"Nordrhein-Westfalen"}},{"name":"Selbacher Str.","postalCode":"53937","locality":"Schleiden","municipality":{"key":"05366036","name":"Schleiden, Stadt","type":"Stadt"},"district":{"key":"05366","name":"Euskirchen","type":"Kreis"},"federalState":{"key":"05","name":"Nordrhein-Westfalen"}},{"name":"Sievertsstr.","postalCode":"53937","locality":"Schleiden","municipality":{"key":"05366036","name":"Schleiden, Stadt","type":"Stadt"},"district":{"key":"05366","name":"Euskirchen","type":"Kreis"},"federalState":{"key":"05","name":"Nordrhein-Westfalen"}},{"name":"Sittard","postalCode":"53937","locality":"Schleiden","municipality":{"key":"05366036","name":"Schleiden, Stadt","type":"Stadt"},"district":{"key":"05366","name":"Euskirchen","type":"Kreis"},"federalState":{"key":"05","name":"Nordrhein-Westfalen"}},{"name":"Sleidanusstr.","postalCode":"53937","locality":"Schleiden","municipality":{"key":"05366036","name":"Schleiden, Stadt","type":"Stadt"},"district":{"key":"05366","name":"Euskirchen","type":"Kreis"},"federalState":{"key":"05","name":"Nordrhein-Westfalen"}},{"name":"Steinfelder Str.","postalCode":"53937","locality":"Schleiden","municipality":{"key":"05366036","name":"Schleiden, Stadt","type":"Stadt"},"district":{"key":"05366","name":"Euskirchen","type":"Kreis"},"federalState":{"key":"05","name":"Nordrhein-Westfalen"}},{"name":"Steinheck","postalCode":"53937","locality":"Schleiden","municipality":{"key":"05366036","name":"Schleiden, Stadt","type":"Stadt"},"district":{"key":"05366","name":"Euskirchen","type":"Kreis"},"federalState":{"key":"05","name":"Nordrhein-Westfalen"}},{"name":"Steinkuhle","postalCode":"53937","locality":"Schleiden","municipality":{"key":"05366036","name":"Schleiden, Stadt","type":"Stadt"},"district":{"key":"05366","name":"Euskirchen","type":"Kreis"},"federalState":{"key":"05","name":"Nordrhein-Westfalen"}},{"name":"Steinrücken","postalCode":"53937","locality":"Schleiden","municipality":{"key":"05366036","name":"Schleiden, Stadt","type":"Stadt"},"district":{"key":"05366","name":"Euskirchen","type":"Kreis"},"federalState":{"key":"05","name":"Nordrhein-Westfalen"}},{"name":"Steinweg","postalCode":"53937","locality":"Schleiden","municipality":{"key":"05366036","name":"Schleiden, Stadt","type":"Stadt"},"district":{"key":"05366","name":"Euskirchen","type":"Kreis"},"federalState":{"key":"05","name":"Nordrhein-Westfalen"}},{"name":"Sternweg","postalCode":"53937","locality":"Schleiden","municipality":{"key":"05366036","name":"Schleiden, Stadt","type":"Stadt"},"district":{"key":"05366","name":"Euskirchen","type":"Kreis"},"federalState":{"key":"05","name":"Nordrhein-Westfalen"}},{"name":"Stesbenden","postalCode":"53937","locality":"Schleiden","municipality":{"key":"05366036","name":"Schleiden, Stadt","type":"Stadt"},"district":{"key":"05366","name":"Euskirchen","type":"Kreis"},"federalState":{"key":"05","name":"Nordrhein-Westfalen"}},{"name":"Stettiner Str.","postalCode":"53937","locality":"Schleiden","municipality":{"key":"05366036","name":"Schleiden, Stadt","type":"Stadt"},"district":{"key":"05366","name":"Euskirchen","type":"Kreis"},"federalState":{"key":"05","name":"Nordrhein-Westfalen"}},{"name":"Sturmiusstr.","postalCode":"53937","locality":"Schleiden","municipality":{"key":"05366036","name":"Schleiden, Stadt","type":"Stadt"},"district":{"key":"05366","name":"Euskirchen","type":"Kreis"},"federalState":{"key":"05","name":"Nordrhein-Westfalen"}},{"name":"Talstr.","postalCode":"53937","locality":"Schleiden","municipality":{"key":"05366036","name":"Schleiden, Stadt","type":"Stadt"},"district":{"key":"05366","name":"Euskirchen","type":"Kreis"},"federalState":{"key":"05","name":"Nordrhein-Westfalen"}},{"name":"Tannenweg","postalCode":"53937","locality":"Schleiden","municipality":{"key":"05366036","name":"Schleiden, Stadt","type":"Stadt"},"district":{"key":"05366","name":"Euskirchen","type":"Kreis"},"federalState":{"key":"05","name":"Nordrhein-Westfalen"}},{"name":"Thierbüsch","postalCode":"53937","locality":"Schleiden","municipality":{"key":"05366036","name":"Schleiden, Stadt","type":"Stadt"},"district":{"key":"05366","name":"Euskirchen","type":"Kreis"},"federalState":{"key":"05","name":"Nordrhein-Westfalen"}},{"name":"Thol","postalCode":"53937","locality":"Schleiden","municipality":{"key":"05366036","name":"Schleiden, Stadt","type":"Stadt"},"district":{"key":"05366","name":"Euskirchen","type":"Kreis"},"federalState":{"key":"05","name":"Nordrhein-Westfalen"}},{"name":"Tilsiter Str.","postalCode":"53937","locality":"Schleiden","municipality":{"key":"05366036","name":"Schleiden, Stadt","type":"Stadt"},"district":{"key":"05366","name":"Euskirchen","type":"Kreis"},"federalState":{"key":"05","name":"Nordrhein-Westfalen"}},{"name":"Tränkelbachstr.","postalCode":"53937","locality":"Schleiden","municipality":{"key":"05366036","name":"Schleiden, Stadt","type":"Stadt"},"district":{"key":"05366","name":"Euskirchen","type":"Kreis"},"federalState":{"key":"05","name":"Nordrhein-Westfalen"}},{"name":"Tricht","postalCode":"53937","locality":"Schleiden","municipality":{"key":"05366036","name":"Schleiden, Stadt","type":"Stadt"},"district":{"key":"05366","name":"Euskirchen","type":"Kreis"},"federalState":{"key":"05","name":"Nordrhein-Westfalen"}},{"name":"Trierer Str.","postalCode":"53937","locality":"Schleiden","municipality":{"key":"05366036","name":"Schleiden, Stadt","type":"Stadt"},"district":{"key":"05366","name":"Euskirchen","type":"Kreis"},"federalState":{"key":"05","name":"Nordrhein-Westfalen"}},{"name":"Trinkpütz","postalCode":"53937","locality":"Schleiden","municipality":{"key":"05366036","name":"Schleiden, Stadt","type":"Stadt"},"district":{"key":"05366","name":"Euskirchen","type":"Kreis"},"federalState":{"key":"05","name":"Nordrhein-Westfalen"}},{"name":"Uferstr.","postalCode":"53937","locality":"Schleiden","municipality":{"key":"05366036","name":"Schleiden, Stadt","type":"Stadt"},"district":{"key":"05366","name":"Euskirchen","type":"Kreis"},"federalState":{"key":"05","name":"Nordrhein-Westfalen"}},{"name":"Uhlandstr.","postalCode":"53937","locality":"Schleiden","municipality":{"key":"05366036","name":"Schleiden, Stadt","type":"Stadt"},"district":{"key":"05366","name":"Euskirchen","type":"Kreis"},"federalState":{"key":"05","name":"Nordrhein-Westfalen"}},{"name":"Ulmenweg","postalCode":"53937","locality":"Schleiden","municipality":{"key":"05366036","name":"Schleiden, Stadt","type":"Stadt"},"district":{"key":"05366","name":"Euskirchen","type":"Kreis"},"federalState":{"key":"05","name":"Nordrhein-Westfalen"}},{"name":"Unterm Dorf","postalCode":"53937","locality":"Schleiden","municipality":{"key":"05366036","name":"Schleiden, Stadt","type":"Stadt"},"district":{"key":"05366","name":"Euskirchen","type":"Kreis"},"federalState":{"key":"05","name":"Nordrhein-Westfalen"}},{"name":"Urftseestr.","postalCode":"53937","locality":"Schleiden","municipality":{"key":"05366036","name":"Schleiden, Stadt","type":"Stadt"},"district":{"key":"05366","name":"Euskirchen","type":"Kreis"},"federalState":{"key":"05","name":"Nordrhein-Westfalen"}},{"name":"Urfttalsperre","postalCode":"53937","locality":"Schleiden","municipality":{"key":"05366036","name":"Schleiden, Stadt","type":"Stadt"},"district":{"key":"05366","name":"Euskirchen","type":"Kreis"},"federalState":{"key":"05","name":"Nordrhein-Westfalen"}},{"name":"Vogelsangstr.","postalCode":"53937","locality":"Schleiden","municipality":{"key":"05366036","name":"Schleiden, Stadt","type":"Stadt"},"district":{"key":"05366","name":"Euskirchen","type":"Kreis"},"federalState":{"key":"05","name":"Nordrhein-Westfalen"}},{"name":"von-Harff-Str.","postalCode":"53937","locality":"Schleiden","municipality":{"key":"05366036","name":"Schleiden, Stadt","type":"Stadt"},"district":{"key":"05366","name":"Euskirchen","type":"Kreis"},"federalState":{"key":"05","name":"Nordrhein-Westfalen"}},{"name":"Vorburg","postalCode":"53937","locality":"Schleiden","municipality":{"key":"05366036","name":"Schleiden, Stadt","type":"Stadt"},"district":{"key":"05366","name":"Euskirchen","type":"Kreis"},"federalState":{"key":"05","name":"Nordrhein-Westfalen"}},{"name":"Voßpesch","postalCode":"53937","locality":"Schleiden","municipality":{"key":"05366036","name":"Schleiden, Stadt","type":"Stadt"},"district":{"key":"05366","name":"Euskirchen","type":"Kreis"},"federalState":{"key":"05","name":"Nordrhein-Westfalen"}},{"name":"Wacholderweg","postalCode":"53937","locality":"Schleiden","municipality":{"key":"05366036","name":"Schleiden, Stadt","type":"Stadt"},"district":{"key":"05366","name":"Euskirchen","type":"Kreis"},"federalState":{"key":"05","name":"Nordrhein-Westfalen"}},{"name":"Wehrley","postalCode":"53937","locality":"Schleiden","municipality":{"key":"05366036","name":"Schleiden, Stadt","type":"Stadt"},"district":{"key":"05366","name":"Euskirchen","type":"Kreis"},"federalState":{"key":"05","name":"Nordrhein-Westfalen"}},{"name":"Weidenbend","postalCode":"53937","locality":"Schleiden","municipality":{"key":"05366036","name":"Schleiden, Stadt","type":"Stadt"},"district":{"key":"05366","name":"Euskirchen","type":"Kreis"},"federalState":{"key":"05","name":"Nordrhein-Westfalen"}},{"name":"Weidenstr.","postalCode":"53937","locality":"Schleiden","municipality":{"key":"05366036","name":"Schleiden, Stadt","type":"Stadt"},"district":{"key":"05366","name":"Euskirchen","type":"Kreis"},"federalState":{"key":"05","name":"Nordrhein-Westfalen"}},{"name":"Weierfeld","postalCode":"53937","locality":"Schleiden","municipality":{"key":"05366036","name":"Schleiden, Stadt","type":"Stadt"},"district":{"key":"05366","name":"Euskirchen","type":"Kreis"},"federalState":{"key":"05","name":"Nordrhein-Westfalen"}},{"name":"Weierhardt","postalCode":"53937","locality":"Schleiden","municipality":{"key":"05366036","name":"Schleiden, Stadt","type":"Stadt"},"district":{"key":"05366","name":"Euskirchen","type":"Kreis"},"federalState":{"key":"05","name":"Nordrhein-Westfalen"}},{"name":"Weiermühle","postalCode":"53937","locality":"Schleiden","municipality":{"key":"05366036","name":"Schleiden, Stadt","type":"Stadt"},"district":{"key":"05366","name":"Euskirchen","type":"Kreis"},"federalState":{"key":"05","name":"Nordrhein-Westfalen"}},{"name":"Weierstr.","postalCode":"53937","locality":"Schleiden","municipality":{"key":"05366036","name":"Schleiden, Stadt","type":"Stadt"},"district":{"key":"05366","name":"Euskirchen","type":"Kreis"},"federalState":{"key":"05","name":"Nordrhein-Westfalen"}},{"name":"Weinhardstr.","postalCode":"53937","locality":"Schleiden","municipality":{"key":"05366036","name":"Schleiden, Stadt","type":"Stadt"},"district":{"key":"05366","name":"Euskirchen","type":"Kreis"},"federalState":{"key":"05","name":"Nordrhein-Westfalen"}},{"name":"Weißdornweg","postalCode":"53937","locality":"Schleiden","municipality":{"key":"05366036","name":"Schleiden, Stadt","type":"Stadt"},"district":{"key":"05366","name":"Euskirchen","type":"Kreis"},"federalState":{"key":"05","name":"Nordrhein-Westfalen"}},{"name":"Wendelinusstr.","postalCode":"53937","locality":"Schleiden","municipality":{"key":"05366036","name":"Schleiden, Stadt","type":"Stadt"},"district":{"key":"05366","name":"Euskirchen","type":"Kreis"},"federalState":{"key":"05","name":"Nordrhein-Westfalen"}},{"name":"Wiesenstr.","postalCode":"53937","locality":"Schleiden","municipality":{"key":"05366036","name":"Schleiden, Stadt","type":"Stadt"},"district":{"key":"05366","name":"Euskirchen","type":"Kreis"},"federalState":{"key":"05","name":"Nordrhein-Westfalen"}},{"name":"Wildnistrail (Eifel)","postalCode":"53937","locality":"Schleiden","municipality":{"key":"05366036","name":"Schleiden, Stadt","type":"Stadt"},"district":{"key":"05366","name":"Euskirchen","type":"Kreis"},"federalState":{"key":"05","name":"Nordrhein-Westfalen"}},{"name":"Wildparkstr.","postalCode":"53937","locality":"Schleiden","municipality":{"key":"05366036","name":"Schleiden, Stadt","type":"Stadt"},"district":{"key":"05366","name":"Euskirchen","type":"Kreis"},"federalState":{"key":"05","name":"Nordrhein-Westfalen"}},{"name":"Willibrordusweg","postalCode":"53937","locality":"Schleiden","municipality":{"key":"05366036","name":"Schleiden, Stadt","type":"Stadt"},"district":{"key":"05366","name":"Euskirchen","type":"Kreis"},"federalState":{"key":"05","name":"Nordrhein-Westfalen"}},{"name":"Winkelstr.","postalCode":"53937","locality":"Schleiden","municipality":{"key":"05366036","name":"Schleiden, Stadt","type":"Stadt"},"district":{"key":"05366","name":"Euskirchen","type":"Kreis"},"federalState":{"key":"05","name":"Nordrhein-Westfalen"}},{"name":"Wintzen","postalCode":"53937","locality":"Schleiden","municipality":{"key":"05366036","name":"Schleiden, Stadt","type":"Stadt"},"district":{"key":"05366","name":"Euskirchen","type":"Kreis"},"federalState":{"key":"05","name":"Nordrhein-Westfalen"}},{"name":"Wintzener Str.","postalCode":"53937","locality":"Schleiden","municipality":{"key":"05366036","name":"Schleiden, Stadt","type":"Stadt"},"district":{"key":"05366","name":"Euskirchen","type":"Kreis"},"federalState":{"key":"05","name":"Nordrhein-Westfalen"}},{"name":"Wolfgarten","postalCode":"53937","locality":"Schleiden","municipality":{"key":"05366036","name":"Schleiden, Stadt","type":"Stadt"},"district":{"key":"05366","name":"Euskirchen","type":"Kreis"},"federalState":{"key":"05","name":"Nordrhein-Westfalen"}},{"name":"Wolfsstr.","postalCode":"53937","locality":"Schleiden","municipality":{"key":"05366036","name":"Schleiden, Stadt","type":"Stadt"},"district":{"key":"05366","name":"Euskirchen","type":"Kreis"},"federalState":{"key":"05","name":"Nordrhein-Westfalen"}},{"name":"Wollseifener Str.","postalCode":"53937","locality":"Schleiden","municipality":{"key":"05366036","name":"Schleiden, Stadt","type":"Stadt"},"district":{"key":"05366","name":"Euskirchen","type":"Kreis"},"federalState":{"key":"05","name":"Nordrhein-Westfalen"}},{"name":"Ziegenbendgesweg","postalCode":"53937","locality":"Schleiden","municipality":{"key":"05366036","name":"Schleiden, Stadt","type":"Stadt"},"district":{"key":"05366","name":"Euskirchen","type":"Kreis"},"federalState":{"key":"05","name":"Nordrhein-Westfalen"}},{"name":"Zöllerplatz","postalCode":"53937","locality":"Schleiden","municipality":{"key":"05366036","name":"Schleiden, Stadt","type":"Stadt"},"district":{"key":"05366","name":"Euskirchen","type":"Kreis"},"federalState":{"key":"05","name":"Nordrhein-Westfalen"}},{"name":"Zöllerstr.","postalCode":"53937","locality":"Schleiden","municipality":{"key":"05366036","name":"Schleiden, Stadt","type":"Stadt"},"district":{"key":"05366","name":"Euskirchen","type":"Kreis"},"federalState":{"key":"05","name":"Nordrhein-Westfalen"}},{"name":"Zu den Beckers","postalCode":"53937","locality":"Schleiden","municipality":{"key":"05366036","name":"Schleiden, Stadt","type":"Stadt"},"district":{"key":"05366","name":"Euskirchen","type":"Kreis"},"federalState":{"key":"05","name":"Nordrhein-Westfalen"}},{"name":"Zum Bongard","postalCode":"53937","locality":"Schleiden","municipality":{"key":"05366036","name":"Schleiden, Stadt","type":"Stadt"},"district":{"key":"05366","name":"Euskirchen","type":"Kreis"},"federalState":{"key":"05","name":"Nordrhein-Westfalen"}},{"name":"Zum Burgfeld","postalCode":"53937","locality":"Schleiden","municipality":{"key":"05366036","name":"Schleiden, Stadt","type":"Stadt"},"district":{"key":"05366","name":"Euskirchen","type":"Kreis"},"federalState":{"key":"05","name":"Nordrhein-Westfalen"}},{"name":"Zum Hellesbach","postalCode":"53937","locality":"Schleiden","municipality":{"key":"05366036","name":"Schleiden, Stadt","type":"Stadt"},"district":{"key":"05366","name":"Euskirchen","type":"Kreis"},"federalState":{"key":"05","name":"Nordrhein-Westfalen"}},{"name":"Zum Kierberg","postalCode":"53937","locality":"Schleiden","municipality":{"key":"05366036","name":"Schleiden, Stadt","type":"Stadt"},"district":{"key":"05366","name":"Euskirchen","type":"Kreis"},"federalState":{"key":"05","name":"Nordrhein-Westfalen"}},{"name":"Zum Knopp","postalCode":"53937","locality":"Schleiden","municipality":{"key":"05366036","name":"Schleiden, Stadt","type":"Stadt"},"district":{"key":"05366","name":"Euskirchen","type":"Kreis"},"federalState":{"key":"05","name":"Nordrhein-Westfalen"}},{"name":"Zum Kuhseifen","postalCode":"53937","locality":"Schleiden","municipality":{"key":"05366036","name":"Schleiden, Stadt","type":"Stadt"},"district":{"key":"05366","name":"Euskirchen","type":"Kreis"},"federalState":{"key":"05","name":"Nordrhein-Westfalen"}},{"name":"Zum Röresberg","postalCode":"53937","locality":"Schleiden","municipality":{"key":"05366036","name":"Schleiden, Stadt","type":"Stadt"},"district":{"key":"05366","name":"Euskirchen","type":"Kreis"},"federalState":{"key":"05","name":"Nordrhein-Westfalen"}},{"name":"Zum Schafbach","postalCode":"53937","locality":"Schleiden","municipality":{"key":"05366036","name":"Schleiden, Stadt","type":"Stadt"},"district":{"key":"05366","name":"Euskirchen","type":"Kreis"},"federalState":{"key":"05","name":"Nordrhein-Westfalen"}},{"name":"Zum Scheckenbach","postalCode":"53937","locality":"Schleiden","municipality":{"key":"05366036","name":"Schleiden, Stadt","type":"Stadt"},"district":{"key":"05366","name":"Euskirchen","type":"Kreis"},"federalState":{"key":"05","name":"Nordrhein-Westfalen"}},{"name":"Zum Stich","postalCode":"53937","locality":"Schleiden","municipality":{"key":"05366036","name":"Schleiden, Stadt","type":"Stadt"},"district":{"key":"05366","name":"Euskirchen","type":"Kreis"},"federalState":{"key":"05","name":"Nordrhein-Westfalen"}},{"name":"Zum Wehr","postalCode":"53937","locality":"Schleiden","municipality":{"key":"05366036","name":"Schleiden, Stadt","type":"Stadt"},"district":{"key":"05366","name":"Euskirchen","type":"Kreis"},"federalState":{"key":"05","name":"Nordrhein-Westfalen"}},{"name":"Zur Katharinenwiese","postalCode":"53937","locality":"Schleiden","municipality":{"key":"05366036","name":"Schleiden, Stadt","type":"Stadt"},"district":{"key":"05366","name":"Euskirchen","type":"Kreis"},"federalState":{"key":"05","name":"Nordrhein-Westfalen"}},{"name":"Ähßisch Jajß","postalCode":"53937","locality":"Schleiden","municipality":{"key":"05366036","name":"Schleiden, Stadt","type":"Stadt"},"district":{"key":"05366","name":"Euskirchen","type":"Kreis"},"federalState":{"key":"05","name":"Nordrhein-Westfalen"}},]