[{"key":"10246877","name":"A1","postalCode":"1293","locality":"Bellevue","commune":{"key":"6606","name":"Bellevue","shortName":"Bellevue"},"district":{"key":"2500","name":"Canton de Genève"},"canton":{"key":"25","code":"GE","name":"Genève"},"status":"Real"},{"key":"10246878","name":"A1a","postalCode":"1293","locality":"Bellevue","commune":{"key":"6606","name":"Bellevue","shortName":"Bellevue"},"district":{"key":"2500","name":"Canton de Genève"},"canton":{"key":"25","code":"GE","name":"Genève"},"status":"Real"},{"key":"10048868","name":"Avenue De-SENARCLENS","postalCode":"1293","locality":"Bellevue","commune":{"key":"6606","name":"Bellevue","shortName":"Bellevue"},"district":{"key":"2500","name":"Canton de Genève"},"canton":{"key":"25","code":"GE","name":"Genève"},"status":"Real"},{"key":"10095992","name":"Chemin Aux-Folies","postalCode":"1293","locality":"Bellevue","commune":{"key":"6606","name":"Bellevue","shortName":"Bellevue"},"district":{"key":"2500","name":"Canton de Genève"},"canton":{"key":"25","code":"GE","name":"Genève"},"status":"Real"},{"key":"10254736","name":"Chemin Comtesse-De-POURTALÈS","postalCode":"1293","locality":"Bellevue","commune":{"key":"6606","name":"Bellevue","shortName":"Bellevue"},"district":{"key":"2500","name":"Canton de Genève"},"canton":{"key":"25","code":"GE","name":"Genève"},"status":"Real"},{"key":"10048872","name":"Chemin de la Brunette","postalCode":"1293","locality":"Bellevue","commune":{"key":"6606","name":"Bellevue","shortName":"Bellevue"},"district":{"key":"2500","name":"Canton de Genève"},"canton":{"key":"25","code":"GE","name":"Genève"},"status":"Real"},{"key":"10095994","name":"Chemin de la Chênaie","postalCode":"1293","locality":"Bellevue","commune":{"key":"6606","name":"Bellevue","shortName":"Bellevue"},"district":{"key":"2500","name":"Canton de Genève"},"canton":{"key":"25","code":"GE","name":"Genève"},"status":"Real"},{"key":"10221882","name":"Chemin de la Finiole","postalCode":"1293","locality":"Bellevue","commune":{"key":"6606","name":"Bellevue","shortName":"Bellevue"},"district":{"key":"2500","name":"Canton de Genève"},"canton":{"key":"25","code":"GE","name":"Genève"},"status":"Real"},{"key":"10221890","name":"Chemin de la Glaise","postalCode":"1293","locality":"Bellevue","commune":{"key":"6606","name":"Bellevue","shortName":"Bellevue"},"district":{"key":"2500","name":"Canton de Genève"},"canton":{"key":"25","code":"GE","name":"Genève"},"status":"Real"},{"key":"10222381","name":"Chemin de la Glaise","postalCode":"1293","locality":"Bellevue","commune":{"key":"6606","name":"Bellevue","shortName":"Bellevue"},"district":{"key":"2500","name":"Canton de Genève"},"canton":{"key":"25","code":"GE","name":"Genève"},"status":"Real"},{"key":"10048873","name":"Chemin de la Menuiserie","postalCode":"1293","locality":"Bellevue","commune":{"key":"6606","name":"Bellevue","shortName":"Bellevue"},"district":{"key":"2500","name":"Canton de Genève"},"canton":{"key":"25","code":"GE","name":"Genève"},"status":"Real"},{"key":"10048874","name":"Chemin de la Mojonne","postalCode":"1293","locality":"Bellevue","commune":{"key":"6606","name":"Bellevue","shortName":"Bellevue"},"district":{"key":"2500","name":"Canton de Genève"},"canton":{"key":"25","code":"GE","name":"Genève"},"status":"Real"},{"key":"10095995","name":"Chemin de la Radio","postalCode":"1293","locality":"Bellevue","commune":{"key":"6606","name":"Bellevue","shortName":"Bellevue"},"district":{"key":"2500","name":"Canton de Genève"},"canton":{"key":"25","code":"GE","name":"Genève"},"status":"Real"},{"key":"10199769","name":"Chemin de l'Argile","postalCode":"1293","locality":"Bellevue","commune":{"key":"6606","name":"Bellevue","shortName":"Bellevue"},"district":{"key":"2500","name":"Canton de Genève"},"canton":{"key":"25","code":"GE","name":"Genève"},"status":"Real"},{"key":"10156829","name":"Chemin de la Roselière","postalCode":"1293","locality":"Bellevue","commune":{"key":"6606","name":"Bellevue","shortName":"Bellevue"},"district":{"key":"2500","name":"Canton de Genève"},"canton":{"key":"25","code":"GE","name":"Genève"},"status":"Real"},{"key":"10222389","name":"Chemin de l'Echappée","postalCode":"1293","locality":"Bellevue","commune":{"key":"6606","name":"Bellevue","shortName":"Bellevue"},"district":{"key":"2500","name":"Canton de Genève"},"canton":{"key":"25","code":"GE","name":"Genève"},"status":"Real"},{"key":"10095993","name":"Chemin de Lochette","postalCode":"1293","locality":"Bellevue","commune":{"key":"6606","name":"Bellevue","shortName":"Bellevue"},"district":{"key":"2500","name":"Canton de Genève"},"canton":{"key":"25","code":"GE","name":"Genève"},"status":"Real"},{"key":"10048871","name":"Chemin de l'Orée","postalCode":"1293","locality":"Bellevue","commune":{"key":"6606","name":"Bellevue","shortName":"Bellevue"},"district":{"key":"2500","name":"Canton de Genève"},"canton":{"key":"25","code":"GE","name":"Genève"},"status":"Real"},{"key":"10048869","name":"Chemin De-RIENCOURT","postalCode":"1293","locality":"Bellevue","commune":{"key":"6606","name":"Bellevue","shortName":"Bellevue"},"district":{"key":"2500","name":"Canton de Genève"},"canton":{"key":"25","code":"GE","name":"Genève"},"status":"Real"},{"key":"10197097","name":"Chemin des Aiglons","postalCode":"1293","locality":"Bellevue","commune":{"key":"6606","name":"Bellevue","shortName":"Bellevue"},"district":{"key":"2500","name":"Canton de Genève"},"canton":{"key":"25","code":"GE","name":"Genève"},"status":"Real"},{"key":"10105165","name":"Chemin de Saint-Oyend","postalCode":"1293","locality":"Bellevue","commune":{"key":"6606","name":"Bellevue","shortName":"Bellevue"},"district":{"key":"2500","name":"Canton de Genève"},"canton":{"key":"25","code":"GE","name":"Genève"},"status":"Real"},{"key":"10222398","name":"Chemin des Bisons","postalCode":"1293","locality":"Bellevue","commune":{"key":"6606","name":"Bellevue","shortName":"Bellevue"},"district":{"key":"2500","name":"Canton de Genève"},"canton":{"key":"25","code":"GE","name":"Genève"},"status":"Real"},{"key":"10222401","name":"Chemin des Bois-d'Amont","postalCode":"1293","locality":"Bellevue","commune":{"key":"6606","name":"Bellevue","shortName":"Bellevue"},"district":{"key":"2500","name":"Canton de Genève"},"canton":{"key":"25","code":"GE","name":"Genève"},"status":"Real"},{"key":"10048875","name":"Chemin des Chânats","postalCode":"1293","locality":"Bellevue","commune":{"key":"6606","name":"Bellevue","shortName":"Bellevue"},"district":{"key":"2500","name":"Canton de Genève"},"canton":{"key":"25","code":"GE","name":"Genève"},"status":"Real"},{"key":"10179377","name":"Chemin des Clys","postalCode":"1293","locality":"Bellevue","commune":{"key":"6606","name":"Bellevue","shortName":"Bellevue"},"district":{"key":"2500","name":"Canton de Genève"},"canton":{"key":"25","code":"GE","name":"Genève"},"status":"Real"},{"key":"10048876","name":"Chemin des Grands-Bonnets","postalCode":"1293","locality":"Bellevue","commune":{"key":"6606","name":"Bellevue","shortName":"Bellevue"},"district":{"key":"2500","name":"Canton de Genève"},"canton":{"key":"25","code":"GE","name":"Genève"},"status":"Real"},{"key":"10095996","name":"Chemin des Limites","postalCode":"1293","locality":"Bellevue","commune":{"key":"6606","name":"Bellevue","shortName":"Bellevue"},"district":{"key":"2500","name":"Canton de Genève"},"canton":{"key":"25","code":"GE","name":"Genève"},"status":"Real"},{"key":"10222409","name":"Chemin des Marcheux","postalCode":"1293","locality":"Bellevue","commune":{"key":"6606","name":"Bellevue","shortName":"Bellevue"},"district":{"key":"2500","name":"Canton de Genève"},"canton":{"key":"25","code":"GE","name":"Genève"},"status":"Real"},{"key":"10149631","name":"Chemin des Marettes","postalCode":"1293","locality":"Bellevue","commune":{"key":"6606","name":"Bellevue","shortName":"Bellevue"},"district":{"key":"2500","name":"Canton de Genève"},"canton":{"key":"25","code":"GE","name":"Genève"},"status":"Real"},{"key":"10048877","name":"Chemin des Mastellettes","postalCode":"1293","locality":"Bellevue","commune":{"key":"6606","name":"Bellevue","shortName":"Bellevue"},"district":{"key":"2500","name":"Canton de Genève"},"canton":{"key":"25","code":"GE","name":"Genève"},"status":"Real"},{"key":"10080899","name":"Chemin des Mollies","postalCode":"1293","locality":"Bellevue","commune":{"key":"6606","name":"Bellevue","shortName":"Bellevue"},"district":{"key":"2500","name":"Canton de Genève"},"canton":{"key":"25","code":"GE","name":"Genève"},"status":"Real"},{"key":"10048878","name":"Chemin des Tuileries","postalCode":"1293","locality":"Bellevue","commune":{"key":"6606","name":"Bellevue","shortName":"Bellevue"},"district":{"key":"2500","name":"Canton de Genève"},"canton":{"key":"25","code":"GE","name":"Genève"},"status":"Real"},{"key":"10095997","name":"Chemin des Tuilots","postalCode":"1293","locality":"Bellevue","commune":{"key":"6606","name":"Bellevue","shortName":"Bellevue"},"district":{"key":"2500","name":"Canton de Genève"},"canton":{"key":"25","code":"GE","name":"Genève"},"status":"Real"},{"key":"10222417","name":"Chemin du Bois-des-Pins","postalCode":"1293","locality":"Bellevue","commune":{"key":"6606","name":"Bellevue","shortName":"Bellevue"},"district":{"key":"2500","name":"Canton de Genève"},"canton":{"key":"25","code":"GE","name":"Genève"},"status":"Real"},{"key":"10048879","name":"Chemin du Colard","postalCode":"1293","locality":"Bellevue","commune":{"key":"6606","name":"Bellevue","shortName":"Bellevue"},"district":{"key":"2500","name":"Canton de Genève"},"canton":{"key":"25","code":"GE","name":"Genève"},"status":"Real"},{"key":"10048880","name":"Chemin du Gobé","postalCode":"1293","locality":"Bellevue","commune":{"key":"6606","name":"Bellevue","shortName":"Bellevue"},"district":{"key":"2500","name":"Canton de Genève"},"canton":{"key":"25","code":"GE","name":"Genève"},"status":"Real"},{"key":"10222421","name":"Chemin du Marais-du-Four","postalCode":"1293","locality":"Bellevue","commune":{"key":"6606","name":"Bellevue","shortName":"Bellevue"},"district":{"key":"2500","name":"Canton de Genève"},"canton":{"key":"25","code":"GE","name":"Genève"},"status":"Real"},{"key":"10222362","name":"Chemin du Pertuis","postalCode":"1293","locality":"Bellevue","commune":{"key":"6606","name":"Bellevue","shortName":"Bellevue"},"district":{"key":"2500","name":"Canton de Genève"},"canton":{"key":"25","code":"GE","name":"Genève"},"status":"Real"},{"key":"10097063","name":"Chemin du Planet","postalCode":"1293","locality":"Bellevue","commune":{"key":"6606","name":"Bellevue","shortName":"Bellevue"},"district":{"key":"2500","name":"Canton de Genève"},"canton":{"key":"25","code":"GE","name":"Genève"},"status":"Real"},{"key":"10172284","name":"Chemin du Poisat","postalCode":"1293","locality":"Bellevue","commune":{"key":"6606","name":"Bellevue","shortName":"Bellevue"},"district":{"key":"2500","name":"Canton de Genève"},"canton":{"key":"25","code":"GE","name":"Genève"},"status":"Real"},{"key":"10136290","name":"Chemin du Pré-des-Fourneaux","postalCode":"1293","locality":"Bellevue","commune":{"key":"6606","name":"Bellevue","shortName":"Bellevue"},"district":{"key":"2500","name":"Canton de Genève"},"canton":{"key":"25","code":"GE","name":"Genève"},"status":"Real"},{"key":"10222370","name":"Chemin du Pré-Saint-Pierre","postalCode":"1293","locality":"Bellevue","commune":{"key":"6606","name":"Bellevue","shortName":"Bellevue"},"district":{"key":"2500","name":"Canton de Genève"},"canton":{"key":"25","code":"GE","name":"Genève"},"status":"Real"},{"key":"10222374","name":"Chemin du Verdiouz","postalCode":"1293","locality":"Bellevue","commune":{"key":"6606","name":"Bellevue","shortName":"Bellevue"},"district":{"key":"2500","name":"Canton de Genève"},"canton":{"key":"25","code":"GE","name":"Genève"},"status":"Real"},{"key":"10222385","name":"Chemin en Joubières","postalCode":"1293","locality":"Bellevue","commune":{"key":"6606","name":"Bellevue","shortName":"Bellevue"},"district":{"key":"2500","name":"Canton de Genève"},"canton":{"key":"25","code":"GE","name":"Genève"},"status":"Real"},{"key":"10242307","name":"Chemin RILLIET","postalCode":"1293","locality":"Bellevue","commune":{"key":"6606","name":"Bellevue","shortName":"Bellevue"},"district":{"key":"2500","name":"Canton de Genève"},"canton":{"key":"25","code":"GE","name":"Genève"},"status":"Real"},{"key":"10048870","name":"Chemin William-RAPPARD","postalCode":"1293","locality":"Bellevue","commune":{"key":"6606","name":"Bellevue","shortName":"Bellevue"},"district":{"key":"2500","name":"Canton de Genève"},"canton":{"key":"25","code":"GE","name":"Genève"},"status":"Real"},{"key":"10222388","name":"Esplanade Gitana","postalCode":"1293","locality":"Bellevue","commune":{"key":"6606","name":"Bellevue","shortName":"Bellevue"},"district":{"key":"2500","name":"Canton de Genève"},"canton":{"key":"25","code":"GE","name":"Genève"},"status":"Real"},{"key":"10197098","name":"Parc des Aiglettes","postalCode":"1293","locality":"Bellevue","commune":{"key":"6606","name":"Bellevue","shortName":"Bellevue"},"district":{"key":"2500","name":"Canton de Genève"},"canton":{"key":"25","code":"GE","name":"Genève"},"status":"Real"},{"key":"10222392","name":"Parc des Grands-Champs","postalCode":"1293","locality":"Bellevue","commune":{"key":"6606","name":"Bellevue","shortName":"Bellevue"},"district":{"key":"2500","name":"Canton de Genève"},"canton":{"key":"25","code":"GE","name":"Genève"},"status":"Real"},{"key":"10222396","name":"Parc Simon Eggly","postalCode":"1293","locality":"Bellevue","commune":{"key":"6606","name":"Bellevue","shortName":"Bellevue"},"district":{"key":"2500","name":"Canton de Genève"},"canton":{"key":"25","code":"GE","name":"Genève"},"status":"Real"},{"key":"10222400","name":"Passerelle de la Foretaille","postalCode":"1293","locality":"Bellevue","commune":{"key":"6606","name":"Bellevue","shortName":"Bellevue"},"district":{"key":"2500","name":"Canton de Genève"},"canton":{"key":"25","code":"GE","name":"Genève"},"status":"Real"},{"key":"10222404","name":"Promenade du Campus","postalCode":"1293","locality":"Bellevue","commune":{"key":"6606","name":"Bellevue","shortName":"Bellevue"},"district":{"key":"2500","name":"Canton de Genève"},"canton":{"key":"25","code":"GE","name":"Genève"},"status":"Real"},{"key":"10222368","name":"Route de Collex","postalCode":"1293","locality":"Bellevue","commune":{"key":"6606","name":"Bellevue","shortName":"Bellevue"},"district":{"key":"2500","name":"Canton de Genève"},"canton":{"key":"25","code":"GE","name":"Genève"},"status":"Real"},{"key":"10176181","name":"Route de Colovrex","postalCode":"1293","locality":"Bellevue","commune":{"key":"6606","name":"Bellevue","shortName":"Bellevue"},"district":{"key":"2500","name":"Canton de Genève"},"canton":{"key":"25","code":"GE","name":"Genève"},"status":"Real"},{"key":"10103395","name":"Route de Lausanne","postalCode":"1293","locality":"Bellevue","commune":{"key":"6606","name":"Bellevue","shortName":"Bellevue"},"district":{"key":"2500","name":"Canton de Genève"},"canton":{"key":"25","code":"GE","name":"Genève"},"status":"Real"},{"key":"10175712","name":"Route de Lausanne","postalCode":"1293","locality":"Bellevue","commune":{"key":"6606","name":"Bellevue","shortName":"Bellevue"},"district":{"key":"2500","name":"Canton de Genève"},"canton":{"key":"25","code":"GE","name":"Genève"},"status":"Real"},{"key":"10121281","name":"Route des Fayards","postalCode":"1293","locality":"Bellevue","commune":{"key":"6606","name":"Bellevue","shortName":"Bellevue"},"district":{"key":"2500","name":"Canton de Genève"},"canton":{"key":"25","code":"GE","name":"Genève"},"status":"Real"},{"key":"10177250","name":"Route des Romelles","postalCode":"1293","locality":"Bellevue","commune":{"key":"6606","name":"Bellevue","shortName":"Bellevue"},"district":{"key":"2500","name":"Canton de Genève"},"canton":{"key":"25","code":"GE","name":"Genève"},"status":"Real"},{"key":"10097064","name":"Route de Valavran","postalCode":"1293","locality":"Bellevue","commune":{"key":"6606","name":"Bellevue","shortName":"Bellevue"},"district":{"key":"2500","name":"Canton de Genève"},"canton":{"key":"25","code":"GE","name":"Genève"},"status":"Real"},{"key":"10121669","name":"Route de Vireloup","postalCode":"1293","locality":"Bellevue","commune":{"key":"6606","name":"Bellevue","shortName":"Bellevue"},"district":{"key":"2500","name":"Canton de Genève"},"canton":{"key":"25","code":"GE","name":"Genève"},"status":"Real"},{"key":"10102476","name":"Rue de la Printanière","postalCode":"1293","locality":"Bellevue","commune":{"key":"6606","name":"Bellevue","shortName":"Bellevue"},"district":{"key":"2500","name":"Canton de Genève"},"canton":{"key":"25","code":"GE","name":"Genève"},"status":"Real"},{"key":"10106240","name":"Rue de la Printanière","postalCode":"1293","locality":"Bellevue","commune":{"key":"6606","name":"Bellevue","shortName":"Bellevue"},"district":{"key":"2500","name":"Canton de Genève"},"canton":{"key":"25","code":"GE","name":"Genève"},"status":"Real"},{"key":"10222411","name":"Ruelle de l'Epuisoir","postalCode":"1293","locality":"Bellevue","commune":{"key":"6606","name":"Bellevue","shortName":"Bellevue"},"district":{"key":"2500","name":"Canton de Genève"},"canton":{"key":"25","code":"GE","name":"Genève"},"status":"Real"},{"key":"10222415","name":"Sentier de la Cigogne","postalCode":"1293","locality":"Bellevue","commune":{"key":"6606","name":"Bellevue","shortName":"Bellevue"},"district":{"key":"2500","name":"Canton de Genève"},"canton":{"key":"25","code":"GE","name":"Genève"},"status":"Real"},{"key":"10222419","name":"Sentier Sans-Souci","postalCode":"1293","locality":"Bellevue","commune":{"key":"6606","name":"Bellevue","shortName":"Bellevue"},"district":{"key":"2500","name":"Canton de Genève"},"canton":{"key":"25","code":"GE","name":"Genève"},"status":"Real"},]