[{"name":"Achtern Hörn","postalCode":"21769","locality":"Hollnseth","municipality":{"key":"03352024","name":"Hollnseth","type":"Kreisangehörige_Gemeinde"},"district":{"key":"03352","name":"Cuxhaven","type":"Landkreis"},"federalState":{"key":"03","name":"Niedersachsen"}},{"name":"Adolf-Hell-Weg","postalCode":"25355","locality":"Groß Offenseth-Aspern","municipality":{"key":"01056017","name":"Groß Offenseth-Aspern","type":"Kreisangehörige_Gemeinde"},"district":{"key":"01056","name":"Pinneberg","type":"Kreis"},"federalState":{"key":"01","name":"Schleswig-Holstein"}},{"name":"Ahornweg","postalCode":"25365","locality":"Klein Offenseth-Sparrieshoop","municipality":{"key":"01056030","name":"Klein Offenseth-Sparrieshoop","type":"Kreisangehörige_Gemeinde"},"district":{"key":"01056","name":"Pinneberg","type":"Kreis"},"federalState":{"key":"01","name":"Schleswig-Holstein"}},{"name":"Alter Kirchweg","postalCode":"21769","locality":"Hollnseth","municipality":{"key":"03352024","name":"Hollnseth","type":"Kreisangehörige_Gemeinde"},"district":{"key":"03352","name":"Cuxhaven","type":"Landkreis"},"federalState":{"key":"03","name":"Niedersachsen"}},{"name":"Alter Sportplatz","postalCode":"25365","locality":"Klein Offenseth-Sparrieshoop","municipality":{"key":"01056030","name":"Klein Offenseth-Sparrieshoop","type":"Kreisangehörige_Gemeinde"},"district":{"key":"01056","name":"Pinneberg","type":"Kreis"},"federalState":{"key":"01","name":"Schleswig-Holstein"}},{"name":"Altona","postalCode":"21769","locality":"Hollnseth","municipality":{"key":"03352024","name":"Hollnseth","type":"Kreisangehörige_Gemeinde"},"district":{"key":"03352","name":"Cuxhaven","type":"Landkreis"},"federalState":{"key":"03","name":"Niedersachsen"}},{"name":"Am Born","postalCode":"21769","locality":"Hollnseth","municipality":{"key":"03352024","name":"Hollnseth","type":"Kreisangehörige_Gemeinde"},"district":{"key":"03352","name":"Cuxhaven","type":"Landkreis"},"federalState":{"key":"03","name":"Niedersachsen"}},{"name":"Am Bramberg","postalCode":"23845","locality":"Seth","municipality":{"key":"01060076","name":"Seth","type":"Kreisangehörige_Gemeinde"},"district":{"key":"01060","name":"Segeberg","type":"Kreis"},"federalState":{"key":"01","name":"Schleswig-Holstein"}},{"name":"Am Brink","postalCode":"21769","locality":"Hollnseth","municipality":{"key":"03352024","name":"Hollnseth","type":"Kreisangehörige_Gemeinde"},"district":{"key":"03352","name":"Cuxhaven","type":"Landkreis"},"federalState":{"key":"03","name":"Niedersachsen"}},{"name":"Am Degenberg","postalCode":"21769","locality":"Hollnseth","municipality":{"key":"03352024","name":"Hollnseth","type":"Kreisangehörige_Gemeinde"},"district":{"key":"03352","name":"Cuxhaven","type":"Landkreis"},"federalState":{"key":"03","name":"Niedersachsen"}},{"name":"Am Heuberg","postalCode":"21769","locality":"Hollnseth","municipality":{"key":"03352024","name":"Hollnseth","type":"Kreisangehörige_Gemeinde"},"district":{"key":"03352","name":"Cuxhaven","type":"Landkreis"},"federalState":{"key":"03","name":"Niedersachsen"}},{"name":"Am Pflatterbach","postalCode":"91632","locality":"Wieseth","municipality":{"key":"09571223","name":"Wieseth","type":"Kreisangehörige_Gemeinde"},"district":{"key":"09571","name":"Ansbach","type":"Landkreis"},"federalState":{"key":"09","name":"Bayern"}},{"name":"Am Rosengarten","postalCode":"25365","locality":"Klein Offenseth-Sparrieshoop","municipality":{"key":"01056030","name":"Klein Offenseth-Sparrieshoop","type":"Kreisangehörige_Gemeinde"},"district":{"key":"01056","name":"Pinneberg","type":"Kreis"},"federalState":{"key":"01","name":"Schleswig-Holstein"}},{"name":"Am Rosenhof","postalCode":"25365","locality":"Klein Offenseth-Sparrieshoop","municipality":{"key":"01056030","name":"Klein Offenseth-Sparrieshoop","type":"Kreisangehörige_Gemeinde"},"district":{"key":"01056","name":"Pinneberg","type":"Kreis"},"federalState":{"key":"01","name":"Schleswig-Holstein"}},{"name":"Am Sender","postalCode":"25365","locality":"Klein Offenseth-Sparrieshoop","municipality":{"key":"01056030","name":"Klein Offenseth-Sparrieshoop","type":"Kreisangehörige_Gemeinde"},"district":{"key":"01056","name":"Pinneberg","type":"Kreis"},"federalState":{"key":"01","name":"Schleswig-Holstein"}},{"name":"Am Sportplatz","postalCode":"21769","locality":"Hollnseth","municipality":{"key":"03352024","name":"Hollnseth","type":"Kreisangehörige_Gemeinde"},"district":{"key":"03352","name":"Cuxhaven","type":"Landkreis"},"federalState":{"key":"03","name":"Niedersachsen"}},{"name":"Am Sportplatz","postalCode":"23845","locality":"Seth","municipality":{"key":"01060076","name":"Seth","type":"Kreisangehörige_Gemeinde"},"district":{"key":"01060","name":"Segeberg","type":"Kreis"},"federalState":{"key":"01","name":"Schleswig-Holstein"}},{"name":"An der Bahn","postalCode":"25365","locality":"Klein Offenseth-Sparrieshoop","municipality":{"key":"01056030","name":"Klein Offenseth-Sparrieshoop","type":"Kreisangehörige_Gemeinde"},"district":{"key":"01056","name":"Pinneberg","type":"Kreis"},"federalState":{"key":"01","name":"Schleswig-Holstein"}},{"name":"An der Post","postalCode":"25365","locality":"Klein Offenseth-Sparrieshoop","municipality":{"key":"01056030","name":"Klein Offenseth-Sparrieshoop","type":"Kreisangehörige_Gemeinde"},"district":{"key":"01056","name":"Pinneberg","type":"Kreis"},"federalState":{"key":"01","name":"Schleswig-Holstein"}},{"name":"Austr.","postalCode":"25365","locality":"Klein Offenseth-Sparrieshoop","municipality":{"key":"01056030","name":"Klein Offenseth-Sparrieshoop","type":"Kreisangehörige_Gemeinde"},"district":{"key":"01056","name":"Pinneberg","type":"Kreis"},"federalState":{"key":"01","name":"Schleswig-Holstein"}},{"name":"Bahnhofstr.","postalCode":"25365","locality":"Klein Offenseth-Sparrieshoop","municipality":{"key":"01056030","name":"Klein Offenseth-Sparrieshoop","type":"Kreisangehörige_Gemeinde"},"district":{"key":"01056","name":"Pinneberg","type":"Kreis"},"federalState":{"key":"01","name":"Schleswig-Holstein"}},{"name":"Bei der Mühle","postalCode":"23845","locality":"Seth","municipality":{"key":"01060076","name":"Seth","type":"Kreisangehörige_Gemeinde"},"district":{"key":"01060","name":"Segeberg","type":"Kreis"},"federalState":{"key":"01","name":"Schleswig-Holstein"}},{"name":"Berliner Str.","postalCode":"23845","locality":"Seth","municipality":{"key":"01060076","name":"Seth","type":"Kreisangehörige_Gemeinde"},"district":{"key":"01060","name":"Segeberg","type":"Kreis"},"federalState":{"key":"01","name":"Schleswig-Holstein"}},{"name":"Birkenweg","postalCode":"25365","locality":"Klein Offenseth-Sparrieshoop","municipality":{"key":"01056030","name":"Klein Offenseth-Sparrieshoop","type":"Kreisangehörige_Gemeinde"},"district":{"key":"01056","name":"Pinneberg","type":"Kreis"},"federalState":{"key":"01","name":"Schleswig-Holstein"}},{"name":"Bocksrade","postalCode":"23845","locality":"Seth","municipality":{"key":"01060076","name":"Seth","type":"Kreisangehörige_Gemeinde"},"district":{"key":"01060","name":"Segeberg","type":"Kreis"},"federalState":{"key":"01","name":"Schleswig-Holstein"}},{"name":"Bocksrader Bogen","postalCode":"23845","locality":"Seth","municipality":{"key":"01060076","name":"Seth","type":"Kreisangehörige_Gemeinde"},"district":{"key":"01060","name":"Segeberg","type":"Kreis"},"federalState":{"key":"01","name":"Schleswig-Holstein"}},{"name":"Botterhörn","postalCode":"25365","locality":"Klein Offenseth-Sparrieshoop","municipality":{"key":"01056030","name":"Klein Offenseth-Sparrieshoop","type":"Kreisangehörige_Gemeinde"},"district":{"key":"01056","name":"Pinneberg","type":"Kreis"},"federalState":{"key":"01","name":"Schleswig-Holstein"}},{"name":"Bratfeldstr.","postalCode":"91632","locality":"Wieseth","municipality":{"key":"09571223","name":"Wieseth","type":"Kreisangehörige_Gemeinde"},"district":{"key":"09571","name":"Ansbach","type":"Landkreis"},"federalState":{"key":"09","name":"Bayern"}},{"name":"Breiten Ende","postalCode":"23845","locality":"Seth","municipality":{"key":"01060076","name":"Seth","type":"Kreisangehörige_Gemeinde"},"district":{"key":"01060","name":"Segeberg","type":"Kreis"},"federalState":{"key":"01","name":"Schleswig-Holstein"}},{"name":"Buchenweg","postalCode":"25365","locality":"Klein Offenseth-Sparrieshoop","municipality":{"key":"01056030","name":"Klein Offenseth-Sparrieshoop","type":"Kreisangehörige_Gemeinde"},"district":{"key":"01056","name":"Pinneberg","type":"Kreis"},"federalState":{"key":"01","name":"Schleswig-Holstein"}},{"name":"Bundesstr.","postalCode":"21769","locality":"Hollnseth","municipality":{"key":"03352024","name":"Hollnseth","type":"Kreisangehörige_Gemeinde"},"district":{"key":"03352","name":"Cuxhaven","type":"Landkreis"},"federalState":{"key":"03","name":"Niedersachsen"}},{"name":"Bürgermeister-Timm-Kehre","postalCode":"23845","locality":"Seth","municipality":{"key":"01060076","name":"Seth","type":"Kreisangehörige_Gemeinde"},"district":{"key":"01060","name":"Segeberg","type":"Kreis"},"federalState":{"key":"01","name":"Schleswig-Holstein"}},{"name":"Bürgerpark","postalCode":"25365","locality":"Klein Offenseth-Sparrieshoop","municipality":{"key":"01056030","name":"Klein Offenseth-Sparrieshoop","type":"Kreisangehörige_Gemeinde"},"district":{"key":"01056","name":"Pinneberg","type":"Kreis"},"federalState":{"key":"01","name":"Schleswig-Holstein"}},{"name":"Burker Str.","postalCode":"91632","locality":"Wieseth","municipality":{"key":"09571223","name":"Wieseth","type":"Kreisangehörige_Gemeinde"},"district":{"key":"09571","name":"Ansbach","type":"Landkreis"},"federalState":{"key":"09","name":"Bayern"}},{"name":"Buschkamp","postalCode":"25365","locality":"Klein Offenseth-Sparrieshoop","municipality":{"key":"01056030","name":"Klein Offenseth-Sparrieshoop","type":"Kreisangehörige_Gemeinde"},"district":{"key":"01056","name":"Pinneberg","type":"Kreis"},"federalState":{"key":"01","name":"Schleswig-Holstein"}},{"name":"Carl-Stämmler-Weg","postalCode":"23795","locality":"Bad Segeberg","municipality":{"key":"01060005","name":"Bad Segeberg, Stadt","type":"Stadt"},"district":{"key":"01060","name":"Segeberg","type":"Kreis"},"federalState":{"key":"01","name":"Schleswig-Holstein"}},{"name":"Christian-Rohlfs-Str.","postalCode":"23795","locality":"Bad Segeberg","municipality":{"key":"01060005","name":"Bad Segeberg, Stadt","type":"Stadt"},"district":{"key":"01060","name":"Segeberg","type":"Kreis"},"federalState":{"key":"01","name":"Schleswig-Holstein"}},{"name":"Christiansfelde","postalCode":"23795","locality":"Bad Segeberg","municipality":{"key":"01060005","name":"Bad Segeberg, Stadt","type":"Stadt"},"district":{"key":"01060","name":"Segeberg","type":"Kreis"},"federalState":{"key":"01","name":"Schleswig-Holstein"}},{"name":"Deffersdorf","postalCode":"91632","locality":"Wieseth","municipality":{"key":"09571223","name":"Wieseth","type":"Kreisangehörige_Gemeinde"},"district":{"key":"09571","name":"Ansbach","type":"Landkreis"},"federalState":{"key":"09","name":"Bayern"}},{"name":"Deffersdorfer Weg","postalCode":"91632","locality":"Wieseth","municipality":{"key":"09571223","name":"Wieseth","type":"Kreisangehörige_Gemeinde"},"district":{"key":"09571","name":"Ansbach","type":"Landkreis"},"federalState":{"key":"09","name":"Bayern"}},{"name":"Dentleiner Str.","postalCode":"91632","locality":"Wieseth","municipality":{"key":"09571223","name":"Wieseth","type":"Kreisangehörige_Gemeinde"},"district":{"key":"09571","name":"Ansbach","type":"Landkreis"},"federalState":{"key":"09","name":"Bayern"}},{"name":"Dorfstr.","postalCode":"25355","locality":"Groß Offenseth-Aspern","municipality":{"key":"01056017","name":"Groß Offenseth-Aspern","type":"Kreisangehörige_Gemeinde"},"district":{"key":"01056","name":"Pinneberg","type":"Kreis"},"federalState":{"key":"01","name":"Schleswig-Holstein"}},{"name":"Dornsoder Str.","postalCode":"21769","locality":"Hollnseth","municipality":{"key":"03352024","name":"Hollnseth","type":"Kreisangehörige_Gemeinde"},"district":{"key":"03352","name":"Cuxhaven","type":"Landkreis"},"federalState":{"key":"03","name":"Niedersachsen"}},{"name":"Driftweg","postalCode":"21769","locality":"Hollnseth","municipality":{"key":"03352024","name":"Hollnseth","type":"Kreisangehörige_Gemeinde"},"district":{"key":"03352","name":"Cuxhaven","type":"Landkreis"},"federalState":{"key":"03","name":"Niedersachsen"}},{"name":"eheblick","postalCode":"21769","locality":"Hollnseth","municipality":{"key":"03352024","name":"Hollnseth","type":"Kreisangehörige_Gemeinde"},"district":{"key":"03352","name":"Cuxhaven","type":"Landkreis"},"federalState":{"key":"03","name":"Niedersachsen"}},{"name":"Eichenstieg","postalCode":"25365","locality":"Klein Offenseth-Sparrieshoop","municipality":{"key":"01056030","name":"Klein Offenseth-Sparrieshoop","type":"Kreisangehörige_Gemeinde"},"district":{"key":"01056","name":"Pinneberg","type":"Kreis"},"federalState":{"key":"01","name":"Schleswig-Holstein"}},{"name":"Eichenweg","postalCode":"21769","locality":"Hollnseth","municipality":{"key":"03352024","name":"Hollnseth","type":"Kreisangehörige_Gemeinde"},"district":{"key":"03352","name":"Cuxhaven","type":"Landkreis"},"federalState":{"key":"03","name":"Niedersachsen"}},{"name":"Eichenweg","postalCode":"25365","locality":"Klein Offenseth-Sparrieshoop","municipality":{"key":"01056030","name":"Klein Offenseth-Sparrieshoop","type":"Kreisangehörige_Gemeinde"},"district":{"key":"01056","name":"Pinneberg","type":"Kreis"},"federalState":{"key":"01","name":"Schleswig-Holstein"}},{"name":"Erlenweg","postalCode":"25365","locality":"Klein Offenseth-Sparrieshoop","municipality":{"key":"01056030","name":"Klein Offenseth-Sparrieshoop","type":"Kreisangehörige_Gemeinde"},"district":{"key":"01056","name":"Pinneberg","type":"Kreis"},"federalState":{"key":"01","name":"Schleswig-Holstein"}},{"name":"Eschenweg","postalCode":"25365","locality":"Klein Offenseth-Sparrieshoop","municipality":{"key":"01056030","name":"Klein Offenseth-Sparrieshoop","type":"Kreisangehörige_Gemeinde"},"district":{"key":"01056","name":"Pinneberg","type":"Kreis"},"federalState":{"key":"01","name":"Schleswig-Holstein"}},{"name":"Eulenweg","postalCode":"21769","locality":"Hollnseth","municipality":{"key":"03352024","name":"Hollnseth","type":"Kreisangehörige_Gemeinde"},"district":{"key":"03352","name":"Cuxhaven","type":"Landkreis"},"federalState":{"key":"03","name":"Niedersachsen"}},{"name":"Fasanenweg","postalCode":"25365","locality":"Klein Offenseth-Sparrieshoop","municipality":{"key":"01056030","name":"Klein Offenseth-Sparrieshoop","type":"Kreisangehörige_Gemeinde"},"district":{"key":"01056","name":"Pinneberg","type":"Kreis"},"federalState":{"key":"01","name":"Schleswig-Holstein"}},{"name":"Friesenstr.","postalCode":"23845","locality":"Seth","municipality":{"key":"01060076","name":"Seth","type":"Kreisangehörige_Gemeinde"},"district":{"key":"01060","name":"Segeberg","type":"Kreis"},"federalState":{"key":"01","name":"Schleswig-Holstein"}},{"name":"Gartenstr.","postalCode":"25365","locality":"Klein Offenseth-Sparrieshoop","municipality":{"key":"01056030","name":"Klein Offenseth-Sparrieshoop","type":"Kreisangehörige_Gemeinde"},"district":{"key":"01056","name":"Pinneberg","type":"Kreis"},"federalState":{"key":"01","name":"Schleswig-Holstein"}},{"name":"Gartenstr.","postalCode":"91632","locality":"Wieseth","municipality":{"key":"09571223","name":"Wieseth","type":"Kreisangehörige_Gemeinde"},"district":{"key":"09571","name":"Ansbach","type":"Landkreis"},"federalState":{"key":"09","name":"Bayern"}},{"name":"Hamburger Str.","postalCode":"23845","locality":"Seth","municipality":{"key":"01060076","name":"Seth","type":"Kreisangehörige_Gemeinde"},"district":{"key":"01060","name":"Segeberg","type":"Kreis"},"federalState":{"key":"01","name":"Schleswig-Holstein"}},{"name":"Hasenhoopsweg","postalCode":"21769","locality":"Hollnseth","municipality":{"key":"03352024","name":"Hollnseth","type":"Kreisangehörige_Gemeinde"},"district":{"key":"03352","name":"Cuxhaven","type":"Landkreis"},"federalState":{"key":"03","name":"Niedersachsen"}},{"name":"Hasenweg","postalCode":"25365","locality":"Klein Offenseth-Sparrieshoop","municipality":{"key":"01056030","name":"Klein Offenseth-Sparrieshoop","type":"Kreisangehörige_Gemeinde"},"district":{"key":"01056","name":"Pinneberg","type":"Kreis"},"federalState":{"key":"01","name":"Schleswig-Holstein"}},{"name":"Hatkamp","postalCode":"23845","locality":"Seth","municipality":{"key":"01060076","name":"Seth","type":"Kreisangehörige_Gemeinde"},"district":{"key":"01060","name":"Segeberg","type":"Kreis"},"federalState":{"key":"01","name":"Schleswig-Holstein"}},{"name":"Hauptstr.","postalCode":"21769","locality":"Hollnseth","municipality":{"key":"03352024","name":"Hollnseth","type":"Kreisangehörige_Gemeinde"},"district":{"key":"03352","name":"Cuxhaven","type":"Landkreis"},"federalState":{"key":"03","name":"Niedersachsen"}},{"name":"Hauptstr.","postalCode":"23845","locality":"Seth","municipality":{"key":"01060076","name":"Seth","type":"Kreisangehörige_Gemeinde"},"district":{"key":"01060","name":"Segeberg","type":"Kreis"},"federalState":{"key":"01","name":"Schleswig-Holstein"}},{"name":"Hauptstr.","postalCode":"25355","locality":"Groß Offenseth-Aspern","municipality":{"key":"01056017","name":"Groß Offenseth-Aspern","type":"Kreisangehörige_Gemeinde"},"district":{"key":"01056","name":"Pinneberg","type":"Kreis"},"federalState":{"key":"01","name":"Schleswig-Holstein"}},{"name":"Hauptstr.","postalCode":"91632","locality":"Wieseth","municipality":{"key":"09571223","name":"Wieseth","type":"Kreisangehörige_Gemeinde"},"district":{"key":"09571","name":"Ansbach","type":"Landkreis"},"federalState":{"key":"09","name":"Bayern"}},{"name":"Häuslingen 2, 3, 3 1/2, 5","postalCode":"91632","locality":"Wieseth","municipality":{"key":"09571223","name":"Wieseth","type":"Kreisangehörige_Gemeinde"},"district":{"key":"09571","name":"Ansbach","type":"Landkreis"},"federalState":{"key":"09","name":"Bayern"}},{"name":"Heidesiedlung","postalCode":"25365","locality":"Klein Offenseth-Sparrieshoop","municipality":{"key":"01056030","name":"Klein Offenseth-Sparrieshoop","type":"Kreisangehörige_Gemeinde"},"district":{"key":"01056","name":"Pinneberg","type":"Kreis"},"federalState":{"key":"01","name":"Schleswig-Holstein"}},{"name":"Heidkamp","postalCode":"25365","locality":"Klein Offenseth-Sparrieshoop","municipality":{"key":"01056030","name":"Klein Offenseth-Sparrieshoop","type":"Kreisangehörige_Gemeinde"},"district":{"key":"01056","name":"Pinneberg","type":"Kreis"},"federalState":{"key":"01","name":"Schleswig-Holstein"}},{"name":"Hermann-Löns-Weg","postalCode":"25365","locality":"Klein Offenseth-Sparrieshoop","municipality":{"key":"01056030","name":"Klein Offenseth-Sparrieshoop","type":"Kreisangehörige_Gemeinde"},"district":{"key":"01056","name":"Pinneberg","type":"Kreis"},"federalState":{"key":"01","name":"Schleswig-Holstein"}},{"name":"Herrieder Str.","postalCode":"91632","locality":"Wieseth","municipality":{"key":"09571223","name":"Wieseth","type":"Kreisangehörige_Gemeinde"},"district":{"key":"09571","name":"Ansbach","type":"Landkreis"},"federalState":{"key":"09","name":"Bayern"}},{"name":"Hinterm Holz","postalCode":"25355","locality":"Groß Offenseth-Aspern","municipality":{"key":"01056017","name":"Groß Offenseth-Aspern","type":"Kreisangehörige_Gemeinde"},"district":{"key":"01056","name":"Pinneberg","type":"Kreis"},"federalState":{"key":"01","name":"Schleswig-Holstein"}},{"name":"Hitzberg","postalCode":"23845","locality":"Seth","municipality":{"key":"01060076","name":"Seth","type":"Kreisangehörige_Gemeinde"},"district":{"key":"01060","name":"Segeberg","type":"Kreis"},"federalState":{"key":"01","name":"Schleswig-Holstein"}},{"name":"Hochzeitsallee","postalCode":"21769","locality":"Hollnseth","municipality":{"key":"03352024","name":"Hollnseth","type":"Kreisangehörige_Gemeinde"},"district":{"key":"03352","name":"Cuxhaven","type":"Landkreis"},"federalState":{"key":"03","name":"Niedersachsen"}},{"name":"Hof Hanredder","postalCode":"25355","locality":"Groß Offenseth-Aspern","municipality":{"key":"01056017","name":"Groß Offenseth-Aspern","type":"Kreisangehörige_Gemeinde"},"district":{"key":"01056","name":"Pinneberg","type":"Kreis"},"federalState":{"key":"01","name":"Schleswig-Holstein"}},{"name":"Hofweg","postalCode":"25365","locality":"Klein Offenseth-Sparrieshoop","municipality":{"key":"01056030","name":"Klein Offenseth-Sparrieshoop","type":"Kreisangehörige_Gemeinde"},"district":{"key":"01056","name":"Pinneberg","type":"Kreis"},"federalState":{"key":"01","name":"Schleswig-Holstein"}},{"name":"Hollener Mühle","postalCode":"21769","locality":"Hollnseth","municipality":{"key":"03352024","name":"Hollnseth","type":"Kreisangehörige_Gemeinde"},"district":{"key":"03352","name":"Cuxhaven","type":"Landkreis"},"federalState":{"key":"03","name":"Niedersachsen"}},{"name":"Holmer Weg","postalCode":"23845","locality":"Seth","municipality":{"key":"01060076","name":"Seth","type":"Kreisangehörige_Gemeinde"},"district":{"key":"01060","name":"Segeberg","type":"Kreis"},"federalState":{"key":"01","name":"Schleswig-Holstein"}},{"name":"Horster Landstr.","postalCode":"25365","locality":"Klein Offenseth-Sparrieshoop","municipality":{"key":"01056030","name":"Klein Offenseth-Sparrieshoop","type":"Kreisangehörige_Gemeinde"},"district":{"key":"01056","name":"Pinneberg","type":"Kreis"},"federalState":{"key":"01","name":"Schleswig-Holstein"}},{"name":"Horstheider Weg","postalCode":"25365","locality":"Klein Offenseth-Sparrieshoop","municipality":{"key":"01056030","name":"Klein Offenseth-Sparrieshoop","type":"Kreisangehörige_Gemeinde"},"district":{"key":"01056","name":"Pinneberg","type":"Kreis"},"federalState":{"key":"01","name":"Schleswig-Holstein"}},{"name":"Im Busch","postalCode":"25365","locality":"Klein Offenseth-Sparrieshoop","municipality":{"key":"01056030","name":"Klein Offenseth-Sparrieshoop","type":"Kreisangehörige_Gemeinde"},"district":{"key":"01056","name":"Pinneberg","type":"Kreis"},"federalState":{"key":"01","name":"Schleswig-Holstein"}},{"name":"Im Dorfe","postalCode":"21769","locality":"Hollnseth","municipality":{"key":"03352024","name":"Hollnseth","type":"Kreisangehörige_Gemeinde"},"district":{"key":"03352","name":"Cuxhaven","type":"Landkreis"},"federalState":{"key":"03","name":"Niedersachsen"}},{"name":"Im weißen Moor","postalCode":"23845","locality":"Seth","municipality":{"key":"01060076","name":"Seth","type":"Kreisangehörige_Gemeinde"},"district":{"key":"01060","name":"Segeberg","type":"Kreis"},"federalState":{"key":"01","name":"Schleswig-Holstein"}},{"name":"In de Heid","postalCode":"21769","locality":"Hollnseth","municipality":{"key":"03352024","name":"Hollnseth","type":"Kreisangehörige_Gemeinde"},"district":{"key":"03352","name":"Cuxhaven","type":"Landkreis"},"federalState":{"key":"03","name":"Niedersachsen"}},{"name":"In der Loge","postalCode":"21769","locality":"Hollnseth","municipality":{"key":"03352024","name":"Hollnseth","type":"Kreisangehörige_Gemeinde"},"district":{"key":"03352","name":"Cuxhaven","type":"Landkreis"},"federalState":{"key":"03","name":"Niedersachsen"}},{"name":"Industriestr.","postalCode":"91632","locality":"Wieseth","municipality":{"key":"09571223","name":"Wieseth","type":"Kreisangehörige_Gemeinde"},"district":{"key":"09571","name":"Ansbach","type":"Landkreis"},"federalState":{"key":"09","name":"Bayern"}},{"name":"Jasminstr.","postalCode":"23795","locality":"Bad Segeberg","municipality":{"key":"01060005","name":"Bad Segeberg, Stadt","type":"Stadt"},"district":{"key":"01060","name":"Segeberg","type":"Kreis"},"federalState":{"key":"01","name":"Schleswig-Holstein"}},{"name":"Julius-Leber-Str.","postalCode":"23795","locality":"Bad Segeberg","municipality":{"key":"01060005","name":"Bad Segeberg, Stadt","type":"Stadt"},"district":{"key":"01060","name":"Segeberg","type":"Kreis"},"federalState":{"key":"01","name":"Schleswig-Holstein"}},{"name":"Jürgensweg","postalCode":"23795","locality":"Bad Segeberg","municipality":{"key":"01060005","name":"Bad Segeberg, Stadt","type":"Stadt"},"district":{"key":"01060","name":"Segeberg","type":"Kreis"},"federalState":{"key":"01","name":"Schleswig-Holstein"}},{"name":"Kiefernweg","postalCode":"21769","locality":"Hollnseth","municipality":{"key":"03352024","name":"Hollnseth","type":"Kreisangehörige_Gemeinde"},"district":{"key":"03352","name":"Cuxhaven","type":"Landkreis"},"federalState":{"key":"03","name":"Niedersachsen"}},{"name":"Kirchenstr.","postalCode":"25365","locality":"Klein Offenseth-Sparrieshoop","municipality":{"key":"01056030","name":"Klein Offenseth-Sparrieshoop","type":"Kreisangehörige_Gemeinde"},"district":{"key":"01056","name":"Pinneberg","type":"Kreis"},"federalState":{"key":"01","name":"Schleswig-Holstein"}},{"name":"Kirchstr.","postalCode":"23845","locality":"Seth","municipality":{"key":"01060076","name":"Seth","type":"Kreisangehörige_Gemeinde"},"district":{"key":"01060","name":"Segeberg","type":"Kreis"},"federalState":{"key":"01","name":"Schleswig-Holstein"}},{"name":"Kirchweg","postalCode":"21769","locality":"Hollnseth","municipality":{"key":"03352024","name":"Hollnseth","type":"Kreisangehörige_Gemeinde"},"district":{"key":"03352","name":"Cuxhaven","type":"Landkreis"},"federalState":{"key":"03","name":"Niedersachsen"}},{"name":"Kleine Allee","postalCode":"21769","locality":"Hollnseth","municipality":{"key":"03352024","name":"Hollnseth","type":"Kreisangehörige_Gemeinde"},"district":{"key":"03352","name":"Cuxhaven","type":"Landkreis"},"federalState":{"key":"03","name":"Niedersachsen"}},{"name":"Kleine Str.","postalCode":"21769","locality":"Hollnseth","municipality":{"key":"03352024","name":"Hollnseth","type":"Kreisangehörige_Gemeinde"},"district":{"key":"03352","name":"Cuxhaven","type":"Landkreis"},"federalState":{"key":"03","name":"Niedersachsen"}},{"name":"Klingenberg","postalCode":"23845","locality":"Seth","municipality":{"key":"01060076","name":"Seth","type":"Kreisangehörige_Gemeinde"},"district":{"key":"01060","name":"Segeberg","type":"Kreis"},"federalState":{"key":"01","name":"Schleswig-Holstein"}},{"name":"Klint","postalCode":"23845","locality":"Seth","municipality":{"key":"01060076","name":"Seth","type":"Kreisangehörige_Gemeinde"},"district":{"key":"01060","name":"Segeberg","type":"Kreis"},"federalState":{"key":"01","name":"Schleswig-Holstein"}},{"name":"Kuckucksweg","postalCode":"21769","locality":"Hollnseth","municipality":{"key":"03352024","name":"Hollnseth","type":"Kreisangehörige_Gemeinde"},"district":{"key":"03352","name":"Cuxhaven","type":"Landkreis"},"federalState":{"key":"03","name":"Niedersachsen"}},{"name":"Langelner Damm","postalCode":"21769","locality":"Hollnseth","municipality":{"key":"03352024","name":"Hollnseth","type":"Kreisangehörige_Gemeinde"},"district":{"key":"03352","name":"Cuxhaven","type":"Landkreis"},"federalState":{"key":"03","name":"Niedersachsen"}},{"name":"Langeloh","postalCode":"23845","locality":"Seth","municipality":{"key":"01060076","name":"Seth","type":"Kreisangehörige_Gemeinde"},"district":{"key":"01060","name":"Segeberg","type":"Kreis"},"federalState":{"key":"01","name":"Schleswig-Holstein"}},{"name":"Lehmkuhlenkamp","postalCode":"23845","locality":"Seth","municipality":{"key":"01060076","name":"Seth","type":"Kreisangehörige_Gemeinde"},"district":{"key":"01060","name":"Segeberg","type":"Kreis"},"federalState":{"key":"01","name":"Schleswig-Holstein"}},{"name":"Lehmkuhlen-Ring","postalCode":"23845","locality":"Seth","municipality":{"key":"01060076","name":"Seth","type":"Kreisangehörige_Gemeinde"},"district":{"key":"01060","name":"Segeberg","type":"Kreis"},"federalState":{"key":"01","name":"Schleswig-Holstein"}},{"name":"Lehmweg","postalCode":"21769","locality":"Hollnseth","municipality":{"key":"03352024","name":"Hollnseth","type":"Kreisangehörige_Gemeinde"},"district":{"key":"03352","name":"Cuxhaven","type":"Landkreis"},"federalState":{"key":"03","name":"Niedersachsen"}},{"name":"Lerchenweg","postalCode":"25365","locality":"Klein Offenseth-Sparrieshoop","municipality":{"key":"01056030","name":"Klein Offenseth-Sparrieshoop","type":"Kreisangehörige_Gemeinde"},"district":{"key":"01056","name":"Pinneberg","type":"Kreis"},"federalState":{"key":"01","name":"Schleswig-Holstein"}},{"name":"Lindenstr.","postalCode":"25365","locality":"Klein Offenseth-Sparrieshoop","municipality":{"key":"01056030","name":"Klein Offenseth-Sparrieshoop","type":"Kreisangehörige_Gemeinde"},"district":{"key":"01056","name":"Pinneberg","type":"Kreis"},"federalState":{"key":"01","name":"Schleswig-Holstein"}},{"name":"Lütt Heid","postalCode":"25365","locality":"Klein Offenseth-Sparrieshoop","municipality":{"key":"01056030","name":"Klein Offenseth-Sparrieshoop","type":"Kreisangehörige_Gemeinde"},"district":{"key":"01056","name":"Pinneberg","type":"Kreis"},"federalState":{"key":"01","name":"Schleswig-Holstein"}},{"name":"Marschweg","postalCode":"21769","locality":"Hollnseth","municipality":{"key":"03352024","name":"Hollnseth","type":"Kreisangehörige_Gemeinde"},"district":{"key":"03352","name":"Cuxhaven","type":"Landkreis"},"federalState":{"key":"03","name":"Niedersachsen"}},{"name":"Meisenweg","postalCode":"21769","locality":"Hollnseth","municipality":{"key":"03352024","name":"Hollnseth","type":"Kreisangehörige_Gemeinde"},"district":{"key":"03352","name":"Cuxhaven","type":"Landkreis"},"federalState":{"key":"03","name":"Niedersachsen"}},{"name":"Mittelschönbronner Str.","postalCode":"91632","locality":"Wieseth","municipality":{"key":"09571223","name":"Wieseth","type":"Kreisangehörige_Gemeinde"},"district":{"key":"09571","name":"Ansbach","type":"Landkreis"},"federalState":{"key":"09","name":"Bayern"}},{"name":"Moorweg","postalCode":"23845","locality":"Seth","municipality":{"key":"01060076","name":"Seth","type":"Kreisangehörige_Gemeinde"},"district":{"key":"01060","name":"Segeberg","type":"Kreis"},"federalState":{"key":"01","name":"Schleswig-Holstein"}},{"name":"Mühlenweg","postalCode":"21769","locality":"Hollnseth","municipality":{"key":"03352024","name":"Hollnseth","type":"Kreisangehörige_Gemeinde"},"district":{"key":"03352","name":"Cuxhaven","type":"Landkreis"},"federalState":{"key":"03","name":"Niedersachsen"}},{"name":"Mühlenweg","postalCode":"25365","locality":"Klein Offenseth-Sparrieshoop","municipality":{"key":"01056030","name":"Klein Offenseth-Sparrieshoop","type":"Kreisangehörige_Gemeinde"},"district":{"key":"01056","name":"Pinneberg","type":"Kreis"},"federalState":{"key":"01","name":"Schleswig-Holstein"}},{"name":"Musikantenstr.","postalCode":"23845","locality":"Seth","municipality":{"key":"01060076","name":"Seth","type":"Kreisangehörige_Gemeinde"},"district":{"key":"01060","name":"Segeberg","type":"Kreis"},"federalState":{"key":"01","name":"Schleswig-Holstein"}},{"name":"Neumoor","postalCode":"25365","locality":"Klein Offenseth-Sparrieshoop","municipality":{"key":"01056030","name":"Klein Offenseth-Sparrieshoop","type":"Kreisangehörige_Gemeinde"},"district":{"key":"01056","name":"Pinneberg","type":"Kreis"},"federalState":{"key":"01","name":"Schleswig-Holstein"}},{"name":"Ortsstr.","postalCode":"21769","locality":"Hollnseth","municipality":{"key":"03352024","name":"Hollnseth","type":"Kreisangehörige_Gemeinde"},"district":{"key":"03352","name":"Cuxhaven","type":"Landkreis"},"federalState":{"key":"03","name":"Niedersachsen"}},{"name":"Osteblick","postalCode":"21769","locality":"Hollnseth","municipality":{"key":"03352024","name":"Hollnseth","type":"Kreisangehörige_Gemeinde"},"district":{"key":"03352","name":"Cuxhaven","type":"Landkreis"},"federalState":{"key":"03","name":"Niedersachsen"}},{"name":"Perleberg","postalCode":"21769","locality":"Hollnseth","municipality":{"key":"03352024","name":"Hollnseth","type":"Kreisangehörige_Gemeinde"},"district":{"key":"03352","name":"Cuxhaven","type":"Landkreis"},"federalState":{"key":"03","name":"Niedersachsen"}},{"name":"Petersdorf","postalCode":"21769","locality":"Hollnseth","municipality":{"key":"03352024","name":"Hollnseth","type":"Kreisangehörige_Gemeinde"},"district":{"key":"03352","name":"Cuxhaven","type":"Landkreis"},"federalState":{"key":"03","name":"Niedersachsen"}},{"name":"Querweg","postalCode":"21769","locality":"Hollnseth","municipality":{"key":"03352024","name":"Hollnseth","type":"Kreisangehörige_Gemeinde"},"district":{"key":"03352","name":"Cuxhaven","type":"Landkreis"},"federalState":{"key":"03","name":"Niedersachsen"}},{"name":"Raak","postalCode":"23845","locality":"Seth","municipality":{"key":"01060076","name":"Seth","type":"Kreisangehörige_Gemeinde"},"district":{"key":"01060","name":"Segeberg","type":"Kreis"},"federalState":{"key":"01","name":"Schleswig-Holstein"}},{"name":"Reichsbundstr.","postalCode":"25365","locality":"Klein Offenseth-Sparrieshoop","municipality":{"key":"01056030","name":"Klein Offenseth-Sparrieshoop","type":"Kreisangehörige_Gemeinde"},"district":{"key":"01056","name":"Pinneberg","type":"Kreis"},"federalState":{"key":"01","name":"Schleswig-Holstein"}},{"name":"Ringstr.","postalCode":"21769","locality":"Hollnseth","municipality":{"key":"03352024","name":"Hollnseth","type":"Kreisangehörige_Gemeinde"},"district":{"key":"03352","name":"Cuxhaven","type":"Landkreis"},"federalState":{"key":"03","name":"Niedersachsen"}},{"name":"Ringstr.","postalCode":"91632","locality":"Wieseth","municipality":{"key":"09571223","name":"Wieseth","type":"Kreisangehörige_Gemeinde"},"district":{"key":"09571","name":"Ansbach","type":"Landkreis"},"federalState":{"key":"09","name":"Bayern"}},{"name":"Rosenstr.","postalCode":"25365","locality":"Klein Offenseth-Sparrieshoop","municipality":{"key":"01056030","name":"Klein Offenseth-Sparrieshoop","type":"Kreisangehörige_Gemeinde"},"district":{"key":"01056","name":"Pinneberg","type":"Kreis"},"federalState":{"key":"01","name":"Schleswig-Holstein"}},{"name":"Rosenstr.","postalCode":"91632","locality":"Wieseth","municipality":{"key":"09571223","name":"Wieseth","type":"Kreisangehörige_Gemeinde"},"district":{"key":"09571","name":"Ansbach","type":"Landkreis"},"federalState":{"key":"09","name":"Bayern"}},{"name":"Rosentwiete","postalCode":"25355","locality":"Groß Offenseth-Aspern","municipality":{"key":"01056017","name":"Groß Offenseth-Aspern","type":"Kreisangehörige_Gemeinde"},"district":{"key":"01056","name":"Pinneberg","type":"Kreis"},"federalState":{"key":"01","name":"Schleswig-Holstein"}},{"name":"Ruhlo","postalCode":"23845","locality":"Seth","municipality":{"key":"01060076","name":"Seth","type":"Kreisangehörige_Gemeinde"},"district":{"key":"01060","name":"Segeberg","type":"Kreis"},"federalState":{"key":"01","name":"Schleswig-Holstein"}},{"name":"Schanze","postalCode":"21769","locality":"Hollnseth","municipality":{"key":"03352024","name":"Hollnseth","type":"Kreisangehörige_Gemeinde"},"district":{"key":"03352","name":"Cuxhaven","type":"Landkreis"},"federalState":{"key":"03","name":"Niedersachsen"}},{"name":"Scheunenbalken","postalCode":"21769","locality":"Hollnseth","municipality":{"key":"03352024","name":"Hollnseth","type":"Kreisangehörige_Gemeinde"},"district":{"key":"03352","name":"Cuxhaven","type":"Landkreis"},"federalState":{"key":"03","name":"Niedersachsen"}},{"name":"Schienendamm","postalCode":"21769","locality":"Hollnseth","municipality":{"key":"03352024","name":"Hollnseth","type":"Kreisangehörige_Gemeinde"},"district":{"key":"03352","name":"Cuxhaven","type":"Landkreis"},"federalState":{"key":"03","name":"Niedersachsen"}},{"name":"Schieren Eichen","postalCode":"25355","locality":"Groß Offenseth-Aspern","municipality":{"key":"01056017","name":"Groß Offenseth-Aspern","type":"Kreisangehörige_Gemeinde"},"district":{"key":"01056","name":"Pinneberg","type":"Kreis"},"federalState":{"key":"01","name":"Schleswig-Holstein"}},{"name":"Schiffstelle","postalCode":"21769","locality":"Hollnseth","municipality":{"key":"03352024","name":"Hollnseth","type":"Kreisangehörige_Gemeinde"},"district":{"key":"03352","name":"Cuxhaven","type":"Landkreis"},"federalState":{"key":"03","name":"Niedersachsen"}},{"name":"Schlottweg","postalCode":"25365","locality":"Klein Offenseth-Sparrieshoop","municipality":{"key":"01056030","name":"Klein Offenseth-Sparrieshoop","type":"Kreisangehörige_Gemeinde"},"district":{"key":"01056","name":"Pinneberg","type":"Kreis"},"federalState":{"key":"01","name":"Schleswig-Holstein"}},{"name":"Schluchtweg","postalCode":"21769","locality":"Hollnseth","municipality":{"key":"03352024","name":"Hollnseth","type":"Kreisangehörige_Gemeinde"},"district":{"key":"03352","name":"Cuxhaven","type":"Landkreis"},"federalState":{"key":"03","name":"Niedersachsen"}},{"name":"Schulstr.","postalCode":"23845","locality":"Seth","municipality":{"key":"01060076","name":"Seth","type":"Kreisangehörige_Gemeinde"},"district":{"key":"01060","name":"Segeberg","type":"Kreis"},"federalState":{"key":"01","name":"Schleswig-Holstein"}},{"name":"Schulstr.","postalCode":"25365","locality":"Klein Offenseth-Sparrieshoop","municipality":{"key":"01056030","name":"Klein Offenseth-Sparrieshoop","type":"Kreisangehörige_Gemeinde"},"district":{"key":"01056","name":"Pinneberg","type":"Kreis"},"federalState":{"key":"01","name":"Schleswig-Holstein"}},{"name":"Schwarzer Saal","postalCode":"23845","locality":"Seth","municipality":{"key":"01060076","name":"Seth","type":"Kreisangehörige_Gemeinde"},"district":{"key":"01060","name":"Segeberg","type":"Kreis"},"federalState":{"key":"01","name":"Schleswig-Holstein"}},{"name":"Sendefunkstelle","postalCode":"25365","locality":"Klein Offenseth-Sparrieshoop","municipality":{"key":"01056030","name":"Klein Offenseth-Sparrieshoop","type":"Kreisangehörige_Gemeinde"},"district":{"key":"01056","name":"Pinneberg","type":"Kreis"},"federalState":{"key":"01","name":"Schleswig-Holstein"}},{"name":"Steindamm","postalCode":"23845","locality":"Seth","municipality":{"key":"01060076","name":"Seth","type":"Kreisangehörige_Gemeinde"},"district":{"key":"01060","name":"Segeberg","type":"Kreis"},"federalState":{"key":"01","name":"Schleswig-Holstein"}},{"name":"Stücken","postalCode":"23845","locality":"Seth","municipality":{"key":"01060076","name":"Seth","type":"Kreisangehörige_Gemeinde"},"district":{"key":"01060","name":"Segeberg","type":"Kreis"},"federalState":{"key":"01","name":"Schleswig-Holstein"}},{"name":"Stuvenborner Weg","postalCode":"23845","locality":"Seth","municipality":{"key":"01060076","name":"Seth","type":"Kreisangehörige_Gemeinde"},"district":{"key":"01060","name":"Segeberg","type":"Kreis"},"federalState":{"key":"01","name":"Schleswig-Holstein"}},{"name":"Talstr.","postalCode":"91632","locality":"Wieseth","municipality":{"key":"09571223","name":"Wieseth","type":"Kreisangehörige_Gemeinde"},"district":{"key":"09571","name":"Ansbach","type":"Landkreis"},"federalState":{"key":"09","name":"Bayern"}},{"name":"Timm Horn","postalCode":"25355","locality":"Groß Offenseth-Aspern","municipality":{"key":"01056017","name":"Groß Offenseth-Aspern","type":"Kreisangehörige_Gemeinde"},"district":{"key":"01056","name":"Pinneberg","type":"Kreis"},"federalState":{"key":"01","name":"Schleswig-Holstein"}},{"name":"Tulpenstr.","postalCode":"91632","locality":"Wieseth","municipality":{"key":"09571223","name":"Wieseth","type":"Kreisangehörige_Gemeinde"},"district":{"key":"09571","name":"Ansbach","type":"Landkreis"},"federalState":{"key":"09","name":"Bayern"}},{"name":"Ulmenweg","postalCode":"25365","locality":"Klein Offenseth-Sparrieshoop","municipality":{"key":"01056030","name":"Klein Offenseth-Sparrieshoop","type":"Kreisangehörige_Gemeinde"},"district":{"key":"01056","name":"Pinneberg","type":"Kreis"},"federalState":{"key":"01","name":"Schleswig-Holstein"}},{"name":"Up den Lieth","postalCode":"23845","locality":"Seth","municipality":{"key":"01060076","name":"Seth","type":"Kreisangehörige_Gemeinde"},"district":{"key":"01060","name":"Segeberg","type":"Kreis"},"federalState":{"key":"01","name":"Schleswig-Holstein"}},{"name":"Vogtkamp","postalCode":"23795","locality":"Bad Segeberg","municipality":{"key":"01060005","name":"Bad Segeberg, Stadt","type":"Stadt"},"district":{"key":"01060","name":"Segeberg","type":"Kreis"},"federalState":{"key":"01","name":"Schleswig-Holstein"}},{"name":"Waldstr.","postalCode":"25365","locality":"Klein Offenseth-Sparrieshoop","municipality":{"key":"01056030","name":"Klein Offenseth-Sparrieshoop","type":"Kreisangehörige_Gemeinde"},"district":{"key":"01056","name":"Pinneberg","type":"Kreis"},"federalState":{"key":"01","name":"Schleswig-Holstein"}},{"name":"Weidenweg","postalCode":"25365","locality":"Klein Offenseth-Sparrieshoop","municipality":{"key":"01056030","name":"Klein Offenseth-Sparrieshoop","type":"Kreisangehörige_Gemeinde"},"district":{"key":"01056","name":"Pinneberg","type":"Kreis"},"federalState":{"key":"01","name":"Schleswig-Holstein"}},{"name":"Wiesengrund","postalCode":"25365","locality":"Klein Offenseth-Sparrieshoop","municipality":{"key":"01056030","name":"Klein Offenseth-Sparrieshoop","type":"Kreisangehörige_Gemeinde"},"district":{"key":"01056","name":"Pinneberg","type":"Kreis"},"federalState":{"key":"01","name":"Schleswig-Holstein"}},{"name":"Wischentwiet","postalCode":"25365","locality":"Klein Offenseth-Sparrieshoop","municipality":{"key":"01056030","name":"Klein Offenseth-Sparrieshoop","type":"Kreisangehörige_Gemeinde"},"district":{"key":"01056","name":"Pinneberg","type":"Kreis"},"federalState":{"key":"01","name":"Schleswig-Holstein"}},{"name":"Ziegelei","postalCode":"21769","locality":"Hollnseth","municipality":{"key":"03352024","name":"Hollnseth","type":"Kreisangehörige_Gemeinde"},"district":{"key":"03352","name":"Cuxhaven","type":"Landkreis"},"federalState":{"key":"03","name":"Niedersachsen"}},{"name":"Zimmersdorfer Str.","postalCode":"91632","locality":"Wieseth","municipality":{"key":"09571223","name":"Wieseth","type":"Kreisangehörige_Gemeinde"},"district":{"key":"09571","name":"Ansbach","type":"Landkreis"},"federalState":{"key":"09","name":"Bayern"}},{"name":"Zum Hochmoor","postalCode":"25365","locality":"Klein Offenseth-Sparrieshoop","municipality":{"key":"01056030","name":"Klein Offenseth-Sparrieshoop","type":"Kreisangehörige_Gemeinde"},"district":{"key":"01056","name":"Pinneberg","type":"Kreis"},"federalState":{"key":"01","name":"Schleswig-Holstein"}},{"name":"Zur Heide","postalCode":"25365","locality":"Klein Offenseth-Sparrieshoop","municipality":{"key":"01056030","name":"Klein Offenseth-Sparrieshoop","type":"Kreisangehörige_Gemeinde"},"district":{"key":"01056","name":"Pinneberg","type":"Kreis"},"federalState":{"key":"01","name":"Schleswig-Holstein"}},]