[{"name":"1. Dwarsweg","postalCode":"26607","locality":"Aurich","municipality":{"key":"03452001","name":"Aurich, Stadt","type":"Stadt"},"district":{"key":"03452","name":"Aurich","type":"Landkreis"},"federalState":{"key":"03","name":"Niedersachsen"}},{"name":"1. Feldstückenweg","postalCode":"26605","locality":"Aurich","municipality":{"key":"03452001","name":"Aurich, Stadt","type":"Stadt"},"district":{"key":"03452","name":"Aurich","type":"Landkreis"},"federalState":{"key":"03","name":"Niedersachsen"}},{"name":"1. Hammweg","postalCode":"26607","locality":"Aurich","municipality":{"key":"03452001","name":"Aurich, Stadt","type":"Stadt"},"district":{"key":"03452","name":"Aurich","type":"Landkreis"},"federalState":{"key":"03","name":"Niedersachsen"}},{"name":"1. Leegmoorweg","postalCode":"26607","locality":"Aurich","municipality":{"key":"03452001","name":"Aurich, Stadt","type":"Stadt"},"district":{"key":"03452","name":"Aurich","type":"Landkreis"},"federalState":{"key":"03","name":"Niedersachsen"}},{"name":"2. Dwarsweg","postalCode":"26607","locality":"Aurich","municipality":{"key":"03452001","name":"Aurich, Stadt","type":"Stadt"},"district":{"key":"03452","name":"Aurich","type":"Landkreis"},"federalState":{"key":"03","name":"Niedersachsen"}},{"name":"2. Leegmoorweg","postalCode":"26607","locality":"Aurich","municipality":{"key":"03452001","name":"Aurich, Stadt","type":"Stadt"},"district":{"key":"03452","name":"Aurich","type":"Landkreis"},"federalState":{"key":"03","name":"Niedersachsen"}},{"name":"3. Dwarsweg","postalCode":"26607","locality":"Aurich","municipality":{"key":"03452001","name":"Aurich, Stadt","type":"Stadt"},"district":{"key":"03452","name":"Aurich","type":"Landkreis"},"federalState":{"key":"03","name":"Niedersachsen"}},{"name":"3. Leegmoorweg","postalCode":"26607","locality":"Aurich","municipality":{"key":"03452001","name":"Aurich, Stadt","type":"Stadt"},"district":{"key":"03452","name":"Aurich","type":"Landkreis"},"federalState":{"key":"03","name":"Niedersachsen"}},{"name":"Ackerweg","postalCode":"26529","locality":"Osteel","municipality":{"key":"03452021","name":"Osteel","type":"Kreisangehörige_Gemeinde"},"district":{"key":"03452","name":"Aurich","type":"Landkreis"},"federalState":{"key":"03","name":"Niedersachsen"}},{"name":"Adeweg","postalCode":"26529","locality":"Osteel","municipality":{"key":"03452021","name":"Osteel","type":"Kreisangehörige_Gemeinde"},"district":{"key":"03452","name":"Aurich","type":"Landkreis"},"federalState":{"key":"03","name":"Niedersachsen"}},{"name":"Altendeichsweg","postalCode":"26529","locality":"Osteel","municipality":{"key":"03452021","name":"Osteel","type":"Kreisangehörige_Gemeinde"},"district":{"key":"03452","name":"Aurich","type":"Landkreis"},"federalState":{"key":"03","name":"Niedersachsen"}},{"name":"Alter Postweg","postalCode":"26529","locality":"Osteel","municipality":{"key":"03452021","name":"Osteel","type":"Kreisangehörige_Gemeinde"},"district":{"key":"03452","name":"Aurich","type":"Landkreis"},"federalState":{"key":"03","name":"Niedersachsen"}},{"name":"Am Grenzschloot","postalCode":"26529","locality":"Osteel","municipality":{"key":"03452021","name":"Osteel","type":"Kreisangehörige_Gemeinde"},"district":{"key":"03452","name":"Aurich","type":"Landkreis"},"federalState":{"key":"03","name":"Niedersachsen"}},{"name":"Am Storchennest","postalCode":"26529","locality":"Osteel","municipality":{"key":"03452021","name":"Osteel","type":"Kreisangehörige_Gemeinde"},"district":{"key":"03452","name":"Aurich","type":"Landkreis"},"federalState":{"key":"03","name":"Niedersachsen"}},{"name":"Bogenstr.","postalCode":"26529","locality":"Osteel","municipality":{"key":"03452021","name":"Osteel","type":"Kreisangehörige_Gemeinde"},"district":{"key":"03452","name":"Aurich","type":"Landkreis"},"federalState":{"key":"03","name":"Niedersachsen"}},{"name":"Brookmerlander Str.","postalCode":"26529","locality":"Osteel","municipality":{"key":"03452021","name":"Osteel","type":"Kreisangehörige_Gemeinde"},"district":{"key":"03452","name":"Aurich","type":"Landkreis"},"federalState":{"key":"03","name":"Niedersachsen"}},{"name":"Bürgermeister-Beninga-Str.","postalCode":"26529","locality":"Osteel","municipality":{"key":"03452021","name":"Osteel","type":"Kreisangehörige_Gemeinde"},"district":{"key":"03452","name":"Aurich","type":"Landkreis"},"federalState":{"key":"03","name":"Niedersachsen"}},{"name":"Buschweg","postalCode":"26529","locality":"Osteel","municipality":{"key":"03452021","name":"Osteel","type":"Kreisangehörige_Gemeinde"},"district":{"key":"03452","name":"Aurich","type":"Landkreis"},"federalState":{"key":"03","name":"Niedersachsen"}},{"name":"Carl-von-Ossietzky-Str.","postalCode":"26603","locality":"Aurich","municipality":{"key":"03452001","name":"Aurich, Stadt","type":"Stadt"},"district":{"key":"03452","name":"Aurich","type":"Landkreis"},"federalState":{"key":"03","name":"Niedersachsen"}},{"name":"Carolinengang","postalCode":"26603","locality":"Aurich","municipality":{"key":"03452001","name":"Aurich, Stadt","type":"Stadt"},"district":{"key":"03452","name":"Aurich","type":"Landkreis"},"federalState":{"key":"03","name":"Niedersachsen"}},{"name":"Cirksenastr.","postalCode":"26603","locality":"Aurich","municipality":{"key":"03452001","name":"Aurich, Stadt","type":"Stadt"},"district":{"key":"03452","name":"Aurich","type":"Landkreis"},"federalState":{"key":"03","name":"Niedersachsen"}},{"name":"Collmannsgang","postalCode":"26603","locality":"Aurich","municipality":{"key":"03452001","name":"Aurich, Stadt","type":"Stadt"},"district":{"key":"03452","name":"Aurich","type":"Landkreis"},"federalState":{"key":"03","name":"Niedersachsen"}},{"name":"Drostenpfad","postalCode":"26529","locality":"Osteel","municipality":{"key":"03452021","name":"Osteel","type":"Kreisangehörige_Gemeinde"},"district":{"key":"03452","name":"Aurich","type":"Landkreis"},"federalState":{"key":"03","name":"Niedersachsen"}},{"name":"Ebereschenweg","postalCode":"26607","locality":"Aurich","municipality":{"key":"03452001","name":"Aurich, Stadt","type":"Stadt"},"district":{"key":"03452","name":"Aurich","type":"Landkreis"},"federalState":{"key":"03","name":"Niedersachsen"}},{"name":"Eckelkamp","postalCode":"26607","locality":"Aurich","municipality":{"key":"03452001","name":"Aurich, Stadt","type":"Stadt"},"district":{"key":"03452","name":"Aurich","type":"Landkreis"},"federalState":{"key":"03","name":"Niedersachsen"}},{"name":"Eckfehler Gaste","postalCode":"26605","locality":"Aurich","municipality":{"key":"03452001","name":"Aurich, Stadt","type":"Stadt"},"district":{"key":"03452","name":"Aurich","type":"Landkreis"},"federalState":{"key":"03","name":"Niedersachsen"}},{"name":"Eckfehler Leegstücken","postalCode":"26605","locality":"Aurich","municipality":{"key":"03452001","name":"Aurich, Stadt","type":"Stadt"},"district":{"key":"03452","name":"Aurich","type":"Landkreis"},"federalState":{"key":"03","name":"Niedersachsen"}},{"name":"Eckfehler Ring","postalCode":"26605","locality":"Aurich","municipality":{"key":"03452001","name":"Aurich, Stadt","type":"Stadt"},"district":{"key":"03452","name":"Aurich","type":"Landkreis"},"federalState":{"key":"03","name":"Niedersachsen"}},{"name":"Eckfehler Weg","postalCode":"26605","locality":"Aurich","municipality":{"key":"03452001","name":"Aurich, Stadt","type":"Stadt"},"district":{"key":"03452","name":"Aurich","type":"Landkreis"},"federalState":{"key":"03","name":"Niedersachsen"}},{"name":"Eckweg","postalCode":"26605","locality":"Aurich","municipality":{"key":"03452001","name":"Aurich, Stadt","type":"Stadt"},"district":{"key":"03452","name":"Aurich","type":"Landkreis"},"federalState":{"key":"03","name":"Niedersachsen"}},{"name":"Edo-Christophers-Pad","postalCode":"26603","locality":"Aurich","municipality":{"key":"03452001","name":"Aurich, Stadt","type":"Stadt"},"district":{"key":"03452","name":"Aurich","type":"Landkreis"},"federalState":{"key":"03","name":"Niedersachsen"}},{"name":"Egelser Gaste","postalCode":"26605","locality":"Aurich","municipality":{"key":"03452001","name":"Aurich, Stadt","type":"Stadt"},"district":{"key":"03452","name":"Aurich","type":"Landkreis"},"federalState":{"key":"03","name":"Niedersachsen"}},{"name":"Egelser Neukamp","postalCode":"26605","locality":"Aurich","municipality":{"key":"03452001","name":"Aurich, Stadt","type":"Stadt"},"district":{"key":"03452","name":"Aurich","type":"Landkreis"},"federalState":{"key":"03","name":"Niedersachsen"}},{"name":"Egelser Str.","postalCode":"26603","locality":"Aurich","municipality":{"key":"03452001","name":"Aurich, Stadt","type":"Stadt"},"district":{"key":"03452","name":"Aurich","type":"Landkreis"},"federalState":{"key":"03","name":"Niedersachsen"}},{"name":"Egelser Str.","postalCode":"26605","locality":"Aurich","municipality":{"key":"03452001","name":"Aurich, Stadt","type":"Stadt"},"district":{"key":"03452","name":"Aurich","type":"Landkreis"},"federalState":{"key":"03","name":"Niedersachsen"}},{"name":"Ehekämpe","postalCode":"26603","locality":"Aurich","municipality":{"key":"03452001","name":"Aurich, Stadt","type":"Stadt"},"district":{"key":"03452","name":"Aurich","type":"Landkreis"},"federalState":{"key":"03","name":"Niedersachsen"}},{"name":"Eheweg","postalCode":"26607","locality":"Aurich","municipality":{"key":"03452001","name":"Aurich, Stadt","type":"Stadt"},"district":{"key":"03452","name":"Aurich","type":"Landkreis"},"federalState":{"key":"03","name":"Niedersachsen"}},{"name":"Eibenweg","postalCode":"26605","locality":"Aurich","municipality":{"key":"03452001","name":"Aurich, Stadt","type":"Stadt"},"district":{"key":"03452","name":"Aurich","type":"Landkreis"},"federalState":{"key":"03","name":"Niedersachsen"}},{"name":"Eichenweg","postalCode":"26603","locality":"Aurich","municipality":{"key":"03452001","name":"Aurich, Stadt","type":"Stadt"},"district":{"key":"03452","name":"Aurich","type":"Landkreis"},"federalState":{"key":"03","name":"Niedersachsen"}},{"name":"Eickebuscher Weg","postalCode":"26603","locality":"Aurich","municipality":{"key":"03452001","name":"Aurich, Stadt","type":"Stadt"},"district":{"key":"03452","name":"Aurich","type":"Landkreis"},"federalState":{"key":"03","name":"Niedersachsen"}},{"name":"Eidechsenweg","postalCode":"26605","locality":"Aurich","municipality":{"key":"03452001","name":"Aurich, Stadt","type":"Stadt"},"district":{"key":"03452","name":"Aurich","type":"Landkreis"},"federalState":{"key":"03","name":"Niedersachsen"}},{"name":"Eilts Pad","postalCode":"26607","locality":"Aurich","municipality":{"key":"03452001","name":"Aurich, Stadt","type":"Stadt"},"district":{"key":"03452","name":"Aurich","type":"Landkreis"},"federalState":{"key":"03","name":"Niedersachsen"}},{"name":"Einsteinstr.","postalCode":"26603","locality":"Aurich","municipality":{"key":"03452001","name":"Aurich, Stadt","type":"Stadt"},"district":{"key":"03452","name":"Aurich","type":"Landkreis"},"federalState":{"key":"03","name":"Niedersachsen"}},{"name":"Eisenacher Str.","postalCode":"26603","locality":"Aurich","municipality":{"key":"03452001","name":"Aurich, Stadt","type":"Stadt"},"district":{"key":"03452","name":"Aurich","type":"Landkreis"},"federalState":{"key":"03","name":"Niedersachsen"}},{"name":"Elbinger Str.","postalCode":"26603","locality":"Aurich","municipality":{"key":"03452001","name":"Aurich, Stadt","type":"Stadt"},"district":{"key":"03452","name":"Aurich","type":"Landkreis"},"federalState":{"key":"03","name":"Niedersachsen"}},{"name":"Elchstr.","postalCode":"26603","locality":"Aurich","municipality":{"key":"03452001","name":"Aurich, Stadt","type":"Stadt"},"district":{"key":"03452","name":"Aurich","type":"Landkreis"},"federalState":{"key":"03","name":"Niedersachsen"}},{"name":"Elisabeth-von-Ungnad-Str.","postalCode":"26605","locality":"Aurich","municipality":{"key":"03452001","name":"Aurich, Stadt","type":"Stadt"},"district":{"key":"03452","name":"Aurich","type":"Landkreis"},"federalState":{"key":"03","name":"Niedersachsen"}},{"name":"Ellerkenstr.","postalCode":"26607","locality":"Aurich","municipality":{"key":"03452001","name":"Aurich, Stadt","type":"Stadt"},"district":{"key":"03452","name":"Aurich","type":"Landkreis"},"federalState":{"key":"03","name":"Niedersachsen"}},{"name":"Elsterweg","postalCode":"26607","locality":"Aurich","municipality":{"key":"03452001","name":"Aurich, Stadt","type":"Stadt"},"district":{"key":"03452","name":"Aurich","type":"Landkreis"},"federalState":{"key":"03","name":"Niedersachsen"}},{"name":"Emder Str.","postalCode":"26603","locality":"Aurich","municipality":{"key":"03452001","name":"Aurich, Stadt","type":"Stadt"},"district":{"key":"03452","name":"Aurich","type":"Landkreis"},"federalState":{"key":"03","name":"Niedersachsen"}},{"name":"Emder Str.","postalCode":"26607","locality":"Aurich","municipality":{"key":"03452001","name":"Aurich, Stadt","type":"Stadt"},"district":{"key":"03452","name":"Aurich","type":"Landkreis"},"federalState":{"key":"03","name":"Niedersachsen"}},{"name":"Enger Weg","postalCode":"26607","locality":"Aurich","municipality":{"key":"03452001","name":"Aurich, Stadt","type":"Stadt"},"district":{"key":"03452","name":"Aurich","type":"Landkreis"},"federalState":{"key":"03","name":"Niedersachsen"}},{"name":"Engeweg","postalCode":"26605","locality":"Aurich","municipality":{"key":"03452001","name":"Aurich, Stadt","type":"Stadt"},"district":{"key":"03452","name":"Aurich","type":"Landkreis"},"federalState":{"key":"03","name":"Niedersachsen"}},{"name":"Enno-Hektor-Str.","postalCode":"26603","locality":"Aurich","municipality":{"key":"03452001","name":"Aurich, Stadt","type":"Stadt"},"district":{"key":"03452","name":"Aurich","type":"Landkreis"},"federalState":{"key":"03","name":"Niedersachsen"}},{"name":"Enzianweg","postalCode":"26605","locality":"Aurich","municipality":{"key":"03452001","name":"Aurich, Stadt","type":"Stadt"},"district":{"key":"03452","name":"Aurich","type":"Landkreis"},"federalState":{"key":"03","name":"Niedersachsen"}},{"name":"Erdbeerweg","postalCode":"26605","locality":"Aurich","municipality":{"key":"03452001","name":"Aurich, Stadt","type":"Stadt"},"district":{"key":"03452","name":"Aurich","type":"Landkreis"},"federalState":{"key":"03","name":"Niedersachsen"}},{"name":"Erfurter Str.","postalCode":"26603","locality":"Aurich","municipality":{"key":"03452001","name":"Aurich, Stadt","type":"Stadt"},"district":{"key":"03452","name":"Aurich","type":"Landkreis"},"federalState":{"key":"03","name":"Niedersachsen"}},{"name":"Erlenweg","postalCode":"26603","locality":"Aurich","municipality":{"key":"03452001","name":"Aurich, Stadt","type":"Stadt"},"district":{"key":"03452","name":"Aurich","type":"Landkreis"},"federalState":{"key":"03","name":"Niedersachsen"}},{"name":"Eschener Allee","postalCode":"26603","locality":"Aurich","municipality":{"key":"03452001","name":"Aurich, Stadt","type":"Stadt"},"district":{"key":"03452","name":"Aurich","type":"Landkreis"},"federalState":{"key":"03","name":"Niedersachsen"}},{"name":"Eschener Gaste","postalCode":"26603","locality":"Aurich","municipality":{"key":"03452001","name":"Aurich, Stadt","type":"Stadt"},"district":{"key":"03452","name":"Aurich","type":"Landkreis"},"federalState":{"key":"03","name":"Niedersachsen"}},{"name":"Eschener Grashausstr.","postalCode":"26607","locality":"Aurich","municipality":{"key":"03452001","name":"Aurich, Stadt","type":"Stadt"},"district":{"key":"03452","name":"Aurich","type":"Landkreis"},"federalState":{"key":"03","name":"Niedersachsen"}},{"name":"Eschenweg","postalCode":"26605","locality":"Aurich","municipality":{"key":"03452001","name":"Aurich, Stadt","type":"Stadt"},"district":{"key":"03452","name":"Aurich","type":"Landkreis"},"federalState":{"key":"03","name":"Niedersachsen"}},{"name":"Esenser Landstr.","postalCode":"26607","locality":"Aurich","municipality":{"key":"03452001","name":"Aurich, Stadt","type":"Stadt"},"district":{"key":"03452","name":"Aurich","type":"Landkreis"},"federalState":{"key":"03","name":"Niedersachsen"}},{"name":"Esenser Postweg","postalCode":"26607","locality":"Aurich","municipality":{"key":"03452001","name":"Aurich, Stadt","type":"Stadt"},"district":{"key":"03452","name":"Aurich","type":"Landkreis"},"federalState":{"key":"03","name":"Niedersachsen"}},{"name":"Esenser Str.","postalCode":"26603","locality":"Aurich","municipality":{"key":"03452001","name":"Aurich, Stadt","type":"Stadt"},"district":{"key":"03452","name":"Aurich","type":"Landkreis"},"federalState":{"key":"03","name":"Niedersachsen"}},{"name":"Esenser Str.","postalCode":"26607","locality":"Aurich","municipality":{"key":"03452001","name":"Aurich, Stadt","type":"Stadt"},"district":{"key":"03452","name":"Aurich","type":"Landkreis"},"federalState":{"key":"03","name":"Niedersachsen"}},{"name":"Exerzierplatzweg","postalCode":"26605","locality":"Aurich","municipality":{"key":"03452001","name":"Aurich, Stadt","type":"Stadt"},"district":{"key":"03452","name":"Aurich","type":"Landkreis"},"federalState":{"key":"03","name":"Niedersachsen"}},{"name":"Extumer Brückenstr.","postalCode":"26605","locality":"Aurich","municipality":{"key":"03452001","name":"Aurich, Stadt","type":"Stadt"},"district":{"key":"03452","name":"Aurich","type":"Landkreis"},"federalState":{"key":"03","name":"Niedersachsen"}},{"name":"Extumer Gaste","postalCode":"26605","locality":"Aurich","municipality":{"key":"03452001","name":"Aurich, Stadt","type":"Stadt"},"district":{"key":"03452","name":"Aurich","type":"Landkreis"},"federalState":{"key":"03","name":"Niedersachsen"}},{"name":"Extumer Kamp","postalCode":"26605","locality":"Aurich","municipality":{"key":"03452001","name":"Aurich, Stadt","type":"Stadt"},"district":{"key":"03452","name":"Aurich","type":"Landkreis"},"federalState":{"key":"03","name":"Niedersachsen"}},{"name":"Extumer Loog","postalCode":"26605","locality":"Aurich","municipality":{"key":"03452001","name":"Aurich, Stadt","type":"Stadt"},"district":{"key":"03452","name":"Aurich","type":"Landkreis"},"federalState":{"key":"03","name":"Niedersachsen"}},{"name":"Extumer Weg","postalCode":"26603","locality":"Aurich","municipality":{"key":"03452001","name":"Aurich, Stadt","type":"Stadt"},"district":{"key":"03452","name":"Aurich","type":"Landkreis"},"federalState":{"key":"03","name":"Niedersachsen"}},{"name":"Extumer Weg","postalCode":"26605","locality":"Aurich","municipality":{"key":"03452001","name":"Aurich, Stadt","type":"Stadt"},"district":{"key":"03452","name":"Aurich","type":"Landkreis"},"federalState":{"key":"03","name":"Niedersachsen"}},{"name":"Fabriciusstr.","postalCode":"26529","locality":"Osteel","municipality":{"key":"03452021","name":"Osteel","type":"Kreisangehörige_Gemeinde"},"district":{"key":"03452","name":"Aurich","type":"Landkreis"},"federalState":{"key":"03","name":"Niedersachsen"}},{"name":"Fennenweg","postalCode":"26529","locality":"Osteel","municipality":{"key":"03452021","name":"Osteel","type":"Kreisangehörige_Gemeinde"},"district":{"key":"03452","name":"Aurich","type":"Landkreis"},"federalState":{"key":"03","name":"Niedersachsen"}},{"name":"Friesenstr.","postalCode":"26529","locality":"Osteel","municipality":{"key":"03452021","name":"Osteel","type":"Kreisangehörige_Gemeinde"},"district":{"key":"03452","name":"Aurich","type":"Landkreis"},"federalState":{"key":"03","name":"Niedersachsen"}},{"name":"Grasweg","postalCode":"26529","locality":"Osteel","municipality":{"key":"03452021","name":"Osteel","type":"Kreisangehörige_Gemeinde"},"district":{"key":"03452","name":"Aurich","type":"Landkreis"},"federalState":{"key":"03","name":"Niedersachsen"}},{"name":"Heckenweg","postalCode":"26529","locality":"Osteel","municipality":{"key":"03452021","name":"Osteel","type":"Kreisangehörige_Gemeinde"},"district":{"key":"03452","name":"Aurich","type":"Landkreis"},"federalState":{"key":"03","name":"Niedersachsen"}},{"name":"Herrenbeer","postalCode":"26529","locality":"Osteel","municipality":{"key":"03452021","name":"Osteel","type":"Kreisangehörige_Gemeinde"},"district":{"key":"03452","name":"Aurich","type":"Landkreis"},"federalState":{"key":"03","name":"Niedersachsen"}},{"name":"Im Winkel","postalCode":"26529","locality":"Osteel","municipality":{"key":"03452021","name":"Osteel","type":"Kreisangehörige_Gemeinde"},"district":{"key":"03452","name":"Aurich","type":"Landkreis"},"federalState":{"key":"03","name":"Niedersachsen"}},{"name":"Jadestr.","postalCode":"26605","locality":"Aurich","municipality":{"key":"03452001","name":"Aurich, Stadt","type":"Stadt"},"district":{"key":"03452","name":"Aurich","type":"Landkreis"},"federalState":{"key":"03","name":"Niedersachsen"}},{"name":"Jagdweg","postalCode":"26605","locality":"Aurich","municipality":{"key":"03452001","name":"Aurich, Stadt","type":"Stadt"},"district":{"key":"03452","name":"Aurich","type":"Landkreis"},"federalState":{"key":"03","name":"Niedersachsen"}},{"name":"Jägerstr.","postalCode":"26607","locality":"Aurich","municipality":{"key":"03452001","name":"Aurich, Stadt","type":"Stadt"},"district":{"key":"03452","name":"Aurich","type":"Landkreis"},"federalState":{"key":"03","name":"Niedersachsen"}},{"name":"Jahnstr.","postalCode":"26603","locality":"Aurich","municipality":{"key":"03452001","name":"Aurich, Stadt","type":"Stadt"},"district":{"key":"03452","name":"Aurich","type":"Landkreis"},"federalState":{"key":"03","name":"Niedersachsen"}},{"name":"Jann-Berghaus-Str.","postalCode":"26603","locality":"Aurich","municipality":{"key":"03452001","name":"Aurich, Stadt","type":"Stadt"},"district":{"key":"03452","name":"Aurich","type":"Landkreis"},"federalState":{"key":"03","name":"Niedersachsen"}},{"name":"Johannes-Diekhoff-Str.","postalCode":"26605","locality":"Aurich","municipality":{"key":"03452001","name":"Aurich, Stadt","type":"Stadt"},"district":{"key":"03452","name":"Aurich","type":"Landkreis"},"federalState":{"key":"03","name":"Niedersachsen"}},{"name":"Juiststr.","postalCode":"26603","locality":"Aurich","municipality":{"key":"03452001","name":"Aurich, Stadt","type":"Stadt"},"district":{"key":"03452","name":"Aurich","type":"Landkreis"},"federalState":{"key":"03","name":"Niedersachsen"}},{"name":"Julianenburger Str.","postalCode":"26603","locality":"Aurich","municipality":{"key":"03452001","name":"Aurich, Stadt","type":"Stadt"},"district":{"key":"03452","name":"Aurich","type":"Landkreis"},"federalState":{"key":"03","name":"Niedersachsen"}},{"name":"Jümmestr.","postalCode":"26605","locality":"Aurich","municipality":{"key":"03452001","name":"Aurich, Stadt","type":"Stadt"},"district":{"key":"03452","name":"Aurich","type":"Landkreis"},"federalState":{"key":"03","name":"Niedersachsen"}},{"name":"Kämpeweg","postalCode":"26529","locality":"Osteel","municipality":{"key":"03452021","name":"Osteel","type":"Kreisangehörige_Gemeinde"},"district":{"key":"03452","name":"Aurich","type":"Landkreis"},"federalState":{"key":"03","name":"Niedersachsen"}},{"name":"Kirchpfad","postalCode":"26529","locality":"Osteel","municipality":{"key":"03452021","name":"Osteel","type":"Kreisangehörige_Gemeinde"},"district":{"key":"03452","name":"Aurich","type":"Landkreis"},"federalState":{"key":"03","name":"Niedersachsen"}},{"name":"Kleeweg","postalCode":"26529","locality":"Osteel","municipality":{"key":"03452021","name":"Osteel","type":"Kreisangehörige_Gemeinde"},"district":{"key":"03452","name":"Aurich","type":"Landkreis"},"federalState":{"key":"03","name":"Niedersachsen"}},{"name":"Kolkweg","postalCode":"26529","locality":"Osteel","municipality":{"key":"03452021","name":"Osteel","type":"Kreisangehörige_Gemeinde"},"district":{"key":"03452","name":"Aurich","type":"Landkreis"},"federalState":{"key":"03","name":"Niedersachsen"}},{"name":"Komperweg","postalCode":"26529","locality":"Osteel","municipality":{"key":"03452021","name":"Osteel","type":"Kreisangehörige_Gemeinde"},"district":{"key":"03452","name":"Aurich","type":"Landkreis"},"federalState":{"key":"03","name":"Niedersachsen"}},{"name":"Koppelstr.","postalCode":"26529","locality":"Osteel","municipality":{"key":"03452021","name":"Osteel","type":"Kreisangehörige_Gemeinde"},"district":{"key":"03452","name":"Aurich","type":"Landkreis"},"federalState":{"key":"03","name":"Niedersachsen"}},{"name":"Kreitlappereiweg","postalCode":"26529","locality":"Osteel","municipality":{"key":"03452021","name":"Osteel","type":"Kreisangehörige_Gemeinde"},"district":{"key":"03452","name":"Aurich","type":"Landkreis"},"federalState":{"key":"03","name":"Niedersachsen"}},{"name":"Kreuzweg","postalCode":"26529","locality":"Osteel","municipality":{"key":"03452021","name":"Osteel","type":"Kreisangehörige_Gemeinde"},"district":{"key":"03452","name":"Aurich","type":"Landkreis"},"federalState":{"key":"03","name":"Niedersachsen"}},{"name":"Kurzer Weg","postalCode":"26529","locality":"Osteel","municipality":{"key":"03452021","name":"Osteel","type":"Kreisangehörige_Gemeinde"},"district":{"key":"03452","name":"Aurich","type":"Landkreis"},"federalState":{"key":"03","name":"Niedersachsen"}},{"name":"Laubenstr.","postalCode":"26529","locality":"Osteel","municipality":{"key":"03452021","name":"Osteel","type":"Kreisangehörige_Gemeinde"},"district":{"key":"03452","name":"Aurich","type":"Landkreis"},"federalState":{"key":"03","name":"Niedersachsen"}},{"name":"Leezweg","postalCode":"26529","locality":"Osteel","municipality":{"key":"03452021","name":"Osteel","type":"Kreisangehörige_Gemeinde"},"district":{"key":"03452","name":"Aurich","type":"Landkreis"},"federalState":{"key":"03","name":"Niedersachsen"}},{"name":"Mittelweg","postalCode":"26529","locality":"Osteel","municipality":{"key":"03452021","name":"Osteel","type":"Kreisangehörige_Gemeinde"},"district":{"key":"03452","name":"Aurich","type":"Landkreis"},"federalState":{"key":"03","name":"Niedersachsen"}},{"name":"Moortunweg","postalCode":"26529","locality":"Osteel","municipality":{"key":"03452021","name":"Osteel","type":"Kreisangehörige_Gemeinde"},"district":{"key":"03452","name":"Aurich","type":"Landkreis"},"federalState":{"key":"03","name":"Niedersachsen"}},{"name":"Nordfriesenstr.","postalCode":"26529","locality":"Osteel","municipality":{"key":"03452021","name":"Osteel","type":"Kreisangehörige_Gemeinde"},"district":{"key":"03452","name":"Aurich","type":"Landkreis"},"federalState":{"key":"03","name":"Niedersachsen"}},{"name":"Osteeler Altendeich","postalCode":"26529","locality":"Osteel","municipality":{"key":"03452021","name":"Osteel","type":"Kreisangehörige_Gemeinde"},"district":{"key":"03452","name":"Aurich","type":"Landkreis"},"federalState":{"key":"03","name":"Niedersachsen"}},{"name":"Osteeler Campen","postalCode":"26529","locality":"Osteel","municipality":{"key":"03452021","name":"Osteel","type":"Kreisangehörige_Gemeinde"},"district":{"key":"03452","name":"Aurich","type":"Landkreis"},"federalState":{"key":"03","name":"Niedersachsen"}},{"name":"Osterstr.","postalCode":"26529","locality":"Osteel","municipality":{"key":"03452021","name":"Osteel","type":"Kreisangehörige_Gemeinde"},"district":{"key":"03452","name":"Aurich","type":"Landkreis"},"federalState":{"key":"03","name":"Niedersachsen"}},{"name":"Ostfriesenstr.","postalCode":"26529","locality":"Osteel","municipality":{"key":"03452021","name":"Osteel","type":"Kreisangehörige_Gemeinde"},"district":{"key":"03452","name":"Aurich","type":"Landkreis"},"federalState":{"key":"03","name":"Niedersachsen"}},{"name":"Padkamp","postalCode":"26605","locality":"Aurich","municipality":{"key":"03452001","name":"Aurich, Stadt","type":"Stadt"},"district":{"key":"03452","name":"Aurich","type":"Landkreis"},"federalState":{"key":"03","name":"Niedersachsen"}},{"name":"Pappelweg","postalCode":"26605","locality":"Aurich","municipality":{"key":"03452001","name":"Aurich, Stadt","type":"Stadt"},"district":{"key":"03452","name":"Aurich","type":"Landkreis"},"federalState":{"key":"03","name":"Niedersachsen"}},{"name":"Park Haxtum","postalCode":"26605","locality":"Aurich","municipality":{"key":"03452001","name":"Aurich, Stadt","type":"Stadt"},"district":{"key":"03452","name":"Aurich","type":"Landkreis"},"federalState":{"key":"03","name":"Niedersachsen"}},{"name":"Parkstr.","postalCode":"26605","locality":"Aurich","municipality":{"key":"03452001","name":"Aurich, Stadt","type":"Stadt"},"district":{"key":"03452","name":"Aurich","type":"Landkreis"},"federalState":{"key":"03","name":"Niedersachsen"}},{"name":"Pechfennenweg","postalCode":"26605","locality":"Aurich","municipality":{"key":"03452001","name":"Aurich, Stadt","type":"Stadt"},"district":{"key":"03452","name":"Aurich","type":"Landkreis"},"federalState":{"key":"03","name":"Niedersachsen"}},{"name":"Peerkuhl","postalCode":"26605","locality":"Aurich","municipality":{"key":"03452001","name":"Aurich, Stadt","type":"Stadt"},"district":{"key":"03452","name":"Aurich","type":"Landkreis"},"federalState":{"key":"03","name":"Niedersachsen"}},{"name":"Pfalzdorfer Str.","postalCode":"26607","locality":"Aurich","municipality":{"key":"03452001","name":"Aurich, Stadt","type":"Stadt"},"district":{"key":"03452","name":"Aurich","type":"Landkreis"},"federalState":{"key":"03","name":"Niedersachsen"}},{"name":"Pfälzerstr.","postalCode":"26607","locality":"Aurich","municipality":{"key":"03452001","name":"Aurich, Stadt","type":"Stadt"},"district":{"key":"03452","name":"Aurich","type":"Landkreis"},"federalState":{"key":"03","name":"Niedersachsen"}},{"name":"Pfauenweg","postalCode":"26603","locality":"Aurich","municipality":{"key":"03452001","name":"Aurich, Stadt","type":"Stadt"},"district":{"key":"03452","name":"Aurich","type":"Landkreis"},"federalState":{"key":"03","name":"Niedersachsen"}},{"name":"Pferdekoppel","postalCode":"26605","locality":"Aurich","municipality":{"key":"03452001","name":"Aurich, Stadt","type":"Stadt"},"district":{"key":"03452","name":"Aurich","type":"Landkreis"},"federalState":{"key":"03","name":"Niedersachsen"}},{"name":"Piepmortenweg","postalCode":"26607","locality":"Aurich","municipality":{"key":"03452001","name":"Aurich, Stadt","type":"Stadt"},"district":{"key":"03452","name":"Aurich","type":"Landkreis"},"federalState":{"key":"03","name":"Niedersachsen"}},{"name":"Pillauer Str.","postalCode":"26603","locality":"Aurich","municipality":{"key":"03452001","name":"Aurich, Stadt","type":"Stadt"},"district":{"key":"03452","name":"Aurich","type":"Landkreis"},"federalState":{"key":"03","name":"Niedersachsen"}},{"name":"Plackweg","postalCode":"26605","locality":"Aurich","municipality":{"key":"03452001","name":"Aurich, Stadt","type":"Stadt"},"district":{"key":"03452","name":"Aurich","type":"Landkreis"},"federalState":{"key":"03","name":"Niedersachsen"}},{"name":"Pollerweg","postalCode":"26607","locality":"Aurich","municipality":{"key":"03452001","name":"Aurich, Stadt","type":"Stadt"},"district":{"key":"03452","name":"Aurich","type":"Landkreis"},"federalState":{"key":"03","name":"Niedersachsen"}},{"name":"Pommernweg","postalCode":"26603","locality":"Aurich","municipality":{"key":"03452001","name":"Aurich, Stadt","type":"Stadt"},"district":{"key":"03452","name":"Aurich","type":"Landkreis"},"federalState":{"key":"03","name":"Niedersachsen"}},{"name":"Popenser Str.","postalCode":"26603","locality":"Aurich","municipality":{"key":"03452001","name":"Aurich, Stadt","type":"Stadt"},"district":{"key":"03452","name":"Aurich","type":"Landkreis"},"federalState":{"key":"03","name":"Niedersachsen"}},{"name":"Popenser Str.","postalCode":"26605","locality":"Aurich","municipality":{"key":"03452001","name":"Aurich, Stadt","type":"Stadt"},"district":{"key":"03452","name":"Aurich","type":"Landkreis"},"federalState":{"key":"03","name":"Niedersachsen"}},{"name":"Pottackerring","postalCode":"26605","locality":"Aurich","municipality":{"key":"03452001","name":"Aurich, Stadt","type":"Stadt"},"district":{"key":"03452","name":"Aurich","type":"Landkreis"},"federalState":{"key":"03","name":"Niedersachsen"}},{"name":"Preiselbeerweg","postalCode":"26605","locality":"Aurich","municipality":{"key":"03452001","name":"Aurich, Stadt","type":"Stadt"},"district":{"key":"03452","name":"Aurich","type":"Landkreis"},"federalState":{"key":"03","name":"Niedersachsen"}},{"name":"Prinz-Ratibor-Str.","postalCode":"26605","locality":"Aurich","municipality":{"key":"03452001","name":"Aurich, Stadt","type":"Stadt"},"district":{"key":"03452","name":"Aurich","type":"Landkreis"},"federalState":{"key":"03","name":"Niedersachsen"}},{"name":"Quembarger Weg","postalCode":"26607","locality":"Aurich","municipality":{"key":"03452001","name":"Aurich, Stadt","type":"Stadt"},"district":{"key":"03452","name":"Aurich","type":"Landkreis"},"federalState":{"key":"03","name":"Niedersachsen"}},{"name":"Querweg","postalCode":"26605","locality":"Aurich","municipality":{"key":"03452001","name":"Aurich, Stadt","type":"Stadt"},"district":{"key":"03452","name":"Aurich","type":"Landkreis"},"federalState":{"key":"03","name":"Niedersachsen"}},{"name":"Reithammer Weg","postalCode":"26529","locality":"Osteel","municipality":{"key":"03452021","name":"Osteel","type":"Kreisangehörige_Gemeinde"},"district":{"key":"03452","name":"Aurich","type":"Landkreis"},"federalState":{"key":"03","name":"Niedersachsen"}},{"name":"Schmal Pad","postalCode":"26529","locality":"Osteel","municipality":{"key":"03452021","name":"Osteel","type":"Kreisangehörige_Gemeinde"},"district":{"key":"03452","name":"Aurich","type":"Landkreis"},"federalState":{"key":"03","name":"Niedersachsen"}},{"name":"Schoonorther Landesstr.","postalCode":"26529","locality":"Osteel","municipality":{"key":"03452021","name":"Osteel","type":"Kreisangehörige_Gemeinde"},"district":{"key":"03452","name":"Aurich","type":"Landkreis"},"federalState":{"key":"03","name":"Niedersachsen"}},{"name":"Strauchweg","postalCode":"26529","locality":"Osteel","municipality":{"key":"03452021","name":"Osteel","type":"Kreisangehörige_Gemeinde"},"district":{"key":"03452","name":"Aurich","type":"Landkreis"},"federalState":{"key":"03","name":"Niedersachsen"}},{"name":"Tammeland","postalCode":"26607","locality":"Aurich","municipality":{"key":"03452001","name":"Aurich, Stadt","type":"Stadt"},"district":{"key":"03452","name":"Aurich","type":"Landkreis"},"federalState":{"key":"03","name":"Niedersachsen"}},{"name":"Tannenbergstr.","postalCode":"26603","locality":"Aurich","municipality":{"key":"03452001","name":"Aurich, Stadt","type":"Stadt"},"district":{"key":"03452","name":"Aurich","type":"Landkreis"},"federalState":{"key":"03","name":"Niedersachsen"}},{"name":"Tannendörp","postalCode":"26607","locality":"Aurich","municipality":{"key":"03452001","name":"Aurich, Stadt","type":"Stadt"},"district":{"key":"03452","name":"Aurich","type":"Landkreis"},"federalState":{"key":"03","name":"Niedersachsen"}},{"name":"Tannenstr.","postalCode":"26607","locality":"Aurich","municipality":{"key":"03452001","name":"Aurich, Stadt","type":"Stadt"},"district":{"key":"03452","name":"Aurich","type":"Landkreis"},"federalState":{"key":"03","name":"Niedersachsen"}},{"name":"Taubenweg","postalCode":"26603","locality":"Aurich","municipality":{"key":"03452001","name":"Aurich, Stadt","type":"Stadt"},"district":{"key":"03452","name":"Aurich","type":"Landkreis"},"federalState":{"key":"03","name":"Niedersachsen"}},{"name":"Taxusweg","postalCode":"26605","locality":"Aurich","municipality":{"key":"03452001","name":"Aurich, Stadt","type":"Stadt"},"district":{"key":"03452","name":"Aurich","type":"Landkreis"},"federalState":{"key":"03","name":"Niedersachsen"}},{"name":"Taybeerweg","postalCode":"26605","locality":"Aurich","municipality":{"key":"03452001","name":"Aurich, Stadt","type":"Stadt"},"district":{"key":"03452","name":"Aurich","type":"Landkreis"},"federalState":{"key":"03","name":"Niedersachsen"}},{"name":"Teestr.","postalCode":"26605","locality":"Aurich","municipality":{"key":"03452001","name":"Aurich, Stadt","type":"Stadt"},"district":{"key":"03452","name":"Aurich","type":"Landkreis"},"federalState":{"key":"03","name":"Niedersachsen"}},{"name":"Teltingweg","postalCode":"26603","locality":"Aurich","municipality":{"key":"03452001","name":"Aurich, Stadt","type":"Stadt"},"district":{"key":"03452","name":"Aurich","type":"Landkreis"},"federalState":{"key":"03","name":"Niedersachsen"}},{"name":"Thedaweg","postalCode":"26603","locality":"Aurich","municipality":{"key":"03452001","name":"Aurich, Stadt","type":"Stadt"},"district":{"key":"03452","name":"Aurich","type":"Landkreis"},"federalState":{"key":"03","name":"Niedersachsen"}},{"name":"Thiel","postalCode":"26607","locality":"Aurich","municipality":{"key":"03452001","name":"Aurich, Stadt","type":"Stadt"},"district":{"key":"03452","name":"Aurich","type":"Landkreis"},"federalState":{"key":"03","name":"Niedersachsen"}},{"name":"Thunacker","postalCode":"26605","locality":"Aurich","municipality":{"key":"03452001","name":"Aurich, Stadt","type":"Stadt"},"district":{"key":"03452","name":"Aurich","type":"Landkreis"},"federalState":{"key":"03","name":"Niedersachsen"}},{"name":"Thüringer Str.","postalCode":"26603","locality":"Aurich","municipality":{"key":"03452001","name":"Aurich, Stadt","type":"Stadt"},"district":{"key":"03452","name":"Aurich","type":"Landkreis"},"federalState":{"key":"03","name":"Niedersachsen"}},{"name":"Tillkampsweg","postalCode":"26605","locality":"Aurich","municipality":{"key":"03452001","name":"Aurich, Stadt","type":"Stadt"},"district":{"key":"03452","name":"Aurich","type":"Landkreis"},"federalState":{"key":"03","name":"Niedersachsen"}},{"name":"Tilsiter Str.","postalCode":"26603","locality":"Aurich","municipality":{"key":"03452001","name":"Aurich, Stadt","type":"Stadt"},"district":{"key":"03452","name":"Aurich","type":"Landkreis"},"federalState":{"key":"03","name":"Niedersachsen"}},{"name":"Timmeler Str.","postalCode":"26605","locality":"Aurich","municipality":{"key":"03452001","name":"Aurich, Stadt","type":"Stadt"},"district":{"key":"03452","name":"Aurich","type":"Landkreis"},"federalState":{"key":"03","name":"Niedersachsen"}},{"name":"Tjüchkampstr.","postalCode":"26605","locality":"Aurich","municipality":{"key":"03452001","name":"Aurich, Stadt","type":"Stadt"},"district":{"key":"03452","name":"Aurich","type":"Landkreis"},"federalState":{"key":"03","name":"Niedersachsen"}},{"name":"Tom-Brook-Str.","postalCode":"26603","locality":"Aurich","municipality":{"key":"03452001","name":"Aurich, Stadt","type":"Stadt"},"district":{"key":"03452","name":"Aurich","type":"Landkreis"},"federalState":{"key":"03","name":"Niedersachsen"}},{"name":"Tonweg","postalCode":"26607","locality":"Aurich","municipality":{"key":"03452001","name":"Aurich, Stadt","type":"Stadt"},"district":{"key":"03452","name":"Aurich","type":"Landkreis"},"federalState":{"key":"03","name":"Niedersachsen"}},{"name":"Torfgräberweg","postalCode":"26605","locality":"Aurich","municipality":{"key":"03452001","name":"Aurich, Stadt","type":"Stadt"},"district":{"key":"03452","name":"Aurich","type":"Landkreis"},"federalState":{"key":"03","name":"Niedersachsen"}},{"name":"Torfstr.","postalCode":"26605","locality":"Aurich","municipality":{"key":"03452001","name":"Aurich, Stadt","type":"Stadt"},"district":{"key":"03452","name":"Aurich","type":"Landkreis"},"federalState":{"key":"03","name":"Niedersachsen"}},{"name":"Tränkeweg","postalCode":"26605","locality":"Aurich","municipality":{"key":"03452001","name":"Aurich, Stadt","type":"Stadt"},"district":{"key":"03452","name":"Aurich","type":"Landkreis"},"federalState":{"key":"03","name":"Niedersachsen"}},{"name":"Treiberweg","postalCode":"26605","locality":"Aurich","municipality":{"key":"03452001","name":"Aurich, Stadt","type":"Stadt"},"district":{"key":"03452","name":"Aurich","type":"Landkreis"},"federalState":{"key":"03","name":"Niedersachsen"}},{"name":"Tridentweg","postalCode":"26607","locality":"Aurich","municipality":{"key":"03452001","name":"Aurich, Stadt","type":"Stadt"},"district":{"key":"03452","name":"Aurich","type":"Landkreis"},"federalState":{"key":"03","name":"Niedersachsen"}},{"name":"Trienwarf","postalCode":"26605","locality":"Aurich","municipality":{"key":"03452001","name":"Aurich, Stadt","type":"Stadt"},"district":{"key":"03452","name":"Aurich","type":"Landkreis"},"federalState":{"key":"03","name":"Niedersachsen"}},{"name":"Troogstücksweg","postalCode":"26607","locality":"Aurich","municipality":{"key":"03452001","name":"Aurich, Stadt","type":"Stadt"},"district":{"key":"03452","name":"Aurich","type":"Landkreis"},"federalState":{"key":"03","name":"Niedersachsen"}},{"name":"Tulpenstr.","postalCode":"26605","locality":"Aurich","municipality":{"key":"03452001","name":"Aurich, Stadt","type":"Stadt"},"district":{"key":"03452","name":"Aurich","type":"Landkreis"},"federalState":{"key":"03","name":"Niedersachsen"}},{"name":"Tummelbuscher Str.","postalCode":"26607","locality":"Aurich","municipality":{"key":"03452001","name":"Aurich, Stadt","type":"Stadt"},"district":{"key":"03452","name":"Aurich","type":"Landkreis"},"federalState":{"key":"03","name":"Niedersachsen"}},{"name":"Tüschen Thunen","postalCode":"26605","locality":"Aurich","municipality":{"key":"03452001","name":"Aurich, Stadt","type":"Stadt"},"district":{"key":"03452","name":"Aurich","type":"Landkreis"},"federalState":{"key":"03","name":"Niedersachsen"}},{"name":"Tüschen Wallen","postalCode":"26607","locality":"Aurich","municipality":{"key":"03452001","name":"Aurich, Stadt","type":"Stadt"},"district":{"key":"03452","name":"Aurich","type":"Landkreis"},"federalState":{"key":"03","name":"Niedersachsen"}},{"name":"Ut Enden","postalCode":"26529","locality":"Osteel","municipality":{"key":"03452021","name":"Osteel","type":"Kreisangehörige_Gemeinde"},"district":{"key":"03452","name":"Aurich","type":"Landkreis"},"federalState":{"key":"03","name":"Niedersachsen"}},{"name":"Utlangwehrsweg","postalCode":"26529","locality":"Osteel","municipality":{"key":"03452021","name":"Osteel","type":"Kreisangehörige_Gemeinde"},"district":{"key":"03452","name":"Aurich","type":"Landkreis"},"federalState":{"key":"03","name":"Niedersachsen"}},{"name":"Van Dell","postalCode":"26605","locality":"Aurich","municipality":{"key":"03452001","name":"Aurich, Stadt","type":"Stadt"},"district":{"key":"03452","name":"Aurich","type":"Landkreis"},"federalState":{"key":"03","name":"Niedersachsen"}},{"name":"Veerkchenweg","postalCode":"26605","locality":"Aurich","municipality":{"key":"03452001","name":"Aurich, Stadt","type":"Stadt"},"district":{"key":"03452","name":"Aurich","type":"Landkreis"},"federalState":{"key":"03","name":"Niedersachsen"}},{"name":"Viebenweg","postalCode":"26607","locality":"Aurich","municipality":{"key":"03452001","name":"Aurich, Stadt","type":"Stadt"},"district":{"key":"03452","name":"Aurich","type":"Landkreis"},"federalState":{"key":"03","name":"Niedersachsen"}},{"name":"Viehtrift","postalCode":"26607","locality":"Aurich","municipality":{"key":"03452001","name":"Aurich, Stadt","type":"Stadt"},"district":{"key":"03452","name":"Aurich","type":"Landkreis"},"federalState":{"key":"03","name":"Niedersachsen"}},{"name":"Virchowstr.","postalCode":"26607","locality":"Aurich","municipality":{"key":"03452001","name":"Aurich, Stadt","type":"Stadt"},"district":{"key":"03452","name":"Aurich","type":"Landkreis"},"federalState":{"key":"03","name":"Niedersachsen"}},{"name":"Voerkampstr.","postalCode":"26607","locality":"Aurich","municipality":{"key":"03452001","name":"Aurich, Stadt","type":"Stadt"},"district":{"key":"03452","name":"Aurich","type":"Landkreis"},"federalState":{"key":"03","name":"Niedersachsen"}},{"name":"Vogelbeerweg","postalCode":"26607","locality":"Aurich","municipality":{"key":"03452001","name":"Aurich, Stadt","type":"Stadt"},"district":{"key":"03452","name":"Aurich","type":"Landkreis"},"federalState":{"key":"03","name":"Niedersachsen"}},{"name":"Vögelwatersweg","postalCode":"26607","locality":"Aurich","municipality":{"key":"03452001","name":"Aurich, Stadt","type":"Stadt"},"district":{"key":"03452","name":"Aurich","type":"Landkreis"},"federalState":{"key":"03","name":"Niedersachsen"}},{"name":"Von-Bodelschwingh-Str.","postalCode":"26603","locality":"Aurich","municipality":{"key":"03452001","name":"Aurich, Stadt","type":"Stadt"},"district":{"key":"03452","name":"Aurich","type":"Landkreis"},"federalState":{"key":"03","name":"Niedersachsen"}},{"name":"Von-Derschau-Str.","postalCode":"26603","locality":"Aurich","municipality":{"key":"03452001","name":"Aurich, Stadt","type":"Stadt"},"district":{"key":"03452","name":"Aurich","type":"Landkreis"},"federalState":{"key":"03","name":"Niedersachsen"}},{"name":"Von-Frerichs-Str.","postalCode":"26603","locality":"Aurich","municipality":{"key":"03452001","name":"Aurich, Stadt","type":"Stadt"},"district":{"key":"03452","name":"Aurich","type":"Landkreis"},"federalState":{"key":"03","name":"Niedersachsen"}},{"name":"Von-Halem-Str.","postalCode":"26603","locality":"Aurich","municipality":{"key":"03452001","name":"Aurich, Stadt","type":"Stadt"},"district":{"key":"03452","name":"Aurich","type":"Landkreis"},"federalState":{"key":"03","name":"Niedersachsen"}},{"name":"Von-Jhering-Str.","postalCode":"26603","locality":"Aurich","municipality":{"key":"03452001","name":"Aurich, Stadt","type":"Stadt"},"district":{"key":"03452","name":"Aurich","type":"Landkreis"},"federalState":{"key":"03","name":"Niedersachsen"}},{"name":"Von-Tirpitz-Str.","postalCode":"26603","locality":"Aurich","municipality":{"key":"03452001","name":"Aurich, Stadt","type":"Stadt"},"district":{"key":"03452","name":"Aurich","type":"Landkreis"},"federalState":{"key":"03","name":"Niedersachsen"}},{"name":"Vor Brewater","postalCode":"26607","locality":"Aurich","municipality":{"key":"03452001","name":"Aurich, Stadt","type":"Stadt"},"district":{"key":"03452","name":"Aurich","type":"Landkreis"},"federalState":{"key":"03","name":"Niedersachsen"}},{"name":"Vordereschen","postalCode":"26603","locality":"Aurich","municipality":{"key":"03452001","name":"Aurich, Stadt","type":"Stadt"},"district":{"key":"03452","name":"Aurich","type":"Landkreis"},"federalState":{"key":"03","name":"Niedersachsen"}},{"name":"Vör de Tummel","postalCode":"26607","locality":"Aurich","municipality":{"key":"03452001","name":"Aurich, Stadt","type":"Stadt"},"district":{"key":"03452","name":"Aurich","type":"Landkreis"},"federalState":{"key":"03","name":"Niedersachsen"}},{"name":"Vörwolderweg","postalCode":"26607","locality":"Aurich","municipality":{"key":"03452001","name":"Aurich, Stadt","type":"Stadt"},"district":{"key":"03452","name":"Aurich","type":"Landkreis"},"federalState":{"key":"03","name":"Niedersachsen"}},{"name":"Voßhöcht","postalCode":"26607","locality":"Aurich","municipality":{"key":"03452001","name":"Aurich, Stadt","type":"Stadt"},"district":{"key":"03452","name":"Aurich","type":"Landkreis"},"federalState":{"key":"03","name":"Niedersachsen"}},{"name":"Voßweg","postalCode":"26607","locality":"Aurich","municipality":{"key":"03452001","name":"Aurich, Stadt","type":"Stadt"},"district":{"key":"03452","name":"Aurich","type":"Landkreis"},"federalState":{"key":"03","name":"Niedersachsen"}},{"name":"Westerstr.","postalCode":"26529","locality":"Osteel","municipality":{"key":"03452021","name":"Osteel","type":"Kreisangehörige_Gemeinde"},"district":{"key":"03452","name":"Aurich","type":"Landkreis"},"federalState":{"key":"03","name":"Niedersachsen"}},{"name":"Westfriesenstr.","postalCode":"26529","locality":"Osteel","municipality":{"key":"03452021","name":"Osteel","type":"Kreisangehörige_Gemeinde"},"district":{"key":"03452","name":"Aurich","type":"Landkreis"},"federalState":{"key":"03","name":"Niedersachsen"}},{"name":"Wiesenweg","postalCode":"26529","locality":"Osteel","municipality":{"key":"03452021","name":"Osteel","type":"Kreisangehörige_Gemeinde"},"district":{"key":"03452","name":"Aurich","type":"Landkreis"},"federalState":{"key":"03","name":"Niedersachsen"}},{"name":"Wirdeweg","postalCode":"26529","locality":"Osteel","municipality":{"key":"03452021","name":"Osteel","type":"Kreisangehörige_Gemeinde"},"district":{"key":"03452","name":"Aurich","type":"Landkreis"},"federalState":{"key":"03","name":"Niedersachsen"}},{"name":"Woldeweg","postalCode":"26529","locality":"Osteel","municipality":{"key":"03452021","name":"Osteel","type":"Kreisangehörige_Gemeinde"},"district":{"key":"03452","name":"Aurich","type":"Landkreis"},"federalState":{"key":"03","name":"Niedersachsen"}},{"name":"Woldlandstr.","postalCode":"26529","locality":"Osteel","municipality":{"key":"03452021","name":"Osteel","type":"Kreisangehörige_Gemeinde"},"district":{"key":"03452","name":"Aurich","type":"Landkreis"},"federalState":{"key":"03","name":"Niedersachsen"}},{"name":"Yorckstr.","postalCode":"26603","locality":"Aurich","municipality":{"key":"03452001","name":"Aurich, Stadt","type":"Stadt"},"district":{"key":"03452","name":"Aurich","type":"Landkreis"},"federalState":{"key":"03","name":"Niedersachsen"}},{"name":"Zillestr.","postalCode":"26603","locality":"Aurich","municipality":{"key":"03452001","name":"Aurich, Stadt","type":"Stadt"},"district":{"key":"03452","name":"Aurich","type":"Landkreis"},"federalState":{"key":"03","name":"Niedersachsen"}},{"name":"Zingelstr.","postalCode":"26603","locality":"Aurich","municipality":{"key":"03452001","name":"Aurich, Stadt","type":"Stadt"},"district":{"key":"03452","name":"Aurich","type":"Landkreis"},"federalState":{"key":"03","name":"Niedersachsen"}},{"name":"Zu den Norderstücken","postalCode":"26607","locality":"Aurich","municipality":{"key":"03452001","name":"Aurich, Stadt","type":"Stadt"},"district":{"key":"03452","name":"Aurich","type":"Landkreis"},"federalState":{"key":"03","name":"Niedersachsen"}},{"name":"Zu den Südstücken","postalCode":"26607","locality":"Aurich","municipality":{"key":"03452001","name":"Aurich, Stadt","type":"Stadt"},"district":{"key":"03452","name":"Aurich","type":"Landkreis"},"federalState":{"key":"03","name":"Niedersachsen"}},{"name":"Zum Abelitzschloot","postalCode":"26607","locality":"Aurich","municipality":{"key":"03452001","name":"Aurich, Stadt","type":"Stadt"},"district":{"key":"03452","name":"Aurich","type":"Landkreis"},"federalState":{"key":"03","name":"Niedersachsen"}},{"name":"Zum Alten Moor","postalCode":"26605","locality":"Aurich","municipality":{"key":"03452001","name":"Aurich, Stadt","type":"Stadt"},"district":{"key":"03452","name":"Aurich","type":"Landkreis"},"federalState":{"key":"03","name":"Niedersachsen"}},{"name":"Zum Alten Postweg","postalCode":"26607","locality":"Aurich","municipality":{"key":"03452001","name":"Aurich, Stadt","type":"Stadt"},"district":{"key":"03452","name":"Aurich","type":"Landkreis"},"federalState":{"key":"03","name":"Niedersachsen"}},{"name":"Zum Antjebitt","postalCode":"26605","locality":"Aurich","municipality":{"key":"03452001","name":"Aurich, Stadt","type":"Stadt"},"district":{"key":"03452","name":"Aurich","type":"Landkreis"},"federalState":{"key":"03","name":"Niedersachsen"}},{"name":"Zum Fernsehturm","postalCode":"26605","locality":"Aurich","municipality":{"key":"03452001","name":"Aurich, Stadt","type":"Stadt"},"district":{"key":"03452","name":"Aurich","type":"Landkreis"},"federalState":{"key":"03","name":"Niedersachsen"}},{"name":"Zum Greenberger Kamp","postalCode":"26607","locality":"Aurich","municipality":{"key":"03452001","name":"Aurich, Stadt","type":"Stadt"},"district":{"key":"03452","name":"Aurich","type":"Landkreis"},"federalState":{"key":"03","name":"Niedersachsen"}},{"name":"Zum Großen Kamp","postalCode":"26605","locality":"Aurich","municipality":{"key":"03452001","name":"Aurich, Stadt","type":"Stadt"},"district":{"key":"03452","name":"Aurich","type":"Landkreis"},"federalState":{"key":"03","name":"Niedersachsen"}},{"name":"Zum Hasenholt","postalCode":"26607","locality":"Aurich","municipality":{"key":"03452001","name":"Aurich, Stadt","type":"Stadt"},"district":{"key":"03452","name":"Aurich","type":"Landkreis"},"federalState":{"key":"03","name":"Niedersachsen"}},{"name":"Zum Haxtumerfeld","postalCode":"26605","locality":"Aurich","municipality":{"key":"03452001","name":"Aurich, Stadt","type":"Stadt"},"district":{"key":"03452","name":"Aurich","type":"Landkreis"},"federalState":{"key":"03","name":"Niedersachsen"}},{"name":"Zum Herrenmoor","postalCode":"26605","locality":"Aurich","municipality":{"key":"03452001","name":"Aurich, Stadt","type":"Stadt"},"district":{"key":"03452","name":"Aurich","type":"Landkreis"},"federalState":{"key":"03","name":"Niedersachsen"}},{"name":"Zum Hufschmied","postalCode":"26605","locality":"Aurich","municipality":{"key":"03452001","name":"Aurich, Stadt","type":"Stadt"},"district":{"key":"03452","name":"Aurich","type":"Landkreis"},"federalState":{"key":"03","name":"Niedersachsen"}},{"name":"Zum Kanal","postalCode":"26605","locality":"Aurich","municipality":{"key":"03452001","name":"Aurich, Stadt","type":"Stadt"},"district":{"key":"03452","name":"Aurich","type":"Landkreis"},"federalState":{"key":"03","name":"Niedersachsen"}},{"name":"Zum Kiefmoor","postalCode":"26605","locality":"Aurich","municipality":{"key":"03452001","name":"Aurich, Stadt","type":"Stadt"},"district":{"key":"03452","name":"Aurich","type":"Landkreis"},"federalState":{"key":"03","name":"Niedersachsen"}},{"name":"Zum Mediskamp","postalCode":"26605","locality":"Aurich","municipality":{"key":"03452001","name":"Aurich, Stadt","type":"Stadt"},"district":{"key":"03452","name":"Aurich","type":"Landkreis"},"federalState":{"key":"03","name":"Niedersachsen"}},{"name":"Zum Schirumer Leegmoor","postalCode":"26605","locality":"Aurich","municipality":{"key":"03452001","name":"Aurich, Stadt","type":"Stadt"},"district":{"key":"03452","name":"Aurich","type":"Landkreis"},"federalState":{"key":"03","name":"Niedersachsen"}},{"name":"Zum Stroodebusch","postalCode":"26605","locality":"Aurich","municipality":{"key":"03452001","name":"Aurich, Stadt","type":"Stadt"},"district":{"key":"03452","name":"Aurich","type":"Landkreis"},"federalState":{"key":"03","name":"Niedersachsen"}},{"name":"Zum Theestück","postalCode":"26607","locality":"Aurich","municipality":{"key":"03452001","name":"Aurich, Stadt","type":"Stadt"},"district":{"key":"03452","name":"Aurich","type":"Landkreis"},"federalState":{"key":"03","name":"Niedersachsen"}},{"name":"Zur Eiche","postalCode":"26605","locality":"Aurich","municipality":{"key":"03452001","name":"Aurich, Stadt","type":"Stadt"},"district":{"key":"03452","name":"Aurich","type":"Landkreis"},"federalState":{"key":"03","name":"Niedersachsen"}},{"name":"Zur Goldensteinbrücke","postalCode":"26607","locality":"Aurich","municipality":{"key":"03452001","name":"Aurich, Stadt","type":"Stadt"},"district":{"key":"03452","name":"Aurich","type":"Landkreis"},"federalState":{"key":"03","name":"Niedersachsen"}},{"name":"Zur Kleinen Bleiche","postalCode":"26607","locality":"Aurich","municipality":{"key":"03452001","name":"Aurich, Stadt","type":"Stadt"},"district":{"key":"03452","name":"Aurich","type":"Landkreis"},"federalState":{"key":"03","name":"Niedersachsen"}},{"name":"Zur Linde","postalCode":"26605","locality":"Aurich","municipality":{"key":"03452001","name":"Aurich, Stadt","type":"Stadt"},"district":{"key":"03452","name":"Aurich","type":"Landkreis"},"federalState":{"key":"03","name":"Niedersachsen"}},]