[{"name":"Am Bahnhof","postalCode":"09648","locality":"Altmittweida","municipality":{"key":"14522010","name":"Altmittweida","type":"Kreisangehörige_Gemeinde"},"district":{"key":"14522","name":"Mittelsachsen","type":"Landkreis"},"federalState":{"key":"14","name":"Sachsen"}},{"name":"Am Reitplatz","postalCode":"09648","locality":"Altmittweida","municipality":{"key":"14522010","name":"Altmittweida","type":"Kreisangehörige_Gemeinde"},"district":{"key":"14522","name":"Mittelsachsen","type":"Landkreis"},"federalState":{"key":"14","name":"Sachsen"}},{"name":"Amselweg","postalCode":"09648","locality":"Altmittweida","municipality":{"key":"14522010","name":"Altmittweida","type":"Kreisangehörige_Gemeinde"},"district":{"key":"14522","name":"Mittelsachsen","type":"Landkreis"},"federalState":{"key":"14","name":"Sachsen"}},{"name":"An der Blumenaue","postalCode":"09648","locality":"Altmittweida","municipality":{"key":"14522010","name":"Altmittweida","type":"Kreisangehörige_Gemeinde"},"district":{"key":"14522","name":"Mittelsachsen","type":"Landkreis"},"federalState":{"key":"14","name":"Sachsen"}},{"name":"Asternweg","postalCode":"09648","locality":"Altmittweida","municipality":{"key":"14522010","name":"Altmittweida","type":"Kreisangehörige_Gemeinde"},"district":{"key":"14522","name":"Mittelsachsen","type":"Landkreis"},"federalState":{"key":"14","name":"Sachsen"}},{"name":"Badweg","postalCode":"09648","locality":"Altmittweida","municipality":{"key":"14522010","name":"Altmittweida","type":"Kreisangehörige_Gemeinde"},"district":{"key":"14522","name":"Mittelsachsen","type":"Landkreis"},"federalState":{"key":"14","name":"Sachsen"}},{"name":"Bahnhofstr.","postalCode":"09648","locality":"Altmittweida","municipality":{"key":"14522010","name":"Altmittweida","type":"Kreisangehörige_Gemeinde"},"district":{"key":"14522","name":"Mittelsachsen","type":"Landkreis"},"federalState":{"key":"14","name":"Sachsen"}},{"name":"Burgstädter Str.","postalCode":"09648","locality":"Altmittweida","municipality":{"key":"14522010","name":"Altmittweida","type":"Kreisangehörige_Gemeinde"},"district":{"key":"14522","name":"Mittelsachsen","type":"Landkreis"},"federalState":{"key":"14","name":"Sachsen"}},{"name":"Chemnitzer Str.","postalCode":"09648","locality":"Altmittweida","municipality":{"key":"14522010","name":"Altmittweida","type":"Kreisangehörige_Gemeinde"},"district":{"key":"14522","name":"Mittelsachsen","type":"Landkreis"},"federalState":{"key":"14","name":"Sachsen"}},{"name":"Clemens-Fritzsche-Str.","postalCode":"09648","locality":"Altmittweida","municipality":{"key":"14522010","name":"Altmittweida","type":"Kreisangehörige_Gemeinde"},"district":{"key":"14522","name":"Mittelsachsen","type":"Landkreis"},"federalState":{"key":"14","name":"Sachsen"}},{"name":"Dahlienweg","postalCode":"09648","locality":"Altmittweida","municipality":{"key":"14522010","name":"Altmittweida","type":"Kreisangehörige_Gemeinde"},"district":{"key":"14522","name":"Mittelsachsen","type":"Landkreis"},"federalState":{"key":"14","name":"Sachsen"}},{"name":"Dorfstr.","postalCode":"09648","locality":"Altmittweida","municipality":{"key":"14522010","name":"Altmittweida","type":"Kreisangehörige_Gemeinde"},"district":{"key":"14522","name":"Mittelsachsen","type":"Landkreis"},"federalState":{"key":"14","name":"Sachsen"}},{"name":"Erikaweg","postalCode":"09648","locality":"Altmittweida","municipality":{"key":"14522010","name":"Altmittweida","type":"Kreisangehörige_Gemeinde"},"district":{"key":"14522","name":"Mittelsachsen","type":"Landkreis"},"federalState":{"key":"14","name":"Sachsen"}},{"name":"Ferdinand-Möhler-Str.","postalCode":"09648","locality":"Altmittweida","municipality":{"key":"14522010","name":"Altmittweida","type":"Kreisangehörige_Gemeinde"},"district":{"key":"14522","name":"Mittelsachsen","type":"Landkreis"},"federalState":{"key":"14","name":"Sachsen"}},{"name":"Finkenweg","postalCode":"09648","locality":"Altmittweida","municipality":{"key":"14522010","name":"Altmittweida","type":"Kreisangehörige_Gemeinde"},"district":{"key":"14522","name":"Mittelsachsen","type":"Landkreis"},"federalState":{"key":"14","name":"Sachsen"}},{"name":"Fliederweg","postalCode":"09648","locality":"Altmittweida","municipality":{"key":"14522010","name":"Altmittweida","type":"Kreisangehörige_Gemeinde"},"district":{"key":"14522","name":"Mittelsachsen","type":"Landkreis"},"federalState":{"key":"14","name":"Sachsen"}},{"name":"Frankenauer Str.","postalCode":"09648","locality":"Altmittweida","municipality":{"key":"14522010","name":"Altmittweida","type":"Kreisangehörige_Gemeinde"},"district":{"key":"14522","name":"Mittelsachsen","type":"Landkreis"},"federalState":{"key":"14","name":"Sachsen"}},{"name":"Hauptstr.","postalCode":"09648","locality":"Altmittweida","municipality":{"key":"14522010","name":"Altmittweida","type":"Kreisangehörige_Gemeinde"},"district":{"key":"14522","name":"Mittelsachsen","type":"Landkreis"},"federalState":{"key":"14","name":"Sachsen"}},{"name":"Hermann-Küttner-Str.","postalCode":"09648","locality":"Altmittweida","municipality":{"key":"14522010","name":"Altmittweida","type":"Kreisangehörige_Gemeinde"},"district":{"key":"14522","name":"Mittelsachsen","type":"Landkreis"},"federalState":{"key":"14","name":"Sachsen"}},{"name":"Kirchstr.","postalCode":"09648","locality":"Altmittweida","municipality":{"key":"14522010","name":"Altmittweida","type":"Kreisangehörige_Gemeinde"},"district":{"key":"14522","name":"Mittelsachsen","type":"Landkreis"},"federalState":{"key":"14","name":"Sachsen"}},{"name":"Königshainer Weg","postalCode":"09648","locality":"Altmittweida","municipality":{"key":"14522010","name":"Altmittweida","type":"Kreisangehörige_Gemeinde"},"district":{"key":"14522","name":"Mittelsachsen","type":"Landkreis"},"federalState":{"key":"14","name":"Sachsen"}},{"name":"Krumbacher Weg","postalCode":"09648","locality":"Altmittweida","municipality":{"key":"14522010","name":"Altmittweida","type":"Kreisangehörige_Gemeinde"},"district":{"key":"14522","name":"Mittelsachsen","type":"Landkreis"},"federalState":{"key":"14","name":"Sachsen"}},{"name":"Kurze Str.","postalCode":"09648","locality":"Altmittweida","municipality":{"key":"14522010","name":"Altmittweida","type":"Kreisangehörige_Gemeinde"},"district":{"key":"14522","name":"Mittelsachsen","type":"Landkreis"},"federalState":{"key":"14","name":"Sachsen"}},{"name":"Lilienweg","postalCode":"09648","locality":"Altmittweida","municipality":{"key":"14522010","name":"Altmittweida","type":"Kreisangehörige_Gemeinde"},"district":{"key":"14522","name":"Mittelsachsen","type":"Landkreis"},"federalState":{"key":"14","name":"Sachsen"}},{"name":"Lindenstr.","postalCode":"09648","locality":"Altmittweida","municipality":{"key":"14522010","name":"Altmittweida","type":"Kreisangehörige_Gemeinde"},"district":{"key":"14522","name":"Mittelsachsen","type":"Landkreis"},"federalState":{"key":"14","name":"Sachsen"}},{"name":"Neusorger Str.","postalCode":"09648","locality":"Altmittweida","municipality":{"key":"14522010","name":"Altmittweida","type":"Kreisangehörige_Gemeinde"},"district":{"key":"14522","name":"Mittelsachsen","type":"Landkreis"},"federalState":{"key":"14","name":"Sachsen"}},{"name":"Obere Dorfstr.","postalCode":"09648","locality":"Altmittweida","municipality":{"key":"14522010","name":"Altmittweida","type":"Kreisangehörige_Gemeinde"},"district":{"key":"14522","name":"Mittelsachsen","type":"Landkreis"},"federalState":{"key":"14","name":"Sachsen"}},{"name":"Parkstr.","postalCode":"09648","locality":"Altmittweida","municipality":{"key":"14522010","name":"Altmittweida","type":"Kreisangehörige_Gemeinde"},"district":{"key":"14522","name":"Mittelsachsen","type":"Landkreis"},"federalState":{"key":"14","name":"Sachsen"}},{"name":"Querstr.","postalCode":"09648","locality":"Altmittweida","municipality":{"key":"14522010","name":"Altmittweida","type":"Kreisangehörige_Gemeinde"},"district":{"key":"14522","name":"Mittelsachsen","type":"Landkreis"},"federalState":{"key":"14","name":"Sachsen"}},{"name":"Röllingshainer Weg","postalCode":"09648","locality":"Altmittweida","municipality":{"key":"14522010","name":"Altmittweida","type":"Kreisangehörige_Gemeinde"},"district":{"key":"14522","name":"Mittelsachsen","type":"Landkreis"},"federalState":{"key":"14","name":"Sachsen"}},{"name":"Rosenweg","postalCode":"09648","locality":"Altmittweida","municipality":{"key":"14522010","name":"Altmittweida","type":"Kreisangehörige_Gemeinde"},"district":{"key":"14522","name":"Mittelsachsen","type":"Landkreis"},"federalState":{"key":"14","name":"Sachsen"}},{"name":"Schulstr.","postalCode":"09648","locality":"Altmittweida","municipality":{"key":"14522010","name":"Altmittweida","type":"Kreisangehörige_Gemeinde"},"district":{"key":"14522","name":"Mittelsachsen","type":"Landkreis"},"federalState":{"key":"14","name":"Sachsen"}},{"name":"Siedlung","postalCode":"09648","locality":"Altmittweida","municipality":{"key":"14522010","name":"Altmittweida","type":"Kreisangehörige_Gemeinde"},"district":{"key":"14522","name":"Mittelsachsen","type":"Landkreis"},"federalState":{"key":"14","name":"Sachsen"}},{"name":"Tulpenweg","postalCode":"09648","locality":"Altmittweida","municipality":{"key":"14522010","name":"Altmittweida","type":"Kreisangehörige_Gemeinde"},"district":{"key":"14522","name":"Mittelsachsen","type":"Landkreis"},"federalState":{"key":"14","name":"Sachsen"}},{"name":"Vogelsweg","postalCode":"09648","locality":"Altmittweida","municipality":{"key":"14522010","name":"Altmittweida","type":"Kreisangehörige_Gemeinde"},"district":{"key":"14522","name":"Mittelsachsen","type":"Landkreis"},"federalState":{"key":"14","name":"Sachsen"}},{"name":"Wasserwerksweg","postalCode":"09648","locality":"Altmittweida","municipality":{"key":"14522010","name":"Altmittweida","type":"Kreisangehörige_Gemeinde"},"district":{"key":"14522","name":"Mittelsachsen","type":"Landkreis"},"federalState":{"key":"14","name":"Sachsen"}},]