[{"name":"Ahornweg","postalCode":"56814","locality":"Bruttig-Fankel","municipality":{"key":"07135017","name":"Bruttig-Fankel","type":"Kreisangehörige_Gemeinde"},"district":{"key":"07135","name":"Cochem-Zell","type":"Landkreis"},"federalState":{"key":"07","name":"Rheinland-Pfalz"}},{"name":"Alte Römerstr.","postalCode":"56814","locality":"Bruttig-Fankel","municipality":{"key":"07135017","name":"Bruttig-Fankel","type":"Kreisangehörige_Gemeinde"},"district":{"key":"07135","name":"Cochem-Zell","type":"Landkreis"},"federalState":{"key":"07","name":"Rheinland-Pfalz"}},{"name":"Am alten Spritzenhaus","postalCode":"56814","locality":"Bruttig-Fankel","municipality":{"key":"07135017","name":"Bruttig-Fankel","type":"Kreisangehörige_Gemeinde"},"district":{"key":"07135","name":"Cochem-Zell","type":"Landkreis"},"federalState":{"key":"07","name":"Rheinland-Pfalz"}},{"name":"Am Moselufer","postalCode":"56814","locality":"Bruttig-Fankel","municipality":{"key":"07135017","name":"Bruttig-Fankel","type":"Kreisangehörige_Gemeinde"},"district":{"key":"07135","name":"Cochem-Zell","type":"Landkreis"},"federalState":{"key":"07","name":"Rheinland-Pfalz"}},{"name":"An der Kegelbahn","postalCode":"56814","locality":"Bruttig-Fankel","municipality":{"key":"07135017","name":"Bruttig-Fankel","type":"Kreisangehörige_Gemeinde"},"district":{"key":"07135","name":"Cochem-Zell","type":"Landkreis"},"federalState":{"key":"07","name":"Rheinland-Pfalz"}},{"name":"Bachstr.","postalCode":"56814","locality":"Bruttig-Fankel","municipality":{"key":"07135017","name":"Bruttig-Fankel","type":"Kreisangehörige_Gemeinde"},"district":{"key":"07135","name":"Cochem-Zell","type":"Landkreis"},"federalState":{"key":"07","name":"Rheinland-Pfalz"}},{"name":"Bergstr.","postalCode":"56814","locality":"Bruttig-Fankel","municipality":{"key":"07135017","name":"Bruttig-Fankel","type":"Kreisangehörige_Gemeinde"},"district":{"key":"07135","name":"Cochem-Zell","type":"Landkreis"},"federalState":{"key":"07","name":"Rheinland-Pfalz"}},{"name":"Birkenweg","postalCode":"56814","locality":"Bruttig-Fankel","municipality":{"key":"07135017","name":"Bruttig-Fankel","type":"Kreisangehörige_Gemeinde"},"district":{"key":"07135","name":"Cochem-Zell","type":"Landkreis"},"federalState":{"key":"07","name":"Rheinland-Pfalz"}},{"name":"Brunnenstr.","postalCode":"56814","locality":"Bruttig-Fankel","municipality":{"key":"07135017","name":"Bruttig-Fankel","type":"Kreisangehörige_Gemeinde"},"district":{"key":"07135","name":"Cochem-Zell","type":"Landkreis"},"federalState":{"key":"07","name":"Rheinland-Pfalz"}},{"name":"Buchenweg","postalCode":"56814","locality":"Bruttig-Fankel","municipality":{"key":"07135017","name":"Bruttig-Fankel","type":"Kreisangehörige_Gemeinde"},"district":{"key":"07135","name":"Cochem-Zell","type":"Landkreis"},"federalState":{"key":"07","name":"Rheinland-Pfalz"}},{"name":"Christophorusweg","postalCode":"56814","locality":"Bruttig-Fankel","municipality":{"key":"07135017","name":"Bruttig-Fankel","type":"Kreisangehörige_Gemeinde"},"district":{"key":"07135","name":"Cochem-Zell","type":"Landkreis"},"federalState":{"key":"07","name":"Rheinland-Pfalz"}},{"name":"Erlenweg","postalCode":"56814","locality":"Bruttig-Fankel","municipality":{"key":"07135017","name":"Bruttig-Fankel","type":"Kreisangehörige_Gemeinde"},"district":{"key":"07135","name":"Cochem-Zell","type":"Landkreis"},"federalState":{"key":"07","name":"Rheinland-Pfalz"}},{"name":"Fausenburg","postalCode":"56814","locality":"Bruttig-Fankel","municipality":{"key":"07135017","name":"Bruttig-Fankel","type":"Kreisangehörige_Gemeinde"},"district":{"key":"07135","name":"Cochem-Zell","type":"Landkreis"},"federalState":{"key":"07","name":"Rheinland-Pfalz"}},{"name":"Fliederweg","postalCode":"56814","locality":"Bruttig-Fankel","municipality":{"key":"07135017","name":"Bruttig-Fankel","type":"Kreisangehörige_Gemeinde"},"district":{"key":"07135","name":"Cochem-Zell","type":"Landkreis"},"federalState":{"key":"07","name":"Rheinland-Pfalz"}},{"name":"Gartenstr.","postalCode":"56814","locality":"Bruttig-Fankel","municipality":{"key":"07135017","name":"Bruttig-Fankel","type":"Kreisangehörige_Gemeinde"},"district":{"key":"07135","name":"Cochem-Zell","type":"Landkreis"},"federalState":{"key":"07","name":"Rheinland-Pfalz"}},{"name":"Gobeliusstr.","postalCode":"56814","locality":"Bruttig-Fankel","municipality":{"key":"07135017","name":"Bruttig-Fankel","type":"Kreisangehörige_Gemeinde"},"district":{"key":"07135","name":"Cochem-Zell","type":"Landkreis"},"federalState":{"key":"07","name":"Rheinland-Pfalz"}},{"name":"Hauptstr.","postalCode":"56814","locality":"Bruttig-Fankel","municipality":{"key":"07135017","name":"Bruttig-Fankel","type":"Kreisangehörige_Gemeinde"},"district":{"key":"07135","name":"Cochem-Zell","type":"Landkreis"},"federalState":{"key":"07","name":"Rheinland-Pfalz"}},{"name":"Herrenstr.","postalCode":"56814","locality":"Bruttig-Fankel","municipality":{"key":"07135017","name":"Bruttig-Fankel","type":"Kreisangehörige_Gemeinde"},"district":{"key":"07135","name":"Cochem-Zell","type":"Landkreis"},"federalState":{"key":"07","name":"Rheinland-Pfalz"}},{"name":"Himpfenstr.","postalCode":"56814","locality":"Bruttig-Fankel","municipality":{"key":"07135017","name":"Bruttig-Fankel","type":"Kreisangehörige_Gemeinde"},"district":{"key":"07135","name":"Cochem-Zell","type":"Landkreis"},"federalState":{"key":"07","name":"Rheinland-Pfalz"}},{"name":"Im Bautel","postalCode":"56814","locality":"Bruttig-Fankel","municipality":{"key":"07135017","name":"Bruttig-Fankel","type":"Kreisangehörige_Gemeinde"},"district":{"key":"07135","name":"Cochem-Zell","type":"Landkreis"},"federalState":{"key":"07","name":"Rheinland-Pfalz"}},{"name":"Im Bungert","postalCode":"56814","locality":"Bruttig-Fankel","municipality":{"key":"07135017","name":"Bruttig-Fankel","type":"Kreisangehörige_Gemeinde"},"district":{"key":"07135","name":"Cochem-Zell","type":"Landkreis"},"federalState":{"key":"07","name":"Rheinland-Pfalz"}},{"name":"Im Gässchen","postalCode":"56814","locality":"Bruttig-Fankel","municipality":{"key":"07135017","name":"Bruttig-Fankel","type":"Kreisangehörige_Gemeinde"},"district":{"key":"07135","name":"Cochem-Zell","type":"Landkreis"},"federalState":{"key":"07","name":"Rheinland-Pfalz"}},{"name":"Im Hornacker","postalCode":"56814","locality":"Bruttig-Fankel","municipality":{"key":"07135017","name":"Bruttig-Fankel","type":"Kreisangehörige_Gemeinde"},"district":{"key":"07135","name":"Cochem-Zell","type":"Landkreis"},"federalState":{"key":"07","name":"Rheinland-Pfalz"}},{"name":"In der Mark","postalCode":"56814","locality":"Bruttig-Fankel","municipality":{"key":"07135017","name":"Bruttig-Fankel","type":"Kreisangehörige_Gemeinde"},"district":{"key":"07135","name":"Cochem-Zell","type":"Landkreis"},"federalState":{"key":"07","name":"Rheinland-Pfalz"}},{"name":"Kirchstr.","postalCode":"56814","locality":"Bruttig-Fankel","municipality":{"key":"07135017","name":"Bruttig-Fankel","type":"Kreisangehörige_Gemeinde"},"district":{"key":"07135","name":"Cochem-Zell","type":"Landkreis"},"federalState":{"key":"07","name":"Rheinland-Pfalz"}},{"name":"Klosterstr.","postalCode":"56814","locality":"Bruttig-Fankel","municipality":{"key":"07135017","name":"Bruttig-Fankel","type":"Kreisangehörige_Gemeinde"},"district":{"key":"07135","name":"Cochem-Zell","type":"Landkreis"},"federalState":{"key":"07","name":"Rheinland-Pfalz"}},{"name":"Moselhöhenweg","postalCode":"56814","locality":"Bruttig-Fankel","municipality":{"key":"07135017","name":"Bruttig-Fankel","type":"Kreisangehörige_Gemeinde"},"district":{"key":"07135","name":"Cochem-Zell","type":"Landkreis"},"federalState":{"key":"07","name":"Rheinland-Pfalz"}},{"name":"Moselstr.","postalCode":"56814","locality":"Bruttig-Fankel","municipality":{"key":"07135017","name":"Bruttig-Fankel","type":"Kreisangehörige_Gemeinde"},"district":{"key":"07135","name":"Cochem-Zell","type":"Landkreis"},"federalState":{"key":"07","name":"Rheinland-Pfalz"}},{"name":"Mühlenbachstr.","postalCode":"56814","locality":"Bruttig-Fankel","municipality":{"key":"07135017","name":"Bruttig-Fankel","type":"Kreisangehörige_Gemeinde"},"district":{"key":"07135","name":"Cochem-Zell","type":"Landkreis"},"federalState":{"key":"07","name":"Rheinland-Pfalz"}},{"name":"Nikolausstr.","postalCode":"56814","locality":"Bruttig-Fankel","municipality":{"key":"07135017","name":"Bruttig-Fankel","type":"Kreisangehörige_Gemeinde"},"district":{"key":"07135","name":"Cochem-Zell","type":"Landkreis"},"federalState":{"key":"07","name":"Rheinland-Pfalz"}},{"name":"Peter-Altmeier-Brücke","postalCode":"56814","locality":"Bruttig-Fankel","municipality":{"key":"07135017","name":"Bruttig-Fankel","type":"Kreisangehörige_Gemeinde"},"district":{"key":"07135","name":"Cochem-Zell","type":"Landkreis"},"federalState":{"key":"07","name":"Rheinland-Pfalz"}},{"name":"Petrus-Mosellanus-Str.","postalCode":"56814","locality":"Bruttig-Fankel","municipality":{"key":"07135017","name":"Bruttig-Fankel","type":"Kreisangehörige_Gemeinde"},"district":{"key":"07135","name":"Cochem-Zell","type":"Landkreis"},"federalState":{"key":"07","name":"Rheinland-Pfalz"}},{"name":"Poststr.","postalCode":"56814","locality":"Bruttig-Fankel","municipality":{"key":"07135017","name":"Bruttig-Fankel","type":"Kreisangehörige_Gemeinde"},"district":{"key":"07135","name":"Cochem-Zell","type":"Landkreis"},"federalState":{"key":"07","name":"Rheinland-Pfalz"}},{"name":"Rathausstr.","postalCode":"56814","locality":"Bruttig-Fankel","municipality":{"key":"07135017","name":"Bruttig-Fankel","type":"Kreisangehörige_Gemeinde"},"district":{"key":"07135","name":"Cochem-Zell","type":"Landkreis"},"federalState":{"key":"07","name":"Rheinland-Pfalz"}},{"name":"Rosenweg","postalCode":"56814","locality":"Bruttig-Fankel","municipality":{"key":"07135017","name":"Bruttig-Fankel","type":"Kreisangehörige_Gemeinde"},"district":{"key":"07135","name":"Cochem-Zell","type":"Landkreis"},"federalState":{"key":"07","name":"Rheinland-Pfalz"}},{"name":"Schulstr.","postalCode":"56814","locality":"Bruttig-Fankel","municipality":{"key":"07135017","name":"Bruttig-Fankel","type":"Kreisangehörige_Gemeinde"},"district":{"key":"07135","name":"Cochem-Zell","type":"Landkreis"},"federalState":{"key":"07","name":"Rheinland-Pfalz"}},{"name":"Schunk'sche Str.","postalCode":"56814","locality":"Bruttig-Fankel","municipality":{"key":"07135017","name":"Bruttig-Fankel","type":"Kreisangehörige_Gemeinde"},"district":{"key":"07135","name":"Cochem-Zell","type":"Landkreis"},"federalState":{"key":"07","name":"Rheinland-Pfalz"}},{"name":"Tannenweg","postalCode":"56814","locality":"Bruttig-Fankel","municipality":{"key":"07135017","name":"Bruttig-Fankel","type":"Kreisangehörige_Gemeinde"},"district":{"key":"07135","name":"Cochem-Zell","type":"Landkreis"},"federalState":{"key":"07","name":"Rheinland-Pfalz"}},{"name":"Töllenweg","postalCode":"56814","locality":"Bruttig-Fankel","municipality":{"key":"07135017","name":"Bruttig-Fankel","type":"Kreisangehörige_Gemeinde"},"district":{"key":"07135","name":"Cochem-Zell","type":"Landkreis"},"federalState":{"key":"07","name":"Rheinland-Pfalz"}},{"name":"Weingartenstr.","postalCode":"56814","locality":"Bruttig-Fankel","municipality":{"key":"07135017","name":"Bruttig-Fankel","type":"Kreisangehörige_Gemeinde"},"district":{"key":"07135","name":"Cochem-Zell","type":"Landkreis"},"federalState":{"key":"07","name":"Rheinland-Pfalz"}},{"name":"Zehnthausweg","postalCode":"56814","locality":"Bruttig-Fankel","municipality":{"key":"07135017","name":"Bruttig-Fankel","type":"Kreisangehörige_Gemeinde"},"district":{"key":"07135","name":"Cochem-Zell","type":"Landkreis"},"federalState":{"key":"07","name":"Rheinland-Pfalz"}},]