[{"name":"Akazienweg","postalCode":"18198","locality":"Kritzmow","municipality":{"key":"13072057","name":"Kritzmow","type":"Kreisangehörige_Gemeinde"},"district":{"key":"13072","name":"Landkreis Rostock","type":"Landkreis"},"federalState":{"key":"13","name":"Mecklenburg-Vorpommern"}},{"name":"Am Anger","postalCode":"18198","locality":"Kritzmow","municipality":{"key":"13072057","name":"Kritzmow","type":"Kreisangehörige_Gemeinde"},"district":{"key":"13072","name":"Landkreis Rostock","type":"Landkreis"},"federalState":{"key":"13","name":"Mecklenburg-Vorpommern"}},{"name":"Am Bauernteich","postalCode":"18198","locality":"Kritzmow","municipality":{"key":"13072057","name":"Kritzmow","type":"Kreisangehörige_Gemeinde"},"district":{"key":"13072","name":"Landkreis Rostock","type":"Landkreis"},"federalState":{"key":"13","name":"Mecklenburg-Vorpommern"}},{"name":"Am Karauschensoll","postalCode":"18198","locality":"Kritzmow","municipality":{"key":"13072057","name":"Kritzmow","type":"Kreisangehörige_Gemeinde"},"district":{"key":"13072","name":"Landkreis Rostock","type":"Landkreis"},"federalState":{"key":"13","name":"Mecklenburg-Vorpommern"}},{"name":"Am Pferdeteich","postalCode":"18198","locality":"Kritzmow","municipality":{"key":"13072057","name":"Kritzmow","type":"Kreisangehörige_Gemeinde"},"district":{"key":"13072","name":"Landkreis Rostock","type":"Landkreis"},"federalState":{"key":"13","name":"Mecklenburg-Vorpommern"}},{"name":"Am Pingelsteich","postalCode":"18198","locality":"Kritzmow","municipality":{"key":"13072057","name":"Kritzmow","type":"Kreisangehörige_Gemeinde"},"district":{"key":"13072","name":"Landkreis Rostock","type":"Landkreis"},"federalState":{"key":"13","name":"Mecklenburg-Vorpommern"}},{"name":"Amselweg","postalCode":"18198","locality":"Kritzmow","municipality":{"key":"13072057","name":"Kritzmow","type":"Kreisangehörige_Gemeinde"},"district":{"key":"13072","name":"Landkreis Rostock","type":"Landkreis"},"federalState":{"key":"13","name":"Mecklenburg-Vorpommern"}},{"name":"Am Wald","postalCode":"18198","locality":"Kritzmow","municipality":{"key":"13072057","name":"Kritzmow","type":"Kreisangehörige_Gemeinde"},"district":{"key":"13072","name":"Landkreis Rostock","type":"Landkreis"},"federalState":{"key":"13","name":"Mecklenburg-Vorpommern"}},{"name":"Am Wall","postalCode":"18198","locality":"Kritzmow","municipality":{"key":"13072057","name":"Kritzmow","type":"Kreisangehörige_Gemeinde"},"district":{"key":"13072","name":"Landkreis Rostock","type":"Landkreis"},"federalState":{"key":"13","name":"Mecklenburg-Vorpommern"}},{"name":"Am Weitenmoor","postalCode":"18198","locality":"Kritzmow","municipality":{"key":"13072057","name":"Kritzmow","type":"Kreisangehörige_Gemeinde"},"district":{"key":"13072","name":"Landkreis Rostock","type":"Landkreis"},"federalState":{"key":"13","name":"Mecklenburg-Vorpommern"}},{"name":"Am Wiesenrain","postalCode":"18198","locality":"Kritzmow","municipality":{"key":"13072057","name":"Kritzmow","type":"Kreisangehörige_Gemeinde"},"district":{"key":"13072","name":"Landkreis Rostock","type":"Landkreis"},"federalState":{"key":"13","name":"Mecklenburg-Vorpommern"}},{"name":"Am Windhügel","postalCode":"18198","locality":"Kritzmow","municipality":{"key":"13072057","name":"Kritzmow","type":"Kreisangehörige_Gemeinde"},"district":{"key":"13072","name":"Landkreis Rostock","type":"Landkreis"},"federalState":{"key":"13","name":"Mecklenburg-Vorpommern"}},{"name":"An der Molkerei","postalCode":"18198","locality":"Kritzmow","municipality":{"key":"13072057","name":"Kritzmow","type":"Kreisangehörige_Gemeinde"},"district":{"key":"13072","name":"Landkreis Rostock","type":"Landkreis"},"federalState":{"key":"13","name":"Mecklenburg-Vorpommern"}},{"name":"Bahnhofstr.","postalCode":"18198","locality":"Kritzmow","municipality":{"key":"13072057","name":"Kritzmow","type":"Kreisangehörige_Gemeinde"},"district":{"key":"13072","name":"Landkreis Rostock","type":"Landkreis"},"federalState":{"key":"13","name":"Mecklenburg-Vorpommern"}},{"name":"Barnstorfer Str.","postalCode":"18198","locality":"Kritzmow","municipality":{"key":"13072057","name":"Kritzmow","type":"Kreisangehörige_Gemeinde"},"district":{"key":"13072","name":"Landkreis Rostock","type":"Landkreis"},"federalState":{"key":"13","name":"Mecklenburg-Vorpommern"}},{"name":"Biestow-Ausbau","postalCode":"18198","locality":"Kritzmow","municipality":{"key":"13072057","name":"Kritzmow","type":"Kreisangehörige_Gemeinde"},"district":{"key":"13072","name":"Landkreis Rostock","type":"Landkreis"},"federalState":{"key":"13","name":"Mecklenburg-Vorpommern"}},{"name":"Biestower Weg","postalCode":"18198","locality":"Kritzmow","municipality":{"key":"13072057","name":"Kritzmow","type":"Kreisangehörige_Gemeinde"},"district":{"key":"13072","name":"Landkreis Rostock","type":"Landkreis"},"federalState":{"key":"13","name":"Mecklenburg-Vorpommern"}},{"name":"Buchenweg","postalCode":"18198","locality":"Kritzmow","municipality":{"key":"13072057","name":"Kritzmow","type":"Kreisangehörige_Gemeinde"},"district":{"key":"13072","name":"Landkreis Rostock","type":"Landkreis"},"federalState":{"key":"13","name":"Mecklenburg-Vorpommern"}},{"name":"Drosselweg","postalCode":"18198","locality":"Kritzmow","municipality":{"key":"13072057","name":"Kritzmow","type":"Kreisangehörige_Gemeinde"},"district":{"key":"13072","name":"Landkreis Rostock","type":"Landkreis"},"federalState":{"key":"13","name":"Mecklenburg-Vorpommern"}},{"name":"Erlenweg","postalCode":"18198","locality":"Kritzmow","municipality":{"key":"13072057","name":"Kritzmow","type":"Kreisangehörige_Gemeinde"},"district":{"key":"13072","name":"Landkreis Rostock","type":"Landkreis"},"federalState":{"key":"13","name":"Mecklenburg-Vorpommern"}},{"name":"Finkenweg","postalCode":"18198","locality":"Kritzmow","municipality":{"key":"13072057","name":"Kritzmow","type":"Kreisangehörige_Gemeinde"},"district":{"key":"13072","name":"Landkreis Rostock","type":"Landkreis"},"federalState":{"key":"13","name":"Mecklenburg-Vorpommern"}},{"name":"Forellenweg","postalCode":"18198","locality":"Kritzmow","municipality":{"key":"13072057","name":"Kritzmow","type":"Kreisangehörige_Gemeinde"},"district":{"key":"13072","name":"Landkreis Rostock","type":"Landkreis"},"federalState":{"key":"13","name":"Mecklenburg-Vorpommern"}},{"name":"Frauenfarnweg","postalCode":"18198","locality":"Kritzmow","municipality":{"key":"13072057","name":"Kritzmow","type":"Kreisangehörige_Gemeinde"},"district":{"key":"13072","name":"Landkreis Rostock","type":"Landkreis"},"federalState":{"key":"13","name":"Mecklenburg-Vorpommern"}},{"name":"Fuchsweg","postalCode":"18198","locality":"Kritzmow","municipality":{"key":"13072057","name":"Kritzmow","type":"Kreisangehörige_Gemeinde"},"district":{"key":"13072","name":"Landkreis Rostock","type":"Landkreis"},"federalState":{"key":"13","name":"Mecklenburg-Vorpommern"}},{"name":"Gartenanlage An der Festwiese","postalCode":"18198","locality":"Kritzmow","municipality":{"key":"13072057","name":"Kritzmow","type":"Kreisangehörige_Gemeinde"},"district":{"key":"13072","name":"Landkreis Rostock","type":"Landkreis"},"federalState":{"key":"13","name":"Mecklenburg-Vorpommern"}},{"name":"Grasmückenweg","postalCode":"18198","locality":"Kritzmow","municipality":{"key":"13072057","name":"Kritzmow","type":"Kreisangehörige_Gemeinde"},"district":{"key":"13072","name":"Landkreis Rostock","type":"Landkreis"},"federalState":{"key":"13","name":"Mecklenburg-Vorpommern"}},{"name":"Hechtgraben","postalCode":"18198","locality":"Kritzmow","municipality":{"key":"13072057","name":"Kritzmow","type":"Kreisangehörige_Gemeinde"},"district":{"key":"13072","name":"Landkreis Rostock","type":"Landkreis"},"federalState":{"key":"13","name":"Mecklenburg-Vorpommern"}},{"name":"Heckenweg","postalCode":"18198","locality":"Kritzmow","municipality":{"key":"13072057","name":"Kritzmow","type":"Kreisangehörige_Gemeinde"},"district":{"key":"13072","name":"Landkreis Rostock","type":"Landkreis"},"federalState":{"key":"13","name":"Mecklenburg-Vorpommern"}},{"name":"Heideweg","postalCode":"18198","locality":"Kritzmow","municipality":{"key":"13072057","name":"Kritzmow","type":"Kreisangehörige_Gemeinde"},"district":{"key":"13072","name":"Landkreis Rostock","type":"Landkreis"},"federalState":{"key":"13","name":"Mecklenburg-Vorpommern"}},{"name":"Hohen Stein","postalCode":"18198","locality":"Kritzmow","municipality":{"key":"13072057","name":"Kritzmow","type":"Kreisangehörige_Gemeinde"},"district":{"key":"13072","name":"Landkreis Rostock","type":"Landkreis"},"federalState":{"key":"13","name":"Mecklenburg-Vorpommern"}},{"name":"Karpfenweg","postalCode":"18198","locality":"Kritzmow","municipality":{"key":"13072057","name":"Kritzmow","type":"Kreisangehörige_Gemeinde"},"district":{"key":"13072","name":"Landkreis Rostock","type":"Landkreis"},"federalState":{"key":"13","name":"Mecklenburg-Vorpommern"}},{"name":"Kiefernweg","postalCode":"18198","locality":"Kritzmow","municipality":{"key":"13072057","name":"Kritzmow","type":"Kreisangehörige_Gemeinde"},"district":{"key":"13072","name":"Landkreis Rostock","type":"Landkreis"},"federalState":{"key":"13","name":"Mecklenburg-Vorpommern"}},{"name":"Klein Schwaßer Weg","postalCode":"18198","locality":"Kritzmow","municipality":{"key":"13072057","name":"Kritzmow","type":"Kreisangehörige_Gemeinde"},"district":{"key":"13072","name":"Landkreis Rostock","type":"Landkreis"},"federalState":{"key":"13","name":"Mecklenburg-Vorpommern"}},{"name":"Königsfarnweg","postalCode":"18198","locality":"Kritzmow","municipality":{"key":"13072057","name":"Kritzmow","type":"Kreisangehörige_Gemeinde"},"district":{"key":"13072","name":"Landkreis Rostock","type":"Landkreis"},"federalState":{"key":"13","name":"Mecklenburg-Vorpommern"}},{"name":"Kritzmower Str.","postalCode":"18198","locality":"Kritzmow","municipality":{"key":"13072057","name":"Kritzmow","type":"Kreisangehörige_Gemeinde"},"district":{"key":"13072","name":"Landkreis Rostock","type":"Landkreis"},"federalState":{"key":"13","name":"Mecklenburg-Vorpommern"}},{"name":"Kritzmower Weg","postalCode":"18198","locality":"Kritzmow","municipality":{"key":"13072057","name":"Kritzmow","type":"Kreisangehörige_Gemeinde"},"district":{"key":"13072","name":"Landkreis Rostock","type":"Landkreis"},"federalState":{"key":"13","name":"Mecklenburg-Vorpommern"}},{"name":"Lambrechtshäger Weg","postalCode":"18198","locality":"Kritzmow","municipality":{"key":"13072057","name":"Kritzmow","type":"Kreisangehörige_Gemeinde"},"district":{"key":"13072","name":"Landkreis Rostock","type":"Landkreis"},"federalState":{"key":"13","name":"Mecklenburg-Vorpommern"}},{"name":"Lerchenkamp","postalCode":"18198","locality":"Kritzmow","municipality":{"key":"13072057","name":"Kritzmow","type":"Kreisangehörige_Gemeinde"},"district":{"key":"13072","name":"Landkreis Rostock","type":"Landkreis"},"federalState":{"key":"13","name":"Mecklenburg-Vorpommern"}},{"name":"Meisenweg","postalCode":"18198","locality":"Kritzmow","municipality":{"key":"13072057","name":"Kritzmow","type":"Kreisangehörige_Gemeinde"},"district":{"key":"13072","name":"Landkreis Rostock","type":"Landkreis"},"federalState":{"key":"13","name":"Mecklenburg-Vorpommern"}},{"name":"Mühlenbergweg","postalCode":"18198","locality":"Kritzmow","municipality":{"key":"13072057","name":"Kritzmow","type":"Kreisangehörige_Gemeinde"},"district":{"key":"13072","name":"Landkreis Rostock","type":"Landkreis"},"federalState":{"key":"13","name":"Mecklenburg-Vorpommern"}},{"name":"Parkentiner Str.","postalCode":"18198","locality":"Kritzmow","municipality":{"key":"13072057","name":"Kritzmow","type":"Kreisangehörige_Gemeinde"},"district":{"key":"13072","name":"Landkreis Rostock","type":"Landkreis"},"federalState":{"key":"13","name":"Mecklenburg-Vorpommern"}},{"name":"Pfeifengrasweg","postalCode":"18198","locality":"Kritzmow","municipality":{"key":"13072057","name":"Kritzmow","type":"Kreisangehörige_Gemeinde"},"district":{"key":"13072","name":"Landkreis Rostock","type":"Landkreis"},"federalState":{"key":"13","name":"Mecklenburg-Vorpommern"}},{"name":"Rostocker Str.","postalCode":"18198","locality":"Kritzmow","municipality":{"key":"13072057","name":"Kritzmow","type":"Kreisangehörige_Gemeinde"},"district":{"key":"13072","name":"Landkreis Rostock","type":"Landkreis"},"federalState":{"key":"13","name":"Mecklenburg-Vorpommern"}},{"name":"Satower Str.","postalCode":"18198","locality":"Kritzmow","municipality":{"key":"13072057","name":"Kritzmow","type":"Kreisangehörige_Gemeinde"},"district":{"key":"13072","name":"Landkreis Rostock","type":"Landkreis"},"federalState":{"key":"13","name":"Mecklenburg-Vorpommern"}},{"name":"Schlüsselblumenweg","postalCode":"18198","locality":"Kritzmow","municipality":{"key":"13072057","name":"Kritzmow","type":"Kreisangehörige_Gemeinde"},"district":{"key":"13072","name":"Landkreis Rostock","type":"Landkreis"},"federalState":{"key":"13","name":"Mecklenburg-Vorpommern"}},{"name":"Schulweg","postalCode":"18198","locality":"Kritzmow","municipality":{"key":"13072057","name":"Kritzmow","type":"Kreisangehörige_Gemeinde"},"district":{"key":"13072","name":"Landkreis Rostock","type":"Landkreis"},"federalState":{"key":"13","name":"Mecklenburg-Vorpommern"}},{"name":"Schwalbennest","postalCode":"18198","locality":"Kritzmow","municipality":{"key":"13072057","name":"Kritzmow","type":"Kreisangehörige_Gemeinde"},"district":{"key":"13072","name":"Landkreis Rostock","type":"Landkreis"},"federalState":{"key":"13","name":"Mecklenburg-Vorpommern"}},{"name":"Schwarzerlenweg","postalCode":"18198","locality":"Kritzmow","municipality":{"key":"13072057","name":"Kritzmow","type":"Kreisangehörige_Gemeinde"},"district":{"key":"13072","name":"Landkreis Rostock","type":"Landkreis"},"federalState":{"key":"13","name":"Mecklenburg-Vorpommern"}},{"name":"Schwertlilienweg","postalCode":"18198","locality":"Kritzmow","municipality":{"key":"13072057","name":"Kritzmow","type":"Kreisangehörige_Gemeinde"},"district":{"key":"13072","name":"Landkreis Rostock","type":"Landkreis"},"federalState":{"key":"13","name":"Mecklenburg-Vorpommern"}},{"name":"Seggenweg","postalCode":"18198","locality":"Kritzmow","municipality":{"key":"13072057","name":"Kritzmow","type":"Kreisangehörige_Gemeinde"},"district":{"key":"13072","name":"Landkreis Rostock","type":"Landkreis"},"federalState":{"key":"13","name":"Mecklenburg-Vorpommern"}},{"name":"Siebensternweg","postalCode":"18198","locality":"Kritzmow","municipality":{"key":"13072057","name":"Kritzmow","type":"Kreisangehörige_Gemeinde"},"district":{"key":"13072","name":"Landkreis Rostock","type":"Landkreis"},"federalState":{"key":"13","name":"Mecklenburg-Vorpommern"}},{"name":"Stichlingsweg","postalCode":"18198","locality":"Kritzmow","municipality":{"key":"13072057","name":"Kritzmow","type":"Kreisangehörige_Gemeinde"},"district":{"key":"13072","name":"Landkreis Rostock","type":"Landkreis"},"federalState":{"key":"13","name":"Mecklenburg-Vorpommern"}},{"name":"Wilsener Str.","postalCode":"18198","locality":"Kritzmow","municipality":{"key":"13072057","name":"Kritzmow","type":"Kreisangehörige_Gemeinde"},"district":{"key":"13072","name":"Landkreis Rostock","type":"Landkreis"},"federalState":{"key":"13","name":"Mecklenburg-Vorpommern"}},{"name":"Wilsener Weg","postalCode":"18198","locality":"Kritzmow","municipality":{"key":"13072057","name":"Kritzmow","type":"Kreisangehörige_Gemeinde"},"district":{"key":"13072","name":"Landkreis Rostock","type":"Landkreis"},"federalState":{"key":"13","name":"Mecklenburg-Vorpommern"}},{"name":"Zanderweg","postalCode":"18198","locality":"Kritzmow","municipality":{"key":"13072057","name":"Kritzmow","type":"Kreisangehörige_Gemeinde"},"district":{"key":"13072","name":"Landkreis Rostock","type":"Landkreis"},"federalState":{"key":"13","name":"Mecklenburg-Vorpommern"}},{"name":"Zum Hasenwinkel","postalCode":"18198","locality":"Kritzmow","municipality":{"key":"13072057","name":"Kritzmow","type":"Kreisangehörige_Gemeinde"},"district":{"key":"13072","name":"Landkreis Rostock","type":"Landkreis"},"federalState":{"key":"13","name":"Mecklenburg-Vorpommern"}},]