[{"name":"Am Herrschaftsstück","postalCode":"96268","locality":"Mitwitz","municipality":{"key":"09476154","name":"Mitwitz, M","type":"Markt"},"district":{"key":"09476","name":"Kronach","type":"Landkreis"},"federalState":{"key":"09","name":"Bayern"}},{"name":"Am Lerchenfeld","postalCode":"96268","locality":"Mitwitz","municipality":{"key":"09476154","name":"Mitwitz, M","type":"Markt"},"district":{"key":"09476","name":"Kronach","type":"Landkreis"},"federalState":{"key":"09","name":"Bayern"}},{"name":"Am Mühlbach","postalCode":"96268","locality":"Mitwitz","municipality":{"key":"09476154","name":"Mitwitz, M","type":"Markt"},"district":{"key":"09476","name":"Kronach","type":"Landkreis"},"federalState":{"key":"09","name":"Bayern"}},{"name":"Am Riegel","postalCode":"96268","locality":"Mitwitz","municipality":{"key":"09476154","name":"Mitwitz, M","type":"Markt"},"district":{"key":"09476","name":"Kronach","type":"Landkreis"},"federalState":{"key":"09","name":"Bayern"}},{"name":"Am Säbel","postalCode":"96268","locality":"Mitwitz","municipality":{"key":"09476154","name":"Mitwitz, M","type":"Markt"},"district":{"key":"09476","name":"Kronach","type":"Landkreis"},"federalState":{"key":"09","name":"Bayern"}},{"name":"Am Teich","postalCode":"96268","locality":"Mitwitz","municipality":{"key":"09476154","name":"Mitwitz, M","type":"Markt"},"district":{"key":"09476","name":"Kronach","type":"Landkreis"},"federalState":{"key":"09","name":"Bayern"}},{"name":"Am Wolfsgarten","postalCode":"96268","locality":"Mitwitz","municipality":{"key":"09476154","name":"Mitwitz, M","type":"Markt"},"district":{"key":"09476","name":"Kronach","type":"Landkreis"},"federalState":{"key":"09","name":"Bayern"}},{"name":"An der Wolfsgrube","postalCode":"96268","locality":"Mitwitz","municipality":{"key":"09476154","name":"Mitwitz, M","type":"Markt"},"district":{"key":"09476","name":"Kronach","type":"Landkreis"},"federalState":{"key":"09","name":"Bayern"}},{"name":"Angerstr.","postalCode":"96268","locality":"Mitwitz","municipality":{"key":"09476154","name":"Mitwitz, M","type":"Markt"},"district":{"key":"09476","name":"Kronach","type":"Landkreis"},"federalState":{"key":"09","name":"Bayern"}},{"name":"Birklesstr.","postalCode":"96268","locality":"Mitwitz","municipality":{"key":"09476154","name":"Mitwitz, M","type":"Markt"},"district":{"key":"09476","name":"Kronach","type":"Landkreis"},"federalState":{"key":"09","name":"Bayern"}},{"name":"Blumenstr.","postalCode":"96268","locality":"Mitwitz","municipality":{"key":"09476154","name":"Mitwitz, M","type":"Markt"},"district":{"key":"09476","name":"Kronach","type":"Landkreis"},"federalState":{"key":"09","name":"Bayern"}},{"name":"Breitenseeweg","postalCode":"96268","locality":"Mitwitz","municipality":{"key":"09476154","name":"Mitwitz, M","type":"Markt"},"district":{"key":"09476","name":"Kronach","type":"Landkreis"},"federalState":{"key":"09","name":"Bayern"}},{"name":"Bubsgäßchen","postalCode":"96268","locality":"Mitwitz","municipality":{"key":"09476154","name":"Mitwitz, M","type":"Markt"},"district":{"key":"09476","name":"Kronach","type":"Landkreis"},"federalState":{"key":"09","name":"Bayern"}},{"name":"Burgstaller Weg","postalCode":"96268","locality":"Mitwitz","municipality":{"key":"09476154","name":"Mitwitz, M","type":"Markt"},"district":{"key":"09476","name":"Kronach","type":"Landkreis"},"federalState":{"key":"09","name":"Bayern"}},{"name":"Coburger Str.","postalCode":"96268","locality":"Mitwitz","municipality":{"key":"09476154","name":"Mitwitz, M","type":"Markt"},"district":{"key":"09476","name":"Kronach","type":"Landkreis"},"federalState":{"key":"09","name":"Bayern"}},{"name":"Dahlienweg","postalCode":"95497","locality":"Goldkronach","municipality":{"key":"09472143","name":"Goldkronach, St","type":"Stadt"},"district":{"key":"09472","name":"Bayreuth","type":"Landkreis"},"federalState":{"key":"09","name":"Bayern"}},{"name":"Danziger Str.","postalCode":"95497","locality":"Goldkronach","municipality":{"key":"09472143","name":"Goldkronach, St","type":"Stadt"},"district":{"key":"09472","name":"Bayreuth","type":"Landkreis"},"federalState":{"key":"09","name":"Bayern"}},{"name":"Dennig","postalCode":"96317","locality":"Kronach","municipality":{"key":"09476145","name":"Kronach, St","type":"Stadt"},"district":{"key":"09476","name":"Kronach","type":"Landkreis"},"federalState":{"key":"09","name":"Bayern"}},{"name":"Depser Str.","postalCode":"95497","locality":"Goldkronach","municipality":{"key":"09472143","name":"Goldkronach, St","type":"Stadt"},"district":{"key":"09472","name":"Bayreuth","type":"Landkreis"},"federalState":{"key":"09","name":"Bayern"}},{"name":"Dobersgrund","postalCode":"96317","locality":"Kronach","municipality":{"key":"09476145","name":"Kronach, St","type":"Stadt"},"district":{"key":"09476","name":"Kronach","type":"Landkreis"},"federalState":{"key":"09","name":"Bayern"}},{"name":"Dörfles","postalCode":"96317","locality":"Kronach","municipality":{"key":"09476145","name":"Kronach, St","type":"Stadt"},"district":{"key":"09476","name":"Kronach","type":"Landkreis"},"federalState":{"key":"09","name":"Bayern"}},{"name":"Dörfleser Anger","postalCode":"96317","locality":"Kronach","municipality":{"key":"09476145","name":"Kronach, St","type":"Stadt"},"district":{"key":"09476","name":"Kronach","type":"Landkreis"},"federalState":{"key":"09","name":"Bayern"}},{"name":"Dorfplatz","postalCode":"95497","locality":"Goldkronach","municipality":{"key":"09472143","name":"Goldkronach, St","type":"Stadt"},"district":{"key":"09472","name":"Bayreuth","type":"Landkreis"},"federalState":{"key":"09","name":"Bayern"}},{"name":"Dorfstr.","postalCode":"95497","locality":"Goldkronach","municipality":{"key":"09472143","name":"Goldkronach, St","type":"Stadt"},"district":{"key":"09472","name":"Bayreuth","type":"Landkreis"},"federalState":{"key":"09","name":"Bayern"}},{"name":"Dr.-Franz-Schneider-Str.","postalCode":"96317","locality":"Kronach","municipality":{"key":"09476145","name":"Kronach, St","type":"Stadt"},"district":{"key":"09476","name":"Kronach","type":"Landkreis"},"federalState":{"key":"09","name":"Bayern"}},{"name":"Ebentleinweg","postalCode":"95497","locality":"Goldkronach","municipality":{"key":"09472143","name":"Goldkronach, St","type":"Stadt"},"district":{"key":"09472","name":"Bayreuth","type":"Landkreis"},"federalState":{"key":"09","name":"Bayern"}},{"name":"Egerländer Str.","postalCode":"95497","locality":"Goldkronach","municipality":{"key":"09472143","name":"Goldkronach, St","type":"Stadt"},"district":{"key":"09472","name":"Bayreuth","type":"Landkreis"},"federalState":{"key":"09","name":"Bayern"}},{"name":"Eichendorffstr.","postalCode":"96317","locality":"Kronach","municipality":{"key":"09476145","name":"Kronach, St","type":"Stadt"},"district":{"key":"09476","name":"Kronach","type":"Landkreis"},"federalState":{"key":"09","name":"Bayern"}},{"name":"Ellmershausstr.","postalCode":"96317","locality":"Kronach","municipality":{"key":"09476145","name":"Kronach, St","type":"Stadt"},"district":{"key":"09476","name":"Kronach","type":"Landkreis"},"federalState":{"key":"09","name":"Bayern"}},{"name":"Entmannsdorf","postalCode":"96317","locality":"Kronach","municipality":{"key":"09476145","name":"Kronach, St","type":"Stadt"},"district":{"key":"09476","name":"Kronach","type":"Landkreis"},"federalState":{"key":"09","name":"Bayern"}},{"name":"Erlenstr.","postalCode":"95497","locality":"Goldkronach","municipality":{"key":"09472143","name":"Goldkronach, St","type":"Stadt"},"district":{"key":"09472","name":"Bayreuth","type":"Landkreis"},"federalState":{"key":"09","name":"Bayern"}},{"name":"Friedhofstr.","postalCode":"96268","locality":"Mitwitz","municipality":{"key":"09476154","name":"Mitwitz, M","type":"Markt"},"district":{"key":"09476","name":"Kronach","type":"Landkreis"},"federalState":{"key":"09","name":"Bayern"}},{"name":"Gartenäckerweg","postalCode":"96268","locality":"Mitwitz","municipality":{"key":"09476154","name":"Mitwitz, M","type":"Markt"},"district":{"key":"09476","name":"Kronach","type":"Landkreis"},"federalState":{"key":"09","name":"Bayern"}},{"name":"Gartenstr.","postalCode":"96268","locality":"Mitwitz","municipality":{"key":"09476154","name":"Mitwitz, M","type":"Markt"},"district":{"key":"09476","name":"Kronach","type":"Landkreis"},"federalState":{"key":"09","name":"Bayern"}},{"name":"Gebrüder-Dötschel-Str.","postalCode":"96268","locality":"Mitwitz","municipality":{"key":"09476154","name":"Mitwitz, M","type":"Markt"},"district":{"key":"09476","name":"Kronach","type":"Landkreis"},"federalState":{"key":"09","name":"Bayern"}},{"name":"Häuslesweg","postalCode":"96268","locality":"Mitwitz","municipality":{"key":"09476154","name":"Mitwitz, M","type":"Markt"},"district":{"key":"09476","name":"Kronach","type":"Landkreis"},"federalState":{"key":"09","name":"Bayern"}},{"name":"Hof","postalCode":"96268","locality":"Mitwitz","municipality":{"key":"09476154","name":"Mitwitz, M","type":"Markt"},"district":{"key":"09476","name":"Kronach","type":"Landkreis"},"federalState":{"key":"09","name":"Bayern"}},{"name":"Horb","postalCode":"96268","locality":"Mitwitz","municipality":{"key":"09476154","name":"Mitwitz, M","type":"Markt"},"district":{"key":"09476","name":"Kronach","type":"Landkreis"},"federalState":{"key":"09","name":"Bayern"}},{"name":"Im Ziegelwinkel","postalCode":"96317","locality":"Kronach","municipality":{"key":"09476145","name":"Kronach, St","type":"Stadt"},"district":{"key":"09476","name":"Kronach","type":"Landkreis"},"federalState":{"key":"09","name":"Bayern"}},{"name":"Innerer Ring","postalCode":"96317","locality":"Kronach","municipality":{"key":"09476145","name":"Kronach, St","type":"Stadt"},"district":{"key":"09476","name":"Kronach","type":"Landkreis"},"federalState":{"key":"09","name":"Bayern"}},{"name":"Jakobsberg","postalCode":"96268","locality":"Mitwitz","municipality":{"key":"09476154","name":"Mitwitz, M","type":"Markt"},"district":{"key":"09476","name":"Kronach","type":"Landkreis"},"federalState":{"key":"09","name":"Bayern"}},{"name":"Jakobsgässchen","postalCode":"96268","locality":"Mitwitz","municipality":{"key":"09476154","name":"Mitwitz, M","type":"Markt"},"district":{"key":"09476","name":"Kronach","type":"Landkreis"},"federalState":{"key":"09","name":"Bayern"}},{"name":"Kaltenbrunn","postalCode":"96268","locality":"Mitwitz","municipality":{"key":"09476154","name":"Mitwitz, M","type":"Markt"},"district":{"key":"09476","name":"Kronach","type":"Landkreis"},"federalState":{"key":"09","name":"Bayern"}},{"name":"Kellerweg","postalCode":"96268","locality":"Mitwitz","municipality":{"key":"09476154","name":"Mitwitz, M","type":"Markt"},"district":{"key":"09476","name":"Kronach","type":"Landkreis"},"federalState":{"key":"09","name":"Bayern"}},{"name":"Kirchplatz","postalCode":"96268","locality":"Mitwitz","municipality":{"key":"09476154","name":"Mitwitz, M","type":"Markt"},"district":{"key":"09476","name":"Kronach","type":"Landkreis"},"federalState":{"key":"09","name":"Bayern"}},{"name":"Kirchsteig","postalCode":"96268","locality":"Mitwitz","municipality":{"key":"09476154","name":"Mitwitz, M","type":"Markt"},"district":{"key":"09476","name":"Kronach","type":"Landkreis"},"federalState":{"key":"09","name":"Bayern"}},{"name":"Kirchstr.","postalCode":"96268","locality":"Mitwitz","municipality":{"key":"09476154","name":"Mitwitz, M","type":"Markt"},"district":{"key":"09476","name":"Kronach","type":"Landkreis"},"federalState":{"key":"09","name":"Bayern"}},{"name":"Kronacher Str.","postalCode":"96268","locality":"Mitwitz","municipality":{"key":"09476154","name":"Mitwitz, M","type":"Markt"},"district":{"key":"09476","name":"Kronach","type":"Landkreis"},"federalState":{"key":"09","name":"Bayern"}},{"name":"Lindenweg","postalCode":"96268","locality":"Mitwitz","municipality":{"key":"09476154","name":"Mitwitz, M","type":"Markt"},"district":{"key":"09476","name":"Kronach","type":"Landkreis"},"federalState":{"key":"09","name":"Bayern"}},{"name":"Lohäckerstr.","postalCode":"96268","locality":"Mitwitz","municipality":{"key":"09476154","name":"Mitwitz, M","type":"Markt"},"district":{"key":"09476","name":"Kronach","type":"Landkreis"},"federalState":{"key":"09","name":"Bayern"}},{"name":"Ludwig-A.-Freund-Weg","postalCode":"96268","locality":"Mitwitz","municipality":{"key":"09476154","name":"Mitwitz, M","type":"Markt"},"district":{"key":"09476","name":"Kronach","type":"Landkreis"},"federalState":{"key":"09","name":"Bayern"}},{"name":"Ludwig-Freiherr-von-Würtzburg-Str.","postalCode":"96268","locality":"Mitwitz","municipality":{"key":"09476154","name":"Mitwitz, M","type":"Markt"},"district":{"key":"09476","name":"Kronach","type":"Landkreis"},"federalState":{"key":"09","name":"Bayern"}},{"name":"Mühlsiedlung","postalCode":"96268","locality":"Mitwitz","municipality":{"key":"09476154","name":"Mitwitz, M","type":"Markt"},"district":{"key":"09476","name":"Kronach","type":"Landkreis"},"federalState":{"key":"09","name":"Bayern"}},{"name":"Müßweg","postalCode":"96268","locality":"Mitwitz","municipality":{"key":"09476154","name":"Mitwitz, M","type":"Markt"},"district":{"key":"09476","name":"Kronach","type":"Landkreis"},"federalState":{"key":"09","name":"Bayern"}},{"name":"Neubau","postalCode":"96268","locality":"Mitwitz","municipality":{"key":"09476154","name":"Mitwitz, M","type":"Markt"},"district":{"key":"09476","name":"Kronach","type":"Landkreis"},"federalState":{"key":"09","name":"Bayern"}},{"name":"Neundorf","postalCode":"96268","locality":"Mitwitz","municipality":{"key":"09476154","name":"Mitwitz, M","type":"Markt"},"district":{"key":"09476","name":"Kronach","type":"Landkreis"},"federalState":{"key":"09","name":"Bayern"}},{"name":"Neundorfer Str.","postalCode":"96268","locality":"Mitwitz","municipality":{"key":"09476154","name":"Mitwitz, M","type":"Markt"},"district":{"key":"09476","name":"Kronach","type":"Landkreis"},"federalState":{"key":"09","name":"Bayern"}},{"name":"Oberer Flur","postalCode":"96317","locality":"Kronach","municipality":{"key":"09476145","name":"Kronach, St","type":"Stadt"},"district":{"key":"09476","name":"Kronach","type":"Landkreis"},"federalState":{"key":"09","name":"Bayern"}},{"name":"Obere Ziegelangerstr.","postalCode":"96317","locality":"Kronach","municipality":{"key":"09476145","name":"Kronach, St","type":"Stadt"},"district":{"key":"09476","name":"Kronach","type":"Landkreis"},"federalState":{"key":"09","name":"Bayern"}},{"name":"Ostpreußenstr.","postalCode":"95497","locality":"Goldkronach","municipality":{"key":"09472143","name":"Goldkronach, St","type":"Stadt"},"district":{"key":"09472","name":"Bayreuth","type":"Landkreis"},"federalState":{"key":"09","name":"Bayern"}},{"name":"Pfarrgäßchen","postalCode":"96268","locality":"Mitwitz","municipality":{"key":"09476154","name":"Mitwitz, M","type":"Markt"},"district":{"key":"09476","name":"Kronach","type":"Landkreis"},"federalState":{"key":"09","name":"Bayern"}},{"name":"Pinsenhofstr.","postalCode":"96268","locality":"Mitwitz","municipality":{"key":"09476154","name":"Mitwitz, M","type":"Markt"},"district":{"key":"09476","name":"Kronach","type":"Landkreis"},"federalState":{"key":"09","name":"Bayern"}},{"name":"Prof.-Bauer-Str.","postalCode":"96268","locality":"Mitwitz","municipality":{"key":"09476154","name":"Mitwitz, M","type":"Markt"},"district":{"key":"09476","name":"Kronach","type":"Landkreis"},"federalState":{"key":"09","name":"Bayern"}},{"name":"Querstr.","postalCode":"96317","locality":"Kronach","municipality":{"key":"09476145","name":"Kronach, St","type":"Stadt"},"district":{"key":"09476","name":"Kronach","type":"Landkreis"},"federalState":{"key":"09","name":"Bayern"}},{"name":"Rathausplatz","postalCode":"96268","locality":"Mitwitz","municipality":{"key":"09476154","name":"Mitwitz, M","type":"Markt"},"district":{"key":"09476","name":"Kronach","type":"Landkreis"},"federalState":{"key":"09","name":"Bayern"}},{"name":"Reutersgasse","postalCode":"96268","locality":"Mitwitz","municipality":{"key":"09476154","name":"Mitwitz, M","type":"Markt"},"district":{"key":"09476","name":"Kronach","type":"Landkreis"},"federalState":{"key":"09","name":"Bayern"}},{"name":"Rosenweg","postalCode":"96268","locality":"Mitwitz","municipality":{"key":"09476154","name":"Mitwitz, M","type":"Markt"},"district":{"key":"09476","name":"Kronach","type":"Landkreis"},"federalState":{"key":"09","name":"Bayern"}},{"name":"Schlesierstr.","postalCode":"96268","locality":"Mitwitz","municipality":{"key":"09476154","name":"Mitwitz, M","type":"Markt"},"district":{"key":"09476","name":"Kronach","type":"Landkreis"},"federalState":{"key":"09","name":"Bayern"}},{"name":"Schloßallee","postalCode":"96268","locality":"Mitwitz","municipality":{"key":"09476154","name":"Mitwitz, M","type":"Markt"},"district":{"key":"09476","name":"Kronach","type":"Landkreis"},"federalState":{"key":"09","name":"Bayern"}},{"name":"Schulstr.","postalCode":"96268","locality":"Mitwitz","municipality":{"key":"09476154","name":"Mitwitz, M","type":"Markt"},"district":{"key":"09476","name":"Kronach","type":"Landkreis"},"federalState":{"key":"09","name":"Bayern"}},{"name":"Schwärzdorf","postalCode":"96268","locality":"Mitwitz","municipality":{"key":"09476154","name":"Mitwitz, M","type":"Markt"},"district":{"key":"09476","name":"Kronach","type":"Landkreis"},"federalState":{"key":"09","name":"Bayern"}},{"name":"Sonneberger Str.","postalCode":"96268","locality":"Mitwitz","municipality":{"key":"09476154","name":"Mitwitz, M","type":"Markt"},"district":{"key":"09476","name":"Kronach","type":"Landkreis"},"federalState":{"key":"09","name":"Bayern"}},{"name":"Steig","postalCode":"96268","locality":"Mitwitz","municipality":{"key":"09476154","name":"Mitwitz, M","type":"Markt"},"district":{"key":"09476","name":"Kronach","type":"Landkreis"},"federalState":{"key":"09","name":"Bayern"}},{"name":"Steinach","postalCode":"96268","locality":"Mitwitz","municipality":{"key":"09476154","name":"Mitwitz, M","type":"Markt"},"district":{"key":"09476","name":"Kronach","type":"Landkreis"},"federalState":{"key":"09","name":"Bayern"}},{"name":"Sudetenstr.","postalCode":"96268","locality":"Mitwitz","municipality":{"key":"09476154","name":"Mitwitz, M","type":"Markt"},"district":{"key":"09476","name":"Kronach","type":"Landkreis"},"federalState":{"key":"09","name":"Bayern"}},{"name":"Thüringer Str.","postalCode":"96268","locality":"Mitwitz","municipality":{"key":"09476154","name":"Mitwitz, M","type":"Markt"},"district":{"key":"09476","name":"Kronach","type":"Landkreis"},"federalState":{"key":"09","name":"Bayern"}},{"name":"Tulpenweg","postalCode":"96268","locality":"Mitwitz","municipality":{"key":"09476154","name":"Mitwitz, M","type":"Markt"},"district":{"key":"09476","name":"Kronach","type":"Landkreis"},"federalState":{"key":"09","name":"Bayern"}},{"name":"Untere Bamberger Str.","postalCode":"96317","locality":"Kronach","municipality":{"key":"09476145","name":"Kronach, St","type":"Stadt"},"district":{"key":"09476","name":"Kronach","type":"Landkreis"},"federalState":{"key":"09","name":"Bayern"}},{"name":"Von-Cramer-Klett-Str.","postalCode":"96268","locality":"Mitwitz","municipality":{"key":"09476154","name":"Mitwitz, M","type":"Markt"},"district":{"key":"09476","name":"Kronach","type":"Landkreis"},"federalState":{"key":"09","name":"Bayern"}},{"name":"Von-Rosenau-Str.","postalCode":"96268","locality":"Mitwitz","municipality":{"key":"09476154","name":"Mitwitz, M","type":"Markt"},"district":{"key":"09476","name":"Kronach","type":"Landkreis"},"federalState":{"key":"09","name":"Bayern"}},{"name":"Wacholderweg","postalCode":"96268","locality":"Mitwitz","municipality":{"key":"09476154","name":"Mitwitz, M","type":"Markt"},"district":{"key":"09476","name":"Kronach","type":"Landkreis"},"federalState":{"key":"09","name":"Bayern"}},{"name":"Waldstr.","postalCode":"96268","locality":"Mitwitz","municipality":{"key":"09476154","name":"Mitwitz, M","type":"Markt"},"district":{"key":"09476","name":"Kronach","type":"Landkreis"},"federalState":{"key":"09","name":"Bayern"}},{"name":"Wiesenweg","postalCode":"96268","locality":"Mitwitz","municipality":{"key":"09476154","name":"Mitwitz, M","type":"Markt"},"district":{"key":"09476","name":"Kronach","type":"Landkreis"},"federalState":{"key":"09","name":"Bayern"}},{"name":"Zur Mühlleite","postalCode":"96268","locality":"Mitwitz","municipality":{"key":"09476154","name":"Mitwitz, M","type":"Markt"},"district":{"key":"09476","name":"Kronach","type":"Landkreis"},"federalState":{"key":"09","name":"Bayern"}},{"name":"Äußerer Ring","postalCode":"96317","locality":"Kronach","municipality":{"key":"09476145","name":"Kronach, St","type":"Stadt"},"district":{"key":"09476","name":"Kronach","type":"Landkreis"},"federalState":{"key":"09","name":"Bayern"}},]