[{"name":"Am Anger","postalCode":"18528","locality":"Zirkow","municipality":{"key":"13073106","name":"Zirkow","type":"Kreisangehörige_Gemeinde"},"district":{"key":"13073","name":"Vorpommern-Rügen","type":"Landkreis"},"federalState":{"key":"13","name":"Mecklenburg-Vorpommern"}},{"name":"Bergener Str.","postalCode":"18528","locality":"Zirkow","municipality":{"key":"13073106","name":"Zirkow","type":"Kreisangehörige_Gemeinde"},"district":{"key":"13073","name":"Vorpommern-Rügen","type":"Landkreis"},"federalState":{"key":"13","name":"Mecklenburg-Vorpommern"}},{"name":"Binzer Str.","postalCode":"18528","locality":"Zirkow","municipality":{"key":"13073106","name":"Zirkow","type":"Kreisangehörige_Gemeinde"},"district":{"key":"13073","name":"Vorpommern-Rügen","type":"Landkreis"},"federalState":{"key":"13","name":"Mecklenburg-Vorpommern"}},{"name":"Dalkvitz","postalCode":"18528","locality":"Zirkow","municipality":{"key":"13073106","name":"Zirkow","type":"Kreisangehörige_Gemeinde"},"district":{"key":"13073","name":"Vorpommern-Rügen","type":"Landkreis"},"federalState":{"key":"13","name":"Mecklenburg-Vorpommern"}},{"name":"Darzer Weg","postalCode":"18528","locality":"Zirkow","municipality":{"key":"13073106","name":"Zirkow","type":"Kreisangehörige_Gemeinde"},"district":{"key":"13073","name":"Vorpommern-Rügen","type":"Landkreis"},"federalState":{"key":"13","name":"Mecklenburg-Vorpommern"}},{"name":"Dorfstr.","postalCode":"18528","locality":"Zirkow","municipality":{"key":"13073106","name":"Zirkow","type":"Kreisangehörige_Gemeinde"},"district":{"key":"13073","name":"Vorpommern-Rügen","type":"Landkreis"},"federalState":{"key":"13","name":"Mecklenburg-Vorpommern"}},{"name":"Jagdschloss Wanderweg","postalCode":"18528","locality":"Zirkow","municipality":{"key":"13073106","name":"Zirkow","type":"Kreisangehörige_Gemeinde"},"district":{"key":"13073","name":"Vorpommern-Rügen","type":"Landkreis"},"federalState":{"key":"13","name":"Mecklenburg-Vorpommern"}},{"name":"Mustitzer Allee","postalCode":"18528","locality":"Zirkow","municipality":{"key":"13073106","name":"Zirkow","type":"Kreisangehörige_Gemeinde"},"district":{"key":"13073","name":"Vorpommern-Rügen","type":"Landkreis"},"federalState":{"key":"13","name":"Mecklenburg-Vorpommern"}},{"name":"Nistelitz","postalCode":"18528","locality":"Zirkow","municipality":{"key":"13073106","name":"Zirkow","type":"Kreisangehörige_Gemeinde"},"district":{"key":"13073","name":"Vorpommern-Rügen","type":"Landkreis"},"federalState":{"key":"13","name":"Mecklenburg-Vorpommern"}},{"name":"Pantow","postalCode":"18528","locality":"Zirkow","municipality":{"key":"13073106","name":"Zirkow","type":"Kreisangehörige_Gemeinde"},"district":{"key":"13073","name":"Vorpommern-Rügen","type":"Landkreis"},"federalState":{"key":"13","name":"Mecklenburg-Vorpommern"}},{"name":"Putbuser Str.","postalCode":"18528","locality":"Zirkow","municipality":{"key":"13073106","name":"Zirkow","type":"Kreisangehörige_Gemeinde"},"district":{"key":"13073","name":"Vorpommern-Rügen","type":"Landkreis"},"federalState":{"key":"13","name":"Mecklenburg-Vorpommern"}},{"name":"Seepromenade","postalCode":"18528","locality":"Zirkow","municipality":{"key":"13073106","name":"Zirkow","type":"Kreisangehörige_Gemeinde"},"district":{"key":"13073","name":"Vorpommern-Rügen","type":"Landkreis"},"federalState":{"key":"13","name":"Mecklenburg-Vorpommern"}},{"name":"Serams","postalCode":"18528","locality":"Zirkow","municipality":{"key":"13073106","name":"Zirkow","type":"Kreisangehörige_Gemeinde"},"district":{"key":"13073","name":"Vorpommern-Rügen","type":"Landkreis"},"federalState":{"key":"13","name":"Mecklenburg-Vorpommern"}},{"name":"Wiesengrund","postalCode":"18528","locality":"Zirkow","municipality":{"key":"13073106","name":"Zirkow","type":"Kreisangehörige_Gemeinde"},"district":{"key":"13073","name":"Vorpommern-Rügen","type":"Landkreis"},"federalState":{"key":"13","name":"Mecklenburg-Vorpommern"}},]