[{"name":"Ahornstr.","postalCode":"94336","locality":"Hunderdorf","municipality":{"key":"09278139","name":"Hunderdorf","type":"Kreisangehörige_Gemeinde"},"district":{"key":"09278","name":"Straubing-Bogen","type":"Landkreis"},"federalState":{"key":"09","name":"Bayern"}},{"name":"Amselstr.","postalCode":"94336","locality":"Hunderdorf","municipality":{"key":"09278139","name":"Hunderdorf","type":"Kreisangehörige_Gemeinde"},"district":{"key":"09278","name":"Straubing-Bogen","type":"Landkreis"},"federalState":{"key":"09","name":"Bayern"}},{"name":"Am Sportplatz","postalCode":"94336","locality":"Hunderdorf","municipality":{"key":"09278139","name":"Hunderdorf","type":"Kreisangehörige_Gemeinde"},"district":{"key":"09278","name":"Straubing-Bogen","type":"Landkreis"},"federalState":{"key":"09","name":"Bayern"}},{"name":"Apoiger Str.","postalCode":"94336","locality":"Hunderdorf","municipality":{"key":"09278139","name":"Hunderdorf","type":"Kreisangehörige_Gemeinde"},"district":{"key":"09278","name":"Straubing-Bogen","type":"Landkreis"},"federalState":{"key":"09","name":"Bayern"}},{"name":"Au vorm Wald","postalCode":"94336","locality":"Hunderdorf","municipality":{"key":"09278139","name":"Hunderdorf","type":"Kreisangehörige_Gemeinde"},"district":{"key":"09278","name":"Straubing-Bogen","type":"Landkreis"},"federalState":{"key":"09","name":"Bayern"}},{"name":"Bahnhofstr.","postalCode":"94336","locality":"Hunderdorf","municipality":{"key":"09278139","name":"Hunderdorf","type":"Kreisangehörige_Gemeinde"},"district":{"key":"09278","name":"Straubing-Bogen","type":"Landkreis"},"federalState":{"key":"09","name":"Bayern"}},{"name":"Birkenstr.","postalCode":"94336","locality":"Hunderdorf","municipality":{"key":"09278139","name":"Hunderdorf","type":"Kreisangehörige_Gemeinde"},"district":{"key":"09278","name":"Straubing-Bogen","type":"Landkreis"},"federalState":{"key":"09","name":"Bayern"}},{"name":"Brandstatt","postalCode":"94336","locality":"Hunderdorf","municipality":{"key":"09278139","name":"Hunderdorf","type":"Kreisangehörige_Gemeinde"},"district":{"key":"09278","name":"Straubing-Bogen","type":"Landkreis"},"federalState":{"key":"09","name":"Bayern"}},{"name":"Breitfelder Weg","postalCode":"94336","locality":"Hunderdorf","municipality":{"key":"09278139","name":"Hunderdorf","type":"Kreisangehörige_Gemeinde"},"district":{"key":"09278","name":"Straubing-Bogen","type":"Landkreis"},"federalState":{"key":"09","name":"Bayern"}},{"name":"Brunnenstr.","postalCode":"94336","locality":"Hunderdorf","municipality":{"key":"09278139","name":"Hunderdorf","type":"Kreisangehörige_Gemeinde"},"district":{"key":"09278","name":"Straubing-Bogen","type":"Landkreis"},"federalState":{"key":"09","name":"Bayern"}},{"name":"Buchenstr.","postalCode":"94336","locality":"Hunderdorf","municipality":{"key":"09278139","name":"Hunderdorf","type":"Kreisangehörige_Gemeinde"},"district":{"key":"09278","name":"Straubing-Bogen","type":"Landkreis"},"federalState":{"key":"09","name":"Bayern"}},{"name":"Dekan-Kiermaier-Str.","postalCode":"94336","locality":"Hunderdorf","municipality":{"key":"09278139","name":"Hunderdorf","type":"Kreisangehörige_Gemeinde"},"district":{"key":"09278","name":"Straubing-Bogen","type":"Landkreis"},"federalState":{"key":"09","name":"Bayern"}},{"name":"Drosselstr.","postalCode":"94336","locality":"Hunderdorf","municipality":{"key":"09278139","name":"Hunderdorf","type":"Kreisangehörige_Gemeinde"},"district":{"key":"09278","name":"Straubing-Bogen","type":"Landkreis"},"federalState":{"key":"09","name":"Bayern"}},{"name":"Ehren","postalCode":"94336","locality":"Hunderdorf","municipality":{"key":"09278139","name":"Hunderdorf","type":"Kreisangehörige_Gemeinde"},"district":{"key":"09278","name":"Straubing-Bogen","type":"Landkreis"},"federalState":{"key":"09","name":"Bayern"}},{"name":"Eichenfeldstr.","postalCode":"94336","locality":"Hunderdorf","municipality":{"key":"09278139","name":"Hunderdorf","type":"Kreisangehörige_Gemeinde"},"district":{"key":"09278","name":"Straubing-Bogen","type":"Landkreis"},"federalState":{"key":"09","name":"Bayern"}},{"name":"Erlebnispfad Perlbachtal","postalCode":"94336","locality":"Hunderdorf","municipality":{"key":"09278139","name":"Hunderdorf","type":"Kreisangehörige_Gemeinde"},"district":{"key":"09278","name":"Straubing-Bogen","type":"Landkreis"},"federalState":{"key":"09","name":"Bayern"}},{"name":"Erlenstr.","postalCode":"94336","locality":"Hunderdorf","municipality":{"key":"09278139","name":"Hunderdorf","type":"Kreisangehörige_Gemeinde"},"district":{"key":"09278","name":"Straubing-Bogen","type":"Landkreis"},"federalState":{"key":"09","name":"Bayern"}},{"name":"Falkenstr.","postalCode":"94336","locality":"Hunderdorf","municipality":{"key":"09278139","name":"Hunderdorf","type":"Kreisangehörige_Gemeinde"},"district":{"key":"09278","name":"Straubing-Bogen","type":"Landkreis"},"federalState":{"key":"09","name":"Bayern"}},{"name":"Fichtenstr.","postalCode":"94336","locality":"Hunderdorf","municipality":{"key":"09278139","name":"Hunderdorf","type":"Kreisangehörige_Gemeinde"},"district":{"key":"09278","name":"Straubing-Bogen","type":"Landkreis"},"federalState":{"key":"09","name":"Bayern"}},{"name":"Finkenstr.","postalCode":"94336","locality":"Hunderdorf","municipality":{"key":"09278139","name":"Hunderdorf","type":"Kreisangehörige_Gemeinde"},"district":{"key":"09278","name":"Straubing-Bogen","type":"Landkreis"},"federalState":{"key":"09","name":"Bayern"}},{"name":"Florianstr.","postalCode":"94336","locality":"Hunderdorf","municipality":{"key":"09278139","name":"Hunderdorf","type":"Kreisangehörige_Gemeinde"},"district":{"key":"09278","name":"Straubing-Bogen","type":"Landkreis"},"federalState":{"key":"09","name":"Bayern"}},{"name":"Friedenstr.","postalCode":"94336","locality":"Hunderdorf","municipality":{"key":"09278139","name":"Hunderdorf","type":"Kreisangehörige_Gemeinde"},"district":{"key":"09278","name":"Straubing-Bogen","type":"Landkreis"},"federalState":{"key":"09","name":"Bayern"}},{"name":"Hauptstr.","postalCode":"94336","locality":"Hunderdorf","municipality":{"key":"09278139","name":"Hunderdorf","type":"Kreisangehörige_Gemeinde"},"district":{"key":"09278","name":"Straubing-Bogen","type":"Landkreis"},"federalState":{"key":"09","name":"Bayern"}},{"name":"Hinterfeldstr.","postalCode":"94336","locality":"Hunderdorf","municipality":{"key":"09278139","name":"Hunderdorf","type":"Kreisangehörige_Gemeinde"},"district":{"key":"09278","name":"Straubing-Bogen","type":"Landkreis"},"federalState":{"key":"09","name":"Bayern"}},{"name":"Hochfeldstr.","postalCode":"94336","locality":"Hunderdorf","municipality":{"key":"09278139","name":"Hunderdorf","type":"Kreisangehörige_Gemeinde"},"district":{"key":"09278","name":"Straubing-Bogen","type":"Landkreis"},"federalState":{"key":"09","name":"Bayern"}},{"name":"Hofdorf","postalCode":"94336","locality":"Hunderdorf","municipality":{"key":"09278139","name":"Hunderdorf","type":"Kreisangehörige_Gemeinde"},"district":{"key":"09278","name":"Straubing-Bogen","type":"Landkreis"},"federalState":{"key":"09","name":"Bayern"}},{"name":"Hubertusstr.","postalCode":"94336","locality":"Hunderdorf","municipality":{"key":"09278139","name":"Hunderdorf","type":"Kreisangehörige_Gemeinde"},"district":{"key":"09278","name":"Straubing-Bogen","type":"Landkreis"},"federalState":{"key":"09","name":"Bayern"}},{"name":"Kiefernstr.","postalCode":"94336","locality":"Hunderdorf","municipality":{"key":"09278139","name":"Hunderdorf","type":"Kreisangehörige_Gemeinde"},"district":{"key":"09278","name":"Straubing-Bogen","type":"Landkreis"},"federalState":{"key":"09","name":"Bayern"}},{"name":"Kirchgasse","postalCode":"94336","locality":"Hunderdorf","municipality":{"key":"09278139","name":"Hunderdorf","type":"Kreisangehörige_Gemeinde"},"district":{"key":"09278","name":"Straubing-Bogen","type":"Landkreis"},"federalState":{"key":"09","name":"Bayern"}},{"name":"Lärchenstr.","postalCode":"94336","locality":"Hunderdorf","municipality":{"key":"09278139","name":"Hunderdorf","type":"Kreisangehörige_Gemeinde"},"district":{"key":"09278","name":"Straubing-Bogen","type":"Landkreis"},"federalState":{"key":"09","name":"Bayern"}},{"name":"Lindfeld","postalCode":"94336","locality":"Hunderdorf","municipality":{"key":"09278139","name":"Hunderdorf","type":"Kreisangehörige_Gemeinde"},"district":{"key":"09278","name":"Straubing-Bogen","type":"Landkreis"},"federalState":{"key":"09","name":"Bayern"}},{"name":"Lindfelder Weg","postalCode":"94336","locality":"Hunderdorf","municipality":{"key":"09278139","name":"Hunderdorf","type":"Kreisangehörige_Gemeinde"},"district":{"key":"09278","name":"Straubing-Bogen","type":"Landkreis"},"federalState":{"key":"09","name":"Bayern"}},{"name":"Lintach","postalCode":"94336","locality":"Hunderdorf","municipality":{"key":"09278139","name":"Hunderdorf","type":"Kreisangehörige_Gemeinde"},"district":{"key":"09278","name":"Straubing-Bogen","type":"Landkreis"},"federalState":{"key":"09","name":"Bayern"}},{"name":"Lintacher Str.","postalCode":"94336","locality":"Hunderdorf","municipality":{"key":"09278139","name":"Hunderdorf","type":"Kreisangehörige_Gemeinde"},"district":{"key":"09278","name":"Straubing-Bogen","type":"Landkreis"},"federalState":{"key":"09","name":"Bayern"}},{"name":"Martinstr.","postalCode":"94336","locality":"Hunderdorf","municipality":{"key":"09278139","name":"Hunderdorf","type":"Kreisangehörige_Gemeinde"},"district":{"key":"09278","name":"Straubing-Bogen","type":"Landkreis"},"federalState":{"key":"09","name":"Bayern"}},{"name":"Meisenstr.","postalCode":"94336","locality":"Hunderdorf","municipality":{"key":"09278139","name":"Hunderdorf","type":"Kreisangehörige_Gemeinde"},"district":{"key":"09278","name":"Straubing-Bogen","type":"Landkreis"},"federalState":{"key":"09","name":"Bayern"}},{"name":"Mitterfeldstr.","postalCode":"94336","locality":"Hunderdorf","municipality":{"key":"09278139","name":"Hunderdorf","type":"Kreisangehörige_Gemeinde"},"district":{"key":"09278","name":"Straubing-Bogen","type":"Landkreis"},"federalState":{"key":"09","name":"Bayern"}},{"name":"Nolteweg","postalCode":"94336","locality":"Hunderdorf","municipality":{"key":"09278139","name":"Hunderdorf","type":"Kreisangehörige_Gemeinde"},"district":{"key":"09278","name":"Straubing-Bogen","type":"Landkreis"},"federalState":{"key":"09","name":"Bayern"}},{"name":"Otto-F.-Scharr-Str.","postalCode":"94336","locality":"Hunderdorf","municipality":{"key":"09278139","name":"Hunderdorf","type":"Kreisangehörige_Gemeinde"},"district":{"key":"09278","name":"Straubing-Bogen","type":"Landkreis"},"federalState":{"key":"09","name":"Bayern"}},{"name":"Quellenweg","postalCode":"94336","locality":"Hunderdorf","municipality":{"key":"09278139","name":"Hunderdorf","type":"Kreisangehörige_Gemeinde"},"district":{"key":"09278","name":"Straubing-Bogen","type":"Landkreis"},"federalState":{"key":"09","name":"Bayern"}},{"name":"Ringstr.","postalCode":"94336","locality":"Hunderdorf","municipality":{"key":"09278139","name":"Hunderdorf","type":"Kreisangehörige_Gemeinde"},"district":{"key":"09278","name":"Straubing-Bogen","type":"Landkreis"},"federalState":{"key":"09","name":"Bayern"}},{"name":"Schafberg","postalCode":"94336","locality":"Hunderdorf","municipality":{"key":"09278139","name":"Hunderdorf","type":"Kreisangehörige_Gemeinde"},"district":{"key":"09278","name":"Straubing-Bogen","type":"Landkreis"},"federalState":{"key":"09","name":"Bayern"}},{"name":"Schwalbenstr.","postalCode":"94336","locality":"Hunderdorf","municipality":{"key":"09278139","name":"Hunderdorf","type":"Kreisangehörige_Gemeinde"},"district":{"key":"09278","name":"Straubing-Bogen","type":"Landkreis"},"federalState":{"key":"09","name":"Bayern"}},{"name":"Siedlungsstr.","postalCode":"94336","locality":"Hunderdorf","municipality":{"key":"09278139","name":"Hunderdorf","type":"Kreisangehörige_Gemeinde"},"district":{"key":"09278","name":"Straubing-Bogen","type":"Landkreis"},"federalState":{"key":"09","name":"Bayern"}},{"name":"Sollacher Str.","postalCode":"94336","locality":"Hunderdorf","municipality":{"key":"09278139","name":"Hunderdorf","type":"Kreisangehörige_Gemeinde"},"district":{"key":"09278","name":"Straubing-Bogen","type":"Landkreis"},"federalState":{"key":"09","name":"Bayern"}},{"name":"Steinburg","postalCode":"94336","locality":"Hunderdorf","municipality":{"key":"09278139","name":"Hunderdorf","type":"Kreisangehörige_Gemeinde"},"district":{"key":"09278","name":"Straubing-Bogen","type":"Landkreis"},"federalState":{"key":"09","name":"Bayern"}},{"name":"Tananger","postalCode":"94336","locality":"Hunderdorf","municipality":{"key":"09278139","name":"Hunderdorf","type":"Kreisangehörige_Gemeinde"},"district":{"key":"09278","name":"Straubing-Bogen","type":"Landkreis"},"federalState":{"key":"09","name":"Bayern"}},{"name":"Tannenstr.","postalCode":"94336","locality":"Hunderdorf","municipality":{"key":"09278139","name":"Hunderdorf","type":"Kreisangehörige_Gemeinde"},"district":{"key":"09278","name":"Straubing-Bogen","type":"Landkreis"},"federalState":{"key":"09","name":"Bayern"}},{"name":"Taubenstr.","postalCode":"94336","locality":"Hunderdorf","municipality":{"key":"09278139","name":"Hunderdorf","type":"Kreisangehörige_Gemeinde"},"district":{"key":"09278","name":"Straubing-Bogen","type":"Landkreis"},"federalState":{"key":"09","name":"Bayern"}},{"name":"Thananger Str.","postalCode":"94336","locality":"Hunderdorf","municipality":{"key":"09278139","name":"Hunderdorf","type":"Kreisangehörige_Gemeinde"},"district":{"key":"09278","name":"Straubing-Bogen","type":"Landkreis"},"federalState":{"key":"09","name":"Bayern"}},{"name":"Wagnerfeld","postalCode":"94336","locality":"Hunderdorf","municipality":{"key":"09278139","name":"Hunderdorf","type":"Kreisangehörige_Gemeinde"},"district":{"key":"09278","name":"Straubing-Bogen","type":"Landkreis"},"federalState":{"key":"09","name":"Bayern"}},{"name":"Waldwelg-Trail","postalCode":"94336","locality":"Hunderdorf","municipality":{"key":"09278139","name":"Hunderdorf","type":"Kreisangehörige_Gemeinde"},"district":{"key":"09278","name":"Straubing-Bogen","type":"Landkreis"},"federalState":{"key":"09","name":"Bayern"}},{"name":"Wegern","postalCode":"94336","locality":"Hunderdorf","municipality":{"key":"09278139","name":"Hunderdorf","type":"Kreisangehörige_Gemeinde"},"district":{"key":"09278","name":"Straubing-Bogen","type":"Landkreis"},"federalState":{"key":"09","name":"Bayern"}},{"name":"Windberger Str.","postalCode":"94336","locality":"Hunderdorf","municipality":{"key":"09278139","name":"Hunderdorf","type":"Kreisangehörige_Gemeinde"},"district":{"key":"09278","name":"Straubing-Bogen","type":"Landkreis"},"federalState":{"key":"09","name":"Bayern"}},]