[{"key":"10087228","name":"Adlergässli","postalCode":"8260","locality":"Stein am Rhein","commune":{"key":"2964","name":"Stein am Rhein","shortName":"Stein am Rhein"},"district":{"key":"1405","name":"Bezirk Stein"},"canton":{"key":"14","code":"SH","name":"Schaffhausen"},"status":"Real"},{"key":"10179753","name":"Alte Zollstrasse","postalCode":"8260","locality":"Stein am Rhein","commune":{"key":"2964","name":"Stein am Rhein","shortName":"Stein am Rhein"},"district":{"key":"1405","name":"Bezirk Stein"},"canton":{"key":"14","code":"SH","name":"Schaffhausen"},"status":"Real"},{"key":"10195169","name":"Bächli","postalCode":"8260","locality":"Stein am Rhein","commune":{"key":"2964","name":"Stein am Rhein","shortName":"Stein am Rhein"},"district":{"key":"1405","name":"Bezirk Stein"},"canton":{"key":"14","code":"SH","name":"Schaffhausen"},"status":"Real"},{"key":"10071981","name":"Bahnhofstrasse","postalCode":"8260","locality":"Stein am Rhein","commune":{"key":"2964","name":"Stein am Rhein","shortName":"Stein am Rhein"},"district":{"key":"1405","name":"Bezirk Stein"},"canton":{"key":"14","code":"SH","name":"Schaffhausen"},"status":"Real"},{"key":"10031618","name":"Bärengass","postalCode":"8260","locality":"Stein am Rhein","commune":{"key":"2964","name":"Stein am Rhein","shortName":"Stein am Rhein"},"district":{"key":"1405","name":"Bezirk Stein"},"canton":{"key":"14","code":"SH","name":"Schaffhausen"},"status":"Real"},{"key":"10053530","name":"Bim Chretzeturm","postalCode":"8260","locality":"Stein am Rhein","commune":{"key":"2964","name":"Stein am Rhein","shortName":"Stein am Rhein"},"district":{"key":"1405","name":"Bezirk Stein"},"canton":{"key":"14","code":"SH","name":"Schaffhausen"},"status":"Real"},{"key":"10031614","name":"Bim Wisegässli","postalCode":"8260","locality":"Stein am Rhein","commune":{"key":"2964","name":"Stein am Rhein","shortName":"Stein am Rhein"},"district":{"key":"1405","name":"Bezirk Stein"},"canton":{"key":"14","code":"SH","name":"Schaffhausen"},"status":"Real"},{"key":"10141649","name":"Blaurockstieg","postalCode":"8260","locality":"Stein am Rhein","commune":{"key":"2964","name":"Stein am Rhein","shortName":"Stein am Rhein"},"district":{"key":"1405","name":"Bezirk Stein"},"canton":{"key":"14","code":"SH","name":"Schaffhausen"},"status":"Real"},{"key":"10087229","name":"Blaurockstrasse","postalCode":"8260","locality":"Stein am Rhein","commune":{"key":"2964","name":"Stein am Rhein","shortName":"Stein am Rhein"},"district":{"key":"1405","name":"Bezirk Stein"},"canton":{"key":"14","code":"SH","name":"Schaffhausen"},"status":"Real"},{"key":"10121178","name":"Bleiki","postalCode":"8260","locality":"Stein am Rhein","commune":{"key":"2964","name":"Stein am Rhein","shortName":"Stein am Rhein"},"district":{"key":"1405","name":"Bezirk Stein"},"canton":{"key":"14","code":"SH","name":"Schaffhausen"},"status":"Real"},{"key":"10031615","name":"Bockrain","postalCode":"8260","locality":"Stein am Rhein","commune":{"key":"2964","name":"Stein am Rhein","shortName":"Stein am Rhein"},"district":{"key":"1405","name":"Bezirk Stein"},"canton":{"key":"14","code":"SH","name":"Schaffhausen"},"status":"Real"},{"key":"10031616","name":"Bollstieg","postalCode":"8260","locality":"Stein am Rhein","commune":{"key":"2964","name":"Stein am Rhein","shortName":"Stein am Rhein"},"district":{"key":"1405","name":"Bezirk Stein"},"canton":{"key":"14","code":"SH","name":"Schaffhausen"},"status":"Real"},{"key":"10071982","name":"Brodlaubegass","postalCode":"8260","locality":"Stein am Rhein","commune":{"key":"2964","name":"Stein am Rhein","shortName":"Stein am Rhein"},"district":{"key":"1405","name":"Bezirk Stein"},"canton":{"key":"14","code":"SH","name":"Schaffhausen"},"status":"Real"},{"key":"10031617","name":"Bruggsteg","postalCode":"8260","locality":"Stein am Rhein","commune":{"key":"2964","name":"Stein am Rhein","shortName":"Stein am Rhein"},"district":{"key":"1405","name":"Bezirk Stein"},"canton":{"key":"14","code":"SH","name":"Schaffhausen"},"status":"Real"},{"key":"10087230","name":"Burgackerstrasse","postalCode":"8260","locality":"Stein am Rhein","commune":{"key":"2964","name":"Stein am Rhein","shortName":"Stein am Rhein"},"district":{"key":"1405","name":"Bezirk Stein"},"canton":{"key":"14","code":"SH","name":"Schaffhausen"},"status":"Real"},{"key":"10210986","name":"Burgackerweg","postalCode":"8260","locality":"Stein am Rhein","commune":{"key":"2964","name":"Stein am Rhein","shortName":"Stein am Rhein"},"district":{"key":"1405","name":"Bezirk Stein"},"canton":{"key":"14","code":"SH","name":"Schaffhausen"},"status":"Real"},{"key":"10053531","name":"Burgstieg","postalCode":"8260","locality":"Stein am Rhein","commune":{"key":"2964","name":"Stein am Rhein","shortName":"Stein am Rhein"},"district":{"key":"1405","name":"Bezirk Stein"},"canton":{"key":"14","code":"SH","name":"Schaffhausen"},"status":"Real"},{"key":"10071983","name":"Burgwisstrasse","postalCode":"8260","locality":"Stein am Rhein","commune":{"key":"2964","name":"Stein am Rhein","shortName":"Stein am Rhein"},"district":{"key":"1405","name":"Bezirk Stein"},"canton":{"key":"14","code":"SH","name":"Schaffhausen"},"status":"Real"},{"key":"10180891","name":"Chäferstieg","postalCode":"8260","locality":"Stein am Rhein","commune":{"key":"2964","name":"Stein am Rhein","shortName":"Stein am Rhein"},"district":{"key":"1405","name":"Bezirk Stein"},"canton":{"key":"14","code":"SH","name":"Schaffhausen"},"status":"Real"},{"key":"10179754","name":"Chalberweidstrasse","postalCode":"8260","locality":"Stein am Rhein","commune":{"key":"2964","name":"Stein am Rhein","shortName":"Stein am Rhein"},"district":{"key":"1405","name":"Bezirk Stein"},"canton":{"key":"14","code":"SH","name":"Schaffhausen"},"status":"Real"},{"key":"10087231","name":"Charregass","postalCode":"8260","locality":"Stein am Rhein","commune":{"key":"2964","name":"Stein am Rhein","shortName":"Stein am Rhein"},"district":{"key":"1405","name":"Bezirk Stein"},"canton":{"key":"14","code":"SH","name":"Schaffhausen"},"status":"Real"},{"key":"10113217","name":"Chirchhofplatz","postalCode":"8260","locality":"Stein am Rhein","commune":{"key":"2964","name":"Stein am Rhein","shortName":"Stein am Rhein"},"district":{"key":"1405","name":"Bezirk Stein"},"canton":{"key":"14","code":"SH","name":"Schaffhausen"},"status":"Real"},{"key":"10071984","name":"Chlingeweg","postalCode":"8260","locality":"Stein am Rhein","commune":{"key":"2964","name":"Stein am Rhein","shortName":"Stein am Rhein"},"district":{"key":"1405","name":"Bezirk Stein"},"canton":{"key":"14","code":"SH","name":"Schaffhausen"},"status":"Real"},{"key":"10031619","name":"Chlini Schanz","postalCode":"8260","locality":"Stein am Rhein","commune":{"key":"2964","name":"Stein am Rhein","shortName":"Stein am Rhein"},"district":{"key":"1405","name":"Bezirk Stein"},"canton":{"key":"14","code":"SH","name":"Schaffhausen"},"status":"Real"},{"key":"10193350","name":"Chlosterhof","postalCode":"8260","locality":"Stein am Rhein","commune":{"key":"2964","name":"Stein am Rhein","shortName":"Stein am Rhein"},"district":{"key":"1405","name":"Bezirk Stein"},"canton":{"key":"14","code":"SH","name":"Schaffhausen"},"status":"Real"},{"key":"10087232","name":"Chnebelgässli","postalCode":"8260","locality":"Stein am Rhein","commune":{"key":"2964","name":"Stein am Rhein","shortName":"Stein am Rhein"},"district":{"key":"1405","name":"Bezirk Stein"},"canton":{"key":"14","code":"SH","name":"Schaffhausen"},"status":"Real"},{"key":"10031916","name":"Chnebelstrasse","postalCode":"8260","locality":"Stein am Rhein","commune":{"key":"2964","name":"Stein am Rhein","shortName":"Stein am Rhein"},"district":{"key":"1405","name":"Bezirk Stein"},"canton":{"key":"14","code":"SH","name":"Schaffhausen"},"status":"Real"},{"key":"10073089","name":"Choligass","postalCode":"8260","locality":"Stein am Rhein","commune":{"key":"2964","name":"Stein am Rhein","shortName":"Stein am Rhein"},"district":{"key":"1405","name":"Bezirk Stein"},"canton":{"key":"14","code":"SH","name":"Schaffhausen"},"status":"Real"},{"key":"10031917","name":"Chrüzerwis","postalCode":"8260","locality":"Stein am Rhein","commune":{"key":"2964","name":"Stein am Rhein","shortName":"Stein am Rhein"},"district":{"key":"1405","name":"Bezirk Stein"},"canton":{"key":"14","code":"SH","name":"Schaffhausen"},"status":"Real"},{"key":"10031918","name":"Chupferwise","postalCode":"8260","locality":"Stein am Rhein","commune":{"key":"2964","name":"Stein am Rhein","shortName":"Stein am Rhein"},"district":{"key":"1405","name":"Bezirk Stein"},"canton":{"key":"14","code":"SH","name":"Schaffhausen"},"status":"Real"},{"key":"10190664","name":"Degerfelderstrasse","postalCode":"8260","locality":"Stein am Rhein","commune":{"key":"2964","name":"Stein am Rhein","shortName":"Stein am Rhein"},"district":{"key":"1405","name":"Bezirk Stein"},"canton":{"key":"14","code":"SH","name":"Schaffhausen"},"status":"Real"},{"key":"10031919","name":"Degerfelderweg","postalCode":"8260","locality":"Stein am Rhein","commune":{"key":"2964","name":"Stein am Rhein","shortName":"Stein am Rhein"},"district":{"key":"1405","name":"Bezirk Stein"},"canton":{"key":"14","code":"SH","name":"Schaffhausen"},"status":"Real"},{"key":"10031920","name":"Erlenhof","postalCode":"8260","locality":"Stein am Rhein","commune":{"key":"2964","name":"Stein am Rhein","shortName":"Stein am Rhein"},"district":{"key":"1405","name":"Bezirk Stein"},"canton":{"key":"14","code":"SH","name":"Schaffhausen"},"status":"Real"},{"key":"10236175","name":"Erleweg","postalCode":"8260","locality":"Stein am Rhein","commune":{"key":"2964","name":"Stein am Rhein","shortName":"Stein am Rhein"},"district":{"key":"1405","name":"Bezirk Stein"},"canton":{"key":"14","code":"SH","name":"Schaffhausen"},"status":"Real"},{"key":"10187867","name":"Eschenzerstrasse","postalCode":"8260","locality":"Stein am Rhein","commune":{"key":"2964","name":"Stein am Rhein","shortName":"Stein am Rhein"},"district":{"key":"1405","name":"Bezirk Stein"},"canton":{"key":"14","code":"SH","name":"Schaffhausen"},"status":"Real"},{"key":"10110819","name":"Espiweg","postalCode":"8260","locality":"Stein am Rhein","commune":{"key":"2964","name":"Stein am Rhein","shortName":"Stein am Rhein"},"district":{"key":"1405","name":"Bezirk Stein"},"canton":{"key":"14","code":"SH","name":"Schaffhausen"},"status":"Real"},{"key":"10053532","name":"Faleberg","postalCode":"8260","locality":"Stein am Rhein","commune":{"key":"2964","name":"Stein am Rhein","shortName":"Stein am Rhein"},"district":{"key":"1405","name":"Bezirk Stein"},"canton":{"key":"14","code":"SH","name":"Schaffhausen"},"status":"Real"},{"key":"10118150","name":"Fischmarkt","postalCode":"8260","locality":"Stein am Rhein","commune":{"key":"2964","name":"Stein am Rhein","shortName":"Stein am Rhein"},"district":{"key":"1405","name":"Bezirk Stein"},"canton":{"key":"14","code":"SH","name":"Schaffhausen"},"status":"Real"},{"key":"10046636","name":"Flurweg","postalCode":"8260","locality":"Stein am Rhein","commune":{"key":"2964","name":"Stein am Rhein","shortName":"Stein am Rhein"},"district":{"key":"1405","name":"Bezirk Stein"},"canton":{"key":"14","code":"SH","name":"Schaffhausen"},"status":"Real"},{"key":"10031921","name":"Fronhof","postalCode":"8260","locality":"Stein am Rhein","commune":{"key":"2964","name":"Stein am Rhein","shortName":"Stein am Rhein"},"district":{"key":"1405","name":"Bezirk Stein"},"canton":{"key":"14","code":"SH","name":"Schaffhausen"},"status":"Real"},{"key":"10179755","name":"Fronhofgass","postalCode":"8260","locality":"Stein am Rhein","commune":{"key":"2964","name":"Stein am Rhein","shortName":"Stein am Rhein"},"district":{"key":"1405","name":"Bezirk Stein"},"canton":{"key":"14","code":"SH","name":"Schaffhausen"},"status":"Real"},{"key":"10073090","name":"Grossi Schanz","postalCode":"8260","locality":"Stein am Rhein","commune":{"key":"2964","name":"Stein am Rhein","shortName":"Stein am Rhein"},"district":{"key":"1405","name":"Bezirk Stein"},"canton":{"key":"14","code":"SH","name":"Schaffhausen"},"status":"Real"},{"key":"10087233","name":"Guldifuess","postalCode":"8260","locality":"Stein am Rhein","commune":{"key":"2964","name":"Stein am Rhein","shortName":"Stein am Rhein"},"district":{"key":"1405","name":"Bezirk Stein"},"canton":{"key":"14","code":"SH","name":"Schaffhausen"},"status":"Real"},{"key":"10031922","name":"Hanfacker","postalCode":"8260","locality":"Stein am Rhein","commune":{"key":"2964","name":"Stein am Rhein","shortName":"Stein am Rhein"},"district":{"key":"1405","name":"Bezirk Stein"},"canton":{"key":"14","code":"SH","name":"Schaffhausen"},"status":"Real"},{"key":"10031923","name":"Hemishoferstrasse","postalCode":"8260","locality":"Stein am Rhein","commune":{"key":"2964","name":"Stein am Rhein","shortName":"Stein am Rhein"},"district":{"key":"1405","name":"Bezirk Stein"},"canton":{"key":"14","code":"SH","name":"Schaffhausen"},"status":"Real"},{"key":"10107218","name":"Hofwisenstrasse","postalCode":"8260","locality":"Stein am Rhein","commune":{"key":"2964","name":"Stein am Rhein","shortName":"Stein am Rhein"},"district":{"key":"1405","name":"Bezirk Stein"},"canton":{"key":"14","code":"SH","name":"Schaffhausen"},"status":"Real"},{"key":"10073091","name":"Hohenklingenstrasse","postalCode":"8260","locality":"Stein am Rhein","commune":{"key":"2964","name":"Stein am Rhein","shortName":"Stein am Rhein"},"district":{"key":"1405","name":"Bezirk Stein"},"canton":{"key":"14","code":"SH","name":"Schaffhausen"},"status":"Real"},{"key":"10090056","name":"Hohrainstrasse","postalCode":"8260","locality":"Stein am Rhein","commune":{"key":"2964","name":"Stein am Rhein","shortName":"Stein am Rhein"},"district":{"key":"1405","name":"Bezirk Stein"},"canton":{"key":"14","code":"SH","name":"Schaffhausen"},"status":"Real"},{"key":"10031924","name":"Hoppihohstrasse","postalCode":"8260","locality":"Stein am Rhein","commune":{"key":"2964","name":"Stein am Rhein","shortName":"Stein am Rhein"},"district":{"key":"1405","name":"Bezirk Stein"},"canton":{"key":"14","code":"SH","name":"Schaffhausen"},"status":"Real"},{"key":"10031925","name":"Hoseweg","postalCode":"8260","locality":"Stein am Rhein","commune":{"key":"2964","name":"Stein am Rhein","shortName":"Stein am Rhein"},"district":{"key":"1405","name":"Bezirk Stein"},"canton":{"key":"14","code":"SH","name":"Schaffhausen"},"status":"Real"},{"key":"10046637","name":"Huberlistrasse","postalCode":"8260","locality":"Stein am Rhein","commune":{"key":"2964","name":"Stein am Rhein","shortName":"Stein am Rhein"},"district":{"key":"1405","name":"Bezirk Stein"},"canton":{"key":"14","code":"SH","name":"Schaffhausen"},"status":"Real"},{"key":"10031926","name":"Im Boll","postalCode":"8260","locality":"Stein am Rhein","commune":{"key":"2964","name":"Stein am Rhein","shortName":"Stein am Rhein"},"district":{"key":"1405","name":"Bezirk Stein"},"canton":{"key":"14","code":"SH","name":"Schaffhausen"},"status":"Real"},{"key":"10073092","name":"Im Gwand","postalCode":"8260","locality":"Stein am Rhein","commune":{"key":"2964","name":"Stein am Rhein","shortName":"Stein am Rhein"},"district":{"key":"1405","name":"Bezirk Stein"},"canton":{"key":"14","code":"SH","name":"Schaffhausen"},"status":"Real"},{"key":"10125668","name":"Im Randen","postalCode":"8260","locality":"Stein am Rhein","commune":{"key":"2964","name":"Stein am Rhein","shortName":"Stein am Rhein"},"district":{"key":"1405","name":"Bezirk Stein"},"canton":{"key":"14","code":"SH","name":"Schaffhausen"},"status":"Real"},{"key":"10113218","name":"Im Riet","postalCode":"8260","locality":"Stein am Rhein","commune":{"key":"2964","name":"Stein am Rhein","shortName":"Stein am Rhein"},"district":{"key":"1405","name":"Bezirk Stein"},"canton":{"key":"14","code":"SH","name":"Schaffhausen"},"status":"Real"},{"key":"10090057","name":"Kaltenbacherstrasse","postalCode":"8260","locality":"Stein am Rhein","commune":{"key":"2964","name":"Stein am Rhein","shortName":"Stein am Rhein"},"district":{"key":"1405","name":"Bezirk Stein"},"canton":{"key":"14","code":"SH","name":"Schaffhausen"},"status":"Real"},{"key":"10073093","name":"Klingenstrasse","postalCode":"8260","locality":"Stein am Rhein","commune":{"key":"2964","name":"Stein am Rhein","shortName":"Stein am Rhein"},"district":{"key":"1405","name":"Bezirk Stein"},"canton":{"key":"14","code":"SH","name":"Schaffhausen"},"status":"Real"},{"key":"10031927","name":"Köhlerweid","postalCode":"8260","locality":"Stein am Rhein","commune":{"key":"2964","name":"Stein am Rhein","shortName":"Stein am Rhein"},"district":{"key":"1405","name":"Bezirk Stein"},"canton":{"key":"14","code":"SH","name":"Schaffhausen"},"status":"Real"},{"key":"10113219","name":"Landhusweg","postalCode":"8260","locality":"Stein am Rhein","commune":{"key":"2964","name":"Stein am Rhein","shortName":"Stein am Rhein"},"district":{"key":"1405","name":"Bezirk Stein"},"canton":{"key":"14","code":"SH","name":"Schaffhausen"},"status":"Real"},{"key":"10179756","name":"Langstuck","postalCode":"8260","locality":"Stein am Rhein","commune":{"key":"2964","name":"Stein am Rhein","shortName":"Stein am Rhein"},"district":{"key":"1405","name":"Bezirk Stein"},"canton":{"key":"14","code":"SH","name":"Schaffhausen"},"status":"Real"},{"key":"10073094","name":"Metzggass","postalCode":"8260","locality":"Stein am Rhein","commune":{"key":"2964","name":"Stein am Rhein","shortName":"Stein am Rhein"},"district":{"key":"1405","name":"Bezirk Stein"},"canton":{"key":"14","code":"SH","name":"Schaffhausen"},"status":"Real"},{"key":"10090058","name":"Mühlenstrasse","postalCode":"8260","locality":"Stein am Rhein","commune":{"key":"2964","name":"Stein am Rhein","shortName":"Stein am Rhein"},"district":{"key":"1405","name":"Bezirk Stein"},"canton":{"key":"14","code":"SH","name":"Schaffhausen"},"status":"Real"},{"key":"10031928","name":"Neugass","postalCode":"8260","locality":"Stein am Rhein","commune":{"key":"2964","name":"Stein am Rhein","shortName":"Stein am Rhein"},"district":{"key":"1405","name":"Bezirk Stein"},"canton":{"key":"14","code":"SH","name":"Schaffhausen"},"status":"Real"},{"key":"10031929","name":"Niderfeldstrasse","postalCode":"8260","locality":"Stein am Rhein","commune":{"key":"2964","name":"Stein am Rhein","shortName":"Stein am Rhein"},"district":{"key":"1405","name":"Bezirk Stein"},"canton":{"key":"14","code":"SH","name":"Schaffhausen"},"status":"Real"},{"key":"10073095","name":"Oberdörfli","postalCode":"8260","locality":"Stein am Rhein","commune":{"key":"2964","name":"Stein am Rhein","shortName":"Stein am Rhein"},"district":{"key":"1405","name":"Bezirk Stein"},"canton":{"key":"14","code":"SH","name":"Schaffhausen"},"status":"Real"},{"key":"10031930","name":"Obergass","postalCode":"8260","locality":"Stein am Rhein","commune":{"key":"2964","name":"Stein am Rhein","shortName":"Stein am Rhein"},"district":{"key":"1405","name":"Bezirk Stein"},"canton":{"key":"14","code":"SH","name":"Schaffhausen"},"status":"Real"},{"key":"10090059","name":"Oberstadt","postalCode":"8260","locality":"Stein am Rhein","commune":{"key":"2964","name":"Stein am Rhein","shortName":"Stein am Rhein"},"district":{"key":"1405","name":"Bezirk Stein"},"canton":{"key":"14","code":"SH","name":"Schaffhausen"},"status":"Real"},{"key":"10117741","name":"Oehningerstrasse","postalCode":"8260","locality":"Stein am Rhein","commune":{"key":"2964","name":"Stein am Rhein","shortName":"Stein am Rhein"},"district":{"key":"1405","name":"Bezirk Stein"},"canton":{"key":"14","code":"SH","name":"Schaffhausen"},"status":"Real"},{"key":"10031931","name":"Orichhöhe","postalCode":"8260","locality":"Stein am Rhein","commune":{"key":"2964","name":"Stein am Rhein","shortName":"Stein am Rhein"},"district":{"key":"1405","name":"Bezirk Stein"},"canton":{"key":"14","code":"SH","name":"Schaffhausen"},"status":"Real"},{"key":"10192063","name":"Rabewis","postalCode":"8260","locality":"Stein am Rhein","commune":{"key":"2964","name":"Stein am Rhein","shortName":"Stein am Rhein"},"district":{"key":"1405","name":"Bezirk Stein"},"canton":{"key":"14","code":"SH","name":"Schaffhausen"},"status":"Real"},{"key":"10031932","name":"Rathausplatz","postalCode":"8260","locality":"Stein am Rhein","commune":{"key":"2964","name":"Stein am Rhein","shortName":"Stein am Rhein"},"district":{"key":"1405","name":"Bezirk Stein"},"canton":{"key":"14","code":"SH","name":"Schaffhausen"},"status":"Real"},{"key":"10091104","name":"Rhigass","postalCode":"8260","locality":"Stein am Rhein","commune":{"key":"2964","name":"Stein am Rhein","shortName":"Stein am Rhein"},"district":{"key":"1405","name":"Bezirk Stein"},"canton":{"key":"14","code":"SH","name":"Schaffhausen"},"status":"Real"},{"key":"10179757","name":"Rhigüetli","postalCode":"8260","locality":"Stein am Rhein","commune":{"key":"2964","name":"Stein am Rhein","shortName":"Stein am Rhein"},"district":{"key":"1405","name":"Bezirk Stein"},"canton":{"key":"14","code":"SH","name":"Schaffhausen"},"status":"Real"},{"key":"10073096","name":"Rhigüetliweg","postalCode":"8260","locality":"Stein am Rhein","commune":{"key":"2964","name":"Stein am Rhein","shortName":"Stein am Rhein"},"district":{"key":"1405","name":"Bezirk Stein"},"canton":{"key":"14","code":"SH","name":"Schaffhausen"},"status":"Real"},{"key":"10031933","name":"Rhiweg","postalCode":"8260","locality":"Stein am Rhein","commune":{"key":"2964","name":"Stein am Rhein","shortName":"Stein am Rhein"},"district":{"key":"1405","name":"Bezirk Stein"},"canton":{"key":"14","code":"SH","name":"Schaffhausen"},"status":"Real"},{"key":"10091105","name":"Rietstrasse","postalCode":"8260","locality":"Stein am Rhein","commune":{"key":"2964","name":"Stein am Rhein","shortName":"Stein am Rhein"},"district":{"key":"1405","name":"Bezirk Stein"},"canton":{"key":"14","code":"SH","name":"Schaffhausen"},"status":"Real"},{"key":"10161532","name":"Rietweg","postalCode":"8260","locality":"Stein am Rhein","commune":{"key":"2964","name":"Stein am Rhein","shortName":"Stein am Rhein"},"district":{"key":"1405","name":"Bezirk Stein"},"canton":{"key":"14","code":"SH","name":"Schaffhausen"},"status":"Real"},{"key":"10031934","name":"Roggengarbgass","postalCode":"8260","locality":"Stein am Rhein","commune":{"key":"2964","name":"Stein am Rhein","shortName":"Stein am Rhein"},"district":{"key":"1405","name":"Bezirk Stein"},"canton":{"key":"14","code":"SH","name":"Schaffhausen"},"status":"Real"},{"key":"10180892","name":"Römerweg","postalCode":"8260","locality":"Stein am Rhein","commune":{"key":"2964","name":"Stein am Rhein","shortName":"Stein am Rhein"},"district":{"key":"1405","name":"Bezirk Stein"},"canton":{"key":"14","code":"SH","name":"Schaffhausen"},"status":"Real"},{"key":"10031935","name":"Roseberg","postalCode":"8260","locality":"Stein am Rhein","commune":{"key":"2964","name":"Stein am Rhein","shortName":"Stein am Rhein"},"district":{"key":"1405","name":"Bezirk Stein"},"canton":{"key":"14","code":"SH","name":"Schaffhausen"},"status":"Real"},{"key":"10031936","name":"Schiffländi","postalCode":"8260","locality":"Stein am Rhein","commune":{"key":"2964","name":"Stein am Rhein","shortName":"Stein am Rhein"},"district":{"key":"1405","name":"Bezirk Stein"},"canton":{"key":"14","code":"SH","name":"Schaffhausen"},"status":"Real"},{"key":"10091106","name":"Schluecht","postalCode":"8260","locality":"Stein am Rhein","commune":{"key":"2964","name":"Stein am Rhein","shortName":"Stein am Rhein"},"district":{"key":"1405","name":"Bezirk Stein"},"canton":{"key":"14","code":"SH","name":"Schaffhausen"},"status":"Real"},{"key":"10123291","name":"Schwarzhorngass","postalCode":"8260","locality":"Stein am Rhein","commune":{"key":"2964","name":"Stein am Rhein","shortName":"Stein am Rhein"},"district":{"key":"1405","name":"Bezirk Stein"},"canton":{"key":"14","code":"SH","name":"Schaffhausen"},"status":"Real"},{"key":"10073097","name":"Schwemmgrabenstrasse","postalCode":"8260","locality":"Stein am Rhein","commune":{"key":"2964","name":"Stein am Rhein","shortName":"Stein am Rhein"},"district":{"key":"1405","name":"Bezirk Stein"},"canton":{"key":"14","code":"SH","name":"Schaffhausen"},"status":"Real"},{"key":"10031937","name":"Spittelmüli","postalCode":"8260","locality":"Stein am Rhein","commune":{"key":"2964","name":"Stein am Rhein","shortName":"Stein am Rhein"},"district":{"key":"1405","name":"Bezirk Stein"},"canton":{"key":"14","code":"SH","name":"Schaffhausen"},"status":"Real"},{"key":"10190665","name":"Stammerstrasse","postalCode":"8260","locality":"Stein am Rhein","commune":{"key":"2964","name":"Stein am Rhein","shortName":"Stein am Rhein"},"district":{"key":"1405","name":"Bezirk Stein"},"canton":{"key":"14","code":"SH","name":"Schaffhausen"},"status":"Real"},{"key":"10187866","name":"Uf Burg","postalCode":"8260","locality":"Stein am Rhein","commune":{"key":"2964","name":"Stein am Rhein","shortName":"Stein am Rhein"},"district":{"key":"1405","name":"Bezirk Stein"},"canton":{"key":"14","code":"SH","name":"Schaffhausen"},"status":"Real"},{"key":"10179758","name":"Undergass","postalCode":"8260","locality":"Stein am Rhein","commune":{"key":"2964","name":"Stein am Rhein","shortName":"Stein am Rhein"},"district":{"key":"1405","name":"Bezirk Stein"},"canton":{"key":"14","code":"SH","name":"Schaffhausen"},"status":"Real"},{"key":"10154306","name":"Underi Müli","postalCode":"8260","locality":"Stein am Rhein","commune":{"key":"2964","name":"Stein am Rhein","shortName":"Stein am Rhein"},"district":{"key":"1405","name":"Bezirk Stein"},"canton":{"key":"14","code":"SH","name":"Schaffhausen"},"status":"Real"},{"key":"10031938","name":"Understadt","postalCode":"8260","locality":"Stein am Rhein","commune":{"key":"2964","name":"Stein am Rhein","shortName":"Stein am Rhein"},"district":{"key":"1405","name":"Bezirk Stein"},"canton":{"key":"14","code":"SH","name":"Schaffhausen"},"status":"Real"},{"key":"10031939","name":"Wagenhauserstrasse","postalCode":"8260","locality":"Stein am Rhein","commune":{"key":"2964","name":"Stein am Rhein","shortName":"Stein am Rhein"},"district":{"key":"1405","name":"Bezirk Stein"},"canton":{"key":"14","code":"SH","name":"Schaffhausen"},"status":"Real"},{"key":"10073098","name":"Wisegässli","postalCode":"8260","locality":"Stein am Rhein","commune":{"key":"2964","name":"Stein am Rhein","shortName":"Stein am Rhein"},"district":{"key":"1405","name":"Bezirk Stein"},"canton":{"key":"14","code":"SH","name":"Schaffhausen"},"status":"Real"},{"key":"10091107","name":"Zollikof","postalCode":"8260","locality":"Stein am Rhein","commune":{"key":"2964","name":"Stein am Rhein","shortName":"Stein am Rhein"},"district":{"key":"1405","name":"Bezirk Stein"},"canton":{"key":"14","code":"SH","name":"Schaffhausen"},"status":"Real"},{"key":"10031940","name":"Zum Nägelisee","postalCode":"8260","locality":"Stein am Rhein","commune":{"key":"2964","name":"Stein am Rhein","shortName":"Stein am Rhein"},"district":{"key":"1405","name":"Bezirk Stein"},"canton":{"key":"14","code":"SH","name":"Schaffhausen"},"status":"Real"},{"key":"10091108","name":"Zwinglistrasse","postalCode":"8260","locality":"Stein am Rhein","commune":{"key":"2964","name":"Stein am Rhein","shortName":"Stein am Rhein"},"district":{"key":"1405","name":"Bezirk Stein"},"canton":{"key":"14","code":"SH","name":"Schaffhausen"},"status":"Real"},]