[{"key":"10005068","name":"Combe au Curé","postalCode":"2723","locality":"Mont-Tramelan","commune":{"key":"437","name":"Mont-Tramelan","shortName":"Mont-Tramelan"},"district":{"key":"241","name":"Arrondissement administratif Jura bernois"},"canton":{"key":"2","code":"BE","name":"Bern / Berne"},"status":"Real"},{"key":"10088361","name":"La Bise de Cortébert","postalCode":"2723","locality":"Mont-Tramelan","commune":{"key":"437","name":"Mont-Tramelan","shortName":"Mont-Tramelan"},"district":{"key":"241","name":"Arrondissement administratif Jura bernois"},"canton":{"key":"2","code":"BE","name":"Bern / Berne"},"status":"Real"},{"key":"10004411","name":"La Croisée","postalCode":"2723","locality":"Mont-Tramelan","commune":{"key":"437","name":"Mont-Tramelan","shortName":"Mont-Tramelan"},"district":{"key":"241","name":"Arrondissement administratif Jura bernois"},"canton":{"key":"2","code":"BE","name":"Bern / Berne"},"status":"Real"},{"key":"10065423","name":"La Paule","postalCode":"2723","locality":"Mont-Tramelan","commune":{"key":"437","name":"Mont-Tramelan","shortName":"Mont-Tramelan"},"district":{"key":"241","name":"Arrondissement administratif Jura bernois"},"canton":{"key":"2","code":"BE","name":"Bern / Berne"},"status":"Real"},{"key":"10104652","name":"Le Petit Cerneux","postalCode":"2723","locality":"Mont-Tramelan","commune":{"key":"437","name":"Mont-Tramelan","shortName":"Mont-Tramelan"},"district":{"key":"241","name":"Arrondissement administratif Jura bernois"},"canton":{"key":"2","code":"BE","name":"Bern / Berne"},"status":"Real"},{"key":"10083086","name":"Les Bavoux","postalCode":"2723","locality":"Mont-Tramelan","commune":{"key":"437","name":"Mont-Tramelan","shortName":"Mont-Tramelan"},"district":{"key":"241","name":"Arrondissement administratif Jura bernois"},"canton":{"key":"2","code":"BE","name":"Bern / Berne"},"status":"Real"},{"key":"10182034","name":"Les Fontaines","postalCode":"2723","locality":"Mont-Tramelan","commune":{"key":"437","name":"Mont-Tramelan","shortName":"Mont-Tramelan"},"district":{"key":"241","name":"Arrondissement administratif Jura bernois"},"canton":{"key":"2","code":"BE","name":"Bern / Berne"},"status":"Real"},{"key":"10004413","name":"Les Vacheries Bruniers","postalCode":"2723","locality":"Mont-Tramelan","commune":{"key":"437","name":"Mont-Tramelan","shortName":"Mont-Tramelan"},"district":{"key":"241","name":"Arrondissement administratif Jura bernois"},"canton":{"key":"2","code":"BE","name":"Bern / Berne"},"status":"Real"},{"key":"10199541","name":"Métairie des Princes","postalCode":"2723","locality":"Mont-Tramelan","commune":{"key":"437","name":"Mont-Tramelan","shortName":"Mont-Tramelan"},"district":{"key":"241","name":"Arrondissement administratif Jura bernois"},"canton":{"key":"2","code":"BE","name":"Bern / Berne"},"status":"Real"},{"key":"10045546","name":"Pré Vanné","postalCode":"2723","locality":"Mont-Tramelan","commune":{"key":"437","name":"Mont-Tramelan","shortName":"Mont-Tramelan"},"district":{"key":"241","name":"Arrondissement administratif Jura bernois"},"canton":{"key":"2","code":"BE","name":"Bern / Berne"},"status":"Real"},]