[{"name":"Ahorn","postalCode":"94513","locality":"Schönberg","municipality":{"key":"09272147","name":"Schönberg, M","type":"Markt"},"district":{"key":"09272","name":"Freyung-Grafenau","type":"Landkreis"},"federalState":{"key":"09","name":"Bayern"}},{"name":"Ahornring","postalCode":"23923","locality":"Schönberg","municipality":{"key":"13074074","name":"Schönberg, Stadt","type":"Stadt"},"district":{"key":"13074","name":"Nordwestmecklenburg","type":"Landkreis"},"federalState":{"key":"13","name":"Mecklenburg-Vorpommern"}},{"name":"Ahornweg","postalCode":"24217","locality":"Schönberg (Holstein)","municipality":{"key":"01057073","name":"Schönberg (Holstein)","type":"Kreisangehörige_Gemeinde"},"district":{"key":"01057","name":"Plön","type":"Kreis"},"federalState":{"key":"01","name":"Schleswig-Holstein"}},{"name":"Ahornweg","postalCode":"94513","locality":"Schönberg","municipality":{"key":"09272147","name":"Schönberg, M","type":"Markt"},"district":{"key":"09272","name":"Freyung-Grafenau","type":"Landkreis"},"federalState":{"key":"09","name":"Bayern"}},{"name":"Albert-Koch-Str.","postalCode":"24217","locality":"Schönberg (Holstein)","municipality":{"key":"01057073","name":"Schönberg (Holstein)","type":"Kreisangehörige_Gemeinde"},"district":{"key":"01057","name":"Plön","type":"Kreis"},"federalState":{"key":"01","name":"Schleswig-Holstein"}},{"name":"Allensteiner Weg","postalCode":"24217","locality":"Schönberg (Holstein)","municipality":{"key":"01057073","name":"Schönberg (Holstein)","type":"Kreisangehörige_Gemeinde"},"district":{"key":"01057","name":"Plön","type":"Kreis"},"federalState":{"key":"01","name":"Schleswig-Holstein"}},{"name":"Alte Dorfstr.","postalCode":"23923","locality":"Schönberg","municipality":{"key":"13074074","name":"Schönberg, Stadt","type":"Stadt"},"district":{"key":"13074","name":"Nordwestmecklenburg","type":"Landkreis"},"federalState":{"key":"13","name":"Mecklenburg-Vorpommern"}},{"name":"Alte Passauer Str.","postalCode":"94513","locality":"Schönberg","municipality":{"key":"09272147","name":"Schönberg, M","type":"Markt"},"district":{"key":"09272","name":"Freyung-Grafenau","type":"Landkreis"},"federalState":{"key":"09","name":"Bayern"}},{"name":"Alte Poststr.","postalCode":"22929","locality":"Schönberg","municipality":{"key":"01053112","name":"Schönberg","type":"Kreisangehörige_Gemeinde"},"district":{"key":"01053","name":"Herzogtum Lauenburg","type":"Kreis"},"federalState":{"key":"01","name":"Schleswig-Holstein"}},{"name":"Alter Bahndamm","postalCode":"23923","locality":"Schönberg","municipality":{"key":"13074074","name":"Schönberg, Stadt","type":"Stadt"},"district":{"key":"13074","name":"Nordwestmecklenburg","type":"Landkreis"},"federalState":{"key":"13","name":"Mecklenburg-Vorpommern"}},{"name":"Am alten Bahndamm","postalCode":"23923","locality":"Schönberg","municipality":{"key":"13074074","name":"Schönberg, Stadt","type":"Stadt"},"district":{"key":"13074","name":"Nordwestmecklenburg","type":"Landkreis"},"federalState":{"key":"13","name":"Mecklenburg-Vorpommern"}},{"name":"Am alten Bahnhof","postalCode":"24217","locality":"Schönberg (Holstein)","municipality":{"key":"01057073","name":"Schönberg (Holstein)","type":"Kreisangehörige_Gemeinde"},"district":{"key":"01057","name":"Plön","type":"Kreis"},"federalState":{"key":"01","name":"Schleswig-Holstein"}},{"name":"Am Bach","postalCode":"23923","locality":"Schönberg","municipality":{"key":"13074074","name":"Schönberg, Stadt","type":"Stadt"},"district":{"key":"13074","name":"Nordwestmecklenburg","type":"Landkreis"},"federalState":{"key":"13","name":"Mecklenburg-Vorpommern"}},{"name":"Am Bahnhof","postalCode":"23923","locality":"Schönberg","municipality":{"key":"13074074","name":"Schönberg, Stadt","type":"Stadt"},"district":{"key":"13074","name":"Nordwestmecklenburg","type":"Landkreis"},"federalState":{"key":"13","name":"Mecklenburg-Vorpommern"}},{"name":"Am Berg","postalCode":"23923","locality":"Schönberg","municipality":{"key":"13074074","name":"Schönberg, Stadt","type":"Stadt"},"district":{"key":"13074","name":"Nordwestmecklenburg","type":"Landkreis"},"federalState":{"key":"13","name":"Mecklenburg-Vorpommern"}},{"name":"Am Brunnen","postalCode":"54426","locality":"Schönberg","municipality":{"key":"07231115","name":"Schönberg","type":"Kreisangehörige_Gemeinde"},"district":{"key":"07231","name":"Bernkastel-Wittlich","type":"Landkreis"},"federalState":{"key":"07","name":"Rheinland-Pfalz"}},{"name":"Am Golfplatz","postalCode":"24217","locality":"Schönberg (Holstein)","municipality":{"key":"01057073","name":"Schönberg (Holstein)","type":"Kreisangehörige_Gemeinde"},"district":{"key":"01057","name":"Plön","type":"Kreis"},"federalState":{"key":"01","name":"Schleswig-Holstein"}},{"name":"Am Hang","postalCode":"24217","locality":"Schönberg (Holstein)","municipality":{"key":"01057073","name":"Schönberg (Holstein)","type":"Kreisangehörige_Gemeinde"},"district":{"key":"01057","name":"Plön","type":"Kreis"},"federalState":{"key":"01","name":"Schleswig-Holstein"}},{"name":"Am Hopfengarten","postalCode":"94513","locality":"Schönberg","municipality":{"key":"09272147","name":"Schönberg, M","type":"Markt"},"district":{"key":"09272","name":"Freyung-Grafenau","type":"Landkreis"},"federalState":{"key":"09","name":"Bayern"}},{"name":"Am Kalten Damm","postalCode":"23923","locality":"Schönberg","municipality":{"key":"13074074","name":"Schönberg, Stadt","type":"Stadt"},"district":{"key":"13074","name":"Nordwestmecklenburg","type":"Landkreis"},"federalState":{"key":"13","name":"Mecklenburg-Vorpommern"}},{"name":"Am Karpfenteich","postalCode":"24217","locality":"Schönberg (Holstein)","municipality":{"key":"01057073","name":"Schönberg (Holstein)","type":"Kreisangehörige_Gemeinde"},"district":{"key":"01057","name":"Plön","type":"Kreis"},"federalState":{"key":"01","name":"Schleswig-Holstein"}},{"name":"Am Markt","postalCode":"23923","locality":"Schönberg","municipality":{"key":"13074074","name":"Schönberg, Stadt","type":"Stadt"},"district":{"key":"13074","name":"Nordwestmecklenburg","type":"Landkreis"},"federalState":{"key":"13","name":"Mecklenburg-Vorpommern"}},{"name":"Am Markt","postalCode":"24217","locality":"Schönberg (Holstein)","municipality":{"key":"01057073","name":"Schönberg (Holstein)","type":"Kreisangehörige_Gemeinde"},"district":{"key":"01057","name":"Plön","type":"Kreis"},"federalState":{"key":"01","name":"Schleswig-Holstein"}},{"name":"Am Palmberg","postalCode":"23923","locality":"Schönberg","municipality":{"key":"13074074","name":"Schönberg, Stadt","type":"Stadt"},"district":{"key":"13074","name":"Nordwestmecklenburg","type":"Landkreis"},"federalState":{"key":"13","name":"Mecklenburg-Vorpommern"}},{"name":"Am Pastorenbrook","postalCode":"24217","locality":"Schönberg (Holstein)","municipality":{"key":"01057073","name":"Schönberg (Holstein)","type":"Kreisangehörige_Gemeinde"},"district":{"key":"01057","name":"Plön","type":"Kreis"},"federalState":{"key":"01","name":"Schleswig-Holstein"}},{"name":"Am Rummelsberg","postalCode":"22929","locality":"Schönberg","municipality":{"key":"01053112","name":"Schönberg","type":"Kreisangehörige_Gemeinde"},"district":{"key":"01053","name":"Herzogtum Lauenburg","type":"Kreis"},"federalState":{"key":"01","name":"Schleswig-Holstein"}},{"name":"Am Sandweg","postalCode":"23923","locality":"Schönberg","municipality":{"key":"13074074","name":"Schönberg, Stadt","type":"Stadt"},"district":{"key":"13074","name":"Nordwestmecklenburg","type":"Landkreis"},"federalState":{"key":"13","name":"Mecklenburg-Vorpommern"}},{"name":"Am Schäferteich","postalCode":"23923","locality":"Schönberg","municipality":{"key":"13074074","name":"Schönberg, Stadt","type":"Stadt"},"district":{"key":"13074","name":"Nordwestmecklenburg","type":"Landkreis"},"federalState":{"key":"13","name":"Mecklenburg-Vorpommern"}},{"name":"Am Schierbek","postalCode":"24217","locality":"Schönberg (Holstein)","municipality":{"key":"01057073","name":"Schönberg (Holstein)","type":"Kreisangehörige_Gemeinde"},"district":{"key":"01057","name":"Plön","type":"Kreis"},"federalState":{"key":"01","name":"Schleswig-Holstein"}},{"name":"Am Schlossgarten","postalCode":"94513","locality":"Schönberg","municipality":{"key":"09272147","name":"Schönberg, M","type":"Markt"},"district":{"key":"09272","name":"Freyung-Grafenau","type":"Landkreis"},"federalState":{"key":"09","name":"Bayern"}},{"name":"Amtsstr.","postalCode":"23923","locality":"Schönberg","municipality":{"key":"13074074","name":"Schönberg, Stadt","type":"Stadt"},"district":{"key":"13074","name":"Nordwestmecklenburg","type":"Landkreis"},"federalState":{"key":"13","name":"Mecklenburg-Vorpommern"}},{"name":"Am Wurzacker","postalCode":"94513","locality":"Schönberg","municipality":{"key":"09272147","name":"Schönberg, M","type":"Markt"},"district":{"key":"09272","name":"Freyung-Grafenau","type":"Landkreis"},"federalState":{"key":"09","name":"Bayern"}},{"name":"An den Wiesen","postalCode":"23923","locality":"Schönberg","municipality":{"key":"13074074","name":"Schönberg, Stadt","type":"Stadt"},"district":{"key":"13074","name":"Nordwestmecklenburg","type":"Landkreis"},"federalState":{"key":"13","name":"Mecklenburg-Vorpommern"}},{"name":"An der B104","postalCode":"23923","locality":"Schönberg","municipality":{"key":"13074074","name":"Schönberg, Stadt","type":"Stadt"},"district":{"key":"13074","name":"Nordwestmecklenburg","type":"Landkreis"},"federalState":{"key":"13","name":"Mecklenburg-Vorpommern"}},{"name":"An der Bahn","postalCode":"23923","locality":"Schönberg","municipality":{"key":"13074074","name":"Schönberg, Stadt","type":"Stadt"},"district":{"key":"13074","name":"Nordwestmecklenburg","type":"Landkreis"},"federalState":{"key":"13","name":"Mecklenburg-Vorpommern"}},{"name":"An der Kirche","postalCode":"23923","locality":"Schönberg","municipality":{"key":"13074074","name":"Schönberg, Stadt","type":"Stadt"},"district":{"key":"13074","name":"Nordwestmecklenburg","type":"Landkreis"},"federalState":{"key":"13","name":"Mecklenburg-Vorpommern"}},{"name":"An der Kuhbrücksau","postalCode":"24217","locality":"Schönberg (Holstein)","municipality":{"key":"01057073","name":"Schönberg (Holstein)","type":"Kreisangehörige_Gemeinde"},"district":{"key":"01057","name":"Plön","type":"Kreis"},"federalState":{"key":"01","name":"Schleswig-Holstein"}},{"name":"An der Scheiben","postalCode":"94513","locality":"Schönberg","municipality":{"key":"09272147","name":"Schönberg, M","type":"Markt"},"district":{"key":"09272","name":"Freyung-Grafenau","type":"Landkreis"},"federalState":{"key":"09","name":"Bayern"}},{"name":"An der Schönau","postalCode":"22929","locality":"Schönberg","municipality":{"key":"01053112","name":"Schönberg","type":"Kreisangehörige_Gemeinde"},"district":{"key":"01053","name":"Herzogtum Lauenburg","type":"Kreis"},"federalState":{"key":"01","name":"Schleswig-Holstein"}},{"name":"Annaplatz","postalCode":"94513","locality":"Schönberg","municipality":{"key":"09272147","name":"Schönberg, M","type":"Markt"},"district":{"key":"09272","name":"Freyung-Grafenau","type":"Landkreis"},"federalState":{"key":"09","name":"Bayern"}},{"name":"Anton-Voreck-Weg","postalCode":"94513","locality":"Schönberg","municipality":{"key":"09272147","name":"Schönberg, M","type":"Markt"},"district":{"key":"09272","name":"Freyung-Grafenau","type":"Landkreis"},"federalState":{"key":"09","name":"Bayern"}},{"name":"Apfelgarten","postalCode":"24217","locality":"Schönberg (Holstein)","municipality":{"key":"01057073","name":"Schönberg (Holstein)","type":"Kreisangehörige_Gemeinde"},"district":{"key":"01057","name":"Plön","type":"Kreis"},"federalState":{"key":"01","name":"Schleswig-Holstein"}},{"name":"Arndtsberg","postalCode":"23923","locality":"Schönberg","municipality":{"key":"13074074","name":"Schönberg, Stadt","type":"Stadt"},"district":{"key":"13074","name":"Nordwestmecklenburg","type":"Landkreis"},"federalState":{"key":"13","name":"Mecklenburg-Vorpommern"}},{"name":"Arno-Esch-Str.","postalCode":"23923","locality":"Schönberg","municipality":{"key":"13074074","name":"Schönberg, Stadt","type":"Stadt"},"district":{"key":"13074","name":"Nordwestmecklenburg","type":"Landkreis"},"federalState":{"key":"13","name":"Mecklenburg-Vorpommern"}},{"name":"Aspertsham","postalCode":"84573","locality":"Schönberg","municipality":{"key":"09183143","name":"Schönberg","type":"Kreisangehörige_Gemeinde"},"district":{"key":"09183","name":"Mühldorf a.Inn","type":"Landkreis"},"federalState":{"key":"09","name":"Bayern"}},{"name":"August-Bebel-Str.","postalCode":"23923","locality":"Schönberg","municipality":{"key":"13074074","name":"Schönberg, Stadt","type":"Stadt"},"district":{"key":"13074","name":"Nordwestmecklenburg","type":"Landkreis"},"federalState":{"key":"13","name":"Mecklenburg-Vorpommern"}},{"name":"Bahnhofstr.","postalCode":"23923","locality":"Schönberg","municipality":{"key":"13074074","name":"Schönberg, Stadt","type":"Stadt"},"district":{"key":"13074","name":"Nordwestmecklenburg","type":"Landkreis"},"federalState":{"key":"13","name":"Mecklenburg-Vorpommern"}},{"name":"Bahnhofstr.","postalCode":"24217","locality":"Schönberg (Holstein)","municipality":{"key":"01057073","name":"Schönberg (Holstein)","type":"Kreisangehörige_Gemeinde"},"district":{"key":"01057","name":"Plön","type":"Kreis"},"federalState":{"key":"01","name":"Schleswig-Holstein"}},{"name":"Bauernberg","postalCode":"94513","locality":"Schönberg","municipality":{"key":"09272147","name":"Schönberg, M","type":"Markt"},"district":{"key":"09272","name":"Freyung-Grafenau","type":"Landkreis"},"federalState":{"key":"09","name":"Bayern"}},{"name":"Bauhof","postalCode":"23923","locality":"Schönberg","municipality":{"key":"13074074","name":"Schönberg, Stadt","type":"Stadt"},"district":{"key":"13074","name":"Nordwestmecklenburg","type":"Landkreis"},"federalState":{"key":"13","name":"Mecklenburg-Vorpommern"}},{"name":"Baumrader Weg","postalCode":"24217","locality":"Schönberg (Holstein)","municipality":{"key":"01057073","name":"Schönberg (Holstein)","type":"Kreisangehörige_Gemeinde"},"district":{"key":"01057","name":"Plön","type":"Kreis"},"federalState":{"key":"01","name":"Schleswig-Holstein"}},{"name":"Bei Mühlendorn","postalCode":"54426","locality":"Schönberg","municipality":{"key":"07231115","name":"Schönberg","type":"Kreisangehörige_Gemeinde"},"district":{"key":"07231","name":"Bernkastel-Wittlich","type":"Landkreis"},"federalState":{"key":"07","name":"Rheinland-Pfalz"}},{"name":"Bergstr.","postalCode":"94513","locality":"Schönberg","municipality":{"key":"09272147","name":"Schönberg, M","type":"Markt"},"district":{"key":"09272","name":"Freyung-Grafenau","type":"Landkreis"},"federalState":{"key":"09","name":"Bayern"}},{"name":"Bergweg","postalCode":"22929","locality":"Schönberg","municipality":{"key":"01053112","name":"Schönberg","type":"Kreisangehörige_Gemeinde"},"district":{"key":"01053","name":"Herzogtum Lauenburg","type":"Kreis"},"federalState":{"key":"01","name":"Schleswig-Holstein"}},{"name":"Berliner Str.","postalCode":"24217","locality":"Schönberg (Holstein)","municipality":{"key":"01057073","name":"Schönberg (Holstein)","type":"Kreisangehörige_Gemeinde"},"district":{"key":"01057","name":"Plön","type":"Kreis"},"federalState":{"key":"01","name":"Schleswig-Holstein"}},{"name":"Birkenstr.","postalCode":"84573","locality":"Schönberg","municipality":{"key":"09183143","name":"Schönberg","type":"Kreisangehörige_Gemeinde"},"district":{"key":"09183","name":"Mühldorf a.Inn","type":"Landkreis"},"federalState":{"key":"09","name":"Bayern"}},{"name":"Birkenweg","postalCode":"24217","locality":"Schönberg (Holstein)","municipality":{"key":"01057073","name":"Schönberg (Holstein)","type":"Kreisangehörige_Gemeinde"},"district":{"key":"01057","name":"Plön","type":"Kreis"},"federalState":{"key":"01","name":"Schleswig-Holstein"}},{"name":"Birkenweg","postalCode":"94513","locality":"Schönberg","municipality":{"key":"09272147","name":"Schönberg, M","type":"Markt"},"district":{"key":"09272","name":"Freyung-Grafenau","type":"Landkreis"},"federalState":{"key":"09","name":"Bayern"}},{"name":"Bondlring","postalCode":"84573","locality":"Schönberg","municipality":{"key":"09183143","name":"Schönberg","type":"Kreisangehörige_Gemeinde"},"district":{"key":"09183","name":"Mühldorf a.Inn","type":"Landkreis"},"federalState":{"key":"09","name":"Bayern"}},{"name":"Bonhoefferstr.","postalCode":"94513","locality":"Schönberg","municipality":{"key":"09272147","name":"Schönberg, M","type":"Markt"},"district":{"key":"09272","name":"Freyung-Grafenau","type":"Landkreis"},"federalState":{"key":"09","name":"Bayern"}},{"name":"Borwiesenstr.","postalCode":"54426","locality":"Schönberg","municipality":{"key":"07231115","name":"Schönberg","type":"Kreisangehörige_Gemeinde"},"district":{"key":"07231","name":"Bernkastel-Wittlich","type":"Landkreis"},"federalState":{"key":"07","name":"Rheinland-Pfalz"}},{"name":"Bramhorst","postalCode":"24217","locality":"Schönberg (Holstein)","municipality":{"key":"01057073","name":"Schönberg (Holstein)","type":"Kreisangehörige_Gemeinde"},"district":{"key":"01057","name":"Plön","type":"Kreis"},"federalState":{"key":"01","name":"Schleswig-Holstein"}},{"name":"Brauerei","postalCode":"08393","locality":"Schönberg","municipality":{"key":"14524270","name":"Schönberg","type":"Kreisangehörige_Gemeinde"},"district":{"key":"14524","name":"Zwickau","type":"Landkreis"},"federalState":{"key":"14","name":"Sachsen"}},{"name":"Breitenbacher Str.","postalCode":"08393","locality":"Schönberg","municipality":{"key":"14524270","name":"Schönberg","type":"Kreisangehörige_Gemeinde"},"district":{"key":"14524","name":"Zwickau","type":"Landkreis"},"federalState":{"key":"14","name":"Sachsen"}},{"name":"Breslauer Weg","postalCode":"24217","locality":"Schönberg (Holstein)","municipality":{"key":"01057073","name":"Schönberg (Holstein)","type":"Kreisangehörige_Gemeinde"},"district":{"key":"01057","name":"Plön","type":"Kreis"},"federalState":{"key":"01","name":"Schleswig-Holstein"}},{"name":"Brookauweg","postalCode":"24217","locality":"Schönberg (Holstein)","municipality":{"key":"01057073","name":"Schönberg (Holstein)","type":"Kreisangehörige_Gemeinde"},"district":{"key":"01057","name":"Plön","type":"Kreis"},"federalState":{"key":"01","name":"Schleswig-Holstein"}},{"name":"Brookwisch","postalCode":"24217","locality":"Schönberg (Holstein)","municipality":{"key":"01057073","name":"Schönberg (Holstein)","type":"Kreisangehörige_Gemeinde"},"district":{"key":"01057","name":"Plön","type":"Kreis"},"federalState":{"key":"01","name":"Schleswig-Holstein"}},{"name":"Buchenweg","postalCode":"24217","locality":"Schönberg (Holstein)","municipality":{"key":"01057073","name":"Schönberg (Holstein)","type":"Kreisangehörige_Gemeinde"},"district":{"key":"01057","name":"Plön","type":"Kreis"},"federalState":{"key":"01","name":"Schleswig-Holstein"}},{"name":"Bünsdorfer Str.","postalCode":"23923","locality":"Schönberg","municipality":{"key":"13074074","name":"Schönberg, Stadt","type":"Stadt"},"district":{"key":"13074","name":"Nordwestmecklenburg","type":"Landkreis"},"federalState":{"key":"13","name":"Mecklenburg-Vorpommern"}},{"name":"Bürgermeister-Wiese-Str.","postalCode":"24217","locality":"Schönberg (Holstein)","municipality":{"key":"01057073","name":"Schönberg (Holstein)","type":"Kreisangehörige_Gemeinde"},"district":{"key":"01057","name":"Plön","type":"Kreis"},"federalState":{"key":"01","name":"Schleswig-Holstein"}},{"name":"Burgstall","postalCode":"94513","locality":"Schönberg","municipality":{"key":"09272147","name":"Schönberg, M","type":"Markt"},"district":{"key":"09272","name":"Freyung-Grafenau","type":"Landkreis"},"federalState":{"key":"09","name":"Bayern"}},{"name":"Cainsdorfer Bergstr.","postalCode":"08064","locality":"Zwickau","municipality":{"key":"14524330","name":"Zwickau, Stadt","type":"Stadt"},"district":{"key":"14524","name":"Zwickau","type":"Landkreis"},"federalState":{"key":"14","name":"Sachsen"}},{"name":"Cainsdorfer Brücke","postalCode":"08056","locality":"Zwickau","municipality":{"key":"14524330","name":"Zwickau, Stadt","type":"Stadt"},"district":{"key":"14524","name":"Zwickau","type":"Landkreis"},"federalState":{"key":"14","name":"Sachsen"}},{"name":"Cainsdorfer Hauptstr.","postalCode":"08064","locality":"Zwickau","municipality":{"key":"14524330","name":"Zwickau, Stadt","type":"Stadt"},"district":{"key":"14524","name":"Zwickau","type":"Landkreis"},"federalState":{"key":"14","name":"Sachsen"}},{"name":"Cainsdorfer Höhe","postalCode":"08064","locality":"Zwickau","municipality":{"key":"14524330","name":"Zwickau, Stadt","type":"Stadt"},"district":{"key":"14524","name":"Zwickau","type":"Landkreis"},"federalState":{"key":"14","name":"Sachsen"}},{"name":"Cainsdorfer Str.","postalCode":"08064","locality":"Zwickau","municipality":{"key":"14524330","name":"Zwickau, Stadt","type":"Stadt"},"district":{"key":"14524","name":"Zwickau","type":"Landkreis"},"federalState":{"key":"14","name":"Sachsen"}},{"name":"Cainsdorfer Waldweg","postalCode":"08064","locality":"Zwickau","municipality":{"key":"14524330","name":"Zwickau, Stadt","type":"Stadt"},"district":{"key":"14524","name":"Zwickau","type":"Landkreis"},"federalState":{"key":"14","name":"Sachsen"}},{"name":"Carl-Goerdeler-Str.","postalCode":"08066","locality":"Zwickau","municipality":{"key":"14524330","name":"Zwickau, Stadt","type":"Stadt"},"district":{"key":"14524","name":"Zwickau","type":"Landkreis"},"federalState":{"key":"14","name":"Sachsen"}},{"name":"Carl-Wolf-Str.","postalCode":"08066","locality":"Zwickau","municipality":{"key":"14524330","name":"Zwickau, Stadt","type":"Stadt"},"district":{"key":"14524","name":"Zwickau","type":"Landkreis"},"federalState":{"key":"14","name":"Sachsen"}},{"name":"Carolastr.","postalCode":"08056","locality":"Zwickau","municipality":{"key":"14524330","name":"Zwickau, Stadt","type":"Stadt"},"district":{"key":"14524","name":"Zwickau","type":"Landkreis"},"federalState":{"key":"14","name":"Sachsen"}},{"name":"Casparistr.","postalCode":"08056","locality":"Zwickau","municipality":{"key":"14524330","name":"Zwickau, Stadt","type":"Stadt"},"district":{"key":"14524","name":"Zwickau","type":"Landkreis"},"federalState":{"key":"14","name":"Sachsen"}},{"name":"Christian-Kautzsch-Str.","postalCode":"08056","locality":"Zwickau","municipality":{"key":"14524330","name":"Zwickau, Stadt","type":"Stadt"},"district":{"key":"14524","name":"Zwickau","type":"Landkreis"},"federalState":{"key":"14","name":"Sachsen"}},{"name":"Christianstr.","postalCode":"08062","locality":"Zwickau","municipality":{"key":"14524330","name":"Zwickau, Stadt","type":"Stadt"},"district":{"key":"14524","name":"Zwickau","type":"Landkreis"},"federalState":{"key":"14","name":"Sachsen"}},{"name":"Clara-Zetkin-Str.","postalCode":"08058","locality":"Zwickau","municipality":{"key":"14524330","name":"Zwickau, Stadt","type":"Stadt"},"district":{"key":"14524","name":"Zwickau","type":"Landkreis"},"federalState":{"key":"14","name":"Sachsen"}},{"name":"Colombstr.","postalCode":"08066","locality":"Zwickau","municipality":{"key":"14524330","name":"Zwickau, Stadt","type":"Stadt"},"district":{"key":"14524","name":"Zwickau","type":"Landkreis"},"federalState":{"key":"14","name":"Sachsen"}},{"name":"Comeniusweg","postalCode":"08056","locality":"Zwickau","municipality":{"key":"14524330","name":"Zwickau, Stadt","type":"Stadt"},"district":{"key":"14524","name":"Zwickau","type":"Landkreis"},"federalState":{"key":"14","name":"Sachsen"}},{"name":"Crataegusdamm","postalCode":"08056","locality":"Zwickau","municipality":{"key":"14524330","name":"Zwickau, Stadt","type":"Stadt"},"district":{"key":"14524","name":"Zwickau","type":"Landkreis"},"federalState":{"key":"14","name":"Sachsen"}},{"name":"Crimmitschauer Str.","postalCode":"08056","locality":"Zwickau","municipality":{"key":"14524330","name":"Zwickau, Stadt","type":"Stadt"},"district":{"key":"14524","name":"Zwickau","type":"Landkreis"},"federalState":{"key":"14","name":"Sachsen"}},{"name":"Crimmitschauer Str.","postalCode":"08058","locality":"Zwickau","municipality":{"key":"14524330","name":"Zwickau, Stadt","type":"Stadt"},"district":{"key":"14524","name":"Zwickau","type":"Landkreis"},"federalState":{"key":"14","name":"Sachsen"}},{"name":"Crossener Kirchsteig","postalCode":"08058","locality":"Zwickau","municipality":{"key":"14524330","name":"Zwickau, Stadt","type":"Stadt"},"district":{"key":"14524","name":"Zwickau","type":"Landkreis"},"federalState":{"key":"14","name":"Sachsen"}},{"name":"Crossener Kirchstr.","postalCode":"08058","locality":"Zwickau","municipality":{"key":"14524330","name":"Zwickau, Stadt","type":"Stadt"},"district":{"key":"14524","name":"Zwickau","type":"Landkreis"},"federalState":{"key":"14","name":"Sachsen"}},{"name":"Crossener Marktsteig","postalCode":"08058","locality":"Zwickau","municipality":{"key":"14524330","name":"Zwickau, Stadt","type":"Stadt"},"district":{"key":"14524","name":"Zwickau","type":"Landkreis"},"federalState":{"key":"14","name":"Sachsen"}},{"name":"Crossener Str.","postalCode":"08058","locality":"Zwickau","municipality":{"key":"14524330","name":"Zwickau, Stadt","type":"Stadt"},"district":{"key":"14524","name":"Zwickau","type":"Landkreis"},"federalState":{"key":"14","name":"Sachsen"}},{"name":"Culitzscher Weg","postalCode":"08064","locality":"Zwickau","municipality":{"key":"14524330","name":"Zwickau, Stadt","type":"Stadt"},"district":{"key":"14524","name":"Zwickau","type":"Landkreis"},"federalState":{"key":"14","name":"Sachsen"}},{"name":"Dassower Str.","postalCode":"23923","locality":"Schönberg","municipality":{"key":"13074074","name":"Schönberg, Stadt","type":"Stadt"},"district":{"key":"13074","name":"Nordwestmecklenburg","type":"Landkreis"},"federalState":{"key":"13","name":"Mecklenburg-Vorpommern"}},{"name":"Deggendorfer Str.","postalCode":"94513","locality":"Schönberg","municipality":{"key":"09272147","name":"Schönberg, M","type":"Markt"},"district":{"key":"09272","name":"Freyung-Grafenau","type":"Landkreis"},"federalState":{"key":"09","name":"Bayern"}},{"name":"Deichweg","postalCode":"24217","locality":"Schönberg (Holstein)","municipality":{"key":"01057073","name":"Schönberg (Holstein)","type":"Kreisangehörige_Gemeinde"},"district":{"key":"01057","name":"Plön","type":"Kreis"},"federalState":{"key":"01","name":"Schleswig-Holstein"}},{"name":"Dorfstr.","postalCode":"08393","locality":"Schönberg","municipality":{"key":"14524270","name":"Schönberg","type":"Kreisangehörige_Gemeinde"},"district":{"key":"14524","name":"Zwickau","type":"Landkreis"},"federalState":{"key":"14","name":"Sachsen"}},{"name":"Dorfstr.","postalCode":"22929","locality":"Schönberg","municipality":{"key":"01053112","name":"Schönberg","type":"Kreisangehörige_Gemeinde"},"district":{"key":"01053","name":"Herzogtum Lauenburg","type":"Kreis"},"federalState":{"key":"01","name":"Schleswig-Holstein"}},{"name":"Dorfstr. Petersberg","postalCode":"23923","locality":"Schönberg","municipality":{"key":"13074074","name":"Schönberg, Stadt","type":"Stadt"},"district":{"key":"13074","name":"Nordwestmecklenburg","type":"Landkreis"},"federalState":{"key":"13","name":"Mecklenburg-Vorpommern"}},{"name":"Dr.-Josef-Ammer-Str.","postalCode":"94513","locality":"Schönberg","municipality":{"key":"09272147","name":"Schönberg, M","type":"Markt"},"district":{"key":"09272","name":"Freyung-Grafenau","type":"Landkreis"},"federalState":{"key":"09","name":"Bayern"}},{"name":"Eekenring","postalCode":"24217","locality":"Schönberg (Holstein)","municipality":{"key":"01057073","name":"Schönberg (Holstein)","type":"Kreisangehörige_Gemeinde"},"district":{"key":"01057","name":"Plön","type":"Kreis"},"federalState":{"key":"01","name":"Schleswig-Holstein"}},{"name":"Eichenstr.","postalCode":"84573","locality":"Schönberg","municipality":{"key":"09183143","name":"Schönberg","type":"Kreisangehörige_Gemeinde"},"district":{"key":"09183","name":"Mühldorf a.Inn","type":"Landkreis"},"federalState":{"key":"09","name":"Bayern"}},{"name":"Eichenweg","postalCode":"24217","locality":"Schönberg (Holstein)","municipality":{"key":"01057073","name":"Schönberg (Holstein)","type":"Kreisangehörige_Gemeinde"},"district":{"key":"01057","name":"Plön","type":"Kreis"},"federalState":{"key":"01","name":"Schleswig-Holstein"}},{"name":"Eichkamp","postalCode":"24217","locality":"Schönberg (Holstein)","municipality":{"key":"01057073","name":"Schönberg (Holstein)","type":"Kreisangehörige_Gemeinde"},"district":{"key":"01057","name":"Plön","type":"Kreis"},"federalState":{"key":"01","name":"Schleswig-Holstein"}},{"name":"Eichkampredder","postalCode":"24217","locality":"Schönberg (Holstein)","municipality":{"key":"01057073","name":"Schönberg (Holstein)","type":"Kreisangehörige_Gemeinde"},"district":{"key":"01057","name":"Plön","type":"Kreis"},"federalState":{"key":"01","name":"Schleswig-Holstein"}},{"name":"Elsenbach","postalCode":"84573","locality":"Schönberg","municipality":{"key":"09183143","name":"Schönberg","type":"Kreisangehörige_Gemeinde"},"district":{"key":"09183","name":"Mühldorf a.Inn","type":"Landkreis"},"federalState":{"key":"09","name":"Bayern"}},{"name":"Ernst-Barlach-Str.","postalCode":"23923","locality":"Schönberg","municipality":{"key":"13074074","name":"Schönberg, Stadt","type":"Stadt"},"district":{"key":"13074","name":"Nordwestmecklenburg","type":"Landkreis"},"federalState":{"key":"13","name":"Mecklenburg-Vorpommern"}},{"name":"Eschenweg","postalCode":"24217","locality":"Schönberg (Holstein)","municipality":{"key":"01057073","name":"Schönberg (Holstein)","type":"Kreisangehörige_Gemeinde"},"district":{"key":"01057","name":"Plön","type":"Kreis"},"federalState":{"key":"01","name":"Schleswig-Holstein"}},{"name":"Eschenweg","postalCode":"94513","locality":"Schönberg","municipality":{"key":"09272147","name":"Schönberg, M","type":"Markt"},"district":{"key":"09272","name":"Freyung-Grafenau","type":"Landkreis"},"federalState":{"key":"09","name":"Bayern"}},{"name":"Ettlmühle","postalCode":"94513","locality":"Schönberg","municipality":{"key":"09272147","name":"Schönberg, M","type":"Markt"},"district":{"key":"09272","name":"Freyung-Grafenau","type":"Landkreis"},"federalState":{"key":"09","name":"Bayern"}},{"name":"Färberweg","postalCode":"94513","locality":"Schönberg","municipality":{"key":"09272147","name":"Schönberg, M","type":"Markt"},"district":{"key":"09272","name":"Freyung-Grafenau","type":"Landkreis"},"federalState":{"key":"09","name":"Bayern"}},{"name":"Fasanenweg","postalCode":"24217","locality":"Schönberg (Holstein)","municipality":{"key":"01057073","name":"Schönberg (Holstein)","type":"Kreisangehörige_Gemeinde"},"district":{"key":"01057","name":"Plön","type":"Kreis"},"federalState":{"key":"01","name":"Schleswig-Holstein"}},{"name":"Feldstr.","postalCode":"23923","locality":"Schönberg","municipality":{"key":"13074074","name":"Schönberg, Stadt","type":"Stadt"},"district":{"key":"13074","name":"Nordwestmecklenburg","type":"Landkreis"},"federalState":{"key":"13","name":"Mecklenburg-Vorpommern"}},{"name":"Feldstr.","postalCode":"24217","locality":"Schönberg (Holstein)","municipality":{"key":"01057073","name":"Schönberg (Holstein)","type":"Kreisangehörige_Gemeinde"},"district":{"key":"01057","name":"Plön","type":"Kreis"},"federalState":{"key":"01","name":"Schleswig-Holstein"}},{"name":"Fernautal","postalCode":"24217","locality":"Schönberg (Holstein)","municipality":{"key":"01057073","name":"Schönberg (Holstein)","type":"Kreisangehörige_Gemeinde"},"district":{"key":"01057","name":"Plön","type":"Kreis"},"federalState":{"key":"01","name":"Schleswig-Holstein"}},{"name":"Fichtenstr.","postalCode":"84573","locality":"Schönberg","municipality":{"key":"09183143","name":"Schönberg","type":"Kreisangehörige_Gemeinde"},"district":{"key":"09183","name":"Mühldorf a.Inn","type":"Landkreis"},"federalState":{"key":"09","name":"Bayern"}},{"name":"Fischer-Ehlers-Weg","postalCode":"24217","locality":"Schönberg (Holstein)","municipality":{"key":"01057073","name":"Schönberg (Holstein)","type":"Kreisangehörige_Gemeinde"},"district":{"key":"01057","name":"Plön","type":"Kreis"},"federalState":{"key":"01","name":"Schleswig-Holstein"}},{"name":"Fliedergang","postalCode":"24217","locality":"Schönberg (Holstein)","municipality":{"key":"01057073","name":"Schönberg (Holstein)","type":"Kreisangehörige_Gemeinde"},"district":{"key":"01057","name":"Plön","type":"Kreis"},"federalState":{"key":"01","name":"Schleswig-Holstein"}},{"name":"Franzenweg","postalCode":"08393","locality":"Schönberg","municipality":{"key":"14524270","name":"Schönberg","type":"Kreisangehörige_Gemeinde"},"district":{"key":"14524","name":"Zwickau","type":"Landkreis"},"federalState":{"key":"14","name":"Sachsen"}},{"name":"Friedhofsweg","postalCode":"24217","locality":"Schönberg (Holstein)","municipality":{"key":"01057073","name":"Schönberg (Holstein)","type":"Kreisangehörige_Gemeinde"},"district":{"key":"01057","name":"Plön","type":"Kreis"},"federalState":{"key":"01","name":"Schleswig-Holstein"}},{"name":"Fritz-Buddin-Ring","postalCode":"23923","locality":"Schönberg","municipality":{"key":"13074074","name":"Schönberg, Stadt","type":"Stadt"},"district":{"key":"13074","name":"Nordwestmecklenburg","type":"Landkreis"},"federalState":{"key":"13","name":"Mecklenburg-Vorpommern"}},{"name":"Fritz-Reuter-Str.","postalCode":"23923","locality":"Schönberg","municipality":{"key":"13074074","name":"Schönberg, Stadt","type":"Stadt"},"district":{"key":"13074","name":"Nordwestmecklenburg","type":"Landkreis"},"federalState":{"key":"13","name":"Mecklenburg-Vorpommern"}},{"name":"Fritz-Reuter-Str.","postalCode":"24217","locality":"Schönberg (Holstein)","municipality":{"key":"01057073","name":"Schönberg (Holstein)","type":"Kreisangehörige_Gemeinde"},"district":{"key":"01057","name":"Plön","type":"Kreis"},"federalState":{"key":"01","name":"Schleswig-Holstein"}},{"name":"Frohnreutherstr.","postalCode":"94513","locality":"Schönberg","municipality":{"key":"09272147","name":"Schönberg, M","type":"Markt"},"district":{"key":"09272","name":"Freyung-Grafenau","type":"Landkreis"},"federalState":{"key":"09","name":"Bayern"}},{"name":"Fuchsberg","postalCode":"24217","locality":"Schönberg (Holstein)","municipality":{"key":"01057073","name":"Schönberg (Holstein)","type":"Kreisangehörige_Gemeinde"},"district":{"key":"01057","name":"Plön","type":"Kreis"},"federalState":{"key":"01","name":"Schleswig-Holstein"}},{"name":"Gartenweg","postalCode":"23923","locality":"Schönberg","municipality":{"key":"13074074","name":"Schönberg, Stadt","type":"Stadt"},"district":{"key":"13074","name":"Nordwestmecklenburg","type":"Landkreis"},"federalState":{"key":"13","name":"Mecklenburg-Vorpommern"}},{"name":"Gefühlsweg","postalCode":"94513","locality":"Schönberg","municipality":{"key":"09272147","name":"Schönberg, M","type":"Markt"},"district":{"key":"09272","name":"Freyung-Grafenau","type":"Landkreis"},"federalState":{"key":"09","name":"Bayern"}},{"name":"Gehertsham","postalCode":"84573","locality":"Schönberg","municipality":{"key":"09183143","name":"Schönberg","type":"Kreisangehörige_Gemeinde"},"district":{"key":"09183","name":"Mühldorf a.Inn","type":"Landkreis"},"federalState":{"key":"09","name":"Bayern"}},{"name":"Georg-Thorn-Str.","postalCode":"24217","locality":"Schönberg (Holstein)","municipality":{"key":"01057073","name":"Schönberg (Holstein)","type":"Kreisangehörige_Gemeinde"},"district":{"key":"01057","name":"Plön","type":"Kreis"},"federalState":{"key":"01","name":"Schleswig-Holstein"}},{"name":"Gerlesreuth","postalCode":"94513","locality":"Schönberg","municipality":{"key":"09272147","name":"Schönberg, M","type":"Markt"},"district":{"key":"09272","name":"Freyung-Grafenau","type":"Landkreis"},"federalState":{"key":"09","name":"Bayern"}},{"name":"Gewerbestr.","postalCode":"84573","locality":"Schönberg","municipality":{"key":"09183143","name":"Schönberg","type":"Kreisangehörige_Gemeinde"},"district":{"key":"09183","name":"Mühldorf a.Inn","type":"Landkreis"},"federalState":{"key":"09","name":"Bayern"}},{"name":"Goethestr.","postalCode":"24217","locality":"Schönberg (Holstein)","municipality":{"key":"01057073","name":"Schönberg (Holstein)","type":"Kreisangehörige_Gemeinde"},"district":{"key":"01057","name":"Plön","type":"Kreis"},"federalState":{"key":"01","name":"Schleswig-Holstein"}},{"name":"Gorch-Fock-Str.","postalCode":"24217","locality":"Schönberg (Holstein)","municipality":{"key":"01057073","name":"Schönberg (Holstein)","type":"Kreisangehörige_Gemeinde"},"district":{"key":"01057","name":"Plön","type":"Kreis"},"federalState":{"key":"01","name":"Schleswig-Holstein"}},{"name":"Grafenauer Str.","postalCode":"94513","locality":"Schönberg","municipality":{"key":"09272147","name":"Schönberg, M","type":"Markt"},"district":{"key":"09272","name":"Freyung-Grafenau","type":"Landkreis"},"federalState":{"key":"09","name":"Bayern"}},{"name":"Graskamp","postalCode":"24217","locality":"Schönberg (Holstein)","municipality":{"key":"01057073","name":"Schönberg (Holstein)","type":"Kreisangehörige_Gemeinde"},"district":{"key":"01057","name":"Plön","type":"Kreis"},"federalState":{"key":"01","name":"Schleswig-Holstein"}},{"name":"Grimmberg","postalCode":"23923","locality":"Schönberg","municipality":{"key":"13074074","name":"Schönberg, Stadt","type":"Stadt"},"district":{"key":"13074","name":"Nordwestmecklenburg","type":"Landkreis"},"federalState":{"key":"13","name":"Mecklenburg-Vorpommern"}},{"name":"Große Heide","postalCode":"24217","locality":"Schönberg (Holstein)","municipality":{"key":"01057073","name":"Schönberg (Holstein)","type":"Kreisangehörige_Gemeinde"},"district":{"key":"01057","name":"Plön","type":"Kreis"},"federalState":{"key":"01","name":"Schleswig-Holstein"}},{"name":"Große Mühlenstr.","postalCode":"24217","locality":"Schönberg (Holstein)","municipality":{"key":"01057073","name":"Schönberg (Holstein)","type":"Kreisangehörige_Gemeinde"},"district":{"key":"01057","name":"Plön","type":"Kreis"},"federalState":{"key":"01","name":"Schleswig-Holstein"}},{"name":"Grüner Weg","postalCode":"23923","locality":"Schönberg","municipality":{"key":"13074074","name":"Schönberg, Stadt","type":"Stadt"},"district":{"key":"13074","name":"Nordwestmecklenburg","type":"Landkreis"},"federalState":{"key":"13","name":"Mecklenburg-Vorpommern"}},{"name":"Günther-Prien-Str.","postalCode":"24217","locality":"Schönberg (Holstein)","municipality":{"key":"01057073","name":"Schönberg (Holstein)","type":"Kreisangehörige_Gemeinde"},"district":{"key":"01057","name":"Plön","type":"Kreis"},"federalState":{"key":"01","name":"Schleswig-Holstein"}},{"name":"Habernberg","postalCode":"94513","locality":"Schönberg","municipality":{"key":"09272147","name":"Schönberg, M","type":"Markt"},"district":{"key":"09272","name":"Freyung-Grafenau","type":"Landkreis"},"federalState":{"key":"09","name":"Bayern"}},{"name":"Hafergang","postalCode":"24217","locality":"Schönberg (Holstein)","municipality":{"key":"01057073","name":"Schönberg (Holstein)","type":"Kreisangehörige_Gemeinde"},"district":{"key":"01057","name":"Plön","type":"Kreis"},"federalState":{"key":"01","name":"Schleswig-Holstein"}},{"name":"Haibachstr.","postalCode":"94513","locality":"Schönberg","municipality":{"key":"09272147","name":"Schönberg, M","type":"Markt"},"district":{"key":"09272","name":"Freyung-Grafenau","type":"Landkreis"},"federalState":{"key":"09","name":"Bayern"}},{"name":"Haljalastr.","postalCode":"24217","locality":"Schönberg (Holstein)","municipality":{"key":"01057073","name":"Schönberg (Holstein)","type":"Kreisangehörige_Gemeinde"},"district":{"key":"01057","name":"Plön","type":"Kreis"},"federalState":{"key":"01","name":"Schleswig-Holstein"}},{"name":"Hans-Asmus-Schneekloth-Weg","postalCode":"24217","locality":"Schönberg (Holstein)","municipality":{"key":"01057073","name":"Schönberg (Holstein)","type":"Kreisangehörige_Gemeinde"},"district":{"key":"01057","name":"Plön","type":"Kreis"},"federalState":{"key":"01","name":"Schleswig-Holstein"}},{"name":"Hans-Sachs-Str.","postalCode":"24217","locality":"Schönberg (Holstein)","municipality":{"key":"01057073","name":"Schönberg (Holstein)","type":"Kreisangehörige_Gemeinde"},"district":{"key":"01057","name":"Plön","type":"Kreis"},"federalState":{"key":"01","name":"Schleswig-Holstein"}},{"name":"Harderkoppel","postalCode":"24217","locality":"Schönberg (Holstein)","municipality":{"key":"01057073","name":"Schönberg (Holstein)","type":"Kreisangehörige_Gemeinde"},"district":{"key":"01057","name":"Plön","type":"Kreis"},"federalState":{"key":"01","name":"Schleswig-Holstein"}},{"name":"Hartigskuhle","postalCode":"24217","locality":"Schönberg (Holstein)","municipality":{"key":"01057073","name":"Schönberg (Holstein)","type":"Kreisangehörige_Gemeinde"},"district":{"key":"01057","name":"Plön","type":"Kreis"},"federalState":{"key":"01","name":"Schleswig-Holstein"}},{"name":"Haselstieg","postalCode":"24217","locality":"Schönberg (Holstein)","municipality":{"key":"01057073","name":"Schönberg (Holstein)","type":"Kreisangehörige_Gemeinde"},"district":{"key":"01057","name":"Plön","type":"Kreis"},"federalState":{"key":"01","name":"Schleswig-Holstein"}},{"name":"Haunerland","postalCode":"24217","locality":"Schönberg (Holstein)","municipality":{"key":"01057073","name":"Schönberg (Holstein)","type":"Kreisangehörige_Gemeinde"},"district":{"key":"01057","name":"Plön","type":"Kreis"},"federalState":{"key":"01","name":"Schleswig-Holstein"}},{"name":"Hauptstr.","postalCode":"08393","locality":"Schönberg","municipality":{"key":"14524270","name":"Schönberg","type":"Kreisangehörige_Gemeinde"},"district":{"key":"14524","name":"Zwickau","type":"Landkreis"},"federalState":{"key":"14","name":"Sachsen"}},{"name":"Hauptstr.","postalCode":"23923","locality":"Schönberg","municipality":{"key":"13074074","name":"Schönberg, Stadt","type":"Stadt"},"district":{"key":"13074","name":"Nordwestmecklenburg","type":"Landkreis"},"federalState":{"key":"13","name":"Mecklenburg-Vorpommern"}},{"name":"Hauptstr.","postalCode":"84573","locality":"Schönberg","municipality":{"key":"09183143","name":"Schönberg","type":"Kreisangehörige_Gemeinde"},"district":{"key":"09183","name":"Mühldorf a.Inn","type":"Landkreis"},"federalState":{"key":"09","name":"Bayern"}},{"name":"Hauptstr.","postalCode":"94513","locality":"Schönberg","municipality":{"key":"09272147","name":"Schönberg, M","type":"Markt"},"district":{"key":"09272","name":"Freyung-Grafenau","type":"Landkreis"},"federalState":{"key":"09","name":"Bayern"}},{"name":"Hebbelstr.","postalCode":"24217","locality":"Schönberg (Holstein)","municipality":{"key":"01057073","name":"Schönberg (Holstein)","type":"Kreisangehörige_Gemeinde"},"district":{"key":"01057","name":"Plön","type":"Kreis"},"federalState":{"key":"01","name":"Schleswig-Holstein"}},{"name":"Helligendamm","postalCode":"24217","locality":"Schönberg (Holstein)","municipality":{"key":"01057073","name":"Schönberg (Holstein)","type":"Kreisangehörige_Gemeinde"},"district":{"key":"01057","name":"Plön","type":"Kreis"},"federalState":{"key":"01","name":"Schleswig-Holstein"}},{"name":"Herbergsweg","postalCode":"24217","locality":"Schönberg (Holstein)","municipality":{"key":"01057073","name":"Schönberg (Holstein)","type":"Kreisangehörige_Gemeinde"},"district":{"key":"01057","name":"Plön","type":"Kreis"},"federalState":{"key":"01","name":"Schleswig-Holstein"}},{"name":"Herderstr.","postalCode":"24217","locality":"Schönberg (Holstein)","municipality":{"key":"01057073","name":"Schönberg (Holstein)","type":"Kreisangehörige_Gemeinde"},"district":{"key":"01057","name":"Plön","type":"Kreis"},"federalState":{"key":"01","name":"Schleswig-Holstein"}},{"name":"Hermann-Löns-Weg","postalCode":"24217","locality":"Schönberg (Holstein)","municipality":{"key":"01057073","name":"Schönberg (Holstein)","type":"Kreisangehörige_Gemeinde"},"district":{"key":"01057","name":"Plön","type":"Kreis"},"federalState":{"key":"01","name":"Schleswig-Holstein"}},{"name":"Herrenholzstr.","postalCode":"94513","locality":"Schönberg","municipality":{"key":"09272147","name":"Schönberg, M","type":"Markt"},"district":{"key":"09272","name":"Freyung-Grafenau","type":"Landkreis"},"federalState":{"key":"09","name":"Bayern"}},{"name":"Herzog-Albrecht-Str.","postalCode":"94513","locality":"Schönberg","municipality":{"key":"09272147","name":"Schönberg, M","type":"Markt"},"district":{"key":"09272","name":"Freyung-Grafenau","type":"Landkreis"},"federalState":{"key":"09","name":"Bayern"}},{"name":"Hinteregasse","postalCode":"94513","locality":"Schönberg","municipality":{"key":"09272147","name":"Schönberg, M","type":"Markt"},"district":{"key":"09272","name":"Freyung-Grafenau","type":"Landkreis"},"federalState":{"key":"09","name":"Bayern"}},{"name":"Hinterstr.","postalCode":"23923","locality":"Schönberg","municipality":{"key":"13074074","name":"Schönberg, Stadt","type":"Stadt"},"district":{"key":"13074","name":"Nordwestmecklenburg","type":"Landkreis"},"federalState":{"key":"13","name":"Mecklenburg-Vorpommern"}},{"name":"Hochweg","postalCode":"94513","locality":"Schönberg","municipality":{"key":"09272147","name":"Schönberg, M","type":"Markt"},"district":{"key":"09272","name":"Freyung-Grafenau","type":"Landkreis"},"federalState":{"key":"09","name":"Bayern"}},{"name":"Hofmark","postalCode":"84573","locality":"Schönberg","municipality":{"key":"09183143","name":"Schönberg","type":"Kreisangehörige_Gemeinde"},"district":{"key":"09183","name":"Mühldorf a.Inn","type":"Landkreis"},"federalState":{"key":"09","name":"Bayern"}},{"name":"Hofmark-Str.","postalCode":"84573","locality":"Schönberg","municipality":{"key":"09183143","name":"Schönberg","type":"Kreisangehörige_Gemeinde"},"district":{"key":"09183","name":"Mühldorf a.Inn","type":"Landkreis"},"federalState":{"key":"09","name":"Bayern"}},{"name":"Höhndorfer Tor","postalCode":"24217","locality":"Schönberg (Holstein)","municipality":{"key":"01057073","name":"Schönberg (Holstein)","type":"Kreisangehörige_Gemeinde"},"district":{"key":"01057","name":"Plön","type":"Kreis"},"federalState":{"key":"01","name":"Schleswig-Holstein"}},{"name":"Holunderbusch","postalCode":"24217","locality":"Schönberg (Holstein)","municipality":{"key":"01057073","name":"Schönberg (Holstein)","type":"Kreisangehörige_Gemeinde"},"district":{"key":"01057","name":"Plön","type":"Kreis"},"federalState":{"key":"01","name":"Schleswig-Holstein"}},{"name":"Holzredder","postalCode":"24217","locality":"Schönberg (Holstein)","municipality":{"key":"01057073","name":"Schönberg (Holstein)","type":"Kreisangehörige_Gemeinde"},"district":{"key":"01057","name":"Plön","type":"Kreis"},"federalState":{"key":"01","name":"Schleswig-Holstein"}},{"name":"Huflattichweg","postalCode":"24217","locality":"Schönberg (Holstein)","municipality":{"key":"01057073","name":"Schönberg (Holstein)","type":"Kreisangehörige_Gemeinde"},"district":{"key":"01057","name":"Plön","type":"Kreis"},"federalState":{"key":"01","name":"Schleswig-Holstein"}},{"name":"Hühnerbek","postalCode":"24217","locality":"Schönberg (Holstein)","municipality":{"key":"01057073","name":"Schönberg (Holstein)","type":"Kreisangehörige_Gemeinde"},"district":{"key":"01057","name":"Plön","type":"Kreis"},"federalState":{"key":"01","name":"Schleswig-Holstein"}},{"name":"Hühnerstieg","postalCode":"24217","locality":"Schönberg (Holstein)","municipality":{"key":"01057073","name":"Schönberg (Holstein)","type":"Kreisangehörige_Gemeinde"},"district":{"key":"01057","name":"Plön","type":"Kreis"},"federalState":{"key":"01","name":"Schleswig-Holstein"}},{"name":"Ilztalstr.","postalCode":"94513","locality":"Schönberg","municipality":{"key":"09272147","name":"Schönberg, M","type":"Markt"},"district":{"key":"09272","name":"Freyung-Grafenau","type":"Landkreis"},"federalState":{"key":"09","name":"Bayern"}},{"name":"Im Ebenfeld","postalCode":"94513","locality":"Schönberg","municipality":{"key":"09272147","name":"Schönberg, M","type":"Markt"},"district":{"key":"09272","name":"Freyung-Grafenau","type":"Landkreis"},"federalState":{"key":"09","name":"Bayern"}},{"name":"Im Flachsfeld","postalCode":"54426","locality":"Schönberg","municipality":{"key":"07231115","name":"Schönberg","type":"Kreisangehörige_Gemeinde"},"district":{"key":"07231","name":"Bernkastel-Wittlich","type":"Landkreis"},"federalState":{"key":"07","name":"Rheinland-Pfalz"}},{"name":"Im Klebsteiner Feld","postalCode":"94513","locality":"Schönberg","municipality":{"key":"09272147","name":"Schönberg, M","type":"Markt"},"district":{"key":"09272","name":"Freyung-Grafenau","type":"Landkreis"},"federalState":{"key":"09","name":"Bayern"}},{"name":"Im Kordel","postalCode":"54426","locality":"Schönberg","municipality":{"key":"07231115","name":"Schönberg","type":"Kreisangehörige_Gemeinde"},"district":{"key":"07231","name":"Bernkastel-Wittlich","type":"Landkreis"},"federalState":{"key":"07","name":"Rheinland-Pfalz"}},{"name":"Im Wiesengrund","postalCode":"54426","locality":"Schönberg","municipality":{"key":"07231115","name":"Schönberg","type":"Kreisangehörige_Gemeinde"},"district":{"key":"07231","name":"Bernkastel-Wittlich","type":"Landkreis"},"federalState":{"key":"07","name":"Rheinland-Pfalz"}},{"name":"In der Acht","postalCode":"54426","locality":"Schönberg","municipality":{"key":"07231115","name":"Schönberg","type":"Kreisangehörige_Gemeinde"},"district":{"key":"07231","name":"Bernkastel-Wittlich","type":"Landkreis"},"federalState":{"key":"07","name":"Rheinland-Pfalz"}},{"name":"Jägerstr.","postalCode":"22929","locality":"Schönberg","municipality":{"key":"01053112","name":"Schönberg","type":"Kreisangehörige_Gemeinde"},"district":{"key":"01053","name":"Herzogtum Lauenburg","type":"Kreis"},"federalState":{"key":"01","name":"Schleswig-Holstein"}},{"name":"Jahnstr.","postalCode":"94513","locality":"Schönberg","municipality":{"key":"09272147","name":"Schönberg, M","type":"Markt"},"district":{"key":"09272","name":"Freyung-Grafenau","type":"Landkreis"},"federalState":{"key":"09","name":"Bayern"}},{"name":"Johann-Boye-Str.","postalCode":"23923","locality":"Schönberg","municipality":{"key":"13074074","name":"Schönberg, Stadt","type":"Stadt"},"district":{"key":"13074","name":"Nordwestmecklenburg","type":"Landkreis"},"federalState":{"key":"13","name":"Mecklenburg-Vorpommern"}},{"name":"Johann-Dorfner-Str.","postalCode":"94513","locality":"Schönberg","municipality":{"key":"09272147","name":"Schönberg, M","type":"Markt"},"district":{"key":"09272","name":"Freyung-Grafenau","type":"Landkreis"},"federalState":{"key":"09","name":"Bayern"}},{"name":"Johannesberg","postalCode":"94513","locality":"Schönberg","municipality":{"key":"09272147","name":"Schönberg, M","type":"Markt"},"district":{"key":"09272","name":"Freyung-Grafenau","type":"Landkreis"},"federalState":{"key":"09","name":"Bayern"}},{"name":"Kamillenweg","postalCode":"24217","locality":"Schönberg (Holstein)","municipality":{"key":"01057073","name":"Schönberg (Holstein)","type":"Kreisangehörige_Gemeinde"},"district":{"key":"01057","name":"Plön","type":"Kreis"},"federalState":{"key":"01","name":"Schleswig-Holstein"}},{"name":"Kamp","postalCode":"24217","locality":"Schönberg (Holstein)","municipality":{"key":"01057073","name":"Schönberg (Holstein)","type":"Kreisangehörige_Gemeinde"},"district":{"key":"01057","name":"Plön","type":"Kreis"},"federalState":{"key":"01","name":"Schleswig-Holstein"}},{"name":"Kapellenweg","postalCode":"22929","locality":"Schönberg","municipality":{"key":"01053112","name":"Schönberg","type":"Kreisangehörige_Gemeinde"},"district":{"key":"01053","name":"Herzogtum Lauenburg","type":"Kreis"},"federalState":{"key":"01","name":"Schleswig-Holstein"}},{"name":"Kapellenweg","postalCode":"24217","locality":"Schönberg (Holstein)","municipality":{"key":"01057073","name":"Schönberg (Holstein)","type":"Kreisangehörige_Gemeinde"},"district":{"key":"01057","name":"Plön","type":"Kreis"},"federalState":{"key":"01","name":"Schleswig-Holstein"}},{"name":"Käptn's Gang","postalCode":"24217","locality":"Schönberg (Holstein)","municipality":{"key":"01057073","name":"Schönberg (Holstein)","type":"Kreisangehörige_Gemeinde"},"district":{"key":"01057","name":"Plön","type":"Kreis"},"federalState":{"key":"01","name":"Schleswig-Holstein"}},{"name":"Kasberg","postalCode":"94513","locality":"Schönberg","municipality":{"key":"09272147","name":"Schönberg, M","type":"Markt"},"district":{"key":"09272","name":"Freyung-Grafenau","type":"Landkreis"},"federalState":{"key":"09","name":"Bayern"}},{"name":"Ketelshufe","postalCode":"24217","locality":"Schönberg (Holstein)","municipality":{"key":"01057073","name":"Schönberg (Holstein)","type":"Kreisangehörige_Gemeinde"},"district":{"key":"01057","name":"Plön","type":"Kreis"},"federalState":{"key":"01","name":"Schleswig-Holstein"}},{"name":"Kiefernweg","postalCode":"24217","locality":"Schönberg (Holstein)","municipality":{"key":"01057073","name":"Schönberg (Holstein)","type":"Kreisangehörige_Gemeinde"},"district":{"key":"01057","name":"Plön","type":"Kreis"},"federalState":{"key":"01","name":"Schleswig-Holstein"}},{"name":"Kirchenfeld","postalCode":"94513","locality":"Schönberg","municipality":{"key":"09272147","name":"Schönberg, M","type":"Markt"},"district":{"key":"09272","name":"Freyung-Grafenau","type":"Landkreis"},"federalState":{"key":"09","name":"Bayern"}},{"name":"Kirchkamp","postalCode":"24217","locality":"Schönberg (Holstein)","municipality":{"key":"01057073","name":"Schönberg (Holstein)","type":"Kreisangehörige_Gemeinde"},"district":{"key":"01057","name":"Plön","type":"Kreis"},"federalState":{"key":"01","name":"Schleswig-Holstein"}},{"name":"Kirchplatz","postalCode":"94513","locality":"Schönberg","municipality":{"key":"09272147","name":"Schönberg, M","type":"Markt"},"district":{"key":"09272","name":"Freyung-Grafenau","type":"Landkreis"},"federalState":{"key":"09","name":"Bayern"}},{"name":"Kirchstr.","postalCode":"54426","locality":"Schönberg","municipality":{"key":"07231115","name":"Schönberg","type":"Kreisangehörige_Gemeinde"},"district":{"key":"07231","name":"Bernkastel-Wittlich","type":"Landkreis"},"federalState":{"key":"07","name":"Rheinland-Pfalz"}},{"name":"Kirschenweg","postalCode":"24217","locality":"Schönberg (Holstein)","municipality":{"key":"01057073","name":"Schönberg (Holstein)","type":"Kreisangehörige_Gemeinde"},"district":{"key":"01057","name":"Plön","type":"Kreis"},"federalState":{"key":"01","name":"Schleswig-Holstein"}},{"name":"Klaus-Groth-Str.","postalCode":"24217","locality":"Schönberg (Holstein)","municipality":{"key":"01057073","name":"Schönberg (Holstein)","type":"Kreisangehörige_Gemeinde"},"district":{"key":"01057","name":"Plön","type":"Kreis"},"federalState":{"key":"01","name":"Schleswig-Holstein"}},{"name":"Klebstein","postalCode":"94513","locality":"Schönberg","municipality":{"key":"09272147","name":"Schönberg, M","type":"Markt"},"district":{"key":"09272","name":"Freyung-Grafenau","type":"Landkreis"},"federalState":{"key":"09","name":"Bayern"}},{"name":"Klebsteiner Garten","postalCode":"94513","locality":"Schönberg","municipality":{"key":"09272147","name":"Schönberg, M","type":"Markt"},"district":{"key":"09272","name":"Freyung-Grafenau","type":"Landkreis"},"federalState":{"key":"09","name":"Bayern"}},{"name":"Klebsteiner Weg","postalCode":"94513","locality":"Schönberg","municipality":{"key":"09272147","name":"Schönberg, M","type":"Markt"},"district":{"key":"09272","name":"Freyung-Grafenau","type":"Landkreis"},"federalState":{"key":"09","name":"Bayern"}},{"name":"Kleine Mühlenstr.","postalCode":"24217","locality":"Schönberg (Holstein)","municipality":{"key":"01057073","name":"Schönberg (Holstein)","type":"Kreisangehörige_Gemeinde"},"district":{"key":"01057","name":"Plön","type":"Kreis"},"federalState":{"key":"01","name":"Schleswig-Holstein"}},{"name":"Kleinfeld","postalCode":"23923","locality":"Schönberg","municipality":{"key":"13074074","name":"Schönberg, Stadt","type":"Stadt"},"district":{"key":"13074","name":"Nordwestmecklenburg","type":"Landkreis"},"federalState":{"key":"13","name":"Mecklenburg-Vorpommern"}},{"name":"Klosterkamp","postalCode":"24217","locality":"Schönberg (Holstein)","municipality":{"key":"01057073","name":"Schönberg (Holstein)","type":"Kreisangehörige_Gemeinde"},"district":{"key":"01057","name":"Plön","type":"Kreis"},"federalState":{"key":"01","name":"Schleswig-Holstein"}},{"name":"Kolberger Weg","postalCode":"24217","locality":"Schönberg (Holstein)","municipality":{"key":"01057073","name":"Schönberg (Holstein)","type":"Kreisangehörige_Gemeinde"},"district":{"key":"01057","name":"Plön","type":"Kreis"},"federalState":{"key":"01","name":"Schleswig-Holstein"}},{"name":"Königsberger Weg","postalCode":"24217","locality":"Schönberg (Holstein)","municipality":{"key":"01057073","name":"Schönberg (Holstein)","type":"Kreisangehörige_Gemeinde"},"district":{"key":"01057","name":"Plön","type":"Kreis"},"federalState":{"key":"01","name":"Schleswig-Holstein"}},{"name":"Korshagener Redder","postalCode":"24217","locality":"Schönberg (Holstein)","municipality":{"key":"01057073","name":"Schönberg (Holstein)","type":"Kreisangehörige_Gemeinde"},"district":{"key":"01057","name":"Plön","type":"Kreis"},"federalState":{"key":"01","name":"Schleswig-Holstein"}},{"name":"Krokauer Weg","postalCode":"24217","locality":"Schönberg (Holstein)","municipality":{"key":"01057073","name":"Schönberg (Holstein)","type":"Kreisangehörige_Gemeinde"},"district":{"key":"01057","name":"Plön","type":"Kreis"},"federalState":{"key":"01","name":"Schleswig-Holstein"}},{"name":"Krummbeker Weg","postalCode":"24217","locality":"Schönberg (Holstein)","municipality":{"key":"01057073","name":"Schönberg (Holstein)","type":"Kreisangehörige_Gemeinde"},"district":{"key":"01057","name":"Plön","type":"Kreis"},"federalState":{"key":"01","name":"Schleswig-Holstein"}},{"name":"Kuhlenkamp","postalCode":"24217","locality":"Schönberg (Holstein)","municipality":{"key":"01057073","name":"Schönberg (Holstein)","type":"Kreisangehörige_Gemeinde"},"district":{"key":"01057","name":"Plön","type":"Kreis"},"federalState":{"key":"01","name":"Schleswig-Holstein"}},{"name":"Kurzer Weg","postalCode":"08393","locality":"Schönberg","municipality":{"key":"14524270","name":"Schönberg","type":"Kreisangehörige_Gemeinde"},"district":{"key":"14524","name":"Zwickau","type":"Landkreis"},"federalState":{"key":"14","name":"Sachsen"}},{"name":"Lamp'sche Koppel","postalCode":"24217","locality":"Schönberg (Holstein)","municipality":{"key":"01057073","name":"Schönberg (Holstein)","type":"Kreisangehörige_Gemeinde"},"district":{"key":"01057","name":"Plön","type":"Kreis"},"federalState":{"key":"01","name":"Schleswig-Holstein"}},{"name":"Langfeld","postalCode":"94513","locality":"Schönberg","municipality":{"key":"09272147","name":"Schönberg, M","type":"Markt"},"district":{"key":"09272","name":"Freyung-Grafenau","type":"Landkreis"},"federalState":{"key":"09","name":"Bayern"}},{"name":"Lärchenstr.","postalCode":"84573","locality":"Schönberg","municipality":{"key":"09183143","name":"Schönberg","type":"Kreisangehörige_Gemeinde"},"district":{"key":"09183","name":"Mühldorf a.Inn","type":"Landkreis"},"federalState":{"key":"09","name":"Bayern"}},{"name":"Lerch","postalCode":"84573","locality":"Schönberg","municipality":{"key":"09183143","name":"Schönberg","type":"Kreisangehörige_Gemeinde"},"district":{"key":"09183","name":"Mühldorf a.Inn","type":"Landkreis"},"federalState":{"key":"09","name":"Bayern"}},{"name":"Lerchenweg","postalCode":"24217","locality":"Schönberg (Holstein)","municipality":{"key":"01057073","name":"Schönberg (Holstein)","type":"Kreisangehörige_Gemeinde"},"district":{"key":"01057","name":"Plön","type":"Kreis"},"federalState":{"key":"01","name":"Schleswig-Holstein"}},{"name":"Lerchenweg","postalCode":"94513","locality":"Schönberg","municipality":{"key":"09272147","name":"Schönberg, M","type":"Markt"},"district":{"key":"09272","name":"Freyung-Grafenau","type":"Landkreis"},"federalState":{"key":"09","name":"Bayern"}},{"name":"Linauweg","postalCode":"24217","locality":"Schönberg (Holstein)","municipality":{"key":"01057073","name":"Schönberg (Holstein)","type":"Kreisangehörige_Gemeinde"},"district":{"key":"01057","name":"Plön","type":"Kreis"},"federalState":{"key":"01","name":"Schleswig-Holstein"}},{"name":"Lindenstr.","postalCode":"23923","locality":"Schönberg","municipality":{"key":"13074074","name":"Schönberg, Stadt","type":"Stadt"},"district":{"key":"13074","name":"Nordwestmecklenburg","type":"Landkreis"},"federalState":{"key":"13","name":"Mecklenburg-Vorpommern"}},{"name":"Lindenstr.","postalCode":"24217","locality":"Schönberg (Holstein)","municipality":{"key":"01057073","name":"Schönberg (Holstein)","type":"Kreisangehörige_Gemeinde"},"district":{"key":"01057","name":"Plön","type":"Kreis"},"federalState":{"key":"01","name":"Schleswig-Holstein"}},{"name":"Lübecker Str.","postalCode":"23923","locality":"Schönberg","municipality":{"key":"13074074","name":"Schönberg, Stadt","type":"Stadt"},"district":{"key":"13074","name":"Nordwestmecklenburg","type":"Landkreis"},"federalState":{"key":"13","name":"Mecklenburg-Vorpommern"}},{"name":"Lueg","postalCode":"94513","locality":"Schönberg","municipality":{"key":"09272147","name":"Schönberg, M","type":"Markt"},"district":{"key":"09272","name":"Freyung-Grafenau","type":"Landkreis"},"federalState":{"key":"09","name":"Bayern"}},{"name":"Lünningsredder","postalCode":"24217","locality":"Schönberg (Holstein)","municipality":{"key":"01057073","name":"Schönberg (Holstein)","type":"Kreisangehörige_Gemeinde"},"district":{"key":"01057","name":"Plön","type":"Kreis"},"federalState":{"key":"01","name":"Schleswig-Holstein"}},{"name":"Malzower Maurinetal","postalCode":"23923","locality":"Schönberg","municipality":{"key":"13074074","name":"Schönberg, Stadt","type":"Stadt"},"district":{"key":"13074","name":"Nordwestmecklenburg","type":"Landkreis"},"federalState":{"key":"13","name":"Mecklenburg-Vorpommern"}},{"name":"Margarethenweg","postalCode":"94513","locality":"Schönberg","municipality":{"key":"09272147","name":"Schönberg, M","type":"Markt"},"district":{"key":"09272","name":"Freyung-Grafenau","type":"Landkreis"},"federalState":{"key":"09","name":"Bayern"}},{"name":"Marienstr.","postalCode":"23923","locality":"Schönberg","municipality":{"key":"13074074","name":"Schönberg, Stadt","type":"Stadt"},"district":{"key":"13074","name":"Nordwestmecklenburg","type":"Landkreis"},"federalState":{"key":"13","name":"Mecklenburg-Vorpommern"}},{"name":"Marienweg","postalCode":"94513","locality":"Schönberg","municipality":{"key":"09272147","name":"Schönberg, M","type":"Markt"},"district":{"key":"09272","name":"Freyung-Grafenau","type":"Landkreis"},"federalState":{"key":"09","name":"Bayern"}},{"name":"Marktplatz","postalCode":"94513","locality":"Schönberg","municipality":{"key":"09272147","name":"Schönberg, M","type":"Markt"},"district":{"key":"09272","name":"Freyung-Grafenau","type":"Landkreis"},"federalState":{"key":"09","name":"Bayern"}},{"name":"Maukenreuth","postalCode":"94513","locality":"Schönberg","municipality":{"key":"09272147","name":"Schönberg, M","type":"Markt"},"district":{"key":"09272","name":"Freyung-Grafenau","type":"Landkreis"},"federalState":{"key":"09","name":"Bayern"}},{"name":"Maximinstr.","postalCode":"54426","locality":"Schönberg","municipality":{"key":"07231115","name":"Schönberg","type":"Kreisangehörige_Gemeinde"},"district":{"key":"07231","name":"Bernkastel-Wittlich","type":"Landkreis"},"federalState":{"key":"07","name":"Rheinland-Pfalz"}},{"name":"Mohnweg","postalCode":"24217","locality":"Schönberg (Holstein)","municipality":{"key":"01057073","name":"Schönberg (Holstein)","type":"Kreisangehörige_Gemeinde"},"district":{"key":"01057","name":"Plön","type":"Kreis"},"federalState":{"key":"01","name":"Schleswig-Holstein"}},{"name":"Moorredder","postalCode":"24217","locality":"Schönberg (Holstein)","municipality":{"key":"01057073","name":"Schönberg (Holstein)","type":"Kreisangehörige_Gemeinde"},"district":{"key":"01057","name":"Plön","type":"Kreis"},"federalState":{"key":"01","name":"Schleswig-Holstein"}},{"name":"Moorweg","postalCode":"24217","locality":"Schönberg (Holstein)","municipality":{"key":"01057073","name":"Schönberg (Holstein)","type":"Kreisangehörige_Gemeinde"},"district":{"key":"01057","name":"Plön","type":"Kreis"},"federalState":{"key":"01","name":"Schleswig-Holstein"}},{"name":"Möwenweg","postalCode":"24217","locality":"Schönberg (Holstein)","municipality":{"key":"01057073","name":"Schönberg (Holstein)","type":"Kreisangehörige_Gemeinde"},"district":{"key":"01057","name":"Plön","type":"Kreis"},"federalState":{"key":"01","name":"Schleswig-Holstein"}},{"name":"Mühlenberg","postalCode":"24217","locality":"Schönberg (Holstein)","municipality":{"key":"01057073","name":"Schönberg (Holstein)","type":"Kreisangehörige_Gemeinde"},"district":{"key":"01057","name":"Plön","type":"Kreis"},"federalState":{"key":"01","name":"Schleswig-Holstein"}},{"name":"Mühlenweg","postalCode":"23923","locality":"Schönberg","municipality":{"key":"13074074","name":"Schönberg, Stadt","type":"Stadt"},"district":{"key":"13074","name":"Nordwestmecklenburg","type":"Landkreis"},"federalState":{"key":"13","name":"Mecklenburg-Vorpommern"}},{"name":"Mühlfeld","postalCode":"94513","locality":"Schönberg","municipality":{"key":"09272147","name":"Schönberg, M","type":"Markt"},"district":{"key":"09272","name":"Freyung-Grafenau","type":"Landkreis"},"federalState":{"key":"09","name":"Bayern"}},{"name":"Niederstr.","postalCode":"24217","locality":"Schönberg (Holstein)","municipality":{"key":"01057073","name":"Schönberg (Holstein)","type":"Kreisangehörige_Gemeinde"},"district":{"key":"01057","name":"Plön","type":"Kreis"},"federalState":{"key":"01","name":"Schleswig-Holstein"}},{"name":"Obere Feldstr.","postalCode":"23923","locality":"Schönberg","municipality":{"key":"13074074","name":"Schönberg, Stadt","type":"Stadt"},"district":{"key":"13074","name":"Nordwestmecklenburg","type":"Landkreis"},"federalState":{"key":"13","name":"Mecklenburg-Vorpommern"}},{"name":"Osterwisch","postalCode":"24217","locality":"Schönberg (Holstein)","municipality":{"key":"01057073","name":"Schönberg (Holstein)","type":"Kreisangehörige_Gemeinde"},"district":{"key":"01057","name":"Plön","type":"Kreis"},"federalState":{"key":"01","name":"Schleswig-Holstein"}},{"name":"Ostpreußenstr.","postalCode":"22929","locality":"Schönberg","municipality":{"key":"01053112","name":"Schönberg","type":"Kreisangehörige_Gemeinde"},"district":{"key":"01053","name":"Herzogtum Lauenburg","type":"Kreis"},"federalState":{"key":"01","name":"Schleswig-Holstein"}},{"name":"Ostseestr.","postalCode":"24217","locality":"Schönberg (Holstein)","municipality":{"key":"01057073","name":"Schönberg (Holstein)","type":"Kreisangehörige_Gemeinde"},"district":{"key":"01057","name":"Plön","type":"Kreis"},"federalState":{"key":"01","name":"Schleswig-Holstein"}},{"name":"Palstek","postalCode":"24217","locality":"Schönberg (Holstein)","municipality":{"key":"01057073","name":"Schönberg (Holstein)","type":"Kreisangehörige_Gemeinde"},"district":{"key":"01057","name":"Plön","type":"Kreis"},"federalState":{"key":"01","name":"Schleswig-Holstein"}},{"name":"Panhof","postalCode":"94513","locality":"Schönberg","municipality":{"key":"09272147","name":"Schönberg, M","type":"Markt"},"district":{"key":"09272","name":"Freyung-Grafenau","type":"Landkreis"},"federalState":{"key":"09","name":"Bayern"}},{"name":"Panstede","postalCode":"24217","locality":"Schönberg (Holstein)","municipality":{"key":"01057073","name":"Schönberg (Holstein)","type":"Kreisangehörige_Gemeinde"},"district":{"key":"01057","name":"Plön","type":"Kreis"},"federalState":{"key":"01","name":"Schleswig-Holstein"}},{"name":"Pappelweg","postalCode":"24217","locality":"Schönberg (Holstein)","municipality":{"key":"01057073","name":"Schönberg (Holstein)","type":"Kreisangehörige_Gemeinde"},"district":{"key":"01057","name":"Plön","type":"Kreis"},"federalState":{"key":"01","name":"Schleswig-Holstein"}},{"name":"Park","postalCode":"24217","locality":"Schönberg (Holstein)","municipality":{"key":"01057073","name":"Schönberg (Holstein)","type":"Kreisangehörige_Gemeinde"},"district":{"key":"01057","name":"Plön","type":"Kreis"},"federalState":{"key":"01","name":"Schleswig-Holstein"}},{"name":"Petersberg","postalCode":"22929","locality":"Schönberg","municipality":{"key":"01053112","name":"Schönberg","type":"Kreisangehörige_Gemeinde"},"district":{"key":"01053","name":"Herzogtum Lauenburg","type":"Kreis"},"federalState":{"key":"01","name":"Schleswig-Holstein"}},{"name":"Petersberger Weg","postalCode":"23923","locality":"Schönberg","municipality":{"key":"13074074","name":"Schönberg, Stadt","type":"Stadt"},"district":{"key":"13074","name":"Nordwestmecklenburg","type":"Landkreis"},"federalState":{"key":"13","name":"Mecklenburg-Vorpommern"}},{"name":"Pfarrgasse","postalCode":"94513","locality":"Schönberg","municipality":{"key":"09272147","name":"Schönberg, M","type":"Markt"},"district":{"key":"09272","name":"Freyung-Grafenau","type":"Landkreis"},"federalState":{"key":"09","name":"Bayern"}},{"name":"Pittrichsberger Str.","postalCode":"94513","locality":"Schönberg","municipality":{"key":"09272147","name":"Schönberg, M","type":"Markt"},"district":{"key":"09272","name":"Freyung-Grafenau","type":"Landkreis"},"federalState":{"key":"09","name":"Bayern"}},{"name":"Pommernweg","postalCode":"22929","locality":"Schönberg","municipality":{"key":"01053112","name":"Schönberg","type":"Kreisangehörige_Gemeinde"},"district":{"key":"01053","name":"Herzogtum Lauenburg","type":"Kreis"},"federalState":{"key":"01","name":"Schleswig-Holstein"}},{"name":"Pommernweg","postalCode":"24217","locality":"Schönberg (Holstein)","municipality":{"key":"01057073","name":"Schönberg (Holstein)","type":"Kreisangehörige_Gemeinde"},"district":{"key":"01057","name":"Plön","type":"Kreis"},"federalState":{"key":"01","name":"Schleswig-Holstein"}},{"name":"Probsteier Allee","postalCode":"24217","locality":"Schönberg (Holstein)","municipality":{"key":"01057073","name":"Schönberg (Holstein)","type":"Kreisangehörige_Gemeinde"},"district":{"key":"01057","name":"Plön","type":"Kreis"},"federalState":{"key":"01","name":"Schleswig-Holstein"}},{"name":"Prolliussteig","postalCode":"23923","locality":"Schönberg","municipality":{"key":"13074074","name":"Schönberg, Stadt","type":"Stadt"},"district":{"key":"13074","name":"Nordwestmecklenburg","type":"Landkreis"},"federalState":{"key":"13","name":"Mecklenburg-Vorpommern"}},{"name":"Puck'sche Koppel","postalCode":"24217","locality":"Schönberg (Holstein)","municipality":{"key":"01057073","name":"Schönberg (Holstein)","type":"Kreisangehörige_Gemeinde"},"district":{"key":"01057","name":"Plön","type":"Kreis"},"federalState":{"key":"01","name":"Schleswig-Holstein"}},{"name":"Quellenweg","postalCode":"94513","locality":"Schönberg","municipality":{"key":"09272147","name":"Schönberg, M","type":"Markt"},"district":{"key":"09272","name":"Freyung-Grafenau","type":"Landkreis"},"federalState":{"key":"09","name":"Bayern"}},{"name":"Rammelsberger Str.","postalCode":"94513","locality":"Schönberg","municipality":{"key":"09272147","name":"Schönberg, M","type":"Markt"},"district":{"key":"09272","name":"Freyung-Grafenau","type":"Landkreis"},"federalState":{"key":"09","name":"Bayern"}},{"name":"Ratjendorfer Weg","postalCode":"24217","locality":"Schönberg (Holstein)","municipality":{"key":"01057073","name":"Schönberg (Holstein)","type":"Kreisangehörige_Gemeinde"},"district":{"key":"01057","name":"Plön","type":"Kreis"},"federalState":{"key":"01","name":"Schleswig-Holstein"}},{"name":"Ratzeburger Str.","postalCode":"23923","locality":"Schönberg","municipality":{"key":"13074074","name":"Schönberg, Stadt","type":"Stadt"},"district":{"key":"13074","name":"Nordwestmecklenburg","type":"Landkreis"},"federalState":{"key":"13","name":"Mecklenburg-Vorpommern"}},{"name":"Rauhbank","postalCode":"24217","locality":"Schönberg (Holstein)","municipality":{"key":"01057073","name":"Schönberg (Holstein)","type":"Kreisangehörige_Gemeinde"},"district":{"key":"01057","name":"Plön","type":"Kreis"},"federalState":{"key":"01","name":"Schleswig-Holstein"}},{"name":"Rauher Berg","postalCode":"24217","locality":"Schönberg (Holstein)","municipality":{"key":"01057073","name":"Schönberg (Holstein)","type":"Kreisangehörige_Gemeinde"},"district":{"key":"01057","name":"Plön","type":"Kreis"},"federalState":{"key":"01","name":"Schleswig-Holstein"}},{"name":"Regener Str.","postalCode":"94513","locality":"Schönberg","municipality":{"key":"09272147","name":"Schönberg, M","type":"Markt"},"district":{"key":"09272","name":"Freyung-Grafenau","type":"Landkreis"},"federalState":{"key":"09","name":"Bayern"}},{"name":"Reiherstieg","postalCode":"24217","locality":"Schönberg (Holstein)","municipality":{"key":"01057073","name":"Schönberg (Holstein)","type":"Kreisangehörige_Gemeinde"},"district":{"key":"01057","name":"Plön","type":"Kreis"},"federalState":{"key":"01","name":"Schleswig-Holstein"}},{"name":"Reinsberger Park","postalCode":"94513","locality":"Schönberg","municipality":{"key":"09272147","name":"Schönberg, M","type":"Markt"},"district":{"key":"09272","name":"Freyung-Grafenau","type":"Landkreis"},"federalState":{"key":"09","name":"Bayern"}},{"name":"Retelsdorf","postalCode":"23923","locality":"Schönberg","municipality":{"key":"13074074","name":"Schönberg, Stadt","type":"Stadt"},"district":{"key":"13074","name":"Nordwestmecklenburg","type":"Landkreis"},"federalState":{"key":"13","name":"Mecklenburg-Vorpommern"}},{"name":"Rosenweg","postalCode":"24217","locality":"Schönberg (Holstein)","municipality":{"key":"01057073","name":"Schönberg (Holstein)","type":"Kreisangehörige_Gemeinde"},"district":{"key":"01057","name":"Plön","type":"Kreis"},"federalState":{"key":"01","name":"Schleswig-Holstein"}},{"name":"Rottensdorfer Str.","postalCode":"23923","locality":"Schönberg","municipality":{"key":"13074074","name":"Schönberg, Stadt","type":"Stadt"},"district":{"key":"13074","name":"Nordwestmecklenburg","type":"Landkreis"},"federalState":{"key":"13","name":"Mecklenburg-Vorpommern"}},{"name":"Rötz","postalCode":"94513","locality":"Schönberg","municipality":{"key":"09272147","name":"Schönberg, M","type":"Markt"},"district":{"key":"09272","name":"Freyung-Grafenau","type":"Landkreis"},"federalState":{"key":"09","name":"Bayern"}},{"name":"Sabower Dorfstr.","postalCode":"23923","locality":"Schönberg","municipality":{"key":"13074074","name":"Schönberg, Stadt","type":"Stadt"},"district":{"key":"13074","name":"Nordwestmecklenburg","type":"Landkreis"},"federalState":{"key":"13","name":"Mecklenburg-Vorpommern"}},{"name":"Salzwiesenweg","postalCode":"24217","locality":"Schönberg (Holstein)","municipality":{"key":"01057073","name":"Schönberg (Holstein)","type":"Kreisangehörige_Gemeinde"},"district":{"key":"01057","name":"Plön","type":"Kreis"},"federalState":{"key":"01","name":"Schleswig-Holstein"}},{"name":"Sankt-Michael-Str.","postalCode":"84573","locality":"Schönberg","municipality":{"key":"09183143","name":"Schönberg","type":"Kreisangehörige_Gemeinde"},"district":{"key":"09183","name":"Mühldorf a.Inn","type":"Landkreis"},"federalState":{"key":"09","name":"Bayern"}},{"name":"Sattelholz","postalCode":"94513","locality":"Schönberg","municipality":{"key":"09272147","name":"Schönberg, M","type":"Markt"},"district":{"key":"09272","name":"Freyung-Grafenau","type":"Landkreis"},"federalState":{"key":"09","name":"Bayern"}},{"name":"Schäflerweg","postalCode":"94513","locality":"Schönberg","municipality":{"key":"09272147","name":"Schönberg, M","type":"Markt"},"district":{"key":"09272","name":"Freyung-Grafenau","type":"Landkreis"},"federalState":{"key":"09","name":"Bayern"}},{"name":"Schillerstr.","postalCode":"24217","locality":"Schönberg (Holstein)","municipality":{"key":"01057073","name":"Schönberg (Holstein)","type":"Kreisangehörige_Gemeinde"},"district":{"key":"01057","name":"Plön","type":"Kreis"},"federalState":{"key":"01","name":"Schleswig-Holstein"}},{"name":"Schiphorster Str.","postalCode":"22929","locality":"Schönberg","municipality":{"key":"01053112","name":"Schönberg","type":"Kreisangehörige_Gemeinde"},"district":{"key":"01053","name":"Herzogtum Lauenburg","type":"Kreis"},"federalState":{"key":"01","name":"Schleswig-Holstein"}},{"name":"Schlauentrift","postalCode":"23923","locality":"Schönberg","municipality":{"key":"13074074","name":"Schönberg, Stadt","type":"Stadt"},"district":{"key":"13074","name":"Nordwestmecklenburg","type":"Landkreis"},"federalState":{"key":"13","name":"Mecklenburg-Vorpommern"}},{"name":"Schlehenkamp","postalCode":"24217","locality":"Schönberg (Holstein)","municipality":{"key":"01057073","name":"Schönberg (Holstein)","type":"Kreisangehörige_Gemeinde"},"district":{"key":"01057","name":"Plön","type":"Kreis"},"federalState":{"key":"01","name":"Schleswig-Holstein"}},{"name":"Schlesier Weg","postalCode":"24217","locality":"Schönberg (Holstein)","municipality":{"key":"01057073","name":"Schönberg (Holstein)","type":"Kreisangehörige_Gemeinde"},"district":{"key":"01057","name":"Plön","type":"Kreis"},"federalState":{"key":"01","name":"Schleswig-Holstein"}},{"name":"Schlossberg","postalCode":"94513","locality":"Schönberg","municipality":{"key":"09272147","name":"Schönberg, M","type":"Markt"},"district":{"key":"09272","name":"Freyung-Grafenau","type":"Landkreis"},"federalState":{"key":"09","name":"Bayern"}},{"name":"Schloßweg","postalCode":"94513","locality":"Schönberg","municipality":{"key":"09272147","name":"Schönberg, M","type":"Markt"},"district":{"key":"09272","name":"Freyung-Grafenau","type":"Landkreis"},"federalState":{"key":"09","name":"Bayern"}},{"name":"Schönberger Str.","postalCode":"94513","locality":"Schönberg","municipality":{"key":"09272147","name":"Schönberg, M","type":"Markt"},"district":{"key":"09272","name":"Freyung-Grafenau","type":"Landkreis"},"federalState":{"key":"09","name":"Bayern"}},{"name":"Schönberger Weg","postalCode":"94513","locality":"Schönberg","municipality":{"key":"09272147","name":"Schönberg, M","type":"Markt"},"district":{"key":"09272","name":"Freyung-Grafenau","type":"Landkreis"},"federalState":{"key":"09","name":"Bayern"}},{"name":"Schreinerhof","postalCode":"94513","locality":"Schönberg","municipality":{"key":"09272147","name":"Schönberg, M","type":"Markt"},"district":{"key":"09272","name":"Freyung-Grafenau","type":"Landkreis"},"federalState":{"key":"09","name":"Bayern"}},{"name":"Schulstr.","postalCode":"94513","locality":"Schönberg","municipality":{"key":"09272147","name":"Schönberg, M","type":"Markt"},"district":{"key":"09272","name":"Freyung-Grafenau","type":"Landkreis"},"federalState":{"key":"09","name":"Bayern"}},{"name":"Schulweg","postalCode":"24217","locality":"Schönberg (Holstein)","municipality":{"key":"01057073","name":"Schönberg (Holstein)","type":"Kreisangehörige_Gemeinde"},"district":{"key":"01057","name":"Plön","type":"Kreis"},"federalState":{"key":"01","name":"Schleswig-Holstein"}},{"name":"Seebrückenweg","postalCode":"24217","locality":"Schönberg (Holstein)","municipality":{"key":"01057073","name":"Schönberg (Holstein)","type":"Kreisangehörige_Gemeinde"},"district":{"key":"01057","name":"Plön","type":"Kreis"},"federalState":{"key":"01","name":"Schleswig-Holstein"}},{"name":"Seesternweg","postalCode":"24217","locality":"Schönberg (Holstein)","municipality":{"key":"01057073","name":"Schönberg (Holstein)","type":"Kreisangehörige_Gemeinde"},"district":{"key":"01057","name":"Plön","type":"Kreis"},"federalState":{"key":"01","name":"Schleswig-Holstein"}},{"name":"Seestr.","postalCode":"23923","locality":"Schönberg","municipality":{"key":"13074074","name":"Schönberg, Stadt","type":"Stadt"},"district":{"key":"13074","name":"Nordwestmecklenburg","type":"Landkreis"},"federalState":{"key":"13","name":"Mecklenburg-Vorpommern"}},{"name":"Seifertsreuth","postalCode":"94513","locality":"Schönberg","municipality":{"key":"09272147","name":"Schönberg, M","type":"Markt"},"district":{"key":"09272","name":"Freyung-Grafenau","type":"Landkreis"},"federalState":{"key":"09","name":"Bayern"}},{"name":"Selmsdorfer Str.","postalCode":"23923","locality":"Schönberg","municipality":{"key":"13074074","name":"Schönberg, Stadt","type":"Stadt"},"district":{"key":"13074","name":"Nordwestmecklenburg","type":"Landkreis"},"federalState":{"key":"13","name":"Mecklenburg-Vorpommern"}},{"name":"Siedlerweg","postalCode":"08393","locality":"Schönberg","municipality":{"key":"14524270","name":"Schönberg","type":"Kreisangehörige_Gemeinde"},"district":{"key":"14524","name":"Zwickau","type":"Landkreis"},"federalState":{"key":"14","name":"Sachsen"}},{"name":"Soltwisch","postalCode":"24217","locality":"Schönberg (Holstein)","municipality":{"key":"01057073","name":"Schönberg (Holstein)","type":"Kreisangehörige_Gemeinde"},"district":{"key":"01057","name":"Plön","type":"Kreis"},"federalState":{"key":"01","name":"Schleswig-Holstein"}},{"name":"Sonnengarten","postalCode":"94513","locality":"Schönberg","municipality":{"key":"09272147","name":"Schönberg, M","type":"Markt"},"district":{"key":"09272","name":"Freyung-Grafenau","type":"Landkreis"},"federalState":{"key":"09","name":"Bayern"}},{"name":"Sonnenhof","postalCode":"94513","locality":"Schönberg","municipality":{"key":"09272147","name":"Schönberg, M","type":"Markt"},"district":{"key":"09272","name":"Freyung-Grafenau","type":"Landkreis"},"federalState":{"key":"09","name":"Bayern"}},{"name":"Sonnenstr.","postalCode":"94513","locality":"Schönberg","municipality":{"key":"09272147","name":"Schönberg, M","type":"Markt"},"district":{"key":"09272","name":"Freyung-Grafenau","type":"Landkreis"},"federalState":{"key":"09","name":"Bayern"}},{"name":"Sonnenweg","postalCode":"24217","locality":"Schönberg (Holstein)","municipality":{"key":"01057073","name":"Schönberg (Holstein)","type":"Kreisangehörige_Gemeinde"},"district":{"key":"01057","name":"Plön","type":"Kreis"},"federalState":{"key":"01","name":"Schleswig-Holstein"}},{"name":"Spatzenweg","postalCode":"24217","locality":"Schönberg (Holstein)","municipality":{"key":"01057073","name":"Schönberg (Holstein)","type":"Kreisangehörige_Gemeinde"},"district":{"key":"01057","name":"Plön","type":"Kreis"},"federalState":{"key":"01","name":"Schleswig-Holstein"}},{"name":"Speckturm","postalCode":"23923","locality":"Schönberg","municipality":{"key":"13074074","name":"Schönberg, Stadt","type":"Stadt"},"district":{"key":"13074","name":"Nordwestmecklenburg","type":"Landkreis"},"federalState":{"key":"13","name":"Mecklenburg-Vorpommern"}},{"name":"Sprenger Weg","postalCode":"22929","locality":"Schönberg","municipality":{"key":"01053112","name":"Schönberg","type":"Kreisangehörige_Gemeinde"},"district":{"key":"01053","name":"Herzogtum Lauenburg","type":"Kreis"},"federalState":{"key":"01","name":"Schleswig-Holstein"}},{"name":"Stakendorfer Tor","postalCode":"24217","locality":"Schönberg (Holstein)","municipality":{"key":"01057073","name":"Schönberg (Holstein)","type":"Kreisangehörige_Gemeinde"},"district":{"key":"01057","name":"Plön","type":"Kreis"},"federalState":{"key":"01","name":"Schleswig-Holstein"}},{"name":"Stakendorfer Weg","postalCode":"24217","locality":"Schönberg (Holstein)","municipality":{"key":"01057073","name":"Schönberg (Holstein)","type":"Kreisangehörige_Gemeinde"},"district":{"key":"01057","name":"Plön","type":"Kreis"},"federalState":{"key":"01","name":"Schleswig-Holstein"}},{"name":"Stettiner Weg","postalCode":"24217","locality":"Schönberg (Holstein)","municipality":{"key":"01057073","name":"Schönberg (Holstein)","type":"Kreisangehörige_Gemeinde"},"district":{"key":"01057","name":"Plön","type":"Kreis"},"federalState":{"key":"01","name":"Schleswig-Holstein"}},{"name":"Stiefelknecht","postalCode":"24217","locality":"Schönberg (Holstein)","municipality":{"key":"01057073","name":"Schönberg (Holstein)","type":"Kreisangehörige_Gemeinde"},"district":{"key":"01057","name":"Plön","type":"Kreis"},"federalState":{"key":"01","name":"Schleswig-Holstein"}},{"name":"Storchenweg","postalCode":"24217","locality":"Schönberg (Holstein)","municipality":{"key":"01057073","name":"Schönberg (Holstein)","type":"Kreisangehörige_Gemeinde"},"district":{"key":"01057","name":"Plön","type":"Kreis"},"federalState":{"key":"01","name":"Schleswig-Holstein"}},{"name":"Strandstr.","postalCode":"24217","locality":"Schönberg (Holstein)","municipality":{"key":"01057073","name":"Schönberg (Holstein)","type":"Kreisangehörige_Gemeinde"},"district":{"key":"01057","name":"Plön","type":"Kreis"},"federalState":{"key":"01","name":"Schleswig-Holstein"}},{"name":"Str. der Technik","postalCode":"23923","locality":"Schönberg","municipality":{"key":"13074074","name":"Schönberg, Stadt","type":"Stadt"},"district":{"key":"13074","name":"Nordwestmecklenburg","type":"Landkreis"},"federalState":{"key":"13","name":"Mecklenburg-Vorpommern"}},{"name":"Swiensmarkt","postalCode":"24217","locality":"Schönberg (Holstein)","municipality":{"key":"01057073","name":"Schönberg (Holstein)","type":"Kreisangehörige_Gemeinde"},"district":{"key":"01057","name":"Plön","type":"Kreis"},"federalState":{"key":"01","name":"Schleswig-Holstein"}},{"name":"Talstr.","postalCode":"08393","locality":"Schönberg","municipality":{"key":"14524270","name":"Schönberg","type":"Kreisangehörige_Gemeinde"},"district":{"key":"14524","name":"Zwickau","type":"Landkreis"},"federalState":{"key":"14","name":"Sachsen"}},{"name":"Tannenstr.","postalCode":"84573","locality":"Schönberg","municipality":{"key":"09183143","name":"Schönberg","type":"Kreisangehörige_Gemeinde"},"district":{"key":"09183","name":"Mühldorf a.Inn","type":"Landkreis"},"federalState":{"key":"09","name":"Bayern"}},{"name":"Tannenweg","postalCode":"24217","locality":"Schönberg (Holstein)","municipality":{"key":"01057073","name":"Schönberg (Holstein)","type":"Kreisangehörige_Gemeinde"},"district":{"key":"01057","name":"Plön","type":"Kreis"},"federalState":{"key":"01","name":"Schleswig-Holstein"}},{"name":"Theodor-Körner-Str.","postalCode":"24217","locality":"Schönberg (Holstein)","municipality":{"key":"01057073","name":"Schönberg (Holstein)","type":"Kreisangehörige_Gemeinde"},"district":{"key":"01057","name":"Plön","type":"Kreis"},"federalState":{"key":"01","name":"Schleswig-Holstein"}},{"name":"Theodor-Storm-Str.","postalCode":"24217","locality":"Schönberg (Holstein)","municipality":{"key":"01057073","name":"Schönberg (Holstein)","type":"Kreisangehörige_Gemeinde"},"district":{"key":"01057","name":"Plön","type":"Kreis"},"federalState":{"key":"01","name":"Schleswig-Holstein"}},{"name":"Tilsiter Weg","postalCode":"24217","locality":"Schönberg (Holstein)","municipality":{"key":"01057073","name":"Schönberg (Holstein)","type":"Kreisangehörige_Gemeinde"},"district":{"key":"01057","name":"Plön","type":"Kreis"},"federalState":{"key":"01","name":"Schleswig-Holstein"}},{"name":"Torisdorfer Weg","postalCode":"23923","locality":"Schönberg","municipality":{"key":"13074074","name":"Schönberg, Stadt","type":"Stadt"},"district":{"key":"13074","name":"Nordwestmecklenburg","type":"Landkreis"},"federalState":{"key":"13","name":"Mecklenburg-Vorpommern"}},{"name":"Trappener Weg","postalCode":"24217","locality":"Schönberg (Holstein)","municipality":{"key":"01057073","name":"Schönberg (Holstein)","type":"Kreisangehörige_Gemeinde"},"district":{"key":"01057","name":"Plön","type":"Kreis"},"federalState":{"key":"01","name":"Schleswig-Holstein"}},{"name":"Twachtmannring","postalCode":"23923","locality":"Schönberg","municipality":{"key":"13074074","name":"Schönberg, Stadt","type":"Stadt"},"district":{"key":"13074","name":"Nordwestmecklenburg","type":"Landkreis"},"federalState":{"key":"13","name":"Mecklenburg-Vorpommern"}},{"name":"Twiete","postalCode":"22929","locality":"Schönberg","municipality":{"key":"01053112","name":"Schönberg","type":"Kreisangehörige_Gemeinde"},"district":{"key":"01053","name":"Herzogtum Lauenburg","type":"Kreis"},"federalState":{"key":"01","name":"Schleswig-Holstein"}},{"name":"Uhlandstr.","postalCode":"24217","locality":"Schönberg (Holstein)","municipality":{"key":"01057073","name":"Schönberg (Holstein)","type":"Kreisangehörige_Gemeinde"},"district":{"key":"01057","name":"Plön","type":"Kreis"},"federalState":{"key":"01","name":"Schleswig-Holstein"}},{"name":"Ulmenweg","postalCode":"24217","locality":"Schönberg (Holstein)","municipality":{"key":"01057073","name":"Schönberg (Holstein)","type":"Kreisangehörige_Gemeinde"},"district":{"key":"01057","name":"Plön","type":"Kreis"},"federalState":{"key":"01","name":"Schleswig-Holstein"}},{"name":"Unteres Ebenfeld","postalCode":"94513","locality":"Schönberg","municipality":{"key":"09272147","name":"Schönberg, M","type":"Markt"},"district":{"key":"09272","name":"Freyung-Grafenau","type":"Landkreis"},"federalState":{"key":"09","name":"Bayern"}},{"name":"Verwellengrund","postalCode":"24217","locality":"Schönberg (Holstein)","municipality":{"key":"01057073","name":"Schönberg (Holstein)","type":"Kreisangehörige_Gemeinde"},"district":{"key":"01057","name":"Plön","type":"Kreis"},"federalState":{"key":"01","name":"Schleswig-Holstein"}},{"name":"Vossberg","postalCode":"23923","locality":"Schönberg","municipality":{"key":"13074074","name":"Schönberg, Stadt","type":"Stadt"},"district":{"key":"13074","name":"Nordwestmecklenburg","type":"Landkreis"},"federalState":{"key":"13","name":"Mecklenburg-Vorpommern"}},{"name":"Waldenburger Str.","postalCode":"08393","locality":"Schönberg","municipality":{"key":"14524270","name":"Schönberg","type":"Kreisangehörige_Gemeinde"},"district":{"key":"14524","name":"Zwickau","type":"Landkreis"},"federalState":{"key":"14","name":"Sachsen"}},{"name":"Waldstr.","postalCode":"84573","locality":"Schönberg","municipality":{"key":"09183143","name":"Schönberg","type":"Kreisangehörige_Gemeinde"},"district":{"key":"09183","name":"Mühldorf a.Inn","type":"Landkreis"},"federalState":{"key":"09","name":"Bayern"}},{"name":"Waldstr.","postalCode":"94513","locality":"Schönberg","municipality":{"key":"09272147","name":"Schönberg, M","type":"Markt"},"district":{"key":"09272","name":"Freyung-Grafenau","type":"Landkreis"},"federalState":{"key":"09","name":"Bayern"}},{"name":"Waldweg","postalCode":"22929","locality":"Schönberg","municipality":{"key":"01053112","name":"Schönberg","type":"Kreisangehörige_Gemeinde"},"district":{"key":"01053","name":"Herzogtum Lauenburg","type":"Kreis"},"federalState":{"key":"01","name":"Schleswig-Holstein"}},{"name":"Wallstr.","postalCode":"23923","locality":"Schönberg","municipality":{"key":"13074074","name":"Schönberg, Stadt","type":"Stadt"},"district":{"key":"13074","name":"Nordwestmecklenburg","type":"Landkreis"},"federalState":{"key":"13","name":"Mecklenburg-Vorpommern"}},{"name":"Wanderweg Nr.: 2","postalCode":"94513","locality":"Schönberg","municipality":{"key":"09272147","name":"Schönberg, M","type":"Markt"},"district":{"key":"09272","name":"Freyung-Grafenau","type":"Landkreis"},"federalState":{"key":"09","name":"Bayern"}},{"name":"Wasserstr.","postalCode":"23923","locality":"Schönberg","municipality":{"key":"13074074","name":"Schönberg, Stadt","type":"Stadt"},"district":{"key":"13074","name":"Nordwestmecklenburg","type":"Landkreis"},"federalState":{"key":"13","name":"Mecklenburg-Vorpommern"}},{"name":"Weberstr.","postalCode":"94513","locality":"Schönberg","municipality":{"key":"09272147","name":"Schönberg, M","type":"Markt"},"district":{"key":"09272","name":"Freyung-Grafenau","type":"Landkreis"},"federalState":{"key":"09","name":"Bayern"}},{"name":"Weidensdorfer Str.","postalCode":"08393","locality":"Schönberg","municipality":{"key":"14524270","name":"Schönberg","type":"Kreisangehörige_Gemeinde"},"district":{"key":"14524","name":"Zwickau","type":"Landkreis"},"federalState":{"key":"14","name":"Sachsen"}},{"name":"Weidenweg","postalCode":"24217","locality":"Schönberg (Holstein)","municipality":{"key":"01057073","name":"Schönberg (Holstein)","type":"Kreisangehörige_Gemeinde"},"district":{"key":"01057","name":"Plön","type":"Kreis"},"federalState":{"key":"01","name":"Schleswig-Holstein"}},{"name":"Weißdornweg","postalCode":"24217","locality":"Schönberg (Holstein)","municipality":{"key":"01057073","name":"Schönberg (Holstein)","type":"Kreisangehörige_Gemeinde"},"district":{"key":"01057","name":"Plön","type":"Kreis"},"federalState":{"key":"01","name":"Schleswig-Holstein"}},{"name":"Wiesenredder","postalCode":"22929","locality":"Schönberg","municipality":{"key":"01053112","name":"Schönberg","type":"Kreisangehörige_Gemeinde"},"district":{"key":"01053","name":"Herzogtum Lauenburg","type":"Kreis"},"federalState":{"key":"01","name":"Schleswig-Holstein"}},{"name":"Wiesenweg","postalCode":"24217","locality":"Schönberg (Holstein)","municipality":{"key":"01057073","name":"Schönberg (Holstein)","type":"Kreisangehörige_Gemeinde"},"district":{"key":"01057","name":"Plön","type":"Kreis"},"federalState":{"key":"01","name":"Schleswig-Holstein"}},{"name":"Wilhelm-Bauer-Str.","postalCode":"24217","locality":"Schönberg (Holstein)","municipality":{"key":"01057073","name":"Schönberg (Holstein)","type":"Kreisangehörige_Gemeinde"},"district":{"key":"01057","name":"Plön","type":"Kreis"},"federalState":{"key":"01","name":"Schleswig-Holstein"}},{"name":"Wischler Holzweg","postalCode":"24217","locality":"Schönberg (Holstein)","municipality":{"key":"01057073","name":"Schönberg (Holstein)","type":"Kreisangehörige_Gemeinde"},"district":{"key":"01057","name":"Plön","type":"Kreis"},"federalState":{"key":"01","name":"Schleswig-Holstein"}},{"name":"Wörthstr.","postalCode":"94513","locality":"Schönberg","municipality":{"key":"09272147","name":"Schönberg, M","type":"Markt"},"district":{"key":"09272","name":"Freyung-Grafenau","type":"Landkreis"},"federalState":{"key":"09","name":"Bayern"}},{"name":"Wrömmelsberg","postalCode":"24217","locality":"Schönberg (Holstein)","municipality":{"key":"01057073","name":"Schönberg (Holstein)","type":"Kreisangehörige_Gemeinde"},"district":{"key":"01057","name":"Plön","type":"Kreis"},"federalState":{"key":"01","name":"Schleswig-Holstein"}},{"name":"Wünschendorfer Weg","postalCode":"08393","locality":"Schönberg","municipality":{"key":"14524270","name":"Schönberg","type":"Kreisangehörige_Gemeinde"},"district":{"key":"14524","name":"Zwickau","type":"Landkreis"},"federalState":{"key":"14","name":"Sachsen"}},{"name":"Xaver-Loibl-Str.","postalCode":"94513","locality":"Schönberg","municipality":{"key":"09272147","name":"Schönberg, M","type":"Markt"},"district":{"key":"09272","name":"Freyung-Grafenau","type":"Landkreis"},"federalState":{"key":"09","name":"Bayern"}},{"name":"Zaanstader Str.","postalCode":"08062","locality":"Zwickau","municipality":{"key":"14524330","name":"Zwickau, Stadt","type":"Stadt"},"district":{"key":"14524","name":"Zwickau","type":"Landkreis"},"federalState":{"key":"14","name":"Sachsen"}},{"name":"Zechenweg","postalCode":"08056","locality":"Zwickau","municipality":{"key":"14524330","name":"Zwickau, Stadt","type":"Stadt"},"district":{"key":"14524","name":"Zwickau","type":"Landkreis"},"federalState":{"key":"14","name":"Sachsen"}},{"name":"Zeisigweg","postalCode":"08066","locality":"Zwickau","municipality":{"key":"14524330","name":"Zwickau, Stadt","type":"Stadt"},"district":{"key":"14524","name":"Zwickau","type":"Landkreis"},"federalState":{"key":"14","name":"Sachsen"}},{"name":"Ziegelstr.","postalCode":"08056","locality":"Zwickau","municipality":{"key":"14524330","name":"Zwickau, Stadt","type":"Stadt"},"district":{"key":"14524","name":"Zwickau","type":"Landkreis"},"federalState":{"key":"14","name":"Sachsen"}},{"name":"Zimmererweg","postalCode":"08056","locality":"Zwickau","municipality":{"key":"14524330","name":"Zwickau, Stadt","type":"Stadt"},"district":{"key":"14524","name":"Zwickau","type":"Landkreis"},"federalState":{"key":"14","name":"Sachsen"}},{"name":"Zimmermannstr.","postalCode":"08060","locality":"Zwickau","municipality":{"key":"14524330","name":"Zwickau, Stadt","type":"Stadt"},"district":{"key":"14524","name":"Zwickau","type":"Landkreis"},"federalState":{"key":"14","name":"Sachsen"}},{"name":"Zum Graurock","postalCode":"08058","locality":"Zwickau","municipality":{"key":"14524330","name":"Zwickau, Stadt","type":"Stadt"},"district":{"key":"14524","name":"Zwickau","type":"Landkreis"},"federalState":{"key":"14","name":"Sachsen"}},{"name":"Zum Graurock","postalCode":"08132","locality":"Zwickau","municipality":{"key":"14524330","name":"Zwickau, Stadt","type":"Stadt"},"district":{"key":"14524","name":"Zwickau","type":"Landkreis"},"federalState":{"key":"14","name":"Sachsen"}},{"name":"Zum Rehblick","postalCode":"08064","locality":"Zwickau","municipality":{"key":"14524330","name":"Zwickau, Stadt","type":"Stadt"},"district":{"key":"14524","name":"Zwickau","type":"Landkreis"},"federalState":{"key":"14","name":"Sachsen"}},{"name":"Zur Kohlenstr.","postalCode":"08062","locality":"Zwickau","municipality":{"key":"14524330","name":"Zwickau, Stadt","type":"Stadt"},"district":{"key":"14524","name":"Zwickau","type":"Landkreis"},"federalState":{"key":"14","name":"Sachsen"}},{"name":"Zwickauer Str.","postalCode":"08058","locality":"Zwickau","municipality":{"key":"14524330","name":"Zwickau, Stadt","type":"Stadt"},"district":{"key":"14524","name":"Zwickau","type":"Landkreis"},"federalState":{"key":"14","name":"Sachsen"}},{"name":"Älvdalenweg","postalCode":"24217","locality":"Schönberg (Holstein)","municipality":{"key":"01057073","name":"Schönberg (Holstein)","type":"Kreisangehörige_Gemeinde"},"district":{"key":"01057","name":"Plön","type":"Kreis"},"federalState":{"key":"01","name":"Schleswig-Holstein"}},]