[{"name":"Adlerstr.","postalCode":"89150","locality":"Laichingen","municipality":{"key":"08425071","name":"Laichingen, Stadt","type":"Stadt"},"district":{"key":"08425","name":"Alb-Donau-Kreis","type":"Landkreis"},"federalState":{"key":"08","name":"Baden-Württemberg"}},{"name":"Ahornweg","postalCode":"89150","locality":"Laichingen","municipality":{"key":"08425071","name":"Laichingen, Stadt","type":"Stadt"},"district":{"key":"08425","name":"Alb-Donau-Kreis","type":"Landkreis"},"federalState":{"key":"08","name":"Baden-Württemberg"}},{"name":"Albblick","postalCode":"89150","locality":"Laichingen","municipality":{"key":"08425071","name":"Laichingen, Stadt","type":"Stadt"},"district":{"key":"08425","name":"Alb-Donau-Kreis","type":"Landkreis"},"federalState":{"key":"08","name":"Baden-Württemberg"}},{"name":"Albstr.","postalCode":"89150","locality":"Laichingen","municipality":{"key":"08425071","name":"Laichingen, Stadt","type":"Stadt"},"district":{"key":"08425","name":"Alb-Donau-Kreis","type":"Landkreis"},"federalState":{"key":"08","name":"Baden-Württemberg"}},{"name":"Alemannenweg","postalCode":"89150","locality":"Laichingen","municipality":{"key":"08425071","name":"Laichingen, Stadt","type":"Stadt"},"district":{"key":"08425","name":"Alb-Donau-Kreis","type":"Landkreis"},"federalState":{"key":"08","name":"Baden-Württemberg"}},{"name":"Alenberg","postalCode":"89150","locality":"Laichingen","municipality":{"key":"08425071","name":"Laichingen, Stadt","type":"Stadt"},"district":{"key":"08425","name":"Alb-Donau-Kreis","type":"Landkreis"},"federalState":{"key":"08","name":"Baden-Württemberg"}},{"name":"Am alten Weg","postalCode":"89150","locality":"Laichingen","municipality":{"key":"08425071","name":"Laichingen, Stadt","type":"Stadt"},"district":{"key":"08425","name":"Alb-Donau-Kreis","type":"Landkreis"},"federalState":{"key":"08","name":"Baden-Württemberg"}},{"name":"Am Bleichberg","postalCode":"89150","locality":"Laichingen","municipality":{"key":"08425071","name":"Laichingen, Stadt","type":"Stadt"},"district":{"key":"08425","name":"Alb-Donau-Kreis","type":"Landkreis"},"federalState":{"key":"08","name":"Baden-Württemberg"}},{"name":"Am Bühl","postalCode":"89150","locality":"Laichingen","municipality":{"key":"08425071","name":"Laichingen, Stadt","type":"Stadt"},"district":{"key":"08425","name":"Alb-Donau-Kreis","type":"Landkreis"},"federalState":{"key":"08","name":"Baden-Württemberg"}},{"name":"Am großen Stein","postalCode":"89150","locality":"Laichingen","municipality":{"key":"08425071","name":"Laichingen, Stadt","type":"Stadt"},"district":{"key":"08425","name":"Alb-Donau-Kreis","type":"Landkreis"},"federalState":{"key":"08","name":"Baden-Württemberg"}},{"name":"Am Kirchsteig","postalCode":"89150","locality":"Laichingen","municipality":{"key":"08425071","name":"Laichingen, Stadt","type":"Stadt"},"district":{"key":"08425","name":"Alb-Donau-Kreis","type":"Landkreis"},"federalState":{"key":"08","name":"Baden-Württemberg"}},{"name":"Am Mehldorn","postalCode":"89150","locality":"Laichingen","municipality":{"key":"08425071","name":"Laichingen, Stadt","type":"Stadt"},"district":{"key":"08425","name":"Alb-Donau-Kreis","type":"Landkreis"},"federalState":{"key":"08","name":"Baden-Württemberg"}},{"name":"Am Pfarrhaus","postalCode":"89150","locality":"Laichingen","municipality":{"key":"08425071","name":"Laichingen, Stadt","type":"Stadt"},"district":{"key":"08425","name":"Alb-Donau-Kreis","type":"Landkreis"},"federalState":{"key":"08","name":"Baden-Württemberg"}},{"name":"Am Schragengarten","postalCode":"89150","locality":"Laichingen","municipality":{"key":"08425071","name":"Laichingen, Stadt","type":"Stadt"},"district":{"key":"08425","name":"Alb-Donau-Kreis","type":"Landkreis"},"federalState":{"key":"08","name":"Baden-Württemberg"}},{"name":"Amselweg","postalCode":"89150","locality":"Laichingen","municipality":{"key":"08425071","name":"Laichingen, Stadt","type":"Stadt"},"district":{"key":"08425","name":"Alb-Donau-Kreis","type":"Landkreis"},"federalState":{"key":"08","name":"Baden-Württemberg"}},{"name":"Am Wasen","postalCode":"89150","locality":"Laichingen","municipality":{"key":"08425071","name":"Laichingen, Stadt","type":"Stadt"},"district":{"key":"08425","name":"Alb-Donau-Kreis","type":"Landkreis"},"federalState":{"key":"08","name":"Baden-Württemberg"}},{"name":"Am Weißdorn","postalCode":"89150","locality":"Laichingen","municipality":{"key":"08425071","name":"Laichingen, Stadt","type":"Stadt"},"district":{"key":"08425","name":"Alb-Donau-Kreis","type":"Landkreis"},"federalState":{"key":"08","name":"Baden-Württemberg"}},{"name":"Appenzellerweg","postalCode":"89150","locality":"Laichingen","municipality":{"key":"08425071","name":"Laichingen, Stadt","type":"Stadt"},"district":{"key":"08425","name":"Alb-Donau-Kreis","type":"Landkreis"},"federalState":{"key":"08","name":"Baden-Württemberg"}},{"name":"Arbeitsdienstweg","postalCode":"89150","locality":"Laichingen","municipality":{"key":"08425071","name":"Laichingen, Stadt","type":"Stadt"},"district":{"key":"08425","name":"Alb-Donau-Kreis","type":"Landkreis"},"federalState":{"key":"08","name":"Baden-Württemberg"}},{"name":"Arnold-Schönberg-Weg","postalCode":"89150","locality":"Laichingen","municipality":{"key":"08425071","name":"Laichingen, Stadt","type":"Stadt"},"district":{"key":"08425","name":"Alb-Donau-Kreis","type":"Landkreis"},"federalState":{"key":"08","name":"Baden-Württemberg"}},{"name":"Ascher Steig","postalCode":"89150","locality":"Laichingen","municipality":{"key":"08425071","name":"Laichingen, Stadt","type":"Stadt"},"district":{"key":"08425","name":"Alb-Donau-Kreis","type":"Landkreis"},"federalState":{"key":"08","name":"Baden-Württemberg"}},{"name":"Asem Hauptweg","postalCode":"89150","locality":"Laichingen","municipality":{"key":"08425071","name":"Laichingen, Stadt","type":"Stadt"},"district":{"key":"08425","name":"Alb-Donau-Kreis","type":"Landkreis"},"federalState":{"key":"08","name":"Baden-Württemberg"}},{"name":"Auf dem Berg","postalCode":"89150","locality":"Laichingen","municipality":{"key":"08425071","name":"Laichingen, Stadt","type":"Stadt"},"district":{"key":"08425","name":"Alb-Donau-Kreis","type":"Landkreis"},"federalState":{"key":"08","name":"Baden-Württemberg"}},{"name":"Auf dem Bühl","postalCode":"89150","locality":"Laichingen","municipality":{"key":"08425071","name":"Laichingen, Stadt","type":"Stadt"},"district":{"key":"08425","name":"Alb-Donau-Kreis","type":"Landkreis"},"federalState":{"key":"08","name":"Baden-Württemberg"}},{"name":"Auf der Bleiche","postalCode":"89150","locality":"Laichingen","municipality":{"key":"08425071","name":"Laichingen, Stadt","type":"Stadt"},"district":{"key":"08425","name":"Alb-Donau-Kreis","type":"Landkreis"},"federalState":{"key":"08","name":"Baden-Württemberg"}},{"name":"Auweg","postalCode":"89150","locality":"Laichingen","municipality":{"key":"08425071","name":"Laichingen, Stadt","type":"Stadt"},"district":{"key":"08425","name":"Alb-Donau-Kreis","type":"Landkreis"},"federalState":{"key":"08","name":"Baden-Württemberg"}},{"name":"Bahnhofstr.","postalCode":"89150","locality":"Laichingen","municipality":{"key":"08425071","name":"Laichingen, Stadt","type":"Stadt"},"district":{"key":"08425","name":"Alb-Donau-Kreis","type":"Landkreis"},"federalState":{"key":"08","name":"Baden-Württemberg"}},{"name":"Bärenlauweg","postalCode":"89150","locality":"Laichingen","municipality":{"key":"08425071","name":"Laichingen, Stadt","type":"Stadt"},"district":{"key":"08425","name":"Alb-Donau-Kreis","type":"Landkreis"},"federalState":{"key":"08","name":"Baden-Württemberg"}},{"name":"Beethovenweg","postalCode":"89150","locality":"Laichingen","municipality":{"key":"08425071","name":"Laichingen, Stadt","type":"Stadt"},"district":{"key":"08425","name":"Alb-Donau-Kreis","type":"Landkreis"},"federalState":{"key":"08","name":"Baden-Württemberg"}},{"name":"Bei den Linden","postalCode":"89150","locality":"Laichingen","municipality":{"key":"08425071","name":"Laichingen, Stadt","type":"Stadt"},"district":{"key":"08425","name":"Alb-Donau-Kreis","type":"Landkreis"},"federalState":{"key":"08","name":"Baden-Württemberg"}},{"name":"Bei den Sporthallen","postalCode":"89150","locality":"Laichingen","municipality":{"key":"08425071","name":"Laichingen, Stadt","type":"Stadt"},"district":{"key":"08425","name":"Alb-Donau-Kreis","type":"Landkreis"},"federalState":{"key":"08","name":"Baden-Württemberg"}},{"name":"Bei der Hülbe","postalCode":"89150","locality":"Laichingen","municipality":{"key":"08425071","name":"Laichingen, Stadt","type":"Stadt"},"district":{"key":"08425","name":"Alb-Donau-Kreis","type":"Landkreis"},"federalState":{"key":"08","name":"Baden-Württemberg"}},{"name":"Bei der Kirche","postalCode":"89150","locality":"Laichingen","municipality":{"key":"08425071","name":"Laichingen, Stadt","type":"Stadt"},"district":{"key":"08425","name":"Alb-Donau-Kreis","type":"Landkreis"},"federalState":{"key":"08","name":"Baden-Württemberg"}},{"name":"Bei der Linde","postalCode":"89150","locality":"Laichingen","municipality":{"key":"08425071","name":"Laichingen, Stadt","type":"Stadt"},"district":{"key":"08425","name":"Alb-Donau-Kreis","type":"Landkreis"},"federalState":{"key":"08","name":"Baden-Württemberg"}},{"name":"Beim Friedhof","postalCode":"89150","locality":"Laichingen","municipality":{"key":"08425071","name":"Laichingen, Stadt","type":"Stadt"},"district":{"key":"08425","name":"Alb-Donau-Kreis","type":"Landkreis"},"federalState":{"key":"08","name":"Baden-Württemberg"}},{"name":"Beim Himmelreich","postalCode":"89150","locality":"Laichingen","municipality":{"key":"08425071","name":"Laichingen, Stadt","type":"Stadt"},"district":{"key":"08425","name":"Alb-Donau-Kreis","type":"Landkreis"},"federalState":{"key":"08","name":"Baden-Württemberg"}},{"name":"Beim Käppele","postalCode":"89150","locality":"Laichingen","municipality":{"key":"08425071","name":"Laichingen, Stadt","type":"Stadt"},"district":{"key":"08425","name":"Alb-Donau-Kreis","type":"Landkreis"},"federalState":{"key":"08","name":"Baden-Württemberg"}},{"name":"Beim Lager","postalCode":"89150","locality":"Laichingen","municipality":{"key":"08425071","name":"Laichingen, Stadt","type":"Stadt"},"district":{"key":"08425","name":"Alb-Donau-Kreis","type":"Landkreis"},"federalState":{"key":"08","name":"Baden-Württemberg"}},{"name":"Beim Ziegelwäldle","postalCode":"89150","locality":"Laichingen","municipality":{"key":"08425071","name":"Laichingen, Stadt","type":"Stadt"},"district":{"key":"08425","name":"Alb-Donau-Kreis","type":"Landkreis"},"federalState":{"key":"08","name":"Baden-Württemberg"}},{"name":"Berggasse","postalCode":"89150","locality":"Laichingen","municipality":{"key":"08425071","name":"Laichingen, Stadt","type":"Stadt"},"district":{"key":"08425","name":"Alb-Donau-Kreis","type":"Landkreis"},"federalState":{"key":"08","name":"Baden-Württemberg"}},{"name":"Berghüler Weg","postalCode":"89150","locality":"Laichingen","municipality":{"key":"08425071","name":"Laichingen, Stadt","type":"Stadt"},"district":{"key":"08425","name":"Alb-Donau-Kreis","type":"Landkreis"},"federalState":{"key":"08","name":"Baden-Württemberg"}},{"name":"Bergstr.","postalCode":"89150","locality":"Laichingen","municipality":{"key":"08425071","name":"Laichingen, Stadt","type":"Stadt"},"district":{"key":"08425","name":"Alb-Donau-Kreis","type":"Landkreis"},"federalState":{"key":"08","name":"Baden-Württemberg"}},{"name":"Beurer Steig","postalCode":"89150","locality":"Laichingen","municipality":{"key":"08425071","name":"Laichingen, Stadt","type":"Stadt"},"district":{"key":"08425","name":"Alb-Donau-Kreis","type":"Landkreis"},"federalState":{"key":"08","name":"Baden-Württemberg"}},{"name":"Birkenstr.","postalCode":"89150","locality":"Laichingen","municipality":{"key":"08425071","name":"Laichingen, Stadt","type":"Stadt"},"district":{"key":"08425","name":"Alb-Donau-Kreis","type":"Landkreis"},"federalState":{"key":"08","name":"Baden-Württemberg"}},{"name":"Birkenweg","postalCode":"89150","locality":"Laichingen","municipality":{"key":"08425071","name":"Laichingen, Stadt","type":"Stadt"},"district":{"key":"08425","name":"Alb-Donau-Kreis","type":"Landkreis"},"federalState":{"key":"08","name":"Baden-Württemberg"}},{"name":"Blaubeurer Str.","postalCode":"89150","locality":"Laichingen","municipality":{"key":"08425071","name":"Laichingen, Stadt","type":"Stadt"},"district":{"key":"08425","name":"Alb-Donau-Kreis","type":"Landkreis"},"federalState":{"key":"08","name":"Baden-Württemberg"}},{"name":"Bleichwiese","postalCode":"89150","locality":"Laichingen","municipality":{"key":"08425071","name":"Laichingen, Stadt","type":"Stadt"},"district":{"key":"08425","name":"Alb-Donau-Kreis","type":"Landkreis"},"federalState":{"key":"08","name":"Baden-Württemberg"}},{"name":"Bloße Eichhalde","postalCode":"89150","locality":"Laichingen","municipality":{"key":"08425071","name":"Laichingen, Stadt","type":"Stadt"},"district":{"key":"08425","name":"Alb-Donau-Kreis","type":"Landkreis"},"federalState":{"key":"08","name":"Baden-Württemberg"}},{"name":"Blumenweg","postalCode":"89150","locality":"Laichingen","municipality":{"key":"08425071","name":"Laichingen, Stadt","type":"Stadt"},"district":{"key":"08425","name":"Alb-Donau-Kreis","type":"Landkreis"},"federalState":{"key":"08","name":"Baden-Württemberg"}},{"name":"Brahmsweg","postalCode":"89150","locality":"Laichingen","municipality":{"key":"08425071","name":"Laichingen, Stadt","type":"Stadt"},"district":{"key":"08425","name":"Alb-Donau-Kreis","type":"Landkreis"},"federalState":{"key":"08","name":"Baden-Württemberg"}},{"name":"Buchenhain","postalCode":"89150","locality":"Laichingen","municipality":{"key":"08425071","name":"Laichingen, Stadt","type":"Stadt"},"district":{"key":"08425","name":"Alb-Donau-Kreis","type":"Landkreis"},"federalState":{"key":"08","name":"Baden-Württemberg"}},{"name":"Buchenweg","postalCode":"89150","locality":"Laichingen","municipality":{"key":"08425071","name":"Laichingen, Stadt","type":"Stadt"},"district":{"key":"08425","name":"Alb-Donau-Kreis","type":"Landkreis"},"federalState":{"key":"08","name":"Baden-Württemberg"}},{"name":"Buchhaldeweg","postalCode":"89150","locality":"Laichingen","municipality":{"key":"08425071","name":"Laichingen, Stadt","type":"Stadt"},"district":{"key":"08425","name":"Alb-Donau-Kreis","type":"Landkreis"},"federalState":{"key":"08","name":"Baden-Württemberg"}},{"name":"Buchsteigeweg","postalCode":"89150","locality":"Laichingen","municipality":{"key":"08425071","name":"Laichingen, Stadt","type":"Stadt"},"district":{"key":"08425","name":"Alb-Donau-Kreis","type":"Landkreis"},"federalState":{"key":"08","name":"Baden-Württemberg"}},{"name":"Bühl","postalCode":"89150","locality":"Laichingen","municipality":{"key":"08425071","name":"Laichingen, Stadt","type":"Stadt"},"district":{"key":"08425","name":"Alb-Donau-Kreis","type":"Landkreis"},"federalState":{"key":"08","name":"Baden-Württemberg"}},{"name":"Bussardstr.","postalCode":"89150","locality":"Laichingen","municipality":{"key":"08425071","name":"Laichingen, Stadt","type":"Stadt"},"district":{"key":"08425","name":"Alb-Donau-Kreis","type":"Landkreis"},"federalState":{"key":"08","name":"Baden-Württemberg"}},{"name":"Busspur ZOB","postalCode":"89150","locality":"Laichingen","municipality":{"key":"08425071","name":"Laichingen, Stadt","type":"Stadt"},"district":{"key":"08425","name":"Alb-Donau-Kreis","type":"Landkreis"},"federalState":{"key":"08","name":"Baden-Württemberg"}},{"name":"Cäcilienweg","postalCode":"89150","locality":"Laichingen","municipality":{"key":"08425071","name":"Laichingen, Stadt","type":"Stadt"},"district":{"key":"08425","name":"Alb-Donau-Kreis","type":"Landkreis"},"federalState":{"key":"08","name":"Baden-Württemberg"}},{"name":"Carl-Zeiss-Str.","postalCode":"89150","locality":"Laichingen","municipality":{"key":"08425071","name":"Laichingen, Stadt","type":"Stadt"},"district":{"key":"08425","name":"Alb-Donau-Kreis","type":"Landkreis"},"federalState":{"key":"08","name":"Baden-Württemberg"}},{"name":"Chopinweg","postalCode":"89150","locality":"Laichingen","municipality":{"key":"08425071","name":"Laichingen, Stadt","type":"Stadt"},"district":{"key":"08425","name":"Alb-Donau-Kreis","type":"Landkreis"},"federalState":{"key":"08","name":"Baden-Württemberg"}},{"name":"Christophstr.","postalCode":"89150","locality":"Laichingen","municipality":{"key":"08425071","name":"Laichingen, Stadt","type":"Stadt"},"district":{"key":"08425","name":"Alb-Donau-Kreis","type":"Landkreis"},"federalState":{"key":"08","name":"Baden-Württemberg"}},{"name":"Dahlienstr.","postalCode":"89150","locality":"Laichingen","municipality":{"key":"08425071","name":"Laichingen, Stadt","type":"Stadt"},"district":{"key":"08425","name":"Alb-Donau-Kreis","type":"Landkreis"},"federalState":{"key":"08","name":"Baden-Württemberg"}},{"name":"Daniel-Mangold-Str.","postalCode":"89150","locality":"Laichingen","municipality":{"key":"08425071","name":"Laichingen, Stadt","type":"Stadt"},"district":{"key":"08425","name":"Alb-Donau-Kreis","type":"Landkreis"},"federalState":{"key":"08","name":"Baden-Württemberg"}},{"name":"Delaustr.","postalCode":"89150","locality":"Laichingen","municipality":{"key":"08425071","name":"Laichingen, Stadt","type":"Stadt"},"district":{"key":"08425","name":"Alb-Donau-Kreis","type":"Landkreis"},"federalState":{"key":"08","name":"Baden-Württemberg"}},{"name":"Delauweg","postalCode":"89150","locality":"Laichingen","municipality":{"key":"08425071","name":"Laichingen, Stadt","type":"Stadt"},"district":{"key":"08425","name":"Alb-Donau-Kreis","type":"Landkreis"},"federalState":{"key":"08","name":"Baden-Württemberg"}},{"name":"Dorfstr.","postalCode":"89150","locality":"Laichingen","municipality":{"key":"08425071","name":"Laichingen, Stadt","type":"Stadt"},"district":{"key":"08425","name":"Alb-Donau-Kreis","type":"Landkreis"},"federalState":{"key":"08","name":"Baden-Württemberg"}},{"name":"Drosselweg","postalCode":"89150","locality":"Laichingen","municipality":{"key":"08425071","name":"Laichingen, Stadt","type":"Stadt"},"district":{"key":"08425","name":"Alb-Donau-Kreis","type":"Landkreis"},"federalState":{"key":"08","name":"Baden-Württemberg"}},{"name":"Dürrer Rain","postalCode":"89150","locality":"Laichingen","municipality":{"key":"08425071","name":"Laichingen, Stadt","type":"Stadt"},"district":{"key":"08425","name":"Alb-Donau-Kreis","type":"Landkreis"},"federalState":{"key":"08","name":"Baden-Württemberg"}},{"name":"Eberhardstr.","postalCode":"89150","locality":"Laichingen","municipality":{"key":"08425071","name":"Laichingen, Stadt","type":"Stadt"},"district":{"key":"08425","name":"Alb-Donau-Kreis","type":"Landkreis"},"federalState":{"key":"08","name":"Baden-Württemberg"}},{"name":"Eichbergrainweg","postalCode":"89150","locality":"Laichingen","municipality":{"key":"08425071","name":"Laichingen, Stadt","type":"Stadt"},"district":{"key":"08425","name":"Alb-Donau-Kreis","type":"Landkreis"},"federalState":{"key":"08","name":"Baden-Württemberg"}},{"name":"Eichbergweg","postalCode":"89150","locality":"Laichingen","municipality":{"key":"08425071","name":"Laichingen, Stadt","type":"Stadt"},"district":{"key":"08425","name":"Alb-Donau-Kreis","type":"Landkreis"},"federalState":{"key":"08","name":"Baden-Württemberg"}},{"name":"Eichenweg","postalCode":"89150","locality":"Laichingen","municipality":{"key":"08425071","name":"Laichingen, Stadt","type":"Stadt"},"district":{"key":"08425","name":"Alb-Donau-Kreis","type":"Landkreis"},"federalState":{"key":"08","name":"Baden-Württemberg"}},{"name":"Eichhaldrundweg","postalCode":"89150","locality":"Laichingen","municipality":{"key":"08425071","name":"Laichingen, Stadt","type":"Stadt"},"district":{"key":"08425","name":"Alb-Donau-Kreis","type":"Landkreis"},"federalState":{"key":"08","name":"Baden-Württemberg"}},{"name":"Ennabeurer Gässle","postalCode":"89150","locality":"Laichingen","municipality":{"key":"08425071","name":"Laichingen, Stadt","type":"Stadt"},"district":{"key":"08425","name":"Alb-Donau-Kreis","type":"Landkreis"},"federalState":{"key":"08","name":"Baden-Württemberg"}},{"name":"Ennabeurer Str.","postalCode":"89150","locality":"Laichingen","municipality":{"key":"08425071","name":"Laichingen, Stadt","type":"Stadt"},"district":{"key":"08425","name":"Alb-Donau-Kreis","type":"Landkreis"},"federalState":{"key":"08","name":"Baden-Württemberg"}},{"name":"Enzianweg","postalCode":"89150","locality":"Laichingen","municipality":{"key":"08425071","name":"Laichingen, Stadt","type":"Stadt"},"district":{"key":"08425","name":"Alb-Donau-Kreis","type":"Landkreis"},"federalState":{"key":"08","name":"Baden-Württemberg"}},{"name":"Erbistraufweg","postalCode":"89150","locality":"Laichingen","municipality":{"key":"08425071","name":"Laichingen, Stadt","type":"Stadt"},"district":{"key":"08425","name":"Alb-Donau-Kreis","type":"Landkreis"},"federalState":{"key":"08","name":"Baden-Württemberg"}},{"name":"Erlenstr.","postalCode":"89150","locality":"Laichingen","municipality":{"key":"08425071","name":"Laichingen, Stadt","type":"Stadt"},"district":{"key":"08425","name":"Alb-Donau-Kreis","type":"Landkreis"},"federalState":{"key":"08","name":"Baden-Württemberg"}},{"name":"Eschenlauh Rundweg","postalCode":"89150","locality":"Laichingen","municipality":{"key":"08425071","name":"Laichingen, Stadt","type":"Stadt"},"district":{"key":"08425","name":"Alb-Donau-Kreis","type":"Landkreis"},"federalState":{"key":"08","name":"Baden-Württemberg"}},{"name":"Eschenlauweg","postalCode":"89150","locality":"Laichingen","municipality":{"key":"08425071","name":"Laichingen, Stadt","type":"Stadt"},"district":{"key":"08425","name":"Alb-Donau-Kreis","type":"Landkreis"},"federalState":{"key":"08","name":"Baden-Württemberg"}},{"name":"Eschenweg","postalCode":"89150","locality":"Laichingen","municipality":{"key":"08425071","name":"Laichingen, Stadt","type":"Stadt"},"district":{"key":"08425","name":"Alb-Donau-Kreis","type":"Landkreis"},"federalState":{"key":"08","name":"Baden-Württemberg"}},{"name":"Eythstr.","postalCode":"89150","locality":"Laichingen","municipality":{"key":"08425071","name":"Laichingen, Stadt","type":"Stadt"},"district":{"key":"08425","name":"Alb-Donau-Kreis","type":"Landkreis"},"federalState":{"key":"08","name":"Baden-Württemberg"}},{"name":"Falkenstr.","postalCode":"89150","locality":"Laichingen","municipality":{"key":"08425071","name":"Laichingen, Stadt","type":"Stadt"},"district":{"key":"08425","name":"Alb-Donau-Kreis","type":"Landkreis"},"federalState":{"key":"08","name":"Baden-Württemberg"}},{"name":"Farrenmahdweg","postalCode":"89150","locality":"Laichingen","municipality":{"key":"08425071","name":"Laichingen, Stadt","type":"Stadt"},"district":{"key":"08425","name":"Alb-Donau-Kreis","type":"Landkreis"},"federalState":{"key":"08","name":"Baden-Württemberg"}},{"name":"Fasanenweg","postalCode":"89150","locality":"Laichingen","municipality":{"key":"08425071","name":"Laichingen, Stadt","type":"Stadt"},"district":{"key":"08425","name":"Alb-Donau-Kreis","type":"Landkreis"},"federalState":{"key":"08","name":"Baden-Württemberg"}},{"name":"Faxweg","postalCode":"89150","locality":"Laichingen","municipality":{"key":"08425071","name":"Laichingen, Stadt","type":"Stadt"},"district":{"key":"08425","name":"Alb-Donau-Kreis","type":"Landkreis"},"federalState":{"key":"08","name":"Baden-Württemberg"}},{"name":"Feilenhalde Weg","postalCode":"89150","locality":"Laichingen","municipality":{"key":"08425071","name":"Laichingen, Stadt","type":"Stadt"},"district":{"key":"08425","name":"Alb-Donau-Kreis","type":"Landkreis"},"federalState":{"key":"08","name":"Baden-Württemberg"}},{"name":"Feldstetter Str.","postalCode":"89150","locality":"Laichingen","municipality":{"key":"08425071","name":"Laichingen, Stadt","type":"Stadt"},"district":{"key":"08425","name":"Alb-Donau-Kreis","type":"Landkreis"},"federalState":{"key":"08","name":"Baden-Württemberg"}},{"name":"Felsengasse","postalCode":"89150","locality":"Laichingen","municipality":{"key":"08425071","name":"Laichingen, Stadt","type":"Stadt"},"district":{"key":"08425","name":"Alb-Donau-Kreis","type":"Landkreis"},"federalState":{"key":"08","name":"Baden-Württemberg"}},{"name":"Felsenweg","postalCode":"89150","locality":"Laichingen","municipality":{"key":"08425071","name":"Laichingen, Stadt","type":"Stadt"},"district":{"key":"08425","name":"Alb-Donau-Kreis","type":"Landkreis"},"federalState":{"key":"08","name":"Baden-Württemberg"}},{"name":"Fichtenweg","postalCode":"89150","locality":"Laichingen","municipality":{"key":"08425071","name":"Laichingen, Stadt","type":"Stadt"},"district":{"key":"08425","name":"Alb-Donau-Kreis","type":"Landkreis"},"federalState":{"key":"08","name":"Baden-Württemberg"}},{"name":"Finkenweg","postalCode":"89150","locality":"Laichingen","municipality":{"key":"08425071","name":"Laichingen, Stadt","type":"Stadt"},"district":{"key":"08425","name":"Alb-Donau-Kreis","type":"Landkreis"},"federalState":{"key":"08","name":"Baden-Württemberg"}},{"name":"Fliederweg","postalCode":"89150","locality":"Laichingen","municipality":{"key":"08425071","name":"Laichingen, Stadt","type":"Stadt"},"district":{"key":"08425","name":"Alb-Donau-Kreis","type":"Landkreis"},"federalState":{"key":"08","name":"Baden-Württemberg"}},{"name":"Flugplatzweg","postalCode":"89150","locality":"Laichingen","municipality":{"key":"08425071","name":"Laichingen, Stadt","type":"Stadt"},"district":{"key":"08425","name":"Alb-Donau-Kreis","type":"Landkreis"},"federalState":{"key":"08","name":"Baden-Württemberg"}},{"name":"Fölltorstr.","postalCode":"89150","locality":"Laichingen","municipality":{"key":"08425071","name":"Laichingen, Stadt","type":"Stadt"},"district":{"key":"08425","name":"Alb-Donau-Kreis","type":"Landkreis"},"federalState":{"key":"08","name":"Baden-Württemberg"}},{"name":"Forchenweg","postalCode":"89150","locality":"Laichingen","municipality":{"key":"08425071","name":"Laichingen, Stadt","type":"Stadt"},"district":{"key":"08425","name":"Alb-Donau-Kreis","type":"Landkreis"},"federalState":{"key":"08","name":"Baden-Württemberg"}},{"name":"Forststr.","postalCode":"89150","locality":"Laichingen","municipality":{"key":"08425071","name":"Laichingen, Stadt","type":"Stadt"},"district":{"key":"08425","name":"Alb-Donau-Kreis","type":"Landkreis"},"federalState":{"key":"08","name":"Baden-Württemberg"}},{"name":"Freigasse","postalCode":"89150","locality":"Laichingen","municipality":{"key":"08425071","name":"Laichingen, Stadt","type":"Stadt"},"district":{"key":"08425","name":"Alb-Donau-Kreis","type":"Landkreis"},"federalState":{"key":"08","name":"Baden-Württemberg"}},{"name":"Friedhofweg","postalCode":"89150","locality":"Laichingen","municipality":{"key":"08425071","name":"Laichingen, Stadt","type":"Stadt"},"district":{"key":"08425","name":"Alb-Donau-Kreis","type":"Landkreis"},"federalState":{"key":"08","name":"Baden-Württemberg"}},{"name":"Friedrichstr.","postalCode":"89150","locality":"Laichingen","municipality":{"key":"08425071","name":"Laichingen, Stadt","type":"Stadt"},"district":{"key":"08425","name":"Alb-Donau-Kreis","type":"Landkreis"},"federalState":{"key":"08","name":"Baden-Württemberg"}},{"name":"Fuchsbauweg","postalCode":"89150","locality":"Laichingen","municipality":{"key":"08425071","name":"Laichingen, Stadt","type":"Stadt"},"district":{"key":"08425","name":"Alb-Donau-Kreis","type":"Landkreis"},"federalState":{"key":"08","name":"Baden-Württemberg"}},{"name":"Gälgleweg","postalCode":"89150","locality":"Laichingen","municipality":{"key":"08425071","name":"Laichingen, Stadt","type":"Stadt"},"district":{"key":"08425","name":"Alb-Donau-Kreis","type":"Landkreis"},"federalState":{"key":"08","name":"Baden-Württemberg"}},{"name":"Gamberslaurundweg","postalCode":"89150","locality":"Laichingen","municipality":{"key":"08425071","name":"Laichingen, Stadt","type":"Stadt"},"district":{"key":"08425","name":"Alb-Donau-Kreis","type":"Landkreis"},"federalState":{"key":"08","name":"Baden-Württemberg"}},{"name":"Gartenstr.","postalCode":"89150","locality":"Laichingen","municipality":{"key":"08425071","name":"Laichingen, Stadt","type":"Stadt"},"district":{"key":"08425","name":"Alb-Donau-Kreis","type":"Landkreis"},"federalState":{"key":"08","name":"Baden-Württemberg"}},{"name":"Geislinger Str.","postalCode":"89150","locality":"Laichingen","municipality":{"key":"08425071","name":"Laichingen, Stadt","type":"Stadt"},"district":{"key":"08425","name":"Alb-Donau-Kreis","type":"Landkreis"},"federalState":{"key":"08","name":"Baden-Württemberg"}},{"name":"Gemeindegässle","postalCode":"89150","locality":"Laichingen","municipality":{"key":"08425071","name":"Laichingen, Stadt","type":"Stadt"},"district":{"key":"08425","name":"Alb-Donau-Kreis","type":"Landkreis"},"federalState":{"key":"08","name":"Baden-Württemberg"}},{"name":"Georg-Huober-Str.","postalCode":"89150","locality":"Laichingen","municipality":{"key":"08425071","name":"Laichingen, Stadt","type":"Stadt"},"district":{"key":"08425","name":"Alb-Donau-Kreis","type":"Landkreis"},"federalState":{"key":"08","name":"Baden-Württemberg"}},{"name":"Goethestr.","postalCode":"89150","locality":"Laichingen","municipality":{"key":"08425071","name":"Laichingen, Stadt","type":"Stadt"},"district":{"key":"08425","name":"Alb-Donau-Kreis","type":"Landkreis"},"federalState":{"key":"08","name":"Baden-Württemberg"}},{"name":"Gotenweg","postalCode":"89150","locality":"Laichingen","municipality":{"key":"08425071","name":"Laichingen, Stadt","type":"Stadt"},"district":{"key":"08425","name":"Alb-Donau-Kreis","type":"Landkreis"},"federalState":{"key":"08","name":"Baden-Württemberg"}},{"name":"Grenzweg","postalCode":"89150","locality":"Laichingen","municipality":{"key":"08425071","name":"Laichingen, Stadt","type":"Stadt"},"district":{"key":"08425","name":"Alb-Donau-Kreis","type":"Landkreis"},"federalState":{"key":"08","name":"Baden-Württemberg"}},{"name":"Gustav-Mahler-Weg","postalCode":"89150","locality":"Laichingen","municipality":{"key":"08425071","name":"Laichingen, Stadt","type":"Stadt"},"district":{"key":"08425","name":"Alb-Donau-Kreis","type":"Landkreis"},"federalState":{"key":"08","name":"Baden-Württemberg"}},{"name":"Hadergasse","postalCode":"89150","locality":"Laichingen","municipality":{"key":"08425071","name":"Laichingen, Stadt","type":"Stadt"},"district":{"key":"08425","name":"Alb-Donau-Kreis","type":"Landkreis"},"federalState":{"key":"08","name":"Baden-Württemberg"}},{"name":"Hagsbucher Weg","postalCode":"89150","locality":"Laichingen","municipality":{"key":"08425071","name":"Laichingen, Stadt","type":"Stadt"},"district":{"key":"08425","name":"Alb-Donau-Kreis","type":"Landkreis"},"federalState":{"key":"08","name":"Baden-Württemberg"}},{"name":"Hahnenweiler","postalCode":"89150","locality":"Laichingen","municipality":{"key":"08425071","name":"Laichingen, Stadt","type":"Stadt"},"district":{"key":"08425","name":"Alb-Donau-Kreis","type":"Landkreis"},"federalState":{"key":"08","name":"Baden-Württemberg"}},{"name":"Hahngarten","postalCode":"89150","locality":"Laichingen","municipality":{"key":"08425071","name":"Laichingen, Stadt","type":"Stadt"},"district":{"key":"08425","name":"Alb-Donau-Kreis","type":"Landkreis"},"federalState":{"key":"08","name":"Baden-Württemberg"}},{"name":"Hans-Reyhing-Weg","postalCode":"89150","locality":"Laichingen","municipality":{"key":"08425071","name":"Laichingen, Stadt","type":"Stadt"},"district":{"key":"08425","name":"Alb-Donau-Kreis","type":"Landkreis"},"federalState":{"key":"08","name":"Baden-Württemberg"}},{"name":"Hasengasse","postalCode":"89150","locality":"Laichingen","municipality":{"key":"08425071","name":"Laichingen, Stadt","type":"Stadt"},"district":{"key":"08425","name":"Alb-Donau-Kreis","type":"Landkreis"},"federalState":{"key":"08","name":"Baden-Württemberg"}},{"name":"Hauptstr.","postalCode":"89150","locality":"Laichingen","municipality":{"key":"08425071","name":"Laichingen, Stadt","type":"Stadt"},"district":{"key":"08425","name":"Alb-Donau-Kreis","type":"Landkreis"},"federalState":{"key":"08","name":"Baden-Württemberg"}},{"name":"Haydnweg","postalCode":"89150","locality":"Laichingen","municipality":{"key":"08425071","name":"Laichingen, Stadt","type":"Stadt"},"district":{"key":"08425","name":"Alb-Donau-Kreis","type":"Landkreis"},"federalState":{"key":"08","name":"Baden-Württemberg"}},{"name":"Heerstr.","postalCode":"89150","locality":"Laichingen","municipality":{"key":"08425071","name":"Laichingen, Stadt","type":"Stadt"},"district":{"key":"08425","name":"Alb-Donau-Kreis","type":"Landkreis"},"federalState":{"key":"08","name":"Baden-Württemberg"}},{"name":"Heidehofstr.","postalCode":"89150","locality":"Laichingen","municipality":{"key":"08425071","name":"Laichingen, Stadt","type":"Stadt"},"district":{"key":"08425","name":"Alb-Donau-Kreis","type":"Landkreis"},"federalState":{"key":"08","name":"Baden-Württemberg"}},{"name":"Heideweg","postalCode":"89150","locality":"Laichingen","municipality":{"key":"08425071","name":"Laichingen, Stadt","type":"Stadt"},"district":{"key":"08425","name":"Alb-Donau-Kreis","type":"Landkreis"},"federalState":{"key":"08","name":"Baden-Württemberg"}},{"name":"Heimweggasse","postalCode":"89150","locality":"Laichingen","municipality":{"key":"08425071","name":"Laichingen, Stadt","type":"Stadt"},"district":{"key":"08425","name":"Alb-Donau-Kreis","type":"Landkreis"},"federalState":{"key":"08","name":"Baden-Württemberg"}},{"name":"Heinrich-Kahn-Str.","postalCode":"89150","locality":"Laichingen","municipality":{"key":"08425071","name":"Laichingen, Stadt","type":"Stadt"},"district":{"key":"08425","name":"Alb-Donau-Kreis","type":"Landkreis"},"federalState":{"key":"08","name":"Baden-Württemberg"}},{"name":"Heinrich-Lang-Str.","postalCode":"89150","locality":"Laichingen","municipality":{"key":"08425071","name":"Laichingen, Stadt","type":"Stadt"},"district":{"key":"08425","name":"Alb-Donau-Kreis","type":"Landkreis"},"federalState":{"key":"08","name":"Baden-Württemberg"}},{"name":"Heinrichstr.","postalCode":"89150","locality":"Laichingen","municipality":{"key":"08425071","name":"Laichingen, Stadt","type":"Stadt"},"district":{"key":"08425","name":"Alb-Donau-Kreis","type":"Landkreis"},"federalState":{"key":"08","name":"Baden-Württemberg"}},{"name":"Helfensteinerstr.","postalCode":"89150","locality":"Laichingen","municipality":{"key":"08425071","name":"Laichingen, Stadt","type":"Stadt"},"district":{"key":"08425","name":"Alb-Donau-Kreis","type":"Landkreis"},"federalState":{"key":"08","name":"Baden-Württemberg"}},{"name":"Hengstruckenweg","postalCode":"89150","locality":"Laichingen","municipality":{"key":"08425071","name":"Laichingen, Stadt","type":"Stadt"},"district":{"key":"08425","name":"Alb-Donau-Kreis","type":"Landkreis"},"federalState":{"key":"08","name":"Baden-Württemberg"}},{"name":"Henzenbuch","postalCode":"89150","locality":"Laichingen","municipality":{"key":"08425071","name":"Laichingen, Stadt","type":"Stadt"},"district":{"key":"08425","name":"Alb-Donau-Kreis","type":"Landkreis"},"federalState":{"key":"08","name":"Baden-Württemberg"}},{"name":"Herdweg","postalCode":"89150","locality":"Laichingen","municipality":{"key":"08425071","name":"Laichingen, Stadt","type":"Stadt"},"district":{"key":"08425","name":"Alb-Donau-Kreis","type":"Landkreis"},"federalState":{"key":"08","name":"Baden-Württemberg"}},{"name":"Herrenmahdweg","postalCode":"89150","locality":"Laichingen","municipality":{"key":"08425071","name":"Laichingen, Stadt","type":"Stadt"},"district":{"key":"08425","name":"Alb-Donau-Kreis","type":"Landkreis"},"federalState":{"key":"08","name":"Baden-Württemberg"}},{"name":"Himmelreichgasse","postalCode":"89150","locality":"Laichingen","municipality":{"key":"08425071","name":"Laichingen, Stadt","type":"Stadt"},"district":{"key":"08425","name":"Alb-Donau-Kreis","type":"Landkreis"},"federalState":{"key":"08","name":"Baden-Württemberg"}},{"name":"Hindenburgstr.","postalCode":"89150","locality":"Laichingen","municipality":{"key":"08425071","name":"Laichingen, Stadt","type":"Stadt"},"district":{"key":"08425","name":"Alb-Donau-Kreis","type":"Landkreis"},"federalState":{"key":"08","name":"Baden-Württemberg"}},{"name":"Hinter Alenberg","postalCode":"89150","locality":"Laichingen","municipality":{"key":"08425071","name":"Laichingen, Stadt","type":"Stadt"},"district":{"key":"08425","name":"Alb-Donau-Kreis","type":"Landkreis"},"federalState":{"key":"08","name":"Baden-Württemberg"}},{"name":"Hinter dem Stiegel","postalCode":"89150","locality":"Laichingen","municipality":{"key":"08425071","name":"Laichingen, Stadt","type":"Stadt"},"district":{"key":"08425","name":"Alb-Donau-Kreis","type":"Landkreis"},"federalState":{"key":"08","name":"Baden-Württemberg"}},{"name":"Hintere Erbistalweg","postalCode":"89150","locality":"Laichingen","municipality":{"key":"08425071","name":"Laichingen, Stadt","type":"Stadt"},"district":{"key":"08425","name":"Alb-Donau-Kreis","type":"Landkreis"},"federalState":{"key":"08","name":"Baden-Württemberg"}},{"name":"Hintere Hohenlohsteige","postalCode":"89150","locality":"Laichingen","municipality":{"key":"08425071","name":"Laichingen, Stadt","type":"Stadt"},"district":{"key":"08425","name":"Alb-Donau-Kreis","type":"Landkreis"},"federalState":{"key":"08","name":"Baden-Württemberg"}},{"name":"hinterer Eichbergweg","postalCode":"89150","locality":"Laichingen","municipality":{"key":"08425071","name":"Laichingen, Stadt","type":"Stadt"},"district":{"key":"08425","name":"Alb-Donau-Kreis","type":"Landkreis"},"federalState":{"key":"08","name":"Baden-Württemberg"}},{"name":"Hirschgehegeweg","postalCode":"89150","locality":"Laichingen","municipality":{"key":"08425071","name":"Laichingen, Stadt","type":"Stadt"},"district":{"key":"08425","name":"Alb-Donau-Kreis","type":"Landkreis"},"federalState":{"key":"08","name":"Baden-Württemberg"}},{"name":"Hirschstr.","postalCode":"89150","locality":"Laichingen","municipality":{"key":"08425071","name":"Laichingen, Stadt","type":"Stadt"},"district":{"key":"08425","name":"Alb-Donau-Kreis","type":"Landkreis"},"federalState":{"key":"08","name":"Baden-Württemberg"}},{"name":"Hochbuchrundweg","postalCode":"89150","locality":"Laichingen","municipality":{"key":"08425071","name":"Laichingen, Stadt","type":"Stadt"},"district":{"key":"08425","name":"Alb-Donau-Kreis","type":"Landkreis"},"federalState":{"key":"08","name":"Baden-Württemberg"}},{"name":"Hohenlohrundweg","postalCode":"89150","locality":"Laichingen","municipality":{"key":"08425071","name":"Laichingen, Stadt","type":"Stadt"},"district":{"key":"08425","name":"Alb-Donau-Kreis","type":"Landkreis"},"federalState":{"key":"08","name":"Baden-Württemberg"}},{"name":"Hohenstadter Weg","postalCode":"89150","locality":"Laichingen","municipality":{"key":"08425071","name":"Laichingen, Stadt","type":"Stadt"},"district":{"key":"08425","name":"Alb-Donau-Kreis","type":"Landkreis"},"federalState":{"key":"08","name":"Baden-Württemberg"}},{"name":"Höhenweg","postalCode":"89150","locality":"Laichingen","municipality":{"key":"08425071","name":"Laichingen, Stadt","type":"Stadt"},"district":{"key":"08425","name":"Alb-Donau-Kreis","type":"Landkreis"},"federalState":{"key":"08","name":"Baden-Württemberg"}},{"name":"Hölderlinweg","postalCode":"89150","locality":"Laichingen","municipality":{"key":"08425071","name":"Laichingen, Stadt","type":"Stadt"},"district":{"key":"08425","name":"Alb-Donau-Kreis","type":"Landkreis"},"federalState":{"key":"08","name":"Baden-Württemberg"}},{"name":"Holunderweg","postalCode":"89150","locality":"Laichingen","municipality":{"key":"08425071","name":"Laichingen, Stadt","type":"Stadt"},"district":{"key":"08425","name":"Alb-Donau-Kreis","type":"Landkreis"},"federalState":{"key":"08","name":"Baden-Württemberg"}},{"name":"Im Baintlen","postalCode":"89150","locality":"Laichingen","municipality":{"key":"08425071","name":"Laichingen, Stadt","type":"Stadt"},"district":{"key":"08425","name":"Alb-Donau-Kreis","type":"Landkreis"},"federalState":{"key":"08","name":"Baden-Württemberg"}},{"name":"Im Bernhards Öschle","postalCode":"89150","locality":"Laichingen","municipality":{"key":"08425071","name":"Laichingen, Stadt","type":"Stadt"},"district":{"key":"08425","name":"Alb-Donau-Kreis","type":"Landkreis"},"federalState":{"key":"08","name":"Baden-Württemberg"}},{"name":"Im Brühl","postalCode":"89150","locality":"Laichingen","municipality":{"key":"08425071","name":"Laichingen, Stadt","type":"Stadt"},"district":{"key":"08425","name":"Alb-Donau-Kreis","type":"Landkreis"},"federalState":{"key":"08","name":"Baden-Württemberg"}},{"name":"Im Bussen","postalCode":"89150","locality":"Laichingen","municipality":{"key":"08425071","name":"Laichingen, Stadt","type":"Stadt"},"district":{"key":"08425","name":"Alb-Donau-Kreis","type":"Landkreis"},"federalState":{"key":"08","name":"Baden-Württemberg"}},{"name":"Im Grübler","postalCode":"89150","locality":"Laichingen","municipality":{"key":"08425071","name":"Laichingen, Stadt","type":"Stadt"},"district":{"key":"08425","name":"Alb-Donau-Kreis","type":"Landkreis"},"federalState":{"key":"08","name":"Baden-Württemberg"}},{"name":"Im Höfle","postalCode":"89150","locality":"Laichingen","municipality":{"key":"08425071","name":"Laichingen, Stadt","type":"Stadt"},"district":{"key":"08425","name":"Alb-Donau-Kreis","type":"Landkreis"},"federalState":{"key":"08","name":"Baden-Württemberg"}},{"name":"Im Sonnenwinkel","postalCode":"89150","locality":"Laichingen","municipality":{"key":"08425071","name":"Laichingen, Stadt","type":"Stadt"},"district":{"key":"08425","name":"Alb-Donau-Kreis","type":"Landkreis"},"federalState":{"key":"08","name":"Baden-Württemberg"}},{"name":"Im Trieb","postalCode":"89150","locality":"Laichingen","municipality":{"key":"08425071","name":"Laichingen, Stadt","type":"Stadt"},"district":{"key":"08425","name":"Alb-Donau-Kreis","type":"Landkreis"},"federalState":{"key":"08","name":"Baden-Württemberg"}},{"name":"In der Brechgrube","postalCode":"89150","locality":"Laichingen","municipality":{"key":"08425071","name":"Laichingen, Stadt","type":"Stadt"},"district":{"key":"08425","name":"Alb-Donau-Kreis","type":"Landkreis"},"federalState":{"key":"08","name":"Baden-Württemberg"}},{"name":"In der Falge","postalCode":"89150","locality":"Laichingen","municipality":{"key":"08425071","name":"Laichingen, Stadt","type":"Stadt"},"district":{"key":"08425","name":"Alb-Donau-Kreis","type":"Landkreis"},"federalState":{"key":"08","name":"Baden-Württemberg"}},{"name":"Jägerweg","postalCode":"89150","locality":"Laichingen","municipality":{"key":"08425071","name":"Laichingen, Stadt","type":"Stadt"},"district":{"key":"08425","name":"Alb-Donau-Kreis","type":"Landkreis"},"federalState":{"key":"08","name":"Baden-Württemberg"}},{"name":"Jahnstr.","postalCode":"89150","locality":"Laichingen","municipality":{"key":"08425071","name":"Laichingen, Stadt","type":"Stadt"},"district":{"key":"08425","name":"Alb-Donau-Kreis","type":"Landkreis"},"federalState":{"key":"08","name":"Baden-Württemberg"}},{"name":"Kahlhaldenhangweg","postalCode":"89150","locality":"Laichingen","municipality":{"key":"08425071","name":"Laichingen, Stadt","type":"Stadt"},"district":{"key":"08425","name":"Alb-Donau-Kreis","type":"Landkreis"},"federalState":{"key":"08","name":"Baden-Württemberg"}},{"name":"Kapuzinerweg","postalCode":"89150","locality":"Laichingen","municipality":{"key":"08425071","name":"Laichingen, Stadt","type":"Stadt"},"district":{"key":"08425","name":"Alb-Donau-Kreis","type":"Landkreis"},"federalState":{"key":"08","name":"Baden-Württemberg"}},{"name":"Karlstr.","postalCode":"89150","locality":"Laichingen","municipality":{"key":"08425071","name":"Laichingen, Stadt","type":"Stadt"},"district":{"key":"08425","name":"Alb-Donau-Kreis","type":"Landkreis"},"federalState":{"key":"08","name":"Baden-Württemberg"}},{"name":"Karl-von-Ehmann-Str.","postalCode":"89150","locality":"Laichingen","municipality":{"key":"08425071","name":"Laichingen, Stadt","type":"Stadt"},"district":{"key":"08425","name":"Alb-Donau-Kreis","type":"Landkreis"},"federalState":{"key":"08","name":"Baden-Württemberg"}},{"name":"Katharinenweg","postalCode":"89150","locality":"Laichingen","municipality":{"key":"08425071","name":"Laichingen, Stadt","type":"Stadt"},"district":{"key":"08425","name":"Alb-Donau-Kreis","type":"Landkreis"},"federalState":{"key":"08","name":"Baden-Württemberg"}},{"name":"Katzensteigweg","postalCode":"89150","locality":"Laichingen","municipality":{"key":"08425071","name":"Laichingen, Stadt","type":"Stadt"},"district":{"key":"08425","name":"Alb-Donau-Kreis","type":"Landkreis"},"federalState":{"key":"08","name":"Baden-Württemberg"}},{"name":"Katzenzeil","postalCode":"89150","locality":"Laichingen","municipality":{"key":"08425071","name":"Laichingen, Stadt","type":"Stadt"},"district":{"key":"08425","name":"Alb-Donau-Kreis","type":"Landkreis"},"federalState":{"key":"08","name":"Baden-Württemberg"}},{"name":"Kirchgasse","postalCode":"89150","locality":"Laichingen","municipality":{"key":"08425071","name":"Laichingen, Stadt","type":"Stadt"},"district":{"key":"08425","name":"Alb-Donau-Kreis","type":"Landkreis"},"federalState":{"key":"08","name":"Baden-Württemberg"}},{"name":"Kirchstr.","postalCode":"89150","locality":"Laichingen","municipality":{"key":"08425071","name":"Laichingen, Stadt","type":"Stadt"},"district":{"key":"08425","name":"Alb-Donau-Kreis","type":"Landkreis"},"federalState":{"key":"08","name":"Baden-Württemberg"}},{"name":"Kitzenbergweg","postalCode":"89150","locality":"Laichingen","municipality":{"key":"08425071","name":"Laichingen, Stadt","type":"Stadt"},"district":{"key":"08425","name":"Alb-Donau-Kreis","type":"Landkreis"},"federalState":{"key":"08","name":"Baden-Württemberg"}},{"name":"Kohlplattenweg","postalCode":"89150","locality":"Laichingen","municipality":{"key":"08425071","name":"Laichingen, Stadt","type":"Stadt"},"district":{"key":"08425","name":"Alb-Donau-Kreis","type":"Landkreis"},"federalState":{"key":"08","name":"Baden-Württemberg"}},{"name":"Konradstr.","postalCode":"89150","locality":"Laichingen","municipality":{"key":"08425071","name":"Laichingen, Stadt","type":"Stadt"},"district":{"key":"08425","name":"Alb-Donau-Kreis","type":"Landkreis"},"federalState":{"key":"08","name":"Baden-Württemberg"}},{"name":"Koppelweg","postalCode":"89150","locality":"Laichingen","municipality":{"key":"08425071","name":"Laichingen, Stadt","type":"Stadt"},"district":{"key":"08425","name":"Alb-Donau-Kreis","type":"Landkreis"},"federalState":{"key":"08","name":"Baden-Württemberg"}},{"name":"Kornbergweg","postalCode":"89150","locality":"Laichingen","municipality":{"key":"08425071","name":"Laichingen, Stadt","type":"Stadt"},"district":{"key":"08425","name":"Alb-Donau-Kreis","type":"Landkreis"},"federalState":{"key":"08","name":"Baden-Württemberg"}},{"name":"Kraftstallweg","postalCode":"89150","locality":"Laichingen","municipality":{"key":"08425071","name":"Laichingen, Stadt","type":"Stadt"},"district":{"key":"08425","name":"Alb-Donau-Kreis","type":"Landkreis"},"federalState":{"key":"08","name":"Baden-Württemberg"}},{"name":"Krempe","postalCode":"89150","locality":"Laichingen","municipality":{"key":"08425071","name":"Laichingen, Stadt","type":"Stadt"},"district":{"key":"08425","name":"Alb-Donau-Kreis","type":"Landkreis"},"federalState":{"key":"08","name":"Baden-Württemberg"}},{"name":"Kronengasse","postalCode":"89150","locality":"Laichingen","municipality":{"key":"08425071","name":"Laichingen, Stadt","type":"Stadt"},"district":{"key":"08425","name":"Alb-Donau-Kreis","type":"Landkreis"},"federalState":{"key":"08","name":"Baden-Württemberg"}},{"name":"Küfergasse","postalCode":"89150","locality":"Laichingen","municipality":{"key":"08425071","name":"Laichingen, Stadt","type":"Stadt"},"district":{"key":"08425","name":"Alb-Donau-Kreis","type":"Landkreis"},"federalState":{"key":"08","name":"Baden-Württemberg"}},{"name":"Kuhbergsteige","postalCode":"89150","locality":"Laichingen","municipality":{"key":"08425071","name":"Laichingen, Stadt","type":"Stadt"},"district":{"key":"08425","name":"Alb-Donau-Kreis","type":"Landkreis"},"federalState":{"key":"08","name":"Baden-Württemberg"}},{"name":"Laichinger Höfle","postalCode":"89150","locality":"Laichingen","municipality":{"key":"08425071","name":"Laichingen, Stadt","type":"Stadt"},"district":{"key":"08425","name":"Alb-Donau-Kreis","type":"Landkreis"},"federalState":{"key":"08","name":"Baden-Württemberg"}},{"name":"Laichinger Weg","postalCode":"89150","locality":"Laichingen","municipality":{"key":"08425071","name":"Laichingen, Stadt","type":"Stadt"},"district":{"key":"08425","name":"Alb-Donau-Kreis","type":"Landkreis"},"federalState":{"key":"08","name":"Baden-Württemberg"}},{"name":"Langes Tal","postalCode":"89150","locality":"Laichingen","municipality":{"key":"08425071","name":"Laichingen, Stadt","type":"Stadt"},"district":{"key":"08425","name":"Alb-Donau-Kreis","type":"Landkreis"},"federalState":{"key":"08","name":"Baden-Württemberg"}},{"name":"Lange Str.","postalCode":"89150","locality":"Laichingen","municipality":{"key":"08425071","name":"Laichingen, Stadt","type":"Stadt"},"district":{"key":"08425","name":"Alb-Donau-Kreis","type":"Landkreis"},"federalState":{"key":"08","name":"Baden-Württemberg"}},{"name":"Laublocher Weg","postalCode":"89150","locality":"Laichingen","municipality":{"key":"08425071","name":"Laichingen, Stadt","type":"Stadt"},"district":{"key":"08425","name":"Alb-Donau-Kreis","type":"Landkreis"},"federalState":{"key":"08","name":"Baden-Württemberg"}},{"name":"Lehmgrubenweg","postalCode":"89150","locality":"Laichingen","municipality":{"key":"08425071","name":"Laichingen, Stadt","type":"Stadt"},"district":{"key":"08425","name":"Alb-Donau-Kreis","type":"Landkreis"},"federalState":{"key":"08","name":"Baden-Württemberg"}},{"name":"Lerchenweg","postalCode":"89150","locality":"Laichingen","municipality":{"key":"08425071","name":"Laichingen, Stadt","type":"Stadt"},"district":{"key":"08425","name":"Alb-Donau-Kreis","type":"Landkreis"},"federalState":{"key":"08","name":"Baden-Württemberg"}},{"name":"Ligusterweg","postalCode":"89150","locality":"Laichingen","municipality":{"key":"08425071","name":"Laichingen, Stadt","type":"Stadt"},"district":{"key":"08425","name":"Alb-Donau-Kreis","type":"Landkreis"},"federalState":{"key":"08","name":"Baden-Württemberg"}},{"name":"Lilienstr.","postalCode":"89150","locality":"Laichingen","municipality":{"key":"08425071","name":"Laichingen, Stadt","type":"Stadt"},"district":{"key":"08425","name":"Alb-Donau-Kreis","type":"Landkreis"},"federalState":{"key":"08","name":"Baden-Württemberg"}},{"name":"Lindensteig","postalCode":"89150","locality":"Laichingen","municipality":{"key":"08425071","name":"Laichingen, Stadt","type":"Stadt"},"district":{"key":"08425","name":"Alb-Donau-Kreis","type":"Landkreis"},"federalState":{"key":"08","name":"Baden-Württemberg"}},{"name":"Lindenstr.","postalCode":"89150","locality":"Laichingen","municipality":{"key":"08425071","name":"Laichingen, Stadt","type":"Stadt"},"district":{"key":"08425","name":"Alb-Donau-Kreis","type":"Landkreis"},"federalState":{"key":"08","name":"Baden-Württemberg"}},{"name":"Lindenweg","postalCode":"89150","locality":"Laichingen","municipality":{"key":"08425071","name":"Laichingen, Stadt","type":"Stadt"},"district":{"key":"08425","name":"Alb-Donau-Kreis","type":"Landkreis"},"federalState":{"key":"08","name":"Baden-Württemberg"}},{"name":"Ludwigstr.","postalCode":"89150","locality":"Laichingen","municipality":{"key":"08425071","name":"Laichingen, Stadt","type":"Stadt"},"district":{"key":"08425","name":"Alb-Donau-Kreis","type":"Landkreis"},"federalState":{"key":"08","name":"Baden-Württemberg"}},{"name":"Machtolsheimer Str.","postalCode":"89150","locality":"Laichingen","municipality":{"key":"08425071","name":"Laichingen, Stadt","type":"Stadt"},"district":{"key":"08425","name":"Alb-Donau-Kreis","type":"Landkreis"},"federalState":{"key":"08","name":"Baden-Württemberg"}},{"name":"Machtolsheimer Weg","postalCode":"89150","locality":"Laichingen","municipality":{"key":"08425071","name":"Laichingen, Stadt","type":"Stadt"},"district":{"key":"08425","name":"Alb-Donau-Kreis","type":"Landkreis"},"federalState":{"key":"08","name":"Baden-Württemberg"}},{"name":"Mädlachweg","postalCode":"89150","locality":"Laichingen","municipality":{"key":"08425071","name":"Laichingen, Stadt","type":"Stadt"},"district":{"key":"08425","name":"Alb-Donau-Kreis","type":"Landkreis"},"federalState":{"key":"08","name":"Baden-Württemberg"}},{"name":"Maiergasse","postalCode":"89150","locality":"Laichingen","municipality":{"key":"08425071","name":"Laichingen, Stadt","type":"Stadt"},"district":{"key":"08425","name":"Alb-Donau-Kreis","type":"Landkreis"},"federalState":{"key":"08","name":"Baden-Württemberg"}},{"name":"Maierstr.","postalCode":"89150","locality":"Laichingen","municipality":{"key":"08425071","name":"Laichingen, Stadt","type":"Stadt"},"district":{"key":"08425","name":"Alb-Donau-Kreis","type":"Landkreis"},"federalState":{"key":"08","name":"Baden-Württemberg"}},{"name":"Marktplatz","postalCode":"89150","locality":"Laichingen","municipality":{"key":"08425071","name":"Laichingen, Stadt","type":"Stadt"},"district":{"key":"08425","name":"Alb-Donau-Kreis","type":"Landkreis"},"federalState":{"key":"08","name":"Baden-Württemberg"}},{"name":"Max-Lechler-Str.","postalCode":"89150","locality":"Laichingen","municipality":{"key":"08425071","name":"Laichingen, Stadt","type":"Stadt"},"district":{"key":"08425","name":"Alb-Donau-Kreis","type":"Landkreis"},"federalState":{"key":"08","name":"Baden-Württemberg"}},{"name":"Max-Mayer-Str.","postalCode":"89150","locality":"Laichingen","municipality":{"key":"08425071","name":"Laichingen, Stadt","type":"Stadt"},"district":{"key":"08425","name":"Alb-Donau-Kreis","type":"Landkreis"},"federalState":{"key":"08","name":"Baden-Württemberg"}},{"name":"Mehlbaumweg","postalCode":"89150","locality":"Laichingen","municipality":{"key":"08425071","name":"Laichingen, Stadt","type":"Stadt"},"district":{"key":"08425","name":"Alb-Donau-Kreis","type":"Landkreis"},"federalState":{"key":"08","name":"Baden-Württemberg"}},{"name":"Meisenweg","postalCode":"89150","locality":"Laichingen","municipality":{"key":"08425071","name":"Laichingen, Stadt","type":"Stadt"},"district":{"key":"08425","name":"Alb-Donau-Kreis","type":"Landkreis"},"federalState":{"key":"08","name":"Baden-Württemberg"}},{"name":"Merklinger Str.","postalCode":"89150","locality":"Laichingen","municipality":{"key":"08425071","name":"Laichingen, Stadt","type":"Stadt"},"district":{"key":"08425","name":"Alb-Donau-Kreis","type":"Landkreis"},"federalState":{"key":"08","name":"Baden-Württemberg"}},{"name":"Merklinger Weg","postalCode":"89150","locality":"Laichingen","municipality":{"key":"08425071","name":"Laichingen, Stadt","type":"Stadt"},"district":{"key":"08425","name":"Alb-Donau-Kreis","type":"Landkreis"},"federalState":{"key":"08","name":"Baden-Württemberg"}},{"name":"Mohrengasse","postalCode":"89150","locality":"Laichingen","municipality":{"key":"08425071","name":"Laichingen, Stadt","type":"Stadt"},"district":{"key":"08425","name":"Alb-Donau-Kreis","type":"Landkreis"},"federalState":{"key":"08","name":"Baden-Württemberg"}},{"name":"Mörikestr.","postalCode":"89150","locality":"Laichingen","municipality":{"key":"08425071","name":"Laichingen, Stadt","type":"Stadt"},"district":{"key":"08425","name":"Alb-Donau-Kreis","type":"Landkreis"},"federalState":{"key":"08","name":"Baden-Württemberg"}},{"name":"Mörikestrasse","postalCode":"89150","locality":"Laichingen","municipality":{"key":"08425071","name":"Laichingen, Stadt","type":"Stadt"},"district":{"key":"08425","name":"Alb-Donau-Kreis","type":"Landkreis"},"federalState":{"key":"08","name":"Baden-Württemberg"}},{"name":"Mozartweg","postalCode":"89150","locality":"Laichingen","municipality":{"key":"08425071","name":"Laichingen, Stadt","type":"Stadt"},"district":{"key":"08425","name":"Alb-Donau-Kreis","type":"Landkreis"},"federalState":{"key":"08","name":"Baden-Württemberg"}},{"name":"Mühlweg","postalCode":"89150","locality":"Laichingen","municipality":{"key":"08425071","name":"Laichingen, Stadt","type":"Stadt"},"district":{"key":"08425","name":"Alb-Donau-Kreis","type":"Landkreis"},"federalState":{"key":"08","name":"Baden-Württemberg"}},{"name":"Nattenbucher Weg","postalCode":"89150","locality":"Laichingen","municipality":{"key":"08425071","name":"Laichingen, Stadt","type":"Stadt"},"district":{"key":"08425","name":"Alb-Donau-Kreis","type":"Landkreis"},"federalState":{"key":"08","name":"Baden-Württemberg"}},{"name":"Nelkenstr.","postalCode":"89150","locality":"Laichingen","municipality":{"key":"08425071","name":"Laichingen, Stadt","type":"Stadt"},"district":{"key":"08425","name":"Alb-Donau-Kreis","type":"Landkreis"},"federalState":{"key":"08","name":"Baden-Württemberg"}},{"name":"Neubanrundweg","postalCode":"89150","locality":"Laichingen","municipality":{"key":"08425071","name":"Laichingen, Stadt","type":"Stadt"},"district":{"key":"08425","name":"Alb-Donau-Kreis","type":"Landkreis"},"federalState":{"key":"08","name":"Baden-Württemberg"}},{"name":"Neubantraufweg","postalCode":"89150","locality":"Laichingen","municipality":{"key":"08425071","name":"Laichingen, Stadt","type":"Stadt"},"district":{"key":"08425","name":"Alb-Donau-Kreis","type":"Landkreis"},"federalState":{"key":"08","name":"Baden-Württemberg"}},{"name":"Neuer Weg","postalCode":"89150","locality":"Laichingen","municipality":{"key":"08425071","name":"Laichingen, Stadt","type":"Stadt"},"district":{"key":"08425","name":"Alb-Donau-Kreis","type":"Landkreis"},"federalState":{"key":"08","name":"Baden-Württemberg"}},{"name":"Nickertshalde Rundweg","postalCode":"89150","locality":"Laichingen","municipality":{"key":"08425071","name":"Laichingen, Stadt","type":"Stadt"},"district":{"key":"08425","name":"Alb-Donau-Kreis","type":"Landkreis"},"federalState":{"key":"08","name":"Baden-Württemberg"}},{"name":"Ob der Steinau","postalCode":"89150","locality":"Laichingen","municipality":{"key":"08425071","name":"Laichingen, Stadt","type":"Stadt"},"district":{"key":"08425","name":"Alb-Donau-Kreis","type":"Landkreis"},"federalState":{"key":"08","name":"Baden-Württemberg"}},{"name":"Obere Gasse","postalCode":"89150","locality":"Laichingen","municipality":{"key":"08425071","name":"Laichingen, Stadt","type":"Stadt"},"district":{"key":"08425","name":"Alb-Donau-Kreis","type":"Landkreis"},"federalState":{"key":"08","name":"Baden-Württemberg"}},{"name":"Obere Richtstatt","postalCode":"89150","locality":"Laichingen","municipality":{"key":"08425071","name":"Laichingen, Stadt","type":"Stadt"},"district":{"key":"08425","name":"Alb-Donau-Kreis","type":"Landkreis"},"federalState":{"key":"08","name":"Baden-Württemberg"}},{"name":"Obstgartenweg","postalCode":"89150","locality":"Laichingen","municipality":{"key":"08425071","name":"Laichingen, Stadt","type":"Stadt"},"district":{"key":"08425","name":"Alb-Donau-Kreis","type":"Landkreis"},"federalState":{"key":"08","name":"Baden-Württemberg"}},{"name":"Olgastr.","postalCode":"89150","locality":"Laichingen","municipality":{"key":"08425071","name":"Laichingen, Stadt","type":"Stadt"},"district":{"key":"08425","name":"Alb-Donau-Kreis","type":"Landkreis"},"federalState":{"key":"08","name":"Baden-Württemberg"}},{"name":"Ostlandweg","postalCode":"89150","locality":"Laichingen","municipality":{"key":"08425071","name":"Laichingen, Stadt","type":"Stadt"},"district":{"key":"08425","name":"Alb-Donau-Kreis","type":"Landkreis"},"federalState":{"key":"08","name":"Baden-Württemberg"}},{"name":"Panoramastr.","postalCode":"89150","locality":"Laichingen","municipality":{"key":"08425071","name":"Laichingen, Stadt","type":"Stadt"},"district":{"key":"08425","name":"Alb-Donau-Kreis","type":"Landkreis"},"federalState":{"key":"08","name":"Baden-Württemberg"}},{"name":"Paul-Hindemith-Weg","postalCode":"89150","locality":"Laichingen","municipality":{"key":"08425071","name":"Laichingen, Stadt","type":"Stadt"},"district":{"key":"08425","name":"Alb-Donau-Kreis","type":"Landkreis"},"federalState":{"key":"08","name":"Baden-Württemberg"}},{"name":"Paulinenweg","postalCode":"89150","locality":"Laichingen","municipality":{"key":"08425071","name":"Laichingen, Stadt","type":"Stadt"},"district":{"key":"08425","name":"Alb-Donau-Kreis","type":"Landkreis"},"federalState":{"key":"08","name":"Baden-Württemberg"}},{"name":"Peter-Schwenk-Str.","postalCode":"89150","locality":"Laichingen","municipality":{"key":"08425071","name":"Laichingen, Stadt","type":"Stadt"},"district":{"key":"08425","name":"Alb-Donau-Kreis","type":"Landkreis"},"federalState":{"key":"08","name":"Baden-Württemberg"}},{"name":"Pfaffenackersackweg","postalCode":"89150","locality":"Laichingen","municipality":{"key":"08425071","name":"Laichingen, Stadt","type":"Stadt"},"district":{"key":"08425","name":"Alb-Donau-Kreis","type":"Landkreis"},"federalState":{"key":"08","name":"Baden-Württemberg"}},{"name":"Pfarrgasse","postalCode":"89150","locality":"Laichingen","municipality":{"key":"08425071","name":"Laichingen, Stadt","type":"Stadt"},"district":{"key":"08425","name":"Alb-Donau-Kreis","type":"Landkreis"},"federalState":{"key":"08","name":"Baden-Württemberg"}},{"name":"Pfeiferstr.","postalCode":"89150","locality":"Laichingen","municipality":{"key":"08425071","name":"Laichingen, Stadt","type":"Stadt"},"district":{"key":"08425","name":"Alb-Donau-Kreis","type":"Landkreis"},"federalState":{"key":"08","name":"Baden-Württemberg"}},{"name":"Pflaumenbaumweg","postalCode":"89150","locality":"Laichingen","municipality":{"key":"08425071","name":"Laichingen, Stadt","type":"Stadt"},"district":{"key":"08425","name":"Alb-Donau-Kreis","type":"Landkreis"},"federalState":{"key":"08","name":"Baden-Württemberg"}},{"name":"Pichlerstr.","postalCode":"89150","locality":"Laichingen","municipality":{"key":"08425071","name":"Laichingen, Stadt","type":"Stadt"},"district":{"key":"08425","name":"Alb-Donau-Kreis","type":"Landkreis"},"federalState":{"key":"08","name":"Baden-Württemberg"}},{"name":"Platzgasse","postalCode":"89150","locality":"Laichingen","municipality":{"key":"08425071","name":"Laichingen, Stadt","type":"Stadt"},"district":{"key":"08425","name":"Alb-Donau-Kreis","type":"Landkreis"},"federalState":{"key":"08","name":"Baden-Württemberg"}},{"name":"Radstr.","postalCode":"89150","locality":"Laichingen","municipality":{"key":"08425071","name":"Laichingen, Stadt","type":"Stadt"},"district":{"key":"08425","name":"Alb-Donau-Kreis","type":"Landkreis"},"federalState":{"key":"08","name":"Baden-Württemberg"}},{"name":"Rappengasse","postalCode":"89150","locality":"Laichingen","municipality":{"key":"08425071","name":"Laichingen, Stadt","type":"Stadt"},"district":{"key":"08425","name":"Alb-Donau-Kreis","type":"Landkreis"},"federalState":{"key":"08","name":"Baden-Württemberg"}},{"name":"Rauher Weg","postalCode":"89150","locality":"Laichingen","municipality":{"key":"08425071","name":"Laichingen, Stadt","type":"Stadt"},"district":{"key":"08425","name":"Alb-Donau-Kreis","type":"Landkreis"},"federalState":{"key":"08","name":"Baden-Württemberg"}},{"name":"Robert-Bosch-Str.","postalCode":"89150","locality":"Laichingen","municipality":{"key":"08425071","name":"Laichingen, Stadt","type":"Stadt"},"district":{"key":"08425","name":"Alb-Donau-Kreis","type":"Landkreis"},"federalState":{"key":"08","name":"Baden-Württemberg"}},{"name":"Robert-Schumann-Weg","postalCode":"89150","locality":"Laichingen","municipality":{"key":"08425071","name":"Laichingen, Stadt","type":"Stadt"},"district":{"key":"08425","name":"Alb-Donau-Kreis","type":"Landkreis"},"federalState":{"key":"08","name":"Baden-Württemberg"}},{"name":"Römerstr.","postalCode":"89150","locality":"Laichingen","municipality":{"key":"08425071","name":"Laichingen, Stadt","type":"Stadt"},"district":{"key":"08425","name":"Alb-Donau-Kreis","type":"Landkreis"},"federalState":{"key":"08","name":"Baden-Württemberg"}},{"name":"Römerweg","postalCode":"89150","locality":"Laichingen","municipality":{"key":"08425071","name":"Laichingen, Stadt","type":"Stadt"},"district":{"key":"08425","name":"Alb-Donau-Kreis","type":"Landkreis"},"federalState":{"key":"08","name":"Baden-Württemberg"}},{"name":"Rosengasse","postalCode":"89150","locality":"Laichingen","municipality":{"key":"08425071","name":"Laichingen, Stadt","type":"Stadt"},"district":{"key":"08425","name":"Alb-Donau-Kreis","type":"Landkreis"},"federalState":{"key":"08","name":"Baden-Württemberg"}},{"name":"Rosenweg","postalCode":"89150","locality":"Laichingen","municipality":{"key":"08425071","name":"Laichingen, Stadt","type":"Stadt"},"district":{"key":"08425","name":"Alb-Donau-Kreis","type":"Landkreis"},"federalState":{"key":"08","name":"Baden-Württemberg"}},{"name":"Rübhauhtraufweg","postalCode":"89150","locality":"Laichingen","municipality":{"key":"08425071","name":"Laichingen, Stadt","type":"Stadt"},"district":{"key":"08425","name":"Alb-Donau-Kreis","type":"Landkreis"},"federalState":{"key":"08","name":"Baden-Württemberg"}},{"name":"Saatschulweg","postalCode":"89150","locality":"Laichingen","municipality":{"key":"08425071","name":"Laichingen, Stadt","type":"Stadt"},"district":{"key":"08425","name":"Alb-Donau-Kreis","type":"Landkreis"},"federalState":{"key":"08","name":"Baden-Württemberg"}},{"name":"Sahlertraufweg","postalCode":"89150","locality":"Laichingen","municipality":{"key":"08425071","name":"Laichingen, Stadt","type":"Stadt"},"district":{"key":"08425","name":"Alb-Donau-Kreis","type":"Landkreis"},"federalState":{"key":"08","name":"Baden-Württemberg"}},{"name":"Sahlerweg","postalCode":"89150","locality":"Laichingen","municipality":{"key":"08425071","name":"Laichingen, Stadt","type":"Stadt"},"district":{"key":"08425","name":"Alb-Donau-Kreis","type":"Landkreis"},"federalState":{"key":"08","name":"Baden-Württemberg"}},{"name":"Saugehegeweg","postalCode":"89150","locality":"Laichingen","municipality":{"key":"08425071","name":"Laichingen, Stadt","type":"Stadt"},"district":{"key":"08425","name":"Alb-Donau-Kreis","type":"Landkreis"},"federalState":{"key":"08","name":"Baden-Württemberg"}},{"name":"Schallengasse","postalCode":"89150","locality":"Laichingen","municipality":{"key":"08425071","name":"Laichingen, Stadt","type":"Stadt"},"district":{"key":"08425","name":"Alb-Donau-Kreis","type":"Landkreis"},"federalState":{"key":"08","name":"Baden-Württemberg"}},{"name":"Schanzenweg","postalCode":"89150","locality":"Laichingen","municipality":{"key":"08425071","name":"Laichingen, Stadt","type":"Stadt"},"district":{"key":"08425","name":"Alb-Donau-Kreis","type":"Landkreis"},"federalState":{"key":"08","name":"Baden-Württemberg"}},{"name":"Schillerstr.","postalCode":"89150","locality":"Laichingen","municipality":{"key":"08425071","name":"Laichingen, Stadt","type":"Stadt"},"district":{"key":"08425","name":"Alb-Donau-Kreis","type":"Landkreis"},"federalState":{"key":"08","name":"Baden-Württemberg"}},{"name":"Schlehenweg","postalCode":"89150","locality":"Laichingen","municipality":{"key":"08425071","name":"Laichingen, Stadt","type":"Stadt"},"district":{"key":"08425","name":"Alb-Donau-Kreis","type":"Landkreis"},"federalState":{"key":"08","name":"Baden-Württemberg"}},{"name":"Schmiedgasse","postalCode":"89150","locality":"Laichingen","municipality":{"key":"08425071","name":"Laichingen, Stadt","type":"Stadt"},"district":{"key":"08425","name":"Alb-Donau-Kreis","type":"Landkreis"},"federalState":{"key":"08","name":"Baden-Württemberg"}},{"name":"Schönblick","postalCode":"89150","locality":"Laichingen","municipality":{"key":"08425071","name":"Laichingen, Stadt","type":"Stadt"},"district":{"key":"08425","name":"Alb-Donau-Kreis","type":"Landkreis"},"federalState":{"key":"08","name":"Baden-Württemberg"}},{"name":"Schubertweg","postalCode":"89150","locality":"Laichingen","municipality":{"key":"08425071","name":"Laichingen, Stadt","type":"Stadt"},"district":{"key":"08425","name":"Alb-Donau-Kreis","type":"Landkreis"},"federalState":{"key":"08","name":"Baden-Württemberg"}},{"name":"Schulgasse","postalCode":"89150","locality":"Laichingen","municipality":{"key":"08425071","name":"Laichingen, Stadt","type":"Stadt"},"district":{"key":"08425","name":"Alb-Donau-Kreis","type":"Landkreis"},"federalState":{"key":"08","name":"Baden-Württemberg"}},{"name":"Schulstr.","postalCode":"89150","locality":"Laichingen","municipality":{"key":"08425071","name":"Laichingen, Stadt","type":"Stadt"},"district":{"key":"08425","name":"Alb-Donau-Kreis","type":"Landkreis"},"federalState":{"key":"08","name":"Baden-Württemberg"}},{"name":"Schwalbenweg","postalCode":"89150","locality":"Laichingen","municipality":{"key":"08425071","name":"Laichingen, Stadt","type":"Stadt"},"district":{"key":"08425","name":"Alb-Donau-Kreis","type":"Landkreis"},"federalState":{"key":"08","name":"Baden-Württemberg"}},{"name":"Silberdistelweg","postalCode":"89150","locality":"Laichingen","municipality":{"key":"08425071","name":"Laichingen, Stadt","type":"Stadt"},"district":{"key":"08425","name":"Alb-Donau-Kreis","type":"Landkreis"},"federalState":{"key":"08","name":"Baden-Württemberg"}},{"name":"Silcherweg","postalCode":"89150","locality":"Laichingen","municipality":{"key":"08425071","name":"Laichingen, Stadt","type":"Stadt"},"district":{"key":"08425","name":"Alb-Donau-Kreis","type":"Landkreis"},"federalState":{"key":"08","name":"Baden-Württemberg"}},{"name":"Sontheimer Str.","postalCode":"89150","locality":"Laichingen","municipality":{"key":"08425071","name":"Laichingen, Stadt","type":"Stadt"},"district":{"key":"08425","name":"Alb-Donau-Kreis","type":"Landkreis"},"federalState":{"key":"08","name":"Baden-Württemberg"}},{"name":"Sophienweg","postalCode":"89150","locality":"Laichingen","municipality":{"key":"08425071","name":"Laichingen, Stadt","type":"Stadt"},"district":{"key":"08425","name":"Alb-Donau-Kreis","type":"Landkreis"},"federalState":{"key":"08","name":"Baden-Württemberg"}},{"name":"Sperberstr.","postalCode":"89150","locality":"Laichingen","municipality":{"key":"08425071","name":"Laichingen, Stadt","type":"Stadt"},"district":{"key":"08425","name":"Alb-Donau-Kreis","type":"Landkreis"},"federalState":{"key":"08","name":"Baden-Württemberg"}},{"name":"Starenweg","postalCode":"89150","locality":"Laichingen","municipality":{"key":"08425071","name":"Laichingen, Stadt","type":"Stadt"},"district":{"key":"08425","name":"Alb-Donau-Kreis","type":"Landkreis"},"federalState":{"key":"08","name":"Baden-Württemberg"}},{"name":"Stauferstr.","postalCode":"89150","locality":"Laichingen","municipality":{"key":"08425071","name":"Laichingen, Stadt","type":"Stadt"},"district":{"key":"08425","name":"Alb-Donau-Kreis","type":"Landkreis"},"federalState":{"key":"08","name":"Baden-Württemberg"}},{"name":"Steiglesstr.","postalCode":"89150","locality":"Laichingen","municipality":{"key":"08425071","name":"Laichingen, Stadt","type":"Stadt"},"district":{"key":"08425","name":"Alb-Donau-Kreis","type":"Landkreis"},"federalState":{"key":"08","name":"Baden-Württemberg"}},{"name":"Steiglesweg","postalCode":"89150","locality":"Laichingen","municipality":{"key":"08425071","name":"Laichingen, Stadt","type":"Stadt"},"district":{"key":"08425","name":"Alb-Donau-Kreis","type":"Landkreis"},"federalState":{"key":"08","name":"Baden-Württemberg"}},{"name":"Steinbeisstr.","postalCode":"89150","locality":"Laichingen","municipality":{"key":"08425071","name":"Laichingen, Stadt","type":"Stadt"},"district":{"key":"08425","name":"Alb-Donau-Kreis","type":"Landkreis"},"federalState":{"key":"08","name":"Baden-Württemberg"}},{"name":"Steinenwiesen","postalCode":"89150","locality":"Laichingen","municipality":{"key":"08425071","name":"Laichingen, Stadt","type":"Stadt"},"district":{"key":"08425","name":"Alb-Donau-Kreis","type":"Landkreis"},"federalState":{"key":"08","name":"Baden-Württemberg"}},{"name":"Steinweg","postalCode":"89150","locality":"Laichingen","municipality":{"key":"08425071","name":"Laichingen, Stadt","type":"Stadt"},"district":{"key":"08425","name":"Alb-Donau-Kreis","type":"Landkreis"},"federalState":{"key":"08","name":"Baden-Württemberg"}},{"name":"Stettener Str.","postalCode":"89150","locality":"Laichingen","municipality":{"key":"08425071","name":"Laichingen, Stadt","type":"Stadt"},"district":{"key":"08425","name":"Alb-Donau-Kreis","type":"Landkreis"},"federalState":{"key":"08","name":"Baden-Württemberg"}},{"name":"Stettenweg","postalCode":"89150","locality":"Laichingen","municipality":{"key":"08425071","name":"Laichingen, Stadt","type":"Stadt"},"district":{"key":"08425","name":"Alb-Donau-Kreis","type":"Landkreis"},"federalState":{"key":"08","name":"Baden-Württemberg"}},{"name":"Streuobstwiesen-Biotop","postalCode":"89150","locality":"Laichingen","municipality":{"key":"08425071","name":"Laichingen, Stadt","type":"Stadt"},"district":{"key":"08425","name":"Alb-Donau-Kreis","type":"Landkreis"},"federalState":{"key":"08","name":"Baden-Württemberg"}},{"name":"Suppinger Str.","postalCode":"89150","locality":"Laichingen","municipality":{"key":"08425071","name":"Laichingen, Stadt","type":"Stadt"},"district":{"key":"08425","name":"Alb-Donau-Kreis","type":"Landkreis"},"federalState":{"key":"08","name":"Baden-Württemberg"}},{"name":"Suppinger Weg","postalCode":"89150","locality":"Laichingen","municipality":{"key":"08425071","name":"Laichingen, Stadt","type":"Stadt"},"district":{"key":"08425","name":"Alb-Donau-Kreis","type":"Landkreis"},"federalState":{"key":"08","name":"Baden-Württemberg"}},{"name":"Talblick","postalCode":"89150","locality":"Laichingen","municipality":{"key":"08425071","name":"Laichingen, Stadt","type":"Stadt"},"district":{"key":"08425","name":"Alb-Donau-Kreis","type":"Landkreis"},"federalState":{"key":"08","name":"Baden-Württemberg"}},{"name":"Talweg","postalCode":"89150","locality":"Laichingen","municipality":{"key":"08425071","name":"Laichingen, Stadt","type":"Stadt"},"district":{"key":"08425","name":"Alb-Donau-Kreis","type":"Landkreis"},"federalState":{"key":"08","name":"Baden-Württemberg"}},{"name":"Tannenweg","postalCode":"89150","locality":"Laichingen","municipality":{"key":"08425071","name":"Laichingen, Stadt","type":"Stadt"},"district":{"key":"08425","name":"Alb-Donau-Kreis","type":"Landkreis"},"federalState":{"key":"08","name":"Baden-Württemberg"}},{"name":"Thomaswiesen","postalCode":"89150","locality":"Laichingen","municipality":{"key":"08425071","name":"Laichingen, Stadt","type":"Stadt"},"district":{"key":"08425","name":"Alb-Donau-Kreis","type":"Landkreis"},"federalState":{"key":"08","name":"Baden-Württemberg"}},{"name":"Thonieswiesen","postalCode":"89150","locality":"Laichingen","municipality":{"key":"08425071","name":"Laichingen, Stadt","type":"Stadt"},"district":{"key":"08425","name":"Alb-Donau-Kreis","type":"Landkreis"},"federalState":{"key":"08","name":"Baden-Württemberg"}},{"name":"Treffensbucher Weg","postalCode":"89150","locality":"Laichingen","municipality":{"key":"08425071","name":"Laichingen, Stadt","type":"Stadt"},"district":{"key":"08425","name":"Alb-Donau-Kreis","type":"Landkreis"},"federalState":{"key":"08","name":"Baden-Württemberg"}},{"name":"Tulpenstr.","postalCode":"89150","locality":"Laichingen","municipality":{"key":"08425071","name":"Laichingen, Stadt","type":"Stadt"},"district":{"key":"08425","name":"Alb-Donau-Kreis","type":"Landkreis"},"federalState":{"key":"08","name":"Baden-Württemberg"}},{"name":"Uhlandstr.","postalCode":"89150","locality":"Laichingen","municipality":{"key":"08425071","name":"Laichingen, Stadt","type":"Stadt"},"district":{"key":"08425","name":"Alb-Donau-Kreis","type":"Landkreis"},"federalState":{"key":"08","name":"Baden-Württemberg"}},{"name":"Ulmenweg","postalCode":"89150","locality":"Laichingen","municipality":{"key":"08425071","name":"Laichingen, Stadt","type":"Stadt"},"district":{"key":"08425","name":"Alb-Donau-Kreis","type":"Landkreis"},"federalState":{"key":"08","name":"Baden-Württemberg"}},{"name":"Ulmer Weg","postalCode":"89150","locality":"Laichingen","municipality":{"key":"08425071","name":"Laichingen, Stadt","type":"Stadt"},"district":{"key":"08425","name":"Alb-Donau-Kreis","type":"Landkreis"},"federalState":{"key":"08","name":"Baden-Württemberg"}},{"name":"Ulrichstr.","postalCode":"89150","locality":"Laichingen","municipality":{"key":"08425071","name":"Laichingen, Stadt","type":"Stadt"},"district":{"key":"08425","name":"Alb-Donau-Kreis","type":"Landkreis"},"federalState":{"key":"08","name":"Baden-Württemberg"}},{"name":"Untere Gasse","postalCode":"89150","locality":"Laichingen","municipality":{"key":"08425071","name":"Laichingen, Stadt","type":"Stadt"},"district":{"key":"08425","name":"Alb-Donau-Kreis","type":"Landkreis"},"federalState":{"key":"08","name":"Baden-Württemberg"}},{"name":"Untere Richtstatt","postalCode":"89150","locality":"Laichingen","municipality":{"key":"08425071","name":"Laichingen, Stadt","type":"Stadt"},"district":{"key":"08425","name":"Alb-Donau-Kreis","type":"Landkreis"},"federalState":{"key":"08","name":"Baden-Württemberg"}},{"name":"Veilchenstr.","postalCode":"89150","locality":"Laichingen","municipality":{"key":"08425071","name":"Laichingen, Stadt","type":"Stadt"},"district":{"key":"08425","name":"Alb-Donau-Kreis","type":"Landkreis"},"federalState":{"key":"08","name":"Baden-Württemberg"}},{"name":"vordere Eichbergweg","postalCode":"89150","locality":"Laichingen","municipality":{"key":"08425071","name":"Laichingen, Stadt","type":"Stadt"},"district":{"key":"08425","name":"Alb-Donau-Kreis","type":"Landkreis"},"federalState":{"key":"08","name":"Baden-Württemberg"}},{"name":"Vordere Erbistalweg","postalCode":"89150","locality":"Laichingen","municipality":{"key":"08425071","name":"Laichingen, Stadt","type":"Stadt"},"district":{"key":"08425","name":"Alb-Donau-Kreis","type":"Landkreis"},"federalState":{"key":"08","name":"Baden-Württemberg"}},{"name":"vordere Hohenlohsteige","postalCode":"89150","locality":"Laichingen","municipality":{"key":"08425071","name":"Laichingen, Stadt","type":"Stadt"},"district":{"key":"08425","name":"Alb-Donau-Kreis","type":"Landkreis"},"federalState":{"key":"08","name":"Baden-Württemberg"}},{"name":"Vor Eichhalde","postalCode":"89150","locality":"Laichingen","municipality":{"key":"08425071","name":"Laichingen, Stadt","type":"Stadt"},"district":{"key":"08425","name":"Alb-Donau-Kreis","type":"Landkreis"},"federalState":{"key":"08","name":"Baden-Württemberg"}},{"name":"Vor Westerlau","postalCode":"89150","locality":"Laichingen","municipality":{"key":"08425071","name":"Laichingen, Stadt","type":"Stadt"},"district":{"key":"08425","name":"Alb-Donau-Kreis","type":"Landkreis"},"federalState":{"key":"08","name":"Baden-Württemberg"}},{"name":"Wacholderweg","postalCode":"89150","locality":"Laichingen","municipality":{"key":"08425071","name":"Laichingen, Stadt","type":"Stadt"},"district":{"key":"08425","name":"Alb-Donau-Kreis","type":"Landkreis"},"federalState":{"key":"08","name":"Baden-Württemberg"}},{"name":"Wannenweg","postalCode":"89150","locality":"Laichingen","municipality":{"key":"08425071","name":"Laichingen, Stadt","type":"Stadt"},"district":{"key":"08425","name":"Alb-Donau-Kreis","type":"Landkreis"},"federalState":{"key":"08","name":"Baden-Württemberg"}},{"name":"Weberstr.","postalCode":"89150","locality":"Laichingen","municipality":{"key":"08425071","name":"Laichingen, Stadt","type":"Stadt"},"district":{"key":"08425","name":"Alb-Donau-Kreis","type":"Landkreis"},"federalState":{"key":"08","name":"Baden-Württemberg"}},{"name":"Weite Str.","postalCode":"89150","locality":"Laichingen","municipality":{"key":"08425071","name":"Laichingen, Stadt","type":"Stadt"},"district":{"key":"08425","name":"Alb-Donau-Kreis","type":"Landkreis"},"federalState":{"key":"08","name":"Baden-Württemberg"}},{"name":"Westerheimer Str.","postalCode":"89150","locality":"Laichingen","municipality":{"key":"08425071","name":"Laichingen, Stadt","type":"Stadt"},"district":{"key":"08425","name":"Alb-Donau-Kreis","type":"Landkreis"},"federalState":{"key":"08","name":"Baden-Württemberg"}},{"name":"Widmannstr.","postalCode":"89150","locality":"Laichingen","municipality":{"key":"08425071","name":"Laichingen, Stadt","type":"Stadt"},"district":{"key":"08425","name":"Alb-Donau-Kreis","type":"Landkreis"},"federalState":{"key":"08","name":"Baden-Württemberg"}},{"name":"Wiesensteiger Str.","postalCode":"89150","locality":"Laichingen","municipality":{"key":"08425071","name":"Laichingen, Stadt","type":"Stadt"},"district":{"key":"08425","name":"Alb-Donau-Kreis","type":"Landkreis"},"federalState":{"key":"08","name":"Baden-Württemberg"}},{"name":"Wiesenweg","postalCode":"89150","locality":"Laichingen","municipality":{"key":"08425071","name":"Laichingen, Stadt","type":"Stadt"},"district":{"key":"08425","name":"Alb-Donau-Kreis","type":"Landkreis"},"federalState":{"key":"08","name":"Baden-Württemberg"}},{"name":"Wilhelmstr.","postalCode":"89150","locality":"Laichingen","municipality":{"key":"08425071","name":"Laichingen, Stadt","type":"Stadt"},"district":{"key":"08425","name":"Alb-Donau-Kreis","type":"Landkreis"},"federalState":{"key":"08","name":"Baden-Württemberg"}},{"name":"Winterhaldeweg","postalCode":"89150","locality":"Laichingen","municipality":{"key":"08425071","name":"Laichingen, Stadt","type":"Stadt"},"district":{"key":"08425","name":"Alb-Donau-Kreis","type":"Landkreis"},"federalState":{"key":"08","name":"Baden-Württemberg"}},{"name":"Württemberger Str.","postalCode":"89150","locality":"Laichingen","municipality":{"key":"08425071","name":"Laichingen, Stadt","type":"Stadt"},"district":{"key":"08425","name":"Alb-Donau-Kreis","type":"Landkreis"},"federalState":{"key":"08","name":"Baden-Württemberg"}},{"name":"Zeilerweg","postalCode":"89150","locality":"Laichingen","municipality":{"key":"08425071","name":"Laichingen, Stadt","type":"Stadt"},"district":{"key":"08425","name":"Alb-Donau-Kreis","type":"Landkreis"},"federalState":{"key":"08","name":"Baden-Württemberg"}},{"name":"Zeisigweg","postalCode":"89150","locality":"Laichingen","municipality":{"key":"08425071","name":"Laichingen, Stadt","type":"Stadt"},"district":{"key":"08425","name":"Alb-Donau-Kreis","type":"Landkreis"},"federalState":{"key":"08","name":"Baden-Württemberg"}},{"name":"Ziegelhütte","postalCode":"89150","locality":"Laichingen","municipality":{"key":"08425071","name":"Laichingen, Stadt","type":"Stadt"},"district":{"key":"08425","name":"Alb-Donau-Kreis","type":"Landkreis"},"federalState":{"key":"08","name":"Baden-Württemberg"}},{"name":"Zum Kreuzhäule","postalCode":"89150","locality":"Laichingen","municipality":{"key":"08425071","name":"Laichingen, Stadt","type":"Stadt"},"district":{"key":"08425","name":"Alb-Donau-Kreis","type":"Landkreis"},"federalState":{"key":"08","name":"Baden-Württemberg"}},]