[{"name":"1","postalCode":"91281","locality":"Kirchenthumbach","municipality":{"key":"09374129","name":"Kirchenthumbach, M","type":"Markt"},"district":{"key":"09374","name":"Neustadt a.d.Waldnaab","type":"Landkreis"},"federalState":{"key":"09","name":"Bayern"}},{"name":"2","postalCode":"91281","locality":"Kirchenthumbach","municipality":{"key":"09374129","name":"Kirchenthumbach, M","type":"Markt"},"district":{"key":"09374","name":"Neustadt a.d.Waldnaab","type":"Landkreis"},"federalState":{"key":"09","name":"Bayern"}},{"name":"3","postalCode":"91281","locality":"Kirchenthumbach","municipality":{"key":"09374129","name":"Kirchenthumbach, M","type":"Markt"},"district":{"key":"09374","name":"Neustadt a.d.Waldnaab","type":"Landkreis"},"federalState":{"key":"09","name":"Bayern"}},{"name":"4","postalCode":"91281","locality":"Kirchenthumbach","municipality":{"key":"09374129","name":"Kirchenthumbach, M","type":"Markt"},"district":{"key":"09374","name":"Neustadt a.d.Waldnaab","type":"Landkreis"},"federalState":{"key":"09","name":"Bayern"}},{"name":"5","postalCode":"91281","locality":"Kirchenthumbach","municipality":{"key":"09374129","name":"Kirchenthumbach, M","type":"Markt"},"district":{"key":"09374","name":"Neustadt a.d.Waldnaab","type":"Landkreis"},"federalState":{"key":"09","name":"Bayern"}},{"name":"6","postalCode":"91281","locality":"Kirchenthumbach","municipality":{"key":"09374129","name":"Kirchenthumbach, M","type":"Markt"},"district":{"key":"09374","name":"Neustadt a.d.Waldnaab","type":"Landkreis"},"federalState":{"key":"09","name":"Bayern"}},{"name":"7","postalCode":"91281","locality":"Kirchenthumbach","municipality":{"key":"09374129","name":"Kirchenthumbach, M","type":"Markt"},"district":{"key":"09374","name":"Neustadt a.d.Waldnaab","type":"Landkreis"},"federalState":{"key":"09","name":"Bayern"}},{"name":"8","postalCode":"91281","locality":"Kirchenthumbach","municipality":{"key":"09374129","name":"Kirchenthumbach, M","type":"Markt"},"district":{"key":"09374","name":"Neustadt a.d.Waldnaab","type":"Landkreis"},"federalState":{"key":"09","name":"Bayern"}},{"name":"9","postalCode":"91281","locality":"Kirchenthumbach","municipality":{"key":"09374129","name":"Kirchenthumbach, M","type":"Markt"},"district":{"key":"09374","name":"Neustadt a.d.Waldnaab","type":"Landkreis"},"federalState":{"key":"09","name":"Bayern"}},{"name":"Albin-König-Str.","postalCode":"09419","locality":"Thum","municipality":{"key":"14521640","name":"Thum, Stadt","type":"Stadt"},"district":{"key":"14521","name":"Erzgebirgskreis","type":"Landkreis"},"federalState":{"key":"14","name":"Sachsen"}},{"name":"Albisheimer Str.","postalCode":"67308","locality":"Einselthum","municipality":{"key":"07333018","name":"Einselthum","type":"Kreisangehörige_Gemeinde"},"district":{"key":"07333","name":"Donnersbergkreis","type":"Landkreis"},"federalState":{"key":"07","name":"Rheinland-Pfalz"}},{"name":"Alter Schulweg","postalCode":"24351","locality":"Thumby","municipality":{"key":"01058162","name":"Thumby","type":"Kreisangehörige_Gemeinde"},"district":{"key":"01058","name":"Rendsburg-Eckernförde","type":"Kreis"},"federalState":{"key":"01","name":"Schleswig-Holstein"}},{"name":"Alzeyer Weg","postalCode":"67308","locality":"Einselthum","municipality":{"key":"07333018","name":"Einselthum","type":"Kreisangehörige_Gemeinde"},"district":{"key":"07333","name":"Donnersbergkreis","type":"Landkreis"},"federalState":{"key":"07","name":"Rheinland-Pfalz"}},{"name":"Am Backenschlag","postalCode":"09419","locality":"Thum","municipality":{"key":"14521640","name":"Thum, Stadt","type":"Stadt"},"district":{"key":"14521","name":"Erzgebirgskreis","type":"Landkreis"},"federalState":{"key":"14","name":"Sachsen"}},{"name":"Am Bahnhof","postalCode":"09419","locality":"Thum","municipality":{"key":"14521640","name":"Thum, Stadt","type":"Stadt"},"district":{"key":"14521","name":"Erzgebirgskreis","type":"Landkreis"},"federalState":{"key":"14","name":"Sachsen"}},{"name":"Am Buttermilchsteig","postalCode":"09419","locality":"Thum","municipality":{"key":"14521640","name":"Thum, Stadt","type":"Stadt"},"district":{"key":"14521","name":"Erzgebirgskreis","type":"Landkreis"},"federalState":{"key":"14","name":"Sachsen"}},{"name":"Am Friedhof","postalCode":"09419","locality":"Thum","municipality":{"key":"14521640","name":"Thum, Stadt","type":"Stadt"},"district":{"key":"14521","name":"Erzgebirgskreis","type":"Landkreis"},"federalState":{"key":"14","name":"Sachsen"}},{"name":"Am Fußweg nach Auerbach","postalCode":"09419","locality":"Thum","municipality":{"key":"14521640","name":"Thum, Stadt","type":"Stadt"},"district":{"key":"14521","name":"Erzgebirgskreis","type":"Landkreis"},"federalState":{"key":"14","name":"Sachsen"}},{"name":"Am Gewerbepark","postalCode":"01877","locality":"Demitz-Thumitz","municipality":{"key":"14625100","name":"Demitz-Thumitz","type":"Kreisangehörige_Gemeinde"},"district":{"key":"14625","name":"Bautzen","type":"Landkreis"},"federalState":{"key":"14","name":"Sachsen"}},{"name":"Am Graben","postalCode":"09419","locality":"Thum","municipality":{"key":"14521640","name":"Thum, Stadt","type":"Stadt"},"district":{"key":"14521","name":"Erzgebirgskreis","type":"Landkreis"},"federalState":{"key":"14","name":"Sachsen"}},{"name":"Am Granitwerk","postalCode":"01877","locality":"Demitz-Thumitz","municipality":{"key":"14625100","name":"Demitz-Thumitz","type":"Kreisangehörige_Gemeinde"},"district":{"key":"14625","name":"Bautzen","type":"Landkreis"},"federalState":{"key":"14","name":"Sachsen"}},{"name":"Am Kalkwerk","postalCode":"09419","locality":"Thum","municipality":{"key":"14521640","name":"Thum, Stadt","type":"Stadt"},"district":{"key":"14521","name":"Erzgebirgskreis","type":"Landkreis"},"federalState":{"key":"14","name":"Sachsen"}},{"name":"Am Klosterberg","postalCode":"01877","locality":"Demitz-Thumitz","municipality":{"key":"14625100","name":"Demitz-Thumitz","type":"Kreisangehörige_Gemeinde"},"district":{"key":"14625","name":"Bautzen","type":"Landkreis"},"federalState":{"key":"14","name":"Sachsen"}},{"name":"Am Kraftberg","postalCode":"09419","locality":"Thum","municipality":{"key":"14521640","name":"Thum, Stadt","type":"Stadt"},"district":{"key":"14521","name":"Erzgebirgskreis","type":"Landkreis"},"federalState":{"key":"14","name":"Sachsen"}},{"name":"Am Letten","postalCode":"91281","locality":"Kirchenthumbach","municipality":{"key":"09374129","name":"Kirchenthumbach, M","type":"Markt"},"district":{"key":"09374","name":"Neustadt a.d.Waldnaab","type":"Landkreis"},"federalState":{"key":"09","name":"Bayern"}},{"name":"Am Mäschbach","postalCode":"54668","locality":"Holsthum","municipality":{"key":"07232053","name":"Holsthum","type":"Kreisangehörige_Gemeinde"},"district":{"key":"07232","name":"Eifelkreis Bitburg-Prüm","type":"Landkreis"},"federalState":{"key":"07","name":"Rheinland-Pfalz"}},{"name":"Am Mühlbach","postalCode":"67308","locality":"Einselthum","municipality":{"key":"07333018","name":"Einselthum","type":"Kreisangehörige_Gemeinde"},"district":{"key":"07333","name":"Donnersbergkreis","type":"Landkreis"},"federalState":{"key":"07","name":"Rheinland-Pfalz"}},{"name":"Am Nönnig-Gut","postalCode":"09419","locality":"Thum","municipality":{"key":"14521640","name":"Thum, Stadt","type":"Stadt"},"district":{"key":"14521","name":"Erzgebirgskreis","type":"Landkreis"},"federalState":{"key":"14","name":"Sachsen"}},{"name":"Am Park","postalCode":"01877","locality":"Demitz-Thumitz","municipality":{"key":"14625100","name":"Demitz-Thumitz","type":"Kreisangehörige_Gemeinde"},"district":{"key":"14625","name":"Bautzen","type":"Landkreis"},"federalState":{"key":"14","name":"Sachsen"}},{"name":"Am Pastorat","postalCode":"24891","locality":"Schnarup-Thumby","municipality":{"key":"01059076","name":"Schnarup-Thumby","type":"Kreisangehörige_Gemeinde"},"district":{"key":"01059","name":"Schleswig-Flensburg","type":"Kreis"},"federalState":{"key":"01","name":"Schleswig-Holstein"}},{"name":"Am Pfingstbrunnen","postalCode":"67308","locality":"Einselthum","municipality":{"key":"07333018","name":"Einselthum","type":"Kreisangehörige_Gemeinde"},"district":{"key":"07333","name":"Donnersbergkreis","type":"Landkreis"},"federalState":{"key":"07","name":"Rheinland-Pfalz"}},{"name":"Am Pohlaer Berg","postalCode":"01877","locality":"Demitz-Thumitz","municipality":{"key":"14625100","name":"Demitz-Thumitz","type":"Kreisangehörige_Gemeinde"},"district":{"key":"14625","name":"Bautzen","type":"Landkreis"},"federalState":{"key":"14","name":"Sachsen"}},{"name":"Am Reutherberg","postalCode":"09419","locality":"Thum","municipality":{"key":"14521640","name":"Thum, Stadt","type":"Stadt"},"district":{"key":"14521","name":"Erzgebirgskreis","type":"Landkreis"},"federalState":{"key":"14","name":"Sachsen"}},{"name":"Am Sand","postalCode":"09419","locality":"Thum","municipality":{"key":"14521640","name":"Thum, Stadt","type":"Stadt"},"district":{"key":"14521","name":"Erzgebirgskreis","type":"Landkreis"},"federalState":{"key":"14","name":"Sachsen"}},{"name":"Am Sandbrunnen","postalCode":"91281","locality":"Kirchenthumbach","municipality":{"key":"09374129","name":"Kirchenthumbach, M","type":"Markt"},"district":{"key":"09374","name":"Neustadt a.d.Waldnaab","type":"Landkreis"},"federalState":{"key":"09","name":"Bayern"}},{"name":"Am Schlatterbrunn","postalCode":"91281","locality":"Kirchenthumbach","municipality":{"key":"09374129","name":"Kirchenthumbach, M","type":"Markt"},"district":{"key":"09374","name":"Neustadt a.d.Waldnaab","type":"Landkreis"},"federalState":{"key":"09","name":"Bayern"}},{"name":"Am Schlossgarten","postalCode":"91281","locality":"Kirchenthumbach","municipality":{"key":"09374129","name":"Kirchenthumbach, M","type":"Markt"},"district":{"key":"09374","name":"Neustadt a.d.Waldnaab","type":"Landkreis"},"federalState":{"key":"09","name":"Bayern"}},{"name":"Am Schrebergarten","postalCode":"09419","locality":"Thum","municipality":{"key":"14521640","name":"Thum, Stadt","type":"Stadt"},"district":{"key":"14521","name":"Erzgebirgskreis","type":"Landkreis"},"federalState":{"key":"14","name":"Sachsen"}},{"name":"Am Silberbach","postalCode":"01877","locality":"Demitz-Thumitz","municipality":{"key":"14625100","name":"Demitz-Thumitz","type":"Kreisangehörige_Gemeinde"},"district":{"key":"14625","name":"Bautzen","type":"Landkreis"},"federalState":{"key":"14","name":"Sachsen"}},{"name":"Am Sportplatz","postalCode":"91281","locality":"Kirchenthumbach","municipality":{"key":"09374129","name":"Kirchenthumbach, M","type":"Markt"},"district":{"key":"09374","name":"Neustadt a.d.Waldnaab","type":"Landkreis"},"federalState":{"key":"09","name":"Bayern"}},{"name":"Am Stadtpark","postalCode":"09419","locality":"Thum","municipality":{"key":"14521640","name":"Thum, Stadt","type":"Stadt"},"district":{"key":"14521","name":"Erzgebirgskreis","type":"Landkreis"},"federalState":{"key":"14","name":"Sachsen"}},{"name":"Am Tiergarten","postalCode":"91281","locality":"Kirchenthumbach","municipality":{"key":"09374129","name":"Kirchenthumbach, M","type":"Markt"},"district":{"key":"09374","name":"Neustadt a.d.Waldnaab","type":"Landkreis"},"federalState":{"key":"09","name":"Bayern"}},{"name":"Am Vogelsgesang","postalCode":"67308","locality":"Einselthum","municipality":{"key":"07333018","name":"Einselthum","type":"Kreisangehörige_Gemeinde"},"district":{"key":"07333","name":"Donnersbergkreis","type":"Landkreis"},"federalState":{"key":"07","name":"Rheinland-Pfalz"}},{"name":"Am Volksgut","postalCode":"01877","locality":"Demitz-Thumitz","municipality":{"key":"14625100","name":"Demitz-Thumitz","type":"Kreisangehörige_Gemeinde"},"district":{"key":"14625","name":"Bautzen","type":"Landkreis"},"federalState":{"key":"14","name":"Sachsen"}},{"name":"Am Walnussbaum","postalCode":"24351","locality":"Thumby","municipality":{"key":"01058162","name":"Thumby","type":"Kreisangehörige_Gemeinde"},"district":{"key":"01058","name":"Rendsburg-Eckernförde","type":"Kreis"},"federalState":{"key":"01","name":"Schleswig-Holstein"}},{"name":"Am Wasserwerk","postalCode":"09419","locality":"Thum","municipality":{"key":"14521640","name":"Thum, Stadt","type":"Stadt"},"district":{"key":"14521","name":"Erzgebirgskreis","type":"Landkreis"},"federalState":{"key":"14","name":"Sachsen"}},{"name":"Am Weidig","postalCode":"91281","locality":"Kirchenthumbach","municipality":{"key":"09374129","name":"Kirchenthumbach, M","type":"Markt"},"district":{"key":"09374","name":"Neustadt a.d.Waldnaab","type":"Landkreis"},"federalState":{"key":"09","name":"Bayern"}},{"name":"An der Alten Post","postalCode":"09419","locality":"Thum","municipality":{"key":"14521640","name":"Thum, Stadt","type":"Stadt"},"district":{"key":"14521","name":"Erzgebirgskreis","type":"Landkreis"},"federalState":{"key":"14","name":"Sachsen"}},{"name":"An der Bleiche","postalCode":"09419","locality":"Thum","municipality":{"key":"14521640","name":"Thum, Stadt","type":"Stadt"},"district":{"key":"14521","name":"Erzgebirgskreis","type":"Landkreis"},"federalState":{"key":"14","name":"Sachsen"}},{"name":"An der Lehde","postalCode":"01877","locality":"Demitz-Thumitz","municipality":{"key":"14625100","name":"Demitz-Thumitz","type":"Kreisangehörige_Gemeinde"},"district":{"key":"14625","name":"Bautzen","type":"Landkreis"},"federalState":{"key":"14","name":"Sachsen"}},{"name":"An der Roten Mühle","postalCode":"09419","locality":"Thum","municipality":{"key":"14521640","name":"Thum, Stadt","type":"Stadt"},"district":{"key":"14521","name":"Erzgebirgskreis","type":"Landkreis"},"federalState":{"key":"14","name":"Sachsen"}},{"name":"An der Siedlung","postalCode":"09419","locality":"Thum","municipality":{"key":"14521640","name":"Thum, Stadt","type":"Stadt"},"district":{"key":"14521","name":"Erzgebirgskreis","type":"Landkreis"},"federalState":{"key":"14","name":"Sachsen"}},{"name":"Angerstr.","postalCode":"09419","locality":"Thum","municipality":{"key":"14521640","name":"Thum, Stadt","type":"Stadt"},"district":{"key":"14521","name":"Erzgebirgskreis","type":"Landkreis"},"federalState":{"key":"14","name":"Sachsen"}},{"name":"Annaberger Str.","postalCode":"09419","locality":"Thum","municipality":{"key":"14521640","name":"Thum, Stadt","type":"Stadt"},"district":{"key":"14521","name":"Erzgebirgskreis","type":"Landkreis"},"federalState":{"key":"14","name":"Sachsen"}},{"name":"Anton-Günther-Str.","postalCode":"09419","locality":"Thum","municipality":{"key":"14521640","name":"Thum, Stadt","type":"Stadt"},"district":{"key":"14521","name":"Erzgebirgskreis","type":"Landkreis"},"federalState":{"key":"14","name":"Sachsen"}},{"name":"Appolsheimer Str.","postalCode":"67308","locality":"Einselthum","municipality":{"key":"07333018","name":"Einselthum","type":"Kreisangehörige_Gemeinde"},"district":{"key":"07333","name":"Donnersbergkreis","type":"Landkreis"},"federalState":{"key":"07","name":"Rheinland-Pfalz"}},{"name":"Auerbacher Str.","postalCode":"09419","locality":"Thum","municipality":{"key":"14521640","name":"Thum, Stadt","type":"Stadt"},"district":{"key":"14521","name":"Erzgebirgskreis","type":"Landkreis"},"federalState":{"key":"14","name":"Sachsen"}},{"name":"Auerbacher Str.","postalCode":"91281","locality":"Kirchenthumbach","municipality":{"key":"09374129","name":"Kirchenthumbach, M","type":"Markt"},"district":{"key":"09374","name":"Neustadt a.d.Waldnaab","type":"Landkreis"},"federalState":{"key":"09","name":"Bayern"}},{"name":"Auf der Hütte","postalCode":"54668","locality":"Holsthum","municipality":{"key":"07232053","name":"Holsthum","type":"Kreisangehörige_Gemeinde"},"district":{"key":"07232","name":"Eifelkreis Bitburg-Prüm","type":"Landkreis"},"federalState":{"key":"07","name":"Rheinland-Pfalz"}},{"name":"Bachgasse","postalCode":"09419","locality":"Thum","municipality":{"key":"14521640","name":"Thum, Stadt","type":"Stadt"},"district":{"key":"14521","name":"Erzgebirgskreis","type":"Landkreis"},"federalState":{"key":"14","name":"Sachsen"}},{"name":"Bachgasse","postalCode":"91281","locality":"Kirchenthumbach","municipality":{"key":"09374129","name":"Kirchenthumbach, M","type":"Markt"},"district":{"key":"09374","name":"Neustadt a.d.Waldnaab","type":"Landkreis"},"federalState":{"key":"09","name":"Bayern"}},{"name":"Badeweg","postalCode":"01877","locality":"Demitz-Thumitz","municipality":{"key":"14625100","name":"Demitz-Thumitz","type":"Kreisangehörige_Gemeinde"},"district":{"key":"14625","name":"Bautzen","type":"Landkreis"},"federalState":{"key":"14","name":"Sachsen"}},{"name":"Bahnhofstr.","postalCode":"01877","locality":"Demitz-Thumitz","municipality":{"key":"14625100","name":"Demitz-Thumitz","type":"Kreisangehörige_Gemeinde"},"district":{"key":"14625","name":"Bautzen","type":"Landkreis"},"federalState":{"key":"14","name":"Sachsen"}},{"name":"Bahnhofstr.","postalCode":"09419","locality":"Thum","municipality":{"key":"14521640","name":"Thum, Stadt","type":"Stadt"},"district":{"key":"14521","name":"Erzgebirgskreis","type":"Landkreis"},"federalState":{"key":"14","name":"Sachsen"}},{"name":"Bahnhofstr.","postalCode":"91281","locality":"Kirchenthumbach","municipality":{"key":"09374129","name":"Kirchenthumbach, M","type":"Markt"},"district":{"key":"09374","name":"Neustadt a.d.Waldnaab","type":"Landkreis"},"federalState":{"key":"09","name":"Bayern"}},{"name":"Bärenheck","postalCode":"91281","locality":"Kirchenthumbach","municipality":{"key":"09374129","name":"Kirchenthumbach, M","type":"Markt"},"district":{"key":"09374","name":"Neustadt a.d.Waldnaab","type":"Landkreis"},"federalState":{"key":"09","name":"Bayern"}},{"name":"Bautzener Str.","postalCode":"01877","locality":"Demitz-Thumitz","municipality":{"key":"14625100","name":"Demitz-Thumitz","type":"Kreisangehörige_Gemeinde"},"district":{"key":"14625","name":"Bautzen","type":"Landkreis"},"federalState":{"key":"14","name":"Sachsen"}},{"name":"Bayreuther Str.","postalCode":"91281","locality":"Kirchenthumbach","municipality":{"key":"09374129","name":"Kirchenthumbach, M","type":"Markt"},"district":{"key":"09374","name":"Neustadt a.d.Waldnaab","type":"Landkreis"},"federalState":{"key":"09","name":"Bayern"}},{"name":"Bergstr.","postalCode":"01877","locality":"Demitz-Thumitz","municipality":{"key":"14625100","name":"Demitz-Thumitz","type":"Kreisangehörige_Gemeinde"},"district":{"key":"14625","name":"Bautzen","type":"Landkreis"},"federalState":{"key":"14","name":"Sachsen"}},{"name":"Bergstr.","postalCode":"09419","locality":"Thum","municipality":{"key":"14521640","name":"Thum, Stadt","type":"Stadt"},"district":{"key":"14521","name":"Erzgebirgskreis","type":"Landkreis"},"federalState":{"key":"14","name":"Sachsen"}},{"name":"Bergstr.","postalCode":"67308","locality":"Einselthum","municipality":{"key":"07333018","name":"Einselthum","type":"Kreisangehörige_Gemeinde"},"district":{"key":"07333","name":"Donnersbergkreis","type":"Landkreis"},"federalState":{"key":"07","name":"Rheinland-Pfalz"}},{"name":"Bergstr.","postalCode":"91281","locality":"Kirchenthumbach","municipality":{"key":"09374129","name":"Kirchenthumbach, M","type":"Markt"},"district":{"key":"09374","name":"Neustadt a.d.Waldnaab","type":"Landkreis"},"federalState":{"key":"09","name":"Bayern"}},{"name":"Bgm.-Prüschenk-Str.","postalCode":"91281","locality":"Kirchenthumbach","municipality":{"key":"09374129","name":"Kirchenthumbach, M","type":"Markt"},"district":{"key":"09374","name":"Neustadt a.d.Waldnaab","type":"Landkreis"},"federalState":{"key":"09","name":"Bayern"}},{"name":"Bi de Kirch","postalCode":"24891","locality":"Schnarup-Thumby","municipality":{"key":"01059076","name":"Schnarup-Thumby","type":"Kreisangehörige_Gemeinde"},"district":{"key":"01059","name":"Schleswig-Flensburg","type":"Kreis"},"federalState":{"key":"01","name":"Schleswig-Holstein"}},{"name":"Birkenroder Str.","postalCode":"01877","locality":"Demitz-Thumitz","municipality":{"key":"14625100","name":"Demitz-Thumitz","type":"Kreisangehörige_Gemeinde"},"district":{"key":"14625","name":"Bautzen","type":"Landkreis"},"federalState":{"key":"14","name":"Sachsen"}},{"name":"Birkenweg","postalCode":"01877","locality":"Demitz-Thumitz","municipality":{"key":"14625100","name":"Demitz-Thumitz","type":"Kreisangehörige_Gemeinde"},"district":{"key":"14625","name":"Bautzen","type":"Landkreis"},"federalState":{"key":"14","name":"Sachsen"}},{"name":"Birketweg","postalCode":"91281","locality":"Kirchenthumbach","municipality":{"key":"09374129","name":"Kirchenthumbach, M","type":"Markt"},"district":{"key":"09374","name":"Neustadt a.d.Waldnaab","type":"Landkreis"},"federalState":{"key":"09","name":"Bayern"}},{"name":"Bischofswerdaer Str.","postalCode":"01877","locality":"Demitz-Thumitz","municipality":{"key":"14625100","name":"Demitz-Thumitz","type":"Kreisangehörige_Gemeinde"},"district":{"key":"14625","name":"Bautzen","type":"Landkreis"},"federalState":{"key":"14","name":"Sachsen"}},{"name":"Börentwedt","postalCode":"24351","locality":"Thumby","municipality":{"key":"01058162","name":"Thumby","type":"Kreisangehörige_Gemeinde"},"district":{"key":"01058","name":"Rendsburg-Eckernförde","type":"Kreis"},"federalState":{"key":"01","name":"Schleswig-Holstein"}},{"name":"Bornweg","postalCode":"54668","locality":"Holsthum","municipality":{"key":"07232053","name":"Holsthum","type":"Kreisangehörige_Gemeinde"},"district":{"key":"07232","name":"Eifelkreis Bitburg-Prüm","type":"Landkreis"},"federalState":{"key":"07","name":"Rheinland-Pfalz"}},{"name":"Boystraat","postalCode":"24891","locality":"Schnarup-Thumby","municipality":{"key":"01059076","name":"Schnarup-Thumby","type":"Kreisangehörige_Gemeinde"},"district":{"key":"01059","name":"Schleswig-Flensburg","type":"Kreis"},"federalState":{"key":"01","name":"Schleswig-Holstein"}},{"name":"Brauhausstr.","postalCode":"09419","locality":"Thum","municipality":{"key":"14521640","name":"Thum, Stadt","type":"Stadt"},"district":{"key":"14521","name":"Erzgebirgskreis","type":"Landkreis"},"federalState":{"key":"14","name":"Sachsen"}},{"name":"Brunnenstr.","postalCode":"91281","locality":"Kirchenthumbach","municipality":{"key":"09374129","name":"Kirchenthumbach, M","type":"Markt"},"district":{"key":"09374","name":"Neustadt a.d.Waldnaab","type":"Landkreis"},"federalState":{"key":"09","name":"Bayern"}},{"name":"Brunnstuben","postalCode":"91281","locality":"Kirchenthumbach","municipality":{"key":"09374129","name":"Kirchenthumbach, M","type":"Markt"},"district":{"key":"09374","name":"Neustadt a.d.Waldnaab","type":"Landkreis"},"federalState":{"key":"09","name":"Bayern"}},{"name":"Buchbergerstr.","postalCode":"91281","locality":"Kirchenthumbach","municipality":{"key":"09374129","name":"Kirchenthumbach, M","type":"Markt"},"district":{"key":"09374","name":"Neustadt a.d.Waldnaab","type":"Landkreis"},"federalState":{"key":"09","name":"Bayern"}},{"name":"Burggruber Str.","postalCode":"91281","locality":"Kirchenthumbach","municipality":{"key":"09374129","name":"Kirchenthumbach, M","type":"Markt"},"district":{"key":"09374","name":"Neustadt a.d.Waldnaab","type":"Landkreis"},"federalState":{"key":"09","name":"Bayern"}},{"name":"Burgring","postalCode":"91281","locality":"Kirchenthumbach","municipality":{"key":"09374129","name":"Kirchenthumbach, M","type":"Markt"},"district":{"key":"09374","name":"Neustadt a.d.Waldnaab","type":"Landkreis"},"federalState":{"key":"09","name":"Bayern"}},{"name":"Burgstr.","postalCode":"67308","locality":"Einselthum","municipality":{"key":"07333018","name":"Einselthum","type":"Kreisangehörige_Gemeinde"},"district":{"key":"07333","name":"Donnersbergkreis","type":"Landkreis"},"federalState":{"key":"07","name":"Rheinland-Pfalz"}},{"name":"Chemnitzer Str.","postalCode":"09419","locality":"Thum","municipality":{"key":"14521640","name":"Thum, Stadt","type":"Stadt"},"district":{"key":"14521","name":"Erzgebirgskreis","type":"Landkreis"},"federalState":{"key":"14","name":"Sachsen"}},{"name":"Dammweg","postalCode":"01877","locality":"Demitz-Thumitz","municipality":{"key":"14625100","name":"Demitz-Thumitz","type":"Kreisangehörige_Gemeinde"},"district":{"key":"14625","name":"Bautzen","type":"Landkreis"},"federalState":{"key":"14","name":"Sachsen"}},{"name":"Diebsweg","postalCode":"91281","locality":"Kirchenthumbach","municipality":{"key":"09374129","name":"Kirchenthumbach, M","type":"Markt"},"district":{"key":"09374","name":"Neustadt a.d.Waldnaab","type":"Landkreis"},"federalState":{"key":"09","name":"Bayern"}},{"name":"Dorfstr.","postalCode":"09419","locality":"Thum","municipality":{"key":"14521640","name":"Thum, Stadt","type":"Stadt"},"district":{"key":"14521","name":"Erzgebirgskreis","type":"Landkreis"},"federalState":{"key":"14","name":"Sachsen"}},{"name":"Dorfstr.","postalCode":"24351","locality":"Thumby","municipality":{"key":"01058162","name":"Thumby","type":"Kreisangehörige_Gemeinde"},"district":{"key":"01058","name":"Rendsburg-Eckernförde","type":"Kreis"},"federalState":{"key":"01","name":"Schleswig-Holstein"}},{"name":"Dorfstr.","postalCode":"24891","locality":"Schnarup-Thumby","municipality":{"key":"01059076","name":"Schnarup-Thumby","type":"Kreisangehörige_Gemeinde"},"district":{"key":"01059","name":"Schleswig-Flensburg","type":"Kreis"},"federalState":{"key":"01","name":"Schleswig-Holstein"}},{"name":"Dorfstr.","postalCode":"91281","locality":"Kirchenthumbach","municipality":{"key":"09374129","name":"Kirchenthumbach, M","type":"Markt"},"district":{"key":"09374","name":"Neustadt a.d.Waldnaab","type":"Landkreis"},"federalState":{"key":"09","name":"Bayern"}},{"name":"Drebacher Str.","postalCode":"09419","locality":"Thum","municipality":{"key":"14521640","name":"Thum, Stadt","type":"Stadt"},"district":{"key":"14521","name":"Erzgebirgskreis","type":"Landkreis"},"federalState":{"key":"14","name":"Sachsen"}},{"name":"Dresdener Str.","postalCode":"01877","locality":"Demitz-Thumitz","municipality":{"key":"14625100","name":"Demitz-Thumitz","type":"Kreisangehörige_Gemeinde"},"district":{"key":"14625","name":"Bautzen","type":"Landkreis"},"federalState":{"key":"14","name":"Sachsen"}},{"name":"Ehrenfriedersdorfer Str.","postalCode":"09419","locality":"Thum","municipality":{"key":"14521640","name":"Thum, Stadt","type":"Stadt"},"district":{"key":"14521","name":"Erzgebirgskreis","type":"Landkreis"},"federalState":{"key":"14","name":"Sachsen"}},{"name":"Enzweg","postalCode":"54668","locality":"Holsthum","municipality":{"key":"07232053","name":"Holsthum","type":"Kreisangehörige_Gemeinde"},"district":{"key":"07232","name":"Eifelkreis Bitburg-Prüm","type":"Landkreis"},"federalState":{"key":"07","name":"Rheinland-Pfalz"}},{"name":"Erlenweg","postalCode":"91281","locality":"Kirchenthumbach","municipality":{"key":"09374129","name":"Kirchenthumbach, M","type":"Markt"},"district":{"key":"09374","name":"Neustadt a.d.Waldnaab","type":"Landkreis"},"federalState":{"key":"09","name":"Bayern"}},{"name":"Eschenbacher Str.","postalCode":"91281","locality":"Kirchenthumbach","municipality":{"key":"09374129","name":"Kirchenthumbach, M","type":"Markt"},"district":{"key":"09374","name":"Neustadt a.d.Waldnaab","type":"Landkreis"},"federalState":{"key":"09","name":"Bayern"}},{"name":"Färbergasse","postalCode":"09419","locality":"Thum","municipality":{"key":"14521640","name":"Thum, Stadt","type":"Stadt"},"district":{"key":"14521","name":"Erzgebirgskreis","type":"Landkreis"},"federalState":{"key":"14","name":"Sachsen"}},{"name":"Färbergasse","postalCode":"91281","locality":"Kirchenthumbach","municipality":{"key":"09374129","name":"Kirchenthumbach, M","type":"Markt"},"district":{"key":"09374","name":"Neustadt a.d.Waldnaab","type":"Landkreis"},"federalState":{"key":"09","name":"Bayern"}},{"name":"Färberstr.","postalCode":"09419","locality":"Thum","municipality":{"key":"14521640","name":"Thum, Stadt","type":"Stadt"},"district":{"key":"14521","name":"Erzgebirgskreis","type":"Landkreis"},"federalState":{"key":"14","name":"Sachsen"}},{"name":"Feldstr.","postalCode":"01877","locality":"Demitz-Thumitz","municipality":{"key":"14625100","name":"Demitz-Thumitz","type":"Kreisangehörige_Gemeinde"},"district":{"key":"14625","name":"Bautzen","type":"Landkreis"},"federalState":{"key":"14","name":"Sachsen"}},{"name":"Ferschweilerstr.","postalCode":"54668","locality":"Holsthum","municipality":{"key":"07232053","name":"Holsthum","type":"Kreisangehörige_Gemeinde"},"district":{"key":"07232","name":"Eifelkreis Bitburg-Prüm","type":"Landkreis"},"federalState":{"key":"07","name":"Rheinland-Pfalz"}},{"name":"Fichtenweg","postalCode":"91281","locality":"Kirchenthumbach","municipality":{"key":"09374129","name":"Kirchenthumbach, M","type":"Markt"},"district":{"key":"09374","name":"Neustadt a.d.Waldnaab","type":"Landkreis"},"federalState":{"key":"09","name":"Bayern"}},{"name":"Finkenweg","postalCode":"91281","locality":"Kirchenthumbach","municipality":{"key":"09374129","name":"Kirchenthumbach, M","type":"Markt"},"district":{"key":"09374","name":"Neustadt a.d.Waldnaab","type":"Landkreis"},"federalState":{"key":"09","name":"Bayern"}},{"name":"Flurweg","postalCode":"91281","locality":"Kirchenthumbach","municipality":{"key":"09374129","name":"Kirchenthumbach, M","type":"Markt"},"district":{"key":"09374","name":"Neustadt a.d.Waldnaab","type":"Landkreis"},"federalState":{"key":"09","name":"Bayern"}},{"name":"Föhrenweg","postalCode":"91281","locality":"Kirchenthumbach","municipality":{"key":"09374129","name":"Kirchenthumbach, M","type":"Markt"},"district":{"key":"09374","name":"Neustadt a.d.Waldnaab","type":"Landkreis"},"federalState":{"key":"09","name":"Bayern"}},{"name":"Forsthäuser","postalCode":"09419","locality":"Thum","municipality":{"key":"14521640","name":"Thum, Stadt","type":"Stadt"},"district":{"key":"14521","name":"Erzgebirgskreis","type":"Landkreis"},"federalState":{"key":"14","name":"Sachsen"}},{"name":"Franz-Eckert-Str.","postalCode":"91281","locality":"Kirchenthumbach","municipality":{"key":"09374129","name":"Kirchenthumbach, M","type":"Markt"},"district":{"key":"09374","name":"Neustadt a.d.Waldnaab","type":"Landkreis"},"federalState":{"key":"09","name":"Bayern"}},{"name":"Friedensstr.","postalCode":"01877","locality":"Demitz-Thumitz","municipality":{"key":"14625100","name":"Demitz-Thumitz","type":"Kreisangehörige_Gemeinde"},"district":{"key":"14625","name":"Bautzen","type":"Landkreis"},"federalState":{"key":"14","name":"Sachsen"}},{"name":"Friedhofstr.","postalCode":"01877","locality":"Demitz-Thumitz","municipality":{"key":"14625100","name":"Demitz-Thumitz","type":"Kreisangehörige_Gemeinde"},"district":{"key":"14625","name":"Bautzen","type":"Landkreis"},"federalState":{"key":"14","name":"Sachsen"}},{"name":"Friedrich-Ludwig-Jahn-Str.","postalCode":"09419","locality":"Thum","municipality":{"key":"14521640","name":"Thum, Stadt","type":"Stadt"},"district":{"key":"14521","name":"Erzgebirgskreis","type":"Landkreis"},"federalState":{"key":"14","name":"Sachsen"}},{"name":"Fronlohe","postalCode":"91281","locality":"Kirchenthumbach","municipality":{"key":"09374129","name":"Kirchenthumbach, M","type":"Markt"},"district":{"key":"09374","name":"Neustadt a.d.Waldnaab","type":"Landkreis"},"federalState":{"key":"09","name":"Bayern"}},{"name":"Fußweg nach Auerbach","postalCode":"09419","locality":"Thum","municipality":{"key":"14521640","name":"Thum, Stadt","type":"Stadt"},"district":{"key":"14521","name":"Erzgebirgskreis","type":"Landkreis"},"federalState":{"key":"14","name":"Sachsen"}},{"name":"Gartenstr.","postalCode":"01877","locality":"Demitz-Thumitz","municipality":{"key":"14625100","name":"Demitz-Thumitz","type":"Kreisangehörige_Gemeinde"},"district":{"key":"14625","name":"Bautzen","type":"Landkreis"},"federalState":{"key":"14","name":"Sachsen"}},{"name":"Gartenstr.","postalCode":"09419","locality":"Thum","municipality":{"key":"14521640","name":"Thum, Stadt","type":"Stadt"},"district":{"key":"14521","name":"Erzgebirgskreis","type":"Landkreis"},"federalState":{"key":"14","name":"Sachsen"}},{"name":"Gartenstr.","postalCode":"91281","locality":"Kirchenthumbach","municipality":{"key":"09374129","name":"Kirchenthumbach, M","type":"Markt"},"district":{"key":"09374","name":"Neustadt a.d.Waldnaab","type":"Landkreis"},"federalState":{"key":"09","name":"Bayern"}},{"name":"Gartenweg","postalCode":"01877","locality":"Demitz-Thumitz","municipality":{"key":"14625100","name":"Demitz-Thumitz","type":"Kreisangehörige_Gemeinde"},"district":{"key":"14625","name":"Bautzen","type":"Landkreis"},"federalState":{"key":"14","name":"Sachsen"}},{"name":"Gartenweg","postalCode":"54668","locality":"Holsthum","municipality":{"key":"07232053","name":"Holsthum","type":"Kreisangehörige_Gemeinde"},"district":{"key":"07232","name":"Eifelkreis Bitburg-Prüm","type":"Landkreis"},"federalState":{"key":"07","name":"Rheinland-Pfalz"}},{"name":"Georgstr.","postalCode":"09419","locality":"Thum","municipality":{"key":"14521640","name":"Thum, Stadt","type":"Stadt"},"district":{"key":"14521","name":"Erzgebirgskreis","type":"Landkreis"},"federalState":{"key":"14","name":"Sachsen"}},{"name":"Geyersche Str.","postalCode":"09419","locality":"Thum","municipality":{"key":"14521640","name":"Thum, Stadt","type":"Stadt"},"district":{"key":"14521","name":"Erzgebirgskreis","type":"Landkreis"},"federalState":{"key":"14","name":"Sachsen"}},{"name":"Glockengasse","postalCode":"91281","locality":"Kirchenthumbach","municipality":{"key":"09374129","name":"Kirchenthumbach, M","type":"Markt"},"district":{"key":"09374","name":"Neustadt a.d.Waldnaab","type":"Landkreis"},"federalState":{"key":"09","name":"Bayern"}},{"name":"Goldbrunnbachstr.","postalCode":"91281","locality":"Kirchenthumbach","municipality":{"key":"09374129","name":"Kirchenthumbach, M","type":"Markt"},"district":{"key":"09374","name":"Neustadt a.d.Waldnaab","type":"Landkreis"},"federalState":{"key":"09","name":"Bayern"}},{"name":"Görglaser Str.","postalCode":"91281","locality":"Kirchenthumbach","municipality":{"key":"09374129","name":"Kirchenthumbach, M","type":"Markt"},"district":{"key":"09374","name":"Neustadt a.d.Waldnaab","type":"Landkreis"},"federalState":{"key":"09","name":"Bayern"}},{"name":"Greifensteinstr.","postalCode":"09419","locality":"Thum","municipality":{"key":"14521640","name":"Thum, Stadt","type":"Stadt"},"district":{"key":"14521","name":"Erzgebirgskreis","type":"Landkreis"},"federalState":{"key":"14","name":"Sachsen"}},{"name":"Groß-Lück","postalCode":"24351","locality":"Thumby","municipality":{"key":"01058162","name":"Thumby","type":"Kreisangehörige_Gemeinde"},"district":{"key":"01058","name":"Rendsburg-Eckernförde","type":"Kreis"},"federalState":{"key":"01","name":"Schleswig-Holstein"}},{"name":"Guckelsby","postalCode":"24351","locality":"Thumby","municipality":{"key":"01058162","name":"Thumby","type":"Kreisangehörige_Gemeinde"},"district":{"key":"01058","name":"Rendsburg-Eckernförde","type":"Kreis"},"federalState":{"key":"01","name":"Schleswig-Holstein"}},{"name":"Gundheimer Weg","postalCode":"67308","locality":"Einselthum","municipality":{"key":"07333018","name":"Einselthum","type":"Kreisangehörige_Gemeinde"},"district":{"key":"07333","name":"Donnersbergkreis","type":"Landkreis"},"federalState":{"key":"07","name":"Rheinland-Pfalz"}},{"name":"Güterbahnhofstr.","postalCode":"01877","locality":"Demitz-Thumitz","municipality":{"key":"14625100","name":"Demitz-Thumitz","type":"Kreisangehörige_Gemeinde"},"district":{"key":"14625","name":"Bautzen","type":"Landkreis"},"federalState":{"key":"14","name":"Sachsen"}},{"name":"Hainstr.","postalCode":"09419","locality":"Thum","municipality":{"key":"14521640","name":"Thum, Stadt","type":"Stadt"},"district":{"key":"14521","name":"Erzgebirgskreis","type":"Landkreis"},"federalState":{"key":"14","name":"Sachsen"}},{"name":"Harnischgasse","postalCode":"09419","locality":"Thum","municipality":{"key":"14521640","name":"Thum, Stadt","type":"Stadt"},"district":{"key":"14521","name":"Erzgebirgskreis","type":"Landkreis"},"federalState":{"key":"14","name":"Sachsen"}},{"name":"Hauptstr.","postalCode":"01877","locality":"Demitz-Thumitz","municipality":{"key":"14625100","name":"Demitz-Thumitz","type":"Kreisangehörige_Gemeinde"},"district":{"key":"14625","name":"Bautzen","type":"Landkreis"},"federalState":{"key":"14","name":"Sachsen"}},{"name":"Hauptstr.","postalCode":"67308","locality":"Einselthum","municipality":{"key":"07333018","name":"Einselthum","type":"Kreisangehörige_Gemeinde"},"district":{"key":"07333","name":"Donnersbergkreis","type":"Landkreis"},"federalState":{"key":"07","name":"Rheinland-Pfalz"}},{"name":"Hauptstr.","postalCode":"91281","locality":"Kirchenthumbach","municipality":{"key":"09374129","name":"Kirchenthumbach, M","type":"Markt"},"district":{"key":"09374","name":"Neustadt a.d.Waldnaab","type":"Landkreis"},"federalState":{"key":"09","name":"Bayern"}},{"name":"Heckelchesweg","postalCode":"67308","locality":"Einselthum","municipality":{"key":"07333018","name":"Einselthum","type":"Kreisangehörige_Gemeinde"},"district":{"key":"07333","name":"Donnersbergkreis","type":"Landkreis"},"federalState":{"key":"07","name":"Rheinland-Pfalz"}},{"name":"Heidestr.","postalCode":"91281","locality":"Kirchenthumbach","municipality":{"key":"09374129","name":"Kirchenthumbach, M","type":"Markt"},"district":{"key":"09374","name":"Neustadt a.d.Waldnaab","type":"Landkreis"},"federalState":{"key":"09","name":"Bayern"}},{"name":"Heinrich-Heine-Str.","postalCode":"01877","locality":"Demitz-Thumitz","municipality":{"key":"14625100","name":"Demitz-Thumitz","type":"Kreisangehörige_Gemeinde"},"district":{"key":"14625","name":"Bautzen","type":"Landkreis"},"federalState":{"key":"14","name":"Sachsen"}},{"name":"Helle","postalCode":"24351","locality":"Thumby","municipality":{"key":"01058162","name":"Thumby","type":"Kreisangehörige_Gemeinde"},"district":{"key":"01058","name":"Rendsburg-Eckernförde","type":"Kreis"},"federalState":{"key":"01","name":"Schleswig-Holstein"}},{"name":"Herolder Str.","postalCode":"09419","locality":"Thum","municipality":{"key":"14521640","name":"Thum, Stadt","type":"Stadt"},"district":{"key":"14521","name":"Erzgebirgskreis","type":"Landkreis"},"federalState":{"key":"14","name":"Sachsen"}},{"name":"Herolder Weg","postalCode":"09419","locality":"Thum","municipality":{"key":"14521640","name":"Thum, Stadt","type":"Stadt"},"district":{"key":"14521","name":"Erzgebirgskreis","type":"Landkreis"},"federalState":{"key":"14","name":"Sachsen"}},{"name":"Herrenpaint","postalCode":"91281","locality":"Kirchenthumbach","municipality":{"key":"09374129","name":"Kirchenthumbach, M","type":"Markt"},"district":{"key":"09374","name":"Neustadt a.d.Waldnaab","type":"Landkreis"},"federalState":{"key":"09","name":"Bayern"}},{"name":"Hochgewannweg","postalCode":"67308","locality":"Einselthum","municipality":{"key":"07333018","name":"Einselthum","type":"Kreisangehörige_Gemeinde"},"district":{"key":"07333","name":"Donnersbergkreis","type":"Landkreis"},"federalState":{"key":"07","name":"Rheinland-Pfalz"}},{"name":"Hofwiesen","postalCode":"09419","locality":"Thum","municipality":{"key":"14521640","name":"Thum, Stadt","type":"Stadt"},"district":{"key":"14521","name":"Erzgebirgskreis","type":"Landkreis"},"federalState":{"key":"14","name":"Sachsen"}},{"name":"Hoheluft","postalCode":"24351","locality":"Thumby","municipality":{"key":"01058162","name":"Thumby","type":"Kreisangehörige_Gemeinde"},"district":{"key":"01058","name":"Rendsburg-Eckernförde","type":"Kreis"},"federalState":{"key":"01","name":"Schleswig-Holstein"}},{"name":"Holsthumerberg","postalCode":"54668","locality":"Holsthum","municipality":{"key":"07232053","name":"Holsthum","type":"Kreisangehörige_Gemeinde"},"district":{"key":"07232","name":"Eifelkreis Bitburg-Prüm","type":"Landkreis"},"federalState":{"key":"07","name":"Rheinland-Pfalz"}},{"name":"Holzstr.","postalCode":"67308","locality":"Einselthum","municipality":{"key":"07333018","name":"Einselthum","type":"Kreisangehörige_Gemeinde"},"district":{"key":"07333","name":"Donnersbergkreis","type":"Landkreis"},"federalState":{"key":"07","name":"Rheinland-Pfalz"}},{"name":"Holzweg","postalCode":"67308","locality":"Einselthum","municipality":{"key":"07333018","name":"Einselthum","type":"Kreisangehörige_Gemeinde"},"district":{"key":"07333","name":"Donnersbergkreis","type":"Landkreis"},"federalState":{"key":"07","name":"Rheinland-Pfalz"}},{"name":"Hopfenstr.","postalCode":"91281","locality":"Kirchenthumbach","municipality":{"key":"09374129","name":"Kirchenthumbach, M","type":"Markt"},"district":{"key":"09374","name":"Neustadt a.d.Waldnaab","type":"Landkreis"},"federalState":{"key":"09","name":"Bayern"}},{"name":"Hümarkfeld","postalCode":"24351","locality":"Thumby","municipality":{"key":"01058162","name":"Thumby","type":"Kreisangehörige_Gemeinde"},"district":{"key":"01058","name":"Rendsburg-Eckernförde","type":"Kreis"},"federalState":{"key":"01","name":"Schleswig-Holstein"}},{"name":"Hüttenweg","postalCode":"67308","locality":"Einselthum","municipality":{"key":"07333018","name":"Einselthum","type":"Kreisangehörige_Gemeinde"},"district":{"key":"07333","name":"Donnersbergkreis","type":"Landkreis"},"federalState":{"key":"07","name":"Rheinland-Pfalz"}},{"name":"Im Anger","postalCode":"91281","locality":"Kirchenthumbach","municipality":{"key":"09374129","name":"Kirchenthumbach, M","type":"Markt"},"district":{"key":"09374","name":"Neustadt a.d.Waldnaab","type":"Landkreis"},"federalState":{"key":"09","name":"Bayern"}},{"name":"Im Schönnagel","postalCode":"67308","locality":"Einselthum","municipality":{"key":"07333018","name":"Einselthum","type":"Kreisangehörige_Gemeinde"},"district":{"key":"07333","name":"Donnersbergkreis","type":"Landkreis"},"federalState":{"key":"07","name":"Rheinland-Pfalz"}},{"name":"In den Kästenwiesen","postalCode":"67308","locality":"Einselthum","municipality":{"key":"07333018","name":"Einselthum","type":"Kreisangehörige_Gemeinde"},"district":{"key":"07333","name":"Donnersbergkreis","type":"Landkreis"},"federalState":{"key":"07","name":"Rheinland-Pfalz"}},{"name":"In den Nächstwiesen","postalCode":"67308","locality":"Einselthum","municipality":{"key":"07333018","name":"Einselthum","type":"Kreisangehörige_Gemeinde"},"district":{"key":"07333","name":"Donnersbergkreis","type":"Landkreis"},"federalState":{"key":"07","name":"Rheinland-Pfalz"}},{"name":"In den Tannen","postalCode":"24351","locality":"Thumby","municipality":{"key":"01058162","name":"Thumby","type":"Kreisangehörige_Gemeinde"},"district":{"key":"01058","name":"Rendsburg-Eckernförde","type":"Kreis"},"federalState":{"key":"01","name":"Schleswig-Holstein"}},{"name":"In der Au","postalCode":"91281","locality":"Kirchenthumbach","municipality":{"key":"09374129","name":"Kirchenthumbach, M","type":"Markt"},"district":{"key":"09374","name":"Neustadt a.d.Waldnaab","type":"Landkreis"},"federalState":{"key":"09","name":"Bayern"}},{"name":"Jahnstr.","postalCode":"91281","locality":"Kirchenthumbach","municipality":{"key":"09374129","name":"Kirchenthumbach, M","type":"Markt"},"district":{"key":"09374","name":"Neustadt a.d.Waldnaab","type":"Landkreis"},"federalState":{"key":"09","name":"Bayern"}},{"name":"Jakob-Scheller-Str.","postalCode":"67308","locality":"Einselthum","municipality":{"key":"07333018","name":"Einselthum","type":"Kreisangehörige_Gemeinde"},"district":{"key":"07333","name":"Donnersbergkreis","type":"Landkreis"},"federalState":{"key":"07","name":"Rheinland-Pfalz"}},{"name":"Jakobusstr.","postalCode":"91281","locality":"Kirchenthumbach","municipality":{"key":"09374129","name":"Kirchenthumbach, M","type":"Markt"},"district":{"key":"09374","name":"Neustadt a.d.Waldnaab","type":"Landkreis"},"federalState":{"key":"09","name":"Bayern"}},{"name":"Kalkofenstr.","postalCode":"91281","locality":"Kirchenthumbach","municipality":{"key":"09374129","name":"Kirchenthumbach, M","type":"Markt"},"district":{"key":"09374","name":"Neustadt a.d.Waldnaab","type":"Landkreis"},"federalState":{"key":"09","name":"Bayern"}},{"name":"Kanonentunnel","postalCode":"01877","locality":"Demitz-Thumitz","municipality":{"key":"14625100","name":"Demitz-Thumitz","type":"Kreisangehörige_Gemeinde"},"district":{"key":"14625","name":"Bautzen","type":"Landkreis"},"federalState":{"key":"14","name":"Sachsen"}},{"name":"Kapellenstr.","postalCode":"54668","locality":"Holsthum","municipality":{"key":"07232053","name":"Holsthum","type":"Kreisangehörige_Gemeinde"},"district":{"key":"07232","name":"Eifelkreis Bitburg-Prüm","type":"Landkreis"},"federalState":{"key":"07","name":"Rheinland-Pfalz"}},{"name":"Kapellenstr.","postalCode":"91281","locality":"Kirchenthumbach","municipality":{"key":"09374129","name":"Kirchenthumbach, M","type":"Markt"},"district":{"key":"09374","name":"Neustadt a.d.Waldnaab","type":"Landkreis"},"federalState":{"key":"09","name":"Bayern"}},{"name":"Kapellenweg","postalCode":"91281","locality":"Kirchenthumbach","municipality":{"key":"09374129","name":"Kirchenthumbach, M","type":"Markt"},"district":{"key":"09374","name":"Neustadt a.d.Waldnaab","type":"Landkreis"},"federalState":{"key":"09","name":"Bayern"}},{"name":"Kappesgewannweg","postalCode":"67308","locality":"Einselthum","municipality":{"key":"07333018","name":"Einselthum","type":"Kreisangehörige_Gemeinde"},"district":{"key":"07333","name":"Donnersbergkreis","type":"Landkreis"},"federalState":{"key":"07","name":"Rheinland-Pfalz"}},{"name":"Karl-Marx-Str.","postalCode":"01877","locality":"Demitz-Thumitz","municipality":{"key":"14625100","name":"Demitz-Thumitz","type":"Kreisangehörige_Gemeinde"},"district":{"key":"14625","name":"Bautzen","type":"Landkreis"},"federalState":{"key":"14","name":"Sachsen"}},{"name":"Karlsdorfer Str.","postalCode":"01877","locality":"Demitz-Thumitz","municipality":{"key":"14625100","name":"Demitz-Thumitz","type":"Kreisangehörige_Gemeinde"},"district":{"key":"14625","name":"Bautzen","type":"Landkreis"},"federalState":{"key":"14","name":"Sachsen"}},{"name":"Kastanienallee","postalCode":"67308","locality":"Einselthum","municipality":{"key":"07333018","name":"Einselthum","type":"Kreisangehörige_Gemeinde"},"district":{"key":"07333","name":"Donnersbergkreis","type":"Landkreis"},"federalState":{"key":"07","name":"Rheinland-Pfalz"}},{"name":"Kathy","postalCode":"24891","locality":"Schnarup-Thumby","municipality":{"key":"01059076","name":"Schnarup-Thumby","type":"Kreisangehörige_Gemeinde"},"district":{"key":"01059","name":"Schleswig-Flensburg","type":"Kreis"},"federalState":{"key":"01","name":"Schleswig-Holstein"}},{"name":"Kellerstr.","postalCode":"91281","locality":"Kirchenthumbach","municipality":{"key":"09374129","name":"Kirchenthumbach, M","type":"Markt"},"district":{"key":"09374","name":"Neustadt a.d.Waldnaab","type":"Landkreis"},"federalState":{"key":"09","name":"Bayern"}},{"name":"Kiefernbuschweg","postalCode":"01877","locality":"Demitz-Thumitz","municipality":{"key":"14625100","name":"Demitz-Thumitz","type":"Kreisangehörige_Gemeinde"},"district":{"key":"14625","name":"Bautzen","type":"Landkreis"},"federalState":{"key":"14","name":"Sachsen"}},{"name":"Kirchsteig","postalCode":"09419","locality":"Thum","municipality":{"key":"14521640","name":"Thum, Stadt","type":"Stadt"},"district":{"key":"14521","name":"Erzgebirgskreis","type":"Landkreis"},"federalState":{"key":"14","name":"Sachsen"}},{"name":"Kirchstr.","postalCode":"09419","locality":"Thum","municipality":{"key":"14521640","name":"Thum, Stadt","type":"Stadt"},"district":{"key":"14521","name":"Erzgebirgskreis","type":"Landkreis"},"federalState":{"key":"14","name":"Sachsen"}},{"name":"Kirchstr.","postalCode":"67308","locality":"Einselthum","municipality":{"key":"07333018","name":"Einselthum","type":"Kreisangehörige_Gemeinde"},"district":{"key":"07333","name":"Donnersbergkreis","type":"Landkreis"},"federalState":{"key":"07","name":"Rheinland-Pfalz"}},{"name":"Kleine Gasse","postalCode":"01877","locality":"Demitz-Thumitz","municipality":{"key":"14625100","name":"Demitz-Thumitz","type":"Kreisangehörige_Gemeinde"},"district":{"key":"14625","name":"Bautzen","type":"Landkreis"},"federalState":{"key":"14","name":"Sachsen"}},{"name":"Klingestr.","postalCode":"91281","locality":"Kirchenthumbach","municipality":{"key":"09374129","name":"Kirchenthumbach, M","type":"Markt"},"district":{"key":"09374","name":"Neustadt a.d.Waldnaab","type":"Landkreis"},"federalState":{"key":"09","name":"Bayern"}},{"name":"Klosterbergweg","postalCode":"01877","locality":"Demitz-Thumitz","municipality":{"key":"14625100","name":"Demitz-Thumitz","type":"Kreisangehörige_Gemeinde"},"district":{"key":"14625","name":"Bautzen","type":"Landkreis"},"federalState":{"key":"14","name":"Sachsen"}},{"name":"Knochenweg","postalCode":"09419","locality":"Thum","municipality":{"key":"14521640","name":"Thum, Stadt","type":"Stadt"},"district":{"key":"14521","name":"Erzgebirgskreis","type":"Landkreis"},"federalState":{"key":"14","name":"Sachsen"}},{"name":"Köhnholzer Landstr.","postalCode":"24891","locality":"Schnarup-Thumby","municipality":{"key":"01059076","name":"Schnarup-Thumby","type":"Kreisangehörige_Gemeinde"},"district":{"key":"01059","name":"Schleswig-Flensburg","type":"Kreis"},"federalState":{"key":"01","name":"Schleswig-Holstein"}},{"name":"Kruibeker Str.","postalCode":"54668","locality":"Holsthum","municipality":{"key":"07232053","name":"Holsthum","type":"Kreisangehörige_Gemeinde"},"district":{"key":"07232","name":"Eifelkreis Bitburg-Prüm","type":"Landkreis"},"federalState":{"key":"07","name":"Rheinland-Pfalz"}},{"name":"Lahräckerstr.","postalCode":"67308","locality":"Einselthum","municipality":{"key":"07333018","name":"Einselthum","type":"Kreisangehörige_Gemeinde"},"district":{"key":"07333","name":"Donnersbergkreis","type":"Landkreis"},"federalState":{"key":"07","name":"Rheinland-Pfalz"}},{"name":"Lange Str.","postalCode":"09419","locality":"Thum","municipality":{"key":"14521640","name":"Thum, Stadt","type":"Stadt"},"district":{"key":"14521","name":"Erzgebirgskreis","type":"Landkreis"},"federalState":{"key":"14","name":"Sachsen"}},{"name":"Langwiesen","postalCode":"91281","locality":"Kirchenthumbach","municipality":{"key":"09374129","name":"Kirchenthumbach, M","type":"Markt"},"district":{"key":"09374","name":"Neustadt a.d.Waldnaab","type":"Landkreis"},"federalState":{"key":"09","name":"Bayern"}},{"name":"Lärchenweg","postalCode":"91281","locality":"Kirchenthumbach","municipality":{"key":"09374129","name":"Kirchenthumbach, M","type":"Markt"},"district":{"key":"09374","name":"Neustadt a.d.Waldnaab","type":"Landkreis"},"federalState":{"key":"09","name":"Bayern"}},{"name":"Lettenweg","postalCode":"91281","locality":"Kirchenthumbach","municipality":{"key":"09374129","name":"Kirchenthumbach, M","type":"Markt"},"district":{"key":"09374","name":"Neustadt a.d.Waldnaab","type":"Landkreis"},"federalState":{"key":"09","name":"Bayern"}},{"name":"Lindenallee","postalCode":"01877","locality":"Demitz-Thumitz","municipality":{"key":"14625100","name":"Demitz-Thumitz","type":"Kreisangehörige_Gemeinde"},"district":{"key":"14625","name":"Bautzen","type":"Landkreis"},"federalState":{"key":"14","name":"Sachsen"}},{"name":"Lindenstr.","postalCode":"91281","locality":"Kirchenthumbach","municipality":{"key":"09374129","name":"Kirchenthumbach, M","type":"Markt"},"district":{"key":"09374","name":"Neustadt a.d.Waldnaab","type":"Landkreis"},"federalState":{"key":"09","name":"Bayern"}},{"name":"Loimoos","postalCode":"24891","locality":"Schnarup-Thumby","municipality":{"key":"01059076","name":"Schnarup-Thumby","type":"Kreisangehörige_Gemeinde"},"district":{"key":"01059","name":"Schleswig-Flensburg","type":"Kreis"},"federalState":{"key":"01","name":"Schleswig-Holstein"}},{"name":"Maria-Zell-Weg","postalCode":"91281","locality":"Kirchenthumbach","municipality":{"key":"09374129","name":"Kirchenthumbach, M","type":"Markt"},"district":{"key":"09374","name":"Neustadt a.d.Waldnaab","type":"Landkreis"},"federalState":{"key":"09","name":"Bayern"}},{"name":"Markt","postalCode":"09419","locality":"Thum","municipality":{"key":"14521640","name":"Thum, Stadt","type":"Stadt"},"district":{"key":"14521","name":"Erzgebirgskreis","type":"Landkreis"},"federalState":{"key":"14","name":"Sachsen"}},{"name":"Marktplatz","postalCode":"91281","locality":"Kirchenthumbach","municipality":{"key":"09374129","name":"Kirchenthumbach, M","type":"Markt"},"district":{"key":"09374","name":"Neustadt a.d.Waldnaab","type":"Landkreis"},"federalState":{"key":"09","name":"Bayern"}},{"name":"Marktstr.","postalCode":"09419","locality":"Thum","municipality":{"key":"14521640","name":"Thum, Stadt","type":"Stadt"},"district":{"key":"14521","name":"Erzgebirgskreis","type":"Landkreis"},"federalState":{"key":"14","name":"Sachsen"}},{"name":"Medewitzer Str.","postalCode":"01877","locality":"Demitz-Thumitz","municipality":{"key":"14625100","name":"Demitz-Thumitz","type":"Kreisangehörige_Gemeinde"},"district":{"key":"14625","name":"Bautzen","type":"Landkreis"},"federalState":{"key":"14","name":"Sachsen"}},{"name":"Meiereistr.","postalCode":"24891","locality":"Schnarup-Thumby","municipality":{"key":"01059076","name":"Schnarup-Thumby","type":"Kreisangehörige_Gemeinde"},"district":{"key":"01059","name":"Schleswig-Flensburg","type":"Kreis"},"federalState":{"key":"01","name":"Schleswig-Holstein"}},{"name":"Metzenhof","postalCode":"91281","locality":"Kirchenthumbach","municipality":{"key":"09374129","name":"Kirchenthumbach, M","type":"Markt"},"district":{"key":"09374","name":"Neustadt a.d.Waldnaab","type":"Landkreis"},"federalState":{"key":"09","name":"Bayern"}},{"name":"Mittelgasse","postalCode":"09419","locality":"Thum","municipality":{"key":"14521640","name":"Thum, Stadt","type":"Stadt"},"district":{"key":"14521","name":"Erzgebirgskreis","type":"Landkreis"},"federalState":{"key":"14","name":"Sachsen"}},{"name":"Mittelstr.","postalCode":"01877","locality":"Demitz-Thumitz","municipality":{"key":"14625100","name":"Demitz-Thumitz","type":"Kreisangehörige_Gemeinde"},"district":{"key":"14625","name":"Bautzen","type":"Landkreis"},"federalState":{"key":"14","name":"Sachsen"}},{"name":"Mühlbachstr.","postalCode":"91281","locality":"Kirchenthumbach","municipality":{"key":"09374129","name":"Kirchenthumbach, M","type":"Markt"},"district":{"key":"09374","name":"Neustadt a.d.Waldnaab","type":"Landkreis"},"federalState":{"key":"09","name":"Bayern"}},{"name":"Mühlberg","postalCode":"09419","locality":"Thum","municipality":{"key":"14521640","name":"Thum, Stadt","type":"Stadt"},"district":{"key":"14521","name":"Erzgebirgskreis","type":"Landkreis"},"federalState":{"key":"14","name":"Sachsen"}},{"name":"Mühlenberg","postalCode":"24891","locality":"Schnarup-Thumby","municipality":{"key":"01059076","name":"Schnarup-Thumby","type":"Kreisangehörige_Gemeinde"},"district":{"key":"01059","name":"Schleswig-Flensburg","type":"Kreis"},"federalState":{"key":"01","name":"Schleswig-Holstein"}},{"name":"Mühlendamm","postalCode":"01877","locality":"Demitz-Thumitz","municipality":{"key":"14625100","name":"Demitz-Thumitz","type":"Kreisangehörige_Gemeinde"},"district":{"key":"14625","name":"Bautzen","type":"Landkreis"},"federalState":{"key":"14","name":"Sachsen"}},{"name":"Mühlenstr.","postalCode":"91281","locality":"Kirchenthumbach","municipality":{"key":"09374129","name":"Kirchenthumbach, M","type":"Markt"},"district":{"key":"09374","name":"Neustadt a.d.Waldnaab","type":"Landkreis"},"federalState":{"key":"09","name":"Bayern"}},{"name":"Mühlenweg","postalCode":"54668","locality":"Holsthum","municipality":{"key":"07232053","name":"Holsthum","type":"Kreisangehörige_Gemeinde"},"district":{"key":"07232","name":"Eifelkreis Bitburg-Prüm","type":"Landkreis"},"federalState":{"key":"07","name":"Rheinland-Pfalz"}},{"name":"Mühlenweg","postalCode":"91281","locality":"Kirchenthumbach","municipality":{"key":"09374129","name":"Kirchenthumbach, M","type":"Markt"},"district":{"key":"09374","name":"Neustadt a.d.Waldnaab","type":"Landkreis"},"federalState":{"key":"09","name":"Bayern"}},{"name":"Mühlweg","postalCode":"01877","locality":"Demitz-Thumitz","municipality":{"key":"14625100","name":"Demitz-Thumitz","type":"Kreisangehörige_Gemeinde"},"district":{"key":"14625","name":"Bautzen","type":"Landkreis"},"federalState":{"key":"14","name":"Sachsen"}},{"name":"Nelkenstr.","postalCode":"91281","locality":"Kirchenthumbach","municipality":{"key":"09374129","name":"Kirchenthumbach, M","type":"Markt"},"district":{"key":"09374","name":"Neustadt a.d.Waldnaab","type":"Landkreis"},"federalState":{"key":"09","name":"Bayern"}},{"name":"Neuer Weg","postalCode":"01877","locality":"Demitz-Thumitz","municipality":{"key":"14625100","name":"Demitz-Thumitz","type":"Kreisangehörige_Gemeinde"},"district":{"key":"14625","name":"Bautzen","type":"Landkreis"},"federalState":{"key":"14","name":"Sachsen"}},{"name":"Neue Str.","postalCode":"09419","locality":"Thum","municipality":{"key":"14521640","name":"Thum, Stadt","type":"Stadt"},"district":{"key":"14521","name":"Erzgebirgskreis","type":"Landkreis"},"federalState":{"key":"14","name":"Sachsen"}},{"name":"Neumarkt","postalCode":"09419","locality":"Thum","municipality":{"key":"14521640","name":"Thum, Stadt","type":"Stadt"},"district":{"key":"14521","name":"Erzgebirgskreis","type":"Landkreis"},"federalState":{"key":"14","name":"Sachsen"}},{"name":"Neuteich","postalCode":"24351","locality":"Thumby","municipality":{"key":"01058162","name":"Thumby","type":"Kreisangehörige_Gemeinde"},"district":{"key":"01058","name":"Rendsburg-Eckernförde","type":"Kreis"},"federalState":{"key":"01","name":"Schleswig-Holstein"}},{"name":"Nickelseestr.","postalCode":"91281","locality":"Kirchenthumbach","municipality":{"key":"09374129","name":"Kirchenthumbach, M","type":"Markt"},"district":{"key":"09374","name":"Neustadt a.d.Waldnaab","type":"Landkreis"},"federalState":{"key":"09","name":"Bayern"}},{"name":"Nietoft","postalCode":"24891","locality":"Schnarup-Thumby","municipality":{"key":"01059076","name":"Schnarup-Thumby","type":"Kreisangehörige_Gemeinde"},"district":{"key":"01059","name":"Schleswig-Flensburg","type":"Kreis"},"federalState":{"key":"01","name":"Schleswig-Holstein"}},{"name":"Oberdorf","postalCode":"54668","locality":"Holsthum","municipality":{"key":"07232053","name":"Holsthum","type":"Kreisangehörige_Gemeinde"},"district":{"key":"07232","name":"Eifelkreis Bitburg-Prüm","type":"Landkreis"},"federalState":{"key":"07","name":"Rheinland-Pfalz"}},{"name":"Obere Dorfstr.","postalCode":"09419","locality":"Thum","municipality":{"key":"14521640","name":"Thum, Stadt","type":"Stadt"},"district":{"key":"14521","name":"Erzgebirgskreis","type":"Landkreis"},"federalState":{"key":"14","name":"Sachsen"}},{"name":"Obergasse","postalCode":"09419","locality":"Thum","municipality":{"key":"14521640","name":"Thum, Stadt","type":"Stadt"},"district":{"key":"14521","name":"Erzgebirgskreis","type":"Landkreis"},"federalState":{"key":"14","name":"Sachsen"}},{"name":"Pastoratsweg","postalCode":"24351","locality":"Thumby","municipality":{"key":"01058162","name":"Thumby","type":"Kreisangehörige_Gemeinde"},"district":{"key":"01058","name":"Rendsburg-Eckernförde","type":"Kreis"},"federalState":{"key":"01","name":"Schleswig-Holstein"}},{"name":"Pastor-Dillinger-Str.","postalCode":"54668","locality":"Holsthum","municipality":{"key":"07232053","name":"Holsthum","type":"Kreisangehörige_Gemeinde"},"district":{"key":"07232","name":"Eifelkreis Bitburg-Prüm","type":"Landkreis"},"federalState":{"key":"07","name":"Rheinland-Pfalz"}},{"name":"Pfarrstr.","postalCode":"91281","locality":"Kirchenthumbach","municipality":{"key":"09374129","name":"Kirchenthumbach, M","type":"Markt"},"district":{"key":"09374","name":"Neustadt a.d.Waldnaab","type":"Landkreis"},"federalState":{"key":"09","name":"Bayern"}},{"name":"Pfenglerweg","postalCode":"09419","locality":"Thum","municipality":{"key":"14521640","name":"Thum, Stadt","type":"Stadt"},"district":{"key":"14521","name":"Erzgebirgskreis","type":"Landkreis"},"federalState":{"key":"14","name":"Sachsen"}},{"name":"Plattenstr.","postalCode":"09419","locality":"Thum","municipality":{"key":"14521640","name":"Thum, Stadt","type":"Stadt"},"district":{"key":"14521","name":"Erzgebirgskreis","type":"Landkreis"},"federalState":{"key":"14","name":"Sachsen"}},{"name":"Pochwerkstr.","postalCode":"09419","locality":"Thum","municipality":{"key":"14521640","name":"Thum, Stadt","type":"Stadt"},"district":{"key":"14521","name":"Erzgebirgskreis","type":"Landkreis"},"federalState":{"key":"14","name":"Sachsen"}},{"name":"Poststr.","postalCode":"09419","locality":"Thum","municipality":{"key":"14521640","name":"Thum, Stadt","type":"Stadt"},"district":{"key":"14521","name":"Erzgebirgskreis","type":"Landkreis"},"federalState":{"key":"14","name":"Sachsen"}},{"name":"Pottschapplitzer Str.","postalCode":"01877","locality":"Demitz-Thumitz","municipality":{"key":"14625100","name":"Demitz-Thumitz","type":"Kreisangehörige_Gemeinde"},"district":{"key":"14625","name":"Bautzen","type":"Landkreis"},"federalState":{"key":"14","name":"Sachsen"}},{"name":"Quersteg","postalCode":"01877","locality":"Demitz-Thumitz","municipality":{"key":"14625100","name":"Demitz-Thumitz","type":"Kreisangehörige_Gemeinde"},"district":{"key":"14625","name":"Bautzen","type":"Landkreis"},"federalState":{"key":"14","name":"Sachsen"}},{"name":"Raiffeisenstr.","postalCode":"91281","locality":"Kirchenthumbach","municipality":{"key":"09374129","name":"Kirchenthumbach, M","type":"Markt"},"district":{"key":"09374","name":"Neustadt a.d.Waldnaab","type":"Landkreis"},"federalState":{"key":"09","name":"Bayern"}},{"name":"Rampenweg","postalCode":"01877","locality":"Demitz-Thumitz","municipality":{"key":"14625100","name":"Demitz-Thumitz","type":"Kreisangehörige_Gemeinde"},"district":{"key":"14625","name":"Bautzen","type":"Landkreis"},"federalState":{"key":"14","name":"Sachsen"}},{"name":"Rathausplatz","postalCode":"09419","locality":"Thum","municipality":{"key":"14521640","name":"Thum, Stadt","type":"Stadt"},"district":{"key":"14521","name":"Erzgebirgskreis","type":"Landkreis"},"federalState":{"key":"14","name":"Sachsen"}},{"name":"Rätzesiedlung","postalCode":"01877","locality":"Demitz-Thumitz","municipality":{"key":"14625100","name":"Demitz-Thumitz","type":"Kreisangehörige_Gemeinde"},"district":{"key":"14625","name":"Bautzen","type":"Landkreis"},"federalState":{"key":"14","name":"Sachsen"}},{"name":"Rätzestr.","postalCode":"01877","locality":"Demitz-Thumitz","municipality":{"key":"14625100","name":"Demitz-Thumitz","type":"Kreisangehörige_Gemeinde"},"district":{"key":"14625","name":"Bautzen","type":"Landkreis"},"federalState":{"key":"14","name":"Sachsen"}},{"name":"Ring","postalCode":"01877","locality":"Demitz-Thumitz","municipality":{"key":"14625100","name":"Demitz-Thumitz","type":"Kreisangehörige_Gemeinde"},"district":{"key":"14625","name":"Bautzen","type":"Landkreis"},"federalState":{"key":"14","name":"Sachsen"}},{"name":"Ringstr.","postalCode":"01877","locality":"Demitz-Thumitz","municipality":{"key":"14625100","name":"Demitz-Thumitz","type":"Kreisangehörige_Gemeinde"},"district":{"key":"14625","name":"Bautzen","type":"Landkreis"},"federalState":{"key":"14","name":"Sachsen"}},{"name":"Ringstr.","postalCode":"09419","locality":"Thum","municipality":{"key":"14521640","name":"Thum, Stadt","type":"Stadt"},"district":{"key":"14521","name":"Erzgebirgskreis","type":"Landkreis"},"federalState":{"key":"14","name":"Sachsen"}},{"name":"Ringstr.","postalCode":"54668","locality":"Holsthum","municipality":{"key":"07232053","name":"Holsthum","type":"Kreisangehörige_Gemeinde"},"district":{"key":"07232","name":"Eifelkreis Bitburg-Prüm","type":"Landkreis"},"federalState":{"key":"07","name":"Rheinland-Pfalz"}},{"name":"Robert-Schneider-Str.","postalCode":"09419","locality":"Thum","municipality":{"key":"14521640","name":"Thum, Stadt","type":"Stadt"},"district":{"key":"14521","name":"Erzgebirgskreis","type":"Landkreis"},"federalState":{"key":"14","name":"Sachsen"}},{"name":"Rosenstr.","postalCode":"91281","locality":"Kirchenthumbach","municipality":{"key":"09374129","name":"Kirchenthumbach, M","type":"Markt"},"district":{"key":"09374","name":"Neustadt a.d.Waldnaab","type":"Landkreis"},"federalState":{"key":"09","name":"Bayern"}},{"name":"Rothnaußlitzer Weg","postalCode":"01877","locality":"Demitz-Thumitz","municipality":{"key":"14625100","name":"Demitz-Thumitz","type":"Kreisangehörige_Gemeinde"},"district":{"key":"14625","name":"Bautzen","type":"Landkreis"},"federalState":{"key":"14","name":"Sachsen"}},{"name":"Sachsenburger Weg","postalCode":"24351","locality":"Thumby","municipality":{"key":"01058162","name":"Thumby","type":"Kreisangehörige_Gemeinde"},"district":{"key":"01058","name":"Rendsburg-Eckernförde","type":"Kreis"},"federalState":{"key":"01","name":"Schleswig-Holstein"}},{"name":"Sachsweiherstr.","postalCode":"91281","locality":"Kirchenthumbach","municipality":{"key":"09374129","name":"Kirchenthumbach, M","type":"Markt"},"district":{"key":"09374","name":"Neustadt a.d.Waldnaab","type":"Landkreis"},"federalState":{"key":"09","name":"Bayern"}},{"name":"Säufersteig","postalCode":"01877","locality":"Demitz-Thumitz","municipality":{"key":"14625100","name":"Demitz-Thumitz","type":"Kreisangehörige_Gemeinde"},"district":{"key":"14625","name":"Bautzen","type":"Landkreis"},"federalState":{"key":"14","name":"Sachsen"}},{"name":"Schauerhofstr.","postalCode":"09419","locality":"Thum","municipality":{"key":"14521640","name":"Thum, Stadt","type":"Stadt"},"district":{"key":"14521","name":"Erzgebirgskreis","type":"Landkreis"},"federalState":{"key":"14","name":"Sachsen"}},{"name":"Schlattermühlweg","postalCode":"91281","locality":"Kirchenthumbach","municipality":{"key":"09374129","name":"Kirchenthumbach, M","type":"Markt"},"district":{"key":"09374","name":"Neustadt a.d.Waldnaab","type":"Landkreis"},"federalState":{"key":"09","name":"Bayern"}},{"name":"Schlehenweg","postalCode":"91281","locality":"Kirchenthumbach","municipality":{"key":"09374129","name":"Kirchenthumbach, M","type":"Markt"},"district":{"key":"09374","name":"Neustadt a.d.Waldnaab","type":"Landkreis"},"federalState":{"key":"09","name":"Bayern"}},{"name":"Schleiweg","postalCode":"24351","locality":"Thumby","municipality":{"key":"01058162","name":"Thumby","type":"Kreisangehörige_Gemeinde"},"district":{"key":"01058","name":"Rendsburg-Eckernförde","type":"Kreis"},"federalState":{"key":"01","name":"Schleswig-Holstein"}},{"name":"Schlittweg","postalCode":"67308","locality":"Einselthum","municipality":{"key":"07333018","name":"Einselthum","type":"Kreisangehörige_Gemeinde"},"district":{"key":"07333","name":"Donnersbergkreis","type":"Landkreis"},"federalState":{"key":"07","name":"Rheinland-Pfalz"}},{"name":"Schlossallee","postalCode":"01877","locality":"Demitz-Thumitz","municipality":{"key":"14625100","name":"Demitz-Thumitz","type":"Kreisangehörige_Gemeinde"},"district":{"key":"14625","name":"Bautzen","type":"Landkreis"},"federalState":{"key":"14","name":"Sachsen"}},{"name":"Schloßgasse","postalCode":"91281","locality":"Kirchenthumbach","municipality":{"key":"09374129","name":"Kirchenthumbach, M","type":"Markt"},"district":{"key":"09374","name":"Neustadt a.d.Waldnaab","type":"Landkreis"},"federalState":{"key":"09","name":"Bayern"}},{"name":"Schloßstr.","postalCode":"91281","locality":"Kirchenthumbach","municipality":{"key":"09374129","name":"Kirchenthumbach, M","type":"Markt"},"district":{"key":"09374","name":"Neustadt a.d.Waldnaab","type":"Landkreis"},"federalState":{"key":"09","name":"Bayern"}},{"name":"Schmiedberg","postalCode":"91281","locality":"Kirchenthumbach","municipality":{"key":"09374129","name":"Kirchenthumbach, M","type":"Markt"},"district":{"key":"09374","name":"Neustadt a.d.Waldnaab","type":"Landkreis"},"federalState":{"key":"09","name":"Bayern"}},{"name":"Schmiedegäßchen","postalCode":"01877","locality":"Demitz-Thumitz","municipality":{"key":"14625100","name":"Demitz-Thumitz","type":"Kreisangehörige_Gemeinde"},"district":{"key":"14625","name":"Bautzen","type":"Landkreis"},"federalState":{"key":"14","name":"Sachsen"}},{"name":"Schmiedegasse","postalCode":"09419","locality":"Thum","municipality":{"key":"14521640","name":"Thum, Stadt","type":"Stadt"},"district":{"key":"14521","name":"Erzgebirgskreis","type":"Landkreis"},"federalState":{"key":"14","name":"Sachsen"}},{"name":"Schmöllner Str.","postalCode":"01877","locality":"Demitz-Thumitz","municipality":{"key":"14625100","name":"Demitz-Thumitz","type":"Kreisangehörige_Gemeinde"},"district":{"key":"14625","name":"Bautzen","type":"Landkreis"},"federalState":{"key":"14","name":"Sachsen"}},{"name":"Schnaruper Str.","postalCode":"24891","locality":"Schnarup-Thumby","municipality":{"key":"01059076","name":"Schnarup-Thumby","type":"Kreisangehörige_Gemeinde"},"district":{"key":"01059","name":"Schleswig-Flensburg","type":"Kreis"},"federalState":{"key":"01","name":"Schleswig-Holstein"}},{"name":"Schönbrunner Str.","postalCode":"01877","locality":"Demitz-Thumitz","municipality":{"key":"14625100","name":"Demitz-Thumitz","type":"Kreisangehörige_Gemeinde"},"district":{"key":"14625","name":"Bautzen","type":"Landkreis"},"federalState":{"key":"14","name":"Sachsen"}},{"name":"Schulgäßchen","postalCode":"91281","locality":"Kirchenthumbach","municipality":{"key":"09374129","name":"Kirchenthumbach, M","type":"Markt"},"district":{"key":"09374","name":"Neustadt a.d.Waldnaab","type":"Landkreis"},"federalState":{"key":"09","name":"Bayern"}},{"name":"Schulsteg","postalCode":"01877","locality":"Demitz-Thumitz","municipality":{"key":"14625100","name":"Demitz-Thumitz","type":"Kreisangehörige_Gemeinde"},"district":{"key":"14625","name":"Bautzen","type":"Landkreis"},"federalState":{"key":"14","name":"Sachsen"}},{"name":"Schulstr.","postalCode":"01877","locality":"Demitz-Thumitz","municipality":{"key":"14625100","name":"Demitz-Thumitz","type":"Kreisangehörige_Gemeinde"},"district":{"key":"14625","name":"Bautzen","type":"Landkreis"},"federalState":{"key":"14","name":"Sachsen"}},{"name":"Schulstr.","postalCode":"09419","locality":"Thum","municipality":{"key":"14521640","name":"Thum, Stadt","type":"Stadt"},"district":{"key":"14521","name":"Erzgebirgskreis","type":"Landkreis"},"federalState":{"key":"14","name":"Sachsen"}},{"name":"Schulstr.","postalCode":"54668","locality":"Holsthum","municipality":{"key":"07232053","name":"Holsthum","type":"Kreisangehörige_Gemeinde"},"district":{"key":"07232","name":"Eifelkreis Bitburg-Prüm","type":"Landkreis"},"federalState":{"key":"07","name":"Rheinland-Pfalz"}},{"name":"Schulstr.","postalCode":"67308","locality":"Einselthum","municipality":{"key":"07333018","name":"Einselthum","type":"Kreisangehörige_Gemeinde"},"district":{"key":"07333","name":"Donnersbergkreis","type":"Landkreis"},"federalState":{"key":"07","name":"Rheinland-Pfalz"}},{"name":"Schupfenwiesen","postalCode":"91281","locality":"Kirchenthumbach","municipality":{"key":"09374129","name":"Kirchenthumbach, M","type":"Markt"},"district":{"key":"09374","name":"Neustadt a.d.Waldnaab","type":"Landkreis"},"federalState":{"key":"09","name":"Bayern"}},{"name":"Schwalbenweg","postalCode":"91281","locality":"Kirchenthumbach","municipality":{"key":"09374129","name":"Kirchenthumbach, M","type":"Markt"},"district":{"key":"09374","name":"Neustadt a.d.Waldnaab","type":"Landkreis"},"federalState":{"key":"09","name":"Bayern"}},{"name":"Schwansenstr.","postalCode":"24351","locality":"Thumby","municipality":{"key":"01058162","name":"Thumby","type":"Kreisangehörige_Gemeinde"},"district":{"key":"01058","name":"Rendsburg-Eckernförde","type":"Kreis"},"federalState":{"key":"01","name":"Schleswig-Holstein"}},{"name":"Sensby","postalCode":"24351","locality":"Thumby","municipality":{"key":"01058162","name":"Thumby","type":"Kreisangehörige_Gemeinde"},"district":{"key":"01058","name":"Rendsburg-Eckernförde","type":"Kreis"},"federalState":{"key":"01","name":"Schleswig-Holstein"}},{"name":"Siedlerstr.","postalCode":"01877","locality":"Demitz-Thumitz","municipality":{"key":"14625100","name":"Demitz-Thumitz","type":"Kreisangehörige_Gemeinde"},"district":{"key":"14625","name":"Bautzen","type":"Landkreis"},"federalState":{"key":"14","name":"Sachsen"}},{"name":"Siedlung der Freundschaft","postalCode":"09419","locality":"Thum","municipality":{"key":"14521640","name":"Thum, Stadt","type":"Stadt"},"district":{"key":"14521","name":"Erzgebirgskreis","type":"Landkreis"},"federalState":{"key":"14","name":"Sachsen"}},{"name":"Sonnenleite","postalCode":"91281","locality":"Kirchenthumbach","municipality":{"key":"09374129","name":"Kirchenthumbach, M","type":"Markt"},"district":{"key":"09374","name":"Neustadt a.d.Waldnaab","type":"Landkreis"},"federalState":{"key":"09","name":"Bayern"}},{"name":"Stadtpark Thum","postalCode":"09419","locality":"Thum","municipality":{"key":"14521640","name":"Thum, Stadt","type":"Stadt"},"district":{"key":"14521","name":"Erzgebirgskreis","type":"Landkreis"},"federalState":{"key":"14","name":"Sachsen"}},{"name":"Steinfichten","postalCode":"91281","locality":"Kirchenthumbach","municipality":{"key":"09374129","name":"Kirchenthumbach, M","type":"Markt"},"district":{"key":"09374","name":"Neustadt a.d.Waldnaab","type":"Landkreis"},"federalState":{"key":"09","name":"Bayern"}},{"name":"Stetter Weg","postalCode":"67308","locality":"Einselthum","municipality":{"key":"07333018","name":"Einselthum","type":"Kreisangehörige_Gemeinde"},"district":{"key":"07333","name":"Donnersbergkreis","type":"Landkreis"},"federalState":{"key":"07","name":"Rheinland-Pfalz"}},{"name":"Stollberger Str.","postalCode":"09419","locality":"Thum","municipality":{"key":"14521640","name":"Thum, Stadt","type":"Stadt"},"district":{"key":"14521","name":"Erzgebirgskreis","type":"Landkreis"},"federalState":{"key":"14","name":"Sachsen"}},{"name":"Str. der Einheit","postalCode":"01877","locality":"Demitz-Thumitz","municipality":{"key":"14625100","name":"Demitz-Thumitz","type":"Kreisangehörige_Gemeinde"},"district":{"key":"14625","name":"Bautzen","type":"Landkreis"},"federalState":{"key":"14","name":"Sachsen"}},{"name":"Str. der Einheit","postalCode":"09419","locality":"Thum","municipality":{"key":"14521640","name":"Thum, Stadt","type":"Stadt"},"district":{"key":"14521","name":"Erzgebirgskreis","type":"Landkreis"},"federalState":{"key":"14","name":"Sachsen"}},{"name":"Str. der Freundschaft","postalCode":"09419","locality":"Thum","municipality":{"key":"14521640","name":"Thum, Stadt","type":"Stadt"},"district":{"key":"14521","name":"Erzgebirgskreis","type":"Landkreis"},"federalState":{"key":"14","name":"Sachsen"}},{"name":"Str. der Jugend","postalCode":"01877","locality":"Demitz-Thumitz","municipality":{"key":"14625100","name":"Demitz-Thumitz","type":"Kreisangehörige_Gemeinde"},"district":{"key":"14625","name":"Bautzen","type":"Landkreis"},"federalState":{"key":"14","name":"Sachsen"}},{"name":"Südstr.","postalCode":"01877","locality":"Demitz-Thumitz","municipality":{"key":"14625100","name":"Demitz-Thumitz","type":"Kreisangehörige_Gemeinde"},"district":{"key":"14625","name":"Bautzen","type":"Landkreis"},"federalState":{"key":"14","name":"Sachsen"}},{"name":"Talstr.","postalCode":"01877","locality":"Demitz-Thumitz","municipality":{"key":"14625100","name":"Demitz-Thumitz","type":"Kreisangehörige_Gemeinde"},"district":{"key":"14625","name":"Bautzen","type":"Landkreis"},"federalState":{"key":"14","name":"Sachsen"}},{"name":"Talstr.","postalCode":"09419","locality":"Thum","municipality":{"key":"14521640","name":"Thum, Stadt","type":"Stadt"},"district":{"key":"14521","name":"Erzgebirgskreis","type":"Landkreis"},"federalState":{"key":"14","name":"Sachsen"}},{"name":"Tannenweg","postalCode":"91281","locality":"Kirchenthumbach","municipality":{"key":"09374129","name":"Kirchenthumbach, M","type":"Markt"},"district":{"key":"09374","name":"Neustadt a.d.Waldnaab","type":"Landkreis"},"federalState":{"key":"09","name":"Bayern"}},{"name":"Taucherstr.","postalCode":"01877","locality":"Demitz-Thumitz","municipality":{"key":"14625100","name":"Demitz-Thumitz","type":"Kreisangehörige_Gemeinde"},"district":{"key":"14625","name":"Bautzen","type":"Landkreis"},"federalState":{"key":"14","name":"Sachsen"}},{"name":"Teichstr.","postalCode":"09419","locality":"Thum","municipality":{"key":"14521640","name":"Thum, Stadt","type":"Stadt"},"district":{"key":"14521","name":"Erzgebirgskreis","type":"Landkreis"},"federalState":{"key":"14","name":"Sachsen"}},{"name":"Thumby","postalCode":"24351","locality":"Thumby","municipality":{"key":"01058162","name":"Thumby","type":"Kreisangehörige_Gemeinde"},"district":{"key":"01058","name":"Rendsburg-Eckernförde","type":"Kreis"},"federalState":{"key":"01","name":"Schleswig-Holstein"}},{"name":"Thumby-West","postalCode":"24891","locality":"Schnarup-Thumby","municipality":{"key":"01059076","name":"Schnarup-Thumby","type":"Kreisangehörige_Gemeinde"},"district":{"key":"01059","name":"Schleswig-Flensburg","type":"Kreis"},"federalState":{"key":"01","name":"Schleswig-Holstein"}},{"name":"Thumer Str.","postalCode":"09419","locality":"Thum","municipality":{"key":"14521640","name":"Thum, Stadt","type":"Stadt"},"district":{"key":"14521","name":"Erzgebirgskreis","type":"Landkreis"},"federalState":{"key":"14","name":"Sachsen"}},{"name":"Torweg","postalCode":"01877","locality":"Demitz-Thumitz","municipality":{"key":"14625100","name":"Demitz-Thumitz","type":"Kreisangehörige_Gemeinde"},"district":{"key":"14625","name":"Bautzen","type":"Landkreis"},"federalState":{"key":"14","name":"Sachsen"}},{"name":"Tulpenstr.","postalCode":"91281","locality":"Kirchenthumbach","municipality":{"key":"09374129","name":"Kirchenthumbach, M","type":"Markt"},"district":{"key":"09374","name":"Neustadt a.d.Waldnaab","type":"Landkreis"},"federalState":{"key":"09","name":"Bayern"}},{"name":"Turmgasse","postalCode":"91281","locality":"Kirchenthumbach","municipality":{"key":"09374129","name":"Kirchenthumbach, M","type":"Markt"},"district":{"key":"09374","name":"Neustadt a.d.Waldnaab","type":"Landkreis"},"federalState":{"key":"09","name":"Bayern"}},{"name":"Turnerstr.","postalCode":"09419","locality":"Thum","municipality":{"key":"14521640","name":"Thum, Stadt","type":"Stadt"},"district":{"key":"14521","name":"Erzgebirgskreis","type":"Landkreis"},"federalState":{"key":"14","name":"Sachsen"}},{"name":"Uelsbyer Str.","postalCode":"24891","locality":"Schnarup-Thumby","municipality":{"key":"01059076","name":"Schnarup-Thumby","type":"Kreisangehörige_Gemeinde"},"district":{"key":"01059","name":"Schleswig-Flensburg","type":"Kreis"},"federalState":{"key":"01","name":"Schleswig-Holstein"}},{"name":"Uhyster Str.","postalCode":"01877","locality":"Demitz-Thumitz","municipality":{"key":"14625100","name":"Demitz-Thumitz","type":"Kreisangehörige_Gemeinde"},"district":{"key":"14625","name":"Bautzen","type":"Landkreis"},"federalState":{"key":"14","name":"Sachsen"}},{"name":"Waldstr.","postalCode":"91281","locality":"Kirchenthumbach","municipality":{"key":"09374129","name":"Kirchenthumbach, M","type":"Markt"},"district":{"key":"09374","name":"Neustadt a.d.Waldnaab","type":"Landkreis"},"federalState":{"key":"09","name":"Bayern"}},{"name":"Wasserweg","postalCode":"01877","locality":"Demitz-Thumitz","municipality":{"key":"14625100","name":"Demitz-Thumitz","type":"Kreisangehörige_Gemeinde"},"district":{"key":"14625","name":"Bautzen","type":"Landkreis"},"federalState":{"key":"14","name":"Sachsen"}},{"name":"Wasserweg","postalCode":"67308","locality":"Einselthum","municipality":{"key":"07333018","name":"Einselthum","type":"Kreisangehörige_Gemeinde"},"district":{"key":"07333","name":"Donnersbergkreis","type":"Landkreis"},"federalState":{"key":"07","name":"Rheinland-Pfalz"}},{"name":"Wehrweg","postalCode":"91281","locality":"Kirchenthumbach","municipality":{"key":"09374129","name":"Kirchenthumbach, M","type":"Markt"},"district":{"key":"09374","name":"Neustadt a.d.Waldnaab","type":"Landkreis"},"federalState":{"key":"09","name":"Bayern"}},{"name":"Weinbergstr.","postalCode":"91281","locality":"Kirchenthumbach","municipality":{"key":"09374129","name":"Kirchenthumbach, M","type":"Markt"},"district":{"key":"09374","name":"Neustadt a.d.Waldnaab","type":"Landkreis"},"federalState":{"key":"09","name":"Bayern"}},{"name":"Weststr.","postalCode":"09419","locality":"Thum","municipality":{"key":"14521640","name":"Thum, Stadt","type":"Stadt"},"district":{"key":"14521","name":"Erzgebirgskreis","type":"Landkreis"},"federalState":{"key":"14","name":"Sachsen"}},{"name":"Wetzelstr.","postalCode":"67308","locality":"Einselthum","municipality":{"key":"07333018","name":"Einselthum","type":"Kreisangehörige_Gemeinde"},"district":{"key":"07333","name":"Donnersbergkreis","type":"Landkreis"},"federalState":{"key":"07","name":"Rheinland-Pfalz"}},{"name":"Wiesenstr.","postalCode":"09419","locality":"Thum","municipality":{"key":"14521640","name":"Thum, Stadt","type":"Stadt"},"district":{"key":"14521","name":"Erzgebirgskreis","type":"Landkreis"},"federalState":{"key":"14","name":"Sachsen"}},{"name":"Wiesenstr.","postalCode":"67308","locality":"Einselthum","municipality":{"key":"07333018","name":"Einselthum","type":"Kreisangehörige_Gemeinde"},"district":{"key":"07333","name":"Donnersbergkreis","type":"Landkreis"},"federalState":{"key":"07","name":"Rheinland-Pfalz"}},{"name":"Wiesenstr.","postalCode":"91281","locality":"Kirchenthumbach","municipality":{"key":"09374129","name":"Kirchenthumbach, M","type":"Markt"},"district":{"key":"09374","name":"Neustadt a.d.Waldnaab","type":"Landkreis"},"federalState":{"key":"09","name":"Bayern"}},{"name":"Wiesenweg","postalCode":"24891","locality":"Schnarup-Thumby","municipality":{"key":"01059076","name":"Schnarup-Thumby","type":"Kreisangehörige_Gemeinde"},"district":{"key":"01059","name":"Schleswig-Flensburg","type":"Kreis"},"federalState":{"key":"01","name":"Schleswig-Holstein"}},{"name":"Wolsfelder Str.","postalCode":"54668","locality":"Holsthum","municipality":{"key":"07232053","name":"Holsthum","type":"Kreisangehörige_Gemeinde"},"district":{"key":"07232","name":"Eifelkreis Bitburg-Prüm","type":"Landkreis"},"federalState":{"key":"07","name":"Rheinland-Pfalz"}},{"name":"Zechenstr.","postalCode":"09419","locality":"Thum","municipality":{"key":"14521640","name":"Thum, Stadt","type":"Stadt"},"district":{"key":"14521","name":"Erzgebirgskreis","type":"Landkreis"},"federalState":{"key":"14","name":"Sachsen"}},{"name":"Ziegeleiweg","postalCode":"01877","locality":"Demitz-Thumitz","municipality":{"key":"14625100","name":"Demitz-Thumitz","type":"Kreisangehörige_Gemeinde"},"district":{"key":"14625","name":"Bautzen","type":"Landkreis"},"federalState":{"key":"14","name":"Sachsen"}},{"name":"Ziegelranken","postalCode":"91281","locality":"Kirchenthumbach","municipality":{"key":"09374129","name":"Kirchenthumbach, M","type":"Markt"},"district":{"key":"09374","name":"Neustadt a.d.Waldnaab","type":"Landkreis"},"federalState":{"key":"09","name":"Bayern"}},{"name":"Zirkendorfer Str.","postalCode":"91281","locality":"Kirchenthumbach","municipality":{"key":"09374129","name":"Kirchenthumbach, M","type":"Markt"},"district":{"key":"09374","name":"Neustadt a.d.Waldnaab","type":"Landkreis"},"federalState":{"key":"09","name":"Bayern"}},{"name":"Zschopauer Str.","postalCode":"09419","locality":"Thum","municipality":{"key":"14521640","name":"Thum, Stadt","type":"Stadt"},"district":{"key":"14521","name":"Erzgebirgskreis","type":"Landkreis"},"federalState":{"key":"14","name":"Sachsen"}},{"name":"Zum Sportplatz","postalCode":"09419","locality":"Thum","municipality":{"key":"14521640","name":"Thum, Stadt","type":"Stadt"},"district":{"key":"14521","name":"Erzgebirgskreis","type":"Landkreis"},"federalState":{"key":"14","name":"Sachsen"}},]