[{"name":"1000m-Weg","postalCode":"72270","locality":"Baiersbronn","municipality":{"key":"08237004","name":"Baiersbronn","type":"Kreisangehörige_Gemeinde"},"district":{"key":"08237","name":"Freudenstadt","type":"Landkreis"},"federalState":{"key":"08","name":"Baden-Württemberg"}},{"name":"Abkürzung Zollstock-Loipe","postalCode":"72270","locality":"Baiersbronn","municipality":{"key":"08237004","name":"Baiersbronn","type":"Kreisangehörige_Gemeinde"},"district":{"key":"08237","name":"Freudenstadt","type":"Landkreis"},"federalState":{"key":"08","name":"Baden-Württemberg"}},{"name":"Ackerweg","postalCode":"72270","locality":"Baiersbronn","municipality":{"key":"08237004","name":"Baiersbronn","type":"Kreisangehörige_Gemeinde"},"district":{"key":"08237","name":"Freudenstadt","type":"Landkreis"},"federalState":{"key":"08","name":"Baden-Württemberg"}},{"name":"Ahornweg","postalCode":"72270","locality":"Baiersbronn","municipality":{"key":"08237004","name":"Baiersbronn","type":"Kreisangehörige_Gemeinde"},"district":{"key":"08237","name":"Freudenstadt","type":"Landkreis"},"federalState":{"key":"08","name":"Baden-Württemberg"}},{"name":"Ailwaldweg","postalCode":"72270","locality":"Baiersbronn","municipality":{"key":"08237004","name":"Baiersbronn","type":"Kreisangehörige_Gemeinde"},"district":{"key":"08237","name":"Freudenstadt","type":"Landkreis"},"federalState":{"key":"08","name":"Baden-Württemberg"}},{"name":"Alfredstr.","postalCode":"72270","locality":"Baiersbronn","municipality":{"key":"08237004","name":"Baiersbronn","type":"Kreisangehörige_Gemeinde"},"district":{"key":"08237","name":"Freudenstadt","type":"Landkreis"},"federalState":{"key":"08","name":"Baden-Württemberg"}},{"name":"Allerheiligenschleifweg","postalCode":"72270","locality":"Baiersbronn","municipality":{"key":"08237004","name":"Baiersbronn","type":"Kreisangehörige_Gemeinde"},"district":{"key":"08237","name":"Freudenstadt","type":"Landkreis"},"federalState":{"key":"08","name":"Baden-Württemberg"}},{"name":"Allerheiligensträßchen","postalCode":"72270","locality":"Baiersbronn","municipality":{"key":"08237004","name":"Baiersbronn","type":"Kreisangehörige_Gemeinde"},"district":{"key":"08237","name":"Freudenstadt","type":"Landkreis"},"federalState":{"key":"08","name":"Baden-Württemberg"}},{"name":"Allerheiligenweg","postalCode":"72270","locality":"Baiersbronn","municipality":{"key":"08237004","name":"Baiersbronn","type":"Kreisangehörige_Gemeinde"},"district":{"key":"08237","name":"Freudenstadt","type":"Landkreis"},"federalState":{"key":"08","name":"Baden-Württemberg"}},{"name":"Alte Gasse","postalCode":"72270","locality":"Baiersbronn","municipality":{"key":"08237004","name":"Baiersbronn","type":"Kreisangehörige_Gemeinde"},"district":{"key":"08237","name":"Freudenstadt","type":"Landkreis"},"federalState":{"key":"08","name":"Baden-Württemberg"}},{"name":"Alte Reichenbacher Str.","postalCode":"72270","locality":"Baiersbronn","municipality":{"key":"08237004","name":"Baiersbronn","type":"Kreisangehörige_Gemeinde"},"district":{"key":"08237","name":"Freudenstadt","type":"Landkreis"},"federalState":{"key":"08","name":"Baden-Württemberg"}},{"name":"Alter Kurgarten","postalCode":"72270","locality":"Baiersbronn","municipality":{"key":"08237004","name":"Baiersbronn","type":"Kreisangehörige_Gemeinde"},"district":{"key":"08237","name":"Freudenstadt","type":"Landkreis"},"federalState":{"key":"08","name":"Baden-Württemberg"}},{"name":"Alter Tonbachweg","postalCode":"72270","locality":"Baiersbronn","municipality":{"key":"08237004","name":"Baiersbronn","type":"Kreisangehörige_Gemeinde"},"district":{"key":"08237","name":"Freudenstadt","type":"Landkreis"},"federalState":{"key":"08","name":"Baden-Württemberg"}},{"name":"Alte Ruhesteinstr.","postalCode":"72270","locality":"Baiersbronn","municipality":{"key":"08237004","name":"Baiersbronn","type":"Kreisangehörige_Gemeinde"},"district":{"key":"08237","name":"Freudenstadt","type":"Landkreis"},"federalState":{"key":"08","name":"Baden-Württemberg"}},{"name":"Alte Ruhesteinstr./Terrainkurweg","postalCode":"72270","locality":"Baiersbronn","municipality":{"key":"08237004","name":"Baiersbronn","type":"Kreisangehörige_Gemeinde"},"district":{"key":"08237","name":"Freudenstadt","type":"Landkreis"},"federalState":{"key":"08","name":"Baden-Württemberg"}},{"name":"Alter Weg","postalCode":"72270","locality":"Baiersbronn","municipality":{"key":"08237004","name":"Baiersbronn","type":"Kreisangehörige_Gemeinde"},"district":{"key":"08237","name":"Freudenstadt","type":"Landkreis"},"federalState":{"key":"08","name":"Baden-Württemberg"}},{"name":"Alte Tonbachstr.","postalCode":"72270","locality":"Baiersbronn","municipality":{"key":"08237004","name":"Baiersbronn","type":"Kreisangehörige_Gemeinde"},"district":{"key":"08237","name":"Freudenstadt","type":"Landkreis"},"federalState":{"key":"08","name":"Baden-Württemberg"}},{"name":"Alte Weinstr.","postalCode":"72270","locality":"Baiersbronn","municipality":{"key":"08237004","name":"Baiersbronn","type":"Kreisangehörige_Gemeinde"},"district":{"key":"08237","name":"Freudenstadt","type":"Landkreis"},"federalState":{"key":"08","name":"Baden-Württemberg"}},{"name":"Altmühleweg","postalCode":"72270","locality":"Baiersbronn","municipality":{"key":"08237004","name":"Baiersbronn","type":"Kreisangehörige_Gemeinde"},"district":{"key":"08237","name":"Freudenstadt","type":"Landkreis"},"federalState":{"key":"08","name":"Baden-Württemberg"}},{"name":"Am Bannwald","postalCode":"72270","locality":"Baiersbronn","municipality":{"key":"08237004","name":"Baiersbronn","type":"Kreisangehörige_Gemeinde"},"district":{"key":"08237","name":"Freudenstadt","type":"Landkreis"},"federalState":{"key":"08","name":"Baden-Württemberg"}},{"name":"Am Baumgarten","postalCode":"72270","locality":"Baiersbronn","municipality":{"key":"08237004","name":"Baiersbronn","type":"Kreisangehörige_Gemeinde"},"district":{"key":"08237","name":"Freudenstadt","type":"Landkreis"},"federalState":{"key":"08","name":"Baden-Württemberg"}},{"name":"Am Berg","postalCode":"72270","locality":"Baiersbronn","municipality":{"key":"08237004","name":"Baiersbronn","type":"Kreisangehörige_Gemeinde"},"district":{"key":"08237","name":"Freudenstadt","type":"Landkreis"},"federalState":{"key":"08","name":"Baden-Württemberg"}},{"name":"Am Bühl","postalCode":"72270","locality":"Baiersbronn","municipality":{"key":"08237004","name":"Baiersbronn","type":"Kreisangehörige_Gemeinde"},"district":{"key":"08237","name":"Freudenstadt","type":"Landkreis"},"federalState":{"key":"08","name":"Baden-Württemberg"}},{"name":"Am Gretzenbühl","postalCode":"72270","locality":"Baiersbronn","municipality":{"key":"08237004","name":"Baiersbronn","type":"Kreisangehörige_Gemeinde"},"district":{"key":"08237","name":"Freudenstadt","type":"Landkreis"},"federalState":{"key":"08","name":"Baden-Württemberg"}},{"name":"Am Hänger","postalCode":"72270","locality":"Baiersbronn","municipality":{"key":"08237004","name":"Baiersbronn","type":"Kreisangehörige_Gemeinde"},"district":{"key":"08237","name":"Freudenstadt","type":"Landkreis"},"federalState":{"key":"08","name":"Baden-Württemberg"}},{"name":"Am Klosterhof","postalCode":"72270","locality":"Baiersbronn","municipality":{"key":"08237004","name":"Baiersbronn","type":"Kreisangehörige_Gemeinde"},"district":{"key":"08237","name":"Freudenstadt","type":"Landkreis"},"federalState":{"key":"08","name":"Baden-Württemberg"}},{"name":"Am Königshammer","postalCode":"72270","locality":"Baiersbronn","municipality":{"key":"08237004","name":"Baiersbronn","type":"Kreisangehörige_Gemeinde"},"district":{"key":"08237","name":"Freudenstadt","type":"Landkreis"},"federalState":{"key":"08","name":"Baden-Württemberg"}},{"name":"Am Kurgarten","postalCode":"72270","locality":"Baiersbronn","municipality":{"key":"08237004","name":"Baiersbronn","type":"Kreisangehörige_Gemeinde"},"district":{"key":"08237","name":"Freudenstadt","type":"Landkreis"},"federalState":{"key":"08","name":"Baden-Württemberg"}},{"name":"Am Mühlkanal","postalCode":"72270","locality":"Baiersbronn","municipality":{"key":"08237004","name":"Baiersbronn","type":"Kreisangehörige_Gemeinde"},"district":{"key":"08237","name":"Freudenstadt","type":"Landkreis"},"federalState":{"key":"08","name":"Baden-Württemberg"}},{"name":"Am Rechen","postalCode":"72270","locality":"Baiersbronn","municipality":{"key":"08237004","name":"Baiersbronn","type":"Kreisangehörige_Gemeinde"},"district":{"key":"08237","name":"Freudenstadt","type":"Landkreis"},"federalState":{"key":"08","name":"Baden-Württemberg"}},{"name":"Am Röhrsbächle","postalCode":"72270","locality":"Baiersbronn","municipality":{"key":"08237004","name":"Baiersbronn","type":"Kreisangehörige_Gemeinde"},"district":{"key":"08237","name":"Freudenstadt","type":"Landkreis"},"federalState":{"key":"08","name":"Baden-Württemberg"}},{"name":"Am Rosenpark","postalCode":"72270","locality":"Baiersbronn","municipality":{"key":"08237004","name":"Baiersbronn","type":"Kreisangehörige_Gemeinde"},"district":{"key":"08237","name":"Freudenstadt","type":"Landkreis"},"federalState":{"key":"08","name":"Baden-Württemberg"}},{"name":"Am Schleifwasen","postalCode":"72270","locality":"Baiersbronn","municipality":{"key":"08237004","name":"Baiersbronn","type":"Kreisangehörige_Gemeinde"},"district":{"key":"08237","name":"Freudenstadt","type":"Landkreis"},"federalState":{"key":"08","name":"Baden-Württemberg"}},{"name":"Am Schulhaus","postalCode":"72270","locality":"Baiersbronn","municipality":{"key":"08237004","name":"Baiersbronn","type":"Kreisangehörige_Gemeinde"},"district":{"key":"08237","name":"Freudenstadt","type":"Landkreis"},"federalState":{"key":"08","name":"Baden-Württemberg"}},{"name":"Amselweg","postalCode":"72270","locality":"Baiersbronn","municipality":{"key":"08237004","name":"Baiersbronn","type":"Kreisangehörige_Gemeinde"},"district":{"key":"08237","name":"Freudenstadt","type":"Landkreis"},"federalState":{"key":"08","name":"Baden-Württemberg"}},{"name":"Am Sensenhammer","postalCode":"72270","locality":"Baiersbronn","municipality":{"key":"08237004","name":"Baiersbronn","type":"Kreisangehörige_Gemeinde"},"district":{"key":"08237","name":"Freudenstadt","type":"Landkreis"},"federalState":{"key":"08","name":"Baden-Württemberg"}},{"name":"Am Steigle","postalCode":"72270","locality":"Baiersbronn","municipality":{"key":"08237004","name":"Baiersbronn","type":"Kreisangehörige_Gemeinde"},"district":{"key":"08237","name":"Freudenstadt","type":"Landkreis"},"federalState":{"key":"08","name":"Baden-Württemberg"}},{"name":"Am Steinberg","postalCode":"72270","locality":"Baiersbronn","municipality":{"key":"08237004","name":"Baiersbronn","type":"Kreisangehörige_Gemeinde"},"district":{"key":"08237","name":"Freudenstadt","type":"Landkreis"},"federalState":{"key":"08","name":"Baden-Württemberg"}},{"name":"Am Stuhlberg","postalCode":"72270","locality":"Baiersbronn","municipality":{"key":"08237004","name":"Baiersbronn","type":"Kreisangehörige_Gemeinde"},"district":{"key":"08237","name":"Freudenstadt","type":"Landkreis"},"federalState":{"key":"08","name":"Baden-Württemberg"}},{"name":"Am Vogelherd","postalCode":"72270","locality":"Baiersbronn","municipality":{"key":"08237004","name":"Baiersbronn","type":"Kreisangehörige_Gemeinde"},"district":{"key":"08237","name":"Freudenstadt","type":"Landkreis"},"federalState":{"key":"08","name":"Baden-Württemberg"}},{"name":"Am Wiesenrain","postalCode":"72270","locality":"Baiersbronn","municipality":{"key":"08237004","name":"Baiersbronn","type":"Kreisangehörige_Gemeinde"},"district":{"key":"08237","name":"Freudenstadt","type":"Landkreis"},"federalState":{"key":"08","name":"Baden-Württemberg"}},{"name":"Am Wieshörnle","postalCode":"72270","locality":"Baiersbronn","municipality":{"key":"08237004","name":"Baiersbronn","type":"Kreisangehörige_Gemeinde"},"district":{"key":"08237","name":"Freudenstadt","type":"Landkreis"},"federalState":{"key":"08","name":"Baden-Württemberg"}},{"name":"An der Sattelei","postalCode":"72270","locality":"Baiersbronn","municipality":{"key":"08237004","name":"Baiersbronn","type":"Kreisangehörige_Gemeinde"},"district":{"key":"08237","name":"Freudenstadt","type":"Landkreis"},"federalState":{"key":"08","name":"Baden-Württemberg"}},{"name":"An der Staig","postalCode":"72270","locality":"Baiersbronn","municipality":{"key":"08237004","name":"Baiersbronn","type":"Kreisangehörige_Gemeinde"},"district":{"key":"08237","name":"Freudenstadt","type":"Landkreis"},"federalState":{"key":"08","name":"Baden-Württemberg"}},{"name":"Au","postalCode":"72270","locality":"Baiersbronn","municipality":{"key":"08237004","name":"Baiersbronn","type":"Kreisangehörige_Gemeinde"},"district":{"key":"08237","name":"Freudenstadt","type":"Landkreis"},"federalState":{"key":"08","name":"Baden-Württemberg"}},{"name":"Aureuteweg","postalCode":"72270","locality":"Baiersbronn","municipality":{"key":"08237004","name":"Baiersbronn","type":"Kreisangehörige_Gemeinde"},"district":{"key":"08237","name":"Freudenstadt","type":"Landkreis"},"federalState":{"key":"08","name":"Baden-Württemberg"}},{"name":"Bahnhofstr.","postalCode":"72270","locality":"Baiersbronn","municipality":{"key":"08237004","name":"Baiersbronn","type":"Kreisangehörige_Gemeinde"},"district":{"key":"08237","name":"Freudenstadt","type":"Landkreis"},"federalState":{"key":"08","name":"Baden-Württemberg"}},{"name":"Baiersbronner Str.","postalCode":"72270","locality":"Baiersbronn","municipality":{"key":"08237004","name":"Baiersbronn","type":"Kreisangehörige_Gemeinde"},"district":{"key":"08237","name":"Freudenstadt","type":"Landkreis"},"federalState":{"key":"08","name":"Baden-Württemberg"}},{"name":"Bärenteichweg","postalCode":"72270","locality":"Baiersbronn","municipality":{"key":"08237004","name":"Baiersbronn","type":"Kreisangehörige_Gemeinde"},"district":{"key":"08237","name":"Freudenstadt","type":"Landkreis"},"federalState":{"key":"08","name":"Baden-Württemberg"}},{"name":"Beckenbergweg","postalCode":"72270","locality":"Baiersbronn","municipality":{"key":"08237004","name":"Baiersbronn","type":"Kreisangehörige_Gemeinde"},"district":{"key":"08237","name":"Freudenstadt","type":"Landkreis"},"federalState":{"key":"08","name":"Baden-Württemberg"}},{"name":"Beethovenstr.","postalCode":"72270","locality":"Baiersbronn","municipality":{"key":"08237004","name":"Baiersbronn","type":"Kreisangehörige_Gemeinde"},"district":{"key":"08237","name":"Freudenstadt","type":"Landkreis"},"federalState":{"key":"08","name":"Baden-Württemberg"}},{"name":"Bergergrundweg","postalCode":"72270","locality":"Baiersbronn","municipality":{"key":"08237004","name":"Baiersbronn","type":"Kreisangehörige_Gemeinde"},"district":{"key":"08237","name":"Freudenstadt","type":"Landkreis"},"federalState":{"key":"08","name":"Baden-Württemberg"}},{"name":"Bergerweg","postalCode":"72270","locality":"Baiersbronn","municipality":{"key":"08237004","name":"Baiersbronn","type":"Kreisangehörige_Gemeinde"},"district":{"key":"08237","name":"Freudenstadt","type":"Landkreis"},"federalState":{"key":"08","name":"Baden-Württemberg"}},{"name":"Bergerwiesenweg","postalCode":"72270","locality":"Baiersbronn","municipality":{"key":"08237004","name":"Baiersbronn","type":"Kreisangehörige_Gemeinde"},"district":{"key":"08237","name":"Freudenstadt","type":"Landkreis"},"federalState":{"key":"08","name":"Baden-Württemberg"}},{"name":"Besenfelder Str.","postalCode":"72270","locality":"Baiersbronn","municipality":{"key":"08237004","name":"Baiersbronn","type":"Kreisangehörige_Gemeinde"},"district":{"key":"08237","name":"Freudenstadt","type":"Landkreis"},"federalState":{"key":"08","name":"Baden-Württemberg"}},{"name":"Bildstöckleweg","postalCode":"72270","locality":"Baiersbronn","municipality":{"key":"08237004","name":"Baiersbronn","type":"Kreisangehörige_Gemeinde"},"district":{"key":"08237","name":"Freudenstadt","type":"Landkreis"},"federalState":{"key":"08","name":"Baden-Württemberg"}},{"name":"Birkenweg","postalCode":"72270","locality":"Baiersbronn","municipality":{"key":"08237004","name":"Baiersbronn","type":"Kreisangehörige_Gemeinde"},"district":{"key":"08237","name":"Freudenstadt","type":"Landkreis"},"federalState":{"key":"08","name":"Baden-Württemberg"}},{"name":"Blockhaus","postalCode":"72270","locality":"Baiersbronn","municipality":{"key":"08237004","name":"Baiersbronn","type":"Kreisangehörige_Gemeinde"},"district":{"key":"08237","name":"Freudenstadt","type":"Landkreis"},"federalState":{"key":"08","name":"Baden-Württemberg"}},{"name":"Böhringerweg","postalCode":"72270","locality":"Baiersbronn","municipality":{"key":"08237004","name":"Baiersbronn","type":"Kreisangehörige_Gemeinde"},"district":{"key":"08237","name":"Freudenstadt","type":"Landkreis"},"federalState":{"key":"08","name":"Baden-Württemberg"}},{"name":"Böserellbachsträßchen","postalCode":"72270","locality":"Baiersbronn","municipality":{"key":"08237004","name":"Baiersbronn","type":"Kreisangehörige_Gemeinde"},"district":{"key":"08237","name":"Freudenstadt","type":"Landkreis"},"federalState":{"key":"08","name":"Baden-Württemberg"}},{"name":"Braunengasse","postalCode":"72270","locality":"Baiersbronn","municipality":{"key":"08237004","name":"Baiersbronn","type":"Kreisangehörige_Gemeinde"},"district":{"key":"08237","name":"Freudenstadt","type":"Landkreis"},"federalState":{"key":"08","name":"Baden-Württemberg"}},{"name":"Bronnenstr.","postalCode":"72270","locality":"Baiersbronn","municipality":{"key":"08237004","name":"Baiersbronn","type":"Kreisangehörige_Gemeinde"},"district":{"key":"08237","name":"Freudenstadt","type":"Landkreis"},"federalState":{"key":"08","name":"Baden-Württemberg"}},{"name":"Brückenbergweg","postalCode":"72270","locality":"Baiersbronn","municipality":{"key":"08237004","name":"Baiersbronn","type":"Kreisangehörige_Gemeinde"},"district":{"key":"08237","name":"Freudenstadt","type":"Landkreis"},"federalState":{"key":"08","name":"Baden-Württemberg"}},{"name":"Brünnlesäcker","postalCode":"72270","locality":"Baiersbronn","municipality":{"key":"08237004","name":"Baiersbronn","type":"Kreisangehörige_Gemeinde"},"district":{"key":"08237","name":"Freudenstadt","type":"Landkreis"},"federalState":{"key":"08","name":"Baden-Württemberg"}},{"name":"Buchwellesweg","postalCode":"72270","locality":"Baiersbronn","municipality":{"key":"08237004","name":"Baiersbronn","type":"Kreisangehörige_Gemeinde"},"district":{"key":"08237","name":"Freudenstadt","type":"Landkreis"},"federalState":{"key":"08","name":"Baden-Württemberg"}},{"name":"Buhlbachsaue","postalCode":"72270","locality":"Baiersbronn","municipality":{"key":"08237004","name":"Baiersbronn","type":"Kreisangehörige_Gemeinde"},"district":{"key":"08237","name":"Freudenstadt","type":"Landkreis"},"federalState":{"key":"08","name":"Baden-Württemberg"}},{"name":"Buhlbachseeweg","postalCode":"72270","locality":"Baiersbronn","municipality":{"key":"08237004","name":"Baiersbronn","type":"Kreisangehörige_Gemeinde"},"district":{"key":"08237","name":"Freudenstadt","type":"Landkreis"},"federalState":{"key":"08","name":"Baden-Württemberg"}},{"name":"Bühlerweg","postalCode":"72270","locality":"Baiersbronn","municipality":{"key":"08237004","name":"Baiersbronn","type":"Kreisangehörige_Gemeinde"},"district":{"key":"08237","name":"Freudenstadt","type":"Landkreis"},"federalState":{"key":"08","name":"Baden-Württemberg"}},{"name":"Buhlsbachsaue","postalCode":"72270","locality":"Baiersbronn","municipality":{"key":"08237004","name":"Baiersbronn","type":"Kreisangehörige_Gemeinde"},"district":{"key":"08237","name":"Freudenstadt","type":"Landkreis"},"federalState":{"key":"08","name":"Baden-Württemberg"}},{"name":"Burrbachweg","postalCode":"72270","locality":"Baiersbronn","municipality":{"key":"08237004","name":"Baiersbronn","type":"Kreisangehörige_Gemeinde"},"district":{"key":"08237","name":"Freudenstadt","type":"Landkreis"},"federalState":{"key":"08","name":"Baden-Württemberg"}},{"name":"Carl-Beer-Str.","postalCode":"72250","locality":"Freudenstadt","municipality":{"key":"08237028","name":"Freudenstadt, Stadt","type":"Große_Kreisstadt"},"district":{"key":"08237","name":"Freudenstadt","type":"Landkreis"},"federalState":{"key":"08","name":"Baden-Württemberg"}},{"name":"Carl-Benz-Str.","postalCode":"72250","locality":"Freudenstadt","municipality":{"key":"08237028","name":"Freudenstadt, Stadt","type":"Große_Kreisstadt"},"district":{"key":"08237","name":"Freudenstadt","type":"Landkreis"},"federalState":{"key":"08","name":"Baden-Württemberg"}},{"name":"Carl-Zeiss-Str.","postalCode":"72250","locality":"Freudenstadt","municipality":{"key":"08237028","name":"Freudenstadt, Stadt","type":"Große_Kreisstadt"},"district":{"key":"08237","name":"Freudenstadt","type":"Landkreis"},"federalState":{"key":"08","name":"Baden-Württemberg"}},{"name":"Christophstaler Steige","postalCode":"72250","locality":"Freudenstadt","municipality":{"key":"08237028","name":"Freudenstadt, Stadt","type":"Große_Kreisstadt"},"district":{"key":"08237","name":"Freudenstadt","type":"Landkreis"},"federalState":{"key":"08","name":"Baden-Württemberg"}},{"name":"Christophstr.","postalCode":"72250","locality":"Freudenstadt","municipality":{"key":"08237028","name":"Freudenstadt, Stadt","type":"Große_Kreisstadt"},"district":{"key":"08237","name":"Freudenstadt","type":"Landkreis"},"federalState":{"key":"08","name":"Baden-Württemberg"}},{"name":"Clara-Schumann-Weg","postalCode":"72250","locality":"Freudenstadt","municipality":{"key":"08237028","name":"Freudenstadt, Stadt","type":"Große_Kreisstadt"},"district":{"key":"08237","name":"Freudenstadt","type":"Landkreis"},"federalState":{"key":"08","name":"Baden-Württemberg"}},{"name":"Dammweg","postalCode":"72270","locality":"Baiersbronn","municipality":{"key":"08237004","name":"Baiersbronn","type":"Kreisangehörige_Gemeinde"},"district":{"key":"08237","name":"Freudenstadt","type":"Landkreis"},"federalState":{"key":"08","name":"Baden-Württemberg"}},{"name":"Dommersbergweg","postalCode":"72270","locality":"Baiersbronn","municipality":{"key":"08237004","name":"Baiersbronn","type":"Kreisangehörige_Gemeinde"},"district":{"key":"08237","name":"Freudenstadt","type":"Landkreis"},"federalState":{"key":"08","name":"Baden-Württemberg"}},{"name":"Dorfstr.","postalCode":"72270","locality":"Baiersbronn","municipality":{"key":"08237004","name":"Baiersbronn","type":"Kreisangehörige_Gemeinde"},"district":{"key":"08237","name":"Freudenstadt","type":"Landkreis"},"federalState":{"key":"08","name":"Baden-Württemberg"}},{"name":"Dorfwiesen","postalCode":"72270","locality":"Baiersbronn","municipality":{"key":"08237004","name":"Baiersbronn","type":"Kreisangehörige_Gemeinde"},"district":{"key":"08237","name":"Freudenstadt","type":"Landkreis"},"federalState":{"key":"08","name":"Baden-Württemberg"}},{"name":"Dornstetter Weg","postalCode":"72270","locality":"Baiersbronn","municipality":{"key":"08237004","name":"Baiersbronn","type":"Kreisangehörige_Gemeinde"},"district":{"key":"08237","name":"Freudenstadt","type":"Landkreis"},"federalState":{"key":"08","name":"Baden-Württemberg"}},{"name":"Eckköpflesweg","postalCode":"72270","locality":"Baiersbronn","municipality":{"key":"08237004","name":"Baiersbronn","type":"Kreisangehörige_Gemeinde"},"district":{"key":"08237","name":"Freudenstadt","type":"Landkreis"},"federalState":{"key":"08","name":"Baden-Württemberg"}},{"name":"Ecklessträßle","postalCode":"72270","locality":"Baiersbronn","municipality":{"key":"08237004","name":"Baiersbronn","type":"Kreisangehörige_Gemeinde"},"district":{"key":"08237","name":"Freudenstadt","type":"Landkreis"},"federalState":{"key":"08","name":"Baden-Württemberg"}},{"name":"Ellbachstr.","postalCode":"72270","locality":"Baiersbronn","municipality":{"key":"08237004","name":"Baiersbronn","type":"Kreisangehörige_Gemeinde"},"district":{"key":"08237","name":"Freudenstadt","type":"Landkreis"},"federalState":{"key":"08","name":"Baden-Württemberg"}},{"name":"Ellbachweg","postalCode":"72270","locality":"Baiersbronn","municipality":{"key":"08237004","name":"Baiersbronn","type":"Kreisangehörige_Gemeinde"},"district":{"key":"08237","name":"Freudenstadt","type":"Landkreis"},"federalState":{"key":"08","name":"Baden-Württemberg"}},{"name":"Emersbachweg","postalCode":"72270","locality":"Baiersbronn","municipality":{"key":"08237004","name":"Baiersbronn","type":"Kreisangehörige_Gemeinde"},"district":{"key":"08237","name":"Freudenstadt","type":"Landkreis"},"federalState":{"key":"08","name":"Baden-Württemberg"}},{"name":"Erlenweg","postalCode":"72270","locality":"Baiersbronn","municipality":{"key":"08237004","name":"Baiersbronn","type":"Kreisangehörige_Gemeinde"},"district":{"key":"08237","name":"Freudenstadt","type":"Landkreis"},"federalState":{"key":"08","name":"Baden-Württemberg"}},{"name":"Erzweg","postalCode":"72270","locality":"Baiersbronn","municipality":{"key":"08237004","name":"Baiersbronn","type":"Kreisangehörige_Gemeinde"},"district":{"key":"08237","name":"Freudenstadt","type":"Landkreis"},"federalState":{"key":"08","name":"Baden-Württemberg"}},{"name":"Eulengrundweg","postalCode":"72270","locality":"Baiersbronn","municipality":{"key":"08237004","name":"Baiersbronn","type":"Kreisangehörige_Gemeinde"},"district":{"key":"08237","name":"Freudenstadt","type":"Landkreis"},"federalState":{"key":"08","name":"Baden-Württemberg"}},{"name":"Falkenstr.","postalCode":"72270","locality":"Baiersbronn","municipality":{"key":"08237004","name":"Baiersbronn","type":"Kreisangehörige_Gemeinde"},"district":{"key":"08237","name":"Freudenstadt","type":"Landkreis"},"federalState":{"key":"08","name":"Baden-Württemberg"}},{"name":"Finkenstr.","postalCode":"72270","locality":"Baiersbronn","municipality":{"key":"08237004","name":"Baiersbronn","type":"Kreisangehörige_Gemeinde"},"district":{"key":"08237","name":"Freudenstadt","type":"Landkreis"},"federalState":{"key":"08","name":"Baden-Württemberg"}},{"name":"Fischergrubweg","postalCode":"72270","locality":"Baiersbronn","municipality":{"key":"08237004","name":"Baiersbronn","type":"Kreisangehörige_Gemeinde"},"district":{"key":"08237","name":"Freudenstadt","type":"Landkreis"},"federalState":{"key":"08","name":"Baden-Württemberg"}},{"name":"Fischhausweg","postalCode":"72270","locality":"Baiersbronn","municipality":{"key":"08237004","name":"Baiersbronn","type":"Kreisangehörige_Gemeinde"},"district":{"key":"08237","name":"Freudenstadt","type":"Landkreis"},"federalState":{"key":"08","name":"Baden-Württemberg"}},{"name":"Flösserweg","postalCode":"72270","locality":"Baiersbronn","municipality":{"key":"08237004","name":"Baiersbronn","type":"Kreisangehörige_Gemeinde"},"district":{"key":"08237","name":"Freudenstadt","type":"Landkreis"},"federalState":{"key":"08","name":"Baden-Württemberg"}},{"name":"Forbachstr.","postalCode":"72270","locality":"Baiersbronn","municipality":{"key":"08237004","name":"Baiersbronn","type":"Kreisangehörige_Gemeinde"},"district":{"key":"08237","name":"Freudenstadt","type":"Landkreis"},"federalState":{"key":"08","name":"Baden-Württemberg"}},{"name":"Forststr.","postalCode":"72270","locality":"Baiersbronn","municipality":{"key":"08237004","name":"Baiersbronn","type":"Kreisangehörige_Gemeinde"},"district":{"key":"08237","name":"Freudenstadt","type":"Landkreis"},"federalState":{"key":"08","name":"Baden-Württemberg"}},{"name":"Forstweg","postalCode":"72270","locality":"Baiersbronn","municipality":{"key":"08237004","name":"Baiersbronn","type":"Kreisangehörige_Gemeinde"},"district":{"key":"08237","name":"Freudenstadt","type":"Landkreis"},"federalState":{"key":"08","name":"Baden-Württemberg"}},{"name":"Freudenstädter Str.","postalCode":"72270","locality":"Baiersbronn","municipality":{"key":"08237004","name":"Baiersbronn","type":"Kreisangehörige_Gemeinde"},"district":{"key":"08237","name":"Freudenstadt","type":"Landkreis"},"federalState":{"key":"08","name":"Baden-Württemberg"}},{"name":"Freyenhöfe","postalCode":"72270","locality":"Baiersbronn","municipality":{"key":"08237004","name":"Baiersbronn","type":"Kreisangehörige_Gemeinde"},"district":{"key":"08237","name":"Freudenstadt","type":"Landkreis"},"federalState":{"key":"08","name":"Baden-Württemberg"}},{"name":"Fuchslochweg","postalCode":"72270","locality":"Baiersbronn","municipality":{"key":"08237004","name":"Baiersbronn","type":"Kreisangehörige_Gemeinde"},"district":{"key":"08237","name":"Freudenstadt","type":"Landkreis"},"federalState":{"key":"08","name":"Baden-Württemberg"}},{"name":"Füllenbachweg","postalCode":"72270","locality":"Baiersbronn","municipality":{"key":"08237004","name":"Baiersbronn","type":"Kreisangehörige_Gemeinde"},"district":{"key":"08237","name":"Freudenstadt","type":"Landkreis"},"federalState":{"key":"08","name":"Baden-Württemberg"}},{"name":"Fürstenhüttenweg","postalCode":"72270","locality":"Baiersbronn","municipality":{"key":"08237004","name":"Baiersbronn","type":"Kreisangehörige_Gemeinde"},"district":{"key":"08237","name":"Freudenstadt","type":"Landkreis"},"federalState":{"key":"08","name":"Baden-Württemberg"}},{"name":"Gaiackerweg","postalCode":"72270","locality":"Baiersbronn","municipality":{"key":"08237004","name":"Baiersbronn","type":"Kreisangehörige_Gemeinde"},"district":{"key":"08237","name":"Freudenstadt","type":"Landkreis"},"federalState":{"key":"08","name":"Baden-Württemberg"}},{"name":"Gaishaselweg","postalCode":"72270","locality":"Baiersbronn","municipality":{"key":"08237004","name":"Baiersbronn","type":"Kreisangehörige_Gemeinde"},"district":{"key":"08237","name":"Freudenstadt","type":"Landkreis"},"federalState":{"key":"08","name":"Baden-Württemberg"}},{"name":"Gaiskopfweg","postalCode":"72270","locality":"Baiersbronn","municipality":{"key":"08237004","name":"Baiersbronn","type":"Kreisangehörige_Gemeinde"},"district":{"key":"08237","name":"Freudenstadt","type":"Landkreis"},"federalState":{"key":"08","name":"Baden-Württemberg"}},{"name":"Gaisträgerweg","postalCode":"72270","locality":"Baiersbronn","municipality":{"key":"08237004","name":"Baiersbronn","type":"Kreisangehörige_Gemeinde"},"district":{"key":"08237","name":"Freudenstadt","type":"Landkreis"},"federalState":{"key":"08","name":"Baden-Württemberg"}},{"name":"Gartenstr.","postalCode":"72270","locality":"Baiersbronn","municipality":{"key":"08237004","name":"Baiersbronn","type":"Kreisangehörige_Gemeinde"},"district":{"key":"08237","name":"Freudenstadt","type":"Landkreis"},"federalState":{"key":"08","name":"Baden-Württemberg"}},{"name":"Gernbachweg","postalCode":"72270","locality":"Baiersbronn","municipality":{"key":"08237004","name":"Baiersbronn","type":"Kreisangehörige_Gemeinde"},"district":{"key":"08237","name":"Freudenstadt","type":"Landkreis"},"federalState":{"key":"08","name":"Baden-Württemberg"}},{"name":"Gläserbergweg","postalCode":"72270","locality":"Baiersbronn","municipality":{"key":"08237004","name":"Baiersbronn","type":"Kreisangehörige_Gemeinde"},"district":{"key":"08237","name":"Freudenstadt","type":"Landkreis"},"federalState":{"key":"08","name":"Baden-Württemberg"}},{"name":"Glashütte","postalCode":"72270","locality":"Baiersbronn","municipality":{"key":"08237004","name":"Baiersbronn","type":"Kreisangehörige_Gemeinde"},"district":{"key":"08237","name":"Freudenstadt","type":"Landkreis"},"federalState":{"key":"08","name":"Baden-Württemberg"}},{"name":"Gottlieb-Klumpp-Weg","postalCode":"72270","locality":"Baiersbronn","municipality":{"key":"08237004","name":"Baiersbronn","type":"Kreisangehörige_Gemeinde"},"district":{"key":"08237","name":"Freudenstadt","type":"Landkreis"},"federalState":{"key":"08","name":"Baden-Württemberg"}},{"name":"Gressenhardtweg","postalCode":"72270","locality":"Baiersbronn","municipality":{"key":"08237004","name":"Baiersbronn","type":"Kreisangehörige_Gemeinde"},"district":{"key":"08237","name":"Freudenstadt","type":"Landkreis"},"federalState":{"key":"08","name":"Baden-Württemberg"}},{"name":"Großhahbergkopfweg","postalCode":"72270","locality":"Baiersbronn","municipality":{"key":"08237004","name":"Baiersbronn","type":"Kreisangehörige_Gemeinde"},"district":{"key":"08237","name":"Freudenstadt","type":"Landkreis"},"federalState":{"key":"08","name":"Baden-Württemberg"}},{"name":"Guldenbergweg","postalCode":"72270","locality":"Baiersbronn","municipality":{"key":"08237004","name":"Baiersbronn","type":"Kreisangehörige_Gemeinde"},"district":{"key":"08237","name":"Freudenstadt","type":"Landkreis"},"federalState":{"key":"08","name":"Baden-Württemberg"}},{"name":"Guterbrunnenweg","postalCode":"72270","locality":"Baiersbronn","municipality":{"key":"08237004","name":"Baiersbronn","type":"Kreisangehörige_Gemeinde"},"district":{"key":"08237","name":"Freudenstadt","type":"Landkreis"},"federalState":{"key":"08","name":"Baden-Württemberg"}},{"name":"Hahnbergweg","postalCode":"72270","locality":"Baiersbronn","municipality":{"key":"08237004","name":"Baiersbronn","type":"Kreisangehörige_Gemeinde"},"district":{"key":"08237","name":"Freudenstadt","type":"Landkreis"},"federalState":{"key":"08","name":"Baden-Württemberg"}},{"name":"Härle-Ferrwies","postalCode":"72270","locality":"Baiersbronn","municipality":{"key":"08237004","name":"Baiersbronn","type":"Kreisangehörige_Gemeinde"},"district":{"key":"08237","name":"Freudenstadt","type":"Landkreis"},"federalState":{"key":"08","name":"Baden-Württemberg"}},{"name":"Härlisberg","postalCode":"72270","locality":"Baiersbronn","municipality":{"key":"08237004","name":"Baiersbronn","type":"Kreisangehörige_Gemeinde"},"district":{"key":"08237","name":"Freudenstadt","type":"Landkreis"},"federalState":{"key":"08","name":"Baden-Württemberg"}},{"name":"Häslergasse","postalCode":"72270","locality":"Baiersbronn","municipality":{"key":"08237004","name":"Baiersbronn","type":"Kreisangehörige_Gemeinde"},"district":{"key":"08237","name":"Freudenstadt","type":"Landkreis"},"federalState":{"key":"08","name":"Baden-Württemberg"}},{"name":"Haydnstr.","postalCode":"72270","locality":"Baiersbronn","municipality":{"key":"08237004","name":"Baiersbronn","type":"Kreisangehörige_Gemeinde"},"district":{"key":"08237","name":"Freudenstadt","type":"Landkreis"},"federalState":{"key":"08","name":"Baden-Württemberg"}},{"name":"Heimatpfad","postalCode":"72270","locality":"Baiersbronn","municipality":{"key":"08237004","name":"Baiersbronn","type":"Kreisangehörige_Gemeinde"},"district":{"key":"08237","name":"Freudenstadt","type":"Landkreis"},"federalState":{"key":"08","name":"Baden-Württemberg"}},{"name":"Heinzelbergsträßchen","postalCode":"72270","locality":"Baiersbronn","municipality":{"key":"08237004","name":"Baiersbronn","type":"Kreisangehörige_Gemeinde"},"district":{"key":"08237","name":"Freudenstadt","type":"Landkreis"},"federalState":{"key":"08","name":"Baden-Württemberg"}},{"name":"Hermine-Bareiss-Weg","postalCode":"72270","locality":"Baiersbronn","municipality":{"key":"08237004","name":"Baiersbronn","type":"Kreisangehörige_Gemeinde"},"district":{"key":"08237","name":"Freudenstadt","type":"Landkreis"},"federalState":{"key":"08","name":"Baden-Württemberg"}},{"name":"Heselbacher Weg","postalCode":"72270","locality":"Baiersbronn","municipality":{"key":"08237004","name":"Baiersbronn","type":"Kreisangehörige_Gemeinde"},"district":{"key":"08237","name":"Freudenstadt","type":"Landkreis"},"federalState":{"key":"08","name":"Baden-Württemberg"}},{"name":"Heuweg","postalCode":"72270","locality":"Baiersbronn","municipality":{"key":"08237004","name":"Baiersbronn","type":"Kreisangehörige_Gemeinde"},"district":{"key":"08237","name":"Freudenstadt","type":"Landkreis"},"federalState":{"key":"08","name":"Baden-Württemberg"}},{"name":"Hilseneckweg","postalCode":"72270","locality":"Baiersbronn","municipality":{"key":"08237004","name":"Baiersbronn","type":"Kreisangehörige_Gemeinde"},"district":{"key":"08237","name":"Freudenstadt","type":"Landkreis"},"federalState":{"key":"08","name":"Baden-Württemberg"}},{"name":"Hinterer Auweg","postalCode":"72270","locality":"Baiersbronn","municipality":{"key":"08237004","name":"Baiersbronn","type":"Kreisangehörige_Gemeinde"},"district":{"key":"08237","name":"Freudenstadt","type":"Landkreis"},"federalState":{"key":"08","name":"Baden-Württemberg"}},{"name":"Hinterer Hirschauerwald","postalCode":"72270","locality":"Baiersbronn","municipality":{"key":"08237004","name":"Baiersbronn","type":"Kreisangehörige_Gemeinde"},"district":{"key":"08237","name":"Freudenstadt","type":"Landkreis"},"federalState":{"key":"08","name":"Baden-Württemberg"}},{"name":"Hirschauerwald","postalCode":"72270","locality":"Baiersbronn","municipality":{"key":"08237004","name":"Baiersbronn","type":"Kreisangehörige_Gemeinde"},"district":{"key":"08237","name":"Freudenstadt","type":"Landkreis"},"federalState":{"key":"08","name":"Baden-Württemberg"}},{"name":"Hirschhauerwald","postalCode":"72270","locality":"Baiersbronn","municipality":{"key":"08237004","name":"Baiersbronn","type":"Kreisangehörige_Gemeinde"},"district":{"key":"08237","name":"Freudenstadt","type":"Landkreis"},"federalState":{"key":"08","name":"Baden-Württemberg"}},{"name":"Hirschkopfweg","postalCode":"72270","locality":"Baiersbronn","municipality":{"key":"08237004","name":"Baiersbronn","type":"Kreisangehörige_Gemeinde"},"district":{"key":"08237","name":"Freudenstadt","type":"Landkreis"},"federalState":{"key":"08","name":"Baden-Württemberg"}},{"name":"Hirschlachweg","postalCode":"72270","locality":"Baiersbronn","municipality":{"key":"08237004","name":"Baiersbronn","type":"Kreisangehörige_Gemeinde"},"district":{"key":"08237","name":"Freudenstadt","type":"Landkreis"},"federalState":{"key":"08","name":"Baden-Württemberg"}},{"name":"Höferköpfleweg","postalCode":"72270","locality":"Baiersbronn","municipality":{"key":"08237004","name":"Baiersbronn","type":"Kreisangehörige_Gemeinde"},"district":{"key":"08237","name":"Freudenstadt","type":"Landkreis"},"federalState":{"key":"08","name":"Baden-Württemberg"}},{"name":"Höfer Rain","postalCode":"72270","locality":"Baiersbronn","municipality":{"key":"08237004","name":"Baiersbronn","type":"Kreisangehörige_Gemeinde"},"district":{"key":"08237","name":"Freudenstadt","type":"Landkreis"},"federalState":{"key":"08","name":"Baden-Württemberg"}},{"name":"Höfer Weg","postalCode":"72270","locality":"Baiersbronn","municipality":{"key":"08237004","name":"Baiersbronn","type":"Kreisangehörige_Gemeinde"},"district":{"key":"08237","name":"Freudenstadt","type":"Landkreis"},"federalState":{"key":"08","name":"Baden-Württemberg"}},{"name":"Hohlgasse","postalCode":"72270","locality":"Baiersbronn","municipality":{"key":"08237004","name":"Baiersbronn","type":"Kreisangehörige_Gemeinde"},"district":{"key":"08237","name":"Freudenstadt","type":"Landkreis"},"federalState":{"key":"08","name":"Baden-Württemberg"}},{"name":"Hölderlinköpfleweg","postalCode":"72270","locality":"Baiersbronn","municipality":{"key":"08237004","name":"Baiersbronn","type":"Kreisangehörige_Gemeinde"},"district":{"key":"08237","name":"Freudenstadt","type":"Landkreis"},"federalState":{"key":"08","name":"Baden-Württemberg"}},{"name":"Hölderlinweg","postalCode":"72270","locality":"Baiersbronn","municipality":{"key":"08237004","name":"Baiersbronn","type":"Kreisangehörige_Gemeinde"},"district":{"key":"08237","name":"Freudenstadt","type":"Landkreis"},"federalState":{"key":"08","name":"Baden-Württemberg"}},{"name":"Holdersbach","postalCode":"72270","locality":"Baiersbronn","municipality":{"key":"08237004","name":"Baiersbronn","type":"Kreisangehörige_Gemeinde"},"district":{"key":"08237","name":"Freudenstadt","type":"Landkreis"},"federalState":{"key":"08","name":"Baden-Württemberg"}},{"name":"Höllweg","postalCode":"72270","locality":"Baiersbronn","municipality":{"key":"08237004","name":"Baiersbronn","type":"Kreisangehörige_Gemeinde"},"district":{"key":"08237","name":"Freudenstadt","type":"Landkreis"},"federalState":{"key":"08","name":"Baden-Württemberg"}},{"name":"Holzschlagbrunnensträßchen","postalCode":"72270","locality":"Baiersbronn","municipality":{"key":"08237004","name":"Baiersbronn","type":"Kreisangehörige_Gemeinde"},"district":{"key":"08237","name":"Freudenstadt","type":"Landkreis"},"federalState":{"key":"08","name":"Baden-Württemberg"}},{"name":"Holzschlagbrunnerweg","postalCode":"72270","locality":"Baiersbronn","municipality":{"key":"08237004","name":"Baiersbronn","type":"Kreisangehörige_Gemeinde"},"district":{"key":"08237","name":"Freudenstadt","type":"Landkreis"},"federalState":{"key":"08","name":"Baden-Württemberg"}},{"name":"Holzweg","postalCode":"72270","locality":"Baiersbronn","municipality":{"key":"08237004","name":"Baiersbronn","type":"Kreisangehörige_Gemeinde"},"district":{"key":"08237","name":"Freudenstadt","type":"Landkreis"},"federalState":{"key":"08","name":"Baden-Württemberg"}},{"name":"Hornschuhweg","postalCode":"72270","locality":"Baiersbronn","municipality":{"key":"08237004","name":"Baiersbronn","type":"Kreisangehörige_Gemeinde"},"district":{"key":"08237","name":"Freudenstadt","type":"Landkreis"},"federalState":{"key":"08","name":"Baden-Württemberg"}},{"name":"Hühnergatterweg","postalCode":"72270","locality":"Baiersbronn","municipality":{"key":"08237004","name":"Baiersbronn","type":"Kreisangehörige_Gemeinde"},"district":{"key":"08237","name":"Freudenstadt","type":"Landkreis"},"federalState":{"key":"08","name":"Baden-Württemberg"}},{"name":"Hundsreute","postalCode":"72270","locality":"Baiersbronn","municipality":{"key":"08237004","name":"Baiersbronn","type":"Kreisangehörige_Gemeinde"},"district":{"key":"08237","name":"Freudenstadt","type":"Landkreis"},"federalState":{"key":"08","name":"Baden-Württemberg"}},{"name":"Igelsbergerstr.","postalCode":"72270","locality":"Baiersbronn","municipality":{"key":"08237004","name":"Baiersbronn","type":"Kreisangehörige_Gemeinde"},"district":{"key":"08237","name":"Freudenstadt","type":"Landkreis"},"federalState":{"key":"08","name":"Baden-Württemberg"}},{"name":"Ilgenbachstr.","postalCode":"72270","locality":"Baiersbronn","municipality":{"key":"08237004","name":"Baiersbronn","type":"Kreisangehörige_Gemeinde"},"district":{"key":"08237","name":"Freudenstadt","type":"Landkreis"},"federalState":{"key":"08","name":"Baden-Württemberg"}},{"name":"Ilgenbachsträßchen","postalCode":"72270","locality":"Baiersbronn","municipality":{"key":"08237004","name":"Baiersbronn","type":"Kreisangehörige_Gemeinde"},"district":{"key":"08237","name":"Freudenstadt","type":"Landkreis"},"federalState":{"key":"08","name":"Baden-Württemberg"}},{"name":"Im Aiterbach","postalCode":"72270","locality":"Baiersbronn","municipality":{"key":"08237004","name":"Baiersbronn","type":"Kreisangehörige_Gemeinde"},"district":{"key":"08237","name":"Freudenstadt","type":"Landkreis"},"federalState":{"key":"08","name":"Baden-Württemberg"}},{"name":"Im Aiterbächle","postalCode":"72270","locality":"Baiersbronn","municipality":{"key":"08237004","name":"Baiersbronn","type":"Kreisangehörige_Gemeinde"},"district":{"key":"08237","name":"Freudenstadt","type":"Landkreis"},"federalState":{"key":"08","name":"Baden-Württemberg"}},{"name":"Im Aubach","postalCode":"72270","locality":"Baiersbronn","municipality":{"key":"08237004","name":"Baiersbronn","type":"Kreisangehörige_Gemeinde"},"district":{"key":"08237","name":"Freudenstadt","type":"Landkreis"},"federalState":{"key":"08","name":"Baden-Württemberg"}},{"name":"Im Härlegrund","postalCode":"72270","locality":"Baiersbronn","municipality":{"key":"08237004","name":"Baiersbronn","type":"Kreisangehörige_Gemeinde"},"district":{"key":"08237","name":"Freudenstadt","type":"Landkreis"},"federalState":{"key":"08","name":"Baden-Württemberg"}},{"name":"Im Kreuz","postalCode":"72270","locality":"Baiersbronn","municipality":{"key":"08237004","name":"Baiersbronn","type":"Kreisangehörige_Gemeinde"},"district":{"key":"08237","name":"Freudenstadt","type":"Landkreis"},"federalState":{"key":"08","name":"Baden-Württemberg"}},{"name":"Im Lehen","postalCode":"72270","locality":"Baiersbronn","municipality":{"key":"08237004","name":"Baiersbronn","type":"Kreisangehörige_Gemeinde"},"district":{"key":"08237","name":"Freudenstadt","type":"Landkreis"},"federalState":{"key":"08","name":"Baden-Württemberg"}},{"name":"Im Looch","postalCode":"72270","locality":"Baiersbronn","municipality":{"key":"08237004","name":"Baiersbronn","type":"Kreisangehörige_Gemeinde"},"district":{"key":"08237","name":"Freudenstadt","type":"Landkreis"},"federalState":{"key":"08","name":"Baden-Württemberg"}},{"name":"Im Oberrain","postalCode":"72270","locality":"Baiersbronn","municipality":{"key":"08237004","name":"Baiersbronn","type":"Kreisangehörige_Gemeinde"},"district":{"key":"08237","name":"Freudenstadt","type":"Landkreis"},"federalState":{"key":"08","name":"Baden-Württemberg"}},{"name":"Im Ochsengut","postalCode":"72270","locality":"Baiersbronn","municipality":{"key":"08237004","name":"Baiersbronn","type":"Kreisangehörige_Gemeinde"},"district":{"key":"08237","name":"Freudenstadt","type":"Landkreis"},"federalState":{"key":"08","name":"Baden-Württemberg"}},{"name":"Im Vogelsang","postalCode":"72270","locality":"Baiersbronn","municipality":{"key":"08237004","name":"Baiersbronn","type":"Kreisangehörige_Gemeinde"},"district":{"key":"08237","name":"Freudenstadt","type":"Landkreis"},"federalState":{"key":"08","name":"Baden-Württemberg"}},{"name":"Im Weiher","postalCode":"72270","locality":"Baiersbronn","municipality":{"key":"08237004","name":"Baiersbronn","type":"Kreisangehörige_Gemeinde"},"district":{"key":"08237","name":"Freudenstadt","type":"Landkreis"},"federalState":{"key":"08","name":"Baden-Württemberg"}},{"name":"Im Wiesengrund","postalCode":"72270","locality":"Baiersbronn","municipality":{"key":"08237004","name":"Baiersbronn","type":"Kreisangehörige_Gemeinde"},"district":{"key":"08237","name":"Freudenstadt","type":"Landkreis"},"federalState":{"key":"08","name":"Baden-Württemberg"}},{"name":"In den Auen","postalCode":"72270","locality":"Baiersbronn","municipality":{"key":"08237004","name":"Baiersbronn","type":"Kreisangehörige_Gemeinde"},"district":{"key":"08237","name":"Freudenstadt","type":"Landkreis"},"federalState":{"key":"08","name":"Baden-Württemberg"}},{"name":"In der Breitmiss","postalCode":"72270","locality":"Baiersbronn","municipality":{"key":"08237004","name":"Baiersbronn","type":"Kreisangehörige_Gemeinde"},"district":{"key":"08237","name":"Freudenstadt","type":"Landkreis"},"federalState":{"key":"08","name":"Baden-Württemberg"}},{"name":"Jägerbuckel","postalCode":"72270","locality":"Baiersbronn","municipality":{"key":"08237004","name":"Baiersbronn","type":"Kreisangehörige_Gemeinde"},"district":{"key":"08237","name":"Freudenstadt","type":"Landkreis"},"federalState":{"key":"08","name":"Baden-Württemberg"}},{"name":"Jägerloch","postalCode":"72270","locality":"Baiersbronn","municipality":{"key":"08237004","name":"Baiersbronn","type":"Kreisangehörige_Gemeinde"},"district":{"key":"08237","name":"Freudenstadt","type":"Landkreis"},"federalState":{"key":"08","name":"Baden-Württemberg"}},{"name":"Kanalweg","postalCode":"72270","locality":"Baiersbronn","municipality":{"key":"08237004","name":"Baiersbronn","type":"Kreisangehörige_Gemeinde"},"district":{"key":"08237","name":"Freudenstadt","type":"Landkreis"},"federalState":{"key":"08","name":"Baden-Württemberg"}},{"name":"Kannenweg","postalCode":"72270","locality":"Baiersbronn","municipality":{"key":"08237004","name":"Baiersbronn","type":"Kreisangehörige_Gemeinde"},"district":{"key":"08237","name":"Freudenstadt","type":"Landkreis"},"federalState":{"key":"08","name":"Baden-Württemberg"}},{"name":"Karl-Frey-Weg","postalCode":"72270","locality":"Baiersbronn","municipality":{"key":"08237004","name":"Baiersbronn","type":"Kreisangehörige_Gemeinde"},"district":{"key":"08237","name":"Freudenstadt","type":"Landkreis"},"federalState":{"key":"08","name":"Baden-Württemberg"}},{"name":"Karl-Müller-Str.","postalCode":"72270","locality":"Baiersbronn","municipality":{"key":"08237004","name":"Baiersbronn","type":"Kreisangehörige_Gemeinde"},"district":{"key":"08237","name":"Freudenstadt","type":"Landkreis"},"federalState":{"key":"08","name":"Baden-Württemberg"}},{"name":"Kienbächleweg","postalCode":"72270","locality":"Baiersbronn","municipality":{"key":"08237004","name":"Baiersbronn","type":"Kreisangehörige_Gemeinde"},"district":{"key":"08237","name":"Freudenstadt","type":"Landkreis"},"federalState":{"key":"08","name":"Baden-Württemberg"}},{"name":"Kirchstr.","postalCode":"72270","locality":"Baiersbronn","municipality":{"key":"08237004","name":"Baiersbronn","type":"Kreisangehörige_Gemeinde"},"district":{"key":"08237","name":"Freudenstadt","type":"Landkreis"},"federalState":{"key":"08","name":"Baden-Württemberg"}},{"name":"Kirchweg","postalCode":"72270","locality":"Baiersbronn","municipality":{"key":"08237004","name":"Baiersbronn","type":"Kreisangehörige_Gemeinde"},"district":{"key":"08237","name":"Freudenstadt","type":"Landkreis"},"federalState":{"key":"08","name":"Baden-Württemberg"}},{"name":"Kleemißhaldeweg","postalCode":"72270","locality":"Baiersbronn","municipality":{"key":"08237004","name":"Baiersbronn","type":"Kreisangehörige_Gemeinde"},"district":{"key":"08237","name":"Freudenstadt","type":"Landkreis"},"federalState":{"key":"08","name":"Baden-Württemberg"}},{"name":"Kleemißweg","postalCode":"72270","locality":"Baiersbronn","municipality":{"key":"08237004","name":"Baiersbronn","type":"Kreisangehörige_Gemeinde"},"district":{"key":"08237","name":"Freudenstadt","type":"Landkreis"},"federalState":{"key":"08","name":"Baden-Württemberg"}},{"name":"Klosterstr.","postalCode":"72270","locality":"Baiersbronn","municipality":{"key":"08237004","name":"Baiersbronn","type":"Kreisangehörige_Gemeinde"},"district":{"key":"08237","name":"Freudenstadt","type":"Landkreis"},"federalState":{"key":"08","name":"Baden-Württemberg"}},{"name":"Kniebisweg","postalCode":"72270","locality":"Baiersbronn","municipality":{"key":"08237004","name":"Baiersbronn","type":"Kreisangehörige_Gemeinde"},"district":{"key":"08237","name":"Freudenstadt","type":"Landkreis"},"federalState":{"key":"08","name":"Baden-Württemberg"}},{"name":"Kohbachweg","postalCode":"72270","locality":"Baiersbronn","municipality":{"key":"08237004","name":"Baiersbronn","type":"Kreisangehörige_Gemeinde"},"district":{"key":"08237","name":"Freudenstadt","type":"Landkreis"},"federalState":{"key":"08","name":"Baden-Württemberg"}},{"name":"Kohlwald","postalCode":"72270","locality":"Baiersbronn","municipality":{"key":"08237004","name":"Baiersbronn","type":"Kreisangehörige_Gemeinde"},"district":{"key":"08237","name":"Freudenstadt","type":"Landkreis"},"federalState":{"key":"08","name":"Baden-Württemberg"}},{"name":"Köpflesweg","postalCode":"72270","locality":"Baiersbronn","municipality":{"key":"08237004","name":"Baiersbronn","type":"Kreisangehörige_Gemeinde"},"district":{"key":"08237","name":"Freudenstadt","type":"Landkreis"},"federalState":{"key":"08","name":"Baden-Württemberg"}},{"name":"Kraftenbuckelweg","postalCode":"72270","locality":"Baiersbronn","municipality":{"key":"08237004","name":"Baiersbronn","type":"Kreisangehörige_Gemeinde"},"district":{"key":"08237","name":"Freudenstadt","type":"Landkreis"},"federalState":{"key":"08","name":"Baden-Württemberg"}},{"name":"Krummbirkweg","postalCode":"72270","locality":"Baiersbronn","municipality":{"key":"08237004","name":"Baiersbronn","type":"Kreisangehörige_Gemeinde"},"district":{"key":"08237","name":"Freudenstadt","type":"Landkreis"},"federalState":{"key":"08","name":"Baden-Württemberg"}},{"name":"Kuhbachhüttenweg","postalCode":"72270","locality":"Baiersbronn","municipality":{"key":"08237004","name":"Baiersbronn","type":"Kreisangehörige_Gemeinde"},"district":{"key":"08237","name":"Freudenstadt","type":"Landkreis"},"federalState":{"key":"08","name":"Baden-Württemberg"}},{"name":"Kurgarten Baiersbronn-Oberdorf","postalCode":"72270","locality":"Baiersbronn","municipality":{"key":"08237004","name":"Baiersbronn","type":"Kreisangehörige_Gemeinde"},"district":{"key":"08237","name":"Freudenstadt","type":"Landkreis"},"federalState":{"key":"08","name":"Baden-Württemberg"}},{"name":"Kurgarten Baiersbronn-Unterdorf","postalCode":"72270","locality":"Baiersbronn","municipality":{"key":"08237004","name":"Baiersbronn","type":"Kreisangehörige_Gemeinde"},"district":{"key":"08237","name":"Freudenstadt","type":"Landkreis"},"federalState":{"key":"08","name":"Baden-Württemberg"}},{"name":"Kurpark Mitteltal","postalCode":"72270","locality":"Baiersbronn","municipality":{"key":"08237004","name":"Baiersbronn","type":"Kreisangehörige_Gemeinde"},"district":{"key":"08237","name":"Freudenstadt","type":"Landkreis"},"federalState":{"key":"08","name":"Baden-Württemberg"}},{"name":"Kurpark Obertal","postalCode":"72270","locality":"Baiersbronn","municipality":{"key":"08237004","name":"Baiersbronn","type":"Kreisangehörige_Gemeinde"},"district":{"key":"08237","name":"Freudenstadt","type":"Landkreis"},"federalState":{"key":"08","name":"Baden-Württemberg"}},{"name":"Labbronnerweg","postalCode":"72270","locality":"Baiersbronn","municipality":{"key":"08237004","name":"Baiersbronn","type":"Kreisangehörige_Gemeinde"},"district":{"key":"08237","name":"Freudenstadt","type":"Landkreis"},"federalState":{"key":"08","name":"Baden-Württemberg"}},{"name":"Landhausstr.","postalCode":"72270","locality":"Baiersbronn","municipality":{"key":"08237004","name":"Baiersbronn","type":"Kreisangehörige_Gemeinde"},"district":{"key":"08237","name":"Freudenstadt","type":"Landkreis"},"federalState":{"key":"08","name":"Baden-Württemberg"}},{"name":"Landhausweg","postalCode":"72270","locality":"Baiersbronn","municipality":{"key":"08237004","name":"Baiersbronn","type":"Kreisangehörige_Gemeinde"},"district":{"key":"08237","name":"Freudenstadt","type":"Landkreis"},"federalState":{"key":"08","name":"Baden-Württemberg"}},{"name":"Langenbachhaldeweg","postalCode":"72270","locality":"Baiersbronn","municipality":{"key":"08237004","name":"Baiersbronn","type":"Kreisangehörige_Gemeinde"},"district":{"key":"08237","name":"Freudenstadt","type":"Landkreis"},"federalState":{"key":"08","name":"Baden-Württemberg"}},{"name":"Leimengrund","postalCode":"72270","locality":"Baiersbronn","municipality":{"key":"08237004","name":"Baiersbronn","type":"Kreisangehörige_Gemeinde"},"district":{"key":"08237","name":"Freudenstadt","type":"Landkreis"},"federalState":{"key":"08","name":"Baden-Württemberg"}},{"name":"Lichtegehrensträßchen","postalCode":"72270","locality":"Baiersbronn","municipality":{"key":"08237004","name":"Baiersbronn","type":"Kreisangehörige_Gemeinde"},"district":{"key":"08237","name":"Freudenstadt","type":"Landkreis"},"federalState":{"key":"08","name":"Baden-Württemberg"}},{"name":"Lichtenberg","postalCode":"72270","locality":"Baiersbronn","municipality":{"key":"08237004","name":"Baiersbronn","type":"Kreisangehörige_Gemeinde"},"district":{"key":"08237","name":"Freudenstadt","type":"Landkreis"},"federalState":{"key":"08","name":"Baden-Württemberg"}},{"name":"Liebberg","postalCode":"72270","locality":"Baiersbronn","municipality":{"key":"08237004","name":"Baiersbronn","type":"Kreisangehörige_Gemeinde"},"district":{"key":"08237","name":"Freudenstadt","type":"Landkreis"},"federalState":{"key":"08","name":"Baden-Württemberg"}},{"name":"Lochweg","postalCode":"72270","locality":"Baiersbronn","municipality":{"key":"08237004","name":"Baiersbronn","type":"Kreisangehörige_Gemeinde"},"district":{"key":"08237","name":"Freudenstadt","type":"Landkreis"},"federalState":{"key":"08","name":"Baden-Württemberg"}},{"name":"Luxemburger Weg","postalCode":"72270","locality":"Baiersbronn","municipality":{"key":"08237004","name":"Baiersbronn","type":"Kreisangehörige_Gemeinde"},"district":{"key":"08237","name":"Freudenstadt","type":"Landkreis"},"federalState":{"key":"08","name":"Baden-Württemberg"}},{"name":"Mähderstr.","postalCode":"72270","locality":"Baiersbronn","municipality":{"key":"08237004","name":"Baiersbronn","type":"Kreisangehörige_Gemeinde"},"district":{"key":"08237","name":"Freudenstadt","type":"Landkreis"},"federalState":{"key":"08","name":"Baden-Württemberg"}},{"name":"Max-Eyth-Str.","postalCode":"72270","locality":"Baiersbronn","municipality":{"key":"08237004","name":"Baiersbronn","type":"Kreisangehörige_Gemeinde"},"district":{"key":"08237","name":"Freudenstadt","type":"Landkreis"},"federalState":{"key":"08","name":"Baden-Württemberg"}},{"name":"Max-Himmelheber-Str.","postalCode":"72270","locality":"Baiersbronn","municipality":{"key":"08237004","name":"Baiersbronn","type":"Kreisangehörige_Gemeinde"},"district":{"key":"08237","name":"Freudenstadt","type":"Landkreis"},"federalState":{"key":"08","name":"Baden-Württemberg"}},{"name":"Mehlplatzweg","postalCode":"72270","locality":"Baiersbronn","municipality":{"key":"08237004","name":"Baiersbronn","type":"Kreisangehörige_Gemeinde"},"district":{"key":"08237","name":"Freudenstadt","type":"Landkreis"},"federalState":{"key":"08","name":"Baden-Württemberg"}},{"name":"Melkenteichweg","postalCode":"72270","locality":"Baiersbronn","municipality":{"key":"08237004","name":"Baiersbronn","type":"Kreisangehörige_Gemeinde"},"district":{"key":"08237","name":"Freudenstadt","type":"Landkreis"},"federalState":{"key":"08","name":"Baden-Württemberg"}},{"name":"Michael-Glaser-Weg","postalCode":"72270","locality":"Baiersbronn","municipality":{"key":"08237004","name":"Baiersbronn","type":"Kreisangehörige_Gemeinde"},"district":{"key":"08237","name":"Freudenstadt","type":"Landkreis"},"federalState":{"key":"08","name":"Baden-Württemberg"}},{"name":"Mittellangenbach","postalCode":"72270","locality":"Baiersbronn","municipality":{"key":"08237004","name":"Baiersbronn","type":"Kreisangehörige_Gemeinde"},"district":{"key":"08237","name":"Freudenstadt","type":"Landkreis"},"federalState":{"key":"08","name":"Baden-Württemberg"}},{"name":"Mönchsgrundweg","postalCode":"72270","locality":"Baiersbronn","municipality":{"key":"08237004","name":"Baiersbronn","type":"Kreisangehörige_Gemeinde"},"district":{"key":"08237","name":"Freudenstadt","type":"Landkreis"},"federalState":{"key":"08","name":"Baden-Württemberg"}},{"name":"Mosesbrunnenweg","postalCode":"72270","locality":"Baiersbronn","municipality":{"key":"08237004","name":"Baiersbronn","type":"Kreisangehörige_Gemeinde"},"district":{"key":"08237","name":"Freudenstadt","type":"Landkreis"},"federalState":{"key":"08","name":"Baden-Württemberg"}},{"name":"Mozartstr.","postalCode":"72270","locality":"Baiersbronn","municipality":{"key":"08237004","name":"Baiersbronn","type":"Kreisangehörige_Gemeinde"},"district":{"key":"08237","name":"Freudenstadt","type":"Landkreis"},"federalState":{"key":"08","name":"Baden-Württemberg"}},{"name":"Mühleweg","postalCode":"72270","locality":"Baiersbronn","municipality":{"key":"08237004","name":"Baiersbronn","type":"Kreisangehörige_Gemeinde"},"district":{"key":"08237","name":"Freudenstadt","type":"Landkreis"},"federalState":{"key":"08","name":"Baden-Württemberg"}},{"name":"Murgpfad","postalCode":"72270","locality":"Baiersbronn","municipality":{"key":"08237004","name":"Baiersbronn","type":"Kreisangehörige_Gemeinde"},"district":{"key":"08237","name":"Freudenstadt","type":"Landkreis"},"federalState":{"key":"08","name":"Baden-Württemberg"}},{"name":"Murgstr.","postalCode":"72270","locality":"Baiersbronn","municipality":{"key":"08237004","name":"Baiersbronn","type":"Kreisangehörige_Gemeinde"},"district":{"key":"08237","name":"Freudenstadt","type":"Landkreis"},"federalState":{"key":"08","name":"Baden-Württemberg"}},{"name":"Murgtalstr.","postalCode":"72270","locality":"Baiersbronn","municipality":{"key":"08237004","name":"Baiersbronn","type":"Kreisangehörige_Gemeinde"},"district":{"key":"08237","name":"Freudenstadt","type":"Landkreis"},"federalState":{"key":"08","name":"Baden-Württemberg"}},{"name":"Musbacher Str.","postalCode":"72270","locality":"Baiersbronn","municipality":{"key":"08237004","name":"Baiersbronn","type":"Kreisangehörige_Gemeinde"},"district":{"key":"08237","name":"Freudenstadt","type":"Landkreis"},"federalState":{"key":"08","name":"Baden-Württemberg"}},{"name":"Neuer Hahnenmisseweg","postalCode":"72270","locality":"Baiersbronn","municipality":{"key":"08237004","name":"Baiersbronn","type":"Kreisangehörige_Gemeinde"},"district":{"key":"08237","name":"Freudenstadt","type":"Landkreis"},"federalState":{"key":"08","name":"Baden-Württemberg"}},{"name":"Neumühleweg","postalCode":"72270","locality":"Baiersbronn","municipality":{"key":"08237004","name":"Baiersbronn","type":"Kreisangehörige_Gemeinde"},"district":{"key":"08237","name":"Freudenstadt","type":"Landkreis"},"federalState":{"key":"08","name":"Baden-Württemberg"}},{"name":"Nogent-le-Rotrou-Str.","postalCode":"72270","locality":"Baiersbronn","municipality":{"key":"08237004","name":"Baiersbronn","type":"Kreisangehörige_Gemeinde"},"district":{"key":"08237","name":"Freudenstadt","type":"Landkreis"},"federalState":{"key":"08","name":"Baden-Württemberg"}},{"name":"Oberdorfstr.","postalCode":"72270","locality":"Baiersbronn","municipality":{"key":"08237004","name":"Baiersbronn","type":"Kreisangehörige_Gemeinde"},"district":{"key":"08237","name":"Freudenstadt","type":"Landkreis"},"federalState":{"key":"08","name":"Baden-Württemberg"}},{"name":"Obere Ortsstr.","postalCode":"72270","locality":"Baiersbronn","municipality":{"key":"08237004","name":"Baiersbronn","type":"Kreisangehörige_Gemeinde"},"district":{"key":"08237","name":"Freudenstadt","type":"Landkreis"},"federalState":{"key":"08","name":"Baden-Württemberg"}},{"name":"Oberer Beckenberg","postalCode":"72270","locality":"Baiersbronn","municipality":{"key":"08237004","name":"Baiersbronn","type":"Kreisangehörige_Gemeinde"},"district":{"key":"08237","name":"Freudenstadt","type":"Landkreis"},"federalState":{"key":"08","name":"Baden-Württemberg"}},{"name":"Oberer Rosenbergweg","postalCode":"72270","locality":"Baiersbronn","municipality":{"key":"08237004","name":"Baiersbronn","type":"Kreisangehörige_Gemeinde"},"district":{"key":"08237","name":"Freudenstadt","type":"Landkreis"},"federalState":{"key":"08","name":"Baden-Württemberg"}},{"name":"Oberer Sommerseiteweg","postalCode":"72270","locality":"Baiersbronn","municipality":{"key":"08237004","name":"Baiersbronn","type":"Kreisangehörige_Gemeinde"},"district":{"key":"08237","name":"Freudenstadt","type":"Landkreis"},"federalState":{"key":"08","name":"Baden-Württemberg"}},{"name":"Oberer Steingrundweg","postalCode":"72270","locality":"Baiersbronn","municipality":{"key":"08237004","name":"Baiersbronn","type":"Kreisangehörige_Gemeinde"},"district":{"key":"08237","name":"Freudenstadt","type":"Landkreis"},"federalState":{"key":"08","name":"Baden-Württemberg"}},{"name":"Oberer Weg","postalCode":"72270","locality":"Baiersbronn","municipality":{"key":"08237004","name":"Baiersbronn","type":"Kreisangehörige_Gemeinde"},"district":{"key":"08237","name":"Freudenstadt","type":"Landkreis"},"federalState":{"key":"08","name":"Baden-Württemberg"}},{"name":"Obere Sonnenhalde","postalCode":"72270","locality":"Baiersbronn","municipality":{"key":"08237004","name":"Baiersbronn","type":"Kreisangehörige_Gemeinde"},"district":{"key":"08237","name":"Freudenstadt","type":"Landkreis"},"federalState":{"key":"08","name":"Baden-Württemberg"}},{"name":"Orspachweg","postalCode":"72270","locality":"Baiersbronn","municipality":{"key":"08237004","name":"Baiersbronn","type":"Kreisangehörige_Gemeinde"},"district":{"key":"08237","name":"Freudenstadt","type":"Landkreis"},"federalState":{"key":"08","name":"Baden-Württemberg"}},{"name":"Otto-Gittinger-Weg","postalCode":"72270","locality":"Baiersbronn","municipality":{"key":"08237004","name":"Baiersbronn","type":"Kreisangehörige_Gemeinde"},"district":{"key":"08237","name":"Freudenstadt","type":"Landkreis"},"federalState":{"key":"08","name":"Baden-Württemberg"}},{"name":"Palmengrundweg","postalCode":"72270","locality":"Baiersbronn","municipality":{"key":"08237004","name":"Baiersbronn","type":"Kreisangehörige_Gemeinde"},"district":{"key":"08237","name":"Freudenstadt","type":"Landkreis"},"federalState":{"key":"08","name":"Baden-Württemberg"}},{"name":"Panoramarundweg","postalCode":"72270","locality":"Baiersbronn","municipality":{"key":"08237004","name":"Baiersbronn","type":"Kreisangehörige_Gemeinde"},"district":{"key":"08237","name":"Freudenstadt","type":"Landkreis"},"federalState":{"key":"08","name":"Baden-Württemberg"}},{"name":"Panoramaweg","postalCode":"72270","locality":"Baiersbronn","municipality":{"key":"08237004","name":"Baiersbronn","type":"Kreisangehörige_Gemeinde"},"district":{"key":"08237","name":"Freudenstadt","type":"Landkreis"},"federalState":{"key":"08","name":"Baden-Württemberg"}},{"name":"Pappelweg","postalCode":"72270","locality":"Baiersbronn","municipality":{"key":"08237004","name":"Baiersbronn","type":"Kreisangehörige_Gemeinde"},"district":{"key":"08237","name":"Freudenstadt","type":"Landkreis"},"federalState":{"key":"08","name":"Baden-Württemberg"}},{"name":"Park an der Michaelskirche","postalCode":"72270","locality":"Baiersbronn","municipality":{"key":"08237004","name":"Baiersbronn","type":"Kreisangehörige_Gemeinde"},"district":{"key":"08237","name":"Freudenstadt","type":"Landkreis"},"federalState":{"key":"08","name":"Baden-Württemberg"}},{"name":"Pausenhof","postalCode":"72270","locality":"Baiersbronn","municipality":{"key":"08237004","name":"Baiersbronn","type":"Kreisangehörige_Gemeinde"},"district":{"key":"08237","name":"Freudenstadt","type":"Landkreis"},"federalState":{"key":"08","name":"Baden-Württemberg"}},{"name":"Plattform Ellbachseeblick","postalCode":"72270","locality":"Baiersbronn","municipality":{"key":"08237004","name":"Baiersbronn","type":"Kreisangehörige_Gemeinde"},"district":{"key":"08237","name":"Freudenstadt","type":"Landkreis"},"federalState":{"key":"08","name":"Baden-Württemberg"}},{"name":"Pulvermüllerweg","postalCode":"72270","locality":"Baiersbronn","municipality":{"key":"08237004","name":"Baiersbronn","type":"Kreisangehörige_Gemeinde"},"district":{"key":"08237","name":"Freudenstadt","type":"Landkreis"},"federalState":{"key":"08","name":"Baden-Württemberg"}},{"name":"Quellenweg","postalCode":"72250","locality":"Freudenstadt","municipality":{"key":"08237028","name":"Freudenstadt, Stadt","type":"Große_Kreisstadt"},"district":{"key":"08237","name":"Freudenstadt","type":"Landkreis"},"federalState":{"key":"08","name":"Baden-Württemberg"}},{"name":"Rainbauerngasse","postalCode":"72270","locality":"Baiersbronn","municipality":{"key":"08237004","name":"Baiersbronn","type":"Kreisangehörige_Gemeinde"},"district":{"key":"08237","name":"Freudenstadt","type":"Landkreis"},"federalState":{"key":"08","name":"Baden-Württemberg"}},{"name":"Rappenbergweg","postalCode":"72270","locality":"Baiersbronn","municipality":{"key":"08237004","name":"Baiersbronn","type":"Kreisangehörige_Gemeinde"},"district":{"key":"08237","name":"Freudenstadt","type":"Landkreis"},"federalState":{"key":"08","name":"Baden-Württemberg"}},{"name":"Rathausstr.","postalCode":"72270","locality":"Baiersbronn","municipality":{"key":"08237004","name":"Baiersbronn","type":"Kreisangehörige_Gemeinde"},"district":{"key":"08237","name":"Freudenstadt","type":"Landkreis"},"federalState":{"key":"08","name":"Baden-Württemberg"}},{"name":"Rechtmurgstr.","postalCode":"72270","locality":"Baiersbronn","municipality":{"key":"08237004","name":"Baiersbronn","type":"Kreisangehörige_Gemeinde"},"district":{"key":"08237","name":"Freudenstadt","type":"Landkreis"},"federalState":{"key":"08","name":"Baden-Württemberg"}},{"name":"Reichenbacher Weg","postalCode":"72270","locality":"Baiersbronn","municipality":{"key":"08237004","name":"Baiersbronn","type":"Kreisangehörige_Gemeinde"},"district":{"key":"08237","name":"Freudenstadt","type":"Landkreis"},"federalState":{"key":"08","name":"Baden-Württemberg"}},{"name":"Reichenbächle","postalCode":"72270","locality":"Baiersbronn","municipality":{"key":"08237004","name":"Baiersbronn","type":"Kreisangehörige_Gemeinde"},"district":{"key":"08237","name":"Freudenstadt","type":"Landkreis"},"federalState":{"key":"08","name":"Baden-Württemberg"}},{"name":"Reitweg","postalCode":"72270","locality":"Baiersbronn","municipality":{"key":"08237004","name":"Baiersbronn","type":"Kreisangehörige_Gemeinde"},"district":{"key":"08237","name":"Freudenstadt","type":"Landkreis"},"federalState":{"key":"08","name":"Baden-Württemberg"}},{"name":"Reuteweg","postalCode":"72270","locality":"Baiersbronn","municipality":{"key":"08237004","name":"Baiersbronn","type":"Kreisangehörige_Gemeinde"},"district":{"key":"08237","name":"Freudenstadt","type":"Landkreis"},"federalState":{"key":"08","name":"Baden-Württemberg"}},{"name":"Rinkenbergweg","postalCode":"72270","locality":"Baiersbronn","municipality":{"key":"08237004","name":"Baiersbronn","type":"Kreisangehörige_Gemeinde"},"district":{"key":"08237","name":"Freudenstadt","type":"Landkreis"},"federalState":{"key":"08","name":"Baden-Württemberg"}},{"name":"Rinkenteich","postalCode":"72270","locality":"Baiersbronn","municipality":{"key":"08237004","name":"Baiersbronn","type":"Kreisangehörige_Gemeinde"},"district":{"key":"08237","name":"Freudenstadt","type":"Landkreis"},"federalState":{"key":"08","name":"Baden-Württemberg"}},{"name":"Ritterrain","postalCode":"72270","locality":"Baiersbronn","municipality":{"key":"08237004","name":"Baiersbronn","type":"Kreisangehörige_Gemeinde"},"district":{"key":"08237","name":"Freudenstadt","type":"Landkreis"},"federalState":{"key":"08","name":"Baden-Württemberg"}},{"name":"Röhrsberghaldeweg","postalCode":"72270","locality":"Baiersbronn","municipality":{"key":"08237004","name":"Baiersbronn","type":"Kreisangehörige_Gemeinde"},"district":{"key":"08237","name":"Freudenstadt","type":"Landkreis"},"federalState":{"key":"08","name":"Baden-Württemberg"}},{"name":"Röhrsbergweg","postalCode":"72270","locality":"Baiersbronn","municipality":{"key":"08237004","name":"Baiersbronn","type":"Kreisangehörige_Gemeinde"},"district":{"key":"08237","name":"Freudenstadt","type":"Landkreis"},"federalState":{"key":"08","name":"Baden-Württemberg"}},{"name":"Rommelsau","postalCode":"72270","locality":"Baiersbronn","municipality":{"key":"08237004","name":"Baiersbronn","type":"Kreisangehörige_Gemeinde"},"district":{"key":"08237","name":"Freudenstadt","type":"Landkreis"},"federalState":{"key":"08","name":"Baden-Württemberg"}},{"name":"Rosenberg","postalCode":"72270","locality":"Baiersbronn","municipality":{"key":"08237004","name":"Baiersbronn","type":"Kreisangehörige_Gemeinde"},"district":{"key":"08237","name":"Freudenstadt","type":"Landkreis"},"federalState":{"key":"08","name":"Baden-Württemberg"}},{"name":"Rosenbergweg","postalCode":"72270","locality":"Baiersbronn","municipality":{"key":"08237004","name":"Baiersbronn","type":"Kreisangehörige_Gemeinde"},"district":{"key":"08237","name":"Freudenstadt","type":"Landkreis"},"federalState":{"key":"08","name":"Baden-Württemberg"}},{"name":"Rosenplatz","postalCode":"72270","locality":"Baiersbronn","municipality":{"key":"08237004","name":"Baiersbronn","type":"Kreisangehörige_Gemeinde"},"district":{"key":"08237","name":"Freudenstadt","type":"Landkreis"},"federalState":{"key":"08","name":"Baden-Württemberg"}},{"name":"Roßberg Rank","postalCode":"72270","locality":"Baiersbronn","municipality":{"key":"08237004","name":"Baiersbronn","type":"Kreisangehörige_Gemeinde"},"district":{"key":"08237","name":"Freudenstadt","type":"Landkreis"},"federalState":{"key":"08","name":"Baden-Württemberg"}},{"name":"Roßhaldeweg","postalCode":"72270","locality":"Baiersbronn","municipality":{"key":"08237004","name":"Baiersbronn","type":"Kreisangehörige_Gemeinde"},"district":{"key":"08237","name":"Freudenstadt","type":"Landkreis"},"federalState":{"key":"08","name":"Baden-Württemberg"}},{"name":"Rotergießensträßchen","postalCode":"72270","locality":"Baiersbronn","municipality":{"key":"08237004","name":"Baiersbronn","type":"Kreisangehörige_Gemeinde"},"district":{"key":"08237","name":"Freudenstadt","type":"Landkreis"},"federalState":{"key":"08","name":"Baden-Württemberg"}},{"name":"Roter Rain","postalCode":"72270","locality":"Baiersbronn","municipality":{"key":"08237004","name":"Baiersbronn","type":"Kreisangehörige_Gemeinde"},"district":{"key":"08237","name":"Freudenstadt","type":"Landkreis"},"federalState":{"key":"08","name":"Baden-Württemberg"}},{"name":"Röter Str.","postalCode":"72270","locality":"Baiersbronn","municipality":{"key":"08237004","name":"Baiersbronn","type":"Kreisangehörige_Gemeinde"},"district":{"key":"08237","name":"Freudenstadt","type":"Landkreis"},"federalState":{"key":"08","name":"Baden-Württemberg"}},{"name":"Rotmurgstr.","postalCode":"72270","locality":"Baiersbronn","municipality":{"key":"08237004","name":"Baiersbronn","type":"Kreisangehörige_Gemeinde"},"district":{"key":"08237","name":"Freudenstadt","type":"Landkreis"},"federalState":{"key":"08","name":"Baden-Württemberg"}},{"name":"Rotmurgtalweg","postalCode":"72270","locality":"Baiersbronn","municipality":{"key":"08237004","name":"Baiersbronn","type":"Kreisangehörige_Gemeinde"},"district":{"key":"08237","name":"Freudenstadt","type":"Landkreis"},"federalState":{"key":"08","name":"Baden-Württemberg"}},{"name":"Rotmurg-Winterseitesträßchen","postalCode":"72270","locality":"Baiersbronn","municipality":{"key":"08237004","name":"Baiersbronn","type":"Kreisangehörige_Gemeinde"},"district":{"key":"08237","name":"Freudenstadt","type":"Landkreis"},"federalState":{"key":"08","name":"Baden-Württemberg"}},{"name":"Ruhbachgasse","postalCode":"72270","locality":"Baiersbronn","municipality":{"key":"08237004","name":"Baiersbronn","type":"Kreisangehörige_Gemeinde"},"district":{"key":"08237","name":"Freudenstadt","type":"Landkreis"},"federalState":{"key":"08","name":"Baden-Württemberg"}},{"name":"Ruhesteinstr.","postalCode":"72270","locality":"Baiersbronn","municipality":{"key":"08237004","name":"Baiersbronn","type":"Kreisangehörige_Gemeinde"},"district":{"key":"08237","name":"Freudenstadt","type":"Landkreis"},"federalState":{"key":"08","name":"Baden-Württemberg"}},{"name":"Rundweg","postalCode":"72270","locality":"Baiersbronn","municipality":{"key":"08237004","name":"Baiersbronn","type":"Kreisangehörige_Gemeinde"},"district":{"key":"08237","name":"Freudenstadt","type":"Landkreis"},"federalState":{"key":"08","name":"Baden-Württemberg"}},{"name":"Saarstr.","postalCode":"72270","locality":"Baiersbronn","municipality":{"key":"08237004","name":"Baiersbronn","type":"Kreisangehörige_Gemeinde"},"district":{"key":"08237","name":"Freudenstadt","type":"Landkreis"},"federalState":{"key":"08","name":"Baden-Württemberg"}},{"name":"Sägmühleweg","postalCode":"72270","locality":"Baiersbronn","municipality":{"key":"08237004","name":"Baiersbronn","type":"Kreisangehörige_Gemeinde"},"district":{"key":"08237","name":"Freudenstadt","type":"Landkreis"},"federalState":{"key":"08","name":"Baden-Württemberg"}},{"name":"Salzleckenweg","postalCode":"72270","locality":"Baiersbronn","municipality":{"key":"08237004","name":"Baiersbronn","type":"Kreisangehörige_Gemeinde"},"district":{"key":"08237","name":"Freudenstadt","type":"Landkreis"},"federalState":{"key":"08","name":"Baden-Württemberg"}},{"name":"Sandgrube","postalCode":"72270","locality":"Baiersbronn","municipality":{"key":"08237004","name":"Baiersbronn","type":"Kreisangehörige_Gemeinde"},"district":{"key":"08237","name":"Freudenstadt","type":"Landkreis"},"federalState":{"key":"08","name":"Baden-Württemberg"}},{"name":"Sankenbachkesselsträßchen","postalCode":"72270","locality":"Baiersbronn","municipality":{"key":"08237004","name":"Baiersbronn","type":"Kreisangehörige_Gemeinde"},"district":{"key":"08237","name":"Freudenstadt","type":"Landkreis"},"federalState":{"key":"08","name":"Baden-Württemberg"}},{"name":"Sankenbachstr.","postalCode":"72270","locality":"Baiersbronn","municipality":{"key":"08237004","name":"Baiersbronn","type":"Kreisangehörige_Gemeinde"},"district":{"key":"08237","name":"Freudenstadt","type":"Landkreis"},"federalState":{"key":"08","name":"Baden-Württemberg"}},{"name":"Schiefelgasse","postalCode":"72270","locality":"Baiersbronn","municipality":{"key":"08237004","name":"Baiersbronn","type":"Kreisangehörige_Gemeinde"},"district":{"key":"08237","name":"Freudenstadt","type":"Landkreis"},"federalState":{"key":"08","name":"Baden-Württemberg"}},{"name":"Schifferstr.","postalCode":"72270","locality":"Baiersbronn","municipality":{"key":"08237004","name":"Baiersbronn","type":"Kreisangehörige_Gemeinde"},"district":{"key":"08237","name":"Freudenstadt","type":"Landkreis"},"federalState":{"key":"08","name":"Baden-Württemberg"}},{"name":"Schillerstr.","postalCode":"72270","locality":"Baiersbronn","municipality":{"key":"08237004","name":"Baiersbronn","type":"Kreisangehörige_Gemeinde"},"district":{"key":"08237","name":"Freudenstadt","type":"Landkreis"},"federalState":{"key":"08","name":"Baden-Württemberg"}},{"name":"Schliffkopfstr.","postalCode":"72270","locality":"Baiersbronn","municipality":{"key":"08237004","name":"Baiersbronn","type":"Kreisangehörige_Gemeinde"},"district":{"key":"08237","name":"Freudenstadt","type":"Landkreis"},"federalState":{"key":"08","name":"Baden-Württemberg"}},{"name":"Schliffkopfweg","postalCode":"72270","locality":"Baiersbronn","municipality":{"key":"08237004","name":"Baiersbronn","type":"Kreisangehörige_Gemeinde"},"district":{"key":"08237","name":"Freudenstadt","type":"Landkreis"},"federalState":{"key":"08","name":"Baden-Württemberg"}},{"name":"Schloßweg","postalCode":"72270","locality":"Baiersbronn","municipality":{"key":"08237004","name":"Baiersbronn","type":"Kreisangehörige_Gemeinde"},"district":{"key":"08237","name":"Freudenstadt","type":"Landkreis"},"federalState":{"key":"08","name":"Baden-Württemberg"}},{"name":"Schönblickweg","postalCode":"72270","locality":"Baiersbronn","municipality":{"key":"08237004","name":"Baiersbronn","type":"Kreisangehörige_Gemeinde"},"district":{"key":"08237","name":"Freudenstadt","type":"Landkreis"},"federalState":{"key":"08","name":"Baden-Württemberg"}},{"name":"Schönegründer Str.","postalCode":"72270","locality":"Baiersbronn","municipality":{"key":"08237004","name":"Baiersbronn","type":"Kreisangehörige_Gemeinde"},"district":{"key":"08237","name":"Freudenstadt","type":"Landkreis"},"federalState":{"key":"08","name":"Baden-Württemberg"}},{"name":"Schönmünz","postalCode":"72270","locality":"Baiersbronn","municipality":{"key":"08237004","name":"Baiersbronn","type":"Kreisangehörige_Gemeinde"},"district":{"key":"08237","name":"Freudenstadt","type":"Landkreis"},"federalState":{"key":"08","name":"Baden-Württemberg"}},{"name":"Schönmünzbrückle","postalCode":"72270","locality":"Baiersbronn","municipality":{"key":"08237004","name":"Baiersbronn","type":"Kreisangehörige_Gemeinde"},"district":{"key":"08237","name":"Freudenstadt","type":"Landkreis"},"federalState":{"key":"08","name":"Baden-Württemberg"}},{"name":"Schönmünz-Sommerseiten-Sträßle","postalCode":"72270","locality":"Baiersbronn","municipality":{"key":"08237004","name":"Baiersbronn","type":"Kreisangehörige_Gemeinde"},"district":{"key":"08237","name":"Freudenstadt","type":"Landkreis"},"federalState":{"key":"08","name":"Baden-Württemberg"}},{"name":"Schönmünzstr.","postalCode":"72270","locality":"Baiersbronn","municipality":{"key":"08237004","name":"Baiersbronn","type":"Kreisangehörige_Gemeinde"},"district":{"key":"08237","name":"Freudenstadt","type":"Landkreis"},"federalState":{"key":"08","name":"Baden-Württemberg"}},{"name":"Schoolweg","postalCode":"72270","locality":"Baiersbronn","municipality":{"key":"08237004","name":"Baiersbronn","type":"Kreisangehörige_Gemeinde"},"district":{"key":"08237","name":"Freudenstadt","type":"Landkreis"},"federalState":{"key":"08","name":"Baden-Württemberg"}},{"name":"Schulweg","postalCode":"72270","locality":"Baiersbronn","municipality":{"key":"08237004","name":"Baiersbronn","type":"Kreisangehörige_Gemeinde"},"district":{"key":"08237","name":"Freudenstadt","type":"Landkreis"},"federalState":{"key":"08","name":"Baden-Württemberg"}},{"name":"Schwarzmissweg","postalCode":"72270","locality":"Baiersbronn","municipality":{"key":"08237004","name":"Baiersbronn","type":"Kreisangehörige_Gemeinde"},"district":{"key":"08237","name":"Freudenstadt","type":"Landkreis"},"federalState":{"key":"08","name":"Baden-Württemberg"}},{"name":"Schwarzwaldhochstr.","postalCode":"72270","locality":"Baiersbronn","municipality":{"key":"08237004","name":"Baiersbronn","type":"Kreisangehörige_Gemeinde"},"district":{"key":"08237","name":"Freudenstadt","type":"Landkreis"},"federalState":{"key":"08","name":"Baden-Württemberg"}},{"name":"Schwimmbadweg","postalCode":"72270","locality":"Baiersbronn","municipality":{"key":"08237004","name":"Baiersbronn","type":"Kreisangehörige_Gemeinde"},"district":{"key":"08237","name":"Freudenstadt","type":"Landkreis"},"federalState":{"key":"08","name":"Baden-Württemberg"}},{"name":"Seebachstr.","postalCode":"72270","locality":"Baiersbronn","municipality":{"key":"08237004","name":"Baiersbronn","type":"Kreisangehörige_Gemeinde"},"district":{"key":"08237","name":"Freudenstadt","type":"Landkreis"},"federalState":{"key":"08","name":"Baden-Württemberg"}},{"name":"Seebachsträßchen","postalCode":"72270","locality":"Baiersbronn","municipality":{"key":"08237004","name":"Baiersbronn","type":"Kreisangehörige_Gemeinde"},"district":{"key":"08237","name":"Freudenstadt","type":"Landkreis"},"federalState":{"key":"08","name":"Baden-Württemberg"}},{"name":"Seehaldeweg","postalCode":"72270","locality":"Baiersbronn","municipality":{"key":"08237004","name":"Baiersbronn","type":"Kreisangehörige_Gemeinde"},"district":{"key":"08237","name":"Freudenstadt","type":"Landkreis"},"federalState":{"key":"08","name":"Baden-Württemberg"}},{"name":"Seerückenweg","postalCode":"72270","locality":"Baiersbronn","municipality":{"key":"08237004","name":"Baiersbronn","type":"Kreisangehörige_Gemeinde"},"district":{"key":"08237","name":"Freudenstadt","type":"Landkreis"},"federalState":{"key":"08","name":"Baden-Württemberg"}},{"name":"Seeweg","postalCode":"72270","locality":"Baiersbronn","municipality":{"key":"08237004","name":"Baiersbronn","type":"Kreisangehörige_Gemeinde"},"district":{"key":"08237","name":"Freudenstadt","type":"Landkreis"},"federalState":{"key":"08","name":"Baden-Württemberg"}},{"name":"Silberberg","postalCode":"72270","locality":"Baiersbronn","municipality":{"key":"08237004","name":"Baiersbronn","type":"Kreisangehörige_Gemeinde"},"district":{"key":"08237","name":"Freudenstadt","type":"Landkreis"},"federalState":{"key":"08","name":"Baden-Württemberg"}},{"name":"Sommerbergweg","postalCode":"72270","locality":"Baiersbronn","municipality":{"key":"08237004","name":"Baiersbronn","type":"Kreisangehörige_Gemeinde"},"district":{"key":"08237","name":"Freudenstadt","type":"Landkreis"},"federalState":{"key":"08","name":"Baden-Württemberg"}},{"name":"Sommerhalde","postalCode":"72270","locality":"Baiersbronn","municipality":{"key":"08237004","name":"Baiersbronn","type":"Kreisangehörige_Gemeinde"},"district":{"key":"08237","name":"Freudenstadt","type":"Landkreis"},"federalState":{"key":"08","name":"Baden-Württemberg"}},{"name":"Sommerseitebergsträßchen","postalCode":"72270","locality":"Baiersbronn","municipality":{"key":"08237004","name":"Baiersbronn","type":"Kreisangehörige_Gemeinde"},"district":{"key":"08237","name":"Freudenstadt","type":"Landkreis"},"federalState":{"key":"08","name":"Baden-Württemberg"}},{"name":"Sommerseitenweg","postalCode":"72270","locality":"Baiersbronn","municipality":{"key":"08237004","name":"Baiersbronn","type":"Kreisangehörige_Gemeinde"},"district":{"key":"08237","name":"Freudenstadt","type":"Landkreis"},"federalState":{"key":"08","name":"Baden-Württemberg"}},{"name":"Sommerseitetalsträßchen","postalCode":"72270","locality":"Baiersbronn","municipality":{"key":"08237004","name":"Baiersbronn","type":"Kreisangehörige_Gemeinde"},"district":{"key":"08237","name":"Freudenstadt","type":"Landkreis"},"federalState":{"key":"08","name":"Baden-Württemberg"}},{"name":"Sommmerseitetalsträßchen","postalCode":"72270","locality":"Baiersbronn","municipality":{"key":"08237004","name":"Baiersbronn","type":"Kreisangehörige_Gemeinde"},"district":{"key":"08237","name":"Freudenstadt","type":"Landkreis"},"federalState":{"key":"08","name":"Baden-Württemberg"}},{"name":"Sonnenhalde","postalCode":"72270","locality":"Baiersbronn","municipality":{"key":"08237004","name":"Baiersbronn","type":"Kreisangehörige_Gemeinde"},"district":{"key":"08237","name":"Freudenstadt","type":"Landkreis"},"federalState":{"key":"08","name":"Baden-Württemberg"}},{"name":"Städelgrundweg","postalCode":"72270","locality":"Baiersbronn","municipality":{"key":"08237004","name":"Baiersbronn","type":"Kreisangehörige_Gemeinde"},"district":{"key":"08237","name":"Freudenstadt","type":"Landkreis"},"federalState":{"key":"08","name":"Baden-Württemberg"}},{"name":"Staigle","postalCode":"72270","locality":"Baiersbronn","municipality":{"key":"08237004","name":"Baiersbronn","type":"Kreisangehörige_Gemeinde"},"district":{"key":"08237","name":"Freudenstadt","type":"Landkreis"},"federalState":{"key":"08","name":"Baden-Württemberg"}},{"name":"Steingrundweg","postalCode":"72270","locality":"Baiersbronn","municipality":{"key":"08237004","name":"Baiersbronn","type":"Kreisangehörige_Gemeinde"},"district":{"key":"08237","name":"Freudenstadt","type":"Landkreis"},"federalState":{"key":"08","name":"Baden-Württemberg"}},{"name":"St. Michaelsweg","postalCode":"72270","locality":"Baiersbronn","municipality":{"key":"08237004","name":"Baiersbronn","type":"Kreisangehörige_Gemeinde"},"district":{"key":"08237","name":"Freudenstadt","type":"Landkreis"},"federalState":{"key":"08","name":"Baden-Württemberg"}},{"name":"Stöckerweg","postalCode":"72270","locality":"Baiersbronn","municipality":{"key":"08237004","name":"Baiersbronn","type":"Kreisangehörige_Gemeinde"},"district":{"key":"08237","name":"Freudenstadt","type":"Landkreis"},"federalState":{"key":"08","name":"Baden-Württemberg"}},{"name":"Stöckerwiesen","postalCode":"72270","locality":"Baiersbronn","municipality":{"key":"08237004","name":"Baiersbronn","type":"Kreisangehörige_Gemeinde"},"district":{"key":"08237","name":"Freudenstadt","type":"Landkreis"},"federalState":{"key":"08","name":"Baden-Württemberg"}},{"name":"Stockweg","postalCode":"72270","locality":"Baiersbronn","municipality":{"key":"08237004","name":"Baiersbronn","type":"Kreisangehörige_Gemeinde"},"district":{"key":"08237","name":"Freudenstadt","type":"Landkreis"},"federalState":{"key":"08","name":"Baden-Württemberg"}},{"name":"Stumpengrubsträßle","postalCode":"72270","locality":"Baiersbronn","municipality":{"key":"08237004","name":"Baiersbronn","type":"Kreisangehörige_Gemeinde"},"district":{"key":"08237","name":"Freudenstadt","type":"Landkreis"},"federalState":{"key":"08","name":"Baden-Württemberg"}},{"name":"Surrbachweg","postalCode":"72270","locality":"Baiersbronn","municipality":{"key":"08237004","name":"Baiersbronn","type":"Kreisangehörige_Gemeinde"},"district":{"key":"08237","name":"Freudenstadt","type":"Landkreis"},"federalState":{"key":"08","name":"Baden-Württemberg"}},{"name":"Teichweg","postalCode":"72270","locality":"Baiersbronn","municipality":{"key":"08237004","name":"Baiersbronn","type":"Kreisangehörige_Gemeinde"},"district":{"key":"08237","name":"Freudenstadt","type":"Landkreis"},"federalState":{"key":"08","name":"Baden-Württemberg"}},{"name":"Teufelsmühle","postalCode":"72270","locality":"Baiersbronn","municipality":{"key":"08237004","name":"Baiersbronn","type":"Kreisangehörige_Gemeinde"},"district":{"key":"08237","name":"Freudenstadt","type":"Landkreis"},"federalState":{"key":"08","name":"Baden-Württemberg"}},{"name":"Tobelweg","postalCode":"72270","locality":"Baiersbronn","municipality":{"key":"08237004","name":"Baiersbronn","type":"Kreisangehörige_Gemeinde"},"district":{"key":"08237","name":"Freudenstadt","type":"Landkreis"},"federalState":{"key":"08","name":"Baden-Württemberg"}},{"name":"Tonbachstr.","postalCode":"72270","locality":"Baiersbronn","municipality":{"key":"08237004","name":"Baiersbronn","type":"Kreisangehörige_Gemeinde"},"district":{"key":"08237","name":"Freudenstadt","type":"Landkreis"},"federalState":{"key":"08","name":"Baden-Württemberg"}},{"name":"Tonbachsträßle","postalCode":"72270","locality":"Baiersbronn","municipality":{"key":"08237004","name":"Baiersbronn","type":"Kreisangehörige_Gemeinde"},"district":{"key":"08237","name":"Freudenstadt","type":"Landkreis"},"federalState":{"key":"08","name":"Baden-Württemberg"}},{"name":"Tonbachweg","postalCode":"72270","locality":"Baiersbronn","municipality":{"key":"08237004","name":"Baiersbronn","type":"Kreisangehörige_Gemeinde"},"district":{"key":"08237","name":"Freudenstadt","type":"Landkreis"},"federalState":{"key":"08","name":"Baden-Württemberg"}},{"name":"Triebweg","postalCode":"72270","locality":"Baiersbronn","municipality":{"key":"08237004","name":"Baiersbronn","type":"Kreisangehörige_Gemeinde"},"district":{"key":"08237","name":"Freudenstadt","type":"Landkreis"},"federalState":{"key":"08","name":"Baden-Württemberg"}},{"name":"Uferweg","postalCode":"72270","locality":"Baiersbronn","municipality":{"key":"08237004","name":"Baiersbronn","type":"Kreisangehörige_Gemeinde"},"district":{"key":"08237","name":"Freudenstadt","type":"Landkreis"},"federalState":{"key":"08","name":"Baden-Württemberg"}},{"name":"Uhlandweg","postalCode":"72270","locality":"Baiersbronn","municipality":{"key":"08237004","name":"Baiersbronn","type":"Kreisangehörige_Gemeinde"},"district":{"key":"08237","name":"Freudenstadt","type":"Landkreis"},"federalState":{"key":"08","name":"Baden-Württemberg"}},{"name":"Untere Ortsstr.","postalCode":"72270","locality":"Baiersbronn","municipality":{"key":"08237004","name":"Baiersbronn","type":"Kreisangehörige_Gemeinde"},"district":{"key":"08237","name":"Freudenstadt","type":"Landkreis"},"federalState":{"key":"08","name":"Baden-Württemberg"}},{"name":"Unterer Hängerweg","postalCode":"72270","locality":"Baiersbronn","municipality":{"key":"08237004","name":"Baiersbronn","type":"Kreisangehörige_Gemeinde"},"district":{"key":"08237","name":"Freudenstadt","type":"Landkreis"},"federalState":{"key":"08","name":"Baden-Württemberg"}},{"name":"Untere Sonnenhalde","postalCode":"72270","locality":"Baiersbronn","municipality":{"key":"08237004","name":"Baiersbronn","type":"Kreisangehörige_Gemeinde"},"district":{"key":"08237","name":"Freudenstadt","type":"Landkreis"},"federalState":{"key":"08","name":"Baden-Württemberg"}},{"name":"Vorderer Hirschauerwald","postalCode":"72270","locality":"Baiersbronn","municipality":{"key":"08237004","name":"Baiersbronn","type":"Kreisangehörige_Gemeinde"},"district":{"key":"08237","name":"Freudenstadt","type":"Landkreis"},"federalState":{"key":"08","name":"Baden-Württemberg"}},{"name":"Waldackerweg","postalCode":"72270","locality":"Baiersbronn","municipality":{"key":"08237004","name":"Baiersbronn","type":"Kreisangehörige_Gemeinde"},"district":{"key":"08237","name":"Freudenstadt","type":"Landkreis"},"federalState":{"key":"08","name":"Baden-Württemberg"}},{"name":"Waldbannweg","postalCode":"72270","locality":"Baiersbronn","municipality":{"key":"08237004","name":"Baiersbronn","type":"Kreisangehörige_Gemeinde"},"district":{"key":"08237","name":"Freudenstadt","type":"Landkreis"},"federalState":{"key":"08","name":"Baden-Württemberg"}},{"name":"Waldgrundweg","postalCode":"72270","locality":"Baiersbronn","municipality":{"key":"08237004","name":"Baiersbronn","type":"Kreisangehörige_Gemeinde"},"district":{"key":"08237","name":"Freudenstadt","type":"Landkreis"},"federalState":{"key":"08","name":"Baden-Württemberg"}},{"name":"Waldstr.","postalCode":"72270","locality":"Baiersbronn","municipality":{"key":"08237004","name":"Baiersbronn","type":"Kreisangehörige_Gemeinde"},"district":{"key":"08237","name":"Freudenstadt","type":"Landkreis"},"federalState":{"key":"08","name":"Baden-Württemberg"}},{"name":"Waldweg","postalCode":"72270","locality":"Baiersbronn","municipality":{"key":"08237004","name":"Baiersbronn","type":"Kreisangehörige_Gemeinde"},"district":{"key":"08237","name":"Freudenstadt","type":"Landkreis"},"federalState":{"key":"08","name":"Baden-Württemberg"}},{"name":"Walke","postalCode":"72270","locality":"Baiersbronn","municipality":{"key":"08237004","name":"Baiersbronn","type":"Kreisangehörige_Gemeinde"},"district":{"key":"08237","name":"Freudenstadt","type":"Landkreis"},"federalState":{"key":"08","name":"Baden-Württemberg"}},{"name":"Webersweg","postalCode":"72270","locality":"Baiersbronn","municipality":{"key":"08237004","name":"Baiersbronn","type":"Kreisangehörige_Gemeinde"},"district":{"key":"08237","name":"Freudenstadt","type":"Landkreis"},"federalState":{"key":"08","name":"Baden-Württemberg"}},{"name":"Webers Wiesen","postalCode":"72270","locality":"Baiersbronn","municipality":{"key":"08237004","name":"Baiersbronn","type":"Kreisangehörige_Gemeinde"},"district":{"key":"08237","name":"Freudenstadt","type":"Landkreis"},"federalState":{"key":"08","name":"Baden-Württemberg"}},{"name":"Weg zum Weissenbach","postalCode":"72270","locality":"Baiersbronn","municipality":{"key":"08237004","name":"Baiersbronn","type":"Kreisangehörige_Gemeinde"},"district":{"key":"08237","name":"Freudenstadt","type":"Landkreis"},"federalState":{"key":"08","name":"Baden-Württemberg"}},{"name":"Weiherhaldesträßchen","postalCode":"72270","locality":"Baiersbronn","municipality":{"key":"08237004","name":"Baiersbronn","type":"Kreisangehörige_Gemeinde"},"district":{"key":"08237","name":"Freudenstadt","type":"Landkreis"},"federalState":{"key":"08","name":"Baden-Württemberg"}},{"name":"Weiherweg","postalCode":"72270","locality":"Baiersbronn","municipality":{"key":"08237004","name":"Baiersbronn","type":"Kreisangehörige_Gemeinde"},"district":{"key":"08237","name":"Freudenstadt","type":"Landkreis"},"federalState":{"key":"08","name":"Baden-Württemberg"}},{"name":"Wiedenbergweg","postalCode":"72270","locality":"Baiersbronn","municipality":{"key":"08237004","name":"Baiersbronn","type":"Kreisangehörige_Gemeinde"},"district":{"key":"08237","name":"Freudenstadt","type":"Landkreis"},"federalState":{"key":"08","name":"Baden-Württemberg"}},{"name":"Wildbader Str.","postalCode":"72270","locality":"Baiersbronn","municipality":{"key":"08237004","name":"Baiersbronn","type":"Kreisangehörige_Gemeinde"},"district":{"key":"08237","name":"Freudenstadt","type":"Landkreis"},"federalState":{"key":"08","name":"Baden-Württemberg"}},{"name":"Wilhelm-Günter-Weg","postalCode":"72270","locality":"Baiersbronn","municipality":{"key":"08237004","name":"Baiersbronn","type":"Kreisangehörige_Gemeinde"},"district":{"key":"08237","name":"Freudenstadt","type":"Landkreis"},"federalState":{"key":"08","name":"Baden-Württemberg"}},{"name":"Wilhelm-Heusel-Str.","postalCode":"72270","locality":"Baiersbronn","municipality":{"key":"08237004","name":"Baiersbronn","type":"Kreisangehörige_Gemeinde"},"district":{"key":"08237","name":"Freudenstadt","type":"Landkreis"},"federalState":{"key":"08","name":"Baden-Württemberg"}},{"name":"Wilhelm-Münster-Str.","postalCode":"72270","locality":"Baiersbronn","municipality":{"key":"08237004","name":"Baiersbronn","type":"Kreisangehörige_Gemeinde"},"district":{"key":"08237","name":"Freudenstadt","type":"Landkreis"},"federalState":{"key":"08","name":"Baden-Württemberg"}},{"name":"Winterseitenweg","postalCode":"72270","locality":"Baiersbronn","municipality":{"key":"08237004","name":"Baiersbronn","type":"Kreisangehörige_Gemeinde"},"district":{"key":"08237","name":"Freudenstadt","type":"Landkreis"},"federalState":{"key":"08","name":"Baden-Württemberg"}},{"name":"Winterseitetalsträßchen","postalCode":"72270","locality":"Baiersbronn","municipality":{"key":"08237004","name":"Baiersbronn","type":"Kreisangehörige_Gemeinde"},"district":{"key":"08237","name":"Freudenstadt","type":"Landkreis"},"federalState":{"key":"08","name":"Baden-Württemberg"}},{"name":"Wolfigweg","postalCode":"72270","locality":"Baiersbronn","municipality":{"key":"08237004","name":"Baiersbronn","type":"Kreisangehörige_Gemeinde"},"district":{"key":"08237","name":"Freudenstadt","type":"Landkreis"},"federalState":{"key":"08","name":"Baden-Württemberg"}},{"name":"Wolkenhütteweg","postalCode":"72270","locality":"Baiersbronn","municipality":{"key":"08237004","name":"Baiersbronn","type":"Kreisangehörige_Gemeinde"},"district":{"key":"08237","name":"Freudenstadt","type":"Landkreis"},"federalState":{"key":"08","name":"Baden-Württemberg"}},{"name":"Wursterweg","postalCode":"72270","locality":"Baiersbronn","municipality":{"key":"08237004","name":"Baiersbronn","type":"Kreisangehörige_Gemeinde"},"district":{"key":"08237","name":"Freudenstadt","type":"Landkreis"},"federalState":{"key":"08","name":"Baden-Württemberg"}},{"name":"Wüstlochschleifweg","postalCode":"72270","locality":"Baiersbronn","municipality":{"key":"08237004","name":"Baiersbronn","type":"Kreisangehörige_Gemeinde"},"district":{"key":"08237","name":"Freudenstadt","type":"Landkreis"},"federalState":{"key":"08","name":"Baden-Württemberg"}},{"name":"Wüstlochweg","postalCode":"72270","locality":"Baiersbronn","municipality":{"key":"08237004","name":"Baiersbronn","type":"Kreisangehörige_Gemeinde"},"district":{"key":"08237","name":"Freudenstadt","type":"Landkreis"},"federalState":{"key":"08","name":"Baden-Württemberg"}},{"name":"Ziegelteich","postalCode":"72270","locality":"Baiersbronn","municipality":{"key":"08237004","name":"Baiersbronn","type":"Kreisangehörige_Gemeinde"},"district":{"key":"08237","name":"Freudenstadt","type":"Landkreis"},"federalState":{"key":"08","name":"Baden-Württemberg"}},{"name":"Zinkenweg","postalCode":"72270","locality":"Baiersbronn","municipality":{"key":"08237004","name":"Baiersbronn","type":"Kreisangehörige_Gemeinde"},"district":{"key":"08237","name":"Freudenstadt","type":"Landkreis"},"federalState":{"key":"08","name":"Baden-Württemberg"}},{"name":"Zum Bergmosis","postalCode":"72270","locality":"Baiersbronn","municipality":{"key":"08237004","name":"Baiersbronn","type":"Kreisangehörige_Gemeinde"},"district":{"key":"08237","name":"Freudenstadt","type":"Landkreis"},"federalState":{"key":"08","name":"Baden-Württemberg"}},{"name":"Zum Bruderhof","postalCode":"72270","locality":"Baiersbronn","municipality":{"key":"08237004","name":"Baiersbronn","type":"Kreisangehörige_Gemeinde"},"district":{"key":"08237","name":"Freudenstadt","type":"Landkreis"},"federalState":{"key":"08","name":"Baden-Württemberg"}},{"name":"Zum Gressenteich","postalCode":"72270","locality":"Baiersbronn","municipality":{"key":"08237004","name":"Baiersbronn","type":"Kreisangehörige_Gemeinde"},"district":{"key":"08237","name":"Freudenstadt","type":"Landkreis"},"federalState":{"key":"08","name":"Baden-Württemberg"}},{"name":"Zweisetensträßchen","postalCode":"72270","locality":"Baiersbronn","municipality":{"key":"08237004","name":"Baiersbronn","type":"Kreisangehörige_Gemeinde"},"district":{"key":"08237","name":"Freudenstadt","type":"Landkreis"},"federalState":{"key":"08","name":"Baden-Württemberg"}},{"name":"Äußere Riviera","postalCode":"72250","locality":"Freudenstadt","municipality":{"key":"08237028","name":"Freudenstadt, Stadt","type":"Große_Kreisstadt"},"district":{"key":"08237","name":"Freudenstadt","type":"Landkreis"},"federalState":{"key":"08","name":"Baden-Württemberg"}},{"name":"Öchslestr.","postalCode":"72270","locality":"Baiersbronn","municipality":{"key":"08237004","name":"Baiersbronn","type":"Kreisangehörige_Gemeinde"},"district":{"key":"08237","name":"Freudenstadt","type":"Landkreis"},"federalState":{"key":"08","name":"Baden-Württemberg"}},{"name":"Ödegrundbergweg","postalCode":"72270","locality":"Baiersbronn","municipality":{"key":"08237004","name":"Baiersbronn","type":"Kreisangehörige_Gemeinde"},"district":{"key":"08237","name":"Freudenstadt","type":"Landkreis"},"federalState":{"key":"08","name":"Baden-Württemberg"}},{"name":"Ödegrundhangweg","postalCode":"72270","locality":"Baiersbronn","municipality":{"key":"08237004","name":"Baiersbronn","type":"Kreisangehörige_Gemeinde"},"district":{"key":"08237","name":"Freudenstadt","type":"Landkreis"},"federalState":{"key":"08","name":"Baden-Württemberg"}},{"name":"Ödenhofweg","postalCode":"72270","locality":"Baiersbronn","municipality":{"key":"08237004","name":"Baiersbronn","type":"Kreisangehörige_Gemeinde"},"district":{"key":"08237","name":"Freudenstadt","type":"Landkreis"},"federalState":{"key":"08","name":"Baden-Württemberg"}},{"name":"Ölleitungsweg","postalCode":"72270","locality":"Baiersbronn","municipality":{"key":"08237004","name":"Baiersbronn","type":"Kreisangehörige_Gemeinde"},"district":{"key":"08237","name":"Freudenstadt","type":"Landkreis"},"federalState":{"key":"08","name":"Baden-Württemberg"}},]