[{"name":"Ahornweg","postalCode":"55483","locality":"Lautzenhausen","municipality":{"key":"07140082","name":"Lautzenhausen","type":"Kreisangehörige_Gemeinde"},"district":{"key":"07140","name":"Rhein-Hunsrück-Kreis","type":"Landkreis"},"federalState":{"key":"07","name":"Rheinland-Pfalz"}},{"name":"Am Flugplatz","postalCode":"55483","locality":"Lautzenhausen","municipality":{"key":"07140082","name":"Lautzenhausen","type":"Kreisangehörige_Gemeinde"},"district":{"key":"07140","name":"Rhein-Hunsrück-Kreis","type":"Landkreis"},"federalState":{"key":"07","name":"Rheinland-Pfalz"}},{"name":"Auf der Hurt","postalCode":"55483","locality":"Lautzenhausen","municipality":{"key":"07140082","name":"Lautzenhausen","type":"Kreisangehörige_Gemeinde"},"district":{"key":"07140","name":"Rhein-Hunsrück-Kreis","type":"Landkreis"},"federalState":{"key":"07","name":"Rheinland-Pfalz"}},{"name":"Birkenweg","postalCode":"55483","locality":"Lautzenhausen","municipality":{"key":"07140082","name":"Lautzenhausen","type":"Kreisangehörige_Gemeinde"},"district":{"key":"07140","name":"Rhein-Hunsrück-Kreis","type":"Landkreis"},"federalState":{"key":"07","name":"Rheinland-Pfalz"}},{"name":"Büchenbeurener Str.","postalCode":"55483","locality":"Lautzenhausen","municipality":{"key":"07140082","name":"Lautzenhausen","type":"Kreisangehörige_Gemeinde"},"district":{"key":"07140","name":"Rhein-Hunsrück-Kreis","type":"Landkreis"},"federalState":{"key":"07","name":"Rheinland-Pfalz"}},{"name":"Hauptstr.","postalCode":"55483","locality":"Lautzenhausen","municipality":{"key":"07140082","name":"Lautzenhausen","type":"Kreisangehörige_Gemeinde"},"district":{"key":"07140","name":"Rhein-Hunsrück-Kreis","type":"Landkreis"},"federalState":{"key":"07","name":"Rheinland-Pfalz"}},{"name":"Mühlenweg","postalCode":"55483","locality":"Lautzenhausen","municipality":{"key":"07140082","name":"Lautzenhausen","type":"Kreisangehörige_Gemeinde"},"district":{"key":"07140","name":"Rhein-Hunsrück-Kreis","type":"Landkreis"},"federalState":{"key":"07","name":"Rheinland-Pfalz"}},{"name":"Schillerweg","postalCode":"55483","locality":"Lautzenhausen","municipality":{"key":"07140082","name":"Lautzenhausen","type":"Kreisangehörige_Gemeinde"},"district":{"key":"07140","name":"Rhein-Hunsrück-Kreis","type":"Landkreis"},"federalState":{"key":"07","name":"Rheinland-Pfalz"}},{"name":"Wasserweg","postalCode":"55483","locality":"Lautzenhausen","municipality":{"key":"07140082","name":"Lautzenhausen","type":"Kreisangehörige_Gemeinde"},"district":{"key":"07140","name":"Rhein-Hunsrück-Kreis","type":"Landkreis"},"federalState":{"key":"07","name":"Rheinland-Pfalz"}},]