[{"name":"Am Lehmberg","postalCode":"24376","locality":"Rabel","municipality":{"key":"01059154","name":"Rabel","type":"Kreisangehörige_Gemeinde"},"district":{"key":"01059","name":"Schleswig-Flensburg","type":"Kreis"},"federalState":{"key":"01","name":"Schleswig-Holstein"}},{"name":"An der Ehmsenkoppel","postalCode":"24376","locality":"Rabel","municipality":{"key":"01059154","name":"Rabel","type":"Kreisangehörige_Gemeinde"},"district":{"key":"01059","name":"Schleswig-Flensburg","type":"Kreis"},"federalState":{"key":"01","name":"Schleswig-Holstein"}},{"name":"Brennholzer Weg","postalCode":"24376","locality":"Rabel","municipality":{"key":"01059154","name":"Rabel","type":"Kreisangehörige_Gemeinde"},"district":{"key":"01059","name":"Schleswig-Flensburg","type":"Kreis"},"federalState":{"key":"01","name":"Schleswig-Holstein"}},{"name":"Buckhagener Weg","postalCode":"24376","locality":"Rabel","municipality":{"key":"01059154","name":"Rabel","type":"Kreisangehörige_Gemeinde"},"district":{"key":"01059","name":"Schleswig-Flensburg","type":"Kreis"},"federalState":{"key":"01","name":"Schleswig-Holstein"}},{"name":"Bürgermeister-Lass-Weg","postalCode":"24376","locality":"Rabel","municipality":{"key":"01059154","name":"Rabel","type":"Kreisangehörige_Gemeinde"},"district":{"key":"01059","name":"Schleswig-Flensburg","type":"Kreis"},"federalState":{"key":"01","name":"Schleswig-Holstein"}},{"name":"Dorfstr.","postalCode":"24376","locality":"Rabel","municipality":{"key":"01059154","name":"Rabel","type":"Kreisangehörige_Gemeinde"},"district":{"key":"01059","name":"Schleswig-Flensburg","type":"Kreis"},"federalState":{"key":"01","name":"Schleswig-Holstein"}},{"name":"Haarmark","postalCode":"24376","locality":"Rabel","municipality":{"key":"01059154","name":"Rabel","type":"Kreisangehörige_Gemeinde"},"district":{"key":"01059","name":"Schleswig-Flensburg","type":"Kreis"},"federalState":{"key":"01","name":"Schleswig-Holstein"}},{"name":"Hauheck","postalCode":"24376","locality":"Rabel","municipality":{"key":"01059154","name":"Rabel","type":"Kreisangehörige_Gemeinde"},"district":{"key":"01059","name":"Schleswig-Flensburg","type":"Kreis"},"federalState":{"key":"01","name":"Schleswig-Holstein"}},{"name":"Hoffeld","postalCode":"24376","locality":"Rabel","municipality":{"key":"01059154","name":"Rabel","type":"Kreisangehörige_Gemeinde"},"district":{"key":"01059","name":"Schleswig-Flensburg","type":"Kreis"},"federalState":{"key":"01","name":"Schleswig-Holstein"}},{"name":"Rabelsund","postalCode":"24376","locality":"Rabel","municipality":{"key":"01059154","name":"Rabel","type":"Kreisangehörige_Gemeinde"},"district":{"key":"01059","name":"Schleswig-Flensburg","type":"Kreis"},"federalState":{"key":"01","name":"Schleswig-Holstein"}},{"name":"Schulstr.","postalCode":"24376","locality":"Rabel","municipality":{"key":"01059154","name":"Rabel","type":"Kreisangehörige_Gemeinde"},"district":{"key":"01059","name":"Schleswig-Flensburg","type":"Kreis"},"federalState":{"key":"01","name":"Schleswig-Holstein"}},]