[{"name":"Bahnhofstr.","postalCode":"56459","locality":"Berzhahn","municipality":{"key":"07143209","name":"Berzhahn","type":"Kreisangehörige_Gemeinde"},"district":{"key":"07143","name":"Westerwaldkreis","type":"Landkreis"},"federalState":{"key":"07","name":"Rheinland-Pfalz"}},{"name":"Brunnenstr.","postalCode":"56459","locality":"Berzhahn","municipality":{"key":"07143209","name":"Berzhahn","type":"Kreisangehörige_Gemeinde"},"district":{"key":"07143","name":"Westerwaldkreis","type":"Landkreis"},"federalState":{"key":"07","name":"Rheinland-Pfalz"}},{"name":"Elbstr.","postalCode":"56459","locality":"Berzhahn","municipality":{"key":"07143209","name":"Berzhahn","type":"Kreisangehörige_Gemeinde"},"district":{"key":"07143","name":"Westerwaldkreis","type":"Landkreis"},"federalState":{"key":"07","name":"Rheinland-Pfalz"}},{"name":"Gartenstr.","postalCode":"56459","locality":"Berzhahn","municipality":{"key":"07143209","name":"Berzhahn","type":"Kreisangehörige_Gemeinde"},"district":{"key":"07143","name":"Westerwaldkreis","type":"Landkreis"},"federalState":{"key":"07","name":"Rheinland-Pfalz"}},{"name":"Grabenstr.","postalCode":"56459","locality":"Berzhahn","municipality":{"key":"07143209","name":"Berzhahn","type":"Kreisangehörige_Gemeinde"},"district":{"key":"07143","name":"Westerwaldkreis","type":"Landkreis"},"federalState":{"key":"07","name":"Rheinland-Pfalz"}},{"name":"Hauptstr.","postalCode":"56459","locality":"Berzhahn","municipality":{"key":"07143209","name":"Berzhahn","type":"Kreisangehörige_Gemeinde"},"district":{"key":"07143","name":"Westerwaldkreis","type":"Landkreis"},"federalState":{"key":"07","name":"Rheinland-Pfalz"}},{"name":"Höhenstr.","postalCode":"56459","locality":"Berzhahn","municipality":{"key":"07143209","name":"Berzhahn","type":"Kreisangehörige_Gemeinde"},"district":{"key":"07143","name":"Westerwaldkreis","type":"Landkreis"},"federalState":{"key":"07","name":"Rheinland-Pfalz"}},{"name":"Im Wiesengrund","postalCode":"56459","locality":"Berzhahn","municipality":{"key":"07143209","name":"Berzhahn","type":"Kreisangehörige_Gemeinde"},"district":{"key":"07143","name":"Westerwaldkreis","type":"Landkreis"},"federalState":{"key":"07","name":"Rheinland-Pfalz"}},{"name":"Im Winkel","postalCode":"56459","locality":"Berzhahn","municipality":{"key":"07143209","name":"Berzhahn","type":"Kreisangehörige_Gemeinde"},"district":{"key":"07143","name":"Westerwaldkreis","type":"Landkreis"},"federalState":{"key":"07","name":"Rheinland-Pfalz"}},{"name":"Lindenstr.","postalCode":"56459","locality":"Berzhahn","municipality":{"key":"07143209","name":"Berzhahn","type":"Kreisangehörige_Gemeinde"},"district":{"key":"07143","name":"Westerwaldkreis","type":"Landkreis"},"federalState":{"key":"07","name":"Rheinland-Pfalz"}},{"name":"Poststr.","postalCode":"56459","locality":"Berzhahn","municipality":{"key":"07143209","name":"Berzhahn","type":"Kreisangehörige_Gemeinde"},"district":{"key":"07143","name":"Westerwaldkreis","type":"Landkreis"},"federalState":{"key":"07","name":"Rheinland-Pfalz"}},{"name":"Quellenstr.","postalCode":"56459","locality":"Berzhahn","municipality":{"key":"07143209","name":"Berzhahn","type":"Kreisangehörige_Gemeinde"},"district":{"key":"07143","name":"Westerwaldkreis","type":"Landkreis"},"federalState":{"key":"07","name":"Rheinland-Pfalz"}},{"name":"Querstr.","postalCode":"56459","locality":"Berzhahn","municipality":{"key":"07143209","name":"Berzhahn","type":"Kreisangehörige_Gemeinde"},"district":{"key":"07143","name":"Westerwaldkreis","type":"Landkreis"},"federalState":{"key":"07","name":"Rheinland-Pfalz"}},{"name":"Ringstr.","postalCode":"56459","locality":"Berzhahn","municipality":{"key":"07143209","name":"Berzhahn","type":"Kreisangehörige_Gemeinde"},"district":{"key":"07143","name":"Westerwaldkreis","type":"Landkreis"},"federalState":{"key":"07","name":"Rheinland-Pfalz"}},{"name":"Spechtstr.","postalCode":"56459","locality":"Berzhahn","municipality":{"key":"07143209","name":"Berzhahn","type":"Kreisangehörige_Gemeinde"},"district":{"key":"07143","name":"Westerwaldkreis","type":"Landkreis"},"federalState":{"key":"07","name":"Rheinland-Pfalz"}},{"name":"Tannenstr.","postalCode":"56459","locality":"Berzhahn","municipality":{"key":"07143209","name":"Berzhahn","type":"Kreisangehörige_Gemeinde"},"district":{"key":"07143","name":"Westerwaldkreis","type":"Landkreis"},"federalState":{"key":"07","name":"Rheinland-Pfalz"}},{"name":"Vor dem Kalk","postalCode":"56459","locality":"Berzhahn","municipality":{"key":"07143209","name":"Berzhahn","type":"Kreisangehörige_Gemeinde"},"district":{"key":"07143","name":"Westerwaldkreis","type":"Landkreis"},"federalState":{"key":"07","name":"Rheinland-Pfalz"}},{"name":"Waldstr.","postalCode":"56459","locality":"Berzhahn","municipality":{"key":"07143209","name":"Berzhahn","type":"Kreisangehörige_Gemeinde"},"district":{"key":"07143","name":"Westerwaldkreis","type":"Landkreis"},"federalState":{"key":"07","name":"Rheinland-Pfalz"}},{"name":"Wiesenstr.","postalCode":"56459","locality":"Berzhahn","municipality":{"key":"07143209","name":"Berzhahn","type":"Kreisangehörige_Gemeinde"},"district":{"key":"07143","name":"Westerwaldkreis","type":"Landkreis"},"federalState":{"key":"07","name":"Rheinland-Pfalz"}},]