[{"name":"Achslandweg","postalCode":"63755","locality":"Alzenau","municipality":{"key":"09671111","name":"Alzenau, St","type":"Stadt"},"district":{"key":"09671","name":"Aschaffenburg","type":"Landkreis"},"federalState":{"key":"09","name":"Bayern"}},{"name":"Ahornweg","postalCode":"63755","locality":"Alzenau","municipality":{"key":"09671111","name":"Alzenau, St","type":"Stadt"},"district":{"key":"09671","name":"Aschaffenburg","type":"Landkreis"},"federalState":{"key":"09","name":"Bayern"}},{"name":"Akazienweg","postalCode":"63755","locality":"Alzenau","municipality":{"key":"09671111","name":"Alzenau, St","type":"Stadt"},"district":{"key":"09671","name":"Aschaffenburg","type":"Landkreis"},"federalState":{"key":"09","name":"Bayern"}},{"name":"Albstädter Str.","postalCode":"63755","locality":"Alzenau","municipality":{"key":"09671111","name":"Alzenau, St","type":"Stadt"},"district":{"key":"09671","name":"Aschaffenburg","type":"Landkreis"},"federalState":{"key":"09","name":"Bayern"}},{"name":"Alfred-Delp-Str.","postalCode":"63755","locality":"Alzenau","municipality":{"key":"09671111","name":"Alzenau, St","type":"Stadt"},"district":{"key":"09671","name":"Aschaffenburg","type":"Landkreis"},"federalState":{"key":"09","name":"Bayern"}},{"name":"Alte Hohle","postalCode":"63755","locality":"Alzenau","municipality":{"key":"09671111","name":"Alzenau, St","type":"Stadt"},"district":{"key":"09671","name":"Aschaffenburg","type":"Landkreis"},"federalState":{"key":"09","name":"Bayern"}},{"name":"Alzenauer Str.","postalCode":"63755","locality":"Alzenau","municipality":{"key":"09671111","name":"Alzenau, St","type":"Stadt"},"district":{"key":"09671","name":"Aschaffenburg","type":"Landkreis"},"federalState":{"key":"09","name":"Bayern"}},{"name":"Am alten Stein","postalCode":"63755","locality":"Alzenau","municipality":{"key":"09671111","name":"Alzenau, St","type":"Stadt"},"district":{"key":"09671","name":"Aschaffenburg","type":"Landkreis"},"federalState":{"key":"09","name":"Bayern"}},{"name":"Am Apfelgraben","postalCode":"63755","locality":"Alzenau","municipality":{"key":"09671111","name":"Alzenau, St","type":"Stadt"},"district":{"key":"09671","name":"Aschaffenburg","type":"Landkreis"},"federalState":{"key":"09","name":"Bayern"}},{"name":"Am Bachgraben","postalCode":"63755","locality":"Alzenau","municipality":{"key":"09671111","name":"Alzenau, St","type":"Stadt"},"district":{"key":"09671","name":"Aschaffenburg","type":"Landkreis"},"federalState":{"key":"09","name":"Bayern"}},{"name":"Am Backhaus","postalCode":"63755","locality":"Alzenau","municipality":{"key":"09671111","name":"Alzenau, St","type":"Stadt"},"district":{"key":"09671","name":"Aschaffenburg","type":"Landkreis"},"federalState":{"key":"09","name":"Bayern"}},{"name":"Am Birkenberg","postalCode":"63755","locality":"Alzenau","municipality":{"key":"09671111","name":"Alzenau, St","type":"Stadt"},"district":{"key":"09671","name":"Aschaffenburg","type":"Landkreis"},"federalState":{"key":"09","name":"Bayern"}},{"name":"Am Birnbaum","postalCode":"63755","locality":"Alzenau","municipality":{"key":"09671111","name":"Alzenau, St","type":"Stadt"},"district":{"key":"09671","name":"Aschaffenburg","type":"Landkreis"},"federalState":{"key":"09","name":"Bayern"}},{"name":"Am Burgsteg","postalCode":"63755","locality":"Alzenau","municipality":{"key":"09671111","name":"Alzenau, St","type":"Stadt"},"district":{"key":"09671","name":"Aschaffenburg","type":"Landkreis"},"federalState":{"key":"09","name":"Bayern"}},{"name":"Am Dickert","postalCode":"63755","locality":"Alzenau","municipality":{"key":"09671111","name":"Alzenau, St","type":"Stadt"},"district":{"key":"09671","name":"Aschaffenburg","type":"Landkreis"},"federalState":{"key":"09","name":"Bayern"}},{"name":"Am Elzegraben","postalCode":"63755","locality":"Alzenau","municipality":{"key":"09671111","name":"Alzenau, St","type":"Stadt"},"district":{"key":"09671","name":"Aschaffenburg","type":"Landkreis"},"federalState":{"key":"09","name":"Bayern"}},{"name":"Am Erlenborn","postalCode":"63755","locality":"Alzenau","municipality":{"key":"09671111","name":"Alzenau, St","type":"Stadt"},"district":{"key":"09671","name":"Aschaffenburg","type":"Landkreis"},"federalState":{"key":"09","name":"Bayern"}},{"name":"Am Fallthor","postalCode":"63755","locality":"Alzenau","municipality":{"key":"09671111","name":"Alzenau, St","type":"Stadt"},"district":{"key":"09671","name":"Aschaffenburg","type":"Landkreis"},"federalState":{"key":"09","name":"Bayern"}},{"name":"Am Felsenkeller","postalCode":"63755","locality":"Alzenau","municipality":{"key":"09671111","name":"Alzenau, St","type":"Stadt"},"district":{"key":"09671","name":"Aschaffenburg","type":"Landkreis"},"federalState":{"key":"09","name":"Bayern"}},{"name":"Am Gänsteich","postalCode":"63755","locality":"Alzenau","municipality":{"key":"09671111","name":"Alzenau, St","type":"Stadt"},"district":{"key":"09671","name":"Aschaffenburg","type":"Landkreis"},"federalState":{"key":"09","name":"Bayern"}},{"name":"Am Gaubert","postalCode":"63755","locality":"Alzenau","municipality":{"key":"09671111","name":"Alzenau, St","type":"Stadt"},"district":{"key":"09671","name":"Aschaffenburg","type":"Landkreis"},"federalState":{"key":"09","name":"Bayern"}},{"name":"Am Goldbach","postalCode":"63755","locality":"Alzenau","municipality":{"key":"09671111","name":"Alzenau, St","type":"Stadt"},"district":{"key":"09671","name":"Aschaffenburg","type":"Landkreis"},"federalState":{"key":"09","name":"Bayern"}},{"name":"Am Hohen Kreuz","postalCode":"63755","locality":"Alzenau","municipality":{"key":"09671111","name":"Alzenau, St","type":"Stadt"},"district":{"key":"09671","name":"Aschaffenburg","type":"Landkreis"},"federalState":{"key":"09","name":"Bayern"}},{"name":"Am Hörsteiner Weg","postalCode":"63755","locality":"Alzenau","municipality":{"key":"09671111","name":"Alzenau, St","type":"Stadt"},"district":{"key":"09671","name":"Aschaffenburg","type":"Landkreis"},"federalState":{"key":"09","name":"Bayern"}},{"name":"Am Jüdischen Friedhof","postalCode":"63755","locality":"Alzenau","municipality":{"key":"09671111","name":"Alzenau, St","type":"Stadt"},"district":{"key":"09671","name":"Aschaffenburg","type":"Landkreis"},"federalState":{"key":"09","name":"Bayern"}},{"name":"Am Kapellenplatz","postalCode":"63755","locality":"Alzenau","municipality":{"key":"09671111","name":"Alzenau, St","type":"Stadt"},"district":{"key":"09671","name":"Aschaffenburg","type":"Landkreis"},"federalState":{"key":"09","name":"Bayern"}},{"name":"Am Kirchberg","postalCode":"63755","locality":"Alzenau","municipality":{"key":"09671111","name":"Alzenau, St","type":"Stadt"},"district":{"key":"09671","name":"Aschaffenburg","type":"Landkreis"},"federalState":{"key":"09","name":"Bayern"}},{"name":"Am Krassberg","postalCode":"63755","locality":"Alzenau","municipality":{"key":"09671111","name":"Alzenau, St","type":"Stadt"},"district":{"key":"09671","name":"Aschaffenburg","type":"Landkreis"},"federalState":{"key":"09","name":"Bayern"}},{"name":"Am Lotzenstein","postalCode":"63755","locality":"Alzenau","municipality":{"key":"09671111","name":"Alzenau, St","type":"Stadt"},"district":{"key":"09671","name":"Aschaffenburg","type":"Landkreis"},"federalState":{"key":"09","name":"Bayern"}},{"name":"Am Mittelbach","postalCode":"63755","locality":"Alzenau","municipality":{"key":"09671111","name":"Alzenau, St","type":"Stadt"},"district":{"key":"09671","name":"Aschaffenburg","type":"Landkreis"},"federalState":{"key":"09","name":"Bayern"}},{"name":"Am Mühlstück","postalCode":"63755","locality":"Alzenau","municipality":{"key":"09671111","name":"Alzenau, St","type":"Stadt"},"district":{"key":"09671","name":"Aschaffenburg","type":"Landkreis"},"federalState":{"key":"09","name":"Bayern"}},{"name":"Am Neuen Berg","postalCode":"63755","locality":"Alzenau","municipality":{"key":"09671111","name":"Alzenau, St","type":"Stadt"},"district":{"key":"09671","name":"Aschaffenburg","type":"Landkreis"},"federalState":{"key":"09","name":"Bayern"}},{"name":"Am Pavillon","postalCode":"63755","locality":"Alzenau","municipality":{"key":"09671111","name":"Alzenau, St","type":"Stadt"},"district":{"key":"09671","name":"Aschaffenburg","type":"Landkreis"},"federalState":{"key":"09","name":"Bayern"}},{"name":"Am Rosengarten","postalCode":"63755","locality":"Alzenau","municipality":{"key":"09671111","name":"Alzenau, St","type":"Stadt"},"district":{"key":"09671","name":"Aschaffenburg","type":"Landkreis"},"federalState":{"key":"09","name":"Bayern"}},{"name":"Amselweg","postalCode":"63755","locality":"Alzenau","municipality":{"key":"09671111","name":"Alzenau, St","type":"Stadt"},"district":{"key":"09671","name":"Aschaffenburg","type":"Landkreis"},"federalState":{"key":"09","name":"Bayern"}},{"name":"Am Speichenbach","postalCode":"63755","locality":"Alzenau","municipality":{"key":"09671111","name":"Alzenau, St","type":"Stadt"},"district":{"key":"09671","name":"Aschaffenburg","type":"Landkreis"},"federalState":{"key":"09","name":"Bayern"}},{"name":"Am Spiegelsberg","postalCode":"63755","locality":"Alzenau","municipality":{"key":"09671111","name":"Alzenau, St","type":"Stadt"},"district":{"key":"09671","name":"Aschaffenburg","type":"Landkreis"},"federalState":{"key":"09","name":"Bayern"}},{"name":"Am Spital","postalCode":"63755","locality":"Alzenau","municipality":{"key":"09671111","name":"Alzenau, St","type":"Stadt"},"district":{"key":"09671","name":"Aschaffenburg","type":"Landkreis"},"federalState":{"key":"09","name":"Bayern"}},{"name":"Am Sportfeld","postalCode":"63755","locality":"Alzenau","municipality":{"key":"09671111","name":"Alzenau, St","type":"Stadt"},"district":{"key":"09671","name":"Aschaffenburg","type":"Landkreis"},"federalState":{"key":"09","name":"Bayern"}},{"name":"Am Sportplatz","postalCode":"63755","locality":"Alzenau","municipality":{"key":"09671111","name":"Alzenau, St","type":"Stadt"},"district":{"key":"09671","name":"Aschaffenburg","type":"Landkreis"},"federalState":{"key":"09","name":"Bayern"}},{"name":"Am Wäldchen","postalCode":"63755","locality":"Alzenau","municipality":{"key":"09671111","name":"Alzenau, St","type":"Stadt"},"district":{"key":"09671","name":"Aschaffenburg","type":"Landkreis"},"federalState":{"key":"09","name":"Bayern"}},{"name":"Am Wasserloser Tor","postalCode":"63755","locality":"Alzenau","municipality":{"key":"09671111","name":"Alzenau, St","type":"Stadt"},"district":{"key":"09671","name":"Aschaffenburg","type":"Landkreis"},"federalState":{"key":"09","name":"Bayern"}},{"name":"Am Weibersbach","postalCode":"63755","locality":"Alzenau","municipality":{"key":"09671111","name":"Alzenau, St","type":"Stadt"},"district":{"key":"09671","name":"Aschaffenburg","type":"Landkreis"},"federalState":{"key":"09","name":"Bayern"}},{"name":"Am Weinberg","postalCode":"63755","locality":"Alzenau","municipality":{"key":"09671111","name":"Alzenau, St","type":"Stadt"},"district":{"key":"09671","name":"Aschaffenburg","type":"Landkreis"},"federalState":{"key":"09","name":"Bayern"}},{"name":"An der Burg","postalCode":"63755","locality":"Alzenau","municipality":{"key":"09671111","name":"Alzenau, St","type":"Stadt"},"district":{"key":"09671","name":"Aschaffenburg","type":"Landkreis"},"federalState":{"key":"09","name":"Bayern"}},{"name":"An der Hühnerhecke","postalCode":"63755","locality":"Alzenau","municipality":{"key":"09671111","name":"Alzenau, St","type":"Stadt"},"district":{"key":"09671","name":"Aschaffenburg","type":"Landkreis"},"federalState":{"key":"09","name":"Bayern"}},{"name":"An der Koppel","postalCode":"63755","locality":"Alzenau","municipality":{"key":"09671111","name":"Alzenau, St","type":"Stadt"},"district":{"key":"09671","name":"Aschaffenburg","type":"Landkreis"},"federalState":{"key":"09","name":"Bayern"}},{"name":"Anton-Schnack-Str.","postalCode":"63755","locality":"Alzenau","municipality":{"key":"09671111","name":"Alzenau, St","type":"Stadt"},"district":{"key":"09671","name":"Aschaffenburg","type":"Landkreis"},"federalState":{"key":"09","name":"Bayern"}},{"name":"Arnsburgstr.","postalCode":"63755","locality":"Alzenau","municipality":{"key":"09671111","name":"Alzenau, St","type":"Stadt"},"district":{"key":"09671","name":"Aschaffenburg","type":"Landkreis"},"federalState":{"key":"09","name":"Bayern"}},{"name":"Aschaffenburger Weg","postalCode":"63755","locality":"Alzenau","municipality":{"key":"09671111","name":"Alzenau, St","type":"Stadt"},"district":{"key":"09671","name":"Aschaffenburg","type":"Landkreis"},"federalState":{"key":"09","name":"Bayern"}},{"name":"Bachstr.","postalCode":"63755","locality":"Alzenau","municipality":{"key":"09671111","name":"Alzenau, St","type":"Stadt"},"district":{"key":"09671","name":"Aschaffenburg","type":"Landkreis"},"federalState":{"key":"09","name":"Bayern"}},{"name":"Backes","postalCode":"63755","locality":"Alzenau","municipality":{"key":"09671111","name":"Alzenau, St","type":"Stadt"},"district":{"key":"09671","name":"Aschaffenburg","type":"Landkreis"},"federalState":{"key":"09","name":"Bayern"}},{"name":"Bahnhofstr.","postalCode":"63755","locality":"Alzenau","municipality":{"key":"09671111","name":"Alzenau, St","type":"Stadt"},"district":{"key":"09671","name":"Aschaffenburg","type":"Landkreis"},"federalState":{"key":"09","name":"Bayern"}},{"name":"Barbarossastr.","postalCode":"63755","locality":"Alzenau","municipality":{"key":"09671111","name":"Alzenau, St","type":"Stadt"},"district":{"key":"09671","name":"Aschaffenburg","type":"Landkreis"},"federalState":{"key":"09","name":"Bayern"}},{"name":"Beethovenstr.","postalCode":"63755","locality":"Alzenau","municipality":{"key":"09671111","name":"Alzenau, St","type":"Stadt"},"district":{"key":"09671","name":"Aschaffenburg","type":"Landkreis"},"federalState":{"key":"09","name":"Bayern"}},{"name":"Beim Alten Hellchen","postalCode":"63755","locality":"Alzenau","municipality":{"key":"09671111","name":"Alzenau, St","type":"Stadt"},"district":{"key":"09671","name":"Aschaffenburg","type":"Landkreis"},"federalState":{"key":"09","name":"Bayern"}},{"name":"Beim Klostergut","postalCode":"63755","locality":"Alzenau","municipality":{"key":"09671111","name":"Alzenau, St","type":"Stadt"},"district":{"key":"09671","name":"Aschaffenburg","type":"Landkreis"},"federalState":{"key":"09","name":"Bayern"}},{"name":"Bennersweg","postalCode":"63755","locality":"Alzenau","municipality":{"key":"09671111","name":"Alzenau, St","type":"Stadt"},"district":{"key":"09671","name":"Aschaffenburg","type":"Landkreis"},"federalState":{"key":"09","name":"Bayern"}},{"name":"Bergstr.","postalCode":"63755","locality":"Alzenau","municipality":{"key":"09671111","name":"Alzenau, St","type":"Stadt"},"district":{"key":"09671","name":"Aschaffenburg","type":"Landkreis"},"federalState":{"key":"09","name":"Bayern"}},{"name":"Berliner Str.","postalCode":"63755","locality":"Alzenau","municipality":{"key":"09671111","name":"Alzenau, St","type":"Stadt"},"district":{"key":"09671","name":"Aschaffenburg","type":"Landkreis"},"federalState":{"key":"09","name":"Bayern"}},{"name":"Bernhardstr.","postalCode":"63755","locality":"Alzenau","municipality":{"key":"09671111","name":"Alzenau, St","type":"Stadt"},"district":{"key":"09671","name":"Aschaffenburg","type":"Landkreis"},"federalState":{"key":"09","name":"Bayern"}},{"name":"Beunestr.","postalCode":"63755","locality":"Alzenau","municipality":{"key":"09671111","name":"Alzenau, St","type":"Stadt"},"district":{"key":"09671","name":"Aschaffenburg","type":"Landkreis"},"federalState":{"key":"09","name":"Bayern"}},{"name":"Bezirksstr.","postalCode":"63755","locality":"Alzenau","municipality":{"key":"09671111","name":"Alzenau, St","type":"Stadt"},"district":{"key":"09671","name":"Aschaffenburg","type":"Landkreis"},"federalState":{"key":"09","name":"Bayern"}},{"name":"Birkenhainer Str.","postalCode":"63755","locality":"Alzenau","municipality":{"key":"09671111","name":"Alzenau, St","type":"Stadt"},"district":{"key":"09671","name":"Aschaffenburg","type":"Landkreis"},"federalState":{"key":"09","name":"Bayern"}},{"name":"Birkenstr.","postalCode":"63755","locality":"Alzenau","municipality":{"key":"09671111","name":"Alzenau, St","type":"Stadt"},"district":{"key":"09671","name":"Aschaffenburg","type":"Landkreis"},"federalState":{"key":"09","name":"Bayern"}},{"name":"Bogenstr.","postalCode":"63755","locality":"Alzenau","municipality":{"key":"09671111","name":"Alzenau, St","type":"Stadt"},"district":{"key":"09671","name":"Aschaffenburg","type":"Landkreis"},"federalState":{"key":"09","name":"Bayern"}},{"name":"Borngasse","postalCode":"63755","locality":"Alzenau","municipality":{"key":"09671111","name":"Alzenau, St","type":"Stadt"},"district":{"key":"09671","name":"Aschaffenburg","type":"Landkreis"},"federalState":{"key":"09","name":"Bayern"}},{"name":"Borsigstr.","postalCode":"63755","locality":"Alzenau","municipality":{"key":"09671111","name":"Alzenau, St","type":"Stadt"},"district":{"key":"09671","name":"Aschaffenburg","type":"Landkreis"},"federalState":{"key":"09","name":"Bayern"}},{"name":"Breitewiesenweg","postalCode":"63755","locality":"Alzenau","municipality":{"key":"09671111","name":"Alzenau, St","type":"Stadt"},"district":{"key":"09671","name":"Aschaffenburg","type":"Landkreis"},"federalState":{"key":"09","name":"Bayern"}},{"name":"Brentanostr.","postalCode":"63755","locality":"Alzenau","municipality":{"key":"09671111","name":"Alzenau, St","type":"Stadt"},"district":{"key":"09671","name":"Aschaffenburg","type":"Landkreis"},"federalState":{"key":"09","name":"Bayern"}},{"name":"Breslauer Platz","postalCode":"63755","locality":"Alzenau","municipality":{"key":"09671111","name":"Alzenau, St","type":"Stadt"},"district":{"key":"09671","name":"Aschaffenburg","type":"Landkreis"},"federalState":{"key":"09","name":"Bayern"}},{"name":"Bruchhausen","postalCode":"63755","locality":"Alzenau","municipality":{"key":"09671111","name":"Alzenau, St","type":"Stadt"},"district":{"key":"09671","name":"Aschaffenburg","type":"Landkreis"},"federalState":{"key":"09","name":"Bayern"}},{"name":"Brunnengasse","postalCode":"63755","locality":"Alzenau","municipality":{"key":"09671111","name":"Alzenau, St","type":"Stadt"},"district":{"key":"09671","name":"Aschaffenburg","type":"Landkreis"},"federalState":{"key":"09","name":"Bayern"}},{"name":"Buchbergstr.","postalCode":"63755","locality":"Alzenau","municipality":{"key":"09671111","name":"Alzenau, St","type":"Stadt"},"district":{"key":"09671","name":"Aschaffenburg","type":"Landkreis"},"federalState":{"key":"09","name":"Bayern"}},{"name":"Buchenweg","postalCode":"63755","locality":"Alzenau","municipality":{"key":"09671111","name":"Alzenau, St","type":"Stadt"},"district":{"key":"09671","name":"Aschaffenburg","type":"Landkreis"},"federalState":{"key":"09","name":"Bayern"}},{"name":"Burgstr.","postalCode":"63755","locality":"Alzenau","municipality":{"key":"09671111","name":"Alzenau, St","type":"Stadt"},"district":{"key":"09671","name":"Aschaffenburg","type":"Landkreis"},"federalState":{"key":"09","name":"Bayern"}},{"name":"Carl-Benz-Str.","postalCode":"63755","locality":"Alzenau","municipality":{"key":"09671111","name":"Alzenau, St","type":"Stadt"},"district":{"key":"09671","name":"Aschaffenburg","type":"Landkreis"},"federalState":{"key":"09","name":"Bayern"}},{"name":"Carl-Diem-Str.","postalCode":"63755","locality":"Alzenau","municipality":{"key":"09671111","name":"Alzenau, St","type":"Stadt"},"district":{"key":"09671","name":"Aschaffenburg","type":"Landkreis"},"federalState":{"key":"09","name":"Bayern"}},{"name":"Carl-Zeiss-Str.","postalCode":"63755","locality":"Alzenau","municipality":{"key":"09671111","name":"Alzenau, St","type":"Stadt"},"district":{"key":"09671","name":"Aschaffenburg","type":"Landkreis"},"federalState":{"key":"09","name":"Bayern"}},{"name":"Centgrafenweg","postalCode":"63755","locality":"Alzenau","municipality":{"key":"09671111","name":"Alzenau, St","type":"Stadt"},"district":{"key":"09671","name":"Aschaffenburg","type":"Landkreis"},"federalState":{"key":"09","name":"Bayern"}},{"name":"Cornillstr.","postalCode":"63755","locality":"Alzenau","municipality":{"key":"09671111","name":"Alzenau, St","type":"Stadt"},"district":{"key":"09671","name":"Aschaffenburg","type":"Landkreis"},"federalState":{"key":"09","name":"Bayern"}},{"name":"Cranachstr.","postalCode":"63755","locality":"Alzenau","municipality":{"key":"09671111","name":"Alzenau, St","type":"Stadt"},"district":{"key":"09671","name":"Aschaffenburg","type":"Landkreis"},"federalState":{"key":"09","name":"Bayern"}},{"name":"Dahlienweg","postalCode":"63755","locality":"Alzenau","municipality":{"key":"09671111","name":"Alzenau, St","type":"Stadt"},"district":{"key":"09671","name":"Aschaffenburg","type":"Landkreis"},"federalState":{"key":"09","name":"Bayern"}},{"name":"Daimlerstr.","postalCode":"63755","locality":"Alzenau","municipality":{"key":"09671111","name":"Alzenau, St","type":"Stadt"},"district":{"key":"09671","name":"Aschaffenburg","type":"Landkreis"},"federalState":{"key":"09","name":"Bayern"}},{"name":"Dalbergstr.","postalCode":"63755","locality":"Alzenau","municipality":{"key":"09671111","name":"Alzenau, St","type":"Stadt"},"district":{"key":"09671","name":"Aschaffenburg","type":"Landkreis"},"federalState":{"key":"09","name":"Bayern"}},{"name":"Danziger Platz","postalCode":"63755","locality":"Alzenau","municipality":{"key":"09671111","name":"Alzenau, St","type":"Stadt"},"district":{"key":"09671","name":"Aschaffenburg","type":"Landkreis"},"federalState":{"key":"09","name":"Bayern"}},{"name":"Dettinger Str.","postalCode":"63755","locality":"Alzenau","municipality":{"key":"09671111","name":"Alzenau, St","type":"Stadt"},"district":{"key":"09671","name":"Aschaffenburg","type":"Landkreis"},"federalState":{"key":"09","name":"Bayern"}},{"name":"Dieselstr.","postalCode":"63755","locality":"Alzenau","municipality":{"key":"09671111","name":"Alzenau, St","type":"Stadt"},"district":{"key":"09671","name":"Aschaffenburg","type":"Landkreis"},"federalState":{"key":"09","name":"Bayern"}},{"name":"Doktor-Kihn-Ring","postalCode":"63755","locality":"Alzenau","municipality":{"key":"09671111","name":"Alzenau, St","type":"Stadt"},"district":{"key":"09671","name":"Aschaffenburg","type":"Landkreis"},"federalState":{"key":"09","name":"Bayern"}},{"name":"Drosselweg","postalCode":"63755","locality":"Alzenau","municipality":{"key":"09671111","name":"Alzenau, St","type":"Stadt"},"district":{"key":"09671","name":"Aschaffenburg","type":"Landkreis"},"federalState":{"key":"09","name":"Bayern"}},{"name":"Dr.-Ulrich-Platz","postalCode":"63755","locality":"Alzenau","municipality":{"key":"09671111","name":"Alzenau, St","type":"Stadt"},"district":{"key":"09671","name":"Aschaffenburg","type":"Landkreis"},"federalState":{"key":"09","name":"Bayern"}},{"name":"Dürerstr.","postalCode":"63755","locality":"Alzenau","municipality":{"key":"09671111","name":"Alzenau, St","type":"Stadt"},"district":{"key":"09671","name":"Aschaffenburg","type":"Landkreis"},"federalState":{"key":"09","name":"Bayern"}},{"name":"Edelmannstr.","postalCode":"63755","locality":"Alzenau","municipality":{"key":"09671111","name":"Alzenau, St","type":"Stadt"},"district":{"key":"09671","name":"Aschaffenburg","type":"Landkreis"},"federalState":{"key":"09","name":"Bayern"}},{"name":"Edith-Stein-Str.","postalCode":"63755","locality":"Alzenau","municipality":{"key":"09671111","name":"Alzenau, St","type":"Stadt"},"district":{"key":"09671","name":"Aschaffenburg","type":"Landkreis"},"federalState":{"key":"09","name":"Bayern"}},{"name":"Eichelsbacher Str.","postalCode":"63755","locality":"Alzenau","municipality":{"key":"09671111","name":"Alzenau, St","type":"Stadt"},"district":{"key":"09671","name":"Aschaffenburg","type":"Landkreis"},"federalState":{"key":"09","name":"Bayern"}},{"name":"Eichendorffstr.","postalCode":"63755","locality":"Alzenau","municipality":{"key":"09671111","name":"Alzenau, St","type":"Stadt"},"district":{"key":"09671","name":"Aschaffenburg","type":"Landkreis"},"federalState":{"key":"09","name":"Bayern"}},{"name":"Eichwald","postalCode":"63755","locality":"Alzenau","municipality":{"key":"09671111","name":"Alzenau, St","type":"Stadt"},"district":{"key":"09671","name":"Aschaffenburg","type":"Landkreis"},"federalState":{"key":"09","name":"Bayern"}},{"name":"Einhardstr.","postalCode":"63755","locality":"Alzenau","municipality":{"key":"09671111","name":"Alzenau, St","type":"Stadt"},"district":{"key":"09671","name":"Aschaffenburg","type":"Landkreis"},"federalState":{"key":"09","name":"Bayern"}},{"name":"Elzestr.","postalCode":"63755","locality":"Alzenau","municipality":{"key":"09671111","name":"Alzenau, St","type":"Stadt"},"district":{"key":"09671","name":"Aschaffenburg","type":"Landkreis"},"federalState":{"key":"09","name":"Bayern"}},{"name":"Emeserweg","postalCode":"63755","locality":"Alzenau","municipality":{"key":"09671111","name":"Alzenau, St","type":"Stadt"},"district":{"key":"09671","name":"Aschaffenburg","type":"Landkreis"},"federalState":{"key":"09","name":"Bayern"}},{"name":"Emmy-Noether-Str.","postalCode":"63755","locality":"Alzenau","municipality":{"key":"09671111","name":"Alzenau, St","type":"Stadt"},"district":{"key":"09671","name":"Aschaffenburg","type":"Landkreis"},"federalState":{"key":"09","name":"Bayern"}},{"name":"Energiepark","postalCode":"63755","locality":"Alzenau","municipality":{"key":"09671111","name":"Alzenau, St","type":"Stadt"},"district":{"key":"09671","name":"Aschaffenburg","type":"Landkreis"},"federalState":{"key":"09","name":"Bayern"}},{"name":"Enggasse","postalCode":"63755","locality":"Alzenau","municipality":{"key":"09671111","name":"Alzenau, St","type":"Stadt"},"district":{"key":"09671","name":"Aschaffenburg","type":"Landkreis"},"federalState":{"key":"09","name":"Bayern"}},{"name":"Entengasse","postalCode":"63755","locality":"Alzenau","municipality":{"key":"09671111","name":"Alzenau, St","type":"Stadt"},"district":{"key":"09671","name":"Aschaffenburg","type":"Landkreis"},"federalState":{"key":"09","name":"Bayern"}},{"name":"Erlenweg","postalCode":"63755","locality":"Alzenau","municipality":{"key":"09671111","name":"Alzenau, St","type":"Stadt"},"district":{"key":"09671","name":"Aschaffenburg","type":"Landkreis"},"federalState":{"key":"09","name":"Bayern"}},{"name":"Falkenweg","postalCode":"63755","locality":"Alzenau","municipality":{"key":"09671111","name":"Alzenau, St","type":"Stadt"},"district":{"key":"09671","name":"Aschaffenburg","type":"Landkreis"},"federalState":{"key":"09","name":"Bayern"}},{"name":"Feldwingert","postalCode":"63755","locality":"Alzenau","municipality":{"key":"09671111","name":"Alzenau, St","type":"Stadt"},"district":{"key":"09671","name":"Aschaffenburg","type":"Landkreis"},"federalState":{"key":"09","name":"Bayern"}},{"name":"Fichtenweg","postalCode":"63755","locality":"Alzenau","municipality":{"key":"09671111","name":"Alzenau, St","type":"Stadt"},"district":{"key":"09671","name":"Aschaffenburg","type":"Landkreis"},"federalState":{"key":"09","name":"Bayern"}},{"name":"Finkenweg","postalCode":"63755","locality":"Alzenau","municipality":{"key":"09671111","name":"Alzenau, St","type":"Stadt"},"district":{"key":"09671","name":"Aschaffenburg","type":"Landkreis"},"federalState":{"key":"09","name":"Bayern"}},{"name":"Fliederweg","postalCode":"63755","locality":"Alzenau","municipality":{"key":"09671111","name":"Alzenau, St","type":"Stadt"},"district":{"key":"09671","name":"Aschaffenburg","type":"Landkreis"},"federalState":{"key":"09","name":"Bayern"}},{"name":"Frankenstr.","postalCode":"63755","locality":"Alzenau","municipality":{"key":"09671111","name":"Alzenau, St","type":"Stadt"},"district":{"key":"09671","name":"Aschaffenburg","type":"Landkreis"},"federalState":{"key":"09","name":"Bayern"}},{"name":"Freibergstr.","postalCode":"63755","locality":"Alzenau","municipality":{"key":"09671111","name":"Alzenau, St","type":"Stadt"},"district":{"key":"09671","name":"Aschaffenburg","type":"Landkreis"},"federalState":{"key":"09","name":"Bayern"}},{"name":"Freigerichter Str.","postalCode":"63755","locality":"Alzenau","municipality":{"key":"09671111","name":"Alzenau, St","type":"Stadt"},"district":{"key":"09671","name":"Aschaffenburg","type":"Landkreis"},"federalState":{"key":"09","name":"Bayern"}},{"name":"Friedberger Gäßchen","postalCode":"63755","locality":"Alzenau","municipality":{"key":"09671111","name":"Alzenau, St","type":"Stadt"},"district":{"key":"09671","name":"Aschaffenburg","type":"Landkreis"},"federalState":{"key":"09","name":"Bayern"}},{"name":"Friedenstr.","postalCode":"63755","locality":"Alzenau","municipality":{"key":"09671111","name":"Alzenau, St","type":"Stadt"},"district":{"key":"09671","name":"Aschaffenburg","type":"Landkreis"},"federalState":{"key":"09","name":"Bayern"}},{"name":"Friedhofstr.","postalCode":"63755","locality":"Alzenau","municipality":{"key":"09671111","name":"Alzenau, St","type":"Stadt"},"district":{"key":"09671","name":"Aschaffenburg","type":"Landkreis"},"federalState":{"key":"09","name":"Bayern"}},{"name":"Frohsinnstr.","postalCode":"63755","locality":"Alzenau","municipality":{"key":"09671111","name":"Alzenau, St","type":"Stadt"},"district":{"key":"09671","name":"Aschaffenburg","type":"Landkreis"},"federalState":{"key":"09","name":"Bayern"}},{"name":"Gallusstr.","postalCode":"63755","locality":"Alzenau","municipality":{"key":"09671111","name":"Alzenau, St","type":"Stadt"},"district":{"key":"09671","name":"Aschaffenburg","type":"Landkreis"},"federalState":{"key":"09","name":"Bayern"}},{"name":"Gartenstr.","postalCode":"63755","locality":"Alzenau","municipality":{"key":"09671111","name":"Alzenau, St","type":"Stadt"},"district":{"key":"09671","name":"Aschaffenburg","type":"Landkreis"},"federalState":{"key":"09","name":"Bayern"}},{"name":"Gelnhäuser Str.","postalCode":"63755","locality":"Alzenau","municipality":{"key":"09671111","name":"Alzenau, St","type":"Stadt"},"district":{"key":"09671","name":"Aschaffenburg","type":"Landkreis"},"federalState":{"key":"09","name":"Bayern"}},{"name":"Generationenpark","postalCode":"63755","locality":"Alzenau","municipality":{"key":"09671111","name":"Alzenau, St","type":"Stadt"},"district":{"key":"09671","name":"Aschaffenburg","type":"Landkreis"},"federalState":{"key":"09","name":"Bayern"}},{"name":"Gerichtsplatzstr.","postalCode":"63755","locality":"Alzenau","municipality":{"key":"09671111","name":"Alzenau, St","type":"Stadt"},"district":{"key":"09671","name":"Aschaffenburg","type":"Landkreis"},"federalState":{"key":"09","name":"Bayern"}},{"name":"Gieseweg","postalCode":"63755","locality":"Alzenau","municipality":{"key":"09671111","name":"Alzenau, St","type":"Stadt"},"district":{"key":"09671","name":"Aschaffenburg","type":"Landkreis"},"federalState":{"key":"09","name":"Bayern"}},{"name":"Glockengasse","postalCode":"63755","locality":"Alzenau","municipality":{"key":"09671111","name":"Alzenau, St","type":"Stadt"},"district":{"key":"09671","name":"Aschaffenburg","type":"Landkreis"},"federalState":{"key":"09","name":"Bayern"}},{"name":"Goethestr.","postalCode":"63755","locality":"Alzenau","municipality":{"key":"09671111","name":"Alzenau, St","type":"Stadt"},"district":{"key":"09671","name":"Aschaffenburg","type":"Landkreis"},"federalState":{"key":"09","name":"Bayern"}},{"name":"Goldbergstr.","postalCode":"63755","locality":"Alzenau","municipality":{"key":"09671111","name":"Alzenau, St","type":"Stadt"},"district":{"key":"09671","name":"Aschaffenburg","type":"Landkreis"},"federalState":{"key":"09","name":"Bayern"}},{"name":"Gretelgasse","postalCode":"63755","locality":"Alzenau","municipality":{"key":"09671111","name":"Alzenau, St","type":"Stadt"},"district":{"key":"09671","name":"Aschaffenburg","type":"Landkreis"},"federalState":{"key":"09","name":"Bayern"}},{"name":"Grünewaldstr.","postalCode":"63755","locality":"Alzenau","municipality":{"key":"09671111","name":"Alzenau, St","type":"Stadt"},"district":{"key":"09671","name":"Aschaffenburg","type":"Landkreis"},"federalState":{"key":"09","name":"Bayern"}},{"name":"Gunkelsrainstr.","postalCode":"63755","locality":"Alzenau","municipality":{"key":"09671111","name":"Alzenau, St","type":"Stadt"},"district":{"key":"09671","name":"Aschaffenburg","type":"Landkreis"},"federalState":{"key":"09","name":"Bayern"}},{"name":"Gutenbergstr.","postalCode":"63755","locality":"Alzenau","municipality":{"key":"09671111","name":"Alzenau, St","type":"Stadt"},"district":{"key":"09671","name":"Aschaffenburg","type":"Landkreis"},"federalState":{"key":"09","name":"Bayern"}},{"name":"Haagweg","postalCode":"63755","locality":"Alzenau","municipality":{"key":"09671111","name":"Alzenau, St","type":"Stadt"},"district":{"key":"09671","name":"Aschaffenburg","type":"Landkreis"},"federalState":{"key":"09","name":"Bayern"}},{"name":"Hahnenkammhof","postalCode":"63755","locality":"Alzenau","municipality":{"key":"09671111","name":"Alzenau, St","type":"Stadt"},"district":{"key":"09671","name":"Aschaffenburg","type":"Landkreis"},"federalState":{"key":"09","name":"Bayern"}},{"name":"Hahnenkammstr.","postalCode":"63755","locality":"Alzenau","municipality":{"key":"09671111","name":"Alzenau, St","type":"Stadt"},"district":{"key":"09671","name":"Aschaffenburg","type":"Landkreis"},"federalState":{"key":"09","name":"Bayern"}},{"name":"Hanauer Str.","postalCode":"63755","locality":"Alzenau","municipality":{"key":"09671111","name":"Alzenau, St","type":"Stadt"},"district":{"key":"09671","name":"Aschaffenburg","type":"Landkreis"},"federalState":{"key":"09","name":"Bayern"}},{"name":"Hans-Sachs-Str.","postalCode":"63755","locality":"Alzenau","municipality":{"key":"09671111","name":"Alzenau, St","type":"Stadt"},"district":{"key":"09671","name":"Aschaffenburg","type":"Landkreis"},"federalState":{"key":"09","name":"Bayern"}},{"name":"Haubühlstr.","postalCode":"63755","locality":"Alzenau","municipality":{"key":"09671111","name":"Alzenau, St","type":"Stadt"},"district":{"key":"09671","name":"Aschaffenburg","type":"Landkreis"},"federalState":{"key":"09","name":"Bayern"}},{"name":"Hauckstr.","postalCode":"63755","locality":"Alzenau","municipality":{"key":"09671111","name":"Alzenau, St","type":"Stadt"},"district":{"key":"09671","name":"Aschaffenburg","type":"Landkreis"},"federalState":{"key":"09","name":"Bayern"}},{"name":"Hauckwald","postalCode":"63755","locality":"Alzenau","municipality":{"key":"09671111","name":"Alzenau, St","type":"Stadt"},"district":{"key":"09671","name":"Aschaffenburg","type":"Landkreis"},"federalState":{"key":"09","name":"Bayern"}},{"name":"Hauckwaldstr.","postalCode":"63755","locality":"Alzenau","municipality":{"key":"09671111","name":"Alzenau, St","type":"Stadt"},"district":{"key":"09671","name":"Aschaffenburg","type":"Landkreis"},"federalState":{"key":"09","name":"Bayern"}},{"name":"Hauptstr.","postalCode":"63755","locality":"Alzenau","municipality":{"key":"09671111","name":"Alzenau, St","type":"Stadt"},"district":{"key":"09671","name":"Aschaffenburg","type":"Landkreis"},"federalState":{"key":"09","name":"Bayern"}},{"name":"Heideweg","postalCode":"63755","locality":"Alzenau","municipality":{"key":"09671111","name":"Alzenau, St","type":"Stadt"},"district":{"key":"09671","name":"Aschaffenburg","type":"Landkreis"},"federalState":{"key":"09","name":"Bayern"}},{"name":"Hemsbacher Str.","postalCode":"63755","locality":"Alzenau","municipality":{"key":"09671111","name":"Alzenau, St","type":"Stadt"},"district":{"key":"09671","name":"Aschaffenburg","type":"Landkreis"},"federalState":{"key":"09","name":"Bayern"}},{"name":"Hinter den Zäunen","postalCode":"63755","locality":"Alzenau","municipality":{"key":"09671111","name":"Alzenau, St","type":"Stadt"},"district":{"key":"09671","name":"Aschaffenburg","type":"Landkreis"},"federalState":{"key":"09","name":"Bayern"}},{"name":"Hirtenwiese","postalCode":"63755","locality":"Alzenau","municipality":{"key":"09671111","name":"Alzenau, St","type":"Stadt"},"district":{"key":"09671","name":"Aschaffenburg","type":"Landkreis"},"federalState":{"key":"09","name":"Bayern"}},{"name":"Hochstr.","postalCode":"63755","locality":"Alzenau","municipality":{"key":"09671111","name":"Alzenau, St","type":"Stadt"},"district":{"key":"09671","name":"Aschaffenburg","type":"Landkreis"},"federalState":{"key":"09","name":"Bayern"}},{"name":"Hockgasse","postalCode":"63755","locality":"Alzenau","municipality":{"key":"09671111","name":"Alzenau, St","type":"Stadt"},"district":{"key":"09671","name":"Aschaffenburg","type":"Landkreis"},"federalState":{"key":"09","name":"Bayern"}},{"name":"Hofgartenstr.","postalCode":"63755","locality":"Alzenau","municipality":{"key":"09671111","name":"Alzenau, St","type":"Stadt"},"district":{"key":"09671","name":"Aschaffenburg","type":"Landkreis"},"federalState":{"key":"09","name":"Bayern"}},{"name":"Hohe Kreuzgasse","postalCode":"63755","locality":"Alzenau","municipality":{"key":"09671111","name":"Alzenau, St","type":"Stadt"},"district":{"key":"09671","name":"Aschaffenburg","type":"Landkreis"},"federalState":{"key":"09","name":"Bayern"}},{"name":"Hohe-Mark-Str.","postalCode":"63755","locality":"Alzenau","municipality":{"key":"09671111","name":"Alzenau, St","type":"Stadt"},"district":{"key":"09671","name":"Aschaffenburg","type":"Landkreis"},"federalState":{"key":"09","name":"Bayern"}},{"name":"Holbeinstr.","postalCode":"63755","locality":"Alzenau","municipality":{"key":"09671111","name":"Alzenau, St","type":"Stadt"},"district":{"key":"09671","name":"Aschaffenburg","type":"Landkreis"},"federalState":{"key":"09","name":"Bayern"}},{"name":"Holunderweg","postalCode":"63755","locality":"Alzenau","municipality":{"key":"09671111","name":"Alzenau, St","type":"Stadt"},"district":{"key":"09671","name":"Aschaffenburg","type":"Landkreis"},"federalState":{"key":"09","name":"Bayern"}},{"name":"Hornungsrain","postalCode":"63755","locality":"Alzenau","municipality":{"key":"09671111","name":"Alzenau, St","type":"Stadt"},"district":{"key":"09671","name":"Aschaffenburg","type":"Landkreis"},"federalState":{"key":"09","name":"Bayern"}},{"name":"Hörsteiner Str.","postalCode":"63755","locality":"Alzenau","municipality":{"key":"09671111","name":"Alzenau, St","type":"Stadt"},"district":{"key":"09671","name":"Aschaffenburg","type":"Landkreis"},"federalState":{"key":"09","name":"Bayern"}},{"name":"Iglauer Str.","postalCode":"63755","locality":"Alzenau","municipality":{"key":"09671111","name":"Alzenau, St","type":"Stadt"},"district":{"key":"09671","name":"Aschaffenburg","type":"Landkreis"},"federalState":{"key":"09","name":"Bayern"}},{"name":"Im Goldenen Ring","postalCode":"63755","locality":"Alzenau","municipality":{"key":"09671111","name":"Alzenau, St","type":"Stadt"},"district":{"key":"09671","name":"Aschaffenburg","type":"Landkreis"},"federalState":{"key":"09","name":"Bayern"}},{"name":"Im Görchen","postalCode":"63755","locality":"Alzenau","municipality":{"key":"09671111","name":"Alzenau, St","type":"Stadt"},"district":{"key":"09671","name":"Aschaffenburg","type":"Landkreis"},"federalState":{"key":"09","name":"Bayern"}},{"name":"Im Lenzenbühl","postalCode":"63755","locality":"Alzenau","municipality":{"key":"09671111","name":"Alzenau, St","type":"Stadt"},"district":{"key":"09671","name":"Aschaffenburg","type":"Landkreis"},"federalState":{"key":"09","name":"Bayern"}},{"name":"Im Lug","postalCode":"63755","locality":"Alzenau","municipality":{"key":"09671111","name":"Alzenau, St","type":"Stadt"},"district":{"key":"09671","name":"Aschaffenburg","type":"Landkreis"},"federalState":{"key":"09","name":"Bayern"}},{"name":"Im Markacker","postalCode":"63755","locality":"Alzenau","municipality":{"key":"09671111","name":"Alzenau, St","type":"Stadt"},"district":{"key":"09671","name":"Aschaffenburg","type":"Landkreis"},"federalState":{"key":"09","name":"Bayern"}},{"name":"Im Neufeld","postalCode":"63755","locality":"Alzenau","municipality":{"key":"09671111","name":"Alzenau, St","type":"Stadt"},"district":{"key":"09671","name":"Aschaffenburg","type":"Landkreis"},"federalState":{"key":"09","name":"Bayern"}},{"name":"Im Sand","postalCode":"63755","locality":"Alzenau","municipality":{"key":"09671111","name":"Alzenau, St","type":"Stadt"},"district":{"key":"09671","name":"Aschaffenburg","type":"Landkreis"},"federalState":{"key":"09","name":"Bayern"}},{"name":"Im Schild","postalCode":"63755","locality":"Alzenau","municipality":{"key":"09671111","name":"Alzenau, St","type":"Stadt"},"district":{"key":"09671","name":"Aschaffenburg","type":"Landkreis"},"federalState":{"key":"09","name":"Bayern"}},{"name":"Im Setzling","postalCode":"63755","locality":"Alzenau","municipality":{"key":"09671111","name":"Alzenau, St","type":"Stadt"},"district":{"key":"09671","name":"Aschaffenburg","type":"Landkreis"},"federalState":{"key":"09","name":"Bayern"}},{"name":"Im Vogelsang","postalCode":"63755","locality":"Alzenau","municipality":{"key":"09671111","name":"Alzenau, St","type":"Stadt"},"district":{"key":"09671","name":"Aschaffenburg","type":"Landkreis"},"federalState":{"key":"09","name":"Bayern"}},{"name":"In den Mühlgärten","postalCode":"63755","locality":"Alzenau","municipality":{"key":"09671111","name":"Alzenau, St","type":"Stadt"},"district":{"key":"09671","name":"Aschaffenburg","type":"Landkreis"},"federalState":{"key":"09","name":"Bayern"}},{"name":"In der Ecke","postalCode":"63755","locality":"Alzenau","municipality":{"key":"09671111","name":"Alzenau, St","type":"Stadt"},"district":{"key":"09671","name":"Aschaffenburg","type":"Landkreis"},"federalState":{"key":"09","name":"Bayern"}},{"name":"Industriestr.","postalCode":"63755","locality":"Alzenau","municipality":{"key":"09671111","name":"Alzenau, St","type":"Stadt"},"district":{"key":"09671","name":"Aschaffenburg","type":"Landkreis"},"federalState":{"key":"09","name":"Bayern"}},{"name":"Jägerstr.","postalCode":"63755","locality":"Alzenau","municipality":{"key":"09671111","name":"Alzenau, St","type":"Stadt"},"district":{"key":"09671","name":"Aschaffenburg","type":"Landkreis"},"federalState":{"key":"09","name":"Bayern"}},{"name":"Jahnstr.","postalCode":"63755","locality":"Alzenau","municipality":{"key":"09671111","name":"Alzenau, St","type":"Stadt"},"district":{"key":"09671","name":"Aschaffenburg","type":"Landkreis"},"federalState":{"key":"09","name":"Bayern"}},{"name":"Jakobusstr.","postalCode":"63755","locality":"Alzenau","municipality":{"key":"09671111","name":"Alzenau, St","type":"Stadt"},"district":{"key":"09671","name":"Aschaffenburg","type":"Landkreis"},"federalState":{"key":"09","name":"Bayern"}},{"name":"Julius-Pfister-Ring","postalCode":"63755","locality":"Alzenau","municipality":{"key":"09671111","name":"Alzenau, St","type":"Stadt"},"district":{"key":"09671","name":"Aschaffenburg","type":"Landkreis"},"federalState":{"key":"09","name":"Bayern"}},{"name":"Junkersstr.","postalCode":"63755","locality":"Alzenau","municipality":{"key":"09671111","name":"Alzenau, St","type":"Stadt"},"district":{"key":"09671","name":"Aschaffenburg","type":"Landkreis"},"federalState":{"key":"09","name":"Bayern"}},{"name":"Kahler Str.","postalCode":"63755","locality":"Alzenau","municipality":{"key":"09671111","name":"Alzenau, St","type":"Stadt"},"district":{"key":"09671","name":"Aschaffenburg","type":"Landkreis"},"federalState":{"key":"09","name":"Bayern"}},{"name":"Kaiser-Ruprecht-Str.","postalCode":"63755","locality":"Alzenau","municipality":{"key":"09671111","name":"Alzenau, St","type":"Stadt"},"district":{"key":"09671","name":"Aschaffenburg","type":"Landkreis"},"federalState":{"key":"09","name":"Bayern"}},{"name":"Kälberauer Str.","postalCode":"63755","locality":"Alzenau","municipality":{"key":"09671111","name":"Alzenau, St","type":"Stadt"},"district":{"key":"09671","name":"Aschaffenburg","type":"Landkreis"},"federalState":{"key":"09","name":"Bayern"}},{"name":"Kantstr.","postalCode":"63755","locality":"Alzenau","municipality":{"key":"09671111","name":"Alzenau, St","type":"Stadt"},"district":{"key":"09671","name":"Aschaffenburg","type":"Landkreis"},"federalState":{"key":"09","name":"Bayern"}},{"name":"Kapellenstr.","postalCode":"63755","locality":"Alzenau","municipality":{"key":"09671111","name":"Alzenau, St","type":"Stadt"},"district":{"key":"09671","name":"Aschaffenburg","type":"Landkreis"},"federalState":{"key":"09","name":"Bayern"}},{"name":"Karl-Amberg-Str.","postalCode":"63755","locality":"Alzenau","municipality":{"key":"09671111","name":"Alzenau, St","type":"Stadt"},"district":{"key":"09671","name":"Aschaffenburg","type":"Landkreis"},"federalState":{"key":"09","name":"Bayern"}},{"name":"Kastanienweg","postalCode":"63755","locality":"Alzenau","municipality":{"key":"09671111","name":"Alzenau, St","type":"Stadt"},"district":{"key":"09671","name":"Aschaffenburg","type":"Landkreis"},"federalState":{"key":"09","name":"Bayern"}},{"name":"Kertelbachstr.","postalCode":"63755","locality":"Alzenau","municipality":{"key":"09671111","name":"Alzenau, St","type":"Stadt"},"district":{"key":"09671","name":"Aschaffenburg","type":"Landkreis"},"federalState":{"key":"09","name":"Bayern"}},{"name":"Kettelerstr.","postalCode":"63755","locality":"Alzenau","municipality":{"key":"09671111","name":"Alzenau, St","type":"Stadt"},"district":{"key":"09671","name":"Aschaffenburg","type":"Landkreis"},"federalState":{"key":"09","name":"Bayern"}},{"name":"Kirchgasse","postalCode":"63755","locality":"Alzenau","municipality":{"key":"09671111","name":"Alzenau, St","type":"Stadt"},"district":{"key":"09671","name":"Aschaffenburg","type":"Landkreis"},"federalState":{"key":"09","name":"Bayern"}},{"name":"Kirschgarten","postalCode":"63755","locality":"Alzenau","municipality":{"key":"09671111","name":"Alzenau, St","type":"Stadt"},"district":{"key":"09671","name":"Aschaffenburg","type":"Landkreis"},"federalState":{"key":"09","name":"Bayern"}},{"name":"Kleebsring","postalCode":"63755","locality":"Alzenau","municipality":{"key":"09671111","name":"Alzenau, St","type":"Stadt"},"district":{"key":"09671","name":"Aschaffenburg","type":"Landkreis"},"federalState":{"key":"09","name":"Bayern"}},{"name":"Kleebsweg","postalCode":"63755","locality":"Alzenau","municipality":{"key":"09671111","name":"Alzenau, St","type":"Stadt"},"district":{"key":"09671","name":"Aschaffenburg","type":"Landkreis"},"federalState":{"key":"09","name":"Bayern"}},{"name":"Kleingärten","postalCode":"63755","locality":"Alzenau","municipality":{"key":"09671111","name":"Alzenau, St","type":"Stadt"},"district":{"key":"09671","name":"Aschaffenburg","type":"Landkreis"},"federalState":{"key":"09","name":"Bayern"}},{"name":"Kneippstr.","postalCode":"63755","locality":"Alzenau","municipality":{"key":"09671111","name":"Alzenau, St","type":"Stadt"},"district":{"key":"09671","name":"Aschaffenburg","type":"Landkreis"},"federalState":{"key":"09","name":"Bayern"}},{"name":"Kolpingstr.","postalCode":"63755","locality":"Alzenau","municipality":{"key":"09671111","name":"Alzenau, St","type":"Stadt"},"district":{"key":"09671","name":"Aschaffenburg","type":"Landkreis"},"federalState":{"key":"09","name":"Bayern"}},{"name":"Königsberger Str.","postalCode":"63755","locality":"Alzenau","municipality":{"key":"09671111","name":"Alzenau, St","type":"Stadt"},"district":{"key":"09671","name":"Aschaffenburg","type":"Landkreis"},"federalState":{"key":"09","name":"Bayern"}},{"name":"Konrad-Zuse-Str.","postalCode":"63755","locality":"Alzenau","municipality":{"key":"09671111","name":"Alzenau, St","type":"Stadt"},"district":{"key":"09671","name":"Aschaffenburg","type":"Landkreis"},"federalState":{"key":"09","name":"Bayern"}},{"name":"Krämerstr.","postalCode":"63755","locality":"Alzenau","municipality":{"key":"09671111","name":"Alzenau, St","type":"Stadt"},"district":{"key":"09671","name":"Aschaffenburg","type":"Landkreis"},"federalState":{"key":"09","name":"Bayern"}},{"name":"Kreuzgasse","postalCode":"63755","locality":"Alzenau","municipality":{"key":"09671111","name":"Alzenau, St","type":"Stadt"},"district":{"key":"09671","name":"Aschaffenburg","type":"Landkreis"},"federalState":{"key":"09","name":"Bayern"}},{"name":"Kronbergweg","postalCode":"63755","locality":"Alzenau","municipality":{"key":"09671111","name":"Alzenau, St","type":"Stadt"},"district":{"key":"09671","name":"Aschaffenburg","type":"Landkreis"},"federalState":{"key":"09","name":"Bayern"}},{"name":"Kumpfgartenstr.","postalCode":"63755","locality":"Alzenau","municipality":{"key":"09671111","name":"Alzenau, St","type":"Stadt"},"district":{"key":"09671","name":"Aschaffenburg","type":"Landkreis"},"federalState":{"key":"09","name":"Bayern"}},{"name":"Kurmainzer Str.","postalCode":"63755","locality":"Alzenau","municipality":{"key":"09671111","name":"Alzenau, St","type":"Stadt"},"district":{"key":"09671","name":"Aschaffenburg","type":"Landkreis"},"federalState":{"key":"09","name":"Bayern"}},{"name":"Laurentiusstr.","postalCode":"63755","locality":"Alzenau","municipality":{"key":"09671111","name":"Alzenau, St","type":"Stadt"},"district":{"key":"09671","name":"Aschaffenburg","type":"Landkreis"},"federalState":{"key":"09","name":"Bayern"}},{"name":"Lederacker","postalCode":"63755","locality":"Alzenau","municipality":{"key":"09671111","name":"Alzenau, St","type":"Stadt"},"district":{"key":"09671","name":"Aschaffenburg","type":"Landkreis"},"federalState":{"key":"09","name":"Bayern"}},{"name":"Leipziger Platz","postalCode":"63755","locality":"Alzenau","municipality":{"key":"09671111","name":"Alzenau, St","type":"Stadt"},"district":{"key":"09671","name":"Aschaffenburg","type":"Landkreis"},"federalState":{"key":"09","name":"Bayern"}},{"name":"Leo-Wolpert-Str.","postalCode":"63755","locality":"Alzenau","municipality":{"key":"09671111","name":"Alzenau, St","type":"Stadt"},"district":{"key":"09671","name":"Aschaffenburg","type":"Landkreis"},"federalState":{"key":"09","name":"Bayern"}},{"name":"Lerchenrain","postalCode":"63755","locality":"Alzenau","municipality":{"key":"09671111","name":"Alzenau, St","type":"Stadt"},"district":{"key":"09671","name":"Aschaffenburg","type":"Landkreis"},"federalState":{"key":"09","name":"Bayern"}},{"name":"Lessingstr.","postalCode":"63755","locality":"Alzenau","municipality":{"key":"09671111","name":"Alzenau, St","type":"Stadt"},"district":{"key":"09671","name":"Aschaffenburg","type":"Landkreis"},"federalState":{"key":"09","name":"Bayern"}},{"name":"Lindenweg","postalCode":"63755","locality":"Alzenau","municipality":{"key":"09671111","name":"Alzenau, St","type":"Stadt"},"district":{"key":"09671","name":"Aschaffenburg","type":"Landkreis"},"federalState":{"key":"09","name":"Bayern"}},{"name":"Lise-Meitner-Str.","postalCode":"63755","locality":"Alzenau","municipality":{"key":"09671111","name":"Alzenau, St","type":"Stadt"},"district":{"key":"09671","name":"Aschaffenburg","type":"Landkreis"},"federalState":{"key":"09","name":"Bayern"}},{"name":"Ludwig-Neu-Str.","postalCode":"63755","locality":"Alzenau","municipality":{"key":"09671111","name":"Alzenau, St","type":"Stadt"},"district":{"key":"09671","name":"Aschaffenburg","type":"Landkreis"},"federalState":{"key":"09","name":"Bayern"}},{"name":"Ludwigstr.","postalCode":"63755","locality":"Alzenau","municipality":{"key":"09671111","name":"Alzenau, St","type":"Stadt"},"district":{"key":"09671","name":"Aschaffenburg","type":"Landkreis"},"federalState":{"key":"09","name":"Bayern"}},{"name":"Mainzer Gasse","postalCode":"63755","locality":"Alzenau","municipality":{"key":"09671111","name":"Alzenau, St","type":"Stadt"},"district":{"key":"09671","name":"Aschaffenburg","type":"Landkreis"},"federalState":{"key":"09","name":"Bayern"}},{"name":"Maisenhäuser Str.","postalCode":"63755","locality":"Alzenau","municipality":{"key":"09671111","name":"Alzenau, St","type":"Stadt"},"district":{"key":"09671","name":"Aschaffenburg","type":"Landkreis"},"federalState":{"key":"09","name":"Bayern"}},{"name":"Marie-Curie-Str.","postalCode":"63755","locality":"Alzenau","municipality":{"key":"09671111","name":"Alzenau, St","type":"Stadt"},"district":{"key":"09671","name":"Aschaffenburg","type":"Landkreis"},"federalState":{"key":"09","name":"Bayern"}},{"name":"Märkerstr.","postalCode":"63755","locality":"Alzenau","municipality":{"key":"09671111","name":"Alzenau, St","type":"Stadt"},"district":{"key":"09671","name":"Aschaffenburg","type":"Landkreis"},"federalState":{"key":"09","name":"Bayern"}},{"name":"Martin-Luther-Str.","postalCode":"63755","locality":"Alzenau","municipality":{"key":"09671111","name":"Alzenau, St","type":"Stadt"},"district":{"key":"09671","name":"Aschaffenburg","type":"Landkreis"},"federalState":{"key":"09","name":"Bayern"}},{"name":"Martinsweg","postalCode":"63755","locality":"Alzenau","municipality":{"key":"09671111","name":"Alzenau, St","type":"Stadt"},"district":{"key":"09671","name":"Aschaffenburg","type":"Landkreis"},"federalState":{"key":"09","name":"Bayern"}},{"name":"Max-Planck-Str.","postalCode":"63755","locality":"Alzenau","municipality":{"key":"09671111","name":"Alzenau, St","type":"Stadt"},"district":{"key":"09671","name":"Aschaffenburg","type":"Landkreis"},"federalState":{"key":"09","name":"Bayern"}},{"name":"Merkurstr.","postalCode":"63755","locality":"Alzenau","municipality":{"key":"09671111","name":"Alzenau, St","type":"Stadt"},"district":{"key":"09671","name":"Aschaffenburg","type":"Landkreis"},"federalState":{"key":"09","name":"Bayern"}},{"name":"Meßmerstr.","postalCode":"63755","locality":"Alzenau","municipality":{"key":"09671111","name":"Alzenau, St","type":"Stadt"},"district":{"key":"09671","name":"Aschaffenburg","type":"Landkreis"},"federalState":{"key":"09","name":"Bayern"}},{"name":"Michel-Antoni-Str.","postalCode":"63755","locality":"Alzenau","municipality":{"key":"09671111","name":"Alzenau, St","type":"Stadt"},"district":{"key":"09671","name":"Aschaffenburg","type":"Landkreis"},"federalState":{"key":"09","name":"Bayern"}},{"name":"Michelbacher Str.","postalCode":"63755","locality":"Alzenau","municipality":{"key":"09671111","name":"Alzenau, St","type":"Stadt"},"district":{"key":"09671","name":"Aschaffenburg","type":"Landkreis"},"federalState":{"key":"09","name":"Bayern"}},{"name":"Mittelfeldstr.","postalCode":"63755","locality":"Alzenau","municipality":{"key":"09671111","name":"Alzenau, St","type":"Stadt"},"district":{"key":"09671","name":"Aschaffenburg","type":"Landkreis"},"federalState":{"key":"09","name":"Bayern"}},{"name":"Mittelstr.","postalCode":"63755","locality":"Alzenau","municipality":{"key":"09671111","name":"Alzenau, St","type":"Stadt"},"district":{"key":"09671","name":"Aschaffenburg","type":"Landkreis"},"federalState":{"key":"09","name":"Bayern"}},{"name":"Mittlere Röderweg","postalCode":"63755","locality":"Alzenau","municipality":{"key":"09671111","name":"Alzenau, St","type":"Stadt"},"district":{"key":"09671","name":"Aschaffenburg","type":"Landkreis"},"federalState":{"key":"09","name":"Bayern"}},{"name":"Mömbriser Str.","postalCode":"63755","locality":"Alzenau","municipality":{"key":"09671111","name":"Alzenau, St","type":"Stadt"},"district":{"key":"09671","name":"Aschaffenburg","type":"Landkreis"},"federalState":{"key":"09","name":"Bayern"}},{"name":"Mörikestr.","postalCode":"63755","locality":"Alzenau","municipality":{"key":"09671111","name":"Alzenau, St","type":"Stadt"},"district":{"key":"09671","name":"Aschaffenburg","type":"Landkreis"},"federalState":{"key":"09","name":"Bayern"}},{"name":"Mozartstr.","postalCode":"63755","locality":"Alzenau","municipality":{"key":"09671111","name":"Alzenau, St","type":"Stadt"},"district":{"key":"09671","name":"Aschaffenburg","type":"Landkreis"},"federalState":{"key":"09","name":"Bayern"}},{"name":"Mühlengrund","postalCode":"63755","locality":"Alzenau","municipality":{"key":"09671111","name":"Alzenau, St","type":"Stadt"},"district":{"key":"09671","name":"Aschaffenburg","type":"Landkreis"},"federalState":{"key":"09","name":"Bayern"}},{"name":"Mühlgraben","postalCode":"63755","locality":"Alzenau","municipality":{"key":"09671111","name":"Alzenau, St","type":"Stadt"},"district":{"key":"09671","name":"Aschaffenburg","type":"Landkreis"},"federalState":{"key":"09","name":"Bayern"}},{"name":"Mühlgrabenstr.","postalCode":"63755","locality":"Alzenau","municipality":{"key":"09671111","name":"Alzenau, St","type":"Stadt"},"district":{"key":"09671","name":"Aschaffenburg","type":"Landkreis"},"federalState":{"key":"09","name":"Bayern"}},{"name":"Mühlweg","postalCode":"63755","locality":"Alzenau","municipality":{"key":"09671111","name":"Alzenau, St","type":"Stadt"},"district":{"key":"09671","name":"Aschaffenburg","type":"Landkreis"},"federalState":{"key":"09","name":"Bayern"}},{"name":"Neue Hörsteiner Str.","postalCode":"63755","locality":"Alzenau","municipality":{"key":"09671111","name":"Alzenau, St","type":"Stadt"},"district":{"key":"09671","name":"Aschaffenburg","type":"Landkreis"},"federalState":{"key":"09","name":"Bayern"}},{"name":"Neue Str.","postalCode":"63755","locality":"Alzenau","municipality":{"key":"09671111","name":"Alzenau, St","type":"Stadt"},"district":{"key":"09671","name":"Aschaffenburg","type":"Landkreis"},"federalState":{"key":"09","name":"Bayern"}},{"name":"Neu-Isenburger Str.","postalCode":"63755","locality":"Alzenau","municipality":{"key":"09671111","name":"Alzenau, St","type":"Stadt"},"district":{"key":"09671","name":"Aschaffenburg","type":"Landkreis"},"federalState":{"key":"09","name":"Bayern"}},{"name":"Neuseser Str.","postalCode":"63755","locality":"Alzenau","municipality":{"key":"09671111","name":"Alzenau, St","type":"Stadt"},"district":{"key":"09671","name":"Aschaffenburg","type":"Landkreis"},"federalState":{"key":"09","name":"Bayern"}},{"name":"Neuwiesenstr.","postalCode":"63755","locality":"Alzenau","municipality":{"key":"09671111","name":"Alzenau, St","type":"Stadt"},"district":{"key":"09671","name":"Aschaffenburg","type":"Landkreis"},"federalState":{"key":"09","name":"Bayern"}},{"name":"Nikolausstr.","postalCode":"63755","locality":"Alzenau","municipality":{"key":"09671111","name":"Alzenau, St","type":"Stadt"},"district":{"key":"09671","name":"Aschaffenburg","type":"Landkreis"},"federalState":{"key":"09","name":"Bayern"}},{"name":"Oberer Röderweg","postalCode":"63755","locality":"Alzenau","municipality":{"key":"09671111","name":"Alzenau, St","type":"Stadt"},"district":{"key":"09671","name":"Aschaffenburg","type":"Landkreis"},"federalState":{"key":"09","name":"Bayern"}},{"name":"Obere Schieferäcker","postalCode":"63755","locality":"Alzenau","municipality":{"key":"09671111","name":"Alzenau, St","type":"Stadt"},"district":{"key":"09671","name":"Aschaffenburg","type":"Landkreis"},"federalState":{"key":"09","name":"Bayern"}},{"name":"Odenwaldstr.","postalCode":"63755","locality":"Alzenau","municipality":{"key":"09671111","name":"Alzenau, St","type":"Stadt"},"district":{"key":"09671","name":"Aschaffenburg","type":"Landkreis"},"federalState":{"key":"09","name":"Bayern"}},{"name":"Otto-Hahn-Str.","postalCode":"63755","locality":"Alzenau","municipality":{"key":"09671111","name":"Alzenau, St","type":"Stadt"},"district":{"key":"09671","name":"Aschaffenburg","type":"Landkreis"},"federalState":{"key":"09","name":"Bayern"}},{"name":"Pestalozzistr.","postalCode":"63755","locality":"Alzenau","municipality":{"key":"09671111","name":"Alzenau, St","type":"Stadt"},"district":{"key":"09671","name":"Aschaffenburg","type":"Landkreis"},"federalState":{"key":"09","name":"Bayern"}},{"name":"Pfaffstättner Str.","postalCode":"63755","locality":"Alzenau","municipality":{"key":"09671111","name":"Alzenau, St","type":"Stadt"},"district":{"key":"09671","name":"Aschaffenburg","type":"Landkreis"},"federalState":{"key":"09","name":"Bayern"}},{"name":"Pfafstättner Str.","postalCode":"63755","locality":"Alzenau","municipality":{"key":"09671111","name":"Alzenau, St","type":"Stadt"},"district":{"key":"09671","name":"Aschaffenburg","type":"Landkreis"},"federalState":{"key":"09","name":"Bayern"}},{"name":"Philipp-Reis-Str.","postalCode":"63755","locality":"Alzenau","municipality":{"key":"09671111","name":"Alzenau, St","type":"Stadt"},"district":{"key":"09671","name":"Aschaffenburg","type":"Landkreis"},"federalState":{"key":"09","name":"Bayern"}},{"name":"Philippusstr.","postalCode":"63755","locality":"Alzenau","municipality":{"key":"09671111","name":"Alzenau, St","type":"Stadt"},"district":{"key":"09671","name":"Aschaffenburg","type":"Landkreis"},"federalState":{"key":"09","name":"Bayern"}},{"name":"Poststr.","postalCode":"63755","locality":"Alzenau","municipality":{"key":"09671111","name":"Alzenau, St","type":"Stadt"},"district":{"key":"09671","name":"Aschaffenburg","type":"Landkreis"},"federalState":{"key":"09","name":"Bayern"}},{"name":"Prischoßstr.","postalCode":"63755","locality":"Alzenau","municipality":{"key":"09671111","name":"Alzenau, St","type":"Stadt"},"district":{"key":"09671","name":"Aschaffenburg","type":"Landkreis"},"federalState":{"key":"09","name":"Bayern"}},{"name":"Prischoßweg","postalCode":"63755","locality":"Alzenau","municipality":{"key":"09671111","name":"Alzenau, St","type":"Stadt"},"district":{"key":"09671","name":"Aschaffenburg","type":"Landkreis"},"federalState":{"key":"09","name":"Bayern"}},{"name":"Prozessionsweg","postalCode":"63755","locality":"Alzenau","municipality":{"key":"09671111","name":"Alzenau, St","type":"Stadt"},"district":{"key":"09671","name":"Aschaffenburg","type":"Landkreis"},"federalState":{"key":"09","name":"Bayern"}},{"name":"Quittenweg","postalCode":"63741","locality":"Aschaffenburg","municipality":{"key":"09661000","name":"Aschaffenburg","type":"Kreisfreie_Stadt"},"district":{"key":"09661","name":"Aschaffenburg","type":"Kreisfreie_Stadt"},"federalState":{"key":"09","name":"Bayern"}},{"name":"Raiffeisenstr.","postalCode":"63755","locality":"Alzenau","municipality":{"key":"09671111","name":"Alzenau, St","type":"Stadt"},"district":{"key":"09671","name":"Aschaffenburg","type":"Landkreis"},"federalState":{"key":"09","name":"Bayern"}},{"name":"Rannenbergring","postalCode":"63755","locality":"Alzenau","municipality":{"key":"09671111","name":"Alzenau, St","type":"Stadt"},"district":{"key":"09671","name":"Aschaffenburg","type":"Landkreis"},"federalState":{"key":"09","name":"Bayern"}},{"name":"Räuschbergstr.","postalCode":"63755","locality":"Alzenau","municipality":{"key":"09671111","name":"Alzenau, St","type":"Stadt"},"district":{"key":"09671","name":"Aschaffenburg","type":"Landkreis"},"federalState":{"key":"09","name":"Bayern"}},{"name":"Rebenstr.","postalCode":"63755","locality":"Alzenau","municipality":{"key":"09671111","name":"Alzenau, St","type":"Stadt"},"district":{"key":"09671","name":"Aschaffenburg","type":"Landkreis"},"federalState":{"key":"09","name":"Bayern"}},{"name":"Rehstrasse","postalCode":"63755","locality":"Alzenau","municipality":{"key":"09671111","name":"Alzenau, St","type":"Stadt"},"district":{"key":"09671","name":"Aschaffenburg","type":"Landkreis"},"federalState":{"key":"09","name":"Bayern"}},{"name":"Rembrandtstr.","postalCode":"63755","locality":"Alzenau","municipality":{"key":"09671111","name":"Alzenau, St","type":"Stadt"},"district":{"key":"09671","name":"Aschaffenburg","type":"Landkreis"},"federalState":{"key":"09","name":"Bayern"}},{"name":"Rhönstr.","postalCode":"63755","locality":"Alzenau","municipality":{"key":"09671111","name":"Alzenau, St","type":"Stadt"},"district":{"key":"09671","name":"Aschaffenburg","type":"Landkreis"},"federalState":{"key":"09","name":"Bayern"}},{"name":"Riemenschneiderstr.","postalCode":"63755","locality":"Alzenau","municipality":{"key":"09671111","name":"Alzenau, St","type":"Stadt"},"district":{"key":"09671","name":"Aschaffenburg","type":"Landkreis"},"federalState":{"key":"09","name":"Bayern"}},{"name":"Rieslingstr.","postalCode":"63755","locality":"Alzenau","municipality":{"key":"09671111","name":"Alzenau, St","type":"Stadt"},"district":{"key":"09671","name":"Aschaffenburg","type":"Landkreis"},"federalState":{"key":"09","name":"Bayern"}},{"name":"Rillweg","postalCode":"63755","locality":"Alzenau","municipality":{"key":"09671111","name":"Alzenau, St","type":"Stadt"},"district":{"key":"09671","name":"Aschaffenburg","type":"Landkreis"},"federalState":{"key":"09","name":"Bayern"}},{"name":"Ringmauerstr.","postalCode":"63755","locality":"Alzenau","municipality":{"key":"09671111","name":"Alzenau, St","type":"Stadt"},"district":{"key":"09671","name":"Aschaffenburg","type":"Landkreis"},"federalState":{"key":"09","name":"Bayern"}},{"name":"Robert-Bosch-Str.","postalCode":"63755","locality":"Alzenau","municipality":{"key":"09671111","name":"Alzenau, St","type":"Stadt"},"district":{"key":"09671","name":"Aschaffenburg","type":"Landkreis"},"federalState":{"key":"09","name":"Bayern"}},{"name":"Rodenbacher Str.","postalCode":"63755","locality":"Alzenau","municipality":{"key":"09671111","name":"Alzenau, St","type":"Stadt"},"district":{"key":"09671","name":"Aschaffenburg","type":"Landkreis"},"federalState":{"key":"09","name":"Bayern"}},{"name":"Rodenbacher Weg","postalCode":"63755","locality":"Alzenau","municipality":{"key":"09671111","name":"Alzenau, St","type":"Stadt"},"district":{"key":"09671","name":"Aschaffenburg","type":"Landkreis"},"federalState":{"key":"09","name":"Bayern"}},{"name":"Röderweg","postalCode":"63755","locality":"Alzenau","municipality":{"key":"09671111","name":"Alzenau, St","type":"Stadt"},"district":{"key":"09671","name":"Aschaffenburg","type":"Landkreis"},"federalState":{"key":"09","name":"Bayern"}},{"name":"Rohrrain","postalCode":"63755","locality":"Alzenau","municipality":{"key":"09671111","name":"Alzenau, St","type":"Stadt"},"district":{"key":"09671","name":"Aschaffenburg","type":"Landkreis"},"federalState":{"key":"09","name":"Bayern"}},{"name":"Röntgenstr.","postalCode":"63755","locality":"Alzenau","municipality":{"key":"09671111","name":"Alzenau, St","type":"Stadt"},"district":{"key":"09671","name":"Aschaffenburg","type":"Landkreis"},"federalState":{"key":"09","name":"Bayern"}},{"name":"Rosengartenstr.","postalCode":"63755","locality":"Alzenau","municipality":{"key":"09671111","name":"Alzenau, St","type":"Stadt"},"district":{"key":"09671","name":"Aschaffenburg","type":"Landkreis"},"federalState":{"key":"09","name":"Bayern"}},{"name":"Rosenstr.","postalCode":"63755","locality":"Alzenau","municipality":{"key":"09671111","name":"Alzenau, St","type":"Stadt"},"district":{"key":"09671","name":"Aschaffenburg","type":"Landkreis"},"federalState":{"key":"09","name":"Bayern"}},{"name":"Rotdornweg","postalCode":"63755","locality":"Alzenau","municipality":{"key":"09671111","name":"Alzenau, St","type":"Stadt"},"district":{"key":"09671","name":"Aschaffenburg","type":"Landkreis"},"federalState":{"key":"09","name":"Bayern"}},{"name":"Roter Rain","postalCode":"63755","locality":"Alzenau","municipality":{"key":"09671111","name":"Alzenau, St","type":"Stadt"},"district":{"key":"09671","name":"Aschaffenburg","type":"Landkreis"},"federalState":{"key":"09","name":"Bayern"}},{"name":"Rubenstr.","postalCode":"63755","locality":"Alzenau","municipality":{"key":"09671111","name":"Alzenau, St","type":"Stadt"},"district":{"key":"09671","name":"Aschaffenburg","type":"Landkreis"},"federalState":{"key":"09","name":"Bayern"}},{"name":"Sackgasse","postalCode":"63755","locality":"Alzenau","municipality":{"key":"09671111","name":"Alzenau, St","type":"Stadt"},"district":{"key":"09671","name":"Aschaffenburg","type":"Landkreis"},"federalState":{"key":"09","name":"Bayern"}},{"name":"Sälzerweg","postalCode":"63755","locality":"Alzenau","municipality":{"key":"09671111","name":"Alzenau, St","type":"Stadt"},"district":{"key":"09671","name":"Aschaffenburg","type":"Landkreis"},"federalState":{"key":"09","name":"Bayern"}},{"name":"Sandweg","postalCode":"63755","locality":"Alzenau","municipality":{"key":"09671111","name":"Alzenau, St","type":"Stadt"},"district":{"key":"09671","name":"Aschaffenburg","type":"Landkreis"},"federalState":{"key":"09","name":"Bayern"}},{"name":"Savignystr.","postalCode":"63755","locality":"Alzenau","municipality":{"key":"09671111","name":"Alzenau, St","type":"Stadt"},"district":{"key":"09671","name":"Aschaffenburg","type":"Landkreis"},"federalState":{"key":"09","name":"Bayern"}},{"name":"Schäferbergstr.","postalCode":"63755","locality":"Alzenau","municipality":{"key":"09671111","name":"Alzenau, St","type":"Stadt"},"district":{"key":"09671","name":"Aschaffenburg","type":"Landkreis"},"federalState":{"key":"09","name":"Bayern"}},{"name":"Schäferbergweg","postalCode":"63755","locality":"Alzenau","municipality":{"key":"09671111","name":"Alzenau, St","type":"Stadt"},"district":{"key":"09671","name":"Aschaffenburg","type":"Landkreis"},"federalState":{"key":"09","name":"Bayern"}},{"name":"Schafgasse","postalCode":"63755","locality":"Alzenau","municipality":{"key":"09671111","name":"Alzenau, St","type":"Stadt"},"district":{"key":"09671","name":"Aschaffenburg","type":"Landkreis"},"federalState":{"key":"09","name":"Bayern"}},{"name":"Schafwegbrücke","postalCode":"63755","locality":"Alzenau","municipality":{"key":"09671111","name":"Alzenau, St","type":"Stadt"},"district":{"key":"09671","name":"Aschaffenburg","type":"Landkreis"},"federalState":{"key":"09","name":"Bayern"}},{"name":"Schafwiesenstr.","postalCode":"63755","locality":"Alzenau","municipality":{"key":"09671111","name":"Alzenau, St","type":"Stadt"},"district":{"key":"09671","name":"Aschaffenburg","type":"Landkreis"},"federalState":{"key":"09","name":"Bayern"}},{"name":"Schanzenkopfstr.","postalCode":"63755","locality":"Alzenau","municipality":{"key":"09671111","name":"Alzenau, St","type":"Stadt"},"district":{"key":"09671","name":"Aschaffenburg","type":"Landkreis"},"federalState":{"key":"09","name":"Bayern"}},{"name":"Scheuergärten","postalCode":"63755","locality":"Alzenau","municipality":{"key":"09671111","name":"Alzenau, St","type":"Stadt"},"district":{"key":"09671","name":"Aschaffenburg","type":"Landkreis"},"federalState":{"key":"09","name":"Bayern"}},{"name":"Schiessmauerstr.","postalCode":"63755","locality":"Alzenau","municipality":{"key":"09671111","name":"Alzenau, St","type":"Stadt"},"district":{"key":"09671","name":"Aschaffenburg","type":"Landkreis"},"federalState":{"key":"09","name":"Bayern"}},{"name":"Schiffweg","postalCode":"63755","locality":"Alzenau","municipality":{"key":"09671111","name":"Alzenau, St","type":"Stadt"},"district":{"key":"09671","name":"Aschaffenburg","type":"Landkreis"},"federalState":{"key":"09","name":"Bayern"}},{"name":"Schillerstr.","postalCode":"63755","locality":"Alzenau","municipality":{"key":"09671111","name":"Alzenau, St","type":"Stadt"},"district":{"key":"09671","name":"Aschaffenburg","type":"Landkreis"},"federalState":{"key":"09","name":"Bayern"}},{"name":"Schlehenweg","postalCode":"63755","locality":"Alzenau","municipality":{"key":"09671111","name":"Alzenau, St","type":"Stadt"},"district":{"key":"09671","name":"Aschaffenburg","type":"Landkreis"},"federalState":{"key":"09","name":"Bayern"}},{"name":"Schloßbergstr.","postalCode":"63755","locality":"Alzenau","municipality":{"key":"09671111","name":"Alzenau, St","type":"Stadt"},"district":{"key":"09671","name":"Aschaffenburg","type":"Landkreis"},"federalState":{"key":"09","name":"Bayern"}},{"name":"Schloßhof","postalCode":"63755","locality":"Alzenau","municipality":{"key":"09671111","name":"Alzenau, St","type":"Stadt"},"district":{"key":"09671","name":"Aschaffenburg","type":"Landkreis"},"federalState":{"key":"09","name":"Bayern"}},{"name":"Schloßstr.","postalCode":"63755","locality":"Alzenau","municipality":{"key":"09671111","name":"Alzenau, St","type":"Stadt"},"district":{"key":"09671","name":"Aschaffenburg","type":"Landkreis"},"federalState":{"key":"09","name":"Bayern"}},{"name":"Schmiedstr.","postalCode":"63755","locality":"Alzenau","municipality":{"key":"09671111","name":"Alzenau, St","type":"Stadt"},"district":{"key":"09671","name":"Aschaffenburg","type":"Landkreis"},"federalState":{"key":"09","name":"Bayern"}},{"name":"Schöffenstühl","postalCode":"63755","locality":"Alzenau","municipality":{"key":"09671111","name":"Alzenau, St","type":"Stadt"},"district":{"key":"09671","name":"Aschaffenburg","type":"Landkreis"},"federalState":{"key":"09","name":"Bayern"}},{"name":"Schubertstr.","postalCode":"63755","locality":"Alzenau","municipality":{"key":"09671111","name":"Alzenau, St","type":"Stadt"},"district":{"key":"09671","name":"Aschaffenburg","type":"Landkreis"},"federalState":{"key":"09","name":"Bayern"}},{"name":"Schulstr.","postalCode":"63755","locality":"Alzenau","municipality":{"key":"09671111","name":"Alzenau, St","type":"Stadt"},"district":{"key":"09671","name":"Aschaffenburg","type":"Landkreis"},"federalState":{"key":"09","name":"Bayern"}},{"name":"Schumannweg","postalCode":"63755","locality":"Alzenau","municipality":{"key":"09671111","name":"Alzenau, St","type":"Stadt"},"district":{"key":"09671","name":"Aschaffenburg","type":"Landkreis"},"federalState":{"key":"09","name":"Bayern"}},{"name":"Schwedenstr.","postalCode":"63755","locality":"Alzenau","municipality":{"key":"09671111","name":"Alzenau, St","type":"Stadt"},"district":{"key":"09671","name":"Aschaffenburg","type":"Landkreis"},"federalState":{"key":"09","name":"Bayern"}},{"name":"Seestr.","postalCode":"63755","locality":"Alzenau","municipality":{"key":"09671111","name":"Alzenau, St","type":"Stadt"},"district":{"key":"09671","name":"Aschaffenburg","type":"Landkreis"},"federalState":{"key":"09","name":"Bayern"}},{"name":"Seligenstädter Str.","postalCode":"63755","locality":"Alzenau","municipality":{"key":"09671111","name":"Alzenau, St","type":"Stadt"},"district":{"key":"09671","name":"Aschaffenburg","type":"Landkreis"},"federalState":{"key":"09","name":"Bayern"}},{"name":"Siedlung am Stein","postalCode":"63755","locality":"Alzenau","municipality":{"key":"09671111","name":"Alzenau, St","type":"Stadt"},"district":{"key":"09671","name":"Aschaffenburg","type":"Landkreis"},"federalState":{"key":"09","name":"Bayern"}},{"name":"Siedlungsstr.","postalCode":"63755","locality":"Alzenau","municipality":{"key":"09671111","name":"Alzenau, St","type":"Stadt"},"district":{"key":"09671","name":"Aschaffenburg","type":"Landkreis"},"federalState":{"key":"09","name":"Bayern"}},{"name":"Siemensstr.","postalCode":"63755","locality":"Alzenau","municipality":{"key":"09671111","name":"Alzenau, St","type":"Stadt"},"district":{"key":"09671","name":"Aschaffenburg","type":"Landkreis"},"federalState":{"key":"09","name":"Bayern"}},{"name":"Sint-Oedenroder-Str.","postalCode":"63755","locality":"Alzenau","municipality":{"key":"09671111","name":"Alzenau, St","type":"Stadt"},"district":{"key":"09671","name":"Aschaffenburg","type":"Landkreis"},"federalState":{"key":"09","name":"Bayern"}},{"name":"Somborner Str.","postalCode":"63755","locality":"Alzenau","municipality":{"key":"09671111","name":"Alzenau, St","type":"Stadt"},"district":{"key":"09671","name":"Aschaffenburg","type":"Landkreis"},"federalState":{"key":"09","name":"Bayern"}},{"name":"Spechtstr.","postalCode":"63755","locality":"Alzenau","municipality":{"key":"09671111","name":"Alzenau, St","type":"Stadt"},"district":{"key":"09671","name":"Aschaffenburg","type":"Landkreis"},"federalState":{"key":"09","name":"Bayern"}},{"name":"Speierlingsweg","postalCode":"63755","locality":"Alzenau","municipality":{"key":"09671111","name":"Alzenau, St","type":"Stadt"},"district":{"key":"09671","name":"Aschaffenburg","type":"Landkreis"},"federalState":{"key":"09","name":"Bayern"}},{"name":"Sperlingstr.","postalCode":"63755","locality":"Alzenau","municipality":{"key":"09671111","name":"Alzenau, St","type":"Stadt"},"district":{"key":"09671","name":"Aschaffenburg","type":"Landkreis"},"federalState":{"key":"09","name":"Bayern"}},{"name":"Spessartstr.","postalCode":"63755","locality":"Alzenau","municipality":{"key":"09671111","name":"Alzenau, St","type":"Stadt"},"district":{"key":"09671","name":"Aschaffenburg","type":"Landkreis"},"federalState":{"key":"09","name":"Bayern"}},{"name":"Spitzwegstr.","postalCode":"63755","locality":"Alzenau","municipality":{"key":"09671111","name":"Alzenau, St","type":"Stadt"},"district":{"key":"09671","name":"Aschaffenburg","type":"Landkreis"},"federalState":{"key":"09","name":"Bayern"}},{"name":"Steinberg","postalCode":"63755","locality":"Alzenau","municipality":{"key":"09671111","name":"Alzenau, St","type":"Stadt"},"district":{"key":"09671","name":"Aschaffenburg","type":"Landkreis"},"federalState":{"key":"09","name":"Bayern"}},{"name":"Steinbruch","postalCode":"63755","locality":"Alzenau","municipality":{"key":"09671111","name":"Alzenau, St","type":"Stadt"},"district":{"key":"09671","name":"Aschaffenburg","type":"Landkreis"},"federalState":{"key":"09","name":"Bayern"}},{"name":"Steingasse","postalCode":"63755","locality":"Alzenau","municipality":{"key":"09671111","name":"Alzenau, St","type":"Stadt"},"district":{"key":"09671","name":"Aschaffenburg","type":"Landkreis"},"federalState":{"key":"09","name":"Bayern"}},{"name":"Steinkreuzweg","postalCode":"63755","locality":"Alzenau","municipality":{"key":"09671111","name":"Alzenau, St","type":"Stadt"},"district":{"key":"09671","name":"Aschaffenburg","type":"Landkreis"},"federalState":{"key":"09","name":"Bayern"}},{"name":"Stettiner Platz","postalCode":"63755","locality":"Alzenau","municipality":{"key":"09671111","name":"Alzenau, St","type":"Stadt"},"district":{"key":"09671","name":"Aschaffenburg","type":"Landkreis"},"federalState":{"key":"09","name":"Bayern"}},{"name":"Stiftstr.","postalCode":"63755","locality":"Alzenau","municipality":{"key":"09671111","name":"Alzenau, St","type":"Stadt"},"district":{"key":"09671","name":"Aschaffenburg","type":"Landkreis"},"federalState":{"key":"09","name":"Bayern"}},{"name":"Streuweg","postalCode":"63755","locality":"Alzenau","municipality":{"key":"09671111","name":"Alzenau, St","type":"Stadt"},"district":{"key":"09671","name":"Aschaffenburg","type":"Landkreis"},"federalState":{"key":"09","name":"Bayern"}},{"name":"Tannenweg","postalCode":"63755","locality":"Alzenau","municipality":{"key":"09671111","name":"Alzenau, St","type":"Stadt"},"district":{"key":"09671","name":"Aschaffenburg","type":"Landkreis"},"federalState":{"key":"09","name":"Bayern"}},{"name":"Taunusring","postalCode":"63755","locality":"Alzenau","municipality":{"key":"09671111","name":"Alzenau, St","type":"Stadt"},"district":{"key":"09671","name":"Aschaffenburg","type":"Landkreis"},"federalState":{"key":"09","name":"Bayern"}},{"name":"Taunusstr.","postalCode":"63755","locality":"Alzenau","municipality":{"key":"09671111","name":"Alzenau, St","type":"Stadt"},"district":{"key":"09671","name":"Aschaffenburg","type":"Landkreis"},"federalState":{"key":"09","name":"Bayern"}},{"name":"Trageser Weg","postalCode":"63755","locality":"Alzenau","municipality":{"key":"09671111","name":"Alzenau, St","type":"Stadt"},"district":{"key":"09671","name":"Aschaffenburg","type":"Landkreis"},"federalState":{"key":"09","name":"Bayern"}},{"name":"Tulpenweg","postalCode":"63755","locality":"Alzenau","municipality":{"key":"09671111","name":"Alzenau, St","type":"Stadt"},"district":{"key":"09671","name":"Aschaffenburg","type":"Landkreis"},"federalState":{"key":"09","name":"Bayern"}},{"name":"Uhlandstr.","postalCode":"63755","locality":"Alzenau","municipality":{"key":"09671111","name":"Alzenau, St","type":"Stadt"},"district":{"key":"09671","name":"Aschaffenburg","type":"Landkreis"},"federalState":{"key":"09","name":"Bayern"}},{"name":"Ulmenweg","postalCode":"63755","locality":"Alzenau","municipality":{"key":"09671111","name":"Alzenau, St","type":"Stadt"},"district":{"key":"09671","name":"Aschaffenburg","type":"Landkreis"},"federalState":{"key":"09","name":"Bayern"}},{"name":"Unterer Röderweg","postalCode":"63755","locality":"Alzenau","municipality":{"key":"09671111","name":"Alzenau, St","type":"Stadt"},"district":{"key":"09671","name":"Aschaffenburg","type":"Landkreis"},"federalState":{"key":"09","name":"Bayern"}},{"name":"Unterm Kreuz","postalCode":"63755","locality":"Alzenau","municipality":{"key":"09671111","name":"Alzenau, St","type":"Stadt"},"district":{"key":"09671","name":"Aschaffenburg","type":"Landkreis"},"federalState":{"key":"09","name":"Bayern"}},{"name":"Vogelsbergstr.","postalCode":"63755","locality":"Alzenau","municipality":{"key":"09671111","name":"Alzenau, St","type":"Stadt"},"district":{"key":"09671","name":"Aschaffenburg","type":"Landkreis"},"federalState":{"key":"09","name":"Bayern"}},{"name":"Vor den Mauern","postalCode":"63755","locality":"Alzenau","municipality":{"key":"09671111","name":"Alzenau, St","type":"Stadt"},"district":{"key":"09671","name":"Aschaffenburg","type":"Landkreis"},"federalState":{"key":"09","name":"Bayern"}},{"name":"Vordere Dauserad","postalCode":"63755","locality":"Alzenau","municipality":{"key":"09671111","name":"Alzenau, St","type":"Stadt"},"district":{"key":"09671","name":"Aschaffenburg","type":"Landkreis"},"federalState":{"key":"09","name":"Bayern"}},{"name":"Wagnerstr.","postalCode":"63755","locality":"Alzenau","municipality":{"key":"09671111","name":"Alzenau, St","type":"Stadt"},"district":{"key":"09671","name":"Aschaffenburg","type":"Landkreis"},"federalState":{"key":"09","name":"Bayern"}},{"name":"Waldpark Ruheberg","postalCode":"63755","locality":"Alzenau","municipality":{"key":"09671111","name":"Alzenau, St","type":"Stadt"},"district":{"key":"09671","name":"Aschaffenburg","type":"Landkreis"},"federalState":{"key":"09","name":"Bayern"}},{"name":"Waldstr.","postalCode":"63755","locality":"Alzenau","municipality":{"key":"09671111","name":"Alzenau, St","type":"Stadt"},"district":{"key":"09671","name":"Aschaffenburg","type":"Landkreis"},"federalState":{"key":"09","name":"Bayern"}},{"name":"Wasserloser Str.","postalCode":"63755","locality":"Alzenau","municipality":{"key":"09671111","name":"Alzenau, St","type":"Stadt"},"district":{"key":"09671","name":"Aschaffenburg","type":"Landkreis"},"federalState":{"key":"09","name":"Bayern"}},{"name":"Weideweg","postalCode":"63755","locality":"Alzenau","municipality":{"key":"09671111","name":"Alzenau, St","type":"Stadt"},"district":{"key":"09671","name":"Aschaffenburg","type":"Landkreis"},"federalState":{"key":"09","name":"Bayern"}},{"name":"Weinbergstr.","postalCode":"63755","locality":"Alzenau","municipality":{"key":"09671111","name":"Alzenau, St","type":"Stadt"},"district":{"key":"09671","name":"Aschaffenburg","type":"Landkreis"},"federalState":{"key":"09","name":"Bayern"}},{"name":"Weisensteinstr.","postalCode":"63755","locality":"Alzenau","municipality":{"key":"09671111","name":"Alzenau, St","type":"Stadt"},"district":{"key":"09671","name":"Aschaffenburg","type":"Landkreis"},"federalState":{"key":"09","name":"Bayern"}},{"name":"Welzheimer Str.","postalCode":"63755","locality":"Alzenau","municipality":{"key":"09671111","name":"Alzenau, St","type":"Stadt"},"district":{"key":"09671","name":"Aschaffenburg","type":"Landkreis"},"federalState":{"key":"09","name":"Bayern"}},{"name":"Westumgehung","postalCode":"63755","locality":"Alzenau","municipality":{"key":"09671111","name":"Alzenau, St","type":"Stadt"},"district":{"key":"09671","name":"Aschaffenburg","type":"Landkreis"},"federalState":{"key":"09","name":"Bayern"}},{"name":"Wiesenstr.","postalCode":"63755","locality":"Alzenau","municipality":{"key":"09671111","name":"Alzenau, St","type":"Stadt"},"district":{"key":"09671","name":"Aschaffenburg","type":"Landkreis"},"federalState":{"key":"09","name":"Bayern"}},{"name":"Wilmundsheimer Str.","postalCode":"63755","locality":"Alzenau","municipality":{"key":"09671111","name":"Alzenau, St","type":"Stadt"},"district":{"key":"09671","name":"Aschaffenburg","type":"Landkreis"},"federalState":{"key":"09","name":"Bayern"}},{"name":"Wingertstr.","postalCode":"63755","locality":"Alzenau","municipality":{"key":"09671111","name":"Alzenau, St","type":"Stadt"},"district":{"key":"09671","name":"Aschaffenburg","type":"Landkreis"},"federalState":{"key":"09","name":"Bayern"}},{"name":"Wingertweg","postalCode":"63755","locality":"Alzenau","municipality":{"key":"09671111","name":"Alzenau, St","type":"Stadt"},"district":{"key":"09671","name":"Aschaffenburg","type":"Landkreis"},"federalState":{"key":"09","name":"Bayern"}},{"name":"Wolfgangstr.","postalCode":"63755","locality":"Alzenau","municipality":{"key":"09671111","name":"Alzenau, St","type":"Stadt"},"district":{"key":"09671","name":"Aschaffenburg","type":"Landkreis"},"federalState":{"key":"09","name":"Bayern"}},{"name":"Wolfskernstr.","postalCode":"63755","locality":"Alzenau","municipality":{"key":"09671111","name":"Alzenau, St","type":"Stadt"},"district":{"key":"09671","name":"Aschaffenburg","type":"Landkreis"},"federalState":{"key":"09","name":"Bayern"}},{"name":"Wolfswingertstr.","postalCode":"63755","locality":"Alzenau","municipality":{"key":"09671111","name":"Alzenau, St","type":"Stadt"},"district":{"key":"09671","name":"Aschaffenburg","type":"Landkreis"},"federalState":{"key":"09","name":"Bayern"}},{"name":"Wüstenei","postalCode":"63755","locality":"Alzenau","municipality":{"key":"09671111","name":"Alzenau, St","type":"Stadt"},"district":{"key":"09671","name":"Aschaffenburg","type":"Landkreis"},"federalState":{"key":"09","name":"Bayern"}},{"name":"Wüstenei","postalCode":"63791","locality":"Alzenau","municipality":{"key":"09671111","name":"Alzenau, St","type":"Stadt"},"district":{"key":"09671","name":"Aschaffenburg","type":"Landkreis"},"federalState":{"key":"09","name":"Bayern"}},{"name":"Yorckstr.","postalCode":"63739","locality":"Aschaffenburg","municipality":{"key":"09661000","name":"Aschaffenburg","type":"Kreisfreie_Stadt"},"district":{"key":"09661","name":"Aschaffenburg","type":"Kreisfreie_Stadt"},"federalState":{"key":"09","name":"Bayern"}},{"name":"Zehntmauerstr.","postalCode":"63755","locality":"Alzenau","municipality":{"key":"09671111","name":"Alzenau, St","type":"Stadt"},"district":{"key":"09671","name":"Aschaffenburg","type":"Landkreis"},"federalState":{"key":"09","name":"Bayern"}},{"name":"Ziegelbachstr.","postalCode":"63755","locality":"Alzenau","municipality":{"key":"09671111","name":"Alzenau, St","type":"Stadt"},"district":{"key":"09671","name":"Aschaffenburg","type":"Landkreis"},"federalState":{"key":"09","name":"Bayern"}},{"name":"Zieglerstr.","postalCode":"63755","locality":"Alzenau","municipality":{"key":"09671111","name":"Alzenau, St","type":"Stadt"},"district":{"key":"09671","name":"Aschaffenburg","type":"Landkreis"},"federalState":{"key":"09","name":"Bayern"}},{"name":"Zum Albstädter Bach","postalCode":"63755","locality":"Alzenau","municipality":{"key":"09671111","name":"Alzenau, St","type":"Stadt"},"district":{"key":"09671","name":"Aschaffenburg","type":"Landkreis"},"federalState":{"key":"09","name":"Bayern"}},{"name":"Zum Esbach","postalCode":"63755","locality":"Alzenau","municipality":{"key":"09671111","name":"Alzenau, St","type":"Stadt"},"district":{"key":"09671","name":"Aschaffenburg","type":"Landkreis"},"federalState":{"key":"09","name":"Bayern"}},{"name":"Zum Hexenthorn","postalCode":"63755","locality":"Alzenau","municipality":{"key":"09671111","name":"Alzenau, St","type":"Stadt"},"district":{"key":"09671","name":"Aschaffenburg","type":"Landkreis"},"federalState":{"key":"09","name":"Bayern"}},{"name":"Zum Ickelhans","postalCode":"63755","locality":"Alzenau","municipality":{"key":"09671111","name":"Alzenau, St","type":"Stadt"},"district":{"key":"09671","name":"Aschaffenburg","type":"Landkreis"},"federalState":{"key":"09","name":"Bayern"}},{"name":"Zum Kälterhaus","postalCode":"63755","locality":"Alzenau","municipality":{"key":"09671111","name":"Alzenau, St","type":"Stadt"},"district":{"key":"09671","name":"Aschaffenburg","type":"Landkreis"},"federalState":{"key":"09","name":"Bayern"}},{"name":"Zum Königsberg","postalCode":"63755","locality":"Alzenau","municipality":{"key":"09671111","name":"Alzenau, St","type":"Stadt"},"district":{"key":"09671","name":"Aschaffenburg","type":"Landkreis"},"federalState":{"key":"09","name":"Bayern"}},{"name":"Zum Kühling","postalCode":"63755","locality":"Alzenau","municipality":{"key":"09671111","name":"Alzenau, St","type":"Stadt"},"district":{"key":"09671","name":"Aschaffenburg","type":"Landkreis"},"federalState":{"key":"09","name":"Bayern"}},{"name":"Zum Oberwald","postalCode":"63755","locality":"Alzenau","municipality":{"key":"09671111","name":"Alzenau, St","type":"Stadt"},"district":{"key":"09671","name":"Aschaffenburg","type":"Landkreis"},"federalState":{"key":"09","name":"Bayern"}},{"name":"Zum Sandfeld","postalCode":"63755","locality":"Alzenau","municipality":{"key":"09671111","name":"Alzenau, St","type":"Stadt"},"district":{"key":"09671","name":"Aschaffenburg","type":"Landkreis"},"federalState":{"key":"09","name":"Bayern"}},{"name":"Zum Simmig","postalCode":"63755","locality":"Alzenau","municipality":{"key":"09671111","name":"Alzenau, St","type":"Stadt"},"district":{"key":"09671","name":"Aschaffenburg","type":"Landkreis"},"federalState":{"key":"09","name":"Bayern"}},{"name":"Zur Wasserschöppe","postalCode":"63755","locality":"Alzenau","municipality":{"key":"09671111","name":"Alzenau, St","type":"Stadt"},"district":{"key":"09671","name":"Aschaffenburg","type":"Landkreis"},"federalState":{"key":"09","name":"Bayern"}},{"name":"Ölmühlweg","postalCode":"63743","locality":"Aschaffenburg","municipality":{"key":"09661000","name":"Aschaffenburg","type":"Kreisfreie_Stadt"},"district":{"key":"09661","name":"Aschaffenburg","type":"Kreisfreie_Stadt"},"federalState":{"key":"09","name":"Bayern"}},{"name":"Österreicher Str.","postalCode":"63739","locality":"Aschaffenburg","municipality":{"key":"09661000","name":"Aschaffenburg","type":"Kreisfreie_Stadt"},"district":{"key":"09661","name":"Aschaffenburg","type":"Kreisfreie_Stadt"},"federalState":{"key":"09","name":"Bayern"}},]