[{"name":"Adlerweg","postalCode":"91564","locality":"Neuendettelsau","municipality":{"key":"09571180","name":"Neuendettelsau","type":"Kreisangehörige_Gemeinde"},"district":{"key":"09571","name":"Ansbach","type":"Landkreis"},"federalState":{"key":"09","name":"Bayern"}},{"name":"Ahornweg","postalCode":"91564","locality":"Neuendettelsau","municipality":{"key":"09571180","name":"Neuendettelsau","type":"Kreisangehörige_Gemeinde"},"district":{"key":"09571","name":"Ansbach","type":"Landkreis"},"federalState":{"key":"09","name":"Bayern"}},{"name":"Aicher Str.","postalCode":"91564","locality":"Neuendettelsau","municipality":{"key":"09571180","name":"Neuendettelsau","type":"Kreisangehörige_Gemeinde"},"district":{"key":"09571","name":"Ansbach","type":"Landkreis"},"federalState":{"key":"09","name":"Bayern"}},{"name":"Altendettelsauer Str.","postalCode":"91564","locality":"Neuendettelsau","municipality":{"key":"09571180","name":"Neuendettelsau","type":"Kreisangehörige_Gemeinde"},"district":{"key":"09571","name":"Ansbach","type":"Landkreis"},"federalState":{"key":"09","name":"Bayern"}},{"name":"Am Häuslesacker","postalCode":"91564","locality":"Neuendettelsau","municipality":{"key":"09571180","name":"Neuendettelsau","type":"Kreisangehörige_Gemeinde"},"district":{"key":"09571","name":"Ansbach","type":"Landkreis"},"federalState":{"key":"09","name":"Bayern"}},{"name":"Am Kälberweiher","postalCode":"91564","locality":"Neuendettelsau","municipality":{"key":"09571180","name":"Neuendettelsau","type":"Kreisangehörige_Gemeinde"},"district":{"key":"09571","name":"Ansbach","type":"Landkreis"},"federalState":{"key":"09","name":"Bayern"}},{"name":"Am Kohlschlag","postalCode":"91564","locality":"Neuendettelsau","municipality":{"key":"09571180","name":"Neuendettelsau","type":"Kreisangehörige_Gemeinde"},"district":{"key":"09571","name":"Ansbach","type":"Landkreis"},"federalState":{"key":"09","name":"Bayern"}},{"name":"Am Neuweiher","postalCode":"91564","locality":"Neuendettelsau","municipality":{"key":"09571180","name":"Neuendettelsau","type":"Kreisangehörige_Gemeinde"},"district":{"key":"09571","name":"Ansbach","type":"Landkreis"},"federalState":{"key":"09","name":"Bayern"}},{"name":"Am Schaltengarten","postalCode":"91564","locality":"Neuendettelsau","municipality":{"key":"09571180","name":"Neuendettelsau","type":"Kreisangehörige_Gemeinde"},"district":{"key":"09571","name":"Ansbach","type":"Landkreis"},"federalState":{"key":"09","name":"Bayern"}},{"name":"Amselweg","postalCode":"91564","locality":"Neuendettelsau","municipality":{"key":"09571180","name":"Neuendettelsau","type":"Kreisangehörige_Gemeinde"},"district":{"key":"09571","name":"Ansbach","type":"Landkreis"},"federalState":{"key":"09","name":"Bayern"}},{"name":"Am Sportpark","postalCode":"91564","locality":"Neuendettelsau","municipality":{"key":"09571180","name":"Neuendettelsau","type":"Kreisangehörige_Gemeinde"},"district":{"key":"09571","name":"Ansbach","type":"Landkreis"},"federalState":{"key":"09","name":"Bayern"}},{"name":"Am Weingarten","postalCode":"91564","locality":"Neuendettelsau","municipality":{"key":"09571180","name":"Neuendettelsau","type":"Kreisangehörige_Gemeinde"},"district":{"key":"09571","name":"Ansbach","type":"Landkreis"},"federalState":{"key":"09","name":"Bayern"}},{"name":"Am Zapfengarten","postalCode":"91564","locality":"Neuendettelsau","municipality":{"key":"09571180","name":"Neuendettelsau","type":"Kreisangehörige_Gemeinde"},"district":{"key":"09571","name":"Ansbach","type":"Landkreis"},"federalState":{"key":"09","name":"Bayern"}},{"name":"Aurachgrund","postalCode":"91564","locality":"Neuendettelsau","municipality":{"key":"09571180","name":"Neuendettelsau","type":"Kreisangehörige_Gemeinde"},"district":{"key":"09571","name":"Ansbach","type":"Landkreis"},"federalState":{"key":"09","name":"Bayern"}},{"name":"Bahnhofstr.","postalCode":"91564","locality":"Neuendettelsau","municipality":{"key":"09571180","name":"Neuendettelsau","type":"Kreisangehörige_Gemeinde"},"district":{"key":"09571","name":"Ansbach","type":"Landkreis"},"federalState":{"key":"09","name":"Bayern"}},{"name":"Baustr.","postalCode":"91564","locality":"Neuendettelsau","municipality":{"key":"09571180","name":"Neuendettelsau","type":"Kreisangehörige_Gemeinde"},"district":{"key":"09571","name":"Ansbach","type":"Landkreis"},"federalState":{"key":"09","name":"Bayern"}},{"name":"Bechhofen","postalCode":"91564","locality":"Neuendettelsau","municipality":{"key":"09571180","name":"Neuendettelsau","type":"Kreisangehörige_Gemeinde"},"district":{"key":"09571","name":"Ansbach","type":"Landkreis"},"federalState":{"key":"09","name":"Bayern"}},{"name":"Birkenhofstr.","postalCode":"91564","locality":"Neuendettelsau","municipality":{"key":"09571180","name":"Neuendettelsau","type":"Kreisangehörige_Gemeinde"},"district":{"key":"09571","name":"Ansbach","type":"Landkreis"},"federalState":{"key":"09","name":"Bayern"}},{"name":"Birkig","postalCode":"91564","locality":"Neuendettelsau","municipality":{"key":"09571180","name":"Neuendettelsau","type":"Kreisangehörige_Gemeinde"},"district":{"key":"09571","name":"Ansbach","type":"Landkreis"},"federalState":{"key":"09","name":"Bayern"}},{"name":"Blumenstr.","postalCode":"91564","locality":"Neuendettelsau","municipality":{"key":"09571180","name":"Neuendettelsau","type":"Kreisangehörige_Gemeinde"},"district":{"key":"09571","name":"Ansbach","type":"Landkreis"},"federalState":{"key":"09","name":"Bayern"}},{"name":"Breslauer Str.","postalCode":"91564","locality":"Neuendettelsau","municipality":{"key":"09571180","name":"Neuendettelsau","type":"Kreisangehörige_Gemeinde"},"district":{"key":"09571","name":"Ansbach","type":"Landkreis"},"federalState":{"key":"09","name":"Bayern"}},{"name":"Buchenstr.","postalCode":"91564","locality":"Neuendettelsau","municipality":{"key":"09571180","name":"Neuendettelsau","type":"Kreisangehörige_Gemeinde"},"district":{"key":"09571","name":"Ansbach","type":"Landkreis"},"federalState":{"key":"09","name":"Bayern"}},{"name":"Chemnitzer Str.","postalCode":"91564","locality":"Neuendettelsau","municipality":{"key":"09571180","name":"Neuendettelsau","type":"Kreisangehörige_Gemeinde"},"district":{"key":"09571","name":"Ansbach","type":"Landkreis"},"federalState":{"key":"09","name":"Bayern"}},{"name":"Dahlienweg","postalCode":"91564","locality":"Neuendettelsau","municipality":{"key":"09571180","name":"Neuendettelsau","type":"Kreisangehörige_Gemeinde"},"district":{"key":"09571","name":"Ansbach","type":"Landkreis"},"federalState":{"key":"09","name":"Bayern"}},{"name":"Deinzerweg","postalCode":"91564","locality":"Neuendettelsau","municipality":{"key":"09571180","name":"Neuendettelsau","type":"Kreisangehörige_Gemeinde"},"district":{"key":"09571","name":"Ansbach","type":"Landkreis"},"federalState":{"key":"09","name":"Bayern"}},{"name":"Eichenstr.","postalCode":"91564","locality":"Neuendettelsau","municipality":{"key":"09571180","name":"Neuendettelsau","type":"Kreisangehörige_Gemeinde"},"district":{"key":"09571","name":"Ansbach","type":"Landkreis"},"federalState":{"key":"09","name":"Bayern"}},{"name":"Falkenstr.","postalCode":"91564","locality":"Neuendettelsau","municipality":{"key":"09571180","name":"Neuendettelsau","type":"Kreisangehörige_Gemeinde"},"district":{"key":"09571","name":"Ansbach","type":"Landkreis"},"federalState":{"key":"09","name":"Bayern"}},{"name":"Feldstr.","postalCode":"91564","locality":"Neuendettelsau","municipality":{"key":"09571180","name":"Neuendettelsau","type":"Kreisangehörige_Gemeinde"},"district":{"key":"09571","name":"Ansbach","type":"Landkreis"},"federalState":{"key":"09","name":"Bayern"}},{"name":"Fichtenstr.","postalCode":"91564","locality":"Neuendettelsau","municipality":{"key":"09571180","name":"Neuendettelsau","type":"Kreisangehörige_Gemeinde"},"district":{"key":"09571","name":"Ansbach","type":"Landkreis"},"federalState":{"key":"09","name":"Bayern"}},{"name":"Finkenstr.","postalCode":"91564","locality":"Neuendettelsau","municipality":{"key":"09571180","name":"Neuendettelsau","type":"Kreisangehörige_Gemeinde"},"district":{"key":"09571","name":"Ansbach","type":"Landkreis"},"federalState":{"key":"09","name":"Bayern"}},{"name":"Fliederstr.","postalCode":"91564","locality":"Neuendettelsau","municipality":{"key":"09571180","name":"Neuendettelsau","type":"Kreisangehörige_Gemeinde"},"district":{"key":"09571","name":"Ansbach","type":"Landkreis"},"federalState":{"key":"09","name":"Bayern"}},{"name":"Flurstr.","postalCode":"91564","locality":"Neuendettelsau","municipality":{"key":"09571180","name":"Neuendettelsau","type":"Kreisangehörige_Gemeinde"},"district":{"key":"09571","name":"Ansbach","type":"Landkreis"},"federalState":{"key":"09","name":"Bayern"}},{"name":"Föhrenstr.","postalCode":"91564","locality":"Neuendettelsau","municipality":{"key":"09571180","name":"Neuendettelsau","type":"Kreisangehörige_Gemeinde"},"district":{"key":"09571","name":"Ansbach","type":"Landkreis"},"federalState":{"key":"09","name":"Bayern"}},{"name":"Friedenstr.","postalCode":"91564","locality":"Neuendettelsau","municipality":{"key":"09571180","name":"Neuendettelsau","type":"Kreisangehörige_Gemeinde"},"district":{"key":"09571","name":"Ansbach","type":"Landkreis"},"federalState":{"key":"09","name":"Bayern"}},{"name":"Friedhofstr.","postalCode":"91564","locality":"Neuendettelsau","municipality":{"key":"09571180","name":"Neuendettelsau","type":"Kreisangehörige_Gemeinde"},"district":{"key":"09571","name":"Ansbach","type":"Landkreis"},"federalState":{"key":"09","name":"Bayern"}},{"name":"Friedrich-Bauer-Str.","postalCode":"91564","locality":"Neuendettelsau","municipality":{"key":"09571180","name":"Neuendettelsau","type":"Kreisangehörige_Gemeinde"},"district":{"key":"09571","name":"Ansbach","type":"Landkreis"},"federalState":{"key":"09","name":"Bayern"}},{"name":"Froschlach","postalCode":"91564","locality":"Neuendettelsau","municipality":{"key":"09571180","name":"Neuendettelsau","type":"Kreisangehörige_Gemeinde"},"district":{"key":"09571","name":"Ansbach","type":"Landkreis"},"federalState":{"key":"09","name":"Bayern"}},{"name":"Fürschlag","postalCode":"91564","locality":"Neuendettelsau","municipality":{"key":"09571180","name":"Neuendettelsau","type":"Kreisangehörige_Gemeinde"},"district":{"key":"09571","name":"Ansbach","type":"Landkreis"},"federalState":{"key":"09","name":"Bayern"}},{"name":"Gartenstr.","postalCode":"91564","locality":"Neuendettelsau","municipality":{"key":"09571180","name":"Neuendettelsau","type":"Kreisangehörige_Gemeinde"},"district":{"key":"09571","name":"Ansbach","type":"Landkreis"},"federalState":{"key":"09","name":"Bayern"}},{"name":"Geichsenhofstr.","postalCode":"91564","locality":"Neuendettelsau","municipality":{"key":"09571180","name":"Neuendettelsau","type":"Kreisangehörige_Gemeinde"},"district":{"key":"09571","name":"Ansbach","type":"Landkreis"},"federalState":{"key":"09","name":"Bayern"}},{"name":"Georg-Merz-Str.","postalCode":"91564","locality":"Neuendettelsau","municipality":{"key":"09571180","name":"Neuendettelsau","type":"Kreisangehörige_Gemeinde"},"district":{"key":"09571","name":"Ansbach","type":"Landkreis"},"federalState":{"key":"09","name":"Bayern"}},{"name":"Gewerbering","postalCode":"91564","locality":"Neuendettelsau","municipality":{"key":"09571180","name":"Neuendettelsau","type":"Kreisangehörige_Gemeinde"},"district":{"key":"09571","name":"Ansbach","type":"Landkreis"},"federalState":{"key":"09","name":"Bayern"}},{"name":"Hammerschmiede","postalCode":"91564","locality":"Neuendettelsau","municipality":{"key":"09571180","name":"Neuendettelsau","type":"Kreisangehörige_Gemeinde"},"district":{"key":"09571","name":"Ansbach","type":"Landkreis"},"federalState":{"key":"09","name":"Bayern"}},{"name":"Hauptstr.","postalCode":"91564","locality":"Neuendettelsau","municipality":{"key":"09571180","name":"Neuendettelsau","type":"Kreisangehörige_Gemeinde"},"district":{"key":"09571","name":"Ansbach","type":"Landkreis"},"federalState":{"key":"09","name":"Bayern"}},{"name":"Heckenstr.","postalCode":"91564","locality":"Neuendettelsau","municipality":{"key":"09571180","name":"Neuendettelsau","type":"Kreisangehörige_Gemeinde"},"district":{"key":"09571","name":"Ansbach","type":"Landkreis"},"federalState":{"key":"09","name":"Bayern"}},{"name":"Heilsbronner Str.","postalCode":"91564","locality":"Neuendettelsau","municipality":{"key":"09571180","name":"Neuendettelsau","type":"Kreisangehörige_Gemeinde"},"district":{"key":"09571","name":"Ansbach","type":"Landkreis"},"federalState":{"key":"09","name":"Bayern"}},{"name":"Hermann-von-Bezzel-Str.","postalCode":"91564","locality":"Neuendettelsau","municipality":{"key":"09571180","name":"Neuendettelsau","type":"Kreisangehörige_Gemeinde"},"district":{"key":"09571","name":"Ansbach","type":"Landkreis"},"federalState":{"key":"09","name":"Bayern"}},{"name":"Heuweg","postalCode":"91564","locality":"Neuendettelsau","municipality":{"key":"09571180","name":"Neuendettelsau","type":"Kreisangehörige_Gemeinde"},"district":{"key":"09571","name":"Ansbach","type":"Landkreis"},"federalState":{"key":"09","name":"Bayern"}},{"name":"Hirtenbuck","postalCode":"91564","locality":"Neuendettelsau","municipality":{"key":"09571180","name":"Neuendettelsau","type":"Kreisangehörige_Gemeinde"},"district":{"key":"09571","name":"Ansbach","type":"Landkreis"},"federalState":{"key":"09","name":"Bayern"}},{"name":"Hubstr.","postalCode":"91564","locality":"Neuendettelsau","municipality":{"key":"09571180","name":"Neuendettelsau","type":"Kreisangehörige_Gemeinde"},"district":{"key":"09571","name":"Ansbach","type":"Landkreis"},"federalState":{"key":"09","name":"Bayern"}},{"name":"Im Eichholz","postalCode":"56235","locality":"Ransbach-Baumbach","municipality":{"key":"07143062","name":"Ransbach-Baumbach, Stadt","type":"Stadt"},"district":{"key":"07143","name":"Westerwaldkreis","type":"Landkreis"},"federalState":{"key":"07","name":"Rheinland-Pfalz"}},{"name":"Im Erlengarten","postalCode":"56235","locality":"Ransbach-Baumbach","municipality":{"key":"07143062","name":"Ransbach-Baumbach, Stadt","type":"Stadt"},"district":{"key":"07143","name":"Westerwaldkreis","type":"Landkreis"},"federalState":{"key":"07","name":"Rheinland-Pfalz"}},{"name":"Im Gebück","postalCode":"56235","locality":"Ransbach-Baumbach","municipality":{"key":"07143062","name":"Ransbach-Baumbach, Stadt","type":"Stadt"},"district":{"key":"07143","name":"Westerwaldkreis","type":"Landkreis"},"federalState":{"key":"07","name":"Rheinland-Pfalz"}},{"name":"Im Glockenschall","postalCode":"56235","locality":"Ransbach-Baumbach","municipality":{"key":"07143062","name":"Ransbach-Baumbach, Stadt","type":"Stadt"},"district":{"key":"07143","name":"Westerwaldkreis","type":"Landkreis"},"federalState":{"key":"07","name":"Rheinland-Pfalz"}},{"name":"Im Grauert","postalCode":"56235","locality":"Ransbach-Baumbach","municipality":{"key":"07143062","name":"Ransbach-Baumbach, Stadt","type":"Stadt"},"district":{"key":"07143","name":"Westerwaldkreis","type":"Landkreis"},"federalState":{"key":"07","name":"Rheinland-Pfalz"}},{"name":"Im Neurod","postalCode":"56235","locality":"Ransbach-Baumbach","municipality":{"key":"07143062","name":"Ransbach-Baumbach, Stadt","type":"Stadt"},"district":{"key":"07143","name":"Westerwaldkreis","type":"Landkreis"},"federalState":{"key":"07","name":"Rheinland-Pfalz"}},{"name":"Im Oberstaudchen","postalCode":"56235","locality":"Ransbach-Baumbach","municipality":{"key":"07143062","name":"Ransbach-Baumbach, Stadt","type":"Stadt"},"district":{"key":"07143","name":"Westerwaldkreis","type":"Landkreis"},"federalState":{"key":"07","name":"Rheinland-Pfalz"}},{"name":"Im schwarzen Graben","postalCode":"56235","locality":"Ransbach-Baumbach","municipality":{"key":"07143062","name":"Ransbach-Baumbach, Stadt","type":"Stadt"},"district":{"key":"07143","name":"Westerwaldkreis","type":"Landkreis"},"federalState":{"key":"07","name":"Rheinland-Pfalz"}},{"name":"Im Staudchen","postalCode":"56235","locality":"Ransbach-Baumbach","municipality":{"key":"07143062","name":"Ransbach-Baumbach, Stadt","type":"Stadt"},"district":{"key":"07143","name":"Westerwaldkreis","type":"Landkreis"},"federalState":{"key":"07","name":"Rheinland-Pfalz"}},{"name":"Im Tal","postalCode":"91623","locality":"Sachsen bei Ansbach","municipality":{"key":"09571196","name":"Sachsen b.Ansbach","type":"Kreisangehörige_Gemeinde"},"district":{"key":"09571","name":"Ansbach","type":"Landkreis"},"federalState":{"key":"09","name":"Bayern"}},{"name":"Im Tannenhain","postalCode":"56235","locality":"Ransbach-Baumbach","municipality":{"key":"07143062","name":"Ransbach-Baumbach, Stadt","type":"Stadt"},"district":{"key":"07143","name":"Westerwaldkreis","type":"Landkreis"},"federalState":{"key":"07","name":"Rheinland-Pfalz"}},{"name":"Im Vogelsang","postalCode":"56235","locality":"Ransbach-Baumbach","municipality":{"key":"07143062","name":"Ransbach-Baumbach, Stadt","type":"Stadt"},"district":{"key":"07143","name":"Westerwaldkreis","type":"Landkreis"},"federalState":{"key":"07","name":"Rheinland-Pfalz"}},{"name":"Im Winkel","postalCode":"56235","locality":"Ransbach-Baumbach","municipality":{"key":"07143062","name":"Ransbach-Baumbach, Stadt","type":"Stadt"},"district":{"key":"07143","name":"Westerwaldkreis","type":"Landkreis"},"federalState":{"key":"07","name":"Rheinland-Pfalz"}},{"name":"In der Bornwiese","postalCode":"56235","locality":"Ransbach-Baumbach","municipality":{"key":"07143062","name":"Ransbach-Baumbach, Stadt","type":"Stadt"},"district":{"key":"07143","name":"Westerwaldkreis","type":"Landkreis"},"federalState":{"key":"07","name":"Rheinland-Pfalz"}},{"name":"In der Speidt","postalCode":"56235","locality":"Ransbach-Baumbach","municipality":{"key":"07143062","name":"Ransbach-Baumbach, Stadt","type":"Stadt"},"district":{"key":"07143","name":"Westerwaldkreis","type":"Landkreis"},"federalState":{"key":"07","name":"Rheinland-Pfalz"}},{"name":"In der Struth","postalCode":"56235","locality":"Ransbach-Baumbach","municipality":{"key":"07143062","name":"Ransbach-Baumbach, Stadt","type":"Stadt"},"district":{"key":"07143","name":"Westerwaldkreis","type":"Landkreis"},"federalState":{"key":"07","name":"Rheinland-Pfalz"}},{"name":"Industriestr.","postalCode":"91522","locality":"Ansbach","municipality":{"key":"09561000","name":"Ansbach","type":"Kreisfreie_Stadt"},"district":{"key":"09561","name":"Ansbach","type":"Kreisfreie_Stadt"},"federalState":{"key":"09","name":"Bayern"}},{"name":"Johann-Flierl-Str.","postalCode":"91564","locality":"Neuendettelsau","municipality":{"key":"09571180","name":"Neuendettelsau","type":"Kreisangehörige_Gemeinde"},"district":{"key":"09571","name":"Ansbach","type":"Landkreis"},"federalState":{"key":"09","name":"Bayern"}},{"name":"Kanalstr.","postalCode":"91564","locality":"Neuendettelsau","municipality":{"key":"09571180","name":"Neuendettelsau","type":"Kreisangehörige_Gemeinde"},"district":{"key":"09571","name":"Ansbach","type":"Landkreis"},"federalState":{"key":"09","name":"Bayern"}},{"name":"Karlsbader Str.","postalCode":"91564","locality":"Neuendettelsau","municipality":{"key":"09571180","name":"Neuendettelsau","type":"Kreisangehörige_Gemeinde"},"district":{"key":"09571","name":"Ansbach","type":"Landkreis"},"federalState":{"key":"09","name":"Bayern"}},{"name":"Kirschendorfer Weg","postalCode":"91564","locality":"Neuendettelsau","municipality":{"key":"09571180","name":"Neuendettelsau","type":"Kreisangehörige_Gemeinde"},"district":{"key":"09571","name":"Ansbach","type":"Landkreis"},"federalState":{"key":"09","name":"Bayern"}},{"name":"Klingenstr.","postalCode":"91564","locality":"Neuendettelsau","municipality":{"key":"09571180","name":"Neuendettelsau","type":"Kreisangehörige_Gemeinde"},"district":{"key":"09571","name":"Ansbach","type":"Landkreis"},"federalState":{"key":"09","name":"Bayern"}},{"name":"Klosterstr.","postalCode":"91564","locality":"Neuendettelsau","municipality":{"key":"09571180","name":"Neuendettelsau","type":"Kreisangehörige_Gemeinde"},"district":{"key":"09571","name":"Ansbach","type":"Landkreis"},"federalState":{"key":"09","name":"Bayern"}},{"name":"Kohlerhecke","postalCode":"91564","locality":"Neuendettelsau","municipality":{"key":"09571180","name":"Neuendettelsau","type":"Kreisangehörige_Gemeinde"},"district":{"key":"09571","name":"Ansbach","type":"Landkreis"},"federalState":{"key":"09","name":"Bayern"}},{"name":"Komotauer Str.","postalCode":"91564","locality":"Neuendettelsau","municipality":{"key":"09571180","name":"Neuendettelsau","type":"Kreisangehörige_Gemeinde"},"district":{"key":"09571","name":"Ansbach","type":"Landkreis"},"federalState":{"key":"09","name":"Bayern"}},{"name":"Königsberger Str.","postalCode":"91564","locality":"Neuendettelsau","municipality":{"key":"09571180","name":"Neuendettelsau","type":"Kreisangehörige_Gemeinde"},"district":{"key":"09571","name":"Ansbach","type":"Landkreis"},"federalState":{"key":"09","name":"Bayern"}},{"name":"Krautackerweg","postalCode":"91564","locality":"Neuendettelsau","municipality":{"key":"09571180","name":"Neuendettelsau","type":"Kreisangehörige_Gemeinde"},"district":{"key":"09571","name":"Ansbach","type":"Landkreis"},"federalState":{"key":"09","name":"Bayern"}},{"name":"Kreuzlach","postalCode":"91564","locality":"Neuendettelsau","municipality":{"key":"09571180","name":"Neuendettelsau","type":"Kreisangehörige_Gemeinde"},"district":{"key":"09571","name":"Ansbach","type":"Landkreis"},"federalState":{"key":"09","name":"Bayern"}},{"name":"Lange Länge","postalCode":"91564","locality":"Neuendettelsau","municipality":{"key":"09571180","name":"Neuendettelsau","type":"Kreisangehörige_Gemeinde"},"district":{"key":"09571","name":"Ansbach","type":"Landkreis"},"federalState":{"key":"09","name":"Bayern"}},{"name":"Lerchengasse","postalCode":"91564","locality":"Neuendettelsau","municipality":{"key":"09571180","name":"Neuendettelsau","type":"Kreisangehörige_Gemeinde"},"district":{"key":"09571","name":"Ansbach","type":"Landkreis"},"federalState":{"key":"09","name":"Bayern"}},{"name":"Libellenweg","postalCode":"91564","locality":"Neuendettelsau","municipality":{"key":"09571180","name":"Neuendettelsau","type":"Kreisangehörige_Gemeinde"},"district":{"key":"09571","name":"Ansbach","type":"Landkreis"},"federalState":{"key":"09","name":"Bayern"}},{"name":"Lilienweg","postalCode":"91564","locality":"Neuendettelsau","municipality":{"key":"09571180","name":"Neuendettelsau","type":"Kreisangehörige_Gemeinde"},"district":{"key":"09571","name":"Ansbach","type":"Landkreis"},"federalState":{"key":"09","name":"Bayern"}},{"name":"Lindenstr.","postalCode":"91564","locality":"Neuendettelsau","municipality":{"key":"09571180","name":"Neuendettelsau","type":"Kreisangehörige_Gemeinde"},"district":{"key":"09571","name":"Ansbach","type":"Landkreis"},"federalState":{"key":"09","name":"Bayern"}},{"name":"Mausendorfer Weg","postalCode":"91564","locality":"Neuendettelsau","municipality":{"key":"09571180","name":"Neuendettelsau","type":"Kreisangehörige_Gemeinde"},"district":{"key":"09571","name":"Ansbach","type":"Landkreis"},"federalState":{"key":"09","name":"Bayern"}},{"name":"Meisenweg","postalCode":"91564","locality":"Neuendettelsau","municipality":{"key":"09571180","name":"Neuendettelsau","type":"Kreisangehörige_Gemeinde"},"district":{"key":"09571","name":"Ansbach","type":"Landkreis"},"federalState":{"key":"09","name":"Bayern"}},{"name":"Missionsstr.","postalCode":"91564","locality":"Neuendettelsau","municipality":{"key":"09571180","name":"Neuendettelsau","type":"Kreisangehörige_Gemeinde"},"district":{"key":"09571","name":"Ansbach","type":"Landkreis"},"federalState":{"key":"09","name":"Bayern"}},{"name":"Narzissenweg","postalCode":"91564","locality":"Neuendettelsau","municipality":{"key":"09571180","name":"Neuendettelsau","type":"Kreisangehörige_Gemeinde"},"district":{"key":"09571","name":"Ansbach","type":"Landkreis"},"federalState":{"key":"09","name":"Bayern"}},{"name":"Nelkenstr.","postalCode":"91564","locality":"Neuendettelsau","municipality":{"key":"09571180","name":"Neuendettelsau","type":"Kreisangehörige_Gemeinde"},"district":{"key":"09571","name":"Ansbach","type":"Landkreis"},"federalState":{"key":"09","name":"Bayern"}},{"name":"Neuwiesenstr.","postalCode":"91564","locality":"Neuendettelsau","municipality":{"key":"09571180","name":"Neuendettelsau","type":"Kreisangehörige_Gemeinde"},"district":{"key":"09571","name":"Ansbach","type":"Landkreis"},"federalState":{"key":"09","name":"Bayern"}},{"name":"Nordstr.","postalCode":"91564","locality":"Neuendettelsau","municipality":{"key":"09571180","name":"Neuendettelsau","type":"Kreisangehörige_Gemeinde"},"district":{"key":"09571","name":"Ansbach","type":"Landkreis"},"federalState":{"key":"09","name":"Bayern"}},{"name":"Oststr.","postalCode":"91564","locality":"Neuendettelsau","municipality":{"key":"09571180","name":"Neuendettelsau","type":"Kreisangehörige_Gemeinde"},"district":{"key":"09571","name":"Ansbach","type":"Landkreis"},"federalState":{"key":"09","name":"Bayern"}},{"name":"Petersauracher Str.","postalCode":"91564","locality":"Neuendettelsau","municipality":{"key":"09571180","name":"Neuendettelsau","type":"Kreisangehörige_Gemeinde"},"district":{"key":"09571","name":"Ansbach","type":"Landkreis"},"federalState":{"key":"09","name":"Bayern"}},{"name":"Pfaffenweg","postalCode":"91564","locality":"Neuendettelsau","municipality":{"key":"09571180","name":"Neuendettelsau","type":"Kreisangehörige_Gemeinde"},"district":{"key":"09571","name":"Ansbach","type":"Landkreis"},"federalState":{"key":"09","name":"Bayern"}},{"name":"Quaststr.","postalCode":"91522","locality":"Ansbach","municipality":{"key":"09561000","name":"Ansbach","type":"Kreisfreie_Stadt"},"district":{"key":"09561","name":"Ansbach","type":"Kreisfreie_Stadt"},"federalState":{"key":"09","name":"Bayern"}},{"name":"Rampenstr.","postalCode":"91564","locality":"Neuendettelsau","municipality":{"key":"09571180","name":"Neuendettelsau","type":"Kreisangehörige_Gemeinde"},"district":{"key":"09571","name":"Ansbach","type":"Landkreis"},"federalState":{"key":"09","name":"Bayern"}},{"name":"Reuther Str.","postalCode":"91564","locality":"Neuendettelsau","municipality":{"key":"09571180","name":"Neuendettelsau","type":"Kreisangehörige_Gemeinde"},"district":{"key":"09571","name":"Ansbach","type":"Landkreis"},"federalState":{"key":"09","name":"Bayern"}},{"name":"Riegelgasse","postalCode":"91564","locality":"Neuendettelsau","municipality":{"key":"09571180","name":"Neuendettelsau","type":"Kreisangehörige_Gemeinde"},"district":{"key":"09571","name":"Ansbach","type":"Landkreis"},"federalState":{"key":"09","name":"Bayern"}},{"name":"Ringstr.","postalCode":"91564","locality":"Neuendettelsau","municipality":{"key":"09571180","name":"Neuendettelsau","type":"Kreisangehörige_Gemeinde"},"district":{"key":"09571","name":"Ansbach","type":"Landkreis"},"federalState":{"key":"09","name":"Bayern"}},{"name":"Rosenstr.","postalCode":"91564","locality":"Neuendettelsau","municipality":{"key":"09571180","name":"Neuendettelsau","type":"Kreisangehörige_Gemeinde"},"district":{"key":"09571","name":"Ansbach","type":"Landkreis"},"federalState":{"key":"09","name":"Bayern"}},{"name":"Schilfweg","postalCode":"91564","locality":"Neuendettelsau","municipality":{"key":"09571180","name":"Neuendettelsau","type":"Kreisangehörige_Gemeinde"},"district":{"key":"09571","name":"Ansbach","type":"Landkreis"},"federalState":{"key":"09","name":"Bayern"}},{"name":"Schlauersbacher Str.","postalCode":"91564","locality":"Neuendettelsau","municipality":{"key":"09571180","name":"Neuendettelsau","type":"Kreisangehörige_Gemeinde"},"district":{"key":"09571","name":"Ansbach","type":"Landkreis"},"federalState":{"key":"09","name":"Bayern"}},{"name":"Schleifweg","postalCode":"91564","locality":"Neuendettelsau","municipality":{"key":"09571180","name":"Neuendettelsau","type":"Kreisangehörige_Gemeinde"},"district":{"key":"09571","name":"Ansbach","type":"Landkreis"},"federalState":{"key":"09","name":"Bayern"}},{"name":"Schulweg","postalCode":"91564","locality":"Neuendettelsau","municipality":{"key":"09571180","name":"Neuendettelsau","type":"Kreisangehörige_Gemeinde"},"district":{"key":"09571","name":"Ansbach","type":"Landkreis"},"federalState":{"key":"09","name":"Bayern"}},{"name":"Seerosenweg","postalCode":"91564","locality":"Neuendettelsau","municipality":{"key":"09571180","name":"Neuendettelsau","type":"Kreisangehörige_Gemeinde"},"district":{"key":"09571","name":"Ansbach","type":"Landkreis"},"federalState":{"key":"09","name":"Bayern"}},{"name":"Sonnenstr.","postalCode":"91564","locality":"Neuendettelsau","municipality":{"key":"09571180","name":"Neuendettelsau","type":"Kreisangehörige_Gemeinde"},"district":{"key":"09571","name":"Ansbach","type":"Landkreis"},"federalState":{"key":"09","name":"Bayern"}},{"name":"Stettiner Str.","postalCode":"91564","locality":"Neuendettelsau","municipality":{"key":"09571180","name":"Neuendettelsau","type":"Kreisangehörige_Gemeinde"},"district":{"key":"09571","name":"Ansbach","type":"Landkreis"},"federalState":{"key":"09","name":"Bayern"}},{"name":"Tannenstr.","postalCode":"91564","locality":"Neuendettelsau","municipality":{"key":"09571180","name":"Neuendettelsau","type":"Kreisangehörige_Gemeinde"},"district":{"key":"09571","name":"Ansbach","type":"Landkreis"},"federalState":{"key":"09","name":"Bayern"}},{"name":"Tulpenstr.","postalCode":"91564","locality":"Neuendettelsau","municipality":{"key":"09571180","name":"Neuendettelsau","type":"Kreisangehörige_Gemeinde"},"district":{"key":"09571","name":"Ansbach","type":"Landkreis"},"federalState":{"key":"09","name":"Bayern"}},{"name":"Ulmenweg","postalCode":"91564","locality":"Neuendettelsau","municipality":{"key":"09571180","name":"Neuendettelsau","type":"Kreisangehörige_Gemeinde"},"district":{"key":"09571","name":"Ansbach","type":"Landkreis"},"federalState":{"key":"09","name":"Bayern"}},{"name":"Veit-Stoß-Str.","postalCode":"91623","locality":"Sachsen bei Ansbach","municipality":{"key":"09571196","name":"Sachsen b.Ansbach","type":"Kreisangehörige_Gemeinde"},"district":{"key":"09571","name":"Ansbach","type":"Landkreis"},"federalState":{"key":"09","name":"Bayern"}},{"name":"Vetterstr.","postalCode":"91522","locality":"Ansbach","municipality":{"key":"09561000","name":"Ansbach","type":"Kreisfreie_Stadt"},"district":{"key":"09561","name":"Ansbach","type":"Kreisfreie_Stadt"},"federalState":{"key":"09","name":"Bayern"}},{"name":"Virchowstr.","postalCode":"91522","locality":"Ansbach","municipality":{"key":"09561000","name":"Ansbach","type":"Kreisfreie_Stadt"},"district":{"key":"09561","name":"Ansbach","type":"Kreisfreie_Stadt"},"federalState":{"key":"09","name":"Bayern"}},{"name":"Vogelherd","postalCode":"91522","locality":"Ansbach","municipality":{"key":"09561000","name":"Ansbach","type":"Kreisfreie_Stadt"},"district":{"key":"09561","name":"Ansbach","type":"Kreisfreie_Stadt"},"federalState":{"key":"09","name":"Bayern"}},{"name":"Vogelweide","postalCode":"91522","locality":"Ansbach","municipality":{"key":"09561000","name":"Ansbach","type":"Kreisfreie_Stadt"},"district":{"key":"09561","name":"Ansbach","type":"Kreisfreie_Stadt"},"federalState":{"key":"09","name":"Bayern"}},{"name":"Vogtherrstr.","postalCode":"91522","locality":"Ansbach","municipality":{"key":"09561000","name":"Ansbach","type":"Kreisfreie_Stadt"},"district":{"key":"09561","name":"Ansbach","type":"Kreisfreie_Stadt"},"federalState":{"key":"09","name":"Bayern"}},{"name":"Volkersdorfer Str.","postalCode":"91623","locality":"Sachsen bei Ansbach","municipality":{"key":"09571196","name":"Sachsen b.Ansbach","type":"Kreisangehörige_Gemeinde"},"district":{"key":"09571","name":"Ansbach","type":"Landkreis"},"federalState":{"key":"09","name":"Bayern"}},{"name":"Von-Reifenberg-Str.","postalCode":"56235","locality":"Ransbach-Baumbach","municipality":{"key":"07143062","name":"Ransbach-Baumbach, Stadt","type":"Stadt"},"district":{"key":"07143","name":"Westerwaldkreis","type":"Landkreis"},"federalState":{"key":"07","name":"Rheinland-Pfalz"}},{"name":"Von-Steuben-Str.","postalCode":"91522","locality":"Ansbach","municipality":{"key":"09561000","name":"Ansbach","type":"Kreisfreie_Stadt"},"district":{"key":"09561","name":"Ansbach","type":"Kreisfreie_Stadt"},"federalState":{"key":"09","name":"Bayern"}},{"name":"Von-Weber-Str.","postalCode":"91522","locality":"Ansbach","municipality":{"key":"09561000","name":"Ansbach","type":"Kreisfreie_Stadt"},"district":{"key":"09561","name":"Ansbach","type":"Kreisfreie_Stadt"},"federalState":{"key":"09","name":"Bayern"}},{"name":"Waldsteig","postalCode":"91564","locality":"Neuendettelsau","municipality":{"key":"09571180","name":"Neuendettelsau","type":"Kreisangehörige_Gemeinde"},"district":{"key":"09571","name":"Ansbach","type":"Landkreis"},"federalState":{"key":"09","name":"Bayern"}},{"name":"Waldstr.","postalCode":"91564","locality":"Neuendettelsau","municipality":{"key":"09571180","name":"Neuendettelsau","type":"Kreisangehörige_Gemeinde"},"district":{"key":"09571","name":"Ansbach","type":"Landkreis"},"federalState":{"key":"09","name":"Bayern"}},{"name":"Watzendorf","postalCode":"91564","locality":"Neuendettelsau","municipality":{"key":"09571180","name":"Neuendettelsau","type":"Kreisangehörige_Gemeinde"},"district":{"key":"09571","name":"Ansbach","type":"Landkreis"},"federalState":{"key":"09","name":"Bayern"}},{"name":"Weidenweg","postalCode":"91564","locality":"Neuendettelsau","municipality":{"key":"09571180","name":"Neuendettelsau","type":"Kreisangehörige_Gemeinde"},"district":{"key":"09571","name":"Ansbach","type":"Landkreis"},"federalState":{"key":"09","name":"Bayern"}},{"name":"Weiherdamm","postalCode":"91564","locality":"Neuendettelsau","municipality":{"key":"09571180","name":"Neuendettelsau","type":"Kreisangehörige_Gemeinde"},"district":{"key":"09571","name":"Ansbach","type":"Landkreis"},"federalState":{"key":"09","name":"Bayern"}},{"name":"Weiherstr.","postalCode":"91564","locality":"Neuendettelsau","municipality":{"key":"09571180","name":"Neuendettelsau","type":"Kreisangehörige_Gemeinde"},"district":{"key":"09571","name":"Ansbach","type":"Landkreis"},"federalState":{"key":"09","name":"Bayern"}},{"name":"Weinberg","postalCode":"91564","locality":"Neuendettelsau","municipality":{"key":"09571180","name":"Neuendettelsau","type":"Kreisangehörige_Gemeinde"},"district":{"key":"09571","name":"Ansbach","type":"Landkreis"},"federalState":{"key":"09","name":"Bayern"}},{"name":"Weißenbronner Str.","postalCode":"91564","locality":"Neuendettelsau","municipality":{"key":"09571180","name":"Neuendettelsau","type":"Kreisangehörige_Gemeinde"},"district":{"key":"09571","name":"Ansbach","type":"Landkreis"},"federalState":{"key":"09","name":"Bayern"}},{"name":"Wernsbach","postalCode":"91564","locality":"Neuendettelsau","municipality":{"key":"09571180","name":"Neuendettelsau","type":"Kreisangehörige_Gemeinde"},"district":{"key":"09571","name":"Ansbach","type":"Landkreis"},"federalState":{"key":"09","name":"Bayern"}},{"name":"Wilhelm-Löhe-Str.","postalCode":"91564","locality":"Neuendettelsau","municipality":{"key":"09571180","name":"Neuendettelsau","type":"Kreisangehörige_Gemeinde"},"district":{"key":"09571","name":"Ansbach","type":"Landkreis"},"federalState":{"key":"09","name":"Bayern"}},{"name":"Winterseite","postalCode":"91564","locality":"Neuendettelsau","municipality":{"key":"09571180","name":"Neuendettelsau","type":"Kreisangehörige_Gemeinde"},"district":{"key":"09571","name":"Ansbach","type":"Landkreis"},"federalState":{"key":"09","name":"Bayern"}},{"name":"Wollersdorf","postalCode":"91564","locality":"Neuendettelsau","municipality":{"key":"09571180","name":"Neuendettelsau","type":"Kreisangehörige_Gemeinde"},"district":{"key":"09571","name":"Ansbach","type":"Landkreis"},"federalState":{"key":"09","name":"Bayern"}},{"name":"Ziegelhüttenstr.","postalCode":"91564","locality":"Neuendettelsau","municipality":{"key":"09571180","name":"Neuendettelsau","type":"Kreisangehörige_Gemeinde"},"district":{"key":"09571","name":"Ansbach","type":"Landkreis"},"federalState":{"key":"09","name":"Bayern"}},]