[{"key":"10217998","name":"Derrière Bouverance","postalCode":"2717","locality":"Rebévelier","commune":{"key":"715","name":"Rebévelier","shortName":"Rebévelier"},"district":{"key":"241","name":"Arrondissement administratif Jura bernois"},"canton":{"key":"2","code":"BE","name":"Bern / Berne"},"status":"Real"},{"key":"10010018","name":"La Closure","postalCode":"2717","locality":"Rebévelier","commune":{"key":"715","name":"Rebévelier","shortName":"Rebévelier"},"district":{"key":"241","name":"Arrondissement administratif Jura bernois"},"canton":{"key":"2","code":"BE","name":"Bern / Berne"},"status":"Real"},{"key":"10218002","name":"La Cornée","postalCode":"2717","locality":"Rebévelier","commune":{"key":"715","name":"Rebévelier","shortName":"Rebévelier"},"district":{"key":"241","name":"Arrondissement administratif Jura bernois"},"canton":{"key":"2","code":"BE","name":"Bern / Berne"},"status":"Real"},{"key":"10010019","name":"La Monte","postalCode":"2717","locality":"Rebévelier","commune":{"key":"715","name":"Rebévelier","shortName":"Rebévelier"},"district":{"key":"241","name":"Arrondissement administratif Jura bernois"},"canton":{"key":"2","code":"BE","name":"Bern / Berne"},"status":"Real"},{"key":"10086597","name":"Les Cerniers","postalCode":"2717","locality":"Rebévelier","commune":{"key":"715","name":"Rebévelier","shortName":"Rebévelier"},"district":{"key":"241","name":"Arrondissement administratif Jura bernois"},"canton":{"key":"2","code":"BE","name":"Bern / Berne"},"status":"Real"},{"key":"10218006","name":"Longs Champs","postalCode":"2717","locality":"Rebévelier","commune":{"key":"715","name":"Rebévelier","shortName":"Rebévelier"},"district":{"key":"241","name":"Arrondissement administratif Jura bernois"},"canton":{"key":"2","code":"BE","name":"Bern / Berne"},"status":"Real"},{"key":"10218009","name":"Prés Prieur","postalCode":"2717","locality":"Rebévelier","commune":{"key":"715","name":"Rebévelier","shortName":"Rebévelier"},"district":{"key":"241","name":"Arrondissement administratif Jura bernois"},"canton":{"key":"2","code":"BE","name":"Bern / Berne"},"status":"Real"},{"key":"10104740","name":"Vieux Prés","postalCode":"2717","locality":"Rebévelier","commune":{"key":"715","name":"Rebévelier","shortName":"Rebévelier"},"district":{"key":"241","name":"Arrondissement administratif Jura bernois"},"canton":{"key":"2","code":"BE","name":"Bern / Berne"},"status":"Real"},{"key":"10191885","name":"Village","postalCode":"2717","locality":"Rebévelier","commune":{"key":"715","name":"Rebévelier","shortName":"Rebévelier"},"district":{"key":"241","name":"Arrondissement administratif Jura bernois"},"canton":{"key":"2","code":"BE","name":"Bern / Berne"},"status":"Real"},]