[{"name":"Am Hundsbaum","postalCode":"54552","locality":"Hörschhausen","municipality":{"key":"07233032","name":"Hörschhausen","type":"Kreisangehörige_Gemeinde"},"district":{"key":"07233","name":"Vulkaneifel","type":"Landkreis"},"federalState":{"key":"07","name":"Rheinland-Pfalz"}},{"name":"Auf dem Acker","postalCode":"54552","locality":"Hörschhausen","municipality":{"key":"07233032","name":"Hörschhausen","type":"Kreisangehörige_Gemeinde"},"district":{"key":"07233","name":"Vulkaneifel","type":"Landkreis"},"federalState":{"key":"07","name":"Rheinland-Pfalz"}},{"name":"Auf der Hay","postalCode":"54552","locality":"Hörschhausen","municipality":{"key":"07233032","name":"Hörschhausen","type":"Kreisangehörige_Gemeinde"},"district":{"key":"07233","name":"Vulkaneifel","type":"Landkreis"},"federalState":{"key":"07","name":"Rheinland-Pfalz"}},{"name":"Auf der Hohl","postalCode":"54552","locality":"Hörschhausen","municipality":{"key":"07233032","name":"Hörschhausen","type":"Kreisangehörige_Gemeinde"},"district":{"key":"07233","name":"Vulkaneifel","type":"Landkreis"},"federalState":{"key":"07","name":"Rheinland-Pfalz"}},{"name":"Auf der Hurth","postalCode":"54552","locality":"Hörschhausen","municipality":{"key":"07233032","name":"Hörschhausen","type":"Kreisangehörige_Gemeinde"},"district":{"key":"07233","name":"Vulkaneifel","type":"Landkreis"},"federalState":{"key":"07","name":"Rheinland-Pfalz"}},{"name":"Bahnhofstr.","postalCode":"54552","locality":"Hörschhausen","municipality":{"key":"07233032","name":"Hörschhausen","type":"Kreisangehörige_Gemeinde"},"district":{"key":"07233","name":"Vulkaneifel","type":"Landkreis"},"federalState":{"key":"07","name":"Rheinland-Pfalz"}},{"name":"Dauner Str.","postalCode":"54552","locality":"Hörschhausen","municipality":{"key":"07233032","name":"Hörschhausen","type":"Kreisangehörige_Gemeinde"},"district":{"key":"07233","name":"Vulkaneifel","type":"Landkreis"},"federalState":{"key":"07","name":"Rheinland-Pfalz"}},{"name":"In der Struth","postalCode":"54552","locality":"Hörschhausen","municipality":{"key":"07233032","name":"Hörschhausen","type":"Kreisangehörige_Gemeinde"},"district":{"key":"07233","name":"Vulkaneifel","type":"Landkreis"},"federalState":{"key":"07","name":"Rheinland-Pfalz"}},{"name":"Mühlenweg","postalCode":"54552","locality":"Hörschhausen","municipality":{"key":"07233032","name":"Hörschhausen","type":"Kreisangehörige_Gemeinde"},"district":{"key":"07233","name":"Vulkaneifel","type":"Landkreis"},"federalState":{"key":"07","name":"Rheinland-Pfalz"}},{"name":"Talweg","postalCode":"54552","locality":"Hörschhausen","municipality":{"key":"07233032","name":"Hörschhausen","type":"Kreisangehörige_Gemeinde"},"district":{"key":"07233","name":"Vulkaneifel","type":"Landkreis"},"federalState":{"key":"07","name":"Rheinland-Pfalz"}},{"name":"Uessbachstr.","postalCode":"54552","locality":"Hörschhausen","municipality":{"key":"07233032","name":"Hörschhausen","type":"Kreisangehörige_Gemeinde"},"district":{"key":"07233","name":"Vulkaneifel","type":"Landkreis"},"federalState":{"key":"07","name":"Rheinland-Pfalz"}},{"name":"Wiesenweg","postalCode":"54552","locality":"Hörschhausen","municipality":{"key":"07233032","name":"Hörschhausen","type":"Kreisangehörige_Gemeinde"},"district":{"key":"07233","name":"Vulkaneifel","type":"Landkreis"},"federalState":{"key":"07","name":"Rheinland-Pfalz"}},]