[{"name":"Aigener Str.","postalCode":"94148","locality":"Kirchham","municipality":{"key":"09275130","name":"Kirchham","type":"Kreisangehörige_Gemeinde"},"district":{"key":"09275","name":"Passau","type":"Landkreis"},"federalState":{"key":"09","name":"Bayern"}},{"name":"Am Goldberg","postalCode":"94148","locality":"Kirchham","municipality":{"key":"09275130","name":"Kirchham","type":"Kreisangehörige_Gemeinde"},"district":{"key":"09275","name":"Passau","type":"Landkreis"},"federalState":{"key":"09","name":"Bayern"}},{"name":"Am Haarland","postalCode":"94148","locality":"Kirchham","municipality":{"key":"09275130","name":"Kirchham","type":"Kreisangehörige_Gemeinde"},"district":{"key":"09275","name":"Passau","type":"Landkreis"},"federalState":{"key":"09","name":"Bayern"}},{"name":"Am Kreuzlandl","postalCode":"94148","locality":"Kirchham","municipality":{"key":"09275130","name":"Kirchham","type":"Kreisangehörige_Gemeinde"},"district":{"key":"09275","name":"Passau","type":"Landkreis"},"federalState":{"key":"09","name":"Bayern"}},{"name":"Amselweg","postalCode":"94148","locality":"Kirchham","municipality":{"key":"09275130","name":"Kirchham","type":"Kreisangehörige_Gemeinde"},"district":{"key":"09275","name":"Passau","type":"Landkreis"},"federalState":{"key":"09","name":"Bayern"}},{"name":"Am Sportplatz","postalCode":"94148","locality":"Kirchham","municipality":{"key":"09275130","name":"Kirchham","type":"Kreisangehörige_Gemeinde"},"district":{"key":"09275","name":"Passau","type":"Landkreis"},"federalState":{"key":"09","name":"Bayern"}},{"name":"Am Steinbergerfeld","postalCode":"94148","locality":"Kirchham","municipality":{"key":"09275130","name":"Kirchham","type":"Kreisangehörige_Gemeinde"},"district":{"key":"09275","name":"Passau","type":"Landkreis"},"federalState":{"key":"09","name":"Bayern"}},{"name":"Am Wassergraben","postalCode":"94148","locality":"Kirchham","municipality":{"key":"09275130","name":"Kirchham","type":"Kreisangehörige_Gemeinde"},"district":{"key":"09275","name":"Passau","type":"Landkreis"},"federalState":{"key":"09","name":"Bayern"}},{"name":"Am Weinberg","postalCode":"94148","locality":"Kirchham","municipality":{"key":"09275130","name":"Kirchham","type":"Kreisangehörige_Gemeinde"},"district":{"key":"09275","name":"Passau","type":"Landkreis"},"federalState":{"key":"09","name":"Bayern"}},{"name":"Asternweg","postalCode":"94148","locality":"Kirchham","municipality":{"key":"09275130","name":"Kirchham","type":"Kreisangehörige_Gemeinde"},"district":{"key":"09275","name":"Passau","type":"Landkreis"},"federalState":{"key":"09","name":"Bayern"}},{"name":"Bad-Füssinger-Str.","postalCode":"94148","locality":"Kirchham","municipality":{"key":"09275130","name":"Kirchham","type":"Kreisangehörige_Gemeinde"},"district":{"key":"09275","name":"Passau","type":"Landkreis"},"federalState":{"key":"09","name":"Bayern"}},{"name":"Bienenweg","postalCode":"94148","locality":"Kirchham","municipality":{"key":"09275130","name":"Kirchham","type":"Kreisangehörige_Gemeinde"},"district":{"key":"09275","name":"Passau","type":"Landkreis"},"federalState":{"key":"09","name":"Bayern"}},{"name":"Birkenweg","postalCode":"94148","locality":"Kirchham","municipality":{"key":"09275130","name":"Kirchham","type":"Kreisangehörige_Gemeinde"},"district":{"key":"09275","name":"Passau","type":"Landkreis"},"federalState":{"key":"09","name":"Bayern"}},{"name":"Blumenstr.","postalCode":"94148","locality":"Kirchham","municipality":{"key":"09275130","name":"Kirchham","type":"Kreisangehörige_Gemeinde"},"district":{"key":"09275","name":"Passau","type":"Landkreis"},"federalState":{"key":"09","name":"Bayern"}},{"name":"Bürgermeister-Osterholzer-Str.","postalCode":"94148","locality":"Kirchham","municipality":{"key":"09275130","name":"Kirchham","type":"Kreisangehörige_Gemeinde"},"district":{"key":"09275","name":"Passau","type":"Landkreis"},"federalState":{"key":"09","name":"Bayern"}},{"name":"Carlonegasse","postalCode":"94032","locality":"Passau","municipality":{"key":"09262000","name":"Passau","type":"Kreisfreie_Stadt"},"district":{"key":"09262","name":"Passau","type":"Kreisfreie_Stadt"},"federalState":{"key":"09","name":"Bayern"}},{"name":"Carossastr.","postalCode":"94036","locality":"Passau","municipality":{"key":"09262000","name":"Passau","type":"Kreisfreie_Stadt"},"district":{"key":"09262","name":"Passau","type":"Kreisfreie_Stadt"},"federalState":{"key":"09","name":"Bayern"}},{"name":"Christdobl","postalCode":"94034","locality":"Passau","municipality":{"key":"09262000","name":"Passau","type":"Kreisfreie_Stadt"},"district":{"key":"09262","name":"Passau","type":"Kreisfreie_Stadt"},"federalState":{"key":"09","name":"Bayern"}},{"name":"Dorfstr.","postalCode":"94148","locality":"Kirchham","municipality":{"key":"09275130","name":"Kirchham","type":"Kreisangehörige_Gemeinde"},"district":{"key":"09275","name":"Passau","type":"Landkreis"},"federalState":{"key":"09","name":"Bayern"}},{"name":"Drosselweg","postalCode":"94148","locality":"Kirchham","municipality":{"key":"09275130","name":"Kirchham","type":"Kreisangehörige_Gemeinde"},"district":{"key":"09275","name":"Passau","type":"Landkreis"},"federalState":{"key":"09","name":"Bayern"}},{"name":"Erlbacher Str.","postalCode":"94148","locality":"Kirchham","municipality":{"key":"09275130","name":"Kirchham","type":"Kreisangehörige_Gemeinde"},"district":{"key":"09275","name":"Passau","type":"Landkreis"},"federalState":{"key":"09","name":"Bayern"}},{"name":"Fasanenallee","postalCode":"94148","locality":"Kirchham","municipality":{"key":"09275130","name":"Kirchham","type":"Kreisangehörige_Gemeinde"},"district":{"key":"09275","name":"Passau","type":"Landkreis"},"federalState":{"key":"09","name":"Bayern"}},{"name":"Finkenweg","postalCode":"94148","locality":"Kirchham","municipality":{"key":"09275130","name":"Kirchham","type":"Kreisangehörige_Gemeinde"},"district":{"key":"09275","name":"Passau","type":"Landkreis"},"federalState":{"key":"09","name":"Bayern"}},{"name":"Florianstr.","postalCode":"94148","locality":"Kirchham","municipality":{"key":"09275130","name":"Kirchham","type":"Kreisangehörige_Gemeinde"},"district":{"key":"09275","name":"Passau","type":"Landkreis"},"federalState":{"key":"09","name":"Bayern"}},{"name":"Gartenstr.","postalCode":"94148","locality":"Kirchham","municipality":{"key":"09275130","name":"Kirchham","type":"Kreisangehörige_Gemeinde"},"district":{"key":"09275","name":"Passau","type":"Landkreis"},"federalState":{"key":"09","name":"Bayern"}},{"name":"Georg-Ettlinger-Str.","postalCode":"94148","locality":"Kirchham","municipality":{"key":"09275130","name":"Kirchham","type":"Kreisangehörige_Gemeinde"},"district":{"key":"09275","name":"Passau","type":"Landkreis"},"federalState":{"key":"09","name":"Bayern"}},{"name":"Gewerbering","postalCode":"94148","locality":"Kirchham","municipality":{"key":"09275130","name":"Kirchham","type":"Kreisangehörige_Gemeinde"},"district":{"key":"09275","name":"Passau","type":"Landkreis"},"federalState":{"key":"09","name":"Bayern"}},{"name":"Goethestr.","postalCode":"94148","locality":"Kirchham","municipality":{"key":"09275130","name":"Kirchham","type":"Kreisangehörige_Gemeinde"},"district":{"key":"09275","name":"Passau","type":"Landkreis"},"federalState":{"key":"09","name":"Bayern"}},{"name":"Hauptstr.","postalCode":"94148","locality":"Kirchham","municipality":{"key":"09275130","name":"Kirchham","type":"Kreisangehörige_Gemeinde"},"district":{"key":"09275","name":"Passau","type":"Landkreis"},"federalState":{"key":"09","name":"Bayern"}},{"name":"Hofer Str.","postalCode":"94148","locality":"Kirchham","municipality":{"key":"09275130","name":"Kirchham","type":"Kreisangehörige_Gemeinde"},"district":{"key":"09275","name":"Passau","type":"Landkreis"},"federalState":{"key":"09","name":"Bayern"}},{"name":"Hofgartenweg","postalCode":"94148","locality":"Kirchham","municipality":{"key":"09275130","name":"Kirchham","type":"Kreisangehörige_Gemeinde"},"district":{"key":"09275","name":"Passau","type":"Landkreis"},"federalState":{"key":"09","name":"Bayern"}},{"name":"Ilzbrücke","postalCode":"94034","locality":"Passau","municipality":{"key":"09262000","name":"Passau","type":"Kreisfreie_Stadt"},"district":{"key":"09262","name":"Passau","type":"Kreisfreie_Stadt"},"federalState":{"key":"09","name":"Bayern"}},{"name":"Ilzleite","postalCode":"94034","locality":"Passau","municipality":{"key":"09262000","name":"Passau","type":"Kreisfreie_Stadt"},"district":{"key":"09262","name":"Passau","type":"Kreisfreie_Stadt"},"federalState":{"key":"09","name":"Bayern"}},{"name":"Ilztalwanderweg","postalCode":"94034","locality":"Passau","municipality":{"key":"09262000","name":"Passau","type":"Kreisfreie_Stadt"},"district":{"key":"09262","name":"Passau","type":"Kreisfreie_Stadt"},"federalState":{"key":"09","name":"Bayern"}},{"name":"Innbrückgasse","postalCode":"94032","locality":"Passau","municipality":{"key":"09262000","name":"Passau","type":"Kreisfreie_Stadt"},"district":{"key":"09262","name":"Passau","type":"Kreisfreie_Stadt"},"federalState":{"key":"09","name":"Bayern"}},{"name":"Innkai","postalCode":"94032","locality":"Passau","municipality":{"key":"09262000","name":"Passau","type":"Kreisfreie_Stadt"},"district":{"key":"09262","name":"Passau","type":"Kreisfreie_Stadt"},"federalState":{"key":"09","name":"Bayern"}},{"name":"Innpromenade","postalCode":"94032","locality":"Passau","municipality":{"key":"09262000","name":"Passau","type":"Kreisfreie_Stadt"},"district":{"key":"09262","name":"Passau","type":"Kreisfreie_Stadt"},"federalState":{"key":"09","name":"Bayern"}},{"name":"Innsteg","postalCode":"94032","locality":"Passau","municipality":{"key":"09262000","name":"Passau","type":"Kreisfreie_Stadt"},"district":{"key":"09262","name":"Passau","type":"Kreisfreie_Stadt"},"federalState":{"key":"09","name":"Bayern"}},{"name":"Innstr.","postalCode":"94032","locality":"Passau","municipality":{"key":"09262000","name":"Passau","type":"Kreisfreie_Stadt"},"district":{"key":"09262","name":"Passau","type":"Kreisfreie_Stadt"},"federalState":{"key":"09","name":"Bayern"}},{"name":"Innstr.","postalCode":"94036","locality":"Passau","municipality":{"key":"09262000","name":"Passau","type":"Kreisfreie_Stadt"},"district":{"key":"09262","name":"Passau","type":"Kreisfreie_Stadt"},"federalState":{"key":"09","name":"Bayern"}},{"name":"Innwiese","postalCode":"94032","locality":"Passau","municipality":{"key":"09262000","name":"Passau","type":"Kreisfreie_Stadt"},"district":{"key":"09262","name":"Passau","type":"Kreisfreie_Stadt"},"federalState":{"key":"09","name":"Bayern"}},{"name":"Jägerhof","postalCode":"94034","locality":"Passau","municipality":{"key":"09262000","name":"Passau","type":"Kreisfreie_Stadt"},"district":{"key":"09262","name":"Passau","type":"Kreisfreie_Stadt"},"federalState":{"key":"09","name":"Bayern"}},{"name":"Jägersteig","postalCode":"94034","locality":"Passau","municipality":{"key":"09262000","name":"Passau","type":"Kreisfreie_Stadt"},"district":{"key":"09262","name":"Passau","type":"Kreisfreie_Stadt"},"federalState":{"key":"09","name":"Bayern"}},{"name":"Jägerweg","postalCode":"94036","locality":"Passau","municipality":{"key":"09262000","name":"Passau","type":"Kreisfreie_Stadt"},"district":{"key":"09262","name":"Passau","type":"Kreisfreie_Stadt"},"federalState":{"key":"09","name":"Bayern"}},{"name":"Jahnstr.","postalCode":"94032","locality":"Passau","municipality":{"key":"09262000","name":"Passau","type":"Kreisfreie_Stadt"},"district":{"key":"09262","name":"Passau","type":"Kreisfreie_Stadt"},"federalState":{"key":"09","name":"Bayern"}},{"name":"Jakob-Endl-Str.","postalCode":"94032","locality":"Passau","municipality":{"key":"09262000","name":"Passau","type":"Kreisfreie_Stadt"},"district":{"key":"09262","name":"Passau","type":"Kreisfreie_Stadt"},"federalState":{"key":"09","name":"Bayern"}},{"name":"Jausengütlweg","postalCode":"94034","locality":"Passau","municipality":{"key":"09262000","name":"Passau","type":"Kreisfreie_Stadt"},"district":{"key":"09262","name":"Passau","type":"Kreisfreie_Stadt"},"federalState":{"key":"09","name":"Bayern"}},{"name":"Jesuitengasse","postalCode":"94032","locality":"Passau","municipality":{"key":"09262000","name":"Passau","type":"Kreisfreie_Stadt"},"district":{"key":"09262","name":"Passau","type":"Kreisfreie_Stadt"},"federalState":{"key":"09","name":"Bayern"}},{"name":"Johann-Bergler-Str.","postalCode":"94032","locality":"Passau","municipality":{"key":"09262000","name":"Passau","type":"Kreisfreie_Stadt"},"district":{"key":"09262","name":"Passau","type":"Kreisfreie_Stadt"},"federalState":{"key":"09","name":"Bayern"}},{"name":"Johann-Huber-Str.","postalCode":"94032","locality":"Passau","municipality":{"key":"09262000","name":"Passau","type":"Kreisfreie_Stadt"},"district":{"key":"09262","name":"Passau","type":"Kreisfreie_Stadt"},"federalState":{"key":"09","name":"Bayern"}},{"name":"Johann-Nepomuk-Str.","postalCode":"94034","locality":"Passau","municipality":{"key":"09262000","name":"Passau","type":"Kreisfreie_Stadt"},"district":{"key":"09262","name":"Passau","type":"Kreisfreie_Stadt"},"federalState":{"key":"09","name":"Bayern"}},{"name":"Johann-Riederer-Str.","postalCode":"94036","locality":"Passau","municipality":{"key":"09262000","name":"Passau","type":"Kreisfreie_Stadt"},"district":{"key":"09262","name":"Passau","type":"Kreisfreie_Stadt"},"federalState":{"key":"09","name":"Bayern"}},{"name":"Josef-Großwald-Weg","postalCode":"94036","locality":"Passau","municipality":{"key":"09262000","name":"Passau","type":"Kreisfreie_Stadt"},"district":{"key":"09262","name":"Passau","type":"Kreisfreie_Stadt"},"federalState":{"key":"09","name":"Bayern"}},{"name":"Josef-Oswald-Str.","postalCode":"94036","locality":"Passau","municipality":{"key":"09262000","name":"Passau","type":"Kreisfreie_Stadt"},"district":{"key":"09262","name":"Passau","type":"Kreisfreie_Stadt"},"federalState":{"key":"09","name":"Bayern"}},{"name":"Josef-Poeltl-Weg","postalCode":"94034","locality":"Passau","municipality":{"key":"09262000","name":"Passau","type":"Kreisfreie_Stadt"},"district":{"key":"09262","name":"Passau","type":"Kreisfreie_Stadt"},"federalState":{"key":"09","name":"Bayern"}},{"name":"Josef-Pöltl-Weg","postalCode":"94034","locality":"Passau","municipality":{"key":"09262000","name":"Passau","type":"Kreisfreie_Stadt"},"district":{"key":"09262","name":"Passau","type":"Kreisfreie_Stadt"},"federalState":{"key":"09","name":"Bayern"}},{"name":"Josef-Wenzl-Str.","postalCode":"94034","locality":"Passau","municipality":{"key":"09262000","name":"Passau","type":"Kreisfreie_Stadt"},"district":{"key":"09262","name":"Passau","type":"Kreisfreie_Stadt"},"federalState":{"key":"09","name":"Bayern"}},{"name":"Joseph-Haydn-Str.","postalCode":"94032","locality":"Passau","municipality":{"key":"09262000","name":"Passau","type":"Kreisfreie_Stadt"},"district":{"key":"09262","name":"Passau","type":"Kreisfreie_Stadt"},"federalState":{"key":"09","name":"Bayern"}},{"name":"Kirchenweg","postalCode":"94148","locality":"Kirchham","municipality":{"key":"09275130","name":"Kirchham","type":"Kreisangehörige_Gemeinde"},"district":{"key":"09275","name":"Passau","type":"Landkreis"},"federalState":{"key":"09","name":"Bayern"}},{"name":"Kirchhammer Str.","postalCode":"94148","locality":"Kirchham","municipality":{"key":"09275130","name":"Kirchham","type":"Kreisangehörige_Gemeinde"},"district":{"key":"09275","name":"Passau","type":"Landkreis"},"federalState":{"key":"09","name":"Bayern"}},{"name":"Kirchplatz","postalCode":"94148","locality":"Kirchham","municipality":{"key":"09275130","name":"Kirchham","type":"Kreisangehörige_Gemeinde"},"district":{"key":"09275","name":"Passau","type":"Landkreis"},"federalState":{"key":"09","name":"Bayern"}},{"name":"Kirschbreitenweg","postalCode":"94148","locality":"Kirchham","municipality":{"key":"09275130","name":"Kirchham","type":"Kreisangehörige_Gemeinde"},"district":{"key":"09275","name":"Passau","type":"Landkreis"},"federalState":{"key":"09","name":"Bayern"}},{"name":"Kleinfeldstr.","postalCode":"94148","locality":"Kirchham","municipality":{"key":"09275130","name":"Kirchham","type":"Kreisangehörige_Gemeinde"},"district":{"key":"09275","name":"Passau","type":"Landkreis"},"federalState":{"key":"09","name":"Bayern"}},{"name":"Lerchenstr.","postalCode":"94148","locality":"Kirchham","municipality":{"key":"09275130","name":"Kirchham","type":"Kreisangehörige_Gemeinde"},"district":{"key":"09275","name":"Passau","type":"Landkreis"},"federalState":{"key":"09","name":"Bayern"}},{"name":"Lessingstr.","postalCode":"94148","locality":"Kirchham","municipality":{"key":"09275130","name":"Kirchham","type":"Kreisangehörige_Gemeinde"},"district":{"key":"09275","name":"Passau","type":"Landkreis"},"federalState":{"key":"09","name":"Bayern"}},{"name":"Lilienstr.","postalCode":"94148","locality":"Kirchham","municipality":{"key":"09275130","name":"Kirchham","type":"Kreisangehörige_Gemeinde"},"district":{"key":"09275","name":"Passau","type":"Landkreis"},"federalState":{"key":"09","name":"Bayern"}},{"name":"Mozartstr.","postalCode":"94148","locality":"Kirchham","municipality":{"key":"09275130","name":"Kirchham","type":"Kreisangehörige_Gemeinde"},"district":{"key":"09275","name":"Passau","type":"Landkreis"},"federalState":{"key":"09","name":"Bayern"}},{"name":"Nelkenstr.","postalCode":"94148","locality":"Kirchham","municipality":{"key":"09275130","name":"Kirchham","type":"Kreisangehörige_Gemeinde"},"district":{"key":"09275","name":"Passau","type":"Landkreis"},"federalState":{"key":"09","name":"Bayern"}},{"name":"Obere Bachstr.","postalCode":"94148","locality":"Kirchham","municipality":{"key":"09275130","name":"Kirchham","type":"Kreisangehörige_Gemeinde"},"district":{"key":"09275","name":"Passau","type":"Landkreis"},"federalState":{"key":"09","name":"Bayern"}},{"name":"Pfarrer-Biermeier-Str.","postalCode":"94148","locality":"Kirchham","municipality":{"key":"09275130","name":"Kirchham","type":"Kreisangehörige_Gemeinde"},"district":{"key":"09275","name":"Passau","type":"Landkreis"},"federalState":{"key":"09","name":"Bayern"}},{"name":"Pfarrer-Stirner-Str.","postalCode":"94148","locality":"Kirchham","municipality":{"key":"09275130","name":"Kirchham","type":"Kreisangehörige_Gemeinde"},"district":{"key":"09275","name":"Passau","type":"Landkreis"},"federalState":{"key":"09","name":"Bayern"}},{"name":"Quellenweg","postalCode":"94036","locality":"Passau","municipality":{"key":"09262000","name":"Passau","type":"Kreisfreie_Stadt"},"district":{"key":"09262","name":"Passau","type":"Kreisfreie_Stadt"},"federalState":{"key":"09","name":"Bayern"}},{"name":"Rosenweg","postalCode":"94148","locality":"Kirchham","municipality":{"key":"09275130","name":"Kirchham","type":"Kreisangehörige_Gemeinde"},"district":{"key":"09275","name":"Passau","type":"Landkreis"},"federalState":{"key":"09","name":"Bayern"}},{"name":"Schillerstr.","postalCode":"94148","locality":"Kirchham","municipality":{"key":"09275130","name":"Kirchham","type":"Kreisangehörige_Gemeinde"},"district":{"key":"09275","name":"Passau","type":"Landkreis"},"federalState":{"key":"09","name":"Bayern"}},{"name":"Schubertstr.","postalCode":"94148","locality":"Kirchham","municipality":{"key":"09275130","name":"Kirchham","type":"Kreisangehörige_Gemeinde"},"district":{"key":"09275","name":"Passau","type":"Landkreis"},"federalState":{"key":"09","name":"Bayern"}},{"name":"Schwenghammer Str.","postalCode":"94148","locality":"Kirchham","municipality":{"key":"09275130","name":"Kirchham","type":"Kreisangehörige_Gemeinde"},"district":{"key":"09275","name":"Passau","type":"Landkreis"},"federalState":{"key":"09","name":"Bayern"}},{"name":"Simbacher Str.","postalCode":"94148","locality":"Kirchham","municipality":{"key":"09275130","name":"Kirchham","type":"Kreisangehörige_Gemeinde"},"district":{"key":"09275","name":"Passau","type":"Landkreis"},"federalState":{"key":"09","name":"Bayern"}},{"name":"Sonnenweg","postalCode":"94148","locality":"Kirchham","municipality":{"key":"09275130","name":"Kirchham","type":"Kreisangehörige_Gemeinde"},"district":{"key":"09275","name":"Passau","type":"Landkreis"},"federalState":{"key":"09","name":"Bayern"}},{"name":"Straßfeldwweg","postalCode":"94148","locality":"Kirchham","municipality":{"key":"09275130","name":"Kirchham","type":"Kreisangehörige_Gemeinde"},"district":{"key":"09275","name":"Passau","type":"Landkreis"},"federalState":{"key":"09","name":"Bayern"}},{"name":"Tulpenstr.","postalCode":"94148","locality":"Kirchham","municipality":{"key":"09275130","name":"Kirchham","type":"Kreisangehörige_Gemeinde"},"district":{"key":"09275","name":"Passau","type":"Landkreis"},"federalState":{"key":"09","name":"Bayern"}},{"name":"Tuttiner Str.","postalCode":"94148","locality":"Kirchham","municipality":{"key":"09275130","name":"Kirchham","type":"Kreisangehörige_Gemeinde"},"district":{"key":"09275","name":"Passau","type":"Landkreis"},"federalState":{"key":"09","name":"Bayern"}},{"name":"Ulmenweg","postalCode":"94148","locality":"Kirchham","municipality":{"key":"09275130","name":"Kirchham","type":"Kreisangehörige_Gemeinde"},"district":{"key":"09275","name":"Passau","type":"Landkreis"},"federalState":{"key":"09","name":"Bayern"}},{"name":"Untere Bachstr.","postalCode":"94148","locality":"Kirchham","municipality":{"key":"09275130","name":"Kirchham","type":"Kreisangehörige_Gemeinde"},"district":{"key":"09275","name":"Passau","type":"Landkreis"},"federalState":{"key":"09","name":"Bayern"}},{"name":"Valentinweg","postalCode":"94034","locality":"Passau","municipality":{"key":"09262000","name":"Passau","type":"Kreisfreie_Stadt"},"district":{"key":"09262","name":"Passau","type":"Kreisfreie_Stadt"},"federalState":{"key":"09","name":"Bayern"}},{"name":"Verbindungsweg Bramerhof - Stromlänge","postalCode":"94034","locality":"Passau","municipality":{"key":"09262000","name":"Passau","type":"Kreisfreie_Stadt"},"district":{"key":"09262","name":"Passau","type":"Kreisfreie_Stadt"},"federalState":{"key":"09","name":"Bayern"}},{"name":"Verbindungsweg Ilzleite - Bramerhof","postalCode":"94034","locality":"Passau","municipality":{"key":"09262000","name":"Passau","type":"Kreisfreie_Stadt"},"district":{"key":"09262","name":"Passau","type":"Kreisfreie_Stadt"},"federalState":{"key":"09","name":"Bayern"}},{"name":"Vilshofener Str.","postalCode":"94034","locality":"Passau","municipality":{"key":"09262000","name":"Passau","type":"Kreisfreie_Stadt"},"district":{"key":"09262","name":"Passau","type":"Kreisfreie_Stadt"},"federalState":{"key":"09","name":"Bayern"}},{"name":"Vogelweiderstr.","postalCode":"94036","locality":"Passau","municipality":{"key":"09262000","name":"Passau","type":"Kreisfreie_Stadt"},"district":{"key":"09262","name":"Passau","type":"Kreisfreie_Stadt"},"federalState":{"key":"09","name":"Bayern"}},{"name":"Voggenberger Weg","postalCode":"94034","locality":"Passau","municipality":{"key":"09262000","name":"Passau","type":"Kreisfreie_Stadt"},"district":{"key":"09262","name":"Passau","type":"Kreisfreie_Stadt"},"federalState":{"key":"09","name":"Bayern"}},{"name":"Voglau","postalCode":"94032","locality":"Passau","municipality":{"key":"09262000","name":"Passau","type":"Kreisfreie_Stadt"},"district":{"key":"09262","name":"Passau","type":"Kreisfreie_Stadt"},"federalState":{"key":"09","name":"Bayern"}},{"name":"Von-Kramer-Str.","postalCode":"94034","locality":"Passau","municipality":{"key":"09262000","name":"Passau","type":"Kreisfreie_Stadt"},"district":{"key":"09262","name":"Passau","type":"Kreisfreie_Stadt"},"federalState":{"key":"09","name":"Bayern"}},{"name":"Von-Rudhart-Str.","postalCode":"94032","locality":"Passau","municipality":{"key":"09262000","name":"Passau","type":"Kreisfreie_Stadt"},"district":{"key":"09262","name":"Passau","type":"Kreisfreie_Stadt"},"federalState":{"key":"09","name":"Bayern"}},{"name":"Vornholzstr.","postalCode":"94036","locality":"Passau","municipality":{"key":"09262000","name":"Passau","type":"Kreisfreie_Stadt"},"district":{"key":"09262","name":"Passau","type":"Kreisfreie_Stadt"},"federalState":{"key":"09","name":"Bayern"}},{"name":"Winklmanngasse","postalCode":"94148","locality":"Kirchham","municipality":{"key":"09275130","name":"Kirchham","type":"Kreisangehörige_Gemeinde"},"district":{"key":"09275","name":"Passau","type":"Landkreis"},"federalState":{"key":"09","name":"Bayern"}},{"name":"Zeilbergweg","postalCode":"94036","locality":"Passau","municipality":{"key":"09262000","name":"Passau","type":"Kreisfreie_Stadt"},"district":{"key":"09262","name":"Passau","type":"Kreisfreie_Stadt"},"federalState":{"key":"09","name":"Bayern"}},{"name":"Zengergasse","postalCode":"94032","locality":"Passau","municipality":{"key":"09262000","name":"Passau","type":"Kreisfreie_Stadt"},"district":{"key":"09262","name":"Passau","type":"Kreisfreie_Stadt"},"federalState":{"key":"09","name":"Bayern"}},{"name":"Zieglreuth","postalCode":"94034","locality":"Passau","municipality":{"key":"09262000","name":"Passau","type":"Kreisfreie_Stadt"},"district":{"key":"09262","name":"Passau","type":"Kreisfreie_Stadt"},"federalState":{"key":"09","name":"Bayern"}},{"name":"Zieglstadl","postalCode":"94034","locality":"Passau","municipality":{"key":"09262000","name":"Passau","type":"Kreisfreie_Stadt"},"district":{"key":"09262","name":"Passau","type":"Kreisfreie_Stadt"},"federalState":{"key":"09","name":"Bayern"}},{"name":"Zinngießergasse","postalCode":"94032","locality":"Passau","municipality":{"key":"09262000","name":"Passau","type":"Kreisfreie_Stadt"},"district":{"key":"09262","name":"Passau","type":"Kreisfreie_Stadt"},"federalState":{"key":"09","name":"Bayern"}},{"name":"Zufahrt St.-Severin-Schule","postalCode":"94034","locality":"Passau","municipality":{"key":"09262000","name":"Passau","type":"Kreisfreie_Stadt"},"district":{"key":"09262","name":"Passau","type":"Kreisfreie_Stadt"},"federalState":{"key":"09","name":"Bayern"}},{"name":"Zugang zur Kirche","postalCode":"94034","locality":"Passau","municipality":{"key":"09262000","name":"Passau","type":"Kreisfreie_Stadt"},"district":{"key":"09262","name":"Passau","type":"Kreisfreie_Stadt"},"federalState":{"key":"09","name":"Bayern"}},{"name":"Zwinger","postalCode":"94032","locality":"Passau","municipality":{"key":"09262000","name":"Passau","type":"Kreisfreie_Stadt"},"district":{"key":"09262","name":"Passau","type":"Kreisfreie_Stadt"},"federalState":{"key":"09","name":"Bayern"}},{"name":"Äußere Spitalhofstr.","postalCode":"94036","locality":"Passau","municipality":{"key":"09262000","name":"Passau","type":"Kreisfreie_Stadt"},"district":{"key":"09262","name":"Passau","type":"Kreisfreie_Stadt"},"federalState":{"key":"09","name":"Bayern"}},]