[{"name":"Altenburgstr.","postalCode":"99986","locality":"Vogtei","municipality":{"key":"16064075","name":"Vogtei","type":"Kreisangehörige_Gemeinde"},"district":{"key":"16064","name":"Unstrut-Hainich-Kreis","type":"Landkreis"},"federalState":{"key":"16","name":"Thüringen"}},{"name":"Am Anger","postalCode":"99986","locality":"Vogtei","municipality":{"key":"16064075","name":"Vogtei","type":"Kreisangehörige_Gemeinde"},"district":{"key":"16064","name":"Unstrut-Hainich-Kreis","type":"Landkreis"},"federalState":{"key":"16","name":"Thüringen"}},{"name":"Am Angerbach","postalCode":"99986","locality":"Vogtei","municipality":{"key":"16064075","name":"Vogtei","type":"Kreisangehörige_Gemeinde"},"district":{"key":"16064","name":"Unstrut-Hainich-Kreis","type":"Landkreis"},"federalState":{"key":"16","name":"Thüringen"}},{"name":"Am Bahnhof","postalCode":"99986","locality":"Vogtei","municipality":{"key":"16064075","name":"Vogtei","type":"Kreisangehörige_Gemeinde"},"district":{"key":"16064","name":"Unstrut-Hainich-Kreis","type":"Landkreis"},"federalState":{"key":"16","name":"Thüringen"}},{"name":"Am Gänseried","postalCode":"99986","locality":"Vogtei","municipality":{"key":"16064075","name":"Vogtei","type":"Kreisangehörige_Gemeinde"},"district":{"key":"16064","name":"Unstrut-Hainich-Kreis","type":"Landkreis"},"federalState":{"key":"16","name":"Thüringen"}},{"name":"Am Georgenborn","postalCode":"99986","locality":"Vogtei","municipality":{"key":"16064075","name":"Vogtei","type":"Kreisangehörige_Gemeinde"},"district":{"key":"16064","name":"Unstrut-Hainich-Kreis","type":"Landkreis"},"federalState":{"key":"16","name":"Thüringen"}},{"name":"Am Heißen Stein","postalCode":"99986","locality":"Vogtei","municipality":{"key":"16064075","name":"Vogtei","type":"Kreisangehörige_Gemeinde"},"district":{"key":"16064","name":"Unstrut-Hainich-Kreis","type":"Landkreis"},"federalState":{"key":"16","name":"Thüringen"}},{"name":"Am Plan","postalCode":"99986","locality":"Vogtei","municipality":{"key":"16064075","name":"Vogtei","type":"Kreisangehörige_Gemeinde"},"district":{"key":"16064","name":"Unstrut-Hainich-Kreis","type":"Landkreis"},"federalState":{"key":"16","name":"Thüringen"}},{"name":"Am Ried","postalCode":"99986","locality":"Vogtei","municipality":{"key":"16064075","name":"Vogtei","type":"Kreisangehörige_Gemeinde"},"district":{"key":"16064","name":"Unstrut-Hainich-Kreis","type":"Landkreis"},"federalState":{"key":"16","name":"Thüringen"}},{"name":"Am Wasser","postalCode":"99986","locality":"Vogtei","municipality":{"key":"16064075","name":"Vogtei","type":"Kreisangehörige_Gemeinde"},"district":{"key":"16064","name":"Unstrut-Hainich-Kreis","type":"Landkreis"},"federalState":{"key":"16","name":"Thüringen"}},{"name":"Am Wassertor","postalCode":"99986","locality":"Vogtei","municipality":{"key":"16064075","name":"Vogtei","type":"Kreisangehörige_Gemeinde"},"district":{"key":"16064","name":"Unstrut-Hainich-Kreis","type":"Landkreis"},"federalState":{"key":"16","name":"Thüringen"}},{"name":"An der Kirche","postalCode":"99986","locality":"Vogtei","municipality":{"key":"16064075","name":"Vogtei","type":"Kreisangehörige_Gemeinde"},"district":{"key":"16064","name":"Unstrut-Hainich-Kreis","type":"Landkreis"},"federalState":{"key":"16","name":"Thüringen"}},{"name":"Antoniusstr.","postalCode":"99986","locality":"Vogtei","municipality":{"key":"16064075","name":"Vogtei","type":"Kreisangehörige_Gemeinde"},"district":{"key":"16064","name":"Unstrut-Hainich-Kreis","type":"Landkreis"},"federalState":{"key":"16","name":"Thüringen"}},{"name":"Antoniusweg","postalCode":"99986","locality":"Vogtei","municipality":{"key":"16064075","name":"Vogtei","type":"Kreisangehörige_Gemeinde"},"district":{"key":"16064","name":"Unstrut-Hainich-Kreis","type":"Landkreis"},"federalState":{"key":"16","name":"Thüringen"}},{"name":"Bahnhofstr.","postalCode":"99986","locality":"Vogtei","municipality":{"key":"16064075","name":"Vogtei","type":"Kreisangehörige_Gemeinde"},"district":{"key":"16064","name":"Unstrut-Hainich-Kreis","type":"Landkreis"},"federalState":{"key":"16","name":"Thüringen"}},{"name":"Bahnhofstr.","postalCode":"99988","locality":"Vogtei","municipality":{"key":"16064075","name":"Vogtei","type":"Kreisangehörige_Gemeinde"},"district":{"key":"16064","name":"Unstrut-Hainich-Kreis","type":"Landkreis"},"federalState":{"key":"16","name":"Thüringen"}},{"name":"Bangsstr.","postalCode":"99986","locality":"Vogtei","municipality":{"key":"16064075","name":"Vogtei","type":"Kreisangehörige_Gemeinde"},"district":{"key":"16064","name":"Unstrut-Hainich-Kreis","type":"Landkreis"},"federalState":{"key":"16","name":"Thüringen"}},{"name":"Bergstr.","postalCode":"99986","locality":"Vogtei","municipality":{"key":"16064075","name":"Vogtei","type":"Kreisangehörige_Gemeinde"},"district":{"key":"16064","name":"Unstrut-Hainich-Kreis","type":"Landkreis"},"federalState":{"key":"16","name":"Thüringen"}},{"name":"Birkenweg","postalCode":"99986","locality":"Vogtei","municipality":{"key":"16064075","name":"Vogtei","type":"Kreisangehörige_Gemeinde"},"district":{"key":"16064","name":"Unstrut-Hainich-Kreis","type":"Landkreis"},"federalState":{"key":"16","name":"Thüringen"}},{"name":"Bornsgasse","postalCode":"99986","locality":"Vogtei","municipality":{"key":"16064075","name":"Vogtei","type":"Kreisangehörige_Gemeinde"},"district":{"key":"16064","name":"Unstrut-Hainich-Kreis","type":"Landkreis"},"federalState":{"key":"16","name":"Thüringen"}},{"name":"Brauhausstr.","postalCode":"99986","locality":"Vogtei","municipality":{"key":"16064075","name":"Vogtei","type":"Kreisangehörige_Gemeinde"},"district":{"key":"16064","name":"Unstrut-Hainich-Kreis","type":"Landkreis"},"federalState":{"key":"16","name":"Thüringen"}},{"name":"Brunnenstr.","postalCode":"99986","locality":"Vogtei","municipality":{"key":"16064075","name":"Vogtei","type":"Kreisangehörige_Gemeinde"},"district":{"key":"16064","name":"Unstrut-Hainich-Kreis","type":"Landkreis"},"federalState":{"key":"16","name":"Thüringen"}},{"name":"Burg","postalCode":"99986","locality":"Vogtei","municipality":{"key":"16064075","name":"Vogtei","type":"Kreisangehörige_Gemeinde"},"district":{"key":"16064","name":"Unstrut-Hainich-Kreis","type":"Landkreis"},"federalState":{"key":"16","name":"Thüringen"}},{"name":"Burgstr.","postalCode":"99986","locality":"Vogtei","municipality":{"key":"16064075","name":"Vogtei","type":"Kreisangehörige_Gemeinde"},"district":{"key":"16064","name":"Unstrut-Hainich-Kreis","type":"Landkreis"},"federalState":{"key":"16","name":"Thüringen"}},{"name":"Dorfanger","postalCode":"99986","locality":"Vogtei","municipality":{"key":"16064075","name":"Vogtei","type":"Kreisangehörige_Gemeinde"},"district":{"key":"16064","name":"Unstrut-Hainich-Kreis","type":"Landkreis"},"federalState":{"key":"16","name":"Thüringen"}},{"name":"Dorfanger Oberdorla","postalCode":"99986","locality":"Vogtei","municipality":{"key":"16064075","name":"Vogtei","type":"Kreisangehörige_Gemeinde"},"district":{"key":"16064","name":"Unstrut-Hainich-Kreis","type":"Landkreis"},"federalState":{"key":"16","name":"Thüringen"}},{"name":"Eichelsgasse","postalCode":"99986","locality":"Vogtei","municipality":{"key":"16064075","name":"Vogtei","type":"Kreisangehörige_Gemeinde"},"district":{"key":"16064","name":"Unstrut-Hainich-Kreis","type":"Landkreis"},"federalState":{"key":"16","name":"Thüringen"}},{"name":"Eisenacher Landstr.","postalCode":"99986","locality":"Vogtei","municipality":{"key":"16064075","name":"Vogtei","type":"Kreisangehörige_Gemeinde"},"district":{"key":"16064","name":"Unstrut-Hainich-Kreis","type":"Landkreis"},"federalState":{"key":"16","name":"Thüringen"}},{"name":"Eisenacher Str.","postalCode":"99986","locality":"Vogtei","municipality":{"key":"16064075","name":"Vogtei","type":"Kreisangehörige_Gemeinde"},"district":{"key":"16064","name":"Unstrut-Hainich-Kreis","type":"Landkreis"},"federalState":{"key":"16","name":"Thüringen"}},{"name":"Enggasse","postalCode":"99986","locality":"Vogtei","municipality":{"key":"16064075","name":"Vogtei","type":"Kreisangehörige_Gemeinde"},"district":{"key":"16064","name":"Unstrut-Hainich-Kreis","type":"Landkreis"},"federalState":{"key":"16","name":"Thüringen"}},{"name":"Feldstr.","postalCode":"99986","locality":"Vogtei","municipality":{"key":"16064075","name":"Vogtei","type":"Kreisangehörige_Gemeinde"},"district":{"key":"16064","name":"Unstrut-Hainich-Kreis","type":"Landkreis"},"federalState":{"key":"16","name":"Thüringen"}},{"name":"Fickentor","postalCode":"99986","locality":"Vogtei","municipality":{"key":"16064075","name":"Vogtei","type":"Kreisangehörige_Gemeinde"},"district":{"key":"16064","name":"Unstrut-Hainich-Kreis","type":"Landkreis"},"federalState":{"key":"16","name":"Thüringen"}},{"name":"Finstertal","postalCode":"99986","locality":"Vogtei","municipality":{"key":"16064075","name":"Vogtei","type":"Kreisangehörige_Gemeinde"},"district":{"key":"16064","name":"Unstrut-Hainich-Kreis","type":"Landkreis"},"federalState":{"key":"16","name":"Thüringen"}},{"name":"Friedhofstr.","postalCode":"99986","locality":"Vogtei","municipality":{"key":"16064075","name":"Vogtei","type":"Kreisangehörige_Gemeinde"},"district":{"key":"16064","name":"Unstrut-Hainich-Kreis","type":"Landkreis"},"federalState":{"key":"16","name":"Thüringen"}},{"name":"Gartenstr.","postalCode":"99986","locality":"Vogtei","municipality":{"key":"16064075","name":"Vogtei","type":"Kreisangehörige_Gemeinde"},"district":{"key":"16064","name":"Unstrut-Hainich-Kreis","type":"Landkreis"},"federalState":{"key":"16","name":"Thüringen"}},{"name":"Grundmühle","postalCode":"99986","locality":"Vogtei","municipality":{"key":"16064075","name":"Vogtei","type":"Kreisangehörige_Gemeinde"},"district":{"key":"16064","name":"Unstrut-Hainich-Kreis","type":"Landkreis"},"federalState":{"key":"16","name":"Thüringen"}},{"name":"Grundmühlenweg","postalCode":"99986","locality":"Vogtei","municipality":{"key":"16064075","name":"Vogtei","type":"Kreisangehörige_Gemeinde"},"district":{"key":"16064","name":"Unstrut-Hainich-Kreis","type":"Landkreis"},"federalState":{"key":"16","name":"Thüringen"}},{"name":"Habichtstal","postalCode":"99986","locality":"Vogtei","municipality":{"key":"16064075","name":"Vogtei","type":"Kreisangehörige_Gemeinde"},"district":{"key":"16064","name":"Unstrut-Hainich-Kreis","type":"Landkreis"},"federalState":{"key":"16","name":"Thüringen"}},{"name":"Hainichstr.","postalCode":"99986","locality":"Vogtei","municipality":{"key":"16064075","name":"Vogtei","type":"Kreisangehörige_Gemeinde"},"district":{"key":"16064","name":"Unstrut-Hainich-Kreis","type":"Landkreis"},"federalState":{"key":"16","name":"Thüringen"}},{"name":"Hainkuppenweg","postalCode":"99986","locality":"Vogtei","municipality":{"key":"16064075","name":"Vogtei","type":"Kreisangehörige_Gemeinde"},"district":{"key":"16064","name":"Unstrut-Hainich-Kreis","type":"Landkreis"},"federalState":{"key":"16","name":"Thüringen"}},{"name":"Hauptstr.","postalCode":"99986","locality":"Vogtei","municipality":{"key":"16064075","name":"Vogtei","type":"Kreisangehörige_Gemeinde"},"district":{"key":"16064","name":"Unstrut-Hainich-Kreis","type":"Landkreis"},"federalState":{"key":"16","name":"Thüringen"}},{"name":"Heiligenhof","postalCode":"99986","locality":"Vogtei","municipality":{"key":"16064075","name":"Vogtei","type":"Kreisangehörige_Gemeinde"},"district":{"key":"16064","name":"Unstrut-Hainich-Kreis","type":"Landkreis"},"federalState":{"key":"16","name":"Thüringen"}},{"name":"Heimstättenweg","postalCode":"99986","locality":"Vogtei","municipality":{"key":"16064075","name":"Vogtei","type":"Kreisangehörige_Gemeinde"},"district":{"key":"16064","name":"Unstrut-Hainich-Kreis","type":"Landkreis"},"federalState":{"key":"16","name":"Thüringen"}},{"name":"Heinrich-Erdmann-Str.","postalCode":"99986","locality":"Vogtei","municipality":{"key":"16064075","name":"Vogtei","type":"Kreisangehörige_Gemeinde"},"district":{"key":"16064","name":"Unstrut-Hainich-Kreis","type":"Landkreis"},"federalState":{"key":"16","name":"Thüringen"}},{"name":"Herrenstr.","postalCode":"99986","locality":"Vogtei","municipality":{"key":"16064075","name":"Vogtei","type":"Kreisangehörige_Gemeinde"},"district":{"key":"16064","name":"Unstrut-Hainich-Kreis","type":"Landkreis"},"federalState":{"key":"16","name":"Thüringen"}},{"name":"Herzengasse","postalCode":"99986","locality":"Vogtei","municipality":{"key":"16064075","name":"Vogtei","type":"Kreisangehörige_Gemeinde"},"district":{"key":"16064","name":"Unstrut-Hainich-Kreis","type":"Landkreis"},"federalState":{"key":"16","name":"Thüringen"}},{"name":"Heyeröder Str.","postalCode":"99986","locality":"Vogtei","municipality":{"key":"16064075","name":"Vogtei","type":"Kreisangehörige_Gemeinde"},"district":{"key":"16064","name":"Unstrut-Hainich-Kreis","type":"Landkreis"},"federalState":{"key":"16","name":"Thüringen"}},{"name":"Hintergasse","postalCode":"99986","locality":"Vogtei","municipality":{"key":"16064075","name":"Vogtei","type":"Kreisangehörige_Gemeinde"},"district":{"key":"16064","name":"Unstrut-Hainich-Kreis","type":"Landkreis"},"federalState":{"key":"16","name":"Thüringen"}},{"name":"Hinterm Jakobsdorf","postalCode":"99986","locality":"Vogtei","municipality":{"key":"16064075","name":"Vogtei","type":"Kreisangehörige_Gemeinde"},"district":{"key":"16064","name":"Unstrut-Hainich-Kreis","type":"Landkreis"},"federalState":{"key":"16","name":"Thüringen"}},{"name":"Hinterm Mühldorf","postalCode":"99986","locality":"Vogtei","municipality":{"key":"16064075","name":"Vogtei","type":"Kreisangehörige_Gemeinde"},"district":{"key":"16064","name":"Unstrut-Hainich-Kreis","type":"Landkreis"},"federalState":{"key":"16","name":"Thüringen"}},{"name":"Holzgasse","postalCode":"99986","locality":"Vogtei","municipality":{"key":"16064075","name":"Vogtei","type":"Kreisangehörige_Gemeinde"},"district":{"key":"16064","name":"Unstrut-Hainich-Kreis","type":"Landkreis"},"federalState":{"key":"16","name":"Thüringen"}},{"name":"Holzstr.","postalCode":"99986","locality":"Vogtei","municipality":{"key":"16064075","name":"Vogtei","type":"Kreisangehörige_Gemeinde"},"district":{"key":"16064","name":"Unstrut-Hainich-Kreis","type":"Landkreis"},"federalState":{"key":"16","name":"Thüringen"}},{"name":"Höngedaer Weg","postalCode":"99986","locality":"Vogtei","municipality":{"key":"16064075","name":"Vogtei","type":"Kreisangehörige_Gemeinde"},"district":{"key":"16064","name":"Unstrut-Hainich-Kreis","type":"Landkreis"},"federalState":{"key":"16","name":"Thüringen"}},{"name":"Hopfengasse","postalCode":"99986","locality":"Vogtei","municipality":{"key":"16064075","name":"Vogtei","type":"Kreisangehörige_Gemeinde"},"district":{"key":"16064","name":"Unstrut-Hainich-Kreis","type":"Landkreis"},"federalState":{"key":"16","name":"Thüringen"}},{"name":"Hundsbühl","postalCode":"99986","locality":"Vogtei","municipality":{"key":"16064075","name":"Vogtei","type":"Kreisangehörige_Gemeinde"},"district":{"key":"16064","name":"Unstrut-Hainich-Kreis","type":"Landkreis"},"federalState":{"key":"16","name":"Thüringen"}},{"name":"Im Kober","postalCode":"99986","locality":"Vogtei","municipality":{"key":"16064075","name":"Vogtei","type":"Kreisangehörige_Gemeinde"},"district":{"key":"16064","name":"Unstrut-Hainich-Kreis","type":"Landkreis"},"federalState":{"key":"16","name":"Thüringen"}},{"name":"Jakobstr.","postalCode":"99986","locality":"Vogtei","municipality":{"key":"16064075","name":"Vogtei","type":"Kreisangehörige_Gemeinde"},"district":{"key":"16064","name":"Unstrut-Hainich-Kreis","type":"Landkreis"},"federalState":{"key":"16","name":"Thüringen"}},{"name":"Kammerforster Str.","postalCode":"99986","locality":"Vogtei","municipality":{"key":"16064075","name":"Vogtei","type":"Kreisangehörige_Gemeinde"},"district":{"key":"16064","name":"Unstrut-Hainich-Kreis","type":"Landkreis"},"federalState":{"key":"16","name":"Thüringen"}},{"name":"Kettengasse","postalCode":"99986","locality":"Vogtei","municipality":{"key":"16064075","name":"Vogtei","type":"Kreisangehörige_Gemeinde"},"district":{"key":"16064","name":"Unstrut-Hainich-Kreis","type":"Landkreis"},"federalState":{"key":"16","name":"Thüringen"}},{"name":"Konrad-Lange-Str.","postalCode":"99986","locality":"Vogtei","municipality":{"key":"16064075","name":"Vogtei","type":"Kreisangehörige_Gemeinde"},"district":{"key":"16064","name":"Unstrut-Hainich-Kreis","type":"Landkreis"},"federalState":{"key":"16","name":"Thüringen"}},{"name":"Kornweg","postalCode":"99986","locality":"Vogtei","municipality":{"key":"16064075","name":"Vogtei","type":"Kreisangehörige_Gemeinde"},"district":{"key":"16064","name":"Unstrut-Hainich-Kreis","type":"Landkreis"},"federalState":{"key":"16","name":"Thüringen"}},{"name":"Kreuzgasse","postalCode":"99986","locality":"Vogtei","municipality":{"key":"16064075","name":"Vogtei","type":"Kreisangehörige_Gemeinde"},"district":{"key":"16064","name":"Unstrut-Hainich-Kreis","type":"Landkreis"},"federalState":{"key":"16","name":"Thüringen"}},{"name":"Kreuzstr.","postalCode":"99986","locality":"Vogtei","municipality":{"key":"16064075","name":"Vogtei","type":"Kreisangehörige_Gemeinde"},"district":{"key":"16064","name":"Unstrut-Hainich-Kreis","type":"Landkreis"},"federalState":{"key":"16","name":"Thüringen"}},{"name":"Langulaer Str.","postalCode":"99986","locality":"Vogtei","municipality":{"key":"16064075","name":"Vogtei","type":"Kreisangehörige_Gemeinde"},"district":{"key":"16064","name":"Unstrut-Hainich-Kreis","type":"Landkreis"},"federalState":{"key":"16","name":"Thüringen"}},{"name":"Langulaer Tal","postalCode":"99986","locality":"Vogtei","municipality":{"key":"16064075","name":"Vogtei","type":"Kreisangehörige_Gemeinde"},"district":{"key":"16064","name":"Unstrut-Hainich-Kreis","type":"Landkreis"},"federalState":{"key":"16","name":"Thüringen"}},{"name":"Lutherhain","postalCode":"99986","locality":"Vogtei","municipality":{"key":"16064075","name":"Vogtei","type":"Kreisangehörige_Gemeinde"},"district":{"key":"16064","name":"Unstrut-Hainich-Kreis","type":"Landkreis"},"federalState":{"key":"16","name":"Thüringen"}},{"name":"Mahllindenweg","postalCode":"99986","locality":"Vogtei","municipality":{"key":"16064075","name":"Vogtei","type":"Kreisangehörige_Gemeinde"},"district":{"key":"16064","name":"Unstrut-Hainich-Kreis","type":"Landkreis"},"federalState":{"key":"16","name":"Thüringen"}},{"name":"Marktstr.","postalCode":"99986","locality":"Vogtei","municipality":{"key":"16064075","name":"Vogtei","type":"Kreisangehörige_Gemeinde"},"district":{"key":"16064","name":"Unstrut-Hainich-Kreis","type":"Landkreis"},"federalState":{"key":"16","name":"Thüringen"}},{"name":"Marktweg","postalCode":"99986","locality":"Vogtei","municipality":{"key":"16064075","name":"Vogtei","type":"Kreisangehörige_Gemeinde"},"district":{"key":"16064","name":"Unstrut-Hainich-Kreis","type":"Landkreis"},"federalState":{"key":"16","name":"Thüringen"}},{"name":"Marthliesen-Brücke","postalCode":"99986","locality":"Vogtei","municipality":{"key":"16064075","name":"Vogtei","type":"Kreisangehörige_Gemeinde"},"district":{"key":"16064","name":"Unstrut-Hainich-Kreis","type":"Landkreis"},"federalState":{"key":"16","name":"Thüringen"}},{"name":"Marthliesenweg","postalCode":"99986","locality":"Vogtei","municipality":{"key":"16064075","name":"Vogtei","type":"Kreisangehörige_Gemeinde"},"district":{"key":"16064","name":"Unstrut-Hainich-Kreis","type":"Landkreis"},"federalState":{"key":"16","name":"Thüringen"}},{"name":"Metzlochweg","postalCode":"99986","locality":"Vogtei","municipality":{"key":"16064075","name":"Vogtei","type":"Kreisangehörige_Gemeinde"},"district":{"key":"16064","name":"Unstrut-Hainich-Kreis","type":"Landkreis"},"federalState":{"key":"16","name":"Thüringen"}},{"name":"Mittelpunkt Deutschlands","postalCode":"99986","locality":"Vogtei","municipality":{"key":"16064075","name":"Vogtei","type":"Kreisangehörige_Gemeinde"},"district":{"key":"16064","name":"Unstrut-Hainich-Kreis","type":"Landkreis"},"federalState":{"key":"16","name":"Thüringen"}},{"name":"Mühlhäuser Str.","postalCode":"99986","locality":"Vogtei","municipality":{"key":"16064075","name":"Vogtei","type":"Kreisangehörige_Gemeinde"},"district":{"key":"16064","name":"Unstrut-Hainich-Kreis","type":"Landkreis"},"federalState":{"key":"16","name":"Thüringen"}},{"name":"Mühltor","postalCode":"99986","locality":"Vogtei","municipality":{"key":"16064075","name":"Vogtei","type":"Kreisangehörige_Gemeinde"},"district":{"key":"16064","name":"Unstrut-Hainich-Kreis","type":"Landkreis"},"federalState":{"key":"16","name":"Thüringen"}},{"name":"Neue Gasse","postalCode":"99986","locality":"Vogtei","municipality":{"key":"16064075","name":"Vogtei","type":"Kreisangehörige_Gemeinde"},"district":{"key":"16064","name":"Unstrut-Hainich-Kreis","type":"Landkreis"},"federalState":{"key":"16","name":"Thüringen"}},{"name":"Neue Riedstr.","postalCode":"99986","locality":"Vogtei","municipality":{"key":"16064075","name":"Vogtei","type":"Kreisangehörige_Gemeinde"},"district":{"key":"16064","name":"Unstrut-Hainich-Kreis","type":"Landkreis"},"federalState":{"key":"16","name":"Thüringen"}},{"name":"Neuer Weg","postalCode":"99986","locality":"Vogtei","municipality":{"key":"16064075","name":"Vogtei","type":"Kreisangehörige_Gemeinde"},"district":{"key":"16064","name":"Unstrut-Hainich-Kreis","type":"Landkreis"},"federalState":{"key":"16","name":"Thüringen"}},{"name":"Neue Str.","postalCode":"99986","locality":"Vogtei","municipality":{"key":"16064075","name":"Vogtei","type":"Kreisangehörige_Gemeinde"},"district":{"key":"16064","name":"Unstrut-Hainich-Kreis","type":"Landkreis"},"federalState":{"key":"16","name":"Thüringen"}},{"name":"Oberdorlaer Str.","postalCode":"99986","locality":"Vogtei","municipality":{"key":"16064075","name":"Vogtei","type":"Kreisangehörige_Gemeinde"},"district":{"key":"16064","name":"Unstrut-Hainich-Kreis","type":"Landkreis"},"federalState":{"key":"16","name":"Thüringen"}},{"name":"Oberried","postalCode":"99986","locality":"Vogtei","municipality":{"key":"16064075","name":"Vogtei","type":"Kreisangehörige_Gemeinde"},"district":{"key":"16064","name":"Unstrut-Hainich-Kreis","type":"Landkreis"},"federalState":{"key":"16","name":"Thüringen"}},{"name":"Oppershäuser Str.","postalCode":"99986","locality":"Vogtei","municipality":{"key":"16064075","name":"Vogtei","type":"Kreisangehörige_Gemeinde"},"district":{"key":"16064","name":"Unstrut-Hainich-Kreis","type":"Landkreis"},"federalState":{"key":"16","name":"Thüringen"}},{"name":"Oststr.","postalCode":"99986","locality":"Vogtei","municipality":{"key":"16064075","name":"Vogtei","type":"Kreisangehörige_Gemeinde"},"district":{"key":"16064","name":"Unstrut-Hainich-Kreis","type":"Landkreis"},"federalState":{"key":"16","name":"Thüringen"}},{"name":"Pfarrstr.","postalCode":"99986","locality":"Vogtei","municipality":{"key":"16064075","name":"Vogtei","type":"Kreisangehörige_Gemeinde"},"district":{"key":"16064","name":"Unstrut-Hainich-Kreis","type":"Landkreis"},"federalState":{"key":"16","name":"Thüringen"}},{"name":"Progasse","postalCode":"99986","locality":"Vogtei","municipality":{"key":"16064075","name":"Vogtei","type":"Kreisangehörige_Gemeinde"},"district":{"key":"16064","name":"Unstrut-Hainich-Kreis","type":"Landkreis"},"federalState":{"key":"16","name":"Thüringen"}},{"name":"Rennstieg","postalCode":"99986","locality":"Vogtei","municipality":{"key":"16064075","name":"Vogtei","type":"Kreisangehörige_Gemeinde"},"district":{"key":"16064","name":"Unstrut-Hainich-Kreis","type":"Landkreis"},"federalState":{"key":"16","name":"Thüringen"}},{"name":"Riedhofstr.","postalCode":"99986","locality":"Vogtei","municipality":{"key":"16064075","name":"Vogtei","type":"Kreisangehörige_Gemeinde"},"district":{"key":"16064","name":"Unstrut-Hainich-Kreis","type":"Landkreis"},"federalState":{"key":"16","name":"Thüringen"}},{"name":"Rosenweg","postalCode":"99986","locality":"Vogtei","municipality":{"key":"16064075","name":"Vogtei","type":"Kreisangehörige_Gemeinde"},"district":{"key":"16064","name":"Unstrut-Hainich-Kreis","type":"Landkreis"},"federalState":{"key":"16","name":"Thüringen"}},{"name":"Rotheweg","postalCode":"99986","locality":"Vogtei","municipality":{"key":"16064075","name":"Vogtei","type":"Kreisangehörige_Gemeinde"},"district":{"key":"16064","name":"Unstrut-Hainich-Kreis","type":"Landkreis"},"federalState":{"key":"16","name":"Thüringen"}},{"name":"Rumpfstr.","postalCode":"99986","locality":"Vogtei","municipality":{"key":"16064075","name":"Vogtei","type":"Kreisangehörige_Gemeinde"},"district":{"key":"16064","name":"Unstrut-Hainich-Kreis","type":"Landkreis"},"federalState":{"key":"16","name":"Thüringen"}},{"name":"Schafgasse","postalCode":"99986","locality":"Vogtei","municipality":{"key":"16064075","name":"Vogtei","type":"Kreisangehörige_Gemeinde"},"district":{"key":"16064","name":"Unstrut-Hainich-Kreis","type":"Landkreis"},"federalState":{"key":"16","name":"Thüringen"}},{"name":"Schleifweg","postalCode":"99986","locality":"Vogtei","municipality":{"key":"16064075","name":"Vogtei","type":"Kreisangehörige_Gemeinde"},"district":{"key":"16064","name":"Unstrut-Hainich-Kreis","type":"Landkreis"},"federalState":{"key":"16","name":"Thüringen"}},{"name":"Schmelze","postalCode":"99986","locality":"Vogtei","municipality":{"key":"16064075","name":"Vogtei","type":"Kreisangehörige_Gemeinde"},"district":{"key":"16064","name":"Unstrut-Hainich-Kreis","type":"Landkreis"},"federalState":{"key":"16","name":"Thüringen"}},{"name":"Schulstr.","postalCode":"99986","locality":"Vogtei","municipality":{"key":"16064075","name":"Vogtei","type":"Kreisangehörige_Gemeinde"},"district":{"key":"16064","name":"Unstrut-Hainich-Kreis","type":"Landkreis"},"federalState":{"key":"16","name":"Thüringen"}},{"name":"Seebacher Weg","postalCode":"99986","locality":"Vogtei","municipality":{"key":"16064075","name":"Vogtei","type":"Kreisangehörige_Gemeinde"},"district":{"key":"16064","name":"Unstrut-Hainich-Kreis","type":"Landkreis"},"federalState":{"key":"16","name":"Thüringen"}},{"name":"Seitengasse","postalCode":"99986","locality":"Vogtei","municipality":{"key":"16064075","name":"Vogtei","type":"Kreisangehörige_Gemeinde"},"district":{"key":"16064","name":"Unstrut-Hainich-Kreis","type":"Landkreis"},"federalState":{"key":"16","name":"Thüringen"}},{"name":"Sperlingsberg","postalCode":"99986","locality":"Vogtei","municipality":{"key":"16064075","name":"Vogtei","type":"Kreisangehörige_Gemeinde"},"district":{"key":"16064","name":"Unstrut-Hainich-Kreis","type":"Landkreis"},"federalState":{"key":"16","name":"Thüringen"}},{"name":"Sperlingsstr.","postalCode":"99986","locality":"Vogtei","municipality":{"key":"16064075","name":"Vogtei","type":"Kreisangehörige_Gemeinde"},"district":{"key":"16064","name":"Unstrut-Hainich-Kreis","type":"Landkreis"},"federalState":{"key":"16","name":"Thüringen"}},{"name":"Steinbühl","postalCode":"99986","locality":"Vogtei","municipality":{"key":"16064075","name":"Vogtei","type":"Kreisangehörige_Gemeinde"},"district":{"key":"16064","name":"Unstrut-Hainich-Kreis","type":"Landkreis"},"federalState":{"key":"16","name":"Thüringen"}},{"name":"Steinstr.","postalCode":"99986","locality":"Vogtei","municipality":{"key":"16064075","name":"Vogtei","type":"Kreisangehörige_Gemeinde"},"district":{"key":"16064","name":"Unstrut-Hainich-Kreis","type":"Landkreis"},"federalState":{"key":"16","name":"Thüringen"}},{"name":"Str. zum Mittelpunkt Deutschlands","postalCode":"99986","locality":"Vogtei","municipality":{"key":"16064075","name":"Vogtei","type":"Kreisangehörige_Gemeinde"},"district":{"key":"16064","name":"Unstrut-Hainich-Kreis","type":"Landkreis"},"federalState":{"key":"16","name":"Thüringen"}},{"name":"Tränkgasse","postalCode":"99986","locality":"Vogtei","municipality":{"key":"16064075","name":"Vogtei","type":"Kreisangehörige_Gemeinde"},"district":{"key":"16064","name":"Unstrut-Hainich-Kreis","type":"Landkreis"},"federalState":{"key":"16","name":"Thüringen"}},{"name":"Trockne Ludenborn","postalCode":"99986","locality":"Vogtei","municipality":{"key":"16064075","name":"Vogtei","type":"Kreisangehörige_Gemeinde"},"district":{"key":"16064","name":"Unstrut-Hainich-Kreis","type":"Landkreis"},"federalState":{"key":"16","name":"Thüringen"}},{"name":"Unterried","postalCode":"99986","locality":"Vogtei","municipality":{"key":"16064075","name":"Vogtei","type":"Kreisangehörige_Gemeinde"},"district":{"key":"16064","name":"Unstrut-Hainich-Kreis","type":"Landkreis"},"federalState":{"key":"16","name":"Thüringen"}},{"name":"Veilchenweg","postalCode":"99986","locality":"Vogtei","municipality":{"key":"16064075","name":"Vogtei","type":"Kreisangehörige_Gemeinde"},"district":{"key":"16064","name":"Unstrut-Hainich-Kreis","type":"Landkreis"},"federalState":{"key":"16","name":"Thüringen"}},{"name":"Vor der Kreuzhöhle","postalCode":"99986","locality":"Vogtei","municipality":{"key":"16064075","name":"Vogtei","type":"Kreisangehörige_Gemeinde"},"district":{"key":"16064","name":"Unstrut-Hainich-Kreis","type":"Landkreis"},"federalState":{"key":"16","name":"Thüringen"}},{"name":"Wigger Str.","postalCode":"99986","locality":"Vogtei","municipality":{"key":"16064075","name":"Vogtei","type":"Kreisangehörige_Gemeinde"},"district":{"key":"16064","name":"Unstrut-Hainich-Kreis","type":"Landkreis"},"federalState":{"key":"16","name":"Thüringen"}},{"name":"Wilhelmstr.","postalCode":"99986","locality":"Vogtei","municipality":{"key":"16064075","name":"Vogtei","type":"Kreisangehörige_Gemeinde"},"district":{"key":"16064","name":"Unstrut-Hainich-Kreis","type":"Landkreis"},"federalState":{"key":"16","name":"Thüringen"}},{"name":"Wolfental","postalCode":"99986","locality":"Vogtei","municipality":{"key":"16064075","name":"Vogtei","type":"Kreisangehörige_Gemeinde"},"district":{"key":"16064","name":"Unstrut-Hainich-Kreis","type":"Landkreis"},"federalState":{"key":"16","name":"Thüringen"}},{"name":"Ziegelstr.","postalCode":"99986","locality":"Vogtei","municipality":{"key":"16064075","name":"Vogtei","type":"Kreisangehörige_Gemeinde"},"district":{"key":"16064","name":"Unstrut-Hainich-Kreis","type":"Landkreis"},"federalState":{"key":"16","name":"Thüringen"}},]