[{"name":"Adam-Eppler-Str.","postalCode":"97779","locality":"Geroda","municipality":{"key":"09672126","name":"Geroda, M","type":"Markt"},"district":{"key":"09672","name":"Bad Kissingen","type":"Landkreis"},"federalState":{"key":"09","name":"Bayern"}},{"name":"Am Backhaus","postalCode":"97779","locality":"Geroda","municipality":{"key":"09672126","name":"Geroda, M","type":"Markt"},"district":{"key":"09672","name":"Bad Kissingen","type":"Landkreis"},"federalState":{"key":"09","name":"Bayern"}},{"name":"Am Weierich","postalCode":"97779","locality":"Geroda","municipality":{"key":"09672126","name":"Geroda, M","type":"Markt"},"district":{"key":"09672","name":"Bad Kissingen","type":"Landkreis"},"federalState":{"key":"09","name":"Bayern"}},{"name":"Bergstr.","postalCode":"97779","locality":"Geroda","municipality":{"key":"09672126","name":"Geroda, M","type":"Markt"},"district":{"key":"09672","name":"Bad Kissingen","type":"Landkreis"},"federalState":{"key":"09","name":"Bayern"}},{"name":"Boxhecke","postalCode":"97779","locality":"Geroda","municipality":{"key":"09672126","name":"Geroda, M","type":"Markt"},"district":{"key":"09672","name":"Bad Kissingen","type":"Landkreis"},"federalState":{"key":"09","name":"Bayern"}},{"name":"Bucgwaldstr.","postalCode":"97779","locality":"Geroda","municipality":{"key":"09672126","name":"Geroda, M","type":"Markt"},"district":{"key":"09672","name":"Bad Kissingen","type":"Landkreis"},"federalState":{"key":"09","name":"Bayern"}},{"name":"Dorfstr.","postalCode":"97779","locality":"Geroda","municipality":{"key":"09672126","name":"Geroda, M","type":"Markt"},"district":{"key":"09672","name":"Bad Kissingen","type":"Landkreis"},"federalState":{"key":"09","name":"Bayern"}},{"name":"Eckengasse","postalCode":"97779","locality":"Geroda","municipality":{"key":"09672126","name":"Geroda, M","type":"Markt"},"district":{"key":"09672","name":"Bad Kissingen","type":"Landkreis"},"federalState":{"key":"09","name":"Bayern"}},{"name":"Eichholz","postalCode":"97779","locality":"Geroda","municipality":{"key":"09672126","name":"Geroda, M","type":"Markt"},"district":{"key":"09672","name":"Bad Kissingen","type":"Landkreis"},"federalState":{"key":"09","name":"Bayern"}},{"name":"Frankenweg","postalCode":"97779","locality":"Geroda","municipality":{"key":"09672126","name":"Geroda, M","type":"Markt"},"district":{"key":"09672","name":"Bad Kissingen","type":"Landkreis"},"federalState":{"key":"09","name":"Bayern"}},{"name":"Gartenweg","postalCode":"97779","locality":"Geroda","municipality":{"key":"09672126","name":"Geroda, M","type":"Markt"},"district":{"key":"09672","name":"Bad Kissingen","type":"Landkreis"},"federalState":{"key":"09","name":"Bayern"}},{"name":"Gassenweg","postalCode":"97779","locality":"Geroda","municipality":{"key":"09672126","name":"Geroda, M","type":"Markt"},"district":{"key":"09672","name":"Bad Kissingen","type":"Landkreis"},"federalState":{"key":"09","name":"Bayern"}},{"name":"Im Neuland","postalCode":"97779","locality":"Geroda","municipality":{"key":"09672126","name":"Geroda, M","type":"Markt"},"district":{"key":"09672","name":"Bad Kissingen","type":"Landkreis"},"federalState":{"key":"09","name":"Bayern"}},{"name":"Im Sandacker","postalCode":"97779","locality":"Geroda","municipality":{"key":"09672126","name":"Geroda, M","type":"Markt"},"district":{"key":"09672","name":"Bad Kissingen","type":"Landkreis"},"federalState":{"key":"09","name":"Bayern"}},{"name":"Julius-Kardinal-Doepfner-Weg","postalCode":"97779","locality":"Geroda","municipality":{"key":"09672126","name":"Geroda, M","type":"Markt"},"district":{"key":"09672","name":"Bad Kissingen","type":"Landkreis"},"federalState":{"key":"09","name":"Bayern"}},{"name":"Kirchweg","postalCode":"97779","locality":"Geroda","municipality":{"key":"09672126","name":"Geroda, M","type":"Markt"},"district":{"key":"09672","name":"Bad Kissingen","type":"Landkreis"},"federalState":{"key":"09","name":"Bayern"}},{"name":"Kissinger Str.","postalCode":"97779","locality":"Geroda","municipality":{"key":"09672126","name":"Geroda, M","type":"Markt"},"district":{"key":"09672","name":"Bad Kissingen","type":"Landkreis"},"federalState":{"key":"09","name":"Bayern"}},{"name":"Krummer Graben","postalCode":"97779","locality":"Geroda","municipality":{"key":"09672126","name":"Geroda, M","type":"Markt"},"district":{"key":"09672","name":"Bad Kissingen","type":"Landkreis"},"federalState":{"key":"09","name":"Bayern"}},{"name":"Marktstr.","postalCode":"97779","locality":"Geroda","municipality":{"key":"09672126","name":"Geroda, M","type":"Markt"},"district":{"key":"09672","name":"Bad Kissingen","type":"Landkreis"},"federalState":{"key":"09","name":"Bayern"}},{"name":"Mühlweg","postalCode":"97779","locality":"Geroda","municipality":{"key":"09672126","name":"Geroda, M","type":"Markt"},"district":{"key":"09672","name":"Bad Kissingen","type":"Landkreis"},"federalState":{"key":"09","name":"Bayern"}},{"name":"Ortsstr.","postalCode":"07819","locality":"Geroda","municipality":{"key":"16075029","name":"Geroda","type":"Kreisangehörige_Gemeinde"},"district":{"key":"16075","name":"Saale-Orla-Kreis","type":"Landkreis"},"federalState":{"key":"16","name":"Thüringen"}},{"name":"Pfarrer-Schöbel-Str.","postalCode":"97779","locality":"Geroda","municipality":{"key":"09672126","name":"Geroda, M","type":"Markt"},"district":{"key":"09672","name":"Bad Kissingen","type":"Landkreis"},"federalState":{"key":"09","name":"Bayern"}},{"name":"Pfarrer-Schödel-Str.","postalCode":"97779","locality":"Geroda","municipality":{"key":"09672126","name":"Geroda, M","type":"Markt"},"district":{"key":"09672","name":"Bad Kissingen","type":"Landkreis"},"federalState":{"key":"09","name":"Bayern"}},{"name":"Platzer Berg","postalCode":"97779","locality":"Geroda","municipality":{"key":"09672126","name":"Geroda, M","type":"Markt"},"district":{"key":"09672","name":"Bad Kissingen","type":"Landkreis"},"federalState":{"key":"09","name":"Bayern"}},{"name":"Postweg","postalCode":"97779","locality":"Geroda","municipality":{"key":"09672126","name":"Geroda, M","type":"Markt"},"district":{"key":"09672","name":"Bad Kissingen","type":"Landkreis"},"federalState":{"key":"09","name":"Bayern"}},{"name":"Rhönstr.","postalCode":"97779","locality":"Geroda","municipality":{"key":"09672126","name":"Geroda, M","type":"Markt"},"district":{"key":"09672","name":"Bad Kissingen","type":"Landkreis"},"federalState":{"key":"09","name":"Bayern"}},{"name":"Schulweg","postalCode":"97779","locality":"Geroda","municipality":{"key":"09672126","name":"Geroda, M","type":"Markt"},"district":{"key":"09672","name":"Bad Kissingen","type":"Landkreis"},"federalState":{"key":"09","name":"Bayern"}},{"name":"Vier-Eichen-Weg","postalCode":"97779","locality":"Geroda","municipality":{"key":"09672126","name":"Geroda, M","type":"Markt"},"district":{"key":"09672","name":"Bad Kissingen","type":"Landkreis"},"federalState":{"key":"09","name":"Bayern"}},{"name":"Weißbachweg","postalCode":"97779","locality":"Geroda","municipality":{"key":"09672126","name":"Geroda, M","type":"Markt"},"district":{"key":"09672","name":"Bad Kissingen","type":"Landkreis"},"federalState":{"key":"09","name":"Bayern"}},{"name":"Wilhelm-Blümel-Str.","postalCode":"97779","locality":"Geroda","municipality":{"key":"09672126","name":"Geroda, M","type":"Markt"},"district":{"key":"09672","name":"Bad Kissingen","type":"Landkreis"},"federalState":{"key":"09","name":"Bayern"}},{"name":"Zwickenmühle","postalCode":"97779","locality":"Geroda","municipality":{"key":"09672126","name":"Geroda, M","type":"Markt"},"district":{"key":"09672","name":"Bad Kissingen","type":"Landkreis"},"federalState":{"key":"09","name":"Bayern"}},]