[{"name":"Adam-Stegerwald-Str.","postalCode":"97828","locality":"Marktheidenfeld","municipality":{"key":"09677157","name":"Marktheidenfeld, St","type":"Stadt"},"district":{"key":"09677","name":"Main-Spessart","type":"Landkreis"},"federalState":{"key":"09","name":"Bayern"}},{"name":"Ahornstr.","postalCode":"97828","locality":"Marktheidenfeld","municipality":{"key":"09677157","name":"Marktheidenfeld, St","type":"Stadt"},"district":{"key":"09677","name":"Main-Spessart","type":"Landkreis"},"federalState":{"key":"09","name":"Bayern"}},{"name":"Akazienweg","postalCode":"97828","locality":"Marktheidenfeld","municipality":{"key":"09677157","name":"Marktheidenfeld, St","type":"Stadt"},"district":{"key":"09677","name":"Main-Spessart","type":"Landkreis"},"federalState":{"key":"09","name":"Bayern"}},{"name":"Albert-Schweitzer-Str.","postalCode":"97828","locality":"Marktheidenfeld","municipality":{"key":"09677157","name":"Marktheidenfeld, St","type":"Stadt"},"district":{"key":"09677","name":"Main-Spessart","type":"Landkreis"},"federalState":{"key":"09","name":"Bayern"}},{"name":"Albin-Niklaus-Str.","postalCode":"97828","locality":"Marktheidenfeld","municipality":{"key":"09677157","name":"Marktheidenfeld, St","type":"Stadt"},"district":{"key":"09677","name":"Main-Spessart","type":"Landkreis"},"federalState":{"key":"09","name":"Bayern"}},{"name":"Alfred-Delp-Str.","postalCode":"97828","locality":"Marktheidenfeld","municipality":{"key":"09677157","name":"Marktheidenfeld, St","type":"Stadt"},"district":{"key":"09677","name":"Main-Spessart","type":"Landkreis"},"federalState":{"key":"09","name":"Bayern"}},{"name":"Alfred-Ruppert-Str.","postalCode":"97828","locality":"Marktheidenfeld","municipality":{"key":"09677157","name":"Marktheidenfeld, St","type":"Stadt"},"district":{"key":"09677","name":"Main-Spessart","type":"Landkreis"},"federalState":{"key":"09","name":"Bayern"}},{"name":"Am Alten Berg","postalCode":"97837","locality":"Erlenbach b. Marktheidenfeld","municipality":{"key":"09677125","name":"Erlenbach b.Marktheidenfeld","type":"Kreisangehörige_Gemeinde"},"district":{"key":"09677","name":"Main-Spessart","type":"Landkreis"},"federalState":{"key":"09","name":"Bayern"}},{"name":"Am Bachgrund","postalCode":"97837","locality":"Erlenbach b. Marktheidenfeld","municipality":{"key":"09677125","name":"Erlenbach b.Marktheidenfeld","type":"Kreisangehörige_Gemeinde"},"district":{"key":"09677","name":"Main-Spessart","type":"Landkreis"},"federalState":{"key":"09","name":"Bayern"}},{"name":"Am Bäuerleinsberg","postalCode":"97837","locality":"Erlenbach b. Marktheidenfeld","municipality":{"key":"09677125","name":"Erlenbach b.Marktheidenfeld","type":"Kreisangehörige_Gemeinde"},"district":{"key":"09677","name":"Main-Spessart","type":"Landkreis"},"federalState":{"key":"09","name":"Bayern"}},{"name":"Am Felsenkeller","postalCode":"97828","locality":"Marktheidenfeld","municipality":{"key":"09677157","name":"Marktheidenfeld, St","type":"Stadt"},"district":{"key":"09677","name":"Main-Spessart","type":"Landkreis"},"federalState":{"key":"09","name":"Bayern"}},{"name":"Am Geiger","postalCode":"97837","locality":"Erlenbach b. Marktheidenfeld","municipality":{"key":"09677125","name":"Erlenbach b.Marktheidenfeld","type":"Kreisangehörige_Gemeinde"},"district":{"key":"09677","name":"Main-Spessart","type":"Landkreis"},"federalState":{"key":"09","name":"Bayern"}},{"name":"Am Graben","postalCode":"97828","locality":"Marktheidenfeld","municipality":{"key":"09677157","name":"Marktheidenfeld, St","type":"Stadt"},"district":{"key":"09677","name":"Main-Spessart","type":"Landkreis"},"federalState":{"key":"09","name":"Bayern"}},{"name":"Am Hainszaun","postalCode":"97828","locality":"Marktheidenfeld","municipality":{"key":"09677157","name":"Marktheidenfeld, St","type":"Stadt"},"district":{"key":"09677","name":"Main-Spessart","type":"Landkreis"},"federalState":{"key":"09","name":"Bayern"}},{"name":"Am Hemmerich","postalCode":"97837","locality":"Erlenbach b. Marktheidenfeld","municipality":{"key":"09677125","name":"Erlenbach b.Marktheidenfeld","type":"Kreisangehörige_Gemeinde"},"district":{"key":"09677","name":"Main-Spessart","type":"Landkreis"},"federalState":{"key":"09","name":"Bayern"}},{"name":"Am Herrmannsberg","postalCode":"97837","locality":"Erlenbach b. Marktheidenfeld","municipality":{"key":"09677125","name":"Erlenbach b.Marktheidenfeld","type":"Kreisangehörige_Gemeinde"},"district":{"key":"09677","name":"Main-Spessart","type":"Landkreis"},"federalState":{"key":"09","name":"Bayern"}},{"name":"Am Hollerbusch","postalCode":"97828","locality":"Marktheidenfeld","municipality":{"key":"09677157","name":"Marktheidenfeld, St","type":"Stadt"},"district":{"key":"09677","name":"Main-Spessart","type":"Landkreis"},"federalState":{"key":"09","name":"Bayern"}},{"name":"Am Jöspershecklein","postalCode":"97828","locality":"Marktheidenfeld","municipality":{"key":"09677157","name":"Marktheidenfeld, St","type":"Stadt"},"district":{"key":"09677","name":"Main-Spessart","type":"Landkreis"},"federalState":{"key":"09","name":"Bayern"}},{"name":"Am Kalkofen","postalCode":"97828","locality":"Marktheidenfeld","municipality":{"key":"09677157","name":"Marktheidenfeld, St","type":"Stadt"},"district":{"key":"09677","name":"Main-Spessart","type":"Landkreis"},"federalState":{"key":"09","name":"Bayern"}},{"name":"Am Karbach","postalCode":"97828","locality":"Marktheidenfeld","municipality":{"key":"09677157","name":"Marktheidenfeld, St","type":"Stadt"},"district":{"key":"09677","name":"Main-Spessart","type":"Landkreis"},"federalState":{"key":"09","name":"Bayern"}},{"name":"Am Kirchhof","postalCode":"97837","locality":"Erlenbach b. Marktheidenfeld","municipality":{"key":"09677125","name":"Erlenbach b.Marktheidenfeld","type":"Kreisangehörige_Gemeinde"},"district":{"key":"09677","name":"Main-Spessart","type":"Landkreis"},"federalState":{"key":"09","name":"Bayern"}},{"name":"Am Klöffling","postalCode":"97828","locality":"Marktheidenfeld","municipality":{"key":"09677157","name":"Marktheidenfeld, St","type":"Stadt"},"district":{"key":"09677","name":"Main-Spessart","type":"Landkreis"},"federalState":{"key":"09","name":"Bayern"}},{"name":"Am Lauterpfad","postalCode":"97828","locality":"Marktheidenfeld","municipality":{"key":"09677157","name":"Marktheidenfeld, St","type":"Stadt"},"district":{"key":"09677","name":"Main-Spessart","type":"Landkreis"},"federalState":{"key":"09","name":"Bayern"}},{"name":"Am Maradies","postalCode":"97828","locality":"Marktheidenfeld","municipality":{"key":"09677157","name":"Marktheidenfeld, St","type":"Stadt"},"district":{"key":"09677","name":"Main-Spessart","type":"Landkreis"},"federalState":{"key":"09","name":"Bayern"}},{"name":"Am Obereichholz","postalCode":"97828","locality":"Marktheidenfeld","municipality":{"key":"09677157","name":"Marktheidenfeld, St","type":"Stadt"},"district":{"key":"09677","name":"Main-Spessart","type":"Landkreis"},"federalState":{"key":"09","name":"Bayern"}},{"name":"Am Pfad","postalCode":"97828","locality":"Marktheidenfeld","municipality":{"key":"09677157","name":"Marktheidenfeld, St","type":"Stadt"},"district":{"key":"09677","name":"Main-Spessart","type":"Landkreis"},"federalState":{"key":"09","name":"Bayern"}},{"name":"Am Rathaus","postalCode":"97828","locality":"Marktheidenfeld","municipality":{"key":"09677157","name":"Marktheidenfeld, St","type":"Stadt"},"district":{"key":"09677","name":"Main-Spessart","type":"Landkreis"},"federalState":{"key":"09","name":"Bayern"}},{"name":"Am Rochus","postalCode":"97837","locality":"Erlenbach b. Marktheidenfeld","municipality":{"key":"09677125","name":"Erlenbach b.Marktheidenfeld","type":"Kreisangehörige_Gemeinde"},"district":{"key":"09677","name":"Main-Spessart","type":"Landkreis"},"federalState":{"key":"09","name":"Bayern"}},{"name":"Am Sand","postalCode":"97828","locality":"Marktheidenfeld","municipality":{"key":"09677157","name":"Marktheidenfeld, St","type":"Stadt"},"district":{"key":"09677","name":"Main-Spessart","type":"Landkreis"},"federalState":{"key":"09","name":"Bayern"}},{"name":"Am Schläglein","postalCode":"97828","locality":"Marktheidenfeld","municipality":{"key":"09677157","name":"Marktheidenfeld, St","type":"Stadt"},"district":{"key":"09677","name":"Main-Spessart","type":"Landkreis"},"federalState":{"key":"09","name":"Bayern"}},{"name":"Am Schlupf","postalCode":"97828","locality":"Marktheidenfeld","municipality":{"key":"09677157","name":"Marktheidenfeld, St","type":"Stadt"},"district":{"key":"09677","name":"Main-Spessart","type":"Landkreis"},"federalState":{"key":"09","name":"Bayern"}},{"name":"Am Seitenberg","postalCode":"97828","locality":"Marktheidenfeld","municipality":{"key":"09677157","name":"Marktheidenfeld, St","type":"Stadt"},"district":{"key":"09677","name":"Main-Spessart","type":"Landkreis"},"federalState":{"key":"09","name":"Bayern"}},{"name":"Am Setzgraben","postalCode":"97828","locality":"Marktheidenfeld","municipality":{"key":"09677157","name":"Marktheidenfeld, St","type":"Stadt"},"district":{"key":"09677","name":"Main-Spessart","type":"Landkreis"},"federalState":{"key":"09","name":"Bayern"}},{"name":"Am Sportzentrum","postalCode":"97828","locality":"Marktheidenfeld","municipality":{"key":"09677157","name":"Marktheidenfeld, St","type":"Stadt"},"district":{"key":"09677","name":"Main-Spessart","type":"Landkreis"},"federalState":{"key":"09","name":"Bayern"}},{"name":"Am Sportzenturm","postalCode":"97828","locality":"Marktheidenfeld","municipality":{"key":"09677157","name":"Marktheidenfeld, St","type":"Stadt"},"district":{"key":"09677","name":"Main-Spessart","type":"Landkreis"},"federalState":{"key":"09","name":"Bayern"}},{"name":"Am Steinbruch","postalCode":"97837","locality":"Erlenbach b. Marktheidenfeld","municipality":{"key":"09677125","name":"Erlenbach b.Marktheidenfeld","type":"Kreisangehörige_Gemeinde"},"district":{"key":"09677","name":"Main-Spessart","type":"Landkreis"},"federalState":{"key":"09","name":"Bayern"}},{"name":"Am Steinbusch","postalCode":"97828","locality":"Marktheidenfeld","municipality":{"key":"09677157","name":"Marktheidenfeld, St","type":"Stadt"},"district":{"key":"09677","name":"Main-Spessart","type":"Landkreis"},"federalState":{"key":"09","name":"Bayern"}},{"name":"Am Trabelt","postalCode":"97828","locality":"Marktheidenfeld","municipality":{"key":"09677157","name":"Marktheidenfeld, St","type":"Stadt"},"district":{"key":"09677","name":"Main-Spessart","type":"Landkreis"},"federalState":{"key":"09","name":"Bayern"}},{"name":"Am Trieb","postalCode":"97828","locality":"Marktheidenfeld","municipality":{"key":"09677157","name":"Marktheidenfeld, St","type":"Stadt"},"district":{"key":"09677","name":"Main-Spessart","type":"Landkreis"},"federalState":{"key":"09","name":"Bayern"}},{"name":"Am Unzberg","postalCode":"97837","locality":"Erlenbach b. Marktheidenfeld","municipality":{"key":"09677125","name":"Erlenbach b.Marktheidenfeld","type":"Kreisangehörige_Gemeinde"},"district":{"key":"09677","name":"Main-Spessart","type":"Landkreis"},"federalState":{"key":"09","name":"Bayern"}},{"name":"Am Weiler","postalCode":"97828","locality":"Marktheidenfeld","municipality":{"key":"09677157","name":"Marktheidenfeld, St","type":"Stadt"},"district":{"key":"09677","name":"Main-Spessart","type":"Landkreis"},"federalState":{"key":"09","name":"Bayern"}},{"name":"Am Weiler","postalCode":"97837","locality":"Erlenbach b. Marktheidenfeld","municipality":{"key":"09677125","name":"Erlenbach b.Marktheidenfeld","type":"Kreisangehörige_Gemeinde"},"district":{"key":"09677","name":"Main-Spessart","type":"Landkreis"},"federalState":{"key":"09","name":"Bayern"}},{"name":"An den Birken","postalCode":"97828","locality":"Marktheidenfeld","municipality":{"key":"09677157","name":"Marktheidenfeld, St","type":"Stadt"},"district":{"key":"09677","name":"Main-Spessart","type":"Landkreis"},"federalState":{"key":"09","name":"Bayern"}},{"name":"An den Eichen","postalCode":"97828","locality":"Marktheidenfeld","municipality":{"key":"09677157","name":"Marktheidenfeld, St","type":"Stadt"},"district":{"key":"09677","name":"Main-Spessart","type":"Landkreis"},"federalState":{"key":"09","name":"Bayern"}},{"name":"An der Flachsbreche","postalCode":"97828","locality":"Marktheidenfeld","municipality":{"key":"09677157","name":"Marktheidenfeld, St","type":"Stadt"},"district":{"key":"09677","name":"Main-Spessart","type":"Landkreis"},"federalState":{"key":"09","name":"Bayern"}},{"name":"An der Hafnergrube","postalCode":"97828","locality":"Marktheidenfeld","municipality":{"key":"09677157","name":"Marktheidenfeld, St","type":"Stadt"},"district":{"key":"09677","name":"Main-Spessart","type":"Landkreis"},"federalState":{"key":"09","name":"Bayern"}},{"name":"An der Hecke","postalCode":"97837","locality":"Erlenbach b. Marktheidenfeld","municipality":{"key":"09677125","name":"Erlenbach b.Marktheidenfeld","type":"Kreisangehörige_Gemeinde"},"district":{"key":"09677","name":"Main-Spessart","type":"Landkreis"},"federalState":{"key":"09","name":"Bayern"}},{"name":"An der Klause","postalCode":"97837","locality":"Erlenbach b. Marktheidenfeld","municipality":{"key":"09677125","name":"Erlenbach b.Marktheidenfeld","type":"Kreisangehörige_Gemeinde"},"district":{"key":"09677","name":"Main-Spessart","type":"Landkreis"},"federalState":{"key":"09","name":"Bayern"}},{"name":"An der Köhlerei","postalCode":"97828","locality":"Marktheidenfeld","municipality":{"key":"09677157","name":"Marktheidenfeld, St","type":"Stadt"},"district":{"key":"09677","name":"Main-Spessart","type":"Landkreis"},"federalState":{"key":"09","name":"Bayern"}},{"name":"An der Linde","postalCode":"97828","locality":"Marktheidenfeld","municipality":{"key":"09677157","name":"Marktheidenfeld, St","type":"Stadt"},"district":{"key":"09677","name":"Main-Spessart","type":"Landkreis"},"federalState":{"key":"09","name":"Bayern"}},{"name":"Bahnhofstr.","postalCode":"97828","locality":"Marktheidenfeld","municipality":{"key":"09677157","name":"Marktheidenfeld, St","type":"Stadt"},"district":{"key":"09677","name":"Main-Spessart","type":"Landkreis"},"federalState":{"key":"09","name":"Bayern"}},{"name":"Baumgartshofweg","postalCode":"97828","locality":"Marktheidenfeld","municipality":{"key":"09677157","name":"Marktheidenfeld, St","type":"Stadt"},"district":{"key":"09677","name":"Main-Spessart","type":"Landkreis"},"federalState":{"key":"09","name":"Bayern"}},{"name":"Baumhofstr.","postalCode":"97828","locality":"Marktheidenfeld","municipality":{"key":"09677157","name":"Marktheidenfeld, St","type":"Stadt"},"district":{"key":"09677","name":"Main-Spessart","type":"Landkreis"},"federalState":{"key":"09","name":"Bayern"}},{"name":"Bayernstr.","postalCode":"97828","locality":"Marktheidenfeld","municipality":{"key":"09677157","name":"Marktheidenfeld, St","type":"Stadt"},"district":{"key":"09677","name":"Main-Spessart","type":"Landkreis"},"federalState":{"key":"09","name":"Bayern"}},{"name":"Bergstr.","postalCode":"97828","locality":"Marktheidenfeld","municipality":{"key":"09677157","name":"Marktheidenfeld, St","type":"Stadt"},"district":{"key":"09677","name":"Main-Spessart","type":"Landkreis"},"federalState":{"key":"09","name":"Bayern"}},{"name":"Bergstr.","postalCode":"97837","locality":"Erlenbach b. Marktheidenfeld","municipality":{"key":"09677125","name":"Erlenbach b.Marktheidenfeld","type":"Kreisangehörige_Gemeinde"},"district":{"key":"09677","name":"Main-Spessart","type":"Landkreis"},"federalState":{"key":"09","name":"Bayern"}},{"name":"Blumenstr.","postalCode":"97828","locality":"Marktheidenfeld","municipality":{"key":"09677157","name":"Marktheidenfeld, St","type":"Stadt"},"district":{"key":"09677","name":"Main-Spessart","type":"Landkreis"},"federalState":{"key":"09","name":"Bayern"}},{"name":"Blumenweg","postalCode":"97837","locality":"Erlenbach b. Marktheidenfeld","municipality":{"key":"09677125","name":"Erlenbach b.Marktheidenfeld","type":"Kreisangehörige_Gemeinde"},"district":{"key":"09677","name":"Main-Spessart","type":"Landkreis"},"federalState":{"key":"09","name":"Bayern"}},{"name":"Böhmerwaldstr.","postalCode":"97828","locality":"Marktheidenfeld","municipality":{"key":"09677157","name":"Marktheidenfeld, St","type":"Stadt"},"district":{"key":"09677","name":"Main-Spessart","type":"Landkreis"},"federalState":{"key":"09","name":"Bayern"}},{"name":"Botschelsgraben","postalCode":"97837","locality":"Erlenbach b. Marktheidenfeld","municipality":{"key":"09677125","name":"Erlenbach b.Marktheidenfeld","type":"Kreisangehörige_Gemeinde"},"district":{"key":"09677","name":"Main-Spessart","type":"Landkreis"},"federalState":{"key":"09","name":"Bayern"}},{"name":"Bronnbacher Str.","postalCode":"97828","locality":"Marktheidenfeld","municipality":{"key":"09677157","name":"Marktheidenfeld, St","type":"Stadt"},"district":{"key":"09677","name":"Main-Spessart","type":"Landkreis"},"federalState":{"key":"09","name":"Bayern"}},{"name":"Brückenstr.","postalCode":"97828","locality":"Marktheidenfeld","municipality":{"key":"09677157","name":"Marktheidenfeld, St","type":"Stadt"},"district":{"key":"09677","name":"Main-Spessart","type":"Landkreis"},"federalState":{"key":"09","name":"Bayern"}},{"name":"Brückentor","postalCode":"97837","locality":"Erlenbach b. Marktheidenfeld","municipality":{"key":"09677125","name":"Erlenbach b.Marktheidenfeld","type":"Kreisangehörige_Gemeinde"},"district":{"key":"09677","name":"Main-Spessart","type":"Landkreis"},"federalState":{"key":"09","name":"Bayern"}},{"name":"Buchenstr.","postalCode":"97828","locality":"Marktheidenfeld","municipality":{"key":"09677157","name":"Marktheidenfeld, St","type":"Stadt"},"district":{"key":"09677","name":"Main-Spessart","type":"Landkreis"},"federalState":{"key":"09","name":"Bayern"}},{"name":"Burkardusweg","postalCode":"97837","locality":"Erlenbach b. Marktheidenfeld","municipality":{"key":"09677125","name":"Erlenbach b.Marktheidenfeld","type":"Kreisangehörige_Gemeinde"},"district":{"key":"09677","name":"Main-Spessart","type":"Landkreis"},"federalState":{"key":"09","name":"Bayern"}},{"name":"Claushofstr.","postalCode":"97828","locality":"Marktheidenfeld","municipality":{"key":"09677157","name":"Marktheidenfeld, St","type":"Stadt"},"district":{"key":"09677","name":"Main-Spessart","type":"Landkreis"},"federalState":{"key":"09","name":"Bayern"}},{"name":"Danziger Str.","postalCode":"97828","locality":"Marktheidenfeld","municipality":{"key":"09677157","name":"Marktheidenfeld, St","type":"Stadt"},"district":{"key":"09677","name":"Main-Spessart","type":"Landkreis"},"federalState":{"key":"09","name":"Bayern"}},{"name":"Dietrich-Bonhoeffer-Str.","postalCode":"97828","locality":"Marktheidenfeld","municipality":{"key":"09677157","name":"Marktheidenfeld, St","type":"Stadt"},"district":{"key":"09677","name":"Main-Spessart","type":"Landkreis"},"federalState":{"key":"09","name":"Bayern"}},{"name":"Dillberg","postalCode":"97828","locality":"Marktheidenfeld","municipality":{"key":"09677157","name":"Marktheidenfeld, St","type":"Stadt"},"district":{"key":"09677","name":"Main-Spessart","type":"Landkreis"},"federalState":{"key":"09","name":"Bayern"}},{"name":"Dillbergstr.","postalCode":"97828","locality":"Marktheidenfeld","municipality":{"key":"09677157","name":"Marktheidenfeld, St","type":"Stadt"},"district":{"key":"09677","name":"Main-Spessart","type":"Landkreis"},"federalState":{"key":"09","name":"Bayern"}},{"name":"Dürre Wiese","postalCode":"97837","locality":"Erlenbach b. Marktheidenfeld","municipality":{"key":"09677125","name":"Erlenbach b.Marktheidenfeld","type":"Kreisangehörige_Gemeinde"},"district":{"key":"09677","name":"Main-Spessart","type":"Landkreis"},"federalState":{"key":"09","name":"Bayern"}},{"name":"Düsseldorfer Str.","postalCode":"97828","locality":"Marktheidenfeld","municipality":{"key":"09677157","name":"Marktheidenfeld, St","type":"Stadt"},"district":{"key":"09677","name":"Main-Spessart","type":"Landkreis"},"federalState":{"key":"09","name":"Bayern"}},{"name":"Echterstr.","postalCode":"97828","locality":"Marktheidenfeld","municipality":{"key":"09677157","name":"Marktheidenfeld, St","type":"Stadt"},"district":{"key":"09677","name":"Main-Spessart","type":"Landkreis"},"federalState":{"key":"09","name":"Bayern"}},{"name":"Edith-Stein-Str.","postalCode":"97828","locality":"Marktheidenfeld","municipality":{"key":"09677157","name":"Marktheidenfeld, St","type":"Stadt"},"district":{"key":"09677","name":"Main-Spessart","type":"Landkreis"},"federalState":{"key":"09","name":"Bayern"}},{"name":"Eduard-Deubert-Str.","postalCode":"97828","locality":"Marktheidenfeld","municipality":{"key":"09677157","name":"Marktheidenfeld, St","type":"Stadt"},"district":{"key":"09677","name":"Main-Spessart","type":"Landkreis"},"federalState":{"key":"09","name":"Bayern"}},{"name":"Egerländerstr.","postalCode":"97828","locality":"Marktheidenfeld","municipality":{"key":"09677157","name":"Marktheidenfeld, St","type":"Stadt"},"district":{"key":"09677","name":"Main-Spessart","type":"Landkreis"},"federalState":{"key":"09","name":"Bayern"}},{"name":"Eichenfürst","postalCode":"97828","locality":"Marktheidenfeld","municipality":{"key":"09677157","name":"Marktheidenfeld, St","type":"Stadt"},"district":{"key":"09677","name":"Main-Spessart","type":"Landkreis"},"federalState":{"key":"09","name":"Bayern"}},{"name":"Eichenfürster Str.","postalCode":"97828","locality":"Marktheidenfeld","municipality":{"key":"09677157","name":"Marktheidenfeld, St","type":"Stadt"},"district":{"key":"09677","name":"Main-Spessart","type":"Landkreis"},"federalState":{"key":"09","name":"Bayern"}},{"name":"Eichholzstr.","postalCode":"97828","locality":"Marktheidenfeld","municipality":{"key":"09677157","name":"Marktheidenfeld, St","type":"Stadt"},"district":{"key":"09677","name":"Main-Spessart","type":"Landkreis"},"federalState":{"key":"09","name":"Bayern"}},{"name":"Eisgasse","postalCode":"97837","locality":"Erlenbach b. Marktheidenfeld","municipality":{"key":"09677125","name":"Erlenbach b.Marktheidenfeld","type":"Kreisangehörige_Gemeinde"},"district":{"key":"09677","name":"Main-Spessart","type":"Landkreis"},"federalState":{"key":"09","name":"Bayern"}},{"name":"Eltertstr.","postalCode":"97828","locality":"Marktheidenfeld","municipality":{"key":"09677157","name":"Marktheidenfeld, St","type":"Stadt"},"district":{"key":"09677","name":"Main-Spessart","type":"Landkreis"},"federalState":{"key":"09","name":"Bayern"}},{"name":"Emmerichstr.","postalCode":"97828","locality":"Marktheidenfeld","municipality":{"key":"09677157","name":"Marktheidenfeld, St","type":"Stadt"},"district":{"key":"09677","name":"Main-Spessart","type":"Landkreis"},"federalState":{"key":"09","name":"Bayern"}},{"name":"Erlacher Str.","postalCode":"97828","locality":"Marktheidenfeld","municipality":{"key":"09677157","name":"Marktheidenfeld, St","type":"Stadt"},"district":{"key":"09677","name":"Main-Spessart","type":"Landkreis"},"federalState":{"key":"09","name":"Bayern"}},{"name":"Erlenbacher Str.","postalCode":"97828","locality":"Marktheidenfeld","municipality":{"key":"09677157","name":"Marktheidenfeld, St","type":"Stadt"},"district":{"key":"09677","name":"Main-Spessart","type":"Landkreis"},"federalState":{"key":"09","name":"Bayern"}},{"name":"Erlenstr.","postalCode":"97828","locality":"Marktheidenfeld","municipality":{"key":"09677157","name":"Marktheidenfeld, St","type":"Stadt"},"district":{"key":"09677","name":"Main-Spessart","type":"Landkreis"},"federalState":{"key":"09","name":"Bayern"}},{"name":"Ernst-Fertig-Str.","postalCode":"97828","locality":"Marktheidenfeld","municipality":{"key":"09677157","name":"Marktheidenfeld, St","type":"Stadt"},"district":{"key":"09677","name":"Main-Spessart","type":"Landkreis"},"federalState":{"key":"09","name":"Bayern"}},{"name":"Eugen-Büttner-Str.","postalCode":"97828","locality":"Marktheidenfeld","municipality":{"key":"09677157","name":"Marktheidenfeld, St","type":"Stadt"},"district":{"key":"09677","name":"Main-Spessart","type":"Landkreis"},"federalState":{"key":"09","name":"Bayern"}},{"name":"Fahrgasse","postalCode":"97828","locality":"Marktheidenfeld","municipality":{"key":"09677157","name":"Marktheidenfeld, St","type":"Stadt"},"district":{"key":"09677","name":"Main-Spessart","type":"Landkreis"},"federalState":{"key":"09","name":"Bayern"}},{"name":"Fichtenstr.","postalCode":"97828","locality":"Marktheidenfeld","municipality":{"key":"09677157","name":"Marktheidenfeld, St","type":"Stadt"},"district":{"key":"09677","name":"Main-Spessart","type":"Landkreis"},"federalState":{"key":"09","name":"Bayern"}},{"name":"Forsthausstr.","postalCode":"97828","locality":"Marktheidenfeld","municipality":{"key":"09677157","name":"Marktheidenfeld, St","type":"Stadt"},"district":{"key":"09677","name":"Main-Spessart","type":"Landkreis"},"federalState":{"key":"09","name":"Bayern"}},{"name":"Frankenstr.","postalCode":"97828","locality":"Marktheidenfeld","municipality":{"key":"09677157","name":"Marktheidenfeld, St","type":"Stadt"},"district":{"key":"09677","name":"Main-Spessart","type":"Landkreis"},"federalState":{"key":"09","name":"Bayern"}},{"name":"Franz-Hegmann-Str.","postalCode":"97828","locality":"Marktheidenfeld","municipality":{"key":"09677157","name":"Marktheidenfeld, St","type":"Stadt"},"district":{"key":"09677","name":"Main-Spessart","type":"Landkreis"},"federalState":{"key":"09","name":"Bayern"}},{"name":"Friedenstr.","postalCode":"97828","locality":"Marktheidenfeld","municipality":{"key":"09677157","name":"Marktheidenfeld, St","type":"Stadt"},"district":{"key":"09677","name":"Main-Spessart","type":"Landkreis"},"federalState":{"key":"09","name":"Bayern"}},{"name":"Friedhofstr.","postalCode":"97837","locality":"Erlenbach b. Marktheidenfeld","municipality":{"key":"09677125","name":"Erlenbach b.Marktheidenfeld","type":"Kreisangehörige_Gemeinde"},"district":{"key":"09677","name":"Main-Spessart","type":"Landkreis"},"federalState":{"key":"09","name":"Bayern"}},{"name":"Friedrich-Raiffeisen-Str.","postalCode":"97828","locality":"Marktheidenfeld","municipality":{"key":"09677157","name":"Marktheidenfeld, St","type":"Stadt"},"district":{"key":"09677","name":"Main-Spessart","type":"Landkreis"},"federalState":{"key":"09","name":"Bayern"}},{"name":"Friedrich-Rückert-Str.","postalCode":"97828","locality":"Marktheidenfeld","municipality":{"key":"09677157","name":"Marktheidenfeld, St","type":"Stadt"},"district":{"key":"09677","name":"Main-Spessart","type":"Landkreis"},"federalState":{"key":"09","name":"Bayern"}},{"name":"Froschgasse","postalCode":"97837","locality":"Erlenbach b. Marktheidenfeld","municipality":{"key":"09677125","name":"Erlenbach b.Marktheidenfeld","type":"Kreisangehörige_Gemeinde"},"district":{"key":"09677","name":"Main-Spessart","type":"Landkreis"},"federalState":{"key":"09","name":"Bayern"}},{"name":"Frühlingstr.","postalCode":"97828","locality":"Marktheidenfeld","municipality":{"key":"09677157","name":"Marktheidenfeld, St","type":"Stadt"},"district":{"key":"09677","name":"Main-Spessart","type":"Landkreis"},"federalState":{"key":"09","name":"Bayern"}},{"name":"Frühlingstr.","postalCode":"97837","locality":"Erlenbach b. Marktheidenfeld","municipality":{"key":"09677125","name":"Erlenbach b.Marktheidenfeld","type":"Kreisangehörige_Gemeinde"},"district":{"key":"09677","name":"Main-Spessart","type":"Landkreis"},"federalState":{"key":"09","name":"Bayern"}},{"name":"Gartenstr.","postalCode":"97828","locality":"Marktheidenfeld","municipality":{"key":"09677157","name":"Marktheidenfeld, St","type":"Stadt"},"district":{"key":"09677","name":"Main-Spessart","type":"Landkreis"},"federalState":{"key":"09","name":"Bayern"}},{"name":"Gartenstr.","postalCode":"97837","locality":"Erlenbach b. Marktheidenfeld","municipality":{"key":"09677125","name":"Erlenbach b.Marktheidenfeld","type":"Kreisangehörige_Gemeinde"},"district":{"key":"09677","name":"Main-Spessart","type":"Landkreis"},"federalState":{"key":"09","name":"Bayern"}},{"name":"Georg-Mayr-Str.","postalCode":"97828","locality":"Marktheidenfeld","municipality":{"key":"09677157","name":"Marktheidenfeld, St","type":"Stadt"},"district":{"key":"09677","name":"Main-Spessart","type":"Landkreis"},"federalState":{"key":"09","name":"Bayern"}},{"name":"Georg-Seitz-Str.","postalCode":"97828","locality":"Marktheidenfeld","municipality":{"key":"09677157","name":"Marktheidenfeld, St","type":"Stadt"},"district":{"key":"09677","name":"Main-Spessart","type":"Landkreis"},"federalState":{"key":"09","name":"Bayern"}},{"name":"Gerberweg","postalCode":"97828","locality":"Marktheidenfeld","municipality":{"key":"09677157","name":"Marktheidenfeld, St","type":"Stadt"},"district":{"key":"09677","name":"Main-Spessart","type":"Landkreis"},"federalState":{"key":"09","name":"Bayern"}},{"name":"Geschwister-Scholl-Ring","postalCode":"97828","locality":"Marktheidenfeld","municipality":{"key":"09677157","name":"Marktheidenfeld, St","type":"Stadt"},"district":{"key":"09677","name":"Main-Spessart","type":"Landkreis"},"federalState":{"key":"09","name":"Bayern"}},{"name":"Glasergasse","postalCode":"97828","locality":"Marktheidenfeld","municipality":{"key":"09677157","name":"Marktheidenfeld, St","type":"Stadt"},"district":{"key":"09677","name":"Main-Spessart","type":"Landkreis"},"federalState":{"key":"09","name":"Bayern"}},{"name":"Goerdelerring","postalCode":"97828","locality":"Marktheidenfeld","municipality":{"key":"09677157","name":"Marktheidenfeld, St","type":"Stadt"},"district":{"key":"09677","name":"Main-Spessart","type":"Landkreis"},"federalState":{"key":"09","name":"Bayern"}},{"name":"Gotthard-Schüll-Str.","postalCode":"97828","locality":"Marktheidenfeld","municipality":{"key":"09677157","name":"Marktheidenfeld, St","type":"Stadt"},"district":{"key":"09677","name":"Main-Spessart","type":"Landkreis"},"federalState":{"key":"09","name":"Bayern"}},{"name":"Gradlstr.","postalCode":"97828","locality":"Marktheidenfeld","municipality":{"key":"09677157","name":"Marktheidenfeld, St","type":"Stadt"},"district":{"key":"09677","name":"Main-Spessart","type":"Landkreis"},"federalState":{"key":"09","name":"Bayern"}},{"name":"Grafschaftsstr.","postalCode":"97828","locality":"Marktheidenfeld","municipality":{"key":"09677157","name":"Marktheidenfeld, St","type":"Stadt"},"district":{"key":"09677","name":"Main-Spessart","type":"Landkreis"},"federalState":{"key":"09","name":"Bayern"}},{"name":"Gründleinstr.","postalCode":"97828","locality":"Marktheidenfeld","municipality":{"key":"09677157","name":"Marktheidenfeld, St","type":"Stadt"},"district":{"key":"09677","name":"Main-Spessart","type":"Landkreis"},"federalState":{"key":"09","name":"Bayern"}},{"name":"Gustav-Heinemann-Str.","postalCode":"97828","locality":"Marktheidenfeld","municipality":{"key":"09677157","name":"Marktheidenfeld, St","type":"Stadt"},"district":{"key":"09677","name":"Main-Spessart","type":"Landkreis"},"federalState":{"key":"09","name":"Bayern"}},{"name":"Häckerweg","postalCode":"97837","locality":"Erlenbach b. Marktheidenfeld","municipality":{"key":"09677125","name":"Erlenbach b.Marktheidenfeld","type":"Kreisangehörige_Gemeinde"},"district":{"key":"09677","name":"Main-Spessart","type":"Landkreis"},"federalState":{"key":"09","name":"Bayern"}},{"name":"Hafenlohrer Str.","postalCode":"97828","locality":"Marktheidenfeld","municipality":{"key":"09677157","name":"Marktheidenfeld, St","type":"Stadt"},"district":{"key":"09677","name":"Main-Spessart","type":"Landkreis"},"federalState":{"key":"09","name":"Bayern"}},{"name":"Hans-Wilhelm-Renkhoff-Str.","postalCode":"97828","locality":"Marktheidenfeld","municipality":{"key":"09677157","name":"Marktheidenfeld, St","type":"Stadt"},"district":{"key":"09677","name":"Main-Spessart","type":"Landkreis"},"federalState":{"key":"09","name":"Bayern"}},{"name":"Hauptstr.","postalCode":"97837","locality":"Erlenbach b. Marktheidenfeld","municipality":{"key":"09677125","name":"Erlenbach b.Marktheidenfeld","type":"Kreisangehörige_Gemeinde"},"district":{"key":"09677","name":"Main-Spessart","type":"Landkreis"},"federalState":{"key":"09","name":"Bayern"}},{"name":"Heckerstr.","postalCode":"97828","locality":"Marktheidenfeld","municipality":{"key":"09677157","name":"Marktheidenfeld, St","type":"Stadt"},"district":{"key":"09677","name":"Main-Spessart","type":"Landkreis"},"federalState":{"key":"09","name":"Bayern"}},{"name":"Heidenäcker","postalCode":"97828","locality":"Marktheidenfeld","municipality":{"key":"09677157","name":"Marktheidenfeld, St","type":"Stadt"},"district":{"key":"09677","name":"Main-Spessart","type":"Landkreis"},"federalState":{"key":"09","name":"Bayern"}},{"name":"Heimstättenstr.","postalCode":"97828","locality":"Marktheidenfeld","municipality":{"key":"09677157","name":"Marktheidenfeld, St","type":"Stadt"},"district":{"key":"09677","name":"Main-Spessart","type":"Landkreis"},"federalState":{"key":"09","name":"Bayern"}},{"name":"Heinrich-Lübke-Str.","postalCode":"97828","locality":"Marktheidenfeld","municipality":{"key":"09677157","name":"Marktheidenfeld, St","type":"Stadt"},"district":{"key":"09677","name":"Main-Spessart","type":"Landkreis"},"federalState":{"key":"09","name":"Bayern"}},{"name":"Herrngasse","postalCode":"97828","locality":"Marktheidenfeld","municipality":{"key":"09677157","name":"Marktheidenfeld, St","type":"Stadt"},"district":{"key":"09677","name":"Main-Spessart","type":"Landkreis"},"federalState":{"key":"09","name":"Bayern"}},{"name":"Heubrunnenstr.","postalCode":"97828","locality":"Marktheidenfeld","municipality":{"key":"09677157","name":"Marktheidenfeld, St","type":"Stadt"},"district":{"key":"09677","name":"Main-Spessart","type":"Landkreis"},"federalState":{"key":"09","name":"Bayern"}},{"name":"Hirtengartenstr.","postalCode":"97828","locality":"Marktheidenfeld","municipality":{"key":"09677157","name":"Marktheidenfeld, St","type":"Stadt"},"district":{"key":"09677","name":"Main-Spessart","type":"Landkreis"},"federalState":{"key":"09","name":"Bayern"}},{"name":"Hirtenweg","postalCode":"97837","locality":"Erlenbach b. Marktheidenfeld","municipality":{"key":"09677125","name":"Erlenbach b.Marktheidenfeld","type":"Kreisangehörige_Gemeinde"},"district":{"key":"09677","name":"Main-Spessart","type":"Landkreis"},"federalState":{"key":"09","name":"Bayern"}},{"name":"Hofbergweg","postalCode":"97828","locality":"Marktheidenfeld","municipality":{"key":"09677157","name":"Marktheidenfeld, St","type":"Stadt"},"district":{"key":"09677","name":"Main-Spessart","type":"Landkreis"},"federalState":{"key":"09","name":"Bayern"}},{"name":"Hofgasse","postalCode":"97828","locality":"Marktheidenfeld","municipality":{"key":"09677157","name":"Marktheidenfeld, St","type":"Stadt"},"district":{"key":"09677","name":"Main-Spessart","type":"Landkreis"},"federalState":{"key":"09","name":"Bayern"}},{"name":"Höhenweg","postalCode":"97837","locality":"Erlenbach b. Marktheidenfeld","municipality":{"key":"09677125","name":"Erlenbach b.Marktheidenfeld","type":"Kreisangehörige_Gemeinde"},"district":{"key":"09677","name":"Main-Spessart","type":"Landkreis"},"federalState":{"key":"09","name":"Bayern"}},{"name":"Holzwiese","postalCode":"97828","locality":"Marktheidenfeld","municipality":{"key":"09677157","name":"Marktheidenfeld, St","type":"Stadt"},"district":{"key":"09677","name":"Main-Spessart","type":"Landkreis"},"federalState":{"key":"09","name":"Bayern"}},{"name":"Hubert-Harth-Str.","postalCode":"97828","locality":"Marktheidenfeld","municipality":{"key":"09677157","name":"Marktheidenfeld, St","type":"Stadt"},"district":{"key":"09677","name":"Main-Spessart","type":"Landkreis"},"federalState":{"key":"09","name":"Bayern"}},{"name":"Im Häberleinstal","postalCode":"97837","locality":"Erlenbach b. Marktheidenfeld","municipality":{"key":"09677125","name":"Erlenbach b.Marktheidenfeld","type":"Kreisangehörige_Gemeinde"},"district":{"key":"09677","name":"Main-Spessart","type":"Landkreis"},"federalState":{"key":"09","name":"Bayern"}},{"name":"Im Wiesengrund","postalCode":"97828","locality":"Marktheidenfeld","municipality":{"key":"09677157","name":"Marktheidenfeld, St","type":"Stadt"},"district":{"key":"09677","name":"Main-Spessart","type":"Landkreis"},"federalState":{"key":"09","name":"Bayern"}},{"name":"Im Ziegelloch","postalCode":"97837","locality":"Erlenbach b. Marktheidenfeld","municipality":{"key":"09677125","name":"Erlenbach b.Marktheidenfeld","type":"Kreisangehörige_Gemeinde"},"district":{"key":"09677","name":"Main-Spessart","type":"Landkreis"},"federalState":{"key":"09","name":"Bayern"}},{"name":"Istelstr.","postalCode":"97828","locality":"Marktheidenfeld","municipality":{"key":"09677157","name":"Marktheidenfeld, St","type":"Stadt"},"district":{"key":"09677","name":"Main-Spessart","type":"Landkreis"},"federalState":{"key":"09","name":"Bayern"}},{"name":"Jägerstr.","postalCode":"97828","locality":"Marktheidenfeld","municipality":{"key":"09677157","name":"Marktheidenfeld, St","type":"Stadt"},"district":{"key":"09677","name":"Main-Spessart","type":"Landkreis"},"federalState":{"key":"09","name":"Bayern"}},{"name":"Jahnstr.","postalCode":"97828","locality":"Marktheidenfeld","municipality":{"key":"09677157","name":"Marktheidenfeld, St","type":"Stadt"},"district":{"key":"09677","name":"Main-Spessart","type":"Landkreis"},"federalState":{"key":"09","name":"Bayern"}},{"name":"Jakob-Kaiser-Str.","postalCode":"97828","locality":"Marktheidenfeld","municipality":{"key":"09677157","name":"Marktheidenfeld, St","type":"Stadt"},"district":{"key":"09677","name":"Main-Spessart","type":"Landkreis"},"federalState":{"key":"09","name":"Bayern"}},{"name":"Johann-Wolfgang-von-Goethe-Str.","postalCode":"97828","locality":"Marktheidenfeld","municipality":{"key":"09677157","name":"Marktheidenfeld, St","type":"Stadt"},"district":{"key":"09677","name":"Main-Spessart","type":"Landkreis"},"federalState":{"key":"09","name":"Bayern"}},{"name":"Josef-Ruf-Str.","postalCode":"97828","locality":"Marktheidenfeld","municipality":{"key":"09677157","name":"Marktheidenfeld, St","type":"Stadt"},"district":{"key":"09677","name":"Main-Spessart","type":"Landkreis"},"federalState":{"key":"09","name":"Bayern"}},{"name":"Joseph-von-Eichendorff-Ring","postalCode":"97828","locality":"Marktheidenfeld","municipality":{"key":"09677157","name":"Marktheidenfeld, St","type":"Stadt"},"district":{"key":"09677","name":"Main-Spessart","type":"Landkreis"},"federalState":{"key":"09","name":"Bayern"}},{"name":"Julius-Leber-Str.","postalCode":"97828","locality":"Marktheidenfeld","municipality":{"key":"09677157","name":"Marktheidenfeld, St","type":"Stadt"},"district":{"key":"09677","name":"Main-Spessart","type":"Landkreis"},"federalState":{"key":"09","name":"Bayern"}},{"name":"Karbacher Str.","postalCode":"97828","locality":"Marktheidenfeld","municipality":{"key":"09677157","name":"Marktheidenfeld, St","type":"Stadt"},"district":{"key":"09677","name":"Main-Spessart","type":"Landkreis"},"federalState":{"key":"09","name":"Bayern"}},{"name":"Ketteltor","postalCode":"97837","locality":"Erlenbach b. Marktheidenfeld","municipality":{"key":"09677125","name":"Erlenbach b.Marktheidenfeld","type":"Kreisangehörige_Gemeinde"},"district":{"key":"09677","name":"Main-Spessart","type":"Landkreis"},"federalState":{"key":"09","name":"Bayern"}},{"name":"Kiefernstr.","postalCode":"97828","locality":"Marktheidenfeld","municipality":{"key":"09677157","name":"Marktheidenfeld, St","type":"Stadt"},"district":{"key":"09677","name":"Main-Spessart","type":"Landkreis"},"federalState":{"key":"09","name":"Bayern"}},{"name":"Kirchberg","postalCode":"97837","locality":"Erlenbach b. Marktheidenfeld","municipality":{"key":"09677125","name":"Erlenbach b.Marktheidenfeld","type":"Kreisangehörige_Gemeinde"},"district":{"key":"09677","name":"Main-Spessart","type":"Landkreis"},"federalState":{"key":"09","name":"Bayern"}},{"name":"Kirchenweg","postalCode":"97828","locality":"Marktheidenfeld","municipality":{"key":"09677157","name":"Marktheidenfeld, St","type":"Stadt"},"district":{"key":"09677","name":"Main-Spessart","type":"Landkreis"},"federalState":{"key":"09","name":"Bayern"}},{"name":"Kirchgasse","postalCode":"97828","locality":"Marktheidenfeld","municipality":{"key":"09677157","name":"Marktheidenfeld, St","type":"Stadt"},"district":{"key":"09677","name":"Main-Spessart","type":"Landkreis"},"federalState":{"key":"09","name":"Bayern"}},{"name":"Kirchweg","postalCode":"97828","locality":"Marktheidenfeld","municipality":{"key":"09677157","name":"Marktheidenfeld, St","type":"Stadt"},"district":{"key":"09677","name":"Main-Spessart","type":"Landkreis"},"federalState":{"key":"09","name":"Bayern"}},{"name":"Kolpingstr.","postalCode":"97828","locality":"Marktheidenfeld","municipality":{"key":"09677157","name":"Marktheidenfeld, St","type":"Stadt"},"district":{"key":"09677","name":"Main-Spessart","type":"Landkreis"},"federalState":{"key":"09","name":"Bayern"}},{"name":"Kredenbacher Str.","postalCode":"97828","locality":"Marktheidenfeld","municipality":{"key":"09677157","name":"Marktheidenfeld, St","type":"Stadt"},"district":{"key":"09677","name":"Main-Spessart","type":"Landkreis"},"federalState":{"key":"09","name":"Bayern"}},{"name":"Kreuzbergstr.","postalCode":"97828","locality":"Marktheidenfeld","municipality":{"key":"09677157","name":"Marktheidenfeld, St","type":"Stadt"},"district":{"key":"09677","name":"Main-Spessart","type":"Landkreis"},"federalState":{"key":"09","name":"Bayern"}},{"name":"Kreuzstr.","postalCode":"97837","locality":"Erlenbach b. Marktheidenfeld","municipality":{"key":"09677125","name":"Erlenbach b.Marktheidenfeld","type":"Kreisangehörige_Gemeinde"},"district":{"key":"09677","name":"Main-Spessart","type":"Landkreis"},"federalState":{"key":"09","name":"Bayern"}},{"name":"Kurt-Schumacher-Str.","postalCode":"97828","locality":"Marktheidenfeld","municipality":{"key":"09677157","name":"Marktheidenfeld, St","type":"Stadt"},"district":{"key":"09677","name":"Main-Spessart","type":"Landkreis"},"federalState":{"key":"09","name":"Bayern"}},{"name":"Lärchenstr.","postalCode":"97828","locality":"Marktheidenfeld","municipality":{"key":"09677157","name":"Marktheidenfeld, St","type":"Stadt"},"district":{"key":"09677","name":"Main-Spessart","type":"Landkreis"},"federalState":{"key":"09","name":"Bayern"}},{"name":"Lehmgrubenerstr.","postalCode":"97828","locality":"Marktheidenfeld","municipality":{"key":"09677157","name":"Marktheidenfeld, St","type":"Stadt"},"district":{"key":"09677","name":"Main-Spessart","type":"Landkreis"},"federalState":{"key":"09","name":"Bayern"}},{"name":"Lengfurter Str.","postalCode":"97828","locality":"Marktheidenfeld","municipality":{"key":"09677157","name":"Marktheidenfeld, St","type":"Stadt"},"district":{"key":"09677","name":"Main-Spessart","type":"Landkreis"},"federalState":{"key":"09","name":"Bayern"}},{"name":"Lengfurter Str.","postalCode":"97837","locality":"Erlenbach b. Marktheidenfeld","municipality":{"key":"09677125","name":"Erlenbach b.Marktheidenfeld","type":"Kreisangehörige_Gemeinde"},"district":{"key":"09677","name":"Main-Spessart","type":"Landkreis"},"federalState":{"key":"09","name":"Bayern"}},{"name":"Lindenstr.","postalCode":"97828","locality":"Marktheidenfeld","municipality":{"key":"09677157","name":"Marktheidenfeld, St","type":"Stadt"},"district":{"key":"09677","name":"Main-Spessart","type":"Landkreis"},"federalState":{"key":"09","name":"Bayern"}},{"name":"Lohgraben","postalCode":"97828","locality":"Marktheidenfeld","municipality":{"key":"09677157","name":"Marktheidenfeld, St","type":"Stadt"},"district":{"key":"09677","name":"Main-Spessart","type":"Landkreis"},"federalState":{"key":"09","name":"Bayern"}},{"name":"Löwensteinstr.","postalCode":"97828","locality":"Marktheidenfeld","municipality":{"key":"09677157","name":"Marktheidenfeld, St","type":"Stadt"},"district":{"key":"09677","name":"Main-Spessart","type":"Landkreis"},"federalState":{"key":"09","name":"Bayern"}},{"name":"Ludwigstr.","postalCode":"97828","locality":"Marktheidenfeld","municipality":{"key":"09677157","name":"Marktheidenfeld, St","type":"Stadt"},"district":{"key":"09677","name":"Main-Spessart","type":"Landkreis"},"federalState":{"key":"09","name":"Bayern"}},{"name":"Luitpoldstr.","postalCode":"97828","locality":"Marktheidenfeld","municipality":{"key":"09677157","name":"Marktheidenfeld, St","type":"Stadt"},"district":{"key":"09677","name":"Main-Spessart","type":"Landkreis"},"federalState":{"key":"09","name":"Bayern"}},{"name":"Mainbergstr.","postalCode":"97828","locality":"Marktheidenfeld","municipality":{"key":"09677157","name":"Marktheidenfeld, St","type":"Stadt"},"district":{"key":"09677","name":"Main-Spessart","type":"Landkreis"},"federalState":{"key":"09","name":"Bayern"}},{"name":"Mainkai","postalCode":"97828","locality":"Marktheidenfeld","municipality":{"key":"09677157","name":"Marktheidenfeld, St","type":"Stadt"},"district":{"key":"09677","name":"Main-Spessart","type":"Landkreis"},"federalState":{"key":"09","name":"Bayern"}},{"name":"Mainstr.","postalCode":"97828","locality":"Marktheidenfeld","municipality":{"key":"09677157","name":"Marktheidenfeld, St","type":"Stadt"},"district":{"key":"09677","name":"Main-Spessart","type":"Landkreis"},"federalState":{"key":"09","name":"Bayern"}},{"name":"Marktheidenfelder Str.","postalCode":"97837","locality":"Erlenbach b. Marktheidenfeld","municipality":{"key":"09677125","name":"Erlenbach b.Marktheidenfeld","type":"Kreisangehörige_Gemeinde"},"district":{"key":"09677","name":"Main-Spessart","type":"Landkreis"},"federalState":{"key":"09","name":"Bayern"}},{"name":"Martenkreuzweg","postalCode":"97837","locality":"Erlenbach b. Marktheidenfeld","municipality":{"key":"09677125","name":"Erlenbach b.Marktheidenfeld","type":"Kreisangehörige_Gemeinde"},"district":{"key":"09677","name":"Main-Spessart","type":"Landkreis"},"federalState":{"key":"09","name":"Bayern"}},{"name":"Martinstr.","postalCode":"97828","locality":"Marktheidenfeld","municipality":{"key":"09677157","name":"Marktheidenfeld, St","type":"Stadt"},"district":{"key":"09677","name":"Main-Spessart","type":"Landkreis"},"federalState":{"key":"09","name":"Bayern"}},{"name":"Märzweg","postalCode":"97828","locality":"Marktheidenfeld","municipality":{"key":"09677157","name":"Marktheidenfeld, St","type":"Stadt"},"district":{"key":"09677","name":"Main-Spessart","type":"Landkreis"},"federalState":{"key":"09","name":"Bayern"}},{"name":"Matthias-Ehrenfried-Str.","postalCode":"97828","locality":"Marktheidenfeld","municipality":{"key":"09677157","name":"Marktheidenfeld, St","type":"Stadt"},"district":{"key":"09677","name":"Main-Spessart","type":"Landkreis"},"federalState":{"key":"09","name":"Bayern"}},{"name":"Max-Braun-Str.","postalCode":"97828","locality":"Marktheidenfeld","municipality":{"key":"09677157","name":"Marktheidenfeld, St","type":"Stadt"},"district":{"key":"09677","name":"Main-Spessart","type":"Landkreis"},"federalState":{"key":"09","name":"Bayern"}},{"name":"Michelriether Str.","postalCode":"97828","locality":"Marktheidenfeld","municipality":{"key":"09677157","name":"Marktheidenfeld, St","type":"Stadt"},"district":{"key":"09677","name":"Main-Spessart","type":"Landkreis"},"federalState":{"key":"09","name":"Bayern"}},{"name":"Mittelstr.","postalCode":"97828","locality":"Marktheidenfeld","municipality":{"key":"09677157","name":"Marktheidenfeld, St","type":"Stadt"},"district":{"key":"09677","name":"Main-Spessart","type":"Landkreis"},"federalState":{"key":"09","name":"Bayern"}},{"name":"Mitteltorstr.","postalCode":"97828","locality":"Marktheidenfeld","municipality":{"key":"09677157","name":"Marktheidenfeld, St","type":"Stadt"},"district":{"key":"09677","name":"Main-Spessart","type":"Landkreis"},"federalState":{"key":"09","name":"Bayern"}},{"name":"Montfortstr.","postalCode":"97828","locality":"Marktheidenfeld","municipality":{"key":"09677157","name":"Marktheidenfeld, St","type":"Stadt"},"district":{"key":"09677","name":"Main-Spessart","type":"Landkreis"},"federalState":{"key":"09","name":"Bayern"}},{"name":"Mühlenstr.","postalCode":"97828","locality":"Marktheidenfeld","municipality":{"key":"09677157","name":"Marktheidenfeld, St","type":"Stadt"},"district":{"key":"09677","name":"Main-Spessart","type":"Landkreis"},"federalState":{"key":"09","name":"Bayern"}},{"name":"Mühlenweg","postalCode":"97837","locality":"Erlenbach b. Marktheidenfeld","municipality":{"key":"09677125","name":"Erlenbach b.Marktheidenfeld","type":"Kreisangehörige_Gemeinde"},"district":{"key":"09677","name":"Main-Spessart","type":"Landkreis"},"federalState":{"key":"09","name":"Bayern"}},{"name":"Neuwiesenstr.","postalCode":"97828","locality":"Marktheidenfeld","municipality":{"key":"09677157","name":"Marktheidenfeld, St","type":"Stadt"},"district":{"key":"09677","name":"Main-Spessart","type":"Landkreis"},"federalState":{"key":"09","name":"Bayern"}},{"name":"Nordring","postalCode":"97828","locality":"Marktheidenfeld","municipality":{"key":"09677157","name":"Marktheidenfeld, St","type":"Stadt"},"district":{"key":"09677","name":"Main-Spessart","type":"Landkreis"},"federalState":{"key":"09","name":"Bayern"}},{"name":"Obere Gasse","postalCode":"97828","locality":"Marktheidenfeld","municipality":{"key":"09677157","name":"Marktheidenfeld, St","type":"Stadt"},"district":{"key":"09677","name":"Main-Spessart","type":"Landkreis"},"federalState":{"key":"09","name":"Bayern"}},{"name":"Obere Gasse","postalCode":"97837","locality":"Erlenbach b. Marktheidenfeld","municipality":{"key":"09677125","name":"Erlenbach b.Marktheidenfeld","type":"Kreisangehörige_Gemeinde"},"district":{"key":"09677","name":"Main-Spessart","type":"Landkreis"},"federalState":{"key":"09","name":"Bayern"}},{"name":"Oberländerstr.","postalCode":"97828","locality":"Marktheidenfeld","municipality":{"key":"09677157","name":"Marktheidenfeld, St","type":"Stadt"},"district":{"key":"09677","name":"Main-Spessart","type":"Landkreis"},"federalState":{"key":"09","name":"Bayern"}},{"name":"Obertor","postalCode":"97837","locality":"Erlenbach b. Marktheidenfeld","municipality":{"key":"09677125","name":"Erlenbach b.Marktheidenfeld","type":"Kreisangehörige_Gemeinde"},"district":{"key":"09677","name":"Main-Spessart","type":"Landkreis"},"federalState":{"key":"09","name":"Bayern"}},{"name":"Obertorstr.","postalCode":"97828","locality":"Marktheidenfeld","municipality":{"key":"09677157","name":"Marktheidenfeld, St","type":"Stadt"},"district":{"key":"09677","name":"Main-Spessart","type":"Landkreis"},"federalState":{"key":"09","name":"Bayern"}},{"name":"Ostlandstr.","postalCode":"97828","locality":"Marktheidenfeld","municipality":{"key":"09677157","name":"Marktheidenfeld, St","type":"Stadt"},"district":{"key":"09677","name":"Main-Spessart","type":"Landkreis"},"federalState":{"key":"09","name":"Bayern"}},{"name":"Petzoltstr.","postalCode":"97828","locality":"Marktheidenfeld","municipality":{"key":"09677157","name":"Marktheidenfeld, St","type":"Stadt"},"district":{"key":"09677","name":"Main-Spessart","type":"Landkreis"},"federalState":{"key":"09","name":"Bayern"}},{"name":"Pommernstr.","postalCode":"97828","locality":"Marktheidenfeld","municipality":{"key":"09677157","name":"Marktheidenfeld, St","type":"Stadt"},"district":{"key":"09677","name":"Main-Spessart","type":"Landkreis"},"federalState":{"key":"09","name":"Bayern"}},{"name":"Raiffeisenstr.","postalCode":"97837","locality":"Erlenbach b. Marktheidenfeld","municipality":{"key":"09677125","name":"Erlenbach b.Marktheidenfeld","type":"Kreisangehörige_Gemeinde"},"district":{"key":"09677","name":"Main-Spessart","type":"Landkreis"},"federalState":{"key":"09","name":"Bayern"}},{"name":"Raymund-Schmitt-Str.","postalCode":"97828","locality":"Marktheidenfeld","municipality":{"key":"09677157","name":"Marktheidenfeld, St","type":"Stadt"},"district":{"key":"09677","name":"Main-Spessart","type":"Landkreis"},"federalState":{"key":"09","name":"Bayern"}},{"name":"Reußenberg","postalCode":"97837","locality":"Erlenbach b. Marktheidenfeld","municipality":{"key":"09677125","name":"Erlenbach b.Marktheidenfeld","type":"Kreisangehörige_Gemeinde"},"district":{"key":"09677","name":"Main-Spessart","type":"Landkreis"},"federalState":{"key":"09","name":"Bayern"}},{"name":"Ringstr.","postalCode":"97828","locality":"Marktheidenfeld","municipality":{"key":"09677157","name":"Marktheidenfeld, St","type":"Stadt"},"district":{"key":"09677","name":"Main-Spessart","type":"Landkreis"},"federalState":{"key":"09","name":"Bayern"}},{"name":"Ringweg","postalCode":"97837","locality":"Erlenbach b. Marktheidenfeld","municipality":{"key":"09677125","name":"Erlenbach b.Marktheidenfeld","type":"Kreisangehörige_Gemeinde"},"district":{"key":"09677","name":"Main-Spessart","type":"Landkreis"},"federalState":{"key":"09","name":"Bayern"}},{"name":"Robert-Koch-Str.","postalCode":"97828","locality":"Marktheidenfeld","municipality":{"key":"09677157","name":"Marktheidenfeld, St","type":"Stadt"},"district":{"key":"09677","name":"Main-Spessart","type":"Landkreis"},"federalState":{"key":"09","name":"Bayern"}},{"name":"Rodener Str.","postalCode":"97828","locality":"Marktheidenfeld","municipality":{"key":"09677157","name":"Marktheidenfeld, St","type":"Stadt"},"district":{"key":"09677","name":"Main-Spessart","type":"Landkreis"},"federalState":{"key":"09","name":"Bayern"}},{"name":"Rodgasse","postalCode":"97828","locality":"Marktheidenfeld","municipality":{"key":"09677157","name":"Marktheidenfeld, St","type":"Stadt"},"district":{"key":"09677","name":"Main-Spessart","type":"Landkreis"},"federalState":{"key":"09","name":"Bayern"}},{"name":"Rombergweg","postalCode":"97828","locality":"Marktheidenfeld","municipality":{"key":"09677157","name":"Marktheidenfeld, St","type":"Stadt"},"district":{"key":"09677","name":"Main-Spessart","type":"Landkreis"},"federalState":{"key":"09","name":"Bayern"}},{"name":"Römerstr.","postalCode":"97828","locality":"Marktheidenfeld","municipality":{"key":"09677157","name":"Marktheidenfeld, St","type":"Stadt"},"district":{"key":"09677","name":"Main-Spessart","type":"Landkreis"},"federalState":{"key":"09","name":"Bayern"}},{"name":"Rotkreuzstr.","postalCode":"97828","locality":"Marktheidenfeld","municipality":{"key":"09677157","name":"Marktheidenfeld, St","type":"Stadt"},"district":{"key":"09677","name":"Main-Spessart","type":"Landkreis"},"federalState":{"key":"09","name":"Bayern"}},{"name":"Rupert-Mayer-Str.","postalCode":"97828","locality":"Marktheidenfeld","municipality":{"key":"09677157","name":"Marktheidenfeld, St","type":"Stadt"},"district":{"key":"09677","name":"Main-Spessart","type":"Landkreis"},"federalState":{"key":"09","name":"Bayern"}},{"name":"Schellstr.","postalCode":"97828","locality":"Marktheidenfeld","municipality":{"key":"09677157","name":"Marktheidenfeld, St","type":"Stadt"},"district":{"key":"09677","name":"Main-Spessart","type":"Landkreis"},"federalState":{"key":"09","name":"Bayern"}},{"name":"Schenkgasse","postalCode":"97828","locality":"Marktheidenfeld","municipality":{"key":"09677157","name":"Marktheidenfeld, St","type":"Stadt"},"district":{"key":"09677","name":"Main-Spessart","type":"Landkreis"},"federalState":{"key":"09","name":"Bayern"}},{"name":"Schillerstr.","postalCode":"97828","locality":"Marktheidenfeld","municipality":{"key":"09677157","name":"Marktheidenfeld, St","type":"Stadt"},"district":{"key":"09677","name":"Main-Spessart","type":"Landkreis"},"federalState":{"key":"09","name":"Bayern"}},{"name":"Schlesienstr.","postalCode":"97828","locality":"Marktheidenfeld","municipality":{"key":"09677157","name":"Marktheidenfeld, St","type":"Stadt"},"district":{"key":"09677","name":"Main-Spessart","type":"Landkreis"},"federalState":{"key":"09","name":"Bayern"}},{"name":"Schmiedsecke","postalCode":"97828","locality":"Marktheidenfeld","municipality":{"key":"09677157","name":"Marktheidenfeld, St","type":"Stadt"},"district":{"key":"09677","name":"Main-Spessart","type":"Landkreis"},"federalState":{"key":"09","name":"Bayern"}},{"name":"Schulstr.","postalCode":"97828","locality":"Marktheidenfeld","municipality":{"key":"09677157","name":"Marktheidenfeld, St","type":"Stadt"},"district":{"key":"09677","name":"Main-Spessart","type":"Landkreis"},"federalState":{"key":"09","name":"Bayern"}},{"name":"Schulstr.","postalCode":"97837","locality":"Erlenbach b. Marktheidenfeld","municipality":{"key":"09677125","name":"Erlenbach b.Marktheidenfeld","type":"Kreisangehörige_Gemeinde"},"district":{"key":"09677","name":"Main-Spessart","type":"Landkreis"},"federalState":{"key":"09","name":"Bayern"}},{"name":"Schützenhausstr.","postalCode":"97828","locality":"Marktheidenfeld","municipality":{"key":"09677157","name":"Marktheidenfeld, St","type":"Stadt"},"district":{"key":"09677","name":"Main-Spessart","type":"Landkreis"},"federalState":{"key":"09","name":"Bayern"}},{"name":"Schwabenstr.","postalCode":"97828","locality":"Marktheidenfeld","municipality":{"key":"09677157","name":"Marktheidenfeld, St","type":"Stadt"},"district":{"key":"09677","name":"Main-Spessart","type":"Landkreis"},"federalState":{"key":"09","name":"Bayern"}},{"name":"Sedelbauerstr.","postalCode":"97828","locality":"Marktheidenfeld","municipality":{"key":"09677157","name":"Marktheidenfeld, St","type":"Stadt"},"district":{"key":"09677","name":"Main-Spessart","type":"Landkreis"},"federalState":{"key":"09","name":"Bayern"}},{"name":"Söllershöhe","postalCode":"97828","locality":"Marktheidenfeld","municipality":{"key":"09677157","name":"Marktheidenfeld, St","type":"Stadt"},"district":{"key":"09677","name":"Main-Spessart","type":"Landkreis"},"federalState":{"key":"09","name":"Bayern"}},{"name":"Sonnenstr.","postalCode":"97828","locality":"Marktheidenfeld","municipality":{"key":"09677157","name":"Marktheidenfeld, St","type":"Stadt"},"district":{"key":"09677","name":"Main-Spessart","type":"Landkreis"},"federalState":{"key":"09","name":"Bayern"}},{"name":"Sonnenstr.","postalCode":"97837","locality":"Erlenbach b. Marktheidenfeld","municipality":{"key":"09677125","name":"Erlenbach b.Marktheidenfeld","type":"Kreisangehörige_Gemeinde"},"district":{"key":"09677","name":"Main-Spessart","type":"Landkreis"},"federalState":{"key":"09","name":"Bayern"}},{"name":"Spechtstr.","postalCode":"97828","locality":"Marktheidenfeld","municipality":{"key":"09677157","name":"Marktheidenfeld, St","type":"Stadt"},"district":{"key":"09677","name":"Main-Spessart","type":"Landkreis"},"federalState":{"key":"09","name":"Bayern"}},{"name":"Spessartstr.","postalCode":"97828","locality":"Marktheidenfeld","municipality":{"key":"09677157","name":"Marktheidenfeld, St","type":"Stadt"},"district":{"key":"09677","name":"Main-Spessart","type":"Landkreis"},"federalState":{"key":"09","name":"Bayern"}},{"name":"Spessartstr.","postalCode":"97837","locality":"Erlenbach b. Marktheidenfeld","municipality":{"key":"09677125","name":"Erlenbach b.Marktheidenfeld","type":"Kreisangehörige_Gemeinde"},"district":{"key":"09677","name":"Main-Spessart","type":"Landkreis"},"federalState":{"key":"09","name":"Bayern"}},{"name":"Stadtgärtchen","postalCode":"97828","locality":"Marktheidenfeld","municipality":{"key":"09677157","name":"Marktheidenfeld, St","type":"Stadt"},"district":{"key":"09677","name":"Main-Spessart","type":"Landkreis"},"federalState":{"key":"09","name":"Bayern"}},{"name":"Stadtmauergässchen","postalCode":"97828","locality":"Marktheidenfeld","municipality":{"key":"09677157","name":"Marktheidenfeld, St","type":"Stadt"},"district":{"key":"09677","name":"Main-Spessart","type":"Landkreis"},"federalState":{"key":"09","name":"Bayern"}},{"name":"Staudenweg","postalCode":"97828","locality":"Marktheidenfeld","municipality":{"key":"09677157","name":"Marktheidenfeld, St","type":"Stadt"},"district":{"key":"09677","name":"Main-Spessart","type":"Landkreis"},"federalState":{"key":"09","name":"Bayern"}},{"name":"Stauffenbergring","postalCode":"97828","locality":"Marktheidenfeld","municipality":{"key":"09677157","name":"Marktheidenfeld, St","type":"Stadt"},"district":{"key":"09677","name":"Main-Spessart","type":"Landkreis"},"federalState":{"key":"09","name":"Bayern"}},{"name":"Stiergasse","postalCode":"97828","locality":"Marktheidenfeld","municipality":{"key":"09677157","name":"Marktheidenfeld, St","type":"Stadt"},"district":{"key":"09677","name":"Main-Spessart","type":"Landkreis"},"federalState":{"key":"09","name":"Bayern"}},{"name":"Strumpfgasse","postalCode":"97837","locality":"Erlenbach b. Marktheidenfeld","municipality":{"key":"09677125","name":"Erlenbach b.Marktheidenfeld","type":"Kreisangehörige_Gemeinde"},"district":{"key":"09677","name":"Main-Spessart","type":"Landkreis"},"federalState":{"key":"09","name":"Bayern"}},{"name":"Sudetenstr.","postalCode":"97828","locality":"Marktheidenfeld","municipality":{"key":"09677157","name":"Marktheidenfeld, St","type":"Stadt"},"district":{"key":"09677","name":"Main-Spessart","type":"Landkreis"},"federalState":{"key":"09","name":"Bayern"}},{"name":"Südring","postalCode":"97828","locality":"Marktheidenfeld","municipality":{"key":"09677157","name":"Marktheidenfeld, St","type":"Stadt"},"district":{"key":"09677","name":"Main-Spessart","type":"Landkreis"},"federalState":{"key":"09","name":"Bayern"}},{"name":"Tannäckerstr.","postalCode":"97828","locality":"Marktheidenfeld","municipality":{"key":"09677157","name":"Marktheidenfeld, St","type":"Stadt"},"district":{"key":"09677","name":"Main-Spessart","type":"Landkreis"},"federalState":{"key":"09","name":"Bayern"}},{"name":"Tannenstr.","postalCode":"97828","locality":"Marktheidenfeld","municipality":{"key":"09677157","name":"Marktheidenfeld, St","type":"Stadt"},"district":{"key":"09677","name":"Main-Spessart","type":"Landkreis"},"federalState":{"key":"09","name":"Bayern"}},{"name":"Theodor-Heuss-Str.","postalCode":"97828","locality":"Marktheidenfeld","municipality":{"key":"09677157","name":"Marktheidenfeld, St","type":"Stadt"},"district":{"key":"09677","name":"Main-Spessart","type":"Landkreis"},"federalState":{"key":"09","name":"Bayern"}},{"name":"Triefensteiner Str.","postalCode":"97828","locality":"Marktheidenfeld","municipality":{"key":"09677157","name":"Marktheidenfeld, St","type":"Stadt"},"district":{"key":"09677","name":"Main-Spessart","type":"Landkreis"},"federalState":{"key":"09","name":"Bayern"}},{"name":"Udo-Lermann-Str.","postalCode":"97828","locality":"Marktheidenfeld","municipality":{"key":"09677157","name":"Marktheidenfeld, St","type":"Stadt"},"district":{"key":"09677","name":"Main-Spessart","type":"Landkreis"},"federalState":{"key":"09","name":"Bayern"}},{"name":"Ulrich-Willer-Str.","postalCode":"97828","locality":"Marktheidenfeld","municipality":{"key":"09677157","name":"Marktheidenfeld, St","type":"Stadt"},"district":{"key":"09677","name":"Main-Spessart","type":"Landkreis"},"federalState":{"key":"09","name":"Bayern"}},{"name":"Untere Allee","postalCode":"97828","locality":"Marktheidenfeld","municipality":{"key":"09677157","name":"Marktheidenfeld, St","type":"Stadt"},"district":{"key":"09677","name":"Main-Spessart","type":"Landkreis"},"federalState":{"key":"09","name":"Bayern"}},{"name":"Untere Brückenstr.","postalCode":"97828","locality":"Marktheidenfeld","municipality":{"key":"09677157","name":"Marktheidenfeld, St","type":"Stadt"},"district":{"key":"09677","name":"Main-Spessart","type":"Landkreis"},"federalState":{"key":"09","name":"Bayern"}},{"name":"Untere Gasse","postalCode":"97828","locality":"Marktheidenfeld","municipality":{"key":"09677157","name":"Marktheidenfeld, St","type":"Stadt"},"district":{"key":"09677","name":"Main-Spessart","type":"Landkreis"},"federalState":{"key":"09","name":"Bayern"}},{"name":"Untertor","postalCode":"97837","locality":"Erlenbach b. Marktheidenfeld","municipality":{"key":"09677125","name":"Erlenbach b.Marktheidenfeld","type":"Kreisangehörige_Gemeinde"},"district":{"key":"09677","name":"Main-Spessart","type":"Landkreis"},"federalState":{"key":"09","name":"Bayern"}},{"name":"Untertorstr.","postalCode":"97828","locality":"Marktheidenfeld","municipality":{"key":"09677157","name":"Marktheidenfeld, St","type":"Stadt"},"district":{"key":"09677","name":"Main-Spessart","type":"Landkreis"},"federalState":{"key":"09","name":"Bayern"}},{"name":"Vorderbergstr.","postalCode":"97828","locality":"Marktheidenfeld","municipality":{"key":"09677157","name":"Marktheidenfeld, St","type":"Stadt"},"district":{"key":"09677","name":"Main-Spessart","type":"Landkreis"},"federalState":{"key":"09","name":"Bayern"}},{"name":"Waaggasse","postalCode":"97837","locality":"Erlenbach b. Marktheidenfeld","municipality":{"key":"09677125","name":"Erlenbach b.Marktheidenfeld","type":"Kreisangehörige_Gemeinde"},"district":{"key":"09677","name":"Main-Spessart","type":"Landkreis"},"federalState":{"key":"09","name":"Bayern"}},{"name":"Wachengrundstr.","postalCode":"97828","locality":"Marktheidenfeld","municipality":{"key":"09677157","name":"Marktheidenfeld, St","type":"Stadt"},"district":{"key":"09677","name":"Main-Spessart","type":"Landkreis"},"federalState":{"key":"09","name":"Bayern"}},{"name":"Walburg-Egerer-Str.","postalCode":"97828","locality":"Marktheidenfeld","municipality":{"key":"09677157","name":"Marktheidenfeld, St","type":"Stadt"},"district":{"key":"09677","name":"Main-Spessart","type":"Landkreis"},"federalState":{"key":"09","name":"Bayern"}},{"name":"Waldstr.","postalCode":"97828","locality":"Marktheidenfeld","municipality":{"key":"09677157","name":"Marktheidenfeld, St","type":"Stadt"},"district":{"key":"09677","name":"Main-Spessart","type":"Landkreis"},"federalState":{"key":"09","name":"Bayern"}},{"name":"Wasserweg","postalCode":"97837","locality":"Erlenbach b. Marktheidenfeld","municipality":{"key":"09677125","name":"Erlenbach b.Marktheidenfeld","type":"Kreisangehörige_Gemeinde"},"district":{"key":"09677","name":"Main-Spessart","type":"Landkreis"},"federalState":{"key":"09","name":"Bayern"}},{"name":"Weinbergstr.","postalCode":"97837","locality":"Erlenbach b. Marktheidenfeld","municipality":{"key":"09677125","name":"Erlenbach b.Marktheidenfeld","type":"Kreisangehörige_Gemeinde"},"district":{"key":"09677","name":"Main-Spessart","type":"Landkreis"},"federalState":{"key":"09","name":"Bayern"}},{"name":"Wengertsteg","postalCode":"97828","locality":"Marktheidenfeld","municipality":{"key":"09677157","name":"Marktheidenfeld, St","type":"Stadt"},"district":{"key":"09677","name":"Main-Spessart","type":"Landkreis"},"federalState":{"key":"09","name":"Bayern"}},{"name":"Wertheimer Str.","postalCode":"97828","locality":"Marktheidenfeld","municipality":{"key":"09677157","name":"Marktheidenfeld, St","type":"Stadt"},"district":{"key":"09677","name":"Main-Spessart","type":"Landkreis"},"federalState":{"key":"09","name":"Bayern"}},{"name":"Wethgasse","postalCode":"97837","locality":"Erlenbach b. Marktheidenfeld","municipality":{"key":"09677125","name":"Erlenbach b.Marktheidenfeld","type":"Kreisangehörige_Gemeinde"},"district":{"key":"09677","name":"Main-Spessart","type":"Landkreis"},"federalState":{"key":"09","name":"Bayern"}},{"name":"Wiesenweg","postalCode":"97828","locality":"Marktheidenfeld","municipality":{"key":"09677157","name":"Marktheidenfeld, St","type":"Stadt"},"district":{"key":"09677","name":"Main-Spessart","type":"Landkreis"},"federalState":{"key":"09","name":"Bayern"}},{"name":"Wiesenweg","postalCode":"97837","locality":"Erlenbach b. Marktheidenfeld","municipality":{"key":"09677125","name":"Erlenbach b.Marktheidenfeld","type":"Kreisangehörige_Gemeinde"},"district":{"key":"09677","name":"Main-Spessart","type":"Landkreis"},"federalState":{"key":"09","name":"Bayern"}},{"name":"Wilhelm-Conrad-Röntgen-Ring","postalCode":"97828","locality":"Marktheidenfeld","municipality":{"key":"09677157","name":"Marktheidenfeld, St","type":"Stadt"},"district":{"key":"09677","name":"Main-Spessart","type":"Landkreis"},"federalState":{"key":"09","name":"Bayern"}},{"name":"Winterleitenweg","postalCode":"97837","locality":"Erlenbach b. Marktheidenfeld","municipality":{"key":"09677125","name":"Erlenbach b.Marktheidenfeld","type":"Kreisangehörige_Gemeinde"},"district":{"key":"09677","name":"Main-Spessart","type":"Landkreis"},"federalState":{"key":"09","name":"Bayern"}},{"name":"Winzerstr.","postalCode":"97837","locality":"Erlenbach b. Marktheidenfeld","municipality":{"key":"09677125","name":"Erlenbach b.Marktheidenfeld","type":"Kreisangehörige_Gemeinde"},"district":{"key":"09677","name":"Main-Spessart","type":"Landkreis"},"federalState":{"key":"09","name":"Bayern"}},{"name":"Wittbachstr.","postalCode":"97828","locality":"Marktheidenfeld","municipality":{"key":"09677157","name":"Marktheidenfeld, St","type":"Stadt"},"district":{"key":"09677","name":"Main-Spessart","type":"Landkreis"},"federalState":{"key":"09","name":"Bayern"}},{"name":"Wolfgang-Amadeus-Mozart-Str.","postalCode":"97828","locality":"Marktheidenfeld","municipality":{"key":"09677157","name":"Marktheidenfeld, St","type":"Stadt"},"district":{"key":"09677","name":"Main-Spessart","type":"Landkreis"},"federalState":{"key":"09","name":"Bayern"}},{"name":"Würzburger Str.","postalCode":"97828","locality":"Marktheidenfeld","municipality":{"key":"09677157","name":"Marktheidenfeld, St","type":"Stadt"},"district":{"key":"09677","name":"Main-Spessart","type":"Landkreis"},"federalState":{"key":"09","name":"Bayern"}},{"name":"Würzburger Str.","postalCode":"97837","locality":"Erlenbach b. Marktheidenfeld","municipality":{"key":"09677125","name":"Erlenbach b.Marktheidenfeld","type":"Kreisangehörige_Gemeinde"},"district":{"key":"09677","name":"Main-Spessart","type":"Landkreis"},"federalState":{"key":"09","name":"Bayern"}},{"name":"Zum Friedhof","postalCode":"97828","locality":"Marktheidenfeld","municipality":{"key":"09677157","name":"Marktheidenfeld, St","type":"Stadt"},"district":{"key":"09677","name":"Main-Spessart","type":"Landkreis"},"federalState":{"key":"09","name":"Bayern"}},{"name":"Zum Krähenschnabel","postalCode":"97837","locality":"Erlenbach b. Marktheidenfeld","municipality":{"key":"09677125","name":"Erlenbach b.Marktheidenfeld","type":"Kreisangehörige_Gemeinde"},"district":{"key":"09677","name":"Main-Spessart","type":"Landkreis"},"federalState":{"key":"09","name":"Bayern"}},{"name":"Äußerer Ring","postalCode":"97828","locality":"Marktheidenfeld","municipality":{"key":"09677157","name":"Marktheidenfeld, St","type":"Stadt"},"district":{"key":"09677","name":"Main-Spessart","type":"Landkreis"},"federalState":{"key":"09","name":"Bayern"}},]