[{"name":"Am Riedweg","postalCode":"67822","locality":"Niederhausen an der Appel","municipality":{"key":"07333050","name":"Niederhausen an der Appel","type":"Kreisangehörige_Gemeinde"},"district":{"key":"07333","name":"Donnersbergkreis","type":"Landkreis"},"federalState":{"key":"07","name":"Rheinland-Pfalz"}},{"name":"Berschied","postalCode":"67822","locality":"Niederhausen an der Appel","municipality":{"key":"07333050","name":"Niederhausen an der Appel","type":"Kreisangehörige_Gemeinde"},"district":{"key":"07333","name":"Donnersbergkreis","type":"Landkreis"},"federalState":{"key":"07","name":"Rheinland-Pfalz"}},{"name":"Borngasse","postalCode":"67822","locality":"Niederhausen an der Appel","municipality":{"key":"07333050","name":"Niederhausen an der Appel","type":"Kreisangehörige_Gemeinde"},"district":{"key":"07333","name":"Donnersbergkreis","type":"Landkreis"},"federalState":{"key":"07","name":"Rheinland-Pfalz"}},{"name":"Eckstr.","postalCode":"67822","locality":"Niederhausen an der Appel","municipality":{"key":"07333050","name":"Niederhausen an der Appel","type":"Kreisangehörige_Gemeinde"},"district":{"key":"07333","name":"Donnersbergkreis","type":"Landkreis"},"federalState":{"key":"07","name":"Rheinland-Pfalz"}},{"name":"Elscht","postalCode":"67822","locality":"Niederhausen an der Appel","municipality":{"key":"07333050","name":"Niederhausen an der Appel","type":"Kreisangehörige_Gemeinde"},"district":{"key":"07333","name":"Donnersbergkreis","type":"Landkreis"},"federalState":{"key":"07","name":"Rheinland-Pfalz"}},{"name":"Hauptstr.","postalCode":"67822","locality":"Niederhausen an der Appel","municipality":{"key":"07333050","name":"Niederhausen an der Appel","type":"Kreisangehörige_Gemeinde"},"district":{"key":"07333","name":"Donnersbergkreis","type":"Landkreis"},"federalState":{"key":"07","name":"Rheinland-Pfalz"}},{"name":"Homberg","postalCode":"67822","locality":"Niederhausen an der Appel","municipality":{"key":"07333050","name":"Niederhausen an der Appel","type":"Kreisangehörige_Gemeinde"},"district":{"key":"07333","name":"Donnersbergkreis","type":"Landkreis"},"federalState":{"key":"07","name":"Rheinland-Pfalz"}},{"name":"Neideck","postalCode":"67822","locality":"Niederhausen an der Appel","municipality":{"key":"07333050","name":"Niederhausen an der Appel","type":"Kreisangehörige_Gemeinde"},"district":{"key":"07333","name":"Donnersbergkreis","type":"Landkreis"},"federalState":{"key":"07","name":"Rheinland-Pfalz"}},{"name":"Römer","postalCode":"67822","locality":"Niederhausen an der Appel","municipality":{"key":"07333050","name":"Niederhausen an der Appel","type":"Kreisangehörige_Gemeinde"},"district":{"key":"07333","name":"Donnersbergkreis","type":"Landkreis"},"federalState":{"key":"07","name":"Rheinland-Pfalz"}},{"name":"Schulstr.","postalCode":"67822","locality":"Niederhausen an der Appel","municipality":{"key":"07333050","name":"Niederhausen an der Appel","type":"Kreisangehörige_Gemeinde"},"district":{"key":"07333","name":"Donnersbergkreis","type":"Landkreis"},"federalState":{"key":"07","name":"Rheinland-Pfalz"}},{"name":"Winterborner Str.","postalCode":"67822","locality":"Niederhausen an der Appel","municipality":{"key":"07333050","name":"Niederhausen an der Appel","type":"Kreisangehörige_Gemeinde"},"district":{"key":"07333","name":"Donnersbergkreis","type":"Landkreis"},"federalState":{"key":"07","name":"Rheinland-Pfalz"}},]