[{"name":"Adalbert-Stifter-Str.","postalCode":"82031","locality":"Grünwald","municipality":{"key":"09184122","name":"Grünwald","type":"Kreisangehörige_Gemeinde"},"district":{"key":"09184","name":"München","type":"Landkreis"},"federalState":{"key":"09","name":"Bayern"}},{"name":"Adolf-Fraaß-Str.","postalCode":"82031","locality":"Grünwald","municipality":{"key":"09184122","name":"Grünwald","type":"Kreisangehörige_Gemeinde"},"district":{"key":"09184","name":"München","type":"Landkreis"},"federalState":{"key":"09","name":"Bayern"}},{"name":"Akazienallee","postalCode":"82031","locality":"Grünwald","municipality":{"key":"09184122","name":"Grünwald","type":"Kreisangehörige_Gemeinde"},"district":{"key":"09184","name":"München","type":"Landkreis"},"federalState":{"key":"09","name":"Bayern"}},{"name":"Alexander-Schmorell-Str.","postalCode":"82031","locality":"Grünwald","municipality":{"key":"09184122","name":"Grünwald","type":"Kreisangehörige_Gemeinde"},"district":{"key":"09184","name":"München","type":"Landkreis"},"federalState":{"key":"09","name":"Bayern"}},{"name":"Almrauschstr.","postalCode":"82031","locality":"Grünwald","municipality":{"key":"09184122","name":"Grünwald","type":"Kreisangehörige_Gemeinde"},"district":{"key":"09184","name":"München","type":"Landkreis"},"federalState":{"key":"09","name":"Bayern"}},{"name":"Alpenveilchenstr.","postalCode":"82031","locality":"Grünwald","municipality":{"key":"09184122","name":"Grünwald","type":"Kreisangehörige_Gemeinde"},"district":{"key":"09184","name":"München","type":"Landkreis"},"federalState":{"key":"09","name":"Bayern"}},{"name":"Alpspitzstr.","postalCode":"82031","locality":"Grünwald","municipality":{"key":"09184122","name":"Grünwald","type":"Kreisangehörige_Gemeinde"},"district":{"key":"09184","name":"München","type":"Landkreis"},"federalState":{"key":"09","name":"Bayern"}},{"name":"Am Buchenhang","postalCode":"82031","locality":"Grünwald","municipality":{"key":"09184122","name":"Grünwald","type":"Kreisangehörige_Gemeinde"},"district":{"key":"09184","name":"München","type":"Landkreis"},"federalState":{"key":"09","name":"Bayern"}},{"name":"Am Daiacker","postalCode":"82031","locality":"Grünwald","municipality":{"key":"09184122","name":"Grünwald","type":"Kreisangehörige_Gemeinde"},"district":{"key":"09184","name":"München","type":"Landkreis"},"federalState":{"key":"09","name":"Bayern"}},{"name":"Am Düllanger","postalCode":"82031","locality":"Grünwald","municipality":{"key":"09184122","name":"Grünwald","type":"Kreisangehörige_Gemeinde"},"district":{"key":"09184","name":"München","type":"Landkreis"},"federalState":{"key":"09","name":"Bayern"}},{"name":"Am Fischerwinkel","postalCode":"82031","locality":"Grünwald","municipality":{"key":"09184122","name":"Grünwald","type":"Kreisangehörige_Gemeinde"},"district":{"key":"09184","name":"München","type":"Landkreis"},"federalState":{"key":"09","name":"Bayern"}},{"name":"Am Koglerberg","postalCode":"82031","locality":"Grünwald","municipality":{"key":"09184122","name":"Grünwald","type":"Kreisangehörige_Gemeinde"},"district":{"key":"09184","name":"München","type":"Landkreis"},"federalState":{"key":"09","name":"Bayern"}},{"name":"Am Mauerberg","postalCode":"82031","locality":"Grünwald","municipality":{"key":"09184122","name":"Grünwald","type":"Kreisangehörige_Gemeinde"},"district":{"key":"09184","name":"München","type":"Landkreis"},"federalState":{"key":"09","name":"Bayern"}},{"name":"Am Pfaffengraben","postalCode":"82031","locality":"Grünwald","municipality":{"key":"09184122","name":"Grünwald","type":"Kreisangehörige_Gemeinde"},"district":{"key":"09184","name":"München","type":"Landkreis"},"federalState":{"key":"09","name":"Bayern"}},{"name":"Am Unterfeld","postalCode":"82031","locality":"Grünwald","municipality":{"key":"09184122","name":"Grünwald","type":"Kreisangehörige_Gemeinde"},"district":{"key":"09184","name":"München","type":"Landkreis"},"federalState":{"key":"09","name":"Bayern"}},{"name":"Am Wildwechsel","postalCode":"82031","locality":"Grünwald","municipality":{"key":"09184122","name":"Grünwald","type":"Kreisangehörige_Gemeinde"},"district":{"key":"09184","name":"München","type":"Landkreis"},"federalState":{"key":"09","name":"Bayern"}},{"name":"An den Römerhügeln","postalCode":"82031","locality":"Grünwald","municipality":{"key":"09184122","name":"Grünwald","type":"Kreisangehörige_Gemeinde"},"district":{"key":"09184","name":"München","type":"Landkreis"},"federalState":{"key":"09","name":"Bayern"}},{"name":"Anemonenstr.","postalCode":"82031","locality":"Grünwald","municipality":{"key":"09184122","name":"Grünwald","type":"Kreisangehörige_Gemeinde"},"district":{"key":"09184","name":"München","type":"Landkreis"},"federalState":{"key":"09","name":"Bayern"}},{"name":"Auf der Eierwiese","postalCode":"82031","locality":"Grünwald","municipality":{"key":"09184122","name":"Grünwald","type":"Kreisangehörige_Gemeinde"},"district":{"key":"09184","name":"München","type":"Landkreis"},"federalState":{"key":"09","name":"Bayern"}},{"name":"Aurikelstr.","postalCode":"82031","locality":"Grünwald","municipality":{"key":"09184122","name":"Grünwald","type":"Kreisangehörige_Gemeinde"},"district":{"key":"09184","name":"München","type":"Landkreis"},"federalState":{"key":"09","name":"Bayern"}},{"name":"Baar Geräumt","postalCode":"82064","locality":"Grünwalder Forst","municipality":{"key":"09184454","name":"Grünwalder Forst","type":"Gemeindefreies_Gebiet_Unbewohnt"},"district":{"key":"09184","name":"München","type":"Landkreis"},"federalState":{"key":"09","name":"Bayern"}},{"name":"Barfußweg","postalCode":"82031","locality":"Grünwald","municipality":{"key":"09184122","name":"Grünwald","type":"Kreisangehörige_Gemeinde"},"district":{"key":"09184","name":"München","type":"Landkreis"},"federalState":{"key":"09","name":"Bayern"}},{"name":"Bavariafilmplatz","postalCode":"82031","locality":"Grünwald","municipality":{"key":"09184122","name":"Grünwald","type":"Kreisangehörige_Gemeinde"},"district":{"key":"09184","name":"München","type":"Landkreis"},"federalState":{"key":"09","name":"Bayern"}},{"name":"Bavariafilmstr.","postalCode":"82031","locality":"Grünwald","municipality":{"key":"09184122","name":"Grünwald","type":"Kreisangehörige_Gemeinde"},"district":{"key":"09184","name":"München","type":"Landkreis"},"federalState":{"key":"09","name":"Bayern"}},{"name":"Bergheimstr.","postalCode":"82031","locality":"Grünwald","municipality":{"key":"09184122","name":"Grünwald","type":"Kreisangehörige_Gemeinde"},"district":{"key":"09184","name":"München","type":"Landkreis"},"federalState":{"key":"09","name":"Bayern"}},{"name":"Bernd-Neumann-Platz","postalCode":"82031","locality":"Grünwald","municipality":{"key":"09184122","name":"Grünwald","type":"Kreisangehörige_Gemeinde"},"district":{"key":"09184","name":"München","type":"Landkreis"},"federalState":{"key":"09","name":"Bayern"}},{"name":"Birkenstr.","postalCode":"82031","locality":"Grünwald","municipality":{"key":"09184122","name":"Grünwald","type":"Kreisangehörige_Gemeinde"},"district":{"key":"09184","name":"München","type":"Landkreis"},"federalState":{"key":"09","name":"Bayern"}},{"name":"Bodenschneidstr.","postalCode":"82031","locality":"Grünwald","municipality":{"key":"09184122","name":"Grünwald","type":"Kreisangehörige_Gemeinde"},"district":{"key":"09184","name":"München","type":"Landkreis"},"federalState":{"key":"09","name":"Bayern"}},{"name":"Bomhardstr.","postalCode":"82031","locality":"Grünwald","municipality":{"key":"09184122","name":"Grünwald","type":"Kreisangehörige_Gemeinde"},"district":{"key":"09184","name":"München","type":"Landkreis"},"federalState":{"key":"09","name":"Bayern"}},{"name":"Breitensteinstr.","postalCode":"82031","locality":"Grünwald","municipality":{"key":"09184122","name":"Grünwald","type":"Kreisangehörige_Gemeinde"},"district":{"key":"09184","name":"München","type":"Landkreis"},"federalState":{"key":"09","name":"Bayern"}},{"name":"Brunnen-Geräumt","postalCode":"82064","locality":"Grünwalder Forst","municipality":{"key":"09184454","name":"Grünwalder Forst","type":"Gemeindefreies_Gebiet_Unbewohnt"},"district":{"key":"09184","name":"München","type":"Landkreis"},"federalState":{"key":"09","name":"Bayern"}},{"name":"Brunnwartsweg","postalCode":"82031","locality":"Grünwald","municipality":{"key":"09184122","name":"Grünwald","type":"Kreisangehörige_Gemeinde"},"district":{"key":"09184","name":"München","type":"Landkreis"},"federalState":{"key":"09","name":"Bayern"}},{"name":"Budick-Geräumt","postalCode":"82064","locality":"Grünwalder Forst","municipality":{"key":"09184454","name":"Grünwalder Forst","type":"Gemeindefreies_Gebiet_Unbewohnt"},"district":{"key":"09184","name":"München","type":"Landkreis"},"federalState":{"key":"09","name":"Bayern"}},{"name":"Camerloherstr.","postalCode":"80686","locality":"München","municipality":{"key":"09162000","name":"München, Landeshauptstadt","type":"Kreisfreie_Stadt"},"district":{"key":"09162","name":"München, Landeshauptstadt","type":"Kreisfreie_Stadt"},"federalState":{"key":"09","name":"Bayern"}},{"name":"Camerloherstr.","postalCode":"80689","locality":"München","municipality":{"key":"09162000","name":"München, Landeshauptstadt","type":"Kreisfreie_Stadt"},"district":{"key":"09162","name":"München, Landeshauptstadt","type":"Kreisfreie_Stadt"},"federalState":{"key":"09","name":"Bayern"}},{"name":"Canalettostr.","postalCode":"80638","locality":"München","municipality":{"key":"09162000","name":"München, Landeshauptstadt","type":"Kreisfreie_Stadt"},"district":{"key":"09162","name":"München, Landeshauptstadt","type":"Kreisfreie_Stadt"},"federalState":{"key":"09","name":"Bayern"}},{"name":"Candidstr.","postalCode":"81539","locality":"München","municipality":{"key":"09162000","name":"München, Landeshauptstadt","type":"Kreisfreie_Stadt"},"district":{"key":"09162","name":"München, Landeshauptstadt","type":"Kreisfreie_Stadt"},"federalState":{"key":"09","name":"Bayern"}},{"name":"Candidstr.","postalCode":"81543","locality":"München","municipality":{"key":"09162000","name":"München, Landeshauptstadt","type":"Kreisfreie_Stadt"},"district":{"key":"09162","name":"München, Landeshauptstadt","type":"Kreisfreie_Stadt"},"federalState":{"key":"09","name":"Bayern"}},{"name":"Candidstr.","postalCode":"81547","locality":"München","municipality":{"key":"09162000","name":"München, Landeshauptstadt","type":"Kreisfreie_Stadt"},"district":{"key":"09162","name":"München, Landeshauptstadt","type":"Kreisfreie_Stadt"},"federalState":{"key":"09","name":"Bayern"}},{"name":"Canisiusplatz","postalCode":"81377","locality":"München","municipality":{"key":"09162000","name":"München, Landeshauptstadt","type":"Kreisfreie_Stadt"},"district":{"key":"09162","name":"München, Landeshauptstadt","type":"Kreisfreie_Stadt"},"federalState":{"key":"09","name":"Bayern"}},{"name":"Canisiusstr.","postalCode":"81377","locality":"München","municipality":{"key":"09162000","name":"München, Landeshauptstadt","type":"Kreisfreie_Stadt"},"district":{"key":"09162","name":"München, Landeshauptstadt","type":"Kreisfreie_Stadt"},"federalState":{"key":"09","name":"Bayern"}},{"name":"Cannabichstr.","postalCode":"81543","locality":"München","municipality":{"key":"09162000","name":"München, Landeshauptstadt","type":"Kreisfreie_Stadt"},"district":{"key":"09162","name":"München, Landeshauptstadt","type":"Kreisfreie_Stadt"},"federalState":{"key":"09","name":"Bayern"}},{"name":"Caracciolastr.","postalCode":"80935","locality":"München","municipality":{"key":"09162000","name":"München, Landeshauptstadt","type":"Kreisfreie_Stadt"},"district":{"key":"09162","name":"München, Landeshauptstadt","type":"Kreisfreie_Stadt"},"federalState":{"key":"09","name":"Bayern"}},{"name":"Caramanicostr.","postalCode":"85551","locality":"Kirchheim bei München","municipality":{"key":"09184131","name":"Kirchheim b.München","type":"Kreisangehörige_Gemeinde"},"district":{"key":"09184","name":"München","type":"Landkreis"},"federalState":{"key":"09","name":"Bayern"}},{"name":"Carlamaria-Heim-Str.","postalCode":"80339","locality":"München","municipality":{"key":"09162000","name":"München, Landeshauptstadt","type":"Kreisfreie_Stadt"},"district":{"key":"09162","name":"München, Landeshauptstadt","type":"Kreisfreie_Stadt"},"federalState":{"key":"09","name":"Bayern"}},{"name":"Carl-Amery-Platz","postalCode":"81541","locality":"München","municipality":{"key":"09162000","name":"München, Landeshauptstadt","type":"Kreisfreie_Stadt"},"district":{"key":"09162","name":"München, Landeshauptstadt","type":"Kreisfreie_Stadt"},"federalState":{"key":"09","name":"Bayern"}},{"name":"Carl-August-Sckell-Weg","postalCode":"80538","locality":"München","municipality":{"key":"09162000","name":"München, Landeshauptstadt","type":"Kreisfreie_Stadt"},"district":{"key":"09162","name":"München, Landeshauptstadt","type":"Kreisfreie_Stadt"},"federalState":{"key":"09","name":"Bayern"}},{"name":"Carl-Baierl-Bogen","postalCode":"81739","locality":"München","municipality":{"key":"09162000","name":"München, Landeshauptstadt","type":"Kreisfreie_Stadt"},"district":{"key":"09162","name":"München, Landeshauptstadt","type":"Kreisfreie_Stadt"},"federalState":{"key":"09","name":"Bayern"}},{"name":"Carl-Hanser-Str.","postalCode":"81247","locality":"München","municipality":{"key":"09162000","name":"München, Landeshauptstadt","type":"Kreisfreie_Stadt"},"district":{"key":"09162","name":"München, Landeshauptstadt","type":"Kreisfreie_Stadt"},"federalState":{"key":"09","name":"Bayern"}},{"name":"Carl-Orff-Bogen","postalCode":"80939","locality":"München","municipality":{"key":"09162000","name":"München, Landeshauptstadt","type":"Kreisfreie_Stadt"},"district":{"key":"09162","name":"München, Landeshauptstadt","type":"Kreisfreie_Stadt"},"federalState":{"key":"09","name":"Bayern"}},{"name":"Carl-Orff-Str.","postalCode":"85551","locality":"Kirchheim bei München","municipality":{"key":"09184131","name":"Kirchheim b.München","type":"Kreisangehörige_Gemeinde"},"district":{"key":"09184","name":"München","type":"Landkreis"},"federalState":{"key":"09","name":"Bayern"}},{"name":"Carlo-Schmid-Str.","postalCode":"81739","locality":"München","municipality":{"key":"09162000","name":"München, Landeshauptstadt","type":"Kreisfreie_Stadt"},"district":{"key":"09162","name":"München, Landeshauptstadt","type":"Kreisfreie_Stadt"},"federalState":{"key":"09","name":"Bayern"}},{"name":"Carl-Sternheim-Weg","postalCode":"81927","locality":"München","municipality":{"key":"09162000","name":"München, Landeshauptstadt","type":"Kreisfreie_Stadt"},"district":{"key":"09162","name":"München, Landeshauptstadt","type":"Kreisfreie_Stadt"},"federalState":{"key":"09","name":"Bayern"}},{"name":"Carl-Wery-Str.","postalCode":"81739","locality":"München","municipality":{"key":"09162000","name":"München, Landeshauptstadt","type":"Kreisfreie_Stadt"},"district":{"key":"09162","name":"München, Landeshauptstadt","type":"Kreisfreie_Stadt"},"federalState":{"key":"09","name":"Bayern"}},{"name":"Carl-Zuckmayer-Str.","postalCode":"81927","locality":"München","municipality":{"key":"09162000","name":"München, Landeshauptstadt","type":"Kreisfreie_Stadt"},"district":{"key":"09162","name":"München, Landeshauptstadt","type":"Kreisfreie_Stadt"},"federalState":{"key":"09","name":"Bayern"}},{"name":"Carola-Neher-Str.","postalCode":"81379","locality":"München","municipality":{"key":"09162000","name":"München, Landeshauptstadt","type":"Kreisfreie_Stadt"},"district":{"key":"09162","name":"München, Landeshauptstadt","type":"Kreisfreie_Stadt"},"federalState":{"key":"09","name":"Bayern"}},{"name":"Caroline-Herschel-Str.","postalCode":"81829","locality":"München","municipality":{"key":"09162000","name":"München, Landeshauptstadt","type":"Kreisfreie_Stadt"},"district":{"key":"09162","name":"München, Landeshauptstadt","type":"Kreisfreie_Stadt"},"federalState":{"key":"09","name":"Bayern"}},{"name":"Carossastr.","postalCode":"81245","locality":"München","municipality":{"key":"09162000","name":"München, Landeshauptstadt","type":"Kreisfreie_Stadt"},"district":{"key":"09162","name":"München, Landeshauptstadt","type":"Kreisfreie_Stadt"},"federalState":{"key":"09","name":"Bayern"}},{"name":"Carrierestr.","postalCode":"80999","locality":"München","municipality":{"key":"09162000","name":"München, Landeshauptstadt","type":"Kreisfreie_Stadt"},"district":{"key":"09162","name":"München, Landeshauptstadt","type":"Kreisfreie_Stadt"},"federalState":{"key":"09","name":"Bayern"}},{"name":"Carusoweg","postalCode":"81479","locality":"München","municipality":{"key":"09162000","name":"München, Landeshauptstadt","type":"Kreisfreie_Stadt"},"district":{"key":"09162","name":"München, Landeshauptstadt","type":"Kreisfreie_Stadt"},"federalState":{"key":"09","name":"Bayern"}},{"name":"Caubstr.","postalCode":"80993","locality":"München","municipality":{"key":"09162000","name":"München, Landeshauptstadt","type":"Kreisfreie_Stadt"},"district":{"key":"09162","name":"München, Landeshauptstadt","type":"Kreisfreie_Stadt"},"federalState":{"key":"09","name":"Bayern"}},{"name":"Celibidacheforum","postalCode":"81667","locality":"München","municipality":{"key":"09162000","name":"München, Landeshauptstadt","type":"Kreisfreie_Stadt"},"district":{"key":"09162","name":"München, Landeshauptstadt","type":"Kreisfreie_Stadt"},"federalState":{"key":"09","name":"Bayern"}},{"name":"Centa-Hafenbrädl-Str.","postalCode":"81249","locality":"München","municipality":{"key":"09162000","name":"München, Landeshauptstadt","type":"Kreisfreie_Stadt"},"district":{"key":"09162","name":"München, Landeshauptstadt","type":"Kreisfreie_Stadt"},"federalState":{"key":"09","name":"Bayern"}},{"name":"Centa-Herker-Bogen","postalCode":"80797","locality":"München","municipality":{"key":"09162000","name":"München, Landeshauptstadt","type":"Kreisfreie_Stadt"},"district":{"key":"09162","name":"München, Landeshauptstadt","type":"Kreisfreie_Stadt"},"federalState":{"key":"09","name":"Bayern"}},{"name":"Cerebotanistr.","postalCode":"80992","locality":"München","municipality":{"key":"09162000","name":"München, Landeshauptstadt","type":"Kreisfreie_Stadt"},"district":{"key":"09162","name":"München, Landeshauptstadt","type":"Kreisfreie_Stadt"},"federalState":{"key":"09","name":"Bayern"}},{"name":"Cervantesstr.","postalCode":"81241","locality":"München","municipality":{"key":"09162000","name":"München, Landeshauptstadt","type":"Kreisfreie_Stadt"},"district":{"key":"09162","name":"München, Landeshauptstadt","type":"Kreisfreie_Stadt"},"federalState":{"key":"09","name":"Bayern"}},{"name":"Chamissostr.","postalCode":"81925","locality":"München","municipality":{"key":"09162000","name":"München, Landeshauptstadt","type":"Kreisfreie_Stadt"},"district":{"key":"09162","name":"München, Landeshauptstadt","type":"Kreisfreie_Stadt"},"federalState":{"key":"09","name":"Bayern"}},{"name":"Chammünsterstr.","postalCode":"81827","locality":"München","municipality":{"key":"09162000","name":"München, Landeshauptstadt","type":"Kreisfreie_Stadt"},"district":{"key":"09162","name":"München, Landeshauptstadt","type":"Kreisfreie_Stadt"},"federalState":{"key":"09","name":"Bayern"}},{"name":"Charles-de-Gaulle-Str.","postalCode":"81737","locality":"München","municipality":{"key":"09162000","name":"München, Landeshauptstadt","type":"Kreisfreie_Stadt"},"district":{"key":"09162","name":"München, Landeshauptstadt","type":"Kreisfreie_Stadt"},"federalState":{"key":"09","name":"Bayern"}},{"name":"Chemnitzer Platz","postalCode":"80992","locality":"München","municipality":{"key":"09162000","name":"München, Landeshauptstadt","type":"Kreisfreie_Stadt"},"district":{"key":"09162","name":"München, Landeshauptstadt","type":"Kreisfreie_Stadt"},"federalState":{"key":"09","name":"Bayern"}},{"name":"Cherubinistr.","postalCode":"80803","locality":"München","municipality":{"key":"09162000","name":"München, Landeshauptstadt","type":"Kreisfreie_Stadt"},"district":{"key":"09162","name":"München, Landeshauptstadt","type":"Kreisfreie_Stadt"},"federalState":{"key":"09","name":"Bayern"}},{"name":"Chiemgaustr.","postalCode":"81539","locality":"München","municipality":{"key":"09162000","name":"München, Landeshauptstadt","type":"Kreisfreie_Stadt"},"district":{"key":"09162","name":"München, Landeshauptstadt","type":"Kreisfreie_Stadt"},"federalState":{"key":"09","name":"Bayern"}},{"name":"Chiemgaustr.","postalCode":"81549","locality":"München","municipality":{"key":"09162000","name":"München, Landeshauptstadt","type":"Kreisfreie_Stadt"},"district":{"key":"09162","name":"München, Landeshauptstadt","type":"Kreisfreie_Stadt"},"federalState":{"key":"09","name":"Bayern"}},{"name":"Chiemseering","postalCode":"85551","locality":"Kirchheim bei München","municipality":{"key":"09184131","name":"Kirchheim b.München","type":"Kreisangehörige_Gemeinde"},"district":{"key":"09184","name":"München","type":"Landkreis"},"federalState":{"key":"09","name":"Bayern"}},{"name":"China-Garten","postalCode":"81377","locality":"München","municipality":{"key":"09162000","name":"München, Landeshauptstadt","type":"Kreisfreie_Stadt"},"district":{"key":"09162","name":"München, Landeshauptstadt","type":"Kreisfreie_Stadt"},"federalState":{"key":"09","name":"Bayern"}},{"name":"Chopinstr.","postalCode":"81245","locality":"München","municipality":{"key":"09162000","name":"München, Landeshauptstadt","type":"Kreisfreie_Stadt"},"district":{"key":"09162","name":"München, Landeshauptstadt","type":"Kreisfreie_Stadt"},"federalState":{"key":"09","name":"Bayern"}},{"name":"Chorherrstr.","postalCode":"81667","locality":"München","municipality":{"key":"09162000","name":"München, Landeshauptstadt","type":"Kreisfreie_Stadt"},"district":{"key":"09162","name":"München, Landeshauptstadt","type":"Kreisfreie_Stadt"},"federalState":{"key":"09","name":"Bayern"}},{"name":"Christel-Küpper-Platz","postalCode":"81379","locality":"München","municipality":{"key":"09162000","name":"München, Landeshauptstadt","type":"Kreisfreie_Stadt"},"district":{"key":"09162","name":"München, Landeshauptstadt","type":"Kreisfreie_Stadt"},"federalState":{"key":"09","name":"Bayern"}},{"name":"Christel-Sembach-Krone-Str.","postalCode":"81248","locality":"München","municipality":{"key":"09162000","name":"München, Landeshauptstadt","type":"Kreisfreie_Stadt"},"district":{"key":"09162","name":"München, Landeshauptstadt","type":"Kreisfreie_Stadt"},"federalState":{"key":"09","name":"Bayern"}},{"name":"Christl-Cranz-Str.","postalCode":"85551","locality":"Kirchheim bei München","municipality":{"key":"09184131","name":"Kirchheim b.München","type":"Kreisangehörige_Gemeinde"},"district":{"key":"09184","name":"München","type":"Landkreis"},"federalState":{"key":"09","name":"Bayern"}},{"name":"Christoph-Probst-Str.","postalCode":"80805","locality":"München","municipality":{"key":"09162000","name":"München, Landeshauptstadt","type":"Kreisfreie_Stadt"},"district":{"key":"09162","name":"München, Landeshauptstadt","type":"Kreisfreie_Stadt"},"federalState":{"key":"09","name":"Bayern"}},{"name":"Christoph-Rapparini-Bogen","postalCode":"80639","locality":"München","municipality":{"key":"09162000","name":"München, Landeshauptstadt","type":"Kreisfreie_Stadt"},"district":{"key":"09162","name":"München, Landeshauptstadt","type":"Kreisfreie_Stadt"},"federalState":{"key":"09","name":"Bayern"}},{"name":"Christoph-Schmid-Str.","postalCode":"80807","locality":"München","municipality":{"key":"09162000","name":"München, Landeshauptstadt","type":"Kreisfreie_Stadt"},"district":{"key":"09162","name":"München, Landeshauptstadt","type":"Kreisfreie_Stadt"},"federalState":{"key":"09","name":"Bayern"}},{"name":"Dahlienstr.","postalCode":"82031","locality":"Grünwald","municipality":{"key":"09184122","name":"Grünwald","type":"Kreisangehörige_Gemeinde"},"district":{"key":"09184","name":"München","type":"Landkreis"},"federalState":{"key":"09","name":"Bayern"}},{"name":"Derbolfinger Platz","postalCode":"82031","locality":"Grünwald","municipality":{"key":"09184122","name":"Grünwald","type":"Kreisangehörige_Gemeinde"},"district":{"key":"09184","name":"München","type":"Landkreis"},"federalState":{"key":"09","name":"Bayern"}},{"name":"Dr.-Engelsperger-Str.","postalCode":"82031","locality":"Grünwald","municipality":{"key":"09184122","name":"Grünwald","type":"Kreisangehörige_Gemeinde"},"district":{"key":"09184","name":"München","type":"Landkreis"},"federalState":{"key":"09","name":"Bayern"}},{"name":"Dr.-Hans-Staub-Str.","postalCode":"82031","locality":"Grünwald","municipality":{"key":"09184122","name":"Grünwald","type":"Kreisangehörige_Gemeinde"},"district":{"key":"09184","name":"München","type":"Landkreis"},"federalState":{"key":"09","name":"Bayern"}},{"name":"Dr.-Kurt-Huber-Str.","postalCode":"82031","locality":"Grünwald","municipality":{"key":"09184122","name":"Grünwald","type":"Kreisangehörige_Gemeinde"},"district":{"key":"09184","name":"München","type":"Landkreis"},"federalState":{"key":"09","name":"Bayern"}},{"name":"Dr.-Lindner-Str.","postalCode":"82031","locality":"Grünwald","municipality":{"key":"09184122","name":"Grünwald","type":"Kreisangehörige_Gemeinde"},"district":{"key":"09184","name":"München","type":"Landkreis"},"federalState":{"key":"09","name":"Bayern"}},{"name":"Dr.-Max-Str.","postalCode":"82031","locality":"Grünwald","municipality":{"key":"09184122","name":"Grünwald","type":"Kreisangehörige_Gemeinde"},"district":{"key":"09184","name":"München","type":"Landkreis"},"federalState":{"key":"09","name":"Bayern"}},{"name":"Dr.-Peter-Hecker-Str.","postalCode":"82031","locality":"Grünwald","municipality":{"key":"09184122","name":"Grünwald","type":"Kreisangehörige_Gemeinde"},"district":{"key":"09184","name":"München","type":"Landkreis"},"federalState":{"key":"09","name":"Bayern"}},{"name":"Dr.-Ried-Str.","postalCode":"82031","locality":"Grünwald","municipality":{"key":"09184122","name":"Grünwald","type":"Kreisangehörige_Gemeinde"},"district":{"key":"09184","name":"München","type":"Landkreis"},"federalState":{"key":"09","name":"Bayern"}},{"name":"Dr.-Rosenmeyer-Weg","postalCode":"82031","locality":"Grünwald","municipality":{"key":"09184122","name":"Grünwald","type":"Kreisangehörige_Gemeinde"},"district":{"key":"09184","name":"München","type":"Landkreis"},"federalState":{"key":"09","name":"Bayern"}},{"name":"Ebertstr.","postalCode":"82031","locality":"Grünwald","municipality":{"key":"09184122","name":"Grünwald","type":"Kreisangehörige_Gemeinde"},"district":{"key":"09184","name":"München","type":"Landkreis"},"federalState":{"key":"09","name":"Bayern"}},{"name":"Edelweißstr.","postalCode":"82031","locality":"Grünwald","municipality":{"key":"09184122","name":"Grünwald","type":"Kreisangehörige_Gemeinde"},"district":{"key":"09184","name":"München","type":"Landkreis"},"federalState":{"key":"09","name":"Bayern"}},{"name":"Eibseestr.","postalCode":"82031","locality":"Grünwald","municipality":{"key":"09184122","name":"Grünwald","type":"Kreisangehörige_Gemeinde"},"district":{"key":"09184","name":"München","type":"Landkreis"},"federalState":{"key":"09","name":"Bayern"}},{"name":"Eichleite","postalCode":"82031","locality":"Grünwald","municipality":{"key":"09184122","name":"Grünwald","type":"Kreisangehörige_Gemeinde"},"district":{"key":"09184","name":"München","type":"Landkreis"},"federalState":{"key":"09","name":"Bayern"}},{"name":"Emil-Geis-Str.","postalCode":"82031","locality":"Grünwald","municipality":{"key":"09184122","name":"Grünwald","type":"Kreisangehörige_Gemeinde"},"district":{"key":"09184","name":"München","type":"Landkreis"},"federalState":{"key":"09","name":"Bayern"}},{"name":"Enzianstr.","postalCode":"82031","locality":"Grünwald","municipality":{"key":"09184122","name":"Grünwald","type":"Kreisangehörige_Gemeinde"},"district":{"key":"09184","name":"München","type":"Landkreis"},"federalState":{"key":"09","name":"Bayern"}},{"name":"Eugen-Schumacher-Platz","postalCode":"82031","locality":"Grünwald","municipality":{"key":"09184122","name":"Grünwald","type":"Kreisangehörige_Gemeinde"},"district":{"key":"09184","name":"München","type":"Landkreis"},"federalState":{"key":"09","name":"Bayern"}},{"name":"Firstalmweg","postalCode":"82031","locality":"Grünwald","municipality":{"key":"09184122","name":"Grünwald","type":"Kreisangehörige_Gemeinde"},"district":{"key":"09184","name":"München","type":"Landkreis"},"federalState":{"key":"09","name":"Bayern"}},{"name":"Fliederweg","postalCode":"82031","locality":"Grünwald","municipality":{"key":"09184122","name":"Grünwald","type":"Kreisangehörige_Gemeinde"},"district":{"key":"09184","name":"München","type":"Landkreis"},"federalState":{"key":"09","name":"Bayern"}},{"name":"Flößersteig","postalCode":"82031","locality":"Grünwald","municipality":{"key":"09184122","name":"Grünwald","type":"Kreisangehörige_Gemeinde"},"district":{"key":"09184","name":"München","type":"Landkreis"},"federalState":{"key":"09","name":"Bayern"}},{"name":"Forsthausstr.","postalCode":"82031","locality":"Grünwald","municipality":{"key":"09184122","name":"Grünwald","type":"Kreisangehörige_Gemeinde"},"district":{"key":"09184","name":"München","type":"Landkreis"},"federalState":{"key":"09","name":"Bayern"}},{"name":"Forsthausstr.","postalCode":"82064","locality":"Grünwalder Forst","municipality":{"key":"09184454","name":"Grünwalder Forst","type":"Gemeindefreies_Gebiet_Unbewohnt"},"district":{"key":"09184","name":"München","type":"Landkreis"},"federalState":{"key":"09","name":"Bayern"}},{"name":"Forstweg","postalCode":"82031","locality":"Grünwald","municipality":{"key":"09184122","name":"Grünwald","type":"Kreisangehörige_Gemeinde"},"district":{"key":"09184","name":"München","type":"Landkreis"},"federalState":{"key":"09","name":"Bayern"}},{"name":"Franz-Rieger-Weg","postalCode":"82031","locality":"Grünwald","municipality":{"key":"09184122","name":"Grünwald","type":"Kreisangehörige_Gemeinde"},"district":{"key":"09184","name":"München","type":"Landkreis"},"federalState":{"key":"09","name":"Bayern"}},{"name":"Fritz-Kneidl-Str.","postalCode":"82031","locality":"Grünwald","municipality":{"key":"09184122","name":"Grünwald","type":"Kreisangehörige_Gemeinde"},"district":{"key":"09184","name":"München","type":"Landkreis"},"federalState":{"key":"09","name":"Bayern"}},{"name":"Frundsbergerstr.","postalCode":"82031","locality":"Grünwald","municipality":{"key":"09184122","name":"Grünwald","type":"Kreisangehörige_Gemeinde"},"district":{"key":"09184","name":"München","type":"Landkreis"},"federalState":{"key":"09","name":"Bayern"}},{"name":"Fuchswegl Geräumt","postalCode":"82064","locality":"Grünwalder Forst","municipality":{"key":"09184454","name":"Grünwalder Forst","type":"Gemeindefreies_Gebiet_Unbewohnt"},"district":{"key":"09184","name":"München","type":"Landkreis"},"federalState":{"key":"09","name":"Bayern"}},{"name":"Gabriel-von-Seidl-Str.","postalCode":"82031","locality":"Grünwald","municipality":{"key":"09184122","name":"Grünwald","type":"Kreisangehörige_Gemeinde"},"district":{"key":"09184","name":"München","type":"Landkreis"},"federalState":{"key":"09","name":"Bayern"}},{"name":"Gartenweg","postalCode":"82031","locality":"Grünwald","municipality":{"key":"09184122","name":"Grünwald","type":"Kreisangehörige_Gemeinde"},"district":{"key":"09184","name":"München","type":"Landkreis"},"federalState":{"key":"09","name":"Bayern"}},{"name":"Gasteig","postalCode":"82031","locality":"Grünwald","municipality":{"key":"09184122","name":"Grünwald","type":"Kreisangehörige_Gemeinde"},"district":{"key":"09184","name":"München","type":"Landkreis"},"federalState":{"key":"09","name":"Bayern"}},{"name":"Gasteigweg","postalCode":"82031","locality":"Grünwald","municipality":{"key":"09184122","name":"Grünwald","type":"Kreisangehörige_Gemeinde"},"district":{"key":"09184","name":"München","type":"Landkreis"},"federalState":{"key":"09","name":"Bayern"}},{"name":"Geiselgasteig-Geräumt","postalCode":"82064","locality":"Grünwalder Forst","municipality":{"key":"09184454","name":"Grünwalder Forst","type":"Gemeindefreies_Gebiet_Unbewohnt"},"district":{"key":"09184","name":"München","type":"Landkreis"},"federalState":{"key":"09","name":"Bayern"}},{"name":"Georg-Pröbst-Weg","postalCode":"82031","locality":"Grünwald","municipality":{"key":"09184122","name":"Grünwald","type":"Kreisangehörige_Gemeinde"},"district":{"key":"09184","name":"München","type":"Landkreis"},"federalState":{"key":"09","name":"Bayern"}},{"name":"Geranienstr.","postalCode":"82031","locality":"Grünwald","municipality":{"key":"09184122","name":"Grünwald","type":"Kreisangehörige_Gemeinde"},"district":{"key":"09184","name":"München","type":"Landkreis"},"federalState":{"key":"09","name":"Bayern"}},{"name":"Gereutstr.","postalCode":"82031","locality":"Grünwald","municipality":{"key":"09184122","name":"Grünwald","type":"Kreisangehörige_Gemeinde"},"district":{"key":"09184","name":"München","type":"Landkreis"},"federalState":{"key":"09","name":"Bayern"}},{"name":"Geschwister-Hirsch-Str.","postalCode":"82031","locality":"Grünwald","municipality":{"key":"09184122","name":"Grünwald","type":"Kreisangehörige_Gemeinde"},"district":{"key":"09184","name":"München","type":"Landkreis"},"federalState":{"key":"09","name":"Bayern"}},{"name":"Geschwister-Scholl-Str.","postalCode":"82031","locality":"Grünwald","municipality":{"key":"09184122","name":"Grünwald","type":"Kreisangehörige_Gemeinde"},"district":{"key":"09184","name":"München","type":"Landkreis"},"federalState":{"key":"09","name":"Bayern"}},{"name":"Gladiolenstr.","postalCode":"82031","locality":"Grünwald","municipality":{"key":"09184122","name":"Grünwald","type":"Kreisangehörige_Gemeinde"},"district":{"key":"09184","name":"München","type":"Landkreis"},"federalState":{"key":"09","name":"Bayern"}},{"name":"Gori Geräumt","postalCode":"82064","locality":"Grünwalder Forst","municipality":{"key":"09184454","name":"Grünwalder Forst","type":"Gemeindefreies_Gebiet_Unbewohnt"},"district":{"key":"09184","name":"München","type":"Landkreis"},"federalState":{"key":"09","name":"Bayern"}},{"name":"Graf-Seyssel-Str.","postalCode":"82031","locality":"Grünwald","municipality":{"key":"09184122","name":"Grünwald","type":"Kreisangehörige_Gemeinde"},"district":{"key":"09184","name":"München","type":"Landkreis"},"federalState":{"key":"09","name":"Bayern"}},{"name":"Grünwalder Brücke","postalCode":"82031","locality":"Grünwald","municipality":{"key":"09184122","name":"Grünwald","type":"Kreisangehörige_Gemeinde"},"district":{"key":"09184","name":"München","type":"Landkreis"},"federalState":{"key":"09","name":"Bayern"}},{"name":"Habermannstr.","postalCode":"82031","locality":"Grünwald","municipality":{"key":"09184122","name":"Grünwald","type":"Kreisangehörige_Gemeinde"},"district":{"key":"09184","name":"München","type":"Landkreis"},"federalState":{"key":"09","name":"Bayern"}},{"name":"Hans-Braun-Weg","postalCode":"82031","locality":"Grünwald","municipality":{"key":"09184122","name":"Grünwald","type":"Kreisangehörige_Gemeinde"},"district":{"key":"09184","name":"München","type":"Landkreis"},"federalState":{"key":"09","name":"Bayern"}},{"name":"Heckenrosenstr.","postalCode":"82031","locality":"Grünwald","municipality":{"key":"09184122","name":"Grünwald","type":"Kreisangehörige_Gemeinde"},"district":{"key":"09184","name":"München","type":"Landkreis"},"federalState":{"key":"09","name":"Bayern"}},{"name":"Heinz-Rühmann-Str.","postalCode":"82031","locality":"Grünwald","municipality":{"key":"09184122","name":"Grünwald","type":"Kreisangehörige_Gemeinde"},"district":{"key":"09184","name":"München","type":"Landkreis"},"federalState":{"key":"09","name":"Bayern"}},{"name":"Herrenwiesstr.","postalCode":"82031","locality":"Grünwald","municipality":{"key":"09184122","name":"Grünwald","type":"Kreisangehörige_Gemeinde"},"district":{"key":"09184","name":"München","type":"Landkreis"},"federalState":{"key":"09","name":"Bayern"}},{"name":"Hertha-Feiler-Weg","postalCode":"82031","locality":"Grünwald","municipality":{"key":"09184122","name":"Grünwald","type":"Kreisangehörige_Gemeinde"},"district":{"key":"09184","name":"München","type":"Landkreis"},"federalState":{"key":"09","name":"Bayern"}},{"name":"Herzog-Christoph-Str.","postalCode":"82031","locality":"Grünwald","municipality":{"key":"09184122","name":"Grünwald","type":"Kreisangehörige_Gemeinde"},"district":{"key":"09184","name":"München","type":"Landkreis"},"federalState":{"key":"09","name":"Bayern"}},{"name":"Herzog-Sigmund-Str.","postalCode":"82031","locality":"Grünwald","municipality":{"key":"09184122","name":"Grünwald","type":"Kreisangehörige_Gemeinde"},"district":{"key":"09184","name":"München","type":"Landkreis"},"federalState":{"key":"09","name":"Bayern"}},{"name":"Hirschparkstr.","postalCode":"82031","locality":"Grünwald","municipality":{"key":"09184122","name":"Grünwald","type":"Kreisangehörige_Gemeinde"},"district":{"key":"09184","name":"München","type":"Landkreis"},"federalState":{"key":"09","name":"Bayern"}},{"name":"Hirtenweg","postalCode":"82031","locality":"Grünwald","municipality":{"key":"09184122","name":"Grünwald","type":"Kreisangehörige_Gemeinde"},"district":{"key":"09184","name":"München","type":"Landkreis"},"federalState":{"key":"09","name":"Bayern"}},{"name":"Hochleite","postalCode":"82031","locality":"Grünwald","municipality":{"key":"09184122","name":"Grünwald","type":"Kreisangehörige_Gemeinde"},"district":{"key":"09184","name":"München","type":"Landkreis"},"federalState":{"key":"09","name":"Bayern"}},{"name":"Hochuferweg","postalCode":"82031","locality":"Grünwald","municipality":{"key":"09184122","name":"Grünwald","type":"Kreisangehörige_Gemeinde"},"district":{"key":"09184","name":"München","type":"Landkreis"},"federalState":{"key":"09","name":"Bayern"}},{"name":"Hompesch-Geräumt","postalCode":"82064","locality":"Grünwalder Forst","municipality":{"key":"09184454","name":"Grünwalder Forst","type":"Gemeindefreies_Gebiet_Unbewohnt"},"district":{"key":"09184","name":"München","type":"Landkreis"},"federalState":{"key":"09","name":"Bayern"}},{"name":"Hubert-Hopf-Str.","postalCode":"82031","locality":"Grünwald","municipality":{"key":"09184122","name":"Grünwald","type":"Kreisangehörige_Gemeinde"},"district":{"key":"09184","name":"München","type":"Landkreis"},"federalState":{"key":"09","name":"Bayern"}},{"name":"Hubertusstr.","postalCode":"82031","locality":"Grünwald","municipality":{"key":"09184122","name":"Grünwald","type":"Kreisangehörige_Gemeinde"},"district":{"key":"09184","name":"München","type":"Landkreis"},"federalState":{"key":"09","name":"Bayern"}},{"name":"Hugo-Junkers-Str.","postalCode":"82031","locality":"Grünwald","municipality":{"key":"09184122","name":"Grünwald","type":"Kreisangehörige_Gemeinde"},"district":{"key":"09184","name":"München","type":"Landkreis"},"federalState":{"key":"09","name":"Bayern"}},{"name":"In der Knackenau","postalCode":"82031","locality":"Grünwald","municipality":{"key":"09184122","name":"Grünwald","type":"Kreisangehörige_Gemeinde"},"district":{"key":"09184","name":"München","type":"Landkreis"},"federalState":{"key":"09","name":"Bayern"}},{"name":"Jägersteig","postalCode":"82064","locality":"Grünwalder Forst","municipality":{"key":"09184454","name":"Grünwalder Forst","type":"Gemeindefreies_Gebiet_Unbewohnt"},"district":{"key":"09184","name":"München","type":"Landkreis"},"federalState":{"key":"09","name":"Bayern"}},{"name":"Jakob-Strobl-Str.","postalCode":"82031","locality":"Grünwald","municipality":{"key":"09184122","name":"Grünwald","type":"Kreisangehörige_Gemeinde"},"district":{"key":"09184","name":"München","type":"Landkreis"},"federalState":{"key":"09","name":"Bayern"}},{"name":"Johann-Einhauser-Str.","postalCode":"82031","locality":"Grünwald","municipality":{"key":"09184122","name":"Grünwald","type":"Kreisangehörige_Gemeinde"},"district":{"key":"09184","name":"München","type":"Landkreis"},"federalState":{"key":"09","name":"Bayern"}},{"name":"Johann-Lößl-Str.","postalCode":"82031","locality":"Grünwald","municipality":{"key":"09184122","name":"Grünwald","type":"Kreisangehörige_Gemeinde"},"district":{"key":"09184","name":"München","type":"Landkreis"},"federalState":{"key":"09","name":"Bayern"}},{"name":"Josef-Brückl-Weg","postalCode":"82031","locality":"Grünwald","municipality":{"key":"09184122","name":"Grünwald","type":"Kreisangehörige_Gemeinde"},"district":{"key":"09184","name":"München","type":"Landkreis"},"federalState":{"key":"09","name":"Bayern"}},{"name":"Josef-Kogler-Str.","postalCode":"82031","locality":"Grünwald","municipality":{"key":"09184122","name":"Grünwald","type":"Kreisangehörige_Gemeinde"},"district":{"key":"09184","name":"München","type":"Landkreis"},"federalState":{"key":"09","name":"Bayern"}},{"name":"Josef-Sammer-Str.","postalCode":"82031","locality":"Grünwald","municipality":{"key":"09184122","name":"Grünwald","type":"Kreisangehörige_Gemeinde"},"district":{"key":"09184","name":"München","type":"Landkreis"},"federalState":{"key":"09","name":"Bayern"}},{"name":"Josef-Würth-Str.","postalCode":"82031","locality":"Grünwald","municipality":{"key":"09184122","name":"Grünwald","type":"Kreisangehörige_Gemeinde"},"district":{"key":"09184","name":"München","type":"Landkreis"},"federalState":{"key":"09","name":"Bayern"}},{"name":"Joseph-Keilberth-Str.","postalCode":"82031","locality":"Grünwald","municipality":{"key":"09184122","name":"Grünwald","type":"Kreisangehörige_Gemeinde"},"district":{"key":"09184","name":"München","type":"Landkreis"},"federalState":{"key":"09","name":"Bayern"}},{"name":"Kaiser-Ludwig-Str.","postalCode":"82031","locality":"Grünwald","municipality":{"key":"09184122","name":"Grünwald","type":"Kreisangehörige_Gemeinde"},"district":{"key":"09184","name":"München","type":"Landkreis"},"federalState":{"key":"09","name":"Bayern"}},{"name":"Kardinal-Faulhaber-Platz","postalCode":"82031","locality":"Grünwald","municipality":{"key":"09184122","name":"Grünwald","type":"Kreisangehörige_Gemeinde"},"district":{"key":"09184","name":"München","type":"Landkreis"},"federalState":{"key":"09","name":"Bayern"}},{"name":"Karl-Lasser-Str.","postalCode":"82031","locality":"Grünwald","municipality":{"key":"09184122","name":"Grünwald","type":"Kreisangehörige_Gemeinde"},"district":{"key":"09184","name":"München","type":"Landkreis"},"federalState":{"key":"09","name":"Bayern"}},{"name":"Karl-Valentin-Str.","postalCode":"82031","locality":"Grünwald","municipality":{"key":"09184122","name":"Grünwald","type":"Kreisangehörige_Gemeinde"},"district":{"key":"09184","name":"München","type":"Landkreis"},"federalState":{"key":"09","name":"Bayern"}},{"name":"Kastanienallee","postalCode":"82031","locality":"Grünwald","municipality":{"key":"09184122","name":"Grünwald","type":"Kreisangehörige_Gemeinde"},"district":{"key":"09184","name":"München","type":"Landkreis"},"federalState":{"key":"09","name":"Bayern"}},{"name":"Keltenstr.","postalCode":"82031","locality":"Grünwald","municipality":{"key":"09184122","name":"Grünwald","type":"Kreisangehörige_Gemeinde"},"district":{"key":"09184","name":"München","type":"Landkreis"},"federalState":{"key":"09","name":"Bayern"}},{"name":"Kestermannstr.","postalCode":"82031","locality":"Grünwald","municipality":{"key":"09184122","name":"Grünwald","type":"Kreisangehörige_Gemeinde"},"district":{"key":"09184","name":"München","type":"Landkreis"},"federalState":{"key":"09","name":"Bayern"}},{"name":"Ketten Geräumt","postalCode":"82031","locality":"Grünwald","municipality":{"key":"09184122","name":"Grünwald","type":"Kreisangehörige_Gemeinde"},"district":{"key":"09184","name":"München","type":"Landkreis"},"federalState":{"key":"09","name":"Bayern"}},{"name":"Ketten Geräumt","postalCode":"82064","locality":"Grünwalder Forst","municipality":{"key":"09184454","name":"Grünwalder Forst","type":"Gemeindefreies_Gebiet_Unbewohnt"},"district":{"key":"09184","name":"München","type":"Landkreis"},"federalState":{"key":"09","name":"Bayern"}},{"name":"Klessingstr.","postalCode":"82031","locality":"Grünwald","municipality":{"key":"09184122","name":"Grünwald","type":"Kreisangehörige_Gemeinde"},"district":{"key":"09184","name":"München","type":"Landkreis"},"federalState":{"key":"09","name":"Bayern"}},{"name":"Klingerstr.","postalCode":"82031","locality":"Grünwald","municipality":{"key":"09184122","name":"Grünwald","type":"Kreisangehörige_Gemeinde"},"district":{"key":"09184","name":"München","type":"Landkreis"},"federalState":{"key":"09","name":"Bayern"}},{"name":"Kreuzeckstr.","postalCode":"82031","locality":"Grünwald","municipality":{"key":"09184122","name":"Grünwald","type":"Kreisangehörige_Gemeinde"},"district":{"key":"09184","name":"München","type":"Landkreis"},"federalState":{"key":"09","name":"Bayern"}},{"name":"Laufzorner Geräumt","postalCode":"82064","locality":"Grünwalder Forst","municipality":{"key":"09184454","name":"Grünwalder Forst","type":"Gemeindefreies_Gebiet_Unbewohnt"},"district":{"key":"09184","name":"München","type":"Landkreis"},"federalState":{"key":"09","name":"Bayern"}},{"name":"Laufzorner Str.","postalCode":"82031","locality":"Grünwald","municipality":{"key":"09184122","name":"Grünwald","type":"Kreisangehörige_Gemeinde"},"district":{"key":"09184","name":"München","type":"Landkreis"},"federalState":{"key":"09","name":"Bayern"}},{"name":"Laufzorner Weg","postalCode":"82064","locality":"Grünwalder Forst","municipality":{"key":"09184454","name":"Grünwalder Forst","type":"Gemeindefreies_Gebiet_Unbewohnt"},"district":{"key":"09184","name":"München","type":"Landkreis"},"federalState":{"key":"09","name":"Bayern"}},{"name":"Leerbichlallee","postalCode":"82031","locality":"Grünwald","municipality":{"key":"09184122","name":"Grünwald","type":"Kreisangehörige_Gemeinde"},"district":{"key":"09184","name":"München","type":"Landkreis"},"federalState":{"key":"09","name":"Bayern"}},{"name":"Lena-Christ-Str.","postalCode":"82031","locality":"Grünwald","municipality":{"key":"09184122","name":"Grünwald","type":"Kreisangehörige_Gemeinde"},"district":{"key":"09184","name":"München","type":"Landkreis"},"federalState":{"key":"09","name":"Bayern"}},{"name":"Lil-Dagover-Ring","postalCode":"82031","locality":"Grünwald","municipality":{"key":"09184122","name":"Grünwald","type":"Kreisangehörige_Gemeinde"},"district":{"key":"09184","name":"München","type":"Landkreis"},"federalState":{"key":"09","name":"Bayern"}},{"name":"Lindenstr.","postalCode":"82031","locality":"Grünwald","municipality":{"key":"09184122","name":"Grünwald","type":"Kreisangehörige_Gemeinde"},"district":{"key":"09184","name":"München","type":"Landkreis"},"federalState":{"key":"09","name":"Bayern"}},{"name":"Link-Geräumt","postalCode":"82064","locality":"Grünwalder Forst","municipality":{"key":"09184454","name":"Grünwalder Forst","type":"Gemeindefreies_Gebiet_Unbewohnt"},"district":{"key":"09184","name":"München","type":"Landkreis"},"federalState":{"key":"09","name":"Bayern"}},{"name":"Lohengrinstr.","postalCode":"82031","locality":"Grünwald","municipality":{"key":"09184122","name":"Grünwald","type":"Kreisangehörige_Gemeinde"},"district":{"key":"09184","name":"München","type":"Landkreis"},"federalState":{"key":"09","name":"Bayern"}},{"name":"Ludwig-Anzengruber-Str.","postalCode":"82031","locality":"Grünwald","municipality":{"key":"09184122","name":"Grünwald","type":"Kreisangehörige_Gemeinde"},"district":{"key":"09184","name":"München","type":"Landkreis"},"federalState":{"key":"09","name":"Bayern"}},{"name":"Ludwig-Ganghofer-Str.","postalCode":"82031","locality":"Grünwald","municipality":{"key":"09184122","name":"Grünwald","type":"Kreisangehörige_Gemeinde"},"district":{"key":"09184","name":"München","type":"Landkreis"},"federalState":{"key":"09","name":"Bayern"}},{"name":"Ludwig-Geräumt","postalCode":"82064","locality":"Grünwalder Forst","municipality":{"key":"09184454","name":"Grünwalder Forst","type":"Gemeindefreies_Gebiet_Unbewohnt"},"district":{"key":"09184","name":"München","type":"Landkreis"},"federalState":{"key":"09","name":"Bayern"}},{"name":"Ludwig-Thoma-Platz","postalCode":"82031","locality":"Grünwald","municipality":{"key":"09184122","name":"Grünwald","type":"Kreisangehörige_Gemeinde"},"district":{"key":"09184","name":"München","type":"Landkreis"},"federalState":{"key":"09","name":"Bayern"}},{"name":"Ludwig-Thoma-Str.","postalCode":"82031","locality":"Grünwald","municipality":{"key":"09184122","name":"Grünwald","type":"Kreisangehörige_Gemeinde"},"district":{"key":"09184","name":"München","type":"Landkreis"},"federalState":{"key":"09","name":"Bayern"}},{"name":"Luise-Ullrich-Str.","postalCode":"82031","locality":"Grünwald","municipality":{"key":"09184122","name":"Grünwald","type":"Kreisangehörige_Gemeinde"},"district":{"key":"09184","name":"München","type":"Landkreis"},"federalState":{"key":"09","name":"Bayern"}},{"name":"Marktplatz","postalCode":"82031","locality":"Grünwald","municipality":{"key":"09184122","name":"Grünwald","type":"Kreisangehörige_Gemeinde"},"district":{"key":"09184","name":"München","type":"Landkreis"},"federalState":{"key":"09","name":"Bayern"}},{"name":"Martin-Haindl-Str.","postalCode":"82031","locality":"Grünwald","municipality":{"key":"09184122","name":"Grünwald","type":"Kreisangehörige_Gemeinde"},"district":{"key":"09184","name":"München","type":"Landkreis"},"federalState":{"key":"09","name":"Bayern"}},{"name":"Maximilian-Geräumt","postalCode":"82064","locality":"Grünwalder Forst","municipality":{"key":"09184454","name":"Grünwalder Forst","type":"Gemeindefreies_Gebiet_Unbewohnt"},"district":{"key":"09184","name":"München","type":"Landkreis"},"federalState":{"key":"09","name":"Bayern"}},{"name":"Mechthildenstr.","postalCode":"82031","locality":"Grünwald","municipality":{"key":"09184122","name":"Grünwald","type":"Kreisangehörige_Gemeinde"},"district":{"key":"09184","name":"München","type":"Landkreis"},"federalState":{"key":"09","name":"Bayern"}},{"name":"Montgelas-Geräumt","postalCode":"82064","locality":"Grünwalder Forst","municipality":{"key":"09184454","name":"Grünwalder Forst","type":"Gemeindefreies_Gebiet_Unbewohnt"},"district":{"key":"09184","name":"München","type":"Landkreis"},"federalState":{"key":"09","name":"Bayern"}},{"name":"Muffatstr.","postalCode":"82031","locality":"Grünwald","municipality":{"key":"09184122","name":"Grünwald","type":"Kreisangehörige_Gemeinde"},"district":{"key":"09184","name":"München","type":"Landkreis"},"federalState":{"key":"09","name":"Bayern"}},{"name":"Mühlweg","postalCode":"82064","locality":"Grünwalder Forst","municipality":{"key":"09184454","name":"Grünwalder Forst","type":"Gemeindefreies_Gebiet_Unbewohnt"},"district":{"key":"09184","name":"München","type":"Landkreis"},"federalState":{"key":"09","name":"Bayern"}},{"name":"Nibelungenstr.","postalCode":"82031","locality":"Grünwald","municipality":{"key":"09184122","name":"Grünwald","type":"Kreisangehörige_Gemeinde"},"district":{"key":"09184","name":"München","type":"Landkreis"},"federalState":{"key":"09","name":"Bayern"}},{"name":"Niemöllerplatz","postalCode":"82031","locality":"Grünwald","municipality":{"key":"09184122","name":"Grünwald","type":"Kreisangehörige_Gemeinde"},"district":{"key":"09184","name":"München","type":"Landkreis"},"federalState":{"key":"09","name":"Bayern"}},{"name":"Nördliche Münchner Str.","postalCode":"82031","locality":"Grünwald","municipality":{"key":"09184122","name":"Grünwald","type":"Kreisangehörige_Gemeinde"},"district":{"key":"09184","name":"München","type":"Landkreis"},"federalState":{"key":"09","name":"Bayern"}},{"name":"Oberbiberger Strassl","postalCode":"82064","locality":"Grünwalder Forst","municipality":{"key":"09184454","name":"Grünwalder Forst","type":"Gemeindefreies_Gebiet_Unbewohnt"},"district":{"key":"09184","name":"München","type":"Landkreis"},"federalState":{"key":"09","name":"Bayern"}},{"name":"Oberfeldallee","postalCode":"82031","locality":"Grünwald","municipality":{"key":"09184122","name":"Grünwald","type":"Kreisangehörige_Gemeinde"},"district":{"key":"09184","name":"München","type":"Landkreis"},"federalState":{"key":"09","name":"Bayern"}},{"name":"Oberhachinger Str.","postalCode":"82031","locality":"Grünwald","municipality":{"key":"09184122","name":"Grünwald","type":"Kreisangehörige_Gemeinde"},"district":{"key":"09184","name":"München","type":"Landkreis"},"federalState":{"key":"09","name":"Bayern"}},{"name":"Oberhachinger Str.","postalCode":"82064","locality":"Grünwalder Forst","municipality":{"key":"09184454","name":"Grünwalder Forst","type":"Gemeindefreies_Gebiet_Unbewohnt"},"district":{"key":"09184","name":"München","type":"Landkreis"},"federalState":{"key":"09","name":"Bayern"}},{"name":"Oberndorf Geräumt","postalCode":"82064","locality":"Grünwalder Forst","municipality":{"key":"09184454","name":"Grünwalder Forst","type":"Gemeindefreies_Gebiet_Unbewohnt"},"district":{"key":"09184","name":"München","type":"Landkreis"},"federalState":{"key":"09","name":"Bayern"}},{"name":"Otto-Bader-Str.","postalCode":"82031","locality":"Grünwald","municipality":{"key":"09184122","name":"Grünwald","type":"Kreisangehörige_Gemeinde"},"district":{"key":"09184","name":"München","type":"Landkreis"},"federalState":{"key":"09","name":"Bayern"}},{"name":"Otto-Heilmann-Str.","postalCode":"82031","locality":"Grünwald","municipality":{"key":"09184122","name":"Grünwald","type":"Kreisangehörige_Gemeinde"},"district":{"key":"09184","name":"München","type":"Landkreis"},"federalState":{"key":"09","name":"Bayern"}},{"name":"Painbreitenstr.","postalCode":"82031","locality":"Grünwald","municipality":{"key":"09184122","name":"Grünwald","type":"Kreisangehörige_Gemeinde"},"district":{"key":"09184","name":"München","type":"Landkreis"},"federalState":{"key":"09","name":"Bayern"}},{"name":"Parzivalstr.","postalCode":"82031","locality":"Grünwald","municipality":{"key":"09184122","name":"Grünwald","type":"Kreisangehörige_Gemeinde"},"district":{"key":"09184","name":"München","type":"Landkreis"},"federalState":{"key":"09","name":"Bayern"}},{"name":"Perlacher Str.","postalCode":"82031","locality":"Grünwald","municipality":{"key":"09184122","name":"Grünwald","type":"Kreisangehörige_Gemeinde"},"district":{"key":"09184","name":"München","type":"Landkreis"},"federalState":{"key":"09","name":"Bayern"}},{"name":"Perlach-Geräumt","postalCode":"82064","locality":"Grünwalder Forst","municipality":{"key":"09184454","name":"Grünwalder Forst","type":"Gemeindefreies_Gebiet_Unbewohnt"},"district":{"key":"09184","name":"München","type":"Landkreis"},"federalState":{"key":"09","name":"Bayern"}},{"name":"Peter-Ostermayr-Str.","postalCode":"82031","locality":"Grünwald","municipality":{"key":"09184122","name":"Grünwald","type":"Kreisangehörige_Gemeinde"},"district":{"key":"09184","name":"München","type":"Landkreis"},"federalState":{"key":"09","name":"Bayern"}},{"name":"Philipp-Fauth-Str.","postalCode":"82031","locality":"Grünwald","municipality":{"key":"09184122","name":"Grünwald","type":"Kreisangehörige_Gemeinde"},"district":{"key":"09184","name":"München","type":"Landkreis"},"federalState":{"key":"09","name":"Bayern"}},{"name":"Pommernstr.","postalCode":"82031","locality":"Grünwald","municipality":{"key":"09184122","name":"Grünwald","type":"Kreisangehörige_Gemeinde"},"district":{"key":"09184","name":"München","type":"Landkreis"},"federalState":{"key":"09","name":"Bayern"}},{"name":"Portenlängerstr.","postalCode":"82031","locality":"Grünwald","municipality":{"key":"09184122","name":"Grünwald","type":"Kreisangehörige_Gemeinde"},"district":{"key":"09184","name":"München","type":"Landkreis"},"federalState":{"key":"09","name":"Bayern"}},{"name":"Primelweg","postalCode":"82031","locality":"Grünwald","municipality":{"key":"09184122","name":"Grünwald","type":"Kreisangehörige_Gemeinde"},"district":{"key":"09184","name":"München","type":"Landkreis"},"federalState":{"key":"09","name":"Bayern"}},{"name":"Prinz-Karl-Geräumt","postalCode":"82064","locality":"Grünwalder Forst","municipality":{"key":"09184454","name":"Grünwalder Forst","type":"Gemeindefreies_Gebiet_Unbewohnt"},"district":{"key":"09184","name":"München","type":"Landkreis"},"federalState":{"key":"09","name":"Bayern"}},{"name":"Quagliostr.","postalCode":"81543","locality":"München","municipality":{"key":"09162000","name":"München, Landeshauptstadt","type":"Kreisfreie_Stadt"},"district":{"key":"09162","name":"München, Landeshauptstadt","type":"Kreisfreie_Stadt"},"federalState":{"key":"09","name":"Bayern"}},{"name":"Quedlinburger Str.","postalCode":"80992","locality":"München","municipality":{"key":"09162000","name":"München, Landeshauptstadt","type":"Kreisfreie_Stadt"},"district":{"key":"09162","name":"München, Landeshauptstadt","type":"Kreisfreie_Stadt"},"federalState":{"key":"09","name":"Bayern"}},{"name":"Quellweg","postalCode":"85551","locality":"Kirchheim bei München","municipality":{"key":"09184131","name":"Kirchheim b.München","type":"Kreisangehörige_Gemeinde"},"district":{"key":"09184","name":"München","type":"Landkreis"},"federalState":{"key":"09","name":"Bayern"}},{"name":"Queristr.","postalCode":"80689","locality":"München","municipality":{"key":"09162000","name":"München, Landeshauptstadt","type":"Kreisfreie_Stadt"},"district":{"key":"09162","name":"München, Landeshauptstadt","type":"Kreisfreie_Stadt"},"federalState":{"key":"09","name":"Bayern"}},{"name":"Querstr.","postalCode":"07589","locality":"Münchenbernsdorf","municipality":{"key":"16076049","name":"Münchenbernsdorf, Stadt","type":"Stadt"},"district":{"key":"16076","name":"Greiz","type":"Landkreis"},"federalState":{"key":"16","name":"Thüringen"}},{"name":"Quiddestr.","postalCode":"81735","locality":"München","municipality":{"key":"09162000","name":"München, Landeshauptstadt","type":"Kreisfreie_Stadt"},"district":{"key":"09162","name":"München, Landeshauptstadt","type":"Kreisfreie_Stadt"},"federalState":{"key":"09","name":"Bayern"}},{"name":"Quiddestr.","postalCode":"81737","locality":"München","municipality":{"key":"09162000","name":"München, Landeshauptstadt","type":"Kreisfreie_Stadt"},"district":{"key":"09162","name":"München, Landeshauptstadt","type":"Kreisfreie_Stadt"},"federalState":{"key":"09","name":"Bayern"}},{"name":"Rainholzstr.","postalCode":"82031","locality":"Grünwald","municipality":{"key":"09184122","name":"Grünwald","type":"Kreisangehörige_Gemeinde"},"district":{"key":"09184","name":"München","type":"Landkreis"},"federalState":{"key":"09","name":"Bayern"}},{"name":"Ranckhepacherweg","postalCode":"82031","locality":"Grünwald","municipality":{"key":"09184122","name":"Grünwald","type":"Kreisangehörige_Gemeinde"},"district":{"key":"09184","name":"München","type":"Landkreis"},"federalState":{"key":"09","name":"Bayern"}},{"name":"Rathausplatz","postalCode":"82031","locality":"Grünwald","municipality":{"key":"09184122","name":"Grünwald","type":"Kreisangehörige_Gemeinde"},"district":{"key":"09184","name":"München","type":"Landkreis"},"federalState":{"key":"09","name":"Bayern"}},{"name":"Rathausstr.","postalCode":"82031","locality":"Grünwald","municipality":{"key":"09184122","name":"Grünwald","type":"Kreisangehörige_Gemeinde"},"district":{"key":"09184","name":"München","type":"Landkreis"},"federalState":{"key":"09","name":"Bayern"}},{"name":"Rechberg Geräumt","postalCode":"82064","locality":"Grünwalder Forst","municipality":{"key":"09184454","name":"Grünwalder Forst","type":"Gemeindefreies_Gebiet_Unbewohnt"},"district":{"key":"09184","name":"München","type":"Landkreis"},"federalState":{"key":"09","name":"Bayern"}},{"name":"Rehleitenweg","postalCode":"82031","locality":"Grünwald","municipality":{"key":"09184122","name":"Grünwald","type":"Kreisangehörige_Gemeinde"},"district":{"key":"09184","name":"München","type":"Landkreis"},"federalState":{"key":"09","name":"Bayern"}},{"name":"Reinweg","postalCode":"82031","locality":"Grünwald","municipality":{"key":"09184122","name":"Grünwald","type":"Kreisangehörige_Gemeinde"},"district":{"key":"09184","name":"München","type":"Landkreis"},"federalState":{"key":"09","name":"Bayern"}},{"name":"Reiterweg","postalCode":"82031","locality":"Grünwald","municipality":{"key":"09184122","name":"Grünwald","type":"Kreisangehörige_Gemeinde"},"district":{"key":"09184","name":"München","type":"Landkreis"},"federalState":{"key":"09","name":"Bayern"}},{"name":"Reitzensteinstr.","postalCode":"82031","locality":"Grünwald","municipality":{"key":"09184122","name":"Grünwald","type":"Kreisangehörige_Gemeinde"},"district":{"key":"09184","name":"München","type":"Landkreis"},"federalState":{"key":"09","name":"Bayern"}},{"name":"Ricarda-Huch-Str.","postalCode":"82031","locality":"Grünwald","municipality":{"key":"09184122","name":"Grünwald","type":"Kreisangehörige_Gemeinde"},"district":{"key":"09184","name":"München","type":"Landkreis"},"federalState":{"key":"09","name":"Bayern"}},{"name":"Robert-Koch-Str.","postalCode":"82031","locality":"Grünwald","municipality":{"key":"09184122","name":"Grünwald","type":"Kreisangehörige_Gemeinde"},"district":{"key":"09184","name":"München","type":"Landkreis"},"federalState":{"key":"09","name":"Bayern"}},{"name":"Römerstr.","postalCode":"82064","locality":"Grünwalder Forst","municipality":{"key":"09184454","name":"Grünwalder Forst","type":"Gemeindefreies_Gebiet_Unbewohnt"},"district":{"key":"09184","name":"München","type":"Landkreis"},"federalState":{"key":"09","name":"Bayern"}},{"name":"Roßkopfstr.","postalCode":"82031","locality":"Grünwald","municipality":{"key":"09184122","name":"Grünwald","type":"Kreisangehörige_Gemeinde"},"district":{"key":"09184","name":"München","type":"Landkreis"},"federalState":{"key":"09","name":"Bayern"}},{"name":"Rotwandstr.","postalCode":"82031","locality":"Grünwald","municipality":{"key":"09184122","name":"Grünwald","type":"Kreisangehörige_Gemeinde"},"district":{"key":"09184","name":"München","type":"Landkreis"},"federalState":{"key":"09","name":"Bayern"}},{"name":"Sauschütt-Geräumt","postalCode":"82031","locality":"Grünwalder Forst","municipality":{"key":"09184454","name":"Grünwalder Forst","type":"Gemeindefreies_Gebiet_Unbewohnt"},"district":{"key":"09184","name":"München","type":"Landkreis"},"federalState":{"key":"09","name":"Bayern"}},{"name":"Sauschütt-Geräumt","postalCode":"82064","locality":"Grünwalder Forst","municipality":{"key":"09184454","name":"Grünwalder Forst","type":"Gemeindefreies_Gebiet_Unbewohnt"},"district":{"key":"09184","name":"München","type":"Landkreis"},"federalState":{"key":"09","name":"Bayern"}},{"name":"Schilcher Geräumt","postalCode":"82031","locality":"Grünwald","municipality":{"key":"09184122","name":"Grünwald","type":"Kreisangehörige_Gemeinde"},"district":{"key":"09184","name":"München","type":"Landkreis"},"federalState":{"key":"09","name":"Bayern"}},{"name":"Schilcher Geräumt","postalCode":"82064","locality":"Grünwalder Forst","municipality":{"key":"09184454","name":"Grünwalder Forst","type":"Gemeindefreies_Gebiet_Unbewohnt"},"district":{"key":"09184","name":"München","type":"Landkreis"},"federalState":{"key":"09","name":"Bayern"}},{"name":"Schlehdornstr.","postalCode":"82031","locality":"Grünwald","municipality":{"key":"09184122","name":"Grünwald","type":"Kreisangehörige_Gemeinde"},"district":{"key":"09184","name":"München","type":"Landkreis"},"federalState":{"key":"09","name":"Bayern"}},{"name":"Schlesierstr.","postalCode":"82031","locality":"Grünwald","municipality":{"key":"09184122","name":"Grünwald","type":"Kreisangehörige_Gemeinde"},"district":{"key":"09184","name":"München","type":"Landkreis"},"federalState":{"key":"09","name":"Bayern"}},{"name":"Schloßleite","postalCode":"82031","locality":"Grünwald","municipality":{"key":"09184122","name":"Grünwald","type":"Kreisangehörige_Gemeinde"},"district":{"key":"09184","name":"München","type":"Landkreis"},"federalState":{"key":"09","name":"Bayern"}},{"name":"Schloßstr.","postalCode":"82031","locality":"Grünwald","municipality":{"key":"09184122","name":"Grünwald","type":"Kreisangehörige_Gemeinde"},"district":{"key":"09184","name":"München","type":"Landkreis"},"federalState":{"key":"09","name":"Bayern"}},{"name":"Setzbergweg","postalCode":"82031","locality":"Grünwald","municipality":{"key":"09184122","name":"Grünwald","type":"Kreisangehörige_Gemeinde"},"district":{"key":"09184","name":"München","type":"Landkreis"},"federalState":{"key":"09","name":"Bayern"}},{"name":"Seybold Geräumt","postalCode":"82064","locality":"Grünwalder Forst","municipality":{"key":"09184454","name":"Grünwalder Forst","type":"Gemeindefreies_Gebiet_Unbewohnt"},"district":{"key":"09184","name":"München","type":"Landkreis"},"federalState":{"key":"09","name":"Bayern"}},{"name":"Spitzingweg","postalCode":"82031","locality":"Grünwald","municipality":{"key":"09184122","name":"Grünwald","type":"Kreisangehörige_Gemeinde"},"district":{"key":"09184","name":"München","type":"Landkreis"},"federalState":{"key":"09","name":"Bayern"}},{"name":"Stierötz Geräumt","postalCode":"82064","locality":"Grünwalder Forst","municipality":{"key":"09184454","name":"Grünwalder Forst","type":"Gemeindefreies_Gebiet_Unbewohnt"},"district":{"key":"09184","name":"München","type":"Landkreis"},"federalState":{"key":"09","name":"Bayern"}},{"name":"Stierötz-Geräumt","postalCode":"82064","locality":"Grünwalder Forst","municipality":{"key":"09184454","name":"Grünwalder Forst","type":"Gemeindefreies_Gebiet_Unbewohnt"},"district":{"key":"09184","name":"München","type":"Landkreis"},"federalState":{"key":"09","name":"Bayern"}},{"name":"Stiglweg","postalCode":"82031","locality":"Grünwald","municipality":{"key":"09184122","name":"Grünwald","type":"Kreisangehörige_Gemeinde"},"district":{"key":"09184","name":"München","type":"Landkreis"},"federalState":{"key":"09","name":"Bayern"}},{"name":"Stöcklkreuzweg","postalCode":"82031","locality":"Grünwald","municipality":{"key":"09184122","name":"Grünwald","type":"Kreisangehörige_Gemeinde"},"district":{"key":"09184","name":"München","type":"Landkreis"},"federalState":{"key":"09","name":"Bayern"}},{"name":"Stümpflingstr.","postalCode":"82031","locality":"Grünwald","municipality":{"key":"09184122","name":"Grünwald","type":"Kreisangehörige_Gemeinde"},"district":{"key":"09184","name":"München","type":"Landkreis"},"federalState":{"key":"09","name":"Bayern"}},{"name":"Sudelfeldstr.","postalCode":"82031","locality":"Grünwald","municipality":{"key":"09184122","name":"Grünwald","type":"Kreisangehörige_Gemeinde"},"district":{"key":"09184","name":"München","type":"Landkreis"},"federalState":{"key":"09","name":"Bayern"}},{"name":"Sudetenstr.","postalCode":"82031","locality":"Grünwald","municipality":{"key":"09184122","name":"Grünwald","type":"Kreisangehörige_Gemeinde"},"district":{"key":"09184","name":"München","type":"Landkreis"},"federalState":{"key":"09","name":"Bayern"}},{"name":"Südliche Münchner Str.","postalCode":"82031","locality":"Grünwald","municipality":{"key":"09184122","name":"Grünwald","type":"Kreisangehörige_Gemeinde"},"district":{"key":"09184","name":"München","type":"Landkreis"},"federalState":{"key":"09","name":"Bayern"}},{"name":"Taubensteinstr.","postalCode":"82031","locality":"Grünwald","municipality":{"key":"09184122","name":"Grünwald","type":"Kreisangehörige_Gemeinde"},"district":{"key":"09184","name":"München","type":"Landkreis"},"federalState":{"key":"09","name":"Bayern"}},{"name":"Taufkirchner Weg","postalCode":"82064","locality":"Grünwalder Forst","municipality":{"key":"09184454","name":"Grünwalder Forst","type":"Gemeindefreies_Gebiet_Unbewohnt"},"district":{"key":"09184","name":"München","type":"Landkreis"},"federalState":{"key":"09","name":"Bayern"}},{"name":"Tobrukstr.","postalCode":"82031","locality":"Grünwald","municipality":{"key":"09184122","name":"Grünwald","type":"Kreisangehörige_Gemeinde"},"district":{"key":"09184","name":"München","type":"Landkreis"},"federalState":{"key":"09","name":"Bayern"}},{"name":"Tölzer Str.","postalCode":"82031","locality":"Grünwald","municipality":{"key":"09184122","name":"Grünwald","type":"Kreisangehörige_Gemeinde"},"district":{"key":"09184","name":"München","type":"Landkreis"},"federalState":{"key":"09","name":"Bayern"}},{"name":"Tremmlallee","postalCode":"82031","locality":"Grünwald","municipality":{"key":"09184122","name":"Grünwald","type":"Kreisangehörige_Gemeinde"},"district":{"key":"09184","name":"München","type":"Landkreis"},"federalState":{"key":"09","name":"Bayern"}},{"name":"U6","postalCode":"85748","locality":"Garching bei München","municipality":{"key":"09184119","name":"Garching b.München, St","type":"Stadt"},"district":{"key":"09184","name":"München","type":"Landkreis"},"federalState":{"key":"09","name":"Bayern"}},{"name":"Ubostr.","postalCode":"81245","locality":"München","municipality":{"key":"09162000","name":"München, Landeshauptstadt","type":"Kreisfreie_Stadt"},"district":{"key":"09162","name":"München, Landeshauptstadt","type":"Kreisfreie_Stadt"},"federalState":{"key":"09","name":"Bayern"}},{"name":"Udalrichstr.","postalCode":"80933","locality":"München","municipality":{"key":"09162000","name":"München, Landeshauptstadt","type":"Kreisfreie_Stadt"},"district":{"key":"09162","name":"München, Landeshauptstadt","type":"Kreisfreie_Stadt"},"federalState":{"key":"09","name":"Bayern"}},{"name":"Uffinger Str.","postalCode":"81477","locality":"München","municipality":{"key":"09162000","name":"München, Landeshauptstadt","type":"Kreisfreie_Stadt"},"district":{"key":"09162","name":"München, Landeshauptstadt","type":"Kreisfreie_Stadt"},"federalState":{"key":"09","name":"Bayern"}},{"name":"Uhdestr.","postalCode":"81477","locality":"München","municipality":{"key":"09162000","name":"München, Landeshauptstadt","type":"Kreisfreie_Stadt"},"district":{"key":"09162","name":"München, Landeshauptstadt","type":"Kreisfreie_Stadt"},"federalState":{"key":"09","name":"Bayern"}},{"name":"Uhlandstr.","postalCode":"80336","locality":"München","municipality":{"key":"09162000","name":"München, Landeshauptstadt","type":"Kreisfreie_Stadt"},"district":{"key":"09162","name":"München, Landeshauptstadt","type":"Kreisfreie_Stadt"},"federalState":{"key":"09","name":"Bayern"}},{"name":"Ulfilasstr.","postalCode":"81739","locality":"München","municipality":{"key":"09162000","name":"München, Landeshauptstadt","type":"Kreisfreie_Stadt"},"district":{"key":"09162","name":"München, Landeshauptstadt","type":"Kreisfreie_Stadt"},"federalState":{"key":"09","name":"Bayern"}},{"name":"Ulmenstr.","postalCode":"81545","locality":"München","municipality":{"key":"09162000","name":"München, Landeshauptstadt","type":"Kreisfreie_Stadt"},"district":{"key":"09162","name":"München, Landeshauptstadt","type":"Kreisfreie_Stadt"},"federalState":{"key":"09","name":"Bayern"}},{"name":"Ulrich-Corti-Str.","postalCode":"81249","locality":"München","municipality":{"key":"09162000","name":"München, Landeshauptstadt","type":"Kreisfreie_Stadt"},"district":{"key":"09162","name":"München, Landeshauptstadt","type":"Kreisfreie_Stadt"},"federalState":{"key":"09","name":"Bayern"}},{"name":"Ulrich-Kortler-Weg","postalCode":"81241","locality":"München","municipality":{"key":"09162000","name":"München, Landeshauptstadt","type":"Kreisfreie_Stadt"},"district":{"key":"09162","name":"München, Landeshauptstadt","type":"Kreisfreie_Stadt"},"federalState":{"key":"09","name":"Bayern"}},{"name":"Ulrichsberg","postalCode":"86830","locality":"Schwabmünchen","municipality":{"key":"09772200","name":"Schwabmünchen, St","type":"Stadt"},"district":{"key":"09772","name":"Augsburg","type":"Landkreis"},"federalState":{"key":"09","name":"Bayern"}},{"name":"Ulrichsbergstr.","postalCode":"81673","locality":"München","municipality":{"key":"09162000","name":"München, Landeshauptstadt","type":"Kreisfreie_Stadt"},"district":{"key":"09162","name":"München, Landeshauptstadt","type":"Kreisfreie_Stadt"},"federalState":{"key":"09","name":"Bayern"}},{"name":"Ulrichsgrüner Str.","postalCode":"93449","locality":"Waldmünchen","municipality":{"key":"09372171","name":"Waldmünchen, St","type":"Stadt"},"district":{"key":"09372","name":"Cham","type":"Landkreis"},"federalState":{"key":"09","name":"Bayern"}},{"name":"Ulrich-von-Hutten-Str.","postalCode":"81739","locality":"München","municipality":{"key":"09162000","name":"München, Landeshauptstadt","type":"Kreisfreie_Stadt"},"district":{"key":"09162","name":"München, Landeshauptstadt","type":"Kreisfreie_Stadt"},"federalState":{"key":"09","name":"Bayern"}},{"name":"Umgehungsstr.","postalCode":"85748","locality":"Garching bei München","municipality":{"key":"09184119","name":"Garching b.München, St","type":"Stadt"},"district":{"key":"09184","name":"München","type":"Landkreis"},"federalState":{"key":"09","name":"Bayern"}},{"name":"Undinestr.","postalCode":"81927","locality":"München","municipality":{"key":"09162000","name":"München, Landeshauptstadt","type":"Kreisfreie_Stadt"},"district":{"key":"09162","name":"München, Landeshauptstadt","type":"Kreisfreie_Stadt"},"federalState":{"key":"09","name":"Bayern"}},{"name":"Unertlstr.","postalCode":"80803","locality":"München","municipality":{"key":"09162000","name":"München, Landeshauptstadt","type":"Kreisfreie_Stadt"},"district":{"key":"09162","name":"München, Landeshauptstadt","type":"Kreisfreie_Stadt"},"federalState":{"key":"09","name":"Bayern"}},{"name":"Ungererstr.","postalCode":"80802","locality":"München","municipality":{"key":"09162000","name":"München, Landeshauptstadt","type":"Kreisfreie_Stadt"},"district":{"key":"09162","name":"München, Landeshauptstadt","type":"Kreisfreie_Stadt"},"federalState":{"key":"09","name":"Bayern"}},{"name":"Ungererstr.","postalCode":"80805","locality":"München","municipality":{"key":"09162000","name":"München, Landeshauptstadt","type":"Kreisfreie_Stadt"},"district":{"key":"09162","name":"München, Landeshauptstadt","type":"Kreisfreie_Stadt"},"federalState":{"key":"09","name":"Bayern"}},{"name":"Ungsteiner Str.","postalCode":"81539","locality":"München","municipality":{"key":"09162000","name":"München, Landeshauptstadt","type":"Kreisfreie_Stadt"},"district":{"key":"09162","name":"München, Landeshauptstadt","type":"Kreisfreie_Stadt"},"federalState":{"key":"09","name":"Bayern"}},{"name":"Ungsteiner Str.","postalCode":"81541","locality":"München","municipality":{"key":"09162000","name":"München, Landeshauptstadt","type":"Kreisfreie_Stadt"},"district":{"key":"09162","name":"München, Landeshauptstadt","type":"Kreisfreie_Stadt"},"federalState":{"key":"09","name":"Bayern"}},{"name":"Unnützstr.","postalCode":"81825","locality":"München","municipality":{"key":"09162000","name":"München, Landeshauptstadt","type":"Kreisfreie_Stadt"},"district":{"key":"09162","name":"München, Landeshauptstadt","type":"Kreisfreie_Stadt"},"federalState":{"key":"09","name":"Bayern"}},{"name":"Unnützwiese","postalCode":"81825","locality":"München","municipality":{"key":"09162000","name":"München, Landeshauptstadt","type":"Kreisfreie_Stadt"},"district":{"key":"09162","name":"München, Landeshauptstadt","type":"Kreisfreie_Stadt"},"federalState":{"key":"09","name":"Bayern"}},{"name":"Unsöldstr.","postalCode":"80538","locality":"München","municipality":{"key":"09162000","name":"München, Landeshauptstadt","type":"Kreisfreie_Stadt"},"district":{"key":"09162","name":"München, Landeshauptstadt","type":"Kreisfreie_Stadt"},"federalState":{"key":"09","name":"Bayern"}},{"name":"Unteranger","postalCode":"85567","locality":"Grafing bei München","municipality":{"key":"09175122","name":"Grafing b.München, St","type":"Stadt"},"district":{"key":"09175","name":"Ebersberg","type":"Landkreis"},"federalState":{"key":"09","name":"Bayern"}},{"name":"Unterbiberger Str.","postalCode":"81737","locality":"München","municipality":{"key":"09162000","name":"München, Landeshauptstadt","type":"Kreisfreie_Stadt"},"district":{"key":"09162","name":"München, Landeshauptstadt","type":"Kreisfreie_Stadt"},"federalState":{"key":"09","name":"Bayern"}},{"name":"Unterbrunner Str.","postalCode":"81475","locality":"München","municipality":{"key":"09162000","name":"München, Landeshauptstadt","type":"Kreisfreie_Stadt"},"district":{"key":"09162","name":"München, Landeshauptstadt","type":"Kreisfreie_Stadt"},"federalState":{"key":"09","name":"Bayern"}},{"name":"Unter der Linde","postalCode":"80939","locality":"München","municipality":{"key":"09162000","name":"München, Landeshauptstadt","type":"Kreisfreie_Stadt"},"district":{"key":"09162","name":"München, Landeshauptstadt","type":"Kreisfreie_Stadt"},"federalState":{"key":"09","name":"Bayern"}},{"name":"Untere Allee","postalCode":"80997","locality":"München","municipality":{"key":"09162000","name":"München, Landeshauptstadt","type":"Kreisfreie_Stadt"},"district":{"key":"09162","name":"München, Landeshauptstadt","type":"Kreisfreie_Stadt"},"federalState":{"key":"09","name":"Bayern"}},{"name":"Untere Angerlohe","postalCode":"80997","locality":"München","municipality":{"key":"09162000","name":"München, Landeshauptstadt","type":"Kreisfreie_Stadt"},"district":{"key":"09162","name":"München, Landeshauptstadt","type":"Kreisfreie_Stadt"},"federalState":{"key":"09","name":"Bayern"}},{"name":"Untere Bachgasse","postalCode":"07589","locality":"Münchenbernsdorf","municipality":{"key":"16076049","name":"Münchenbernsdorf, Stadt","type":"Stadt"},"district":{"key":"16076","name":"Greiz","type":"Landkreis"},"federalState":{"key":"16","name":"Thüringen"}},{"name":"Untere Bräuhausstr.","postalCode":"93449","locality":"Waldmünchen","municipality":{"key":"09372171","name":"Waldmünchen, St","type":"Stadt"},"district":{"key":"09372","name":"Cham","type":"Landkreis"},"federalState":{"key":"09","name":"Bayern"}},{"name":"Untere Feldstr.","postalCode":"81675","locality":"München","municipality":{"key":"09162000","name":"München, Landeshauptstadt","type":"Kreisfreie_Stadt"},"district":{"key":"09162","name":"München, Landeshauptstadt","type":"Kreisfreie_Stadt"},"federalState":{"key":"09","name":"Bayern"}},{"name":"Untere Grasstr.","postalCode":"81541","locality":"München","municipality":{"key":"09162000","name":"München, Landeshauptstadt","type":"Kreisfreie_Stadt"},"district":{"key":"09162","name":"München, Landeshauptstadt","type":"Kreisfreie_Stadt"},"federalState":{"key":"09","name":"Bayern"}},{"name":"Untere Hausbreite","postalCode":"80939","locality":"München","municipality":{"key":"09162000","name":"München, Landeshauptstadt","type":"Kreisfreie_Stadt"},"district":{"key":"09162","name":"München, Landeshauptstadt","type":"Kreisfreie_Stadt"},"federalState":{"key":"09","name":"Bayern"}},{"name":"Untere Johannisstr.","postalCode":"81667","locality":"München","municipality":{"key":"09162000","name":"München, Landeshauptstadt","type":"Kreisfreie_Stadt"},"district":{"key":"09162","name":"München, Landeshauptstadt","type":"Kreisfreie_Stadt"},"federalState":{"key":"09","name":"Bayern"}},{"name":"Untere Krautstr.","postalCode":"80993","locality":"München","municipality":{"key":"09162000","name":"München, Landeshauptstadt","type":"Kreisfreie_Stadt"},"district":{"key":"09162","name":"München, Landeshauptstadt","type":"Kreisfreie_Stadt"},"federalState":{"key":"09","name":"Bayern"}},{"name":"Untere Länge","postalCode":"80939","locality":"München","municipality":{"key":"09162000","name":"München, Landeshauptstadt","type":"Kreisfreie_Stadt"},"district":{"key":"09162","name":"München, Landeshauptstadt","type":"Kreisfreie_Stadt"},"federalState":{"key":"09","name":"Bayern"}},{"name":"Untere Mühlstr.","postalCode":"80999","locality":"München","municipality":{"key":"09162000","name":"München, Landeshauptstadt","type":"Kreisfreie_Stadt"},"district":{"key":"09162","name":"München, Landeshauptstadt","type":"Kreisfreie_Stadt"},"federalState":{"key":"09","name":"Bayern"}},{"name":"Unterer Anger","postalCode":"80331","locality":"München","municipality":{"key":"09162000","name":"München, Landeshauptstadt","type":"Kreisfreie_Stadt"},"district":{"key":"09162","name":"München, Landeshauptstadt","type":"Kreisfreie_Stadt"},"federalState":{"key":"09","name":"Bayern"}},{"name":"Untere Rieselstr.","postalCode":"93449","locality":"Waldmünchen","municipality":{"key":"09372171","name":"Waldmünchen, St","type":"Stadt"},"district":{"key":"09372","name":"Cham","type":"Landkreis"},"federalState":{"key":"09","name":"Bayern"}},{"name":"Unterer Trathweg","postalCode":"93449","locality":"Waldmünchen","municipality":{"key":"09372171","name":"Waldmünchen, St","type":"Stadt"},"district":{"key":"09372","name":"Cham","type":"Landkreis"},"federalState":{"key":"09","name":"Bayern"}},{"name":"Untere Straßäcker","postalCode":"85748","locality":"Garching bei München","municipality":{"key":"09184119","name":"Garching b.München, St","type":"Stadt"},"district":{"key":"09184","name":"München","type":"Landkreis"},"federalState":{"key":"09","name":"Bayern"}},{"name":"Untere Weidenstr.","postalCode":"81543","locality":"München","municipality":{"key":"09162000","name":"München, Landeshauptstadt","type":"Kreisfreie_Stadt"},"district":{"key":"09162","name":"München, Landeshauptstadt","type":"Kreisfreie_Stadt"},"federalState":{"key":"09","name":"Bayern"}},{"name":"Untere Zell","postalCode":"93449","locality":"Waldmünchen","municipality":{"key":"09372171","name":"Waldmünchen, St","type":"Stadt"},"district":{"key":"09372","name":"Cham","type":"Landkreis"},"federalState":{"key":"09","name":"Bayern"}},{"name":"Unterhachinger Str.","postalCode":"81737","locality":"München","municipality":{"key":"09162000","name":"München, Landeshauptstadt","type":"Kreisfreie_Stadt"},"district":{"key":"09162","name":"München, Landeshauptstadt","type":"Kreisfreie_Stadt"},"federalState":{"key":"09","name":"Bayern"}},{"name":"Unterhütte","postalCode":"93449","locality":"Waldmünchen","municipality":{"key":"09372171","name":"Waldmünchen, St","type":"Stadt"},"district":{"key":"09372","name":"Cham","type":"Landkreis"},"federalState":{"key":"09","name":"Bayern"}},{"name":"Unterhüttener Str.","postalCode":"93449","locality":"Waldmünchen","municipality":{"key":"09372171","name":"Waldmünchen, St","type":"Stadt"},"district":{"key":"09372","name":"Cham","type":"Landkreis"},"federalState":{"key":"09","name":"Bayern"}},{"name":"Untermenzinger Str.","postalCode":"80997","locality":"München","municipality":{"key":"09162000","name":"München, Landeshauptstadt","type":"Kreisfreie_Stadt"},"district":{"key":"09162","name":"München, Landeshauptstadt","type":"Kreisfreie_Stadt"},"federalState":{"key":"09","name":"Bayern"}},{"name":"Untermühlanger","postalCode":"80995","locality":"München","municipality":{"key":"09162000","name":"München, Landeshauptstadt","type":"Kreisfreie_Stadt"},"district":{"key":"09162","name":"München, Landeshauptstadt","type":"Kreisfreie_Stadt"},"federalState":{"key":"09","name":"Bayern"}},{"name":"Vogelsangstr.","postalCode":"82031","locality":"Grünwald","municipality":{"key":"09184122","name":"Grünwald","type":"Kreisangehörige_Gemeinde"},"district":{"key":"09184","name":"München","type":"Landkreis"},"federalState":{"key":"09","name":"Bayern"}},{"name":"Von-Ranke-Str.","postalCode":"82031","locality":"Grünwald","municipality":{"key":"09184122","name":"Grünwald","type":"Kreisangehörige_Gemeinde"},"district":{"key":"09184","name":"München","type":"Landkreis"},"federalState":{"key":"09","name":"Bayern"}},{"name":"Waldeckstr.","postalCode":"82031","locality":"Grünwald","municipality":{"key":"09184122","name":"Grünwald","type":"Kreisangehörige_Gemeinde"},"district":{"key":"09184","name":"München","type":"Landkreis"},"federalState":{"key":"09","name":"Bayern"}},{"name":"Waldfriedenstr.","postalCode":"82031","locality":"Grünwald","municipality":{"key":"09184122","name":"Grünwald","type":"Kreisangehörige_Gemeinde"},"district":{"key":"09184","name":"München","type":"Landkreis"},"federalState":{"key":"09","name":"Bayern"}},{"name":"Waldweg","postalCode":"82031","locality":"Grünwald","municipality":{"key":"09184122","name":"Grünwald","type":"Kreisangehörige_Gemeinde"},"district":{"key":"09184","name":"München","type":"Landkreis"},"federalState":{"key":"09","name":"Bayern"}},{"name":"Wallbergstr.","postalCode":"82031","locality":"Grünwald","municipality":{"key":"09184122","name":"Grünwald","type":"Kreisangehörige_Gemeinde"},"district":{"key":"09184","name":"München","type":"Landkreis"},"federalState":{"key":"09","name":"Bayern"}},{"name":"Walleitnerstr.","postalCode":"82031","locality":"Grünwald","municipality":{"key":"09184122","name":"Grünwald","type":"Kreisangehörige_Gemeinde"},"district":{"key":"09184","name":"München","type":"Landkreis"},"federalState":{"key":"09","name":"Bayern"}},{"name":"Weg im Esterholz","postalCode":"82064","locality":"Grünwalder Forst","municipality":{"key":"09184454","name":"Grünwalder Forst","type":"Gemeindefreies_Gebiet_Unbewohnt"},"district":{"key":"09184","name":"München","type":"Landkreis"},"federalState":{"key":"09","name":"Bayern"}},{"name":"Wendelsteinstr.","postalCode":"82031","locality":"Grünwald","municipality":{"key":"09184122","name":"Grünwald","type":"Kreisangehörige_Gemeinde"},"district":{"key":"09184","name":"München","type":"Landkreis"},"federalState":{"key":"09","name":"Bayern"}},{"name":"Wilhelm-Humser-Str.","postalCode":"82031","locality":"Grünwald","municipality":{"key":"09184122","name":"Grünwald","type":"Kreisangehörige_Gemeinde"},"district":{"key":"09184","name":"München","type":"Landkreis"},"federalState":{"key":"09","name":"Bayern"}},{"name":"Wilhelm-Keim-Str.","postalCode":"82031","locality":"Grünwald","municipality":{"key":"09184122","name":"Grünwald","type":"Kreisangehörige_Gemeinde"},"district":{"key":"09184","name":"München","type":"Landkreis"},"federalState":{"key":"09","name":"Bayern"}},{"name":"Willi-Stamer-Str.","postalCode":"82031","locality":"Grünwald","municipality":{"key":"09184122","name":"Grünwald","type":"Kreisangehörige_Gemeinde"},"district":{"key":"09184","name":"München","type":"Landkreis"},"federalState":{"key":"09","name":"Bayern"}},{"name":"Wörnbrunner-Geräumt","postalCode":"82064","locality":"Grünwalder Forst","municipality":{"key":"09184454","name":"Grünwalder Forst","type":"Gemeindefreies_Gebiet_Unbewohnt"},"district":{"key":"09184","name":"München","type":"Landkreis"},"federalState":{"key":"09","name":"Bayern"}},{"name":"Wörnbrunner Str.","postalCode":"82031","locality":"Grünwald","municipality":{"key":"09184122","name":"Grünwald","type":"Kreisangehörige_Gemeinde"},"district":{"key":"09184","name":"München","type":"Landkreis"},"federalState":{"key":"09","name":"Bayern"}},{"name":"Xaver-Weismor-Str.","postalCode":"81829","locality":"München","municipality":{"key":"09162000","name":"München, Landeshauptstadt","type":"Kreisfreie_Stadt"},"district":{"key":"09162","name":"München, Landeshauptstadt","type":"Kreisfreie_Stadt"},"federalState":{"key":"09","name":"Bayern"}},{"name":"Yorckstr.","postalCode":"80637","locality":"München","municipality":{"key":"09162000","name":"München, Landeshauptstadt","type":"Kreisfreie_Stadt"},"district":{"key":"09162","name":"München, Landeshauptstadt","type":"Kreisfreie_Stadt"},"federalState":{"key":"09","name":"Bayern"}},{"name":"Ysenburgstr.","postalCode":"80634","locality":"München","municipality":{"key":"09162000","name":"München, Landeshauptstadt","type":"Kreisfreie_Stadt"},"district":{"key":"09162","name":"München, Landeshauptstadt","type":"Kreisfreie_Stadt"},"federalState":{"key":"09","name":"Bayern"}},{"name":"Zeillerstr.","postalCode":"82031","locality":"Grünwald","municipality":{"key":"09184122","name":"Grünwald","type":"Kreisangehörige_Gemeinde"},"district":{"key":"09184","name":"München","type":"Landkreis"},"federalState":{"key":"09","name":"Bayern"}},{"name":"Zöllnerwies-Geräumt","postalCode":"82064","locality":"Grünwalder Forst","municipality":{"key":"09184454","name":"Grünwalder Forst","type":"Gemeindefreies_Gebiet_Unbewohnt"},"district":{"key":"09184","name":"München","type":"Landkreis"},"federalState":{"key":"09","name":"Bayern"}},{"name":"Zugspitzstr.","postalCode":"82031","locality":"Grünwald","municipality":{"key":"09184122","name":"Grünwald","type":"Kreisangehörige_Gemeinde"},"district":{"key":"09184","name":"München","type":"Landkreis"},"federalState":{"key":"09","name":"Bayern"}},{"name":"Züllnhardt-Geräumt","postalCode":"82064","locality":"Grünwalder Forst","municipality":{"key":"09184454","name":"Grünwalder Forst","type":"Gemeindefreies_Gebiet_Unbewohnt"},"district":{"key":"09184","name":"München","type":"Landkreis"},"federalState":{"key":"09","name":"Bayern"}},{"name":"Zweigstr.","postalCode":"82031","locality":"Grünwald","municipality":{"key":"09184122","name":"Grünwald","type":"Kreisangehörige_Gemeinde"},"district":{"key":"09184","name":"München","type":"Landkreis"},"federalState":{"key":"09","name":"Bayern"}},{"name":"Ötz Geräumt","postalCode":"82064","locality":"Grünwalder Forst","municipality":{"key":"09184454","name":"Grünwalder Forst","type":"Gemeindefreies_Gebiet_Unbewohnt"},"district":{"key":"09184","name":"München","type":"Landkreis"},"federalState":{"key":"09","name":"Bayern"}},{"name":"Über der Klause","postalCode":"81545","locality":"München","municipality":{"key":"09162000","name":"München, Landeshauptstadt","type":"Kreisfreie_Stadt"},"district":{"key":"09162","name":"München, Landeshauptstadt","type":"Kreisfreie_Stadt"},"federalState":{"key":"09","name":"Bayern"}},{"name":"Überlinger Weg","postalCode":"81243","locality":"München","municipality":{"key":"09162000","name":"München, Landeshauptstadt","type":"Kreisfreie_Stadt"},"district":{"key":"09162","name":"München, Landeshauptstadt","type":"Kreisfreie_Stadt"},"federalState":{"key":"09","name":"Bayern"}},{"name":"Überreiterstr.","postalCode":"81247","locality":"München","municipality":{"key":"09162000","name":"München, Landeshauptstadt","type":"Kreisfreie_Stadt"},"district":{"key":"09162","name":"München, Landeshauptstadt","type":"Kreisfreie_Stadt"},"federalState":{"key":"09","name":"Bayern"}},{"name":"Überreiterweg","postalCode":"85748","locality":"Garching bei München","municipality":{"key":"09184119","name":"Garching b.München, St","type":"Stadt"},"district":{"key":"09184","name":"München","type":"Landkreis"},"federalState":{"key":"09","name":"Bayern"}},{"name":"Überrheinerstr.","postalCode":"85551","locality":"Kirchheim bei München","municipality":{"key":"09184131","name":"Kirchheim b.München","type":"Kreisangehörige_Gemeinde"},"district":{"key":"09184","name":"München","type":"Landkreis"},"federalState":{"key":"09","name":"Bayern"}},{"name":"Überseeplatz","postalCode":"81825","locality":"München","municipality":{"key":"09162000","name":"München, Landeshauptstadt","type":"Kreisfreie_Stadt"},"district":{"key":"09162","name":"München, Landeshauptstadt","type":"Kreisfreie_Stadt"},"federalState":{"key":"09","name":"Bayern"}},]