[{"name":"Adalbert-Stifter-Str.","postalCode":"63762","locality":"Großostheim","municipality":{"key":"09671122","name":"Großostheim, M","type":"Markt"},"district":{"key":"09671","name":"Aschaffenburg","type":"Landkreis"},"federalState":{"key":"09","name":"Bayern"}},{"name":"Alte Häge","postalCode":"63762","locality":"Großostheim","municipality":{"key":"09671122","name":"Großostheim, M","type":"Markt"},"district":{"key":"09671","name":"Aschaffenburg","type":"Landkreis"},"federalState":{"key":"09","name":"Bayern"}},{"name":"Alter Graben","postalCode":"63762","locality":"Großostheim","municipality":{"key":"09671122","name":"Großostheim, M","type":"Markt"},"district":{"key":"09671","name":"Aschaffenburg","type":"Landkreis"},"federalState":{"key":"09","name":"Bayern"}},{"name":"Alter Stadtweg","postalCode":"63762","locality":"Großostheim","municipality":{"key":"09671122","name":"Großostheim, M","type":"Markt"},"district":{"key":"09671","name":"Aschaffenburg","type":"Landkreis"},"federalState":{"key":"09","name":"Bayern"}},{"name":"Am Bach","postalCode":"63762","locality":"Großostheim","municipality":{"key":"09671122","name":"Großostheim, M","type":"Markt"},"district":{"key":"09671","name":"Aschaffenburg","type":"Landkreis"},"federalState":{"key":"09","name":"Bayern"}},{"name":"Am Bahnhof","postalCode":"63762","locality":"Großostheim","municipality":{"key":"09671122","name":"Großostheim, M","type":"Markt"},"district":{"key":"09671","name":"Aschaffenburg","type":"Landkreis"},"federalState":{"key":"09","name":"Bayern"}},{"name":"Am Bergweg","postalCode":"63762","locality":"Großostheim","municipality":{"key":"09671122","name":"Großostheim, M","type":"Markt"},"district":{"key":"09671","name":"Aschaffenburg","type":"Landkreis"},"federalState":{"key":"09","name":"Bayern"}},{"name":"Am Brunnenberg","postalCode":"63762","locality":"Großostheim","municipality":{"key":"09671122","name":"Großostheim, M","type":"Markt"},"district":{"key":"09671","name":"Aschaffenburg","type":"Landkreis"},"federalState":{"key":"09","name":"Bayern"}},{"name":"Am Eckpfad","postalCode":"63762","locality":"Großostheim","municipality":{"key":"09671122","name":"Großostheim, M","type":"Markt"},"district":{"key":"09671","name":"Aschaffenburg","type":"Landkreis"},"federalState":{"key":"09","name":"Bayern"}},{"name":"Am Fliegerhorst","postalCode":"63762","locality":"Großostheim","municipality":{"key":"09671122","name":"Großostheim, M","type":"Markt"},"district":{"key":"09671","name":"Aschaffenburg","type":"Landkreis"},"federalState":{"key":"09","name":"Bayern"}},{"name":"Am Floß","postalCode":"63762","locality":"Großostheim","municipality":{"key":"09671122","name":"Großostheim, M","type":"Markt"},"district":{"key":"09671","name":"Aschaffenburg","type":"Landkreis"},"federalState":{"key":"09","name":"Bayern"}},{"name":"Am Gänsberg","postalCode":"63762","locality":"Großostheim","municipality":{"key":"09671122","name":"Großostheim, M","type":"Markt"},"district":{"key":"09671","name":"Aschaffenburg","type":"Landkreis"},"federalState":{"key":"09","name":"Bayern"}},{"name":"Am Graben","postalCode":"63762","locality":"Großostheim","municipality":{"key":"09671122","name":"Großostheim, M","type":"Markt"},"district":{"key":"09671","name":"Aschaffenburg","type":"Landkreis"},"federalState":{"key":"09","name":"Bayern"}},{"name":"Am Hohen Stein","postalCode":"63762","locality":"Großostheim","municipality":{"key":"09671122","name":"Großostheim, M","type":"Markt"},"district":{"key":"09671","name":"Aschaffenburg","type":"Landkreis"},"federalState":{"key":"09","name":"Bayern"}},{"name":"Am Kirchberg","postalCode":"63762","locality":"Großostheim","municipality":{"key":"09671122","name":"Großostheim, M","type":"Markt"},"district":{"key":"09671","name":"Aschaffenburg","type":"Landkreis"},"federalState":{"key":"09","name":"Bayern"}},{"name":"Am Kreisgraben","postalCode":"63762","locality":"Großostheim","municipality":{"key":"09671122","name":"Großostheim, M","type":"Markt"},"district":{"key":"09671","name":"Aschaffenburg","type":"Landkreis"},"federalState":{"key":"09","name":"Bayern"}},{"name":"Am Mischborn","postalCode":"63762","locality":"Großostheim","municipality":{"key":"09671122","name":"Großostheim, M","type":"Markt"},"district":{"key":"09671","name":"Aschaffenburg","type":"Landkreis"},"federalState":{"key":"09","name":"Bayern"}},{"name":"Am Mühlberg","postalCode":"63762","locality":"Großostheim","municipality":{"key":"09671122","name":"Großostheim, M","type":"Markt"},"district":{"key":"09671","name":"Aschaffenburg","type":"Landkreis"},"federalState":{"key":"09","name":"Bayern"}},{"name":"Am Petersbildstock","postalCode":"63762","locality":"Großostheim","municipality":{"key":"09671122","name":"Großostheim, M","type":"Markt"},"district":{"key":"09671","name":"Aschaffenburg","type":"Landkreis"},"federalState":{"key":"09","name":"Bayern"}},{"name":"Am Ried","postalCode":"63762","locality":"Großostheim","municipality":{"key":"09671122","name":"Großostheim, M","type":"Markt"},"district":{"key":"09671","name":"Aschaffenburg","type":"Landkreis"},"federalState":{"key":"09","name":"Bayern"}},{"name":"Am Röhrig","postalCode":"63762","locality":"Großostheim","municipality":{"key":"09671122","name":"Großostheim, M","type":"Markt"},"district":{"key":"09671","name":"Aschaffenburg","type":"Landkreis"},"federalState":{"key":"09","name":"Bayern"}},{"name":"Am Schornberg","postalCode":"63762","locality":"Großostheim","municipality":{"key":"09671122","name":"Großostheim, M","type":"Markt"},"district":{"key":"09671","name":"Aschaffenburg","type":"Landkreis"},"federalState":{"key":"09","name":"Bayern"}},{"name":"Am Schützberg","postalCode":"63762","locality":"Großostheim","municipality":{"key":"09671122","name":"Großostheim, M","type":"Markt"},"district":{"key":"09671","name":"Aschaffenburg","type":"Landkreis"},"federalState":{"key":"09","name":"Bayern"}},{"name":"Amselweg","postalCode":"63762","locality":"Großostheim","municipality":{"key":"09671122","name":"Großostheim, M","type":"Markt"},"district":{"key":"09671","name":"Aschaffenburg","type":"Landkreis"},"federalState":{"key":"09","name":"Bayern"}},{"name":"Amseweg","postalCode":"63762","locality":"Großostheim","municipality":{"key":"09671122","name":"Großostheim, M","type":"Markt"},"district":{"key":"09671","name":"Aschaffenburg","type":"Landkreis"},"federalState":{"key":"09","name":"Bayern"}},{"name":"Am Sportplatz","postalCode":"63762","locality":"Großostheim","municipality":{"key":"09671122","name":"Großostheim, M","type":"Markt"},"district":{"key":"09671","name":"Aschaffenburg","type":"Landkreis"},"federalState":{"key":"09","name":"Bayern"}},{"name":"Am Stumpfen Turm","postalCode":"63762","locality":"Großostheim","municipality":{"key":"09671122","name":"Großostheim, M","type":"Markt"},"district":{"key":"09671","name":"Aschaffenburg","type":"Landkreis"},"federalState":{"key":"09","name":"Bayern"}},{"name":"Am Südhang","postalCode":"63762","locality":"Großostheim","municipality":{"key":"09671122","name":"Großostheim, M","type":"Markt"},"district":{"key":"09671","name":"Aschaffenburg","type":"Landkreis"},"federalState":{"key":"09","name":"Bayern"}},{"name":"Am Trieb","postalCode":"63762","locality":"Großostheim","municipality":{"key":"09671122","name":"Großostheim, M","type":"Markt"},"district":{"key":"09671","name":"Aschaffenburg","type":"Landkreis"},"federalState":{"key":"09","name":"Bayern"}},{"name":"Am Weilerhof","postalCode":"63762","locality":"Großostheim","municipality":{"key":"09671122","name":"Großostheim, M","type":"Markt"},"district":{"key":"09671","name":"Aschaffenburg","type":"Landkreis"},"federalState":{"key":"09","name":"Bayern"}},{"name":"Am Wildgraben","postalCode":"63762","locality":"Großostheim","municipality":{"key":"09671122","name":"Großostheim, M","type":"Markt"},"district":{"key":"09671","name":"Aschaffenburg","type":"Landkreis"},"federalState":{"key":"09","name":"Bayern"}},{"name":"An der Dorfmauer","postalCode":"63762","locality":"Großostheim","municipality":{"key":"09671122","name":"Großostheim, M","type":"Markt"},"district":{"key":"09671","name":"Aschaffenburg","type":"Landkreis"},"federalState":{"key":"09","name":"Bayern"}},{"name":"An der Dreschhalle","postalCode":"63762","locality":"Großostheim","municipality":{"key":"09671122","name":"Großostheim, M","type":"Markt"},"district":{"key":"09671","name":"Aschaffenburg","type":"Landkreis"},"federalState":{"key":"09","name":"Bayern"}},{"name":"An der Kandelskehre","postalCode":"63762","locality":"Großostheim","municipality":{"key":"09671122","name":"Großostheim, M","type":"Markt"},"district":{"key":"09671","name":"Aschaffenburg","type":"Landkreis"},"federalState":{"key":"09","name":"Bayern"}},{"name":"An der Kuhpforte","postalCode":"63762","locality":"Großostheim","municipality":{"key":"09671122","name":"Großostheim, M","type":"Markt"},"district":{"key":"09671","name":"Aschaffenburg","type":"Landkreis"},"federalState":{"key":"09","name":"Bayern"}},{"name":"Anne-Frank-Str.","postalCode":"63762","locality":"Großostheim","municipality":{"key":"09671122","name":"Großostheim, M","type":"Markt"},"district":{"key":"09671","name":"Aschaffenburg","type":"Landkreis"},"federalState":{"key":"09","name":"Bayern"}},{"name":"Anton-Bieber-Weg","postalCode":"63762","locality":"Großostheim","municipality":{"key":"09671122","name":"Großostheim, M","type":"Markt"},"district":{"key":"09671","name":"Aschaffenburg","type":"Landkreis"},"federalState":{"key":"09","name":"Bayern"}},{"name":"Aschaffenburger Str.","postalCode":"63762","locality":"Großostheim","municipality":{"key":"09671122","name":"Großostheim, M","type":"Markt"},"district":{"key":"09671","name":"Aschaffenburg","type":"Landkreis"},"federalState":{"key":"09","name":"Bayern"}},{"name":"Aschaffenburger Weg","postalCode":"63762","locality":"Großostheim","municipality":{"key":"09671122","name":"Großostheim, M","type":"Markt"},"district":{"key":"09671","name":"Aschaffenburg","type":"Landkreis"},"federalState":{"key":"09","name":"Bayern"}},{"name":"Auf der Stichel","postalCode":"63762","locality":"Großostheim","municipality":{"key":"09671122","name":"Großostheim, M","type":"Markt"},"district":{"key":"09671","name":"Aschaffenburg","type":"Landkreis"},"federalState":{"key":"09","name":"Bayern"}},{"name":"Babenhaeuser Str.","postalCode":"63762","locality":"Großostheim","municipality":{"key":"09671122","name":"Großostheim, M","type":"Markt"},"district":{"key":"09671","name":"Aschaffenburg","type":"Landkreis"},"federalState":{"key":"09","name":"Bayern"}},{"name":"Babenhaeuser Strasse","postalCode":"63762","locality":"Großostheim","municipality":{"key":"09671122","name":"Großostheim, M","type":"Markt"},"district":{"key":"09671","name":"Aschaffenburg","type":"Landkreis"},"federalState":{"key":"09","name":"Bayern"}},{"name":"Babenhäuser Str.","postalCode":"63762","locality":"Großostheim","municipality":{"key":"09671122","name":"Großostheim, M","type":"Markt"},"district":{"key":"09671","name":"Aschaffenburg","type":"Landkreis"},"federalState":{"key":"09","name":"Bayern"}},{"name":"Bachgaustr.","postalCode":"63762","locality":"Großostheim","municipality":{"key":"09671122","name":"Großostheim, M","type":"Markt"},"district":{"key":"09671","name":"Aschaffenburg","type":"Landkreis"},"federalState":{"key":"09","name":"Bayern"}},{"name":"Bachstelzengasse","postalCode":"63762","locality":"Großostheim","municipality":{"key":"09671122","name":"Großostheim, M","type":"Markt"},"district":{"key":"09671","name":"Aschaffenburg","type":"Landkreis"},"federalState":{"key":"09","name":"Bayern"}},{"name":"Bachstr.","postalCode":"63762","locality":"Großostheim","municipality":{"key":"09671122","name":"Großostheim, M","type":"Markt"},"district":{"key":"09671","name":"Aschaffenburg","type":"Landkreis"},"federalState":{"key":"09","name":"Bayern"}},{"name":"Backhausstr.","postalCode":"63762","locality":"Großostheim","municipality":{"key":"09671122","name":"Großostheim, M","type":"Markt"},"district":{"key":"09671","name":"Aschaffenburg","type":"Landkreis"},"federalState":{"key":"09","name":"Bayern"}},{"name":"Bahnhofstr.","postalCode":"63762","locality":"Großostheim","municipality":{"key":"09671122","name":"Großostheim, M","type":"Markt"},"district":{"key":"09671","name":"Aschaffenburg","type":"Landkreis"},"federalState":{"key":"09","name":"Bayern"}},{"name":"Bahnpfad","postalCode":"63762","locality":"Großostheim","municipality":{"key":"09671122","name":"Großostheim, M","type":"Markt"},"district":{"key":"09671","name":"Aschaffenburg","type":"Landkreis"},"federalState":{"key":"09","name":"Bayern"}},{"name":"Bahnweg","postalCode":"63762","locality":"Großostheim","municipality":{"key":"09671122","name":"Großostheim, M","type":"Markt"},"district":{"key":"09671","name":"Aschaffenburg","type":"Landkreis"},"federalState":{"key":"09","name":"Bayern"}},{"name":"Balduinistr.","postalCode":"63762","locality":"Großostheim","municipality":{"key":"09671122","name":"Großostheim, M","type":"Markt"},"district":{"key":"09671","name":"Aschaffenburg","type":"Landkreis"},"federalState":{"key":"09","name":"Bayern"}},{"name":"Barbaraweg","postalCode":"63762","locality":"Großostheim","municipality":{"key":"09671122","name":"Großostheim, M","type":"Markt"},"district":{"key":"09671","name":"Aschaffenburg","type":"Landkreis"},"federalState":{"key":"09","name":"Bayern"}},{"name":"Bartholomäusweg","postalCode":"63762","locality":"Großostheim","municipality":{"key":"09671122","name":"Großostheim, M","type":"Markt"},"district":{"key":"09671","name":"Aschaffenburg","type":"Landkreis"},"federalState":{"key":"09","name":"Bayern"}},{"name":"Bauhofstr.","postalCode":"63762","locality":"Großostheim","municipality":{"key":"09671122","name":"Großostheim, M","type":"Markt"},"district":{"key":"09671","name":"Aschaffenburg","type":"Landkreis"},"federalState":{"key":"09","name":"Bayern"}},{"name":"Bayernstr.","postalCode":"63762","locality":"Großostheim","municipality":{"key":"09671122","name":"Großostheim, M","type":"Markt"},"district":{"key":"09671","name":"Aschaffenburg","type":"Landkreis"},"federalState":{"key":"09","name":"Bayern"}},{"name":"Beinegasse","postalCode":"63762","locality":"Großostheim","municipality":{"key":"09671122","name":"Großostheim, M","type":"Markt"},"district":{"key":"09671","name":"Aschaffenburg","type":"Landkreis"},"federalState":{"key":"09","name":"Bayern"}},{"name":"Bergstr.","postalCode":"63762","locality":"Großostheim","municipality":{"key":"09671122","name":"Großostheim, M","type":"Markt"},"district":{"key":"09671","name":"Aschaffenburg","type":"Landkreis"},"federalState":{"key":"09","name":"Bayern"}},{"name":"Bernhauerstr.","postalCode":"63762","locality":"Großostheim","municipality":{"key":"09671122","name":"Großostheim, M","type":"Markt"},"district":{"key":"09671","name":"Aschaffenburg","type":"Landkreis"},"federalState":{"key":"09","name":"Bayern"}},{"name":"Bettgesgraben","postalCode":"63762","locality":"Großostheim","municipality":{"key":"09671122","name":"Großostheim, M","type":"Markt"},"district":{"key":"09671","name":"Aschaffenburg","type":"Landkreis"},"federalState":{"key":"09","name":"Bayern"}},{"name":"Biebigheimer Str.","postalCode":"63762","locality":"Großostheim","municipality":{"key":"09671122","name":"Großostheim, M","type":"Markt"},"district":{"key":"09671","name":"Aschaffenburg","type":"Landkreis"},"federalState":{"key":"09","name":"Bayern"}},{"name":"Birkenhain","postalCode":"63762","locality":"Großostheim","municipality":{"key":"09671122","name":"Großostheim, M","type":"Markt"},"district":{"key":"09671","name":"Aschaffenburg","type":"Landkreis"},"federalState":{"key":"09","name":"Bayern"}},{"name":"Birkenstr.","postalCode":"63762","locality":"Großostheim","municipality":{"key":"09671122","name":"Großostheim, M","type":"Markt"},"district":{"key":"09671","name":"Aschaffenburg","type":"Landkreis"},"federalState":{"key":"09","name":"Bayern"}},{"name":"Blütenstr.","postalCode":"63762","locality":"Großostheim","municipality":{"key":"09671122","name":"Großostheim, M","type":"Markt"},"district":{"key":"09671","name":"Aschaffenburg","type":"Landkreis"},"federalState":{"key":"09","name":"Bayern"}},{"name":"Böhmerwaldstr.","postalCode":"63762","locality":"Großostheim","municipality":{"key":"09671122","name":"Großostheim, M","type":"Markt"},"district":{"key":"09671","name":"Aschaffenburg","type":"Landkreis"},"federalState":{"key":"09","name":"Bayern"}},{"name":"Borngasse","postalCode":"63762","locality":"Großostheim","municipality":{"key":"09671122","name":"Großostheim, M","type":"Markt"},"district":{"key":"09671","name":"Aschaffenburg","type":"Landkreis"},"federalState":{"key":"09","name":"Bayern"}},{"name":"Bornthalstr.","postalCode":"63762","locality":"Großostheim","municipality":{"key":"09671122","name":"Großostheim, M","type":"Markt"},"district":{"key":"09671","name":"Aschaffenburg","type":"Landkreis"},"federalState":{"key":"09","name":"Bayern"}},{"name":"Breite Str.","postalCode":"63762","locality":"Großostheim","municipality":{"key":"09671122","name":"Großostheim, M","type":"Markt"},"district":{"key":"09671","name":"Aschaffenburg","type":"Landkreis"},"federalState":{"key":"09","name":"Bayern"}},{"name":"Breitfeldstr.","postalCode":"63762","locality":"Großostheim","municipality":{"key":"09671122","name":"Großostheim, M","type":"Markt"},"district":{"key":"09671","name":"Aschaffenburg","type":"Landkreis"},"federalState":{"key":"09","name":"Bayern"}},{"name":"Breslauer Str.","postalCode":"63762","locality":"Großostheim","municipality":{"key":"09671122","name":"Großostheim, M","type":"Markt"},"district":{"key":"09671","name":"Aschaffenburg","type":"Landkreis"},"federalState":{"key":"09","name":"Bayern"}},{"name":"Brunostr.","postalCode":"63762","locality":"Großostheim","municipality":{"key":"09671122","name":"Großostheim, M","type":"Markt"},"district":{"key":"09671","name":"Aschaffenburg","type":"Landkreis"},"federalState":{"key":"09","name":"Bayern"}},{"name":"Bürgerpark Ringheim","postalCode":"63762","locality":"Großostheim","municipality":{"key":"09671122","name":"Großostheim, M","type":"Markt"},"district":{"key":"09671","name":"Aschaffenburg","type":"Landkreis"},"federalState":{"key":"09","name":"Bayern"}},{"name":"Carbon-Blanc-Str.","postalCode":"63762","locality":"Großostheim","municipality":{"key":"09671122","name":"Großostheim, M","type":"Markt"},"district":{"key":"09671","name":"Aschaffenburg","type":"Landkreis"},"federalState":{"key":"09","name":"Bayern"}},{"name":"Christian-Steiner-Str.","postalCode":"63762","locality":"Großostheim","municipality":{"key":"09671122","name":"Großostheim, M","type":"Markt"},"district":{"key":"09671","name":"Aschaffenburg","type":"Landkreis"},"federalState":{"key":"09","name":"Bayern"}},{"name":"Danziger Str.","postalCode":"63762","locality":"Großostheim","municipality":{"key":"09671122","name":"Großostheim, M","type":"Markt"},"district":{"key":"09671","name":"Aschaffenburg","type":"Landkreis"},"federalState":{"key":"09","name":"Bayern"}},{"name":"Deichelspfad","postalCode":"63762","locality":"Großostheim","municipality":{"key":"09671122","name":"Großostheim, M","type":"Markt"},"district":{"key":"09671","name":"Aschaffenburg","type":"Landkreis"},"federalState":{"key":"09","name":"Bayern"}},{"name":"Dellweg","postalCode":"63762","locality":"Großostheim","municipality":{"key":"09671122","name":"Großostheim, M","type":"Markt"},"district":{"key":"09671","name":"Aschaffenburg","type":"Landkreis"},"federalState":{"key":"09","name":"Bayern"}},{"name":"Dieselstr.","postalCode":"63762","locality":"Großostheim","municipality":{"key":"09671122","name":"Großostheim, M","type":"Markt"},"district":{"key":"09671","name":"Aschaffenburg","type":"Landkreis"},"federalState":{"key":"09","name":"Bayern"}},{"name":"Dietrich-Bonhoeffer-Str.","postalCode":"63762","locality":"Großostheim","municipality":{"key":"09671122","name":"Großostheim, M","type":"Markt"},"district":{"key":"09671","name":"Aschaffenburg","type":"Landkreis"},"federalState":{"key":"09","name":"Bayern"}},{"name":"Döpfnerstr.","postalCode":"63762","locality":"Großostheim","municipality":{"key":"09671122","name":"Großostheim, M","type":"Markt"},"district":{"key":"09671","name":"Aschaffenburg","type":"Landkreis"},"federalState":{"key":"09","name":"Bayern"}},{"name":"Dorfmauerweg","postalCode":"63762","locality":"Großostheim","municipality":{"key":"09671122","name":"Großostheim, M","type":"Markt"},"district":{"key":"09671","name":"Aschaffenburg","type":"Landkreis"},"federalState":{"key":"09","name":"Bayern"}},{"name":"Dresdner Str.","postalCode":"63762","locality":"Großostheim","municipality":{"key":"09671122","name":"Großostheim, M","type":"Markt"},"district":{"key":"09671","name":"Aschaffenburg","type":"Landkreis"},"federalState":{"key":"09","name":"Bayern"}},{"name":"Dresslerpark","postalCode":"63762","locality":"Großostheim","municipality":{"key":"09671122","name":"Großostheim, M","type":"Markt"},"district":{"key":"09671","name":"Aschaffenburg","type":"Landkreis"},"federalState":{"key":"09","name":"Bayern"}},{"name":"Drosselweg","postalCode":"63762","locality":"Großostheim","municipality":{"key":"09671122","name":"Großostheim, M","type":"Markt"},"district":{"key":"09671","name":"Aschaffenburg","type":"Landkreis"},"federalState":{"key":"09","name":"Bayern"}},{"name":"Ebenung","postalCode":"63762","locality":"Großostheim","municipality":{"key":"09671122","name":"Großostheim, M","type":"Markt"},"district":{"key":"09671","name":"Aschaffenburg","type":"Landkreis"},"federalState":{"key":"09","name":"Bayern"}},{"name":"Edith-Stein-Str.","postalCode":"63762","locality":"Großostheim","municipality":{"key":"09671122","name":"Großostheim, M","type":"Markt"},"district":{"key":"09671","name":"Aschaffenburg","type":"Landkreis"},"federalState":{"key":"09","name":"Bayern"}},{"name":"Eduard-Dressler-Str.","postalCode":"63762","locality":"Großostheim","municipality":{"key":"09671122","name":"Großostheim, M","type":"Markt"},"district":{"key":"09671","name":"Aschaffenburg","type":"Landkreis"},"federalState":{"key":"09","name":"Bayern"}},{"name":"Eginhardstr.","postalCode":"63762","locality":"Großostheim","municipality":{"key":"09671122","name":"Großostheim, M","type":"Markt"},"district":{"key":"09671","name":"Aschaffenburg","type":"Landkreis"},"federalState":{"key":"09","name":"Bayern"}},{"name":"Eichelsbachergässchen","postalCode":"63762","locality":"Großostheim","municipality":{"key":"09671122","name":"Großostheim, M","type":"Markt"},"district":{"key":"09671","name":"Aschaffenburg","type":"Landkreis"},"federalState":{"key":"09","name":"Bayern"}},{"name":"Eichendorffstr.","postalCode":"63762","locality":"Großostheim","municipality":{"key":"09671122","name":"Großostheim, M","type":"Markt"},"district":{"key":"09671","name":"Aschaffenburg","type":"Landkreis"},"federalState":{"key":"09","name":"Bayern"}},{"name":"Eierweg","postalCode":"63762","locality":"Großostheim","municipality":{"key":"09671122","name":"Großostheim, M","type":"Markt"},"district":{"key":"09671","name":"Aschaffenburg","type":"Landkreis"},"federalState":{"key":"09","name":"Bayern"}},{"name":"Eifelstr.","postalCode":"63762","locality":"Großostheim","municipality":{"key":"09671122","name":"Großostheim, M","type":"Markt"},"district":{"key":"09671","name":"Aschaffenburg","type":"Landkreis"},"federalState":{"key":"09","name":"Bayern"}},{"name":"Erste Tannen","postalCode":"63762","locality":"Großostheim","municipality":{"key":"09671122","name":"Großostheim, M","type":"Markt"},"district":{"key":"09671","name":"Aschaffenburg","type":"Landkreis"},"federalState":{"key":"09","name":"Bayern"}},{"name":"Erthalstr.","postalCode":"63762","locality":"Großostheim","municipality":{"key":"09671122","name":"Großostheim, M","type":"Markt"},"district":{"key":"09671","name":"Aschaffenburg","type":"Landkreis"},"federalState":{"key":"09","name":"Bayern"}},{"name":"Fabrikstr.","postalCode":"63762","locality":"Großostheim","municipality":{"key":"09671122","name":"Großostheim, M","type":"Markt"},"district":{"key":"09671","name":"Aschaffenburg","type":"Landkreis"},"federalState":{"key":"09","name":"Bayern"}},{"name":"Fauthstr.","postalCode":"63762","locality":"Großostheim","municipality":{"key":"09671122","name":"Großostheim, M","type":"Markt"},"district":{"key":"09671","name":"Aschaffenburg","type":"Landkreis"},"federalState":{"key":"09","name":"Bayern"}},{"name":"Feldstr.","postalCode":"63762","locality":"Großostheim","municipality":{"key":"09671122","name":"Großostheim, M","type":"Markt"},"district":{"key":"09671","name":"Aschaffenburg","type":"Landkreis"},"federalState":{"key":"09","name":"Bayern"}},{"name":"Finkenweg","postalCode":"63762","locality":"Großostheim","municipality":{"key":"09671122","name":"Großostheim, M","type":"Markt"},"district":{"key":"09671","name":"Aschaffenburg","type":"Landkreis"},"federalState":{"key":"09","name":"Bayern"}},{"name":"Frankenstr.","postalCode":"63762","locality":"Großostheim","municipality":{"key":"09671122","name":"Großostheim, M","type":"Markt"},"district":{"key":"09671","name":"Aschaffenburg","type":"Landkreis"},"federalState":{"key":"09","name":"Bayern"}},{"name":"Franz-Kleespies-Str.","postalCode":"63762","locality":"Großostheim","municipality":{"key":"09671122","name":"Großostheim, M","type":"Markt"},"district":{"key":"09671","name":"Aschaffenburg","type":"Landkreis"},"federalState":{"key":"09","name":"Bayern"}},{"name":"Frauenberg","postalCode":"63762","locality":"Großostheim","municipality":{"key":"09671122","name":"Großostheim, M","type":"Markt"},"district":{"key":"09671","name":"Aschaffenburg","type":"Landkreis"},"federalState":{"key":"09","name":"Bayern"}},{"name":"Friedenstr.","postalCode":"63762","locality":"Großostheim","municipality":{"key":"09671122","name":"Großostheim, M","type":"Markt"},"district":{"key":"09671","name":"Aschaffenburg","type":"Landkreis"},"federalState":{"key":"09","name":"Bayern"}},{"name":"Friedhofstr.","postalCode":"63762","locality":"Großostheim","municipality":{"key":"09671122","name":"Großostheim, M","type":"Markt"},"district":{"key":"09671","name":"Aschaffenburg","type":"Landkreis"},"federalState":{"key":"09","name":"Bayern"}},{"name":"Fröbelstr.","postalCode":"63762","locality":"Großostheim","municipality":{"key":"09671122","name":"Großostheim, M","type":"Markt"},"district":{"key":"09671","name":"Aschaffenburg","type":"Landkreis"},"federalState":{"key":"09","name":"Bayern"}},{"name":"Frühlingstr.","postalCode":"63762","locality":"Großostheim","municipality":{"key":"09671122","name":"Großostheim, M","type":"Markt"},"district":{"key":"09671","name":"Aschaffenburg","type":"Landkreis"},"federalState":{"key":"09","name":"Bayern"}},{"name":"Gartenstr.","postalCode":"63762","locality":"Großostheim","municipality":{"key":"09671122","name":"Großostheim, M","type":"Markt"},"district":{"key":"09671","name":"Aschaffenburg","type":"Landkreis"},"federalState":{"key":"09","name":"Bayern"}},{"name":"Geschwister-Scholl-Str.","postalCode":"63762","locality":"Großostheim","municipality":{"key":"09671122","name":"Großostheim, M","type":"Markt"},"district":{"key":"09671","name":"Aschaffenburg","type":"Landkreis"},"federalState":{"key":"09","name":"Bayern"}},{"name":"Goethestr.","postalCode":"63762","locality":"Großostheim","municipality":{"key":"09671122","name":"Großostheim, M","type":"Markt"},"district":{"key":"09671","name":"Aschaffenburg","type":"Landkreis"},"federalState":{"key":"09","name":"Bayern"}},{"name":"Grabenstr.","postalCode":"63762","locality":"Großostheim","municipality":{"key":"09671122","name":"Großostheim, M","type":"Markt"},"district":{"key":"09671","name":"Aschaffenburg","type":"Landkreis"},"federalState":{"key":"09","name":"Bayern"}},{"name":"Großostheimer Str.","postalCode":"63762","locality":"Großostheim","municipality":{"key":"09671122","name":"Großostheim, M","type":"Markt"},"district":{"key":"09671","name":"Aschaffenburg","type":"Landkreis"},"federalState":{"key":"09","name":"Bayern"}},{"name":"Gundastr.","postalCode":"63762","locality":"Großostheim","municipality":{"key":"09671122","name":"Großostheim, M","type":"Markt"},"district":{"key":"09671","name":"Aschaffenburg","type":"Landkreis"},"federalState":{"key":"09","name":"Bayern"}},{"name":"Haarstr.","postalCode":"63762","locality":"Großostheim","municipality":{"key":"09671122","name":"Großostheim, M","type":"Markt"},"district":{"key":"09671","name":"Aschaffenburg","type":"Landkreis"},"federalState":{"key":"09","name":"Bayern"}},{"name":"Hagebornstr.","postalCode":"63762","locality":"Großostheim","municipality":{"key":"09671122","name":"Großostheim, M","type":"Markt"},"district":{"key":"09671","name":"Aschaffenburg","type":"Landkreis"},"federalState":{"key":"09","name":"Bayern"}},{"name":"Hamoirstr.","postalCode":"63762","locality":"Großostheim","municipality":{"key":"09671122","name":"Großostheim, M","type":"Markt"},"district":{"key":"09671","name":"Aschaffenburg","type":"Landkreis"},"federalState":{"key":"09","name":"Bayern"}},{"name":"Harzstr.","postalCode":"63762","locality":"Großostheim","municipality":{"key":"09671122","name":"Großostheim, M","type":"Markt"},"district":{"key":"09671","name":"Aschaffenburg","type":"Landkreis"},"federalState":{"key":"09","name":"Bayern"}},{"name":"Hasselstr.","postalCode":"63762","locality":"Großostheim","municipality":{"key":"09671122","name":"Großostheim, M","type":"Markt"},"district":{"key":"09671","name":"Aschaffenburg","type":"Landkreis"},"federalState":{"key":"09","name":"Bayern"}},{"name":"Hauptstr.","postalCode":"63762","locality":"Großostheim","municipality":{"key":"09671122","name":"Großostheim, M","type":"Markt"},"district":{"key":"09671","name":"Aschaffenburg","type":"Landkreis"},"federalState":{"key":"09","name":"Bayern"}},{"name":"Havelweg","postalCode":"63762","locality":"Großostheim","municipality":{"key":"09671122","name":"Großostheim, M","type":"Markt"},"district":{"key":"09671","name":"Aschaffenburg","type":"Landkreis"},"federalState":{"key":"09","name":"Bayern"}},{"name":"Hegelstr.","postalCode":"63762","locality":"Großostheim","municipality":{"key":"09671122","name":"Großostheim, M","type":"Markt"},"district":{"key":"09671","name":"Aschaffenburg","type":"Landkreis"},"federalState":{"key":"09","name":"Bayern"}},{"name":"Heindelspfad","postalCode":"63762","locality":"Großostheim","municipality":{"key":"09671122","name":"Großostheim, M","type":"Markt"},"district":{"key":"09671","name":"Aschaffenburg","type":"Landkreis"},"federalState":{"key":"09","name":"Bayern"}},{"name":"Hermann-Löns-Str.","postalCode":"63762","locality":"Großostheim","municipality":{"key":"09671122","name":"Großostheim, M","type":"Markt"},"district":{"key":"09671","name":"Aschaffenburg","type":"Landkreis"},"federalState":{"key":"09","name":"Bayern"}},{"name":"Hessenstr.","postalCode":"63762","locality":"Großostheim","municipality":{"key":"09671122","name":"Großostheim, M","type":"Markt"},"district":{"key":"09671","name":"Aschaffenburg","type":"Landkreis"},"federalState":{"key":"09","name":"Bayern"}},{"name":"Hinter der Kirche","postalCode":"63762","locality":"Großostheim","municipality":{"key":"09671122","name":"Großostheim, M","type":"Markt"},"district":{"key":"09671","name":"Aschaffenburg","type":"Landkreis"},"federalState":{"key":"09","name":"Bayern"}},{"name":"Hinter der Wern","postalCode":"63762","locality":"Großostheim","municipality":{"key":"09671122","name":"Großostheim, M","type":"Markt"},"district":{"key":"09671","name":"Aschaffenburg","type":"Landkreis"},"federalState":{"key":"09","name":"Bayern"}},{"name":"Hinterm Hag","postalCode":"63762","locality":"Großostheim","municipality":{"key":"09671122","name":"Großostheim, M","type":"Markt"},"district":{"key":"09671","name":"Aschaffenburg","type":"Landkreis"},"federalState":{"key":"09","name":"Bayern"}},{"name":"Hinterm Haus","postalCode":"63762","locality":"Großostheim","municipality":{"key":"09671122","name":"Großostheim, M","type":"Markt"},"district":{"key":"09671","name":"Aschaffenburg","type":"Landkreis"},"federalState":{"key":"09","name":"Bayern"}},{"name":"Hinterm Waldcasino","postalCode":"63762","locality":"Großostheim","municipality":{"key":"09671122","name":"Großostheim, M","type":"Markt"},"district":{"key":"09671","name":"Aschaffenburg","type":"Landkreis"},"federalState":{"key":"09","name":"Bayern"}},{"name":"Hochzeitstr.","postalCode":"63762","locality":"Großostheim","municipality":{"key":"09671122","name":"Großostheim, M","type":"Markt"},"district":{"key":"09671","name":"Aschaffenburg","type":"Landkreis"},"federalState":{"key":"09","name":"Bayern"}},{"name":"Hunsrückstr.","postalCode":"63762","locality":"Großostheim","municipality":{"key":"09671122","name":"Großostheim, M","type":"Markt"},"district":{"key":"09671","name":"Aschaffenburg","type":"Landkreis"},"federalState":{"key":"09","name":"Bayern"}},{"name":"Im Eck","postalCode":"63762","locality":"Großostheim","municipality":{"key":"09671122","name":"Großostheim, M","type":"Markt"},"district":{"key":"09671","name":"Aschaffenburg","type":"Landkreis"},"federalState":{"key":"09","name":"Bayern"}},{"name":"Im Grubenstück","postalCode":"63762","locality":"Großostheim","municipality":{"key":"09671122","name":"Großostheim, M","type":"Markt"},"district":{"key":"09671","name":"Aschaffenburg","type":"Landkreis"},"federalState":{"key":"09","name":"Bayern"}},{"name":"Im Tannengrund","postalCode":"63762","locality":"Großostheim","municipality":{"key":"09671122","name":"Großostheim, M","type":"Markt"},"district":{"key":"09671","name":"Aschaffenburg","type":"Landkreis"},"federalState":{"key":"09","name":"Bayern"}},{"name":"In den Kreuzgärten","postalCode":"63762","locality":"Großostheim","municipality":{"key":"09671122","name":"Großostheim, M","type":"Markt"},"district":{"key":"09671","name":"Aschaffenburg","type":"Landkreis"},"federalState":{"key":"09","name":"Bayern"}},{"name":"In den Rauschen","postalCode":"63762","locality":"Großostheim","municipality":{"key":"09671122","name":"Großostheim, M","type":"Markt"},"district":{"key":"09671","name":"Aschaffenburg","type":"Landkreis"},"federalState":{"key":"09","name":"Bayern"}},{"name":"In den schwarzen Gärten","postalCode":"63762","locality":"Großostheim","municipality":{"key":"09671122","name":"Großostheim, M","type":"Markt"},"district":{"key":"09671","name":"Aschaffenburg","type":"Landkreis"},"federalState":{"key":"09","name":"Bayern"}},{"name":"In der Abtei","postalCode":"63762","locality":"Großostheim","municipality":{"key":"09671122","name":"Großostheim, M","type":"Markt"},"district":{"key":"09671","name":"Aschaffenburg","type":"Landkreis"},"federalState":{"key":"09","name":"Bayern"}},{"name":"In der Au","postalCode":"63762","locality":"Großostheim","municipality":{"key":"09671122","name":"Großostheim, M","type":"Markt"},"district":{"key":"09671","name":"Aschaffenburg","type":"Landkreis"},"federalState":{"key":"09","name":"Bayern"}},{"name":"Jahnstr.","postalCode":"63762","locality":"Großostheim","municipality":{"key":"09671122","name":"Großostheim, M","type":"Markt"},"district":{"key":"09671","name":"Aschaffenburg","type":"Landkreis"},"federalState":{"key":"09","name":"Bayern"}},{"name":"Jakobsberg","postalCode":"63762","locality":"Großostheim","municipality":{"key":"09671122","name":"Großostheim, M","type":"Markt"},"district":{"key":"09671","name":"Aschaffenburg","type":"Landkreis"},"federalState":{"key":"09","name":"Bayern"}},{"name":"Johannisburgstr.","postalCode":"63762","locality":"Großostheim","municipality":{"key":"09671122","name":"Großostheim, M","type":"Markt"},"district":{"key":"09671","name":"Aschaffenburg","type":"Landkreis"},"federalState":{"key":"09","name":"Bayern"}},{"name":"Johann-Klug-Str.","postalCode":"63762","locality":"Großostheim","municipality":{"key":"09671122","name":"Großostheim, M","type":"Markt"},"district":{"key":"09671","name":"Aschaffenburg","type":"Landkreis"},"federalState":{"key":"09","name":"Bayern"}},{"name":"Johann-Schüßler-Str.","postalCode":"63762","locality":"Großostheim","municipality":{"key":"09671122","name":"Großostheim, M","type":"Markt"},"district":{"key":"09671","name":"Aschaffenburg","type":"Landkreis"},"federalState":{"key":"09","name":"Bayern"}},{"name":"Josef-Honecker-Str.","postalCode":"63762","locality":"Großostheim","municipality":{"key":"09671122","name":"Großostheim, M","type":"Markt"},"district":{"key":"09671","name":"Aschaffenburg","type":"Landkreis"},"federalState":{"key":"09","name":"Bayern"}},{"name":"Josef-Koch-Str.","postalCode":"63762","locality":"Großostheim","municipality":{"key":"09671122","name":"Großostheim, M","type":"Markt"},"district":{"key":"09671","name":"Aschaffenburg","type":"Landkreis"},"federalState":{"key":"09","name":"Bayern"}},{"name":"Kalbsgasse","postalCode":"63762","locality":"Großostheim","municipality":{"key":"09671122","name":"Großostheim, M","type":"Markt"},"district":{"key":"09671","name":"Aschaffenburg","type":"Landkreis"},"federalState":{"key":"09","name":"Bayern"}},{"name":"Kantstr.","postalCode":"63762","locality":"Großostheim","municipality":{"key":"09671122","name":"Großostheim, M","type":"Markt"},"district":{"key":"09671","name":"Aschaffenburg","type":"Landkreis"},"federalState":{"key":"09","name":"Bayern"}},{"name":"Kanzleistr.","postalCode":"63762","locality":"Großostheim","municipality":{"key":"09671122","name":"Großostheim, M","type":"Markt"},"district":{"key":"09671","name":"Aschaffenburg","type":"Landkreis"},"federalState":{"key":"09","name":"Bayern"}},{"name":"Kapellenstr.","postalCode":"63762","locality":"Großostheim","municipality":{"key":"09671122","name":"Großostheim, M","type":"Markt"},"district":{"key":"09671","name":"Aschaffenburg","type":"Landkreis"},"federalState":{"key":"09","name":"Bayern"}},{"name":"Kappesgasse","postalCode":"63762","locality":"Großostheim","municipality":{"key":"09671122","name":"Großostheim, M","type":"Markt"},"district":{"key":"09671","name":"Aschaffenburg","type":"Landkreis"},"federalState":{"key":"09","name":"Bayern"}},{"name":"Karchstr.","postalCode":"63762","locality":"Großostheim","municipality":{"key":"09671122","name":"Großostheim, M","type":"Markt"},"district":{"key":"09671","name":"Aschaffenburg","type":"Landkreis"},"federalState":{"key":"09","name":"Bayern"}},{"name":"Katharinenweg","postalCode":"63762","locality":"Großostheim","municipality":{"key":"09671122","name":"Großostheim, M","type":"Markt"},"district":{"key":"09671","name":"Aschaffenburg","type":"Landkreis"},"federalState":{"key":"09","name":"Bayern"}},{"name":"Katzenlauf","postalCode":"63762","locality":"Großostheim","municipality":{"key":"09671122","name":"Großostheim, M","type":"Markt"},"district":{"key":"09671","name":"Aschaffenburg","type":"Landkreis"},"federalState":{"key":"09","name":"Bayern"}},{"name":"Katzenmarkt","postalCode":"63762","locality":"Großostheim","municipality":{"key":"09671122","name":"Großostheim, M","type":"Markt"},"district":{"key":"09671","name":"Aschaffenburg","type":"Landkreis"},"federalState":{"key":"09","name":"Bayern"}},{"name":"Kauschrübenstr.","postalCode":"63762","locality":"Großostheim","municipality":{"key":"09671122","name":"Großostheim, M","type":"Markt"},"district":{"key":"09671","name":"Aschaffenburg","type":"Landkreis"},"federalState":{"key":"09","name":"Bayern"}},{"name":"Kettelerstr.","postalCode":"63762","locality":"Großostheim","municipality":{"key":"09671122","name":"Großostheim, M","type":"Markt"},"district":{"key":"09671","name":"Aschaffenburg","type":"Landkreis"},"federalState":{"key":"09","name":"Bayern"}},{"name":"Kirchgasse","postalCode":"63762","locality":"Großostheim","municipality":{"key":"09671122","name":"Großostheim, M","type":"Markt"},"district":{"key":"09671","name":"Aschaffenburg","type":"Landkreis"},"federalState":{"key":"09","name":"Bayern"}},{"name":"Kirchplatz","postalCode":"63762","locality":"Großostheim","municipality":{"key":"09671122","name":"Großostheim, M","type":"Markt"},"district":{"key":"09671","name":"Aschaffenburg","type":"Landkreis"},"federalState":{"key":"09","name":"Bayern"}},{"name":"Kirchrainstr.","postalCode":"63762","locality":"Großostheim","municipality":{"key":"09671122","name":"Großostheim, M","type":"Markt"},"district":{"key":"09671","name":"Aschaffenburg","type":"Landkreis"},"federalState":{"key":"09","name":"Bayern"}},{"name":"Kitzelgasse","postalCode":"63762","locality":"Großostheim","municipality":{"key":"09671122","name":"Großostheim, M","type":"Markt"},"district":{"key":"09671","name":"Aschaffenburg","type":"Landkreis"},"federalState":{"key":"09","name":"Bayern"}},{"name":"Kolpingstr.","postalCode":"63762","locality":"Großostheim","municipality":{"key":"09671122","name":"Großostheim, M","type":"Markt"},"district":{"key":"09671","name":"Aschaffenburg","type":"Landkreis"},"federalState":{"key":"09","name":"Bayern"}},{"name":"Königsberger Str.","postalCode":"63762","locality":"Großostheim","municipality":{"key":"09671122","name":"Großostheim, M","type":"Markt"},"district":{"key":"09671","name":"Aschaffenburg","type":"Landkreis"},"federalState":{"key":"09","name":"Bayern"}},{"name":"Kornstr.","postalCode":"63762","locality":"Großostheim","municipality":{"key":"09671122","name":"Großostheim, M","type":"Markt"},"district":{"key":"09671","name":"Aschaffenburg","type":"Landkreis"},"federalState":{"key":"09","name":"Bayern"}},{"name":"Kreuzhohle","postalCode":"63762","locality":"Großostheim","municipality":{"key":"09671122","name":"Großostheim, M","type":"Markt"},"district":{"key":"09671","name":"Aschaffenburg","type":"Landkreis"},"federalState":{"key":"09","name":"Bayern"}},{"name":"Krummgasse","postalCode":"63762","locality":"Großostheim","municipality":{"key":"09671122","name":"Großostheim, M","type":"Markt"},"district":{"key":"09671","name":"Aschaffenburg","type":"Landkreis"},"federalState":{"key":"09","name":"Bayern"}},{"name":"Kunostr.","postalCode":"63762","locality":"Großostheim","municipality":{"key":"09671122","name":"Großostheim, M","type":"Markt"},"district":{"key":"09671","name":"Aschaffenburg","type":"Landkreis"},"federalState":{"key":"09","name":"Bayern"}},{"name":"Kurmainzer Ring","postalCode":"63762","locality":"Großostheim","municipality":{"key":"09671122","name":"Großostheim, M","type":"Markt"},"district":{"key":"09671","name":"Aschaffenburg","type":"Landkreis"},"federalState":{"key":"09","name":"Bayern"}},{"name":"Landwehrstr.","postalCode":"63762","locality":"Großostheim","municipality":{"key":"09671122","name":"Großostheim, M","type":"Markt"},"district":{"key":"09671","name":"Aschaffenburg","type":"Landkreis"},"federalState":{"key":"09","name":"Bayern"}},{"name":"Legesweg","postalCode":"63762","locality":"Großostheim","municipality":{"key":"09671122","name":"Großostheim, M","type":"Markt"},"district":{"key":"09671","name":"Aschaffenburg","type":"Landkreis"},"federalState":{"key":"09","name":"Bayern"}},{"name":"Lehmgrubenweg","postalCode":"63762","locality":"Großostheim","municipality":{"key":"09671122","name":"Großostheim, M","type":"Markt"},"district":{"key":"09671","name":"Aschaffenburg","type":"Landkreis"},"federalState":{"key":"09","name":"Bayern"}},{"name":"Leipziger Str.","postalCode":"63762","locality":"Großostheim","municipality":{"key":"09671122","name":"Großostheim, M","type":"Markt"},"district":{"key":"09671","name":"Aschaffenburg","type":"Landkreis"},"federalState":{"key":"09","name":"Bayern"}},{"name":"Lerchenweg","postalCode":"63762","locality":"Großostheim","municipality":{"key":"09671122","name":"Großostheim, M","type":"Markt"},"district":{"key":"09671","name":"Aschaffenburg","type":"Landkreis"},"federalState":{"key":"09","name":"Bayern"}},{"name":"Lessingstr.","postalCode":"63762","locality":"Großostheim","municipality":{"key":"09671122","name":"Großostheim, M","type":"Markt"},"district":{"key":"09671","name":"Aschaffenburg","type":"Landkreis"},"federalState":{"key":"09","name":"Bayern"}},{"name":"Linus-Pauling-Str.","postalCode":"63762","locality":"Großostheim","municipality":{"key":"09671122","name":"Großostheim, M","type":"Markt"},"district":{"key":"09671","name":"Aschaffenburg","type":"Landkreis"},"federalState":{"key":"09","name":"Bayern"}},{"name":"Ludwig Löffler Platz","postalCode":"63762","locality":"Großostheim","municipality":{"key":"09671122","name":"Großostheim, M","type":"Markt"},"district":{"key":"09671","name":"Aschaffenburg","type":"Landkreis"},"federalState":{"key":"09","name":"Bayern"}},{"name":"Ludwigstr.","postalCode":"63762","locality":"Großostheim","municipality":{"key":"09671122","name":"Großostheim, M","type":"Markt"},"district":{"key":"09671","name":"Aschaffenburg","type":"Landkreis"},"federalState":{"key":"09","name":"Bayern"}},{"name":"Mährenstr.","postalCode":"63762","locality":"Großostheim","municipality":{"key":"09671122","name":"Großostheim, M","type":"Markt"},"district":{"key":"09671","name":"Aschaffenburg","type":"Landkreis"},"federalState":{"key":"09","name":"Bayern"}},{"name":"Maria Ward Weg","postalCode":"63762","locality":"Großostheim","municipality":{"key":"09671122","name":"Großostheim, M","type":"Markt"},"district":{"key":"09671","name":"Aschaffenburg","type":"Landkreis"},"federalState":{"key":"09","name":"Bayern"}},{"name":"Marienstr.","postalCode":"63762","locality":"Großostheim","municipality":{"key":"09671122","name":"Großostheim, M","type":"Markt"},"district":{"key":"09671","name":"Aschaffenburg","type":"Landkreis"},"federalState":{"key":"09","name":"Bayern"}},{"name":"Markplatz","postalCode":"63762","locality":"Großostheim","municipality":{"key":"09671122","name":"Großostheim, M","type":"Markt"},"district":{"key":"09671","name":"Aschaffenburg","type":"Landkreis"},"federalState":{"key":"09","name":"Bayern"}},{"name":"Marktgasse","postalCode":"63762","locality":"Großostheim","municipality":{"key":"09671122","name":"Großostheim, M","type":"Markt"},"district":{"key":"09671","name":"Aschaffenburg","type":"Landkreis"},"federalState":{"key":"09","name":"Bayern"}},{"name":"Marktplatz","postalCode":"63762","locality":"Großostheim","municipality":{"key":"09671122","name":"Großostheim, M","type":"Markt"},"district":{"key":"09671","name":"Aschaffenburg","type":"Landkreis"},"federalState":{"key":"09","name":"Bayern"}},{"name":"Marsstr.","postalCode":"63762","locality":"Großostheim","municipality":{"key":"09671122","name":"Großostheim, M","type":"Markt"},"district":{"key":"09671","name":"Aschaffenburg","type":"Landkreis"},"federalState":{"key":"09","name":"Bayern"}},{"name":"Martin-Luther-Str.","postalCode":"63762","locality":"Großostheim","municipality":{"key":"09671122","name":"Großostheim, M","type":"Markt"},"district":{"key":"09671","name":"Aschaffenburg","type":"Landkreis"},"federalState":{"key":"09","name":"Bayern"}},{"name":"Maßpforte","postalCode":"63762","locality":"Großostheim","municipality":{"key":"09671122","name":"Großostheim, M","type":"Markt"},"district":{"key":"09671","name":"Aschaffenburg","type":"Landkreis"},"federalState":{"key":"09","name":"Bayern"}},{"name":"Meergrubenstaße","postalCode":"63762","locality":"Großostheim","municipality":{"key":"09671122","name":"Großostheim, M","type":"Markt"},"district":{"key":"09671","name":"Aschaffenburg","type":"Landkreis"},"federalState":{"key":"09","name":"Bayern"}},{"name":"Melberstr.","postalCode":"63762","locality":"Großostheim","municipality":{"key":"09671122","name":"Großostheim, M","type":"Markt"},"district":{"key":"09671","name":"Aschaffenburg","type":"Landkreis"},"federalState":{"key":"09","name":"Bayern"}},{"name":"Memelweg","postalCode":"63762","locality":"Großostheim","municipality":{"key":"09671122","name":"Großostheim, M","type":"Markt"},"district":{"key":"09671","name":"Aschaffenburg","type":"Landkreis"},"federalState":{"key":"09","name":"Bayern"}},{"name":"Merowingerstr.","postalCode":"63762","locality":"Großostheim","municipality":{"key":"09671122","name":"Großostheim, M","type":"Markt"},"district":{"key":"09671","name":"Aschaffenburg","type":"Landkreis"},"federalState":{"key":"09","name":"Bayern"}},{"name":"Mittelweg","postalCode":"63762","locality":"Großostheim","municipality":{"key":"09671122","name":"Großostheim, M","type":"Markt"},"district":{"key":"09671","name":"Aschaffenburg","type":"Landkreis"},"federalState":{"key":"09","name":"Bayern"}},{"name":"Mömlinger Str.","postalCode":"63762","locality":"Großostheim","municipality":{"key":"09671122","name":"Großostheim, M","type":"Markt"},"district":{"key":"09671","name":"Aschaffenburg","type":"Landkreis"},"federalState":{"key":"09","name":"Bayern"}},{"name":"Mömlinger Weg","postalCode":"63762","locality":"Großostheim","municipality":{"key":"09671122","name":"Großostheim, M","type":"Markt"},"district":{"key":"09671","name":"Aschaffenburg","type":"Landkreis"},"federalState":{"key":"09","name":"Bayern"}},{"name":"Mosbacher Str.","postalCode":"63762","locality":"Großostheim","municipality":{"key":"09671122","name":"Großostheim, M","type":"Markt"},"district":{"key":"09671","name":"Aschaffenburg","type":"Landkreis"},"federalState":{"key":"09","name":"Bayern"}},{"name":"Mühlrain","postalCode":"63762","locality":"Großostheim","municipality":{"key":"09671122","name":"Großostheim, M","type":"Markt"},"district":{"key":"09671","name":"Aschaffenburg","type":"Landkreis"},"federalState":{"key":"09","name":"Bayern"}},{"name":"Mühlstr.","postalCode":"63762","locality":"Großostheim","municipality":{"key":"09671122","name":"Großostheim, M","type":"Markt"},"district":{"key":"09671","name":"Aschaffenburg","type":"Landkreis"},"federalState":{"key":"09","name":"Bayern"}},{"name":"Münzstr.","postalCode":"63762","locality":"Großostheim","municipality":{"key":"09671122","name":"Großostheim, M","type":"Markt"},"district":{"key":"09671","name":"Aschaffenburg","type":"Landkreis"},"federalState":{"key":"09","name":"Bayern"}},{"name":"Neißeweg","postalCode":"63762","locality":"Großostheim","municipality":{"key":"09671122","name":"Großostheim, M","type":"Markt"},"district":{"key":"09671","name":"Aschaffenburg","type":"Landkreis"},"federalState":{"key":"09","name":"Bayern"}},{"name":"Neubaustr.","postalCode":"63762","locality":"Großostheim","municipality":{"key":"09671122","name":"Großostheim, M","type":"Markt"},"district":{"key":"09671","name":"Aschaffenburg","type":"Landkreis"},"federalState":{"key":"09","name":"Bayern"}},{"name":"Niedernberger Str.","postalCode":"63762","locality":"Großostheim","municipality":{"key":"09671122","name":"Großostheim, M","type":"Markt"},"district":{"key":"09671","name":"Aschaffenburg","type":"Landkreis"},"federalState":{"key":"09","name":"Bayern"}},{"name":"Nikolaus-Boll-Str.","postalCode":"63762","locality":"Großostheim","municipality":{"key":"09671122","name":"Großostheim, M","type":"Markt"},"district":{"key":"09671","name":"Aschaffenburg","type":"Landkreis"},"federalState":{"key":"09","name":"Bayern"}},{"name":"Nordring","postalCode":"63762","locality":"Großostheim","municipality":{"key":"09671122","name":"Großostheim, M","type":"Markt"},"district":{"key":"09671","name":"Aschaffenburg","type":"Landkreis"},"federalState":{"key":"09","name":"Bayern"}},{"name":"Nöthiggasse","postalCode":"63762","locality":"Großostheim","municipality":{"key":"09671122","name":"Großostheim, M","type":"Markt"},"district":{"key":"09671","name":"Aschaffenburg","type":"Landkreis"},"federalState":{"key":"09","name":"Bayern"}},{"name":"Obere Str.","postalCode":"63762","locality":"Großostheim","municipality":{"key":"09671122","name":"Großostheim, M","type":"Markt"},"district":{"key":"09671","name":"Aschaffenburg","type":"Landkreis"},"federalState":{"key":"09","name":"Bayern"}},{"name":"Obernburger Str.","postalCode":"63762","locality":"Großostheim","municipality":{"key":"09671122","name":"Großostheim, M","type":"Markt"},"district":{"key":"09671","name":"Aschaffenburg","type":"Landkreis"},"federalState":{"key":"09","name":"Bayern"}},{"name":"Odenwaldstr.","postalCode":"63762","locality":"Großostheim","municipality":{"key":"09671122","name":"Großostheim, M","type":"Markt"},"district":{"key":"09671","name":"Aschaffenburg","type":"Landkreis"},"federalState":{"key":"09","name":"Bayern"}},{"name":"Odertalstr.","postalCode":"63762","locality":"Großostheim","municipality":{"key":"09671122","name":"Großostheim, M","type":"Markt"},"district":{"key":"09671","name":"Aschaffenburg","type":"Landkreis"},"federalState":{"key":"09","name":"Bayern"}},{"name":"Oderweg","postalCode":"63762","locality":"Großostheim","municipality":{"key":"09671122","name":"Großostheim, M","type":"Markt"},"district":{"key":"09671","name":"Aschaffenburg","type":"Landkreis"},"federalState":{"key":"09","name":"Bayern"}},{"name":"Odigallweg","postalCode":"63762","locality":"Großostheim","municipality":{"key":"09671122","name":"Großostheim, M","type":"Markt"},"district":{"key":"09671","name":"Aschaffenburg","type":"Landkreis"},"federalState":{"key":"09","name":"Bayern"}},{"name":"Ostendstr.","postalCode":"63762","locality":"Großostheim","municipality":{"key":"09671122","name":"Großostheim, M","type":"Markt"},"district":{"key":"09671","name":"Aschaffenburg","type":"Landkreis"},"federalState":{"key":"09","name":"Bayern"}},{"name":"Ostring","postalCode":"63762","locality":"Großostheim","municipality":{"key":"09671122","name":"Großostheim, M","type":"Markt"},"district":{"key":"09671","name":"Aschaffenburg","type":"Landkreis"},"federalState":{"key":"09","name":"Bayern"}},{"name":"Ottilienweg","postalCode":"63762","locality":"Großostheim","municipality":{"key":"09671122","name":"Großostheim, M","type":"Markt"},"district":{"key":"09671","name":"Aschaffenburg","type":"Landkreis"},"federalState":{"key":"09","name":"Bayern"}},{"name":"Parkstr.","postalCode":"63762","locality":"Großostheim","municipality":{"key":"09671122","name":"Großostheim, M","type":"Markt"},"district":{"key":"09671","name":"Aschaffenburg","type":"Landkreis"},"federalState":{"key":"09","name":"Bayern"}},{"name":"Pestalozzistr.","postalCode":"63762","locality":"Großostheim","municipality":{"key":"09671122","name":"Großostheim, M","type":"Markt"},"district":{"key":"09671","name":"Aschaffenburg","type":"Landkreis"},"federalState":{"key":"09","name":"Bayern"}},{"name":"Pfaffenberg","postalCode":"63762","locality":"Großostheim","municipality":{"key":"09671122","name":"Großostheim, M","type":"Markt"},"district":{"key":"09671","name":"Aschaffenburg","type":"Landkreis"},"federalState":{"key":"09","name":"Bayern"}},{"name":"Pfälzer Str.","postalCode":"63762","locality":"Großostheim","municipality":{"key":"09671122","name":"Großostheim, M","type":"Markt"},"district":{"key":"09671","name":"Aschaffenburg","type":"Landkreis"},"federalState":{"key":"09","name":"Bayern"}},{"name":"Pfarrgasse","postalCode":"63762","locality":"Großostheim","municipality":{"key":"09671122","name":"Großostheim, M","type":"Markt"},"district":{"key":"09671","name":"Aschaffenburg","type":"Landkreis"},"federalState":{"key":"09","name":"Bayern"}},{"name":"Pflaumbachstr.","postalCode":"63762","locality":"Großostheim","municipality":{"key":"09671122","name":"Großostheim, M","type":"Markt"},"district":{"key":"09671","name":"Aschaffenburg","type":"Landkreis"},"federalState":{"key":"09","name":"Bayern"}},{"name":"Pflaumheimer Str.","postalCode":"63762","locality":"Großostheim","municipality":{"key":"09671122","name":"Großostheim, M","type":"Markt"},"district":{"key":"09671","name":"Aschaffenburg","type":"Landkreis"},"federalState":{"key":"09","name":"Bayern"}},{"name":"Pius-Str.","postalCode":"63762","locality":"Großostheim","municipality":{"key":"09671122","name":"Großostheim, M","type":"Markt"},"district":{"key":"09671","name":"Aschaffenburg","type":"Landkreis"},"federalState":{"key":"09","name":"Bayern"}},{"name":"Plattenweg","postalCode":"63762","locality":"Großostheim","municipality":{"key":"09671122","name":"Großostheim, M","type":"Markt"},"district":{"key":"09671","name":"Aschaffenburg","type":"Landkreis"},"federalState":{"key":"09","name":"Bayern"}},{"name":"Quittenweg","postalCode":"63741","locality":"Aschaffenburg","municipality":{"key":"09661000","name":"Aschaffenburg","type":"Kreisfreie_Stadt"},"district":{"key":"09661","name":"Aschaffenburg","type":"Kreisfreie_Stadt"},"federalState":{"key":"09","name":"Bayern"}},{"name":"Raiffeisenstr.","postalCode":"63762","locality":"Großostheim","municipality":{"key":"09671122","name":"Großostheim, M","type":"Markt"},"district":{"key":"09671","name":"Aschaffenburg","type":"Landkreis"},"federalState":{"key":"09","name":"Bayern"}},{"name":"Rathausstr.","postalCode":"63762","locality":"Großostheim","municipality":{"key":"09671122","name":"Großostheim, M","type":"Markt"},"district":{"key":"09671","name":"Aschaffenburg","type":"Landkreis"},"federalState":{"key":"09","name":"Bayern"}},{"name":"Rehmsweg","postalCode":"63762","locality":"Großostheim","municipality":{"key":"09671122","name":"Großostheim, M","type":"Markt"},"district":{"key":"09671","name":"Aschaffenburg","type":"Landkreis"},"federalState":{"key":"09","name":"Bayern"}},{"name":"Rhönstr.","postalCode":"63762","locality":"Großostheim","municipality":{"key":"09671122","name":"Großostheim, M","type":"Markt"},"district":{"key":"09671","name":"Aschaffenburg","type":"Landkreis"},"federalState":{"key":"09","name":"Bayern"}},{"name":"Riegelstr.","postalCode":"63762","locality":"Großostheim","municipality":{"key":"09671122","name":"Großostheim, M","type":"Markt"},"district":{"key":"09671","name":"Aschaffenburg","type":"Landkreis"},"federalState":{"key":"09","name":"Bayern"}},{"name":"Rilkestr.","postalCode":"63762","locality":"Großostheim","municipality":{"key":"09671122","name":"Großostheim, M","type":"Markt"},"district":{"key":"09671","name":"Aschaffenburg","type":"Landkreis"},"federalState":{"key":"09","name":"Bayern"}},{"name":"Ringheimer Mühlstr.","postalCode":"63762","locality":"Großostheim","municipality":{"key":"09671122","name":"Großostheim, M","type":"Markt"},"district":{"key":"09671","name":"Aschaffenburg","type":"Landkreis"},"federalState":{"key":"09","name":"Bayern"}},{"name":"Ringheimer Weg","postalCode":"63762","locality":"Großostheim","municipality":{"key":"09671122","name":"Großostheim, M","type":"Markt"},"district":{"key":"09671","name":"Aschaffenburg","type":"Landkreis"},"federalState":{"key":"09","name":"Bayern"}},{"name":"Ringstr.","postalCode":"63762","locality":"Großostheim","municipality":{"key":"09671122","name":"Großostheim, M","type":"Markt"},"district":{"key":"09671","name":"Aschaffenburg","type":"Landkreis"},"federalState":{"key":"09","name":"Bayern"}},{"name":"Rittelberg","postalCode":"63762","locality":"Großostheim","municipality":{"key":"09671122","name":"Großostheim, M","type":"Markt"},"district":{"key":"09671","name":"Aschaffenburg","type":"Landkreis"},"federalState":{"key":"09","name":"Bayern"}},{"name":"Roseggerstr.","postalCode":"63762","locality":"Großostheim","municipality":{"key":"09671122","name":"Großostheim, M","type":"Markt"},"district":{"key":"09671","name":"Aschaffenburg","type":"Landkreis"},"federalState":{"key":"09","name":"Bayern"}},{"name":"Rosenstr.","postalCode":"63762","locality":"Großostheim","municipality":{"key":"09671122","name":"Großostheim, M","type":"Markt"},"district":{"key":"09671","name":"Aschaffenburg","type":"Landkreis"},"federalState":{"key":"09","name":"Bayern"}},{"name":"Rudelzauer Str.","postalCode":"63762","locality":"Großostheim","municipality":{"key":"09671122","name":"Großostheim, M","type":"Markt"},"district":{"key":"09671","name":"Aschaffenburg","type":"Landkreis"},"federalState":{"key":"09","name":"Bayern"}},{"name":"Sachsenweg","postalCode":"63762","locality":"Großostheim","municipality":{"key":"09671122","name":"Großostheim, M","type":"Markt"},"district":{"key":"09671","name":"Aschaffenburg","type":"Landkreis"},"federalState":{"key":"09","name":"Bayern"}},{"name":"Sandweg","postalCode":"63762","locality":"Großostheim","municipality":{"key":"09671122","name":"Großostheim, M","type":"Markt"},"district":{"key":"09671","name":"Aschaffenburg","type":"Landkreis"},"federalState":{"key":"09","name":"Bayern"}},{"name":"Saulxuresstr.","postalCode":"63762","locality":"Großostheim","municipality":{"key":"09671122","name":"Großostheim, M","type":"Markt"},"district":{"key":"09671","name":"Aschaffenburg","type":"Landkreis"},"federalState":{"key":"09","name":"Bayern"}},{"name":"Schaafheimer Str.","postalCode":"63762","locality":"Großostheim","municipality":{"key":"09671122","name":"Großostheim, M","type":"Markt"},"district":{"key":"09671","name":"Aschaffenburg","type":"Landkreis"},"federalState":{"key":"09","name":"Bayern"}},{"name":"Schäfergässchen","postalCode":"63762","locality":"Großostheim","municipality":{"key":"09671122","name":"Großostheim, M","type":"Markt"},"district":{"key":"09671","name":"Aschaffenburg","type":"Landkreis"},"federalState":{"key":"09","name":"Bayern"}},{"name":"Schafsweide","postalCode":"63762","locality":"Großostheim","municipality":{"key":"09671122","name":"Großostheim, M","type":"Markt"},"district":{"key":"09671","name":"Aschaffenburg","type":"Landkreis"},"federalState":{"key":"09","name":"Bayern"}},{"name":"Scharfeck","postalCode":"63762","locality":"Großostheim","municipality":{"key":"09671122","name":"Großostheim, M","type":"Markt"},"district":{"key":"09671","name":"Aschaffenburg","type":"Landkreis"},"federalState":{"key":"09","name":"Bayern"}},{"name":"Schillerstr.","postalCode":"63762","locality":"Großostheim","municipality":{"key":"09671122","name":"Großostheim, M","type":"Markt"},"district":{"key":"09671","name":"Aschaffenburg","type":"Landkreis"},"federalState":{"key":"09","name":"Bayern"}},{"name":"Schlesierstr.","postalCode":"63762","locality":"Großostheim","municipality":{"key":"09671122","name":"Großostheim, M","type":"Markt"},"district":{"key":"09671","name":"Aschaffenburg","type":"Landkreis"},"federalState":{"key":"09","name":"Bayern"}},{"name":"Schmalzgrube","postalCode":"63762","locality":"Großostheim","municipality":{"key":"09671122","name":"Großostheim, M","type":"Markt"},"district":{"key":"09671","name":"Aschaffenburg","type":"Landkreis"},"federalState":{"key":"09","name":"Bayern"}},{"name":"Schmiedsgang","postalCode":"63762","locality":"Großostheim","municipality":{"key":"09671122","name":"Großostheim, M","type":"Markt"},"district":{"key":"09671","name":"Aschaffenburg","type":"Landkreis"},"federalState":{"key":"09","name":"Bayern"}},{"name":"Schneiderstr.","postalCode":"63762","locality":"Großostheim","municipality":{"key":"09671122","name":"Großostheim, M","type":"Markt"},"district":{"key":"09671","name":"Aschaffenburg","type":"Landkreis"},"federalState":{"key":"09","name":"Bayern"}},{"name":"Schönbornstr.","postalCode":"63762","locality":"Großostheim","municipality":{"key":"09671122","name":"Großostheim, M","type":"Markt"},"district":{"key":"09671","name":"Aschaffenburg","type":"Landkreis"},"federalState":{"key":"09","name":"Bayern"}},{"name":"Schrautenbachweg","postalCode":"63762","locality":"Großostheim","municipality":{"key":"09671122","name":"Großostheim, M","type":"Markt"},"district":{"key":"09671","name":"Aschaffenburg","type":"Landkreis"},"federalState":{"key":"09","name":"Bayern"}},{"name":"Schuckstr.","postalCode":"63762","locality":"Großostheim","municipality":{"key":"09671122","name":"Großostheim, M","type":"Markt"},"district":{"key":"09671","name":"Aschaffenburg","type":"Landkreis"},"federalState":{"key":"09","name":"Bayern"}},{"name":"Schulgasse","postalCode":"63762","locality":"Großostheim","municipality":{"key":"09671122","name":"Großostheim, M","type":"Markt"},"district":{"key":"09671","name":"Aschaffenburg","type":"Landkreis"},"federalState":{"key":"09","name":"Bayern"}},{"name":"Schwarzwaldstr.","postalCode":"63762","locality":"Großostheim","municipality":{"key":"09671122","name":"Großostheim, M","type":"Markt"},"district":{"key":"09671","name":"Aschaffenburg","type":"Landkreis"},"federalState":{"key":"09","name":"Bayern"}},{"name":"Schwesternweg","postalCode":"63762","locality":"Großostheim","municipality":{"key":"09671122","name":"Großostheim, M","type":"Markt"},"district":{"key":"09671","name":"Aschaffenburg","type":"Landkreis"},"federalState":{"key":"09","name":"Bayern"}},{"name":"Sebastianistr.","postalCode":"63762","locality":"Großostheim","municipality":{"key":"09671122","name":"Großostheim, M","type":"Markt"},"district":{"key":"09671","name":"Aschaffenburg","type":"Landkreis"},"federalState":{"key":"09","name":"Bayern"}},{"name":"Sonneck","postalCode":"63762","locality":"Großostheim","municipality":{"key":"09671122","name":"Großostheim, M","type":"Markt"},"district":{"key":"09671","name":"Aschaffenburg","type":"Landkreis"},"federalState":{"key":"09","name":"Bayern"}},{"name":"Sonnenstr.","postalCode":"63762","locality":"Großostheim","municipality":{"key":"09671122","name":"Großostheim, M","type":"Markt"},"district":{"key":"09671","name":"Aschaffenburg","type":"Landkreis"},"federalState":{"key":"09","name":"Bayern"}},{"name":"Spessartstr.","postalCode":"63762","locality":"Großostheim","municipality":{"key":"09671122","name":"Großostheim, M","type":"Markt"},"district":{"key":"09671","name":"Aschaffenburg","type":"Landkreis"},"federalState":{"key":"09","name":"Bayern"}},{"name":"Stadtseestr.","postalCode":"63762","locality":"Großostheim","municipality":{"key":"09671122","name":"Großostheim, M","type":"Markt"},"district":{"key":"09671","name":"Aschaffenburg","type":"Landkreis"},"federalState":{"key":"09","name":"Bayern"}},{"name":"St.-Anna-Weg","postalCode":"63762","locality":"Großostheim","municipality":{"key":"09671122","name":"Großostheim, M","type":"Markt"},"district":{"key":"09671","name":"Aschaffenburg","type":"Landkreis"},"federalState":{"key":"09","name":"Bayern"}},{"name":"Steigerwaldstr.","postalCode":"63762","locality":"Großostheim","municipality":{"key":"09671122","name":"Großostheim, M","type":"Markt"},"district":{"key":"09671","name":"Aschaffenburg","type":"Landkreis"},"federalState":{"key":"09","name":"Bayern"}},{"name":"Steinmetzstr.","postalCode":"63762","locality":"Großostheim","municipality":{"key":"09671122","name":"Großostheim, M","type":"Markt"},"district":{"key":"09671","name":"Aschaffenburg","type":"Landkreis"},"federalState":{"key":"09","name":"Bayern"}},{"name":"Stettiner Str.","postalCode":"63762","locality":"Großostheim","municipality":{"key":"09671122","name":"Großostheim, M","type":"Markt"},"district":{"key":"09671","name":"Aschaffenburg","type":"Landkreis"},"federalState":{"key":"09","name":"Bayern"}},{"name":"St.-Georg-Weg","postalCode":"63762","locality":"Großostheim","municipality":{"key":"09671122","name":"Großostheim, M","type":"Markt"},"district":{"key":"09671","name":"Aschaffenburg","type":"Landkreis"},"federalState":{"key":"09","name":"Bayern"}},{"name":"St.-Luzia-Weg","postalCode":"63762","locality":"Großostheim","municipality":{"key":"09671122","name":"Großostheim, M","type":"Markt"},"district":{"key":"09671","name":"Aschaffenburg","type":"Landkreis"},"federalState":{"key":"09","name":"Bayern"}},{"name":"Stockstädter Str.","postalCode":"63762","locality":"Großostheim","municipality":{"key":"09671122","name":"Großostheim, M","type":"Markt"},"district":{"key":"09671","name":"Aschaffenburg","type":"Landkreis"},"federalState":{"key":"09","name":"Bayern"}},{"name":"Sudetenstr.","postalCode":"63762","locality":"Großostheim","municipality":{"key":"09671122","name":"Großostheim, M","type":"Markt"},"district":{"key":"09671","name":"Aschaffenburg","type":"Landkreis"},"federalState":{"key":"09","name":"Bayern"}},{"name":"Südring","postalCode":"63762","locality":"Großostheim","municipality":{"key":"09671122","name":"Großostheim, M","type":"Markt"},"district":{"key":"09671","name":"Aschaffenburg","type":"Landkreis"},"federalState":{"key":"09","name":"Bayern"}},{"name":"Tauchseeweg","postalCode":"63762","locality":"Großostheim","municipality":{"key":"09671122","name":"Großostheim, M","type":"Markt"},"district":{"key":"09671","name":"Aschaffenburg","type":"Landkreis"},"federalState":{"key":"09","name":"Bayern"}},{"name":"Taunusstr.","postalCode":"63762","locality":"Großostheim","municipality":{"key":"09671122","name":"Großostheim, M","type":"Markt"},"district":{"key":"09671","name":"Aschaffenburg","type":"Landkreis"},"federalState":{"key":"09","name":"Bayern"}},{"name":"Thüringer Str.","postalCode":"63762","locality":"Großostheim","municipality":{"key":"09671122","name":"Großostheim, M","type":"Markt"},"district":{"key":"09671","name":"Aschaffenburg","type":"Landkreis"},"federalState":{"key":"09","name":"Bayern"}},{"name":"Tilmann-Riemenschneider-Str.","postalCode":"63762","locality":"Großostheim","municipality":{"key":"09671122","name":"Großostheim, M","type":"Markt"},"district":{"key":"09671","name":"Aschaffenburg","type":"Landkreis"},"federalState":{"key":"09","name":"Bayern"}},{"name":"Turmgäßchen","postalCode":"63762","locality":"Großostheim","municipality":{"key":"09671122","name":"Großostheim, M","type":"Markt"},"district":{"key":"09671","name":"Aschaffenburg","type":"Landkreis"},"federalState":{"key":"09","name":"Bayern"}},{"name":"Turmstr.","postalCode":"63762","locality":"Großostheim","municipality":{"key":"09671122","name":"Großostheim, M","type":"Markt"},"district":{"key":"09671","name":"Aschaffenburg","type":"Landkreis"},"federalState":{"key":"09","name":"Bayern"}},{"name":"Uhlandstr.","postalCode":"63762","locality":"Großostheim","municipality":{"key":"09671122","name":"Großostheim, M","type":"Markt"},"district":{"key":"09671","name":"Aschaffenburg","type":"Landkreis"},"federalState":{"key":"09","name":"Bayern"}},{"name":"Umgehungsstr.","postalCode":"63762","locality":"Großostheim","municipality":{"key":"09671122","name":"Großostheim, M","type":"Markt"},"district":{"key":"09671","name":"Aschaffenburg","type":"Landkreis"},"federalState":{"key":"09","name":"Bayern"}},{"name":"Untere Mühle","postalCode":"63762","locality":"Großostheim","municipality":{"key":"09671122","name":"Großostheim, M","type":"Markt"},"district":{"key":"09671","name":"Aschaffenburg","type":"Landkreis"},"federalState":{"key":"09","name":"Bayern"}},{"name":"Untere Pforte","postalCode":"63762","locality":"Großostheim","municipality":{"key":"09671122","name":"Großostheim, M","type":"Markt"},"district":{"key":"09671","name":"Aschaffenburg","type":"Landkreis"},"federalState":{"key":"09","name":"Bayern"}},{"name":"Unterer Stadtweg","postalCode":"63762","locality":"Großostheim","municipality":{"key":"09671122","name":"Großostheim, M","type":"Markt"},"district":{"key":"09671","name":"Aschaffenburg","type":"Landkreis"},"federalState":{"key":"09","name":"Bayern"}},{"name":"Untere Stockstädter Str.","postalCode":"63762","locality":"Großostheim","municipality":{"key":"09671122","name":"Großostheim, M","type":"Markt"},"district":{"key":"09671","name":"Aschaffenburg","type":"Landkreis"},"federalState":{"key":"09","name":"Bayern"}},{"name":"Untere Str.","postalCode":"63762","locality":"Großostheim","municipality":{"key":"09671122","name":"Großostheim, M","type":"Markt"},"district":{"key":"09671","name":"Aschaffenburg","type":"Landkreis"},"federalState":{"key":"09","name":"Bayern"}},{"name":"Valentin-Hock-Str.","postalCode":"63762","locality":"Großostheim","municipality":{"key":"09671122","name":"Großostheim, M","type":"Markt"},"district":{"key":"09671","name":"Aschaffenburg","type":"Landkreis"},"federalState":{"key":"09","name":"Bayern"}},{"name":"Venusstr.","postalCode":"63762","locality":"Großostheim","municipality":{"key":"09671122","name":"Großostheim, M","type":"Markt"},"district":{"key":"09671","name":"Aschaffenburg","type":"Landkreis"},"federalState":{"key":"09","name":"Bayern"}},{"name":"Vogelsbergerstr.","postalCode":"63762","locality":"Großostheim","municipality":{"key":"09671122","name":"Großostheim, M","type":"Markt"},"district":{"key":"09671","name":"Aschaffenburg","type":"Landkreis"},"federalState":{"key":"09","name":"Bayern"}},{"name":"Wäldchesweg","postalCode":"63762","locality":"Großostheim","municipality":{"key":"09671122","name":"Großostheim, M","type":"Markt"},"district":{"key":"09671","name":"Aschaffenburg","type":"Landkreis"},"federalState":{"key":"09","name":"Bayern"}},{"name":"Waldstr.","postalCode":"63762","locality":"Großostheim","municipality":{"key":"09671122","name":"Großostheim, M","type":"Markt"},"district":{"key":"09671","name":"Aschaffenburg","type":"Landkreis"},"federalState":{"key":"09","name":"Bayern"}},{"name":"Wallonenstr.","postalCode":"63762","locality":"Großostheim","municipality":{"key":"09671122","name":"Großostheim, M","type":"Markt"},"district":{"key":"09671","name":"Aschaffenburg","type":"Landkreis"},"federalState":{"key":"09","name":"Bayern"}},{"name":"Wallstädter Weg","postalCode":"63762","locality":"Großostheim","municipality":{"key":"09671122","name":"Großostheim, M","type":"Markt"},"district":{"key":"09671","name":"Aschaffenburg","type":"Landkreis"},"federalState":{"key":"09","name":"Bayern"}},{"name":"Wartturmweg","postalCode":"63762","locality":"Großostheim","municipality":{"key":"09671122","name":"Großostheim, M","type":"Markt"},"district":{"key":"09671","name":"Aschaffenburg","type":"Landkreis"},"federalState":{"key":"09","name":"Bayern"}},{"name":"Webergasse","postalCode":"63762","locality":"Großostheim","municipality":{"key":"09671122","name":"Großostheim, M","type":"Markt"},"district":{"key":"09671","name":"Aschaffenburg","type":"Landkreis"},"federalState":{"key":"09","name":"Bayern"}},{"name":"Weidigstr.","postalCode":"63762","locality":"Großostheim","municipality":{"key":"09671122","name":"Großostheim, M","type":"Markt"},"district":{"key":"09671","name":"Aschaffenburg","type":"Landkreis"},"federalState":{"key":"09","name":"Bayern"}},{"name":"Weinbergweg","postalCode":"63762","locality":"Großostheim","municipality":{"key":"09671122","name":"Großostheim, M","type":"Markt"},"district":{"key":"09671","name":"Aschaffenburg","type":"Landkreis"},"federalState":{"key":"09","name":"Bayern"}},{"name":"Welzbachring","postalCode":"63762","locality":"Großostheim","municipality":{"key":"09671122","name":"Großostheim, M","type":"Markt"},"district":{"key":"09671","name":"Aschaffenburg","type":"Landkreis"},"federalState":{"key":"09","name":"Bayern"}},{"name":"Wendelin-Veit-Str.","postalCode":"63762","locality":"Großostheim","municipality":{"key":"09671122","name":"Großostheim, M","type":"Markt"},"district":{"key":"09671","name":"Aschaffenburg","type":"Landkreis"},"federalState":{"key":"09","name":"Bayern"}},{"name":"Wenigumstädter Str.","postalCode":"63762","locality":"Großostheim","municipality":{"key":"09671122","name":"Großostheim, M","type":"Markt"},"district":{"key":"09671","name":"Aschaffenburg","type":"Landkreis"},"federalState":{"key":"09","name":"Bayern"}},{"name":"Wernstr.","postalCode":"63762","locality":"Großostheim","municipality":{"key":"09671122","name":"Großostheim, M","type":"Markt"},"district":{"key":"09671","name":"Aschaffenburg","type":"Landkreis"},"federalState":{"key":"09","name":"Bayern"}},{"name":"Westendstr.","postalCode":"63762","locality":"Großostheim","municipality":{"key":"09671122","name":"Großostheim, M","type":"Markt"},"district":{"key":"09671","name":"Aschaffenburg","type":"Landkreis"},"federalState":{"key":"09","name":"Bayern"}},{"name":"Westring","postalCode":"63762","locality":"Großostheim","municipality":{"key":"09671122","name":"Großostheim, M","type":"Markt"},"district":{"key":"09671","name":"Aschaffenburg","type":"Landkreis"},"federalState":{"key":"09","name":"Bayern"}},{"name":"Wetstr.","postalCode":"63762","locality":"Großostheim","municipality":{"key":"09671122","name":"Großostheim, M","type":"Markt"},"district":{"key":"09671","name":"Aschaffenburg","type":"Landkreis"},"federalState":{"key":"09","name":"Bayern"}},{"name":"Wiesenstr.","postalCode":"63762","locality":"Großostheim","municipality":{"key":"09671122","name":"Großostheim, M","type":"Markt"},"district":{"key":"09671","name":"Aschaffenburg","type":"Landkreis"},"federalState":{"key":"09","name":"Bayern"}},{"name":"Wißlerstr.","postalCode":"63762","locality":"Großostheim","municipality":{"key":"09671122","name":"Großostheim, M","type":"Markt"},"district":{"key":"09671","name":"Aschaffenburg","type":"Landkreis"},"federalState":{"key":"09","name":"Bayern"}},{"name":"Yorckstr.","postalCode":"63739","locality":"Aschaffenburg","municipality":{"key":"09661000","name":"Aschaffenburg","type":"Kreisfreie_Stadt"},"district":{"key":"09661","name":"Aschaffenburg","type":"Kreisfreie_Stadt"},"federalState":{"key":"09","name":"Bayern"}},{"name":"Zahnstr.","postalCode":"63762","locality":"Großostheim","municipality":{"key":"09671122","name":"Großostheim, M","type":"Markt"},"district":{"key":"09671","name":"Aschaffenburg","type":"Landkreis"},"federalState":{"key":"09","name":"Bayern"}},{"name":"Zieglershohle","postalCode":"63762","locality":"Großostheim","municipality":{"key":"09671122","name":"Großostheim, M","type":"Markt"},"district":{"key":"09671","name":"Aschaffenburg","type":"Landkreis"},"federalState":{"key":"09","name":"Bayern"}},{"name":"Zum Hönig","postalCode":"63762","locality":"Großostheim","municipality":{"key":"09671122","name":"Großostheim, M","type":"Markt"},"district":{"key":"09671","name":"Aschaffenburg","type":"Landkreis"},"federalState":{"key":"09","name":"Bayern"}},{"name":"Zum Rittelberg","postalCode":"63762","locality":"Großostheim","municipality":{"key":"09671122","name":"Großostheim, M","type":"Markt"},"district":{"key":"09671","name":"Aschaffenburg","type":"Landkreis"},"federalState":{"key":"09","name":"Bayern"}},{"name":"Zur Kirschenhohle","postalCode":"63762","locality":"Großostheim","municipality":{"key":"09671122","name":"Großostheim, M","type":"Markt"},"district":{"key":"09671","name":"Aschaffenburg","type":"Landkreis"},"federalState":{"key":"09","name":"Bayern"}},{"name":"Zur Welzbachhalle","postalCode":"63762","locality":"Großostheim","municipality":{"key":"09671122","name":"Großostheim, M","type":"Markt"},"district":{"key":"09671","name":"Aschaffenburg","type":"Landkreis"},"federalState":{"key":"09","name":"Bayern"}},{"name":"Ölmühlweg","postalCode":"63743","locality":"Aschaffenburg","municipality":{"key":"09661000","name":"Aschaffenburg","type":"Kreisfreie_Stadt"},"district":{"key":"09661","name":"Aschaffenburg","type":"Kreisfreie_Stadt"},"federalState":{"key":"09","name":"Bayern"}},{"name":"Österreicher Str.","postalCode":"63739","locality":"Aschaffenburg","municipality":{"key":"09661000","name":"Aschaffenburg","type":"Kreisfreie_Stadt"},"district":{"key":"09661","name":"Aschaffenburg","type":"Kreisfreie_Stadt"},"federalState":{"key":"09","name":"Bayern"}},]