[{"name":"Achtern Beek","postalCode":"25462","locality":"Rellingen","municipality":{"key":"01056043","name":"Rellingen","type":"Kreisangehörige_Gemeinde"},"district":{"key":"01056","name":"Pinneberg","type":"Kreis"},"federalState":{"key":"01","name":"Schleswig-Holstein"}},{"name":"Achtern Knick","postalCode":"25462","locality":"Rellingen","municipality":{"key":"01056043","name":"Rellingen","type":"Kreisangehörige_Gemeinde"},"district":{"key":"01056","name":"Pinneberg","type":"Kreis"},"federalState":{"key":"01","name":"Schleswig-Holstein"}},{"name":"Adlerstr.","postalCode":"25462","locality":"Rellingen","municipality":{"key":"01056043","name":"Rellingen","type":"Kreisangehörige_Gemeinde"},"district":{"key":"01056","name":"Pinneberg","type":"Kreis"},"federalState":{"key":"01","name":"Schleswig-Holstein"}},{"name":"Ahornstr.","postalCode":"25462","locality":"Rellingen","municipality":{"key":"01056043","name":"Rellingen","type":"Kreisangehörige_Gemeinde"},"district":{"key":"01056","name":"Pinneberg","type":"Kreis"},"federalState":{"key":"01","name":"Schleswig-Holstein"}},{"name":"Ahornweg","postalCode":"25462","locality":"Rellingen","municipality":{"key":"01056043","name":"Rellingen","type":"Kreisangehörige_Gemeinde"},"district":{"key":"01056","name":"Pinneberg","type":"Kreis"},"federalState":{"key":"01","name":"Schleswig-Holstein"}},{"name":"Alter Marktplatz","postalCode":"25462","locality":"Rellingen","municipality":{"key":"01056043","name":"Rellingen","type":"Kreisangehörige_Gemeinde"},"district":{"key":"01056","name":"Pinneberg","type":"Kreis"},"federalState":{"key":"01","name":"Schleswig-Holstein"}},{"name":"Altonaer Str.","postalCode":"25462","locality":"Rellingen","municipality":{"key":"01056043","name":"Rellingen","type":"Kreisangehörige_Gemeinde"},"district":{"key":"01056","name":"Pinneberg","type":"Kreis"},"federalState":{"key":"01","name":"Schleswig-Holstein"}},{"name":"Am Dorfteich","postalCode":"25462","locality":"Rellingen","municipality":{"key":"01056043","name":"Rellingen","type":"Kreisangehörige_Gemeinde"},"district":{"key":"01056","name":"Pinneberg","type":"Kreis"},"federalState":{"key":"01","name":"Schleswig-Holstein"}},{"name":"Am Gedenkstein","postalCode":"25462","locality":"Rellingen","municipality":{"key":"01056043","name":"Rellingen","type":"Kreisangehörige_Gemeinde"},"district":{"key":"01056","name":"Pinneberg","type":"Kreis"},"federalState":{"key":"01","name":"Schleswig-Holstein"}},{"name":"Am Hasloegen","postalCode":"25462","locality":"Rellingen","municipality":{"key":"01056043","name":"Rellingen","type":"Kreisangehörige_Gemeinde"},"district":{"key":"01056","name":"Pinneberg","type":"Kreis"},"federalState":{"key":"01","name":"Schleswig-Holstein"}},{"name":"Am Kellergraben","postalCode":"25462","locality":"Rellingen","municipality":{"key":"01056043","name":"Rellingen","type":"Kreisangehörige_Gemeinde"},"district":{"key":"01056","name":"Pinneberg","type":"Kreis"},"federalState":{"key":"01","name":"Schleswig-Holstein"}},{"name":"Am Markt","postalCode":"25462","locality":"Rellingen","municipality":{"key":"01056043","name":"Rellingen","type":"Kreisangehörige_Gemeinde"},"district":{"key":"01056","name":"Pinneberg","type":"Kreis"},"federalState":{"key":"01","name":"Schleswig-Holstein"}},{"name":"Am Moorbad","postalCode":"25462","locality":"Rellingen","municipality":{"key":"01056043","name":"Rellingen","type":"Kreisangehörige_Gemeinde"},"district":{"key":"01056","name":"Pinneberg","type":"Kreis"},"federalState":{"key":"01","name":"Schleswig-Holstein"}},{"name":"Am Rathausplatz","postalCode":"25462","locality":"Rellingen","municipality":{"key":"01056043","name":"Rellingen","type":"Kreisangehörige_Gemeinde"},"district":{"key":"01056","name":"Pinneberg","type":"Kreis"},"federalState":{"key":"01","name":"Schleswig-Holstein"}},{"name":"Amselstr.","postalCode":"25462","locality":"Rellingen","municipality":{"key":"01056043","name":"Rellingen","type":"Kreisangehörige_Gemeinde"},"district":{"key":"01056","name":"Pinneberg","type":"Kreis"},"federalState":{"key":"01","name":"Schleswig-Holstein"}},{"name":"Am Sportplatz","postalCode":"25462","locality":"Rellingen","municipality":{"key":"01056043","name":"Rellingen","type":"Kreisangehörige_Gemeinde"},"district":{"key":"01056","name":"Pinneberg","type":"Kreis"},"federalState":{"key":"01","name":"Schleswig-Holstein"}},{"name":"Am Staatsforst","postalCode":"25462","locality":"Rellingen","municipality":{"key":"01056043","name":"Rellingen","type":"Kreisangehörige_Gemeinde"},"district":{"key":"01056","name":"Pinneberg","type":"Kreis"},"federalState":{"key":"01","name":"Schleswig-Holstein"}},{"name":"Am Wasserwerk","postalCode":"25462","locality":"Rellingen","municipality":{"key":"01056043","name":"Rellingen","type":"Kreisangehörige_Gemeinde"},"district":{"key":"01056","name":"Pinneberg","type":"Kreis"},"federalState":{"key":"01","name":"Schleswig-Holstein"}},{"name":"An der Blockhütte","postalCode":"25462","locality":"Rellingen","municipality":{"key":"01056043","name":"Rellingen","type":"Kreisangehörige_Gemeinde"},"district":{"key":"01056","name":"Pinneberg","type":"Kreis"},"federalState":{"key":"01","name":"Schleswig-Holstein"}},{"name":"An der Rellau","postalCode":"25462","locality":"Rellingen","municipality":{"key":"01056043","name":"Rellingen","type":"Kreisangehörige_Gemeinde"},"district":{"key":"01056","name":"Pinneberg","type":"Kreis"},"federalState":{"key":"01","name":"Schleswig-Holstein"}},{"name":"An Ellernholt","postalCode":"25462","locality":"Rellingen","municipality":{"key":"01056043","name":"Rellingen","type":"Kreisangehörige_Gemeinde"},"district":{"key":"01056","name":"Pinneberg","type":"Kreis"},"federalState":{"key":"01","name":"Schleswig-Holstein"}},{"name":"Appelkamp","postalCode":"25462","locality":"Rellingen","municipality":{"key":"01056043","name":"Rellingen","type":"Kreisangehörige_Gemeinde"},"district":{"key":"01056","name":"Pinneberg","type":"Kreis"},"federalState":{"key":"01","name":"Schleswig-Holstein"}},{"name":"Auf dem Hall","postalCode":"25462","locality":"Rellingen","municipality":{"key":"01056043","name":"Rellingen","type":"Kreisangehörige_Gemeinde"},"district":{"key":"01056","name":"Pinneberg","type":"Kreis"},"federalState":{"key":"01","name":"Schleswig-Holstein"}},{"name":"Autal","postalCode":"25462","locality":"Rellingen","municipality":{"key":"01056043","name":"Rellingen","type":"Kreisangehörige_Gemeinde"},"district":{"key":"01056","name":"Pinneberg","type":"Kreis"},"federalState":{"key":"01","name":"Schleswig-Holstein"}},{"name":"Bannebruchweg","postalCode":"25462","locality":"Rellingen","municipality":{"key":"01056043","name":"Rellingen","type":"Kreisangehörige_Gemeinde"},"district":{"key":"01056","name":"Pinneberg","type":"Kreis"},"federalState":{"key":"01","name":"Schleswig-Holstein"}},{"name":"Banskamp","postalCode":"25462","locality":"Rellingen","municipality":{"key":"01056043","name":"Rellingen","type":"Kreisangehörige_Gemeinde"},"district":{"key":"01056","name":"Pinneberg","type":"Kreis"},"federalState":{"key":"01","name":"Schleswig-Holstein"}},{"name":"Baumschulenweg","postalCode":"25462","locality":"Rellingen","municipality":{"key":"01056043","name":"Rellingen","type":"Kreisangehörige_Gemeinde"},"district":{"key":"01056","name":"Pinneberg","type":"Kreis"},"federalState":{"key":"01","name":"Schleswig-Holstein"}},{"name":"Bergstr.","postalCode":"25462","locality":"Rellingen","municipality":{"key":"01056043","name":"Rellingen","type":"Kreisangehörige_Gemeinde"},"district":{"key":"01056","name":"Pinneberg","type":"Kreis"},"federalState":{"key":"01","name":"Schleswig-Holstein"}},{"name":"Birkengrund","postalCode":"25462","locality":"Rellingen","municipality":{"key":"01056043","name":"Rellingen","type":"Kreisangehörige_Gemeinde"},"district":{"key":"01056","name":"Pinneberg","type":"Kreis"},"federalState":{"key":"01","name":"Schleswig-Holstein"}},{"name":"Bitzkamp","postalCode":"25462","locality":"Rellingen","municipality":{"key":"01056043","name":"Rellingen","type":"Kreisangehörige_Gemeinde"},"district":{"key":"01056","name":"Pinneberg","type":"Kreis"},"federalState":{"key":"01","name":"Schleswig-Holstein"}},{"name":"Borsteler Kirchenstieg","postalCode":"25462","locality":"Rellingen","municipality":{"key":"01056043","name":"Rellingen","type":"Kreisangehörige_Gemeinde"},"district":{"key":"01056","name":"Pinneberg","type":"Kreis"},"federalState":{"key":"01","name":"Schleswig-Holstein"}},{"name":"Borsteler Kirchenweg","postalCode":"25462","locality":"Rellingen","municipality":{"key":"01056043","name":"Rellingen","type":"Kreisangehörige_Gemeinde"},"district":{"key":"01056","name":"Pinneberg","type":"Kreis"},"federalState":{"key":"01","name":"Schleswig-Holstein"}},{"name":"Bortelskamp","postalCode":"25462","locality":"Rellingen","municipality":{"key":"01056043","name":"Rellingen","type":"Kreisangehörige_Gemeinde"},"district":{"key":"01056","name":"Pinneberg","type":"Kreis"},"federalState":{"key":"01","name":"Schleswig-Holstein"}},{"name":"Bosselwisch","postalCode":"25462","locality":"Rellingen","municipality":{"key":"01056043","name":"Rellingen","type":"Kreisangehörige_Gemeinde"},"district":{"key":"01056","name":"Pinneberg","type":"Kreis"},"federalState":{"key":"01","name":"Schleswig-Holstein"}},{"name":"Buchenstr.","postalCode":"25462","locality":"Rellingen","municipality":{"key":"01056043","name":"Rellingen","type":"Kreisangehörige_Gemeinde"},"district":{"key":"01056","name":"Pinneberg","type":"Kreis"},"federalState":{"key":"01","name":"Schleswig-Holstein"}},{"name":"Büntloh","postalCode":"25462","locality":"Rellingen","municipality":{"key":"01056043","name":"Rellingen","type":"Kreisangehörige_Gemeinde"},"district":{"key":"01056","name":"Pinneberg","type":"Kreis"},"federalState":{"key":"01","name":"Schleswig-Holstein"}},{"name":"Bussardstr.","postalCode":"25462","locality":"Rellingen","municipality":{"key":"01056043","name":"Rellingen","type":"Kreisangehörige_Gemeinde"},"district":{"key":"01056","name":"Pinneberg","type":"Kreis"},"federalState":{"key":"01","name":"Schleswig-Holstein"}},{"name":"Cay-Dose-Weg","postalCode":"25462","locality":"Rellingen","municipality":{"key":"01056043","name":"Rellingen","type":"Kreisangehörige_Gemeinde"},"district":{"key":"01056","name":"Pinneberg","type":"Kreis"},"federalState":{"key":"01","name":"Schleswig-Holstein"}},{"name":"Dahlienhof","postalCode":"25462","locality":"Rellingen","municipality":{"key":"01056043","name":"Rellingen","type":"Kreisangehörige_Gemeinde"},"district":{"key":"01056","name":"Pinneberg","type":"Kreis"},"federalState":{"key":"01","name":"Schleswig-Holstein"}},{"name":"Dorfstr.","postalCode":"25462","locality":"Rellingen","municipality":{"key":"01056043","name":"Rellingen","type":"Kreisangehörige_Gemeinde"},"district":{"key":"01056","name":"Pinneberg","type":"Kreis"},"federalState":{"key":"01","name":"Schleswig-Holstein"}},{"name":"Dorfstr./Tangstedter Chaussee","postalCode":"25462","locality":"Rellingen","municipality":{"key":"01056043","name":"Rellingen","type":"Kreisangehörige_Gemeinde"},"district":{"key":"01056","name":"Pinneberg","type":"Kreis"},"federalState":{"key":"01","name":"Schleswig-Holstein"}},{"name":"Drinkwedel","postalCode":"25462","locality":"Rellingen","municipality":{"key":"01056043","name":"Rellingen","type":"Kreisangehörige_Gemeinde"},"district":{"key":"01056","name":"Pinneberg","type":"Kreis"},"federalState":{"key":"01","name":"Schleswig-Holstein"}},{"name":"Drosselstr.","postalCode":"25462","locality":"Rellingen","municipality":{"key":"01056043","name":"Rellingen","type":"Kreisangehörige_Gemeinde"},"district":{"key":"01056","name":"Pinneberg","type":"Kreis"},"federalState":{"key":"01","name":"Schleswig-Holstein"}},{"name":"Ehmschen","postalCode":"25462","locality":"Rellingen","municipality":{"key":"01056043","name":"Rellingen","type":"Kreisangehörige_Gemeinde"},"district":{"key":"01056","name":"Pinneberg","type":"Kreis"},"federalState":{"key":"01","name":"Schleswig-Holstein"}},{"name":"Ehmschenkamp","postalCode":"25462","locality":"Rellingen","municipality":{"key":"01056043","name":"Rellingen","type":"Kreisangehörige_Gemeinde"},"district":{"key":"01056","name":"Pinneberg","type":"Kreis"},"federalState":{"key":"01","name":"Schleswig-Holstein"}},{"name":"Eichenstr.","postalCode":"25462","locality":"Rellingen","municipality":{"key":"01056043","name":"Rellingen","type":"Kreisangehörige_Gemeinde"},"district":{"key":"01056","name":"Pinneberg","type":"Kreis"},"federalState":{"key":"01","name":"Schleswig-Holstein"}},{"name":"Eichenstr. / Damm","postalCode":"25462","locality":"Rellingen","municipality":{"key":"01056043","name":"Rellingen","type":"Kreisangehörige_Gemeinde"},"district":{"key":"01056","name":"Pinneberg","type":"Kreis"},"federalState":{"key":"01","name":"Schleswig-Holstein"}},{"name":"Ellerbeker Weg","postalCode":"25462","locality":"Rellingen","municipality":{"key":"01056043","name":"Rellingen","type":"Kreisangehörige_Gemeinde"},"district":{"key":"01056","name":"Pinneberg","type":"Kreis"},"federalState":{"key":"01","name":"Schleswig-Holstein"}},{"name":"Erlengrund","postalCode":"25462","locality":"Rellingen","municipality":{"key":"01056043","name":"Rellingen","type":"Kreisangehörige_Gemeinde"},"district":{"key":"01056","name":"Pinneberg","type":"Kreis"},"federalState":{"key":"01","name":"Schleswig-Holstein"}},{"name":"Erlenweg","postalCode":"25462","locality":"Rellingen","municipality":{"key":"01056043","name":"Rellingen","type":"Kreisangehörige_Gemeinde"},"district":{"key":"01056","name":"Pinneberg","type":"Kreis"},"federalState":{"key":"01","name":"Schleswig-Holstein"}},{"name":"Ernst-Behrens-Str.","postalCode":"25462","locality":"Rellingen","municipality":{"key":"01056043","name":"Rellingen","type":"Kreisangehörige_Gemeinde"},"district":{"key":"01056","name":"Pinneberg","type":"Kreis"},"federalState":{"key":"01","name":"Schleswig-Holstein"}},{"name":"Fahltsweg","postalCode":"25462","locality":"Rellingen","municipality":{"key":"01056043","name":"Rellingen","type":"Kreisangehörige_Gemeinde"},"district":{"key":"01056","name":"Pinneberg","type":"Kreis"},"federalState":{"key":"01","name":"Schleswig-Holstein"}},{"name":"Falkengrund","postalCode":"25462","locality":"Rellingen","municipality":{"key":"01056043","name":"Rellingen","type":"Kreisangehörige_Gemeinde"},"district":{"key":"01056","name":"Pinneberg","type":"Kreis"},"federalState":{"key":"01","name":"Schleswig-Holstein"}},{"name":"Fasanenstr.","postalCode":"25462","locality":"Rellingen","municipality":{"key":"01056043","name":"Rellingen","type":"Kreisangehörige_Gemeinde"},"district":{"key":"01056","name":"Pinneberg","type":"Kreis"},"federalState":{"key":"01","name":"Schleswig-Holstein"}},{"name":"Finkeneck","postalCode":"25462","locality":"Rellingen","municipality":{"key":"01056043","name":"Rellingen","type":"Kreisangehörige_Gemeinde"},"district":{"key":"01056","name":"Pinneberg","type":"Kreis"},"federalState":{"key":"01","name":"Schleswig-Holstein"}},{"name":"Finkengrund","postalCode":"25462","locality":"Rellingen","municipality":{"key":"01056043","name":"Rellingen","type":"Kreisangehörige_Gemeinde"},"district":{"key":"01056","name":"Pinneberg","type":"Kreis"},"federalState":{"key":"01","name":"Schleswig-Holstein"}},{"name":"Friedenstr.","postalCode":"25462","locality":"Rellingen","municipality":{"key":"01056043","name":"Rellingen","type":"Kreisangehörige_Gemeinde"},"district":{"key":"01056","name":"Pinneberg","type":"Kreis"},"federalState":{"key":"01","name":"Schleswig-Holstein"}},{"name":"Fritz-Reuter-Str.","postalCode":"25462","locality":"Rellingen","municipality":{"key":"01056043","name":"Rellingen","type":"Kreisangehörige_Gemeinde"},"district":{"key":"01056","name":"Pinneberg","type":"Kreis"},"federalState":{"key":"01","name":"Schleswig-Holstein"}},{"name":"Fuchsbau","postalCode":"25462","locality":"Rellingen","municipality":{"key":"01056043","name":"Rellingen","type":"Kreisangehörige_Gemeinde"},"district":{"key":"01056","name":"Pinneberg","type":"Kreis"},"federalState":{"key":"01","name":"Schleswig-Holstein"}},{"name":"Gärtnerhof","postalCode":"25462","locality":"Rellingen","municipality":{"key":"01056043","name":"Rellingen","type":"Kreisangehörige_Gemeinde"},"district":{"key":"01056","name":"Pinneberg","type":"Kreis"},"federalState":{"key":"01","name":"Schleswig-Holstein"}},{"name":"Gärtnerstr.","postalCode":"25462","locality":"Rellingen","municipality":{"key":"01056043","name":"Rellingen","type":"Kreisangehörige_Gemeinde"},"district":{"key":"01056","name":"Pinneberg","type":"Kreis"},"federalState":{"key":"01","name":"Schleswig-Holstein"}},{"name":"Gaselbogen","postalCode":"25462","locality":"Rellingen","municipality":{"key":"01056043","name":"Rellingen","type":"Kreisangehörige_Gemeinde"},"district":{"key":"01056","name":"Pinneberg","type":"Kreis"},"federalState":{"key":"01","name":"Schleswig-Holstein"}},{"name":"Gaselhorn","postalCode":"25462","locality":"Rellingen","municipality":{"key":"01056043","name":"Rellingen","type":"Kreisangehörige_Gemeinde"},"district":{"key":"01056","name":"Pinneberg","type":"Kreis"},"federalState":{"key":"01","name":"Schleswig-Holstein"}},{"name":"Gorch-Fock-Str.","postalCode":"25462","locality":"Rellingen","municipality":{"key":"01056043","name":"Rellingen","type":"Kreisangehörige_Gemeinde"},"district":{"key":"01056","name":"Pinneberg","type":"Kreis"},"federalState":{"key":"01","name":"Schleswig-Holstein"}},{"name":"Gösselkamp","postalCode":"25462","locality":"Rellingen","municipality":{"key":"01056043","name":"Rellingen","type":"Kreisangehörige_Gemeinde"},"district":{"key":"01056","name":"Pinneberg","type":"Kreis"},"federalState":{"key":"01","name":"Schleswig-Holstein"}},{"name":"Gösselstieg","postalCode":"25462","locality":"Rellingen","municipality":{"key":"01056043","name":"Rellingen","type":"Kreisangehörige_Gemeinde"},"district":{"key":"01056","name":"Pinneberg","type":"Kreis"},"federalState":{"key":"01","name":"Schleswig-Holstein"}},{"name":"Grüner Weg","postalCode":"25462","locality":"Rellingen","municipality":{"key":"01056043","name":"Rellingen","type":"Kreisangehörige_Gemeinde"},"district":{"key":"01056","name":"Pinneberg","type":"Kreis"},"federalState":{"key":"01","name":"Schleswig-Holstein"}},{"name":"Grüne Twiete","postalCode":"25462","locality":"Rellingen","municipality":{"key":"01056043","name":"Rellingen","type":"Kreisangehörige_Gemeinde"},"district":{"key":"01056","name":"Pinneberg","type":"Kreis"},"federalState":{"key":"01","name":"Schleswig-Holstein"}},{"name":"Habichtstr.","postalCode":"25462","locality":"Rellingen","municipality":{"key":"01056043","name":"Rellingen","type":"Kreisangehörige_Gemeinde"},"district":{"key":"01056","name":"Pinneberg","type":"Kreis"},"federalState":{"key":"01","name":"Schleswig-Holstein"}},{"name":"Hallstr.","postalCode":"25462","locality":"Rellingen","municipality":{"key":"01056043","name":"Rellingen","type":"Kreisangehörige_Gemeinde"},"district":{"key":"01056","name":"Pinneberg","type":"Kreis"},"federalState":{"key":"01","name":"Schleswig-Holstein"}},{"name":"Halstenbeker Weg","postalCode":"25462","locality":"Rellingen","municipality":{"key":"01056043","name":"Rellingen","type":"Kreisangehörige_Gemeinde"},"district":{"key":"01056","name":"Pinneberg","type":"Kreis"},"federalState":{"key":"01","name":"Schleswig-Holstein"}},{"name":"Hamburger Str.","postalCode":"25462","locality":"Rellingen","municipality":{"key":"01056043","name":"Rellingen","type":"Kreisangehörige_Gemeinde"},"district":{"key":"01056","name":"Pinneberg","type":"Kreis"},"federalState":{"key":"01","name":"Schleswig-Holstein"}},{"name":"Hans-Reumann-Str.","postalCode":"25462","locality":"Rellingen","municipality":{"key":"01056043","name":"Rellingen","type":"Kreisangehörige_Gemeinde"},"district":{"key":"01056","name":"Pinneberg","type":"Kreis"},"federalState":{"key":"01","name":"Schleswig-Holstein"}},{"name":"Hasenmoor","postalCode":"25462","locality":"Rellingen","municipality":{"key":"01056043","name":"Rellingen","type":"Kreisangehörige_Gemeinde"},"district":{"key":"01056","name":"Pinneberg","type":"Kreis"},"federalState":{"key":"01","name":"Schleswig-Holstein"}},{"name":"Hauptstr.","postalCode":"25462","locality":"Rellingen","municipality":{"key":"01056043","name":"Rellingen","type":"Kreisangehörige_Gemeinde"},"district":{"key":"01056","name":"Pinneberg","type":"Kreis"},"federalState":{"key":"01","name":"Schleswig-Holstein"}},{"name":"Hebbelstr.","postalCode":"25462","locality":"Rellingen","municipality":{"key":"01056043","name":"Rellingen","type":"Kreisangehörige_Gemeinde"},"district":{"key":"01056","name":"Pinneberg","type":"Kreis"},"federalState":{"key":"01","name":"Schleswig-Holstein"}},{"name":"Heidestr.","postalCode":"25462","locality":"Rellingen","municipality":{"key":"01056043","name":"Rellingen","type":"Kreisangehörige_Gemeinde"},"district":{"key":"01056","name":"Pinneberg","type":"Kreis"},"federalState":{"key":"01","name":"Schleswig-Holstein"}},{"name":"Heidkampsweg","postalCode":"25462","locality":"Rellingen","municipality":{"key":"01056043","name":"Rellingen","type":"Kreisangehörige_Gemeinde"},"district":{"key":"01056","name":"Pinneberg","type":"Kreis"},"federalState":{"key":"01","name":"Schleswig-Holstein"}},{"name":"Heidkoppel","postalCode":"25462","locality":"Rellingen","municipality":{"key":"01056043","name":"Rellingen","type":"Kreisangehörige_Gemeinde"},"district":{"key":"01056","name":"Pinneberg","type":"Kreis"},"federalState":{"key":"01","name":"Schleswig-Holstein"}},{"name":"Hempbergstr.","postalCode":"25462","locality":"Rellingen","municipality":{"key":"01056043","name":"Rellingen","type":"Kreisangehörige_Gemeinde"},"district":{"key":"01056","name":"Pinneberg","type":"Kreis"},"federalState":{"key":"01","name":"Schleswig-Holstein"}},{"name":"Hermann-Löns-Weg","postalCode":"25462","locality":"Rellingen","municipality":{"key":"01056043","name":"Rellingen","type":"Kreisangehörige_Gemeinde"},"district":{"key":"01056","name":"Pinneberg","type":"Kreis"},"federalState":{"key":"01","name":"Schleswig-Holstein"}},{"name":"Hermann-Rohwedder-Str.","postalCode":"25462","locality":"Rellingen","municipality":{"key":"01056043","name":"Rellingen","type":"Kreisangehörige_Gemeinde"},"district":{"key":"01056","name":"Pinneberg","type":"Kreis"},"federalState":{"key":"01","name":"Schleswig-Holstein"}},{"name":"Hohle Eiche","postalCode":"25462","locality":"Rellingen","municipality":{"key":"01056043","name":"Rellingen","type":"Kreisangehörige_Gemeinde"},"district":{"key":"01056","name":"Pinneberg","type":"Kreis"},"federalState":{"key":"01","name":"Schleswig-Holstein"}},{"name":"Hohle Str.","postalCode":"25462","locality":"Rellingen","municipality":{"key":"01056043","name":"Rellingen","type":"Kreisangehörige_Gemeinde"},"district":{"key":"01056","name":"Pinneberg","type":"Kreis"},"federalState":{"key":"01","name":"Schleswig-Holstein"}},{"name":"Holstenstr.","postalCode":"25462","locality":"Rellingen","municipality":{"key":"01056043","name":"Rellingen","type":"Kreisangehörige_Gemeinde"},"district":{"key":"01056","name":"Pinneberg","type":"Kreis"},"federalState":{"key":"01","name":"Schleswig-Holstein"}},{"name":"Im Dorfe","postalCode":"25462","locality":"Rellingen","municipality":{"key":"01056043","name":"Rellingen","type":"Kreisangehörige_Gemeinde"},"district":{"key":"01056","name":"Pinneberg","type":"Kreis"},"federalState":{"key":"01","name":"Schleswig-Holstein"}},{"name":"In de Wischen","postalCode":"25462","locality":"Rellingen","municipality":{"key":"01056043","name":"Rellingen","type":"Kreisangehörige_Gemeinde"},"district":{"key":"01056","name":"Pinneberg","type":"Kreis"},"federalState":{"key":"01","name":"Schleswig-Holstein"}},{"name":"Industriestr.","postalCode":"25462","locality":"Rellingen","municipality":{"key":"01056043","name":"Rellingen","type":"Kreisangehörige_Gemeinde"},"district":{"key":"01056","name":"Pinneberg","type":"Kreis"},"federalState":{"key":"01","name":"Schleswig-Holstein"}},{"name":"Jacob-Ahrens-Str.","postalCode":"25462","locality":"Rellingen","municipality":{"key":"01056043","name":"Rellingen","type":"Kreisangehörige_Gemeinde"},"district":{"key":"01056","name":"Pinneberg","type":"Kreis"},"federalState":{"key":"01","name":"Schleswig-Holstein"}},{"name":"Jahnstr.","postalCode":"25462","locality":"Rellingen","municipality":{"key":"01056043","name":"Rellingen","type":"Kreisangehörige_Gemeinde"},"district":{"key":"01056","name":"Pinneberg","type":"Kreis"},"federalState":{"key":"01","name":"Schleswig-Holstein"}},{"name":"Jebbenberg","postalCode":"25462","locality":"Rellingen","municipality":{"key":"01056043","name":"Rellingen","type":"Kreisangehörige_Gemeinde"},"district":{"key":"01056","name":"Pinneberg","type":"Kreis"},"federalState":{"key":"01","name":"Schleswig-Holstein"}},{"name":"Karl-Bunje-Str.","postalCode":"25462","locality":"Rellingen","municipality":{"key":"01056043","name":"Rellingen","type":"Kreisangehörige_Gemeinde"},"district":{"key":"01056","name":"Pinneberg","type":"Kreis"},"federalState":{"key":"01","name":"Schleswig-Holstein"}},{"name":"Kastanienallee","postalCode":"25462","locality":"Rellingen","municipality":{"key":"01056043","name":"Rellingen","type":"Kreisangehörige_Gemeinde"},"district":{"key":"01056","name":"Pinneberg","type":"Kreis"},"federalState":{"key":"01","name":"Schleswig-Holstein"}},{"name":"Kellerstr.","postalCode":"25462","locality":"Rellingen","municipality":{"key":"01056043","name":"Rellingen","type":"Kreisangehörige_Gemeinde"},"district":{"key":"01056","name":"Pinneberg","type":"Kreis"},"federalState":{"key":"01","name":"Schleswig-Holstein"}},{"name":"Kiebitzgrund","postalCode":"25462","locality":"Rellingen","municipality":{"key":"01056043","name":"Rellingen","type":"Kreisangehörige_Gemeinde"},"district":{"key":"01056","name":"Pinneberg","type":"Kreis"},"federalState":{"key":"01","name":"Schleswig-Holstein"}},{"name":"Kiefernweg","postalCode":"25462","locality":"Rellingen","municipality":{"key":"01056043","name":"Rellingen","type":"Kreisangehörige_Gemeinde"},"district":{"key":"01056","name":"Pinneberg","type":"Kreis"},"federalState":{"key":"01","name":"Schleswig-Holstein"}},{"name":"Kirchenstieg","postalCode":"25462","locality":"Rellingen","municipality":{"key":"01056043","name":"Rellingen","type":"Kreisangehörige_Gemeinde"},"district":{"key":"01056","name":"Pinneberg","type":"Kreis"},"federalState":{"key":"01","name":"Schleswig-Holstein"}},{"name":"Kirchenstr.","postalCode":"25462","locality":"Rellingen","municipality":{"key":"01056043","name":"Rellingen","type":"Kreisangehörige_Gemeinde"},"district":{"key":"01056","name":"Pinneberg","type":"Kreis"},"federalState":{"key":"01","name":"Schleswig-Holstein"}},{"name":"Kirchenweg","postalCode":"25462","locality":"Rellingen","municipality":{"key":"01056043","name":"Rellingen","type":"Kreisangehörige_Gemeinde"},"district":{"key":"01056","name":"Pinneberg","type":"Kreis"},"federalState":{"key":"01","name":"Schleswig-Holstein"}},{"name":"Klaus-Groth-Str.","postalCode":"25462","locality":"Rellingen","municipality":{"key":"01056043","name":"Rellingen","type":"Kreisangehörige_Gemeinde"},"district":{"key":"01056","name":"Pinneberg","type":"Kreis"},"federalState":{"key":"01","name":"Schleswig-Holstein"}},{"name":"Königsberger Str.","postalCode":"25462","locality":"Rellingen","municipality":{"key":"01056043","name":"Rellingen","type":"Kreisangehörige_Gemeinde"},"district":{"key":"01056","name":"Pinneberg","type":"Kreis"},"federalState":{"key":"01","name":"Schleswig-Holstein"}},{"name":"Korkwisch","postalCode":"25462","locality":"Rellingen","municipality":{"key":"01056043","name":"Rellingen","type":"Kreisangehörige_Gemeinde"},"district":{"key":"01056","name":"Pinneberg","type":"Kreis"},"federalState":{"key":"01","name":"Schleswig-Holstein"}},{"name":"Kranichstr.","postalCode":"25462","locality":"Rellingen","municipality":{"key":"01056043","name":"Rellingen","type":"Kreisangehörige_Gemeinde"},"district":{"key":"01056","name":"Pinneberg","type":"Kreis"},"federalState":{"key":"01","name":"Schleswig-Holstein"}},{"name":"Kreuzacker","postalCode":"25462","locality":"Rellingen","municipality":{"key":"01056043","name":"Rellingen","type":"Kreisangehörige_Gemeinde"},"district":{"key":"01056","name":"Pinneberg","type":"Kreis"},"federalState":{"key":"01","name":"Schleswig-Holstein"}},{"name":"Krupunder Heide","postalCode":"25462","locality":"Rellingen","municipality":{"key":"01056043","name":"Rellingen","type":"Kreisangehörige_Gemeinde"},"district":{"key":"01056","name":"Pinneberg","type":"Kreis"},"federalState":{"key":"01","name":"Schleswig-Holstein"}},{"name":"Krupunder Ring","postalCode":"25462","locality":"Rellingen","municipality":{"key":"01056043","name":"Rellingen","type":"Kreisangehörige_Gemeinde"},"district":{"key":"01056","name":"Pinneberg","type":"Kreis"},"federalState":{"key":"01","name":"Schleswig-Holstein"}},{"name":"Kuckucksweg","postalCode":"25462","locality":"Rellingen","municipality":{"key":"01056043","name":"Rellingen","type":"Kreisangehörige_Gemeinde"},"district":{"key":"01056","name":"Pinneberg","type":"Kreis"},"federalState":{"key":"01","name":"Schleswig-Holstein"}},{"name":"Kurten Kamp","postalCode":"25462","locality":"Rellingen","municipality":{"key":"01056043","name":"Rellingen","type":"Kreisangehörige_Gemeinde"},"district":{"key":"01056","name":"Pinneberg","type":"Kreis"},"federalState":{"key":"01","name":"Schleswig-Holstein"}},{"name":"Laubenstr.","postalCode":"25462","locality":"Rellingen","municipality":{"key":"01056043","name":"Rellingen","type":"Kreisangehörige_Gemeinde"},"district":{"key":"01056","name":"Pinneberg","type":"Kreis"},"federalState":{"key":"01","name":"Schleswig-Holstein"}},{"name":"Lee-Dieks-Weg","postalCode":"25462","locality":"Rellingen","municipality":{"key":"01056043","name":"Rellingen","type":"Kreisangehörige_Gemeinde"},"district":{"key":"01056","name":"Pinneberg","type":"Kreis"},"federalState":{"key":"01","name":"Schleswig-Holstein"}},{"name":"Lerchenstr.","postalCode":"25462","locality":"Rellingen","municipality":{"key":"01056043","name":"Rellingen","type":"Kreisangehörige_Gemeinde"},"district":{"key":"01056","name":"Pinneberg","type":"Kreis"},"federalState":{"key":"01","name":"Schleswig-Holstein"}},{"name":"Lindenweg","postalCode":"25462","locality":"Rellingen","municipality":{"key":"01056043","name":"Rellingen","type":"Kreisangehörige_Gemeinde"},"district":{"key":"01056","name":"Pinneberg","type":"Kreis"},"federalState":{"key":"01","name":"Schleswig-Holstein"}},{"name":"Lohacker","postalCode":"25462","locality":"Rellingen","municipality":{"key":"01056043","name":"Rellingen","type":"Kreisangehörige_Gemeinde"},"district":{"key":"01056","name":"Pinneberg","type":"Kreis"},"federalState":{"key":"01","name":"Schleswig-Holstein"}},{"name":"Lohe","postalCode":"25462","locality":"Rellingen","municipality":{"key":"01056043","name":"Rellingen","type":"Kreisangehörige_Gemeinde"},"district":{"key":"01056","name":"Pinneberg","type":"Kreis"},"federalState":{"key":"01","name":"Schleswig-Holstein"}},{"name":"Lohkamp","postalCode":"25462","locality":"Rellingen","municipality":{"key":"01056043","name":"Rellingen","type":"Kreisangehörige_Gemeinde"},"district":{"key":"01056","name":"Pinneberg","type":"Kreis"},"federalState":{"key":"01","name":"Schleswig-Holstein"}},{"name":"Matthias-Claudius-Str.","postalCode":"25462","locality":"Rellingen","municipality":{"key":"01056043","name":"Rellingen","type":"Kreisangehörige_Gemeinde"},"district":{"key":"01056","name":"Pinneberg","type":"Kreis"},"federalState":{"key":"01","name":"Schleswig-Holstein"}},{"name":"Moorkampsgrund","postalCode":"25462","locality":"Rellingen","municipality":{"key":"01056043","name":"Rellingen","type":"Kreisangehörige_Gemeinde"},"district":{"key":"01056","name":"Pinneberg","type":"Kreis"},"federalState":{"key":"01","name":"Schleswig-Holstein"}},{"name":"Moorkampshöhe","postalCode":"25462","locality":"Rellingen","municipality":{"key":"01056043","name":"Rellingen","type":"Kreisangehörige_Gemeinde"},"district":{"key":"01056","name":"Pinneberg","type":"Kreis"},"federalState":{"key":"01","name":"Schleswig-Holstein"}},{"name":"Moorkampsring","postalCode":"25462","locality":"Rellingen","municipality":{"key":"01056043","name":"Rellingen","type":"Kreisangehörige_Gemeinde"},"district":{"key":"01056","name":"Pinneberg","type":"Kreis"},"federalState":{"key":"01","name":"Schleswig-Holstein"}},{"name":"Moorkampsweg","postalCode":"25462","locality":"Rellingen","municipality":{"key":"01056043","name":"Rellingen","type":"Kreisangehörige_Gemeinde"},"district":{"key":"01056","name":"Pinneberg","type":"Kreis"},"federalState":{"key":"01","name":"Schleswig-Holstein"}},{"name":"Moorweg","postalCode":"25462","locality":"Rellingen","municipality":{"key":"01056043","name":"Rellingen","type":"Kreisangehörige_Gemeinde"},"district":{"key":"01056","name":"Pinneberg","type":"Kreis"},"federalState":{"key":"01","name":"Schleswig-Holstein"}},{"name":"Möwenstr.","postalCode":"25462","locality":"Rellingen","municipality":{"key":"01056043","name":"Rellingen","type":"Kreisangehörige_Gemeinde"},"district":{"key":"01056","name":"Pinneberg","type":"Kreis"},"federalState":{"key":"01","name":"Schleswig-Holstein"}},{"name":"Mühlenstr.","postalCode":"25462","locality":"Rellingen","municipality":{"key":"01056043","name":"Rellingen","type":"Kreisangehörige_Gemeinde"},"district":{"key":"01056","name":"Pinneberg","type":"Kreis"},"federalState":{"key":"01","name":"Schleswig-Holstein"}},{"name":"Nettelkroog","postalCode":"25462","locality":"Rellingen","municipality":{"key":"01056043","name":"Rellingen","type":"Kreisangehörige_Gemeinde"},"district":{"key":"01056","name":"Pinneberg","type":"Kreis"},"federalState":{"key":"01","name":"Schleswig-Holstein"}},{"name":"Neuwisch","postalCode":"25462","locality":"Rellingen","municipality":{"key":"01056043","name":"Rellingen","type":"Kreisangehörige_Gemeinde"},"district":{"key":"01056","name":"Pinneberg","type":"Kreis"},"federalState":{"key":"01","name":"Schleswig-Holstein"}},{"name":"Niekampsweg","postalCode":"25462","locality":"Rellingen","municipality":{"key":"01056043","name":"Rellingen","type":"Kreisangehörige_Gemeinde"},"district":{"key":"01056","name":"Pinneberg","type":"Kreis"},"federalState":{"key":"01","name":"Schleswig-Holstein"}},{"name":"Nienkamp","postalCode":"25462","locality":"Rellingen","municipality":{"key":"01056043","name":"Rellingen","type":"Kreisangehörige_Gemeinde"},"district":{"key":"01056","name":"Pinneberg","type":"Kreis"},"federalState":{"key":"01","name":"Schleswig-Holstein"}},{"name":"Oberer Ehmschen","postalCode":"25462","locality":"Rellingen","municipality":{"key":"01056043","name":"Rellingen","type":"Kreisangehörige_Gemeinde"},"district":{"key":"01056","name":"Pinneberg","type":"Kreis"},"federalState":{"key":"01","name":"Schleswig-Holstein"}},{"name":"Otto-Rump-Str.","postalCode":"25462","locality":"Rellingen","municipality":{"key":"01056043","name":"Rellingen","type":"Kreisangehörige_Gemeinde"},"district":{"key":"01056","name":"Pinneberg","type":"Kreis"},"federalState":{"key":"01","name":"Schleswig-Holstein"}},{"name":"Pappelstr.","postalCode":"25462","locality":"Rellingen","municipality":{"key":"01056043","name":"Rellingen","type":"Kreisangehörige_Gemeinde"},"district":{"key":"01056","name":"Pinneberg","type":"Kreis"},"federalState":{"key":"01","name":"Schleswig-Holstein"}},{"name":"Pinneberger Str.","postalCode":"25462","locality":"Rellingen","municipality":{"key":"01056043","name":"Rellingen","type":"Kreisangehörige_Gemeinde"},"district":{"key":"01056","name":"Pinneberg","type":"Kreis"},"federalState":{"key":"01","name":"Schleswig-Holstein"}},{"name":"Plantenkamp","postalCode":"25462","locality":"Rellingen","municipality":{"key":"01056043","name":"Rellingen","type":"Kreisangehörige_Gemeinde"},"district":{"key":"01056","name":"Pinneberg","type":"Kreis"},"federalState":{"key":"01","name":"Schleswig-Holstein"}},{"name":"Poststr.","postalCode":"25462","locality":"Rellingen","municipality":{"key":"01056043","name":"Rellingen","type":"Kreisangehörige_Gemeinde"},"district":{"key":"01056","name":"Pinneberg","type":"Kreis"},"federalState":{"key":"01","name":"Schleswig-Holstein"}},{"name":"Pütjenweg","postalCode":"25462","locality":"Rellingen","municipality":{"key":"01056043","name":"Rellingen","type":"Kreisangehörige_Gemeinde"},"district":{"key":"01056","name":"Pinneberg","type":"Kreis"},"federalState":{"key":"01","name":"Schleswig-Holstein"}},{"name":"Quellenweg","postalCode":"25421","locality":"Pinneberg","municipality":{"key":"01056039","name":"Pinneberg, Stadt","type":"Stadt"},"district":{"key":"01056","name":"Pinneberg","type":"Kreis"},"federalState":{"key":"01","name":"Schleswig-Holstein"}},{"name":"Quickborner Str.","postalCode":"25421","locality":"Pinneberg","municipality":{"key":"01056039","name":"Pinneberg, Stadt","type":"Stadt"},"district":{"key":"01056","name":"Pinneberg","type":"Kreis"},"federalState":{"key":"01","name":"Schleswig-Holstein"}},{"name":"Rabenstr.","postalCode":"25462","locality":"Rellingen","municipality":{"key":"01056043","name":"Rellingen","type":"Kreisangehörige_Gemeinde"},"district":{"key":"01056","name":"Pinneberg","type":"Kreis"},"federalState":{"key":"01","name":"Schleswig-Holstein"}},{"name":"Ratsweg","postalCode":"25462","locality":"Rellingen","municipality":{"key":"01056043","name":"Rellingen","type":"Kreisangehörige_Gemeinde"},"district":{"key":"01056","name":"Pinneberg","type":"Kreis"},"federalState":{"key":"01","name":"Schleswig-Holstein"}},{"name":"Rechterallee","postalCode":"25462","locality":"Rellingen","municipality":{"key":"01056043","name":"Rellingen","type":"Kreisangehörige_Gemeinde"},"district":{"key":"01056","name":"Pinneberg","type":"Kreis"},"federalState":{"key":"01","name":"Schleswig-Holstein"}},{"name":"Redwisch","postalCode":"25462","locality":"Rellingen","municipality":{"key":"01056043","name":"Rellingen","type":"Kreisangehörige_Gemeinde"},"district":{"key":"01056","name":"Pinneberg","type":"Kreis"},"federalState":{"key":"01","name":"Schleswig-Holstein"}},{"name":"Rehwinkel","postalCode":"25462","locality":"Rellingen","municipality":{"key":"01056043","name":"Rellingen","type":"Kreisangehörige_Gemeinde"},"district":{"key":"01056","name":"Pinneberg","type":"Kreis"},"federalState":{"key":"01","name":"Schleswig-Holstein"}},{"name":"Rellauwiesen","postalCode":"25462","locality":"Rellingen","municipality":{"key":"01056043","name":"Rellingen","type":"Kreisangehörige_Gemeinde"},"district":{"key":"01056","name":"Pinneberg","type":"Kreis"},"federalState":{"key":"01","name":"Schleswig-Holstein"}},{"name":"Rellinger Str.","postalCode":"25462","locality":"Rellingen","municipality":{"key":"01056043","name":"Rellingen","type":"Kreisangehörige_Gemeinde"},"district":{"key":"01056","name":"Pinneberg","type":"Kreis"},"federalState":{"key":"01","name":"Schleswig-Holstein"}},{"name":"Robinienstieg","postalCode":"25462","locality":"Rellingen","municipality":{"key":"01056043","name":"Rellingen","type":"Kreisangehörige_Gemeinde"},"district":{"key":"01056","name":"Pinneberg","type":"Kreis"},"federalState":{"key":"01","name":"Schleswig-Holstein"}},{"name":"Rosenhof","postalCode":"25462","locality":"Rellingen","municipality":{"key":"01056043","name":"Rellingen","type":"Kreisangehörige_Gemeinde"},"district":{"key":"01056","name":"Pinneberg","type":"Kreis"},"federalState":{"key":"01","name":"Schleswig-Holstein"}},{"name":"Rosenkamp","postalCode":"25462","locality":"Rellingen","municipality":{"key":"01056043","name":"Rellingen","type":"Kreisangehörige_Gemeinde"},"district":{"key":"01056","name":"Pinneberg","type":"Kreis"},"federalState":{"key":"01","name":"Schleswig-Holstein"}},{"name":"Schmiedestr.","postalCode":"25462","locality":"Rellingen","municipality":{"key":"01056043","name":"Rellingen","type":"Kreisangehörige_Gemeinde"},"district":{"key":"01056","name":"Pinneberg","type":"Kreis"},"federalState":{"key":"01","name":"Schleswig-Holstein"}},{"name":"Schnelsener Weg","postalCode":"25462","locality":"Rellingen","municipality":{"key":"01056043","name":"Rellingen","type":"Kreisangehörige_Gemeinde"},"district":{"key":"01056","name":"Pinneberg","type":"Kreis"},"federalState":{"key":"01","name":"Schleswig-Holstein"}},{"name":"Schubhorn","postalCode":"25462","locality":"Rellingen","municipality":{"key":"01056043","name":"Rellingen","type":"Kreisangehörige_Gemeinde"},"district":{"key":"01056","name":"Pinneberg","type":"Kreis"},"federalState":{"key":"01","name":"Schleswig-Holstein"}},{"name":"Schulweg","postalCode":"25462","locality":"Rellingen","municipality":{"key":"01056043","name":"Rellingen","type":"Kreisangehörige_Gemeinde"},"district":{"key":"01056","name":"Pinneberg","type":"Kreis"},"federalState":{"key":"01","name":"Schleswig-Holstein"}},{"name":"Schwalbenstr.","postalCode":"25462","locality":"Rellingen","municipality":{"key":"01056043","name":"Rellingen","type":"Kreisangehörige_Gemeinde"},"district":{"key":"01056","name":"Pinneberg","type":"Kreis"},"federalState":{"key":"01","name":"Schleswig-Holstein"}},{"name":"Schwanenstr.","postalCode":"25462","locality":"Rellingen","municipality":{"key":"01056043","name":"Rellingen","type":"Kreisangehörige_Gemeinde"},"district":{"key":"01056","name":"Pinneberg","type":"Kreis"},"federalState":{"key":"01","name":"Schleswig-Holstein"}},{"name":"Siedlerstr.","postalCode":"25462","locality":"Rellingen","municipality":{"key":"01056043","name":"Rellingen","type":"Kreisangehörige_Gemeinde"},"district":{"key":"01056","name":"Pinneberg","type":"Kreis"},"federalState":{"key":"01","name":"Schleswig-Holstein"}},{"name":"Stawedder","postalCode":"25462","locality":"Rellingen","municipality":{"key":"01056043","name":"Rellingen","type":"Kreisangehörige_Gemeinde"},"district":{"key":"01056","name":"Pinneberg","type":"Kreis"},"federalState":{"key":"01","name":"Schleswig-Holstein"}},{"name":"Süntelstr.","postalCode":"25462","locality":"Rellingen","municipality":{"key":"01056043","name":"Rellingen","type":"Kreisangehörige_Gemeinde"},"district":{"key":"01056","name":"Pinneberg","type":"Kreis"},"federalState":{"key":"01","name":"Schleswig-Holstein"}},{"name":"Tangstedter Chaussee","postalCode":"25462","locality":"Rellingen","municipality":{"key":"01056043","name":"Rellingen","type":"Kreisangehörige_Gemeinde"},"district":{"key":"01056","name":"Pinneberg","type":"Kreis"},"federalState":{"key":"01","name":"Schleswig-Holstein"}},{"name":"Tangstedter Str.","postalCode":"25462","locality":"Rellingen","municipality":{"key":"01056043","name":"Rellingen","type":"Kreisangehörige_Gemeinde"},"district":{"key":"01056","name":"Pinneberg","type":"Kreis"},"federalState":{"key":"01","name":"Schleswig-Holstein"}},{"name":"Tannenweg","postalCode":"25462","locality":"Rellingen","municipality":{"key":"01056043","name":"Rellingen","type":"Kreisangehörige_Gemeinde"},"district":{"key":"01056","name":"Pinneberg","type":"Kreis"},"federalState":{"key":"01","name":"Schleswig-Holstein"}},{"name":"Taubenstr.","postalCode":"25462","locality":"Rellingen","municipality":{"key":"01056043","name":"Rellingen","type":"Kreisangehörige_Gemeinde"},"district":{"key":"01056","name":"Pinneberg","type":"Kreis"},"federalState":{"key":"01","name":"Schleswig-Holstein"}},{"name":"Theodor-Storm-Str.","postalCode":"25462","locality":"Rellingen","municipality":{"key":"01056043","name":"Rellingen","type":"Kreisangehörige_Gemeinde"},"district":{"key":"01056","name":"Pinneberg","type":"Kreis"},"federalState":{"key":"01","name":"Schleswig-Holstein"}},{"name":"Thesdorfer Str.","postalCode":"25462","locality":"Rellingen","municipality":{"key":"01056043","name":"Rellingen","type":"Kreisangehörige_Gemeinde"},"district":{"key":"01056","name":"Pinneberg","type":"Kreis"},"federalState":{"key":"01","name":"Schleswig-Holstein"}},{"name":"Uhlengrund","postalCode":"25462","locality":"Rellingen","municipality":{"key":"01056043","name":"Rellingen","type":"Kreisangehörige_Gemeinde"},"district":{"key":"01056","name":"Pinneberg","type":"Kreis"},"federalState":{"key":"01","name":"Schleswig-Holstein"}},{"name":"Ulmenstr.","postalCode":"25462","locality":"Rellingen","municipality":{"key":"01056043","name":"Rellingen","type":"Kreisangehörige_Gemeinde"},"district":{"key":"01056","name":"Pinneberg","type":"Kreis"},"federalState":{"key":"01","name":"Schleswig-Holstein"}},{"name":"Vogt-Schmidt-Str.","postalCode":"25462","locality":"Rellingen","municipality":{"key":"01056043","name":"Rellingen","type":"Kreisangehörige_Gemeinde"},"district":{"key":"01056","name":"Pinneberg","type":"Kreis"},"federalState":{"key":"01","name":"Schleswig-Holstein"}},{"name":"Vossmoorweg","postalCode":"25462","locality":"Rellingen","municipality":{"key":"01056043","name":"Rellingen","type":"Kreisangehörige_Gemeinde"},"district":{"key":"01056","name":"Pinneberg","type":"Kreis"},"federalState":{"key":"01","name":"Schleswig-Holstein"}},{"name":"Wacholderweg","postalCode":"25462","locality":"Rellingen","municipality":{"key":"01056043","name":"Rellingen","type":"Kreisangehörige_Gemeinde"},"district":{"key":"01056","name":"Pinneberg","type":"Kreis"},"federalState":{"key":"01","name":"Schleswig-Holstein"}},{"name":"Wachtelstr.","postalCode":"25462","locality":"Rellingen","municipality":{"key":"01056043","name":"Rellingen","type":"Kreisangehörige_Gemeinde"},"district":{"key":"01056","name":"Pinneberg","type":"Kreis"},"federalState":{"key":"01","name":"Schleswig-Holstein"}},{"name":"Wiesengrund","postalCode":"25462","locality":"Rellingen","municipality":{"key":"01056043","name":"Rellingen","type":"Kreisangehörige_Gemeinde"},"district":{"key":"01056","name":"Pinneberg","type":"Kreis"},"federalState":{"key":"01","name":"Schleswig-Holstein"}},{"name":"Wiesenweg","postalCode":"25462","locality":"Rellingen","municipality":{"key":"01056043","name":"Rellingen","type":"Kreisangehörige_Gemeinde"},"district":{"key":"01056","name":"Pinneberg","type":"Kreis"},"federalState":{"key":"01","name":"Schleswig-Holstein"}},{"name":"Wildbret","postalCode":"25462","locality":"Rellingen","municipality":{"key":"01056043","name":"Rellingen","type":"Kreisangehörige_Gemeinde"},"district":{"key":"01056","name":"Pinneberg","type":"Kreis"},"federalState":{"key":"01","name":"Schleswig-Holstein"}},{"name":"Winzeldorfer Weg","postalCode":"25462","locality":"Rellingen","municipality":{"key":"01056043","name":"Rellingen","type":"Kreisangehörige_Gemeinde"},"district":{"key":"01056","name":"Pinneberg","type":"Kreis"},"federalState":{"key":"01","name":"Schleswig-Holstein"}},{"name":"Zeisigstr.","postalCode":"25462","locality":"Rellingen","municipality":{"key":"01056043","name":"Rellingen","type":"Kreisangehörige_Gemeinde"},"district":{"key":"01056","name":"Pinneberg","type":"Kreis"},"federalState":{"key":"01","name":"Schleswig-Holstein"}},{"name":"Zur Rellau","postalCode":"25462","locality":"Rellingen","municipality":{"key":"01056043","name":"Rellingen","type":"Kreisangehörige_Gemeinde"},"district":{"key":"01056","name":"Pinneberg","type":"Kreis"},"federalState":{"key":"01","name":"Schleswig-Holstein"}},]