[{"name":"Ahornstr.","postalCode":"01458","locality":"Ottendorf-Okrilla","municipality":{"key":"14625430","name":"Ottendorf-Okrilla","type":"Kreisangehörige_Gemeinde"},"district":{"key":"14625","name":"Bautzen","type":"Landkreis"},"federalState":{"key":"14","name":"Sachsen"}},{"name":"Alter Dresdner Weg","postalCode":"01458","locality":"Ottendorf-Okrilla","municipality":{"key":"14625430","name":"Ottendorf-Okrilla","type":"Kreisangehörige_Gemeinde"},"district":{"key":"14625","name":"Bautzen","type":"Landkreis"},"federalState":{"key":"14","name":"Sachsen"}},{"name":"Alter Talweg","postalCode":"01458","locality":"Ottendorf-Okrilla","municipality":{"key":"14625430","name":"Ottendorf-Okrilla","type":"Kreisangehörige_Gemeinde"},"district":{"key":"14625","name":"Bautzen","type":"Landkreis"},"federalState":{"key":"14","name":"Sachsen"}},{"name":"Am Bauhof","postalCode":"01458","locality":"Ottendorf-Okrilla","municipality":{"key":"14625430","name":"Ottendorf-Okrilla","type":"Kreisangehörige_Gemeinde"},"district":{"key":"14625","name":"Bautzen","type":"Landkreis"},"federalState":{"key":"14","name":"Sachsen"}},{"name":"Am Eichelberg","postalCode":"01458","locality":"Ottendorf-Okrilla","municipality":{"key":"14625430","name":"Ottendorf-Okrilla","type":"Kreisangehörige_Gemeinde"},"district":{"key":"14625","name":"Bautzen","type":"Landkreis"},"federalState":{"key":"14","name":"Sachsen"}},{"name":"Am Farrenberg","postalCode":"01458","locality":"Ottendorf-Okrilla","municipality":{"key":"14625430","name":"Ottendorf-Okrilla","type":"Kreisangehörige_Gemeinde"},"district":{"key":"14625","name":"Bautzen","type":"Landkreis"},"federalState":{"key":"14","name":"Sachsen"}},{"name":"Am Finkenschlag","postalCode":"01458","locality":"Ottendorf-Okrilla","municipality":{"key":"14625430","name":"Ottendorf-Okrilla","type":"Kreisangehörige_Gemeinde"},"district":{"key":"14625","name":"Bautzen","type":"Landkreis"},"federalState":{"key":"14","name":"Sachsen"}},{"name":"Am Goldborn","postalCode":"01458","locality":"Ottendorf-Okrilla","municipality":{"key":"14625430","name":"Ottendorf-Okrilla","type":"Kreisangehörige_Gemeinde"},"district":{"key":"14625","name":"Bautzen","type":"Landkreis"},"federalState":{"key":"14","name":"Sachsen"}},{"name":"Am Heiderand","postalCode":"01458","locality":"Ottendorf-Okrilla","municipality":{"key":"14625430","name":"Ottendorf-Okrilla","type":"Kreisangehörige_Gemeinde"},"district":{"key":"14625","name":"Bautzen","type":"Landkreis"},"federalState":{"key":"14","name":"Sachsen"}},{"name":"Am Hügel","postalCode":"01458","locality":"Ottendorf-Okrilla","municipality":{"key":"14625430","name":"Ottendorf-Okrilla","type":"Kreisangehörige_Gemeinde"},"district":{"key":"14625","name":"Bautzen","type":"Landkreis"},"federalState":{"key":"14","name":"Sachsen"}},{"name":"Am Kronenberg","postalCode":"01458","locality":"Ottendorf-Okrilla","municipality":{"key":"14625430","name":"Ottendorf-Okrilla","type":"Kreisangehörige_Gemeinde"},"district":{"key":"14625","name":"Bautzen","type":"Landkreis"},"federalState":{"key":"14","name":"Sachsen"}},{"name":"Am Sande","postalCode":"01458","locality":"Ottendorf-Okrilla","municipality":{"key":"14625430","name":"Ottendorf-Okrilla","type":"Kreisangehörige_Gemeinde"},"district":{"key":"14625","name":"Bautzen","type":"Landkreis"},"federalState":{"key":"14","name":"Sachsen"}},{"name":"Am Schmerlenteich","postalCode":"01458","locality":"Ottendorf-Okrilla","municipality":{"key":"14625430","name":"Ottendorf-Okrilla","type":"Kreisangehörige_Gemeinde"},"district":{"key":"14625","name":"Bautzen","type":"Landkreis"},"federalState":{"key":"14","name":"Sachsen"}},{"name":"Amseltal","postalCode":"01458","locality":"Ottendorf-Okrilla","municipality":{"key":"14625430","name":"Ottendorf-Okrilla","type":"Kreisangehörige_Gemeinde"},"district":{"key":"14625","name":"Bautzen","type":"Landkreis"},"federalState":{"key":"14","name":"Sachsen"}},{"name":"Am Sportplatz","postalCode":"01458","locality":"Ottendorf-Okrilla","municipality":{"key":"14625430","name":"Ottendorf-Okrilla","type":"Kreisangehörige_Gemeinde"},"district":{"key":"14625","name":"Bautzen","type":"Landkreis"},"federalState":{"key":"14","name":"Sachsen"}},{"name":"Am Steinberg","postalCode":"01458","locality":"Ottendorf-Okrilla","municipality":{"key":"14625430","name":"Ottendorf-Okrilla","type":"Kreisangehörige_Gemeinde"},"district":{"key":"14625","name":"Bautzen","type":"Landkreis"},"federalState":{"key":"14","name":"Sachsen"}},{"name":"Am Steinbruch","postalCode":"01458","locality":"Ottendorf-Okrilla","municipality":{"key":"14625430","name":"Ottendorf-Okrilla","type":"Kreisangehörige_Gemeinde"},"district":{"key":"14625","name":"Bautzen","type":"Landkreis"},"federalState":{"key":"14","name":"Sachsen"}},{"name":"Am Wachberg","postalCode":"01458","locality":"Ottendorf-Okrilla","municipality":{"key":"14625430","name":"Ottendorf-Okrilla","type":"Kreisangehörige_Gemeinde"},"district":{"key":"14625","name":"Bautzen","type":"Landkreis"},"federalState":{"key":"14","name":"Sachsen"}},{"name":"Am Wald","postalCode":"01458","locality":"Ottendorf-Okrilla","municipality":{"key":"14625430","name":"Ottendorf-Okrilla","type":"Kreisangehörige_Gemeinde"},"district":{"key":"14625","name":"Bautzen","type":"Landkreis"},"federalState":{"key":"14","name":"Sachsen"}},{"name":"Am Waldeck","postalCode":"01458","locality":"Ottendorf-Okrilla","municipality":{"key":"14625430","name":"Ottendorf-Okrilla","type":"Kreisangehörige_Gemeinde"},"district":{"key":"14625","name":"Bautzen","type":"Landkreis"},"federalState":{"key":"14","name":"Sachsen"}},{"name":"Am Waldrand","postalCode":"01458","locality":"Ottendorf-Okrilla","municipality":{"key":"14625430","name":"Ottendorf-Okrilla","type":"Kreisangehörige_Gemeinde"},"district":{"key":"14625","name":"Bautzen","type":"Landkreis"},"federalState":{"key":"14","name":"Sachsen"}},{"name":"Am Weinberg","postalCode":"01458","locality":"Ottendorf-Okrilla","municipality":{"key":"14625430","name":"Ottendorf-Okrilla","type":"Kreisangehörige_Gemeinde"},"district":{"key":"14625","name":"Bautzen","type":"Landkreis"},"federalState":{"key":"14","name":"Sachsen"}},{"name":"Am Winkel","postalCode":"01458","locality":"Ottendorf-Okrilla","municipality":{"key":"14625430","name":"Ottendorf-Okrilla","type":"Kreisangehörige_Gemeinde"},"district":{"key":"14625","name":"Bautzen","type":"Landkreis"},"federalState":{"key":"14","name":"Sachsen"}},{"name":"An den Eichen","postalCode":"01458","locality":"Ottendorf-Okrilla","municipality":{"key":"14625430","name":"Ottendorf-Okrilla","type":"Kreisangehörige_Gemeinde"},"district":{"key":"14625","name":"Bautzen","type":"Landkreis"},"federalState":{"key":"14","name":"Sachsen"}},{"name":"An den Erlwiesen","postalCode":"01458","locality":"Ottendorf-Okrilla","municipality":{"key":"14625430","name":"Ottendorf-Okrilla","type":"Kreisangehörige_Gemeinde"},"district":{"key":"14625","name":"Bautzen","type":"Landkreis"},"federalState":{"key":"14","name":"Sachsen"}},{"name":"An den Röderwiesen","postalCode":"01458","locality":"Ottendorf-Okrilla","municipality":{"key":"14625430","name":"Ottendorf-Okrilla","type":"Kreisangehörige_Gemeinde"},"district":{"key":"14625","name":"Bautzen","type":"Landkreis"},"federalState":{"key":"14","name":"Sachsen"}},{"name":"An den Teichen","postalCode":"01458","locality":"Ottendorf-Okrilla","municipality":{"key":"14625430","name":"Ottendorf-Okrilla","type":"Kreisangehörige_Gemeinde"},"district":{"key":"14625","name":"Bautzen","type":"Landkreis"},"federalState":{"key":"14","name":"Sachsen"}},{"name":"An den Wiesen","postalCode":"01458","locality":"Ottendorf-Okrilla","municipality":{"key":"14625430","name":"Ottendorf-Okrilla","type":"Kreisangehörige_Gemeinde"},"district":{"key":"14625","name":"Bautzen","type":"Landkreis"},"federalState":{"key":"14","name":"Sachsen"}},{"name":"An der Blöße","postalCode":"01458","locality":"Ottendorf-Okrilla","municipality":{"key":"14625430","name":"Ottendorf-Okrilla","type":"Kreisangehörige_Gemeinde"},"district":{"key":"14625","name":"Bautzen","type":"Landkreis"},"federalState":{"key":"14","name":"Sachsen"}},{"name":"An der Försterei","postalCode":"01458","locality":"Ottendorf-Okrilla","municipality":{"key":"14625430","name":"Ottendorf-Okrilla","type":"Kreisangehörige_Gemeinde"},"district":{"key":"14625","name":"Bautzen","type":"Landkreis"},"federalState":{"key":"14","name":"Sachsen"}},{"name":"An der Hohleiche","postalCode":"01458","locality":"Ottendorf-Okrilla","municipality":{"key":"14625430","name":"Ottendorf-Okrilla","type":"Kreisangehörige_Gemeinde"},"district":{"key":"14625","name":"Bautzen","type":"Landkreis"},"federalState":{"key":"14","name":"Sachsen"}},{"name":"An der Köhlerei","postalCode":"01458","locality":"Ottendorf-Okrilla","municipality":{"key":"14625430","name":"Ottendorf-Okrilla","type":"Kreisangehörige_Gemeinde"},"district":{"key":"14625","name":"Bautzen","type":"Landkreis"},"federalState":{"key":"14","name":"Sachsen"}},{"name":"An der Lehne","postalCode":"01458","locality":"Ottendorf-Okrilla","municipality":{"key":"14625430","name":"Ottendorf-Okrilla","type":"Kreisangehörige_Gemeinde"},"district":{"key":"14625","name":"Bautzen","type":"Landkreis"},"federalState":{"key":"14","name":"Sachsen"}},{"name":"An der Leite","postalCode":"01458","locality":"Ottendorf-Okrilla","municipality":{"key":"14625430","name":"Ottendorf-Okrilla","type":"Kreisangehörige_Gemeinde"},"district":{"key":"14625","name":"Bautzen","type":"Landkreis"},"federalState":{"key":"14","name":"Sachsen"}},{"name":"An der Mark","postalCode":"01458","locality":"Ottendorf-Okrilla","municipality":{"key":"14625430","name":"Ottendorf-Okrilla","type":"Kreisangehörige_Gemeinde"},"district":{"key":"14625","name":"Bautzen","type":"Landkreis"},"federalState":{"key":"14","name":"Sachsen"}},{"name":"An der Medger","postalCode":"01458","locality":"Ottendorf-Okrilla","municipality":{"key":"14625430","name":"Ottendorf-Okrilla","type":"Kreisangehörige_Gemeinde"},"district":{"key":"14625","name":"Bautzen","type":"Landkreis"},"federalState":{"key":"14","name":"Sachsen"}},{"name":"An der Mühle","postalCode":"01458","locality":"Ottendorf-Okrilla","municipality":{"key":"14625430","name":"Ottendorf-Okrilla","type":"Kreisangehörige_Gemeinde"},"district":{"key":"14625","name":"Bautzen","type":"Landkreis"},"federalState":{"key":"14","name":"Sachsen"}},{"name":"An der Röder","postalCode":"01458","locality":"Ottendorf-Okrilla","municipality":{"key":"14625430","name":"Ottendorf-Okrilla","type":"Kreisangehörige_Gemeinde"},"district":{"key":"14625","name":"Bautzen","type":"Landkreis"},"federalState":{"key":"14","name":"Sachsen"}},{"name":"An der Scheibe","postalCode":"01458","locality":"Ottendorf-Okrilla","municipality":{"key":"14625430","name":"Ottendorf-Okrilla","type":"Kreisangehörige_Gemeinde"},"district":{"key":"14625","name":"Bautzen","type":"Landkreis"},"federalState":{"key":"14","name":"Sachsen"}},{"name":"An der Schule","postalCode":"01458","locality":"Ottendorf-Okrilla","municipality":{"key":"14625430","name":"Ottendorf-Okrilla","type":"Kreisangehörige_Gemeinde"},"district":{"key":"14625","name":"Bautzen","type":"Landkreis"},"federalState":{"key":"14","name":"Sachsen"}},{"name":"Auenstr.","postalCode":"01458","locality":"Ottendorf-Okrilla","municipality":{"key":"14625430","name":"Ottendorf-Okrilla","type":"Kreisangehörige_Gemeinde"},"district":{"key":"14625","name":"Bautzen","type":"Landkreis"},"federalState":{"key":"14","name":"Sachsen"}},{"name":"Auenweg","postalCode":"01458","locality":"Ottendorf-Okrilla","municipality":{"key":"14625430","name":"Ottendorf-Okrilla","type":"Kreisangehörige_Gemeinde"},"district":{"key":"14625","name":"Bautzen","type":"Landkreis"},"federalState":{"key":"14","name":"Sachsen"}},{"name":"August-Bebel-Str.","postalCode":"01458","locality":"Ottendorf-Okrilla","municipality":{"key":"14625430","name":"Ottendorf-Okrilla","type":"Kreisangehörige_Gemeinde"},"district":{"key":"14625","name":"Bautzen","type":"Landkreis"},"federalState":{"key":"14","name":"Sachsen"}},{"name":"Bäckergasse","postalCode":"01458","locality":"Ottendorf-Okrilla","municipality":{"key":"14625430","name":"Ottendorf-Okrilla","type":"Kreisangehörige_Gemeinde"},"district":{"key":"14625","name":"Bautzen","type":"Landkreis"},"federalState":{"key":"14","name":"Sachsen"}},{"name":"Bahnhofstr.","postalCode":"01458","locality":"Ottendorf-Okrilla","municipality":{"key":"14625430","name":"Ottendorf-Okrilla","type":"Kreisangehörige_Gemeinde"},"district":{"key":"14625","name":"Bautzen","type":"Landkreis"},"federalState":{"key":"14","name":"Sachsen"}},{"name":"Bärnsdorfer Str.","postalCode":"01458","locality":"Ottendorf-Okrilla","municipality":{"key":"14625430","name":"Ottendorf-Okrilla","type":"Kreisangehörige_Gemeinde"},"district":{"key":"14625","name":"Bautzen","type":"Landkreis"},"federalState":{"key":"14","name":"Sachsen"}},{"name":"Bergstr.","postalCode":"01458","locality":"Ottendorf-Okrilla","municipality":{"key":"14625430","name":"Ottendorf-Okrilla","type":"Kreisangehörige_Gemeinde"},"district":{"key":"14625","name":"Bautzen","type":"Landkreis"},"federalState":{"key":"14","name":"Sachsen"}},{"name":"Birkenweg","postalCode":"01458","locality":"Ottendorf-Okrilla","municipality":{"key":"14625430","name":"Ottendorf-Okrilla","type":"Kreisangehörige_Gemeinde"},"district":{"key":"14625","name":"Bautzen","type":"Landkreis"},"federalState":{"key":"14","name":"Sachsen"}},{"name":"Birkichtstr.","postalCode":"01458","locality":"Ottendorf-Okrilla","municipality":{"key":"14625430","name":"Ottendorf-Okrilla","type":"Kreisangehörige_Gemeinde"},"district":{"key":"14625","name":"Bautzen","type":"Landkreis"},"federalState":{"key":"14","name":"Sachsen"}},{"name":"Bodens Weg","postalCode":"01458","locality":"Ottendorf-Okrilla","municipality":{"key":"14625430","name":"Ottendorf-Okrilla","type":"Kreisangehörige_Gemeinde"},"district":{"key":"14625","name":"Bautzen","type":"Landkreis"},"federalState":{"key":"14","name":"Sachsen"}},{"name":"Borngasse","postalCode":"01458","locality":"Ottendorf-Okrilla","municipality":{"key":"14625430","name":"Ottendorf-Okrilla","type":"Kreisangehörige_Gemeinde"},"district":{"key":"14625","name":"Bautzen","type":"Landkreis"},"federalState":{"key":"14","name":"Sachsen"}},{"name":"Bruchweg","postalCode":"01458","locality":"Ottendorf-Okrilla","municipality":{"key":"14625430","name":"Ottendorf-Okrilla","type":"Kreisangehörige_Gemeinde"},"district":{"key":"14625","name":"Bautzen","type":"Landkreis"},"federalState":{"key":"14","name":"Sachsen"}},{"name":"Brunnenstr.","postalCode":"01458","locality":"Ottendorf-Okrilla","municipality":{"key":"14625430","name":"Ottendorf-Okrilla","type":"Kreisangehörige_Gemeinde"},"district":{"key":"14625","name":"Bautzen","type":"Landkreis"},"federalState":{"key":"14","name":"Sachsen"}},{"name":"Buchenstr.","postalCode":"01458","locality":"Ottendorf-Okrilla","municipality":{"key":"14625430","name":"Ottendorf-Okrilla","type":"Kreisangehörige_Gemeinde"},"district":{"key":"14625","name":"Bautzen","type":"Landkreis"},"federalState":{"key":"14","name":"Sachsen"}},{"name":"Cunnersdorfer Str.","postalCode":"01458","locality":"Ottendorf-Okrilla","municipality":{"key":"14625430","name":"Ottendorf-Okrilla","type":"Kreisangehörige_Gemeinde"},"district":{"key":"14625","name":"Bautzen","type":"Landkreis"},"federalState":{"key":"14","name":"Sachsen"}},{"name":"Diensdorfer Str.","postalCode":"01458","locality":"Ottendorf-Okrilla","municipality":{"key":"14625430","name":"Ottendorf-Okrilla","type":"Kreisangehörige_Gemeinde"},"district":{"key":"14625","name":"Bautzen","type":"Landkreis"},"federalState":{"key":"14","name":"Sachsen"}},{"name":"Dorfstr.","postalCode":"01458","locality":"Ottendorf-Okrilla","municipality":{"key":"14625430","name":"Ottendorf-Okrilla","type":"Kreisangehörige_Gemeinde"},"district":{"key":"14625","name":"Bautzen","type":"Landkreis"},"federalState":{"key":"14","name":"Sachsen"}},{"name":"Dresdner Str.","postalCode":"01458","locality":"Ottendorf-Okrilla","municipality":{"key":"14625430","name":"Ottendorf-Okrilla","type":"Kreisangehörige_Gemeinde"},"district":{"key":"14625","name":"Bautzen","type":"Landkreis"},"federalState":{"key":"14","name":"Sachsen"}},{"name":"Eibenweg","postalCode":"01458","locality":"Ottendorf-Okrilla","municipality":{"key":"14625430","name":"Ottendorf-Okrilla","type":"Kreisangehörige_Gemeinde"},"district":{"key":"14625","name":"Bautzen","type":"Landkreis"},"federalState":{"key":"14","name":"Sachsen"}},{"name":"Eichenweg","postalCode":"01458","locality":"Ottendorf-Okrilla","municipality":{"key":"14625430","name":"Ottendorf-Okrilla","type":"Kreisangehörige_Gemeinde"},"district":{"key":"14625","name":"Bautzen","type":"Landkreis"},"federalState":{"key":"14","name":"Sachsen"}},{"name":"Else-Sommer-Str.","postalCode":"01458","locality":"Ottendorf-Okrilla","municipality":{"key":"14625430","name":"Ottendorf-Okrilla","type":"Kreisangehörige_Gemeinde"},"district":{"key":"14625","name":"Bautzen","type":"Landkreis"},"federalState":{"key":"14","name":"Sachsen"}},{"name":"Erlenweg","postalCode":"01458","locality":"Ottendorf-Okrilla","municipality":{"key":"14625430","name":"Ottendorf-Okrilla","type":"Kreisangehörige_Gemeinde"},"district":{"key":"14625","name":"Bautzen","type":"Landkreis"},"federalState":{"key":"14","name":"Sachsen"}},{"name":"Ernststr.","postalCode":"01458","locality":"Ottendorf-Okrilla","municipality":{"key":"14625430","name":"Ottendorf-Okrilla","type":"Kreisangehörige_Gemeinde"},"district":{"key":"14625","name":"Bautzen","type":"Landkreis"},"federalState":{"key":"14","name":"Sachsen"}},{"name":"Ernst-Thälmann-Str.","postalCode":"01458","locality":"Ottendorf-Okrilla","municipality":{"key":"14625430","name":"Ottendorf-Okrilla","type":"Kreisangehörige_Gemeinde"},"district":{"key":"14625","name":"Bautzen","type":"Landkreis"},"federalState":{"key":"14","name":"Sachsen"}},{"name":"Eschenweg","postalCode":"01458","locality":"Ottendorf-Okrilla","municipality":{"key":"14625430","name":"Ottendorf-Okrilla","type":"Kreisangehörige_Gemeinde"},"district":{"key":"14625","name":"Bautzen","type":"Landkreis"},"federalState":{"key":"14","name":"Sachsen"}},{"name":"Espenweg","postalCode":"01458","locality":"Ottendorf-Okrilla","municipality":{"key":"14625430","name":"Ottendorf-Okrilla","type":"Kreisangehörige_Gemeinde"},"district":{"key":"14625","name":"Bautzen","type":"Landkreis"},"federalState":{"key":"14","name":"Sachsen"}},{"name":"Feldweg","postalCode":"01458","locality":"Ottendorf-Okrilla","municipality":{"key":"14625430","name":"Ottendorf-Okrilla","type":"Kreisangehörige_Gemeinde"},"district":{"key":"14625","name":"Bautzen","type":"Landkreis"},"federalState":{"key":"14","name":"Sachsen"}},{"name":"Finkenweg","postalCode":"01458","locality":"Ottendorf-Okrilla","municipality":{"key":"14625430","name":"Ottendorf-Okrilla","type":"Kreisangehörige_Gemeinde"},"district":{"key":"14625","name":"Bautzen","type":"Landkreis"},"federalState":{"key":"14","name":"Sachsen"}},{"name":"Flügelweg","postalCode":"01458","locality":"Ottendorf-Okrilla","municipality":{"key":"14625430","name":"Ottendorf-Okrilla","type":"Kreisangehörige_Gemeinde"},"district":{"key":"14625","name":"Bautzen","type":"Landkreis"},"federalState":{"key":"14","name":"Sachsen"}},{"name":"Förstereistr.","postalCode":"01458","locality":"Ottendorf-Okrilla","municipality":{"key":"14625430","name":"Ottendorf-Okrilla","type":"Kreisangehörige_Gemeinde"},"district":{"key":"14625","name":"Bautzen","type":"Landkreis"},"federalState":{"key":"14","name":"Sachsen"}},{"name":"Frankenfurt","postalCode":"01458","locality":"Ottendorf-Okrilla","municipality":{"key":"14625430","name":"Ottendorf-Okrilla","type":"Kreisangehörige_Gemeinde"},"district":{"key":"14625","name":"Bautzen","type":"Landkreis"},"federalState":{"key":"14","name":"Sachsen"}},{"name":"Friedrich-Engels-Str.","postalCode":"01458","locality":"Ottendorf-Okrilla","municipality":{"key":"14625430","name":"Ottendorf-Okrilla","type":"Kreisangehörige_Gemeinde"},"district":{"key":"14625","name":"Bautzen","type":"Landkreis"},"federalState":{"key":"14","name":"Sachsen"}},{"name":"Fried-Walter-Str.","postalCode":"01458","locality":"Ottendorf-Okrilla","municipality":{"key":"14625430","name":"Ottendorf-Okrilla","type":"Kreisangehörige_Gemeinde"},"district":{"key":"14625","name":"Bautzen","type":"Landkreis"},"federalState":{"key":"14","name":"Sachsen"}},{"name":"Fritz-Höppler-Str.","postalCode":"01458","locality":"Ottendorf-Okrilla","municipality":{"key":"14625430","name":"Ottendorf-Okrilla","type":"Kreisangehörige_Gemeinde"},"district":{"key":"14625","name":"Bautzen","type":"Landkreis"},"federalState":{"key":"14","name":"Sachsen"}},{"name":"Gartenstr.","postalCode":"01458","locality":"Ottendorf-Okrilla","municipality":{"key":"14625430","name":"Ottendorf-Okrilla","type":"Kreisangehörige_Gemeinde"},"district":{"key":"14625","name":"Bautzen","type":"Landkreis"},"federalState":{"key":"14","name":"Sachsen"}},{"name":"Gartenweg","postalCode":"01458","locality":"Ottendorf-Okrilla","municipality":{"key":"14625430","name":"Ottendorf-Okrilla","type":"Kreisangehörige_Gemeinde"},"district":{"key":"14625","name":"Bautzen","type":"Landkreis"},"federalState":{"key":"14","name":"Sachsen"}},{"name":"Ginsterweg","postalCode":"01458","locality":"Ottendorf-Okrilla","municipality":{"key":"14625430","name":"Ottendorf-Okrilla","type":"Kreisangehörige_Gemeinde"},"district":{"key":"14625","name":"Bautzen","type":"Landkreis"},"federalState":{"key":"14","name":"Sachsen"}},{"name":"Goethestr.","postalCode":"01458","locality":"Ottendorf-Okrilla","municipality":{"key":"14625430","name":"Ottendorf-Okrilla","type":"Kreisangehörige_Gemeinde"},"district":{"key":"14625","name":"Bautzen","type":"Landkreis"},"federalState":{"key":"14","name":"Sachsen"}},{"name":"Grünberger Str.","postalCode":"01458","locality":"Ottendorf-Okrilla","municipality":{"key":"14625430","name":"Ottendorf-Okrilla","type":"Kreisangehörige_Gemeinde"},"district":{"key":"14625","name":"Bautzen","type":"Landkreis"},"federalState":{"key":"14","name":"Sachsen"}},{"name":"Haselweg","postalCode":"01458","locality":"Ottendorf-Okrilla","municipality":{"key":"14625430","name":"Ottendorf-Okrilla","type":"Kreisangehörige_Gemeinde"},"district":{"key":"14625","name":"Bautzen","type":"Landkreis"},"federalState":{"key":"14","name":"Sachsen"}},{"name":"Hasenweg","postalCode":"01458","locality":"Ottendorf-Okrilla","municipality":{"key":"14625430","name":"Ottendorf-Okrilla","type":"Kreisangehörige_Gemeinde"},"district":{"key":"14625","name":"Bautzen","type":"Landkreis"},"federalState":{"key":"14","name":"Sachsen"}},{"name":"Hauptstr.","postalCode":"01458","locality":"Ottendorf-Okrilla","municipality":{"key":"14625430","name":"Ottendorf-Okrilla","type":"Kreisangehörige_Gemeinde"},"district":{"key":"14625","name":"Bautzen","type":"Landkreis"},"federalState":{"key":"14","name":"Sachsen"}},{"name":"Heidegartenweg","postalCode":"01458","locality":"Ottendorf-Okrilla","municipality":{"key":"14625430","name":"Ottendorf-Okrilla","type":"Kreisangehörige_Gemeinde"},"district":{"key":"14625","name":"Bautzen","type":"Landkreis"},"federalState":{"key":"14","name":"Sachsen"}},{"name":"Heideweg","postalCode":"01458","locality":"Ottendorf-Okrilla","municipality":{"key":"14625430","name":"Ottendorf-Okrilla","type":"Kreisangehörige_Gemeinde"},"district":{"key":"14625","name":"Bautzen","type":"Landkreis"},"federalState":{"key":"14","name":"Sachsen"}},{"name":"Heinrich-Zille-Weg","postalCode":"01458","locality":"Ottendorf-Okrilla","municipality":{"key":"14625430","name":"Ottendorf-Okrilla","type":"Kreisangehörige_Gemeinde"},"district":{"key":"14625","name":"Bautzen","type":"Landkreis"},"federalState":{"key":"14","name":"Sachsen"}},{"name":"Hermann-Lehmann-Str.","postalCode":"01458","locality":"Ottendorf-Okrilla","municipality":{"key":"14625430","name":"Ottendorf-Okrilla","type":"Kreisangehörige_Gemeinde"},"district":{"key":"14625","name":"Bautzen","type":"Landkreis"},"federalState":{"key":"14","name":"Sachsen"}},{"name":"Hermsdorfer Allee","postalCode":"01458","locality":"Ottendorf-Okrilla","municipality":{"key":"14625430","name":"Ottendorf-Okrilla","type":"Kreisangehörige_Gemeinde"},"district":{"key":"14625","name":"Bautzen","type":"Landkreis"},"federalState":{"key":"14","name":"Sachsen"}},{"name":"Hermsdorfer Ring","postalCode":"01458","locality":"Ottendorf-Okrilla","municipality":{"key":"14625430","name":"Ottendorf-Okrilla","type":"Kreisangehörige_Gemeinde"},"district":{"key":"14625","name":"Bautzen","type":"Landkreis"},"federalState":{"key":"14","name":"Sachsen"}},{"name":"Hermsdorfer Weg","postalCode":"01458","locality":"Ottendorf-Okrilla","municipality":{"key":"14625430","name":"Ottendorf-Okrilla","type":"Kreisangehörige_Gemeinde"},"district":{"key":"14625","name":"Bautzen","type":"Landkreis"},"federalState":{"key":"14","name":"Sachsen"}},{"name":"Hinterm Wachberg","postalCode":"01458","locality":"Ottendorf-Okrilla","municipality":{"key":"14625430","name":"Ottendorf-Okrilla","type":"Kreisangehörige_Gemeinde"},"district":{"key":"14625","name":"Bautzen","type":"Landkreis"},"federalState":{"key":"14","name":"Sachsen"}},{"name":"Höckendorfer Str.","postalCode":"01458","locality":"Ottendorf-Okrilla","municipality":{"key":"14625430","name":"Ottendorf-Okrilla","type":"Kreisangehörige_Gemeinde"},"district":{"key":"14625","name":"Bautzen","type":"Landkreis"},"federalState":{"key":"14","name":"Sachsen"}},{"name":"Hufenweg","postalCode":"01458","locality":"Ottendorf-Okrilla","municipality":{"key":"14625430","name":"Ottendorf-Okrilla","type":"Kreisangehörige_Gemeinde"},"district":{"key":"14625","name":"Bautzen","type":"Landkreis"},"federalState":{"key":"14","name":"Sachsen"}},{"name":"Im Birkicht","postalCode":"01458","locality":"Ottendorf-Okrilla","municipality":{"key":"14625430","name":"Ottendorf-Okrilla","type":"Kreisangehörige_Gemeinde"},"district":{"key":"14625","name":"Bautzen","type":"Landkreis"},"federalState":{"key":"14","name":"Sachsen"}},{"name":"Jakobsdorfer Str.","postalCode":"01458","locality":"Ottendorf-Okrilla","municipality":{"key":"14625430","name":"Ottendorf-Okrilla","type":"Kreisangehörige_Gemeinde"},"district":{"key":"14625","name":"Bautzen","type":"Landkreis"},"federalState":{"key":"14","name":"Sachsen"}},{"name":"Julius-Werthschütz-Str.","postalCode":"01458","locality":"Ottendorf-Okrilla","municipality":{"key":"14625430","name":"Ottendorf-Okrilla","type":"Kreisangehörige_Gemeinde"},"district":{"key":"14625","name":"Bautzen","type":"Landkreis"},"federalState":{"key":"14","name":"Sachsen"}},{"name":"Karussellgäßchen","postalCode":"01458","locality":"Ottendorf-Okrilla","municipality":{"key":"14625430","name":"Ottendorf-Okrilla","type":"Kreisangehörige_Gemeinde"},"district":{"key":"14625","name":"Bautzen","type":"Landkreis"},"federalState":{"key":"14","name":"Sachsen"}},{"name":"Kastanienallee","postalCode":"01458","locality":"Ottendorf-Okrilla","municipality":{"key":"14625430","name":"Ottendorf-Okrilla","type":"Kreisangehörige_Gemeinde"},"district":{"key":"14625","name":"Bautzen","type":"Landkreis"},"federalState":{"key":"14","name":"Sachsen"}},{"name":"Kastanienstr.","postalCode":"01458","locality":"Ottendorf-Okrilla","municipality":{"key":"14625430","name":"Ottendorf-Okrilla","type":"Kreisangehörige_Gemeinde"},"district":{"key":"14625","name":"Bautzen","type":"Landkreis"},"federalState":{"key":"14","name":"Sachsen"}},{"name":"Käthe-Kollwitz-Str.","postalCode":"01458","locality":"Ottendorf-Okrilla","municipality":{"key":"14625430","name":"Ottendorf-Okrilla","type":"Kreisangehörige_Gemeinde"},"district":{"key":"14625","name":"Bautzen","type":"Landkreis"},"federalState":{"key":"14","name":"Sachsen"}},{"name":"Kernweg","postalCode":"01458","locality":"Ottendorf-Okrilla","municipality":{"key":"14625430","name":"Ottendorf-Okrilla","type":"Kreisangehörige_Gemeinde"},"district":{"key":"14625","name":"Bautzen","type":"Landkreis"},"federalState":{"key":"14","name":"Sachsen"}},{"name":"Kiefernweg","postalCode":"01458","locality":"Ottendorf-Okrilla","municipality":{"key":"14625430","name":"Ottendorf-Okrilla","type":"Kreisangehörige_Gemeinde"},"district":{"key":"14625","name":"Bautzen","type":"Landkreis"},"federalState":{"key":"14","name":"Sachsen"}},{"name":"Kirchgasse","postalCode":"01458","locality":"Ottendorf-Okrilla","municipality":{"key":"14625430","name":"Ottendorf-Okrilla","type":"Kreisangehörige_Gemeinde"},"district":{"key":"14625","name":"Bautzen","type":"Landkreis"},"federalState":{"key":"14","name":"Sachsen"}},{"name":"Kirchstr.","postalCode":"01458","locality":"Ottendorf-Okrilla","municipality":{"key":"14625430","name":"Ottendorf-Okrilla","type":"Kreisangehörige_Gemeinde"},"district":{"key":"14625","name":"Bautzen","type":"Landkreis"},"federalState":{"key":"14","name":"Sachsen"}},{"name":"Kleiner Grund","postalCode":"01458","locality":"Ottendorf-Okrilla","municipality":{"key":"14625430","name":"Ottendorf-Okrilla","type":"Kreisangehörige_Gemeinde"},"district":{"key":"14625","name":"Bautzen","type":"Landkreis"},"federalState":{"key":"14","name":"Sachsen"}},{"name":"Königsbrücker Str.","postalCode":"01458","locality":"Ottendorf-Okrilla","municipality":{"key":"14625430","name":"Ottendorf-Okrilla","type":"Kreisangehörige_Gemeinde"},"district":{"key":"14625","name":"Bautzen","type":"Landkreis"},"federalState":{"key":"14","name":"Sachsen"}},{"name":"Kronenbergstr.","postalCode":"01458","locality":"Ottendorf-Okrilla","municipality":{"key":"14625430","name":"Ottendorf-Okrilla","type":"Kreisangehörige_Gemeinde"},"district":{"key":"14625","name":"Bautzen","type":"Landkreis"},"federalState":{"key":"14","name":"Sachsen"}},{"name":"Kuhbrücke","postalCode":"01458","locality":"Ottendorf-Okrilla","municipality":{"key":"14625430","name":"Ottendorf-Okrilla","type":"Kreisangehörige_Gemeinde"},"district":{"key":"14625","name":"Bautzen","type":"Landkreis"},"federalState":{"key":"14","name":"Sachsen"}},{"name":"Kuhbrückenweg","postalCode":"01458","locality":"Ottendorf-Okrilla","municipality":{"key":"14625430","name":"Ottendorf-Okrilla","type":"Kreisangehörige_Gemeinde"},"district":{"key":"14625","name":"Bautzen","type":"Landkreis"},"federalState":{"key":"14","name":"Sachsen"}},{"name":"Kuppenweg","postalCode":"01458","locality":"Ottendorf-Okrilla","municipality":{"key":"14625430","name":"Ottendorf-Okrilla","type":"Kreisangehörige_Gemeinde"},"district":{"key":"14625","name":"Bautzen","type":"Landkreis"},"federalState":{"key":"14","name":"Sachsen"}},{"name":"Kurzer Weg","postalCode":"01458","locality":"Ottendorf-Okrilla","municipality":{"key":"14625430","name":"Ottendorf-Okrilla","type":"Kreisangehörige_Gemeinde"},"district":{"key":"14625","name":"Bautzen","type":"Landkreis"},"federalState":{"key":"14","name":"Sachsen"}},{"name":"Langebrücker Str.","postalCode":"01458","locality":"Ottendorf-Okrilla","municipality":{"key":"14625430","name":"Ottendorf-Okrilla","type":"Kreisangehörige_Gemeinde"},"district":{"key":"14625","name":"Bautzen","type":"Landkreis"},"federalState":{"key":"14","name":"Sachsen"}},{"name":"Lärchenstr.","postalCode":"01458","locality":"Ottendorf-Okrilla","municipality":{"key":"14625430","name":"Ottendorf-Okrilla","type":"Kreisangehörige_Gemeinde"},"district":{"key":"14625","name":"Bautzen","type":"Landkreis"},"federalState":{"key":"14","name":"Sachsen"}},{"name":"Lausaer Str.","postalCode":"01458","locality":"Ottendorf-Okrilla","municipality":{"key":"14625430","name":"Ottendorf-Okrilla","type":"Kreisangehörige_Gemeinde"},"district":{"key":"14625","name":"Bautzen","type":"Landkreis"},"federalState":{"key":"14","name":"Sachsen"}},{"name":"Lerchenweg","postalCode":"01458","locality":"Ottendorf-Okrilla","municipality":{"key":"14625430","name":"Ottendorf-Okrilla","type":"Kreisangehörige_Gemeinde"},"district":{"key":"14625","name":"Bautzen","type":"Landkreis"},"federalState":{"key":"14","name":"Sachsen"}},{"name":"Lindenweg","postalCode":"01458","locality":"Ottendorf-Okrilla","municipality":{"key":"14625430","name":"Ottendorf-Okrilla","type":"Kreisangehörige_Gemeinde"},"district":{"key":"14625","name":"Bautzen","type":"Landkreis"},"federalState":{"key":"14","name":"Sachsen"}},{"name":"Lomnitzer Str.","postalCode":"01458","locality":"Ottendorf-Okrilla","municipality":{"key":"14625430","name":"Ottendorf-Okrilla","type":"Kreisangehörige_Gemeinde"},"district":{"key":"14625","name":"Bautzen","type":"Landkreis"},"federalState":{"key":"14","name":"Sachsen"}},{"name":"Marsdorfer Str.","postalCode":"01458","locality":"Ottendorf-Okrilla","municipality":{"key":"14625430","name":"Ottendorf-Okrilla","type":"Kreisangehörige_Gemeinde"},"district":{"key":"14625","name":"Bautzen","type":"Landkreis"},"federalState":{"key":"14","name":"Sachsen"}},{"name":"Medinger Str.","postalCode":"01458","locality":"Ottendorf-Okrilla","municipality":{"key":"14625430","name":"Ottendorf-Okrilla","type":"Kreisangehörige_Gemeinde"},"district":{"key":"14625","name":"Bautzen","type":"Landkreis"},"federalState":{"key":"14","name":"Sachsen"}},{"name":"Medinger Weg","postalCode":"01458","locality":"Ottendorf-Okrilla","municipality":{"key":"14625430","name":"Ottendorf-Okrilla","type":"Kreisangehörige_Gemeinde"},"district":{"key":"14625","name":"Bautzen","type":"Landkreis"},"federalState":{"key":"14","name":"Sachsen"}},{"name":"Meisenweg","postalCode":"01458","locality":"Ottendorf-Okrilla","municipality":{"key":"14625430","name":"Ottendorf-Okrilla","type":"Kreisangehörige_Gemeinde"},"district":{"key":"14625","name":"Bautzen","type":"Landkreis"},"federalState":{"key":"14","name":"Sachsen"}},{"name":"Mittelweg","postalCode":"01458","locality":"Ottendorf-Okrilla","municipality":{"key":"14625430","name":"Ottendorf-Okrilla","type":"Kreisangehörige_Gemeinde"},"district":{"key":"14625","name":"Bautzen","type":"Landkreis"},"federalState":{"key":"14","name":"Sachsen"}},{"name":"Moritzgasse","postalCode":"01458","locality":"Ottendorf-Okrilla","municipality":{"key":"14625430","name":"Ottendorf-Okrilla","type":"Kreisangehörige_Gemeinde"},"district":{"key":"14625","name":"Bautzen","type":"Landkreis"},"federalState":{"key":"14","name":"Sachsen"}},{"name":"Moselweg","postalCode":"01458","locality":"Ottendorf-Okrilla","municipality":{"key":"14625430","name":"Ottendorf-Okrilla","type":"Kreisangehörige_Gemeinde"},"district":{"key":"14625","name":"Bautzen","type":"Landkreis"},"federalState":{"key":"14","name":"Sachsen"}},{"name":"Mühlstr.","postalCode":"01458","locality":"Ottendorf-Okrilla","municipality":{"key":"14625430","name":"Ottendorf-Okrilla","type":"Kreisangehörige_Gemeinde"},"district":{"key":"14625","name":"Bautzen","type":"Landkreis"},"federalState":{"key":"14","name":"Sachsen"}},{"name":"Mühlweg","postalCode":"01458","locality":"Ottendorf-Okrilla","municipality":{"key":"14625430","name":"Ottendorf-Okrilla","type":"Kreisangehörige_Gemeinde"},"district":{"key":"14625","name":"Bautzen","type":"Landkreis"},"federalState":{"key":"14","name":"Sachsen"}},{"name":"Neuer Weg","postalCode":"01458","locality":"Ottendorf-Okrilla","municipality":{"key":"14625430","name":"Ottendorf-Okrilla","type":"Kreisangehörige_Gemeinde"},"district":{"key":"14625","name":"Bautzen","type":"Landkreis"},"federalState":{"key":"14","name":"Sachsen"}},{"name":"Neue Str.","postalCode":"01458","locality":"Ottendorf-Okrilla","municipality":{"key":"14625430","name":"Ottendorf-Okrilla","type":"Kreisangehörige_Gemeinde"},"district":{"key":"14625","name":"Bautzen","type":"Landkreis"},"federalState":{"key":"14","name":"Sachsen"}},{"name":"Nordstr.","postalCode":"01458","locality":"Ottendorf-Okrilla","municipality":{"key":"14625430","name":"Ottendorf-Okrilla","type":"Kreisangehörige_Gemeinde"},"district":{"key":"14625","name":"Bautzen","type":"Landkreis"},"federalState":{"key":"14","name":"Sachsen"}},{"name":"Oberer Röderweg","postalCode":"01458","locality":"Ottendorf-Okrilla","municipality":{"key":"14625430","name":"Ottendorf-Okrilla","type":"Kreisangehörige_Gemeinde"},"district":{"key":"14625","name":"Bautzen","type":"Landkreis"},"federalState":{"key":"14","name":"Sachsen"}},{"name":"Oststr.","postalCode":"01458","locality":"Ottendorf-Okrilla","municipality":{"key":"14625430","name":"Ottendorf-Okrilla","type":"Kreisangehörige_Gemeinde"},"district":{"key":"14625","name":"Bautzen","type":"Landkreis"},"federalState":{"key":"14","name":"Sachsen"}},{"name":"Ottendorfer Str.","postalCode":"01458","locality":"Ottendorf-Okrilla","municipality":{"key":"14625430","name":"Ottendorf-Okrilla","type":"Kreisangehörige_Gemeinde"},"district":{"key":"14625","name":"Bautzen","type":"Landkreis"},"federalState":{"key":"14","name":"Sachsen"}},{"name":"Pappelallee","postalCode":"01458","locality":"Ottendorf-Okrilla","municipality":{"key":"14625430","name":"Ottendorf-Okrilla","type":"Kreisangehörige_Gemeinde"},"district":{"key":"14625","name":"Bautzen","type":"Landkreis"},"federalState":{"key":"14","name":"Sachsen"}},{"name":"Pestalozzistr.","postalCode":"01458","locality":"Ottendorf-Okrilla","municipality":{"key":"14625430","name":"Ottendorf-Okrilla","type":"Kreisangehörige_Gemeinde"},"district":{"key":"14625","name":"Bautzen","type":"Landkreis"},"federalState":{"key":"14","name":"Sachsen"}},{"name":"Planstr.","postalCode":"01458","locality":"Ottendorf-Okrilla","municipality":{"key":"14625430","name":"Ottendorf-Okrilla","type":"Kreisangehörige_Gemeinde"},"district":{"key":"14625","name":"Bautzen","type":"Landkreis"},"federalState":{"key":"14","name":"Sachsen"}},{"name":"Platanenstr.","postalCode":"01458","locality":"Ottendorf-Okrilla","municipality":{"key":"14625430","name":"Ottendorf-Okrilla","type":"Kreisangehörige_Gemeinde"},"district":{"key":"14625","name":"Bautzen","type":"Landkreis"},"federalState":{"key":"14","name":"Sachsen"}},{"name":"Poststr.","postalCode":"01458","locality":"Ottendorf-Okrilla","municipality":{"key":"14625430","name":"Ottendorf-Okrilla","type":"Kreisangehörige_Gemeinde"},"district":{"key":"14625","name":"Bautzen","type":"Landkreis"},"federalState":{"key":"14","name":"Sachsen"}},{"name":"Prof.-Nagel-Str.","postalCode":"01458","locality":"Ottendorf-Okrilla","municipality":{"key":"14625430","name":"Ottendorf-Okrilla","type":"Kreisangehörige_Gemeinde"},"district":{"key":"14625","name":"Bautzen","type":"Landkreis"},"federalState":{"key":"14","name":"Sachsen"}},{"name":"Querweg","postalCode":"01458","locality":"Ottendorf-Okrilla","municipality":{"key":"14625430","name":"Ottendorf-Okrilla","type":"Kreisangehörige_Gemeinde"},"district":{"key":"14625","name":"Bautzen","type":"Landkreis"},"federalState":{"key":"14","name":"Sachsen"}},{"name":"Radeberger Str.","postalCode":"01458","locality":"Ottendorf-Okrilla","municipality":{"key":"14625430","name":"Ottendorf-Okrilla","type":"Kreisangehörige_Gemeinde"},"district":{"key":"14625","name":"Bautzen","type":"Landkreis"},"federalState":{"key":"14","name":"Sachsen"}},{"name":"Radeburger Str.","postalCode":"01458","locality":"Ottendorf-Okrilla","municipality":{"key":"14625430","name":"Ottendorf-Okrilla","type":"Kreisangehörige_Gemeinde"},"district":{"key":"14625","name":"Bautzen","type":"Landkreis"},"federalState":{"key":"14","name":"Sachsen"}},{"name":"Rathenaustr.","postalCode":"01458","locality":"Ottendorf-Okrilla","municipality":{"key":"14625430","name":"Ottendorf-Okrilla","type":"Kreisangehörige_Gemeinde"},"district":{"key":"14625","name":"Bautzen","type":"Landkreis"},"federalState":{"key":"14","name":"Sachsen"}},{"name":"Robinienstr.","postalCode":"01458","locality":"Ottendorf-Okrilla","municipality":{"key":"14625430","name":"Ottendorf-Okrilla","type":"Kreisangehörige_Gemeinde"},"district":{"key":"14625","name":"Bautzen","type":"Landkreis"},"federalState":{"key":"14","name":"Sachsen"}},{"name":"Röderfurt","postalCode":"01458","locality":"Ottendorf-Okrilla","municipality":{"key":"14625430","name":"Ottendorf-Okrilla","type":"Kreisangehörige_Gemeinde"},"district":{"key":"14625","name":"Bautzen","type":"Landkreis"},"federalState":{"key":"14","name":"Sachsen"}},{"name":"Röderstr.","postalCode":"01458","locality":"Ottendorf-Okrilla","municipality":{"key":"14625430","name":"Ottendorf-Okrilla","type":"Kreisangehörige_Gemeinde"},"district":{"key":"14625","name":"Bautzen","type":"Landkreis"},"federalState":{"key":"14","name":"Sachsen"}},{"name":"Rödertalstr.","postalCode":"01458","locality":"Ottendorf-Okrilla","municipality":{"key":"14625430","name":"Ottendorf-Okrilla","type":"Kreisangehörige_Gemeinde"},"district":{"key":"14625","name":"Bautzen","type":"Landkreis"},"federalState":{"key":"14","name":"Sachsen"}},{"name":"Röderweg","postalCode":"01458","locality":"Ottendorf-Okrilla","municipality":{"key":"14625430","name":"Ottendorf-Okrilla","type":"Kreisangehörige_Gemeinde"},"district":{"key":"14625","name":"Bautzen","type":"Landkreis"},"federalState":{"key":"14","name":"Sachsen"}},{"name":"Rosental","postalCode":"01458","locality":"Ottendorf-Okrilla","municipality":{"key":"14625430","name":"Ottendorf-Okrilla","type":"Kreisangehörige_Gemeinde"},"district":{"key":"14625","name":"Bautzen","type":"Landkreis"},"federalState":{"key":"14","name":"Sachsen"}},{"name":"Rosenweg","postalCode":"01458","locality":"Ottendorf-Okrilla","municipality":{"key":"14625430","name":"Ottendorf-Okrilla","type":"Kreisangehörige_Gemeinde"},"district":{"key":"14625","name":"Bautzen","type":"Landkreis"},"federalState":{"key":"14","name":"Sachsen"}},{"name":"Roter Graben-Wanderweg","postalCode":"01458","locality":"Ottendorf-Okrilla","municipality":{"key":"14625430","name":"Ottendorf-Okrilla","type":"Kreisangehörige_Gemeinde"},"district":{"key":"14625","name":"Bautzen","type":"Landkreis"},"federalState":{"key":"14","name":"Sachsen"}},{"name":"Roter Grabenweg","postalCode":"01458","locality":"Ottendorf-Okrilla","municipality":{"key":"14625430","name":"Ottendorf-Okrilla","type":"Kreisangehörige_Gemeinde"},"district":{"key":"14625","name":"Bautzen","type":"Landkreis"},"federalState":{"key":"14","name":"Sachsen"}},{"name":"Roter-Graben-Weg","postalCode":"01458","locality":"Ottendorf-Okrilla","municipality":{"key":"14625430","name":"Ottendorf-Okrilla","type":"Kreisangehörige_Gemeinde"},"district":{"key":"14625","name":"Bautzen","type":"Landkreis"},"federalState":{"key":"14","name":"Sachsen"}},{"name":"Rotkehlchenweg","postalCode":"01458","locality":"Ottendorf-Okrilla","municipality":{"key":"14625430","name":"Ottendorf-Okrilla","type":"Kreisangehörige_Gemeinde"},"district":{"key":"14625","name":"Bautzen","type":"Landkreis"},"federalState":{"key":"14","name":"Sachsen"}},{"name":"Sandweg","postalCode":"01458","locality":"Ottendorf-Okrilla","municipality":{"key":"14625430","name":"Ottendorf-Okrilla","type":"Kreisangehörige_Gemeinde"},"district":{"key":"14625","name":"Bautzen","type":"Landkreis"},"federalState":{"key":"14","name":"Sachsen"}},{"name":"Schloßstr.","postalCode":"01458","locality":"Ottendorf-Okrilla","municipality":{"key":"14625430","name":"Ottendorf-Okrilla","type":"Kreisangehörige_Gemeinde"},"district":{"key":"14625","name":"Bautzen","type":"Landkreis"},"federalState":{"key":"14","name":"Sachsen"}},{"name":"Schönborner Str.","postalCode":"01458","locality":"Ottendorf-Okrilla","municipality":{"key":"14625430","name":"Ottendorf-Okrilla","type":"Kreisangehörige_Gemeinde"},"district":{"key":"14625","name":"Bautzen","type":"Landkreis"},"federalState":{"key":"14","name":"Sachsen"}},{"name":"Schulberg","postalCode":"01458","locality":"Ottendorf-Okrilla","municipality":{"key":"14625430","name":"Ottendorf-Okrilla","type":"Kreisangehörige_Gemeinde"},"district":{"key":"14625","name":"Bautzen","type":"Landkreis"},"federalState":{"key":"14","name":"Sachsen"}},{"name":"Schulstr.","postalCode":"01458","locality":"Ottendorf-Okrilla","municipality":{"key":"14625430","name":"Ottendorf-Okrilla","type":"Kreisangehörige_Gemeinde"},"district":{"key":"14625","name":"Bautzen","type":"Landkreis"},"federalState":{"key":"14","name":"Sachsen"}},{"name":"Seifersdorfer Str.","postalCode":"01458","locality":"Ottendorf-Okrilla","municipality":{"key":"14625430","name":"Ottendorf-Okrilla","type":"Kreisangehörige_Gemeinde"},"district":{"key":"14625","name":"Bautzen","type":"Landkreis"},"federalState":{"key":"14","name":"Sachsen"}},{"name":"Seifersdorfer Tal-Wanderweg","postalCode":"01458","locality":"Ottendorf-Okrilla","municipality":{"key":"14625430","name":"Ottendorf-Okrilla","type":"Kreisangehörige_Gemeinde"},"district":{"key":"14625","name":"Bautzen","type":"Landkreis"},"federalState":{"key":"14","name":"Sachsen"}},{"name":"Siedlung","postalCode":"01458","locality":"Ottendorf-Okrilla","municipality":{"key":"14625430","name":"Ottendorf-Okrilla","type":"Kreisangehörige_Gemeinde"},"district":{"key":"14625","name":"Bautzen","type":"Landkreis"},"federalState":{"key":"14","name":"Sachsen"}},{"name":"Steinstr.","postalCode":"01458","locality":"Ottendorf-Okrilla","municipality":{"key":"14625430","name":"Ottendorf-Okrilla","type":"Kreisangehörige_Gemeinde"},"district":{"key":"14625","name":"Bautzen","type":"Landkreis"},"federalState":{"key":"14","name":"Sachsen"}},{"name":"Steinweg","postalCode":"01458","locality":"Ottendorf-Okrilla","municipality":{"key":"14625430","name":"Ottendorf-Okrilla","type":"Kreisangehörige_Gemeinde"},"district":{"key":"14625","name":"Bautzen","type":"Landkreis"},"federalState":{"key":"14","name":"Sachsen"}},{"name":"Südstr.","postalCode":"01458","locality":"Ottendorf-Okrilla","municipality":{"key":"14625430","name":"Ottendorf-Okrilla","type":"Kreisangehörige_Gemeinde"},"district":{"key":"14625","name":"Bautzen","type":"Landkreis"},"federalState":{"key":"14","name":"Sachsen"}},{"name":"Talstr.","postalCode":"01458","locality":"Ottendorf-Okrilla","municipality":{"key":"14625430","name":"Ottendorf-Okrilla","type":"Kreisangehörige_Gemeinde"},"district":{"key":"14625","name":"Bautzen","type":"Landkreis"},"federalState":{"key":"14","name":"Sachsen"}},{"name":"Teichstr.","postalCode":"01458","locality":"Ottendorf-Okrilla","municipality":{"key":"14625430","name":"Ottendorf-Okrilla","type":"Kreisangehörige_Gemeinde"},"district":{"key":"14625","name":"Bautzen","type":"Landkreis"},"federalState":{"key":"14","name":"Sachsen"}},{"name":"Thomas-Müntzer-Str.","postalCode":"01458","locality":"Ottendorf-Okrilla","municipality":{"key":"14625430","name":"Ottendorf-Okrilla","type":"Kreisangehörige_Gemeinde"},"district":{"key":"14625","name":"Bautzen","type":"Landkreis"},"federalState":{"key":"14","name":"Sachsen"}},{"name":"Ulmenweg","postalCode":"01458","locality":"Ottendorf-Okrilla","municipality":{"key":"14625430","name":"Ottendorf-Okrilla","type":"Kreisangehörige_Gemeinde"},"district":{"key":"14625","name":"Bautzen","type":"Landkreis"},"federalState":{"key":"14","name":"Sachsen"}},{"name":"Veilchenberg","postalCode":"02625","locality":"Bautzen","municipality":{"key":"14625020","name":"Bautzen / Budyšin, Stadt","type":"Stadt"},"district":{"key":"14625","name":"Bautzen","type":"Landkreis"},"federalState":{"key":"14","name":"Sachsen"}},{"name":"Vor dem Gerbertor","postalCode":"02625","locality":"Bautzen","municipality":{"key":"14625020","name":"Bautzen / Budyšin, Stadt","type":"Stadt"},"district":{"key":"14625","name":"Bautzen","type":"Landkreis"},"federalState":{"key":"14","name":"Sachsen"}},{"name":"Vor dem Schülertor","postalCode":"02625","locality":"Bautzen","municipality":{"key":"14625020","name":"Bautzen / Budyšin, Stadt","type":"Stadt"},"district":{"key":"14625","name":"Bautzen","type":"Landkreis"},"federalState":{"key":"14","name":"Sachsen"}},{"name":"Vor der Fischerpforte","postalCode":"02625","locality":"Bautzen","municipality":{"key":"14625020","name":"Bautzen / Budyšin, Stadt","type":"Stadt"},"district":{"key":"14625","name":"Bautzen","type":"Landkreis"},"federalState":{"key":"14","name":"Sachsen"}},{"name":"Wachbergstr.","postalCode":"01458","locality":"Ottendorf-Okrilla","municipality":{"key":"14625430","name":"Ottendorf-Okrilla","type":"Kreisangehörige_Gemeinde"},"district":{"key":"14625","name":"Bautzen","type":"Landkreis"},"federalState":{"key":"14","name":"Sachsen"}},{"name":"Wacholderweg","postalCode":"01458","locality":"Ottendorf-Okrilla","municipality":{"key":"14625430","name":"Ottendorf-Okrilla","type":"Kreisangehörige_Gemeinde"},"district":{"key":"14625","name":"Bautzen","type":"Landkreis"},"federalState":{"key":"14","name":"Sachsen"}},{"name":"Waldstr.","postalCode":"01458","locality":"Ottendorf-Okrilla","municipality":{"key":"14625430","name":"Ottendorf-Okrilla","type":"Kreisangehörige_Gemeinde"},"district":{"key":"14625","name":"Bautzen","type":"Landkreis"},"federalState":{"key":"14","name":"Sachsen"}},{"name":"Waldweg","postalCode":"01458","locality":"Ottendorf-Okrilla","municipality":{"key":"14625430","name":"Ottendorf-Okrilla","type":"Kreisangehörige_Gemeinde"},"district":{"key":"14625","name":"Bautzen","type":"Landkreis"},"federalState":{"key":"14","name":"Sachsen"}},{"name":"Weidenstr.","postalCode":"01458","locality":"Ottendorf-Okrilla","municipality":{"key":"14625430","name":"Ottendorf-Okrilla","type":"Kreisangehörige_Gemeinde"},"district":{"key":"14625","name":"Bautzen","type":"Landkreis"},"federalState":{"key":"14","name":"Sachsen"}},{"name":"Weinbergstr.","postalCode":"01458","locality":"Ottendorf-Okrilla","municipality":{"key":"14625430","name":"Ottendorf-Okrilla","type":"Kreisangehörige_Gemeinde"},"district":{"key":"14625","name":"Bautzen","type":"Landkreis"},"federalState":{"key":"14","name":"Sachsen"}},{"name":"Weixdorfer Str.","postalCode":"01458","locality":"Ottendorf-Okrilla","municipality":{"key":"14625430","name":"Ottendorf-Okrilla","type":"Kreisangehörige_Gemeinde"},"district":{"key":"14625","name":"Bautzen","type":"Landkreis"},"federalState":{"key":"14","name":"Sachsen"}},{"name":"Wiesenweg","postalCode":"01458","locality":"Ottendorf-Okrilla","municipality":{"key":"14625430","name":"Ottendorf-Okrilla","type":"Kreisangehörige_Gemeinde"},"district":{"key":"14625","name":"Bautzen","type":"Landkreis"},"federalState":{"key":"14","name":"Sachsen"}},{"name":"Wildparkring","postalCode":"01458","locality":"Ottendorf-Okrilla","municipality":{"key":"14625430","name":"Ottendorf-Okrilla","type":"Kreisangehörige_Gemeinde"},"district":{"key":"14625","name":"Bautzen","type":"Landkreis"},"federalState":{"key":"14","name":"Sachsen"}},{"name":"Willstätter Ring","postalCode":"01458","locality":"Ottendorf-Okrilla","municipality":{"key":"14625430","name":"Ottendorf-Okrilla","type":"Kreisangehörige_Gemeinde"},"district":{"key":"14625","name":"Bautzen","type":"Landkreis"},"federalState":{"key":"14","name":"Sachsen"}},{"name":"Winkelweg","postalCode":"01458","locality":"Ottendorf-Okrilla","municipality":{"key":"14625430","name":"Ottendorf-Okrilla","type":"Kreisangehörige_Gemeinde"},"district":{"key":"14625","name":"Bautzen","type":"Landkreis"},"federalState":{"key":"14","name":"Sachsen"}},{"name":"Wirtschaftsweg","postalCode":"01458","locality":"Ottendorf-Okrilla","municipality":{"key":"14625430","name":"Ottendorf-Okrilla","type":"Kreisangehörige_Gemeinde"},"district":{"key":"14625","name":"Bautzen","type":"Landkreis"},"federalState":{"key":"14","name":"Sachsen"}},{"name":"Würschnitzer Str.","postalCode":"01458","locality":"Ottendorf-Okrilla","municipality":{"key":"14625430","name":"Ottendorf-Okrilla","type":"Kreisangehörige_Gemeinde"},"district":{"key":"14625","name":"Bautzen","type":"Landkreis"},"federalState":{"key":"14","name":"Sachsen"}},{"name":"Yorckstr.","postalCode":"02625","locality":"Bautzen","municipality":{"key":"14625020","name":"Bautzen / Budyšin, Stadt","type":"Stadt"},"district":{"key":"14625","name":"Bautzen","type":"Landkreis"},"federalState":{"key":"14","name":"Sachsen"}},{"name":"Zeisigweg","postalCode":"01458","locality":"Ottendorf-Okrilla","municipality":{"key":"14625430","name":"Ottendorf-Okrilla","type":"Kreisangehörige_Gemeinde"},"district":{"key":"14625","name":"Bautzen","type":"Landkreis"},"federalState":{"key":"14","name":"Sachsen"}},{"name":"Zu den Holzhäusern","postalCode":"01458","locality":"Ottendorf-Okrilla","municipality":{"key":"14625430","name":"Ottendorf-Okrilla","type":"Kreisangehörige_Gemeinde"},"district":{"key":"14625","name":"Bautzen","type":"Landkreis"},"federalState":{"key":"14","name":"Sachsen"}},{"name":"Zu der Kohlgrube","postalCode":"01458","locality":"Ottendorf-Okrilla","municipality":{"key":"14625430","name":"Ottendorf-Okrilla","type":"Kreisangehörige_Gemeinde"},"district":{"key":"14625","name":"Bautzen","type":"Landkreis"},"federalState":{"key":"14","name":"Sachsen"}},{"name":"Zum Ledigenheim","postalCode":"01458","locality":"Ottendorf-Okrilla","municipality":{"key":"14625430","name":"Ottendorf-Okrilla","type":"Kreisangehörige_Gemeinde"},"district":{"key":"14625","name":"Bautzen","type":"Landkreis"},"federalState":{"key":"14","name":"Sachsen"}},{"name":"Zum Stöckicht","postalCode":"01458","locality":"Ottendorf-Okrilla","municipality":{"key":"14625430","name":"Ottendorf-Okrilla","type":"Kreisangehörige_Gemeinde"},"district":{"key":"14625","name":"Bautzen","type":"Landkreis"},"federalState":{"key":"14","name":"Sachsen"}},{"name":"Zur Linde","postalCode":"01458","locality":"Ottendorf-Okrilla","municipality":{"key":"14625430","name":"Ottendorf-Okrilla","type":"Kreisangehörige_Gemeinde"},"district":{"key":"14625","name":"Bautzen","type":"Landkreis"},"federalState":{"key":"14","name":"Sachsen"}},{"name":"Zur Röderinsel","postalCode":"01458","locality":"Ottendorf-Okrilla","municipality":{"key":"14625430","name":"Ottendorf-Okrilla","type":"Kreisangehörige_Gemeinde"},"district":{"key":"14625","name":"Bautzen","type":"Landkreis"},"federalState":{"key":"14","name":"Sachsen"}},{"name":"Äußere Lauenstr.","postalCode":"02625","locality":"Bautzen","municipality":{"key":"14625020","name":"Bautzen / Budyšin, Stadt","type":"Stadt"},"district":{"key":"14625","name":"Bautzen","type":"Landkreis"},"federalState":{"key":"14","name":"Sachsen"}},]