[{"name":"Am 5. Gradierwerk","postalCode":"06231","locality":"Bad Dürrenberg","municipality":{"key":"15088020","name":"Bad Dürrenberg, Solestadt","type":"Stadt"},"district":{"key":"15088","name":"Saalekreis","type":"Landkreis"},"federalState":{"key":"15","name":"Sachsen-Anhalt"}},{"name":"Am Bahnhof","postalCode":"06231","locality":"Bad Dürrenberg","municipality":{"key":"15088020","name":"Bad Dürrenberg, Solestadt","type":"Stadt"},"district":{"key":"15088","name":"Saalekreis","type":"Landkreis"},"federalState":{"key":"15","name":"Sachsen-Anhalt"}},{"name":"Am Bauernstein","postalCode":"06231","locality":"Bad Dürrenberg","municipality":{"key":"15088020","name":"Bad Dürrenberg, Solestadt","type":"Stadt"},"district":{"key":"15088","name":"Saalekreis","type":"Landkreis"},"federalState":{"key":"15","name":"Sachsen-Anhalt"}},{"name":"Am Berge","postalCode":"06231","locality":"Bad Dürrenberg","municipality":{"key":"15088020","name":"Bad Dürrenberg, Solestadt","type":"Stadt"},"district":{"key":"15088","name":"Saalekreis","type":"Landkreis"},"federalState":{"key":"15","name":"Sachsen-Anhalt"}},{"name":"Am Dorfe","postalCode":"06231","locality":"Bad Dürrenberg","municipality":{"key":"15088020","name":"Bad Dürrenberg, Solestadt","type":"Stadt"},"district":{"key":"15088","name":"Saalekreis","type":"Landkreis"},"federalState":{"key":"15","name":"Sachsen-Anhalt"}},{"name":"Am Floßplatz","postalCode":"06231","locality":"Bad Dürrenberg","municipality":{"key":"15088020","name":"Bad Dürrenberg, Solestadt","type":"Stadt"},"district":{"key":"15088","name":"Saalekreis","type":"Landkreis"},"federalState":{"key":"15","name":"Sachsen-Anhalt"}},{"name":"Am Johannisanger","postalCode":"06231","locality":"Bad Dürrenberg","municipality":{"key":"15088020","name":"Bad Dürrenberg, Solestadt","type":"Stadt"},"district":{"key":"15088","name":"Saalekreis","type":"Landkreis"},"federalState":{"key":"15","name":"Sachsen-Anhalt"}},{"name":"Am Park","postalCode":"06231","locality":"Bad Dürrenberg","municipality":{"key":"15088020","name":"Bad Dürrenberg, Solestadt","type":"Stadt"},"district":{"key":"15088","name":"Saalekreis","type":"Landkreis"},"federalState":{"key":"15","name":"Sachsen-Anhalt"}},{"name":"Am Schacht","postalCode":"06231","locality":"Bad Dürrenberg","municipality":{"key":"15088020","name":"Bad Dürrenberg, Solestadt","type":"Stadt"},"district":{"key":"15088","name":"Saalekreis","type":"Landkreis"},"federalState":{"key":"15","name":"Sachsen-Anhalt"}},{"name":"Am Schmiedeberg","postalCode":"06231","locality":"Bad Dürrenberg","municipality":{"key":"15088020","name":"Bad Dürrenberg, Solestadt","type":"Stadt"},"district":{"key":"15088","name":"Saalekreis","type":"Landkreis"},"federalState":{"key":"15","name":"Sachsen-Anhalt"}},{"name":"Amselweg","postalCode":"06231","locality":"Bad Dürrenberg","municipality":{"key":"15088020","name":"Bad Dürrenberg, Solestadt","type":"Stadt"},"district":{"key":"15088","name":"Saalekreis","type":"Landkreis"},"federalState":{"key":"15","name":"Sachsen-Anhalt"}},{"name":"Am Veltheimstollen","postalCode":"06231","locality":"Bad Dürrenberg","municipality":{"key":"15088020","name":"Bad Dürrenberg, Solestadt","type":"Stadt"},"district":{"key":"15088","name":"Saalekreis","type":"Landkreis"},"federalState":{"key":"15","name":"Sachsen-Anhalt"}},{"name":"Am Wasserturm","postalCode":"06231","locality":"Bad Dürrenberg","municipality":{"key":"15088020","name":"Bad Dürrenberg, Solestadt","type":"Stadt"},"district":{"key":"15088","name":"Saalekreis","type":"Landkreis"},"federalState":{"key":"15","name":"Sachsen-Anhalt"}},{"name":"An der Brücke","postalCode":"06231","locality":"Bad Dürrenberg","municipality":{"key":"15088020","name":"Bad Dürrenberg, Solestadt","type":"Stadt"},"district":{"key":"15088","name":"Saalekreis","type":"Landkreis"},"federalState":{"key":"15","name":"Sachsen-Anhalt"}},{"name":"An der Eiche","postalCode":"06231","locality":"Bad Dürrenberg","municipality":{"key":"15088020","name":"Bad Dürrenberg, Solestadt","type":"Stadt"},"district":{"key":"15088","name":"Saalekreis","type":"Landkreis"},"federalState":{"key":"15","name":"Sachsen-Anhalt"}},{"name":"An der Mauer","postalCode":"06231","locality":"Bad Dürrenberg","municipality":{"key":"15088020","name":"Bad Dürrenberg, Solestadt","type":"Stadt"},"district":{"key":"15088","name":"Saalekreis","type":"Landkreis"},"federalState":{"key":"15","name":"Sachsen-Anhalt"}},{"name":"Angerweg","postalCode":"06231","locality":"Bad Dürrenberg","municipality":{"key":"15088020","name":"Bad Dürrenberg, Solestadt","type":"Stadt"},"district":{"key":"15088","name":"Saalekreis","type":"Landkreis"},"federalState":{"key":"15","name":"Sachsen-Anhalt"}},{"name":"Apothekerberg","postalCode":"06231","locality":"Bad Dürrenberg","municipality":{"key":"15088020","name":"Bad Dürrenberg, Solestadt","type":"Stadt"},"district":{"key":"15088","name":"Saalekreis","type":"Landkreis"},"federalState":{"key":"15","name":"Sachsen-Anhalt"}},{"name":"Auenring","postalCode":"06231","locality":"Bad Dürrenberg","municipality":{"key":"15088020","name":"Bad Dürrenberg, Solestadt","type":"Stadt"},"district":{"key":"15088","name":"Saalekreis","type":"Landkreis"},"federalState":{"key":"15","name":"Sachsen-Anhalt"}},{"name":"Auenstr.","postalCode":"06231","locality":"Bad Dürrenberg","municipality":{"key":"15088020","name":"Bad Dürrenberg, Solestadt","type":"Stadt"},"district":{"key":"15088","name":"Saalekreis","type":"Landkreis"},"federalState":{"key":"15","name":"Sachsen-Anhalt"}},{"name":"Auenweg","postalCode":"06231","locality":"Bad Dürrenberg","municipality":{"key":"15088020","name":"Bad Dürrenberg, Solestadt","type":"Stadt"},"district":{"key":"15088","name":"Saalekreis","type":"Landkreis"},"federalState":{"key":"15","name":"Sachsen-Anhalt"}},{"name":"August-Bebel-Str.","postalCode":"06231","locality":"Bad Dürrenberg","municipality":{"key":"15088020","name":"Bad Dürrenberg, Solestadt","type":"Stadt"},"district":{"key":"15088","name":"Saalekreis","type":"Landkreis"},"federalState":{"key":"15","name":"Sachsen-Anhalt"}},{"name":"Bachgasse","postalCode":"06231","locality":"Bad Dürrenberg","municipality":{"key":"15088020","name":"Bad Dürrenberg, Solestadt","type":"Stadt"},"district":{"key":"15088","name":"Saalekreis","type":"Landkreis"},"federalState":{"key":"15","name":"Sachsen-Anhalt"}},{"name":"Bad Dürrenberger Str.","postalCode":"06231","locality":"Bad Dürrenberg","municipality":{"key":"15088020","name":"Bad Dürrenberg, Solestadt","type":"Stadt"},"district":{"key":"15088","name":"Saalekreis","type":"Landkreis"},"federalState":{"key":"15","name":"Sachsen-Anhalt"}},{"name":"Bahnhofstr.","postalCode":"06231","locality":"Bad Dürrenberg","municipality":{"key":"15088020","name":"Bad Dürrenberg, Solestadt","type":"Stadt"},"district":{"key":"15088","name":"Saalekreis","type":"Landkreis"},"federalState":{"key":"15","name":"Sachsen-Anhalt"}},{"name":"Balditzer Str.","postalCode":"06231","locality":"Bad Dürrenberg","municipality":{"key":"15088020","name":"Bad Dürrenberg, Solestadt","type":"Stadt"},"district":{"key":"15088","name":"Saalekreis","type":"Landkreis"},"federalState":{"key":"15","name":"Sachsen-Anhalt"}},{"name":"Bauernwinkel","postalCode":"06231","locality":"Bad Dürrenberg","municipality":{"key":"15088020","name":"Bad Dürrenberg, Solestadt","type":"Stadt"},"district":{"key":"15088","name":"Saalekreis","type":"Landkreis"},"federalState":{"key":"15","name":"Sachsen-Anhalt"}},{"name":"Baumweg","postalCode":"06231","locality":"Bad Dürrenberg","municipality":{"key":"15088020","name":"Bad Dürrenberg, Solestadt","type":"Stadt"},"district":{"key":"15088","name":"Saalekreis","type":"Landkreis"},"federalState":{"key":"15","name":"Sachsen-Anhalt"}},{"name":"Beethovenstr.","postalCode":"06231","locality":"Bad Dürrenberg","municipality":{"key":"15088020","name":"Bad Dürrenberg, Solestadt","type":"Stadt"},"district":{"key":"15088","name":"Saalekreis","type":"Landkreis"},"federalState":{"key":"15","name":"Sachsen-Anhalt"}},{"name":"Berggasse","postalCode":"06231","locality":"Bad Dürrenberg","municipality":{"key":"15088020","name":"Bad Dürrenberg, Solestadt","type":"Stadt"},"district":{"key":"15088","name":"Saalekreis","type":"Landkreis"},"federalState":{"key":"15","name":"Sachsen-Anhalt"}},{"name":"Bergstr.","postalCode":"06231","locality":"Bad Dürrenberg","municipality":{"key":"15088020","name":"Bad Dürrenberg, Solestadt","type":"Stadt"},"district":{"key":"15088","name":"Saalekreis","type":"Landkreis"},"federalState":{"key":"15","name":"Sachsen-Anhalt"}},{"name":"Birkenweg","postalCode":"06231","locality":"Bad Dürrenberg","municipality":{"key":"15088020","name":"Bad Dürrenberg, Solestadt","type":"Stadt"},"district":{"key":"15088","name":"Saalekreis","type":"Landkreis"},"federalState":{"key":"15","name":"Sachsen-Anhalt"}},{"name":"Bothfelder Str.","postalCode":"06231","locality":"Bad Dürrenberg","municipality":{"key":"15088020","name":"Bad Dürrenberg, Solestadt","type":"Stadt"},"district":{"key":"15088","name":"Saalekreis","type":"Landkreis"},"federalState":{"key":"15","name":"Sachsen-Anhalt"}},{"name":"Breiter Weg","postalCode":"06231","locality":"Bad Dürrenberg","municipality":{"key":"15088020","name":"Bad Dürrenberg, Solestadt","type":"Stadt"},"district":{"key":"15088","name":"Saalekreis","type":"Landkreis"},"federalState":{"key":"15","name":"Sachsen-Anhalt"}},{"name":"Breite Str.","postalCode":"06231","locality":"Bad Dürrenberg","municipality":{"key":"15088020","name":"Bad Dürrenberg, Solestadt","type":"Stadt"},"district":{"key":"15088","name":"Saalekreis","type":"Landkreis"},"federalState":{"key":"15","name":"Sachsen-Anhalt"}},{"name":"Brunnengasse","postalCode":"06231","locality":"Bad Dürrenberg","municipality":{"key":"15088020","name":"Bad Dürrenberg, Solestadt","type":"Stadt"},"district":{"key":"15088","name":"Saalekreis","type":"Landkreis"},"federalState":{"key":"15","name":"Sachsen-Anhalt"}},{"name":"Buchfinkenweg","postalCode":"06231","locality":"Bad Dürrenberg","municipality":{"key":"15088020","name":"Bad Dürrenberg, Solestadt","type":"Stadt"},"district":{"key":"15088","name":"Saalekreis","type":"Landkreis"},"federalState":{"key":"15","name":"Sachsen-Anhalt"}},{"name":"Bunsenstr.","postalCode":"06231","locality":"Bad Dürrenberg","municipality":{"key":"15088020","name":"Bad Dürrenberg, Solestadt","type":"Stadt"},"district":{"key":"15088","name":"Saalekreis","type":"Landkreis"},"federalState":{"key":"15","name":"Sachsen-Anhalt"}},{"name":"Damaschkestr.","postalCode":"06231","locality":"Bad Dürrenberg","municipality":{"key":"15088020","name":"Bad Dürrenberg, Solestadt","type":"Stadt"},"district":{"key":"15088","name":"Saalekreis","type":"Landkreis"},"federalState":{"key":"15","name":"Sachsen-Anhalt"}},{"name":"Dammstr.","postalCode":"06231","locality":"Bad Dürrenberg","municipality":{"key":"15088020","name":"Bad Dürrenberg, Solestadt","type":"Stadt"},"district":{"key":"15088","name":"Saalekreis","type":"Landkreis"},"federalState":{"key":"15","name":"Sachsen-Anhalt"}},{"name":"Der Scheitrain","postalCode":"06231","locality":"Bad Dürrenberg","municipality":{"key":"15088020","name":"Bad Dürrenberg, Solestadt","type":"Stadt"},"district":{"key":"15088","name":"Saalekreis","type":"Landkreis"},"federalState":{"key":"15","name":"Sachsen-Anhalt"}},{"name":"Die Neue Str.","postalCode":"06231","locality":"Bad Dürrenberg","municipality":{"key":"15088020","name":"Bad Dürrenberg, Solestadt","type":"Stadt"},"district":{"key":"15088","name":"Saalekreis","type":"Landkreis"},"federalState":{"key":"15","name":"Sachsen-Anhalt"}},{"name":"Drosselweg","postalCode":"06231","locality":"Bad Dürrenberg","municipality":{"key":"15088020","name":"Bad Dürrenberg, Solestadt","type":"Stadt"},"district":{"key":"15088","name":"Saalekreis","type":"Landkreis"},"federalState":{"key":"15","name":"Sachsen-Anhalt"}},{"name":"Dürrenberger Str.","postalCode":"06231","locality":"Bad Dürrenberg","municipality":{"key":"15088020","name":"Bad Dürrenberg, Solestadt","type":"Stadt"},"district":{"key":"15088","name":"Saalekreis","type":"Landkreis"},"federalState":{"key":"15","name":"Sachsen-Anhalt"}},{"name":"Elfenweg","postalCode":"06231","locality":"Bad Dürrenberg","municipality":{"key":"15088020","name":"Bad Dürrenberg, Solestadt","type":"Stadt"},"district":{"key":"15088","name":"Saalekreis","type":"Landkreis"},"federalState":{"key":"15","name":"Sachsen-Anhalt"}},{"name":"Ellerbach","postalCode":"06231","locality":"Bad Dürrenberg","municipality":{"key":"15088020","name":"Bad Dürrenberg, Solestadt","type":"Stadt"},"district":{"key":"15088","name":"Saalekreis","type":"Landkreis"},"federalState":{"key":"15","name":"Sachsen-Anhalt"}},{"name":"Emil-Fischer-Str.","postalCode":"06231","locality":"Bad Dürrenberg","municipality":{"key":"15088020","name":"Bad Dürrenberg, Solestadt","type":"Stadt"},"district":{"key":"15088","name":"Saalekreis","type":"Landkreis"},"federalState":{"key":"15","name":"Sachsen-Anhalt"}},{"name":"Erlenweg","postalCode":"06231","locality":"Bad Dürrenberg","municipality":{"key":"15088020","name":"Bad Dürrenberg, Solestadt","type":"Stadt"},"district":{"key":"15088","name":"Saalekreis","type":"Landkreis"},"federalState":{"key":"15","name":"Sachsen-Anhalt"}},{"name":"Ernst-Thälmann-Brücke","postalCode":"06231","locality":"Bad Dürrenberg","municipality":{"key":"15088020","name":"Bad Dürrenberg, Solestadt","type":"Stadt"},"district":{"key":"15088","name":"Saalekreis","type":"Landkreis"},"federalState":{"key":"15","name":"Sachsen-Anhalt"}},{"name":"Fährstr.","postalCode":"06231","locality":"Bad Dürrenberg","municipality":{"key":"15088020","name":"Bad Dürrenberg, Solestadt","type":"Stadt"},"district":{"key":"15088","name":"Saalekreis","type":"Landkreis"},"federalState":{"key":"15","name":"Sachsen-Anhalt"}},{"name":"Feldschößchen","postalCode":"06231","locality":"Bad Dürrenberg","municipality":{"key":"15088020","name":"Bad Dürrenberg, Solestadt","type":"Stadt"},"district":{"key":"15088","name":"Saalekreis","type":"Landkreis"},"federalState":{"key":"15","name":"Sachsen-Anhalt"}},{"name":"Feldsstr.","postalCode":"06231","locality":"Bad Dürrenberg","municipality":{"key":"15088020","name":"Bad Dürrenberg, Solestadt","type":"Stadt"},"district":{"key":"15088","name":"Saalekreis","type":"Landkreis"},"federalState":{"key":"15","name":"Sachsen-Anhalt"}},{"name":"Fichtestr.","postalCode":"06231","locality":"Bad Dürrenberg","municipality":{"key":"15088020","name":"Bad Dürrenberg, Solestadt","type":"Stadt"},"district":{"key":"15088","name":"Saalekreis","type":"Landkreis"},"federalState":{"key":"15","name":"Sachsen-Anhalt"}},{"name":"Finkenweg","postalCode":"06231","locality":"Bad Dürrenberg","municipality":{"key":"15088020","name":"Bad Dürrenberg, Solestadt","type":"Stadt"},"district":{"key":"15088","name":"Saalekreis","type":"Landkreis"},"federalState":{"key":"15","name":"Sachsen-Anhalt"}},{"name":"Fliederweg","postalCode":"06231","locality":"Bad Dürrenberg","municipality":{"key":"15088020","name":"Bad Dürrenberg, Solestadt","type":"Stadt"},"district":{"key":"15088","name":"Saalekreis","type":"Landkreis"},"federalState":{"key":"15","name":"Sachsen-Anhalt"}},{"name":"Floßgrabenweg","postalCode":"06231","locality":"Bad Dürrenberg","municipality":{"key":"15088020","name":"Bad Dürrenberg, Solestadt","type":"Stadt"},"district":{"key":"15088","name":"Saalekreis","type":"Landkreis"},"federalState":{"key":"15","name":"Sachsen-Anhalt"}},{"name":"Flurweg","postalCode":"06231","locality":"Bad Dürrenberg","municipality":{"key":"15088020","name":"Bad Dürrenberg, Solestadt","type":"Stadt"},"district":{"key":"15088","name":"Saalekreis","type":"Landkreis"},"federalState":{"key":"15","name":"Sachsen-Anhalt"}},{"name":"Friedensstr.","postalCode":"06231","locality":"Bad Dürrenberg","municipality":{"key":"15088020","name":"Bad Dürrenberg, Solestadt","type":"Stadt"},"district":{"key":"15088","name":"Saalekreis","type":"Landkreis"},"federalState":{"key":"15","name":"Sachsen-Anhalt"}},{"name":"Friedhofsgasse","postalCode":"06231","locality":"Bad Dürrenberg","municipality":{"key":"15088020","name":"Bad Dürrenberg, Solestadt","type":"Stadt"},"district":{"key":"15088","name":"Saalekreis","type":"Landkreis"},"federalState":{"key":"15","name":"Sachsen-Anhalt"}},{"name":"Friedrich-Ebert-Str.","postalCode":"06231","locality":"Bad Dürrenberg","municipality":{"key":"15088020","name":"Bad Dürrenberg, Solestadt","type":"Stadt"},"district":{"key":"15088","name":"Saalekreis","type":"Landkreis"},"federalState":{"key":"15","name":"Sachsen-Anhalt"}},{"name":"Fritz-Klatte-Str.","postalCode":"06231","locality":"Bad Dürrenberg","municipality":{"key":"15088020","name":"Bad Dürrenberg, Solestadt","type":"Stadt"},"district":{"key":"15088","name":"Saalekreis","type":"Landkreis"},"federalState":{"key":"15","name":"Sachsen-Anhalt"}},{"name":"Gartenstr.","postalCode":"06231","locality":"Bad Dürrenberg","municipality":{"key":"15088020","name":"Bad Dürrenberg, Solestadt","type":"Stadt"},"district":{"key":"15088","name":"Saalekreis","type":"Landkreis"},"federalState":{"key":"15","name":"Sachsen-Anhalt"}},{"name":"Gaußstr.","postalCode":"06231","locality":"Bad Dürrenberg","municipality":{"key":"15088020","name":"Bad Dürrenberg, Solestadt","type":"Stadt"},"district":{"key":"15088","name":"Saalekreis","type":"Landkreis"},"federalState":{"key":"15","name":"Sachsen-Anhalt"}},{"name":"Geschwister-Scholl-Str.","postalCode":"06231","locality":"Bad Dürrenberg","municipality":{"key":"15088020","name":"Bad Dürrenberg, Solestadt","type":"Stadt"},"district":{"key":"15088","name":"Saalekreis","type":"Landkreis"},"federalState":{"key":"15","name":"Sachsen-Anhalt"}},{"name":"Goetheweg","postalCode":"06231","locality":"Bad Dürrenberg","municipality":{"key":"15088020","name":"Bad Dürrenberg, Solestadt","type":"Stadt"},"district":{"key":"15088","name":"Saalekreis","type":"Landkreis"},"federalState":{"key":"15","name":"Sachsen-Anhalt"}},{"name":"Goldhähnchen","postalCode":"06231","locality":"Bad Dürrenberg","municipality":{"key":"15088020","name":"Bad Dürrenberg, Solestadt","type":"Stadt"},"district":{"key":"15088","name":"Saalekreis","type":"Landkreis"},"federalState":{"key":"15","name":"Sachsen-Anhalt"}},{"name":"Goldhainweg","postalCode":"06231","locality":"Bad Dürrenberg","municipality":{"key":"15088020","name":"Bad Dürrenberg, Solestadt","type":"Stadt"},"district":{"key":"15088","name":"Saalekreis","type":"Landkreis"},"federalState":{"key":"15","name":"Sachsen-Anhalt"}},{"name":"Gustav-Adolf-Str.","postalCode":"06231","locality":"Bad Dürrenberg","municipality":{"key":"15088020","name":"Bad Dürrenberg, Solestadt","type":"Stadt"},"district":{"key":"15088","name":"Saalekreis","type":"Landkreis"},"federalState":{"key":"15","name":"Sachsen-Anhalt"}},{"name":"Hauptstr.","postalCode":"06231","locality":"Bad Dürrenberg","municipality":{"key":"15088020","name":"Bad Dürrenberg, Solestadt","type":"Stadt"},"district":{"key":"15088","name":"Saalekreis","type":"Landkreis"},"federalState":{"key":"15","name":"Sachsen-Anhalt"}},{"name":"Heinrich-Heine-Str.","postalCode":"06231","locality":"Bad Dürrenberg","municipality":{"key":"15088020","name":"Bad Dürrenberg, Solestadt","type":"Stadt"},"district":{"key":"15088","name":"Saalekreis","type":"Landkreis"},"federalState":{"key":"15","name":"Sachsen-Anhalt"}},{"name":"Hintere Gasse","postalCode":"06231","locality":"Bad Dürrenberg","municipality":{"key":"15088020","name":"Bad Dürrenberg, Solestadt","type":"Stadt"},"district":{"key":"15088","name":"Saalekreis","type":"Landkreis"},"federalState":{"key":"15","name":"Sachsen-Anhalt"}},{"name":"Hirtengasse","postalCode":"06231","locality":"Bad Dürrenberg","municipality":{"key":"15088020","name":"Bad Dürrenberg, Solestadt","type":"Stadt"},"district":{"key":"15088","name":"Saalekreis","type":"Landkreis"},"federalState":{"key":"15","name":"Sachsen-Anhalt"}},{"name":"Im Winkel","postalCode":"06231","locality":"Bad Dürrenberg","municipality":{"key":"15088020","name":"Bad Dürrenberg, Solestadt","type":"Stadt"},"district":{"key":"15088","name":"Saalekreis","type":"Landkreis"},"federalState":{"key":"15","name":"Sachsen-Anhalt"}},{"name":"In der Saline","postalCode":"06231","locality":"Bad Dürrenberg","municipality":{"key":"15088020","name":"Bad Dürrenberg, Solestadt","type":"Stadt"},"district":{"key":"15088","name":"Saalekreis","type":"Landkreis"},"federalState":{"key":"15","name":"Sachsen-Anhalt"}},{"name":"In Kauern","postalCode":"06231","locality":"Bad Dürrenberg","municipality":{"key":"15088020","name":"Bad Dürrenberg, Solestadt","type":"Stadt"},"district":{"key":"15088","name":"Saalekreis","type":"Landkreis"},"federalState":{"key":"15","name":"Sachsen-Anhalt"}},{"name":"In Ragwitz","postalCode":"06231","locality":"Bad Dürrenberg","municipality":{"key":"15088020","name":"Bad Dürrenberg, Solestadt","type":"Stadt"},"district":{"key":"15088","name":"Saalekreis","type":"Landkreis"},"federalState":{"key":"15","name":"Sachsen-Anhalt"}},{"name":"In Zöllschen","postalCode":"06231","locality":"Bad Dürrenberg","municipality":{"key":"15088020","name":"Bad Dürrenberg, Solestadt","type":"Stadt"},"district":{"key":"15088","name":"Saalekreis","type":"Landkreis"},"federalState":{"key":"15","name":"Sachsen-Anhalt"}},{"name":"Johann-Tromsdorff-Str.","postalCode":"06231","locality":"Bad Dürrenberg","municipality":{"key":"15088020","name":"Bad Dürrenberg, Solestadt","type":"Stadt"},"district":{"key":"15088","name":"Saalekreis","type":"Landkreis"},"federalState":{"key":"15","name":"Sachsen-Anhalt"}},{"name":"John-Schehr-Str.","postalCode":"06231","locality":"Bad Dürrenberg","municipality":{"key":"15088020","name":"Bad Dürrenberg, Solestadt","type":"Stadt"},"district":{"key":"15088","name":"Saalekreis","type":"Landkreis"},"federalState":{"key":"15","name":"Sachsen-Anhalt"}},{"name":"Kalkofenweg","postalCode":"06231","locality":"Bad Dürrenberg","municipality":{"key":"15088020","name":"Bad Dürrenberg, Solestadt","type":"Stadt"},"district":{"key":"15088","name":"Saalekreis","type":"Landkreis"},"federalState":{"key":"15","name":"Sachsen-Anhalt"}},{"name":"Kalmusteichweg","postalCode":"06231","locality":"Bad Dürrenberg","municipality":{"key":"15088020","name":"Bad Dürrenberg, Solestadt","type":"Stadt"},"district":{"key":"15088","name":"Saalekreis","type":"Landkreis"},"federalState":{"key":"15","name":"Sachsen-Anhalt"}},{"name":"Kalteneiser Str.","postalCode":"06231","locality":"Bad Dürrenberg","municipality":{"key":"15088020","name":"Bad Dürrenberg, Solestadt","type":"Stadt"},"district":{"key":"15088","name":"Saalekreis","type":"Landkreis"},"federalState":{"key":"15","name":"Sachsen-Anhalt"}},{"name":"Kaolinweg","postalCode":"06231","locality":"Bad Dürrenberg","municipality":{"key":"15088020","name":"Bad Dürrenberg, Solestadt","type":"Stadt"},"district":{"key":"15088","name":"Saalekreis","type":"Landkreis"},"federalState":{"key":"15","name":"Sachsen-Anhalt"}},{"name":"Kastanienweg","postalCode":"06231","locality":"Bad Dürrenberg","municipality":{"key":"15088020","name":"Bad Dürrenberg, Solestadt","type":"Stadt"},"district":{"key":"15088","name":"Saalekreis","type":"Landkreis"},"federalState":{"key":"15","name":"Sachsen-Anhalt"}},{"name":"Keuschberger Str.","postalCode":"06231","locality":"Bad Dürrenberg","municipality":{"key":"15088020","name":"Bad Dürrenberg, Solestadt","type":"Stadt"},"district":{"key":"15088","name":"Saalekreis","type":"Landkreis"},"federalState":{"key":"15","name":"Sachsen-Anhalt"}},{"name":"Kirchdorfer Ring","postalCode":"06231","locality":"Bad Dürrenberg","municipality":{"key":"15088020","name":"Bad Dürrenberg, Solestadt","type":"Stadt"},"district":{"key":"15088","name":"Saalekreis","type":"Landkreis"},"federalState":{"key":"15","name":"Sachsen-Anhalt"}},{"name":"Kirchfährendorfer Str.","postalCode":"06231","locality":"Bad Dürrenberg","municipality":{"key":"15088020","name":"Bad Dürrenberg, Solestadt","type":"Stadt"},"district":{"key":"15088","name":"Saalekreis","type":"Landkreis"},"federalState":{"key":"15","name":"Sachsen-Anhalt"}},{"name":"Kirchhoffstr.","postalCode":"06231","locality":"Bad Dürrenberg","municipality":{"key":"15088020","name":"Bad Dürrenberg, Solestadt","type":"Stadt"},"district":{"key":"15088","name":"Saalekreis","type":"Landkreis"},"federalState":{"key":"15","name":"Sachsen-Anhalt"}},{"name":"Kirchplatz","postalCode":"06231","locality":"Bad Dürrenberg","municipality":{"key":"15088020","name":"Bad Dürrenberg, Solestadt","type":"Stadt"},"district":{"key":"15088","name":"Saalekreis","type":"Landkreis"},"federalState":{"key":"15","name":"Sachsen-Anhalt"}},{"name":"Klapprothstr.","postalCode":"06231","locality":"Bad Dürrenberg","municipality":{"key":"15088020","name":"Bad Dürrenberg, Solestadt","type":"Stadt"},"district":{"key":"15088","name":"Saalekreis","type":"Landkreis"},"federalState":{"key":"15","name":"Sachsen-Anhalt"}},{"name":"Kleistweg","postalCode":"06231","locality":"Bad Dürrenberg","municipality":{"key":"15088020","name":"Bad Dürrenberg, Solestadt","type":"Stadt"},"district":{"key":"15088","name":"Saalekreis","type":"Landkreis"},"federalState":{"key":"15","name":"Sachsen-Anhalt"}},{"name":"Knappenweg","postalCode":"06231","locality":"Bad Dürrenberg","municipality":{"key":"15088020","name":"Bad Dürrenberg, Solestadt","type":"Stadt"},"district":{"key":"15088","name":"Saalekreis","type":"Landkreis"},"federalState":{"key":"15","name":"Sachsen-Anhalt"}},{"name":"Kohlenbahn-Tunnel","postalCode":"06231","locality":"Bad Dürrenberg","municipality":{"key":"15088020","name":"Bad Dürrenberg, Solestadt","type":"Stadt"},"district":{"key":"15088","name":"Saalekreis","type":"Landkreis"},"federalState":{"key":"15","name":"Sachsen-Anhalt"}},{"name":"Kohlenstr.","postalCode":"06231","locality":"Bad Dürrenberg","municipality":{"key":"15088020","name":"Bad Dürrenberg, Solestadt","type":"Stadt"},"district":{"key":"15088","name":"Saalekreis","type":"Landkreis"},"federalState":{"key":"15","name":"Sachsen-Anhalt"}},{"name":"Kurhausstr.","postalCode":"06231","locality":"Bad Dürrenberg","municipality":{"key":"15088020","name":"Bad Dürrenberg, Solestadt","type":"Stadt"},"district":{"key":"15088","name":"Saalekreis","type":"Landkreis"},"federalState":{"key":"15","name":"Sachsen-Anhalt"}},{"name":"Kurpark","postalCode":"06231","locality":"Bad Dürrenberg","municipality":{"key":"15088020","name":"Bad Dürrenberg, Solestadt","type":"Stadt"},"district":{"key":"15088","name":"Saalekreis","type":"Landkreis"},"federalState":{"key":"15","name":"Sachsen-Anhalt"}},{"name":"Kurze Str.","postalCode":"06231","locality":"Bad Dürrenberg","municipality":{"key":"15088020","name":"Bad Dürrenberg, Solestadt","type":"Stadt"},"district":{"key":"15088","name":"Saalekreis","type":"Landkreis"},"federalState":{"key":"15","name":"Sachsen-Anhalt"}},{"name":"Lämmerwiesenweg","postalCode":"06231","locality":"Bad Dürrenberg","municipality":{"key":"15088020","name":"Bad Dürrenberg, Solestadt","type":"Stadt"},"district":{"key":"15088","name":"Saalekreis","type":"Landkreis"},"federalState":{"key":"15","name":"Sachsen-Anhalt"}},{"name":"Leipziger Str.","postalCode":"06231","locality":"Bad Dürrenberg","municipality":{"key":"15088020","name":"Bad Dürrenberg, Solestadt","type":"Stadt"},"district":{"key":"15088","name":"Saalekreis","type":"Landkreis"},"federalState":{"key":"15","name":"Sachsen-Anhalt"}},{"name":"Lennewitzer Str.","postalCode":"06231","locality":"Bad Dürrenberg","municipality":{"key":"15088020","name":"Bad Dürrenberg, Solestadt","type":"Stadt"},"district":{"key":"15088","name":"Saalekreis","type":"Landkreis"},"federalState":{"key":"15","name":"Sachsen-Anhalt"}},{"name":"Lerchenweg","postalCode":"06231","locality":"Bad Dürrenberg","municipality":{"key":"15088020","name":"Bad Dürrenberg, Solestadt","type":"Stadt"},"district":{"key":"15088","name":"Saalekreis","type":"Landkreis"},"federalState":{"key":"15","name":"Sachsen-Anhalt"}},{"name":"Leunaer Str.","postalCode":"06231","locality":"Bad Dürrenberg","municipality":{"key":"15088020","name":"Bad Dürrenberg, Solestadt","type":"Stadt"},"district":{"key":"15088","name":"Saalekreis","type":"Landkreis"},"federalState":{"key":"15","name":"Sachsen-Anhalt"}},{"name":"Liebigstr.","postalCode":"06231","locality":"Bad Dürrenberg","municipality":{"key":"15088020","name":"Bad Dürrenberg, Solestadt","type":"Stadt"},"district":{"key":"15088","name":"Saalekreis","type":"Landkreis"},"federalState":{"key":"15","name":"Sachsen-Anhalt"}},{"name":"Lindenweg","postalCode":"06231","locality":"Bad Dürrenberg","municipality":{"key":"15088020","name":"Bad Dürrenberg, Solestadt","type":"Stadt"},"district":{"key":"15088","name":"Saalekreis","type":"Landkreis"},"federalState":{"key":"15","name":"Sachsen-Anhalt"}},{"name":"Lobbacher Str.","postalCode":"06231","locality":"Bad Dürrenberg","municipality":{"key":"15088020","name":"Bad Dürrenberg, Solestadt","type":"Stadt"},"district":{"key":"15088","name":"Saalekreis","type":"Landkreis"},"federalState":{"key":"15","name":"Sachsen-Anhalt"}},{"name":"Lönsweg","postalCode":"06231","locality":"Bad Dürrenberg","municipality":{"key":"15088020","name":"Bad Dürrenberg, Solestadt","type":"Stadt"},"district":{"key":"15088","name":"Saalekreis","type":"Landkreis"},"federalState":{"key":"15","name":"Sachsen-Anhalt"}},{"name":"Lutherstr.","postalCode":"06231","locality":"Bad Dürrenberg","municipality":{"key":"15088020","name":"Bad Dürrenberg, Solestadt","type":"Stadt"},"district":{"key":"15088","name":"Saalekreis","type":"Landkreis"},"federalState":{"key":"15","name":"Sachsen-Anhalt"}},{"name":"Lützener Platz","postalCode":"06231","locality":"Bad Dürrenberg","municipality":{"key":"15088020","name":"Bad Dürrenberg, Solestadt","type":"Stadt"},"district":{"key":"15088","name":"Saalekreis","type":"Landkreis"},"federalState":{"key":"15","name":"Sachsen-Anhalt"}},{"name":"Lützener Str.","postalCode":"06231","locality":"Bad Dürrenberg","municipality":{"key":"15088020","name":"Bad Dürrenberg, Solestadt","type":"Stadt"},"district":{"key":"15088","name":"Saalekreis","type":"Landkreis"},"federalState":{"key":"15","name":"Sachsen-Anhalt"}},{"name":"Marie-Curie-Str.","postalCode":"06231","locality":"Bad Dürrenberg","municipality":{"key":"15088020","name":"Bad Dürrenberg, Solestadt","type":"Stadt"},"district":{"key":"15088","name":"Saalekreis","type":"Landkreis"},"federalState":{"key":"15","name":"Sachsen-Anhalt"}},{"name":"Markt","postalCode":"06231","locality":"Bad Dürrenberg","municipality":{"key":"15088020","name":"Bad Dürrenberg, Solestadt","type":"Stadt"},"district":{"key":"15088","name":"Saalekreis","type":"Landkreis"},"federalState":{"key":"15","name":"Sachsen-Anhalt"}},{"name":"Marktweg","postalCode":"06231","locality":"Bad Dürrenberg","municipality":{"key":"15088020","name":"Bad Dürrenberg, Solestadt","type":"Stadt"},"district":{"key":"15088","name":"Saalekreis","type":"Landkreis"},"federalState":{"key":"15","name":"Sachsen-Anhalt"}},{"name":"Maschwitzer Weg","postalCode":"06231","locality":"Bad Dürrenberg","municipality":{"key":"15088020","name":"Bad Dürrenberg, Solestadt","type":"Stadt"},"district":{"key":"15088","name":"Saalekreis","type":"Landkreis"},"federalState":{"key":"15","name":"Sachsen-Anhalt"}},{"name":"Melanchthonstr.","postalCode":"06231","locality":"Bad Dürrenberg","municipality":{"key":"15088020","name":"Bad Dürrenberg, Solestadt","type":"Stadt"},"district":{"key":"15088","name":"Saalekreis","type":"Landkreis"},"federalState":{"key":"15","name":"Sachsen-Anhalt"}},{"name":"Merseburger Str.","postalCode":"06231","locality":"Bad Dürrenberg","municipality":{"key":"15088020","name":"Bad Dürrenberg, Solestadt","type":"Stadt"},"district":{"key":"15088","name":"Saalekreis","type":"Landkreis"},"federalState":{"key":"15","name":"Sachsen-Anhalt"}},{"name":"Mozartstr.","postalCode":"06231","locality":"Bad Dürrenberg","municipality":{"key":"15088020","name":"Bad Dürrenberg, Solestadt","type":"Stadt"},"district":{"key":"15088","name":"Saalekreis","type":"Landkreis"},"federalState":{"key":"15","name":"Sachsen-Anhalt"}},{"name":"Mühlenstr.","postalCode":"06231","locality":"Bad Dürrenberg","municipality":{"key":"15088020","name":"Bad Dürrenberg, Solestadt","type":"Stadt"},"district":{"key":"15088","name":"Saalekreis","type":"Landkreis"},"federalState":{"key":"15","name":"Sachsen-Anhalt"}},{"name":"Neue Lützener Str.","postalCode":"06231","locality":"Bad Dürrenberg","municipality":{"key":"15088020","name":"Bad Dürrenberg, Solestadt","type":"Stadt"},"district":{"key":"15088","name":"Saalekreis","type":"Landkreis"},"federalState":{"key":"15","name":"Sachsen-Anhalt"}},{"name":"Nieme","postalCode":"06231","locality":"Bad Dürrenberg","municipality":{"key":"15088020","name":"Bad Dürrenberg, Solestadt","type":"Stadt"},"district":{"key":"15088","name":"Saalekreis","type":"Landkreis"},"federalState":{"key":"15","name":"Sachsen-Anhalt"}},{"name":"Nordstr.","postalCode":"06231","locality":"Bad Dürrenberg","municipality":{"key":"15088020","name":"Bad Dürrenberg, Solestadt","type":"Stadt"},"district":{"key":"15088","name":"Saalekreis","type":"Landkreis"},"federalState":{"key":"15","name":"Sachsen-Anhalt"}},{"name":"OdF-Str.","postalCode":"06231","locality":"Bad Dürrenberg","municipality":{"key":"15088020","name":"Bad Dürrenberg, Solestadt","type":"Stadt"},"district":{"key":"15088","name":"Saalekreis","type":"Landkreis"},"federalState":{"key":"15","name":"Sachsen-Anhalt"}},{"name":"Oebleser Str.","postalCode":"06231","locality":"Bad Dürrenberg","municipality":{"key":"15088020","name":"Bad Dürrenberg, Solestadt","type":"Stadt"},"district":{"key":"15088","name":"Saalekreis","type":"Landkreis"},"federalState":{"key":"15","name":"Sachsen-Anhalt"}},{"name":"Oetzschener Str.","postalCode":"06231","locality":"Bad Dürrenberg","municipality":{"key":"15088020","name":"Bad Dürrenberg, Solestadt","type":"Stadt"},"district":{"key":"15088","name":"Saalekreis","type":"Landkreis"},"federalState":{"key":"15","name":"Sachsen-Anhalt"}},{"name":"Ostrauer Str.","postalCode":"06231","locality":"Bad Dürrenberg","municipality":{"key":"15088020","name":"Bad Dürrenberg, Solestadt","type":"Stadt"},"district":{"key":"15088","name":"Saalekreis","type":"Landkreis"},"federalState":{"key":"15","name":"Sachsen-Anhalt"}},{"name":"Ostwaldstr.","postalCode":"06231","locality":"Bad Dürrenberg","municipality":{"key":"15088020","name":"Bad Dürrenberg, Solestadt","type":"Stadt"},"district":{"key":"15088","name":"Saalekreis","type":"Landkreis"},"federalState":{"key":"15","name":"Sachsen-Anhalt"}},{"name":"Otto-Hahn-Ring","postalCode":"06231","locality":"Bad Dürrenberg","municipality":{"key":"15088020","name":"Bad Dürrenberg, Solestadt","type":"Stadt"},"district":{"key":"15088","name":"Saalekreis","type":"Landkreis"},"federalState":{"key":"15","name":"Sachsen-Anhalt"}},{"name":"Parkstr.","postalCode":"06231","locality":"Bad Dürrenberg","municipality":{"key":"15088020","name":"Bad Dürrenberg, Solestadt","type":"Stadt"},"district":{"key":"15088","name":"Saalekreis","type":"Landkreis"},"federalState":{"key":"15","name":"Sachsen-Anhalt"}},{"name":"Passage","postalCode":"06231","locality":"Bad Dürrenberg","municipality":{"key":"15088020","name":"Bad Dürrenberg, Solestadt","type":"Stadt"},"district":{"key":"15088","name":"Saalekreis","type":"Landkreis"},"federalState":{"key":"15","name":"Sachsen-Anhalt"}},{"name":"Pfeifberg","postalCode":"06231","locality":"Bad Dürrenberg","municipality":{"key":"15088020","name":"Bad Dürrenberg, Solestadt","type":"Stadt"},"district":{"key":"15088","name":"Saalekreis","type":"Landkreis"},"federalState":{"key":"15","name":"Sachsen-Anhalt"}},{"name":"Platz der Opfer des Faschismus","postalCode":"06231","locality":"Bad Dürrenberg","municipality":{"key":"15088020","name":"Bad Dürrenberg, Solestadt","type":"Stadt"},"district":{"key":"15088","name":"Saalekreis","type":"Landkreis"},"federalState":{"key":"15","name":"Sachsen-Anhalt"}},{"name":"Platz des Friedens","postalCode":"06231","locality":"Bad Dürrenberg","municipality":{"key":"15088020","name":"Bad Dürrenberg, Solestadt","type":"Stadt"},"district":{"key":"15088","name":"Saalekreis","type":"Landkreis"},"federalState":{"key":"15","name":"Sachsen-Anhalt"}},{"name":"Porbitzer Str.","postalCode":"06231","locality":"Bad Dürrenberg","municipality":{"key":"15088020","name":"Bad Dürrenberg, Solestadt","type":"Stadt"},"district":{"key":"15088","name":"Saalekreis","type":"Landkreis"},"federalState":{"key":"15","name":"Sachsen-Anhalt"}},{"name":"Promenade","postalCode":"06231","locality":"Bad Dürrenberg","municipality":{"key":"15088020","name":"Bad Dürrenberg, Solestadt","type":"Stadt"},"district":{"key":"15088","name":"Saalekreis","type":"Landkreis"},"federalState":{"key":"15","name":"Sachsen-Anhalt"}},{"name":"Puschkinweg","postalCode":"06231","locality":"Bad Dürrenberg","municipality":{"key":"15088020","name":"Bad Dürrenberg, Solestadt","type":"Stadt"},"district":{"key":"15088","name":"Saalekreis","type":"Landkreis"},"federalState":{"key":"15","name":"Sachsen-Anhalt"}},{"name":"Ragwitzer Str.","postalCode":"06231","locality":"Bad Dürrenberg","municipality":{"key":"15088020","name":"Bad Dürrenberg, Solestadt","type":"Stadt"},"district":{"key":"15088","name":"Saalekreis","type":"Landkreis"},"federalState":{"key":"15","name":"Sachsen-Anhalt"}},{"name":"Rampitzer Str.","postalCode":"06231","locality":"Bad Dürrenberg","municipality":{"key":"15088020","name":"Bad Dürrenberg, Solestadt","type":"Stadt"},"district":{"key":"15088","name":"Saalekreis","type":"Landkreis"},"federalState":{"key":"15","name":"Sachsen-Anhalt"}},{"name":"Rathenaustr.","postalCode":"06231","locality":"Bad Dürrenberg","municipality":{"key":"15088020","name":"Bad Dürrenberg, Solestadt","type":"Stadt"},"district":{"key":"15088","name":"Saalekreis","type":"Landkreis"},"federalState":{"key":"15","name":"Sachsen-Anhalt"}},{"name":"Richard-Wagner-Str.","postalCode":"06231","locality":"Bad Dürrenberg","municipality":{"key":"15088020","name":"Bad Dürrenberg, Solestadt","type":"Stadt"},"district":{"key":"15088","name":"Saalekreis","type":"Landkreis"},"federalState":{"key":"15","name":"Sachsen-Anhalt"}},{"name":"Ritterstr.","postalCode":"06231","locality":"Bad Dürrenberg","municipality":{"key":"15088020","name":"Bad Dürrenberg, Solestadt","type":"Stadt"},"district":{"key":"15088","name":"Saalekreis","type":"Landkreis"},"federalState":{"key":"15","name":"Sachsen-Anhalt"}},{"name":"Rosenweg","postalCode":"06231","locality":"Bad Dürrenberg","municipality":{"key":"15088020","name":"Bad Dürrenberg, Solestadt","type":"Stadt"},"district":{"key":"15088","name":"Saalekreis","type":"Landkreis"},"federalState":{"key":"15","name":"Sachsen-Anhalt"}},{"name":"Rudolf-Breitscheidt-Str.","postalCode":"06231","locality":"Bad Dürrenberg","municipality":{"key":"15088020","name":"Bad Dürrenberg, Solestadt","type":"Stadt"},"district":{"key":"15088","name":"Saalekreis","type":"Landkreis"},"federalState":{"key":"15","name":"Sachsen-Anhalt"}},{"name":"Rüsterweg","postalCode":"06231","locality":"Bad Dürrenberg","municipality":{"key":"15088020","name":"Bad Dürrenberg, Solestadt","type":"Stadt"},"district":{"key":"15088","name":"Saalekreis","type":"Landkreis"},"federalState":{"key":"15","name":"Sachsen-Anhalt"}},{"name":"Saalestr.","postalCode":"06231","locality":"Bad Dürrenberg","municipality":{"key":"15088020","name":"Bad Dürrenberg, Solestadt","type":"Stadt"},"district":{"key":"15088","name":"Saalekreis","type":"Landkreis"},"federalState":{"key":"15","name":"Sachsen-Anhalt"}},{"name":"Salinestr.","postalCode":"06231","locality":"Bad Dürrenberg","municipality":{"key":"15088020","name":"Bad Dürrenberg, Solestadt","type":"Stadt"},"district":{"key":"15088","name":"Saalekreis","type":"Landkreis"},"federalState":{"key":"15","name":"Sachsen-Anhalt"}},{"name":"Salzstr.","postalCode":"06231","locality":"Bad Dürrenberg","municipality":{"key":"15088020","name":"Bad Dürrenberg, Solestadt","type":"Stadt"},"district":{"key":"15088","name":"Saalekreis","type":"Landkreis"},"federalState":{"key":"15","name":"Sachsen-Anhalt"}},{"name":"Schenkenweg","postalCode":"06231","locality":"Bad Dürrenberg","municipality":{"key":"15088020","name":"Bad Dürrenberg, Solestadt","type":"Stadt"},"district":{"key":"15088","name":"Saalekreis","type":"Landkreis"},"federalState":{"key":"15","name":"Sachsen-Anhalt"}},{"name":"Schillerweg","postalCode":"06231","locality":"Bad Dürrenberg","municipality":{"key":"15088020","name":"Bad Dürrenberg, Solestadt","type":"Stadt"},"district":{"key":"15088","name":"Saalekreis","type":"Landkreis"},"federalState":{"key":"15","name":"Sachsen-Anhalt"}},{"name":"Schkeuditzer Str.","postalCode":"06231","locality":"Bad Dürrenberg","municipality":{"key":"15088020","name":"Bad Dürrenberg, Solestadt","type":"Stadt"},"district":{"key":"15088","name":"Saalekreis","type":"Landkreis"},"federalState":{"key":"15","name":"Sachsen-Anhalt"}},{"name":"Schladebacher Str.","postalCode":"06231","locality":"Bad Dürrenberg","municipality":{"key":"15088020","name":"Bad Dürrenberg, Solestadt","type":"Stadt"},"district":{"key":"15088","name":"Saalekreis","type":"Landkreis"},"federalState":{"key":"15","name":"Sachsen-Anhalt"}},{"name":"Schleusenstr.","postalCode":"06231","locality":"Bad Dürrenberg","municipality":{"key":"15088020","name":"Bad Dürrenberg, Solestadt","type":"Stadt"},"district":{"key":"15088","name":"Saalekreis","type":"Landkreis"},"federalState":{"key":"15","name":"Sachsen-Anhalt"}},{"name":"Schreberstr.","postalCode":"06231","locality":"Bad Dürrenberg","municipality":{"key":"15088020","name":"Bad Dürrenberg, Solestadt","type":"Stadt"},"district":{"key":"15088","name":"Saalekreis","type":"Landkreis"},"federalState":{"key":"15","name":"Sachsen-Anhalt"}},{"name":"Schulplatz","postalCode":"06231","locality":"Bad Dürrenberg","municipality":{"key":"15088020","name":"Bad Dürrenberg, Solestadt","type":"Stadt"},"district":{"key":"15088","name":"Saalekreis","type":"Landkreis"},"federalState":{"key":"15","name":"Sachsen-Anhalt"}},{"name":"Schulstr.","postalCode":"06231","locality":"Bad Dürrenberg","municipality":{"key":"15088020","name":"Bad Dürrenberg, Solestadt","type":"Stadt"},"district":{"key":"15088","name":"Saalekreis","type":"Landkreis"},"federalState":{"key":"15","name":"Sachsen-Anhalt"}},{"name":"Seumestr.","postalCode":"06231","locality":"Bad Dürrenberg","municipality":{"key":"15088020","name":"Bad Dürrenberg, Solestadt","type":"Stadt"},"district":{"key":"15088","name":"Saalekreis","type":"Landkreis"},"federalState":{"key":"15","name":"Sachsen-Anhalt"}},{"name":"Siedergasse","postalCode":"06231","locality":"Bad Dürrenberg","municipality":{"key":"15088020","name":"Bad Dürrenberg, Solestadt","type":"Stadt"},"district":{"key":"15088","name":"Saalekreis","type":"Landkreis"},"federalState":{"key":"15","name":"Sachsen-Anhalt"}},{"name":"Siedlungsstr.","postalCode":"06231","locality":"Bad Dürrenberg","municipality":{"key":"15088020","name":"Bad Dürrenberg, Solestadt","type":"Stadt"},"district":{"key":"15088","name":"Saalekreis","type":"Landkreis"},"federalState":{"key":"15","name":"Sachsen-Anhalt"}},{"name":"Soleweg","postalCode":"06231","locality":"Bad Dürrenberg","municipality":{"key":"15088020","name":"Bad Dürrenberg, Solestadt","type":"Stadt"},"district":{"key":"15088","name":"Saalekreis","type":"Landkreis"},"federalState":{"key":"15","name":"Sachsen-Anhalt"}},{"name":"Solquelle","postalCode":"06231","locality":"Bad Dürrenberg","municipality":{"key":"15088020","name":"Bad Dürrenberg, Solestadt","type":"Stadt"},"district":{"key":"15088","name":"Saalekreis","type":"Landkreis"},"federalState":{"key":"15","name":"Sachsen-Anhalt"}},{"name":"Sophiestr.","postalCode":"06231","locality":"Bad Dürrenberg","municipality":{"key":"15088020","name":"Bad Dürrenberg, Solestadt","type":"Stadt"},"district":{"key":"15088","name":"Saalekreis","type":"Landkreis"},"federalState":{"key":"15","name":"Sachsen-Anhalt"}},{"name":"Steigerweg","postalCode":"06231","locality":"Bad Dürrenberg","municipality":{"key":"15088020","name":"Bad Dürrenberg, Solestadt","type":"Stadt"},"district":{"key":"15088","name":"Saalekreis","type":"Landkreis"},"federalState":{"key":"15","name":"Sachsen-Anhalt"}},{"name":"Sterlingsweg","postalCode":"06231","locality":"Bad Dürrenberg","municipality":{"key":"15088020","name":"Bad Dürrenberg, Solestadt","type":"Stadt"},"district":{"key":"15088","name":"Saalekreis","type":"Landkreis"},"federalState":{"key":"15","name":"Sachsen-Anhalt"}},{"name":"Stollengasse","postalCode":"06231","locality":"Bad Dürrenberg","municipality":{"key":"15088020","name":"Bad Dürrenberg, Solestadt","type":"Stadt"},"district":{"key":"15088","name":"Saalekreis","type":"Landkreis"},"federalState":{"key":"15","name":"Sachsen-Anhalt"}},{"name":"Teichstr.","postalCode":"06231","locality":"Bad Dürrenberg","municipality":{"key":"15088020","name":"Bad Dürrenberg, Solestadt","type":"Stadt"},"district":{"key":"15088","name":"Saalekreis","type":"Landkreis"},"federalState":{"key":"15","name":"Sachsen-Anhalt"}},{"name":"Teichweg","postalCode":"06231","locality":"Bad Dürrenberg","municipality":{"key":"15088020","name":"Bad Dürrenberg, Solestadt","type":"Stadt"},"district":{"key":"15088","name":"Saalekreis","type":"Landkreis"},"federalState":{"key":"15","name":"Sachsen-Anhalt"}},{"name":"Teuditzer Kirchplatz","postalCode":"06231","locality":"Bad Dürrenberg","municipality":{"key":"15088020","name":"Bad Dürrenberg, Solestadt","type":"Stadt"},"district":{"key":"15088","name":"Saalekreis","type":"Landkreis"},"federalState":{"key":"15","name":"Sachsen-Anhalt"}},{"name":"Teuditzer Str.","postalCode":"06231","locality":"Bad Dürrenberg","municipality":{"key":"15088020","name":"Bad Dürrenberg, Solestadt","type":"Stadt"},"district":{"key":"15088","name":"Saalekreis","type":"Landkreis"},"federalState":{"key":"15","name":"Sachsen-Anhalt"}},{"name":"Teuditzer Weg","postalCode":"06231","locality":"Bad Dürrenberg","municipality":{"key":"15088020","name":"Bad Dürrenberg, Solestadt","type":"Stadt"},"district":{"key":"15088","name":"Saalekreis","type":"Landkreis"},"federalState":{"key":"15","name":"Sachsen-Anhalt"}},{"name":"Thomas-Müntzer-Str.","postalCode":"06231","locality":"Bad Dürrenberg","municipality":{"key":"15088020","name":"Bad Dürrenberg, Solestadt","type":"Stadt"},"district":{"key":"15088","name":"Saalekreis","type":"Landkreis"},"federalState":{"key":"15","name":"Sachsen-Anhalt"}},{"name":"Tollwitzer Platz","postalCode":"06231","locality":"Bad Dürrenberg","municipality":{"key":"15088020","name":"Bad Dürrenberg, Solestadt","type":"Stadt"},"district":{"key":"15088","name":"Saalekreis","type":"Landkreis"},"federalState":{"key":"15","name":"Sachsen-Anhalt"}},{"name":"Tollwitzer Weg","postalCode":"06231","locality":"Bad Dürrenberg","municipality":{"key":"15088020","name":"Bad Dürrenberg, Solestadt","type":"Stadt"},"district":{"key":"15088","name":"Saalekreis","type":"Landkreis"},"federalState":{"key":"15","name":"Sachsen-Anhalt"}},{"name":"Trebener Str.","postalCode":"06231","locality":"Bad Dürrenberg","municipality":{"key":"15088020","name":"Bad Dürrenberg, Solestadt","type":"Stadt"},"district":{"key":"15088","name":"Saalekreis","type":"Landkreis"},"federalState":{"key":"15","name":"Sachsen-Anhalt"}},{"name":"Trift","postalCode":"06231","locality":"Bad Dürrenberg","municipality":{"key":"15088020","name":"Bad Dürrenberg, Solestadt","type":"Stadt"},"district":{"key":"15088","name":"Saalekreis","type":"Landkreis"},"federalState":{"key":"15","name":"Sachsen-Anhalt"}},{"name":"Triftweg","postalCode":"06231","locality":"Bad Dürrenberg","municipality":{"key":"15088020","name":"Bad Dürrenberg, Solestadt","type":"Stadt"},"district":{"key":"15088","name":"Saalekreis","type":"Landkreis"},"federalState":{"key":"15","name":"Sachsen-Anhalt"}},{"name":"Ulmenweg","postalCode":"06231","locality":"Bad Dürrenberg","municipality":{"key":"15088020","name":"Bad Dürrenberg, Solestadt","type":"Stadt"},"district":{"key":"15088","name":"Saalekreis","type":"Landkreis"},"federalState":{"key":"15","name":"Sachsen-Anhalt"}},{"name":"Vestaer Str.","postalCode":"06231","locality":"Bad Dürrenberg","municipality":{"key":"15088020","name":"Bad Dürrenberg, Solestadt","type":"Stadt"},"district":{"key":"15088","name":"Saalekreis","type":"Landkreis"},"federalState":{"key":"15","name":"Sachsen-Anhalt"}},{"name":"Vordere Gasse","postalCode":"06231","locality":"Bad Dürrenberg","municipality":{"key":"15088020","name":"Bad Dürrenberg, Solestadt","type":"Stadt"},"district":{"key":"15088","name":"Saalekreis","type":"Landkreis"},"federalState":{"key":"15","name":"Sachsen-Anhalt"}},{"name":"Vorderschanze","postalCode":"06231","locality":"Bad Dürrenberg","municipality":{"key":"15088020","name":"Bad Dürrenberg, Solestadt","type":"Stadt"},"district":{"key":"15088","name":"Saalekreis","type":"Landkreis"},"federalState":{"key":"15","name":"Sachsen-Anhalt"}},{"name":"Waldläuferweg","postalCode":"06231","locality":"Bad Dürrenberg","municipality":{"key":"15088020","name":"Bad Dürrenberg, Solestadt","type":"Stadt"},"district":{"key":"15088","name":"Saalekreis","type":"Landkreis"},"federalState":{"key":"15","name":"Sachsen-Anhalt"}},{"name":"Weinberg","postalCode":"06231","locality":"Bad Dürrenberg","municipality":{"key":"15088020","name":"Bad Dürrenberg, Solestadt","type":"Stadt"},"district":{"key":"15088","name":"Saalekreis","type":"Landkreis"},"federalState":{"key":"15","name":"Sachsen-Anhalt"}},{"name":"Weißenfelser Str.","postalCode":"06231","locality":"Bad Dürrenberg","municipality":{"key":"15088020","name":"Bad Dürrenberg, Solestadt","type":"Stadt"},"district":{"key":"15088","name":"Saalekreis","type":"Landkreis"},"federalState":{"key":"15","name":"Sachsen-Anhalt"}},{"name":"Wilmstr.","postalCode":"06231","locality":"Bad Dürrenberg","municipality":{"key":"15088020","name":"Bad Dürrenberg, Solestadt","type":"Stadt"},"district":{"key":"15088","name":"Saalekreis","type":"Landkreis"},"federalState":{"key":"15","name":"Sachsen-Anhalt"}},{"name":"Windmühlenstr.","postalCode":"06231","locality":"Bad Dürrenberg","municipality":{"key":"15088020","name":"Bad Dürrenberg, Solestadt","type":"Stadt"},"district":{"key":"15088","name":"Saalekreis","type":"Landkreis"},"federalState":{"key":"15","name":"Sachsen-Anhalt"}},{"name":"Windmuhlenweg","postalCode":"06231","locality":"Bad Dürrenberg","municipality":{"key":"15088020","name":"Bad Dürrenberg, Solestadt","type":"Stadt"},"district":{"key":"15088","name":"Saalekreis","type":"Landkreis"},"federalState":{"key":"15","name":"Sachsen-Anhalt"}},{"name":"Windmühlnstr.","postalCode":"06231","locality":"Bad Dürrenberg","municipality":{"key":"15088020","name":"Bad Dürrenberg, Solestadt","type":"Stadt"},"district":{"key":"15088","name":"Saalekreis","type":"Landkreis"},"federalState":{"key":"15","name":"Sachsen-Anhalt"}},{"name":"Witzlebenweg","postalCode":"06231","locality":"Bad Dürrenberg","municipality":{"key":"15088020","name":"Bad Dürrenberg, Solestadt","type":"Stadt"},"district":{"key":"15088","name":"Saalekreis","type":"Landkreis"},"federalState":{"key":"15","name":"Sachsen-Anhalt"}},{"name":"Wöhlerstr.","postalCode":"06231","locality":"Bad Dürrenberg","municipality":{"key":"15088020","name":"Bad Dürrenberg, Solestadt","type":"Stadt"},"district":{"key":"15088","name":"Saalekreis","type":"Landkreis"},"federalState":{"key":"15","name":"Sachsen-Anhalt"}},{"name":"Ziegelgasse","postalCode":"06231","locality":"Bad Dürrenberg","municipality":{"key":"15088020","name":"Bad Dürrenberg, Solestadt","type":"Stadt"},"district":{"key":"15088","name":"Saalekreis","type":"Landkreis"},"federalState":{"key":"15","name":"Sachsen-Anhalt"}},{"name":"Zum Herrenteich","postalCode":"06231","locality":"Bad Dürrenberg","municipality":{"key":"15088020","name":"Bad Dürrenberg, Solestadt","type":"Stadt"},"district":{"key":"15088","name":"Saalekreis","type":"Landkreis"},"federalState":{"key":"15","name":"Sachsen-Anhalt"}},{"name":"Zum Herrnteich","postalCode":"06231","locality":"Bad Dürrenberg","municipality":{"key":"15088020","name":"Bad Dürrenberg, Solestadt","type":"Stadt"},"district":{"key":"15088","name":"Saalekreis","type":"Landkreis"},"federalState":{"key":"15","name":"Sachsen-Anhalt"}},{"name":"Zum Kippertal","postalCode":"06231","locality":"Bad Dürrenberg","municipality":{"key":"15088020","name":"Bad Dürrenberg, Solestadt","type":"Stadt"},"district":{"key":"15088","name":"Saalekreis","type":"Landkreis"},"federalState":{"key":"15","name":"Sachsen-Anhalt"}},{"name":"Zum Sportplatz","postalCode":"06231","locality":"Bad Dürrenberg","municipality":{"key":"15088020","name":"Bad Dürrenberg, Solestadt","type":"Stadt"},"district":{"key":"15088","name":"Saalekreis","type":"Landkreis"},"federalState":{"key":"15","name":"Sachsen-Anhalt"}},{"name":"Zum Wäldchen","postalCode":"06231","locality":"Bad Dürrenberg","municipality":{"key":"15088020","name":"Bad Dürrenberg, Solestadt","type":"Stadt"},"district":{"key":"15088","name":"Saalekreis","type":"Landkreis"},"federalState":{"key":"15","name":"Sachsen-Anhalt"}},{"name":"Zwergweg","postalCode":"06231","locality":"Bad Dürrenberg","municipality":{"key":"15088020","name":"Bad Dürrenberg, Solestadt","type":"Stadt"},"district":{"key":"15088","name":"Saalekreis","type":"Landkreis"},"federalState":{"key":"15","name":"Sachsen-Anhalt"}},]