[{"name":"Abelers Kamp","postalCode":"26340","locality":"Zetel","municipality":{"key":"03455027","name":"Zetel","type":"Kreisangehörige_Gemeinde"},"district":{"key":"03455","name":"Friesland","type":"Landkreis"},"federalState":{"key":"03","name":"Niedersachsen"}},{"name":"Achterweg","postalCode":"26340","locality":"Zetel","municipality":{"key":"03455027","name":"Zetel","type":"Kreisangehörige_Gemeinde"},"district":{"key":"03455","name":"Friesland","type":"Landkreis"},"federalState":{"key":"03","name":"Niedersachsen"}},{"name":"Adlerweg","postalCode":"26340","locality":"Zetel","municipality":{"key":"03455027","name":"Zetel","type":"Kreisangehörige_Gemeinde"},"district":{"key":"03455","name":"Friesland","type":"Landkreis"},"federalState":{"key":"03","name":"Niedersachsen"}},{"name":"Ahlhorns Kamp","postalCode":"26340","locality":"Zetel","municipality":{"key":"03455027","name":"Zetel","type":"Kreisangehörige_Gemeinde"},"district":{"key":"03455","name":"Friesland","type":"Landkreis"},"federalState":{"key":"03","name":"Niedersachsen"}},{"name":"Ahornstr.","postalCode":"26340","locality":"Zetel","municipality":{"key":"03455027","name":"Zetel","type":"Kreisangehörige_Gemeinde"},"district":{"key":"03455","name":"Friesland","type":"Landkreis"},"federalState":{"key":"03","name":"Niedersachsen"}},{"name":"Alte Bleiche","postalCode":"26340","locality":"Zetel","municipality":{"key":"03455027","name":"Zetel","type":"Kreisangehörige_Gemeinde"},"district":{"key":"03455","name":"Friesland","type":"Landkreis"},"federalState":{"key":"03","name":"Niedersachsen"}},{"name":"Alter Postweg","postalCode":"26340","locality":"Zetel","municipality":{"key":"03455027","name":"Zetel","type":"Kreisangehörige_Gemeinde"},"district":{"key":"03455","name":"Friesland","type":"Landkreis"},"federalState":{"key":"03","name":"Niedersachsen"}},{"name":"Alte Schanze","postalCode":"26340","locality":"Zetel","municipality":{"key":"03455027","name":"Zetel","type":"Kreisangehörige_Gemeinde"},"district":{"key":"03455","name":"Friesland","type":"Landkreis"},"federalState":{"key":"03","name":"Niedersachsen"}},{"name":"Altmühlweg","postalCode":"26340","locality":"Zetel","municipality":{"key":"03455027","name":"Zetel","type":"Kreisangehörige_Gemeinde"},"district":{"key":"03455","name":"Friesland","type":"Landkreis"},"federalState":{"key":"03","name":"Niedersachsen"}},{"name":"Am Alten Sportplatz","postalCode":"26340","locality":"Zetel","municipality":{"key":"03455027","name":"Zetel","type":"Kreisangehörige_Gemeinde"},"district":{"key":"03455","name":"Friesland","type":"Landkreis"},"federalState":{"key":"03","name":"Niedersachsen"}},{"name":"Am Bahnhof","postalCode":"26340","locality":"Zetel","municipality":{"key":"03455027","name":"Zetel","type":"Kreisangehörige_Gemeinde"},"district":{"key":"03455","name":"Friesland","type":"Landkreis"},"federalState":{"key":"03","name":"Niedersachsen"}},{"name":"Am Falkenholz","postalCode":"26340","locality":"Zetel","municipality":{"key":"03455027","name":"Zetel","type":"Kreisangehörige_Gemeinde"},"district":{"key":"03455","name":"Friesland","type":"Landkreis"},"federalState":{"key":"03","name":"Niedersachsen"}},{"name":"Am Flugplatz","postalCode":"26340","locality":"Zetel","municipality":{"key":"03455027","name":"Zetel","type":"Kreisangehörige_Gemeinde"},"district":{"key":"03455","name":"Friesland","type":"Landkreis"},"federalState":{"key":"03","name":"Niedersachsen"}},{"name":"Am Haberland","postalCode":"26340","locality":"Zetel","municipality":{"key":"03455027","name":"Zetel","type":"Kreisangehörige_Gemeinde"},"district":{"key":"03455","name":"Friesland","type":"Landkreis"},"federalState":{"key":"03","name":"Niedersachsen"}},{"name":"Am Hankenhof","postalCode":"26340","locality":"Zetel","municipality":{"key":"03455027","name":"Zetel","type":"Kreisangehörige_Gemeinde"},"district":{"key":"03455","name":"Friesland","type":"Landkreis"},"federalState":{"key":"03","name":"Niedersachsen"}},{"name":"Am Kamp","postalCode":"26340","locality":"Zetel","municipality":{"key":"03455027","name":"Zetel","type":"Kreisangehörige_Gemeinde"},"district":{"key":"03455","name":"Friesland","type":"Landkreis"},"federalState":{"key":"03","name":"Niedersachsen"}},{"name":"Am Markt","postalCode":"26340","locality":"Zetel","municipality":{"key":"03455027","name":"Zetel","type":"Kreisangehörige_Gemeinde"},"district":{"key":"03455","name":"Friesland","type":"Landkreis"},"federalState":{"key":"03","name":"Niedersachsen"}},{"name":"Ammerscher Weg","postalCode":"26340","locality":"Zetel","municipality":{"key":"03455027","name":"Zetel","type":"Kreisangehörige_Gemeinde"},"district":{"key":"03455","name":"Friesland","type":"Landkreis"},"federalState":{"key":"03","name":"Niedersachsen"}},{"name":"Am Mühlenbach","postalCode":"26340","locality":"Zetel","municipality":{"key":"03455027","name":"Zetel","type":"Kreisangehörige_Gemeinde"},"district":{"key":"03455","name":"Friesland","type":"Landkreis"},"federalState":{"key":"03","name":"Niedersachsen"}},{"name":"Am Runden Moor","postalCode":"26340","locality":"Zetel","municipality":{"key":"03455027","name":"Zetel","type":"Kreisangehörige_Gemeinde"},"district":{"key":"03455","name":"Friesland","type":"Landkreis"},"federalState":{"key":"03","name":"Niedersachsen"}},{"name":"Amselweg","postalCode":"26340","locality":"Zetel","municipality":{"key":"03455027","name":"Zetel","type":"Kreisangehörige_Gemeinde"},"district":{"key":"03455","name":"Friesland","type":"Landkreis"},"federalState":{"key":"03","name":"Niedersachsen"}},{"name":"Am Streek","postalCode":"26340","locality":"Zetel","municipality":{"key":"03455027","name":"Zetel","type":"Kreisangehörige_Gemeinde"},"district":{"key":"03455","name":"Friesland","type":"Landkreis"},"federalState":{"key":"03","name":"Niedersachsen"}},{"name":"Am Tegelbusch","postalCode":"26340","locality":"Zetel","municipality":{"key":"03455027","name":"Zetel","type":"Kreisangehörige_Gemeinde"},"district":{"key":"03455","name":"Friesland","type":"Landkreis"},"federalState":{"key":"03","name":"Niedersachsen"}},{"name":"Am Teich","postalCode":"26340","locality":"Zetel","municipality":{"key":"03455027","name":"Zetel","type":"Kreisangehörige_Gemeinde"},"district":{"key":"03455","name":"Friesland","type":"Landkreis"},"federalState":{"key":"03","name":"Niedersachsen"}},{"name":"Am Urwald","postalCode":"26340","locality":"Zetel","municipality":{"key":"03455027","name":"Zetel","type":"Kreisangehörige_Gemeinde"},"district":{"key":"03455","name":"Friesland","type":"Landkreis"},"federalState":{"key":"03","name":"Niedersachsen"}},{"name":"Am Wall","postalCode":"26340","locality":"Zetel","municipality":{"key":"03455027","name":"Zetel","type":"Kreisangehörige_Gemeinde"},"district":{"key":"03455","name":"Friesland","type":"Landkreis"},"federalState":{"key":"03","name":"Niedersachsen"}},{"name":"Am Zwinger","postalCode":"26340","locality":"Zetel","municipality":{"key":"03455027","name":"Zetel","type":"Kreisangehörige_Gemeinde"},"district":{"key":"03455","name":"Friesland","type":"Landkreis"},"federalState":{"key":"03","name":"Niedersachsen"}},{"name":"An den Schlossweiden","postalCode":"26340","locality":"Zetel","municipality":{"key":"03455027","name":"Zetel","type":"Kreisangehörige_Gemeinde"},"district":{"key":"03455","name":"Friesland","type":"Landkreis"},"federalState":{"key":"03","name":"Niedersachsen"}},{"name":"An der Alten Bäke","postalCode":"26340","locality":"Zetel","municipality":{"key":"03455027","name":"Zetel","type":"Kreisangehörige_Gemeinde"},"district":{"key":"03455","name":"Friesland","type":"Landkreis"},"federalState":{"key":"03","name":"Niedersachsen"}},{"name":"An der Eiche","postalCode":"26340","locality":"Zetel","municipality":{"key":"03455027","name":"Zetel","type":"Kreisangehörige_Gemeinde"},"district":{"key":"03455","name":"Friesland","type":"Landkreis"},"federalState":{"key":"03","name":"Niedersachsen"}},{"name":"An der Hasenweide","postalCode":"26340","locality":"Zetel","municipality":{"key":"03455027","name":"Zetel","type":"Kreisangehörige_Gemeinde"},"district":{"key":"03455","name":"Friesland","type":"Landkreis"},"federalState":{"key":"03","name":"Niedersachsen"}},{"name":"An der Kiesgrube","postalCode":"26340","locality":"Zetel","municipality":{"key":"03455027","name":"Zetel","type":"Kreisangehörige_Gemeinde"},"district":{"key":"03455","name":"Friesland","type":"Landkreis"},"federalState":{"key":"03","name":"Niedersachsen"}},{"name":"An der Tonkuhle","postalCode":"26340","locality":"Zetel","municipality":{"key":"03455027","name":"Zetel","type":"Kreisangehörige_Gemeinde"},"district":{"key":"03455","name":"Friesland","type":"Landkreis"},"federalState":{"key":"03","name":"Niedersachsen"}},{"name":"An'n Swarten Pohl","postalCode":"26340","locality":"Zetel","municipality":{"key":"03455027","name":"Zetel","type":"Kreisangehörige_Gemeinde"},"district":{"key":"03455","name":"Friesland","type":"Landkreis"},"federalState":{"key":"03","name":"Niedersachsen"}},{"name":"Anton-Franz-Str.","postalCode":"26340","locality":"Zetel","municipality":{"key":"03455027","name":"Zetel","type":"Kreisangehörige_Gemeinde"},"district":{"key":"03455","name":"Friesland","type":"Landkreis"},"federalState":{"key":"03","name":"Niedersachsen"}},{"name":"Astede","postalCode":"26340","locality":"Zetel","municipality":{"key":"03455027","name":"Zetel","type":"Kreisangehörige_Gemeinde"},"district":{"key":"03455","name":"Friesland","type":"Landkreis"},"federalState":{"key":"03","name":"Niedersachsen"}},{"name":"August-Hinrichs-Str.","postalCode":"26340","locality":"Zetel","municipality":{"key":"03455027","name":"Zetel","type":"Kreisangehörige_Gemeinde"},"district":{"key":"03455","name":"Friesland","type":"Landkreis"},"federalState":{"key":"03","name":"Niedersachsen"}},{"name":"Baasenmeersstr.","postalCode":"26340","locality":"Zetel","municipality":{"key":"03455027","name":"Zetel","type":"Kreisangehörige_Gemeinde"},"district":{"key":"03455","name":"Friesland","type":"Landkreis"},"federalState":{"key":"03","name":"Niedersachsen"}},{"name":"Bahnhofstr.","postalCode":"26340","locality":"Zetel","municipality":{"key":"03455027","name":"Zetel","type":"Kreisangehörige_Gemeinde"},"district":{"key":"03455","name":"Friesland","type":"Landkreis"},"federalState":{"key":"03","name":"Niedersachsen"}},{"name":"Bahnweg","postalCode":"26340","locality":"Zetel","municipality":{"key":"03455027","name":"Zetel","type":"Kreisangehörige_Gemeinde"},"district":{"key":"03455","name":"Friesland","type":"Landkreis"},"federalState":{"key":"03","name":"Niedersachsen"}},{"name":"Bäkweg","postalCode":"26340","locality":"Zetel","municipality":{"key":"03455027","name":"Zetel","type":"Kreisangehörige_Gemeinde"},"district":{"key":"03455","name":"Friesland","type":"Landkreis"},"federalState":{"key":"03","name":"Niedersachsen"}},{"name":"Bentshöcht","postalCode":"26340","locality":"Zetel","municipality":{"key":"03455027","name":"Zetel","type":"Kreisangehörige_Gemeinde"},"district":{"key":"03455","name":"Friesland","type":"Landkreis"},"federalState":{"key":"03","name":"Niedersachsen"}},{"name":"Betonstr.","postalCode":"26340","locality":"Zetel","municipality":{"key":"03455027","name":"Zetel","type":"Kreisangehörige_Gemeinde"},"district":{"key":"03455","name":"Friesland","type":"Landkreis"},"federalState":{"key":"03","name":"Niedersachsen"}},{"name":"Bienenlehrpfad","postalCode":"26340","locality":"Zetel","municipality":{"key":"03455027","name":"Zetel","type":"Kreisangehörige_Gemeinde"},"district":{"key":"03455","name":"Friesland","type":"Landkreis"},"federalState":{"key":"03","name":"Niedersachsen"}},{"name":"Birkenweg","postalCode":"26340","locality":"Zetel","municipality":{"key":"03455027","name":"Zetel","type":"Kreisangehörige_Gemeinde"},"district":{"key":"03455","name":"Friesland","type":"Landkreis"},"federalState":{"key":"03","name":"Niedersachsen"}},{"name":"Birkhuhnweg","postalCode":"26340","locality":"Zetel","municipality":{"key":"03455027","name":"Zetel","type":"Kreisangehörige_Gemeinde"},"district":{"key":"03455","name":"Friesland","type":"Landkreis"},"federalState":{"key":"03","name":"Niedersachsen"}},{"name":"Blauhander Str.","postalCode":"26340","locality":"Zetel","municipality":{"key":"03455027","name":"Zetel","type":"Kreisangehörige_Gemeinde"},"district":{"key":"03455","name":"Friesland","type":"Landkreis"},"federalState":{"key":"03","name":"Niedersachsen"}},{"name":"Bleichenweg","postalCode":"26340","locality":"Zetel","municipality":{"key":"03455027","name":"Zetel","type":"Kreisangehörige_Gemeinde"},"district":{"key":"03455","name":"Friesland","type":"Landkreis"},"federalState":{"key":"03","name":"Niedersachsen"}},{"name":"Bley's Patt","postalCode":"26340","locality":"Zetel","municipality":{"key":"03455027","name":"Zetel","type":"Kreisangehörige_Gemeinde"},"district":{"key":"03455","name":"Friesland","type":"Landkreis"},"federalState":{"key":"03","name":"Niedersachsen"}},{"name":"Bohlenberger Str.","postalCode":"26340","locality":"Zetel","municipality":{"key":"03455027","name":"Zetel","type":"Kreisangehörige_Gemeinde"},"district":{"key":"03455","name":"Friesland","type":"Landkreis"},"federalState":{"key":"03","name":"Niedersachsen"}},{"name":"Bohlenskamp","postalCode":"26340","locality":"Zetel","municipality":{"key":"03455027","name":"Zetel","type":"Kreisangehörige_Gemeinde"},"district":{"key":"03455","name":"Friesland","type":"Landkreis"},"federalState":{"key":"03","name":"Niedersachsen"}},{"name":"Braampatt","postalCode":"26340","locality":"Zetel","municipality":{"key":"03455027","name":"Zetel","type":"Kreisangehörige_Gemeinde"},"district":{"key":"03455","name":"Friesland","type":"Landkreis"},"federalState":{"key":"03","name":"Niedersachsen"}},{"name":"Braamweg","postalCode":"26340","locality":"Zetel","municipality":{"key":"03455027","name":"Zetel","type":"Kreisangehörige_Gemeinde"},"district":{"key":"03455","name":"Friesland","type":"Landkreis"},"federalState":{"key":"03","name":"Niedersachsen"}},{"name":"Breslauer Str.","postalCode":"26340","locality":"Zetel","municipality":{"key":"03455027","name":"Zetel","type":"Kreisangehörige_Gemeinde"},"district":{"key":"03455","name":"Friesland","type":"Landkreis"},"federalState":{"key":"03","name":"Niedersachsen"}},{"name":"Brodschapp","postalCode":"26340","locality":"Zetel","municipality":{"key":"03455027","name":"Zetel","type":"Kreisangehörige_Gemeinde"},"district":{"key":"03455","name":"Friesland","type":"Landkreis"},"federalState":{"key":"03","name":"Niedersachsen"}},{"name":"Brunkens Weg","postalCode":"26340","locality":"Zetel","municipality":{"key":"03455027","name":"Zetel","type":"Kreisangehörige_Gemeinde"},"district":{"key":"03455","name":"Friesland","type":"Landkreis"},"federalState":{"key":"03","name":"Niedersachsen"}},{"name":"Buchenweg","postalCode":"26340","locality":"Zetel","municipality":{"key":"03455027","name":"Zetel","type":"Kreisangehörige_Gemeinde"},"district":{"key":"03455","name":"Friesland","type":"Landkreis"},"federalState":{"key":"03","name":"Niedersachsen"}},{"name":"Bürgermeister-Röbke-Str.","postalCode":"26340","locality":"Zetel","municipality":{"key":"03455027","name":"Zetel","type":"Kreisangehörige_Gemeinde"},"district":{"key":"03455","name":"Friesland","type":"Landkreis"},"federalState":{"key":"03","name":"Niedersachsen"}},{"name":"Burgstr.","postalCode":"26340","locality":"Zetel","municipality":{"key":"03455027","name":"Zetel","type":"Kreisangehörige_Gemeinde"},"district":{"key":"03455","name":"Friesland","type":"Landkreis"},"federalState":{"key":"03","name":"Niedersachsen"}},{"name":"Buschweg","postalCode":"26340","locality":"Zetel","municipality":{"key":"03455027","name":"Zetel","type":"Kreisangehörige_Gemeinde"},"district":{"key":"03455","name":"Friesland","type":"Landkreis"},"federalState":{"key":"03","name":"Niedersachsen"}},{"name":"Bussardweg","postalCode":"26340","locality":"Zetel","municipality":{"key":"03455027","name":"Zetel","type":"Kreisangehörige_Gemeinde"},"district":{"key":"03455","name":"Friesland","type":"Landkreis"},"federalState":{"key":"03","name":"Niedersachsen"}},{"name":"Chaukenstr.","postalCode":"26340","locality":"Zetel","municipality":{"key":"03455027","name":"Zetel","type":"Kreisangehörige_Gemeinde"},"district":{"key":"03455","name":"Friesland","type":"Landkreis"},"federalState":{"key":"03","name":"Niedersachsen"}},{"name":"Collsteder Damm","postalCode":"26340","locality":"Zetel","municipality":{"key":"03455027","name":"Zetel","type":"Kreisangehörige_Gemeinde"},"district":{"key":"03455","name":"Friesland","type":"Landkreis"},"federalState":{"key":"03","name":"Niedersachsen"}},{"name":"Collsteder Ring","postalCode":"26340","locality":"Zetel","municipality":{"key":"03455027","name":"Zetel","type":"Kreisangehörige_Gemeinde"},"district":{"key":"03455","name":"Friesland","type":"Landkreis"},"federalState":{"key":"03","name":"Niedersachsen"}},{"name":"Collsteder Str.","postalCode":"26340","locality":"Zetel","municipality":{"key":"03455027","name":"Zetel","type":"Kreisangehörige_Gemeinde"},"district":{"key":"03455","name":"Friesland","type":"Landkreis"},"federalState":{"key":"03","name":"Niedersachsen"}},{"name":"Corporalskamp","postalCode":"26340","locality":"Zetel","municipality":{"key":"03455027","name":"Zetel","type":"Kreisangehörige_Gemeinde"},"district":{"key":"03455","name":"Friesland","type":"Landkreis"},"federalState":{"key":"03","name":"Niedersachsen"}},{"name":"Dachsweg","postalCode":"26340","locality":"Zetel","municipality":{"key":"03455027","name":"Zetel","type":"Kreisangehörige_Gemeinde"},"district":{"key":"03455","name":"Friesland","type":"Landkreis"},"federalState":{"key":"03","name":"Niedersachsen"}},{"name":"Dammstr.","postalCode":"26340","locality":"Zetel","municipality":{"key":"03455027","name":"Zetel","type":"Kreisangehörige_Gemeinde"},"district":{"key":"03455","name":"Friesland","type":"Landkreis"},"federalState":{"key":"03","name":"Niedersachsen"}},{"name":"Danziger Str.","postalCode":"26340","locality":"Zetel","municipality":{"key":"03455027","name":"Zetel","type":"Kreisangehörige_Gemeinde"},"district":{"key":"03455","name":"Friesland","type":"Landkreis"},"federalState":{"key":"03","name":"Niedersachsen"}},{"name":"Deephofsweg","postalCode":"26340","locality":"Zetel","municipality":{"key":"03455027","name":"Zetel","type":"Kreisangehörige_Gemeinde"},"district":{"key":"03455","name":"Friesland","type":"Landkreis"},"federalState":{"key":"03","name":"Niedersachsen"}},{"name":"Deichweg","postalCode":"26340","locality":"Zetel","municipality":{"key":"03455027","name":"Zetel","type":"Kreisangehörige_Gemeinde"},"district":{"key":"03455","name":"Friesland","type":"Landkreis"},"federalState":{"key":"03","name":"Niedersachsen"}},{"name":"Diedrich-Schmidt-Str.","postalCode":"26340","locality":"Zetel","municipality":{"key":"03455027","name":"Zetel","type":"Kreisangehörige_Gemeinde"},"district":{"key":"03455","name":"Friesland","type":"Landkreis"},"federalState":{"key":"03","name":"Niedersachsen"}},{"name":"Dierksdamm","postalCode":"26340","locality":"Zetel","municipality":{"key":"03455027","name":"Zetel","type":"Kreisangehörige_Gemeinde"},"district":{"key":"03455","name":"Friesland","type":"Landkreis"},"federalState":{"key":"03","name":"Niedersachsen"}},{"name":"Dorfstr.","postalCode":"26340","locality":"Zetel","municipality":{"key":"03455027","name":"Zetel","type":"Kreisangehörige_Gemeinde"},"district":{"key":"03455","name":"Friesland","type":"Landkreis"},"federalState":{"key":"03","name":"Niedersachsen"}},{"name":"Driefeler Wiesen","postalCode":"26340","locality":"Zetel","municipality":{"key":"03455027","name":"Zetel","type":"Kreisangehörige_Gemeinde"},"district":{"key":"03455","name":"Friesland","type":"Landkreis"},"federalState":{"key":"03","name":"Niedersachsen"}},{"name":"Dünkirchen","postalCode":"26340","locality":"Zetel","municipality":{"key":"03455027","name":"Zetel","type":"Kreisangehörige_Gemeinde"},"district":{"key":"03455","name":"Friesland","type":"Landkreis"},"federalState":{"key":"03","name":"Niedersachsen"}},{"name":"e-bike Hille","postalCode":"26340","locality":"Zetel","municipality":{"key":"03455027","name":"Zetel","type":"Kreisangehörige_Gemeinde"},"district":{"key":"03455","name":"Friesland","type":"Landkreis"},"federalState":{"key":"03","name":"Niedersachsen"}},{"name":"Eichenstr.","postalCode":"26340","locality":"Zetel","municipality":{"key":"03455027","name":"Zetel","type":"Kreisangehörige_Gemeinde"},"district":{"key":"03455","name":"Friesland","type":"Landkreis"},"federalState":{"key":"03","name":"Niedersachsen"}},{"name":"Eickenstraat","postalCode":"26340","locality":"Zetel","municipality":{"key":"03455027","name":"Zetel","type":"Kreisangehörige_Gemeinde"},"district":{"key":"03455","name":"Friesland","type":"Landkreis"},"federalState":{"key":"03","name":"Niedersachsen"}},{"name":"Eilersdamm","postalCode":"26340","locality":"Zetel","municipality":{"key":"03455027","name":"Zetel","type":"Kreisangehörige_Gemeinde"},"district":{"key":"03455","name":"Friesland","type":"Landkreis"},"federalState":{"key":"03","name":"Niedersachsen"}},{"name":"Elbinger Str.","postalCode":"26340","locality":"Zetel","municipality":{"key":"03455027","name":"Zetel","type":"Kreisangehörige_Gemeinde"},"district":{"key":"03455","name":"Friesland","type":"Landkreis"},"federalState":{"key":"03","name":"Niedersachsen"}},{"name":"Elisabeth-Frerichs-Str.","postalCode":"26340","locality":"Zetel","municipality":{"key":"03455027","name":"Zetel","type":"Kreisangehörige_Gemeinde"},"district":{"key":"03455","name":"Friesland","type":"Landkreis"},"federalState":{"key":"03","name":"Niedersachsen"}},{"name":"Ellens","postalCode":"26340","locality":"Zetel","municipality":{"key":"03455027","name":"Zetel","type":"Kreisangehörige_Gemeinde"},"district":{"key":"03455","name":"Friesland","type":"Landkreis"},"federalState":{"key":"03","name":"Niedersachsen"}},{"name":"Emkenburg","postalCode":"26340","locality":"Zetel","municipality":{"key":"03455027","name":"Zetel","type":"Kreisangehörige_Gemeinde"},"district":{"key":"03455","name":"Friesland","type":"Landkreis"},"federalState":{"key":"03","name":"Niedersachsen"}},{"name":"Erika-Nicolaysen-Str.","postalCode":"26340","locality":"Zetel","municipality":{"key":"03455027","name":"Zetel","type":"Kreisangehörige_Gemeinde"},"district":{"key":"03455","name":"Friesland","type":"Landkreis"},"federalState":{"key":"03","name":"Niedersachsen"}},{"name":"Erlenstr.","postalCode":"26340","locality":"Zetel","municipality":{"key":"03455027","name":"Zetel","type":"Kreisangehörige_Gemeinde"},"district":{"key":"03455","name":"Friesland","type":"Landkreis"},"federalState":{"key":"03","name":"Niedersachsen"}},{"name":"Eschstr.","postalCode":"26340","locality":"Zetel","municipality":{"key":"03455027","name":"Zetel","type":"Kreisangehörige_Gemeinde"},"district":{"key":"03455","name":"Friesland","type":"Landkreis"},"federalState":{"key":"03","name":"Niedersachsen"}},{"name":"Eulenweg","postalCode":"26340","locality":"Zetel","municipality":{"key":"03455027","name":"Zetel","type":"Kreisangehörige_Gemeinde"},"district":{"key":"03455","name":"Friesland","type":"Landkreis"},"federalState":{"key":"03","name":"Niedersachsen"}},{"name":"Färbers Damm","postalCode":"26340","locality":"Zetel","municipality":{"key":"03455027","name":"Zetel","type":"Kreisangehörige_Gemeinde"},"district":{"key":"03455","name":"Friesland","type":"Landkreis"},"federalState":{"key":"03","name":"Niedersachsen"}},{"name":"Fasanenweg","postalCode":"26340","locality":"Zetel","municipality":{"key":"03455027","name":"Zetel","type":"Kreisangehörige_Gemeinde"},"district":{"key":"03455","name":"Friesland","type":"Landkreis"},"federalState":{"key":"03","name":"Niedersachsen"}},{"name":"Feldhörn","postalCode":"26340","locality":"Zetel","municipality":{"key":"03455027","name":"Zetel","type":"Kreisangehörige_Gemeinde"},"district":{"key":"03455","name":"Friesland","type":"Landkreis"},"federalState":{"key":"03","name":"Niedersachsen"}},{"name":"Feldweg","postalCode":"26340","locality":"Zetel","municipality":{"key":"03455027","name":"Zetel","type":"Kreisangehörige_Gemeinde"},"district":{"key":"03455","name":"Friesland","type":"Landkreis"},"federalState":{"key":"03","name":"Niedersachsen"}},{"name":"Fichtenstr.","postalCode":"26340","locality":"Zetel","municipality":{"key":"03455027","name":"Zetel","type":"Kreisangehörige_Gemeinde"},"district":{"key":"03455","name":"Friesland","type":"Landkreis"},"federalState":{"key":"03","name":"Niedersachsen"}},{"name":"Finkenstr.","postalCode":"26340","locality":"Zetel","municipality":{"key":"03455027","name":"Zetel","type":"Kreisangehörige_Gemeinde"},"district":{"key":"03455","name":"Friesland","type":"Landkreis"},"federalState":{"key":"03","name":"Niedersachsen"}},{"name":"Flidder","postalCode":"26340","locality":"Zetel","municipality":{"key":"03455027","name":"Zetel","type":"Kreisangehörige_Gemeinde"},"district":{"key":"03455","name":"Friesland","type":"Landkreis"},"federalState":{"key":"03","name":"Niedersachsen"}},{"name":"Friedeburger Str.","postalCode":"26340","locality":"Zetel","municipality":{"key":"03455027","name":"Zetel","type":"Kreisangehörige_Gemeinde"},"district":{"key":"03455","name":"Friesland","type":"Landkreis"},"federalState":{"key":"03","name":"Niedersachsen"}},{"name":"Friesenstr.","postalCode":"26340","locality":"Zetel","municipality":{"key":"03455027","name":"Zetel","type":"Kreisangehörige_Gemeinde"},"district":{"key":"03455","name":"Friesland","type":"Landkreis"},"federalState":{"key":"03","name":"Niedersachsen"}},{"name":"Fritz-Frerichs-Str.","postalCode":"26340","locality":"Zetel","municipality":{"key":"03455027","name":"Zetel","type":"Kreisangehörige_Gemeinde"},"district":{"key":"03455","name":"Friesland","type":"Landkreis"},"federalState":{"key":"03","name":"Niedersachsen"}},{"name":"Fuchsweg","postalCode":"26340","locality":"Zetel","municipality":{"key":"03455027","name":"Zetel","type":"Kreisangehörige_Gemeinde"},"district":{"key":"03455","name":"Friesland","type":"Landkreis"},"federalState":{"key":"03","name":"Niedersachsen"}},{"name":"Fuhrenkampstr.","postalCode":"26340","locality":"Zetel","municipality":{"key":"03455027","name":"Zetel","type":"Kreisangehörige_Gemeinde"},"district":{"key":"03455","name":"Friesland","type":"Landkreis"},"federalState":{"key":"03","name":"Niedersachsen"}},{"name":"Ginsterstr.","postalCode":"26340","locality":"Zetel","municipality":{"key":"03455027","name":"Zetel","type":"Kreisangehörige_Gemeinde"},"district":{"key":"03455","name":"Friesland","type":"Landkreis"},"federalState":{"key":"03","name":"Niedersachsen"}},{"name":"Goethestr.","postalCode":"26340","locality":"Zetel","municipality":{"key":"03455027","name":"Zetel","type":"Kreisangehörige_Gemeinde"},"district":{"key":"03455","name":"Friesland","type":"Landkreis"},"federalState":{"key":"03","name":"Niedersachsen"}},{"name":"Graf-Anton-Günther-Str.","postalCode":"26340","locality":"Zetel","municipality":{"key":"03455027","name":"Zetel","type":"Kreisangehörige_Gemeinde"},"district":{"key":"03455","name":"Friesland","type":"Landkreis"},"federalState":{"key":"03","name":"Niedersachsen"}},{"name":"Grenzstr.","postalCode":"26340","locality":"Zetel","municipality":{"key":"03455027","name":"Zetel","type":"Kreisangehörige_Gemeinde"},"district":{"key":"03455","name":"Friesland","type":"Landkreis"},"federalState":{"key":"03","name":"Niedersachsen"}},{"name":"Habichtweg","postalCode":"26340","locality":"Zetel","municipality":{"key":"03455027","name":"Zetel","type":"Kreisangehörige_Gemeinde"},"district":{"key":"03455","name":"Friesland","type":"Landkreis"},"federalState":{"key":"03","name":"Niedersachsen"}},{"name":"Hauptstr.","postalCode":"26340","locality":"Zetel","municipality":{"key":"03455027","name":"Zetel","type":"Kreisangehörige_Gemeinde"},"district":{"key":"03455","name":"Friesland","type":"Landkreis"},"federalState":{"key":"03","name":"Niedersachsen"}},{"name":"Heideweg","postalCode":"26340","locality":"Zetel","municipality":{"key":"03455027","name":"Zetel","type":"Kreisangehörige_Gemeinde"},"district":{"key":"03455","name":"Friesland","type":"Landkreis"},"federalState":{"key":"03","name":"Niedersachsen"}},{"name":"Heidschnuckenweg","postalCode":"26340","locality":"Zetel","municipality":{"key":"03455027","name":"Zetel","type":"Kreisangehörige_Gemeinde"},"district":{"key":"03455","name":"Friesland","type":"Landkreis"},"federalState":{"key":"03","name":"Niedersachsen"}},{"name":"Heinen Damm","postalCode":"26340","locality":"Zetel","municipality":{"key":"03455027","name":"Zetel","type":"Kreisangehörige_Gemeinde"},"district":{"key":"03455","name":"Friesland","type":"Landkreis"},"federalState":{"key":"03","name":"Niedersachsen"}},{"name":"Herrenesch","postalCode":"26340","locality":"Zetel","municipality":{"key":"03455027","name":"Zetel","type":"Kreisangehörige_Gemeinde"},"district":{"key":"03455","name":"Friesland","type":"Landkreis"},"federalState":{"key":"03","name":"Niedersachsen"}},{"name":"Heulandsdamm","postalCode":"26340","locality":"Zetel","municipality":{"key":"03455027","name":"Zetel","type":"Kreisangehörige_Gemeinde"},"district":{"key":"03455","name":"Friesland","type":"Landkreis"},"federalState":{"key":"03","name":"Niedersachsen"}},{"name":"Hilgen Holt","postalCode":"26340","locality":"Zetel","municipality":{"key":"03455027","name":"Zetel","type":"Kreisangehörige_Gemeinde"},"district":{"key":"03455","name":"Friesland","type":"Landkreis"},"federalState":{"key":"03","name":"Niedersachsen"}},{"name":"Hogelucht","postalCode":"26340","locality":"Zetel","municipality":{"key":"03455027","name":"Zetel","type":"Kreisangehörige_Gemeinde"},"district":{"key":"03455","name":"Friesland","type":"Landkreis"},"federalState":{"key":"03","name":"Niedersachsen"}},{"name":"Hogenholt","postalCode":"26340","locality":"Zetel","municipality":{"key":"03455027","name":"Zetel","type":"Kreisangehörige_Gemeinde"},"district":{"key":"03455","name":"Friesland","type":"Landkreis"},"federalState":{"key":"03","name":"Niedersachsen"}},{"name":"Horster Str.","postalCode":"26340","locality":"Zetel","municipality":{"key":"03455027","name":"Zetel","type":"Kreisangehörige_Gemeinde"},"district":{"key":"03455","name":"Friesland","type":"Landkreis"},"federalState":{"key":"03","name":"Niedersachsen"}},{"name":"Humboldtstr.","postalCode":"26340","locality":"Zetel","municipality":{"key":"03455027","name":"Zetel","type":"Kreisangehörige_Gemeinde"},"district":{"key":"03455","name":"Friesland","type":"Landkreis"},"federalState":{"key":"03","name":"Niedersachsen"}},{"name":"Idagroden","postalCode":"26340","locality":"Zetel","municipality":{"key":"03455027","name":"Zetel","type":"Kreisangehörige_Gemeinde"},"district":{"key":"03455","name":"Friesland","type":"Landkreis"},"federalState":{"key":"03","name":"Niedersachsen"}},{"name":"Iltisweg","postalCode":"26340","locality":"Zetel","municipality":{"key":"03455027","name":"Zetel","type":"Kreisangehörige_Gemeinde"},"district":{"key":"03455","name":"Friesland","type":"Landkreis"},"federalState":{"key":"03","name":"Niedersachsen"}},{"name":"Industriestr.","postalCode":"26340","locality":"Zetel","municipality":{"key":"03455027","name":"Zetel","type":"Kreisangehörige_Gemeinde"},"district":{"key":"03455","name":"Friesland","type":"Landkreis"},"federalState":{"key":"03","name":"Niedersachsen"}},{"name":"Jakob-Borchers-Str.","postalCode":"26340","locality":"Zetel","municipality":{"key":"03455027","name":"Zetel","type":"Kreisangehörige_Gemeinde"},"district":{"key":"03455","name":"Friesland","type":"Landkreis"},"federalState":{"key":"03","name":"Niedersachsen"}},{"name":"Johann-Friedrich-Ahlhorn-Str.","postalCode":"26340","locality":"Zetel","municipality":{"key":"03455027","name":"Zetel","type":"Kreisangehörige_Gemeinde"},"district":{"key":"03455","name":"Friesland","type":"Landkreis"},"federalState":{"key":"03","name":"Niedersachsen"}},{"name":"Johann-Schütte-Str.","postalCode":"26340","locality":"Zetel","municipality":{"key":"03455027","name":"Zetel","type":"Kreisangehörige_Gemeinde"},"district":{"key":"03455","name":"Friesland","type":"Landkreis"},"federalState":{"key":"03","name":"Niedersachsen"}},{"name":"Kaiserborg","postalCode":"26340","locality":"Zetel","municipality":{"key":"03455027","name":"Zetel","type":"Kreisangehörige_Gemeinde"},"district":{"key":"03455","name":"Friesland","type":"Landkreis"},"federalState":{"key":"03","name":"Niedersachsen"}},{"name":"Kanelstadt","postalCode":"26340","locality":"Zetel","municipality":{"key":"03455027","name":"Zetel","type":"Kreisangehörige_Gemeinde"},"district":{"key":"03455","name":"Friesland","type":"Landkreis"},"federalState":{"key":"03","name":"Niedersachsen"}},{"name":"Karl-Bunje-Str.","postalCode":"26340","locality":"Zetel","municipality":{"key":"03455027","name":"Zetel","type":"Kreisangehörige_Gemeinde"},"district":{"key":"03455","name":"Friesland","type":"Landkreis"},"federalState":{"key":"03","name":"Niedersachsen"}},{"name":"Kiefernstr.","postalCode":"26340","locality":"Zetel","municipality":{"key":"03455027","name":"Zetel","type":"Kreisangehörige_Gemeinde"},"district":{"key":"03455","name":"Friesland","type":"Landkreis"},"federalState":{"key":"03","name":"Niedersachsen"}},{"name":"Kielstraat","postalCode":"26340","locality":"Zetel","municipality":{"key":"03455027","name":"Zetel","type":"Kreisangehörige_Gemeinde"},"district":{"key":"03455","name":"Friesland","type":"Landkreis"},"federalState":{"key":"03","name":"Niedersachsen"}},{"name":"Kirchstr.","postalCode":"26340","locality":"Zetel","municipality":{"key":"03455027","name":"Zetel","type":"Kreisangehörige_Gemeinde"},"district":{"key":"03455","name":"Friesland","type":"Landkreis"},"federalState":{"key":"03","name":"Niedersachsen"}},{"name":"Kirschenweg","postalCode":"26340","locality":"Zetel","municipality":{"key":"03455027","name":"Zetel","type":"Kreisangehörige_Gemeinde"},"district":{"key":"03455","name":"Friesland","type":"Landkreis"},"federalState":{"key":"03","name":"Niedersachsen"}},{"name":"kleiner Parkgarten hinter dem Altenheim","postalCode":"26340","locality":"Zetel","municipality":{"key":"03455027","name":"Zetel","type":"Kreisangehörige_Gemeinde"},"district":{"key":"03455","name":"Friesland","type":"Landkreis"},"federalState":{"key":"03","name":"Niedersachsen"}},{"name":"Klein Schweinebrück","postalCode":"26340","locality":"Zetel","municipality":{"key":"03455027","name":"Zetel","type":"Kreisangehörige_Gemeinde"},"district":{"key":"03455","name":"Friesland","type":"Landkreis"},"federalState":{"key":"03","name":"Niedersachsen"}},{"name":"Kloppenburgstr.","postalCode":"26340","locality":"Zetel","municipality":{"key":"03455027","name":"Zetel","type":"Kreisangehörige_Gemeinde"},"district":{"key":"03455","name":"Friesland","type":"Landkreis"},"federalState":{"key":"03","name":"Niedersachsen"}},{"name":"Kochs Damm","postalCode":"26340","locality":"Zetel","municipality":{"key":"03455027","name":"Zetel","type":"Kreisangehörige_Gemeinde"},"district":{"key":"03455","name":"Friesland","type":"Landkreis"},"federalState":{"key":"03","name":"Niedersachsen"}},{"name":"Königsberger Str.","postalCode":"26340","locality":"Zetel","municipality":{"key":"03455027","name":"Zetel","type":"Kreisangehörige_Gemeinde"},"district":{"key":"03455","name":"Friesland","type":"Landkreis"},"federalState":{"key":"03","name":"Niedersachsen"}},{"name":"Krogkamp","postalCode":"26340","locality":"Zetel","municipality":{"key":"03455027","name":"Zetel","type":"Kreisangehörige_Gemeinde"},"district":{"key":"03455","name":"Friesland","type":"Landkreis"},"federalState":{"key":"03","name":"Niedersachsen"}},{"name":"Kronshausen","postalCode":"26340","locality":"Zetel","municipality":{"key":"03455027","name":"Zetel","type":"Kreisangehörige_Gemeinde"},"district":{"key":"03455","name":"Friesland","type":"Landkreis"},"federalState":{"key":"03","name":"Niedersachsen"}},{"name":"Kronshörner Padd","postalCode":"26340","locality":"Zetel","municipality":{"key":"03455027","name":"Zetel","type":"Kreisangehörige_Gemeinde"},"district":{"key":"03455","name":"Friesland","type":"Landkreis"},"federalState":{"key":"03","name":"Niedersachsen"}},{"name":"Kurze Str.","postalCode":"26340","locality":"Zetel","municipality":{"key":"03455027","name":"Zetel","type":"Kreisangehörige_Gemeinde"},"district":{"key":"03455","name":"Friesland","type":"Landkreis"},"federalState":{"key":"03","name":"Niedersachsen"}},{"name":"Ladestr.","postalCode":"26340","locality":"Zetel","municipality":{"key":"03455027","name":"Zetel","type":"Kreisangehörige_Gemeinde"},"district":{"key":"03455","name":"Friesland","type":"Landkreis"},"federalState":{"key":"03","name":"Niedersachsen"}},{"name":"Lammers Kamp","postalCode":"26340","locality":"Zetel","municipality":{"key":"03455027","name":"Zetel","type":"Kreisangehörige_Gemeinde"},"district":{"key":"03455","name":"Friesland","type":"Landkreis"},"federalState":{"key":"03","name":"Niedersachsen"}},{"name":"Lange Str.","postalCode":"26340","locality":"Zetel","municipality":{"key":"03455027","name":"Zetel","type":"Kreisangehörige_Gemeinde"},"district":{"key":"03455","name":"Friesland","type":"Landkreis"},"federalState":{"key":"03","name":"Niedersachsen"}},{"name":"Lärchenstr.","postalCode":"26340","locality":"Zetel","municipality":{"key":"03455027","name":"Zetel","type":"Kreisangehörige_Gemeinde"},"district":{"key":"03455","name":"Friesland","type":"Landkreis"},"federalState":{"key":"03","name":"Niedersachsen"}},{"name":"Lehmhörn","postalCode":"26340","locality":"Zetel","municipality":{"key":"03455027","name":"Zetel","type":"Kreisangehörige_Gemeinde"},"district":{"key":"03455","name":"Friesland","type":"Landkreis"},"federalState":{"key":"03","name":"Niedersachsen"}},{"name":"Lehmweg","postalCode":"26340","locality":"Zetel","municipality":{"key":"03455027","name":"Zetel","type":"Kreisangehörige_Gemeinde"},"district":{"key":"03455","name":"Friesland","type":"Landkreis"},"federalState":{"key":"03","name":"Niedersachsen"}},{"name":"Lilienstr.","postalCode":"26340","locality":"Zetel","municipality":{"key":"03455027","name":"Zetel","type":"Kreisangehörige_Gemeinde"},"district":{"key":"03455","name":"Friesland","type":"Landkreis"},"federalState":{"key":"03","name":"Niedersachsen"}},{"name":"Lindenstr.","postalCode":"26340","locality":"Zetel","municipality":{"key":"03455027","name":"Zetel","type":"Kreisangehörige_Gemeinde"},"district":{"key":"03455","name":"Friesland","type":"Landkreis"},"federalState":{"key":"03","name":"Niedersachsen"}},{"name":"Marie-Behncke-Str.","postalCode":"26340","locality":"Zetel","municipality":{"key":"03455027","name":"Zetel","type":"Kreisangehörige_Gemeinde"},"district":{"key":"03455","name":"Friesland","type":"Landkreis"},"federalState":{"key":"03","name":"Niedersachsen"}},{"name":"Markthamm","postalCode":"26340","locality":"Zetel","municipality":{"key":"03455027","name":"Zetel","type":"Kreisangehörige_Gemeinde"},"district":{"key":"03455","name":"Friesland","type":"Landkreis"},"federalState":{"key":"03","name":"Niedersachsen"}},{"name":"Marschstr.","postalCode":"26340","locality":"Zetel","municipality":{"key":"03455027","name":"Zetel","type":"Kreisangehörige_Gemeinde"},"district":{"key":"03455","name":"Friesland","type":"Landkreis"},"federalState":{"key":"03","name":"Niedersachsen"}},{"name":"Martensstr.","postalCode":"26340","locality":"Zetel","municipality":{"key":"03455027","name":"Zetel","type":"Kreisangehörige_Gemeinde"},"district":{"key":"03455","name":"Friesland","type":"Landkreis"},"federalState":{"key":"03","name":"Niedersachsen"}},{"name":"Mecklenburger Str.","postalCode":"26340","locality":"Zetel","municipality":{"key":"03455027","name":"Zetel","type":"Kreisangehörige_Gemeinde"},"district":{"key":"03455","name":"Friesland","type":"Landkreis"},"federalState":{"key":"03","name":"Niedersachsen"}},{"name":"Mehmkenkamp","postalCode":"26340","locality":"Zetel","municipality":{"key":"03455027","name":"Zetel","type":"Kreisangehörige_Gemeinde"},"district":{"key":"03455","name":"Friesland","type":"Landkreis"},"federalState":{"key":"03","name":"Niedersachsen"}},{"name":"Meinersweg","postalCode":"26340","locality":"Zetel","municipality":{"key":"03455027","name":"Zetel","type":"Kreisangehörige_Gemeinde"},"district":{"key":"03455","name":"Friesland","type":"Landkreis"},"federalState":{"key":"03","name":"Niedersachsen"}},{"name":"Meisenweg","postalCode":"26340","locality":"Zetel","municipality":{"key":"03455027","name":"Zetel","type":"Kreisangehörige_Gemeinde"},"district":{"key":"03455","name":"Friesland","type":"Landkreis"},"federalState":{"key":"03","name":"Niedersachsen"}},{"name":"Meynens Moor","postalCode":"26340","locality":"Zetel","municipality":{"key":"03455027","name":"Zetel","type":"Kreisangehörige_Gemeinde"},"district":{"key":"03455","name":"Friesland","type":"Landkreis"},"federalState":{"key":"03","name":"Niedersachsen"}},{"name":"Molkereistr.","postalCode":"26340","locality":"Zetel","municipality":{"key":"03455027","name":"Zetel","type":"Kreisangehörige_Gemeinde"},"district":{"key":"03455","name":"Friesland","type":"Landkreis"},"federalState":{"key":"03","name":"Niedersachsen"}},{"name":"Moorsiedlung","postalCode":"26340","locality":"Zetel","municipality":{"key":"03455027","name":"Zetel","type":"Kreisangehörige_Gemeinde"},"district":{"key":"03455","name":"Friesland","type":"Landkreis"},"federalState":{"key":"03","name":"Niedersachsen"}},{"name":"Moorstr.","postalCode":"26340","locality":"Zetel","municipality":{"key":"03455027","name":"Zetel","type":"Kreisangehörige_Gemeinde"},"district":{"key":"03455","name":"Friesland","type":"Landkreis"},"federalState":{"key":"03","name":"Niedersachsen"}},{"name":"Mühlenkamp","postalCode":"26340","locality":"Zetel","municipality":{"key":"03455027","name":"Zetel","type":"Kreisangehörige_Gemeinde"},"district":{"key":"03455","name":"Friesland","type":"Landkreis"},"federalState":{"key":"03","name":"Niedersachsen"}},{"name":"Mühlenstr.","postalCode":"26340","locality":"Zetel","municipality":{"key":"03455027","name":"Zetel","type":"Kreisangehörige_Gemeinde"},"district":{"key":"03455","name":"Friesland","type":"Landkreis"},"federalState":{"key":"03","name":"Niedersachsen"}},{"name":"Nelkenstr.","postalCode":"26340","locality":"Zetel","municipality":{"key":"03455027","name":"Zetel","type":"Kreisangehörige_Gemeinde"},"district":{"key":"03455","name":"Friesland","type":"Landkreis"},"federalState":{"key":"03","name":"Niedersachsen"}},{"name":"Neuenburger Str.","postalCode":"26340","locality":"Zetel","municipality":{"key":"03455027","name":"Zetel","type":"Kreisangehörige_Gemeinde"},"district":{"key":"03455","name":"Friesland","type":"Landkreis"},"federalState":{"key":"03","name":"Niedersachsen"}},{"name":"Ohrbült","postalCode":"26340","locality":"Zetel","municipality":{"key":"03455027","name":"Zetel","type":"Kreisangehörige_Gemeinde"},"district":{"key":"03455","name":"Friesland","type":"Landkreis"},"federalState":{"key":"03","name":"Niedersachsen"}},{"name":"Oldenburger Str.","postalCode":"26340","locality":"Zetel","municipality":{"key":"03455027","name":"Zetel","type":"Kreisangehörige_Gemeinde"},"district":{"key":"03455","name":"Friesland","type":"Landkreis"},"federalState":{"key":"03","name":"Niedersachsen"}},{"name":"Ostpreußenweg","postalCode":"26340","locality":"Zetel","municipality":{"key":"03455027","name":"Zetel","type":"Kreisangehörige_Gemeinde"},"district":{"key":"03455","name":"Friesland","type":"Landkreis"},"federalState":{"key":"03","name":"Niedersachsen"}},{"name":"Pestalozzistr.","postalCode":"26340","locality":"Zetel","municipality":{"key":"03455027","name":"Zetel","type":"Kreisangehörige_Gemeinde"},"district":{"key":"03455","name":"Friesland","type":"Landkreis"},"federalState":{"key":"03","name":"Niedersachsen"}},{"name":"Pickerei","postalCode":"26340","locality":"Zetel","municipality":{"key":"03455027","name":"Zetel","type":"Kreisangehörige_Gemeinde"},"district":{"key":"03455","name":"Friesland","type":"Landkreis"},"federalState":{"key":"03","name":"Niedersachsen"}},{"name":"Plaggendamm","postalCode":"26340","locality":"Zetel","municipality":{"key":"03455027","name":"Zetel","type":"Kreisangehörige_Gemeinde"},"district":{"key":"03455","name":"Friesland","type":"Landkreis"},"federalState":{"key":"03","name":"Niedersachsen"}},{"name":"Pohlstr.","postalCode":"26340","locality":"Zetel","municipality":{"key":"03455027","name":"Zetel","type":"Kreisangehörige_Gemeinde"},"district":{"key":"03455","name":"Friesland","type":"Landkreis"},"federalState":{"key":"03","name":"Niedersachsen"}},{"name":"Pohlweg","postalCode":"26340","locality":"Zetel","municipality":{"key":"03455027","name":"Zetel","type":"Kreisangehörige_Gemeinde"},"district":{"key":"03455","name":"Friesland","type":"Landkreis"},"federalState":{"key":"03","name":"Niedersachsen"}},{"name":"Pommernweg","postalCode":"26340","locality":"Zetel","municipality":{"key":"03455027","name":"Zetel","type":"Kreisangehörige_Gemeinde"},"district":{"key":"03455","name":"Friesland","type":"Landkreis"},"federalState":{"key":"03","name":"Niedersachsen"}},{"name":"Popken Damm","postalCode":"26340","locality":"Zetel","municipality":{"key":"03455027","name":"Zetel","type":"Kreisangehörige_Gemeinde"},"district":{"key":"03455","name":"Friesland","type":"Landkreis"},"federalState":{"key":"03","name":"Niedersachsen"}},{"name":"Posener Str.","postalCode":"26340","locality":"Zetel","municipality":{"key":"03455027","name":"Zetel","type":"Kreisangehörige_Gemeinde"},"district":{"key":"03455","name":"Friesland","type":"Landkreis"},"federalState":{"key":"03","name":"Niedersachsen"}},{"name":"Quellental","postalCode":"26340","locality":"Zetel","municipality":{"key":"03455027","name":"Zetel","type":"Kreisangehörige_Gemeinde"},"district":{"key":"03455","name":"Friesland","type":"Landkreis"},"federalState":{"key":"03","name":"Niedersachsen"}},{"name":"Raiffeisenstr.","postalCode":"26340","locality":"Zetel","municipality":{"key":"03455027","name":"Zetel","type":"Kreisangehörige_Gemeinde"},"district":{"key":"03455","name":"Friesland","type":"Landkreis"},"federalState":{"key":"03","name":"Niedersachsen"}},{"name":"Rebhuhnweg","postalCode":"26340","locality":"Zetel","municipality":{"key":"03455027","name":"Zetel","type":"Kreisangehörige_Gemeinde"},"district":{"key":"03455","name":"Friesland","type":"Landkreis"},"federalState":{"key":"03","name":"Niedersachsen"}},{"name":"Röbendiekenstr.","postalCode":"26340","locality":"Zetel","municipality":{"key":"03455027","name":"Zetel","type":"Kreisangehörige_Gemeinde"},"district":{"key":"03455","name":"Friesland","type":"Landkreis"},"federalState":{"key":"03","name":"Niedersachsen"}},{"name":"Rosenstr.","postalCode":"26340","locality":"Zetel","municipality":{"key":"03455027","name":"Zetel","type":"Kreisangehörige_Gemeinde"},"district":{"key":"03455","name":"Friesland","type":"Landkreis"},"federalState":{"key":"03","name":"Niedersachsen"}},{"name":"Roßfelde","postalCode":"26340","locality":"Zetel","municipality":{"key":"03455027","name":"Zetel","type":"Kreisangehörige_Gemeinde"},"district":{"key":"03455","name":"Friesland","type":"Landkreis"},"federalState":{"key":"03","name":"Niedersachsen"}},{"name":"Rüstringer Str.","postalCode":"26340","locality":"Zetel","municipality":{"key":"03455027","name":"Zetel","type":"Kreisangehörige_Gemeinde"},"district":{"key":"03455","name":"Friesland","type":"Landkreis"},"federalState":{"key":"03","name":"Niedersachsen"}},{"name":"Rutteler Str.","postalCode":"26340","locality":"Zetel","municipality":{"key":"03455027","name":"Zetel","type":"Kreisangehörige_Gemeinde"},"district":{"key":"03455","name":"Friesland","type":"Landkreis"},"federalState":{"key":"03","name":"Niedersachsen"}},{"name":"Schäferei","postalCode":"26340","locality":"Zetel","municipality":{"key":"03455027","name":"Zetel","type":"Kreisangehörige_Gemeinde"},"district":{"key":"03455","name":"Friesland","type":"Landkreis"},"federalState":{"key":"03","name":"Niedersachsen"}},{"name":"Schillerstr.","postalCode":"26340","locality":"Zetel","municipality":{"key":"03455027","name":"Zetel","type":"Kreisangehörige_Gemeinde"},"district":{"key":"03455","name":"Friesland","type":"Landkreis"},"federalState":{"key":"03","name":"Niedersachsen"}},{"name":"Schlesierweg","postalCode":"26340","locality":"Zetel","municipality":{"key":"03455027","name":"Zetel","type":"Kreisangehörige_Gemeinde"},"district":{"key":"03455","name":"Friesland","type":"Landkreis"},"federalState":{"key":"03","name":"Niedersachsen"}},{"name":"Schloßgang","postalCode":"26340","locality":"Zetel","municipality":{"key":"03455027","name":"Zetel","type":"Kreisangehörige_Gemeinde"},"district":{"key":"03455","name":"Friesland","type":"Landkreis"},"federalState":{"key":"03","name":"Niedersachsen"}},{"name":"Schmedes Damm","postalCode":"26340","locality":"Zetel","municipality":{"key":"03455027","name":"Zetel","type":"Kreisangehörige_Gemeinde"},"district":{"key":"03455","name":"Friesland","type":"Landkreis"},"federalState":{"key":"03","name":"Niedersachsen"}},{"name":"Schmiedeweg","postalCode":"26340","locality":"Zetel","municipality":{"key":"03455027","name":"Zetel","type":"Kreisangehörige_Gemeinde"},"district":{"key":"03455","name":"Friesland","type":"Landkreis"},"federalState":{"key":"03","name":"Niedersachsen"}},{"name":"Schnepfenweg","postalCode":"26340","locality":"Zetel","municipality":{"key":"03455027","name":"Zetel","type":"Kreisangehörige_Gemeinde"},"district":{"key":"03455","name":"Friesland","type":"Landkreis"},"federalState":{"key":"03","name":"Niedersachsen"}},{"name":"Schulenberg's Kamp","postalCode":"26340","locality":"Zetel","municipality":{"key":"03455027","name":"Zetel","type":"Kreisangehörige_Gemeinde"},"district":{"key":"03455","name":"Friesland","type":"Landkreis"},"federalState":{"key":"03","name":"Niedersachsen"}},{"name":"Schulstr.","postalCode":"26340","locality":"Zetel","municipality":{"key":"03455027","name":"Zetel","type":"Kreisangehörige_Gemeinde"},"district":{"key":"03455","name":"Friesland","type":"Landkreis"},"federalState":{"key":"03","name":"Niedersachsen"}},{"name":"Schulweg","postalCode":"26340","locality":"Zetel","municipality":{"key":"03455027","name":"Zetel","type":"Kreisangehörige_Gemeinde"},"district":{"key":"03455","name":"Friesland","type":"Landkreis"},"federalState":{"key":"03","name":"Niedersachsen"}},{"name":"Schwarze Pohl","postalCode":"26340","locality":"Zetel","municipality":{"key":"03455027","name":"Zetel","type":"Kreisangehörige_Gemeinde"},"district":{"key":"03455","name":"Friesland","type":"Landkreis"},"federalState":{"key":"03","name":"Niedersachsen"}},{"name":"Siedlerweg","postalCode":"26340","locality":"Zetel","municipality":{"key":"03455027","name":"Zetel","type":"Kreisangehörige_Gemeinde"},"district":{"key":"03455","name":"Friesland","type":"Landkreis"},"federalState":{"key":"03","name":"Niedersachsen"}},{"name":"Siedlung","postalCode":"26340","locality":"Zetel","municipality":{"key":"03455027","name":"Zetel","type":"Kreisangehörige_Gemeinde"},"district":{"key":"03455","name":"Friesland","type":"Landkreis"},"federalState":{"key":"03","name":"Niedersachsen"}},{"name":"Siemsstr.","postalCode":"26340","locality":"Zetel","municipality":{"key":"03455027","name":"Zetel","type":"Kreisangehörige_Gemeinde"},"district":{"key":"03455","name":"Friesland","type":"Landkreis"},"federalState":{"key":"03","name":"Niedersachsen"}},{"name":"Sperberweg","postalCode":"26340","locality":"Zetel","municipality":{"key":"03455027","name":"Zetel","type":"Kreisangehörige_Gemeinde"},"district":{"key":"03455","name":"Friesland","type":"Landkreis"},"federalState":{"key":"03","name":"Niedersachsen"}},{"name":"Spolsen","postalCode":"26340","locality":"Zetel","municipality":{"key":"03455027","name":"Zetel","type":"Kreisangehörige_Gemeinde"},"district":{"key":"03455","name":"Friesland","type":"Landkreis"},"federalState":{"key":"03","name":"Niedersachsen"}},{"name":"Spolsener Moorstr.","postalCode":"26340","locality":"Zetel","municipality":{"key":"03455027","name":"Zetel","type":"Kreisangehörige_Gemeinde"},"district":{"key":"03455","name":"Friesland","type":"Landkreis"},"federalState":{"key":"03","name":"Niedersachsen"}},{"name":"Spolser Weg","postalCode":"26340","locality":"Zetel","municipality":{"key":"03455027","name":"Zetel","type":"Kreisangehörige_Gemeinde"},"district":{"key":"03455","name":"Friesland","type":"Landkreis"},"federalState":{"key":"03","name":"Niedersachsen"}},{"name":"Stettiner Str.","postalCode":"26340","locality":"Zetel","municipality":{"key":"03455027","name":"Zetel","type":"Kreisangehörige_Gemeinde"},"district":{"key":"03455","name":"Friesland","type":"Landkreis"},"federalState":{"key":"03","name":"Niedersachsen"}},{"name":"Stralsunder Str.","postalCode":"26340","locality":"Zetel","municipality":{"key":"03455027","name":"Zetel","type":"Kreisangehörige_Gemeinde"},"district":{"key":"03455","name":"Friesland","type":"Landkreis"},"federalState":{"key":"03","name":"Niedersachsen"}},{"name":"Str. nach Lindern","postalCode":"26340","locality":"Zetel","municipality":{"key":"03455027","name":"Zetel","type":"Kreisangehörige_Gemeinde"},"district":{"key":"03455","name":"Friesland","type":"Landkreis"},"federalState":{"key":"03","name":"Niedersachsen"}},{"name":"Stroje Damm","postalCode":"26340","locality":"Zetel","municipality":{"key":"03455027","name":"Zetel","type":"Kreisangehörige_Gemeinde"},"district":{"key":"03455","name":"Friesland","type":"Landkreis"},"federalState":{"key":"03","name":"Niedersachsen"}},{"name":"Stubbendränk","postalCode":"26340","locality":"Zetel","municipality":{"key":"03455027","name":"Zetel","type":"Kreisangehörige_Gemeinde"},"district":{"key":"03455","name":"Friesland","type":"Landkreis"},"federalState":{"key":"03","name":"Niedersachsen"}},{"name":"Südenburg","postalCode":"26340","locality":"Zetel","municipality":{"key":"03455027","name":"Zetel","type":"Kreisangehörige_Gemeinde"},"district":{"key":"03455","name":"Friesland","type":"Landkreis"},"federalState":{"key":"03","name":"Niedersachsen"}},{"name":"Süpkenhörn","postalCode":"26340","locality":"Zetel","municipality":{"key":"03455027","name":"Zetel","type":"Kreisangehörige_Gemeinde"},"district":{"key":"03455","name":"Friesland","type":"Landkreis"},"federalState":{"key":"03","name":"Niedersachsen"}},{"name":"Tannenweg","postalCode":"26340","locality":"Zetel","municipality":{"key":"03455027","name":"Zetel","type":"Kreisangehörige_Gemeinde"},"district":{"key":"03455","name":"Friesland","type":"Landkreis"},"federalState":{"key":"03","name":"Niedersachsen"}},{"name":"Tarbarger Landstr.","postalCode":"26340","locality":"Zetel","municipality":{"key":"03455027","name":"Zetel","type":"Kreisangehörige_Gemeinde"},"district":{"key":"03455","name":"Friesland","type":"Landkreis"},"federalState":{"key":"03","name":"Niedersachsen"}},{"name":"Tegelbuschstr.","postalCode":"26340","locality":"Zetel","municipality":{"key":"03455027","name":"Zetel","type":"Kreisangehörige_Gemeinde"},"district":{"key":"03455","name":"Friesland","type":"Landkreis"},"federalState":{"key":"03","name":"Niedersachsen"}},{"name":"Theodor-Storm-Str.","postalCode":"26340","locality":"Zetel","municipality":{"key":"03455027","name":"Zetel","type":"Kreisangehörige_Gemeinde"},"district":{"key":"03455","name":"Friesland","type":"Landkreis"},"federalState":{"key":"03","name":"Niedersachsen"}},{"name":"Timp","postalCode":"26340","locality":"Zetel","municipality":{"key":"03455027","name":"Zetel","type":"Kreisangehörige_Gemeinde"},"district":{"key":"03455","name":"Friesland","type":"Landkreis"},"federalState":{"key":"03","name":"Niedersachsen"}},{"name":"Urwaldstr.","postalCode":"26340","locality":"Zetel","municipality":{"key":"03455027","name":"Zetel","type":"Kreisangehörige_Gemeinde"},"district":{"key":"03455","name":"Friesland","type":"Landkreis"},"federalState":{"key":"03","name":"Niedersachsen"}},{"name":"Von-Eichendorff-Str.","postalCode":"26340","locality":"Zetel","municipality":{"key":"03455027","name":"Zetel","type":"Kreisangehörige_Gemeinde"},"district":{"key":"03455","name":"Friesland","type":"Landkreis"},"federalState":{"key":"03","name":"Niedersachsen"}},{"name":"Vorburger Str.","postalCode":"26340","locality":"Zetel","municipality":{"key":"03455027","name":"Zetel","type":"Kreisangehörige_Gemeinde"},"district":{"key":"03455","name":"Friesland","type":"Landkreis"},"federalState":{"key":"03","name":"Niedersachsen"}},{"name":"Vorburger Weg","postalCode":"26340","locality":"Zetel","municipality":{"key":"03455027","name":"Zetel","type":"Kreisangehörige_Gemeinde"},"district":{"key":"03455","name":"Friesland","type":"Landkreis"},"federalState":{"key":"03","name":"Niedersachsen"}},{"name":"Vör Kösters Kamp","postalCode":"26340","locality":"Zetel","municipality":{"key":"03455027","name":"Zetel","type":"Kreisangehörige_Gemeinde"},"district":{"key":"03455","name":"Friesland","type":"Landkreis"},"federalState":{"key":"03","name":"Niedersachsen"}},{"name":"Wachtelweg","postalCode":"26340","locality":"Zetel","municipality":{"key":"03455027","name":"Zetel","type":"Kreisangehörige_Gemeinde"},"district":{"key":"03455","name":"Friesland","type":"Landkreis"},"federalState":{"key":"03","name":"Niedersachsen"}},{"name":"Waterwisch","postalCode":"26340","locality":"Zetel","municipality":{"key":"03455027","name":"Zetel","type":"Kreisangehörige_Gemeinde"},"district":{"key":"03455","name":"Friesland","type":"Landkreis"},"federalState":{"key":"03","name":"Niedersachsen"}},{"name":"Weberei","postalCode":"26340","locality":"Zetel","municipality":{"key":"03455027","name":"Zetel","type":"Kreisangehörige_Gemeinde"},"district":{"key":"03455","name":"Friesland","type":"Landkreis"},"federalState":{"key":"03","name":"Niedersachsen"}},{"name":"Wehdestr.","postalCode":"26340","locality":"Zetel","municipality":{"key":"03455027","name":"Zetel","type":"Kreisangehörige_Gemeinde"},"district":{"key":"03455","name":"Friesland","type":"Landkreis"},"federalState":{"key":"03","name":"Niedersachsen"}},{"name":"Westerende","postalCode":"26340","locality":"Zetel","municipality":{"key":"03455027","name":"Zetel","type":"Kreisangehörige_Gemeinde"},"district":{"key":"03455","name":"Friesland","type":"Landkreis"},"federalState":{"key":"03","name":"Niedersachsen"}},{"name":"Westersteder Str.","postalCode":"26340","locality":"Zetel","municipality":{"key":"03455027","name":"Zetel","type":"Kreisangehörige_Gemeinde"},"district":{"key":"03455","name":"Friesland","type":"Landkreis"},"federalState":{"key":"03","name":"Niedersachsen"}},{"name":"Wiesenstr.","postalCode":"26340","locality":"Zetel","municipality":{"key":"03455027","name":"Zetel","type":"Kreisangehörige_Gemeinde"},"district":{"key":"03455","name":"Friesland","type":"Landkreis"},"federalState":{"key":"03","name":"Niedersachsen"}},{"name":"Wilhelm-Röben-Str.","postalCode":"26340","locality":"Zetel","municipality":{"key":"03455027","name":"Zetel","type":"Kreisangehörige_Gemeinde"},"district":{"key":"03455","name":"Friesland","type":"Landkreis"},"federalState":{"key":"03","name":"Niedersachsen"}},{"name":"Willa-Thorade-Str.","postalCode":"26340","locality":"Zetel","municipality":{"key":"03455027","name":"Zetel","type":"Kreisangehörige_Gemeinde"},"district":{"key":"03455","name":"Friesland","type":"Landkreis"},"federalState":{"key":"03","name":"Niedersachsen"}},{"name":"Winterweg","postalCode":"26340","locality":"Zetel","municipality":{"key":"03455027","name":"Zetel","type":"Kreisangehörige_Gemeinde"},"district":{"key":"03455","name":"Friesland","type":"Landkreis"},"federalState":{"key":"03","name":"Niedersachsen"}},{"name":"Zetelermarsch","postalCode":"26340","locality":"Zetel","municipality":{"key":"03455027","name":"Zetel","type":"Kreisangehörige_Gemeinde"},"district":{"key":"03455","name":"Friesland","type":"Landkreis"},"federalState":{"key":"03","name":"Niedersachsen"}},{"name":"Zeteler Str.","postalCode":"26340","locality":"Zetel","municipality":{"key":"03455027","name":"Zetel","type":"Kreisangehörige_Gemeinde"},"district":{"key":"03455","name":"Friesland","type":"Landkreis"},"federalState":{"key":"03","name":"Niedersachsen"}},{"name":"Zeteler Tuch","postalCode":"26340","locality":"Zetel","municipality":{"key":"03455027","name":"Zetel","type":"Kreisangehörige_Gemeinde"},"district":{"key":"03455","name":"Friesland","type":"Landkreis"},"federalState":{"key":"03","name":"Niedersachsen"}},{"name":"Ziegeleistr.","postalCode":"26340","locality":"Zetel","municipality":{"key":"03455027","name":"Zetel","type":"Kreisangehörige_Gemeinde"},"district":{"key":"03455","name":"Friesland","type":"Landkreis"},"federalState":{"key":"03","name":"Niedersachsen"}},{"name":"Zollweg","postalCode":"26340","locality":"Zetel","municipality":{"key":"03455027","name":"Zetel","type":"Kreisangehörige_Gemeinde"},"district":{"key":"03455","name":"Friesland","type":"Landkreis"},"federalState":{"key":"03","name":"Niedersachsen"}},{"name":"Zum Bahnhof","postalCode":"26340","locality":"Zetel","municipality":{"key":"03455027","name":"Zetel","type":"Kreisangehörige_Gemeinde"},"district":{"key":"03455","name":"Friesland","type":"Landkreis"},"federalState":{"key":"03","name":"Niedersachsen"}},{"name":"Zur Bäke","postalCode":"26340","locality":"Zetel","municipality":{"key":"03455027","name":"Zetel","type":"Kreisangehörige_Gemeinde"},"district":{"key":"03455","name":"Friesland","type":"Landkreis"},"federalState":{"key":"03","name":"Niedersachsen"}},]