[{"key":"10003908","name":"Awandelweg","postalCode":"8196","locality":"Wil ZH","commune":{"key":"71","name":"Wil (ZH)","shortName":"Wil (ZH)"},"district":{"key":"103","name":"Bezirk Bülach"},"canton":{"key":"1","code":"ZH","name":"Zürich"},"status":"Real"},{"key":"10165807","name":"Bächerbuckweg","postalCode":"8196","locality":"Wil ZH","commune":{"key":"71","name":"Wil (ZH)","shortName":"Wil (ZH)"},"district":{"key":"103","name":"Bezirk Bülach"},"canton":{"key":"1","code":"ZH","name":"Zürich"},"status":"Real"},{"key":"10042669","name":"Bächerwiesstrasse","postalCode":"8196","locality":"Wil ZH","commune":{"key":"71","name":"Wil (ZH)","shortName":"Wil (ZH)"},"district":{"key":"103","name":"Bezirk Bülach"},"canton":{"key":"1","code":"ZH","name":"Zürich"},"status":"Real"},{"key":"10248275","name":"Bachweg","postalCode":"8196","locality":"Wil ZH","commune":{"key":"71","name":"Wil (ZH)","shortName":"Wil (ZH)"},"district":{"key":"103","name":"Bezirk Bülach"},"canton":{"key":"1","code":"ZH","name":"Zürich"},"status":"Real"},{"key":"10242040","name":"Badener Landstrasse","postalCode":"8196","locality":"Wil ZH","commune":{"key":"71","name":"Wil (ZH)","shortName":"Wil (ZH)"},"district":{"key":"103","name":"Bezirk Bülach"},"canton":{"key":"1","code":"ZH","name":"Zürich"},"status":"Real"},{"key":"10099778","name":"Bahnhofstrasse","postalCode":"8196","locality":"Wil ZH","commune":{"key":"71","name":"Wil (ZH)","shortName":"Wil (ZH)"},"district":{"key":"103","name":"Bezirk Bülach"},"canton":{"key":"1","code":"ZH","name":"Zürich"},"status":"Real"},{"key":"10248379","name":"Baltenswilerweg","postalCode":"8196","locality":"Wil ZH","commune":{"key":"71","name":"Wil (ZH)","shortName":"Wil (ZH)"},"district":{"key":"103","name":"Bezirk Bülach"},"canton":{"key":"1","code":"ZH","name":"Zürich"},"status":"Real"},{"key":"10248704","name":"Bälweg","postalCode":"8196","locality":"Wil ZH","commune":{"key":"71","name":"Wil (ZH)","shortName":"Wil (ZH)"},"district":{"key":"103","name":"Bezirk Bülach"},"canton":{"key":"1","code":"ZH","name":"Zürich"},"status":"Real"},{"key":"10118088","name":"Berghof","postalCode":"8196","locality":"Wil ZH","commune":{"key":"71","name":"Wil (ZH)","shortName":"Wil (ZH)"},"district":{"key":"103","name":"Bezirk Bülach"},"canton":{"key":"1","code":"ZH","name":"Zürich"},"status":"Real"},{"key":"10200118","name":"Bergstrasse","postalCode":"8196","locality":"Wil ZH","commune":{"key":"71","name":"Wil (ZH)","shortName":"Wil (ZH)"},"district":{"key":"103","name":"Bezirk Bülach"},"canton":{"key":"1","code":"ZH","name":"Zürich"},"status":"Real"},{"key":"10242044","name":"Bernerrietliweg","postalCode":"8196","locality":"Wil ZH","commune":{"key":"71","name":"Wil (ZH)","shortName":"Wil (ZH)"},"district":{"key":"103","name":"Bezirk Bülach"},"canton":{"key":"1","code":"ZH","name":"Zürich"},"status":"Real"},{"key":"10248742","name":"Berwangerweg","postalCode":"8196","locality":"Wil ZH","commune":{"key":"71","name":"Wil (ZH)","shortName":"Wil (ZH)"},"district":{"key":"103","name":"Bezirk Bülach"},"canton":{"key":"1","code":"ZH","name":"Zürich"},"status":"Real"},{"key":"10242048","name":"Bodenstrasse","postalCode":"8196","locality":"Wil ZH","commune":{"key":"71","name":"Wil (ZH)","shortName":"Wil (ZH)"},"district":{"key":"103","name":"Bezirk Bülach"},"canton":{"key":"1","code":"ZH","name":"Zürich"},"status":"Real"},{"key":"10248406","name":"Brandackerweg","postalCode":"8196","locality":"Wil ZH","commune":{"key":"71","name":"Wil (ZH)","shortName":"Wil (ZH)"},"district":{"key":"103","name":"Bezirk Bülach"},"canton":{"key":"1","code":"ZH","name":"Zürich"},"status":"Real"},{"key":"10084345","name":"Breitenmattstrasse","postalCode":"8196","locality":"Wil ZH","commune":{"key":"71","name":"Wil (ZH)","shortName":"Wil (ZH)"},"district":{"key":"103","name":"Bezirk Bülach"},"canton":{"key":"1","code":"ZH","name":"Zürich"},"status":"Real"},{"key":"10056179","name":"Buchenloo","postalCode":"8196","locality":"Wil ZH","commune":{"key":"71","name":"Wil (ZH)","shortName":"Wil (ZH)"},"district":{"key":"103","name":"Bezirk Bülach"},"canton":{"key":"1","code":"ZH","name":"Zürich"},"status":"Real"},{"key":"10244082","name":"Buck","postalCode":"8196","locality":"Wil ZH","commune":{"key":"71","name":"Wil (ZH)","shortName":"Wil (ZH)"},"district":{"key":"103","name":"Bezirk Bülach"},"canton":{"key":"1","code":"ZH","name":"Zürich"},"status":"Real"},{"key":"10242054","name":"Buckäckerweg","postalCode":"8196","locality":"Wil ZH","commune":{"key":"71","name":"Wil (ZH)","shortName":"Wil (ZH)"},"district":{"key":"103","name":"Bezirk Bülach"},"canton":{"key":"1","code":"ZH","name":"Zürich"},"status":"Real"},{"key":"10112372","name":"Buckweg","postalCode":"8196","locality":"Wil ZH","commune":{"key":"71","name":"Wil (ZH)","shortName":"Wil (ZH)"},"district":{"key":"103","name":"Bezirk Bülach"},"canton":{"key":"1","code":"ZH","name":"Zürich"},"status":"Real"},{"key":"10192780","name":"Bürgelackerweg","postalCode":"8196","locality":"Wil ZH","commune":{"key":"71","name":"Wil (ZH)","shortName":"Wil (ZH)"},"district":{"key":"103","name":"Bezirk Bülach"},"canton":{"key":"1","code":"ZH","name":"Zürich"},"status":"Real"},{"key":"10003910","name":"Bürglenstrasse","postalCode":"8196","locality":"Wil ZH","commune":{"key":"71","name":"Wil (ZH)","shortName":"Wil (ZH)"},"district":{"key":"103","name":"Bezirk Bülach"},"canton":{"key":"1","code":"ZH","name":"Zürich"},"status":"Real"},{"key":"10193979","name":"Bürglenweg","postalCode":"8196","locality":"Wil ZH","commune":{"key":"71","name":"Wil (ZH)","shortName":"Wil (ZH)"},"district":{"key":"103","name":"Bezirk Bülach"},"canton":{"key":"1","code":"ZH","name":"Zürich"},"status":"Real"},{"key":"10248538","name":"Chilchholzweg","postalCode":"8196","locality":"Wil ZH","commune":{"key":"71","name":"Wil (ZH)","shortName":"Wil (ZH)"},"district":{"key":"103","name":"Bezirk Bülach"},"canton":{"key":"1","code":"ZH","name":"Zürich"},"status":"Real"},{"key":"10248554","name":"Chleehoggweg","postalCode":"8196","locality":"Wil ZH","commune":{"key":"71","name":"Wil (ZH)","shortName":"Wil (ZH)"},"district":{"key":"103","name":"Bezirk Bülach"},"canton":{"key":"1","code":"ZH","name":"Zürich"},"status":"Real"},{"key":"10003911","name":"Dorfstrasse","postalCode":"8196","locality":"Wil ZH","commune":{"key":"71","name":"Wil (ZH)","shortName":"Wil (ZH)"},"district":{"key":"103","name":"Bezirk Bülach"},"canton":{"key":"1","code":"ZH","name":"Zürich"},"status":"Real"},{"key":"10248659","name":"Egissenwiesweg","postalCode":"8196","locality":"Wil ZH","commune":{"key":"71","name":"Wil (ZH)","shortName":"Wil (ZH)"},"district":{"key":"103","name":"Bezirk Bülach"},"canton":{"key":"1","code":"ZH","name":"Zürich"},"status":"Real"},{"key":"10242041","name":"Ehrenweg","postalCode":"8196","locality":"Wil ZH","commune":{"key":"71","name":"Wil (ZH)","shortName":"Wil (ZH)"},"district":{"key":"103","name":"Bezirk Bülach"},"canton":{"key":"1","code":"ZH","name":"Zürich"},"status":"Real"},{"key":"10248684","name":"Einsidlerweg","postalCode":"8196","locality":"Wil ZH","commune":{"key":"71","name":"Wil (ZH)","shortName":"Wil (ZH)"},"district":{"key":"103","name":"Bezirk Bülach"},"canton":{"key":"1","code":"ZH","name":"Zürich"},"status":"Real"},{"key":"10056180","name":"Feldhof","postalCode":"8196","locality":"Wil ZH","commune":{"key":"71","name":"Wil (ZH)","shortName":"Wil (ZH)"},"district":{"key":"103","name":"Bezirk Bülach"},"canton":{"key":"1","code":"ZH","name":"Zürich"},"status":"Real"},{"key":"10003912","name":"Flüestigstrasse","postalCode":"8196","locality":"Wil ZH","commune":{"key":"71","name":"Wil (ZH)","shortName":"Wil (ZH)"},"district":{"key":"103","name":"Bezirk Bülach"},"canton":{"key":"1","code":"ZH","name":"Zürich"},"status":"Real"},{"key":"10148556","name":"Geroldsstrasse","postalCode":"8196","locality":"Wil ZH","commune":{"key":"71","name":"Wil (ZH)","shortName":"Wil (ZH)"},"district":{"key":"103","name":"Bezirk Bülach"},"canton":{"key":"1","code":"ZH","name":"Zürich"},"status":"Real"},{"key":"10099779","name":"Geroldsweg","postalCode":"8196","locality":"Wil ZH","commune":{"key":"71","name":"Wil (ZH)","shortName":"Wil (ZH)"},"district":{"key":"103","name":"Bezirk Bülach"},"canton":{"key":"1","code":"ZH","name":"Zürich"},"status":"Real"},{"key":"10248892","name":"Gmeiackerweg","postalCode":"8196","locality":"Wil ZH","commune":{"key":"71","name":"Wil (ZH)","shortName":"Wil (ZH)"},"district":{"key":"103","name":"Bezirk Bülach"},"canton":{"key":"1","code":"ZH","name":"Zürich"},"status":"Real"},{"key":"10248622","name":"Gmeiwiesweg","postalCode":"8196","locality":"Wil ZH","commune":{"key":"71","name":"Wil (ZH)","shortName":"Wil (ZH)"},"district":{"key":"103","name":"Bezirk Bülach"},"canton":{"key":"1","code":"ZH","name":"Zürich"},"status":"Real"},{"key":"10242047","name":"Gruehaldenweg","postalCode":"8196","locality":"Wil ZH","commune":{"key":"71","name":"Wil (ZH)","shortName":"Wil (ZH)"},"district":{"key":"103","name":"Bezirk Bülach"},"canton":{"key":"1","code":"ZH","name":"Zürich"},"status":"Real"},{"key":"10193671","name":"Grueholzstrasse","postalCode":"8196","locality":"Wil ZH","commune":{"key":"71","name":"Wil (ZH)","shortName":"Wil (ZH)"},"district":{"key":"103","name":"Bezirk Bülach"},"canton":{"key":"1","code":"ZH","name":"Zürich"},"status":"Real"},{"key":"10003913","name":"Grundstrasse","postalCode":"8196","locality":"Wil ZH","commune":{"key":"71","name":"Wil (ZH)","shortName":"Wil (ZH)"},"district":{"key":"103","name":"Bezirk Bülach"},"canton":{"key":"1","code":"ZH","name":"Zürich"},"status":"Real"},{"key":"10248311","name":"Guetihaldenweg","postalCode":"8196","locality":"Wil ZH","commune":{"key":"71","name":"Wil (ZH)","shortName":"Wil (ZH)"},"district":{"key":"103","name":"Bezirk Bülach"},"canton":{"key":"1","code":"ZH","name":"Zürich"},"status":"Real"},{"key":"10120772","name":"Haldenhof","postalCode":"8196","locality":"Wil ZH","commune":{"key":"71","name":"Wil (ZH)","shortName":"Wil (ZH)"},"district":{"key":"103","name":"Bezirk Bülach"},"canton":{"key":"1","code":"ZH","name":"Zürich"},"status":"Real"},{"key":"10248309","name":"Hinterbandweg","postalCode":"8196","locality":"Wil ZH","commune":{"key":"71","name":"Wil (ZH)","shortName":"Wil (ZH)"},"district":{"key":"103","name":"Bezirk Bülach"},"canton":{"key":"1","code":"ZH","name":"Zürich"},"status":"Real"},{"key":"10248332","name":"Hinterflueweg","postalCode":"8196","locality":"Wil ZH","commune":{"key":"71","name":"Wil (ZH)","shortName":"Wil (ZH)"},"district":{"key":"103","name":"Bezirk Bülach"},"canton":{"key":"1","code":"ZH","name":"Zürich"},"status":"Real"},{"key":"10242050","name":"Hofwisenweg","postalCode":"8196","locality":"Wil ZH","commune":{"key":"71","name":"Wil (ZH)","shortName":"Wil (ZH)"},"district":{"key":"103","name":"Bezirk Bülach"},"canton":{"key":"1","code":"ZH","name":"Zürich"},"status":"Real"},{"key":"10242052","name":"Höhenweg","postalCode":"8196","locality":"Wil ZH","commune":{"key":"71","name":"Wil (ZH)","shortName":"Wil (ZH)"},"district":{"key":"103","name":"Bezirk Bülach"},"canton":{"key":"1","code":"ZH","name":"Zürich"},"status":"Real"},{"key":"10115549","name":"Hohlgass","postalCode":"8196","locality":"Wil ZH","commune":{"key":"71","name":"Wil (ZH)","shortName":"Wil (ZH)"},"district":{"key":"103","name":"Bezirk Bülach"},"canton":{"key":"1","code":"ZH","name":"Zürich"},"status":"Real"},{"key":"10248392","name":"Holenweg","postalCode":"8196","locality":"Wil ZH","commune":{"key":"71","name":"Wil (ZH)","shortName":"Wil (ZH)"},"district":{"key":"103","name":"Bezirk Bülach"},"canton":{"key":"1","code":"ZH","name":"Zürich"},"status":"Real"},{"key":"10084346","name":"Hüntwangerweg","postalCode":"8196","locality":"Wil ZH","commune":{"key":"71","name":"Wil (ZH)","shortName":"Wil (ZH)"},"district":{"key":"103","name":"Bezirk Bülach"},"canton":{"key":"1","code":"ZH","name":"Zürich"},"status":"Real"},{"key":"10112373","name":"Hüslihof","postalCode":"8196","locality":"Wil ZH","commune":{"key":"71","name":"Wil (ZH)","shortName":"Wil (ZH)"},"district":{"key":"103","name":"Bezirk Bülach"},"canton":{"key":"1","code":"ZH","name":"Zürich"},"status":"Real"},{"key":"10248461","name":"Hüslihofstrasse","postalCode":"8196","locality":"Wil ZH","commune":{"key":"71","name":"Wil (ZH)","shortName":"Wil (ZH)"},"district":{"key":"103","name":"Bezirk Bülach"},"canton":{"key":"1","code":"ZH","name":"Zürich"},"status":"Real"},{"key":"10248465","name":"Hüslihofweg","postalCode":"8196","locality":"Wil ZH","commune":{"key":"71","name":"Wil (ZH)","shortName":"Wil (ZH)"},"district":{"key":"103","name":"Bezirk Bülach"},"canton":{"key":"1","code":"ZH","name":"Zürich"},"status":"Real"},{"key":"10248481","name":"Ifangweg","postalCode":"8196","locality":"Wil ZH","commune":{"key":"71","name":"Wil (ZH)","shortName":"Wil (ZH)"},"district":{"key":"103","name":"Bezirk Bülach"},"canton":{"key":"1","code":"ZH","name":"Zürich"},"status":"Real"},{"key":"10109352","name":"Im Berg","postalCode":"8196","locality":"Wil ZH","commune":{"key":"71","name":"Wil (ZH)","shortName":"Wil (ZH)"},"district":{"key":"103","name":"Bezirk Bülach"},"canton":{"key":"1","code":"ZH","name":"Zürich"},"status":"Real"},{"key":"10109353","name":"Im Buck","postalCode":"8196","locality":"Wil ZH","commune":{"key":"71","name":"Wil (ZH)","shortName":"Wil (ZH)"},"district":{"key":"103","name":"Bezirk Bülach"},"canton":{"key":"1","code":"ZH","name":"Zürich"},"status":"Real"},{"key":"10003914","name":"Im Bürgelacker","postalCode":"8196","locality":"Wil ZH","commune":{"key":"71","name":"Wil (ZH)","shortName":"Wil (ZH)"},"district":{"key":"103","name":"Bezirk Bülach"},"canton":{"key":"1","code":"ZH","name":"Zürich"},"status":"Real"},{"key":"10003915","name":"Im Chessler","postalCode":"8196","locality":"Wil ZH","commune":{"key":"71","name":"Wil (ZH)","shortName":"Wil (ZH)"},"district":{"key":"103","name":"Bezirk Bülach"},"canton":{"key":"1","code":"ZH","name":"Zürich"},"status":"Real"},{"key":"10056182","name":"Im Hägler","postalCode":"8196","locality":"Wil ZH","commune":{"key":"71","name":"Wil (ZH)","shortName":"Wil (ZH)"},"district":{"key":"103","name":"Bezirk Bülach"},"canton":{"key":"1","code":"ZH","name":"Zürich"},"status":"Real"},{"key":"10084347","name":"Im Landbüel","postalCode":"8196","locality":"Wil ZH","commune":{"key":"71","name":"Wil (ZH)","shortName":"Wil (ZH)"},"district":{"key":"103","name":"Bezirk Bülach"},"canton":{"key":"1","code":"ZH","name":"Zürich"},"status":"Real"},{"key":"10003916","name":"Im Wendelbuck","postalCode":"8196","locality":"Wil ZH","commune":{"key":"71","name":"Wil (ZH)","shortName":"Wil (ZH)"},"district":{"key":"103","name":"Bezirk Bülach"},"canton":{"key":"1","code":"ZH","name":"Zürich"},"status":"Real"},{"key":"10189876","name":"Im Winkel","postalCode":"8196","locality":"Wil ZH","commune":{"key":"71","name":"Wil (ZH)","shortName":"Wil (ZH)"},"district":{"key":"103","name":"Bezirk Bülach"},"canton":{"key":"1","code":"ZH","name":"Zürich"},"status":"Real"},{"key":"10003917","name":"Industriestrasse","postalCode":"8196","locality":"Wil ZH","commune":{"key":"71","name":"Wil (ZH)","shortName":"Wil (ZH)"},"district":{"key":"103","name":"Bezirk Bülach"},"canton":{"key":"1","code":"ZH","name":"Zürich"},"status":"Real"},{"key":"10003918","name":"Kirchweg","postalCode":"8196","locality":"Wil ZH","commune":{"key":"71","name":"Wil (ZH)","shortName":"Wil (ZH)"},"district":{"key":"103","name":"Bezirk Bülach"},"canton":{"key":"1","code":"ZH","name":"Zürich"},"status":"Real"},{"key":"10248608","name":"Langfuriweg","postalCode":"8196","locality":"Wil ZH","commune":{"key":"71","name":"Wil (ZH)","shortName":"Wil (ZH)"},"district":{"key":"103","name":"Bezirk Bülach"},"canton":{"key":"1","code":"ZH","name":"Zürich"},"status":"Real"},{"key":"10248612","name":"Langgass","postalCode":"8196","locality":"Wil ZH","commune":{"key":"71","name":"Wil (ZH)","shortName":"Wil (ZH)"},"district":{"key":"103","name":"Bezirk Bülach"},"canton":{"key":"1","code":"ZH","name":"Zürich"},"status":"Real"},{"key":"10248756","name":"Langwisenweg","postalCode":"8196","locality":"Wil ZH","commune":{"key":"71","name":"Wil (ZH)","shortName":"Wil (ZH)"},"district":{"key":"103","name":"Bezirk Bülach"},"canton":{"key":"1","code":"ZH","name":"Zürich"},"status":"Real"},{"key":"10056183","name":"Lirenhofstrasse","postalCode":"8196","locality":"Wil ZH","commune":{"key":"71","name":"Wil (ZH)","shortName":"Wil (ZH)"},"district":{"key":"103","name":"Bezirk Bülach"},"canton":{"key":"1","code":"ZH","name":"Zürich"},"status":"Real"},{"key":"10242053","name":"Lochweg","postalCode":"8196","locality":"Wil ZH","commune":{"key":"71","name":"Wil (ZH)","shortName":"Wil (ZH)"},"district":{"key":"103","name":"Bezirk Bülach"},"canton":{"key":"1","code":"ZH","name":"Zürich"},"status":"Real"},{"key":"10242042","name":"Lützelweg","postalCode":"8196","locality":"Wil ZH","commune":{"key":"71","name":"Wil (ZH)","shortName":"Wil (ZH)"},"district":{"key":"103","name":"Bezirk Bülach"},"canton":{"key":"1","code":"ZH","name":"Zürich"},"status":"Real"},{"key":"10244719","name":"Marco-Angst-Weg","postalCode":"8196","locality":"Wil ZH","commune":{"key":"71","name":"Wil (ZH)","shortName":"Wil (ZH)"},"district":{"key":"103","name":"Bezirk Bülach"},"canton":{"key":"1","code":"ZH","name":"Zürich"},"status":"Real"},{"key":"10003919","name":"Mitteldorfstrasse","postalCode":"8196","locality":"Wil ZH","commune":{"key":"71","name":"Wil (ZH)","shortName":"Wil (ZH)"},"district":{"key":"103","name":"Bezirk Bülach"},"canton":{"key":"1","code":"ZH","name":"Zürich"},"status":"Real"},{"key":"10168083","name":"Mittlere Haldenstrasse","postalCode":"8196","locality":"Wil ZH","commune":{"key":"71","name":"Wil (ZH)","shortName":"Wil (ZH)"},"district":{"key":"103","name":"Bezirk Bülach"},"canton":{"key":"1","code":"ZH","name":"Zürich"},"status":"Real"},{"key":"10084348","name":"Mittlere Rebbergstrasse","postalCode":"8196","locality":"Wil ZH","commune":{"key":"71","name":"Wil (ZH)","shortName":"Wil (ZH)"},"district":{"key":"103","name":"Bezirk Bülach"},"canton":{"key":"1","code":"ZH","name":"Zürich"},"status":"Real"},{"key":"10206063","name":"Moos","postalCode":"8196","locality":"Wil ZH","commune":{"key":"71","name":"Wil (ZH)","shortName":"Wil (ZH)"},"district":{"key":"103","name":"Bezirk Bülach"},"canton":{"key":"1","code":"ZH","name":"Zürich"},"status":"Real"},{"key":"10248778","name":"Müliweg","postalCode":"8196","locality":"Wil ZH","commune":{"key":"71","name":"Wil (ZH)","shortName":"Wil (ZH)"},"district":{"key":"103","name":"Bezirk Bülach"},"canton":{"key":"1","code":"ZH","name":"Zürich"},"status":"Real"},{"key":"10248810","name":"Müllerholzweg","postalCode":"8196","locality":"Wil ZH","commune":{"key":"71","name":"Wil (ZH)","shortName":"Wil (ZH)"},"district":{"key":"103","name":"Bezirk Bülach"},"canton":{"key":"1","code":"ZH","name":"Zürich"},"status":"Real"},{"key":"10248826","name":"Murers Stöckenweg","postalCode":"8196","locality":"Wil ZH","commune":{"key":"71","name":"Wil (ZH)","shortName":"Wil (ZH)"},"district":{"key":"103","name":"Bezirk Bülach"},"canton":{"key":"1","code":"ZH","name":"Zürich"},"status":"Real"},{"key":"10248315","name":"Nüchemerfeldweg","postalCode":"8196","locality":"Wil ZH","commune":{"key":"71","name":"Wil (ZH)","shortName":"Wil (ZH)"},"district":{"key":"103","name":"Bezirk Bülach"},"canton":{"key":"1","code":"ZH","name":"Zürich"},"status":"Real"},{"key":"10003920","name":"Oberdorfstrasse","postalCode":"8196","locality":"Wil ZH","commune":{"key":"71","name":"Wil (ZH)","shortName":"Wil (ZH)"},"district":{"key":"103","name":"Bezirk Bülach"},"canton":{"key":"1","code":"ZH","name":"Zürich"},"status":"Real"},{"key":"10112374","name":"Obere Haldenstrasse","postalCode":"8196","locality":"Wil ZH","commune":{"key":"71","name":"Wil (ZH)","shortName":"Wil (ZH)"},"district":{"key":"103","name":"Bezirk Bülach"},"canton":{"key":"1","code":"ZH","name":"Zürich"},"status":"Real"},{"key":"10180202","name":"Obere Lirenhofstrasse","postalCode":"8196","locality":"Wil ZH","commune":{"key":"71","name":"Wil (ZH)","shortName":"Wil (ZH)"},"district":{"key":"103","name":"Bezirk Bülach"},"canton":{"key":"1","code":"ZH","name":"Zürich"},"status":"Real"},{"key":"10248923","name":"Oberer Breiterweg","postalCode":"8196","locality":"Wil ZH","commune":{"key":"71","name":"Wil (ZH)","shortName":"Wil (ZH)"},"district":{"key":"103","name":"Bezirk Bülach"},"canton":{"key":"1","code":"ZH","name":"Zürich"},"status":"Real"},{"key":"10084349","name":"Obere Rebbergstrasse","postalCode":"8196","locality":"Wil ZH","commune":{"key":"71","name":"Wil (ZH)","shortName":"Wil (ZH)"},"district":{"key":"103","name":"Bezirk Bülach"},"canton":{"key":"1","code":"ZH","name":"Zürich"},"status":"Real"},{"key":"10248751","name":"Oberer Hostetsweg","postalCode":"8196","locality":"Wil ZH","commune":{"key":"71","name":"Wil (ZH)","shortName":"Wil (ZH)"},"district":{"key":"103","name":"Bezirk Bülach"},"canton":{"key":"1","code":"ZH","name":"Zürich"},"status":"Real"},{"key":"10003921","name":"Oberer Landmannsbungert","postalCode":"8196","locality":"Wil ZH","commune":{"key":"71","name":"Wil (ZH)","shortName":"Wil (ZH)"},"district":{"key":"103","name":"Bezirk Bülach"},"canton":{"key":"1","code":"ZH","name":"Zürich"},"status":"Real"},{"key":"10248841","name":"Pfaffengrundweg","postalCode":"8196","locality":"Wil ZH","commune":{"key":"71","name":"Wil (ZH)","shortName":"Wil (ZH)"},"district":{"key":"103","name":"Bezirk Bülach"},"canton":{"key":"1","code":"ZH","name":"Zürich"},"status":"Real"},{"key":"10003922","name":"Püntweg","postalCode":"8196","locality":"Wil ZH","commune":{"key":"71","name":"Wil (ZH)","shortName":"Wil (ZH)"},"district":{"key":"103","name":"Bezirk Bülach"},"canton":{"key":"1","code":"ZH","name":"Zürich"},"status":"Real"},{"key":"10003923","name":"Rebbergweg","postalCode":"8196","locality":"Wil ZH","commune":{"key":"71","name":"Wil (ZH)","shortName":"Wil (ZH)"},"district":{"key":"103","name":"Bezirk Bülach"},"canton":{"key":"1","code":"ZH","name":"Zürich"},"status":"Real"},{"key":"10242043","name":"Reservoirweg","postalCode":"8196","locality":"Wil ZH","commune":{"key":"71","name":"Wil (ZH)","shortName":"Wil (ZH)"},"district":{"key":"103","name":"Bezirk Bülach"},"canton":{"key":"1","code":"ZH","name":"Zürich"},"status":"Real"},{"key":"10242046","name":"Riederenstrasse","postalCode":"8196","locality":"Wil ZH","commune":{"key":"71","name":"Wil (ZH)","shortName":"Wil (ZH)"},"district":{"key":"103","name":"Bezirk Bülach"},"canton":{"key":"1","code":"ZH","name":"Zürich"},"status":"Real"},{"key":"10248285","name":"Rietliweg","postalCode":"8196","locality":"Wil ZH","commune":{"key":"71","name":"Wil (ZH)","shortName":"Wil (ZH)"},"district":{"key":"103","name":"Bezirk Bülach"},"canton":{"key":"1","code":"ZH","name":"Zürich"},"status":"Real"},{"key":"10248297","name":"Ritzlibachweg","postalCode":"8196","locality":"Wil ZH","commune":{"key":"71","name":"Wil (ZH)","shortName":"Wil (ZH)"},"district":{"key":"103","name":"Bezirk Bülach"},"canton":{"key":"1","code":"ZH","name":"Zürich"},"status":"Real"},{"key":"10248301","name":"Rodigweg","postalCode":"8196","locality":"Wil ZH","commune":{"key":"71","name":"Wil (ZH)","shortName":"Wil (ZH)"},"district":{"key":"103","name":"Bezirk Bülach"},"canton":{"key":"1","code":"ZH","name":"Zürich"},"status":"Real"},{"key":"10248339","name":"Rottbronnenweg","postalCode":"8196","locality":"Wil ZH","commune":{"key":"71","name":"Wil (ZH)","shortName":"Wil (ZH)"},"district":{"key":"103","name":"Bezirk Bülach"},"canton":{"key":"1","code":"ZH","name":"Zürich"},"status":"Real"},{"key":"10084350","name":"Rüdlingerstrasse","postalCode":"8196","locality":"Wil ZH","commune":{"key":"71","name":"Wil (ZH)","shortName":"Wil (ZH)"},"district":{"key":"103","name":"Bezirk Bülach"},"canton":{"key":"1","code":"ZH","name":"Zürich"},"status":"Real"},{"key":"10003924","name":"Ruggstrasse","postalCode":"8196","locality":"Wil ZH","commune":{"key":"71","name":"Wil (ZH)","shortName":"Wil (ZH)"},"district":{"key":"103","name":"Bezirk Bülach"},"canton":{"key":"1","code":"ZH","name":"Zürich"},"status":"Real"},{"key":"10197650","name":"Sandbücken","postalCode":"8196","locality":"Wil ZH","commune":{"key":"71","name":"Wil (ZH)","shortName":"Wil (ZH)"},"district":{"key":"103","name":"Bezirk Bülach"},"canton":{"key":"1","code":"ZH","name":"Zürich"},"status":"Real"},{"key":"10242049","name":"Schaffhuserweg","postalCode":"8196","locality":"Wil ZH","commune":{"key":"71","name":"Wil (ZH)","shortName":"Wil (ZH)"},"district":{"key":"103","name":"Bezirk Bülach"},"canton":{"key":"1","code":"ZH","name":"Zürich"},"status":"Real"},{"key":"10056184","name":"Schanzstrasse","postalCode":"8196","locality":"Wil ZH","commune":{"key":"71","name":"Wil (ZH)","shortName":"Wil (ZH)"},"district":{"key":"103","name":"Bezirk Bülach"},"canton":{"key":"1","code":"ZH","name":"Zürich"},"status":"Real"},{"key":"10110224","name":"Schulstrasse","postalCode":"8196","locality":"Wil ZH","commune":{"key":"71","name":"Wil (ZH)","shortName":"Wil (ZH)"},"district":{"key":"103","name":"Bezirk Bülach"},"canton":{"key":"1","code":"ZH","name":"Zürich"},"status":"Real"},{"key":"10003925","name":"Schützenhausstrasse","postalCode":"8196","locality":"Wil ZH","commune":{"key":"71","name":"Wil (ZH)","shortName":"Wil (ZH)"},"district":{"key":"103","name":"Bezirk Bülach"},"canton":{"key":"1","code":"ZH","name":"Zürich"},"status":"Real"},{"key":"10248637","name":"Schwarzackerweg","postalCode":"8196","locality":"Wil ZH","commune":{"key":"71","name":"Wil (ZH)","shortName":"Wil (ZH)"},"district":{"key":"103","name":"Bezirk Bülach"},"canton":{"key":"1","code":"ZH","name":"Zürich"},"status":"Real"},{"key":"10248476","name":"Sibenjuchertweg","postalCode":"8196","locality":"Wil ZH","commune":{"key":"71","name":"Wil (ZH)","shortName":"Wil (ZH)"},"district":{"key":"103","name":"Bezirk Bülach"},"canton":{"key":"1","code":"ZH","name":"Zürich"},"status":"Real"},{"key":"10084351","name":"Sonnenberg","postalCode":"8196","locality":"Wil ZH","commune":{"key":"71","name":"Wil (ZH)","shortName":"Wil (ZH)"},"district":{"key":"103","name":"Bezirk Bülach"},"canton":{"key":"1","code":"ZH","name":"Zürich"},"status":"Real"},{"key":"10248567","name":"Steigweg","postalCode":"8196","locality":"Wil ZH","commune":{"key":"71","name":"Wil (ZH)","shortName":"Wil (ZH)"},"district":{"key":"103","name":"Bezirk Bülach"},"canton":{"key":"1","code":"ZH","name":"Zürich"},"status":"Real"},{"key":"10109322","name":"Tierligraben","postalCode":"8196","locality":"Wil ZH","commune":{"key":"71","name":"Wil (ZH)","shortName":"Wil (ZH)"},"district":{"key":"103","name":"Bezirk Bülach"},"canton":{"key":"1","code":"ZH","name":"Zürich"},"status":"Real"},{"key":"10242045","name":"Tierligrabenweg","postalCode":"8196","locality":"Wil ZH","commune":{"key":"71","name":"Wil (ZH)","shortName":"Wil (ZH)"},"district":{"key":"103","name":"Bezirk Bülach"},"canton":{"key":"1","code":"ZH","name":"Zürich"},"status":"Real"},{"key":"10003926","name":"Trottenweg","postalCode":"8196","locality":"Wil ZH","commune":{"key":"71","name":"Wil (ZH)","shortName":"Wil (ZH)"},"district":{"key":"103","name":"Bezirk Bülach"},"canton":{"key":"1","code":"ZH","name":"Zürich"},"status":"Real"},{"key":"10248867","name":"Tüfenrietweg","postalCode":"8196","locality":"Wil ZH","commune":{"key":"71","name":"Wil (ZH)","shortName":"Wil (ZH)"},"district":{"key":"103","name":"Bezirk Bülach"},"canton":{"key":"1","code":"ZH","name":"Zürich"},"status":"Real"},{"key":"10056185","name":"Untere Haldenstrasse","postalCode":"8196","locality":"Wil ZH","commune":{"key":"71","name":"Wil (ZH)","shortName":"Wil (ZH)"},"district":{"key":"103","name":"Bezirk Bülach"},"canton":{"key":"1","code":"ZH","name":"Zürich"},"status":"Real"},{"key":"10003927","name":"Untere Lirenhofstrasse","postalCode":"8196","locality":"Wil ZH","commune":{"key":"71","name":"Wil (ZH)","shortName":"Wil (ZH)"},"district":{"key":"103","name":"Bezirk Bülach"},"canton":{"key":"1","code":"ZH","name":"Zürich"},"status":"Real"},{"key":"10117352","name":"Untere Rebbergstrasse","postalCode":"8196","locality":"Wil ZH","commune":{"key":"71","name":"Wil (ZH)","shortName":"Wil (ZH)"},"district":{"key":"103","name":"Bezirk Bülach"},"canton":{"key":"1","code":"ZH","name":"Zürich"},"status":"Real"},{"key":"10248264","name":"Unterer Hostetsweg","postalCode":"8196","locality":"Wil ZH","commune":{"key":"71","name":"Wil (ZH)","shortName":"Wil (ZH)"},"district":{"key":"103","name":"Bezirk Bülach"},"canton":{"key":"1","code":"ZH","name":"Zürich"},"status":"Real"},{"key":"10163819","name":"Unterer Landmannsbungert","postalCode":"8196","locality":"Wil ZH","commune":{"key":"71","name":"Wil (ZH)","shortName":"Wil (ZH)"},"district":{"key":"103","name":"Bezirk Bülach"},"canton":{"key":"1","code":"ZH","name":"Zürich"},"status":"Real"},{"key":"10248288","name":"Unterweidweg","postalCode":"8196","locality":"Wil ZH","commune":{"key":"71","name":"Wil (ZH)","shortName":"Wil (ZH)"},"district":{"key":"103","name":"Bezirk Bülach"},"canton":{"key":"1","code":"ZH","name":"Zürich"},"status":"Real"},{"key":"10248321","name":"Vorbälweg","postalCode":"8196","locality":"Wil ZH","commune":{"key":"71","name":"Wil (ZH)","shortName":"Wil (ZH)"},"district":{"key":"103","name":"Bezirk Bülach"},"canton":{"key":"1","code":"ZH","name":"Zürich"},"status":"Real"},{"key":"10248329","name":"Vorderbandweg","postalCode":"8196","locality":"Wil ZH","commune":{"key":"71","name":"Wil (ZH)","shortName":"Wil (ZH)"},"district":{"key":"103","name":"Bezirk Bülach"},"canton":{"key":"1","code":"ZH","name":"Zürich"},"status":"Real"},{"key":"10242055","name":"Wasterchingerhauweg","postalCode":"8196","locality":"Wil ZH","commune":{"key":"71","name":"Wil (ZH)","shortName":"Wil (ZH)"},"district":{"key":"103","name":"Bezirk Bülach"},"canton":{"key":"1","code":"ZH","name":"Zürich"},"status":"Real"},{"key":"10003928","name":"Weinbergstrasse","postalCode":"8196","locality":"Wil ZH","commune":{"key":"71","name":"Wil (ZH)","shortName":"Wil (ZH)"},"district":{"key":"103","name":"Bezirk Bülach"},"canton":{"key":"1","code":"ZH","name":"Zürich"},"status":"Real"},{"key":"10003929","name":"Wendelbuckstrasse","postalCode":"8196","locality":"Wil ZH","commune":{"key":"71","name":"Wil (ZH)","shortName":"Wil (ZH)"},"district":{"key":"103","name":"Bezirk Bülach"},"canton":{"key":"1","code":"ZH","name":"Zürich"},"status":"Real"},{"key":"10246911","name":"Wendelbuckweg","postalCode":"8196","locality":"Wil ZH","commune":{"key":"71","name":"Wil (ZH)","shortName":"Wil (ZH)"},"district":{"key":"103","name":"Bezirk Bülach"},"canton":{"key":"1","code":"ZH","name":"Zürich"},"status":"Real"},{"key":"10112375","name":"Wiesengasse","postalCode":"8196","locality":"Wil ZH","commune":{"key":"71","name":"Wil (ZH)","shortName":"Wil (ZH)"},"district":{"key":"103","name":"Bezirk Bülach"},"canton":{"key":"1","code":"ZH","name":"Zürich"},"status":"Real"},{"key":"10084352","name":"Wiesenweg","postalCode":"8196","locality":"Wil ZH","commune":{"key":"71","name":"Wil (ZH)","shortName":"Wil (ZH)"},"district":{"key":"103","name":"Bezirk Bülach"},"canton":{"key":"1","code":"ZH","name":"Zürich"},"status":"Real"},{"key":"10248507","name":"Wisstannenspitzweg","postalCode":"8196","locality":"Wil ZH","commune":{"key":"71","name":"Wil (ZH)","shortName":"Wil (ZH)"},"district":{"key":"103","name":"Bezirk Bülach"},"canton":{"key":"1","code":"ZH","name":"Zürich"},"status":"Real"},{"key":"10242051","name":"Zollstrasse","postalCode":"8196","locality":"Wil ZH","commune":{"key":"71","name":"Wil (ZH)","shortName":"Wil (ZH)"},"district":{"key":"103","name":"Bezirk Bülach"},"canton":{"key":"1","code":"ZH","name":"Zürich"},"status":"Real"},]