[{"key":"10159486","name":"Bassuno","postalCode":"6614","locality":"Brissago","commune":{"key":"5097","name":"Brissago","shortName":"Brissago"},"district":{"key":"2104","name":"Distretto di Locarno"},"canton":{"key":"21","code":"TI","name":"Ticino"},"status":"Real"},{"key":"10246968","name":"Caccio","postalCode":"6614","locality":"Brissago","commune":{"key":"5097","name":"Brissago","shortName":"Brissago"},"district":{"key":"2104","name":"Distretto di Locarno"},"canton":{"key":"21","code":"TI","name":"Ticino"},"status":"Real"},{"key":"10132984","name":"Cadogno","postalCode":"6614","locality":"Brissago","commune":{"key":"5097","name":"Brissago","shortName":"Brissago"},"district":{"key":"2104","name":"Distretto di Locarno"},"canton":{"key":"21","code":"TI","name":"Ticino"},"status":"Real"},{"key":"10157953","name":"Cortaccio","postalCode":"6614","locality":"Brissago","commune":{"key":"5097","name":"Brissago","shortName":"Brissago"},"district":{"key":"2104","name":"Distretto di Locarno"},"canton":{"key":"21","code":"TI","name":"Ticino"},"status":"Real"},{"key":"10132985","name":"Gadero","postalCode":"6614","locality":"Brissago","commune":{"key":"5097","name":"Brissago","shortName":"Brissago"},"district":{"key":"2104","name":"Distretto di Locarno"},"canton":{"key":"21","code":"TI","name":"Ticino"},"status":"Real"},{"key":"10132986","name":"Gradinata del Calvario","postalCode":"6614","locality":"Brissago","commune":{"key":"5097","name":"Brissago","shortName":"Brissago"},"district":{"key":"2104","name":"Distretto di Locarno"},"canton":{"key":"21","code":"TI","name":"Ticino"},"status":"Real"},{"key":"10132987","name":"Incella","postalCode":"6614","locality":"Brissago","commune":{"key":"5097","name":"Brissago","shortName":"Brissago"},"district":{"key":"2104","name":"Distretto di Locarno"},"canton":{"key":"21","code":"TI","name":"Ticino"},"status":"Real"},{"key":"10162100","name":"Isole di Brissago","postalCode":"6614","locality":"Isole di Brissago","commune":{"key":"5097","name":"Brissago","shortName":"Brissago"},"district":{"key":"2104","name":"Distretto di Locarno"},"canton":{"key":"21","code":"TI","name":"Ticino"},"status":"Real"},{"key":"10238207","name":"Monti di Incella","postalCode":"6614","locality":"Brissago","commune":{"key":"5097","name":"Brissago","shortName":"Brissago"},"district":{"key":"2104","name":"Distretto di Locarno"},"canton":{"key":"21","code":"TI","name":"Ticino"},"status":"Real"},{"key":"10238187","name":"Monti di Nevedone","postalCode":"6614","locality":"Brissago","commune":{"key":"5097","name":"Brissago","shortName":"Brissago"},"district":{"key":"2104","name":"Distretto di Locarno"},"canton":{"key":"21","code":"TI","name":"Ticino"},"status":"Real"},{"key":"10238220","name":"Monti di Piodina","postalCode":"6614","locality":"Brissago","commune":{"key":"5097","name":"Brissago","shortName":"Brissago"},"district":{"key":"2104","name":"Distretto di Locarno"},"canton":{"key":"21","code":"TI","name":"Ticino"},"status":"Real"},{"key":"10238205","name":"Monti di Porta","postalCode":"6614","locality":"Brissago","commune":{"key":"5097","name":"Brissago","shortName":"Brissago"},"district":{"key":"2104","name":"Distretto di Locarno"},"canton":{"key":"21","code":"TI","name":"Ticino"},"status":"Real"},{"key":"10132988","name":"Muro degli Ottevi","postalCode":"6614","locality":"Brissago","commune":{"key":"5097","name":"Brissago","shortName":"Brissago"},"district":{"key":"2104","name":"Distretto di Locarno"},"canton":{"key":"21","code":"TI","name":"Ticino"},"status":"Real"},{"key":"10238209","name":"Naccio","postalCode":"6614","locality":"Brissago","commune":{"key":"5097","name":"Brissago","shortName":"Brissago"},"district":{"key":"2104","name":"Distretto di Locarno"},"canton":{"key":"21","code":"TI","name":"Ticino"},"status":"Real"},{"key":"10132989","name":"Nevedone","postalCode":"6614","locality":"Brissago","commune":{"key":"5097","name":"Brissago","shortName":"Brissago"},"district":{"key":"2104","name":"Distretto di Locarno"},"canton":{"key":"21","code":"TI","name":"Ticino"},"status":"Real"},{"key":"10132990","name":"Noveledo","postalCode":"6614","locality":"Brissago","commune":{"key":"5097","name":"Brissago","shortName":"Brissago"},"district":{"key":"2104","name":"Distretto di Locarno"},"canton":{"key":"21","code":"TI","name":"Ticino"},"status":"Real"},{"key":"10132991","name":"Piazza Municipio","postalCode":"6614","locality":"Brissago","commune":{"key":"5097","name":"Brissago","shortName":"Brissago"},"district":{"key":"2104","name":"Distretto di Locarno"},"canton":{"key":"21","code":"TI","name":"Ticino"},"status":"Real"},{"key":"10132992","name":"Piodina","postalCode":"6614","locality":"Brissago","commune":{"key":"5097","name":"Brissago","shortName":"Brissago"},"district":{"key":"2104","name":"Distretto di Locarno"},"canton":{"key":"21","code":"TI","name":"Ticino"},"status":"Real"},{"key":"10132993","name":"Porta","postalCode":"6614","locality":"Brissago","commune":{"key":"5097","name":"Brissago","shortName":"Brissago"},"district":{"key":"2104","name":"Distretto di Locarno"},"canton":{"key":"21","code":"TI","name":"Ticino"},"status":"Real"},{"key":"10238252","name":"Rescerasca","postalCode":"6614","locality":"Brissago","commune":{"key":"5097","name":"Brissago","shortName":"Brissago"},"district":{"key":"2104","name":"Distretto di Locarno"},"canton":{"key":"21","code":"TI","name":"Ticino"},"status":"Real"},{"key":"10132994","name":"Rossorino","postalCode":"6614","locality":"Brissago","commune":{"key":"5097","name":"Brissago","shortName":"Brissago"},"district":{"key":"2104","name":"Distretto di Locarno"},"canton":{"key":"21","code":"TI","name":"Ticino"},"status":"Real"},{"key":"10132997","name":"Scalinata alla Riva","postalCode":"6614","locality":"Brissago","commune":{"key":"5097","name":"Brissago","shortName":"Brissago"},"district":{"key":"2104","name":"Distretto di Locarno"},"canton":{"key":"21","code":"TI","name":"Ticino"},"status":"Real"},{"key":"10132998","name":"Scalinata del Porto","postalCode":"6614","locality":"Brissago","commune":{"key":"5097","name":"Brissago","shortName":"Brissago"},"district":{"key":"2104","name":"Distretto di Locarno"},"canton":{"key":"21","code":"TI","name":"Ticino"},"status":"Real"},{"key":"10132999","name":"Scalinata Dogana","postalCode":"6614","locality":"Brissago","commune":{"key":"5097","name":"Brissago","shortName":"Brissago"},"district":{"key":"2104","name":"Distretto di Locarno"},"canton":{"key":"21","code":"TI","name":"Ticino"},"status":"Real"},{"key":"10133000","name":"Sentiero ai Brenz","postalCode":"6614","locality":"Brissago","commune":{"key":"5097","name":"Brissago","shortName":"Brissago"},"district":{"key":"2104","name":"Distretto di Locarno"},"canton":{"key":"21","code":"TI","name":"Ticino"},"status":"Real"},{"key":"10133002","name":"Sentiero del Mulino","postalCode":"6614","locality":"Brissago","commune":{"key":"5097","name":"Brissago","shortName":"Brissago"},"district":{"key":"2104","name":"Distretto di Locarno"},"canton":{"key":"21","code":"TI","name":"Ticino"},"status":"Real"},{"key":"10133004","name":"Sentiero del Sepione","postalCode":"6614","locality":"Brissago","commune":{"key":"5097","name":"Brissago","shortName":"Brissago"},"district":{"key":"2104","name":"Distretto di Locarno"},"canton":{"key":"21","code":"TI","name":"Ticino"},"status":"Real"},{"key":"10133007","name":"Sentiero di Bardone","postalCode":"6614","locality":"Brissago","commune":{"key":"5097","name":"Brissago","shortName":"Brissago"},"district":{"key":"2104","name":"Distretto di Locarno"},"canton":{"key":"21","code":"TI","name":"Ticino"},"status":"Real"},{"key":"10133008","name":"Sentiero di Solangio","postalCode":"6614","locality":"Brissago","commune":{"key":"5097","name":"Brissago","shortName":"Brissago"},"district":{"key":"2104","name":"Distretto di Locarno"},"canton":{"key":"21","code":"TI","name":"Ticino"},"status":"Real"},{"key":"10133009","name":"Via ai Cipressi","postalCode":"6614","locality":"Brissago","commune":{"key":"5097","name":"Brissago","shortName":"Brissago"},"district":{"key":"2104","name":"Distretto di Locarno"},"canton":{"key":"21","code":"TI","name":"Ticino"},"status":"Real"},{"key":"10133010","name":"Via al Lago","postalCode":"6614","locality":"Brissago","commune":{"key":"5097","name":"Brissago","shortName":"Brissago"},"district":{"key":"2104","name":"Distretto di Locarno"},"canton":{"key":"21","code":"TI","name":"Ticino"},"status":"Real"},{"key":"10133011","name":"Via Beredo","postalCode":"6614","locality":"Brissago","commune":{"key":"5097","name":"Brissago","shortName":"Brissago"},"district":{"key":"2104","name":"Distretto di Locarno"},"canton":{"key":"21","code":"TI","name":"Ticino"},"status":"Real"},{"key":"10125101","name":"Via Bertogna","postalCode":"6614","locality":"Brissago","commune":{"key":"5097","name":"Brissago","shortName":"Brissago"},"district":{"key":"2104","name":"Distretto di Locarno"},"canton":{"key":"21","code":"TI","name":"Ticino"},"status":"Real"},{"key":"10125102","name":"Via Borboniga","postalCode":"6614","locality":"Brissago","commune":{"key":"5097","name":"Brissago","shortName":"Brissago"},"district":{"key":"2104","name":"Distretto di Locarno"},"canton":{"key":"21","code":"TI","name":"Ticino"},"status":"Real"},{"key":"10125103","name":"Via Cagetto","postalCode":"6614","locality":"Brissago","commune":{"key":"5097","name":"Brissago","shortName":"Brissago"},"district":{"key":"2104","name":"Distretto di Locarno"},"canton":{"key":"21","code":"TI","name":"Ticino"},"status":"Real"},{"key":"10125104","name":"Via Costa di Dentro","postalCode":"6614","locality":"Brissago","commune":{"key":"5097","name":"Brissago","shortName":"Brissago"},"district":{"key":"2104","name":"Distretto di Locarno"},"canton":{"key":"21","code":"TI","name":"Ticino"},"status":"Real"},{"key":"10125105","name":"Via Costa di Fuori","postalCode":"6614","locality":"Brissago","commune":{"key":"5097","name":"Brissago","shortName":"Brissago"},"district":{"key":"2104","name":"Distretto di Locarno"},"canton":{"key":"21","code":"TI","name":"Ticino"},"status":"Real"},{"key":"10125106","name":"Via Costa di Mezzo","postalCode":"6614","locality":"Brissago","commune":{"key":"5097","name":"Brissago","shortName":"Brissago"},"district":{"key":"2104","name":"Distretto di Locarno"},"canton":{"key":"21","code":"TI","name":"Ticino"},"status":"Real"},{"key":"10125107","name":"Via Credirolo","postalCode":"6614","locality":"Brissago","commune":{"key":"5097","name":"Brissago","shortName":"Brissago"},"district":{"key":"2104","name":"Distretto di Locarno"},"canton":{"key":"21","code":"TI","name":"Ticino"},"status":"Real"},{"key":"10125108","name":"Via Crodolo","postalCode":"6614","locality":"Brissago","commune":{"key":"5097","name":"Brissago","shortName":"Brissago"},"district":{"key":"2104","name":"Distretto di Locarno"},"canton":{"key":"21","code":"TI","name":"Ticino"},"status":"Real"},{"key":"10125109","name":"Via Debarcadero","postalCode":"6614","locality":"Brissago","commune":{"key":"5097","name":"Brissago","shortName":"Brissago"},"district":{"key":"2104","name":"Distretto di Locarno"},"canton":{"key":"21","code":"TI","name":"Ticino"},"status":"Real"},{"key":"10125110","name":"Via della Chiesa","postalCode":"6614","locality":"Brissago","commune":{"key":"5097","name":"Brissago","shortName":"Brissago"},"district":{"key":"2104","name":"Distretto di Locarno"},"canton":{"key":"21","code":"TI","name":"Ticino"},"status":"Real"},{"key":"10125111","name":"Via delle Scuole","postalCode":"6614","locality":"Brissago","commune":{"key":"5097","name":"Brissago","shortName":"Brissago"},"district":{"key":"2104","name":"Distretto di Locarno"},"canton":{"key":"21","code":"TI","name":"Ticino"},"status":"Real"},{"key":"10125112","name":"Via Ferab√≤","postalCode":"6614","locality":"Brissago","commune":{"key":"5097","name":"Brissago","shortName":"Brissago"},"district":{"key":"2104","name":"Distretto di Locarno"},"canton":{"key":"21","code":"TI","name":"Ticino"},"status":"Real"},{"key":"10125113","name":"Via Filagna","postalCode":"6614","locality":"Brissago","commune":{"key":"5097","name":"Brissago","shortName":"Brissago"},"district":{"key":"2104","name":"Distretto di Locarno"},"canton":{"key":"21","code":"TI","name":"Ticino"},"status":"Real"},{"key":"10125114","name":"Via Fransiolo","postalCode":"6614","locality":"Brissago","commune":{"key":"5097","name":"Brissago","shortName":"Brissago"},"district":{"key":"2104","name":"Distretto di Locarno"},"canton":{"key":"21","code":"TI","name":"Ticino"},"status":"Real"},{"key":"10125115","name":"Via Gabbietta","postalCode":"6614","locality":"Brissago","commune":{"key":"5097","name":"Brissago","shortName":"Brissago"},"district":{"key":"2104","name":"Distretto di Locarno"},"canton":{"key":"21","code":"TI","name":"Ticino"},"status":"Real"},{"key":"10125116","name":"Via Gerusalemme","postalCode":"6614","locality":"Brissago","commune":{"key":"5097","name":"Brissago","shortName":"Brissago"},"district":{"key":"2104","name":"Distretto di Locarno"},"canton":{"key":"21","code":"TI","name":"Ticino"},"status":"Real"},{"key":"10125117","name":"Via Ghiridone","postalCode":"6614","locality":"Brissago","commune":{"key":"5097","name":"Brissago","shortName":"Brissago"},"district":{"key":"2104","name":"Distretto di Locarno"},"canton":{"key":"21","code":"TI","name":"Ticino"},"status":"Real"},{"key":"10125133","name":"Viale Lungolago","postalCode":"6614","locality":"Brissago","commune":{"key":"5097","name":"Brissago","shortName":"Brissago"},"district":{"key":"2104","name":"Distretto di Locarno"},"canton":{"key":"21","code":"TI","name":"Ticino"},"status":"Real"},{"key":"10125118","name":"Via Malpensata","postalCode":"6614","locality":"Brissago","commune":{"key":"5097","name":"Brissago","shortName":"Brissago"},"district":{"key":"2104","name":"Distretto di Locarno"},"canton":{"key":"21","code":"TI","name":"Ticino"},"status":"Real"},{"key":"10125119","name":"Via Martino","postalCode":"6614","locality":"Brissago","commune":{"key":"5097","name":"Brissago","shortName":"Brissago"},"district":{"key":"2104","name":"Distretto di Locarno"},"canton":{"key":"21","code":"TI","name":"Ticino"},"status":"Real"},{"key":"10125120","name":"Via Medegheggia","postalCode":"6614","locality":"Brissago","commune":{"key":"5097","name":"Brissago","shortName":"Brissago"},"district":{"key":"2104","name":"Distretto di Locarno"},"canton":{"key":"21","code":"TI","name":"Ticino"},"status":"Real"},{"key":"10125121","name":"Via Mozzana","postalCode":"6614","locality":"Brissago","commune":{"key":"5097","name":"Brissago","shortName":"Brissago"},"district":{"key":"2104","name":"Distretto di Locarno"},"canton":{"key":"21","code":"TI","name":"Ticino"},"status":"Real"},{"key":"10125122","name":"Via Naccio","postalCode":"6614","locality":"Brissago","commune":{"key":"5097","name":"Brissago","shortName":"Brissago"},"district":{"key":"2104","name":"Distretto di Locarno"},"canton":{"key":"21","code":"TI","name":"Ticino"},"status":"Real"},{"key":"10125123","name":"Via Ovega","postalCode":"6614","locality":"Brissago","commune":{"key":"5097","name":"Brissago","shortName":"Brissago"},"district":{"key":"2104","name":"Distretto di Locarno"},"canton":{"key":"21","code":"TI","name":"Ticino"},"status":"Real"},{"key":"10125124","name":"Via Panoramica","postalCode":"6614","locality":"Brissago","commune":{"key":"5097","name":"Brissago","shortName":"Brissago"},"district":{"key":"2104","name":"Distretto di Locarno"},"canton":{"key":"21","code":"TI","name":"Ticino"},"status":"Real"},{"key":"10125125","name":"Via Piazza","postalCode":"6614","locality":"Brissago","commune":{"key":"5097","name":"Brissago","shortName":"Brissago"},"district":{"key":"2104","name":"Distretto di Locarno"},"canton":{"key":"21","code":"TI","name":"Ticino"},"status":"Real"},{"key":"10125126","name":"Via Pioda","postalCode":"6614","locality":"Brissago","commune":{"key":"5097","name":"Brissago","shortName":"Brissago"},"district":{"key":"2104","name":"Distretto di Locarno"},"canton":{"key":"21","code":"TI","name":"Ticino"},"status":"Real"},{"key":"10125127","name":"Via Porbetto","postalCode":"6614","locality":"Brissago","commune":{"key":"5097","name":"Brissago","shortName":"Brissago"},"district":{"key":"2104","name":"Distretto di Locarno"},"canton":{"key":"21","code":"TI","name":"Ticino"},"status":"Real"},{"key":"10125129","name":"Via Riasco","postalCode":"6614","locality":"Brissago","commune":{"key":"5097","name":"Brissago","shortName":"Brissago"},"district":{"key":"2104","name":"Distretto di Locarno"},"canton":{"key":"21","code":"TI","name":"Ticino"},"status":"Real"},{"key":"10125128","name":"Via R. Leoncavallo","postalCode":"6614","locality":"Brissago","commune":{"key":"5097","name":"Brissago","shortName":"Brissago"},"district":{"key":"2104","name":"Distretto di Locarno"},"canton":{"key":"21","code":"TI","name":"Ticino"},"status":"Real"},{"key":"10125130","name":"Via Sacro Monte","postalCode":"6614","locality":"Brissago","commune":{"key":"5097","name":"Brissago","shortName":"Brissago"},"district":{"key":"2104","name":"Distretto di Locarno"},"canton":{"key":"21","code":"TI","name":"Ticino"},"status":"Real"},{"key":"10125131","name":"Via San Giorgio","postalCode":"6614","locality":"Brissago","commune":{"key":"5097","name":"Brissago","shortName":"Brissago"},"district":{"key":"2104","name":"Distretto di Locarno"},"canton":{"key":"21","code":"TI","name":"Ticino"},"status":"Real"},{"key":"10125132","name":"Via Valmara","postalCode":"6614","locality":"Brissago","commune":{"key":"5097","name":"Brissago","shortName":"Brissago"},"district":{"key":"2104","name":"Distretto di Locarno"},"canton":{"key":"21","code":"TI","name":"Ticino"},"status":"Real"},{"key":"10125134","name":"Vicolo al Castello","postalCode":"6614","locality":"Brissago","commune":{"key":"5097","name":"Brissago","shortName":"Brissago"},"district":{"key":"2104","name":"Distretto di Locarno"},"canton":{"key":"21","code":"TI","name":"Ticino"},"status":"Real"},{"key":"10125135","name":"Vicolo dei Foghitt","postalCode":"6614","locality":"Brissago","commune":{"key":"5097","name":"Brissago","shortName":"Brissago"},"district":{"key":"2104","name":"Distretto di Locarno"},"canton":{"key":"21","code":"TI","name":"Ticino"},"status":"Real"},]