[{"name":"Am Hofstück","postalCode":"98660","locality":"Grimmelshausen","municipality":{"key":"16069016","name":"Grimmelshausen","type":"Kreisangehörige_Gemeinde"},"district":{"key":"16069","name":"Hildburghausen","type":"Landkreis"},"federalState":{"key":"16","name":"Thüringen"}},{"name":"Bäckergasse","postalCode":"98646","locality":"Hildburghausen","municipality":{"key":"16069024","name":"Hildburghausen, Stadt","type":"Stadt"},"district":{"key":"16069","name":"Hildburghausen","type":"Landkreis"},"federalState":{"key":"16","name":"Thüringen"}},{"name":"Bahnhofstr.","postalCode":"98646","locality":"Hildburghausen","municipality":{"key":"16069024","name":"Hildburghausen, Stadt","type":"Stadt"},"district":{"key":"16069","name":"Hildburghausen","type":"Landkreis"},"federalState":{"key":"16","name":"Thüringen"}},{"name":"Bauershof","postalCode":"98646","locality":"Hildburghausen","municipality":{"key":"16069024","name":"Hildburghausen, Stadt","type":"Stadt"},"district":{"key":"16069","name":"Hildburghausen","type":"Landkreis"},"federalState":{"key":"16","name":"Thüringen"}},{"name":"Bechergasse","postalCode":"98646","locality":"Hildburghausen","municipality":{"key":"16069024","name":"Hildburghausen, Stadt","type":"Stadt"},"district":{"key":"16069","name":"Hildburghausen","type":"Landkreis"},"federalState":{"key":"16","name":"Thüringen"}},{"name":"Bernhardsbach","postalCode":"98646","locality":"Hildburghausen","municipality":{"key":"16069024","name":"Hildburghausen, Stadt","type":"Stadt"},"district":{"key":"16069","name":"Hildburghausen","type":"Landkreis"},"federalState":{"key":"16","name":"Thüringen"}},{"name":"Birkenfelder Str.","postalCode":"98646","locality":"Hildburghausen","municipality":{"key":"16069024","name":"Hildburghausen, Stadt","type":"Stadt"},"district":{"key":"16069","name":"Hildburghausen","type":"Landkreis"},"federalState":{"key":"16","name":"Thüringen"}},{"name":"Breiter Rasen","postalCode":"98646","locality":"Hildburghausen","municipality":{"key":"16069024","name":"Hildburghausen, Stadt","type":"Stadt"},"district":{"key":"16069","name":"Hildburghausen","type":"Landkreis"},"federalState":{"key":"16","name":"Thüringen"}},{"name":"Clara-Zetkin-Str.","postalCode":"98646","locality":"Hildburghausen","municipality":{"key":"16069024","name":"Hildburghausen, Stadt","type":"Stadt"},"district":{"key":"16069","name":"Hildburghausen","type":"Landkreis"},"federalState":{"key":"16","name":"Thüringen"}},{"name":"Coburger Str.","postalCode":"98646","locality":"Hildburghausen","municipality":{"key":"16069024","name":"Hildburghausen, Stadt","type":"Stadt"},"district":{"key":"16069","name":"Hildburghausen","type":"Landkreis"},"federalState":{"key":"16","name":"Thüringen"}},{"name":"Dorfstr.","postalCode":"98660","locality":"Grimmelshausen","municipality":{"key":"16069016","name":"Grimmelshausen","type":"Kreisangehörige_Gemeinde"},"district":{"key":"16069","name":"Hildburghausen","type":"Landkreis"},"federalState":{"key":"16","name":"Thüringen"}},{"name":"Dorlesweg","postalCode":"98660","locality":"Grimmelshausen","municipality":{"key":"16069016","name":"Grimmelshausen","type":"Kreisangehörige_Gemeinde"},"district":{"key":"16069","name":"Hildburghausen","type":"Landkreis"},"federalState":{"key":"16","name":"Thüringen"}},{"name":"Ebenhardser Brunnenweg","postalCode":"98646","locality":"Hildburghausen","municipality":{"key":"16069024","name":"Hildburghausen, Stadt","type":"Stadt"},"district":{"key":"16069","name":"Hildburghausen","type":"Landkreis"},"federalState":{"key":"16","name":"Thüringen"}},{"name":"Ebenhardser Dorfstr.","postalCode":"98646","locality":"Hildburghausen","municipality":{"key":"16069024","name":"Hildburghausen, Stadt","type":"Stadt"},"district":{"key":"16069","name":"Hildburghausen","type":"Landkreis"},"federalState":{"key":"16","name":"Thüringen"}},{"name":"Ebenhardser Neustadt","postalCode":"98646","locality":"Hildburghausen","municipality":{"key":"16069024","name":"Hildburghausen, Stadt","type":"Stadt"},"district":{"key":"16069","name":"Hildburghausen","type":"Landkreis"},"federalState":{"key":"16","name":"Thüringen"}},{"name":"Eberhardser Dorfstr.","postalCode":"98646","locality":"Hildburghausen","municipality":{"key":"16069024","name":"Hildburghausen, Stadt","type":"Stadt"},"district":{"key":"16069","name":"Hildburghausen","type":"Landkreis"},"federalState":{"key":"16","name":"Thüringen"}},{"name":"Eibenweg","postalCode":"98646","locality":"Hildburghausen","municipality":{"key":"16069024","name":"Hildburghausen, Stadt","type":"Stadt"},"district":{"key":"16069","name":"Hildburghausen","type":"Landkreis"},"federalState":{"key":"16","name":"Thüringen"}},{"name":"Eisfelder Str.","postalCode":"98646","locality":"Hildburghausen","municipality":{"key":"16069024","name":"Hildburghausen, Stadt","type":"Stadt"},"district":{"key":"16069","name":"Hildburghausen","type":"Landkreis"},"federalState":{"key":"16","name":"Thüringen"}},{"name":"Eishäuser Str.","postalCode":"98646","locality":"Hildburghausen","municipality":{"key":"16069024","name":"Hildburghausen, Stadt","type":"Stadt"},"district":{"key":"16069","name":"Hildburghausen","type":"Landkreis"},"federalState":{"key":"16","name":"Thüringen"}},{"name":"Elsternweg","postalCode":"98646","locality":"Hildburghausen","municipality":{"key":"16069024","name":"Hildburghausen, Stadt","type":"Stadt"},"district":{"key":"16069","name":"Hildburghausen","type":"Landkreis"},"federalState":{"key":"16","name":"Thüringen"}},{"name":"Erlenweg","postalCode":"98646","locality":"Hildburghausen","municipality":{"key":"16069024","name":"Hildburghausen, Stadt","type":"Stadt"},"district":{"key":"16069","name":"Hildburghausen","type":"Landkreis"},"federalState":{"key":"16","name":"Thüringen"}},{"name":"Ernst-Thälmann-Platz","postalCode":"98646","locality":"Hildburghausen","municipality":{"key":"16069024","name":"Hildburghausen, Stadt","type":"Stadt"},"district":{"key":"16069","name":"Hildburghausen","type":"Landkreis"},"federalState":{"key":"16","name":"Thüringen"}},{"name":"Finkenmühlenweg","postalCode":"98646","locality":"Hildburghausen","municipality":{"key":"16069024","name":"Hildburghausen, Stadt","type":"Stadt"},"district":{"key":"16069","name":"Hildburghausen","type":"Landkreis"},"federalState":{"key":"16","name":"Thüringen"}},{"name":"Finkenweg","postalCode":"98646","locality":"Hildburghausen","municipality":{"key":"16069024","name":"Hildburghausen, Stadt","type":"Stadt"},"district":{"key":"16069","name":"Hildburghausen","type":"Landkreis"},"federalState":{"key":"16","name":"Thüringen"}},{"name":"Forstweg","postalCode":"98646","locality":"Hildburghausen","municipality":{"key":"16069024","name":"Hildburghausen, Stadt","type":"Stadt"},"district":{"key":"16069","name":"Hildburghausen","type":"Landkreis"},"federalState":{"key":"16","name":"Thüringen"}},{"name":"Friedensstr.","postalCode":"98646","locality":"Hildburghausen","municipality":{"key":"16069024","name":"Hildburghausen, Stadt","type":"Stadt"},"district":{"key":"16069","name":"Hildburghausen","type":"Landkreis"},"federalState":{"key":"16","name":"Thüringen"}},{"name":"Friedensweg","postalCode":"98646","locality":"Hildburghausen","municipality":{"key":"16069024","name":"Hildburghausen, Stadt","type":"Stadt"},"district":{"key":"16069","name":"Hildburghausen","type":"Landkreis"},"federalState":{"key":"16","name":"Thüringen"}},{"name":"Friedrich-Fröbel-Str.","postalCode":"98646","locality":"Hildburghausen","municipality":{"key":"16069024","name":"Hildburghausen, Stadt","type":"Stadt"},"district":{"key":"16069","name":"Hildburghausen","type":"Landkreis"},"federalState":{"key":"16","name":"Thüringen"}},{"name":"Friedrich-Rückert-Str.","postalCode":"98646","locality":"Hildburghausen","municipality":{"key":"16069024","name":"Hildburghausen, Stadt","type":"Stadt"},"district":{"key":"16069","name":"Hildburghausen","type":"Landkreis"},"federalState":{"key":"16","name":"Thüringen"}},{"name":"Friedrichsanfang","postalCode":"98646","locality":"Hildburghausen","municipality":{"key":"16069024","name":"Hildburghausen, Stadt","type":"Stadt"},"district":{"key":"16069","name":"Hildburghausen","type":"Landkreis"},"federalState":{"key":"16","name":"Thüringen"}},{"name":"Friedrich-Sickler-Str.","postalCode":"98646","locality":"Hildburghausen","municipality":{"key":"16069024","name":"Hildburghausen, Stadt","type":"Stadt"},"district":{"key":"16069","name":"Hildburghausen","type":"Landkreis"},"federalState":{"key":"16","name":"Thüringen"}},{"name":"Friesenstr.","postalCode":"98646","locality":"Hildburghausen","municipality":{"key":"16069024","name":"Hildburghausen, Stadt","type":"Stadt"},"district":{"key":"16069","name":"Hildburghausen","type":"Landkreis"},"federalState":{"key":"16","name":"Thüringen"}},{"name":"Fuchsweg","postalCode":"98646","locality":"Hildburghausen","municipality":{"key":"16069024","name":"Hildburghausen, Stadt","type":"Stadt"},"district":{"key":"16069","name":"Hildburghausen","type":"Landkreis"},"federalState":{"key":"16","name":"Thüringen"}},{"name":"Gartenstr.","postalCode":"98646","locality":"Hildburghausen","municipality":{"key":"16069024","name":"Hildburghausen, Stadt","type":"Stadt"},"district":{"key":"16069","name":"Hildburghausen","type":"Landkreis"},"federalState":{"key":"16","name":"Thüringen"}},{"name":"Gerbergasse","postalCode":"98646","locality":"Hildburghausen","municipality":{"key":"16069024","name":"Hildburghausen, Stadt","type":"Stadt"},"district":{"key":"16069","name":"Hildburghausen","type":"Landkreis"},"federalState":{"key":"16","name":"Thüringen"}},{"name":"Geschwister-Scholl-Str.","postalCode":"98646","locality":"Hildburghausen","municipality":{"key":"16069024","name":"Hildburghausen, Stadt","type":"Stadt"},"district":{"key":"16069","name":"Hildburghausen","type":"Landkreis"},"federalState":{"key":"16","name":"Thüringen"}},{"name":"Goldbachstr.","postalCode":"98646","locality":"Hildburghausen","municipality":{"key":"16069024","name":"Hildburghausen, Stadt","type":"Stadt"},"district":{"key":"16069","name":"Hildburghausen","type":"Landkreis"},"federalState":{"key":"16","name":"Thüringen"}},{"name":"Goldbergweg","postalCode":"98646","locality":"Hildburghausen","municipality":{"key":"16069024","name":"Hildburghausen, Stadt","type":"Stadt"},"district":{"key":"16069","name":"Hildburghausen","type":"Landkreis"},"federalState":{"key":"16","name":"Thüringen"}},{"name":"Häfenmarkt","postalCode":"98646","locality":"Hildburghausen","municipality":{"key":"16069024","name":"Hildburghausen, Stadt","type":"Stadt"},"district":{"key":"16069","name":"Hildburghausen","type":"Landkreis"},"federalState":{"key":"16","name":"Thüringen"}},{"name":"Häselriether Str.","postalCode":"98646","locality":"Hildburghausen","municipality":{"key":"16069024","name":"Hildburghausen, Stadt","type":"Stadt"},"district":{"key":"16069","name":"Hildburghausen","type":"Landkreis"},"federalState":{"key":"16","name":"Thüringen"}},{"name":"Helenenstr.","postalCode":"98646","locality":"Hildburghausen","municipality":{"key":"16069024","name":"Hildburghausen, Stadt","type":"Stadt"},"district":{"key":"16069","name":"Hildburghausen","type":"Landkreis"},"federalState":{"key":"16","name":"Thüringen"}},{"name":"Hertelstr.","postalCode":"98646","locality":"Hildburghausen","municipality":{"key":"16069024","name":"Hildburghausen, Stadt","type":"Stadt"},"district":{"key":"16069","name":"Hildburghausen","type":"Landkreis"},"federalState":{"key":"16","name":"Thüringen"}},{"name":"Hildburghäuser Str.","postalCode":"98646","locality":"Hildburghausen","municipality":{"key":"16069024","name":"Hildburghausen, Stadt","type":"Stadt"},"district":{"key":"16069","name":"Hildburghausen","type":"Landkreis"},"federalState":{"key":"16","name":"Thüringen"}},{"name":"Hinter der Mauer","postalCode":"98646","locality":"Hildburghausen","municipality":{"key":"16069024","name":"Hildburghausen, Stadt","type":"Stadt"},"district":{"key":"16069","name":"Hildburghausen","type":"Landkreis"},"federalState":{"key":"16","name":"Thüringen"}},{"name":"Hofbäckersgäßchen","postalCode":"98646","locality":"Hildburghausen","municipality":{"key":"16069024","name":"Hildburghausen, Stadt","type":"Stadt"},"district":{"key":"16069","name":"Hildburghausen","type":"Landkreis"},"federalState":{"key":"16","name":"Thüringen"}},{"name":"Hohle","postalCode":"98646","locality":"Hildburghausen","municipality":{"key":"16069024","name":"Hildburghausen, Stadt","type":"Stadt"},"district":{"key":"16069","name":"Hildburghausen","type":"Landkreis"},"federalState":{"key":"16","name":"Thüringen"}},{"name":"Holzweg","postalCode":"98646","locality":"Hildburghausen","municipality":{"key":"16069024","name":"Hildburghausen, Stadt","type":"Stadt"},"district":{"key":"16069","name":"Hildburghausen","type":"Landkreis"},"federalState":{"key":"16","name":"Thüringen"}},{"name":"Hopfenleite","postalCode":"98646","locality":"Hildburghausen","municipality":{"key":"16069024","name":"Hildburghausen, Stadt","type":"Stadt"},"district":{"key":"16069","name":"Hildburghausen","type":"Landkreis"},"federalState":{"key":"16","name":"Thüringen"}},{"name":"Iltenbergstr.","postalCode":"98660","locality":"Grimmelshausen","municipality":{"key":"16069016","name":"Grimmelshausen","type":"Kreisangehörige_Gemeinde"},"district":{"key":"16069","name":"Hildburghausen","type":"Landkreis"},"federalState":{"key":"16","name":"Thüringen"}},{"name":"Johann-Sebastian-Bach-Platz","postalCode":"98646","locality":"Hildburghausen","municipality":{"key":"16069024","name":"Hildburghausen, Stadt","type":"Stadt"},"district":{"key":"16069","name":"Hildburghausen","type":"Landkreis"},"federalState":{"key":"16","name":"Thüringen"}},{"name":"Johann-Sebastian-Bach-Str.","postalCode":"98646","locality":"Hildburghausen","municipality":{"key":"16069024","name":"Hildburghausen, Stadt","type":"Stadt"},"district":{"key":"16069","name":"Hildburghausen","type":"Landkreis"},"federalState":{"key":"16","name":"Thüringen"}},{"name":"Joseph-Meyer-Str.","postalCode":"98646","locality":"Hildburghausen","municipality":{"key":"16069024","name":"Hildburghausen, Stadt","type":"Stadt"},"district":{"key":"16069","name":"Hildburghausen","type":"Landkreis"},"federalState":{"key":"16","name":"Thüringen"}},{"name":"Kanonenweg","postalCode":"98646","locality":"Hildburghausen","municipality":{"key":"16069024","name":"Hildburghausen, Stadt","type":"Stadt"},"district":{"key":"16069","name":"Hildburghausen","type":"Landkreis"},"federalState":{"key":"16","name":"Thüringen"}},{"name":"Kehrweg","postalCode":"98646","locality":"Hildburghausen","municipality":{"key":"16069024","name":"Hildburghausen, Stadt","type":"Stadt"},"district":{"key":"16069","name":"Hildburghausen","type":"Landkreis"},"federalState":{"key":"16","name":"Thüringen"}},{"name":"Kirchgasse","postalCode":"98646","locality":"Hildburghausen","municipality":{"key":"16069024","name":"Hildburghausen, Stadt","type":"Stadt"},"district":{"key":"16069","name":"Hildburghausen","type":"Landkreis"},"federalState":{"key":"16","name":"Thüringen"}},{"name":"Kirchstr.","postalCode":"98646","locality":"Hildburghausen","municipality":{"key":"16069024","name":"Hildburghausen, Stadt","type":"Stadt"},"district":{"key":"16069","name":"Hildburghausen","type":"Landkreis"},"federalState":{"key":"16","name":"Thüringen"}},{"name":"Kirchweg","postalCode":"98646","locality":"Hildburghausen","municipality":{"key":"16069024","name":"Hildburghausen, Stadt","type":"Stadt"},"district":{"key":"16069","name":"Hildburghausen","type":"Landkreis"},"federalState":{"key":"16","name":"Thüringen"}},{"name":"Kirchwiesen","postalCode":"98646","locality":"Hildburghausen","municipality":{"key":"16069024","name":"Hildburghausen, Stadt","type":"Stadt"},"district":{"key":"16069","name":"Hildburghausen","type":"Landkreis"},"federalState":{"key":"16","name":"Thüringen"}},{"name":"Knappengasse","postalCode":"98646","locality":"Hildburghausen","municipality":{"key":"16069024","name":"Hildburghausen, Stadt","type":"Stadt"},"district":{"key":"16069","name":"Hildburghausen","type":"Landkreis"},"federalState":{"key":"16","name":"Thüringen"}},{"name":"Krautbergweg","postalCode":"98646","locality":"Hildburghausen","municipality":{"key":"16069024","name":"Hildburghausen, Stadt","type":"Stadt"},"district":{"key":"16069","name":"Hildburghausen","type":"Landkreis"},"federalState":{"key":"16","name":"Thüringen"}},{"name":"Kuhgasse","postalCode":"98646","locality":"Hildburghausen","municipality":{"key":"16069024","name":"Hildburghausen, Stadt","type":"Stadt"},"district":{"key":"16069","name":"Hildburghausen","type":"Landkreis"},"federalState":{"key":"16","name":"Thüringen"}},{"name":"Langer Steg","postalCode":"98646","locality":"Hildburghausen","municipality":{"key":"16069024","name":"Hildburghausen, Stadt","type":"Stadt"},"district":{"key":"16069","name":"Hildburghausen","type":"Landkreis"},"federalState":{"key":"16","name":"Thüringen"}},{"name":"Lärchenweg","postalCode":"98646","locality":"Hildburghausen","municipality":{"key":"16069024","name":"Hildburghausen, Stadt","type":"Stadt"},"district":{"key":"16069","name":"Hildburghausen","type":"Landkreis"},"federalState":{"key":"16","name":"Thüringen"}},{"name":"Leimriether Dorfstr.","postalCode":"98646","locality":"Hildburghausen","municipality":{"key":"16069024","name":"Hildburghausen, Stadt","type":"Stadt"},"district":{"key":"16069","name":"Hildburghausen","type":"Landkreis"},"federalState":{"key":"16","name":"Thüringen"}},{"name":"Leimriether Hauptstr.","postalCode":"98646","locality":"Hildburghausen","municipality":{"key":"16069024","name":"Hildburghausen, Stadt","type":"Stadt"},"district":{"key":"16069","name":"Hildburghausen","type":"Landkreis"},"federalState":{"key":"16","name":"Thüringen"}},{"name":"Ligustergasse","postalCode":"98646","locality":"Hildburghausen","municipality":{"key":"16069024","name":"Hildburghausen, Stadt","type":"Stadt"},"district":{"key":"16069","name":"Hildburghausen","type":"Landkreis"},"federalState":{"key":"16","name":"Thüringen"}},{"name":"Ludwig-Jahn-Str.","postalCode":"98646","locality":"Hildburghausen","municipality":{"key":"16069024","name":"Hildburghausen, Stadt","type":"Stadt"},"district":{"key":"16069","name":"Hildburghausen","type":"Landkreis"},"federalState":{"key":"16","name":"Thüringen"}},{"name":"Marderwiesen","postalCode":"98646","locality":"Hildburghausen","municipality":{"key":"16069024","name":"Hildburghausen, Stadt","type":"Stadt"},"district":{"key":"16069","name":"Hildburghausen","type":"Landkreis"},"federalState":{"key":"16","name":"Thüringen"}},{"name":"Marienstr.","postalCode":"98646","locality":"Hildburghausen","municipality":{"key":"16069024","name":"Hildburghausen, Stadt","type":"Stadt"},"district":{"key":"16069","name":"Hildburghausen","type":"Landkreis"},"federalState":{"key":"16","name":"Thüringen"}},{"name":"Martin-Luther-Str.","postalCode":"98646","locality":"Hildburghausen","municipality":{"key":"16069024","name":"Hildburghausen, Stadt","type":"Stadt"},"district":{"key":"16069","name":"Hildburghausen","type":"Landkreis"},"federalState":{"key":"16","name":"Thüringen"}},{"name":"Massenhäuser Str.","postalCode":"98646","locality":"Hildburghausen","municipality":{"key":"16069024","name":"Hildburghausen, Stadt","type":"Stadt"},"district":{"key":"16069","name":"Hildburghausen","type":"Landkreis"},"federalState":{"key":"16","name":"Thüringen"}},{"name":"Max-Michaelis-Str.","postalCode":"98646","locality":"Hildburghausen","municipality":{"key":"16069024","name":"Hildburghausen, Stadt","type":"Stadt"},"district":{"key":"16069","name":"Hildburghausen","type":"Landkreis"},"federalState":{"key":"16","name":"Thüringen"}},{"name":"Mohnhäcksweg","postalCode":"98646","locality":"Hildburghausen","municipality":{"key":"16069024","name":"Hildburghausen, Stadt","type":"Stadt"},"district":{"key":"16069","name":"Hildburghausen","type":"Landkreis"},"federalState":{"key":"16","name":"Thüringen"}},{"name":"Mühlrangen","postalCode":"98646","locality":"Hildburghausen","municipality":{"key":"16069024","name":"Hildburghausen, Stadt","type":"Stadt"},"district":{"key":"16069","name":"Hildburghausen","type":"Landkreis"},"federalState":{"key":"16","name":"Thüringen"}},{"name":"Nelkenweg","postalCode":"98646","locality":"Hildburghausen","municipality":{"key":"16069024","name":"Hildburghausen, Stadt","type":"Stadt"},"district":{"key":"16069","name":"Hildburghausen","type":"Landkreis"},"federalState":{"key":"16","name":"Thüringen"}},{"name":"Neustädter Kirchplan","postalCode":"98646","locality":"Hildburghausen","municipality":{"key":"16069024","name":"Hildburghausen, Stadt","type":"Stadt"},"district":{"key":"16069","name":"Hildburghausen","type":"Landkreis"},"federalState":{"key":"16","name":"Thüringen"}},{"name":"Nonneplatz","postalCode":"98646","locality":"Hildburghausen","municipality":{"key":"16069024","name":"Hildburghausen, Stadt","type":"Stadt"},"district":{"key":"16069","name":"Hildburghausen","type":"Landkreis"},"federalState":{"key":"16","name":"Thüringen"}},{"name":"Obere Allee","postalCode":"98646","locality":"Hildburghausen","municipality":{"key":"16069024","name":"Hildburghausen, Stadt","type":"Stadt"},"district":{"key":"16069","name":"Hildburghausen","type":"Landkreis"},"federalState":{"key":"16","name":"Thüringen"}},{"name":"Obere Braugasse","postalCode":"98646","locality":"Hildburghausen","municipality":{"key":"16069024","name":"Hildburghausen, Stadt","type":"Stadt"},"district":{"key":"16069","name":"Hildburghausen","type":"Landkreis"},"federalState":{"key":"16","name":"Thüringen"}},{"name":"Obere Dorfstr.","postalCode":"98646","locality":"Hildburghausen","municipality":{"key":"16069024","name":"Hildburghausen, Stadt","type":"Stadt"},"district":{"key":"16069","name":"Hildburghausen","type":"Landkreis"},"federalState":{"key":"16","name":"Thüringen"}},{"name":"Obere Gasse","postalCode":"98646","locality":"Hildburghausen","municipality":{"key":"16069024","name":"Hildburghausen, Stadt","type":"Stadt"},"district":{"key":"16069","name":"Hildburghausen","type":"Landkreis"},"federalState":{"key":"16","name":"Thüringen"}},{"name":"Obere Marktstr.","postalCode":"98646","locality":"Hildburghausen","municipality":{"key":"16069024","name":"Hildburghausen, Stadt","type":"Stadt"},"district":{"key":"16069","name":"Hildburghausen","type":"Landkreis"},"federalState":{"key":"16","name":"Thüringen"}},{"name":"Oberer Weinberg","postalCode":"98646","locality":"Hildburghausen","municipality":{"key":"16069024","name":"Hildburghausen, Stadt","type":"Stadt"},"district":{"key":"16069","name":"Hildburghausen","type":"Landkreis"},"federalState":{"key":"16","name":"Thüringen"}},{"name":"Oberes Kleinodsfeld","postalCode":"98646","locality":"Hildburghausen","municipality":{"key":"16069024","name":"Hildburghausen, Stadt","type":"Stadt"},"district":{"key":"16069","name":"Hildburghausen","type":"Landkreis"},"federalState":{"key":"16","name":"Thüringen"}},{"name":"Papendicksgäßchen","postalCode":"98646","locality":"Hildburghausen","municipality":{"key":"16069024","name":"Hildburghausen, Stadt","type":"Stadt"},"district":{"key":"16069","name":"Hildburghausen","type":"Landkreis"},"federalState":{"key":"16","name":"Thüringen"}},{"name":"Parkgelände der Helios Fachklinik","postalCode":"98646","locality":"Hildburghausen","municipality":{"key":"16069024","name":"Hildburghausen, Stadt","type":"Stadt"},"district":{"key":"16069","name":"Hildburghausen","type":"Landkreis"},"federalState":{"key":"16","name":"Thüringen"}},{"name":"Pehlrimover Str.","postalCode":"98646","locality":"Hildburghausen","municipality":{"key":"16069024","name":"Hildburghausen, Stadt","type":"Stadt"},"district":{"key":"16069","name":"Hildburghausen","type":"Landkreis"},"federalState":{"key":"16","name":"Thüringen"}},{"name":"Pfersdorfer Anspann","postalCode":"98646","locality":"Hildburghausen","municipality":{"key":"16069024","name":"Hildburghausen, Stadt","type":"Stadt"},"district":{"key":"16069","name":"Hildburghausen","type":"Landkreis"},"federalState":{"key":"16","name":"Thüringen"}},{"name":"Pfersdorfer Gries","postalCode":"98646","locality":"Hildburghausen","municipality":{"key":"16069024","name":"Hildburghausen, Stadt","type":"Stadt"},"district":{"key":"16069","name":"Hildburghausen","type":"Landkreis"},"federalState":{"key":"16","name":"Thüringen"}},{"name":"Pfersdorfer Hauptstr.","postalCode":"98646","locality":"Hildburghausen","municipality":{"key":"16069024","name":"Hildburghausen, Stadt","type":"Stadt"},"district":{"key":"16069","name":"Hildburghausen","type":"Landkreis"},"federalState":{"key":"16","name":"Thüringen"}},{"name":"Pfersdorfer Str.","postalCode":"98646","locality":"Hildburghausen","municipality":{"key":"16069024","name":"Hildburghausen, Stadt","type":"Stadt"},"district":{"key":"16069","name":"Hildburghausen","type":"Landkreis"},"federalState":{"key":"16","name":"Thüringen"}},{"name":"Pfersdorfer Untere Dorfstr.","postalCode":"98646","locality":"Hildburghausen","municipality":{"key":"16069024","name":"Hildburghausen, Stadt","type":"Stadt"},"district":{"key":"16069","name":"Hildburghausen","type":"Landkreis"},"federalState":{"key":"16","name":"Thüringen"}},{"name":"Pulvermühlenweg","postalCode":"98646","locality":"Hildburghausen","municipality":{"key":"16069024","name":"Hildburghausen, Stadt","type":"Stadt"},"district":{"key":"16069","name":"Hildburghausen","type":"Landkreis"},"federalState":{"key":"16","name":"Thüringen"}},{"name":"Puschkinplatz","postalCode":"98646","locality":"Hildburghausen","municipality":{"key":"16069024","name":"Hildburghausen, Stadt","type":"Stadt"},"district":{"key":"16069","name":"Hildburghausen","type":"Landkreis"},"federalState":{"key":"16","name":"Thüringen"}},{"name":"Rathausgasse","postalCode":"98646","locality":"Hildburghausen","municipality":{"key":"16069024","name":"Hildburghausen, Stadt","type":"Stadt"},"district":{"key":"16069","name":"Hildburghausen","type":"Landkreis"},"federalState":{"key":"16","name":"Thüringen"}},{"name":"Rehweg","postalCode":"98646","locality":"Hildburghausen","municipality":{"key":"16069024","name":"Hildburghausen, Stadt","type":"Stadt"},"district":{"key":"16069","name":"Hildburghausen","type":"Landkreis"},"federalState":{"key":"16","name":"Thüringen"}},{"name":"Reinhold-Huhn-Str.","postalCode":"98646","locality":"Hildburghausen","municipality":{"key":"16069024","name":"Hildburghausen, Stadt","type":"Stadt"},"district":{"key":"16069","name":"Hildburghausen","type":"Landkreis"},"federalState":{"key":"16","name":"Thüringen"}},{"name":"Reuriether Weg","postalCode":"98646","locality":"Hildburghausen","municipality":{"key":"16069024","name":"Hildburghausen, Stadt","type":"Stadt"},"district":{"key":"16069","name":"Hildburghausen","type":"Landkreis"},"federalState":{"key":"16","name":"Thüringen"}},{"name":"Römhilder Str.","postalCode":"98646","locality":"Hildburghausen","municipality":{"key":"16069024","name":"Hildburghausen, Stadt","type":"Stadt"},"district":{"key":"16069","name":"Hildburghausen","type":"Landkreis"},"federalState":{"key":"16","name":"Thüringen"}},{"name":"Rosa-Luxemburg-Str.","postalCode":"98646","locality":"Hildburghausen","municipality":{"key":"16069024","name":"Hildburghausen, Stadt","type":"Stadt"},"district":{"key":"16069","name":"Hildburghausen","type":"Landkreis"},"federalState":{"key":"16","name":"Thüringen"}},{"name":"Rosengasse","postalCode":"98646","locality":"Hildburghausen","municipality":{"key":"16069024","name":"Hildburghausen, Stadt","type":"Stadt"},"district":{"key":"16069","name":"Hildburghausen","type":"Landkreis"},"federalState":{"key":"16","name":"Thüringen"}},{"name":"Rosenweg","postalCode":"98646","locality":"Hildburghausen","municipality":{"key":"16069024","name":"Hildburghausen, Stadt","type":"Stadt"},"district":{"key":"16069","name":"Hildburghausen","type":"Landkreis"},"federalState":{"key":"16","name":"Thüringen"}},{"name":"Rote Leite","postalCode":"98646","locality":"Hildburghausen","municipality":{"key":"16069024","name":"Hildburghausen, Stadt","type":"Stadt"},"district":{"key":"16069","name":"Hildburghausen","type":"Landkreis"},"federalState":{"key":"16","name":"Thüringen"}},{"name":"Roter Hügel","postalCode":"98646","locality":"Hildburghausen","municipality":{"key":"16069024","name":"Hildburghausen, Stadt","type":"Stadt"},"district":{"key":"16069","name":"Hildburghausen","type":"Landkreis"},"federalState":{"key":"16","name":"Thüringen"}},{"name":"Rudolf-Breitscheid-Str.","postalCode":"98646","locality":"Hildburghausen","municipality":{"key":"16069024","name":"Hildburghausen, Stadt","type":"Stadt"},"district":{"key":"16069","name":"Hildburghausen","type":"Landkreis"},"federalState":{"key":"16","name":"Thüringen"}},{"name":"Salzmarkt","postalCode":"98646","locality":"Hildburghausen","municipality":{"key":"16069024","name":"Hildburghausen, Stadt","type":"Stadt"},"district":{"key":"16069","name":"Hildburghausen","type":"Landkreis"},"federalState":{"key":"16","name":"Thüringen"}},{"name":"Sandberghof","postalCode":"98646","locality":"Hildburghausen","municipality":{"key":"16069024","name":"Hildburghausen, Stadt","type":"Stadt"},"district":{"key":"16069","name":"Hildburghausen","type":"Landkreis"},"federalState":{"key":"16","name":"Thüringen"}},{"name":"Schleusinger Str.","postalCode":"98646","locality":"Hildburghausen","municipality":{"key":"16069024","name":"Hildburghausen, Stadt","type":"Stadt"},"district":{"key":"16069","name":"Hildburghausen","type":"Landkreis"},"federalState":{"key":"16","name":"Thüringen"}},{"name":"Schloßparkpassage","postalCode":"98646","locality":"Hildburghausen","municipality":{"key":"16069024","name":"Hildburghausen, Stadt","type":"Stadt"},"district":{"key":"16069","name":"Hildburghausen","type":"Landkreis"},"federalState":{"key":"16","name":"Thüringen"}},{"name":"Schloßstr.","postalCode":"98646","locality":"Hildburghausen","municipality":{"key":"16069024","name":"Hildburghausen, Stadt","type":"Stadt"},"district":{"key":"16069","name":"Hildburghausen","type":"Landkreis"},"federalState":{"key":"16","name":"Thüringen"}},{"name":"Schneidergasse","postalCode":"98646","locality":"Hildburghausen","municipality":{"key":"16069024","name":"Hildburghausen, Stadt","type":"Stadt"},"district":{"key":"16069","name":"Hildburghausen","type":"Landkreis"},"federalState":{"key":"16","name":"Thüringen"}},{"name":"Schnettersmühle","postalCode":"98646","locality":"Hildburghausen","municipality":{"key":"16069024","name":"Hildburghausen, Stadt","type":"Stadt"},"district":{"key":"16069","name":"Hildburghausen","type":"Landkreis"},"federalState":{"key":"16","name":"Thüringen"}},{"name":"Schulstr.","postalCode":"98646","locality":"Hildburghausen","municipality":{"key":"16069024","name":"Hildburghausen, Stadt","type":"Stadt"},"district":{"key":"16069","name":"Hildburghausen","type":"Landkreis"},"federalState":{"key":"16","name":"Thüringen"}},{"name":"Schwabacher Str.","postalCode":"98646","locality":"Hildburghausen","municipality":{"key":"16069024","name":"Hildburghausen, Stadt","type":"Stadt"},"district":{"key":"16069","name":"Hildburghausen","type":"Landkreis"},"federalState":{"key":"16","name":"Thüringen"}},{"name":"Seminarstr.","postalCode":"98646","locality":"Hildburghausen","municipality":{"key":"16069024","name":"Hildburghausen, Stadt","type":"Stadt"},"district":{"key":"16069","name":"Hildburghausen","type":"Landkreis"},"federalState":{"key":"16","name":"Thüringen"}},{"name":"Sonnenhof","postalCode":"98646","locality":"Hildburghausen","municipality":{"key":"16069024","name":"Hildburghausen, Stadt","type":"Stadt"},"district":{"key":"16069","name":"Hildburghausen","type":"Landkreis"},"federalState":{"key":"16","name":"Thüringen"}},{"name":"Str. der Jugend","postalCode":"98646","locality":"Hildburghausen","municipality":{"key":"16069024","name":"Hildburghausen, Stadt","type":"Stadt"},"district":{"key":"16069","name":"Hildburghausen","type":"Landkreis"},"federalState":{"key":"16","name":"Thüringen"}},{"name":"Suhler Str.","postalCode":"98646","locality":"Hildburghausen","municipality":{"key":"16069024","name":"Hildburghausen, Stadt","type":"Stadt"},"district":{"key":"16069","name":"Hildburghausen","type":"Landkreis"},"federalState":{"key":"16","name":"Thüringen"}},{"name":"Tannenweg","postalCode":"98646","locality":"Hildburghausen","municipality":{"key":"16069024","name":"Hildburghausen, Stadt","type":"Stadt"},"district":{"key":"16069","name":"Hildburghausen","type":"Landkreis"},"federalState":{"key":"16","name":"Thüringen"}},{"name":"Tulpenweg","postalCode":"98646","locality":"Hildburghausen","municipality":{"key":"16069024","name":"Hildburghausen, Stadt","type":"Stadt"},"district":{"key":"16069","name":"Hildburghausen","type":"Landkreis"},"federalState":{"key":"16","name":"Thüringen"}},{"name":"Ulmenweg","postalCode":"98646","locality":"Hildburghausen","municipality":{"key":"16069024","name":"Hildburghausen, Stadt","type":"Stadt"},"district":{"key":"16069","name":"Hildburghausen","type":"Landkreis"},"federalState":{"key":"16","name":"Thüringen"}},{"name":"Unter den Weinbergen","postalCode":"98646","locality":"Hildburghausen","municipality":{"key":"16069024","name":"Hildburghausen, Stadt","type":"Stadt"},"district":{"key":"16069","name":"Hildburghausen","type":"Landkreis"},"federalState":{"key":"16","name":"Thüringen"}},{"name":"Untere Allee","postalCode":"98646","locality":"Hildburghausen","municipality":{"key":"16069024","name":"Hildburghausen, Stadt","type":"Stadt"},"district":{"key":"16069","name":"Hildburghausen","type":"Landkreis"},"federalState":{"key":"16","name":"Thüringen"}},{"name":"Untere Braugasse","postalCode":"98646","locality":"Hildburghausen","municipality":{"key":"16069024","name":"Hildburghausen, Stadt","type":"Stadt"},"district":{"key":"16069","name":"Hildburghausen","type":"Landkreis"},"federalState":{"key":"16","name":"Thüringen"}},{"name":"Untere Dorfstr.","postalCode":"98646","locality":"Hildburghausen","municipality":{"key":"16069024","name":"Hildburghausen, Stadt","type":"Stadt"},"district":{"key":"16069","name":"Hildburghausen","type":"Landkreis"},"federalState":{"key":"16","name":"Thüringen"}},{"name":"Untere Marktstr.","postalCode":"98646","locality":"Hildburghausen","municipality":{"key":"16069024","name":"Hildburghausen, Stadt","type":"Stadt"},"district":{"key":"16069","name":"Hildburghausen","type":"Landkreis"},"federalState":{"key":"16","name":"Thüringen"}},{"name":"Unterer Gemeindeberg","postalCode":"98646","locality":"Hildburghausen","municipality":{"key":"16069024","name":"Hildburghausen, Stadt","type":"Stadt"},"district":{"key":"16069","name":"Hildburghausen","type":"Landkreis"},"federalState":{"key":"16","name":"Thüringen"}},{"name":"Unterer Gries","postalCode":"98646","locality":"Hildburghausen","municipality":{"key":"16069024","name":"Hildburghausen, Stadt","type":"Stadt"},"district":{"key":"16069","name":"Hildburghausen","type":"Landkreis"},"federalState":{"key":"16","name":"Thüringen"}},{"name":"Unterer Weinberg","postalCode":"98646","locality":"Hildburghausen","municipality":{"key":"16069024","name":"Hildburghausen, Stadt","type":"Stadt"},"district":{"key":"16069","name":"Hildburghausen","type":"Landkreis"},"federalState":{"key":"16","name":"Thüringen"}},{"name":"Unteres Kleinodsfeld","postalCode":"98646","locality":"Hildburghausen","municipality":{"key":"16069024","name":"Hildburghausen, Stadt","type":"Stadt"},"district":{"key":"16069","name":"Hildburghausen","type":"Landkreis"},"federalState":{"key":"16","name":"Thüringen"}},{"name":"Vorderer Steig","postalCode":"98646","locality":"Hildburghausen","municipality":{"key":"16069024","name":"Hildburghausen, Stadt","type":"Stadt"},"district":{"key":"16069","name":"Hildburghausen","type":"Landkreis"},"federalState":{"key":"16","name":"Thüringen"}},{"name":"Werra Burgen Steig","postalCode":"98660","locality":"Grimmelshausen","municipality":{"key":"16069016","name":"Grimmelshausen","type":"Kreisangehörige_Gemeinde"},"district":{"key":"16069","name":"Hildburghausen","type":"Landkreis"},"federalState":{"key":"16","name":"Thüringen"}},{"name":"Zapfenbahn","postalCode":"98646","locality":"Hildburghausen","municipality":{"key":"16069024","name":"Hildburghausen, Stadt","type":"Stadt"},"district":{"key":"16069","name":"Hildburghausen","type":"Landkreis"},"federalState":{"key":"16","name":"Thüringen"}},{"name":"Ziegeleiweg","postalCode":"98646","locality":"Hildburghausen","municipality":{"key":"16069024","name":"Hildburghausen, Stadt","type":"Stadt"},"district":{"key":"16069","name":"Hildburghausen","type":"Landkreis"},"federalState":{"key":"16","name":"Thüringen"}},{"name":"Zum Heckenbühl","postalCode":"98646","locality":"Hildburghausen","municipality":{"key":"16069024","name":"Hildburghausen, Stadt","type":"Stadt"},"district":{"key":"16069","name":"Hildburghausen","type":"Landkreis"},"federalState":{"key":"16","name":"Thüringen"}},{"name":"Zum Heiligen Grund","postalCode":"98646","locality":"Hildburghausen","municipality":{"key":"16069024","name":"Hildburghausen, Stadt","type":"Stadt"},"district":{"key":"16069","name":"Hildburghausen","type":"Landkreis"},"federalState":{"key":"16","name":"Thüringen"}},{"name":"Zum Hölzchen","postalCode":"98646","locality":"Hildburghausen","municipality":{"key":"16069024","name":"Hildburghausen, Stadt","type":"Stadt"},"district":{"key":"16069","name":"Hildburghausen","type":"Landkreis"},"federalState":{"key":"16","name":"Thüringen"}},{"name":"Zum Sportplatz","postalCode":"98646","locality":"Hildburghausen","municipality":{"key":"16069024","name":"Hildburghausen, Stadt","type":"Stadt"},"district":{"key":"16069","name":"Hildburghausen","type":"Landkreis"},"federalState":{"key":"16","name":"Thüringen"}},{"name":"Zum Stickelsteich","postalCode":"98646","locality":"Hildburghausen","municipality":{"key":"16069024","name":"Hildburghausen, Stadt","type":"Stadt"},"district":{"key":"16069","name":"Hildburghausen","type":"Landkreis"},"federalState":{"key":"16","name":"Thüringen"}},{"name":"Zum Werrablick","postalCode":"98646","locality":"Hildburghausen","municipality":{"key":"16069024","name":"Hildburghausen, Stadt","type":"Stadt"},"district":{"key":"16069","name":"Hildburghausen","type":"Landkreis"},"federalState":{"key":"16","name":"Thüringen"}},{"name":"Zur Mühle","postalCode":"98646","locality":"Hildburghausen","municipality":{"key":"16069024","name":"Hildburghausen, Stadt","type":"Stadt"},"district":{"key":"16069","name":"Hildburghausen","type":"Landkreis"},"federalState":{"key":"16","name":"Thüringen"}},]