[{"name":"Adolph-Kolping-Str.","postalCode":"97297","locality":"Waldbüttelbrunn","municipality":{"key":"09679205","name":"Waldbüttelbrunn","type":"Kreisangehörige_Gemeinde"},"district":{"key":"09679","name":"Würzburg","type":"Landkreis"},"federalState":{"key":"09","name":"Bayern"}},{"name":"Alte Poststr.","postalCode":"97297","locality":"Waldbüttelbrunn","municipality":{"key":"09679205","name":"Waldbüttelbrunn","type":"Kreisangehörige_Gemeinde"},"district":{"key":"09679","name":"Würzburg","type":"Landkreis"},"federalState":{"key":"09","name":"Bayern"}},{"name":"Alter Weinberg","postalCode":"97297","locality":"Waldbüttelbrunn","municipality":{"key":"09679205","name":"Waldbüttelbrunn","type":"Kreisangehörige_Gemeinde"},"district":{"key":"09679","name":"Würzburg","type":"Landkreis"},"federalState":{"key":"09","name":"Bayern"}},{"name":"Am Aalbach","postalCode":"97297","locality":"Waldbüttelbrunn","municipality":{"key":"09679205","name":"Waldbüttelbrunn","type":"Kreisangehörige_Gemeinde"},"district":{"key":"09679","name":"Würzburg","type":"Landkreis"},"federalState":{"key":"09","name":"Bayern"}},{"name":"Am Forst","postalCode":"97297","locality":"Waldbüttelbrunn","municipality":{"key":"09679205","name":"Waldbüttelbrunn","type":"Kreisangehörige_Gemeinde"},"district":{"key":"09679","name":"Würzburg","type":"Landkreis"},"federalState":{"key":"09","name":"Bayern"}},{"name":"Am Franzosengraben","postalCode":"97297","locality":"Waldbüttelbrunn","municipality":{"key":"09679205","name":"Waldbüttelbrunn","type":"Kreisangehörige_Gemeinde"},"district":{"key":"09679","name":"Würzburg","type":"Landkreis"},"federalState":{"key":"09","name":"Bayern"}},{"name":"Am Gehren","postalCode":"97297","locality":"Waldbüttelbrunn","municipality":{"key":"09679205","name":"Waldbüttelbrunn","type":"Kreisangehörige_Gemeinde"},"district":{"key":"09679","name":"Würzburg","type":"Landkreis"},"federalState":{"key":"09","name":"Bayern"}},{"name":"Am Grohberg","postalCode":"97297","locality":"Waldbüttelbrunn","municipality":{"key":"09679205","name":"Waldbüttelbrunn","type":"Kreisangehörige_Gemeinde"},"district":{"key":"09679","name":"Würzburg","type":"Landkreis"},"federalState":{"key":"09","name":"Bayern"}},{"name":"Am Neuberg","postalCode":"97297","locality":"Waldbüttelbrunn","municipality":{"key":"09679205","name":"Waldbüttelbrunn","type":"Kreisangehörige_Gemeinde"},"district":{"key":"09679","name":"Würzburg","type":"Landkreis"},"federalState":{"key":"09","name":"Bayern"}},{"name":"Am Pfad","postalCode":"97297","locality":"Waldbüttelbrunn","municipality":{"key":"09679205","name":"Waldbüttelbrunn","type":"Kreisangehörige_Gemeinde"},"district":{"key":"09679","name":"Würzburg","type":"Landkreis"},"federalState":{"key":"09","name":"Bayern"}},{"name":"Am Sommerrain","postalCode":"97297","locality":"Waldbüttelbrunn","municipality":{"key":"09679205","name":"Waldbüttelbrunn","type":"Kreisangehörige_Gemeinde"},"district":{"key":"09679","name":"Würzburg","type":"Landkreis"},"federalState":{"key":"09","name":"Bayern"}},{"name":"Am Steinbruch","postalCode":"97297","locality":"Waldbüttelbrunn","municipality":{"key":"09679205","name":"Waldbüttelbrunn","type":"Kreisangehörige_Gemeinde"},"district":{"key":"09679","name":"Würzburg","type":"Landkreis"},"federalState":{"key":"09","name":"Bayern"}},{"name":"Am Vogelsberg","postalCode":"97297","locality":"Waldbüttelbrunn","municipality":{"key":"09679205","name":"Waldbüttelbrunn","type":"Kreisangehörige_Gemeinde"},"district":{"key":"09679","name":"Würzburg","type":"Landkreis"},"federalState":{"key":"09","name":"Bayern"}},{"name":"Am Wasserhaus","postalCode":"97297","locality":"Waldbüttelbrunn","municipality":{"key":"09679205","name":"Waldbüttelbrunn","type":"Kreisangehörige_Gemeinde"},"district":{"key":"09679","name":"Würzburg","type":"Landkreis"},"federalState":{"key":"09","name":"Bayern"}},{"name":"Am Weidengraben","postalCode":"97297","locality":"Waldbüttelbrunn","municipality":{"key":"09679205","name":"Waldbüttelbrunn","type":"Kreisangehörige_Gemeinde"},"district":{"key":"09679","name":"Würzburg","type":"Landkreis"},"federalState":{"key":"09","name":"Bayern"}},{"name":"An der Leite","postalCode":"97297","locality":"Waldbüttelbrunn","municipality":{"key":"09679205","name":"Waldbüttelbrunn","type":"Kreisangehörige_Gemeinde"},"district":{"key":"09679","name":"Würzburg","type":"Landkreis"},"federalState":{"key":"09","name":"Bayern"}},{"name":"An der Weed","postalCode":"97297","locality":"Waldbüttelbrunn","municipality":{"key":"09679205","name":"Waldbüttelbrunn","type":"Kreisangehörige_Gemeinde"},"district":{"key":"09679","name":"Würzburg","type":"Landkreis"},"federalState":{"key":"09","name":"Bayern"}},{"name":"Andreas-Bauer-Str.","postalCode":"97297","locality":"Waldbüttelbrunn","municipality":{"key":"09679205","name":"Waldbüttelbrunn","type":"Kreisangehörige_Gemeinde"},"district":{"key":"09679","name":"Würzburg","type":"Landkreis"},"federalState":{"key":"09","name":"Bayern"}},{"name":"August-Bebel-Str.","postalCode":"97297","locality":"Waldbüttelbrunn","municipality":{"key":"09679205","name":"Waldbüttelbrunn","type":"Kreisangehörige_Gemeinde"},"district":{"key":"09679","name":"Würzburg","type":"Landkreis"},"federalState":{"key":"09","name":"Bayern"}},{"name":"Bachgärten","postalCode":"97297","locality":"Waldbüttelbrunn","municipality":{"key":"09679205","name":"Waldbüttelbrunn","type":"Kreisangehörige_Gemeinde"},"district":{"key":"09679","name":"Würzburg","type":"Landkreis"},"federalState":{"key":"09","name":"Bayern"}},{"name":"Bachstr.","postalCode":"97297","locality":"Waldbüttelbrunn","municipality":{"key":"09679205","name":"Waldbüttelbrunn","type":"Kreisangehörige_Gemeinde"},"district":{"key":"09679","name":"Würzburg","type":"Landkreis"},"federalState":{"key":"09","name":"Bayern"}},{"name":"Bäckergasse","postalCode":"97297","locality":"Waldbüttelbrunn","municipality":{"key":"09679205","name":"Waldbüttelbrunn","type":"Kreisangehörige_Gemeinde"},"district":{"key":"09679","name":"Würzburg","type":"Landkreis"},"federalState":{"key":"09","name":"Bayern"}},{"name":"Bergstr.","postalCode":"97297","locality":"Waldbüttelbrunn","municipality":{"key":"09679205","name":"Waldbüttelbrunn","type":"Kreisangehörige_Gemeinde"},"district":{"key":"09679","name":"Würzburg","type":"Landkreis"},"federalState":{"key":"09","name":"Bayern"}},{"name":"Binsenstr.","postalCode":"97297","locality":"Waldbüttelbrunn","municipality":{"key":"09679205","name":"Waldbüttelbrunn","type":"Kreisangehörige_Gemeinde"},"district":{"key":"09679","name":"Würzburg","type":"Landkreis"},"federalState":{"key":"09","name":"Bayern"}},{"name":"Böhmenstr.","postalCode":"97297","locality":"Waldbüttelbrunn","municipality":{"key":"09679205","name":"Waldbüttelbrunn","type":"Kreisangehörige_Gemeinde"},"district":{"key":"09679","name":"Würzburg","type":"Landkreis"},"federalState":{"key":"09","name":"Bayern"}},{"name":"Bromberg","postalCode":"97297","locality":"Waldbüttelbrunn","municipality":{"key":"09679205","name":"Waldbüttelbrunn","type":"Kreisangehörige_Gemeinde"},"district":{"key":"09679","name":"Würzburg","type":"Landkreis"},"federalState":{"key":"09","name":"Bayern"}},{"name":"Brunngasse","postalCode":"97297","locality":"Waldbüttelbrunn","municipality":{"key":"09679205","name":"Waldbüttelbrunn","type":"Kreisangehörige_Gemeinde"},"district":{"key":"09679","name":"Würzburg","type":"Landkreis"},"federalState":{"key":"09","name":"Bayern"}},{"name":"Carl-Orff-Str.","postalCode":"97076","locality":"Würzburg","municipality":{"key":"09663000","name":"Würzburg","type":"Kreisfreie_Stadt"},"district":{"key":"09663","name":"Würzburg","type":"Kreisfreie_Stadt"},"federalState":{"key":"09","name":"Bayern"}},{"name":"Christlsteige","postalCode":"97074","locality":"Würzburg","municipality":{"key":"09663000","name":"Würzburg","type":"Kreisfreie_Stadt"},"district":{"key":"09663","name":"Würzburg","type":"Kreisfreie_Stadt"},"federalState":{"key":"09","name":"Bayern"}},{"name":"Christoph-Mayer-Weg","postalCode":"97082","locality":"Würzburg","municipality":{"key":"09663000","name":"Würzburg","type":"Kreisfreie_Stadt"},"district":{"key":"09663","name":"Würzburg","type":"Kreisfreie_Stadt"},"federalState":{"key":"09","name":"Bayern"}},{"name":"Conradisteg","postalCode":"97072","locality":"Würzburg","municipality":{"key":"09663000","name":"Würzburg","type":"Kreisfreie_Stadt"},"district":{"key":"09663","name":"Würzburg","type":"Kreisfreie_Stadt"},"federalState":{"key":"09","name":"Bayern"}},{"name":"Conradistr.","postalCode":"97072","locality":"Würzburg","municipality":{"key":"09663000","name":"Würzburg","type":"Kreisfreie_Stadt"},"district":{"key":"09663","name":"Würzburg","type":"Kreisfreie_Stadt"},"federalState":{"key":"09","name":"Bayern"}},{"name":"Crevennastr.","postalCode":"97072","locality":"Würzburg","municipality":{"key":"09663000","name":"Würzburg","type":"Kreisfreie_Stadt"},"district":{"key":"09663","name":"Würzburg","type":"Kreisfreie_Stadt"},"federalState":{"key":"09","name":"Bayern"}},{"name":"Cronthalstr.","postalCode":"97074","locality":"Würzburg","municipality":{"key":"09663000","name":"Würzburg","type":"Kreisfreie_Stadt"},"district":{"key":"09663","name":"Würzburg","type":"Kreisfreie_Stadt"},"federalState":{"key":"09","name":"Bayern"}},{"name":"Dachdeckerstr.","postalCode":"97297","locality":"Waldbüttelbrunn","municipality":{"key":"09679205","name":"Waldbüttelbrunn","type":"Kreisangehörige_Gemeinde"},"district":{"key":"09679","name":"Würzburg","type":"Landkreis"},"federalState":{"key":"09","name":"Bayern"}},{"name":"Egerlandstr.","postalCode":"97297","locality":"Waldbüttelbrunn","municipality":{"key":"09679205","name":"Waldbüttelbrunn","type":"Kreisangehörige_Gemeinde"},"district":{"key":"09679","name":"Würzburg","type":"Landkreis"},"federalState":{"key":"09","name":"Bayern"}},{"name":"Eisinger Weg","postalCode":"97297","locality":"Waldbüttelbrunn","municipality":{"key":"09679205","name":"Waldbüttelbrunn","type":"Kreisangehörige_Gemeinde"},"district":{"key":"09679","name":"Würzburg","type":"Landkreis"},"federalState":{"key":"09","name":"Bayern"}},{"name":"Frankfurter Str.","postalCode":"97297","locality":"Waldbüttelbrunn","municipality":{"key":"09679205","name":"Waldbüttelbrunn","type":"Kreisangehörige_Gemeinde"},"district":{"key":"09679","name":"Würzburg","type":"Landkreis"},"federalState":{"key":"09","name":"Bayern"}},{"name":"Friedenstr.","postalCode":"97297","locality":"Waldbüttelbrunn","municipality":{"key":"09679205","name":"Waldbüttelbrunn","type":"Kreisangehörige_Gemeinde"},"district":{"key":"09679","name":"Würzburg","type":"Landkreis"},"federalState":{"key":"09","name":"Bayern"}},{"name":"Friedrich-Koenig-Str.","postalCode":"97297","locality":"Waldbüttelbrunn","municipality":{"key":"09679205","name":"Waldbüttelbrunn","type":"Kreisangehörige_Gemeinde"},"district":{"key":"09679","name":"Würzburg","type":"Landkreis"},"federalState":{"key":"09","name":"Bayern"}},{"name":"Frühlingsstr.","postalCode":"97297","locality":"Waldbüttelbrunn","municipality":{"key":"09679205","name":"Waldbüttelbrunn","type":"Kreisangehörige_Gemeinde"},"district":{"key":"09679","name":"Würzburg","type":"Landkreis"},"federalState":{"key":"09","name":"Bayern"}},{"name":"Fürstenstr.","postalCode":"97297","locality":"Waldbüttelbrunn","municipality":{"key":"09679205","name":"Waldbüttelbrunn","type":"Kreisangehörige_Gemeinde"},"district":{"key":"09679","name":"Würzburg","type":"Landkreis"},"federalState":{"key":"09","name":"Bayern"}},{"name":"Gartenstr.","postalCode":"97297","locality":"Waldbüttelbrunn","municipality":{"key":"09679205","name":"Waldbüttelbrunn","type":"Kreisangehörige_Gemeinde"},"district":{"key":"09679","name":"Würzburg","type":"Landkreis"},"federalState":{"key":"09","name":"Bayern"}},{"name":"Gäßchen","postalCode":"97297","locality":"Waldbüttelbrunn","municipality":{"key":"09679205","name":"Waldbüttelbrunn","type":"Kreisangehörige_Gemeinde"},"district":{"key":"09679","name":"Würzburg","type":"Landkreis"},"federalState":{"key":"09","name":"Bayern"}},{"name":"Gehägsweg","postalCode":"97297","locality":"Waldbüttelbrunn","municipality":{"key":"09679205","name":"Waldbüttelbrunn","type":"Kreisangehörige_Gemeinde"},"district":{"key":"09679","name":"Würzburg","type":"Landkreis"},"federalState":{"key":"09","name":"Bayern"}},{"name":"Geißbergweg","postalCode":"97297","locality":"Waldbüttelbrunn","municipality":{"key":"09679205","name":"Waldbüttelbrunn","type":"Kreisangehörige_Gemeinde"},"district":{"key":"09679","name":"Würzburg","type":"Landkreis"},"federalState":{"key":"09","name":"Bayern"}},{"name":"Gräblein","postalCode":"97297","locality":"Waldbüttelbrunn","municipality":{"key":"09679205","name":"Waldbüttelbrunn","type":"Kreisangehörige_Gemeinde"},"district":{"key":"09679","name":"Würzburg","type":"Landkreis"},"federalState":{"key":"09","name":"Bayern"}},{"name":"Grundweg","postalCode":"97297","locality":"Waldbüttelbrunn","municipality":{"key":"09679205","name":"Waldbüttelbrunn","type":"Kreisangehörige_Gemeinde"},"district":{"key":"09679","name":"Würzburg","type":"Landkreis"},"federalState":{"key":"09","name":"Bayern"}},{"name":"Gutenbergstr.","postalCode":"97297","locality":"Waldbüttelbrunn","municipality":{"key":"09679205","name":"Waldbüttelbrunn","type":"Kreisangehörige_Gemeinde"},"district":{"key":"09679","name":"Würzburg","type":"Landkreis"},"federalState":{"key":"09","name":"Bayern"}},{"name":"Heckenpfad","postalCode":"97297","locality":"Waldbüttelbrunn","municipality":{"key":"09679205","name":"Waldbüttelbrunn","type":"Kreisangehörige_Gemeinde"},"district":{"key":"09679","name":"Würzburg","type":"Landkreis"},"federalState":{"key":"09","name":"Bayern"}},{"name":"Herchenbergweg","postalCode":"97297","locality":"Waldbüttelbrunn","municipality":{"key":"09679205","name":"Waldbüttelbrunn","type":"Kreisangehörige_Gemeinde"},"district":{"key":"09679","name":"Würzburg","type":"Landkreis"},"federalState":{"key":"09","name":"Bayern"}},{"name":"Herrenwiese","postalCode":"97297","locality":"Waldbüttelbrunn","municipality":{"key":"09679205","name":"Waldbüttelbrunn","type":"Kreisangehörige_Gemeinde"},"district":{"key":"09679","name":"Würzburg","type":"Landkreis"},"federalState":{"key":"09","name":"Bayern"}},{"name":"Hettstadter Steige","postalCode":"97297","locality":"Waldbüttelbrunn","municipality":{"key":"09679205","name":"Waldbüttelbrunn","type":"Kreisangehörige_Gemeinde"},"district":{"key":"09679","name":"Würzburg","type":"Landkreis"},"federalState":{"key":"09","name":"Bayern"}},{"name":"Hirtenäcker","postalCode":"97297","locality":"Waldbüttelbrunn","municipality":{"key":"09679205","name":"Waldbüttelbrunn","type":"Kreisangehörige_Gemeinde"},"district":{"key":"09679","name":"Würzburg","type":"Landkreis"},"federalState":{"key":"09","name":"Bayern"}},{"name":"Höchberger Str.","postalCode":"97297","locality":"Waldbüttelbrunn","municipality":{"key":"09679205","name":"Waldbüttelbrunn","type":"Kreisangehörige_Gemeinde"},"district":{"key":"09679","name":"Würzburg","type":"Landkreis"},"federalState":{"key":"09","name":"Bayern"}},{"name":"Holzweg","postalCode":"97297","locality":"Waldbüttelbrunn","municipality":{"key":"09679205","name":"Waldbüttelbrunn","type":"Kreisangehörige_Gemeinde"},"district":{"key":"09679","name":"Würzburg","type":"Landkreis"},"federalState":{"key":"09","name":"Bayern"}},{"name":"Industriestr.","postalCode":"97297","locality":"Waldbüttelbrunn","municipality":{"key":"09679205","name":"Waldbüttelbrunn","type":"Kreisangehörige_Gemeinde"},"district":{"key":"09679","name":"Würzburg","type":"Landkreis"},"federalState":{"key":"09","name":"Bayern"}},{"name":"Jägerstr.","postalCode":"97297","locality":"Waldbüttelbrunn","municipality":{"key":"09679205","name":"Waldbüttelbrunn","type":"Kreisangehörige_Gemeinde"},"district":{"key":"09679","name":"Würzburg","type":"Landkreis"},"federalState":{"key":"09","name":"Bayern"}},{"name":"Jahnstr.","postalCode":"97297","locality":"Waldbüttelbrunn","municipality":{"key":"09679205","name":"Waldbüttelbrunn","type":"Kreisangehörige_Gemeinde"},"district":{"key":"09679","name":"Würzburg","type":"Landkreis"},"federalState":{"key":"09","name":"Bayern"}},{"name":"Karl-Lott-Str.","postalCode":"97297","locality":"Waldbüttelbrunn","municipality":{"key":"09679205","name":"Waldbüttelbrunn","type":"Kreisangehörige_Gemeinde"},"district":{"key":"09679","name":"Würzburg","type":"Landkreis"},"federalState":{"key":"09","name":"Bayern"}},{"name":"Kellergasse","postalCode":"97297","locality":"Waldbüttelbrunn","municipality":{"key":"09679205","name":"Waldbüttelbrunn","type":"Kreisangehörige_Gemeinde"},"district":{"key":"09679","name":"Würzburg","type":"Landkreis"},"federalState":{"key":"09","name":"Bayern"}},{"name":"Keltenpfad","postalCode":"97297","locality":"Waldbüttelbrunn","municipality":{"key":"09679205","name":"Waldbüttelbrunn","type":"Kreisangehörige_Gemeinde"},"district":{"key":"09679","name":"Würzburg","type":"Landkreis"},"federalState":{"key":"09","name":"Bayern"}},{"name":"Kieshof","postalCode":"97297","locality":"Waldbüttelbrunn","municipality":{"key":"09679205","name":"Waldbüttelbrunn","type":"Kreisangehörige_Gemeinde"},"district":{"key":"09679","name":"Würzburg","type":"Landkreis"},"federalState":{"key":"09","name":"Bayern"}},{"name":"Kiesweg","postalCode":"97297","locality":"Waldbüttelbrunn","municipality":{"key":"09679205","name":"Waldbüttelbrunn","type":"Kreisangehörige_Gemeinde"},"district":{"key":"09679","name":"Würzburg","type":"Landkreis"},"federalState":{"key":"09","name":"Bayern"}},{"name":"Kilianstr.","postalCode":"97297","locality":"Waldbüttelbrunn","municipality":{"key":"09679205","name":"Waldbüttelbrunn","type":"Kreisangehörige_Gemeinde"},"district":{"key":"09679","name":"Würzburg","type":"Landkreis"},"federalState":{"key":"09","name":"Bayern"}},{"name":"Kirchenweg","postalCode":"97297","locality":"Waldbüttelbrunn","municipality":{"key":"09679205","name":"Waldbüttelbrunn","type":"Kreisangehörige_Gemeinde"},"district":{"key":"09679","name":"Würzburg","type":"Landkreis"},"federalState":{"key":"09","name":"Bayern"}},{"name":"Kirchstr.","postalCode":"97297","locality":"Waldbüttelbrunn","municipality":{"key":"09679205","name":"Waldbüttelbrunn","type":"Kreisangehörige_Gemeinde"},"district":{"key":"09679","name":"Würzburg","type":"Landkreis"},"federalState":{"key":"09","name":"Bayern"}},{"name":"Kohlentor","postalCode":"97297","locality":"Waldbüttelbrunn","municipality":{"key":"09679205","name":"Waldbüttelbrunn","type":"Kreisangehörige_Gemeinde"},"district":{"key":"09679","name":"Würzburg","type":"Landkreis"},"federalState":{"key":"09","name":"Bayern"}},{"name":"Krautgarten","postalCode":"97297","locality":"Waldbüttelbrunn","municipality":{"key":"09679205","name":"Waldbüttelbrunn","type":"Kreisangehörige_Gemeinde"},"district":{"key":"09679","name":"Würzburg","type":"Landkreis"},"federalState":{"key":"09","name":"Bayern"}},{"name":"Lange Äcker","postalCode":"97297","locality":"Waldbüttelbrunn","municipality":{"key":"09679205","name":"Waldbüttelbrunn","type":"Kreisangehörige_Gemeinde"},"district":{"key":"09679","name":"Würzburg","type":"Landkreis"},"federalState":{"key":"09","name":"Bayern"}},{"name":"Leitenäcker","postalCode":"97297","locality":"Waldbüttelbrunn","municipality":{"key":"09679205","name":"Waldbüttelbrunn","type":"Kreisangehörige_Gemeinde"},"district":{"key":"09679","name":"Würzburg","type":"Landkreis"},"federalState":{"key":"09","name":"Bayern"}},{"name":"Leitensteige","postalCode":"97297","locality":"Waldbüttelbrunn","municipality":{"key":"09679205","name":"Waldbüttelbrunn","type":"Kreisangehörige_Gemeinde"},"district":{"key":"09679","name":"Würzburg","type":"Landkreis"},"federalState":{"key":"09","name":"Bayern"}},{"name":"Lindenstr.","postalCode":"97297","locality":"Waldbüttelbrunn","municipality":{"key":"09679205","name":"Waldbüttelbrunn","type":"Kreisangehörige_Gemeinde"},"district":{"key":"09679","name":"Würzburg","type":"Landkreis"},"federalState":{"key":"09","name":"Bayern"}},{"name":"Linsengarten","postalCode":"97297","locality":"Waldbüttelbrunn","municipality":{"key":"09679205","name":"Waldbüttelbrunn","type":"Kreisangehörige_Gemeinde"},"district":{"key":"09679","name":"Würzburg","type":"Landkreis"},"federalState":{"key":"09","name":"Bayern"}},{"name":"Mädelhofer Str.","postalCode":"97297","locality":"Waldbüttelbrunn","municipality":{"key":"09679205","name":"Waldbüttelbrunn","type":"Kreisangehörige_Gemeinde"},"district":{"key":"09679","name":"Würzburg","type":"Landkreis"},"federalState":{"key":"09","name":"Bayern"}},{"name":"Mainzer Str.","postalCode":"97297","locality":"Waldbüttelbrunn","municipality":{"key":"09679205","name":"Waldbüttelbrunn","type":"Kreisangehörige_Gemeinde"},"district":{"key":"09679","name":"Würzburg","type":"Landkreis"},"federalState":{"key":"09","name":"Bayern"}},{"name":"Maßholderbaumweg","postalCode":"97297","locality":"Waldbüttelbrunn","municipality":{"key":"09679205","name":"Waldbüttelbrunn","type":"Kreisangehörige_Gemeinde"},"district":{"key":"09679","name":"Würzburg","type":"Landkreis"},"federalState":{"key":"09","name":"Bayern"}},{"name":"Maxstr.","postalCode":"97297","locality":"Waldbüttelbrunn","municipality":{"key":"09679205","name":"Waldbüttelbrunn","type":"Kreisangehörige_Gemeinde"},"district":{"key":"09679","name":"Würzburg","type":"Landkreis"},"federalState":{"key":"09","name":"Bayern"}},{"name":"Merowingerstr.","postalCode":"97297","locality":"Waldbüttelbrunn","municipality":{"key":"09679205","name":"Waldbüttelbrunn","type":"Kreisangehörige_Gemeinde"},"district":{"key":"09679","name":"Würzburg","type":"Landkreis"},"federalState":{"key":"09","name":"Bayern"}},{"name":"Neubaustr.","postalCode":"97297","locality":"Waldbüttelbrunn","municipality":{"key":"09679205","name":"Waldbüttelbrunn","type":"Kreisangehörige_Gemeinde"},"district":{"key":"09679","name":"Würzburg","type":"Landkreis"},"federalState":{"key":"09","name":"Bayern"}},{"name":"Neubergstr.","postalCode":"97297","locality":"Waldbüttelbrunn","municipality":{"key":"09679205","name":"Waldbüttelbrunn","type":"Kreisangehörige_Gemeinde"},"district":{"key":"09679","name":"Würzburg","type":"Landkreis"},"federalState":{"key":"09","name":"Bayern"}},{"name":"Obere Pleitenstr.","postalCode":"97297","locality":"Waldbüttelbrunn","municipality":{"key":"09679205","name":"Waldbüttelbrunn","type":"Kreisangehörige_Gemeinde"},"district":{"key":"09679","name":"Würzburg","type":"Landkreis"},"federalState":{"key":"09","name":"Bayern"}},{"name":"Osternstr.","postalCode":"97297","locality":"Waldbüttelbrunn","municipality":{"key":"09679205","name":"Waldbüttelbrunn","type":"Kreisangehörige_Gemeinde"},"district":{"key":"09679","name":"Würzburg","type":"Landkreis"},"federalState":{"key":"09","name":"Bayern"}},{"name":"Paul-Gerhardt-Str.","postalCode":"97297","locality":"Waldbüttelbrunn","municipality":{"key":"09679205","name":"Waldbüttelbrunn","type":"Kreisangehörige_Gemeinde"},"district":{"key":"09679","name":"Würzburg","type":"Landkreis"},"federalState":{"key":"09","name":"Bayern"}},{"name":"Pfarrweg","postalCode":"97297","locality":"Waldbüttelbrunn","municipality":{"key":"09679205","name":"Waldbüttelbrunn","type":"Kreisangehörige_Gemeinde"},"district":{"key":"09679","name":"Würzburg","type":"Landkreis"},"federalState":{"key":"09","name":"Bayern"}},{"name":"Posthäuser","postalCode":"97297","locality":"Waldbüttelbrunn","municipality":{"key":"09679205","name":"Waldbüttelbrunn","type":"Kreisangehörige_Gemeinde"},"district":{"key":"09679","name":"Würzburg","type":"Landkreis"},"federalState":{"key":"09","name":"Bayern"}},{"name":"Raiffeisenstr.","postalCode":"97297","locality":"Waldbüttelbrunn","municipality":{"key":"09679205","name":"Waldbüttelbrunn","type":"Kreisangehörige_Gemeinde"},"district":{"key":"09679","name":"Würzburg","type":"Landkreis"},"federalState":{"key":"09","name":"Bayern"}},{"name":"Reichenstr.","postalCode":"97297","locality":"Waldbüttelbrunn","municipality":{"key":"09679205","name":"Waldbüttelbrunn","type":"Kreisangehörige_Gemeinde"},"district":{"key":"09679","name":"Würzburg","type":"Landkreis"},"federalState":{"key":"09","name":"Bayern"}},{"name":"Ringstr.","postalCode":"97297","locality":"Waldbüttelbrunn","municipality":{"key":"09679205","name":"Waldbüttelbrunn","type":"Kreisangehörige_Gemeinde"},"district":{"key":"09679","name":"Würzburg","type":"Landkreis"},"federalState":{"key":"09","name":"Bayern"}},{"name":"Rosenhain","postalCode":"97297","locality":"Waldbüttelbrunn","municipality":{"key":"09679205","name":"Waldbüttelbrunn","type":"Kreisangehörige_Gemeinde"},"district":{"key":"09679","name":"Würzburg","type":"Landkreis"},"federalState":{"key":"09","name":"Bayern"}},{"name":"Roßbrunner Str.","postalCode":"97297","locality":"Waldbüttelbrunn","municipality":{"key":"09679205","name":"Waldbüttelbrunn","type":"Kreisangehörige_Gemeinde"},"district":{"key":"09679","name":"Würzburg","type":"Landkreis"},"federalState":{"key":"09","name":"Bayern"}},{"name":"Rouchesbrunnstr.","postalCode":"97297","locality":"Waldbüttelbrunn","municipality":{"key":"09679205","name":"Waldbüttelbrunn","type":"Kreisangehörige_Gemeinde"},"district":{"key":"09679","name":"Würzburg","type":"Landkreis"},"federalState":{"key":"09","name":"Bayern"}},{"name":"Sankt-Burkard-Str.","postalCode":"97297","locality":"Waldbüttelbrunn","municipality":{"key":"09679205","name":"Waldbüttelbrunn","type":"Kreisangehörige_Gemeinde"},"district":{"key":"09679","name":"Würzburg","type":"Landkreis"},"federalState":{"key":"09","name":"Bayern"}},{"name":"Schulstr.","postalCode":"97297","locality":"Waldbüttelbrunn","municipality":{"key":"09679205","name":"Waldbüttelbrunn","type":"Kreisangehörige_Gemeinde"},"district":{"key":"09679","name":"Würzburg","type":"Landkreis"},"federalState":{"key":"09","name":"Bayern"}},{"name":"Schwedenweg","postalCode":"97297","locality":"Waldbüttelbrunn","municipality":{"key":"09679205","name":"Waldbüttelbrunn","type":"Kreisangehörige_Gemeinde"},"district":{"key":"09679","name":"Würzburg","type":"Landkreis"},"federalState":{"key":"09","name":"Bayern"}},{"name":"Seegarten","postalCode":"97297","locality":"Waldbüttelbrunn","municipality":{"key":"09679205","name":"Waldbüttelbrunn","type":"Kreisangehörige_Gemeinde"},"district":{"key":"09679","name":"Würzburg","type":"Landkreis"},"federalState":{"key":"09","name":"Bayern"}},{"name":"Seeweg","postalCode":"97297","locality":"Waldbüttelbrunn","municipality":{"key":"09679205","name":"Waldbüttelbrunn","type":"Kreisangehörige_Gemeinde"},"district":{"key":"09679","name":"Würzburg","type":"Landkreis"},"federalState":{"key":"09","name":"Bayern"}},{"name":"Sonnenstr.","postalCode":"97297","locality":"Waldbüttelbrunn","municipality":{"key":"09679205","name":"Waldbüttelbrunn","type":"Kreisangehörige_Gemeinde"},"district":{"key":"09679","name":"Würzburg","type":"Landkreis"},"federalState":{"key":"09","name":"Bayern"}},{"name":"Spessartstr.","postalCode":"97297","locality":"Waldbüttelbrunn","municipality":{"key":"09679205","name":"Waldbüttelbrunn","type":"Kreisangehörige_Gemeinde"},"district":{"key":"09679","name":"Würzburg","type":"Landkreis"},"federalState":{"key":"09","name":"Bayern"}},{"name":"Sportplatzstr.","postalCode":"97297","locality":"Waldbüttelbrunn","municipality":{"key":"09679205","name":"Waldbüttelbrunn","type":"Kreisangehörige_Gemeinde"},"district":{"key":"09679","name":"Würzburg","type":"Landkreis"},"federalState":{"key":"09","name":"Bayern"}},{"name":"St2436","postalCode":"97297","locality":"Waldbüttelbrunn","municipality":{"key":"09679205","name":"Waldbüttelbrunn","type":"Kreisangehörige_Gemeinde"},"district":{"key":"09679","name":"Würzburg","type":"Landkreis"},"federalState":{"key":"09","name":"Bayern"}},{"name":"St.-Burkard-Str.","postalCode":"97297","locality":"Waldbüttelbrunn","municipality":{"key":"09679205","name":"Waldbüttelbrunn","type":"Kreisangehörige_Gemeinde"},"district":{"key":"09679","name":"Würzburg","type":"Landkreis"},"federalState":{"key":"09","name":"Bayern"}},{"name":"St.-Gertrud-Str.","postalCode":"97297","locality":"Waldbüttelbrunn","municipality":{"key":"09679205","name":"Waldbüttelbrunn","type":"Kreisangehörige_Gemeinde"},"district":{"key":"09679","name":"Würzburg","type":"Landkreis"},"federalState":{"key":"09","name":"Bayern"}},{"name":"Stöckleinsweg","postalCode":"97297","locality":"Waldbüttelbrunn","municipality":{"key":"09679205","name":"Waldbüttelbrunn","type":"Kreisangehörige_Gemeinde"},"district":{"key":"09679","name":"Würzburg","type":"Landkreis"},"federalState":{"key":"09","name":"Bayern"}},{"name":"Sumpfler","postalCode":"97297","locality":"Waldbüttelbrunn","municipality":{"key":"09679205","name":"Waldbüttelbrunn","type":"Kreisangehörige_Gemeinde"},"district":{"key":"09679","name":"Würzburg","type":"Landkreis"},"federalState":{"key":"09","name":"Bayern"}},{"name":"Tannenstr.","postalCode":"97297","locality":"Waldbüttelbrunn","municipality":{"key":"09679205","name":"Waldbüttelbrunn","type":"Kreisangehörige_Gemeinde"},"district":{"key":"09679","name":"Würzburg","type":"Landkreis"},"federalState":{"key":"09","name":"Bayern"}},{"name":"Triebweg","postalCode":"97297","locality":"Waldbüttelbrunn","municipality":{"key":"09679205","name":"Waldbüttelbrunn","type":"Kreisangehörige_Gemeinde"},"district":{"key":"09679","name":"Würzburg","type":"Landkreis"},"federalState":{"key":"09","name":"Bayern"}},{"name":"Uettinger Str.","postalCode":"97297","locality":"Waldbüttelbrunn","municipality":{"key":"09679205","name":"Waldbüttelbrunn","type":"Kreisangehörige_Gemeinde"},"district":{"key":"09679","name":"Würzburg","type":"Landkreis"},"federalState":{"key":"09","name":"Bayern"}},{"name":"Untere Pleitenstr.","postalCode":"97297","locality":"Waldbüttelbrunn","municipality":{"key":"09679205","name":"Waldbüttelbrunn","type":"Kreisangehörige_Gemeinde"},"district":{"key":"09679","name":"Würzburg","type":"Landkreis"},"federalState":{"key":"09","name":"Bayern"}},{"name":"Valentin-Becker-Str.","postalCode":"97072","locality":"Würzburg","municipality":{"key":"09663000","name":"Würzburg","type":"Kreisfreie_Stadt"},"district":{"key":"09663","name":"Würzburg","type":"Kreisfreie_Stadt"},"federalState":{"key":"09","name":"Bayern"}},{"name":"Veitshöchheimer Str.","postalCode":"97070","locality":"Würzburg","municipality":{"key":"09663000","name":"Würzburg","type":"Kreisfreie_Stadt"},"district":{"key":"09663","name":"Würzburg","type":"Kreisfreie_Stadt"},"federalState":{"key":"09","name":"Bayern"}},{"name":"Veitshöchheimer Str.","postalCode":"97080","locality":"Würzburg","municipality":{"key":"09663000","name":"Würzburg","type":"Kreisfreie_Stadt"},"district":{"key":"09663","name":"Würzburg","type":"Kreisfreie_Stadt"},"federalState":{"key":"09","name":"Bayern"}},{"name":"Versbacher Landstr.","postalCode":"97078","locality":"Würzburg","municipality":{"key":"09663000","name":"Würzburg","type":"Kreisfreie_Stadt"},"district":{"key":"09663","name":"Würzburg","type":"Kreisfreie_Stadt"},"federalState":{"key":"09","name":"Bayern"}},{"name":"Versbacher Röthe","postalCode":"97078","locality":"Würzburg","municipality":{"key":"09663000","name":"Würzburg","type":"Kreisfreie_Stadt"},"district":{"key":"09663","name":"Würzburg","type":"Kreisfreie_Stadt"},"federalState":{"key":"09","name":"Bayern"}},{"name":"Versbacher Str.","postalCode":"97078","locality":"Würzburg","municipality":{"key":"09663000","name":"Würzburg","type":"Kreisfreie_Stadt"},"district":{"key":"09663","name":"Würzburg","type":"Kreisfreie_Stadt"},"federalState":{"key":"09","name":"Bayern"}},{"name":"Vierwindenweg","postalCode":"97078","locality":"Würzburg","municipality":{"key":"09663000","name":"Würzburg","type":"Kreisfreie_Stadt"},"district":{"key":"09663","name":"Würzburg","type":"Kreisfreie_Stadt"},"federalState":{"key":"09","name":"Bayern"}},{"name":"Villengarten","postalCode":"97082","locality":"Würzburg","municipality":{"key":"09663000","name":"Würzburg","type":"Kreisfreie_Stadt"},"district":{"key":"09663","name":"Würzburg","type":"Kreisfreie_Stadt"},"federalState":{"key":"09","name":"Bayern"}},{"name":"Virchowstr.","postalCode":"97072","locality":"Würzburg","municipality":{"key":"09663000","name":"Würzburg","type":"Kreisfreie_Stadt"},"district":{"key":"09663","name":"Würzburg","type":"Kreisfreie_Stadt"},"federalState":{"key":"09","name":"Bayern"}},{"name":"Vogelsangweg","postalCode":"97076","locality":"Würzburg","municipality":{"key":"09663000","name":"Würzburg","type":"Kreisfreie_Stadt"},"district":{"key":"09663","name":"Würzburg","type":"Kreisfreie_Stadt"},"federalState":{"key":"09","name":"Bayern"}},{"name":"Voglerstr.","postalCode":"97074","locality":"Würzburg","municipality":{"key":"09663000","name":"Würzburg","type":"Kreisfreie_Stadt"},"district":{"key":"09663","name":"Würzburg","type":"Kreisfreie_Stadt"},"federalState":{"key":"09","name":"Bayern"}},{"name":"Von-Luxburg-Str.","postalCode":"97074","locality":"Würzburg","municipality":{"key":"09663000","name":"Würzburg","type":"Kreisfreie_Stadt"},"district":{"key":"09663","name":"Würzburg","type":"Kreisfreie_Stadt"},"federalState":{"key":"09","name":"Bayern"}},{"name":"Von-Mieg-Str.","postalCode":"97082","locality":"Würzburg","municipality":{"key":"09663000","name":"Würzburg","type":"Kreisfreie_Stadt"},"district":{"key":"09663","name":"Würzburg","type":"Kreisfreie_Stadt"},"federalState":{"key":"09","name":"Bayern"}},{"name":"Wannweg","postalCode":"97297","locality":"Waldbüttelbrunn","municipality":{"key":"09679205","name":"Waldbüttelbrunn","type":"Kreisangehörige_Gemeinde"},"district":{"key":"09679","name":"Würzburg","type":"Landkreis"},"federalState":{"key":"09","name":"Bayern"}},{"name":"Werner-Pomikal-Ring","postalCode":"97297","locality":"Waldbüttelbrunn","municipality":{"key":"09679205","name":"Waldbüttelbrunn","type":"Kreisangehörige_Gemeinde"},"district":{"key":"09679","name":"Würzburg","type":"Landkreis"},"federalState":{"key":"09","name":"Bayern"}},{"name":"Wertheimer Str.","postalCode":"97297","locality":"Waldbüttelbrunn","municipality":{"key":"09679205","name":"Waldbüttelbrunn","type":"Kreisangehörige_Gemeinde"},"district":{"key":"09679","name":"Würzburg","type":"Landkreis"},"federalState":{"key":"09","name":"Bayern"}},{"name":"Wiesentor","postalCode":"97297","locality":"Waldbüttelbrunn","municipality":{"key":"09679205","name":"Waldbüttelbrunn","type":"Kreisangehörige_Gemeinde"},"district":{"key":"09679","name":"Würzburg","type":"Landkreis"},"federalState":{"key":"09","name":"Bayern"}},{"name":"Wiesenweg","postalCode":"97297","locality":"Waldbüttelbrunn","municipality":{"key":"09679205","name":"Waldbüttelbrunn","type":"Kreisangehörige_Gemeinde"},"district":{"key":"09679","name":"Würzburg","type":"Landkreis"},"federalState":{"key":"09","name":"Bayern"}},{"name":"Winterleite","postalCode":"97297","locality":"Waldbüttelbrunn","municipality":{"key":"09679205","name":"Waldbüttelbrunn","type":"Kreisangehörige_Gemeinde"},"district":{"key":"09679","name":"Würzburg","type":"Landkreis"},"federalState":{"key":"09","name":"Bayern"}},{"name":"Würzburger Str.","postalCode":"97297","locality":"Waldbüttelbrunn","municipality":{"key":"09679205","name":"Waldbüttelbrunn","type":"Kreisangehörige_Gemeinde"},"district":{"key":"09679","name":"Würzburg","type":"Landkreis"},"federalState":{"key":"09","name":"Bayern"}},{"name":"Ysenburgstr.","postalCode":"97082","locality":"Würzburg","municipality":{"key":"09663000","name":"Würzburg","type":"Kreisfreie_Stadt"},"district":{"key":"09663","name":"Würzburg","type":"Kreisfreie_Stadt"},"federalState":{"key":"09","name":"Bayern"}},{"name":"Y-Spange","postalCode":"97084","locality":"Würzburg","municipality":{"key":"09663000","name":"Würzburg","type":"Kreisfreie_Stadt"},"district":{"key":"09663","name":"Würzburg","type":"Kreisfreie_Stadt"},"federalState":{"key":"09","name":"Bayern"}},{"name":"Zeller Str.","postalCode":"97297","locality":"Waldbüttelbrunn","municipality":{"key":"09679205","name":"Waldbüttelbrunn","type":"Kreisangehörige_Gemeinde"},"district":{"key":"09679","name":"Würzburg","type":"Landkreis"},"federalState":{"key":"09","name":"Bayern"}},{"name":"Äußere Aumühlstr.","postalCode":"97076","locality":"Würzburg","municipality":{"key":"09663000","name":"Würzburg","type":"Kreisfreie_Stadt"},"district":{"key":"09663","name":"Würzburg","type":"Kreisfreie_Stadt"},"federalState":{"key":"09","name":"Bayern"}},{"name":"Äußerer Hublandweg","postalCode":"97074","locality":"Würzburg","municipality":{"key":"09663000","name":"Würzburg","type":"Kreisfreie_Stadt"},"district":{"key":"09663","name":"Würzburg","type":"Kreisfreie_Stadt"},"federalState":{"key":"09","name":"Bayern"}},{"name":"Äußerer Neubergweg","postalCode":"97074","locality":"Würzburg","municipality":{"key":"09663000","name":"Würzburg","type":"Kreisfreie_Stadt"},"district":{"key":"09663","name":"Würzburg","type":"Kreisfreie_Stadt"},"federalState":{"key":"09","name":"Bayern"}},{"name":"Äußerer Tränkeweg","postalCode":"97074","locality":"Würzburg","municipality":{"key":"09663000","name":"Würzburg","type":"Kreisfreie_Stadt"},"district":{"key":"09663","name":"Würzburg","type":"Kreisfreie_Stadt"},"federalState":{"key":"09","name":"Bayern"}},{"name":"Öhlberg","postalCode":"97080","locality":"Würzburg","municipality":{"key":"09663000","name":"Würzburg","type":"Kreisfreie_Stadt"},"district":{"key":"09663","name":"Würzburg","type":"Kreisfreie_Stadt"},"federalState":{"key":"09","name":"Bayern"}},]