[{"key":"10251775","name":"Alpweg","postalCode":"3928","locality":"Randa","commune":{"key":"6287","name":"Randa","shortName":"Randa"},"district":{"key":"2313","name":"Bezirk Visp"},"canton":{"key":"23","code":"VS","name":"Valais / Wallis"},"status":"Real"},{"key":"10251781","name":"Alte Kantonsstrasse","postalCode":"3928","locality":"Randa","commune":{"key":"6287","name":"Randa","shortName":"Randa"},"district":{"key":"2313","name":"Bezirk Visp"},"canton":{"key":"23","code":"VS","name":"Valais / Wallis"},"status":"Real"},{"key":"10251789","name":"Antoniusweg","postalCode":"3928","locality":"Randa","commune":{"key":"6287","name":"Randa","shortName":"Randa"},"district":{"key":"2313","name":"Bezirk Visp"},"canton":{"key":"23","code":"VS","name":"Valais / Wallis"},"status":"Real"},{"key":"10251793","name":"Attermenzenstrasse","postalCode":"3928","locality":"Randa","commune":{"key":"6287","name":"Randa","shortName":"Randa"},"district":{"key":"2313","name":"Bezirk Visp"},"canton":{"key":"23","code":"VS","name":"Valais / Wallis"},"status":"Real"},{"key":"10251787","name":"Bahnhofstrasse","postalCode":"3928","locality":"Randa","commune":{"key":"6287","name":"Randa","shortName":"Randa"},"district":{"key":"2313","name":"Bezirk Visp"},"canton":{"key":"23","code":"VS","name":"Valais / Wallis"},"status":"Real"},{"key":"10251792","name":"Brandachernweg","postalCode":"3928","locality":"Randa","commune":{"key":"6287","name":"Randa","shortName":"Randa"},"district":{"key":"2313","name":"Bezirk Visp"},"canton":{"key":"23","code":"VS","name":"Valais / Wallis"},"status":"Real"},{"key":"10251796","name":"Domhüttenweg","postalCode":"3928","locality":"Randa","commune":{"key":"6287","name":"Randa","shortName":"Randa"},"district":{"key":"2313","name":"Bezirk Visp"},"canton":{"key":"23","code":"VS","name":"Valais / Wallis"},"status":"Real"},{"key":"10251788","name":"Dorfstrasse","postalCode":"3928","locality":"Randa","commune":{"key":"6287","name":"Randa","shortName":"Randa"},"district":{"key":"2313","name":"Bezirk Visp"},"canton":{"key":"23","code":"VS","name":"Valais / Wallis"},"status":"Real"},{"key":"10251791","name":"Eggenweg","postalCode":"3928","locality":"Randa","commune":{"key":"6287","name":"Randa","shortName":"Randa"},"district":{"key":"2313","name":"Bezirk Visp"},"canton":{"key":"23","code":"VS","name":"Valais / Wallis"},"status":"Real"},{"key":"10251795","name":"Flurstrasse","postalCode":"3928","locality":"Randa","commune":{"key":"6287","name":"Randa","shortName":"Randa"},"district":{"key":"2313","name":"Bezirk Visp"},"canton":{"key":"23","code":"VS","name":"Valais / Wallis"},"status":"Real"},{"key":"10251797","name":"Forststrasse","postalCode":"3928","locality":"Randa","commune":{"key":"6287","name":"Randa","shortName":"Randa"},"district":{"key":"2313","name":"Bezirk Visp"},"canton":{"key":"23","code":"VS","name":"Valais / Wallis"},"status":"Real"},{"key":"10251798","name":"Hofstettenweg","postalCode":"3928","locality":"Randa","commune":{"key":"6287","name":"Randa","shortName":"Randa"},"district":{"key":"2313","name":"Bezirk Visp"},"canton":{"key":"23","code":"VS","name":"Valais / Wallis"},"status":"Real"},{"key":"10251783","name":"Hubelweg","postalCode":"3928","locality":"Randa","commune":{"key":"6287","name":"Randa","shortName":"Randa"},"district":{"key":"2313","name":"Bezirk Visp"},"canton":{"key":"23","code":"VS","name":"Valais / Wallis"},"status":"Real"},{"key":"10251777","name":"Kantonsstrasse","postalCode":"3928","locality":"Randa","commune":{"key":"6287","name":"Randa","shortName":"Randa"},"district":{"key":"2313","name":"Bezirk Visp"},"canton":{"key":"23","code":"VS","name":"Valais / Wallis"},"status":"Real"},{"key":"10046589","name":"Kantonsstrasse","postalCode":"3928","locality":"Randa","commune":{"key":"6287","name":"Randa","shortName":"Randa"},"district":{"key":"2313","name":"Bezirk Visp"},"canton":{"key":"23","code":"VS","name":"Valais / Wallis"},"status":"Real"},{"key":"10251785","name":"Kapellenweg","postalCode":"3928","locality":"Randa","commune":{"key":"6287","name":"Randa","shortName":"Randa"},"district":{"key":"2313","name":"Bezirk Visp"},"canton":{"key":"23","code":"VS","name":"Valais / Wallis"},"status":"Real"},{"key":"10251776","name":"Kirchweg","postalCode":"3928","locality":"Randa","commune":{"key":"6287","name":"Randa","shortName":"Randa"},"district":{"key":"2313","name":"Bezirk Visp"},"canton":{"key":"23","code":"VS","name":"Valais / Wallis"},"status":"Real"},{"key":"10251782","name":"Kühbodmenweg","postalCode":"3928","locality":"Randa","commune":{"key":"6287","name":"Randa","shortName":"Randa"},"district":{"key":"2313","name":"Bezirk Visp"},"canton":{"key":"23","code":"VS","name":"Valais / Wallis"},"status":"Real"},{"key":"10251790","name":"Lerchstrasse","postalCode":"3928","locality":"Randa","commune":{"key":"6287","name":"Randa","shortName":"Randa"},"district":{"key":"2313","name":"Bezirk Visp"},"canton":{"key":"23","code":"VS","name":"Valais / Wallis"},"status":"Real"},{"key":"10073608","name":"Obere Wildi","postalCode":"3928","locality":"Randa","commune":{"key":"6287","name":"Randa","shortName":"Randa"},"district":{"key":"2313","name":"Bezirk Visp"},"canton":{"key":"23","code":"VS","name":"Valais / Wallis"},"status":"Real"},{"key":"10251774","name":"Oberhäusernweg","postalCode":"3928","locality":"Randa","commune":{"key":"6287","name":"Randa","shortName":"Randa"},"district":{"key":"2313","name":"Bezirk Visp"},"canton":{"key":"23","code":"VS","name":"Valais / Wallis"},"status":"Real"},{"key":"10251780","name":"Retinenweg","postalCode":"3928","locality":"Randa","commune":{"key":"6287","name":"Randa","shortName":"Randa"},"district":{"key":"2313","name":"Bezirk Visp"},"canton":{"key":"23","code":"VS","name":"Valais / Wallis"},"status":"Real"},{"key":"10251784","name":"Rosswang","postalCode":"3928","locality":"Randa","commune":{"key":"6287","name":"Randa","shortName":"Randa"},"district":{"key":"2313","name":"Bezirk Visp"},"canton":{"key":"23","code":"VS","name":"Valais / Wallis"},"status":"Real"},{"key":"10251779","name":"Schalachernweg","postalCode":"3928","locality":"Randa","commune":{"key":"6287","name":"Randa","shortName":"Randa"},"district":{"key":"2313","name":"Bezirk Visp"},"canton":{"key":"23","code":"VS","name":"Valais / Wallis"},"status":"Real"},{"key":"10251786","name":"Schaliweg","postalCode":"3928","locality":"Randa","commune":{"key":"6287","name":"Randa","shortName":"Randa"},"district":{"key":"2313","name":"Bezirk Visp"},"canton":{"key":"23","code":"VS","name":"Valais / Wallis"},"status":"Real"},{"key":"10251794","name":"Unteres Randa","postalCode":"3928","locality":"Randa","commune":{"key":"6287","name":"Randa","shortName":"Randa"},"district":{"key":"2313","name":"Bezirk Visp"},"canton":{"key":"23","code":"VS","name":"Valais / Wallis"},"status":"Real"},{"key":"10047194","name":"Untere Wildi","postalCode":"3928","locality":"Randa","commune":{"key":"6287","name":"Randa","shortName":"Randa"},"district":{"key":"2313","name":"Bezirk Visp"},"canton":{"key":"23","code":"VS","name":"Valais / Wallis"},"status":"Real"},{"key":"10251773","name":"Waldweg","postalCode":"3928","locality":"Randa","commune":{"key":"6287","name":"Randa","shortName":"Randa"},"district":{"key":"2313","name":"Bezirk Visp"},"canton":{"key":"23","code":"VS","name":"Valais / Wallis"},"status":"Real"},{"key":"10251778","name":"Weriweg","postalCode":"3928","locality":"Randa","commune":{"key":"6287","name":"Randa","shortName":"Randa"},"district":{"key":"2313","name":"Bezirk Visp"},"canton":{"key":"23","code":"VS","name":"Valais / Wallis"},"status":"Real"},]